# STATION: KIGQ
# STATION NAME: Lansing Municipal Airport
# LATITUDE: 41.54125
# LONGITUDE: -87.52822
# ELEVATION [ft]: 607
# STATE: IL
Station_ID,Date_Time,altimeter_set_1,air_temp_set_1,dew_point_temperature_set_1,relative_humidity_set_1,wind_speed_set_1,wind_direction_set_1,wind_gust_set_1,weather_cond_code_set_1,cloud_layer_3_code_set_1,precip_accum_one_hour_set_1,precip_accum_three_hour_set_1,cloud_layer_1_code_set_1,cloud_layer_2_code_set_1,precip_accum_six_hour_set_1,precip_accum_24_hour_set_1,visibility_set_1,metar_remark_set_1,metar_set_1,air_temp_high_6_hour_set_1,air_temp_low_6_hour_set_1,ceiling_set_1,air_temp_high_24_hour_set_1,air_temp_low_24_hour_set_1,dew_point_temperature_set_1d,wind_chill_set_1d,wind_cardinal_direction_set_1d,pressure_set_1d,sea_level_pressure_set_1d,heat_index_set_1d,weather_condition_set_1d
,,INHG,Fahrenheit,Fahrenheit,%,Miles/hour,Degrees,Miles/hour,code,code,Inches,Inches,code,code,Inches,Inches,Statute miles,text,text,Fahrenheit,Fahrenheit,Feet,Fahrenheit,Fahrenheit,Fahrenheit,Fahrenheit,Code,INHG,INHG,Fahrenheit,Code
KIGQ,01/01/2017 02:55 UTC,29.93,26.96,22.1,86.04,3.44,230.0,,,,,,1.0,,,,10.0,,KIGQ 010255Z AUTO 23003KT 10SM CLR M03/M05 A2993 RMK AO2  T10281055,,,,,,23.29,,SW,29.28,29.65,,Clear
KIGQ,01/01/2017 03:15 UTC,29.94,25.7,21.56,79.74,6.91,230.0,,,,,,1.0,,,,10.0,,KIGQ 010315Z AUTO 23006KT 10SM CLR M03/M06 A2994 RMK AO2  T10351058,,,,,,20.23,,SW,29.29,29.7,,Clear
KIGQ,01/01/2017 03:35 UTC,29.95,25.7,22.1,86.04,5.75,240.0,,,,,,1.0,,,,10.0,,KIGQ 010335Z AUTO 24005KT 10SM CLR M03/M05 A2995 RMK AO2  T10351055,,,,,,22.05,,WSW,29.3,29.69,,Clear
KIGQ,01/01/2017 03:55 UTC,29.95,25.34,22.1,92.73,4.61,240.0,,,,,,1.0,,,,10.0,,KIGQ 010355Z AUTO 24004KT 10SM CLR M04/M05 A2995 RMK AO2  T10371055,,,,,,23.5,,WSW,29.3,29.68,,Clear
KIGQ,01/01/2017 04:15 UTC,29.96,26.06,22.64,86.04,4.61,270.0,,,,,,1.0,,,,10.0,,KIGQ 010415Z AUTO 27004KT 10SM CLR M03/M05 A2996 RMK AO2  T10331052,,,,,,22.41,,W,29.31,29.7,,Clear
KIGQ,01/01/2017 04:35 UTC,29.96,25.88,22.46,86.04,4.61,280.0,,,,,,1.0,,,,10.0,,KIGQ 010435Z AUTO 28004KT 10SM CLR M03/M05 A2996 RMK AO2  T10341053,,,,,,22.23,,W,29.31,29.7,,Clear
KIGQ,01/01/2017 04:55 UTC,29.98,25.52,22.1,92.73,3.44,260.0,,,,,,1.0,,,,10.0,,KIGQ 010455Z AUTO 26003KT 10SM CLR M04/M05 A2998 RMK AO2  T10361055,,,,,,23.68,,W,29.33,29.71,,Clear
KIGQ,01/01/2017 05:15 UTC,29.98,25.16,22.1,92.73,3.44,260.0,,,,,,1.0,,,,10.0,,KIGQ 010515Z AUTO 26003KT 10SM CLR M04/M05 A2998 RMK AO2  T10381055,,,,,,23.32,,W,29.33,29.72,,Clear
KIGQ,01/01/2017 05:35 UTC,29.98,23.0,20.48,92.67,4.61,260.0,,,,,,1.0,,,,10.0,,KIGQ 010535Z AUTO 26004KT 10SM CLR M05/M06 A2998 RMK AO2  T10501064,,,,,,21.17,,W,29.33,29.75,,Clear
KIGQ,01/01/2017 05:55 UTC,29.99,23.36,20.84,92.67,3.44,270.0,,,,,,1.0,,,,10.0,,KIGQ 010555Z AUTO 27003KT 10SM CLR M05/M06 A2999 RMK AO2 T10481062  10000 21051 400541051,32.0,22.82,,41.72,22.82,21.52,,W,29.34,29.75,,Clear
KIGQ,01/01/2017 06:15 UTC,29.99,24.62,22.1,92.73,0.0,0.0,,,,,,1.0,,,,10.0,,KIGQ 010615Z AUTO 00000KT 10SM CLR M04/M05 A2999 RMK AO2  T10411055,,,,,,22.79,,N,29.34,29.73,,Clear
KIGQ,01/01/2017 06:35 UTC,29.99,22.1,20.12,85.82,0.0,0.0,,,,,,1.0,,,,10.0,,KIGQ 010635Z AUTO 00000KT 10SM CLR M05/M07 A2999 RMK AO2  T10551066,,,,,,18.45,,N,29.34,29.79,,Clear
KIGQ,01/01/2017 06:55 UTC,29.99,21.74,20.3,100.0,0.0,0.0,,,,,,1.0,,,,10.0,,KIGQ 010655Z AUTO 00000KT 10SM CLR M06/M06 A2999 RMK AO2  T10571065,,,,,,21.74,,N,29.34,29.76,,Clear
KIGQ,01/01/2017 07:15 UTC,30.0,21.2,20.12,92.61,0.0,0.0,,,,,,1.0,,,,10.0,,KIGQ 010715Z AUTO 00000KT 10SM CLR M06/M07 A3000 RMK AO2  T10601066,,,,,,19.37,,N,29.35,29.79,,Clear
KIGQ,01/01/2017 07:35 UTC,30.01,22.1,21.2,92.67,0.0,0.0,,,,,,1.0,,,,10.0,,KIGQ 010735Z AUTO 00000KT 10SM CLR M05/M06 A3001 RMK AO2  T10551060,,,,,,20.28,,N,29.36,29.79,,Clear
KIGQ,01/01/2017 07:55 UTC,30.02,19.58,18.86,100.0,5.75,200.0,,,,,,1.0,,,,10.0,,KIGQ 010755Z AUTO 20005KT 10SM CLR M07/M07 A3002 RMK AO2  T10691073,,,,,,19.58,,SSW,29.37,29.82,,Clear
KIGQ,01/01/2017 08:15 UTC,30.03,19.22,18.32,92.55,0.0,0.0,,,,,,1.0,,,,10.0,,KIGQ 010815Z AUTO 00000KT 10SM CLR M07/M08 A3003 RMK AO2  T10711076,,,,,,17.39,,N,29.38,29.85,,Clear
KIGQ,01/01/2017 08:35 UTC,30.03,20.66,19.94,92.61,0.0,0.0,,,,,,1.0,,,,10.0,,KIGQ 010835Z AUTO 00000KT 10SM CLR M06/M07 A3003 RMK AO2  T10631067,,,,,,18.83,,N,29.38,29.83,,Clear
KIGQ,01/01/2017 08:55 UTC,30.04,20.66,19.58,92.61,0.0,0.0,,,,,,1.0,,,,10.0,,KIGQ 010855Z AUTO 00000KT 10SM CLR M06/M07 A3004 RMK AO2  T10631069,,,,,,18.83,,N,29.39,29.84,,Clear
KIGQ,01/01/2017 09:15 UTC,30.05,20.12,19.22,100.0,0.0,0.0,,,,,,1.0,,,,10.0,,KIGQ 010915Z AUTO 00000KT 10SM CLR M07/M07 A3005 RMK AO2  T10661071,,,,,,20.12,,N,29.4,29.84,,Clear
KIGQ,01/01/2017 09:35 UTC,30.05,17.42,16.7,100.0,4.61,190.0,,,,,,1.0,,,,7.0,,KIGQ 010935Z AUTO 19004KT 7SM CLR M08/M08 A3005 RMK AO2  T10811085,,,,,,17.42,,S,29.4,29.88,,Clear
KIGQ,01/01/2017 09:55 UTC,30.06,17.96,17.42,100.0,3.44,200.0,,,,,,1.0,,,,10.0,,KIGQ 010955Z AUTO 20003KT 10SM CLR M08/M08 A3006 RMK AO2  T10781081,,,,,,17.96,,SSW,29.41,29.88,,Clear
KIGQ,01/01/2017 10:15 UTC,30.06,17.96,17.06,100.0,3.44,190.0,,,,,,1.0,,,,7.0,,KIGQ 011015Z AUTO 19003KT 7SM CLR M08/M08 A3006 RMK AO2  T10781083,,,,,,17.96,,S,29.41,29.88,,Clear
KIGQ,01/01/2017 10:35 UTC,30.06,18.14,17.6,100.0,4.61,180.0,,,,,,1.0,,,,7.0,,KIGQ 011035Z AUTO 18004KT 7SM CLR M08/M08 A3006 RMK AO2  T10771080,,,,,,18.14,,S,29.41,29.88,,Clear
KIGQ,01/01/2017 10:55 UTC,30.07,17.96,17.06,100.0,5.75,200.0,,,,,,1.0,,,,7.0,,KIGQ 011055Z AUTO 20005KT 7SM CLR M08/M08 A3007 RMK AO2  T10781083,,,,,,17.96,,SSW,29.42,29.89,,Clear
KIGQ,01/01/2017 11:15 UTC,30.08,19.4,19.04,100.0,5.75,210.0,,,,,,1.0,,,,10.0,,KIGQ 011115Z AUTO 21005KT 10SM CLR M07/M07 A3008 RMK AO2  T10701072,,,,,,19.4,,SSW,29.43,29.88,,Clear
KIGQ,01/01/2017 11:35 UTC,30.09,18.68,18.14,92.55,5.75,200.0,,,,,,1.0,,,,7.0,,KIGQ 011135Z AUTO 20005KT 7SM CLR M07/M08 A3009 RMK AO2  T10741077,,,,,,16.85,,SSW,29.44,29.92,,Clear
KIGQ,01/01/2017 11:55 UTC,30.09,19.04,18.32,92.55,5.75,200.0,,,,,,1.0,,,,7.0,,KIGQ 011155Z AUTO 20005KT 7SM CLR M07/M08 A3009 RMK AO2 T10721076  11040 21084,24.8,16.88,,,,17.21,,SSW,29.44,29.91,,Clear
KIGQ,01/01/2017 12:15 UTC,30.1,20.12,19.58,100.0,6.91,210.0,,,,,,1.0,,,,7.0,,KIGQ 011215Z AUTO 21006KT 7SM CLR M07/M07 A3010 RMK AO2  T10661069,,,,,,20.12,,SSW,29.45,29.9,,Clear
KIGQ,01/01/2017 12:35 UTC,30.11,20.12,19.4,100.0,4.61,220.0,,,,,,1.0,,,,7.0,,KIGQ 011235Z AUTO 22004KT 7SM CLR M07/M07 A3011 RMK AO2  T10661070,,,,,,20.12,,SW,29.46,29.91,,Clear
KIGQ,01/01/2017 12:55 UTC,30.11,19.94,19.22,100.0,3.44,220.0,,,,,,1.0,,,,7.0,,KIGQ 011255Z AUTO 22003KT 7SM CLR M07/M07 A3011 RMK AO2  T10671071,,,,,,19.94,,SW,29.46,29.91,,Clear
KIGQ,01/01/2017 13:15 UTC,30.12,18.32,17.78,100.0,3.44,220.0,,,,,,1.0,,,,7.0,,KIGQ 011315Z AUTO 22003KT 7SM CLR M08/M08 A3012 RMK AO2  T10761079,,,,,,18.32,,SW,29.47,29.94,,Clear
KIGQ,01/01/2017 13:35 UTC,30.12,17.78,17.24,100.0,3.44,210.0,,,,,,1.0,,,,7.0,,KIGQ 011335Z AUTO 21003KT 7SM CLR M08/M08 A3012 RMK AO2  T10791082,,,,,,17.78,,SSW,29.47,29.95,,Clear
KIGQ,01/01/2017 13:55 UTC,30.13,18.68,18.32,92.55,0.0,0.0,,,,,,1.0,,,,7.0,,KIGQ 011355Z AUTO 00000KT 7SM CLR M07/M08 A3013 RMK AO2  T10741076,,,,,,16.85,,N,29.47,29.95,,Clear
KIGQ,01/01/2017 14:15 UTC,30.13,20.84,20.3,100.0,0.0,0.0,,,,,,1.0,,,,7.0,,KIGQ 011415Z AUTO 00000KT 7SM CLR M06/M06 A3013 RMK AO2  T10621065,,,,,,20.84,,N,29.47,29.91,,Clear
KIGQ,01/01/2017 14:35 UTC,30.13,22.82,22.1,100.0,0.0,0.0,,,,,,1.0,,,,7.0,,KIGQ 011435Z AUTO 00000KT 7SM CLR M05/M05 A3013 RMK AO2  T10511055,,,,,,22.82,,N,29.47,29.88,,Clear
KIGQ,01/01/2017 14:55 UTC,30.13,25.16,22.82,92.73,0.0,0.0,,,,,,1.0,,,,7.0,,KIGQ 011455Z AUTO 00000KT 7SM CLR M04/M05 A3013 RMK AO2  T10381051,,,,,,23.32,,N,29.47,29.86,,Clear
KIGQ,01/01/2017 15:15 UTC,30.12,26.6,23.9,92.79,0.0,0.0,,,,,,1.0,,,,10.0,,KIGQ 011515Z AUTO 00000KT 10SM CLR M03/M04 A3012 RMK AO2  T10301045,,,,,,24.77,,N,29.47,29.84,,Clear
KIGQ,01/01/2017 15:35 UTC,30.12,28.22,24.26,86.15,0.0,0.0,,,,,,1.0,,,,10.0,,KIGQ 011535Z AUTO 00000KT 10SM CLR M02/M04 A3012 RMK AO2  T10211043,,,,,,24.56,,N,29.47,29.83,,Clear
KIGQ,01/01/2017 15:55 UTC,30.13,29.3,24.26,80.04,0.0,0.0,,,,,,1.0,,,,10.0,,KIGQ 011555Z AUTO 00000KT 10SM CLR M01/M04 A3013 RMK AO2  T10151043,,,,,,23.83,,N,29.47,29.83,,Clear
KIGQ,01/01/2017 16:15 UTC,30.15,30.38,25.34,80.04,4.61,200.0,,,,,,1.0,,,,10.0,,KIGQ 011615Z AUTO 20004KT 10SM CLR M01/M04 A3015 RMK AO2  T10091037,,,,,,24.89,,SSW,29.49,29.83,,Clear
KIGQ,01/01/2017 16:35 UTC,30.15,31.64,26.6,80.19,4.61,190.0,,,,,,1.0,,,,10.0,,KIGQ 011635Z AUTO 19004KT 10SM CLR 00/M03 A3015 RMK AO2  T10021030,,,,,,26.16,,S,29.49,29.81,,Clear
KIGQ,01/01/2017 16:55 UTC,30.15,32.9,26.78,74.6,10.36,190.0,,,,,,1.0,,,,10.0,,KIGQ 011655Z AUTO 19009KT 10SM CLR 01/M03 A3015 RMK AO2  T00051029,,,,,,25.62,26.98,S,29.49,29.81,,Clear
KIGQ,01/01/2017 17:15 UTC,30.15,33.26,26.6,74.6,10.36,200.0,,,,,,1.0,,,,10.0,,KIGQ 011715Z AUTO 20009KT 10SM CLR 01/M03 A3015 RMK AO2  T00071030,,,,,,25.97,27.41,SSW,29.49,29.8,,Clear
KIGQ,01/01/2017 17:35 UTC,30.15,34.52,27.14,74.6,10.36,210.0,,,,,,1.0,,,,10.0,,KIGQ 011735Z AUTO 21009KT 10SM CLR 01/M03 A3015 RMK AO2  T00141027,,,,,,27.19,28.92,SSW,29.49,29.78,,Clear
KIGQ,01/01/2017 17:55 UTC,30.15,35.06,26.78,69.43,9.22,200.0,,,,,,1.0,,,,10.0,,KIGQ 011755Z AUTO 20008KT 10SM CLR 02/M03 A3015 RMK AO2 T00171029  10017 21082,35.06,17.24,,,,25.95,30.08,SSW,29.49,29.79,,Clear
KIGQ,01/01/2017 18:15 UTC,30.15,35.78,26.78,69.43,9.22,210.0,,,,,,1.0,,,,10.0,,KIGQ 011815Z AUTO 21008KT 10SM CLR 02/M03 A3015 RMK AO2  T00211029,,,,,,26.64,30.93,SSW,29.49,29.78,,Clear
KIGQ,01/01/2017 18:35 UTC,30.14,36.14,26.42,69.43,10.36,220.0,,,,,,1.0,,,,10.0,,KIGQ 011835Z AUTO 22009KT 10SM CLR 02/M03 A3014 RMK AO2  T00231031,,,,,,26.99,30.86,SW,29.48,29.76,,Clear
KIGQ,01/01/2017 18:55 UTC,30.13,36.68,26.24,64.66,8.05,200.0,,,,,,1.0,,,,10.0,,KIGQ 011855Z AUTO 20007KT 10SM CLR 03/M03 A3013 RMK AO2  T00261032,,,,,,25.76,32.57,SSW,29.47,29.76,,Clear
KIGQ,01/01/2017 19:15 UTC,30.13,37.4,25.88,64.66,9.22,210.0,,,,,,1.0,,,,10.0,,KIGQ 011915Z AUTO 21008KT 10SM CLR 03/M03 A3013 RMK AO2  T00301034,,,,,,26.45,32.86,SSW,29.47,29.75,,Clear
KIGQ,01/01/2017 19:35 UTC,30.13,37.76,26.06,64.66,4.61,210.0,,,,,,1.0,,,,10.0,,KIGQ 011935Z AUTO 21004KT 10SM CLR 03/M03 A3013 RMK AO2  T00321033,,,,,,26.79,,SSW,29.47,29.74,,Clear
KIGQ,01/01/2017 19:55 UTC,30.14,38.3,26.42,60.26,5.75,200.0,,,,,,1.0,,,,10.0,,KIGQ 011955Z AUTO 20005KT 10SM CLR 04/M03 A3014 RMK AO2  T00351031,,,,,,25.58,,SSW,29.48,29.77,,Clear
KIGQ,01/01/2017 20:15 UTC,30.13,38.3,25.88,60.26,4.61,180.0,,,,,,1.0,,,,10.0,,KIGQ 012015Z AUTO 18004KT 10SM CLR 04/M03 A3013 RMK AO2  T00351034,,,,,,25.58,,S,29.47,29.76,,Clear
KIGQ,01/01/2017 20:35 UTC,30.12,38.3,25.7,60.26,0.0,0.0,,,,,,1.0,,,,10.0,,KIGQ 012035Z AUTO 00000KT 10SM CLR 04/M03 A3012 RMK AO2  T00351035,,,,,,25.58,,N,29.47,29.76,,Clear
KIGQ,01/01/2017 20:55 UTC,30.12,38.84,25.34,55.91,0.0,0.0,,,,,,1.0,,,,10.0,,KIGQ 012055Z AUTO 00000KT 10SM CLR 04/M04 A3012 RMK AO2  T00381037,,,,,,24.28,,N,29.47,29.77,,Clear
KIGQ,01/01/2017 21:15 UTC,30.11,36.68,24.62,60.0,0.0,0.0,,,,,,1.0,,,,10.0,,KIGQ 012115Z AUTO 00000KT 10SM CLR 03/M04 A3011 RMK AO2  T00261041,,,,,,23.95,,N,29.46,29.78,,Clear
KIGQ,01/01/2017 21:35 UTC,30.11,37.4,24.98,60.0,0.0,0.0,,,,,,1.0,,,,10.0,,KIGQ 012135Z AUTO 00000KT 10SM CLR 03/M04 A3011 RMK AO2  T00301039,,,,,,24.63,,N,29.46,29.76,,Clear
KIGQ,01/01/2017 21:55 UTC,30.12,38.48,24.62,55.91,0.0,0.0,,,,,,1.0,,,,10.0,,KIGQ 012155Z AUTO 00000KT 10SM CLR 04/M04 A3012 RMK AO2  T00361041,,,,,,23.94,,N,29.47,29.78,,Clear
KIGQ,01/01/2017 22:15 UTC,30.13,36.86,23.36,55.64,3.44,120.0,,,,,,1.0,,,,10.0,,KIGQ 012215Z AUTO 12003KT 10SM CLR 03/M05 A3013 RMK AO2  T00271048,,,,,,22.31,,ESE,29.47,29.81,,Clear
KIGQ,01/01/2017 22:35 UTC,30.13,36.32,23.18,59.74,0.0,0.0,,,,,,1.0,,,,10.0,,KIGQ 012235Z AUTO 00000KT 10SM CLR 02/M05 A3013 RMK AO2  T00241049,,,,,,23.5,,N,29.47,29.79,,Clear
KIGQ,01/01/2017 22:55 UTC,30.14,35.6,23.18,59.74,0.0,0.0,,,,,,1.0,,,,10.0,,KIGQ 012255Z AUTO 00000KT 10SM CLR 02/M05 A3014 RMK AO2  T00201049,,,,,,22.82,,N,29.48,29.82,,Clear
KIGQ,01/01/2017 23:15 UTC,30.15,33.62,23.72,64.18,3.44,110.0,,,,,,1.0,,,,10.0,,KIGQ 012315Z AUTO 11003KT 10SM CLR 01/M05 A3015 RMK AO2  T00091046,,,,,,22.67,,ESE,29.49,29.84,,Clear
KIGQ,01/01/2017 23:35 UTC,30.14,34.16,24.44,69.22,4.61,110.0,,,,,,1.0,,,,10.0,,KIGQ 012335Z AUTO 11004KT 10SM CLR 01/M04 A3014 RMK AO2  T00121042,,,,,,25.01,,ESE,29.48,29.8,,Clear
KIGQ,01/01/2017 23:55 UTC,30.16,34.16,24.44,69.22,0.0,0.0,,,,,,1.0,,,,10.0,,KIGQ 012355Z AUTO 00000KT 10SM CLR 01/M04 A3016 RMK AO2 T00121042  10040 20009,39.2,33.62,,,,25.01,,N,29.5,29.82,,Clear
KIGQ,01/02/2017 00:15 UTC,30.17,33.08,24.08,69.22,0.0,0.0,,,,,,1.0,,,,10.0,,KIGQ 020015Z AUTO 00000KT 10SM CLR 01/M04 A3017 RMK AO2  T00061044,,,,,,23.98,,N,29.51,29.85,,Clear
KIGQ,01/02/2017 00:35 UTC,30.16,32.72,24.26,74.41,0.0,0.0,,,,,,1.0,,,,10.0,,KIGQ 020035Z AUTO 00000KT 10SM CLR 00/M04 A3016 RMK AO2  T00041043,,,,,,25.38,,N,29.5,29.82,,Clear
KIGQ,01/02/2017 00:55 UTC,30.16,32.0,23.9,74.41,4.61,60.0,,,,,,1.0,,,,10.0,,KIGQ 020055Z AUTO 06004KT 10SM CLR 00/M04 A3016 RMK AO2  T00001045,,,,,,24.69,,ENE,29.5,29.84,,Clear
KIGQ,01/02/2017 01:15 UTC,30.16,32.0,24.44,74.41,3.44,90.0,,,,,,1.0,,,,10.0,,KIGQ 020115Z AUTO 09003KT 10SM CLR 00/M04 A3016 RMK AO2  T00001042,,,,,,24.69,,E,29.5,29.84,,Clear
KIGQ,01/02/2017 01:35 UTC,30.15,32.36,24.26,74.41,4.61,80.0,,,,,,1.0,,,,10.0,,KIGQ 020135Z AUTO 08004KT 10SM CLR 00/M04 A3015 RMK AO2  T00021043,,,,,,25.04,,E,29.49,29.82,,Clear
KIGQ,01/02/2017 01:55 UTC,30.15,32.0,24.44,74.41,5.75,80.0,,,,,,1.0,,,,10.0,,KIGQ 020155Z AUTO 08005KT 10SM CLR 00/M04 A3015 RMK AO2  T00001042,,,,,,24.69,,E,29.49,29.83,,Clear
KIGQ,01/02/2017 02:15 UTC,30.15,32.18,24.98,74.41,4.61,80.0,,,,,,1.0,,,,10.0,,KIGQ 020215Z AUTO 08004KT 10SM CLR 00/M04 A3015 RMK AO2  T00011039,,,,,,24.86,,E,29.49,29.82,,Clear
KIGQ,01/02/2017 02:35 UTC,30.14,32.18,25.16,74.41,5.75,80.0,,,,,,1.0,,,,10.0,,KIGQ 020235Z AUTO 08005KT 10SM CLR 00/M04 A3014 RMK AO2  T00011038,,,,,,24.86,,E,29.48,29.81,,Clear
KIGQ,01/02/2017 02:55 UTC,30.15,32.0,24.8,74.41,4.61,80.0,,,,,,1.0,,,,10.0,,KIGQ 020255Z AUTO 08004KT 10SM CLR 00/M04 A3015 RMK AO2  T00001040,,,,,,24.69,,E,29.49,29.83,,Clear
KIGQ,01/02/2017 03:15 UTC,30.15,32.0,24.62,74.41,5.75,70.0,,,,,,1.0,,,,10.0,,KIGQ 020315Z AUTO 07005KT 10SM CLR 00/M04 A3015 RMK AO2  T00001041,,,,,,24.69,,ENE,29.49,29.83,,Clear
KIGQ,01/02/2017 03:35 UTC,30.15,31.1,24.44,74.41,3.44,70.0,,,,,,1.0,,,,10.0,,KIGQ 020335Z AUTO 07003KT 10SM CLR 00/M04 A3015 RMK AO2  T10051042,,,,,,23.82,,ENE,29.49,29.84,,Clear
KIGQ,01/02/2017 03:55 UTC,30.14,31.1,24.8,74.41,3.44,70.0,,,,,,1.0,,,,10.0,,KIGQ 020355Z AUTO 07003KT 10SM CLR 00/M04 A3014 RMK AO2  T10051040,,,,,,23.82,,ENE,29.48,29.83,,Clear
KIGQ,01/02/2017 04:15 UTC,30.14,31.46,24.8,74.41,3.44,60.0,,,,,,1.0,,,,10.0,,KIGQ 020415Z AUTO 06003KT 10SM CLR 00/M04 A3014 RMK AO2  T10031040,,,,,,24.16,,ENE,29.48,29.82,,Clear
KIGQ,01/02/2017 04:35 UTC,30.14,30.92,24.8,80.04,0.0,0.0,,,,,,1.0,,,,10.0,,KIGQ 020435Z AUTO 00000KT 10SM CLR M01/M04 A3014 RMK AO2  T10061040,,,,,,25.41,,N,29.48,29.81,,Clear
KIGQ,01/02/2017 04:55 UTC,30.14,30.74,24.44,80.04,3.44,60.0,,,,,,1.0,,,,10.0,,KIGQ 020455Z AUTO 06003KT 10SM CLR M01/M04 A3014 RMK AO2  T10071042,,,,,,25.24,,ENE,29.48,29.82,,Clear
KIGQ,01/02/2017 05:15 UTC,30.14,30.2,24.62,80.04,0.0,0.0,,,,,,1.0,,,,10.0,,KIGQ 020515Z AUTO 00000KT 10SM CLR M01/M04 A3014 RMK AO2  T10101041,,,,,,24.71,,N,29.48,29.83,,Clear
KIGQ,01/02/2017 05:35 UTC,30.14,30.02,24.44,80.04,0.0,0.0,,,,,,1.0,,,,10.0,,KIGQ 020535Z AUTO 00000KT 10SM CLR M01/M04 A3014 RMK AO2  T10111042,,,,,,24.54,,N,29.48,29.83,,Clear
KIGQ,01/02/2017 05:55 UTC,30.13,29.12,24.26,86.15,3.44,40.0,,,,,,1.0,,,,10.0,,KIGQ 020555Z AUTO 04003KT 10SM CLR M02/M04 A3013 RMK AO2 T10161043  10011 21016 400401084,33.98,29.12,,39.2,16.88,25.45,,NE,29.47,29.81,,Clear
KIGQ,01/02/2017 06:15 UTC,30.13,29.48,24.44,80.04,3.44,50.0,,,,,,1.0,,,,10.0,,KIGQ 020615Z AUTO 05003KT 10SM CLR M01/M04 A3013 RMK AO2  T10141042,,,,,,24.01,,NE,29.47,29.83,,Clear
KIGQ,01/02/2017 06:35 UTC,30.12,29.12,24.08,86.15,3.44,60.0,,,,,,1.0,,,,10.0,,KIGQ 020635Z AUTO 06003KT 10SM CLR M02/M04 A3012 RMK AO2  T10161044,,,,,,25.45,,ENE,29.47,29.81,,Clear
KIGQ,01/02/2017 06:55 UTC,30.12,29.3,24.44,80.04,3.44,50.0,,,,,,1.0,,,,10.0,,KIGQ 020655Z AUTO 05003KT 10SM CLR M01/M04 A3012 RMK AO2  T10151042,,,,,,23.83,,NE,29.47,29.83,,Clear
KIGQ,01/02/2017 07:15 UTC,30.13,30.02,24.8,80.04,3.44,70.0,,,,,,1.0,,,,10.0,,KIGQ 020715Z AUTO 07003KT 10SM CLR M01/M04 A3013 RMK AO2  T10111040,,,,,,24.54,,ENE,29.47,29.82,,Clear
KIGQ,01/02/2017 07:35 UTC,30.14,29.66,24.8,80.04,3.44,40.0,,,,,,1.0,,,,10.0,,KIGQ 020735Z AUTO 04003KT 10SM CLR M01/M04 A3014 RMK AO2  T10131040,,,,,,24.18,,NE,29.48,29.83,,Clear
KIGQ,01/02/2017 07:55 UTC,30.14,29.3,24.8,80.04,4.61,60.0,,,,,,1.0,,,,10.0,,KIGQ 020755Z AUTO 06004KT 10SM CLR M01/M04 A3014 RMK AO2  T10151040,,,,,,23.83,,ENE,29.48,29.84,,Clear
KIGQ,01/02/2017 08:15 UTC,30.15,29.3,24.8,80.04,0.0,0.0,,,,,,253.0,,,,10.0,,KIGQ 020815Z AUTO 00000KT 10SM BKN025 M01/M04 A3015 RMK AO2 LTG  DSNT SW T10151040,,,2500.0,,,23.83,,N,29.49,29.85,,Mostly Cloudy
KIGQ,01/02/2017 08:35 UTC,30.14,28.76,24.62,86.15,0.0,0.0,,,,,,254.0,,,,10.0,,KIGQ 020835Z AUTO 00000KT 10SM OVC025 M02/M04 A3014 RMK AO2  T10181041,,,2500.0,,,25.09,,N,29.48,29.83,,Overcast
KIGQ,01/02/2017 08:55 UTC,30.14,29.84,25.7,86.26,3.44,60.0,,,,,,254.0,,,,10.0,,KIGQ 020855Z AUTO 06003KT 10SM OVC025 M01/M03 A3014 RMK AO2  T10121035,,,2500.0,,,26.19,,ENE,29.48,29.81,,Overcast
KIGQ,01/02/2017 09:15 UTC,30.13,30.02,25.7,86.26,5.75,70.0,,,,,,254.0,,,,10.0,,KIGQ 020915Z AUTO 07005KT 10SM OVC025 M01/M03 A3013 RMK AO2  T10111035,,,2500.0,,,26.36,,ENE,29.47,29.8,,Overcast
KIGQ,01/02/2017 09:35 UTC,30.12,29.66,25.7,86.26,4.61,60.0,,,,,,252.0,,,,10.0,,KIGQ 020935Z AUTO 06004KT 10SM SCT025 M01/M03 A3012 RMK AO2  T10131035,,,,,,26.01,,ENE,29.47,29.8,,Partly Cloudy
KIGQ,01/02/2017 09:55 UTC,30.11,29.84,25.7,86.26,4.61,80.0,,,,,,1.0,,,,10.0,,KIGQ 020955Z AUTO 08004KT 10SM CLR M01/M03 A3011 RMK AO2  T10121035,,,,,,26.19,,E,29.46,29.79,,Clear
KIGQ,01/02/2017 10:15 UTC,30.12,29.84,25.7,86.26,0.0,0.0,,,,,,222.0,,,,10.0,,KIGQ 021015Z AUTO 00000KT 10SM SCT022 M01/M03 A3012 RMK AO2  T10121035,,,,,,26.19,,N,29.47,29.8,,Partly Cloudy
KIGQ,01/02/2017 10:35 UTC,30.12,29.3,25.7,86.26,0.0,0.0,,,,,,222.0,,,,10.0,,KIGQ 021035Z AUTO 00000KT 10SM SCT022 M01/M03 A3012 RMK AO2  T10151035,,,,,,25.65,,N,29.47,29.81,,Partly Cloudy
KIGQ,01/02/2017 10:55 UTC,30.11,29.48,25.7,86.26,5.75,80.0,,,,,,222.0,,,,10.0,,KIGQ 021055Z AUTO 08005KT 10SM SCT022 M01/M03 A3011 RMK AO2  T10141035,,,,,,25.83,,E,29.46,29.8,,Partly Cloudy
KIGQ,01/02/2017 11:15 UTC,30.1,30.2,26.96,86.26,4.61,80.0,,,,,,203.0,,,,10.0,,KIGQ 021115Z AUTO 08004KT 10SM BKN020 M01/M03 A3010 RMK AO2  T10101028,,,2000.0,,,26.54,,E,29.45,29.77,,Mostly Cloudy
KIGQ,01/02/2017 11:35 UTC,30.11,31.1,27.68,86.37,0.0,0.0,,,,,,204.0,,,,10.0,,KIGQ 021135Z AUTO 00000KT 10SM OVC020 00/M02 A3011 RMK AO2  T10051024,,,2000.0,,,27.46,,N,29.46,29.77,,Overcast
KIGQ,01/02/2017 11:55 UTC,30.12,31.28,28.22,86.37,0.0,0.0,,,,,,184.0,,,,10.0,,KIGQ 021155Z AUTO 00000KT 10SM OVC018 00/M02 A3012 RMK AO2  T10041021 11004 21021,31.28,28.22,1800.0,,,27.63,,N,29.47,29.77,,Overcast
KIGQ,01/02/2017 12:15 UTC,30.12,31.1,29.3,92.96,0.0,0.0,,,,,,184.0,,,,10.0,,KIGQ 021215Z AUTO 00000KT 10SM OVC018 00/M01 A3012 RMK AO2  T10051015,,,1800.0,,,29.28,,N,29.47,29.75,,Overcast
KIGQ,01/02/2017 12:35 UTC,30.11,31.46,29.66,92.96,0.0,0.0,,,,,,184.0,,,,10.0,,KIGQ 021235Z AUTO 00000KT 10SM OVC018 00/M01 A3011 RMK AO2  T10031013,,,1800.0,,,29.63,,N,29.46,29.74,,Overcast
KIGQ,01/02/2017 12:55 UTC,30.12,32.0,30.74,92.96,3.44,120.0,,,,,,164.0,,,,10.0,,KIGQ 021255Z AUTO 12003KT 10SM OVC016 00/M01 A3012 RMK AO2  T00001007,,,1600.0,,,30.17,,ESE,29.47,29.73,,Overcast
KIGQ,01/02/2017 13:15 UTC,30.12,32.9,30.74,86.48,3.44,120.0,,,,,,82.0,144.0,,,10.0,,KIGQ 021315Z AUTO 12003KT 10SM SCT008 OVC014 01/M01 A3012 RMK AO2  T00051007,,,1400.0,,,29.26,,ESE,29.47,29.74,,Overcast
KIGQ,01/02/2017 13:35 UTC,30.12,33.8,31.1,93.02,5.75,120.0,,,,,,64.0,,,,10.0,,KIGQ 021335Z AUTO 12005KT 10SM OVC006 01/00 A3012 RMK AO2  T00101005,,,600.0,,,31.97,,ESE,29.47,29.7,,Overcast
KIGQ,01/02/2017 13:55 UTC,30.11,34.16,31.82,93.02,5.75,130.0,,,,,,64.0,,,,10.0,,KIGQ 021355Z AUTO 13005KT 10SM OVC006 01/00 A3011 RMK AO2  T00121001,,,600.0,,,32.33,,SE,29.46,29.68,,Overcast
KIGQ,01/02/2017 14:15 UTC,30.12,34.88,33.08,93.08,6.91,130.0,,31.0,,,,64.0,,,,5.0,,KIGQ 021415Z AUTO 13006KT 5SM BR OVC006 02/01 A3012 RMK AO2  T00160006,,,600.0,,,33.06,,SE,29.47,29.67,,Mist
KIGQ,01/02/2017 14:35 UTC,30.12,35.06,33.62,93.08,4.61,120.0,,31.0,,,,64.0,,,,4.0,,KIGQ 021435Z AUTO 12004KT 4SM BR OVC006 02/01 A3012 RMK AO2  T00170009,,,600.0,,,33.24,,ESE,29.47,29.67,,Mist
KIGQ,01/02/2017 14:55 UTC,30.12,35.06,34.16,93.08,5.75,140.0,,31.0,,,,64.0,,,,3.0,,KIGQ 021455Z AUTO 14005KT 3SM BR OVC006 02/01 A3012 RMK AO2  T00170012,,,600.0,,,33.24,,SE,29.47,29.67,,Mist
KIGQ,01/02/2017 15:15 UTC,30.12,35.6,35.06,100.0,5.75,140.0,,31.0,,,,44.0,,,,2.0,,KIGQ 021515Z AUTO 14005KT 2SM BR OVC004 02/02 A3012 RMK AO2  T00200017,,,400.0,,,35.6,,SE,29.47,29.62,,Mist
KIGQ,01/02/2017 15:35 UTC,30.11,35.6,35.6,100.0,6.91,130.0,,31.0,,,,44.0,,,,1.25,,KIGQ 021535Z AUTO 13006KT 1 1/4SM BR OVC004 02/02 A3011 RMK AO2  T00200020,,,400.0,,,35.6,,SE,29.46,29.61,,Mist
KIGQ,01/02/2017 15:55 UTC,30.11,35.78,35.78,100.0,8.05,120.0,,31.0,,,,44.0,,,,1.75,,KIGQ 021555Z AUTO 12007KT 1 3/4SM BR OVC004 02/02 A3011 RMK AO2  T00210021,,,400.0,,,35.78,31.52,ESE,29.46,29.61,,Mist
KIGQ,01/02/2017 16:15 UTC,30.09,36.32,35.96,100.0,8.05,110.0,,31.0,,,,44.0,,,,2.0,,KIGQ 021615Z AUTO 11007KT 2SM BR OVC004 02/02 A3009 RMK AO2  T00240022,,,400.0,,,36.32,32.15,ESE,29.44,29.57,,Mist
KIGQ,01/02/2017 16:35 UTC,30.09,36.86,36.5,100.0,6.91,130.0,,31.0,,,,44.0,,,,2.5,,KIGQ 021635Z AUTO 13006KT 2 1/2SM BR OVC004 03/03 A3009 RMK AO2  T00270025,,,400.0,,,36.86,,SE,29.44,29.56,,Mist
KIGQ,01/02/2017 16:55 UTC,30.07,37.4,36.86,100.0,8.05,110.0,,31.0,,,,44.0,,,,2.5,,KIGQ 021655Z AUTO 11007KT 2 1/2SM BR OVC004 03/03 A3007 RMK AO2  T00300027,,,400.0,,,37.4,33.42,ESE,29.42,29.52,,Mist
KIGQ,01/02/2017 17:15 UTC,30.07,37.94,37.4,100.0,5.75,120.0,,31.0,,,,44.0,,,,3.0,,KIGQ 021715Z AUTO 12005KT 3SM BR OVC004 03/03 A3007 RMK AO2  T00330030,,,400.0,,,37.94,,ESE,29.42,29.51,,Mist
KIGQ,01/02/2017 17:35 UTC,30.06,38.48,37.4,93.19,5.75,130.0,,31.0,,,,64.0,,,,4.0,,KIGQ 021735Z AUTO 13005KT 4SM BR OVC006 04/03 A3006 RMK AO2  T00360030,,,600.0,,,36.66,,SE,29.41,29.52,,Mist
KIGQ,01/02/2017 17:55 UTC,30.02,38.84,37.58,93.19,6.91,120.0,,31.0,,,,64.0,,,,4.0,,KIGQ 021755Z AUTO 12006KT 4SM BR OVC006 04/03 A3002 RMK AO2  T00380031 10038 21006,38.84,30.92,600.0,,,37.02,,ESE,29.37,29.47,,Mist
KIGQ,01/02/2017 18:15 UTC,30.0,38.66,37.4,93.19,6.91,110.0,,31.0,,,,64.0,,,,3.0,,KIGQ 021815Z AUTO 11006KT 3SM BR OVC006 04/03 A3000 RMK AO2  T00370030,,,600.0,,,36.84,,ESE,29.35,29.45,,Mist
KIGQ,01/02/2017 18:35 UTC,30.0,38.48,37.76,93.19,8.05,130.0,,13.0,,,,64.0,,,,3.0,,KIGQ 021835Z AUTO 13007KT 3SM -RA OVC006 04/03 A3000 RMK AO2  T00360032,,,600.0,,,36.66,34.69,SE,29.35,29.46,,Light Rain
KIGQ,01/02/2017 18:55 UTC,30.01,38.48,38.3,100.0,0.0,0.0,,31.0,,,,64.0,,,,2.5,,KIGQ 021855Z AUTO 00000KT 2 1/2SM BR OVC006 04/04 A3001 RMK AO2  T00360035,,,600.0,,,38.48,,N,29.36,29.43,,Mist
KIGQ,01/02/2017 19:15 UTC,29.99,38.48,38.3,100.0,8.05,100.0,,1.0,,,,64.0,,,,2.0,,KIGQ 021915Z AUTO 10007KT 2SM RA OVC006 04/04 A2999 RMK AO2  T00360035,,,600.0,,,38.48,34.69,E,29.34,29.41,,Rain
KIGQ,01/02/2017 19:35 UTC,29.99,38.84,38.66,100.0,3.44,130.0,,13.0,,,,64.0,,,,2.5,,KIGQ 021935Z AUTO 13003KT 2 1/2SM -RA OVC006 04/04 A2999 RMK AO2  T00380037,,,600.0,,,38.84,,SE,29.34,29.4,,Light Rain
KIGQ,01/02/2017 19:55 UTC,29.99,39.2,39.02,100.0,3.44,10.0,,13.0,,,,64.0,,,,2.5,,KIGQ 021955Z AUTO 01003KT 2 1/2SM -RA OVC006 04/04 A2999 RMK AO2  T00400039,,,600.0,,,39.2,,N,29.34,29.39,,Light Rain
KIGQ,01/02/2017 20:15 UTC,30.01,39.02,39.02,100.0,5.75,310.0,,31.0,,,,64.0,,,,2.0,,KIGQ 022015Z AUTO 31005KT 2SM BR OVC006 04/04 A3001 RMK AO2  T00390039,,,600.0,,,39.02,,NW,29.36,29.42,,Mist
KIGQ,01/02/2017 20:35 UTC,29.98,38.48,38.48,100.0,4.61,90.0,,31.0,,,,64.0,,,,1.75,,KIGQ 022035Z AUTO 09004KT 1 3/4SM BR OVC006 04/04 A2998 RMK AO2  T00360036,,,600.0,,,38.48,,E,29.33,29.4,,Mist
KIGQ,01/02/2017 20:55 UTC,29.96,38.66,38.66,100.0,9.22,90.0,,1.0,,0.03,0.03,64.0,,,,1.5,,KIGQ 022055Z AUTO 09008KT 1 1/2SM RA OVC006 04/04 A2996 RMK AO2  P0003 60003 T00370037,,,600.0,,,38.66,34.35,E,29.31,29.38,,Rain
KIGQ,01/02/2017 21:15 UTC,30.0,39.2,39.2,100.0,4.61,320.0,,13.0,,,,44.0,,,,2.0,,KIGQ 022115Z AUTO 32004KT 2SM -RA OVC004 04/04 A3000 RMK AO2  T00400040,,,400.0,,,39.2,,NW,29.35,29.4,,Light Rain
KIGQ,01/02/2017 21:35 UTC,30.0,39.02,39.02,100.0,0.0,0.0,,1.0,,,,44.0,,,,1.5,,KIGQ 022135Z AUTO 00000KT 1 1/2SM RA OVC004 04/04 A3000 RMK AO2  T00390039,,,400.0,,,39.02,,N,29.35,29.41,,Rain
KIGQ,01/02/2017 21:55 UTC,30.0,38.84,38.84,100.0,0.0,0.0,,14.0,,0.01,,44.0,,,,1.5,,KIGQ 022155Z AUTO 00000KT 1 1/2SM +RA OVC004 04/04 A3000 RMK AO2  P0001 T00380038,,,400.0,,,38.84,,N,29.35,29.41,,Heavy Rain
KIGQ,01/02/2017 22:15 UTC,29.97,38.66,38.66,100.0,4.61,70.0,,13.0,,0.02,,43.0,134.0,,,1.0,,KIGQ 022215Z AUTO 07004KT 1SM -RA BKN004 OVC013 04/04 A2997 RMK AO2 P0002 T00370037,,,400.0,,,38.66,,ENE,29.32,29.39,,Light Rain
KIGQ,01/02/2017 22:35 UTC,29.96,38.48,38.48,100.0,5.75,90.0,,13.0,334.0,0.04,,132.0,263.0,,,2.0,,KIGQ 022235Z AUTO 09005KT 2SM -RA SCT013 BKN026 OVC033 04/04  A2996 RMK AO2 P0004 T00360036,,,2600.0,,,38.48,,E,29.31,29.38,,Light Rain
KIGQ,01/02/2017 22:55 UTC,29.95,38.66,38.66,100.0,13.8,120.0,,1.0,,0.05,,243.0,314.0,,,2.5,,KIGQ 022255Z AUTO 12012KT 2 1/2SM RA BKN024 OVC031 04/04 A2995 RMK AO2 P0005 T00370037,,,2400.0,,,38.66,32.66,ESE,29.3,29.37,,Rain
KIGQ,01/02/2017 23:15 UTC,29.95,38.66,38.66,100.0,5.75,100.0,,13.0,,0.01,,244.0,,,,2.5,,KIGQ 022315Z AUTO 10005KT 2 1/2SM -RA OVC024 04/04 A2995 RMK AO2  P0001 T00370037,,,2400.0,,,38.66,,E,29.3,29.37,,Light Rain
KIGQ,01/02/2017 23:35 UTC,29.94,38.48,38.48,100.0,6.91,100.0,,1.0,,0.03,,32.0,224.0,,,2.5,,KIGQ 022335Z AUTO 10006KT 2 1/2SM RA SCT003 OVC022 04/04 A2994 RMK AO2 P0003 T00360036,,,2200.0,,,38.48,,E,29.29,29.36,,Rain
KIGQ,01/02/2017 23:55 UTC,29.95,38.66,38.66,100.0,3.44,90.0,,1.0,244.0,0.03,,32.0,133.0,0.14,,2.5,,KIGQ 022355Z AUTO 09003KT 2 1/2SM RA SCT003 BKN013 OVC024 04/04  A2995 RMK AO2 P0003 60014 T00370037 10040 20035,39.2,38.3,1300.0,,,38.66,,E,29.3,29.37,,Rain
KIGQ,01/03/2017 00:15 UTC,29.94,39.02,39.02,100.0,4.61,80.0,,13.0,,,,32.0,114.0,,,3.0,,KIGQ 030015Z AUTO 08004KT 3SM -RA SCT003 OVC011 04/04 A2994 RMK AO2 T00390039,,,1100.0,,,39.02,,E,29.29,29.35,,Light Rain
KIGQ,01/03/2017 00:35 UTC,29.93,39.2,39.2,100.0,5.75,90.0,,13.0,,,,53.0,114.0,,,2.5,,KIGQ 030035Z AUTO 09005KT 2 1/2SM -RA BKN005 OVC011 04/04  A2993 RMK AO2 T00400040,,,500.0,,,39.2,,E,29.28,29.33,,Light Rain
KIGQ,01/03/2017 00:55 UTC,29.93,39.2,39.2,100.0,3.44,30.0,,17.0,,,,34.0,,,,3.0,,KIGQ 030055Z AUTO 03003KT 3SM -DZ OVC003 04/04 A2993 RMK AO2  T00400040,,,300.0,,,39.2,,NNE,29.28,29.33,,Light Drizzle
KIGQ,01/03/2017 01:15 UTC,29.92,39.02,39.02,100.0,4.61,50.0,,17.0,,,,34.0,,,,2.5,,KIGQ 030115Z AUTO 05004KT 2 1/2SM -DZ OVC003 04/04 A2992 RMK AO2  T00390039,,,300.0,,,39.02,,NE,29.27,29.33,,Light Drizzle
KIGQ,01/03/2017 01:35 UTC,29.91,38.84,38.84,100.0,3.44,50.0,,31.0,,,,34.0,,,,2.5,,KIGQ 030135Z AUTO 05003KT 2 1/2SM BR OVC003 04/04 A2991 RMK AO2  T00380038,,,300.0,,,38.84,,NE,29.26,29.32,,Mist
KIGQ,01/03/2017 01:55 UTC,29.91,38.66,38.66,100.0,3.44,350.0,,31.0,,,,34.0,,,,2.5,,KIGQ 030155Z AUTO 35003KT 2 1/2SM BR OVC003 04/04 A2991 RMK AO2  T00370037,,,300.0,,,38.66,,N,29.26,29.33,,Mist
KIGQ,01/03/2017 02:15 UTC,29.91,38.12,38.12,100.0,3.44,20.0,,31.0,,,,34.0,,,,1.5,,KIGQ 030215Z AUTO 02003KT 1 1/2SM BR OVC003 03/03 A2991 RMK AO2  T00340034,,,300.0,,,38.12,,NNE,29.26,29.34,,Mist
KIGQ,01/03/2017 02:35 UTC,29.9,37.58,37.58,100.0,4.61,20.0,,31.0,,,,34.0,,,,1.5,,KIGQ 030235Z AUTO 02004KT 1 1/2SM BR OVC003 03/03 A2990 RMK AO2  T00310031,,,300.0,,,37.58,,NNE,29.25,29.35,,Mist
KIGQ,01/03/2017 02:55 UTC,29.91,37.94,37.94,100.0,4.61,30.0,,31.0,,,,34.0,,,,1.25,,KIGQ 030255Z AUTO 03004KT 1 1/4SM BR OVC003 03/03 A2991 RMK AO2  T00330033,,,300.0,,,37.94,,NNE,29.26,29.35,,Mist
KIGQ,01/03/2017 03:15 UTC,29.9,37.94,37.94,100.0,4.61,20.0,,31.0,,,,34.0,,,,1.0,,KIGQ 030315Z AUTO 02004KT 1SM BR OVC003 03/03 A2990 RMK AO2  T00330033,,,300.0,,,37.94,,NNE,29.25,29.34,,Mist
KIGQ,01/03/2017 03:35 UTC,29.89,38.3,38.3,100.0,4.61,60.0,,31.0,,,,34.0,,,,1.0,,KIGQ 030335Z AUTO 06004KT 1SM BR OVC003 04/04 A2989 RMK AO2  T00350035,,,300.0,,,38.3,,ENE,29.24,29.32,,Mist
KIGQ,01/03/2017 03:55 UTC,29.88,38.12,38.12,100.0,5.75,80.0,,31.0,,,,34.0,,,,1.25,,KIGQ 030355Z AUTO 08005KT 1 1/4SM BR OVC003 03/03 A2988 RMK AO2  T00340034,,,300.0,,,38.12,,E,29.23,29.31,,Mist
KIGQ,01/03/2017 04:15 UTC,29.88,38.3,38.3,100.0,4.61,90.0,,31.0,,,,34.0,,,,1.5,,KIGQ 030415Z AUTO 09004KT 1 1/2SM BR OVC003 04/04 A2988 RMK AO2  T00350035,,,300.0,,,38.3,,E,29.23,29.31,,Mist
KIGQ,01/03/2017 04:35 UTC,29.88,38.48,38.48,100.0,3.44,70.0,,31.0,,,,34.0,,,,1.75,,KIGQ 030435Z AUTO 07003KT 1 3/4SM BR OVC003 04/04 A2988 RMK AO2  LTG DSNT E T00360036,,,300.0,,,38.48,,ENE,29.23,29.3,,Mist
KIGQ,01/03/2017 04:55 UTC,29.88,38.66,38.66,100.0,0.0,0.0,,2.0,,,,34.0,,,,2.0,,KIGQ 030455Z AUTO 00000KT 2SM DZ OVC003 04/04 A2988 RMK AO2  T00370037,,,300.0,,,38.66,,N,29.23,29.29,,Drizzle
KIGQ,01/03/2017 05:15 UTC,29.88,38.84,38.84,100.0,3.44,60.0,,1.0,,,,34.0,,,,1.75,,KIGQ 030515Z AUTO 06003KT 1 3/4SM RA OVC003 04/04 A2988 RMK AO2  T00380038,,,300.0,,,38.84,,ENE,29.23,29.29,,Rain
KIGQ,01/03/2017 05:35 UTC,29.87,38.66,38.66,100.0,0.0,0.0,,13.0,,,,34.0,,,,1.5,,KIGQ 030535Z AUTO 00000KT 1 1/2SM -RA OVC003 04/04 A2987 RMK AO2  T00370037,,,300.0,,,38.66,,N,29.22,29.28,,Light Rain
KIGQ,01/03/2017 05:55 UTC,29.86,38.84,38.84,100.0,0.0,0.0,,13.0,,,,33.0,74.0,,,1.75,,KIGQ 030555Z AUTO 00000KT 1 3/4SM -RA BKN003 OVC007 04/04 A2986 RMK AO2 T00380038 10040 20031 400401021,39.2,37.58,300.0,39.2,28.22,38.84,,N,29.21,29.27,,Light Rain
KIGQ,01/03/2017 06:15 UTC,29.86,39.2,39.2,100.0,0.0,0.0,,1.0,,,,74.0,,,,1.75,,KIGQ 030615Z AUTO 00000KT 1 3/4SM RA OVC007 04/04 A2986 RMK AO2  T00400040,,,700.0,,,39.2,,N,29.21,29.26,,Rain
KIGQ,01/03/2017 06:35 UTC,29.85,39.2,39.2,100.0,3.44,80.0,,31.0,,,,53.0,164.0,,,2.0,,KIGQ 030635Z AUTO 08003KT 2SM BR BKN005 OVC016 04/04 A2985 RMK AO2  T00400040,,,500.0,,,39.2,,E,29.2,29.25,,Mist
KIGQ,01/03/2017 06:55 UTC,29.84,39.2,39.2,100.0,0.0,0.0,,31.0,164.0,,,33.0,73.0,,,2.5,,KIGQ 030655Z AUTO 00000KT 2 1/2SM BR BKN003 BKN007 OVC016 04/04  A2984 RMK AO2 T00400040,,,300.0,,,39.2,,N,29.19,29.24,,Mist
KIGQ,01/03/2017 07:15 UTC,29.83,39.2,39.2,100.0,3.44,10.0,,31.0,,,,34.0,,,,2.0,,KIGQ 030715Z AUTO 01003KT 2SM BR OVC003 04/04 A2983 RMK AO2  T00400040,,,300.0,,,39.2,,N,29.18,29.23,,Mist
KIGQ,01/03/2017 07:35 UTC,29.83,39.2,39.2,100.0,0.0,0.0,,31.0,,,,34.0,,,,2.0,,KIGQ 030735Z AUTO 00000KT 2SM BR OVC003 04/04 A2983 RMK AO2  T00400040,,,300.0,,,39.2,,N,29.18,29.23,,Mist
KIGQ,01/03/2017 07:55 UTC,29.83,39.2,39.2,100.0,0.0,0.0,,31.0,,,,34.0,,,,1.75,,KIGQ 030755Z AUTO 00000KT 1 3/4SM BR OVC003 04/04 A2983 RMK AO2  T00400040,,,300.0,,,39.2,,N,29.18,29.23,,Mist
KIGQ,01/03/2017 08:15 UTC,29.83,39.2,39.2,100.0,0.0,0.0,,31.0,,,,34.0,,,,1.75,,KIGQ 030815Z AUTO 00000KT 1 3/4SM BR OVC003 04/04 A2983 RMK AO2  T00400040,,,300.0,,,39.2,,N,29.18,29.23,,Mist
KIGQ,01/03/2017 08:35 UTC,29.83,39.02,39.02,100.0,0.0,0.0,,31.0,,,,34.0,,,,1.5,,KIGQ 030835Z AUTO 00000KT 1 1/2SM BR OVC003 04/04 A2983 RMK AO2  T00390039,,,300.0,,,39.02,,N,29.18,29.23,,Mist
KIGQ,01/03/2017 08:55 UTC,29.81,38.84,38.84,100.0,3.44,40.0,,31.0,,,,34.0,,,,1.0,,KIGQ 030855Z AUTO 04003KT 1SM BR OVC003 04/04 A2981 RMK AO2  T00380038,,,300.0,,,38.84,,NE,29.16,29.22,,Mist
KIGQ,01/03/2017 09:15 UTC,29.8,38.66,38.66,100.0,3.44,50.0,,31.0,,,,34.0,,,,1.25,,KIGQ 030915Z AUTO 05003KT 1 1/4SM BR OVC003 04/04 A2980 RMK AO2  T00370037,,,300.0,,,38.66,,NE,29.15,29.21,,Mist
KIGQ,01/03/2017 09:35 UTC,29.8,38.48,38.48,100.0,0.0,0.0,,31.0,,,,34.0,,,,1.5,,KIGQ 030935Z AUTO 00000KT 1 1/2SM BR OVC003 04/04 A2980 RMK AO2  T00360036,,,300.0,,,38.48,,N,29.15,29.22,,Mist
KIGQ,01/03/2017 09:55 UTC,29.8,38.66,38.66,100.0,0.0,0.0,,31.0,,,,34.0,,,,1.0,,KIGQ 030955Z AUTO 00000KT 1SM BR OVC003 04/04 A2980 RMK AO2  T00370037,,,300.0,,,38.66,,N,29.15,29.21,,Mist
KIGQ,01/03/2017 10:15 UTC,29.78,38.48,38.48,100.0,3.44,10.0,,31.0,,,,34.0,,,,1.0,,KIGQ 031015Z AUTO 01003KT 1SM BR OVC003 04/04 A2978 RMK AO2  T00360036,,,300.0,,,38.48,,N,29.13,29.2,,Mist
KIGQ,01/03/2017 10:35 UTC,29.79,38.66,38.66,100.0,3.44,340.0,,31.0,,,,34.0,,,,1.25,,KIGQ 031035Z AUTO 34003KT 1 1/4SM BR OVC003 04/04 A2979 RMK AO2  T00370037,,,300.0,,,38.66,,NNW,29.14,29.2,,Mist
KIGQ,01/03/2017 10:55 UTC,29.78,38.48,38.48,100.0,0.0,0.0,,9.0,,,,34.0,,,,0.5,,KIGQ 031055Z AUTO 00000KT 1/2SM FG OVC003 04/04 A2978 RMK AO2  T00360036,,,300.0,,,38.48,,N,29.13,29.2,,Fog
KIGQ,01/03/2017 11:15 UTC,29.78,38.48,38.48,100.0,0.0,0.0,,9.0,,,,34.0,,,,0.25,,KIGQ 031115Z AUTO 00000KT 1/4SM FG OVC003 04/04 A2978 RMK AO2  T00360036,,,300.0,,,38.48,,N,29.13,29.2,,Fog
KIGQ,01/03/2017 11:35 UTC,29.78,38.3,38.3,100.0,0.0,0.0,,9.0,,,,34.0,,,,0.25,,KIGQ 031135Z AUTO 00000KT 1/4SM FG OVC003 04/04 A2978 RMK AO2  T00350035,,,300.0,,,38.3,,N,29.13,29.2,,Fog
KIGQ,01/03/2017 11:55 UTC,29.77,38.48,38.48,100.0,3.44,350.0,,31.0,,,,34.0,,,0.14,0.75,,KIGQ 031155Z AUTO 35003KT 3/4SM BR OVC003 04/04 A2977 RMK AO2  70014 T00360036 10040 20035,39.2,38.3,300.0,,,38.48,,N,29.12,29.19,,Mist
KIGQ,01/03/2017 12:15 UTC,29.77,38.48,38.48,100.0,4.61,360.0,,31.0,,,,34.0,,,,0.75,,KIGQ 031215Z AUTO 36004KT 3/4SM BR OVC003 04/04 A2977 RMK AO2  T00360036,,,300.0,,,38.48,,N,29.12,29.19,,Mist
KIGQ,01/03/2017 12:35 UTC,29.78,38.48,38.48,100.0,4.61,340.0,,9.0,,,,34.0,,,,0.5,,KIGQ 031235Z AUTO 34004KT 1/2SM FG OVC003 04/04 A2978 RMK AO2  T00360036,,,300.0,,,38.48,,NNW,29.13,29.2,,Fog
KIGQ,01/03/2017 12:55 UTC,29.77,38.66,38.66,100.0,0.0,0.0,,9.0,,,,34.0,,,,0.5,,KIGQ 031255Z AUTO 00000KT 1/2SM FG OVC003 04/04 A2977 RMK AO2  T00370037,,,300.0,,,38.66,,N,29.12,29.18,,Fog
KIGQ,01/03/2017 13:15 UTC,29.78,38.66,38.66,100.0,3.44,10.0,,9.0,,,,34.0,,,,0.5,,KIGQ 031315Z AUTO 01003KT 1/2SM FG OVC003 04/04 A2978 RMK AO2  T00370037,,,300.0,,,38.66,,N,29.13,29.19,,Fog
KIGQ,01/03/2017 13:35 UTC,29.78,38.84,38.84,100.0,4.61,30.0,,9.0,,,,34.0,,,,0.5,,KIGQ 031335Z AUTO 03004KT 1/2SM FG OVC003 04/04 A2978 RMK AO2  T00380038,,,300.0,,,38.84,,NNE,29.13,29.19,,Fog
KIGQ,01/03/2017 13:55 UTC,29.78,38.84,38.84,100.0,3.44,360.0,,9.0,,,,34.0,,,,0.25,,KIGQ 031355Z AUTO 36003KT 1/4SM FG OVC003 04/04 A2978 RMK AO2  T00380038,,,300.0,,,38.84,,N,29.13,29.19,,Fog
KIGQ,01/03/2017 14:15 UTC,29.78,39.2,39.2,100.0,3.44,360.0,,9.0,,,,34.0,,,,0.25,,KIGQ 031415Z AUTO 36003KT 1/4SM FG OVC003 04/04 A2978 RMK AO2  T00400040,,,300.0,,,39.2,,N,29.13,29.18,,Fog
KIGQ,01/03/2017 14:35 UTC,29.77,39.2,39.2,100.0,3.44,20.0,,9.0,,,,34.0,,,,0.5,,KIGQ 031435Z AUTO 02003KT 1/2SM FG OVC003 04/04 A2977 RMK AO2  T00400040,,,300.0,,,39.2,,NNE,29.12,29.17,,Fog
KIGQ,01/03/2017 14:55 UTC,29.78,39.56,39.56,100.0,4.61,10.0,,31.0,,,,34.0,,,,1.5,,KIGQ 031455Z AUTO 01004KT 1 1/2SM BR OVC003 04/04 A2978 RMK AO2  T00420042,,,300.0,,,39.56,,N,29.13,29.17,,Mist
KIGQ,01/03/2017 15:15 UTC,29.78,39.74,39.74,100.0,4.61,10.0,,31.0,,,,34.0,,,,2.0,,KIGQ 031515Z AUTO 01004KT 2SM BR OVC003 04/04 A2978 RMK AO2  T00430043,,,300.0,,,39.74,,N,29.13,29.16,,Mist
KIGQ,01/03/2017 15:35 UTC,29.78,40.1,40.1,100.0,4.61,350.0,,31.0,,,,34.0,,,,2.0,,KIGQ 031535Z AUTO 35004KT 2SM BR OVC003 05/05 A2978 RMK AO2  T00450045,,,300.0,,,40.1,,N,29.13,29.15,,Mist
KIGQ,01/03/2017 15:55 UTC,29.78,40.1,40.1,100.0,6.91,360.0,,13.0,,,,34.0,,,,2.0,,KIGQ 031555Z AUTO 36006KT 2SM -RA OVC003 05/05 A2978 RMK AO2  T00450045,,,300.0,,,40.1,,N,29.13,29.15,,Light Rain
KIGQ,01/03/2017 16:15 UTC,29.77,40.1,40.1,100.0,0.0,0.0,,31.0,,,,34.0,,,,2.5,,KIGQ 031615Z AUTO 00000KT 2 1/2SM BR OVC003 05/05 A2977 RMK AO2  T00450045,,,300.0,,,40.1,,N,29.12,29.14,,Mist
KIGQ,01/03/2017 16:35 UTC,29.78,40.1,40.1,100.0,3.44,360.0,,31.0,,,,34.0,,,,3.0,,KIGQ 031635Z AUTO 36003KT 3SM BR OVC003 05/05 A2978 RMK AO2  T00450045,,,300.0,,,40.1,,N,29.13,29.15,,Mist
KIGQ,01/03/2017 16:55 UTC,29.78,40.1,40.1,100.0,0.0,0.0,,13.0,,,,34.0,,,,3.0,,KIGQ 031655Z AUTO 00000KT 3SM -RA OVC003 05/05 A2978 RMK AO2  T00450045,,,300.0,,,40.1,,N,29.13,29.15,,Light Rain
KIGQ,01/03/2017 17:15 UTC,29.76,40.1,40.1,100.0,4.61,40.0,,13.0,,,,34.0,,,,3.0,,KIGQ 031715Z AUTO 04004KT 3SM -RA OVC003 05/05 A2976 RMK AO2  T00450045,,,300.0,,,40.1,,NE,29.11,29.13,,Light Rain
KIGQ,01/03/2017 17:35 UTC,29.78,40.1,40.1,100.0,12.66,310.0,16.11,13.0,,,,54.0,,,,3.0,,KIGQ 031735Z AUTO 31011G14KT 3SM -RA OVC005 05/05 A2978 RMK AO2  T00450045,,,500.0,,,40.1,34.78,NW,29.13,29.15,,Light Rain
KIGQ,01/03/2017 17:55 UTC,29.76,40.1,40.1,100.0,4.61,340.0,,1.0,,,,74.0,,,,4.0,,KIGQ 031755Z AUTO 34004KT 4SM RA OVC007 05/05 A2976 RMK AO2  T00450045 10046 20036,40.28,38.48,700.0,,,40.1,,NNW,29.11,29.13,,Rain
KIGQ,01/03/2017 18:15 UTC,29.76,40.28,40.28,100.0,4.61,350.0,,1.0,,,,53.0,94.0,,,3.0,,KIGQ 031815Z AUTO 35004KT 3SM RA BKN005 OVC009 05/05 A2976 RMK AO2  T00460046,,,500.0,,,40.28,,N,29.11,29.12,,Rain
KIGQ,01/03/2017 18:35 UTC,29.76,40.46,40.46,100.0,6.91,330.0,,1.0,,0.03,,54.0,,,,2.0,,KIGQ 031835Z AUTO 33006KT 2SM RA OVC005 05/05 A2976 RMK AO2 P0003  T00470047,,,500.0,,,40.46,,NNW,29.11,29.12,,Rain
KIGQ,01/03/2017 18:55 UTC,29.75,40.28,40.28,100.0,5.75,330.0,,1.0,,0.05,,54.0,,,,2.0,,KIGQ 031855Z AUTO 33005KT 2SM RA OVC005 05/05 A2975 RMK AO2 P0005  T00460046,,,500.0,,,40.28,,NNW,29.1,29.11,,Rain
KIGQ,01/03/2017 19:15 UTC,29.74,40.1,40.1,100.0,8.05,350.0,,13.0,,,,54.0,,,,3.0,,KIGQ 031915Z AUTO 35007KT 3SM -RA OVC005 05/05 A2974 RMK AO2  T00450045,,,500.0,,,40.1,36.59,N,29.09,29.11,,Light Rain
KIGQ,01/03/2017 19:35 UTC,29.75,40.1,40.1,100.0,6.91,330.0,,13.0,,,,54.0,,,,3.0,,KIGQ 031935Z AUTO 33006KT 3SM -RA OVC005 05/05 A2975 RMK AO2  T00450045,,,500.0,,,40.1,,NNW,29.1,29.12,,Light Rain
KIGQ,01/03/2017 19:55 UTC,29.75,39.74,39.74,100.0,9.22,340.0,,31.0,,,,54.0,,,,4.0,,KIGQ 031955Z AUTO 34008KT 4SM BR OVC005 04/04 A2975 RMK AO2  T00430043,,,500.0,,,39.74,35.63,NNW,29.1,29.13,,Mist
KIGQ,01/03/2017 20:15 UTC,29.76,39.56,39.56,100.0,9.22,330.0,,1.0,,,,74.0,,,,5.0,,KIGQ 032015Z AUTO 33008KT 5SM RA OVC007 04/04 A2976 RMK AO2  T00420042,,,700.0,,,39.56,35.42,NNW,29.11,29.15,,Rain
KIGQ,01/03/2017 20:35 UTC,29.76,39.2,39.2,100.0,9.22,330.0,,13.0,,0.01,,74.0,,,,3.0,,KIGQ 032035Z AUTO 33008KT 3SM -RA OVC007 04/04 A2976 RMK AO2 P0001  T00400040,,,700.0,,,39.2,34.99,NNW,29.11,29.16,,Light Rain
KIGQ,01/03/2017 20:55 UTC,29.77,38.84,38.84,100.0,9.22,320.0,,1.0,,0.01,0.06,54.0,,,,3.0,,KIGQ 032055Z AUTO 32008KT 3SM RA OVC005 04/04 A2977 RMK AO2 P0001  60006 T00380038,,,500.0,,,38.84,34.57,NW,29.12,29.18,,Rain
KIGQ,01/03/2017 21:15 UTC,29.77,38.48,38.48,100.0,9.22,340.0,,2.0,,,,53.0,124.0,,,3.0,,KIGQ 032115Z AUTO 34008KT 3SM DZ BKN005 OVC012 04/04 A2977 RMK AO2  T00360036,,,500.0,,,38.48,34.14,NNW,29.12,29.19,,Drizzle
KIGQ,01/03/2017 21:35 UTC,29.76,38.48,38.48,100.0,9.22,340.0,,31.0,,,,72.0,144.0,,,4.0,,KIGQ 032135Z AUTO 34008KT 4SM BR SCT007 OVC014 04/04 A2976 RMK AO2  T00360036,,,1400.0,,,38.48,34.14,NNW,29.11,29.18,,Mist
KIGQ,01/03/2017 21:55 UTC,29.77,38.12,38.12,100.0,6.91,330.0,,,,,,74.0,,,,7.0,,KIGQ 032155Z AUTO 33006KT 7SM OVC007 03/03 A2977 RMK AO2  T00340034,,,700.0,,,38.12,,NNW,29.12,29.2,,Overcast
KIGQ,01/03/2017 22:15 UTC,29.78,37.94,37.94,100.0,9.22,320.0,,,,,,74.0,,,,10.0,,KIGQ 032215Z AUTO 32008KT 10SM OVC007 03/03 A2978 RMK AO2  T00330033,,,700.0,,,37.94,33.5,NW,29.13,29.21,,Overcast
KIGQ,01/03/2017 22:35 UTC,29.78,37.94,37.94,100.0,6.91,300.0,,,,,,114.0,,,,10.0,,KIGQ 032235Z AUTO 30006KT 10SM OVC011 03/03 A2978 RMK AO2  T00330033,,,1100.0,,,37.94,,WNW,29.13,29.21,,Overcast
KIGQ,01/03/2017 22:55 UTC,29.8,37.76,37.58,100.0,8.05,300.0,,,,,,114.0,,,,10.0,,KIGQ 032255Z AUTO 30007KT 10SM OVC011 03/03 A2980 RMK AO2  T00320031,,,1100.0,,,37.76,33.84,WNW,29.15,29.24,,Overcast
KIGQ,01/03/2017 23:15 UTC,29.81,37.4,37.04,100.0,9.22,290.0,,,,,,114.0,,,,7.0,,KIGQ 032315Z AUTO 29008KT 7SM OVC011 03/03 A2981 RMK AO2  T00300028,,,1100.0,,,37.4,32.86,WNW,29.16,29.26,,Overcast
KIGQ,01/03/2017 23:35 UTC,29.82,36.68,36.5,100.0,9.22,300.0,19.57,2.0,,,,94.0,,,,4.0,,KIGQ 032335Z AUTO 30008G17KT 4SM DZ OVC009 03/03 A2982 RMK AO2  T00260025,,,900.0,,,36.68,32.0,WNW,29.17,29.29,,Drizzle
KIGQ,01/03/2017 23:55 UTC,29.83,35.96,35.78,100.0,14.97,300.0,25.32,2.0,,,,94.0,,0.06,,3.0,,KIGQ 032355Z AUTO 30013G22KT 3SM DZ OVC009 02/02 A2983 RMK AO2  60006 T00220021 10048 20022,40.64,35.96,900.0,,,35.96,28.98,WNW,29.18,29.32,,Drizzle
KIGQ,01/04/2017 00:15 UTC,29.83,35.6,35.06,100.0,13.8,310.0,21.85,,,,,94.0,,,,10.0,,KIGQ 040015Z AUTO 31012G19KT 10SM OVC009 02/02 A2983 RMK AO2  T00200017,,,900.0,,,35.6,28.91,NW,29.18,29.33,,Overcast
KIGQ,01/04/2017 00:35 UTC,29.83,35.6,34.88,100.0,16.11,300.0,21.85,,,,,94.0,,,,10.0,,KIGQ 040035Z AUTO 30014G19KT 10SM OVC009 02/02 A2983 RMK AO2  T00200016,,,900.0,,,35.6,28.19,WNW,29.18,29.33,,Overcast
KIGQ,01/04/2017 00:55 UTC,29.84,35.6,34.88,100.0,13.8,310.0,21.85,,,,,94.0,,,,7.0,,KIGQ 040055Z AUTO 31012G19KT 7SM OVC009 02/02 A2984 RMK AO2  T00200016,,,900.0,,,35.6,28.91,NW,29.19,29.34,,Overcast
KIGQ,01/04/2017 01:15 UTC,29.83,34.88,34.34,93.08,10.36,300.0,,,,,,94.0,,,,7.0,,KIGQ 040115Z AUTO 30009KT 7SM OVC009 02/01 A2983 RMK AO2  T00160013,,,900.0,,,33.06,29.35,WNW,29.18,29.38,,Overcast
KIGQ,01/04/2017 01:35 UTC,29.84,34.7,33.98,93.08,13.8,300.0,18.41,,,,,94.0,,,,7.0,,KIGQ 040135Z AUTO 30012G16KT 7SM OVC009 02/01 A2984 RMK AO2  T00150011,,,900.0,,,32.88,27.81,WNW,29.19,29.39,,Overcast
KIGQ,01/04/2017 01:55 UTC,29.84,34.7,33.62,93.08,10.36,290.0,18.41,,,,,114.0,,,,10.0,,KIGQ 040155Z AUTO 29009G16KT 10SM OVC011 02/01 A2984 RMK AO2  T00150009,,,1100.0,,,32.88,29.13,WNW,29.19,29.39,,Overcast
KIGQ,01/04/2017 02:15 UTC,29.83,33.8,32.54,93.02,9.22,290.0,,,,,,132.0,203.0,,,10.0,,KIGQ 040215Z AUTO 29008KT 10SM SCT013 BKN020 01/00 A2983 RMK AO2  T00100003,,,2000.0,,,31.97,28.59,WNW,29.18,29.4,,Mostly Cloudy
KIGQ,01/04/2017 02:35 UTC,29.84,33.98,32.36,93.02,12.66,280.0,17.27,,,,,194.0,,,,10.0,,KIGQ 040235Z AUTO 28011G15KT 10SM OVC019 01/00 A2984 RMK AO2  T00110002,,,1900.0,,,32.15,27.34,W,29.19,29.41,,Overcast
KIGQ,01/04/2017 02:55 UTC,29.85,33.26,32.0,93.02,20.71,270.0,26.46,,,,,123.0,194.0,,,7.0,,KIGQ 040255Z AUTO 27018G23KT 7SM BKN012 OVC019 01/00 A2985 RMK AO2  T00070000,,,1200.0,,,31.43,24.01,W,29.2,29.43,,Overcast
KIGQ,01/04/2017 03:15 UTC,29.85,30.92,29.12,92.91,21.85,270.0,26.46,,,,,124.0,,,,7.0,,KIGQ 040315Z AUTO 27019G23KT 7SM OVC012 M01/M02 A2985 RMK AO2  T10061016,,,1200.0,,,29.08,20.76,W,29.2,29.48,,Overcast
KIGQ,01/04/2017 03:35 UTC,29.86,29.12,27.14,92.85,23.02,280.0,29.93,,,,,124.0,,,,10.0,,KIGQ 040335Z AUTO 28020G26KT 10SM OVC012 M02/M03 A2986 RMK AO2  T10161027,,,1200.0,,,27.28,18.17,W,29.21,29.53,,Overcast
KIGQ,01/04/2017 03:55 UTC,29.86,28.4,25.7,89.45,12.66,290.0,24.16,,,,,124.0,,,,10.0,,KIGQ 040355Z AUTO 29011G21KT 10SM OVC012 M02/M03 A2986 RMK AO2  T10201035,,,1200.0,,,25.65,20.55,WNW,29.21,29.55,,Overcast
KIGQ,01/04/2017 04:15 UTC,29.87,28.22,25.52,86.15,12.66,280.0,18.41,,,,,144.0,,,,10.0,,KIGQ 040415Z AUTO 28011G16KT 10SM OVC014 M02/M04 A2987 RMK AO2  T10211036,,,1400.0,,,24.56,20.33,W,29.22,29.57,,Overcast
KIGQ,01/04/2017 04:35 UTC,29.89,26.6,23.36,86.04,16.11,270.0,23.02,,,,,143.0,,,,10.0,,KIGQ 040435Z AUTO 27014G20KT 10SM BKN014 M03/M05 A2989 RMK AO2  T10301048,,,1400.0,,,22.94,17.03,W,29.24,29.62,,Mostly Cloudy
KIGQ,01/04/2017 04:55 UTC,29.89,24.8,21.2,85.93,11.5,280.0,16.11,,,,,182.0,,,,10.0,,KIGQ 040455Z AUTO 28010G14KT 10SM SCT018 M04/M06 A2989 RMK AO2  T10401060,,,,,,21.14,16.71,W,29.24,29.65,,Partly Cloudy
KIGQ,01/04/2017 05:15 UTC,29.91,23.72,19.94,85.82,17.27,280.0,21.85,,,,,202.0,,,,10.0,,KIGQ 040515Z AUTO 28015G19KT 10SM SCT020 M05/M07 A2991 RMK AO2  T10461067,,,,,,20.04,13.05,W,29.26,29.68,,Partly Cloudy
KIGQ,01/04/2017 05:35 UTC,29.91,22.46,17.78,79.42,14.97,290.0,20.71,,,,,182.0,,,,10.0,,KIGQ 040535Z AUTO 29013G18KT 10SM SCT018 M05/M08 A2991 RMK AO2  T10531079,,,,,,16.98,12.34,WNW,29.26,29.71,,Partly Cloudy
KIGQ,01/04/2017 05:55 UTC,29.91,21.2,16.52,81.79,13.8,290.0,23.02,,,,,1.0,,,,10.0,,KIGQ 040555Z AUTO 29012G20KT 10SM CLR M06/M09 A2991 RMK AO2  T10601086 10022 21060 400481060,35.96,21.2,,40.64,21.2,16.44,11.28,WNW,29.26,29.72,,Clear
KIGQ,01/04/2017 06:15 UTC,29.92,20.66,16.34,79.26,19.57,290.0,26.46,,,,,1.0,,,,10.0,,KIGQ 040615Z AUTO 29017G23KT 10SM CLR M06/M09 A2992 RMK AO2  T10631087,,,,,,15.18,8.44,WNW,29.27,29.75,,Clear
KIGQ,01/04/2017 06:35 UTC,29.92,19.4,14.9,85.59,12.66,280.0,25.32,,,,,1.0,,,,10.0,,KIGQ 040635Z AUTO 28011G22KT 10SM CLR M07/M09 A2992 RMK AO2  T10701095,,,,,,15.74,9.61,W,29.27,29.75,,Clear
KIGQ,01/04/2017 06:55 UTC,29.93,18.86,14.54,82.9,14.97,300.0,24.16,,,,,1.0,,,,10.0,,KIGQ 040655Z AUTO 30013G21KT 10SM CLR M07/M10 A2993 RMK AO2  T10731097,,,,,,14.46,7.9,WNW,29.28,29.77,,Clear
KIGQ,01/04/2017 07:15 UTC,29.94,18.32,13.64,85.47,20.71,280.0,29.93,,,,,1.0,,,,10.0,,KIGQ 040715Z AUTO 28018G26KT 10SM CLR M08/M10 A2994 RMK AO2  T10761102,,,,,,14.64,5.11,W,29.29,29.78,,Clear
KIGQ,01/04/2017 07:35 UTC,29.95,17.6,13.1,85.47,16.11,270.0,,,,,,1.0,,,,10.0,,KIGQ 040735Z AUTO 27014KT 10SM CLR M08/M10 A2995 RMK AO2  T10801105,,,,,,13.93,5.88,W,29.3,29.8,,Clear
KIGQ,01/04/2017 07:55 UTC,29.96,16.88,12.02,78.94,14.97,280.0,26.46,,,,,1.0,,,,10.0,,KIGQ 040755Z AUTO 28013G23KT 10SM CLR M08/M11 A2996 RMK AO2  T10841111,,,,,,11.4,5.46,W,29.31,29.83,,Clear
KIGQ,01/04/2017 08:15 UTC,29.97,16.34,11.84,85.36,14.97,280.0,20.71,,,,,1.0,,,,10.0,,KIGQ 040815Z AUTO 28013G18KT 10SM CLR M09/M11 A2997 RMK AO2  T10871112,,,,,,12.67,4.8,W,29.32,29.83,,Clear
KIGQ,01/04/2017 08:35 UTC,29.98,15.62,10.76,78.77,17.27,280.0,28.77,,,,,1.0,,,,10.0,,KIGQ 040835Z AUTO 28015G25KT 10SM CLR M09/M12 A2998 RMK AO2  T10911118,,,,,,10.13,2.95,W,29.33,29.86,,Clear
KIGQ,01/04/2017 08:55 UTC,29.98,14.9,10.4,78.77,21.85,290.0,29.93,,,,,1.0,,,,10.0,,KIGQ 040855Z AUTO 29019G26KT 10SM CLR M09/M12 A2998 RMK AO2  T10951120,,,,,,9.43,0.41,WNW,29.33,29.87,,Clear
KIGQ,01/04/2017 09:15 UTC,29.98,14.0,9.14,78.61,18.41,270.0,26.46,,,,,1.0,,,,10.0,,KIGQ 040915Z AUTO 27016G23KT 10SM CLR M10/M13 A2998 RMK AO2  T11001127,,,,,,8.51,0.48,W,29.33,29.88,,Clear
KIGQ,01/04/2017 09:35 UTC,29.98,14.0,8.78,78.61,9.22,290.0,23.02,,,,,1.0,,,,10.0,,KIGQ 040935Z AUTO 29008G20KT 10SM CLR M10/M13 A2998 RMK AO2  T11001129,,,,,,8.51,5.09,WNW,29.33,29.88,,Clear
KIGQ,01/04/2017 09:55 UTC,29.98,14.0,9.32,78.61,12.66,280.0,25.32,,,,,1.0,,,,10.0,,KIGQ 040955Z AUTO 28011G22KT 10SM CLR M10/M13 A2998 RMK AO2  T11001126,,,,,,8.51,3.04,W,29.33,29.88,,Clear
KIGQ,01/04/2017 10:15 UTC,29.99,13.82,8.96,78.61,11.5,280.0,17.27,,,,,1.0,,,,10.0,,KIGQ 041015Z AUTO 28010G15KT 10SM CLR M10/M13 A2999 RMK AO2  T11011128,,,,,,8.33,3.46,W,29.34,29.89,,Clear
KIGQ,01/04/2017 10:35 UTC,30.0,13.28,8.42,78.61,13.8,280.0,19.57,,,,,1.0,,,,10.0,,KIGQ 041035Z AUTO 28012G17KT 10SM CLR M10/M13 A3000 RMK AO2  T11041131,,,,,,7.8,1.58,W,29.35,29.9,,Clear
KIGQ,01/04/2017 10:55 UTC,30.0,13.1,7.52,72.44,11.5,290.0,23.02,,,,,1.0,,,,10.0,,KIGQ 041055Z AUTO 29010G20KT 10SM CLR M10/M14 A3000 RMK AO2  T11051136,,,,,,5.81,2.59,WNW,29.35,29.91,,Clear
KIGQ,01/04/2017 11:15 UTC,30.01,12.92,6.98,78.44,11.5,290.0,20.71,,,,,1.0,,,,10.0,,KIGQ 041115Z AUTO 29010G18KT 10SM CLR M11/M14 A3001 RMK AO2  T11061139,,,,,,7.41,2.37,WNW,29.36,29.92,,Clear
KIGQ,01/04/2017 11:35 UTC,30.01,12.74,6.8,78.44,12.66,290.0,26.46,,,,,1.0,,,,10.0,,KIGQ 041135Z AUTO 29011G23KT 10SM CLR M11/M14 A3001 RMK AO2  T11071140,,,,,,7.23,1.51,WNW,29.36,29.92,,Clear
KIGQ,01/04/2017 11:55 UTC,30.02,12.2,6.44,78.44,12.66,290.0,21.85,,,,,1.0,,,0.06,10.0,,KIGQ 041155Z AUTO 29011G19KT 10SM CLR M11/M14 A3002 RMK AO2 70006  T11101142 11060 21110,21.2,12.2,,,,6.71,0.85,WNW,29.37,29.93,,Clear
KIGQ,01/04/2017 12:15 UTC,30.03,12.2,6.62,78.44,8.05,300.0,16.11,,,,,1.0,,,,10.0,,KIGQ 041215Z AUTO 30007G14KT 10SM CLR M11/M14 A3003 RMK AO2  T11101141,,,,,,6.71,3.82,WNW,29.38,29.94,,Clear
KIGQ,01/04/2017 12:35 UTC,30.03,12.02,6.44,78.44,12.66,290.0,17.27,,,,,1.0,,,,10.0,,KIGQ 041235Z AUTO 29011G15KT 10SM CLR M11/M14 A3003 RMK AO2  T11111142,,,,,,6.53,0.63,WNW,29.38,29.94,,Clear
KIGQ,01/04/2017 12:55 UTC,30.03,11.66,5.9,78.44,10.36,300.0,21.85,,,,,1.0,,,,10.0,,KIGQ 041255Z AUTO 30009G19KT 10SM CLR M11/M14 A3003 RMK AO2  T11131145,,,,,,6.18,1.55,WNW,29.38,29.95,,Clear
KIGQ,01/04/2017 13:15 UTC,30.04,11.66,5.9,78.44,13.8,280.0,20.71,,,,,1.0,,,,10.0,,KIGQ 041315Z AUTO 28012G18KT 10SM CLR M11/M14 A3004 RMK AO2  T11131145,,,,,,6.18,-0.4,W,29.39,29.96,,Clear
KIGQ,01/04/2017 13:35 UTC,30.04,11.66,6.26,78.44,14.97,270.0,19.57,,,,,1.0,,,,10.0,,KIGQ 041335Z AUTO 27013G17KT 10SM CLR M11/M14 A3004 RMK AO2  T11131143,,,,,,6.18,-0.97,W,29.39,29.96,,Clear
KIGQ,01/04/2017 13:55 UTC,30.05,12.2,6.8,78.44,14.97,280.0,20.71,,,,,1.0,,,,10.0,,KIGQ 041355Z AUTO 28013G18KT 10SM CLR M11/M14 A3005 RMK AO2  T11101140,,,,,,6.71,-0.3,W,29.4,29.96,,Clear
KIGQ,01/04/2017 14:15 UTC,30.05,12.38,6.98,78.44,13.8,270.0,20.71,,,,,1.0,,,,10.0,,KIGQ 041415Z AUTO 27012G18KT 10SM CLR M11/M14 A3005 RMK AO2  T11091139,,,,,,6.88,0.48,W,29.4,29.96,,Clear
KIGQ,01/04/2017 14:35 UTC,30.05,12.56,6.8,78.44,11.5,280.0,19.57,,,,,1.0,,,,10.0,,KIGQ 041435Z AUTO 28010G17KT 10SM CLR M11/M14 A3005 RMK AO2  T11081140,,,,,,7.06,1.93,W,29.4,29.96,,Clear
KIGQ,01/04/2017 14:55 UTC,30.05,12.92,7.34,78.44,16.11,280.0,21.85,,,,,212.0,,,,10.0,,KIGQ 041455Z AUTO 28014G19KT 10SM SCT021 M11/M14 A3005 RMK AO2  T11061137,,,,,,7.41,0.07,W,29.4,29.96,,Partly Cloudy
KIGQ,01/04/2017 15:15 UTC,30.06,13.64,7.52,72.44,18.41,260.0,26.46,,,,,212.0,,,,10.0,,KIGQ 041515Z AUTO 26016G23KT 10SM SCT021 M10/M14 A3006 RMK AO2  T11021136,,,,,,6.33,0.03,W,29.41,29.97,,Partly Cloudy
KIGQ,01/04/2017 15:35 UTC,30.07,14.18,7.52,72.44,14.97,260.0,24.16,,,,,232.0,,,,10.0,,KIGQ 041535Z AUTO 26013G21KT 10SM SCT023 M10/M14 A3007 RMK AO2  T10991136,,,,,,6.85,2.14,W,29.42,29.97,,Partly Cloudy
KIGQ,01/04/2017 15:55 UTC,30.07,14.9,8.24,72.65,18.41,260.0,21.85,,,,,232.0,,,,10.0,,KIGQ 041555Z AUTO 26016G19KT 10SM SCT023 M09/M13 A3007 RMK AO2  T10951132,,,,,,7.61,1.61,W,29.42,29.97,,Partly Cloudy
KIGQ,01/04/2017 16:15 UTC,30.07,15.26,8.42,72.65,19.57,270.0,25.32,,,,,232.0,,,,10.0,,KIGQ 041615Z AUTO 27017G22KT 10SM SCT023 M09/M13 A3007 RMK AO2  T10931131,,,,,,7.96,1.64,W,29.42,29.96,,Partly Cloudy
KIGQ,01/04/2017 16:35 UTC,30.07,15.08,7.7,72.65,13.8,290.0,25.32,,,,,1.0,,,,10.0,,KIGQ 041635Z AUTO 29012G22KT 10SM CLR M09/M13 A3007 RMK AO2  T10941135,,,,,,7.78,3.79,WNW,29.42,29.97,,Clear
KIGQ,01/04/2017 16:55 UTC,30.07,15.8,8.24,72.65,18.41,270.0,24.16,,,,,1.0,,,,10.0,,KIGQ 041655Z AUTO 27016G21KT 10SM CLR M09/M13 A3007 RMK AO2  T10901132,,,,,,8.48,2.74,W,29.42,29.96,,Clear
KIGQ,01/04/2017 17:15 UTC,30.06,16.34,8.42,72.65,14.97,270.0,25.32,,,,,262.0,,,,10.0,,KIGQ 041715Z AUTO 27013G22KT 10SM SCT026 M09/M13 A3006 RMK AO2  T10871131,,,,,,9.0,4.8,W,29.41,29.94,,Partly Cloudy
KIGQ,01/04/2017 17:35 UTC,30.05,17.06,8.42,67.19,14.97,280.0,27.63,,,,,262.0,,,,10.0,,KIGQ 041735Z AUTO 28013G24KT 10SM SCT026 M08/M13 A3005 RMK AO2  T10831131,,,,,,7.94,5.69,W,29.4,29.94,,Partly Cloudy
KIGQ,01/04/2017 17:55 UTC,30.04,17.6,8.78,67.19,17.27,270.0,28.77,,,,,1.0,,,,10.0,,KIGQ 041755Z AUTO 27015G25KT 10SM CLR M08/M13 A3004 RMK AO2  T10801129 11080 21113,17.6,11.66,,,,8.45,5.42,W,29.39,29.92,,Clear
KIGQ,01/04/2017 18:15 UTC,30.03,18.14,8.42,67.19,14.97,280.0,23.02,,,,,1.0,,,,10.0,,KIGQ 041815Z AUTO 28013G20KT 10SM CLR M08/M13 A3003 RMK AO2  T10771131,,,,,,8.97,7.02,W,29.38,29.91,,Clear
KIGQ,01/04/2017 18:35 UTC,30.02,18.5,9.14,62.18,16.11,270.0,25.32,,,,,1.0,,,,10.0,,KIGQ 041835Z AUTO 27014G22KT 10SM CLR M07/M13 A3002 RMK AO2  T10751127,,,,,,7.58,6.99,W,29.37,29.9,,Clear
KIGQ,01/04/2017 18:55 UTC,30.02,19.22,9.32,62.18,20.71,260.0,26.46,,,,,1.0,,,,10.0,,KIGQ 041855Z AUTO 26018G23KT 10SM CLR M07/M13 A3002 RMK AO2  T10711126,,,,,,8.26,6.25,W,29.37,29.9,,Clear
KIGQ,01/04/2017 19:15 UTC,30.02,19.4,9.14,62.18,17.27,270.0,25.32,,,,,1.0,,,,10.0,,KIGQ 041915Z AUTO 27015G22KT 10SM CLR M07/M13 A3002 RMK AO2  T10701127,,,,,,8.43,7.66,W,29.37,29.89,,Clear
KIGQ,01/04/2017 19:35 UTC,30.02,19.94,9.68,67.42,19.57,260.0,26.46,,,,,1.0,,,,10.0,,KIGQ 041935Z AUTO 26017G23KT 10SM CLR M07/M12 A3002 RMK AO2  T10671124,,,,,,10.77,7.53,W,29.37,29.88,,Clear
KIGQ,01/04/2017 19:55 UTC,30.02,20.12,9.32,62.18,21.85,270.0,28.77,,,,,1.0,,,,10.0,,KIGQ 041955Z AUTO 27019G25KT 10SM CLR M07/M13 A3002 RMK AO2  T10661126,,,,,,9.11,7.04,W,29.37,29.89,,Clear
KIGQ,01/04/2017 20:15 UTC,30.02,19.94,8.78,62.18,19.57,270.0,27.63,,,,,1.0,,,,10.0,,KIGQ 042015Z AUTO 27017G24KT 10SM CLR M07/M13 A3002 RMK AO2  T10671129,,,,,,8.94,7.53,W,29.37,29.89,,Clear
KIGQ,01/04/2017 20:35 UTC,30.02,19.76,8.24,62.18,18.41,260.0,25.32,,,,,1.0,,,,10.0,,KIGQ 042035Z AUTO 26016G22KT 10SM CLR M07/M13 A3002 RMK AO2  T10681132,,,,,,8.77,7.7,W,29.37,29.89,,Clear
KIGQ,01/04/2017 20:55 UTC,30.03,19.22,7.7,62.18,19.57,260.0,26.46,,,,,1.0,,,,10.0,,KIGQ 042055Z AUTO 26017G23KT 10SM CLR M07/M13 A3003 RMK AO2  T10711135,,,,,,8.26,6.62,W,29.38,29.91,,Clear
KIGQ,01/04/2017 21:15 UTC,30.02,19.22,7.52,57.3,18.41,280.0,26.46,,,,,1.0,,,,10.0,,KIGQ 042115Z AUTO 28016G23KT 10SM CLR M07/M14 A3002 RMK AO2  T10711136,,,,,,6.44,7.02,W,29.37,29.9,,Clear
KIGQ,01/04/2017 21:35 UTC,30.02,19.22,6.8,57.3,19.57,270.0,25.32,,,,,1.0,,,,10.0,,KIGQ 042135Z AUTO 27017G22KT 10SM CLR M07/M14 A3002 RMK AO2  T10711140,,,,,,6.44,6.62,W,29.37,29.9,,Clear
KIGQ,01/04/2017 21:55 UTC,30.03,18.5,5.36,52.77,18.41,270.0,27.63,,,,,1.0,,,,10.0,,KIGQ 042155Z AUTO 27016G24KT 10SM CLR M07/M15 A3003 RMK AO2  T10751148,,,,,,3.95,6.12,W,29.38,29.93,,Clear
KIGQ,01/04/2017 22:15 UTC,30.03,17.6,4.46,57.02,17.27,280.0,25.32,,,,,1.0,,,,10.0,,KIGQ 042215Z AUTO 28015G22KT 10SM CLR M08/M15 A3003 RMK AO2  T10801153,,,,,,4.81,5.42,W,29.38,29.93,,Clear
KIGQ,01/04/2017 22:35 UTC,30.04,17.24,5.36,57.02,14.97,290.0,24.16,,,,,1.0,,,,10.0,,KIGQ 042235Z AUTO 29013G21KT 10SM CLR M08/M15 A3004 RMK AO2  T10821148,,,,,,4.47,5.91,WNW,29.39,29.94,,Clear
KIGQ,01/04/2017 22:55 UTC,30.04,16.7,5.0,57.02,16.11,270.0,23.02,,,,,1.0,,,,10.0,,KIGQ 042255Z AUTO 27014G20KT 10SM CLR M08/M15 A3004 RMK AO2  T10851150,,,,,,3.96,4.76,W,29.39,29.95,,Clear
KIGQ,01/04/2017 23:15 UTC,30.04,16.52,4.46,61.66,14.97,270.0,23.02,,,,,1.0,,,,10.0,,KIGQ 042315Z AUTO 27013G20KT 10SM CLR M09/M15 A3004 RMK AO2  T10861153,,,,,,5.51,5.02,W,29.39,29.94,,Clear
KIGQ,01/04/2017 23:35 UTC,30.05,15.98,5.54,62.71,10.36,270.0,,,,,,1.0,,,,10.0,,KIGQ 042335Z AUTO 27009KT 10SM CLR M09/M15 A3005 RMK AO2  T10891147,,,,,,5.37,6.72,W,29.4,29.95,,Clear
KIGQ,01/04/2017 23:55 UTC,30.05,15.8,5.72,61.66,10.36,280.0,,,,,,1.0,,,,10.0,,KIGQ 042355Z AUTO 28009KT 10SM CLR M09/M15 A3005 RMK AO2 T10901146  11065 21090,20.3,15.8,,,,4.83,6.5,W,29.4,29.96,,Clear
KIGQ,01/05/2017 00:15 UTC,30.05,15.62,5.72,61.66,13.8,280.0,18.41,,,,,1.0,,,,10.0,,KIGQ 050015Z AUTO 28012G16KT 10SM CLR M09/M15 A3005 RMK AO2  T10911146,,,,,,4.66,4.45,W,29.4,29.96,,Clear
KIGQ,01/05/2017 00:35 UTC,30.04,15.26,5.36,61.66,10.36,290.0,21.85,,,,,1.0,,,,10.0,,KIGQ 050035Z AUTO 29009G19KT 10SM CLR M09/M15 A3004 RMK AO2  T10931148,,,,,,4.32,5.86,WNW,29.39,29.95,,Clear
KIGQ,01/05/2017 00:55 UTC,30.05,14.72,5.18,66.71,10.36,280.0,,,,,,1.0,,,,10.0,,KIGQ 050055Z AUTO 28009KT 10SM CLR M10/M15 A3005 RMK AO2  T10961149,,,,,,5.54,5.21,W,29.4,29.96,,Clear
KIGQ,01/05/2017 01:15 UTC,30.04,14.0,5.72,66.71,8.05,300.0,,,,,,1.0,,,,10.0,,KIGQ 050115Z AUTO 30007KT 10SM CLR M10/M15 A3004 RMK AO2  T11001146,,,,,,4.85,5.93,WNW,29.39,29.95,,Clear
KIGQ,01/05/2017 01:35 UTC,30.04,14.0,5.54,66.71,9.22,270.0,,,,,,1.0,,,,10.0,,KIGQ 050135Z AUTO 27008KT 10SM CLR M10/M15 A3004 RMK AO2  T11001147,,,,,,4.85,5.09,W,29.39,29.95,,Clear
KIGQ,01/05/2017 01:55 UTC,30.04,14.0,5.72,66.71,11.5,270.0,16.11,,,,,1.0,,,,10.0,,KIGQ 050155Z AUTO 27010G14KT 10SM CLR M10/M15 A3004 RMK AO2  T11001146,,,,,,4.85,3.67,W,29.39,29.95,,Clear
KIGQ,01/05/2017 02:15 UTC,30.04,13.82,5.9,72.44,12.66,270.0,,,,,,1.0,,,,10.0,,KIGQ 050215Z AUTO 27011KT 10SM CLR M10/M14 A3004 RMK AO2  T11011145,,,,,,6.5,2.82,W,29.39,29.95,,Clear
KIGQ,01/05/2017 02:35 UTC,30.04,13.64,5.18,66.71,13.8,270.0,20.71,,,,,1.0,,,,10.0,,KIGQ 050235Z AUTO 27012G18KT 10SM CLR M10/M15 A3004 RMK AO2  T11021149,,,,,,4.51,2.02,W,29.39,29.96,,Clear
KIGQ,01/05/2017 02:55 UTC,30.04,13.1,4.64,66.71,14.97,270.0,21.85,,,,,1202.0,,,,10.0,,KIGQ 050255Z AUTO 27013G19KT 10SM SCT120 M10/M15 A3004 RMK AO2  T11051152,,,,,,3.99,0.81,W,29.39,29.96,,Partly Cloudy
KIGQ,01/05/2017 03:15 UTC,30.04,13.1,4.46,66.71,18.41,270.0,24.16,,,,,1202.0,,,,10.0,,KIGQ 050315Z AUTO 27016G21KT 10SM SCT120 M10/M15 A3004 RMK AO2  T11051153,,,,,,3.99,-0.64,W,29.39,29.96,,Partly Cloudy
KIGQ,01/05/2017 03:35 UTC,30.04,12.74,4.82,72.24,18.41,270.0,23.02,,,,,1.0,,,,10.0,,KIGQ 050335Z AUTO 27016G20KT 10SM CLR M11/M15 A3004 RMK AO2  T11071151,,,,,,5.4,-1.09,W,29.39,29.96,,Clear
KIGQ,01/05/2017 03:55 UTC,30.04,12.2,4.28,72.24,19.57,270.0,25.32,,,,,1.0,,,,10.0,,KIGQ 050355Z AUTO 27017G22KT 10SM CLR M11/M15 A3004 RMK AO2  T11101154,,,,,,4.88,-2.21,W,29.39,29.96,,Clear
KIGQ,01/05/2017 04:15 UTC,30.05,12.2,4.1,72.24,14.97,280.0,,,,,,1.0,,,,10.0,,KIGQ 050415Z AUTO 28013KT 10SM CLR M11/M15 A3005 RMK AO2  T11101155,,,,,,4.88,-0.3,W,29.4,29.97,,Clear
KIGQ,01/05/2017 04:35 UTC,30.05,12.02,4.28,72.24,16.11,280.0,,,,,,1202.0,,,,10.0,,KIGQ 050435Z AUTO 28014KT 10SM SCT120 M11/M15 A3005 RMK AO2  T11111154,,,,,,4.71,-1.04,W,29.4,29.97,,Partly Cloudy
KIGQ,01/05/2017 04:55 UTC,30.06,12.2,4.82,72.24,14.97,270.0,,,,,,1203.0,,,,10.0,,KIGQ 050455Z AUTO 27013KT 10SM BKN120 M11/M15 A3006 RMK AO2  T11101151,,,12000.0,,,4.88,-0.3,W,29.41,29.98,,Mostly Cloudy
KIGQ,01/05/2017 05:20 UTC,30.05,11.66,3.92,66.47,16.11,280.0,19.57,,,,,1104.0,,,,10.0,,KIGQ 050520Z AUTO 28014G17KT 10SM OVC110 M11/M16 A3005 RMK AO2  T11131156,,,11000.0,,,2.54,-1.49,W,29.4,29.98,,Overcast
KIGQ,01/05/2017 05:35 UTC,30.04,11.66,4.1,72.24,10.36,290.0,,,,,,1004.0,,,,10.0,,KIGQ 050535Z AUTO 29009KT 10SM OVC100 M11/M15 A3004 RMK AO2  T11131155,,,10000.0,,,4.36,1.55,WNW,29.39,29.96,,Overcast
KIGQ,01/05/2017 05:55 UTC,30.04,11.3,4.1,72.24,12.66,290.0,,,,,,1004.0,,,,10.0,,KIGQ 050555Z AUTO 29011KT 10SM OVC100 M11/M15 A3004 RMK AO2  T11151155 11090 21115 410601115,15.8,11.3,10000.0,21.2,11.3,4.01,-0.24,WNW,29.39,29.97,,Overcast
KIGQ,01/05/2017 06:15 UTC,30.04,10.94,4.1,78.27,8.05,300.0,17.27,,,,,1004.0,,,,10.0,,KIGQ 050615Z AUTO 30007G15KT 10SM OVC100 M12/M15 A3004 RMK AO2  T11171155,,,10000.0,,,5.43,2.34,WNW,29.39,29.96,,Overcast
KIGQ,01/05/2017 06:35 UTC,30.03,10.4,3.92,72.03,11.5,300.0,,,,,,903.0,,,,10.0,,KIGQ 050635Z AUTO 30010KT 10SM BKN090 M12/M16 A3003 RMK AO2  T11201156,,,9000.0,,,3.08,-0.67,WNW,29.38,29.96,,Mostly Cloudy
KIGQ,01/05/2017 06:55 UTC,30.04,10.22,3.92,72.03,9.22,280.0,,,,,,902.0,1202.0,,,10.0,,KIGQ 050655Z AUTO 28008KT 10SM SCT090 SCT120 M12/M16 A3004 RMK AO2  T11211156,,,,,,2.91,0.6,W,29.39,29.97,,Partly Cloudy
KIGQ,01/05/2017 07:15 UTC,30.04,10.04,3.92,72.03,9.22,290.0,17.27,,,,,903.0,1203.0,,,10.0,,KIGQ 050715Z AUTO 29008G15KT 10SM BKN090 BKN120 M12/M16 A3004 RMK AO2 T11221156,,,9000.0,,,2.73,0.39,WNW,29.39,29.98,,Mostly Cloudy
KIGQ,01/05/2017 07:35 UTC,30.05,9.86,3.38,72.03,14.97,280.0,19.57,,,,,904.0,,,,10.0,,KIGQ 050735Z AUTO 28013G17KT 10SM OVC090 M12/M16 A3005 RMK AO2  T11231159,,,9000.0,,,2.56,-3.19,W,29.4,29.99,,Overcast
KIGQ,01/05/2017 07:55 UTC,30.06,9.86,3.74,72.03,13.8,270.0,20.71,,,,,212.0,804.0,,,10.0,,KIGQ 050755Z AUTO 27012G18KT 10SM SCT021 OVC080 M12/M16 A3006 RMK AO2 T11231157,,,8000.0,,,2.56,-2.6,W,29.41,30.0,,Overcast
KIGQ,01/05/2017 08:15 UTC,30.06,9.5,3.38,72.03,13.8,270.0,,,804.0,,,222.0,703.0,,,10.0,,KIGQ 050815Z AUTO 27012KT 10SM SCT022 BKN070 OVC080 M12/M16  A3006 RMK AO2 T11251159,,,7000.0,,,2.21,-3.04,W,29.41,30.0,,Overcast
KIGQ,01/05/2017 08:35 UTC,30.06,9.5,3.56,72.03,12.66,270.0,18.41,,704.0,,,432.0,603.0,,,10.0,,KIGQ 050835Z AUTO 27011G16KT 10SM SCT043 BKN060 OVC070 M12/M16  A3006 RMK AO2 T11251158,,,6000.0,,,2.21,-2.43,W,29.41,30.0,,Overcast
KIGQ,01/05/2017 08:55 UTC,30.06,9.5,3.38,72.03,11.5,280.0,17.27,20.0,,,,483.0,604.0,,,10.0,,KIGQ 050855Z AUTO 28010G15KT 10SM -SN BKN048 OVC060 M12/M16  A3006 RMK AO2 T11251159,,,4800.0,,,2.21,-1.76,W,29.41,30.0,,Light Snow
KIGQ,01/05/2017 09:15 UTC,30.05,8.96,3.2,78.1,11.5,280.0,,20.0,,,,454.0,,,,7.0,,KIGQ 050915Z AUTO 28010KT 7SM -SN OVC045 M13/M16 A3005 RMK AO2  T11281160,,,4500.0,,,3.46,-2.41,W,29.4,29.99,,Light Snow
KIGQ,01/05/2017 09:35 UTC,30.06,8.24,2.12,71.81,12.66,280.0,17.27,20.0,,,,454.0,,,,7.0,,KIGQ 050935Z AUTO 28011G15KT 7SM -SN OVC045 M13/M17 A3006 RMK AO2  T11321166,,,4500.0,,,0.93,-3.96,W,29.41,30.01,,Light Snow
KIGQ,01/05/2017 09:55 UTC,30.07,8.42,2.66,78.1,10.36,300.0,,20.0,,,,474.0,,,,7.0,,KIGQ 050955Z AUTO 30009KT 7SM -SN OVC047 M13/M16 A3007 RMK AO2  T11311163,,,4700.0,,,2.93,-2.33,WNW,29.42,30.01,,Light Snow
KIGQ,01/05/2017 10:15 UTC,30.07,8.24,1.94,71.81,9.22,290.0,,,,,,472.0,604.0,,,10.0,,KIGQ 051015Z AUTO 29008KT 10SM SCT047 OVC060 M13/M17 A3007 RMK AO2  T11321167,,,6000.0,,,0.93,-1.75,WNW,29.42,30.02,,Overcast
KIGQ,01/05/2017 10:35 UTC,30.06,8.42,1.94,71.81,11.5,280.0,17.27,,,,,604.0,,,,10.0,,KIGQ 051035Z AUTO 28010G15KT 10SM OVC060 M13/M17 A3006 RMK AO2  T11311167,,,6000.0,,,1.11,-3.06,W,29.41,30.01,,Overcast
KIGQ,01/05/2017 10:55 UTC,30.06,8.42,1.4,71.81,8.05,300.0,,,704.0,,,492.0,603.0,,,10.0,,KIGQ 051055Z AUTO 30007KT 10SM SCT049 BKN060 OVC070 M13/M17  A3006 RMK AO2 T11311170,,,6000.0,,,1.11,-0.62,WNW,29.41,30.01,,Overcast
KIGQ,01/05/2017 11:15 UTC,30.06,8.24,0.68,71.81,9.22,310.0,16.11,,,,,804.0,,,,10.0,,KIGQ 051115Z AUTO 31008G14KT 10SM OVC080 M13/M17 A3006 RMK AO2  T11321174,,,8000.0,,,0.93,-1.75,NW,29.41,30.01,,Overcast
KIGQ,01/05/2017 11:35 UTC,30.07,8.06,0.5,71.81,11.5,310.0,,,,,,704.0,,,,10.0,,KIGQ 051135Z AUTO 31010KT 10SM OVC070 M13/M17 A3007 RMK AO2  T11331175,,,7000.0,,,0.76,-3.5,NW,29.42,30.02,,Overcast
KIGQ,01/05/2017 11:55 UTC,30.06,8.24,0.32,65.98,8.05,310.0,,,,,,704.0,,,,10.0,,KIGQ 051155Z AUTO 31007KT 10SM OVC070 M13/M18 A3006 RMK AO2  T11321176 11115 21133,11.3,8.06,7000.0,,,-0.89,-0.83,NW,29.41,30.01,,Overcast
KIGQ,01/05/2017 12:15 UTC,30.07,8.24,1.04,71.81,6.91,310.0,,,,,,603.0,754.0,,,10.0,,KIGQ 051215Z AUTO 31006KT 10SM BKN060 OVC075 M13/M17 A3007 RMK AO2  T11321172,,,6000.0,,,0.93,,NW,29.42,30.02,,Overcast
KIGQ,01/05/2017 12:35 UTC,30.06,8.24,1.4,71.81,6.91,300.0,,,,,,754.0,,,,10.0,,KIGQ 051235Z AUTO 30006KT 10SM OVC075 M13/M17 A3006 RMK AO2  T11321170,,,7500.0,,,0.93,,WNW,29.41,30.01,,Overcast
KIGQ,01/05/2017 12:55 UTC,30.06,7.7,1.4,71.81,5.75,300.0,,,,,,652.0,754.0,,,10.0,,KIGQ 051255Z AUTO 30005KT 10SM SCT065 OVC075 M13/M17 A3006 RMK AO2  T11351170,,,7500.0,,,0.41,,WNW,29.41,30.01,,Overcast
KIGQ,01/05/2017 13:15 UTC,30.07,7.7,1.4,71.81,6.91,290.0,,,,,,753.0,854.0,,,10.0,,KIGQ 051315Z AUTO 29006KT 10SM BKN075 OVC085 M13/M17 A3007 RMK AO2  T11351170,,,7500.0,,,0.41,,WNW,29.42,30.02,,Overcast
KIGQ,01/05/2017 13:35 UTC,30.06,7.7,1.4,71.81,8.05,300.0,,,1203.0,,,502.0,753.0,,,10.0,,KIGQ 051335Z AUTO 30007KT 10SM SCT050 BKN075 BKN120 M13/M17  A3006 RMK AO2 T11351170,,,7500.0,,,0.41,-1.47,WNW,29.41,30.01,,Mostly Cloudy
KIGQ,01/05/2017 13:55 UTC,30.06,7.7,1.4,71.81,6.91,310.0,,,,,,502.0,1202.0,,,10.0,,KIGQ 051355Z AUTO 31006KT 10SM SCT050 SCT120 M13/M17 A3006 RMK AO2  T11351170,,,,,,0.41,,NW,29.41,30.01,,Partly Cloudy
KIGQ,01/05/2017 14:15 UTC,30.07,8.24,1.58,71.81,5.75,300.0,,,,,,1203.0,,,,10.0,,KIGQ 051415Z AUTO 30005KT 10SM BKN120 M13/M17 A3007 RMK AO2  T11321169,,,12000.0,,,0.93,,WNW,29.42,30.02,,Mostly Cloudy
KIGQ,01/05/2017 14:35 UTC,30.08,8.6,1.76,71.81,10.36,280.0,,,,,,1202.0,,,,10.0,,KIGQ 051435Z AUTO 28009KT 10SM SCT120 M13/M17 A3008 RMK AO2  T11301168,,,,,,1.28,-2.12,W,29.43,30.03,,Partly Cloudy
KIGQ,01/05/2017 14:55 UTC,30.08,8.6,1.22,71.81,6.91,300.0,,,903.0,,,392.0,702.0,,,10.0,,KIGQ 051455Z AUTO 30006KT 10SM SCT039 SCT070 BKN090 M13/M17  A3008 RMK AO2 T11301171,,,9000.0,,,1.28,,WNW,29.43,30.03,,Mostly Cloudy
KIGQ,01/05/2017 15:15 UTC,30.09,8.96,1.4,71.81,6.91,310.0,,,904.0,,,602.0,653.0,,,10.0,,KIGQ 051515Z AUTO 31006KT 10SM SCT060 BKN065 OVC090 M13/M17  A3009 RMK AO2 T11281170,,,6500.0,,,1.63,,NW,29.44,30.03,,Overcast
KIGQ,01/05/2017 15:35 UTC,30.09,9.32,2.3,78.1,8.05,300.0,,,654.0,,,342.0,553.0,,,10.0,,KIGQ 051535Z AUTO 30007KT 10SM SCT034 BKN055 OVC065 M13/M16  A3009 RMK AO2 T11261165,,,5500.0,,,3.81,0.44,WNW,29.44,30.03,,Overcast
KIGQ,01/05/2017 15:55 UTC,30.09,9.5,2.3,72.03,6.91,310.0,,,502.0,,,332.0,402.0,,,10.0,,KIGQ 051555Z AUTO 31006KT 10SM SCT033 SCT040 SCT050 M12/M16  A3009 RMK AO2 T11251165,,,,,,2.21,,NW,29.44,30.03,,Partly Cloudy
KIGQ,01/05/2017 16:15 UTC,30.09,10.58,2.12,66.23,9.22,290.0,,,,,,1.0,,,,10.0,,KIGQ 051615Z AUTO 29008KT 10SM CLR M12/M17 A3009 RMK AO2  T11191166,,,,,,1.43,1.03,WNW,29.44,30.03,,Clear
KIGQ,01/05/2017 16:35 UTC,30.09,11.12,2.3,72.03,8.05,270.0,,,,,,1.0,,,,10.0,,KIGQ 051635Z AUTO 27007KT 10SM CLR M12/M16 A3009 RMK AO2  T11161165,,,,,,3.77,2.55,W,29.44,30.02,,Clear
KIGQ,01/05/2017 16:55 UTC,30.08,12.2,2.48,66.47,10.36,270.0,,,,,,1.0,,,,10.0,,KIGQ 051655Z AUTO 27009KT 10SM CLR M11/M16 A3008 RMK AO2  T11101164,,,,,,3.05,2.19,W,29.43,30.01,,Clear
KIGQ,01/05/2017 17:15 UTC,30.06,12.2,2.12,61.12,8.05,280.0,,,,,,312.0,,,,10.0,,KIGQ 051715Z AUTO 28007KT 10SM SCT031 M11/M17 A3006 RMK AO2  T11101166,,,,,,1.23,3.82,W,29.41,29.99,,Partly Cloudy
KIGQ,01/05/2017 17:35 UTC,30.05,12.56,1.94,61.12,8.05,260.0,,,,,,312.0,,,,10.0,,KIGQ 051735Z AUTO 26007KT 10SM SCT031 M11/M17 A3005 RMK AO2  T11081167,,,,,,1.57,4.24,W,29.4,29.98,,Partly Cloudy
KIGQ,01/05/2017 17:55 UTC,30.05,12.74,1.58,61.12,12.66,290.0,18.41,,,,,332.0,,,,10.0,,KIGQ 051755Z AUTO 29011G16KT 10SM SCT033 M11/M17 A3005 RMK AO2  T11071169 11100 21135,14.0,7.7,,,,1.74,1.51,WNW,29.4,29.98,,Partly Cloudy
KIGQ,01/05/2017 18:15 UTC,30.04,12.92,2.3,66.47,10.36,280.0,16.11,,,,,292.0,362.0,,,10.0,,KIGQ 051815Z AUTO 28009G14KT 10SM SCT029 SCT036 M11/M16 A3004 RMK AO2 T11061165,,,,,,3.74,3.05,W,29.39,29.96,,Partly Cloudy
KIGQ,01/05/2017 18:35 UTC,30.03,12.74,3.02,66.47,11.5,280.0,17.27,,,,,344.0,,,,10.0,,KIGQ 051835Z AUTO 28010G15KT 10SM OVC034 M11/M16 A3003 RMK AO2  T11071161,,,3400.0,,,3.57,2.15,W,29.38,29.95,,Overcast
KIGQ,01/05/2017 18:55 UTC,30.02,12.38,2.48,66.47,10.36,300.0,21.85,,,,,292.0,364.0,,,10.0,,KIGQ 051855Z AUTO 30009G19KT 10SM SCT029 OVC036 M11/M16 A3002 RMK AO2 T11091164,,,3600.0,,,3.22,2.41,WNW,29.37,29.94,,Overcast
KIGQ,01/05/2017 19:15 UTC,30.01,12.74,2.84,66.47,11.5,270.0,16.11,,344.0,,,192.0,262.0,,,10.0,,KIGQ 051915Z AUTO 27010G14KT 10SM SCT019 SCT026 OVC034 M11/M16  A3001 RMK AO2 T11071162,,,3400.0,,,3.57,2.15,W,29.36,29.93,,Overcast
KIGQ,01/05/2017 19:35 UTC,30.01,12.2,4.82,72.24,9.22,310.0,,20.0,354.0,,,222.0,303.0,,,4.0,,KIGQ 051935Z AUTO 31008KT 4SM -SN SCT022 BKN030 OVC035 M11/M15  A3001 RMK AO2 T11101151,,,3000.0,,,4.88,2.95,NW,29.36,29.93,,Light Snow
KIGQ,01/05/2017 19:55 UTC,30.01,12.92,3.2,66.47,11.5,280.0,18.41,,,,,293.0,354.0,,,10.0,,KIGQ 051955Z AUTO 28010G16KT 10SM BKN029 OVC035 M11/M16 A3001 RMK AO2 T11061160,,,2900.0,,,3.74,2.37,W,29.36,29.93,,Overcast
KIGQ,01/05/2017 20:15 UTC,30.01,13.1,3.02,61.39,13.8,290.0,20.71,,,,,334.0,,,,10.0,,KIGQ 052015Z AUTO 29012G18KT 10SM OVC033 M10/M16 A3001 RMK AO2  T11051161,,,3300.0,,,2.18,1.36,WNW,29.36,29.94,,Overcast
KIGQ,01/05/2017 20:35 UTC,30.01,14.36,3.74,61.39,14.97,280.0,19.57,,,,,334.0,,,,10.0,,KIGQ 052035Z AUTO 28013G17KT 10SM OVC033 M10/M16 A3001 RMK AO2  T10981157,,,3300.0,,,3.37,2.36,W,29.36,29.93,,Overcast
KIGQ,01/05/2017 20:55 UTC,30.01,12.56,1.76,61.12,10.36,280.0,,,,,,332.0,422.0,,,10.0,,KIGQ 052055Z AUTO 28009KT 10SM SCT033 SCT042 M11/M17 A3001 RMK AO2  T11081168,,,,,,1.57,2.62,W,29.36,29.94,,Partly Cloudy
KIGQ,01/05/2017 21:15 UTC,30.01,12.74,1.58,61.12,11.5,280.0,18.41,,,,,402.0,,,,10.0,,KIGQ 052115Z AUTO 28010G16KT 10SM SCT040 M11/M17 A3001 RMK AO2  T11071169,,,,,,1.74,2.15,W,29.36,29.94,,Partly Cloudy
KIGQ,01/05/2017 21:35 UTC,30.03,13.1,1.76,56.45,9.22,280.0,,,403.0,,,282.0,352.0,,,10.0,,KIGQ 052135Z AUTO 28008KT 10SM SCT028 SCT035 BKN040 M10/M17  A3003 RMK AO2 T11051168,,,4000.0,,,0.37,4.02,W,29.38,29.96,,Mostly Cloudy
KIGQ,01/05/2017 21:55 UTC,30.02,13.1,2.84,61.39,12.66,280.0,,,,,,352.0,432.0,,,10.0,,KIGQ 052155Z AUTO 28011KT 10SM SCT035 SCT043 M10/M16 A3002 RMK AO2  T11051162,,,,,,2.18,1.95,W,29.37,29.95,,Partly Cloudy
KIGQ,01/05/2017 22:15 UTC,30.03,13.1,5.0,66.71,11.5,270.0,,,413.0,,,292.0,352.0,,,10.0,,KIGQ 052215Z AUTO 27010KT 10SM SCT029 SCT035 BKN041 M10/M15  A3003 RMK AO2 T11051150,,,4100.0,,,3.99,2.59,W,29.38,29.95,,Mostly Cloudy
KIGQ,01/05/2017 22:35 UTC,30.03,12.38,4.82,72.24,10.36,270.0,,,,,,332.0,423.0,,,10.0,,KIGQ 052235Z AUTO 27009KT 10SM SCT033 BKN042 M11/M15 A3003 RMK AO2  T11091151,,,4200.0,,,5.05,2.41,W,29.38,29.95,,Mostly Cloudy
KIGQ,01/05/2017 22:55 UTC,30.03,12.2,3.56,66.47,11.5,280.0,17.27,,,,,432.0,,,,10.0,,KIGQ 052255Z AUTO 28010G15KT 10SM SCT043 M11/M16 A3003 RMK AO2  T11101158,,,,,,3.05,1.5,W,29.38,29.96,,Partly Cloudy
KIGQ,01/05/2017 23:15 UTC,30.03,12.02,3.38,66.47,10.36,280.0,,,,,,433.0,,,,10.0,,KIGQ 052315Z AUTO 28009KT 10SM BKN043 M11/M16 A3003 RMK AO2  T11111159,,,4300.0,,,2.88,1.98,W,29.38,29.96,,Mostly Cloudy
KIGQ,01/05/2017 23:35 UTC,30.04,12.02,4.1,72.24,12.66,270.0,,,,,,432.0,,,,10.0,,KIGQ 052335Z AUTO 27011KT 10SM SCT043 M11/M15 A3004 RMK AO2  T11111155,,,,,,4.71,0.63,W,29.39,29.96,,Partly Cloudy
KIGQ,01/05/2017 23:55 UTC,30.04,12.02,4.1,72.24,12.66,260.0,,,,,,393.0,,,,10.0,,KIGQ 052355Z AUTO 26011KT 10SM BKN039 M11/M15 A3004 RMK AO2  T11111155 11097 21111,14.54,12.02,3900.0,,,4.71,0.63,W,29.39,29.96,,Mostly Cloudy
KIGQ,01/06/2017 00:15 UTC,30.05,12.2,2.48,66.47,12.66,280.0,18.41,,,,,414.0,,,,10.0,,KIGQ 060015Z AUTO 28011G16KT 10SM OVC041 M11/M16 A3005 RMK AO2  T11101164,,,4100.0,,,3.05,0.85,W,29.4,29.98,,Overcast
KIGQ,01/06/2017 00:35 UTC,30.05,11.66,1.58,61.12,14.97,280.0,21.85,,,,,414.0,,,,10.0,,KIGQ 060035Z AUTO 28013G19KT 10SM OVC041 M11/M17 A3005 RMK AO2  T11131169,,,4100.0,,,0.72,-0.97,W,29.4,29.99,,Overcast
KIGQ,01/06/2017 00:55 UTC,30.06,11.12,1.04,66.23,10.36,280.0,17.27,,,,,413.0,,,,10.0,,KIGQ 060055Z AUTO 28009G15KT 10SM BKN041 M12/M17 A3006 RMK AO2  T11161172,,,4100.0,,,1.94,0.9,W,29.41,29.99,,Mostly Cloudy
KIGQ,01/06/2017 01:15 UTC,30.07,10.4,1.58,66.23,10.36,280.0,16.11,,,,,1.0,,,,10.0,,KIGQ 060115Z AUTO 28009G14KT 10SM CLR M12/M17 A3007 RMK AO2  T11201169,,,,,,1.26,0.04,W,29.42,30.01,,Clear
KIGQ,01/06/2017 01:35 UTC,30.08,10.22,1.76,66.23,8.05,280.0,,,,,,1.0,,,,10.0,,KIGQ 060135Z AUTO 28007KT 10SM CLR M12/M17 A3008 RMK AO2  T11211168,,,,,,1.08,1.49,W,29.43,30.02,,Clear
KIGQ,01/06/2017 01:55 UTC,30.07,9.68,2.3,72.03,6.91,280.0,,,,,,312.0,,,,10.0,,KIGQ 060155Z AUTO 28006KT 10SM SCT031 M12/M16 A3007 RMK AO2  T11241165,,,,,,2.39,,W,29.42,30.01,,Partly Cloudy
KIGQ,01/06/2017 02:15 UTC,30.08,9.5,2.3,72.03,6.91,290.0,,,,,,1.0,,,,10.0,,KIGQ 060215Z AUTO 29006KT 10SM CLR M12/M16 A3008 RMK AO2  T11251165,,,,,,2.21,,WNW,29.43,30.02,,Clear
KIGQ,01/06/2017 02:35 UTC,30.08,9.14,1.4,71.81,8.05,290.0,,,,,,1.0,,,,10.0,,KIGQ 060235Z AUTO 29007KT 10SM CLR M13/M17 A3008 RMK AO2  T11271170,,,,,,1.8,0.23,WNW,29.43,30.02,,Clear
KIGQ,01/06/2017 02:55 UTC,30.1,8.6,0.5,71.81,8.05,290.0,,,,,,302.0,,,,10.0,,KIGQ 060255Z AUTO 29007KT 10SM SCT030 M13/M17 A3010 RMK AO2  T11301175,,,,,,1.28,-0.41,WNW,29.45,30.05,,Partly Cloudy
KIGQ,01/06/2017 03:15 UTC,30.1,8.24,-1.12,65.98,10.36,300.0,,,,,,302.0,,,,10.0,,KIGQ 060315Z AUTO 30009KT 10SM SCT030 M13/M18 A3010 RMK AO2  T11321184,,,,,,-0.89,-2.55,WNW,29.45,30.06,,Partly Cloudy
KIGQ,01/06/2017 03:35 UTC,30.11,7.7,-2.2,60.58,12.66,290.0,18.41,,,,,1.0,,,,10.0,,KIGQ 060335Z AUTO 29011G16KT 10SM CLR M13/M19 A3011 RMK AO2  T11351190,,,,,,-3.21,-4.62,WNW,29.46,30.07,,Clear
KIGQ,01/06/2017 03:55 UTC,30.11,7.34,-2.38,65.74,11.5,280.0,18.41,,,,,1.0,,,,10.0,,KIGQ 060355Z AUTO 28010G16KT 10SM CLR M14/M19 A3011 RMK AO2  T11371191,,,,,,-1.82,-4.37,W,29.46,30.07,,Clear
KIGQ,01/06/2017 04:15 UTC,30.1,6.8,-2.2,65.74,11.5,290.0,17.27,,,,,1.0,,,,10.0,,KIGQ 060415Z AUTO 29010G15KT 10SM CLR M14/M19 A3010 RMK AO2  T11401190,,,,,,-2.34,-5.02,WNW,29.45,30.06,,Clear
KIGQ,01/06/2017 04:35 UTC,30.1,6.62,-1.66,65.74,8.05,290.0,,,,,,1.0,,,,10.0,,KIGQ 060435Z AUTO 29007KT 10SM CLR M14/M19 A3010 RMK AO2  T11411187,,,,,,-2.51,-2.73,WNW,29.45,30.07,,Clear
KIGQ,01/06/2017 04:55 UTC,30.11,6.26,-1.84,65.74,5.75,300.0,,,,,,1.0,,,,10.0,,KIGQ 060455Z AUTO 30005KT 10SM CLR M14/M19 A3011 RMK AO2  T11431188,,,,,,-2.85,,WNW,29.46,30.08,,Clear
KIGQ,01/06/2017 05:15 UTC,30.11,5.9,-2.2,65.74,6.91,300.0,,,,,,1.0,,,,10.0,,KIGQ 060515Z AUTO 30006KT 10SM CLR M14/M19 A3011 RMK AO2  T11451190,,,,,,-3.2,,WNW,29.46,30.08,,Clear
KIGQ,01/06/2017 05:35 UTC,30.12,5.9,-2.56,65.74,5.75,300.0,,,,,,1.0,,,,10.0,,KIGQ 060535Z AUTO 30005KT 10SM CLR M14/M19 A3012 RMK AO2  T11451192,,,,,,-3.2,,WNW,29.47,30.09,,Clear
KIGQ,01/06/2017 05:55 UTC,30.11,5.54,-2.56,71.38,8.05,300.0,,,,,,1.0,,,,10.0,,KIGQ 060555Z AUTO 30007KT 10SM CLR M15/M19 A3011 RMK AO2 T11471192  11110 21147 410971147,12.2,5.54,,14.54,5.54,-1.8,-4.0,WNW,29.46,30.08,,Clear
KIGQ,01/06/2017 06:15 UTC,30.13,5.0,-3.1,71.38,5.75,300.0,,,,,,1.0,,,,10.0,,KIGQ 060615Z AUTO 30005KT 10SM CLR M15/M19 A3013 RMK AO2  T11501195,,,,,,-2.32,,WNW,29.47,30.09,,Clear
KIGQ,01/06/2017 06:35 UTC,30.12,5.0,-2.92,71.38,5.75,300.0,,,,,,1.0,,,,10.0,,KIGQ 060635Z AUTO 30005KT 10SM CLR M15/M19 A3012 RMK AO2  T11501194,,,,,,-2.32,,WNW,29.47,30.09,,Clear
KIGQ,01/06/2017 06:55 UTC,30.12,4.82,-3.1,71.38,8.05,300.0,,,,,,1.0,,,,10.0,,KIGQ 060655Z AUTO 30007KT 10SM CLR M15/M19 A3012 RMK AO2  T11511195,,,,,,-2.49,-4.85,WNW,29.47,30.09,,Clear
KIGQ,01/06/2017 07:15 UTC,30.11,4.46,-3.1,71.38,10.36,310.0,,,,,,1.0,,,,10.0,,KIGQ 060715Z AUTO 31009KT 10SM CLR M15/M19 A3011 RMK AO2  T11531195,,,,,,-2.84,-7.07,NW,29.46,30.08,,Clear
KIGQ,01/06/2017 07:35 UTC,30.13,4.1,-3.1,71.38,8.05,290.0,,,,,,1.0,,,,10.0,,KIGQ 060735Z AUTO 29007KT 10SM CLR M15/M19 A3013 RMK AO2  T11551195,,,,,,-3.18,-5.69,WNW,29.47,30.1,,Clear
KIGQ,01/06/2017 07:55 UTC,30.14,4.1,-3.1,71.38,6.91,290.0,,,,,,1.0,,,,10.0,,KIGQ 060755Z AUTO 29006KT 10SM CLR M15/M19 A3014 RMK AO2  T11551195,,,,,,-3.18,,WNW,29.48,30.11,,Clear
KIGQ,01/06/2017 08:15 UTC,30.15,3.92,-3.28,71.16,8.05,280.0,,,,,,1.0,,,,10.0,,KIGQ 060815Z AUTO 28007KT 10SM CLR M16/M20 A3015 RMK AO2  T11561196,,,,,,-3.42,-5.91,W,29.49,30.12,,Clear
KIGQ,01/06/2017 08:35 UTC,30.15,3.74,-3.1,77.57,5.75,290.0,,,,,,1.0,,,,10.0,,KIGQ 060835Z AUTO 29005KT 10SM CLR M16/M19 A3015 RMK AO2  T11571195,,,,,,-1.77,,WNW,29.49,30.11,,Clear
KIGQ,01/06/2017 08:55 UTC,30.15,3.2,-3.1,77.57,5.75,290.0,,,,,,1.0,,,,10.0,,KIGQ 060855Z AUTO 29005KT 10SM CLR M16/M19 A3015 RMK AO2  T11601195,,,,,,-2.29,,WNW,29.49,30.12,,Clear
KIGQ,01/06/2017 09:15 UTC,30.15,3.2,-3.1,77.57,6.91,290.0,,,,,,1.0,,,,10.0,,KIGQ 060915Z AUTO 29006KT 10SM CLR M16/M19 A3015 RMK AO2  T11601195,,,,,,-2.29,,WNW,29.49,30.12,,Clear
KIGQ,01/06/2017 09:35 UTC,30.15,3.02,-3.28,71.16,4.61,290.0,,,,,,1.0,,,,10.0,,KIGQ 060935Z AUTO 29004KT 10SM CLR M16/M20 A3015 RMK AO2  T11611196,,,,,,-4.29,,WNW,29.49,30.12,,Clear
KIGQ,01/06/2017 09:55 UTC,30.15,2.84,-3.46,71.16,6.91,300.0,,,,,,1.0,,,,10.0,,KIGQ 060955Z AUTO 30006KT 10SM CLR M16/M20 A3015 RMK AO2  T11621197,,,,,,-4.46,,WNW,29.49,30.12,,Clear
KIGQ,01/06/2017 10:15 UTC,30.16,2.66,-3.46,71.16,6.91,280.0,,,,,,1.0,,,,10.0,,KIGQ 061015Z AUTO 28006KT 10SM CLR M16/M20 A3016 RMK AO2  T11631197,,,,,,-4.63,,W,29.5,30.14,,Clear
KIGQ,01/06/2017 10:35 UTC,30.16,2.3,-4.0,71.16,8.05,280.0,,,,,,1.0,,,,10.0,,KIGQ 061035Z AUTO 28007KT 10SM CLR M16/M20 A3016 RMK AO2  T11651200,,,,,,-4.98,-7.81,W,29.5,30.14,,Clear
KIGQ,01/06/2017 10:55 UTC,30.17,1.94,-4.0,77.39,5.75,290.0,,,,,,1.0,,,,10.0,,KIGQ 061055Z AUTO 29005KT 10SM CLR M17/M20 A3017 RMK AO2  T11671200,,,,,,-3.56,,WNW,29.51,30.15,,Clear
KIGQ,01/06/2017 11:15 UTC,30.17,1.76,-3.64,77.39,6.91,280.0,,,,,,1.0,,,,10.0,,KIGQ 061115Z AUTO 28006KT 10SM CLR M17/M20 A3017 RMK AO2  T11681198,,,,,,-3.74,,W,29.51,30.15,,Clear
KIGQ,01/06/2017 11:35 UTC,30.17,1.58,-3.64,77.39,6.91,290.0,,,,,,1.0,,,,10.0,,KIGQ 061135Z AUTO 29006KT 10SM CLR M17/M20 A3017 RMK AO2  T11691198,,,,,,-3.91,,WNW,29.51,30.15,,Clear
KIGQ,01/06/2017 11:55 UTC,30.18,1.4,-3.64,77.39,8.05,290.0,,,,,,1.0,,,,10.0,,KIGQ 061155Z AUTO 29007KT 10SM CLR M17/M20 A3018 RMK AO2 T11701198  11148 21171,5.36,1.22,,,,-4.09,-8.87,WNW,29.52,30.16,,Clear
KIGQ,01/06/2017 12:15 UTC,30.19,1.22,-4.0,77.39,6.91,290.0,,,,,,1.0,,,,10.0,,KIGQ 061215Z AUTO 29006KT 10SM CLR M17/M20 A3019 RMK AO2  T11711200,,,,,,-4.26,,WNW,29.53,30.17,,Clear
KIGQ,01/06/2017 12:35 UTC,30.21,0.86,-5.44,70.94,4.61,300.0,,,,,,1.0,,,,10.0,,KIGQ 061235Z AUTO 30004KT 10SM CLR M17/M21 A3021 RMK AO2  T11731208,,,,,,-6.43,,WNW,29.55,30.2,,Clear
KIGQ,01/06/2017 12:55 UTC,30.22,0.68,-6.16,70.94,4.61,280.0,,,,,,1.0,,,,10.0,,KIGQ 061255Z AUTO 28004KT 10SM CLR M17/M21 A3022 RMK AO2  T11741212,,,,,,-6.6,,W,29.56,30.21,,Clear
KIGQ,01/06/2017 13:15 UTC,30.22,0.5,-6.52,70.94,5.75,290.0,,,,,,1.0,,,,10.0,,KIGQ 061315Z AUTO 29005KT 10SM CLR M17/M21 A3022 RMK AO2  T11751214,,,,,,-6.78,,WNW,29.56,30.21,,Clear
KIGQ,01/06/2017 13:35 UTC,30.23,0.5,-6.52,70.94,5.75,270.0,,,,,,1.0,,,,10.0,,KIGQ 061335Z AUTO 27005KT 10SM CLR M17/M21 A3023 RMK AO2  T11751214,,,,,,-6.78,,W,29.57,30.22,,Clear
KIGQ,01/06/2017 13:55 UTC,30.25,1.4,-5.62,70.94,9.22,280.0,,,,,,1.0,,,,10.0,,KIGQ 061355Z AUTO 28008KT 10SM CLR M17/M21 A3025 RMK AO2  T11701209,,,,,,-5.91,-9.86,W,29.59,30.24,,Clear
KIGQ,01/06/2017 14:15 UTC,30.25,2.12,-4.9,77.39,8.05,270.0,,,,,,1.0,,,,10.0,,KIGQ 061415Z AUTO 27007KT 10SM CLR M17/M20 A3025 RMK AO2  T11661205,,,,,,-3.39,-8.02,W,29.59,30.23,,Clear
KIGQ,01/06/2017 14:35 UTC,30.25,2.3,-4.72,71.16,5.75,300.0,,,,,,1.0,,,,10.0,,KIGQ 061435Z AUTO 30005KT 10SM CLR M16/M20 A3025 RMK AO2  T11651204,,,,,,-4.98,,WNW,29.59,30.23,,Clear
KIGQ,01/06/2017 14:55 UTC,30.25,3.2,-4.36,71.16,6.91,260.0,,,,,,1.0,,,,10.0,,KIGQ 061455Z AUTO 26006KT 10SM CLR M16/M20 A3025 RMK AO2  T11601202,,,,,,-4.11,,W,29.59,30.22,,Clear
KIGQ,01/06/2017 15:15 UTC,30.25,3.92,-4.0,71.16,9.22,270.0,,,,,,1.0,,,,10.0,,KIGQ 061515Z AUTO 27008KT 10SM CLR M16/M20 A3025 RMK AO2  T11561200,,,,,,-3.42,-6.87,W,29.59,30.22,,Clear
KIGQ,01/06/2017 15:35 UTC,30.26,4.82,-3.64,65.49,8.05,300.0,,,,,,1.0,,,,10.0,,KIGQ 061535Z AUTO 30007KT 10SM CLR M15/M20 A3026 RMK AO2  T11511198,,,,,,-4.31,-4.85,WNW,29.6,30.23,,Clear
KIGQ,01/06/2017 15:55 UTC,30.27,5.72,-3.1,66.15,9.22,290.0,,,,,,1.0,,,,10.0,,KIGQ 061555Z AUTO 29008KT 10SM CLR M15/M19 A3027 RMK AO2  T11461195,,,,,,-3.24,-4.74,WNW,29.61,30.23,,Clear
KIGQ,01/06/2017 16:15 UTC,30.28,6.8,-2.2,65.74,10.36,250.0,,,,,,252.0,,,,10.0,,KIGQ 061615Z AUTO 25009KT 10SM SCT025 M14/M19 A3028,,,,,,-2.34,-4.27,WSW,29.62,30.24,,Partly Cloudy
KIGQ,01/06/2017 16:35 UTC,30.28,6.8,-2.74,65.74,6.91,280.0,,,,,,252.0,,,,10.0,,KIGQ 061635Z AUTO 28006KT 10SM SCT025 M14/M19 A3028 RMK AO2  T11401193,,,,,,-2.34,,W,29.62,30.24,,Partly Cloudy
KIGQ,01/06/2017 16:55 UTC,30.28,7.34,-2.56,65.74,14.97,280.0,20.71,,,,,252.0,,,,10.0,,KIGQ 061655Z AUTO 28013G18KT 10SM SCT025 M14/M19 A3028 RMK AO2  T11371192,,,,,,-1.82,-6.29,W,29.62,30.24,,Partly Cloudy
KIGQ,01/06/2017 17:15 UTC,30.27,8.06,-1.48,60.58,10.36,270.0,,,,,,1.0,,,,10.0,,KIGQ 061715Z AUTO 27009KT 10SM CLR M13/M19 A3027 RMK AO2  T11331186,,,,,,-2.87,-2.76,W,29.61,30.23,,Clear
KIGQ,01/06/2017 17:35 UTC,30.27,8.6,-1.84,60.58,11.5,260.0,,,,,,272.0,,,,10.0,,KIGQ 061735Z AUTO 26010KT 10SM SCT027 M13/M19 A3027 RMK AO2  T11301188,,,,,,-2.36,-2.85,W,29.61,30.22,,Partly Cloudy
KIGQ,01/06/2017 17:55 UTC,30.26,8.6,-2.38,60.58,12.66,290.0,,,,,,1.0,,,,10.0,,KIGQ 061755Z AUTO 29011KT 10SM CLR M13/M19 A3026 RMK AO2 T11301191  11128 21175,8.96,0.5,,,,-2.36,-3.53,WNW,29.6,30.21,,Clear
KIGQ,01/06/2017 18:15 UTC,30.26,9.5,-2.2,55.87,12.66,280.0,17.27,,,,,1.0,,,,10.0,,KIGQ 061815Z AUTO 28011G15KT 10SM CLR M12/M19 A3026 RMK AO2  T11251190,,,,,,-3.23,-2.43,W,29.6,30.21,,Clear
KIGQ,01/06/2017 18:35 UTC,30.26,9.32,-2.2,60.58,11.5,260.0,,,,,,1.0,,,,10.0,,KIGQ 061835Z AUTO 26010KT 10SM CLR M13/M19 A3026 RMK AO2  T11261190,,,,,,-1.68,-1.98,W,29.6,30.21,,Clear
KIGQ,01/06/2017 18:55 UTC,30.26,9.68,-1.84,55.87,11.5,280.0,19.57,,,,,242.0,312.0,,,10.0,,KIGQ 061855Z AUTO 28010G17KT 10SM SCT024 SCT031 M12/M19 A3026 RMK AO2 T11241188,,,,,,-3.06,-1.54,W,29.6,30.21,,Partly Cloudy
KIGQ,01/06/2017 19:15 UTC,30.26,8.96,-1.3,65.98,8.05,300.0,,,,,,282.0,,,,10.0,,KIGQ 061915Z AUTO 30007KT 10SM SCT028 M13/M18 A3026 RMK AO2  T11281185,,,,,,-0.2,0.01,WNW,29.6,30.2,,Partly Cloudy
KIGQ,01/06/2017 19:35 UTC,30.26,9.68,-0.94,60.85,8.05,290.0,18.41,,383.0,,,242.0,303.0,,,10.0,,KIGQ 061935Z AUTO 29007G16KT 10SM SCT024 BKN030 BKN038 M12/M18  A3026 RMK AO2 T11241183,,,3000.0,,,-1.25,0.86,WNW,29.6,30.2,,Mostly Cloudy
KIGQ,01/06/2017 19:55 UTC,30.26,8.96,-2.92,60.58,11.5,270.0,,,,,,303.0,,,,10.0,,KIGQ 061955Z AUTO 27010KT 10SM BKN030 M13/M19 A3026 RMK AO2  T11281194,,,3000.0,,,-2.02,-2.41,W,29.6,30.21,,Mostly Cloudy
KIGQ,01/06/2017 20:15 UTC,30.26,8.96,-2.56,60.58,10.36,280.0,,,,,,262.0,323.0,,,10.0,,KIGQ 062015Z AUTO 28009KT 10SM SCT026 BKN032 M13/M19 A3026 RMK AO2  T11281192,,,3200.0,,,-2.02,-1.69,W,29.6,30.21,,Mostly Cloudy
KIGQ,01/06/2017 20:35 UTC,30.27,9.32,-1.84,60.58,12.66,260.0,,,,,,293.0,343.0,,,10.0,,KIGQ 062035Z AUTO 26011KT 10SM BKN029 BKN034 M13/M19 A3027 RMK AO2  T11261188,,,2900.0,,,-1.68,-2.65,W,29.61,30.22,,Mostly Cloudy
KIGQ,01/06/2017 20:55 UTC,30.28,9.5,-1.3,60.85,5.75,240.0,,,,,,304.0,,,,10.0,,KIGQ 062055Z AUTO 24005KT 10SM OVC030 M12/M18 A3028 RMK AO2  T11251185,,,3000.0,,,-1.42,,WSW,29.62,30.23,,Overcast
KIGQ,01/06/2017 21:15 UTC,30.29,8.78,-2.38,60.58,10.36,270.0,,,,,,262.0,322.0,,,10.0,,KIGQ 062115Z AUTO 27009KT 10SM SCT026 SCT032 M13/M19 A3029 RMK AO2  T11291191,,,,,,-2.19,-1.9,W,29.63,30.24,,Partly Cloudy
KIGQ,01/06/2017 21:35 UTC,30.29,7.7,-3.28,55.58,6.91,290.0,,,382.0,,,222.0,272.0,,,10.0,,KIGQ 062135Z AUTO 29006KT 10SM SCT022 SCT027 SCT038 M13/M20  A3029 RMK AO2 T11351196,,,,,,-5.02,,WNW,29.63,30.25,,Partly Cloudy
KIGQ,01/06/2017 21:55 UTC,30.29,8.42,-2.92,60.58,5.75,280.0,,,382.0,,,222.0,292.0,,,10.0,,KIGQ 062155Z AUTO 28005KT 10SM SCT022 SCT029 SCT038 M13/M19  A3029 RMK AO2 T11311194,,,,,,-2.53,,W,29.63,30.24,,Partly Cloudy
KIGQ,01/06/2017 22:15 UTC,30.3,7.7,-2.92,60.58,11.5,260.0,,,343.0,,,222.0,293.0,,,10.0,,KIGQ 062215Z AUTO 26010KT 10SM SCT022 BKN029 BKN034 M13/M19  A3030 RMK AO2 T11351194,,,2900.0,,,-3.21,-3.93,W,29.64,30.26,,Mostly Cloudy
KIGQ,01/06/2017 22:35 UTC,30.31,6.8,-2.74,65.74,8.05,250.0,,,,,,272.0,343.0,,,10.0,,KIGQ 062235Z AUTO 25007KT 10SM SCT027 BKN034 M14/M19 A3031 RMK AO2  T11401193,,,3400.0,,,-2.34,-2.52,WSW,29.65,30.27,,Mostly Cloudy
KIGQ,01/06/2017 22:55 UTC,30.32,6.44,-2.56,65.74,5.75,250.0,,,,,,1.0,,,,10.0,,KIGQ 062255Z AUTO 25005KT 10SM CLR M14/M19 A3032 RMK AO2  T11421192,,,,,,-2.68,,WSW,29.66,30.28,,Clear
KIGQ,01/06/2017 23:15 UTC,30.32,6.44,-2.38,65.74,4.61,280.0,,,,,,1.0,,,,10.0,,KIGQ 062315Z AUTO 28004KT 10SM CLR M14/M19 A3032 RMK AO2  T11421191,,,,,,-2.68,,W,29.66,30.28,,Clear
KIGQ,01/06/2017 23:35 UTC,30.33,6.26,-2.38,65.74,5.75,270.0,,,,,,1.0,,,,10.0,,KIGQ 062335Z AUTO 27005KT 10SM CLR M14/M19 A3033 RMK AO2  T11431191,,,,,,-2.85,,W,29.67,30.29,,Clear
KIGQ,01/06/2017 23:55 UTC,30.33,5.72,-1.84,71.38,5.75,280.0,,,,,,1.0,,,,10.0,,KIGQ 062355Z AUTO 28005KT 10SM CLR M15/M19 A3033 RMK AO2 T11461188  11117 21146,10.94,5.72,,,,-1.62,,W,29.67,30.29,,Clear
KIGQ,01/07/2017 00:15 UTC,30.34,5.36,-1.3,77.75,3.44,260.0,,,,,,1.0,,,,10.0,,KIGQ 070015Z AUTO 26003KT 10SM CLR M15/M18 A3034 RMK AO2  T11481185,,,,,,-0.14,,W,29.68,30.3,,Clear
KIGQ,01/07/2017 00:35 UTC,30.36,5.0,-0.76,77.75,3.44,250.0,,,,,,1.0,,,,10.0,,KIGQ 070035Z AUTO 25003KT 10SM CLR M15/M18 A3036 RMK AO2  T11501182,,,,,,-0.49,,WSW,29.7,30.32,,Clear
KIGQ,01/07/2017 00:55 UTC,30.36,5.0,-0.94,77.75,0.0,0.0,,,,,,1.0,,,,10.0,,KIGQ 070055Z AUTO 00000KT 10SM CLR M15/M18 A3036 RMK AO2  T11501183,,,,,,-0.49,,N,29.7,30.32,,Clear
KIGQ,01/07/2017 01:15 UTC,30.36,5.54,-1.12,77.75,3.44,260.0,,,,,,1.0,,,,10.0,,KIGQ 070115Z AUTO 26003KT 10SM CLR M15/M18 A3036 RMK AO2  T11471184,,,,,,0.03,,W,29.7,30.32,,Clear
KIGQ,01/07/2017 01:35 UTC,30.36,5.18,-1.12,77.75,3.44,290.0,,,,,,1.0,,,,10.0,,KIGQ 070135Z AUTO 29003KT 10SM CLR M15/M18 A3036 RMK AO2  T11491184,,,,,,-0.32,,WNW,29.7,30.32,,Clear
KIGQ,01/07/2017 01:55 UTC,30.36,5.0,-1.3,77.75,4.61,290.0,,,,,,1.0,,,,10.0,,KIGQ 070155Z AUTO 29004KT 10SM CLR M15/M18 A3036 RMK AO2  T11501185,,,,,,-0.49,,WNW,29.7,30.32,,Clear
KIGQ,01/07/2017 02:15 UTC,30.38,4.82,-2.74,71.38,3.44,280.0,,,,,,1.0,,,,10.0,,KIGQ 070215Z AUTO 28003KT 10SM CLR M15/M19 A3038 RMK AO2  T11511193,,,,,,-2.49,,W,29.72,30.35,,Clear
KIGQ,01/07/2017 02:35 UTC,30.39,4.1,-2.56,71.38,4.61,270.0,,,,,,1.0,,,,10.0,,KIGQ 070235Z AUTO 27004KT 10SM CLR M15/M19 A3039 RMK AO2  T11551192,,,,,,-3.18,,W,29.73,30.36,,Clear
KIGQ,01/07/2017 02:55 UTC,30.4,4.28,-3.1,71.38,5.75,280.0,,,,,,1.0,,,,10.0,,KIGQ 070255Z AUTO 28005KT 10SM CLR M15/M19 A3040 RMK AO2  T11541195,,,,,,-3.01,,W,29.74,30.37,,Clear
KIGQ,01/07/2017 03:15 UTC,30.41,4.1,-3.46,65.49,5.75,290.0,,,,,,1.0,,,,10.0,,KIGQ 070315Z AUTO 29005KT 10SM CLR M15/M20 A3041 RMK AO2  T11551197,,,,,,-5.0,,WNW,29.75,30.39,,Clear
KIGQ,01/07/2017 03:35 UTC,30.41,3.92,-3.82,71.16,6.91,290.0,,,,,,1.0,,,,10.0,,KIGQ 070335Z AUTO 29006KT 10SM CLR M16/M20 A3041 RMK AO2  T11561199,,,,,,-3.42,,WNW,29.75,30.38,,Clear
KIGQ,01/07/2017 03:55 UTC,30.41,3.74,-4.0,71.16,4.61,280.0,,,,,,1.0,,,,10.0,,KIGQ 070355Z AUTO 28004KT 10SM CLR M16/M20 A3041 RMK AO2  T11571200,,,,,,-3.6,,W,29.75,30.39,,Clear
KIGQ,01/07/2017 04:15 UTC,30.41,3.2,-4.0,71.16,4.61,290.0,,,,,,1.0,,,,10.0,,KIGQ 070415Z AUTO 29004KT 10SM CLR M16/M20 A3041 RMK AO2  T11601200,,,,,,-4.11,,WNW,29.75,30.39,,Clear
KIGQ,01/07/2017 04:35 UTC,30.42,2.84,-4.54,71.16,5.75,280.0,,,,,,1.0,,,,10.0,,KIGQ 070435Z AUTO 28005KT 10SM CLR M16/M20 A3042 RMK AO2  T11621203,,,,,,-4.46,,W,29.76,30.4,,Clear
KIGQ,01/07/2017 04:55 UTC,30.42,2.84,-4.72,71.16,8.05,280.0,,,,,,1.0,,,,10.0,,KIGQ 070455Z AUTO 28007KT 10SM CLR M16/M20 A3042 RMK AO2  T11621204,,,,,,-4.46,-7.17,W,29.76,30.4,,Clear
KIGQ,01/07/2017 05:15 UTC,30.43,2.84,-5.8,65.23,8.05,280.0,,,,,,1.0,,,,10.0,,KIGQ 070515Z AUTO 28007KT 10SM CLR M16/M21 A3043 RMK AO2  T11621210,,,,,,-6.28,-7.17,W,29.77,30.41,,Clear
KIGQ,01/07/2017 05:35 UTC,30.43,2.3,-5.8,65.23,5.75,300.0,,,,,,1.0,,,,10.0,,KIGQ 070535Z AUTO 30005KT 10SM CLR M16/M21 A3043 RMK AO2  T11651210,,,,,,-6.79,,WNW,29.77,30.42,,Clear
KIGQ,01/07/2017 05:55 UTC,30.44,2.3,-5.8,65.23,6.91,280.0,,,,,,1.0,,,,10.0,,KIGQ 070555Z AUTO 28006KT 10SM CLR M16/M21 A3044 RMK AO2 T11651210  11146 21166 411171175,5.72,2.12,,10.94,0.5,-6.79,,W,29.78,30.43,,Clear
KIGQ,01/07/2017 06:15 UTC,30.44,2.12,-5.62,70.94,4.61,290.0,,,,,,1.0,,,,10.0,,KIGQ 070615Z AUTO 29004KT 10SM CLR M17/M21 A3044 RMK AO2  T11661209,,,,,,-5.22,,WNW,29.78,30.43,,Clear
KIGQ,01/07/2017 06:35 UTC,30.44,2.12,-5.44,70.94,6.91,290.0,,,,,,1.0,,,,10.0,,KIGQ 070635Z AUTO 29006KT 10SM CLR M17/M21 A3044 RMK AO2  T11661208,,,,,,-5.22,,WNW,29.78,30.43,,Clear
KIGQ,01/07/2017 06:55 UTC,30.44,1.94,-5.44,70.94,4.61,290.0,,,,,,1.0,,,,10.0,,KIGQ 070655Z AUTO 29004KT 10SM CLR M17/M21 A3044 RMK AO2  T11671208,,,,,,-5.39,,WNW,29.78,30.43,,Clear
KIGQ,01/07/2017 07:15 UTC,30.44,1.76,-5.26,70.94,6.91,280.0,,,,,,1.0,,,,10.0,,KIGQ 070715Z AUTO 28006KT 10SM CLR M17/M21 A3044 RMK AO2  T11681207,,,,,,-5.57,,W,29.78,30.43,,Clear
KIGQ,01/07/2017 07:35 UTC,30.45,1.4,-5.08,70.94,3.44,290.0,,,,,,1.0,,,,10.0,,KIGQ 070735Z AUTO 29003KT 10SM CLR M17/M21 A3045 RMK AO2  T11701206,,,,,,-5.91,,WNW,29.79,30.44,,Clear
KIGQ,01/07/2017 07:55 UTC,30.45,1.4,-4.9,77.39,3.44,280.0,,,,,,1.0,,,,10.0,,KIGQ 070755Z AUTO 28003KT 10SM CLR M17/M20 A3045 RMK AO2  T11701205,,,,,,-4.09,,W,29.79,30.44,,Clear
KIGQ,01/07/2017 08:15 UTC,30.46,1.22,-4.9,77.39,3.44,280.0,,,,,,1.0,,,,10.0,,KIGQ 070815Z AUTO 28003KT 10SM CLR M17/M20 A3046 RMK AO2  T11711205,,,,,,-4.26,,W,29.8,30.45,,Clear
KIGQ,01/07/2017 08:35 UTC,30.47,1.4,-4.54,77.39,3.44,290.0,,,,,,1.0,,,,10.0,,KIGQ 070835Z AUTO 29003KT 10SM CLR M17/M20 A3047 RMK AO2  T11701203,,,,,,-4.09,,WNW,29.81,30.46,,Clear
KIGQ,01/07/2017 08:55 UTC,30.47,1.22,-4.36,77.39,4.61,280.0,,,,,,1.0,,,,10.0,,KIGQ 070855Z AUTO 28004KT 10SM CLR M17/M20 A3047 RMK AO2  T11711202,,,,,,-4.26,,W,29.81,30.46,,Clear
KIGQ,01/07/2017 09:15 UTC,30.47,1.4,-4.54,77.39,3.44,280.0,,,,,,1.0,,,,10.0,,KIGQ 070915Z AUTO 28003KT 10SM CLR M17/M20 A3047 RMK AO2  T11701203,,,,,,-4.09,,W,29.81,30.46,,Clear
KIGQ,01/07/2017 09:35 UTC,30.46,1.22,-4.36,77.39,3.44,290.0,,,,,,1.0,,,,10.0,,KIGQ 070935Z AUTO 29003KT 10SM CLR M17/M20 A3046 RMK AO2  T11711202,,,,,,-4.26,,WNW,29.8,30.45,,Clear
KIGQ,01/07/2017 09:55 UTC,30.46,1.22,-4.0,77.39,4.61,280.0,,,,,,1.0,,,,10.0,,KIGQ 070955Z AUTO 28004KT 10SM CLR M17/M20 A3046 RMK AO2  T11711200,,,,,,-4.26,,W,29.8,30.45,,Clear
KIGQ,01/07/2017 10:15 UTC,30.46,1.22,-4.0,77.39,4.61,280.0,,,,,,1.0,,,,10.0,,KIGQ 071015Z AUTO 28004KT 10SM CLR M17/M20 A3046 RMK AO2  T11711200,,,,,,-4.26,,W,29.8,30.45,,Clear
KIGQ,01/07/2017 10:35 UTC,30.46,1.4,-4.36,77.39,3.44,280.0,,,,,,1.0,,,,10.0,,KIGQ 071035Z AUTO 28003KT 10SM CLR M17/M20 A3046 RMK AO2  T11701202,,,,,,-4.09,,W,29.8,30.45,,Clear
KIGQ,01/07/2017 10:55 UTC,30.46,1.04,-4.0,77.39,3.44,270.0,,,,,,1.0,,,,10.0,,KIGQ 071055Z AUTO 27003KT 10SM CLR M17/M20 A3046 RMK AO2  T11721200,,,,,,-4.44,,W,29.8,30.45,,Clear
KIGQ,01/07/2017 11:15 UTC,30.46,0.86,-3.64,77.39,4.61,270.0,,,,,,1.0,,,,10.0,,KIGQ 071115Z AUTO 27004KT 10SM CLR M17/M20 A3046 RMK AO2  T11731198,,,,,,-4.61,,W,29.8,30.45,,Clear
KIGQ,01/07/2017 11:35 UTC,30.46,1.22,-4.0,77.39,3.44,280.0,,,,,,1.0,,,,10.0,,KIGQ 071135Z AUTO 28003KT 10SM CLR M17/M20 A3046 RMK AO2  T11711200,,,,,,-4.26,,W,29.8,30.45,,Clear
KIGQ,01/07/2017 11:55 UTC,30.47,1.4,-4.0,77.39,4.61,280.0,,,,,,1.0,,,,10.0,,KIGQ 071155Z AUTO 28004KT 10SM CLR M17/M20 A3047 RMK AO2 T11701200  11165 21175,2.3,0.5,,,,-4.09,,W,29.81,30.46,,Clear
KIGQ,01/07/2017 12:15 UTC,30.47,1.22,-4.0,77.39,4.61,260.0,,,,,,1.0,,,,10.0,,KIGQ 071215Z AUTO 26004KT 10SM CLR M17/M20 A3047 RMK AO2  T11711200,,,,,,-4.26,,W,29.81,30.46,,Clear
KIGQ,01/07/2017 12:35 UTC,30.48,1.4,-4.0,77.39,4.61,270.0,,,,,,1.0,,,,10.0,,KIGQ 071235Z AUTO 27004KT 10SM CLR M17/M20 A3048 RMK AO2  T11701200,,,,,,-4.09,,W,29.82,30.47,,Clear
KIGQ,01/07/2017 12:55 UTC,30.49,1.22,-3.64,77.39,0.0,0.0,,,,,,1.0,,,,10.0,,KIGQ 071255Z AUTO 00000KT 10SM CLR M17/M20 A3049 RMK AO2  T11711198,,,,,,-4.26,,N,29.83,30.48,,Clear
KIGQ,01/07/2017 13:15 UTC,30.49,1.22,-3.28,77.39,0.0,0.0,,,,,,1.0,,,,10.0,,KIGQ 071315Z AUTO 00000KT 10SM CLR M17/M20 A3049 RMK AO2  T11711196,,,,,,-4.26,,N,29.83,30.48,,Clear
KIGQ,01/07/2017 13:35 UTC,30.5,1.4,-3.1,84.36,0.0,0.0,,,,,,1.0,,,,10.0,,KIGQ 071335Z AUTO 00000KT 10SM CLR M17/M19 A3050 RMK AO2  T11701195,,,,,,-2.26,,N,29.84,30.48,,Clear
KIGQ,01/07/2017 13:55 UTC,30.51,2.3,-2.38,77.57,0.0,0.0,,,,,,1.0,,,,10.0,,KIGQ 071355Z AUTO 00000KT 10SM CLR M16/M19 A3051 RMK AO2  T11651191,,,,,,-3.16,,N,29.85,30.49,,Clear
KIGQ,01/07/2017 14:15 UTC,30.51,3.74,-2.02,77.57,0.0,0.0,,,,,,1.0,,,,10.0,,KIGQ 071415Z AUTO 00000KT 10SM CLR M16/M19 A3051 RMK AO2  T11571189,,,,,,-1.77,,N,29.85,30.48,,Clear
KIGQ,01/07/2017 14:35 UTC,30.52,4.82,-1.3,77.75,3.44,270.0,,,,,,1.0,,,,10.0,,KIGQ 071435Z AUTO 27003KT 10SM CLR M15/M18 A3052 RMK AO2  T11511185,,,,,,-0.67,,W,29.86,30.49,,Clear
KIGQ,01/07/2017 14:55 UTC,30.52,5.9,-0.94,71.6,4.61,260.0,,,,,,1.0,,,,10.0,,KIGQ 071455Z AUTO 26004KT 10SM CLR M14/M18 A3052 RMK AO2  T11451183,,,,,,-1.38,,W,29.86,30.48,,Clear
KIGQ,01/07/2017 15:15 UTC,30.52,7.34,0.68,77.92,4.61,250.0,,,,,,1.0,,,,10.0,,KIGQ 071515Z AUTO 25004KT 10SM CLR M14/M17 A3052 RMK AO2  T11371174,,,,,,1.83,,WSW,29.86,30.47,,Clear
KIGQ,01/07/2017 15:35 UTC,30.53,8.24,0.32,65.98,0.0,0.0,,,,,,1.0,,,,10.0,,KIGQ 071535Z AUTO 00000KT 10SM CLR M13/M18 A3053 RMK AO2  T11321176,,,,,,-0.89,,N,29.87,30.48,,Clear
KIGQ,01/07/2017 15:55 UTC,30.53,10.04,2.12,66.23,3.44,270.0,,,,,,1.0,,,,10.0,,KIGQ 071555Z AUTO 27003KT 10SM CLR M12/M17 A3053 RMK AO2  T11221166,,,,,,0.91,,W,29.87,30.47,,Clear
KIGQ,01/07/2017 16:15 UTC,30.53,11.66,3.2,66.47,5.75,260.0,,,,,,1.0,,,,10.0,,KIGQ 071615Z AUTO 26005KT 10SM CLR M11/M16 A3053 RMK AO2  T11131160,,,,,,2.54,,W,29.87,30.46,,Clear
KIGQ,01/07/2017 16:35 UTC,30.53,12.38,3.2,66.47,10.36,270.0,17.27,,,,,1.0,,,,10.0,,KIGQ 071635Z AUTO 27009G15KT 10SM CLR M11/M16 A3053 RMK AO2  T11091160,,,,,,3.22,2.41,W,29.87,30.46,,Clear
KIGQ,01/07/2017 16:55 UTC,30.53,13.28,3.02,61.39,9.22,260.0,,,,,,1.0,,,,10.0,,KIGQ 071655Z AUTO 26008KT 10SM CLR M10/M16 A3053 RMK AO2  T11041161,,,,,,2.35,4.23,W,29.87,30.46,,Clear
KIGQ,01/07/2017 17:15 UTC,30.52,14.36,3.92,61.39,8.05,260.0,,,,,,1.0,,,,10.0,,KIGQ 071715Z AUTO 26007KT 10SM CLR M10/M16 A3052 RMK AO2  T10981156,,,,,,3.37,6.36,W,29.86,30.44,,Clear
KIGQ,01/07/2017 17:35 UTC,30.51,15.44,4.64,61.66,6.91,260.0,,,,,,1.0,,,,10.0,,KIGQ 071735Z AUTO 26006KT 10SM CLR M09/M15 A3051 RMK AO2  T10921152,,,,,,4.49,,W,29.85,30.42,,Clear
KIGQ,01/07/2017 17:55 UTC,30.5,15.62,4.46,61.66,11.5,270.0,,,,,,1.0,,,,10.0,,KIGQ 071755Z AUTO 27010KT 10SM CLR M09/M15 A3050 RMK AO2 T10911153  11091 21172,15.62,1.04,,,,4.66,5.63,W,29.84,30.41,,Clear
KIGQ,01/07/2017 18:15 UTC,30.49,16.16,5.9,66.95,6.91,270.0,16.11,,,,,1.0,,,,10.0,,KIGQ 071815Z AUTO 27006G14KT 10SM CLR M09/M14 A3049 RMK AO2  T10881145,,,,,,7.0,,W,29.83,30.38,,Clear
KIGQ,01/07/2017 18:35 UTC,30.49,16.7,5.72,57.02,10.36,250.0,,,,,,322.0,,,,10.0,,KIGQ 071835Z AUTO 25009KT 10SM SCT032 M08/M15 A3049 RMK AO2  T10851146,,,,,,3.96,7.58,WSW,29.83,30.4,,Partly Cloudy
KIGQ,01/07/2017 18:55 UTC,30.48,17.42,5.72,57.02,11.5,270.0,18.41,,,,,342.0,,,,10.0,,KIGQ 071855Z AUTO 27010G16KT 220V320 10SM SCT034 M08/M15 A3048 RMK AO2 T10811146,,,,,,4.64,7.8,W,29.82,30.38,,Partly Cloudy
KIGQ,01/07/2017 19:15 UTC,30.48,17.96,5.72,57.02,10.36,270.0,18.41,,,,,342.0,,,,10.0,,KIGQ 071915Z AUTO 27009G16KT 10SM SCT034 M08/M15 A3048 RMK AO2  T10781146,,,,,,5.15,9.09,W,29.82,30.38,,Partly Cloudy
KIGQ,01/07/2017 19:35 UTC,30.47,18.5,6.08,57.3,13.8,280.0,20.71,,,,,343.0,,,,10.0,,KIGQ 071935Z AUTO 28012G18KT 10SM BKN034 M07/M14 A3047 RMK AO2  T10751144,,,3400.0,,,5.76,7.98,W,29.81,30.36,,Mostly Cloudy
KIGQ,01/07/2017 19:55 UTC,30.48,17.6,5.36,57.02,9.22,290.0,17.27,,,,,343.0,,,,10.0,,KIGQ 071955Z AUTO 29008G15KT 10SM BKN034 M08/M15 A3048 RMK AO2  T10801148,,,3400.0,,,4.81,9.36,WNW,29.82,30.38,,Mostly Cloudy
KIGQ,01/07/2017 20:15 UTC,30.48,18.5,6.62,57.3,11.5,280.0,19.57,,,,,262.0,323.0,,,10.0,,KIGQ 072015Z AUTO 28010G17KT 10SM SCT026 BKN032 M07/M14 A3048 RMK AO2 T10751141,,,3200.0,,,5.76,9.1,W,29.82,30.37,,Mostly Cloudy
KIGQ,01/07/2017 20:35 UTC,30.48,18.86,6.08,57.3,12.66,260.0,20.71,,,,,343.0,,,,10.0,,KIGQ 072035Z AUTO 26011G18KT 10SM BKN034 M07/M14 A3048 RMK AO2  T10731144,,,3400.0,,,6.1,8.95,W,29.82,30.37,,Mostly Cloudy
KIGQ,01/07/2017 20:55 UTC,30.48,19.4,4.82,52.77,11.5,300.0,16.11,,,,,372.0,,,,10.0,,KIGQ 072055Z AUTO 30010G14KT 10SM SCT037 M07/M15 A3048 RMK AO2  T10701151,,,,,,4.79,10.19,WNW,29.82,30.37,,Partly Cloudy
KIGQ,01/07/2017 21:15 UTC,30.49,18.86,4.28,52.77,12.66,290.0,19.57,,,,,1.0,,,,10.0,,KIGQ 072115Z AUTO 29011G17KT 10SM CLR M07/M15 A3049 RMK AO2  T10731154,,,,,,4.29,8.95,WNW,29.83,30.39,,Clear
KIGQ,01/07/2017 21:35 UTC,30.49,18.5,3.74,48.56,10.36,290.0,21.85,,,,,1.0,,,,10.0,,KIGQ 072135Z AUTO 29009G19KT 10SM CLR M07/M16 A3049 RMK AO2  T10751157,,,,,,2.14,9.74,WNW,29.83,30.4,,Clear
KIGQ,01/07/2017 21:55 UTC,30.49,18.32,2.84,52.47,10.36,290.0,25.32,,,,,1.0,,,,10.0,,KIGQ 072155Z AUTO 29009G22KT 10SM CLR M08/M16 A3049 RMK AO2  T10761162,,,,,,3.66,9.52,WNW,29.83,30.39,,Clear
KIGQ,01/07/2017 22:15 UTC,30.5,17.6,2.84,52.47,12.66,290.0,18.41,,,,,1.0,,,,10.0,,KIGQ 072215Z AUTO 29011G16KT 10SM CLR M08/M16 A3050 RMK AO2  T10801162,,,,,,2.99,7.42,WNW,29.84,30.41,,Clear
KIGQ,01/07/2017 22:35 UTC,30.5,16.7,2.48,52.47,10.36,290.0,,,,,,1.0,,,,10.0,,KIGQ 072235Z AUTO 29009KT 10SM CLR M08/M16 A3050 RMK AO2  T10851164,,,,,,2.15,7.58,WNW,29.84,30.41,,Clear
KIGQ,01/07/2017 22:55 UTC,30.51,16.34,2.3,56.74,9.22,290.0,17.27,,,,,1.0,,,,10.0,,KIGQ 072255Z AUTO 29008G15KT 10SM CLR M09/M16 A3051 RMK AO2  T10871165,,,,,,3.52,7.87,WNW,29.85,30.42,,Clear
KIGQ,01/07/2017 23:15 UTC,30.52,15.62,2.3,56.74,11.5,300.0,17.27,,,,,1.0,,,,10.0,,KIGQ 072315Z AUTO 30010G15KT 10SM CLR M09/M16 A3052 RMK AO2  T10911165,,,,,,2.84,5.63,WNW,29.86,30.43,,Clear
KIGQ,01/07/2017 23:35 UTC,30.52,15.62,2.3,56.74,10.36,290.0,17.27,,,,,1.0,,,,10.0,,KIGQ 072335Z AUTO 29009G15KT 10SM CLR M09/M16 A3052 RMK AO2  T10911165,,,,,,2.84,6.29,WNW,29.86,30.43,,Clear
KIGQ,01/07/2017 23:55 UTC,30.53,15.44,1.94,52.17,11.5,300.0,23.02,,,,,1.0,,,,10.0,,KIGQ 072355Z AUTO 30010G20KT 10SM CLR M09/M17 A3053 RMK AO2  T10921167 11070 21093,19.4,15.26,,,,0.86,5.41,WNW,29.87,30.45,,Clear
KIGQ,01/08/2017 00:15 UTC,30.54,14.9,2.12,52.17,12.66,300.0,,,,,,1.0,,,,10.0,,KIGQ 080015Z AUTO 30011KT 10SM CLR M09/M17 A3054 RMK AO2  T10951166,,,,,,0.35,4.14,WNW,29.88,30.47,,Clear
KIGQ,01/08/2017 00:35 UTC,30.54,14.9,1.76,52.17,12.66,300.0,24.16,,,,,1.0,,,,10.0,,KIGQ 080035Z AUTO 30011G21KT 10SM CLR M09/M17 A3054 RMK AO2  T10951168,,,,,,0.35,4.14,WNW,29.88,30.47,,Clear
KIGQ,01/08/2017 00:55 UTC,30.55,14.54,1.58,56.45,14.97,300.0,23.02,,,,,1.0,,,,10.0,,KIGQ 080055Z AUTO 30013G20KT 10SM CLR M10/M17 A3055 RMK AO2  T10971169,,,,,,1.72,2.58,WNW,29.89,30.47,,Clear
KIGQ,01/08/2017 01:15 UTC,30.56,13.82,1.76,56.45,13.8,310.0,20.71,,,,,1.0,,,,10.0,,KIGQ 080115Z AUTO 31012G18KT 10SM CLR M10/M17 A3056 RMK AO2  T11011168,,,,,,1.04,2.25,NW,29.9,30.49,,Clear
KIGQ,01/08/2017 01:35 UTC,30.56,13.1,1.4,56.45,10.36,310.0,16.11,,,,,1.0,,,,10.0,,KIGQ 080135Z AUTO 31009G14KT 10SM CLR M10/M17 A3056 RMK AO2  T11051170,,,,,,0.37,3.27,NW,29.9,30.49,,Clear
KIGQ,01/08/2017 01:55 UTC,30.56,13.1,1.4,56.45,9.22,300.0,16.11,,,,,1.0,,,,10.0,,KIGQ 080155Z AUTO 30008G14KT 10SM CLR M10/M17 A3056 RMK AO2  T11051170,,,,,,0.37,4.02,WNW,29.9,30.49,,Clear
KIGQ,01/08/2017 02:15 UTC,30.57,12.74,1.94,61.12,10.36,300.0,,,,,,1.0,,,,10.0,,KIGQ 080215Z AUTO 30009KT 10SM CLR M11/M17 A3057 RMK AO2  T11071167,,,,,,1.74,2.84,WNW,29.91,30.5,,Clear
KIGQ,01/08/2017 02:35 UTC,30.57,12.38,2.12,61.12,10.36,300.0,,,,,,1.0,,,,10.0,,KIGQ 080235Z AUTO 30009KT 10SM CLR M11/M17 A3057 RMK AO2  T11091166,,,,,,1.4,2.41,WNW,29.91,30.5,,Clear
KIGQ,01/08/2017 02:55 UTC,30.57,12.2,2.12,61.12,10.36,320.0,,,,,,1.0,,,,10.0,,KIGQ 080255Z AUTO 32009KT 10SM CLR M11/M17 A3057 RMK AO2  T11101166,,,,,,1.23,2.19,NW,29.91,30.5,,Clear
KIGQ,01/08/2017 03:15 UTC,30.58,12.02,1.58,61.12,12.66,310.0,19.57,,,,,1.0,,,,10.0,,KIGQ 080315Z AUTO 31011G17KT 10SM CLR M11/M17 A3058 RMK AO2  T11111169,,,,,,1.06,0.63,NW,29.92,30.52,,Clear
KIGQ,01/08/2017 03:35 UTC,30.59,11.66,1.04,61.12,13.8,330.0,18.41,,,,,1.0,,,,10.0,,KIGQ 080335Z AUTO 33012G16KT 10SM CLR M11/M17 A3059 RMK AO2  T11131172,,,,,,0.72,-0.4,NNW,29.92,30.52,,Clear
KIGQ,01/08/2017 03:55 UTC,30.59,11.3,0.5,61.12,10.36,320.0,16.11,,,,,1.0,,,,10.0,,KIGQ 080355Z AUTO 32009G14KT 10SM CLR M11/M17 A3059 RMK AO2  T11151175,,,,,,0.38,1.11,NW,29.92,30.52,,Clear
KIGQ,01/08/2017 04:15 UTC,30.6,10.76,0.5,66.23,10.36,310.0,,,,,,1.0,,,,10.0,,KIGQ 080415Z AUTO 31009KT 10SM CLR M12/M17 A3060 RMK AO2  T11181175,,,,,,1.6,0.47,NW,29.93,30.53,,Clear
KIGQ,01/08/2017 04:35 UTC,30.6,10.76,-1.84,55.87,13.8,330.0,24.16,,,,,1.0,,,,10.0,,KIGQ 080435Z AUTO 33012G21KT 10SM CLR M12/M19 A3060 RMK AO2  T11181188,,,,,,-2.05,-1.5,NNW,29.93,30.54,,Clear
KIGQ,01/08/2017 04:55 UTC,30.61,10.04,-2.2,55.87,11.5,320.0,18.41,,,,,1.0,,,,10.0,,KIGQ 080455Z AUTO 32010G16KT 10SM CLR M12/M19 A3061 RMK AO2  T11221190,,,,,,-2.72,-1.11,NW,29.94,30.56,,Clear
KIGQ,01/08/2017 05:15 UTC,30.62,9.5,-2.38,55.87,9.22,340.0,,,,,,1.0,,,,10.0,,KIGQ 080515Z AUTO 34008KT 10SM CLR M12/M19 A3062 RMK AO2  T11251191,,,,,,-3.23,-0.25,NNW,29.95,30.57,,Clear
KIGQ,01/08/2017 05:35 UTC,30.62,8.96,-3.1,60.58,10.36,320.0,16.11,,,,,1.0,,,,10.0,,KIGQ 080535Z AUTO 32009G14KT 10SM CLR M13/M19 A3062 RMK AO2  T11281195,,,,,,-2.02,-1.69,NW,29.95,30.57,,Clear
KIGQ,01/08/2017 05:55 UTC,30.63,8.6,-3.46,55.58,13.8,330.0,,,,,,1.0,,,,10.0,,KIGQ 080555Z AUTO 33012KT 10SM CLR M13/M20 A3063 RMK AO2 T11301197  11092 21130 410701175,15.44,8.6,,19.4,0.5,-4.18,-4.15,NNW,29.96,30.58,,Clear
KIGQ,01/08/2017 06:15 UTC,30.64,8.24,-3.28,55.58,6.91,320.0,,,,,,1.0,,,,10.0,,KIGQ 080615Z AUTO 32006KT 10SM CLR M13/M20 A3064 RMK AO2  T11321196,,,,,,-4.52,,NW,29.97,30.6,,Clear
KIGQ,01/08/2017 06:35 UTC,30.64,8.06,-3.46,55.58,11.5,320.0,,,,,,1.0,,,,10.0,,KIGQ 080635Z AUTO 32010KT 10SM CLR M13/M20 A3064 RMK AO2  T11331197,,,,,,-4.69,-3.5,NW,29.97,30.6,,Clear
KIGQ,01/08/2017 06:55 UTC,30.64,7.7,-4.0,55.58,10.36,320.0,18.41,,,,,1.0,,,,10.0,,KIGQ 080655Z AUTO 32009G16KT 10SM CLR M13/M20 A3064 RMK AO2  T11351200,,,,,,-5.02,-3.2,NW,29.97,30.6,,Clear
KIGQ,01/08/2017 07:15 UTC,30.64,7.52,-3.64,60.31,9.22,330.0,,,,,,1.0,,,,10.0,,KIGQ 080715Z AUTO 33008KT 10SM CLR M14/M20 A3064 RMK AO2  T11361198,,,,,,-3.48,-2.6,NNW,29.97,30.6,,Clear
KIGQ,01/08/2017 07:35 UTC,30.64,6.98,-3.64,60.31,8.05,320.0,,,,,,1.0,,,,10.0,,KIGQ 080735Z AUTO 32007KT 10SM CLR M14/M20 A3064 RMK AO2  T11391198,,,,,,-3.99,-2.31,NW,29.97,30.6,,Clear
KIGQ,01/08/2017 07:55 UTC,30.64,6.98,-3.64,60.31,8.05,320.0,,,,,,1.0,,,,10.0,,KIGQ 080755Z AUTO 32007KT 10SM CLR M14/M20 A3064 RMK AO2  T11391198,,,,,,-3.99,-2.31,NW,29.97,30.6,,Clear
KIGQ,01/08/2017 08:15 UTC,30.65,6.26,-3.64,60.31,6.91,320.0,,,,,,1.0,,,,10.0,,KIGQ 080815Z AUTO 32006KT 10SM CLR M14/M20 A3065 RMK AO2  T11431198,,,,,,-4.67,,NW,29.98,30.61,,Clear
KIGQ,01/08/2017 08:35 UTC,30.65,6.44,-3.64,60.31,6.91,320.0,,,,,,1.0,,,,10.0,,KIGQ 080835Z AUTO 32006KT 10SM CLR M14/M20 A3065 RMK AO2  T11421198,,,,,,-4.5,,NW,29.98,30.61,,Clear
KIGQ,01/08/2017 08:55 UTC,30.65,5.9,-3.64,60.31,5.75,310.0,,,,,,1.0,,,,10.0,,KIGQ 080855Z AUTO 31005KT 10SM CLR M14/M20 A3065 RMK AO2  T11451198,,,,,,-5.01,,NW,29.98,30.62,,Clear
KIGQ,01/08/2017 09:15 UTC,30.66,5.9,-3.64,60.31,4.61,320.0,,,,,,1.0,,,,10.0,,KIGQ 080915Z AUTO 32004KT 10SM CLR M14/M20 A3066 RMK AO2  T11451198,,,,,,-5.01,,NW,29.99,30.63,,Clear
KIGQ,01/08/2017 09:35 UTC,30.66,5.9,-3.82,60.31,4.61,300.0,,,,,,1.0,,,,10.0,,KIGQ 080935Z AUTO 30004KT 10SM CLR M14/M20 A3066 RMK AO2  T11451199,,,,,,-5.01,,WNW,29.99,30.63,,Clear
KIGQ,01/08/2017 09:55 UTC,30.67,5.18,-3.64,65.49,4.61,300.0,,,,,,1.0,,,,10.0,,KIGQ 080955Z AUTO 30004KT 10SM CLR M15/M20 A3067 RMK AO2  T11491198,,,,,,-3.97,,WNW,30.0,30.64,,Clear
KIGQ,01/08/2017 10:15 UTC,30.66,5.54,-3.46,65.49,6.91,300.0,,,,,,1.0,,,,10.0,,KIGQ 081015Z AUTO 30006KT 10SM CLR M15/M20 A3066 RMK AO2  T11471197,,,,,,-3.62,,WNW,29.99,30.62,,Clear
KIGQ,01/08/2017 10:35 UTC,30.67,5.0,-3.64,65.49,5.75,290.0,,,,,,1.0,,,,10.0,,KIGQ 081035Z AUTO 29005KT 10SM CLR M15/M20 A3067 RMK AO2  T11501198,,,,,,-4.14,,WNW,30.0,30.64,,Clear
KIGQ,01/08/2017 10:55 UTC,30.68,4.82,-3.46,65.49,6.91,270.0,,,,,,1.0,,,,10.0,,KIGQ 081055Z AUTO 27006KT 10SM CLR M15/M20 A3068 RMK AO2  T11511197,,,,,,-4.31,,W,30.01,30.65,,Clear
KIGQ,01/08/2017 11:15 UTC,30.69,4.1,-3.28,65.49,6.91,280.0,,,,,,1.0,,,,10.0,,KIGQ 081115Z AUTO 28006KT 10SM CLR M15/M20 A3069 RMK AO2  T11551196,,,,,,-5.0,,W,30.02,30.66,,Clear
KIGQ,01/08/2017 11:35 UTC,30.69,4.1,-3.46,65.49,4.61,280.0,,,,,,1.0,,,,10.0,,KIGQ 081135Z AUTO 28004KT 10SM CLR M15/M20 A3069 RMK AO2  T11551197,,,,,,-5.0,,W,30.02,30.66,,Clear
KIGQ,01/08/2017 11:55 UTC,30.69,4.1,-3.64,65.49,4.61,300.0,,,,,,1.0,,,,10.0,,KIGQ 081155Z AUTO 30004KT 10SM CLR M15/M20 A3069 RMK AO2 T11551198  11130 21156,8.6,3.92,,,,-5.0,,WNW,30.02,30.66,,Clear
KIGQ,01/08/2017 12:15 UTC,30.69,4.1,-3.46,65.49,4.61,300.0,,,,,,1.0,,,,10.0,,KIGQ 081215Z AUTO 30004KT 10SM CLR M15/M20 A3069 RMK AO2  T11551197,,,,,,-5.0,,WNW,30.02,30.66,,Clear
KIGQ,01/08/2017 12:35 UTC,30.7,3.74,-3.46,71.16,4.61,300.0,,,,,,1.0,,,,10.0,,KIGQ 081235Z AUTO 30004KT 10SM CLR M16/M20 A3070 RMK AO2  T11571197,,,,,,-3.6,,WNW,30.03,30.67,,Clear
KIGQ,01/08/2017 12:55 UTC,30.7,3.2,-3.46,71.16,3.44,290.0,,,,,,1.0,,,,10.0,,KIGQ 081255Z AUTO 29003KT 10SM CLR M16/M20 A3070 RMK AO2  T11601197,,,,,,-4.11,,WNW,30.03,30.68,,Clear
KIGQ,01/08/2017 13:15 UTC,30.7,3.2,-3.46,71.16,0.0,0.0,,,,,,1.0,,,,10.0,,KIGQ 081315Z AUTO 00000KT 10SM CLR M16/M20 A3070 RMK AO2  T11601197,,,,,,-4.11,,N,30.03,30.68,,Clear
KIGQ,01/08/2017 13:35 UTC,30.7,3.2,-3.28,71.16,3.44,270.0,,,,,,1.0,,,,10.0,,KIGQ 081335Z AUTO 27003KT 10SM CLR M16/M20 A3070 RMK AO2  T11601196,,,,,,-4.11,,W,30.03,30.68,,Clear
KIGQ,01/08/2017 13:55 UTC,30.71,3.74,-2.2,77.57,5.75,260.0,,,,,,1.0,,,,10.0,,KIGQ 081355Z AUTO 26005KT 10SM CLR M16/M19 A3071 RMK AO2  T11571190,,,,,,-1.77,,W,30.04,30.68,,Clear
KIGQ,01/08/2017 14:15 UTC,30.71,5.0,-2.2,71.38,4.61,280.0,,,,,,1.0,,,,10.0,,KIGQ 081415Z AUTO 28004KT 10SM CLR M15/M19 A3071 RMK AO2  T11501190,,,,,,-2.32,,W,30.04,30.67,,Clear
KIGQ,01/08/2017 14:35 UTC,30.71,5.54,-2.2,71.38,3.44,290.0,,,,,,1.0,,,,10.0,,KIGQ 081435Z AUTO 29003KT 10SM CLR M15/M19 A3071 RMK AO2  T11471190,,,,,,-1.8,,WNW,30.04,30.67,,Clear
KIGQ,01/08/2017 14:55 UTC,30.72,6.98,-1.66,65.74,4.61,300.0,,,,,,1.0,,,,10.0,,KIGQ 081455Z AUTO 30004KT 10SM CLR M14/M19 A3072 RMK AO2  T11391187,,,,,,-2.17,,WNW,30.05,30.68,,Clear
KIGQ,01/08/2017 15:15 UTC,30.74,7.7,-1.66,60.58,5.75,280.0,,,,,,1.0,,,,10.0,,KIGQ 081515Z AUTO 28005KT 10SM CLR M13/M19 A3074 RMK AO2  T11351187,,,,,,-3.21,,W,30.07,30.7,,Clear
KIGQ,01/08/2017 15:35 UTC,30.74,8.6,-1.48,60.58,4.61,260.0,,,,,,1.0,,,,10.0,,KIGQ 081535Z AUTO 26004KT 10SM CLR M13/M19 A3074 RMK AO2  T11301186,,,,,,-2.36,,W,30.07,30.69,,Clear
KIGQ,01/08/2017 15:55 UTC,30.74,9.32,-1.66,60.58,3.44,260.0,,,,,,1.0,,,,10.0,,KIGQ 081555Z AUTO 26003KT 10SM CLR M13/M19 A3074 RMK AO2  T11261187,,,,,,-1.68,,W,30.07,30.69,,Clear
KIGQ,01/08/2017 16:15 UTC,30.74,10.58,-0.94,60.85,0.0,0.0,,,,,,1.0,,,,10.0,,KIGQ 081615Z AUTO 00000KT 10SM CLR M12/M18 A3074 RMK AO2  T11191183,,,,,,-0.4,,N,30.07,30.68,,Clear
KIGQ,01/08/2017 16:35 UTC,30.73,11.12,-1.48,55.87,0.0,0.0,,,,,,1.0,,,,10.0,,KIGQ 081635Z AUTO 00000KT 10SM CLR M12/M19 A3073 RMK AO2  T11161186,,,,,,-1.71,,N,30.06,30.67,,Clear
KIGQ,01/08/2017 16:55 UTC,30.72,11.66,-1.3,56.16,0.0,0.0,,,,,,1.0,,,,10.0,,KIGQ 081655Z AUTO 00000KT 10SM CLR M11/M18 A3072 RMK AO2  T11131185,,,,,,-1.09,,N,30.05,30.66,,Clear
KIGQ,01/08/2017 17:15 UTC,30.7,12.56,-1.12,56.16,5.75,180.0,,,,,,1.0,,,,10.0,,KIGQ 081715Z AUTO 18005KT 10SM CLR M11/M18 A3070 RMK AO2  T11081184,,,,,,-0.25,,S,30.03,30.63,,Clear
KIGQ,01/08/2017 17:35 UTC,30.69,14.0,-2.38,47.62,4.61,160.0,,,,,,1.0,,,,10.0,,KIGQ 081735Z AUTO 16004KT 10SM CLR M10/M19 A3069 RMK AO2  T11001191,,,,,,-2.42,,SSE,30.02,30.62,,Clear
KIGQ,01/08/2017 17:55 UTC,30.68,14.72,-3.1,47.62,3.44,210.0,,,,,,1.0,,,,10.0,,KIGQ 081755Z AUTO 21003KT 10SM CLR M10/M19 A3068 RMK AO2 T10961195  11095 21161,14.9,3.02,,,,-1.76,,SSW,30.01,30.61,,Clear
KIGQ,01/08/2017 18:15 UTC,30.67,15.44,-2.92,44.01,4.61,240.0,,,,,,1.0,,,,10.0,,KIGQ 081815Z AUTO 24004KT 10SM CLR M09/M19 A3067 RMK AO2  T10921194,,,,,,-2.76,,WSW,30.0,30.6,,Clear
KIGQ,01/08/2017 18:35 UTC,30.66,15.98,-2.02,44.01,4.61,220.0,,,,,,1.0,,,,10.0,,KIGQ 081835Z AUTO 22004KT 10SM CLR M09/M19 A3066 RMK AO2  T10891189,,,,,,-2.27,,SW,29.99,30.58,,Clear
KIGQ,01/08/2017 18:55 UTC,30.66,16.88,-0.04,44.33,6.91,210.0,,,,,,1.0,,,,10.0,,KIGQ 081855Z AUTO 21006KT 10SM CLR M08/M18 A3066 RMK AO2  T10841178,,,,,,-1.3,,SSW,29.99,30.58,,Clear
KIGQ,01/08/2017 19:15 UTC,30.66,17.42,0.5,48.25,6.91,230.0,,,,,,1.0,,,,10.0,,KIGQ 081915Z AUTO 23006KT 10SM CLR M08/M17 A3066 RMK AO2  T10811175,,,,,,1.01,,SW,29.99,30.57,,Clear
KIGQ,01/08/2017 19:35 UTC,30.65,17.78,1.4,48.25,6.91,200.0,,,,,,1.0,,,,10.0,,KIGQ 081935Z AUTO 20006KT 10SM CLR M08/M17 A3065 RMK AO2  T10791170,,,,,,1.34,,SSW,29.98,30.56,,Clear
KIGQ,01/08/2017 19:55 UTC,30.65,17.78,1.4,48.25,10.36,220.0,16.11,,,,,1.0,,,,10.0,,KIGQ 081955Z AUTO 22009G14KT 10SM CLR M08/M17 A3065 RMK AO2  T10791170,,,,,,1.34,8.87,SW,29.98,30.56,,Clear
KIGQ,01/08/2017 20:15 UTC,30.65,18.14,2.48,52.47,11.5,230.0,,,,,,1.0,,,,10.0,,KIGQ 082015Z AUTO 23010KT 10SM CLR M08/M16 A3065 RMK AO2  T10771164,,,,,,3.49,8.67,SW,29.98,30.55,,Clear
KIGQ,01/08/2017 20:35 UTC,30.64,18.32,2.48,52.47,11.5,200.0,,,,,,1.0,,,,10.0,,KIGQ 082035Z AUTO 20010KT 10SM CLR M08/M16 A3064 RMK AO2  T10761164,,,,,,3.66,8.89,SSW,29.97,30.53,,Clear
KIGQ,01/08/2017 20:55 UTC,30.64,18.14,3.02,50.84,10.36,200.0,,,,,,1.0,,,,10.0,,KIGQ 082055Z AUTO 20009KT 10SM CLR M08/M16 A3064 RMK AO2  T10771161,,,,,,2.8,9.3,SSW,29.97,30.54,,Clear
KIGQ,01/08/2017 21:15 UTC,30.62,17.6,3.38,52.47,9.22,210.0,,,,,,1.0,,,,10.0,,KIGQ 082115Z AUTO 21008KT 10SM CLR M08/M16 A3062 RMK AO2  T10801159,,,,,,2.99,9.36,SSW,29.95,30.52,,Clear
KIGQ,01/08/2017 21:35 UTC,30.62,16.88,3.38,52.47,10.36,200.0,,,,,,1.0,,,,10.0,,KIGQ 082135Z AUTO 20009KT 10SM CLR M08/M16 A3062 RMK AO2  T10841159,,,,,,2.32,7.8,SSW,29.95,30.52,,Clear
KIGQ,01/08/2017 21:55 UTC,30.62,15.98,3.38,56.74,9.22,200.0,,,,,,1.0,,,,10.0,,KIGQ 082155Z AUTO 20008KT 10SM CLR M09/M16 A3062 RMK AO2  T10891159,,,,,,3.18,7.44,SSW,29.95,30.52,,Clear
KIGQ,01/08/2017 22:15 UTC,30.61,15.26,4.1,61.66,11.5,190.0,,,,,,1.0,,,,10.0,,KIGQ 082215Z AUTO 19010KT 10SM CLR M09/M15 A3061 RMK AO2  T10931155,,,,,,4.32,5.19,S,29.94,30.51,,Clear
KIGQ,01/08/2017 22:35 UTC,30.59,14.9,4.28,61.66,10.36,180.0,,,,,,1.0,,,,10.0,,KIGQ 082235Z AUTO 18009KT 10SM CLR M09/M15 A3059 RMK AO2  T10951154,,,,,,3.98,5.43,S,29.92,30.49,,Clear
KIGQ,01/08/2017 22:55 UTC,30.59,14.54,4.46,66.71,10.36,190.0,,,,,,1.0,,,,10.0,,KIGQ 082255Z AUTO 19009KT 10SM CLR M10/M15 A3059 RMK AO2  T10971153,,,,,,5.37,4.99,S,29.92,30.49,,Clear
KIGQ,01/08/2017 23:15 UTC,30.6,14.0,4.28,66.71,8.05,200.0,,,,,,1.0,,,,10.0,,KIGQ 082315Z AUTO 20007KT 10SM CLR M10/M15 A3060 RMK AO2  T11001154,,,,,,4.85,5.93,SSW,29.93,30.5,,Clear
KIGQ,01/08/2017 23:35 UTC,30.59,13.46,4.28,66.71,6.91,190.0,,,,,,1.0,,,,10.0,,KIGQ 082335Z AUTO 19006KT 10SM CLR M10/M15 A3059 RMK AO2  T11031154,,,,,,4.34,,S,29.92,30.5,,Clear
KIGQ,01/08/2017 23:55 UTC,30.58,13.64,4.46,66.71,9.22,170.0,,,,,,1202.0,,,,10.0,,KIGQ 082355Z AUTO 17008KT 10SM SCT120 M10/M15 A3058 RMK AO2  T11021153 11075 21105,18.5,13.1,,,,4.51,4.66,S,29.92,30.5,,Partly Cloudy
KIGQ,01/09/2017 00:15 UTC,30.57,14.0,3.92,63.47,8.05,170.0,,,,,,1203.0,,,,10.0,,KIGQ 090015Z AUTO 17007KT 10SM BKN120 M10/M16 A3057 RMK AO2  T11001156,,,12000.0,,,3.76,5.93,S,29.91,30.49,,Mostly Cloudy
KIGQ,01/09/2017 00:35 UTC,30.57,14.0,4.1,66.71,12.66,170.0,,,,,,1102.0,,,,10.0,,KIGQ 090035Z AUTO 17011KT 10SM SCT110 M10/M15 A3057 RMK AO2  T11001155,,,,,,4.85,3.04,S,29.91,30.48,,Partly Cloudy
KIGQ,01/09/2017 00:55 UTC,30.57,14.0,4.82,66.71,12.66,180.0,,,,,,1202.0,,,,10.0,,KIGQ 090055Z AUTO 18011KT 10SM SCT120 M10/M15 A3057 RMK AO2  T11001151,,,,,,4.85,3.04,S,29.91,30.48,,Partly Cloudy
KIGQ,01/09/2017 01:15 UTC,30.57,14.18,4.1,66.71,12.66,180.0,17.27,,,,,1203.0,,,,10.0,,KIGQ 090115Z AUTO 18011G15KT 10SM BKN120 M10/M15 A3057 RMK AO2  T10991155,,,12000.0,,,5.02,3.26,S,29.91,30.48,,Mostly Cloudy
KIGQ,01/09/2017 01:35 UTC,30.56,14.54,4.46,66.71,12.66,180.0,,,,,,1204.0,,,,10.0,,KIGQ 090135Z AUTO 18011KT 10SM OVC120 M10/M15 A3056 RMK AO2  T10971153,,,12000.0,,,5.37,3.7,S,29.9,30.47,,Overcast
KIGQ,01/09/2017 01:55 UTC,30.55,14.72,5.0,66.71,11.5,180.0,,,,,,1104.0,,,,10.0,,KIGQ 090155Z AUTO 18010KT 10SM OVC110 M10/M15 A3055 RMK AO2  T10961150,,,11000.0,,,5.54,4.54,S,29.89,30.46,,Overcast
KIGQ,01/09/2017 02:15 UTC,30.54,14.72,5.18,66.71,11.5,180.0,18.41,,,,,952.0,1104.0,,,10.0,,KIGQ 090215Z AUTO 18010G16KT 10SM SCT095 OVC110 M10/M15 A3054 RMK AO2 T10961149,,,11000.0,,,5.54,4.54,S,29.88,30.45,,Overcast
KIGQ,01/09/2017 02:35 UTC,30.54,14.9,5.18,61.66,13.8,180.0,,,,,,1004.0,,,,10.0,,KIGQ 090235Z AUTO 18012KT 10SM OVC100 M09/M15 A3054 RMK AO2  T10951149,,,10000.0,,,3.98,3.57,S,29.88,30.45,,Overcast
KIGQ,01/09/2017 02:55 UTC,30.52,14.9,5.36,61.66,12.66,170.0,17.27,,,,,1003.0,1203.0,,,10.0,,KIGQ 090255Z AUTO 17011G15KT 10SM BKN100 BKN120 M09/M15 A3052 RMK AO2 T10951148,,,10000.0,,,3.98,4.14,S,29.86,30.43,,Mostly Cloudy
KIGQ,01/09/2017 03:15 UTC,30.51,14.9,5.72,61.66,12.66,180.0,17.27,,,,,1104.0,,,,10.0,,KIGQ 090315Z AUTO 18011G15KT 10SM OVC110 M09/M15 A3051 RMK AO2  T10951146,,,11000.0,,,3.98,4.14,S,29.85,30.42,,Overcast
KIGQ,01/09/2017 03:35 UTC,30.49,14.9,5.9,66.95,17.27,170.0,21.85,,1204.0,,,702.0,802.0,,,10.0,,KIGQ 090335Z AUTO 17015G19KT 10SM SCT070 SCT080 OVC120 M09/M14  A3049 RMK AO2 T10951145,,,12000.0,,,5.79,2.05,S,29.83,30.39,,Overcast
KIGQ,01/09/2017 03:55 UTC,30.47,15.44,5.72,61.66,16.11,170.0,19.57,,1203.0,,,702.0,853.0,,,10.0,,KIGQ 090355Z AUTO 17014G17KT 10SM SCT070 BKN085 BKN120 M09/M15  A3047 RMK AO2 T10921146,,,8500.0,,,4.49,3.2,S,29.81,30.38,,Mostly Cloudy
KIGQ,01/09/2017 04:15 UTC,30.47,15.8,5.9,66.95,13.8,180.0,21.85,,1104.0,,,753.0,853.0,,,10.0,,KIGQ 090415Z AUTO 18012G19KT 10SM BKN075 BKN085 OVC110 M09/M14  A3047 RMK AO2 T10901145,,,7500.0,,,6.65,4.67,S,29.81,30.37,,Overcast
KIGQ,01/09/2017 04:35 UTC,30.45,16.34,6.26,66.95,10.36,170.0,19.57,,,,,754.0,,,,10.0,,KIGQ 090435Z AUTO 17009G17KT 10SM OVC075 M09/M14 A3045 RMK AO2  T10871143,,,7500.0,,,7.17,7.15,S,29.79,30.34,,Overcast
KIGQ,01/09/2017 04:55 UTC,30.44,16.7,6.08,61.92,16.11,180.0,,,1203.0,,,653.0,903.0,,,10.0,,KIGQ 090455Z AUTO 18014KT 10SM BKN065 BKN090 BKN120 M08/M14  A3044 RMK AO2 T10851144,,,6500.0,,,5.78,4.76,S,29.78,30.34,,Mostly Cloudy
KIGQ,01/09/2017 05:15 UTC,30.43,17.24,6.44,61.92,12.66,180.0,,,,,,652.0,1102.0,,,10.0,,KIGQ 090515Z AUTO 18011KT 10SM SCT065 SCT110 M08/M14 A3043 RMK AO2  T10821142,,,,,,6.29,6.98,S,29.77,30.32,,Partly Cloudy
KIGQ,01/09/2017 05:35 UTC,30.42,17.78,5.72,57.02,13.8,170.0,19.57,,,,,1103.0,,,,10.0,,KIGQ 090535Z AUTO 17012G17KT 10SM BKN110 M08/M15 A3042 RMK AO2  T10791146,,,11000.0,,,4.98,7.09,S,29.76,30.32,,Mostly Cloudy
KIGQ,01/09/2017 05:55 UTC,30.44,18.5,6.44,57.3,13.8,190.0,,,,,,1103.0,,,,10.0,,KIGQ 090555Z AUTO 19012KT 10SM BKN110 M07/M14 A3044 RMK AO2  T10751142 11075 21101 410751161,18.5,13.82,11000.0,18.5,3.02,5.76,7.98,S,29.78,30.33,,Mostly Cloudy
KIGQ,01/09/2017 06:15 UTC,30.43,19.04,7.52,57.3,14.97,200.0,20.71,,,,,1104.0,,,,10.0,,KIGQ 090615Z AUTO 20013G18KT 10SM OVC110 M07/M14 A3043 RMK AO2  T10721136,,,11000.0,,,6.27,8.13,SSW,29.77,30.31,,Overcast
KIGQ,01/09/2017 06:35 UTC,30.4,19.22,8.6,62.18,17.27,190.0,24.16,,,,,1104.0,,,,10.0,,KIGQ 090635Z AUTO 19015G21KT 10SM OVC110 M07/M13 A3040 RMK AO2  T10711130,,,11000.0,,,8.26,7.44,S,29.74,30.27,,Overcast
KIGQ,01/09/2017 06:55 UTC,30.38,19.4,9.5,67.42,14.97,190.0,21.85,,,,,1104.0,,,,10.0,,KIGQ 090655Z AUTO 19013G19KT 10SM OVC110 M07/M12 A3038 RMK AO2  T10701125,,,11000.0,,,10.25,8.57,S,29.72,30.24,,Overcast
KIGQ,01/09/2017 07:15 UTC,30.35,19.4,10.4,67.42,18.41,180.0,25.32,,,,,1104.0,,,,10.0,,KIGQ 090715Z AUTO 18016G22KT 10SM OVC110 M07/M12 A3035 RMK AO2  T10701120,,,11000.0,,,10.25,7.25,S,29.69,30.21,,Overcast
KIGQ,01/09/2017 07:35 UTC,30.34,20.12,10.94,67.42,19.57,180.0,24.16,,,,,1004.0,,,,10.0,,KIGQ 090735Z AUTO 18017G21KT 10SM OVC100 M07/M12 A3034 RMK AO2  T10661117,,,10000.0,,,10.94,7.76,S,29.68,30.19,,Overcast
KIGQ,01/09/2017 07:55 UTC,30.36,20.3,11.3,67.65,13.8,200.0,21.85,,,,,1004.0,,,,10.0,,KIGQ 090755Z AUTO 20012G19KT 10SM OVC100 M06/M11 A3036 RMK AO2  T10651115,,,10000.0,,,11.19,10.18,SSW,29.7,30.21,,Overcast
KIGQ,01/09/2017 08:15 UTC,30.38,20.66,12.2,67.65,14.97,200.0,19.57,,,,,1004.0,,,,10.0,,KIGQ 090815Z AUTO 20013G17KT 10SM OVC100 M06/M11 A3038 RMK AO2  T10631110,,,10000.0,,,11.53,10.12,SSW,29.72,30.23,,Overcast
KIGQ,01/09/2017 08:35 UTC,30.37,21.02,12.74,67.65,14.97,200.0,,,,,,1004.0,,,,10.0,,KIGQ 090835Z AUTO 20013KT 10SM OVC100 M06/M11 A3037 RMK AO2  T10611107,,,10000.0,,,11.88,10.57,SSW,29.71,30.22,,Overcast
KIGQ,01/09/2017 08:55 UTC,30.36,21.74,13.46,73.25,11.5,200.0,19.57,,,,,904.0,,,,10.0,,KIGQ 090855Z AUTO 20010G17KT 10SM OVC090 M06/M10 A3036 RMK AO2  T10571103,,,9000.0,,,14.4,13.01,SSW,29.7,30.19,,Overcast
KIGQ,01/09/2017 09:15 UTC,30.34,22.1,14.0,67.88,14.97,200.0,24.16,,,,,904.0,,,,10.0,,KIGQ 090915Z AUTO 20013G21KT 10SM OVC090 M05/M10 A3034 RMK AO2  T10551100,,,9000.0,,,12.99,11.9,SSW,29.68,30.17,,Overcast
KIGQ,01/09/2017 09:35 UTC,30.32,22.1,14.36,67.88,18.41,200.0,23.02,,,,,904.0,,,,10.0,,KIGQ 090935Z AUTO 20016G20KT 10SM OVC090 M05/M10 A3032 RMK AO2  T10551098,,,9000.0,,,12.99,10.63,SSW,29.66,30.15,,Overcast
KIGQ,01/09/2017 09:55 UTC,30.32,22.46,14.72,67.88,17.27,210.0,24.16,,,,,904.0,,,,10.0,,KIGQ 090955Z AUTO 21015G21KT 10SM OVC090 M05/M10 A3032 RMK AO2  T10531096,,,9000.0,,,13.34,11.48,SSW,29.66,30.15,,Overcast
KIGQ,01/09/2017 10:15 UTC,30.31,22.1,14.9,73.45,13.8,200.0,19.57,,,,,904.0,,,,10.0,,KIGQ 091015Z AUTO 20012G17KT 10SM OVC090 M05/M09 A3031 RMK AO2  T10551095,,,9000.0,,,14.81,12.38,SSW,29.65,30.13,,Overcast
KIGQ,01/09/2017 10:35 UTC,30.31,22.28,15.44,73.45,12.66,210.0,20.71,,,,,904.0,,,,10.0,,KIGQ 091035Z AUTO 21011G18KT 10SM OVC090 M05/M09 A3031 RMK AO2  T10541092,,,9000.0,,,14.98,13.11,SSW,29.65,30.13,,Overcast
KIGQ,01/09/2017 10:55 UTC,30.31,22.1,15.62,73.45,14.97,210.0,18.41,,,,,804.0,,,,10.0,,KIGQ 091055Z AUTO 21013G16KT 10SM OVC080 M05/M09 A3031 RMK AO2  T10551091,,,8000.0,,,14.81,11.9,SSW,29.65,30.13,,Overcast
KIGQ,01/09/2017 11:15 UTC,30.31,21.74,15.8,79.26,12.66,210.0,17.27,,,,,804.0,,,,10.0,,KIGQ 091115Z AUTO 21011G15KT 10SM OVC080 M06/M09 A3031 RMK AO2  T10571090,,,8000.0,,,16.23,12.45,SSW,29.65,30.12,,Overcast
KIGQ,01/09/2017 11:35 UTC,30.31,21.2,15.8,79.26,11.5,200.0,18.41,,,,,803.0,,,,10.0,,KIGQ 091135Z AUTO 20010G16KT 10SM BKN080 M06/M09 A3031 RMK AO2  T10601090,,,8000.0,,,15.71,12.36,SSW,29.65,30.13,,Mostly Cloudy
KIGQ,01/09/2017 11:55 UTC,30.32,20.66,15.8,79.26,9.22,200.0,,,,,,1.0,,,,10.0,,KIGQ 091155Z AUTO 20008KT 10SM CLR M06/M09 A3032 RMK AO2 T10631090  11053 21075,22.46,18.5,,,,15.18,12.99,SSW,29.66,30.14,,Clear
KIGQ,01/09/2017 12:15 UTC,30.31,19.94,15.8,85.59,9.22,200.0,,,,,,1.0,,,,10.0,,KIGQ 091215Z AUTO 20008KT 10SM CLR M07/M09 A3031 RMK AO2  T10671090,,,,,,16.27,12.14,SSW,29.65,30.13,,Clear
KIGQ,01/09/2017 12:35 UTC,30.31,19.4,15.8,85.59,9.22,200.0,,,,,,1.0,,,,10.0,,KIGQ 091235Z AUTO 20008KT 10SM CLR M07/M09 A3031 RMK AO2  T10701090,,,,,,15.74,11.5,SSW,29.65,30.14,,Clear
KIGQ,01/09/2017 12:55 UTC,30.3,19.58,15.98,85.59,8.05,190.0,,,,,,1.0,,,,10.0,,KIGQ 091255Z AUTO 19007KT 10SM CLR M07/M09 A3030 RMK AO2  T10691089,,,,,,15.91,12.49,S,29.64,30.12,,Clear
KIGQ,01/09/2017 13:15 UTC,30.3,19.76,16.34,85.59,8.05,190.0,,,,,,1.0,,,,10.0,,KIGQ 091315Z AUTO 19007KT 10SM CLR M07/M09 A3030 RMK AO2  T10681087,,,,,,16.09,12.7,S,29.64,30.12,,Clear
KIGQ,01/09/2017 13:35 UTC,30.31,20.12,16.52,85.59,9.22,200.0,,,,,,1.0,,,,10.0,,KIGQ 091335Z AUTO 20008KT 10SM CLR M07/M09 A3031 RMK AO2  T10661086,,,,,,16.44,12.35,SSW,29.65,30.13,,Clear
KIGQ,01/09/2017 13:55 UTC,30.32,20.84,17.06,85.71,9.22,200.0,,,,,,1.0,,,,10.0,,KIGQ 091355Z AUTO 20008KT 10SM CLR M06/M08 A3032 RMK AO2  T10621083,,,,,,17.18,13.21,SSW,29.66,30.13,,Clear
KIGQ,01/09/2017 14:15 UTC,30.32,21.56,17.24,85.71,11.5,210.0,17.27,,,,,1.0,,,,10.0,,KIGQ 091415Z AUTO 21010G15KT 10SM CLR M06/M08 A3032 RMK AO2  T10581082,,,,,,17.89,12.8,SSW,29.66,30.12,,Clear
KIGQ,01/09/2017 14:35 UTC,30.32,22.1,17.6,79.42,10.36,210.0,,,,,,1.0,,,,10.0,,KIGQ 091435Z AUTO 21009KT 10SM CLR M05/M08 A3032 RMK AO2  T10551080,,,,,,16.63,14.05,SSW,29.66,30.13,,Clear
KIGQ,01/09/2017 14:55 UTC,30.32,22.64,17.42,79.42,12.66,210.0,,,,,,1.0,,,,10.0,,KIGQ 091455Z AUTO 21011KT 10SM CLR M05/M08 A3032 RMK AO2  T10521081,,,,,,17.16,13.55,SSW,29.66,30.12,,Clear
KIGQ,01/09/2017 15:15 UTC,30.32,23.54,18.14,79.42,16.11,210.0,,,,,,1.0,,,,10.0,,KIGQ 091515Z AUTO 21014KT 10SM CLR M05/M08 A3032 RMK AO2  T10471077,,,,,,18.03,13.24,SSW,29.66,30.11,,Clear
KIGQ,01/09/2017 15:35 UTC,30.31,24.44,18.32,73.65,13.8,200.0,,,,,,1.0,,,,10.0,,KIGQ 091535Z AUTO 20012KT 10SM CLR M04/M08 A3031 RMK AO2  T10421076,,,,,,17.13,15.25,SSW,29.65,30.1,,Clear
KIGQ,01/09/2017 15:55 UTC,30.31,24.62,18.14,73.65,12.66,220.0,,,,,,1.0,,,,10.0,,KIGQ 091555Z AUTO 22011KT 10SM CLR M04/M08 A3031 RMK AO2  T10411077,,,,,,17.31,15.96,SW,29.65,30.1,,Clear
KIGQ,01/09/2017 16:15 UTC,30.3,26.06,18.5,73.84,14.97,210.0,,,,,,1.0,,,,10.0,,KIGQ 091615Z AUTO 21013KT 10SM CLR M03/M07 A3030 RMK AO2  T10331075,,,,,,18.76,16.78,SSW,29.64,30.07,,Clear
KIGQ,01/09/2017 16:35 UTC,30.31,26.42,18.5,73.84,16.11,220.0,,,,,,1.0,,,,10.0,,KIGQ 091635Z AUTO 22014KT 10SM CLR M03/M07 A3031 RMK AO2  T10311075,,,,,,19.11,16.81,SW,29.65,30.08,,Clear
KIGQ,01/09/2017 16:55 UTC,30.3,26.24,18.5,73.84,11.5,210.0,17.27,,,,,1.0,,,,10.0,,KIGQ 091655Z AUTO 21010G15KT 10SM CLR M03/M07 A3030 RMK AO2  T10321075,,,,,,18.93,18.45,SSW,29.64,30.07,,Clear
KIGQ,01/09/2017 17:15 UTC,30.3,26.6,19.04,73.84,14.97,210.0,,,,,,1.0,,,,10.0,,KIGQ 091715Z AUTO 21013KT 10SM CLR M03/M07 A3030 RMK AO2  T10301072,,,,,,19.28,17.44,SSW,29.64,30.06,,Clear
KIGQ,01/09/2017 17:35 UTC,30.29,27.32,19.22,73.84,14.97,210.0,,,,,,1.0,,,,10.0,,KIGQ 091735Z AUTO 21013KT 10SM CLR M03/M07 A3029 RMK AO2  T10261071,,,,,,19.98,18.33,SSW,29.63,30.04,,Clear
KIGQ,01/09/2017 17:55 UTC,30.29,27.5,19.04,68.56,12.66,220.0,,,,,,1.0,,,,10.0,,KIGQ 091755Z AUTO 22011KT 10SM CLR M02/M07 A3029 RMK AO2 T10251072  11025 21070,27.5,19.4,,,,18.4,19.46,SW,29.63,30.06,,Clear
KIGQ,01/09/2017 18:15 UTC,30.29,27.5,19.22,68.56,10.36,230.0,,,,,,1.0,,,,10.0,,KIGQ 091815Z AUTO 23009KT 10SM CLR M02/M07 A3029 RMK AO2  T10251071,,,,,,18.4,20.51,SW,29.63,30.06,,Clear
KIGQ,01/09/2017 18:35 UTC,30.28,27.5,19.22,68.56,11.5,220.0,,,,,,1.0,,,,10.0,,KIGQ 091835Z AUTO 22010KT 10SM CLR M02/M07 A3028 RMK AO2  T10251071,,,,,,18.4,19.97,SW,29.62,30.05,,Clear
KIGQ,01/09/2017 18:55 UTC,30.27,28.4,19.76,68.56,11.5,220.0,,,,,,1.0,,,,10.0,,KIGQ 091855Z AUTO 22010KT 10SM CLR M02/M07 A3027 RMK AO2  T10201068,,,,,,19.26,21.05,SW,29.61,30.02,,Clear
KIGQ,01/09/2017 19:15 UTC,30.25,28.22,19.76,68.56,11.5,210.0,,,,,,1.0,,,,10.0,,KIGQ 091915Z AUTO 21010KT 10SM CLR M02/M07 A3025 RMK AO2  T10211068,,,,,,19.09,20.84,SSW,29.59,30.0,,Clear
KIGQ,01/09/2017 19:35 UTC,30.22,28.22,19.94,68.56,11.5,200.0,,,,,,1202.0,,,,10.0,,KIGQ 091935Z AUTO 20010KT 10SM SCT120 M02/M07 A3022 RMK AO2  T10211067,,,,,,19.09,20.84,SSW,29.56,29.97,,Partly Cloudy
KIGQ,01/09/2017 19:55 UTC,30.22,28.76,20.3,74.03,11.5,200.0,,,,,,1.0,,,,10.0,,KIGQ 091955Z AUTO 20010KT 10SM CLR M02/M06 A3022 RMK AO2  T10181065,,,,,,21.43,21.49,SSW,29.56,29.95,,Clear
KIGQ,01/09/2017 20:15 UTC,30.23,28.76,20.48,74.03,11.5,180.0,,,,,,1.0,,,,10.0,,KIGQ 092015Z AUTO 18010KT 10SM CLR M02/M06 A3023 RMK AO2  T10181064,,,,,,21.43,21.49,S,29.57,29.96,,Clear
KIGQ,01/09/2017 20:35 UTC,30.24,28.4,20.48,74.03,12.66,190.0,,,,,,1.0,,,,10.0,,KIGQ 092035Z AUTO 19011KT 10SM CLR M02/M06 A3024 RMK AO2  T10201064,,,,,,21.08,20.55,S,29.58,29.98,,Clear
KIGQ,01/09/2017 20:55 UTC,30.24,28.76,20.84,74.03,10.36,190.0,,,,,,1202.0,,,,10.0,,KIGQ 092055Z AUTO 19009KT 10SM SCT120 M02/M06 A3024 RMK AO2  T10181062,,,,,,21.43,22.02,S,29.58,29.97,,Partly Cloudy
KIGQ,01/09/2017 21:15 UTC,30.25,28.76,21.02,74.03,12.66,190.0,,,,,,1103.0,,,,10.0,,KIGQ 092115Z AUTO 19011KT 10SM BKN110 M02/M06 A3025 RMK AO2  T10181061,,,11000.0,,,21.43,20.99,S,29.59,29.98,,Mostly Cloudy
KIGQ,01/09/2017 21:35 UTC,30.23,28.94,21.2,74.03,12.66,170.0,,,,,,702.0,904.0,,,10.0,,KIGQ 092135Z AUTO 17011KT 10SM SCT070 OVC090 M02/M06 A3023 RMK AO2  T10171060,,,9000.0,,,21.6,21.21,S,29.57,29.96,,Overcast
KIGQ,01/09/2017 21:55 UTC,30.24,28.94,21.2,74.03,11.5,180.0,,,,,,603.0,704.0,,,10.0,,KIGQ 092155Z AUTO 18010KT 10SM BKN060 OVC070 M02/M06 A3024 RMK AO2  T10171060,,,6000.0,,,21.6,21.71,S,29.58,29.97,,Overcast
KIGQ,01/09/2017 22:15 UTC,30.22,28.4,22.64,79.89,11.5,180.0,17.27,20.0,604.0,,,182.0,293.0,,,4.0,,KIGQ 092215Z AUTO 18010G15KT 4SM -SN SCT018 BKN029 OVC060 M02/M05  A3022 RMK AO2 T10201052,,,2900.0,,,22.91,21.05,S,29.56,29.94,,Light Snow
KIGQ,01/09/2017 22:35 UTC,30.22,26.6,24.8,92.79,12.66,180.0,,20.0,,,,174.0,,,,2.0,,KIGQ 092235Z AUTO 18011KT 2SM -SN OVC017 M03/M04 A3022 RMK AO2  T10301040,,,1700.0,,,24.77,18.36,S,29.56,29.93,,Light Snow
KIGQ,01/09/2017 22:55 UTC,30.19,26.6,25.52,92.79,11.5,170.0,,20.0,,,,193.0,254.0,,,3.0,,KIGQ 092255Z AUTO 17010KT 3SM -SN BKN019 OVC025 M03/M04 A3019 RMK AO2 T10301036,,,1900.0,,,24.77,18.88,S,29.53,29.9,,Light Snow
KIGQ,01/09/2017 23:15 UTC,30.19,26.78,25.88,100.0,12.66,180.0,,20.0,324.0,,,82.0,253.0,,,4.0,,KIGQ 092315Z AUTO 18011KT 4SM -SN SCT008 BKN025 OVC032 M03/M03  A3019 RMK AO2 T10291034,,,2500.0,,,26.78,18.58,S,29.53,29.87,,Light Snow
KIGQ,01/09/2017 23:35 UTC,30.18,27.14,26.06,100.0,9.22,160.0,,20.0,374.0,,,102.0,162.0,,,7.0,,KIGQ 092335Z AUTO 16008KT 7SM -SN SCT010 SCT016 OVC037 M03/M03  A3018 RMK AO2 T10271033,,,3700.0,,,27.14,20.68,SSE,29.52,29.86,,Light Snow
KIGQ,01/09/2017 23:55 UTC,30.17,27.32,25.7,100.0,10.36,170.0,,,,,,374.0,,,,10.0,,KIGQ 092355Z AUTO 17009KT 10SM OVC037 M03/M03 A3017 RMK AO2  T10261035 11017 21030,28.94,26.6,3700.0,,,27.32,20.3,S,29.51,29.84,,Overcast
KIGQ,01/10/2017 00:15 UTC,30.16,27.5,25.7,92.85,9.22,160.0,,,1204.0,,,372.0,902.0,,,10.0,,KIGQ 100015Z AUTO 16008KT 10SM SCT037 SCT090 OVC120 M02/M03  A3016 RMK AO2 T10251035,,,12000.0,,,25.68,21.11,SSE,29.5,29.85,,Overcast
KIGQ,01/10/2017 00:35 UTC,30.15,27.5,25.7,92.85,10.36,160.0,,,,,,1204.0,,,,10.0,,KIGQ 100035Z AUTO 16009KT 10SM OVC120 M02/M03 A3015 RMK AO2  T10251035,,,12000.0,,,25.68,20.51,SSE,29.49,29.84,,Overcast
KIGQ,01/10/2017 00:55 UTC,30.12,27.86,25.52,86.15,10.36,140.0,16.11,,,,,1204.0,,,,10.0,,KIGQ 100055Z AUTO 14009G14KT 10SM OVC120 M02/M04 A3012 RMK AO2  T10231036,,,12000.0,,,24.21,20.94,SE,29.47,29.83,,Overcast
KIGQ,01/10/2017 01:15 UTC,30.11,27.86,25.16,86.15,9.22,150.0,,,,,,1102.0,,,,10.0,,KIGQ 100115Z AUTO 15008KT 10SM SCT110 M02/M04 A3011 RMK AO2  T10231038,,,,,,24.21,21.54,SSE,29.46,29.82,,Partly Cloudy
KIGQ,01/10/2017 01:35 UTC,30.11,28.4,24.8,86.15,11.5,160.0,,,,,,1102.0,,,,10.0,,KIGQ 100135Z AUTO 16010KT 10SM SCT110 M02/M04 A3011 RMK AO2  T10201040,,,,,,24.74,21.05,SSE,29.46,29.81,,Partly Cloudy
KIGQ,01/10/2017 01:55 UTC,30.09,29.12,24.44,86.15,13.8,160.0,19.57,,,,,1202.0,,,,10.0,,KIGQ 100155Z AUTO 16012G17KT 10SM SCT120 M02/M04 A3009 RMK AO2  T10161042,,,,,,25.45,20.98,SSE,29.44,29.78,,Partly Cloudy
KIGQ,01/10/2017 02:15 UTC,30.08,29.66,24.26,80.04,13.8,160.0,,,,,,1203.0,,,,10.0,,KIGQ 100215Z AUTO 16012KT 10SM BKN120 M01/M04 A3008 RMK AO2  T10131043,,,12000.0,,,24.18,21.64,SSE,29.43,29.78,,Mostly Cloudy
KIGQ,01/10/2017 02:35 UTC,30.08,30.2,24.62,80.04,12.66,160.0,18.41,,,,,1002.0,1203.0,,,10.0,,KIGQ 100235Z AUTO 16011G16KT 10SM SCT100 BKN120 M01/M04 A3008 RMK AO2 T10101041,,,12000.0,,,24.71,22.74,SSE,29.43,29.77,,Mostly Cloudy
KIGQ,01/10/2017 02:55 UTC,30.07,31.1,24.62,74.41,16.11,160.0,23.02,,,,,1004.0,,,,10.0,,KIGQ 100255Z AUTO 16014G20KT 10SM OVC100 00/M04 A3007 RMK AO2  T10051041,,,10000.0,,,23.82,22.61,SSE,29.42,29.77,,Overcast
KIGQ,01/10/2017 03:15 UTC,30.05,31.28,24.8,74.41,17.27,160.0,24.16,,,,,904.0,,,,10.0,,KIGQ 100315Z AUTO 16015G21KT 10SM OVC090 00/M04 A3005 RMK AO2  T10041040,,,9000.0,,,23.99,22.47,SSE,29.4,29.75,,Overcast
KIGQ,01/10/2017 03:35 UTC,30.05,31.64,25.16,74.41,14.97,170.0,23.02,,,,,383.0,904.0,,,10.0,,KIGQ 100335Z AUTO 17013G20KT 10SM BKN038 OVC090 00/M04 A3005 RMK AO2 T10021038,,,3800.0,,,24.34,23.65,S,29.4,29.74,,Overcast
KIGQ,01/10/2017 03:55 UTC,30.04,32.0,25.52,74.41,11.5,160.0,19.57,,,,,384.0,,,,10.0,,KIGQ 100355Z AUTO 16010G17KT 10SM OVC038 00/M04 A3004 RMK AO2  T00001036,,,3800.0,,,24.69,25.4,SSE,29.39,29.72,,Overcast
KIGQ,01/10/2017 04:15 UTC,30.04,32.0,25.52,74.41,11.5,170.0,18.41,,,,,344.0,,,,10.0,,KIGQ 100415Z AUTO 17010G16KT 10SM OVC034 00/M04 A3004 RMK AO2  T00001036,,,3400.0,,,24.69,25.4,S,29.39,29.72,,Overcast
KIGQ,01/10/2017 04:35 UTC,30.02,32.0,25.7,80.19,14.97,160.0,19.57,20.0,,,,324.0,,,,10.0,,KIGQ 100435Z AUTO 16013G17KT 10SM -SN OVC032 00/M03 A3002 RMK AO2  T00001035,,,3200.0,,,26.51,24.1,SSE,29.37,29.68,,Light Snow
KIGQ,01/10/2017 04:55 UTC,30.01,32.0,26.24,80.19,12.66,170.0,,,,,,324.0,,,,10.0,,KIGQ 100455Z AUTO 17011KT 10SM OVC032 00/M03 A3001 RMK AO2  T00001032,,,3200.0,,,26.51,24.93,S,29.36,29.67,,Overcast
KIGQ,01/10/2017 05:15 UTC,29.99,32.54,26.06,80.19,13.8,170.0,18.41,,,,,304.0,,,,10.0,,KIGQ 100515Z AUTO 17012G16KT 10SM OVC030 00/M03 A2999 RMK AO2  T00031033,,,3000.0,,,27.04,25.17,S,29.34,29.64,,Overcast
KIGQ,01/10/2017 05:35 UTC,29.98,32.9,26.42,74.6,12.66,170.0,,,,,,304.0,,,,10.0,,KIGQ 100535Z AUTO 17011KT 10SM OVC030 01/M03 A2998 RMK AO2  T00051031,,,3000.0,,,25.62,26.03,S,29.33,29.65,,Overcast
KIGQ,01/10/2017 05:55 UTC,29.97,33.26,26.6,74.6,16.11,180.0,,,,,,304.0,,,,10.0,,KIGQ 100555Z AUTO 18014KT 10SM OVC030 01/M03 A2997 RMK AO2  T00071030 10008 21026 400081075,33.44,27.32,3000.0,33.44,18.5,25.97,25.29,S,29.32,29.63,,Overcast
KIGQ,01/10/2017 06:15 UTC,29.95,33.8,26.6,74.6,14.97,170.0,21.85,,,,,324.0,,,,10.0,,KIGQ 100615Z AUTO 17013G19KT 10SM OVC032 01/M03 A2995 RMK AO2  T00101030,,,3200.0,,,26.49,26.31,S,29.3,29.6,,Overcast
KIGQ,01/10/2017 06:35 UTC,29.94,33.98,27.14,74.6,16.11,180.0,21.85,,,,,324.0,,,,10.0,,KIGQ 100635Z AUTO 18014G19KT 10SM OVC032 01/M03 A2994 RMK AO2  T00111027,,,3200.0,,,26.67,26.18,S,29.29,29.59,,Overcast
KIGQ,01/10/2017 06:55 UTC,29.94,34.7,27.32,69.43,21.85,180.0,,,,,,324.0,,,,10.0,,KIGQ 100655Z AUTO 18019KT 10SM OVC032 02/M03 A2994 RMK AO2  T00151026,,,3200.0,,,25.6,25.56,S,29.29,29.59,,Overcast
KIGQ,01/10/2017 07:15 UTC,29.91,34.7,27.5,74.78,17.27,180.0,21.85,,,,,304.0,,,,10.0,,KIGQ 100715Z AUTO 18015G19KT 10SM OVC030 02/M02 A2991 RMK AO2  T00151025,,,3000.0,,,27.42,26.73,S,29.26,29.54,,Overcast
KIGQ,01/10/2017 07:35 UTC,29.91,34.7,27.68,74.78,13.8,180.0,20.71,,,,,284.0,,,,10.0,,KIGQ 100735Z AUTO 18012G18KT 10SM OVC028 02/M02 A2991 RMK AO2  T00151024,,,2800.0,,,27.42,27.81,S,29.26,29.54,,Overcast
KIGQ,01/10/2017 07:55 UTC,29.9,34.88,28.22,74.78,17.27,180.0,,,,,,264.0,,,,10.0,,KIGQ 100755Z AUTO 18015KT 10SM OVC026 02/M02 A2990 RMK AO2  T00161021,,,2600.0,,,27.6,26.96,S,29.25,29.53,,Overcast
KIGQ,01/10/2017 08:15 UTC,29.88,35.42,28.58,74.78,17.27,190.0,24.16,,,,,264.0,,,,10.0,,KIGQ 100815Z AUTO 19015G21KT 10SM OVC026 02/M02 A2988 RMK AO2  T00191019,,,2600.0,,,28.12,27.63,S,29.23,29.5,,Overcast
KIGQ,01/10/2017 08:35 UTC,29.87,36.5,29.3,74.96,20.71,190.0,29.93,,,,,264.0,,,,10.0,,KIGQ 100835Z AUTO 19018G26KT 10SM OVC026 03/M01 A2987 RMK AO2  T00251015,,,2600.0,,,29.22,28.11,S,29.22,29.46,,Overcast
KIGQ,01/10/2017 08:55 UTC,29.86,37.04,29.66,74.96,23.02,190.0,29.93,,,,,244.0,,,,10.0,,KIGQ 100855Z AUTO 19020G26KT 10SM OVC024 03/M01 A2986 RMK AO2  T00281013,,,2400.0,,,29.75,28.28,S,29.21,29.44,,Overcast
KIGQ,01/10/2017 09:15 UTC,29.84,37.4,30.56,74.96,24.16,200.0,31.07,,,,,224.0,,,,10.0,,KIGQ 100915Z AUTO 20021G27KT 10SM OVC022 03/M01 A2984 RMK AO2  T00301008,,,2200.0,,,30.09,28.5,SSW,29.19,29.41,,Overcast
KIGQ,01/10/2017 09:35 UTC,29.83,37.58,30.56,74.96,23.02,190.0,29.93,,,,,224.0,,,,10.0,,KIGQ 100935Z AUTO 19020G26KT 10SM OVC022 03/M01 A2983 RMK AO2  T00311008,,,2200.0,,,30.27,28.97,S,29.18,29.4,,Overcast
KIGQ,01/10/2017 09:55 UTC,29.82,37.58,31.1,80.63,27.63,200.0,32.21,,,,,224.0,,,,10.0,,KIGQ 100955Z AUTO 20024G28KT 10SM OVC022 03/00 A2982 RMK AO2  T00311005,,,2200.0,,,32.09,28.08,SSW,29.17,29.36,,Overcast
KIGQ,01/10/2017 10:15 UTC,29.81,37.4,32.0,80.63,21.85,200.0,27.63,,,,,204.0,,,,10.0,,KIGQ 101015Z AUTO 20019G24KT 10SM OVC020 03/00 A2981 RMK AO2  T00300000,,,2000.0,,,31.92,28.99,SSW,29.16,29.36,,Overcast
KIGQ,01/10/2017 10:35 UTC,29.8,37.58,32.9,86.68,19.57,190.0,34.52,,,,,204.0,,,,10.0,,KIGQ 101035Z AUTO 19017G30KT 10SM OVC020 03/01 A2980 RMK AO2  T00310005,,,2000.0,,,33.92,29.74,S,29.15,29.31,,Overcast
KIGQ,01/10/2017 10:55 UTC,29.78,38.48,32.9,80.78,20.71,190.0,36.82,,,,,224.0,,,,10.0,,KIGQ 101055Z AUTO 19018G32KT 10SM OVC022 04/01 A2978 RMK AO2  T00360005,,,2200.0,,,33.02,30.61,S,29.13,29.3,,Overcast
KIGQ,01/10/2017 11:15 UTC,29.76,38.84,32.36,75.14,18.41,190.0,24.16,,,,,224.0,,,,10.0,,KIGQ 101115Z AUTO 19016G21KT 10SM OVC022 04/00 A2976 RMK AO2  T00380002,,,2200.0,,,31.55,31.6,S,29.11,29.3,,Overcast
KIGQ,01/10/2017 11:35 UTC,29.75,39.2,32.54,75.14,20.71,180.0,27.63,,,,,224.0,,,,10.0,,KIGQ 101135Z AUTO 18018G24KT 10SM OVC022 04/00 A2975 RMK AO2  T00400003,,,2200.0,,,31.9,31.52,S,29.1,29.28,,Overcast
KIGQ,01/10/2017 11:55 UTC,29.74,39.2,33.08,80.78,19.57,190.0,26.46,,,,,224.0,,,,10.0,,KIGQ 101155Z AUTO 19017G23KT 10SM OVC022 04/01 A2974 RMK AO2  T00400006 10040 20007,39.2,33.26,2200.0,,,33.72,31.78,S,29.09,29.24,,Overcast
KIGQ,01/10/2017 12:15 UTC,29.72,39.56,33.98,80.78,21.85,190.0,31.07,,,,,204.0,,,,10.0,,KIGQ 101215Z AUTO 19019G27KT 10SM OVC020 04/01 A2972 RMK AO2  T00420011,,,2000.0,,,34.07,31.73,S,29.07,29.21,,Overcast
KIGQ,01/10/2017 12:35 UTC,29.71,39.74,35.06,86.79,19.57,190.0,27.63,,,,,184.0,,,,10.0,,KIGQ 101235Z AUTO 19017G24KT 10SM OVC018 04/02 A2971 RMK AO2  T00430017,,,1800.0,,,36.08,32.46,S,29.06,29.16,,Overcast
KIGQ,01/10/2017 12:55 UTC,29.69,39.74,35.6,86.79,23.02,190.0,31.07,,,,,184.0,,,,10.0,,KIGQ 101255Z AUTO 19020G27KT 10SM OVC018 04/02 A2969 RMK AO2  T00430020,,,1800.0,,,36.08,31.72,S,29.04,29.14,,Overcast
KIGQ,01/10/2017 13:15 UTC,29.69,40.1,36.14,80.92,23.02,190.0,32.21,,,,,164.0,,,,10.0,,KIGQ 101315Z AUTO 19020G28KT 10SM OVC016 05/02 A2969 RMK AO2  T00450023,,,1600.0,,,34.64,32.18,S,29.04,29.17,,Overcast
KIGQ,01/10/2017 13:35 UTC,29.68,40.1,36.86,86.89,20.71,180.0,34.52,,,,,144.0,,,,10.0,,KIGQ 101335Z AUTO 18018G30KT 10SM OVC014 05/03 A2968 RMK AO2  T00450027,,,1400.0,,,36.46,32.66,S,29.03,29.12,,Overcast
KIGQ,01/10/2017 13:55 UTC,29.67,39.74,37.4,93.19,24.16,180.0,33.38,,,,,144.0,,,,10.0,,KIGQ 101355Z AUTO 18021G29KT 10SM OVC014 04/03 A2967 RMK AO2  T00430030,,,1400.0,,,37.91,31.5,S,29.02,29.09,,Overcast
KIGQ,01/10/2017 14:15 UTC,29.66,39.74,37.76,93.19,19.57,180.0,27.63,13.0,,,,124.0,,,,10.0,,KIGQ 101415Z AUTO 18017G24KT 10SM -RA OVC012 04/03 A2966 RMK AO2  T00430032,,,1200.0,,,37.91,32.46,S,29.02,29.09,,Light Rain
KIGQ,01/10/2017 14:35 UTC,29.64,39.92,38.84,100.0,23.02,180.0,28.77,13.0,,,,124.0,,,,10.0,,KIGQ 101435Z AUTO 18020G25KT 10SM -RA OVC012 04/04 A2964 RMK AO2  T00440038,,,1200.0,,,39.92,31.95,S,29.0,29.02,,Light Rain
KIGQ,01/10/2017 14:55 UTC,29.62,40.28,39.56,93.24,24.16,180.0,36.82,13.0,,,,104.0,,,,5.0,,KIGQ 101455Z AUTO 18021G32KT 5SM -RA OVC010 05/04 A2962 RMK AO2  T00460042,,,1000.0,,,38.46,32.19,S,28.98,29.03,,Light Rain
KIGQ,01/10/2017 15:15 UTC,29.61,40.46,40.1,100.0,25.32,190.0,35.68,13.0,,0.03,,104.0,,,,3.0,,KIGQ 101515Z AUTO 19022G31KT 3SM -RA OVC010 05/05 A2961 RMK AO2  P0003 T00470045,,,1000.0,,,40.46,32.21,S,28.97,28.98,,Light Rain
KIGQ,01/10/2017 15:35 UTC,29.59,41.0,40.64,100.0,25.32,180.0,34.52,1.0,,0.07,,84.0,,,,4.0,,KIGQ 101535Z AUTO 18022G30KT 4SM RA OVC008 05/05 A2959 RMK AO2  P0007 T00500048,,,800.0,,,41.0,32.9,S,28.95,28.94,,Rain
KIGQ,01/10/2017 15:55 UTC,29.56,41.36,41.0,100.0,25.32,180.0,35.68,13.0,,0.09,,84.0,,,,7.0,,KIGQ 101555Z AUTO 18022G31KT 7SM -RA OVC008 05/05 A2956 RMK AO2  P0009 T00520050,,,800.0,,,41.36,33.37,S,28.92,28.9,,Light Rain
KIGQ,01/10/2017 16:15 UTC,29.56,42.08,41.9,100.0,31.07,190.0,43.73,,,,,84.0,,,,10.0,,KIGQ 101615Z AUTO 19027G38KT 10SM OVC008 06/06 A2956 RMK AO2  T00560055,,,800.0,,,42.08,33.37,S,28.92,28.87,,Overcast
KIGQ,01/10/2017 16:35 UTC,29.51,42.98,42.8,100.0,28.77,180.0,41.43,13.0,,0.01,,84.0,,,,5.0,,KIGQ 101635Z AUTO 18025G36KT 5SM -RA OVC008 06/06 A2951 RMK AO2  P0001 T00610060,,,800.0,,,42.98,34.89,S,28.87,28.79,,Light Rain
KIGQ,01/10/2017 16:55 UTC,29.5,43.7,43.34,93.35,29.93,190.0,43.73,13.0,,0.02,,84.0,,,,7.0,,KIGQ 101655Z AUTO 19026G38KT 7SM -RA OVC008 07/06 A2950 RMK AO2  P0002 T00650063,,,800.0,,,41.88,35.66,S,28.86,28.8,,Light Rain
KIGQ,01/10/2017 17:15 UTC,29.48,44.78,44.06,100.0,32.21,190.0,,,,,,,,,,,,KIGQ 101715Z AUTO 19028KT 07/07 A2948 RMK AO2 T00710067 PWINO,,,,,,44.78,36.75,S,28.84,28.7,,
KIGQ,01/10/2017 17:35 UTC,29.45,45.32,44.6,100.0,28.77,190.0,40.29,13.0,,,,104.0,,,,10.0,,KIGQ 101735Z AUTO 19025G35KT 10SM -RA OVC010 07/07 A2945 RMK AO2  T00740070,,,1000.0,,,45.32,,S,28.81,28.65,,Light Rain
KIGQ,01/10/2017 17:55 UTC,29.42,45.5,44.96,93.4,35.68,180.0,47.18,13.0,,,,104.0,,0.11,,10.0,,KIGQ 101755Z AUTO 18031G41KT 10SM -RA OVC010 08/07 A2942 RMK AO2  60011 T00750072 10075 20040,45.5,39.2,1000.0,,,43.68,,S,28.78,28.66,,Light Rain
KIGQ,01/10/2017 18:15 UTC,29.4,45.86,45.14,93.4,32.21,200.0,42.57,,,,,104.0,,,,10.0,,KIGQ 101815Z AUTO 20028G37KT 10SM OVC010 08/07 A2940 RMK AO2  T00770073,,,1000.0,,,44.04,,SSW,28.76,28.63,,Overcast
KIGQ,01/10/2017 18:35 UTC,29.38,46.4,45.68,100.0,33.38,190.0,41.43,,,,,104.0,,,,10.0,,KIGQ 101835Z AUTO 19029G36KT 10SM OVC010 08/08 A2938 RMK AO2  T00800076,,,1000.0,,,46.4,,S,28.74,28.54,,Overcast
KIGQ,01/10/2017 18:55 UTC,29.37,47.3,46.22,93.45,35.68,200.0,43.73,,,,,104.0,,,,10.0,,KIGQ 101855Z AUTO 20031G38KT 10SM OVC010 09/08 A2937 RMK AO2  T00850079,,,1000.0,,,45.48,,SSW,28.73,28.54,,Overcast
KIGQ,01/10/2017 19:15 UTC,29.35,47.66,46.58,93.45,33.38,190.0,43.73,2.0,,,,104.0,,,,10.0,,KIGQ 101915Z AUTO 19029G38KT 10SM DZ OVC010 09/08 A2935 RMK AO2  T00870081,,,1000.0,,,45.84,,S,28.71,28.51,,Drizzle
KIGQ,01/10/2017 19:35 UTC,29.33,48.2,47.3,100.0,36.82,190.0,44.87,13.0,,,,104.0,,,,7.0,,KIGQ 101935Z AUTO 19032G39KT 7SM -RA OVC010 09/09 A2933 RMK AO2  T00900085,,,1000.0,,,48.2,,S,28.69,28.41,,Light Rain
KIGQ,01/10/2017 19:55 UTC,29.31,48.38,47.66,100.0,36.82,190.0,43.73,13.0,,,,124.0,,,,7.0,,KIGQ 101955Z AUTO 19032G38KT 7SM -RA OVC012 09/09 A2931 RMK AO2  T00910087,,,1200.0,,,48.38,,S,28.67,28.38,,Light Rain
KIGQ,01/10/2017 20:15 UTC,29.29,49.1,48.38,93.5,35.68,190.0,49.48,13.0,,0.01,,124.0,,,,5.0,,KIGQ 102015Z AUTO 19031G43KT 5SM -RA OVC012 10/09 A2929 RMK AO2  P0001 T00950091,,,1200.0,,,47.28,,S,28.65,28.39,,Light Rain
KIGQ,01/10/2017 20:35 UTC,29.3,49.1,48.38,93.5,39.12,200.0,49.48,13.0,,0.01,,124.0,,,,10.0,,KIGQ 102035Z AUTO 20034G43KT 10SM -RA OVC012 10/09 A2930 RMK AO2  P0001 T00950091,,,1200.0,,,47.28,,SSW,28.66,28.4,,Light Rain
KIGQ,01/10/2017 20:55 UTC,29.31,49.28,48.92,93.5,32.21,200.0,56.39,1.0,,0.03,0.03,123.0,204.0,,,4.0,,KIGQ 102055Z AUTO 20028G49KT 4SM RA BKN012 OVC020 10/09 A2931 RMK AO2 P0003 60003 T00960094,,,1200.0,,,47.46,,SSW,28.67,28.4,,Rain
KIGQ,01/10/2017 21:15 UTC,29.34,50.18,49.28,100.0,40.29,230.0,54.09,13.0,,,,133.0,194.0,,,7.0,,KIGQ 102115Z AUTO 23035G47KT 7SM -RA BKN013 OVC019 10/10 A2934 RMK AO2 T01010096,,,1300.0,,,50.18,,SW,28.7,28.34,,Light Rain
KIGQ,01/10/2017 21:35 UTC,29.36,50.18,48.38,93.5,31.07,250.0,46.04,13.0,504.0,0.01,,193.0,243.0,,,7.0,,KIGQ 102135Z AUTO 25027G40KT 7SM -RA BKN019 BKN024 OVC050 10/09  A2936 RMK AO2 P0001 T01010091,,,1900.0,,,48.36,,WSW,28.72,28.42,,Light Rain
KIGQ,01/10/2017 21:55 UTC,29.38,49.1,48.2,93.5,20.71,250.0,37.98,1.0,434.0,0.05,,143.0,203.0,,,4.0,,KIGQ 102155Z AUTO 25018G33KT 4SM RA BKN014 BKN020 OVC043 10/09  A2938 RMK AO2 P0005 T00950090,,,1400.0,,,47.28,,WSW,28.74,28.48,,Rain
KIGQ,01/10/2017 22:15 UTC,29.42,45.14,43.52,93.35,36.82,270.0,47.18,13.0,,0.01,,134.0,,,,4.0,,KIGQ 102215Z AUTO 27032G41KT 4SM -RA OVC013 07/06 A2942 RMK AO2  P0001 T00730064,,,1300.0,,,43.31,,W,28.78,28.67,,Light Rain
KIGQ,01/10/2017 22:35 UTC,29.45,42.98,41.54,93.3,25.32,260.0,43.73,17.0,,0.01,,154.0,,,,5.0,,KIGQ 102235Z AUTO 26022G38KT 5SM -DZ OVC015 06/05 A2945 RMK AO2  P0001 T00610053,,,1500.0,,,41.15,35.45,W,28.81,28.78,,Light Drizzle
KIGQ,01/10/2017 22:55 UTC,29.47,41.9,38.66,86.99,36.82,260.0,47.18,,,0.01,,153.0,224.0,,,10.0,,KIGQ 102255Z AUTO 26032G41KT 10SM BKN015 OVC022 06/04 A2947 RMK AO2 P0001 T00550037,,,1500.0,,,38.26,32.35,W,28.83,28.87,,Overcast
KIGQ,01/10/2017 23:15 UTC,29.51,39.92,36.32,86.79,35.68,260.0,50.64,,,,,194.0,,,,10.0,,KIGQ 102315Z AUTO 26031G44KT 10SM OVC019 04/02 A2951 RMK AO2 LTG  DSNT S T00440024,,,1900.0,,,36.26,29.88,W,28.87,28.97,,Overcast
KIGQ,01/10/2017 23:35 UTC,29.54,38.3,34.52,80.78,36.82,260.0,46.04,,,,,173.0,224.0,,,10.0,,KIGQ 102335Z AUTO 26032G40KT 10SM BKN017 OVC022 04/01 A2954 RMK AO2 T00350014,,,1700.0,,,32.84,27.57,W,28.9,29.07,,Overcast
KIGQ,01/10/2017 23:55 UTC,29.58,35.96,31.46,86.58,39.12,270.0,54.09,,,,,172.0,224.0,0.09,,10.0,,KIGQ 102355Z AUTO 27034G47KT 10SM SCT017 OVC022 02/00 A2958 RMK AO2 60009 T00221003 10104 20022,50.72,35.96,2200.0,,,32.3,24.14,W,28.94,29.13,,Overcast
KIGQ,01/11/2017 00:15 UTC,29.6,34.88,30.38,80.49,34.52,270.0,43.73,,,,,244.0,,,,10.0,,KIGQ 110015Z AUTO 27030G38KT 10SM OVC024 02/M01 A2960 RMK AO2  T00161009,,,2400.0,,,29.41,23.39,W,28.96,29.21,,Overcast
KIGQ,01/11/2017 00:35 UTC,29.63,33.8,28.58,80.34,34.52,270.0,48.34,,,,,243.0,1203.0,,,10.0,,KIGQ 110035Z AUTO 27030G42KT 10SM BKN024 BKN120 01/M02 A2963 RMK AO2 T00101019,,,2400.0,,,28.31,21.96,W,28.99,29.26,,Mostly Cloudy
KIGQ,01/11/2017 00:55 UTC,29.67,33.44,29.66,86.48,28.77,270.0,35.68,,,,,223.0,1203.0,,,10.0,,KIGQ 110055Z AUTO 27025G31KT 10SM BKN022 BKN120 01/M01 A2967 RMK AO2 T00081013,,,2200.0,,,29.79,22.49,W,29.02,29.27,,Mostly Cloudy
KIGQ,01/11/2017 01:15 UTC,29.7,32.18,28.22,86.37,26.46,270.0,48.34,,,,,224.0,,,,10.0,,KIGQ 110115Z AUTO 27023G42KT 10SM OVC022 00/M02 A2970 RMK AO2  T00011021,,,2200.0,,,28.52,21.32,W,29.05,29.33,,Overcast
KIGQ,01/11/2017 01:35 UTC,29.73,32.0,28.04,86.37,31.07,270.0,39.12,,,,,224.0,,,,10.0,,KIGQ 110135Z AUTO 27027G34KT 10SM OVC022 00/M02 A2973 RMK AO2  T00001022,,,2200.0,,,28.34,20.19,W,29.08,29.36,,Overcast
KIGQ,01/11/2017 01:55 UTC,29.75,31.28,26.78,80.19,32.21,270.0,39.12,,,,,204.0,,,,10.0,,KIGQ 110155Z AUTO 27028G34KT 10SM OVC020 00/M03 A2975 RMK AO2  T10041029,,,2000.0,,,25.81,19.04,W,29.1,29.42,,Overcast
KIGQ,01/11/2017 02:15 UTC,29.78,31.1,27.32,80.19,29.93,260.0,37.98,,,,,204.0,,,,10.0,,KIGQ 110215Z AUTO 26026G33KT 10SM OVC020 00/M03 A2978 RMK AO2  T10051026,,,2000.0,,,25.63,19.23,W,29.13,29.45,,Overcast
KIGQ,01/11/2017 02:35 UTC,29.81,30.56,26.24,86.26,26.46,260.0,37.98,,,,,203.0,,,,10.0,,KIGQ 110235Z AUTO 26023G33KT 10SM BKN020 M01/M03 A2981 RMK AO2  T10081032,,,2000.0,,,26.89,19.23,W,29.16,29.47,,Mostly Cloudy
KIGQ,01/11/2017 02:55 UTC,29.82,30.02,26.06,86.26,20.71,270.0,34.52,,,,,203.0,,,,10.0,,KIGQ 110255Z AUTO 27018G30KT 10SM BKN020 M01/M03 A2982 RMK AO2  T10111033,,,2000.0,,,26.36,19.91,W,29.17,29.49,,Mostly Cloudy
KIGQ,01/11/2017 03:15 UTC,29.85,30.02,26.06,86.26,20.71,260.0,37.98,,,,,203.0,,,,10.0,,KIGQ 110315Z AUTO 26018G33KT 10SM BKN020 M01/M03 A2985 RMK AO2  T10111033,,,2000.0,,,26.36,19.91,W,29.2,29.52,,Mostly Cloudy
KIGQ,01/11/2017 03:35 UTC,29.88,29.3,24.26,80.04,29.93,260.0,41.43,,,,,203.0,,,,10.0,,KIGQ 110335Z AUTO 26026G36KT 10SM BKN020 M01/M04 A2988 RMK AO2  T10151043,,,2000.0,,,23.83,16.88,W,29.23,29.58,,Mostly Cloudy
KIGQ,01/11/2017 03:55 UTC,29.9,28.4,24.08,86.15,24.16,270.0,32.21,,,,,202.0,,,,10.0,,KIGQ 110355Z AUTO 27021G28KT 10SM SCT020 M02/M04 A2990 RMK AO2  T10201044,,,,,,24.74,16.98,W,29.25,29.6,,Partly Cloudy
KIGQ,01/11/2017 04:15 UTC,29.92,28.4,24.8,86.15,21.85,270.0,33.38,,,,,202.0,,,,10.0,,KIGQ 110415Z AUTO 27019G29KT 10SM SCT020 M02/M04 A2992 RMK AO2  T10201040,,,,,,24.74,17.56,W,29.27,29.62,,Partly Cloudy
KIGQ,01/11/2017 04:35 UTC,29.94,28.58,24.8,86.15,17.27,270.0,27.63,,,,,202.0,,,,10.0,,KIGQ 110435Z AUTO 27015G24KT 10SM SCT020 M02/M04 A2994 RMK AO2  T10191040,,,,,,24.91,19.1,W,29.29,29.64,,Partly Cloudy
KIGQ,01/11/2017 04:55 UTC,29.95,28.76,24.8,86.15,20.71,270.0,31.07,,,,,182.0,,,,10.0,,KIGQ 110455Z AUTO 27018G27KT 10SM SCT018 M02/M04 A2995 RMK AO2  T10181040,,,,,,25.09,18.32,W,29.3,29.65,,Partly Cloudy
KIGQ,01/11/2017 05:15 UTC,29.96,28.22,25.16,86.15,16.11,260.0,,,,,,162.0,,,,10.0,,KIGQ 110515Z AUTO 26014KT 10SM SCT016 M02/M04 A2996 RMK AO2  T10211038,,,,,,24.56,19.04,W,29.31,29.66,,Partly Cloudy
KIGQ,01/11/2017 05:35 UTC,29.97,28.4,25.7,92.85,17.27,250.0,21.85,,,,,163.0,,,,10.0,,KIGQ 110535Z AUTO 25015G19KT 10SM BKN016 M02/M03 A2997 RMK AO2  T10201035,,,1600.0,,,26.57,18.88,WSW,29.32,29.65,,Mostly Cloudy
KIGQ,01/11/2017 05:55 UTC,29.98,28.4,25.16,86.15,19.57,250.0,24.16,,,,,162.0,,,,10.0,,KIGQ 110555Z AUTO 25017G21KT 10SM SCT016 M02/M04 A2998 RMK AO2  T10201038 10022 21021 401041021,35.96,28.22,,50.72,28.22,24.74,18.18,WSW,29.33,29.68,,Partly Cloudy
KIGQ,01/11/2017 06:15 UTC,29.98,28.4,25.34,86.15,11.5,250.0,,,,,,152.0,,,,10.0,,KIGQ 110615Z AUTO 25010KT 10SM SCT015 M02/M04 A2998 RMK AO2  T10201037,,,,,,24.74,21.05,WSW,29.33,29.68,,Partly Cloudy
KIGQ,01/11/2017 06:35 UTC,29.99,28.22,25.52,86.15,13.8,240.0,,,,,,152.0,,,,10.0,,KIGQ 110635Z AUTO 24012KT 10SM SCT015 M02/M04 A2999 RMK AO2  T10211036,,,,,,24.56,19.88,WSW,29.34,29.7,,Partly Cloudy
KIGQ,01/11/2017 06:55 UTC,30.0,27.5,24.62,86.15,13.8,250.0,21.85,,,,,1.0,,,,10.0,,KIGQ 110655Z AUTO 25012G19KT 10SM CLR M02/M04 A3000 RMK AO2  T10251041,,,,,,23.85,18.99,WSW,29.35,29.72,,Clear
KIGQ,01/11/2017 07:15 UTC,30.01,27.5,24.44,86.15,12.66,260.0,18.41,,,,,1.0,,,,10.0,,KIGQ 110715Z AUTO 26011G16KT 10SM CLR M02/M04 A3001 RMK AO2  T10251042,,,,,,23.85,19.46,W,29.36,29.73,,Clear
KIGQ,01/11/2017 07:35 UTC,30.02,27.14,24.44,92.79,10.36,260.0,18.41,,,,,1.0,,,,10.0,,KIGQ 110735Z AUTO 26009G16KT 10SM CLR M03/M04 A3002 RMK AO2  T10271042,,,,,,25.3,20.08,W,29.37,29.72,,Clear
KIGQ,01/11/2017 07:55 UTC,30.03,26.6,24.62,92.79,9.22,250.0,,,,,,1.0,,,,10.0,,KIGQ 110755Z AUTO 25008KT 10SM CLR M03/M04 A3003 RMK AO2  T10301041,,,,,,24.77,20.04,WSW,29.38,29.74,,Clear
KIGQ,01/11/2017 08:15 UTC,30.03,26.6,24.62,92.79,6.91,230.0,,,,,,1.0,,,,10.0,,KIGQ 110815Z AUTO 23006KT 10SM CLR M03/M04 A3003 RMK AO2  T10301041,,,,,,24.77,,SW,29.38,29.74,,Clear
KIGQ,01/11/2017 08:35 UTC,30.01,25.88,24.44,92.79,5.75,210.0,,,,,,1.0,,,,10.0,,KIGQ 110835Z AUTO 21005KT 10SM CLR M03/M04 A3001 RMK AO2  T10341042,,,,,,24.05,,SSW,29.36,29.73,,Clear
KIGQ,01/11/2017 08:55 UTC,30.0,26.6,24.8,92.79,4.61,200.0,,,,,,1102.0,,,,10.0,,KIGQ 110855Z AUTO 20004KT 10SM SCT110 M03/M04 A3000 RMK AO2  T10301040,,,,,,24.77,,SSW,29.35,29.71,,Partly Cloudy
KIGQ,01/11/2017 09:15 UTC,30.01,26.6,24.98,92.79,9.22,200.0,,,,,,1103.0,,,,10.0,,KIGQ 110915Z AUTO 20008KT 10SM BKN110 M03/M04 A3001 RMK AO2  T10301039,,,11000.0,,,24.77,20.04,SSW,29.36,29.72,,Mostly Cloudy
KIGQ,01/11/2017 09:35 UTC,30.01,27.14,25.16,92.79,9.22,210.0,,,,,,1002.0,1202.0,,,10.0,,KIGQ 110935Z AUTO 21008KT 10SM SCT100 SCT120 M03/M04 A3001 RMK AO2  T10271038,,,,,,25.3,20.68,SSW,29.36,29.71,,Partly Cloudy
KIGQ,01/11/2017 09:55 UTC,29.99,27.14,24.8,92.79,6.91,200.0,,,,,,1202.0,,,,10.0,,KIGQ 110955Z AUTO 20006KT 10SM SCT120 M03/M04 A2999 RMK AO2  T10271040,,,,,,25.3,,SSW,29.34,29.69,,Partly Cloudy
KIGQ,01/11/2017 10:15 UTC,29.98,26.96,24.62,92.79,9.22,180.0,,,,,,1.0,,,,10.0,,KIGQ 111015Z AUTO 18008KT 10SM CLR M03/M04 A2998 RMK AO2  T10281041,,,,,,25.13,20.47,S,29.33,29.69,,Clear
KIGQ,01/11/2017 10:35 UTC,29.99,27.5,25.34,86.15,10.36,190.0,,,,,,1202.0,,,,10.0,,KIGQ 111035Z AUTO 19009KT 10SM SCT120 M02/M04 A2999 RMK AO2  T10251037,,,,,,23.85,20.51,S,29.34,29.71,,Partly Cloudy
KIGQ,01/11/2017 10:55 UTC,30.0,27.5,25.52,86.15,8.05,200.0,,,,,,1202.0,,,,10.0,,KIGQ 111055Z AUTO 20007KT 10SM SCT120 M02/M04 A3000 RMK AO2  T10251036,,,,,,23.85,21.79,SSW,29.35,29.72,,Partly Cloudy
KIGQ,01/11/2017 11:15 UTC,29.98,27.5,25.7,92.85,8.05,190.0,,,,,,1202.0,,,,10.0,,KIGQ 111115Z AUTO 19007KT 10SM SCT120 M02/M03 A2998 RMK AO2  T10251035,,,,,,25.68,21.79,S,29.33,29.68,,Partly Cloudy
KIGQ,01/11/2017 11:35 UTC,29.97,27.86,26.06,92.85,8.05,180.0,,,,,,1202.0,,,,10.0,,KIGQ 111135Z AUTO 18007KT 10SM SCT120 M02/M03 A2997 RMK AO2  T10231033,,,,,,26.03,22.21,S,29.32,29.66,,Partly Cloudy
KIGQ,01/11/2017 11:55 UTC,29.97,27.68,26.42,92.85,8.05,170.0,,,,,,1102.0,,,0.2,10.0,,KIGQ 111155Z AUTO 17007KT 10SM SCT110 M02/M03 A2997 RMK AO2 70020  T10241031 11020 21035,28.4,25.7,,,,25.86,22.0,S,29.32,29.66,,Partly Cloudy
KIGQ,01/11/2017 12:15 UTC,29.95,28.4,27.14,92.85,8.05,160.0,,,,,,1102.0,,,,10.0,,KIGQ 111215Z AUTO 16007KT 10SM SCT110 M02/M03 A2995 RMK AO2  T10201027,,,,,,26.57,22.85,SSE,29.3,29.63,,Partly Cloudy
KIGQ,01/11/2017 12:35 UTC,29.94,28.94,27.5,100.0,5.75,170.0,,,,,,1.0,,,,10.0,,KIGQ 111235Z AUTO 17005KT 10SM CLR M02/M02 A2994 RMK AO2  T10171025,,,,,,28.94,,S,29.29,29.59,,Clear
KIGQ,01/11/2017 12:55 UTC,29.96,29.3,28.4,92.91,10.36,190.0,,,,,,1.0,,,,10.0,,KIGQ 111255Z AUTO 19009KT 10SM CLR M01/M02 A2996 RMK AO2  T10151020,,,,,,27.48,22.67,S,29.31,29.62,,Clear
KIGQ,01/11/2017 13:15 UTC,29.95,29.84,28.58,92.91,12.66,170.0,,,,,,1.0,,,,10.0,,KIGQ 111315Z AUTO 17011KT 10SM CLR M01/M02 A2995 RMK AO2  T10121019,,,,,,28.01,22.3,S,29.3,29.6,,Clear
KIGQ,01/11/2017 13:35 UTC,29.93,30.2,28.94,92.91,13.8,170.0,,,,,,1.0,,,,10.0,,KIGQ 111335Z AUTO 17012KT 10SM CLR M01/M02 A2993 RMK AO2  T10101017,,,,,,28.37,22.3,S,29.28,29.58,,Clear
KIGQ,01/11/2017 13:55 UTC,29.91,30.38,29.12,92.91,12.66,170.0,16.11,,,,,1.0,,,,10.0,,KIGQ 111355Z AUTO 17011G14KT 10SM CLR M01/M02 A2991 RMK AO2  T10091016,,,,,,28.55,22.96,S,29.26,29.55,,Clear
KIGQ,01/11/2017 14:15 UTC,29.91,30.92,29.3,100.0,10.36,170.0,,,,,,1.0,,,,10.0,,KIGQ 111415Z AUTO 17009KT 10SM CLR M01/M01 A2991 RMK AO2  T10061015,,,,,,30.92,24.61,S,29.26,29.52,,Clear
KIGQ,01/11/2017 14:35 UTC,29.91,31.82,29.3,92.96,13.8,170.0,,,,,,1.0,,,,10.0,,KIGQ 111435Z AUTO 17012KT 10SM CLR 00/M01 A2991 RMK AO2  T10011015,,,,,,29.99,24.28,S,29.26,29.52,,Clear
KIGQ,01/11/2017 14:55 UTC,29.91,32.0,29.3,92.96,13.8,180.0,,,,,,1.0,,,,10.0,,KIGQ 111455Z AUTO 18012KT 10SM CLR 00/M01 A2991 RMK AO2  T00001015,,,,,,30.17,24.5,S,29.26,29.52,,Clear
KIGQ,01/11/2017 15:15 UTC,29.88,32.54,30.02,92.96,11.5,160.0,,,,,,1.0,,,,10.0,,KIGQ 111515Z AUTO 16010KT 10SM CLR 00/M01 A2988 RMK AO2  T00031011,,,,,,30.7,26.05,SSE,29.23,29.48,,Clear
KIGQ,01/11/2017 15:35 UTC,29.88,33.8,30.74,86.48,12.66,170.0,,,,,,1.0,,,,10.0,,KIGQ 111535Z AUTO 17011KT 10SM CLR 01/M01 A2988 RMK AO2  T00101007,,,,,,30.14,27.12,S,29.23,29.48,,Clear
KIGQ,01/11/2017 15:55 UTC,29.88,34.88,31.1,86.58,11.5,170.0,18.41,,,,,1.0,,,,10.0,,KIGQ 111555Z AUTO 17010G16KT 10SM CLR 02/00 A2988 RMK AO2  T00161005,,,,,,31.23,28.88,S,29.23,29.45,,Clear
KIGQ,01/11/2017 16:15 UTC,29.88,36.5,32.0,80.63,17.27,180.0,,,,,,212.0,,,,10.0,,KIGQ 111615Z AUTO 18015KT 10SM SCT021 03/00 A2988 RMK AO2  T00250000,,,,,,31.04,28.98,S,29.23,29.45,,Partly Cloudy
KIGQ,01/11/2017 16:35 UTC,29.85,37.58,32.0,80.63,18.41,170.0,21.85,,,,,212.0,,,,10.0,,KIGQ 111635Z AUTO 17016G19KT 10SM SCT021 03/00 A2985 RMK AO2  T00310000,,,,,,32.09,30.03,S,29.2,29.39,,Partly Cloudy
KIGQ,01/11/2017 16:55 UTC,29.83,39.02,32.72,75.14,18.41,180.0,24.16,,,,,1.0,,,,10.0,,KIGQ 111655Z AUTO 18016G21KT 10SM CLR 04/00 A2983 RMK AO2  T00390004,,,,,,31.72,31.83,S,29.18,29.37,,Clear
KIGQ,01/11/2017 17:15 UTC,29.81,39.56,33.44,80.78,20.71,180.0,27.63,,,,,1.0,,,,10.0,,KIGQ 111715Z AUTO 18018G24KT 10SM CLR 04/01 A2981 RMK AO2  T00420008,,,,,,34.07,31.98,S,29.16,29.3,,Clear
KIGQ,01/11/2017 17:35 UTC,29.81,41.0,35.78,80.92,18.41,190.0,25.32,,,,,123.0,,,,10.0,,KIGQ 111735Z AUTO 19016G22KT 10SM BKN012 05/02 A2981 RMK AO2  T00500021,,,1200.0,,,35.52,34.31,S,29.16,29.27,,Mostly Cloudy
KIGQ,01/11/2017 17:55 UTC,29.79,41.0,37.94,86.89,19.57,190.0,26.46,,,,,104.0,,,,10.0,,KIGQ 111755Z AUTO 19017G23KT 10SM OVC010 05/03 A2979 RMK AO2  T00500033 10050 21022,41.0,28.04,1000.0,,,37.35,34.05,S,29.14,29.21,,Overcast
KIGQ,01/11/2017 18:15 UTC,29.77,41.0,39.56,93.24,16.11,180.0,,,,,,84.0,,,,7.0,,KIGQ 111815Z AUTO 18014KT 7SM OVC008 05/04 A2977 RMK AO2  T00500042,,,800.0,,,39.17,34.88,S,29.12,29.15,,Overcast
KIGQ,01/11/2017 18:35 UTC,29.75,41.72,41.18,100.0,16.11,180.0,,31.0,,,,64.0,,,,5.0,,KIGQ 111835Z AUTO 18014KT 5SM BR OVC006 05/05 A2975 RMK AO2  T00540051,,,600.0,,,41.72,35.77,S,29.1,29.07,,Mist
KIGQ,01/11/2017 18:55 UTC,29.74,42.8,42.8,100.0,13.8,180.0,20.71,31.0,,,,44.0,,,,4.0,,KIGQ 111855Z AUTO 18012G18KT 4SM BR OVC004 06/06 A2974 RMK AO2  T00600060,,,400.0,,,42.8,37.73,S,29.09,29.02,,Mist
KIGQ,01/11/2017 19:15 UTC,29.72,42.8,42.8,100.0,14.97,180.0,,31.0,,,,44.0,,,,2.0,,KIGQ 111915Z AUTO 18013KT 2SM BR OVC004 06/06 A2972 RMK AO2  T00600060,,,400.0,,,42.8,37.4,S,29.07,29.0,,Mist
KIGQ,01/11/2017 19:35 UTC,29.69,43.88,43.88,100.0,13.8,180.0,,31.0,,,,24.0,,,,1.0,,KIGQ 111935Z AUTO 18012KT 1SM BR OVC002 07/07 A2969 RMK AO2  T00660066,,,200.0,,,43.88,39.05,S,29.04,28.93,,Mist
KIGQ,01/11/2017 19:55 UTC,29.69,43.7,43.7,100.0,10.36,180.0,,9.0,,,,24.0,,,,0.5,,KIGQ 111955Z AUTO 18009KT 1/2SM FG OVC002 07/07 A2969 RMK AO2  T00650065,,,200.0,,,43.7,39.91,S,29.04,28.94,,Fog
KIGQ,01/11/2017 20:15 UTC,29.68,43.88,43.88,100.0,12.66,180.0,,9.0,,,,24.0,,,,0.5,,KIGQ 112015Z AUTO 18011KT 1/2SM FG OVC002 07/07 A2968 RMK AO2  T00660066,,,200.0,,,43.88,39.38,S,29.03,28.92,,Fog
KIGQ,01/11/2017 20:35 UTC,29.67,44.06,44.06,100.0,9.22,180.0,,9.0,,,,24.0,,,,0.5,,KIGQ 112035Z AUTO 18008KT 1/2SM FG OVC002 07/07 A2967 RMK AO2  T00670067,,,200.0,,,44.06,40.76,S,29.02,28.91,,Fog
KIGQ,01/11/2017 20:55 UTC,29.66,44.6,44.6,100.0,12.66,170.0,17.27,9.0,,,,24.0,,,,0.5,,KIGQ 112055Z AUTO 17011G15KT 1/2SM FG OVC002 07/07 A2966 RMK AO2  T00700070,,,200.0,,,44.6,40.25,S,29.02,28.89,,Fog
KIGQ,01/11/2017 21:15 UTC,29.66,44.96,44.96,100.0,11.5,180.0,17.27,9.0,,,,24.0,,,,0.5,,KIGQ 112115Z AUTO 18010G15KT 1/2SM FG OVC002 07/07 A2966 RMK AO2  LTG DSNT E T00720072,,,200.0,,,44.96,41.04,S,29.02,28.88,,Fog
KIGQ,01/11/2017 21:35 UTC,29.65,44.96,44.96,100.0,10.36,170.0,,9.0,,,,24.0,,,,0.5,,KIGQ 112135Z AUTO 17009KT 1/2SM FG OVC002 07/07 A2965 RMK AO2  T00720072,,,200.0,,,44.96,41.42,S,29.01,28.87,,Fog
KIGQ,01/11/2017 21:55 UTC,29.65,44.78,44.78,100.0,9.22,170.0,,41.0,,,,24.0,,,,0.5,,KIGQ 112155Z AUTO 17008KT 1/2SM UP OVC002 07/07 A2965 RMK AO2  T00710071,,,200.0,,,44.78,41.62,S,29.01,28.87,,Unknown Precip
KIGQ,01/11/2017 22:15 UTC,29.64,45.5,45.5,100.0,9.22,170.0,,13.0,,,,24.0,,,,0.5,,KIGQ 112215Z AUTO 17008KT 1/2SM -RA OVC002 08/08 A2964 RMK AO2 LTG  DSNT E T00750075,,,200.0,,,45.5,,S,29.0,28.83,,Light Rain
KIGQ,01/11/2017 22:35 UTC,29.66,45.14,45.14,100.0,6.91,190.0,,13.0,,,,24.0,,,,0.75,,KIGQ 112235Z AUTO 19006KT 3/4SM -RA OVC002 07/07 A2966 RMK AO2 LTG  DSNT NE AND E T00730073,,,200.0,,,45.14,,S,29.02,28.87,,Light Rain
KIGQ,01/11/2017 22:55 UTC,29.65,46.04,46.04,100.0,3.44,190.0,,31.0,,,,24.0,,,,0.75,,KIGQ 112255Z AUTO 19003KT 3/4SM BR OVC002 08/08 A2965 RMK AO2 LTG  DSNT NE T00780078,,,200.0,,,46.04,,S,29.01,28.82,,Mist
KIGQ,01/11/2017 23:15 UTC,29.64,46.58,46.58,100.0,3.44,180.0,,9.0,,,,24.0,,,,0.5,,KIGQ 112315Z AUTO 18003KT 1/2SM FG OVC002 08/08 A2964 RMK AO2  T00810081,,,200.0,,,46.58,,S,29.0,28.79,,Fog
KIGQ,01/11/2017 23:35 UTC,29.62,46.94,46.94,100.0,0.0,0.0,,9.0,,,,24.0,,,,0.5,,KIGQ 112335Z AUTO 00000KT 1/2SM FG OVC002 08/08 A2962 RMK AO2 LTG  DSNT SW AND W T00830083,,,200.0,,,46.94,,N,28.98,28.76,,Fog
KIGQ,01/11/2017 23:55 UTC,29.61,47.12,47.12,100.0,5.75,340.0,,78.0,,0.07,,24.0,,0.07,,0.5,,KIGQ 112355Z AUTO 34005KT 1/2SM +TSRA OVC002 08/08 A2961 RMK AO2  LTG DSNT SW THRU NE P0007 60007 T00840084 10085 20050,47.3,41.0,200.0,,,47.12,,NNW,28.97,28.74,,Heavy Rain/Thunderstorm
KIGQ,01/12/2017 00:15 UTC,29.62,47.12,47.12,100.0,5.75,350.0,17.27,31.0,,,,24.0,,,,3.0,,KIGQ 120015Z AUTO 35005G15KT 3SM BR OVC002 08/08 A2962 RMK AO2 LTG  DSNT NE AND E T00840084,,,200.0,,,47.12,,N,28.98,28.75,,Mist
KIGQ,01/12/2017 00:35 UTC,29.63,42.08,42.08,100.0,9.22,360.0,,31.0,,0.05,,24.0,,,,5.0,,KIGQ 120035Z AUTO 36008KT 5SM BR OVC002 06/06 A2963 RMK AO2 LTG  DSNT E AND W P0005 T00560056,,,200.0,,,42.08,38.41,N,28.99,28.94,,Mist
KIGQ,01/12/2017 00:55 UTC,29.63,38.48,38.48,100.0,12.66,10.0,17.27,13.0,,0.05,,24.0,,,,4.0,,KIGQ 120055Z AUTO 01011G15KT 4SM -RA OVC002 04/04 A2963 RMK AO2  P0005 T00360036,,,200.0,,,38.48,32.81,N,28.99,29.06,,Light Rain
KIGQ,01/12/2017 01:15 UTC,29.63,37.4,37.4,100.0,13.8,20.0,,2.0,,,,24.0,,,,5.0,,KIGQ 120115Z AUTO 02012KT 5SM DZ OVC002 03/03 A2963 RMK AO2 LTG  DSNT SW THRU NW T00300030,,,200.0,,,37.4,31.12,NNE,28.99,29.09,,Drizzle
KIGQ,01/12/2017 01:35 UTC,29.63,37.04,37.04,100.0,9.22,360.0,17.27,13.0,,,,24.0,,,,3.0,,KIGQ 120135Z AUTO 36008G15KT 3SM -RA OVC002 03/03 A2963 RMK AO2  LTG DSNT N T00280028,,,200.0,,,37.04,32.43,N,28.99,29.1,,Light Rain
KIGQ,01/12/2017 01:55 UTC,29.68,37.04,37.04,100.0,14.97,340.0,21.85,41.0,,0.13,,24.0,,,,1.0,,KIGQ 120155Z AUTO 34013G19KT 1SM UP OVC002 03/03 A2968 RMK AO2 LTG  DSNT SW P0013 T00280028,,,200.0,,,37.04,30.31,NNW,29.03,29.14,,Unknown Precip
KIGQ,01/12/2017 02:15 UTC,29.68,36.5,36.5,100.0,13.8,360.0,23.02,,,,,44.0,,,,10.0,,KIGQ 120215Z AUTO 36012G20KT 10SM -VCTSRA OVC004 03/03 A2968 RMK AO2 LTG DSNT E T00250025,,,400.0,,,36.5,30.01,N,29.03,29.15,,Overcast
KIGQ,01/12/2017 02:35 UTC,29.69,36.32,36.32,100.0,13.8,360.0,20.71,13.0,,,,44.0,,,,7.0,,KIGQ 120235Z AUTO 36012G18KT 7SM -RA OVC004 02/02 A2969 RMK AO2  LTG DSNT E AND S T00240024,,,400.0,,,36.32,29.79,N,29.04,29.17,,Light Rain
KIGQ,01/12/2017 02:55 UTC,29.71,35.6,35.6,100.0,13.8,360.0,19.57,13.0,,0.01,0.21,44.0,,,,5.0,,KIGQ 120255Z AUTO 36012G17KT 5SM -RA OVC004 02/02 A2971 RMK AO2  LTG DSNT E AND SE P0001 60021 T00200020,,,400.0,,,35.6,28.91,N,29.06,29.2,,Light Rain
KIGQ,01/12/2017 03:15 UTC,29.72,35.24,35.24,100.0,13.8,10.0,19.57,2.0,,,,44.0,,,,4.0,,KIGQ 120315Z AUTO 01012G17KT 4SM DZ OVC004 02/02 A2972 RMK AO2  T00180018,,,400.0,,,35.24,28.47,N,29.07,29.22,,Drizzle
KIGQ,01/12/2017 03:35 UTC,29.73,34.88,34.88,100.0,9.22,360.0,18.41,31.0,,,,44.0,,,,5.0,,KIGQ 120335Z AUTO 36008G16KT 5SM BR OVC004 02/02 A2973 RMK AO2  T00160016,,,400.0,,,34.88,29.87,N,29.08,29.24,,Mist
KIGQ,01/12/2017 03:55 UTC,29.73,34.34,34.34,100.0,12.66,10.0,20.71,31.0,,,,44.0,,,,4.0,,KIGQ 120355Z AUTO 01011G18KT 4SM BR OVC004 01/01 A2973 RMK AO2  T00130013,,,400.0,,,34.34,27.78,N,29.08,29.26,,Mist
KIGQ,01/12/2017 04:15 UTC,29.74,33.98,33.98,100.0,14.97,10.0,19.57,31.0,,,,44.0,,,,5.0,,KIGQ 120415Z AUTO 01013G17KT 5SM BR OVC004 01/01 A2974 RMK AO2  T00110011,,,400.0,,,33.98,26.54,N,29.09,29.27,,Mist
KIGQ,01/12/2017 04:35 UTC,29.76,33.8,33.8,100.0,11.5,360.0,17.27,31.0,,,,64.0,,,,5.0,,KIGQ 120435Z AUTO 36010G15KT 5SM BR OVC006 01/01 A2976 RMK AO2  T00100010,,,600.0,,,33.8,27.57,N,29.11,29.3,,Mist
KIGQ,01/12/2017 04:55 UTC,29.78,32.9,32.9,100.0,13.8,360.0,21.85,31.0,,,,64.0,,,,4.0,,KIGQ 120455Z AUTO 36012G19KT 4SM BR OVC006 01/01 A2978 RMK AO2  T00050005,,,600.0,,,32.9,25.61,N,29.13,29.34,,Mist
KIGQ,01/12/2017 05:15 UTC,29.79,32.18,32.18,100.0,12.66,10.0,21.85,31.0,,,,64.0,,,,4.0,,KIGQ 120515Z AUTO 01011G19KT 4SM BR OVC006 00/00 A2979 RMK AO2  T00010001,,,600.0,,,32.18,25.15,N,29.14,29.37,,Mist
KIGQ,01/12/2017 05:35 UTC,29.81,32.0,32.0,100.0,11.5,10.0,19.57,31.0,,,,64.0,,,,4.0,,KIGQ 120535Z AUTO 01010G17KT 4SM BR OVC006 00/00 A2981 RMK AO2  T00000000,,,600.0,,,32.0,25.4,N,29.16,29.39,,Mist
KIGQ,01/12/2017 05:55 UTC,29.81,31.64,31.64,100.0,10.36,360.0,16.11,31.0,,,,64.0,,0.21,,4.0,,KIGQ 120555Z AUTO 36009G14KT 4SM BR OVC006 00/00 A2981 RMK AO2  60021 T10021002 10095 21002 400951035,49.1,31.64,600.0,49.1,25.7,31.64,25.47,N,29.16,29.4,,Mist
KIGQ,01/12/2017 06:15 UTC,29.81,31.82,31.82,100.0,9.22,10.0,17.27,31.0,,,,64.0,,,,4.0,,KIGQ 120615Z AUTO 01008G15KT 4SM BR OVC006 00/00 A2981 RMK AO2  T10011001,,,600.0,,,31.82,26.24,N,29.16,29.4,,Mist
KIGQ,01/12/2017 06:35 UTC,29.83,31.82,31.82,100.0,12.66,10.0,17.27,31.0,,,,44.0,,,,5.0,,KIGQ 120635Z AUTO 01011G15KT 5SM BR OVC004 00/00 A2983 RMK AO2  T10011001,,,400.0,,,31.82,24.71,N,29.18,29.42,,Mist
KIGQ,01/12/2017 06:55 UTC,29.83,31.28,31.28,100.0,10.36,10.0,16.11,31.0,,,,44.0,,,,4.0,,KIGQ 120655Z AUTO 01009G14KT 4SM BR OVC004 00/00 A2983 RMK AO2  T10041004,,,400.0,,,31.28,25.04,N,29.18,29.43,,Mist
KIGQ,01/12/2017 07:15 UTC,29.85,30.02,30.02,100.0,8.05,360.0,,31.0,,,,44.0,,,,4.0,,KIGQ 120715Z AUTO 36007KT 4SM BR OVC004 M01/M01 A2985 RMK AO2  T10111011,,,400.0,,,30.02,24.75,N,29.2,29.47,,Mist
KIGQ,01/12/2017 07:35 UTC,29.86,29.84,29.84,100.0,12.66,360.0,17.27,31.0,,,,44.0,,,,4.0,,KIGQ 120735Z AUTO 36011G15KT 4SM BR OVC004 M01/M01 A2986 RMK AO2  T10121012,,,400.0,,,29.84,22.3,N,29.21,29.49,,Mist
KIGQ,01/12/2017 07:55 UTC,29.88,29.84,29.84,100.0,11.5,360.0,18.41,31.0,,,,44.0,,,,4.0,,KIGQ 120755Z AUTO 36010G16KT 4SM BR OVC004 M01/M01 A2988 RMK AO2  T10121012,,,400.0,,,29.84,22.79,N,29.23,29.51,,Mist
KIGQ,01/12/2017 08:15 UTC,29.89,29.84,29.84,100.0,13.8,350.0,,31.0,,,,44.0,,,,4.0,,KIGQ 120815Z AUTO 35012KT 4SM BR OVC004 M01/M01 A2989 RMK AO2  T10121012,,,400.0,,,29.84,21.86,N,29.24,29.52,,Mist
KIGQ,01/12/2017 08:35 UTC,29.9,30.02,30.02,100.0,12.66,350.0,20.71,31.0,,,,44.0,,,,4.0,,KIGQ 120835Z AUTO 35011G18KT 4SM BR OVC004 M01/M01 A2990 RMK AO2  T10111011,,,400.0,,,30.02,22.52,N,29.25,29.53,,Mist
KIGQ,01/12/2017 08:55 UTC,29.91,29.66,29.66,100.0,10.36,360.0,17.27,31.0,,,,44.0,,,,4.0,,KIGQ 120855Z AUTO 36009G15KT 4SM BR OVC004 M01/M01 A2991 RMK AO2  T10131013,,,400.0,,,29.66,23.1,N,29.26,29.54,,Mist
KIGQ,01/12/2017 09:15 UTC,29.91,29.84,29.84,100.0,9.22,360.0,17.27,31.0,,,,44.0,,,,3.0,,KIGQ 120915Z AUTO 36008G15KT 3SM BR OVC004 M01/M01 A2991 RMK AO2  T10121012,,,400.0,,,29.84,23.89,N,29.26,29.54,,Mist
KIGQ,01/12/2017 09:35 UTC,29.91,29.66,29.66,100.0,10.36,10.0,16.11,31.0,,,,44.0,,,,4.0,,KIGQ 120935Z AUTO 01009G14KT 4SM BR OVC004 M01/M01 A2991 RMK AO2  T10131013,,,400.0,,,29.66,23.1,N,29.26,29.54,,Mist
KIGQ,01/12/2017 09:55 UTC,29.89,29.3,29.3,100.0,8.05,10.0,,31.0,,,,44.0,,,,4.0,,KIGQ 120955Z AUTO 01007KT 4SM BR OVC004 M01/M01 A2989 RMK AO2  T10151015,,,400.0,,,29.3,23.9,N,29.24,29.53,,Mist
KIGQ,01/12/2017 10:15 UTC,29.88,28.94,28.94,100.0,10.36,360.0,17.27,31.0,,,,44.0,,,,4.0,,KIGQ 121015Z AUTO 36009G15KT 4SM BR OVC004 M02/M02 A2988 RMK AO2  T10171017,,,400.0,,,28.94,22.24,N,29.23,29.53,,Mist
KIGQ,01/12/2017 10:35 UTC,29.88,28.22,28.22,100.0,14.97,360.0,19.57,31.0,,,,44.0,,,,4.0,,KIGQ 121035Z AUTO 36013G17KT 4SM BR OVC004 M02/M02 A2988 RMK AO2  T10211021,,,400.0,,,28.22,19.44,N,29.23,29.54,,Mist
KIGQ,01/12/2017 10:55 UTC,29.88,28.04,28.04,100.0,9.22,360.0,19.57,31.0,,,,44.0,,,,5.0,,KIGQ 121055Z AUTO 36008G17KT 5SM BR OVC004 M02/M02 A2988 RMK AO2  LTG DSNT SW T10221022,,,400.0,,,28.04,21.75,N,29.23,29.54,,Mist
KIGQ,01/12/2017 11:15 UTC,29.88,28.22,28.22,100.0,12.66,360.0,17.27,31.0,,,,44.0,,,,4.0,,KIGQ 121115Z AUTO 36011G15KT 4SM BR OVC004 M02/M02 A2988 RMK AO2  LTG DSNT SW T10211021,,,400.0,,,28.22,20.33,N,29.23,29.54,,Mist
KIGQ,01/12/2017 11:35 UTC,29.88,29.12,29.12,100.0,12.66,10.0,19.57,,,0.02,,44.0,,,,3.0,,KIGQ 121135Z AUTO 01011G17KT 3SM -VCTSSN OVC004 M02/M02 A2988 RMK AO2 LTG DSNT SE AND S P0002 T10161016,,,400.0,,,29.12,21.43,N,29.23,29.52,,Overcast
KIGQ,01/12/2017 11:55 UTC,29.88,29.12,29.12,100.0,8.05,10.0,17.27,41.0,,0.05,,44.0,,0.05,0.33,10.0,,KIGQ 121155Z AUTO 01007G15KT 340V040 10SM UP OVC004 M02/M02  A2988 RMK AO2 LTG DSNT E P0005 60005 70033 T10161016 11001  21022,31.82,28.04,400.0,,,29.12,23.69,N,29.23,29.52,,Unknown Precip
KIGQ,01/12/2017 12:15 UTC,29.91,29.66,29.66,100.0,9.22,360.0,,20.0,,0.05,,44.0,,,,3.0,,KIGQ 121215Z AUTO 36008KT 3SM -SN OVC004 M01/M01 A2991 RMK AO2 LTG  DSNT SE P0005 T10131013,,,400.0,,,29.66,23.67,N,29.26,29.54,,Light Snow
KIGQ,01/12/2017 12:35 UTC,29.89,30.2,30.2,100.0,6.91,10.0,,20.0,,0.1,,64.0,,,,4.0,,KIGQ 121235Z AUTO 01006KT 4SM -SN OVC006 M01/M01 A2989 RMK AO2 LTG  DSNT E P0010 T10101010,,,600.0,,,30.2,,N,29.24,29.51,,Light Snow
KIGQ,01/12/2017 12:55 UTC,29.93,30.2,30.2,100.0,6.91,340.0,,,,0.12,,64.0,,,,5.0,,KIGQ 121255Z AUTO 34006KT 5SM -VCTSSN OVC006 M01/M01 A2993 RMK AO2  P0012 T10101010,,,600.0,,,30.2,,NNW,29.28,29.55,,Overcast
KIGQ,01/12/2017 13:15 UTC,29.93,30.74,30.74,100.0,4.61,360.0,,20.0,,0.07,,64.0,,,,2.5,,KIGQ 121315Z AUTO 36004KT 2 1/2SM -SN OVC006 M01/M01 A2993 RMK AO2  P0007 T10071007,,,600.0,,,30.74,,N,29.28,29.54,,Light Snow
KIGQ,01/12/2017 13:35 UTC,29.92,30.2,30.2,100.0,6.91,20.0,,20.0,,0.12,,64.0,,,,3.0,,KIGQ 121335Z AUTO 02006KT 3SM -SN OVC006 M01/M01 A2992 RMK AO2  P0012 T10101010,,,600.0,,,30.2,,NNE,29.27,29.54,,Light Snow
KIGQ,01/12/2017 13:55 UTC,29.94,30.2,30.2,100.0,5.75,350.0,,20.0,,0.13,,64.0,,,,2.5,,KIGQ 121355Z AUTO 35005KT 2 1/2SM -SN OVC006 M01/M01 A2994 RMK AO2  P0013 T10101010,,,600.0,,,30.2,,N,29.29,29.56,,Light Snow
KIGQ,01/12/2017 14:15 UTC,29.97,29.84,29.84,100.0,6.91,340.0,,41.0,,,,64.0,,,,5.0,,KIGQ 121415Z AUTO 34006KT 5SM UP OVC006 M01/M01 A2997 RMK AO2  T10121012,,,600.0,,,29.84,,NNW,29.32,29.6,,Unknown Precip
KIGQ,01/12/2017 14:35 UTC,29.98,30.02,30.02,100.0,5.75,330.0,,20.0,,,,64.0,,,,4.0,,KIGQ 121435Z AUTO 33005KT 4SM -SN OVC006 M01/M01 A2998 RMK AO2  T10111011,,,600.0,,,30.02,,NNW,29.33,29.61,,Light Snow
KIGQ,01/12/2017 14:55 UTC,30.01,28.04,28.04,100.0,4.61,320.0,,20.0,,,0.26,64.0,,,,2.0,,KIGQ 121455Z AUTO 32004KT 2SM -SN OVC006 M02/M02 A3001 RMK AO2  60026 T10221022,,,600.0,,,28.04,,NW,29.36,29.68,,Light Snow
KIGQ,01/12/2017 15:15 UTC,30.01,26.6,26.6,100.0,3.44,320.0,,20.0,,,,64.0,,,,2.0,,KIGQ 121515Z AUTO 32003KT 2SM -SN OVC006 M03/M03 A3001 RMK AO2  T10301030,,,600.0,,,26.6,,NW,29.36,29.7,,Light Snow
KIGQ,01/12/2017 15:35 UTC,30.04,26.6,26.42,100.0,4.61,320.0,,31.0,,,,84.0,,,,4.0,,KIGQ 121535Z AUTO 32004KT 4SM BR OVC008 M03/M03 A3004 RMK AO2  T10301031,,,800.0,,,26.6,,NW,29.39,29.73,,Mist
KIGQ,01/12/2017 15:55 UTC,30.05,26.6,26.24,100.0,3.44,310.0,,31.0,,,,83.0,244.0,,,4.0,,KIGQ 121555Z AUTO 31003KT 4SM BR BKN008 OVC024 M03/M03 A3005 RMK AO2 T10301032,,,800.0,,,26.6,,NW,29.4,29.74,,Mist
KIGQ,01/12/2017 16:15 UTC,30.06,26.42,26.06,100.0,4.61,330.0,,31.0,,,,84.0,,,,4.0,,KIGQ 121615Z AUTO 33004KT 4SM BR OVC008 M03/M03 A3006 RMK AO2  T10311033,,,800.0,,,26.42,,NNW,29.41,29.76,,Mist
KIGQ,01/12/2017 16:35 UTC,30.09,26.06,25.7,100.0,5.75,310.0,,31.0,,,,84.0,,,,4.0,,KIGQ 121635Z AUTO 31005KT 4SM BR OVC008 M03/M03 A3009 RMK AO2  T10331035,,,800.0,,,26.06,,NW,29.44,29.79,,Mist
KIGQ,01/12/2017 16:55 UTC,30.11,26.24,25.7,100.0,0.0,0.0,,31.0,,,,84.0,,,,4.0,,KIGQ 121655Z AUTO 00000KT 4SM BR OVC008 M03/M03 A3011 RMK AO2  T10321035,,,800.0,,,26.24,,N,29.46,29.81,,Mist
KIGQ,01/12/2017 17:15 UTC,30.11,26.06,25.7,100.0,3.44,320.0,,31.0,,,,84.0,,,,4.0,,KIGQ 121715Z AUTO 32003KT 4SM BR OVC008 M03/M03 A3011 RMK AO2  T10331035,,,800.0,,,26.06,,NW,29.46,29.81,,Mist
KIGQ,01/12/2017 17:35 UTC,30.11,26.24,25.7,100.0,3.44,320.0,,31.0,,,,84.0,,,,4.0,,KIGQ 121735Z AUTO 32003KT 4SM BR OVC008 M03/M03 A3011 RMK AO2  T10321035,,,800.0,,,26.24,,NW,29.46,29.81,,Mist
KIGQ,01/12/2017 17:55 UTC,30.11,26.42,25.88,100.0,0.0,0.0,,31.0,,,,84.0,,0.26,,4.0,,KIGQ 121755Z AUTO 00000KT 4SM BR OVC008 M03/M03 A3011 RMK AO2  60026 T10311034 11006 21035,30.92,25.7,800.0,,,26.42,,N,29.46,29.81,,Mist
KIGQ,01/12/2017 18:15 UTC,30.12,26.96,26.42,100.0,0.0,0.0,,31.0,,,,84.0,,,,4.0,,KIGQ 121815Z AUTO 00000KT 4SM BR OVC008 M03/M03 A3012 RMK AO2  T10281031,,,800.0,,,26.96,,N,29.47,29.81,,Mist
KIGQ,01/12/2017 18:35 UTC,30.13,26.6,26.06,100.0,4.61,310.0,,31.0,,,,84.0,,,,4.0,,KIGQ 121835Z AUTO 31004KT 4SM BR OVC008 M03/M03 A3013 RMK AO2  T10301033,,,800.0,,,26.6,,NW,29.47,29.82,,Mist
KIGQ,01/12/2017 18:55 UTC,30.14,26.6,25.7,100.0,3.44,300.0,,31.0,,,,84.0,,,,4.0,,KIGQ 121855Z AUTO 30003KT 4SM BR OVC008 M03/M03 A3014 RMK AO2  T10301035,,,800.0,,,26.6,,WNW,29.48,29.83,,Mist
KIGQ,01/12/2017 19:15 UTC,30.14,26.96,26.24,100.0,0.0,0.0,,31.0,,,,84.0,,,,5.0,,KIGQ 121915Z AUTO 00000KT 5SM BR OVC008 M03/M03 A3014 RMK AO2  T10281032,,,800.0,,,26.96,,N,29.48,29.82,,Mist
KIGQ,01/12/2017 19:35 UTC,30.15,26.96,26.24,100.0,0.0,0.0,,31.0,,,,84.0,,,,5.0,,KIGQ 121935Z AUTO 00000KT 5SM BR OVC008 M03/M03 A3015 RMK AO2  T10281032,,,800.0,,,26.96,,N,29.49,29.83,,Mist
KIGQ,01/12/2017 19:55 UTC,30.17,27.5,26.78,92.85,3.44,300.0,,31.0,,,,84.0,,,,5.0,,KIGQ 121955Z AUTO 30003KT 5SM BR OVC008 M02/M03 A3017 RMK AO2  T10251029,,,800.0,,,25.68,,WNW,29.51,29.86,,Mist
KIGQ,01/12/2017 20:15 UTC,30.2,27.32,26.6,100.0,3.44,300.0,,31.0,,,,104.0,,,,5.0,,KIGQ 122015Z AUTO 30003KT 5SM BR OVC010 M03/M03 A3020 RMK AO2  T10261030,,,1000.0,,,27.32,,WNW,29.54,29.87,,Mist
KIGQ,01/12/2017 20:35 UTC,30.21,26.96,26.06,100.0,5.75,280.0,,31.0,,,,104.0,,,,5.0,,KIGQ 122035Z AUTO 28005KT 5SM BR OVC010 M03/M03 A3021 RMK AO2  T10281033,,,1000.0,,,26.96,,W,29.55,29.89,,Mist
KIGQ,01/12/2017 20:55 UTC,30.22,26.6,25.7,100.0,4.61,290.0,,31.0,,,,104.0,,,,5.0,,KIGQ 122055Z AUTO 29004KT 5SM BR OVC010 M03/M03 A3022 RMK AO2  T10301035,,,1000.0,,,26.6,,WNW,29.56,29.91,,Mist
KIGQ,01/12/2017 21:15 UTC,30.24,26.06,24.8,92.79,4.61,310.0,,31.0,,,,104.0,,,,5.0,,KIGQ 122115Z AUTO 31004KT 5SM BR OVC010 M03/M04 A3024 RMK AO2  T10331040,,,1000.0,,,24.23,,NW,29.58,29.96,,Mist
KIGQ,01/12/2017 21:35 UTC,30.25,26.42,25.34,92.79,3.44,300.0,,31.0,,,,104.0,,,,5.0,,KIGQ 122135Z AUTO 30003KT 5SM BR OVC010 M03/M04 A3025 RMK AO2  T10311037,,,1000.0,,,24.59,,WNW,29.59,29.96,,Mist
KIGQ,01/12/2017 21:55 UTC,30.26,26.24,25.16,92.79,3.44,290.0,,31.0,,,,104.0,,,,5.0,,KIGQ 122155Z AUTO 29003KT 5SM BR OVC010 M03/M04 A3026 RMK AO2  T10321038,,,1000.0,,,24.41,,WNW,29.6,29.97,,Mist
KIGQ,01/12/2017 22:15 UTC,30.29,26.24,24.98,92.79,4.61,290.0,,,464.0,,,123.0,173.0,,,7.0,,KIGQ 122215Z AUTO 29004KT 7SM BKN012 BKN017 OVC046 M03/M04  A3029 RMK AO2 T10321039,,,1200.0,,,24.41,,WNW,29.63,30.0,,Overcast
KIGQ,01/12/2017 22:35 UTC,30.3,25.7,24.26,92.79,4.61,280.0,,,,,,122.0,462.0,,,7.0,,KIGQ 122235Z AUTO 28004KT 7SM SCT012 SCT046 M03/M04 A3030 RMK AO2  T10351043,,,,,,23.88,,W,29.64,30.02,,Partly Cloudy
KIGQ,01/12/2017 22:55 UTC,30.32,25.34,23.9,100.0,3.44,280.0,,,,,,162.0,,,,7.0,,KIGQ 122255Z AUTO 28003KT 7SM SCT016 M04/M04 A3032 RMK AO2  T10371045,,,,,,25.34,,W,29.66,30.03,,Partly Cloudy
KIGQ,01/12/2017 23:15 UTC,30.33,25.52,24.08,100.0,4.61,280.0,,,,,,164.0,,,,7.0,,KIGQ 122315Z AUTO 28004KT 7SM OVC016 M04/M04 A3033 RMK AO2  T10361044,,,1600.0,,,25.52,,W,29.67,30.04,,Overcast
KIGQ,01/12/2017 23:35 UTC,30.34,25.16,23.18,92.73,3.44,300.0,,,,,,163.0,,,,10.0,,KIGQ 122335Z AUTO 30003KT 10SM BKN016 M04/M05 A3034 RMK AO2  T10381049,,,1600.0,,,23.32,,WNW,29.68,30.07,,Mostly Cloudy
KIGQ,01/12/2017 23:55 UTC,30.36,24.62,22.82,92.73,3.44,300.0,,,,,,162.0,,,,10.0,,KIGQ 122355Z AUTO 30003KT 10SM SCT016 M04/M05 A3036 RMK AO2  T10411051 11025 21041,27.5,24.62,,,,22.79,,WNW,29.7,30.1,,Partly Cloudy
KIGQ,01/13/2017 00:15 UTC,30.38,24.44,23.0,92.73,4.61,280.0,,,,,,1.0,,,,7.0,,KIGQ 130015Z AUTO 28004KT 7SM CLR M04/M05 A3038 RMK AO2  T10421050,,,,,,22.61,,W,29.72,30.13,,Clear
KIGQ,01/13/2017 00:35 UTC,30.39,24.44,22.64,92.73,3.44,290.0,,,,,,1.0,,,,10.0,,KIGQ 130035Z AUTO 29003KT 10SM CLR M04/M05 A3039 RMK AO2  T10421052,,,,,,22.61,,WNW,29.73,30.14,,Clear
KIGQ,01/13/2017 00:55 UTC,30.4,24.08,22.1,92.73,3.44,270.0,,,,,,1.0,,,,10.0,,KIGQ 130055Z AUTO 27003KT 10SM CLR M04/M05 A3040 RMK AO2  T10441055,,,,,,22.25,,W,29.74,30.15,,Clear
KIGQ,01/13/2017 01:15 UTC,30.41,24.26,21.92,85.93,4.61,280.0,,,,,,1.0,,,,10.0,,KIGQ 130115Z AUTO 28004KT 10SM CLR M04/M06 A3041 RMK AO2  T10431056,,,,,,20.61,,W,29.75,30.18,,Clear
KIGQ,01/13/2017 01:55 UTC,30.44,24.26,21.56,85.93,5.75,280.0,,,,,,1.0,,,,10.0,,KIGQ 130155Z AUTO 28005KT 10SM CLR M04/M06 A3044 RMK AO2  T10431058,,,,,,20.61,,W,29.78,30.21,,Clear
KIGQ,01/13/2017 02:15 UTC,30.46,23.9,21.2,85.93,4.61,290.0,,,,,,1.0,,,,10.0,,KIGQ 130215Z AUTO 29004KT 10SM CLR M04/M06 A3046 RMK AO2  T10451060,,,,,,20.25,,WNW,29.8,30.23,,Clear
KIGQ,01/13/2017 02:35 UTC,30.45,23.72,19.76,85.82,5.75,280.0,,,,,,1.0,,,,10.0,,KIGQ 130235Z AUTO 28005KT 10SM CLR M05/M07 A3045 RMK AO2  T10461068,,,,,,20.04,,W,29.79,30.22,,Clear
KIGQ,01/13/2017 02:55 UTC,30.46,23.54,19.58,85.82,5.75,280.0,,,,,,1.0,,,,10.0,,KIGQ 130255Z AUTO 28005KT 10SM CLR M05/M07 A3046 RMK AO2  T10471069,,,,,,19.87,,W,29.8,30.24,,Clear
KIGQ,01/13/2017 03:15 UTC,30.46,23.0,17.96,79.42,4.61,300.0,,,,,,1.0,,,,10.0,,KIGQ 130315Z AUTO 30004KT 10SM CLR M05/M08 A3046 RMK AO2  T10501078,,,,,,17.51,,WNW,29.8,30.26,,Clear
KIGQ,01/13/2017 03:35 UTC,30.46,22.64,17.6,79.42,3.44,290.0,,,,,,1.0,,,,10.0,,KIGQ 130335Z AUTO 29003KT 10SM CLR M05/M08 A3046 RMK AO2  T10521080,,,,,,17.16,,WNW,29.8,30.26,,Clear
KIGQ,01/13/2017 03:55 UTC,30.48,22.64,17.78,81.27,3.44,290.0,,,,,,1.0,,,,10.0,,KIGQ 130355Z AUTO 29003KT 10SM CLR M05/M08 A3048 RMK AO2  T10521079,,,,,,17.7,,WNW,29.82,30.28,,Clear
KIGQ,01/13/2017 04:35 UTC,30.49,22.46,16.16,76.33,4.61,300.0,,,,,,1.0,,,,10.0,,KIGQ 130435Z AUTO 30004KT 10SM CLR M05/M09 A3049 RMK AO2  T10531088,,,,,,16.05,,WNW,29.83,30.3,,Clear
KIGQ,01/13/2017 04:55 UTC,30.49,22.1,15.98,76.9,3.44,300.0,,,,,,1.0,,,,10.0,,KIGQ 130455Z AUTO 30003KT 10SM CLR M05/M09 A3049 RMK AO2  T10551089,,,,,,15.88,,WNW,29.83,30.31,,Clear
KIGQ,01/13/2017 05:15 UTC,30.49,21.92,15.8,79.26,3.44,320.0,,,,,,1.0,,,,10.0,,KIGQ 130515Z AUTO 32003KT 10SM CLR M06/M09 A3049 RMK AO2  T10561090,,,,,,16.41,,NW,29.83,30.3,,Clear
KIGQ,01/13/2017 05:35 UTC,30.5,21.56,14.9,79.26,3.44,310.0,,,,,,1.0,,,,10.0,,KIGQ 130535Z AUTO 31003KT 10SM CLR M06/M09 A3050 RMK AO2  T10581095,,,,,,16.06,,NW,29.84,30.32,,Clear
KIGQ,01/13/2017 05:55 UTC,30.5,21.02,15.08,79.26,4.61,320.0,,,,,,1.0,,,,10.0,,KIGQ 130555Z AUTO 32004KT 10SM CLR M06/M09 A3050 RMK AO2 T10611094  11040 21061 410011061,24.8,21.02,,31.82,21.02,15.53,,NW,29.84,30.32,,Clear
KIGQ,01/13/2017 06:15 UTC,30.51,21.2,14.9,79.26,4.61,330.0,,,,,,1.0,,,,10.0,,KIGQ 130615Z AUTO 33004KT 10SM CLR M06/M09 A3051 RMK AO2  T10601095,,,,,,15.71,,NNW,29.85,30.33,,Clear
KIGQ,01/13/2017 06:35 UTC,30.52,21.2,14.54,73.25,3.44,330.0,,,,,,1.0,,,,10.0,,KIGQ 130635Z AUTO 33003KT 10SM CLR M06/M10 A3052 RMK AO2  T10601097,,,,,,13.88,,NNW,29.86,30.35,,Clear
KIGQ,01/13/2017 06:55 UTC,30.53,20.84,14.36,73.25,3.44,330.0,,,,,,1.0,,,,10.0,,KIGQ 130655Z AUTO 33003KT 10SM CLR M06/M10 A3053 RMK AO2  T10621098,,,,,,13.53,,NNW,29.87,30.37,,Clear
KIGQ,01/13/2017 07:15 UTC,30.54,20.66,13.46,73.25,4.61,340.0,,,,,,1.0,,,,10.0,,KIGQ 130715Z AUTO 34004KT 10SM CLR M06/M10 A3054 RMK AO2  T10631103,,,,,,13.36,,NNW,29.88,30.38,,Clear
KIGQ,01/13/2017 07:35 UTC,30.55,20.12,14.72,79.1,0.0,0.0,,,,,,1.0,,,,10.0,,KIGQ 130735Z AUTO 00000KT 10SM CLR M07/M10 A3055 RMK AO2  T10661096,,,,,,14.61,,N,29.89,30.39,,Clear
KIGQ,01/13/2017 07:55 UTC,30.57,19.94,13.82,79.1,4.61,330.0,,,,,,1.0,,,,10.0,,KIGQ 130755Z AUTO 33004KT 10SM CLR M07/M10 A3057 RMK AO2  T10671101,,,,,,14.43,,NNW,29.91,30.41,,Clear
KIGQ,01/13/2017 08:15 UTC,30.59,19.76,14.0,79.1,0.0,0.0,,,,,,1.0,,,,10.0,,KIGQ 130815Z AUTO 00000KT 10SM CLR M07/M10 A3059 RMK AO2  T10681100,,,,,,14.26,,N,29.92,30.42,,Clear
KIGQ,01/13/2017 08:35 UTC,30.59,19.4,13.82,79.1,3.44,340.0,,,,,,1.0,,,,10.0,,KIGQ 130835Z AUTO 34003KT 10SM CLR M07/M10 A3059 RMK AO2  T10701101,,,,,,13.9,,NNW,29.92,30.42,,Clear
KIGQ,01/13/2017 08:55 UTC,30.6,19.22,14.0,79.1,3.44,350.0,,,,,,1.0,,,,10.0,,KIGQ 130855Z AUTO 35003KT 10SM CLR M07/M10 A3060 RMK AO2  T10711100,,,,,,13.73,,N,29.93,30.44,,Clear
KIGQ,01/13/2017 09:15 UTC,30.61,19.04,13.82,79.1,0.0,0.0,,,,,,1.0,,,,10.0,,KIGQ 130915Z AUTO 00000KT 10SM CLR M07/M10 A3061 RMK AO2  T10721101,,,,,,13.55,,N,29.94,30.45,,Clear
KIGQ,01/13/2017 09:35 UTC,30.62,19.04,14.0,79.1,3.44,340.0,,,,,,1.0,,,,10.0,,KIGQ 130935Z AUTO 34003KT 10SM CLR M07/M10 A3062 RMK AO2  T10721100,,,,,,13.55,,NNW,29.95,30.46,,Clear
KIGQ,01/13/2017 09:55 UTC,30.62,19.04,14.18,79.1,3.44,340.0,,,,,,1.0,,,,10.0,,KIGQ 130955Z AUTO 34003KT 10SM CLR M07/M10 A3062 RMK AO2  T10721099,,,,,,13.55,,NNW,29.95,30.46,,Clear
KIGQ,01/13/2017 10:15 UTC,30.64,19.04,14.54,79.1,3.44,340.0,,,,,,1.0,,,,10.0,,KIGQ 131015Z AUTO 34003KT 10SM CLR M07/M10 A3064 RMK AO2  T10721097,,,,,,13.55,,NNW,29.97,30.48,,Clear
KIGQ,01/13/2017 10:35 UTC,30.65,19.04,14.9,85.59,0.0,0.0,,,,,,1.0,,,,10.0,,KIGQ 131035Z AUTO 00000KT 10SM CLR M07/M09 A3065 RMK AO2  T10721095,,,,,,15.38,,N,29.98,30.48,,Clear
KIGQ,01/13/2017 10:55 UTC,30.65,19.22,14.9,85.59,0.0,0.0,,,,,,1.0,,,,10.0,,KIGQ 131055Z AUTO 00000KT 10SM CLR M07/M09 A3065 RMK AO2  T10711095,,,,,,15.56,,N,29.98,30.48,,Clear
KIGQ,01/13/2017 11:15 UTC,30.66,19.4,15.26,85.59,3.44,360.0,,,,,,1.0,,,,10.0,,KIGQ 131115Z AUTO 36003KT 10SM CLR M07/M09 A3066 RMK AO2  T10701093,,,,,,15.74,,N,29.99,30.48,,Clear
KIGQ,01/13/2017 11:35 UTC,30.66,19.4,15.26,85.59,3.44,350.0,,,,,,1.0,,,,10.0,,KIGQ 131135Z AUTO 35003KT 10SM CLR M07/M09 A3066 RMK AO2  T10701093,,,,,,15.74,,N,29.99,30.48,,Clear
KIGQ,01/13/2017 11:55 UTC,30.67,19.4,15.44,85.59,0.0,0.0,,,,,,1.0,,,0.26,10.0,,KIGQ 131155Z AUTO 00000KT 10SM CLR M07/M09 A3067 RMK AO2 70026  T10701092 11060 21073,21.2,18.86,,,,15.74,,N,30.0,30.49,,Clear
KIGQ,01/13/2017 12:15 UTC,30.69,19.94,16.16,85.59,3.44,340.0,,,,,,1.0,,,,10.0,,KIGQ 131215Z AUTO 34003KT 10SM CLR M07/M09 A3069 RMK AO2  T10671088,,,,,,16.27,,NNW,30.02,30.51,,Clear
KIGQ,01/13/2017 12:35 UTC,30.7,20.12,16.7,92.55,3.44,330.0,,,,,,232.0,,,,10.0,,KIGQ 131235Z AUTO 33003KT 10SM SCT023 M07/M08 A3070 RMK AO2  T10661085,,,,,,18.28,,NNW,30.03,30.5,,Partly Cloudy
KIGQ,01/13/2017 12:55 UTC,30.71,20.3,17.42,85.71,3.44,320.0,,,,,,233.0,1203.0,,,10.0,,KIGQ 131255Z AUTO 32003KT 10SM BKN023 BKN120 M06/M08 A3071 RMK AO2  T10651081,,,2300.0,,,16.65,,NW,30.04,30.52,,Mostly Cloudy
KIGQ,01/13/2017 13:15 UTC,30.71,20.48,17.42,85.71,3.44,340.0,,,,,,234.0,,,,10.0,,KIGQ 131315Z AUTO 34003KT 10SM OVC023 M06/M08 A3071 RMK AO2  T10641081,,,2300.0,,,16.83,,NNW,30.04,30.52,,Overcast
KIGQ,01/13/2017 13:35 UTC,30.71,20.3,17.42,85.71,4.61,350.0,,,,,,234.0,,,,10.0,,KIGQ 131335Z AUTO 35004KT 10SM OVC023 M06/M08 A3071 RMK AO2  T10651081,,,2300.0,,,16.65,,N,30.04,30.52,,Overcast
KIGQ,01/13/2017 13:55 UTC,30.71,20.66,17.6,85.71,0.0,0.0,,,,,,232.0,,,,10.0,,KIGQ 131355Z AUTO 00000KT 10SM SCT023 M06/M08 A3071 RMK AO2  T10631080,,,,,,17.01,,N,30.04,30.52,,Partly Cloudy
KIGQ,01/13/2017 14:15 UTC,30.72,21.2,18.86,92.61,3.44,330.0,,,,,,232.0,,,,10.0,,KIGQ 131415Z AUTO 33003KT 10SM SCT023 M06/M07 A3072 RMK AO2  T10601073,,,,,,19.37,,NNW,30.05,30.51,,Partly Cloudy
KIGQ,01/13/2017 14:35 UTC,30.72,23.0,21.02,92.67,5.75,20.0,,,,,,233.0,,,,10.0,,KIGQ 131435Z AUTO 02005KT 10SM BKN023 M05/M06 A3072 RMK AO2  T10501061,,,2300.0,,,21.17,,NNE,30.05,30.48,,Mostly Cloudy
KIGQ,01/13/2017 14:55 UTC,30.73,24.62,21.38,85.93,6.91,40.0,,,,,,234.0,,,,10.0,,KIGQ 131455Z AUTO 04006KT 10SM OVC023 M04/M06 A3073 RMK AO2  T10411059,,,2300.0,,,20.96,,NE,30.06,30.49,,Overcast
KIGQ,01/13/2017 15:15 UTC,30.74,25.16,21.2,85.93,8.05,30.0,,,,,,234.0,,,,10.0,,KIGQ 131515Z AUTO 03007KT 10SM OVC023 M04/M06 A3074 RMK AO2  T10381060,,,2300.0,,,21.49,19.04,NNE,30.07,30.49,,Overcast
KIGQ,01/13/2017 15:35 UTC,30.74,24.8,20.84,85.93,6.91,30.0,,,,,,254.0,,,,10.0,,KIGQ 131535Z AUTO 03006KT 10SM OVC025 M04/M06 A3074 RMK AO2  T10401062,,,2500.0,,,21.14,,NNE,30.07,30.49,,Overcast
KIGQ,01/13/2017 15:55 UTC,30.75,25.52,21.2,85.93,8.05,30.0,,,,,,253.0,,,,10.0,,KIGQ 131555Z AUTO 03007KT 10SM BKN025 M04/M06 A3075 RMK AO2  T10361060,,,2500.0,,,21.84,19.46,NNE,30.08,30.49,,Mostly Cloudy
KIGQ,01/13/2017 16:15 UTC,30.76,25.7,21.38,79.74,8.05,20.0,,,,,,252.0,,,,10.0,,KIGQ 131615Z AUTO 02007KT 10SM SCT025 M03/M06 A3076 RMK AO2  T10351059,,,,,,20.23,19.68,NNE,30.09,30.52,,Partly Cloudy
KIGQ,01/13/2017 16:35 UTC,30.76,26.24,21.92,79.74,6.91,40.0,,,,,,252.0,,,,10.0,,KIGQ 131635Z AUTO 04006KT 10SM SCT025 M03/M06 A3076 RMK AO2  T10321056,,,,,,20.76,,NE,30.09,30.51,,Partly Cloudy
KIGQ,01/13/2017 16:55 UTC,30.76,26.42,21.74,79.74,6.91,50.0,,,,,,252.0,,,,10.0,,KIGQ 131655Z AUTO 05006KT 10SM SCT025 M03/M06 A3076 RMK AO2  T10311057,,,,,,20.93,,NE,30.09,30.51,,Partly Cloudy
KIGQ,01/13/2017 17:15 UTC,30.75,26.96,22.46,86.04,9.22,30.0,,,,,,1.0,,,,10.0,,KIGQ 131715Z AUTO 03008KT 10SM CLR M03/M05 A3075 RMK AO2  T10281053,,,,,,23.29,20.47,NNE,30.08,30.47,,Clear
KIGQ,01/13/2017 17:35 UTC,30.75,26.96,22.46,86.04,9.22,30.0,,,,,,232.0,,,,10.0,,KIGQ 131735Z AUTO 03008KT 10SM SCT023 M03/M05 A3075 RMK AO2  T10281053,,,,,,23.29,20.47,NNE,30.08,30.47,,Partly Cloudy
KIGQ,01/13/2017 17:55 UTC,30.74,27.14,22.82,86.04,6.91,60.0,,,,,,233.0,,,,10.0,,KIGQ 131755Z AUTO 06006KT 10SM BKN023 M03/M05 A3074 RMK AO2  T10271051 11027 21070,27.14,19.4,2300.0,,,23.47,,ENE,30.07,30.46,,Mostly Cloudy
KIGQ,01/13/2017 18:15 UTC,30.73,26.6,22.82,86.04,6.91,40.0,,,,,,214.0,,,,10.0,,KIGQ 131815Z AUTO 04006KT 10SM OVC021 M03/M05 A3073 RMK AO2  T10301051,,,2100.0,,,22.94,,NE,30.06,30.46,,Overcast
KIGQ,01/13/2017 18:35 UTC,30.73,26.96,22.82,86.04,6.91,50.0,,,,,,213.0,854.0,,,10.0,,KIGQ 131835Z AUTO 05006KT 10SM BKN021 OVC085 M03/M05 A3073 RMK AO2  T10281051,,,2100.0,,,23.29,,NE,30.06,30.45,,Overcast
KIGQ,01/13/2017 18:55 UTC,30.73,27.14,23.18,86.04,6.91,50.0,,,,,,233.0,853.0,,,10.0,,KIGQ 131855Z AUTO 05006KT 10SM BKN023 BKN085 M03/M05 A3073 RMK AO2  T10271049,,,2300.0,,,23.47,,NE,30.06,30.45,,Mostly Cloudy
KIGQ,01/13/2017 19:15 UTC,30.72,26.96,23.18,86.04,5.75,40.0,,,,,,234.0,,,,10.0,,KIGQ 131915Z AUTO 04005KT 10SM OVC023 M03/M05 A3072 RMK AO2  T10281049,,,2300.0,,,23.29,,NE,30.05,30.44,,Overcast
KIGQ,01/13/2017 19:35 UTC,30.72,27.14,23.18,86.04,5.75,50.0,,,,,,213.0,,,,10.0,,KIGQ 131935Z AUTO 05005KT 10SM BKN021 M03/M05 A3072 RMK AO2  T10271049,,,2100.0,,,23.47,,NE,30.05,30.44,,Mostly Cloudy
KIGQ,01/13/2017 19:55 UTC,30.71,27.32,23.54,86.04,6.91,30.0,,,,,,214.0,,,,10.0,,KIGQ 131955Z AUTO 03006KT 10SM OVC021 M03/M05 A3071 RMK AO2  T10261047,,,2100.0,,,23.64,,NNE,30.04,30.43,,Overcast
KIGQ,01/13/2017 20:15 UTC,30.71,27.32,23.54,86.04,5.75,30.0,,,,,,214.0,,,,10.0,,KIGQ 132015Z AUTO 03005KT 10SM OVC021 M03/M05 A3071 RMK AO2  T10261047,,,2100.0,,,23.64,,NNE,30.04,30.43,,Overcast
KIGQ,01/13/2017 20:35 UTC,30.7,27.14,23.54,86.04,8.05,30.0,,,,,,213.0,,,,10.0,,KIGQ 132035Z AUTO 03007KT 10SM BKN021 M03/M05 A3070 RMK AO2  T10271047,,,2100.0,,,23.47,21.37,NNE,30.03,30.42,,Mostly Cloudy
KIGQ,01/13/2017 20:55 UTC,30.71,27.32,23.72,86.04,9.22,30.0,,,,,,213.0,903.0,,,10.0,,KIGQ 132055Z AUTO 03008KT 10SM BKN021 BKN090 M03/M05 A3071 RMK AO2  T10261046,,,2100.0,,,23.64,20.9,NNE,30.04,30.43,,Mostly Cloudy
KIGQ,01/13/2017 21:15 UTC,30.71,27.32,23.72,86.04,11.5,30.0,,,,,,213.0,904.0,,,10.0,,KIGQ 132115Z AUTO 03010KT 10SM BKN021 OVC090 M03/M05 A3071 RMK AO2  T10261046,,,2100.0,,,23.64,19.75,NNE,30.04,30.43,,Overcast
KIGQ,01/13/2017 21:35 UTC,30.71,27.32,23.72,86.04,8.05,40.0,,,,,,213.0,904.0,,,10.0,,KIGQ 132135Z AUTO 04007KT 10SM BKN021 OVC090 M03/M05 A3071 RMK AO2  T10261046,,,2100.0,,,23.64,21.58,NE,30.04,30.43,,Overcast
KIGQ,01/13/2017 21:55 UTC,30.7,27.5,24.26,86.15,8.05,40.0,,,,,,194.0,,,,10.0,,KIGQ 132155Z AUTO 04007KT 10SM OVC019 M02/M04 A3070 RMK AO2  T10251043,,,1900.0,,,23.85,21.79,NE,30.03,30.41,,Overcast
KIGQ,01/13/2017 22:15 UTC,30.69,27.32,24.08,92.79,8.05,50.0,,,,,,194.0,,,,10.0,,KIGQ 132215Z AUTO 05007KT 10SM OVC019 M03/M04 A3069 RMK AO2  T10261044,,,1900.0,,,25.48,21.58,NE,30.02,30.39,,Overcast
KIGQ,01/13/2017 22:35 UTC,30.7,27.32,24.26,92.79,6.91,60.0,,,,,,194.0,,,,10.0,,KIGQ 132235Z AUTO 06006KT 10SM OVC019 M03/M04 A3070 RMK AO2  T10261043,,,1900.0,,,25.48,,ENE,30.03,30.4,,Overcast
KIGQ,01/13/2017 22:55 UTC,30.69,26.96,23.9,92.79,6.91,70.0,,,,,,194.0,,,,10.0,,KIGQ 132255Z AUTO 07006KT 10SM OVC019 M03/M04 A3069 RMK AO2  T10281045,,,1900.0,,,25.13,,ENE,30.02,30.39,,Overcast
KIGQ,01/13/2017 23:15 UTC,30.68,26.6,23.54,86.04,8.05,70.0,,,,,,193.0,,,,10.0,,KIGQ 132315Z AUTO 07007KT 10SM BKN019 M03/M05 A3068 RMK AO2  T10301047,,,1900.0,,,22.94,20.73,ENE,30.01,30.41,,Mostly Cloudy
KIGQ,01/13/2017 23:35 UTC,30.68,26.6,23.36,86.04,8.05,70.0,,,,,,192.0,,,,10.0,,KIGQ 132335Z AUTO 07007KT 10SM SCT019 M03/M05 A3068 RMK AO2  T10301048,,,,,,22.94,20.73,ENE,30.01,30.41,,Partly Cloudy
KIGQ,01/13/2017 23:55 UTC,30.68,26.6,23.0,86.04,8.05,60.0,,,,,,192.0,1202.0,,,10.0,,KIGQ 132355Z AUTO 06007KT 10SM SCT019 SCT120 M03/M05 A3068 RMK AO2  T10301050 11025 21030,27.5,26.6,,,,22.94,20.73,ENE,30.01,30.41,,Partly Cloudy
KIGQ,01/14/2017 00:15 UTC,30.67,26.6,22.46,86.04,8.05,70.0,,,,,,1202.0,,,,10.0,,KIGQ 140015Z AUTO 07007KT 10SM SCT120 M03/M05 A3067 RMK AO2  T10301053,,,,,,22.94,20.73,ENE,30.0,30.4,,Partly Cloudy
KIGQ,01/14/2017 00:35 UTC,30.68,26.42,22.1,86.04,6.91,70.0,,,,,,1202.0,,,,10.0,,KIGQ 140035Z AUTO 07006KT 10SM SCT120 M03/M05 A3068 RMK AO2  T10311055,,,,,,22.76,,ENE,30.01,30.41,,Partly Cloudy
KIGQ,01/14/2017 00:55 UTC,30.69,26.24,22.1,86.04,5.75,70.0,,,,,,1.0,,,,10.0,,KIGQ 140055Z AUTO 07005KT 10SM CLR M03/M05 A3069 RMK AO2  T10321055,,,,,,22.58,,ENE,30.02,30.42,,Clear
KIGQ,01/14/2017 01:15 UTC,30.69,26.24,22.46,86.04,4.61,60.0,,,,,,1.0,,,,10.0,,KIGQ 140115Z AUTO 06004KT 10SM CLR M03/M05 A3069 RMK AO2  T10321053,,,,,,22.58,,ENE,30.02,30.42,,Clear
KIGQ,01/14/2017 01:35 UTC,30.69,26.06,22.28,86.04,4.61,70.0,,,,,,1.0,,,,10.0,,KIGQ 140135Z AUTO 07004KT 10SM CLR M03/M05 A3069 RMK AO2  T10331054,,,,,,22.41,,ENE,30.02,30.42,,Clear
KIGQ,01/14/2017 01:55 UTC,30.69,26.06,22.1,86.04,3.44,90.0,,,,,,1.0,,,,10.0,,KIGQ 140155Z AUTO 09003KT 10SM CLR M03/M05 A3069 RMK AO2  T10331055,,,,,,22.41,,E,30.02,30.42,,Clear
KIGQ,01/14/2017 02:15 UTC,30.68,25.7,22.28,86.04,3.44,70.0,,,,,,852.0,,,,10.0,,KIGQ 140215Z AUTO 07003KT 10SM SCT085 M03/M05 A3068 RMK AO2  T10351054,,,,,,22.05,,ENE,30.01,30.42,,Partly Cloudy
KIGQ,01/14/2017 02:35 UTC,30.67,25.7,21.74,79.74,4.61,70.0,,,,,,853.0,,,,10.0,,KIGQ 140235Z AUTO 07004KT 10SM BKN085 M03/M06 A3067 RMK AO2  T10351057,,,8500.0,,,20.23,,ENE,30.0,30.43,,Mostly Cloudy
KIGQ,01/14/2017 02:55 UTC,30.66,25.7,21.2,79.74,4.61,60.0,,,,,,853.0,,,,10.0,,KIGQ 140255Z AUTO 06004KT 10SM BKN085 M03/M06 A3066 RMK AO2  T10351060,,,8500.0,,,20.23,,ENE,29.99,30.42,,Mostly Cloudy
KIGQ,01/14/2017 03:15 UTC,30.66,25.52,21.2,85.93,4.61,70.0,,,,,,854.0,,,,10.0,,KIGQ 140315Z AUTO 07004KT 10SM OVC085 M04/M06 A3066 RMK AO2  T10361060,,,8500.0,,,21.84,,ENE,29.99,30.4,,Overcast
KIGQ,01/14/2017 03:35 UTC,30.66,25.34,21.2,85.93,3.44,70.0,,,,,,852.0,,,,10.0,,KIGQ 140335Z AUTO 07003KT 10SM SCT085 M04/M06 A3066 RMK AO2  T10371060,,,,,,21.67,,ENE,29.99,30.4,,Partly Cloudy
KIGQ,01/14/2017 03:55 UTC,30.66,25.16,21.02,85.93,3.44,50.0,,,,,,852.0,,,,10.0,,KIGQ 140355Z AUTO 05003KT 10SM SCT085 M04/M06 A3066 RMK AO2  T10381061,,,,,,21.49,,NE,29.99,30.41,,Partly Cloudy
KIGQ,01/14/2017 04:15 UTC,30.66,25.34,21.92,85.93,3.44,30.0,,,,,,754.0,,,,10.0,,KIGQ 140415Z AUTO 03003KT 10SM OVC075 M04/M06 A3066 RMK AO2  T10371056,,,7500.0,,,21.67,,NNE,29.99,30.4,,Overcast
KIGQ,01/14/2017 04:35 UTC,30.65,25.7,22.1,86.04,3.44,50.0,,,,,,754.0,,,,10.0,,KIGQ 140435Z AUTO 05003KT 10SM OVC075 M03/M05 A3065 RMK AO2  T10351055,,,7500.0,,,22.05,,NE,29.98,30.39,,Overcast
KIGQ,01/14/2017 04:55 UTC,30.64,25.7,21.56,79.74,4.61,50.0,,,,,,754.0,,,,10.0,,KIGQ 140455Z AUTO 05004KT 10SM OVC075 M03/M06 A3064 RMK AO2  T10351058,,,7500.0,,,20.23,,NE,29.97,30.4,,Overcast
KIGQ,01/14/2017 05:15 UTC,30.61,25.7,21.92,79.74,4.61,60.0,,,,,,754.0,,,,10.0,,KIGQ 140515Z AUTO 06004KT 10SM OVC075 M03/M06 A3061 RMK AO2  T10351056,,,7500.0,,,20.23,,ENE,29.94,30.37,,Overcast
KIGQ,01/14/2017 05:35 UTC,30.61,25.88,21.56,79.74,5.75,70.0,,,,,,754.0,,,,10.0,,KIGQ 140535Z AUTO 07005KT 10SM OVC075 M03/M06 A3061 RMK AO2  T10341058,,,7500.0,,,20.41,,ENE,29.94,30.36,,Overcast
KIGQ,01/14/2017 05:55 UTC,30.6,25.88,21.92,79.74,5.75,80.0,,,,,,754.0,,,,10.0,,KIGQ 140555Z AUTO 08005KT 10SM OVC075 M03/M06 A3060 RMK AO2  T10341056 11030 21038 410251073,26.6,25.16,7500.0,27.5,18.86,20.41,,E,29.93,30.35,,Overcast
KIGQ,01/14/2017 06:15 UTC,30.59,26.06,21.92,79.74,5.75,70.0,,,,,,754.0,,,,10.0,,KIGQ 140615Z AUTO 07005KT 10SM OVC075 M03/M06 A3059 RMK AO2  T10331056,,,7500.0,,,20.58,,ENE,29.92,30.34,,Overcast
KIGQ,01/14/2017 06:35 UTC,30.59,26.06,22.28,86.04,4.61,80.0,,,,,,754.0,,,,10.0,,KIGQ 140635Z AUTO 08004KT 10SM OVC075 M03/M05 A3059 RMK AO2  T10331054,,,7500.0,,,22.41,,E,29.92,30.32,,Overcast
KIGQ,01/14/2017 06:55 UTC,30.58,26.24,22.82,86.04,5.75,50.0,,,,,,754.0,,,,10.0,,KIGQ 140655Z AUTO 05005KT 10SM OVC075 M03/M05 A3058 RMK AO2  T10321051,,,7500.0,,,22.58,,NE,29.92,30.32,,Overcast
KIGQ,01/14/2017 07:15 UTC,30.57,26.24,22.64,86.04,3.44,40.0,,,,,,754.0,,,,10.0,,KIGQ 140715Z AUTO 04003KT 10SM OVC075 M03/M05 A3057 RMK AO2  T10321052,,,7500.0,,,22.58,,NE,29.91,30.31,,Overcast
KIGQ,01/14/2017 07:35 UTC,30.58,26.42,22.64,86.04,3.44,40.0,,,,,,754.0,,,,10.0,,KIGQ 140735Z AUTO 04003KT 10SM OVC075 M03/M05 A3058 RMK AO2  T10311052,,,7500.0,,,22.76,,NE,29.92,30.32,,Overcast
KIGQ,01/14/2017 07:55 UTC,30.57,26.6,22.82,86.04,5.75,50.0,,,,,,754.0,,,,10.0,,KIGQ 140755Z AUTO 05005KT 10SM OVC075 M03/M05 A3057 RMK AO2  T10301051,,,7500.0,,,22.94,,NE,29.91,30.3,,Overcast
KIGQ,01/14/2017 08:15 UTC,30.57,26.6,22.82,86.04,4.61,80.0,,,,,,754.0,,,,10.0,,KIGQ 140815Z AUTO 08004KT 10SM OVC075 M03/M05 A3057 RMK AO2  T10301051,,,7500.0,,,22.94,,E,29.91,30.3,,Overcast
KIGQ,01/14/2017 08:35 UTC,30.56,26.6,22.64,86.04,4.61,80.0,,,,,,603.0,754.0,,,10.0,,KIGQ 140835Z AUTO 08004KT 10SM BKN060 OVC075 M03/M05 A3056 RMK AO2  T10301052,,,6000.0,,,22.94,,E,29.9,30.29,,Overcast
KIGQ,01/14/2017 08:55 UTC,30.55,26.6,23.0,86.04,3.44,80.0,,,,,,504.0,,,,10.0,,KIGQ 140855Z AUTO 08003KT 10SM OVC050 M03/M05 A3055 RMK AO2  T10301050,,,5000.0,,,22.94,,E,29.89,30.28,,Overcast
KIGQ,01/14/2017 09:15 UTC,30.54,26.6,23.0,86.04,3.44,60.0,,,,,,504.0,,,,10.0,,KIGQ 140915Z AUTO 06003KT 10SM OVC050 M03/M05 A3054 RMK AO2  T10301050,,,5000.0,,,22.94,,ENE,29.88,30.27,,Overcast
KIGQ,01/14/2017 09:35 UTC,30.54,26.6,23.18,86.04,0.0,0.0,,,,,,504.0,,,,10.0,,KIGQ 140935Z AUTO 00000KT 10SM OVC050 M03/M05 A3054 RMK AO2  T10301049,,,5000.0,,,22.94,,N,29.88,30.27,,Overcast
KIGQ,01/14/2017 09:55 UTC,30.53,26.96,23.54,86.04,3.44,100.0,,,,,,504.0,,,,10.0,,KIGQ 140955Z AUTO 10003KT 10SM OVC050 M03/M05 A3053 RMK AO2  T10281047,,,5000.0,,,23.29,,E,29.87,30.26,,Overcast
KIGQ,01/14/2017 10:15 UTC,30.53,26.96,23.36,86.04,0.0,0.0,,,,,,504.0,,,,10.0,,KIGQ 141015Z AUTO 00000KT 10SM OVC050 M03/M05 A3053 RMK AO2  T10281048,,,5000.0,,,23.29,,N,29.87,30.26,,Overcast
KIGQ,01/14/2017 10:35 UTC,30.53,27.14,23.54,86.04,0.0,0.0,,,,,,504.0,,,,10.0,,KIGQ 141035Z AUTO 00000KT 10SM OVC050 M03/M05 A3053 RMK AO2  T10271047,,,5000.0,,,23.47,,N,29.87,30.25,,Overcast
KIGQ,01/14/2017 10:55 UTC,30.51,27.14,23.54,86.04,0.0,0.0,,,,,,503.0,604.0,,,10.0,,KIGQ 141055Z AUTO 00000KT 10SM BKN050 OVC060 M03/M05 A3051 RMK AO2  T10271047,,,5000.0,,,23.47,,N,29.85,30.23,,Overcast
KIGQ,01/14/2017 11:15 UTC,30.51,27.14,23.9,92.79,0.0,0.0,,,754.0,,,502.0,603.0,,,10.0,,KIGQ 141115Z AUTO 00000KT 10SM SCT050 BKN060 OVC075 M03/M04  A3051 RMK AO2 T10271045,,,6000.0,,,25.3,,N,29.85,30.21,,Overcast
KIGQ,01/14/2017 11:35 UTC,30.51,27.32,23.9,92.79,0.0,0.0,,,754.0,,,482.0,602.0,,,10.0,,KIGQ 141135Z AUTO 00000KT 10SM SCT048 SCT060 OVC075 M03/M04  A3051 RMK AO2 T10261045,,,7500.0,,,25.48,,N,29.85,30.21,,Overcast
KIGQ,01/14/2017 11:55 UTC,30.51,27.32,24.08,92.79,0.0,0.0,,,,,,482.0,754.0,,,10.0,,KIGQ 141155Z AUTO 00000KT 10SM SCT048 OVC075 M03/M04 A3051 RMK AO2  T10261044 11026 21034,27.32,25.88,7500.0,,,25.48,,N,29.85,30.21,,Overcast
KIGQ,01/14/2017 12:15 UTC,30.51,27.5,24.26,86.15,0.0,0.0,,,,,,754.0,,,,10.0,,KIGQ 141215Z AUTO 00000KT 10SM OVC075 M02/M04 A3051 RMK AO2  T10251043,,,7500.0,,,23.85,,N,29.85,30.23,,Overcast
KIGQ,01/14/2017 12:35 UTC,30.51,27.32,23.9,92.79,3.44,20.0,,,,,,462.0,754.0,,,10.0,,KIGQ 141235Z AUTO 02003KT 10SM SCT046 OVC075 M03/M04 A3051 RMK AO2  T10261045,,,7500.0,,,25.48,,NNE,29.85,30.21,,Overcast
KIGQ,01/14/2017 12:55 UTC,30.5,27.32,24.08,92.79,3.44,30.0,,,,,,464.0,,,,10.0,,KIGQ 141255Z AUTO 03003KT 10SM OVC046 M03/M04 A3050 RMK AO2  T10261044,,,4600.0,,,25.48,,NNE,29.84,30.2,,Overcast
KIGQ,01/14/2017 13:15 UTC,30.5,27.5,23.36,79.89,0.0,0.0,,,,,,484.0,,,,10.0,,KIGQ 141315Z AUTO 00000KT 10SM OVC048 M02/M05 A3050 RMK AO2  T10251048,,,4800.0,,,22.03,,N,29.84,30.24,,Overcast
KIGQ,01/14/2017 13:35 UTC,30.5,27.5,23.36,79.89,3.44,40.0,,,,,,373.0,464.0,,,10.0,,KIGQ 141335Z AUTO 04003KT 10SM BKN037 OVC046 M02/M05 A3050 RMK AO2  T10251048,,,3700.0,,,22.03,,NE,29.84,30.24,,Overcast
KIGQ,01/14/2017 13:55 UTC,30.51,27.5,23.0,79.89,0.0,0.0,,,,,,374.0,,,,10.0,,KIGQ 141355Z AUTO 00000KT 10SM OVC037 M02/M05 A3051 RMK AO2  T10251050,,,3700.0,,,22.03,,N,29.85,30.25,,Overcast
KIGQ,01/14/2017 14:15 UTC,30.5,27.86,22.82,79.89,0.0,0.0,,,,,,394.0,,,,10.0,,KIGQ 141415Z AUTO 00000KT 10SM OVC039 M02/M05 A3050 RMK AO2  T10231051,,,3900.0,,,22.38,,N,29.84,30.23,,Overcast
KIGQ,01/14/2017 14:35 UTC,30.5,27.86,23.18,79.89,0.0,0.0,,,,,,394.0,,,,10.0,,KIGQ 141435Z AUTO 00000KT 10SM OVC039 M02/M05 A3050 RMK AO2  T10231049,,,3900.0,,,22.38,,N,29.84,30.23,,Overcast
KIGQ,01/14/2017 14:55 UTC,30.49,28.22,23.72,79.89,0.0,0.0,,,,,,374.0,,,,10.0,,KIGQ 141455Z AUTO 00000KT 10SM OVC037 M02/M05 A3049 RMK AO2  T10211046,,,3700.0,,,22.73,,N,29.83,30.22,,Overcast
KIGQ,01/14/2017 15:15 UTC,30.5,28.4,23.18,79.89,0.0,0.0,,,,,,374.0,,,,10.0,,KIGQ 141515Z AUTO 00000KT 10SM OVC037 M02/M05 A3050 RMK AO2  T10201049,,,3700.0,,,22.91,,N,29.84,30.22,,Overcast
KIGQ,01/14/2017 15:35 UTC,30.51,28.4,23.54,79.89,0.0,0.0,,,,,,374.0,,,,10.0,,KIGQ 141535Z AUTO 00000KT 10SM OVC037 M02/M05 A3051 RMK AO2  T10201047,,,3700.0,,,22.91,,N,29.85,30.23,,Overcast
KIGQ,01/14/2017 15:55 UTC,30.5,28.58,23.9,86.15,0.0,0.0,,,,,,394.0,,,,10.0,,KIGQ 141555Z AUTO 00000KT 10SM OVC039 M02/M04 A3050 RMK AO2  T10191045,,,3900.0,,,24.91,,N,29.84,30.2,,Overcast
KIGQ,01/14/2017 16:15 UTC,30.5,28.94,24.62,86.15,0.0,0.0,,,,,,414.0,,,,10.0,,KIGQ 141615Z AUTO 00000KT 10SM OVC041 M02/M04 A3050 RMK AO2  T10171041,,,4100.0,,,25.27,,N,29.84,30.19,,Overcast
KIGQ,01/14/2017 16:35 UTC,30.5,28.94,24.26,86.15,0.0,0.0,,,,,,414.0,,,,10.0,,KIGQ 141635Z AUTO 00000KT 10SM OVC041 M02/M04 A3050 RMK AO2  T10171043,,,4100.0,,,25.27,,N,29.84,30.19,,Overcast
KIGQ,01/14/2017 16:55 UTC,30.49,29.3,24.98,80.04,3.44,270.0,,,,,,414.0,,,,10.0,,KIGQ 141655Z AUTO 27003KT 10SM OVC041 M01/M04 A3049 RMK AO2  T10151039,,,4100.0,,,23.83,,W,29.83,30.2,,Overcast
KIGQ,01/14/2017 17:15 UTC,30.48,29.3,25.52,80.04,3.44,250.0,,,,,,414.0,,,,10.0,,KIGQ 141715Z AUTO 25003KT 10SM OVC041 M01/M04 A3048 RMK AO2  T10151036,,,4100.0,,,23.83,,WSW,29.82,30.19,,Overcast
KIGQ,01/14/2017 17:35 UTC,30.47,29.48,25.7,86.26,4.61,260.0,,,,,,414.0,,,,10.0,,KIGQ 141735Z AUTO 26004KT 10SM OVC041 M01/M03 A3047 RMK AO2  T10141035,,,4100.0,,,25.83,,W,29.81,30.15,,Overcast
KIGQ,01/14/2017 17:55 UTC,30.46,29.66,26.24,86.26,3.44,270.0,,,,,,414.0,,,,10.0,,KIGQ 141755Z AUTO 27003KT 10SM OVC041 M01/M03 A3046 RMK AO2  T10131032 11013 21027,29.66,27.14,4100.0,,,26.01,,W,29.8,30.14,,Overcast
KIGQ,01/14/2017 18:15 UTC,30.46,30.02,26.24,86.26,3.44,280.0,,,,,,414.0,,,,10.0,,KIGQ 141815Z AUTO 28003KT 10SM OVC041 M01/M03 A3046 RMK AO2  T10111032,,,4100.0,,,26.36,,W,29.8,30.13,,Overcast
KIGQ,01/14/2017 18:35 UTC,30.45,30.2,26.6,86.26,4.61,310.0,,,,,,414.0,,,,10.0,,KIGQ 141835Z AUTO 31004KT 10SM OVC041 M01/M03 A3045 RMK AO2  T10101030,,,4100.0,,,26.54,,NW,29.79,30.12,,Overcast
KIGQ,01/14/2017 18:55 UTC,30.44,30.56,25.88,86.26,5.75,310.0,,,,,,414.0,,,,10.0,,KIGQ 141855Z AUTO 31005KT 10SM OVC041 M01/M03 A3044 RMK AO2  T10081034,,,4100.0,,,26.89,,NW,29.78,30.1,,Overcast
KIGQ,01/14/2017 19:15 UTC,30.44,30.92,25.88,86.26,5.75,330.0,,,,,,414.0,,,,10.0,,KIGQ 141915Z AUTO 33005KT 10SM OVC041 M01/M03 A3044 RMK AO2  T10061034,,,4100.0,,,27.25,,NNW,29.78,30.1,,Overcast
KIGQ,01/14/2017 19:35 UTC,30.44,31.1,26.06,80.19,5.75,320.0,,,,,,414.0,,,,10.0,,KIGQ 141935Z AUTO 32005KT 10SM OVC041 00/M03 A3044 RMK AO2  T10051033,,,4100.0,,,25.63,,NW,29.78,30.12,,Overcast
KIGQ,01/14/2017 19:55 UTC,30.43,31.64,26.06,80.19,3.44,330.0,,,,,,414.0,,,,10.0,,KIGQ 141955Z AUTO 33003KT 10SM OVC041 00/M03 A3043 RMK AO2  T10021033,,,4100.0,,,26.16,,NNW,29.77,30.1,,Overcast
KIGQ,01/14/2017 20:15 UTC,30.44,32.0,26.6,80.19,5.75,310.0,,,,,,414.0,,,,10.0,,KIGQ 142015Z AUTO 31005KT 10SM OVC041 00/M03 A3044 RMK AO2  T00001030,,,4100.0,,,26.51,,NW,29.78,30.1,,Overcast
KIGQ,01/14/2017 20:35 UTC,30.44,32.0,26.06,80.19,4.61,320.0,,,,,,414.0,,,,10.0,,KIGQ 142035Z AUTO 32004KT 10SM OVC041 00/M03 A3044 RMK AO2  T00001033,,,4100.0,,,26.51,,NW,29.78,30.1,,Overcast
KIGQ,01/14/2017 20:55 UTC,30.44,32.18,25.52,74.41,4.61,360.0,,,,,,414.0,,,,10.0,,KIGQ 142055Z AUTO 36004KT 10SM OVC041 00/M04 A3044 RMK AO2  T00011036,,,4100.0,,,24.86,,N,29.78,30.12,,Overcast
KIGQ,01/14/2017 21:15 UTC,30.44,32.18,25.52,74.41,5.75,360.0,,,,,,414.0,,,,10.0,,KIGQ 142115Z AUTO 36005KT 10SM OVC041 00/M04 A3044 RMK AO2  T00011036,,,4100.0,,,24.86,,N,29.78,30.12,,Overcast
KIGQ,01/14/2017 21:35 UTC,30.43,32.36,25.34,74.41,4.61,350.0,,,,,,414.0,,,,10.0,,KIGQ 142135Z AUTO 35004KT 10SM OVC041 00/M04 A3043 RMK AO2  T00021037,,,4100.0,,,25.04,,N,29.77,30.1,,Overcast
KIGQ,01/14/2017 21:55 UTC,30.44,32.18,26.6,80.19,3.44,10.0,,,,,,414.0,,,,10.0,,KIGQ 142155Z AUTO 01003KT 10SM OVC041 00/M03 A3044 RMK AO2  T00011030,,,4100.0,,,26.69,,N,29.78,30.1,,Overcast
KIGQ,01/14/2017 22:15 UTC,30.44,32.0,26.42,80.19,0.0,0.0,,,,,,413.0,,,,10.0,,KIGQ 142215Z AUTO 00000KT 10SM BKN041 00/M03 A3044 RMK AO2  T00001031,,,4100.0,,,26.51,,N,29.78,30.1,,Mostly Cloudy
KIGQ,01/14/2017 22:35 UTC,30.44,31.64,26.24,80.19,0.0,0.0,,,,,,412.0,,,,10.0,,KIGQ 142235Z AUTO 00000KT 10SM SCT041 00/M03 A3044 RMK AO2  T10021032,,,,,,26.16,,N,29.78,30.11,,Partly Cloudy
KIGQ,01/14/2017 22:55 UTC,30.45,31.1,26.42,80.19,0.0,0.0,,,,,,1.0,,,,10.0,,KIGQ 142255Z AUTO 00000KT 10SM CLR 00/M03 A3045 RMK AO2  T10051031,,,,,,25.63,,N,29.79,30.13,,Clear
KIGQ,01/14/2017 23:15 UTC,30.44,30.56,26.6,86.26,0.0,0.0,,,,,,1.0,,,,10.0,,KIGQ 142315Z AUTO 00000KT 10SM CLR M01/M03 A3044 RMK AO2  T10081030,,,,,,26.89,,N,29.78,30.1,,Clear
KIGQ,01/14/2017 23:35 UTC,30.45,30.2,26.78,86.26,0.0,0.0,,,,,,1.0,,,,10.0,,KIGQ 142335Z AUTO 00000KT 10SM CLR M01/M03 A3045 RMK AO2  T10101029,,,,,,26.54,,N,29.79,30.12,,Clear
KIGQ,01/14/2017 23:55 UTC,30.45,29.66,26.78,86.26,0.0,0.0,,,,,,402.0,,,,10.0,,KIGQ 142355Z AUTO 00000KT 10SM SCT040 M01/M03 A3045 RMK AO2  T10131029 10002 21014,32.36,29.48,,,,26.01,,N,29.79,30.13,,Partly Cloudy
KIGQ,01/15/2017 00:15 UTC,30.45,29.3,26.96,90.83,0.0,0.0,,,,,,402.0,,,,10.0,,KIGQ 150015Z AUTO 00000KT 10SM SCT040 M01/M03 A3045 RMK AO2  T10151028,,,,,,26.92,,N,29.79,30.12,,Partly Cloudy
KIGQ,01/15/2017 00:35 UTC,30.45,29.12,26.96,92.85,0.0,0.0,,,,,,1.0,,,,10.0,,KIGQ 150035Z AUTO 00000KT 10SM CLR M02/M03 A3045 RMK AO2  T10161028,,,,,,27.28,,N,29.79,30.12,,Clear
KIGQ,01/15/2017 00:55 UTC,30.46,28.4,26.6,92.85,0.0,0.0,,,,,,1.0,,,,10.0,,KIGQ 150055Z AUTO 00000KT 10SM CLR M02/M03 A3046 RMK AO2  T10201030,,,,,,26.57,,N,29.8,30.14,,Clear
KIGQ,01/15/2017 01:15 UTC,30.46,27.5,26.42,92.85,0.0,0.0,,,,,,1.0,,,,7.0,,KIGQ 150115Z AUTO 00000KT 7SM CLR M02/M03 A3046 RMK AO2  T10251031,,,,,,25.68,,N,29.8,30.16,,Clear
KIGQ,01/15/2017 01:35 UTC,30.46,26.78,26.42,100.0,0.0,0.0,,,,,,1.0,,,,7.0,,KIGQ 150135Z AUTO 00000KT 7SM CLR M03/M03 A3046 RMK AO2  T10291031,,,,,,26.78,,N,29.8,30.15,,Clear
KIGQ,01/15/2017 01:55 UTC,30.46,25.52,25.52,100.0,0.0,0.0,,31.0,,,,1.0,,,,5.0,,KIGQ 150155Z AUTO 00000KT 5SM BR CLR M04/M04 A3046 RMK AO2  T10361036,,,,,,25.52,,N,29.8,30.17,,Mist
KIGQ,01/15/2017 02:15 UTC,30.47,24.8,24.8,100.0,0.0,0.0,,31.0,,,,1.0,,,,4.0,,KIGQ 150215Z AUTO 00000KT 4SM BR CLR M04/M04 A3047 RMK AO2  T10401040,,,,,,24.8,,N,29.81,30.19,,Mist
KIGQ,01/15/2017 02:35 UTC,30.46,25.16,25.16,100.0,0.0,0.0,,31.0,,,,1.0,,,,5.0,,KIGQ 150235Z AUTO 00000KT 5SM BR CLR M04/M04 A3046 RMK AO2  T10381038,,,,,,25.16,,N,29.8,30.18,,Mist
KIGQ,01/15/2017 02:55 UTC,30.46,24.62,24.62,100.0,0.0,0.0,,31.0,,,,1.0,,,,4.0,,KIGQ 150255Z AUTO 00000KT 4SM BR CLR M04/M04 A3046 RMK AO2  T10411041,,,,,,24.62,,N,29.8,30.19,,Mist
KIGQ,01/15/2017 03:15 UTC,30.45,24.62,24.62,100.0,0.0,0.0,,31.0,,,,1.0,,,,4.0,,KIGQ 150315Z AUTO 00000KT 4SM BR CLR M04/M04 A3045 RMK AO2  T10411041,,,,,,24.62,,N,29.79,30.18,,Mist
KIGQ,01/15/2017 03:35 UTC,30.45,23.0,23.0,100.0,0.0,0.0,,31.0,,,,75.0,,,,1.75,,KIGQ 150335Z AUTO 00000KT 1 3/4SM BR VV007 M05/M05 A3045 RMK AO2  T10501050,,,700.0,,,23.0,,N,29.79,30.2,,Mist
KIGQ,01/15/2017 03:55 UTC,30.45,22.64,22.64,100.0,0.0,0.0,,31.0,,,,1.0,,,,2.5,,KIGQ 150355Z AUTO 00000KT 2 1/2SM BR CLR M05/M05 A3045 RMK AO2  T10521052,,,,,,22.64,,N,29.79,30.21,,Mist
KIGQ,01/15/2017 04:15 UTC,30.45,23.54,23.54,100.0,0.0,0.0,,31.0,,,,1.0,,,,2.5,,KIGQ 150415Z AUTO 00000KT 2 1/2SM BR CLR M05/M05 A3045 RMK AO2  T10471047,,,,,,23.54,,N,29.79,30.19,,Mist
KIGQ,01/15/2017 04:35 UTC,30.45,23.18,23.18,100.0,0.0,0.0,,31.0,,,,75.0,,,,1.75,,KIGQ 150435Z AUTO 00000KT 1 3/4SM BR VV007 M05/M05 A3045 RMK AO2  T10491049,,,700.0,,,23.18,,N,29.79,30.2,,Mist
KIGQ,01/15/2017 04:55 UTC,30.45,23.36,23.36,100.0,0.0,0.0,,31.0,,,,1.0,,,,2.5,,KIGQ 150455Z AUTO 00000KT 2 1/2SM BR CLR M05/M05 A3045 RMK AO2  T10481048,,,,,,23.36,,N,29.79,30.2,,Mist
KIGQ,01/15/2017 05:15 UTC,30.45,23.36,23.36,100.0,0.0,0.0,,31.0,,,,1.0,,,,5.0,,KIGQ 150515Z AUTO 00000KT 5SM BR CLR M05/M05 A3045 RMK AO2  T10481048,,,,,,23.36,,N,29.79,30.2,,Mist
KIGQ,01/15/2017 05:35 UTC,30.46,22.1,22.1,100.0,0.0,0.0,,31.0,,,,1.0,,,,4.0,,KIGQ 150535Z AUTO 00000KT 4SM BR CLR M05/M05 A3046 RMK AO2  T10551055,,,,,,22.1,,N,29.8,30.23,,Mist
KIGQ,01/15/2017 05:55 UTC,30.46,23.0,23.0,100.0,0.0,0.0,,31.0,,,,1.0,,,,5.0,,KIGQ 150555Z AUTO 00000KT 5SM BR CLR M05/M05 A3046 RMK AO2  T10501050 11013 21057 400021057,29.66,21.74,,32.36,21.74,23.0,,N,29.8,30.21,,Mist
KIGQ,01/15/2017 06:15 UTC,30.45,22.1,22.1,100.0,0.0,0.0,,31.0,,,,1.0,,,,4.0,,KIGQ 150615Z AUTO 00000KT 4SM BR CLR M05/M05 A3045 RMK AO2  T10551055,,,,,,22.1,,N,29.79,30.21,,Mist
KIGQ,01/15/2017 06:35 UTC,30.46,22.64,22.64,100.0,0.0,0.0,,31.0,,,,1.0,,,,5.0,,KIGQ 150635Z AUTO 00000KT 5SM BR CLR M05/M05 A3046 RMK AO2  T10521052,,,,,,22.64,,N,29.8,30.22,,Mist
KIGQ,01/15/2017 06:55 UTC,30.45,21.74,21.74,100.0,0.0,0.0,,31.0,,,,1.0,,,,4.0,,KIGQ 150655Z AUTO 00000KT 4SM BR CLR M06/M06 A3045 RMK AO2  T10571057,,,,,,21.74,,N,29.79,30.22,,Mist
KIGQ,01/15/2017 07:15 UTC,30.45,22.1,22.1,100.0,0.0,0.0,,31.0,,,,1.0,,,,5.0,,KIGQ 150715Z AUTO 00000KT 5SM BR CLR M05/M05 A3045 RMK AO2  T10551055,,,,,,22.1,,N,29.79,30.21,,Mist
KIGQ,01/15/2017 07:35 UTC,30.45,22.46,22.46,100.0,0.0,0.0,,,,,,1.0,,,,7.0,,KIGQ 150735Z AUTO 00000KT 7SM CLR M05/M05 A3045 RMK AO2  T10531053,,,,,,22.46,,N,29.79,30.21,,Clear
KIGQ,01/15/2017 07:55 UTC,30.46,21.56,21.56,100.0,0.0,0.0,,31.0,,,,1.0,,,,5.0,,KIGQ 150755Z AUTO 00000KT 5SM BR CLR M06/M06 A3046 RMK AO2  T10581058,,,,,,21.56,,N,29.8,30.23,,Mist
KIGQ,01/15/2017 08:15 UTC,30.46,20.84,20.84,100.0,0.0,0.0,,31.0,,,,1.0,,,,5.0,,KIGQ 150815Z AUTO 00000KT 5SM BR CLR M06/M06 A3046 RMK AO2  T10621062,,,,,,20.84,,N,29.8,30.24,,Mist
KIGQ,01/15/2017 08:35 UTC,30.46,20.66,20.66,100.0,0.0,0.0,,31.0,,,,1.0,,,,5.0,,KIGQ 150835Z AUTO 00000KT 5SM BR CLR M06/M06 A3046 RMK AO2  T10631063,,,,,,20.66,,N,29.8,30.25,,Mist
KIGQ,01/15/2017 08:55 UTC,30.46,21.2,21.2,100.0,0.0,0.0,,31.0,,,,1.0,,,,5.0,,KIGQ 150855Z AUTO 00000KT 5SM BR CLR M06/M06 A3046 RMK AO2  T10601060,,,,,,21.2,,N,29.8,30.24,,Mist
KIGQ,01/15/2017 09:15 UTC,30.45,21.2,21.2,100.0,0.0,0.0,,31.0,,,,1.0,,,,5.0,,KIGQ 150915Z AUTO 00000KT 5SM BR CLR M06/M06 A3045 RMK AO2  T10601060,,,,,,21.2,,N,29.79,30.23,,Mist
KIGQ,01/15/2017 09:35 UTC,30.44,21.2,21.2,100.0,0.0,0.0,,31.0,,,,1.0,,,,4.0,,KIGQ 150935Z AUTO 00000KT 4SM BR CLR M06/M06 A3044 RMK AO2  T10601060,,,,,,21.2,,N,29.78,30.22,,Mist
KIGQ,01/15/2017 09:55 UTC,30.45,20.12,20.12,100.0,0.0,0.0,,31.0,,,,1.0,,,,3.0,,KIGQ 150955Z AUTO 00000KT 3SM BR CLR M07/M07 A3045 RMK AO2  T10661066,,,,,,20.12,,N,29.79,30.24,,Mist
KIGQ,01/15/2017 10:15 UTC,30.45,20.48,20.48,100.0,0.0,0.0,,31.0,,,,1.0,,,,4.0,,KIGQ 151015Z AUTO 00000KT 4SM BR CLR M06/M06 A3045 RMK AO2  T10641064,,,,,,20.48,,N,29.79,30.24,,Mist
KIGQ,01/15/2017 10:35 UTC,30.44,20.3,20.3,100.0,0.0,0.0,,31.0,,,,1.0,,,,4.0,,KIGQ 151035Z AUTO 00000KT 4SM BR CLR M06/M06 A3044 RMK AO2  T10651065,,,,,,20.3,,N,29.78,30.23,,Mist
KIGQ,01/15/2017 10:55 UTC,30.44,20.3,20.3,100.0,0.0,0.0,,31.0,,,,1.0,,,,5.0,,KIGQ 151055Z AUTO 00000KT 5SM BR CLR M06/M06 A3044 RMK AO2  T10651065,,,,,,20.3,,N,29.78,30.23,,Mist
KIGQ,01/15/2017 11:15 UTC,30.44,20.3,20.3,100.0,0.0,0.0,,31.0,,,,1.0,,,,5.0,,KIGQ 151115Z AUTO 00000KT 5SM BR CLR M06/M06 A3044 RMK AO2  T10651065,,,,,,20.3,,N,29.78,30.23,,Mist
KIGQ,01/15/2017 11:35 UTC,30.43,21.2,21.2,100.0,0.0,0.0,,31.0,,,,1.0,,,,5.0,,KIGQ 151135Z AUTO 00000KT 5SM BR CLR M06/M06 A3043 RMK AO2  T10601060,,,,,,21.2,,N,29.77,30.21,,Mist
KIGQ,01/15/2017 11:55 UTC,30.43,21.2,21.2,100.0,0.0,0.0,,31.0,,,,1.0,,,,5.0,,KIGQ 151155Z AUTO 00000KT 5SM BR CLR M06/M06 A3043 RMK AO2  T10601060 11050 21070,23.0,19.4,,,,21.2,,N,29.77,30.21,,Mist
KIGQ,01/15/2017 12:15 UTC,30.43,21.02,21.02,100.0,0.0,0.0,,31.0,,,,1.0,,,,5.0,,KIGQ 151215Z AUTO 00000KT 5SM BR CLR M06/M06 A3043 RMK AO2  T10611061,,,,,,21.02,,N,29.77,30.21,,Mist
KIGQ,01/15/2017 12:35 UTC,30.43,21.38,21.38,100.0,0.0,0.0,,31.0,,,,1.0,,,,5.0,,KIGQ 151235Z AUTO 00000KT 5SM BR CLR M06/M06 A3043 RMK AO2  T10591059,,,,,,21.38,,N,29.77,30.2,,Mist
KIGQ,01/15/2017 12:55 UTC,30.43,21.92,21.92,100.0,0.0,0.0,,31.0,,,,1.0,,,,5.0,,KIGQ 151255Z AUTO 00000KT 5SM BR CLR M06/M06 A3043 RMK AO2  T10561056,,,,,,21.92,,N,29.77,30.2,,Mist
KIGQ,01/15/2017 13:15 UTC,30.43,22.64,22.64,100.0,3.44,210.0,,31.0,,,,1.0,,,,5.0,,KIGQ 151315Z AUTO 21003KT 5SM BR CLR M05/M05 A3043 RMK AO2  T10521052,,,,,,22.64,,SSW,29.77,30.19,,Mist
KIGQ,01/15/2017 13:35 UTC,30.43,23.0,23.0,100.0,0.0,0.0,,31.0,,,,1.0,,,,4.0,,KIGQ 151335Z AUTO 00000KT 4SM BR CLR M05/M05 A3043 RMK AO2  T10501050,,,,,,23.0,,N,29.77,30.18,,Mist
KIGQ,01/15/2017 13:55 UTC,30.43,23.54,23.54,100.0,0.0,0.0,,31.0,,,,1.0,,,,5.0,,KIGQ 151355Z AUTO 00000KT 5SM BR CLR M05/M05 A3043 RMK AO2  T10471047,,,,,,23.54,,N,29.77,30.17,,Mist
KIGQ,01/15/2017 14:15 UTC,30.43,23.72,23.72,100.0,0.0,0.0,,31.0,,,,1.0,,,,4.0,,KIGQ 151415Z AUTO 00000KT 4SM BR CLR M05/M05 A3043 RMK AO2  T10461046,,,,,,23.72,,N,29.77,30.17,,Mist
KIGQ,01/15/2017 14:35 UTC,30.44,24.44,24.44,100.0,0.0,0.0,,31.0,,,,1202.0,,,,5.0,,KIGQ 151435Z AUTO 00000KT 5SM BR SCT120 M04/M04 A3044 RMK AO2  T10421042,,,,,,24.44,,N,29.78,30.17,,Mist
KIGQ,01/15/2017 14:55 UTC,30.44,25.16,24.8,100.0,0.0,0.0,,31.0,,,,1203.0,,,,4.0,,KIGQ 151455Z AUTO 00000KT 4SM BR BKN120 M04/M04 A3044 RMK AO2  T10381040,,,12000.0,,,25.16,,N,29.78,30.16,,Mist
KIGQ,01/15/2017 15:15 UTC,30.44,25.7,24.98,92.79,0.0,0.0,,31.0,,,,1203.0,,,,4.0,,KIGQ 151515Z AUTO 00000KT 4SM BR BKN120 M03/M04 A3044 RMK AO2  T10351039,,,12000.0,,,23.88,,N,29.78,30.17,,Mist
KIGQ,01/15/2017 15:35 UTC,30.44,26.06,24.98,92.79,0.0,0.0,,31.0,,,,1203.0,,,,4.0,,KIGQ 151535Z AUTO 00000KT 4SM BR BKN120 M03/M04 A3044 RMK AO2  T10331039,,,12000.0,,,24.23,,N,29.78,30.16,,Mist
KIGQ,01/15/2017 15:55 UTC,30.45,26.6,25.34,92.79,0.0,0.0,,31.0,,,,1202.0,,,,5.0,,KIGQ 151555Z AUTO 00000KT 5SM BR SCT120 M03/M04 A3045 RMK AO2  T10301037,,,,,,24.77,,N,29.79,30.16,,Mist
KIGQ,01/15/2017 16:15 UTC,30.44,27.5,26.06,92.85,0.0,0.0,,31.0,,,,1202.0,,,,5.0,,KIGQ 151615Z AUTO 00000KT 5SM BR SCT120 M02/M03 A3044 RMK AO2  T10251033,,,,,,25.68,,N,29.78,30.14,,Mist
KIGQ,01/15/2017 16:35 UTC,30.43,27.86,26.42,92.85,0.0,0.0,,31.0,,,,1103.0,,,,5.0,,KIGQ 151635Z AUTO 00000KT 5SM BR BKN110 M02/M03 A3043 RMK AO2  T10231031,,,11000.0,,,26.03,,N,29.77,30.12,,Mist
KIGQ,01/15/2017 16:55 UTC,30.42,28.4,26.06,92.85,0.0,0.0,,,,,,1104.0,,,,7.0,,KIGQ 151655Z AUTO 00000KT 7SM OVC110 M02/M03 A3042 RMK AO2  T10201033,,,11000.0,,,26.57,,N,29.76,30.1,,Overcast
KIGQ,01/15/2017 17:15 UTC,30.41,29.12,26.6,92.85,0.0,0.0,,31.0,,,,1002.0,1203.0,,,5.0,,KIGQ 151715Z AUTO 00000KT 5SM BR SCT100 BKN120 M02/M03 A3041 RMK AO2 T10161030,,,12000.0,,,27.28,,N,29.75,30.08,,Mist
KIGQ,01/15/2017 17:35 UTC,30.41,29.66,26.42,86.26,0.0,0.0,,,,,,1002.0,1203.0,,,7.0,,KIGQ 151735Z AUTO 00000KT 7SM SCT100 BKN120 M01/M03 A3041 RMK AO2  T10131031,,,12000.0,,,26.01,,N,29.75,30.09,,Mostly Cloudy
KIGQ,01/15/2017 17:55 UTC,30.4,30.02,25.7,86.26,0.0,0.0,,,,,,1103.0,,,,7.0,,KIGQ 151755Z AUTO 00000KT 7SM BKN110 M01/M03 A3040 RMK AO2  T10111035 11011 21062,30.02,20.84,11000.0,,,26.36,,N,29.74,30.07,,Mostly Cloudy
KIGQ,01/15/2017 18:15 UTC,30.39,30.92,25.88,86.26,0.0,0.0,,,,,,1102.0,,,,7.0,,KIGQ 151815Z AUTO 00000KT 7SM SCT110 M01/M03 A3039 RMK AO2  T10061034,,,,,,27.25,,N,29.73,30.05,,Partly Cloudy
KIGQ,01/15/2017 18:35 UTC,30.38,31.64,27.5,86.37,0.0,0.0,,,,,,1202.0,,,,7.0,,KIGQ 151835Z AUTO 00000KT 7SM SCT120 00/M02 A3038 RMK AO2  T10021025,,,,,,27.99,,N,29.72,30.02,,Partly Cloudy
KIGQ,01/15/2017 18:55 UTC,30.38,31.82,27.68,86.37,0.0,0.0,,,,,,1003.0,1203.0,,,7.0,,KIGQ 151855Z AUTO 00000KT 7SM BKN100 BKN120 00/M02 A3038 RMK AO2  T10011024,,,10000.0,,,28.16,,N,29.72,30.02,,Mostly Cloudy
KIGQ,01/15/2017 19:15 UTC,30.37,32.0,27.68,86.37,0.0,0.0,,,,,,1002.0,,,,7.0,,KIGQ 151915Z AUTO 00000KT 7SM SCT100 00/M02 A3037 RMK AO2  T00001024,,,,,,28.34,,N,29.71,30.0,,Partly Cloudy
KIGQ,01/15/2017 19:35 UTC,30.36,32.18,28.04,86.37,0.0,0.0,,,,,,1202.0,,,,7.0,,KIGQ 151935Z AUTO 00000KT 7SM SCT120 00/M02 A3036 RMK AO2  T00011022,,,,,,28.52,,N,29.7,29.99,,Partly Cloudy
KIGQ,01/15/2017 19:55 UTC,30.36,32.36,28.76,86.37,0.0,0.0,,,,,,1.0,,,,7.0,,KIGQ 151955Z AUTO 00000KT 7SM CLR 00/M02 A3036 RMK AO2  T00021018,,,,,,28.7,,N,29.7,29.99,,Clear
KIGQ,01/15/2017 20:15 UTC,30.36,32.36,28.58,86.37,0.0,0.0,,,,,,1102.0,,,,7.0,,KIGQ 152015Z AUTO 00000KT 7SM SCT110 00/M02 A3036 RMK AO2  T00021019,,,,,,28.7,,N,29.7,29.99,,Partly Cloudy
KIGQ,01/15/2017 20:35 UTC,30.37,32.0,28.76,86.37,3.44,210.0,,,,,,1102.0,,,,7.0,,KIGQ 152035Z AUTO 21003KT 7SM SCT110 00/M02 A3037 RMK AO2  T00001018,,,,,,28.34,,SSW,29.71,30.0,,Partly Cloudy
KIGQ,01/15/2017 20:55 UTC,30.37,32.36,28.76,86.37,3.44,220.0,,,,,,1.0,,,,10.0,,KIGQ 152055Z AUTO 22003KT 10SM CLR 00/M02 A3037 RMK AO2  T00021018,,,,,,28.7,,SW,29.71,30.0,,Clear
KIGQ,01/15/2017 21:15 UTC,30.36,32.54,28.04,86.37,0.0,0.0,,,,,,1.0,,,,10.0,,KIGQ 152115Z AUTO 00000KT 10SM CLR 00/M02 A3036 RMK AO2  T00031022,,,,,,28.87,,N,29.7,29.98,,Clear
KIGQ,01/15/2017 21:35 UTC,30.36,32.54,28.76,86.37,3.44,200.0,,,,,,1.0,,,,10.0,,KIGQ 152135Z AUTO 20003KT 10SM CLR 00/M02 A3036 RMK AO2  T00031018,,,,,,28.87,,SSW,29.7,29.98,,Clear
KIGQ,01/15/2017 21:55 UTC,30.36,32.54,29.3,92.96,0.0,0.0,,,,,,1.0,,,,10.0,,KIGQ 152155Z AUTO 00000KT 10SM CLR 00/M01 A3036 RMK AO2  T00031015,,,,,,30.7,,N,29.7,29.96,,Clear
KIGQ,01/15/2017 22:15 UTC,30.35,32.36,29.12,86.37,0.0,0.0,,,,,,1.0,,,,10.0,,KIGQ 152215Z AUTO 00000KT 10SM CLR 00/M02 A3035 RMK AO2  T00021016,,,,,,28.7,,N,29.69,29.98,,Clear
KIGQ,01/15/2017 22:35 UTC,30.35,32.0,29.84,92.96,0.0,0.0,,,,,,1202.0,,,,7.0,,KIGQ 152235Z AUTO 00000KT 7SM SCT120 00/M01 A3035 RMK AO2  T00001012,,,,,,30.17,,N,29.69,29.96,,Partly Cloudy
KIGQ,01/15/2017 22:55 UTC,30.35,32.0,30.2,92.96,3.44,210.0,,,,,,1.0,,,,7.0,,KIGQ 152255Z AUTO 21003KT 7SM CLR 00/M01 A3035 RMK AO2  T00001010,,,,,,30.17,,SSW,29.69,29.96,,Clear
KIGQ,01/15/2017 23:15 UTC,30.34,32.0,30.02,92.96,0.0,0.0,,,,,,1.0,,,,7.0,,KIGQ 152315Z AUTO 00000KT 7SM CLR 00/M01 A3034 RMK AO2  T00001011,,,,,,30.17,,N,29.68,29.95,,Clear
KIGQ,01/15/2017 23:35 UTC,30.34,32.0,30.2,92.96,0.0,0.0,,,,,,1202.0,,,,7.0,,KIGQ 152335Z AUTO 00000KT 7SM SCT120 00/M01 A3034 RMK AO2  T00001010,,,,,,30.17,,N,29.68,29.95,,Partly Cloudy
KIGQ,01/15/2017 23:55 UTC,30.34,32.0,30.02,92.96,0.0,0.0,,,,,,1202.0,,,,7.0,,KIGQ 152355Z AUTO 00000KT 7SM SCT120 00/M01 A3034 RMK AO2  T00001011 10005 21011,32.9,30.02,,,,30.17,,N,29.68,29.95,,Partly Cloudy
KIGQ,01/16/2017 00:15 UTC,30.33,32.0,30.02,92.28,0.0,0.0,,,,,,1202.0,,,,7.0,,KIGQ 160015Z AUTO 00000KT 7SM SCT120 00/M01 A3033 RMK AO2  T00001011,,,,,,29.99,,N,29.67,29.94,,Partly Cloudy
KIGQ,01/16/2017 00:35 UTC,30.33,32.0,30.02,92.96,0.0,0.0,,,,,,1202.0,,,,7.0,,KIGQ 160035Z AUTO 00000KT 7SM SCT120 00/M01 A3033 RMK AO2  T00001011,,,,,,30.17,,N,29.67,29.94,,Partly Cloudy
KIGQ,01/16/2017 00:55 UTC,30.33,32.0,30.02,92.96,0.0,0.0,,,,,,1.0,,,,7.0,,KIGQ 160055Z AUTO 00000KT 7SM CLR 00/M01 A3033 RMK AO2  T00001011,,,,,,30.17,,N,29.67,29.94,,Clear
KIGQ,01/16/2017 01:15 UTC,30.33,32.0,30.02,92.96,0.0,0.0,,,,,,1.0,,,,7.0,,KIGQ 160115Z AUTO 00000KT 7SM CLR 00/M01 A3033 RMK AO2  T00001011,,,,,,30.17,,N,29.67,29.94,,Clear
KIGQ,01/16/2017 01:35 UTC,30.33,32.0,30.2,92.96,0.0,0.0,,,,,,1.0,,,,7.0,,KIGQ 160135Z AUTO 00000KT 7SM CLR 00/M01 A3033 RMK AO2  T00001010,,,,,,30.17,,N,29.67,29.94,,Clear
KIGQ,01/16/2017 01:55 UTC,30.33,32.0,30.56,92.96,0.0,0.0,,,,,,1.0,,,,7.0,,KIGQ 160155Z AUTO 00000KT 7SM CLR 00/M01 A3033 RMK AO2  T00001008,,,,,,30.17,,N,29.67,29.94,,Clear
KIGQ,01/16/2017 02:15 UTC,30.33,32.0,30.02,92.96,0.0,0.0,,,,,,1202.0,,,,7.0,,KIGQ 160215Z AUTO 00000KT 7SM SCT120 00/M01 A3033 RMK AO2  T00001011,,,,,,30.17,,N,29.67,29.94,,Partly Cloudy
KIGQ,01/16/2017 02:35 UTC,30.33,31.64,30.56,92.96,0.0,0.0,,,,,,1202.0,,,,7.0,,KIGQ 160235Z AUTO 00000KT 7SM SCT120 00/M01 A3033 RMK AO2  T10021008,,,,,,29.81,,N,29.67,29.95,,Partly Cloudy
KIGQ,01/16/2017 02:55 UTC,30.33,32.0,30.2,92.96,0.0,0.0,,,,,,1.0,,,,7.0,,KIGQ 160255Z AUTO 00000KT 7SM CLR 00/M01 A3033 RMK AO2  T00001010,,,,,,30.17,,N,29.67,29.94,,Clear
KIGQ,01/16/2017 03:15 UTC,30.33,32.0,30.38,92.96,0.0,0.0,,,,,,902.0,1202.0,,,7.0,,KIGQ 160315Z AUTO 00000KT 7SM SCT090 SCT120 00/M01 A3033 RMK AO2  T00001009,,,,,,30.17,,N,29.67,29.94,,Partly Cloudy
KIGQ,01/16/2017 03:35 UTC,30.33,32.0,30.2,92.96,0.0,0.0,,,,,,903.0,,,,10.0,,KIGQ 160335Z AUTO 00000KT 10SM BKN090 00/M01 A3033 RMK AO2  T00001010,,,9000.0,,,30.17,,N,29.67,29.94,,Mostly Cloudy
KIGQ,01/16/2017 03:55 UTC,30.32,32.0,30.02,92.96,3.44,60.0,,,,,,903.0,,,,10.0,,KIGQ 160355Z AUTO 06003KT 10SM BKN090 00/M01 A3032 RMK AO2  T00001011,,,9000.0,,,30.17,,ENE,29.66,29.93,,Mostly Cloudy
KIGQ,01/16/2017 04:15 UTC,30.32,31.82,29.84,92.96,3.44,90.0,,,,,,902.0,,,,10.0,,KIGQ 160415Z AUTO 09003KT 10SM SCT090 00/M01 A3032 RMK AO2  T10011012,,,,,,29.99,,E,29.66,29.93,,Partly Cloudy
KIGQ,01/16/2017 04:35 UTC,30.31,32.0,29.84,92.96,3.44,70.0,,,,,,1.0,,,,10.0,,KIGQ 160435Z AUTO 07003KT 10SM CLR 00/M01 A3031 RMK AO2  T00001012,,,,,,30.17,,ENE,29.65,29.92,,Clear
KIGQ,01/16/2017 04:55 UTC,30.32,31.64,29.3,92.96,0.0,0.0,,,,,,1.0,,,,10.0,,KIGQ 160455Z AUTO 00000KT 10SM CLR 00/M01 A3032 RMK AO2  T10021015,,,,,,29.81,,N,29.66,29.94,,Clear
KIGQ,01/16/2017 05:15 UTC,30.31,30.74,28.76,92.91,0.0,0.0,,,,,,1.0,,,,10.0,,KIGQ 160515Z AUTO 00000KT 10SM CLR M01/M02 A3031 RMK AO2  T10071018,,,,,,28.91,,N,29.65,29.94,,Clear
KIGQ,01/16/2017 05:35 UTC,30.31,31.1,29.3,92.96,3.44,100.0,,,,,,1.0,,,,10.0,,KIGQ 160535Z AUTO 10003KT 10SM CLR 00/M01 A3031 RMK AO2  T10051015,,,,,,29.28,,E,29.65,29.94,,Clear
KIGQ,01/16/2017 05:55 UTC,30.31,31.28,29.3,92.96,0.0,0.0,,,,,,1.0,,,,10.0,,KIGQ 160555Z AUTO 00000KT 10SM CLR 00/M01 A3031 RMK AO2 T10041015  10001 21008 400051070,32.18,30.56,,32.9,19.4,29.45,,N,29.65,29.93,,Clear
KIGQ,01/16/2017 06:15 UTC,30.29,31.1,29.3,92.96,3.44,110.0,,,,,,1202.0,,,,10.0,,KIGQ 160615Z AUTO 11003KT 10SM SCT120 00/M01 A3029 RMK AO2  T10051015,,,,,,29.28,,ESE,29.63,29.92,,Partly Cloudy
KIGQ,01/16/2017 06:35 UTC,30.29,31.46,29.66,92.96,0.0,0.0,,,1203.0,,,702.0,853.0,,,10.0,,KIGQ 160635Z AUTO 00000KT 10SM SCT070 BKN085 BKN120 00/M01  A3029 RMK AO2 T10031013,,,8500.0,,,29.63,,N,29.63,29.91,,Mostly Cloudy
KIGQ,01/16/2017 07:00 UTC,30.29,31.82,29.3,92.96,3.44,110.0,,,,,,702.0,854.0,,,10.0,,KIGQ 160700Z AUTO 11003KT 10SM SCT070 OVC085 00/M01 A3029 RMK AO2  T10011015,,,8500.0,,,29.99,,ESE,29.63,29.9,,Overcast
KIGQ,01/16/2017 07:15 UTC,30.29,31.64,29.66,92.96,3.44,100.0,,,,,,854.0,,,,10.0,,KIGQ 160715Z AUTO 10003KT 10SM OVC085 00/M01 A3029 RMK AO2  T10021013,,,8500.0,,,29.81,,E,29.63,29.91,,Overcast
KIGQ,01/16/2017 07:35 UTC,30.29,31.82,29.3,92.96,0.0,0.0,,,,,,854.0,,,,10.0,,KIGQ 160735Z AUTO 00000KT 10SM OVC085 00/M01 A3029 RMK AO2  T10011015,,,8500.0,,,29.99,,N,29.63,29.9,,Overcast
KIGQ,01/16/2017 07:55 UTC,30.28,31.82,29.3,92.96,3.44,110.0,,,,,,602.0,754.0,,,10.0,,KIGQ 160755Z AUTO 11003KT 10SM SCT060 OVC075 00/M01 A3028 RMK AO2  T10011015,,,7500.0,,,29.99,,ESE,29.62,29.89,,Overcast
KIGQ,01/16/2017 08:15 UTC,30.29,32.0,29.84,92.96,3.44,100.0,,13.0,854.0,,,602.0,753.0,,,10.0,,KIGQ 160815Z AUTO 10003KT 10SM -RA SCT060 BKN075 OVC085 00/M01  A3029 RMK AO2 T00001012,,,7500.0,,,30.17,,E,29.63,29.9,,Light Rain
KIGQ,01/16/2017 08:35 UTC,30.29,32.0,29.84,92.96,0.0,0.0,,13.0,,,,603.0,754.0,,,10.0,,KIGQ 160835Z AUTO 00000KT 10SM -RA BKN060 OVC075 00/M01 A3029 RMK AO2 T00001012,,,6000.0,,,30.17,,N,29.63,29.9,,Light Rain
KIGQ,01/16/2017 08:55 UTC,30.29,32.0,30.2,92.96,3.44,120.0,,41.0,,,,504.0,,,,7.0,,KIGQ 160855Z AUTO 12003KT 7SM UP OVC050 00/M01 A3029 RMK AO2  T00001010,,,5000.0,,,30.17,,ESE,29.63,29.9,,Unknown Precip
KIGQ,01/16/2017 09:15 UTC,30.28,32.0,30.2,92.96,3.44,130.0,,,,,,504.0,,,,10.0,,KIGQ 160915Z AUTO 13003KT 10SM OVC050 00/M01 A3028 RMK AO2  T00001010,,,5000.0,,,30.17,,SE,29.62,29.89,,Overcast
KIGQ,01/16/2017 09:35 UTC,30.29,32.0,30.2,92.96,0.0,0.0,,,,,,504.0,,,,10.0,,KIGQ 160935Z AUTO 00000KT 10SM OVC050 00/M01 A3029 RMK AO2  T00001010,,,5000.0,,,30.17,,N,29.63,29.9,,Overcast
KIGQ,01/16/2017 09:55 UTC,30.27,32.0,30.92,92.96,3.44,150.0,,,,,,504.0,,,,7.0,,KIGQ 160955Z AUTO 15003KT 7SM OVC050 00/M01 A3027 RMK AO2  T00001006,,,5000.0,,,30.17,,SSE,29.61,29.88,,Overcast
KIGQ,01/16/2017 10:15 UTC,30.28,32.0,30.74,92.96,0.0,0.0,,,,,,504.0,,,,7.0,,KIGQ 161015Z AUTO 00000KT 7SM OVC050 00/M01 A3028 RMK AO2  T00001007,,,5000.0,,,30.17,,N,29.62,29.89,,Overcast
KIGQ,01/16/2017 10:35 UTC,30.27,32.18,30.74,92.96,3.44,140.0,,,,,,504.0,,,,10.0,,KIGQ 161035Z AUTO 14003KT 10SM OVC050 00/M01 A3027 RMK AO2  T00011007,,,5000.0,,,30.35,,SE,29.61,29.87,,Overcast
KIGQ,01/16/2017 10:55 UTC,30.26,32.36,30.74,92.96,0.0,0.0,,,,,,504.0,,,,10.0,,KIGQ 161055Z AUTO 00000KT 10SM OVC050 00/M01 A3026 RMK AO2  T00021007,,,5000.0,,,30.53,,N,29.6,29.86,,Overcast
KIGQ,01/16/2017 11:15 UTC,30.26,32.54,30.92,92.96,3.44,120.0,,,,,,504.0,,,,10.0,,KIGQ 161115Z AUTO 12003KT 10SM OVC050 00/M01 A3026 RMK AO2  T00031006,,,5000.0,,,30.7,,ESE,29.6,29.86,,Overcast
KIGQ,01/16/2017 11:35 UTC,30.25,32.36,31.1,100.0,3.44,70.0,,,,,,484.0,,,,7.0,,KIGQ 161135Z AUTO 07003KT 7SM OVC048 00/00 A3025 RMK AO2  T00021005,,,4800.0,,,32.36,,ENE,29.59,29.82,,Overcast
KIGQ,01/16/2017 11:55 UTC,30.26,32.54,31.1,100.0,4.61,110.0,,,464.0,,,232.0,322.0,,,10.0,,KIGQ 161155Z AUTO 11004KT 10SM SCT023 SCT032 OVC046 00/00  A3026 RMK AO2 T00031005 10004 21005,32.72,31.1,4600.0,,,32.54,,ESE,29.6,29.83,,Overcast
KIGQ,01/16/2017 12:15 UTC,30.26,32.54,31.1,100.0,3.44,90.0,,,444.0,,,232.0,323.0,,,7.0,,KIGQ 161215Z AUTO 09003KT 7SM SCT023 BKN032 OVC044 00/00 A3026 RMK AO2 T00031005,,,3200.0,,,32.54,,E,29.6,29.83,,Overcast
KIGQ,01/16/2017 12:35 UTC,30.26,32.54,31.46,100.0,4.61,70.0,,41.0,404.0,,,232.0,323.0,,,5.0,,KIGQ 161235Z AUTO 07004KT 5SM UP SCT023 BKN032 OVC040 00/00  A3026 RMK AO2 T00031003,,,3200.0,,,32.54,,ENE,29.6,29.83,,Unknown Precip
KIGQ,01/16/2017 12:55 UTC,30.25,32.18,31.46,100.0,4.61,60.0,,13.0,,,,193.0,324.0,,,4.0,,KIGQ 161255Z AUTO 06004KT 4SM -RA BKN019 OVC032 00/00 A3025 RMK AO2 T00011003,,,1900.0,,,32.18,,ENE,29.59,29.83,,Light Rain
KIGQ,01/16/2017 13:15 UTC,30.26,32.36,31.82,100.0,0.0,0.0,,41.0,,,,174.0,,,,7.0,,KIGQ 161315Z AUTO 00000KT 7SM UP OVC017 00/00 A3026 RMK AO2  T00021001,,,1700.0,,,32.36,,N,29.6,29.83,,Unknown Precip
KIGQ,01/16/2017 13:35 UTC,30.27,32.0,31.82,100.0,0.0,0.0,,41.0,,,,174.0,,,,2.5,,KIGQ 161335Z AUTO 00000KT 2 1/2SM UP OVC017 00/00 A3027 RMK AO2  T00001001,,,1700.0,,,32.0,,N,29.61,29.85,,Unknown Precip
KIGQ,01/16/2017 13:55 UTC,30.27,32.0,32.0,100.0,3.44,40.0,,41.0,,,,92.0,134.0,,,1.25,,KIGQ 161355Z AUTO 04003KT 1 1/4SM UP SCT009 OVC013 00/00 A3027 RMK AO2 T00000000,,,1300.0,,,32.0,,NE,29.61,29.85,,Unknown Precip
KIGQ,01/16/2017 14:15 UTC,30.26,32.0,32.0,100.0,4.61,80.0,,18.0,,,,42.0,134.0,,,0.75,,KIGQ 161415Z AUTO 08004KT 3/4SM +DZ SCT004 OVC013 00/00 A3026 RMK AO2 T00000000,,,1300.0,,,32.0,,E,29.6,29.84,,Heavy Drizzle
KIGQ,01/16/2017 14:35 UTC,30.27,32.0,32.0,100.0,0.0,0.0,,41.0,,,,44.0,,,,1.0,,KIGQ 161435Z AUTO 00000KT 1SM UP OVC004 00/00 A3027 RMK AO2  T00000000,,,400.0,,,32.0,,N,29.61,29.85,,Unknown Precip
KIGQ,01/16/2017 14:55 UTC,30.26,32.0,32.0,100.0,3.44,80.0,,20.0,,0.01,0.01,44.0,,,,1.0,,KIGQ 161455Z AUTO 08003KT 1SM -SN OVC004 00/00 A3026 RMK AO2 P0001  60001 T00000000,,,400.0,,,32.0,,E,29.6,29.84,,Light Snow
KIGQ,01/16/2017 15:15 UTC,30.25,32.0,32.0,100.0,5.75,80.0,,13.0,,0.01,,43.0,114.0,,,1.25,,KIGQ 161515Z AUTO 08005KT 1 1/4SM -RA BKN004 OVC011 00/00  A3025 RMK AO2 P0001 T00000000,,,400.0,,,32.0,,E,29.59,29.83,,Light Rain
KIGQ,01/16/2017 15:35 UTC,30.25,32.18,32.18,100.0,6.91,110.0,,41.0,,0.01,,44.0,,,,1.5,,KIGQ 161535Z AUTO 11006KT 1 1/2SM UP OVC004 00/00 A3025 RMK AO2  P0001 T00010001,,,400.0,,,32.18,,ESE,29.59,29.83,,Unknown Precip
KIGQ,01/16/2017 15:55 UTC,30.24,32.54,32.54,100.0,5.75,100.0,,13.0,,0.01,,44.0,,,,1.5,,KIGQ 161555Z AUTO 10005KT 1 1/2SM -RA OVC004 00/00 A3024 RMK AO2  P0001 T00030003,,,400.0,,,32.54,,E,29.58,29.81,,Light Rain
KIGQ,01/16/2017 16:15 UTC,30.24,32.9,32.9,100.0,5.75,110.0,,13.0,,,,44.0,,,,1.75,,KIGQ 161615Z AUTO 11005KT 1 3/4SM -RA OVC004 01/01 A3024 RMK AO2  T00050005,,,400.0,,,32.9,,ESE,29.58,29.8,,Light Rain
KIGQ,01/16/2017 16:35 UTC,30.23,33.08,33.08,100.0,6.91,120.0,,17.0,,,,44.0,,,,1.75,,KIGQ 161635Z AUTO 12006KT 1 3/4SM -DZ OVC004 01/01 A3023 RMK AO2  T00060006,,,400.0,,,33.08,,ESE,29.57,29.79,,Light Drizzle
KIGQ,01/16/2017 16:55 UTC,30.22,33.8,33.8,100.0,4.61,130.0,,31.0,,,,44.0,,,,1.75,,KIGQ 161655Z AUTO 13004KT 1 3/4SM BR OVC004 01/01 A3022 RMK AO2  T00100010,,,400.0,,,33.8,,SE,29.56,29.76,,Mist
KIGQ,01/16/2017 17:15 UTC,30.21,33.98,33.98,100.0,3.44,140.0,,17.0,,,,44.0,,,,1.5,,KIGQ 161715Z AUTO 14003KT 1 1/2SM -DZ OVC004 01/01 A3021 RMK AO2  T00110011,,,400.0,,,33.98,,SE,29.55,29.74,,Light Drizzle
KIGQ,01/16/2017 17:35 UTC,30.19,34.16,34.16,100.0,4.61,120.0,,1.0,,,,44.0,,,,1.0,,KIGQ 161735Z AUTO 12004KT 1SM RA OVC004 01/01 A3019 RMK AO2  T00120012,,,400.0,,,34.16,,ESE,29.53,29.72,,Rain
KIGQ,01/16/2017 17:55 UTC,30.18,34.7,34.7,100.0,5.75,120.0,,31.0,,,,44.0,,0.02,,1.25,,KIGQ 161755Z AUTO 12005KT 1 1/4SM BR OVC004 02/02 A3018 RMK AO2  60002 T00150015 10015 20000,34.7,32.0,400.0,,,34.7,,ESE,29.52,29.7,,Mist
KIGQ,01/16/2017 18:15 UTC,30.16,34.7,34.7,100.0,5.75,120.0,,31.0,,,,44.0,,,,1.25,,KIGQ 161815Z AUTO 12005KT 1 1/4SM BR OVC004 02/02 A3016 RMK AO2  T00150015,,,400.0,,,34.7,,ESE,29.5,29.68,,Mist
KIGQ,01/16/2017 18:35 UTC,30.15,34.88,34.88,100.0,6.91,120.0,,17.0,,,,44.0,,,,1.25,,KIGQ 161835Z AUTO 12006KT 1 1/4SM -DZ OVC004 02/02 A3015 RMK AO2  T00160016,,,400.0,,,34.88,,ESE,29.49,29.66,,Light Drizzle
KIGQ,01/16/2017 18:55 UTC,30.14,34.88,34.88,100.0,5.75,120.0,,13.0,,,,44.0,,,,1.0,,KIGQ 161855Z AUTO 12005KT 1SM -RA OVC004 02/02 A3014 RMK AO2  T00160016,,,400.0,,,34.88,,ESE,29.48,29.65,,Light Rain
KIGQ,01/16/2017 19:15 UTC,30.13,34.88,34.88,100.0,5.75,110.0,,1.0,,0.01,,44.0,,,,1.0,,KIGQ 161915Z AUTO 11005KT 1SM RA OVC004 02/02 A3013 RMK AO2 P0001  T00160016,,,400.0,,,34.88,,ESE,29.47,29.64,,Rain
KIGQ,01/16/2017 19:35 UTC,30.11,35.06,35.06,100.0,5.75,100.0,,1.0,,0.02,,44.0,,,,1.0,,KIGQ 161935Z AUTO 10005KT 1SM RA OVC004 02/02 A3011 RMK AO2 P0002  T00170017,,,400.0,,,35.06,,E,29.46,29.63,,Rain
KIGQ,01/16/2017 19:55 UTC,30.1,34.88,34.88,100.0,6.91,90.0,,13.0,,0.05,,44.0,,,,1.0,,KIGQ 161955Z AUTO 09006KT 1SM -RA OVC004 02/02 A3010 RMK AO2 P0005  T00160016,,,400.0,,,34.88,,E,29.45,29.62,,Light Rain
KIGQ,01/16/2017 20:15 UTC,30.09,35.24,35.24,100.0,5.75,100.0,,13.0,,,,44.0,,,,1.75,,KIGQ 162015Z AUTO 10005KT 1 3/4SM -RA OVC004 02/02 A3009 RMK AO2  T00180018,,,400.0,,,35.24,,E,29.44,29.6,,Light Rain
KIGQ,01/16/2017 20:35 UTC,30.08,35.6,35.6,100.0,5.75,90.0,,13.0,,,,44.0,,,,2.0,,KIGQ 162035Z AUTO 09005KT 2SM -RA OVC004 02/02 A3008 RMK AO2  T00200020,,,400.0,,,35.6,,E,29.43,29.58,,Light Rain
KIGQ,01/16/2017 20:55 UTC,30.08,35.6,35.6,100.0,6.91,100.0,,13.0,,,0.05,44.0,,,,1.75,,KIGQ 162055Z AUTO 10006KT 1 3/4SM -RA OVC004 02/02 A3008 RMK AO2  60005 T00200020,,,400.0,,,35.6,,E,29.43,29.58,,Light Rain
KIGQ,01/16/2017 21:15 UTC,30.08,35.6,35.6,100.0,4.61,110.0,,13.0,,,,44.0,,,,1.5,,KIGQ 162115Z AUTO 11004KT 1 1/2SM -RA OVC004 02/02 A3008 RMK AO2  LTG DSNT SW T00200020,,,400.0,,,35.6,,ESE,29.43,29.58,,Light Rain
KIGQ,01/16/2017 21:35 UTC,30.08,35.6,35.6,100.0,6.91,110.0,,17.0,,,,44.0,,,,1.25,,KIGQ 162135Z AUTO 11006KT 1 1/4SM -DZ OVC004 02/02 A3008 RMK AO2  T00200020,,,400.0,,,35.6,,ESE,29.43,29.58,,Light Drizzle
KIGQ,01/16/2017 21:55 UTC,30.08,35.78,35.78,100.0,5.75,110.0,,13.0,,,,44.0,,,,0.75,,KIGQ 162155Z AUTO 11005KT 3/4SM -RA OVC004 02/02 A3008 RMK AO2  T00210021,,,400.0,,,35.78,,ESE,29.43,29.58,,Light Rain
KIGQ,01/16/2017 22:15 UTC,30.07,35.78,35.78,100.0,5.75,110.0,,9.0,,,,24.0,,,,0.5,,KIGQ 162215Z AUTO 11005KT 1/2SM FG OVC002 02/02 A3007 RMK AO2  T00210021,,,200.0,,,35.78,,ESE,29.42,29.57,,Fog
KIGQ,01/16/2017 22:35 UTC,30.06,35.78,35.78,100.0,6.91,110.0,,9.0,,,,24.0,,,,0.25,,KIGQ 162235Z AUTO 11006KT 1/4SM FG OVC002 02/02 A3006 RMK AO2  T00210021,,,200.0,,,35.78,,ESE,29.41,29.56,,Fog
KIGQ,01/16/2017 22:55 UTC,30.06,35.78,35.78,100.0,5.75,130.0,,9.0,,,,24.0,,,,0.5,,KIGQ 162255Z AUTO 13005KT 1/2SM FG OVC002 02/02 A3006 RMK AO2  T00210021,,,200.0,,,35.78,,SE,29.41,29.56,,Fog
KIGQ,01/16/2017 23:15 UTC,30.04,36.14,36.14,100.0,6.91,120.0,,9.0,,,,24.0,,,,0.5,,KIGQ 162315Z AUTO 12006KT 1/2SM FG OVC002 02/02 A3004 RMK AO2  T00230023,,,200.0,,,36.14,,ESE,29.39,29.53,,Fog
KIGQ,01/16/2017 23:35 UTC,30.04,36.5,36.5,100.0,5.75,120.0,,9.0,,,,24.0,,,,0.5,,KIGQ 162335Z AUTO 12005KT 1/2SM FG OVC002 03/03 A3004 RMK AO2 LTG  DSNT SW T00250025,,,200.0,,,36.5,,ESE,29.39,29.52,,Fog
KIGQ,01/16/2017 23:55 UTC,30.03,36.5,36.5,100.0,5.75,120.0,,9.0,,,,24.0,,0.05,,0.5,,KIGQ 162355Z AUTO 12005KT 1/2SM FG OVC002 03/03 A3003 RMK AO2  60005 T00250025 10026 20015,36.68,34.7,200.0,,,36.5,,ESE,29.38,29.51,,Fog
KIGQ,01/17/2017 00:15 UTC,30.03,37.4,37.4,100.0,5.75,130.0,,17.0,,,,24.0,,,,1.5,,KIGQ 170015Z AUTO 13005KT 1 1/2SM -DZ OVC002 03/03 A3003 RMK AO2  T00300030,,,200.0,,,37.4,,SE,29.38,29.48,,Light Drizzle
KIGQ,01/17/2017 00:35 UTC,30.02,37.58,37.58,100.0,5.75,120.0,,13.0,,,,24.0,,,,1.75,,KIGQ 170035Z AUTO 12005KT 1 3/4SM -RA OVC002 03/03 A3002 RMK AO2  LTG DSNT S AND SW T00310031,,,200.0,,,37.58,,ESE,29.37,29.47,,Light Rain
KIGQ,01/17/2017 00:55 UTC,30.01,37.58,37.58,100.0,5.75,120.0,,13.0,,,,24.0,,,,2.0,,KIGQ 170055Z AUTO 12005KT 2SM -RA OVC002 03/03 A3001 RMK AO2  T00310031,,,200.0,,,37.58,,ESE,29.36,29.46,,Light Rain
KIGQ,01/17/2017 01:15 UTC,29.99,37.58,37.58,100.0,4.61,110.0,,17.0,,,,24.0,,,,1.75,,KIGQ 170115Z AUTO 11004KT 1 3/4SM -DZ OVC002 03/03 A2999 RMK AO2  LTG DSNT S T00310031,,,200.0,,,37.58,,ESE,29.34,29.44,,Light Drizzle
KIGQ,01/17/2017 01:35 UTC,29.98,37.76,37.76,100.0,5.75,100.0,,31.0,,,,24.0,,,,1.75,,KIGQ 170135Z AUTO 10005KT 1 3/4SM BR OVC002 03/03 A2998 RMK AO2  T00320032,,,200.0,,,37.76,,E,29.33,29.42,,Mist
KIGQ,01/17/2017 01:55 UTC,29.97,37.94,37.94,100.0,5.75,120.0,,31.0,,,,24.0,,,,1.5,,KIGQ 170155Z AUTO 12005KT 1 1/2SM BR OVC002 03/03 A2997 RMK AO2  T00330033,,,200.0,,,37.94,,ESE,29.32,29.41,,Mist
KIGQ,01/17/2017 02:15 UTC,29.96,38.48,38.48,100.0,5.75,120.0,,2485.0,,,,24.0,,,,1.5,,KIGQ 170215Z AUTO 12005KT 1 1/2SM TS BR OVC002 04/04 A2996 RMK AO2  T00360036,,,200.0,,,38.48,,ESE,29.31,29.38,,Thunder,Mist
KIGQ,01/17/2017 02:35 UTC,29.97,38.66,38.66,100.0,0.0,0.0,,1.0,,,,24.0,,,,1.5,,KIGQ 170235Z AUTO 00000KT 1 1/2SM RA OVC002 04/04 A2997 RMK AO2  T00370037,,,200.0,,,38.66,,N,29.32,29.39,,Rain
KIGQ,01/17/2017 02:55 UTC,29.94,38.48,38.48,100.0,6.91,120.0,,14.0,,0.05,0.05,24.0,,,,1.0,,KIGQ 170255Z AUTO 12006KT 1SM +RA OVC002 04/04 A2994 RMK AO2 P0005  60005 T00360036,,,200.0,,,38.48,,ESE,29.29,29.36,,Heavy Rain
KIGQ,01/17/2017 03:15 UTC,29.93,39.38,39.38,100.0,4.61,130.0,,13.0,,0.05,,24.0,,,,1.75,,KIGQ 170315Z AUTO 13004KT 1 3/4SM -RA OVC002 04/04 A2993 RMK AO2  LTG DSNT S P0005 T00410041,,,200.0,,,39.38,,SE,29.28,29.32,,Light Rain
KIGQ,01/17/2017 03:35 UTC,29.92,40.1,40.1,100.0,6.91,130.0,,13.0,,0.06,,24.0,,,,4.0,,KIGQ 170335Z AUTO 13006KT 4SM -RA OVC002 05/05 A2992 RMK AO2 P0006  T00450045,,,200.0,,,40.1,,SE,29.27,29.29,,Light Rain
KIGQ,01/17/2017 03:55 UTC,29.91,40.28,40.28,100.0,6.91,130.0,,17.0,,0.06,,43.0,144.0,,,5.0,,KIGQ 170355Z AUTO 13006KT 5SM -DZ BKN004 OVC014 05/05 A2991 RMK AO2 LTG DSNT S P0006 T00460046,,,400.0,,,40.28,,SE,29.26,29.28,,Light Drizzle
KIGQ,01/17/2017 04:15 UTC,29.9,40.82,40.82,100.0,8.05,130.0,,2.0,,,,42.0,124.0,,,4.0,,KIGQ 170415Z AUTO 13007KT 4SM DZ SCT004 OVC012 05/05 A2990 RMK AO2  LTG DSNT S T00490049,,,1200.0,,,40.82,37.44,SE,29.25,29.25,,Drizzle
KIGQ,01/17/2017 04:35 UTC,29.88,41.36,41.36,100.0,6.91,140.0,,1.0,,,,43.0,104.0,,,5.0,,KIGQ 170435Z AUTO 14006KT 5SM RA BKN004 OVC010 05/05 A2988 RMK AO2  T00520052,,,400.0,,,41.36,,SE,29.23,29.21,,Rain
KIGQ,01/17/2017 04:55 UTC,29.86,41.54,41.54,100.0,8.05,130.0,,,,,,44.0,,,,7.0,,KIGQ 170455Z AUTO 13007KT 7SM OVC004 05/05 A2986 RMK AO2  T00530053,,,400.0,,,41.54,38.28,SE,29.21,29.19,,Overcast
KIGQ,01/17/2017 05:15 UTC,29.85,41.54,41.54,100.0,5.75,140.0,,1.0,,,,24.0,,,,2.5,,KIGQ 170515Z AUTO 14005KT 2 1/2SM RA OVC002 05/05 A2985 RMK AO2  T00530053,,,200.0,,,41.54,,SE,29.2,29.18,,Rain
KIGQ,01/17/2017 05:35 UTC,29.84,42.08,42.08,100.0,5.75,140.0,,2.0,,,,24.0,,,,2.0,,KIGQ 170535Z AUTO 14005KT 2SM DZ OVC002 06/06 A2984 RMK AO2 LTG  DSNT SW AND W T00560056,,,200.0,,,42.08,,SE,29.19,29.15,,Drizzle
KIGQ,01/17/2017 05:55 UTC,29.82,41.9,41.9,100.0,5.75,110.0,,2.0,,,,24.0,,0.11,,2.0,,KIGQ 170555Z AUTO 11005KT 2SM DZ OVC002 06/06 A2982 RMK AO2 LTG  DSNT W 60011 T00550055 10056 20025 400561005,42.08,36.5,200.0,42.08,31.1,41.9,,ESE,29.17,29.13,,Drizzle
KIGQ,01/17/2017 06:15 UTC,29.81,42.08,42.08,100.0,6.91,130.0,,31.0,,,,24.0,,,,1.75,,KIGQ 170615Z AUTO 13006KT 1 3/4SM BR OVC002 06/06 A2981 RMK AO2  LTG DSNT W T00560056,,,200.0,,,42.08,,SE,29.16,29.12,,Mist
KIGQ,01/17/2017 06:35 UTC,29.79,43.7,43.7,100.0,5.75,140.0,,,,,,24.0,,,,1.0,,KIGQ 170635Z AUTO 14005KT 1SM -VCTSRA OVC002 07/07 A2979 RMK AO2  LTG DSNT W T00650065,,,200.0,,,43.7,,SE,29.14,29.04,,Overcast
KIGQ,01/17/2017 06:55 UTC,29.77,46.22,46.22,100.0,9.22,140.0,,13.0,,,,24.0,,,,1.75,,KIGQ 170655Z AUTO 14008KT 1 3/4SM -RA OVC002 08/08 A2977 RMK AO2  LTG DSNT W T00790079,,,200.0,,,46.22,,SE,29.12,28.93,,Light Rain
KIGQ,01/17/2017 07:15 UTC,29.74,46.22,46.22,100.0,12.66,140.0,,,,,,24.0,,,,1.5,,KIGQ 170715Z AUTO 14011KT 1 1/2SM -VCTSRA OVC002 08/08 A2974 RMK AO2 LTG DSNT W AND NW T00790079,,,200.0,,,46.22,,SE,29.09,28.9,,Overcast
KIGQ,01/17/2017 07:35 UTC,29.74,47.3,47.3,100.0,11.5,150.0,17.27,78.0,,0.04,,24.0,,,,1.0,,KIGQ 170735Z AUTO 15010G15KT 1SM +TSRA OVC002 09/09 A2974 RMK AO2  LTG DSNT S THRU NW P0004 T00850085,,,200.0,,,47.3,,SSE,29.09,28.86,,Heavy Rain/Thunderstorm
KIGQ,01/17/2017 07:55 UTC,29.75,48.2,48.2,100.0,11.5,180.0,18.41,78.0,,0.09,,24.0,,,,2.5,,KIGQ 170755Z AUTO 18010G16KT 2 1/2SM +TSRA OVC002 09/09 A2975 RMK AO2 VIS 2V5 LTG DSNT ALQS P0009 T00900090,,,200.0,,,48.2,,S,29.1,28.83,,Heavy Rain/Thunderstorm
KIGQ,01/17/2017 08:15 UTC,29.75,48.2,48.2,100.0,11.5,190.0,18.41,66.0,,0.07,,44.0,,,,4.0,,KIGQ 170815Z AUTO 19010G16KT 4SM TSRA OVC004 09/09 A2975 RMK AO2  LTG DSNT N THRU E P0007 T00900090,,,400.0,,,48.2,,S,29.1,28.83,,Thunderstorm
KIGQ,01/17/2017 08:35 UTC,29.74,48.2,48.2,100.0,6.91,220.0,,,,0.13,,63.0,154.0,,,4.0,,KIGQ 170835Z AUTO 22006KT 4SM +VCTSRA BKN006 OVC015 09/09  A2974 RMK AO2 LTG DSNT NE THRU SE P0013 T00900090,,,600.0,,,48.2,,SW,29.09,28.82,,Overcast
KIGQ,01/17/2017 08:55 UTC,29.74,49.64,49.64,100.0,14.97,220.0,21.85,,,0.15,0.26,64.0,,,,5.0,,KIGQ 170855Z AUTO 22013G19KT 5SM -VCTSRA OVC006 10/10 A2974 RMK AO2 LTG DSNT N THRU E P0015 60026 T00980098,,,600.0,,,49.64,,SW,29.09,28.76,,Overcast
KIGQ,01/17/2017 09:15 UTC,29.74,49.1,49.1,100.0,11.5,220.0,,,,,,64.0,,,,7.0,,KIGQ 170915Z AUTO 22010KT 7SM OVC006 10/10 A2974 RMK AO2 LTG DSNT  NE AND E T00950095,,,600.0,,,49.1,,SW,29.09,28.78,,Overcast
KIGQ,01/17/2017 09:35 UTC,29.73,48.74,48.74,100.0,10.36,230.0,,,,,,44.0,,,,7.0,,KIGQ 170935Z AUTO 23009KT 7SM OVC004 09/09 A2973 RMK AO2 LTG DSNT  NE AND E T00930093,,,400.0,,,48.74,,SW,29.08,28.79,,Overcast
KIGQ,01/17/2017 09:55 UTC,29.73,48.2,48.2,100.0,9.22,240.0,,,,,,64.0,,,,7.0,,KIGQ 170955Z AUTO 24008KT 7SM OVC006 09/09 A2973 RMK AO2 LTG DSNT  NE AND E T00900090,,,600.0,,,48.2,,WSW,29.08,28.81,,Overcast
KIGQ,01/17/2017 10:15 UTC,29.74,47.48,47.48,100.0,12.66,250.0,19.57,31.0,,,,44.0,,,,4.0,,KIGQ 171015Z AUTO 25011G17KT 4SM BR OVC004 09/09 A2974 RMK AO2 LTG  DSNT NE AND E T00860086,,,400.0,,,47.48,,WSW,29.09,28.85,,Mist
KIGQ,01/17/2017 10:35 UTC,29.74,45.68,45.68,100.0,12.66,250.0,21.85,31.0,,,,44.0,,,,5.0,,KIGQ 171035Z AUTO 25011G19KT 5SM BR OVC004 08/08 A2974 RMK AO2  T00760076,,,400.0,,,45.68,,WSW,29.09,28.92,,Mist
KIGQ,01/17/2017 10:55 UTC,29.74,44.6,44.6,100.0,13.8,250.0,,31.0,,,,24.0,,,,3.0,,KIGQ 171055Z AUTO 25012KT 3SM BR OVC002 07/07 A2974 RMK AO2 LTG  DSNT E T00700070,,,200.0,,,44.6,39.93,WSW,29.09,28.96,,Mist
KIGQ,01/17/2017 11:15 UTC,29.76,43.16,43.16,100.0,14.97,250.0,,31.0,,,,24.0,,,,1.75,,KIGQ 171115Z AUTO 25013KT 1 3/4SM BR OVC002 06/06 A2976 RMK AO2  LTG DSNT E T00620062,,,200.0,,,43.16,37.85,WSW,29.11,29.03,,Mist
KIGQ,01/17/2017 11:35 UTC,29.77,41.9,41.9,100.0,16.11,260.0,,31.0,,,,24.0,,,,2.0,,KIGQ 171135Z AUTO 26014KT 2SM BR OVC002 06/06 A2977 RMK AO2  T00550055,,,200.0,,,41.9,35.99,W,29.12,29.08,,Mist
KIGQ,01/17/2017 11:55 UTC,29.78,41.36,41.36,100.0,16.11,260.0,23.02,31.0,,,,24.0,,0.26,0.44,5.0,,KIGQ 171155Z AUTO 26014G20KT 5SM BR OVC002 05/05 A2978 RMK AO2 LTG  DSNT E 60026 70044 T00520052 10100 20052,50.0,41.36,200.0,,,41.36,35.33,W,29.13,29.11,,Mist
KIGQ,01/17/2017 12:15 UTC,29.78,40.64,40.64,100.0,16.11,260.0,20.71,31.0,,,,24.0,,,,5.0,,KIGQ 171215Z AUTO 26014G18KT 5SM BR OVC002 05/05 A2978 RMK AO2  T00480048,,,200.0,,,40.64,34.43,W,29.13,29.13,,Mist
KIGQ,01/17/2017 12:35 UTC,29.79,40.1,40.1,100.0,14.97,250.0,,,,,,24.0,,,,7.0,,KIGQ 171235Z AUTO 25013KT 7SM OVC002 05/05 A2979 RMK AO2  T00450045,,,200.0,,,40.1,34.08,WSW,29.14,29.16,,Overcast
KIGQ,01/17/2017 12:55 UTC,29.8,39.2,39.2,100.0,13.8,250.0,20.71,,,,,24.0,,,,7.0,,KIGQ 171255Z AUTO 25012G18KT 7SM OVC002 04/04 A2980 RMK AO2  T00400040,,,200.0,,,39.2,33.32,WSW,29.15,29.2,,Overcast
KIGQ,01/17/2017 13:15 UTC,29.81,38.66,38.66,100.0,12.66,260.0,,,,,,24.0,,,,10.0,,KIGQ 171315Z AUTO 26011KT 10SM OVC002 04/04 A2981 RMK AO2  T00370037,,,200.0,,,38.66,33.03,W,29.16,29.22,,Overcast
KIGQ,01/17/2017 13:35 UTC,29.83,38.48,38.48,100.0,14.97,250.0,20.71,,,,,24.0,,,,10.0,,KIGQ 171335Z AUTO 25013G18KT 10SM OVC002 04/04 A2983 RMK AO2  T00360036,,,200.0,,,38.48,32.08,WSW,29.18,29.25,,Overcast
KIGQ,01/17/2017 13:55 UTC,29.83,38.3,38.3,100.0,12.66,260.0,19.57,,,,,44.0,,,,10.0,,KIGQ 171355Z AUTO 26011G17KT 10SM OVC004 04/04 A2983 RMK AO2  T00350035,,,400.0,,,38.3,32.59,W,29.18,29.25,,Overcast
KIGQ,01/17/2017 14:15 UTC,29.84,38.3,38.3,100.0,12.66,250.0,19.57,,,,,44.0,,,,10.0,,KIGQ 171415Z AUTO 25011G17KT 10SM OVC004 04/04 A2984 RMK AO2  T00350035,,,400.0,,,38.3,32.59,WSW,29.19,29.26,,Overcast
KIGQ,01/17/2017 14:35 UTC,29.85,38.3,38.3,100.0,11.5,250.0,,,,,,44.0,,,,10.0,,KIGQ 171435Z AUTO 25010KT 10SM OVC004 04/04 A2985 RMK AO2  T00350035,,,400.0,,,38.3,33.0,WSW,29.2,29.27,,Overcast
KIGQ,01/17/2017 14:55 UTC,29.85,38.3,38.3,100.0,9.22,270.0,,,,,,44.0,,,,10.0,,KIGQ 171455Z AUTO 27008KT 250V310 10SM OVC004 04/04 A2985 RMK AO2  T00350035,,,400.0,,,38.3,33.93,W,29.2,29.27,,Overcast
KIGQ,01/17/2017 15:15 UTC,29.86,38.3,38.3,100.0,11.5,260.0,,,,,,44.0,,,,10.0,,KIGQ 171515Z AUTO 26010KT 240V320 10SM OVC004 04/04 A2986 RMK AO2  T00350035,,,400.0,,,38.3,33.0,W,29.21,29.28,,Overcast
KIGQ,01/17/2017 15:35 UTC,29.87,38.3,38.3,100.0,10.36,260.0,16.11,,,,,44.0,,,,10.0,,KIGQ 171535Z AUTO 26009G14KT 10SM OVC004 04/04 A2987 RMK AO2  T00350035,,,400.0,,,38.3,33.44,W,29.22,29.3,,Overcast
KIGQ,01/17/2017 15:55 UTC,29.87,38.48,38.48,100.0,11.5,250.0,,,,,,44.0,,,,10.0,,KIGQ 171555Z AUTO 25010KT 10SM OVC004 04/04 A2987 RMK AO2  T00360036,,,400.0,,,38.48,33.22,WSW,29.22,29.29,,Overcast
KIGQ,01/17/2017 16:15 UTC,29.88,38.48,38.48,100.0,10.36,250.0,,,,,,44.0,,,,10.0,,KIGQ 171615Z AUTO 25009KT 10SM OVC004 04/04 A2988 RMK AO2  T00360036,,,400.0,,,38.48,33.66,WSW,29.23,29.3,,Overcast
KIGQ,01/17/2017 16:35 UTC,29.88,37.94,37.94,100.0,10.36,240.0,,,,,,44.0,,,,10.0,,KIGQ 171635Z AUTO 24009KT 10SM OVC004 03/03 A2988 RMK AO2  T00330033,,,400.0,,,37.94,33.01,WSW,29.23,29.32,,Overcast
KIGQ,01/17/2017 16:55 UTC,29.88,37.94,37.94,100.0,14.97,250.0,19.57,,,,,44.0,,,,10.0,,KIGQ 171655Z AUTO 25013G17KT 10SM OVC004 03/03 A2988 RMK AO2  T00330033,,,400.0,,,37.94,31.42,WSW,29.23,29.32,,Overcast
KIGQ,01/17/2017 17:15 UTC,29.88,37.76,37.76,100.0,14.97,250.0,19.57,,,,,44.0,,,,10.0,,KIGQ 171715Z AUTO 25013G17KT 10SM OVC004 03/03 A2988 RMK AO2  T00320032,,,400.0,,,37.76,31.19,WSW,29.23,29.32,,Overcast
KIGQ,01/17/2017 17:35 UTC,29.87,37.76,37.76,100.0,11.5,260.0,17.27,,,,,64.0,,,,10.0,,KIGQ 171735Z AUTO 26010G15KT 10SM OVC006 03/03 A2987 RMK AO2  T00320032,,,600.0,,,37.76,32.35,W,29.22,29.31,,Overcast
KIGQ,01/17/2017 17:55 UTC,29.86,37.94,37.94,100.0,12.66,260.0,,,,,,64.0,,,,10.0,,KIGQ 171755Z AUTO 26011KT 10SM OVC006 03/03 A2986 RMK AO2  T00330033 10052 20032,41.36,37.76,600.0,,,37.94,32.15,W,29.21,29.29,,Overcast
KIGQ,01/17/2017 18:15 UTC,29.86,37.94,37.94,100.0,11.5,260.0,,,,,,64.0,,,,10.0,,KIGQ 171815Z AUTO 26010KT 10SM OVC006 03/03 A2986 RMK AO2  T00330033,,,600.0,,,37.94,32.57,W,29.21,29.29,,Overcast
KIGQ,01/17/2017 18:35 UTC,29.87,37.94,37.94,100.0,11.5,260.0,,,,,,64.0,,,,10.0,,KIGQ 171835Z AUTO 26010KT 10SM OVC006 03/03 A2987 RMK AO2  T00330033,,,600.0,,,37.94,32.57,W,29.22,29.31,,Overcast
KIGQ,01/17/2017 18:55 UTC,29.88,37.58,37.58,100.0,12.66,260.0,,,,,,64.0,,,,7.0,,KIGQ 171855Z AUTO 26011KT 7SM OVC006 03/03 A2988 RMK AO2  T00310031,,,600.0,,,37.58,31.72,W,29.23,29.33,,Overcast
KIGQ,01/17/2017 19:15 UTC,29.88,37.58,37.58,100.0,11.5,260.0,17.27,,,,,64.0,,,,10.0,,KIGQ 171915Z AUTO 26010G15KT 10SM OVC006 03/03 A2988 RMK AO2  T00310031,,,600.0,,,37.58,32.13,W,29.23,29.33,,Overcast
KIGQ,01/17/2017 19:35 UTC,29.89,37.58,37.58,100.0,9.22,250.0,,,,,,64.0,,,,7.0,,KIGQ 171935Z AUTO 25008KT 7SM OVC006 03/03 A2989 RMK AO2  T00310031,,,600.0,,,37.58,33.07,WSW,29.24,29.34,,Overcast
KIGQ,01/17/2017 19:55 UTC,29.89,37.76,37.76,100.0,12.66,250.0,,,,,,64.0,,,,7.0,,KIGQ 171955Z AUTO 25011KT 7SM OVC006 03/03 A2989 RMK AO2  T00320032,,,600.0,,,37.76,31.94,WSW,29.24,29.33,,Overcast
KIGQ,01/17/2017 20:15 UTC,29.89,37.58,37.58,100.0,10.36,250.0,17.27,31.0,,,,64.0,,,,5.0,,KIGQ 172015Z AUTO 25009G15KT 5SM BR OVC006 03/03 A2989 RMK AO2  T00310031,,,600.0,,,37.58,32.58,WSW,29.24,29.34,,Mist
KIGQ,01/17/2017 20:35 UTC,29.9,37.4,37.4,100.0,13.8,260.0,17.27,31.0,,,,44.0,,,,5.0,,KIGQ 172035Z AUTO 26012G15KT 5SM BR OVC004 03/03 A2990 RMK AO2  T00300030,,,400.0,,,37.4,31.12,W,29.25,29.35,,Mist
KIGQ,01/17/2017 20:55 UTC,29.91,37.4,37.4,100.0,9.22,270.0,19.57,,,,,44.0,,,,7.0,,KIGQ 172055Z AUTO 27008G17KT 7SM OVC004 03/03 A2991 RMK AO2  T00300030,,,400.0,,,37.4,32.86,W,29.26,29.36,,Overcast
KIGQ,01/17/2017 21:15 UTC,29.91,37.04,37.04,100.0,11.5,260.0,19.57,,,,,44.0,,,,7.0,,KIGQ 172115Z AUTO 26010G17KT 7SM OVC004 03/03 A2991 RMK AO2  T00280028,,,400.0,,,37.04,31.48,W,29.26,29.37,,Overcast
KIGQ,01/17/2017 21:35 UTC,29.92,37.04,37.04,100.0,10.36,240.0,16.11,31.0,,,,44.0,,,,5.0,,KIGQ 172135Z AUTO 24009G14KT 5SM BR OVC004 03/03 A2992 RMK AO2  T00280028,,,400.0,,,37.04,31.93,WSW,29.27,29.38,,Mist
KIGQ,01/17/2017 21:55 UTC,29.93,36.68,36.68,100.0,11.5,240.0,,31.0,,,,44.0,,,,5.0,,KIGQ 172155Z AUTO 24010KT 5SM BR OVC004 03/03 A2993 RMK AO2  T00260026,,,400.0,,,36.68,31.05,WSW,29.28,29.4,,Mist
KIGQ,01/17/2017 22:15 UTC,29.94,36.5,36.5,100.0,12.66,260.0,18.41,31.0,,,,64.0,,,,3.0,,KIGQ 172215Z AUTO 26011G16KT 3SM BR OVC006 03/03 A2994 RMK AO2  T00250025,,,600.0,,,36.5,30.4,W,29.29,29.42,,Mist
KIGQ,01/17/2017 22:35 UTC,29.95,36.14,36.14,100.0,10.36,250.0,,17.0,,,,64.0,,,,2.0,,KIGQ 172235Z AUTO 25009KT 2SM -DZ OVC006 02/02 A2995 RMK AO2  T00230023,,,600.0,,,36.14,30.86,WSW,29.3,29.44,,Light Drizzle
KIGQ,01/17/2017 22:55 UTC,29.96,35.96,35.96,100.0,14.97,260.0,20.71,31.0,,,,64.0,,,,4.0,,KIGQ 172255Z AUTO 26013G18KT 4SM BR OVC006 02/02 A2996 RMK AO2  T00220022,,,600.0,,,35.96,28.98,W,29.31,29.45,,Mist
KIGQ,01/17/2017 23:15 UTC,29.96,35.78,35.78,100.0,10.36,260.0,,,,,,64.0,,,,7.0,,KIGQ 172315Z AUTO 26009KT 7SM OVC006 02/02 A2996 RMK AO2  T00210021,,,600.0,,,35.78,30.43,W,29.31,29.45,,Overcast
KIGQ,01/17/2017 23:35 UTC,29.97,35.96,35.96,100.0,13.8,260.0,,,,,,64.0,,,,10.0,,KIGQ 172335Z AUTO 26012KT 10SM OVC006 02/02 A2997 RMK AO2  T00220022,,,600.0,,,35.96,29.35,W,29.32,29.46,,Overcast
KIGQ,01/17/2017 23:55 UTC,29.97,35.78,35.78,100.0,13.8,270.0,,,,,,64.0,,,,7.0,,KIGQ 172355Z AUTO 27012KT 7SM OVC006 02/02 A2997 RMK AO2 T00210021  10035 20021,38.3,35.78,600.0,,,35.78,29.13,W,29.32,29.47,,Overcast
KIGQ,01/18/2017 00:15 UTC,29.98,35.78,35.78,100.0,14.97,260.0,,31.0,,,,64.0,,,,5.0,,KIGQ 180015Z AUTO 26013KT 5SM BR OVC006 02/02 A2998 RMK AO2  T00210021,,,600.0,,,35.78,28.75,W,29.33,29.48,,Mist
KIGQ,01/18/2017 00:35 UTC,29.99,35.6,35.6,100.0,11.5,260.0,21.85,,,,,84.0,,,,7.0,,KIGQ 180035Z AUTO 26010G19KT 7SM OVC008 02/02 A2999 RMK AO2  T00200020,,,800.0,,,35.6,29.74,W,29.34,29.49,,Overcast
KIGQ,01/18/2017 00:55 UTC,29.99,35.6,35.6,100.0,13.8,260.0,,31.0,,,,84.0,,,,4.0,,KIGQ 180055Z AUTO 26012KT 4SM BR OVC008 02/02 A2999 RMK AO2  T00200020,,,800.0,,,35.6,28.91,W,29.34,29.49,,Mist
KIGQ,01/18/2017 01:15 UTC,30.0,35.24,35.24,100.0,11.5,250.0,,31.0,,,,84.0,,,,4.0,,KIGQ 180115Z AUTO 25010KT 4SM BR OVC008 02/02 A3000 RMK AO2  T00180018,,,800.0,,,35.24,29.31,WSW,29.35,29.51,,Mist
KIGQ,01/18/2017 01:35 UTC,30.0,35.06,35.06,100.0,10.36,250.0,16.11,31.0,,,,64.0,,,,3.0,,KIGQ 180135Z AUTO 25009G14KT 3SM BR OVC006 02/02 A3000 RMK AO2  T00170017,,,600.0,,,35.06,29.56,WSW,29.35,29.51,,Mist
KIGQ,01/18/2017 01:55 UTC,30.0,35.06,35.06,100.0,11.5,250.0,,,,,,64.0,,,,7.0,,KIGQ 180155Z AUTO 25010KT 7SM OVC006 02/02 A3000 RMK AO2  T00170017,,,600.0,,,35.06,29.09,WSW,29.35,29.51,,Overcast
KIGQ,01/18/2017 02:15 UTC,30.01,34.88,34.88,100.0,9.22,260.0,,31.0,,,,64.0,,,,5.0,,KIGQ 180215Z AUTO 26008KT 5SM BR OVC006 02/02 A3001 RMK AO2  T00160016,,,600.0,,,34.88,29.87,W,29.36,29.53,,Mist
KIGQ,01/18/2017 02:35 UTC,30.01,34.88,34.88,100.0,12.66,260.0,16.11,31.0,,,,64.0,,,,4.0,,KIGQ 180235Z AUTO 26011G14KT 4SM BR OVC006 02/02 A3001 RMK AO2  T00160016,,,600.0,,,34.88,28.43,W,29.36,29.53,,Mist
KIGQ,01/18/2017 02:55 UTC,30.01,34.7,34.7,100.0,10.36,250.0,,31.0,,,,64.0,,,,3.0,,KIGQ 180255Z AUTO 25009KT 3SM BR OVC006 02/02 A3001 RMK AO2  T00150015,,,600.0,,,34.7,29.13,WSW,29.36,29.53,,Mist
KIGQ,01/18/2017 03:15 UTC,30.01,34.7,34.7,100.0,11.5,260.0,,31.0,,,,64.0,,,,3.0,,KIGQ 180315Z AUTO 26010KT 3SM BR OVC006 02/02 A3001 RMK AO2  T00150015,,,600.0,,,34.7,28.66,W,29.36,29.53,,Mist
KIGQ,01/18/2017 03:35 UTC,30.01,34.7,34.7,100.0,9.22,260.0,,31.0,,,,64.0,,,,4.0,,KIGQ 180335Z AUTO 26008KT 4SM BR OVC006 02/02 A3001 RMK AO2  T00150015,,,600.0,,,34.7,29.65,W,29.36,29.53,,Mist
KIGQ,01/18/2017 03:55 UTC,30.01,34.52,34.52,100.0,10.36,260.0,,31.0,,,,64.0,,,,4.0,,KIGQ 180355Z AUTO 26009KT 4SM BR OVC006 01/01 A3001 RMK AO2  T00140014,,,600.0,,,34.52,28.92,W,29.36,29.54,,Mist
KIGQ,01/18/2017 04:15 UTC,30.01,34.7,34.7,100.0,11.5,270.0,17.27,,,,,64.0,,,,7.0,,KIGQ 180415Z AUTO 27010G15KT 7SM OVC006 02/02 A3001 RMK AO2  T00150015,,,600.0,,,34.7,28.66,W,29.36,29.53,,Overcast
KIGQ,01/18/2017 04:35 UTC,30.02,34.7,34.7,100.0,11.5,270.0,17.27,,,,,64.0,,,,7.0,,KIGQ 180435Z AUTO 27010G15KT 7SM OVC006 02/02 A3002 RMK AO2  T00150015,,,600.0,,,34.7,28.66,W,29.37,29.54,,Overcast
KIGQ,01/18/2017 04:55 UTC,30.01,34.7,34.7,100.0,11.5,270.0,,31.0,,,,64.0,,,,4.0,,KIGQ 180455Z AUTO 27010KT 4SM BR OVC006 02/02 A3001 RMK AO2  T00150015,,,600.0,,,34.7,28.66,W,29.36,29.53,,Mist
KIGQ,01/18/2017 05:15 UTC,30.02,34.16,34.16,100.0,9.22,270.0,,31.0,,,,64.0,,,,4.0,,KIGQ 180515Z AUTO 27008KT 4SM BR OVC006 01/01 A3002 RMK AO2  T00120012,,,600.0,,,34.16,29.01,W,29.37,29.56,,Mist
KIGQ,01/18/2017 05:35 UTC,30.02,34.34,34.34,100.0,12.66,280.0,17.27,31.0,,,,64.0,,,,5.0,,KIGQ 180535Z AUTO 28011G15KT 5SM BR OVC006 01/01 A3002 RMK AO2  T00130013,,,600.0,,,34.34,27.78,W,29.37,29.55,,Mist
KIGQ,01/18/2017 05:55 UTC,30.02,34.34,34.34,100.0,11.5,280.0,,31.0,,,,64.0,,,,5.0,,KIGQ 180555Z AUTO 28010KT 5SM BR OVC006 01/01 A3002 RMK AO2  T00130013 10021 20012 401000012,35.78,34.16,600.0,50.0,34.16,34.34,28.22,W,29.37,29.55,,Mist
KIGQ,01/18/2017 06:15 UTC,30.03,34.34,34.34,100.0,14.97,280.0,20.71,31.0,,,,64.0,,,,4.0,,KIGQ 180615Z AUTO 28013G18KT 4SM BR OVC006 01/01 A3003 RMK AO2  T00130013,,,600.0,,,34.34,26.98,W,29.38,29.56,,Mist
KIGQ,01/18/2017 06:35 UTC,30.03,34.34,34.16,100.0,11.5,280.0,,31.0,,,,64.0,,,,5.0,,KIGQ 180635Z AUTO 28010KT 5SM BR OVC006 01/01 A3003 RMK AO2  T00130012,,,600.0,,,34.34,28.22,W,29.38,29.56,,Mist
KIGQ,01/18/2017 06:55 UTC,30.04,34.34,33.98,100.0,8.05,270.0,,31.0,,,,84.0,,,,5.0,,KIGQ 180655Z AUTO 27007KT 5SM BR OVC008 01/01 A3004 RMK AO2  T00130011,,,800.0,,,34.34,29.82,W,29.39,29.57,,Mist
KIGQ,01/18/2017 07:15 UTC,30.05,34.16,33.98,100.0,6.91,260.0,,31.0,,,,84.0,,,,5.0,,KIGQ 180715Z AUTO 26006KT 5SM BR OVC008 01/01 A3005 RMK AO2  T00120011,,,800.0,,,34.16,,W,29.4,29.59,,Mist
KIGQ,01/18/2017 07:35 UTC,30.06,34.16,33.98,100.0,10.36,260.0,16.11,31.0,,,,84.0,,,,5.0,,KIGQ 180735Z AUTO 26009G14KT 5SM BR OVC008 01/01 A3006 RMK AO2  T00120011,,,800.0,,,34.16,28.49,W,29.41,29.6,,Mist
KIGQ,01/18/2017 07:55 UTC,30.07,33.98,33.98,100.0,12.66,260.0,17.27,31.0,,,,64.0,,,,4.0,,KIGQ 180755Z AUTO 26011G15KT 4SM BR OVC006 01/01 A3007 RMK AO2  T00110011,,,600.0,,,33.98,27.34,W,29.42,29.61,,Mist
KIGQ,01/18/2017 08:15 UTC,30.08,33.98,33.98,100.0,11.5,260.0,,31.0,,,,64.0,,,,4.0,,KIGQ 180815Z AUTO 26010KT 4SM BR OVC006 01/01 A3008 RMK AO2  T00110011,,,600.0,,,33.98,27.79,W,29.43,29.62,,Mist
KIGQ,01/18/2017 08:35 UTC,30.07,33.8,33.8,100.0,10.36,250.0,,31.0,,,,64.0,,,,4.0,,KIGQ 180835Z AUTO 25009KT 4SM BR OVC006 01/01 A3007 RMK AO2  T00100010,,,600.0,,,33.8,28.06,WSW,29.42,29.62,,Mist
KIGQ,01/18/2017 08:55 UTC,30.08,33.8,33.8,100.0,10.36,250.0,,31.0,,,,64.0,,,,4.0,,KIGQ 180855Z AUTO 25009KT 4SM BR OVC006 01/01 A3008 RMK AO2  T00100010,,,600.0,,,33.8,28.06,WSW,29.43,29.63,,Mist
KIGQ,01/18/2017 09:15 UTC,30.09,33.8,33.8,100.0,10.36,260.0,,31.0,,,,64.0,,,,3.0,,KIGQ 180915Z AUTO 26009KT 3SM BR OVC006 01/01 A3009 RMK AO2  T00100010,,,600.0,,,33.8,28.06,W,29.44,29.64,,Mist
KIGQ,01/18/2017 09:35 UTC,30.09,33.8,33.8,100.0,10.36,260.0,,31.0,,,,64.0,,,,2.5,,KIGQ 180935Z AUTO 26009KT 2 1/2SM BR OVC006 01/01 A3009 RMK AO2  T00100010,,,600.0,,,33.8,28.06,W,29.44,29.64,,Mist
KIGQ,01/18/2017 09:55 UTC,30.1,33.8,33.8,100.0,11.5,260.0,16.11,31.0,,,,44.0,,,,3.0,,KIGQ 180955Z AUTO 26010G14KT 3SM BR OVC004 01/01 A3010 RMK AO2  T00100010,,,400.0,,,33.8,27.57,W,29.45,29.65,,Mist
KIGQ,01/18/2017 10:15 UTC,30.1,33.8,33.8,100.0,11.5,260.0,,31.0,,,,44.0,,,,3.0,,KIGQ 181015Z AUTO 26010KT 3SM BR OVC004 01/01 A3010 RMK AO2  T00100010,,,400.0,,,33.8,27.57,W,29.45,29.65,,Mist
KIGQ,01/18/2017 10:35 UTC,30.11,33.8,33.8,100.0,10.36,260.0,,31.0,,,,44.0,,,,2.5,,KIGQ 181035Z AUTO 26009KT 2 1/2SM BR OVC004 01/01 A3011 RMK AO2  T00100010,,,400.0,,,33.8,28.06,W,29.46,29.66,,Mist
KIGQ,01/18/2017 10:55 UTC,30.11,33.8,33.8,100.0,9.22,260.0,,31.0,,,,44.0,,,,3.0,,KIGQ 181055Z AUTO 26008KT 3SM BR OVC004 01/01 A3011 RMK AO2  T00100010,,,400.0,,,33.8,28.59,W,29.46,29.66,,Mist
KIGQ,01/18/2017 11:15 UTC,30.11,33.8,33.8,100.0,8.05,270.0,,31.0,,,,44.0,,,,2.5,,KIGQ 181115Z AUTO 27007KT 2 1/2SM BR OVC004 01/01 A3011 RMK AO2  T00100010,,,400.0,,,33.8,29.19,W,29.46,29.66,,Mist
KIGQ,01/18/2017 11:35 UTC,30.11,33.62,33.62,100.0,10.36,270.0,,31.0,,,,44.0,,,,2.0,,KIGQ 181135Z AUTO 27009KT 2SM BR OVC004 01/01 A3011 RMK AO2  T00090009,,,400.0,,,33.62,27.84,W,29.46,29.66,,Mist
KIGQ,01/18/2017 11:55 UTC,30.12,33.8,33.8,100.0,9.22,270.0,,31.0,,,,44.0,,,,1.75,,KIGQ 181155Z AUTO 27008KT 1 3/4SM BR OVC004 01/01 A3012 RMK AO2  T00100010 10013 20008,34.34,33.44,400.0,,,33.8,28.59,W,29.47,29.67,,Mist
KIGQ,01/18/2017 12:15 UTC,30.12,33.8,33.8,100.0,10.36,270.0,,31.0,,,,44.0,,,,2.5,,KIGQ 181215Z AUTO 27009KT 2 1/2SM BR OVC004 01/01 A3012 RMK AO2  T00100010,,,400.0,,,33.8,28.06,W,29.47,29.67,,Mist
KIGQ,01/18/2017 12:35 UTC,30.13,33.62,33.62,100.0,9.22,270.0,,31.0,,,,44.0,,,,3.0,,KIGQ 181235Z AUTO 27008KT 3SM BR OVC004 01/01 A3013 RMK AO2  T00090009,,,400.0,,,33.62,28.37,W,29.47,29.67,,Mist
KIGQ,01/18/2017 12:55 UTC,30.13,33.44,33.44,100.0,9.22,270.0,,31.0,,,,44.0,,,,4.0,,KIGQ 181255Z AUTO 27008KT 4SM BR OVC004 01/01 A3013 RMK AO2  T00080008,,,400.0,,,33.44,28.16,W,29.47,29.68,,Mist
KIGQ,01/18/2017 13:15 UTC,30.14,33.44,33.44,100.0,10.36,260.0,,,,,,64.0,,,,7.0,,KIGQ 181315Z AUTO 26009KT 7SM OVC006 01/01 A3014 RMK AO2  T00080008,,,600.0,,,33.44,27.62,W,29.48,29.69,,Overcast
KIGQ,01/18/2017 13:35 UTC,30.14,33.44,33.44,100.0,6.91,270.0,13.8,,,,,84.0,,,,10.0,,KIGQ 181335Z AUTO 27006G12KT 10SM OVC008 01/01 A3014 RMK AO2  T00080008,,,800.0,,,33.44,,W,29.48,29.69,,Overcast
KIGQ,01/18/2017 13:55 UTC,30.15,33.26,33.26,100.0,11.5,280.0,,,,,,84.0,,,,10.0,,KIGQ 181355Z AUTO 28010KT 10SM OVC008 01/01 A3015 RMK AO2  T00070007,,,800.0,,,33.26,26.92,W,29.49,29.7,,Overcast
KIGQ,01/18/2017 14:15 UTC,30.15,33.26,33.26,100.0,8.05,260.0,,,,,,64.0,,,,7.0,,KIGQ 181415Z AUTO 26007KT 7SM OVC006 01/01 A3015 RMK AO2  T00070007,,,600.0,,,33.26,28.56,W,29.49,29.7,,Overcast
KIGQ,01/18/2017 14:35 UTC,30.15,33.26,33.26,100.0,9.22,270.0,,,,,,64.0,,,,7.0,,KIGQ 181435Z AUTO 27008KT 7SM OVC006 01/01 A3015 RMK AO2  T00070007,,,600.0,,,33.26,27.94,W,29.49,29.7,,Overcast
KIGQ,01/18/2017 14:55 UTC,30.16,33.44,33.44,100.0,6.91,270.0,,,,,,64.0,,,,7.0,,KIGQ 181455Z AUTO 27006KT 7SM OVC006 01/01 A3016 RMK AO2  T00080008,,,600.0,,,33.44,,W,29.5,29.71,,Overcast
KIGQ,01/18/2017 15:15 UTC,30.16,33.8,33.8,100.0,10.36,270.0,,31.0,,,,64.0,,,,5.0,,KIGQ 181515Z AUTO 27009KT 5SM BR OVC006 01/01 A3016 RMK AO2  T00100010,,,600.0,,,33.8,28.06,W,29.5,29.7,,Mist
KIGQ,01/18/2017 15:35 UTC,30.16,33.8,33.8,100.0,6.91,280.0,,,,,,64.0,,,,7.0,,KIGQ 181535Z AUTO 28006KT 7SM OVC006 01/01 A3016 RMK AO2  T00100010,,,600.0,,,33.8,,W,29.5,29.7,,Overcast
KIGQ,01/18/2017 15:55 UTC,30.16,34.16,34.16,100.0,5.75,280.0,,31.0,,,,44.0,,,,5.0,,KIGQ 181555Z AUTO 28005KT 5SM BR OVC004 01/01 A3016 RMK AO2  T00120012,,,400.0,,,34.16,,W,29.5,29.69,,Mist
KIGQ,01/18/2017 16:15 UTC,30.16,33.8,33.8,100.0,8.05,260.0,,31.0,,,,44.0,,,,5.0,,KIGQ 181615Z AUTO 26007KT 5SM BR OVC004 01/01 A3016 RMK AO2  T00100010,,,400.0,,,33.8,29.19,W,29.5,29.7,,Mist
KIGQ,01/18/2017 16:35 UTC,30.16,33.98,33.98,100.0,10.36,230.0,,31.0,,,,44.0,,,,5.0,,KIGQ 181635Z AUTO 23009KT 5SM BR OVC004 01/01 A3016 RMK AO2  T00110011,,,400.0,,,33.98,28.27,SW,29.5,29.69,,Mist
KIGQ,01/18/2017 16:55 UTC,30.16,33.8,33.8,100.0,11.5,230.0,,31.0,,,,44.0,,,,3.0,,KIGQ 181655Z AUTO 23010KT 3SM BR OVC004 01/01 A3016 RMK AO2  T00100010,,,400.0,,,33.8,27.57,SW,29.5,29.7,,Mist
KIGQ,01/18/2017 17:15 UTC,30.14,33.8,33.8,100.0,12.66,230.0,,31.0,,,,44.0,,,,2.5,,KIGQ 181715Z AUTO 23011KT 2 1/2SM BR OVC004 01/01 A3014 RMK AO2  T00100010,,,400.0,,,33.8,27.12,SW,29.48,29.68,,Mist
KIGQ,01/18/2017 17:35 UTC,30.14,33.8,33.8,100.0,12.66,230.0,,31.0,,,,44.0,,,,4.0,,KIGQ 181735Z AUTO 23011KT 4SM BR OVC004 01/01 A3014 RMK AO2  T00100010,,,400.0,,,33.8,27.12,SW,29.48,29.68,,Mist
KIGQ,01/18/2017 17:55 UTC,30.13,33.8,33.8,100.0,13.8,230.0,,31.0,,,,44.0,,,,2.5,,KIGQ 181755Z AUTO 23012KT 2 1/2SM BR OVC004 01/01 A3013 RMK AO2  T00100010 10012 20007,34.16,33.26,400.0,,,33.8,26.71,SW,29.47,29.67,,Mist
KIGQ,01/18/2017 18:15 UTC,30.12,33.98,33.98,100.0,12.66,230.0,19.57,31.0,,,,44.0,,,,4.0,,KIGQ 181815Z AUTO 23011G17KT 4SM BR OVC004 01/01 A3012 RMK AO2  T00110011,,,400.0,,,33.98,27.34,SW,29.47,29.66,,Mist
KIGQ,01/18/2017 18:35 UTC,30.11,34.16,34.16,100.0,16.11,230.0,19.57,31.0,,,,44.0,,,,3.0,,KIGQ 181835Z AUTO 23014G17KT 3SM BR OVC004 01/01 A3011 RMK AO2  T00120012,,,400.0,,,34.16,26.4,SW,29.46,29.65,,Mist
KIGQ,01/18/2017 18:55 UTC,30.11,34.52,34.52,100.0,10.36,220.0,,31.0,,,,44.0,,,,4.0,,KIGQ 181855Z AUTO 22009KT 4SM BR OVC004 01/01 A3011 RMK AO2  T00140014,,,400.0,,,34.52,28.92,SW,29.46,29.64,,Mist
KIGQ,01/18/2017 19:15 UTC,30.1,34.7,34.7,100.0,16.11,230.0,21.85,,,,,43.0,114.0,,,7.0,,KIGQ 181915Z AUTO 23014G19KT 7SM BKN004 OVC011 02/02 A3010 RMK AO2  T00150015,,,400.0,,,34.7,27.07,SW,29.45,29.62,,Overcast
KIGQ,01/18/2017 19:35 UTC,30.1,35.6,34.16,93.08,12.66,230.0,20.71,,,,,114.0,,,,10.0,,KIGQ 181935Z AUTO 23011G18KT 10SM OVC011 02/01 A3010 RMK AO2  T00200012,,,1100.0,,,33.77,29.31,SW,29.45,29.63,,Overcast
KIGQ,01/18/2017 19:55 UTC,30.09,35.96,34.16,93.09,13.8,230.0,21.85,,,,,114.0,,,,10.0,,KIGQ 181955Z AUTO 23012G19KT 10SM OVC011 02/01 A3009 RMK AO2  T00220012,,,1100.0,,,34.13,29.35,SW,29.44,29.61,,Overcast
KIGQ,01/18/2017 20:15 UTC,30.08,36.32,34.16,93.08,14.97,240.0,,,,,,134.0,,,,10.0,,KIGQ 182015Z AUTO 24013KT 10SM OVC013 02/01 A3008 RMK AO2  T00240012,,,1300.0,,,34.49,29.42,WSW,29.43,29.6,,Overcast
KIGQ,01/18/2017 20:35 UTC,30.08,37.04,34.7,93.13,13.8,240.0,,,,,,134.0,,,,10.0,,KIGQ 182035Z AUTO 24012KT 10SM OVC013 03/02 A3008 RMK AO2  T00280015,,,1300.0,,,35.21,30.68,WSW,29.43,29.58,,Overcast
KIGQ,01/18/2017 20:55 UTC,30.08,37.58,35.24,93.13,12.66,220.0,,,,,,134.0,,,,10.0,,KIGQ 182055Z AUTO 22011KT 10SM OVC013 03/02 A3008 RMK AO2  T00310018,,,1300.0,,,35.75,31.72,SW,29.43,29.56,,Overcast
KIGQ,01/18/2017 21:15 UTC,30.08,37.04,35.06,93.13,10.36,220.0,,,,,,134.0,,,,10.0,,KIGQ 182115Z AUTO 22009KT 10SM OVC013 03/02 A3008 RMK AO2  T00280017,,,1300.0,,,35.21,31.93,SW,29.43,29.58,,Overcast
KIGQ,01/18/2017 21:35 UTC,30.08,36.5,34.34,86.68,12.66,250.0,,,,,,133.0,,,,10.0,,KIGQ 182135Z AUTO 25011KT 230V340 10SM BKN013 03/01 A3008 RMK AO2  T00250013,,,1300.0,,,32.86,30.4,WSW,29.43,29.62,,Mostly Cloudy
KIGQ,01/18/2017 21:55 UTC,30.08,36.5,34.34,86.68,10.36,210.0,,,,,,134.0,,,,10.0,,KIGQ 182155Z AUTO 21009KT 10SM OVC013 03/01 A3008 RMK AO2  T00250013,,,1300.0,,,32.86,31.29,SSW,29.43,29.62,,Overcast
KIGQ,01/18/2017 22:15 UTC,30.09,36.5,34.7,93.13,10.36,230.0,,,,,,134.0,,,,10.0,,KIGQ 182215Z AUTO 23009KT 10SM OVC013 03/02 A3009 RMK AO2  T00250015,,,1300.0,,,34.68,31.29,SW,29.44,29.6,,Overcast
KIGQ,01/18/2017 22:35 UTC,30.09,36.5,34.7,93.13,6.91,230.0,,,,,,134.0,,,,10.0,,KIGQ 182235Z AUTO 23006KT 10SM OVC013 03/02 A3009 RMK AO2  T00250015,,,1300.0,,,34.68,,SW,29.44,29.6,,Overcast
KIGQ,01/18/2017 22:55 UTC,30.1,36.32,34.7,100.0,11.5,220.0,,,,,,134.0,,,,10.0,,KIGQ 182255Z AUTO 22010KT 10SM OVC013 02/02 A3010 RMK AO2  T00240015,,,1300.0,,,36.32,30.61,SW,29.45,29.58,,Overcast
KIGQ,01/18/2017 23:15 UTC,30.1,36.14,34.7,100.0,10.36,210.0,,,,,,114.0,,,,10.0,,KIGQ 182315Z AUTO 21009KT 10SM OVC011 02/02 A3010 RMK AO2  T00230015,,,1100.0,,,36.14,30.86,SSW,29.45,29.59,,Overcast
KIGQ,01/18/2017 23:35 UTC,30.11,36.14,34.7,100.0,9.22,230.0,,,,,,114.0,,,,10.0,,KIGQ 182335Z AUTO 23008KT 10SM OVC011 02/02 A3011 RMK AO2  T00230015,,,1100.0,,,36.14,31.36,SW,29.46,29.6,,Overcast
KIGQ,01/18/2017 23:55 UTC,30.11,36.14,34.88,95.12,8.05,230.0,,,,,,114.0,,,,10.0,,KIGQ 182355Z AUTO 23007KT 10SM OVC011 02/02 A3011 RMK AO2  T00230016 10031 20010,37.58,33.8,1100.0,,,34.86,31.94,SW,29.46,29.62,,Overcast
KIGQ,01/19/2017 00:15 UTC,30.11,36.5,35.06,93.13,6.91,230.0,,,,,,114.0,,,,10.0,,KIGQ 190015Z AUTO 23006KT 10SM OVC011 03/02 A3011 RMK AO2  T00250017,,,1100.0,,,34.68,,SW,29.46,29.62,,Overcast
KIGQ,01/19/2017 00:35 UTC,30.11,36.5,34.7,93.13,10.36,230.0,,,,,,114.0,,,,10.0,,KIGQ 190035Z AUTO 23009KT 10SM OVC011 03/02 A3011 RMK AO2  T00250015,,,1100.0,,,34.68,31.29,SW,29.46,29.62,,Overcast
KIGQ,01/19/2017 00:55 UTC,30.11,36.32,34.7,100.0,10.36,220.0,18.41,,,,,114.0,,,,10.0,,KIGQ 190055Z AUTO 22009G16KT 10SM OVC011 02/02 A3011 RMK AO2  T00240015,,,1100.0,,,36.32,31.07,SW,29.46,29.59,,Overcast
KIGQ,01/19/2017 01:15 UTC,30.11,36.14,34.7,100.0,12.66,220.0,,,,,,114.0,,,,10.0,,KIGQ 190115Z AUTO 22011KT 10SM OVC011 02/02 A3011 RMK AO2  T00230015,,,1100.0,,,36.14,29.97,SW,29.46,29.6,,Overcast
KIGQ,01/19/2017 01:35 UTC,30.11,35.96,34.52,93.08,16.11,230.0,20.71,,,,,114.0,,,,10.0,,KIGQ 190135Z AUTO 23014G18KT 10SM OVC011 02/01 A3011 RMK AO2  T00220014,,,1100.0,,,34.13,28.63,SW,29.46,29.64,,Overcast
KIGQ,01/19/2017 01:55 UTC,30.1,35.78,34.52,93.08,12.66,220.0,,,,,,114.0,,,,10.0,,KIGQ 190155Z AUTO 22011KT 10SM OVC011 02/01 A3010 RMK AO2  T00210014,,,1100.0,,,33.95,29.53,SW,29.45,29.63,,Overcast
KIGQ,01/19/2017 02:15 UTC,30.09,35.96,34.7,100.0,12.66,230.0,,,,,,114.0,,,,10.0,,KIGQ 190215Z AUTO 23011KT 10SM OVC011 02/02 A3009 RMK AO2  T00220015,,,1100.0,,,35.96,29.75,SW,29.44,29.58,,Overcast
KIGQ,01/19/2017 02:35 UTC,30.08,35.96,34.52,93.08,10.36,220.0,,,,,,114.0,,,,10.0,,KIGQ 190235Z AUTO 22009KT 10SM OVC011 02/01 A3008 RMK AO2  T00220014,,,1100.0,,,34.13,30.64,SW,29.43,29.6,,Overcast
KIGQ,01/19/2017 02:55 UTC,30.08,35.6,33.98,93.08,9.22,230.0,,,,,,114.0,,,,10.0,,KIGQ 190255Z AUTO 23008KT 10SM OVC011 02/01 A3008 RMK AO2  T00200011,,,1100.0,,,33.77,30.72,SW,29.43,29.61,,Overcast
KIGQ,01/19/2017 03:15 UTC,30.08,34.88,33.8,93.08,5.75,220.0,,,,,,114.0,,,,10.0,,KIGQ 190315Z AUTO 22005KT 10SM OVC011 02/01 A3008 RMK AO2  T00160010,,,1100.0,,,33.06,,SW,29.43,29.63,,Overcast
KIGQ,01/19/2017 03:35 UTC,30.09,34.7,33.98,93.08,6.91,230.0,,,,,,114.0,,,,7.0,,KIGQ 190335Z AUTO 23006KT 7SM OVC011 02/01 A3009 RMK AO2  T00150011,,,1100.0,,,32.88,,SW,29.44,29.64,,Overcast
KIGQ,01/19/2017 03:55 UTC,30.08,35.24,34.34,93.08,8.05,210.0,,,,,,114.0,,,,7.0,,KIGQ 190355Z AUTO 21007KT 7SM OVC011 02/01 A3008 RMK AO2  T00180013,,,1100.0,,,33.41,30.88,SSW,29.43,29.62,,Overcast
KIGQ,01/19/2017 04:15 UTC,30.08,34.7,33.62,93.08,4.61,190.0,,,,,,113.0,,,,7.0,,KIGQ 190415Z AUTO 19004KT 7SM BKN011 02/01 A3008 RMK AO2  T00150009,,,1100.0,,,32.88,,S,29.43,29.63,,Mostly Cloudy
KIGQ,01/19/2017 04:35 UTC,30.08,32.36,32.18,100.0,5.75,190.0,,31.0,,,,112.0,,,,5.0,,KIGQ 190435Z AUTO 19005KT 5SM BR SCT011 00/00 A3008 RMK AO2  T00020001,,,,,,32.36,,S,29.43,29.66,,Mist
KIGQ,01/19/2017 04:55 UTC,30.07,32.36,32.36,100.0,0.0,0.0,,31.0,,,,133.0,,,,5.0,,KIGQ 190455Z AUTO 00000KT 5SM BR BKN013 00/00 A3007 RMK AO2  T00020002,,,1300.0,,,32.36,,N,29.42,29.65,,Mist
KIGQ,01/19/2017 05:15 UTC,30.07,32.0,32.0,100.0,5.75,190.0,,31.0,,,,134.0,,,,5.0,,KIGQ 190515Z AUTO 19005KT 5SM BR OVC013 00/00 A3007 RMK AO2  T00000000,,,1300.0,,,32.0,,S,29.42,29.66,,Mist
KIGQ,01/19/2017 05:35 UTC,30.07,33.08,33.08,100.0,5.75,200.0,,31.0,,,,114.0,,,,4.0,,KIGQ 190535Z AUTO 20005KT 4SM BR OVC011 01/01 A3007 RMK AO2  T00060006,,,1100.0,,,33.08,,SSW,29.42,29.63,,Mist
KIGQ,01/19/2017 05:55 UTC,30.07,33.8,33.8,100.0,6.91,200.0,,31.0,,,,114.0,,,,5.0,,KIGQ 190555Z AUTO 20006KT 5SM BR OVC011 01/01 A3007 RMK AO2  T00100010 10025 20000 400310000,36.5,32.0,1100.0,37.58,32.0,33.8,,SSW,29.42,29.62,,Mist
KIGQ,01/19/2017 06:15 UTC,30.06,34.7,34.7,100.0,9.22,200.0,,,,,,134.0,,,,7.0,,KIGQ 190615Z AUTO 20008KT 7SM OVC013 02/02 A3006 RMK AO2  T00150015,,,1300.0,,,34.7,29.65,SSW,29.41,29.58,,Overcast
KIGQ,01/19/2017 06:35 UTC,30.07,34.88,34.7,100.0,9.22,200.0,,,,,,114.0,,,,7.0,,KIGQ 190635Z AUTO 20008KT 7SM OVC011 02/02 A3007 RMK AO2  T00160015,,,1100.0,,,34.88,29.87,SSW,29.42,29.59,,Overcast
KIGQ,01/19/2017 06:55 UTC,30.07,34.88,34.7,100.0,9.22,210.0,,,,,,114.0,,,,7.0,,KIGQ 190655Z AUTO 21008KT 7SM OVC011 02/02 A3007 RMK AO2  T00160015,,,1100.0,,,34.88,29.87,SSW,29.42,29.59,,Overcast
KIGQ,01/19/2017 07:15 UTC,30.06,34.88,34.7,100.0,10.36,210.0,,,,,,133.0,,,,7.0,,KIGQ 190715Z AUTO 21009KT 7SM BKN013 02/02 A3006 RMK AO2  T00160015,,,1300.0,,,34.88,29.35,SSW,29.41,29.58,,Mostly Cloudy
KIGQ,01/19/2017 07:35 UTC,30.07,33.98,33.8,100.0,6.91,190.0,,,,,,132.0,,,,7.0,,KIGQ 190735Z AUTO 19006KT 7SM SCT013 01/01 A3007 RMK AO2  T00110010,,,,,,33.98,,S,29.42,29.61,,Partly Cloudy
KIGQ,01/19/2017 07:55 UTC,30.07,33.8,33.8,100.0,8.05,200.0,,,,,,72.0,,,,7.0,,KIGQ 190755Z AUTO 20007KT 7SM SCT007 01/01 A3007 RMK AO2  T00100010,,,,,,33.8,29.19,SSW,29.42,29.62,,Partly Cloudy
KIGQ,01/19/2017 08:15 UTC,30.07,33.08,33.08,100.0,5.75,190.0,,31.0,,,,72.0,,,,5.0,,KIGQ 190815Z AUTO 19005KT 5SM BR SCT007 01/01 A3007 RMK AO2  T00060006,,,,,,33.08,,S,29.42,29.63,,Mist
KIGQ,01/19/2017 08:35 UTC,30.06,32.18,32.18,100.0,4.61,180.0,,31.0,,,,72.0,,,,5.0,,KIGQ 190835Z AUTO 18004KT 5SM BR SCT007 00/00 A3006 RMK AO2  T00010001,,,,,,32.18,,S,29.41,29.64,,Mist
KIGQ,01/19/2017 08:55 UTC,30.06,32.0,32.0,100.0,5.75,200.0,,31.0,,,,72.0,,,,5.0,,KIGQ 190855Z AUTO 20005KT 5SM BR SCT007 00/00 A3006 RMK AO2  T00000000,,,,,,32.0,,SSW,29.41,29.65,,Mist
KIGQ,01/19/2017 09:15 UTC,30.06,32.0,32.0,100.0,5.75,190.0,,31.0,,,,52.0,,,,4.0,,KIGQ 190915Z AUTO 19005KT 4SM BR SCT005 00/00 A3006 RMK AO2  T00000000,,,,,,32.0,,S,29.41,29.65,,Mist
KIGQ,01/19/2017 09:35 UTC,30.05,32.0,32.0,100.0,3.44,170.0,,31.0,,,,53.0,,,,4.0,,KIGQ 190935Z AUTO 17003KT 4SM BR BKN005 00/00 A3005 RMK AO2 LTG  DSNT SW T00000000,,,500.0,,,32.0,,S,29.4,29.64,,Mist
KIGQ,01/19/2017 09:55 UTC,30.05,32.0,32.0,100.0,4.61,180.0,,31.0,,,,52.0,,,,4.0,,KIGQ 190955Z AUTO 18004KT 4SM BR SCT005 00/00 A3005 RMK AO2  T00000000,,,,,,32.0,,S,29.4,29.64,,Mist
KIGQ,01/19/2017 10:15 UTC,30.05,32.54,32.54,100.0,4.61,200.0,,31.0,,,,52.0,,,,3.0,,KIGQ 191015Z AUTO 20004KT 3SM BR SCT005 00/00 A3005 RMK AO2  T00030003,,,,,,32.54,,SSW,29.4,29.62,,Mist
KIGQ,01/19/2017 10:35 UTC,30.04,32.72,32.72,100.0,5.75,180.0,,31.0,,,,52.0,,,,3.0,,KIGQ 191035Z AUTO 18005KT 3SM BR SCT005 00/00 A3004 RMK AO2  T00040004,,,,,,32.72,,S,29.39,29.61,,Mist
KIGQ,01/19/2017 10:55 UTC,30.04,32.9,32.9,100.0,3.44,170.0,,31.0,,,,52.0,,,,4.0,,KIGQ 191055Z AUTO 17003KT 4SM BR SCT005 01/01 A3004 RMK AO2  T00050005,,,,,,32.9,,S,29.39,29.61,,Mist
KIGQ,01/19/2017 11:15 UTC,30.04,32.9,32.9,100.0,5.75,170.0,,31.0,,,,53.0,,,,3.0,,KIGQ 191115Z AUTO 17005KT 3SM BR BKN005 01/01 A3004 RMK AO2  T00050005,,,500.0,,,32.9,,S,29.39,29.61,,Mist
KIGQ,01/19/2017 11:35 UTC,30.04,33.08,33.08,100.0,6.91,190.0,,31.0,,,,52.0,,,,3.0,,KIGQ 191135Z AUTO 19006KT 3SM BR SCT005 01/01 A3004 RMK AO2  T00060006,,,,,,33.08,,S,29.39,29.6,,Mist
KIGQ,01/19/2017 11:55 UTC,30.04,33.26,33.26,100.0,6.91,190.0,,31.0,,,,52.0,,,,4.0,,KIGQ 191155Z AUTO 19006KT 4SM BR SCT005 01/01 A3004 RMK AO2  T00070007 10017 20000,35.06,32.0,,,,33.26,,S,29.39,29.6,,Mist
KIGQ,01/19/2017 12:15 UTC,30.04,33.26,33.26,100.0,8.05,180.0,,31.0,,,,1.0,,,,4.0,,KIGQ 191215Z AUTO 18007KT 4SM BR CLR 01/01 A3004 RMK AO2  T00070007,,,,,,33.26,28.56,S,29.39,29.6,,Mist
KIGQ,01/19/2017 12:35 UTC,30.04,33.44,33.44,100.0,6.91,170.0,,31.0,,,,52.0,,,,4.0,,KIGQ 191235Z AUTO 17006KT 4SM BR SCT005 01/01 A3004 RMK AO2  T00080008,,,,,,33.44,,S,29.39,29.59,,Mist
KIGQ,01/19/2017 12:55 UTC,30.02,33.8,33.8,100.0,5.75,170.0,,31.0,,,,52.0,,,,4.0,,KIGQ 191255Z AUTO 17005KT 4SM BR SCT005 01/01 A3002 RMK AO2  T00100010,,,,,,33.8,,S,29.37,29.57,,Mist
KIGQ,01/19/2017 13:15 UTC,30.01,33.26,33.26,100.0,6.91,190.0,,31.0,,,,52.0,1202.0,,,3.0,,KIGQ 191315Z AUTO 19006KT 3SM BR SCT005 SCT120 01/01 A3001 RMK AO2  T00070007,,,,,,33.26,,S,29.36,29.57,,Mist
KIGQ,01/19/2017 13:35 UTC,30.01,33.26,33.26,100.0,6.91,180.0,,31.0,,,,54.0,,,,1.75,,KIGQ 191335Z AUTO 18006KT 1 3/4SM BR OVC005 01/01 A3001 RMK AO2  T00070007,,,500.0,,,33.26,,S,29.36,29.57,,Mist
KIGQ,01/19/2017 13:55 UTC,30.02,33.62,33.62,100.0,5.75,180.0,,31.0,,,,54.0,,,,2.0,,KIGQ 191355Z AUTO 18005KT 2SM BR OVC005 01/01 A3002 RMK AO2  T00090009,,,500.0,,,33.62,,S,29.37,29.57,,Mist
KIGQ,01/19/2017 14:15 UTC,30.01,33.98,33.98,100.0,3.44,160.0,,31.0,,,,54.0,,,,2.0,,KIGQ 191415Z AUTO 16003KT 2SM BR OVC005 01/01 A3001 RMK AO2  T00110011,,,500.0,,,33.98,,SSE,29.36,29.55,,Mist
KIGQ,01/19/2017 14:35 UTC,30.01,34.34,34.34,100.0,3.44,140.0,,31.0,,,,54.0,,,,2.0,,KIGQ 191435Z AUTO 14003KT 2SM BR OVC005 01/01 A3001 RMK AO2  T00130013,,,500.0,,,34.34,,SE,29.36,29.54,,Mist
KIGQ,01/19/2017 14:55 UTC,30.02,35.06,35.06,100.0,4.61,150.0,,31.0,,,,54.0,,,,2.5,,KIGQ 191455Z AUTO 15004KT 2 1/2SM BR OVC005 02/02 A3002 RMK AO2  T00170017,,,500.0,,,35.06,,SSE,29.37,29.53,,Mist
KIGQ,01/19/2017 15:15 UTC,30.01,35.42,35.42,100.0,8.05,130.0,,31.0,,,,54.0,,,,2.5,,KIGQ 191515Z AUTO 13007KT 2 1/2SM BR OVC005 02/02 A3001 RMK AO2  T00190019,,,500.0,,,35.42,31.09,SE,29.36,29.52,,Mist
KIGQ,01/19/2017 15:35 UTC,30.01,36.14,36.14,100.0,5.75,130.0,,31.0,,,,54.0,,,,2.5,,KIGQ 191535Z AUTO 13005KT 2 1/2SM BR OVC005 02/02 A3001 RMK AO2  T00230023,,,500.0,,,36.14,,SE,29.36,29.5,,Mist
KIGQ,01/19/2017 15:55 UTC,29.99,37.04,36.68,100.0,8.05,120.0,,31.0,,,,53.0,,,,3.0,,KIGQ 191555Z AUTO 12007KT 3SM BR BKN005 03/03 A2999 RMK AO2  T00280026,,,500.0,,,37.04,33.0,ESE,29.34,29.45,,Mist
KIGQ,01/19/2017 16:15 UTC,29.99,37.4,36.5,100.0,8.05,130.0,,31.0,,,,72.0,,,,3.0,,KIGQ 191615Z AUTO 13007KT 3SM BR SCT007 03/03 A2999 RMK AO2  T00300025,,,,,,37.4,33.42,SE,29.34,29.44,,Mist
KIGQ,01/19/2017 16:35 UTC,29.98,38.3,37.4,93.19,8.05,110.0,,31.0,,,,72.0,,,,4.0,,KIGQ 191635Z AUTO 11007KT 4SM BR SCT007 04/03 A2998 RMK AO2  T00350030,,,,,,36.48,34.48,ESE,29.33,29.44,,Mist
KIGQ,01/19/2017 16:55 UTC,29.97,38.3,37.4,93.19,8.05,130.0,,31.0,,,,73.0,,,,3.0,,KIGQ 191655Z AUTO 13007KT 3SM BR BKN007 04/03 A2997 RMK AO2  T00350030,,,700.0,,,36.48,34.48,SE,29.32,29.43,,Mist
KIGQ,01/19/2017 17:15 UTC,29.97,38.48,37.58,93.19,6.91,140.0,,31.0,,,,74.0,,,,3.0,,KIGQ 191715Z AUTO 14006KT 3SM BR OVC007 04/03 A2997 RMK AO2  T00360031,,,700.0,,,36.66,,SE,29.32,29.43,,Mist
KIGQ,01/19/2017 17:35 UTC,29.96,38.84,37.94,93.19,5.75,120.0,,31.0,,,,74.0,,,,3.0,,KIGQ 191735Z AUTO 12005KT 3SM BR OVC007 04/03 A2996 RMK AO2  T00380033,,,700.0,,,37.02,,ESE,29.31,29.41,,Mist
KIGQ,01/19/2017 17:55 UTC,29.97,39.2,38.3,100.0,6.91,140.0,,31.0,,,,72.0,,,,4.0,,KIGQ 191755Z AUTO 14006KT 4SM BR SCT007 04/04 A2997 RMK AO2  T00400035 10040 20006,39.2,33.08,,,,39.2,,SE,29.32,29.37,,Mist
KIGQ,01/19/2017 18:15 UTC,29.94,39.74,38.66,100.0,5.75,130.0,,31.0,,,,93.0,,,,4.0,,KIGQ 191815Z AUTO 13005KT 4SM BR BKN009 04/04 A2994 RMK AO2  T00430037,,,900.0,,,39.74,,SE,29.29,29.32,,Mist
KIGQ,01/19/2017 18:35 UTC,29.93,40.1,38.84,93.24,8.05,120.0,,31.0,,,,93.0,,,,4.0,,KIGQ 191835Z AUTO 12007KT 4SM BR BKN009 05/04 A2993 RMK AO2  T00450038,,,900.0,,,38.28,36.59,ESE,29.28,29.34,,Mist
KIGQ,01/19/2017 18:55 UTC,29.94,39.74,38.3,100.0,5.75,150.0,,31.0,,,,94.0,,,,4.0,,KIGQ 191855Z AUTO 15005KT 4SM BR OVC009 04/04 A2994 RMK AO2  T00430035,,,900.0,,,39.74,,SSE,29.29,29.32,,Mist
KIGQ,01/19/2017 19:15 UTC,29.93,40.1,38.66,93.24,6.91,130.0,,31.0,,,,93.0,,,,4.0,,KIGQ 191915Z AUTO 13006KT 4SM BR BKN009 05/04 A2993 RMK AO2  T00450037,,,900.0,,,38.28,,SE,29.28,29.34,,Mist
KIGQ,01/19/2017 19:35 UTC,29.93,40.1,38.66,93.24,5.75,140.0,,31.0,,,,93.0,803.0,,,4.0,,KIGQ 191935Z AUTO 14005KT 4SM BR BKN009 BKN080 05/04 A2993 RMK AO2  T00450037,,,900.0,,,38.28,,SE,29.28,29.34,,Mist
KIGQ,01/19/2017 19:55 UTC,29.91,40.1,38.66,93.24,6.91,110.0,,31.0,,,,93.0,803.0,,,4.0,,KIGQ 191955Z AUTO 11006KT 4SM BR BKN009 BKN080 05/04 A2991 RMK AO2  T00450037,,,900.0,,,38.28,,ESE,29.26,29.32,,Mist
KIGQ,01/19/2017 20:15 UTC,29.91,39.92,38.48,100.0,6.91,120.0,,31.0,,,,92.0,803.0,,,4.0,,KIGQ 192015Z AUTO 12006KT 4SM BR SCT009 BKN080 04/04 A2991 RMK AO2  T00440036,,,8000.0,,,39.92,,ESE,29.26,29.29,,Mist
KIGQ,01/19/2017 20:35 UTC,29.91,39.92,38.3,100.0,5.75,140.0,,31.0,,,,92.0,804.0,,,5.0,,KIGQ 192035Z AUTO 14005KT 5SM BR SCT009 OVC080 04/04 A2991 RMK AO2  T00440035,,,8000.0,,,39.92,,SE,29.26,29.29,,Mist
KIGQ,01/19/2017 20:55 UTC,29.89,39.56,38.3,100.0,8.05,110.0,,31.0,,,,804.0,,,,5.0,,KIGQ 192055Z AUTO 11007KT 5SM BR OVC080 04/04 A2989 RMK AO2  T00420035,,,8000.0,,,39.56,35.96,ESE,29.24,29.28,,Mist
KIGQ,01/19/2017 21:15 UTC,29.88,39.56,38.3,100.0,8.05,110.0,,31.0,,,,704.0,,,,5.0,,KIGQ 192115Z AUTO 11007KT 5SM BR OVC070 04/04 A2988 RMK AO2  T00420035,,,7000.0,,,39.56,35.96,ESE,29.23,29.27,,Mist
KIGQ,01/19/2017 21:35 UTC,29.87,39.56,38.3,100.0,8.05,100.0,,31.0,,,,704.0,,,,5.0,,KIGQ 192135Z AUTO 10007KT 5SM BR OVC070 04/04 A2987 RMK AO2  T00420035,,,7000.0,,,39.56,35.96,E,29.22,29.26,,Mist
KIGQ,01/19/2017 21:55 UTC,29.87,39.74,37.94,93.19,4.61,90.0,,31.0,,,,704.0,,,,5.0,,KIGQ 192155Z AUTO 09004KT 5SM BR OVC070 04/03 A2987 RMK AO2  T00430033,,,7000.0,,,37.91,,E,29.22,29.29,,Mist
KIGQ,01/19/2017 22:15 UTC,29.88,39.56,37.94,93.19,3.44,100.0,,31.0,,,,704.0,,,,5.0,,KIGQ 192215Z AUTO 10003KT 5SM BR OVC070 04/03 A2988 RMK AO2  T00420033,,,7000.0,,,37.73,,E,29.23,29.31,,Mist
KIGQ,01/19/2017 22:35 UTC,29.88,38.84,37.76,93.19,4.61,90.0,,13.0,,,,703.0,854.0,,,5.0,,KIGQ 192235Z AUTO 09004KT 5SM -RA BKN070 OVC085 04/03 A2988 RMK AO2 T00380032,,,7000.0,,,37.02,,E,29.23,29.33,,Light Rain
KIGQ,01/19/2017 22:55 UTC,29.87,38.84,37.76,93.19,5.75,100.0,,13.0,904.0,,,702.0,852.0,,,7.0,,KIGQ 192255Z AUTO 10005KT 7SM -RA SCT070 SCT085 OVC090 04/03  A2987 RMK AO2 T00380032,,,9000.0,,,37.02,,E,29.22,29.32,,Light Rain
KIGQ,01/19/2017 23:15 UTC,29.87,38.3,38.12,93.19,5.75,130.0,,1.0,,,,904.0,,,,5.0,,KIGQ 192315Z AUTO 13005KT 5SM RA OVC090 04/03 A2987 RMK AO2  T00350034,,,9000.0,,,36.48,,SE,29.22,29.33,,Rain
KIGQ,01/19/2017 23:35 UTC,29.86,38.3,37.94,93.19,5.75,110.0,,1.0,,,,653.0,804.0,,,4.0,,KIGQ 192335Z AUTO 11005KT 4SM RA BKN065 OVC080 04/03 A2986 RMK AO2  T00350033,,,6500.0,,,36.48,,ESE,29.21,29.32,,Rain
KIGQ,01/19/2017 23:55 UTC,29.84,38.3,37.94,93.19,6.91,90.0,,1.0,854.0,0.01,,652.0,753.0,0.01,,4.0,,KIGQ 192355Z AUTO 09006KT 4SM RA SCT065 BKN075 OVC085 04/03  A2984 RMK AO2 P0001 60001 T00350033 10046 20034,40.28,38.12,7500.0,,,36.48,,E,29.19,29.3,,Rain
KIGQ,01/20/2017 00:15 UTC,29.83,38.12,38.12,100.0,6.91,100.0,,13.0,,0.01,,753.0,854.0,,,5.0,,KIGQ 200015Z AUTO 10006KT 5SM -RA BKN075 OVC085 03/03 A2983 RMK AO2 P0001 T00340034,,,7500.0,,,38.12,,E,29.18,29.26,,Light Rain
KIGQ,01/20/2017 00:35 UTC,29.86,38.12,38.12,100.0,6.91,140.0,,13.0,754.0,0.01,,462.0,503.0,,,4.0,,KIGQ 200035Z AUTO 14006KT 4SM -RA SCT046 BKN050 OVC075 03/03  A2986 RMK AO2 P0001 T00340034,,,5000.0,,,38.12,,SE,29.21,29.29,,Light Rain
KIGQ,01/20/2017 00:55 UTC,29.84,37.94,37.94,100.0,4.61,120.0,,13.0,804.0,0.01,,463.0,503.0,,,4.0,,KIGQ 200055Z AUTO 12004KT 4SM -RA BKN046 BKN050 OVC080 03/03  A2984 RMK AO2 P0001 T00330033,,,4600.0,,,37.94,,ESE,29.19,29.27,,Light Rain
KIGQ,01/20/2017 01:15 UTC,29.83,37.76,37.76,100.0,5.75,90.0,,1.0,804.0,,,442.0,603.0,,,3.0,,KIGQ 200115Z AUTO 09005KT 3SM RA SCT044 BKN060 OVC080 03/03  A2983 RMK AO2 T00320032,,,6000.0,,,37.76,,E,29.18,29.27,,Rain
KIGQ,01/20/2017 01:35 UTC,29.83,37.58,37.58,100.0,4.61,110.0,,1.0,854.0,0.01,,462.0,803.0,,,3.0,,KIGQ 200135Z AUTO 11004KT 3SM RA SCT046 BKN080 OVC085 03/03  A2983 RMK AO2 P0001 T00310031,,,8000.0,,,37.58,,ESE,29.18,29.27,,Rain
KIGQ,01/20/2017 01:55 UTC,29.81,37.58,37.58,100.0,4.61,100.0,,1.0,754.0,0.02,,403.0,553.0,,,3.0,,KIGQ 200155Z AUTO 10004KT 3SM RA BKN040 BKN055 OVC075 03/03  A2981 RMK AO2 P0002 T00310031,,,4000.0,,,37.58,,E,29.16,29.25,,Rain
KIGQ,01/20/2017 02:15 UTC,29.79,37.76,37.76,100.0,9.22,80.0,,1.0,,0.03,,404.0,,,,2.5,,KIGQ 200215Z AUTO 08008KT 2 1/2SM RA OVC040 03/03 A2979 RMK AO2  P0003 T00320032,,,4000.0,,,37.76,33.28,E,29.14,29.23,,Rain
KIGQ,01/20/2017 02:35 UTC,29.79,37.76,37.76,100.0,9.22,100.0,,1.0,,0.09,,373.0,434.0,,,2.5,,KIGQ 200235Z AUTO 10008KT 2 1/2SM RA BKN037 OVC043 03/03 A2979 RMK AO2 P0009 T00320032,,,3700.0,,,37.76,33.28,E,29.14,29.23,,Rain
KIGQ,01/20/2017 02:55 UTC,29.78,38.3,38.3,100.0,3.44,60.0,,1.0,,0.12,0.15,354.0,,,,3.0,,KIGQ 200255Z AUTO 06003KT 3SM RA OVC035 04/04 A2978 RMK AO2 P0012  60015 T00350035,,,3500.0,,,38.3,,ENE,29.13,29.2,,Rain
KIGQ,01/20/2017 03:15 UTC,29.78,38.3,38.3,100.0,4.61,40.0,,1.0,,0.02,,63.0,354.0,,,2.5,,KIGQ 200315Z AUTO 04004KT 2 1/2SM RA BKN006 OVC035 04/04 A2978 RMK AO2 P0002 T00350035,,,600.0,,,38.3,,NE,29.13,29.2,,Rain
KIGQ,01/20/2017 03:35 UTC,29.77,37.94,37.94,100.0,0.0,0.0,,14.0,,0.06,,64.0,,,,1.75,,KIGQ 200335Z AUTO 00000KT 1 3/4SM +RA OVC006 03/03 A2977 RMK AO2  P0006 T00330033,,,600.0,,,37.94,,N,29.12,29.2,,Heavy Rain
KIGQ,01/20/2017 03:55 UTC,29.76,37.94,37.94,100.0,4.61,30.0,,1.0,,0.08,,64.0,,,,2.5,,KIGQ 200355Z AUTO 03004KT 2 1/2SM RA OVC006 03/03 A2976 RMK AO2  P0008 T00330033,,,600.0,,,37.94,,NNE,29.11,29.19,,Rain
KIGQ,01/20/2017 04:15 UTC,29.76,38.12,38.12,100.0,3.44,50.0,,14.0,,0.02,,64.0,,,,2.0,,KIGQ 200415Z AUTO 05003KT 2SM +RA OVC006 03/03 A2976 RMK AO2 P0002  T00340034,,,600.0,,,38.12,,NE,29.11,29.19,,Heavy Rain
KIGQ,01/20/2017 04:35 UTC,29.75,38.12,38.12,100.0,3.44,40.0,,14.0,,0.06,,64.0,,,,1.75,,KIGQ 200435Z AUTO 04003KT 1 3/4SM +RA OVC006 03/03 A2975 RMK AO2  P0006 T00340034,,,600.0,,,38.12,,NE,29.1,29.18,,Heavy Rain
KIGQ,01/20/2017 04:55 UTC,29.73,37.58,37.58,100.0,6.91,60.0,,1.0,,0.09,,44.0,,,,1.75,,KIGQ 200455Z AUTO 06006KT 1 3/4SM RA OVC004 03/03 A2973 RMK AO2  P0009 T00310031,,,400.0,,,37.58,,ENE,29.08,29.17,,Rain
KIGQ,01/20/2017 05:15 UTC,29.72,37.4,37.4,100.0,5.75,60.0,,1.0,,0.01,,43.0,74.0,,,2.0,,KIGQ 200515Z AUTO 06005KT 2SM RA BKN004 OVC007 03/03 A2972 RMK AO2  P0001 T00300030,,,400.0,,,37.4,,ENE,29.07,29.17,,Rain
KIGQ,01/20/2017 05:35 UTC,29.7,37.58,37.58,100.0,6.91,60.0,,1.0,154.0,0.03,,43.0,73.0,,,2.5,,KIGQ 200535Z AUTO 06006KT 2 1/2SM RA BKN004 BKN007 OVC015 03/03  A2970 RMK AO2 P0003 T00310031,,,400.0,,,37.58,,ENE,29.05,29.14,,Rain
KIGQ,01/20/2017 05:55 UTC,29.68,37.76,37.76,100.0,6.91,70.0,,1.0,,0.04,,43.0,94.0,0.37,,2.5,,KIGQ 200555Z AUTO 07006KT 2 1/2SM RA BKN004 OVC009 03/03 A2968 RMK AO2 P0004 60037 T00320032 10035 20030 400460000,38.3,37.4,400.0,40.28,32.0,37.76,,ENE,29.03,29.12,,Rain
KIGQ,01/20/2017 06:15 UTC,29.68,37.94,37.94,100.0,5.75,60.0,,13.0,,0.01,,44.0,,,,2.5,,KIGQ 200615Z AUTO 06005KT 2 1/2SM -RA OVC004 03/03 A2968 RMK AO2  P0001 T00330033,,,400.0,,,37.94,,ENE,29.03,29.11,,Light Rain
KIGQ,01/20/2017 06:35 UTC,29.67,38.12,38.12,100.0,5.75,70.0,,14.0,,0.04,,44.0,,,,2.5,,KIGQ 200635Z AUTO 07005KT 2 1/2SM +RA OVC004 03/03 A2967 RMK AO2  P0004 T00340034,,,400.0,,,38.12,,ENE,29.02,29.1,,Heavy Rain
KIGQ,01/20/2017 06:55 UTC,29.66,37.76,37.76,100.0,5.75,60.0,,1.0,,0.07,,44.0,,,,2.5,,KIGQ 200655Z AUTO 06005KT 2 1/2SM RA OVC004 03/03 A2966 RMK AO2  P0007 T00320032,,,400.0,,,37.76,,ENE,29.02,29.11,,Rain
KIGQ,01/20/2017 07:15 UTC,29.65,37.94,37.94,100.0,5.75,60.0,,1.0,,0.02,,44.0,,,,3.0,,KIGQ 200715Z AUTO 06005KT 3SM RA OVC004 03/03 A2965 RMK AO2 P0002  T00330033,,,400.0,,,37.94,,ENE,29.01,29.09,,Rain
KIGQ,01/20/2017 07:35 UTC,29.65,37.76,37.76,100.0,4.61,50.0,,1.0,,0.05,,44.0,,,,3.0,,KIGQ 200735Z AUTO 05004KT 3SM RA OVC004 03/03 A2965 RMK AO2 P0005  T00320032,,,400.0,,,37.76,,NE,29.01,29.1,,Rain
KIGQ,01/20/2017 07:55 UTC,29.64,37.94,37.94,100.0,4.61,50.0,,1.0,,0.06,,44.0,,,,3.0,,KIGQ 200755Z AUTO 05004KT 3SM RA OVC004 03/03 A2964 RMK AO2 P0006  T00330033,,,400.0,,,37.94,,NE,29.0,29.08,,Rain
KIGQ,01/20/2017 08:15 UTC,29.64,37.76,37.76,100.0,5.75,60.0,,1.0,,,,44.0,,,,3.0,,KIGQ 200815Z AUTO 06005KT 3SM RA OVC004 03/03 A2964 RMK AO2  T00320032,,,400.0,,,37.76,,ENE,29.0,29.09,,Rain
KIGQ,01/20/2017 08:35 UTC,29.64,37.76,37.76,100.0,4.61,70.0,,1.0,,,,44.0,,,,3.0,,KIGQ 200835Z AUTO 07004KT 3SM RA OVC004 03/03 A2964 RMK AO2  T00320032,,,400.0,,,37.76,,ENE,29.0,29.09,,Rain
KIGQ,01/20/2017 08:55 UTC,29.63,37.94,37.94,100.0,3.44,60.0,,1.0,,,0.14,44.0,,,,3.0,,KIGQ 200855Z AUTO 06003KT 3SM RA OVC004 03/03 A2963 RMK AO2 60014  T00330033,,,400.0,,,37.94,,ENE,28.99,29.07,,Rain
KIGQ,01/20/2017 09:15 UTC,29.63,37.58,37.58,100.0,0.0,0.0,,13.0,,,,44.0,,,,2.5,,KIGQ 200915Z AUTO 00000KT 2 1/2SM -RA OVC004 03/03 A2963 RMK AO2  T00310031,,,400.0,,,37.58,,N,28.99,29.08,,Light Rain
KIGQ,01/20/2017 09:35 UTC,29.63,37.22,37.22,100.0,4.61,360.0,,13.0,,,,44.0,,,,2.0,,KIGQ 200935Z AUTO 36004KT 2SM -RA OVC004 03/03 A2963 RMK AO2  T00290029,,,400.0,,,37.22,,N,28.99,29.09,,Light Rain
KIGQ,01/20/2017 09:55 UTC,29.63,36.86,36.86,100.0,5.75,20.0,,13.0,,,,44.0,,,,2.0,,KIGQ 200955Z AUTO 02005KT 2SM -RA OVC004 03/03 A2963 RMK AO2  T00270027,,,400.0,,,36.86,,NNE,28.99,29.1,,Light Rain
KIGQ,01/20/2017 10:15 UTC,29.63,36.68,36.68,100.0,6.91,20.0,,13.0,,,,44.0,,,,2.0,,KIGQ 201015Z AUTO 02006KT 2SM -RA OVC004 03/03 A2963 RMK AO2  T00260026,,,400.0,,,36.68,,NNE,28.99,29.1,,Light Rain
KIGQ,01/20/2017 10:35 UTC,29.63,36.68,36.68,100.0,5.75,30.0,,13.0,,,,44.0,,,,2.5,,KIGQ 201035Z AUTO 03005KT 2 1/2SM -RA OVC004 03/03 A2963 RMK AO2  T00260026,,,400.0,,,36.68,,NNE,28.99,29.1,,Light Rain
KIGQ,01/20/2017 10:55 UTC,29.63,36.68,36.68,100.0,5.75,30.0,,13.0,,,,43.0,74.0,,,2.5,,KIGQ 201055Z AUTO 03005KT 2 1/2SM -RA BKN004 OVC007 03/03  A2963 RMK AO2 T00260026,,,400.0,,,36.68,,NNE,28.99,29.1,,Light Rain
KIGQ,01/20/2017 11:15 UTC,29.62,36.86,36.86,100.0,5.75,20.0,,13.0,,,,44.0,,,,2.0,,KIGQ 201115Z AUTO 02005KT 2SM -RA OVC004 03/03 A2962 RMK AO2  T00270027,,,400.0,,,36.86,,NNE,28.98,29.09,,Light Rain
KIGQ,01/20/2017 11:35 UTC,29.62,37.04,37.04,100.0,6.91,40.0,,13.0,,,,44.0,,,,2.0,,KIGQ 201135Z AUTO 04006KT 2SM -RA OVC004 03/03 A2962 RMK AO2  T00280028,,,400.0,,,37.04,,NE,28.98,29.08,,Light Rain
KIGQ,01/20/2017 11:55 UTC,29.62,37.04,37.04,100.0,4.61,30.0,,13.0,,,,24.0,,0.14,0.52,2.0,,KIGQ 201155Z AUTO 03004KT 2SM -RA OVC002 03/03 A2962 RMK AO2 60014  70052 T00280028 10034 20025,38.12,36.5,200.0,,,37.04,,NNE,28.98,29.08,,Light Rain
KIGQ,01/20/2017 12:15 UTC,29.62,36.86,36.86,100.0,4.61,30.0,,13.0,,,,24.0,,,,2.0,,KIGQ 201215Z AUTO 03004KT 2SM -RA OVC002 03/03 A2962 RMK AO2  T00270027,,,200.0,,,36.86,,NNE,28.98,29.09,,Light Rain
KIGQ,01/20/2017 12:35 UTC,29.62,37.04,37.04,100.0,4.61,50.0,,13.0,,,,24.0,,,,2.0,,KIGQ 201235Z AUTO 05004KT 2SM -RA OVC002 03/03 A2962 RMK AO2  T00280028,,,200.0,,,37.04,,NE,28.98,29.08,,Light Rain
KIGQ,01/20/2017 12:55 UTC,29.62,37.04,37.04,100.0,5.75,50.0,,1.0,,,,24.0,,,,2.0,,KIGQ 201255Z AUTO 05005KT 2SM RA OVC002 03/03 A2962 RMK AO2  T00280028,,,200.0,,,37.04,,NE,28.98,29.08,,Rain
KIGQ,01/20/2017 13:15 UTC,29.62,37.04,37.04,100.0,0.0,0.0,,1.0,,,,24.0,,,,2.0,,KIGQ 201315Z AUTO 00000KT 2SM RA OVC002 03/03 A2962 RMK AO2  T00280028,,,200.0,,,37.04,,N,28.98,29.08,,Rain
KIGQ,01/20/2017 13:35 UTC,29.62,37.22,37.22,100.0,3.44,30.0,,17.0,,,,24.0,,,,1.25,,KIGQ 201335Z AUTO 03003KT 1 1/4SM -DZ OVC002 03/03 A2962 RMK AO2  T00290029,,,200.0,,,37.22,,NNE,28.98,29.08,,Light Drizzle
KIGQ,01/20/2017 13:55 UTC,29.62,37.4,37.4,100.0,3.44,10.0,,31.0,,,,24.0,,,,1.0,,KIGQ 201355Z AUTO 01003KT 1SM BR OVC002 03/03 A2962 RMK AO2  T00300030,,,200.0,,,37.4,,N,28.98,29.08,,Mist
KIGQ,01/20/2017 14:15 UTC,29.64,37.4,37.4,100.0,0.0,0.0,,13.0,,,,24.0,,,,1.25,,KIGQ 201415Z AUTO 00000KT 1 1/4SM -RA OVC002 03/03 A2964 RMK AO2  T00300030,,,200.0,,,37.4,,N,29.0,29.1,,Light Rain
KIGQ,01/20/2017 14:35 UTC,29.64,37.58,37.58,100.0,0.0,0.0,,31.0,,,,24.0,,,,0.75,,KIGQ 201435Z AUTO 00000KT 3/4SM BR OVC002 03/03 A2964 RMK AO2  T00310031,,,200.0,,,37.58,,N,29.0,29.09,,Mist
KIGQ,01/20/2017 14:55 UTC,29.65,37.76,37.76,100.0,0.0,0.0,,31.0,,,,24.0,,,,0.75,,KIGQ 201455Z AUTO 00000KT 3/4SM BR OVC002 03/03 A2965 RMK AO2  T00320032,,,200.0,,,37.76,,N,29.01,29.1,,Mist
KIGQ,01/20/2017 15:15 UTC,29.65,37.94,37.94,100.0,3.44,20.0,,9.0,,,,24.0,,,,0.5,,KIGQ 201515Z AUTO 02003KT 1/2SM FG OVC002 03/03 A2965 RMK AO2  T00330033,,,200.0,,,37.94,,NNE,29.01,29.09,,Fog
KIGQ,01/20/2017 15:35 UTC,29.64,38.48,38.48,100.0,4.61,20.0,,31.0,,,,24.0,,,,0.75,,KIGQ 201535Z AUTO 02004KT 3/4SM BR OVC002 04/04 A2964 RMK AO2  T00360036,,,200.0,,,38.48,,NNE,29.0,29.07,,Mist
KIGQ,01/20/2017 15:55 UTC,29.64,39.2,39.2,100.0,3.44,30.0,,31.0,,,,24.0,,,,2.0,,KIGQ 201555Z AUTO 03003KT 2SM BR OVC002 04/04 A2964 RMK AO2  T00400040,,,200.0,,,39.2,,NNE,29.0,29.04,,Mist
KIGQ,01/20/2017 16:15 UTC,29.68,39.2,39.2,100.0,4.61,230.0,,31.0,,,,24.0,,,,2.5,,KIGQ 201615Z AUTO 23004KT 2 1/2SM BR OVC002 04/04 A2968 RMK AO2  T00400040,,,200.0,,,39.2,,SW,29.03,29.08,,Mist
KIGQ,01/20/2017 16:35 UTC,29.67,39.38,39.38,100.0,4.61,220.0,,31.0,,,,24.0,,,,2.0,,KIGQ 201635Z AUTO 22004KT 2SM BR OVC002 04/04 A2967 RMK AO2  T00410041,,,200.0,,,39.38,,SW,29.02,29.06,,Mist
KIGQ,01/20/2017 16:55 UTC,29.66,39.2,39.2,100.0,0.0,0.0,,31.0,,,,24.0,,,,1.75,,KIGQ 201655Z AUTO 00000KT 1 3/4SM BR OVC002 04/04 A2966 RMK AO2  T00400040,,,200.0,,,39.2,,N,29.02,29.06,,Mist
KIGQ,01/20/2017 17:15 UTC,29.66,39.2,39.2,100.0,0.0,0.0,,31.0,,,,24.0,,,,1.75,,KIGQ 201715Z AUTO 00000KT 1 3/4SM BR OVC002 04/04 A2966 RMK AO2  T00400040,,,200.0,,,39.2,,N,29.02,29.06,,Mist
KIGQ,01/20/2017 17:35 UTC,29.65,40.1,40.1,100.0,0.0,0.0,,31.0,,,,24.0,,,,3.0,,KIGQ 201735Z AUTO 00000KT 3SM BR OVC002 05/05 A2965 RMK AO2  T00450045,,,200.0,,,40.1,,N,29.01,29.03,,Mist
KIGQ,01/20/2017 17:55 UTC,29.66,40.1,40.1,100.0,4.61,220.0,,31.0,,,,24.0,,,,2.5,,KIGQ 201755Z AUTO 22004KT 2 1/2SM BR OVC002 05/05 A2966 RMK AO2  T00450045 10045 20027,40.1,36.86,200.0,,,40.1,,SW,29.02,29.04,,Mist
KIGQ,01/20/2017 18:15 UTC,29.64,40.46,40.46,100.0,0.0,0.0,,31.0,,,,44.0,,,,3.0,,KIGQ 201815Z AUTO 00000KT 3SM BR OVC004 05/05 A2964 RMK AO2  T00470047,,,400.0,,,40.46,,N,29.0,29.01,,Mist
KIGQ,01/20/2017 18:35 UTC,29.65,41.0,41.0,100.0,4.61,200.0,,31.0,,,,44.0,,,,4.0,,KIGQ 201835Z AUTO 20004KT 4SM BR OVC004 05/05 A2965 RMK AO2  T00500050,,,400.0,,,41.0,,SSW,29.01,29.0,,Mist
KIGQ,01/20/2017 18:55 UTC,29.64,41.18,41.18,100.0,0.0,0.0,,31.0,,,,44.0,,,,4.0,,KIGQ 201855Z AUTO 00000KT 4SM BR OVC004 05/05 A2964 RMK AO2  T00510051,,,400.0,,,41.18,,N,29.0,28.98,,Mist
KIGQ,01/20/2017 19:15 UTC,29.63,42.44,42.44,100.0,5.75,300.0,,31.0,,,,44.0,,,,5.0,,KIGQ 201915Z AUTO 30005KT 5SM BR OVC004 06/06 A2963 RMK AO2  T00580058,,,400.0,,,42.44,,WNW,28.99,28.93,,Mist
KIGQ,01/20/2017 19:35 UTC,29.62,42.44,42.26,100.0,0.0,0.0,,,,,,64.0,,,,7.0,,KIGQ 201935Z AUTO 00000KT 7SM OVC006 06/06 A2962 RMK AO2  T00580057,,,600.0,,,42.44,,N,28.98,28.92,,Overcast
KIGQ,01/20/2017 20:00 UTC,29.62,42.98,42.8,100.0,0.0,0.0,,,,,,64.0,,,,7.0,,KIGQ 202000Z AUTO 00000KT 7SM OVC006 06/06 A2962 RMK AO2  T00610060,,,600.0,,,42.98,,N,28.98,28.9,,Overcast
KIGQ,01/20/2017 20:15 UTC,29.62,43.7,43.16,93.35,4.61,110.0,,,,,,64.0,,,,7.0,,KIGQ 202015Z AUTO 11004KT 7SM OVC006 07/06 A2962 RMK AO2  T00650062,,,600.0,,,41.88,,ESE,28.98,28.92,,Overcast
KIGQ,01/20/2017 20:35 UTC,29.63,43.7,43.16,93.35,0.0,0.0,,,,,,64.0,,,,7.0,,KIGQ 202035Z AUTO 00000KT 7SM OVC006 07/06 A2963 RMK AO2  T00650062,,,600.0,,,41.88,,N,28.99,28.94,,Overcast
KIGQ,01/20/2017 20:55 UTC,29.63,43.7,43.7,100.0,0.0,0.0,,,,,,64.0,,,,7.0,,KIGQ 202055Z AUTO 00000KT 7SM OVC006 07/07 A2963 RMK AO2  T00650065,,,600.0,,,43.7,,N,28.99,28.89,,Overcast
KIGQ,01/20/2017 21:15 UTC,29.65,44.06,43.7,100.0,3.44,210.0,,,,,,64.0,,,,7.0,,KIGQ 202115Z AUTO 21003KT 7SM OVC006 07/07 A2965 RMK AO2  T00670065,,,600.0,,,44.06,,SSW,29.01,28.9,,Overcast
KIGQ,01/20/2017 21:35 UTC,29.65,43.88,43.88,100.0,3.44,180.0,,,,,,64.0,,,,7.0,,KIGQ 202135Z AUTO 18003KT 7SM OVC006 07/07 A2965 RMK AO2  T00660066,,,600.0,,,43.88,,S,29.01,28.9,,Overcast
KIGQ,01/20/2017 21:55 UTC,29.65,43.88,43.88,100.0,0.0,0.0,,,,,,64.0,,,,7.0,,KIGQ 202155Z AUTO 00000KT 7SM OVC006 07/07 A2965 RMK AO2  T00660066,,,600.0,,,43.88,,N,29.01,28.9,,Overcast
KIGQ,01/20/2017 22:15 UTC,29.66,43.7,43.7,100.0,0.0,0.0,,,,,,64.0,,,,7.0,,KIGQ 202215Z AUTO 00000KT 7SM OVC006 07/07 A2966 RMK AO2  T00650065,,,600.0,,,43.7,,N,29.02,28.92,,Overcast
KIGQ,01/20/2017 22:35 UTC,29.66,43.7,43.7,100.0,0.0,0.0,,31.0,,,,64.0,,,,5.0,,KIGQ 202235Z AUTO 00000KT 5SM BR OVC006 07/07 A2966 RMK AO2  T00650065,,,600.0,,,43.7,,N,29.02,28.92,,Mist
KIGQ,01/20/2017 22:55 UTC,29.66,43.34,43.34,100.0,0.0,0.0,,,,,,64.0,,,,7.0,,KIGQ 202255Z AUTO 00000KT 7SM OVC006 06/06 A2966 RMK AO2  T00630063,,,600.0,,,43.34,,N,29.02,28.93,,Overcast
KIGQ,01/20/2017 23:15 UTC,29.66,43.7,43.7,100.0,3.44,90.0,,,,,,64.0,,,,10.0,,KIGQ 202315Z AUTO 09003KT 10SM OVC006 07/07 A2966 RMK AO2  T00650065,,,600.0,,,43.7,,E,29.02,28.92,,Overcast
KIGQ,01/20/2017 23:35 UTC,29.67,43.52,43.52,100.0,3.44,120.0,,,,,,64.0,,,,7.0,,KIGQ 202335Z AUTO 12003KT 7SM OVC006 06/06 A2967 RMK AO2  T00640064,,,600.0,,,43.52,,ESE,29.02,28.93,,Overcast
KIGQ,01/20/2017 23:55 UTC,29.67,43.34,43.34,100.0,5.75,120.0,,,,,,64.0,,,,7.0,,KIGQ 202355Z AUTO 12005KT 7SM OVC006 06/06 A2967 RMK AO2 T00630063  10067 20046,44.06,40.28,600.0,,,43.34,,ESE,29.02,28.93,,Overcast
KIGQ,01/21/2017 00:15 UTC,29.66,43.7,43.7,100.0,6.91,120.0,,31.0,,,,63.0,124.0,,,5.0,,KIGQ 210015Z AUTO 12006KT 5SM BR BKN006 OVC012 07/07 A2966 RMK AO2  T00650065,,,600.0,,,43.7,,ESE,29.02,28.92,,Mist
KIGQ,01/21/2017 00:35 UTC,29.67,43.7,43.7,100.0,4.61,120.0,,31.0,,,,104.0,,,,5.0,,KIGQ 210035Z AUTO 12004KT 5SM BR OVC010 07/07 A2967 RMK AO2  T00650065,,,1000.0,,,43.7,,ESE,29.02,28.92,,Mist
KIGQ,01/21/2017 00:55 UTC,29.66,43.7,43.7,100.0,4.61,130.0,,31.0,,,,73.0,104.0,,,4.0,,KIGQ 210055Z AUTO 13004KT 4SM BR BKN007 OVC010 07/07 A2966 RMK AO2  T00650065,,,700.0,,,43.7,,SE,29.02,28.92,,Mist
KIGQ,01/21/2017 01:15 UTC,29.66,44.78,44.78,100.0,0.0,0.0,,31.0,604.0,,,72.0,303.0,,,5.0,,KIGQ 210115Z AUTO 00000KT 5SM BR SCT007 BKN030 OVC060 07/07  A2966 RMK AO2 T00710071,,,3000.0,,,44.78,,N,29.02,28.88,,Mist
KIGQ,01/21/2017 01:35 UTC,29.66,44.06,44.06,100.0,3.44,160.0,,31.0,,,,373.0,604.0,,,4.0,,KIGQ 210135Z AUTO 16003KT 4SM BR BKN037 OVC060 07/07 A2966 RMK AO2  T00670067,,,3700.0,,,44.06,,SSE,29.02,28.91,,Mist
KIGQ,01/21/2017 01:55 UTC,29.66,44.6,44.6,100.0,4.61,160.0,,31.0,,,,394.0,,,,5.0,,KIGQ 210155Z AUTO 16004KT 5SM BR OVC039 07/07 A2966 RMK AO2  T00700070,,,3900.0,,,44.6,,SSE,29.02,28.89,,Mist
KIGQ,01/21/2017 02:15 UTC,29.66,45.5,45.5,100.0,5.75,160.0,,31.0,394.0,,,42.0,293.0,,,5.0,,KIGQ 210215Z AUTO 16005KT 5SM BR SCT004 BKN029 OVC039 08/08  A2966 RMK AO2 T00750075,,,2900.0,,,45.5,,SSE,29.02,28.86,,Mist
KIGQ,01/21/2017 02:35 UTC,29.66,45.68,45.68,100.0,6.91,150.0,,31.0,,,,43.0,274.0,,,4.0,,KIGQ 210235Z AUTO 15006KT 4SM BR BKN004 OVC027 08/08 A2966 RMK AO2  T00760076,,,400.0,,,45.68,,SSE,29.02,28.85,,Mist
KIGQ,01/21/2017 02:55 UTC,29.66,46.04,46.04,100.0,5.75,160.0,,31.0,,,,44.0,,,,4.0,,KIGQ 210255Z AUTO 16005KT 4SM BR OVC004 08/08 A2966 RMK AO2  T00780078,,,400.0,,,46.04,,SSE,29.02,28.83,,Mist
KIGQ,01/21/2017 03:15 UTC,29.66,45.68,45.68,100.0,5.75,150.0,,31.0,,,,44.0,,,,5.0,,KIGQ 210315Z AUTO 15005KT 5SM BR OVC004 08/08 A2966 RMK AO2  T00760076,,,400.0,,,45.68,,SSE,29.02,28.85,,Mist
KIGQ,01/21/2017 03:35 UTC,29.66,46.04,46.04,100.0,5.75,150.0,,31.0,,,,42.0,204.0,,,5.0,,KIGQ 210335Z AUTO 15005KT 5SM BR SCT004 OVC020 08/08 A2966 RMK AO2  T00780078,,,2000.0,,,46.04,,SSE,29.02,28.83,,Mist
KIGQ,01/21/2017 03:55 UTC,29.65,46.22,46.22,100.0,5.75,150.0,,17.0,,,,204.0,,,,5.0,,KIGQ 210355Z AUTO 15005KT 5SM -DZ OVC020 08/08 A2965 RMK AO2  T00790079,,,2000.0,,,46.22,,SSE,29.01,28.82,,Light Drizzle
KIGQ,01/21/2017 04:15 UTC,29.65,46.4,46.4,100.0,3.44,150.0,,13.0,,,,184.0,,,,5.0,,KIGQ 210415Z AUTO 15003KT 5SM -RA OVC018 08/08 A2965 RMK AO2  T00800080,,,1800.0,,,46.4,,SSE,29.01,28.81,,Light Rain
KIGQ,01/21/2017 04:35 UTC,29.64,46.04,46.04,100.0,4.61,130.0,,31.0,,,,164.0,,,,4.0,,KIGQ 210435Z AUTO 13004KT 4SM BR OVC016 08/08 A2964 RMK AO2  T00780078,,,1600.0,,,46.04,,SE,29.0,28.81,,Mist
KIGQ,01/21/2017 04:55 UTC,29.64,46.4,46.4,100.0,5.75,140.0,,31.0,,,,164.0,,,,5.0,,KIGQ 210455Z AUTO 14005KT 5SM BR OVC016 08/08 A2964 RMK AO2  T00800080,,,1600.0,,,46.4,,SE,29.0,28.8,,Mist
KIGQ,01/21/2017 05:15 UTC,29.63,46.76,46.76,100.0,6.91,140.0,,31.0,,,,164.0,,,,5.0,,KIGQ 210515Z AUTO 14006KT 5SM BR OVC016 08/08 A2963 RMK AO2  T00820082,,,1600.0,,,46.76,,SE,28.99,28.78,,Mist
KIGQ,01/21/2017 05:35 UTC,29.63,47.12,47.12,100.0,5.75,160.0,,,,,,163.0,234.0,,,7.0,,KIGQ 210535Z AUTO 16005KT 7SM BKN016 OVC023 08/08 A2963 RMK AO2  T00840084,,,1600.0,,,47.12,,SSE,28.99,28.76,,Overcast
KIGQ,01/21/2017 05:55 UTC,29.63,47.3,47.3,100.0,4.61,160.0,,13.0,,,,164.0,,,,5.0,,KIGQ 210555Z AUTO 16004KT 5SM -RA OVC016 09/09 A2963 RMK AO2  T00850085 10085 20064 400850025,47.3,43.52,1600.0,47.3,36.5,47.3,,SSE,28.99,28.75,,Light Rain
KIGQ,01/21/2017 06:15 UTC,29.62,47.3,47.3,100.0,5.75,160.0,,31.0,,,,143.0,204.0,,,5.0,,KIGQ 210615Z AUTO 16005KT 5SM BR BKN014 OVC020 09/09 A2962 RMK AO2  T00850085,,,1400.0,,,47.3,,SSE,28.98,28.74,,Mist
KIGQ,01/21/2017 06:35 UTC,29.61,48.2,48.2,100.0,4.61,180.0,,,504.0,,,143.0,203.0,,,7.0,,KIGQ 210635Z AUTO 18004KT 7SM BKN014 BKN020 OVC050 09/09 A2961 RMK AO2 T00900090,,,1400.0,,,48.2,,S,28.97,28.7,,Overcast
KIGQ,01/21/2017 06:55 UTC,29.62,46.4,46.4,100.0,4.61,180.0,,31.0,504.0,,,113.0,433.0,,,5.0,,KIGQ 210655Z AUTO 18004KT 5SM BR BKN011 BKN043 OVC050 08/08  A2962 RMK AO2 T00800080,,,1100.0,,,46.4,,S,28.98,28.78,,Mist
KIGQ,01/21/2017 07:15 UTC,29.61,46.04,46.04,100.0,4.61,140.0,,31.0,604.0,,,112.0,232.0,,,5.0,,KIGQ 210715Z AUTO 14004KT 5SM BR SCT011 SCT023 OVC060 08/08  A2961 RMK AO2 T00780078,,,6000.0,,,46.04,,SE,28.97,28.78,,Mist
KIGQ,01/21/2017 07:35 UTC,29.61,46.94,46.94,100.0,5.75,150.0,,31.0,604.0,,,282.0,342.0,,,5.0,,KIGQ 210735Z AUTO 15005KT 5SM BR SCT028 SCT034 OVC060 08/08  A2961 RMK AO2 T00830083,,,6000.0,,,46.94,,SSE,28.97,28.75,,Mist
KIGQ,01/21/2017 07:55 UTC,29.61,47.3,47.3,100.0,4.61,170.0,,31.0,604.0,,,312.0,392.0,,,5.0,,KIGQ 210755Z AUTO 17004KT 5SM BR SCT031 SCT039 OVC060 09/09  A2961 RMK AO2 T00850085,,,6000.0,,,47.3,,S,28.97,28.73,,Mist
KIGQ,01/21/2017 08:15 UTC,29.61,47.3,47.3,100.0,4.61,150.0,,31.0,,,,604.0,,,,5.0,,KIGQ 210815Z AUTO 15004KT 5SM BR OVC060 09/09 A2961 RMK AO2  T00850085,,,6000.0,,,47.3,,SSE,28.97,28.73,,Mist
KIGQ,01/21/2017 08:35 UTC,29.6,47.3,47.3,100.0,5.75,150.0,,31.0,,,,552.0,654.0,,,5.0,,KIGQ 210835Z AUTO 15005KT 5SM BR SCT055 OVC065 09/09 A2960 RMK AO2  T00850085,,,6500.0,,,47.3,,SSE,28.96,28.72,,Mist
KIGQ,01/21/2017 08:55 UTC,29.6,47.48,47.48,100.0,8.05,160.0,,31.0,654.0,,,462.0,503.0,,,4.0,,KIGQ 210855Z AUTO 16007KT 4SM BR SCT046 BKN050 OVC065 09/09  A2960 RMK AO2 T00860086,,,5000.0,,,47.48,,SSE,28.96,28.72,,Mist
KIGQ,01/21/2017 09:15 UTC,29.58,47.3,47.3,100.0,6.91,140.0,,31.0,503.0,,,362.0,443.0,,,4.0,,KIGQ 210915Z AUTO 14006KT 4SM BR SCT036 BKN044 BKN050 09/09  A2958 RMK AO2 T00850085,,,4400.0,,,47.3,,SE,28.94,28.7,,Mist
KIGQ,01/21/2017 09:35 UTC,29.58,46.4,46.4,100.0,6.91,150.0,,31.0,,,,362.0,652.0,,,4.0,,KIGQ 210935Z AUTO 15006KT 4SM BR SCT036 SCT065 08/08 A2958 RMK AO2  T00800080,,,,,,46.4,,SSE,28.94,28.74,,Mist
KIGQ,01/21/2017 09:55 UTC,29.57,46.58,46.58,100.0,5.75,150.0,,31.0,,,,702.0,,,,4.0,,KIGQ 210955Z AUTO 15005KT 4SM BR SCT070 08/08 A2957 RMK AO2  T00810081,,,,,,46.58,,SSE,28.93,28.72,,Mist
KIGQ,01/21/2017 10:15 UTC,29.57,46.04,46.04,100.0,5.75,160.0,,31.0,,,,1.0,,,,4.0,,KIGQ 211015Z AUTO 16005KT 4SM BR CLR 08/08 A2957 RMK AO2  T00780078,,,,,,46.04,,SSE,28.93,28.74,,Mist
KIGQ,01/21/2017 10:35 UTC,29.56,46.94,46.94,100.0,5.75,160.0,,31.0,,,,153.0,,,,5.0,,KIGQ 211035Z AUTO 16005KT 5SM BR BKN015 08/08 A2956 RMK AO2  T00830083,,,1500.0,,,46.94,,SSE,28.92,28.7,,Mist
KIGQ,01/21/2017 10:55 UTC,29.56,48.2,48.2,100.0,8.05,170.0,,,,,,134.0,,,,7.0,,KIGQ 211055Z AUTO 17007KT 7SM OVC013 09/09 A2956 RMK AO2 LTG DSNT  W T00900090,,,1300.0,,,48.2,,S,28.92,28.65,,Overcast
KIGQ,01/21/2017 11:15 UTC,29.56,48.92,48.92,100.0,11.5,160.0,16.11,,,,,114.0,,,,7.0,,KIGQ 211115Z AUTO 16010G14KT 7SM OVC011 09/09 A2956 RMK AO2  T00940094,,,1100.0,,,48.92,,SSE,28.92,28.62,,Overcast
KIGQ,01/21/2017 11:35 UTC,29.56,48.74,48.74,100.0,9.22,160.0,,,,,,114.0,,,,7.0,,KIGQ 211135Z AUTO 16008KT 7SM OVC011 09/09 A2956 RMK AO2  T00930093,,,1100.0,,,48.74,,SSE,28.92,28.62,,Overcast
KIGQ,01/21/2017 11:55 UTC,29.56,47.84,47.84,100.0,9.22,170.0,,,,,,94.0,,,,7.0,,KIGQ 211155Z AUTO 17008KT 7SM OVC009 09/09 A2956 RMK AO2 T00880088  10095 20075,49.1,45.5,900.0,,,47.84,,S,28.92,28.66,,Overcast
KIGQ,01/21/2017 12:15 UTC,29.56,47.3,47.3,100.0,9.22,160.0,,31.0,,,,73.0,,,,5.0,,KIGQ 211215Z AUTO 16008KT 5SM BR BKN007 09/09 A2956 RMK AO2  T00850085,,,700.0,,,47.3,,SSE,28.92,28.68,,Mist
KIGQ,01/21/2017 12:35 UTC,29.55,47.3,47.3,100.0,8.05,150.0,,31.0,,,,72.0,,,,5.0,,KIGQ 211235Z AUTO 15007KT 5SM BR SCT007 09/09 A2955 RMK AO2  T00850085,,,,,,47.3,,SSE,28.91,28.67,,Mist
KIGQ,01/21/2017 12:55 UTC,29.56,46.58,46.58,100.0,6.91,150.0,,31.0,,,,53.0,,,,4.0,,KIGQ 211255Z AUTO 15006KT 4SM BR BKN005 08/08 A2956 RMK AO2  T00810081,,,500.0,,,46.58,,SSE,28.92,28.71,,Mist
KIGQ,01/21/2017 13:15 UTC,29.56,46.22,46.22,100.0,6.91,150.0,,31.0,,,,54.0,,,,4.0,,KIGQ 211315Z AUTO 15006KT 4SM BR OVC005 08/08 A2956 RMK AO2  T00790079,,,500.0,,,46.22,,SSE,28.92,28.73,,Mist
KIGQ,01/21/2017 13:35 UTC,29.56,46.76,46.76,100.0,8.05,150.0,,31.0,,,,54.0,,,,2.5,,KIGQ 211335Z AUTO 15007KT 2 1/2SM BR OVC005 08/08 A2956 RMK AO2  T00820082,,,500.0,,,46.76,,SSE,28.92,28.7,,Mist
KIGQ,01/21/2017 13:55 UTC,29.55,46.76,46.76,100.0,9.22,160.0,,31.0,,,,54.0,,,,2.5,,KIGQ 211355Z AUTO 16008KT 2 1/2SM BR OVC005 08/08 A2955 RMK AO2  T00820082,,,500.0,,,46.76,,SSE,28.91,28.69,,Mist
KIGQ,01/21/2017 14:15 UTC,29.55,47.3,47.3,100.0,6.91,160.0,,31.0,,,,54.0,,,,2.5,,KIGQ 211415Z AUTO 16006KT 2 1/2SM BR OVC005 09/09 A2955 RMK AO2  T00850085,,,500.0,,,47.3,,SSE,28.91,28.67,,Mist
KIGQ,01/21/2017 14:35 UTC,29.55,47.48,47.48,100.0,5.75,160.0,,31.0,,,,54.0,,,,2.5,,KIGQ 211435Z AUTO 16005KT 2 1/2SM BR OVC005 09/09 A2955 RMK AO2  T00860086,,,500.0,,,47.48,,SSE,28.91,28.67,,Mist
KIGQ,01/21/2017 14:55 UTC,29.55,48.38,48.38,100.0,6.91,150.0,,31.0,,,,53.0,,,,3.0,,KIGQ 211455Z AUTO 15006KT 3SM BR BKN005 09/09 A2955 RMK AO2  T00910091,,,500.0,,,48.38,,SSE,28.91,28.63,,Mist
KIGQ,01/21/2017 15:15 UTC,29.55,49.46,49.46,100.0,9.22,150.0,,31.0,,,,52.0,,,,5.0,,KIGQ 211515Z AUTO 15008KT 5SM BR SCT005 10/10 A2955 RMK AO2  T00970097,,,,,,49.46,,SSE,28.91,28.58,,Mist
KIGQ,01/21/2017 15:35 UTC,29.56,50.54,50.0,100.0,9.22,170.0,16.11,,,,,102.0,,,,7.0,,KIGQ 211535Z AUTO 17008G14KT 7SM SCT010 10/10 A2956 RMK AO2  T01030100,,,,,,50.54,,S,28.92,28.55,,Partly Cloudy
KIGQ,01/21/2017 15:55 UTC,29.56,51.8,50.36,93.55,11.5,170.0,,,,,,102.0,,,,10.0,,KIGQ 211555Z AUTO 17010KT 10SM SCT010 11/10 A2956 RMK AO2  T01100102,,,,,,49.98,,S,28.92,28.55,,Partly Cloudy
KIGQ,01/21/2017 16:15 UTC,29.55,52.7,50.54,92.34,11.5,170.0,16.11,,,,,1.0,,,,10.0,,KIGQ 211615Z AUTO 17010G14KT 10SM CLR 12/10 A2955 RMK AO2  T01150103,,,,,,50.52,,S,28.91,28.51,,Clear
KIGQ,01/21/2017 16:35 UTC,29.54,53.96,51.44,93.6,14.97,170.0,,,,,,1.0,,,,10.0,,KIGQ 211635Z AUTO 17013KT 10SM CLR 12/11 A2954 RMK AO2  T01220108,,,,,,52.14,,S,28.9,28.43,,Clear
KIGQ,01/21/2017 16:55 UTC,29.53,55.04,51.8,87.66,12.66,180.0,,,,,,1.0,,,,10.0,,KIGQ 211655Z AUTO 18011KT 10SM CLR 13/11 A2953 RMK AO2  T01280110,,,,,,51.41,,S,28.89,28.44,,Clear
KIGQ,01/21/2017 17:15 UTC,29.52,56.3,52.16,82.14,13.8,190.0,17.27,,,,,1.0,,,,10.0,,KIGQ 211715Z AUTO 19012G15KT 10SM CLR 14/11 A2952 RMK AO2  T01350112,,,,,,50.87,,S,28.88,28.43,,Clear
KIGQ,01/21/2017 17:35 UTC,29.52,56.66,51.8,82.14,17.27,200.0,20.71,,,,,1.0,,,,10.0,,KIGQ 211735Z AUTO 20015G18KT 10SM CLR 14/11 A2952 RMK AO2  T01370110,,,,,,51.22,,SSW,28.88,28.42,,Clear
KIGQ,01/21/2017 17:55 UTC,29.52,57.2,51.98,82.14,14.97,200.0,20.71,,,,,1.0,,,,10.0,,KIGQ 211755Z AUTO 20013G18KT 10SM CLR 14/11 A2952 RMK AO2  T01400111 10140 20079,57.2,46.22,,,,51.75,,SSW,28.88,28.39,,Clear
KIGQ,01/21/2017 18:15 UTC,29.5,58.1,52.34,77.01,17.27,210.0,20.71,,,,,1.0,,,,10.0,,KIGQ 211815Z AUTO 21015G18KT 10SM CLR 15/11 A2950 RMK AO2  T01450113,,,,,,50.87,,SSW,28.86,28.39,,Clear
KIGQ,01/21/2017 18:35 UTC,29.5,58.1,52.16,77.01,12.66,210.0,,,,,,1.0,,,,10.0,,KIGQ 211835Z AUTO 21011KT 10SM CLR 15/11 A2950 RMK AO2  T01450112,,,,,,50.87,,SSW,28.86,28.39,,Clear
KIGQ,01/21/2017 18:55 UTC,29.49,58.28,52.16,77.01,16.11,200.0,,,,,,1.0,,,,10.0,,KIGQ 211855Z AUTO 20014KT 10SM CLR 15/11 A2949 RMK AO2  T01460112,,,,,,51.04,,SSW,28.85,28.38,,Clear
KIGQ,01/21/2017 19:15 UTC,29.49,58.28,52.34,77.01,16.11,200.0,,,,,,242.0,,,,10.0,,KIGQ 211915Z AUTO 20014KT 10SM SCT024 15/11 A2949 RMK AO2  T01460113,,,,,,51.04,,SSW,28.85,28.38,,Partly Cloudy
KIGQ,01/21/2017 19:35 UTC,29.49,59.0,52.16,77.01,14.97,210.0,,,,,,262.0,,,,10.0,,KIGQ 211935Z AUTO 21013KT 10SM SCT026 15/11 A2949 RMK AO2  T01500112,,,,,,51.74,,SSW,28.85,28.34,,Partly Cloudy
KIGQ,01/21/2017 19:55 UTC,29.48,59.0,53.6,82.27,16.11,220.0,20.71,,,,,263.0,,,,10.0,,KIGQ 211955Z AUTO 22014G18KT 10SM BKN026 15/12 A2948,,,2600.0,,,53.56,,SW,28.84,28.26,,Mostly Cloudy
KIGQ,01/21/2017 20:15 UTC,29.48,59.18,51.62,77.01,13.8,210.0,21.85,,,,,262.0,,,,10.0,,KIGQ 212015Z AUTO 21012G19KT 10SM SCT026 15/11 A2948 RMK AO2  T01510109,,,,,,51.92,,SSW,28.84,28.32,,Partly Cloudy
KIGQ,01/21/2017 20:35 UTC,29.48,58.82,51.44,77.01,17.27,210.0,,,,,,282.0,,,,10.0,,KIGQ 212035Z AUTO 21015KT 10SM SCT028 15/11 A2948 RMK AO2  T01490108,,,,,,51.57,,SSW,28.84,28.34,,Partly Cloudy
KIGQ,01/21/2017 20:55 UTC,29.48,57.56,51.08,82.14,11.5,230.0,21.85,,,,,282.0,,,,10.0,,KIGQ 212055Z AUTO 23010G19KT 200V260 10SM SCT028 14/11 A2948 RMK AO2 T01420106,,,,,,52.1,,SW,28.84,28.33,,Partly Cloudy
KIGQ,01/21/2017 21:15 UTC,29.49,59.0,51.98,77.01,11.5,210.0,16.11,,,,,282.0,,,,10.0,,KIGQ 212115Z AUTO 21010G14KT 10SM SCT028 15/11 A2949 RMK AO2  T01500111,,,,,,51.74,,SSW,28.85,28.34,,Partly Cloudy
KIGQ,01/21/2017 21:35 UTC,29.49,58.64,51.8,77.01,11.5,210.0,18.41,,,,,1.0,,,,10.0,,KIGQ 212135Z AUTO 21010G16KT 10SM CLR 15/11 A2949 RMK AO2  T01480110,,,,,,51.39,,SSW,28.85,28.36,,Clear
KIGQ,01/21/2017 21:55 UTC,29.5,58.1,51.8,77.01,10.36,220.0,,,,,,302.0,,,,10.0,,KIGQ 212155Z AUTO 22009KT 10SM SCT030 15/11 A2950 RMK AO2  T01450110,,,,,,50.87,,SW,28.86,28.39,,Partly Cloudy
KIGQ,01/21/2017 22:15 UTC,29.51,57.2,50.18,76.85,10.36,230.0,,,,,,332.0,,,,10.0,,KIGQ 212215Z AUTO 23009KT 10SM SCT033 14/10 A2951 RMK AO2  T01400101,,,,,,49.94,,SW,28.87,28.45,,Partly Cloudy
KIGQ,01/21/2017 22:35 UTC,29.52,56.3,50.18,76.85,9.22,240.0,,,,,,392.0,,,,10.0,,KIGQ 212235Z AUTO 24008KT 10SM SCT039 14/10 A2952 RMK AO2  T01350101,,,,,,49.06,,WSW,28.88,28.5,,Partly Cloudy
KIGQ,01/21/2017 22:55 UTC,29.52,54.86,49.64,82.01,6.91,230.0,,,,,,392.0,,,,10.0,,KIGQ 212255Z AUTO 23006KT 10SM SCT039 13/10 A2952 RMK AO2  T01270098,,,,,,49.42,,SW,28.88,28.5,,Partly Cloudy
KIGQ,01/21/2017 23:15 UTC,29.53,53.24,48.74,81.88,5.75,230.0,,,,,,1.0,,,,10.0,,KIGQ 212315Z AUTO 23005KT 10SM CLR 12/09 A2953 RMK AO2  T01180093,,,,,,47.79,,SW,28.89,28.58,,Clear
KIGQ,01/21/2017 23:35 UTC,29.53,51.8,47.48,87.48,5.75,230.0,,,,,,1.0,,,,10.0,,KIGQ 212335Z AUTO 23005KT 10SM CLR 11/09 A2953 RMK AO2  T01100086,,,,,,48.16,,SW,28.89,28.58,,Clear
KIGQ,01/21/2017 23:55 UTC,29.54,51.26,47.48,87.48,4.61,220.0,,,,,,1.0,,,,10.0,,KIGQ 212355Z AUTO 22004KT 10SM CLR 11/09 A2954 RMK AO2 T01070086  10153 20107,59.54,51.26,,,,47.63,,SW,28.9,28.61,,Clear
KIGQ,01/22/2017 00:15 UTC,29.55,47.48,45.5,93.45,5.75,190.0,,,,,,1.0,,,,10.0,,KIGQ 220015Z AUTO 19005KT 10SM CLR 09/08 A2955 RMK AO2  T00860075,,,,,,45.66,,S,28.91,28.72,,Clear
KIGQ,01/22/2017 00:35 UTC,29.56,45.86,45.5,100.0,0.0,0.0,,,,,,1.0,,,,10.0,,KIGQ 220035Z AUTO 00000KT 10SM CLR 08/08 A2956 RMK AO2  T00770075,,,,,,45.86,,N,28.92,28.74,,Clear
KIGQ,01/22/2017 00:55 UTC,29.56,46.22,45.5,100.0,0.0,0.0,,,,,,1.0,,,,10.0,,KIGQ 220055Z AUTO 00000KT 10SM CLR 08/08 A2956 RMK AO2  T00790075,,,,,,46.22,,N,28.92,28.73,,Clear
KIGQ,01/22/2017 01:15 UTC,29.57,42.98,42.98,100.0,0.0,0.0,,,,,,1.0,,,,10.0,,KIGQ 220115Z AUTO 00000KT 10SM CLR 06/06 A2957 RMK AO2  T00610061,,,,,,42.98,,N,28.93,28.85,,Clear
KIGQ,01/22/2017 01:35 UTC,29.57,41.54,41.54,100.0,0.0,0.0,,9.0,,,,55.0,,,,0.5,,KIGQ 220135Z AUTO 00000KT 1/2SM FG VV005 05/05 A2957 RMK AO2  T00530053,,,500.0,,,41.54,,N,28.93,28.9,,Fog
KIGQ,01/22/2017 01:55 UTC,29.57,40.28,40.28,100.0,0.0,0.0,,9.0,,,,55.0,,,,0.5,,KIGQ 220155Z AUTO 00000KT 1/2SM FG VV005 05/05 A2957 RMK AO2  T00460046,,,500.0,,,40.28,,N,28.93,28.94,,Fog
KIGQ,01/22/2017 02:15 UTC,29.58,42.08,42.08,100.0,0.0,0.0,,,,,,1.0,,,,7.0,,KIGQ 220215Z AUTO 00000KT 7SM CLR 06/06 A2958 RMK AO2  T00560056,,,,,,42.08,,N,28.94,28.89,,Clear
KIGQ,01/22/2017 02:35 UTC,29.58,40.1,40.1,100.0,0.0,0.0,,31.0,,,,55.0,,,,0.75,,KIGQ 220235Z AUTO 00000KT 3/4SM BR VV005 05/05 A2958 RMK AO2  T00450045,,,500.0,,,40.1,,N,28.94,28.96,,Mist
KIGQ,01/22/2017 02:55 UTC,29.59,38.48,38.48,100.0,0.0,0.0,,9.0,,,,24.0,,,,0.25,,KIGQ 220255Z AUTO 00000KT 1/4SM FG OVC002 04/04 A2959 RMK AO2  T00360036,,,200.0,,,38.48,,N,28.95,29.01,,Fog
KIGQ,01/22/2017 03:15 UTC,29.59,37.76,37.76,100.0,0.0,0.0,,9.0,,,,24.0,,,,0.25,,KIGQ 220315Z AUTO 00000KT 1/4SM FG OVC002 03/03 A2959 RMK AO2  T00320032,,,200.0,,,37.76,,N,28.95,29.03,,Fog
KIGQ,01/22/2017 03:35 UTC,29.6,38.48,38.48,100.0,0.0,0.0,,9.0,,,,24.0,,,,0.25,,KIGQ 220335Z AUTO 00000KT 1/4SM FG OVC002 04/04 A2960 RMK AO2  T00360036,,,200.0,,,38.48,,N,28.96,29.02,,Fog
KIGQ,01/22/2017 03:55 UTC,29.6,37.58,37.58,100.0,0.0,0.0,,9.0,,,,24.0,,,,0.25,,KIGQ 220355Z AUTO 00000KT 1/4SM FG OVC002 03/03 A2960 RMK AO2  T00310031,,,200.0,,,37.58,,N,28.96,29.05,,Fog
KIGQ,01/22/2017 04:15 UTC,29.6,38.84,38.84,100.0,0.0,0.0,,9.0,,,,24.0,,,,0.25,,KIGQ 220415Z AUTO 00000KT 1/4SM FG OVC002 04/04 A2960 RMK AO2  T00380038,,,200.0,,,38.84,,N,28.96,29.01,,Fog
KIGQ,01/22/2017 04:35 UTC,29.6,37.58,37.58,100.0,0.0,0.0,,9.0,,,,24.0,,,,0.5,,KIGQ 220435Z AUTO 00000KT 1/2SM FG OVC002 03/03 A2960 RMK AO2  T00310031,,,200.0,,,37.58,,N,28.96,29.05,,Fog
KIGQ,01/22/2017 04:55 UTC,29.6,33.98,33.98,100.0,0.0,0.0,,9.0,,,,24.0,,,,0.25,,KIGQ 220455Z AUTO 00000KT 1/4SM FG OVC002 01/01 A2960 RMK AO2 LTG  DSNT SE T00110011,,,200.0,,,33.98,,N,28.96,29.14,,Fog
KIGQ,01/22/2017 05:15 UTC,29.6,34.7,34.7,100.0,0.0,0.0,,9.0,,,,24.0,,,,0.5,,KIGQ 220515Z AUTO 00000KT 1/2SM FG OVC002 02/02 A2960 RMK AO2  T00150015,,,200.0,,,34.7,,N,28.96,29.12,,Fog
KIGQ,01/22/2017 05:35 UTC,29.59,35.6,35.6,100.0,0.0,0.0,,9.0,,,,24.0,,,,0.25,,KIGQ 220535Z AUTO 00000KT 1/4SM FG OVC002 02/02 A2959 RMK AO2  T00200020,,,200.0,,,35.6,,N,28.95,29.09,,Fog
KIGQ,01/22/2017 05:55 UTC,29.59,36.68,36.68,100.0,0.0,0.0,,9.0,,,,24.0,,,,0.25,,KIGQ 220555Z AUTO 00000KT 1/4SM FG OVC002 03/03 A2959 RMK AO2  T00260026 10103 20010 401530010,50.54,33.8,200.0,59.54,33.8,36.68,,N,28.95,29.06,,Fog
KIGQ,01/22/2017 06:15 UTC,29.59,35.42,35.42,100.0,0.0,0.0,,9.0,,,,24.0,,,,0.5,,KIGQ 220615Z AUTO 00000KT 1/2SM FG OVC002 02/02 A2959 RMK AO2  T00190019,,,200.0,,,35.42,,N,28.95,29.1,,Fog
KIGQ,01/22/2017 06:35 UTC,29.59,33.26,33.26,100.0,0.0,0.0,,9.0,,,,24.0,,,,0.5,,KIGQ 220635Z AUTO 00000KT 1/2SM FG OVC002 01/01 A2959 RMK AO2  T00070007,,,200.0,,,33.26,,N,28.95,29.15,,Fog
KIGQ,01/22/2017 06:55 UTC,29.6,35.06,35.06,100.0,4.61,310.0,,31.0,,,,23.0,,,,4.0,,KIGQ 220655Z AUTO 31004KT 4SM BR BKN002 02/02 A2960 RMK AO2 LTG  DSNT SE T00170017,,,200.0,,,35.06,,NW,28.96,29.12,,Mist
KIGQ,01/22/2017 07:15 UTC,29.6,34.16,34.16,100.0,0.0,0.0,,31.0,,,,23.0,,,,0.75,,KIGQ 220715Z AUTO 00000KT 3/4SM BR BKN002 01/01 A2960 RMK AO2  T00120012,,,200.0,,,34.16,,N,28.96,29.14,,Mist
KIGQ,01/22/2017 07:35 UTC,29.59,36.32,36.32,100.0,3.44,330.0,,31.0,,,,23.0,,,,2.0,,KIGQ 220735Z AUTO 33003KT 2SM BR BKN002 02/02 A2959 RMK AO2  T00240024,,,200.0,,,36.32,,NNW,28.95,29.07,,Mist
KIGQ,01/22/2017 07:55 UTC,29.6,37.58,37.58,100.0,4.61,320.0,,13.0,,,,24.0,,,,0.25,,KIGQ 220755Z AUTO 32004KT 1/4SM -RA OVC002 03/03 A2960 RMK AO2  T00310031,,,200.0,,,37.58,,NW,28.96,29.05,,Light Rain
KIGQ,01/22/2017 08:15 UTC,29.6,38.48,38.48,100.0,0.0,0.0,,13.0,,,,24.0,,,,0.25,,KIGQ 220815Z AUTO 00000KT 1/4SM -RA OVC002 04/04 A2960 RMK AO2  T00360036,,,200.0,,,38.48,,N,28.96,29.02,,Light Rain
KIGQ,01/22/2017 08:35 UTC,29.59,38.48,38.48,100.0,4.61,30.0,,21.0,,,,24.0,,,,0.25,,KIGQ 220835Z AUTO 03004KT 1/4SM +SN OVC002 04/04 A2959 RMK AO2  T00360036,,,200.0,,,38.48,,NNE,28.95,29.01,,Heavy Snow
KIGQ,01/22/2017 08:55 UTC,29.6,37.4,37.4,100.0,0.0,0.0,,9.0,,,,24.0,,,,0.25,,KIGQ 220855Z AUTO 00000KT 1/4SM FG OVC002 03/03 A2960 RMK AO2  T00300030,,,200.0,,,37.4,,N,28.96,29.05,,Fog
KIGQ,01/22/2017 09:15 UTC,29.59,36.5,36.5,100.0,3.44,50.0,,20.0,,,,24.0,,,,0.25,,KIGQ 220915Z AUTO 05003KT 1/4SM -SN OVC002 03/03 A2959 RMK AO2  T00250025,,,200.0,,,36.5,,NE,28.95,29.07,,Light Snow
KIGQ,01/22/2017 09:35 UTC,29.59,36.68,36.68,100.0,0.0,0.0,,20.0,,,,24.0,,,,0.25,,KIGQ 220935Z AUTO 00000KT 1/4SM -SN OVC002 03/03 A2959 RMK AO2  T00260026,,,200.0,,,36.68,,N,28.95,29.06,,Light Snow
KIGQ,01/22/2017 09:55 UTC,29.59,37.04,37.04,100.0,0.0,0.0,,20.0,,,,24.0,,,,-0.25,,KIGQ 220955Z AUTO 00000KT M1/4SM -SN OVC002 03/03 A2959 RMK AO2  T00280028,,,200.0,,,37.04,,N,28.95,29.05,,Light Snow
KIGQ,01/22/2017 10:15 UTC,29.58,37.4,37.4,100.0,0.0,0.0,,20.0,,,,24.0,,,,-0.25,,KIGQ 221015Z AUTO 00000KT M1/4SM -SN OVC002 03/03 A2958 RMK AO2  T00300030,,,200.0,,,37.4,,N,28.94,29.03,,Light Snow
KIGQ,01/22/2017 10:35 UTC,29.58,37.76,37.76,100.0,3.44,40.0,,21.0,,,,24.0,,,,0.25,,KIGQ 221035Z AUTO 04003KT 1/4SM +SN OVC002 03/03 A2958 RMK AO2  T00320032,,,200.0,,,37.76,,NE,28.94,29.02,,Heavy Snow
KIGQ,01/22/2017 10:55 UTC,29.58,37.94,37.94,100.0,3.44,20.0,,13.0,,,,24.0,,,,0.25,,KIGQ 221055Z AUTO 02003KT 1/4SM -RA OVC002 03/03 A2958 RMK AO2  T00330033,,,200.0,,,37.94,,NNE,28.94,29.02,,Light Rain
KIGQ,01/22/2017 11:15 UTC,29.59,38.66,38.66,100.0,5.75,60.0,,20.0,,,,24.0,,,,0.25,,KIGQ 221115Z AUTO 06005KT 1/4SM -SN OVC002 04/04 A2959 RMK AO2  T00370037,,,200.0,,,38.66,,ENE,28.95,29.01,,Light Snow
KIGQ,01/22/2017 11:35 UTC,29.6,39.02,39.02,100.0,3.44,70.0,,13.0,,,,24.0,,,,0.5,,KIGQ 221135Z AUTO 07003KT 1/2SM -RA OVC002 04/04 A2960 RMK AO2  T00390039,,,200.0,,,39.02,,ENE,28.96,29.01,,Light Rain
KIGQ,01/22/2017 11:55 UTC,29.6,39.2,39.2,100.0,5.75,50.0,,13.0,,,,24.0,,,,0.25,,KIGQ 221155Z AUTO 05005KT 1/4SM -RA OVC002 04/04 A2960 RMK AO2  T00400040 10040 20007,39.2,33.26,200.0,,,39.2,,NE,28.96,29.0,,Light Rain
KIGQ,01/22/2017 12:15 UTC,29.61,38.84,38.84,100.0,5.75,40.0,,20.0,,,,24.0,,,,0.5,,KIGQ 221215Z AUTO 04005KT 1/2SM -SN OVC002 04/04 A2961 RMK AO2  T00380038,,,200.0,,,38.84,,NE,28.97,29.02,,Light Snow
KIGQ,01/22/2017 12:35 UTC,29.61,38.66,38.66,100.0,6.91,50.0,,13.0,,,,24.0,,,,0.75,,KIGQ 221235Z AUTO 05006KT 3/4SM -RA OVC002 04/04 A2961 RMK AO2  T00370037,,,200.0,,,38.66,,NE,28.97,29.03,,Light Rain
KIGQ,01/22/2017 12:55 UTC,29.61,38.66,38.66,100.0,5.75,50.0,,13.0,,,,24.0,,,,0.75,,KIGQ 221255Z AUTO 05005KT 3/4SM -RA OVC002 04/04 A2961 RMK AO2  T00370037,,,200.0,,,38.66,,NE,28.97,29.03,,Light Rain
KIGQ,01/22/2017 13:15 UTC,29.61,38.84,38.84,100.0,0.0,0.0,,31.0,,,,24.0,,,,0.75,,KIGQ 221315Z AUTO 00000KT 3/4SM BR OVC002 04/04 A2961 RMK AO2  T00380038,,,200.0,,,38.84,,N,28.97,29.02,,Mist
KIGQ,01/22/2017 13:35 UTC,29.62,39.2,39.2,100.0,3.44,30.0,,20.0,,,,24.0,,,,0.25,,KIGQ 221335Z AUTO 03003KT 1/4SM -SN OVC002 04/04 A2962 RMK AO2  T00400040,,,200.0,,,39.2,,NNE,28.98,29.02,,Light Snow
KIGQ,01/22/2017 13:55 UTC,29.62,39.2,39.2,100.0,3.44,40.0,,20.0,,,,24.0,,,,0.25,,KIGQ 221355Z AUTO 04003KT 1/4SM -SN OVC002 04/04 A2962 RMK AO2  T00400040,,,200.0,,,39.2,,NE,28.98,29.02,,Light Snow
KIGQ,01/22/2017 14:15 UTC,29.63,39.38,39.38,100.0,3.44,20.0,,9.0,,,,24.0,,,,0.25,,KIGQ 221415Z AUTO 02003KT 1/4SM FG OVC002 04/04 A2963 RMK AO2  T00410041,,,200.0,,,39.38,,NNE,28.99,29.03,,Fog
KIGQ,01/22/2017 14:35 UTC,29.63,39.56,39.56,100.0,3.44,30.0,,9.0,,,,24.0,,,,0.25,,KIGQ 221435Z AUTO 03003KT 1/4SM FG OVC002 04/04 A2963 RMK AO2  T00420042,,,200.0,,,39.56,,NNE,28.99,29.02,,Fog
KIGQ,01/22/2017 14:55 UTC,29.64,39.74,39.74,100.0,4.61,30.0,,9.0,,,,24.0,,,,0.5,,KIGQ 221455Z AUTO 03004KT 1/2SM FG OVC002 04/04 A2964 RMK AO2  T00430043,,,200.0,,,39.74,,NNE,29.0,29.03,,Fog
KIGQ,01/22/2017 15:15 UTC,29.65,39.92,39.92,100.0,5.75,40.0,,9.0,,,,24.0,,,,0.5,,KIGQ 221515Z AUTO 04005KT 1/2SM FG OVC002 04/04 A2965 RMK AO2  T00440044,,,200.0,,,39.92,,NE,29.01,29.03,,Fog
KIGQ,01/22/2017 15:35 UTC,29.66,40.1,40.1,100.0,4.61,60.0,,9.0,,,,24.0,,,,0.5,,KIGQ 221535Z AUTO 06004KT 1/2SM FG OVC002 05/05 A2966 RMK AO2  T00450045,,,200.0,,,40.1,,ENE,29.02,29.04,,Fog
KIGQ,01/22/2017 15:55 UTC,29.65,40.28,40.28,100.0,5.75,40.0,,9.0,,,,24.0,,,,0.5,,KIGQ 221555Z AUTO 04005KT 1/2SM FG OVC002 05/05 A2965 RMK AO2  T00460046,,,200.0,,,40.28,,NE,29.01,29.02,,Fog
KIGQ,01/22/2017 16:15 UTC,29.66,40.64,40.64,100.0,3.44,50.0,,31.0,,,,24.0,,,,0.75,,KIGQ 221615Z AUTO 05003KT 3/4SM BR OVC002 05/05 A2966 RMK AO2  T00480048,,,200.0,,,40.64,,NE,29.02,29.02,,Mist
KIGQ,01/22/2017 16:35 UTC,29.65,40.82,40.82,100.0,6.91,60.0,,31.0,,,,24.0,,,,1.0,,KIGQ 221635Z AUTO 06006KT 1SM BR OVC002 05/05 A2965 RMK AO2  T00490049,,,200.0,,,40.82,,ENE,29.01,29.01,,Mist
KIGQ,01/22/2017 16:55 UTC,29.64,41.18,41.18,100.0,6.91,40.0,,31.0,,,,24.0,,,,1.75,,KIGQ 221655Z AUTO 04006KT 1 3/4SM BR OVC002 05/05 A2964 RMK AO2  T00510051,,,200.0,,,41.18,,NE,29.0,28.98,,Mist
KIGQ,01/22/2017 17:15 UTC,29.63,41.36,41.36,100.0,5.75,30.0,,31.0,,,,24.0,,,,2.0,,KIGQ 221715Z AUTO 03005KT 2SM BR OVC002 05/05 A2963 RMK AO2  T00520052,,,200.0,,,41.36,,NNE,28.99,28.97,,Mist
KIGQ,01/22/2017 17:35 UTC,29.63,41.0,41.0,100.0,6.91,10.0,,31.0,,,,24.0,,,,2.5,,KIGQ 221735Z AUTO 01006KT 2 1/2SM BR OVC002 05/05 A2963 RMK AO2  T00500050,,,200.0,,,41.0,,N,28.99,28.98,,Mist
KIGQ,01/22/2017 17:55 UTC,29.62,40.46,40.46,100.0,5.75,30.0,,31.0,,,,24.0,,,,1.5,,KIGQ 221755Z AUTO 03005KT 1 1/2SM BR OVC002 05/05 A2962 RMK AO2  T00470047 10052 20037,41.36,38.66,200.0,,,40.46,,NNE,28.98,28.99,,Mist
KIGQ,01/22/2017 18:15 UTC,29.62,40.28,40.28,100.0,6.91,30.0,,31.0,,,,24.0,,,,1.0,,KIGQ 221815Z AUTO 03006KT 1SM BR OVC002 05/05 A2962 RMK AO2  T00460046,,,200.0,,,40.28,,NNE,28.98,28.99,,Mist
KIGQ,01/22/2017 18:35 UTC,29.61,40.1,40.1,100.0,5.75,40.0,,31.0,,,,24.0,,,,1.25,,KIGQ 221835Z AUTO 04005KT 1 1/4SM BR OVC002 05/05 A2961 RMK AO2  T00450045,,,200.0,,,40.1,,NE,28.97,28.99,,Mist
KIGQ,01/22/2017 18:55 UTC,29.61,40.1,40.1,100.0,6.91,20.0,,31.0,,,,24.0,,,,1.25,,KIGQ 221855Z AUTO 02006KT 1 1/4SM BR OVC002 05/05 A2961 RMK AO2  T00450045,,,200.0,,,40.1,,NNE,28.97,28.99,,Mist
KIGQ,01/22/2017 19:15 UTC,29.61,40.46,40.46,100.0,4.61,20.0,,31.0,,,,24.0,,,,1.75,,KIGQ 221915Z AUTO 02004KT 1 3/4SM BR OVC002 05/05 A2961 RMK AO2  T00470047,,,200.0,,,40.46,,NNE,28.97,28.98,,Mist
KIGQ,01/22/2017 19:35 UTC,29.6,40.46,40.46,100.0,8.05,10.0,,31.0,,,,24.0,,,,1.0,,KIGQ 221935Z AUTO 01007KT 1SM BR OVC002 05/05 A2960 RMK AO2  T00470047,,,200.0,,,40.46,37.01,N,28.96,28.97,,Mist
KIGQ,01/22/2017 19:55 UTC,29.6,40.64,40.64,100.0,9.22,10.0,,31.0,,,,24.0,,,,2.5,,KIGQ 221955Z AUTO 01008KT 2 1/2SM BR OVC002 05/05 A2960 RMK AO2  T00480048,,,200.0,,,40.64,36.7,N,28.96,28.96,,Mist
KIGQ,01/22/2017 20:15 UTC,29.6,40.64,40.64,100.0,10.36,40.0,,31.0,,,,44.0,,,,5.0,,KIGQ 222015Z AUTO 04009KT 5SM BR OVC004 05/05 A2960 RMK AO2  T00480048,,,400.0,,,40.64,36.24,NE,28.96,28.96,,Mist
KIGQ,01/22/2017 20:35 UTC,29.61,40.82,40.82,100.0,8.05,10.0,,,,,,44.0,,,,7.0,,KIGQ 222035Z AUTO 01007KT 7SM OVC004 05/05 A2961 RMK AO2  T00490049,,,400.0,,,40.82,37.44,N,28.97,28.96,,Overcast
KIGQ,01/22/2017 20:55 UTC,29.61,41.0,41.0,100.0,6.91,30.0,,31.0,,,,44.0,,,,4.0,,KIGQ 222055Z AUTO 03006KT 4SM BR OVC004 05/05 A2961 RMK AO2  T00500050,,,400.0,,,41.0,,NNE,28.97,28.96,,Mist
KIGQ,01/22/2017 21:15 UTC,29.62,40.64,40.64,100.0,9.22,20.0,,31.0,,,,44.0,,,,4.0,,KIGQ 222115Z AUTO 02008KT 4SM BR OVC004 05/05 A2962 RMK AO2  T00480048,,,400.0,,,40.64,36.7,NNE,28.98,28.98,,Mist
KIGQ,01/22/2017 21:35 UTC,29.62,40.28,40.28,100.0,9.22,20.0,,31.0,,,,44.0,,,,3.0,,KIGQ 222135Z AUTO 02008KT 3SM BR OVC004 05/05 A2962 RMK AO2  T00460046,,,400.0,,,40.28,36.28,NNE,28.98,28.99,,Mist
KIGQ,01/22/2017 21:55 UTC,29.62,40.28,40.28,100.0,10.36,30.0,,31.0,,,,44.0,,,,5.0,,KIGQ 222155Z AUTO 03009KT 5SM BR OVC004 05/05 A2962 RMK AO2  T00460046,,,400.0,,,40.28,35.81,NNE,28.98,28.99,,Mist
KIGQ,01/22/2017 22:15 UTC,29.63,40.46,40.46,100.0,6.91,20.0,,31.0,,,,64.0,,,,4.0,,KIGQ 222215Z AUTO 02006KT 4SM BR OVC006 05/05 A2963 RMK AO2  T00470047,,,600.0,,,40.46,,NNE,28.99,29.0,,Mist
KIGQ,01/22/2017 22:35 UTC,29.63,40.1,40.1,100.0,8.05,20.0,,31.0,,,,44.0,,,,2.5,,KIGQ 222235Z AUTO 02007KT 2 1/2SM BR OVC004 05/05 A2963 RMK AO2  T00450045,,,400.0,,,40.1,36.59,NNE,28.99,29.01,,Mist
KIGQ,01/22/2017 22:55 UTC,29.63,40.1,40.1,100.0,5.75,10.0,,31.0,,,,44.0,,,,4.0,,KIGQ 222255Z AUTO 01005KT 4SM BR OVC004 05/05 A2963 RMK AO2  T00450045,,,400.0,,,40.1,,N,28.99,29.01,,Mist
KIGQ,01/22/2017 23:15 UTC,29.64,40.1,40.1,100.0,9.22,20.0,,31.0,,,,63.0,124.0,,,5.0,,KIGQ 222315Z AUTO 02008KT 5SM BR BKN006 OVC012 05/05 A2964 RMK AO2  T00450045,,,600.0,,,40.1,36.06,NNE,29.0,29.02,,Mist
KIGQ,01/22/2017 23:35 UTC,29.64,40.28,40.28,100.0,10.36,20.0,,,,,,84.0,,,,7.0,,KIGQ 222335Z AUTO 02009KT 7SM OVC008 05/05 A2964 RMK AO2  T00460046,,,800.0,,,40.28,35.81,NNE,29.0,29.01,,Overcast
KIGQ,01/22/2017 23:55 UTC,29.64,40.1,40.1,100.0,8.05,20.0,,,,,,104.0,,,,7.0,,KIGQ 222355Z AUTO 02007KT 7SM OVC010 05/05 A2964 RMK AO2 T00450045  10050 20044,41.0,39.92,1000.0,,,40.1,36.59,NNE,29.0,29.02,,Overcast
KIGQ,01/23/2017 00:15 UTC,29.64,40.1,40.1,100.0,8.05,20.0,,,1203.0,,,103.0,133.0,,,7.0,,KIGQ 230015Z AUTO 02007KT 7SM BKN010 BKN013 BKN120 05/05 A2964 RMK AO2 T00450045,,,1000.0,,,40.1,36.59,NNE,29.0,29.02,,Mostly Cloudy
KIGQ,01/23/2017 00:35 UTC,29.63,40.1,40.1,100.0,9.22,20.0,,,,,,82.0,134.0,,,7.0,,KIGQ 230035Z AUTO 02008KT 7SM SCT008 OVC013 05/05 A2963 RMK AO2  T00450045,,,1300.0,,,40.1,36.06,NNE,28.99,29.01,,Overcast
KIGQ,01/23/2017 00:55 UTC,29.63,40.1,40.1,100.0,9.22,20.0,,31.0,,,,82.0,154.0,,,5.0,,KIGQ 230055Z AUTO 02008KT 5SM BR SCT008 OVC015 05/05 A2963 RMK AO2  T00450045,,,1500.0,,,40.1,36.06,NNE,28.99,29.01,,Mist
KIGQ,01/23/2017 01:15 UTC,29.64,40.1,40.1,100.0,8.05,20.0,,,,,,154.0,,,,7.0,,KIGQ 230115Z AUTO 02007KT 7SM OVC015 05/05 A2964 RMK AO2  T00450045,,,1500.0,,,40.1,36.59,NNE,29.0,29.02,,Overcast
KIGQ,01/23/2017 01:35 UTC,29.64,40.1,39.56,93.24,10.36,20.0,16.11,,,,,153.0,1203.0,,,7.0,,KIGQ 230135Z AUTO 02009G14KT 7SM BKN015 BKN120 05/04 A2964 RMK AO2  T00450042,,,1500.0,,,38.28,35.6,NNE,29.0,29.06,,Mostly Cloudy
KIGQ,01/23/2017 01:55 UTC,29.65,39.56,38.84,100.0,6.91,20.0,,,,,,173.0,1203.0,,,10.0,,KIGQ 230155Z AUTO 02006KT 10SM BKN017 BKN120 04/04 A2965 RMK AO2  T00420038,,,1700.0,,,39.56,,NNE,29.01,29.04,,Mostly Cloudy
KIGQ,01/23/2017 02:15 UTC,29.66,39.74,38.66,100.0,5.75,20.0,,,,,,172.0,1204.0,,,10.0,,KIGQ 230215Z AUTO 02005KT 10SM SCT017 OVC120 04/04 A2966 RMK AO2  T00430037,,,12000.0,,,39.74,,NNE,29.02,29.05,,Overcast
KIGQ,01/23/2017 02:35 UTC,29.66,39.74,38.48,100.0,5.75,20.0,,,,,,1204.0,,,,10.0,,KIGQ 230235Z AUTO 02005KT 10SM OVC120 04/04 A2966 RMK AO2  T00430036,,,12000.0,,,39.74,,NNE,29.02,29.05,,Overcast
KIGQ,01/23/2017 02:55 UTC,29.66,39.74,38.48,100.0,6.91,30.0,,,,,,1204.0,,,,7.0,,KIGQ 230255Z AUTO 03006KT 7SM OVC120 04/04 A2966 RMK AO2  T00430036,,,12000.0,,,39.74,,NNE,29.02,29.05,,Overcast
KIGQ,01/23/2017 03:15 UTC,29.66,40.1,38.66,93.24,5.75,30.0,,,,,,152.0,1204.0,,,7.0,,KIGQ 230315Z AUTO 03005KT 7SM SCT015 OVC120 05/04 A2966 RMK AO2  T00450037,,,12000.0,,,38.28,,NNE,29.02,29.08,,Overcast
KIGQ,01/23/2017 03:35 UTC,29.66,40.1,38.84,93.24,6.91,10.0,,,,,,154.0,,,,7.0,,KIGQ 230335Z AUTO 01006KT 7SM OVC015 05/04 A2966 RMK AO2  T00450038,,,1500.0,,,38.28,,N,29.02,29.08,,Overcast
KIGQ,01/23/2017 03:55 UTC,29.67,40.1,38.66,93.24,6.91,10.0,,,,,,134.0,,,,7.0,,KIGQ 230355Z AUTO 01006KT 7SM OVC013 05/04 A2967 RMK AO2  T00450037,,,1300.0,,,38.28,,N,29.02,29.08,,Overcast
KIGQ,01/23/2017 04:15 UTC,29.67,40.1,38.66,93.24,5.75,20.0,,,,,,134.0,,,,10.0,,KIGQ 230415Z AUTO 02005KT 10SM OVC013 05/04 A2967 RMK AO2  T00450037,,,1300.0,,,38.28,,NNE,29.02,29.08,,Overcast
KIGQ,01/23/2017 04:35 UTC,29.68,39.74,38.48,100.0,6.91,10.0,,,,,,134.0,,,,10.0,,KIGQ 230435Z AUTO 01006KT 10SM OVC013 04/04 A2968 RMK AO2  T00430036,,,1300.0,,,39.74,,N,29.03,29.06,,Overcast
KIGQ,01/23/2017 04:55 UTC,29.68,39.2,38.3,100.0,3.44,10.0,,,,,,134.0,,,,10.0,,KIGQ 230455Z AUTO 01003KT 10SM OVC013 04/04 A2968 RMK AO2  T00400035,,,1300.0,,,39.2,,N,29.03,29.08,,Overcast
KIGQ,01/23/2017 05:15 UTC,29.68,38.66,37.94,93.19,6.91,20.0,,,,,,134.0,,,,10.0,,KIGQ 230515Z AUTO 02006KT 10SM OVC013 04/03 A2968 RMK AO2  T00370033,,,1300.0,,,36.84,,NNE,29.03,29.13,,Overcast
KIGQ,01/23/2017 05:35 UTC,29.68,38.66,37.94,93.19,5.75,360.0,,,,,,154.0,,,,10.0,,KIGQ 230535Z AUTO 36005KT 10SM OVC015 04/03 A2968 RMK AO2  T00370033,,,1500.0,,,36.84,,N,29.03,29.13,,Overcast
KIGQ,01/23/2017 05:55 UTC,29.68,39.2,38.48,100.0,6.91,10.0,,,,,,82.0,154.0,,,7.0,,KIGQ 230555Z AUTO 01006KT 7SM SCT008 OVC015 04/04 A2968 RMK AO2  T00400036 10046 20037 400520007,40.28,38.66,1500.0,41.36,33.26,39.2,,N,29.03,29.08,,Overcast
KIGQ,01/23/2017 06:15 UTC,29.68,38.66,38.66,100.0,10.36,360.0,,,,,,64.0,,,,7.0,,KIGQ 230615Z AUTO 36009KT 7SM OVC006 04/04 A2968 RMK AO2  T00370037,,,600.0,,,38.66,33.87,N,29.03,29.09,,Overcast
KIGQ,01/23/2017 06:35 UTC,29.68,38.3,38.3,100.0,8.05,10.0,,,,,,44.0,,,,7.0,,KIGQ 230635Z AUTO 01007KT 7SM OVC004 04/04 A2968 RMK AO2  T00350035,,,400.0,,,38.3,34.48,N,29.03,29.1,,Overcast
KIGQ,01/23/2017 06:55 UTC,29.68,37.76,37.76,100.0,8.05,360.0,,,,,,44.0,,,,7.0,,KIGQ 230655Z AUTO 36007KT 7SM OVC004 03/03 A2968 RMK AO2  T00320032,,,400.0,,,37.76,33.84,N,29.03,29.12,,Overcast
KIGQ,01/23/2017 07:15 UTC,29.68,37.04,37.04,100.0,10.36,360.0,16.11,,,,,44.0,,,,10.0,,KIGQ 230715Z AUTO 36009G14KT 10SM OVC004 03/03 A2968 RMK AO2  T00280028,,,400.0,,,37.04,31.93,N,29.03,29.14,,Overcast
KIGQ,01/23/2017 07:35 UTC,29.68,37.04,37.04,100.0,13.8,360.0,21.85,31.0,,,,44.0,,,,4.0,,KIGQ 230735Z AUTO 36012G19KT 4SM BR OVC004 03/03 A2968 RMK AO2  T00280028,,,400.0,,,37.04,30.68,N,29.03,29.14,,Mist
KIGQ,01/23/2017 07:55 UTC,29.68,36.68,36.68,100.0,9.22,10.0,18.41,,,,,44.0,,,,7.0,,KIGQ 230755Z AUTO 01008G16KT 7SM OVC004 03/03 A2968 RMK AO2  T00260026,,,400.0,,,36.68,32.0,N,29.03,29.15,,Overcast
KIGQ,01/23/2017 08:15 UTC,29.68,37.04,36.86,100.0,10.36,10.0,,,,,,44.0,,,,7.0,,KIGQ 230815Z AUTO 01009KT 7SM OVC004 03/03 A2968 RMK AO2  T00280027,,,400.0,,,37.04,31.93,N,29.03,29.14,,Overcast
KIGQ,01/23/2017 08:35 UTC,29.69,37.04,37.04,100.0,5.75,350.0,,31.0,,,,44.0,,,,5.0,,KIGQ 230835Z AUTO 35005KT 5SM BR OVC004 03/03 A2969 RMK AO2  T00280028,,,400.0,,,37.04,,N,29.04,29.15,,Mist
KIGQ,01/23/2017 08:55 UTC,29.69,37.04,37.04,100.0,4.61,20.0,,31.0,,,,44.0,,,,4.0,,KIGQ 230855Z AUTO 02004KT 4SM BR OVC004 03/03 A2969 RMK AO2  T00280028,,,400.0,,,37.04,,NNE,29.04,29.15,,Mist
KIGQ,01/23/2017 09:15 UTC,29.69,36.68,36.68,100.0,4.61,30.0,,31.0,,,,44.0,,,,4.0,,KIGQ 230915Z AUTO 03004KT 4SM BR OVC004 03/03 A2969 RMK AO2  T00260026,,,400.0,,,36.68,,NNE,29.04,29.16,,Mist
KIGQ,01/23/2017 09:35 UTC,29.7,36.68,36.68,100.0,5.75,20.0,,31.0,,,,44.0,,,,4.0,,KIGQ 230935Z AUTO 02005KT 4SM BR OVC004 03/03 A2970 RMK AO2  T00260026,,,400.0,,,36.68,,NNE,29.05,29.17,,Mist
KIGQ,01/23/2017 09:55 UTC,29.71,36.68,36.68,100.0,5.75,30.0,,31.0,,,,44.0,,,,4.0,,KIGQ 230955Z AUTO 03005KT 4SM BR OVC004 03/03 A2971 RMK AO2  T00260026,,,400.0,,,36.68,,NNE,29.06,29.18,,Mist
KIGQ,01/23/2017 10:15 UTC,29.71,36.5,36.5,100.0,5.75,20.0,,31.0,,,,44.0,,,,4.0,,KIGQ 231015Z AUTO 02005KT 4SM BR OVC004 03/03 A2971 RMK AO2  T00250025,,,400.0,,,36.5,,NNE,29.06,29.18,,Mist
KIGQ,01/23/2017 10:35 UTC,29.71,36.68,36.68,100.0,6.91,360.0,,31.0,,,,44.0,,,,4.0,,KIGQ 231035Z AUTO 36006KT 4SM BR OVC004 03/03 A2971 RMK AO2  T00260026,,,400.0,,,36.68,,N,29.06,29.18,,Mist
KIGQ,01/23/2017 10:55 UTC,29.72,37.22,36.5,100.0,9.22,10.0,16.11,,,,,64.0,,,,7.0,,KIGQ 231055Z AUTO 01008G14KT 7SM OVC006 03/03 A2972 RMK AO2  T00290025,,,600.0,,,37.22,32.64,N,29.07,29.17,,Overcast
KIGQ,01/23/2017 11:15 UTC,29.72,37.4,36.14,93.13,9.22,360.0,17.27,,,,,84.0,,,,7.0,,KIGQ 231115Z AUTO 36008G15KT 7SM OVC008 03/02 A2972 RMK AO2  T00300023,,,800.0,,,35.57,32.86,N,29.07,29.2,,Overcast
KIGQ,01/23/2017 11:35 UTC,29.72,37.4,36.14,93.13,8.05,360.0,,,,,,84.0,,,,7.0,,KIGQ 231135Z AUTO 36007KT 7SM OVC008 03/02 A2972 RMK AO2  T00300023,,,800.0,,,35.57,33.42,N,29.07,29.2,,Overcast
KIGQ,01/23/2017 11:55 UTC,29.72,37.4,35.96,93.13,9.22,360.0,,,,,,104.0,,,,10.0,,KIGQ 231155Z AUTO 36008KT 10SM OVC010 03/02 A2972 RMK AO2  T00300022 10040 20025,39.2,36.5,1000.0,,,35.57,32.86,N,29.07,29.2,,Overcast
KIGQ,01/23/2017 12:15 UTC,29.72,37.4,35.6,93.13,10.36,360.0,17.27,,,,,104.0,,,,10.0,,KIGQ 231215Z AUTO 36009G15KT 10SM OVC010 03/02 A2972 RMK AO2  T00300020,,,1000.0,,,35.57,32.37,N,29.07,29.2,,Overcast
KIGQ,01/23/2017 12:35 UTC,29.73,37.58,35.6,93.13,13.8,360.0,17.27,,,,,124.0,,,,10.0,,KIGQ 231235Z AUTO 36012G15KT 10SM OVC012 03/02 A2973 RMK AO2  T00310020,,,1200.0,,,35.75,31.34,N,29.08,29.21,,Overcast
KIGQ,01/23/2017 12:55 UTC,29.73,37.4,35.24,93.13,10.36,10.0,,,,,,124.0,,,,10.0,,KIGQ 231255Z AUTO 01009KT 10SM OVC012 03/02 A2973 RMK AO2  T00300018,,,1200.0,,,35.57,32.37,N,29.08,29.21,,Overcast
KIGQ,01/23/2017 13:15 UTC,29.73,37.04,35.6,93.13,11.5,10.0,17.27,,,,,124.0,,,,10.0,,KIGQ 231315Z AUTO 01010G15KT 10SM OVC012 03/02 A2973 RMK AO2  T00280020,,,1200.0,,,35.21,31.48,N,29.08,29.22,,Overcast
KIGQ,01/23/2017 13:35 UTC,29.73,37.22,35.42,93.13,10.36,360.0,19.57,,,,,124.0,,,,10.0,,KIGQ 231335Z AUTO 36009G17KT 10SM OVC012 03/02 A2973 RMK AO2  T00290019,,,1200.0,,,35.39,32.15,N,29.08,29.22,,Overcast
KIGQ,01/23/2017 13:55 UTC,29.74,37.04,35.78,93.13,8.05,10.0,,,,,,84.0,,,,10.0,,KIGQ 231355Z AUTO 01007KT 10SM OVC008 03/02 A2974 RMK AO2  T00280021,,,800.0,,,35.21,33.0,N,29.09,29.23,,Overcast
KIGQ,01/23/2017 14:15 UTC,29.74,37.22,35.96,93.13,11.5,350.0,18.41,,,,,84.0,,,,10.0,,KIGQ 231415Z AUTO 35010G16KT 10SM OVC008 03/02 A2974 RMK AO2  T00290022,,,800.0,,,35.39,31.7,N,29.09,29.23,,Overcast
KIGQ,01/23/2017 14:35 UTC,29.75,37.4,36.14,93.13,8.05,350.0,16.11,,,,,84.0,,,,7.0,,KIGQ 231435Z AUTO 35007G14KT 7SM OVC008 03/02 A2975 RMK AO2  T00300023,,,800.0,,,35.57,33.42,N,29.1,29.23,,Overcast
KIGQ,01/23/2017 14:55 UTC,29.75,37.4,36.32,93.13,9.22,360.0,16.11,,,,,84.0,,,,10.0,,KIGQ 231455Z AUTO 36008G14KT 10SM OVC008 03/02 A2975 RMK AO2  T00300024,,,800.0,,,35.57,32.86,N,29.1,29.23,,Overcast
KIGQ,01/23/2017 15:15 UTC,29.76,37.58,36.5,100.0,8.05,10.0,16.11,,,,,84.0,,,,10.0,,KIGQ 231515Z AUTO 01007G14KT 10SM OVC008 03/03 A2976 RMK AO2  T00310025,,,800.0,,,37.58,33.63,N,29.11,29.2,,Overcast
KIGQ,01/23/2017 15:35 UTC,29.77,37.94,36.5,100.0,5.75,10.0,,,,,,84.0,,,,10.0,,KIGQ 231535Z AUTO 01005KT 10SM OVC008 03/03 A2977 RMK AO2  T00330025,,,800.0,,,37.94,,N,29.12,29.2,,Overcast
KIGQ,01/23/2017 15:55 UTC,29.77,38.3,36.5,93.19,10.36,360.0,17.27,,,,,84.0,,,,10.0,,KIGQ 231555Z AUTO 36009G15KT 10SM OVC008 04/03 A2977 RMK AO2  T00350025,,,800.0,,,36.48,33.44,N,29.12,29.23,,Overcast
KIGQ,01/23/2017 16:15 UTC,29.78,38.3,36.68,93.19,6.91,360.0,,,,,,84.0,,,,10.0,,KIGQ 231615Z AUTO 36006KT 10SM OVC008 04/03 A2978 RMK AO2  T00350026,,,800.0,,,36.48,,N,29.13,29.24,,Overcast
KIGQ,01/23/2017 16:35 UTC,29.77,38.3,36.5,93.19,10.36,10.0,16.11,,,,,104.0,,,,10.0,,KIGQ 231635Z AUTO 01009G14KT 10SM OVC010 04/03 A2977 RMK AO2  T00350025,,,1000.0,,,36.48,33.44,N,29.12,29.23,,Overcast
KIGQ,01/23/2017 16:55 UTC,29.77,38.48,36.5,93.19,10.36,360.0,,,,,,104.0,,,,10.0,,KIGQ 231655Z AUTO 36009KT 10SM OVC010 04/03 A2977 RMK AO2  T00360025,,,1000.0,,,36.66,33.66,N,29.12,29.22,,Overcast
KIGQ,01/23/2017 17:15 UTC,29.76,38.84,36.68,93.19,6.91,10.0,,,,,,104.0,,,,10.0,,KIGQ 231715Z AUTO 01006KT 10SM OVC010 04/03 A2976 RMK AO2  T00380026,,,1000.0,,,37.02,,N,29.11,29.2,,Overcast
KIGQ,01/23/2017 17:35 UTC,29.76,39.2,36.68,93.19,10.36,360.0,,,,,,124.0,,,,10.0,,KIGQ 231735Z AUTO 36009KT 10SM OVC012 04/03 A2976 RMK AO2  T00400026,,,1200.0,,,37.37,34.52,N,29.11,29.19,,Overcast
KIGQ,01/23/2017 17:55 UTC,29.76,39.2,36.68,93.19,8.05,10.0,,,,,,124.0,,,,10.0,,KIGQ 231755Z AUTO 01007KT 10SM OVC012 04/03 A2976 RMK AO2  T00400026 10040 20028,39.2,37.04,1200.0,,,37.37,35.53,N,29.11,29.19,,Overcast
KIGQ,01/23/2017 18:15 UTC,29.75,39.2,36.86,93.19,8.05,360.0,,,,,,124.0,,,,10.0,,KIGQ 231815Z AUTO 36007KT 10SM OVC012 04/03 A2975 RMK AO2  T00400027,,,1200.0,,,37.37,35.53,N,29.1,29.18,,Overcast
KIGQ,01/23/2017 18:35 UTC,29.75,39.38,36.5,93.19,10.36,10.0,,,,,,144.0,,,,10.0,,KIGQ 231835Z AUTO 01009KT 10SM OVC014 04/03 A2975 RMK AO2  T00410025,,,1400.0,,,37.55,34.74,N,29.1,29.18,,Overcast
KIGQ,01/23/2017 18:55 UTC,29.74,39.38,37.04,93.19,9.22,10.0,,,,,,164.0,,,,10.0,,KIGQ 231855Z AUTO 01008KT 10SM OVC016 04/03 A2974 RMK AO2  T00410028,,,1600.0,,,37.55,35.21,N,29.09,29.17,,Overcast
KIGQ,01/23/2017 19:15 UTC,29.74,39.02,37.04,93.19,9.22,10.0,,,,,,144.0,,,,7.0,,KIGQ 231915Z AUTO 01008KT 7SM OVC014 04/03 A2974 RMK AO2  T00390028,,,1400.0,,,37.2,34.78,N,29.09,29.18,,Overcast
KIGQ,01/23/2017 19:35 UTC,29.73,38.84,37.58,93.19,9.22,350.0,,,,,,103.0,164.0,,,7.0,,KIGQ 231935Z AUTO 35008KT 7SM BKN010 OVC016 04/03 A2973 RMK AO2  T00380031,,,1000.0,,,37.02,34.57,N,29.08,29.17,,Overcast
KIGQ,01/23/2017 19:55 UTC,29.73,39.2,37.58,93.19,5.75,360.0,,,,,,103.0,164.0,,,7.0,,KIGQ 231955Z AUTO 36005KT 7SM BKN010 OVC016 04/03 A2973 RMK AO2  T00400031,,,1000.0,,,37.37,,N,29.08,29.16,,Overcast
KIGQ,01/23/2017 20:15 UTC,29.74,39.38,37.22,93.19,9.22,360.0,,,,,,103.0,164.0,,,10.0,,KIGQ 232015Z AUTO 36008KT 10SM BKN010 OVC016 04/03 A2974 RMK AO2  T00410029,,,1000.0,,,37.55,35.21,N,29.09,29.17,,Overcast
KIGQ,01/23/2017 20:35 UTC,29.74,39.56,37.04,93.19,11.5,360.0,18.41,,,,,122.0,184.0,,,10.0,,KIGQ 232035Z AUTO 36010G16KT 10SM SCT012 OVC018 04/03 A2974 RMK AO2 T00420028,,,1800.0,,,37.73,34.52,N,29.09,29.16,,Overcast
KIGQ,01/23/2017 20:55 UTC,29.74,39.56,36.86,93.19,6.91,350.0,,,,,,123.0,184.0,,,10.0,,KIGQ 232055Z AUTO 35006KT 10SM BKN012 OVC018 04/03 A2974 RMK AO2  T00420027,,,1200.0,,,37.73,,N,29.09,29.16,,Overcast
KIGQ,01/23/2017 21:15 UTC,29.74,39.74,37.04,93.19,4.61,350.0,,,,,,144.0,,,,10.0,,KIGQ 232115Z AUTO 35004KT 10SM OVC014 04/03 A2974 RMK AO2  T00430028,,,1400.0,,,37.91,,N,29.09,29.16,,Overcast
KIGQ,01/23/2017 21:35 UTC,29.74,40.28,36.86,86.89,6.91,10.0,,,,,,144.0,,,,10.0,,KIGQ 232135Z AUTO 01006KT 10SM OVC014 05/03 A2974 RMK AO2  T00460027,,,1400.0,,,36.64,,N,29.09,29.18,,Overcast
KIGQ,01/23/2017 21:55 UTC,29.75,40.1,37.04,86.89,5.75,20.0,,,,,,164.0,,,,10.0,,KIGQ 232155Z AUTO 02005KT 10SM OVC016 05/03 A2975 RMK AO2  T00450028,,,1600.0,,,36.46,,NNE,29.1,29.19,,Overcast
KIGQ,01/23/2017 22:15 UTC,29.75,40.1,36.86,86.89,0.0,0.0,,,,,,163.0,324.0,,,10.0,,KIGQ 232215Z AUTO 00000KT 10SM BKN016 OVC032 05/03 A2975 RMK AO2  T00450027,,,1600.0,,,36.46,,N,29.1,29.19,,Overcast
KIGQ,01/23/2017 22:35 UTC,29.75,40.28,36.86,86.89,5.75,340.0,,,,,,162.0,324.0,,,10.0,,KIGQ 232235Z AUTO 34005KT 10SM SCT016 OVC032 05/03 A2975 RMK AO2  T00460027,,,3200.0,,,36.64,,NNW,29.1,29.19,,Overcast
KIGQ,01/23/2017 22:55 UTC,29.76,40.1,36.68,86.89,3.44,320.0,,,,,,324.0,,,,10.0,,KIGQ 232255Z AUTO 32003KT 10SM OVC032 05/03 A2976 RMK AO2  T00450026,,,3200.0,,,36.46,,NW,29.11,29.2,,Overcast
KIGQ,01/23/2017 23:15 UTC,29.77,40.1,36.86,86.89,3.44,300.0,,,,,,263.0,324.0,,,10.0,,KIGQ 232315Z AUTO 30003KT 10SM BKN026 OVC032 05/03 A2977 RMK AO2  T00450027,,,2600.0,,,36.46,,WNW,29.12,29.21,,Overcast
KIGQ,01/23/2017 23:35 UTC,29.76,40.64,37.22,86.89,3.44,350.0,,,,,,264.0,,,,10.0,,KIGQ 232335Z AUTO 35003KT 10SM OVC026 05/03 A2976 RMK AO2  T00480029,,,2600.0,,,36.99,,N,29.11,29.19,,Overcast
KIGQ,01/23/2017 23:55 UTC,29.76,40.28,37.04,86.89,0.0,0.0,,,,,,244.0,,,,10.0,,KIGQ 232355Z AUTO 00000KT 10SM OVC024 05/03 A2976 RMK AO2  T00460028 10048 20038,40.64,38.84,2400.0,,,36.64,,N,29.11,29.2,,Overcast
KIGQ,01/24/2017 00:15 UTC,29.77,40.46,36.5,86.89,5.75,360.0,,,,,,224.0,,,,10.0,,KIGQ 240015Z AUTO 36005KT 10SM OVC022 05/03 A2977 RMK AO2  T00470025,,,2200.0,,,36.82,,N,29.12,29.21,,Overcast
KIGQ,01/24/2017 00:35 UTC,29.77,40.46,36.5,86.89,4.61,10.0,,,,,,224.0,,,,10.0,,KIGQ 240035Z AUTO 01004KT 10SM OVC022 05/03 A2977 RMK AO2  T00470025,,,2200.0,,,36.82,,N,29.12,29.21,,Overcast
KIGQ,01/24/2017 00:55 UTC,29.77,40.64,36.14,80.92,4.61,360.0,,,,,,244.0,,,,10.0,,KIGQ 240055Z AUTO 36004KT 10SM OVC024 05/02 A2977 RMK AO2  T00480023,,,2400.0,,,35.17,,N,29.12,29.24,,Overcast
KIGQ,01/24/2017 01:15 UTC,29.79,40.28,36.14,80.92,5.75,350.0,,,,,,244.0,,,,10.0,,KIGQ 240115Z AUTO 35005KT 10SM OVC024 05/02 A2979 RMK AO2  T00460023,,,2400.0,,,34.82,,N,29.14,29.26,,Overcast
KIGQ,01/24/2017 01:35 UTC,29.79,40.28,36.5,86.89,4.61,360.0,,,,,,224.0,,,,10.0,,KIGQ 240135Z AUTO 36004KT 10SM OVC022 05/03 A2979 RMK AO2  T00460025,,,2200.0,,,36.64,,N,29.14,29.23,,Overcast
KIGQ,01/24/2017 01:55 UTC,29.8,40.28,36.5,86.89,3.44,340.0,,,,,,224.0,,,,10.0,,KIGQ 240155Z AUTO 34003KT 10SM OVC022 05/03 A2980 RMK AO2  T00460025,,,2200.0,,,36.64,,NNW,29.15,29.24,,Overcast
KIGQ,01/24/2017 02:15 UTC,29.81,40.1,36.5,86.89,4.61,330.0,,,,,,224.0,,,,10.0,,KIGQ 240215Z AUTO 33004KT 10SM OVC022 05/03 A2981 RMK AO2  T00450025,,,2200.0,,,36.46,,NNW,29.16,29.26,,Overcast
KIGQ,01/24/2017 02:35 UTC,29.81,40.1,36.5,86.89,3.44,10.0,,,,,,224.0,,,,10.0,,KIGQ 240235Z AUTO 01003KT 10SM OVC022 05/03 A2981 RMK AO2  T00450025,,,2200.0,,,36.46,,N,29.16,29.26,,Overcast
KIGQ,01/24/2017 02:55 UTC,29.8,40.1,36.5,86.89,3.44,360.0,,,,,,224.0,,,,10.0,,KIGQ 240255Z AUTO 36003KT 10SM OVC022 05/03 A2980 RMK AO2  T00450025,,,2200.0,,,36.46,,N,29.15,29.25,,Overcast
KIGQ,01/24/2017 03:15 UTC,29.81,40.1,36.68,86.89,0.0,0.0,,,,,,224.0,,,,10.0,,KIGQ 240315Z AUTO 00000KT 10SM OVC022 05/03 A2981 RMK AO2  T00450026,,,2200.0,,,36.46,,N,29.16,29.26,,Overcast
KIGQ,01/24/2017 03:35 UTC,29.81,39.56,36.68,93.19,0.0,0.0,,,,,,184.0,,,,10.0,,KIGQ 240335Z AUTO 00000KT 10SM OVC018 04/03 A2981 RMK AO2  T00420026,,,1800.0,,,37.73,,N,29.16,29.24,,Overcast
KIGQ,01/24/2017 03:55 UTC,29.81,39.92,36.86,93.19,6.91,340.0,,,,,,214.0,,,,10.0,,KIGQ 240355Z AUTO 34006KT 10SM OVC021 04/03 A2981 RMK AO2  T00440027,,,2100.0,,,38.09,,NNW,29.16,29.22,,Overcast
KIGQ,01/24/2017 04:15 UTC,29.81,40.1,36.86,86.89,6.91,320.0,,,,,,234.0,,,,10.0,,KIGQ 240415Z AUTO 32006KT 10SM OVC023 05/03 A2981 RMK AO2  T00450027,,,2300.0,,,36.46,,NW,29.16,29.26,,Overcast
KIGQ,01/24/2017 04:35 UTC,29.81,39.74,36.68,93.19,4.61,290.0,,,,,,234.0,,,,10.0,,KIGQ 240435Z AUTO 29004KT 10SM OVC023 04/03 A2981 RMK AO2  T00430026,,,2300.0,,,37.91,,WNW,29.16,29.23,,Overcast
KIGQ,01/24/2017 04:55 UTC,29.81,39.56,36.5,93.19,4.61,330.0,,,,,,234.0,,,,10.0,,KIGQ 240455Z AUTO 33004KT 10SM OVC023 04/03 A2981 RMK AO2  T00420025,,,2300.0,,,37.73,,NNW,29.16,29.24,,Overcast
KIGQ,01/24/2017 05:15 UTC,29.81,39.38,36.5,93.19,4.61,310.0,,,,,,234.0,,,,10.0,,KIGQ 240515Z AUTO 31004KT 10SM OVC023 04/03 A2981 RMK AO2  T00410025,,,2300.0,,,37.55,,NW,29.16,29.24,,Overcast
KIGQ,01/24/2017 05:35 UTC,29.8,39.2,36.5,93.19,4.61,330.0,,,,,,234.0,,,,10.0,,KIGQ 240535Z AUTO 33004KT 10SM OVC023 04/03 A2980 RMK AO2  T00400025,,,2300.0,,,37.37,,NNW,29.15,29.23,,Overcast
KIGQ,01/24/2017 05:55 UTC,29.81,39.2,36.5,93.19,4.61,290.0,,,,,,234.0,,,,10.0,,KIGQ 240555Z AUTO 29004KT 10SM OVC023 04/03 A2981 RMK AO2  T00400025 10048 20040 400480025,40.64,39.2,2300.0,40.64,36.5,37.37,,WNW,29.16,29.25,,Overcast
KIGQ,01/24/2017 06:15 UTC,29.81,39.02,36.5,93.19,5.75,300.0,,,,,,234.0,,,,10.0,,KIGQ 240615Z AUTO 30005KT 10SM OVC023 04/03 A2981 RMK AO2  T00390025,,,2300.0,,,37.2,,WNW,29.16,29.25,,Overcast
KIGQ,01/24/2017 06:35 UTC,29.81,38.66,36.5,93.19,5.75,300.0,,,,,,234.0,,,,10.0,,KIGQ 240635Z AUTO 30005KT 10SM OVC023 04/03 A2981 RMK AO2  T00370025,,,2300.0,,,36.84,,WNW,29.16,29.26,,Overcast
KIGQ,01/24/2017 06:55 UTC,29.81,38.48,36.5,93.19,8.05,300.0,,,,,,234.0,,,,10.0,,KIGQ 240655Z AUTO 30007KT 10SM OVC023 04/03 A2981 RMK AO2  T00360025,,,2300.0,,,36.66,34.69,WNW,29.16,29.26,,Overcast
KIGQ,01/24/2017 07:15 UTC,29.81,38.48,36.32,86.79,6.91,310.0,,,,,,234.0,,,,10.0,,KIGQ 240715Z AUTO 31006KT 10SM OVC023 04/02 A2981 RMK AO2  T00360024,,,2300.0,,,34.84,,NW,29.16,29.3,,Overcast
KIGQ,01/24/2017 07:35 UTC,29.82,38.48,35.78,86.79,9.22,310.0,,,,,,234.0,,,,10.0,,KIGQ 240735Z AUTO 31008KT 10SM OVC023 04/02 A2982 RMK AO2  T00360021,,,2300.0,,,34.84,34.14,NW,29.17,29.31,,Overcast
KIGQ,01/24/2017 07:55 UTC,29.82,38.3,35.6,86.79,8.05,310.0,,,,,,234.0,,,,10.0,,KIGQ 240755Z AUTO 31007KT 10SM OVC023 04/02 A2982 RMK AO2  T00350020,,,2300.0,,,34.66,34.48,NW,29.17,29.31,,Overcast
KIGQ,01/24/2017 08:15 UTC,29.82,38.3,35.6,86.79,6.91,320.0,,,,,,214.0,,,,10.0,,KIGQ 240815Z AUTO 32006KT 10SM OVC021 04/02 A2982 RMK AO2  T00350020,,,2100.0,,,34.66,,NW,29.17,29.31,,Overcast
KIGQ,01/24/2017 08:35 UTC,29.83,38.12,35.6,93.13,5.75,310.0,,,,,,214.0,,,,10.0,,KIGQ 240835Z AUTO 31005KT 10SM OVC021 03/02 A2983 RMK AO2  T00340020,,,2100.0,,,36.29,,NW,29.18,29.29,,Overcast
KIGQ,01/24/2017 08:55 UTC,29.84,38.3,35.24,86.79,5.75,320.0,,,,,,143.0,204.0,,,10.0,,KIGQ 240855Z AUTO 32005KT 10SM BKN014 OVC020 04/02 A2984 RMK AO2  T00350018,,,1400.0,,,34.66,,NW,29.19,29.33,,Overcast
KIGQ,01/24/2017 09:15 UTC,29.83,38.3,35.06,86.79,8.05,330.0,,,,,,144.0,,,,10.0,,KIGQ 240915Z AUTO 33007KT 10SM OVC014 04/02 A2983 RMK AO2  T00350017,,,1400.0,,,34.66,34.48,NNW,29.18,29.32,,Overcast
KIGQ,01/24/2017 09:35 UTC,29.83,38.3,34.88,86.79,8.05,310.0,,,,,,184.0,,,,10.0,,KIGQ 240935Z AUTO 31007KT 10SM OVC018 04/02 A2983 RMK AO2  T00350016,,,1800.0,,,34.66,34.48,NW,29.18,29.32,,Overcast
KIGQ,01/24/2017 09:55 UTC,29.83,38.3,35.24,86.79,8.05,320.0,,,,,,184.0,,,,10.0,,KIGQ 240955Z AUTO 32007KT 10SM OVC018 04/02 A2983 RMK AO2  T00350018,,,1800.0,,,34.66,34.48,NW,29.18,29.32,,Overcast
KIGQ,01/24/2017 10:15 UTC,29.84,38.3,35.06,86.79,6.91,320.0,,,,,,164.0,,,,10.0,,KIGQ 241015Z AUTO 32006KT 10SM OVC016 04/02 A2984 RMK AO2  T00350017,,,1600.0,,,34.66,,NW,29.19,29.33,,Overcast
KIGQ,01/24/2017 10:35 UTC,29.84,37.76,34.88,93.13,3.44,350.0,,,,,,144.0,,,,10.0,,KIGQ 241035Z AUTO 35003KT 10SM OVC014 03/02 A2984 RMK AO2  T00320016,,,1400.0,,,35.93,,N,29.19,29.31,,Overcast
KIGQ,01/24/2017 10:55 UTC,29.84,37.94,34.88,93.13,3.44,300.0,,,,,,144.0,,,,10.0,,KIGQ 241055Z AUTO 30003KT 10SM OVC014 03/02 A2984 RMK AO2  T00330016,,,1400.0,,,36.11,,WNW,29.19,29.31,,Overcast
KIGQ,01/24/2017 11:15 UTC,29.85,37.94,34.88,93.13,4.61,310.0,,,,,,144.0,,,,10.0,,KIGQ 241115Z AUTO 31004KT 10SM OVC014 03/02 A2985 RMK AO2  T00330016,,,1400.0,,,36.11,,NW,29.2,29.32,,Overcast
KIGQ,01/24/2017 11:35 UTC,29.85,37.58,35.06,93.13,5.75,300.0,,,,,,144.0,,,,10.0,,KIGQ 241135Z AUTO 30005KT 10SM OVC014 03/02 A2985 RMK AO2  T00310017,,,1400.0,,,35.75,,WNW,29.2,29.33,,Overcast
KIGQ,01/24/2017 11:55 UTC,29.87,37.4,34.7,93.13,6.91,280.0,,,,,,144.0,,,,10.0,,KIGQ 241155Z AUTO 28006KT 10SM OVC014 03/02 A2987 RMK AO2  T00300015 10040 20030,39.2,37.4,1400.0,,,35.57,,W,29.22,29.35,,Overcast
KIGQ,01/24/2017 12:15 UTC,29.87,37.22,34.7,93.13,4.61,310.0,,,,,,144.0,,,,10.0,,KIGQ 241215Z AUTO 31004KT 10SM OVC014 03/02 A2987 RMK AO2  T00290015,,,1400.0,,,35.39,,NW,29.22,29.36,,Overcast
KIGQ,01/24/2017 12:35 UTC,29.87,37.04,34.7,93.13,5.75,290.0,,,,,,144.0,,,,10.0,,KIGQ 241235Z AUTO 29005KT 10SM OVC014 03/02 A2987 RMK AO2  T00280015,,,1400.0,,,35.21,,WNW,29.22,29.36,,Overcast
KIGQ,01/24/2017 12:55 UTC,29.88,37.04,34.34,86.68,4.61,300.0,,,,,,144.0,,,,10.0,,KIGQ 241255Z AUTO 30004KT 10SM OVC014 03/01 A2988 RMK AO2  T00280013,,,1400.0,,,33.39,,WNW,29.23,29.41,,Overcast
KIGQ,01/24/2017 13:15 UTC,29.88,37.04,34.7,93.13,4.61,290.0,,,,,,124.0,,,,10.0,,KIGQ 241315Z AUTO 29004KT 10SM OVC012 03/02 A2988 RMK AO2  T00280015,,,1200.0,,,35.21,,WNW,29.23,29.37,,Overcast
KIGQ,01/24/2017 13:35 UTC,29.89,36.86,34.7,93.13,6.91,280.0,,,,,,124.0,,,,10.0,,KIGQ 241335Z AUTO 28006KT 10SM OVC012 03/02 A2989 RMK AO2  T00270015,,,1200.0,,,35.04,,W,29.24,29.39,,Overcast
KIGQ,01/24/2017 13:55 UTC,29.89,36.68,34.34,86.68,6.91,280.0,,,,,,124.0,,,,10.0,,KIGQ 241355Z AUTO 28006KT 10SM OVC012 03/01 A2989 RMK AO2  T00260013,,,1200.0,,,33.04,,W,29.24,29.42,,Overcast
KIGQ,01/24/2017 14:15 UTC,29.89,36.5,34.34,86.68,5.75,290.0,,,,,,124.0,,,,10.0,,KIGQ 241415Z AUTO 29005KT 10SM OVC012 03/01 A2989 RMK AO2  T00250013,,,1200.0,,,32.86,,WNW,29.24,29.43,,Overcast
KIGQ,01/24/2017 14:35 UTC,29.89,36.5,33.98,86.68,6.91,310.0,,,,,,124.0,,,,10.0,,KIGQ 241435Z AUTO 31006KT 10SM OVC012 03/01 A2989 RMK AO2  T00250011,,,1200.0,,,32.86,,NW,29.24,29.43,,Overcast
KIGQ,01/24/2017 14:55 UTC,29.9,36.14,33.62,93.08,6.91,310.0,,,,,,124.0,,,,10.0,,KIGQ 241455Z AUTO 31006KT 10SM OVC012 02/01 A2990 RMK AO2  T00230009,,,1200.0,,,34.31,,NW,29.25,29.42,,Overcast
KIGQ,01/24/2017 15:15 UTC,29.9,36.5,33.62,86.68,6.91,330.0,,,,,,124.0,,,,10.0,,KIGQ 241515Z AUTO 33006KT 10SM OVC012 03/01 A2990 RMK AO2  T00250009,,,1200.0,,,32.86,,NNW,29.25,29.44,,Overcast
KIGQ,01/24/2017 15:35 UTC,29.9,36.5,33.8,86.68,0.0,0.0,,,,,,124.0,,,,10.0,,KIGQ 241535Z AUTO 00000KT 10SM OVC012 03/01 A2990 RMK AO2  T00250010,,,1200.0,,,32.86,,N,29.25,29.44,,Overcast
KIGQ,01/24/2017 15:55 UTC,29.9,36.5,33.8,86.68,3.44,340.0,,,,,,124.0,,,,10.0,,KIGQ 241555Z AUTO 34003KT 10SM OVC012 03/01 A2990 RMK AO2  T00250010,,,1200.0,,,32.86,,NNW,29.25,29.44,,Overcast
KIGQ,01/24/2017 16:15 UTC,29.9,36.68,33.62,86.68,3.44,270.0,,,,,,124.0,,,,10.0,,KIGQ 241615Z AUTO 27003KT 10SM OVC012 03/01 A2990 RMK AO2  T00260009,,,1200.0,,,33.04,,W,29.25,29.43,,Overcast
KIGQ,01/24/2017 16:35 UTC,29.89,36.86,33.44,86.68,4.61,270.0,,,,,,124.0,,,,10.0,,KIGQ 241635Z AUTO 27004KT 10SM OVC012 03/01 A2989 RMK AO2  T00270008,,,1200.0,,,33.21,,W,29.24,29.42,,Overcast
KIGQ,01/24/2017 16:55 UTC,29.9,36.86,33.44,86.68,0.0,0.0,,,,,,124.0,,,,10.0,,KIGQ 241655Z AUTO 00000KT 10SM OVC012 03/01 A2990 RMK AO2  T00270008,,,1200.0,,,33.21,,N,29.25,29.43,,Overcast
KIGQ,01/24/2017 17:15 UTC,29.9,37.04,33.44,86.68,3.44,330.0,,,,0.03,,144.0,,,,,,KIGQ 241715Z AUTO 33003KT OVC014 03/01 A2990 RMK AO2 P0003  T00280008 PWINO,,,1400.0,,,33.39,,NNW,29.25,29.43,,Overcast
KIGQ,01/24/2017 17:35 UTC,29.89,37.04,33.44,86.68,3.44,330.0,,,,0.03,,144.0,,,,10.0,,KIGQ 241735Z AUTO 33003KT 10SM OVC014 03/01 A2989 RMK AO2 P0003  T00280008,,,1400.0,,,33.39,,NNW,29.24,29.42,,Overcast
KIGQ,01/24/2017 17:55 UTC,29.88,37.58,33.8,86.68,3.44,280.0,,,,0.03,,144.0,,0.03,,10.0,,KIGQ 241755Z AUTO 28003KT 10SM OVC014 03/01 A2988 RMK AO2 P0003  60003 T00310010 10034 20023,38.12,36.14,1400.0,,,33.92,,W,29.23,29.39,,Overcast
KIGQ,01/24/2017 18:15 UTC,29.88,37.58,33.98,86.68,4.61,270.0,,,,,,144.0,,,,10.0,,KIGQ 241815Z AUTO 27004KT 10SM OVC014 03/01 A2988 RMK AO2  T00310011,,,1400.0,,,33.92,,W,29.23,29.39,,Overcast
KIGQ,01/24/2017 18:35 UTC,29.87,37.58,33.8,86.68,5.75,270.0,,,,,,144.0,,,,10.0,,KIGQ 241835Z AUTO 27005KT 10SM OVC014 03/01 A2987 RMK AO2  T00310010,,,1400.0,,,33.92,,W,29.22,29.38,,Overcast
KIGQ,01/24/2017 18:55 UTC,29.86,37.22,33.26,86.68,0.0,0.0,,,,,,144.0,,,,10.0,,KIGQ 241855Z AUTO 00000KT 10SM OVC014 03/01 A2986 RMK AO2  T00290007,,,1400.0,,,33.57,,N,29.21,29.38,,Overcast
KIGQ,01/24/2017 19:15 UTC,29.86,37.4,33.44,86.68,3.44,240.0,,,,,,144.0,,,,10.0,,KIGQ 241915Z AUTO 24003KT 10SM OVC014 03/01 A2986 RMK AO2  T00300008,,,1400.0,,,33.74,,WSW,29.21,29.38,,Overcast
KIGQ,01/24/2017 19:35 UTC,29.85,37.58,33.44,86.68,0.0,0.0,,,,,,164.0,,,,10.0,,KIGQ 241935Z AUTO 00000KT 10SM OVC016 03/01 A2985 RMK AO2  T00310008,,,1600.0,,,33.92,,N,29.2,29.36,,Overcast
KIGQ,01/24/2017 19:55 UTC,29.85,37.58,33.26,86.68,0.0,0.0,,,,,,164.0,,,,10.0,,KIGQ 241955Z AUTO 00000KT 10SM OVC016 03/01 A2985 RMK AO2  T00310007,,,1600.0,,,33.92,,N,29.2,29.36,,Overcast
KIGQ,01/24/2017 20:15 UTC,29.85,37.58,33.08,86.68,0.0,0.0,,,,,,164.0,,,,10.0,,KIGQ 242015Z AUTO 00000KT 10SM OVC016 03/01 A2985 RMK AO2  T00310006,,,1600.0,,,33.92,,N,29.2,29.36,,Overcast
KIGQ,01/24/2017 20:35 UTC,29.85,37.58,33.26,86.68,0.0,0.0,,,,,,164.0,,,,10.0,,KIGQ 242035Z AUTO 00000KT 10SM OVC016 03/01 A2985 RMK AO2  T00310007,,,1600.0,,,33.92,,N,29.2,29.36,,Overcast
KIGQ,01/24/2017 20:55 UTC,29.86,37.58,33.62,86.68,4.61,170.0,,,,,,164.0,,,,10.0,,KIGQ 242055Z AUTO 17004KT 10SM OVC016 03/01 A2986 RMK AO2  T00310009,,,1600.0,,,33.92,,S,29.21,29.37,,Overcast
KIGQ,01/24/2017 21:15 UTC,29.86,37.58,33.62,86.68,0.0,0.0,,,,,,164.0,,,,10.0,,KIGQ 242115Z AUTO 00000KT 10SM OVC016 03/01 A2986 RMK AO2  T00310009,,,1600.0,,,33.92,,N,29.21,29.37,,Overcast
KIGQ,01/24/2017 21:35 UTC,29.85,37.58,33.44,86.68,0.0,0.0,,,,,,164.0,,,,10.0,,KIGQ 242135Z AUTO 00000KT 10SM OVC016 03/01 A2985 RMK AO2  T00310008,,,1600.0,,,33.92,,N,29.2,29.36,,Overcast
KIGQ,01/24/2017 21:55 UTC,29.83,37.76,33.98,86.68,4.61,80.0,,,,,,164.0,,,,10.0,,KIGQ 242155Z AUTO 08004KT 10SM OVC016 03/01 A2983 RMK AO2  T00320011,,,1600.0,,,34.1,,E,29.18,29.34,,Overcast
KIGQ,01/24/2017 22:15 UTC,29.84,37.04,33.98,86.68,5.75,70.0,,,,,,164.0,,,,10.0,,KIGQ 242215Z AUTO 07005KT 10SM OVC016 03/01 A2984 RMK AO2  T00280011,,,1600.0,,,33.39,,ENE,29.19,29.36,,Overcast
KIGQ,01/24/2017 22:35 UTC,29.85,36.68,33.98,86.68,4.61,110.0,,,,,,164.0,,,,10.0,,KIGQ 242235Z AUTO 11004KT 10SM OVC016 03/01 A2985 RMK AO2  T00260011,,,1600.0,,,33.04,,ESE,29.2,29.38,,Overcast
KIGQ,01/24/2017 22:55 UTC,29.84,36.5,34.34,91.78,5.75,110.0,,,,,,164.0,,,,10.0,,KIGQ 242255Z AUTO 11005KT 10SM OVC016 03/01 A2984 RMK AO2  T00250013,,,1600.0,,,34.31,,ESE,29.19,29.35,,Overcast
KIGQ,01/24/2017 23:15 UTC,29.84,36.5,34.16,86.68,4.61,90.0,,,,,,164.0,,,,10.0,,KIGQ 242315Z AUTO 09004KT 10SM OVC016 03/01 A2984 RMK AO2  T00250012,,,1600.0,,,32.86,,E,29.19,29.38,,Overcast
KIGQ,01/24/2017 23:35 UTC,29.83,36.14,33.98,93.08,6.91,70.0,,,,,,164.0,,,,10.0,,KIGQ 242335Z AUTO 07006KT 10SM OVC016 02/01 A2983 RMK AO2  T00230011,,,1600.0,,,34.31,,ENE,29.18,29.35,,Overcast
KIGQ,01/24/2017 23:55 UTC,29.84,36.14,33.98,91.76,6.91,110.0,,,,,,164.0,,,,10.0,,KIGQ 242355Z AUTO 11006KT 10SM OVC016 02/01 A2984 RMK AO2  T00230011 10032 20022,37.76,35.96,1600.0,,,33.94,,ESE,29.19,29.36,,Overcast
KIGQ,01/25/2017 00:15 UTC,29.81,35.96,33.98,93.08,5.75,90.0,,,,,,164.0,,,,10.0,,KIGQ 250015Z AUTO 09005KT 10SM OVC016 02/01 A2981 RMK AO2  T00220011,,,1600.0,,,34.13,,E,29.16,29.33,,Overcast
KIGQ,01/25/2017 00:35 UTC,29.81,35.78,33.8,93.08,5.75,90.0,,,,,,144.0,,,,10.0,,KIGQ 250035Z AUTO 09005KT 10SM OVC014 02/01 A2981 RMK AO2  T00210010,,,1400.0,,,33.95,,E,29.16,29.33,,Overcast
KIGQ,01/25/2017 00:55 UTC,29.8,35.78,33.98,93.08,6.91,90.0,,,,,,144.0,,,,7.0,,KIGQ 250055Z AUTO 09006KT 7SM OVC014 02/01 A2980 RMK AO2  T00210011,,,1400.0,,,33.95,,E,29.15,29.32,,Overcast
KIGQ,01/25/2017 01:15 UTC,29.82,35.78,33.98,93.08,4.61,50.0,,,,,,144.0,,,,7.0,,KIGQ 250115Z AUTO 05004KT 7SM OVC014 02/01 A2982 RMK AO2  T00210011,,,1400.0,,,33.95,,NE,29.17,29.34,,Overcast
KIGQ,01/25/2017 01:35 UTC,29.78,35.78,33.98,93.08,9.22,70.0,,13.0,,,,144.0,,,,2.0,,KIGQ 250135Z AUTO 07008KT 2SM -RA OVC014 02/01 A2978 RMK AO2 VIS  1/4V5 T00210011,,,1400.0,,,33.95,30.93,ENE,29.13,29.3,,Light Rain
KIGQ,01/25/2017 01:55 UTC,29.78,35.06,33.98,95.78,6.91,90.0,,13.0,704.0,,,143.0,483.0,,,7.0,,KIGQ 250155Z AUTO 09006KT 7SM -RA BKN014 BKN048 OVC070 02/01 A2978 RMK AO2 T00170011,,,1400.0,,,33.96,,E,29.13,29.31,,Light Rain
KIGQ,01/25/2017 02:15 UTC,29.78,35.24,34.34,93.08,5.75,90.0,,,,,,143.0,704.0,,,7.0,,KIGQ 250215Z AUTO 09005KT 7SM BKN014 OVC070 02/01 A2978 RMK AO2  T00180013,,,1400.0,,,33.41,,E,29.13,29.32,,Overcast
KIGQ,01/25/2017 02:35 UTC,29.78,35.6,34.7,96.48,5.75,80.0,,,,,,144.0,,,,7.0,,KIGQ 250235Z AUTO 08005KT 7SM OVC014 02/02 A2978 RMK AO2  T00200015,,,1400.0,,,34.68,,E,29.13,29.29,,Overcast
KIGQ,01/25/2017 02:55 UTC,29.78,35.6,34.7,96.48,4.61,100.0,,,,,,144.0,,,,7.0,,KIGQ 250255Z AUTO 10004KT 7SM OVC014 02/02 A2978 RMK AO2  T00200015,,,1400.0,,,34.68,,E,29.13,29.29,,Overcast
KIGQ,01/25/2017 03:15 UTC,29.79,35.78,34.7,100.0,3.44,110.0,,,,,,144.0,,,,7.0,,KIGQ 250315Z AUTO 11003KT 7SM OVC014 02/02 A2979 RMK AO2  T00210015,,,1400.0,,,35.78,,ESE,29.14,29.28,,Overcast
KIGQ,01/25/2017 03:35 UTC,29.81,35.78,34.7,95.8,0.0,0.0,,,,,,164.0,,,,7.0,,KIGQ 250335Z AUTO 00000KT 7SM OVC016 02/02 A2981 RMK AO2  T00210015,,,1600.0,,,34.68,,N,29.16,29.32,,Overcast
KIGQ,01/25/2017 03:55 UTC,29.82,35.96,34.7,100.0,3.44,160.0,,,904.0,,,133.0,183.0,,,7.0,,KIGQ 250355Z AUTO 16003KT 7SM BKN013 BKN018 OVC090 02/02 A2982 RMK AO2 T00220015,,,1300.0,,,35.96,,SSE,29.17,29.31,,Overcast
KIGQ,01/25/2017 04:15 UTC,29.78,35.96,34.7,100.0,9.22,100.0,,,,,,164.0,,,,7.0,,KIGQ 250415Z AUTO 10008KT 7SM OVC016 02/02 A2978 RMK AO2  T00220015,,,1600.0,,,35.96,31.15,E,29.13,29.27,,Overcast
KIGQ,01/25/2017 04:35 UTC,29.8,36.14,34.7,100.0,4.61,110.0,,,,,,164.0,,,,7.0,,KIGQ 250435Z AUTO 11004KT 7SM OVC016 02/02 A2980 RMK AO2  T00230015,,,1600.0,,,36.14,,ESE,29.15,29.28,,Overcast
KIGQ,01/25/2017 04:55 UTC,29.8,35.96,34.7,100.0,5.75,110.0,,,,,,163.0,804.0,,,7.0,,KIGQ 250455Z AUTO 11005KT 7SM BKN016 OVC080 02/02 A2980 RMK AO2  T00220015,,,1600.0,,,35.96,,ESE,29.15,29.29,,Overcast
KIGQ,01/25/2017 05:15 UTC,29.79,35.78,34.7,100.0,6.91,90.0,,,,,,162.0,804.0,,,7.0,,KIGQ 250515Z AUTO 09006KT 7SM SCT016 OVC080 02/02 A2979 RMK AO2  T00210015,,,8000.0,,,35.78,,E,29.14,29.28,,Overcast
KIGQ,01/25/2017 05:35 UTC,29.77,35.96,34.7,100.0,6.91,90.0,,,,,,162.0,754.0,,,7.0,,KIGQ 250535Z AUTO 09006KT 7SM SCT016 OVC075 02/02 A2977 RMK AO2  T00220015,,,7500.0,,,35.96,,E,29.12,29.26,,Overcast
KIGQ,01/25/2017 05:55 UTC,29.78,35.96,34.7,100.0,5.75,80.0,,,,,,754.0,,,,7.0,,KIGQ 250555Z AUTO 08005KT 7SM OVC075 02/02 A2978 RMK AO2 T00220015  10023 20017 400400017,36.14,35.06,7500.0,39.2,35.06,35.96,,E,29.13,29.27,,Overcast
KIGQ,01/25/2017 06:15 UTC,29.77,35.78,34.7,100.0,4.61,80.0,,,,,,102.0,754.0,,,7.0,,KIGQ 250615Z AUTO 08004KT 7SM SCT010 OVC075 02/02 A2977 RMK AO2  T00210015,,,7500.0,,,35.78,,E,29.12,29.26,,Overcast
KIGQ,01/25/2017 06:35 UTC,29.75,35.78,34.52,93.08,6.91,90.0,,,,,,102.0,754.0,,,7.0,,KIGQ 250635Z AUTO 09006KT 7SM SCT010 OVC075 02/01 A2975 RMK AO2  T00210014,,,7500.0,,,33.95,,E,29.1,29.27,,Overcast
KIGQ,01/25/2017 06:55 UTC,29.74,35.78,34.7,100.0,6.91,90.0,,13.0,,,,603.0,704.0,,,5.0,,KIGQ 250655Z AUTO 09006KT 5SM -RA BKN060 OVC070 02/02 A2974 RMK AO2 T00210015,,,6000.0,,,35.78,,E,29.09,29.23,,Light Rain
KIGQ,01/25/2017 07:15 UTC,29.72,35.78,34.7,100.0,9.22,80.0,,31.0,,,,504.0,,,,5.0,,KIGQ 250715Z AUTO 08008KT 5SM BR OVC050 02/02 A2972 RMK AO2  T00210015,,,5000.0,,,35.78,30.93,E,29.07,29.21,,Mist
KIGQ,01/25/2017 07:35 UTC,29.71,35.78,34.7,100.0,10.36,90.0,,31.0,,,,504.0,,,,5.0,,KIGQ 250735Z AUTO 09009KT 5SM BR OVC050 02/02 A2971 RMK AO2  T00210015,,,5000.0,,,35.78,30.43,E,29.06,29.2,,Mist
KIGQ,01/25/2017 07:55 UTC,29.69,36.14,35.06,100.0,10.36,100.0,,13.0,,,,483.0,604.0,,,5.0,,KIGQ 250755Z AUTO 10009KT 5SM -RA BKN048 OVC060 02/02 A2969 RMK AO2 T00230017,,,4800.0,,,36.14,30.86,E,29.04,29.17,,Light Rain
KIGQ,01/25/2017 08:15 UTC,29.67,36.14,35.06,100.0,10.36,110.0,,,,,,483.0,604.0,,,7.0,,KIGQ 250815Z AUTO 11009KT 7SM BKN048 OVC060 02/02 A2967 RMK AO2  T00230017,,,4800.0,,,36.14,30.86,ESE,29.02,29.15,,Overcast
KIGQ,01/25/2017 08:35 UTC,29.66,36.5,35.06,93.13,10.36,110.0,,,,,,464.0,,,,7.0,,KIGQ 250835Z AUTO 11009KT 7SM OVC046 03/02 A2966 RMK AO2  T00250017,,,4600.0,,,34.68,31.29,ESE,29.02,29.17,,Overcast
KIGQ,01/25/2017 08:55 UTC,29.66,36.86,35.6,93.13,6.91,110.0,,17.0,,,,132.0,464.0,,,7.0,,KIGQ 250855Z AUTO 11006KT 7SM -DZ SCT013 OVC046 03/02 A2966 RMK AO2 T00270020,,,4600.0,,,35.04,,ESE,29.02,29.16,,Light Drizzle
KIGQ,01/25/2017 09:15 UTC,29.63,37.22,35.6,93.13,10.36,120.0,,13.0,,,,132.0,444.0,,,7.0,,KIGQ 250915Z AUTO 12009KT 7SM -RA SCT013 OVC044 03/02 A2963 RMK AO2 T00290020,,,4400.0,,,35.39,32.15,ESE,28.99,29.12,,Light Rain
KIGQ,01/25/2017 09:35 UTC,29.63,37.4,35.6,93.13,11.5,130.0,,,,,,132.0,444.0,,,7.0,,KIGQ 250935Z AUTO 13010KT 7SM SCT013 OVC044 03/02 A2963 RMK AO2  T00300020,,,4400.0,,,35.57,31.92,SE,28.99,29.12,,Overcast
KIGQ,01/25/2017 09:55 UTC,29.62,37.4,35.78,93.13,11.5,120.0,,,,,,132.0,424.0,,,7.0,,KIGQ 250955Z AUTO 12010KT 7SM SCT013 OVC042 03/02 A2962 RMK AO2  T00300021,,,4200.0,,,35.57,31.92,ESE,28.98,29.11,,Overcast
KIGQ,01/25/2017 10:15 UTC,29.59,37.4,35.96,93.13,12.66,120.0,,,,,,112.0,424.0,,,7.0,,KIGQ 251015Z AUTO 12011KT 7SM SCT011 OVC042 03/02 A2959 RMK AO2  T00300022,,,4200.0,,,35.57,31.5,ESE,28.95,29.08,,Overcast
KIGQ,01/25/2017 10:35 UTC,29.59,37.4,36.14,93.13,10.36,120.0,16.11,,,,,404.0,,,,7.0,,KIGQ 251035Z AUTO 12009G14KT 7SM OVC040 03/02 A2959 RMK AO2  T00300023,,,4000.0,,,35.57,32.37,ESE,28.95,29.08,,Overcast
KIGQ,01/25/2017 10:55 UTC,29.58,37.58,36.14,93.13,10.36,120.0,,,,,,424.0,,,,7.0,,KIGQ 251055Z AUTO 12009KT 7SM OVC042 03/02 A2958 RMK AO2  T00310023,,,4200.0,,,35.75,32.58,ESE,28.94,29.06,,Overcast
KIGQ,01/25/2017 11:15 UTC,29.56,37.94,36.5,100.0,11.5,140.0,,,,,,422.0,494.0,,,7.0,,KIGQ 251115Z AUTO 14010KT 7SM SCT042 OVC049 03/03 A2956 RMK AO2  T00330025,,,4900.0,,,37.94,32.57,SE,28.92,29.0,,Overcast
KIGQ,01/25/2017 11:35 UTC,29.55,38.66,36.68,93.19,9.22,140.0,16.11,,,,,382.0,494.0,,,7.0,,KIGQ 251135Z AUTO 14008G14KT 7SM SCT038 OVC049 04/03 A2955 RMK AO2  T00370026,,,4900.0,,,36.84,34.35,SE,28.91,29.0,,Overcast
KIGQ,01/25/2017 11:55 UTC,29.54,38.3,36.32,86.79,10.36,140.0,,,,,,342.0,474.0,,0.03,7.0,,KIGQ 251155Z AUTO 14009KT 7SM SCT034 OVC047 04/02 A2954 RMK AO2  70003 T00350024 10037 20021,38.66,35.78,4700.0,,,34.66,33.44,SE,28.9,29.04,,Overcast
KIGQ,01/25/2017 12:15 UTC,29.53,37.76,35.96,93.13,10.36,130.0,,,,,,342.0,472.0,,,7.0,,KIGQ 251215Z AUTO 13009KT 7SM SCT034 SCT047 03/02 A2953 RMK AO2  T00320022,,,,,,35.93,32.8,SE,28.89,29.01,,Partly Cloudy
KIGQ,01/25/2017 12:35 UTC,29.52,37.58,35.96,93.13,8.05,150.0,,,,,,852.0,,,,7.0,,KIGQ 251235Z AUTO 15007KT 7SM SCT085 03/02 A2952 RMK AO2  T00310022,,,,,,35.75,33.63,SSE,28.88,29.0,,Partly Cloudy
KIGQ,01/25/2017 12:55 UTC,29.51,37.4,35.78,93.13,8.05,150.0,,,,,,1.0,,,,7.0,,KIGQ 251255Z AUTO 15007KT 7SM CLR 03/02 A2951 RMK AO2  T00300021,,,,,,35.57,33.42,SSE,28.87,29.0,,Clear
KIGQ,01/25/2017 13:15 UTC,29.5,37.94,36.14,93.13,9.22,150.0,,,,,,802.0,,,,7.0,,KIGQ 251315Z AUTO 15008KT 7SM SCT080 03/02 A2950 RMK AO2  T00330023,,,,,,36.11,33.5,SSE,28.86,28.97,,Partly Cloudy
KIGQ,01/25/2017 13:35 UTC,29.5,38.3,36.5,93.19,9.22,150.0,,,,,,1.0,,,,7.0,,KIGQ 251335Z AUTO 15008KT 7SM CLR 04/03 A2950 RMK AO2  T00350025,,,,,,36.48,33.93,SSE,28.86,28.96,,Clear
KIGQ,01/25/2017 13:55 UTC,29.49,38.3,36.5,93.19,9.22,150.0,,,,,,1.0,,,,7.0,,KIGQ 251355Z AUTO 15008KT 7SM CLR 04/03 A2949 RMK AO2  T00350025,,,,,,36.48,33.93,SSE,28.85,28.95,,Clear
KIGQ,01/25/2017 14:15 UTC,29.49,39.2,36.86,93.19,6.91,170.0,,,,,,293.0,,,,7.0,,KIGQ 251415Z AUTO 17006KT 7SM BKN029 04/03 A2949 RMK AO2  T00400027,,,2900.0,,,37.37,,S,28.85,28.93,,Mostly Cloudy
KIGQ,01/25/2017 14:35 UTC,29.48,40.1,37.58,86.89,9.22,150.0,,,,,,274.0,,,,7.0,,KIGQ 251435Z AUTO 15008KT 7SM OVC027 05/03 A2948 RMK AO2  T00450031,,,2700.0,,,36.46,36.06,SSE,28.84,28.93,,Overcast
KIGQ,01/25/2017 14:55 UTC,29.47,41.0,37.94,86.89,10.36,170.0,,,,,,272.0,,,,10.0,,KIGQ 251455Z AUTO 17009KT 10SM SCT027 05/03 A2947 RMK AO2  T00500033,,,,,,37.35,36.68,S,28.83,28.89,,Partly Cloudy
KIGQ,01/25/2017 15:15 UTC,29.46,41.9,39.02,86.99,11.5,180.0,,,,,,1.0,,,,10.0,,KIGQ 251515Z AUTO 18010KT 10SM CLR 06/04 A2946 RMK AO2  T00550039,,,,,,38.26,37.35,S,28.82,28.86,,Clear
KIGQ,01/25/2017 15:35 UTC,29.47,42.08,39.38,86.99,6.91,200.0,,,,,,252.0,,,,10.0,,KIGQ 251535Z AUTO 20006KT 10SM SCT025 06/04 A2947 RMK AO2  T00560041,,,,,,38.44,,SSW,28.83,28.86,,Partly Cloudy
KIGQ,01/25/2017 15:55 UTC,29.46,43.7,40.64,87.09,12.66,200.0,,,,,,214.0,,,,10.0,,KIGQ 251555Z AUTO 20011KT 10SM OVC021 07/05 A2946 RMK AO2  T00650048,,,2100.0,,,40.07,39.16,SSW,28.82,28.8,,Overcast
KIGQ,01/25/2017 16:15 UTC,29.46,44.78,41.54,87.09,13.8,210.0,20.71,,,,,194.0,,,,10.0,,KIGQ 251615Z AUTO 21012G18KT 10SM OVC019 07/05 A2946 RMK AO2  T00710053,,,1900.0,,,41.13,40.15,SSW,28.82,28.77,,Overcast
KIGQ,01/25/2017 16:35 UTC,29.45,44.6,41.54,87.09,14.97,220.0,21.85,,,,,154.0,,,,10.0,,KIGQ 251635Z AUTO 22013G19KT 10SM OVC015 07/05 A2945 RMK AO2  T00700053,,,1500.0,,,40.95,39.62,SW,28.81,28.77,,Overcast
KIGQ,01/25/2017 16:55 UTC,29.46,44.06,41.36,87.09,17.27,230.0,23.02,,,,,134.0,,,,10.0,,KIGQ 251655Z AUTO 23015G20KT 10SM OVC013 07/05 A2946 RMK AO2  T00670052,,,1300.0,,,40.42,38.4,SW,28.82,28.79,,Overcast
KIGQ,01/25/2017 17:15 UTC,29.45,43.16,40.82,93.3,14.97,240.0,21.85,,,,,134.0,,,,10.0,,KIGQ 251715Z AUTO 24013G19KT 10SM OVC013 06/05 A2945 RMK AO2  T00620049,,,1300.0,,,41.33,37.85,WSW,28.81,28.77,,Overcast
KIGQ,01/25/2017 17:35 UTC,29.46,42.26,40.1,93.3,18.41,230.0,21.85,,,,,114.0,,,,10.0,,KIGQ 251735Z AUTO 23016G19KT 10SM OVC011 06/05 A2946 RMK AO2  T00570045,,,1100.0,,,40.44,35.89,SW,28.82,28.81,,Overcast
KIGQ,01/25/2017 17:55 UTC,29.46,41.36,39.74,93.24,17.27,250.0,24.16,,,,,94.0,,,,7.0,,KIGQ 251755Z AUTO 25015G21KT 7SM OVC009 05/04 A2946 RMK AO2  T00520043 10071 20030,44.78,37.4,900.0,,,39.53,35.03,WSW,28.82,28.84,,Overcast
KIGQ,01/25/2017 18:15 UTC,29.46,40.28,39.2,93.24,17.27,250.0,27.63,31.0,,,,94.0,,,,5.0,,KIGQ 251815Z AUTO 25015G24KT 5SM BR OVC009 05/04 A2946 RMK AO2  T00460040,,,900.0,,,38.46,33.69,WSW,28.82,28.87,,Mist
KIGQ,01/25/2017 18:35 UTC,29.46,40.1,39.38,93.24,17.27,240.0,24.16,31.0,,,,74.0,,,,3.0,,KIGQ 251835Z AUTO 24015G21KT 3SM BR OVC007 05/04 A2946 RMK AO2  T00450041,,,700.0,,,38.28,33.46,WSW,28.82,28.87,,Mist
KIGQ,01/25/2017 18:55 UTC,29.46,39.74,39.2,100.0,17.27,240.0,,31.0,,,,74.0,,,,3.0,,KIGQ 251855Z AUTO 24015KT 3SM BR OVC007 04/04 A2946 RMK AO2  T00430040,,,700.0,,,39.74,33.01,WSW,28.82,28.84,,Mist
KIGQ,01/25/2017 19:15 UTC,29.46,40.1,39.2,93.24,12.66,250.0,25.32,31.0,,,,74.0,,,,3.0,,KIGQ 251915Z AUTO 25011G22KT 3SM BR OVC007 05/04 A2946 RMK AO2  T00450040,,,700.0,,,38.28,34.78,WSW,28.82,28.87,,Mist
KIGQ,01/25/2017 19:35 UTC,29.45,40.1,39.56,93.24,13.8,240.0,21.85,31.0,,,,74.0,,,,3.0,,KIGQ 251935Z AUTO 24012G19KT 3SM BR OVC007 05/04 A2945 RMK AO2  T00450042,,,700.0,,,38.28,34.42,WSW,28.81,28.86,,Mist
KIGQ,01/25/2017 19:55 UTC,29.46,40.1,39.38,93.24,16.11,250.0,27.63,31.0,,,,74.0,,,,4.0,,KIGQ 251955Z AUTO 25014G24KT 230V330 4SM BR OVC007 05/04 A2946 RMK AO2 T00450041,,,700.0,,,38.28,33.76,WSW,28.82,28.87,,Mist
KIGQ,01/25/2017 20:15 UTC,29.47,39.56,39.38,100.0,14.97,250.0,23.02,31.0,,,,74.0,,,,2.5,,KIGQ 252015Z AUTO 25013G20KT 2 1/2SM BR OVC007 04/04 A2947 RMK AO2  T00420041,,,700.0,,,39.56,33.41,WSW,28.83,28.86,,Mist
KIGQ,01/25/2017 20:55 UTC,29.49,39.38,38.66,100.0,17.27,240.0,26.46,31.0,,,,74.0,,,,5.0,,KIGQ 252055Z AUTO 24015G23KT 5SM BR OVC007 04/04 A2949 RMK AO2  T00410037,,,700.0,,,39.38,32.57,WSW,28.85,28.89,,Mist
KIGQ,01/25/2017 21:15 UTC,29.5,39.56,37.94,93.19,18.41,250.0,26.46,,,,,94.0,,,,7.0,,KIGQ 252115Z AUTO 25016G23KT 7SM OVC009 04/03 A2950 RMK AO2  T00420033,,,900.0,,,37.73,32.51,WSW,28.86,28.93,,Overcast
KIGQ,01/25/2017 21:35 UTC,29.5,39.92,37.4,93.19,19.57,240.0,27.63,,,,,113.0,194.0,,,10.0,,KIGQ 252135Z AUTO 24017G24KT 10SM BKN011 OVC019 04/03 A2950 RMK AO2 T00440030,,,1100.0,,,38.09,32.69,WSW,28.86,28.92,,Overcast
KIGQ,01/25/2017 21:55 UTC,29.52,40.1,36.86,86.89,20.71,240.0,,,,,,174.0,,,,10.0,,KIGQ 252155Z AUTO 24018KT 10SM OVC017 05/03 A2952 RMK AO2  T00450027,,,1700.0,,,36.46,32.66,WSW,28.88,28.97,,Overcast
KIGQ,01/25/2017 22:15 UTC,29.53,39.2,36.5,93.19,17.27,240.0,26.46,,,,,154.0,,,,7.0,,KIGQ 252215Z AUTO 24015G23KT 7SM OVC015 04/03 A2953 RMK AO2  T00400025,,,1500.0,,,37.37,32.34,WSW,28.89,28.97,,Overcast
KIGQ,01/25/2017 22:35 UTC,29.53,39.2,36.32,86.79,18.41,240.0,25.32,,,,,154.0,,,,7.0,,KIGQ 252235Z AUTO 24016G22KT 7SM OVC015 04/02 A2953 RMK AO2  T00400024,,,1500.0,,,35.55,32.06,WSW,28.89,29.0,,Overcast
KIGQ,01/25/2017 22:55 UTC,29.54,38.66,35.96,86.79,18.41,240.0,29.93,,,,,154.0,,,,7.0,,KIGQ 252255Z AUTO 24016G26KT 7SM OVC015 04/02 A2954 RMK AO2  T00370022,,,1500.0,,,35.02,31.38,WSW,28.9,29.03,,Overcast
KIGQ,01/25/2017 23:15 UTC,29.55,38.48,35.78,86.79,17.27,240.0,20.71,17.0,,,,154.0,,,,7.0,,KIGQ 252315Z AUTO 24015G18KT 7SM -DZ OVC015 04/02 A2955 RMK AO2  T00360021,,,1500.0,,,34.84,31.44,WSW,28.91,29.04,,Light Drizzle
KIGQ,01/25/2017 23:35 UTC,29.55,37.58,36.5,100.0,16.11,240.0,19.57,17.0,,,,154.0,,,,5.0,,KIGQ 252335Z AUTO 24014G17KT 5SM -DZ OVC015 03/03 A2955 RMK AO2  T00310025,,,1500.0,,,37.58,30.64,WSW,28.91,29.0,,Light Drizzle
KIGQ,01/25/2017 23:55 UTC,29.56,37.58,36.14,93.13,18.41,240.0,29.93,,,,,133.0,214.0,,,7.0,,KIGQ 252355Z AUTO 24016G26KT 7SM BKN013 OVC021 03/02 A2956 RMK AO2  T00310023 10051 20031,41.18,37.58,1300.0,,,35.75,30.03,WSW,28.92,29.04,,Overcast
KIGQ,01/26/2017 00:15 UTC,29.56,37.4,35.6,93.13,17.27,240.0,24.16,17.0,,,,133.0,214.0,,,10.0,,KIGQ 260015Z AUTO 24015G21KT 10SM -DZ BKN013 OVC021 03/02  A2956 RMK AO2 T00300020,,,1300.0,,,35.57,30.1,WSW,28.92,29.05,,Light Drizzle
KIGQ,01/26/2017 00:35 UTC,29.56,36.86,35.6,93.13,18.41,240.0,24.16,,,,,134.0,,,,7.0,,KIGQ 260035Z AUTO 24016G21KT 7SM OVC013 03/02 A2956 RMK AO2  T00270020,,,1300.0,,,35.04,29.12,WSW,28.92,29.06,,Overcast
KIGQ,01/26/2017 00:55 UTC,29.56,36.68,35.6,93.13,14.97,240.0,20.71,2.0,,,,134.0,,,,7.0,,KIGQ 260055Z AUTO 24013G18KT 7SM DZ OVC013 03/02 A2956 RMK AO2  T00260020,,,1300.0,,,34.86,29.86,WSW,28.92,29.07,,Drizzle
KIGQ,01/26/2017 01:15 UTC,29.56,36.5,35.06,93.13,14.97,230.0,23.02,,304.0,,,153.0,193.0,,,10.0,,KIGQ 260115Z AUTO 23013G20KT 10SM BKN015 BKN019 OVC030 03/02  A2956 RMK AO2 T00250017,,,1500.0,,,34.68,29.64,SW,28.92,29.07,,Overcast
KIGQ,01/26/2017 01:35 UTC,29.56,36.68,34.7,93.13,16.11,230.0,23.02,,,,,163.0,234.0,,,10.0,,KIGQ 260135Z AUTO 23014G20KT 10SM BKN016 OVC023 03/02 A2956 RMK AO2 T00260015,,,1600.0,,,34.86,29.52,SW,28.92,29.07,,Overcast
KIGQ,01/26/2017 01:55 UTC,29.56,36.5,34.7,93.13,17.27,230.0,21.85,17.0,,,,163.0,234.0,,,10.0,,KIGQ 260155Z AUTO 23015G19KT 10SM -DZ BKN016 OVC023 03/02  A2956 RMK AO2 T00250015,,,1600.0,,,34.68,28.98,SW,28.92,29.07,,Light Drizzle
KIGQ,01/26/2017 02:15 UTC,29.55,36.14,34.7,100.0,17.27,240.0,21.85,13.0,,,,143.0,234.0,,,10.0,,KIGQ 260215Z AUTO 24015G19KT 10SM -RA BKN014 OVC023 02/02  A2955 RMK AO2 T00230015,,,1400.0,,,36.14,28.53,WSW,28.91,29.04,,Light Rain
KIGQ,01/26/2017 02:35 UTC,29.55,35.78,34.34,93.08,17.27,240.0,21.85,13.0,,,,144.0,,,,10.0,,KIGQ 260235Z AUTO 24015G19KT 10SM -RA OVC014 02/01 A2955 RMK AO2  T00210013,,,1400.0,,,33.95,28.08,WSW,28.91,29.08,,Light Rain
KIGQ,01/26/2017 02:55 UTC,29.55,35.24,34.16,93.08,10.36,240.0,21.85,13.0,,,,124.0,,,,5.0,,KIGQ 260255Z AUTO 24009G19KT 5SM -RA OVC012 02/01 A2955 RMK AO2  T00180012,,,1200.0,,,33.41,29.78,WSW,28.91,29.09,,Light Rain
KIGQ,01/26/2017 03:15 UTC,29.55,34.7,33.98,93.08,14.97,250.0,20.71,13.0,,,,104.0,,,,7.0,,KIGQ 260315Z AUTO 25013G18KT 7SM -RA OVC010 02/01 A2955 RMK AO2  T00150011,,,1000.0,,,32.88,27.42,WSW,28.91,29.1,,Light Rain
KIGQ,01/26/2017 03:35 UTC,29.55,34.7,33.98,93.08,18.41,250.0,24.16,13.0,,,,104.0,,,,10.0,,KIGQ 260335Z AUTO 25016G21KT 10SM -RA OVC010 02/01 A2955 RMK AO2  T00150011,,,1000.0,,,32.88,26.42,WSW,28.91,29.1,,Light Rain
KIGQ,01/26/2017 03:55 UTC,29.55,34.7,33.98,93.08,11.5,240.0,,13.0,,,,104.0,,,,7.0,,KIGQ 260355Z AUTO 24010KT 7SM -RA OVC010 02/01 A2955 RMK AO2  T00150011,,,1000.0,,,32.88,28.66,WSW,28.91,29.1,,Light Rain
KIGQ,01/26/2017 04:15 UTC,29.55,34.34,33.98,100.0,14.97,250.0,19.57,13.0,,,,104.0,,,,7.0,,KIGQ 260415Z AUTO 25013G17KT 7SM -RA OVC010 01/01 A2955 RMK AO2  T00130011,,,1000.0,,,34.34,26.98,WSW,28.91,29.08,,Light Rain
KIGQ,01/26/2017 04:35 UTC,29.55,34.34,33.98,100.0,8.05,250.0,,,,,,84.0,,,,10.0,,KIGQ 260435Z AUTO 25007KT 10SM OVC008 01/01 A2955 RMK AO2  T00130011,,,800.0,,,34.34,29.82,WSW,28.91,29.08,,Overcast
KIGQ,01/26/2017 04:55 UTC,29.55,34.34,33.98,100.0,10.36,250.0,16.11,17.0,,,,84.0,,,,10.0,,KIGQ 260455Z AUTO 25009G14KT 10SM -DZ OVC008 01/01 A2955 RMK AO2  T00130011,,,800.0,,,34.34,28.7,WSW,28.91,29.08,,Light Drizzle
KIGQ,01/26/2017 05:15 UTC,29.55,34.34,33.8,100.0,11.5,270.0,,13.0,,,,84.0,,,,10.0,,KIGQ 260515Z AUTO 27010KT 10SM -RA OVC008 01/01 A2955 RMK AO2  T00130010,,,800.0,,,34.34,28.22,W,28.91,29.08,,Light Rain
KIGQ,01/26/2017 05:35 UTC,29.56,34.34,33.8,100.0,13.8,270.0,19.57,13.0,,,,84.0,,,,10.0,,KIGQ 260535Z AUTO 27012G17KT 10SM -RA OVC008 01/01 A2956 RMK AO2  T00130010,,,800.0,,,34.34,27.37,W,28.92,29.09,,Light Rain
KIGQ,01/26/2017 05:55 UTC,29.56,34.16,33.8,100.0,11.5,280.0,,13.0,,,,84.0,,,,10.0,,KIGQ 260555Z AUTO 28010KT 10SM -RA OVC008 01/01 A2956 RMK AO2  T00120010 10030 20012 400710012,37.4,34.16,800.0,44.78,34.16,34.16,28.01,W,28.92,29.1,,Light Rain
KIGQ,01/26/2017 06:15 UTC,29.56,34.34,33.8,100.0,6.91,290.0,,13.0,,,,84.0,,,,10.0,,KIGQ 260615Z AUTO 29006KT 10SM -RA OVC008 01/01 A2956 RMK AO2  T00130010,,,800.0,,,34.34,,WNW,28.92,29.09,,Light Rain
KIGQ,01/26/2017 06:35 UTC,29.57,34.34,33.8,100.0,10.36,310.0,,1.0,,,,84.0,,,,7.0,,KIGQ 260635Z AUTO 31009KT 7SM RA OVC008 01/01 A2957 RMK AO2  T00130010,,,800.0,,,34.34,28.7,NW,28.93,29.1,,Rain
KIGQ,01/26/2017 06:55 UTC,29.58,33.98,33.8,100.0,9.22,310.0,,13.0,,,,84.0,,,,5.0,,KIGQ 260655Z AUTO 31008KT 5SM -RA OVC008 01/01 A2958 RMK AO2  T00110010,,,800.0,,,33.98,28.8,NW,28.94,29.12,,Light Rain
KIGQ,01/26/2017 07:15 UTC,29.59,33.8,33.8,100.0,8.05,300.0,,13.0,,,,64.0,,,,5.0,,KIGQ 260715Z AUTO 30007KT 5SM -RA OVC006 01/01 A2959 RMK AO2  T00100010,,,600.0,,,33.8,29.19,WNW,28.95,29.14,,Light Rain
KIGQ,01/26/2017 07:35 UTC,29.6,33.8,33.8,100.0,6.91,300.0,,41.0,,,,64.0,,,,5.0,,KIGQ 260735Z AUTO 30006KT 5SM UP OVC006 01/01 A2960 RMK AO2  T00100010,,,600.0,,,33.8,,WNW,28.96,29.15,,Unknown Precip
KIGQ,01/26/2017 07:55 UTC,29.61,33.62,33.62,100.0,6.91,290.0,,20.0,,,,64.0,,,,5.0,,KIGQ 260755Z AUTO 29006KT 5SM -SN OVC006 01/01 A2961 RMK AO2  T00090009,,,600.0,,,33.62,,WNW,28.97,29.16,,Light Snow
KIGQ,01/26/2017 08:15 UTC,29.62,33.8,33.8,100.0,6.91,290.0,,13.0,,,,64.0,,,,7.0,,KIGQ 260815Z AUTO 29006KT 7SM -RA OVC006 01/01 A2962 RMK AO2  T00100010,,,600.0,,,33.8,,WNW,28.98,29.17,,Light Rain
KIGQ,01/26/2017 08:35 UTC,29.63,33.8,33.8,100.0,10.36,300.0,,13.0,,,,84.0,,,,5.0,,KIGQ 260835Z AUTO 30009KT 5SM -RA OVC008 01/01 A2963 RMK AO2  T00100010,,,800.0,,,33.8,28.06,WNW,28.99,29.18,,Light Rain
KIGQ,01/26/2017 08:55 UTC,29.63,33.8,33.44,100.0,9.22,300.0,,13.0,,,,114.0,,,,7.0,,KIGQ 260855Z AUTO 30008KT 7SM -RA OVC011 01/01 A2963 RMK AO2  T00100008,,,1100.0,,,33.8,28.59,WNW,28.99,29.18,,Light Rain
KIGQ,01/26/2017 09:15 UTC,29.64,33.8,33.08,100.0,10.36,310.0,,17.0,,,,134.0,,,,10.0,,KIGQ 260915Z AUTO 31009KT 10SM -DZ OVC013 01/01 A2964 RMK AO2  T00100006,,,1300.0,,,33.8,28.06,NW,29.0,29.19,,Light Drizzle
KIGQ,01/26/2017 09:35 UTC,29.65,33.8,32.72,93.02,11.5,310.0,16.11,,,,,134.0,,,,10.0,,KIGQ 260935Z AUTO 31010G14KT 10SM OVC013 01/00 A2965 RMK AO2  T00100004,,,1300.0,,,31.97,27.57,NW,29.01,29.23,,Overcast
KIGQ,01/26/2017 09:55 UTC,29.66,33.8,32.54,93.02,6.91,290.0,,,,,,134.0,,,,10.0,,KIGQ 260955Z AUTO 29006KT 10SM OVC013 01/00 A2966 RMK AO2  T00100003,,,1300.0,,,31.97,,WNW,29.02,29.24,,Overcast
KIGQ,01/26/2017 10:15 UTC,29.67,33.08,32.18,93.02,12.66,300.0,18.41,20.0,,,,114.0,,,,5.0,,KIGQ 261015Z AUTO 30011G16KT 5SM -SN OVC011 01/00 A2967 RMK AO2  T00060001,,,1100.0,,,31.26,26.24,WNW,29.02,29.25,,Light Snow
KIGQ,01/26/2017 10:35 UTC,29.68,32.54,32.0,100.0,9.22,300.0,,20.0,,,,114.0,,,,4.0,,KIGQ 261035Z AUTO 30008KT 4SM -SN OVC011 00/00 A2968 RMK AO2  T00030000,,,1100.0,,,32.54,27.09,WNW,29.03,29.25,,Light Snow
KIGQ,01/26/2017 10:55 UTC,29.68,32.18,32.0,100.0,9.22,290.0,,20.0,,,,94.0,,,,4.0,,KIGQ 261055Z AUTO 29008KT 4SM -SN OVC009 00/00 A2968 RMK AO2  T00010000,,,900.0,,,32.18,26.66,WNW,29.03,29.26,,Light Snow
KIGQ,01/26/2017 11:15 UTC,29.69,32.18,32.0,100.0,12.66,300.0,20.71,20.0,,,,94.0,,,,4.0,,KIGQ 261115Z AUTO 30011G18KT 4SM -SN OVC009 00/00 A2969 RMK AO2  T00010000,,,900.0,,,32.18,25.15,WNW,29.04,29.27,,Light Snow
KIGQ,01/26/2017 11:35 UTC,29.71,32.18,32.0,100.0,6.91,300.0,,20.0,,,,93.0,144.0,,,3.0,,KIGQ 261135Z AUTO 30006KT 3SM -SN BKN009 OVC014 00/00 A2971 RMK AO2 T00010000,,,900.0,,,32.18,,WNW,29.06,29.29,,Light Snow
KIGQ,01/26/2017 11:55 UTC,29.71,32.18,31.82,100.0,12.66,310.0,18.41,20.0,,,,113.0,204.0,,,5.0,,KIGQ 261155Z AUTO 31011G16KT 5SM -SN BKN011 OVC020 00/00 A2971 RMK AO2 T00011001 10013 20000,34.34,32.0,1100.0,,,32.18,25.15,NW,29.06,29.29,,Light Snow
KIGQ,01/26/2017 12:15 UTC,29.73,32.18,31.64,100.0,10.36,290.0,16.11,,,,,133.0,194.0,,,10.0,,KIGQ 261215Z AUTO 29009G14KT 10SM BKN013 OVC019 00/00 A2973 RMK AO2 T00011002,,,1300.0,,,32.18,26.12,WNW,29.08,29.31,,Overcast
KIGQ,01/26/2017 12:35 UTC,29.74,32.0,31.46,100.0,12.66,290.0,16.11,,,,,134.0,,,,10.0,,KIGQ 261235Z AUTO 29011G14KT 10SM OVC013 00/00 A2974 RMK AO2  T00001003,,,1300.0,,,32.0,24.93,WNW,29.09,29.32,,Overcast
KIGQ,01/26/2017 12:55 UTC,29.74,32.0,30.92,92.96,10.36,290.0,,,,,,133.0,194.0,,,10.0,,KIGQ 261255Z AUTO 29009KT 10SM BKN013 OVC019 00/M01 A2974 RMK AO2  T00001006,,,1300.0,,,30.17,25.9,WNW,29.09,29.35,,Overcast
KIGQ,01/26/2017 13:15 UTC,29.75,32.0,30.56,92.96,11.5,280.0,17.27,,334.0,,,152.0,253.0,,,10.0,,KIGQ 261315Z AUTO 28010G15KT 10SM SCT015 BKN025 OVC033 00/M01  A2975 RMK AO2 T00001008,,,2500.0,,,30.17,25.4,W,29.1,29.36,,Overcast
KIGQ,01/26/2017 13:35 UTC,29.76,32.0,30.92,92.96,11.5,280.0,18.41,,314.0,,,132.0,233.0,,,7.0,,KIGQ 261335Z AUTO 28010G16KT 7SM SCT013 BKN023 OVC031 00/M01  A2976 RMK AO2 T00001006,,,2300.0,,,30.17,25.4,W,29.11,29.37,,Overcast
KIGQ,01/26/2017 13:55 UTC,29.77,32.0,30.38,92.96,10.36,290.0,18.41,,,,,133.0,314.0,,,10.0,,KIGQ 261355Z AUTO 29009G16KT 10SM BKN013 OVC031 00/M01 A2977 RMK AO2 T00001009,,,1300.0,,,30.17,25.9,WNW,29.12,29.38,,Overcast
KIGQ,01/26/2017 14:15 UTC,29.78,31.82,29.84,92.96,14.97,290.0,20.71,,,,,133.0,204.0,,,7.0,,KIGQ 261415Z AUTO 29013G18KT 7SM BKN013 OVC020 00/M01 A2978 RMK AO2 T10011012,,,1300.0,,,29.99,23.87,WNW,29.13,29.39,,Overcast
KIGQ,01/26/2017 14:35 UTC,29.79,32.0,29.66,92.96,13.8,280.0,,,284.0,,,153.0,223.0,,,10.0,,KIGQ 261435Z AUTO 28012KT 10SM BKN015 BKN022 OVC028 00/M01  A2979 RMK AO2 T00001013,,,1500.0,,,30.17,24.5,W,29.14,29.4,,Overcast
KIGQ,01/26/2017 14:55 UTC,29.81,32.0,29.3,92.96,10.36,290.0,21.85,,374.0,,,183.0,253.0,,,10.0,,KIGQ 261455Z AUTO 29009G19KT 10SM BKN018 BKN025 OVC037 00/M01  A2981 RMK AO2 T00001015,,,1800.0,,,30.17,25.9,WNW,29.16,29.42,,Overcast
KIGQ,01/26/2017 15:15 UTC,29.81,32.0,29.84,92.96,12.66,270.0,20.71,,374.0,,,163.0,233.0,,,10.0,,KIGQ 261515Z AUTO 27011G18KT 10SM BKN016 BKN023 OVC037 00/M01  A2981 RMK AO2 T00001012,,,1600.0,,,30.17,24.93,W,29.16,29.42,,Overcast
KIGQ,01/26/2017 15:35 UTC,29.82,32.0,29.48,92.96,14.97,280.0,,,,,,164.0,,,,10.0,,KIGQ 261535Z AUTO 28013KT 10SM OVC016 00/M01 A2982 RMK AO2  T00001014,,,1600.0,,,30.17,24.1,W,29.17,29.43,,Overcast
KIGQ,01/26/2017 15:55 UTC,29.83,31.64,28.94,86.37,12.66,270.0,21.85,,,,,164.0,,,,10.0,,KIGQ 261555Z AUTO 27011G19KT 10SM OVC016 00/M02 A2983 RMK AO2  T10021017,,,1600.0,,,27.99,24.49,W,29.18,29.47,,Overcast
KIGQ,01/26/2017 16:15 UTC,29.83,32.0,28.4,86.37,13.8,280.0,,,,,,164.0,,,,10.0,,KIGQ 261615Z AUTO 28012KT 10SM OVC016 00/M02 A2983 RMK AO2  T00001020,,,1600.0,,,28.34,24.5,W,29.18,29.46,,Overcast
KIGQ,01/26/2017 16:35 UTC,29.84,32.0,28.4,86.37,13.8,290.0,19.57,,,,,184.0,,,,10.0,,KIGQ 261635Z AUTO 29012G17KT 10SM OVC018 00/M02 A2984 RMK AO2  T00001020,,,1800.0,,,28.34,24.5,WNW,29.19,29.47,,Overcast
KIGQ,01/26/2017 16:55 UTC,29.85,32.0,28.94,86.37,13.8,290.0,21.85,,,,,184.0,,,,10.0,,KIGQ 261655Z AUTO 29012G19KT 10SM OVC018 00/M02 A2985 RMK AO2  T00001017,,,1800.0,,,28.34,24.5,WNW,29.2,29.48,,Overcast
KIGQ,01/26/2017 17:15 UTC,29.85,32.0,28.4,86.37,16.11,280.0,21.85,,,,,184.0,,,,10.0,,KIGQ 261715Z AUTO 28014G19KT 10SM OVC018 00/M02 A2985 RMK AO2  T00001020,,,1800.0,,,28.34,23.72,W,29.2,29.48,,Overcast
KIGQ,01/26/2017 17:35 UTC,29.85,32.0,28.76,86.37,10.36,290.0,20.71,,,,,184.0,,,,10.0,,KIGQ 261735Z AUTO 29009G18KT 10SM OVC018 00/M02 A2985 RMK AO2  T00001018,,,1800.0,,,28.34,25.9,WNW,29.2,29.48,,Overcast
KIGQ,01/26/2017 17:55 UTC,29.84,32.0,28.76,86.37,13.8,280.0,18.41,,,,,184.0,,,,10.0,,KIGQ 261755Z AUTO 28012G16KT 10SM OVC018 00/M02 A2984 RMK AO2  T00001018 10001 21002,32.18,31.64,1800.0,,,28.34,24.5,W,29.19,29.47,,Overcast
KIGQ,01/26/2017 18:15 UTC,29.84,32.0,28.94,86.37,14.97,270.0,,,,,,184.0,,,,10.0,,KIGQ 261815Z AUTO 27013KT 10SM OVC018 00/M02 A2984 RMK AO2  T00001017,,,1800.0,,,28.34,24.1,W,29.19,29.47,,Overcast
KIGQ,01/26/2017 18:35 UTC,29.84,32.0,28.94,86.37,13.8,280.0,,,,,,164.0,,,,10.0,,KIGQ 261835Z AUTO 28012KT 10SM OVC016 00/M02 A2984 RMK AO2  T00001017,,,1600.0,,,28.34,24.5,W,29.19,29.47,,Overcast
KIGQ,01/26/2017 18:55 UTC,29.84,32.0,29.12,86.37,12.66,280.0,19.57,,,,,184.0,,,,10.0,,KIGQ 261855Z AUTO 28011G17KT 10SM OVC018 00/M02 A2984 RMK AO2  T00001016,,,1800.0,,,28.34,24.93,W,29.19,29.47,,Overcast
KIGQ,01/26/2017 19:15 UTC,29.85,32.18,28.94,86.37,12.66,280.0,23.02,,,,,164.0,,,,10.0,,KIGQ 261915Z AUTO 28011G20KT 10SM OVC016 00/M02 A2985 RMK AO2  T00011017,,,1600.0,,,28.52,25.15,W,29.2,29.48,,Overcast
KIGQ,01/26/2017 19:35 UTC,29.85,32.54,29.48,92.96,17.27,270.0,,,,,,164.0,,,,10.0,,KIGQ 261935Z AUTO 27015KT 10SM OVC016 00/M01 A2985 RMK AO2  T00031014,,,1600.0,,,30.7,24.04,W,29.2,29.45,,Overcast
KIGQ,01/26/2017 19:55 UTC,29.86,32.36,29.12,86.37,14.97,280.0,,,,,,164.0,,,,10.0,,KIGQ 261955Z AUTO 28013KT 10SM OVC016 00/M02 A2986 RMK AO2  T00021016,,,1600.0,,,28.7,24.54,W,29.21,29.49,,Overcast
KIGQ,01/26/2017 20:15 UTC,29.86,32.36,29.48,92.96,14.97,270.0,21.85,,,,,164.0,,,,10.0,,KIGQ 262015Z AUTO 27013G19KT 10SM OVC016 00/M01 A2986 RMK AO2  T00021014,,,1600.0,,,30.53,24.54,W,29.21,29.46,,Overcast
KIGQ,01/26/2017 20:35 UTC,29.86,32.54,29.48,92.96,10.36,290.0,,,,,,164.0,,,,10.0,,KIGQ 262035Z AUTO 29009KT 10SM OVC016 00/M01 A2986 RMK AO2  T00031014,,,1600.0,,,30.7,26.55,WNW,29.21,29.46,,Overcast
KIGQ,01/26/2017 20:55 UTC,29.87,32.72,29.84,92.96,14.97,260.0,,20.0,,,,184.0,,,,10.0,,KIGQ 262055Z AUTO 26013KT 10SM -SN OVC018 00/M01 A2987 RMK AO2  T00041012,,,1800.0,,,30.88,24.98,W,29.22,29.46,,Light Snow
KIGQ,01/26/2017 21:15 UTC,29.88,32.9,30.2,86.48,12.66,280.0,17.27,20.0,,,,164.0,,,,10.0,,KIGQ 262115Z AUTO 28011G15KT 10SM -SN OVC016 01/M01 A2988 RMK AO2  T00051010,,,1600.0,,,29.26,26.03,W,29.23,29.5,,Light Snow
KIGQ,01/26/2017 21:35 UTC,29.88,32.54,30.02,92.96,12.66,270.0,17.27,20.0,,,,183.0,234.0,,,7.0,,KIGQ 262135Z AUTO 27011G15KT 7SM -SN BKN018 OVC023 00/M01  A2988 RMK AO2 T00031011,,,1800.0,,,30.7,25.59,W,29.23,29.48,,Light Snow
KIGQ,01/26/2017 21:55 UTC,29.89,32.36,30.56,92.96,13.8,270.0,,20.0,,,,163.0,254.0,,,7.0,,KIGQ 262155Z AUTO 27012KT 7SM -SN BKN016 OVC025 00/M01 A2989 RMK AO2 T00021008,,,1600.0,,,30.53,24.95,W,29.24,29.49,,Light Snow
KIGQ,01/26/2017 22:15 UTC,29.9,32.18,30.74,92.96,11.5,270.0,,20.0,,,,183.0,254.0,,,7.0,,KIGQ 262215Z AUTO 27010KT 7SM -SN BKN018 OVC025 00/M01 A2990 RMK AO2 T00011007,,,1800.0,,,30.35,25.62,W,29.25,29.51,,Light Snow
KIGQ,01/26/2017 22:35 UTC,29.9,32.18,30.92,92.96,13.8,270.0,,20.0,,,,164.0,,,,10.0,,KIGQ 262235Z AUTO 27012KT 10SM -SN OVC016 00/M01 A2990 RMK AO2  T00011006,,,1600.0,,,30.35,24.72,W,29.25,29.51,,Light Snow
KIGQ,01/26/2017 22:55 UTC,29.91,32.18,30.92,92.96,12.66,280.0,,20.0,,,,164.0,,,,5.0,,KIGQ 262255Z AUTO 28011KT 5SM -SN OVC016 00/M01 A2991 RMK AO2  T00011006,,,1600.0,,,30.35,25.15,W,29.26,29.52,,Light Snow
KIGQ,01/26/2017 23:15 UTC,29.91,32.0,31.1,100.0,10.36,280.0,,20.0,,,,164.0,,,,2.0,,KIGQ 262315Z AUTO 28009KT 2SM -SN OVC016 00/00 A2991 RMK AO2  T00001005,,,1600.0,,,32.0,25.9,W,29.26,29.49,,Light Snow
KIGQ,01/26/2017 23:35 UTC,29.92,32.0,30.56,92.96,10.36,270.0,,20.0,324.0,,,142.0,183.0,,,10.0,,KIGQ 262335Z AUTO 27009KT 10SM -SN SCT014 BKN018 OVC032 00/M01  A2992 RMK AO2 T00001008,,,1800.0,,,30.17,25.9,W,29.27,29.53,,Light Snow
KIGQ,01/26/2017 23:55 UTC,29.92,32.0,30.2,92.96,11.5,280.0,,20.0,324.0,,,162.0,222.0,,,10.0,,KIGQ 262355Z AUTO 28010KT 10SM -SN SCT016 SCT022 OVC032 00/M01  A2992 RMK AO2 T00001010 10005 20000,32.9,32.0,3200.0,,,30.17,25.4,W,29.27,29.53,,Light Snow
KIGQ,01/27/2017 00:15 UTC,29.92,32.0,30.02,92.96,12.66,280.0,18.41,20.0,374.0,,,192.0,312.0,,,10.0,,KIGQ 270015Z AUTO 28011G16KT 10SM -SN SCT019 SCT031 OVC037 00/M01  A2992 RMK AO2 T00001011,,,3700.0,,,30.17,24.93,W,29.27,29.53,,Light Snow
KIGQ,01/27/2017 00:35 UTC,29.93,32.0,29.84,92.96,9.22,280.0,16.11,20.0,,,,202.0,404.0,,,10.0,,KIGQ 270035Z AUTO 28008G14KT 10SM -SN SCT020 OVC040 00/M01  A2993 RMK AO2 T00001012,,,4000.0,,,30.17,26.45,W,29.28,29.54,,Light Snow
KIGQ,01/27/2017 00:55 UTC,29.93,32.0,29.3,92.96,9.22,280.0,,,604.0,,,202.0,423.0,,,10.0,,KIGQ 270055Z AUTO 28008KT 10SM SCT020 BKN042 OVC060 00/M01  A2993 RMK AO2 T00001015,,,4200.0,,,30.17,26.45,W,29.28,29.54,,Overcast
KIGQ,01/27/2017 01:15 UTC,29.93,32.0,28.94,88.3,9.22,270.0,,,604.0,,,302.0,383.0,,,10.0,,KIGQ 270115Z AUTO 27008KT 10SM SCT030 BKN038 OVC060 00/M02 A2993 RMK AO2 T00001017,,,3800.0,,,28.89,26.45,W,29.28,29.56,,Overcast
KIGQ,01/27/2017 01:35 UTC,29.93,32.0,28.94,86.37,11.5,280.0,17.27,,604.0,,,192.0,243.0,,,10.0,,KIGQ 270135Z AUTO 28010G15KT 10SM SCT019 BKN024 OVC060 00/M02  A2993 RMK AO2 T00001017,,,2400.0,,,28.34,25.4,W,29.28,29.57,,Overcast
KIGQ,01/27/2017 01:55 UTC,29.94,32.0,29.3,92.96,9.22,270.0,,,604.0,,,223.0,393.0,,,10.0,,KIGQ 270155Z AUTO 27008KT 10SM BKN022 BKN039 OVC060 00/M01  A2994 RMK AO2 T00001015,,,2200.0,,,30.17,26.45,W,29.29,29.55,,Overcast
KIGQ,01/27/2017 02:15 UTC,29.93,32.0,28.4,86.37,9.22,280.0,16.11,,,,,203.0,294.0,,,10.0,,KIGQ 270215Z AUTO 28008G14KT 10SM BKN020 OVC029 00/M02 A2993 RMK AO2 T00001020,,,2000.0,,,28.34,26.45,W,29.28,29.57,,Overcast
KIGQ,01/27/2017 02:35 UTC,29.94,32.0,28.22,85.73,12.66,270.0,19.57,,,,,223.0,284.0,,,10.0,,KIGQ 270235Z AUTO 27011G17KT 10SM BKN022 OVC028 00/M02 A2994 RMK AO2 T00001021,,,2200.0,,,28.16,24.93,W,29.29,29.58,,Overcast
KIGQ,01/27/2017 02:55 UTC,29.94,31.82,27.5,86.37,10.36,270.0,20.71,,554.0,,,202.0,263.0,,,10.0,,KIGQ 270255Z AUTO 27009G18KT 10SM SCT020 BKN026 OVC055 00/M02  A2994 RMK AO2 T10011025,,,2600.0,,,28.16,25.68,W,29.29,29.58,,Overcast
KIGQ,01/27/2017 03:15 UTC,29.94,31.64,28.04,86.37,11.5,270.0,,,454.0,,,222.0,333.0,,,10.0,,KIGQ 270315Z AUTO 27010KT 10SM SCT022 BKN033 OVC045 00/M02  A2994 RMK AO2 T10021022,,,3300.0,,,27.99,24.96,W,29.29,29.58,,Overcast
KIGQ,01/27/2017 03:35 UTC,29.94,31.1,27.32,80.19,10.36,270.0,,,434.0,,,203.0,353.0,,,10.0,,KIGQ 270335Z AUTO 27009KT 10SM BKN020 BKN035 OVC043 00/M03  A2994 RMK AO2 T10051026,,,2000.0,,,25.63,24.82,W,29.29,29.62,,Overcast
KIGQ,01/27/2017 03:55 UTC,29.94,30.74,27.5,92.91,11.5,260.0,,,494.0,,,222.0,433.0,,,10.0,,KIGQ 270355Z AUTO 26010KT 10SM SCT022 BKN043 OVC049 M01/M02  A2994 RMK AO2 T10071025,,,4300.0,,,28.91,23.88,W,29.29,29.58,,Overcast
KIGQ,01/27/2017 04:15 UTC,29.94,30.2,27.14,86.26,10.36,260.0,,,,,,243.0,494.0,,,10.0,,KIGQ 270415Z AUTO 26009KT 10SM BKN024 OVC049 M01/M03 A2994 RMK AO2  T10101027,,,2400.0,,,26.54,23.74,W,29.29,29.61,,Overcast
KIGQ,01/27/2017 04:35 UTC,29.94,30.02,26.78,86.26,11.5,260.0,,,,,,243.0,504.0,,,10.0,,KIGQ 270435Z AUTO 26010KT 10SM BKN024 OVC050 M01/M03 A2994 RMK AO2  T10111029,,,2400.0,,,26.36,23.01,W,29.29,29.61,,Overcast
KIGQ,01/27/2017 04:55 UTC,29.94,29.48,26.6,86.26,10.36,270.0,,,,,,233.0,504.0,,,10.0,,KIGQ 270455Z AUTO 27009KT 10SM BKN023 OVC050 M01/M03 A2994 RMK AO2  T10141030,,,2300.0,,,25.83,22.88,W,29.29,29.62,,Overcast
KIGQ,01/27/2017 05:15 UTC,29.94,29.12,26.24,92.85,9.22,260.0,,,,,,212.0,463.0,,,10.0,,KIGQ 270515Z AUTO 26008KT 10SM SCT021 BKN046 M02/M03 A2994 RMK AO2  T10161032,,,4600.0,,,27.28,23.03,W,29.29,29.61,,Mostly Cloudy
KIGQ,01/27/2017 05:35 UTC,29.94,29.3,26.6,86.26,9.22,260.0,,,,,,464.0,,,,10.0,,KIGQ 270535Z AUTO 26008KT 10SM OVC046 M01/M03 A2994 RMK AO2  T10151030,,,4600.0,,,25.65,23.25,W,29.29,29.63,,Overcast
KIGQ,01/27/2017 05:55 UTC,29.94,29.66,26.6,86.26,6.91,260.0,,,,,,322.0,414.0,,,10.0,,KIGQ 270555Z AUTO 26006KT 10SM SCT032 OVC041 M01/M03 A2994 RMK AO2  T10131030 10000 21017 400131017,32.0,28.94,4100.0,34.34,28.94,26.01,,W,29.29,29.62,,Overcast
KIGQ,01/27/2017 06:15 UTC,29.93,29.66,26.6,86.26,8.05,280.0,,,,,,283.0,344.0,,,10.0,,KIGQ 270615Z AUTO 28007KT 10SM BKN028 OVC034 M01/M03 A2993 RMK AO2  T10131030,,,2800.0,,,26.01,24.33,W,29.28,29.61,,Overcast
KIGQ,01/27/2017 06:35 UTC,29.93,30.38,24.98,80.04,8.05,260.0,,,,,,284.0,,,,10.0,,KIGQ 270635Z AUTO 26007KT 10SM OVC028 M01/M04 A2993 RMK AO2  T10091039,,,2800.0,,,24.89,25.17,W,29.28,29.62,,Overcast
KIGQ,01/27/2017 06:55 UTC,29.93,30.56,24.98,80.04,6.91,290.0,16.11,,,,,264.0,,,,10.0,,KIGQ 270655Z AUTO 29006G14KT 10SM OVC026 M01/M04 A2993 RMK AO2  T10081039,,,2600.0,,,25.06,,WNW,29.28,29.61,,Overcast
KIGQ,01/27/2017 07:15 UTC,29.93,30.56,24.98,80.04,6.91,270.0,,,,,,264.0,,,,10.0,,KIGQ 270715Z AUTO 27006KT 10SM OVC026 M01/M04 A2993 RMK AO2  T10081039,,,2600.0,,,25.06,,W,29.28,29.61,,Overcast
KIGQ,01/27/2017 07:35 UTC,29.93,30.2,25.7,86.26,10.36,270.0,16.11,,,,,264.0,,,,10.0,,KIGQ 270735Z AUTO 27009G14KT 10SM OVC026 M01/M03 A2993 RMK AO2  T10101035,,,2600.0,,,26.54,23.74,W,29.28,29.6,,Overcast
KIGQ,01/27/2017 07:55 UTC,29.93,30.2,26.42,86.26,14.97,260.0,19.57,,,,,244.0,,,,10.0,,KIGQ 270755Z AUTO 26013G17KT 10SM OVC024 M01/M03 A2993 RMK AO2  T10101031,,,2400.0,,,26.54,21.88,W,29.28,29.6,,Overcast
KIGQ,01/27/2017 08:15 UTC,29.93,29.3,25.88,86.26,16.11,260.0,20.71,,,,,183.0,244.0,,,10.0,,KIGQ 270815Z AUTO 26014G18KT 10SM BKN018 OVC024 M01/M03 A2993 RMK AO2 T10151034,,,1800.0,,,25.65,20.38,W,29.28,29.62,,Overcast
KIGQ,01/27/2017 08:35 UTC,29.93,28.4,24.8,86.15,12.66,280.0,20.71,,,,,164.0,,,,10.0,,KIGQ 270835Z AUTO 28011G18KT 10SM OVC016 M02/M04 A2993 RMK AO2  T10201040,,,1600.0,,,24.74,20.55,W,29.28,29.63,,Overcast
KIGQ,01/27/2017 08:55 UTC,29.93,28.22,24.8,86.15,11.5,270.0,,,,,,184.0,,,,10.0,,KIGQ 270855Z AUTO 27010KT 10SM OVC018 M02/M04 A2993 RMK AO2  T10211040,,,1800.0,,,24.56,20.84,W,29.28,29.63,,Overcast
KIGQ,01/27/2017 09:15 UTC,29.93,28.04,24.62,86.15,13.8,270.0,,,,,,204.0,,,,10.0,,KIGQ 270915Z AUTO 27012KT 10SM OVC020 M02/M04 A2993 RMK AO2  T10221041,,,2000.0,,,24.38,19.66,W,29.28,29.64,,Overcast
KIGQ,01/27/2017 09:35 UTC,29.92,28.04,23.9,86.15,12.66,280.0,,,,,,224.0,,,,10.0,,KIGQ 270935Z AUTO 28011KT 10SM OVC022 M02/M04 A2992 RMK AO2  T10221045,,,2200.0,,,24.38,20.11,W,29.27,29.63,,Overcast
KIGQ,01/27/2017 09:55 UTC,29.92,28.04,23.72,79.89,12.66,280.0,17.27,,,,,224.0,,,,10.0,,KIGQ 270955Z AUTO 28011G15KT 10SM OVC022 M02/M05 A2992 RMK AO2  T10221046,,,2200.0,,,22.56,20.11,W,29.27,29.65,,Overcast
KIGQ,01/27/2017 10:15 UTC,29.92,28.22,24.08,86.15,8.05,290.0,,,,,,224.0,,,,10.0,,KIGQ 271015Z AUTO 29007KT 10SM OVC022 M02/M04 A2992 RMK AO2  T10211044,,,2200.0,,,24.56,22.64,WNW,29.27,29.62,,Overcast
KIGQ,01/27/2017 10:35 UTC,29.92,28.4,24.44,86.15,8.05,270.0,,,,,,224.0,,,,10.0,,KIGQ 271035Z AUTO 27007KT 10SM OVC022 M02/M04 A2992 RMK AO2  T10201042,,,2200.0,,,24.74,22.85,W,29.27,29.62,,Overcast
KIGQ,01/27/2017 10:55 UTC,29.92,28.4,24.8,86.15,8.05,270.0,,,,,,174.0,,,,10.0,,KIGQ 271055Z AUTO 27007KT 10SM OVC017 M02/M04 A2992 RMK AO2  T10201040,,,1700.0,,,24.74,22.85,W,29.27,29.62,,Overcast
KIGQ,01/27/2017 11:15 UTC,29.92,28.4,25.34,86.15,8.05,250.0,,20.0,,,,154.0,,,,10.0,,KIGQ 271115Z AUTO 25007KT 10SM -SN OVC015 M02/M04 A2992 RMK AO2  T10201037,,,1500.0,,,24.74,22.85,WSW,29.27,29.62,,Light Snow
KIGQ,01/27/2017 11:35 UTC,29.91,28.58,25.7,92.85,6.91,250.0,,,,,,154.0,,,,10.0,,KIGQ 271135Z AUTO 25006KT 10SM OVC015 M02/M03 A2991 RMK AO2  T10191035,,,1500.0,,,26.75,,WSW,29.26,29.59,,Overcast
KIGQ,01/27/2017 11:55 UTC,29.91,28.76,26.24,92.85,8.05,250.0,,20.0,,,,154.0,,,,10.0,,KIGQ 271155Z AUTO 25007KT 10SM -SN OVC015 M02/M03 A2991 RMK AO2  T10181032 11008 21022,30.56,28.04,1500.0,,,26.93,23.27,WSW,29.26,29.58,,Light Snow
KIGQ,01/27/2017 12:15 UTC,29.91,29.3,25.34,80.04,20.71,270.0,25.32,,,,,174.0,,,,10.0,,KIGQ 271215Z AUTO 27018G22KT 10SM OVC017 M01/M04 A2991 RMK AO2  T10151037,,,1700.0,,,23.83,19.0,W,29.26,29.62,,Overcast
KIGQ,01/27/2017 12:35 UTC,29.92,28.76,24.44,86.15,14.97,280.0,23.02,,,,,224.0,,,,10.0,,KIGQ 271235Z AUTO 28013G20KT 10SM OVC022 M02/M04 A2992 RMK AO2  T10181042,,,2200.0,,,25.09,20.1,W,29.27,29.61,,Overcast
KIGQ,01/27/2017 12:55 UTC,29.92,28.04,24.26,86.15,17.27,260.0,25.32,,,,,183.0,254.0,,,10.0,,KIGQ 271255Z AUTO 26015G22KT 10SM BKN018 OVC025 M02/M04 A2992 RMK AO2 T10221043,,,1800.0,,,24.38,18.43,W,29.27,29.63,,Overcast
KIGQ,01/27/2017 13:15 UTC,29.92,27.86,24.8,86.15,10.36,260.0,,,,,,164.0,,,,10.0,,KIGQ 271315Z AUTO 26009KT 10SM OVC016 M02/M04 A2992 RMK AO2  T10231040,,,1600.0,,,24.21,20.94,W,29.27,29.63,,Overcast
KIGQ,01/27/2017 13:35 UTC,29.91,28.04,24.62,86.15,16.11,260.0,,,,,,164.0,,,,10.0,,KIGQ 271335Z AUTO 26014KT 10SM OVC016 M02/M04 A2991 RMK AO2  T10221041,,,1600.0,,,24.38,18.82,W,29.26,29.62,,Overcast
KIGQ,01/27/2017 13:55 UTC,29.91,28.04,23.36,79.89,14.97,280.0,20.71,,,,,204.0,,,,10.0,,KIGQ 271355Z AUTO 28013G18KT 10SM OVC020 M02/M05 A2991 RMK AO2  T10221048,,,2000.0,,,22.56,19.22,W,29.26,29.64,,Overcast
KIGQ,01/27/2017 14:15 UTC,29.91,27.5,23.36,79.89,16.11,270.0,23.02,,,,,184.0,,,,10.0,,KIGQ 271415Z AUTO 27014G20KT 10SM OVC018 M02/M05 A2991 RMK AO2  T10251048,,,1800.0,,,22.03,18.15,W,29.26,29.64,,Overcast
KIGQ,01/27/2017 14:35 UTC,29.92,27.5,23.36,79.89,12.66,280.0,18.41,,,,,184.0,,,,10.0,,KIGQ 271435Z AUTO 28011G16KT 10SM OVC018 M02/M05 A2992 RMK AO2  T10251048,,,1800.0,,,22.03,19.46,W,29.27,29.65,,Overcast
KIGQ,01/27/2017 14:55 UTC,29.92,27.32,23.36,86.04,14.97,280.0,21.85,,,,,184.0,,,,10.0,,KIGQ 271455Z AUTO 28013G19KT 10SM OVC018 M03/M05 A2992 RMK AO2  T10261048,,,1800.0,,,23.64,18.33,W,29.27,29.64,,Overcast
KIGQ,01/27/2017 15:15 UTC,29.92,27.32,23.0,86.04,12.66,270.0,,,,,,184.0,,,,10.0,,KIGQ 271515Z AUTO 27011KT 10SM OVC018 M03/M05 A2992 RMK AO2  T10261050,,,1800.0,,,23.64,19.24,W,29.27,29.64,,Overcast
KIGQ,01/27/2017 15:35 UTC,29.92,27.5,23.0,79.89,13.8,280.0,,,,,,184.0,,,,10.0,,KIGQ 271535Z AUTO 28012KT 10SM OVC018 M02/M05 A2992 RMK AO2  T10251050,,,1800.0,,,22.03,18.99,W,29.27,29.65,,Overcast
KIGQ,01/27/2017 15:55 UTC,29.92,27.14,22.28,86.04,20.71,270.0,26.46,,,,,184.0,,,,10.0,,KIGQ 271555Z AUTO 27018G23KT 10SM OVC018 M03/M05 A2992 RMK AO2  T10271054,,,1800.0,,,23.47,16.27,W,29.27,29.64,,Overcast
KIGQ,01/27/2017 16:15 UTC,29.93,26.96,22.28,86.04,12.66,280.0,21.85,,,,,204.0,,,,10.0,,KIGQ 271615Z AUTO 28011G19KT 10SM OVC020 M03/M05 A2993 RMK AO2  T10281054,,,2000.0,,,23.29,18.8,W,29.28,29.65,,Overcast
KIGQ,01/27/2017 16:35 UTC,29.92,26.6,22.1,86.04,17.27,270.0,24.16,,,,,184.0,,,,10.0,,KIGQ 271635Z AUTO 27015G21KT 10SM OVC018 M03/M05 A2992 RMK AO2  T10301055,,,1800.0,,,22.94,16.64,W,29.27,29.65,,Overcast
KIGQ,01/27/2017 16:55 UTC,29.92,26.6,22.1,86.04,14.97,260.0,19.57,,,,,184.0,,,,10.0,,KIGQ 271655Z AUTO 26013G17KT 10SM OVC018 M03/M05 A2992 RMK AO2  T10301055,,,1800.0,,,22.94,17.44,W,29.27,29.65,,Overcast
KIGQ,01/27/2017 17:15 UTC,29.91,26.6,22.1,86.04,13.8,280.0,19.57,,,,,184.0,,,,10.0,,KIGQ 271715Z AUTO 28012G17KT 10SM OVC018 M03/M05 A2991 RMK AO2  T10301055,,,1800.0,,,22.94,17.89,W,29.26,29.64,,Overcast
KIGQ,01/27/2017 17:35 UTC,29.91,26.6,21.74,79.74,18.41,270.0,23.02,,,,,184.0,,,,10.0,,KIGQ 271735Z AUTO 27016G20KT 10SM OVC018 M03/M06 A2991 RMK AO2  T10301057,,,1800.0,,,21.11,16.27,W,29.26,29.66,,Overcast
KIGQ,01/27/2017 17:55 UTC,29.9,26.24,21.74,79.74,14.97,250.0,,,,,,184.0,,,,10.0,,KIGQ 271755Z AUTO 25013KT 10SM OVC018 M03/M06 A2990 RMK AO2  T10321057 11015 21032,29.3,26.24,1800.0,,,20.76,17.0,WSW,29.25,29.65,,Overcast
KIGQ,01/27/2017 18:15 UTC,29.89,26.06,21.92,79.74,16.11,260.0,,,,,,184.0,,,,10.0,,KIGQ 271815Z AUTO 26014KT 10SM OVC018 M03/M06 A2989 RMK AO2  T10331056,,,1800.0,,,20.58,16.36,W,29.24,29.65,,Overcast
KIGQ,01/27/2017 18:35 UTC,29.88,26.24,22.28,86.04,13.8,280.0,21.85,,,,,164.0,,,,10.0,,KIGQ 271835Z AUTO 28012G19KT 10SM OVC016 M03/M05 A2988 RMK AO2  T10321054,,,1600.0,,,22.58,17.45,W,29.23,29.61,,Overcast
KIGQ,01/27/2017 18:55 UTC,29.88,25.7,21.74,79.74,18.41,270.0,,,,,,164.0,,,,7.0,,KIGQ 271855Z AUTO 27016KT 7SM OVC016 M03/M06 A2988 RMK AO2  T10351057,,,1600.0,,,20.23,15.14,W,29.23,29.64,,Overcast
KIGQ,01/27/2017 19:15 UTC,29.87,25.52,21.2,85.93,16.11,270.0,23.02,,,,,164.0,,,,10.0,,KIGQ 271915Z AUTO 27014G20KT 10SM OVC016 M04/M06 A2987 RMK AO2  T10361060,,,1600.0,,,21.84,15.69,W,29.22,29.62,,Overcast
KIGQ,01/27/2017 19:35 UTC,29.87,25.7,20.12,73.84,16.11,270.0,21.85,,,,,184.0,,,,10.0,,KIGQ 271935Z AUTO 27014G19KT 10SM OVC018 M03/M07 A2987 RMK AO2  T10351066,,,1800.0,,,18.41,15.92,W,29.22,29.65,,Overcast
KIGQ,01/27/2017 19:55 UTC,29.87,25.7,20.12,73.84,17.27,250.0,24.16,,,,,204.0,,,,10.0,,KIGQ 271955Z AUTO 25015G21KT 10SM OVC020 M03/M07 A2987 RMK AO2  T10351066,,,2000.0,,,18.41,15.51,WSW,29.22,29.65,,Overcast
KIGQ,01/27/2017 20:15 UTC,29.87,25.7,19.04,73.84,20.71,270.0,26.46,,,,,224.0,,,,10.0,,KIGQ 272015Z AUTO 27018G23KT 10SM OVC022 M03/M07 A2987 RMK AO2  T10351072,,,2200.0,,,18.41,14.45,W,29.22,29.65,,Overcast
KIGQ,01/27/2017 20:35 UTC,29.87,25.7,18.86,73.84,20.71,270.0,27.63,,,,,244.0,,,,10.0,,KIGQ 272035Z AUTO 27018G24KT 10SM OVC024 M03/M07 A2987 RMK AO2  T10351073,,,2400.0,,,18.41,14.45,W,29.22,29.65,,Overcast
KIGQ,01/27/2017 20:55 UTC,29.87,26.06,18.86,73.84,17.27,270.0,,,,,,264.0,,,,10.0,,KIGQ 272055Z AUTO 27015KT 10SM OVC026 M03/M07 A2987 RMK AO2  T10331073,,,2600.0,,,18.76,15.96,W,29.22,29.64,,Overcast
KIGQ,01/27/2017 21:15 UTC,29.87,26.24,19.22,73.84,16.11,270.0,,,,,,264.0,,,,10.0,,KIGQ 272115Z AUTO 27014KT 10SM OVC026 M03/M07 A2987 RMK AO2  T10321071,,,2600.0,,,18.93,16.58,W,29.22,29.64,,Overcast
KIGQ,01/27/2017 21:35 UTC,29.88,26.24,19.22,73.84,18.41,250.0,21.85,,,,,264.0,,,,10.0,,KIGQ 272135Z AUTO 25016G19KT 10SM OVC026 M03/M07 A2988 RMK AO2  T10321071,,,2600.0,,,18.93,15.82,WSW,29.23,29.65,,Overcast
KIGQ,01/27/2017 21:55 UTC,29.88,26.06,19.4,73.84,13.8,250.0,23.02,,,,,264.0,,,,10.0,,KIGQ 272155Z AUTO 25012G20KT 10SM OVC026 M03/M07 A2988 RMK AO2  T10331070,,,2600.0,,,18.76,17.23,WSW,29.23,29.65,,Overcast
KIGQ,01/27/2017 22:15 UTC,29.88,25.7,19.58,73.84,17.27,270.0,24.16,,,,,244.0,,,,10.0,,KIGQ 272215Z AUTO 27015G21KT 10SM OVC024 M03/M07 A2988 RMK AO2  T10351069,,,2400.0,,,18.41,15.51,W,29.23,29.66,,Overcast
KIGQ,01/27/2017 22:35 UTC,29.88,25.7,20.12,73.84,16.11,260.0,26.46,,,,,244.0,,,,10.0,,KIGQ 272235Z AUTO 26014G23KT 10SM OVC024 M03/M07 A2988 RMK AO2  T10351066,,,2400.0,,,18.41,15.92,W,29.23,29.66,,Overcast
KIGQ,01/27/2017 22:55 UTC,29.88,25.7,20.12,73.84,24.16,270.0,29.93,,,,,224.0,,,,10.0,,KIGQ 272255Z AUTO 27021G26KT 10SM OVC022 M03/M07 A2988 RMK AO2  T10351066,,,2200.0,,,18.41,13.52,W,29.23,29.66,,Overcast
KIGQ,01/27/2017 23:15 UTC,29.88,25.7,20.48,79.74,14.97,260.0,20.71,,,,,224.0,,,,10.0,,KIGQ 272315Z AUTO 26013G18KT 10SM OVC022 M03/M06 A2988 RMK AO2  T10351064,,,2200.0,,,20.23,16.33,W,29.23,29.64,,Overcast
KIGQ,01/27/2017 23:35 UTC,29.88,25.7,20.66,79.74,19.57,250.0,24.16,,,,,204.0,,,,10.0,,KIGQ 272335Z AUTO 25017G21KT 10SM OVC020 M03/M06 A2988 RMK AO2  T10351063,,,2000.0,,,20.23,14.78,WSW,29.23,29.64,,Overcast
KIGQ,01/27/2017 23:55 UTC,29.88,25.7,20.84,79.74,11.5,260.0,24.16,,,,,204.0,,,,10.0,,KIGQ 272355Z AUTO 26010G21KT 10SM OVC020 M03/M06 A2988 RMK AO2  T10351062 11032 21036,26.24,25.52,2000.0,,,20.23,17.79,W,29.23,29.64,,Overcast
KIGQ,01/28/2017 00:15 UTC,29.88,25.7,20.84,79.74,17.27,260.0,25.32,,,,,204.0,,,,10.0,,KIGQ 280015Z AUTO 26015G22KT 10SM OVC020 M03/M06 A2988 RMK AO2  T10351062,,,2000.0,,,20.23,15.51,W,29.23,29.64,,Overcast
KIGQ,01/28/2017 00:35 UTC,29.88,26.06,21.02,79.74,18.41,260.0,23.02,,,,,204.0,,,,10.0,,KIGQ 280035Z AUTO 26016G20KT 10SM OVC020 M03/M06 A2988 RMK AO2  T10331061,,,2000.0,,,20.58,15.59,W,29.23,29.63,,Overcast
KIGQ,01/28/2017 00:55 UTC,29.87,26.06,21.02,79.74,17.27,270.0,20.71,,,,,204.0,,,,10.0,,KIGQ 280055Z AUTO 27015G18KT 10SM OVC020 M03/M06 A2987 RMK AO2  T10331061,,,2000.0,,,20.58,15.96,W,29.22,29.62,,Overcast
KIGQ,01/28/2017 01:15 UTC,29.87,26.24,20.48,79.74,13.8,270.0,19.57,,,,,244.0,,,,10.0,,KIGQ 280115Z AUTO 27012G17KT 10SM OVC024 M03/M06 A2987 RMK AO2  T10321064,,,2400.0,,,20.76,17.45,W,29.22,29.62,,Overcast
KIGQ,01/28/2017 01:35 UTC,29.86,26.42,20.66,79.74,17.27,260.0,24.16,,,,,244.0,,,,10.0,,KIGQ 280135Z AUTO 26015G21KT 10SM OVC024 M03/M06 A2986 RMK AO2  T10311063,,,2400.0,,,20.93,16.41,W,29.21,29.61,,Overcast
KIGQ,01/28/2017 01:55 UTC,29.86,26.42,21.2,79.74,16.11,260.0,20.71,,,,,244.0,,,,10.0,,KIGQ 280155Z AUTO 26014G18KT 10SM OVC024 M03/M06 A2986 RMK AO2  T10311060,,,2400.0,,,20.93,16.81,W,29.21,29.61,,Overcast
KIGQ,01/28/2017 02:15 UTC,29.86,25.88,21.02,79.74,12.66,260.0,,,,,,243.0,,,,10.0,,KIGQ 280215Z AUTO 26011KT 10SM BKN024 M03/M06 A2986 RMK AO2  T10341061,,,2400.0,,,20.41,17.49,W,29.21,29.62,,Mostly Cloudy
KIGQ,01/28/2017 02:35 UTC,29.85,25.7,21.2,79.74,12.66,240.0,,,,,,242.0,903.0,,,10.0,,KIGQ 280235Z AUTO 24011KT 10SM SCT024 BKN090 M03/M06 A2985 RMK AO2  T10351060,,,9000.0,,,20.23,17.27,WSW,29.2,29.61,,Mostly Cloudy
KIGQ,01/28/2017 02:55 UTC,29.84,25.7,21.2,79.74,11.5,240.0,,,,,,904.0,,,,10.0,,KIGQ 280255Z AUTO 24010KT 10SM OVC090 M03/M06 A2984 RMK AO2  T10351060,,,9000.0,,,20.23,17.79,WSW,29.19,29.6,,Overcast
KIGQ,01/28/2017 03:15 UTC,29.84,25.7,21.2,79.74,12.66,230.0,,,,,,902.0,1204.0,,,10.0,,KIGQ 280315Z AUTO 23011KT 10SM SCT090 OVC120 M03/M06 A2984 RMK AO2  T10351060,,,12000.0,,,20.23,17.27,SW,29.19,29.6,,Overcast
KIGQ,01/28/2017 03:35 UTC,29.83,25.7,21.92,79.74,10.36,230.0,,,,,,1104.0,,,,10.0,,KIGQ 280335Z AUTO 23009KT 10SM OVC110 M03/M06 A2983 RMK AO2  T10351056,,,11000.0,,,20.23,18.36,SW,29.18,29.59,,Overcast
KIGQ,01/28/2017 03:55 UTC,29.83,26.42,22.46,86.04,13.8,240.0,,,,,,1104.0,,,,10.0,,KIGQ 280355Z AUTO 24012KT 10SM OVC110 M03/M05 A2983 RMK AO2  T10311053,,,11000.0,,,22.76,17.67,WSW,29.18,29.56,,Overcast
KIGQ,01/28/2017 04:15 UTC,29.83,26.6,22.46,86.04,11.5,240.0,,,,,,1204.0,,,,10.0,,KIGQ 280415Z AUTO 24010KT 10SM OVC120 M03/M05 A2983 RMK AO2  T10301053,,,12000.0,,,22.94,18.88,WSW,29.18,29.56,,Overcast
KIGQ,01/28/2017 04:35 UTC,29.82,26.06,22.46,86.04,12.66,240.0,,,,,,952.0,1202.0,,,10.0,,KIGQ 280435Z AUTO 24011KT 10SM SCT095 SCT120 M03/M05 A2982 RMK AO2  T10331053,,,,,,22.41,17.71,WSW,29.17,29.56,,Partly Cloudy
KIGQ,01/28/2017 04:55 UTC,29.82,26.24,22.82,86.04,11.5,250.0,,,,,,212.0,1202.0,,,10.0,,KIGQ 280455Z AUTO 25010KT 10SM SCT021 SCT120 M03/M05 A2982 RMK AO2  T10321051,,,,,,22.58,18.45,WSW,29.17,29.55,,Partly Cloudy
KIGQ,01/28/2017 05:15 UTC,29.81,26.6,23.0,86.04,12.66,250.0,18.41,,,,,213.0,853.0,,,10.0,,KIGQ 280515Z AUTO 25011G16KT 10SM BKN021 BKN085 M03/M05 A2981 RMK AO2 T10301050,,,2100.0,,,22.94,18.36,WSW,29.16,29.54,,Mostly Cloudy
KIGQ,01/28/2017 05:35 UTC,29.81,26.6,22.82,86.04,16.11,260.0,23.02,,,,,192.0,1003.0,,,10.0,,KIGQ 280535Z AUTO 26014G20KT 10SM SCT019 BKN100 M03/M05 A2981 RMK AO2 T10301051,,,10000.0,,,22.94,17.03,W,29.16,29.54,,Mostly Cloudy
KIGQ,01/28/2017 05:55 UTC,29.81,26.24,22.82,86.04,13.8,260.0,18.41,,,,,192.0,1002.0,,,10.0,,KIGQ 280555Z AUTO 26012G16KT 10SM SCT019 SCT100 M03/M05 A2981 RMK AO2 T10321051 11028 21037 410081037,26.96,25.34,,30.56,25.34,22.58,17.45,W,29.16,29.54,,Partly Cloudy
KIGQ,01/28/2017 06:15 UTC,29.8,26.06,22.82,86.04,11.5,260.0,16.11,,,,,192.0,1003.0,,,10.0,,KIGQ 280615Z AUTO 26010G14KT 10SM SCT019 BKN100 M03/M05 A2980 RMK AO2 T10331051,,,10000.0,,,22.41,18.23,W,29.15,29.54,,Mostly Cloudy
KIGQ,01/28/2017 06:35 UTC,29.79,25.7,22.46,86.04,13.8,260.0,,,,,,172.0,1002.0,,,10.0,,KIGQ 280635Z AUTO 26012KT 10SM SCT017 SCT100 M03/M05 A2979 RMK AO2  T10351053,,,,,,22.05,16.79,W,29.14,29.53,,Partly Cloudy
KIGQ,01/28/2017 06:55 UTC,29.79,25.7,22.46,86.04,12.66,260.0,17.27,,,,,172.0,1203.0,,,10.0,,KIGQ 280655Z AUTO 26011G15KT 10SM SCT017 BKN120 M03/M05 A2979 RMK AO2 T10351053,,,12000.0,,,22.05,17.27,W,29.14,29.53,,Mostly Cloudy
KIGQ,01/28/2017 07:15 UTC,29.78,25.52,22.46,92.73,12.66,260.0,,,,,,173.0,1204.0,,,10.0,,KIGQ 280715Z AUTO 26011KT 10SM BKN017 OVC120 M04/M05 A2978 RMK AO2  T10361053,,,1700.0,,,23.68,17.05,W,29.13,29.51,,Overcast
KIGQ,01/28/2017 07:35 UTC,29.78,25.52,22.46,92.73,10.36,260.0,20.71,,,,,174.0,,,,10.0,,KIGQ 280735Z AUTO 26009G18KT 10SM OVC017 M04/M05 A2978 RMK AO2  T10361053,,,1700.0,,,23.68,18.14,W,29.13,29.51,,Overcast
KIGQ,01/28/2017 07:55 UTC,29.78,25.7,22.64,86.04,12.66,270.0,16.11,,,,,174.0,,,,10.0,,KIGQ 280755Z AUTO 27011G14KT 10SM OVC017 M03/M05 A2978 RMK AO2  T10351052,,,1700.0,,,22.05,17.27,W,29.13,29.52,,Overcast
KIGQ,01/28/2017 08:15 UTC,29.78,25.7,22.28,86.04,12.66,280.0,18.41,,,,,154.0,,,,10.0,,KIGQ 280815Z AUTO 28011G16KT 10SM OVC015 M03/M05 A2978 RMK AO2  T10351054,,,1500.0,,,22.05,17.27,W,29.13,29.52,,Overcast
KIGQ,01/28/2017 08:35 UTC,29.78,25.7,22.28,86.04,13.8,280.0,23.02,,,,,154.0,,,,10.0,,KIGQ 280835Z AUTO 28012G20KT 10SM OVC015 M03/M05 A2978 RMK AO2  T10351054,,,1500.0,,,22.05,16.79,W,29.13,29.52,,Overcast
KIGQ,01/28/2017 08:55 UTC,29.78,25.7,22.1,86.04,13.8,270.0,18.41,,,,,154.0,,,,10.0,,KIGQ 280855Z AUTO 27012G16KT 10SM OVC015 M03/M05 A2978 RMK AO2  T10351055,,,1500.0,,,22.05,16.79,W,29.13,29.52,,Overcast
KIGQ,01/28/2017 09:15 UTC,29.78,25.7,22.46,86.04,12.66,280.0,19.57,,,,,154.0,,,,10.0,,KIGQ 280915Z AUTO 28011G17KT 10SM OVC015 M03/M05 A2978 RMK AO2  T10351053,,,1500.0,,,22.05,17.27,W,29.13,29.52,,Overcast
KIGQ,01/28/2017 09:35 UTC,29.78,25.7,22.64,86.04,11.5,290.0,16.11,,,,,154.0,,,,10.0,,KIGQ 280935Z AUTO 29010G14KT 10SM OVC015 M03/M05 A2978 RMK AO2  T10351052,,,1500.0,,,22.05,17.79,WNW,29.13,29.52,,Overcast
KIGQ,01/28/2017 09:55 UTC,29.78,25.52,22.64,92.73,8.05,280.0,17.27,,,,,134.0,,,,10.0,,KIGQ 280955Z AUTO 28007G15KT 10SM OVC013 M04/M05 A2978 RMK AO2  T10361052,,,1300.0,,,23.68,19.46,W,29.13,29.51,,Overcast
KIGQ,01/28/2017 10:15 UTC,29.78,24.8,23.0,92.73,10.36,290.0,18.41,,,,,134.0,,,,10.0,,KIGQ 281015Z AUTO 29009G16KT 10SM OVC013 M04/M05 A2978,,,1300.0,,,22.97,17.28,WNW,29.13,29.52,,Overcast
KIGQ,01/28/2017 10:35 UTC,29.78,25.52,22.1,92.73,13.8,280.0,,,,,,134.0,,,,10.0,,KIGQ 281035Z AUTO 28012KT 10SM OVC013 M04/M05 A2978 RMK AO2  T10361055,,,1300.0,,,23.68,16.57,W,29.13,29.51,,Overcast
KIGQ,01/28/2017 10:55 UTC,29.78,25.52,22.1,92.73,17.27,270.0,25.32,,,,,134.0,,,,10.0,,KIGQ 281055Z AUTO 27015G22KT 10SM OVC013 M04/M05 A2978 RMK AO2  T10361055,,,1300.0,,,23.68,15.29,W,29.13,29.51,,Overcast
KIGQ,01/28/2017 11:15 UTC,29.78,25.52,22.46,92.73,17.27,270.0,20.71,,,,,134.0,,,,10.0,,KIGQ 281115Z AUTO 27015G18KT 10SM OVC013 M04/M05 A2978 RMK AO2  T10361053,,,1300.0,,,23.68,15.29,W,29.13,29.51,,Overcast
KIGQ,01/28/2017 11:35 UTC,29.78,25.7,22.64,86.04,14.97,270.0,21.85,,,,,134.0,,,,10.0,,KIGQ 281135Z AUTO 27013G19KT 10SM OVC013 M03/M05 A2978 RMK AO2  T10351052,,,1300.0,,,22.05,16.33,W,29.13,29.52,,Overcast
KIGQ,01/28/2017 11:55 UTC,29.78,25.7,22.82,86.04,11.5,270.0,,,,,,134.0,,,,10.0,,KIGQ 281155Z AUTO 27010KT 10SM OVC013 M03/M05 A2978 RMK AO2  T10351051 11031 21037,26.42,25.34,1300.0,,,22.05,17.79,W,29.13,29.52,,Overcast
KIGQ,01/28/2017 12:15 UTC,29.77,25.7,23.0,86.04,8.05,270.0,16.11,,,,,134.0,,,,10.0,,KIGQ 281215Z AUTO 27007G14KT 10SM OVC013 M03/M05 A2977 RMK AO2  T10351050,,,1300.0,,,22.05,19.68,W,29.12,29.51,,Overcast
KIGQ,01/28/2017 12:35 UTC,29.77,25.88,23.18,86.04,14.97,260.0,,,,,,134.0,,,,10.0,,KIGQ 281235Z AUTO 26013KT 10SM OVC013 M03/M05 A2977 RMK AO2  T10341049,,,1300.0,,,22.23,16.55,W,29.12,29.51,,Overcast
KIGQ,01/28/2017 12:55 UTC,29.78,26.06,23.18,86.04,10.36,270.0,16.11,,,,,134.0,,,,10.0,,KIGQ 281255Z AUTO 27009G14KT 10SM OVC013 M03/M05 A2978 RMK AO2  T10331049,,,1300.0,,,22.41,18.79,W,29.13,29.52,,Overcast
KIGQ,01/28/2017 13:15 UTC,29.76,26.42,23.54,86.04,11.5,260.0,,,,,,134.0,,,,10.0,,KIGQ 281315Z AUTO 26010KT 10SM OVC013 M03/M05 A2976 RMK AO2  T10311047,,,1300.0,,,22.76,18.66,W,29.11,29.49,,Overcast
KIGQ,01/28/2017 13:35 UTC,29.77,26.6,23.9,92.79,10.36,270.0,,,,,,134.0,,,,10.0,,KIGQ 281335Z AUTO 27009KT 10SM OVC013 M03/M04 A2977 RMK AO2  T10301045,,,1300.0,,,24.77,19.43,W,29.12,29.48,,Overcast
KIGQ,01/28/2017 13:55 UTC,29.77,26.96,23.9,92.79,13.8,270.0,,,,,,134.0,,,,10.0,,KIGQ 281355Z AUTO 27012KT 10SM OVC013 M03/M04 A2977 RMK AO2  T10281045,,,1300.0,,,25.13,18.33,W,29.12,29.47,,Overcast
KIGQ,01/28/2017 14:15 UTC,29.77,27.32,24.26,92.79,12.66,270.0,,,,,,134.0,,,,10.0,,KIGQ 281415Z AUTO 27011KT 10SM OVC013 M03/M04 A2977 RMK AO2  T10261043,,,1300.0,,,25.48,19.24,W,29.12,29.47,,Overcast
KIGQ,01/28/2017 14:35 UTC,29.77,27.86,24.62,86.15,11.5,270.0,,,,,,154.0,,,,10.0,,KIGQ 281435Z AUTO 27010KT 10SM OVC015 M02/M04 A2977 RMK AO2  T10231041,,,1500.0,,,24.21,20.4,W,29.12,29.48,,Overcast
KIGQ,01/28/2017 14:55 UTC,29.77,28.22,24.44,86.15,11.5,280.0,16.11,,,,,154.0,,,,10.0,,KIGQ 281455Z AUTO 28010G14KT 10SM OVC015 M02/M04 A2977 RMK AO2  T10211042,,,1500.0,,,24.56,20.84,W,29.12,29.47,,Overcast
KIGQ,01/28/2017 15:15 UTC,29.77,28.58,24.8,86.15,10.36,260.0,16.11,,,,,154.0,,,,10.0,,KIGQ 281515Z AUTO 26009G14KT 10SM OVC015 M02/M04 A2977 RMK AO2  T10191040,,,1500.0,,,24.91,21.8,W,29.12,29.46,,Overcast
KIGQ,01/28/2017 15:35 UTC,29.78,29.12,25.16,86.15,9.22,280.0,,,,,,154.0,,,,10.0,,KIGQ 281535Z AUTO 28008KT 10SM OVC015 M02/M04 A2978 RMK AO2  T10161038,,,1500.0,,,25.45,23.03,W,29.13,29.47,,Overcast
KIGQ,01/28/2017 15:55 UTC,29.77,29.3,25.34,80.04,10.36,280.0,,,,,,154.0,,,,10.0,,KIGQ 281555Z AUTO 28009KT 10SM OVC015 M01/M04 A2977 RMK AO2  T10151037,,,1500.0,,,23.83,22.67,W,29.12,29.47,,Overcast
KIGQ,01/28/2017 16:15 UTC,29.78,29.84,25.52,80.04,10.36,280.0,,,,,,154.0,,,,10.0,,KIGQ 281615Z AUTO 28009KT 10SM OVC015 M01/M04 A2978 RMK AO2  T10121036,,,1500.0,,,24.36,23.31,W,29.13,29.47,,Overcast
KIGQ,01/28/2017 16:35 UTC,29.78,30.2,25.52,80.04,13.8,270.0,,,,,,174.0,,,,10.0,,KIGQ 281635Z AUTO 27012KT 10SM OVC017 M01/M04 A2978 RMK AO2  T10101036,,,1700.0,,,24.71,22.3,W,29.13,29.47,,Overcast
KIGQ,01/28/2017 16:55 UTC,29.78,30.2,25.7,86.26,12.66,280.0,18.41,,,,,174.0,,,,10.0,,KIGQ 281655Z AUTO 28011G16KT 10SM OVC017 M01/M03 A2978 RMK AO2  T10101035,,,1700.0,,,26.54,22.74,W,29.13,29.45,,Overcast
KIGQ,01/28/2017 17:15 UTC,29.76,29.84,25.52,80.04,12.66,260.0,,,,,,174.0,,,,10.0,,KIGQ 281715Z AUTO 26011KT 10SM OVC017 M01/M04 A2976 RMK AO2  T10121036,,,1700.0,,,24.36,22.3,W,29.11,29.45,,Overcast
KIGQ,01/28/2017 17:35 UTC,29.76,30.02,25.52,80.04,12.66,270.0,,,,,,154.0,,,,10.0,,KIGQ 281735Z AUTO 27011KT 10SM OVC015 M01/M04 A2976 RMK AO2  T10111036,,,1500.0,,,24.54,22.52,W,29.11,29.45,,Overcast
KIGQ,01/28/2017 17:55 UTC,29.76,30.02,25.52,80.04,10.36,300.0,,,,,,154.0,,,,10.0,,KIGQ 281755Z AUTO 30009KT 10SM OVC015 M01/M04 A2976 RMK AO2  T10111036 11010 21035,30.2,25.7,1500.0,,,24.54,23.53,WNW,29.11,29.45,,Overcast
KIGQ,01/28/2017 18:15 UTC,29.76,29.66,25.7,86.26,12.66,280.0,18.41,,,,,154.0,,,,10.0,,KIGQ 281815Z AUTO 28011G16KT 10SM OVC015 M01/M03 A2976 RMK AO2  T10131035,,,1500.0,,,26.01,22.09,W,29.11,29.44,,Overcast
KIGQ,01/28/2017 18:35 UTC,29.75,29.3,25.7,86.26,9.22,280.0,,,,,,154.0,,,,10.0,,KIGQ 281835Z AUTO 28008KT 10SM OVC015 M01/M03 A2975 RMK AO2  T10151035,,,1500.0,,,25.65,23.25,W,29.1,29.43,,Overcast
KIGQ,01/28/2017 18:55 UTC,29.75,28.94,25.34,86.15,9.22,280.0,12.66,,,,,154.0,,,,10.0,,KIGQ 281855Z AUTO 28008G11KT 10SM OVC015 M02/M04 A2975 RMK AO2  T10171037,,,1500.0,,,25.27,22.82,W,29.1,29.44,,Overcast
KIGQ,01/28/2017 19:15 UTC,29.74,29.12,25.52,86.15,10.36,280.0,,,,,,154.0,,,,10.0,,KIGQ 281915Z AUTO 28009KT 10SM OVC015 M02/M04 A2974 RMK AO2  T10161036,,,1500.0,,,25.45,22.45,W,29.09,29.42,,Overcast
KIGQ,01/28/2017 19:35 UTC,29.75,28.76,24.98,86.15,9.22,280.0,,,,,,154.0,,,,10.0,,KIGQ 281935Z AUTO 28008KT 10SM OVC015 M02/M04 A2975 RMK AO2  T10181039,,,1500.0,,,25.09,22.6,W,29.1,29.44,,Overcast
KIGQ,01/28/2017 19:55 UTC,29.75,28.4,25.34,86.15,10.36,270.0,13.8,,,,,134.0,,,,10.0,,KIGQ 281955Z AUTO 27009G12KT 10SM OVC013 M02/M04 A2975 RMK AO2  T10201037,,,1300.0,,,24.74,21.59,W,29.1,29.45,,Overcast
KIGQ,01/28/2017 20:15 UTC,29.75,28.76,25.52,86.15,8.05,280.0,,,,,,134.0,,,,10.0,,KIGQ 282015Z AUTO 28007KT 10SM OVC013 M02/M04 A2975 RMK AO2  T10181036,,,1300.0,,,25.09,23.27,W,29.1,29.44,,Overcast
KIGQ,01/28/2017 20:35 UTC,29.75,28.94,25.34,86.15,9.22,270.0,,,,,,134.0,,,,10.0,,KIGQ 282035Z AUTO 27008KT 10SM OVC013 M02/M04 A2975 RMK AO2  T10171037,,,1300.0,,,25.27,22.82,W,29.1,29.44,,Overcast
KIGQ,01/28/2017 20:55 UTC,29.76,28.76,24.8,86.15,10.36,290.0,,,,,,154.0,,,,10.0,,KIGQ 282055Z AUTO 29009KT 10SM OVC015 M02/M04 A2976 RMK AO2  T10181040,,,1500.0,,,25.09,22.02,WNW,29.11,29.45,,Overcast
KIGQ,01/28/2017 21:15 UTC,29.76,28.4,24.98,86.15,10.36,300.0,16.11,,,,,154.0,,,,10.0,,KIGQ 282115Z AUTO 30009G14KT 10SM OVC015 M02/M04 A2976 RMK AO2  T10201039,,,1500.0,,,24.74,21.59,WNW,29.11,29.46,,Overcast
KIGQ,01/28/2017 21:35 UTC,29.76,28.4,25.34,86.15,9.22,280.0,,,,,,134.0,,,,7.0,,KIGQ 282135Z AUTO 28008KT 7SM OVC013 M02/M04 A2976 RMK AO2  T10201037,,,1300.0,,,24.74,22.18,W,29.11,29.46,,Overcast
KIGQ,01/28/2017 21:55 UTC,29.77,28.4,25.34,86.15,8.05,280.0,,,,,,134.0,,,,10.0,,KIGQ 282155Z AUTO 28007KT 10SM OVC013 M02/M04 A2977 RMK AO2  T10201037,,,1300.0,,,24.74,22.85,W,29.12,29.47,,Overcast
KIGQ,01/28/2017 22:15 UTC,29.78,28.4,24.62,86.15,9.22,300.0,16.11,,,,,154.0,,,,10.0,,KIGQ 282215Z AUTO 30008G14KT 10SM OVC015 M02/M04 A2978 RMK AO2  T10201041,,,1500.0,,,24.74,22.18,WNW,29.13,29.48,,Overcast
KIGQ,01/28/2017 22:35 UTC,29.78,28.4,23.9,86.15,8.05,300.0,,,,,,173.0,264.0,,,10.0,,KIGQ 282235Z AUTO 30007KT 10SM BKN017 OVC026 M02/M04 A2978 RMK AO2  T10201045,,,1700.0,,,24.74,22.85,WNW,29.13,29.48,,Overcast
KIGQ,01/28/2017 22:55 UTC,29.79,28.4,23.72,79.89,8.05,290.0,,,,,,172.0,304.0,,,10.0,,KIGQ 282255Z AUTO 29007KT 10SM SCT017 OVC030 M02/M05 A2979 RMK AO2  T10201046,,,3000.0,,,22.91,22.85,WNW,29.14,29.51,,Overcast
KIGQ,01/28/2017 23:15 UTC,29.8,28.22,22.82,79.89,8.05,290.0,,,,,,304.0,,,,10.0,,KIGQ 282315Z AUTO 29007KT 10SM OVC030 M02/M05 A2980 RMK AO2  T10211051,,,3000.0,,,22.73,22.64,WNW,29.15,29.52,,Overcast
KIGQ,01/28/2017 23:35 UTC,29.81,28.4,22.64,79.89,6.91,300.0,,,,,,233.0,304.0,,,10.0,,KIGQ 282335Z AUTO 30006KT 10SM BKN023 OVC030 M02/M05 A2981 RMK AO2  T10201052,,,2300.0,,,22.91,,WNW,29.16,29.53,,Overcast
KIGQ,01/28/2017 23:55 UTC,29.81,28.22,22.46,79.89,10.36,300.0,17.27,,,,,234.0,,,,10.0,,KIGQ 282355Z AUTO 30009G15KT 10SM OVC023 M02/M05 A2981 RMK AO2  T10211053 11011 21021,30.02,28.22,2300.0,,,22.73,21.37,WNW,29.16,29.53,,Overcast
KIGQ,01/29/2017 00:15 UTC,29.82,28.4,22.28,79.89,9.22,300.0,,,,,,234.0,,,,10.0,,KIGQ 290015Z AUTO 30008KT 10SM OVC023 M02/M05 A2982 RMK AO2  T10201054,,,2300.0,,,22.91,22.18,WNW,29.17,29.54,,Overcast
KIGQ,01/29/2017 00:35 UTC,29.82,28.4,22.1,79.89,8.05,280.0,17.27,,,,,254.0,,,,10.0,,KIGQ 290035Z AUTO 28007G15KT 10SM OVC025 M02/M05 A2982 RMK AO2  T10201055,,,2500.0,,,22.91,22.85,W,29.17,29.54,,Overcast
KIGQ,01/29/2017 00:55 UTC,29.82,28.4,21.92,74.03,8.05,300.0,,,,,,254.0,,,,10.0,,KIGQ 290055Z AUTO 30007KT 10SM OVC025 M02/M06 A2982 RMK AO2  T10201056,,,2500.0,,,21.08,22.85,WNW,29.17,29.56,,Overcast
KIGQ,01/29/2017 01:15 UTC,29.83,28.4,22.46,79.89,9.22,290.0,,,,,,254.0,,,,10.0,,KIGQ 290115Z AUTO 29008KT 10SM OVC025 M02/M05 A2983 RMK AO2  T10201053,,,2500.0,,,22.91,22.18,WNW,29.18,29.55,,Overcast
KIGQ,01/29/2017 01:35 UTC,29.83,28.4,21.02,74.03,9.22,290.0,,,,,,274.0,,,,10.0,,KIGQ 290135Z AUTO 29008KT 10SM OVC027 M02/M06 A2983 RMK AO2  T10201061,,,2700.0,,,21.08,22.18,WNW,29.18,29.57,,Overcast
KIGQ,01/29/2017 01:55 UTC,29.83,28.22,20.48,74.03,11.5,280.0,16.11,,,,,274.0,,,,10.0,,KIGQ 290155Z AUTO 28010G14KT 10SM OVC027 M02/M06 A2983 RMK AO2  T10211064,,,2700.0,,,20.91,20.84,W,29.18,29.57,,Overcast
KIGQ,01/29/2017 02:15 UTC,29.83,28.04,20.48,74.03,11.5,280.0,,,,,,274.0,,,,10.0,,KIGQ 290215Z AUTO 28010KT 10SM OVC027 M02/M06 A2983 RMK AO2  T10221064,,,2700.0,,,20.73,20.62,W,29.18,29.57,,Overcast
KIGQ,01/29/2017 02:35 UTC,29.83,27.5,20.3,74.03,11.5,290.0,,,,,,274.0,,,,10.0,,KIGQ 290235Z AUTO 29010KT 10SM OVC027 M02/M06 A2983 RMK AO2  T10251065,,,2700.0,,,20.21,19.97,WNW,29.18,29.58,,Overcast
KIGQ,01/29/2017 02:55 UTC,29.83,27.5,20.3,74.03,8.05,290.0,,,,,,274.0,,,,10.0,,KIGQ 290255Z AUTO 29007KT 10SM OVC027 M02/M06 A2983 RMK AO2  T10251065,,,2700.0,,,20.21,21.79,WNW,29.18,29.58,,Overcast
KIGQ,01/29/2017 03:15 UTC,29.83,27.5,20.48,74.03,5.75,300.0,,,,,,254.0,,,,10.0,,KIGQ 290315Z AUTO 30005KT 10SM OVC025 M02/M06 A2983 RMK AO2  T10251064,,,2500.0,,,20.21,,WNW,29.18,29.58,,Overcast
KIGQ,01/29/2017 03:35 UTC,29.83,27.5,20.66,74.03,5.75,320.0,,,,,,254.0,,,,10.0,,KIGQ 290335Z AUTO 32005KT 10SM OVC025 M02/M06 A2983 RMK AO2  T10251063,,,2500.0,,,20.21,,NW,29.18,29.58,,Overcast
KIGQ,01/29/2017 03:55 UTC,29.83,27.5,20.84,74.03,6.91,330.0,,,,,,254.0,,,,10.0,,KIGQ 290355Z AUTO 33006KT 10SM OVC025 M02/M06 A2983 RMK AO2  T10251062,,,2500.0,,,20.21,,NNW,29.18,29.58,,Overcast
KIGQ,01/29/2017 04:15 UTC,29.83,27.5,21.02,74.03,4.61,300.0,,,,,,254.0,,,,10.0,,KIGQ 290415Z AUTO 30004KT 10SM OVC025 M02/M06 A2983 RMK AO2  T10251061,,,2500.0,,,20.21,,WNW,29.18,29.58,,Overcast
KIGQ,01/29/2017 04:35 UTC,29.82,27.5,21.2,74.03,5.75,290.0,,,,,,254.0,,,,10.0,,KIGQ 290435Z AUTO 29005KT 10SM OVC025 M02/M06 A2982 RMK AO2  T10251060,,,2500.0,,,20.21,,WNW,29.17,29.57,,Overcast
KIGQ,01/29/2017 04:55 UTC,29.82,27.5,21.2,74.03,4.61,310.0,,,,,,234.0,,,,10.0,,KIGQ 290455Z AUTO 31004KT 10SM OVC023 M02/M06 A2982 RMK AO2  T10251060,,,2300.0,,,20.21,,NW,29.17,29.57,,Overcast
KIGQ,01/29/2017 05:15 UTC,29.83,27.5,20.84,74.03,6.91,320.0,,,,,,234.0,,,,10.0,,KIGQ 290515Z AUTO 32006KT 10SM OVC023 M02/M06 A2983 RMK AO2  T10251062,,,2300.0,,,20.21,,NW,29.18,29.58,,Overcast
KIGQ,01/29/2017 05:35 UTC,29.82,27.5,20.66,74.03,5.75,320.0,,,,,,234.0,,,,10.0,,KIGQ 290535Z AUTO 32005KT 10SM OVC023 M02/M06 A2982 RMK AO2  T10251063,,,2300.0,,,20.21,,NW,29.17,29.57,,Overcast
KIGQ,01/29/2017 05:55 UTC,29.82,27.32,20.84,79.74,5.75,310.0,,,,,,234.0,,,,10.0,,KIGQ 290555Z AUTO 31005KT 10SM OVC023 M03/M06 A2982 RMK AO2  T10261062 11020 21026 410101037,28.4,27.32,2300.0,30.2,25.34,21.81,,NW,29.17,29.56,,Overcast
KIGQ,01/29/2017 06:15 UTC,29.82,27.32,21.02,79.74,8.05,290.0,,,,,,234.0,,,,10.0,,KIGQ 290615Z AUTO 29007KT 10SM OVC023 M03/M06 A2982 RMK AO2  T10261061,,,2300.0,,,21.81,21.58,WNW,29.17,29.56,,Overcast
KIGQ,01/29/2017 06:35 UTC,29.82,27.14,20.3,79.74,8.05,280.0,,,,,,234.0,,,,10.0,,KIGQ 290635Z AUTO 28007KT 10SM OVC023 M03/M06 A2982 RMK AO2  T10271065,,,2300.0,,,21.64,21.37,W,29.17,29.56,,Overcast
KIGQ,01/29/2017 06:55 UTC,29.81,26.96,20.3,79.74,6.91,290.0,,,,,,254.0,,,,10.0,,KIGQ 290655Z AUTO 29006KT 10SM OVC025 M03/M06 A2981 RMK AO2  T10281065,,,2500.0,,,21.46,,WNW,29.16,29.55,,Overcast
KIGQ,01/29/2017 07:15 UTC,29.81,26.96,20.3,79.74,5.75,290.0,,,,,,254.0,,,,10.0,,KIGQ 290715Z AUTO 29005KT 10SM OVC025 M03/M06 A2981 RMK AO2  T10281065,,,2500.0,,,21.46,,WNW,29.16,29.55,,Overcast
KIGQ,01/29/2017 07:35 UTC,29.82,26.96,19.76,73.84,8.05,280.0,,,,,,254.0,,,,10.0,,KIGQ 290735Z AUTO 28007KT 10SM OVC025 M03/M07 A2982 RMK AO2  T10281068,,,2500.0,,,19.63,21.16,W,29.17,29.58,,Overcast
KIGQ,01/29/2017 07:55 UTC,29.82,26.96,19.58,73.84,8.05,280.0,,,,,,254.0,,,,10.0,,KIGQ 290755Z AUTO 28007KT 10SM OVC025 M03/M07 A2982 RMK AO2  T10281069,,,2500.0,,,19.63,21.16,W,29.17,29.58,,Overcast
KIGQ,01/29/2017 08:15 UTC,29.81,26.96,19.58,73.84,8.05,270.0,,,,,,274.0,,,,10.0,,KIGQ 290815Z AUTO 27007KT 10SM OVC027 M03/M07 A2981 RMK AO2  T10281069,,,2700.0,,,19.63,21.16,W,29.16,29.57,,Overcast
KIGQ,01/29/2017 08:35 UTC,29.81,26.78,19.4,73.84,8.05,320.0,,,,,,274.0,,,,10.0,,KIGQ 290835Z AUTO 32007KT 10SM OVC027 M03/M07 A2981 RMK AO2  T10291070,,,2700.0,,,19.46,20.94,NW,29.16,29.57,,Overcast
KIGQ,01/29/2017 08:55 UTC,29.81,26.6,19.4,73.84,4.61,280.0,,,,,,274.0,,,,10.0,,KIGQ 290855Z AUTO 28004KT 10SM OVC027 M03/M07 A2981 RMK AO2  T10301070,,,2700.0,,,19.28,,W,29.16,29.57,,Overcast
KIGQ,01/29/2017 09:15 UTC,29.81,26.6,20.12,73.84,5.75,280.0,,,,,,254.0,,,,10.0,,KIGQ 290915Z AUTO 28005KT 10SM OVC025 M03/M07 A2981 RMK AO2  T10301066,,,2500.0,,,19.28,,W,29.16,29.57,,Overcast
KIGQ,01/29/2017 09:35 UTC,29.81,26.6,19.4,73.84,6.91,290.0,,,,,,254.0,,,,10.0,,KIGQ 290935Z AUTO 29006KT 10SM OVC025 M03/M07 A2981 RMK AO2  T10301070,,,2500.0,,,19.28,,WNW,29.16,29.57,,Overcast
KIGQ,01/29/2017 09:55 UTC,29.81,26.6,19.4,73.84,8.05,280.0,,,,,,274.0,,,,10.0,,KIGQ 290955Z AUTO 28007KT 10SM OVC027 M03/M07 A2981 RMK AO2  T10301070,,,2700.0,,,19.28,20.73,W,29.16,29.57,,Overcast
KIGQ,01/29/2017 10:15 UTC,29.81,26.6,19.58,73.84,5.75,270.0,,,,,,274.0,,,,10.0,,KIGQ 291015Z AUTO 27005KT 10SM OVC027 M03/M07 A2981 RMK AO2  T10301069,,,2700.0,,,19.28,,W,29.16,29.57,,Overcast
KIGQ,01/29/2017 10:35 UTC,29.81,26.6,19.4,73.84,5.75,280.0,,,,,,274.0,,,,10.0,,KIGQ 291035Z AUTO 28005KT 10SM OVC027 M03/M07 A2981 RMK AO2  T10301070,,,2700.0,,,19.28,,W,29.16,29.57,,Overcast
KIGQ,01/29/2017 10:55 UTC,29.81,26.42,19.76,73.84,4.61,270.0,,,,,,274.0,,,,10.0,,KIGQ 291055Z AUTO 27004KT 10SM OVC027 M03/M07 A2981 RMK AO2  T10311068,,,2700.0,,,19.11,,W,29.16,29.57,,Overcast
KIGQ,01/29/2017 11:15 UTC,29.81,26.42,19.22,73.84,8.05,300.0,,,,,,254.0,,,,10.0,,KIGQ 291115Z AUTO 30007KT 10SM OVC025 M03/M07 A2981 RMK AO2  T10311071,,,2500.0,,,19.11,20.52,WNW,29.16,29.57,,Overcast
KIGQ,01/29/2017 11:35 UTC,29.81,26.42,19.22,73.84,5.75,300.0,,,,,,274.0,,,,10.0,,KIGQ 291135Z AUTO 30005KT 10SM OVC027 M03/M07 A2981 RMK AO2  T10311071,,,2700.0,,,19.11,,WNW,29.16,29.57,,Overcast
KIGQ,01/29/2017 11:55 UTC,29.81,26.42,18.68,73.84,10.36,280.0,,,,,,274.0,,,,10.0,,KIGQ 291155Z AUTO 28009KT 10SM OVC027 M03/M07 A2981 RMK AO2  T10311074 11025 21031,27.5,26.42,2700.0,,,19.11,19.22,W,29.16,29.57,,Overcast
KIGQ,01/29/2017 12:15 UTC,29.81,26.42,18.5,73.84,5.75,310.0,,,,,,274.0,,,,10.0,,KIGQ 291215Z AUTO 31005KT 10SM OVC027 M03/M07 A2981 RMK AO2  T10311075,,,2700.0,,,19.11,,NW,29.16,29.57,,Overcast
KIGQ,01/29/2017 12:35 UTC,29.81,26.42,19.04,73.84,3.44,300.0,,,,,,274.0,,,,10.0,,KIGQ 291235Z AUTO 30003KT 10SM OVC027 M03/M07 A2981 RMK AO2  T10311072,,,2700.0,,,19.11,,WNW,29.16,29.57,,Overcast
KIGQ,01/29/2017 12:55 UTC,29.81,26.42,18.86,73.84,8.05,300.0,,,,,,274.0,,,,10.0,,KIGQ 291255Z AUTO 30007KT 10SM OVC027 M03/M07 A2981 RMK AO2  T10311073,,,2700.0,,,19.11,20.52,WNW,29.16,29.57,,Overcast
KIGQ,01/29/2017 13:15 UTC,29.82,26.24,19.04,73.84,6.91,280.0,,,,,,274.0,,,,10.0,,KIGQ 291315Z AUTO 28006KT 10SM OVC027 M03/M07 A2982 RMK AO2  T10321072,,,2700.0,,,18.93,,W,29.17,29.59,,Overcast
KIGQ,01/29/2017 13:35 UTC,29.83,26.24,18.68,73.84,10.36,270.0,,,,,,274.0,,,,10.0,,KIGQ 291335Z AUTO 27009KT 10SM OVC027 M03/M07 A2983 RMK AO2  T10321074,,,2700.0,,,18.93,19.0,W,29.18,29.6,,Overcast
KIGQ,01/29/2017 13:55 UTC,29.83,26.42,18.68,73.84,6.91,280.0,,,,,,274.0,,,,10.0,,KIGQ 291355Z AUTO 28006KT 10SM OVC027 M03/M07 A2983 RMK AO2  T10311074,,,2700.0,,,19.11,,W,29.18,29.6,,Overcast
KIGQ,01/29/2017 14:15 UTC,29.83,26.42,18.68,73.84,8.05,300.0,,,,,,274.0,,,,10.0,,KIGQ 291415Z AUTO 30007KT 10SM OVC027 M03/M07 A2983 RMK AO2  T10311074,,,2700.0,,,19.11,20.52,WNW,29.18,29.6,,Overcast
KIGQ,01/29/2017 14:35 UTC,29.83,26.42,18.68,73.84,6.91,280.0,,,,,,274.0,,,,10.0,,KIGQ 291435Z AUTO 28006KT 10SM OVC027 M03/M07 A2983 RMK AO2  T10311074,,,2700.0,,,19.11,,W,29.18,29.6,,Overcast
KIGQ,01/29/2017 14:55 UTC,29.83,26.6,18.5,73.84,8.05,290.0,,,,,,294.0,,,,10.0,,KIGQ 291455Z AUTO 29007KT 10SM OVC029 M03/M07 A2983 RMK AO2  T10301075,,,2900.0,,,19.28,20.73,WNW,29.18,29.59,,Overcast
KIGQ,01/29/2017 15:15 UTC,29.84,26.6,18.68,73.84,6.91,270.0,,20.0,,,,314.0,,,,7.0,,KIGQ 291515Z AUTO 27006KT 7SM -SN OVC031 M03/M07 A2984 RMK AO2  T10301074,,,3100.0,,,19.28,,W,29.19,29.6,,Light Snow
KIGQ,01/29/2017 15:35 UTC,29.84,26.78,19.04,73.84,5.75,290.0,,20.0,,,,334.0,,,,10.0,,KIGQ 291535Z AUTO 29005KT 10SM -SN OVC033 M03/M07 A2984 RMK AO2  T10291072,,,3300.0,,,19.46,,WNW,29.19,29.6,,Light Snow
KIGQ,01/29/2017 15:55 UTC,29.85,26.96,19.04,73.84,5.75,290.0,,,,,,334.0,,,,10.0,,KIGQ 291555Z AUTO 29005KT 10SM OVC033 M03/M07 A2985 RMK AO2  T10281072,,,3300.0,,,19.63,,WNW,29.2,29.61,,Overcast
KIGQ,01/29/2017 16:15 UTC,29.85,27.14,19.22,73.84,6.91,280.0,,20.0,,,,354.0,,,,10.0,,KIGQ 291615Z AUTO 28006KT 10SM -SN OVC035 M03/M07 A2985 RMK AO2  T10271071,,,3500.0,,,19.8,,W,29.2,29.61,,Light Snow
KIGQ,01/29/2017 16:35 UTC,29.84,27.32,19.76,73.84,9.22,280.0,,6.0,,,,374.0,,,,5.0,,KIGQ 291635Z AUTO 28008KT 5SM HZ OVC037 M03/M07 A2984 RMK AO2  T10261068,,,3700.0,,,19.98,20.9,W,29.19,29.59,,Haze
KIGQ,01/29/2017 16:55 UTC,29.84,27.5,19.58,68.56,8.05,260.0,,,,,,272.0,374.0,,,10.0,,KIGQ 291655Z AUTO 26007KT 10SM SCT027 OVC037 M02/M07 A2984 RMK AO2  T10251069,,,3700.0,,,18.4,21.79,W,29.19,29.61,,Overcast
KIGQ,01/29/2017 17:15 UTC,29.84,27.5,18.86,68.56,10.36,270.0,,20.0,,,,272.0,374.0,,,10.0,,KIGQ 291715Z AUTO 27009KT 10SM -SN SCT027 OVC037 M02/M07 A2984 RMK AO2 T10251073,,,3700.0,,,18.4,20.51,W,29.19,29.61,,Light Snow
KIGQ,01/29/2017 17:35 UTC,29.83,28.22,18.5,68.56,5.75,300.0,,,,,,394.0,,,,10.0,,KIGQ 291735Z AUTO 30005KT 10SM OVC039 M02/M07 A2983 RMK AO2  T10211075,,,3900.0,,,19.09,,WNW,29.18,29.59,,Overcast
KIGQ,01/29/2017 17:55 UTC,29.83,28.4,18.32,63.45,9.22,300.0,,,,,,332.0,414.0,,,10.0,,KIGQ 291755Z AUTO 30008KT 10SM SCT033 OVC041 M02/M08 A2983 RMK AO2  T10201076 11020 21032,28.4,26.24,4100.0,,,17.44,22.18,WNW,29.18,29.6,,Overcast
KIGQ,01/29/2017 18:15 UTC,29.83,28.22,18.32,63.45,11.5,270.0,,,,,,342.0,414.0,,,10.0,,KIGQ 291815Z AUTO 27010KT 10SM SCT034 OVC041 M02/M08 A2983 RMK AO2  T10211076,,,4100.0,,,17.26,20.84,W,29.18,29.6,,Overcast
KIGQ,01/29/2017 18:35 UTC,29.82,28.04,18.86,68.56,10.36,280.0,,,,,,384.0,,,,10.0,,KIGQ 291835Z AUTO 28009KT 10SM OVC038 M02/M07 A2982 RMK AO2  T10221073,,,3800.0,,,18.91,21.16,W,29.17,29.58,,Overcast
KIGQ,01/29/2017 18:55 UTC,29.82,27.5,19.76,68.56,11.5,280.0,,20.0,,,,292.0,374.0,,,10.0,,KIGQ 291855Z AUTO 28010KT 10SM -SN SCT029 OVC037 M02/M07 A2982 RMK AO2 T10251068,,,3700.0,,,18.4,19.97,W,29.17,29.59,,Light Snow
KIGQ,01/29/2017 19:15 UTC,29.81,28.04,19.76,68.56,6.91,270.0,,,,,,292.0,394.0,,,10.0,,KIGQ 291915Z AUTO 27006KT 10SM SCT029 OVC039 M02/M07 A2981 RMK AO2  T10221068,,,3900.0,,,18.91,,W,29.16,29.57,,Overcast
KIGQ,01/29/2017 19:35 UTC,29.81,28.04,19.94,68.56,6.91,290.0,,20.0,,,,302.0,394.0,,,10.0,,KIGQ 291935Z AUTO 29006KT 10SM -SN SCT030 OVC039 M02/M07 A2981 RMK AO2 T10221067,,,3900.0,,,18.91,,WNW,29.16,29.57,,Light Snow
KIGQ,01/29/2017 19:55 UTC,29.81,28.22,18.68,68.56,8.05,280.0,,,,,,302.0,394.0,,,10.0,,KIGQ 291955Z AUTO 28007KT 10SM SCT030 OVC039 M02/M07 A2981 RMK AO2  T10211074,,,3900.0,,,19.09,22.64,W,29.16,29.57,,Overcast
KIGQ,01/29/2017 20:15 UTC,29.81,27.86,19.22,68.56,11.5,290.0,,20.0,,,,364.0,,,,7.0,,KIGQ 292015Z AUTO 29010KT 7SM -SN OVC036 M02/M07 A2981 RMK AO2  T10231071,,,3600.0,,,18.74,20.4,WNW,29.16,29.57,,Light Snow
KIGQ,01/29/2017 20:35 UTC,29.82,27.68,19.4,68.56,10.36,280.0,17.27,,,,,302.0,364.0,,,10.0,,KIGQ 292035Z AUTO 28009G15KT 10SM SCT030 OVC036 M02/M07 A2982 RMK AO2 T10241070,,,3600.0,,,18.57,20.73,W,29.17,29.58,,Overcast
KIGQ,01/29/2017 20:55 UTC,29.83,27.5,20.66,74.03,10.36,280.0,,20.0,,,,334.0,,,,7.0,,KIGQ 292055Z AUTO 28009KT 7SM -SN OVC033 M02/M06 A2983 RMK AO2  T10251063,,,3300.0,,,20.21,20.51,W,29.18,29.58,,Light Snow
KIGQ,01/29/2017 21:15 UTC,29.83,27.5,20.12,68.56,5.75,290.0,9.22,,,,,302.0,364.0,,,10.0,,KIGQ 292115Z AUTO 29005G08KT 10SM SCT030 OVC036 M02/M07 A2983 RMK AO2 T10251066,,,3600.0,,,18.4,,WNW,29.18,29.6,,Overcast
KIGQ,01/29/2017 21:35 UTC,29.84,26.96,21.02,79.74,9.22,280.0,,20.0,,,,302.0,384.0,,,7.0,,KIGQ 292135Z AUTO 28008KT 7SM -SN SCT030 OVC038 M03/M06 A2984 RMK AO2 T10281061,,,3800.0,,,21.46,20.47,W,29.19,29.58,,Light Snow
KIGQ,01/29/2017 21:55 UTC,29.85,26.6,21.2,79.74,5.75,290.0,16.11,20.0,374.0,,,253.0,313.0,,,4.0,,KIGQ 292155Z AUTO 29005G14KT 4SM -SN BKN025 BKN031 OVC037 M03/M06  A2985 RMK AO2 T10301060,,,2500.0,,,21.11,,WNW,29.2,29.6,,Light Snow
KIGQ,01/29/2017 22:15 UTC,29.85,26.6,21.02,79.74,6.91,290.0,,20.0,324.0,,,232.0,282.0,,,7.0,,KIGQ 292215Z AUTO 29006KT 7SM -SN SCT023 SCT028 OVC032 M03/M06  A2985 RMK AO2 T10301061,,,3200.0,,,21.11,,WNW,29.2,29.6,,Light Snow
KIGQ,01/29/2017 22:35 UTC,29.86,26.6,20.84,79.74,9.22,290.0,,,394.0,,,262.0,343.0,,,10.0,,KIGQ 292235Z AUTO 29008KT 10SM SCT026 BKN034 OVC039 M03/M06  A2986 RMK AO2 T10301062,,,3400.0,,,21.11,20.04,WNW,29.21,29.61,,Overcast
KIGQ,01/29/2017 22:55 UTC,29.87,26.06,20.3,79.74,9.22,300.0,16.11,20.0,,,,262.0,414.0,,,7.0,,KIGQ 292255Z AUTO 30008G14KT 7SM -SN SCT026 OVC041 M03/M06  A2987 RMK AO2 T10331065,,,4100.0,,,20.58,19.4,WNW,29.22,29.62,,Light Snow
KIGQ,01/29/2017 23:15 UTC,29.88,25.7,20.12,73.84,8.05,300.0,17.27,20.0,,,,414.0,,,,3.0,,KIGQ 292315Z AUTO 30007G15KT 3SM -SN OVC041 M03/M07 A2988 RMK AO2  T10351066,,,4100.0,,,18.41,19.68,WNW,29.23,29.66,,Light Snow
KIGQ,01/29/2017 23:35 UTC,29.88,26.06,19.94,73.84,8.05,310.0,,,,,,414.0,,,,10.0,,KIGQ 292335Z AUTO 31007KT 10SM OVC041 M03/M07 A2988 RMK AO2  T10331067,,,4100.0,,,18.76,20.1,NW,29.23,29.65,,Overcast
KIGQ,01/29/2017 23:55 UTC,29.89,24.98,21.38,85.93,12.66,320.0,19.57,20.0,394.0,,,122.0,173.0,,,1.5,,KIGQ 292355Z AUTO 32011G17KT 1 1/2SM -SN SCT012 BKN017 OVC039  M04/M06 A2989 RMK AO2 VIS 1/4V5 T10391059 11020 21039,28.4,24.98,1700.0,,,21.31,16.39,NW,29.24,29.64,,Light Snow
KIGQ,01/30/2017 00:15 UTC,29.9,24.44,21.74,85.93,9.22,300.0,,,494.0,,,122.0,433.0,,,10.0,,KIGQ 300015Z AUTO 30008KT 10SM SCT012 BKN043 OVC049 M04/M06  A2990 RMK AO2 T10421057,,,4300.0,,,20.78,17.48,WNW,29.25,29.66,,Overcast
KIGQ,01/30/2017 00:35 UTC,29.9,24.8,20.12,79.58,9.22,310.0,,,,,,422.0,494.0,,,10.0,,KIGQ 300035Z AUTO 31008KT 10SM SCT042 OVC049 M04/M07 A2990 RMK AO2  T10401066,,,4900.0,,,19.31,17.9,NW,29.25,29.67,,Overcast
KIGQ,01/30/2017 00:55 UTC,29.91,24.8,18.5,79.58,10.36,320.0,,,,,,494.0,,,,10.0,,KIGQ 300055Z AUTO 32009KT 10SM OVC049 M04/M07 A2991 RMK AO2  T10401075,,,4900.0,,,19.31,17.28,NW,29.26,29.68,,Overcast
KIGQ,01/30/2017 01:15 UTC,29.91,24.8,15.8,68.11,10.36,310.0,17.27,,,,,554.0,,,,10.0,,KIGQ 300115Z AUTO 31009G15KT 10SM OVC055 M04/M09 A2991,,,5500.0,,,15.65,17.28,NW,29.26,29.71,,Overcast
KIGQ,01/30/2017 01:35 UTC,29.91,24.98,14.54,62.95,11.5,320.0,,,,,,504.0,,,,10.0,,KIGQ 300135Z AUTO 32010KT 10SM OVC050 M04/M10 A2991 RMK AO2  T10391097,,,5000.0,,,14.0,16.93,NW,29.26,29.72,,Overcast
KIGQ,01/30/2017 01:55 UTC,29.91,24.8,14.36,62.95,11.5,310.0,18.41,,,,,372.0,504.0,,,10.0,,KIGQ 300155Z AUTO 31010G16KT 10SM SCT037 OVC050 M04/M10 A2991 RMK AO2 T10401098,,,5000.0,,,13.83,16.71,NW,29.26,29.73,,Overcast
KIGQ,01/30/2017 02:15 UTC,29.92,24.08,14.9,68.11,10.36,310.0,,,,,,373.0,503.0,,,10.0,,KIGQ 300215Z AUTO 31009KT 10SM BKN037 BKN050 M04/M09 A2992 RMK AO2  T10441095,,,3700.0,,,14.96,16.42,NW,29.27,29.73,,Mostly Cloudy
KIGQ,01/30/2017 02:35 UTC,29.92,23.9,15.26,68.11,11.5,310.0,18.41,,,,,402.0,503.0,,,10.0,,KIGQ 300235Z AUTO 31010G16KT 10SM SCT040 BKN050 M04/M09 A2992 RMK AO2 T10451093,,,5000.0,,,14.79,15.62,NW,29.27,29.73,,Mostly Cloudy
KIGQ,01/30/2017 02:55 UTC,29.92,24.44,14.54,62.95,10.36,320.0,19.57,,,,,504.0,,,,10.0,,KIGQ 300255Z AUTO 32009G17KT 10SM OVC050 M04/M10 A2992 RMK AO2  T10421097,,,5000.0,,,13.49,16.85,NW,29.27,29.74,,Overcast
KIGQ,01/30/2017 03:15 UTC,29.92,23.9,14.0,62.95,10.36,320.0,,,,,,422.0,504.0,,,10.0,,KIGQ 300315Z AUTO 32009KT 10SM SCT042 OVC050 M04/M10 A2992 RMK AO2  T10451100,,,5000.0,,,12.98,16.2,NW,29.27,29.75,,Overcast
KIGQ,01/30/2017 03:35 UTC,29.93,23.9,13.1,62.95,10.36,320.0,,,,,,422.0,484.0,,,10.0,,KIGQ 300335Z AUTO 32009KT 10SM SCT042 OVC048 M04/M10 A2993 RMK AO2  T10451105,,,4800.0,,,12.98,16.2,NW,29.28,29.76,,Overcast
KIGQ,01/30/2017 03:55 UTC,29.94,23.9,14.0,62.95,8.05,310.0,18.41,20.0,,,,423.0,484.0,,,7.0,,KIGQ 300355Z AUTO 31007G16KT 7SM -SN BKN042 OVC048 M04/M10  A2994 RMK AO2 T10451100,,,4200.0,,,12.98,17.56,NW,29.29,29.77,,Light Snow
KIGQ,01/30/2017 04:15 UTC,29.94,23.9,12.02,58.14,11.5,310.0,18.41,,,,,342.0,444.0,,,10.0,,KIGQ 300415Z AUTO 31010G16KT 10SM SCT034 OVC044 M04/M11 A2994 RMK AO2 T10451111,,,4400.0,,,11.16,15.62,NW,29.29,29.78,,Overcast
KIGQ,01/30/2017 04:35 UTC,29.95,23.18,10.76,57.86,12.66,310.0,,,482.0,,,332.0,422.0,,,10.0,,KIGQ 300435Z AUTO 31011KT 10SM SCT033 SCT042 SCT048 M05/M12  A2995 RMK AO2 T10491118,,,,,,10.38,14.2,NW,29.3,29.8,,Partly Cloudy
KIGQ,01/30/2017 04:55 UTC,29.95,23.0,12.02,62.7,9.22,320.0,,,,,,1.0,,,,10.0,,KIGQ 300455Z AUTO 32008KT 10SM CLR M05/M11 A2995 RMK AO2  T10501111,,,,,,12.03,15.77,NW,29.3,29.79,,Clear
KIGQ,01/30/2017 05:15 UTC,29.95,23.18,13.1,67.88,9.22,320.0,,,433.0,,,262.0,352.0,,,10.0,,KIGQ 300515Z AUTO 32008KT 10SM SCT026 SCT035 BKN043 M05/M10  A2995 RMK AO2 T10491105,,,4300.0,,,14.02,15.98,NW,29.3,29.77,,Mostly Cloudy
KIGQ,01/30/2017 05:35 UTC,29.94,23.0,13.28,67.88,8.05,320.0,,,433.0,,,282.0,352.0,,,10.0,,KIGQ 300535Z AUTO 32007KT 10SM SCT028 SCT035 BKN043 M05/M10  A2994 RMK AO2 T10501104,,,4300.0,,,13.85,16.5,NW,29.29,29.76,,Mostly Cloudy
KIGQ,01/30/2017 05:55 UTC,29.94,23.54,12.74,62.7,4.61,340.0,,,,,,414.0,,,,10.0,,KIGQ 300555Z AUTO 34004KT 10SM OVC041 M05/M11 A2994 RMK AO2  T10471107 11038 21052 410201052,25.16,22.64,4100.0,28.4,22.64,12.54,,NNW,29.29,29.77,,Overcast
KIGQ,01/30/2017 06:15 UTC,29.94,23.18,12.02,62.7,10.36,310.0,16.11,,,,,394.0,,,,10.0,,KIGQ 300615Z AUTO 31009G14KT 10SM OVC039 M05/M11 A2994 RMK AO2  T10491111,,,3900.0,,,12.2,15.34,NW,29.29,29.77,,Overcast
KIGQ,01/30/2017 06:35 UTC,29.95,23.0,11.48,62.7,10.36,320.0,,,,,,394.0,,,,10.0,,KIGQ 300635Z AUTO 32009KT 10SM OVC039 M05/M11 A2995 RMK AO2  T10501114,,,3900.0,,,12.03,15.12,NW,29.3,29.79,,Overcast
KIGQ,01/30/2017 06:55 UTC,29.95,22.28,10.76,57.86,9.22,310.0,,,,,,393.0,,,,10.0,,KIGQ 300655Z AUTO 31008KT 10SM BKN039 M05/M12 A2995 RMK AO2  T10541118,,,3900.0,,,9.53,14.91,NW,29.3,29.8,,Mostly Cloudy
KIGQ,01/30/2017 07:15 UTC,29.94,21.2,10.4,62.44,6.91,320.0,,,,,,1.0,,,,10.0,,KIGQ 300715Z AUTO 32006KT 10SM CLR M06/M12 A2994 RMK AO2  T10601120,,,,,,10.23,,NW,29.29,29.79,,Clear
KIGQ,01/30/2017 07:35 UTC,29.95,20.48,10.4,62.44,4.61,330.0,,,,,,1.0,,,,10.0,,KIGQ 300735Z AUTO 33004KT 10SM CLR M06/M12 A2995 RMK AO2  T10641120,,,,,,9.55,,NNW,29.3,29.81,,Clear
KIGQ,01/30/2017 07:55 UTC,29.96,20.3,10.58,62.44,6.91,340.0,,,,,,1.0,,,,10.0,,KIGQ 300755Z AUTO 34006KT 10SM CLR M06/M12 A2996 RMK AO2  T10651119,,,,,,9.38,,NNW,29.31,29.82,,Clear
KIGQ,01/30/2017 08:15 UTC,29.96,20.12,10.22,67.42,3.44,320.0,,,,,,1.0,,,,10.0,,KIGQ 300815Z AUTO 32003KT 10SM CLR M07/M12 A2996 RMK AO2  T10661121,,,,,,10.94,,NW,29.31,29.82,,Clear
KIGQ,01/30/2017 08:35 UTC,29.97,19.94,10.4,67.42,3.44,330.0,,,,,,1.0,,,,10.0,,KIGQ 300835Z AUTO 33003KT 10SM CLR M07/M12 A2997 RMK AO2  T10671120,,,,,,10.77,,NNW,29.32,29.83,,Clear
KIGQ,01/30/2017 08:55 UTC,29.97,19.58,10.4,67.42,3.44,320.0,,,,,,1.0,,,,10.0,,KIGQ 300855Z AUTO 32003KT 10SM CLR M07/M12 A2997 RMK AO2  T10691120,,,,,,10.42,,NW,29.32,29.83,,Clear
KIGQ,01/30/2017 09:15 UTC,29.97,18.86,10.58,67.42,0.0,0.0,,,,,,1.0,,,,10.0,,KIGQ 300915Z AUTO 00000KT 10SM CLR M07/M12 A2997 RMK AO2  T10731119,,,,,,9.73,,N,29.32,29.84,,Clear
KIGQ,01/30/2017 09:35 UTC,29.97,18.5,10.76,67.42,3.44,310.0,,,,,,1.0,,,,10.0,,KIGQ 300935Z AUTO 31003KT 10SM CLR M07/M12 A2997 RMK AO2  T10751118,,,,,,9.39,,NW,29.32,29.84,,Clear
KIGQ,01/30/2017 09:55 UTC,29.98,18.5,10.4,67.42,3.44,300.0,,,,,,1.0,,,,10.0,,KIGQ 300955Z AUTO 30003KT 10SM CLR M07/M12 A2998 RMK AO2  T10751120,,,,,,9.39,,WNW,29.33,29.85,,Clear
KIGQ,01/30/2017 10:15 UTC,29.98,18.32,10.4,72.85,3.44,310.0,,,,,,1.0,,,,10.0,,KIGQ 301015Z AUTO 31003KT 10SM CLR M08/M12 A2998 RMK AO2  T10761120,,,,,,10.97,,NW,29.33,29.84,,Clear
KIGQ,01/30/2017 10:35 UTC,29.98,18.14,10.4,72.85,0.0,0.0,,,,,,1.0,,,,10.0,,KIGQ 301035Z AUTO 00000KT 10SM CLR M08/M12 A2998 RMK AO2  T10771120,,,,,,10.8,,N,29.33,29.85,,Clear
KIGQ,01/30/2017 10:55 UTC,29.98,17.78,10.4,72.85,3.44,290.0,,,,,,1.0,,,,10.0,,KIGQ 301055Z AUTO 29003KT 10SM CLR M08/M12 A2998 RMK AO2  T10791120,,,,,,10.45,,WNW,29.33,29.85,,Clear
KIGQ,01/30/2017 11:15 UTC,29.98,17.6,10.22,72.85,3.44,280.0,,,,,,1.0,,,,10.0,,KIGQ 301115Z AUTO 28003KT 10SM CLR M08/M12 A2998 RMK AO2  T10801121,,,,,,10.28,,W,29.33,29.85,,Clear
KIGQ,01/30/2017 11:35 UTC,29.98,16.34,10.4,78.77,0.0,0.0,,,,,,1.0,,,,10.0,,KIGQ 301135Z AUTO 00000KT 10SM CLR M09/M12 A2998 RMK AO2  T10871120,,,,,,10.83,,N,29.33,29.85,,Clear
KIGQ,01/30/2017 11:55 UTC,29.98,15.8,10.76,78.77,3.44,260.0,,,,,,1.0,,,,10.0,,KIGQ 301155Z AUTO 26003KT 10SM CLR M09/M12 A2998 RMK AO2 T10901118  11047 21090,23.54,15.8,,,,10.3,,W,29.33,29.86,,Clear
KIGQ,01/30/2017 12:15 UTC,29.99,15.62,11.12,78.77,4.61,280.0,,,,,,1.0,,,,10.0,,KIGQ 301215Z AUTO 28004KT 10SM CLR M09/M12 A2999 RMK AO2  T10911116,,,,,,10.13,,W,29.34,29.87,,Clear
KIGQ,01/30/2017 12:35 UTC,29.99,15.62,10.76,78.77,0.0,0.0,,,,,,1.0,,,,10.0,,KIGQ 301235Z AUTO 00000KT 10SM CLR M09/M12 A2999 RMK AO2  T10911118,,,,,,10.13,,N,29.34,29.87,,Clear
KIGQ,01/30/2017 13:00 UTC,29.99,15.8,10.04,78.77,0.0,0.0,,,,,,1.0,,,,10.0,,KIGQ 301300Z AUTO 00000KT 10SM CLR M09/M12 A2999 RMK AO2  T10901122,,,,,,10.3,,N,29.34,29.87,,Clear
KIGQ,01/30/2017 13:15 UTC,30.0,14.9,11.12,78.77,4.61,260.0,,,,,,1.0,,,,10.0,,KIGQ 301315Z AUTO 26004KT 10SM CLR M09/M12 A3000 RMK AO2  T10951116,,,,,,9.43,,W,29.35,29.89,,Clear
KIGQ,01/30/2017 13:35 UTC,30.01,15.62,11.66,85.36,6.91,270.0,,,,,,1.0,,,,10.0,,KIGQ 301335Z AUTO 27006KT 10SM CLR M09/M11 A3001 RMK AO2  T10911113,,,,,,11.96,,W,29.36,29.88,,Clear
KIGQ,01/30/2017 13:55 UTC,30.02,17.6,12.56,78.94,6.91,270.0,,,,,,1.0,,,,10.0,,KIGQ 301355Z AUTO 27006KT 10SM CLR M08/M11 A3002 RMK AO2  T10801108,,,,,,12.11,,W,29.37,29.88,,Clear
KIGQ,01/30/2017 14:15 UTC,30.01,18.68,11.84,73.06,6.91,280.0,,,,,,1.0,,,,10.0,,KIGQ 301415Z AUTO 28006KT 10SM CLR M07/M11 A3001 RMK AO2  T10741112,,,,,,11.38,,W,29.36,29.87,,Clear
KIGQ,01/30/2017 14:35 UTC,30.01,20.12,12.56,73.06,5.75,270.0,,,,,,1.0,,,,10.0,,KIGQ 301435Z AUTO 27005KT 10SM CLR M07/M11 A3001 RMK AO2  T10661108,,,,,,12.77,,W,29.36,29.86,,Clear
KIGQ,01/30/2017 14:55 UTC,30.01,21.02,12.56,67.65,6.91,280.0,,,,,,1.0,,,,10.0,,KIGQ 301455Z AUTO 28006KT 10SM CLR M06/M11 A3001 RMK AO2  T10611108,,,,,,11.88,,W,29.36,29.86,,Clear
KIGQ,01/30/2017 15:15 UTC,30.01,22.46,12.74,62.7,6.91,250.0,,,,,,1.0,,,,10.0,,KIGQ 301515Z AUTO 25006KT 10SM CLR M05/M11 A3001 RMK AO2  T10531107,,,,,,11.52,,WSW,29.36,29.85,,Clear
KIGQ,01/30/2017 15:35 UTC,30.01,23.0,12.38,62.7,6.91,260.0,,,,,,1.0,,,,10.0,,KIGQ 301535Z AUTO 26006KT 10SM CLR M05/M11 A3001 RMK AO2  T10501109,,,,,,12.03,,W,29.36,29.85,,Clear
KIGQ,01/30/2017 15:55 UTC,30.01,23.72,10.76,57.86,8.05,260.0,,,,,,1.0,,,,10.0,,KIGQ 301555Z AUTO 26007KT 10SM CLR M05/M12 A3001 RMK AO2  T10461118,,,,,,10.89,17.35,W,29.36,29.85,,Clear
KIGQ,01/30/2017 16:15 UTC,30.0,24.62,10.94,53.66,6.91,250.0,,,,,,1.0,,,,10.0,,KIGQ 301615Z AUTO 25006KT 10SM CLR M04/M12 A3000 RMK AO2  T10411117,,,,,,10.02,,WSW,29.35,29.84,,Clear
KIGQ,01/30/2017 16:35 UTC,30.01,25.52,10.22,53.66,8.05,260.0,,,,,,1.0,,,,10.0,,KIGQ 301635Z AUTO 26007KT 10SM CLR M04/M12 A3001 RMK AO2  T10361121,,,,,,10.86,19.46,W,29.36,29.84,,Clear
KIGQ,01/30/2017 16:55 UTC,29.99,26.42,11.3,53.94,9.22,270.0,,,,,,1.0,,,,10.0,,KIGQ 301655Z AUTO 27008KT 10SM CLR M03/M11 A2999 RMK AO2  T10311115,,,,,,11.82,19.83,W,29.34,29.81,,Clear
KIGQ,01/30/2017 17:15 UTC,29.98,27.32,12.02,53.94,10.36,240.0,,,,,,1.0,,,,10.0,,KIGQ 301715Z AUTO 24009KT 10SM CLR M03/M11 A2998 RMK AO2  T10261111,,,,,,12.66,20.3,WSW,29.33,29.79,,Clear
KIGQ,01/30/2017 17:35 UTC,29.98,27.68,12.02,50.09,10.36,220.0,,,,,,1.0,,,,10.0,,KIGQ 301735Z AUTO 22009KT 10SM CLR M02/M11 A2998 RMK AO2  T10241111,,,,,,11.31,20.73,SW,29.33,29.8,,Clear
KIGQ,01/30/2017 17:55 UTC,29.96,28.76,13.1,54.23,12.66,230.0,,,,,,1.0,,,,10.0,,KIGQ 301755Z AUTO 23011KT 10SM CLR M02/M10 A2996 RMK AO2 T10181105  11017 21096,28.94,14.72,,,,14.13,20.99,SW,29.31,29.76,,Clear
KIGQ,01/30/2017 18:15 UTC,29.94,29.12,14.72,54.23,11.5,210.0,,,,,,1.0,,,,10.0,,KIGQ 301815Z AUTO 21010KT 10SM CLR M02/M10 A2994 RMK AO2  T10161096,,,,,,14.47,21.92,SSW,29.29,29.73,,Clear
KIGQ,01/30/2017 18:35 UTC,29.93,28.04,14.0,54.23,13.8,230.0,,,,,,1.0,,,,10.0,,KIGQ 301835Z AUTO 23012KT 10SM CLR M02/M10 A2993 RMK AO2  T10221100,,,,,,13.46,19.66,SW,29.28,29.73,,Clear
KIGQ,01/30/2017 18:55 UTC,29.91,29.3,15.44,55.67,11.5,230.0,,,,,,1.0,,,,10.0,,KIGQ 301855Z AUTO 23010KT 10SM CLR M01/M09 A2991 RMK AO2  T10151092,,,,,,15.24,22.14,SW,29.26,29.69,,Clear
KIGQ,01/30/2017 19:15 UTC,29.89,29.84,16.52,54.52,11.5,200.0,19.57,,,,,753.0,903.0,,,10.0,,KIGQ 301915Z AUTO 20010G17KT 10SM BKN075 BKN090 M01/M09 A2989 RMK AO2 T10121086,,,7500.0,,,15.26,22.79,SSW,29.24,29.67,,Mostly Cloudy
KIGQ,01/30/2017 19:35 UTC,29.88,29.3,17.42,58.95,12.66,220.0,18.41,,,,,753.0,904.0,,,10.0,,KIGQ 301935Z AUTO 22011G16KT 10SM BKN075 OVC090 M01/M08 A2988 RMK AO2 T10151081,,,7500.0,,,16.57,21.65,SW,29.23,29.65,,Overcast
KIGQ,01/30/2017 19:55 UTC,29.89,28.76,17.6,62.52,14.97,220.0,,,,,,753.0,904.0,,,10.0,,KIGQ 301955Z AUTO 22013KT 10SM BKN075 OVC090 M02/M08 A2989 RMK AO2  T10181080,,,7500.0,,,17.43,20.1,SW,29.24,29.66,,Overcast
KIGQ,01/30/2017 20:15 UTC,29.89,28.76,17.78,63.01,12.66,220.0,,,,,,654.0,,,,10.0,,KIGQ 302015Z AUTO 22011KT 10SM OVC065 M02/M08 A2989 RMK AO2  T10181079,,,6500.0,,,17.61,20.99,SW,29.24,29.66,,Overcast
KIGQ,01/30/2017 20:35 UTC,29.88,28.94,19.4,68.56,12.66,190.0,,20.0,,,,704.0,,,,10.0,,KIGQ 302035Z AUTO 19011KT 10SM -SN OVC070 M02/M07 A2988 RMK AO2  T10171070,,,7000.0,,,19.78,21.21,S,29.23,29.63,,Light Snow
KIGQ,01/30/2017 20:55 UTC,29.87,30.56,20.84,68.78,12.66,190.0,,20.0,754.0,,,432.0,603.0,,,10.0,,KIGQ 302055Z AUTO 19011KT 10SM -SN SCT043 BKN060 OVC075 M01/M06  A2987 RMK AO2 T10081062,,,6000.0,,,21.41,23.18,S,29.22,29.59,,Light Snow
KIGQ,01/30/2017 21:15 UTC,29.85,30.56,20.12,63.7,14.97,190.0,,,853.0,,,412.0,502.0,,,10.0,,KIGQ 302115Z AUTO 19013KT 10SM SCT041 SCT050 BKN085 M01/M07  A2985 RMK AO2 T10081066,,,8500.0,,,19.58,22.32,S,29.2,29.59,,Mostly Cloudy
KIGQ,01/30/2017 21:35 UTC,29.83,31.1,20.48,63.94,14.97,190.0,23.02,,902.0,,,402.0,482.0,,,10.0,,KIGQ 302135Z AUTO 19013G20KT 10SM SCT040 SCT048 SCT090 00/M06  A2983 RMK AO2 T10051064,,,,,,20.18,22.99,S,29.18,29.56,,Partly Cloudy
KIGQ,01/30/2017 21:55 UTC,29.81,30.2,20.3,68.78,16.11,190.0,24.16,,,,,1.0,,,,10.0,,KIGQ 302155Z AUTO 19014G21KT 10SM CLR M01/M06 A2981 RMK AO2  T10101065,,,,,,21.06,21.49,S,29.16,29.54,,Clear
KIGQ,01/30/2017 22:15 UTC,29.78,30.2,20.66,68.78,17.27,190.0,24.16,,,,,1.0,,,,10.0,,KIGQ 302215Z AUTO 19015G21KT 10SM CLR M01/M06 A2978 RMK AO2  T10101063,,,,,,21.06,21.12,S,29.13,29.51,,Clear
KIGQ,01/30/2017 22:35 UTC,29.77,30.02,21.02,68.78,20.71,190.0,25.32,,1203.0,,,413.0,503.0,,,10.0,,KIGQ 302235Z AUTO 19018G22KT 10SM BKN041 BKN050 BKN120 M01/M06  A2977 RMK AO2 T10111061,,,4100.0,,,20.89,19.91,S,29.12,29.5,,Mostly Cloudy
KIGQ,01/30/2017 22:55 UTC,29.73,30.02,21.2,68.78,20.71,180.0,,,,,,374.0,,,,10.0,,KIGQ 302255Z AUTO 18018KT 10SM OVC037 M01/M06 A2973 RMK AO2  T10111060,,,3700.0,,,20.89,19.91,S,29.08,29.46,,Overcast
KIGQ,01/30/2017 23:15 UTC,29.71,30.2,21.2,68.78,16.11,180.0,26.46,,,,,313.0,374.0,,,10.0,,KIGQ 302315Z AUTO 18014G23KT 10SM BKN031 OVC037 M01/M06 A2971 RMK AO2 T10101060,,,3100.0,,,21.06,21.49,S,29.06,29.43,,Overcast
KIGQ,01/30/2017 23:35 UTC,29.75,30.56,21.38,68.78,14.97,190.0,,,,,,284.0,,,,10.0,,KIGQ 302335Z AUTO 19013KT 10SM OVC028 M01/M06 A2975 RMK AO2  T10081059,,,2800.0,,,21.41,22.32,S,29.1,29.47,,Overcast
KIGQ,01/30/2017 23:55 UTC,29.75,30.92,21.74,68.78,16.11,180.0,,,,,,284.0,,,,10.0,,KIGQ 302355Z AUTO 18014KT 10SM OVC028 M01/M06 A2975 RMK AO2  T10061057 11005 21022,31.1,28.04,2800.0,,,21.75,22.39,S,29.1,29.47,,Overcast
KIGQ,01/31/2017 00:15 UTC,29.75,30.92,22.1,74.22,12.66,180.0,,,,,,284.0,,,,10.0,,KIGQ 310015Z AUTO 18011KT 10SM OVC028 M01/M05 A2975 RMK AO2  T10061055,,,2800.0,,,23.58,23.62,S,29.1,29.45,,Overcast
KIGQ,01/31/2017 00:35 UTC,29.73,31.1,22.46,69.0,12.66,170.0,,,,,,284.0,,,,10.0,,KIGQ 310035Z AUTO 17011KT 10SM OVC028 00/M05 A2973 RMK AO2  T10051053,,,2800.0,,,22.0,23.84,S,29.08,29.44,,Overcast
KIGQ,01/31/2017 00:55 UTC,29.72,31.64,23.0,69.0,13.8,190.0,17.27,,,,,284.0,,,,10.0,,KIGQ 310055Z AUTO 19012G15KT 10SM OVC028 00/M05 A2972 RMK AO2  T10021050,,,2800.0,,,22.52,24.06,S,29.07,29.42,,Overcast
KIGQ,01/31/2017 01:15 UTC,29.7,31.64,23.36,69.0,12.66,180.0,,,,,,284.0,,,,10.0,,KIGQ 310115Z AUTO 18011KT 10SM OVC028 00/M05 A2970 RMK AO2  T10021048,,,2800.0,,,22.52,24.49,S,29.05,29.4,,Overcast
KIGQ,01/31/2017 01:35 UTC,29.68,31.82,23.54,69.0,14.97,170.0,,,554.0,,,282.0,363.0,,,10.0,,KIGQ 310135Z AUTO 17013KT 10SM SCT028 BKN036 OVC055 00/M05  A2968 RMK AO2 T10011047,,,3600.0,,,22.69,23.87,S,29.03,29.38,,Overcast
KIGQ,01/31/2017 01:55 UTC,29.66,32.0,23.9,74.41,14.97,180.0,,,554.0,,,362.0,422.0,,,10.0,,KIGQ 310155Z AUTO 18013KT 10SM SCT036 SCT042 OVC055 00/M04  A2966 RMK AO2 T00001045,,,5500.0,,,24.69,24.1,S,29.02,29.35,,Overcast
KIGQ,01/31/2017 02:15 UTC,29.64,32.0,24.62,74.41,13.8,180.0,21.85,,,,,553.0,654.0,,,10.0,,KIGQ 310215Z AUTO 18012G19KT 10SM BKN055 OVC065 00/M04 A2964 RMK AO2 T00001041,,,5500.0,,,24.69,24.5,S,29.0,29.32,,Overcast
KIGQ,01/31/2017 02:35 UTC,29.62,32.0,25.34,74.41,16.11,180.0,20.71,,,,,493.0,554.0,,,10.0,,KIGQ 310235Z AUTO 18014G18KT 10SM BKN049 OVC055 00/M04 A2962 RMK AO2 T00001037,,,4900.0,,,24.69,23.72,S,28.98,29.3,,Overcast
KIGQ,01/31/2017 02:55 UTC,29.6,32.0,25.88,80.19,16.11,190.0,,,,,,503.0,904.0,,,10.0,,KIGQ 310255Z AUTO 19014KT 10SM BKN050 OVC090 00/M03 A2960 RMK AO2  T00001034,,,5000.0,,,26.51,23.72,S,28.96,29.26,,Overcast
KIGQ,01/31/2017 03:15 UTC,29.58,32.0,27.14,80.19,14.97,200.0,25.32,,,,,482.0,804.0,,,10.0,,KIGQ 310315Z AUTO 20013G22KT 10SM SCT048 OVC080 00/M03 A2958 RMK AO2 T00001027,,,8000.0,,,26.51,24.1,SSW,28.94,29.24,,Overcast
KIGQ,01/31/2017 03:35 UTC,29.56,32.72,28.22,86.37,18.41,190.0,21.85,,,,,502.0,804.0,,,10.0,,KIGQ 310335Z AUTO 19016G19KT 10SM SCT050 OVC080 00/M02 A2956 RMK AO2 T00041021,,,8000.0,,,29.05,23.94,S,28.92,29.18,,Overcast
KIGQ,01/31/2017 03:55 UTC,29.56,33.26,29.12,80.34,11.5,210.0,23.02,,,,,504.0,,,,10.0,,KIGQ 310355Z AUTO 21010G20KT 10SM OVC050 01/M02 A2956 RMK AO2  T00071016,,,5000.0,,,27.79,26.92,SSW,28.92,29.2,,Overcast
KIGQ,01/31/2017 04:15 UTC,29.54,34.16,30.2,86.48,17.27,200.0,25.32,,,,,483.0,604.0,,,10.0,,KIGQ 310415Z AUTO 20015G22KT 10SM BKN048 OVC060 01/M01 A2954 RMK AO2 T00121010,,,4800.0,,,30.5,26.06,SSW,28.9,29.13,,Overcast
KIGQ,01/31/2017 04:35 UTC,29.53,33.98,30.56,86.48,13.8,190.0,19.57,,604.0,,,402.0,462.0,,,10.0,,KIGQ 310435Z AUTO 19012G17KT 10SM SCT040 SCT046 OVC060 01/M01  A2953 RMK AO2 T00111008,,,6000.0,,,30.32,26.93,S,28.89,29.13,,Overcast
KIGQ,01/31/2017 04:55 UTC,29.53,33.98,31.1,93.02,10.36,220.0,,,,,,403.0,704.0,,,10.0,,KIGQ 310455Z AUTO 22009KT 10SM BKN040 OVC070 01/00 A2953 RMK AO2  T00111005,,,4000.0,,,32.15,28.27,SW,28.89,29.1,,Overcast
KIGQ,01/31/2017 05:15 UTC,29.51,36.14,32.0,86.58,13.8,220.0,,,704.0,,,353.0,423.0,,,10.0,,KIGQ 310515Z AUTO 22012KT 10SM BKN035 BKN042 OVC070 02/00  A2951 RMK AO2 T00230000,,,3500.0,,,32.47,29.57,SW,28.87,29.06,,Overcast
KIGQ,01/31/2017 05:35 UTC,29.5,37.58,32.18,80.63,13.8,250.0,,,,,,312.0,384.0,,,10.0,,KIGQ 310535Z AUTO 25012KT 10SM SCT031 OVC038 03/00 A2950 RMK AO2  T00310001,,,3800.0,,,32.09,31.34,WSW,28.86,29.05,,Overcast
KIGQ,01/31/2017 05:55 UTC,29.5,37.94,32.54,80.63,14.97,250.0,23.02,,,,,294.0,,,,10.0,,KIGQ 310555Z AUTO 25013G20KT 10SM OVC029 03/00 A2950 RMK AO2  T00330003 10033 21006 400331096,37.94,30.92,2900.0,37.94,14.72,32.44,31.42,WSW,28.86,29.04,,Overcast
KIGQ,01/31/2017 06:15 UTC,29.5,38.3,32.9,80.78,14.97,260.0,20.71,,,,,274.0,,,,10.0,,KIGQ 310615Z AUTO 26013G18KT 10SM OVC027 04/01 A2950 RMK AO2  T00350005,,,2700.0,,,32.84,31.86,W,28.86,29.03,,Overcast
KIGQ,01/31/2017 06:35 UTC,29.5,39.2,33.26,80.78,19.57,260.0,25.32,,,,,234.0,,,,10.0,,KIGQ 310635Z AUTO 26017G22KT 10SM OVC023 04/01 A2950 RMK AO2  T00400007,,,2300.0,,,33.72,31.78,W,28.86,29.01,,Overcast
KIGQ,01/31/2017 06:55 UTC,29.5,39.38,33.8,80.78,20.71,260.0,27.63,,,,,234.0,,,,10.0,,KIGQ 310655Z AUTO 26018G24KT 10SM OVC023 04/01 A2950 RMK AO2  T00410010,,,2300.0,,,33.9,31.75,W,28.86,29.0,,Overcast
KIGQ,01/31/2017 07:15 UTC,29.51,39.38,33.98,80.78,24.16,270.0,31.07,,,,,214.0,,,,10.0,,KIGQ 310715Z AUTO 27021G27KT 10SM OVC021 04/01 A2951 RMK AO2  T00410011,,,2100.0,,,33.9,31.04,W,28.87,29.01,,Overcast
KIGQ,01/31/2017 07:35 UTC,29.52,39.2,34.16,80.78,20.71,270.0,32.21,17.0,,,,214.0,,,,10.0,,KIGQ 310735Z AUTO 27018G28KT 10SM -DZ OVC021 04/01 A2952 RMK AO2  T00400012,,,2100.0,,,33.72,31.52,W,28.88,29.03,,Light Drizzle
KIGQ,01/31/2017 07:55 UTC,29.52,37.58,34.7,93.13,20.71,270.0,32.21,2.0,,,,214.0,,,,10.0,,KIGQ 310755Z AUTO 27018G28KT 10SM DZ OVC021 03/02 A2952 RMK AO2  T00310015,,,2100.0,,,35.75,29.47,W,28.88,29.0,,Drizzle
KIGQ,01/31/2017 08:15 UTC,29.53,37.58,34.7,93.13,23.02,280.0,31.07,17.0,,,,214.0,,,,10.0,,KIGQ 310815Z AUTO 28020G27KT 10SM -DZ OVC021 03/02 A2953 RMK AO2  T00310015,,,2100.0,,,35.75,28.97,W,28.89,29.01,,Light Drizzle
KIGQ,01/31/2017 08:35 UTC,29.53,38.12,34.7,93.13,18.41,280.0,25.32,,,,,214.0,,,,10.0,,KIGQ 310835Z AUTO 28016G22KT 10SM OVC021 03/02 A2953 RMK AO2  T00340015,,,2100.0,,,36.29,30.7,W,28.89,29.0,,Overcast
KIGQ,01/31/2017 08:55 UTC,29.54,38.3,34.16,80.78,21.85,280.0,29.93,,,,,214.0,,,,10.0,,KIGQ 310855Z AUTO 28019G26KT 10SM OVC021 04/01 A2954 RMK AO2  T00350012,,,2100.0,,,32.84,30.13,W,28.9,29.07,,Overcast
KIGQ,01/31/2017 09:15 UTC,29.54,38.66,33.98,80.78,25.32,280.0,32.21,,,,,214.0,,,,10.0,,KIGQ 310915Z AUTO 28022G28KT 10SM OVC021 04/01 A2954 RMK AO2  T00370011,,,2100.0,,,33.19,29.89,W,28.9,29.06,,Overcast
KIGQ,01/31/2017 09:35 UTC,29.55,38.66,34.16,80.78,14.97,280.0,29.93,,,,,194.0,,,,10.0,,KIGQ 310935Z AUTO 28013G26KT 10SM OVC019 04/01 A2955 RMK AO2  T00370012,,,1900.0,,,33.19,32.3,W,28.91,29.07,,Overcast
KIGQ,01/31/2017 09:55 UTC,29.56,37.58,34.88,93.13,17.27,270.0,24.16,,,,,174.0,,,,10.0,,KIGQ 310955Z AUTO 27015G21KT 10SM OVC017 03/02 A2956 RMK AO2  T00310016,,,1700.0,,,35.75,30.32,W,28.92,29.04,,Overcast
KIGQ,01/31/2017 10:15 UTC,29.56,37.76,34.52,86.68,17.27,280.0,27.63,17.0,,,,174.0,,,,10.0,,KIGQ 311015Z AUTO 28015G24KT 10SM -DZ OVC017 03/01 A2956 RMK AO2  T00320014,,,1700.0,,,34.1,30.55,W,28.92,29.07,,Light Drizzle
KIGQ,01/31/2017 10:35 UTC,29.58,37.76,34.7,93.13,17.27,280.0,27.63,13.0,,,,174.0,,,,10.0,,KIGQ 311035Z AUTO 28015G24KT 10SM -RA OVC017 03/02 A2958 RMK AO2  T00320015,,,1700.0,,,35.93,30.55,W,28.94,29.06,,Light Rain
KIGQ,01/31/2017 10:55 UTC,29.59,37.04,35.06,93.13,17.27,270.0,27.63,17.0,,,,173.0,224.0,,,10.0,,KIGQ 311055Z AUTO 27015G24KT 10SM -DZ BKN017 OVC022 03/02  A2959 RMK AO2 T00280017,,,1700.0,,,35.21,29.65,W,28.95,29.09,,Light Drizzle
KIGQ,01/31/2017 11:15 UTC,29.6,37.04,34.7,93.13,16.11,270.0,24.16,17.0,,,,194.0,,,,10.0,,KIGQ 311115Z AUTO 27014G21KT 10SM -DZ OVC019 03/02 A2960 RMK AO2  T00280015,,,1900.0,,,35.21,29.97,W,28.96,29.1,,Light Drizzle
KIGQ,01/31/2017 11:35 UTC,29.61,37.04,34.88,93.13,19.57,270.0,25.32,,,,,174.0,,,,10.0,,KIGQ 311135Z AUTO 27017G22KT 10SM OVC017 03/02 A2961 RMK AO2  T00280016,,,1700.0,,,35.21,29.06,W,28.97,29.11,,Overcast
KIGQ,01/31/2017 11:55 UTC,29.61,37.04,34.88,93.13,20.71,270.0,28.77,,,,,153.0,224.0,,,10.0,,KIGQ 311155Z AUTO 27018G25KT 10SM BKN015 OVC022 03/02 A2961 RMK AO2 T00280016 10042 20027,39.56,36.86,1500.0,,,35.21,28.79,W,28.97,29.11,,Overcast
KIGQ,01/31/2017 12:15 UTC,29.62,37.04,34.88,93.13,16.11,280.0,26.46,,,,,154.0,,,,10.0,,KIGQ 311215Z AUTO 28014G23KT 10SM OVC015 03/02 A2962 RMK AO2  T00280016,,,1500.0,,,35.21,29.97,W,28.98,29.12,,Overcast
KIGQ,01/31/2017 12:35 UTC,29.63,37.04,34.88,93.13,14.97,270.0,20.71,17.0,,,,174.0,,,,7.0,,KIGQ 311235Z AUTO 27013G18KT 7SM -DZ OVC017 03/02 A2963 RMK AO2  T00280016,,,1700.0,,,35.21,30.31,W,28.99,29.13,,Light Drizzle
KIGQ,01/31/2017 12:55 UTC,29.64,36.86,34.88,93.13,12.66,270.0,,,,,,154.0,,,,10.0,,KIGQ 311255Z AUTO 27011KT 10SM OVC015 03/02 A2964 RMK AO2  T00270016,,,1500.0,,,35.04,30.84,W,29.0,29.14,,Overcast
KIGQ,01/31/2017 13:15 UTC,29.65,36.86,34.7,93.13,13.8,270.0,21.85,,474.0,,,173.0,223.0,,,10.0,,KIGQ 311315Z AUTO 27012G19KT 10SM BKN017 BKN022 OVC047 03/02  A2965 RMK AO2 T00270015,,,1700.0,,,35.04,30.45,W,29.01,29.15,,Overcast
KIGQ,01/31/2017 13:35 UTC,29.66,37.4,34.16,86.68,17.27,270.0,23.02,,474.0,,,223.0,273.0,,,10.0,,KIGQ 311335Z AUTO 27015G20KT 10SM BKN022 BKN027 OVC047 03/01  A2966 RMK AO2 T00300012,,,2200.0,,,33.74,30.1,W,29.02,29.18,,Overcast
KIGQ,01/31/2017 13:55 UTC,29.66,37.58,33.8,86.68,18.41,270.0,23.02,,,,,243.0,384.0,,,10.0,,KIGQ 311355Z AUTO 27016G20KT 10SM BKN024 OVC038 03/01 A2966 RMK AO2 T00310010,,,2400.0,,,33.92,30.03,W,29.02,29.18,,Overcast
KIGQ,01/31/2017 14:15 UTC,29.67,37.94,33.44,86.68,17.27,270.0,25.32,,,,,222.0,434.0,,,10.0,,KIGQ 311415Z AUTO 27015G22KT 10SM SCT022 OVC043 03/01 A2967 RMK AO2 T00330008,,,4300.0,,,34.28,30.77,W,29.02,29.17,,Overcast
KIGQ,01/31/2017 14:35 UTC,29.68,37.76,33.26,86.68,18.41,270.0,,,,,,243.0,454.0,,,10.0,,KIGQ 311435Z AUTO 27016KT 10SM BKN024 OVC045 03/01 A2968 RMK AO2  T00320007,,,2400.0,,,34.1,30.25,W,29.03,29.18,,Overcast
KIGQ,01/31/2017 14:55 UTC,29.68,38.3,33.44,80.78,14.97,270.0,26.46,,474.0,,,243.0,313.0,,,10.0,,KIGQ 311455Z AUTO 27013G23KT 10SM BKN024 BKN031 OVC047 04/01  A2968 RMK AO2 T00350008,,,2400.0,,,32.84,31.86,W,29.03,29.2,,Overcast
KIGQ,01/31/2017 15:15 UTC,29.69,38.3,32.9,80.78,20.71,270.0,26.46,,,,,242.0,454.0,,,10.0,,KIGQ 311515Z AUTO 27018G23KT 10SM SCT024 OVC045 04/01 A2969 RMK AO2 T00350005,,,4500.0,,,32.84,30.38,W,29.04,29.21,,Overcast
KIGQ,01/31/2017 15:35 UTC,29.7,38.48,32.9,80.78,16.11,270.0,20.71,,504.0,,,292.0,423.0,,,10.0,,KIGQ 311535Z AUTO 27014G18KT 10SM SCT029 BKN042 OVC050 04/01  A2970 RMK AO2 T00360005,,,4200.0,,,33.02,31.76,W,29.05,29.22,,Overcast
KIGQ,01/31/2017 15:55 UTC,29.71,38.84,32.36,75.14,21.85,270.0,28.77,,,,,293.0,374.0,,,10.0,,KIGQ 311555Z AUTO 27019G25KT 10SM BKN029 OVC037 04/00 A2971 RMK AO2 T00380002,,,2900.0,,,31.55,30.82,W,29.06,29.25,,Overcast
KIGQ,01/31/2017 16:15 UTC,29.72,38.66,32.0,75.14,18.41,280.0,26.46,,,,,294.0,,,,10.0,,KIGQ 311615Z AUTO 28016G23KT 10SM OVC029 04/00 A2972 RMK AO2  T00370000,,,2900.0,,,31.37,31.38,W,29.07,29.26,,Overcast
KIGQ,01/31/2017 16:35 UTC,29.73,38.84,32.0,75.14,19.57,270.0,27.63,,,,,274.0,,,,10.0,,KIGQ 311635Z AUTO 27017G24KT 10SM OVC027 04/00 A2973 RMK AO2  T00380000,,,2700.0,,,31.55,31.33,W,29.08,29.27,,Overcast
KIGQ,01/31/2017 16:55 UTC,29.73,38.84,32.0,75.14,20.71,270.0,27.63,,,,,274.0,,,,10.0,,KIGQ 311655Z AUTO 27018G24KT 10SM OVC027 04/00 A2973 RMK AO2  T00380000,,,2700.0,,,31.55,31.07,W,29.08,29.27,,Overcast
KIGQ,01/31/2017 17:15 UTC,29.74,39.2,32.36,75.14,19.57,270.0,28.77,,,,,274.0,,,,10.0,,KIGQ 311715Z AUTO 27017G25KT 10SM OVC027 04/00 A2974 RMK AO2  T00400002,,,2700.0,,,31.9,31.78,W,29.09,29.27,,Overcast
KIGQ,01/31/2017 17:35 UTC,29.73,39.92,32.72,75.14,21.85,270.0,28.77,,,,,274.0,,,,10.0,,KIGQ 311735Z AUTO 27019G25KT 10SM OVC027 04/00 A2973 RMK AO2  T00440004,,,2700.0,,,32.59,32.19,W,29.08,29.25,,Overcast
KIGQ,01/31/2017 17:55 UTC,29.74,39.56,32.18,75.14,20.71,280.0,32.21,,,,,274.0,,,,10.0,,KIGQ 311755Z AUTO 28018G28KT 10SM OVC027 04/00 A2974 RMK AO2  T00420001 10046 20026,40.28,36.68,2700.0,,,32.25,31.98,W,29.09,29.26,,Overcast
KIGQ,01/31/2017 18:15 UTC,29.75,39.56,32.36,75.14,19.57,270.0,31.07,,,,,274.0,,,,10.0,,KIGQ 311815Z AUTO 27017G27KT 10SM OVC027 04/00 A2975 RMK AO2  T00420002,,,2700.0,,,32.25,32.23,W,29.1,29.27,,Overcast
KIGQ,01/31/2017 18:35 UTC,29.75,39.2,32.36,75.14,17.27,270.0,26.46,,,,,274.0,,,,10.0,,KIGQ 311835Z AUTO 27015G23KT 10SM OVC027 04/00 A2975 RMK AO2  T00400002,,,2700.0,,,31.9,32.34,W,29.1,29.28,,Overcast
KIGQ,01/31/2017 18:55 UTC,29.75,39.74,32.0,75.14,18.41,280.0,29.93,,,,,293.0,394.0,,,10.0,,KIGQ 311855Z AUTO 28016G26KT 10SM BKN029 OVC039 04/00 A2975 RMK AO2 T00430000,,,2900.0,,,32.42,32.73,W,29.1,29.27,,Overcast
KIGQ,01/31/2017 19:15 UTC,29.76,39.92,31.82,75.14,21.85,280.0,32.21,,,,,314.0,,,,10.0,,KIGQ 311915Z AUTO 28019G28KT 10SM OVC031 04/00 A2976 RMK AO2  T00441001,,,3100.0,,,32.59,32.19,W,29.11,29.28,,Overcast
KIGQ,01/31/2017 19:35 UTC,29.76,40.28,32.0,70.06,23.02,280.0,27.63,,424.0,,,313.0,363.0,,,10.0,,KIGQ 311935Z AUTO 28020G24KT 10SM BKN031 BKN036 OVC042 05/00  A2976 RMK AO2 T00460000,,,3100.0,,,31.19,32.41,W,29.11,29.3,,Overcast
KIGQ,01/31/2017 19:55 UTC,29.77,40.1,32.18,70.06,19.57,280.0,23.02,,,,,293.0,394.0,,,10.0,,KIGQ 311955Z AUTO 28017G20KT 10SM BKN029 OVC039 05/00 A2977 RMK AO2 T00450001,,,2900.0,,,31.01,32.91,W,29.12,29.31,,Overcast
KIGQ,01/31/2017 20:15 UTC,29.78,40.1,32.0,70.06,18.41,280.0,25.32,,,,,293.0,374.0,,,10.0,,KIGQ 312015Z AUTO 28016G22KT 10SM BKN029 OVC037 05/00 A2978 RMK AO2 T00450000,,,2900.0,,,31.01,33.18,W,29.13,29.32,,Overcast
KIGQ,01/31/2017 20:35 UTC,29.79,40.64,31.64,70.06,18.41,290.0,25.32,,,,,332.0,394.0,,,10.0,,KIGQ 312035Z AUTO 29016G22KT 10SM SCT033 OVC039 05/00 A2979 RMK AO2 T00481002,,,3900.0,,,31.53,33.86,WNW,29.14,29.32,,Overcast
KIGQ,01/31/2017 20:55 UTC,29.8,40.46,31.1,70.06,19.57,280.0,28.77,,,,,343.0,434.0,,,10.0,,KIGQ 312055Z AUTO 28017G25KT 10SM BKN034 OVC043 05/00 A2980 RMK AO2 T00471005,,,3400.0,,,31.36,33.37,W,29.15,29.33,,Overcast
KIGQ,01/31/2017 21:15 UTC,29.81,40.28,29.84,65.13,16.11,280.0,25.32,,,,,362.0,444.0,,,10.0,,KIGQ 312115Z AUTO 28014G22KT 250V310 10SM SCT036 OVC044 05/M01  A2981 RMK AO2 T00461012,,,4400.0,,,29.37,33.99,W,29.16,29.38,,Overcast
KIGQ,01/31/2017 21:35 UTC,29.82,40.1,29.84,65.13,17.27,280.0,23.02,,,,,372.0,464.0,,,10.0,,KIGQ 312135Z AUTO 28015G20KT 10SM SCT037 OVC046 05/M01 A2982 RMK AO2 T00451012,,,4600.0,,,29.2,33.46,W,29.17,29.39,,Overcast
KIGQ,01/31/2017 21:55 UTC,29.84,40.1,29.84,65.13,11.5,270.0,20.71,,,,,484.0,,,,10.0,,KIGQ 312155Z AUTO 27010G18KT 10SM OVC048 05/M01 A2984 RMK AO2  T00451012,,,4800.0,,,29.2,35.18,W,29.19,29.41,,Overcast
KIGQ,01/31/2017 22:15 UTC,29.85,39.2,31.46,75.14,12.66,260.0,18.41,,,,,403.0,484.0,,,10.0,,KIGQ 312215Z AUTO 26011G16KT 10SM BKN040 OVC048 04/00 A2985 RMK AO2 T00401003,,,4000.0,,,31.9,33.69,W,29.2,29.38,,Overcast
KIGQ,01/31/2017 22:35 UTC,29.85,39.2,31.46,75.14,13.8,270.0,21.85,,,,,403.0,464.0,,,10.0,,KIGQ 312235Z AUTO 27012G19KT 10SM BKN040 OVC046 04/00 A2985 RMK AO2 T00401003,,,4000.0,,,31.9,33.32,W,29.2,29.38,,Overcast
KIGQ,01/31/2017 22:55 UTC,29.86,38.84,31.1,75.14,16.11,270.0,20.71,,,,,384.0,,,,10.0,,KIGQ 312255Z AUTO 27014G18KT 10SM OVC038 04/00 A2986 RMK AO2  T00381005,,,3800.0,,,31.55,32.2,W,29.21,29.4,,Overcast
KIGQ,01/31/2017 23:15 UTC,29.87,38.12,30.74,74.96,11.5,270.0,,,,,,343.0,443.0,,,10.0,,KIGQ 312315Z AUTO 27010KT 10SM BKN034 BKN044 03/M01 A2987 RMK AO2  T00341007,,,3400.0,,,30.79,32.79,W,29.22,29.43,,Mostly Cloudy
KIGQ,01/31/2017 23:35 UTC,29.87,37.4,30.02,74.96,12.66,270.0,16.11,,,,,342.0,442.0,,,10.0,,KIGQ 312335Z AUTO 27011G14KT 10SM SCT034 SCT044 03/M01 A2987 RMK AO2 T00301011,,,,,,30.09,31.5,W,29.22,29.45,,Partly Cloudy
KIGQ,01/31/2017 23:55 UTC,29.88,35.78,29.48,80.49,9.22,260.0,,,,,,1.0,,,,10.0,,KIGQ 312355Z AUTO 26008KT 10SM CLR 02/M01 A2988 RMK AO2 T00211014  10049 20021,40.82,35.78,,,,30.29,30.93,W,29.23,29.46,,Clear
