# STATION: KIGQ
# STATION NAME: Lansing Municipal Airport
# LATITUDE: 41.54125
# LONGITUDE: -87.52822
# ELEVATION [ft]: 607
# STATE: IL
Station_ID,Date_Time,altimeter_set_1,air_temp_set_1,dew_point_temperature_set_1,relative_humidity_set_1,wind_speed_set_1,wind_direction_set_1,wind_gust_set_1,weather_cond_code_set_1,cloud_layer_3_code_set_1,precip_accum_one_hour_set_1,precip_accum_three_hour_set_1,cloud_layer_1_code_set_1,cloud_layer_2_code_set_1,precip_accum_six_hour_set_1,precip_accum_24_hour_set_1,visibility_set_1,metar_remark_set_1,metar_set_1,air_temp_high_6_hour_set_1,air_temp_low_6_hour_set_1,ceiling_set_1,air_temp_high_24_hour_set_1,air_temp_low_24_hour_set_1,dew_point_temperature_set_1d,wind_chill_set_1d,wind_cardinal_direction_set_1d,pressure_set_1d,sea_level_pressure_set_1d,heat_index_set_1d,weather_condition_set_1d
,,INHG,Fahrenheit,Fahrenheit,%,Miles/hour,Degrees,Miles/hour,code,code,Inches,Inches,code,code,Inches,Inches,Statute miles,text,text,Fahrenheit,Fahrenheit,Feet,Fahrenheit,Fahrenheit,Fahrenheit,Fahrenheit,Code,INHG,INHG,Fahrenheit,Code
KIGQ,04/01/2017 00:15 UTC,29.96,38.48,34.34,80.78,8.05,360.0,,,,,,272.0,444.0,,,10.0,,KIGQ 010015Z AUTO 36007KT 10SM SCT027 OVC044 04/01 A2996 RMK AO2  T00360013,,,4400.0,,,33.02,34.69,N,29.31,29.48,,Overcast
KIGQ,04/01/2017 00:35 UTC,29.97,38.3,34.34,80.78,10.36,360.0,16.11,,444.0,,,252.0,302.0,,,10.0,,KIGQ 010035Z AUTO 36009G14KT 10SM SCT025 SCT030 OVC044 04/01  A2997 RMK AO2 T00350013,,,4400.0,,,32.84,33.44,N,29.32,29.5,,Overcast
KIGQ,04/01/2017 00:55 UTC,29.98,38.3,34.7,86.79,9.22,10.0,,,,,,272.0,444.0,,,10.0,,KIGQ 010055Z AUTO 01008KT 10SM SCT027 OVC044 04/02 A2998 RMK AO2  T00350015,,,4400.0,,,34.66,33.93,N,29.33,29.48,,Overcast
KIGQ,04/01/2017 01:15 UTC,29.99,38.3,34.88,86.79,8.05,360.0,,,444.0,,,213.0,273.0,,,10.0,,KIGQ 010115Z AUTO 36007KT 10SM BKN021 BKN027 OVC044 04/02  A2999 RMK AO2 T00350016,,,2100.0,,,34.66,34.48,N,29.34,29.49,,Overcast
KIGQ,04/01/2017 01:35 UTC,30.0,38.3,34.7,86.79,9.22,350.0,,,,,,214.0,,,,10.0,,KIGQ 010135Z AUTO 35008KT 10SM OVC021 04/02 A3000 RMK AO2  T00350015,,,2100.0,,,34.66,33.93,N,29.35,29.5,,Overcast
KIGQ,04/01/2017 01:55 UTC,30.0,38.3,34.88,86.79,6.91,360.0,,,,,,214.0,,,,10.0,,KIGQ 010155Z AUTO 36006KT 10SM OVC021 04/02 A3000 RMK AO2  T00350016,,,2100.0,,,34.66,,N,29.35,29.5,,Overcast
KIGQ,04/01/2017 02:15 UTC,30.01,38.3,35.06,86.79,8.05,10.0,,,,,,214.0,,,,10.0,,KIGQ 010215Z AUTO 01007KT 10SM OVC021 04/02 A3001 RMK AO2  T00350017,,,2100.0,,,34.66,34.48,N,29.36,29.51,,Overcast
KIGQ,04/01/2017 02:35 UTC,30.01,38.3,35.24,86.79,3.44,360.0,,,,,,213.0,434.0,,,10.0,,KIGQ 010235Z AUTO 36003KT 10SM BKN021 OVC043 04/02 A3001 RMK AO2  T00350018,,,2100.0,,,34.66,,N,29.36,29.51,,Overcast
KIGQ,04/01/2017 02:55 UTC,30.02,38.3,35.42,86.79,8.05,10.0,,,434.0,,,132.0,213.0,,,10.0,,KIGQ 010255Z AUTO 01007KT 340V040 10SM SCT013 BKN021 OVC043 04/02  A3002 RMK AO2 T00350019,,,2100.0,,,34.66,34.48,N,29.37,29.52,,Overcast
KIGQ,04/01/2017 03:15 UTC,30.03,38.3,35.6,86.79,9.22,350.0,,,,,,214.0,,,,10.0,,KIGQ 010315Z AUTO 35008KT 10SM OVC021 04/02 A3003 RMK AO2  T00350020,,,2100.0,,,34.66,33.93,N,29.38,29.53,,Overcast
KIGQ,04/01/2017 03:35 UTC,30.04,38.48,35.6,86.79,6.91,360.0,,,,,,233.0,374.0,,,10.0,,KIGQ 010335Z AUTO 36006KT 10SM BKN023 OVC037 04/02 A3004 RMK AO2  T00360020,,,2300.0,,,34.84,,N,29.39,29.53,,Overcast
KIGQ,04/01/2017 03:55 UTC,30.04,38.48,35.78,86.79,5.75,360.0,,,,,,233.0,374.0,,,10.0,,KIGQ 010355Z AUTO 36005KT 10SM BKN023 OVC037 04/02 A3004 RMK AO2  T00360021,,,2300.0,,,34.84,,N,29.39,29.53,,Overcast
KIGQ,04/01/2017 04:15 UTC,30.04,38.66,35.78,86.79,6.91,10.0,,,,,,254.0,,,,10.0,,KIGQ 010415Z AUTO 01006KT 10SM OVC025 04/02 A3004 RMK AO2  T00370021,,,2500.0,,,35.02,,N,29.39,29.53,,Overcast
KIGQ,04/01/2017 04:35 UTC,30.04,38.66,35.78,86.79,8.05,20.0,,,,,,254.0,,,,10.0,,KIGQ 010435Z AUTO 02007KT 10SM OVC025 04/02 A3004 RMK AO2  T00370021,,,2500.0,,,35.02,34.9,NNE,29.39,29.53,,Overcast
KIGQ,04/01/2017 04:55 UTC,30.05,38.66,35.96,86.79,10.36,10.0,,,,,,254.0,,,,10.0,,KIGQ 010455Z AUTO 01009KT 10SM OVC025 04/02 A3005 RMK AO2  T00370022,,,2500.0,,,35.02,33.87,N,29.4,29.54,,Overcast
KIGQ,04/01/2017 05:15 UTC,30.04,37.76,35.6,93.13,5.75,20.0,,,,,,253.0,454.0,,,10.0,,KIGQ 010515Z AUTO 02005KT 10SM BKN025 OVC045 03/02 A3004 RMK AO2  T00320020,,,2500.0,,,35.93,,NNE,29.39,29.52,,Overcast
KIGQ,04/01/2017 05:35 UTC,30.06,38.3,36.14,86.79,4.61,350.0,,,,,,234.0,,,,10.0,,KIGQ 010535Z AUTO 35004KT 10SM OVC023 04/02 A3006 RMK AO2  T00350023,,,2300.0,,,34.66,,N,29.41,29.56,,Overcast
KIGQ,04/01/2017 05:55 UTC,30.07,38.3,36.14,86.79,4.61,340.0,,,,,,234.0,,,,10.0,,KIGQ 010555Z AUTO 34004KT 10SM OVC023 04/02 A3007 RMK AO2  T00350023 10037 20032 400480025,38.66,37.76,2300.0,40.64,36.5,34.66,,NNW,29.42,29.57,,Overcast
KIGQ,04/01/2017 06:15 UTC,30.08,38.48,36.5,93.19,3.44,360.0,,,,,,234.0,,,,10.0,,KIGQ 010615Z AUTO 36003KT 10SM OVC023 04/03 A3008 RMK AO2  T00360025,,,2300.0,,,36.66,,N,29.43,29.54,,Overcast
KIGQ,04/01/2017 06:35 UTC,30.09,38.48,36.14,86.79,4.61,330.0,,,454.0,,,232.0,282.0,,,10.0,,KIGQ 010635Z AUTO 33004KT 10SM SCT023 SCT028 OVC045 04/02  A3009 RMK AO2 T00360023,,,4500.0,,,34.84,,NNW,29.44,29.58,,Overcast
KIGQ,04/01/2017 06:55 UTC,30.09,38.3,36.14,86.79,3.44,360.0,,,,,,252.0,474.0,,,10.0,,KIGQ 010655Z AUTO 36003KT 10SM SCT025 OVC047 04/02 A3009 RMK AO2  T00350023,,,4700.0,,,34.66,,N,29.44,29.59,,Overcast
KIGQ,04/01/2017 07:15 UTC,30.08,37.58,35.78,93.13,0.0,0.0,,,,,,472.0,,,,10.0,,KIGQ 010715Z AUTO 00000KT 10SM SCT047 03/02 A3008 RMK AO2  T00310021,,,,,,35.75,,N,29.43,29.56,,Partly Cloudy
KIGQ,04/01/2017 07:35 UTC,30.09,37.22,35.42,93.13,0.0,0.0,,,,,,1.0,,,,10.0,,KIGQ 010735Z AUTO 00000KT 10SM CLR 03/02 A3009 RMK AO2  T00290019,,,,,,35.39,,N,29.44,29.58,,Clear
KIGQ,04/01/2017 07:55 UTC,30.09,37.4,35.42,93.13,3.44,350.0,,,,,,1.0,,,,10.0,,KIGQ 010755Z AUTO 35003KT 10SM CLR 03/02 A3009 RMK AO2  T00300019,,,,,,35.57,,N,29.44,29.58,,Clear
KIGQ,04/01/2017 08:15 UTC,30.1,36.5,34.88,93.13,3.44,330.0,,,,,,1.0,,,,10.0,,KIGQ 010815Z AUTO 33003KT 10SM CLR 03/02 A3010 RMK AO2  T00250016,,,,,,34.68,,NNW,29.45,29.61,,Clear
KIGQ,04/01/2017 08:35 UTC,30.12,36.5,34.88,93.13,3.44,330.0,,,,,,1.0,,,,10.0,,KIGQ 010835Z AUTO 33003KT 10SM CLR 03/02 A3012 RMK AO2  T00250016,,,,,,34.68,,NNW,29.47,29.63,,Clear
KIGQ,04/01/2017 08:55 UTC,30.13,35.96,34.7,100.0,3.44,320.0,,,,,,1.0,,,,10.0,,KIGQ 010855Z AUTO 32003KT 10SM CLR 02/02 A3013 RMK AO2  T00220015,,,,,,35.96,,NW,29.47,29.61,,Clear
KIGQ,04/01/2017 09:15 UTC,30.13,34.7,33.98,93.08,3.44,310.0,,,,,,1.0,,,,10.0,,KIGQ 010915Z AUTO 31003KT 10SM CLR 02/01 A3013 RMK AO2  T00150011,,,,,,32.88,,NW,29.47,29.68,,Clear
KIGQ,04/01/2017 09:35 UTC,30.14,33.98,33.62,100.0,3.44,310.0,,,,,,1.0,,,,10.0,,KIGQ 010935Z AUTO 31003KT 10SM CLR 01/01 A3014 RMK AO2  T00110009,,,,,,33.98,,NW,29.48,29.67,,Clear
KIGQ,04/01/2017 09:55 UTC,30.14,34.7,33.98,93.08,0.0,0.0,,,,,,1.0,,,,10.0,,KIGQ 010955Z AUTO 00000KT 10SM CLR 02/01 A3014 RMK AO2  T00150011,,,,,,32.88,,N,29.48,29.69,,Clear
KIGQ,04/01/2017 10:15 UTC,30.14,34.52,33.98,100.0,0.0,0.0,,,,,,1.0,,,,10.0,,KIGQ 011015Z AUTO 00000KT 10SM CLR 01/01 A3014 RMK AO2  T00140011,,,,,,34.52,,N,29.48,29.66,,Clear
KIGQ,04/01/2017 10:35 UTC,30.14,33.8,33.44,100.0,3.44,350.0,,,,,,1.0,,,,10.0,,KIGQ 011035Z AUTO 35003KT 10SM CLR 01/01 A3014 RMK AO2  T00100008,,,,,,33.8,,N,29.48,29.68,,Clear
KIGQ,04/01/2017 10:55 UTC,30.14,32.72,32.54,100.0,3.44,320.0,,,,,,1.0,,,,10.0,,KIGQ 011055Z AUTO 32003KT 10SM CLR 00/00 A3014 RMK AO2  T00040003,,,,,,32.72,,NW,29.48,29.7,,Clear
KIGQ,04/01/2017 11:15 UTC,30.14,32.9,32.9,100.0,3.44,340.0,,,,,,1.0,,,,10.0,,KIGQ 011115Z AUTO 34003KT 10SM CLR 01/01 A3014 RMK AO2  T00050005,,,,,,32.9,,NNW,29.48,29.7,,Clear
KIGQ,04/01/2017 11:35 UTC,30.15,33.08,33.08,100.0,3.44,310.0,,,,,,1.0,,,,7.0,,KIGQ 011135Z AUTO 31003KT 7SM CLR 01/01 A3015 RMK AO2  T00060006,,,,,,33.08,,NW,29.49,29.7,,Clear
KIGQ,04/01/2017 11:55 UTC,30.18,33.08,32.9,100.0,4.61,290.0,,,,,,1.0,,,,7.0,,KIGQ 011155Z AUTO 29004KT 7SM CLR 01/01 A3018 RMK AO2 T00060005  10036 20002,38.48,32.36,,,,33.08,,WNW,29.52,29.73,,Clear
KIGQ,04/01/2017 12:15 UTC,30.19,33.26,32.9,100.0,3.44,310.0,,,,,,1.0,,,,10.0,,KIGQ 011215Z AUTO 31003KT 10SM CLR 01/01 A3019 RMK AO2  T00070005,,,,,,33.26,,NW,29.53,29.74,,Clear
KIGQ,04/01/2017 12:35 UTC,30.19,34.16,33.26,100.0,3.44,340.0,,,,,,1.0,,,,10.0,,KIGQ 011235Z AUTO 34003KT 10SM CLR 01/01 A3019 RMK AO2  T00120007,,,,,,34.16,,NNW,29.53,29.72,,Clear
KIGQ,04/01/2017 12:55 UTC,30.2,36.68,34.16,86.68,4.61,340.0,,,,,,1.0,,,,10.0,,KIGQ 011255Z AUTO 34004KT 10SM CLR 03/01 A3020 RMK AO2  T00260012,,,,,,33.04,,NNW,29.54,29.73,,Clear
KIGQ,04/01/2017 13:15 UTC,30.21,38.48,34.34,80.78,4.61,330.0,,,,,,1.0,,,,10.0,,KIGQ 011315Z AUTO 33004KT 10SM CLR 04/01 A3021 RMK AO2  T00360013,,,,,,33.02,,NNW,29.55,29.73,,Clear
KIGQ,04/01/2017 13:35 UTC,30.21,40.28,34.7,80.92,4.61,360.0,,,,,,1.0,,,,10.0,,KIGQ 011335Z AUTO 36004KT 10SM CLR 05/02 A3021 RMK AO2  T00460015,,,,,,34.82,,N,29.55,29.68,,Clear
KIGQ,04/01/2017 13:55 UTC,30.21,41.72,34.52,75.32,3.44,360.0,,,,,,1.0,,,,10.0,,KIGQ 011355Z AUTO 36003KT 10SM CLR 05/01 A3021 RMK AO2  T00540014,,,,,,34.4,,N,29.55,29.68,,Clear
KIGQ,04/01/2017 14:15 UTC,30.22,42.98,35.24,75.5,4.61,30.0,,,,,,1.0,,,,10.0,,KIGQ 011415Z AUTO 03004KT 10SM CLR 06/02 A3022 RMK AO2  T00610018,,,,,,35.68,,NNE,29.56,29.66,,Clear
KIGQ,04/01/2017 14:35 UTC,30.23,44.06,35.06,70.47,4.61,20.0,,,,,,1.0,,,,10.0,,KIGQ 011435Z AUTO 02004KT 10SM CLR 07/02 A3023 RMK AO2  T00670017,,,,,,34.97,,NNE,29.57,29.67,,Clear
KIGQ,04/01/2017 14:55 UTC,30.24,45.68,34.7,65.82,3.44,20.0,,,,,,1.0,,,,10.0,,KIGQ 011455Z AUTO 02003KT 10SM CLR 08/02 A3024 RMK AO2  T00760015,,,,,,34.78,,NNE,29.58,29.68,,Clear
KIGQ,04/01/2017 15:15 UTC,30.24,46.94,33.98,61.27,3.44,360.0,,,,,,1.0,,,,10.0,,KIGQ 011515Z AUTO 36003KT 10SM CLR 08/01 A3024 RMK AO2  T00830011,,,,,,34.17,,N,29.58,29.68,,Clear
KIGQ,04/01/2017 15:35 UTC,30.24,47.84,32.0,53.26,4.61,360.0,,,,,,1.0,,,,10.0,,KIGQ 011535Z AUTO 36004KT 10SM CLR 09/00 A3024 RMK AO2  T00880000,,,,,,31.49,,N,29.58,29.72,,Clear
KIGQ,04/01/2017 15:55 UTC,30.24,48.92,32.0,53.26,5.75,320.0,,,,,,1.0,,,,10.0,,KIGQ 011555Z AUTO 32005KT 10SM CLR 09/00 A3024 RMK AO2  T00940000,,,,,,32.5,,NW,29.58,29.7,,Clear
KIGQ,04/01/2017 16:15 UTC,30.24,50.18,32.9,53.53,4.61,320.0,,,,,,1.0,,,,10.0,,KIGQ 011615Z AUTO 32004KT 10SM CLR 10/01 A3024 RMK AO2  T01010005,,,,,,33.8,,NW,29.58,29.66,,Clear
KIGQ,04/01/2017 16:35 UTC,30.24,50.72,31.46,49.8,4.61,350.0,,,,,,1.0,,,,10.0,,KIGQ 011635Z AUTO 35004KT 10SM CLR 10/00 A3024 RMK AO2  T01041003,,,,,,32.49,,N,29.58,29.69,,Clear
KIGQ,04/01/2017 16:55 UTC,30.24,51.62,30.38,43.31,6.91,360.0,,,,,,1.0,,,,10.0,,KIGQ 011655Z AUTO 36006KT 10SM CLR 11/M01 A3024 RMK AO2  T01091009,,,,,,29.84,,N,29.58,29.73,,Clear
KIGQ,04/01/2017 17:15 UTC,30.23,53.24,33.44,46.88,3.44,360.0,,,,,,1.0,,,,10.0,,KIGQ 011715Z AUTO 36003KT 10SM CLR 12/01 A3023 RMK AO2  T01180008,,,,,,33.3,,N,29.57,29.65,,Clear
KIGQ,04/01/2017 17:35 UTC,30.23,53.06,32.54,43.61,3.44,10.0,,,,,,1.0,,,,10.0,,KIGQ 011735Z AUTO 01003KT 10SM CLR 12/00 A3023 RMK AO2  T01170003,,,,,,31.33,,N,29.57,29.68,,Clear
KIGQ,04/01/2017 17:55 UTC,30.22,53.24,32.54,45.16,4.61,30.0,,,,,,1.0,,,,10.0,,KIGQ 011755Z AUTO 03004KT 10SM CLR 12/00 A3022 RMK AO2 T01180003  10121 20006,53.78,33.08,,,,32.36,,NNE,29.56,29.65,,Clear
KIGQ,04/01/2017 18:15 UTC,30.21,53.78,33.8,46.88,5.75,10.0,,,,,,1.0,,,,10.0,,KIGQ 011815Z AUTO 01005KT 10SM CLR 12/01 A3021 RMK AO2  T01210010,,,,,,33.79,,N,29.55,29.61,,Clear
KIGQ,04/01/2017 18:35 UTC,30.22,54.86,34.88,47.17,5.75,10.0,,,,,,1.0,,,,10.0,,KIGQ 011835Z AUTO 01005KT 10SM CLR 13/02 A3022 RMK AO2  T01270016,,,,,,34.94,,N,29.56,29.59,,Clear
KIGQ,04/01/2017 18:55 UTC,30.21,53.6,32.54,43.61,9.22,60.0,,,,,,1.0,,,,10.0,,KIGQ 011855Z AUTO 06008KT 10SM CLR 12/00 A3021 RMK AO2  T01200003,,,,,,31.82,,ENE,29.55,29.65,,Clear
KIGQ,04/01/2017 19:15 UTC,30.21,53.6,32.18,43.61,10.36,60.0,,,,,,1.0,,,,10.0,,KIGQ 011915Z AUTO 06009KT 10SM CLR 12/00 A3021 RMK AO2 LTG DSNT W  T01200001,,,,,,31.82,,ENE,29.55,29.65,,Clear
KIGQ,04/01/2017 19:35 UTC,30.21,53.24,32.0,43.61,9.22,40.0,,,,,,1.0,,,,10.0,,KIGQ 011935Z AUTO 04008KT 10SM CLR 12/00 A3021 RMK AO2  T01180000,,,,,,31.49,,NE,29.55,29.66,,Clear
KIGQ,04/01/2017 19:55 UTC,30.21,52.7,30.92,40.54,10.36,40.0,,,,,,1.0,,,,10.0,,KIGQ 011955Z AUTO 04009KT 10SM CLR 12/M01 A3021 RMK AO2  T01151006,,,,,,29.2,,NE,29.55,29.7,,Clear
KIGQ,04/01/2017 20:15 UTC,30.21,51.98,28.58,40.24,11.5,40.0,,,,,,1.0,,,,10.0,,KIGQ 012015Z AUTO 04010KT 10SM CLR 11/M02 A3021 RMK AO2  T01111019,,,,,,28.36,,NE,29.55,29.72,,Clear
KIGQ,04/01/2017 20:35 UTC,30.2,51.26,26.6,37.36,9.22,60.0,,,,,,1.0,,,,10.0,,KIGQ 012035Z AUTO 06008KT 10SM CLR 11/M03 A3020 RMK AO2  T01071030,,,,,,25.91,,ENE,29.54,29.75,,Clear
KIGQ,04/01/2017 20:55 UTC,30.2,51.98,26.06,37.36,8.05,20.0,,,,,,1.0,,,,10.0,,KIGQ 012055Z AUTO 02007KT 10SM CLR 11/M03 A3020 RMK AO2  T01111033,,,,,,26.55,,NNE,29.54,29.74,,Clear
KIGQ,04/01/2017 21:15 UTC,30.2,52.34,26.78,37.36,6.91,40.0,,,,,,1.0,,,,10.0,,KIGQ 012115Z AUTO 04006KT 10SM CLR 11/M03 A3020 RMK AO2  T01131029,,,,,,26.88,,NE,29.54,29.73,,Clear
KIGQ,04/01/2017 21:35 UTC,30.2,52.88,28.58,37.66,8.05,60.0,,,,,,1.0,,,,10.0,,KIGQ 012135Z AUTO 06007KT 10SM CLR 12/M02 A3020 RMK AO2  T01161019,,,,,,27.55,,ENE,29.54,29.72,,Clear
KIGQ,04/01/2017 21:55 UTC,30.2,50.9,26.96,37.36,6.91,40.0,,,,,,1.0,,,,10.0,,KIGQ 012155Z AUTO 04006KT 10SM CLR 11/M03 A3020 RMK AO2  T01051028,,,,,,25.59,,NE,29.54,29.76,,Clear
KIGQ,04/01/2017 22:15 UTC,30.2,50.9,25.88,37.36,5.75,30.0,,,,,,1.0,,,,10.0,,KIGQ 012215Z AUTO 03005KT 10SM CLR 11/M03 A3020 RMK AO2  T01051034,,,,,,25.59,,NNE,29.54,29.76,,Clear
KIGQ,04/01/2017 22:35 UTC,30.2,50.18,24.08,37.05,6.91,60.0,,,,,,1.0,,,,10.0,,KIGQ 012235Z AUTO 06006KT 10SM CLR 10/M04 A3020 RMK AO2  T01011044,,,,,,24.74,,ENE,29.54,29.78,,Clear
KIGQ,04/01/2017 22:55 UTC,30.2,49.64,24.98,37.05,5.75,60.0,,,,,,1.0,,,,10.0,,KIGQ 012255Z AUTO 06005KT 10SM CLR 10/M04 A3020 RMK AO2  T00981039,,,,,,24.26,,ENE,29.54,29.79,,Clear
KIGQ,04/01/2017 23:15 UTC,30.2,49.1,25.16,37.05,8.05,50.0,,,,,,1.0,,,,10.0,,KIGQ 012315Z AUTO 05007KT 10SM CLR 10/M04 A3020 RMK AO2  T00951038,,,,,,23.77,,NE,29.54,29.8,,Clear
KIGQ,04/01/2017 23:35 UTC,30.2,48.2,22.64,36.75,9.22,60.0,,,,,,1.0,,,,10.0,,KIGQ 012335Z AUTO 06008KT 10SM CLR 09/M05 A3020 RMK AO2  T00901052,,,,,,22.77,,ENE,29.54,29.81,,Clear
KIGQ,04/01/2017 23:55 UTC,30.21,48.2,21.2,34.05,5.75,40.0,,,,,,1.0,,,,10.0,,KIGQ 012355Z AUTO 04005KT 10SM CLR 09/M06 A3021,,,,,,20.96,,NE,29.55,29.85,,Clear
KIGQ,04/02/2017 00:15 UTC,30.21,46.94,21.02,36.44,4.61,50.0,,,,,,1.0,,,,10.0,,KIGQ 020015Z AUTO 05004KT 10SM CLR 08/M06 A3021 RMK AO2  T00831061,,,,,,21.45,,NE,29.55,29.85,,Clear
KIGQ,04/02/2017 00:35 UTC,30.21,46.58,21.92,36.44,4.61,90.0,,,,,,1.0,,,,10.0,,KIGQ 020035Z AUTO 09004KT 10SM CLR 08/M06 A3021 RMK AO2  T00811056,,,,,,21.12,,E,29.55,29.85,,Clear
KIGQ,04/02/2017 00:55 UTC,30.21,46.22,21.38,36.44,3.44,100.0,,,,,,1.0,,,,10.0,,KIGQ 020055Z AUTO 10003KT 10SM CLR 08/M06 A3021 RMK AO2  T00791059,,,,,,20.8,,E,29.55,29.86,,Clear
KIGQ,04/02/2017 01:15 UTC,30.21,45.32,25.52,45.4,4.61,90.0,,,,,,1.0,,,,10.0,,KIGQ 020115Z AUTO 09004KT 10SM CLR 07/M04 A3021 RMK AO2  T00741036,,,,,,25.24,,E,29.55,29.81,,Clear
KIGQ,04/02/2017 01:35 UTC,30.21,45.86,22.64,39.32,3.44,90.0,,,,,,1.0,,,,10.0,,KIGQ 020135Z AUTO 09003KT 10SM CLR 08/M05 A3021 RMK AO2  T00771052,,,,,,22.28,,E,29.55,29.84,,Clear
KIGQ,04/02/2017 01:55 UTC,30.21,45.68,23.0,39.32,3.44,110.0,,,,,,1.0,,,,10.0,,KIGQ 020155Z AUTO 11003KT 10SM CLR 08/M05 A3021 RMK AO2  T00761050,,,,,,22.12,,ESE,29.55,29.84,,Clear
KIGQ,04/02/2017 02:15 UTC,30.22,44.42,22.46,42.1,0.0,0.0,,,,,,1.0,,,,10.0,,KIGQ 020215Z AUTO 00000KT 10SM CLR 07/M05 A3022 RMK AO2  T00691053,,,,,,22.61,,N,29.56,29.85,,Clear
KIGQ,04/02/2017 02:35 UTC,30.23,44.06,23.54,42.1,3.44,210.0,,,,,,1.0,,,,10.0,,KIGQ 020235Z AUTO 21003KT 10SM CLR 07/M05 A3023 RMK AO2  T00671047,,,,,,22.28,,SSW,29.57,29.87,,Clear
KIGQ,04/02/2017 02:55 UTC,30.23,41.72,27.5,60.51,0.0,0.0,,,,,,1.0,,,,10.0,,KIGQ 020255Z AUTO 00000KT 10SM CLR 05/M02 A3023 RMK AO2  T00541025,,,,,,28.92,,N,29.57,29.79,,Clear
KIGQ,04/02/2017 03:15 UTC,30.22,43.16,28.76,56.46,0.0,0.0,,,,,,1.0,,,,10.0,,KIGQ 020315Z AUTO 00000KT 10SM CLR 06/M02 A3022 RMK AO2  T00621018,,,,,,28.56,,N,29.56,29.78,,Clear
KIGQ,04/02/2017 03:35 UTC,30.22,43.7,26.6,48.93,0.0,0.0,,,,,,1.0,,,,10.0,,KIGQ 020335Z AUTO 00000KT 10SM CLR 07/M03 A3022 RMK AO2  T00651030,,,,,,25.57,,N,29.56,29.82,,Clear
KIGQ,04/02/2017 03:55 UTC,30.23,42.98,23.54,45.1,0.0,0.0,,,,,,1.0,,,,10.0,,KIGQ 020355Z AUTO 00000KT 10SM CLR 06/M05 A3023 RMK AO2  T00611047,,,,,,22.94,,N,29.57,29.87,,Clear
KIGQ,04/02/2017 04:15 UTC,30.23,42.26,23.72,45.1,0.0,0.0,,,,,,1.0,,,,10.0,,KIGQ 020415Z AUTO 00000KT 10SM CLR 06/M05 A3023 RMK AO2  T00571046,,,,,,22.29,,N,29.57,29.88,,Clear
KIGQ,04/02/2017 04:35 UTC,30.22,42.08,25.16,48.64,0.0,0.0,,,,,,1.0,,,,10.0,,KIGQ 020435Z AUTO 00000KT 10SM CLR 06/M04 A3022 RMK AO2  T00561038,,,,,,23.93,,N,29.56,29.85,,Clear
KIGQ,04/02/2017 04:55 UTC,30.24,41.18,30.2,65.13,0.0,0.0,,,,,,1.0,,,,10.0,,KIGQ 020455Z AUTO 00000KT 10SM CLR 05/M01 A3024 RMK AO2  T00511010,,,,,,30.23,,N,29.58,29.79,,Clear
KIGQ,04/02/2017 05:15 UTC,30.23,37.4,32.0,80.63,0.0,0.0,,,,,,1.0,,,,10.0,,KIGQ 020515Z AUTO 00000KT 10SM CLR 03/00 A3023 RMK AO2  T00300000,,,,,,31.92,,N,29.57,29.77,,Clear
KIGQ,04/02/2017 05:35 UTC,30.22,40.1,30.38,65.13,0.0,0.0,,,,,,1.0,,,,10.0,,KIGQ 020535Z AUTO 00000KT 10SM CLR 05/M01 A3022 RMK AO2  T00451009,,,,,,29.2,,N,29.56,29.79,,Clear
KIGQ,04/02/2017 05:55 UTC,30.23,39.38,30.2,69.85,0.0,0.0,,,,,,1.0,,,,10.0,,KIGQ 020555Z AUTO 00000KT 10SM CLR 04/M01 A3023 RMK AO2 T00411010  10085 20028 401270002,47.3,37.04,,54.86,32.36,30.25,,N,29.57,29.79,,Clear
KIGQ,04/02/2017 06:15 UTC,30.22,37.58,32.18,80.63,0.0,0.0,,,,,,1.0,,,,10.0,,KIGQ 020615Z AUTO 00000KT 10SM CLR 03/00 A3022 RMK AO2  T00310001,,,,,,32.09,,N,29.56,29.76,,Clear
KIGQ,04/02/2017 06:35 UTC,30.22,40.1,30.74,65.13,0.0,0.0,,,,,,1102.0,,,,10.0,,KIGQ 020635Z AUTO 00000KT 10SM SCT110 05/M01 A3022 RMK AO2  T00451007,,,,,,29.2,,N,29.56,29.79,,Partly Cloudy
KIGQ,04/02/2017 06:55 UTC,30.2,40.82,29.3,65.13,0.0,0.0,,,,,,1104.0,,,,10.0,,KIGQ 020655Z AUTO 00000KT 10SM OVC110 05/M01 A3020 RMK AO2  T00491015,,,11000.0,,,29.88,,N,29.54,29.75,,Overcast
KIGQ,04/02/2017 07:15 UTC,30.19,40.1,32.72,70.06,0.0,0.0,,,,,,1104.0,,,,10.0,,KIGQ 020715Z AUTO 00000KT 10SM OVC110 05/00 A3019 RMK AO2  T00450004,,,11000.0,,,31.01,,N,29.53,29.73,,Overcast
KIGQ,04/02/2017 07:35 UTC,30.19,39.2,31.82,75.14,0.0,0.0,,,,,,1102.0,,,,10.0,,KIGQ 020735Z AUTO 00000KT 10SM SCT110 04/00 A3019 RMK AO2  T00401001,,,,,,31.9,,N,29.53,29.72,,Partly Cloudy
KIGQ,04/02/2017 07:55 UTC,30.19,37.76,32.54,80.63,0.0,0.0,,,,,,1.0,,,,10.0,,KIGQ 020755Z AUTO 00000KT 10SM CLR 03/00 A3019 RMK AO2  T00320003,,,,,,32.27,,N,29.53,29.72,,Clear
KIGQ,04/02/2017 08:15 UTC,30.18,37.22,32.0,80.63,0.0,0.0,,,,,,1.0,,,,10.0,,KIGQ 020815Z AUTO 00000KT 10SM CLR 03/00 A3018 RMK AO2  T00290000,,,,,,31.74,,N,29.52,29.73,,Clear
KIGQ,04/02/2017 08:35 UTC,30.18,38.48,30.56,69.85,0.0,0.0,,,,,,1.0,,,,10.0,,KIGQ 020835Z AUTO 00000KT 10SM CLR 04/M01 A3018 RMK AO2  T00361008,,,,,,29.38,,N,29.52,29.75,,Clear
KIGQ,04/02/2017 08:55 UTC,30.18,38.3,32.0,75.14,0.0,0.0,,,,,,1.0,,,,10.0,,KIGQ 020855Z AUTO 00000KT 10SM CLR 04/00 A3018 RMK AO2  T00350000,,,,,,31.03,,N,29.52,29.73,,Clear
KIGQ,04/02/2017 09:15 UTC,30.18,39.92,30.02,69.85,0.0,0.0,,,,,,1.0,,,,10.0,,KIGQ 020915Z AUTO 00000KT 10SM CLR 04/M01 A3018 RMK AO2  T00441011,,,,,,30.76,,N,29.52,29.72,,Clear
KIGQ,04/02/2017 09:35 UTC,30.18,39.56,30.2,69.85,0.0,0.0,,,,,,1.0,,,,10.0,,KIGQ 020935Z AUTO 00000KT 10SM CLR 04/M01 A3018 RMK AO2  T00421010,,,,,,30.42,,N,29.52,29.73,,Clear
KIGQ,04/02/2017 09:55 UTC,30.19,38.84,35.06,86.15,0.0,0.0,,,,,,1202.0,,,,10.0,,KIGQ 020955Z AUTO 00000KT 10SM SCT120 04/02 A3019 RMK AO2  T00380017,,,,,,35.0,,N,29.53,29.67,,Partly Cloudy
KIGQ,04/02/2017 10:15 UTC,30.18,39.02,34.16,80.78,0.0,0.0,,,,,,1003.0,,,,10.0,,KIGQ 021015Z AUTO 00000KT 10SM BKN100 04/01 A3018 RMK AO2  T00390012,,,10000.0,,,33.55,,N,29.52,29.68,,Mostly Cloudy
KIGQ,04/02/2017 10:35 UTC,30.18,40.64,31.64,70.06,0.0,0.0,,,,,,1002.0,,,,10.0,,KIGQ 021035Z AUTO 00000KT 10SM SCT100 05/00 A3018 RMK AO2  T00481002,,,,,,31.53,,N,29.52,29.71,,Partly Cloudy
KIGQ,04/02/2017 10:55 UTC,30.18,42.08,28.76,56.46,0.0,0.0,,,,,,1002.0,1203.0,,,10.0,,KIGQ 021055Z AUTO 00000KT 10SM SCT100 BKN120 06/M02 A3018 RMK AO2  T00561018,,,12000.0,,,27.55,,N,29.52,29.76,,Mostly Cloudy
KIGQ,04/02/2017 11:15 UTC,30.19,41.0,32.72,70.06,0.0,0.0,,,,,,1104.0,,,,10.0,,KIGQ 021115Z AUTO 00000KT 10SM OVC110 05/00 A3019 RMK AO2  T00500004,,,11000.0,,,31.88,,N,29.53,29.71,,Overcast
KIGQ,04/02/2017 11:35 UTC,30.19,40.64,34.52,75.32,0.0,0.0,,,,,,1103.0,,,,10.0,,KIGQ 021135Z AUTO 00000KT 10SM BKN110 05/01 A3019 RMK AO2  T00480014,,,11000.0,,,33.35,,N,29.53,29.69,,Mostly Cloudy
KIGQ,04/02/2017 11:55 UTC,30.19,42.08,30.74,60.77,0.0,0.0,,,,,,1104.0,,,,10.0,,KIGQ 021155Z AUTO 00000KT 10SM OVC110 06/M01 A3019 RMK AO2  T00561007 10056 20026,42.08,36.68,11000.0,,,29.36,,N,29.53,29.74,,Overcast
KIGQ,04/02/2017 12:15 UTC,30.18,41.9,32.36,65.37,4.61,120.0,,,,,,904.0,,,,10.0,,KIGQ 021215Z AUTO 12004KT 10SM OVC090 06/00 A3018 RMK AO2  T00550002,,,9000.0,,,31.01,,ESE,29.52,29.71,,Overcast
KIGQ,04/02/2017 12:35 UTC,30.2,42.26,32.18,65.37,0.0,0.0,,,,,,904.0,,,,10.0,,KIGQ 021235Z AUTO 00000KT 10SM OVC090 06/00 A3020 RMK AO2  T00570001,,,9000.0,,,31.35,,N,29.54,29.72,,Overcast
KIGQ,04/02/2017 12:55 UTC,30.19,42.62,32.36,65.37,3.44,130.0,,,,,,804.0,,,,10.0,,KIGQ 021255Z AUTO 13003KT 10SM OVC080 06/00 A3019 RMK AO2  T00590002,,,8000.0,,,31.69,,SE,29.53,29.7,,Overcast
KIGQ,04/02/2017 13:15 UTC,30.2,42.98,34.34,70.27,3.44,190.0,,,,,,803.0,1004.0,,,10.0,,KIGQ 021315Z AUTO 19003KT 10SM BKN080 OVC100 06/01 A3020 RMK AO2  T00610013,,,8000.0,,,33.86,,S,29.54,29.67,,Overcast
KIGQ,04/02/2017 13:35 UTC,30.2,44.78,35.42,70.47,3.44,170.0,,,,,,802.0,1003.0,,,10.0,,KIGQ 021335Z AUTO 17003KT 10SM SCT080 BKN100 07/02 A3020 RMK AO2  T00710019,,,10000.0,,,35.66,,S,29.54,29.62,,Mostly Cloudy
KIGQ,04/02/2017 13:55 UTC,30.2,46.58,35.96,65.82,4.61,190.0,,,,,,1002.0,,,,10.0,,KIGQ 021355Z AUTO 19004KT 10SM SCT100 08/02 A3020 RMK AO2  T00810022,,,,,,35.64,,S,29.54,29.61,,Partly Cloudy
KIGQ,04/02/2017 14:15 UTC,30.2,47.48,37.22,66.05,4.61,200.0,,,,,,1002.0,,,,10.0,,KIGQ 021415Z AUTO 20004KT 10SM SCT100 09/03 A3020 RMK AO2  T00860029,,,,,,36.59,,SSW,29.54,29.59,,Partly Cloudy
KIGQ,04/02/2017 14:35 UTC,30.19,48.56,38.12,66.05,3.44,190.0,,,,,,803.0,,,,10.0,,KIGQ 021435Z AUTO 19003KT 10SM BKN080 09/03 A3019 RMK AO2  T00920034,,,8000.0,,,37.62,,S,29.53,29.55,,Mostly Cloudy
KIGQ,04/02/2017 14:55 UTC,30.19,50.0,39.2,66.27,3.44,180.0,,,,,,802.0,,,,10.0,,KIGQ 021455Z AUTO 18003KT 10SM SCT080 10/04 A3019 RMK AO2  T01000040,,,,,,39.08,,S,29.53,29.5,,Partly Cloudy
KIGQ,04/02/2017 15:15 UTC,30.18,52.52,41.36,66.49,5.75,170.0,,,,,,1.0,,,,10.0,,KIGQ 021515Z AUTO 17005KT 10SM CLR 11/05 A3018 RMK AO2  T01140052,,,,,,41.57,,S,29.52,29.41,,Clear
KIGQ,04/02/2017 15:35 UTC,30.18,53.78,41.72,62.24,3.44,160.0,,,,,,1.0,,,,10.0,,KIGQ 021535Z AUTO 16003KT 10SM CLR 12/05 A3018 RMK AO2  T01210054,,,,,,41.05,,SSE,29.52,29.41,,Clear
KIGQ,04/02/2017 15:55 UTC,30.18,54.68,42.26,62.48,9.22,180.0,,,,,,902.0,,,,10.0,,KIGQ 021555Z AUTO 18008KT 10SM SCT090 13/06 A3018 RMK AO2  T01260057,,,,,,42.0,,S,29.52,29.38,,Partly Cloudy
KIGQ,04/02/2017 16:15 UTC,30.17,55.04,42.62,62.48,6.91,180.0,,,,,,902.0,,,,10.0,,KIGQ 021615Z AUTO 18006KT 10SM SCT090 13/06 A3017 RMK AO2  T01280059,,,,,,42.35,,S,29.51,29.36,,Partly Cloudy
KIGQ,04/02/2017 16:35 UTC,30.16,55.76,43.52,62.48,10.36,190.0,,,,,,903.0,,,,10.0,,KIGQ 021635Z AUTO 19009KT 10SM BKN090 13/06 A3016 RMK AO2  T01320064,,,9000.0,,,43.03,,S,29.5,29.32,,Mostly Cloudy
KIGQ,04/02/2017 16:55 UTC,30.14,57.02,43.7,62.72,6.91,170.0,,,,,,903.0,,,,10.0,,KIGQ 021655Z AUTO 17006KT 10SM BKN090 14/07 A3014 RMK AO2  T01390065,,,9000.0,,,44.33,,S,29.48,29.25,,Mostly Cloudy
KIGQ,04/02/2017 17:15 UTC,30.13,56.12,40.46,58.29,6.91,170.0,,,,,,1002.0,1203.0,,,10.0,,KIGQ 021715Z AUTO 17006KT 10SM SCT100 BKN120 13/05 A3013 RMK AO2  T01340047,,,12000.0,,,41.55,,S,29.47,29.33,,Mostly Cloudy
KIGQ,04/02/2017 17:35 UTC,30.13,57.2,40.82,54.62,10.36,150.0,,,,,,1104.0,,,,10.0,,KIGQ 021735Z AUTO 15009KT 10SM OVC110 14/05 A3013 RMK AO2  T01400049,,,11000.0,,,40.87,,SSE,29.47,29.34,,Overcast
KIGQ,04/02/2017 17:55 UTC,30.11,55.58,40.46,58.29,9.22,170.0,,,,,,1004.0,,,,10.0,,KIGQ 021755Z AUTO 17008KT 10SM OVC100 13/05 A3011 RMK AO2  T01310047 10140 20055,57.2,41.9,10000.0,,,41.04,,S,29.46,29.34,,Overcast
KIGQ,04/02/2017 18:15 UTC,30.11,54.68,42.08,62.48,9.22,160.0,,,,,,1004.0,,,,10.0,,KIGQ 021815Z AUTO 16008KT 10SM OVC100 13/06 A3011 RMK AO2  T01260056,,,10000.0,,,42.0,,SSE,29.46,29.32,,Overcast
KIGQ,04/02/2017 18:35 UTC,30.1,54.86,42.62,62.48,8.05,160.0,,,,,,904.0,,,,10.0,,KIGQ 021835Z AUTO 16007KT 10SM OVC090 13/06 A3010 RMK AO2  T01270059,,,9000.0,,,42.17,,SSE,29.45,29.3,,Overcast
KIGQ,04/02/2017 18:55 UTC,30.08,55.58,43.88,66.93,6.91,160.0,,,,,,903.0,1204.0,,,10.0,,KIGQ 021855Z AUTO 16006KT 10SM BKN090 OVC120 13/07 A3008 RMK AO2  T01310066,,,9000.0,,,44.67,,SSE,29.43,29.21,,Overcast
KIGQ,04/02/2017 19:15 UTC,30.07,55.94,44.24,66.93,9.22,140.0,,,1204.0,,,802.0,1002.0,,,10.0,,KIGQ 021915Z AUTO 14008KT 10SM SCT080 SCT100 OVC120 13/07  A3007 RMK AO2 T01330068,,,12000.0,,,45.02,,SE,29.42,29.18,,Overcast
KIGQ,04/02/2017 19:35 UTC,30.06,56.48,44.78,62.72,8.05,150.0,,,,,,1203.0,,,,10.0,,KIGQ 021935Z AUTO 15007KT 10SM BKN120 14/07 A3006 RMK AO2  T01360071,,,12000.0,,,43.81,,SSE,29.41,29.2,,Mostly Cloudy
KIGQ,04/02/2017 19:55 UTC,30.05,55.4,44.6,66.93,8.05,130.0,,,,,,1103.0,,,,10.0,,KIGQ 021955Z AUTO 13007KT 10SM BKN110 13/07 A3005,,,11000.0,,,44.5,,SE,29.4,29.18,,Mostly Cloudy
KIGQ,04/02/2017 20:15 UTC,30.04,55.94,43.52,62.48,6.91,120.0,,,,,,1104.0,,,,10.0,,KIGQ 022015Z AUTO 12006KT 040V130 10SM OVC110 13/06 A3004 RMK AO2  T01330064,,,11000.0,,,43.2,,ESE,29.39,29.2,,Overcast
KIGQ,04/02/2017 20:35 UTC,30.01,56.48,43.16,58.55,6.91,120.0,,,,,,1104.0,,,,10.0,,KIGQ 022035Z AUTO 12006KT 030V130 10SM OVC110 14/06 A3001 RMK AO2  T01360062,,,11000.0,,,42.01,,ESE,29.36,29.2,,Overcast
KIGQ,04/02/2017 20:55 UTC,30.01,56.3,42.8,58.55,9.22,110.0,,,,,,1103.0,,,,10.0,,KIGQ 022055Z AUTO 11008KT 10SM BKN110 14/06 A3001 RMK AO2  T01350060,,,11000.0,,,41.84,,ESE,29.36,29.21,,Mostly Cloudy
KIGQ,04/02/2017 21:15 UTC,30.01,56.3,43.16,58.55,6.91,140.0,,,,,,1004.0,,,,10.0,,KIGQ 022115Z AUTO 14006KT 10SM OVC100 14/06 A3001 RMK AO2  T01350062,,,10000.0,,,41.84,,SE,29.36,29.21,,Overcast
KIGQ,04/02/2017 21:35 UTC,30.01,56.3,42.26,58.55,8.05,150.0,,,,,,1004.0,,,,10.0,,KIGQ 022135Z AUTO 15007KT 10SM OVC100 14/06 A3001 RMK AO2  T01350057,,,10000.0,,,41.84,,SSE,29.36,29.21,,Overcast
KIGQ,04/02/2017 21:55 UTC,30.01,56.3,42.44,58.55,6.91,150.0,,,,,,1104.0,,,,10.0,,KIGQ 022155Z AUTO 15006KT 10SM OVC110 14/06 A3001 RMK AO2  T01350058,,,11000.0,,,41.84,,SSE,29.36,29.21,,Overcast
KIGQ,04/02/2017 22:15 UTC,29.99,56.84,42.98,58.55,6.91,110.0,,,,,,1103.0,,,,10.0,,KIGQ 022215Z AUTO 11006KT 10SM BKN110 14/06 A2999 RMK AO2  T01380061,,,11000.0,,,42.35,,ESE,29.34,29.17,,Mostly Cloudy
KIGQ,04/02/2017 22:35 UTC,29.98,56.66,42.98,58.55,6.91,100.0,,,,,,752.0,1102.0,,,10.0,,KIGQ 022235Z AUTO 10006KT 10SM SCT075 SCT110 14/06 A2998 RMK AO2  T01370061,,,,,,42.18,,E,29.33,29.17,,Partly Cloudy
KIGQ,04/02/2017 22:55 UTC,29.98,57.02,43.16,58.55,8.05,110.0,,,,,,1.0,,,,10.0,,KIGQ 022255Z AUTO 11007KT 10SM CLR 14/06 A2998 RMK AO2  T01390062,,,,,,42.51,,ESE,29.33,29.15,,Clear
KIGQ,04/02/2017 23:15 UTC,29.97,56.3,44.06,62.72,8.05,110.0,,,,,,1.0,,,,10.0,,KIGQ 022315Z AUTO 11007KT 10SM CLR 14/07 A2997 RMK AO2  T01350067,,,,,,43.64,,ESE,29.32,29.12,,Clear
KIGQ,04/02/2017 23:35 UTC,29.96,56.12,43.88,66.93,5.75,110.0,,,,,,1.0,,,,10.0,,KIGQ 022335Z AUTO 11005KT 10SM CLR 13/07 A2996 RMK AO2  T01340066,,,,,,45.19,,ESE,29.31,29.06,,Clear
KIGQ,04/02/2017 23:55 UTC,29.96,55.22,44.6,66.93,4.61,100.0,,,,,,1102.0,,,,10.0,,KIGQ 022355Z AUTO 10004KT 10SM SCT110 13/07 A2996 RMK AO2  T01290070 10140 20125,57.2,54.5,,,,44.33,,E,29.31,29.1,,Partly Cloudy
KIGQ,04/03/2017 00:15 UTC,29.95,55.4,44.42,66.93,4.61,100.0,,,,,,1203.0,,,,10.0,,KIGQ 030015Z AUTO 10004KT 10SM BKN120 13/07 A2995 RMK AO2  T01300069,,,12000.0,,,44.5,,E,29.3,29.08,,Mostly Cloudy
KIGQ,04/03/2017 00:35 UTC,29.96,55.58,43.7,66.93,0.0,0.0,,,,,,1204.0,,,,10.0,,KIGQ 030035Z AUTO 00000KT 10SM OVC120 13/07 A2996 RMK AO2  T01310065,,,12000.0,,,44.67,,N,29.31,29.08,,Overcast
KIGQ,04/03/2017 00:55 UTC,29.95,55.4,42.8,62.48,0.0,0.0,,,,,,1002.0,1204.0,,,10.0,,KIGQ 030055Z AUTO 00000KT 10SM SCT100 OVC120 13/06 A2995 RMK AO2  T01300060,,,12000.0,,,42.69,,N,29.3,29.13,,Overcast
KIGQ,04/03/2017 01:15 UTC,29.94,54.68,42.98,62.48,3.44,70.0,,,,,,1204.0,,,,10.0,,KIGQ 030115Z AUTO 07003KT 10SM OVC120 13/06 A2994 RMK AO2  T01260061,,,12000.0,,,42.0,,ENE,29.29,29.15,,Overcast
KIGQ,04/03/2017 01:35 UTC,29.94,52.88,43.7,71.47,0.0,0.0,,,,,,1202.0,,,,10.0,,KIGQ 030135Z AUTO 00000KT 10SM SCT120 12/07 A2994 RMK AO2  T01160065,,,,,,43.82,,N,29.29,29.11,,Partly Cloudy
KIGQ,04/03/2017 01:55 UTC,29.94,52.88,43.7,71.47,3.44,80.0,,,,,,1.0,,,,10.0,,KIGQ 030155Z AUTO 08003KT 10SM CLR 12/07 A2994 RMK AO2  T01160065,,,,,,43.82,,E,29.29,29.11,,Clear
KIGQ,04/03/2017 02:15 UTC,29.95,51.98,44.06,76.35,4.61,140.0,,,,,,1.0,,,,10.0,,KIGQ 030215Z AUTO 14004KT 10SM CLR 11/07 A2995 RMK AO2  T01110067,,,,,,44.7,,SE,29.3,29.1,,Clear
KIGQ,04/03/2017 02:35 UTC,29.93,51.8,44.06,76.35,4.61,130.0,,,,,,1.0,,,,10.0,,KIGQ 030235Z AUTO 13004KT 10SM CLR 11/07 A2993 RMK AO2  T01100067,,,,,,44.52,,SE,29.28,29.09,,Clear
KIGQ,04/03/2017 02:55 UTC,29.91,52.34,43.34,71.27,4.61,110.0,,,,,,1.0,,,,10.0,,KIGQ 030255Z AUTO 11004KT 10SM CLR 11/06 A2991 RMK AO2  T01130063,,,,,,43.22,,ESE,29.26,29.1,,Clear
KIGQ,04/03/2017 03:15 UTC,29.9,51.98,42.8,71.27,5.75,120.0,,,,,,1.0,,,,10.0,,KIGQ 030315Z AUTO 12005KT 10SM CLR 11/06 A2990 RMK AO2  T01110060,,,,,,42.88,,ESE,29.25,29.1,,Clear
KIGQ,04/03/2017 03:35 UTC,29.9,51.8,42.62,71.27,5.75,130.0,,,,,,1.0,,,,10.0,,KIGQ 030335Z AUTO 13005KT 10SM CLR 11/06 A2990 RMK AO2  T01100059,,,,,,42.7,,SE,29.25,29.11,,Clear
KIGQ,04/03/2017 03:55 UTC,29.89,51.44,42.44,71.27,4.61,130.0,,,,,,1.0,,,,10.0,,KIGQ 030355Z AUTO 13004KT 10SM CLR 11/06 A2989 RMK AO2  T01080058,,,,,,42.36,,SE,29.24,29.11,,Clear
KIGQ,04/03/2017 04:15 UTC,29.88,51.08,42.62,71.27,5.75,120.0,,,,,,1.0,,,,10.0,,KIGQ 030415Z AUTO 12005KT 10SM CLR 11/06 A2988 RMK AO2  T01060059,,,,,,42.01,,ESE,29.23,29.11,,Clear
KIGQ,04/03/2017 04:35 UTC,29.87,51.26,42.26,71.27,5.75,120.0,,,,,,1.0,,,,10.0,,KIGQ 030435Z AUTO 12005KT 10SM CLR 11/06 A2987 RMK AO2  T01070057,,,,,,42.18,,ESE,29.22,29.1,,Clear
KIGQ,04/03/2017 04:55 UTC,29.86,51.62,42.08,71.27,5.75,120.0,,,,,,1.0,,,,10.0,,KIGQ 030455Z AUTO 12005KT 10SM CLR 11/06 A2986 RMK AO2  T01090056,,,,,,42.53,,ESE,29.21,29.08,,Clear
KIGQ,04/03/2017 05:15 UTC,29.85,51.26,42.08,71.27,5.75,120.0,,,,,,1.0,,,,10.0,,KIGQ 030515Z AUTO 12005KT 10SM CLR 11/06 A2985 RMK AO2  T01070056,,,,,,42.18,,ESE,29.2,29.08,,Clear
KIGQ,04/03/2017 05:35 UTC,29.85,51.62,41.9,71.27,6.91,120.0,,,,,,1.0,,,,10.0,,KIGQ 030535Z AUTO 12006KT 10SM CLR 11/06 A2985 RMK AO2  T01090055,,,,,,42.53,,ESE,29.2,29.06,,Clear
KIGQ,04/03/2017 05:55 UTC,29.84,51.26,41.9,71.27,5.75,110.0,,,,,,1.0,,,,10.0,,KIGQ 030555Z AUTO 11005KT 10SM CLR 11/06 A2984 RMK AO2 T01070055  10131 20103 401400026,55.58,50.54,,57.2,36.68,42.18,,ESE,29.19,29.07,,Clear
KIGQ,04/03/2017 06:15 UTC,29.83,50.36,41.9,76.18,5.75,120.0,,,,,,1.0,,,,10.0,,KIGQ 030615Z AUTO 12005KT 10SM CLR 10/06 A2983 RMK AO2  T01020055,,,,,,43.07,,ESE,29.18,29.04,,Clear
KIGQ,04/03/2017 06:35 UTC,29.82,50.54,41.36,71.08,3.44,120.0,,,,,,1.0,,,,10.0,,KIGQ 030635Z AUTO 12003KT 10SM CLR 10/05 A2982 RMK AO2  T01030052,,,,,,41.42,,ESE,29.17,29.07,,Clear
KIGQ,04/03/2017 06:55 UTC,29.8,49.28,41.54,71.08,5.75,120.0,,,,,,1.0,,,,10.0,,KIGQ 030655Z AUTO 12005KT 10SM CLR 10/05 A2980 RMK AO2  T00960053,,,,,,40.21,,ESE,29.15,29.09,,Clear
KIGQ,04/03/2017 07:15 UTC,29.79,50.54,41.18,71.08,6.91,130.0,,,,,,1.0,,,,10.0,,KIGQ 030715Z AUTO 13006KT 10SM CLR 10/05 A2979 RMK AO2  T01030051,,,,,,41.42,,SE,29.14,29.04,,Clear
KIGQ,04/03/2017 07:35 UTC,29.78,50.9,41.18,66.49,6.91,130.0,,,,,,1.0,,,,10.0,,KIGQ 030735Z AUTO 13006KT 10SM CLR 11/05 A2978 RMK AO2  T01050051,,,,,,40.03,,SE,29.13,29.06,,Clear
KIGQ,04/03/2017 07:55 UTC,29.77,50.72,41.36,71.08,6.91,140.0,,,,,,1.0,,,,10.0,,KIGQ 030755Z AUTO 14006KT 10SM CLR 10/05 A2977 RMK AO2  T01040052,,,,,,41.59,,SE,29.12,29.02,,Clear
KIGQ,04/03/2017 08:15 UTC,29.76,50.72,41.36,71.08,5.75,130.0,,,,,,1.0,,,,10.0,,KIGQ 030815Z AUTO 13005KT 10SM CLR 10/05 A2976 RMK AO2  T01040052,,,,,,41.59,,SE,29.11,29.01,,Clear
KIGQ,04/03/2017 08:35 UTC,29.76,50.36,41.54,71.08,5.75,140.0,,,,,,1.0,,,,10.0,,KIGQ 030835Z AUTO 14005KT 10SM CLR 10/05 A2976 RMK AO2  T01020053,,,,,,41.25,,SE,29.11,29.02,,Clear
KIGQ,04/03/2017 08:55 UTC,29.74,50.0,42.08,76.18,4.61,130.0,,,,,,1.0,,,,10.0,,KIGQ 030855Z AUTO 13004KT 10SM CLR 10/06 A2974 RMK AO2  T01000056,,,,,,42.72,,SE,29.09,28.96,,Clear
KIGQ,04/03/2017 09:15 UTC,29.74,49.46,42.08,76.18,4.61,110.0,,,,,,1202.0,,,,10.0,,KIGQ 030915Z AUTO 11004KT 10SM SCT120 10/06 A2974 RMK AO2  T00970056,,,,,,42.19,,ESE,29.09,28.98,,Partly Cloudy
KIGQ,04/03/2017 09:35 UTC,29.73,49.64,42.08,76.18,3.44,120.0,,,,,,1104.0,,,,10.0,,KIGQ 030935Z AUTO 12003KT 10SM OVC110 10/06 A2973 RMK AO2  T00980056,,,11000.0,,,42.37,,ESE,29.08,28.96,,Overcast
KIGQ,04/03/2017 09:55 UTC,29.71,50.0,41.9,76.18,0.0,0.0,,,1104.0,,,602.0,702.0,,,10.0,,KIGQ 030955Z AUTO 00000KT 10SM SCT060 SCT070 OVC110 10/06  A2971 RMK AO2 T01000055,,,11000.0,,,42.72,,N,29.06,28.93,,Overcast
KIGQ,04/03/2017 10:15 UTC,29.71,49.28,42.62,76.18,4.61,90.0,,,,,,602.0,1102.0,,,10.0,,KIGQ 031015Z AUTO 09004KT 10SM SCT060 SCT110 10/06 A2971 RMK AO2  T00960059,,,,,,42.02,,E,29.06,28.96,,Partly Cloudy
KIGQ,04/03/2017 10:35 UTC,29.7,49.64,42.8,76.18,5.75,110.0,,,,,,1203.0,,,,10.0,,KIGQ 031035Z AUTO 11005KT 10SM BKN120 10/06 A2970 RMK AO2  T00980060,,,12000.0,,,42.37,,ESE,29.05,28.93,,Mostly Cloudy
KIGQ,04/03/2017 10:55 UTC,29.7,50.36,42.08,76.18,6.91,120.0,,,,,,1204.0,,,,10.0,,KIGQ 031055Z AUTO 12006KT 10SM OVC120 10/06 A2970 RMK AO2  T01020056,,,12000.0,,,43.07,,ESE,29.05,28.91,,Overcast
KIGQ,04/03/2017 11:15 UTC,29.7,50.54,42.08,76.18,6.91,120.0,,13.0,,,,1104.0,,,,10.0,,KIGQ 031115Z AUTO 12006KT 10SM -RA OVC110 10/06 A2970 RMK AO2  T01030056,,,11000.0,,,43.24,,ESE,29.05,28.9,,Light Rain
KIGQ,04/03/2017 11:35 UTC,29.7,50.0,42.8,76.18,5.75,120.0,,13.0,,,,1004.0,,,,10.0,,KIGQ 031135Z AUTO 12005KT 10SM -RA OVC100 10/06 A2970 RMK AO2  T01000060,,,10000.0,,,42.72,,ESE,29.05,28.92,,Light Rain
KIGQ,04/03/2017 11:55 UTC,29.68,49.64,42.8,76.18,5.75,110.0,,,,,,1004.0,,,,10.0,,KIGQ 031155Z AUTO 11005KT 10SM OVC100 10/06 A2968 RMK AO2  T00980060 10105 20095,50.9,49.1,10000.0,,,42.37,,ESE,29.03,28.91,,Overcast
KIGQ,04/03/2017 12:15 UTC,29.67,50.18,42.62,76.18,4.61,80.0,,,,,,1004.0,,,,10.0,,KIGQ 031215Z AUTO 08004KT 10SM OVC100 10/06 A2967 RMK AO2  T01010059,,,10000.0,,,42.89,,E,29.02,28.88,,Overcast
KIGQ,04/03/2017 12:35 UTC,29.65,50.54,42.26,76.18,5.75,70.0,,,,,,1004.0,,,,10.0,,KIGQ 031235Z AUTO 07005KT 10SM OVC100 10/06 A2965 RMK AO2  T01030057,,,10000.0,,,43.24,,ENE,29.01,28.86,,Overcast
KIGQ,04/03/2017 12:55 UTC,29.65,50.54,42.98,76.18,4.61,90.0,,,,,,904.0,,,,10.0,,KIGQ 031255Z AUTO 09004KT 10SM OVC090 10/06 A2965 RMK AO2  T01030061,,,9000.0,,,43.24,,E,29.01,28.86,,Overcast
KIGQ,04/03/2017 13:15 UTC,29.63,51.08,42.8,71.27,4.61,70.0,,,,,,904.0,,,,10.0,,KIGQ 031315Z AUTO 07004KT 10SM OVC090 11/06 A2963 RMK AO2  T01060060,,,9000.0,,,42.01,,ENE,28.99,28.87,,Overcast
KIGQ,04/03/2017 13:35 UTC,29.63,51.44,42.8,71.27,4.61,100.0,,,,,,904.0,,,,10.0,,KIGQ 031335Z AUTO 10004KT 10SM OVC090 11/06 A2963 RMK AO2  T01080060,,,9000.0,,,42.36,,E,28.99,28.86,,Overcast
KIGQ,04/03/2017 13:55 UTC,29.62,51.44,43.52,71.27,3.44,80.0,,,,,,904.0,,,,10.0,,KIGQ 031355Z AUTO 08003KT 10SM OVC090 11/06 A2962 RMK AO2  T01080064,,,9000.0,,,42.36,,E,28.98,28.85,,Overcast
KIGQ,04/03/2017 14:15 UTC,29.61,51.8,43.34,72.77,4.61,80.0,,,,,,804.0,,,,10.0,,KIGQ 031415Z AUTO 08004KT 10SM OVC080 11/06 A2961 RMK AO2  T01100063,,,8000.0,,,43.25,,E,28.97,28.81,,Overcast
KIGQ,04/03/2017 14:35 UTC,29.61,51.98,44.06,76.35,3.44,70.0,,,,,,804.0,,,,10.0,,KIGQ 031435Z AUTO 07003KT 10SM OVC080 11/07 A2961 RMK AO2  T01110067,,,8000.0,,,44.7,,ENE,28.97,28.77,,Overcast
KIGQ,04/03/2017 14:55 UTC,29.61,51.98,44.42,76.35,0.0,0.0,,,,,,804.0,,,,10.0,,KIGQ 031455Z AUTO 00000KT 10SM OVC080 11/07 A2961 RMK AO2  T01110069,,,8000.0,,,44.7,,N,28.97,28.77,,Overcast
KIGQ,04/03/2017 15:15 UTC,29.62,51.8,44.96,76.35,3.44,100.0,,,,,,152.0,654.0,,,10.0,,KIGQ 031515Z AUTO 10003KT 10SM SCT015 OVC065 11/07 A2962 RMK AO2  T01100072,,,6500.0,,,44.52,,E,28.98,28.78,,Overcast
KIGQ,04/03/2017 15:35 UTC,29.6,52.16,45.14,76.35,4.61,70.0,,13.0,654.0,,,172.0,492.0,,,10.0,,KIGQ 031535Z AUTO 07004KT 10SM -RA SCT017 SCT049 OVC065 11/07  A2960 RMK AO2 T01120073,,,6500.0,,,44.87,,ENE,28.96,28.75,,Light Rain
KIGQ,04/03/2017 15:55 UTC,29.59,52.52,46.94,81.75,8.05,100.0,,,604.0,,,132.0,493.0,,,10.0,,KIGQ 031555Z AUTO 10007KT 10SM SCT013 BKN049 OVC060 11/08  A2959 RMK AO2 T01140083,,,4900.0,,,47.05,,E,28.95,28.67,,Overcast
KIGQ,04/03/2017 16:15 UTC,29.58,51.62,50.0,93.55,5.75,110.0,,1.0,494.0,,,112.0,313.0,,,4.0,,KIGQ 031615Z AUTO 11005KT 4SM RA SCT011 BKN031 OVC049 11/10  A2958 RMK AO2 T01090100,,,3100.0,,,49.8,,ESE,28.94,28.58,,Rain
KIGQ,04/03/2017 16:35 UTC,29.57,51.26,51.26,100.0,4.61,110.0,,14.0,194.0,0.04,,53.0,93.0,,,3.0,,KIGQ 031635Z AUTO 11004KT 3SM +RA BKN005 BKN009 OVC019 11/11  A2957 RMK AO2 P0004 T01070107,,,500.0,,,51.26,,ESE,28.93,28.52,,Heavy Rain
KIGQ,04/03/2017 16:55 UTC,29.56,51.26,51.26,100.0,6.91,100.0,,1.0,,0.08,,54.0,,,,3.0,,KIGQ 031655Z AUTO 10006KT 3SM RA OVC005 11/11 A2956 RMK AO2 P0008  T01070107,,,500.0,,,51.26,,E,28.92,28.51,,Rain
KIGQ,04/03/2017 17:15 UTC,29.54,51.44,51.44,100.0,5.75,100.0,,1.0,,,,54.0,,,,5.0,,KIGQ 031715Z AUTO 10005KT 5SM RA OVC005 11/11 A2954 RMK AO2  T01080108,,,500.0,,,51.44,,E,28.9,28.48,,Rain
KIGQ,04/03/2017 17:35 UTC,29.53,51.8,51.8,100.0,5.75,100.0,,2.0,,,,54.0,,,,2.0,,KIGQ 031735Z AUTO 10005KT 2SM DZ OVC005 11/11 A2953 RMK AO2  T01100110,,,500.0,,,51.8,,E,28.89,28.46,,Drizzle
KIGQ,04/03/2017 17:55 UTC,29.52,51.62,51.62,100.0,5.75,100.0,,2.0,,,,54.0,,0.08,,2.5,,KIGQ 031755Z AUTO 10005KT 2 1/2SM DZ OVC005 11/11 A2952 RMK AO2  60008 T01090109 10115 20100,52.7,50.0,500.0,,,51.62,,E,28.88,28.46,,Drizzle
KIGQ,04/03/2017 18:15 UTC,29.5,51.8,51.8,100.0,0.0,0.0,,13.0,204.0,,,72.0,143.0,,,7.0,,KIGQ 031815Z AUTO 00000KT 7SM -RA SCT007 BKN014 OVC020 11/11  A2950 RMK AO2 T01100110,,,1400.0,,,51.8,,N,28.86,28.43,,Light Rain
KIGQ,04/03/2017 18:35 UTC,29.49,51.8,51.8,100.0,6.91,80.0,,1.0,604.0,0.01,,72.0,203.0,,,3.0,,KIGQ 031835Z AUTO 08006KT 3SM RA SCT007 BKN020 OVC060 11/11  A2949 RMK AO2 P0001 T01100110,,,2000.0,,,51.8,,E,28.85,28.42,,Rain
KIGQ,04/03/2017 18:55 UTC,29.49,52.16,52.16,100.0,3.44,90.0,,13.0,704.0,0.01,,72.0,363.0,,,7.0,,KIGQ 031855Z AUTO 09003KT 7SM -RA SCT007 BKN036 OVC070 11/11  A2949 RMK AO2 P0001 T01120112,,,3600.0,,,52.16,,E,28.85,28.4,,Light Rain
KIGQ,04/03/2017 19:15 UTC,29.47,52.7,52.52,93.6,5.75,80.0,,,444.0,,,72.0,303.0,,,10.0,,KIGQ 031915Z AUTO 08005KT 10SM SCT007 BKN030 OVC044 12/11  A2947 RMK AO2 LTG DSNT SW T01150114,,,3000.0,,,50.89,,E,28.83,28.42,,Overcast
KIGQ,04/03/2017 19:35 UTC,29.45,53.06,52.7,100.0,5.75,80.0,,13.0,,,,264.0,,,,10.0,,KIGQ 031935Z AUTO 08005KT 10SM -RA OVC026 12/12 A2945 RMK AO2  T01170115,,,2600.0,,,53.06,,E,28.81,28.31,,Light Rain
KIGQ,04/03/2017 19:55 UTC,29.44,53.6,52.7,100.0,5.75,100.0,,13.0,753.0,,,262.0,472.0,,,10.0,,KIGQ 031955Z AUTO 10005KT 10SM -RA SCT026 SCT047 BKN075 12/12  A2944 RMK AO2 T01200115,,,7500.0,,,53.6,,E,28.8,28.28,,Light Rain
KIGQ,04/03/2017 20:15 UTC,29.43,53.96,52.7,100.0,5.75,100.0,,,1104.0,,,503.0,753.0,,,10.0,,KIGQ 032015Z AUTO 10005KT 10SM BKN050 BKN075 OVC110 12/12  A2943 RMK AO2 T01220115,,,5000.0,,,53.96,,E,28.79,28.25,,Overcast
KIGQ,04/03/2017 20:35 UTC,29.42,53.96,52.88,100.0,4.61,100.0,,,,,,502.0,604.0,,,10.0,,KIGQ 032035Z AUTO 10004KT 10SM SCT050 OVC060 12/12 A2942 RMK AO2  T01220116,,,6000.0,,,53.96,,E,28.78,28.24,,Overcast
KIGQ,04/03/2017 20:55 UTC,29.41,54.14,52.7,100.0,6.91,100.0,,,,,0.01,423.0,484.0,,,10.0,,KIGQ 032055Z AUTO 10006KT 10SM BKN042 OVC048 12/12 A2941 RMK AO2  60001 T01230115,,,4200.0,,,54.14,,E,28.77,28.22,,Overcast
KIGQ,04/03/2017 21:15 UTC,29.4,54.32,53.06,100.0,4.61,100.0,,13.0,504.0,,,252.0,433.0,,,10.0,,KIGQ 032115Z AUTO 10004KT 10SM -RA SCT025 BKN043 OVC050 12/12  A2940 RMK AO2 LTG DSNT S T01240117,,,4300.0,,,54.32,,E,28.76,28.2,,Light Rain
KIGQ,04/03/2017 21:35 UTC,29.39,54.5,53.42,93.65,4.61,90.0,,17.0,504.0,,,352.0,483.0,,,10.0,,KIGQ 032135Z AUTO 09004KT 10SM -DZ SCT035 BKN048 OVC050 13/12  A2939 RMK AO2 LTG DSNT S AND SW T01250119,,,4800.0,,,52.69,,E,28.75,28.25,,Light Drizzle
KIGQ,04/03/2017 21:55 UTC,29.39,54.5,53.6,93.65,3.44,90.0,,,704.0,,,372.0,603.0,,,7.0,,KIGQ 032155Z AUTO 09003KT 7SM VCTSRA SCT037 BKN060 OVC070 13/12  A2939 RMK AO2 LTG DSNT S T01250120,,,6000.0,,,52.69,,E,28.75,28.25,,Overcast
KIGQ,04/03/2017 22:15 UTC,29.39,54.5,53.78,93.65,0.0,0.0,,,954.0,,,363.0,463.0,,,10.0,,KIGQ 032215Z AUTO 00000KT 10SM BKN036 BKN046 OVC095 13/12  A2939 RMK AO2 T01250121,,,3600.0,,,52.69,,N,28.75,28.25,,Overcast
KIGQ,04/03/2017 22:35 UTC,29.39,54.14,53.96,100.0,0.0,0.0,,14.0,364.0,0.03,,223.0,283.0,,,2.0,,KIGQ 032235Z AUTO 00000KT 2SM +RA BKN022 BKN028 OVC036 12/12  A2939 RMK AO2 P0003 T01230122,,,2200.0,,,54.14,,N,28.75,28.2,,Heavy Rain
KIGQ,04/03/2017 22:55 UTC,29.38,53.6,53.6,100.0,3.44,90.0,,14.0,604.0,0.09,,142.0,223.0,,,2.5,,KIGQ 032255Z AUTO 09003KT 2 1/2SM +RA SCT014 BKN022 OVC060 12/12  A2938 RMK AO2 P0009 T01200120,,,2200.0,,,53.6,,E,28.74,28.22,,Heavy Rain
KIGQ,04/03/2017 23:15 UTC,29.36,54.14,54.14,100.0,8.05,140.0,,1.0,854.0,0.06,,152.0,503.0,,,1.25,,KIGQ 032315Z AUTO 14007KT 1 1/4SM RA SCT015 BKN050 OVC085 12/12  A2936 RMK AO2 P0006 T01230123,,,5000.0,,,54.14,,SE,28.72,28.17,,Rain
KIGQ,04/03/2017 23:35 UTC,29.36,55.94,55.94,100.0,13.8,180.0,18.41,13.0,904.0,0.08,,262.0,853.0,,,7.0,,KIGQ 032335Z AUTO 18012G16KT 7SM -RA SCT026 BKN085 OVC090 13/13  A2936 RMK AO2 P0008 T01330133,,,8500.0,,,55.94,,S,28.72,28.07,,Light Rain
KIGQ,04/03/2017 23:55 UTC,29.33,57.2,57.2,100.0,12.66,160.0,,13.0,1004.0,,,282.0,803.0,,,10.0,,KIGQ 032355Z AUTO 16011KT 10SM -RA SCT028 BKN080 OVC100 14/14  A2933,,,8000.0,,,57.2,,SSE,28.69,27.97,,Light Rain
KIGQ,04/04/2017 00:15 UTC,29.29,56.84,56.84,100.0,13.8,120.0,,13.0,,,,803.0,1104.0,,,10.0,,KIGQ 040015Z AUTO 12012KT 10SM -RA BKN080 OVC110 14/14 A2929 RMK AO2 T01380138,,,8000.0,,,56.84,,ESE,28.65,27.95,,Light Rain
KIGQ,04/04/2017 00:35 UTC,29.31,56.48,56.48,100.0,10.36,180.0,,,1203.0,,,72.0,1003.0,,,10.0,,KIGQ 040035Z AUTO 18009KT 10SM SCT007 BKN100 BKN120 14/14  A2931 RMK AO2 LTG DSNT S T01360136,,,10000.0,,,56.48,,S,28.67,27.99,,Mostly Cloudy
KIGQ,04/04/2017 00:55 UTC,29.33,56.48,56.48,100.0,9.22,220.0,,,373.0,,,73.0,113.0,,,10.0,,KIGQ 040055Z AUTO 22008KT 10SM BKN007 BKN011 BKN037 14/14  A2933 RMK AO2 T01360136,,,700.0,,,56.48,,SW,28.69,28.01,,Mostly Cloudy
KIGQ,04/04/2017 01:15 UTC,29.33,56.84,56.84,100.0,8.05,220.0,,,,,,74.0,,,,10.0,,KIGQ 040115Z AUTO 22007KT 10SM OVC007 14/14 A2933 RMK AO2 LTG DSNT  S T01380138,,,700.0,,,56.84,,SW,28.69,27.99,,Overcast
KIGQ,04/04/2017 01:35 UTC,29.32,56.48,56.48,100.0,11.5,170.0,16.11,,413.0,,,73.0,123.0,,,10.0,,KIGQ 040135Z AUTO 17010G14KT 10SM BKN007 BKN012 BKN041 14/14  A2932 RMK AO2 T01360136,,,700.0,,,56.48,,S,28.68,28.0,,Mostly Cloudy
KIGQ,04/04/2017 01:55 UTC,29.34,56.66,56.66,100.0,4.61,250.0,,,,,,73.0,123.0,,,10.0,,KIGQ 040155Z AUTO 25004KT 10SM BKN007 BKN012 14/14 A2934 RMK AO2  T01370137,,,700.0,,,56.66,,WSW,28.7,28.01,,Mostly Cloudy
KIGQ,04/04/2017 02:15 UTC,29.34,56.66,56.66,100.0,5.75,220.0,,,,,,74.0,,,,10.0,,KIGQ 040215Z AUTO 22005KT 10SM OVC007 14/14 A2934 RMK AO2  T01370137,,,700.0,,,56.66,,SW,28.7,28.01,,Overcast
KIGQ,04/04/2017 02:35 UTC,29.35,57.2,57.2,100.0,8.05,230.0,,,,,,74.0,,,,10.0,,KIGQ 040235Z AUTO 23007KT 10SM OVC007 14/14 A2935 RMK AO2  T01400140,,,700.0,,,57.2,,SW,28.71,27.99,,Overcast
KIGQ,04/04/2017 02:55 UTC,29.35,56.48,56.3,100.0,12.66,260.0,18.41,,,,,74.0,,,,10.0,,KIGQ 040255Z AUTO 26011G16KT 10SM OVC007 14/14 A2935 RMK AO2  T01360135,,,700.0,,,56.48,,W,28.71,28.03,,Overcast
KIGQ,04/04/2017 03:15 UTC,29.35,51.62,51.08,100.0,9.22,340.0,,31.0,,,,74.0,,,,4.0,,KIGQ 040315Z AUTO 34008KT 4SM BR OVC007 11/11 A2935 RMK AO2  T01090106,,,700.0,,,51.62,,NNW,28.71,28.28,,Mist
KIGQ,04/04/2017 03:35 UTC,29.36,50.0,50.0,100.0,3.44,290.0,,31.0,,,,74.0,,,,3.0,,KIGQ 040335Z AUTO 29003KT 3SM BR OVC007 10/10 A2936 RMK AO2  T01000100,,,700.0,,,50.0,,WNW,28.72,28.37,,Mist
KIGQ,04/04/2017 03:55 UTC,29.36,49.1,49.1,100.0,10.36,310.0,,31.0,,,,54.0,,,,2.0,,KIGQ 040355Z AUTO 31009KT 2SM BR OVC005 10/10 A2936 RMK AO2  T00950095,,,500.0,,,49.1,,NW,28.72,28.41,,Mist
KIGQ,04/04/2017 04:15 UTC,29.37,47.3,47.3,100.0,8.05,310.0,,31.0,,,,34.0,,,,1.0,,KIGQ 040415Z AUTO 31007KT 1SM BR OVC003 09/09 A2937 RMK AO2  T00850085,,,300.0,,,47.3,,NW,28.73,28.49,,Mist
KIGQ,04/04/2017 04:35 UTC,29.37,46.76,46.76,100.0,9.22,290.0,,31.0,,,,34.0,,,,1.0,,KIGQ 040435Z AUTO 29008KT 1SM BR OVC003 08/08 A2937 RMK AO2  T00820082,,,300.0,,,46.76,,WNW,28.73,28.51,,Mist
KIGQ,04/04/2017 04:55 UTC,29.37,46.58,46.58,100.0,9.22,290.0,,31.0,,,,34.0,,,,2.5,,KIGQ 040455Z AUTO 29008KT 2 1/2SM BR OVC003 08/08 A2937 RMK AO2  T00810081,,,300.0,,,46.58,,WNW,28.73,28.52,,Mist
KIGQ,04/04/2017 05:15 UTC,29.38,46.58,46.58,100.0,9.22,280.0,,31.0,,,,34.0,,,,5.0,,KIGQ 040515Z AUTO 28008KT 5SM BR OVC003 08/08 A2938 RMK AO2  T00810081,,,300.0,,,46.58,,W,28.74,28.53,,Mist
KIGQ,04/04/2017 05:35 UTC,29.39,46.76,46.76,100.0,5.75,290.0,,31.0,,,,34.0,,,,3.0,,KIGQ 040535Z AUTO 29005KT 3SM BR OVC003 08/08 A2939 RMK AO2  T00820082,,,300.0,,,46.76,,WNW,28.75,28.53,,Mist
KIGQ,04/04/2017 05:55 UTC,29.39,46.4,46.4,100.0,9.22,280.0,,,,,,54.0,,,,7.0,,KIGQ 040555Z AUTO 28008KT 7SM OVC005 08/08 A2939 RMK AO2 T00800080  10140 20080 401400080,57.2,46.4,500.0,57.2,46.4,46.4,,W,28.75,28.55,,Overcast
KIGQ,04/04/2017 06:15 UTC,29.41,46.04,46.04,100.0,10.36,290.0,,31.0,,,,54.0,,,,5.0,,KIGQ 040615Z AUTO 29009KT 5SM BR OVC005 08/08 A2941 RMK AO2  T00780078,,,500.0,,,46.04,,WNW,28.77,28.58,,Mist
KIGQ,04/04/2017 06:35 UTC,29.41,45.68,45.68,100.0,8.05,280.0,,31.0,,,,54.0,,,,4.0,,KIGQ 040635Z AUTO 28007KT 4SM BR OVC005 08/08 A2941 RMK AO2  T00760076,,,500.0,,,45.68,,W,28.77,28.59,,Mist
KIGQ,04/04/2017 06:55 UTC,29.42,45.86,45.86,100.0,9.22,280.0,16.11,17.0,,,,54.0,,,,5.0,,KIGQ 040655Z AUTO 28008G14KT 5SM -DZ OVC005 08/08 A2942 RMK AO2  T00770077,,,500.0,,,45.86,,W,28.78,28.6,,Light Drizzle
KIGQ,04/04/2017 07:15 UTC,29.43,46.04,46.04,100.0,10.36,280.0,16.11,,,,,54.0,,,,7.0,,KIGQ 040715Z AUTO 28009G14KT 7SM OVC005 08/08 A2943 RMK AO2  T00780078,,,500.0,,,46.04,,W,28.79,28.6,,Overcast
KIGQ,04/04/2017 07:35 UTC,29.43,46.4,46.4,100.0,10.36,290.0,,,,,,74.0,,,,10.0,,KIGQ 040735Z AUTO 29009KT 10SM OVC007 08/08 A2943 RMK AO2  T00800080,,,700.0,,,46.4,,WNW,28.79,28.59,,Overcast
KIGQ,04/04/2017 07:55 UTC,29.43,46.76,46.4,100.0,9.22,300.0,,,,,,94.0,,,,10.0,,KIGQ 040755Z AUTO 30008KT 10SM OVC009 08/08 A2943 RMK AO2  T00820080,,,900.0,,,46.76,,WNW,28.79,28.57,,Overcast
KIGQ,04/04/2017 08:15 UTC,29.45,46.76,46.04,100.0,10.36,290.0,17.27,,,,,94.0,,,,10.0,,KIGQ 040815Z AUTO 29009G15KT 10SM OVC009 08/08 A2945 RMK AO2  T00820078,,,900.0,,,46.76,,WNW,28.81,28.59,,Overcast
KIGQ,04/04/2017 08:35 UTC,29.46,46.76,45.86,100.0,10.36,300.0,,,,,,94.0,,,,10.0,,KIGQ 040835Z AUTO 30009KT 10SM OVC009 08/08 A2946 RMK AO2  T00820077,,,900.0,,,46.76,,WNW,28.82,28.6,,Overcast
KIGQ,04/04/2017 08:55 UTC,29.46,46.76,45.86,100.0,9.22,280.0,,,,,,94.0,,,,10.0,,KIGQ 040855Z AUTO 28008KT 10SM OVC009 08/08 A2946 RMK AO2  T00820077,,,900.0,,,46.76,,W,28.82,28.6,,Overcast
KIGQ,04/04/2017 09:15 UTC,29.47,46.76,45.68,100.0,12.66,290.0,17.27,,,,,94.0,,,,10.0,,KIGQ 040915Z AUTO 29011G15KT 10SM OVC009 08/08 A2947 RMK AO2  T00820076,,,900.0,,,46.76,,WNW,28.83,28.61,,Overcast
KIGQ,04/04/2017 09:35 UTC,29.48,46.94,45.68,100.0,11.5,280.0,17.27,,,,,94.0,,,,10.0,,KIGQ 040935Z AUTO 28010G15KT 10SM OVC009 08/08 A2948 RMK AO2  T00830076,,,900.0,,,46.94,,W,28.84,28.62,,Overcast
KIGQ,04/04/2017 09:55 UTC,29.49,46.94,45.68,100.0,10.36,280.0,16.11,,,,,94.0,,,,10.0,,KIGQ 040955Z AUTO 28009G14KT 10SM OVC009 08/08 A2949 RMK AO2  T00830076,,,900.0,,,46.94,,W,28.85,28.63,,Overcast
KIGQ,04/04/2017 10:15 UTC,29.5,46.76,45.5,100.0,11.5,280.0,,,,,,114.0,,,,10.0,,KIGQ 041015Z AUTO 28010KT 10SM OVC011 08/08 A2950 RMK AO2  T00820075,,,1100.0,,,46.76,,W,28.86,28.64,,Overcast
KIGQ,04/04/2017 10:35 UTC,29.51,46.76,45.5,100.0,12.66,280.0,17.27,,,,,113.0,174.0,,,10.0,,KIGQ 041035Z AUTO 28011G15KT 10SM BKN011 OVC017 08/08 A2951 RMK AO2 T00820075,,,1100.0,,,46.76,,W,28.87,28.65,,Overcast
KIGQ,04/04/2017 10:55 UTC,29.53,46.76,45.5,100.0,11.5,280.0,17.27,,,,,144.0,,,,10.0,,KIGQ 041055Z AUTO 28010G15KT 10SM OVC014 08/08 A2953 RMK AO2  T00820075,,,1400.0,,,46.76,,W,28.89,28.67,,Overcast
KIGQ,04/04/2017 11:15 UTC,29.55,46.94,45.5,100.0,10.36,280.0,,,,,,124.0,,,,10.0,,KIGQ 041115Z AUTO 28009KT 10SM OVC012 08/08 A2955 RMK AO2  T00830075,,,1200.0,,,46.94,,W,28.91,28.69,,Overcast
KIGQ,04/04/2017 11:35 UTC,29.56,46.76,45.32,93.4,12.66,280.0,17.27,,,,,124.0,,,,10.0,,KIGQ 041135Z AUTO 28011G15KT 10SM OVC012 08/07 A2956 RMK AO2  T00820074,,,1200.0,,,44.93,,W,28.92,28.76,,Overcast
KIGQ,04/04/2017 11:55 UTC,29.56,46.58,45.14,93.4,9.22,300.0,,,,,,124.0,,,0.27,10.0,,KIGQ 041155Z AUTO 30008KT 10SM OVC012 08/07 A2956 RMK AO2 70027  T00810073 10083 20076,46.94,45.68,1200.0,,,44.76,,WNW,28.92,28.76,,Overcast
KIGQ,04/04/2017 12:15 UTC,29.57,46.76,44.96,93.4,9.22,290.0,,,504.0,,,123.0,383.0,,,10.0,,KIGQ 041215Z AUTO 29008KT 10SM BKN012 BKN038 OVC050 08/07  A2957 RMK AO2 T00820072,,,1200.0,,,44.93,,WNW,28.93,28.77,,Overcast
KIGQ,04/04/2017 12:35 UTC,29.58,46.94,45.32,93.4,8.05,290.0,,,,,,123.0,424.0,,,10.0,,KIGQ 041235Z AUTO 29007KT 10SM BKN012 OVC042 08/07 A2958 RMK AO2  T00830074,,,1200.0,,,45.11,,WNW,28.94,28.77,,Overcast
KIGQ,04/04/2017 12:55 UTC,29.61,46.94,45.14,93.4,11.5,270.0,18.41,,,,,123.0,414.0,,,10.0,,KIGQ 041255Z AUTO 27010G16KT 10SM BKN012 OVC041 08/07 A2961 RMK AO2 T00830073,,,1200.0,,,45.11,,W,28.97,28.8,,Overcast
KIGQ,04/04/2017 13:15 UTC,29.62,46.94,45.14,93.4,11.5,280.0,,,,,,123.0,384.0,,,10.0,,KIGQ 041315Z AUTO 28010KT 10SM BKN012 OVC038 08/07 A2962 RMK AO2  T00830073,,,1200.0,,,45.11,,W,28.98,28.81,,Overcast
KIGQ,04/04/2017 13:35 UTC,29.63,47.3,45.14,87.28,9.22,280.0,,,,,,123.0,364.0,,,10.0,,KIGQ 041335Z AUTO 28008KT 10SM BKN012 OVC036 09/07 A2963 RMK AO2  T00850073,,,1200.0,,,43.67,,W,28.99,28.86,,Overcast
KIGQ,04/04/2017 13:55 UTC,29.63,47.48,45.5,93.45,8.05,290.0,,,,,,123.0,344.0,,,10.0,,KIGQ 041355Z AUTO 29007KT 10SM BKN012 OVC034 09/08 A2963 RMK AO2  T00860075,,,1200.0,,,45.66,,WNW,28.99,28.8,,Overcast
KIGQ,04/04/2017 14:15 UTC,29.63,47.66,45.32,87.28,8.05,300.0,,,,,,122.0,324.0,,,10.0,,KIGQ 041415Z AUTO 30007KT 10SM SCT012 OVC032 09/07 A2963 RMK AO2  T00870074,,,3200.0,,,44.02,,WNW,28.99,28.84,,Overcast
KIGQ,04/04/2017 14:35 UTC,29.65,47.66,45.14,87.28,8.05,290.0,,,,,,142.0,324.0,,,10.0,,KIGQ 041435Z AUTO 29007KT 10SM SCT014 OVC032 09/07 A2965 RMK AO2  T00870073,,,3200.0,,,44.02,,WNW,29.01,28.87,,Overcast
KIGQ,04/04/2017 14:55 UTC,29.66,47.66,44.96,87.28,9.22,290.0,,,,,,144.0,,,,10.0,,KIGQ 041455Z AUTO 29008KT 10SM OVC014 09/07 A2966 RMK AO2  T00870072,,,1400.0,,,44.02,,WNW,29.02,28.88,,Overcast
KIGQ,04/04/2017 15:15 UTC,29.68,47.66,44.96,87.28,8.05,290.0,,,,,,144.0,,,,10.0,,KIGQ 041515Z AUTO 29007KT 10SM OVC014 09/07 A2968 RMK AO2  T00870072,,,1400.0,,,44.02,,WNW,29.03,28.89,,Overcast
KIGQ,04/04/2017 15:35 UTC,29.7,46.76,46.04,100.0,8.05,310.0,,18.0,,,,144.0,,,,2.0,,KIGQ 041535Z AUTO 31007KT 2SM +DZ OVC014 08/08 A2970 RMK AO2  T00820078,,,1400.0,,,46.76,,NW,29.05,28.84,,Heavy Drizzle
KIGQ,04/04/2017 15:55 UTC,29.71,46.58,46.58,100.0,6.91,290.0,,18.0,,,,74.0,,,,1.5,,KIGQ 041555Z AUTO 29006KT 1 1/2SM +DZ OVC007 08/08 A2971 RMK AO2  T00810081,,,700.0,,,46.58,,WNW,29.06,28.85,,Heavy Drizzle
KIGQ,04/04/2017 16:15 UTC,29.73,46.76,46.76,100.0,4.61,290.0,,18.0,,,,54.0,,,,1.75,,KIGQ 041615Z AUTO 29004KT 1 3/4SM +DZ OVC005 08/08 A2973 RMK AO2  T00820082,,,500.0,,,46.76,,WNW,29.08,28.87,,Heavy Drizzle
KIGQ,04/04/2017 16:35 UTC,29.74,47.3,47.3,100.0,8.05,300.0,,1.0,154.0,,,53.0,93.0,,,2.5,,KIGQ 041635Z AUTO 30007KT 2 1/2SM RA BKN005 BKN009 OVC015 09/09  A2974 RMK AO2 T00850085,,,500.0,,,47.3,,WNW,29.09,28.86,,Rain
KIGQ,04/04/2017 16:55 UTC,29.75,47.3,47.12,93.45,5.75,290.0,,13.0,,,,73.0,114.0,,,5.0,,KIGQ 041655Z AUTO 29005KT 5SM -RA BKN007 OVC011 09/08 A2975 RMK AO2 T00850084,,,700.0,,,45.48,,WNW,29.1,28.92,,Light Rain
KIGQ,04/04/2017 17:15 UTC,29.76,48.2,47.48,100.0,6.91,300.0,,,,,,73.0,274.0,,,10.0,,KIGQ 041715Z AUTO 30006KT 10SM BKN007 OVC027 09/09 A2976 RMK AO2  T00900086,,,700.0,,,48.2,,WNW,29.11,28.84,,Overcast
KIGQ,04/04/2017 17:35 UTC,29.76,48.38,46.76,93.45,4.61,310.0,,,244.0,,,72.0,172.0,,,10.0,,KIGQ 041735Z AUTO 31004KT 10SM SCT007 SCT017 OVC024 09/08  A2976 RMK AO2 T00910082,,,2400.0,,,46.56,,NW,29.11,28.89,,Overcast
KIGQ,04/04/2017 17:55 UTC,29.77,47.66,44.24,87.28,0.0,0.0,,,,,,143.0,224.0,,,10.0,,KIGQ 041755Z AUTO 00000KT 10SM BKN014 OVC022 09/07 A2977 RMK AO2  T00870068 10091 20080,48.38,46.4,1400.0,,,44.02,,N,29.12,28.98,,Overcast
KIGQ,04/04/2017 18:15 UTC,29.79,47.3,43.52,81.48,5.75,20.0,,,,,,122.0,244.0,,,10.0,,KIGQ 041815Z AUTO 02005KT 10SM SCT012 OVC024 09/06 A2979 RMK AO2  T00850064,,,2400.0,,,41.86,,NNE,29.14,29.06,,Overcast
KIGQ,04/04/2017 18:35 UTC,29.8,46.94,42.98,87.19,6.91,10.0,,,,,,244.0,,,,10.0,,KIGQ 041835Z AUTO 01006KT 10SM OVC024 08/06 A2980 RMK AO2  T00830061,,,2400.0,,,43.29,,N,29.15,29.03,,Overcast
KIGQ,04/04/2017 18:55 UTC,29.81,47.12,42.44,87.19,5.75,10.0,,,,,,224.0,,,,10.0,,KIGQ 041855Z AUTO 01005KT 10SM OVC022 08/06 A2981 RMK AO2  T00840058,,,2200.0,,,43.46,,N,29.16,29.04,,Overcast
KIGQ,04/04/2017 19:15 UTC,29.81,48.02,42.98,81.48,3.44,30.0,,,,,,264.0,,,,10.0,,KIGQ 041915Z AUTO 03003KT 10SM OVC026 09/06 A2981 RMK AO2  T00890061,,,2600.0,,,42.56,,NNE,29.16,29.05,,Overcast
KIGQ,04/04/2017 19:35 UTC,29.81,49.1,43.88,81.61,4.61,30.0,,,,,,264.0,,,,10.0,,KIGQ 041935Z AUTO 03004KT 10SM OVC026 10/07 A2981 RMK AO2  T00950066,,,2600.0,,,43.66,,NNE,29.16,29.02,,Overcast
KIGQ,04/04/2017 19:55 UTC,29.81,50.9,44.96,76.35,3.44,360.0,,,403.0,,,262.0,332.0,,,10.0,,KIGQ 041955Z AUTO 36003KT 10SM SCT026 SCT033 BKN040 11/07  A2981 RMK AO2 T01050072,,,4000.0,,,43.65,,N,29.16,29.0,,Mostly Cloudy
KIGQ,04/04/2017 20:15 UTC,29.81,52.34,45.5,81.75,0.0,0.0,,,,,,222.0,402.0,,,10.0,,KIGQ 042015Z AUTO 00000KT 10SM SCT022 SCT040 11/08 A2981 RMK AO2  T01130075,,,,,,46.87,,N,29.16,28.89,,Partly Cloudy
KIGQ,04/04/2017 20:35 UTC,29.81,51.98,44.78,76.35,4.61,40.0,,,,,,242.0,402.0,,,10.0,,KIGQ 042035Z AUTO 04004KT 10SM SCT024 SCT040 11/07 A2981 RMK AO2  T01110071,,,,,,44.7,,NE,29.16,28.96,,Partly Cloudy
KIGQ,04/04/2017 20:55 UTC,29.82,51.98,44.6,76.35,0.0,0.0,,,403.0,,,283.0,333.0,,,10.0,,KIGQ 042055Z AUTO 00000KT 10SM BKN028 BKN033 BKN040 11/07  A2982 RMK AO2 T01110070,,,2800.0,,,44.7,,N,29.17,28.97,,Mostly Cloudy
KIGQ,04/04/2017 21:15 UTC,29.84,50.9,44.06,76.35,5.75,60.0,,,,,,283.0,354.0,,,10.0,,KIGQ 042115Z AUTO 06005KT 10SM BKN028 OVC035 11/07 A2984 RMK AO2  T01050067,,,2800.0,,,43.65,,ENE,29.19,29.03,,Overcast
KIGQ,04/04/2017 21:35 UTC,29.85,50.72,43.88,81.61,8.05,70.0,,,434.0,,,283.0,353.0,,,10.0,,KIGQ 042135Z AUTO 07007KT 10SM BKN028 BKN035 OVC043 10/07  A2985 RMK AO2 T01040066,,,2800.0,,,45.24,,ENE,29.2,29.0,,Overcast
KIGQ,04/04/2017 21:55 UTC,29.86,50.18,42.98,76.18,9.22,50.0,,,434.0,,,282.0,353.0,,,10.0,,KIGQ 042155Z AUTO 05008KT 10SM SCT028 BKN035 OVC043 10/06  A2986 RMK AO2 T01010061,,,3500.0,,,42.89,,NE,29.21,29.08,,Overcast
KIGQ,04/04/2017 22:15 UTC,29.86,49.46,42.8,76.18,10.36,70.0,,,,,,352.0,453.0,,,10.0,,KIGQ 042215Z AUTO 07009KT 10SM SCT035 BKN045 10/06 A2986 RMK AO2  T00970060,,,4500.0,,,42.19,,ENE,29.21,29.1,,Mostly Cloudy
KIGQ,04/04/2017 22:35 UTC,29.87,49.1,42.8,76.18,5.75,70.0,,,,,,473.0,,,,10.0,,KIGQ 042235Z AUTO 07005KT 10SM BKN047 10/06 A2987 RMK AO2  T00950060,,,4700.0,,,41.84,,ENE,29.22,29.12,,Mostly Cloudy
KIGQ,04/04/2017 22:55 UTC,29.87,49.1,42.26,76.18,5.75,60.0,,,,,,494.0,,,,10.0,,KIGQ 042255Z AUTO 06005KT 10SM OVC049 10/06 A2987 RMK AO2  T00950057,,,4900.0,,,41.84,,ENE,29.22,29.12,,Overcast
KIGQ,04/04/2017 23:15 UTC,29.89,49.1,42.08,76.18,6.91,60.0,,,,,,494.0,,,,10.0,,KIGQ 042315Z AUTO 06006KT 10SM OVC049 10/06 A2989 RMK AO2  T00950056,,,4900.0,,,41.84,,ENE,29.24,29.14,,Overcast
KIGQ,04/04/2017 23:35 UTC,29.9,48.56,41.54,76.02,4.61,40.0,,,,,,373.0,494.0,,,10.0,,KIGQ 042335Z AUTO 04004KT 10SM BKN037 OVC049 09/05 A2990 RMK AO2  T00920053,,,3700.0,,,41.27,,NE,29.25,29.17,,Overcast
KIGQ,04/04/2017 23:55 UTC,29.91,48.2,41.0,76.02,4.61,90.0,,,,,,354.0,,,,10.0,,KIGQ 042355Z AUTO 09004KT 10SM OVC035 09/05 A2991,,,3500.0,,,40.92,,E,29.26,29.2,,Overcast
KIGQ,04/05/2017 00:15 UTC,29.92,48.38,41.54,76.02,0.0,0.0,,,,,,334.0,,,,10.0,,KIGQ 050015Z AUTO 00000KT 10SM OVC033 09/05 A2992 RMK AO2  T00910053,,,3300.0,,,41.09,,N,29.27,29.2,,Overcast
KIGQ,04/05/2017 00:35 UTC,29.93,48.38,42.44,81.48,3.44,80.0,,,,,,334.0,,,,10.0,,KIGQ 050035Z AUTO 08003KT 10SM OVC033 09/06 A2993 RMK AO2  T00910058,,,3300.0,,,42.91,,E,29.28,29.16,,Overcast
KIGQ,04/05/2017 00:55 UTC,29.93,48.38,42.08,81.48,0.0,0.0,,,,,,372.0,504.0,,,10.0,,KIGQ 050055Z AUTO 00000KT 10SM SCT037 OVC050 09/06 A2993 RMK AO2  T00910056,,,5000.0,,,42.91,,N,29.28,29.16,,Overcast
KIGQ,04/05/2017 01:15 UTC,29.93,48.38,41.72,76.02,0.0,0.0,,,,,,484.0,,,,10.0,,KIGQ 050115Z AUTO 00000KT 10SM OVC048 09/05 A2993 RMK AO2  T00910054,,,4800.0,,,41.09,,N,29.28,29.21,,Overcast
KIGQ,04/05/2017 01:35 UTC,29.93,48.2,41.0,76.02,3.44,90.0,,,,,,483.0,,,,10.0,,KIGQ 050135Z AUTO 09003KT 10SM BKN048 09/05 A2993 RMK AO2  T00900050,,,4800.0,,,40.92,,E,29.28,29.22,,Mostly Cloudy
KIGQ,04/05/2017 01:55 UTC,29.93,47.12,41.0,81.34,4.61,80.0,,,,,,1.0,,,,10.0,,KIGQ 050155Z AUTO 08004KT 10SM CLR 08/05 A2993 RMK AO2  T00840050,,,,,,41.64,,E,29.28,29.21,,Clear
KIGQ,04/05/2017 02:15 UTC,29.93,46.76,40.82,81.34,4.61,80.0,,,,,,1.0,,,,10.0,,KIGQ 050215Z AUTO 08004KT 10SM CLR 08/05 A2993 RMK AO2  T00820049,,,,,,41.28,,E,29.28,29.22,,Clear
KIGQ,04/05/2017 02:35 UTC,29.94,45.86,40.82,81.34,4.61,100.0,,,,,,1.0,,,,10.0,,KIGQ 050235Z AUTO 10004KT 10SM CLR 08/05 A2994 RMK AO2  T00770049,,,,,,40.4,,E,29.29,29.26,,Clear
KIGQ,04/05/2017 02:55 UTC,29.91,45.14,40.46,87.09,4.61,80.0,,,,,,1.0,,,,10.0,,KIGQ 050255Z AUTO 08004KT 10SM CLR 07/05 A2991 RMK AO2  T00730047,,,,,,41.48,,E,29.26,29.21,,Clear
KIGQ,04/05/2017 03:15 UTC,29.91,44.06,40.1,87.09,4.61,80.0,,,,,,1.0,,,,10.0,,KIGQ 050315Z AUTO 08004KT 10SM CLR 07/05 A2991 RMK AO2  T00670045,,,,,,40.42,,E,29.26,29.24,,Clear
KIGQ,04/05/2017 03:35 UTC,29.92,44.06,40.28,87.09,3.44,100.0,,,,,,1.0,,,,10.0,,KIGQ 050335Z AUTO 10003KT 10SM CLR 07/05 A2992 RMK AO2  T00670046,,,,,,40.42,,E,29.27,29.25,,Clear
KIGQ,04/05/2017 03:55 UTC,29.92,42.62,40.28,93.3,0.0,0.0,,,,,,1.0,,,,10.0,,KIGQ 050355Z AUTO 00000KT 10SM CLR 06/05 A2992 RMK AO2  T00590046,,,,,,40.8,,N,29.27,29.26,,Clear
KIGQ,04/05/2017 04:15 UTC,29.93,42.26,40.1,93.3,0.0,0.0,,,,,,1.0,,,,10.0,,KIGQ 050415Z AUTO 00000KT 10SM CLR 06/05 A2993 RMK AO2  T00570045,,,,,,40.44,,N,29.28,29.28,,Clear
KIGQ,04/05/2017 04:35 UTC,29.93,41.54,39.92,93.24,0.0,0.0,,,,,,1.0,,,,10.0,,KIGQ 050435Z AUTO 00000KT 10SM CLR 05/04 A2993 RMK AO2  T00530044,,,,,,39.71,,N,29.28,29.3,,Clear
KIGQ,04/05/2017 04:55 UTC,29.92,42.62,40.1,93.3,0.0,0.0,,,,,,1.0,,,,10.0,,KIGQ 050455Z AUTO 00000KT 10SM CLR 06/05 A2992 RMK AO2  T00590045,,,,,,40.8,,N,29.27,29.26,,Clear
KIGQ,04/05/2017 05:15 UTC,29.93,42.8,40.64,93.3,0.0,0.0,,,,,,1.0,,,,10.0,,KIGQ 050515Z AUTO 00000KT 10SM CLR 06/05 A2993 RMK AO2  T00600048,,,,,,40.98,,N,29.28,29.26,,Clear
KIGQ,04/05/2017 05:35 UTC,29.92,43.34,40.64,93.3,0.0,0.0,,,,,,1.0,,,,10.0,,KIGQ 050535Z AUTO 00000KT 10SM CLR 06/05 A2992 RMK AO2  T00630048,,,,,,41.51,,N,29.27,29.23,,Clear
KIGQ,04/05/2017 05:55 UTC,29.91,43.7,41.0,87.09,3.44,70.0,,,,,,1.0,,,,10.0,,KIGQ 050555Z AUTO 07003KT 10SM CLR 07/05 A2991 RMK AO2 T00650050  10092 20053 401140053,48.56,41.54,,52.52,41.54,40.07,,ENE,29.26,29.25,,Clear
KIGQ,04/05/2017 06:15 UTC,29.91,43.88,41.0,87.09,3.44,60.0,,,,,,1.0,,,,10.0,,KIGQ 050615Z AUTO 06003KT 10SM CLR 07/05 A2991 RMK AO2  T00660050,,,,,,40.24,,ENE,29.26,29.25,,Clear
KIGQ,04/05/2017 06:35 UTC,29.91,43.88,41.18,87.09,4.61,60.0,,,,,,1.0,,,,10.0,,KIGQ 050635Z AUTO 06004KT 10SM CLR 07/05 A2991 RMK AO2  T00660051,,,,,,40.24,,ENE,29.26,29.25,,Clear
KIGQ,04/05/2017 06:55 UTC,29.92,44.6,41.36,87.09,3.44,20.0,,,,,,1.0,,,,10.0,,KIGQ 050655Z AUTO 02003KT 10SM CLR 07/05 A2992 RMK AO2  T00700052,,,,,,40.95,,NNE,29.27,29.24,,Clear
KIGQ,04/05/2017 07:15 UTC,29.93,44.6,41.18,87.09,0.0,0.0,,,,,,1103.0,,,,10.0,,KIGQ 050715Z AUTO 00000KT 10SM BKN110 07/05 A2993 RMK AO2  T00700051,,,11000.0,,,40.95,,N,29.28,29.25,,Mostly Cloudy
KIGQ,04/05/2017 07:35 UTC,29.91,44.96,41.72,87.09,5.75,60.0,,,,,,853.0,1004.0,,,10.0,,KIGQ 050735Z AUTO 06005KT 10SM BKN085 OVC100 07/05 A2991 RMK AO2  T00720054,,,8500.0,,,41.31,,ENE,29.26,29.21,,Overcast
KIGQ,04/05/2017 07:55 UTC,29.94,45.86,41.72,81.34,3.44,70.0,,,,,,753.0,854.0,,,10.0,,KIGQ 050755Z AUTO 07003KT 10SM BKN075 OVC085 08/05 A2994 RMK AO2  T00770054,,,7500.0,,,40.4,,ENE,29.29,29.26,,Overcast
KIGQ,04/05/2017 08:15 UTC,29.94,44.78,41.9,93.35,5.75,70.0,,,,,,654.0,,,,10.0,,KIGQ 050815Z AUTO 07005KT 10SM OVC065 07/06 A2994 RMK AO2  T00710055,,,6500.0,,,42.95,,ENE,29.29,29.2,,Overcast
KIGQ,04/05/2017 08:35 UTC,29.95,44.78,41.9,93.35,4.61,80.0,,,,,,754.0,,,,10.0,,KIGQ 050835Z AUTO 08004KT 10SM OVC075 07/06 A2995 RMK AO2  T00710055,,,7500.0,,,42.95,,E,29.3,29.22,,Overcast
KIGQ,04/05/2017 08:55 UTC,29.94,45.32,41.9,93.35,8.05,90.0,,,854.0,,,502.0,703.0,,,10.0,,KIGQ 050855Z AUTO 09007KT 10SM SCT050 BKN070 OVC085 07/06  A2994 RMK AO2 T00740055,,,7000.0,,,43.49,,E,29.29,29.19,,Overcast
KIGQ,04/05/2017 09:15 UTC,29.9,45.32,41.9,93.35,9.22,60.0,,,654.0,,,482.0,503.0,,,10.0,,KIGQ 050915Z AUTO 06008KT 10SM SCT048 BKN050 OVC065 07/06  A2990 RMK AO2 LTG DSNT S T00740055,,,5000.0,,,43.49,,ENE,29.25,29.15,,Overcast
KIGQ,04/05/2017 09:35 UTC,29.88,44.96,42.08,93.35,10.36,50.0,,13.0,,,,472.0,504.0,,,10.0,,KIGQ 050935Z AUTO 05009KT 10SM -RA SCT047 OVC050 07/06 A2988 RMK AO2 T00720056,,,5000.0,,,43.13,41.42,NE,29.23,29.14,,Light Rain
KIGQ,04/05/2017 09:55 UTC,29.9,44.6,41.9,93.35,6.91,60.0,,,,,,482.0,604.0,,,10.0,,KIGQ 050955Z AUTO 06006KT 10SM SCT048 OVC060 07/06 A2990 RMK AO2  T00700055,,,6000.0,,,42.78,,ENE,29.25,29.17,,Overcast
KIGQ,04/05/2017 10:15 UTC,29.88,44.42,41.9,93.35,9.22,50.0,,13.0,554.0,,,412.0,463.0,,,10.0,,KIGQ 051015Z AUTO 05008KT 10SM -RA SCT041 BKN046 OVC055 07/06  A2988 RMK AO2 T00690055,,,4600.0,,,42.6,41.19,NE,29.23,29.16,,Light Rain
KIGQ,04/05/2017 10:35 UTC,29.87,44.06,42.26,93.35,11.5,50.0,,1.0,,,,393.0,454.0,,,7.0,,KIGQ 051035Z AUTO 05010KT 7SM RA BKN039 OVC045 07/06 A2987 RMK AO2  LTG DSNT S T00670057,,,3900.0,,,42.24,39.96,NE,29.22,29.16,,Rain
KIGQ,04/05/2017 10:55 UTC,29.87,43.88,41.9,93.35,9.22,50.0,18.41,13.0,604.0,0.01,,383.0,503.0,,,10.0,,KIGQ 051055Z AUTO 05008G16KT 10SM -RA BKN038 BKN050 OVC060 07/06  A2987 RMK AO2 P0001 T00660055,,,3800.0,,,42.06,40.55,NE,29.22,29.16,,Light Rain
KIGQ,04/05/2017 11:15 UTC,29.85,43.16,41.54,93.3,12.66,40.0,,1.0,704.0,0.02,,382.0,603.0,,,10.0,,KIGQ 051115Z AUTO 04011KT 10SM RA SCT038 BKN060 OVC070 06/05  A2985 RMK AO2 LTG DSNT S P0002 T00620053,,,6000.0,,,41.33,38.5,NE,29.2,29.17,,Rain
KIGQ,04/05/2017 11:35 UTC,29.86,42.98,41.36,93.3,10.36,70.0,,13.0,,0.03,,604.0,,,,10.0,,KIGQ 051135Z AUTO 07009KT 10SM -RA OVC060 06/05 A2986 RMK AO2  P0003 T00610052,,,6000.0,,,41.15,39.05,ENE,29.21,29.18,,Light Rain
KIGQ,04/05/2017 11:55 UTC,29.86,42.98,41.72,93.3,10.36,60.0,,1.0,,0.05,,654.0,,0.06,0.06,10.0,,KIGQ 051155Z AUTO 06009KT 10SM RA OVC065 06/05 A2986 RMK AO2 P0005  60006 70006 T00610054 10077 20060,45.86,42.8,6500.0,,,41.15,39.05,ENE,29.21,29.18,,Rain
KIGQ,04/05/2017 12:15 UTC,29.87,42.98,42.08,100.0,5.75,40.0,,1.0,,0.01,,462.0,554.0,,,10.0,,KIGQ 051215Z AUTO 04005KT 10SM RA SCT046 OVC055 06/06 A2987 RMK AO2 LTG DSNT SE P0001 T00610056,,,5500.0,,,42.98,,NE,29.22,29.15,,Rain
KIGQ,04/05/2017 12:35 UTC,29.88,42.62,42.08,100.0,6.91,60.0,,1.0,554.0,0.02,,373.0,443.0,,,5.0,,KIGQ 051235Z AUTO 06006KT 5SM RA BKN037 BKN044 OVC055 06/06  A2988 RMK AO2 P0002 T00590056,,,3700.0,,,42.62,,ENE,29.23,29.17,,Rain
KIGQ,04/05/2017 12:55 UTC,29.87,42.62,42.26,100.0,5.75,60.0,,1.0,,0.07,,323.0,404.0,,,4.0,,KIGQ 051255Z AUTO 06005KT 4SM RA BKN032 OVC040 06/06 A2987 RMK AO2  P0007 T00590057,,,3200.0,,,42.62,,ENE,29.22,29.16,,Rain
KIGQ,04/05/2017 13:15 UTC,29.86,42.44,42.44,100.0,6.91,50.0,,1.0,,0.04,,324.0,,,,3.0,,KIGQ 051315Z AUTO 05006KT 3SM RA OVC032 06/06 A2986 RMK AO2 P0004  T00580058,,,3200.0,,,42.44,,NE,29.21,29.16,,Rain
KIGQ,04/05/2017 13:35 UTC,29.84,42.26,42.26,100.0,8.05,50.0,,1.0,,0.07,,323.0,434.0,,,4.0,,KIGQ 051335Z AUTO 05007KT 4SM RA BKN032 OVC043 06/06 A2984 RMK AO2  P0007 T00570057,,,3200.0,,,42.26,39.13,NE,29.19,29.14,,Rain
KIGQ,04/05/2017 13:55 UTC,29.84,42.44,42.44,100.0,9.22,70.0,,1.0,554.0,0.08,,282.0,483.0,,,4.0,,KIGQ 051355Z AUTO 07008KT 4SM RA SCT028 BKN048 OVC055 06/06  A2984 RMK AO2 P0008 T00580058,,,4800.0,,,42.44,38.84,ENE,29.19,29.14,,Rain
KIGQ,04/05/2017 14:15 UTC,29.85,42.8,42.8,100.0,5.75,70.0,,13.0,554.0,0.01,,272.0,333.0,,,5.0,,KIGQ 051415Z AUTO 07005KT 5SM -RA SCT027 BKN033 OVC055 06/06  A2985 RMK AO2 P0001 T00600060,,,3300.0,,,42.8,,ENE,29.2,29.14,,Light Rain
KIGQ,04/05/2017 14:35 UTC,29.84,42.8,42.8,100.0,5.75,50.0,,13.0,,0.02,,303.0,354.0,,,5.0,,KIGQ 051435Z AUTO 05005KT 5SM -RA BKN030 OVC035 06/06 A2984 RMK AO2 P0002 T00600060,,,3000.0,,,42.8,,NE,29.19,29.12,,Light Rain
KIGQ,04/05/2017 14:55 UTC,29.83,43.16,43.16,100.0,8.05,80.0,,1.0,484.0,0.02,0.17,323.0,413.0,,,7.0,,KIGQ 051455Z AUTO 08007KT 7SM RA BKN032 BKN041 OVC048 06/06  A2983 RMK AO2 P0002 60017 T00620062,,,3200.0,,,43.16,40.18,E,29.18,29.1,,Rain
KIGQ,04/05/2017 15:15 UTC,29.78,43.16,42.98,100.0,12.66,60.0,19.57,13.0,464.0,0.01,,312.0,382.0,,,7.0,,KIGQ 051515Z AUTO 06011G17KT 7SM -RA SCT031 SCT038 OVC046 06/06  A2978 RMK AO2 P0001 T00620061,,,4600.0,,,43.16,38.5,ENE,29.13,29.05,,Light Rain
KIGQ,04/05/2017 15:35 UTC,29.76,44.24,43.88,100.0,12.66,50.0,19.57,13.0,854.0,0.01,,82.0,403.0,,,10.0,,KIGQ 051535Z AUTO 05011G17KT 10SM -RA SCT008 BKN040 OVC085 07/07  A2976 RMK AO2 P0001 T00680066,,,4000.0,,,44.24,39.82,NE,29.11,28.99,,Light Rain
KIGQ,04/05/2017 15:55 UTC,29.74,43.88,43.52,93.35,13.8,60.0,21.85,,554.0,0.01,,83.0,343.0,,,10.0,,KIGQ 051555Z AUTO 06012G19KT 10SM BKN008 BKN034 OVC055 07/06  A2974 RMK AO2 P0001 T00660064,,,800.0,,,42.06,39.05,ENE,29.09,29.03,,Overcast
KIGQ,04/05/2017 16:15 UTC,29.75,43.7,42.62,93.35,16.11,50.0,24.16,,,,,83.0,164.0,,,10.0,,KIGQ 051615Z AUTO 05014G21KT 10SM BKN008 OVC016 07/06 A2975 RMK AO2 T00650059,,,800.0,,,41.88,38.23,NE,29.1,29.05,,Overcast
KIGQ,04/05/2017 16:35 UTC,29.73,43.52,42.26,100.0,13.8,40.0,21.85,,,,,103.0,154.0,,,10.0,,KIGQ 051635Z AUTO 04012G19KT 10SM BKN010 OVC015 06/06 A2973 RMK AO2 T00640057,,,1000.0,,,43.52,38.61,NE,29.08,28.99,,Overcast
KIGQ,04/05/2017 16:55 UTC,29.71,42.98,42.08,100.0,17.27,40.0,24.16,,,,,83.0,134.0,,,10.0,,KIGQ 051655Z AUTO 04015G21KT 10SM BKN008 OVC013 06/06 A2971 RMK AO2 T00610056,,,800.0,,,42.98,37.05,NE,29.06,28.99,,Overcast
KIGQ,04/05/2017 17:15 UTC,29.7,43.16,42.08,100.0,20.71,40.0,26.46,,,,,84.0,,,,10.0,,KIGQ 051715Z AUTO 04018G23KT 10SM OVC008 06/06 A2970 RMK AO2  T00620056,,,800.0,,,43.16,36.53,NE,29.05,28.97,,Overcast
KIGQ,04/05/2017 17:35 UTC,29.71,42.98,41.36,93.3,18.41,50.0,25.32,,,,,84.0,,,,10.0,,KIGQ 051735Z AUTO 05016G22KT 10SM OVC008 06/05 A2971 RMK AO2  T00610052,,,800.0,,,41.15,36.79,NE,29.06,29.03,,Overcast
KIGQ,04/05/2017 17:55 UTC,29.7,42.08,41.0,93.3,16.11,50.0,25.32,,,,,84.0,,0.18,,10.0,,KIGQ 051755Z AUTO 05014G22KT 10SM OVC008 06/05 A2970 RMK AO2 60018  T00560050 10070 20056,44.6,42.08,800.0,,,40.26,36.22,NE,29.05,29.05,,Overcast
KIGQ,04/05/2017 18:15 UTC,29.71,41.9,41.0,93.3,14.97,40.0,23.02,,,,,84.0,,,,10.0,,KIGQ 051815Z AUTO 04013G20KT 10SM OVC008 06/05 A2971 RMK AO2  T00550050,,,800.0,,,40.08,36.3,NE,29.06,29.06,,Overcast
KIGQ,04/05/2017 18:35 UTC,29.7,41.54,40.46,100.0,16.11,40.0,21.85,,,,,84.0,,,,10.0,,KIGQ 051835Z AUTO 04014G19KT 10SM OVC008 05/05 A2970 RMK AO2  T00530047,,,800.0,,,41.54,35.55,NE,29.05,29.02,,Overcast
KIGQ,04/05/2017 18:55 UTC,29.68,41.54,40.28,100.0,18.41,40.0,25.32,,,,,84.0,,,,10.0,,KIGQ 051855Z AUTO 04016G22KT 10SM OVC008 05/05 A2968 RMK AO2  T00530046,,,800.0,,,41.54,34.99,NE,29.03,29.0,,Overcast
KIGQ,04/05/2017 19:15 UTC,29.68,41.72,40.1,100.0,20.71,40.0,26.46,,,,,104.0,,,,10.0,,KIGQ 051915Z AUTO 04018G23KT 10SM OVC010 05/05 A2968 RMK AO2 LTG  DSNT S T00540045,,,1000.0,,,41.72,34.71,NE,29.03,29.0,,Overcast
KIGQ,04/05/2017 19:35 UTC,29.67,41.54,40.1,100.0,19.57,40.0,31.07,,,,,104.0,,,,10.0,,KIGQ 051935Z AUTO 04017G27KT 10SM OVC010 05/05 A2967 RMK AO2  T00530045,,,1000.0,,,41.54,34.73,NE,29.02,28.99,,Overcast
KIGQ,04/05/2017 19:55 UTC,29.66,41.18,40.1,100.0,26.46,40.0,32.21,,,,,103.0,134.0,,,10.0,,KIGQ 051955Z AUTO 04023G28KT 10SM BKN010 OVC013 05/05 A2966 RMK AO2 LTG DSNT E T00510045,,,1000.0,,,41.18,32.94,NE,29.02,29.0,,Overcast
KIGQ,04/05/2017 20:15 UTC,29.65,40.64,39.74,93.24,23.02,40.0,31.07,,,,,84.0,,,,10.0,,KIGQ 052015Z AUTO 04020G27KT 10SM OVC008 05/04 A2965 RMK AO2  T00480043,,,800.0,,,38.82,32.87,NE,29.01,29.05,,Overcast
KIGQ,04/05/2017 20:35 UTC,29.64,40.46,39.92,93.24,20.71,40.0,32.21,13.0,,,,84.0,,,,7.0,,KIGQ 052035Z AUTO 04018G28KT 7SM -RA OVC008 05/04 A2964 RMK AO2  T00470044,,,800.0,,,38.64,33.12,NE,29.0,29.05,,Light Rain
KIGQ,04/05/2017 20:55 UTC,29.64,40.28,40.1,100.0,19.57,40.0,31.07,1.0,,,,84.0,,,,5.0,,KIGQ 052055Z AUTO 04017G27KT 5SM RA OVC008 05/05 A2964 RMK AO2 LTG  DSNT E T00460045,,,800.0,,,40.28,33.14,NE,29.0,29.01,,Rain
KIGQ,04/05/2017 21:15 UTC,29.64,40.1,40.1,100.0,19.57,40.0,33.38,13.0,,,,64.0,,,,4.0,,KIGQ 052115Z AUTO 04017G29KT 4SM -RA OVC006 05/05 A2964 RMK AO2  T00450045,,,600.0,,,40.1,32.91,NE,29.0,29.02,,Light Rain
KIGQ,04/05/2017 21:35 UTC,29.63,40.1,39.74,93.24,19.57,40.0,35.68,13.0,,,,64.0,,,,2.5,,KIGQ 052135Z AUTO 04017G31KT 2 1/2SM -RA OVC006 05/04 A2963 RMK AO2 T00450043,,,600.0,,,38.28,32.91,NE,28.99,29.05,,Light Rain
KIGQ,04/05/2017 21:55 UTC,29.63,40.1,40.1,100.0,19.57,30.0,36.82,13.0,,,,64.0,,,,2.5,,KIGQ 052155Z AUTO 03017G32KT 2 1/2SM -RA OVC006 05/05 A2963 RMK AO2 T00450045,,,600.0,,,40.1,32.91,NNE,28.99,29.01,,Light Rain
KIGQ,04/05/2017 22:15 UTC,29.63,40.1,40.1,100.0,18.41,20.0,28.77,13.0,,,,64.0,,,,2.0,,KIGQ 052215Z AUTO 02016G25KT 2SM -RA OVC006 05/05 A2963 RMK AO2  T00450045,,,600.0,,,40.1,33.18,NNE,28.99,29.01,,Light Rain
KIGQ,04/05/2017 22:35 UTC,29.65,39.74,39.74,100.0,17.27,20.0,29.93,1.0,,0.01,,64.0,,,,2.0,,KIGQ 052235Z AUTO 02015G26KT 2SM RA OVC006 04/04 A2965 RMK AO2  P0001 T00430043,,,600.0,,,39.74,33.01,NNE,29.01,29.04,,Rain
KIGQ,04/05/2017 22:55 UTC,29.63,39.56,39.56,100.0,18.41,20.0,26.46,1.0,,0.04,,64.0,,,,1.5,,KIGQ 052255Z AUTO 02016G23KT 1 1/2SM RA OVC006 04/04 A2963 RMK AO2  P0004 T00420042,,,600.0,,,39.56,32.51,NNE,28.99,29.02,,Rain
KIGQ,04/05/2017 23:15 UTC,29.64,39.56,39.56,100.0,18.41,20.0,33.38,1.0,,0.03,,64.0,,,,1.75,,KIGQ 052315Z AUTO 02016G29KT 1 3/4SM RA OVC006 04/04 A2964 RMK AO2  P0003 T00420042,,,600.0,,,39.56,32.51,NNE,29.0,29.03,,Rain
KIGQ,04/05/2017 23:35 UTC,29.65,39.74,39.74,100.0,16.11,20.0,28.77,1.0,,0.05,,64.0,,,,3.0,,KIGQ 052335Z AUTO 02014G25KT 360V060 3SM RA OVC006 04/04 A2965 RMK AO2 P0005 T00430043,,,600.0,,,39.74,33.32,NNE,29.01,29.04,,Rain
KIGQ,04/05/2017 23:55 UTC,29.63,39.74,39.74,100.0,23.02,20.0,33.38,1.0,,0.08,,64.0,,0.12,,2.5,,KIGQ 052355Z AUTO 02020G29KT 2 1/2SM RA OVC006 04/04 A2963 RMK AO2  LTG DSNT SE P0008 60012 T00430043 10056 20042,42.08,39.56,600.0,,,39.74,31.72,NNE,28.99,29.02,,Rain
KIGQ,04/06/2017 00:15 UTC,29.62,39.56,39.56,100.0,21.85,20.0,34.52,1.0,,0.03,,64.0,,,,4.0,,KIGQ 060015Z AUTO 02019G30KT 4SM RA OVC006 04/04 A2962 RMK AO2  P0003 T00420042,,,600.0,,,39.56,31.73,NNE,28.98,29.01,,Rain
KIGQ,04/06/2017 00:35 UTC,29.62,39.74,39.74,100.0,18.41,30.0,29.93,13.0,,0.05,,64.0,,,,5.0,,KIGQ 060035Z AUTO 03016G26KT 5SM -RA OVC006 04/04 A2962 RMK AO2  P0005 T00430043,,,600.0,,,39.74,32.73,NNE,28.98,29.01,,Light Rain
KIGQ,04/06/2017 00:55 UTC,29.61,39.92,39.74,100.0,23.02,30.0,33.38,1.0,,0.07,,64.0,,,,5.0,,KIGQ 060055Z AUTO 03020G29KT 5SM RA OVC006 04/04 A2961 RMK AO2  P0007 T00440043,,,600.0,,,39.92,31.95,NNE,28.97,28.99,,Rain
KIGQ,04/06/2017 01:15 UTC,29.62,39.74,39.56,100.0,19.57,20.0,28.77,1.0,,0.01,,64.0,,,,5.0,,KIGQ 060115Z AUTO 02017G25KT 5SM RA OVC006 04/04 A2962 RMK AO2  P0001 T00430042,,,600.0,,,39.74,32.46,NNE,28.98,29.01,,Rain
KIGQ,04/06/2017 01:35 UTC,29.63,39.74,39.56,100.0,18.41,30.0,27.63,1.0,,0.05,,64.0,,,,5.0,,KIGQ 060135Z AUTO 03016G24KT 5SM RA OVC006 04/04 A2963 RMK AO2  P0005 T00430042,,,600.0,,,39.74,32.73,NNE,28.99,29.02,,Rain
KIGQ,04/06/2017 01:55 UTC,29.63,39.74,39.56,100.0,23.02,30.0,32.21,1.0,,0.1,,64.0,,,,5.0,,KIGQ 060155Z AUTO 03020G28KT 5SM RA OVC006 04/04 A2963 RMK AO2  P0010 T00430042,,,600.0,,,39.74,31.72,NNE,28.99,29.02,,Rain
KIGQ,04/06/2017 02:15 UTC,29.65,39.74,39.56,100.0,13.8,20.0,25.32,1.0,,0.03,,64.0,,,,7.0,,KIGQ 060215Z AUTO 02012G22KT 7SM RA OVC006 04/04 A2965 RMK AO2  P0003 T00430042,,,600.0,,,39.74,33.98,NNE,29.01,29.04,,Rain
KIGQ,04/06/2017 02:35 UTC,29.65,39.74,39.56,100.0,18.41,30.0,28.77,1.0,,0.07,,64.0,,,,7.0,,KIGQ 060235Z AUTO 03016G25KT 7SM RA OVC006 04/04 A2965 RMK AO2 LTG  DSNT E P0007 T00430042,,,600.0,,,39.74,32.73,NNE,29.01,29.04,,Rain
KIGQ,04/06/2017 02:55 UTC,29.64,39.56,39.38,100.0,18.41,20.0,27.63,1.0,,0.12,0.29,64.0,,,,5.0,,KIGQ 060255Z AUTO 02016G24KT 5SM RA OVC006 04/04 A2964 RMK AO2 LTG  DSNT E P0012 60029 T00420041,,,600.0,,,39.56,32.51,NNE,29.0,29.03,,Rain
KIGQ,04/06/2017 03:15 UTC,29.64,39.56,39.2,100.0,18.41,20.0,27.63,1.0,,0.02,,84.0,,,,7.0,,KIGQ 060315Z AUTO 02016G24KT 7SM RA OVC008 04/04 A2964 RMK AO2  P0002 T00420040,,,800.0,,,39.56,32.51,NNE,29.0,29.03,,Rain
KIGQ,04/06/2017 03:35 UTC,29.63,39.2,38.66,100.0,21.85,20.0,34.52,13.0,,0.05,,84.0,,,,7.0,,KIGQ 060335Z AUTO 02019G30KT 7SM -RA OVC008 04/04 A2963 RMK AO2  P0005 T00400037,,,800.0,,,39.2,31.28,NNE,28.99,29.03,,Light Rain
KIGQ,04/06/2017 03:55 UTC,29.63,38.48,37.76,93.19,21.85,20.0,32.21,1.0,,0.08,,84.0,,,,7.0,,KIGQ 060355Z AUTO 02019G28KT 7SM RA OVC008 04/03 A2963 RMK AO2  P0008 T00360032,,,800.0,,,36.66,30.36,NNE,28.99,29.09,,Rain
KIGQ,04/06/2017 04:15 UTC,29.63,38.3,37.4,93.19,21.85,30.0,33.38,13.0,,0.02,,104.0,,,,7.0,,KIGQ 060415Z AUTO 03019G29KT 7SM -RA OVC010 04/03 A2963 RMK AO2  P0002 T00350030,,,1000.0,,,36.48,30.13,NNE,28.99,29.1,,Light Rain
KIGQ,04/06/2017 04:35 UTC,29.63,38.3,37.4,93.19,21.85,30.0,32.21,13.0,,0.05,,104.0,,,,10.0,,KIGQ 060435Z AUTO 03019G28KT 10SM -RA OVC010 04/03 A2963 RMK AO2  P0005 T00350030,,,1000.0,,,36.48,30.13,NNE,28.99,29.1,,Light Rain
KIGQ,04/06/2017 04:55 UTC,29.63,38.48,37.58,93.19,18.41,20.0,29.93,1.0,,0.06,,104.0,,,,10.0,,KIGQ 060455Z AUTO 02016G26KT 10SM RA OVC010 04/03 A2963 RMK AO2  P0006 T00360031,,,1000.0,,,36.66,31.15,NNE,28.99,29.09,,Rain
KIGQ,04/06/2017 05:15 UTC,29.63,38.66,37.58,93.19,20.71,20.0,35.68,1.0,,0.02,,104.0,,,,7.0,,KIGQ 060515Z AUTO 02018G31KT 7SM RA OVC010 04/03 A2963 RMK AO2  P0002 T00370031,,,1000.0,,,36.84,30.84,NNE,28.99,29.09,,Rain
KIGQ,04/06/2017 05:35 UTC,29.63,38.66,37.76,93.19,18.41,20.0,31.07,13.0,,0.05,,104.0,,,,5.0,,KIGQ 060535Z AUTO 02016G27KT 5SM -RA OVC010 04/03 A2963 RMK AO2  P0005 T00370032,,,1000.0,,,36.84,31.38,NNE,28.99,29.09,,Light Rain
KIGQ,04/06/2017 05:55 UTC,29.63,38.3,37.4,93.19,17.27,20.0,29.93,1.0,,0.08,,104.0,,0.51,,2.5,,KIGQ 060555Z AUTO 02015G26KT 2 1/2SM RA OVC010 04/03 A2963 RMK AO2  VIS 1/2V5 P0008 60051 T00350030 10045 20035 400770035,40.1,38.3,1000.0,45.86,38.3,36.48,31.22,NNE,28.99,29.1,,Rain
KIGQ,04/06/2017 06:15 UTC,29.63,37.76,36.86,100.0,21.85,10.0,29.93,1.0,,0.03,,104.0,,,,5.0,,KIGQ 060615Z AUTO 01019G26KT 5SM RA OVC010 03/03 A2963 RMK AO2  P0003 T00320027,,,1000.0,,,37.76,29.45,N,28.99,29.08,,Rain
KIGQ,04/06/2017 06:35 UTC,29.63,37.4,36.5,100.0,17.27,360.0,29.93,41.0,,0.06,,104.0,,,,4.0,,KIGQ 060635Z AUTO 36015G26KT 4SM UP OVC010 03/03 A2963 RMK AO2  P0006 T00300025,,,1000.0,,,37.4,30.1,N,28.99,29.09,,Unknown Precip
KIGQ,04/06/2017 06:55 UTC,29.63,36.5,35.78,93.13,20.71,350.0,29.93,13.0,,0.09,,104.0,,,,5.0,,KIGQ 060655Z AUTO 35018G26KT 5SM -RA OVC010 03/02 A2963 RMK AO2  P0009 T00250021,,,1000.0,,,34.68,28.11,N,28.99,29.14,,Light Rain
KIGQ,04/06/2017 07:15 UTC,29.63,35.78,35.24,100.0,20.71,360.0,31.07,20.0,,0.02,,104.0,,,,4.0,,KIGQ 060715Z AUTO 36018G27KT 4SM -SN OVC010 02/02 A2963 RMK AO2  P0002 T00210018,,,1000.0,,,35.78,27.2,N,28.99,29.13,,Light Snow
KIGQ,04/06/2017 07:35 UTC,29.63,36.14,35.6,100.0,13.8,350.0,29.93,20.0,,0.08,,84.0,,,,3.0,,KIGQ 060735Z AUTO 35012G26KT 3SM -SN OVC008 02/02 A2963 RMK AO2  P0008 T00230020,,,800.0,,,36.14,29.57,N,28.99,29.12,,Light Snow
KIGQ,04/06/2017 07:55 UTC,29.62,36.86,36.32,93.13,20.71,360.0,33.38,20.0,,0.13,,84.0,,,,3.0,,KIGQ 060755Z AUTO 36018G29KT 3SM -SN OVC008 03/02 A2962 RMK AO2  P0013 T00270024,,,800.0,,,35.04,28.56,N,28.98,29.12,,Light Snow
KIGQ,04/06/2017 08:15 UTC,29.62,37.4,36.86,100.0,20.71,360.0,31.07,20.0,,0.03,,84.0,,,,4.0,,KIGQ 060815Z AUTO 36018G27KT 4SM -SN OVC008 03/03 A2962 RMK AO2  P0003 T00300027,,,800.0,,,37.4,29.25,N,28.98,29.08,,Light Snow
KIGQ,04/06/2017 08:35 UTC,29.63,37.58,36.86,100.0,19.57,10.0,37.98,41.0,,0.07,,84.0,,,,4.0,,KIGQ 060835Z AUTO 01017G33KT 4SM UP OVC008 03/03 A2963 RMK AO2  P0007 T00310027,,,800.0,,,37.58,29.74,N,28.99,29.08,,Unknown Precip
KIGQ,04/06/2017 08:55 UTC,29.63,37.76,37.04,100.0,25.32,350.0,37.98,1.0,,0.11,0.33,84.0,,,,5.0,,KIGQ 060855Z AUTO 35022G33KT 5SM RA OVC008 03/03 A2963 RMK AO2  P0011 60033 T00320028,,,800.0,,,37.76,28.74,N,28.99,29.08,,Rain
KIGQ,04/06/2017 09:15 UTC,29.63,37.4,36.68,100.0,21.85,360.0,32.21,1.0,,0.02,,84.0,,,,7.0,,KIGQ 060915Z AUTO 36019G28KT 7SM RA OVC008 03/03 A2963 RMK AO2  P0002 T00300026,,,800.0,,,37.4,28.99,N,28.99,29.09,,Rain
KIGQ,04/06/2017 09:35 UTC,29.64,37.4,36.5,100.0,19.57,350.0,35.68,1.0,,0.04,,104.0,,,,7.0,,KIGQ 060935Z AUTO 35017G31KT 7SM RA OVC010 03/03 A2964 RMK AO2  P0004 T00300025,,,1000.0,,,37.4,29.51,N,29.0,29.1,,Rain
KIGQ,04/06/2017 09:55 UTC,29.65,37.4,36.32,93.13,18.41,360.0,29.93,3.0,,0.05,,104.0,,,,5.0,,KIGQ 060955Z AUTO 36016G26KT 5SM SN OVC010 03/02 A2965 RMK AO2  P0005 T00300024,,,1000.0,,,35.57,29.8,N,29.01,29.14,,Snow
KIGQ,04/06/2017 10:15 UTC,29.66,36.86,35.96,93.13,13.8,350.0,34.52,1.0,,,,104.0,,,,7.0,,KIGQ 061015Z AUTO 35012G30KT 7SM RA OVC010 03/02 A2966 RMK AO2  T00270022,,,1000.0,,,35.04,30.45,N,29.02,29.16,,Rain
KIGQ,04/06/2017 10:35 UTC,29.66,36.68,35.6,93.13,18.41,350.0,32.21,13.0,,0.01,,104.0,,,,10.0,,KIGQ 061035Z AUTO 35016G28KT 10SM -RA OVC010 03/02 A2966 RMK AO2  P0001 T00260020,,,1000.0,,,34.86,28.9,N,29.02,29.17,,Light Rain
KIGQ,04/06/2017 10:55 UTC,29.67,36.68,35.78,93.13,19.57,350.0,28.77,13.0,,0.01,,104.0,,,,10.0,,KIGQ 061055Z AUTO 35017G25KT 320V020 10SM -RA OVC010 03/02  A2967 RMK AO2 P0001 T00260021,,,1000.0,,,34.86,28.61,N,29.02,29.17,,Light Rain
KIGQ,04/06/2017 11:15 UTC,29.68,36.86,35.42,93.13,19.57,360.0,32.21,13.0,,,,124.0,,,,10.0,,KIGQ 061115Z AUTO 36017G28KT 10SM -RA OVC012 03/02 A2968 RMK AO2  T00270019,,,1200.0,,,35.04,28.83,N,29.03,29.17,,Light Rain
KIGQ,04/06/2017 11:35 UTC,29.69,37.04,34.88,93.13,20.71,350.0,33.38,13.0,,0.01,,164.0,,,,10.0,,KIGQ 061135Z AUTO 35018G29KT 10SM -RA OVC016 03/02 A2969 RMK AO2  P0001 T00280016,,,1600.0,,,35.21,28.79,N,29.04,29.18,,Light Rain
KIGQ,04/06/2017 11:55 UTC,29.71,37.58,34.7,93.13,18.41,360.0,32.21,13.0,,0.01,,184.0,,0.4,1.22,10.0,,KIGQ 061155Z AUTO 36016G28KT 10SM -RA OVC018 03/02 A2971 RMK AO2  P0001 60040 70122 T00310015 10035 20021,38.3,35.78,1800.0,,,35.75,30.03,N,29.06,29.19,,Light Rain
KIGQ,04/06/2017 12:15 UTC,29.71,37.94,34.16,86.68,21.85,360.0,32.21,13.0,,,,204.0,,,,10.0,,KIGQ 061215Z AUTO 36019G28KT 10SM -RA OVC020 03/01 A2971 RMK AO2  T00330012,,,2000.0,,,34.28,29.68,N,29.06,29.21,,Light Rain
KIGQ,04/06/2017 12:35 UTC,29.72,38.48,33.8,80.78,20.71,350.0,33.38,13.0,,,,224.0,,,,10.0,,KIGQ 061235Z AUTO 35018G29KT 10SM -RA OVC022 04/01 A2972 RMK AO2  T00360010,,,2200.0,,,33.02,30.61,N,29.07,29.24,,Light Rain
KIGQ,04/06/2017 12:55 UTC,29.73,38.66,33.44,80.78,18.41,350.0,29.93,13.0,,,,223.0,294.0,,,10.0,,KIGQ 061255Z AUTO 35016G26KT 10SM -RA BKN022 OVC029 04/01  A2973 RMK AO2 T00370008,,,2200.0,,,33.19,31.38,N,29.08,29.24,,Light Rain
KIGQ,04/06/2017 13:15 UTC,29.73,39.2,32.9,80.78,19.57,350.0,28.77,,484.0,,,242.0,292.0,,,10.0,,KIGQ 061315Z AUTO 35017G25KT 10SM SCT024 SCT029 OVC048 04/01  A2973 RMK AO2 T00400005,,,4800.0,,,33.72,31.78,N,29.08,29.23,,Overcast
KIGQ,04/06/2017 13:35 UTC,29.74,39.38,32.36,75.14,18.41,340.0,29.93,,604.0,,,422.0,483.0,,,10.0,,KIGQ 061335Z AUTO 34016G26KT 10SM SCT042 BKN048 OVC060 04/00  A2974 RMK AO2 T00410002,,,4800.0,,,32.07,32.28,NNW,29.09,29.27,,Overcast
KIGQ,04/06/2017 13:55 UTC,29.74,40.46,33.8,75.32,14.97,340.0,24.16,,604.0,,,262.0,413.0,,,10.0,,KIGQ 061355Z AUTO 34013G21KT 10SM SCT026 BKN041 OVC060 05/01  A2974 RMK AO2 T00470010,,,4100.0,,,33.18,34.52,NNW,29.09,29.24,,Overcast
KIGQ,04/06/2017 14:15 UTC,29.75,41.36,33.8,75.32,19.57,340.0,27.63,,1204.0,,,283.0,433.0,,,10.0,,KIGQ 061415Z AUTO 34017G24KT 10SM BKN028 BKN043 OVC120 05/01  A2975 RMK AO2 T00520010,,,2800.0,,,34.05,34.5,NNW,29.1,29.23,,Overcast
KIGQ,04/06/2017 14:35 UTC,29.76,42.08,33.62,70.27,14.97,340.0,33.38,,653.0,,,303.0,493.0,,,10.0,,KIGQ 061435Z AUTO 34013G29KT 10SM BKN030 BKN049 BKN065 06/01  A2976 RMK AO2 T00560009,,,3000.0,,,32.99,36.52,NNW,29.11,29.25,,Mostly Cloudy
KIGQ,04/06/2017 14:55 UTC,29.77,42.44,33.98,70.27,10.36,340.0,28.77,,,,,303.0,493.0,,,10.0,,KIGQ 061455Z AUTO 34009G25KT 10SM BKN030 BKN049 06/01 A2977 RMK AO2 T00580011,,,3000.0,,,33.34,38.4,NNW,29.12,29.26,,Mostly Cloudy
KIGQ,04/06/2017 15:15 UTC,29.77,42.8,33.8,70.27,19.57,340.0,26.46,,,,,303.0,,,,10.0,,KIGQ 061515Z AUTO 34017G23KT 10SM BKN030 06/01 A2977 RMK AO2  T00600010,,,3000.0,,,33.68,36.31,NNW,29.12,29.25,,Mostly Cloudy
KIGQ,04/06/2017 15:35 UTC,29.79,43.34,34.34,70.27,12.66,350.0,24.16,,,,,302.0,,,,10.0,,KIGQ 061535Z AUTO 35011G21KT 10SM SCT030 06/01 A2979 RMK AO2  T00630013,,,,,,34.2,38.72,N,29.14,29.25,,Partly Cloudy
KIGQ,04/06/2017 15:55 UTC,29.8,44.42,35.24,70.47,14.97,350.0,28.77,,,,,302.0,,,,10.0,,KIGQ 061555Z AUTO 35013G25KT 10SM SCT030 07/02 A2980 RMK AO2  T00690018,,,,,,35.31,39.4,N,29.15,29.24,,Partly Cloudy
KIGQ,04/06/2017 16:15 UTC,29.8,44.96,35.24,70.47,24.16,350.0,32.21,,,,,1.0,,,,10.0,,KIGQ 061615Z AUTO 35021G28KT 10SM CLR 07/02 A2980 RMK AO2  T00720018,,,,,,35.83,38.19,N,29.15,29.22,,Clear
KIGQ,04/06/2017 16:35 UTC,29.81,45.5,35.24,65.82,21.85,350.0,34.52,,,,,1.0,,,,10.0,,KIGQ 061635Z AUTO 35019G30KT 10SM CLR 08/02 A2981 RMK AO2  T00750018,,,,,,34.61,,N,29.16,29.25,,Clear
KIGQ,04/06/2017 16:55 UTC,29.82,45.86,35.96,65.82,20.71,360.0,27.63,,,,,1.0,,,,10.0,,KIGQ 061655Z AUTO 36018G24KT 10SM CLR 08/02 A2982 RMK AO2  T00770022,,,,,,34.96,,N,29.17,29.25,,Clear
KIGQ,04/06/2017 17:15 UTC,29.82,45.86,35.78,65.82,21.85,360.0,33.38,,,,,753.0,,,,10.0,,KIGQ 061715Z AUTO 36019G29KT 10SM BKN075 08/02 A2982 RMK AO2  T00770021,,,7500.0,,,34.96,,N,29.17,29.25,,Mostly Cloudy
KIGQ,04/06/2017 17:35 UTC,29.83,44.78,34.34,65.6,20.71,350.0,36.82,,,,,754.0,,,,10.0,,KIGQ 061735Z AUTO 35018G32KT 10SM OVC075 07/01 A2983 RMK AO2  T00710013,,,7500.0,,,33.84,38.58,N,29.18,29.29,,Overcast
KIGQ,04/06/2017 17:55 UTC,29.83,45.14,35.24,70.47,19.57,360.0,26.46,,,,,754.0,,,,10.0,,KIGQ 061755Z AUTO 36017G23KT 10SM OVC075 07/02 A2983 RMK AO2  T00730018 10078 20031,46.04,37.58,7500.0,,,36.0,,N,29.18,29.25,,Overcast
KIGQ,04/06/2017 18:15 UTC,29.84,46.4,36.32,65.82,13.8,360.0,27.63,,,,,654.0,,,,10.0,,KIGQ 061815Z AUTO 36012G24KT 10SM OVC065 08/02 A2984 RMK AO2  T00800024,,,6500.0,,,35.47,,N,29.19,29.26,,Overcast
KIGQ,04/06/2017 18:35 UTC,29.84,47.3,35.24,61.51,18.41,350.0,29.93,,,,,652.0,,,,10.0,,KIGQ 061835Z AUTO 35016G26KT 10SM SCT065 09/02 A2984 RMK AO2  T00850018,,,,,,34.61,,N,29.19,29.27,,Partly Cloudy
KIGQ,04/06/2017 18:55 UTC,29.84,47.66,36.14,61.51,16.11,350.0,28.77,,,,,1.0,,,,10.0,,KIGQ 061855Z AUTO 35014G25KT 10SM CLR 09/02 A2984 RMK AO2  T00870023,,,,,,34.95,,N,29.19,29.26,,Clear
KIGQ,04/06/2017 19:15 UTC,29.86,46.94,37.04,70.68,17.27,10.0,24.16,,,,,1.0,,,,10.0,,KIGQ 061915Z AUTO 01015G21KT 10SM CLR 08/03 A2986 RMK AO2  T00830028,,,,,,37.81,,N,29.21,29.23,,Clear
KIGQ,04/06/2017 19:35 UTC,29.87,45.32,36.5,75.67,17.27,10.0,27.63,,,,,552.0,,,,10.0,,KIGQ 061935Z AUTO 01015G24KT 10SM SCT055 07/03 A2987 RMK AO2  T00740025,,,,,,38.0,,N,29.22,29.25,,Partly Cloudy
KIGQ,04/06/2017 19:55 UTC,29.88,44.78,35.42,70.47,19.57,10.0,29.93,,,,,492.0,553.0,,,10.0,,KIGQ 061955Z AUTO 01017G26KT 10SM SCT049 BKN055 07/02 A2988 RMK AO2 T00710019,,,5500.0,,,35.66,38.81,N,29.23,29.31,,Mostly Cloudy
KIGQ,04/06/2017 20:15 UTC,29.88,43.88,35.06,70.47,19.57,10.0,29.93,,,,,472.0,553.0,,,10.0,,KIGQ 062015Z AUTO 01017G26KT 10SM SCT047 BKN055 07/02 A2988 RMK AO2 T00660017,,,5500.0,,,34.79,37.67,N,29.23,29.33,,Mostly Cloudy
KIGQ,04/06/2017 20:35 UTC,29.88,45.5,35.42,65.82,18.41,360.0,27.63,,,,,503.0,,,,10.0,,KIGQ 062035Z AUTO 36016G24KT 10SM BKN050 08/02 A2988 RMK AO2  T00750019,,,5000.0,,,34.61,,N,29.23,29.32,,Mostly Cloudy
KIGQ,04/06/2017 20:55 UTC,29.88,47.3,35.96,61.51,18.41,10.0,23.02,,,,,502.0,1104.0,,,10.0,,KIGQ 062055Z AUTO 01016G20KT 10SM SCT050 OVC110 09/02 A2988 RMK AO2 T00850022,,,11000.0,,,34.61,,N,29.23,29.31,,Overcast
KIGQ,04/06/2017 21:15 UTC,29.9,44.96,34.52,65.6,19.57,10.0,27.63,,,,,502.0,1103.0,,,10.0,,KIGQ 062115Z AUTO 01017G24KT 10SM SCT050 BKN110 07/01 A2990 RMK AO2 T00720014,,,11000.0,,,34.01,39.03,N,29.25,29.36,,Mostly Cloudy
KIGQ,04/06/2017 21:35 UTC,29.9,44.6,33.26,65.6,16.11,360.0,27.63,,,,,1.0,,,,10.0,,KIGQ 062135Z AUTO 36014G24KT 10SM CLR 07/01 A2990 RMK AO2  T00700007,,,,,,33.67,39.34,N,29.25,29.37,,Clear
KIGQ,04/06/2017 21:55 UTC,29.91,44.78,32.54,61.02,13.8,360.0,26.46,,,,,552.0,,,,10.0,,KIGQ 062155Z AUTO 36012G23KT 10SM SCT055 07/00 A2991 RMK AO2  T00710003,,,,,,32.02,40.15,N,29.26,29.41,,Partly Cloudy
KIGQ,04/06/2017 22:15 UTC,29.91,44.42,32.72,61.02,14.97,360.0,24.16,,,,,552.0,652.0,,,10.0,,KIGQ 062215Z AUTO 36013G21KT 10SM SCT055 SCT065 07/00 A2991 RMK AO2 T00690004,,,,,,31.68,39.4,N,29.26,29.42,,Partly Cloudy
KIGQ,04/06/2017 22:35 UTC,29.91,44.96,32.36,61.02,19.57,360.0,27.63,,,,,552.0,652.0,,,10.0,,KIGQ 062235Z AUTO 36017G24KT 10SM SCT055 SCT065 07/00 A2991 RMK AO2 T00720002,,,,,,32.19,39.03,N,29.26,29.4,,Partly Cloudy
KIGQ,04/06/2017 22:55 UTC,29.92,44.78,32.54,61.02,17.27,360.0,25.32,,,,,602.0,,,,10.0,,KIGQ 062255Z AUTO 36015G22KT 10SM SCT060 07/00 A2992 RMK AO2  T00710003,,,,,,32.02,39.3,N,29.27,29.42,,Partly Cloudy
KIGQ,04/06/2017 23:15 UTC,29.93,43.88,32.9,65.6,13.8,360.0,24.16,,,,,1.0,,,,10.0,,KIGQ 062315Z AUTO 36012G21KT 10SM CLR 07/01 A2993 RMK AO2  T00660005,,,,,,32.98,39.05,N,29.28,29.42,,Clear
KIGQ,04/06/2017 23:35 UTC,29.93,42.8,33.08,70.27,14.97,360.0,25.32,,,,,1202.0,,,,10.0,,KIGQ 062335Z AUTO 36013G22KT 10SM SCT120 06/01 A2993 RMK AO2  T00600006,,,,,,33.68,37.4,N,29.28,29.41,,Partly Cloudy
KIGQ,04/06/2017 23:55 UTC,29.94,41.9,32.72,65.37,10.36,10.0,19.57,,,,,653.0,1203.0,,,10.0,,KIGQ 062355Z AUTO 01009G17KT 10SM BKN065 BKN120 06/00 A2994 RMK AO2 T00550004 10089 20055,48.02,41.9,6500.0,,,31.01,37.75,N,29.29,29.47,,Mostly Cloudy
KIGQ,04/07/2017 00:15 UTC,29.95,41.0,32.9,75.32,11.5,10.0,20.71,,,,,653.0,,,,10.0,,KIGQ 070015Z AUTO 01010G18KT 10SM BKN065 05/01 A2995 RMK AO2  T00500005,,,6500.0,,,33.7,36.26,N,29.3,29.44,,Mostly Cloudy
KIGQ,04/07/2017 00:35 UTC,29.95,40.1,32.72,70.06,9.22,10.0,21.85,,,,,602.0,,,,10.0,,KIGQ 070035Z AUTO 01008G19KT 10SM SCT060 05/00 A2995 RMK AO2  T00450004,,,,,,31.01,36.06,N,29.3,29.49,,Partly Cloudy
KIGQ,04/07/2017 00:55 UTC,29.96,40.1,32.9,75.32,11.5,360.0,17.27,,,,,703.0,,,,10.0,,KIGQ 070055Z AUTO 36010G15KT 10SM BKN070 05/01 A2996 RMK AO2  T00450005,,,7000.0,,,32.83,35.18,N,29.31,29.47,,Mostly Cloudy
KIGQ,04/07/2017 01:15 UTC,29.97,39.74,32.54,75.14,14.97,360.0,19.57,,,,,702.0,,,,10.0,,KIGQ 070115Z AUTO 36013G17KT 10SM SCT070 04/00 A2997 RMK AO2  T00430003,,,,,,32.42,33.63,N,29.32,29.49,,Partly Cloudy
KIGQ,04/07/2017 01:35 UTC,29.98,39.56,32.9,80.78,13.8,360.0,18.41,,,,,1.0,,,,10.0,,KIGQ 070135Z AUTO 36012G16KT 10SM CLR 04/01 A2998 RMK AO2  T00420005,,,,,,34.07,33.76,N,29.33,29.48,,Clear
KIGQ,04/07/2017 01:55 UTC,29.99,39.2,33.08,80.78,11.5,10.0,18.41,,,,,1.0,,,,10.0,,KIGQ 070155Z AUTO 01010G16KT 10SM CLR 04/01 A2999 RMK AO2  T00400006,,,,,,33.72,34.09,N,29.34,29.5,,Clear
KIGQ,04/07/2017 02:15 UTC,30.0,38.84,33.44,80.78,14.97,360.0,20.71,,,,,1.0,,,,10.0,,KIGQ 070215Z AUTO 36013G18KT 10SM CLR 04/01 A3000 RMK AO2  T00380008,,,,,,33.37,32.53,N,29.35,29.52,,Clear
KIGQ,04/07/2017 02:35 UTC,30.0,38.66,33.08,80.78,12.66,10.0,19.57,,,,,1.0,,,,10.0,,KIGQ 070235Z AUTO 01011G17KT 10SM CLR 04/01 A3000 RMK AO2  T00370006,,,,,,33.19,33.03,N,29.35,29.52,,Clear
KIGQ,04/07/2017 02:55 UTC,30.01,38.48,32.72,75.14,12.66,360.0,16.11,,,,,1.0,,,,10.0,,KIGQ 070255Z AUTO 36011G14KT 10SM CLR 04/00 A3001 RMK AO2  T00360004,,,,,,31.2,32.81,N,29.36,29.56,,Clear
KIGQ,04/07/2017 03:15 UTC,30.01,38.48,32.36,75.14,12.66,360.0,20.71,,,,,1.0,,,,10.0,,KIGQ 070315Z AUTO 36011G18KT 10SM CLR 04/00 A3001 RMK AO2  T00360002,,,,,,31.2,32.81,N,29.36,29.56,,Clear
KIGQ,04/07/2017 03:35 UTC,30.01,38.48,32.0,75.14,10.36,360.0,17.27,,,,,1.0,,,,10.0,,KIGQ 070335Z AUTO 36009G15KT 10SM CLR 04/00 A3001 RMK AO2  T00360000,,,,,,31.2,33.66,N,29.36,29.56,,Clear
KIGQ,04/07/2017 03:55 UTC,30.01,38.48,32.0,75.14,11.5,10.0,21.85,,,,,1.0,,,,10.0,,KIGQ 070355Z AUTO 01010G19KT 10SM CLR 04/00 A3001 RMK AO2  T00360000,,,,,,31.2,33.22,N,29.36,29.56,,Clear
KIGQ,04/07/2017 04:15 UTC,30.02,38.66,31.64,75.14,10.36,10.0,18.41,,,,,1.0,,,,10.0,,KIGQ 070415Z AUTO 01009G16KT 10SM CLR 04/00 A3002 RMK AO2  T00371002,,,,,,31.37,33.87,N,29.37,29.57,,Clear
KIGQ,04/07/2017 04:35 UTC,30.02,38.84,31.1,75.14,11.5,10.0,18.41,,,,,1.0,,,,10.0,,KIGQ 070435Z AUTO 01010G16KT 10SM CLR 04/00 A3002 RMK AO2  T00381005,,,,,,31.55,33.66,N,29.37,29.57,,Clear
KIGQ,04/07/2017 04:55 UTC,30.01,38.84,30.92,69.85,6.91,10.0,18.41,,,,,1.0,,,,10.0,,KIGQ 070455Z AUTO 01006G16KT 10SM CLR 04/M01 A3001 RMK AO2  T00381006,,,,,,29.73,,N,29.36,29.58,,Clear
KIGQ,04/07/2017 05:15 UTC,30.02,38.84,31.28,75.14,8.05,350.0,,,,,,1.0,,,,10.0,,KIGQ 070515Z AUTO 35007KT 10SM CLR 04/00 A3002 RMK AO2  T00381004,,,,,,31.55,35.11,N,29.37,29.57,,Clear
KIGQ,04/07/2017 05:35 UTC,30.02,38.84,31.1,75.14,8.05,350.0,18.41,,,,,1.0,,,,10.0,,KIGQ 070535Z AUTO 35007G16KT 10SM CLR 04/00 A3002 RMK AO2  T00381005,,,,,,31.55,35.11,N,29.37,29.57,,Clear
KIGQ,04/07/2017 05:55 UTC,30.02,38.84,30.74,69.85,8.05,340.0,,,,,,1.0,,,,10.0,,KIGQ 070555Z AUTO 34007KT 10SM CLR 04/M01 A3002 RMK AO2 T00381007  10055 20035 400890021,41.9,38.3,,48.02,35.78,29.73,35.11,NNW,29.37,29.59,,Clear
KIGQ,04/07/2017 06:15 UTC,30.02,38.66,30.38,69.85,11.5,350.0,17.27,,,,,1.0,,,,10.0,,KIGQ 070615Z AUTO 35010G15KT 10SM CLR 04/M01 A3002 RMK AO2  T00371009,,,,,,29.55,33.44,N,29.37,29.6,,Clear
KIGQ,04/07/2017 06:35 UTC,30.02,39.2,29.12,64.9,16.11,360.0,23.02,,,,,1.0,,,,10.0,,KIGQ 070635Z AUTO 36014G20KT 10SM CLR 04/M02 A3002 RMK AO2  T00401016,,,,,,28.25,32.65,N,29.37,29.61,,Clear
KIGQ,04/07/2017 06:55 UTC,30.01,39.56,26.78,60.26,11.5,340.0,17.27,,,,,1.0,,,,10.0,,KIGQ 070655Z AUTO 34010G15KT 10SM CLR 04/M03 A3001 RMK AO2  T00421029,,,,,,26.77,34.52,NNW,29.36,29.62,,Clear
KIGQ,04/07/2017 07:15 UTC,30.01,38.66,27.68,64.9,9.22,330.0,,,,,,1.0,,,,10.0,,KIGQ 070715Z AUTO 33008KT 10SM CLR 04/M02 A3001 RMK AO2  T00371024,,,,,,27.74,34.35,NNW,29.36,29.61,,Clear
KIGQ,04/07/2017 07:35 UTC,30.01,38.3,27.68,64.9,10.36,320.0,,,,,,1.0,,,,10.0,,KIGQ 070735Z AUTO 32009KT 10SM CLR 04/M02 A3001 RMK AO2  T00351024,,,,,,27.4,33.44,NW,29.36,29.62,,Clear
KIGQ,04/07/2017 07:55 UTC,30.01,37.94,27.5,69.64,9.22,310.0,,,,,,1.0,,,,10.0,,KIGQ 070755Z AUTO 31008KT 10SM CLR 03/M02 A3001 RMK AO2  T00331025,,,,,,28.79,33.5,NW,29.36,29.6,,Clear
KIGQ,04/07/2017 08:15 UTC,30.02,37.4,28.22,69.64,10.36,320.0,,,,,,1.0,,,,10.0,,KIGQ 070815Z AUTO 32009KT 10SM CLR 03/M02 A3002 RMK AO2  T00301021,,,,,,28.27,32.37,NW,29.37,29.62,,Clear
KIGQ,04/07/2017 08:35 UTC,30.02,36.68,28.76,69.64,8.05,320.0,,,,,,1.0,,,,10.0,,KIGQ 070835Z AUTO 32007KT 10SM CLR 03/M02 A3002 RMK AO2  T00261018,,,,,,27.58,32.57,NW,29.37,29.64,,Clear
KIGQ,04/07/2017 08:55 UTC,30.02,36.5,28.58,69.64,6.91,310.0,,,,,,1.0,,,,10.0,,KIGQ 070855Z AUTO 31006KT 10SM CLR 03/M02 A3002 RMK AO2  T00251019,,,,,,27.41,,NW,29.37,29.64,,Clear
KIGQ,04/07/2017 09:15 UTC,30.02,36.5,28.04,69.64,9.22,320.0,,,,,,1.0,,,,10.0,,KIGQ 070915Z AUTO 32008KT 10SM CLR 03/M02 A3002 RMK AO2  T00251022,,,,,,27.41,31.79,NW,29.37,29.64,,Clear
KIGQ,04/07/2017 09:35 UTC,30.02,36.5,26.78,64.66,9.22,330.0,,,,,,1.0,,,,10.0,,KIGQ 070935Z AUTO 33008KT 10SM CLR 03/M03 A3002 RMK AO2  T00251029,,,,,,25.59,31.79,NNW,29.37,29.67,,Clear
KIGQ,04/07/2017 09:55 UTC,30.02,36.86,25.7,63.63,10.36,330.0,,,,,,1.0,,,,10.0,,KIGQ 070955Z AUTO 33009KT 10SM CLR 03/M03 A3002 RMK AO2  T00271035,,,,,,25.54,31.72,NNW,29.37,29.66,,Clear
KIGQ,04/07/2017 10:15 UTC,30.03,36.68,25.34,60.0,9.22,330.0,,,,,,1.0,,,,10.0,,KIGQ 071015Z AUTO 33008KT 10SM CLR 03/M04 A3003 RMK AO2  T00261037,,,,,,23.95,32.0,NNW,29.38,29.7,,Clear
KIGQ,04/07/2017 10:35 UTC,30.03,36.5,25.34,60.0,8.05,320.0,,,,,,1.0,,,,10.0,,KIGQ 071035Z AUTO 32007KT 10SM CLR 03/M04 A3003 RMK AO2  T00251037,,,,,,23.78,32.36,NW,29.38,29.7,,Clear
KIGQ,04/07/2017 10:55 UTC,30.04,35.96,25.34,64.42,8.05,320.0,,,,,,1.0,,,,10.0,,KIGQ 071055Z AUTO 32007KT 10SM CLR 02/M04 A3004 RMK AO2  T00221037,,,,,,24.99,31.73,NW,29.39,29.7,,Clear
KIGQ,04/07/2017 11:15 UTC,30.04,35.6,25.34,64.42,8.05,320.0,,,,,,1.0,,,,10.0,,KIGQ 071115Z AUTO 32007KT 10SM CLR 02/M04 A3004 RMK AO2  T00201037,,,,,,24.64,31.3,NW,29.39,29.7,,Clear
KIGQ,04/07/2017 11:35 UTC,30.05,35.78,25.16,64.42,9.22,330.0,,,,,,1.0,,,,10.0,,KIGQ 071135Z AUTO 33008KT 10SM CLR 02/M04 A3005 RMK AO2  T00211038,,,,,,24.82,30.93,NNW,29.4,29.71,,Clear
KIGQ,04/07/2017 11:55 UTC,30.06,35.78,25.16,64.42,6.91,320.0,,,,,,1.0,,,,10.0,,KIGQ 071155Z AUTO 32006KT 10SM CLR 02/M04 A3006 RMK AO2 T00211038  10042 20020,39.56,35.6,,,,24.82,,NW,29.41,29.72,,Clear
KIGQ,04/07/2017 12:15 UTC,30.07,36.14,25.16,64.42,8.05,320.0,,,,,,1.0,,,,10.0,,KIGQ 071215Z AUTO 32007KT 10SM CLR 02/M04 A3007 RMK AO2  T00231038,,,,,,25.16,31.94,NW,29.42,29.72,,Clear
KIGQ,04/07/2017 12:35 UTC,30.07,37.22,24.8,60.0,9.22,320.0,,,,,,1.0,,,,10.0,,KIGQ 071235Z AUTO 32008KT 10SM CLR 03/M04 A3007 RMK AO2  T00291040,,,,,,24.46,32.64,NW,29.42,29.73,,Clear
KIGQ,04/07/2017 12:55 UTC,30.08,38.3,25.16,55.91,10.36,320.0,,,,,,1.0,,,,10.0,,KIGQ 071255Z AUTO 32009KT 10SM CLR 04/M04 A3008 RMK AO2  T00351038,,,,,,23.77,33.44,NW,29.43,29.74,,Clear
KIGQ,04/07/2017 13:15 UTC,30.08,39.38,24.8,55.91,9.22,330.0,12.66,,,,,1.0,,,,10.0,,KIGQ 071315Z AUTO 33008G11KT 10SM CLR 04/M04 A3008 RMK AO2  T00411040,,,,,,24.78,35.21,NNW,29.43,29.72,,Clear
KIGQ,04/07/2017 13:35 UTC,30.09,40.28,24.8,52.13,11.5,340.0,19.57,,,,,1.0,,,,10.0,,KIGQ 071335Z AUTO 34010G17KT 10SM CLR 05/M04 A3009 RMK AO2  T00461040,,,,,,23.93,35.39,NNW,29.44,29.74,,Clear
KIGQ,04/07/2017 13:55 UTC,30.09,41.54,24.26,52.13,8.05,340.0,17.27,,,,,1.0,,,,10.0,,KIGQ 071355Z AUTO 34007G15KT 10SM CLR 05/M04 A3009 RMK AO2  T00531043,,,,,,25.1,38.28,NNW,29.44,29.72,,Clear
KIGQ,04/07/2017 14:15 UTC,30.09,42.08,24.44,48.64,9.22,350.0,,,,,,1.0,,,,10.0,,KIGQ 071415Z AUTO 35008KT 10SM CLR 06/M04 A3009 RMK AO2  T00561042,,,,,,23.93,38.41,N,29.44,29.73,,Clear
KIGQ,04/07/2017 14:35 UTC,30.09,42.8,24.26,48.64,14.97,20.0,20.71,,,,,1.0,,,,10.0,,KIGQ 071435Z AUTO 02013G18KT 10SM CLR 06/M04 A3009 RMK AO2  T00601043,,,,,,24.59,37.4,NNE,29.44,29.72,,Clear
KIGQ,04/07/2017 14:55 UTC,30.1,42.26,22.64,45.1,12.66,10.0,23.02,,,,,1.0,,,,10.0,,KIGQ 071455Z AUTO 01011G20KT 10SM CLR 06/M05 A3010 RMK AO2  T00571052,,,,,,22.29,37.41,N,29.45,29.76,,Clear
KIGQ,04/07/2017 15:15 UTC,30.11,42.62,23.9,48.64,12.66,10.0,25.32,,,,,1.0,,,,10.0,,KIGQ 071515Z AUTO 01011G22KT 10SM CLR 06/M04 A3011 RMK AO2  T00591045,,,,,,24.43,37.85,N,29.46,29.74,,Clear
KIGQ,04/07/2017 15:35 UTC,30.11,42.8,24.62,48.64,6.91,10.0,19.57,,,,,1.0,,,,10.0,,KIGQ 071535Z AUTO 01006G17KT 10SM CLR 06/M04 A3011 RMK AO2  T00601041,,,,,,24.59,,N,29.46,29.74,,Clear
KIGQ,04/07/2017 15:55 UTC,30.11,43.88,25.34,45.4,13.8,10.0,19.57,,,,,1.0,,,,10.0,,KIGQ 071555Z AUTO 01012G17KT 10SM CLR 07/M04 A3011 RMK AO2  T00661037,,,,,,23.93,39.05,N,29.46,29.74,,Clear
KIGQ,04/07/2017 16:15 UTC,30.12,44.78,24.26,45.4,12.66,10.0,16.11,,,,,1.0,,,,10.0,,KIGQ 071615Z AUTO 01011G14KT 10SM CLR 07/M04 A3012 RMK AO2  T00711043,,,,,,24.75,40.47,N,29.47,29.73,,Clear
KIGQ,04/07/2017 16:35 UTC,30.12,45.14,22.28,42.1,12.66,10.0,18.41,,,,,1.0,,,,10.0,,KIGQ 071635Z AUTO 01011G16KT 10SM CLR 07/M05 A3012 RMK AO2  T00731054,,,,,,23.26,,N,29.47,29.75,,Clear
KIGQ,04/07/2017 16:55 UTC,30.12,45.86,23.18,39.32,11.5,360.0,21.85,,,,,1.0,,,,10.0,,KIGQ 071655Z AUTO 36010G19KT 10SM CLR 08/M05 A3012 RMK AO2  T00771049,,,,,,22.28,,N,29.47,29.76,,Clear
KIGQ,04/07/2017 17:15 UTC,30.11,46.04,22.82,39.32,14.97,10.0,19.57,,,,,1.0,,,,10.0,,KIGQ 071715Z AUTO 01013G17KT 10SM CLR 08/M05 A3011 RMK AO2  T00781051,,,,,,22.45,,N,29.46,29.75,,Clear
KIGQ,04/07/2017 17:35 UTC,30.12,46.4,22.82,39.32,14.97,360.0,20.71,,,,,1.0,,,,10.0,,KIGQ 071735Z AUTO 36013G18KT 10SM CLR 08/M05 A3012 RMK AO2  T00801051,,,,,,22.77,,N,29.47,29.75,,Clear
KIGQ,04/07/2017 17:55 UTC,30.12,46.58,24.08,42.41,12.66,30.0,18.41,,,,,1.0,,,,10.0,,KIGQ 071755Z AUTO 03011G16KT 10SM CLR 08/M04 A3012 RMK AO2  T00811044 10082 20021,46.76,35.78,,,,24.75,,NNE,29.47,29.72,,Clear
KIGQ,04/07/2017 18:15 UTC,30.12,47.3,25.16,39.63,12.66,30.0,17.27,,,,,1.0,,,,10.0,,KIGQ 071815Z AUTO 03011G15KT 10SM CLR 09/M04 A3012 RMK AO2  T00851038,,,,,,23.77,,NNE,29.47,29.73,,Clear
KIGQ,04/07/2017 18:35 UTC,30.12,47.3,27.5,46.0,12.66,30.0,16.11,,,,,1.0,,,,10.0,,KIGQ 071835Z AUTO 03011G14KT 10SM CLR 09/M02 A3012 RMK AO2  T00851025,,,,,,27.38,,NNE,29.47,29.68,,Clear
KIGQ,04/07/2017 18:55 UTC,30.12,47.3,27.32,42.71,12.66,40.0,16.11,,,,,1.0,,,,10.0,,KIGQ 071855Z AUTO 04011G14KT 10SM CLR 09/M03 A3012 RMK AO2  T00851026,,,,,,25.57,,NE,29.47,29.71,,Clear
KIGQ,04/07/2017 19:15 UTC,30.12,48.2,27.5,46.0,11.5,30.0,,,,,,1.0,,,,10.0,,KIGQ 071915Z AUTO 03010KT 10SM CLR 09/M02 A3012 RMK AO2  T00901025,,,,,,28.2,,NNE,29.47,29.66,,Clear
KIGQ,04/07/2017 19:35 UTC,30.12,48.38,27.32,42.71,10.36,40.0,,,,,,1.0,,,,10.0,,KIGQ 071935Z AUTO 04009KT 10SM CLR 09/M03 A3012 RMK AO2  T00911026,,,,,,26.55,,NE,29.47,29.69,,Clear
KIGQ,04/07/2017 19:55 UTC,30.11,49.46,26.06,39.93,10.36,30.0,,,,,,1.0,,,,10.0,,KIGQ 071955Z AUTO 03009KT 320V040 10SM CLR 10/M03 A3011 RMK AO2  T00971033,,,,,,25.9,,NNE,29.46,29.68,,Clear
KIGQ,04/07/2017 20:15 UTC,30.11,49.46,23.0,34.36,12.66,30.0,19.57,,,,,1.0,,,,10.0,,KIGQ 072015Z AUTO 03011G17KT 10SM CLR 10/M05 A3011 RMK AO2  T00971050,,,,,,22.3,,NNE,29.46,29.73,,Clear
KIGQ,04/07/2017 20:35 UTC,30.1,48.56,21.2,34.05,13.8,10.0,20.71,,,,,1.0,,,,10.0,,KIGQ 072035Z AUTO 01012G18KT 10SM CLR 09/M06 A3010 RMK AO2  T00921060,,,,,,21.28,,N,29.45,29.74,,Clear
KIGQ,04/07/2017 20:55 UTC,30.1,49.28,24.26,37.05,13.8,20.0,17.27,,,,,1.0,,,,10.0,,KIGQ 072055Z AUTO 02012G15KT 350V050 10SM CLR 10/M04 A3010 RMK AO2  T00961043,,,,,,23.93,,NNE,29.45,29.7,,Clear
KIGQ,04/07/2017 21:15 UTC,30.09,48.2,22.64,36.75,14.97,20.0,21.85,,,,,1.0,,,,10.0,,KIGQ 072115Z AUTO 02013G19KT 10SM CLR 09/M05 A3009 RMK AO2  T00901052,,,,,,22.77,,NNE,29.44,29.71,,Clear
KIGQ,04/07/2017 21:35 UTC,30.1,48.56,24.62,38.81,13.8,10.0,17.27,,,,,1.0,,,,10.0,,KIGQ 072135Z AUTO 01012G15KT 10SM CLR 09/M04 A3010 RMK AO2  T00921041,,,,,,24.4,,N,29.45,29.7,,Clear
KIGQ,04/07/2017 21:55 UTC,30.09,48.56,24.62,39.63,11.5,30.0,17.27,,,,,1.0,,,,10.0,,KIGQ 072155Z AUTO 03010G15KT 10SM CLR 09/M04 A3009 RMK AO2  T00921041,,,,,,24.91,,NNE,29.44,29.68,,Clear
KIGQ,04/07/2017 22:15 UTC,30.1,48.38,22.46,36.75,13.8,40.0,,,,,,1.0,,,,10.0,,KIGQ 072215Z AUTO 04012KT 10SM CLR 09/M05 A3010 RMK AO2  T00911053,,,,,,22.93,,NE,29.45,29.72,,Clear
KIGQ,04/07/2017 22:35 UTC,30.1,47.84,23.0,36.75,11.5,30.0,,,,,,1.0,,,,10.0,,KIGQ 072235Z AUTO 03010KT 10SM CLR 09/M05 A3010 RMK AO2  T00881050,,,,,,22.45,,NNE,29.45,29.73,,Clear
KIGQ,04/07/2017 22:55 UTC,30.1,47.3,22.28,36.75,8.05,20.0,,,,,,1.0,,,,10.0,,KIGQ 072255Z AUTO 02007KT 10SM CLR 09/M05 A3010 RMK AO2  T00851054,,,,,,21.97,,NNE,29.45,29.74,,Clear
KIGQ,04/07/2017 23:15 UTC,30.09,47.12,23.54,39.32,9.22,40.0,,,,,,1.0,,,,10.0,,KIGQ 072315Z AUTO 04008KT 10SM CLR 08/M05 A3009 RMK AO2  T00841047,,,,,,23.42,,NE,29.44,29.71,,Clear
KIGQ,04/07/2017 23:35 UTC,30.09,46.04,24.62,42.41,9.22,80.0,,,,,,1.0,,,,10.0,,KIGQ 072335Z AUTO 08008KT 10SM CLR 08/M04 A3009 RMK AO2  T00781041,,,,,,24.26,,E,29.44,29.7,,Clear
KIGQ,04/07/2017 23:55 UTC,30.09,44.6,23.54,43.07,8.05,60.0,,,,,,1.0,,,,10.0,,KIGQ 072355Z AUTO 06007KT 10SM CLR 07/M05 A3009 RMK AO2 T00701047  10100 20070,50.0,44.6,,,,23.32,41.88,ENE,29.44,29.72,,Clear
KIGQ,04/08/2017 00:15 UTC,30.08,43.16,23.0,45.1,4.61,40.0,,,,,,1.0,,,,10.0,,KIGQ 080015Z AUTO 04004KT 10SM CLR 06/M05 A3008 RMK AO2  T00621050,,,,,,23.11,,NE,29.43,29.72,,Clear
KIGQ,04/08/2017 00:35 UTC,30.08,42.44,21.38,41.8,3.44,50.0,,,,,,1.0,,,,10.0,,KIGQ 080035Z AUTO 05003KT 10SM CLR 06/M06 A3008 RMK AO2  T00581059,,,,,,20.64,,NE,29.43,29.76,,Clear
KIGQ,04/08/2017 00:55 UTC,30.08,41.9,22.1,45.1,3.44,70.0,,,,,,1.0,,,,10.0,,KIGQ 080055Z AUTO 07003KT 10SM CLR 06/M05 A3008 RMK AO2  T00551055,,,,,,21.96,,ENE,29.43,29.74,,Clear
KIGQ,04/08/2017 01:15 UTC,30.08,41.72,24.62,52.13,0.0,0.0,,,,,,1.0,,,,10.0,,KIGQ 080115Z AUTO 00000KT 10SM CLR 05/M04 A3008 RMK AO2  T00541041,,,,,,25.27,,N,29.43,29.7,,Clear
KIGQ,04/08/2017 01:35 UTC,30.08,41.72,24.44,52.13,0.0,0.0,,,,,,1.0,,,,10.0,,KIGQ 080135Z AUTO 00000KT 10SM CLR 05/M04 A3008 RMK AO2  T00541042,,,,,,25.27,,N,29.43,29.7,,Clear
KIGQ,04/08/2017 01:55 UTC,30.08,40.82,24.98,52.13,0.0,0.0,,,,,,1.0,,,,10.0,,KIGQ 080155Z AUTO 00000KT 10SM CLR 05/M04 A3008 RMK AO2  T00491039,,,,,,24.43,,N,29.43,29.72,,Clear
KIGQ,04/08/2017 02:15 UTC,30.09,38.48,29.84,69.85,3.44,180.0,,,,,,1.0,,,,10.0,,KIGQ 080215Z AUTO 18003KT 10SM CLR 04/M01 A3009 RMK AO2  T00361012,,,,,,29.38,,S,29.44,29.67,,Clear
KIGQ,04/08/2017 02:35 UTC,30.08,36.32,31.28,86.58,0.0,0.0,,,,,,1.0,,,,10.0,,KIGQ 080235Z AUTO 00000KT 10SM CLR 02/00 A3008 RMK AO2  T00241004,,,,,,32.65,,N,29.43,29.63,,Clear
KIGQ,04/08/2017 02:55 UTC,30.08,36.32,25.88,69.43,3.44,200.0,,,,,,1.0,,,,10.0,,KIGQ 080255Z AUTO 20003KT 10SM CLR 02/M03 A3008 RMK AO2  T00241034,,,,,,27.16,,SSW,29.43,29.71,,Clear
KIGQ,04/08/2017 03:15 UTC,30.08,35.78,28.4,74.78,0.0,0.0,,,,,,1.0,,,,10.0,,KIGQ 080315Z AUTO 00000KT 10SM CLR 02/M02 A3008 RMK AO2  T00211020,,,,,,28.47,,N,29.43,29.69,,Clear
KIGQ,04/08/2017 03:35 UTC,30.07,35.06,28.76,74.78,3.44,180.0,,,,,,1.0,,,,10.0,,KIGQ 080335Z AUTO 18003KT 10SM CLR 02/M02 A3007 RMK AO2  T00171018,,,,,,27.77,,S,29.42,29.7,,Clear
KIGQ,04/08/2017 03:55 UTC,30.07,34.88,27.5,74.78,3.44,180.0,,,,,,1.0,,,,10.0,,KIGQ 080355Z AUTO 18003KT 10SM CLR 02/M02 A3007 RMK AO2  T00161025,,,,,,27.6,,S,29.42,29.7,,Clear
KIGQ,04/08/2017 04:15 UTC,30.06,35.24,27.68,74.78,3.44,170.0,,,,,,1.0,,,,10.0,,KIGQ 080415Z AUTO 17003KT 10SM CLR 02/M02 A3006 RMK AO2  T00181024,,,,,,27.94,,S,29.41,29.68,,Clear
KIGQ,04/08/2017 04:35 UTC,30.06,36.14,29.12,74.78,3.44,200.0,,,,,,1.0,,,,10.0,,KIGQ 080435Z AUTO 20003KT 10SM CLR 02/M02 A3006 RMK AO2  T00231016,,,,,,28.81,,SSW,29.41,29.67,,Clear
KIGQ,04/08/2017 04:55 UTC,30.07,36.68,30.92,74.96,0.0,0.0,,,,,,1.0,,,,10.0,,KIGQ 080455Z AUTO 00000KT 10SM CLR 03/M01 A3007 RMK AO2  T00261006,,,,,,29.4,,N,29.42,29.66,,Clear
KIGQ,04/08/2017 05:15 UTC,30.07,36.32,30.38,80.49,3.44,220.0,,,,,,1.0,,,,10.0,,KIGQ 080515Z AUTO 22003KT 10SM CLR 02/M01 A3007 RMK AO2  T00241009,,,,,,30.82,,SW,29.42,29.65,,Clear
KIGQ,04/08/2017 05:35 UTC,30.07,35.96,29.3,80.49,0.0,0.0,,,,,,1.0,,,,10.0,,KIGQ 080535Z AUTO 00000KT 10SM CLR 02/M01 A3007 RMK AO2  T00221015,,,,,,30.47,,N,29.42,29.65,,Clear
KIGQ,04/08/2017 05:55 UTC,30.07,36.32,28.22,74.78,3.44,220.0,,,,,,1.0,,,,10.0,,KIGQ 080555Z AUTO 22003KT 10SM CLR 02/M02 A3007 RMK AO2 T00241021  10070 20015 401000015,44.6,34.7,,50.0,34.7,28.99,,SW,29.42,29.67,,Clear
KIGQ,04/08/2017 06:15 UTC,30.07,36.5,29.48,74.96,0.0,0.0,,,,,,1.0,,,,10.0,,KIGQ 080615Z AUTO 00000KT 10SM CLR 03/M01 A3007 RMK AO2  T00251014,,,,,,29.22,,N,29.42,29.67,,Clear
KIGQ,04/08/2017 06:35 UTC,30.07,36.14,26.96,69.43,3.44,190.0,,,,,,1.0,,,,10.0,,KIGQ 080635Z AUTO 19003KT 10SM CLR 02/M03 A3007 RMK AO2  T00231028,,,,,,26.99,,S,29.42,29.7,,Clear
KIGQ,04/08/2017 06:55 UTC,30.06,36.68,26.78,64.66,5.75,200.0,,,,,,1.0,,,,10.0,,KIGQ 080655Z AUTO 20005KT 10SM CLR 03/M03 A3006 RMK AO2  T00261029,,,,,,25.76,,SSW,29.41,29.7,,Clear
KIGQ,04/08/2017 07:15 UTC,30.06,37.4,25.52,60.0,4.61,200.0,,,,,,1.0,,,,10.0,,KIGQ 080715Z AUTO 20004KT 10SM CLR 03/M04 A3006 RMK AO2  T00301036,,,,,,24.63,,SSW,29.41,29.71,,Clear
KIGQ,04/08/2017 07:35 UTC,30.06,38.12,26.6,64.66,3.44,200.0,,,,,,1.0,,,,10.0,,KIGQ 080735Z AUTO 20003KT 10SM CLR 03/M03 A3006 RMK AO2  T00341030,,,,,,27.13,,SSW,29.41,29.68,,Clear
KIGQ,04/08/2017 07:55 UTC,30.05,37.4,25.7,64.66,3.44,190.0,,,,,,1.0,,,,10.0,,KIGQ 080755Z AUTO 19003KT 10SM CLR 03/M03 A3005 RMK AO2  T00301035,,,,,,26.45,,S,29.4,29.68,,Clear
KIGQ,04/08/2017 08:15 UTC,30.06,36.86,26.24,64.66,4.61,220.0,,,,,,1.0,,,,10.0,,KIGQ 080815Z AUTO 22004KT 10SM CLR 03/M03 A3006 RMK AO2  T00271032,,,,,,25.93,,SW,29.41,29.7,,Clear
KIGQ,04/08/2017 08:35 UTC,30.06,35.78,25.16,64.42,3.44,220.0,,,,,,1.0,,,,10.0,,KIGQ 080835Z AUTO 22003KT 10SM CLR 02/M04 A3006 RMK AO2  T00211038,,,,,,24.82,,SW,29.41,29.72,,Clear
KIGQ,04/08/2017 08:55 UTC,30.06,36.68,24.62,60.0,0.0,0.0,,,,,,1.0,,,,10.0,,KIGQ 080855Z AUTO 00000KT 10SM CLR 03/M04 A3006 RMK AO2  T00261041,,,,,,23.95,,N,29.41,29.73,,Clear
KIGQ,04/08/2017 09:15 UTC,30.06,37.04,24.8,60.0,3.44,210.0,,,,,,1.0,,,,10.0,,KIGQ 080915Z AUTO 21003KT 10SM CLR 03/M04 A3006 RMK AO2  T00281040,,,,,,24.29,,SSW,29.41,29.72,,Clear
KIGQ,04/08/2017 09:35 UTC,30.05,35.24,24.62,64.42,3.44,190.0,,,,,,1.0,,,,10.0,,KIGQ 080935Z AUTO 19003KT 10SM CLR 02/M04 A3005 RMK AO2  T00181041,,,,,,24.3,,S,29.4,29.72,,Clear
KIGQ,04/08/2017 09:55 UTC,30.05,37.4,24.44,59.1,3.44,200.0,,,,,,1.0,,,,10.0,,KIGQ 080955Z AUTO 20003KT 10SM CLR 03/M04 A3005 RMK AO2  T00301042,,,,,,24.26,,SSW,29.4,29.71,,Clear
KIGQ,04/08/2017 10:15 UTC,30.05,35.78,24.8,64.42,3.44,190.0,,,,,,1.0,,,,10.0,,KIGQ 081015Z AUTO 19003KT 10SM CLR 02/M04 A3005 RMK AO2  T00211040,,,,,,24.82,,S,29.4,29.71,,Clear
KIGQ,04/08/2017 10:35 UTC,30.06,35.6,26.06,69.43,4.61,190.0,,,,,,1.0,,,,10.0,,KIGQ 081035Z AUTO 19004KT 10SM CLR 02/M03 A3006 RMK AO2  T00201033,,,,,,26.47,,S,29.41,29.7,,Clear
KIGQ,04/08/2017 10:55 UTC,30.06,36.5,26.78,64.66,5.75,190.0,,,,,,1.0,,,,10.0,,KIGQ 081055Z AUTO 19005KT 10SM CLR 03/M03 A3006 RMK AO2  T00251029,,,,,,25.59,,S,29.41,29.71,,Clear
KIGQ,04/08/2017 11:15 UTC,30.06,36.5,26.96,64.66,4.61,210.0,,,,,,1.0,,,,10.0,,KIGQ 081115Z AUTO 21004KT 10SM CLR 03/M03 A3006 RMK AO2  T00251028,,,,,,25.59,,SSW,29.41,29.71,,Clear
KIGQ,04/08/2017 11:35 UTC,30.06,35.78,27.68,74.78,4.61,200.0,,,,,,1.0,,,,10.0,,KIGQ 081135Z AUTO 20004KT 10SM CLR 02/M02 A3006 RMK AO2  T00211024,,,,,,28.47,,SSW,29.41,29.67,,Clear
KIGQ,04/08/2017 11:55 UTC,30.08,37.04,27.5,69.64,3.44,190.0,,,,,,1.0,,,,10.0,,KIGQ 081155Z AUTO 19003KT 10SM CLR 03/M02 A3008 RMK AO2 T00281025  10034 20015,38.12,34.7,,,,27.92,,S,29.43,29.69,,Clear
KIGQ,04/08/2017 12:15 UTC,30.08,38.3,27.5,64.9,3.44,190.0,,,,,,1.0,,,,10.0,,KIGQ 081215Z AUTO 19003KT 10SM CLR 04/M02 A3008 RMK AO2  T00351025,,,,,,27.4,,S,29.43,29.69,,Clear
KIGQ,04/08/2017 12:35 UTC,30.09,39.38,30.02,69.85,4.61,190.0,,,,,,1.0,,,,10.0,,KIGQ 081235Z AUTO 19004KT 10SM CLR 04/M01 A3009 RMK AO2  T00411011,,,,,,30.25,,S,29.44,29.65,,Clear
KIGQ,04/08/2017 12:55 UTC,30.08,41.72,31.1,65.7,8.05,190.0,,,,,,1.0,,,,10.0,,KIGQ 081255Z AUTO 19007KT 10SM CLR 05/00 A3008 RMK AO2  T00541005,,,,,,30.96,38.49,S,29.43,29.62,,Clear
KIGQ,04/08/2017 13:15 UTC,30.09,43.88,32.0,61.02,8.05,200.0,,,,,,1.0,,,,10.0,,KIGQ 081315Z AUTO 20007KT 10SM CLR 07/00 A3009 RMK AO2  T00660000,,,,,,31.17,41.03,SSW,29.44,29.61,,Clear
KIGQ,04/08/2017 13:35 UTC,30.08,46.4,33.44,61.27,9.22,190.0,,,,,,1.0,,,,10.0,,KIGQ 081335Z AUTO 19008KT 10SM CLR 08/01 A3008 RMK AO2  T00800008,,,,,,33.66,,S,29.43,29.54,,Clear
KIGQ,04/08/2017 13:55 UTC,30.08,48.38,35.06,61.51,10.36,200.0,,,,,,1.0,,,,10.0,,KIGQ 081355Z AUTO 20009KT 10SM CLR 09/02 A3008 RMK AO2  T00910017,,,,,,35.63,,SSW,29.43,29.49,,Clear
KIGQ,04/08/2017 14:15 UTC,30.08,50.0,35.06,57.52,11.5,210.0,,,,,,1.0,,,,10.0,,KIGQ 081415Z AUTO 21010KT 10SM CLR 10/02 A3008 RMK AO2  T01000017,,,,,,35.45,,SSW,29.43,29.48,,Clear
KIGQ,04/08/2017 14:35 UTC,30.07,51.26,35.78,53.81,12.66,190.0,,,,,,1.0,,,,10.0,,KIGQ 081435Z AUTO 19011KT 10SM CLR 11/02 A3007 RMK AO2  T01070021,,,,,,34.94,,S,29.42,29.47,,Clear
KIGQ,04/08/2017 14:55 UTC,30.06,52.88,35.78,50.37,12.66,190.0,,,,,,1.0,,,,10.0,,KIGQ 081455Z AUTO 19011KT 10SM CLR 12/02 A3006 RMK AO2  T01160021,,,,,,34.77,,S,29.41,29.45,,Clear
KIGQ,04/08/2017 15:15 UTC,30.05,54.14,36.14,50.37,13.8,200.0,,,,,,1.0,,,,10.0,,KIGQ 081515Z AUTO 20012KT 10SM CLR 12/02 A3005 RMK AO2  T01230023,,,,,,35.94,,SSW,29.4,29.41,,Clear
KIGQ,04/08/2017 15:35 UTC,30.05,54.68,36.32,47.17,18.41,180.0,23.02,,,,,1.0,,,,10.0,,KIGQ 081535Z AUTO 18016G20KT 10SM CLR 13/02 A3005 RMK AO2  T01260024,,,,,,34.78,,S,29.4,29.43,,Clear
KIGQ,04/08/2017 15:55 UTC,30.04,55.58,35.6,47.17,16.11,200.0,,,,,,1.0,,,,10.0,,KIGQ 081555Z AUTO 20014KT 10SM CLR 13/02 A3004 RMK AO2  T01310020,,,,,,35.6,,SSW,29.39,29.4,,Clear
KIGQ,04/08/2017 16:15 UTC,30.04,56.66,35.78,44.2,18.41,200.0,,,,,,1.0,,,,10.0,,KIGQ 081615Z AUTO 20016KT 10SM CLR 14/02 A3004 RMK AO2  T01370021,,,,,,34.95,,SSW,29.39,29.41,,Clear
KIGQ,04/08/2017 16:35 UTC,30.03,57.38,37.22,47.46,18.41,200.0,23.02,,,,,1.0,,,,10.0,,KIGQ 081635Z AUTO 20016G20KT 10SM CLR 14/03 A3003 RMK AO2  T01410029,,,,,,37.42,,SSW,29.38,29.34,,Clear
KIGQ,04/08/2017 16:55 UTC,30.02,58.46,37.76,44.49,13.8,200.0,21.85,,,,,1.0,,,,10.0,,KIGQ 081655Z AUTO 20012G19KT 10SM CLR 15/03 A3002 RMK AO2  T01470032,,,,,,36.76,,SSW,29.37,29.33,,Clear
KIGQ,04/08/2017 17:15 UTC,30.01,59.0,37.94,44.49,18.41,190.0,23.02,,,,,1.0,,,,10.0,,KIGQ 081715Z AUTO 19016G20KT 10SM CLR 15/03 A3001 RMK AO2  T01500033,,,,,,37.25,,S,29.36,29.31,,Clear
KIGQ,04/08/2017 17:35 UTC,30.0,60.08,38.84,44.78,18.41,190.0,23.02,,,,,1.0,,,,10.0,,KIGQ 081735Z AUTO 19016G20KT 10SM CLR 16/04 A3000 RMK AO2  T01560038,,,,,,38.4,,S,29.35,29.26,,Clear
KIGQ,04/08/2017 17:55 UTC,30.0,60.8,38.84,44.78,18.41,210.0,24.16,,,,,1.0,,,,10.0,,KIGQ 081755Z AUTO 21016G21KT 10SM CLR 16/04 A3000 RMK AO2  T01600038 10160 20028,60.8,37.04,,,,39.06,,SSW,29.35,29.24,,Clear
KIGQ,04/08/2017 18:15 UTC,29.99,61.52,40.1,48.03,17.27,210.0,,,,,,1.0,,,,10.0,,KIGQ 081815Z AUTO 21015KT 10SM CLR 16/05 A2999 RMK AO2  T01640045,,,,,,41.53,,SSW,29.34,29.16,,Clear
KIGQ,04/08/2017 18:35 UTC,29.99,61.7,39.38,42.03,19.57,190.0,24.16,,,,,1.0,,,,10.0,,KIGQ 081835Z AUTO 19017G21KT 10SM CLR 17/04 A2999 RMK AO2  T01650041,,,,,,38.25,,S,29.34,29.25,,Clear
KIGQ,04/08/2017 18:55 UTC,29.98,62.6,40.64,45.07,17.27,210.0,21.85,,,,,1.0,,,,10.0,,KIGQ 081855Z AUTO 21015G19KT 10SM CLR 17/05 A2998 RMK AO2  T01700048,,,,,,40.87,,SSW,29.33,29.16,,Clear
KIGQ,04/08/2017 19:15 UTC,29.98,63.32,41.54,45.07,14.97,190.0,,,,,,1.0,,,,10.0,,KIGQ 081915Z AUTO 19013KT 10SM CLR 17/05 A2998 RMK AO2  T01740053,,,,,,41.53,,S,29.33,29.14,,Clear
KIGQ,04/08/2017 19:35 UTC,29.97,62.96,40.46,45.07,18.41,180.0,,,,,,1.0,,,,10.0,,KIGQ 081935Z AUTO 18016KT 10SM CLR 17/05 A2997 RMK AO2  T01720047,,,,,,41.2,,S,29.32,29.14,,Clear
KIGQ,04/08/2017 19:55 UTC,29.96,64.04,41.72,42.32,18.41,200.0,21.85,,,,,1.0,,,,10.0,,KIGQ 081955Z AUTO 20016G19KT 10SM CLR 18/05 A2996 RMK AO2  T01780054,,,,,,40.56,,SSW,29.31,29.14,,Clear
KIGQ,04/08/2017 20:15 UTC,29.94,64.22,42.08,45.36,14.97,210.0,24.16,,,,,1.0,,,,10.0,,KIGQ 082015Z AUTO 21013G21KT 10SM CLR 18/06 A2994 RMK AO2  T01790056,,,,,,42.52,,SSW,29.29,29.06,,Clear
KIGQ,04/08/2017 20:35 UTC,29.93,64.04,42.44,45.36,16.11,190.0,23.02,,,,,1.0,,,,10.0,,KIGQ 082035Z AUTO 19014G20KT 10SM CLR 18/06 A2993 RMK AO2  T01780058,,,,,,42.36,,S,29.28,29.06,,Clear
KIGQ,04/08/2017 20:55 UTC,29.92,64.76,43.52,45.36,17.27,200.0,21.85,,,,,1.0,,,,10.0,,KIGQ 082055Z AUTO 20015G19KT 10SM CLR 18/06 A2992 RMK AO2  T01820064,,,,,,43.02,,SSW,29.27,29.02,,Clear
KIGQ,04/08/2017 21:15 UTC,29.91,64.94,42.8,45.36,16.11,190.0,24.16,,,,,1.0,,,,10.0,,KIGQ 082115Z AUTO 19014G21KT 10SM CLR 18/06 A2991 RMK AO2  T01830060,,,,,,43.18,,S,29.26,29.0,,Clear
KIGQ,04/08/2017 21:35 UTC,29.91,64.58,42.62,45.36,18.41,180.0,23.02,,,,,1.0,,,,10.0,,KIGQ 082135Z AUTO 18016G20KT 10SM CLR 18/06 A2991 RMK AO2  T01810059,,,,,,42.85,,S,29.26,29.02,,Clear
KIGQ,04/08/2017 21:55 UTC,29.91,64.4,42.08,45.36,17.27,180.0,26.46,,,,,1.0,,,,10.0,,KIGQ 082155Z AUTO 18015G23KT 10SM CLR 18/06 A2991 RMK AO2  T01800056,,,,,,42.69,,S,29.26,29.02,,Clear
KIGQ,04/08/2017 22:15 UTC,29.9,63.86,41.36,42.32,18.41,190.0,21.85,,,,,1.0,,,,10.0,,KIGQ 082215Z AUTO 19016G19KT 10SM CLR 18/05 A2990 RMK AO2  T01770052,,,,,,40.39,,S,29.25,29.08,,Clear
KIGQ,04/08/2017 22:35 UTC,29.89,63.86,42.08,45.36,19.57,180.0,25.32,,,,,1.0,,,,10.0,,KIGQ 082235Z AUTO 18017G22KT 10SM CLR 18/06 A2989 RMK AO2  T01770056,,,,,,42.19,,S,29.24,29.02,,Clear
KIGQ,04/08/2017 22:55 UTC,29.88,63.5,42.8,45.36,19.57,180.0,24.16,,,,,1.0,,,,10.0,,KIGQ 082255Z AUTO 18017G21KT 10SM CLR 18/06 A2988 RMK AO2  T01750060,,,,,,41.86,,S,29.23,29.02,,Clear
KIGQ,04/08/2017 23:15 UTC,29.88,63.32,42.8,48.31,19.57,180.0,25.32,,,,,1.0,,,,10.0,,KIGQ 082315Z AUTO 18017G22KT 10SM CLR 17/06 A2988 RMK AO2  T01740060,,,,,,43.34,,S,29.23,28.98,,Clear
KIGQ,04/08/2017 23:35 UTC,29.88,62.06,41.9,48.31,19.57,180.0,24.16,,,,,1.0,,,,10.0,,KIGQ 082335Z AUTO 18017G21KT 10SM CLR 17/06 A2988 RMK AO2  T01670055,,,,,,42.18,,S,29.23,29.02,,Clear
KIGQ,04/08/2017 23:55 UTC,29.87,61.34,41.72,48.03,16.11,180.0,20.71,,,,,1.0,,,,10.0,,KIGQ 082355Z AUTO 18014G18KT 10SM CLR 16/05 A2987 RMK AO2  T01630054 10185 20160,65.3,60.8,,,,41.37,,S,29.22,29.04,,Clear
KIGQ,04/09/2017 00:15 UTC,29.87,60.26,41.54,48.03,12.66,180.0,,,,,,1.0,,,,10.0,,KIGQ 090015Z AUTO 18011KT 10SM CLR 16/05 A2987 RMK AO2  T01570053,,,,,,40.37,,S,29.22,29.08,,Clear
KIGQ,04/09/2017 00:35 UTC,29.87,58.64,41.18,51.21,10.36,170.0,,,,,,1.0,,,,10.0,,KIGQ 090035Z AUTO 17009KT 10SM CLR 15/05 A2987 RMK AO2  T01480051,,,,,,40.54,,S,29.22,29.08,,Clear
KIGQ,04/09/2017 00:55 UTC,29.87,57.92,41.36,54.62,11.5,170.0,,,,,,1.0,,,,10.0,,KIGQ 090055Z AUTO 17010KT 10SM CLR 14/05 A2987 RMK AO2  T01440052,,,,,,41.54,,S,29.22,29.06,,Clear
KIGQ,04/09/2017 01:15 UTC,29.88,57.74,41.36,54.62,10.36,170.0,,,,,,1.0,,,,10.0,,KIGQ 090115Z AUTO 17009KT 10SM CLR 14/05 A2988 RMK AO2  T01430052,,,,,,41.37,,S,29.23,29.08,,Clear
KIGQ,04/09/2017 01:35 UTC,29.88,57.2,41.18,54.62,10.36,170.0,,,,,,1.0,,,,10.0,,KIGQ 090135Z AUTO 17009KT 10SM CLR 14/05 A2988 RMK AO2  T01400051,,,,,,40.87,,S,29.23,29.1,,Clear
KIGQ,04/09/2017 01:55 UTC,29.88,56.84,41.0,54.62,11.5,170.0,,,,,,1.0,,,,10.0,,KIGQ 090155Z AUTO 17010KT 10SM CLR 14/05 A2988 RMK AO2  T01380050,,,,,,40.53,,S,29.23,29.11,,Clear
KIGQ,04/09/2017 02:15 UTC,29.88,56.66,40.64,54.62,11.5,170.0,,,,,,1.0,,,,10.0,,KIGQ 090215Z AUTO 17010KT 10SM CLR 14/05 A2988 RMK AO2  T01370048,,,,,,40.37,,S,29.23,29.11,,Clear
KIGQ,04/09/2017 02:35 UTC,29.89,56.12,41.18,58.29,10.36,180.0,,,,,,1.0,,,,10.0,,KIGQ 090235Z AUTO 18009KT 10SM CLR 13/05 A2989 RMK AO2  T01340051,,,,,,41.55,,S,29.24,29.1,,Clear
KIGQ,04/09/2017 02:55 UTC,29.88,55.4,41.0,58.29,12.66,170.0,,,,,,1.0,,,,10.0,,KIGQ 090255Z AUTO 17011KT 10SM CLR 13/05 A2988 RMK AO2  T01300050,,,,,,40.87,,S,29.23,29.11,,Clear
KIGQ,04/09/2017 03:15 UTC,29.88,54.5,41.18,58.29,12.66,180.0,,,,,,1.0,,,,10.0,,KIGQ 090315Z AUTO 18011KT 10SM CLR 13/05 A2988 RMK AO2  T01250051,,,,,,40.03,,S,29.23,29.14,,Clear
KIGQ,04/09/2017 03:35 UTC,29.88,54.14,41.18,62.24,12.66,180.0,,,,,,1.0,,,,10.0,,KIGQ 090335Z AUTO 18011KT 10SM CLR 12/05 A2988 RMK AO2  T01230051,,,,,,41.39,,S,29.23,29.11,,Clear
KIGQ,04/09/2017 03:55 UTC,29.88,53.6,41.0,62.24,10.36,180.0,,,,,,1.0,,,,10.0,,KIGQ 090355Z AUTO 18009KT 10SM CLR 12/05 A2988 RMK AO2  T01200050,,,,,,40.88,,S,29.23,29.12,,Clear
KIGQ,04/09/2017 04:15 UTC,29.88,53.6,40.64,62.24,11.5,180.0,,,,,,1.0,,,,10.0,,KIGQ 090415Z AUTO 18010KT 10SM CLR 12/05 A2988 RMK AO2 LTG DSNT W  T01200048,,,,,,40.88,,S,29.23,29.12,,Clear
KIGQ,04/09/2017 04:35 UTC,29.87,54.32,40.1,62.24,13.8,180.0,19.57,,,,,1.0,,,,10.0,,KIGQ 090435Z AUTO 18012G17KT 10SM CLR 12/05 A2987 RMK AO2 LTG DSNT  W T01240045,,,,,,41.56,,S,29.22,29.09,,Clear
KIGQ,04/09/2017 04:55 UTC,29.88,54.32,40.1,62.24,14.97,180.0,,,,,,1.0,,,,10.0,,KIGQ 090455Z AUTO 18013KT 10SM CLR 12/05 A2988 RMK AO2  T01240045,,,,,,41.56,,S,29.23,29.1,,Clear
KIGQ,04/09/2017 05:15 UTC,29.87,53.96,40.1,62.24,13.8,180.0,,,,,,1.0,,,,10.0,,KIGQ 090515Z AUTO 18012KT 10SM CLR 12/05 A2987 RMK AO2  T01220045,,,,,,41.22,,S,29.22,29.1,,Clear
KIGQ,04/09/2017 05:35 UTC,29.87,53.6,40.1,62.24,13.8,180.0,,,,,,1.0,,,,10.0,,KIGQ 090535Z AUTO 18012KT 10SM CLR 12/05 A2987 RMK AO2  T01200045,,,,,,40.88,,S,29.22,29.11,,Clear
KIGQ,04/09/2017 05:55 UTC,29.87,53.6,40.28,62.24,11.5,180.0,,,,,,1.0,,,,10.0,,KIGQ 090555Z AUTO 18010KT 10SM CLR 12/05 A2987 RMK AO2 T01200046  10162 20119 401850015,61.16,53.42,,65.3,34.7,40.88,,S,29.22,29.11,,Clear
KIGQ,04/09/2017 06:15 UTC,29.87,53.96,40.46,62.24,13.8,190.0,19.57,,,,,1.0,,,,10.0,,KIGQ 090615Z AUTO 19012G17KT 10SM CLR 12/05 A2987 RMK AO2  T01220047,,,,,,41.22,,S,29.22,29.1,,Clear
KIGQ,04/09/2017 06:35 UTC,29.87,55.04,40.46,58.29,13.8,180.0,,,,,,1.0,,,,10.0,,KIGQ 090635Z AUTO 18012KT 10SM CLR 13/05 A2987 RMK AO2  T01280047,,,,,,40.53,,S,29.22,29.11,,Clear
KIGQ,04/09/2017 06:55 UTC,29.86,55.22,40.82,58.29,14.97,190.0,20.71,,,,,1.0,,,,10.0,,KIGQ 090655Z AUTO 19013G18KT 10SM CLR 13/05 A2986 RMK AO2  T01290049,,,,,,40.7,,S,29.21,29.09,,Clear
KIGQ,04/09/2017 07:15 UTC,29.86,54.86,41.18,58.29,13.8,180.0,18.41,,,,,1.0,,,,10.0,,KIGQ 090715Z AUTO 18012G16KT 10SM CLR 13/05 A2986 RMK AO2  T01270051,,,,,,40.36,,S,29.21,29.11,,Clear
KIGQ,04/09/2017 07:35 UTC,29.85,55.04,41.0,58.29,13.8,180.0,,,,,,1.0,,,,10.0,,KIGQ 090735Z AUTO 18012KT 10SM CLR 13/05 A2985 RMK AO2  T01280050,,,,,,40.53,,S,29.2,29.09,,Clear
KIGQ,04/09/2017 07:55 UTC,29.84,55.4,41.36,58.29,14.97,190.0,,,,,,1.0,,,,10.0,,KIGQ 090755Z AUTO 19013KT 10SM CLR 13/05 A2984 RMK AO2  T01300052,,,,,,40.87,,S,29.19,29.07,,Clear
KIGQ,04/09/2017 08:15 UTC,29.84,55.58,41.72,58.29,13.8,190.0,19.57,,,,,1.0,,,,10.0,,KIGQ 090815Z AUTO 19012G17KT 10SM CLR 13/05 A2984 RMK AO2  T01310054,,,,,,41.04,,S,29.19,29.06,,Clear
KIGQ,04/09/2017 08:35 UTC,29.84,55.58,41.72,58.29,13.8,190.0,20.71,,,,,1.0,,,,10.0,,KIGQ 090835Z AUTO 19012G18KT 10SM CLR 13/05 A2984 RMK AO2  T01310054,,,,,,41.04,,S,29.19,29.06,,Clear
KIGQ,04/09/2017 08:55 UTC,29.84,55.4,41.72,58.29,13.8,180.0,18.41,,,,,1.0,,,,10.0,,KIGQ 090855Z AUTO 18012G16KT 10SM CLR 13/05 A2984 RMK AO2  T01300054,,,,,,40.87,,S,29.19,29.07,,Clear
KIGQ,04/09/2017 09:15 UTC,29.84,54.5,41.54,58.29,12.66,180.0,18.41,,,,,1.0,,,,10.0,,KIGQ 090915Z AUTO 18011G16KT 10SM CLR 13/05 A2984 RMK AO2  T01250053,,,,,,40.03,,S,29.19,29.1,,Clear
KIGQ,04/09/2017 09:35 UTC,29.83,54.14,41.72,62.24,12.66,180.0,,,,,,1.0,,,,10.0,,KIGQ 090935Z AUTO 18011KT 10SM CLR 12/05 A2983 RMK AO2  T01230054,,,,,,41.39,,S,29.18,29.05,,Clear
KIGQ,04/09/2017 09:55 UTC,29.83,54.5,41.54,58.29,12.66,190.0,,,,,,1.0,,,,10.0,,KIGQ 090955Z AUTO 19011KT 10SM CLR 13/05 A2983 RMK AO2  T01250053,,,,,,40.03,,S,29.18,29.09,,Clear
KIGQ,04/09/2017 10:15 UTC,29.82,53.96,41.54,62.24,13.8,180.0,,,,,,1.0,,,,10.0,,KIGQ 091015Z AUTO 18012KT 10SM CLR 12/05 A2982 RMK AO2  T01220053,,,,,,41.22,,S,29.17,29.05,,Clear
KIGQ,04/09/2017 10:35 UTC,29.82,54.32,41.36,62.24,16.11,180.0,21.85,,,,,1.0,,,,10.0,,KIGQ 091035Z AUTO 18014G19KT 10SM CLR 12/05 A2982 RMK AO2  T01240052,,,,,,41.56,,S,29.17,29.04,,Clear
KIGQ,04/09/2017 10:55 UTC,29.82,54.5,41.18,58.29,14.97,180.0,20.71,,,,,1.0,,,,10.0,,KIGQ 091055Z AUTO 18013G18KT 10SM CLR 13/05 A2982 RMK AO2  T01250051,,,,,,40.03,,S,29.17,29.08,,Clear
KIGQ,04/09/2017 11:15 UTC,29.82,55.04,41.18,58.29,16.11,190.0,21.85,,,,,1.0,,,,10.0,,KIGQ 091115Z AUTO 19014G19KT 10SM CLR 13/05 A2982 RMK AO2  T01280051,,,,,,40.53,,S,29.17,29.06,,Clear
KIGQ,04/09/2017 11:35 UTC,29.82,54.68,41.36,58.29,16.11,190.0,21.85,,,,,1.0,,,,10.0,,KIGQ 091135Z AUTO 19014G19KT 10SM CLR 13/05 A2982 RMK AO2  T01260052,,,,,,40.2,,S,29.17,29.07,,Clear
KIGQ,04/09/2017 11:55 UTC,29.83,55.4,41.9,62.48,17.27,190.0,,,,,,1.0,,,,10.0,,KIGQ 091155Z AUTO 19015KT 10SM CLR 13/06 A2983 RMK AO2 T01300055  10131 20118,55.58,53.24,,,,42.69,,S,29.18,29.01,,Clear
KIGQ,04/09/2017 12:15 UTC,29.83,56.12,42.08,62.48,16.11,190.0,24.16,,,,,1.0,,,,10.0,,KIGQ 091215Z AUTO 19014G21KT 10SM CLR 13/06 A2983 RMK AO2  T01340056,,,,,,43.37,,S,29.18,28.98,,Clear
KIGQ,04/09/2017 12:35 UTC,29.83,56.3,42.8,58.55,16.11,190.0,,,,,,1.0,,,,10.0,,KIGQ 091235Z AUTO 19014KT 10SM CLR 14/06 A2983 RMK AO2  T01350060,,,,,,41.84,,S,29.18,29.03,,Clear
KIGQ,04/09/2017 12:55 UTC,29.83,56.48,43.16,58.55,16.11,190.0,24.16,,,,,1.0,,,,10.0,,KIGQ 091255Z AUTO 19014G21KT 10SM CLR 14/06 A2983 RMK AO2  T01360062,,,,,,42.01,,S,29.18,29.02,,Clear
KIGQ,04/09/2017 13:15 UTC,29.83,57.2,44.24,62.72,14.97,190.0,23.02,,,,,1.0,,,,10.0,,KIGQ 091315Z AUTO 19013G20KT 10SM CLR 14/07 A2983 RMK AO2  T01400068,,,,,,44.5,,S,29.18,28.94,,Clear
KIGQ,04/09/2017 13:35 UTC,29.84,57.92,45.32,62.72,16.11,190.0,21.85,,,,,1.0,,,,10.0,,KIGQ 091335Z AUTO 19014G19KT 10SM CLR 14/07 A2984 RMK AO2  T01440074,,,,,,45.18,,S,29.19,28.93,,Clear
KIGQ,04/09/2017 13:55 UTC,29.83,59.72,46.76,62.95,17.27,190.0,21.85,,,,,1.0,,,,10.0,,KIGQ 091355Z AUTO 19015G19KT 10SM CLR 15/08 A2983 RMK AO2  T01540082,,,,,,46.99,,S,29.18,28.84,,Clear
KIGQ,04/09/2017 14:15 UTC,29.83,61.7,47.48,59.3,17.27,200.0,24.16,,,,,1.0,,,,10.0,,KIGQ 091415Z AUTO 20015G21KT 10SM CLR 17/09 A2983 RMK AO2  T01650086,,,,,,47.26,,SSW,29.18,28.82,,Clear
KIGQ,04/09/2017 14:35 UTC,29.83,62.96,48.92,59.3,18.41,190.0,24.16,,,,,1.0,,,,10.0,,KIGQ 091435Z AUTO 19016G21KT 10SM CLR 17/09 A2983 RMK AO2  T01720094,,,,,,48.45,,S,29.18,28.76,,Clear
KIGQ,04/09/2017 14:55 UTC,29.83,64.22,49.28,59.54,16.11,200.0,26.46,,,,,1.0,,,,10.0,,KIGQ 091455Z AUTO 20014G23KT 10SM CLR 18/10 A2983 RMK AO2  T01790096,,,,,,49.75,,SSW,29.18,28.7,,Clear
KIGQ,04/09/2017 15:15 UTC,29.82,64.58,49.82,59.54,21.85,200.0,32.21,,,,,1.0,,,,10.0,,KIGQ 091515Z AUTO 20019G28KT 10SM CLR 18/10 A2982 RMK AO2  T01810099,,,,,,50.09,,SSW,29.17,28.68,,Clear
KIGQ,04/09/2017 15:40 UTC,29.82,64.94,50.36,59.54,20.71,200.0,28.77,,,,,1.0,,,,10.0,,KIGQ 091540Z AUTO 20018G25KT 10SM CLR 18/10 A2982 RMK AO2  T01830102,,,,,,50.43,,SSW,29.17,28.66,,Clear
KIGQ,04/09/2017 15:55 UTC,29.82,65.84,50.72,55.93,20.71,210.0,27.63,,,,,1.0,,,,10.0,,KIGQ 091555Z AUTO 21018G24KT 10SM CLR 19/10 A2982 RMK AO2  T01880104,,,,,,49.58,,SSW,29.17,28.69,,Clear
KIGQ,04/09/2017 16:15 UTC,29.81,65.3,50.72,55.93,21.85,190.0,25.32,,,,,1.0,,,,10.0,,KIGQ 091615Z AUTO 19019G22KT 10SM CLR 19/10 A2981 RMK AO2  T01850104,,,,,,49.08,,S,29.16,28.7,,Clear
KIGQ,04/09/2017 16:35 UTC,29.81,66.56,51.8,59.79,20.71,190.0,25.32,,,,,502.0,,,,10.0,,KIGQ 091635Z AUTO 19018G22KT 10SM SCT050 19/11 A2981 RMK AO2  T01920110,,,,,,52.07,,S,29.16,28.57,,Partly Cloudy
KIGQ,04/09/2017 16:55 UTC,29.81,68.18,52.88,60.03,21.85,190.0,,,,,,1.0,,,,10.0,,KIGQ 091655Z AUTO 19019KT 10SM CLR 20/12 A2981 RMK AO2  T02010116,,,,,,53.71,,S,29.16,28.49,,Clear
KIGQ,04/09/2017 17:15 UTC,29.79,68.9,53.24,56.44,20.71,190.0,,,,,,1.0,,,,10.0,,KIGQ 091715Z AUTO 19018KT 10SM CLR 21/12 A2979 RMK AO2  T02050118,,,,,,52.7,,S,29.14,28.5,,Clear
KIGQ,04/09/2017 17:35 UTC,29.78,70.52,54.68,60.27,20.71,200.0,,,,,,1.0,,,,10.0,,KIGQ 091735Z AUTO 20018KT 10SM CLR 21/13 A2978 RMK AO2  T02140126,,,,,,56.03,,SSW,29.13,28.33,,Clear
KIGQ,04/09/2017 17:55 UTC,29.78,70.34,54.68,60.27,19.57,210.0,,,,,,1.0,,,,10.0,,KIGQ 091755Z AUTO 21017KT 10SM CLR 21/13 A2978 RMK AO2 T02130126  10214 20130,70.52,55.4,,,,55.86,,SSW,29.13,28.34,,Clear
KIGQ,04/09/2017 18:15 UTC,29.78,71.24,54.86,56.7,21.85,190.0,29.93,,,,,1.0,,,,10.0,,KIGQ 091815Z AUTO 19019G26KT 10SM CLR 22/13 A2978 RMK AO2  T02180127,,,,,,55.02,,S,29.13,28.37,,Clear
KIGQ,04/09/2017 18:35 UTC,29.77,70.88,54.86,56.7,23.02,180.0,28.77,,,,,1.0,,,,10.0,,KIGQ 091835Z AUTO 18020G25KT 10SM CLR 22/13 A2977 RMK AO2  T02160127,,,,,,54.68,,S,29.12,28.38,,Clear
KIGQ,04/09/2017 18:55 UTC,29.77,72.32,55.76,56.7,26.46,200.0,31.07,,,,,1.0,,,,10.0,,KIGQ 091855Z AUTO 20023G27KT 10SM CLR 22/13 A2977 RMK AO2  T02240132,,,,,,56.03,,SSW,29.12,28.3,,Clear
KIGQ,04/09/2017 19:15 UTC,29.75,73.04,56.66,56.95,21.85,200.0,27.63,,,,,1.0,,,,10.0,,KIGQ 091915Z AUTO 20019G24KT 10SM CLR 23/14 A2975 RMK AO2  T02280137,,,,,,56.83,,SSW,29.1,28.23,,Clear
KIGQ,04/09/2017 19:35 UTC,29.74,73.04,57.2,56.95,24.16,190.0,32.21,,,,,1.0,,,,10.0,,KIGQ 091935Z AUTO 19021G28KT 10SM CLR 23/14 A2974 RMK AO2  T02280140,,,,,,56.83,,S,29.09,28.22,,Clear
KIGQ,04/09/2017 19:55 UTC,29.73,74.84,57.92,53.62,27.63,210.0,33.38,,,,,1.0,,,,10.0,,KIGQ 091955Z AUTO 21024G29KT 10SM CLR 24/14 A2973 RMK AO2  T02380144,,,,,,56.84,,SSW,29.08,28.19,,Clear
KIGQ,04/09/2017 20:15 UTC,29.73,74.48,57.74,53.62,28.77,200.0,34.52,,,,,1.0,,,,10.0,,KIGQ 092015Z AUTO 20025G30KT 10SM CLR 24/14 A2973 RMK AO2  T02360143,,,,,,56.5,,SSW,29.08,28.21,,Clear
KIGQ,04/09/2017 20:35 UTC,29.72,73.4,57.38,56.95,20.71,210.0,33.38,,,,,1.0,,,,10.0,,KIGQ 092035Z AUTO 21018G29KT 10SM CLR 23/14 A2972 RMK AO2  T02300141,,,,,,57.17,,SSW,29.07,28.18,,Clear
KIGQ,04/09/2017 20:55 UTC,29.71,73.04,57.56,56.95,24.16,200.0,31.07,,,,,1.0,,,,10.0,,KIGQ 092055Z AUTO 20021G27KT 10SM CLR 23/14 A2971 RMK AO2  T02280142,,,,,,56.83,,SSW,29.06,28.19,,Clear
KIGQ,04/09/2017 21:15 UTC,29.7,74.3,58.1,57.2,25.32,180.0,28.77,,,,,1.0,,,,10.0,,KIGQ 092115Z AUTO 18022G25KT 10SM CLR 24/15 A2970 RMK AO2 LTG DSNT  N T02350145,,,,,,58.14,,S,29.05,28.1,,Clear
KIGQ,04/09/2017 21:35 UTC,29.7,73.4,57.02,56.95,27.63,200.0,36.82,,,,,1.0,,,,10.0,,KIGQ 092135Z AUTO 20024G32KT 10SM CLR 23/14 A2970 RMK AO2  T02300139,,,,,,57.17,,SSW,29.05,28.16,,Clear
KIGQ,04/09/2017 21:55 UTC,29.7,73.4,57.56,56.95,20.71,180.0,33.38,,,,,1.0,,,,10.0,,KIGQ 092155Z AUTO 18018G29KT 10SM CLR 23/14 A2970 RMK AO2 LTG DSNT  N T02300142,,,,,,57.17,,S,29.05,28.16,,Clear
KIGQ,04/09/2017 22:15 UTC,29.69,73.4,57.56,56.95,20.71,190.0,31.07,,,,,1.0,,,,10.0,,KIGQ 092215Z AUTO 19018G27KT 10SM CLR 23/14 A2969 RMK AO2 LTG DSNT  W T02300142,,,,,,57.17,,S,29.04,28.15,,Clear
KIGQ,04/09/2017 22:35 UTC,29.69,73.04,57.92,56.95,23.02,180.0,28.77,,,,,1.0,,,,10.0,,KIGQ 092235Z AUTO 18020G25KT 10SM CLR 23/14 A2969 RMK AO2  T02280144,,,,,,56.83,,S,29.04,28.17,,Clear
KIGQ,04/09/2017 22:55 UTC,29.69,72.86,57.56,56.95,23.02,190.0,39.12,,,,,1.0,,,,10.0,,KIGQ 092255Z AUTO 19020G34KT 10SM CLR 23/14 A2969 RMK AO2  T02270142,,,,,,56.66,,S,29.04,28.18,,Clear
KIGQ,04/09/2017 23:15 UTC,29.69,72.5,56.66,56.95,21.85,190.0,32.21,,,,,1.0,,,,10.0,,KIGQ 092315Z AUTO 19019G28KT 10SM CLR 23/14 A2969 RMK AO2  T02250137,,,,,,56.32,,S,29.04,28.2,,Clear
KIGQ,04/09/2017 23:35 UTC,29.69,71.78,56.48,60.51,23.02,200.0,32.21,,,,,1.0,,,,10.0,,KIGQ 092335Z AUTO 20020G28KT 10SM CLR 22/14 A2969 RMK AO2  T02210136,,,,,,57.33,,SSW,29.04,28.16,,Clear
KIGQ,04/09/2017 23:55 UTC,29.7,71.06,56.3,60.51,25.32,190.0,33.38,,,,,1.0,,,,10.0,,KIGQ 092355Z AUTO 19022G29KT 10SM CLR 22/14 A2970 RMK AO2  T02170135 10238 20215,74.84,70.7,,,,56.65,,S,29.05,28.21,,Clear
KIGQ,04/10/2017 00:15 UTC,29.7,70.16,56.3,64.32,16.11,200.0,28.77,,,,,1.0,,,,10.0,,KIGQ 100015Z AUTO 20014G25KT 10SM CLR 21/14 A2970 RMK AO2  T02120135,,,,,,57.5,,SSW,29.05,28.18,,Clear
KIGQ,04/10/2017 00:35 UTC,29.71,69.8,55.76,60.27,16.11,200.0,24.16,,,,,1.0,,,,10.0,,KIGQ 100035Z AUTO 20014G21KT 10SM CLR 21/13 A2971 RMK AO2  T02100132,,,,,,55.35,,SSW,29.06,28.29,,Clear
KIGQ,04/10/2017 00:55 UTC,29.72,68.9,54.68,60.27,17.27,200.0,,,,,,1.0,,,,10.0,,KIGQ 100055Z AUTO 20015KT 10SM CLR 21/13 A2972 RMK AO2  T02050126,,,,,,54.5,,SSW,29.07,28.35,,Clear
KIGQ,04/10/2017 01:15 UTC,29.73,68.18,53.6,60.03,18.41,200.0,,,,,,1.0,,,,10.0,,KIGQ 100115Z AUTO 20016KT 10SM CLR 20/12 A2973 RMK AO2  T02010120,,,,,,53.71,,SSW,29.08,28.4,,Clear
KIGQ,04/10/2017 01:35 UTC,29.73,67.82,52.88,60.03,16.11,200.0,20.71,,,,,1.0,,,,10.0,,KIGQ 100135Z AUTO 20014G18KT 10SM CLR 20/12 A2973 RMK AO2  T01990116,,,,,,53.37,,SSW,29.08,28.42,,Clear
KIGQ,04/10/2017 01:55 UTC,29.74,67.46,52.7,60.03,14.97,200.0,25.32,,,,,1.0,,,,10.0,,KIGQ 100155Z AUTO 20013G22KT 10SM CLR 20/12 A2974 RMK AO2  T01970115,,,,,,53.03,,SSW,29.09,28.45,,Clear
KIGQ,04/10/2017 02:15 UTC,29.74,67.1,52.88,60.03,18.41,200.0,25.32,,,,,1.0,,,,10.0,,KIGQ 100215Z AUTO 20016G22KT 10SM CLR 20/12 A2974 RMK AO2  T01950116,,,,,,52.69,,SSW,29.09,28.47,,Clear
KIGQ,04/10/2017 02:35 UTC,29.74,67.1,53.06,60.03,19.57,200.0,24.16,,,,,1.0,,,,10.0,,KIGQ 100235Z AUTO 20017G21KT 10SM CLR 20/12 A2974 RMK AO2  T01950117,,,,,,52.69,,SSW,29.09,28.47,,Clear
KIGQ,04/10/2017 02:55 UTC,29.73,67.1,52.88,60.03,20.71,200.0,26.46,,,,,1.0,,,,10.0,,KIGQ 100255Z AUTO 20018G23KT 10SM CLR 20/12 A2973 RMK AO2  T01950116,,,,,,52.69,,SSW,29.08,28.46,,Clear
KIGQ,04/10/2017 03:15 UTC,29.73,67.28,52.7,60.03,23.02,200.0,28.77,,,,,1.0,,,,10.0,,KIGQ 100315Z AUTO 20020G25KT 10SM CLR 20/12 A2973 RMK AO2  T01960115,,,,,,52.86,,SSW,29.08,28.45,,Clear
KIGQ,04/10/2017 03:35 UTC,29.73,67.46,52.16,56.19,25.32,190.0,32.21,,,,,1.0,,,,10.0,,KIGQ 100335Z AUTO 19022G28KT 10SM CLR 20/11 A2973 RMK AO2  T01970112,,,,,,51.23,,S,29.08,28.52,,Clear
KIGQ,04/10/2017 03:55 UTC,29.73,67.1,51.98,56.19,19.57,190.0,27.63,,,,,1.0,,,,10.0,,KIGQ 100355Z AUTO 19017G24KT 10SM CLR 20/11 A2973 RMK AO2  T01950111,,,,,,50.89,,S,29.08,28.53,,Clear
KIGQ,04/10/2017 04:15 UTC,29.73,67.46,52.34,56.19,21.85,200.0,29.93,,,,,1.0,,,,10.0,,KIGQ 100415Z AUTO 20019G26KT 10SM CLR 20/11 A2973 RMK AO2  T01970113,,,,,,51.23,,SSW,29.08,28.52,,Clear
KIGQ,04/10/2017 04:35 UTC,29.73,68.0,52.34,56.19,26.46,200.0,33.38,,,,,703.0,,,,10.0,,KIGQ 100435Z AUTO 20023G29KT 10SM BKN070 20/11 A2973 RMK AO2  T02000113,,,7000.0,,,51.73,,SSW,29.08,28.49,,Mostly Cloudy
KIGQ,04/10/2017 04:55 UTC,29.73,67.46,52.7,60.03,23.02,200.0,33.38,,,,,704.0,,,,10.0,,KIGQ 100455Z AUTO 20020G29KT 10SM OVC070 20/12 A2973 RMK AO2  T01970115,,,7000.0,,,53.03,,SSW,29.08,28.44,,Overcast
KIGQ,04/10/2017 05:15 UTC,29.74,67.28,52.88,60.03,23.02,200.0,33.38,,,,,704.0,,,,10.0,,KIGQ 100515Z AUTO 20020G29KT 10SM OVC070 20/12 A2974 RMK AO2  T01960116,,,7000.0,,,52.86,,SSW,29.09,28.46,,Overcast
KIGQ,04/10/2017 05:35 UTC,29.73,66.56,52.88,63.87,20.71,200.0,29.93,,,,,804.0,,,,10.0,,KIGQ 100535Z AUTO 20018G26KT 10SM OVC080 19/12 A2973 RMK AO2  T01920116,,,8000.0,,,53.88,,SSW,29.08,28.41,,Overcast
KIGQ,04/10/2017 05:55 UTC,29.73,66.38,53.06,63.87,21.85,200.0,28.77,,,,,804.0,,,,10.0,,KIGQ 100555Z AUTO 20019G25KT 10SM OVC080 19/12 A2973 RMK AO2  T01910117 10216 20190 402380118,70.88,66.2,8000.0,74.84,53.24,53.71,,SSW,29.08,28.42,,Overcast
KIGQ,04/10/2017 06:15 UTC,29.74,66.2,53.06,63.87,21.85,210.0,31.07,,,,,652.0,804.0,,,10.0,,KIGQ 100615Z AUTO 21019G27KT 10SM SCT065 OVC080 19/12 A2974 RMK AO2 T01900117,,,8000.0,,,53.54,,SSW,29.09,28.44,,Overcast
KIGQ,04/10/2017 06:35 UTC,29.74,66.02,53.24,63.87,20.71,210.0,31.07,,,,,652.0,803.0,,,10.0,,KIGQ 100635Z AUTO 21018G27KT 10SM SCT065 BKN080 19/12 A2974 RMK AO2 T01890118,,,8000.0,,,53.36,,SSW,29.09,28.45,,Mostly Cloudy
KIGQ,04/10/2017 06:55 UTC,29.74,65.12,53.24,67.99,17.27,210.0,25.32,,,,,652.0,802.0,,,10.0,,KIGQ 100655Z AUTO 21015G22KT 10SM SCT065 SCT080 18/12 A2974 RMK AO2 T01840118,,,,,,54.22,,SSW,29.09,28.42,,Partly Cloudy
KIGQ,04/10/2017 07:15 UTC,29.75,64.76,53.42,67.99,14.97,210.0,24.16,,,,,1.0,,,,10.0,,KIGQ 100715Z AUTO 21013G21KT 10SM CLR 18/12 A2975 RMK AO2  T01820119,,,,,,53.88,,SSW,29.1,28.45,,Clear
KIGQ,04/10/2017 07:35 UTC,29.75,64.58,53.6,67.99,14.97,210.0,,,,,,602.0,752.0,,,10.0,,KIGQ 100735Z AUTO 21013KT 10SM SCT060 SCT075 18/12 A2975 RMK AO2  T01810120,,,,,,53.71,,SSW,29.1,28.46,,Partly Cloudy
KIGQ,04/10/2017 07:55 UTC,29.75,64.58,53.6,67.99,16.11,200.0,,,804.0,,,552.0,753.0,,,10.0,,KIGQ 100755Z AUTO 20014KT 10SM SCT055 BKN075 OVC080 18/12  A2975 RMK AO2 T01810120,,,7500.0,,,53.71,,SSW,29.1,28.46,,Overcast
KIGQ,04/10/2017 08:15 UTC,29.74,64.04,53.24,67.99,16.11,200.0,23.02,,,,,752.0,,,,10.0,,KIGQ 100815Z AUTO 20014G20KT 10SM SCT075 18/12 A2974 RMK AO2  T01780118,,,,,,53.19,,SSW,29.09,28.48,,Partly Cloudy
KIGQ,04/10/2017 08:35 UTC,29.73,64.04,53.24,67.99,14.97,200.0,21.85,,,,,1.0,,,,10.0,,KIGQ 100835Z AUTO 20013G19KT 10SM CLR 18/12 A2973 RMK AO2  T01780118,,,,,,53.19,,SSW,29.08,28.47,,Clear
KIGQ,04/10/2017 08:55 UTC,29.74,63.68,53.24,67.99,14.97,200.0,25.32,,,,,1.0,,,,10.0,,KIGQ 100855Z AUTO 20013G22KT 10SM CLR 18/12 A2974 RMK AO2  T01760118,,,,,,52.85,,SSW,29.09,28.49,,Clear
KIGQ,04/10/2017 09:15 UTC,29.74,63.68,53.42,67.99,16.11,210.0,,,,,,1102.0,,,,10.0,,KIGQ 100915Z AUTO 21014KT 10SM SCT110 18/12 A2974 RMK AO2  T01760119,,,,,,52.85,,SSW,29.09,28.49,,Partly Cloudy
KIGQ,04/10/2017 09:35 UTC,29.74,63.68,53.42,67.99,17.27,210.0,24.16,,,,,1102.0,,,,10.0,,KIGQ 100935Z AUTO 21015G21KT 10SM SCT110 18/12 A2974 RMK AO2  T01760119,,,,,,52.85,,SSW,29.09,28.49,,Partly Cloudy
KIGQ,04/10/2017 09:55 UTC,29.75,63.86,53.6,67.99,18.41,210.0,,,,,,602.0,1202.0,,,10.0,,KIGQ 100955Z AUTO 21016KT 10SM SCT060 SCT120 18/12 A2975 RMK AO2  LTG DSNT SW AND NW T01770120,,,,,,53.02,,SSW,29.1,28.5,,Partly Cloudy
KIGQ,04/10/2017 10:15 UTC,29.75,63.5,53.6,67.99,17.27,200.0,21.85,,703.0,,,492.0,603.0,,,10.0,,KIGQ 101015Z AUTO 20015G19KT 10SM SCT049 BKN060 BKN070 18/12  A2975 RMK AO2 LTG DSNT N T01750120,,,6000.0,,,52.67,,SSW,29.1,28.51,,Mostly Cloudy
KIGQ,04/10/2017 10:35 UTC,29.75,63.5,53.6,67.99,18.41,200.0,24.16,,,,,492.0,603.0,,,10.0,,KIGQ 101035Z AUTO 20016G21KT 10SM SCT049 BKN060 18/12 A2975 RMK AO2 T01750120,,,6000.0,,,52.67,,SSW,29.1,28.51,,Mostly Cloudy
KIGQ,04/10/2017 10:55 UTC,29.75,63.14,53.6,72.42,14.97,210.0,,,,,,602.0,,,,10.0,,KIGQ 101055Z AUTO 21013KT 10SM SCT060 17/12 A2975 RMK AO2 LTG DSNT  N T01730120,,,,,,54.06,,SSW,29.1,28.46,,Partly Cloudy
KIGQ,04/10/2017 11:15 UTC,29.77,63.5,53.6,67.99,13.8,210.0,,,,,,482.0,,,,10.0,,KIGQ 101115Z AUTO 21012KT 10SM SCT048 18/12 A2977 RMK AO2 LTG DSNT  W T01750120,,,,,,52.67,,SSW,29.12,28.53,,Partly Cloudy
KIGQ,04/10/2017 11:35 UTC,29.8,63.5,53.78,67.99,13.8,220.0,,,,,,482.0,654.0,,,10.0,,KIGQ 101135Z AUTO 22012KT 10SM SCT048 OVC065 18/12 A2980 RMK AO2  T01750121,,,6500.0,,,52.67,,SW,29.15,28.56,,Overcast
KIGQ,04/10/2017 11:55 UTC,29.81,63.5,53.96,67.99,11.5,210.0,,,,,,422.0,654.0,,,10.0,,KIGQ 101155Z AUTO 21010KT 10SM SCT042 OVC065 18/12 A2981 RMK AO2  LTG DSNT W T01750122 10191 20172,66.38,62.96,6500.0,,,52.67,,SSW,29.16,28.57,,Overcast
KIGQ,04/10/2017 12:15 UTC,29.85,60.26,56.12,82.4,20.71,230.0,27.63,13.0,704.0,0.09,,323.0,403.0,,,0.75,,KIGQ 101215Z AUTO 23018G24KT 3/4SM -RA BKN032 BKN040 OVC070 16/13  A2985 RMK AO2 LTG DSNT SE P0009 T01570134,,,3200.0,,,54.83,,SW,29.2,28.56,,Light Rain
KIGQ,04/10/2017 12:35 UTC,29.83,61.52,56.12,82.4,11.5,240.0,16.11,13.0,904.0,0.09,,362.0,702.0,,,10.0,,KIGQ 101235Z AUTO 24010G14KT 10SM -RA SCT036 SCT070 OVC090 16/13  A2983 RMK AO2 LTG DSNT NE THRU SW P0009 T01640134,,,9000.0,,,56.07,,WSW,29.18,28.47,,Light Rain
KIGQ,04/10/2017 12:55 UTC,29.86,61.7,56.48,82.52,13.8,250.0,17.27,5.0,,0.09,,902.0,1103.0,,,10.0,,KIGQ 101255Z AUTO 25012G15KT 10SM VCTS SCT090 BKN110 17/14  A2986 RMK AO2 LTG DSNT E THRU S P0009 T01650136,,,11000.0,,,56.28,,WSW,29.21,28.49,,Thunder
KIGQ,04/10/2017 13:15 UTC,29.89,61.7,56.48,82.52,12.66,220.0,,,,,,1002.0,1203.0,,,10.0,,KIGQ 101315Z AUTO 22011KT 10SM SCT100 BKN120 17/14 A2989 RMK AO2  LTG DSNT S T01650136,,,12000.0,,,56.28,,SW,29.24,28.52,,Mostly Cloudy
KIGQ,04/10/2017 13:35 UTC,29.89,61.7,56.3,82.52,16.11,250.0,25.32,13.0,,,,1003.0,1203.0,,,10.0,,KIGQ 101335Z AUTO 25014G22KT 10SM -RA BKN100 BKN120 17/14  A2989 RMK AO2 T01650135,,,10000.0,,,56.28,,WSW,29.24,28.52,,Light Rain
KIGQ,04/10/2017 13:55 UTC,29.87,61.7,56.66,82.52,10.36,240.0,18.41,13.0,1004.0,,,372.0,552.0,,,10.0,,KIGQ 101355Z AUTO 24009G16KT 10SM -RA SCT037 SCT055 OVC100 17/14  A2987 RMK AO2 LTG DSNT NE THRU SE T01650137,,,10000.0,,,56.28,,WSW,29.22,28.5,,Light Rain
KIGQ,04/10/2017 14:15 UTC,29.8,63.68,58.1,82.65,9.22,200.0,,,502.0,,,272.0,412.0,,,10.0,,KIGQ 101415Z AUTO 20008KT 10SM SCT027 SCT041 SCT050 18/15  A2980 RMK AO2 LTG DSNT E T01760145,,,,,,58.26,,SSW,29.15,28.31,,Partly Cloudy
KIGQ,04/10/2017 14:35 UTC,29.77,66.38,58.28,77.64,10.36,180.0,,,,,,1.0,,,,10.0,,KIGQ 101435Z AUTO 18009KT 10SM CLR 19/15 A2977 RMK AO2  T01910146,,,,,,59.14,,S,29.12,28.21,,Clear
KIGQ,04/10/2017 14:55 UTC,29.78,67.28,57.56,68.41,6.91,210.0,,,,,0.09,1.0,,,,10.0,,KIGQ 101455Z AUTO 21006KT 10SM CLR 20/14 A2978 RMK AO2 60009  T01960142,,,,,,56.46,,SSW,29.13,28.34,,Clear
KIGQ,04/10/2017 15:15 UTC,29.8,70.52,59.18,68.61,10.36,170.0,,,,,,1.0,,,,10.0,,KIGQ 101515Z AUTO 17009KT 10SM CLR 21/15 A2980 RMK AO2  T02140151,,,,,,59.65,,S,29.15,28.16,,Clear
KIGQ,04/10/2017 15:35 UTC,29.82,71.06,58.46,64.54,20.71,210.0,25.32,,,,,1.0,,,,10.0,,KIGQ 101535Z AUTO 21018G22KT 170V230 10SM CLR 22/15 A2982 RMK AO2  T02170147,,,,,,58.45,,SSW,29.17,28.24,,Clear
KIGQ,04/10/2017 15:55 UTC,29.84,69.08,58.46,68.97,19.57,180.0,23.02,,,,,1.0,,,,10.0,,KIGQ 101555Z AUTO 18017G20KT 10SM CLR 21/15 A2984 RMK AO2  T02060147,,,,,,58.42,,S,29.19,28.28,,Clear
KIGQ,04/10/2017 16:15 UTC,29.86,68.9,58.64,68.61,18.41,200.0,25.32,,,,,1.0,,,,10.0,,KIGQ 101615Z AUTO 20016G22KT 10SM CLR 21/15 A2986 RMK AO2  T02050148,,,,,,58.1,,SSW,29.21,28.32,,Clear
KIGQ,04/10/2017 16:35 UTC,29.86,70.34,57.92,64.32,17.27,210.0,28.77,,,,,1.0,,,,10.0,,KIGQ 101635Z AUTO 21015G25KT 10SM CLR 21/14 A2986 RMK AO2  T02130144,,,,,,57.67,,SSW,29.21,28.33,,Clear
KIGQ,04/10/2017 16:55 UTC,29.87,69.8,57.74,65.58,21.85,200.0,27.63,,,,,1.0,,,,10.0,,KIGQ 101655Z AUTO 20019G24KT 10SM CLR 21/14 A2987 RMK AO2  T02100143,,,,,,57.7,,SSW,29.22,28.34,,Clear
KIGQ,04/10/2017 17:15 UTC,29.86,69.26,56.84,64.32,21.85,190.0,32.21,,,,,1.0,,,,10.0,,KIGQ 101715Z AUTO 19019G28KT 10SM CLR 21/14 A2986 RMK AO2 LTG DSNT  W T02070138,,,,,,56.64,,S,29.21,28.39,,Clear
KIGQ,04/10/2017 17:35 UTC,29.86,69.26,56.66,64.32,25.32,190.0,32.21,,,,,1.0,,,,10.0,,KIGQ 101735Z AUTO 19022G28KT 10SM CLR 21/14 A2986 RMK AO2  T02070137,,,,,,56.64,,S,29.21,28.39,,Clear
KIGQ,04/10/2017 17:55 UTC,29.85,68.54,58.28,72.97,23.02,200.0,31.07,5.0,,,,1002.0,,0.09,,10.0,,KIGQ 101755Z AUTO 20020G27KT 10SM VCTS SCT100 20/15 A2985 RMK AO2  LTG DSNT SE THRU W 60009 T02030146 10221 20156,71.78,60.08,,,,59.48,,SSW,29.2,28.24,,Thunder
KIGQ,04/10/2017 18:15 UTC,29.85,68.54,58.82,72.97,17.27,200.0,29.93,,,,,1003.0,,,,10.0,,KIGQ 101815Z AUTO 20015G26KT 10SM BKN100 20/15 A2985 RMK AO2 LTG  DSNT W AND NW T02030149,,,10000.0,,,59.48,,SSW,29.2,28.24,,Mostly Cloudy
KIGQ,04/10/2017 18:35 UTC,29.88,68.9,58.82,68.61,16.11,210.0,20.71,5.0,1204.0,,,432.0,1003.0,,,10.0,,KIGQ 101835Z AUTO 21014G18KT 10SM TS SCT043 BKN100 OVC120 21/15  A2988 RMK AO2 LTG DSNT W THRU N T02050149,,,10000.0,,,58.1,,SSW,29.23,28.34,,Thunder
KIGQ,04/10/2017 18:55 UTC,29.87,69.26,58.82,68.61,17.27,200.0,26.46,5.0,903.0,,,432.0,502.0,,,10.0,,KIGQ 101855Z AUTO 20015G23KT 10SM VCTS SCT043 SCT050 BKN090 21/15  A2987 RMK AO2 LTG DSNT ALQS T02070149,,,9000.0,,,58.44,,SSW,29.22,28.31,,Thunder
KIGQ,04/10/2017 19:15 UTC,29.89,68.0,58.28,72.97,13.8,220.0,19.57,,,,,414.0,,,,10.0,,KIGQ 101915Z AUTO 22012G17KT 10SM OVC041 20/15 A2989 RMK AO2 LTG  DSNT W T02000146,,,4100.0,,,58.96,,SW,29.24,28.32,,Overcast
KIGQ,04/10/2017 19:35 UTC,29.87,68.0,58.46,72.97,12.66,200.0,24.16,,,,,414.0,,,,10.0,,KIGQ 101935Z AUTO 20011G21KT 10SM OVC041 20/15 A2987 RMK AO2 LTG  DSNT NW T02000147,,,4100.0,,,58.96,,SSW,29.22,28.3,,Overcast
KIGQ,04/10/2017 19:55 UTC,29.86,69.8,59.0,68.61,14.97,220.0,21.85,,,,,412.0,1002.0,,,10.0,,KIGQ 101955Z AUTO 22013G19KT 10SM SCT041 SCT100 21/15 A2986 RMK AO2 LTG DSNT E T02100150,,,,,,58.96,,SW,29.21,28.27,,Partly Cloudy
KIGQ,04/10/2017 20:15 UTC,29.86,69.8,59.18,68.61,10.36,220.0,,,,,,342.0,413.0,,,10.0,,KIGQ 102015Z AUTO 22009KT 10SM SCT034 BKN041 21/15 A2986 RMK AO2  LTG DSNT SE AND S T02100151,,,4100.0,,,58.96,,SW,29.21,28.27,,Mostly Cloudy
KIGQ,04/10/2017 20:35 UTC,29.85,69.98,59.72,68.61,19.57,220.0,23.02,,,,,344.0,,,,10.0,,KIGQ 102035Z AUTO 22017G20KT 10SM OVC034 21/15 A2985 RMK AO2 LTG  DSNT S AND NW T02110154,,,3400.0,,,59.13,,SW,29.2,28.25,,Overcast
KIGQ,04/10/2017 20:55 UTC,29.84,68.9,59.54,68.61,17.27,200.0,21.85,5.0,,,,344.0,,,,10.0,,KIGQ 102055Z AUTO 20015G19KT 10SM VCTS OVC034 21/15 A2984 RMK AO2  LTG DSNT W AND NW T02050153,,,3400.0,,,58.1,,SSW,29.19,28.3,,Thunder
KIGQ,04/10/2017 21:15 UTC,29.85,68.0,59.9,77.79,18.41,230.0,27.63,5.0,,,,324.0,,,,10.0,,KIGQ 102115Z AUTO 23016G24KT 10SM TS OVC032 20/16 A2985 RMK AO2  LTG DSNT SW THRU NE T02000155,,,3200.0,,,60.77,,SW,29.2,28.18,,Thunder
KIGQ,04/10/2017 21:35 UTC,29.85,64.04,62.06,93.89,17.27,230.0,23.02,77.0,,0.34,,192.0,284.0,,,2.5,,KIGQ 102135Z AUTO 23015G20KT 2 1/2SM -TSRA SCT019 OVC028 18/17  A2985 RMK AO2 VIS 1V5 LTG DSNT ALQS P0034 T01780167,,,2800.0,,,62.23,,SW,29.2,28.15,,Light Rain/Thunderstorm
KIGQ,04/10/2017 21:55 UTC,29.84,65.48,61.16,82.77,17.27,200.0,28.77,,,0.34,,263.0,324.0,,,10.0,,KIGQ 102155Z AUTO 20015G25KT 10SM -VCTSRA BKN026 OVC032 19/16  A2984 RMK AO2 LTG DSNT ALQS P0034 T01860162,,,2600.0,,,60.07,,SSW,29.19,28.24,,Overcast
KIGQ,04/10/2017 22:15 UTC,29.81,66.2,61.16,83.83,25.32,190.0,31.07,,402.0,,,262.0,322.0,,,10.0,,KIGQ 102215Z AUTO 19022G27KT 10SM SCT026 SCT032 SCT040 19/16 A2981 RMK AO2 LTG DSNT NW THRU E T01900162,,,,,,61.13,,S,29.16,28.14,,Partly Cloudy
KIGQ,04/10/2017 22:35 UTC,29.81,65.66,60.8,82.77,26.46,190.0,35.68,,,,,1.0,,,,10.0,,KIGQ 102235Z AUTO 19023G31KT 10SM CLR 19/16 A2981 RMK AO2 LTG DSNT  N AND SW T01870160,,,,,,60.24,,S,29.16,28.2,,Clear
KIGQ,04/10/2017 22:55 UTC,29.82,65.3,60.44,84.31,19.57,210.0,28.77,13.0,1202.0,,,282.0,332.0,,,10.0,,KIGQ 102255Z AUTO 21017G25KT 10SM -RA SCT028 SCT033 SCT120 19/16  A2982 RMK AO2 LTG DSNT S T01850158,,,,,,60.41,,SSW,29.17,28.2,,Light Rain
KIGQ,04/10/2017 23:15 UTC,29.86,64.94,60.8,88.11,21.85,210.0,28.77,,,,,222.0,282.0,,,10.0,,KIGQ 102315Z AUTO 21019G25KT 10SM SCT022 SCT028 18/16 A2986 RMK AO2 LTG DSNT N S AND NW T01830160,,,,,,61.31,,SSW,29.21,28.2,,Partly Cloudy
KIGQ,04/10/2017 23:35 UTC,29.85,65.3,59.9,82.77,18.41,220.0,28.77,,,,,1.0,,,,10.0,,KIGQ 102335Z AUTO 22016G25KT 10SM CLR 19/16 A2985 RMK AO2 LTG DSNT  ALQS T01850155,,,,,,59.89,,SW,29.2,28.26,,Clear
KIGQ,04/10/2017 23:55 UTC,29.86,65.3,57.92,72.78,20.71,230.0,24.16,,,,,1.0,,0.34,,10.0,,KIGQ 102355Z AUTO 23018G21KT 10SM CLR 19/14 A2986 RMK AO2 LTG DSNT  NW THRU NE 60034 T01850144 10211 20177,69.98,63.86,,,,56.28,,SW,29.21,28.45,,Clear
KIGQ,04/11/2017 00:15 UTC,29.87,65.48,59.0,77.64,18.41,230.0,26.46,5.0,,,,1.0,,,,10.0,,KIGQ 110015Z AUTO 23016G23KT 10SM VCTS CLR 19/15 A2987 RMK AO2 LTG  DSNT SE AND SW T01860150,,,,,,58.26,,SW,29.22,28.36,,Thunder
KIGQ,04/11/2017 00:35 UTC,29.88,64.22,59.9,88.11,16.11,210.0,,5.0,,,,1.0,,,,10.0,,KIGQ 110035Z AUTO 21014KT 10SM VCTS CLR 18/16 A2988 RMK AO2 LTG  DSNT N AND SW T01790155,,,,,,60.6,,SSW,29.23,28.27,,Thunder
KIGQ,04/11/2017 00:55 UTC,29.88,63.68,59.9,88.11,10.36,200.0,,,603.0,,,352.0,422.0,,,10.0,,KIGQ 110055Z AUTO 20009KT 10SM SCT035 SCT042 BKN060 18/16  A2988 RMK AO2 LTG DSNT E AND SW T01760155,,,6000.0,,,60.07,,SSW,29.23,28.3,,Mostly Cloudy
KIGQ,04/11/2017 01:15 UTC,29.89,63.5,60.08,88.11,4.61,230.0,,,604.0,,,333.0,423.0,,,10.0,,KIGQ 110115Z AUTO 23004KT 10SM BKN033 BKN042 OVC060 18/16  A2989 RMK AO2 T01750156,,,3300.0,,,59.89,,SW,29.24,28.32,,Overcast
KIGQ,04/11/2017 01:35 UTC,29.91,48.92,45.68,93.45,9.22,30.0,17.27,5.0,,,,314.0,,,,10.0,,KIGQ 110135Z AUTO 03008G15KT 10SM VCTS OVC031 09/08 A2991 RMK AO2  LTG DSNT SE AND S T00940076,,,3100.0,,,47.09,,NNE,29.26,29.02,,Thunder
KIGQ,04/11/2017 01:55 UTC,29.93,47.66,45.5,93.45,9.22,40.0,,,293.0,,,172.0,222.0,,,10.0,,KIGQ 110155Z AUTO 04008KT 10SM SCT017 SCT022 BKN029 09/08  A2993 RMK AO2 LTG DSNT E THRU S T00870075,,,2900.0,,,45.84,,NE,29.28,29.09,,Mostly Cloudy
KIGQ,04/11/2017 02:15 UTC,29.95,49.1,46.58,87.38,9.22,30.0,,,373.0,,,263.0,313.0,,,10.0,,KIGQ 110215Z AUTO 03008KT 10SM BKN026 BKN031 BKN037 10/08  A2995 RMK AO2 LTG DSNT SE AND S T00950081,,,2600.0,,,45.47,,NNE,29.3,29.11,,Mostly Cloudy
KIGQ,04/11/2017 02:35 UTC,29.96,47.3,44.96,87.28,8.05,40.0,,5.0,603.0,,,262.0,362.0,,,10.0,,KIGQ 110235Z AUTO 04007KT 10SM VCTS SCT026 SCT036 BKN060 09/07  A2996 RMK AO2 LTG DSNT E T00850072,,,6000.0,,,43.67,,NE,29.31,29.18,,Thunder
KIGQ,04/11/2017 02:55 UTC,29.96,45.68,44.6,93.4,6.91,20.0,,,853.0,,,492.0,602.0,,,10.0,,KIGQ 110255Z AUTO 02006KT 10SM SCT049 SCT060 BKN085 08/07  A2996 RMK AO2 LTG DSNT E AND SE T00760070,,,8500.0,,,43.86,,NNE,29.31,29.19,,Mostly Cloudy
KIGQ,04/11/2017 03:15 UTC,29.98,43.88,42.98,93.35,3.44,10.0,,,,,,502.0,752.0,,,10.0,,KIGQ 110315Z AUTO 01003KT 10SM SCT050 SCT075 07/06 A2998 RMK AO2  LTG DSNT E T00660061,,,,,,42.06,,N,29.33,29.28,,Partly Cloudy
KIGQ,04/11/2017 03:35 UTC,29.99,42.26,41.9,100.0,8.05,360.0,,,753.0,,,32.0,72.0,,,7.0,,KIGQ 110335Z AUTO 36007KT 7SM SCT003 SCT007 BKN075 06/06 A2999 RMK AO2 LTG DSNT SE T00570055,,,7500.0,,,42.26,39.13,N,29.34,29.3,,Mostly Cloudy
KIGQ,04/11/2017 03:55 UTC,29.99,41.54,41.54,100.0,9.22,20.0,,,,,,34.0,,,,7.0,,KIGQ 110355Z AUTO 02008KT 7SM OVC003 05/05 A2999 RMK AO2 LTG DSNT  E T00530053,,,300.0,,,41.54,37.77,NNE,29.34,29.32,,Overcast
KIGQ,04/11/2017 04:15 UTC,29.99,41.18,41.18,100.0,5.75,30.0,,,,,,34.0,,,,10.0,,KIGQ 110415Z AUTO 03005KT 10SM OVC003 05/05 A2999 RMK AO2  T00510051,,,300.0,,,41.18,,NNE,29.34,29.33,,Overcast
KIGQ,04/11/2017 04:35 UTC,29.99,41.54,41.54,100.0,8.05,20.0,,,,,,34.0,,,,10.0,,KIGQ 110435Z AUTO 02007KT 10SM OVC003 05/05 A2999 RMK AO2  T00530053,,,300.0,,,41.54,38.28,NNE,29.34,29.32,,Overcast
KIGQ,04/11/2017 04:55 UTC,29.99,41.54,41.54,100.0,6.91,50.0,,31.0,,,,34.0,,,,5.0,,KIGQ 110455Z AUTO 05006KT 5SM BR OVC003 05/05 A2999 RMK AO2  T00530053,,,300.0,,,41.54,,NE,29.34,29.32,,Mist
KIGQ,04/11/2017 05:15 UTC,29.99,41.36,41.36,100.0,8.05,40.0,,31.0,,,,34.0,,,,4.0,,KIGQ 110515Z AUTO 04007KT 4SM BR OVC003 05/05 A2999 RMK AO2  T00520052,,,300.0,,,41.36,38.07,NE,29.34,29.33,,Mist
KIGQ,04/11/2017 05:35 UTC,29.99,41.18,41.18,100.0,6.91,30.0,,31.0,,,,34.0,,,,4.0,,KIGQ 110535Z AUTO 03006KT 4SM BR OVC003 05/05 A2999 RMK AO2  T00510051,,,300.0,,,41.18,,NNE,29.34,29.33,,Mist
KIGQ,04/11/2017 05:55 UTC,29.99,41.0,41.0,100.0,5.75,30.0,,31.0,,,,34.0,,,,3.0,,KIGQ 110555Z AUTO 03005KT 3SM BR OVC003 05/05 A2999 RMK AO2  T00500050 10188 20050 402210050,65.84,41.0,300.0,71.78,41.0,41.0,,NNE,29.34,29.34,,Mist
KIGQ,04/11/2017 06:15 UTC,30.0,40.46,40.46,100.0,4.61,360.0,,31.0,,,,34.0,,,,4.0,,KIGQ 110615Z AUTO 36004KT 4SM BR OVC003 05/05 A3000 RMK AO2  T00470047,,,300.0,,,40.46,,N,29.35,29.36,,Mist
KIGQ,04/11/2017 06:35 UTC,29.99,40.46,40.46,100.0,4.61,20.0,,31.0,,,,34.0,,,,1.0,,KIGQ 110635Z AUTO 02004KT 1SM BR OVC003 05/05 A2999 RMK AO2  T00470047,,,300.0,,,40.46,,NNE,29.34,29.35,,Mist
KIGQ,04/11/2017 06:55 UTC,30.0,40.46,40.46,100.0,0.0,0.0,,9.0,,,,34.0,,,,0.5,,KIGQ 110655Z AUTO 00000KT 1/2SM FG OVC003 05/05 A3000 RMK AO2  T00470047,,,300.0,,,40.46,,N,29.35,29.36,,Fog
KIGQ,04/11/2017 07:15 UTC,30.0,40.64,40.64,100.0,0.0,0.0,,9.0,,,,34.0,,,,0.5,,KIGQ 110715Z AUTO 00000KT 1/2SM FG OVC003 05/05 A3000 RMK AO2  T00480048,,,300.0,,,40.64,,N,29.35,29.36,,Fog
KIGQ,04/11/2017 07:35 UTC,30.01,40.64,40.64,100.0,0.0,0.0,,9.0,,,,34.0,,,,0.5,,KIGQ 110735Z AUTO 00000KT 1/2SM FG OVC003 05/05 A3001 RMK AO2 LTG  DSNT S T00480048,,,300.0,,,40.64,,N,29.36,29.37,,Fog
KIGQ,04/11/2017 07:55 UTC,30.01,41.0,41.0,100.0,3.44,10.0,,9.0,,,,34.0,,,,0.5,,KIGQ 110755Z AUTO 01003KT 1/2SM FG OVC003 05/05 A3001 RMK AO2  T00500050,,,300.0,,,41.0,,N,29.36,29.36,,Fog
KIGQ,04/11/2017 08:15 UTC,30.02,40.64,40.64,100.0,5.75,360.0,,41.0,,,,34.0,,,,0.5,,KIGQ 110815Z AUTO 36005KT 1/2SM UP OVC003 05/05 A3002 RMK AO2  T00480048,,,300.0,,,40.64,,N,29.37,29.38,,Unknown Precip
KIGQ,04/11/2017 08:35 UTC,30.03,40.64,40.64,100.0,3.44,40.0,,41.0,,,,34.0,,,,0.5,,KIGQ 110835Z AUTO 04003KT 1/2SM UP OVC003 05/05 A3003 RMK AO2 LTG  DSNT S T00480048,,,300.0,,,40.64,,NE,29.38,29.39,,Unknown Precip
KIGQ,04/11/2017 08:55 UTC,30.04,40.64,40.64,100.0,3.44,350.0,,9.0,,,,34.0,,,,0.5,,KIGQ 110855Z AUTO 35003KT 1/2SM FG OVC003 05/05 A3004 RMK AO2  T00480048,,,300.0,,,40.64,,N,29.39,29.4,,Fog
KIGQ,04/11/2017 09:15 UTC,30.04,41.0,41.0,100.0,3.44,40.0,,31.0,,,,34.0,,,,0.75,,KIGQ 110915Z AUTO 04003KT 3/4SM BR OVC003 05/05 A3004 RMK AO2 LTG  DSNT SE T00500050,,,300.0,,,41.0,,NE,29.39,29.39,,Mist
KIGQ,04/11/2017 09:35 UTC,30.05,41.18,41.18,100.0,3.44,80.0,,31.0,,,,34.0,,,,0.75,,KIGQ 110935Z AUTO 08003KT 3/4SM BR OVC003 05/05 A3005 RMK AO2  T00510051,,,300.0,,,41.18,,E,29.4,29.39,,Mist
KIGQ,04/11/2017 09:55 UTC,30.06,41.36,41.36,100.0,0.0,0.0,,31.0,,,,34.0,,,,1.25,,KIGQ 110955Z AUTO 00000KT 1 1/4SM BR OVC003 05/05 A3006 RMK AO2  T00520052,,,300.0,,,41.36,,N,29.41,29.4,,Mist
KIGQ,04/11/2017 10:15 UTC,30.07,41.9,41.9,100.0,0.0,0.0,,31.0,,,,34.0,,,,2.0,,KIGQ 111015Z AUTO 00000KT 2SM BR OVC003 06/06 A3007 RMK AO2  T00550055,,,300.0,,,41.9,,N,29.42,29.39,,Mist
KIGQ,04/11/2017 10:35 UTC,30.08,42.08,42.08,100.0,3.44,140.0,,31.0,,,,34.0,,,,3.0,,KIGQ 111035Z AUTO 14003KT 3SM BR OVC003 06/06 A3008 RMK AO2  T00560056,,,300.0,,,42.08,,SE,29.43,29.39,,Mist
KIGQ,04/11/2017 10:55 UTC,30.09,42.26,42.26,100.0,3.44,160.0,,31.0,,,,33.0,84.0,,,3.0,,KIGQ 111055Z AUTO 16003KT 3SM BR BKN003 OVC008 06/06 A3009 RMK AO2  T00570057,,,300.0,,,42.26,,SSE,29.44,29.4,,Mist
KIGQ,04/11/2017 11:15 UTC,30.09,42.8,42.8,100.0,0.0,0.0,,31.0,,,,54.0,,,,3.0,,KIGQ 111115Z AUTO 00000KT 3SM BR OVC005 06/06 A3009 RMK AO2  T00600060,,,500.0,,,42.8,,N,29.44,29.38,,Mist
KIGQ,04/11/2017 11:35 UTC,30.1,42.98,42.98,100.0,0.0,0.0,,31.0,,,,34.0,,,,3.0,,KIGQ 111135Z AUTO 00000KT 3SM BR OVC003 06/06 A3010 RMK AO2  T00610061,,,300.0,,,42.98,,N,29.45,29.38,,Mist
KIGQ,04/11/2017 11:55 UTC,30.11,43.7,43.7,100.0,3.44,190.0,,31.0,,,,33.0,234.0,,0.43,2.0,,KIGQ 111155Z AUTO 19003KT 2SM BR BKN003 OVC023 07/07 A3011 RMK AO2  70043 T00650065 10065 20046,43.7,40.28,300.0,,,43.7,,S,29.46,29.37,,Mist
KIGQ,04/11/2017 12:15 UTC,30.11,44.42,44.42,100.0,3.44,190.0,,31.0,,,,52.0,214.0,,,1.75,,KIGQ 111215Z AUTO 19003KT 1 3/4SM BR SCT005 OVC021 07/07 A3011 RMK AO2 T00690069,,,2100.0,,,44.42,,S,29.46,29.34,,Mist
KIGQ,04/11/2017 12:35 UTC,30.12,45.5,45.5,100.0,3.44,230.0,,31.0,,,,192.0,244.0,,,2.0,,KIGQ 111235Z AUTO 23003KT 2SM BR SCT019 OVC024 08/08 A3012 RMK AO2  T00750075,,,2400.0,,,45.5,,SW,29.47,29.31,,Mist
KIGQ,04/11/2017 12:55 UTC,30.13,48.02,46.76,93.45,10.36,270.0,,,,,,242.0,,,,10.0,,KIGQ 111255Z AUTO 27009KT 10SM SCT024 09/08 A3013 RMK AO2  T00890082,,,,,,46.2,,W,29.47,29.27,,Partly Cloudy
KIGQ,04/11/2017 13:15 UTC,30.13,49.1,44.42,81.61,14.97,270.0,,,,,,252.0,,,,10.0,,KIGQ 111315Z AUTO 27013KT 10SM SCT025 10/07 A3013 RMK AO2  T00950069,,,,,,43.66,,W,29.47,29.33,,Partly Cloudy
KIGQ,04/11/2017 13:35 UTC,30.14,48.56,43.34,81.48,16.11,280.0,19.57,,,,,243.0,,,,10.0,,KIGQ 111335Z AUTO 28014G17KT 10SM BKN024 09/06 A3014 RMK AO2  T00920063,,,2400.0,,,43.09,,W,29.48,29.36,,Mostly Cloudy
KIGQ,04/11/2017 13:55 UTC,30.15,48.02,42.08,81.48,16.11,280.0,21.85,,,,,224.0,,,,10.0,,KIGQ 111355Z AUTO 28014G19KT 10SM OVC022 09/06 A3015 RMK AO2  T00890056,,,2200.0,,,42.56,,W,29.49,29.39,,Overcast
KIGQ,04/11/2017 14:15 UTC,30.16,48.2,41.54,76.02,9.22,300.0,17.27,,,,,244.0,,,,10.0,,KIGQ 111415Z AUTO 30008G15KT 10SM OVC024 09/05 A3016 RMK AO2  T00900053,,,2400.0,,,40.92,,WNW,29.5,29.44,,Overcast
KIGQ,04/11/2017 14:35 UTC,30.17,48.2,41.72,76.02,9.22,270.0,,,,,,244.0,,,,10.0,,KIGQ 111435Z AUTO 27008KT 10SM OVC024 09/05 A3017 RMK AO2  T00900054,,,2400.0,,,40.92,,W,29.51,29.45,,Overcast
KIGQ,04/11/2017 14:55 UTC,30.18,47.66,42.08,81.48,12.66,260.0,,,,,,224.0,,,,10.0,,KIGQ 111455Z AUTO 26011KT 10SM OVC022 09/06 A3018 RMK AO2  T00870056,,,2200.0,,,42.21,,W,29.52,29.43,,Overcast
KIGQ,04/11/2017 15:15 UTC,30.19,47.3,42.8,81.48,12.66,260.0,17.27,,,,,184.0,,,,10.0,,KIGQ 111515Z AUTO 26011G15KT 10SM OVC018 09/06 A3019 RMK AO2  T00850060,,,1800.0,,,41.86,,W,29.53,29.46,,Overcast
KIGQ,04/11/2017 15:35 UTC,30.19,48.38,41.9,81.48,8.05,290.0,,,,,,182.0,254.0,,,10.0,,KIGQ 111535Z AUTO 29007KT 10SM SCT018 OVC025 09/06 A3019 RMK AO2  T00910055,,,2500.0,,,42.91,,WNW,29.53,29.42,,Overcast
KIGQ,04/11/2017 15:55 UTC,30.2,48.38,41.72,76.02,13.8,270.0,,,,,,244.0,,,,10.0,,KIGQ 111555Z AUTO 27012KT 10SM OVC024 09/05 A3020 RMK AO2  T00910054,,,2400.0,,,41.09,,W,29.54,29.48,,Overcast
KIGQ,04/11/2017 16:15 UTC,30.21,48.38,41.0,76.02,14.97,270.0,,,,,,244.0,,,,10.0,,KIGQ 111615Z AUTO 27013KT 10SM OVC024 09/05 A3021 RMK AO2  T00910050,,,2400.0,,,41.09,,W,29.55,29.49,,Overcast
KIGQ,04/11/2017 16:35 UTC,30.21,48.38,41.18,76.02,13.8,260.0,17.27,,,,,244.0,,,,10.0,,KIGQ 111635Z AUTO 26012G15KT 10SM OVC024 09/05 A3021 RMK AO2  T00910051,,,2400.0,,,41.09,,W,29.55,29.49,,Overcast
KIGQ,04/11/2017 16:55 UTC,30.22,48.56,41.18,76.02,11.5,270.0,,,,,,244.0,,,,10.0,,KIGQ 111655Z AUTO 27010KT 10SM OVC024 09/05 A3022 RMK AO2  T00920051,,,2400.0,,,41.27,,W,29.56,29.49,,Overcast
KIGQ,04/11/2017 17:15 UTC,30.22,49.1,41.54,71.08,17.27,260.0,,,,,,244.0,,,,10.0,,KIGQ 111715Z AUTO 26015KT 10SM OVC024 10/05 A3022 RMK AO2  T00950053,,,2400.0,,,40.04,,W,29.56,29.52,,Overcast
KIGQ,04/11/2017 17:35 UTC,30.21,49.82,41.54,71.08,9.22,270.0,,,,,,284.0,,,,10.0,,KIGQ 111735Z AUTO 27008KT 10SM OVC028 10/05 A3021 RMK AO2  T00990053,,,2800.0,,,40.73,,W,29.55,29.48,,Overcast
KIGQ,04/11/2017 17:55 UTC,30.21,50.36,41.72,71.08,12.66,270.0,17.27,,,,,284.0,,,,10.0,,KIGQ 111755Z AUTO 27011G15KT 10SM OVC028 10/05 A3021 RMK AO2  T01020054 10103 20066,50.54,43.88,2800.0,,,41.25,,W,29.55,29.47,,Overcast
KIGQ,04/11/2017 18:15 UTC,30.21,50.54,41.9,76.18,10.36,270.0,18.41,,,,,304.0,,,,10.0,,KIGQ 111815Z AUTO 27009G16KT 10SM OVC030 10/06 A3021 RMK AO2  T01030055,,,3000.0,,,43.24,,W,29.55,29.41,,Overcast
KIGQ,04/11/2017 18:35 UTC,30.22,51.62,42.08,71.27,13.8,270.0,18.41,,,,,304.0,,,,10.0,,KIGQ 111835Z AUTO 27012G16KT 10SM OVC030 11/06 A3022 RMK AO2  T01090056,,,3000.0,,,42.53,,W,29.56,29.43,,Overcast
KIGQ,04/11/2017 18:55 UTC,30.21,52.16,42.44,71.27,13.8,260.0,19.57,,,,,304.0,,,,10.0,,KIGQ 111855Z AUTO 26012G17KT 10SM OVC030 11/06 A3021 RMK AO2  T01120058,,,3000.0,,,43.05,,W,29.55,29.4,,Overcast
KIGQ,04/11/2017 19:15 UTC,30.21,51.44,41.72,66.49,11.5,280.0,17.27,,,,,304.0,,,,10.0,,KIGQ 111915Z AUTO 28010G15KT 10SM OVC030 11/05 A3021 RMK AO2  T01080054,,,3000.0,,,40.54,,W,29.55,29.47,,Overcast
KIGQ,04/11/2017 19:35 UTC,30.21,51.98,42.44,71.27,12.66,240.0,,,,,,324.0,,,,10.0,,KIGQ 111935Z AUTO 24011KT 10SM OVC032 11/06 A3021 RMK AO2  T01110058,,,3200.0,,,42.88,,WSW,29.55,29.41,,Overcast
KIGQ,04/11/2017 19:55 UTC,30.22,51.98,42.08,71.27,9.22,240.0,,,,,,344.0,,,,10.0,,KIGQ 111955Z AUTO 24008KT 10SM OVC034 11/06 A3022 RMK AO2  T01110056,,,3400.0,,,42.88,,WSW,29.56,29.42,,Overcast
KIGQ,04/11/2017 20:15 UTC,30.22,51.8,41.9,71.27,10.36,250.0,16.11,,,,,344.0,,,,10.0,,KIGQ 112015Z AUTO 25009G14KT 10SM OVC034 11/06 A3022 RMK AO2  T01100055,,,3400.0,,,42.7,,WSW,29.56,29.43,,Overcast
KIGQ,04/11/2017 20:35 UTC,30.22,52.7,42.62,66.71,9.22,250.0,18.41,,,,,344.0,,,,10.0,,KIGQ 112035Z AUTO 25008G16KT 10SM OVC034 12/06 A3022 RMK AO2  T01150059,,,3400.0,,,41.83,,WSW,29.56,29.44,,Overcast
KIGQ,04/11/2017 20:55 UTC,30.21,53.06,42.62,66.71,11.5,260.0,16.11,,,,,384.0,,,,10.0,,KIGQ 112055Z AUTO 26010G14KT 10SM OVC038 12/06 A3021 RMK AO2  T01170059,,,3800.0,,,42.18,,W,29.55,29.42,,Overcast
KIGQ,04/11/2017 21:15 UTC,30.22,53.6,43.34,66.71,9.22,270.0,,,,,,384.0,,,,10.0,,KIGQ 112115Z AUTO 27008KT 10SM OVC038 12/06 A3022 RMK AO2  T01200063,,,3800.0,,,42.69,,W,29.56,29.41,,Overcast
KIGQ,04/11/2017 21:35 UTC,30.22,53.96,42.62,66.71,11.5,270.0,19.57,,,,,383.0,434.0,,,10.0,,KIGQ 112135Z AUTO 27010G17KT 10SM BKN038 OVC043 12/06 A3022 RMK AO2 T01220059,,,3800.0,,,43.04,,W,29.56,29.4,,Overcast
KIGQ,04/11/2017 21:55 UTC,30.22,53.96,43.34,66.71,11.5,250.0,18.41,,,,,384.0,,,,10.0,,KIGQ 112155Z AUTO 25010G16KT 10SM OVC038 12/06 A3022 RMK AO2  T01220063,,,3800.0,,,43.04,,WSW,29.56,29.4,,Overcast
KIGQ,04/11/2017 22:15 UTC,30.22,53.06,43.34,66.71,12.66,250.0,18.41,,,,,384.0,,,,10.0,,KIGQ 112215Z AUTO 25011G16KT 10SM OVC038 12/06 A3022 RMK AO2  T01170063,,,3800.0,,,42.18,,WSW,29.56,29.43,,Overcast
KIGQ,04/11/2017 22:35 UTC,30.23,52.52,42.98,71.27,12.66,250.0,,,,,,404.0,,,,10.0,,KIGQ 112235Z AUTO 25011KT 10SM OVC040 11/06 A3023 RMK AO2  T01140061,,,4000.0,,,43.4,,WSW,29.57,29.41,,Overcast
KIGQ,04/11/2017 22:55 UTC,30.23,52.52,43.34,71.27,13.8,260.0,,,,,,352.0,424.0,,,10.0,,KIGQ 112255Z AUTO 26012KT 10SM SCT035 OVC042 11/06 A3023 RMK AO2  T01140063,,,4200.0,,,43.4,,W,29.57,29.41,,Overcast
KIGQ,04/11/2017 23:15 UTC,30.23,51.44,42.62,71.27,12.66,270.0,,,,,,403.0,,,,10.0,,KIGQ 112315Z AUTO 27011KT 10SM BKN040 11/06 A3023 RMK AO2  T01080059,,,4000.0,,,42.36,,W,29.57,29.45,,Mostly Cloudy
KIGQ,04/11/2017 23:35 UTC,30.24,50.9,42.44,71.27,12.66,250.0,,,,,,362.0,,,,10.0,,KIGQ 112335Z AUTO 25011KT 10SM SCT036 11/06 A3024 RMK AO2  T01050058,,,,,,41.84,,WSW,29.58,29.48,,Partly Cloudy
KIGQ,04/11/2017 23:55 UTC,30.24,50.18,41.72,71.08,12.66,260.0,,,,,,362.0,,,,10.0,,KIGQ 112355Z AUTO 26011KT 10SM SCT036 10/05 A3024 RMK AO2  T01010054 10126 20101,54.68,50.18,,,,41.08,,W,29.58,29.5,,Partly Cloudy
KIGQ,04/12/2017 00:15 UTC,30.24,49.1,40.82,71.08,13.8,270.0,,,,,,362.0,,,,10.0,,KIGQ 120015Z AUTO 27012KT 10SM SCT036 10/05 A3024 RMK AO2  T00950049,,,,,,40.04,,W,29.58,29.54,,Partly Cloudy
KIGQ,04/12/2017 00:35 UTC,30.25,48.2,40.1,76.02,8.05,260.0,,,,,,1.0,,,,10.0,,KIGQ 120035Z AUTO 26007KT 10SM CLR 09/05 A3025 RMK AO2  T00900045,,,,,,40.92,,W,29.59,29.53,,Clear
KIGQ,04/12/2017 00:55 UTC,30.25,46.76,39.74,75.84,9.22,260.0,,,,,,1.0,,,,10.0,,KIGQ 120055Z AUTO 26008KT 10SM CLR 08/04 A3025 RMK AO2  T00820043,,,,,,39.46,,W,29.59,29.58,,Clear
KIGQ,04/12/2017 01:15 UTC,30.26,46.4,39.56,75.84,8.05,260.0,,,,,,1.0,,,,10.0,,KIGQ 120115Z AUTO 26007KT 10SM CLR 08/04 A3026 RMK AO2  T00800042,,,,,,39.11,,W,29.6,29.6,,Clear
KIGQ,04/12/2017 01:35 UTC,30.27,46.4,40.1,81.34,8.05,270.0,,,,,,1.0,,,,10.0,,KIGQ 120135Z AUTO 27007KT 10SM CLR 08/05 A3027 RMK AO2  T00800045,,,,,,40.93,,W,29.61,29.57,,Clear
KIGQ,04/12/2017 01:55 UTC,30.28,46.94,39.56,75.84,8.05,280.0,,,,,,1.0,,,,10.0,,KIGQ 120155Z AUTO 28007KT 10SM CLR 08/04 A3028 RMK AO2  T00830042,,,,,,39.63,,W,29.62,29.6,,Clear
KIGQ,04/12/2017 02:15 UTC,30.29,47.48,39.56,70.88,8.05,280.0,,,,,,363.0,,,,10.0,,KIGQ 120215Z AUTO 28007KT 10SM BKN036 09/04 A3029 RMK AO2  T00860042,,,3600.0,,,38.4,,W,29.63,29.64,,Mostly Cloudy
KIGQ,04/12/2017 02:35 UTC,30.29,47.3,39.2,70.88,6.91,280.0,,,,,,383.0,,,,10.0,,KIGQ 120235Z AUTO 28006KT 10SM BKN038 09/04 A3029 RMK AO2  T00850040,,,3800.0,,,38.23,,W,29.63,29.64,,Mostly Cloudy
KIGQ,04/12/2017 02:55 UTC,30.29,46.22,38.84,75.84,4.61,290.0,,,,,,383.0,,,,10.0,,KIGQ 120255Z AUTO 29004KT 10SM BKN038 08/04 A3029 RMK AO2  T00790038,,,3800.0,,,38.94,,WNW,29.63,29.64,,Mostly Cloudy
KIGQ,04/12/2017 03:15 UTC,30.3,45.5,38.48,75.84,4.61,280.0,,,,,,382.0,,,,10.0,,KIGQ 120315Z AUTO 28004KT 10SM SCT038 08/04 A3030 RMK AO2  T00750036,,,,,,38.24,,W,29.64,29.67,,Partly Cloudy
KIGQ,04/12/2017 03:35 UTC,30.3,44.96,38.48,81.2,0.0,0.0,,,,,,363.0,,,,10.0,,KIGQ 120335Z AUTO 00000KT 10SM BKN036 07/04 A3030 RMK AO2  T00720036,,,3600.0,,,39.48,,N,29.64,29.64,,Mostly Cloudy
KIGQ,04/12/2017 03:55 UTC,30.3,42.62,38.84,86.99,3.44,250.0,,,,,,343.0,,,,10.0,,KIGQ 120355Z AUTO 25003KT 10SM BKN034 06/04 A3030 RMK AO2  T00590038,,,3400.0,,,38.97,,WSW,29.64,29.67,,Mostly Cloudy
KIGQ,04/12/2017 04:15 UTC,30.3,38.84,36.68,93.19,3.44,230.0,,,,,,342.0,,,,10.0,,KIGQ 120415Z AUTO 23003KT 10SM SCT034 04/03 A3030 RMK AO2  T00380026,,,,,,37.02,,SW,29.64,29.74,,Partly Cloudy
KIGQ,04/12/2017 04:35 UTC,30.3,39.38,38.3,100.0,0.0,0.0,,,,,,1.0,,,,10.0,,KIGQ 120435Z AUTO 00000KT 10SM CLR 04/04 A3030 RMK AO2  T00410035,,,,,,39.38,,N,29.64,29.69,,Clear
KIGQ,04/12/2017 04:55 UTC,30.3,39.92,37.04,93.19,4.61,250.0,,,,,,1.0,,,,10.0,,KIGQ 120455Z AUTO 25004KT 10SM CLR 04/03 A3030 RMK AO2  T00440028,,,,,,38.09,,WSW,29.64,29.71,,Clear
KIGQ,04/12/2017 05:15 UTC,30.31,41.0,37.58,86.89,3.44,270.0,,,,,,1.0,,,,10.0,,KIGQ 120515Z AUTO 27003KT 10SM CLR 05/03 A3031 RMK AO2  T00500031,,,,,,37.35,,W,29.65,29.73,,Clear
KIGQ,04/12/2017 05:35 UTC,30.3,39.92,37.22,93.19,0.0,0.0,,,,,,1.0,,,,10.0,,KIGQ 120535Z AUTO 00000KT 10SM CLR 04/03 A3030 RMK AO2  T00440029,,,,,,38.09,,N,29.64,29.71,,Clear
KIGQ,04/12/2017 05:55 UTC,30.31,38.3,36.86,93.19,0.0,0.0,,,,,,1.0,,,,10.0,,KIGQ 120555Z AUTO 00000KT 10SM CLR 04/03 A3031 RMK AO2 T00350027  10100 20035 401260035,50.0,38.3,,54.68,38.3,36.48,,N,29.65,29.77,,Clear
KIGQ,04/12/2017 06:15 UTC,30.3,38.3,36.86,93.19,0.0,0.0,,,,,,1.0,,,,10.0,,KIGQ 120615Z AUTO 00000KT 10SM CLR 04/03 A3030 RMK AO2  T00350027,,,,,,36.48,,N,29.64,29.76,,Clear
KIGQ,04/12/2017 06:35 UTC,30.3,37.04,36.32,93.13,0.0,0.0,,,,,,1.0,,,,10.0,,KIGQ 120635Z AUTO 00000KT 10SM CLR 03/02 A3030 RMK AO2  T00280024,,,,,,35.21,,N,29.64,29.79,,Clear
KIGQ,04/12/2017 06:55 UTC,30.3,37.4,36.68,100.0,0.0,0.0,,,,,,1.0,,,,10.0,,KIGQ 120655Z AUTO 00000KT 10SM CLR 03/03 A3030 RMK AO2  T00300026,,,,,,37.4,,N,29.64,29.75,,Clear
KIGQ,04/12/2017 07:15 UTC,30.3,37.22,36.5,100.0,3.44,250.0,,,,,,1.0,,,,10.0,,KIGQ 120715Z AUTO 25003KT 10SM CLR 03/03 A3030 RMK AO2  T00290025,,,,,,37.22,,WSW,29.64,29.75,,Clear
KIGQ,04/12/2017 07:35 UTC,30.3,35.78,35.78,100.0,0.0,0.0,,,,,,1.0,,,,7.0,,KIGQ 120735Z AUTO 00000KT 7SM CLR 02/02 A3030 RMK AO2  T00210021,,,,,,35.78,,N,29.64,29.79,,Clear
KIGQ,04/12/2017 07:55 UTC,30.31,35.96,35.96,100.0,0.0,0.0,,,,,,1.0,,,,7.0,,KIGQ 120755Z AUTO 00000KT 7SM CLR 02/02 A3031 RMK AO2  T00220022,,,,,,35.96,,N,29.65,29.8,,Clear
KIGQ,04/12/2017 08:15 UTC,30.31,37.04,37.04,100.0,0.0,0.0,,,,,,1.0,,,,7.0,,KIGQ 120815Z AUTO 00000KT 7SM CLR 03/03 A3031 RMK AO2  T00280028,,,,,,37.04,,N,29.65,29.77,,Clear
KIGQ,04/12/2017 08:35 UTC,30.31,37.58,37.04,100.0,0.0,0.0,,,,,,1.0,,,,10.0,,KIGQ 120835Z AUTO 00000KT 10SM CLR 03/03 A3031 RMK AO2  T00310028,,,,,,37.58,,N,29.65,29.75,,Clear
KIGQ,04/12/2017 08:55 UTC,30.32,37.58,37.22,100.0,0.0,0.0,,,,,,1.0,,,,10.0,,KIGQ 120855Z AUTO 00000KT 10SM CLR 03/03 A3032 RMK AO2  T00310029,,,,,,37.58,,N,29.66,29.76,,Clear
KIGQ,04/12/2017 09:15 UTC,30.32,35.78,35.6,100.0,0.0,0.0,,,,,,1.0,,,,7.0,,KIGQ 120915Z AUTO 00000KT 7SM CLR 02/02 A3032 RMK AO2  T00210020,,,,,,35.78,,N,29.66,29.81,,Clear
KIGQ,04/12/2017 09:35 UTC,30.32,34.88,34.88,100.0,0.0,0.0,,,,,,1.0,,,,7.0,,KIGQ 120935Z AUTO 00000KT 7SM CLR 02/02 A3032 RMK AO2  T00160016,,,,,,34.88,,N,29.66,29.83,,Clear
KIGQ,04/12/2017 09:55 UTC,30.32,35.24,35.24,100.0,0.0,0.0,,,,,,1.0,,,,10.0,,KIGQ 120955Z AUTO 00000KT 10SM CLR 02/02 A3032 RMK AO2  T00180018,,,,,,35.24,,N,29.66,29.83,,Clear
KIGQ,04/12/2017 10:15 UTC,30.33,34.88,34.88,100.0,0.0,0.0,,,,,,1.0,,,,7.0,,KIGQ 121015Z AUTO 00000KT 7SM CLR 02/02 A3033 RMK AO2  T00160016,,,,,,34.88,,N,29.67,29.85,,Clear
KIGQ,04/12/2017 10:35 UTC,30.34,34.16,34.16,100.0,0.0,0.0,,,,,,1.0,,,,7.0,,KIGQ 121035Z AUTO 00000KT 7SM CLR 01/01 A3034 RMK AO2  T00120012,,,,,,34.16,,N,29.68,29.87,,Clear
KIGQ,04/12/2017 10:55 UTC,30.34,35.42,35.42,100.0,0.0,0.0,,,,,,1.0,,,,10.0,,KIGQ 121055Z AUTO 00000KT 10SM CLR 02/02 A3034 RMK AO2  T00190019,,,,,,35.42,,N,29.68,29.84,,Clear
KIGQ,04/12/2017 11:15 UTC,30.34,34.88,34.88,100.0,0.0,0.0,,,,,,1.0,,,,7.0,,KIGQ 121115Z AUTO 00000KT 7SM CLR 02/02 A3034 RMK AO2  T00160016,,,,,,34.88,,N,29.68,29.86,,Clear
KIGQ,04/12/2017 11:35 UTC,30.36,35.24,35.24,100.0,0.0,0.0,,,,,,1.0,,,,10.0,,KIGQ 121135Z AUTO 00000KT 10SM CLR 02/02 A3036 RMK AO2  T00180018,,,,,,35.24,,N,29.7,29.87,,Clear
KIGQ,04/12/2017 11:55 UTC,30.37,35.6,35.6,100.0,0.0,0.0,,,,,,1.0,,,,10.0,,KIGQ 121155Z AUTO 00000KT 10SM CLR 02/02 A3037 RMK AO2 T00200020  10035 20010,38.3,33.8,,,,35.6,,N,29.71,29.87,,Clear
KIGQ,04/12/2017 12:15 UTC,30.37,35.6,35.6,100.0,0.0,0.0,,,,,,1.0,,,,10.0,,KIGQ 121215Z AUTO 00000KT 10SM CLR 02/02 A3037 RMK AO2  T00200020,,,,,,35.6,,N,29.71,29.87,,Clear
KIGQ,04/12/2017 12:35 UTC,30.37,37.22,37.22,100.0,0.0,0.0,,,,,,1.0,,,,7.0,,KIGQ 121235Z AUTO 00000KT 7SM CLR 03/03 A3037 RMK AO2  T00290029,,,,,,37.22,,N,29.71,29.83,,Clear
KIGQ,04/12/2017 12:55 UTC,30.37,40.46,39.92,93.24,0.0,0.0,,,,,,1.0,,,,10.0,,KIGQ 121255Z AUTO 00000KT 10SM CLR 05/04 A3037 RMK AO2  T00470044,,,,,,38.64,,N,29.71,29.77,,Clear
KIGQ,04/12/2017 13:15 UTC,30.38,43.34,40.46,93.3,0.0,0.0,,,,,,1.0,,,,10.0,,KIGQ 121315Z AUTO 00000KT 10SM CLR 06/05 A3038 RMK AO2  T00630047,,,,,,41.51,,N,29.72,29.69,,Clear
KIGQ,04/12/2017 13:35 UTC,30.38,46.94,39.92,75.84,0.0,0.0,,,,,,1.0,,,,10.0,,KIGQ 121335Z AUTO 00000KT 10SM CLR 08/04 A3038 RMK AO2  T00830044,,,,,,39.63,,N,29.72,29.71,,Clear
KIGQ,04/12/2017 13:55 UTC,30.39,48.02,39.38,70.88,0.0,0.0,,,,,,1.0,,,,10.0,,KIGQ 121355Z AUTO 00000KT 10SM CLR 09/04 A3039 RMK AO2  T00890041,,,,,,38.92,,N,29.73,29.72,,Clear
KIGQ,04/12/2017 14:15 UTC,30.39,49.1,38.66,66.27,3.44,360.0,,,,,,1.0,,,,10.0,,KIGQ 121415Z AUTO 36003KT 10SM CLR 10/04 A3039 RMK AO2  T00950037,,,,,,38.22,,N,29.73,29.73,,Clear
KIGQ,04/12/2017 14:35 UTC,30.39,50.18,38.3,66.27,3.44,350.0,,,,,,1.0,,,,10.0,,KIGQ 121435Z AUTO 35003KT 10SM CLR 10/04 A3039 RMK AO2  T01010035,,,,,,39.25,,N,29.73,29.7,,Clear
KIGQ,04/12/2017 14:55 UTC,30.4,50.9,38.12,57.78,0.0,0.0,,,,,,1.0,,,,10.0,,KIGQ 121455Z AUTO 00000KT 10SM CLR 11/03 A3040 RMK AO2  T01050034,,,,,,36.41,,N,29.74,29.77,,Clear
KIGQ,04/12/2017 15:15 UTC,30.41,52.16,38.66,62.0,0.0,0.0,,,,,,1.0,,,,10.0,,KIGQ 121515Z AUTO 00000KT 10SM CLR 11/04 A3041 RMK AO2  T01120037,,,,,,39.41,,N,29.75,29.7,,Clear
KIGQ,04/12/2017 15:35 UTC,30.41,52.7,37.58,54.08,0.0,0.0,,,,,,1.0,,,,10.0,,KIGQ 121535Z AUTO 00000KT 10SM CLR 12/03 A3041 RMK AO2  T01150031,,,,,,36.41,,N,29.75,29.77,,Clear
KIGQ,04/12/2017 15:55 UTC,30.41,53.06,38.66,58.03,3.44,70.0,,,,,,1.0,,,,10.0,,KIGQ 121555Z AUTO 07003KT 10SM CLR 12/04 A3041 RMK AO2  T01170037,,,,,,38.56,,ENE,29.75,29.72,,Clear
KIGQ,04/12/2017 16:15 UTC,30.41,53.6,38.84,58.03,3.44,10.0,,,,,,1.0,,,,10.0,,KIGQ 121615Z AUTO 01003KT 10SM CLR 12/04 A3041 RMK AO2  T01200038,,,,,,39.06,,N,29.75,29.7,,Clear
KIGQ,04/12/2017 16:35 UTC,30.41,54.5,40.1,58.29,4.61,50.0,,,,,,1.0,,,,10.0,,KIGQ 121635Z AUTO 05004KT 10SM CLR 13/05 A3041 RMK AO2  T01250045,,,,,,40.03,,NE,29.75,29.67,,Clear
KIGQ,04/12/2017 16:55 UTC,30.41,55.58,40.28,58.29,3.44,30.0,,,,,,1.0,,,,10.0,,KIGQ 121655Z AUTO 03003KT 10SM CLR 13/05 A3041 RMK AO2  T01310046,,,,,,41.04,,NNE,29.75,29.63,,Clear
KIGQ,04/12/2017 17:15 UTC,30.4,56.3,41.54,54.62,6.91,20.0,,,,,,1.0,,,,10.0,,KIGQ 121715Z AUTO 02006KT 10SM CLR 14/05 A3040 RMK AO2  T01350053,,,,,,40.03,,NNE,29.74,29.64,,Clear
KIGQ,04/12/2017 17:35 UTC,30.4,55.76,41.72,58.29,5.75,20.0,,,,,,1.0,,,,10.0,,KIGQ 121735Z AUTO 02005KT 10SM CLR 13/05 A3040 RMK AO2  T01320054,,,,,,41.21,,NNE,29.74,29.62,,Clear
KIGQ,04/12/2017 17:55 UTC,30.4,55.76,42.44,62.48,4.61,50.0,,,,,,1.0,,,,10.0,,KIGQ 121755Z AUTO 05004KT 10SM CLR 13/06 A3040 RMK AO2 T01320058  10135 20016,56.3,34.88,,,,43.03,,NE,29.74,29.57,,Clear
KIGQ,04/12/2017 18:15 UTC,30.4,55.76,42.62,62.48,9.22,80.0,,,,,,1.0,,,,10.0,,KIGQ 121815Z AUTO 08008KT 10SM CLR 13/06 A3040 RMK AO2  T01320059,,,,,,43.03,,E,29.74,29.57,,Clear
KIGQ,04/12/2017 18:35 UTC,30.4,55.4,42.26,62.48,8.05,40.0,,,,,,1.0,,,,10.0,,KIGQ 121835Z AUTO 04007KT 10SM CLR 13/06 A3040 RMK AO2  T01300057,,,,,,42.69,,NE,29.74,29.58,,Clear
KIGQ,04/12/2017 18:55 UTC,30.39,55.22,42.08,62.48,6.91,60.0,,,,,,1.0,,,,10.0,,KIGQ 121855Z AUTO 06006KT 10SM CLR 13/06 A3039 RMK AO2  T01290056,,,,,,42.52,,ENE,29.73,29.58,,Clear
KIGQ,04/12/2017 19:15 UTC,30.38,55.58,41.9,62.48,6.91,60.0,,,,,,1.0,,,,10.0,,KIGQ 121915Z AUTO 06006KT 10SM CLR 13/06 A3038 RMK AO2  T01310055,,,,,,42.86,,ENE,29.72,29.55,,Clear
KIGQ,04/12/2017 19:35 UTC,30.38,56.12,42.44,62.48,8.05,40.0,,,,,,1.0,,,,10.0,,KIGQ 121935Z AUTO 04007KT 10SM CLR 13/06 A3038 RMK AO2  T01340058,,,,,,43.37,,NE,29.72,29.53,,Clear
KIGQ,04/12/2017 19:55 UTC,30.37,55.4,42.44,62.48,10.36,40.0,,,,,,1.0,,,,10.0,,KIGQ 121955Z AUTO 04009KT 10SM CLR 13/06 A3037 RMK AO2  T01300058,,,,,,42.69,,NE,29.71,29.55,,Clear
KIGQ,04/12/2017 20:15 UTC,30.36,55.04,41.9,62.48,10.36,40.0,,,,,,1.0,,,,10.0,,KIGQ 122015Z AUTO 04009KT 10SM CLR 13/06 A3036 RMK AO2  T01280055,,,,,,42.35,,NE,29.7,29.55,,Clear
KIGQ,04/12/2017 20:35 UTC,30.37,54.5,40.82,58.29,9.22,60.0,,,,,,1.0,,,,10.0,,KIGQ 122035Z AUTO 06008KT 10SM CLR 13/05 A3037 RMK AO2  T01250049,,,,,,40.03,,ENE,29.71,29.63,,Clear
KIGQ,04/12/2017 20:55 UTC,30.37,54.68,40.28,58.29,10.36,50.0,,,,,,1.0,,,,10.0,,KIGQ 122055Z AUTO 05009KT 10SM CLR 13/05 A3037 RMK AO2  T01260046,,,,,,40.2,,NE,29.71,29.62,,Clear
KIGQ,04/12/2017 21:15 UTC,30.36,54.86,40.1,58.29,9.22,40.0,,,,,,1.0,,,,10.0,,KIGQ 122115Z AUTO 04008KT 10SM CLR 13/05 A3036 RMK AO2  T01270045,,,,,,40.36,,NE,29.7,29.61,,Clear
KIGQ,04/12/2017 21:35 UTC,30.36,55.4,39.2,54.35,10.36,40.0,,,,,,1.0,,,,10.0,,KIGQ 122135Z AUTO 04009KT 10SM CLR 13/04 A3036 RMK AO2  T01300040,,,,,,39.06,,NE,29.7,29.63,,Clear
KIGQ,04/12/2017 21:55 UTC,30.36,55.94,39.38,54.35,6.91,50.0,,,,,,1.0,,,,10.0,,KIGQ 122155Z AUTO 05006KT 10SM CLR 13/04 A3036 RMK AO2  T01330041,,,,,,39.56,,NE,29.7,29.62,,Clear
KIGQ,04/12/2017 22:15 UTC,30.36,56.3,37.76,47.46,5.75,60.0,,,,,,1.0,,,,10.0,,KIGQ 122215Z AUTO 06005KT 10SM CLR 14/03 A3036 RMK AO2  T01350032,,,,,,36.42,,ENE,29.7,29.69,,Clear
KIGQ,04/12/2017 22:35 UTC,30.37,55.58,35.78,47.17,6.91,50.0,,,,,,1.0,,,,10.0,,KIGQ 122235Z AUTO 05006KT 10SM CLR 13/02 A3037 RMK AO2  T01310021,,,,,,35.6,,NE,29.71,29.72,,Clear
KIGQ,04/12/2017 22:55 UTC,30.38,54.32,33.26,46.88,9.22,50.0,,,,,,1.0,,,,10.0,,KIGQ 122255Z AUTO 05008KT 10SM CLR 12/01 A3038 RMK AO2  T01240007,,,,,,34.29,,NE,29.72,29.77,,Clear
KIGQ,04/12/2017 23:15 UTC,30.38,53.06,34.88,50.37,9.22,30.0,,,,,,1.0,,,,10.0,,KIGQ 122315Z AUTO 03008KT 10SM CLR 12/02 A3038 RMK AO2  T01170016,,,,,,34.94,,NNE,29.72,29.77,,Clear
KIGQ,04/12/2017 23:35 UTC,30.39,51.8,33.26,50.08,9.22,40.0,,,,,,1.0,,,,10.0,,KIGQ 122335Z AUTO 04008KT 10SM CLR 11/01 A3039 RMK AO2  T01100007,,,,,,33.63,,NE,29.73,29.81,,Clear
KIGQ,04/12/2017 23:55 UTC,30.38,50.9,32.9,50.08,9.22,60.0,,,,,,1.0,,,,10.0,,KIGQ 122355Z AUTO 06008KT 10SM CLR 11/01 A3038 RMK AO2 T01050005  10137 20105,56.66,50.9,,,,32.8,,ENE,29.72,29.82,,Clear
KIGQ,04/13/2017 00:15 UTC,30.37,49.46,33.98,53.53,9.22,50.0,,,,,,1.0,,,,10.0,,KIGQ 130015Z AUTO 05008KT 10SM CLR 10/01 A3037 RMK AO2  T00970011,,,,,,33.13,,NE,29.71,29.82,,Clear
KIGQ,04/13/2017 00:35 UTC,30.38,49.1,33.98,53.53,6.91,50.0,,,,,,1.0,,,,10.0,,KIGQ 130035Z AUTO 05006KT 10SM CLR 10/01 A3038 RMK AO2  T00950011,,,,,,32.79,,NE,29.72,29.83,,Clear
KIGQ,04/13/2017 00:55 UTC,30.38,48.2,33.8,57.25,6.91,50.0,,,,,,1.0,,,,10.0,,KIGQ 130055Z AUTO 05006KT 10SM CLR 09/01 A3038 RMK AO2  T00900010,,,,,,33.64,,NE,29.72,29.82,,Clear
KIGQ,04/13/2017 01:15 UTC,30.37,48.2,32.0,53.26,10.36,70.0,,,,,,1.0,,,,10.0,,KIGQ 130115Z AUTO 07009KT 10SM CLR 09/00 A3037 RMK AO2  T00900000,,,,,,31.83,,ENE,29.71,29.85,,Clear
KIGQ,04/13/2017 01:35 UTC,30.36,47.48,32.18,53.26,8.05,60.0,,,,,,1.0,,,,10.0,,KIGQ 130135Z AUTO 06007KT 10SM CLR 09/00 A3036 RMK AO2  T00860001,,,,,,31.16,,ENE,29.7,29.85,,Clear
KIGQ,04/13/2017 01:55 UTC,30.38,47.3,30.38,49.51,8.05,40.0,,,,,,1.0,,,,10.0,,KIGQ 130155Z AUTO 04007KT 10SM CLR 09/M01 A3038 RMK AO2  T00851009,,,,,,29.18,,NE,29.72,29.91,,Clear
KIGQ,04/13/2017 02:15 UTC,30.39,47.48,28.04,46.0,8.05,40.0,,,,,,1.0,,,,10.0,,KIGQ 130215Z AUTO 04007KT 10SM CLR 09/M02 A3039 RMK AO2  T00861022,,,,,,27.54,,NE,29.73,29.94,,Clear
KIGQ,04/13/2017 02:35 UTC,30.39,47.3,25.16,39.63,9.22,40.0,,,,,,1.0,,,,10.0,,KIGQ 130235Z AUTO 04008KT 10SM CLR 09/M04 A3039 RMK AO2  T00851038,,,,,,23.77,,NE,29.73,30.0,,Clear
KIGQ,04/13/2017 02:55 UTC,30.41,47.3,26.6,42.71,6.91,30.0,,,,,,1.0,,,,10.0,,KIGQ 130255Z AUTO 03006KT 10SM CLR 09/M03 A3041 RMK AO2  T00851030,,,,,,25.57,,NNE,29.75,29.99,,Clear
KIGQ,04/13/2017 03:15 UTC,30.4,46.94,27.14,45.7,6.91,40.0,,,,,,1.0,,,,10.0,,KIGQ 130315Z AUTO 04006KT 10SM CLR 08/M03 A3040 RMK AO2  T00831027,,,,,,26.89,,NE,29.74,29.97,,Clear
KIGQ,04/13/2017 03:35 UTC,30.39,46.76,28.4,49.22,9.22,50.0,,,,,,1.0,,,,10.0,,KIGQ 130335Z AUTO 05008KT 10SM CLR 08/M02 A3039 RMK AO2  T00821020,,,,,,28.54,,NE,29.73,29.93,,Clear
KIGQ,04/13/2017 03:55 UTC,30.38,46.76,28.22,49.22,9.22,70.0,,,,,,1.0,,,,10.0,,KIGQ 130355Z AUTO 07008KT 10SM CLR 08/M02 A3038 RMK AO2  T00821021,,,,,,28.54,,ENE,29.72,29.92,,Clear
KIGQ,04/13/2017 04:15 UTC,30.37,47.3,27.86,46.0,8.05,80.0,,,,,,1.0,,,,10.0,,KIGQ 130415Z AUTO 08007KT 10SM CLR 09/M02 A3037 RMK AO2  T00851023,,,,,,27.38,,E,29.71,29.93,,Clear
KIGQ,04/13/2017 04:35 UTC,30.37,47.3,27.5,46.0,5.75,70.0,,,,,,1.0,,,,10.0,,KIGQ 130435Z AUTO 07005KT 10SM CLR 09/M02 A3037 RMK AO2  T00851025,,,,,,27.38,,ENE,29.71,29.93,,Clear
KIGQ,04/13/2017 04:55 UTC,30.37,47.3,28.22,46.0,0.0,0.0,,,,,,1.0,,,,10.0,,KIGQ 130455Z AUTO 00000KT 10SM CLR 09/M02 A3037 RMK AO2  T00851021,,,,,,27.38,,N,29.71,29.93,,Clear
KIGQ,04/13/2017 05:15 UTC,30.35,46.04,31.82,56.99,4.61,100.0,,,,,,1.0,,,,10.0,,KIGQ 130515Z AUTO 10004KT 10SM CLR 08/00 A3035 RMK AO2  T00781001,,,,,,31.5,,E,29.69,29.85,,Clear
KIGQ,04/13/2017 05:35 UTC,30.34,46.76,30.56,52.98,0.0,0.0,,,,,,1.0,,,,10.0,,KIGQ 130535Z AUTO 00000KT 10SM CLR 08/M01 A3034 RMK AO2  T00821008,,,,,,30.36,,N,29.68,29.85,,Clear
KIGQ,04/13/2017 05:55 UTC,30.33,46.76,31.46,56.99,5.75,40.0,,,,,,1.0,,,,10.0,,KIGQ 130555Z AUTO 04005KT 10SM CLR 08/00 A3033 RMK AO2 T00821003  10105 20078 401370010,50.9,46.04,,56.66,33.8,32.18,,NE,29.67,29.81,,Clear
KIGQ,04/13/2017 06:15 UTC,30.34,46.76,32.18,56.99,5.75,50.0,,,,,,1.0,,,,10.0,,KIGQ 130615Z AUTO 05005KT 10SM CLR 08/00 A3034 RMK AO2  T00820001,,,,,,32.18,,NE,29.68,29.82,,Clear
KIGQ,04/13/2017 06:35 UTC,30.34,47.48,32.36,53.26,4.61,50.0,,,,,,1202.0,,,,10.0,,KIGQ 130635Z AUTO 05004KT 10SM SCT120 09/00 A3034 RMK AO2  T00860002,,,,,,31.16,,NE,29.68,29.83,,Partly Cloudy
KIGQ,04/13/2017 06:55 UTC,30.33,47.48,32.54,53.26,3.44,90.0,,,,,,1.0,,,,10.0,,KIGQ 130655Z AUTO 09003KT 10SM CLR 09/00 A3033 RMK AO2  T00860003,,,,,,31.16,,E,29.67,29.82,,Clear
KIGQ,04/13/2017 07:15 UTC,30.34,46.58,33.26,61.27,0.0,0.0,,,,,,1.0,,,,10.0,,KIGQ 130715Z AUTO 00000KT 10SM CLR 08/01 A3034 RMK AO2  T00810007,,,,,,33.83,,N,29.68,29.79,,Clear
KIGQ,04/13/2017 07:35 UTC,30.32,46.94,34.7,65.82,4.61,100.0,,,,,,1.0,,,,10.0,,KIGQ 130735Z AUTO 10004KT 10SM CLR 08/02 A3032 RMK AO2  T00830015,,,,,,35.99,,E,29.66,29.72,,Clear
KIGQ,04/13/2017 07:55 UTC,30.33,46.76,35.24,65.82,3.44,120.0,,,,,,1.0,,,,10.0,,KIGQ 130755Z AUTO 12003KT 10SM CLR 08/02 A3033 RMK AO2  T00820018,,,,,,35.81,,ESE,29.67,29.74,,Clear
KIGQ,04/13/2017 08:15 UTC,30.32,46.22,35.78,65.82,4.61,110.0,,,,,,1.0,,,,10.0,,KIGQ 130815Z AUTO 11004KT 10SM CLR 08/02 A3032 RMK AO2  T00790021,,,,,,35.3,,ESE,29.66,29.74,,Clear
KIGQ,04/13/2017 08:35 UTC,30.31,47.12,35.78,65.82,5.75,110.0,,,,,,1.0,,,,10.0,,KIGQ 130835Z AUTO 11005KT 10SM CLR 08/02 A3031 RMK AO2  T00840021,,,,,,36.16,,ESE,29.65,29.71,,Clear
KIGQ,04/13/2017 08:55 UTC,30.31,47.66,35.78,61.51,6.91,100.0,,,,,,1.0,,,,10.0,,KIGQ 130855Z AUTO 10006KT 10SM CLR 09/02 A3031 RMK AO2  T00870021,,,,,,34.95,,E,29.65,29.73,,Clear
KIGQ,04/13/2017 09:15 UTC,30.3,48.38,35.24,61.51,9.22,110.0,,,,,,1.0,,,,10.0,,KIGQ 130915Z AUTO 11008KT 10SM CLR 09/02 A3030 RMK AO2  T00910018,,,,,,35.63,,ESE,29.64,29.7,,Clear
KIGQ,04/13/2017 09:35 UTC,30.29,48.38,35.6,61.51,8.05,110.0,,,,,,1.0,,,,10.0,,KIGQ 130935Z AUTO 11007KT 10SM CLR 09/02 A3029 RMK AO2  T00910020,,,,,,35.63,,ESE,29.63,29.69,,Clear
KIGQ,04/13/2017 09:55 UTC,30.33,49.28,35.06,57.52,0.0,0.0,,,,,,1202.0,,,,10.0,,KIGQ 130955Z AUTO 00000KT 10SM SCT120 10/02 A3033 RMK AO2  T00960017,,,,,,34.78,,N,29.67,29.74,,Partly Cloudy
KIGQ,04/13/2017 10:15 UTC,30.34,49.46,35.42,57.52,5.75,30.0,,,,,,1103.0,,,,10.0,,KIGQ 131015Z AUTO 03005KT 10SM BKN110 10/02 A3034 RMK AO2  T00970019,,,11000.0,,,34.94,,NNE,29.68,29.75,,Mostly Cloudy
KIGQ,04/13/2017 10:35 UTC,30.34,49.64,35.6,57.52,5.75,20.0,,,,,,1103.0,,,,10.0,,KIGQ 131035Z AUTO 02005KT 10SM BKN110 10/02 A3034 RMK AO2  T00980020,,,11000.0,,,35.11,,NNE,29.68,29.74,,Mostly Cloudy
KIGQ,04/13/2017 10:55 UTC,30.32,50.0,35.78,57.52,8.05,30.0,,,,,,1103.0,,,,10.0,,KIGQ 131055Z AUTO 03007KT 10SM BKN110 10/02 A3032 RMK AO2  T01000021,,,11000.0,,,35.45,,NNE,29.66,29.71,,Mostly Cloudy
KIGQ,04/13/2017 11:15 UTC,30.34,49.28,37.04,61.76,6.91,40.0,,,,,,1104.0,,,,10.0,,KIGQ 131115Z AUTO 04006KT 10SM OVC110 10/03 A3034 RMK AO2  T00960028,,,11000.0,,,36.59,,NE,29.68,29.72,,Overcast
KIGQ,04/13/2017 11:35 UTC,30.34,48.2,38.12,66.05,8.05,40.0,,,,,,1004.0,,,,10.0,,KIGQ 131135Z AUTO 04007KT 10SM OVC100 09/03 A3034 RMK AO2  T00900034,,,10000.0,,,37.28,,NE,29.68,29.71,,Overcast
KIGQ,04/13/2017 11:55 UTC,30.35,47.84,36.14,61.51,8.05,40.0,,,,,,1004.0,,,,10.0,,KIGQ 131155Z AUTO 04007KT 10SM OVC100 09/02 A3035 RMK AO2  T00880023 10100 20078,50.0,46.04,10000.0,,,35.12,,NE,29.69,29.77,,Overcast
KIGQ,04/13/2017 12:15 UTC,30.34,46.94,37.58,70.68,6.91,50.0,,13.0,,,,703.0,904.0,,,10.0,,KIGQ 131215Z AUTO 05006KT 10SM -RA BKN070 OVC090 08/03 A3034 RMK AO2 T00830031,,,7000.0,,,37.81,,NE,29.68,29.71,,Light Rain
KIGQ,04/13/2017 12:35 UTC,30.37,46.58,38.84,75.84,6.91,20.0,,13.0,,,,552.0,704.0,,,10.0,,KIGQ 131235Z AUTO 02006KT 10SM -RA SCT055 OVC070 08/04 A3037 RMK AO2 T00810038,,,7000.0,,,39.28,,NNE,29.71,29.71,,Light Rain
KIGQ,04/13/2017 12:55 UTC,30.36,45.5,40.82,81.34,5.75,40.0,,1.0,,,,654.0,,,,10.0,,KIGQ 131255Z AUTO 04005KT 10SM RA OVC065 08/05 A3036 RMK AO2  T00750049,,,6500.0,,,40.05,,NE,29.7,29.69,,Rain
KIGQ,04/13/2017 13:15 UTC,30.36,45.5,41.9,87.19,9.22,60.0,,1.0,,0.01,,654.0,,,,7.0,,KIGQ 131315Z AUTO 06008KT 7SM RA OVC065 08/06 A3036 RMK AO2 P0001  T00750055,,,6500.0,,,41.87,,ENE,29.7,29.64,,Rain
KIGQ,04/13/2017 13:35 UTC,30.36,44.96,42.44,93.35,5.75,20.0,,1.0,,0.02,,654.0,,,,10.0,,KIGQ 131335Z AUTO 02005KT 10SM RA OVC065 07/06 A3036 RMK AO2 P0002  T00720058,,,6500.0,,,43.13,,NNE,29.7,29.62,,Rain
KIGQ,04/13/2017 13:55 UTC,30.36,44.96,43.16,93.35,3.44,60.0,,1.0,,0.02,,653.0,754.0,,,10.0,,KIGQ 131355Z AUTO 06003KT 10SM RA BKN065 OVC075 07/06 A3036 RMK AO2 P0002 T00720062,,,6500.0,,,43.13,,ENE,29.7,29.62,,Rain
KIGQ,04/13/2017 14:15 UTC,30.34,45.32,43.88,100.0,6.91,80.0,,1.0,,0.01,,602.0,704.0,,,7.0,,KIGQ 131415Z AUTO 08006KT 7SM RA SCT060 OVC070 07/07 A3034 RMK AO2  P0001 T00740066,,,7000.0,,,45.32,,E,29.68,29.54,,Rain
KIGQ,04/13/2017 14:35 UTC,30.32,45.68,44.42,93.4,9.22,100.0,,13.0,,0.02,,704.0,,,,10.0,,KIGQ 131435Z AUTO 10008KT 10SM -RA OVC070 08/07 A3032 RMK AO2  P0002 T00760069,,,7000.0,,,43.86,,E,29.66,29.55,,Light Rain
KIGQ,04/13/2017 14:55 UTC,30.32,47.3,45.14,87.28,10.36,100.0,,17.0,,0.02,0.04,703.0,804.0,,,10.0,,KIGQ 131455Z AUTO 10009KT 10SM -DZ BKN070 OVC080 09/07 A3032 RMK AO2 P0002 60004 T00850073,,,7000.0,,,43.67,,E,29.66,29.54,,Light Drizzle
KIGQ,04/13/2017 15:15 UTC,30.32,48.2,45.14,87.28,8.05,100.0,,,,,,603.0,804.0,,,10.0,,KIGQ 131515Z AUTO 10007KT 10SM BKN060 OVC080 09/07 A3032 RMK AO2  T00900073,,,6000.0,,,44.55,,E,29.66,29.51,,Overcast
KIGQ,04/13/2017 15:35 UTC,30.31,48.38,45.86,93.45,8.05,110.0,,,,,,604.0,,,,10.0,,KIGQ 131535Z AUTO 11007KT 10SM OVC060 09/08 A3031 RMK AO2  T00910077,,,6000.0,,,46.56,,ESE,29.65,29.44,,Overcast
KIGQ,04/13/2017 15:55 UTC,30.31,49.1,46.04,87.38,9.22,100.0,,,,,,604.0,,,,10.0,,KIGQ 131555Z AUTO 10008KT 10SM OVC060 10/08 A3031 RMK AO2 LTG DSNT  S T00950078,,,6000.0,,,45.47,,E,29.65,29.46,,Overcast
KIGQ,04/13/2017 16:15 UTC,30.3,49.82,46.58,87.38,10.36,110.0,,,,,,504.0,,,,10.0,,KIGQ 131615Z AUTO 11009KT 10SM OVC050 10/08 A3030 RMK AO2  T00990081,,,5000.0,,,46.18,,ESE,29.64,29.43,,Overcast
KIGQ,04/13/2017 16:35 UTC,30.3,50.36,46.58,87.38,9.22,120.0,,,,,,504.0,,,,10.0,,KIGQ 131635Z AUTO 12008KT 10SM OVC050 10/08 A3030 RMK AO2  T01020081,,,5000.0,,,46.71,,ESE,29.64,29.41,,Overcast
KIGQ,04/13/2017 16:55 UTC,30.29,51.26,47.12,81.75,11.5,110.0,,,,,,504.0,,,,10.0,,KIGQ 131655Z AUTO 11010KT 10SM OVC050 11/08 A3029 RMK AO2  T01070084,,,5000.0,,,45.81,,ESE,29.63,29.41,,Overcast
KIGQ,04/13/2017 17:15 UTC,30.29,51.26,46.58,81.75,8.05,110.0,,,,,,504.0,,,,10.0,,KIGQ 131715Z AUTO 11007KT 10SM OVC050 11/08 A3029 RMK AO2  T01070081,,,5000.0,,,45.81,,ESE,29.63,29.41,,Overcast
KIGQ,04/13/2017 17:35 UTC,30.27,52.7,47.3,81.88,12.66,120.0,,,,,,484.0,,,,10.0,,KIGQ 131735Z AUTO 12011KT 10SM OVC048 12/09 A3027 RMK AO2  T01150085,,,4800.0,,,47.26,,ESE,29.61,29.33,,Overcast
KIGQ,04/13/2017 17:55 UTC,30.27,55.4,48.92,76.68,11.5,110.0,,,,,,504.0,,0.04,,10.0,,KIGQ 131755Z AUTO 11010KT 10SM OVC050 13/09 A3027 RMK AO2 60004  T01300094 10130 20071,55.4,44.78,5000.0,,,48.13,,ESE,29.61,29.28,,Overcast
KIGQ,04/13/2017 18:15 UTC,30.26,57.74,50.18,76.85,11.5,120.0,,,,,,504.0,,,,10.0,,KIGQ 131815Z AUTO 12010KT 10SM OVC050 14/10 A3026 RMK AO2  T01430101,,,5000.0,,,50.46,,ESE,29.6,29.17,,Overcast
KIGQ,04/13/2017 18:35 UTC,30.26,58.46,50.36,72.04,11.5,120.0,,,,,,503.0,,,,10.0,,KIGQ 131835Z AUTO 12010KT 10SM BKN050 15/10 A3026 RMK AO2  T01470102,,,5000.0,,,49.41,,ESE,29.6,29.2,,Mostly Cloudy
KIGQ,04/13/2017 18:55 UTC,30.26,60.08,50.72,67.57,9.22,140.0,,,,,,1.0,,,,10.0,,KIGQ 131855Z AUTO 14008KT 10SM CLR 16/10 A3026 RMK AO2  T01560104,,,,,,49.23,,SE,29.6,29.19,,Clear
KIGQ,04/13/2017 19:15 UTC,30.25,60.62,51.26,72.23,8.05,120.0,,,,,,1.0,,,,10.0,,KIGQ 131915Z AUTO 12007KT 100V180 10SM CLR 16/11 A3025 RMK AO2  T01590107,,,,,,51.56,,ESE,29.59,29.09,,Clear
KIGQ,04/13/2017 19:35 UTC,30.25,61.34,51.62,72.23,5.75,160.0,,,,,,1.0,,,,10.0,,KIGQ 131935Z AUTO 16005KT 10SM CLR 16/11 A3025 RMK AO2  T01630109,,,,,,52.25,,SSE,29.59,29.05,,Clear
KIGQ,04/13/2017 19:55 UTC,30.24,61.7,51.44,67.79,5.75,130.0,,,,,,1.0,,,,10.0,,KIGQ 131955Z AUTO 13005KT 10SM CLR 17/11 A3024 RMK AO2  T01650108,,,,,,50.87,,SE,29.58,29.09,,Clear
KIGQ,04/13/2017 20:15 UTC,30.24,62.6,52.16,67.79,5.75,70.0,,,,,,1.0,,,,10.0,,KIGQ 132015Z AUTO 07005KT 10SM CLR 17/11 A3024 RMK AO2  T01700112,,,,,,51.73,,ENE,29.58,29.05,,Clear
KIGQ,04/13/2017 20:35 UTC,30.23,62.78,51.98,67.79,8.05,90.0,,,,,,1.0,,,,10.0,,KIGQ 132035Z AUTO 09007KT 10SM CLR 17/11 A3023 RMK AO2  T01710111,,,,,,51.9,,E,29.57,29.03,,Clear
KIGQ,04/13/2017 20:55 UTC,30.23,63.14,52.16,67.79,9.22,100.0,,,,,,1.0,,,,10.0,,KIGQ 132055Z AUTO 10008KT 10SM CLR 17/11 A3023 RMK AO2  T01730112,,,,,,52.25,,E,29.57,29.01,,Clear
KIGQ,04/13/2017 21:15 UTC,30.22,63.68,52.34,63.64,4.61,110.0,,,,,,1.0,,,,10.0,,KIGQ 132115Z AUTO 11004KT 10SM CLR 18/11 A3022 RMK AO2  T01760113,,,,,,51.04,,ESE,29.56,29.05,,Clear
KIGQ,04/13/2017 21:35 UTC,30.22,63.68,52.52,63.64,10.36,120.0,,,,,,1.0,,,,10.0,,KIGQ 132135Z AUTO 12009KT 080V160 10SM CLR 18/11 A3022 RMK AO2  T01760114,,,,,,51.04,,ESE,29.56,29.05,,Clear
KIGQ,04/13/2017 21:55 UTC,30.22,63.68,51.98,63.64,6.91,110.0,,,,,,1.0,,,,10.0,,KIGQ 132155Z AUTO 11006KT 10SM CLR 18/11 A3022 RMK AO2  T01760111,,,,,,51.04,,ESE,29.56,29.05,,Clear
KIGQ,04/13/2017 22:15 UTC,30.22,63.86,52.16,63.64,5.75,100.0,,,,,,1.0,,,,10.0,,KIGQ 132215Z AUTO 10005KT 10SM CLR 18/11 A3022 RMK AO2  T01770112,,,,,,51.21,,E,29.56,29.04,,Clear
KIGQ,04/13/2017 22:35 UTC,30.21,63.5,51.98,63.64,8.05,80.0,,,,,,1.0,,,,10.0,,KIGQ 132235Z AUTO 08007KT 10SM CLR 18/11 A3021 RMK AO2  T01750111,,,,,,50.87,,E,29.55,29.04,,Clear
KIGQ,04/13/2017 22:55 UTC,30.21,62.78,51.98,67.79,8.05,110.0,,,,,,1.0,,,,10.0,,KIGQ 132255Z AUTO 11007KT 10SM CLR 17/11 A3021 RMK AO2  T01710111,,,,,,51.9,,ESE,29.55,29.01,,Clear
KIGQ,04/13/2017 23:15 UTC,30.22,61.52,50.9,72.23,9.22,80.0,,,,,,1.0,,,,10.0,,KIGQ 132315Z AUTO 08008KT 10SM CLR 16/11 A3022 RMK AO2  T01640105,,,,,,52.43,,E,29.56,29.01,,Clear
KIGQ,04/13/2017 23:35 UTC,30.22,60.8,50.72,67.57,8.05,80.0,,,,,,902.0,,,,10.0,,KIGQ 132335Z AUTO 08007KT 10SM SCT090 16/10 A3022 RMK AO2  T01600104,,,,,,49.92,,E,29.56,29.12,,Partly Cloudy
KIGQ,04/13/2017 23:55 UTC,30.23,59.18,50.18,72.04,5.75,60.0,,,,,,903.0,1004.0,,,10.0,,KIGQ 132355Z AUTO 06005KT 10SM BKN090 OVC100 15/10 A3023 RMK AO2  T01510101 10178 20132,64.04,55.76,9000.0,,,50.1,,ENE,29.57,29.13,,Overcast
KIGQ,04/14/2017 00:15 UTC,30.23,58.1,49.28,72.04,6.91,40.0,,,,,,902.0,1103.0,,,10.0,,KIGQ 140015Z AUTO 04006KT 10SM SCT090 BKN110 15/10 A3023 RMK AO2  T01450096,,,11000.0,,,49.06,,NE,29.57,29.18,,Mostly Cloudy
KIGQ,04/14/2017 00:35 UTC,30.23,57.02,48.74,71.85,5.75,40.0,,,,,,1003.0,,,,10.0,,KIGQ 140035Z AUTO 04005KT 10SM BKN100 14/09 A3023 RMK AO2  T01390093,,,10000.0,,,47.95,,NE,29.57,29.23,,Mostly Cloudy
KIGQ,04/14/2017 00:55 UTC,30.24,55.94,48.38,76.68,4.61,50.0,,,,,,1003.0,,,,10.0,,KIGQ 140055Z AUTO 05004KT 10SM BKN100 13/09 A3024 RMK AO2  T01330091,,,10000.0,,,48.66,,NE,29.58,29.23,,Mostly Cloudy
KIGQ,04/14/2017 01:15 UTC,30.24,55.04,48.2,76.68,6.91,50.0,,,,,,952.0,1103.0,,,10.0,,KIGQ 140115Z AUTO 05006KT 10SM SCT095 BKN110 13/09 A3024 RMK AO2  T01280090,,,11000.0,,,47.78,,NE,29.58,29.27,,Mostly Cloudy
KIGQ,04/14/2017 01:35 UTC,30.25,54.68,47.84,76.68,5.75,60.0,,,,,,952.0,1102.0,,,10.0,,KIGQ 140135Z AUTO 06005KT 10SM SCT095 SCT110 13/09 A3025 RMK AO2  T01260088,,,,,,47.43,,ENE,29.59,29.29,,Partly Cloudy
KIGQ,04/14/2017 01:55 UTC,30.26,54.86,47.66,76.68,4.61,80.0,,,,,,1102.0,,,,10.0,,KIGQ 140155Z AUTO 08004KT 10SM SCT110 13/09 A3026 RMK AO2  T01270087,,,,,,47.61,,E,29.6,29.29,,Partly Cloudy
KIGQ,04/14/2017 02:15 UTC,30.26,55.04,46.58,71.66,9.22,80.0,,,,,,902.0,1102.0,,,10.0,,KIGQ 140215Z AUTO 08008KT 10SM SCT090 SCT110 13/08 A3026 RMK AO2  T01280081,,,,,,45.97,,E,29.6,29.34,,Partly Cloudy
KIGQ,04/14/2017 02:35 UTC,30.26,54.5,46.04,71.66,8.05,90.0,,,,,,1003.0,,,,10.0,,KIGQ 140235Z AUTO 09007KT 10SM BKN100 13/08 A3026 RMK AO2  T01250078,,,10000.0,,,45.45,,E,29.6,29.36,,Mostly Cloudy
KIGQ,04/14/2017 02:55 UTC,30.26,53.96,45.5,76.52,9.22,80.0,,,,,,1102.0,,,,10.0,,KIGQ 140255Z AUTO 08008KT 10SM SCT110 12/08 A3026 RMK AO2  T01220075,,,,,,46.68,,E,29.6,29.33,,Partly Cloudy
KIGQ,04/14/2017 03:15 UTC,30.26,53.6,45.32,71.47,5.75,80.0,,,,,,1102.0,,,,10.0,,KIGQ 140315Z AUTO 08005KT 10SM SCT110 12/07 A3026 RMK AO2  T01200074,,,,,,44.51,,E,29.6,29.4,,Partly Cloudy
KIGQ,04/14/2017 03:35 UTC,30.26,53.24,45.14,71.47,8.05,60.0,,,,,,702.0,1102.0,,,10.0,,KIGQ 140335Z AUTO 06007KT 10SM SCT070 SCT110 12/07 A3026 RMK AO2  LTG DSNT S T01180073,,,,,,44.16,,ENE,29.6,29.41,,Partly Cloudy
KIGQ,04/14/2017 03:55 UTC,30.26,51.26,45.5,81.75,4.61,50.0,,,,,,1.0,,,,10.0,,KIGQ 140355Z AUTO 05004KT 10SM CLR 11/08 A3026 RMK AO2  T01070075,,,,,,45.81,,NE,29.6,29.38,,Clear
KIGQ,04/14/2017 04:15 UTC,30.26,50.0,44.78,81.61,3.44,60.0,,,,,,1.0,,,,10.0,,KIGQ 140415Z AUTO 06003KT 10SM CLR 10/07 A3026 RMK AO2  T01000071,,,,,,44.54,,ENE,29.6,29.43,,Clear
KIGQ,04/14/2017 04:35 UTC,30.26,49.64,44.78,81.61,4.61,40.0,,,,,,1.0,,,,10.0,,KIGQ 140435Z AUTO 04004KT 10SM CLR 10/07 A3026 RMK AO2  T00980071,,,,,,44.19,,NE,29.6,29.44,,Clear
KIGQ,04/14/2017 04:55 UTC,30.26,50.18,44.6,81.61,6.91,90.0,,,,,,1.0,,,,10.0,,KIGQ 140455Z AUTO 09006KT 10SM CLR 10/07 A3026 RMK AO2  T01010070,,,,,,44.71,,E,29.6,29.42,,Clear
KIGQ,04/14/2017 05:15 UTC,30.26,50.54,43.7,81.61,5.75,90.0,,,,,,1.0,,,,10.0,,KIGQ 140515Z AUTO 09005KT 10SM CLR 10/07 A3026 RMK AO2  T01030065,,,,,,45.06,,E,29.6,29.41,,Clear
KIGQ,04/14/2017 05:35 UTC,30.25,50.18,43.16,76.18,8.05,90.0,,,,,,1.0,,,,10.0,,KIGQ 140535Z AUTO 09007KT 10SM CLR 10/06 A3025 RMK AO2  T01010062,,,,,,42.89,,E,29.59,29.46,,Clear
KIGQ,04/14/2017 05:55 UTC,30.24,49.82,42.8,76.18,6.91,80.0,,,,,,652.0,1102.0,,,10.0,,KIGQ 140555Z AUTO 08006KT 10SM SCT065 SCT110 10/06 A3024 RMK AO2  T00990060 10150 20095 401780071,59.0,49.1,,64.04,44.78,42.54,,E,29.58,29.47,,Partly Cloudy
KIGQ,04/14/2017 06:15 UTC,30.24,49.82,42.8,76.18,5.75,80.0,,,,,,902.0,1203.0,,,10.0,,KIGQ 140615Z AUTO 08005KT 10SM SCT090 BKN120 10/06 A3024 RMK AO2  T00990060,,,12000.0,,,42.54,,E,29.58,29.47,,Mostly Cloudy
KIGQ,04/14/2017 06:35 UTC,30.24,50.0,42.26,76.18,6.91,70.0,,,1204.0,,,802.0,903.0,,,10.0,,KIGQ 140635Z AUTO 07006KT 10SM SCT080 BKN090 OVC120 10/06  A3024 RMK AO2 LTG DSNT SE T01000057,,,9000.0,,,42.72,,ENE,29.58,29.46,,Overcast
KIGQ,04/14/2017 06:55 UTC,30.24,49.46,41.18,71.08,6.91,80.0,,,,,,802.0,1004.0,,,10.0,,KIGQ 140655Z AUTO 08006KT 10SM SCT080 OVC100 10/05 A3024 RMK AO2  T00970051,,,10000.0,,,40.38,,E,29.58,29.53,,Overcast
KIGQ,04/14/2017 07:15 UTC,30.23,49.1,41.0,71.08,6.91,100.0,,,,,,1104.0,,,,10.0,,KIGQ 140715Z AUTO 10006KT 10SM OVC110 10/05 A3023 RMK AO2  T00950050,,,11000.0,,,40.04,,E,29.57,29.53,,Overcast
KIGQ,04/14/2017 07:35 UTC,30.23,48.92,39.92,70.88,5.75,80.0,,,,,,602.0,1103.0,,,10.0,,KIGQ 140735Z AUTO 08005KT 10SM SCT060 BKN110 09/04 A3023 RMK AO2  T00940044,,,11000.0,,,39.79,,E,29.57,29.53,,Mostly Cloudy
KIGQ,04/14/2017 07:55 UTC,30.23,48.38,39.56,70.88,5.75,90.0,,,,,,602.0,1103.0,,,10.0,,KIGQ 140755Z AUTO 09005KT 10SM SCT060 BKN110 09/04 A3023 RMK AO2  T00910042,,,11000.0,,,39.27,,E,29.57,29.55,,Mostly Cloudy
KIGQ,04/14/2017 08:15 UTC,30.24,48.02,38.84,70.88,5.75,90.0,,,,,,602.0,1103.0,,,10.0,,KIGQ 140815Z AUTO 09005KT 10SM SCT060 BKN110 09/04 A3024 RMK AO2  T00890038,,,11000.0,,,38.92,,E,29.58,29.57,,Mostly Cloudy
KIGQ,04/14/2017 08:35 UTC,30.23,47.66,38.48,70.88,6.91,80.0,,,1102.0,,,602.0,702.0,,,10.0,,KIGQ 140835Z AUTO 08006KT 10SM SCT060 SCT070 SCT110 09/04  A3023 RMK AO2 LTG DSNT SE T00870036,,,,,,38.58,,E,29.57,29.57,,Partly Cloudy
KIGQ,04/14/2017 08:55 UTC,30.22,47.84,38.84,70.88,4.61,80.0,,,,,,603.0,1103.0,,,10.0,,KIGQ 140855Z AUTO 08004KT 10SM BKN060 BKN110 09/04 A3022 RMK AO2  T00880038,,,6000.0,,,38.75,,E,29.56,29.56,,Mostly Cloudy
KIGQ,04/14/2017 09:15 UTC,30.23,47.66,38.3,70.88,5.75,60.0,,,,,,603.0,1203.0,,,10.0,,KIGQ 140915Z AUTO 06005KT 10SM BKN060 BKN120 09/04 A3023 RMK AO2  T00870035,,,6000.0,,,38.58,,ENE,29.57,29.57,,Mostly Cloudy
KIGQ,04/14/2017 09:35 UTC,30.23,47.3,38.48,70.88,4.61,80.0,,,,,,602.0,1203.0,,,10.0,,KIGQ 140935Z AUTO 08004KT 10SM SCT060 BKN120 09/04 A3023 RMK AO2  T00850036,,,12000.0,,,38.23,,E,29.57,29.58,,Mostly Cloudy
KIGQ,04/14/2017 09:55 UTC,30.23,47.12,38.48,75.84,5.75,90.0,,,,,,602.0,1202.0,,,10.0,,KIGQ 140955Z AUTO 09005KT 10SM SCT060 SCT120 08/04 A3023 RMK AO2  T00840036,,,,,,39.81,,E,29.57,29.55,,Partly Cloudy
KIGQ,04/14/2017 10:15 UTC,30.23,46.58,38.3,75.84,4.61,70.0,,,,,,1.0,,,,10.0,,KIGQ 141015Z AUTO 07004KT 10SM CLR 08/04 A3023 RMK AO2  T00810035,,,,,,39.28,,ENE,29.57,29.56,,Clear
KIGQ,04/14/2017 10:35 UTC,30.23,46.22,38.3,75.84,4.61,80.0,,,,,,1.0,,,,10.0,,KIGQ 141035Z AUTO 08004KT 10SM CLR 08/04 A3023 RMK AO2  T00790035,,,,,,38.94,,E,29.57,29.57,,Clear
KIGQ,04/14/2017 10:55 UTC,30.24,46.04,38.3,75.84,4.61,70.0,,,,,,1.0,,,,10.0,,KIGQ 141055Z AUTO 07004KT 10SM CLR 08/04 A3024 RMK AO2  T00780035,,,,,,38.76,,ENE,29.58,29.59,,Clear
KIGQ,04/14/2017 11:15 UTC,30.25,46.04,38.48,75.84,4.61,80.0,,,,,,1.0,,,,10.0,,KIGQ 141115Z AUTO 08004KT 10SM CLR 08/04 A3025 RMK AO2  T00780036,,,,,,38.76,,E,29.59,29.6,,Clear
KIGQ,04/14/2017 11:35 UTC,30.25,46.04,38.66,75.84,3.44,90.0,,,,,,1.0,,,,10.0,,KIGQ 141135Z AUTO 09003KT 10SM CLR 08/04 A3025 RMK AO2  T00780037,,,,,,38.76,,E,29.59,29.6,,Clear
KIGQ,04/14/2017 11:55 UTC,30.26,46.4,39.2,75.84,4.61,80.0,,,,,,1.0,,,0.04,10.0,,KIGQ 141155Z AUTO 08004KT 10SM CLR 08/04 A3026 RMK AO2 70004  T00800040 10100 20076,50.0,45.68,,,,39.11,,E,29.6,29.6,,Clear
KIGQ,04/14/2017 12:15 UTC,30.25,46.76,39.56,75.84,5.75,90.0,,,,,,1.0,,,,10.0,,KIGQ 141215Z AUTO 09005KT 10SM CLR 08/04 A3025 RMK AO2  T00820042,,,,,,39.46,,E,29.59,29.58,,Clear
KIGQ,04/14/2017 12:35 UTC,30.26,47.84,39.92,70.88,6.91,100.0,,,,,,1.0,,,,10.0,,KIGQ 141235Z AUTO 10006KT 10SM CLR 09/04 A3026 RMK AO2  T00880044,,,,,,38.75,,E,29.6,29.6,,Clear
KIGQ,04/14/2017 12:55 UTC,30.25,48.2,40.82,76.02,6.91,100.0,,,,,,602.0,,,,10.0,,KIGQ 141255Z AUTO 10006KT 10SM SCT060 09/05 A3025 RMK AO2  T00900049,,,,,,40.92,,E,29.59,29.53,,Partly Cloudy
KIGQ,04/14/2017 13:15 UTC,30.25,50.0,41.9,76.18,6.91,90.0,,,,,,602.0,,,,10.0,,KIGQ 141315Z AUTO 09006KT 10SM SCT060 10/06 A3025 RMK AO2  T01000055,,,,,,42.72,,E,29.59,29.47,,Partly Cloudy
KIGQ,04/14/2017 13:35 UTC,30.25,51.62,43.34,71.27,8.05,100.0,,,,,,1.0,,,,10.0,,KIGQ 141335Z AUTO 10007KT 10SM CLR 11/06 A3025 RMK AO2  T01090063,,,,,,42.53,,E,29.59,29.46,,Clear
KIGQ,04/14/2017 13:55 UTC,30.25,52.16,44.24,76.35,6.91,100.0,,,,,,1.0,,,,10.0,,KIGQ 141355Z AUTO 10006KT 10SM CLR 11/07 A3025 RMK AO2  T01120068,,,,,,44.87,,E,29.59,29.39,,Clear
KIGQ,04/14/2017 14:15 UTC,30.24,53.24,44.42,71.47,5.75,90.0,,,,,,1.0,,,,10.0,,KIGQ 141415Z AUTO 09005KT 10SM CLR 12/07 A3024 RMK AO2  T01180069,,,,,,44.16,,E,29.58,29.39,,Clear
KIGQ,04/14/2017 14:35 UTC,30.24,55.04,46.22,71.66,9.22,120.0,,,,,,1.0,,,,10.0,,KIGQ 141435Z AUTO 12008KT 10SM CLR 13/08 A3024 RMK AO2  T01280079,,,,,,45.97,,ESE,29.58,29.32,,Clear
KIGQ,04/14/2017 14:55 UTC,30.24,57.2,47.84,71.85,4.61,100.0,,,,,,1.0,,,,10.0,,KIGQ 141455Z AUTO 10004KT 10SM CLR 14/09 A3024 RMK AO2  T01400088,,,,,,48.12,,E,29.58,29.23,,Clear
KIGQ,04/14/2017 15:15 UTC,30.24,58.64,48.74,67.36,6.91,140.0,,,,,,1.0,,,,10.0,,KIGQ 141515Z AUTO 14006KT 10SM CLR 15/09 A3024 RMK AO2  T01480093,,,,,,47.77,,SE,29.58,29.23,,Clear
KIGQ,04/14/2017 15:35 UTC,30.23,60.62,50.0,67.57,6.91,120.0,,,,,,1.0,,,,10.0,,KIGQ 141535Z AUTO 12006KT 10SM CLR 16/10 A3023 RMK AO2 LTG DSNT W  T01590100,,,,,,49.75,,ESE,29.57,29.13,,Clear
KIGQ,04/14/2017 15:55 UTC,30.22,61.34,50.18,67.57,6.91,110.0,,,,,,1.0,,,,10.0,,KIGQ 141555Z AUTO 11006KT 10SM CLR 16/10 A3022 RMK AO2  T01630101,,,,,,50.44,,ESE,29.56,29.09,,Clear
KIGQ,04/14/2017 16:15 UTC,30.22,61.88,50.72,63.42,8.05,130.0,,,,,,1.0,,,,10.0,,KIGQ 141615Z AUTO 13007KT 10SM CLR 17/10 A3022 RMK AO2  T01660104,,,,,,49.24,,SE,29.56,29.13,,Clear
KIGQ,04/14/2017 16:35 UTC,30.21,62.6,51.44,67.79,8.05,100.0,,,,,,1.0,,,,10.0,,KIGQ 141635Z AUTO 10007KT 10SM CLR 17/11 A3021 RMK AO2  T01700108,,,,,,51.73,,E,29.55,29.02,,Clear
KIGQ,04/14/2017 16:55 UTC,30.21,63.32,51.44,67.79,9.22,100.0,,,,,,1.0,,,,10.0,,KIGQ 141655Z AUTO 10008KT 10SM CLR 17/11 A3021 RMK AO2  T01740108,,,,,,52.42,,E,29.55,28.98,,Clear
KIGQ,04/14/2017 17:15 UTC,30.2,64.22,52.16,63.64,5.75,130.0,,,,,,1.0,,,,10.0,,KIGQ 141715Z AUTO 13005KT 10SM CLR 18/11 A3020 RMK AO2  T01790112,,,,,,51.55,,SE,29.54,29.0,,Clear
KIGQ,04/14/2017 17:35 UTC,30.19,66.2,53.42,63.87,10.36,120.0,,,,,,1.0,,,,10.0,,KIGQ 141735Z AUTO 12009KT 10SM CLR 19/12 A3019 RMK AO2 LTG DSNT W  T01900119,,,,,,53.54,,ESE,29.53,28.89,,Clear
KIGQ,04/14/2017 17:55 UTC,30.19,66.74,53.78,63.87,9.22,130.0,,,,,,1.0,,,,10.0,,KIGQ 141755Z AUTO 13008KT 10SM CLR 19/12 A3019 RMK AO2 T01930121  10194 20080,66.92,46.4,,,,54.05,,SE,29.53,28.86,,Clear
KIGQ,04/14/2017 18:15 UTC,30.17,68.72,54.86,64.1,8.05,120.0,,,,,,1.0,,,,10.0,,KIGQ 141815Z AUTO 12007KT 10SM CLR 20/13 A3017 RMK AO2  T02040127,,,,,,56.03,,ESE,29.51,28.73,,Clear
KIGQ,04/14/2017 18:35 UTC,30.17,69.98,56.12,60.27,6.91,110.0,,,,,,1.0,,,,10.0,,KIGQ 141835Z AUTO 11006KT 10SM CLR 21/13 A3017 RMK AO2  T02110134,,,,,,55.52,,ESE,29.51,28.74,,Clear
KIGQ,04/14/2017 18:55 UTC,30.16,70.7,56.48,60.51,6.91,120.0,,,,,,1.0,,,,10.0,,KIGQ 141855Z AUTO 12006KT 10SM CLR 22/14 A3016 RMK AO2  T02150136,,,,,,56.31,,ESE,29.5,28.69,,Clear
KIGQ,04/14/2017 19:15 UTC,30.16,73.4,57.56,56.95,8.05,140.0,,,,,,1.0,,,,10.0,,KIGQ 141915Z AUTO 14007KT 10SM CLR 23/14 A3016 RMK AO2  T02300142,,,,,,57.17,,SE,29.5,28.62,,Clear
KIGQ,04/14/2017 19:35 UTC,30.15,74.84,59.0,57.2,9.22,150.0,,,,,,1.0,,,,10.0,,KIGQ 141935Z AUTO 15008KT 10SM CLR 24/15 A3015 RMK AO2  T02380150,,,,,,58.64,,SSE,29.49,28.52,,Clear
KIGQ,04/14/2017 19:55 UTC,30.15,71.78,57.38,60.51,12.66,180.0,,,,,,1.0,,,,10.0,,KIGQ 141955Z AUTO 18011KT 10SM CLR 22/14 A3015 RMK AO2  T02210141,,,,,,57.33,,S,29.49,28.62,,Clear
KIGQ,04/14/2017 20:15 UTC,30.13,71.78,57.38,60.51,8.05,150.0,,,,,,1.0,,,,10.0,,KIGQ 142015Z AUTO 15007KT 10SM CLR 22/14 A3013 RMK AO2  T02210141,,,,,,57.33,,SSE,29.47,28.6,,Clear
KIGQ,04/14/2017 20:35 UTC,30.13,73.58,57.92,56.95,6.91,150.0,,,,,,1002.0,,,,10.0,,KIGQ 142035Z AUTO 15006KT 10SM SCT100 23/14 A3013 RMK AO2  T02310144,,,,,,57.34,,SSE,29.47,28.58,,Partly Cloudy
KIGQ,04/14/2017 20:55 UTC,30.11,74.3,58.82,57.2,5.75,140.0,,,,,,1003.0,,,,10.0,,KIGQ 142055Z AUTO 14005KT 10SM BKN100 24/15 A3011 RMK AO2  T02350149,,,10000.0,,,58.14,,SE,29.46,28.52,,Mostly Cloudy
KIGQ,04/14/2017 21:15 UTC,30.11,73.04,59.0,60.75,5.75,170.0,,,,,,1003.0,1203.0,,,10.0,,KIGQ 142115Z AUTO 17005KT 10SM BKN100 BKN120 23/15 A3011 RMK AO2  LTG DSNT S T02280150,,,10000.0,,,58.63,,S,29.46,28.51,,Mostly Cloudy
KIGQ,04/14/2017 21:35 UTC,30.1,72.32,58.28,64.54,5.75,140.0,,,,,,1002.0,1103.0,,,10.0,,KIGQ 142135Z AUTO 14005KT 10SM SCT100 BKN110 22/15 A3010 RMK AO2  LTG DSNT S AND NW T02240146,,,11000.0,,,59.65,,SE,29.45,28.45,,Mostly Cloudy
KIGQ,04/14/2017 21:55 UTC,30.1,71.78,58.64,64.54,10.36,140.0,,,,,,1104.0,,,,10.0,,KIGQ 142155Z AUTO 14009KT 10SM OVC110 22/15 A3010 RMK AO2 LTG DSNT  S T02210148,,,11000.0,,,59.13,,SE,29.45,28.48,,Overcast
KIGQ,04/14/2017 22:15 UTC,30.1,72.32,58.82,64.54,10.36,130.0,,,,,,1203.0,,,,10.0,,KIGQ 142215Z AUTO 13009KT 10SM BKN120 22/15 A3010 RMK AO2 LTG DSNT  S THRU W T02240149,,,12000.0,,,59.65,,SE,29.45,28.45,,Mostly Cloudy
KIGQ,04/14/2017 22:35 UTC,30.09,71.78,58.46,64.54,10.36,140.0,,,,,,1202.0,,,,10.0,,KIGQ 142235Z AUTO 14009KT 10SM SCT120 22/15 A3009 RMK AO2 LTG DSNT  SW T02210147,,,,,,59.13,,SE,29.44,28.47,,Partly Cloudy
KIGQ,04/14/2017 22:55 UTC,30.09,71.78,58.46,64.54,12.66,130.0,16.11,,,,,1.0,,,,10.0,,KIGQ 142255Z AUTO 13011G14KT 10SM CLR 22/15 A3009 RMK AO2 LTG DSNT  S T02210147,,,,,,59.13,,SE,29.44,28.47,,Clear
KIGQ,04/14/2017 23:15 UTC,30.1,71.6,57.92,60.51,10.36,140.0,17.27,,,,,802.0,1002.0,,,10.0,,KIGQ 142315Z AUTO 14009G15KT 10SM SCT080 SCT100 22/14 A3010 RMK AO2 LTG DSNT SE AND SW T02200144,,,,,,57.16,,SE,29.45,28.59,,Partly Cloudy
KIGQ,04/14/2017 23:35 UTC,30.12,68.72,60.62,77.79,10.36,260.0,25.32,14.0,804.0,0.17,,122.0,603.0,,,2.0,,KIGQ 142335Z AUTO 26009G22KT 230V290 2SM +RA SCT012 BKN060 OVC080  20/16 A3012 RMK AO2 LTG DSNT SE THRU NW P0017 T02040159,,,6000.0,,,61.47,,W,29.47,28.41,,Heavy Rain
KIGQ,04/14/2017 23:55 UTC,30.1,65.66,61.52,82.77,5.75,140.0,,13.0,954.0,0.24,,182.0,602.0,0.24,,10.0,,KIGQ 142355Z AUTO 14005KT 10SM -RA SCT018 SCT060 OVC095 19/16  A3010 RMK AO2 LTG DSNT E P0024 60024 T01870164 10241  20185,75.38,65.3,9500.0,,,60.24,,SE,29.45,28.49,,Light Rain
KIGQ,04/15/2017 00:15 UTC,30.1,66.2,59.9,82.77,10.36,170.0,,,,,,953.0,1204.0,,,10.0,,KIGQ 150015Z AUTO 17009KT 10SM BKN095 OVC120 19/16 A3010 RMK AO2  LTG DSNT SW T01900155,,,9500.0,,,60.77,,S,29.45,28.46,,Overcast
KIGQ,04/15/2017 00:35 UTC,30.1,64.22,57.56,77.48,9.22,160.0,,5.0,1103.0,,,702.0,803.0,,,10.0,,KIGQ 150035Z AUTO 16008KT 10SM VCTS SCT070 BKN080 BKN110 18/14  A3010 RMK AO2 LTG DSNT SE T01790142,,,8000.0,,,56.98,,SSE,29.45,28.67,,Thunder
KIGQ,04/15/2017 00:55 UTC,30.1,63.5,57.38,77.48,6.91,150.0,,,1203.0,,,702.0,903.0,,,10.0,,KIGQ 150055Z AUTO 15006KT 10SM SCT070 BKN090 BKN120 18/14  A3010 RMK AO2 LTG DSNT SE AND S T01750141,,,9000.0,,,56.28,,SSE,29.45,28.71,,Mostly Cloudy
KIGQ,04/15/2017 01:15 UTC,30.16,63.5,59.54,82.65,16.11,250.0,32.21,14.0,753.0,0.03,,382.0,553.0,,,7.0,,KIGQ 150115Z AUTO 25014G28KT 7SM +RA SCT038 BKN055 BKN075 18/15  A3016 RMK AO2 LTG DSNT SE AND S P0003 T01750153,,,5500.0,,,58.09,,WSW,29.5,28.68,,Heavy Rain
KIGQ,04/15/2017 01:35 UTC,30.16,61.16,60.44,100.0,4.61,230.0,,1.0,904.0,0.06,,432.0,753.0,,,7.0,,KIGQ 150135Z AUTO 23004KT 7SM RA SCT043 BKN075 OVC090 16/16  A3016 RMK AO2 P0006 T01620158,,,7500.0,,,61.16,,SW,29.5,28.55,,Rain
KIGQ,04/15/2017 01:55 UTC,30.15,60.26,60.08,100.0,4.61,140.0,,13.0,,0.07,,802.0,1004.0,,,7.0,,KIGQ 150155Z AUTO 14004KT 7SM -RA SCT080 OVC100 16/16 A3015 RMK AO2 P0007 T01570156,,,10000.0,,,60.26,,SE,29.49,28.6,,Light Rain
KIGQ,04/15/2017 02:15 UTC,30.15,60.08,60.08,100.0,4.61,140.0,,13.0,1104.0,,,702.0,903.0,,,10.0,,KIGQ 150215Z AUTO 14004KT 10SM -RA SCT070 BKN090 OVC110 16/16  A3015 RMK AO2 T01560156,,,9000.0,,,60.08,,SE,29.49,28.61,,Light Rain
KIGQ,04/15/2017 02:35 UTC,30.14,60.26,60.26,100.0,6.91,130.0,,13.0,,,,702.0,904.0,,,10.0,,KIGQ 150235Z AUTO 13006KT 10SM -RA SCT070 OVC090 16/16 A3014 RMK AO2 T01570157,,,9000.0,,,60.26,,SE,29.48,28.59,,Light Rain
KIGQ,04/15/2017 02:55 UTC,30.12,60.26,60.26,100.0,6.91,130.0,,13.0,,,0.07,904.0,,,,10.0,,KIGQ 150255Z AUTO 13006KT 10SM -RA OVC090 16/16 A3012 RMK AO2  60007 T01570157,,,9000.0,,,60.26,,SE,29.47,28.58,,Light Rain
KIGQ,04/15/2017 03:15 UTC,30.11,60.44,59.9,100.0,6.91,140.0,,,,,,1004.0,,,,10.0,,KIGQ 150315Z AUTO 14006KT 10SM OVC100 16/16 A3011 RMK AO2  T01580155,,,10000.0,,,60.44,,SE,29.46,28.56,,Overcast
KIGQ,04/15/2017 03:35 UTC,30.11,60.8,59.54,93.8,11.5,150.0,,13.0,,,,1104.0,,,,10.0,,KIGQ 150335Z AUTO 15010KT 10SM -RA OVC110 16/15 A3011 RMK AO2  T01600153,,,11000.0,,,58.99,,SSE,29.46,28.63,,Light Rain
KIGQ,04/15/2017 03:55 UTC,30.11,60.8,59.54,93.8,11.5,160.0,,1.0,1104.0,,,752.0,852.0,,,10.0,,KIGQ 150355Z AUTO 16010KT 10SM RA SCT075 SCT085 OVC110 16/15  A3011 RMK AO2 T01600153,,,11000.0,,,58.99,,SSE,29.46,28.63,,Rain
KIGQ,04/15/2017 04:15 UTC,30.08,60.08,59.54,93.8,12.66,140.0,,13.0,,0.01,,1004.0,,,,10.0,,KIGQ 150415Z AUTO 14011KT 10SM -RA OVC100 16/15 A3008 RMK AO2  P0001 T01560153,,,10000.0,,,58.27,,SE,29.43,28.64,,Light Rain
KIGQ,04/15/2017 04:35 UTC,30.08,60.98,59.36,93.8,13.8,140.0,18.41,,,0.01,,1104.0,,,,10.0,,KIGQ 150435Z AUTO 14012G16KT 10SM OVC110 16/15 A3008 RMK AO2 P0001  T01610152,,,11000.0,,,59.17,,SE,29.43,28.59,,Overcast
KIGQ,04/15/2017 04:55 UTC,30.06,61.16,59.18,93.8,14.97,130.0,,13.0,1104.0,0.01,,752.0,853.0,,,10.0,,KIGQ 150455Z AUTO 13013KT 10SM -RA SCT075 BKN085 OVC110 16/15  A3006 RMK AO2 LTG DSNT SW P0001 T01620151,,,8500.0,,,59.34,,SE,29.41,28.55,,Light Rain
KIGQ,04/15/2017 05:15 UTC,30.07,60.8,59.18,93.8,11.5,150.0,,13.0,1003.0,,,752.0,852.0,,,10.0,,KIGQ 150515Z AUTO 15010KT 10SM -RA SCT075 SCT085 BKN100 16/15  A3007 RMK AO2 T01600151,,,10000.0,,,58.99,,SSE,29.42,28.59,,Light Rain
KIGQ,04/15/2017 05:35 UTC,30.05,60.44,59.36,93.8,12.66,130.0,,,1102.0,,,752.0,852.0,,,10.0,,KIGQ 150535Z AUTO 13011KT 10SM SCT075 SCT085 SCT110 16/15  A3005 RMK AO2 T01580152,,,,,,58.63,,SE,29.4,28.59,,Partly Cloudy
KIGQ,04/15/2017 05:55 UTC,30.04,60.44,59.18,93.8,9.22,130.0,16.11,,1103.0,,,652.0,752.0,0.08,,10.0,,KIGQ 150555Z AUTO 13008G14KT 10SM SCT065 SCT075 BKN110 16/15  A3004 RMK AO2 60008 T01580151 10191 20156 402410076,66.38,60.08,11000.0,75.38,45.68,58.63,,SE,29.39,28.58,,Mostly Cloudy
KIGQ,04/15/2017 06:15 UTC,30.04,60.98,59.0,93.8,11.5,130.0,18.41,,,,,1103.0,,,,10.0,,KIGQ 150615Z AUTO 13010G16KT 10SM BKN110 16/15 A3004 RMK AO2  T01610150,,,11000.0,,,59.17,,SE,29.39,28.54,,Mostly Cloudy
KIGQ,04/15/2017 06:35 UTC,30.03,59.9,59.0,93.8,10.36,130.0,,,,,,1103.0,,,,10.0,,KIGQ 150635Z AUTO 13009KT 10SM BKN110 16/15 A3003 RMK AO2  T01550150,,,11000.0,,,58.09,,SE,29.38,28.6,,Mostly Cloudy
KIGQ,04/15/2017 06:55 UTC,30.03,59.9,58.82,93.8,10.36,140.0,,,,,,1002.0,,,,10.0,,KIGQ 150655Z AUTO 14009KT 10SM SCT100 16/15 A3003 RMK AO2  T01550149,,,,,,58.09,,SE,29.38,28.6,,Partly Cloudy
KIGQ,04/15/2017 07:15 UTC,30.03,59.9,58.46,93.8,9.22,160.0,,,,,,1.0,,,,10.0,,KIGQ 150715Z AUTO 16008KT 10SM CLR 16/15 A3003 RMK AO2  T01550147,,,,,,58.09,,SSE,29.38,28.6,,Clear
KIGQ,04/15/2017 07:35 UTC,30.03,59.9,58.46,93.8,8.05,160.0,,,,,,852.0,,,,10.0,,KIGQ 150735Z AUTO 16007KT 10SM SCT085 16/15 A3003 RMK AO2  T01550147,,,,,,58.09,,SSE,29.38,28.6,,Partly Cloudy
KIGQ,04/15/2017 07:55 UTC,30.02,59.54,58.28,100.0,10.36,150.0,,,,,,1.0,,,,10.0,,KIGQ 150755Z AUTO 15009KT 10SM CLR 15/15 A3002 RMK AO2  T01530146,,,,,,59.54,,SSE,29.37,28.52,,Clear
KIGQ,04/15/2017 08:15 UTC,30.02,59.9,58.28,93.8,10.36,160.0,,,,,,1202.0,,,,10.0,,KIGQ 150815Z AUTO 16009KT 10SM SCT120 16/15 A3002 RMK AO2  T01550146,,,,,,58.09,,SSE,29.37,28.59,,Partly Cloudy
KIGQ,04/15/2017 08:35 UTC,30.02,59.9,58.1,93.8,8.05,170.0,,,,,,1202.0,,,,10.0,,KIGQ 150835Z AUTO 17007KT 10SM SCT120 16/15 A3002 RMK AO2  T01550145,,,,,,58.09,,S,29.37,28.59,,Partly Cloudy
KIGQ,04/15/2017 08:55 UTC,30.02,59.9,58.1,93.8,9.22,170.0,,,,,,1202.0,,,,10.0,,KIGQ 150855Z AUTO 17008KT 10SM SCT120 16/15 A3002 RMK AO2  T01550145,,,,,,58.09,,S,29.37,28.59,,Partly Cloudy
KIGQ,04/15/2017 09:15 UTC,30.01,59.9,58.1,93.8,12.66,170.0,,,,,,1202.0,,,,10.0,,KIGQ 150915Z AUTO 17011KT 10SM SCT120 16/15 A3001 RMK AO2  T01550145,,,,,,58.09,,S,29.36,28.58,,Partly Cloudy
KIGQ,04/15/2017 09:35 UTC,30.01,60.08,58.1,93.8,11.5,180.0,,,,,,1203.0,,,,10.0,,KIGQ 150935Z AUTO 18010KT 10SM BKN120 16/15 A3001 RMK AO2  T01560145,,,12000.0,,,58.27,,S,29.36,28.57,,Mostly Cloudy
KIGQ,04/15/2017 09:55 UTC,30.01,60.08,58.1,93.8,12.66,180.0,,,,,,1.0,,,,10.0,,KIGQ 150955Z AUTO 18011KT 10SM CLR 16/15 A3001 RMK AO2  T01560145,,,,,,58.27,,S,29.36,28.57,,Clear
KIGQ,04/15/2017 10:15 UTC,30.01,59.54,57.74,93.75,11.5,180.0,,,,,,1.0,,,,10.0,,KIGQ 151015Z AUTO 18010KT 10SM CLR 15/14 A3001 RMK AO2  T01530143,,,,,,57.72,,S,29.36,28.6,,Clear
KIGQ,04/15/2017 10:35 UTC,30.01,60.26,57.92,87.94,9.22,190.0,,,,,,1.0,,,,10.0,,KIGQ 151035Z AUTO 19008KT 10SM CLR 16/14 A3001 RMK AO2  T01570144,,,,,,56.64,,S,29.36,28.64,,Clear
KIGQ,04/15/2017 10:55 UTC,30.01,60.44,57.74,87.94,10.36,200.0,,,,,,1.0,,,,10.0,,KIGQ 151055Z AUTO 20009KT 10SM CLR 16/14 A3001 RMK AO2  T01580143,,,,,,56.82,,SSW,29.36,28.63,,Clear
KIGQ,04/15/2017 11:15 UTC,30.01,60.62,57.56,87.94,10.36,200.0,,,,,,1.0,,,,10.0,,KIGQ 151115Z AUTO 20009KT 10SM CLR 16/14 A3001 RMK AO2  T01590142,,,,,,57.0,,SSW,29.36,28.62,,Clear
KIGQ,04/15/2017 11:35 UTC,30.02,61.7,57.92,82.52,11.5,210.0,,,,,,1.0,,,,10.0,,KIGQ 151135Z AUTO 21010KT 10SM CLR 17/14 A3002 RMK AO2  T01650144,,,,,,56.28,,SSW,29.37,28.65,,Clear
KIGQ,04/15/2017 11:55 UTC,30.02,62.06,58.1,88.02,11.5,210.0,,,,,,1.0,,,0.32,10.0,,KIGQ 151155Z AUTO 21010KT 10SM CLR 17/15 A3002 RMK AO2 70032  T01670145 10167 20152,62.06,59.36,,,,58.44,,SSW,29.37,28.55,,Clear
KIGQ,04/15/2017 12:15 UTC,30.02,62.96,58.28,88.02,12.66,210.0,,,,,,1.0,,,,10.0,,KIGQ 151215Z AUTO 21011KT 10SM CLR 17/15 A3002 RMK AO2  T01720146,,,,,,59.33,,SSW,29.37,28.49,,Clear
KIGQ,04/15/2017 12:35 UTC,30.02,63.86,58.64,82.65,12.66,220.0,17.27,,,,,1.0,,,,10.0,,KIGQ 151235Z AUTO 22011G15KT 10SM CLR 18/15 A3002 RMK AO2  T01770148,,,,,,58.44,,SW,29.37,28.52,,Clear
KIGQ,04/15/2017 12:55 UTC,30.02,65.12,59.0,82.65,13.8,220.0,19.57,,,,,1.0,,,,10.0,,KIGQ 151255Z AUTO 22012G17KT 10SM CLR 18/15 A3002 RMK AO2  T01840150,,,,,,59.67,,SW,29.37,28.45,,Clear
KIGQ,04/15/2017 13:15 UTC,30.03,66.2,59.9,82.77,11.5,220.0,,,,,,1.0,,,,10.0,,KIGQ 151315Z AUTO 22010KT 10SM CLR 19/16 A3003 RMK AO2  T01900155,,,,,,60.77,,SW,29.38,28.39,,Clear
KIGQ,04/15/2017 13:35 UTC,30.02,66.74,60.08,82.77,13.8,220.0,17.27,,,,,1.0,,,,10.0,,KIGQ 151335Z AUTO 22012G15KT 10SM CLR 19/16 A3002 RMK AO2  T01930156,,,,,,61.3,,SW,29.37,28.34,,Clear
KIGQ,04/15/2017 13:55 UTC,30.02,68.18,60.8,77.79,14.97,220.0,,,,,,1.0,,,,10.0,,KIGQ 151355Z AUTO 22013KT 10SM CLR 20/16 A3002 RMK AO2  T02010160,,,,,,60.94,,SW,29.37,28.34,,Clear
KIGQ,04/15/2017 14:15 UTC,30.02,69.8,60.62,73.15,17.27,220.0,24.16,,,,,1.0,,,,10.0,,KIGQ 151415Z AUTO 22015G21KT 10SM CLR 21/16 A3002 RMK AO2  T02100159,,,,,,60.77,,SW,29.37,28.33,,Clear
KIGQ,04/15/2017 14:35 UTC,30.01,71.42,60.98,68.81,13.8,230.0,23.02,,,,,1.0,,,,10.0,,KIGQ 151435Z AUTO 23012G20KT 10SM CLR 22/16 A3001 RMK AO2  T02190161,,,,,,60.6,,SW,29.36,28.31,,Clear
KIGQ,04/15/2017 14:55 UTC,30.01,72.68,60.8,64.76,17.27,230.0,24.16,,,,,1.0,,,,10.0,,KIGQ 151455Z AUTO 23015G21KT 10SM CLR 23/16 A3001 RMK AO2  T02260160,,,,,,60.09,,SW,29.36,28.33,,Clear
KIGQ,04/15/2017 15:15 UTC,30.02,72.86,61.16,64.76,18.41,230.0,25.32,,,,,1.0,,,,10.0,,KIGQ 151515Z AUTO 23016G22KT 10SM CLR 23/16 A3002 RMK AO2  T02270162,,,,,,60.26,,SW,29.37,28.33,,Clear
KIGQ,04/15/2017 15:35 UTC,30.02,72.86,60.44,64.76,21.85,230.0,26.46,,,,,1.0,,,,10.0,,KIGQ 151535Z AUTO 23019G23KT 10SM CLR 23/16 A3002 RMK AO2  T02270158,,,,,,60.26,,SW,29.37,28.33,,Clear
KIGQ,04/15/2017 15:55 UTC,30.01,74.84,61.34,60.98,18.41,230.0,27.63,,,,,1.0,,,,10.0,,KIGQ 151555Z AUTO 23016G24KT 10SM CLR 24/16 A3001 RMK AO2  T02380163,,,,,,60.44,,SW,29.36,28.29,,Clear
KIGQ,04/15/2017 16:15 UTC,30.01,75.56,62.06,64.98,14.97,230.0,24.16,,,,,1.0,,,,10.0,,KIGQ 151615Z AUTO 23013G21KT 10SM CLR 24/17 A3001 RMK AO2  T02420167,,,,,,62.93,,SW,29.36,28.13,,Clear
KIGQ,04/15/2017 16:35 UTC,30.0,74.66,60.62,60.98,17.27,230.0,28.77,,,,,1.0,,,,10.0,,KIGQ 151635Z AUTO 23015G25KT 10SM CLR 24/16 A3000 RMK AO2  T02370159,,,,,,60.27,,SW,29.35,28.29,,Clear
KIGQ,04/15/2017 16:55 UTC,29.99,75.2,61.16,60.98,19.57,220.0,31.07,,,,,1.0,,,,10.0,,KIGQ 151655Z AUTO 22017G27KT 10SM CLR 24/16 A2999 RMK AO2  T02400162,,,,,,60.78,,SW,29.34,28.24,,Clear
KIGQ,04/15/2017 17:15 UTC,29.98,76.28,62.06,61.21,20.71,210.0,28.77,,,,,1.0,,,,10.0,,KIGQ 151715Z AUTO 21018G25KT 10SM CLR 25/17 A2998 RMK AO2  T02460167,,,,,,61.91,,SSW,29.33,28.16,,Clear
KIGQ,04/15/2017 17:35 UTC,29.98,77.0,60.98,57.45,25.32,220.0,33.38,,,,,1.0,,,,10.0,,KIGQ 151735Z AUTO 22022G29KT 10SM CLR 25/16 A2998 RMK AO2  T02500161,,,,,,60.79,,SW,29.33,28.21,,Clear
KIGQ,04/15/2017 17:55 UTC,29.97,77.36,59.0,53.88,23.02,220.0,40.29,,,,,1.0,,,,10.0,,KIGQ 151755Z AUTO 22020G35KT 10SM CLR 25/15 A2997 RMK AO2  T02520150 10252 20167,77.36,62.06,,,,59.33,,SW,29.32,28.28,,Clear
KIGQ,04/15/2017 18:15 UTC,29.97,78.26,58.64,50.78,27.63,230.0,33.38,,,,,602.0,,,,10.0,,KIGQ 151815Z AUTO 23024G29KT 10SM SCT060 26/15 A2997 RMK AO2  T02570148,,,,,,58.5,,SW,29.32,28.32,,Partly Cloudy
KIGQ,04/15/2017 18:35 UTC,29.96,78.62,59.9,54.14,20.71,220.0,32.21,,,,,552.0,,,,10.0,,KIGQ 151835Z AUTO 22018G28KT 10SM SCT055 26/16 A2996 RMK AO2  T02590155,,,,,,60.64,,SW,29.31,28.19,,Partly Cloudy
KIGQ,04/15/2017 18:55 UTC,29.95,78.98,56.66,47.61,21.85,220.0,34.52,,,,,1.0,,,,10.0,,KIGQ 151855Z AUTO 22019G30KT 10SM CLR 26/14 A2995 RMK AO2  T02610137,,,,,,57.37,,SW,29.3,28.35,,Clear
KIGQ,04/15/2017 19:15 UTC,29.94,79.34,56.12,44.61,25.32,210.0,37.98,,,,,1.0,,,,10.0,,KIGQ 151915Z AUTO 21022G33KT 10SM CLR 26/13 A2994 RMK AO2  T02630134,,,,,,55.9,,SSW,29.29,28.41,,Clear
KIGQ,04/15/2017 19:35 UTC,29.94,79.16,55.22,44.61,26.46,210.0,40.29,,,,,1.0,,,,10.0,,KIGQ 151935Z AUTO 21023G35KT 10SM CLR 26/13 A2994 RMK AO2  T02620129,,,,,,55.74,,SSW,29.29,28.42,,Clear
KIGQ,04/15/2017 19:55 UTC,29.93,79.34,56.84,47.61,26.46,220.0,35.68,,,,,702.0,,,,10.0,,KIGQ 151955Z AUTO 22023G31KT 10SM SCT070 26/14 A2993 RMK AO2  T02630138,,,,,,57.71,,SW,29.28,28.31,,Partly Cloudy
KIGQ,04/15/2017 20:15 UTC,29.93,79.52,55.94,44.61,26.46,220.0,35.68,,,,,702.0,,,,10.0,,KIGQ 152015Z AUTO 22023G31KT 10SM SCT070 26/13 A2993 RMK AO2  T02640133,,,,,,56.07,,SW,29.28,28.39,,Partly Cloudy
KIGQ,04/15/2017 20:35 UTC,29.92,79.16,56.48,47.61,21.85,220.0,37.98,,,,,702.0,,,,10.0,,KIGQ 152035Z AUTO 22019G33KT 10SM SCT070 26/14 A2992 RMK AO2  T02620136,,,,,,57.54,,SW,29.27,28.31,,Partly Cloudy
KIGQ,04/15/2017 20:55 UTC,29.91,79.16,55.94,44.61,25.32,220.0,37.98,,,,,702.0,,,,10.0,,KIGQ 152055Z AUTO 22022G33KT 10SM SCT070 26/13 A2991 RMK AO2  T02620133,,,,,,55.74,,SW,29.26,28.39,,Partly Cloudy
KIGQ,04/15/2017 21:15 UTC,29.91,78.44,55.94,44.61,25.32,230.0,33.38,,,,,702.0,,,,10.0,,KIGQ 152115Z AUTO 23022G29KT 10SM SCT070 26/13 A2991 RMK AO2  T02580133,,,,,,55.08,,SW,29.26,28.43,,Partly Cloudy
KIGQ,04/15/2017 21:35 UTC,29.91,78.26,55.4,44.61,26.46,230.0,32.21,,,,,702.0,,,,10.0,,KIGQ 152135Z AUTO 23023G28KT 10SM SCT070 26/13 A2991 RMK AO2  T02570130,,,,,,54.91,,SW,29.26,28.44,,Partly Cloudy
KIGQ,04/15/2017 21:55 UTC,29.91,78.8,55.58,44.61,23.02,230.0,36.82,,,,,1.0,,,,10.0,,KIGQ 152155Z AUTO 23020G32KT 10SM CLR 26/13 A2991 RMK AO2  T02600131,,,,,,55.41,,SW,29.26,28.41,,Clear
KIGQ,04/15/2017 22:15 UTC,29.9,78.44,55.58,44.61,19.57,220.0,34.52,,,,,1.0,,,,10.0,,KIGQ 152215Z AUTO 22017G30KT 10SM CLR 26/13 A2990 RMK AO2  T02580131,,,,,,55.08,,SW,29.25,28.42,,Clear
KIGQ,04/15/2017 22:35 UTC,29.91,77.72,55.76,47.33,18.41,220.0,31.07,,,,,1.0,,,,10.0,,KIGQ 152235Z AUTO 22016G27KT 10SM CLR 25/13 A2991 RMK AO2  T02540132,,,,,,56.05,,SW,29.26,28.39,,Clear
KIGQ,04/15/2017 22:55 UTC,29.91,77.54,56.3,50.52,20.71,220.0,35.68,,,,,1.0,,,,10.0,,KIGQ 152255Z AUTO 22018G31KT 10SM CLR 25/14 A2991 RMK AO2  T02530135,,,,,,57.69,,SW,29.26,28.31,,Clear
KIGQ,04/15/2017 23:15 UTC,29.9,76.82,56.66,50.52,17.27,220.0,27.63,,,,,1.0,,,,10.0,,KIGQ 152315Z AUTO 22015G24KT 10SM CLR 25/14 A2990 RMK AO2  T02490137,,,,,,57.03,,SW,29.25,28.34,,Clear
KIGQ,04/15/2017 23:35 UTC,29.9,76.46,56.3,50.52,17.27,220.0,27.63,,,,,1.0,,,,10.0,,KIGQ 152335Z AUTO 22015G24KT 10SM CLR 25/14 A2990 RMK AO2  T02470135,,,,,,56.69,,SW,29.25,28.36,,Clear
KIGQ,04/15/2017 23:55 UTC,29.9,75.56,56.66,53.62,16.11,220.0,20.71,,,,,853.0,,,,10.0,,KIGQ 152355Z AUTO 22014G18KT 10SM BKN085 24/14 A2990 RMK AO2  T02420137 10265 20240,79.7,75.2,8500.0,,,57.51,,SW,29.25,28.33,,Mostly Cloudy
KIGQ,04/16/2017 00:15 UTC,29.9,74.48,56.3,53.62,13.8,210.0,20.71,,,,,854.0,,,,10.0,,KIGQ 160015Z AUTO 21012G18KT 10SM OVC085 24/14 A2990 RMK AO2  T02360135,,,8500.0,,,56.5,,SSW,29.25,28.39,,Overcast
KIGQ,04/16/2017 00:35 UTC,29.9,73.4,57.74,56.95,12.66,210.0,18.41,,,,,854.0,,,,10.0,,KIGQ 160035Z AUTO 21011G16KT 10SM OVC085 23/14 A2990 RMK AO2 LTG  DSNT W T02300143,,,8500.0,,,57.17,,SSW,29.25,28.36,,Overcast
KIGQ,04/16/2017 00:55 UTC,29.91,72.86,58.1,60.75,11.5,210.0,,,,,,854.0,,,,10.0,,KIGQ 160055Z AUTO 21010KT 10SM OVC085 23/15 A2991 RMK AO2  T02270145,,,8500.0,,,58.46,,SSW,29.26,28.31,,Overcast
KIGQ,04/16/2017 01:15 UTC,29.91,72.5,58.1,60.75,11.5,200.0,,,,,,854.0,,,,10.0,,KIGQ 160115Z AUTO 20010KT 10SM OVC085 23/15 A2991 RMK AO2 LTG DSNT  W T02250145,,,8500.0,,,58.12,,SSW,29.26,28.33,,Overcast
KIGQ,04/16/2017 01:35 UTC,29.91,72.32,57.74,60.51,14.97,210.0,18.41,,,,,854.0,,,,10.0,,KIGQ 160135Z AUTO 21013G16KT 10SM OVC085 22/14 A2991 RMK AO2 LTG  DSNT W AND NW T02240143,,,8500.0,,,57.84,,SSW,29.26,28.35,,Overcast
KIGQ,04/16/2017 01:55 UTC,29.91,72.14,56.66,60.51,14.97,200.0,24.16,,,,,954.0,,,,10.0,,KIGQ 160155Z AUTO 20013G21KT 10SM OVC095 22/14 A2991 RMK AO2  T02230137,,,9500.0,,,57.67,,SSW,29.26,28.36,,Overcast
KIGQ,04/16/2017 02:15 UTC,29.91,70.88,55.94,56.7,14.97,200.0,20.71,5.0,,,,952.0,,,,10.0,,KIGQ 160215Z AUTO 20013G18KT 10SM VCTS SCT095 22/13 A2991 RMK AO2  LTG DSNT W T02160133,,,,,,54.68,,SSW,29.26,28.52,,Thunder
KIGQ,04/16/2017 02:35 UTC,29.89,70.7,55.58,56.7,16.11,200.0,24.16,,,,,1.0,,,,10.0,,KIGQ 160235Z AUTO 20014G21KT 10SM CLR 22/13 A2989 RMK AO2  T02150131,,,,,,54.51,,SSW,29.24,28.51,,Clear
KIGQ,04/16/2017 02:55 UTC,29.88,70.34,54.86,60.27,17.27,200.0,,,,,,1.0,,,,10.0,,KIGQ 160255Z AUTO 20015KT 10SM CLR 21/13 A2988 RMK AO2 LTG DSNT W  T02130127,,,,,,55.86,,SSW,29.23,28.44,,Clear
KIGQ,04/16/2017 03:15 UTC,29.88,69.08,55.04,60.27,14.97,200.0,,,,,,1.0,,,,10.0,,KIGQ 160315Z AUTO 20013KT 10SM CLR 21/13 A2988 RMK AO2  T02060128,,,,,,54.67,,SSW,29.23,28.51,,Clear
KIGQ,04/16/2017 03:35 UTC,29.88,68.9,54.86,60.27,14.97,210.0,19.57,,,,,1.0,,,,10.0,,KIGQ 160335Z AUTO 21013G17KT 10SM CLR 21/13 A2988 RMK AO2 LTG DSNT  W T02050127,,,,,,54.5,,SSW,29.23,28.51,,Clear
KIGQ,04/16/2017 03:55 UTC,29.88,68.54,54.86,64.1,14.97,210.0,,,,,,1.0,,,,10.0,,KIGQ 160355Z AUTO 21013KT 10SM CLR 20/13 A2988 RMK AO2  T02030127,,,,,,55.86,,SSW,29.23,28.46,,Clear
KIGQ,04/16/2017 04:15 UTC,29.88,68.9,54.68,60.27,17.27,210.0,23.02,,,,,1103.0,,,,10.0,,KIGQ 160415Z AUTO 21015G20KT 10SM BKN110 21/13 A2988 RMK AO2 LTG  DSNT N T02050126,,,11000.0,,,54.5,,SSW,29.23,28.51,,Mostly Cloudy
KIGQ,04/16/2017 04:35 UTC,29.88,68.9,54.5,60.27,18.41,210.0,23.02,,,,,1102.0,,,,10.0,,KIGQ 160435Z AUTO 21016G20KT 10SM SCT110 21/13 A2988 RMK AO2 LTG  DSNT N AND NW T02050125,,,,,,54.5,,SSW,29.23,28.51,,Partly Cloudy
KIGQ,04/16/2017 04:55 UTC,29.86,68.18,54.68,64.1,16.11,200.0,24.16,,,,,1102.0,,,,10.0,,KIGQ 160455Z AUTO 20014G21KT 10SM SCT110 20/13 A2986 RMK AO2 LTG  DSNT NW T02010126,,,,,,55.52,,SSW,29.21,28.45,,Partly Cloudy
KIGQ,04/16/2017 05:15 UTC,29.85,68.36,54.68,64.1,18.41,200.0,26.46,,,,,1.0,,,,10.0,,KIGQ 160515Z AUTO 20016G23KT 10SM CLR 20/13 A2985 RMK AO2 LTG DSNT  NW T02020126,,,,,,55.69,,SSW,29.2,28.43,,Clear
KIGQ,04/16/2017 05:35 UTC,29.84,68.36,54.86,64.1,21.85,210.0,28.77,,,,,1.0,,,,10.0,,KIGQ 160535Z AUTO 21019G25KT 10SM CLR 20/13 A2984 RMK AO2  T02020127,,,,,,55.69,,SSW,29.19,28.42,,Clear
KIGQ,04/16/2017 05:55 UTC,29.83,68.36,54.86,64.1,20.71,210.0,28.77,,,,,1.0,,,,10.0,,KIGQ 160555Z AUTO 21018G25KT 10SM CLR 20/13 A2983 RMK AO2 LTG DSNT  W THRU N T02020127 10241 20201 402650152,75.38,68.18,,79.7,59.36,55.69,,SSW,29.18,28.41,,Clear
KIGQ,04/16/2017 06:15 UTC,29.82,68.18,54.86,64.1,24.16,210.0,29.93,,,,,1.0,,,,10.0,,KIGQ 160615Z AUTO 21021G26KT 10SM CLR 20/13 A2982 RMK AO2 LTG DSNT  N AND NW T02010127,,,,,,55.52,,SSW,29.17,28.41,,Clear
KIGQ,04/16/2017 06:35 UTC,29.82,68.54,54.68,64.1,24.16,210.0,32.21,,,,,1.0,,,,10.0,,KIGQ 160635Z AUTO 21021G28KT 10SM CLR 20/13 A2982 RMK AO2 LTG DSNT  W AND NW T02030126,,,,,,55.86,,SSW,29.17,28.39,,Clear
KIGQ,04/16/2017 06:55 UTC,29.86,68.9,54.5,60.27,14.97,290.0,28.77,,,,,753.0,,,,10.0,,KIGQ 160655Z AUTO 29013G25KT 10SM BKN075 21/13 A2986 RMK AO2 LTG  DSNT W THRU NE T02050125,,,7500.0,,,54.5,,WNW,29.21,28.49,,Mostly Cloudy
KIGQ,04/16/2017 07:15 UTC,29.86,67.28,55.94,64.1,14.97,270.0,21.85,13.0,,,,492.0,654.0,,,7.0,,KIGQ 160715Z AUTO 27013G19KT 7SM -RA SCT049 OVC065 20/13 A2986 RMK AO2 LTG DSNT N AND NE T01960133,,,6500.0,,,54.66,,W,29.21,28.5,,Light Rain
KIGQ,04/16/2017 07:35 UTC,29.9,63.32,57.92,82.52,16.11,280.0,27.63,13.0,654.0,,,432.0,493.0,,,10.0,,KIGQ 160735Z AUTO 28014G24KT 10SM -RA SCT043 BKN049 OVC065 17/14  A2990 RMK AO2 LTG DSNT SW THRU N T01740144,,,4900.0,,,57.87,,W,29.25,28.44,,Light Rain
KIGQ,04/16/2017 07:55 UTC,29.89,61.7,58.28,88.02,10.36,270.0,,13.0,704.0,,,432.0,603.0,,,10.0,,KIGQ 160755Z AUTO 27009KT 10SM -RA SCT043 BKN060 OVC070 17/15  A2989 RMK AO2 LTG DSNT SE T01650146,,,6000.0,,,58.09,,W,29.24,28.44,,Light Rain
KIGQ,04/16/2017 08:15 UTC,29.88,60.44,59.0,93.8,4.61,250.0,,13.0,854.0,,,552.0,702.0,,,10.0,,KIGQ 160815Z AUTO 25004KT 10SM -RA SCT055 SCT070 OVC085 16/15  A2988 RMK AO2 T01580150,,,8500.0,,,58.63,,WSW,29.23,28.41,,Light Rain
KIGQ,04/16/2017 08:35 UTC,29.88,60.08,58.64,93.8,9.22,260.0,,,,,,854.0,,,,10.0,,KIGQ 160835Z AUTO 26008KT 10SM -VCTSRA OVC085 16/15 A2988 RMK AO2  LTG DSNT SE AND S T01560148,,,8500.0,,,58.27,,W,29.23,28.44,,Overcast
KIGQ,04/16/2017 08:55 UTC,29.88,59.72,58.64,100.0,8.05,250.0,,13.0,,,,953.0,1204.0,,,10.0,,KIGQ 160855Z AUTO 25007KT 10SM -RA BKN095 OVC120 15/15 A2988 RMK AO2 T01540148,,,9500.0,,,59.72,,WSW,29.23,28.37,,Light Rain
KIGQ,04/16/2017 09:15 UTC,29.88,59.36,58.64,100.0,8.05,230.0,,13.0,,,,1004.0,,,,10.0,,KIGQ 160915Z AUTO 23007KT 10SM -RA OVC100 15/15 A2988 RMK AO2 LTG  DSNT S T01520148,,,10000.0,,,59.36,,SW,29.23,28.39,,Light Rain
KIGQ,04/16/2017 09:35 UTC,29.89,59.0,58.82,100.0,9.22,230.0,,13.0,1104.0,,,102.0,903.0,,,10.0,,KIGQ 160935Z AUTO 23008KT 10SM -RA SCT010 BKN090 OVC110 15/15  A2989 RMK AO2 LTG DSNT NW T01500149,,,9000.0,,,59.0,,SW,29.24,28.42,,Light Rain
KIGQ,04/16/2017 09:55 UTC,29.89,58.82,58.64,100.0,9.22,230.0,,1.0,,,,1004.0,,,,10.0,,KIGQ 160955Z AUTO 23008KT 10SM RA OVC100 15/15 A2989 RMK AO2  T01490148,,,10000.0,,,58.82,,SW,29.24,28.44,,Rain
KIGQ,04/16/2017 10:15 UTC,29.89,58.46,58.46,100.0,10.36,220.0,,1.0,,,,1004.0,,,,10.0,,KIGQ 161015Z AUTO 22009KT 10SM RA OVC100 15/15 A2989 RMK AO2  T01470147,,,10000.0,,,58.46,,SW,29.24,28.46,,Rain
KIGQ,04/16/2017 10:35 UTC,29.9,58.28,58.28,100.0,12.66,220.0,,13.0,,,,1004.0,,,,10.0,,KIGQ 161035Z AUTO 22011KT 10SM -RA OVC100 15/15 A2990 RMK AO2  T01460146,,,10000.0,,,58.28,,SW,29.25,28.48,,Light Rain
KIGQ,04/16/2017 10:55 UTC,29.84,58.46,58.1,100.0,10.36,170.0,,13.0,,,,1004.0,,,,10.0,,KIGQ 161055Z AUTO 17009KT 10SM -RA OVC100 15/15 A2984 RMK AO2  T01470145,,,10000.0,,,58.46,,S,29.19,28.41,,Light Rain
KIGQ,04/16/2017 11:15 UTC,29.88,58.46,58.1,100.0,5.75,240.0,,,,,,1102.0,,,,10.0,,KIGQ 161115Z AUTO 24005KT 10SM SCT110 15/15 A2988 RMK AO2  T01470145,,,,,,58.46,,WSW,29.23,28.45,,Partly Cloudy
KIGQ,04/16/2017 11:35 UTC,29.86,58.1,58.1,100.0,9.22,210.0,,,,,,1.0,,,,10.0,,KIGQ 161135Z AUTO 21008KT 10SM CLR 15/15 A2986 RMK AO2  T01450145,,,,,,58.1,,SSW,29.21,28.45,,Clear
KIGQ,04/16/2017 11:55 UTC,29.88,58.46,58.1,100.0,11.5,230.0,,,,,,1.0,,0.01,0.01,10.0,,KIGQ 161155Z AUTO 23010KT 10SM CLR 15/15 A2988 RMK AO2 60001 70001  T01470145 10206 20145,69.08,58.1,,,,58.46,,SW,29.23,28.45,,Clear
KIGQ,04/16/2017 12:15 UTC,29.89,59.18,58.82,100.0,9.22,220.0,,,,,,1.0,,,,10.0,,KIGQ 161215Z AUTO 22008KT 10SM CLR 15/15 A2989 RMK AO2  T01510149,,,,,,59.18,,SW,29.24,28.41,,Clear
KIGQ,04/16/2017 12:35 UTC,29.89,60.44,59.18,93.8,11.5,220.0,,,,,,1.0,,,,10.0,,KIGQ 161235Z AUTO 22010KT 10SM CLR 16/15 A2989 RMK AO2  T01580151,,,,,,58.63,,SW,29.24,28.42,,Clear
KIGQ,04/16/2017 12:55 UTC,29.9,60.44,59.0,93.8,11.5,230.0,,,,,,1.0,,,,10.0,,KIGQ 161255Z AUTO 23010KT 10SM CLR 16/15 A2990 RMK AO2  T01580150,,,,,,58.63,,SW,29.25,28.43,,Clear
KIGQ,04/16/2017 13:15 UTC,29.91,61.52,59.18,93.8,12.66,240.0,,,,,,1.0,,,,10.0,,KIGQ 161315Z AUTO 24011KT 10SM CLR 16/15 A2991 RMK AO2  T01640151,,,,,,59.7,,WSW,29.26,28.38,,Clear
KIGQ,04/16/2017 13:35 UTC,29.92,62.24,59.36,88.02,13.8,250.0,19.57,,,,,312.0,,,,10.0,,KIGQ 161335Z AUTO 25012G17KT 10SM SCT031 17/15 A2992 RMK AO2  T01680152,,,,,,58.62,,WSW,29.27,28.43,,Partly Cloudy
KIGQ,04/16/2017 13:55 UTC,29.93,62.24,59.36,88.02,14.97,260.0,18.41,,,,,313.0,,,,10.0,,KIGQ 161355Z AUTO 26013G16KT 10SM BKN031 17/15 A2993 RMK AO2  T01680152,,,3100.0,,,58.62,,W,29.28,28.44,,Mostly Cloudy
KIGQ,04/16/2017 14:15 UTC,29.93,62.6,59.18,88.02,13.8,260.0,23.02,,,,,314.0,,,,10.0,,KIGQ 161415Z AUTO 26012G20KT 10SM OVC031 17/15 A2993 RMK AO2  T01700151,,,3100.0,,,58.97,,W,29.28,28.42,,Overcast
KIGQ,04/16/2017 14:35 UTC,29.94,63.5,59.54,82.65,16.11,260.0,23.02,,,,,314.0,,,,10.0,,KIGQ 161435Z AUTO 26014G20KT 10SM OVC031 18/15 A2994 RMK AO2  T01750153,,,3100.0,,,58.09,,W,29.29,28.46,,Overcast
KIGQ,04/16/2017 14:55 UTC,29.95,63.68,60.08,88.11,13.8,250.0,20.71,,,,,183.0,314.0,,,10.0,,KIGQ 161455Z AUTO 25012G18KT 10SM BKN018 OVC031 18/16 A2995 RMK AO2 T01760156,,,1800.0,,,60.07,,WSW,29.3,28.37,,Overcast
KIGQ,04/16/2017 15:15 UTC,29.96,63.68,59.9,88.11,14.97,260.0,23.02,,,,,164.0,,,,10.0,,KIGQ 161515Z AUTO 26013G20KT 10SM OVC016 18/16 A2996 RMK AO2  T01760155,,,1600.0,,,60.07,,W,29.31,28.38,,Overcast
KIGQ,04/16/2017 15:35 UTC,29.96,62.96,59.9,93.84,14.97,270.0,,,,,,144.0,,,,10.0,,KIGQ 161535Z AUTO 27013KT 10SM OVC014 17/16 A2996 RMK AO2  T01720155,,,1400.0,,,61.14,,W,29.31,28.34,,Overcast
KIGQ,04/16/2017 15:55 UTC,29.97,63.14,60.08,93.84,12.66,260.0,19.57,,,,,144.0,,,,10.0,,KIGQ 161555Z AUTO 26011G17KT 10SM OVC014 17/16 A2997 RMK AO2  T01730156,,,1400.0,,,61.32,,W,29.32,28.33,,Overcast
KIGQ,04/16/2017 16:15 UTC,29.97,63.14,60.26,93.84,11.5,250.0,,,,,,144.0,,,,10.0,,KIGQ 161615Z AUTO 25010KT 10SM OVC014 17/16 A2997 RMK AO2  T01730157,,,1400.0,,,61.32,,WSW,29.32,28.33,,Overcast
KIGQ,04/16/2017 16:35 UTC,29.97,63.14,60.62,93.84,10.36,260.0,16.11,,,,,144.0,,,,10.0,,KIGQ 161635Z AUTO 26009G14KT 10SM OVC014 17/16 A2997 RMK AO2  T01730159,,,1400.0,,,61.32,,W,29.32,28.33,,Overcast
KIGQ,04/16/2017 16:55 UTC,29.97,62.96,60.44,93.84,16.11,250.0,,,,,,124.0,,,,10.0,,KIGQ 161655Z AUTO 25014KT 10SM OVC012 17/16 A2997 RMK AO2  T01720158,,,1200.0,,,61.14,,WSW,29.32,28.35,,Overcast
KIGQ,04/16/2017 17:15 UTC,29.97,63.68,61.16,88.11,11.5,250.0,,,,,,124.0,,,,10.0,,KIGQ 161715Z AUTO 25010KT 10SM OVC012 18/16 A2997 RMK AO2  T01760162,,,1200.0,,,60.07,,WSW,29.32,28.39,,Overcast
KIGQ,04/16/2017 17:35 UTC,29.97,65.66,61.88,88.2,10.36,250.0,,,324.0,,,143.0,243.0,,,10.0,,KIGQ 161735Z AUTO 25009KT 10SM BKN014 BKN024 OVC032 19/17  A2997 RMK AO2 T01870166,,,1400.0,,,62.05,,WSW,29.32,28.26,,Overcast
KIGQ,04/16/2017 17:55 UTC,29.97,67.28,61.88,82.89,9.22,250.0,,,334.0,,,162.0,223.0,,,10.0,,KIGQ 161755Z AUTO 25008KT 10SM SCT016 BKN022 OVC033 20/17  A2997 RMK AO2 T01960166 10201 20147,68.18,58.46,2200.0,,,61.87,,WSW,29.32,28.25,,Overcast
KIGQ,04/16/2017 18:15 UTC,29.97,67.46,61.34,77.79,11.5,260.0,,,,,,203.0,274.0,,,10.0,,KIGQ 161815Z AUTO 26010KT 10SM BKN020 OVC027 20/16 A2997 RMK AO2  T01970163,,,2000.0,,,60.24,,W,29.32,28.34,,Overcast
KIGQ,04/16/2017 18:35 UTC,29.97,69.62,62.24,77.94,10.36,270.0,,,,,,233.0,304.0,,,10.0,,KIGQ 161835Z AUTO 27009KT 10SM BKN023 OVC030 21/17 A2997 RMK AO2  T02090168,,,2300.0,,,62.4,,W,29.32,28.19,,Overcast
KIGQ,04/16/2017 18:55 UTC,29.97,70.7,60.98,68.81,14.97,270.0,,,373.0,,,252.0,313.0,,,10.0,,KIGQ 161855Z AUTO 27013KT 10SM SCT025 BKN031 BKN037 22/16  A2997 RMK AO2 T02150161,,,3100.0,,,59.91,,W,29.32,28.32,,Mostly Cloudy
KIGQ,04/16/2017 19:15 UTC,29.97,70.7,58.64,64.54,12.66,280.0,,,,,,362.0,443.0,,,10.0,,KIGQ 161915Z AUTO 28011KT 10SM SCT036 BKN044 22/15 A2997 RMK AO2  T02150148,,,4400.0,,,58.11,,W,29.32,28.41,,Mostly Cloudy
KIGQ,04/16/2017 19:35 UTC,29.97,71.78,58.46,64.54,14.97,250.0,,,503.0,,,382.0,443.0,,,10.0,,KIGQ 161935Z AUTO 25013KT 10SM SCT038 BKN044 BKN050 22/15  A2997 RMK AO2 T02210147,,,4400.0,,,59.13,,WSW,29.32,28.35,,Mostly Cloudy
KIGQ,04/16/2017 19:55 UTC,29.97,72.32,57.56,60.51,14.97,280.0,20.71,,492.0,,,392.0,462.0,,,10.0,,KIGQ 161955Z AUTO 28013G18KT 10SM SCT039 SCT046 SCT049 22/14  A2997 RMK AO2 T02240142,,,,,,57.84,,W,29.32,28.41,,Partly Cloudy
KIGQ,04/16/2017 20:15 UTC,29.97,72.14,55.4,56.7,16.11,260.0,21.85,,,,,463.0,503.0,,,10.0,,KIGQ 162015Z AUTO 26014G19KT 10SM BKN046 BKN050 22/13 A2997 RMK AO2 T02230130,,,4600.0,,,55.86,,W,29.32,28.51,,Mostly Cloudy
KIGQ,04/16/2017 20:35 UTC,29.97,72.14,51.98,49.7,17.27,270.0,25.32,,,,,502.0,,,,10.0,,KIGQ 162035Z AUTO 27015G22KT 10SM SCT050 22/11 A2997 RMK AO2  T02230111,,,,,,52.25,,W,29.32,28.68,,Partly Cloudy
KIGQ,04/16/2017 20:55 UTC,29.98,72.5,49.28,43.76,13.8,300.0,24.16,,,,,1.0,,,,10.0,,KIGQ 162055Z AUTO 30012G21KT 10SM CLR 23/10 A2998 RMK AO2  T02250096,,,,,,49.14,,WNW,29.33,28.81,,Clear
KIGQ,04/16/2017 21:15 UTC,29.98,72.5,49.64,43.76,13.8,280.0,17.27,,,,,1.0,,,,10.0,,KIGQ 162115Z AUTO 28012G15KT 10SM CLR 23/10 A2998 RMK AO2  T02250098,,,,,,49.14,,W,29.33,28.81,,Clear
KIGQ,04/16/2017 21:35 UTC,29.98,71.96,46.94,40.63,9.22,280.0,18.41,,,,,1.0,,,,10.0,,KIGQ 162135Z AUTO 28008G16KT 10SM CLR 22/08 A2998 RMK AO2  T02220083,,,,,,46.66,,W,29.33,28.91,,Clear
KIGQ,04/16/2017 21:55 UTC,29.99,71.78,45.5,40.63,13.8,290.0,18.41,,,,,1.0,,,,10.0,,KIGQ 162155Z AUTO 29012G16KT 10SM CLR 22/08 A2999 RMK AO2 LTG DSNT  S T02210075,,,,,,46.5,,WNW,29.34,28.93,,Clear
KIGQ,04/16/2017 22:15 UTC,29.99,71.24,44.6,37.95,11.5,300.0,16.11,,,,,1.0,,,,10.0,,KIGQ 162215Z AUTO 30010G14KT 10SM CLR 22/07 A2999 RMK AO2  T02180070,,,,,,44.22,,WNW,29.34,29.01,,Clear
KIGQ,04/16/2017 22:35 UTC,29.99,70.7,44.78,37.95,8.05,320.0,17.27,,,,,1.0,,,,10.0,,KIGQ 162235Z AUTO 32007G15KT 10SM CLR 22/07 A2999 RMK AO2  T02150071,,,,,,43.73,,NW,29.34,29.03,,Clear
KIGQ,04/16/2017 22:55 UTC,30.0,69.8,43.52,37.66,10.36,290.0,17.27,,,,,1.0,,,,10.0,,KIGQ 162255Z AUTO 29009G15KT 10SM CLR 21/06 A3000 RMK AO2  T02100064,,,,,,42.72,,WNW,29.35,29.08,,Clear
KIGQ,04/16/2017 23:15 UTC,30.0,68.9,44.06,40.34,10.36,290.0,,,,,,1.0,,,,10.0,,KIGQ 162315Z AUTO 29009KT 10SM CLR 21/07 A3000 RMK AO2  T02050067,,,,,,43.71,,WNW,29.35,29.05,,Clear
KIGQ,04/16/2017 23:35 UTC,30.0,68.54,43.7,42.9,8.05,290.0,16.11,,,,,1.0,,,,10.0,,KIGQ 162335Z AUTO 29007G14KT 10SM CLR 20/07 A3000 RMK AO2  T02030065,,,,,,45.0,,WNW,29.35,29.01,,Clear
KIGQ,04/16/2017 23:55 UTC,30.01,68.0,42.98,40.05,8.05,300.0,,,,,,1.0,,,,10.0,,KIGQ 162355Z AUTO 30007KT 10SM CLR 20/06 A3001 RMK AO2 T02000061  10229 20195,73.22,67.1,,,,42.71,,WNW,29.36,29.1,,Clear
KIGQ,04/17/2017 00:15 UTC,30.01,66.92,41.36,39.75,6.91,300.0,,,,,,1.0,,,,10.0,,KIGQ 170015Z AUTO 30006KT 10SM CLR 19/05 A3001 RMK AO2  T01940052,,,,,,41.54,,WNW,29.36,29.14,,Clear
KIGQ,04/17/2017 00:35 UTC,30.02,65.66,40.82,39.75,4.61,290.0,,,,,,1.0,,,,10.0,,KIGQ 170035Z AUTO 29004KT 10SM CLR 19/05 A3002 RMK AO2  T01870049,,,,,,40.4,,WNW,29.37,29.19,,Clear
KIGQ,04/17/2017 00:55 UTC,30.03,65.3,40.1,39.75,4.61,290.0,,,,,,1.0,,,,10.0,,KIGQ 170055Z AUTO 29004KT 10SM CLR 19/05 A3003 RMK AO2  T01850045,,,,,,40.08,,WNW,29.38,29.21,,Clear
KIGQ,04/17/2017 01:15 UTC,30.04,63.68,39.92,39.46,6.91,280.0,,,,,,1.0,,,,10.0,,KIGQ 170115Z AUTO 28006KT 10SM CLR 18/04 A3004 RMK AO2  T01760044,,,,,,38.43,,W,29.39,29.28,,Clear
KIGQ,04/17/2017 01:35 UTC,30.05,63.5,40.28,42.32,5.75,290.0,,,,,,1.0,,,,10.0,,KIGQ 170135Z AUTO 29005KT 10SM CLR 18/05 A3005 RMK AO2  T01750046,,,,,,40.07,,WNW,29.4,29.25,,Clear
KIGQ,04/17/2017 01:55 UTC,30.06,62.96,40.1,42.98,4.61,290.0,,,,,,1.0,,,,10.0,,KIGQ 170155Z AUTO 29004KT 10SM CLR 17/05 A3006 RMK AO2  T01720045,,,,,,39.97,,WNW,29.41,29.26,,Clear
KIGQ,04/17/2017 02:15 UTC,30.07,61.88,39.56,42.03,4.61,290.0,,,,,,1.0,,,,10.0,,KIGQ 170215Z AUTO 29004KT 10SM CLR 17/04 A3007 RMK AO2  T01660042,,,,,,38.42,,WNW,29.42,29.32,,Clear
KIGQ,04/17/2017 02:35 UTC,30.08,61.34,40.1,48.03,3.44,40.0,,,,,,1.0,,,,10.0,,KIGQ 170235Z AUTO 04003KT 10SM CLR 16/05 A3008 RMK AO2  T01630045,,,,,,41.37,,NE,29.43,29.26,,Clear
KIGQ,04/17/2017 02:55 UTC,30.08,58.64,41.0,51.21,4.61,50.0,,,,,,1.0,,,,10.0,,KIGQ 170255Z AUTO 05004KT 10SM CLR 15/05 A3008 RMK AO2  T01480050,,,,,,40.54,,NE,29.43,29.3,,Clear
KIGQ,04/17/2017 03:15 UTC,30.09,59.0,40.82,51.21,3.44,60.0,,,,,,1.0,,,,10.0,,KIGQ 170315Z AUTO 06003KT 10SM CLR 15/05 A3009 RMK AO2  T01500049,,,,,,40.87,,ENE,29.44,29.3,,Clear
KIGQ,04/17/2017 03:35 UTC,30.1,56.66,41.0,54.62,0.0,0.0,,,,,,1.0,,,,10.0,,KIGQ 170335Z AUTO 00000KT 10SM CLR 14/05 A3010 RMK AO2  T01370050,,,,,,40.37,,N,29.45,29.34,,Clear
KIGQ,04/17/2017 03:55 UTC,30.11,57.2,39.2,50.93,0.0,0.0,,,,,,1.0,,,,10.0,,KIGQ 170355Z AUTO 00000KT 10SM CLR 14/04 A3011 RMK AO2  T01400040,,,,,,39.06,,N,29.46,29.38,,Clear
KIGQ,04/17/2017 04:15 UTC,30.11,54.86,41.0,58.29,0.0,0.0,,,,,,1.0,,,,10.0,,KIGQ 170415Z AUTO 00000KT 10SM CLR 13/05 A3011 RMK AO2  T01270050,,,,,,40.36,,N,29.46,29.36,,Clear
KIGQ,04/17/2017 04:35 UTC,30.11,54.68,38.66,54.35,3.44,60.0,,,,,,1.0,,,,10.0,,KIGQ 170435Z AUTO 06003KT 10SM CLR 13/04 A3011 RMK AO2  T01260037,,,,,,38.39,,ENE,29.46,29.41,,Clear
KIGQ,04/17/2017 04:55 UTC,30.12,53.6,39.74,58.03,0.0,0.0,,,,,,1.0,,,,10.0,,KIGQ 170455Z AUTO 00000KT 10SM CLR 12/04 A3012 RMK AO2  T01200043,,,,,,39.06,,N,29.47,29.41,,Clear
KIGQ,04/17/2017 05:15 UTC,30.12,50.72,42.62,76.18,0.0,0.0,,,,,,1.0,,,,10.0,,KIGQ 170515Z AUTO 00000KT 10SM CLR 10/06 A3012 RMK AO2  T01040059,,,,,,43.42,,N,29.47,29.32,,Clear
KIGQ,04/17/2017 05:35 UTC,30.12,50.72,41.18,71.08,0.0,0.0,,,,,,1.0,,,,10.0,,KIGQ 170535Z AUTO 00000KT 10SM CLR 10/05 A3012 RMK AO2  T01040051,,,,,,41.59,,N,29.47,29.37,,Clear
KIGQ,04/17/2017 05:55 UTC,30.12,51.26,40.82,66.49,0.0,0.0,,,,,,1.0,,,,10.0,,KIGQ 170555Z AUTO 00000KT 10SM CLR 11/05 A3012 RMK AO2 T01070049  10198 20096 402290096,67.64,49.28,,73.22,49.28,40.37,,N,29.47,29.4,,Clear
KIGQ,04/17/2017 06:15 UTC,30.12,50.9,41.18,66.49,0.0,0.0,,,,,,1.0,,,,10.0,,KIGQ 170615Z AUTO 00000KT 10SM CLR 11/05 A3012 RMK AO2  T01050051,,,,,,40.03,,N,29.47,29.41,,Clear
KIGQ,04/17/2017 06:35 UTC,30.12,50.36,40.28,71.08,0.0,0.0,,,,,,1.0,,,,10.0,,KIGQ 170635Z AUTO 00000KT 10SM CLR 10/05 A3012 RMK AO2  T01020046,,,,,,41.25,,N,29.47,29.38,,Clear
KIGQ,04/17/2017 06:55 UTC,30.12,47.12,42.08,87.19,0.0,0.0,,,,,,1.0,,,,10.0,,KIGQ 170655Z AUTO 00000KT 10SM CLR 08/06 A3012 RMK AO2  T00840056,,,,,,43.46,,N,29.47,29.35,,Clear
KIGQ,04/17/2017 07:15 UTC,30.12,44.6,42.44,93.35,0.0,0.0,,,,,,1.0,,,,10.0,,KIGQ 170715Z AUTO 00000KT 10SM CLR 07/06 A3012 RMK AO2  T00700058,,,,,,42.78,,N,29.47,29.39,,Clear
KIGQ,04/17/2017 07:35 UTC,30.12,46.4,41.72,81.34,0.0,0.0,,,,,,1.0,,,,10.0,,KIGQ 170735Z AUTO 00000KT 10SM CLR 08/05 A3012 RMK AO2  T00800054,,,,,,40.93,,N,29.47,29.42,,Clear
KIGQ,04/17/2017 07:55 UTC,30.13,46.4,41.72,81.34,0.0,0.0,,,,,,1.0,,,,10.0,,KIGQ 170755Z AUTO 00000KT 10SM CLR 08/05 A3013 RMK AO2  T00800054,,,,,,40.93,,N,29.47,29.42,,Clear
KIGQ,04/17/2017 08:15 UTC,30.13,46.76,42.8,87.19,0.0,0.0,,,,,,1.0,,,,10.0,,KIGQ 170815Z AUTO 00000KT 10SM CLR 08/06 A3013 RMK AO2  T00820060,,,,,,43.11,,N,29.47,29.37,,Clear
KIGQ,04/17/2017 08:35 UTC,30.14,47.48,44.06,87.28,0.0,0.0,,,,,,1.0,,,,10.0,,KIGQ 170835Z AUTO 00000KT 10SM CLR 09/07 A3014 RMK AO2  T00860067,,,,,,43.85,,N,29.48,29.35,,Clear
KIGQ,04/17/2017 08:55 UTC,30.14,47.84,44.06,87.28,0.0,0.0,,,,,,1.0,,,,10.0,,KIGQ 170855Z AUTO 00000KT 10SM CLR 09/07 A3014 RMK AO2  T00880067,,,,,,44.2,,N,29.48,29.34,,Clear
KIGQ,04/17/2017 09:15 UTC,30.14,47.48,41.9,81.48,0.0,0.0,,,,,,1.0,,,,10.0,,KIGQ 170915Z AUTO 00000KT 10SM CLR 09/06 A3014 RMK AO2  T00860055,,,,,,42.03,,N,29.48,29.4,,Clear
KIGQ,04/17/2017 09:35 UTC,30.14,47.3,42.98,81.48,0.0,0.0,,,,,,1.0,,,,10.0,,KIGQ 170935Z AUTO 00000KT 10SM CLR 09/06 A3014 RMK AO2  T00850061,,,,,,41.86,,N,29.48,29.4,,Clear
KIGQ,04/17/2017 09:55 UTC,30.15,46.94,41.9,87.19,0.0,0.0,,,,,,1.0,,,,10.0,,KIGQ 170955Z AUTO 00000KT 10SM CLR 08/06 A3015 RMK AO2  T00830055,,,,,,43.29,,N,29.49,29.38,,Clear
KIGQ,04/17/2017 10:15 UTC,30.14,44.24,42.44,93.35,0.0,0.0,,,,,,1.0,,,,10.0,,KIGQ 171015Z AUTO 00000KT 10SM CLR 07/06 A3014 RMK AO2  T00680058,,,,,,42.42,,N,29.48,29.42,,Clear
KIGQ,04/17/2017 10:35 UTC,30.14,42.62,41.0,93.3,3.44,180.0,,,,,,1.0,,,,10.0,,KIGQ 171035Z AUTO 18003KT 10SM CLR 06/05 A3014 RMK AO2  T00590050,,,,,,40.8,,S,29.48,29.47,,Clear
KIGQ,04/17/2017 10:55 UTC,30.15,45.14,43.16,93.35,0.0,0.0,,,,,,1.0,,,,10.0,,KIGQ 171055Z AUTO 00000KT 10SM CLR 07/06 A3015 RMK AO2  T00730062,,,,,,43.31,,N,29.49,29.4,,Clear
KIGQ,04/17/2017 11:15 UTC,30.16,44.06,43.16,93.35,0.0,0.0,,,,,,1.0,,,,10.0,,KIGQ 171115Z AUTO 00000KT 10SM CLR 07/06 A3016 RMK AO2  T00670062,,,,,,42.24,,N,29.5,29.44,,Clear
KIGQ,04/17/2017 11:35 UTC,30.16,44.24,42.26,93.35,0.0,0.0,,,,,,1.0,,,,10.0,,KIGQ 171135Z AUTO 00000KT 10SM CLR 07/06 A3016 RMK AO2  T00680057,,,,,,42.42,,N,29.5,29.44,,Clear
KIGQ,04/17/2017 11:55 UTC,30.17,45.14,42.8,93.35,0.0,0.0,,,,,,1.0,,,,10.0,,KIGQ 171155Z AUTO 00000KT 10SM CLR 07/06 A3017 RMK AO2 T00730060  10109 20056,51.62,42.08,,,,43.31,,N,29.51,29.42,,Clear
KIGQ,04/17/2017 12:15 UTC,30.17,45.5,43.34,87.19,0.0,0.0,,,,,,1.0,,,,10.0,,KIGQ 171215Z AUTO 00000KT 10SM CLR 08/06 A3017 RMK AO2  T00750063,,,,,,41.87,,N,29.51,29.45,,Clear
KIGQ,04/17/2017 12:35 UTC,30.17,48.74,43.88,87.28,3.44,180.0,,,,,,1.0,,,,10.0,,KIGQ 171235Z AUTO 18003KT 10SM CLR 09/07 A3017 RMK AO2  T00930066,,,,,,45.09,,S,29.51,29.34,,Clear
KIGQ,04/17/2017 12:55 UTC,30.18,51.8,45.86,81.75,0.0,0.0,,,,,,1.0,,,,10.0,,KIGQ 171255Z AUTO 00000KT 10SM CLR 11/08 A3018 RMK AO2  T01100077,,,,,,46.34,,N,29.52,29.28,,Clear
KIGQ,04/17/2017 13:15 UTC,30.18,54.14,44.42,71.47,4.61,210.0,,,,,,1.0,,,,10.0,,KIGQ 171315Z AUTO 21004KT 10SM CLR 12/07 A3018 RMK AO2  T01230069,,,,,,45.03,,SSW,29.52,29.3,,Clear
KIGQ,04/17/2017 13:35 UTC,30.18,56.3,44.06,62.72,3.44,200.0,,,,,,1.0,,,,10.0,,KIGQ 171335Z AUTO 20003KT 10SM CLR 14/07 A3018 RMK AO2  T01350067,,,,,,43.64,,SSW,29.52,29.32,,Clear
KIGQ,04/17/2017 13:55 UTC,30.18,57.92,42.62,58.55,4.61,200.0,,,,,,1.0,,,,10.0,,KIGQ 171355Z AUTO 20004KT 10SM CLR 14/06 A3018 RMK AO2  T01440059,,,,,,43.36,,SSW,29.52,29.32,,Clear
KIGQ,04/17/2017 14:15 UTC,30.18,59.72,44.78,58.8,4.61,190.0,,,,,,1.0,,,,10.0,,KIGQ 171415Z AUTO 19004KT 10SM CLR 15/07 A3018 RMK AO2  T01540071,,,,,,45.17,,S,29.52,29.25,,Clear
KIGQ,04/17/2017 14:35 UTC,30.19,60.98,42.62,51.48,0.0,0.0,,,,,,1.0,,,,10.0,,KIGQ 171435Z AUTO 00000KT 10SM CLR 16/06 A3019 RMK AO2  T01610059,,,,,,42.85,,N,29.53,29.32,,Clear
KIGQ,04/17/2017 14:55 UTC,30.19,62.24,42.98,48.31,0.0,0.0,,,,,,1.0,,,,10.0,,KIGQ 171455Z AUTO 00000KT 10SM CLR 17/06 A3019 RMK AO2  T01680061,,,,,,42.35,,N,29.53,29.32,,Clear
KIGQ,04/17/2017 15:15 UTC,30.19,62.78,40.28,45.07,0.0,0.0,,,,,,1.0,,,,10.0,,KIGQ 171515Z AUTO 00000KT 10SM CLR 17/05 A3019 RMK AO2  T01710046,,,,,,41.04,,N,29.53,29.36,,Clear
KIGQ,04/17/2017 15:35 UTC,30.19,64.22,40.28,42.32,0.0,0.0,,,,,,1.0,,,,10.0,,KIGQ 171535Z AUTO 00000KT 10SM CLR 18/05 A3019 RMK AO2  T01790046,,,,,,40.72,,N,29.53,29.36,,Clear
KIGQ,04/17/2017 15:55 UTC,30.19,64.58,38.66,39.46,3.44,120.0,,,,,,1.0,,,,10.0,,KIGQ 171555Z AUTO 12003KT 10SM CLR 18/04 A3019 RMK AO2  T01810037,,,,,,39.24,,ESE,29.53,29.39,,Clear
KIGQ,04/17/2017 16:15 UTC,30.19,64.94,36.5,36.77,3.44,110.0,,,,,,1.0,,,,10.0,,KIGQ 171615Z AUTO 11003KT 10SM CLR 18/03 A3019 RMK AO2  T01830025,,,,,,37.76,,ESE,29.53,29.43,,Clear
KIGQ,04/17/2017 16:35 UTC,30.19,65.3,38.3,37.07,0.0,0.0,,,,,,1.0,,,,10.0,,KIGQ 171635Z AUTO 00000KT 10SM CLR 19/04 A3019 RMK AO2  T01850035,,,,,,38.29,,N,29.53,29.42,,Clear
KIGQ,04/17/2017 16:55 UTC,30.18,65.66,36.86,34.54,0.0,0.0,,,,,,1.0,,,,10.0,,KIGQ 171655Z AUTO 00000KT 10SM CLR 19/03 A3018 RMK AO2  T01870027,,,,,,36.81,,N,29.52,29.44,,Clear
KIGQ,04/17/2017 17:15 UTC,30.18,66.92,39.56,37.07,0.0,0.0,,,,,,1.0,,,,10.0,,KIGQ 171715Z AUTO 00000KT 10SM CLR 19/04 A3018 RMK AO2  T01940042,,,,,,39.73,,N,29.52,29.36,,Clear
KIGQ,04/17/2017 17:35 UTC,30.17,67.28,40.82,37.36,4.61,190.0,,,,,,1.0,,,,10.0,,KIGQ 171735Z AUTO 19004KT 10SM CLR 20/05 A3017 RMK AO2  T01960049,,,,,,40.26,,S,29.51,29.33,,Clear
KIGQ,04/17/2017 17:55 UTC,30.17,68.36,42.62,40.05,4.61,280.0,,,,,,1.0,,,,10.0,,KIGQ 171755Z AUTO 28004KT 10SM CLR 20/06 A3017 RMK AO2 T02020059  10202 20073,68.36,45.14,,,,43.03,,W,29.51,29.24,,Clear
KIGQ,04/17/2017 18:15 UTC,30.17,66.92,42.62,42.61,5.75,70.0,,,,,,1.0,,,,10.0,,KIGQ 171815Z AUTO 07005KT 10SM CLR 19/06 A3017 RMK AO2  T01940059,,,,,,43.35,,ENE,29.51,29.24,,Clear
KIGQ,04/17/2017 18:35 UTC,30.17,67.1,41.0,37.36,6.91,40.0,,,,,,1.0,,,,10.0,,KIGQ 171835Z AUTO 04006KT 10SM CLR 20/05 A3017 RMK AO2  T01950050,,,,,,40.1,,NE,29.51,29.33,,Clear
KIGQ,04/17/2017 18:55 UTC,30.17,68.0,42.62,40.05,12.66,40.0,,,,,,1.0,,,,10.0,,KIGQ 171855Z AUTO 04011KT 10SM CLR 20/06 A3017 RMK AO2  T02000059,,,,,,42.71,,NE,29.51,29.25,,Clear
KIGQ,04/17/2017 19:15 UTC,30.17,67.28,41.9,40.05,9.22,40.0,,,,,,1.0,,,,10.0,,KIGQ 171915Z AUTO 04008KT 10SM CLR 20/06 A3017 RMK AO2  T01960055,,,,,,42.06,,NE,29.51,29.28,,Clear
KIGQ,04/17/2017 19:35 UTC,30.16,67.46,41.72,37.36,4.61,60.0,,,,,,1.0,,,,10.0,,KIGQ 171935Z AUTO 06004KT 10SM CLR 20/05 A3016 RMK AO2  T01970054,,,,,,40.42,,ENE,29.5,29.31,,Clear
KIGQ,04/17/2017 19:55 UTC,30.16,67.46,42.08,40.05,9.22,20.0,,,,,,1.0,,,,10.0,,KIGQ 171955Z AUTO 02008KT 10SM CLR 20/06 A3016 RMK AO2  T01970056,,,,,,42.22,,NNE,29.5,29.26,,Clear
KIGQ,04/17/2017 20:15 UTC,30.15,67.82,41.72,37.36,8.05,30.0,,,,,,1.0,,,,10.0,,KIGQ 172015Z AUTO 03007KT 10SM CLR 20/05 A3015 RMK AO2  T01990054,,,,,,40.74,,NNE,29.49,29.29,,Clear
KIGQ,04/17/2017 20:35 UTC,30.14,68.18,41.72,37.36,4.61,10.0,,,,,,1.0,,,,10.0,,KIGQ 172035Z AUTO 01004KT 10SM CLR 20/05 A3014 RMK AO2  T02010054,,,,,,41.06,,N,29.48,29.27,,Clear
KIGQ,04/17/2017 20:55 UTC,30.14,68.9,41.36,35.13,0.0,0.0,,,,,,1.0,,,,10.0,,KIGQ 172055Z AUTO 00000KT 10SM CLR 21/05 A3014 RMK AO2  T02050052,,,,,,40.12,,N,29.48,29.29,,Clear
KIGQ,04/17/2017 21:15 UTC,30.13,69.08,44.24,40.34,4.61,30.0,,,,,,1.0,,,,10.0,,KIGQ 172115Z AUTO 03004KT 10SM CLR 21/07 A3013 RMK AO2  T02060068,,,,,,43.87,,NNE,29.47,29.17,,Clear
KIGQ,04/17/2017 21:35 UTC,30.13,68.36,44.78,42.9,8.05,40.0,,,,,,1.0,,,,10.0,,KIGQ 172135Z AUTO 04007KT 10SM CLR 20/07 A3013 RMK AO2  T02020071,,,,,,44.84,,NE,29.47,29.14,,Clear
KIGQ,04/17/2017 21:55 UTC,30.13,66.2,42.98,42.61,8.05,40.0,,,,,,1.0,,,,10.0,,KIGQ 172155Z AUTO 04007KT 10SM CLR 19/06 A3013 RMK AO2  T01900061,,,,,,42.7,,NE,29.47,29.22,,Clear
KIGQ,04/17/2017 22:15 UTC,30.13,65.48,43.7,45.65,8.05,40.0,,,,,,1.0,,,,10.0,,KIGQ 172215Z AUTO 04007KT 10SM CLR 19/07 A3013 RMK AO2  T01860065,,,,,,43.84,,NE,29.47,29.19,,Clear
KIGQ,04/17/2017 22:35 UTC,30.14,61.7,42.08,48.31,10.36,30.0,,,,,,1.0,,,,10.0,,KIGQ 172235Z AUTO 03009KT 10SM CLR 17/06 A3014 RMK AO2  T01650056,,,,,,41.85,,NNE,29.48,29.29,,Clear
KIGQ,04/17/2017 22:55 UTC,30.14,60.26,46.22,59.05,6.91,30.0,,,,,,1.0,,,,10.0,,KIGQ 172255Z AUTO 03006KT 10SM CLR 16/08 A3014 RMK AO2  T01570079,,,,,,45.79,,NNE,29.48,29.18,,Clear
KIGQ,04/17/2017 23:15 UTC,30.14,58.82,45.32,58.8,8.05,40.0,,,,,,1002.0,,,,10.0,,KIGQ 172315Z AUTO 04007KT 10SM SCT100 15/07 A3014 RMK AO2  T01490074,,,,,,44.32,,NE,29.48,29.24,,Partly Cloudy
KIGQ,04/17/2017 23:35 UTC,30.15,55.58,44.96,66.93,10.36,20.0,,,,,,952.0,,,,10.0,,KIGQ 172335Z AUTO 02009KT 10SM SCT095 13/07 A3015 RMK AO2  T01310072,,,,,,44.67,,NNE,29.49,29.27,,Partly Cloudy
KIGQ,04/17/2017 23:55 UTC,30.16,51.26,43.34,71.27,9.22,30.0,,,,,,952.0,,,,10.0,,KIGQ 172355Z AUTO 03008KT 10SM SCT095 11/06 A3016 RMK AO2  T01070063 10207 20107,69.26,51.26,,,,42.18,,NNE,29.5,29.38,,Partly Cloudy
KIGQ,04/18/2017 00:15 UTC,30.16,48.38,42.08,81.48,10.36,30.0,,,,,,1.0,,,,10.0,,KIGQ 180015Z AUTO 03009KT 10SM CLR 09/06 A3016 RMK AO2  T00910056,,,,,,42.91,,NNE,29.5,29.39,,Clear
KIGQ,04/18/2017 00:35 UTC,30.16,46.76,42.08,87.19,9.22,20.0,,,,,,1.0,,,,10.0,,KIGQ 180035Z AUTO 02008KT 10SM CLR 08/06 A3016 RMK AO2  T00820056,,,,,,43.11,,NNE,29.5,29.4,,Clear
KIGQ,04/18/2017 00:55 UTC,30.17,45.5,41.9,87.19,6.91,20.0,,,,,,1.0,,,,10.0,,KIGQ 180055Z AUTO 02006KT 10SM CLR 08/06 A3017 RMK AO2  T00750055,,,,,,41.87,,NNE,29.51,29.45,,Clear
KIGQ,04/18/2017 01:15 UTC,30.17,45.14,41.9,93.35,9.22,20.0,,,,,,1.0,,,,10.0,,KIGQ 180115Z AUTO 02008KT 10SM CLR 07/06 A3017 RMK AO2  T00730055,,,,,,43.31,,NNE,29.51,29.42,,Clear
KIGQ,04/18/2017 01:35 UTC,30.17,45.14,41.72,87.09,4.61,20.0,,,,,,1.0,,,,10.0,,KIGQ 180135Z AUTO 02004KT 10SM CLR 07/05 A3017 RMK AO2  T00730054,,,,,,41.48,,NNE,29.51,29.46,,Clear
KIGQ,04/18/2017 01:55 UTC,30.18,44.96,41.9,93.35,3.44,20.0,,,,,,1.0,,,,10.0,,KIGQ 180155Z AUTO 02003KT 10SM CLR 07/06 A3018 RMK AO2  T00720055,,,,,,43.13,,NNE,29.52,29.43,,Clear
KIGQ,04/18/2017 02:15 UTC,30.19,44.24,41.54,87.09,4.61,10.0,,,,,,1.0,,,,10.0,,KIGQ 180215Z AUTO 01004KT 10SM CLR 07/05 A3019 RMK AO2  T00680053,,,,,,40.6,,N,29.53,29.51,,Clear
KIGQ,04/18/2017 02:35 UTC,30.19,43.7,41.18,87.09,4.61,10.0,,,,,,1.0,,,,10.0,,KIGQ 180235Z AUTO 01004KT 10SM CLR 07/05 A3019 RMK AO2  T00650051,,,,,,40.07,,N,29.53,29.53,,Clear
KIGQ,04/18/2017 02:55 UTC,30.19,43.7,41.36,87.09,5.75,20.0,,,,,,1.0,,,,10.0,,KIGQ 180255Z AUTO 02005KT 10SM CLR 07/05 A3019 RMK AO2  T00650052,,,,,,40.07,,NNE,29.53,29.53,,Clear
KIGQ,04/18/2017 03:15 UTC,30.2,43.34,41.18,93.3,5.75,20.0,,,,,,1.0,,,,10.0,,KIGQ 180315Z AUTO 02005KT 10SM CLR 06/05 A3020 RMK AO2  T00630051,,,,,,41.51,,NNE,29.54,29.51,,Clear
KIGQ,04/18/2017 03:35 UTC,30.2,43.7,41.36,87.09,4.61,20.0,,,,,,1.0,,,,10.0,,KIGQ 180335Z AUTO 02004KT 10SM CLR 07/05 A3020 RMK AO2  T00650052,,,,,,40.07,,NNE,29.54,29.54,,Clear
KIGQ,04/18/2017 03:55 UTC,30.2,43.16,41.18,93.3,4.61,30.0,,,,,,1.0,,,,10.0,,KIGQ 180355Z AUTO 03004KT 10SM CLR 06/05 A3020 RMK AO2  T00620051,,,,,,41.33,,NNE,29.54,29.51,,Clear
KIGQ,04/18/2017 04:15 UTC,30.2,42.98,41.18,93.3,3.44,20.0,,,,,,1.0,,,,10.0,,KIGQ 180415Z AUTO 02003KT 10SM CLR 06/05 A3020 RMK AO2  T00610051,,,,,,41.15,,NNE,29.54,29.52,,Clear
KIGQ,04/18/2017 04:35 UTC,30.2,42.98,41.18,93.3,3.44,40.0,,,,,,1.0,,,,10.0,,KIGQ 180435Z AUTO 04003KT 10SM CLR 06/05 A3020 RMK AO2  T00610051,,,,,,41.15,,NE,29.54,29.52,,Clear
KIGQ,04/18/2017 04:55 UTC,30.2,42.98,41.0,93.3,3.44,40.0,,,,,,1.0,,,,10.0,,KIGQ 180455Z AUTO 04003KT 10SM CLR 06/05 A3020 RMK AO2 LTG DSNT W  T00610050,,,,,,41.15,,NE,29.54,29.52,,Clear
KIGQ,04/18/2017 05:15 UTC,30.2,42.8,41.0,93.3,3.44,50.0,,,,,,1.0,,,,10.0,,KIGQ 180515Z AUTO 05003KT 10SM CLR 06/05 A3020 RMK AO2  T00600050,,,,,,40.98,,NE,29.54,29.53,,Clear
KIGQ,04/18/2017 05:35 UTC,30.2,42.8,41.18,93.3,0.0,0.0,,,,,,1.0,,,,10.0,,KIGQ 180535Z AUTO 00000KT 10SM CLR 06/05 A3020 RMK AO2  T00600051,,,,,,40.98,,N,29.54,29.53,,Clear
KIGQ,04/18/2017 05:55 UTC,30.2,42.8,41.18,93.3,4.61,40.0,,,,,,1.0,,,,10.0,,KIGQ 180555Z AUTO 04004KT 10SM CLR 06/05 A3020 RMK AO2 T00600051  10105 20060 402070056,50.9,42.8,,69.26,42.08,40.98,,NE,29.54,29.53,,Clear
KIGQ,04/18/2017 06:15 UTC,30.2,42.62,41.36,93.3,0.0,0.0,,,,,,1.0,,,,10.0,,KIGQ 180615Z AUTO 00000KT 10SM CLR 06/05 A3020 RMK AO2  T00590052,,,,,,40.8,,N,29.54,29.53,,Clear
KIGQ,04/18/2017 06:35 UTC,30.2,42.62,41.36,93.3,0.0,0.0,,,,,,1.0,,,,10.0,,KIGQ 180635Z AUTO 00000KT 10SM CLR 06/05 A3020 RMK AO2  T00590052,,,,,,40.8,,N,29.54,29.53,,Clear
KIGQ,04/18/2017 06:55 UTC,30.19,42.8,41.36,93.3,0.0,0.0,,,,,,1.0,,,,10.0,,KIGQ 180655Z AUTO 00000KT 10SM CLR 06/05 A3019 RMK AO2  T00600052,,,,,,40.98,,N,29.53,29.52,,Clear
KIGQ,04/18/2017 07:15 UTC,30.19,42.8,41.54,93.3,0.0,0.0,,,,,,1.0,,,,10.0,,KIGQ 180715Z AUTO 00000KT 10SM CLR 06/05 A3019 RMK AO2 LTG DSNT NW  T00600053,,,,,,40.98,,N,29.53,29.52,,Clear
KIGQ,04/18/2017 07:35 UTC,30.19,42.08,40.64,93.3,0.0,0.0,,,,,,1.0,,,,10.0,,KIGQ 180735Z AUTO 00000KT 10SM CLR 06/05 A3019 RMK AO2  T00560048,,,,,,40.26,,N,29.53,29.54,,Clear
KIGQ,04/18/2017 07:55 UTC,30.19,42.08,41.18,93.3,0.0,0.0,,,,,,1.0,,,,10.0,,KIGQ 180755Z AUTO 00000KT 10SM CLR 06/05 A3019 RMK AO2  T00560051,,,,,,40.26,,N,29.53,29.54,,Clear
KIGQ,04/18/2017 08:15 UTC,30.19,42.08,40.82,93.3,3.44,100.0,,,,,,1.0,,,,10.0,,KIGQ 180815Z AUTO 10003KT 10SM CLR 06/05 A3019 RMK AO2  T00560049,,,,,,40.26,,E,29.53,29.54,,Clear
KIGQ,04/18/2017 08:35 UTC,30.2,41.36,41.0,100.0,4.61,90.0,,,,,,1.0,,,,10.0,,KIGQ 180835Z AUTO 09004KT 10SM CLR 05/05 A3020 RMK AO2  T00520050,,,,,,41.36,,E,29.54,29.53,,Clear
KIGQ,04/18/2017 08:55 UTC,30.2,41.54,40.82,100.0,3.44,90.0,,,,,,1.0,,,,10.0,,KIGQ 180855Z AUTO 09003KT 10SM CLR 05/05 A3020 RMK AO2  T00530049,,,,,,41.54,,E,29.54,29.52,,Clear
KIGQ,04/18/2017 09:15 UTC,30.19,41.72,41.18,100.0,0.0,0.0,,,,,,1.0,,,,10.0,,KIGQ 180915Z AUTO 00000KT 10SM CLR 05/05 A3019 RMK AO2  T00540051,,,,,,41.72,,N,29.53,29.51,,Clear
KIGQ,04/18/2017 09:35 UTC,30.19,41.36,40.82,100.0,0.0,0.0,,,,,,1.0,,,,10.0,,KIGQ 180935Z AUTO 00000KT 10SM CLR 05/05 A3019 RMK AO2  T00520049,,,,,,41.36,,N,29.53,29.52,,Clear
KIGQ,04/18/2017 09:55 UTC,30.19,41.18,40.64,100.0,0.0,0.0,,,,,,1.0,,,,10.0,,KIGQ 180955Z AUTO 00000KT 10SM CLR 05/05 A3019 RMK AO2  T00510048,,,,,,41.18,,N,29.53,29.52,,Clear
KIGQ,04/18/2017 10:15 UTC,30.2,40.64,40.46,100.0,0.0,0.0,,,,,,1.0,,,,10.0,,KIGQ 181015Z AUTO 00000KT 10SM CLR 05/05 A3020 RMK AO2  T00480047,,,,,,40.64,,N,29.54,29.55,,Clear
KIGQ,04/18/2017 10:35 UTC,30.2,41.0,40.64,100.0,0.0,0.0,,,,,,1.0,,,,10.0,,KIGQ 181035Z AUTO 00000KT 10SM CLR 05/05 A3020 RMK AO2  T00500048,,,,,,41.0,,N,29.54,29.54,,Clear
KIGQ,04/18/2017 10:55 UTC,30.2,40.1,40.1,100.0,0.0,0.0,,,,,,1.0,,,,10.0,,KIGQ 181055Z AUTO 00000KT 10SM CLR 05/05 A3020 RMK AO2  T00450045,,,,,,40.1,,N,29.54,29.57,,Clear
KIGQ,04/18/2017 11:15 UTC,30.21,41.0,41.0,100.0,0.0,0.0,,,,,,1.0,,,,10.0,,KIGQ 181115Z AUTO 00000KT 10SM CLR 05/05 A3021 RMK AO2  T00500050,,,,,,41.0,,N,29.55,29.55,,Clear
KIGQ,04/18/2017 11:35 UTC,30.21,42.62,40.64,93.3,0.0,0.0,,,,,,1.0,,,,10.0,,KIGQ 181135Z AUTO 00000KT 10SM CLR 06/05 A3021 RMK AO2  T00590048,,,,,,40.8,,N,29.55,29.54,,Clear
KIGQ,04/18/2017 11:55 UTC,30.21,43.34,40.82,93.3,0.0,0.0,,,,,,1.0,,,,10.0,,KIGQ 181155Z AUTO 00000KT 10SM CLR 06/05 A3021 RMK AO2 T00630049  10063 20045,43.34,40.1,,,,41.51,,N,29.55,29.52,,Clear
KIGQ,04/18/2017 12:15 UTC,30.21,45.68,42.8,87.19,4.61,140.0,,,,,,1.0,,,,10.0,,KIGQ 181215Z AUTO 14004KT 10SM CLR 08/06 A3021 RMK AO2  T00760060,,,,,,42.05,,SE,29.55,29.48,,Clear
KIGQ,04/18/2017 12:35 UTC,30.2,48.74,43.88,87.28,5.75,140.0,,,,,,1.0,,,,10.0,,KIGQ 181235Z AUTO 14005KT 10SM CLR 09/07 A3020 RMK AO2  T00930066,,,,,,45.09,,SE,29.54,29.37,,Clear
KIGQ,04/18/2017 12:55 UTC,30.19,51.08,44.96,76.35,4.61,140.0,,,,,,1.0,,,,10.0,,KIGQ 181255Z AUTO 14004KT 10SM CLR 11/07 A3019 RMK AO2  T01060072,,,,,,43.82,,SE,29.53,29.37,,Clear
KIGQ,04/18/2017 13:15 UTC,30.19,53.42,45.14,71.47,6.91,150.0,,,,,,1.0,,,,10.0,,KIGQ 181315Z AUTO 15006KT 10SM CLR 12/07 A3019 RMK AO2  T01190073,,,,,,44.34,,SSE,29.53,29.34,,Clear
KIGQ,04/18/2017 13:35 UTC,30.19,55.94,45.32,66.93,9.22,130.0,,,,,,1.0,,,,10.0,,KIGQ 181335Z AUTO 13008KT 030V150 10SM CLR 13/07 A3019 RMK AO2  T01330074,,,,,,45.02,,SE,29.53,29.29,,Clear
KIGQ,04/18/2017 13:55 UTC,30.18,57.38,45.5,67.15,6.91,140.0,,,,,,1.0,,,,10.0,,KIGQ 181355Z AUTO 14006KT 10SM CLR 14/08 A3018 RMK AO2  T01410075,,,,,,46.48,,SE,29.52,29.23,,Clear
KIGQ,04/18/2017 14:15 UTC,30.17,59.54,45.32,58.8,10.36,40.0,,,,,,1.0,,,,10.0,,KIGQ 181415Z AUTO 04009KT 020V130 10SM CLR 15/07 A3017 RMK AO2  T01530074,,,,,,45.0,,NE,29.51,29.24,,Clear
KIGQ,04/18/2017 14:35 UTC,30.17,61.34,45.68,59.05,10.36,150.0,,,,,,1.0,,,,10.0,,KIGQ 181435Z AUTO 15009KT 10SM CLR 16/08 A3017 RMK AO2  T01630076,,,,,,46.81,,SSE,29.51,29.17,,Clear
KIGQ,04/18/2017 14:55 UTC,30.17,62.78,45.68,55.41,9.22,150.0,,,,,,1.0,,,,10.0,,KIGQ 181455Z AUTO 15008KT 10SM CLR 17/08 A3017 RMK AO2  T01710076,,,,,,46.47,,SSE,29.51,29.17,,Clear
KIGQ,04/18/2017 15:15 UTC,30.17,64.4,46.76,52.03,11.5,170.0,,,,,,1.0,,,,10.0,,KIGQ 181515Z AUTO 17010KT 10SM CLR 18/08 A3017 RMK AO2  T01800082,,,,,,46.3,,S,29.51,29.16,,Clear
KIGQ,04/18/2017 15:35 UTC,30.16,64.76,46.4,52.03,11.5,150.0,,,,,,1.0,,,,10.0,,KIGQ 181535Z AUTO 15010KT 10SM CLR 18/08 A3016 RMK AO2 LTG DSNT W  T01820080,,,,,,46.64,,SSE,29.5,29.14,,Clear
KIGQ,04/18/2017 15:55 UTC,30.17,67.46,45.14,42.9,14.97,150.0,21.85,,,,,1.0,,,,10.0,,KIGQ 181555Z AUTO 15013G19KT 10SM CLR 20/07 A3017 RMK AO2  T01970073,,,,,,44.02,,SSE,29.51,29.21,,Clear
KIGQ,04/18/2017 16:15 UTC,30.18,68.36,45.32,42.9,14.97,180.0,24.16,,,,,1.0,,,,10.0,,KIGQ 181615Z AUTO 18013G21KT 10SM CLR 20/07 A3018 RMK AO2  T02020074,,,,,,44.84,,S,29.52,29.19,,Clear
KIGQ,04/18/2017 16:35 UTC,30.18,69.26,44.42,40.34,13.8,160.0,21.85,,,,,1.0,,,,10.0,,KIGQ 181635Z AUTO 16012G19KT 10SM CLR 21/07 A3018 RMK AO2  T02070069,,,,,,44.04,,SSE,29.52,29.21,,Clear
KIGQ,04/18/2017 16:55 UTC,30.16,69.98,44.96,40.34,16.11,160.0,20.71,,,,,1.0,,,,10.0,,KIGQ 181655Z AUTO 16014G18KT 10SM CLR 21/07 A3016 RMK AO2  T02110072,,,,,,44.69,,SSE,29.5,29.16,,Clear
KIGQ,04/18/2017 17:15 UTC,30.15,70.88,44.42,37.95,18.41,170.0,27.63,,,,,1.0,,,,10.0,,KIGQ 181715Z AUTO 17016G24KT 10SM CLR 22/07 A3015 RMK AO2  T02160069,,,,,,43.89,,S,29.49,29.17,,Clear
KIGQ,04/18/2017 17:35 UTC,30.13,71.78,45.32,37.95,13.8,160.0,23.02,,,,,1.0,,,,10.0,,KIGQ 181735Z AUTO 16012G20KT 10SM CLR 22/07 A3013 RMK AO2  T02210074,,,,,,44.7,,SSE,29.47,29.12,,Clear
KIGQ,04/18/2017 17:55 UTC,30.12,72.32,45.68,40.63,18.41,160.0,23.02,,,,,1.0,,,,10.0,,KIGQ 181755Z AUTO 16016G20KT 10SM CLR 22/08 A3012 RMK AO2  T02240076 10224 20065,72.32,43.7,,,,46.99,,SSE,29.47,29.04,,Clear
KIGQ,04/18/2017 18:15 UTC,30.11,72.5,45.32,35.72,12.66,170.0,23.02,,,,,1.0,,,,10.0,,KIGQ 181815Z AUTO 17011G20KT 10SM CLR 23/07 A3011 RMK AO2  T02250074,,,,,,43.76,,S,29.46,29.14,,Clear
KIGQ,04/18/2017 18:35 UTC,30.1,73.4,43.7,35.72,18.41,180.0,25.32,,,,,1.0,,,,10.0,,KIGQ 181835Z AUTO 18016G22KT 10SM CLR 23/07 A3010 RMK AO2  T02300065,,,,,,44.56,,S,29.45,29.09,,Clear
KIGQ,04/18/2017 18:55 UTC,30.1,73.22,43.88,35.72,18.41,190.0,23.02,,,,,1.0,,,,10.0,,KIGQ 181855Z AUTO 19016G20KT 10SM CLR 23/07 A3010 RMK AO2  T02290066,,,,,,44.4,,S,29.45,29.1,,Clear
KIGQ,04/18/2017 19:15 UTC,30.08,73.04,43.52,33.34,14.97,160.0,20.71,,,,,1.0,,,,10.0,,KIGQ 181915Z AUTO 16013G18KT 10SM CLR 23/06 A3008 RMK AO2  T02280064,,,,,,42.44,,SSE,29.43,29.15,,Clear
KIGQ,04/18/2017 19:35 UTC,30.05,73.22,44.6,35.72,14.97,180.0,21.85,,,,,1.0,,,,10.0,,KIGQ 181935Z AUTO 18013G19KT 10SM CLR 23/07 A3005 RMK AO2  T02290070,,,,,,44.4,,S,29.4,29.05,,Clear
KIGQ,04/18/2017 19:55 UTC,30.04,73.4,46.04,38.24,17.27,190.0,23.02,,,,,1.0,,,,10.0,,KIGQ 181955Z AUTO 19015G20KT 10SM CLR 23/08 A3004 RMK AO2  T02300078,,,,,,46.36,,S,29.39,28.97,,Clear
KIGQ,04/18/2017 20:15 UTC,30.04,74.12,46.58,38.24,19.57,190.0,,,,,,802.0,,,,10.0,,KIGQ 182015Z AUTO 19017KT 10SM SCT080 23/08 A3004 RMK AO2  T02340081,,,,,,47.0,,S,29.39,28.94,,Partly Cloudy
KIGQ,04/18/2017 20:35 UTC,30.03,74.12,48.38,40.92,17.27,170.0,24.16,,,,,902.0,,,,10.0,,KIGQ 182035Z AUTO 17015G21KT 10SM SCT090 23/09 A3003 RMK AO2  T02340091,,,,,,48.81,,S,29.38,28.86,,Partly Cloudy
KIGQ,04/18/2017 20:55 UTC,30.01,73.4,49.28,43.76,14.97,200.0,23.02,,,,,902.0,,,,10.0,,KIGQ 182055Z AUTO 20013G20KT 10SM SCT090 23/10 A3001 RMK AO2  T02300096,,,,,,49.96,,SSW,29.36,28.8,,Partly Cloudy
KIGQ,04/18/2017 21:15 UTC,30.01,74.12,50.0,43.76,16.11,190.0,21.85,,,,,1.0,,,,10.0,,KIGQ 182115Z AUTO 19014G19KT 10SM CLR 23/10 A3001 RMK AO2  T02340100,,,,,,50.61,,S,29.36,28.77,,Clear
KIGQ,04/18/2017 21:35 UTC,29.98,72.68,50.0,43.76,21.85,200.0,26.46,,,,,1.0,,,,10.0,,KIGQ 182135Z AUTO 20019G23KT 10SM CLR 23/10 A2998 RMK AO2  T02260100,,,,,,49.3,,SSW,29.33,28.8,,Clear
KIGQ,04/18/2017 21:55 UTC,29.97,73.04,52.7,49.97,19.57,190.0,23.02,,,,,1.0,,,,10.0,,KIGQ 182155Z AUTO 19017G20KT 10SM CLR 23/12 A2997 RMK AO2  T02280115,,,,,,53.23,,S,29.32,28.63,,Clear
KIGQ,04/18/2017 22:15 UTC,29.97,73.58,52.88,49.97,16.11,190.0,21.85,,,,,1.0,,,,10.0,,KIGQ 182215Z AUTO 19014G19KT 10SM CLR 23/12 A2997 RMK AO2  T02310116,,,,,,53.73,,S,29.32,28.6,,Clear
KIGQ,04/18/2017 22:35 UTC,29.97,74.48,54.5,50.25,19.57,200.0,25.32,,,,,1.0,,,,10.0,,KIGQ 182235Z AUTO 20017G22KT 10SM CLR 24/13 A2997 RMK AO2  T02360125,,,,,,54.71,,SSW,29.32,28.54,,Clear
KIGQ,04/18/2017 22:55 UTC,29.97,73.4,54.5,53.36,17.27,190.0,28.77,,,,,1.0,,,,10.0,,KIGQ 182255Z AUTO 19015G25KT 10SM CLR 23/13 A2997 RMK AO2  T02300125,,,,,,55.36,,S,29.32,28.52,,Clear
KIGQ,04/18/2017 23:15 UTC,29.98,73.4,55.76,53.36,12.66,210.0,20.71,,,,,603.0,,,,10.0,,KIGQ 182315Z AUTO 21011G18KT 10SM BKN060 23/13 A2998 RMK AO2  T02300132,,,6000.0,,,55.36,,SSW,29.33,28.53,,Mostly Cloudy
KIGQ,04/18/2017 23:35 UTC,29.98,73.4,55.94,53.36,12.66,210.0,,,,,,604.0,,,,10.0,,KIGQ 182335Z AUTO 21011KT 10SM OVC060 23/13 A2998 RMK AO2  T02300133,,,6000.0,,,55.36,,SSW,29.33,28.53,,Overcast
KIGQ,04/18/2017 23:55 UTC,29.97,72.14,55.94,56.7,14.97,200.0,19.57,,,,,602.0,,,,10.0,,KIGQ 182355Z AUTO 20013G17KT 10SM SCT060 22/13 A2997 RMK AO2  T02230133 10240 20222,75.2,71.96,,,,55.86,,SSW,29.32,28.51,,Partly Cloudy
KIGQ,04/19/2017 00:15 UTC,29.97,70.88,55.58,56.7,9.22,200.0,,,,,,1.0,,,,10.0,,KIGQ 190015Z AUTO 20008KT 10SM CLR 22/13 A2997 RMK AO2  T02160131,,,,,,54.68,,SSW,29.32,28.58,,Clear
KIGQ,04/19/2017 00:35 UTC,29.98,69.08,55.58,60.27,8.05,210.0,,,,,,602.0,,,,10.0,,KIGQ 190035Z AUTO 21007KT 10SM SCT060 21/13 A2998 RMK AO2  T02060131,,,,,,54.67,,SSW,29.33,28.61,,Partly Cloudy
KIGQ,04/19/2017 00:55 UTC,29.98,66.56,55.58,68.2,6.91,200.0,,,,,,602.0,,,,10.0,,KIGQ 190055Z AUTO 20006KT 10SM SCT060 19/13 A2998 RMK AO2  T01920131,,,,,,55.69,,SSW,29.33,28.59,,Partly Cloudy
KIGQ,04/19/2017 01:15 UTC,29.99,66.02,56.3,72.78,6.91,200.0,,,,,,603.0,,,,10.0,,KIGQ 190115Z AUTO 20006KT 10SM BKN060 19/14 A2999 RMK AO2  T01890135,,,6000.0,,,56.98,,SSW,29.34,28.54,,Mostly Cloudy
KIGQ,04/19/2017 01:35 UTC,30.0,64.4,55.94,72.6,6.91,190.0,,,,,,604.0,,,,10.0,,KIGQ 190135Z AUTO 19006KT 10SM OVC060 18/13 A3000 RMK AO2  T01800133,,,6000.0,,,55.35,,S,29.35,28.64,,Overcast
KIGQ,04/19/2017 01:55 UTC,30.0,64.94,56.3,77.48,6.91,190.0,,,,,,603.0,,,,10.0,,KIGQ 190155Z AUTO 19006KT 10SM BKN060 18/14 A3000 RMK AO2  T01830135,,,6000.0,,,57.68,,S,29.35,28.53,,Mostly Cloudy
KIGQ,04/19/2017 02:15 UTC,30.0,63.32,55.76,77.33,8.05,190.0,,,,,,602.0,702.0,,,10.0,,KIGQ 190215Z AUTO 19007KT 10SM SCT060 SCT070 17/13 A3000 RMK AO2  T01740132,,,,,,56.05,,S,29.35,28.62,,Partly Cloudy
KIGQ,04/19/2017 02:35 UTC,30.0,64.4,56.48,77.48,8.05,190.0,,,,,,502.0,702.0,,,10.0,,KIGQ 190235Z AUTO 19007KT 10SM SCT050 SCT070 18/14 A3000 RMK AO2  T01800136,,,,,,57.16,,S,29.35,28.56,,Partly Cloudy
KIGQ,04/19/2017 02:55 UTC,30.0,65.3,56.66,72.78,9.22,190.0,,,,,,502.0,,,,10.0,,KIGQ 190255Z AUTO 19008KT 10SM SCT050 19/14 A3000 RMK AO2  T01850137,,,,,,56.28,,S,29.35,28.59,,Partly Cloudy
KIGQ,04/19/2017 03:15 UTC,30.0,66.02,56.84,72.78,10.36,190.0,,,,,,502.0,,,,10.0,,KIGQ 190315Z AUTO 19009KT 10SM SCT050 19/14 A3000 RMK AO2  T01890138,,,,,,56.98,,S,29.35,28.55,,Partly Cloudy
KIGQ,04/19/2017 03:35 UTC,30.0,66.56,57.38,72.78,10.36,200.0,,,,,,1.0,,,,10.0,,KIGQ 190335Z AUTO 20009KT 10SM CLR 19/14 A3000 RMK AO2  T01920141,,,,,,57.5,,SSW,29.35,28.52,,Clear
KIGQ,04/19/2017 03:55 UTC,30.0,66.56,57.92,72.78,11.5,210.0,,,,,,1.0,,,,10.0,,KIGQ 190355Z AUTO 21010KT 10SM CLR 19/14 A3000 RMK AO2  T01920144,,,,,,57.5,,SSW,29.35,28.52,,Clear
KIGQ,04/19/2017 04:15 UTC,30.0,66.2,58.1,77.64,10.36,210.0,,,,,,1202.0,,,,10.0,,KIGQ 190415Z AUTO 21009KT 10SM SCT120 19/15 A3000 RMK AO2  T01900145,,,,,,58.96,,SSW,29.35,28.45,,Partly Cloudy
KIGQ,04/19/2017 04:35 UTC,30.0,66.2,58.46,77.64,10.36,210.0,,,,,,1203.0,,,,10.0,,KIGQ 190435Z AUTO 21009KT 10SM BKN120 19/15 A3000 RMK AO2  T01900147,,,12000.0,,,58.96,,SSW,29.35,28.45,,Mostly Cloudy
KIGQ,04/19/2017 04:55 UTC,30.0,66.38,59.0,77.64,13.8,200.0,,,,,,902.0,1204.0,,,10.0,,KIGQ 190455Z AUTO 20012KT 10SM SCT090 OVC120 19/15 A3000 RMK AO2  T01910150,,,12000.0,,,59.14,,SSW,29.35,28.44,,Overcast
KIGQ,04/19/2017 05:15 UTC,30.0,66.02,59.0,77.64,10.36,210.0,,,,,,1204.0,,,,10.0,,KIGQ 190515Z AUTO 21009KT 10SM OVC120 19/15 A3000 RMK AO2  T01890150,,,12000.0,,,58.79,,SSW,29.35,28.46,,Overcast
KIGQ,04/19/2017 05:35 UTC,30.0,65.66,59.0,77.64,12.66,210.0,,,,,,1204.0,,,,10.0,,KIGQ 190535Z AUTO 21011KT 10SM OVC120 19/15 A3000 RMK AO2  T01870150,,,12000.0,,,58.44,,SSW,29.35,28.48,,Overcast
KIGQ,04/19/2017 05:55 UTC,30.0,65.3,59.18,77.64,11.5,200.0,,,,,,903.0,1204.0,,,10.0,,KIGQ 190555Z AUTO 20010KT 10SM BKN090 OVC120 19/15 A3000 RMK AO2  T01850151 10222 20172 402400045,71.96,62.96,9000.0,75.2,40.1,58.09,,SSW,29.35,28.5,,Overcast
KIGQ,04/19/2017 06:15 UTC,29.99,64.94,59.18,82.65,11.5,200.0,,,,,,904.0,,,,10.0,,KIGQ 190615Z AUTO 20010KT 10SM OVC090 18/15 A2999 RMK AO2  T01830151,,,9000.0,,,59.5,,SSW,29.34,28.43,,Overcast
KIGQ,04/19/2017 06:35 UTC,29.99,64.4,59.36,82.65,11.5,210.0,,,,,,903.0,1204.0,,,10.0,,KIGQ 190635Z AUTO 21010KT 10SM BKN090 OVC120 18/15 A2999 RMK AO2  T01800152,,,9000.0,,,58.97,,SSW,29.34,28.46,,Overcast
KIGQ,04/19/2017 06:55 UTC,29.99,64.4,59.36,82.65,8.05,220.0,,,,,,904.0,,,,10.0,,KIGQ 190655Z AUTO 22007KT 10SM OVC090 18/15 A2999 RMK AO2  T01800152,,,9000.0,,,58.97,,SW,29.34,28.46,,Overcast
KIGQ,04/19/2017 07:15 UTC,29.98,64.58,59.54,82.65,10.36,220.0,,,,,,904.0,,,,10.0,,KIGQ 190715Z AUTO 22009KT 10SM OVC090 18/15 A2998 RMK AO2  T01810153,,,9000.0,,,59.14,,SW,29.33,28.44,,Overcast
KIGQ,04/19/2017 07:35 UTC,29.98,64.58,59.54,82.65,9.22,220.0,,,,,,902.0,1204.0,,,10.0,,KIGQ 190735Z AUTO 22008KT 10SM SCT090 OVC120 18/15 A2998 RMK AO2  T01810153,,,12000.0,,,59.14,,SW,29.33,28.44,,Overcast
KIGQ,04/19/2017 07:55 UTC,29.98,64.04,59.54,82.65,10.36,220.0,,,,,,1204.0,,,,10.0,,KIGQ 190755Z AUTO 22009KT 10SM OVC120 18/15 A2998 RMK AO2  T01780153,,,12000.0,,,58.62,,SW,29.33,28.47,,Overcast
KIGQ,04/19/2017 08:15 UTC,29.97,64.04,59.72,82.65,11.5,220.0,,,,,,902.0,1104.0,,,10.0,,KIGQ 190815Z AUTO 22010KT 10SM SCT090 OVC110 18/15 A2997 RMK AO2  T01780154,,,11000.0,,,58.62,,SW,29.32,28.46,,Overcast
KIGQ,04/19/2017 08:35 UTC,29.97,64.4,59.9,88.11,10.36,220.0,,,,,,903.0,1104.0,,,10.0,,KIGQ 190835Z AUTO 22009KT 10SM BKN090 OVC110 18/16 A2997 RMK AO2  T01800155,,,9000.0,,,60.78,,SW,29.32,28.35,,Overcast
KIGQ,04/19/2017 08:55 UTC,29.97,64.04,59.9,88.11,10.36,220.0,,,,,,904.0,,,,10.0,,KIGQ 190855Z AUTO 22009KT 10SM OVC090 18/16 A2997 RMK AO2  T01780155,,,9000.0,,,60.42,,SW,29.32,28.37,,Overcast
KIGQ,04/19/2017 09:15 UTC,29.97,64.4,59.9,88.11,9.22,210.0,17.27,,,,,802.0,1004.0,,,10.0,,KIGQ 190915Z AUTO 21008G15KT 10SM SCT080 OVC100 18/16 A2997 RMK AO2 T01800155,,,10000.0,,,60.78,,SSW,29.32,28.35,,Overcast
KIGQ,04/19/2017 09:35 UTC,29.98,64.04,60.08,88.11,10.36,220.0,,,,,,802.0,1004.0,,,10.0,,KIGQ 190935Z AUTO 22009KT 10SM SCT080 OVC100 18/16 A2998 RMK AO2  T01780156,,,10000.0,,,60.42,,SW,29.33,28.38,,Overcast
KIGQ,04/19/2017 09:55 UTC,29.98,64.4,60.08,88.11,8.05,220.0,,,,,,802.0,1104.0,,,10.0,,KIGQ 190955Z AUTO 22007KT 10SM SCT080 OVC110 18/16 A2998 RMK AO2  T01800156,,,11000.0,,,60.78,,SW,29.33,28.36,,Overcast
KIGQ,04/19/2017 10:15 UTC,29.98,64.58,60.08,88.11,10.36,230.0,,,,,,1104.0,,,,10.0,,KIGQ 191015Z AUTO 23009KT 10SM OVC110 18/16 A2998 RMK AO2  T01810156,,,11000.0,,,60.95,,SW,29.33,28.35,,Overcast
KIGQ,04/19/2017 10:35 UTC,29.99,64.58,60.26,88.11,9.22,230.0,,,,,,1004.0,,,,10.0,,KIGQ 191035Z AUTO 23008KT 10SM OVC100 18/16 A2999 RMK AO2  T01810157,,,10000.0,,,60.95,,SW,29.34,28.36,,Overcast
KIGQ,04/19/2017 10:55 UTC,29.99,64.58,60.26,88.11,8.05,220.0,,,,,,1004.0,,,,10.0,,KIGQ 191055Z AUTO 22007KT 10SM OVC100 18/16 A2999 RMK AO2  T01810157,,,10000.0,,,60.95,,SW,29.34,28.36,,Overcast
KIGQ,04/19/2017 11:15 UTC,29.99,63.86,60.08,88.11,6.91,220.0,,,,,,1003.0,,,,10.0,,KIGQ 191115Z AUTO 22006KT 10SM BKN100 18/16 A2999 RMK AO2  T01770156,,,10000.0,,,60.25,,SW,29.34,28.4,,Mostly Cloudy
KIGQ,04/19/2017 11:35 UTC,30.0,62.78,59.9,93.84,9.22,220.0,,,,,,1002.0,,,,10.0,,KIGQ 191135Z AUTO 22008KT 10SM SCT100 17/16 A3000 RMK AO2  T01710155,,,,,,60.96,,SW,29.35,28.39,,Partly Cloudy
KIGQ,04/19/2017 11:55 UTC,30.01,63.5,60.26,88.11,10.36,230.0,,,,,,1.0,,,,10.0,,KIGQ 191155Z AUTO 23009KT 10SM CLR 18/16 A3001 RMK AO2 T01750157  10185 20171,65.3,62.78,,,,59.89,,SW,29.36,28.45,,Clear
KIGQ,04/19/2017 12:15 UTC,30.01,63.14,60.26,93.84,8.05,230.0,,,,,,1.0,,,,10.0,,KIGQ 191215Z AUTO 23007KT 10SM CLR 17/16 A3001 RMK AO2  T01730157,,,,,,61.32,,SW,29.36,28.38,,Clear
KIGQ,04/19/2017 12:35 UTC,30.01,63.68,60.62,88.11,10.36,230.0,,,,,,1002.0,,,,10.0,,KIGQ 191235Z AUTO 23009KT 10SM SCT100 18/16 A3001 RMK AO2  T01760159,,,,,,60.07,,SW,29.36,28.43,,Partly Cloudy
KIGQ,04/19/2017 12:55 UTC,30.01,63.86,60.8,88.11,9.22,230.0,,,,,,1002.0,,,,10.0,,KIGQ 191255Z AUTO 23008KT 10SM SCT100 18/16 A3001 RMK AO2  T01770160,,,,,,60.25,,SW,29.36,28.42,,Partly Cloudy
KIGQ,04/19/2017 13:15 UTC,30.02,65.48,61.16,82.77,6.91,260.0,,,,,,413.0,,,,10.0,,KIGQ 191315Z AUTO 26006KT 10SM BKN041 19/16 A3002 RMK AO2  T01860162,,,4100.0,,,60.07,,W,29.37,28.42,,Mostly Cloudy
KIGQ,04/19/2017 13:35 UTC,30.03,67.46,61.7,82.89,8.05,260.0,,,,,,432.0,,,,10.0,,KIGQ 191335Z AUTO 26007KT 10SM SCT043 20/17 A3003 RMK AO2  T01970165,,,,,,62.05,,W,29.38,28.3,,Partly Cloudy
KIGQ,04/19/2017 13:55 UTC,30.04,67.1,61.34,77.79,6.91,280.0,,,,,,1002.0,,,,10.0,,KIGQ 191355Z AUTO 28006KT 10SM SCT100 20/16 A3004 RMK AO2  T01950163,,,,,,59.89,,W,29.39,28.43,,Partly Cloudy
KIGQ,04/19/2017 14:15 UTC,30.04,67.46,61.52,77.79,4.61,260.0,,,,,,1003.0,,,,10.0,,KIGQ 191415Z AUTO 26004KT 10SM BKN100 20/16 A3004 RMK AO2  T01970164,,,10000.0,,,60.24,,W,29.39,28.41,,Mostly Cloudy
KIGQ,04/19/2017 14:35 UTC,30.04,67.1,61.52,77.79,4.61,220.0,,,,,,803.0,904.0,,,10.0,,KIGQ 191435Z AUTO 22004KT 10SM BKN080 OVC090 20/16 A3004 RMK AO2  T01950164,,,8000.0,,,59.89,,SW,29.39,28.43,,Overcast
KIGQ,04/19/2017 14:55 UTC,30.05,67.1,61.34,77.79,5.75,240.0,,,,,,803.0,904.0,,,10.0,,KIGQ 191455Z AUTO 24005KT 10SM BKN080 OVC090 20/16 A3005 RMK AO2  T01950163,,,8000.0,,,59.89,,WSW,29.4,28.44,,Overcast
KIGQ,04/19/2017 15:15 UTC,30.04,67.82,61.7,82.89,4.61,250.0,,,1203.0,,,802.0,903.0,,,10.0,,KIGQ 191515Z AUTO 25004KT 10SM SCT080 BKN090 BKN120 20/17  A3004 RMK AO2 T01990165,,,9000.0,,,62.4,,WSW,29.39,28.29,,Mostly Cloudy
KIGQ,04/19/2017 15:35 UTC,30.04,68.9,61.88,77.94,3.44,200.0,,,,,,802.0,1203.0,,,10.0,,KIGQ 191535Z AUTO 20003KT 10SM SCT080 BKN120 21/17 A3004 RMK AO2  T02050166,,,12000.0,,,61.7,,SSW,29.39,28.31,,Mostly Cloudy
KIGQ,04/19/2017 15:55 UTC,30.04,69.8,62.6,77.94,4.61,210.0,,,,,,802.0,,,,10.0,,KIGQ 191555Z AUTO 21004KT 10SM SCT080 21/17 A3004 RMK AO2 LTG DSNT  SW AND W T02100170,,,,,,62.57,,SSW,29.39,28.25,,Partly Cloudy
KIGQ,04/19/2017 16:15 UTC,30.04,70.52,63.14,77.94,4.61,220.0,,,,,,702.0,852.0,,,10.0,,KIGQ 191615Z AUTO 22004KT 10SM SCT070 SCT085 21/17 A3004 RMK AO2  LTG DSNT W AND NW T02140173,,,,,,63.27,,SW,29.39,28.2,,Partly Cloudy
KIGQ,04/19/2017 16:35 UTC,30.04,70.7,62.78,73.32,8.05,250.0,,5.0,853.0,,,412.0,703.0,,,10.0,,KIGQ 191635Z AUTO 25007KT 190V330 10SM VCTS SCT041 BKN070 BKN085  22/17 A3004 RMK AO2 LTG DSNT SW AND W T02150171,,,7000.0,,,61.7,,WSW,29.39,28.29,,Thunder
KIGQ,04/19/2017 16:55 UTC,30.04,69.26,62.42,77.94,6.91,330.0,,5.0,,,,413.0,704.0,,,10.0,,KIGQ 191655Z AUTO 33006KT 10SM VCTS BKN041 OVC070 21/17 A3004 RMK AO2 LTG DSNT S THRU NW T02070169,,,4100.0,,,62.05,,NNW,29.39,28.29,,Thunder
KIGQ,04/19/2017 17:15 UTC,30.06,66.02,62.6,88.2,13.8,280.0,18.41,78.0,414.0,0.05,,202.0,253.0,,,5.0,,KIGQ 191715Z AUTO 28012G16KT 5SM +TSRA SCT020 BKN025 OVC041 19/17  A3006 RMK AO2 LTG DSNT ALQS P0005 T01890170,,,2500.0,,,62.4,,W,29.41,28.33,,Heavy Rain/Thunderstorm
KIGQ,04/19/2017 17:35 UTC,30.07,64.4,63.86,100.0,6.91,330.0,,13.0,474.0,0.16,,212.0,253.0,,,5.0,,KIGQ 191735Z AUTO 33006KT 5SM -RA SCT021 BKN025 OVC047 18/18  A3007 RMK AO2 LTG DSNT NE AND E P0016 T01800177,,,2500.0,,,64.4,,NNW,29.42,28.25,,Light Rain
KIGQ,04/19/2017 17:55 UTC,30.08,57.38,56.48,100.0,5.75,30.0,,31.0,204.0,0.16,,82.0,113.0,0.16,,5.0,,KIGQ 191755Z AUTO 03005KT 5SM BR SCT008 BKN011 OVC020 14/14  A3008 RMK AO2 LTG DSNT E P0016 60016 T01410136 10215 20141,70.7,57.38,1100.0,,,57.38,,NNE,29.43,28.71,,Mist
KIGQ,04/19/2017 18:15 UTC,30.08,56.48,54.5,93.7,10.36,50.0,21.85,,274.0,,,62.0,203.0,,,7.0,,KIGQ 191815Z AUTO 05009G19KT 7SM SCT006 BKN020 OVC027 14/13  A3008 RMK AO2 LTG DSNT E T01360125,,,2000.0,,,54.67,,NE,29.43,28.84,,Overcast
KIGQ,04/19/2017 18:35 UTC,30.08,57.02,53.24,87.75,12.66,50.0,19.57,,1103.0,,,152.0,243.0,,,10.0,,KIGQ 191835Z AUTO 05011G17KT 10SM SCT015 BKN024 BKN110 14/12  A3008 RMK AO2 LTG DSNT E T01390118,,,2400.0,,,53.39,,NE,29.43,28.89,,Mostly Cloudy
KIGQ,04/19/2017 18:55 UTC,30.08,55.76,51.44,87.66,12.66,50.0,23.02,,,,,154.0,,,,10.0,,KIGQ 191855Z AUTO 05011G20KT 10SM OVC015 13/11 A3008 RMK AO2 LTG  DSNT SE AND SW T01320108,,,1500.0,,,52.12,,NE,29.43,28.95,,Overcast
KIGQ,04/19/2017 19:15 UTC,30.09,54.86,50.72,82.01,12.66,30.0,17.27,,,,,154.0,,,,10.0,,KIGQ 191915Z AUTO 03011G15KT 10SM OVC015 13/10 A3009 RMK AO2 LTG  DSNT SW T01270104,,,1500.0,,,49.42,,NNE,29.44,29.07,,Overcast
KIGQ,04/19/2017 19:35 UTC,30.08,52.88,50.36,87.57,11.5,60.0,18.41,13.0,754.0,,,153.0,603.0,,,10.0,,KIGQ 191935Z AUTO 06010G16KT 10SM -RA BKN015 BKN060 OVC075 12/10  A3008 RMK AO2 LTG DSNT S AND SW T01160102,,,1500.0,,,49.25,,ENE,29.43,29.08,,Light Rain
KIGQ,04/19/2017 19:55 UTC,30.07,51.98,49.64,93.55,9.22,40.0,,5.0,1103.0,,,252.0,502.0,,,10.0,,KIGQ 191955Z AUTO 04008KT 10SM VCTS SCT025 SCT050 BKN110 11/10  A3007 RMK AO2 LTG DSNT S T01110098,,,11000.0,,,50.16,,NE,29.42,29.05,,Thunder
KIGQ,04/19/2017 20:15 UTC,30.07,52.7,49.64,87.57,9.22,50.0,,,,,,1102.0,,,,10.0,,KIGQ 192015Z AUTO 05008KT 10SM SCT110 12/10 A3007 RMK AO2  T01150098,,,,,,49.08,,NE,29.42,29.08,,Partly Cloudy
KIGQ,04/19/2017 20:35 UTC,30.09,51.98,48.92,87.48,9.22,20.0,,13.0,1003.0,,,162.0,802.0,,,10.0,,KIGQ 192035Z AUTO 02008KT 10SM -RA SCT016 SCT080 BKN100 11/09  A3009 RMK AO2 T01110094,,,10000.0,,,48.34,,NNE,29.44,29.13,,Light Rain
KIGQ,04/19/2017 20:55 UTC,30.08,50.72,48.38,93.5,10.36,30.0,,13.0,1204.0,,,172.0,803.0,,,10.0,,KIGQ 192055Z AUTO 03009KT 10SM -RA SCT017 BKN080 OVC120 10/09  A3008 RMK AO2 T01040091,,,8000.0,,,48.89,,NNE,29.43,29.12,,Light Rain
KIGQ,04/19/2017 21:15 UTC,30.07,50.36,47.66,93.5,13.8,30.0,18.41,,,,,152.0,1104.0,,,10.0,,KIGQ 192115Z AUTO 03012G16KT 10SM SCT015 OVC110 10/09 A3007 RMK AO2 T01020087,,,11000.0,,,48.54,,NNE,29.42,29.12,,Overcast
KIGQ,04/19/2017 21:35 UTC,30.07,50.18,47.66,93.5,12.66,30.0,16.11,,,,,1103.0,,,,10.0,,KIGQ 192135Z AUTO 03011G14KT 10SM BKN110 10/09 A3007 RMK AO2  T01010087,,,11000.0,,,48.36,,NNE,29.42,29.13,,Mostly Cloudy
KIGQ,04/19/2017 21:55 UTC,30.08,49.1,46.58,87.38,9.22,30.0,,,1203.0,,,602.0,702.0,,,10.0,,KIGQ 192155Z AUTO 03008KT 10SM SCT060 SCT070 BKN120 10/08  A3008 RMK AO2 T00950081,,,12000.0,,,45.47,,NNE,29.43,29.24,,Mostly Cloudy
KIGQ,04/19/2017 22:15 UTC,30.09,50.0,46.94,87.38,10.36,40.0,,,703.0,,,412.0,603.0,,,10.0,,KIGQ 192215Z AUTO 04009KT 10SM SCT041 BKN060 BKN070 10/08  A3009 RMK AO2 T01000083,,,6000.0,,,46.36,,NE,29.44,29.22,,Mostly Cloudy
KIGQ,04/19/2017 22:35 UTC,30.09,51.08,47.48,87.48,10.36,50.0,,,493.0,,,132.0,413.0,,,10.0,,KIGQ 192235Z AUTO 05009KT 10SM SCT013 BKN041 BKN049 11/09  A3009 RMK AO2 T01060086,,,4100.0,,,47.45,,NE,29.44,29.17,,Mostly Cloudy
KIGQ,04/19/2017 22:55 UTC,30.08,52.16,47.66,87.48,10.36,40.0,,,,,,132.0,482.0,,,10.0,,KIGQ 192255Z AUTO 04009KT 10SM SCT013 SCT048 11/09 A3008 RMK AO2  T01120087,,,,,,48.52,,NE,29.43,29.12,,Partly Cloudy
KIGQ,04/19/2017 23:15 UTC,30.08,50.9,46.22,81.75,9.22,50.0,,,,,,133.0,,,,10.0,,KIGQ 192315Z AUTO 05008KT 10SM BKN013 11/08 A3008 RMK AO2  T01050079,,,1300.0,,,45.46,,NE,29.43,29.22,,Mostly Cloudy
KIGQ,04/19/2017 23:35 UTC,30.08,49.1,44.42,81.61,11.5,40.0,,,,,,134.0,,,,10.0,,KIGQ 192335Z AUTO 04010KT 10SM OVC013 10/07 A3008 RMK AO2  T00950069,,,1300.0,,,43.66,,NE,29.43,29.29,,Overcast
KIGQ,04/19/2017 23:55 UTC,30.09,48.38,43.7,87.28,11.5,40.0,,,,,,133.0,,,,10.0,,KIGQ 192355Z AUTO 04010KT 10SM BKN013 09/07 A3009 RMK AO2  T00910065 10141 20091,57.38,48.38,1300.0,,,44.73,,NE,29.44,29.28,,Mostly Cloudy
KIGQ,04/20/2017 00:15 UTC,30.09,48.56,44.42,87.28,8.05,10.0,,,,,,133.0,,,,10.0,,KIGQ 200015Z AUTO 01007KT 10SM BKN013 09/07 A3009 RMK AO2  T00920069,,,1300.0,,,44.91,,N,29.44,29.27,,Mostly Cloudy
KIGQ,04/20/2017 00:35 UTC,30.1,47.3,42.98,81.48,11.5,20.0,,,,,,133.0,,,,10.0,,KIGQ 200035Z AUTO 02010KT 10SM BKN013 09/06 A3010 RMK AO2  T00850061,,,1300.0,,,41.86,,NNE,29.45,29.37,,Mostly Cloudy
KIGQ,04/20/2017 00:55 UTC,30.1,47.3,42.98,81.48,6.91,20.0,16.11,,,,,114.0,,,,10.0,,KIGQ 200055Z AUTO 02006G14KT 10SM OVC011 09/06 A3010 RMK AO2  T00850061,,,1100.0,,,41.86,,NNE,29.45,29.37,,Overcast
KIGQ,04/20/2017 01:15 UTC,30.1,46.4,42.8,87.19,10.36,40.0,,,,,,114.0,,,,10.0,,KIGQ 200115Z AUTO 04009KT 10SM OVC011 08/06 A3010 RMK AO2  T00800060,,,1100.0,,,42.75,,NE,29.45,29.36,,Overcast
KIGQ,04/20/2017 01:35 UTC,30.11,46.58,42.8,87.19,11.5,30.0,17.27,,,,,134.0,,,,10.0,,KIGQ 200135Z AUTO 03010G15KT 10SM OVC013 08/06 A3011 RMK AO2  T00810060,,,1300.0,,,42.93,,NNE,29.46,29.36,,Overcast
KIGQ,04/20/2017 01:55 UTC,30.1,46.22,42.26,87.19,10.36,60.0,,,,,,134.0,,,,10.0,,KIGQ 200155Z AUTO 06009KT 10SM OVC013 08/06 A3010 RMK AO2  T00790057,,,1300.0,,,42.58,,ENE,29.45,29.36,,Overcast
KIGQ,04/20/2017 02:15 UTC,30.09,44.96,41.9,93.35,10.36,50.0,,,,,,133.0,,,,10.0,,KIGQ 200215Z AUTO 05009KT 10SM BKN013 07/06 A3009 RMK AO2  T00720055,,,1300.0,,,43.13,41.42,NE,29.44,29.35,,Mostly Cloudy
KIGQ,04/20/2017 02:35 UTC,30.08,44.06,41.36,87.09,8.05,50.0,,,,,,132.0,,,,10.0,,KIGQ 200235Z AUTO 05007KT 10SM SCT013 07/05 A3008 RMK AO2  T00670052,,,,,,40.42,41.24,NE,29.43,29.42,,Partly Cloudy
KIGQ,04/20/2017 02:55 UTC,30.05,43.7,41.36,87.09,9.22,50.0,,,,,,1.0,,,,10.0,,KIGQ 200255Z AUTO 05008KT 10SM CLR 07/05 A3005 RMK AO2  T00650052,,,,,,40.07,40.33,NE,29.4,29.4,,Clear
KIGQ,04/20/2017 03:15 UTC,30.04,43.7,41.36,87.09,8.05,60.0,,,,,,1.0,,,,10.0,,KIGQ 200315Z AUTO 06007KT 10SM CLR 07/05 A3004 RMK AO2  T00650052,,,,,,40.07,40.82,ENE,29.39,29.39,,Clear
KIGQ,04/20/2017 03:35 UTC,30.02,44.06,41.54,87.09,6.91,80.0,,,,,,1.0,,,,10.0,,KIGQ 200335Z AUTO 08006KT 10SM CLR 07/05 A3002 RMK AO2  T00670053,,,,,,40.42,,E,29.37,29.35,,Clear
KIGQ,04/20/2017 03:55 UTC,30.01,44.24,41.9,93.35,5.75,90.0,,,,,,1.0,,,,10.0,,KIGQ 200355Z AUTO 09005KT 10SM CLR 07/06 A3001 RMK AO2  T00680055,,,,,,42.42,,E,29.36,29.29,,Clear
KIGQ,04/20/2017 04:15 UTC,30.01,44.6,42.08,93.35,3.44,90.0,,,,,,1.0,,,,10.0,,KIGQ 200415Z AUTO 09003KT 10SM CLR 07/06 A3001 RMK AO2  T00700056,,,,,,42.78,,E,29.36,29.28,,Clear
KIGQ,04/20/2017 04:35 UTC,29.99,45.14,42.44,93.35,3.44,80.0,,,,,,1.0,,,,10.0,,KIGQ 200435Z AUTO 08003KT 10SM CLR 07/06 A2999 RMK AO2  T00730058,,,,,,43.31,,E,29.34,29.24,,Clear
KIGQ,04/20/2017 04:55 UTC,29.99,45.5,42.8,87.19,0.0,0.0,,,,,,1.0,,,,10.0,,KIGQ 200455Z AUTO 00000KT 10SM CLR 08/06 A2999 RMK AO2  T00750060,,,,,,41.87,,N,29.34,29.28,,Clear
KIGQ,04/20/2017 05:15 UTC,29.98,45.5,43.52,87.19,0.0,0.0,,,,,,1.0,,,,10.0,,KIGQ 200515Z AUTO 00000KT 10SM CLR 08/06 A2998 RMK AO2  T00750064,,,,,,41.87,,N,29.33,29.27,,Clear
KIGQ,04/20/2017 05:35 UTC,29.99,45.86,43.88,93.4,0.0,0.0,,,,,,752.0,,,,10.0,,KIGQ 200535Z AUTO 00000KT 10SM SCT075 08/07 A2999 RMK AO2  T00770066,,,,,,44.04,,N,29.34,29.22,,Partly Cloudy
KIGQ,04/20/2017 05:55 UTC,29.97,46.4,44.24,93.4,0.0,0.0,,,,,,752.0,,,,10.0,,KIGQ 200555Z AUTO 00000KT 10SM SCT075 08/07 A2997 RMK AO2  T00800068 10092 20065 402150065,48.56,43.7,,70.7,43.7,44.58,,N,29.32,29.18,,Partly Cloudy
KIGQ,04/20/2017 06:15 UTC,29.96,47.3,45.5,93.45,4.61,110.0,,,,,,753.0,,,,10.0,,KIGQ 200615Z AUTO 11004KT 10SM BKN075 09/08 A2996 RMK AO2  T00850075,,,7500.0,,,45.48,,ESE,29.31,29.13,,Mostly Cloudy
KIGQ,04/20/2017 06:35 UTC,29.94,48.2,46.76,93.45,3.44,140.0,,,,,,754.0,,,,10.0,,KIGQ 200635Z AUTO 14003KT 10SM OVC075 09/08 A2994 RMK AO2  T00900082,,,7500.0,,,46.38,,SE,29.29,29.08,,Overcast
KIGQ,04/20/2017 06:55 UTC,29.93,51.26,50.36,93.55,3.44,150.0,,,903.0,,,652.0,703.0,,,10.0,,KIGQ 200655Z AUTO 15003KT 10SM SCT065 BKN070 BKN090 11/10  A2993 RMK AO2 LTG DSNT N AND NE T01070102,,,7000.0,,,49.44,,SSE,29.28,28.94,,Mostly Cloudy
KIGQ,04/20/2017 07:15 UTC,29.92,55.4,55.22,100.0,4.61,160.0,,2485.0,953.0,,,602.0,702.0,,,5.0,,KIGQ 200715Z AUTO 16004KT 5SM VCTS BR SCT060 SCT070 BKN095 13/13  A2992 RMK AO2 LTG DSNT NE AND NW T01300129,,,9500.0,,,55.4,,SSE,29.27,28.66,,Thunder,Mist
KIGQ,04/20/2017 07:35 UTC,29.92,57.74,56.84,100.0,6.91,170.0,,,,,,702.0,853.0,,,7.0,,KIGQ 200735Z AUTO 17006KT 7SM SCT070 BKN085 14/14 A2992 RMK AO2  LTG DSNT NW THRU E T01430138,,,8500.0,,,57.74,,S,29.27,28.53,,Mostly Cloudy
KIGQ,04/20/2017 07:55 UTC,29.91,59.18,58.1,100.0,8.05,170.0,,,,,,702.0,853.0,,,7.0,,KIGQ 200755Z AUTO 17007KT 7SM SCT070 BKN085 15/15 A2991 RMK AO2  LTG DSNT NE T01510145,,,8500.0,,,59.18,,S,29.26,28.43,,Mostly Cloudy
KIGQ,04/20/2017 08:15 UTC,29.9,60.62,59.0,93.8,10.36,170.0,,,,,,702.0,852.0,,,7.0,,KIGQ 200815Z AUTO 17009KT 7SM SCT070 SCT085 16/15 A2990 RMK AO2  LTG DSNT NE AND E T01590150,,,,,,58.81,,S,29.25,28.42,,Partly Cloudy
KIGQ,04/20/2017 08:35 UTC,29.89,60.98,59.18,93.8,11.5,180.0,,,,,,702.0,,,,7.0,,KIGQ 200835Z AUTO 18010KT 7SM SCT070 16/15 A2989 RMK AO2 LTG DSNT  N THRU E T01610151,,,,,,59.17,,S,29.24,28.39,,Partly Cloudy
KIGQ,04/20/2017 08:55 UTC,29.88,60.62,59.0,93.8,10.36,190.0,17.27,,,,,1.0,,,,7.0,,KIGQ 200855Z AUTO 19009G15KT 7SM CLR 16/15 A2988 RMK AO2 LTG DSNT  N AND E T01590150,,,,,,58.81,,S,29.23,28.4,,Clear
KIGQ,04/20/2017 09:15 UTC,29.88,61.7,59.9,93.84,12.66,210.0,17.27,,,,,1.0,,,,10.0,,KIGQ 200915Z AUTO 21011G15KT 10SM CLR 17/16 A2988 RMK AO2  T01650155,,,,,,59.89,,SSW,29.23,28.34,,Clear
KIGQ,04/20/2017 09:35 UTC,29.88,62.24,60.08,93.84,10.36,220.0,,,,,,802.0,,,,10.0,,KIGQ 200935Z AUTO 22009KT 10SM SCT080 17/16 A2988 RMK AO2  T01680156,,,,,,60.43,,SW,29.23,28.3,,Partly Cloudy
KIGQ,04/20/2017 09:55 UTC,29.88,62.6,60.8,93.84,8.05,210.0,,5.0,,,,802.0,,,,10.0,,KIGQ 200955Z AUTO 21007KT 10SM VCTS SCT080 17/16 A2988,,,,,,60.79,,SSW,29.23,28.28,,Thunder
KIGQ,04/20/2017 10:15 UTC,29.87,62.78,60.8,93.84,6.91,210.0,,,,,,602.0,803.0,,,10.0,,KIGQ 201015Z AUTO 21006KT 10SM SCT060 BKN080 17/16 A2987 RMK AO2  T01710160,,,8000.0,,,60.96,,SSW,29.22,28.26,,Mostly Cloudy
KIGQ,04/20/2017 10:35 UTC,29.88,63.5,60.98,88.11,3.44,320.0,,,,,,603.0,803.0,,,10.0,,KIGQ 201035Z AUTO 32003KT 10SM BKN060 BKN080 18/16 A2988 RMK AO2  LTG DSNT E T01750161,,,6000.0,,,59.89,,NW,29.23,28.31,,Mostly Cloudy
KIGQ,04/20/2017 10:55 UTC,29.87,62.96,60.8,93.84,0.0,0.0,,,904.0,,,603.0,703.0,,,10.0,,KIGQ 201055Z AUTO 00000KT 10SM BKN060 BKN070 OVC090 17/16  A2987 RMK AO2 T01720160,,,6000.0,,,61.14,,N,29.22,28.24,,Overcast
KIGQ,04/20/2017 11:15 UTC,29.86,61.7,60.62,93.84,4.61,140.0,,,903.0,,,602.0,703.0,,,10.0,,KIGQ 201115Z AUTO 14004KT 10SM SCT060 BKN070 BKN090 17/16  A2986 RMK AO2 T01650159,,,7000.0,,,59.89,,SE,29.21,28.32,,Mostly Cloudy
KIGQ,04/20/2017 11:35 UTC,29.86,62.6,60.98,93.84,0.0,0.0,,,,,,702.0,,,,10.0,,KIGQ 201135Z AUTO 00000KT 10SM SCT070 17/16 A2986 RMK AO2 LTG DSNT  E T01700161,,,,,,60.79,,N,29.21,28.26,,Partly Cloudy
KIGQ,04/20/2017 11:55 UTC,29.85,61.88,60.44,93.84,6.91,220.0,,,,,,1.0,,,0.16,10.0,,KIGQ 201155Z AUTO 22006KT 10SM CLR 17/16 A2985 RMK AO2 70016  T01660158 10175 20081,63.5,46.58,,,,60.07,,SW,29.2,28.29,,Clear
KIGQ,04/20/2017 12:15 UTC,29.85,66.38,62.6,88.2,11.5,210.0,,,,,,1.0,,,,10.0,,KIGQ 201215Z AUTO 21010KT 10SM CLR 19/17 A2985 RMK AO2 LTG DSNT NE  T01910170,,,,,,62.76,,SSW,29.2,28.09,,Clear
KIGQ,04/20/2017 12:35 UTC,29.85,66.56,62.78,88.2,12.66,210.0,,,,,,1.0,,,,10.0,,KIGQ 201235Z AUTO 21011KT 10SM CLR 19/17 A2985 RMK AO2  T01920171,,,,,,62.94,,SSW,29.2,28.08,,Clear
KIGQ,04/20/2017 12:55 UTC,29.84,67.1,63.14,82.89,13.8,210.0,,,,,,1.0,,,,10.0,,KIGQ 201255Z AUTO 21012KT 10SM CLR 20/17 A2984 RMK AO2  T01950173,,,,,,61.69,,SSW,29.19,28.13,,Clear
KIGQ,04/20/2017 13:15 UTC,29.85,68.54,64.04,88.29,11.5,220.0,17.27,,,,,1.0,,,,10.0,,KIGQ 201315Z AUTO 22010G15KT 10SM CLR 20/18 A2985 RMK AO2  T02030178,,,,,,64.92,,SW,29.2,27.93,,Clear
KIGQ,04/20/2017 13:35 UTC,29.85,70.16,64.4,83.01,16.11,220.0,23.02,,,,,1.0,,,,10.0,,KIGQ 201335Z AUTO 22014G20KT 10SM CLR 21/18 A2985 RMK AO2  T02120180,,,,,,64.73,,SW,29.2,27.92,,Clear
KIGQ,04/20/2017 13:55 UTC,29.85,69.98,63.86,83.01,17.27,230.0,26.46,,,,,1.0,,,,10.0,,KIGQ 201355Z AUTO 23015G23KT 10SM CLR 21/18 A2985 RMK AO2  T02110177,,,,,,64.56,,SW,29.2,27.94,,Clear
KIGQ,04/20/2017 14:15 UTC,29.85,71.6,64.4,78.09,16.11,220.0,25.32,,,,,473.0,,,,10.0,,KIGQ 201415Z AUTO 22014G22KT 10SM BKN047 22/18 A2985 RMK AO2  T02200180,,,4700.0,,,64.38,,SW,29.2,27.93,,Mostly Cloudy
KIGQ,04/20/2017 14:35 UTC,29.84,71.06,64.04,78.09,11.5,230.0,,,,,,442.0,504.0,,,10.0,,KIGQ 201435Z AUTO 23010KT 10SM SCT044 OVC050 22/18 A2984 RMK AO2  T02170178,,,5000.0,,,63.85,,SW,29.19,27.96,,Overcast
KIGQ,04/20/2017 14:55 UTC,29.83,73.58,65.12,73.5,17.27,240.0,26.46,,,,,502.0,652.0,,,10.0,,KIGQ 201455Z AUTO 24015G23KT 10SM SCT050 SCT065 23/18 A2983 RMK AO2 T02310184,,,,,,64.56,,WSW,29.18,27.87,,Partly Cloudy
KIGQ,04/20/2017 15:15 UTC,29.84,73.4,64.76,73.5,14.97,240.0,28.77,,,,,312.0,653.0,,,10.0,,KIGQ 201515Z AUTO 24013G25KT 10SM SCT031 BKN065 23/18 A2984 RMK AO2 LTG DSNT NE T02300182,,,6500.0,,,64.38,,WSW,29.19,27.9,,Mostly Cloudy
KIGQ,04/20/2017 15:35 UTC,29.84,73.04,64.58,73.5,14.97,240.0,26.46,,,,,314.0,,,,10.0,,KIGQ 201535Z AUTO 24013G23KT 10SM OVC031 23/18 A2984 RMK AO2 LTG  DSNT NE AND W T02280181,,,3100.0,,,64.03,,WSW,29.19,27.92,,Overcast
KIGQ,04/20/2017 15:55 UTC,29.83,73.4,64.58,73.5,13.8,260.0,25.32,,554.0,,,333.0,413.0,,,10.0,,KIGQ 201555Z AUTO 26012G22KT 10SM BKN033 BKN041 OVC055 23/18  A2983 RMK AO2 LTG DSNT NE T02300181,,,3300.0,,,64.38,,W,29.18,27.89,,Overcast
KIGQ,04/20/2017 16:15 UTC,29.83,73.04,64.58,73.5,17.27,250.0,26.46,13.0,804.0,,,332.0,403.0,,,10.0,,KIGQ 201615Z AUTO 25015G23KT 10SM -RA SCT033 BKN040 OVC080 23/18  A2983 RMK AO2 LTG DSNT NE T02280181,,,4000.0,,,64.03,,WSW,29.18,27.91,,Light Rain
KIGQ,04/20/2017 16:35 UTC,29.84,72.5,64.4,73.5,18.41,250.0,26.46,,904.0,,,302.0,383.0,,,10.0,,KIGQ 201635Z AUTO 25016G23KT 10SM SCT030 BKN038 OVC090 23/18  A2984 RMK AO2 LTG DSNT NE AND S T02250180,,,3800.0,,,63.51,,WSW,29.19,27.96,,Overcast
KIGQ,04/20/2017 16:55 UTC,29.84,71.96,64.4,78.09,21.85,250.0,35.68,13.0,1104.0,,,302.0,393.0,,,10.0,,KIGQ 201655Z AUTO 25019G31KT 10SM -RA SCT030 BKN039 OVC110 22/18  A2984 RMK AO2 LTG DSNT E AND SE T02220180,,,3900.0,,,64.73,,WSW,29.19,27.89,,Light Rain
KIGQ,04/20/2017 17:15 UTC,29.82,70.7,64.4,78.09,20.71,260.0,31.07,,1103.0,,,302.0,382.0,,,10.0,,KIGQ 201715Z AUTO 26018G27KT 10SM -VCTSRA SCT030 SCT038 BKN110  22/18 A2982 RMK AO2 LTG DSNT E T02150180,,,11000.0,,,63.5,,W,29.17,27.96,,Mostly Cloudy
KIGQ,04/20/2017 17:35 UTC,29.8,70.16,65.12,83.01,21.85,260.0,31.07,13.0,653.0,,,282.0,442.0,,,10.0,,KIGQ 201735Z AUTO 26019G27KT 10SM -RA SCT028 SCT044 BKN065 21/18  A2980 RMK AO2 LTG DSNT E T02120184,,,6500.0,,,64.73,,W,29.15,27.87,,Light Rain
KIGQ,04/20/2017 17:55 UTC,29.81,70.88,65.12,78.09,24.16,260.0,32.21,,602.0,,,182.0,362.0,,,10.0,,KIGQ 201755Z AUTO 26021G28KT 10SM SCT018 SCT036 SCT060 22/18  A2981 RMK AO2 LTG DSNT E T02160184 10233 20173,73.94,63.14,,,,63.68,,W,29.16,27.94,,Partly Cloudy
KIGQ,04/20/2017 18:15 UTC,29.8,71.06,64.4,78.09,24.16,270.0,32.21,,,,,182.0,1102.0,,,10.0,,KIGQ 201815Z AUTO 27021G28KT 10SM SCT018 SCT110 22/18 A2980 RMK AO2 LTG DSNT E AND SE T02170180,,,,,,63.85,,W,29.15,27.92,,Partly Cloudy
KIGQ,04/20/2017 18:35 UTC,29.81,71.96,64.22,78.09,24.16,260.0,31.07,,,,,223.0,1103.0,,,10.0,,KIGQ 201835Z AUTO 26021G27KT 10SM BKN022 BKN110 22/18 A2981 RMK AO2 LTG DSNT NE AND SE T02220179,,,2200.0,,,64.73,,W,29.16,27.86,,Mostly Cloudy
KIGQ,04/20/2017 18:55 UTC,29.83,69.44,61.7,77.94,23.02,280.0,33.38,,,,,224.0,,,,10.0,,KIGQ 201855Z AUTO 28020G29KT 10SM OVC022 21/17 A2983 RMK AO2  T02080165,,,2200.0,,,62.22,,W,29.18,28.06,,Overcast
KIGQ,04/20/2017 19:15 UTC,29.84,67.28,59.0,72.97,23.02,290.0,34.52,,,,,223.0,303.0,,,10.0,,KIGQ 201915Z AUTO 29020G30KT 10SM BKN022 BKN030 20/15 A2984 RMK AO2 LTG DSNT SW T01960150,,,2200.0,,,58.27,,WNW,29.19,28.31,,Mostly Cloudy
KIGQ,04/20/2017 19:35 UTC,29.84,66.74,58.28,77.64,21.85,270.0,28.77,,,,,242.0,302.0,,,10.0,,KIGQ 201935Z AUTO 27019G25KT 10SM SCT024 SCT030 19/15 A2984 RMK AO2 T01930146,,,,,,59.49,,W,29.19,28.25,,Partly Cloudy
KIGQ,04/20/2017 19:55 UTC,29.83,68.0,56.3,68.41,23.02,270.0,31.07,,,,,603.0,,,,10.0,,KIGQ 201955Z AUTO 27020G27KT 10SM BKN060 20/14 A2983 RMK AO2  T02000135,,,6000.0,,,57.15,,W,29.18,28.35,,Mostly Cloudy
KIGQ,04/20/2017 20:15 UTC,29.83,68.18,54.32,60.03,17.27,270.0,32.21,,,,,603.0,,,,10.0,,KIGQ 202015Z AUTO 27015G28KT 10SM BKN060 20/12 A2983 RMK AO2 LTG  DSNT SE T02010124,,,6000.0,,,53.71,,W,29.18,28.51,,Mostly Cloudy
KIGQ,04/20/2017 20:35 UTC,29.83,67.82,55.22,64.1,19.57,280.0,26.46,,,,,1.0,,,,10.0,,KIGQ 202035Z AUTO 28017G23KT 10SM CLR 20/13 A2983 RMK AO2  T01990129,,,,,,55.18,,W,29.18,28.44,,Clear
KIGQ,04/20/2017 20:55 UTC,29.82,67.1,54.68,64.1,17.27,280.0,25.32,,,,,1.0,,,,10.0,,KIGQ 202055Z AUTO 28015G22KT 10SM CLR 20/13 A2982 RMK AO2  T01950126,,,,,,54.49,,W,29.17,28.47,,Clear
KIGQ,04/20/2017 21:15 UTC,29.83,66.02,53.6,63.87,18.41,280.0,26.46,,,,,1.0,,,,10.0,,KIGQ 202115Z AUTO 28016G23KT 10SM CLR 19/12 A2983 RMK AO2  T01890120,,,,,,53.36,,W,29.18,28.54,,Clear
KIGQ,04/20/2017 21:35 UTC,29.83,66.38,53.78,63.87,20.71,290.0,31.07,,,,,1.0,,,,10.0,,KIGQ 202135Z AUTO 29018G27KT 10SM CLR 19/12 A2983 RMK AO2  T01910121,,,,,,53.71,,WNW,29.18,28.52,,Clear
KIGQ,04/20/2017 21:55 UTC,29.83,64.4,51.8,63.64,18.41,290.0,26.46,,,,,1.0,,,,10.0,,KIGQ 202155Z AUTO 29016G23KT 10SM CLR 18/11 A2983 RMK AO2  T01800110,,,,,,51.73,,WNW,29.18,28.63,,Clear
KIGQ,04/20/2017 22:15 UTC,29.85,63.86,51.62,63.64,19.57,280.0,31.07,,,,,1.0,,,,10.0,,KIGQ 202215Z AUTO 28017G27KT 10SM CLR 18/11 A2985 RMK AO2  T01770109,,,,,,51.21,,W,29.2,28.67,,Clear
KIGQ,04/20/2017 22:35 UTC,29.85,62.96,51.26,67.79,16.11,270.0,27.63,,,,,1.0,,,,10.0,,KIGQ 202235Z AUTO 27014G24KT 10SM CLR 17/11 A2985 RMK AO2  T01720107,,,,,,52.08,,W,29.2,28.65,,Clear
KIGQ,04/20/2017 22:55 UTC,29.86,62.24,50.72,63.42,17.27,270.0,21.85,,,,,342.0,,,,10.0,,KIGQ 202255Z AUTO 27015G19KT 10SM SCT034 17/10 A2986 RMK AO2  T01680104,,,,,,49.58,,W,29.21,28.76,,Partly Cloudy
KIGQ,04/20/2017 23:15 UTC,29.87,61.16,49.64,67.57,12.66,290.0,26.46,,,,,1.0,,,,10.0,,KIGQ 202315Z AUTO 29011G23KT 10SM CLR 16/10 A2987 RMK AO2  T01620098,,,,,,50.26,,WNW,29.22,28.75,,Clear
KIGQ,04/20/2017 23:35 UTC,29.87,59.9,48.38,63.18,14.97,290.0,23.02,,,,,1.0,,,,10.0,,KIGQ 202335Z AUTO 29013G20KT 10SM CLR 16/09 A2987 RMK AO2  T01550091,,,,,,47.25,,WNW,29.22,28.87,,Clear
KIGQ,04/20/2017 23:55 UTC,29.88,58.28,47.48,67.36,17.27,290.0,28.77,,,,,352.0,,,,10.0,,KIGQ 202355Z AUTO 29015G25KT 10SM SCT035 15/09 A2988 RMK AO2  T01460086 10223 20146,72.14,58.28,,,,47.43,,WNW,29.23,28.89,,Partly Cloudy
KIGQ,04/21/2017 00:15 UTC,29.89,57.38,46.76,67.15,11.5,290.0,21.85,,,,,353.0,,,,10.0,,KIGQ 210015Z AUTO 29010G19KT 10SM BKN035 14/08 A2989 RMK AO2  T01410082,,,3500.0,,,46.48,,WNW,29.24,28.94,,Mostly Cloudy
KIGQ,04/21/2017 00:35 UTC,29.91,57.56,46.58,67.15,10.36,290.0,,,,,,354.0,,,,10.0,,KIGQ 210035Z AUTO 29009KT 10SM OVC035 14/08 A2991 RMK AO2  T01420081,,,3500.0,,,46.65,,WNW,29.26,28.95,,Overcast
KIGQ,04/21/2017 00:55 UTC,29.91,57.38,46.4,67.15,11.5,300.0,17.27,,,,,354.0,,,,10.0,,KIGQ 210055Z AUTO 30010G15KT 10SM OVC035 14/08 A2991 RMK AO2  T01410080,,,3500.0,,,46.48,,WNW,29.26,28.96,,Overcast
KIGQ,04/21/2017 01:15 UTC,29.91,57.2,45.68,67.15,12.66,290.0,28.77,,,,,374.0,,,,10.0,,KIGQ 210115Z AUTO 29011G25KT 10SM OVC037 14/08 A2991 RMK AO2  T01400076,,,3700.0,,,46.31,,WNW,29.26,28.97,,Overcast
KIGQ,04/21/2017 01:35 UTC,29.92,56.48,44.06,62.72,16.11,280.0,28.77,,,,,393.0,,,,10.0,,KIGQ 210135Z AUTO 28014G25KT 10SM BKN039 14/07 A2992 RMK AO2  T01360067,,,3900.0,,,43.81,,W,29.27,29.06,,Mostly Cloudy
KIGQ,04/21/2017 01:55 UTC,29.94,55.04,44.06,66.93,12.66,300.0,19.57,,,,,392.0,,,,10.0,,KIGQ 210155Z AUTO 30011G17KT 10SM SCT039 13/07 A2994 RMK AO2  T01280067,,,,,,44.16,,WNW,29.29,29.08,,Partly Cloudy
KIGQ,04/21/2017 02:15 UTC,29.94,55.58,44.42,66.93,13.8,290.0,17.27,,,,,393.0,,,,10.0,,KIGQ 210215Z AUTO 29012G15KT 10SM BKN039 13/07 A2994 RMK AO2  T01310069,,,3900.0,,,44.67,,WNW,29.29,29.06,,Mostly Cloudy
KIGQ,04/21/2017 02:35 UTC,29.95,55.4,43.88,66.93,11.5,300.0,18.41,,,,,394.0,,,,10.0,,KIGQ 210235Z AUTO 30010G16KT 260V320 10SM OVC039 13/07 A2995 RMK AO2 T01300066,,,3900.0,,,44.5,,WNW,29.3,29.08,,Overcast
KIGQ,04/21/2017 02:55 UTC,29.95,55.4,43.7,66.93,11.5,280.0,25.32,,,,,374.0,,,,10.0,,KIGQ 210255Z AUTO 28010G22KT 10SM OVC037 13/07 A2995 RMK AO2  T01300065,,,3700.0,,,44.5,,W,29.3,29.08,,Overcast
KIGQ,04/21/2017 03:15 UTC,29.96,54.5,42.98,62.48,16.11,290.0,21.85,,,,,374.0,,,,10.0,,KIGQ 210315Z AUTO 29014G19KT 10SM OVC037 13/06 A2996 RMK AO2  T01250061,,,3700.0,,,41.83,,WNW,29.31,29.17,,Overcast
KIGQ,04/21/2017 03:35 UTC,29.96,53.78,42.8,66.71,11.5,290.0,16.11,,,,,374.0,,,,10.0,,KIGQ 210335Z AUTO 29010G14KT 10SM OVC037 12/06 A2996 RMK AO2  T01210060,,,3700.0,,,42.87,,WNW,29.31,29.15,,Overcast
KIGQ,04/21/2017 03:55 UTC,29.96,53.24,42.8,66.71,8.05,300.0,20.71,,,,,374.0,,,,10.0,,KIGQ 210355Z AUTO 30007G18KT 10SM OVC037 12/06 A2996 RMK AO2  T01180060,,,3700.0,,,42.35,,WNW,29.31,29.17,,Overcast
KIGQ,04/21/2017 04:15 UTC,29.97,53.24,42.98,66.71,13.8,310.0,24.16,,,,,354.0,,,,10.0,,KIGQ 210415Z AUTO 31012G21KT 10SM OVC035 12/06 A2997 RMK AO2  T01180061,,,3500.0,,,42.35,,NW,29.32,29.18,,Overcast
KIGQ,04/21/2017 04:35 UTC,29.97,52.34,41.9,71.27,17.27,280.0,,,,,,354.0,,,,10.0,,KIGQ 210435Z AUTO 28015KT 10SM OVC035 11/06 A2997 RMK AO2  T01130055,,,3500.0,,,43.22,,W,29.32,29.16,,Overcast
KIGQ,04/21/2017 04:55 UTC,29.97,51.98,41.54,66.49,14.97,280.0,21.85,,,,,354.0,,,,10.0,,KIGQ 210455Z AUTO 28013G19KT 10SM OVC035 11/05 A2997 RMK AO2  T01110053,,,3500.0,,,41.06,,W,29.32,29.22,,Overcast
KIGQ,04/21/2017 05:15 UTC,29.98,51.62,41.54,66.49,14.97,280.0,21.85,,,,,354.0,,,,10.0,,KIGQ 210515Z AUTO 28013G19KT 10SM OVC035 11/05 A2998 RMK AO2  T01090053,,,3500.0,,,40.72,,W,29.33,29.24,,Overcast
KIGQ,04/21/2017 05:35 UTC,29.98,51.26,41.72,66.49,8.05,280.0,18.41,,,,,334.0,,,,10.0,,KIGQ 210535Z AUTO 28007G16KT 10SM OVC033 11/05 A2998 RMK AO2  T01070054,,,3300.0,,,40.37,,W,29.33,29.26,,Overcast
KIGQ,04/21/2017 05:55 UTC,29.98,51.08,41.72,66.49,10.36,290.0,17.27,,,,,334.0,,,,10.0,,KIGQ 210555Z AUTO 29009G15KT 10SM OVC033 11/05 A2998 RMK AO2  T01060054 10145 20106 402330081,58.1,51.08,3300.0,73.94,46.58,40.2,,WNW,29.33,29.26,,Overcast
KIGQ,04/21/2017 06:15 UTC,29.99,50.54,41.0,71.08,17.27,280.0,23.02,,,,,314.0,,,,10.0,,KIGQ 210615Z AUTO 28015G20KT 10SM OVC031 10/05 A2999 RMK AO2  T01030050,,,3100.0,,,41.42,,W,29.34,29.25,,Overcast
KIGQ,04/21/2017 06:35 UTC,29.99,50.18,41.36,71.08,14.97,290.0,23.02,,,,,314.0,,,,10.0,,KIGQ 210635Z AUTO 29013G20KT 10SM OVC031 10/05 A2999 RMK AO2  T01010052,,,3100.0,,,41.08,,WNW,29.34,29.26,,Overcast
KIGQ,04/21/2017 06:55 UTC,29.98,50.0,41.0,71.08,13.8,290.0,18.41,,,,,314.0,,,,10.0,,KIGQ 210655Z AUTO 29012G16KT 10SM OVC031 10/05 A2998 RMK AO2  T01000050,,,3100.0,,,40.9,,WNW,29.33,29.25,,Overcast
KIGQ,04/21/2017 07:15 UTC,29.98,50.0,41.18,71.08,11.5,300.0,,,,,,314.0,,,,10.0,,KIGQ 210715Z AUTO 30010KT 10SM OVC031 10/05 A2998 RMK AO2  T01000051,,,3100.0,,,40.9,,WNW,29.33,29.25,,Overcast
KIGQ,04/21/2017 07:35 UTC,29.97,50.0,41.36,71.08,6.91,290.0,19.57,,,,,314.0,,,,10.0,,KIGQ 210735Z AUTO 29006G17KT 10SM OVC031 10/05 A2997 RMK AO2  T01000052,,,3100.0,,,40.9,,WNW,29.32,29.24,,Overcast
KIGQ,04/21/2017 07:55 UTC,29.97,50.0,41.54,71.08,10.36,300.0,,,,,,314.0,,,,10.0,,KIGQ 210755Z AUTO 30009KT 10SM OVC031 10/05 A2997 RMK AO2  T01000053,,,3100.0,,,40.9,,WNW,29.32,29.24,,Overcast
KIGQ,04/21/2017 08:15 UTC,29.97,50.0,41.9,76.18,10.36,280.0,,,,,,294.0,,,,10.0,,KIGQ 210815Z AUTO 28009KT 10SM OVC029 10/06 A2997 RMK AO2  T01000055,,,2900.0,,,42.72,,W,29.32,29.2,,Overcast
KIGQ,04/21/2017 08:35 UTC,29.97,50.0,41.18,71.08,13.8,290.0,18.41,,,,,294.0,,,,10.0,,KIGQ 210835Z AUTO 29012G16KT 10SM OVC029 10/05 A2997 RMK AO2  T01000051,,,2900.0,,,40.9,,WNW,29.32,29.24,,Overcast
KIGQ,04/21/2017 08:55 UTC,29.97,49.46,40.28,71.08,14.97,290.0,,,,,,324.0,,,,10.0,,KIGQ 210855Z AUTO 29013KT 10SM OVC032 10/05 A2997 RMK AO2 LTG DSNT  SW T00970046,,,3200.0,,,40.38,,WNW,29.32,29.26,,Overcast
KIGQ,04/21/2017 09:15 UTC,29.97,49.28,40.28,71.08,12.66,290.0,19.57,,,,,324.0,,,,10.0,,KIGQ 210915Z AUTO 29011G17KT 10SM OVC032 10/05 A2997 RMK AO2  T00960046,,,3200.0,,,40.21,,WNW,29.32,29.27,,Overcast
KIGQ,04/21/2017 09:35 UTC,29.97,49.1,40.1,71.08,11.5,290.0,18.41,,,,,304.0,,,,10.0,,KIGQ 210935Z AUTO 29010G16KT 10SM OVC030 10/05 A2997 RMK AO2  T00950045,,,3000.0,,,40.04,,WNW,29.32,29.27,,Overcast
KIGQ,04/21/2017 09:55 UTC,29.97,48.56,39.92,70.88,10.36,290.0,,,,,,304.0,,,,10.0,,KIGQ 210955Z AUTO 29009KT 10SM OVC030 09/04 A2997 RMK AO2  T00920044,,,3000.0,,,39.44,,WNW,29.32,29.29,,Overcast
KIGQ,04/21/2017 10:15 UTC,29.98,48.2,39.38,70.88,10.36,300.0,,,,,,304.0,,,,10.0,,KIGQ 211015Z AUTO 30009KT 10SM OVC030 09/04 A2998 RMK AO2  T00900041,,,3000.0,,,39.1,,WNW,29.33,29.31,,Overcast
KIGQ,04/21/2017 10:35 UTC,29.99,47.3,38.84,70.88,8.05,310.0,,,,,,303.0,,,,10.0,,KIGQ 211035Z AUTO 31007KT 10SM BKN030 09/04 A2999 RMK AO2  T00850038,,,3000.0,,,38.23,,NW,29.34,29.35,,Mostly Cloudy
KIGQ,04/21/2017 10:55 UTC,29.99,46.22,37.58,70.68,5.75,310.0,,,,,,302.0,,,,10.0,,KIGQ 211055Z AUTO 31005KT 10SM SCT030 08/03 A2999 RMK AO2  T00790031,,,,,,37.12,,NW,29.34,29.38,,Partly Cloudy
KIGQ,04/21/2017 11:15 UTC,30.01,45.86,37.4,70.68,6.91,300.0,,,,,,1.0,,,,10.0,,KIGQ 211115Z AUTO 30006KT 10SM CLR 08/03 A3001 RMK AO2  T00770030,,,,,,36.77,,WNW,29.36,29.41,,Clear
KIGQ,04/21/2017 11:35 UTC,30.01,45.5,37.4,70.68,6.91,310.0,,,,,,1.0,,,,10.0,,KIGQ 211135Z AUTO 31006KT 10SM CLR 08/03 A3001 RMK AO2  T00750030,,,,,,36.43,,NW,29.36,29.42,,Clear
KIGQ,04/21/2017 11:55 UTC,30.02,46.4,37.76,70.68,4.61,300.0,,,,,,1.0,,,,10.0,,KIGQ 211155Z AUTO 30004KT 10SM CLR 08/03 A3002 RMK AO2 T00800032  10106 20075,51.08,45.5,,,,37.29,,WNW,29.37,29.41,,Clear
KIGQ,04/21/2017 12:15 UTC,30.03,46.4,38.12,70.68,6.91,340.0,,,,,,1.0,,,,10.0,,KIGQ 211215Z AUTO 34006KT 10SM CLR 08/03 A3003 RMK AO2  T00800034,,,,,,37.29,,NNW,29.38,29.42,,Clear
KIGQ,04/21/2017 12:35 UTC,30.04,46.94,37.04,70.68,11.5,330.0,17.27,,,,,302.0,,,,10.0,,KIGQ 211235Z AUTO 33010G15KT 10SM SCT030 08/03 A3004 RMK AO2  T00830028,,,,,,37.81,,NNW,29.39,29.41,,Partly Cloudy
KIGQ,04/21/2017 12:55 UTC,30.05,46.4,37.04,70.68,10.36,340.0,,,,,,1.0,,,,10.0,,KIGQ 211255Z AUTO 34009KT 10SM CLR 08/03 A3005 RMK AO2  T00800028,,,,,,37.29,,NNW,29.4,29.44,,Clear
KIGQ,04/21/2017 13:15 UTC,30.05,46.58,36.68,70.68,10.36,350.0,,,,,,1.0,,,,10.0,,KIGQ 211315Z AUTO 35009KT 10SM CLR 08/03 A3005 RMK AO2  T00810026,,,,,,37.47,,N,29.4,29.43,,Clear
KIGQ,04/21/2017 13:35 UTC,30.05,46.94,37.04,70.68,8.05,350.0,17.27,,,,,1.0,,,,10.0,,KIGQ 211335Z AUTO 35007G15KT 320V020 10SM CLR 08/03 A3005 RMK AO2  T00830028,,,,,,37.81,,N,29.4,29.42,,Clear
KIGQ,04/21/2017 13:55 UTC,30.06,46.76,36.32,65.82,5.75,350.0,,,,,,312.0,,,,10.0,,KIGQ 211355Z AUTO 35005KT 10SM SCT031 08/02 A3006 RMK AO2  T00820024,,,,,,35.81,,N,29.41,29.47,,Partly Cloudy
KIGQ,04/21/2017 14:15 UTC,30.07,47.12,38.84,75.84,10.36,30.0,,,,,,294.0,,,,10.0,,KIGQ 211415Z AUTO 03009KT 10SM OVC029 08/04 A3007 RMK AO2  T00840038,,,2900.0,,,39.81,,NNE,29.42,29.39,,Overcast
KIGQ,04/21/2017 14:35 UTC,30.08,47.3,38.66,70.88,9.22,30.0,,,,,,272.0,,,,10.0,,KIGQ 211435Z AUTO 03008KT 10SM SCT027 09/04 A3008 RMK AO2  T00850037,,,,,,38.23,,NNE,29.43,29.44,,Partly Cloudy
KIGQ,04/21/2017 14:55 UTC,30.09,47.12,38.3,75.84,10.36,10.0,,,,,,1.0,,,,10.0,,KIGQ 211455Z AUTO 01009KT 10SM CLR 08/04 A3009 RMK AO2  T00840035,,,,,,39.81,,N,29.44,29.41,,Clear
KIGQ,04/21/2017 15:15 UTC,30.1,47.66,38.12,66.05,12.66,20.0,16.11,,,,,1.0,,,,10.0,,KIGQ 211515Z AUTO 02011G14KT 10SM CLR 09/03 A3010 RMK AO2  T00870034,,,,,,36.76,,NNE,29.45,29.49,,Clear
KIGQ,04/21/2017 15:35 UTC,30.1,48.74,37.4,66.05,11.5,20.0,17.27,,,,,1.0,,,,10.0,,KIGQ 211535Z AUTO 02010G15KT 10SM CLR 09/03 A3010 RMK AO2  T00930030,,,,,,37.79,,NNE,29.45,29.46,,Clear
KIGQ,04/21/2017 15:55 UTC,30.11,47.3,35.96,61.51,12.66,40.0,,,,,,1.0,,,,10.0,,KIGQ 211555Z AUTO 04011KT 10SM CLR 09/02 A3011 RMK AO2  T00850022,,,,,,34.61,,NE,29.46,29.55,,Clear
KIGQ,04/21/2017 16:15 UTC,30.11,48.02,36.86,66.05,13.8,30.0,,,,,,1.0,,,,10.0,,KIGQ 211615Z AUTO 03012KT 10SM CLR 09/03 A3011 RMK AO2  T00890027,,,,,,37.11,,NNE,29.46,29.49,,Clear
KIGQ,04/21/2017 16:35 UTC,30.11,48.02,36.14,61.51,11.5,20.0,,,,,,1.0,,,,10.0,,KIGQ 211635Z AUTO 02010KT 10SM CLR 09/02 A3011 RMK AO2  T00890023,,,,,,35.29,,NNE,29.46,29.53,,Clear
KIGQ,04/21/2017 16:55 UTC,30.11,47.66,35.96,61.51,12.66,30.0,17.27,,,,,1.0,,,,10.0,,KIGQ 211655Z AUTO 03011G15KT 10SM CLR 09/02 A3011 RMK AO2  T00870022,,,,,,34.95,,NNE,29.46,29.54,,Clear
KIGQ,04/21/2017 17:15 UTC,30.11,47.84,35.96,61.51,12.66,30.0,20.71,,,,,1.0,,,,10.0,,KIGQ 211715Z AUTO 03011G18KT 10SM CLR 09/02 A3011 RMK AO2  T00880022,,,,,,35.12,,NNE,29.46,29.53,,Clear
KIGQ,04/21/2017 17:35 UTC,30.11,47.3,35.78,61.51,14.97,40.0,,,,,,1.0,,,,10.0,,KIGQ 211735Z AUTO 04013KT 10SM CLR 09/02 A3011 RMK AO2  T00850021,,,,,,34.61,,NE,29.46,29.55,,Clear
KIGQ,04/21/2017 17:55 UTC,30.11,47.3,35.06,61.51,12.66,10.0,18.41,,,,,1.0,,,,10.0,,KIGQ 211755Z AUTO 01011G16KT 10SM CLR 09/02 A3011 RMK AO2  T00850017 10093 20080,48.74,46.4,,,,34.61,,N,29.46,29.55,,Clear
KIGQ,04/21/2017 18:15 UTC,30.11,46.94,34.88,65.82,12.66,30.0,18.41,,,,,1.0,,,,10.0,,KIGQ 211815Z AUTO 03011G16KT 10SM CLR 08/02 A3011 RMK AO2  T00830016,,,,,,35.99,,NNE,29.46,29.52,,Clear
KIGQ,04/21/2017 18:35 UTC,30.13,47.48,35.96,61.51,11.5,50.0,17.27,,,,,312.0,,,,10.0,,KIGQ 211835Z AUTO 05010G15KT 10SM SCT031 09/02 A3013 RMK AO2  T00860022,,,,,,34.78,,NE,29.47,29.55,,Partly Cloudy
KIGQ,04/21/2017 18:55 UTC,30.13,46.58,35.06,65.82,11.5,20.0,19.57,,,,,1.0,,,,10.0,,KIGQ 211855Z AUTO 02010G17KT 10SM CLR 08/02 A3013 RMK AO2  T00810017,,,,,,35.64,,NNE,29.47,29.54,,Clear
KIGQ,04/21/2017 19:15 UTC,30.13,46.4,35.42,65.82,16.11,30.0,20.71,,,,,1.0,,,,10.0,,KIGQ 211915Z AUTO 03014G18KT 10SM CLR 08/02 A3013 RMK AO2  T00800019,,,,,,35.47,,NNE,29.47,29.55,,Clear
KIGQ,04/21/2017 19:35 UTC,30.14,46.58,36.5,70.68,12.66,40.0,18.41,,,,,282.0,,,,10.0,,KIGQ 211935Z AUTO 04011G16KT 10SM SCT028 08/03 A3014 RMK AO2  T00810025,,,,,,37.47,,NE,29.48,29.51,,Partly Cloudy
KIGQ,04/21/2017 19:55 UTC,30.14,46.4,35.06,65.82,16.11,30.0,20.71,,,,,1.0,,,,10.0,,KIGQ 211955Z AUTO 03014G18KT 10SM CLR 08/02 A3014 RMK AO2  T00800017,,,,,,35.47,,NNE,29.48,29.56,,Clear
KIGQ,04/21/2017 20:15 UTC,30.14,46.04,35.42,65.82,13.8,20.0,20.71,,,,,1.0,,,,10.0,,KIGQ 212015Z AUTO 02012G18KT 10SM CLR 08/02 A3014 RMK AO2  T00780019,,,,,,35.13,,NNE,29.48,29.56,,Clear
KIGQ,04/21/2017 20:35 UTC,30.13,46.4,36.32,65.82,14.97,40.0,,,,,,1.0,,,,10.0,,KIGQ 212035Z AUTO 04013KT 10SM CLR 08/02 A3013 RMK AO2  T00800024,,,,,,35.47,,NE,29.47,29.55,,Clear
KIGQ,04/21/2017 20:55 UTC,30.11,47.12,36.5,70.68,14.97,30.0,23.02,,,,,1.0,,,,10.0,,KIGQ 212055Z AUTO 03013G20KT 10SM CLR 08/03 A3011 RMK AO2  T00840025,,,,,,37.98,,NNE,29.46,29.48,,Clear
KIGQ,04/21/2017 21:15 UTC,30.12,46.94,35.24,65.82,14.97,20.0,25.32,,,,,1.0,,,,10.0,,KIGQ 212115Z AUTO 02013G22KT 10SM CLR 08/02 A3012 RMK AO2  T00830018,,,,,,35.99,,NNE,29.47,29.53,,Clear
KIGQ,04/21/2017 21:35 UTC,30.12,47.3,35.78,61.51,11.5,30.0,23.02,,,,,1.0,,,,10.0,,KIGQ 212135Z AUTO 03010G20KT 10SM CLR 09/02 A3012 RMK AO2  T00850021,,,,,,34.61,,NNE,29.47,29.56,,Clear
KIGQ,04/21/2017 21:55 UTC,30.12,46.94,35.06,65.82,12.66,20.0,21.85,,,,,1.0,,,,10.0,,KIGQ 212155Z AUTO 02011G19KT 10SM CLR 08/02 A3012 RMK AO2  T00830017,,,,,,35.99,,NNE,29.47,29.53,,Clear
KIGQ,04/21/2017 22:15 UTC,30.12,46.94,35.42,65.82,12.66,40.0,20.71,,,,,1.0,,,,10.0,,KIGQ 212215Z AUTO 04011G18KT 10SM CLR 08/02 A3012 RMK AO2  T00830019,,,,,,35.99,,NE,29.47,29.53,,Clear
KIGQ,04/21/2017 22:35 UTC,30.12,46.4,34.88,65.82,12.66,30.0,19.57,,,,,1.0,,,,10.0,,KIGQ 212235Z AUTO 03011G17KT 10SM CLR 08/02 A3012 RMK AO2  T00800016,,,,,,35.47,,NNE,29.47,29.55,,Clear
KIGQ,04/21/2017 22:55 UTC,30.11,46.58,35.42,65.82,13.8,20.0,17.27,,,,,1.0,,,,10.0,,KIGQ 212255Z AUTO 02012G15KT 10SM CLR 08/02 A3011 RMK AO2  T00810019,,,,,,35.64,,NNE,29.46,29.53,,Clear
KIGQ,04/21/2017 23:15 UTC,30.11,46.76,35.42,65.82,12.66,20.0,18.41,,,,,1.0,,,,10.0,,KIGQ 212315Z AUTO 02011G16KT 10SM CLR 08/02 A3011 RMK AO2  T00820019,,,,,,35.81,,NNE,29.46,29.53,,Clear
KIGQ,04/21/2017 23:35 UTC,30.11,46.94,35.24,65.82,11.5,20.0,21.85,,,,,1.0,,,,10.0,,KIGQ 212335Z AUTO 02010G19KT 10SM CLR 08/02 A3011 RMK AO2  T00830018,,,,,,35.99,,NNE,29.46,29.52,,Clear
KIGQ,04/21/2017 23:55 UTC,30.11,46.76,35.24,65.82,11.5,30.0,21.85,,,,,1.0,,,,10.0,,KIGQ 212355Z AUTO 03010G19KT 10SM CLR 08/02 A3011 RMK AO2  T00820018 10089 20076,48.02,45.68,,,,35.81,,NNE,29.46,29.53,,Clear
KIGQ,04/22/2017 00:15 UTC,30.11,46.04,34.88,65.82,12.66,30.0,20.71,,,,,1.0,,,,10.0,,KIGQ 220015Z AUTO 03011G18KT 10SM CLR 08/02 A3011 RMK AO2  T00780016,,,,,,35.13,,NNE,29.46,29.54,,Clear
KIGQ,04/22/2017 00:35 UTC,30.12,45.68,35.06,65.82,9.22,30.0,19.57,,,,,1.0,,,,10.0,,KIGQ 220035Z AUTO 03008G17KT 10SM CLR 08/02 A3012 RMK AO2  T00760017,,,,,,34.78,,NNE,29.47,29.56,,Clear
KIGQ,04/22/2017 00:55 UTC,30.13,45.5,34.88,65.82,11.5,30.0,17.27,,,,,1.0,,,,10.0,,KIGQ 220055Z AUTO 03010G15KT 10SM CLR 08/02 A3013 RMK AO2  T00750016,,,,,,34.61,,NNE,29.47,29.57,,Clear
KIGQ,04/22/2017 01:15 UTC,30.13,45.5,34.7,65.82,9.22,30.0,17.27,,,,,1.0,,,,10.0,,KIGQ 220115Z AUTO 03008G15KT 10SM CLR 08/02 A3013 RMK AO2  T00750015,,,,,,34.61,,NNE,29.47,29.57,,Clear
KIGQ,04/22/2017 01:35 UTC,30.14,45.32,34.7,70.47,10.36,30.0,,,,,,1.0,,,,10.0,,KIGQ 220135Z AUTO 03009KT 10SM CLR 07/02 A3014 RMK AO2  T00740015,,,,,,36.18,,NNE,29.48,29.55,,Clear
KIGQ,04/22/2017 01:55 UTC,30.15,45.14,34.7,70.47,8.05,40.0,,,,,,1.0,,,,10.0,,KIGQ 220155Z AUTO 04007KT 10SM CLR 07/02 A3015 RMK AO2  T00730015,,,,,,36.0,,NE,29.49,29.56,,Clear
KIGQ,04/22/2017 02:15 UTC,30.16,45.5,34.7,65.82,5.75,40.0,,,,,,1.0,,,,10.0,,KIGQ 220215Z AUTO 04005KT 10SM CLR 08/02 A3016 RMK AO2  T00750015,,,,,,34.61,,NE,29.5,29.6,,Clear
KIGQ,04/22/2017 02:35 UTC,30.14,45.5,34.7,65.82,10.36,40.0,,,,,,1.0,,,,10.0,,KIGQ 220235Z AUTO 04009KT 10SM CLR 08/02 A3014 RMK AO2  T00750015,,,,,,34.61,,NE,29.48,29.58,,Clear
KIGQ,04/22/2017 02:55 UTC,30.13,45.5,34.7,65.82,9.22,40.0,,,,,,1.0,,,,10.0,,KIGQ 220255Z AUTO 04008KT 10SM CLR 08/02 A3013 RMK AO2  T00750015,,,,,,34.61,,NE,29.47,29.57,,Clear
KIGQ,04/22/2017 03:15 UTC,30.13,44.78,35.42,70.47,11.5,40.0,,,,,,1.0,,,,10.0,,KIGQ 220315Z AUTO 04010KT 10SM CLR 07/02 A3013 RMK AO2  T00710019,,,,,,35.66,40.83,NE,29.47,29.55,,Clear
KIGQ,04/22/2017 03:35 UTC,30.13,44.24,35.78,70.47,11.5,30.0,,,,,,1.0,,,,10.0,,KIGQ 220335Z AUTO 03010KT 10SM CLR 07/02 A3013 RMK AO2  T00680021,,,,,,35.14,40.17,NNE,29.47,29.57,,Clear
KIGQ,04/22/2017 03:55 UTC,30.13,43.88,36.5,75.67,9.22,40.0,,,,,,1.0,,,,10.0,,KIGQ 220355Z AUTO 04008KT 10SM CLR 07/03 A3013 RMK AO2  T00660025,,,,,,36.61,40.55,NE,29.47,29.54,,Clear
KIGQ,04/22/2017 04:15 UTC,30.13,43.7,37.04,75.67,8.05,40.0,,,,,,1.0,,,,10.0,,KIGQ 220415Z AUTO 04007KT 10SM CLR 07/03 A3013 RMK AO2  T00650028,,,,,,36.43,40.82,NE,29.47,29.55,,Clear
KIGQ,04/22/2017 04:35 UTC,30.13,43.52,37.4,81.06,8.05,40.0,,,,,,1.0,,,,10.0,,KIGQ 220435Z AUTO 04007KT 10SM CLR 06/03 A3013 RMK AO2  T00640030,,,,,,38.03,40.61,NE,29.47,29.51,,Clear
KIGQ,04/22/2017 04:55 UTC,30.13,43.52,37.76,81.06,5.75,40.0,,,,,,1.0,,,,10.0,,KIGQ 220455Z AUTO 04005KT 10SM CLR 06/03 A3013 RMK AO2  T00640032,,,,,,38.03,,NE,29.47,29.51,,Clear
KIGQ,04/22/2017 05:15 UTC,30.14,42.8,37.58,81.06,8.05,40.0,,,,,,1.0,,,,10.0,,KIGQ 220515Z AUTO 04007KT 10SM CLR 06/03 A3014 RMK AO2  T00600031,,,,,,37.33,39.76,NE,29.48,29.54,,Clear
KIGQ,04/22/2017 05:35 UTC,30.15,42.98,37.76,81.06,5.75,40.0,,,,,,1.0,,,,10.0,,KIGQ 220535Z AUTO 04005KT 10SM CLR 06/03 A3015 RMK AO2  T00610032,,,,,,37.5,,NE,29.49,29.55,,Clear
KIGQ,04/22/2017 05:55 UTC,30.15,42.8,38.3,86.99,6.91,50.0,,,,,,1.0,,,,10.0,,KIGQ 220555Z AUTO 05006KT 10SM CLR 06/04 A3015 RMK AO2 T00600035  10081 20058 401060058,46.58,42.44,,51.08,42.44,39.15,,NE,29.49,29.52,,Clear
KIGQ,04/22/2017 06:15 UTC,30.15,42.8,38.66,86.99,5.75,30.0,,,,,,1.0,,,,10.0,,KIGQ 220615Z AUTO 03005KT 10SM CLR 06/04 A3015 RMK AO2  T00600037,,,,,,39.15,,NNE,29.49,29.52,,Clear
KIGQ,04/22/2017 06:35 UTC,30.13,42.8,38.66,86.99,8.05,40.0,,,,,,1.0,,,,10.0,,KIGQ 220635Z AUTO 04007KT 10SM CLR 06/04 A3013 RMK AO2  T00600037,,,,,,39.15,39.76,NE,29.47,29.5,,Clear
KIGQ,04/22/2017 06:55 UTC,30.14,42.8,38.66,86.99,8.05,40.0,,,,,,1.0,,,,10.0,,KIGQ 220655Z AUTO 04007KT 10SM CLR 06/04 A3014 RMK AO2  T00600037,,,,,,39.15,39.76,NE,29.48,29.51,,Clear
KIGQ,04/22/2017 07:15 UTC,30.14,42.08,38.3,86.99,4.61,50.0,,,,,,1.0,,,,10.0,,KIGQ 220715Z AUTO 05004KT 10SM CLR 06/04 A3014 RMK AO2  T00560035,,,,,,38.44,,NE,29.48,29.53,,Clear
KIGQ,04/22/2017 07:35 UTC,30.13,41.54,37.94,86.89,5.75,50.0,,,,,,1.0,,,,10.0,,KIGQ 220735Z AUTO 05005KT 10SM CLR 05/03 A3013 RMK AO2  T00530033,,,,,,37.88,,NE,29.47,29.53,,Clear
KIGQ,04/22/2017 07:55 UTC,30.13,41.9,38.3,86.99,5.75,40.0,,,,,,1.0,,,,10.0,,KIGQ 220755Z AUTO 04005KT 10SM CLR 06/04 A3013 RMK AO2  T00550035,,,,,,38.26,,NE,29.47,29.52,,Clear
KIGQ,04/22/2017 08:15 UTC,30.11,42.08,38.66,86.99,11.5,50.0,,,,,,1.0,,,,10.0,,KIGQ 220815Z AUTO 05010KT 10SM CLR 06/04 A3011 RMK AO2  T00560037,,,,,,38.44,37.57,NE,29.46,29.51,,Clear
KIGQ,04/22/2017 08:35 UTC,30.12,42.62,38.3,86.99,9.22,60.0,,,,,,1.0,,,,10.0,,KIGQ 220835Z AUTO 06008KT 10SM CLR 06/04 A3012 RMK AO2  T00590035,,,,,,38.97,39.05,ENE,29.47,29.5,,Clear
KIGQ,04/22/2017 08:55 UTC,30.13,42.8,38.12,81.06,8.05,60.0,,,,,,1.0,,,,10.0,,KIGQ 220855Z AUTO 06007KT 10SM CLR 06/03 A3013 RMK AO2  T00600034,,,,,,37.33,39.76,ENE,29.47,29.53,,Clear
KIGQ,04/22/2017 09:15 UTC,30.13,42.26,38.3,86.99,9.22,40.0,,,,,,1.0,,,,10.0,,KIGQ 220915Z AUTO 04008KT 10SM CLR 06/04 A3013 RMK AO2  T00570035,,,,,,38.62,38.62,NE,29.47,29.51,,Clear
KIGQ,04/22/2017 09:35 UTC,30.14,42.08,38.3,86.99,8.05,50.0,,,,,,1.0,,,,10.0,,KIGQ 220935Z AUTO 05007KT 10SM CLR 06/04 A3014 RMK AO2  T00560035,,,,,,38.44,38.92,NE,29.48,29.53,,Clear
KIGQ,04/22/2017 09:55 UTC,30.15,42.08,38.3,86.99,6.91,40.0,,,,,,1.0,,,,10.0,,KIGQ 220955Z AUTO 04006KT 10SM CLR 06/04 A3015 RMK AO2  T00560035,,,,,,38.44,,NE,29.49,29.54,,Clear
KIGQ,04/22/2017 10:15 UTC,30.13,42.08,38.3,86.99,9.22,40.0,,,,,,1.0,,,,10.0,,KIGQ 221015Z AUTO 04008KT 10SM CLR 06/04 A3013 RMK AO2  T00560035,,,,,,38.44,38.41,NE,29.47,29.52,,Clear
KIGQ,04/22/2017 10:35 UTC,30.13,42.8,37.76,81.06,11.5,40.0,,,,,,1.0,,,,10.0,,KIGQ 221035Z AUTO 04010KT 10SM CLR 06/03 A3013 RMK AO2  T00600032,,,,,,37.33,38.44,NE,29.47,29.53,,Clear
KIGQ,04/22/2017 10:55 UTC,30.14,42.62,37.76,81.06,10.36,50.0,,,,,,1.0,,,,10.0,,KIGQ 221055Z AUTO 05009KT 10SM CLR 06/03 A3014 RMK AO2  T00590032,,,,,,37.15,38.62,NE,29.48,29.55,,Clear
KIGQ,04/22/2017 11:15 UTC,30.15,42.8,37.58,81.06,12.66,50.0,,,,,,1.0,,,,10.0,,KIGQ 221115Z AUTO 05011KT 10SM CLR 06/03 A3015 RMK AO2  T00600031,,,,,,37.33,38.06,NE,29.49,29.55,,Clear
KIGQ,04/22/2017 11:35 UTC,30.16,42.44,37.76,81.06,9.22,50.0,,,,,,1.0,,,,10.0,,KIGQ 221135Z AUTO 05008KT 10SM CLR 06/03 A3016 RMK AO2  T00580032,,,,,,36.97,38.84,NE,29.5,29.57,,Clear
KIGQ,04/22/2017 11:55 UTC,30.16,42.98,38.12,81.06,9.22,40.0,,,,,,1.0,,,,10.0,,KIGQ 221155Z AUTO 04008KT 10SM CLR 06/03 A3016 RMK AO2 T00610034  10061 20052,42.98,41.36,,,,37.5,39.48,NE,29.5,29.56,,Clear
KIGQ,04/22/2017 12:15 UTC,30.19,43.34,38.3,86.99,10.36,40.0,,,,,,1.0,,,,10.0,,KIGQ 221215Z AUTO 04009KT 10SM CLR 06/04 A3019 RMK AO2  T00630035,,,,,,39.68,39.48,NE,29.53,29.54,,Clear
KIGQ,04/22/2017 12:35 UTC,30.2,43.7,38.66,81.2,6.91,40.0,,,,,,1.0,,,,10.0,,KIGQ 221235Z AUTO 04006KT 10SM CLR 07/04 A3020 RMK AO2  T00650037,,,,,,38.25,,NE,29.54,29.58,,Clear
KIGQ,04/22/2017 12:55 UTC,30.21,44.42,38.84,81.2,6.91,40.0,,,,,,1.0,,,,10.0,,KIGQ 221255Z AUTO 04006KT 10SM CLR 07/04 A3021 RMK AO2  T00690038,,,,,,38.95,,NE,29.55,29.57,,Clear
KIGQ,04/22/2017 13:15 UTC,30.21,44.96,38.66,81.2,9.22,50.0,,,,,,1.0,,,,10.0,,KIGQ 221315Z AUTO 05008KT 10SM CLR 07/04 A3021 RMK AO2  T00720037,,,,,,39.48,41.83,NE,29.55,29.55,,Clear
KIGQ,04/22/2017 13:35 UTC,30.21,45.86,39.2,75.84,10.36,40.0,16.11,,,,,1.0,,,,10.0,,KIGQ 221335Z AUTO 04009G14KT 10SM CLR 08/04 A3021 RMK AO2  T00770040,,,,,,38.59,,NE,29.55,29.56,,Clear
KIGQ,04/22/2017 13:55 UTC,30.2,48.02,39.38,70.88,11.5,40.0,,,,,,1.0,,,,10.0,,KIGQ 221355Z AUTO 04010KT 10SM CLR 09/04 A3020 RMK AO2  T00890041,,,,,,38.92,,NE,29.54,29.53,,Clear
KIGQ,04/22/2017 14:15 UTC,30.19,49.1,39.92,66.27,12.66,60.0,,,,,,1.0,,,,10.0,,KIGQ 221415Z AUTO 06011KT 10SM CLR 10/04 A3019 RMK AO2  T00950044,,,,,,38.22,,ENE,29.53,29.53,,Clear
KIGQ,04/22/2017 14:35 UTC,30.19,49.82,39.56,66.27,11.5,40.0,18.41,,,,,1.0,,,,10.0,,KIGQ 221435Z AUTO 04010G16KT 10SM CLR 10/04 A3019 RMK AO2  T00990042,,,,,,38.91,,NE,29.53,29.51,,Clear
KIGQ,04/22/2017 14:55 UTC,30.19,49.82,38.84,66.27,12.66,40.0,,,,,,1.0,,,,10.0,,KIGQ 221455Z AUTO 04011KT 10SM CLR 10/04 A3019 RMK AO2  T00990038,,,,,,38.91,,NE,29.53,29.51,,Clear
KIGQ,04/22/2017 15:15 UTC,30.19,49.64,38.84,66.27,10.36,30.0,,,,,,1.0,,,,10.0,,KIGQ 221515Z AUTO 03009KT 10SM CLR 10/04 A3019 RMK AO2  T00980038,,,,,,38.74,,NNE,29.53,29.51,,Clear
KIGQ,04/22/2017 15:35 UTC,30.2,49.64,39.38,66.27,12.66,60.0,,,,,,1.0,,,,10.0,,KIGQ 221535Z AUTO 06011KT 10SM CLR 10/04 A3020 RMK AO2  T00980041,,,,,,38.74,,ENE,29.54,29.52,,Clear
KIGQ,04/22/2017 15:55 UTC,30.2,50.36,38.84,66.27,10.36,30.0,,,,,,1.0,,,,10.0,,KIGQ 221555Z AUTO 03009KT 10SM CLR 10/04 A3020 RMK AO2  T01020038,,,,,,39.43,,NNE,29.54,29.5,,Clear
KIGQ,04/22/2017 16:15 UTC,30.2,52.7,37.94,54.08,12.66,30.0,16.11,,,,,1.0,,,,10.0,,KIGQ 221615Z AUTO 03011G14KT 10SM CLR 12/03 A3020 RMK AO2  T01150033,,,,,,36.41,,NNE,29.54,29.55,,Clear
KIGQ,04/22/2017 16:35 UTC,30.2,53.06,35.42,50.37,14.97,40.0,,,,,,1.0,,,,10.0,,KIGQ 221635Z AUTO 04013KT 10SM CLR 12/02 A3020 RMK AO2  T01170019,,,,,,34.94,,NE,29.54,29.58,,Clear
KIGQ,04/22/2017 16:55 UTC,30.2,53.06,35.78,50.37,12.66,60.0,18.41,,,,,1.0,,,,10.0,,KIGQ 221655Z AUTO 06011G16KT 10SM CLR 12/02 A3020 RMK AO2  T01170021,,,,,,34.94,,ENE,29.54,29.58,,Clear
KIGQ,04/22/2017 17:15 UTC,30.2,51.8,35.6,53.81,12.66,20.0,,,,,,1.0,,,,10.0,,KIGQ 221715Z AUTO 02011KT 10SM CLR 11/02 A3020 RMK AO2  T01100020,,,,,,35.44,,NNE,29.54,29.58,,Clear
KIGQ,04/22/2017 17:35 UTC,30.2,52.88,33.8,46.88,12.66,30.0,,,,,,1.0,,,,10.0,,KIGQ 221735Z AUTO 03011KT 10SM CLR 12/01 A3020 RMK AO2  T01160010,,,,,,32.97,,NNE,29.54,29.62,,Clear
KIGQ,04/22/2017 17:55 UTC,30.19,53.06,35.6,50.37,10.36,350.0,16.11,,,,,1.0,,,,10.0,,KIGQ 221755Z AUTO 35009G14KT 10SM CLR 12/02 A3019 RMK AO2  T01170020 10119 20061,53.42,42.98,,,,34.94,,N,29.53,29.57,,Clear
KIGQ,04/22/2017 18:15 UTC,30.19,51.98,34.7,53.81,10.36,30.0,,,,,,1.0,,,,10.0,,KIGQ 221815Z AUTO 03009KT 10SM CLR 11/02 A3019 RMK AO2  T01110015,,,,,,35.61,,NNE,29.53,29.56,,Clear
KIGQ,04/22/2017 18:35 UTC,30.19,52.7,36.14,50.37,8.05,10.0,17.27,,,,,1.0,,,,10.0,,KIGQ 221835Z AUTO 01007G15KT 10SM CLR 12/02 A3019 RMK AO2  T01150023,,,,,,34.61,,N,29.53,29.58,,Clear
KIGQ,04/22/2017 18:55 UTC,30.19,53.96,36.5,54.08,12.66,30.0,16.11,,,,,1.0,,,,10.0,,KIGQ 221855Z AUTO 03011G14KT 10SM CLR 12/03 A3019 RMK AO2  T01220025,,,,,,37.59,,NNE,29.53,29.51,,Clear
KIGQ,04/22/2017 19:15 UTC,30.19,52.52,36.86,57.78,9.22,360.0,,,,,,1.0,,,,10.0,,KIGQ 221915Z AUTO 36008KT 10SM CLR 11/03 A3019 RMK AO2  T01140027,,,,,,37.94,,N,29.53,29.51,,Clear
KIGQ,04/22/2017 19:35 UTC,30.18,52.52,36.5,57.78,8.05,360.0,,,,,,1.0,,,,10.0,,KIGQ 221935Z AUTO 36007KT 330V030 10SM CLR 11/03 A3018 RMK AO2  T01140025,,,,,,37.94,,N,29.52,29.5,,Clear
KIGQ,04/22/2017 19:55 UTC,30.18,52.16,36.68,57.78,10.36,20.0,,,,,,1.0,,,,10.0,,KIGQ 221955Z AUTO 02009KT 10SM CLR 11/03 A3018 RMK AO2  T01120026,,,,,,37.6,,NNE,29.52,29.51,,Clear
KIGQ,04/22/2017 20:15 UTC,30.16,53.42,36.14,50.37,11.5,30.0,,,,,,1.0,,,,10.0,,KIGQ 222015Z AUTO 03010KT 10SM CLR 12/02 A3016 RMK AO2  T01190023,,,,,,35.27,,NNE,29.5,29.53,,Clear
KIGQ,04/22/2017 20:35 UTC,30.16,54.5,35.78,47.17,9.22,40.0,,,,,,1.0,,,,10.0,,KIGQ 222035Z AUTO 04008KT 10SM CLR 13/02 A3016 RMK AO2  T01250021,,,,,,34.61,,NE,29.5,29.54,,Clear
KIGQ,04/22/2017 20:55 UTC,30.15,53.96,34.52,46.88,12.66,10.0,16.11,,,,,1.0,,,,10.0,,KIGQ 222055Z AUTO 01011G14KT 10SM CLR 12/01 A3015 RMK AO2  T01220014,,,,,,33.96,,N,29.49,29.55,,Clear
KIGQ,04/22/2017 21:15 UTC,30.16,53.6,33.26,46.88,9.22,30.0,18.41,,,,,1.0,,,,10.0,,KIGQ 222115Z AUTO 03008G16KT 10SM CLR 12/01 A3016 RMK AO2  T01200007,,,,,,33.63,,NNE,29.5,29.57,,Clear
KIGQ,04/22/2017 21:35 UTC,30.16,53.6,32.54,43.61,10.36,360.0,,,,,,1.0,,,,10.0,,KIGQ 222135Z AUTO 36009KT 10SM CLR 12/00 A3016 RMK AO2  T01200003,,,,,,31.82,,N,29.5,29.6,,Clear
KIGQ,04/22/2017 21:55 UTC,30.16,51.62,31.64,46.59,11.5,30.0,,,,,,1.0,,,,10.0,,KIGQ 222155Z AUTO 03010KT 10SM CLR 11/00 A3016 RMK AO2  T01091002,,,,,,31.65,,NNE,29.5,29.62,,Clear
KIGQ,04/22/2017 22:15 UTC,30.16,51.44,31.64,46.59,12.66,10.0,,,,,,1.0,,,,10.0,,KIGQ 222215Z AUTO 01011KT 10SM CLR 11/00 A3016 RMK AO2  T01081002,,,,,,31.49,,N,29.5,29.62,,Clear
KIGQ,04/22/2017 22:35 UTC,30.16,51.8,32.0,46.59,12.66,20.0,,,,,,1.0,,,,10.0,,KIGQ 222235Z AUTO 02011KT 10SM CLR 11/00 A3016 RMK AO2  T01100000,,,,,,31.82,,NNE,29.5,29.61,,Clear
KIGQ,04/22/2017 22:55 UTC,30.16,52.7,32.36,43.61,9.22,20.0,,,,,,1.0,,,,10.0,,KIGQ 222255Z AUTO 02008KT 10SM CLR 12/00 A3016 RMK AO2  T01150002,,,,,,31.0,,NNE,29.5,29.62,,Clear
KIGQ,04/22/2017 23:15 UTC,30.16,51.8,31.82,46.59,10.36,20.0,18.41,,,,,1.0,,,,10.0,,KIGQ 222315Z AUTO 02009G16KT 10SM CLR 11/00 A3016 RMK AO2  T01101001,,,,,,31.82,,NNE,29.5,29.61,,Clear
KIGQ,04/22/2017 23:35 UTC,30.16,51.44,31.28,46.59,11.5,10.0,17.27,,,,,1.0,,,,10.0,,KIGQ 222335Z AUTO 01010G15KT 10SM CLR 11/00 A3016 RMK AO2  T01081004,,,,,,31.49,,N,29.5,29.62,,Clear
KIGQ,04/22/2017 23:55 UTC,30.16,50.72,30.38,46.29,11.5,20.0,18.41,,,,,1.0,,,,10.0,,KIGQ 222355Z AUTO 02010G16KT 10SM CLR 10/M01 A3016 RMK AO2  T01041009 10126 20104,54.68,50.72,,,,30.67,,NNE,29.5,29.64,,Clear
KIGQ,04/23/2017 00:15 UTC,30.16,50.0,30.56,46.29,8.05,20.0,,,,,,1.0,,,,10.0,,KIGQ 230015Z AUTO 02007KT 10SM CLR 10/M01 A3016 RMK AO2  T01001008,,,,,,30.01,,NNE,29.5,29.65,,Clear
KIGQ,04/23/2017 00:35 UTC,30.16,49.28,31.1,49.8,5.75,20.0,,,,,,1.0,,,,10.0,,KIGQ 230035Z AUTO 02005KT 10SM CLR 10/00 A3016 RMK AO2  T00961005,,,,,,31.16,,NNE,29.5,29.64,,Clear
KIGQ,04/23/2017 00:55 UTC,30.16,47.84,31.46,53.26,3.44,10.0,,,,,,1.0,,,,10.0,,KIGQ 230055Z AUTO 01003KT 10SM CLR 09/00 A3016 RMK AO2  T00881003,,,,,,31.49,,N,29.5,29.64,,Clear
KIGQ,04/23/2017 01:15 UTC,30.16,47.3,31.64,53.26,3.44,10.0,,,,,,1.0,,,,10.0,,KIGQ 230115Z AUTO 01003KT 10SM CLR 09/00 A3016 RMK AO2  T00851002,,,,,,30.99,,N,29.5,29.65,,Clear
KIGQ,04/23/2017 01:35 UTC,30.16,46.76,32.0,56.99,3.44,20.0,,,,,,1.0,,,,10.0,,KIGQ 230135Z AUTO 02003KT 10SM CLR 08/00 A3016 RMK AO2  T00820000,,,,,,32.18,,NNE,29.5,29.64,,Clear
KIGQ,04/23/2017 01:55 UTC,30.16,46.4,31.64,56.99,0.0,0.0,,,,,,1.0,,,,10.0,,KIGQ 230155Z AUTO 00000KT 10SM CLR 08/00 A3016 RMK AO2  T00801002,,,,,,31.84,,N,29.5,29.64,,Clear
KIGQ,04/23/2017 02:15 UTC,30.16,45.68,31.64,56.99,0.0,0.0,,,,,,1.0,,,,10.0,,KIGQ 230215Z AUTO 00000KT 10SM CLR 08/00 A3016 RMK AO2  T00761002,,,,,,31.16,,N,29.5,29.66,,Clear
KIGQ,04/23/2017 02:35 UTC,30.16,44.42,32.36,61.02,0.0,0.0,,,,,,1.0,,,,10.0,,KIGQ 230235Z AUTO 00000KT 10SM CLR 07/00 A3016 RMK AO2  T00690002,,,,,,31.68,,N,29.5,29.66,,Clear
KIGQ,04/23/2017 02:55 UTC,30.16,44.6,33.08,65.6,0.0,0.0,,,,,,1.0,,,,10.0,,KIGQ 230255Z AUTO 00000KT 10SM CLR 07/01 A3016 RMK AO2  T00700006,,,,,,33.67,,N,29.5,29.62,,Clear
KIGQ,04/23/2017 03:15 UTC,30.17,44.6,33.62,65.6,0.0,0.0,,,,,,1.0,,,,10.0,,KIGQ 230315Z AUTO 00000KT 10SM CLR 07/01 A3017 RMK AO2  T00700009,,,,,,33.67,,N,29.51,29.63,,Clear
KIGQ,04/23/2017 03:35 UTC,30.17,43.7,33.98,65.6,0.0,0.0,,,,,,1.0,,,,10.0,,KIGQ 230335Z AUTO 00000KT 10SM CLR 07/01 A3017 RMK AO2  T00650011,,,,,,32.81,,N,29.51,29.65,,Clear
KIGQ,04/23/2017 03:55 UTC,30.16,43.52,34.7,75.5,0.0,0.0,,,,,,1.0,,,,10.0,,KIGQ 230355Z AUTO 00000KT 10SM CLR 06/02 A3016 RMK AO2  T00640015,,,,,,36.2,,N,29.5,29.58,,Clear
KIGQ,04/23/2017 04:15 UTC,30.17,42.08,34.52,70.27,0.0,0.0,,,,,,1.0,,,,10.0,,KIGQ 230415Z AUTO 00000KT 10SM CLR 06/01 A3017 RMK AO2  T00560014,,,,,,32.99,,N,29.51,29.66,,Clear
KIGQ,04/23/2017 04:35 UTC,30.17,38.66,34.7,86.79,0.0,0.0,,,,,,1.0,,,,10.0,,KIGQ 230435Z AUTO 00000KT 10SM CLR 04/02 A3017 RMK AO2  T00370015,,,,,,35.02,,N,29.51,29.65,,Clear
KIGQ,04/23/2017 04:55 UTC,30.17,37.76,34.52,86.68,0.0,0.0,,,,,,1.0,,,,10.0,,KIGQ 230455Z AUTO 00000KT 10SM CLR 03/01 A3017 RMK AO2  T00320014,,,,,,34.1,,N,29.51,29.67,,Clear
KIGQ,04/23/2017 05:15 UTC,30.17,39.56,34.7,86.79,0.0,0.0,,,,,,1.0,,,,10.0,,KIGQ 230515Z AUTO 00000KT 10SM CLR 04/02 A3017 RMK AO2  T00420015,,,,,,35.9,,N,29.51,29.63,,Clear
KIGQ,04/23/2017 05:35 UTC,30.16,38.12,34.52,86.68,0.0,0.0,,,,,,1.0,,,,10.0,,KIGQ 230535Z AUTO 00000KT 10SM CLR 03/01 A3016 RMK AO2  T00340014,,,,,,34.45,,N,29.5,29.65,,Clear
KIGQ,04/23/2017 05:55 UTC,30.16,37.58,33.8,86.68,0.0,0.0,,,,,,1.0,,,,10.0,,KIGQ 230555Z AUTO 00000KT 10SM CLR 03/01 A3016 RMK AO2 T00310010  10103 20031 401260031,50.54,37.58,,54.68,37.58,33.92,,N,29.5,29.67,,Clear
KIGQ,04/23/2017 06:15 UTC,30.15,35.6,33.26,93.08,0.0,0.0,,,,,,1.0,,,,10.0,,KIGQ 230615Z AUTO 00000KT 10SM CLR 02/01 A3015 RMK AO2  T00200007,,,,,,33.77,,N,29.49,29.67,,Clear
KIGQ,04/23/2017 06:35 UTC,30.15,36.32,34.52,93.08,0.0,0.0,,,,,,1.0,,,,10.0,,KIGQ 230635Z AUTO 00000KT 10SM CLR 02/01 A3015 RMK AO2  T00240014,,,,,,34.49,,N,29.49,29.66,,Clear
KIGQ,04/23/2017 06:55 UTC,30.14,36.68,33.8,86.68,0.0,0.0,,,,,,1.0,,,,10.0,,KIGQ 230655Z AUTO 00000KT 10SM CLR 03/01 A3014 RMK AO2  T00260010,,,,,,33.04,,N,29.48,29.67,,Clear
KIGQ,04/23/2017 07:15 UTC,30.13,36.5,34.16,86.68,0.0,0.0,,,,,,1.0,,,,10.0,,KIGQ 230715Z AUTO 00000KT 10SM CLR 03/01 A3013 RMK AO2  T00250012,,,,,,32.86,,N,29.47,29.66,,Clear
KIGQ,04/23/2017 07:35 UTC,30.14,37.04,33.08,86.68,0.0,0.0,,,,,,1.0,,,,10.0,,KIGQ 230735Z AUTO 00000KT 10SM CLR 03/01 A3014 RMK AO2  T00280006,,,,,,33.39,,N,29.48,29.66,,Clear
KIGQ,04/23/2017 07:55 UTC,30.13,36.32,33.26,93.08,0.0,0.0,,,,,,1.0,,,,10.0,,KIGQ 230755Z AUTO 00000KT 10SM CLR 02/01 A3013 RMK AO2  T00240007,,,,,,34.49,,N,29.47,29.64,,Clear
KIGQ,04/23/2017 08:15 UTC,30.13,33.8,32.0,93.02,0.0,0.0,,,,,,1.0,,,,10.0,,KIGQ 230815Z AUTO 00000KT 10SM CLR 01/00 A3013 RMK AO2  T00100000,,,,,,31.97,,N,29.47,29.7,,Clear
KIGQ,04/23/2017 08:35 UTC,30.13,35.06,33.44,93.08,0.0,0.0,,,,,,1.0,,,,10.0,,KIGQ 230835Z AUTO 00000KT 10SM CLR 02/01 A3013 RMK AO2  T00170008,,,,,,33.24,,N,29.47,29.67,,Clear
KIGQ,04/23/2017 08:55 UTC,30.13,35.06,33.44,93.08,0.0,0.0,,,,,,1.0,,,,10.0,,KIGQ 230855Z AUTO 00000KT 10SM CLR 02/01 A3013 RMK AO2  T00170008,,,,,,33.24,,N,29.47,29.67,,Clear
KIGQ,04/23/2017 09:15 UTC,30.13,34.52,32.72,93.02,0.0,0.0,,,,,,1.0,,,,10.0,,KIGQ 230915Z AUTO 00000KT 10SM CLR 01/00 A3013 RMK AO2  T00140004,,,,,,32.68,,N,29.47,29.68,,Clear
KIGQ,04/23/2017 09:35 UTC,30.13,33.8,32.9,100.0,0.0,0.0,,,,,,1.0,,,,10.0,,KIGQ 230935Z AUTO 00000KT 10SM CLR 01/01 A3013 RMK AO2  T00100005,,,,,,33.8,,N,29.47,29.67,,Clear
KIGQ,04/23/2017 09:55 UTC,30.13,32.72,32.36,100.0,0.0,0.0,,,,,,1.0,,,,10.0,,KIGQ 230955Z AUTO 00000KT 10SM CLR 00/00 A3013 RMK AO2  T00040002,,,,,,32.72,,N,29.47,29.69,,Clear
KIGQ,04/23/2017 10:15 UTC,30.13,33.62,32.54,93.02,0.0,0.0,,,,,,1.0,,,,10.0,,KIGQ 231015Z AUTO 00000KT 10SM CLR 01/00 A3013 RMK AO2  T00090003,,,,,,31.79,,N,29.47,29.7,,Clear
KIGQ,04/23/2017 10:35 UTC,30.14,34.16,32.0,93.02,0.0,0.0,,,,,,1.0,,,,10.0,,KIGQ 231035Z AUTO 00000KT 10SM CLR 01/00 A3014 RMK AO2  T00120000,,,,,,32.33,,N,29.48,29.7,,Clear
KIGQ,04/23/2017 10:55 UTC,30.15,33.98,31.82,93.02,0.0,0.0,,,,,,1.0,,,,10.0,,KIGQ 231055Z AUTO 00000KT 10SM CLR 01/00 A3015 RMK AO2  T00111001,,,,,,32.15,,N,29.49,29.71,,Clear
KIGQ,04/23/2017 11:15 UTC,30.16,32.0,31.28,100.0,0.0,0.0,,,,,,1.0,,,,10.0,,KIGQ 231115Z AUTO 00000KT 10SM CLR 00/00 A3016 RMK AO2  T00001004,,,,,,32.0,,N,29.5,29.74,,Clear
KIGQ,04/23/2017 11:35 UTC,30.16,32.18,32.0,100.0,0.0,0.0,,,,,,1.0,,,,10.0,,KIGQ 231135Z AUTO 00000KT 10SM CLR 00/00 A3016 RMK AO2  T00010000,,,,,,32.18,,N,29.5,29.73,,Clear
KIGQ,04/23/2017 11:55 UTC,30.16,34.7,32.72,86.58,0.0,0.0,,,,,,1.0,,,,10.0,,KIGQ 231155Z AUTO 00000KT 10SM CLR 02/00 A3016 RMK AO2 T00150004  10030 21001,37.4,31.82,,,,31.06,,N,29.5,29.73,,Clear
KIGQ,04/23/2017 12:15 UTC,30.16,35.6,34.34,93.08,3.44,170.0,,,,,,1.0,,,,10.0,,KIGQ 231215Z AUTO 17003KT 10SM CLR 02/01 A3016 RMK AO2  T00200013,,,,,,33.77,,S,29.5,29.68,,Clear
KIGQ,04/23/2017 12:35 UTC,30.16,39.92,37.94,93.19,0.0,0.0,,,,,,1.0,,,,10.0,,KIGQ 231235Z AUTO 00000KT 10SM CLR 04/03 A3016 RMK AO2  T00440033,,,,,,38.09,,N,29.5,29.57,,Clear
KIGQ,04/23/2017 12:55 UTC,30.16,43.52,39.92,86.99,0.0,0.0,,,,,,1.0,,,,10.0,,KIGQ 231255Z AUTO 00000KT 10SM CLR 06/04 A3016 RMK AO2  T00640044,,,,,,39.86,,N,29.5,29.5,,Clear
KIGQ,04/23/2017 13:15 UTC,30.16,47.12,40.28,81.34,0.0,0.0,,,,,,1.0,,,,10.0,,KIGQ 231315Z AUTO 00000KT 10SM CLR 08/05 A3016 RMK AO2  T00840046,,,,,,41.64,,N,29.5,29.43,,Clear
KIGQ,04/23/2017 13:35 UTC,30.16,50.36,36.68,61.76,0.0,0.0,,,,,,1.0,,,,10.0,,KIGQ 231335Z AUTO 00000KT 10SM CLR 10/03 A3016 RMK AO2  T01020026,,,,,,37.61,,N,29.5,29.5,,Clear
KIGQ,04/23/2017 13:55 UTC,30.16,51.98,35.78,53.81,0.0,0.0,,,,,,1.0,,,,10.0,,KIGQ 231355Z AUTO 00000KT 10SM CLR 11/02 A3016 RMK AO2  T01110021,,,,,,35.61,,N,29.5,29.53,,Clear
KIGQ,04/23/2017 14:15 UTC,30.15,54.5,37.58,50.65,0.0,0.0,,,,,,1.0,,,,10.0,,KIGQ 231415Z AUTO 00000KT 10SM CLR 13/03 A3015 RMK AO2  T01250031,,,,,,36.42,,N,29.49,29.49,,Clear
KIGQ,04/23/2017 14:35 UTC,30.14,56.48,37.04,47.46,0.0,0.0,,,,,,1.0,,,,10.0,,KIGQ 231435Z AUTO 00000KT 10SM CLR 14/03 A3014 RMK AO2  T01360028,,,,,,36.59,,N,29.48,29.46,,Clear
KIGQ,04/23/2017 14:55 UTC,30.14,58.46,36.14,41.44,0.0,0.0,,,,,,1.0,,,,10.0,,KIGQ 231455Z AUTO 00000KT 10SM CLR 15/02 A3014 RMK AO2  T01470023,,,,,,34.96,,N,29.48,29.49,,Clear
KIGQ,04/23/2017 15:15 UTC,30.13,59.9,36.32,38.87,0.0,0.0,,,,,,1.0,,,,10.0,,KIGQ 231515Z AUTO 00000KT 10SM CLR 16/02 A3013 RMK AO2  T01550024,,,,,,34.64,,N,29.47,29.47,,Clear
KIGQ,04/23/2017 15:35 UTC,30.13,60.8,36.86,41.73,3.44,300.0,,,,,,1.0,,,,10.0,,KIGQ 231535Z AUTO 30003KT 10SM CLR 16/03 A3013 RMK AO2  T01600027,,,,,,37.25,,WNW,29.47,29.41,,Clear
KIGQ,04/23/2017 15:55 UTC,30.13,62.06,35.6,36.47,5.75,360.0,,,,,,1.0,,,,10.0,,KIGQ 231555Z AUTO 36005KT 10SM CLR 17/02 A3013 RMK AO2  T01670020,,,,,,34.97,,N,29.47,29.45,,Clear
KIGQ,04/23/2017 16:15 UTC,30.13,62.6,36.5,39.16,5.75,20.0,,,,,,1.0,,,,10.0,,KIGQ 231615Z AUTO 02005KT 10SM CLR 17/03 A3013 RMK AO2  T01700025,,,,,,37.26,,NNE,29.47,29.4,,Clear
KIGQ,04/23/2017 16:35 UTC,30.12,62.6,34.34,33.95,0.0,0.0,,,,,,1.0,,,,10.0,,KIGQ 231635Z AUTO 00000KT 10SM CLR 17/01 A3012 RMK AO2  T01700013,,,,,,33.66,,N,29.47,29.48,,Clear
KIGQ,04/23/2017 16:55 UTC,30.12,63.68,33.08,31.88,5.75,60.0,,,,,,1.0,,,,10.0,,KIGQ 231655Z AUTO 06005KT 10SM CLR 18/01 A3012 RMK AO2  T01760006,,,,,,33.04,,ENE,29.47,29.49,,Clear
KIGQ,04/23/2017 17:15 UTC,30.11,64.76,33.08,31.88,5.75,50.0,,,,,,1.0,,,,10.0,,KIGQ 231715Z AUTO 05005KT 10SM CLR 18/01 A3011 RMK AO2  T01820006,,,,,,33.99,,NE,29.46,29.45,,Clear
KIGQ,04/23/2017 17:35 UTC,30.11,65.12,32.9,31.88,5.75,30.0,,,,,,1.0,,,,10.0,,KIGQ 231735Z AUTO 03005KT 10SM CLR 18/01 A3011 RMK AO2  T01840005,,,,,,34.31,,NNE,29.46,29.44,,Clear
KIGQ,04/23/2017 17:55 UTC,30.1,64.94,31.1,29.65,5.75,20.0,,,,,,1.0,,,,10.0,,KIGQ 231755Z AUTO 02005KT 10SM CLR 18/00 A3010 RMK AO2 T01831005  10185 20010,65.3,33.8,,,,32.34,,NNE,29.45,29.48,,Clear
KIGQ,04/23/2017 18:15 UTC,30.1,65.12,33.44,31.88,10.36,40.0,,,,,,1.0,,,,10.0,,KIGQ 231815Z AUTO 04009KT 10SM CLR 18/01 A3010 RMK AO2  T01840008,,,,,,34.31,,NE,29.45,29.43,,Clear
KIGQ,04/23/2017 18:35 UTC,30.09,64.76,33.26,31.88,9.22,20.0,16.11,,,,,1.0,,,,10.0,,KIGQ 231835Z AUTO 02008G14KT 10SM CLR 18/01 A3009 RMK AO2  T01820007,,,,,,33.99,,NNE,29.44,29.43,,Clear
KIGQ,04/23/2017 18:55 UTC,30.08,64.94,34.52,31.88,6.91,40.0,,,,,,1.0,,,,10.0,,KIGQ 231855Z AUTO 04006KT 10SM CLR 18/01 A3008 RMK AO2  T01830014,,,,,,34.15,,NE,29.43,29.42,,Clear
KIGQ,04/23/2017 19:15 UTC,30.08,65.3,34.88,32.17,10.36,50.0,,,,,,1.0,,,,10.0,,KIGQ 231915Z AUTO 05009KT 10SM CLR 19/02 A3008 RMK AO2  T01850016,,,,,,34.69,,NE,29.43,29.4,,Clear
KIGQ,04/23/2017 19:35 UTC,30.07,66.38,35.06,32.17,9.22,40.0,,,,,,1.0,,,,10.0,,KIGQ 231935Z AUTO 04008KT 010V070 10SM CLR 19/02 A3007 RMK AO2  T01910017,,,,,,35.64,,NE,29.42,29.36,,Clear
KIGQ,04/23/2017 19:55 UTC,30.06,66.38,33.44,29.94,9.22,60.0,16.11,,,,,1.0,,,,10.0,,KIGQ 231955Z AUTO 06008G14KT 10SM CLR 19/01 A3006 RMK AO2  T01910008,,,,,,33.84,,ENE,29.41,29.4,,Clear
KIGQ,04/23/2017 20:15 UTC,30.07,66.2,33.44,29.94,10.36,60.0,,,,,,1.0,,,,10.0,,KIGQ 232015Z AUTO 06009KT 10SM CLR 19/01 A3007 RMK AO2  T01900008,,,,,,33.68,,ENE,29.42,29.41,,Clear
KIGQ,04/23/2017 20:35 UTC,30.06,66.38,33.62,29.94,6.91,30.0,,,,,,1.0,,,,10.0,,KIGQ 232035Z AUTO 03006KT 10SM CLR 19/01 A3006 RMK AO2  T01910009,,,,,,33.84,,NNE,29.41,29.4,,Clear
KIGQ,04/23/2017 20:55 UTC,30.06,66.56,34.34,29.94,8.05,30.0,,,,,,1.0,,,,10.0,,KIGQ 232055Z AUTO 03007KT 10SM CLR 19/01 A3006 RMK AO2  T01920013,,,,,,34.0,,NNE,29.41,29.39,,Clear
KIGQ,04/23/2017 21:15 UTC,30.06,66.2,34.34,29.94,9.22,70.0,,,,,,1.0,,,,10.0,,KIGQ 232115Z AUTO 07008KT 10SM CLR 19/01 A3006 RMK AO2  T01900013,,,,,,33.68,,ENE,29.41,29.4,,Clear
KIGQ,04/23/2017 21:35 UTC,30.05,66.2,35.24,32.17,9.22,60.0,,,,,,1.0,,,,10.0,,KIGQ 232135Z AUTO 06008KT 10SM CLR 19/02 A3005 RMK AO2  T01900018,,,,,,35.48,,ENE,29.4,29.35,,Clear
KIGQ,04/23/2017 21:55 UTC,30.05,65.48,34.88,32.17,8.05,50.0,,,,,,1.0,,,,10.0,,KIGQ 232155Z AUTO 05007KT 10SM CLR 19/02 A3005 RMK AO2  T01860016,,,,,,34.85,,NE,29.4,29.37,,Clear
KIGQ,04/23/2017 22:15 UTC,30.05,65.66,35.24,32.17,6.91,70.0,,,,,,1.0,,,,10.0,,KIGQ 232215Z AUTO 07006KT 10SM CLR 19/02 A3005 RMK AO2  T01870018,,,,,,35.01,,ENE,29.4,29.36,,Clear
KIGQ,04/23/2017 22:35 UTC,30.06,64.76,36.14,34.25,9.22,70.0,16.11,,,,,1.0,,,,10.0,,KIGQ 232235Z AUTO 07008G14KT 10SM CLR 18/02 A3006 RMK AO2  T01820023,,,,,,35.79,,ENE,29.41,29.36,,Clear
KIGQ,04/23/2017 22:55 UTC,30.06,64.4,35.06,34.25,9.22,60.0,,,,,,1.0,,,,10.0,,KIGQ 232255Z AUTO 06008KT 10SM CLR 18/02 A3006 RMK AO2  T01800017,,,,,,35.47,,ENE,29.41,29.37,,Clear
KIGQ,04/23/2017 23:15 UTC,30.06,64.04,34.52,31.88,8.05,70.0,,,,,,1.0,,,,10.0,,KIGQ 232315Z AUTO 07007KT 10SM CLR 18/01 A3006 RMK AO2  T01780014,,,,,,33.36,,ENE,29.41,29.42,,Clear
KIGQ,04/23/2017 23:35 UTC,30.05,63.5,34.16,31.88,8.05,70.0,,,,,,1.0,,,,10.0,,KIGQ 232335Z AUTO 07007KT 10SM CLR 18/01 A3005 RMK AO2  T01750012,,,,,,32.88,,ENE,29.4,29.42,,Clear
KIGQ,04/23/2017 23:55 UTC,30.05,62.78,33.62,33.95,10.36,70.0,,,,,,1.0,,,,10.0,,KIGQ 232355Z AUTO 07009KT 10SM CLR 17/01 A3005 RMK AO2 T01710009  10195 20171,67.1,62.78,,,,33.82,,ENE,29.4,29.41,,Clear
KIGQ,04/24/2017 00:15 UTC,30.05,61.16,32.0,33.65,9.22,80.0,,,,,,1.0,,,,10.0,,KIGQ 240015Z AUTO 08008KT 10SM CLR 16/00 A3005 RMK AO2  T01620000,,,,,,32.16,,E,29.4,29.45,,Clear
KIGQ,04/24/2017 00:35 UTC,30.05,59.9,30.92,31.28,4.61,80.0,,,,,,1.0,,,,10.0,,KIGQ 240035Z AUTO 08004KT 10SM CLR 16/M01 A3005 RMK AO2  T01551006,,,,,,29.25,,E,29.4,29.51,,Clear
KIGQ,04/24/2017 00:55 UTC,30.05,59.36,30.2,33.35,3.44,70.0,,,,,,1.0,,,,10.0,,KIGQ 240055Z AUTO 07003KT 10SM CLR 15/M01 A3005 RMK AO2  T01521010,,,,,,30.34,,ENE,29.4,29.49,,Clear
KIGQ,04/24/2017 01:15 UTC,30.05,56.84,32.72,38.27,3.44,90.0,,,,,,1.0,,,,10.0,,KIGQ 240115Z AUTO 09003KT 10SM CLR 14/00 A3005 RMK AO2  T01380004,,,,,,31.5,,E,29.4,29.49,,Clear
KIGQ,04/24/2017 01:35 UTC,30.05,56.3,31.46,38.27,0.0,0.0,,,,,,1.0,,,,10.0,,KIGQ 240135Z AUTO 00000KT 10SM CLR 14/00 A3005 RMK AO2  T01351003,,,,,,31.02,,N,29.4,29.5,,Clear
KIGQ,04/24/2017 01:55 UTC,30.06,53.78,32.54,43.61,0.0,0.0,,,,,,1.0,,,,10.0,,KIGQ 240155Z AUTO 00000KT 10SM CLR 12/00 A3006 RMK AO2  T01210003,,,,,,31.98,,N,29.41,29.5,,Clear
KIGQ,04/24/2017 02:15 UTC,30.06,53.06,32.72,43.61,0.0,0.0,,,,,,1.0,,,,10.0,,KIGQ 240215Z AUTO 00000KT 10SM CLR 12/00 A3006 RMK AO2  T01170004,,,,,,31.33,,N,29.41,29.52,,Clear
KIGQ,04/24/2017 02:35 UTC,30.06,51.62,33.62,50.08,0.0,0.0,,,,,,1.0,,,,10.0,,KIGQ 240235Z AUTO 00000KT 10SM CLR 11/01 A3006 RMK AO2  T01090009,,,,,,33.46,,N,29.41,29.49,,Clear
KIGQ,04/24/2017 02:55 UTC,30.04,51.44,33.44,50.08,4.61,40.0,,,,,,1.0,,,,10.0,,KIGQ 240255Z AUTO 04004KT 10SM CLR 11/01 A3004 RMK AO2  T01080008,,,,,,33.3,,NE,29.39,29.47,,Clear
KIGQ,04/24/2017 03:15 UTC,30.04,53.24,33.26,46.88,6.91,130.0,,,,,,1.0,,,,10.0,,KIGQ 240315Z AUTO 13006KT 10SM CLR 12/01 A3004 RMK AO2  T01180007,,,,,,33.3,,SE,29.39,29.46,,Clear
KIGQ,04/24/2017 03:35 UTC,30.04,52.7,32.36,43.61,3.44,70.0,,,,,,1.0,,,,10.0,,KIGQ 240335Z AUTO 07003KT 10SM CLR 12/00 A3004 RMK AO2  T01150002,,,,,,31.0,,ENE,29.39,29.51,,Clear
KIGQ,04/24/2017 03:55 UTC,30.04,51.08,34.34,50.08,4.61,60.0,,,,,,1.0,,,,10.0,,KIGQ 240355Z AUTO 06004KT 10SM CLR 11/01 A3004 RMK AO2  T01060013,,,,,,32.96,,ENE,29.39,29.48,,Clear
KIGQ,04/24/2017 04:15 UTC,30.04,49.82,37.58,61.76,5.75,80.0,,,,,,1.0,,,,10.0,,KIGQ 240415Z AUTO 08005KT 10SM CLR 10/03 A3004 RMK AO2  T00990031,,,,,,37.1,,E,29.39,29.4,,Clear
KIGQ,04/24/2017 04:35 UTC,30.04,48.38,38.48,70.88,4.61,40.0,,,,,,1.0,,,,10.0,,KIGQ 240435Z AUTO 04004KT 10SM CLR 09/04 A3004 RMK AO2  T00910036,,,,,,39.27,,NE,29.39,29.37,,Clear
KIGQ,04/24/2017 04:55 UTC,30.04,47.48,40.64,76.02,3.44,20.0,,,,,,1.0,,,,10.0,,KIGQ 240455Z AUTO 02003KT 10SM CLR 09/05 A3004 RMK AO2  T00860048,,,,,,40.22,,NNE,29.39,29.35,,Clear
KIGQ,04/24/2017 05:15 UTC,30.05,46.58,42.08,87.19,3.44,20.0,,,,,,1.0,,,,10.0,,KIGQ 240515Z AUTO 02003KT 10SM CLR 08/06 A3005 RMK AO2  T00810056,,,,,,42.93,,NNE,29.4,29.3,,Clear
KIGQ,04/24/2017 05:35 UTC,30.04,45.86,42.44,87.19,0.0,0.0,,,,,,1.0,,,,10.0,,KIGQ 240535Z AUTO 00000KT 10SM CLR 08/06 A3004 RMK AO2  T00770058,,,,,,42.22,,N,29.39,29.32,,Clear
KIGQ,04/24/2017 05:55 UTC,30.04,44.78,42.98,93.35,0.0,0.0,,,,,,1.0,,,,10.0,,KIGQ 240555Z AUTO 00000KT 10SM CLR 07/06 A3004 RMK AO2 T00710061  10171 20071 401951001,62.78,44.78,,67.1,31.82,42.95,,N,29.39,29.31,,Clear
KIGQ,04/24/2017 06:15 UTC,30.04,43.88,42.8,93.35,0.0,0.0,,,,,,1.0,,,,10.0,,KIGQ 240615Z AUTO 00000KT 10SM CLR 07/06 A3004 RMK AO2  T00660060,,,,,,42.06,,N,29.39,29.34,,Clear
KIGQ,04/24/2017 06:35 UTC,30.04,43.7,42.62,93.35,0.0,0.0,,,,,,1.0,,,,10.0,,KIGQ 240635Z AUTO 00000KT 10SM CLR 07/06 A3004 RMK AO2  T00650059,,,,,,41.88,,N,29.39,29.34,,Clear
KIGQ,04/24/2017 06:55 UTC,30.03,43.16,42.26,100.0,0.0,0.0,,,,,,1.0,,,,10.0,,KIGQ 240655Z AUTO 00000KT 10SM CLR 06/06 A3003 RMK AO2  T00620057,,,,,,43.16,,N,29.38,29.31,,Clear
KIGQ,04/24/2017 07:15 UTC,30.02,42.8,42.08,100.0,0.0,0.0,,,,,,1.0,,,,10.0,,KIGQ 240715Z AUTO 00000KT 10SM CLR 06/06 A3002 RMK AO2  T00600056,,,,,,42.8,,N,29.37,29.31,,Clear
KIGQ,04/24/2017 07:35 UTC,30.02,42.26,41.9,100.0,3.44,10.0,,,,,,1.0,,,,10.0,,KIGQ 240735Z AUTO 01003KT 10SM CLR 06/06 A3002 RMK AO2  T00570055,,,,,,42.26,,N,29.37,29.33,,Clear
KIGQ,04/24/2017 07:55 UTC,30.02,41.72,41.36,100.0,0.0,0.0,,,,,,1.0,,,,10.0,,KIGQ 240755Z AUTO 00000KT 10SM CLR 05/05 A3002 RMK AO2  T00540052,,,,,,41.72,,N,29.37,29.34,,Clear
KIGQ,04/24/2017 08:15 UTC,30.02,41.36,41.36,100.0,0.0,0.0,,,,,,1.0,,,,10.0,,KIGQ 240815Z AUTO 00000KT 10SM CLR 05/05 A3002 RMK AO2  T00520052,,,,,,41.36,,N,29.37,29.36,,Clear
KIGQ,04/24/2017 08:35 UTC,30.02,41.36,41.18,100.0,3.44,90.0,,,,,,1.0,,,,7.0,,KIGQ 240835Z AUTO 09003KT 7SM CLR 05/05 A3002 RMK AO2  T00520051,,,,,,41.36,,E,29.37,29.36,,Clear
KIGQ,04/24/2017 08:55 UTC,30.02,41.36,41.36,100.0,0.0,0.0,,,,,,1.0,,,,7.0,,KIGQ 240855Z AUTO 00000KT 7SM CLR 05/05 A3002 RMK AO2  T00520052,,,,,,41.36,,N,29.37,29.36,,Clear
KIGQ,04/24/2017 09:15 UTC,30.01,41.36,41.36,100.0,0.0,0.0,,31.0,,,,1.0,,,,5.0,,KIGQ 240915Z AUTO 00000KT 5SM BR CLR 05/05 A3001 RMK AO2  T00520052,,,,,,41.36,,N,29.36,29.35,,Mist
KIGQ,04/24/2017 09:35 UTC,30.01,40.82,40.82,100.0,0.0,0.0,,,,,,1.0,,,,7.0,,KIGQ 240935Z AUTO 00000KT 7SM CLR 05/05 A3001 RMK AO2  T00490049,,,,,,40.82,,N,29.36,29.36,,Clear
KIGQ,04/24/2017 09:55 UTC,30.01,40.82,40.82,100.0,0.0,0.0,,,,,,1.0,,,,7.0,,KIGQ 240955Z AUTO 00000KT 7SM CLR 05/05 A3001 RMK AO2  T00490049,,,,,,40.82,,N,29.36,29.36,,Clear
KIGQ,04/24/2017 10:15 UTC,30.01,40.46,40.46,100.0,0.0,0.0,,,,,,1.0,,,,7.0,,KIGQ 241015Z AUTO 00000KT 7SM CLR 05/05 A3001 RMK AO2  T00470047,,,,,,40.46,,N,29.36,29.37,,Clear
KIGQ,04/24/2017 10:35 UTC,30.02,40.46,40.46,100.0,0.0,0.0,,,,,,1.0,,,,10.0,,KIGQ 241035Z AUTO 00000KT 10SM CLR 05/05 A3002 RMK AO2  T00470047,,,,,,40.46,,N,29.37,29.38,,Clear
KIGQ,04/24/2017 10:55 UTC,30.02,40.64,40.64,100.0,0.0,0.0,,,,,,1.0,,,,10.0,,KIGQ 241055Z AUTO 00000KT 10SM CLR 05/05 A3002 RMK AO2  T00480048,,,,,,40.64,,N,29.37,29.38,,Clear
KIGQ,04/24/2017 11:15 UTC,30.03,40.28,40.28,100.0,0.0,0.0,,,,,,1.0,,,,10.0,,KIGQ 241115Z AUTO 00000KT 10SM CLR 05/05 A3003 RMK AO2  T00460046,,,,,,40.28,,N,29.38,29.4,,Clear
KIGQ,04/24/2017 11:35 UTC,30.03,35.6,35.6,100.0,0.0,0.0,,31.0,,,,1.0,,,,5.0,,KIGQ 241135Z AUTO 00000KT 5SM BR CLR 02/02 A3003 RMK AO2  T00200020,,,,,,35.6,,N,29.38,29.53,,Mist
KIGQ,04/24/2017 11:55 UTC,30.03,37.76,37.76,100.0,0.0,0.0,,31.0,,,,1.0,,,,3.0,,KIGQ 241155Z AUTO 00000KT 3SM BR CLR 03/03 A3003 RMK AO2 T00320032  10071 20018,44.78,35.24,,,,37.76,,N,29.38,29.47,,Mist
KIGQ,04/24/2017 12:15 UTC,30.03,41.36,41.36,100.0,0.0,0.0,,31.0,,,,1.0,,,,5.0,,KIGQ 241215Z AUTO 00000KT 5SM BR CLR 05/05 A3003 RMK AO2  T00520052,,,,,,41.36,,N,29.38,29.37,,Mist
KIGQ,04/24/2017 12:35 UTC,30.03,45.14,43.88,100.0,0.0,0.0,,,,,,1.0,,,,10.0,,KIGQ 241235Z AUTO 00000KT 10SM CLR 07/07 A3003 RMK AO2  T00730066,,,,,,45.14,,N,29.38,29.24,,Clear
KIGQ,04/24/2017 12:55 UTC,30.03,47.48,44.78,87.28,0.0,0.0,,,,,,1.0,,,,10.0,,KIGQ 241255Z AUTO 00000KT 10SM CLR 09/07 A3003 RMK AO2  T00860071,,,,,,43.85,,N,29.38,29.25,,Clear
KIGQ,04/24/2017 13:15 UTC,30.03,49.64,45.14,81.61,0.0,0.0,,,,,,1.0,,,,10.0,,KIGQ 241315Z AUTO 00000KT 10SM CLR 10/07 A3003 RMK AO2  T00980073,,,,,,44.19,,N,29.38,29.22,,Clear
KIGQ,04/24/2017 13:35 UTC,30.03,52.16,45.5,81.75,0.0,0.0,,,,,,1.0,,,,10.0,,KIGQ 241335Z AUTO 00000KT 10SM CLR 11/08 A3003 RMK AO2  T01120075,,,,,,46.69,,N,29.38,29.12,,Clear
KIGQ,04/24/2017 13:55 UTC,30.03,54.86,44.78,66.93,3.44,80.0,,,,,,1.0,,,,10.0,,KIGQ 241355Z AUTO 08003KT 10SM CLR 13/07 A3003 RMK AO2  T01270071,,,,,,43.98,,E,29.38,29.18,,Clear
KIGQ,04/24/2017 14:15 UTC,30.03,57.02,42.98,58.55,0.0,0.0,,,,,,1.0,,,,10.0,,KIGQ 241415Z AUTO 00000KT 10SM CLR 14/06 A3003 RMK AO2  T01390061,,,,,,42.51,,N,29.38,29.21,,Clear
KIGQ,04/24/2017 14:35 UTC,30.03,59.0,41.72,51.21,3.44,100.0,,,,,,1.0,,,,10.0,,KIGQ 241435Z AUTO 10003KT 10SM CLR 15/05 A3003 RMK AO2  T01500054,,,,,,40.87,,E,29.38,29.24,,Clear
KIGQ,04/24/2017 14:55 UTC,30.01,61.52,41.36,48.03,5.75,110.0,,,,,,1.0,,,,10.0,,KIGQ 241455Z AUTO 11005KT 10SM CLR 16/05 A3001 RMK AO2  T01640052,,,,,,41.53,,ESE,29.36,29.18,,Clear
KIGQ,04/24/2017 15:15 UTC,30.01,63.5,38.12,36.77,8.05,110.0,,,,,,1.0,,,,10.0,,KIGQ 241515Z AUTO 11007KT 10SM CLR 18/03 A3001 RMK AO2  T01750034,,,,,,36.47,,ESE,29.36,29.3,,Clear
KIGQ,04/24/2017 15:35 UTC,30.01,64.76,39.02,39.46,8.05,50.0,,,,,,1.0,,,,10.0,,KIGQ 241535Z AUTO 05007KT 040V110 10SM CLR 18/04 A3001 RMK AO2  T01820039,,,,,,39.4,,NE,29.36,29.22,,Clear
KIGQ,04/24/2017 15:55 UTC,29.99,66.74,39.74,37.07,13.8,130.0,,,,,,1.0,,,,10.0,,KIGQ 241555Z AUTO 13012KT 10SM CLR 19/04 A2999 RMK AO2  T01930043,,,,,,39.57,,SE,29.34,29.18,,Clear
KIGQ,04/24/2017 16:15 UTC,29.99,67.46,39.38,34.84,10.36,130.0,18.41,,,,,1.0,,,,10.0,,KIGQ 241615Z AUTO 13009G16KT 10SM CLR 20/04 A2999 RMK AO2  T01970041,,,,,,38.62,,SE,29.34,29.2,,Clear
KIGQ,04/24/2017 16:35 UTC,29.99,68.36,39.74,34.84,12.66,140.0,17.27,,,,,1.0,,,,10.0,,KIGQ 241635Z AUTO 14011G15KT 10SM CLR 20/04 A2999 RMK AO2  T02020043,,,,,,39.42,,SE,29.34,29.17,,Clear
KIGQ,04/24/2017 16:55 UTC,29.98,68.18,39.56,34.84,10.36,130.0,,,,,,1.0,,,,10.0,,KIGQ 241655Z AUTO 13009KT 10SM CLR 20/04 A2998 RMK AO2  T02010042,,,,,,39.26,,SE,29.33,29.17,,Clear
KIGQ,04/24/2017 17:15 UTC,29.96,68.9,39.2,32.76,11.5,120.0,,,,,,1.0,,,,10.0,,KIGQ 241715Z AUTO 12010KT 10SM CLR 21/04 A2996 RMK AO2  T02050040,,,,,,38.33,,ESE,29.31,29.17,,Clear
KIGQ,04/24/2017 17:35 UTC,29.95,69.98,40.1,35.13,8.05,110.0,,,,,,1.0,,,,10.0,,KIGQ 241735Z AUTO 11007KT 10SM CLR 21/05 A2995 RMK AO2  T02110045,,,,,,41.08,,ESE,29.3,29.07,,Clear
KIGQ,04/24/2017 17:55 UTC,29.94,69.98,39.92,32.76,11.5,120.0,,,,,,1.0,,,,10.0,,KIGQ 241755Z AUTO 12010KT 10SM CLR 21/04 A2994 RMK AO2 T02110044  10211 20033,69.98,37.94,,,,39.28,,ESE,29.29,29.12,,Clear
KIGQ,04/24/2017 18:15 UTC,29.94,70.16,40.1,35.13,9.22,160.0,,,,,,1.0,,,,10.0,,KIGQ 241815Z AUTO 16008KT 110V180 10SM CLR 21/05 A2994 RMK AO2  T02120045,,,,,,41.24,,SSE,29.29,29.06,,Clear
KIGQ,04/24/2017 18:35 UTC,29.93,70.88,38.66,30.82,8.05,130.0,16.11,,,,,1.0,,,,10.0,,KIGQ 241835Z AUTO 13007G14KT 10SM CLR 22/04 A2993 RMK AO2  T02160037,,,,,,38.51,,SE,29.28,29.12,,Clear
KIGQ,04/24/2017 18:55 UTC,29.92,71.24,38.48,30.82,8.05,140.0,,,,,,1.0,,,,10.0,,KIGQ 241855Z AUTO 14007KT 10SM CLR 22/04 A2992 RMK AO2  T02180036,,,,,,38.83,,SE,29.27,29.1,,Clear
KIGQ,04/24/2017 19:15 UTC,29.91,72.32,39.38,30.82,10.36,130.0,,,,,,1.0,,,,10.0,,KIGQ 241915Z AUTO 13009KT 10SM CLR 22/04 A2991 RMK AO2  T02240041,,,,,,39.77,,SE,29.26,29.06,,Clear
KIGQ,04/24/2017 19:35 UTC,29.9,72.68,39.2,29.0,8.05,130.0,,,,,,1.0,,,,10.0,,KIGQ 241935Z AUTO 13007KT 10SM CLR 23/04 A2990 RMK AO2  T02260040,,,,,,38.53,,SE,29.25,29.08,,Clear
KIGQ,04/24/2017 19:55 UTC,29.89,70.88,42.26,35.42,0.0,0.0,,,,,,1.0,,,,10.0,,KIGQ 241955Z AUTO 00000KT 10SM CLR 22/06 A2989 RMK AO2  T02160057,,,,,,42.09,,N,29.24,28.98,,Clear
KIGQ,04/24/2017 20:15 UTC,29.88,70.7,42.44,35.42,9.22,30.0,,,,,,1.0,,,,10.0,,KIGQ 242015Z AUTO 03008KT 10SM CLR 22/06 A2988 RMK AO2  T02150058,,,,,,41.93,,NNE,29.23,28.97,,Clear
KIGQ,04/24/2017 20:35 UTC,29.86,70.34,44.06,40.34,8.05,50.0,,,,,,1.0,,,,10.0,,KIGQ 242035Z AUTO 05007KT 010V080 10SM CLR 21/07 A2986 RMK AO2  T02130067,,,,,,45.01,,NE,29.21,28.86,,Clear
KIGQ,04/24/2017 20:55 UTC,29.84,70.88,42.98,35.42,8.05,40.0,,,,,,1.0,,,,10.0,,KIGQ 242055Z AUTO 04007KT 10SM CLR 22/06 A2984 RMK AO2  T02160061,,,,,,42.09,,NE,29.19,28.93,,Clear
KIGQ,04/24/2017 21:15 UTC,29.84,70.52,42.44,37.66,5.75,30.0,,,,,,1.0,,,,10.0,,KIGQ 242115Z AUTO 03005KT 10SM CLR 21/06 A2984 RMK AO2  T02140058,,,,,,43.37,,NNE,29.19,28.89,,Clear
KIGQ,04/24/2017 21:35 UTC,29.83,70.88,42.26,35.42,6.91,40.0,,,,,,1.0,,,,7.0,,KIGQ 242135Z AUTO 04006KT 7SM CLR 22/06 A2983 RMK AO2  T02160057,,,,,,42.09,,NE,29.18,28.92,,Clear
KIGQ,04/24/2017 21:55 UTC,29.82,71.6,42.62,35.42,4.61,30.0,,,,,,1.0,,,,10.0,,KIGQ 242155Z AUTO 03004KT 10SM CLR 22/06 A2982 RMK AO2  T02200059,,,,,,42.73,,NNE,29.17,28.88,,Clear
KIGQ,04/24/2017 22:15 UTC,29.82,70.34,42.8,37.66,9.22,20.0,,,,,,1.0,,,,10.0,,KIGQ 242215Z AUTO 02008KT 10SM CLR 21/06 A2982 RMK AO2  T02130060,,,,,,43.21,,NNE,29.17,28.87,,Clear
KIGQ,04/24/2017 22:35 UTC,29.81,68.9,41.9,37.66,6.91,30.0,,,,,,1.0,,,,10.0,,KIGQ 242235Z AUTO 03006KT 10SM CLR 21/06 A2981 RMK AO2  T02050055,,,,,,41.92,,NNE,29.16,28.91,,Clear
KIGQ,04/24/2017 22:55 UTC,29.81,66.92,41.72,39.75,6.91,10.0,,,,,,1.0,,,,10.0,,KIGQ 242255Z AUTO 01006KT 10SM CLR 19/05 A2981 RMK AO2  T01940054,,,,,,41.54,,N,29.16,28.94,,Clear
KIGQ,04/24/2017 23:15 UTC,29.8,64.58,42.08,45.36,6.91,30.0,,,,,,1.0,,,,10.0,,KIGQ 242315Z AUTO 03006KT 10SM CLR 18/06 A2980 RMK AO2  T01810056,,,,,,42.85,,NNE,29.15,28.9,,Clear
KIGQ,04/24/2017 23:35 UTC,29.8,62.6,41.0,45.07,9.22,20.0,,,,,,1.0,,,,10.0,,KIGQ 242335Z AUTO 02008KT 10SM CLR 17/05 A2980 RMK AO2  T01700050,,,,,,40.87,,NNE,29.15,28.98,,Clear
KIGQ,04/24/2017 23:55 UTC,29.8,60.08,40.1,48.03,8.05,20.0,,,,,,1.0,,,,10.0,,KIGQ 242355Z AUTO 02007KT 10SM CLR 16/05 A2980 RMK AO2 T01560045  10226 20156,72.68,60.08,,,,40.21,,NNE,29.15,29.01,,Clear
KIGQ,04/25/2017 00:15 UTC,29.79,58.64,40.1,51.21,6.91,30.0,,,,,,1.0,,,,10.0,,KIGQ 250015Z AUTO 03006KT 10SM CLR 15/05 A2979 RMK AO2  T01480045,,,,,,40.54,,NNE,29.14,29.0,,Clear
KIGQ,04/25/2017 00:35 UTC,29.79,57.2,40.82,54.62,5.75,40.0,,,,,,1.0,,,,10.0,,KIGQ 250035Z AUTO 04005KT 10SM CLR 14/05 A2979 RMK AO2  T01400049,,,,,,40.87,,NE,29.14,29.0,,Clear
KIGQ,04/25/2017 00:55 UTC,29.79,55.94,41.0,58.29,3.44,30.0,,,,,,1.0,,,,10.0,,KIGQ 250055Z AUTO 03003KT 10SM CLR 13/05 A2979 RMK AO2  T01330050,,,,,,41.38,,NNE,29.14,29.0,,Clear
KIGQ,04/25/2017 01:15 UTC,29.78,55.58,41.36,58.29,3.44,50.0,,,,,,1.0,,,,10.0,,KIGQ 250115Z AUTO 05003KT 10SM CLR 13/05 A2978 RMK AO2  T01310052,,,,,,41.04,,NE,29.13,29.0,,Clear
KIGQ,04/25/2017 01:35 UTC,29.78,54.68,42.08,62.48,3.44,90.0,,,,,,1.0,,,,10.0,,KIGQ 250135Z AUTO 09003KT 10SM CLR 13/06 A2978 RMK AO2  T01260056,,,,,,42.0,,E,29.13,28.98,,Clear
KIGQ,04/25/2017 01:55 UTC,29.77,54.68,43.16,62.48,3.44,80.0,,,,,,1.0,,,,10.0,,KIGQ 250155Z AUTO 08003KT 10SM CLR 13/06 A2977 RMK AO2  T01260062,,,,,,42.0,,E,29.12,28.97,,Clear
KIGQ,04/25/2017 02:15 UTC,29.77,54.32,43.16,66.71,6.91,100.0,,,,,,1.0,,,,10.0,,KIGQ 250215Z AUTO 10006KT 10SM CLR 12/06 A2977 RMK AO2  T01240062,,,,,,43.38,,E,29.12,28.94,,Clear
KIGQ,04/25/2017 02:35 UTC,29.77,54.68,43.7,66.93,5.75,100.0,,,,,,1.0,,,,10.0,,KIGQ 250235Z AUTO 10005KT 10SM CLR 13/07 A2977 RMK AO2  T01260065,,,,,,43.81,,E,29.12,28.92,,Clear
KIGQ,04/25/2017 02:55 UTC,29.77,56.66,42.26,58.55,5.75,100.0,,,,,,1.0,,,,10.0,,KIGQ 250255Z AUTO 10005KT 10SM CLR 14/06 A2977 RMK AO2  T01370057,,,,,,42.18,,E,29.12,28.95,,Clear
KIGQ,04/25/2017 03:15 UTC,29.77,56.12,41.9,62.48,6.91,110.0,,,,,,1.0,,,,10.0,,KIGQ 250315Z AUTO 11006KT 10SM CLR 13/06 A2977 RMK AO2  T01340055,,,,,,43.37,,ESE,29.12,28.92,,Clear
KIGQ,04/25/2017 03:35 UTC,29.76,56.84,41.72,54.62,9.22,110.0,,,,,,1.0,,,,10.0,,KIGQ 250335Z AUTO 11008KT 10SM CLR 14/05 A2976 RMK AO2  T01380054,,,,,,40.53,,ESE,29.11,28.99,,Clear
KIGQ,04/25/2017 03:55 UTC,29.77,59.0,41.18,51.21,8.05,120.0,,,,,,1.0,,,,10.0,,KIGQ 250355Z AUTO 12007KT 10SM CLR 15/05 A2977 RMK AO2  T01500051,,,,,,40.87,,ESE,29.12,28.97,,Clear
KIGQ,04/25/2017 04:15 UTC,29.77,59.54,40.82,51.21,9.22,120.0,,,,,,1.0,,,,10.0,,KIGQ 250415Z AUTO 12008KT 10SM CLR 15/05 A2977 RMK AO2  T01530049,,,,,,41.37,,ESE,29.12,28.95,,Clear
KIGQ,04/25/2017 04:35 UTC,29.77,59.0,41.0,51.21,8.05,120.0,,,,,,1.0,,,,10.0,,KIGQ 250435Z AUTO 12007KT 10SM CLR 15/05 A2977 RMK AO2  T01500050,,,,,,40.87,,ESE,29.12,28.97,,Clear
KIGQ,04/25/2017 05:00 UTC,29.76,57.02,41.36,54.62,6.91,120.0,,,,,,1.0,,,,10.0,,KIGQ 250500Z AUTO 12006KT 10SM CLR 14/05 A2976 RMK AO2  T01390052,,,,,,40.7,,ESE,29.11,28.98,,Clear
KIGQ,04/25/2017 05:15 UTC,29.76,55.76,41.9,62.48,4.61,120.0,,,,,,1.0,,,,10.0,,KIGQ 250515Z AUTO 12004KT 10SM CLR 13/06 A2976 RMK AO2  T01320055,,,,,,43.03,,ESE,29.11,28.93,,Clear
KIGQ,04/25/2017 05:35 UTC,29.76,56.48,41.36,54.62,9.22,120.0,,,,,,1.0,,,,10.0,,KIGQ 250535Z AUTO 12008KT 10SM CLR 14/05 A2976 RMK AO2  T01360052,,,,,,40.2,,ESE,29.11,29.0,,Clear
KIGQ,04/25/2017 05:55 UTC,29.76,56.48,41.72,54.62,9.22,120.0,,,,,,1.0,,,,10.0,,KIGQ 250555Z AUTO 12008KT 10SM CLR 14/05 A2976 RMK AO2 T01360054  10155 20117 402260018,59.9,53.06,,72.68,35.24,40.2,,ESE,29.11,29.0,,Clear
KIGQ,04/25/2017 06:15 UTC,29.76,56.3,41.9,58.55,8.05,130.0,,,,,,1.0,,,,10.0,,KIGQ 250615Z AUTO 13007KT 10SM CLR 14/06 A2976 RMK AO2  T01350055,,,,,,41.84,,SE,29.11,28.95,,Clear
KIGQ,04/25/2017 06:35 UTC,29.75,56.3,42.44,58.55,9.22,130.0,16.11,,,,,1.0,,,,10.0,,KIGQ 250635Z AUTO 13008G14KT 10SM CLR 14/06 A2975 RMK AO2  T01350058,,,,,,41.84,,SE,29.1,28.94,,Clear
KIGQ,04/25/2017 06:55 UTC,29.74,55.76,43.34,62.48,10.36,130.0,,,,,,1.0,,,,10.0,,KIGQ 250655Z AUTO 13009KT 10SM CLR 13/06 A2974 RMK AO2  T01320063,,,,,,43.03,,SE,29.09,28.91,,Clear
KIGQ,04/25/2017 07:15 UTC,29.74,55.76,44.06,66.93,9.22,130.0,,,,,,1.0,,,,10.0,,KIGQ 250715Z AUTO 13008KT 10SM CLR 13/07 A2974 RMK AO2  T01320067,,,,,,44.84,,SE,29.09,28.85,,Clear
KIGQ,04/25/2017 07:35 UTC,29.74,56.12,44.96,66.93,10.36,140.0,,,,,,1.0,,,,10.0,,KIGQ 250735Z AUTO 14009KT 10SM CLR 13/07 A2974 RMK AO2  T01340072,,,,,,45.19,,SE,29.09,28.84,,Clear
KIGQ,04/25/2017 07:55 UTC,29.74,55.4,45.5,71.66,8.05,140.0,,,,,,1.0,,,,10.0,,KIGQ 250755Z AUTO 14007KT 10SM CLR 13/08 A2974 RMK AO2  T01300075,,,,,,46.32,,SE,29.09,28.81,,Clear
KIGQ,04/25/2017 08:15 UTC,29.74,55.04,46.4,71.66,8.05,130.0,,,,,,1.0,,,,10.0,,KIGQ 250815Z AUTO 13007KT 10SM CLR 13/08 A2974 RMK AO2  T01280080,,,,,,45.97,,SE,29.09,28.82,,Clear
KIGQ,04/25/2017 08:35 UTC,29.74,54.68,47.12,71.66,8.05,140.0,,,,,,1.0,,,,10.0,,KIGQ 250835Z AUTO 14007KT 10SM CLR 13/08 A2974 RMK AO2  T01260084,,,,,,45.62,,SE,29.09,28.84,,Clear
KIGQ,04/25/2017 08:55 UTC,29.74,54.5,47.48,76.68,5.75,140.0,,,,,,552.0,,,,10.0,,KIGQ 250855Z AUTO 14005KT 10SM SCT055 13/09 A2974 RMK AO2  T01250086,,,,,,47.26,,SE,29.09,28.79,,Partly Cloudy
KIGQ,04/25/2017 09:15 UTC,29.74,54.14,47.66,81.88,5.75,140.0,,,,,,1.0,,,,10.0,,KIGQ 250915Z AUTO 14005KT 10SM CLR 12/09 A2974 RMK AO2  T01230087,,,,,,48.67,,SE,29.09,28.75,,Clear
KIGQ,04/25/2017 09:35 UTC,29.74,53.78,48.2,81.88,4.61,150.0,,,,,,1.0,,,,10.0,,KIGQ 250935Z AUTO 15004KT 10SM CLR 12/09 A2974 RMK AO2  T01210090,,,,,,48.32,,SSE,29.09,28.76,,Clear
KIGQ,04/25/2017 09:55 UTC,29.73,53.42,48.56,83.54,5.75,130.0,,,,,,1.0,,,,10.0,,KIGQ 250955Z AUTO 13005KT 10SM CLR 12/09 A2973 RMK AO2  T01190092,,,,,,48.51,,SE,29.08,28.75,,Clear
KIGQ,04/25/2017 10:15 UTC,29.73,53.42,49.1,87.57,6.91,140.0,,,,,,1.0,,,,10.0,,KIGQ 251015Z AUTO 14006KT 10SM CLR 12/10 A2973 RMK AO2  T01190095,,,,,,49.79,,SE,29.08,28.7,,Clear
KIGQ,04/25/2017 10:35 UTC,29.73,53.6,49.64,87.57,6.91,140.0,,,,,,1.0,,,,10.0,,KIGQ 251035Z AUTO 14006KT 10SM CLR 12/10 A2973 RMK AO2  T01200098,,,,,,49.96,,SE,29.08,28.7,,Clear
KIGQ,04/25/2017 10:55 UTC,29.73,54.14,50.18,87.57,6.91,140.0,,,,,,1.0,,,,10.0,,KIGQ 251055Z AUTO 14006KT 10SM CLR 12/10 A2973 RMK AO2  T01230101,,,,,,50.49,,SE,29.08,28.67,,Clear
KIGQ,04/25/2017 11:15 UTC,29.74,53.96,50.36,87.57,6.91,130.0,,,,,,1.0,,,,10.0,,KIGQ 251115Z AUTO 13006KT 10SM CLR 12/10 A2974 RMK AO2  T01220102,,,,,,50.32,,SE,29.09,28.69,,Clear
KIGQ,04/25/2017 11:35 UTC,29.73,54.68,50.9,87.66,8.05,140.0,,,,,,1.0,,,,10.0,,KIGQ 251135Z AUTO 14007KT 10SM CLR 13/11 A2973 RMK AO2  T01260105,,,,,,51.05,,SE,29.08,28.65,,Clear
KIGQ,04/25/2017 11:55 UTC,29.73,55.4,51.8,87.66,9.22,140.0,,,,,,1.0,,,,10.0,,KIGQ 251155Z AUTO 14008KT 10SM CLR 13/11 A2973 RMK AO2 T01300110  10136 20118,56.48,53.24,,,,51.76,,SE,29.08,28.61,,Clear
KIGQ,04/25/2017 12:15 UTC,29.74,56.12,51.98,87.66,10.36,150.0,16.11,,,,,1.0,,,,10.0,,KIGQ 251215Z AUTO 15009G14KT 10SM CLR 13/11 A2974 RMK AO2  T01340111,,,,,,52.47,,SSE,29.09,28.59,,Clear
KIGQ,04/25/2017 12:35 UTC,29.74,57.74,52.7,87.75,10.36,150.0,16.11,,,,,1.0,,,,10.0,,KIGQ 251235Z AUTO 15009G14KT 10SM CLR 14/12 A2974 RMK AO2  T01430115,,,,,,54.1,,SSE,29.09,28.51,,Clear
KIGQ,04/25/2017 12:55 UTC,29.74,59.0,53.6,82.27,10.36,150.0,16.11,,,,,1.0,,,,10.0,,KIGQ 251255Z AUTO 15009G14KT 10SM CLR 15/12 A2974 RMK AO2  T01500120,,,,,,53.56,,SSE,29.09,28.51,,Clear
KIGQ,04/25/2017 13:15 UTC,29.74,59.18,53.96,82.27,9.22,160.0,,,,,,1.0,,,,10.0,,KIGQ 251315Z AUTO 16008KT 10SM CLR 15/12 A2974 RMK AO2  T01510122,,,,,,53.73,,SSE,29.09,28.5,,Clear
KIGQ,04/25/2017 13:35 UTC,29.74,59.54,54.32,82.27,9.22,170.0,,,,,,1.0,,,,10.0,,KIGQ 251335Z AUTO 17008KT 10SM CLR 15/12 A2974 RMK AO2  T01530124,,,,,,54.08,,S,29.09,28.49,,Clear
KIGQ,04/25/2017 13:55 UTC,29.74,61.88,54.68,77.33,11.5,160.0,,,,,,1.0,,,,10.0,,KIGQ 251355Z AUTO 16010KT 10SM CLR 17/13 A2974 RMK AO2  T01660126,,,,,,54.65,,SSE,29.09,28.44,,Clear
KIGQ,04/25/2017 14:15 UTC,29.74,62.42,54.68,77.33,12.66,170.0,16.11,,,,,1.0,,,,10.0,,KIGQ 251415Z AUTO 17011G14KT 10SM CLR 17/13 A2974 RMK AO2  T01690126,,,,,,55.18,,S,29.09,28.41,,Clear
KIGQ,04/25/2017 14:35 UTC,29.73,64.22,55.22,72.6,11.5,160.0,,,,,,1.0,,,,10.0,,KIGQ 251435Z AUTO 16010KT 10SM CLR 18/13 A2973 RMK AO2  T01790129,,,,,,55.17,,SSE,29.08,28.38,,Clear
KIGQ,04/25/2017 14:55 UTC,29.72,65.48,55.94,68.2,10.36,170.0,,,,,,1.0,,,,10.0,,KIGQ 251455Z AUTO 17009KT 10SM CLR 19/13 A2972 RMK AO2  T01860133,,,,,,54.65,,S,29.07,28.38,,Clear
KIGQ,04/25/2017 15:15 UTC,29.71,66.56,56.48,72.78,9.22,150.0,,,,,,1.0,,,,10.0,,KIGQ 251515Z AUTO 15008KT 10SM CLR 19/14 A2971 RMK AO2  T01920136,,,,,,57.5,,SSE,29.06,28.22,,Clear
KIGQ,04/25/2017 15:35 UTC,29.72,68.0,55.76,64.1,10.36,150.0,,,,,,1.0,,,,10.0,,KIGQ 251535Z AUTO 15009KT 10SM CLR 20/13 A2972 RMK AO2  T02000132,,,,,,55.35,,SSE,29.07,28.32,,Clear
KIGQ,04/25/2017 15:55 UTC,29.71,69.62,56.12,60.27,6.91,140.0,,,,,,1.0,,,,10.0,,KIGQ 251555Z AUTO 14006KT 10SM CLR 21/13 A2971 RMK AO2  T02090134,,,,,,55.18,,SE,29.06,28.3,,Clear
KIGQ,04/25/2017 16:15 UTC,29.71,69.62,54.32,56.44,10.36,160.0,,,,,,1.0,,,,10.0,,KIGQ 251615Z AUTO 16009KT 10SM CLR 21/12 A2971 RMK AO2  T02090124,,,,,,53.37,,SSE,29.06,28.39,,Clear
KIGQ,04/25/2017 16:35 UTC,29.72,71.96,55.4,56.7,11.5,190.0,17.27,,,,,1.0,,,,10.0,,KIGQ 251635Z AUTO 19010G15KT 10SM CLR 22/13 A2972 RMK AO2  T02220130,,,,,,55.69,,S,29.07,28.27,,Clear
KIGQ,04/25/2017 16:55 UTC,29.7,70.7,53.96,53.1,11.5,150.0,,,,,,1.0,,,,10.0,,KIGQ 251655Z AUTO 15010KT 10SM CLR 22/12 A2970 RMK AO2  T02150122,,,,,,52.71,,SSE,29.05,28.39,,Clear
KIGQ,04/25/2017 17:15 UTC,29.7,73.04,54.86,53.36,8.05,170.0,,,,,,1.0,,,,10.0,,KIGQ 251715Z AUTO 17007KT 10SM CLR 23/13 A2970 RMK AO2  T02280127,,,,,,55.03,,S,29.05,28.27,,Clear
KIGQ,04/25/2017 17:35 UTC,29.68,73.58,54.14,49.97,10.36,180.0,18.41,,,,,1.0,,,,10.0,,KIGQ 251735Z AUTO 18009G16KT 10SM CLR 23/12 A2968 RMK AO2  T02310123,,,,,,53.73,,S,29.03,28.3,,Clear
KIGQ,04/25/2017 17:55 UTC,29.68,74.66,55.04,50.25,10.36,180.0,16.11,,,,,1.0,,,,10.0,,KIGQ 251755Z AUTO 18009G14KT 10SM CLR 24/13 A2968 RMK AO2  T02370128 10237 20130,74.66,55.4,,,,54.88,,S,29.03,28.24,,Clear
KIGQ,04/25/2017 18:15 UTC,29.67,75.38,53.78,47.06,14.97,170.0,21.85,,,,,1.0,,,,10.0,,KIGQ 251815Z AUTO 17013G19KT 10SM CLR 24/12 A2967 RMK AO2  T02410121,,,,,,53.74,,S,29.02,28.28,,Clear
KIGQ,04/25/2017 18:35 UTC,29.66,74.84,54.14,47.06,11.5,150.0,18.41,,,,,1.0,,,,10.0,,KIGQ 251835Z AUTO 15010G16KT 110V180 10SM CLR 24/12 A2966 RMK AO2  T02380123,,,,,,53.25,,SSE,29.02,28.3,,Clear
KIGQ,04/25/2017 18:55 UTC,29.66,76.1,54.68,47.51,10.36,190.0,20.71,,,,,1.0,,,,10.0,,KIGQ 251855Z AUTO 19009G18KT 10SM CLR 25/13 A2966 RMK AO2  T02450126,,,,,,54.67,,S,29.02,28.23,,Clear
KIGQ,04/25/2017 19:15 UTC,29.66,76.46,54.14,44.33,13.8,150.0,19.57,,,,,602.0,,,,10.0,,KIGQ 251915Z AUTO 15012G17KT 10SM SCT060 25/12 A2966 RMK AO2  T02470123,,,,,,53.1,,SSE,29.02,28.3,,Partly Cloudy
KIGQ,04/25/2017 19:35 UTC,29.64,75.74,54.68,50.25,11.5,170.0,,,,,,602.0,,,,10.0,,KIGQ 251935Z AUTO 17010KT 10SM SCT060 24/13 A2964 RMK AO2  T02430126,,,,,,55.88,,S,29.0,28.15,,Partly Cloudy
KIGQ,04/25/2017 19:55 UTC,29.63,76.28,54.5,47.33,17.27,160.0,23.02,,,,,1.0,,,,10.0,,KIGQ 251955Z AUTO 16015G20KT 10SM CLR 25/13 A2963 RMK AO2  T02460125,,,,,,54.73,,SSE,28.99,28.19,,Clear
KIGQ,04/25/2017 20:15 UTC,29.63,76.1,54.14,44.33,11.5,170.0,21.85,,,,,1.0,,,,10.0,,KIGQ 252015Z AUTO 17010G19KT 10SM CLR 25/12 A2963 RMK AO2  T02450123,,,,,,52.77,,S,28.99,28.28,,Clear
KIGQ,04/25/2017 20:35 UTC,29.61,75.02,54.5,50.25,12.66,170.0,18.41,,,,,1.0,,,,10.0,,KIGQ 252035Z AUTO 17011G16KT 10SM CLR 24/13 A2961 RMK AO2  T02390125,,,,,,55.21,,S,28.97,28.16,,Clear
KIGQ,04/25/2017 20:55 UTC,29.59,77.36,54.68,47.33,17.27,150.0,20.71,,,,,1.0,,,,10.0,,KIGQ 252055Z AUTO 15015G18KT 10SM CLR 25/13 A2959 RMK AO2  T02520126,,,,,,55.72,,SSE,28.95,28.09,,Clear
KIGQ,04/25/2017 21:15 UTC,29.57,77.36,54.14,44.33,9.22,140.0,19.57,,,,,1.0,,,,10.0,,KIGQ 252115Z AUTO 14008G17KT 10SM CLR 25/12 A2957 RMK AO2  T02520123,,,,,,53.92,,SE,28.93,28.16,,Clear
KIGQ,04/25/2017 21:35 UTC,29.58,77.9,54.32,44.18,12.66,140.0,18.41,,,,,1.0,,,,10.0,,KIGQ 252135Z AUTO 14011G16KT 10SM CLR 26/12 A2958 RMK AO2  T02550124,,,,,,54.32,,SE,28.94,28.15,,Clear
KIGQ,04/25/2017 21:55 UTC,29.58,77.18,54.32,44.33,14.97,170.0,20.71,,,,,1.0,,,,10.0,,KIGQ 252155Z AUTO 17013G18KT 10SM CLR 25/12 A2958 RMK AO2  T02510124,,,,,,53.76,,S,28.94,28.18,,Clear
KIGQ,04/25/2017 22:15 UTC,29.56,77.18,54.32,44.33,14.97,160.0,20.71,,,,,1.0,,,,10.0,,KIGQ 252215Z AUTO 16013G18KT 10SM CLR 25/12 A2956 RMK AO2  T02510124,,,,,,53.76,,SSE,28.92,28.16,,Clear
KIGQ,04/25/2017 22:35 UTC,29.56,76.64,53.42,44.33,16.11,150.0,24.16,,,,,1.0,,,,10.0,,KIGQ 252235Z AUTO 15014G21KT 10SM CLR 25/12 A2956 RMK AO2  T02480119,,,,,,53.26,,SSE,28.92,28.19,,Clear
KIGQ,04/25/2017 22:55 UTC,29.55,76.1,53.96,44.33,13.8,150.0,17.27,,,,,1.0,,,,10.0,,KIGQ 252255Z AUTO 15012G15KT 10SM CLR 25/12 A2955 RMK AO2  T02450122,,,,,,52.77,,SSE,28.91,28.2,,Clear
KIGQ,04/25/2017 23:15 UTC,29.55,75.56,53.6,47.06,16.11,140.0,24.16,,,,,1.0,,,,10.0,,KIGQ 252315Z AUTO 14014G21KT 10SM CLR 24/12 A2955 RMK AO2  T02420120,,,,,,53.91,,SE,28.91,28.16,,Clear
KIGQ,04/25/2017 23:35 UTC,29.55,75.38,54.5,50.25,13.8,140.0,21.85,,,,,1.0,,,,10.0,,KIGQ 252335Z AUTO 14012G19KT 10SM CLR 24/13 A2955 RMK AO2  T02410125,,,,,,55.55,,SE,28.91,28.08,,Clear
KIGQ,04/25/2017 23:55 UTC,29.55,74.66,54.5,50.25,12.66,160.0,18.41,,,,,1.0,,,,10.0,,KIGQ 252355Z AUTO 16011G16KT 10SM CLR 24/13 A2955 RMK AO2  T02370125 10255 20237,77.9,74.66,,,,54.88,,SSE,28.91,28.12,,Clear
KIGQ,04/26/2017 00:15 UTC,29.56,73.58,54.5,53.36,10.36,140.0,18.41,,,,,1.0,,,,10.0,,KIGQ 260015Z AUTO 14009G16KT 10SM CLR 23/13 A2956 RMK AO2  T02310125,,,,,,55.53,,SE,28.92,28.11,,Clear
KIGQ,04/26/2017 00:35 UTC,29.56,72.68,54.86,53.61,6.91,140.0,,,,,,1.0,,,,10.0,,KIGQ 260035Z AUTO 14006KT 10SM CLR 23/13 A2956 RMK AO2  T02260127,,,,,,54.82,,SE,28.92,28.15,,Clear
KIGQ,04/26/2017 00:55 UTC,29.57,71.96,55.04,55.28,6.91,150.0,,,,,,1.0,,,,10.0,,KIGQ 260055Z AUTO 15006KT 10SM CLR 22/13 A2957 RMK AO2  T02220128,,,,,,54.99,,SSE,28.93,28.16,,Clear
KIGQ,04/26/2017 01:15 UTC,29.56,71.6,55.22,56.7,9.22,140.0,,,,,,1.0,,,,10.0,,KIGQ 260115Z AUTO 14008KT 10SM CLR 22/13 A2956 RMK AO2  T02200129,,,,,,55.36,,SE,28.92,28.13,,Clear
KIGQ,04/26/2017 01:35 UTC,29.54,71.42,55.4,57.04,12.66,130.0,,,,,,1.0,,,,10.0,,KIGQ 260135Z AUTO 13011KT 10SM CLR 22/13 A2954 RMK AO2  T02190130,,,,,,55.35,,SE,28.9,28.12,,Clear
KIGQ,04/26/2017 01:55 UTC,29.56,71.42,55.58,56.7,9.22,140.0,,,,,,1.0,,,,10.0,,KIGQ 260155Z AUTO 14008KT 10SM CLR 22/13 A2956 RMK AO2  T02190131,,,,,,55.19,,SE,28.92,28.14,,Clear
KIGQ,04/26/2017 02:15 UTC,29.59,71.06,55.4,56.7,8.05,150.0,,,,,,1.0,,,,10.0,,KIGQ 260215Z AUTO 15007KT 10SM CLR 22/13 A2959 RMK AO2  T02170130,,,,,,54.85,,SSE,28.95,28.19,,Clear
KIGQ,04/26/2017 02:35 UTC,29.59,70.16,55.76,60.27,8.05,170.0,,,,,,1.0,,,,10.0,,KIGQ 260235Z AUTO 17007KT 10SM CLR 21/13 A2959 RMK AO2 LTG DSNT E  T02120132,,,,,,55.69,,S,28.95,28.16,,Clear
KIGQ,04/26/2017 02:55 UTC,29.6,69.08,56.3,64.32,10.36,170.0,,,,,,1.0,,,,10.0,,KIGQ 260255Z AUTO 17009KT 10SM CLR 21/14 A2960 RMK AO2  T02060135,,,,,,56.47,,S,28.96,28.15,,Clear
KIGQ,04/26/2017 03:15 UTC,29.6,68.54,56.3,68.41,6.91,170.0,,,,,,1.0,,,,10.0,,KIGQ 260315Z AUTO 17006KT 10SM CLR 20/14 A2960 RMK AO2  T02030135,,,,,,57.67,,S,28.96,28.09,,Clear
KIGQ,04/26/2017 03:35 UTC,29.6,66.38,55.94,68.2,5.75,160.0,,,,,,1.0,,,,10.0,,KIGQ 260335Z AUTO 16005KT 10SM CLR 19/13 A2960 RMK AO2  T01910133,,,,,,55.52,,SSE,28.96,28.22,,Clear
KIGQ,04/26/2017 03:55 UTC,29.6,65.12,55.76,71.73,5.75,170.0,,,,,,1.0,,,,10.0,,KIGQ 260355Z AUTO 17005KT 10SM CLR 18/13 A2960 RMK AO2  T01840132,,,,,,55.71,,S,28.96,28.22,,Clear
KIGQ,04/26/2017 04:15 UTC,29.59,62.96,55.58,77.33,5.75,160.0,,,,,,1.0,,,,10.0,,KIGQ 260415Z AUTO 16005KT 10SM CLR 17/13 A2959 RMK AO2  T01720131,,,,,,55.7,,SSE,28.95,28.24,,Clear
KIGQ,04/26/2017 04:35 UTC,29.59,64.58,56.12,72.6,5.75,150.0,,,,,,1.0,,,,10.0,,KIGQ 260435Z AUTO 15005KT 10SM CLR 18/13 A2959 RMK AO2  T01810134,,,,,,55.52,,SSE,28.95,28.23,,Clear
KIGQ,04/26/2017 04:55 UTC,29.58,64.4,56.3,77.48,5.75,150.0,,,,,,1.0,,,,10.0,,KIGQ 260455Z AUTO 15005KT 10SM CLR 18/14 A2958 RMK AO2  T01800135,,,,,,57.16,,SSE,28.94,28.14,,Clear
KIGQ,04/26/2017 05:15 UTC,29.58,64.4,56.3,77.48,5.75,150.0,,,,,,1.0,,,,10.0,,KIGQ 260515Z AUTO 15005KT 10SM CLR 18/14 A2958 RMK AO2  T01800135,,,,,,57.16,,SSE,28.94,28.14,,Clear
KIGQ,04/26/2017 05:35 UTC,29.58,64.76,56.3,77.48,6.91,150.0,,,,,,1.0,,,,10.0,,KIGQ 260535Z AUTO 15006KT 10SM CLR 18/14 A2958 RMK AO2  T01820135,,,,,,57.51,,SSE,28.94,28.12,,Clear
KIGQ,04/26/2017 05:55 UTC,29.57,65.3,56.48,73.17,8.05,150.0,,,,,,1.0,,,,10.0,,KIGQ 260555Z AUTO 15007KT 10SM CLR 19/14 A2957 RMK AO2 T01850136  10236 20172 402550118,74.48,62.96,,77.9,53.24,56.43,,SSE,28.93,28.16,,Clear
KIGQ,04/26/2017 06:15 UTC,29.56,65.48,56.66,72.78,9.22,150.0,,,,,,1.0,,,,10.0,,KIGQ 260615Z AUTO 15008KT 10SM CLR 19/14 A2956 RMK AO2  T01860137,,,,,,56.46,,SSE,28.92,28.14,,Clear
KIGQ,04/26/2017 06:35 UTC,29.56,65.3,56.48,72.78,9.22,150.0,,,,,,1.0,,,,10.0,,KIGQ 260635Z AUTO 15008KT 10SM CLR 19/14 A2956 RMK AO2  T01850136,,,,,,56.28,,SSE,28.92,28.15,,Clear
KIGQ,04/26/2017 06:55 UTC,29.55,65.12,56.66,77.48,9.22,150.0,,,,,,1.0,,,,10.0,,KIGQ 260655Z AUTO 15008KT 10SM CLR 18/14 A2955 RMK AO2  T01840137,,,,,,57.86,,SSE,28.91,28.07,,Clear
KIGQ,04/26/2017 07:15 UTC,29.54,64.94,56.84,77.48,10.36,150.0,,,,,,1.0,,,,10.0,,KIGQ 260715Z AUTO 15009KT 10SM CLR 18/14 A2954 RMK AO2  T01830138,,,,,,57.68,,SSE,28.9,28.07,,Clear
KIGQ,04/26/2017 07:35 UTC,29.53,64.4,56.84,76.48,9.22,150.0,,,,,,1.0,,,,10.0,,KIGQ 260735Z AUTO 15008KT 10SM CLR 18/14 A2953 RMK AO2  T01800138,,,,,,56.79,,SSE,28.89,28.11,,Clear
KIGQ,04/26/2017 07:55 UTC,29.53,64.22,57.02,77.48,9.22,160.0,,,,,,1.0,,,,10.0,,KIGQ 260755Z AUTO 16008KT 10SM CLR 18/14 A2953 RMK AO2  T01790139,,,,,,56.98,,SSE,28.89,28.1,,Clear
KIGQ,04/26/2017 08:15 UTC,29.53,64.4,57.2,77.48,9.22,160.0,,,,,,1.0,,,,10.0,,KIGQ 260815Z AUTO 16008KT 10SM CLR 18/14 A2953 RMK AO2  T01800140,,,,,,57.16,,SSE,28.89,28.09,,Clear
KIGQ,04/26/2017 08:35 UTC,29.53,64.4,57.2,77.48,11.5,160.0,,,,,,1.0,,,,10.0,,KIGQ 260835Z AUTO 16010KT 10SM CLR 18/14 A2953 RMK AO2  T01800140,,,,,,57.16,,SSE,28.89,28.09,,Clear
KIGQ,04/26/2017 08:55 UTC,29.52,64.4,57.2,77.48,10.36,160.0,,,,,,1.0,,,,10.0,,KIGQ 260855Z AUTO 16009KT 10SM CLR 18/14 A2952 RMK AO2  T01800140,,,,,,57.16,,SSE,28.88,28.08,,Clear
KIGQ,04/26/2017 09:15 UTC,29.51,64.4,57.2,77.48,11.5,150.0,,,,,,1.0,,,,10.0,,KIGQ 260915Z AUTO 15010KT 10SM CLR 18/14 A2951 RMK AO2  T01800140,,,,,,57.16,,SSE,28.87,28.07,,Clear
KIGQ,04/26/2017 09:35 UTC,29.51,64.58,57.38,77.5,11.5,160.0,16.11,,,,,1.0,,,,10.0,,KIGQ 260935Z AUTO 16010G14KT 10SM CLR 18/14 A2951 RMK AO2  T01810141,,,,,,57.34,,SSE,28.87,28.06,,Clear
KIGQ,04/26/2017 09:55 UTC,29.51,64.76,57.38,77.48,14.97,170.0,19.57,,,,,1.0,,,,10.0,,KIGQ 260955Z AUTO 17013G17KT 10SM CLR 18/14 A2951 RMK AO2  T01820141,,,,,,57.51,,S,28.87,28.05,,Clear
KIGQ,04/26/2017 10:15 UTC,29.51,64.4,57.38,77.48,14.97,170.0,19.57,,,,,1.0,,,,10.0,,KIGQ 261015Z AUTO 17013G17KT 10SM CLR 18/14 A2951 RMK AO2  T01800141,,,,,,57.16,,S,28.87,28.07,,Clear
KIGQ,04/26/2017 10:35 UTC,29.49,64.04,57.38,77.48,13.8,160.0,20.71,,,,,1.0,,,,10.0,,KIGQ 261035Z AUTO 16012G18KT 10SM CLR 18/14 A2949 RMK AO2  T01780141,,,,,,56.81,,SSE,28.85,28.07,,Clear
KIGQ,04/26/2017 10:55 UTC,29.5,63.68,57.38,77.48,12.66,170.0,,,,,,1.0,,,,10.0,,KIGQ 261055Z AUTO 17011KT 10SM CLR 18/14 A2950 RMK AO2  T01760141,,,,,,56.46,,S,28.86,28.1,,Clear
KIGQ,04/26/2017 11:15 UTC,29.49,63.5,57.38,77.48,11.5,170.0,18.41,,,,,1.0,,,,10.0,,KIGQ 261115Z AUTO 17010G16KT 10SM CLR 18/14 A2949 RMK AO2  T01750141,,,,,,56.28,,S,28.85,28.1,,Clear
KIGQ,04/26/2017 11:35 UTC,29.5,63.5,57.2,77.48,12.66,170.0,18.41,,,,,702.0,,,,10.0,,KIGQ 261135Z AUTO 17011G16KT 10SM SCT070 18/14 A2950 RMK AO2  T01750140,,,,,,56.28,,S,28.86,28.11,,Partly Cloudy
KIGQ,04/26/2017 11:55 UTC,29.51,63.5,57.38,77.48,13.8,170.0,,,,,,703.0,,,,10.0,,KIGQ 261155Z AUTO 17012KT 10SM BKN070 18/14 A2951 RMK AO2  T01750141 10188 20173,65.84,63.14,7000.0,,,56.28,,S,28.87,28.12,,Mostly Cloudy
KIGQ,04/26/2017 12:15 UTC,29.52,63.68,57.56,77.48,14.97,170.0,18.41,,,,,604.0,,,,10.0,,KIGQ 261215Z AUTO 17013G16KT 10SM OVC060 18/14 A2952 RMK AO2  T01760142,,,6000.0,,,56.46,,S,28.88,28.12,,Overcast
KIGQ,04/26/2017 12:35 UTC,29.54,63.86,57.56,77.48,13.8,180.0,,,,,,604.0,,,,10.0,,KIGQ 261235Z AUTO 18012KT 10SM OVC060 18/14 A2954 RMK AO2  T01770142,,,6000.0,,,56.63,,S,28.9,28.13,,Overcast
KIGQ,04/26/2017 12:55 UTC,29.49,64.58,58.1,82.65,13.8,160.0,17.27,,853.0,,,602.0,703.0,,,10.0,,KIGQ 261255Z AUTO 16012G15KT 10SM SCT060 BKN070 BKN085 18/15  A2949 RMK AO2 LTG DSNT W AND NW T01810145,,,7000.0,,,59.14,,SSE,28.85,27.95,,Mostly Cloudy
KIGQ,04/26/2017 13:15 UTC,29.49,65.12,58.1,82.65,13.8,170.0,,,,,,702.0,852.0,,,10.0,,KIGQ 261315Z AUTO 17012KT 10SM SCT070 SCT085 18/15 A2949 RMK AO2  LTG DSNT NW T01840145,,,,,,59.67,,S,28.85,27.92,,Partly Cloudy
KIGQ,04/26/2017 13:35 UTC,29.49,65.84,58.46,77.64,13.8,180.0,18.41,,,,,503.0,,,,10.0,,KIGQ 261335Z AUTO 18012G16KT 10SM BKN050 19/15 A2949 RMK AO2 LTG  DSNT NW T01880147,,,5000.0,,,58.61,,S,28.85,27.96,,Mostly Cloudy
KIGQ,04/26/2017 13:55 UTC,29.46,65.84,58.64,77.64,12.66,170.0,18.41,,754.0,,,483.0,603.0,,,10.0,,KIGQ 261355Z AUTO 17011G16KT 10SM BKN048 BKN060 OVC075 19/15  A2946 RMK AO2 LTG DSNT NW T01880148,,,4800.0,,,58.61,,S,28.82,27.93,,Overcast
KIGQ,04/26/2017 14:15 UTC,29.43,68.18,59.36,72.97,12.66,160.0,,,752.0,,,462.0,602.0,,,10.0,,KIGQ 261415Z AUTO 16011KT 10SM SCT046 SCT060 SCT075 20/15  A2943 RMK AO2 T02010152,,,,,,59.14,,SSE,28.79,27.85,,Partly Cloudy
KIGQ,04/26/2017 14:35 UTC,29.43,69.8,60.08,73.15,17.27,180.0,24.16,,,,,1.0,,,,10.0,,KIGQ 261435Z AUTO 18015G21KT 10SM CLR 21/16 A2943 RMK AO2  T02100156,,,,,,60.77,,S,28.79,27.74,,Clear
KIGQ,04/26/2017 14:55 UTC,29.44,71.24,60.62,69.21,16.11,180.0,27.63,,,,,1.0,,,,10.0,,KIGQ 261455Z AUTO 18014G24KT 10SM CLR 22/16 A2944 RMK AO2  T02180159,,,,,,60.59,,S,28.8,27.75,,Clear
KIGQ,04/26/2017 15:15 UTC,29.43,73.04,61.7,69.01,18.41,190.0,23.02,,,,,1.0,,,,10.0,,KIGQ 261515Z AUTO 19016G20KT 10SM CLR 23/17 A2943 RMK AO2  T02280165,,,,,,62.23,,S,28.79,27.62,,Clear
KIGQ,04/26/2017 15:35 UTC,29.44,73.58,61.52,64.76,19.57,190.0,24.16,,,,,1.0,,,,10.0,,KIGQ 261535Z AUTO 19017G21KT 10SM CLR 23/16 A2944 RMK AO2  T02310164,,,,,,60.94,,S,28.8,27.7,,Clear
KIGQ,04/26/2017 15:55 UTC,29.45,74.66,61.88,64.98,20.71,180.0,,,,,,372.0,,,,10.0,,KIGQ 261555Z AUTO 18018KT 10SM SCT037 24/17 A2945 RMK AO2  T02370166,,,,,,62.07,,S,28.81,27.63,,Partly Cloudy
KIGQ,04/26/2017 16:15 UTC,29.46,74.48,61.16,63.26,20.71,200.0,29.93,,,,,394.0,,,,10.0,,KIGQ 261615Z AUTO 20018G26KT 10SM OVC039 24/16 A2946 RMK AO2  T02360162,,,3900.0,,,61.14,,SSW,28.82,27.7,,Overcast
KIGQ,04/26/2017 16:35 UTC,29.47,74.3,60.26,60.98,23.02,220.0,32.21,,,,,413.0,504.0,,,10.0,,KIGQ 261635Z AUTO 22020G28KT 10SM BKN041 OVC050 24/16 A2947 RMK AO2 T02350157,,,4100.0,,,59.93,,SW,28.83,27.78,,Overcast
KIGQ,04/26/2017 16:55 UTC,29.47,76.1,60.44,57.45,23.02,230.0,32.21,,654.0,,,452.0,503.0,,,10.0,,KIGQ 261655Z AUTO 23020G28KT 10SM SCT045 BKN050 OVC065 25/16  A2947 RMK AO2 T02450158,,,5000.0,,,59.95,,SW,28.83,27.76,,Overcast
KIGQ,04/26/2017 17:15 UTC,29.47,75.74,60.62,60.98,25.32,220.0,29.93,,,,,452.0,603.0,,,10.0,,KIGQ 261715Z AUTO 22022G26KT 10SM SCT045 BKN060 24/16 A2947 RMK AO2 T02430159,,,6000.0,,,61.29,,SW,28.83,27.69,,Mostly Cloudy
KIGQ,04/26/2017 17:35 UTC,29.47,77.0,60.44,57.45,21.85,230.0,29.93,,,,,602.0,,,,10.0,,KIGQ 261735Z AUTO 23019G26KT 10SM SCT060 25/16 A2947 RMK AO2  T02500158,,,,,,60.79,,SW,28.83,27.7,,Partly Cloudy
KIGQ,04/26/2017 17:55 UTC,29.48,76.1,59.72,56.96,21.85,220.0,31.07,,,,,452.0,,,,10.0,,KIGQ 261755Z AUTO 22019G27KT 10SM SCT045 25/15 A2948 RMK AO2  T02450154 10250 20175,77.0,63.5,,,,59.71,,SW,28.84,27.79,,Partly Cloudy
KIGQ,04/26/2017 18:15 UTC,29.49,76.1,60.08,57.45,23.02,240.0,31.07,,,,,1.0,,,,10.0,,KIGQ 261815Z AUTO 24020G27KT 10SM CLR 25/16 A2949 RMK AO2  T02450156,,,,,,59.95,,WSW,28.85,27.78,,Clear
KIGQ,04/26/2017 18:35 UTC,29.49,76.1,59.9,57.45,20.71,230.0,29.93,,,,,1.0,,,,10.0,,KIGQ 261835Z AUTO 23018G26KT 10SM CLR 25/16 A2949 RMK AO2  T02450155,,,,,,59.95,,SW,28.85,27.78,,Clear
KIGQ,04/26/2017 18:55 UTC,29.49,76.28,59.72,53.88,18.41,240.0,27.63,,,,,452.0,,,,10.0,,KIGQ 261855Z AUTO 24016G24KT 10SM SCT045 25/15 A2949 RMK AO2  T02460154,,,,,,58.32,,WSW,28.85,27.87,,Partly Cloudy
KIGQ,04/26/2017 19:15 UTC,29.5,75.74,59.0,56.18,17.27,240.0,27.63,,,,,492.0,602.0,,,10.0,,KIGQ 261915Z AUTO 24015G24KT 10SM SCT049 SCT060 24/15 A2950 RMK AO2 T02430150,,,,,,58.98,,WSW,28.86,27.85,,Partly Cloudy
KIGQ,04/26/2017 19:35 UTC,29.5,74.66,58.64,57.2,18.41,220.0,28.77,,,,,493.0,603.0,,,10.0,,KIGQ 261935Z AUTO 22016G25KT 10SM BKN049 BKN060 24/15 A2950 RMK AO2 T02370148,,,4900.0,,,58.47,,SW,28.86,27.89,,Mostly Cloudy
KIGQ,04/26/2017 19:55 UTC,29.5,74.48,59.0,57.2,16.11,220.0,26.46,,,,,493.0,603.0,,,10.0,,KIGQ 261955Z AUTO 22014G23KT 10SM BKN049 BKN060 24/15 A2950 RMK AO2 T02360150,,,4900.0,,,58.3,,SW,28.86,27.9,,Mostly Cloudy
KIGQ,04/26/2017 20:15 UTC,29.49,75.38,59.0,57.2,14.97,240.0,27.63,,,,,492.0,602.0,,,10.0,,KIGQ 262015Z AUTO 24013G24KT 10SM SCT049 SCT060 24/15 A2949 RMK AO2 T02410150,,,,,,59.15,,WSW,28.85,27.83,,Partly Cloudy
KIGQ,04/26/2017 20:35 UTC,29.49,75.56,57.92,53.62,16.11,240.0,24.16,,,,,1.0,,,,10.0,,KIGQ 262035Z AUTO 24014G21KT 10SM CLR 24/14 A2949 RMK AO2  T02420144,,,,,,57.51,,WSW,28.85,27.92,,Clear
KIGQ,04/26/2017 20:55 UTC,29.49,75.74,58.1,57.2,18.41,240.0,24.16,,,,,1.0,,,,10.0,,KIGQ 262055Z AUTO 24016G21KT 10SM CLR 24/15 A2949 RMK AO2  T02430145,,,,,,59.49,,WSW,28.85,27.81,,Clear
KIGQ,04/26/2017 21:15 UTC,29.49,76.1,57.56,52.72,17.27,220.0,27.63,,,,,502.0,602.0,,,10.0,,KIGQ 262115Z AUTO 22015G24KT 10SM SCT050 SCT060 25/14 A2949 RMK AO2 T02450142,,,,,,57.54,,SW,28.85,27.91,,Partly Cloudy
KIGQ,04/26/2017 21:35 UTC,29.48,74.48,57.02,53.62,10.36,210.0,20.71,,,,,603.0,,,,10.0,,KIGQ 262135Z AUTO 21009G18KT 10SM BKN060 24/14 A2948 RMK AO2  T02360139,,,6000.0,,,56.5,,SSW,28.84,27.97,,Mostly Cloudy
KIGQ,04/26/2017 21:55 UTC,29.49,74.84,57.92,55.69,17.27,230.0,,,,,,604.0,,,,10.0,,KIGQ 262155Z AUTO 23015KT 10SM OVC060 24/14 A2949 RMK AO2  T02380144,,,6000.0,,,57.9,,SW,28.85,27.91,,Overcast
KIGQ,04/26/2017 22:15 UTC,29.49,73.94,57.38,56.95,13.8,230.0,,,,,,602.0,704.0,,,10.0,,KIGQ 262215Z AUTO 23012KT 10SM SCT060 OVC070 23/14 A2949 RMK AO2  T02330141,,,7000.0,,,57.68,,SW,28.85,27.93,,Overcast
KIGQ,04/26/2017 22:35 UTC,29.48,73.4,57.92,56.95,9.22,230.0,,,,,,602.0,703.0,,,10.0,,KIGQ 262235Z AUTO 23008KT 10SM SCT060 BKN070 23/14 A2948 RMK AO2  T02300144,,,7000.0,,,57.17,,SW,28.84,27.95,,Mostly Cloudy
KIGQ,04/26/2017 22:55 UTC,29.49,73.58,58.28,58.84,12.66,230.0,19.57,,,,,602.0,703.0,,,10.0,,KIGQ 262255Z AUTO 23011G17KT 10SM SCT060 BKN070 23/15 A2949 RMK AO2 T02310146,,,7000.0,,,58.25,,SW,28.85,27.9,,Mostly Cloudy
KIGQ,04/26/2017 23:15 UTC,29.49,73.4,58.46,60.75,10.36,220.0,19.57,,,,,503.0,703.0,,,10.0,,KIGQ 262315Z AUTO 22009G17KT 10SM BKN050 BKN070 23/15 A2949 RMK AO2 T02300147,,,5000.0,,,58.97,,SW,28.85,27.86,,Mostly Cloudy
KIGQ,04/26/2017 23:35 UTC,29.48,72.86,57.74,56.95,14.97,210.0,24.16,,,,,502.0,,,,10.0,,KIGQ 262335Z AUTO 21013G21KT 10SM SCT050 23/14 A2948 RMK AO2  T02270143,,,,,,56.66,,SSW,28.84,27.98,,Partly Cloudy
KIGQ,04/26/2017 23:55 UTC,29.44,71.24,57.92,60.51,5.75,220.0,,,1003.0,,,472.0,802.0,,,10.0,,KIGQ 262355Z AUTO 22005KT 10SM SCT047 SCT080 BKN100 22/14  A2944 RMK AO2 T02180144 10249 20218,76.82,71.24,10000.0,,,56.82,,SW,28.8,27.94,,Mostly Cloudy
KIGQ,04/27/2017 00:15 UTC,29.44,69.44,58.1,68.61,8.05,200.0,,,,,,1002.0,,,,10.0,,KIGQ 270015Z AUTO 20007KT 10SM SCT100 21/15 A2944 RMK AO2  T02080145,,,,,,58.62,,SSW,28.8,27.87,,Partly Cloudy
KIGQ,04/27/2017 00:35 UTC,29.46,69.8,57.74,64.32,6.91,240.0,,,,,,1.0,,,,10.0,,KIGQ 270035Z AUTO 24006KT 10SM CLR 21/14 A2946 RMK AO2  T02100143,,,,,,57.15,,WSW,28.82,27.96,,Clear
KIGQ,04/27/2017 00:55 UTC,29.46,68.72,58.1,68.93,8.05,260.0,,,,,,1.0,,,,10.0,,KIGQ 270055Z AUTO 26007KT 10SM CLR 20/15 A2946 RMK AO2  T02040145,,,,,,58.06,,W,28.82,27.93,,Clear
KIGQ,04/27/2017 01:15 UTC,29.46,67.82,58.1,72.97,6.91,260.0,,,,,,1002.0,,,,10.0,,KIGQ 270115Z AUTO 26006KT 10SM SCT100 20/15 A2946 RMK AO2  T01990145,,,,,,58.79,,W,28.82,27.9,,Partly Cloudy
KIGQ,04/27/2017 01:35 UTC,29.46,67.46,59.0,72.97,5.75,250.0,,,,,,702.0,1003.0,,,10.0,,KIGQ 270135Z AUTO 25005KT 10SM SCT070 BKN100 20/15 A2946 RMK AO2  T01970150,,,10000.0,,,58.44,,WSW,28.82,27.92,,Mostly Cloudy
KIGQ,04/27/2017 01:55 UTC,29.47,65.84,60.8,82.77,4.61,260.0,,13.0,,,,1104.0,,,,10.0,,KIGQ 270155Z AUTO 26004KT 10SM -RA OVC110 19/16 A2947 RMK AO2  T01880160,,,11000.0,,,60.42,,W,28.83,27.85,,Light Rain
KIGQ,04/27/2017 02:15 UTC,29.49,65.12,60.98,88.11,9.22,250.0,,13.0,,,,1104.0,,,,10.0,,KIGQ 270215Z AUTO 25008KT 10SM -RA OVC110 18/16 A2949 RMK AO2  T01840161,,,11000.0,,,61.49,,WSW,28.85,27.82,,Light Rain
KIGQ,04/27/2017 02:35 UTC,29.5,63.68,60.8,88.11,4.61,240.0,,1.0,,,,1004.0,,,,10.0,,KIGQ 270235Z AUTO 24004KT 10SM RA OVC100 18/16 A2950 RMK AO2  T01760160,,,10000.0,,,60.07,,WSW,28.86,27.93,,Rain
KIGQ,04/27/2017 02:55 UTC,29.49,62.6,61.16,93.84,3.44,180.0,,1.0,,0.08,0.08,703.0,1004.0,,,4.0,,KIGQ 270255Z AUTO 18003KT 4SM RA BKN070 OVC100 17/16 A2949 RMK AO2  P0008 60008 T01700162,,,7000.0,,,60.79,,S,28.85,27.89,,Rain
KIGQ,04/27/2017 03:15 UTC,29.48,61.7,61.7,100.0,3.44,110.0,,14.0,904.0,0.06,,703.0,803.0,,,5.0,,KIGQ 270315Z AUTO 11003KT 5SM +RA BKN070 BKN080 OVC090 17/17  A2948 RMK AO2 P0006 T01650165,,,7000.0,,,61.7,,ESE,28.84,27.85,,Heavy Rain
KIGQ,04/27/2017 03:35 UTC,29.46,61.7,61.7,100.0,6.91,110.0,,13.0,,0.09,,702.0,1104.0,,,7.0,,KIGQ 270335Z AUTO 11006KT 7SM -RA SCT070 OVC110 17/17 A2946 RMK AO2 P0009 T01650165,,,11000.0,,,61.7,,ESE,28.82,27.82,,Light Rain
KIGQ,04/27/2017 03:55 UTC,29.46,61.7,61.7,100.0,8.05,130.0,,1.0,,0.1,,1004.0,,,,7.0,,KIGQ 270355Z AUTO 13007KT 7SM RA OVC100 17/17 A2946 RMK AO2 P0010  T01650165,,,10000.0,,,61.7,,SE,28.82,27.82,,Rain
KIGQ,04/27/2017 04:15 UTC,29.48,60.8,60.8,100.0,9.22,180.0,,1.0,1004.0,,,602.0,802.0,,,10.0,,KIGQ 270415Z AUTO 18008KT 10SM RA SCT060 SCT080 OVC100 16/16  A2948 RMK AO2 T01600160,,,10000.0,,,60.8,,S,28.84,27.9,,Rain
KIGQ,04/27/2017 04:35 UTC,29.46,60.08,60.08,100.0,6.91,190.0,,1.0,954.0,0.03,,603.0,703.0,,,2.5,,KIGQ 270435Z AUTO 19006KT 2 1/2SM RA BKN060 BKN070 OVC095 16/16  A2946 RMK AO2 P0003 T01560156,,,6000.0,,,60.08,,S,28.82,27.93,,Rain
KIGQ,04/27/2017 04:55 UTC,29.46,59.54,59.54,100.0,5.75,180.0,,1.0,1104.0,0.03,,412.0,502.0,,,10.0,,KIGQ 270455Z AUTO 18005KT 10SM RA SCT041 SCT050 OVC110 15/15  A2946 RMK AO2 P0003 T01530153,,,11000.0,,,59.54,,S,28.82,27.96,,Rain
KIGQ,04/27/2017 05:15 UTC,29.44,59.36,59.36,100.0,4.61,180.0,,1.0,1004.0,,,412.0,503.0,,,10.0,,KIGQ 270515Z AUTO 18004KT 10SM RA SCT041 BKN050 OVC100 15/15  A2944 RMK AO2 T01520152,,,5000.0,,,59.36,,S,28.8,27.95,,Rain
KIGQ,04/27/2017 05:35 UTC,29.44,59.54,59.54,100.0,4.61,160.0,,13.0,1004.0,,,72.0,493.0,,,10.0,,KIGQ 270535Z AUTO 16004KT 10SM -RA SCT007 BKN049 OVC100 15/15  A2944 RMK AO2 T01530153,,,4900.0,,,59.54,,SSE,28.8,27.94,,Light Rain
KIGQ,04/27/2017 05:55 UTC,29.44,59.36,59.36,100.0,8.05,170.0,,13.0,954.0,,,72.0,383.0,0.21,,10.0,,KIGQ 270555Z AUTO 17007KT 10SM -RA SCT007 BKN038 OVC095 15/15  A2944 RMK AO2 60021 T01520152 10217 20152 402500152,71.06,59.36,3800.0,77.0,59.36,59.36,,S,28.8,27.95,,Light Rain
KIGQ,04/27/2017 06:15 UTC,29.43,59.36,59.36,100.0,8.05,160.0,,13.0,954.0,,,72.0,203.0,,,10.0,,KIGQ 270615Z AUTO 16007KT 10SM -RA SCT007 BKN020 OVC095 15/15  A2943 RMK AO2 T01520152,,,2000.0,,,59.36,,SSE,28.79,27.94,,Light Rain
KIGQ,04/27/2017 06:35 UTC,29.41,59.36,59.36,100.0,8.05,160.0,,13.0,904.0,,,73.0,203.0,,,10.0,,KIGQ 270635Z AUTO 16007KT 10SM -RA BKN007 BKN020 OVC090 15/15  A2941 RMK AO2 T01520152,,,700.0,,,59.36,,SSE,28.77,27.92,,Light Rain
KIGQ,04/27/2017 06:55 UTC,29.4,59.54,59.54,100.0,9.22,160.0,,13.0,,,,74.0,,,,10.0,,KIGQ 270655Z AUTO 16008KT 10SM -RA OVC007 15/15 A2940 RMK AO2  T01530153,,,700.0,,,59.54,,SSE,28.76,27.9,,Light Rain
KIGQ,04/27/2017 07:15 UTC,29.38,59.9,59.9,100.0,12.66,150.0,,,,,,74.0,,,,10.0,,KIGQ 270715Z AUTO 15011KT 10SM OVC007 16/16 A2938 RMK AO2  T01550155,,,700.0,,,59.9,,SSE,28.74,27.86,,Overcast
KIGQ,04/27/2017 07:35 UTC,29.39,59.9,59.9,100.0,10.36,170.0,19.57,,,,,73.0,114.0,,,10.0,,KIGQ 270735Z AUTO 17009G17KT 10SM BKN007 OVC011 16/16 A2939 RMK AO2 T01550155,,,700.0,,,59.9,,S,28.75,27.87,,Overcast
KIGQ,04/27/2017 07:55 UTC,29.39,59.9,59.9,100.0,13.8,170.0,19.57,13.0,1204.0,,,93.0,443.0,,,10.0,,KIGQ 270755Z AUTO 17012G17KT 10SM -RA BKN009 BKN044 OVC120 16/16  A2939 RMK AO2 T01550155,,,900.0,,,59.9,,S,28.75,27.87,,Light Rain
KIGQ,04/27/2017 08:15 UTC,29.37,59.9,59.18,93.8,13.8,170.0,25.32,13.0,1204.0,,,102.0,153.0,,,10.0,,KIGQ 270815Z AUTO 17012G22KT 10SM -RA SCT010 BKN015 OVC120 16/15  A2937 RMK AO2 T01550151,,,1500.0,,,58.09,,S,28.73,27.94,,Light Rain
KIGQ,04/27/2017 08:35 UTC,29.34,59.54,58.28,100.0,17.27,170.0,23.02,13.0,,,,133.0,334.0,,,10.0,,KIGQ 270835Z AUTO 17015G20KT 10SM -RA BKN013 OVC033 15/15  A2934 RMK AO2 T01530146,,,1300.0,,,59.54,,S,28.7,27.84,,Light Rain
KIGQ,04/27/2017 08:55 UTC,29.35,59.0,58.1,100.0,17.27,180.0,,13.0,904.0,,,152.0,332.0,,,10.0,,KIGQ 270855Z AUTO 18015KT 10SM -RA SCT015 SCT033 OVC090 15/15  A2935 RMK AO2 T01500145,,,9000.0,,,59.0,,S,28.71,27.89,,Light Rain
KIGQ,04/27/2017 09:15 UTC,29.34,58.46,57.38,93.75,16.11,170.0,23.02,13.0,,,,904.0,,,,10.0,,KIGQ 270915Z AUTO 17014G20KT 10SM -RA OVC090 15/14 A2934 RMK AO2  T01470141,,,9000.0,,,56.65,,S,28.7,27.99,,Light Rain
KIGQ,04/27/2017 09:35 UTC,29.33,58.1,56.48,93.75,16.11,180.0,23.02,,,,,552.0,904.0,,,10.0,,KIGQ 270935Z AUTO 18014G20KT 10SM SCT055 OVC090 15/14 A2933 RMK AO2 T01450136,,,9000.0,,,56.29,,S,28.69,28.0,,Overcast
KIGQ,04/27/2017 09:55 UTC,29.33,58.28,56.3,93.75,16.11,180.0,20.71,,,,,553.0,854.0,,,10.0,,KIGQ 270955Z AUTO 18014G18KT 10SM BKN055 OVC085 15/14 A2933 RMK AO2 T01460135,,,5500.0,,,56.47,,S,28.69,27.99,,Overcast
KIGQ,04/27/2017 10:15 UTC,29.33,58.46,56.12,87.85,16.11,180.0,20.71,,554.0,,,342.0,443.0,,,10.0,,KIGQ 271015Z AUTO 18014G18KT 10SM SCT034 BKN044 OVC055 15/13  A2933 RMK AO2 T01470134,,,4400.0,,,54.84,,S,28.69,28.06,,Overcast
KIGQ,04/27/2017 10:35 UTC,29.33,58.1,56.3,93.75,19.57,180.0,26.46,13.0,344.0,,,192.0,243.0,,,10.0,,KIGQ 271035Z AUTO 18017G23KT 10SM -RA SCT019 BKN024 OVC034 15/14  A2933 RMK AO2 T01450135,,,2400.0,,,56.29,,S,28.69,28.0,,Light Rain
KIGQ,04/27/2017 10:55 UTC,29.32,58.1,56.66,93.75,18.41,180.0,29.93,13.0,,,,183.0,234.0,,,10.0,,KIGQ 271055Z AUTO 18016G26KT 10SM -RA BKN018 OVC023 15/14  A2932 RMK AO2 T01450137,,,1800.0,,,56.29,,S,28.68,27.99,,Light Rain
KIGQ,04/27/2017 11:15 UTC,29.31,57.92,56.84,100.0,17.27,170.0,23.02,13.0,,0.01,,183.0,254.0,,,10.0,,KIGQ 271115Z AUTO 17015G20KT 10SM -RA BKN018 OVC025 14/14  A2931 RMK AO2 P0001 T01440138,,,1800.0,,,57.92,,S,28.67,27.91,,Light Rain
KIGQ,04/27/2017 11:35 UTC,29.32,58.46,56.48,93.13,25.32,190.0,32.21,,,0.01,,183.0,234.0,,,10.0,,KIGQ 271135Z AUTO 19022G28KT 10SM BKN018 OVC023 15/14 A2932 RMK AO2 P0001 T01470136,,,1800.0,,,56.46,,S,28.68,27.98,,Overcast
KIGQ,04/27/2017 11:55 UTC,29.36,55.94,53.78,92.44,28.77,250.0,44.87,13.0,234.0,0.01,,82.0,153.0,0.01,0.22,7.0,,KIGQ 271155Z AUTO 25025G39KT 7SM -RA SCT008 BKN015 OVC023 13/12  A2936 RMK AO2 P0001 60001 70022 T01330121 10155 20133,59.9,55.94,1500.0,,,53.76,,WSW,28.72,28.16,,Light Rain
KIGQ,04/27/2017 12:15 UTC,29.39,49.28,48.74,93.5,26.46,240.0,32.21,,,,,83.0,154.0,,,7.0,,KIGQ 271215Z AUTO 24023G28KT 7SM BKN008 OVC015 10/09 A2939 RMK AO2  T00960093,,,800.0,,,47.46,,WSW,28.75,28.49,,Overcast
KIGQ,04/27/2017 12:35 UTC,29.43,48.2,46.76,94.73,19.57,250.0,32.21,,,,,104.0,,,,10.0,,KIGQ 271235Z AUTO 25017G28KT 10SM OVC010 09/08 A2943 RMK AO2  T00900082,,,1000.0,,,46.74,,WSW,28.79,28.56,,Overcast
KIGQ,04/27/2017 12:55 UTC,29.46,47.66,46.4,95.36,21.85,250.0,31.07,,,,,104.0,,,,10.0,,KIGQ 271255Z AUTO 25019G27KT 10SM OVC010 09/08 A2946 RMK AO2  T00870080,,,1000.0,,,46.38,,WSW,28.82,28.61,,Overcast
KIGQ,04/27/2017 13:15 UTC,29.48,46.4,45.14,93.4,19.57,240.0,33.38,,,,,104.0,,,,10.0,,KIGQ 271315Z AUTO 24017G29KT 10SM OVC010 08/07 A2948 RMK AO2  T00800073,,,1000.0,,,44.58,,WSW,28.84,28.69,,Overcast
KIGQ,04/27/2017 13:35 UTC,29.49,46.58,44.6,92.77,24.16,240.0,31.07,,,,,104.0,,,,10.0,,KIGQ 271335Z AUTO 24021G27KT 10SM OVC010 08/07 A2949 RMK AO2  T00810070,,,1000.0,,,44.58,,WSW,28.85,28.7,,Overcast
KIGQ,04/27/2017 13:55 UTC,29.5,45.86,44.42,93.4,24.16,250.0,29.93,,,,,104.0,,,,10.0,,KIGQ 271355Z AUTO 25021G26KT 10SM OVC010 08/07 A2950 RMK AO2  T00770069,,,1000.0,,,44.04,,WSW,28.86,28.73,,Overcast
KIGQ,04/27/2017 14:15 UTC,29.51,46.58,43.88,93.4,23.02,260.0,31.07,,,,,124.0,,,,10.0,,KIGQ 271415Z AUTO 26020G27KT 10SM OVC012 08/07 A2951 RMK AO2  T00810066,,,1200.0,,,44.76,,W,28.87,28.71,,Overcast
KIGQ,04/27/2017 14:35 UTC,29.53,46.4,43.34,87.19,17.27,240.0,26.46,,,,,124.0,,,,10.0,,KIGQ 271435Z AUTO 24015G23KT 10SM OVC012 08/06 A2953 RMK AO2  T00800063,,,1200.0,,,42.75,,WSW,28.89,28.79,,Overcast
KIGQ,04/27/2017 14:55 UTC,29.55,46.4,42.98,87.79,20.71,240.0,28.77,,,,,144.0,,,,10.0,,KIGQ 271455Z AUTO 24018G25KT 10SM OVC014 08/06 A2955 RMK AO2  T00800061,,,1400.0,,,42.94,,WSW,28.91,28.8,,Overcast
KIGQ,04/27/2017 15:15 UTC,29.56,46.04,43.16,87.19,19.57,240.0,29.93,,,,,144.0,,,,10.0,,KIGQ 271515Z AUTO 24017G26KT 10SM OVC014 08/06 A2956 RMK AO2  T00780062,,,1400.0,,,42.4,,WSW,28.92,28.83,,Overcast
KIGQ,04/27/2017 15:35 UTC,29.57,46.4,42.8,87.19,19.57,240.0,27.63,,,,,144.0,,,,10.0,,KIGQ 271535Z AUTO 24017G24KT 10SM OVC014 08/06 A2957 RMK AO2  T00800060,,,1400.0,,,42.75,,WSW,28.93,28.83,,Overcast
KIGQ,04/27/2017 15:55 UTC,29.58,46.4,42.8,87.19,13.8,250.0,,,,,,144.0,,,,10.0,,KIGQ 271555Z AUTO 25012KT 10SM OVC014 08/06 A2958 RMK AO2  T00800060,,,1400.0,,,42.75,,WSW,28.94,28.84,,Overcast
KIGQ,04/27/2017 16:15 UTC,29.59,45.68,42.26,87.19,20.71,250.0,25.32,,,,,144.0,,,,10.0,,KIGQ 271615Z AUTO 25018G22KT 10SM OVC014 08/06 A2959 RMK AO2  T00760057,,,1400.0,,,42.05,,WSW,28.95,28.87,,Overcast
KIGQ,04/27/2017 16:35 UTC,29.6,46.04,42.08,87.19,16.11,240.0,25.32,,,,,144.0,,,,10.0,,KIGQ 271635Z AUTO 24014G22KT 10SM OVC014 08/06 A2960 RMK AO2  T00780056,,,1400.0,,,42.4,,WSW,28.96,28.87,,Overcast
KIGQ,04/27/2017 16:55 UTC,29.61,45.68,41.18,81.34,19.57,260.0,25.32,,,,,184.0,,,,10.0,,KIGQ 271655Z AUTO 26017G22KT 10SM OVC018 08/05 A2961 RMK AO2  T00760051,,,1800.0,,,40.23,,W,28.97,28.94,,Overcast
KIGQ,04/27/2017 17:15 UTC,29.62,45.14,40.1,87.09,18.41,260.0,27.63,,,,,184.0,,,,10.0,,KIGQ 271715Z AUTO 26016G24KT 10SM OVC018 07/05 A2962 RMK AO2  T00730045,,,1800.0,,,41.48,,W,28.98,28.92,,Overcast
KIGQ,04/27/2017 17:35 UTC,29.63,46.22,40.46,81.34,18.41,250.0,25.32,,,,,204.0,,,,10.0,,KIGQ 271735Z AUTO 25016G22KT 10SM OVC020 08/05 A2963 RMK AO2  T00790047,,,2000.0,,,40.76,,WSW,28.99,28.94,,Overcast
KIGQ,04/27/2017 17:55 UTC,29.64,45.68,40.1,81.34,17.27,250.0,24.16,,,,,204.0,,,,10.0,,KIGQ 271755Z AUTO 25015G21KT 10SM OVC020 08/05 A2964 RMK AO2  T00760045 10124 20073,54.32,45.14,2000.0,,,40.23,,WSW,29.0,28.97,,Overcast
KIGQ,04/27/2017 18:15 UTC,29.64,45.14,40.1,87.09,16.11,250.0,23.02,,,,,204.0,,,,10.0,,KIGQ 271815Z AUTO 25014G20KT 10SM OVC020 07/05 A2964 RMK AO2  T00730045,,,2000.0,,,41.48,,WSW,29.0,28.94,,Overcast
KIGQ,04/27/2017 18:35 UTC,29.66,45.14,40.82,87.09,17.27,260.0,23.02,,,,,184.0,,,,10.0,,KIGQ 271835Z AUTO 26015G20KT 10SM OVC018 07/05 A2966 RMK AO2  T00730049,,,1800.0,,,41.48,,W,29.02,28.96,,Overcast
KIGQ,04/27/2017 18:55 UTC,29.66,44.96,40.82,87.09,17.27,250.0,23.02,,,,,184.0,,,,10.0,,KIGQ 271855Z AUTO 25015G20KT 10SM OVC018 07/05 A2966 RMK AO2  T00720049,,,1800.0,,,41.31,39.52,WSW,29.02,28.97,,Overcast
KIGQ,04/27/2017 19:15 UTC,29.67,46.04,41.54,81.34,13.8,240.0,24.16,,294.0,,,183.0,243.0,,,10.0,,KIGQ 271915Z AUTO 24012G21KT 10SM BKN018 BKN024 OVC029 08/05  A2967 RMK AO2 T00780053,,,1800.0,,,40.58,,WSW,29.02,28.98,,Overcast
KIGQ,04/27/2017 19:35 UTC,29.69,45.68,41.18,84.17,11.5,240.0,,,,,,184.0,,,,10.0,,KIGQ 271935Z AUTO 24010KT 10SM OVC018 08/05 A2969 RMK AO2  T00760051,,,1800.0,,,41.12,,WSW,29.04,28.99,,Overcast
KIGQ,04/27/2017 19:55 UTC,29.7,46.04,40.64,81.34,17.27,240.0,26.46,,,,,204.0,,,,10.0,,KIGQ 271955Z AUTO 24015G23KT 10SM OVC020 08/05 A2970 RMK AO2  T00780048,,,2000.0,,,40.58,,WSW,29.05,29.01,,Overcast
KIGQ,04/27/2017 20:15 UTC,29.71,46.76,41.0,81.34,19.57,230.0,26.46,,,,,204.0,,,,10.0,,KIGQ 272015Z AUTO 23017G23KT 10SM OVC020 08/05 A2971 RMK AO2  T00820050,,,2000.0,,,41.28,,SW,29.06,28.99,,Overcast
KIGQ,04/27/2017 20:35 UTC,29.71,46.58,41.0,81.34,18.41,230.0,24.16,,,,,244.0,,,,10.0,,KIGQ 272035Z AUTO 23016G21KT 10SM OVC024 08/05 A2971 RMK AO2  T00810050,,,2400.0,,,41.11,,SW,29.06,29.0,,Overcast
KIGQ,04/27/2017 20:55 UTC,29.71,46.94,41.18,81.34,12.66,240.0,21.85,,,,,223.0,284.0,,,10.0,,KIGQ 272055Z AUTO 24011G19KT 10SM BKN022 OVC028 08/05 A2971 RMK AO2 T00830051,,,2200.0,,,41.46,,WSW,29.06,28.99,,Overcast
KIGQ,04/27/2017 21:15 UTC,29.72,46.94,41.18,81.34,18.41,240.0,24.16,,,,,224.0,,,,10.0,,KIGQ 272115Z AUTO 24016G21KT 10SM OVC022 08/05 A2972 RMK AO2  T00830051,,,2200.0,,,41.46,,WSW,29.07,29.0,,Overcast
KIGQ,04/27/2017 21:35 UTC,29.72,47.66,41.54,76.02,19.57,240.0,,,394.0,,,253.0,303.0,,,10.0,,KIGQ 272135Z AUTO 24017KT 10SM BKN025 BKN030 OVC039 09/05  A2972 RMK AO2 T00870053,,,2500.0,,,40.39,,WSW,29.07,29.02,,Overcast
KIGQ,04/27/2017 21:55 UTC,29.72,47.48,41.36,79.19,13.8,240.0,19.57,,,,,234.0,,,,10.0,,KIGQ 272155Z AUTO 24012G17KT 10SM OVC023 09/05 A2972 RMK AO2  T00860052,,,2300.0,,,41.28,,WSW,29.07,29.0,,Overcast
KIGQ,04/27/2017 22:15 UTC,29.73,47.3,41.18,76.02,13.8,230.0,21.85,,,,,234.0,,,,10.0,,KIGQ 272215Z AUTO 23012G19KT 10SM OVC023 09/05 A2973 RMK AO2  T00850051,,,2300.0,,,40.04,,SW,29.08,29.04,,Overcast
KIGQ,04/27/2017 22:35 UTC,29.74,47.48,41.36,76.02,16.11,240.0,21.85,,,,,234.0,,,,10.0,,KIGQ 272235Z AUTO 24014G19KT 10SM OVC023 09/05 A2974 RMK AO2  T00860052,,,2300.0,,,40.22,,WSW,29.09,29.05,,Overcast
KIGQ,04/27/2017 22:55 UTC,29.74,47.3,41.72,76.02,12.66,240.0,20.71,,,,,234.0,,,,10.0,,KIGQ 272255Z AUTO 24011G18KT 10SM OVC023 09/05 A2974 RMK AO2  T00850054,,,2300.0,,,40.04,,WSW,29.09,29.05,,Overcast
KIGQ,04/27/2017 23:15 UTC,29.74,47.3,41.54,76.02,14.97,230.0,24.16,,,,,233.0,304.0,,,10.0,,KIGQ 272315Z AUTO 23013G21KT 10SM BKN023 OVC030 09/05 A2974 RMK AO2 T00850053,,,2300.0,,,40.04,,SW,29.09,29.05,,Overcast
KIGQ,04/27/2017 23:35 UTC,29.74,47.48,41.9,81.48,12.66,240.0,18.41,,,,,232.0,324.0,,,10.0,,KIGQ 272335Z AUTO 24011G16KT 10SM SCT023 OVC032 09/06 A2974 RMK AO2 T00860055,,,3200.0,,,42.03,,WSW,29.09,29.0,,Overcast
KIGQ,04/27/2017 23:55 UTC,29.76,47.3,41.72,76.02,13.8,250.0,,,,,,233.0,324.0,,,10.0,,KIGQ 272355Z AUTO 25012KT 10SM BKN023 OVC032 09/05 A2976 RMK AO2  T00850054 10089 20071,48.02,44.78,2300.0,,,40.04,,WSW,29.11,29.07,,Overcast
KIGQ,04/28/2017 00:15 UTC,29.77,47.3,41.36,76.02,10.36,250.0,16.11,,,,,243.0,304.0,,,10.0,,KIGQ 280015Z AUTO 25009G14KT 10SM BKN024 OVC030 09/05 A2977 RMK AO2 T00850052,,,2400.0,,,40.04,,WSW,29.12,29.08,,Overcast
KIGQ,04/28/2017 00:35 UTC,29.77,46.94,41.0,81.34,13.8,250.0,18.41,,,,,274.0,,,,10.0,,KIGQ 280035Z AUTO 25012G16KT 10SM OVC027 08/05 A2977 RMK AO2  T00830050,,,2700.0,,,41.46,,WSW,29.12,29.05,,Overcast
KIGQ,04/28/2017 00:55 UTC,29.79,46.76,41.0,81.34,13.8,250.0,19.57,,,,,263.0,304.0,,,10.0,,KIGQ 280055Z AUTO 25012G17KT 10SM BKN026 OVC030 08/05 A2979 RMK AO2 T00820050,,,2600.0,,,41.28,,WSW,29.14,29.08,,Overcast
KIGQ,04/28/2017 01:15 UTC,29.81,46.94,40.64,81.34,16.11,250.0,19.57,,,,,284.0,,,,10.0,,KIGQ 280115Z AUTO 25014G17KT 10SM OVC028 08/05 A2981 RMK AO2  T00830048,,,2800.0,,,41.46,,WSW,29.16,29.09,,Overcast
KIGQ,04/28/2017 01:35 UTC,29.82,46.4,40.46,81.34,12.66,260.0,24.16,,,,,244.0,,,,10.0,,KIGQ 280135Z AUTO 26011G21KT 10SM OVC024 08/05 A2982 RMK AO2  T00800047,,,2400.0,,,40.93,,W,29.17,29.12,,Overcast
KIGQ,04/28/2017 01:55 UTC,29.82,46.04,40.64,81.34,9.22,270.0,,,,,,244.0,,,,10.0,,KIGQ 280155Z AUTO 27008KT 10SM OVC024 08/05 A2982 RMK AO2  T00780048,,,2400.0,,,40.58,,W,29.17,29.13,,Overcast
KIGQ,04/28/2017 02:15 UTC,29.83,45.68,40.1,81.34,8.05,260.0,,,,,,242.0,344.0,,,10.0,,KIGQ 280215Z AUTO 26007KT 10SM SCT024 OVC034 08/05 A2983 RMK AO2  T00760045,,,3400.0,,,40.23,,W,29.18,29.15,,Overcast
KIGQ,04/28/2017 02:35 UTC,29.85,45.68,40.28,81.34,6.91,250.0,,,,,,364.0,,,,10.0,,KIGQ 280235Z AUTO 25006KT 10SM OVC036 08/05 A2985 RMK AO2  T00760046,,,3600.0,,,40.23,,WSW,29.2,29.17,,Overcast
KIGQ,04/28/2017 02:55 UTC,29.86,45.86,40.1,81.34,8.05,240.0,,,,,,364.0,,,,10.0,,KIGQ 280255Z AUTO 24007KT 10SM OVC036 08/05 A2986 RMK AO2  T00770045,,,3600.0,,,40.4,,WSW,29.21,29.18,,Overcast
KIGQ,04/28/2017 03:15 UTC,29.87,45.68,40.1,81.34,8.05,240.0,,,,,,364.0,,,,10.0,,KIGQ 280315Z AUTO 24007KT 10SM OVC036 08/05 A2987 RMK AO2  T00760045,,,3600.0,,,40.23,,WSW,29.22,29.19,,Overcast
KIGQ,04/28/2017 03:35 UTC,29.88,44.42,40.1,87.09,6.91,220.0,,,,,,362.0,423.0,,,10.0,,KIGQ 280335Z AUTO 22006KT 10SM SCT036 BKN042 07/05 A2988 RMK AO2  T00690045,,,4200.0,,,40.78,,SW,29.23,29.2,,Mostly Cloudy
KIGQ,04/28/2017 03:55 UTC,29.88,42.08,39.56,86.99,5.75,200.0,,,,,,412.0,,,,10.0,,KIGQ 280355Z AUTO 20005KT 10SM SCT041 06/04 A2988 RMK AO2  T00560042,,,,,,38.44,,SSW,29.23,29.27,,Partly Cloudy
KIGQ,04/28/2017 04:15 UTC,29.88,40.1,38.48,93.24,5.75,180.0,,,,,,412.0,,,,10.0,,KIGQ 280415Z AUTO 18005KT 10SM SCT041 05/04 A2988 RMK AO2  T00450036,,,,,,38.28,,S,29.23,29.29,,Partly Cloudy
KIGQ,04/28/2017 04:35 UTC,29.87,41.0,39.38,93.24,3.44,190.0,,,,,,413.0,,,,10.0,,KIGQ 280435Z AUTO 19003KT 10SM BKN041 05/04 A2987 RMK AO2  T00500041,,,4100.0,,,39.17,,S,29.22,29.25,,Mostly Cloudy
KIGQ,04/28/2017 04:55 UTC,29.87,39.38,38.12,93.19,3.44,190.0,,,,,,412.0,,,,10.0,,KIGQ 280455Z AUTO 19003KT 10SM SCT041 04/03 A2987 RMK AO2  T00410034,,,,,,37.55,,S,29.22,29.3,,Partly Cloudy
KIGQ,04/28/2017 05:15 UTC,29.88,40.46,39.56,93.24,0.0,0.0,,,,,,1.0,,,,10.0,,KIGQ 280515Z AUTO 00000KT 10SM CLR 05/04 A2988 RMK AO2  T00470042,,,,,,38.64,,N,29.23,29.28,,Clear
KIGQ,04/28/2017 05:35 UTC,29.88,41.0,40.46,100.0,0.0,0.0,,,,,,1.0,,,,10.0,,KIGQ 280535Z AUTO 00000KT 10SM CLR 05/05 A2988 RMK AO2  T00500047,,,,,,41.0,,N,29.23,29.22,,Clear
KIGQ,04/28/2017 05:55 UTC,29.89,42.08,41.0,93.3,0.0,0.0,,,,,,1.0,,,,10.0,,KIGQ 280555Z AUTO 00000KT 10SM CLR 06/05 A2989 RMK AO2 T00560050  10085 20040 401550040,47.3,39.2,,59.9,39.2,40.26,,N,29.24,29.24,,Clear
KIGQ,04/28/2017 06:15 UTC,29.89,42.08,40.46,93.3,3.44,260.0,,,,,,1.0,,,,10.0,,KIGQ 280615Z AUTO 26003KT 10SM CLR 06/05 A2989 RMK AO2  T00560047,,,,,,40.26,,W,29.24,29.24,,Clear
KIGQ,04/28/2017 06:35 UTC,29.89,41.18,40.1,100.0,3.44,280.0,,,,,,1.0,,,,10.0,,KIGQ 280635Z AUTO 28003KT 10SM CLR 05/05 A2989 RMK AO2  T00510045,,,,,,41.18,,W,29.24,29.23,,Clear
KIGQ,04/28/2017 06:55 UTC,29.88,41.36,40.82,100.0,3.44,250.0,,,,,,1.0,,,,10.0,,KIGQ 280655Z AUTO 25003KT 10SM CLR 05/05 A2988 RMK AO2  T00520049,,,,,,41.36,,WSW,29.23,29.21,,Clear
KIGQ,04/28/2017 07:15 UTC,29.88,40.46,39.74,93.24,0.0,0.0,,,,,,1.0,,,,10.0,,KIGQ 280715Z AUTO 00000KT 10SM CLR 05/04 A2988 RMK AO2  T00470043,,,,,,38.64,,N,29.23,29.28,,Clear
KIGQ,04/28/2017 07:35 UTC,29.89,41.72,40.82,100.0,0.0,0.0,,,,,,1.0,,,,10.0,,KIGQ 280735Z AUTO 00000KT 10SM CLR 05/05 A2989 RMK AO2  T00540049,,,,,,41.72,,N,29.24,29.21,,Clear
KIGQ,04/28/2017 07:55 UTC,29.88,41.9,41.36,93.3,4.61,210.0,,,,,,1.0,,,,10.0,,KIGQ 280755Z AUTO 21004KT 10SM CLR 06/05 A2988 RMK AO2  T00550052,,,,,,40.08,,SSW,29.23,29.24,,Clear
KIGQ,04/28/2017 08:15 UTC,29.89,44.06,43.7,100.0,6.91,210.0,,,,,,1.0,,,,10.0,,KIGQ 280815Z AUTO 21006KT 10SM CLR 07/07 A2989 RMK AO2  T00670065,,,,,,44.06,,SSW,29.24,29.13,,Clear
KIGQ,04/28/2017 08:35 UTC,29.88,44.24,43.7,100.0,5.75,210.0,,,,,,1202.0,,,,10.0,,KIGQ 280835Z AUTO 21005KT 10SM SCT120 07/07 A2988 RMK AO2  T00680065,,,,,,44.24,,SSW,29.23,29.12,,Partly Cloudy
KIGQ,04/28/2017 08:55 UTC,29.85,44.06,43.52,93.35,0.0,0.0,,,,,,1202.0,,,,10.0,,KIGQ 280855Z AUTO 00000KT 10SM SCT120 07/06 A2985 RMK AO2  T00670064,,,,,,42.24,,N,29.2,29.14,,Partly Cloudy
KIGQ,04/28/2017 09:15 UTC,29.86,43.7,43.16,93.35,0.0,0.0,,,,,,1002.0,,,,10.0,,KIGQ 280915Z AUTO 00000KT 10SM SCT100 07/06 A2986 RMK AO2  T00650062,,,,,,41.88,,N,29.21,29.16,,Partly Cloudy
KIGQ,04/28/2017 09:35 UTC,29.87,43.88,43.52,93.35,0.0,0.0,,,,,,1004.0,,,,7.0,,KIGQ 280935Z AUTO 00000KT 7SM OVC100 07/06 A2987 RMK AO2  T00660064,,,10000.0,,,42.06,,N,29.22,29.16,,Overcast
KIGQ,04/28/2017 09:55 UTC,29.88,43.34,42.8,100.0,3.44,340.0,,,,,,904.0,,,,10.0,,KIGQ 280955Z AUTO 34003KT 10SM OVC090 06/06 A2988 RMK AO2  T00630060,,,9000.0,,,43.34,,NNW,29.23,29.15,,Overcast
KIGQ,04/28/2017 10:15 UTC,29.89,42.8,41.9,100.0,0.0,0.0,,,,,,903.0,,,,7.0,,KIGQ 281015Z AUTO 00000KT 7SM BKN090 06/06 A2989 RMK AO2  T00600055,,,9000.0,,,42.8,,N,29.24,29.18,,Mostly Cloudy
KIGQ,04/28/2017 10:35 UTC,29.91,42.8,41.9,100.0,0.0,0.0,,,,,,1.0,,,,7.0,,KIGQ 281035Z AUTO 00000KT 7SM CLR 06/06 A2991 RMK AO2  T00600055,,,,,,42.8,,N,29.26,29.2,,Clear
KIGQ,04/28/2017 10:55 UTC,29.93,39.74,39.74,100.0,5.75,200.0,,31.0,,,,1.0,,,,5.0,,KIGQ 281055Z AUTO 20005KT 5SM BR CLR 04/04 A2993 RMK AO2  T00430043,,,,,,39.74,,SSW,29.28,29.31,,Mist
KIGQ,04/28/2017 11:15 UTC,29.93,39.74,39.74,100.0,0.0,0.0,,31.0,,,,1.0,,,,3.0,,KIGQ 281115Z AUTO 00000KT 3SM BR CLR 04/04 A2993 RMK AO2  T00430043,,,,,,39.74,,N,29.28,29.31,,Mist
KIGQ,04/28/2017 11:35 UTC,29.94,41.0,41.0,100.0,0.0,0.0,,31.0,,,,1.0,,,,5.0,,KIGQ 281135Z AUTO 00000KT 5SM BR CLR 05/05 A2994 RMK AO2  T00500050,,,,,,41.0,,N,29.29,29.29,,Mist
KIGQ,04/28/2017 11:55 UTC,29.94,40.28,40.28,100.0,0.0,0.0,,31.0,,,,1202.0,,,,4.0,,KIGQ 281155Z AUTO 00000KT 4SM BR SCT120 05/05 A2994 RMK AO2  T00460046 10070 20038,44.6,38.84,,,,40.28,,N,29.29,29.31,,Mist
KIGQ,04/28/2017 12:15 UTC,29.95,43.7,43.7,100.0,0.0,0.0,,31.0,,,,1202.0,,,,4.0,,KIGQ 281215Z AUTO 00000KT 4SM BR SCT120 07/07 A2995 RMK AO2  T00650065,,,,,,43.7,,N,29.3,29.21,,Mist
KIGQ,04/28/2017 12:35 UTC,29.94,45.5,44.24,93.4,0.0,0.0,,31.0,,,,1.0,,,,5.0,,KIGQ 281235Z AUTO 00000KT 5SM BR CLR 08/07 A2994 RMK AO2  T00750068,,,,,,43.68,,N,29.29,29.18,,Mist
KIGQ,04/28/2017 12:55 UTC,29.95,47.3,44.78,87.28,0.0,0.0,,,,,,1.0,,,,7.0,,KIGQ 281255Z AUTO 00000KT 7SM CLR 09/07 A2995 RMK AO2  T00850071,,,,,,43.67,,N,29.3,29.17,,Clear
KIGQ,04/28/2017 13:15 UTC,29.96,48.92,46.04,93.45,4.61,200.0,,,,,,1.0,,,,10.0,,KIGQ 281315Z AUTO 20004KT 10SM CLR 09/08 A2996 RMK AO2  T00940078,,,,,,47.09,,SSW,29.31,29.07,,Clear
KIGQ,04/28/2017 13:35 UTC,29.96,50.72,46.76,87.38,5.75,190.0,,,,,,1.0,,,,10.0,,KIGQ 281335Z AUTO 19005KT 10SM CLR 10/08 A2996 RMK AO2  T01040082,,,,,,47.07,,S,29.31,29.05,,Clear
KIGQ,04/28/2017 13:55 UTC,29.93,51.62,47.12,81.75,0.0,0.0,,,,,,1202.0,,,,10.0,,KIGQ 281355Z AUTO 00000KT 10SM SCT120 11/08 A2993 RMK AO2  T01090084,,,,,,46.17,,N,29.28,29.04,,Partly Cloudy
KIGQ,04/28/2017 14:15 UTC,29.92,52.16,46.94,81.75,0.0,0.0,,,,,,1.0,,,,10.0,,KIGQ 281415Z AUTO 00000KT 10SM CLR 11/08 A2992 RMK AO2  T01120083,,,,,,46.69,,N,29.27,29.01,,Clear
KIGQ,04/28/2017 14:35 UTC,29.93,52.88,47.3,81.88,0.0,0.0,,,,,,1202.0,,,,10.0,,KIGQ 281435Z AUTO 00000KT 10SM SCT120 12/09 A2993 RMK AO2  T01160085,,,,,,47.44,,N,29.28,28.99,,Partly Cloudy
KIGQ,04/28/2017 14:55 UTC,29.93,53.6,47.66,81.88,0.0,0.0,,,,,,1202.0,,,,10.0,,KIGQ 281455Z AUTO 00000KT 10SM SCT120 12/09 A2993 RMK AO2  T01200087,,,,,,48.14,,N,29.28,28.96,,Partly Cloudy
KIGQ,04/28/2017 15:15 UTC,29.95,53.42,47.84,81.88,4.61,210.0,,,,,,1103.0,,,,10.0,,KIGQ 281515Z AUTO 21004KT 10SM BKN110 12/09 A2995 RMK AO2  T01190088,,,11000.0,,,47.97,,SSW,29.3,28.99,,Mostly Cloudy
KIGQ,04/28/2017 15:35 UTC,29.96,54.14,48.74,81.88,5.75,180.0,,,,,,1104.0,,,,10.0,,KIGQ 281535Z AUTO 18005KT 10SM OVC110 12/09 A2996 RMK AO2  T01230093,,,11000.0,,,48.67,,S,29.31,28.97,,Overcast
KIGQ,04/28/2017 15:55 UTC,29.96,55.76,49.64,82.01,8.05,180.0,,,,,,1104.0,,,,10.0,,KIGQ 281555Z AUTO 18007KT 10SM OVC110 13/10 A2996 RMK AO2  T01320098,,,11000.0,,,50.3,,S,29.31,28.9,,Overcast
KIGQ,04/28/2017 16:15 UTC,29.95,56.12,49.82,82.01,8.05,170.0,,,,,,1104.0,,,,10.0,,KIGQ 281615Z AUTO 17007KT 10SM OVC110 13/10 A2995 RMK AO2  T01340099,,,11000.0,,,50.65,,S,29.3,28.87,,Overcast
KIGQ,04/28/2017 16:35 UTC,29.95,56.12,49.82,82.01,12.66,170.0,16.11,,1104.0,,,222.0,803.0,,,10.0,,KIGQ 281635Z AUTO 17011G14KT 10SM SCT022 BKN080 OVC110 13/10  A2995 RMK AO2 T01340099,,,8000.0,,,50.65,,S,29.3,28.87,,Overcast
KIGQ,04/28/2017 16:55 UTC,29.95,55.4,49.28,82.01,11.5,170.0,,,1004.0,,,222.0,803.0,,,10.0,,KIGQ 281655Z AUTO 17010KT 10SM SCT022 BKN080 OVC100 13/10  A2995 RMK AO2 T01300096,,,8000.0,,,49.95,,S,29.3,28.9,,Overcast
KIGQ,04/28/2017 17:15 UTC,29.96,55.22,48.92,76.68,12.66,180.0,18.41,,904.0,,,222.0,802.0,,,10.0,,KIGQ 281715Z AUTO 18011G16KT 10SM SCT022 SCT080 OVC090 13/09  A2996 RMK AO2 LTG DSNT SW T01290094,,,9000.0,,,47.96,,S,29.31,28.98,,Overcast
KIGQ,04/28/2017 17:35 UTC,29.95,55.4,49.82,82.01,4.61,160.0,,,,,,904.0,,,,10.0,,KIGQ 281735Z AUTO 16004KT 10SM OVC090 13/10 A2995 RMK AO2  T01300099,,,9000.0,,,49.95,,SSE,29.3,28.9,,Overcast
KIGQ,04/28/2017 17:55 UTC,29.93,55.4,48.92,76.68,5.75,130.0,,,,,,702.0,804.0,,,10.0,,KIGQ 281755Z AUTO 13005KT 10SM SCT070 OVC080 13/09 A2993 RMK AO2  T01300094 10137 20047,56.66,40.46,8000.0,,,48.13,,SE,29.28,28.94,,Overcast
KIGQ,04/28/2017 18:15 UTC,29.92,56.12,48.38,76.68,5.75,130.0,,,,,,704.0,,,,10.0,,KIGQ 281815Z AUTO 13005KT 10SM OVC070 13/09 A2992 RMK AO2  T01340091,,,7000.0,,,48.83,,SE,29.27,28.9,,Overcast
KIGQ,04/28/2017 18:35 UTC,29.92,56.48,48.38,71.85,9.22,140.0,,,,,,702.0,804.0,,,10.0,,KIGQ 281835Z AUTO 14008KT 10SM SCT070 OVC080 14/09 A2992 RMK AO2  T01360091,,,8000.0,,,47.43,,SE,29.27,28.95,,Overcast
KIGQ,04/28/2017 18:55 UTC,29.91,56.3,48.38,71.85,6.91,110.0,,,,,,904.0,,,,10.0,,KIGQ 281855Z AUTO 11006KT 10SM OVC090 14/09 A2991 RMK AO2  T01350091,,,9000.0,,,47.25,,ESE,29.26,28.94,,Overcast
KIGQ,04/28/2017 19:15 UTC,29.91,57.2,48.56,71.85,5.75,140.0,,,,,,904.0,,,,10.0,,KIGQ 281915Z AUTO 14005KT 10SM OVC090 14/09 A2991 RMK AO2  T01400092,,,9000.0,,,48.12,,SE,29.26,28.91,,Overcast
KIGQ,04/28/2017 19:35 UTC,29.92,58.28,49.28,72.04,6.91,140.0,,,,,,903.0,1204.0,,,10.0,,KIGQ 281935Z AUTO 14006KT 10SM BKN090 OVC120 15/10 A2992 RMK AO2  T01460096,,,9000.0,,,49.23,,SE,29.27,28.87,,Overcast
KIGQ,04/28/2017 19:55 UTC,29.9,58.46,49.1,72.04,9.22,150.0,,,,,,902.0,1202.0,,,10.0,,KIGQ 281955Z AUTO 15008KT 10SM SCT090 SCT120 15/10 A2990 RMK AO2  T01470095,,,,,,49.41,,SSE,29.25,28.84,,Partly Cloudy
KIGQ,04/28/2017 20:15 UTC,29.88,58.64,48.92,67.36,8.05,150.0,,,,,,1202.0,,,,10.0,,KIGQ 282015Z AUTO 15007KT 10SM SCT120 15/09 A2988 RMK AO2 LTG DSNT  S T01480094,,,,,,47.77,,SSE,29.23,28.88,,Partly Cloudy
KIGQ,04/28/2017 20:35 UTC,29.88,57.74,49.1,72.88,5.75,160.0,,,,,,1104.0,,,,10.0,,KIGQ 282035Z AUTO 16005KT 10SM OVC110 14/10 A2988 RMK AO2  T01430095,,,11000.0,,,49.03,,SSE,29.23,28.84,,Overcast
KIGQ,04/28/2017 20:55 UTC,29.84,59.9,50.72,67.57,8.05,110.0,,,,,,1104.0,,,,10.0,,KIGQ 282055Z AUTO 11007KT 10SM OVC110 16/10 A2984 RMK AO2  T01550104,,,11000.0,,,49.06,,ESE,29.19,28.78,,Overcast
KIGQ,04/28/2017 21:15 UTC,29.82,60.98,51.08,72.23,10.36,110.0,,,,,,1102.0,,,,10.0,,KIGQ 282115Z AUTO 11009KT 10SM SCT110 16/11 A2982 RMK AO2 LTG DSNT  S T01610106,,,,,,51.91,,ESE,29.17,28.64,,Partly Cloudy
KIGQ,04/28/2017 21:35 UTC,29.84,60.08,50.18,67.57,11.5,130.0,18.41,,,,,1.0,,,,10.0,,KIGQ 282135Z AUTO 13010G16KT 10SM CLR 16/10 A2984 RMK AO2  T01560101,,,,,,49.23,,SE,29.19,28.77,,Clear
KIGQ,04/28/2017 21:55 UTC,29.85,59.9,50.36,67.57,5.75,140.0,,,,,,332.0,,,,10.0,,KIGQ 282155Z AUTO 14005KT 10SM SCT033 16/10 A2985 RMK AO2  T01550102,,,,,,49.06,,SE,29.2,28.79,,Partly Cloudy
KIGQ,04/28/2017 22:15 UTC,29.87,59.9,50.54,67.57,8.05,170.0,,,,,,354.0,,,,10.0,,KIGQ 282215Z AUTO 17007KT 10SM OVC035 16/10 A2987 RMK AO2 LTG DSNT  SE T01550103,,,3500.0,,,49.06,,S,29.22,28.81,,Overcast
KIGQ,04/28/2017 22:35 UTC,29.88,59.9,51.44,72.23,6.91,180.0,,,,,,334.0,,,,10.0,,KIGQ 282235Z AUTO 18006KT 10SM OVC033 16/11 A2988 RMK AO2 LTG DSNT  S T01550108,,,3300.0,,,50.87,,S,29.23,28.75,,Overcast
KIGQ,04/28/2017 22:55 UTC,29.87,56.12,48.92,76.68,6.91,40.0,,,604.0,,,333.0,403.0,,,10.0,,KIGQ 282255Z AUTO 04006KT 10SM BKN033 BKN040 OVC060 13/09  A2987 RMK AO2 LTG DSNT SE AND S T01340094,,,3300.0,,,48.83,,NE,29.22,28.85,,Overcast
KIGQ,04/28/2017 23:15 UTC,29.88,54.68,47.84,76.68,5.75,60.0,,,604.0,,,332.0,453.0,,,10.0,,KIGQ 282315Z AUTO 06005KT 10SM SCT033 BKN045 OVC060 13/09  A2988 RMK AO2 LTG DSNT S T01260088,,,4500.0,,,47.43,,ENE,29.23,28.92,,Overcast
KIGQ,04/28/2017 23:35 UTC,29.88,54.14,47.66,81.88,4.61,60.0,,,604.0,,,302.0,453.0,,,10.0,,KIGQ 282335Z AUTO 06004KT 10SM SCT030 BKN045 OVC060 12/09  A2988 RMK AO2 LTG DSNT S T01230087,,,4500.0,,,48.67,,ENE,29.23,28.89,,Overcast
KIGQ,04/28/2017 23:55 UTC,29.87,54.32,48.74,81.88,4.61,50.0,,,604.0,,,282.0,503.0,,,10.0,,KIGQ 282355Z AUTO 05004KT 10SM SCT028 BKN050 OVC060 12/09  A2987 RMK AO2 LTG DSNT SE T01240093 10161 20122,60.98,53.96,5000.0,,,48.85,,NE,29.22,28.87,,Overcast
KIGQ,04/29/2017 00:15 UTC,29.88,54.5,48.74,76.68,0.0,0.0,,,,,,604.0,,,,10.0,,KIGQ 290015Z AUTO 00000KT 10SM OVC060 13/09 A2988 RMK AO2  T01250093,,,6000.0,,,47.26,,N,29.23,28.93,,Overcast
KIGQ,04/29/2017 00:35 UTC,29.88,54.86,49.28,82.01,3.44,10.0,,,,,,604.0,,,,10.0,,KIGQ 290035Z AUTO 01003KT 10SM OVC060 13/10 A2988 RMK AO2  T01270096,,,6000.0,,,49.42,,N,29.23,28.86,,Overcast
KIGQ,04/29/2017 00:55 UTC,29.89,52.7,47.48,81.88,5.75,360.0,,,,,,603.0,,,,10.0,,KIGQ 290055Z AUTO 36005KT 10SM BKN060 12/09 A2989 RMK AO2  T01150086,,,6000.0,,,47.26,,N,29.24,28.96,,Mostly Cloudy
KIGQ,04/29/2017 01:15 UTC,29.91,51.08,46.94,81.75,5.75,20.0,,,,,,602.0,1103.0,,,10.0,,KIGQ 290115Z AUTO 02005KT 10SM SCT060 BKN110 11/08 A2991 RMK AO2  T01060083,,,11000.0,,,45.64,,NNE,29.26,29.04,,Mostly Cloudy
KIGQ,04/29/2017 01:35 UTC,29.91,49.46,46.4,87.38,3.44,10.0,,,1103.0,,,602.0,902.0,,,7.0,,KIGQ 290135Z AUTO 01003KT 7SM SCT060 SCT090 BKN110 10/08 A2991 RMK AO2 T00970080,,,11000.0,,,45.83,,N,29.26,29.05,,Mostly Cloudy
KIGQ,04/29/2017 01:55 UTC,29.93,49.46,46.58,87.38,5.75,360.0,,,,,,903.0,1103.0,,,7.0,,KIGQ 290155Z AUTO 36005KT 7SM BKN090 BKN110 10/08 A2993 RMK AO2  T00970081,,,9000.0,,,45.83,,N,29.28,29.07,,Mostly Cloudy
KIGQ,04/29/2017 02:15 UTC,29.94,48.74,46.22,93.45,5.75,10.0,,,,,,1003.0,,,,7.0,,KIGQ 290215Z AUTO 01005KT 7SM BKN100 09/08 A2994 RMK AO2  T00930079,,,10000.0,,,46.91,,N,29.29,29.06,,Mostly Cloudy
KIGQ,04/29/2017 02:35 UTC,29.95,48.2,45.68,93.45,4.61,10.0,,,,,,1003.0,,,,7.0,,KIGQ 290235Z AUTO 01004KT 7SM BKN100 09/08 A2995 RMK AO2  T00900076,,,10000.0,,,46.38,,N,29.3,29.09,,Mostly Cloudy
KIGQ,04/29/2017 02:55 UTC,29.95,47.84,45.5,93.45,0.0,0.0,,,,,,903.0,1103.0,,,7.0,,KIGQ 290255Z AUTO 00000KT 7SM BKN090 BKN110 09/08 A2995 RMK AO2  T00880075,,,9000.0,,,46.02,,N,29.3,29.1,,Mostly Cloudy
KIGQ,04/29/2017 03:15 UTC,29.96,47.48,45.5,93.45,0.0,0.0,,,,,,1002.0,,,,7.0,,KIGQ 290315Z AUTO 00000KT 7SM SCT100 09/08 A2996 RMK AO2  T00860075,,,,,,45.66,,N,29.31,29.13,,Partly Cloudy
KIGQ,04/29/2017 03:35 UTC,29.96,47.12,44.96,93.4,6.91,10.0,,,,,,1002.0,,,,7.0,,KIGQ 290335Z AUTO 01006KT 7SM SCT100 08/07 A2996 RMK AO2  T00840072,,,,,,45.29,,N,29.31,29.14,,Partly Cloudy
KIGQ,04/29/2017 03:55 UTC,29.97,47.3,44.78,87.28,4.61,360.0,,,,,,232.0,553.0,,,7.0,,KIGQ 290355Z AUTO 36004KT 7SM SCT023 BKN055 09/07 A2997 RMK AO2  T00850071,,,5500.0,,,43.67,,N,29.32,29.19,,Mostly Cloudy
KIGQ,04/29/2017 04:15 UTC,29.99,47.12,44.6,93.4,6.91,10.0,,,,,,233.0,,,,7.0,,KIGQ 290415Z AUTO 01006KT 7SM BKN023 08/07 A2999 RMK AO2  T00840070,,,2300.0,,,45.29,,N,29.34,29.17,,Mostly Cloudy
KIGQ,04/29/2017 04:35 UTC,29.99,47.48,44.24,87.28,10.36,20.0,,,,,,254.0,,,,7.0,,KIGQ 290435Z AUTO 02009KT 7SM OVC025 09/07 A2999 RMK AO2  T00860068,,,2500.0,,,43.85,,NNE,29.34,29.21,,Overcast
KIGQ,04/29/2017 04:55 UTC,30.01,48.2,43.88,87.28,12.66,10.0,,,,,,274.0,,,,10.0,,KIGQ 290455Z AUTO 01011KT 10SM OVC027 09/07 A3001 RMK AO2  T00900066,,,2700.0,,,44.55,,N,29.36,29.2,,Overcast
KIGQ,04/29/2017 05:15 UTC,30.0,48.02,42.26,81.48,12.66,10.0,23.02,,,,,254.0,,,,10.0,,KIGQ 290515Z AUTO 01011G20KT 10SM OVC025 09/06 A3000 RMK AO2  T00890057,,,2500.0,,,42.56,,N,29.35,29.25,,Overcast
KIGQ,04/29/2017 05:35 UTC,29.98,46.94,41.0,81.34,10.36,20.0,21.85,,,,,253.0,294.0,,,10.0,,KIGQ 290535Z AUTO 02009G19KT 10SM BKN025 OVC029 08/05 A2998 RMK AO2 T00830050,,,2500.0,,,41.46,,NNE,29.33,29.26,,Overcast
KIGQ,04/29/2017 05:55 UTC,29.98,46.76,40.28,81.34,17.27,10.0,23.02,,,,,254.0,,,,10.0,,KIGQ 290555Z AUTO 01015G20KT 10SM OVC025 08/05 A2998 RMK AO2 LTG  DSNT SE T00820046 10127 20082 401610038,54.86,46.76,2500.0,60.98,38.84,41.28,,N,29.33,29.27,,Overcast
KIGQ,04/29/2017 06:15 UTC,30.01,45.68,40.46,81.34,11.5,30.0,20.71,,,,,254.0,,,,10.0,,KIGQ 290615Z AUTO 03010G18KT 10SM OVC025 08/05 A3001 RMK AO2 LTG  DSNT S T00760047,,,2500.0,,,40.23,,NNE,29.36,29.34,,Overcast
KIGQ,04/29/2017 06:35 UTC,30.02,45.86,41.0,81.34,10.36,30.0,,,,,,254.0,,,,10.0,,KIGQ 290635Z AUTO 03009KT 10SM OVC025 08/05 A3002 RMK AO2  T00770050,,,2500.0,,,40.4,,NNE,29.37,29.34,,Overcast
KIGQ,04/29/2017 06:55 UTC,30.03,46.4,41.9,87.19,9.22,30.0,18.41,,,,,254.0,,,,10.0,,KIGQ 290655Z AUTO 03008G16KT 10SM OVC025 08/06 A3003 RMK AO2  T00800055,,,2500.0,,,42.75,,NNE,29.38,29.29,,Overcast
KIGQ,04/29/2017 07:15 UTC,30.02,46.22,42.26,87.19,13.8,20.0,19.57,,,,,234.0,,,,10.0,,KIGQ 290715Z AUTO 02012G17KT 10SM OVC023 08/06 A3002 RMK AO2 LTG  DSNT SW T00790057,,,2300.0,,,42.58,,NNE,29.37,29.28,,Overcast
KIGQ,04/29/2017 07:35 UTC,30.01,46.4,41.9,87.19,11.5,20.0,18.41,,,,,234.0,,,,10.0,,KIGQ 290735Z AUTO 02010G16KT 10SM OVC023 08/06 A3001 RMK AO2  T00800055,,,2300.0,,,42.75,,NNE,29.36,29.27,,Overcast
KIGQ,04/29/2017 07:55 UTC,30.0,46.4,41.54,81.34,9.22,10.0,19.57,,,,,232.0,453.0,,,10.0,,KIGQ 290755Z AUTO 01008G17KT 10SM SCT023 BKN045 08/05 A3000 RMK AO2 LTG DSNT S AND SW T00800053,,,4500.0,,,40.93,,N,29.35,29.3,,Mostly Cloudy
KIGQ,04/29/2017 08:15 UTC,30.02,45.5,41.9,87.19,11.5,30.0,17.27,,452.0,,,132.0,232.0,,,10.0,,KIGQ 290815Z AUTO 03010G15KT 10SM SCT013 SCT023 SCT045 08/06  A3002 RMK AO2 LTG DSNT S T00750055,,,,,,41.87,,NNE,29.37,29.31,,Partly Cloudy
KIGQ,04/29/2017 08:35 UTC,30.02,45.68,42.8,87.19,11.5,20.0,19.57,,454.0,,,133.0,233.0,,,10.0,,KIGQ 290835Z AUTO 02010G17KT 10SM BKN013 BKN023 OVC045 08/06  A3002 RMK AO2 LTG DSNT SE AND S T00760060,,,1300.0,,,42.05,,NNE,29.37,29.3,,Overcast
KIGQ,04/29/2017 08:55 UTC,30.02,46.04,43.16,87.19,12.66,20.0,20.71,,,,,134.0,,,,10.0,,KIGQ 290855Z AUTO 02011G18KT 10SM OVC013 08/06 A3002 RMK AO2  T00780062,,,1300.0,,,42.4,,NNE,29.37,29.29,,Overcast
KIGQ,04/29/2017 09:15 UTC,30.02,45.86,42.8,87.19,17.27,30.0,25.32,,,,,154.0,,,,10.0,,KIGQ 290915Z AUTO 03015G22KT 10SM OVC015 08/06 A3002 RMK AO2 LTG  DSNT SE T00770060,,,1500.0,,,42.22,,NNE,29.37,29.3,,Overcast
KIGQ,04/29/2017 09:35 UTC,30.03,46.04,42.08,87.19,19.57,20.0,27.63,,,,,174.0,,,,10.0,,KIGQ 290935Z AUTO 02017G24KT 10SM OVC017 08/06 A3003 RMK AO2  T00780056,,,1700.0,,,42.4,,NNE,29.38,29.3,,Overcast
KIGQ,04/29/2017 09:55 UTC,30.07,46.04,41.9,87.19,13.8,30.0,23.02,,,,,204.0,,,,10.0,,KIGQ 290955Z AUTO 03012G20KT 10SM OVC020 08/06 A3007 RMK AO2 LTG  DSNT SE T00780055,,,2000.0,,,42.4,,NNE,29.42,29.34,,Overcast
KIGQ,04/29/2017 10:15 UTC,30.09,46.04,41.9,87.19,14.97,30.0,18.41,,,,,224.0,,,,10.0,,KIGQ 291015Z AUTO 03013G16KT 10SM OVC022 08/06 A3009 RMK AO2  T00780055,,,2200.0,,,42.4,,NNE,29.44,29.36,,Overcast
KIGQ,04/29/2017 10:35 UTC,30.1,46.04,41.36,81.34,19.57,40.0,24.16,,,,,224.0,,,,10.0,,KIGQ 291035Z AUTO 04017G21KT 10SM OVC022 08/05 A3010 RMK AO2  T00780052,,,2200.0,,,40.58,,NE,29.45,29.42,,Overcast
KIGQ,04/29/2017 10:55 UTC,30.12,45.5,41.54,81.34,13.8,10.0,18.41,,,,,142.0,244.0,,,10.0,,KIGQ 291055Z AUTO 01012G16KT 10SM SCT014 OVC024 08/05 A3012 RMK AO2 LTG DSNT E T00750053,,,2400.0,,,40.05,,N,29.47,29.45,,Overcast
KIGQ,04/29/2017 11:15 UTC,30.12,44.78,41.54,87.09,12.66,20.0,16.11,,,,,142.0,244.0,,,10.0,,KIGQ 291115Z AUTO 02011G14KT 10SM SCT014 OVC024 07/05 A3012 RMK AO2 T00710053,,,2400.0,,,41.13,40.47,NNE,29.47,29.43,,Overcast
KIGQ,04/29/2017 11:35 UTC,30.12,44.6,41.0,87.09,17.27,20.0,21.85,,,,,244.0,,,,10.0,,KIGQ 291135Z AUTO 02015G19KT 10SM OVC024 07/05 A3012 RMK AO2  T00700050,,,2400.0,,,40.95,39.07,NNE,29.47,29.44,,Overcast
KIGQ,04/29/2017 11:55 UTC,30.14,44.96,41.0,87.09,13.8,20.0,,,,,,244.0,,,,10.0,,KIGQ 291155Z AUTO 02012KT 10SM OVC024 07/05 A3014 RMK AO2  T00720050 10081 20070,46.58,44.6,2400.0,,,41.31,40.37,NNE,29.48,29.44,,Overcast
KIGQ,04/29/2017 12:15 UTC,30.11,44.78,41.0,87.09,11.5,20.0,24.16,,,,,244.0,,,,10.0,,KIGQ 291215Z AUTO 02010G21KT 10SM OVC024 07/05 A3011 RMK AO2  T00710050,,,2400.0,,,41.13,40.83,NNE,29.46,29.42,,Overcast
KIGQ,04/29/2017 12:35 UTC,30.11,44.96,40.64,87.09,13.8,20.0,19.57,,,,,244.0,,,,10.0,,KIGQ 291235Z AUTO 02012G17KT 10SM OVC024 07/05 A3011 RMK AO2  T00720048,,,2400.0,,,41.31,40.37,NNE,29.46,29.42,,Overcast
KIGQ,04/29/2017 12:55 UTC,30.13,45.5,40.1,81.34,14.97,30.0,21.85,,,,,244.0,,,,10.0,,KIGQ 291255Z AUTO 03013G19KT 10SM OVC024 08/05 A3013 RMK AO2  T00750045,,,2400.0,,,40.05,,NNE,29.47,29.45,,Overcast
KIGQ,04/29/2017 13:15 UTC,30.13,45.5,39.74,75.84,16.11,30.0,24.16,,,,,264.0,,,,10.0,,KIGQ 291315Z AUTO 03014G21KT 10SM OVC026 08/04 A3013 RMK AO2  T00750043,,,2600.0,,,38.24,,NNE,29.47,29.49,,Overcast
KIGQ,04/29/2017 13:35 UTC,30.12,45.68,39.38,75.84,18.41,20.0,24.16,,,,,264.0,,,,10.0,,KIGQ 291335Z AUTO 02016G21KT 10SM OVC026 08/04 A3012 RMK AO2  T00760041,,,2600.0,,,38.41,,NNE,29.47,29.49,,Overcast
KIGQ,04/29/2017 13:55 UTC,30.13,45.5,40.1,81.34,14.97,20.0,21.85,,,,,264.0,,,,10.0,,KIGQ 291355Z AUTO 02013G19KT 10SM OVC026 08/05 A3013 RMK AO2 LTG  DSNT SW T00750045,,,2600.0,,,40.05,,NNE,29.47,29.45,,Overcast
KIGQ,04/29/2017 14:15 UTC,30.13,45.14,39.56,81.2,17.27,20.0,26.46,,,,,284.0,,,,10.0,,KIGQ 291415Z AUTO 02015G23KT 10SM OVC028 07/04 A3013 RMK AO2  T00730042,,,2800.0,,,39.66,,NNE,29.47,29.46,,Overcast
KIGQ,04/29/2017 14:35 UTC,30.11,45.5,39.74,75.84,19.57,30.0,26.46,,,,,284.0,,,,10.0,,KIGQ 291435Z AUTO 03017G23KT 10SM OVC028 08/04 A3011 RMK AO2  T00750043,,,2800.0,,,38.24,,NNE,29.46,29.48,,Overcast
KIGQ,04/29/2017 14:55 UTC,30.1,45.32,39.2,81.2,21.85,30.0,34.52,,,,,284.0,,,,10.0,,KIGQ 291455Z AUTO 03019G30KT 10SM OVC028 07/04 A3010 RMK AO2  T00740040,,,2800.0,,,39.83,,NNE,29.45,29.44,,Overcast
KIGQ,04/29/2017 15:15 UTC,30.13,45.32,39.38,81.2,17.27,30.0,29.93,,,,,283.0,,,,10.0,,KIGQ 291515Z AUTO 03015G26KT 10SM BKN028 07/04 A3013 RMK AO2  T00740041,,,2800.0,,,39.83,,NNE,29.47,29.46,,Mostly Cloudy
KIGQ,04/29/2017 15:35 UTC,30.16,44.6,39.38,81.2,17.27,30.0,27.63,,,,,282.0,603.0,,,10.0,,KIGQ 291535Z AUTO 03015G24KT 10SM SCT028 BKN060 07/04 A3016 RMK AO2 T00700041,,,6000.0,,,39.13,39.07,NNE,29.5,29.51,,Mostly Cloudy
KIGQ,04/29/2017 15:55 UTC,30.14,44.78,38.84,81.2,17.27,30.0,29.93,,,,,604.0,,,,10.0,,KIGQ 291555Z AUTO 03015G26KT 10SM OVC060 07/04 A3014 RMK AO2  T00710038,,,6000.0,,,39.3,39.3,NNE,29.48,29.49,,Overcast
KIGQ,04/29/2017 16:15 UTC,30.16,44.6,38.84,81.2,18.41,30.0,26.46,,,,,222.0,604.0,,,10.0,,KIGQ 291615Z AUTO 03016G23KT 10SM SCT022 OVC060 07/04 A3016 RMK AO2 T00700038,,,6000.0,,,39.13,38.82,NNE,29.5,29.51,,Overcast
KIGQ,04/29/2017 16:35 UTC,30.19,44.24,39.74,81.2,13.8,30.0,21.85,1.0,604.0,,,223.0,333.0,,,10.0,,KIGQ 291635Z AUTO 03012G19KT 10SM RA BKN022 BKN033 OVC060 07/04  A3019 RMK AO2 T00680043,,,2200.0,,,38.78,39.49,NNE,29.53,29.55,,Rain
KIGQ,04/29/2017 16:55 UTC,30.18,43.34,41.0,93.3,13.8,40.0,20.71,1.0,494.0,0.01,,222.0,312.0,,,7.0,,KIGQ 291655Z AUTO 04012G18KT 7SM RA SCT022 SCT031 OVC049 06/05  A3018 RMK AO2 P0001 T00630050,,,4900.0,,,41.51,38.39,NE,29.52,29.49,,Rain
KIGQ,04/29/2017 17:15 UTC,30.2,42.98,41.54,93.3,8.05,20.0,,1.0,494.0,0.01,,122.0,393.0,,,10.0,,KIGQ 291715Z AUTO 02007KT 10SM RA SCT012 BKN039 OVC049 06/05  A3020 RMK AO2 P0001 T00610053,,,3900.0,,,41.15,39.97,NNE,29.54,29.52,,Rain
KIGQ,04/29/2017 17:35 UTC,30.18,42.98,41.9,100.0,10.36,20.0,17.27,13.0,,0.04,,393.0,464.0,,,4.0,,KIGQ 291735Z AUTO 02009G15KT 4SM -RA BKN039 OVC046 06/06 A3018 RMK AO2 P0004 T00610055,,,3900.0,,,42.98,39.05,NNE,29.52,29.46,,Light Rain
KIGQ,04/29/2017 17:55 UTC,30.17,42.8,41.9,100.0,12.66,20.0,17.27,1.0,,0.06,,112.0,354.0,0.07,,7.0,,KIGQ 291755Z AUTO 02011G15KT 7SM RA SCT011 OVC035 06/06 A3017 RMK AO2 P0006 60007 T00600055 10076 20060,45.68,42.8,3500.0,,,42.8,38.06,NNE,29.51,29.45,,Rain
KIGQ,04/29/2017 18:15 UTC,30.15,42.8,41.9,100.0,12.66,20.0,,13.0,,0.02,,122.0,354.0,,,7.0,,KIGQ 291815Z AUTO 02011KT 7SM -RA SCT012 OVC035 06/06 A3015 RMK AO2 P0002 T00600055,,,3500.0,,,42.8,38.06,NNE,29.49,29.43,,Light Rain
KIGQ,04/29/2017 18:35 UTC,30.13,42.62,41.9,100.0,10.36,360.0,19.57,1.0,334.0,0.02,,82.0,123.0,,,10.0,,KIGQ 291835Z AUTO 36009G17KT 10SM RA SCT008 BKN012 OVC033 06/06  A3013 RMK AO2 LTG DSNT SW P0002 T00590055,,,1200.0,,,42.62,38.62,N,29.47,29.42,,Rain
KIGQ,04/29/2017 18:55 UTC,30.13,42.08,41.18,93.3,9.22,340.0,33.38,13.0,604.0,0.03,,83.0,423.0,,,7.0,,KIGQ 291855Z AUTO 34008G29KT 300V040 7SM -RA BKN008 BKN042 OVC060  06/05 A3013 RMK AO2 P0003 T00560051,,,800.0,,,40.26,38.41,NNW,29.47,29.48,,Light Rain
KIGQ,04/29/2017 19:15 UTC,30.07,41.54,40.82,100.0,13.8,40.0,32.21,13.0,,,,83.0,154.0,,,10.0,,KIGQ 291915Z AUTO 04012G28KT 10SM -RA BKN008 OVC015 05/05  A3007 RMK AO2 T00530049,,,800.0,,,41.54,36.18,NE,29.42,29.4,,Light Rain
KIGQ,04/29/2017 19:35 UTC,30.16,41.0,40.1,100.0,13.8,10.0,20.71,13.0,,0.01,,84.0,,,,10.0,,KIGQ 291935Z AUTO 01012G18KT 10SM -RA OVC008 05/05 A3016 RMK AO2  P0001 T00500045,,,800.0,,,41.0,35.52,N,29.5,29.5,,Light Rain
KIGQ,04/29/2017 19:55 UTC,30.15,41.0,40.28,100.0,11.5,40.0,19.57,1.0,,0.02,,103.0,174.0,,,10.0,,KIGQ 291955Z AUTO 04010G17KT 10SM RA BKN010 OVC017 05/05 A3015 RMK AO2 P0002 T00500046,,,1000.0,,,41.0,36.26,NE,29.49,29.49,,Rain
KIGQ,04/29/2017 20:15 UTC,30.14,41.0,40.28,100.0,12.66,30.0,18.41,13.0,,0.02,,103.0,174.0,,,10.0,,KIGQ 292015Z AUTO 03011G16KT 10SM -RA BKN010 OVC017 05/05  A3014 RMK AO2 P0002 T00500046,,,1000.0,,,41.0,35.88,NNE,29.48,29.48,,Light Rain
KIGQ,04/29/2017 20:35 UTC,30.11,41.18,40.82,100.0,16.11,40.0,20.71,13.0,,0.02,,83.0,154.0,,,10.0,,KIGQ 292035Z AUTO 04014G18KT 10SM -RA BKN008 OVC015 05/05  A3011 RMK AO2 P0002 T00510049,,,800.0,,,41.18,35.1,NE,29.46,29.45,,Light Rain
KIGQ,04/29/2017 20:55 UTC,30.1,41.36,41.0,100.0,10.36,40.0,18.41,,,0.02,0.07,84.0,,,,10.0,,KIGQ 292055Z AUTO 04009G16KT 10SM OVC008 05/05 A3010 RMK AO2 LTG  DSNT W P0002 60007 T00520050,,,800.0,,,41.36,37.11,NE,29.45,29.44,,Overcast
KIGQ,04/29/2017 21:15 UTC,30.11,41.54,41.18,100.0,11.5,30.0,19.57,,,,,84.0,,,,10.0,,KIGQ 292115Z AUTO 03010G17KT 10SM -VCTSRA OVC008 05/05 A3011 RMK AO2 LTG DSNT SW AND W T00530051,,,800.0,,,41.54,36.91,NNE,29.46,29.44,,Overcast
KIGQ,04/29/2017 21:35 UTC,30.08,41.54,41.18,100.0,13.8,40.0,,,,,,84.0,,,,10.0,,KIGQ 292135Z AUTO 04012KT 10SM OVC008 05/05 A3008 RMK AO2  T00530051,,,800.0,,,41.54,36.18,NE,29.43,29.41,,Overcast
KIGQ,04/29/2017 21:55 UTC,30.08,41.72,41.36,100.0,12.66,40.0,23.02,,,,,84.0,,,,7.0,,KIGQ 292155Z AUTO 04011G20KT 7SM OVC008 05/05 A3008 RMK AO2 LTG  DSNT SW THRU NW T00540052,,,800.0,,,41.72,36.75,NE,29.43,29.41,,Overcast
KIGQ,04/29/2017 22:15 UTC,30.08,42.08,41.9,100.0,12.66,30.0,18.41,13.0,,,,84.0,,,,4.0,,KIGQ 292215Z AUTO 03011G16KT 4SM -RA OVC008 06/06 A3008 RMK AO2  T00560055,,,800.0,,,42.08,37.19,NNE,29.43,29.39,,Light Rain
KIGQ,04/29/2017 22:35 UTC,30.09,42.26,42.26,100.0,13.8,20.0,18.41,2485.0,,,,64.0,,,,5.0,,KIGQ 292235Z AUTO 02012G16KT 5SM VCTS BR OVC006 06/06 A3009 RMK AO2 LTG DSNT SW AND W T00570057,,,600.0,,,42.26,37.07,NNE,29.44,29.4,,Thunder,Mist
KIGQ,04/29/2017 22:55 UTC,30.08,42.08,42.08,100.0,13.8,20.0,27.63,66.0,,0.02,,64.0,,,,5.0,,KIGQ 292255Z AUTO 02012G24KT 5SM TSRA OVC006 06/06 A3008 RMK AO2  LTG DSNT NE SW AND W P0002 T00560056,,,600.0,,,42.08,36.85,NNE,29.43,29.39,,Thunderstorm
KIGQ,04/29/2017 23:15 UTC,30.07,42.26,42.26,100.0,16.11,20.0,24.16,13.0,,0.01,,64.0,,,,10.0,,KIGQ 292315Z AUTO 02014G21KT 10SM -RA OVC006 06/06 A3007 RMK AO2  LTG DSNT SW AND W P0001 T00570057,,,600.0,,,42.26,36.44,NNE,29.42,29.38,,Light Rain
KIGQ,04/29/2017 23:35 UTC,30.08,42.62,42.62,100.0,9.22,360.0,20.71,13.0,,0.03,,64.0,,,,10.0,,KIGQ 292335Z AUTO 36008G18KT 10SM -RA OVC006 06/06 A3008 RMK AO2  LTG DSNT SW AND W P0003 T00590059,,,600.0,,,42.62,39.05,N,29.43,29.38,,Light Rain
KIGQ,04/29/2017 23:55 UTC,30.09,42.44,42.44,100.0,13.8,360.0,21.85,,,0.13,,44.0,,0.23,,2.5,,KIGQ 292355Z AUTO 36012G19KT 2 1/2SM VCTSRA OVC004 06/06 A3009 RMK AO2 LTG DSNT ALQS P0013 60023 T00580058 10060 20050,42.8,41.0,400.0,,,42.44,37.29,N,29.44,29.39,,Overcast
KIGQ,04/30/2017 00:15 UTC,30.07,42.8,42.8,100.0,16.11,20.0,23.02,78.0,,0.13,,44.0,,,,3.0,,KIGQ 300015Z AUTO 02014G20KT 3SM +TSRA OVC004 06/06 A3007 RMK AO2  LTG DSNT ALQS P0013 T00600060,,,400.0,,,42.8,37.11,NNE,29.42,29.36,,Heavy Rain/Thunderstorm
KIGQ,04/30/2017 00:35 UTC,30.04,42.98,42.98,100.0,17.27,30.0,28.77,,,0.19,,44.0,,,,5.0,,KIGQ 300035Z AUTO 03015G25KT 350V050 5SM VCTSRA OVC004 06/06  A3004 RMK AO2 LTG DSNT ALQS P0019 T00610061,,,400.0,,,42.98,37.05,NNE,29.39,29.32,,Overcast
KIGQ,04/30/2017 00:55 UTC,30.01,43.7,43.7,100.0,23.02,40.0,32.21,,,0.27,,44.0,,,,4.0,,KIGQ 300055Z AUTO 04020G28KT 4SM VCTSRA OVC004 07/07 A3001 RMK AO2  LTG DSNT NE THRU SW P0027 T00650065,,,400.0,,,43.7,36.78,NE,29.36,29.27,,Overcast
KIGQ,04/30/2017 01:15 UTC,29.98,44.24,44.24,100.0,21.85,30.0,33.38,,,0.05,,44.0,,,,4.0,,KIGQ 300115Z AUTO 03019G29KT 4SM -VCTSRA OVC004 07/07 A2998 RMK AO2 LTG DSNT ALQS P0005 T00680068,,,400.0,,,44.24,37.68,NNE,29.33,29.22,,Overcast
KIGQ,04/30/2017 01:35 UTC,29.97,44.6,44.6,100.0,23.02,40.0,34.52,,,0.12,,44.0,,,,4.0,,KIGQ 300135Z AUTO 04020G30KT 4SM VCTSRA OVC004 07/07 A2997 RMK AO2  LTG DSNT E THRU S P0012 T00700070,,,400.0,,,44.6,37.92,NE,29.32,29.19,,Overcast
KIGQ,04/30/2017 01:55 UTC,29.91,44.96,44.96,100.0,25.32,50.0,39.12,,,0.28,,44.0,,,,2.5,,KIGQ 300155Z AUTO 05022G34KT 2 1/2SM +VCTSRA OVC004 07/07  A2991 RMK AO2 LTG DSNT ALQS P0028 T00720072,,,400.0,,,44.96,37.99,NE,29.26,29.12,,Overcast
KIGQ,04/30/2017 02:15 UTC,29.88,44.78,44.78,100.0,29.93,50.0,37.98,1.0,,0.08,,44.0,,,,3.0,,KIGQ 300215Z AUTO 05026G33KT 3SM RA OVC004 07/07 A2988 RMK AO2 LTG  DSNT NE AND E P0008 T00710071,,,400.0,,,44.78,37.06,NE,29.23,29.1,,Rain
KIGQ,04/30/2017 02:35 UTC,29.91,45.5,45.5,100.0,23.02,50.0,34.52,13.0,,0.09,,44.0,,,,10.0,,KIGQ 300235Z AUTO 05020G30KT 10SM -RA OVC004 08/08 A2991 RMK AO2  LTG DSNT NE AND E P0009 T00750075,,,400.0,,,45.5,,NE,29.26,29.1,,Light Rain
KIGQ,04/30/2017 02:55 UTC,30.0,45.5,45.5,100.0,5.75,90.0,23.02,13.0,,0.09,0.65,44.0,,,,10.0,,KIGQ 300255Z AUTO 09005G20KT 10SM -RA OVC004 08/08 A3000 RMK AO2  P0009 60065 T00750075,,,400.0,,,45.5,,E,29.35,29.19,,Light Rain
KIGQ,04/30/2017 03:15 UTC,29.98,47.3,47.3,100.0,3.44,80.0,,13.0,,0.03,,63.0,124.0,,,10.0,,KIGQ 300315Z AUTO 08003KT 10SM -RA BKN006 OVC012 09/09 A2998 RMK AO2 LTG DSNT SE P0003 T00850085,,,600.0,,,47.3,,E,29.33,29.1,,Light Rain
KIGQ,04/30/2017 03:35 UTC,29.98,47.12,46.94,100.0,3.44,10.0,,1.0,,0.04,,104.0,,,,4.0,,KIGQ 300335Z AUTO 01003KT 4SM RA OVC010 08/08 A2998 RMK AO2 P0004  T00840083,,,1000.0,,,47.12,,N,29.33,29.11,,Rain
KIGQ,04/30/2017 03:55 UTC,29.97,46.76,46.76,100.0,5.75,40.0,,1.0,,0.05,,83.0,124.0,,,3.0,,KIGQ 300355Z AUTO 04005KT 3SM RA BKN008 OVC012 08/08 A2997 RMK AO2  LTG DSNT SE P0005 T00820082,,,800.0,,,46.76,,NE,29.32,29.11,,Rain
KIGQ,04/30/2017 04:15 UTC,29.96,46.76,46.76,100.0,5.75,40.0,,1.0,,0.01,,43.0,114.0,,,3.0,,KIGQ 300415Z AUTO 04005KT 3SM RA BKN004 OVC011 08/08 A2996 RMK AO2  P0001 T00820082,,,400.0,,,46.76,,NE,29.31,29.1,,Rain
KIGQ,04/30/2017 04:35 UTC,29.96,47.3,47.3,100.0,8.05,70.0,,13.0,,0.01,,44.0,,,,2.5,,KIGQ 300435Z AUTO 07007KT 2 1/2SM -RA OVC004 09/09 A2996 RMK AO2  P0001 T00850085,,,400.0,,,47.3,,ENE,29.31,29.08,,Light Rain
KIGQ,04/30/2017 04:55 UTC,29.94,46.94,46.94,100.0,10.36,70.0,,2.0,,0.01,,44.0,,,,2.5,,KIGQ 300455Z AUTO 07009KT 2 1/2SM DZ OVC004 08/08 A2994 RMK AO2  P0001 T00830083,,,400.0,,,46.94,,ENE,29.29,29.08,,Drizzle
KIGQ,04/30/2017 05:15 UTC,29.93,46.94,46.94,100.0,10.36,60.0,,17.0,,,,44.0,,,,3.0,,KIGQ 300515Z AUTO 06009KT 3SM -DZ OVC004 08/08 A2993 RMK AO2  T00830083,,,400.0,,,46.94,,ENE,29.28,29.06,,Light Drizzle
KIGQ,04/30/2017 05:35 UTC,29.92,46.94,46.94,100.0,8.05,60.0,,31.0,,,,44.0,,,,3.0,,KIGQ 300535Z AUTO 06007KT 3SM BR OVC004 08/08 A2992 RMK AO2  T00830083,,,400.0,,,46.94,,ENE,29.27,29.05,,Mist
KIGQ,04/30/2017 05:55 UTC,29.92,46.76,46.76,100.0,12.66,70.0,16.11,31.0,,,,64.0,,0.71,,5.0,,KIGQ 300555Z AUTO 07011G14KT 5SM BR OVC006 08/08 A2992 RMK AO2  60071 T00820082 10087 20056 400870050,47.66,42.08,600.0,47.66,41.0,46.76,,ENE,29.27,29.06,,Mist
KIGQ,04/30/2017 06:15 UTC,29.91,46.58,46.4,100.0,11.5,90.0,,,,,,94.0,,,,10.0,,KIGQ 300615Z AUTO 09010KT 10SM OVC009 08/08 A2991 RMK AO2  T00810080,,,900.0,,,46.58,,E,29.26,29.06,,Overcast
KIGQ,04/30/2017 06:35 UTC,29.94,46.04,45.86,100.0,4.61,70.0,,,,,,94.0,,,,7.0,,KIGQ 300635Z AUTO 07004KT 7SM OVC009 08/08 A2994 RMK AO2  T00780077,,,900.0,,,46.04,,ENE,29.29,29.11,,Overcast
KIGQ,04/30/2017 06:55 UTC,29.94,46.04,46.04,100.0,4.61,20.0,,13.0,,,,74.0,,,,5.0,,KIGQ 300655Z AUTO 02004KT 5SM -RA OVC007 08/08 A2994 RMK AO2  T00780078,,,700.0,,,46.04,,NNE,29.29,29.11,,Light Rain
KIGQ,04/30/2017 07:15 UTC,29.93,45.86,45.86,100.0,4.61,20.0,,17.0,,,,74.0,,,,5.0,,KIGQ 300715Z AUTO 02004KT 5SM -DZ OVC007 08/08 A2993 RMK AO2  T00770077,,,700.0,,,45.86,,NNE,29.28,29.11,,Light Drizzle
KIGQ,04/30/2017 07:35 UTC,29.92,45.5,45.5,100.0,6.91,30.0,,13.0,,,,74.0,,,,7.0,,KIGQ 300735Z AUTO 03006KT 7SM -RA OVC007 08/08 A2992 RMK AO2  T00750075,,,700.0,,,45.5,,NNE,29.27,29.11,,Light Rain
KIGQ,04/30/2017 07:55 UTC,29.91,45.5,45.5,100.0,9.22,40.0,,31.0,,,,74.0,,,,5.0,,KIGQ 300755Z AUTO 04008KT 5SM BR OVC007 08/08 A2991 RMK AO2  T00750075,,,700.0,,,45.5,,NE,29.26,29.1,,Mist
KIGQ,04/30/2017 08:15 UTC,29.91,45.5,45.5,100.0,6.91,20.0,,31.0,,,,74.0,,,,3.0,,KIGQ 300815Z AUTO 02006KT 3SM BR OVC007 08/08 A2991 RMK AO2  T00750075,,,700.0,,,45.5,,NNE,29.26,29.1,,Mist
KIGQ,04/30/2017 08:35 UTC,29.92,45.5,45.5,100.0,8.05,60.0,,13.0,,,,44.0,,,,4.0,,KIGQ 300835Z AUTO 06007KT 4SM -RA OVC004 08/08 A2992 RMK AO2  T00750075,,,400.0,,,45.5,,ENE,29.27,29.11,,Light Rain
KIGQ,04/30/2017 08:55 UTC,29.91,45.5,45.5,100.0,6.91,40.0,,13.0,,,,44.0,,,,4.0,,KIGQ 300855Z AUTO 04006KT 4SM -RA OVC004 08/08 A2991 RMK AO2  T00750075,,,400.0,,,45.5,,NE,29.26,29.1,,Light Rain
KIGQ,04/30/2017 09:15 UTC,29.91,45.14,45.14,100.0,5.75,40.0,,1.0,,,,44.0,,,,5.0,,KIGQ 300915Z AUTO 04005KT 5SM RA OVC004 07/07 A2991 RMK AO2  T00730073,,,400.0,,,45.14,,NE,29.26,29.11,,Rain
KIGQ,04/30/2017 09:35 UTC,29.91,45.32,45.32,100.0,4.61,30.0,,13.0,,,,44.0,,,,5.0,,KIGQ 300935Z AUTO 03004KT 5SM -RA OVC004 07/07 A2991 RMK AO2  T00740074,,,400.0,,,45.32,,NNE,29.26,29.11,,Light Rain
KIGQ,04/30/2017 09:55 UTC,29.9,44.96,44.96,100.0,5.75,30.0,,13.0,,,,44.0,,,,5.0,,KIGQ 300955Z AUTO 03005KT 5SM -RA OVC004 07/07 A2990 RMK AO2  T00720072,,,400.0,,,44.96,,NNE,29.25,29.11,,Light Rain
KIGQ,04/30/2017 10:15 UTC,29.89,44.96,44.96,100.0,8.05,40.0,,1.0,,,,44.0,,,,5.0,,KIGQ 301015Z AUTO 04007KT 5SM RA OVC004 07/07 A2989 RMK AO2  T00720072,,,400.0,,,44.96,42.3,NE,29.24,29.1,,Rain
KIGQ,04/30/2017 10:35 UTC,29.9,44.96,44.96,100.0,4.61,30.0,,13.0,,,,44.0,,,,5.0,,KIGQ 301035Z AUTO 03004KT 5SM -RA OVC004 07/07 A2990 RMK AO2  T00720072,,,400.0,,,44.96,,NNE,29.25,29.11,,Light Rain
KIGQ,04/30/2017 10:55 UTC,29.91,44.96,44.96,100.0,4.61,30.0,,13.0,,,,44.0,,,,5.0,,KIGQ 301055Z AUTO 03004KT 5SM -RA OVC004 07/07 A2991 RMK AO2  T00720072,,,400.0,,,44.96,,NNE,29.26,29.12,,Light Rain
KIGQ,04/30/2017 11:15 UTC,29.91,44.96,44.96,100.0,5.75,10.0,,13.0,,,,44.0,,,,5.0,,KIGQ 301115Z AUTO 01005KT 5SM -RA OVC004 07/07 A2991 RMK AO2  T00720072,,,400.0,,,44.96,,N,29.26,29.12,,Light Rain
KIGQ,04/30/2017 11:35 UTC,29.91,45.14,45.14,100.0,4.61,10.0,,14.0,,0.01,,64.0,,,,4.0,,KIGQ 301135Z AUTO 01004KT 4SM +RA OVC006 07/07 A2991 RMK AO2 P0001  T00730073,,,600.0,,,45.14,,N,29.26,29.11,,Heavy Rain
KIGQ,04/30/2017 11:55 UTC,29.9,45.5,45.5,100.0,6.91,10.0,,1.0,,0.03,,64.0,,0.03,1.04,2.5,,KIGQ 301155Z AUTO 01006KT 2 1/2SM RA OVC006 08/08 A2990 RMK AO2  P0003 60003 70104 T00750075 10081 20071,46.58,44.78,600.0,,,45.5,,N,29.25,29.09,,Rain
KIGQ,04/30/2017 12:15 UTC,29.89,45.5,45.5,100.0,9.22,40.0,,13.0,,0.01,,33.0,84.0,,,3.0,,KIGQ 301215Z AUTO 04008KT 3SM -RA BKN003 OVC008 08/08 A2989 RMK AO2 P0001 T00750075,,,300.0,,,45.5,,NE,29.24,29.08,,Light Rain
KIGQ,04/30/2017 12:35 UTC,29.87,45.5,45.5,100.0,9.22,30.0,,13.0,,0.01,,34.0,,,,4.0,,KIGQ 301235Z AUTO 03008KT 4SM -RA OVC003 08/08 A2987 RMK AO2 P0001  T00750075,,,300.0,,,45.5,,NNE,29.22,29.06,,Light Rain
KIGQ,04/30/2017 12:55 UTC,29.85,45.14,45.14,100.0,8.05,40.0,,1.0,,0.03,,34.0,,,,2.5,,KIGQ 301255Z AUTO 04007KT 2 1/2SM RA OVC003 07/07 A2985 RMK AO2  P0003 T00730073,,,300.0,,,45.14,,NE,29.2,29.05,,Rain
KIGQ,04/30/2017 13:15 UTC,29.83,45.14,45.14,100.0,9.22,60.0,,13.0,,0.01,,34.0,,,,4.0,,KIGQ 301315Z AUTO 06008KT 4SM -RA OVC003 07/07 A2983 RMK AO2 P0001  T00730073,,,300.0,,,45.14,,ENE,29.18,29.03,,Light Rain
KIGQ,04/30/2017 13:35 UTC,29.82,45.5,45.5,100.0,6.91,60.0,,13.0,,0.01,,34.0,,,,4.0,,KIGQ 301335Z AUTO 06006KT 4SM -RA OVC003 08/08 A2982 RMK AO2 P0001  T00750075,,,300.0,,,45.5,,ENE,29.17,29.01,,Light Rain
KIGQ,04/30/2017 13:55 UTC,29.8,46.04,46.04,100.0,9.22,70.0,,13.0,,0.01,,34.0,,,,3.0,,KIGQ 301355Z AUTO 07008KT 3SM -RA OVC003 08/08 A2980 RMK AO2 P0001  T00780078,,,300.0,,,46.04,,ENE,29.15,28.97,,Light Rain
KIGQ,04/30/2017 14:15 UTC,29.77,46.76,46.76,100.0,10.36,80.0,,13.0,,,,34.0,,,,5.0,,KIGQ 301415Z AUTO 08009KT 5SM -RA OVC003 08/08 A2977 RMK AO2  T00820082,,,300.0,,,46.76,,E,29.12,28.91,,Light Rain
KIGQ,04/30/2017 14:35 UTC,29.77,47.3,47.3,100.0,9.22,90.0,,13.0,,,,34.0,,,,5.0,,KIGQ 301435Z AUTO 09008KT 5SM -RA OVC003 09/09 A2977 RMK AO2  T00850085,,,300.0,,,47.3,,E,29.12,28.89,,Light Rain
KIGQ,04/30/2017 14:55 UTC,29.76,47.84,47.84,100.0,3.44,80.0,,13.0,,,0.04,54.0,,,,5.0,,KIGQ 301455Z AUTO 08003KT 5SM -RA OVC005 09/09 A2976 RMK AO2 60004  T00880088,,,500.0,,,47.84,,E,29.11,28.86,,Light Rain
KIGQ,04/30/2017 15:15 UTC,29.76,48.56,48.56,100.0,3.44,80.0,,13.0,,,,54.0,,,,10.0,,KIGQ 301515Z AUTO 08003KT 10SM -RA OVC005 09/09 A2976 RMK AO2  T00920092,,,500.0,,,48.56,,E,29.11,28.83,,Light Rain
KIGQ,04/30/2017 15:35 UTC,29.79,49.28,49.28,100.0,0.0,0.0,,17.0,,,,54.0,,,,10.0,,KIGQ 301535Z AUTO 00000KT 10SM -DZ OVC005 10/10 A2979 RMK AO2  T00960096,,,500.0,,,49.28,,N,29.14,28.83,,Light Drizzle
KIGQ,04/30/2017 15:55 UTC,29.79,49.46,49.46,100.0,0.0,0.0,,13.0,,,,54.0,,,,10.0,,KIGQ 301555Z AUTO 00000KT 10SM -RA OVC005 10/10 A2979 RMK AO2  T00970097,,,500.0,,,49.46,,N,29.14,28.82,,Light Rain
KIGQ,04/30/2017 16:15 UTC,29.81,49.82,49.82,100.0,8.05,310.0,,,,,,54.0,,,,10.0,,KIGQ 301615Z AUTO 31007KT 10SM OVC005 10/10 A2981 RMK AO2  T00990099,,,500.0,,,49.82,,NW,29.16,28.82,,Overcast
KIGQ,04/30/2017 16:35 UTC,29.82,49.46,49.46,100.0,4.61,320.0,,31.0,,,,54.0,,,,5.0,,KIGQ 301635Z AUTO 32004KT 5SM BR OVC005 10/10 A2982 RMK AO2  T00970097,,,500.0,,,49.46,,NW,29.17,28.85,,Mist
KIGQ,04/30/2017 16:55 UTC,29.82,49.1,49.1,100.0,5.75,350.0,,14.0,,0.01,,54.0,,,,2.5,,KIGQ 301655Z AUTO 35005KT 2 1/2SM +RA OVC005 10/10 A2982 RMK AO2  P0001 T00950095,,,500.0,,,49.1,,N,29.17,28.86,,Heavy Rain
KIGQ,04/30/2017 17:15 UTC,29.8,49.1,49.1,100.0,4.61,350.0,,13.0,,0.02,,34.0,,,,2.5,,KIGQ 301715Z AUTO 35004KT 2 1/2SM -RA OVC003 10/10 A2980 RMK AO2  P0002 T00950095,,,300.0,,,49.1,,N,29.15,28.84,,Light Rain
KIGQ,04/30/2017 17:35 UTC,29.8,49.1,49.1,100.0,4.61,10.0,,31.0,,0.02,,34.0,,,,4.0,,KIGQ 301735Z AUTO 01004KT 4SM BR OVC003 10/10 A2980 RMK AO2 P0002  T00950095,,,300.0,,,49.1,,N,29.15,28.84,,Mist
KIGQ,04/30/2017 17:55 UTC,29.8,48.56,48.56,100.0,5.75,360.0,,31.0,,0.02,,34.0,,0.07,,5.0,,KIGQ 301755Z AUTO 36005KT 5SM BR OVC003 09/09 A2980 RMK AO2 P0002  60007 T00920092 10100 20073,50.0,45.14,300.0,,,48.56,,N,29.15,28.87,,Mist
KIGQ,04/30/2017 18:15 UTC,29.8,48.2,48.2,100.0,9.22,10.0,,31.0,,,,34.0,,,,5.0,,KIGQ 301815Z AUTO 01008KT 5SM BR OVC003 09/09 A2980 RMK AO2  T00900090,,,300.0,,,48.2,,N,29.15,28.88,,Mist
KIGQ,04/30/2017 18:35 UTC,29.81,47.66,47.66,100.0,8.05,20.0,,,,,,34.0,,,,7.0,,KIGQ 301835Z AUTO 02007KT 7SM OVC003 09/09 A2981 RMK AO2  T00870087,,,300.0,,,47.66,,NNE,29.16,28.91,,Overcast
KIGQ,04/30/2017 18:55 UTC,29.82,46.58,46.58,100.0,6.91,20.0,,,,,,34.0,,,,7.0,,KIGQ 301855Z AUTO 02006KT 7SM OVC003 08/08 A2982 RMK AO2  T00810081,,,300.0,,,46.58,,NNE,29.17,28.97,,Overcast
KIGQ,04/30/2017 19:15 UTC,29.83,45.86,45.86,100.0,10.36,30.0,,31.0,,,,34.0,,,,4.0,,KIGQ 301915Z AUTO 03009KT 4SM BR OVC003 08/08 A2983 RMK AO2  T00770077,,,300.0,,,45.86,,NNE,29.18,29.0,,Mist
KIGQ,04/30/2017 19:35 UTC,29.83,45.68,45.68,100.0,9.22,20.0,,31.0,,,,34.0,,,,2.0,,KIGQ 301935Z AUTO 02008KT 2SM BR OVC003 08/08 A2983 RMK AO2  T00760076,,,300.0,,,45.68,,NNE,29.18,29.01,,Mist
KIGQ,04/30/2017 19:55 UTC,29.81,45.68,45.68,100.0,10.36,10.0,,31.0,,,,34.0,,,,2.5,,KIGQ 301955Z AUTO 01009KT 2 1/2SM BR OVC003 08/08 A2981 RMK AO2  T00760076,,,300.0,,,45.68,,N,29.16,28.99,,Mist
KIGQ,04/30/2017 20:15 UTC,29.81,45.5,45.5,100.0,11.5,360.0,,31.0,,,,34.0,,,,3.0,,KIGQ 302015Z AUTO 36010KT 3SM BR OVC003 08/08 A2981 RMK AO2  T00750075,,,300.0,,,45.5,,N,29.16,29.0,,Mist
KIGQ,04/30/2017 20:35 UTC,29.78,45.86,45.86,100.0,5.75,20.0,,31.0,,,,34.0,,,,4.0,,KIGQ 302035Z AUTO 02005KT 4SM BR OVC003 08/08 A2978 RMK AO2  T00770077,,,300.0,,,45.86,,NNE,29.13,28.95,,Mist
KIGQ,04/30/2017 20:55 UTC,29.78,45.5,45.5,100.0,6.91,360.0,,31.0,,,,34.0,,,,4.0,,KIGQ 302055Z AUTO 36006KT 4SM BR OVC003 08/08 A2978 RMK AO2  T00750075,,,300.0,,,45.5,,N,29.13,28.97,,Mist
KIGQ,04/30/2017 21:15 UTC,29.77,44.78,44.78,100.0,8.05,10.0,,2.0,,,,34.0,,,,2.0,,KIGQ 302115Z AUTO 01007KT 2SM DZ OVC003 07/07 A2977 RMK AO2  T00710071,,,300.0,,,44.78,42.09,N,29.12,28.98,,Drizzle
KIGQ,04/30/2017 21:35 UTC,29.76,44.96,44.96,100.0,11.5,30.0,16.11,13.0,,,,34.0,,,,1.5,,KIGQ 302135Z AUTO 03010G14KT 1 1/2SM -RA OVC003 07/07 A2976 RMK AO2 T00720072,,,300.0,,,44.96,41.04,NNE,29.11,28.97,,Light Rain
KIGQ,04/30/2017 21:55 UTC,29.77,45.14,45.14,100.0,5.75,10.0,,13.0,,,,34.0,,,,1.0,,KIGQ 302155Z AUTO 01005KT 1SM -RA OVC003 07/07 A2977 RMK AO2  T00730073,,,300.0,,,45.14,,N,29.12,28.97,,Light Rain
KIGQ,04/30/2017 22:15 UTC,29.76,45.5,45.5,100.0,4.61,30.0,,17.0,,,,34.0,,,,1.0,,KIGQ 302215Z AUTO 03004KT 1SM -DZ OVC003 08/08 A2976 RMK AO2  T00750075,,,300.0,,,45.5,,NNE,29.11,28.95,,Light Drizzle
KIGQ,04/30/2017 22:35 UTC,29.75,45.5,45.5,100.0,5.75,40.0,,13.0,,,,34.0,,,,1.25,,KIGQ 302235Z AUTO 04005KT 1 1/4SM -RA OVC003 08/08 A2975 RMK AO2  T00750075,,,300.0,,,45.5,,NE,29.1,28.94,,Light Rain
KIGQ,04/30/2017 22:55 UTC,29.74,45.5,45.5,100.0,9.22,40.0,,17.0,,,,34.0,,,,1.75,,KIGQ 302255Z AUTO 04008KT 1 3/4SM -DZ OVC003 08/08 A2974 RMK AO2  T00750075,,,300.0,,,45.5,,NE,29.09,28.93,,Light Drizzle
KIGQ,04/30/2017 23:15 UTC,29.73,45.5,45.5,100.0,6.91,10.0,,1.0,,,,34.0,,,,2.0,,KIGQ 302315Z AUTO 01006KT 2SM RA OVC003 08/08 A2973 RMK AO2 LTG  DSNT SW T00750075,,,300.0,,,45.5,,N,29.08,28.92,,Rain
KIGQ,04/30/2017 23:35 UTC,29.71,45.5,45.5,100.0,6.91,50.0,,1.0,,0.01,,34.0,,,,2.5,,KIGQ 302335Z AUTO 05006KT 2 1/2SM RA OVC003 08/08 A2971 RMK AO2  P0001 T00750075,,,300.0,,,45.5,,NE,29.06,28.9,,Rain
KIGQ,04/30/2017 23:55 UTC,29.7,45.5,45.5,100.0,6.91,60.0,,1.0,,0.01,,34.0,,0.01,,5.0,,KIGQ 302355Z AUTO 06006KT 5SM RA OVC003 08/08 A2970 RMK AO2 LTG  DSNT W AND NW P0001 60001 T00750075 10094 20071,48.92,44.78,300.0,,,45.5,,ENE,29.05,28.89,,Rain
