# STATION: KIGQ
# STATION NAME: Lansing Municipal Airport
# LATITUDE: 41.54125
# LONGITUDE: -87.52822
# ELEVATION [ft]: 607
# STATE: IL
Station_ID,Date_Time,altimeter_set_1,air_temp_set_1,dew_point_temperature_set_1,relative_humidity_set_1,wind_speed_set_1,wind_direction_set_1,wind_gust_set_1,weather_cond_code_set_1,cloud_layer_3_code_set_1,precip_accum_one_hour_set_1,precip_accum_three_hour_set_1,cloud_layer_1_code_set_1,cloud_layer_2_code_set_1,precip_accum_six_hour_set_1,precip_accum_24_hour_set_1,visibility_set_1,metar_remark_set_1,metar_set_1,air_temp_high_6_hour_set_1,air_temp_low_6_hour_set_1,ceiling_set_1,air_temp_high_24_hour_set_1,air_temp_low_24_hour_set_1,dew_point_temperature_set_1d,wind_chill_set_1d,wind_cardinal_direction_set_1d,pressure_set_1d,sea_level_pressure_set_1d,heat_index_set_1d,weather_condition_set_1d
,,INHG,Fahrenheit,Fahrenheit,%,Miles/hour,Degrees,Miles/hour,code,code,Inches,Inches,code,code,Inches,Inches,Statute miles,text,text,Fahrenheit,Fahrenheit,Feet,Fahrenheit,Fahrenheit,Fahrenheit,Fahrenheit,Code,INHG,INHG,Fahrenheit,Code
KIGQ,05/01/2017 00:15 UTC,29.69,45.68,45.68,100.0,6.91,40.0,,14.0,,0.02,,34.0,,,,4.0,,KIGQ 010015Z AUTO 04006KT 4SM +RA OVC003 08/08 A2969 RMK AO2 P0002  T00760076,,,300.0,,,45.68,,NE,29.04,28.87,,Heavy Rain
KIGQ,05/01/2017 00:35 UTC,29.7,45.68,45.68,100.0,3.44,20.0,,13.0,,0.03,,34.0,,,,7.0,,KIGQ 010035Z AUTO 02003KT 7SM -RA OVC003 08/08 A2970 RMK AO2 LTG  DSNT SW P0003 T00760076,,,300.0,,,45.68,,NNE,29.05,28.88,,Light Rain
KIGQ,05/01/2017 00:55 UTC,29.69,45.86,45.86,100.0,3.44,330.0,,13.0,,0.03,,34.0,,,,7.0,,KIGQ 010055Z AUTO 33003KT 7SM -RA OVC003 08/08 A2969 RMK AO2 LTG  DSNT W P0003 T00770077,,,300.0,,,45.86,,NNW,29.04,28.86,,Light Rain
KIGQ,05/01/2017 01:15 UTC,29.67,46.04,46.04,100.0,4.61,40.0,,,,,,33.0,84.0,,,7.0,,KIGQ 010115Z AUTO 04004KT 7SM BKN003 OVC008 08/08 A2967 RMK AO2  LTG DSNT SW AND W T00780078,,,300.0,,,46.04,,NE,29.02,28.83,,Overcast
KIGQ,05/01/2017 01:35 UTC,29.65,46.4,46.4,100.0,4.61,30.0,,,,,,33.0,74.0,,,7.0,,KIGQ 010135Z AUTO 03004KT 7SM BKN003 OVC007 08/08 A2965 RMK AO2  LTG DSNT SW T00800080,,,300.0,,,46.4,,NNE,29.01,28.81,,Overcast
KIGQ,05/01/2017 01:55 UTC,29.64,46.94,46.94,100.0,10.36,50.0,,,,,,34.0,,,,7.0,,KIGQ 010155Z AUTO 05009KT 7SM OVC003 08/08 A2964 RMK AO2 LTG DSNT  W T00830083,,,300.0,,,46.94,,NE,29.0,28.78,,Overcast
KIGQ,05/01/2017 02:15 UTC,29.63,47.66,47.66,100.0,6.91,60.0,,31.0,,,,34.0,,,,5.0,,KIGQ 010215Z AUTO 06006KT 5SM BR OVC003 09/09 A2963 RMK AO2 LTG  DSNT W T00870087,,,300.0,,,47.66,,ENE,28.99,28.74,,Mist
KIGQ,05/01/2017 02:35 UTC,29.63,48.2,48.2,100.0,4.61,60.0,,31.0,,,,34.0,,,,5.0,,KIGQ 010235Z AUTO 06004KT 5SM BR OVC003 09/09 A2963 RMK AO2 LTG  DSNT SW AND W T00900090,,,300.0,,,48.2,,ENE,28.99,28.72,,Mist
KIGQ,05/01/2017 02:55 UTC,29.61,48.56,48.56,100.0,4.61,50.0,,13.0,,,0.03,34.0,,,,3.0,,KIGQ 010255Z AUTO 05004KT 3SM -RA OVC003 09/09 A2961 RMK AO2 LTG  DSNT S THRU NW 60003 T00920092,,,300.0,,,48.56,,NE,28.97,28.68,,Light Rain
KIGQ,05/01/2017 03:15 UTC,29.6,48.56,48.56,100.0,4.61,50.0,,1.0,,,,34.0,,,,2.5,,KIGQ 010315Z AUTO 05004KT 2 1/2SM RA OVC003 09/09 A2960 RMK AO2  LTG DSNT ALQS T00920092,,,300.0,,,48.56,,NE,28.96,28.67,,Rain
KIGQ,05/01/2017 03:35 UTC,29.57,48.38,48.38,100.0,5.75,60.0,,13.0,,,,34.0,,,,1.0,,KIGQ 010335Z AUTO 06005KT 1SM -RA OVC003 09/09 A2957 RMK AO2 LTG  DSNT ALQS T00910091,,,300.0,,,48.38,,ENE,28.93,28.65,,Light Rain
KIGQ,05/01/2017 03:55 UTC,29.53,49.1,49.1,100.0,8.05,80.0,,,,,,34.0,,,,1.0,,KIGQ 010355Z AUTO 08007KT 1SM -VCTSRA OVC003 10/10 A2953 RMK AO2  LTG DSNT S THRU W T00950095,,,300.0,,,49.1,,E,28.89,28.58,,Overcast
KIGQ,05/01/2017 04:15 UTC,29.54,50.0,50.0,100.0,3.44,50.0,,77.0,,,,34.0,,,,0.75,,KIGQ 010415Z AUTO 05003KT 3/4SM -TSRA OVC003 10/10 A2954 RMK AO2  LTG DSNT ALQS T01000100,,,300.0,,,50.0,,NE,28.9,28.55,,Light Rain/Thunderstorm
KIGQ,05/01/2017 04:35 UTC,29.52,51.62,51.62,100.0,8.05,100.0,,,,0.05,,34.0,,,,1.25,,KIGQ 010435Z AUTO 10007KT 1 1/4SM +VCTSRA OVC003 11/11 A2952 RMK AO2 LTG DSNT ALQS P0005 T01090109,,,300.0,,,51.62,,E,28.88,28.46,,Overcast
KIGQ,05/01/2017 04:55 UTC,29.53,54.86,54.86,100.0,4.61,180.0,,1.0,284.0,0.14,,32.0,143.0,,,3.0,,KIGQ 010455Z AUTO 18004KT 3SM RA SCT003 BKN014 OVC028 13/13  A2953 RMK AO2 LTG DSNT N THRU E P0014 T01270127,,,1400.0,,,54.86,,S,28.89,28.3,,Rain
KIGQ,05/01/2017 05:15 UTC,29.53,61.52,61.52,100.0,14.97,240.0,20.71,14.0,704.0,0.07,,52.0,393.0,,,5.0,,KIGQ 010515Z AUTO 24013G18KT 5SM +RA SCT005 BKN039 OVC070 16/16  A2953 RMK AO2 LTG DSNT N AND NE P0007 T01640164,,,3900.0,,,61.52,,WSW,28.89,27.91,,Heavy Rain
KIGQ,05/01/2017 05:35 UTC,29.53,56.84,56.84,100.0,4.61,290.0,,13.0,404.0,0.09,,83.0,183.0,,,7.0,,KIGQ 010535Z AUTO 29004KT 7SM -RA BKN008 BKN018 OVC040 14/14  A2953 RMK AO2 LTG DSNT NE AND S P0009 T01380138,,,800.0,,,56.84,,WNW,28.89,28.2,,Light Rain
KIGQ,05/01/2017 05:55 UTC,29.52,57.2,57.2,100.0,0.0,0.0,,14.0,474.0,,,82.0,233.0,,,5.0,,KIGQ 010555Z AUTO 00000KT 5SM +RA SCT008 BKN023 OVC047 14/14  A2952,,,2300.0,,,57.2,,N,28.88,28.16,,Heavy Rain
KIGQ,05/01/2017 06:15 UTC,29.5,56.84,56.84,100.0,0.0,0.0,,13.0,504.0,,,102.0,233.0,,,4.0,,KIGQ 010615Z AUTO 00000KT 4SM -RA SCT010 BKN023 OVC050 14/14  A2950 RMK AO2 LTG DSNT E T01380138,,,2300.0,,,56.84,,N,28.86,28.16,,Light Rain
KIGQ,05/01/2017 06:35 UTC,29.5,57.38,57.38,100.0,10.36,250.0,18.41,14.0,124.0,0.11,,52.0,83.0,,,1.75,,KIGQ 010635Z AUTO 25009G16KT 1 3/4SM +RA SCT005 BKN008 OVC012  14/14 A2950 RMK AO2 LTG DSNT NE AND SE P0011 T01410141,,,800.0,,,57.38,,WSW,28.86,28.13,,Heavy Rain
KIGQ,05/01/2017 06:55 UTC,29.5,59.18,59.18,100.0,10.36,200.0,,13.0,554.0,0.16,,52.0,483.0,,,10.0,,KIGQ 010655Z AUTO 20009KT 10SM -RA SCT005 BKN048 OVC055 15/15  A2950 RMK AO2 LTG DSNT NE AND E P0016 T01510151,,,4800.0,,,59.18,,SSW,28.86,28.03,,Light Rain
KIGQ,05/01/2017 07:15 UTC,29.47,59.0,59.0,100.0,8.05,170.0,,13.0,,,,652.0,704.0,,,10.0,,KIGQ 010715Z AUTO 17007KT 10SM -RA SCT065 OVC070 15/15 A2947 RMK AO2 LTG DSNT NE AND E T01500150,,,7000.0,,,59.0,,S,28.83,28.01,,Light Rain
KIGQ,05/01/2017 07:35 UTC,29.48,59.36,57.74,93.75,12.66,150.0,,,,,,803.0,904.0,,,10.0,,KIGQ 010735Z AUTO 15011KT 10SM BKN080 OVC090 15/14 A2948 RMK AO2  LTG DSNT NE AND S T01520143,,,8000.0,,,57.54,,SSE,28.84,28.08,,Overcast
KIGQ,05/01/2017 08:00 UTC,29.46,59.18,57.38,93.75,9.22,180.0,,,,,,704.0,,,,10.0,,KIGQ 010800Z AUTO 18008KT 10SM OVC070 15/14 A2946 RMK AO2  T01510141,,,7000.0,,,57.36,,S,28.82,28.07,,Overcast
KIGQ,05/01/2017 08:15 UTC,29.45,58.28,57.38,93.75,6.91,170.0,,,,,,704.0,,,,10.0,,KIGQ 010815Z AUTO 17006KT 10SM OVC070 15/14 A2945 RMK AO2  T01460141,,,7000.0,,,56.47,,S,28.81,28.11,,Overcast
KIGQ,05/01/2017 08:35 UTC,29.44,58.28,56.3,93.75,8.05,170.0,,,,,,702.0,803.0,,,10.0,,KIGQ 010835Z AUTO 17007KT 10SM SCT070 BKN080 15/14 A2944 RMK AO2  T01460135,,,8000.0,,,56.47,,S,28.8,28.1,,Mostly Cloudy
KIGQ,05/01/2017 08:55 UTC,29.44,57.56,54.68,93.7,12.66,170.0,,,,,0.16,802.0,,,,10.0,,KIGQ 010855Z AUTO 17011KT 10SM SCT080 14/13 A2944 RMK AO2 60016  T01420126,,,,,,55.74,,S,28.8,28.14,,Partly Cloudy
KIGQ,05/01/2017 09:15 UTC,29.45,56.48,53.96,87.75,12.66,180.0,,,,,,1.0,,,,10.0,,KIGQ 010915Z AUTO 18011KT 10SM CLR 14/12 A2945 RMK AO2  T01360122,,,,,,52.86,,S,28.81,28.28,,Clear
KIGQ,05/01/2017 09:35 UTC,29.46,57.02,52.88,87.75,17.27,190.0,25.32,,,,,1.0,,,,10.0,,KIGQ 010935Z AUTO 19015G22KT 10SM CLR 14/12 A2946 RMK AO2  T01390116,,,,,,53.39,,S,28.82,28.27,,Clear
KIGQ,05/01/2017 09:55 UTC,29.46,56.12,52.34,87.66,17.27,200.0,24.16,,,,,322.0,,,,10.0,,KIGQ 010955Z AUTO 20015G21KT 10SM SCT032 13/11 A2946 RMK AO2  T01340113,,,,,,52.47,,SSW,28.82,28.31,,Partly Cloudy
KIGQ,05/01/2017 10:15 UTC,29.46,56.3,52.52,82.14,16.11,200.0,24.16,,,,,193.0,323.0,,,10.0,,KIGQ 011015Z AUTO 20014G21KT 10SM BKN019 BKN032 14/11 A2946 RMK AO2 T01350114,,,1900.0,,,50.87,,SSW,28.82,28.37,,Mostly Cloudy
KIGQ,05/01/2017 10:35 UTC,29.45,54.86,52.34,87.66,13.8,200.0,,,,,,173.0,,,,10.0,,KIGQ 011035Z AUTO 20012KT 10SM BKN017 13/11 A2945 RMK AO2 LTG DSNT  NE T01270113,,,1700.0,,,51.23,,SSW,28.81,28.36,,Mostly Cloudy
KIGQ,05/01/2017 10:55 UTC,29.45,54.68,52.7,93.65,12.66,220.0,19.57,,,,,194.0,,,,10.0,,KIGQ 011055Z AUTO 22011G17KT 10SM OVC019 13/12 A2945 RMK AO2  T01260115,,,1900.0,,,52.87,,SW,28.81,28.3,,Overcast
KIGQ,05/01/2017 11:15 UTC,29.46,53.78,51.26,93.6,10.36,210.0,18.41,,334.0,,,163.0,243.0,,,10.0,,KIGQ 011115Z AUTO 21009G16KT 10SM BKN016 BKN024 OVC033 12/11  A2946 RMK AO2 T01210107,,,1600.0,,,51.96,,SSW,28.82,28.36,,Overcast
KIGQ,05/01/2017 11:35 UTC,29.47,53.06,49.64,87.57,11.5,230.0,,,414.0,,,202.0,332.0,,,10.0,,KIGQ 011135Z AUTO 23010KT 10SM SCT020 SCT033 OVC041 12/10  A2947 RMK AO2 T01170098,,,4100.0,,,49.43,,SW,28.83,28.47,,Overcast
KIGQ,05/01/2017 11:55 UTC,29.48,52.16,46.58,81.75,12.66,240.0,,,,,,414.0,,0.16,0.56,10.0,,KIGQ 011155Z AUTO 24011KT 10SM OVC041 11/08 A2948 RMK AO2 60016  70056 T01120081 10155 20112,59.9,52.16,4100.0,,,46.69,,WSW,28.84,28.57,,Overcast
KIGQ,05/01/2017 12:15 UTC,29.49,51.44,46.22,81.75,9.22,250.0,,,,,,262.0,434.0,,,10.0,,KIGQ 011215Z AUTO 25008KT 10SM SCT026 OVC043 11/08 A2949 RMK AO2  T01080079,,,4300.0,,,45.99,,WSW,28.85,28.61,,Overcast
KIGQ,05/01/2017 12:35 UTC,29.49,51.08,45.14,76.35,10.36,230.0,,,,,,434.0,,,,10.0,,KIGQ 011235Z AUTO 23009KT 10SM OVC043 11/07 A2949 RMK AO2  T01060073,,,4300.0,,,43.82,,SW,28.85,28.68,,Overcast
KIGQ,05/01/2017 12:55 UTC,29.49,51.08,44.6,76.35,8.05,240.0,,,,,,414.0,,,,10.0,,KIGQ 011255Z AUTO 24007KT 10SM OVC041 11/07 A2949 RMK AO2  T01060070,,,4100.0,,,43.82,,WSW,28.85,28.68,,Overcast
KIGQ,05/01/2017 13:15 UTC,29.48,52.16,46.22,81.75,8.05,230.0,,,,,,412.0,484.0,,,10.0,,KIGQ 011315Z AUTO 23007KT 10SM SCT041 OVC048 11/08 A2948 RMK AO2  T01120079,,,4800.0,,,46.69,,SW,28.84,28.57,,Overcast
KIGQ,05/01/2017 13:35 UTC,29.47,51.8,45.86,81.75,8.05,210.0,,,,,,373.0,484.0,,,10.0,,KIGQ 011335Z AUTO 21007KT 10SM BKN037 OVC048 11/08 A2947 RMK AO2  T01100077,,,3700.0,,,46.34,,SSW,28.83,28.58,,Overcast
KIGQ,05/01/2017 13:55 UTC,29.48,51.98,46.58,81.75,8.05,200.0,,,,,,374.0,,,,10.0,,KIGQ 011355Z AUTO 20007KT 10SM OVC037 11/08 A2948 RMK AO2  T01110081,,,3700.0,,,46.52,,SSW,28.84,28.58,,Overcast
KIGQ,05/01/2017 14:15 UTC,29.48,51.8,46.94,81.75,9.22,210.0,,,,,,354.0,,,,10.0,,KIGQ 011415Z AUTO 21008KT 10SM OVC035 11/08 A2948 RMK AO2  T01100083,,,3500.0,,,46.34,,SSW,28.84,28.59,,Overcast
KIGQ,05/01/2017 14:35 UTC,29.47,52.16,47.3,87.48,11.5,200.0,17.27,13.0,,,,332.0,464.0,,,10.0,,KIGQ 011435Z AUTO 20010G15KT 10SM -RA SCT033 OVC046 11/09  A2947 RMK AO2 T01120085,,,4600.0,,,48.52,,SSW,28.83,28.5,,Light Rain
KIGQ,05/01/2017 14:55 UTC,29.47,53.42,47.84,81.88,16.11,200.0,,,704.0,,,442.0,503.0,,,10.0,,KIGQ 011455Z AUTO 20014KT 10SM SCT044 BKN050 OVC070 12/09  A2947 RMK AO2 T01190088,,,5000.0,,,47.97,,SSW,28.83,28.51,,Overcast
KIGQ,05/01/2017 15:15 UTC,29.46,54.68,48.02,76.68,11.5,220.0,18.41,,754.0,,,282.0,483.0,,,10.0,,KIGQ 011515Z AUTO 22010G16KT 10SM SCT028 BKN048 OVC075 13/09  A2946 RMK AO2 T01260089,,,4800.0,,,47.43,,SW,28.82,28.51,,Overcast
KIGQ,05/01/2017 15:35 UTC,29.46,55.04,46.94,71.66,17.27,200.0,26.46,,,,,303.0,384.0,,,10.0,,KIGQ 011535Z AUTO 20015G23KT 10SM BKN030 OVC038 13/08 A2946 RMK AO2 T01280083,,,3000.0,,,45.97,,SSW,28.82,28.55,,Overcast
KIGQ,05/01/2017 15:55 UTC,29.46,54.68,45.86,71.66,19.57,200.0,28.77,,704.0,,,302.0,342.0,,,10.0,,KIGQ 011555Z AUTO 20017G25KT 10SM SCT030 SCT034 OVC070 13/08  A2946 RMK AO2 T01260077,,,7000.0,,,45.62,,SSW,28.82,28.56,,Overcast
KIGQ,05/01/2017 16:15 UTC,29.45,57.02,47.48,71.85,19.57,210.0,26.46,,,,,703.0,,,,10.0,,KIGQ 011615Z AUTO 21017G23KT 10SM BKN070 14/09 A2945 RMK AO2  T01390086,,,7000.0,,,47.95,,SSW,28.81,28.46,,Mostly Cloudy
KIGQ,05/01/2017 16:35 UTC,29.45,56.66,47.66,71.85,20.71,230.0,31.07,,,,,343.0,703.0,,,10.0,,KIGQ 011635Z AUTO 23018G27KT 10SM BKN034 BKN070 14/09 A2945 RMK AO2 T01370087,,,3400.0,,,47.6,,SW,28.81,28.47,,Mostly Cloudy
KIGQ,05/01/2017 16:55 UTC,29.45,56.3,46.76,67.15,16.11,220.0,25.32,,654.0,,,342.0,423.0,,,10.0,,KIGQ 011655Z AUTO 22014G22KT 10SM SCT034 BKN042 OVC065 14/08  A2945 RMK AO2 T01350082,,,4200.0,,,45.45,,SW,28.81,28.54,,Overcast
KIGQ,05/01/2017 17:15 UTC,29.44,56.84,46.76,67.15,18.41,230.0,27.63,,654.0,,,393.0,553.0,,,10.0,,KIGQ 011715Z AUTO 23016G24KT 10SM BKN039 BKN055 OVC065 14/08  A2944 RMK AO2 T01380082,,,3900.0,,,45.96,,SW,28.8,28.51,,Overcast
KIGQ,05/01/2017 17:35 UTC,29.44,55.76,44.78,66.93,19.57,220.0,31.07,,,,,393.0,504.0,,,10.0,,KIGQ 011735Z AUTO 22017G27KT 10SM BKN039 OVC050 13/07 A2944 RMK AO2 T01320071,,,3900.0,,,44.84,,SW,28.8,28.56,,Overcast
KIGQ,05/01/2017 17:55 UTC,29.43,56.48,45.14,62.72,23.02,220.0,29.93,,554.0,,,393.0,483.0,,,10.0,,KIGQ 011755Z AUTO 22020G26KT 10SM BKN039 BKN048 OVC055 14/07  A2943 RMK AO2 T01360073 10143 20105,57.74,50.9,3900.0,,,43.81,,SW,28.79,28.57,,Overcast
KIGQ,05/01/2017 18:15 UTC,29.43,56.3,44.24,62.72,21.85,220.0,36.82,,1004.0,,,392.0,462.0,,,10.0,,KIGQ 011815Z AUTO 22019G32KT 10SM SCT039 SCT046 OVC100 14/07  A2943 RMK AO2 T01350068,,,10000.0,,,43.64,,SW,28.79,28.58,,Overcast
KIGQ,05/01/2017 18:35 UTC,29.44,53.96,42.98,66.71,25.32,230.0,32.21,,1004.0,,,402.0,703.0,,,10.0,,KIGQ 011835Z AUTO 23022G28KT 10SM SCT040 BKN070 OVC100 12/06  A2944 RMK AO2 T01220061,,,7000.0,,,43.04,,SW,28.8,28.62,,Overcast
KIGQ,05/01/2017 18:55 UTC,29.46,52.34,44.78,76.35,19.57,220.0,32.21,13.0,704.0,,,362.0,443.0,,,10.0,,KIGQ 011855Z AUTO 22017G28KT 10SM -RA SCT036 BKN044 OVC070 11/07  A2946 RMK AO2 T01130071,,,4400.0,,,45.05,,SW,28.82,28.6,,Light Rain
KIGQ,05/01/2017 19:15 UTC,29.46,51.26,44.96,76.35,25.32,230.0,32.21,13.0,554.0,,,252.0,303.0,,,10.0,,KIGQ 011915Z AUTO 23022G28KT 10SM -RA SCT025 BKN030 OVC055 11/07  A2946 RMK AO2 T01070072,,,3000.0,,,44.0,,SW,28.82,28.64,,Light Rain
KIGQ,05/01/2017 19:35 UTC,29.47,51.44,44.78,76.35,25.32,220.0,35.68,17.0,464.0,,,273.0,333.0,,,10.0,,KIGQ 011935Z AUTO 22022G31KT 10SM -DZ BKN027 BKN033 OVC046 11/07  A2947 RMK AO2 T01080071,,,2700.0,,,44.17,,SW,28.83,28.64,,Light Drizzle
KIGQ,05/01/2017 19:55 UTC,29.47,50.0,46.4,87.38,18.41,220.0,27.63,13.0,454.0,,,272.0,363.0,,,10.0,,KIGQ 011955Z AUTO 22016G24KT 10SM -RA SCT027 BKN036 OVC045 10/08  A2947 RMK AO2 T01000080,,,3600.0,,,46.36,,SW,28.83,28.59,,Light Rain
KIGQ,05/01/2017 20:15 UTC,29.46,52.16,48.38,87.48,18.41,220.0,31.07,,1204.0,,,362.0,603.0,,,10.0,,KIGQ 012015Z AUTO 22016G27KT 10SM SCT036 BKN060 OVC120 11/09  A2946 RMK AO2 T01120091,,,6000.0,,,48.52,,SW,28.82,28.49,,Overcast
KIGQ,05/01/2017 20:35 UTC,29.46,52.88,46.58,76.52,26.46,230.0,29.93,,1204.0,,,272.0,433.0,,,10.0,,KIGQ 012035Z AUTO 23023G26KT 10SM SCT027 BKN043 OVC120 12/08  A2946 RMK AO2 T01160081,,,4300.0,,,45.63,,SW,28.82,28.58,,Overcast
KIGQ,05/01/2017 20:55 UTC,29.46,51.8,46.04,81.75,18.41,230.0,32.21,2.0,484.0,,,282.0,343.0,,,10.0,,KIGQ 012055Z AUTO 23016G28KT 10SM DZ SCT028 BKN034 OVC048 11/08  A2946 RMK AO2 T01100078,,,3400.0,,,46.34,,SW,28.82,28.57,,Drizzle
KIGQ,05/01/2017 21:15 UTC,29.47,50.9,47.12,81.75,17.27,220.0,,13.0,654.0,,,273.0,403.0,,,7.0,,KIGQ 012115Z AUTO 22015KT 7SM -RA BKN027 BKN040 OVC065 11/08  A2947 RMK AO2 T01050084,,,2700.0,,,45.46,,SW,28.83,28.61,,Light Rain
KIGQ,05/01/2017 21:35 UTC,29.46,51.98,47.48,87.48,20.71,220.0,33.38,,604.0,0.03,,252.0,313.0,,,10.0,,KIGQ 012135Z AUTO 22018G29KT 10SM SCT025 BKN031 OVC060 11/09  A2946 RMK AO2 P0003 T01110086,,,3100.0,,,48.34,,SW,28.82,28.5,,Overcast
KIGQ,05/01/2017 21:55 UTC,29.47,53.06,46.76,76.52,26.46,220.0,39.12,,554.0,0.03,,273.0,403.0,,,10.0,,KIGQ 012155Z AUTO 22023G34KT 10SM BKN027 BKN040 OVC055 12/08  A2947 RMK AO2 P0003 T01170082,,,2700.0,,,45.8,,SW,28.83,28.58,,Overcast
KIGQ,05/01/2017 22:15 UTC,29.47,51.8,46.76,81.75,24.16,220.0,36.82,13.0,404.0,,,273.0,333.0,,,10.0,,KIGQ 012215Z AUTO 22021G32KT 10SM -RA BKN027 BKN033 OVC040 11/08  A2947 RMK AO2 T01100082,,,2700.0,,,46.34,,SW,28.83,28.58,,Light Rain
KIGQ,05/01/2017 22:35 UTC,29.48,51.08,46.4,81.75,25.32,220.0,31.07,,,,,243.0,334.0,,,10.0,,KIGQ 012235Z AUTO 22022G27KT 10SM BKN024 OVC033 11/08 A2948 RMK AO2 T01060080,,,2400.0,,,45.64,,SW,28.84,28.62,,Overcast
KIGQ,05/01/2017 22:55 UTC,29.49,50.9,45.86,81.75,28.77,230.0,36.82,1.0,394.0,,,243.0,313.0,,,10.0,,KIGQ 012255Z AUTO 23025G32KT 10SM RA BKN024 BKN031 OVC039 11/08  A2949 RMK AO2 T01050077,,,2400.0,,,45.46,,SW,28.85,28.63,,Rain
KIGQ,05/01/2017 23:15 UTC,29.49,51.08,46.4,81.75,23.02,230.0,32.21,13.0,494.0,,,242.0,293.0,,,10.0,,KIGQ 012315Z AUTO 23020G28KT 10SM -RA SCT024 BKN029 OVC049 11/08  A2949 RMK AO2 T01060080,,,2900.0,,,45.64,,SW,28.85,28.63,,Light Rain
KIGQ,05/01/2017 23:35 UTC,29.5,51.08,45.68,81.75,23.02,230.0,36.82,,,,,263.0,364.0,,,10.0,,KIGQ 012335Z AUTO 23020G32KT 10SM BKN026 OVC036 11/08 A2950 RMK AO2 T01060076,,,2600.0,,,45.64,,SW,28.86,28.64,,Overcast
KIGQ,05/01/2017 23:55 UTC,29.5,49.82,46.22,87.38,20.71,220.0,31.07,13.0,474.0,,,262.0,343.0,0.03,,10.0,,KIGQ 012355Z AUTO 22018G27KT 10SM -RA SCT026 BKN034 OVC047 10/08  A2950 RMK AO2 60003 T00990079 10136 20097,56.48,49.46,3400.0,,,46.18,,SW,28.86,28.63,,Light Rain
KIGQ,05/02/2017 00:15 UTC,29.51,49.82,45.68,87.38,23.02,230.0,36.82,13.0,424.0,,,232.0,293.0,,,10.0,,KIGQ 020015Z AUTO 23020G32KT 10SM -RA SCT023 BKN029 OVC042 10/08  A2951 RMK AO2 T00990076,,,2900.0,,,46.18,,SW,28.87,28.64,,Light Rain
KIGQ,05/02/2017 00:35 UTC,29.52,48.2,45.86,93.45,21.85,230.0,29.93,1.0,384.0,0.01,,233.0,293.0,,,4.0,,KIGQ 020035Z AUTO 23019G26KT 4SM RA BKN023 BKN029 OVC038 09/08  A2952 RMK AO2 P0001 T00900077,,,2300.0,,,46.38,,SW,28.88,28.66,,Rain
KIGQ,05/02/2017 00:55 UTC,29.52,48.02,45.5,93.45,18.41,230.0,25.32,,604.0,0.02,,212.0,302.0,,,10.0,,KIGQ 020055Z AUTO 23016G22KT 10SM SCT021 SCT030 OVC060 09/08  A2952 RMK AO2 P0002 T00890075,,,6000.0,,,46.2,,SW,28.88,28.67,,Overcast
KIGQ,05/02/2017 01:15 UTC,29.52,48.38,44.78,87.28,20.71,230.0,26.46,,,,,343.0,604.0,,,10.0,,KIGQ 020115Z AUTO 23018G23KT 10SM BKN034 OVC060 09/07 A2952 RMK AO2 T00910071,,,3400.0,,,44.73,,SW,28.88,28.71,,Overcast
KIGQ,05/02/2017 01:35 UTC,29.52,48.38,43.88,87.28,25.32,230.0,35.68,,,,,304.0,,,,10.0,,KIGQ 020135Z AUTO 23022G31KT 10SM OVC030 09/07 A2952 RMK AO2  T00910066,,,3000.0,,,44.73,,SW,28.88,28.71,,Overcast
KIGQ,05/02/2017 01:55 UTC,29.53,48.2,43.52,81.48,19.57,230.0,32.21,,,,,232.0,284.0,,,10.0,,KIGQ 020155Z AUTO 23017G28KT 10SM SCT023 OVC028 09/06 A2953 RMK AO2 T00900064,,,2800.0,,,42.74,,SW,28.89,28.77,,Overcast
KIGQ,05/02/2017 02:15 UTC,29.54,47.48,44.06,87.28,19.57,230.0,29.93,2.0,,,,213.0,254.0,,,7.0,,KIGQ 020215Z AUTO 23017G26KT 7SM DZ BKN021 OVC025 09/07 A2954 RMK AO2 T00860067,,,2100.0,,,43.85,,SW,28.9,28.76,,Drizzle
KIGQ,05/02/2017 02:35 UTC,29.54,46.04,44.78,93.4,14.97,230.0,26.46,17.0,,,,133.0,214.0,,,5.0,,KIGQ 020235Z AUTO 23013G23KT 5SM -DZ BKN013 OVC021 08/07 A2954 RMK AO2 T00780071,,,1300.0,,,44.22,,SW,28.9,28.76,,Light Drizzle
KIGQ,05/02/2017 02:55 UTC,29.55,45.68,44.96,93.4,19.57,260.0,33.38,1.0,,,0.02,103.0,154.0,,,4.0,,KIGQ 020255Z AUTO 26017G29KT 4SM RA BKN010 OVC015 08/07 A2955 RMK AO2 60002 T00760072,,,1000.0,,,43.86,,W,28.91,28.79,,Rain
KIGQ,05/02/2017 03:15 UTC,29.55,45.5,43.88,93.4,13.8,240.0,18.41,,344.0,,,102.0,173.0,,,10.0,,KIGQ 020315Z AUTO 24012G16KT 10SM SCT010 BKN017 OVC034 08/07  A2955 RMK AO2 T00750066,,,1700.0,,,43.68,,WSW,28.91,28.79,,Overcast
KIGQ,05/02/2017 03:35 UTC,29.55,45.32,43.52,93.35,19.57,230.0,25.32,,394.0,,,153.0,303.0,,,7.0,,KIGQ 020335Z AUTO 23017G22KT 7SM BKN015 BKN030 OVC039 07/06  A2955 RMK AO2 T00740064,,,1500.0,,,43.49,,SW,28.91,28.8,,Overcast
KIGQ,05/02/2017 03:55 UTC,29.55,44.6,43.34,93.35,17.27,230.0,21.85,13.0,,,,134.0,,,,7.0,,KIGQ 020355Z AUTO 23015G19KT 7SM -RA OVC013 07/06 A2955 RMK AO2  T00700063,,,1300.0,,,42.78,39.07,SW,28.91,28.82,,Light Rain
KIGQ,05/02/2017 04:15 UTC,29.55,44.6,42.98,93.35,16.11,230.0,20.71,,324.0,,,133.0,183.0,,,10.0,,KIGQ 020415Z AUTO 23014G18KT 10SM BKN013 BKN018 OVC032 07/06  A2955 RMK AO2 T00700061,,,1300.0,,,42.78,39.34,SW,28.91,28.82,,Overcast
KIGQ,05/02/2017 04:35 UTC,29.55,44.6,42.44,93.35,17.27,240.0,29.93,,,,,153.0,224.0,,,10.0,,KIGQ 020435Z AUTO 24015G26KT 10SM BKN015 OVC022 07/06 A2955 RMK AO2 T00700058,,,1500.0,,,42.78,39.07,WSW,28.91,28.82,,Overcast
KIGQ,05/02/2017 04:55 UTC,29.54,44.6,41.9,93.35,17.27,240.0,23.02,,304.0,,,173.0,243.0,,,10.0,,KIGQ 020455Z AUTO 24015G20KT 10SM BKN017 BKN024 OVC030 07/06  A2954 RMK AO2 T00700055,,,1700.0,,,42.78,39.07,WSW,28.9,28.81,,Overcast
KIGQ,05/02/2017 05:15 UTC,29.55,44.24,41.36,87.09,16.11,230.0,24.16,,294.0,,,172.0,233.0,,,10.0,,KIGQ 020515Z AUTO 23014G21KT 10SM SCT017 BKN023 OVC029 07/05  A2955 RMK AO2 T00680052,,,2300.0,,,40.6,38.9,SW,28.91,28.88,,Overcast
KIGQ,05/02/2017 05:35 UTC,29.54,44.06,41.0,87.09,17.27,250.0,23.02,,,,,172.0,224.0,,,10.0,,KIGQ 020535Z AUTO 25015G20KT 10SM SCT017 OVC022 07/05 A2954 RMK AO2 T00670050,,,2200.0,,,40.42,38.4,WSW,28.9,28.87,,Overcast
KIGQ,05/02/2017 05:55 UTC,29.55,43.88,41.0,87.09,14.97,240.0,23.02,,,,,203.0,254.0,0.02,,10.0,,KIGQ 020555Z AUTO 24013G20KT 10SM BKN020 OVC025 07/05 A2955 RMK AO2 60002 T00660050 10101 20066 401550066,50.18,43.88,2000.0,59.9,43.88,40.24,38.74,WSW,28.91,28.89,,Overcast
KIGQ,05/02/2017 06:15 UTC,29.54,43.88,40.28,87.09,14.97,240.0,25.32,,424.0,,,183.0,263.0,,,10.0,,KIGQ 020615Z AUTO 24013G22KT 10SM BKN018 BKN026 OVC042 07/05  A2954 RMK AO2 T00660046,,,1800.0,,,40.24,38.74,WSW,28.9,28.88,,Overcast
KIGQ,05/02/2017 06:35 UTC,29.54,43.7,40.1,87.09,19.57,250.0,27.63,,424.0,,,183.0,283.0,,,10.0,,KIGQ 020635Z AUTO 25017G24KT 10SM BKN018 BKN028 OVC042 07/05  A2954 RMK AO2 T00650045,,,1800.0,,,40.07,37.45,WSW,28.9,28.89,,Overcast
KIGQ,05/02/2017 06:55 UTC,29.54,43.34,39.92,86.99,25.32,260.0,34.52,17.0,,,,213.0,324.0,,,10.0,,KIGQ 020655Z AUTO 26022G30KT 10SM -DZ BKN021 OVC032 06/04  A2954 RMK AO2 T00630044,,,2100.0,,,39.68,35.91,W,28.9,28.9,,Light Drizzle
KIGQ,05/02/2017 07:15 UTC,29.54,42.98,39.2,86.99,20.71,260.0,27.63,,604.0,,,213.0,313.0,,,10.0,,KIGQ 020715Z AUTO 26018G24KT 10SM BKN021 BKN031 OVC060 06/04  A2954 RMK AO2 T00610040,,,2100.0,,,39.33,36.3,W,28.9,28.91,,Overcast
KIGQ,05/02/2017 07:35 UTC,29.54,42.98,39.2,86.99,17.27,250.0,25.32,,604.0,,,213.0,263.0,,,10.0,,KIGQ 020735Z AUTO 25015G22KT 10SM BKN021 BKN026 OVC060 06/04  A2954 RMK AO2 T00610040,,,2100.0,,,39.33,37.05,WSW,28.9,28.91,,Overcast
KIGQ,05/02/2017 07:55 UTC,29.54,42.98,39.2,86.99,16.11,240.0,21.85,,,,,214.0,,,,10.0,,KIGQ 020755Z AUTO 24014G19KT 10SM OVC021 06/04 A2954 RMK AO2  T00610040,,,2100.0,,,39.33,37.33,WSW,28.9,28.91,,Overcast
KIGQ,05/02/2017 08:15 UTC,29.54,42.98,39.38,86.99,14.97,240.0,18.41,,,,,214.0,,,,10.0,,KIGQ 020815Z AUTO 24013G16KT 10SM OVC021 06/04 A2954 RMK AO2  T00610041,,,2100.0,,,39.33,37.63,WSW,28.9,28.91,,Overcast
KIGQ,05/02/2017 08:35 UTC,29.55,42.98,39.2,86.99,16.11,250.0,25.32,,,,,213.0,294.0,,,10.0,,KIGQ 020835Z AUTO 25014G22KT 10SM BKN021 OVC029 06/04 A2955 RMK AO2 T00610040,,,2100.0,,,39.33,37.33,WSW,28.91,28.92,,Overcast
KIGQ,05/02/2017 08:55 UTC,29.55,42.98,39.02,86.99,17.27,250.0,25.32,,,,,243.0,294.0,,,10.0,,KIGQ 020855Z AUTO 25015G22KT 10SM BKN024 OVC029 06/04 A2955 RMK AO2 T00610039,,,2400.0,,,39.33,37.05,WSW,28.91,28.92,,Overcast
KIGQ,05/02/2017 09:15 UTC,29.56,42.44,39.2,86.99,19.57,250.0,23.02,,404.0,,,203.0,283.0,,,10.0,,KIGQ 020915Z AUTO 25017G20KT 10SM BKN020 BKN028 OVC040 06/04  A2956 RMK AO2 T00580040,,,2000.0,,,38.8,35.86,WSW,28.92,28.94,,Overcast
KIGQ,05/02/2017 09:35 UTC,29.57,42.26,39.02,86.99,19.57,250.0,28.77,13.0,324.0,,,183.0,233.0,,,10.0,,KIGQ 020935Z AUTO 25017G25KT 10SM -RA BKN018 BKN023 OVC032 06/04  A2957 RMK AO2 T00570039,,,1800.0,,,38.62,35.63,WSW,28.93,28.96,,Light Rain
KIGQ,05/02/2017 09:55 UTC,29.57,42.08,38.66,86.99,18.41,250.0,28.77,13.0,,,,223.0,284.0,,,10.0,,KIGQ 020955Z AUTO 25016G25KT 10SM -RA BKN022 OVC028 06/04  A2957 RMK AO2 T00560037,,,2200.0,,,38.44,35.66,WSW,28.93,28.97,,Light Rain
KIGQ,05/02/2017 10:15 UTC,29.58,42.44,37.76,81.06,24.16,260.0,32.21,17.0,,,,244.0,,,,10.0,,KIGQ 021015Z AUTO 26021G28KT 10SM -DZ OVC024 06/03 A2958 RMK AO2  T00580032,,,2400.0,,,36.97,34.96,W,28.94,29.0,,Light Drizzle
KIGQ,05/02/2017 10:35 UTC,29.59,42.26,36.86,81.06,19.57,260.0,34.52,,,,,263.0,334.0,,,10.0,,KIGQ 021035Z AUTO 26017G30KT 10SM BKN026 OVC033 06/03 A2959 RMK AO2 T00570027,,,2600.0,,,36.8,35.63,W,28.95,29.02,,Overcast
KIGQ,05/02/2017 10:55 UTC,29.59,42.26,35.96,75.5,17.27,270.0,31.07,,704.0,,,262.0,353.0,,,10.0,,KIGQ 021055Z AUTO 27015G27KT 10SM SCT026 BKN035 OVC070 06/02  A2959 RMK AO2 T00570022,,,3500.0,,,34.98,36.16,W,28.95,29.05,,Overcast
KIGQ,05/02/2017 11:15 UTC,29.6,42.26,35.96,75.5,23.02,270.0,31.07,,704.0,,,263.0,403.0,,,10.0,,KIGQ 021115Z AUTO 27020G27KT 10SM BKN026 BKN040 OVC070 06/02  A2960 RMK AO2 T00570022,,,2600.0,,,34.98,34.94,W,28.96,29.06,,Overcast
KIGQ,05/02/2017 11:35 UTC,29.61,42.08,36.86,81.06,18.41,260.0,28.77,17.0,,,,264.0,,,,10.0,,KIGQ 021135Z AUTO 26016G25KT 10SM -DZ OVC026 06/03 A2961 RMK AO2  T00560027,,,2600.0,,,36.62,35.66,W,28.97,29.04,,Light Drizzle
KIGQ,05/02/2017 11:55 UTC,29.62,41.36,37.22,86.89,21.85,260.0,32.21,1.0,,,,244.0,,,0.05,10.0,,KIGQ 021155Z AUTO 26019G28KT 10SM RA OVC024 05/03 A2962 RMK AO2  70005 T00520029 10066 20052,43.88,41.36,2400.0,,,37.7,34.02,W,28.98,29.04,,Rain
KIGQ,05/02/2017 12:15 UTC,29.64,41.0,37.58,86.89,16.11,250.0,26.46,13.0,,,,224.0,,,,10.0,,KIGQ 021215Z AUTO 25014G23KT 10SM -RA OVC022 05/03 A2964 RMK AO2  T00500031,,,2200.0,,,37.35,34.88,WSW,29.0,29.07,,Light Rain
KIGQ,05/02/2017 12:35 UTC,29.65,41.18,37.94,86.89,16.11,270.0,21.85,13.0,,,,224.0,,,,10.0,,KIGQ 021235Z AUTO 27014G19KT 10SM -RA OVC022 05/03 A2965 RMK AO2  T00510033,,,2200.0,,,37.53,35.1,W,29.01,29.07,,Light Rain
KIGQ,05/02/2017 12:55 UTC,29.65,41.18,37.94,86.89,17.27,270.0,28.77,1.0,,,,224.0,,,,10.0,,KIGQ 021255Z AUTO 27015G25KT 10SM RA OVC022 05/03 A2965 RMK AO2  T00510033,,,2200.0,,,37.53,34.81,W,29.01,29.07,,Rain
KIGQ,05/02/2017 13:15 UTC,29.66,41.54,38.3,93.24,16.11,260.0,26.46,13.0,,,,224.0,,,,10.0,,KIGQ 021315Z AUTO 26014G23KT 10SM -RA OVC022 05/04 A2966 RMK AO2  T00530035,,,2200.0,,,39.71,35.55,W,29.02,29.03,,Light Rain
KIGQ,05/02/2017 13:35 UTC,29.66,42.26,38.66,86.99,20.71,260.0,25.32,17.0,,,,224.0,,,,10.0,,KIGQ 021335Z AUTO 26018G22KT 10SM -DZ OVC022 06/04 A2966 RMK AO2  T00570037,,,2200.0,,,38.62,35.39,W,29.02,29.05,,Light Drizzle
KIGQ,05/02/2017 13:55 UTC,29.67,43.7,38.66,81.2,19.57,270.0,24.16,,,,,253.0,304.0,,,10.0,,KIGQ 021355Z AUTO 27017G21KT 10SM BKN025 OVC030 07/04 A2967 RMK AO2 T00650037,,,2500.0,,,38.25,37.45,W,29.02,29.05,,Overcast
KIGQ,05/02/2017 14:15 UTC,29.67,44.24,38.48,81.2,20.71,270.0,29.93,,,,,283.0,344.0,,,10.0,,KIGQ 021415Z AUTO 27018G26KT 10SM BKN028 OVC034 07/04 A2967 RMK AO2 T00680036,,,2800.0,,,38.78,37.9,W,29.02,29.03,,Overcast
KIGQ,05/02/2017 14:35 UTC,29.68,44.78,38.48,81.2,18.41,280.0,27.63,,,,,294.0,,,,10.0,,KIGQ 021435Z AUTO 28016G24KT 10SM OVC029 07/04 A2968 RMK AO2  T00710036,,,2900.0,,,39.3,39.05,W,29.03,29.03,,Overcast
KIGQ,05/02/2017 14:55 UTC,29.68,44.6,37.94,75.67,23.02,260.0,31.07,,,,,294.0,,,,10.0,,KIGQ 021455Z AUTO 26020G27KT 10SM OVC029 07/03 A2968 RMK AO2  T00700033,,,2900.0,,,37.31,37.92,W,29.03,29.07,,Overcast
KIGQ,05/02/2017 15:15 UTC,29.69,44.96,37.94,76.24,24.16,270.0,31.07,,,,,273.0,344.0,,,10.0,,KIGQ 021515Z AUTO 27021G27KT 10SM BKN027 OVC034 07/03 A2969 RMK AO2 T00720033,,,2700.0,,,37.85,38.19,W,29.04,29.07,,Overcast
KIGQ,05/02/2017 15:35 UTC,29.7,45.14,37.4,75.67,17.27,290.0,29.93,,,,,314.0,,,,10.0,,KIGQ 021535Z AUTO 29015G26KT 10SM OVC031 07/03 A2970 RMK AO2  T00730030,,,3100.0,,,37.83,,WNW,29.05,29.08,,Overcast
KIGQ,05/02/2017 15:55 UTC,29.72,45.5,37.94,70.68,16.11,270.0,26.46,,,,,313.0,374.0,,,10.0,,KIGQ 021555Z AUTO 27014G23KT 10SM BKN031 OVC037 08/03 A2972 RMK AO2 T00750033,,,3100.0,,,36.43,,W,29.07,29.12,,Overcast
KIGQ,05/02/2017 16:15 UTC,29.72,45.68,37.22,72.12,20.71,270.0,28.77,,,,,313.0,374.0,,,10.0,,KIGQ 021615Z AUTO 27018G25KT 10SM BKN031 OVC037 08/03 A2972 RMK AO2 T00760029,,,3100.0,,,37.12,,W,29.07,29.11,,Overcast
KIGQ,05/02/2017 16:35 UTC,29.74,45.68,38.66,76.31,12.66,270.0,21.85,,,,,313.0,374.0,,,10.0,,KIGQ 021635Z AUTO 27011G19KT 10SM BKN031 OVC037 08/04 A2974 RMK AO2 T00760037,,,3100.0,,,38.57,,W,29.09,29.1,,Overcast
KIGQ,05/02/2017 16:55 UTC,29.75,45.68,38.48,75.77,20.71,270.0,27.63,,,,,314.0,,,,10.0,,KIGQ 021655Z AUTO 27018G24KT 10SM OVC031 08/04 A2975 RMK AO2  T00760036,,,3100.0,,,38.39,,W,29.1,29.11,,Overcast
KIGQ,05/02/2017 17:15 UTC,29.76,45.5,37.22,70.68,18.41,280.0,33.38,,,,,294.0,,,,10.0,,KIGQ 021715Z AUTO 28016G29KT 10SM OVC029 08/03 A2976 RMK AO2  T00750029,,,2900.0,,,36.43,,W,29.11,29.17,,Overcast
KIGQ,05/02/2017 17:35 UTC,29.77,47.3,38.12,66.05,13.8,290.0,24.16,,,,,313.0,364.0,,,10.0,,KIGQ 021735Z AUTO 29012G21KT 10SM BKN031 OVC036 09/03 A2977 RMK AO2 T00850034,,,3100.0,,,36.42,,WNW,29.12,29.16,,Overcast
KIGQ,05/02/2017 17:55 UTC,29.78,46.04,37.04,70.68,19.57,280.0,23.02,,,,,334.0,,,,10.0,,KIGQ 021755Z AUTO 28017G20KT 10SM OVC033 08/03 A2978 RMK AO2  T00780028 10085 20050,47.3,41.0,3300.0,,,36.95,,W,29.13,29.17,,Overcast
KIGQ,05/02/2017 18:15 UTC,29.79,46.76,39.02,75.84,14.97,290.0,23.02,,,,,313.0,394.0,,,10.0,,KIGQ 021815Z AUTO 29013G20KT 10SM BKN031 OVC039 08/04 A2979 RMK AO2 T00820039,,,3100.0,,,39.46,,WNW,29.14,29.12,,Overcast
KIGQ,05/02/2017 18:35 UTC,29.79,48.38,39.02,70.88,23.02,270.0,28.77,,504.0,,,333.0,403.0,,,10.0,,KIGQ 021835Z AUTO 27020G25KT 10SM BKN033 BKN040 OVC050 09/04  A2979 RMK AO2 T00910039,,,3300.0,,,39.27,,W,29.14,29.11,,Overcast
KIGQ,05/02/2017 18:55 UTC,29.81,48.38,39.02,70.88,19.57,260.0,28.77,,474.0,,,332.0,403.0,,,10.0,,KIGQ 021855Z AUTO 26017G25KT 10SM SCT033 BKN040 OVC047 09/04  A2981 RMK AO2 T00910039,,,4000.0,,,39.27,,W,29.16,29.13,,Overcast
KIGQ,05/02/2017 19:15 UTC,29.82,48.92,39.2,70.88,19.57,280.0,28.77,,474.0,,,333.0,393.0,,,10.0,,KIGQ 021915Z AUTO 28017G25KT 10SM BKN033 BKN039 OVC047 09/04  A2982 RMK AO2 T00940040,,,3300.0,,,39.79,,W,29.17,29.13,,Overcast
KIGQ,05/02/2017 19:35 UTC,29.83,49.1,38.48,66.27,18.41,270.0,26.46,,494.0,,,352.0,403.0,,,10.0,,KIGQ 021935Z AUTO 27016G23KT 10SM SCT035 BKN040 OVC049 10/04  A2983 RMK AO2 T00950036,,,4000.0,,,38.22,,W,29.18,29.17,,Overcast
KIGQ,05/02/2017 19:55 UTC,29.83,50.0,39.2,66.27,21.85,260.0,28.77,,504.0,,,373.0,463.0,,,10.0,,KIGQ 021955Z AUTO 26019G25KT 10SM BKN037 BKN046 OVC050 10/04  A2983,,,3700.0,,,39.08,,W,29.18,29.14,,Overcast
KIGQ,05/02/2017 20:15 UTC,29.83,49.28,38.66,66.27,19.57,280.0,26.46,,554.0,,,373.0,443.0,,,10.0,,KIGQ 022015Z AUTO 28017G23KT 10SM BKN037 BKN044 OVC055 10/04  A2983 RMK AO2 T00960037,,,3700.0,,,38.39,,W,29.18,29.17,,Overcast
KIGQ,05/02/2017 20:35 UTC,29.84,48.74,36.86,66.05,12.66,280.0,27.63,,554.0,,,373.0,463.0,,,10.0,,KIGQ 022035Z AUTO 28011G24KT 10SM BKN037 BKN046 OVC055 09/03  A2984 RMK AO2 T00930027,,,3700.0,,,37.79,,W,29.19,29.19,,Overcast
KIGQ,05/02/2017 20:55 UTC,29.85,48.2,38.3,70.88,14.97,270.0,25.32,,,,,373.0,554.0,,,10.0,,KIGQ 022055Z AUTO 27013G22KT 10SM BKN037 OVC055 09/04 A2985 RMK AO2 T00900035,,,3700.0,,,39.1,,W,29.2,29.18,,Overcast
KIGQ,05/02/2017 21:15 UTC,29.86,48.38,37.76,66.05,16.11,280.0,24.16,,,,,394.0,,,,10.0,,KIGQ 022115Z AUTO 28014G21KT 10SM OVC039 09/03 A2986 RMK AO2  T00910032,,,3900.0,,,37.45,,W,29.21,29.22,,Overcast
KIGQ,05/02/2017 21:35 UTC,29.87,48.38,37.94,66.05,13.8,290.0,27.63,,,,,383.0,444.0,,,10.0,,KIGQ 022135Z AUTO 29012G24KT 10SM BKN038 OVC044 09/03 A2987 RMK AO2 T00910033,,,3800.0,,,37.45,,WNW,29.22,29.23,,Overcast
KIGQ,05/02/2017 21:55 UTC,29.88,48.56,38.3,70.88,16.11,270.0,21.85,,484.0,,,362.0,423.0,,,10.0,,KIGQ 022155Z AUTO 27014G19KT 10SM SCT036 BKN042 OVC048 09/04  A2988 RMK AO2 T00920035,,,4200.0,,,39.44,,W,29.23,29.2,,Overcast
KIGQ,05/02/2017 22:15 UTC,29.89,47.48,38.66,70.88,17.27,280.0,29.93,13.0,,,,383.0,474.0,,,10.0,,KIGQ 022215Z AUTO 28015G26KT 10SM -RA BKN038 OVC047 09/04  A2989 RMK AO2 T00860037,,,3800.0,,,38.4,,W,29.24,29.24,,Light Rain
KIGQ,05/02/2017 22:35 UTC,29.9,47.48,38.84,70.88,14.97,280.0,20.71,,604.0,,,382.0,503.0,,,10.0,,KIGQ 022235Z AUTO 28013G18KT 10SM SCT038 BKN050 OVC060 09/04  A2990 RMK AO2 T00860038,,,5000.0,,,38.4,,W,29.25,29.25,,Overcast
KIGQ,05/02/2017 22:55 UTC,29.91,48.2,38.66,70.88,10.36,280.0,,,,,,604.0,,,,10.0,,KIGQ 022255Z AUTO 28009KT 10SM OVC060 09/04 A2991 RMK AO2  T00900037,,,6000.0,,,39.1,,W,29.26,29.24,,Overcast
KIGQ,05/02/2017 23:15 UTC,29.91,48.2,38.66,70.88,11.5,290.0,18.41,,654.0,,,362.0,422.0,,,10.0,,KIGQ 022315Z AUTO 29010G16KT 10SM SCT036 SCT042 OVC065 09/04  A2991 RMK AO2 T00900037,,,6500.0,,,39.1,,WNW,29.26,29.24,,Overcast
KIGQ,05/02/2017 23:35 UTC,29.92,48.2,38.84,70.88,10.36,300.0,13.8,,654.0,,,362.0,452.0,,,10.0,,KIGQ 022335Z AUTO 30009G12KT 10SM SCT036 SCT045 OVC065 09/04  A2992 RMK AO2 T00900038,,,6500.0,,,39.1,,WNW,29.27,29.25,,Overcast
KIGQ,05/02/2017 23:55 UTC,29.93,48.2,39.2,70.88,14.97,290.0,20.71,,654.0,,,302.0,483.0,,,10.0,,KIGQ 022355Z AUTO 29013G18KT 10SM SCT030 BKN048 OVC065 09/04  A2993,,,4800.0,,,39.1,,WNW,29.28,29.26,,Overcast
KIGQ,05/03/2017 00:15 UTC,29.94,45.68,40.28,81.34,6.91,310.0,,,494.0,,,302.0,382.0,,,10.0,,KIGQ 030015Z AUTO 31006KT 10SM SCT030 SCT038 OVC049 08/05  A2994 RMK AO2 T00760046,,,4900.0,,,40.23,,NW,29.29,29.26,,Overcast
KIGQ,05/03/2017 00:35 UTC,29.95,46.04,40.64,81.34,5.75,300.0,,,494.0,,,303.0,353.0,,,10.0,,KIGQ 030035Z AUTO 30005KT 10SM BKN030 BKN035 OVC049 08/05  A2995 RMK AO2 T00780048,,,3000.0,,,40.58,,WNW,29.3,29.26,,Overcast
KIGQ,05/03/2017 00:55 UTC,29.96,46.58,40.28,81.34,8.05,300.0,,,504.0,,,272.0,463.0,,,10.0,,KIGQ 030055Z AUTO 30007KT 10SM SCT027 BKN046 OVC050 08/05  A2996 RMK AO2 T00810046,,,4600.0,,,41.11,,WNW,29.31,29.26,,Overcast
KIGQ,05/03/2017 01:15 UTC,29.96,46.58,39.2,75.84,10.36,300.0,,,704.0,,,462.0,603.0,,,10.0,,KIGQ 030115Z AUTO 30009KT 10SM SCT046 BKN060 OVC070 08/04  A2996 RMK AO2 T00810040,,,6000.0,,,39.28,,WNW,29.31,29.3,,Overcast
KIGQ,05/03/2017 01:35 UTC,29.97,46.4,39.2,75.84,4.61,290.0,,,,,,704.0,,,,10.0,,KIGQ 030135Z AUTO 29004KT 10SM OVC070 08/04 A2997 RMK AO2  T00800040,,,7000.0,,,39.11,,WNW,29.32,29.31,,Overcast
KIGQ,05/03/2017 01:55 UTC,29.99,46.76,38.84,75.84,6.91,300.0,18.41,,704.0,,,372.0,492.0,,,10.0,,KIGQ 030155Z AUTO 30006G16KT 10SM SCT037 SCT049 OVC070 08/04  A2999 RMK AO2 T00820038,,,7000.0,,,39.46,,WNW,29.34,29.32,,Overcast
KIGQ,05/03/2017 02:15 UTC,30.0,46.94,39.02,75.84,9.22,310.0,,,704.0,,,443.0,553.0,,,10.0,,KIGQ 030215Z AUTO 31008KT 10SM BKN044 BKN055 OVC070 08/04  A3000 RMK AO2 T00830039,,,4400.0,,,39.63,,NW,29.35,29.33,,Overcast
KIGQ,05/03/2017 02:35 UTC,30.01,46.94,38.84,75.84,4.61,320.0,,,,,,444.0,,,,10.0,,KIGQ 030235Z AUTO 32004KT 10SM OVC044 08/04 A3001 RMK AO2  T00830038,,,4400.0,,,39.63,,NW,29.36,29.34,,Overcast
KIGQ,05/03/2017 02:55 UTC,30.02,46.76,38.66,75.84,6.91,310.0,,,704.0,,,442.0,502.0,,,10.0,,KIGQ 030255Z AUTO 31006KT 10SM SCT044 SCT050 OVC070 08/04  A3002 RMK AO2 T00820037,,,7000.0,,,39.46,,NW,29.37,29.35,,Overcast
KIGQ,05/03/2017 03:15 UTC,30.03,46.22,38.48,75.84,5.75,320.0,,,,,,704.0,,,,10.0,,KIGQ 030315Z AUTO 32005KT 10SM OVC070 08/04 A3003 RMK AO2  T00790036,,,7000.0,,,38.94,,NW,29.38,29.38,,Overcast
KIGQ,05/03/2017 03:35 UTC,30.04,46.04,38.84,75.84,5.75,320.0,,,,,,604.0,,,,10.0,,KIGQ 030335Z AUTO 32005KT 10SM OVC060 08/04 A3004 RMK AO2  T00780038,,,6000.0,,,38.76,,NW,29.39,29.4,,Overcast
KIGQ,05/03/2017 03:55 UTC,30.04,44.78,38.66,81.2,3.44,310.0,,,,,,604.0,,,,10.0,,KIGQ 030355Z AUTO 31003KT 10SM OVC060 07/04 A3004 RMK AO2  T00710037,,,6000.0,,,39.3,,NW,29.39,29.39,,Overcast
KIGQ,05/03/2017 04:15 UTC,30.04,44.6,38.84,81.2,3.44,320.0,,,,,,604.0,,,,10.0,,KIGQ 030415Z AUTO 32003KT 10SM OVC060 07/04 A3004 RMK AO2  T00700038,,,6000.0,,,39.13,,NW,29.39,29.4,,Overcast
KIGQ,05/03/2017 04:35 UTC,30.04,44.06,38.48,81.2,0.0,0.0,,,,,,602.0,,,,10.0,,KIGQ 030435Z AUTO 00000KT 10SM SCT060 07/04 A3004 RMK AO2  T00670036,,,,,,38.6,,N,29.39,29.42,,Partly Cloudy
KIGQ,05/03/2017 04:55 UTC,30.04,43.52,38.66,86.99,0.0,0.0,,,,,,603.0,,,,10.0,,KIGQ 030455Z AUTO 00000KT 10SM BKN060 06/04 A3004 RMK AO2  T00640037,,,6000.0,,,39.86,,N,29.39,29.39,,Mostly Cloudy
KIGQ,05/03/2017 05:15 UTC,30.05,42.26,38.3,86.99,3.44,250.0,,,,,,602.0,,,,10.0,,KIGQ 030515Z AUTO 25003KT 10SM SCT060 06/04 A3005 RMK AO2  T00570035,,,,,,38.62,,WSW,29.4,29.44,,Partly Cloudy
KIGQ,05/03/2017 05:35 UTC,30.06,39.56,38.12,93.19,0.0,0.0,,,,,,1.0,,,,10.0,,KIGQ 030535Z AUTO 00000KT 10SM CLR 04/03 A3006 RMK AO2  T00420034,,,,,,37.73,,N,29.41,29.49,,Clear
KIGQ,05/03/2017 05:55 UTC,30.06,39.38,37.76,93.19,0.0,0.0,,,,,,1.0,,,,10.0,,KIGQ 030555Z AUTO 00000KT 10SM CLR 04/03 A3006 RMK AO2 T00410032  10085 20040 401030040,47.3,39.2,,50.54,39.2,37.55,,N,29.41,29.5,,Clear
KIGQ,05/03/2017 06:15 UTC,30.07,38.48,36.86,93.19,0.0,0.0,,,,,,1.0,,,,10.0,,KIGQ 030615Z AUTO 00000KT 10SM CLR 04/03 A3007 RMK AO2  T00360027,,,,,,36.66,,N,29.42,29.53,,Clear
KIGQ,05/03/2017 06:35 UTC,30.07,36.5,35.78,93.13,0.0,0.0,,,,,,1.0,,,,10.0,,KIGQ 030635Z AUTO 00000KT 10SM CLR 03/02 A3007 RMK AO2  T00250021,,,,,,34.68,,N,29.42,29.58,,Clear
KIGQ,05/03/2017 06:55 UTC,30.08,36.5,35.96,93.13,0.0,0.0,,,,,,1.0,,,,10.0,,KIGQ 030655Z AUTO 00000KT 10SM CLR 03/02 A3008 RMK AO2  T00250022,,,,,,34.68,,N,29.43,29.59,,Clear
KIGQ,05/03/2017 07:15 UTC,30.08,35.78,35.42,100.0,0.0,0.0,,,,,,1.0,,,,10.0,,KIGQ 030715Z AUTO 00000KT 10SM CLR 02/02 A3008 RMK AO2  T00210019,,,,,,35.78,,N,29.43,29.58,,Clear
KIGQ,05/03/2017 07:35 UTC,30.08,37.76,37.4,100.0,0.0,0.0,,,,,,1.0,,,,10.0,,KIGQ 030735Z AUTO 00000KT 10SM CLR 03/03 A3008 RMK AO2  T00320030,,,,,,37.76,,N,29.43,29.52,,Clear
KIGQ,05/03/2017 07:55 UTC,30.08,35.6,35.6,100.0,3.44,240.0,,,,,,1.0,,,,10.0,,KIGQ 030755Z AUTO 24003KT 10SM CLR 02/02 A3008,,,,,,35.6,,WSW,29.43,29.58,,Clear
KIGQ,05/03/2017 08:15 UTC,30.09,35.42,35.42,100.0,0.0,0.0,,,,,,1.0,,,,10.0,,KIGQ 030815Z AUTO 00000KT 10SM CLR 02/02 A3009 RMK AO2  T00190019,,,,,,35.42,,N,29.44,29.6,,Clear
KIGQ,05/03/2017 08:35 UTC,30.1,35.06,34.88,100.0,0.0,0.0,,,,,,1.0,,,,10.0,,KIGQ 030835Z AUTO 00000KT 10SM CLR 02/02 A3010 RMK AO2  T00170016,,,,,,35.06,,N,29.45,29.62,,Clear
KIGQ,05/03/2017 08:55 UTC,30.1,34.52,34.52,100.0,0.0,0.0,,,,,,1.0,,,,10.0,,KIGQ 030855Z AUTO 00000KT 10SM CLR 01/01 A3010 RMK AO2  T00140014,,,,,,34.52,,N,29.45,29.63,,Clear
KIGQ,05/03/2017 09:15 UTC,30.1,33.98,33.98,100.0,0.0,0.0,,,,,,1.0,,,,10.0,,KIGQ 030915Z AUTO 00000KT 10SM CLR 01/01 A3010 RMK AO2  T00110011,,,,,,33.98,,N,29.45,29.64,,Clear
KIGQ,05/03/2017 09:35 UTC,30.11,34.7,34.7,100.0,0.0,0.0,,,,,,1.0,,,,10.0,,KIGQ 030935Z AUTO 00000KT 10SM CLR 02/02 A3011 RMK AO2  T00150015,,,,,,34.7,,N,29.46,29.64,,Clear
KIGQ,05/03/2017 09:55 UTC,30.11,35.78,35.78,100.0,0.0,0.0,,,,,,1.0,,,,10.0,,KIGQ 030955Z AUTO 00000KT 10SM CLR 02/02 A3011 RMK AO2  T00210021,,,,,,35.78,,N,29.46,29.61,,Clear
KIGQ,05/03/2017 10:15 UTC,30.12,35.24,35.24,100.0,0.0,0.0,,,,,,1.0,,,,10.0,,KIGQ 031015Z AUTO 00000KT 10SM CLR 02/02 A3012 RMK AO2  T00180018,,,,,,35.24,,N,29.47,29.63,,Clear
KIGQ,05/03/2017 10:35 UTC,30.12,34.88,34.88,100.0,0.0,0.0,,,,,,1.0,,,,10.0,,KIGQ 031035Z AUTO 00000KT 10SM CLR 02/02 A3012 RMK AO2  T00160016,,,,,,34.88,,N,29.47,29.64,,Clear
KIGQ,05/03/2017 10:55 UTC,30.14,32.72,32.72,100.0,3.44,190.0,,,,,,1.0,,,,10.0,,KIGQ 031055Z AUTO 19003KT 10SM CLR 00/00 A3014 RMK AO2  T00040004,,,,,,32.72,,S,29.48,29.7,,Clear
KIGQ,05/03/2017 11:15 UTC,30.15,32.54,32.54,100.0,3.44,170.0,,31.0,,,,1.0,,,,4.0,,KIGQ 031115Z AUTO 17003KT 4SM BR CLR 00/00 A3015 RMK AO2  T00030003,,,,,,32.54,,S,29.49,29.72,,Mist
KIGQ,05/03/2017 11:35 UTC,30.15,34.16,34.16,100.0,0.0,0.0,,,,,,1.0,,,,7.0,,KIGQ 031135Z AUTO 00000KT 7SM CLR 01/01 A3015 RMK AO2  T00120012,,,,,,34.16,,N,29.49,29.68,,Clear
KIGQ,05/03/2017 11:55 UTC,30.17,35.24,35.24,100.0,0.0,0.0,,,,,,1.0,,,,10.0,,KIGQ 031155Z AUTO 00000KT 10SM CLR 02/02 A3017 RMK AO2 T00180018  10042 21001,39.56,31.82,,,,35.24,,N,29.51,29.67,,Clear
KIGQ,05/03/2017 12:15 UTC,30.16,37.58,37.58,100.0,0.0,0.0,,,,,,1.0,,,,10.0,,KIGQ 031215Z AUTO 00000KT 10SM CLR 03/03 A3016 RMK AO2  T00310031,,,,,,37.58,,N,29.5,29.6,,Clear
KIGQ,05/03/2017 12:35 UTC,30.18,41.0,39.92,93.24,0.0,0.0,,,,,,1.0,,,,10.0,,KIGQ 031235Z AUTO 00000KT 10SM CLR 05/04 A3018 RMK AO2  T00500044,,,,,,39.17,,N,29.52,29.56,,Clear
KIGQ,05/03/2017 12:55 UTC,30.18,43.7,40.64,87.09,3.44,140.0,,,,,,1.0,,,,10.0,,KIGQ 031255Z AUTO 14003KT 10SM CLR 07/05 A3018 RMK AO2  T00650048,,,,,,40.07,,SE,29.52,29.52,,Clear
KIGQ,05/03/2017 13:15 UTC,30.18,45.86,41.72,81.34,3.44,160.0,,,,,,1.0,,,,10.0,,KIGQ 031315Z AUTO 16003KT 10SM CLR 08/05 A3018 RMK AO2  T00770054,,,,,,40.4,,SSE,29.52,29.49,,Clear
KIGQ,05/03/2017 13:35 UTC,30.18,47.3,41.72,76.02,3.44,80.0,,,,,,1.0,,,,10.0,,KIGQ 031335Z AUTO 08003KT 10SM CLR 09/05 A3018 RMK AO2  T00850054,,,,,,40.04,,E,29.52,29.49,,Clear
KIGQ,05/03/2017 13:55 UTC,30.19,48.2,40.28,76.02,4.61,90.0,,,,,,1.0,,,,10.0,,KIGQ 031355Z AUTO 09004KT 10SM CLR 09/05 A3019 RMK AO2  T00900046,,,,,,40.92,,E,29.53,29.47,,Clear
KIGQ,05/03/2017 14:15 UTC,30.19,49.28,39.38,66.27,3.44,100.0,,,,,,1.0,,,,10.0,,KIGQ 031415Z AUTO 10003KT 10SM CLR 10/04 A3019 RMK AO2  T00960041,,,,,,38.39,,E,29.53,29.52,,Clear
KIGQ,05/03/2017 14:35 UTC,30.2,50.18,39.56,66.27,0.0,0.0,,,,,,1.0,,,,10.0,,KIGQ 031435Z AUTO 00000KT 10SM CLR 10/04 A3020 RMK AO2  T01010042,,,,,,39.25,,N,29.54,29.51,,Clear
KIGQ,05/03/2017 14:55 UTC,30.19,51.08,39.02,62.0,3.44,130.0,,,,,,1.0,,,,10.0,,KIGQ 031455Z AUTO 13003KT 10SM CLR 11/04 A3019 RMK AO2  T01060039,,,,,,38.39,,SE,29.53,29.51,,Clear
KIGQ,05/03/2017 15:15 UTC,30.19,51.8,37.76,57.78,4.61,110.0,,,,,,1.0,,,,10.0,,KIGQ 031515Z AUTO 11004KT 10SM CLR 11/03 A3019 RMK AO2  T01100032,,,,,,37.26,,ESE,29.53,29.53,,Clear
KIGQ,05/03/2017 15:35 UTC,30.19,51.8,36.86,57.78,0.0,0.0,,,,,,1.0,,,,10.0,,KIGQ 031535Z AUTO 00000KT 10SM CLR 11/03 A3019 RMK AO2  T01100027,,,,,,37.26,,N,29.53,29.53,,Clear
KIGQ,05/03/2017 15:55 UTC,30.18,52.7,36.86,54.08,8.05,60.0,,,,,,1.0,,,,10.0,,KIGQ 031555Z AUTO 06007KT 030V100 10SM CLR 12/03 A3018 RMK AO2  T01150027,,,,,,36.41,,ENE,29.52,29.53,,Clear
KIGQ,05/03/2017 16:15 UTC,30.18,53.42,35.24,50.37,8.05,70.0,,,,,,1.0,,,,10.0,,KIGQ 031615Z AUTO 07007KT 10SM CLR 12/02 A3018 RMK AO2  T01190018,,,,,,35.27,,ENE,29.52,29.55,,Clear
KIGQ,05/03/2017 16:35 UTC,30.19,53.42,34.16,46.88,8.05,40.0,,,,,,1.0,,,,10.0,,KIGQ 031635Z AUTO 04007KT 10SM CLR 12/01 A3019 RMK AO2  T01190012,,,,,,33.46,,NE,29.53,29.6,,Clear
KIGQ,05/03/2017 16:55 UTC,30.19,53.78,33.08,46.88,6.91,40.0,,,,,,1.0,,,,10.0,,KIGQ 031655Z AUTO 04006KT 10SM CLR 12/01 A3019 RMK AO2  T01210006,,,,,,33.79,,NE,29.53,29.59,,Clear
KIGQ,05/03/2017 17:15 UTC,30.18,53.78,33.26,46.88,4.61,50.0,,,,,,1.0,,,,10.0,,KIGQ 031715Z AUTO 05004KT 10SM CLR 12/01 A3018 RMK AO2  T01210007,,,,,,33.79,,NE,29.52,29.58,,Clear
KIGQ,05/03/2017 17:35 UTC,30.18,53.6,32.36,43.61,6.91,30.0,,,,,,1.0,,,,10.0,,KIGQ 031735Z AUTO 03006KT 10SM CLR 12/00 A3018 RMK AO2  T01200002,,,,,,31.82,,NNE,29.52,29.62,,Clear
KIGQ,05/03/2017 17:55 UTC,30.17,53.96,33.98,46.88,8.05,50.0,,,,,,1.0,,,,10.0,,KIGQ 031755Z AUTO 05007KT 10SM CLR 12/01 A3017 RMK AO2 T01220011  10122 20019,53.96,35.42,,,,33.96,,NE,29.51,29.57,,Clear
KIGQ,05/03/2017 18:15 UTC,30.15,53.6,36.32,50.37,9.22,40.0,,,,,,1.0,,,,10.0,,KIGQ 031815Z AUTO 04008KT 10SM CLR 12/02 A3015 RMK AO2  T01200024,,,,,,35.44,,NE,29.49,29.52,,Clear
KIGQ,05/03/2017 18:35 UTC,30.14,53.6,37.04,54.08,8.05,50.0,,,,,,1.0,,,,10.0,,KIGQ 031835Z AUTO 05007KT 10SM CLR 12/03 A3014 RMK AO2  T01200028,,,,,,37.25,,NE,29.48,29.47,,Clear
KIGQ,05/03/2017 18:55 UTC,30.14,53.96,38.48,58.03,8.05,40.0,,,,,,1.0,,,,10.0,,KIGQ 031855Z AUTO 04007KT 10SM CLR 12/04 A3014 RMK AO2  T01220036,,,,,,39.4,,NE,29.48,29.41,,Clear
KIGQ,05/03/2017 19:15 UTC,30.14,53.42,37.22,54.08,9.22,50.0,,,,,,1.0,,,,10.0,,KIGQ 031915Z AUTO 05008KT 10SM CLR 12/03 A3014 RMK AO2  T01190029,,,,,,37.08,,NE,29.48,29.47,,Clear
KIGQ,05/03/2017 19:35 UTC,30.14,53.06,37.22,54.08,9.22,50.0,,,,,,1.0,,,,10.0,,KIGQ 031935Z AUTO 05008KT 10SM CLR 12/03 A3014 RMK AO2  T01170029,,,,,,36.75,,NE,29.48,29.48,,Clear
KIGQ,05/03/2017 19:55 UTC,30.14,52.7,37.76,54.08,8.05,40.0,,,,,,1.0,,,,10.0,,KIGQ 031955Z AUTO 04007KT 10SM CLR 12/03 A3014 RMK AO2  T01150032,,,,,,36.41,,NE,29.48,29.49,,Clear
KIGQ,05/03/2017 20:15 UTC,30.14,52.7,38.66,58.03,6.91,30.0,,,,,,1.0,,,,10.0,,KIGQ 032015Z AUTO 03006KT 10SM CLR 12/04 A3014 RMK AO2  T01150037,,,,,,38.22,,NNE,29.48,29.45,,Clear
KIGQ,05/03/2017 20:35 UTC,30.13,53.24,38.66,58.03,8.05,40.0,,,,,,1.0,,,,10.0,,KIGQ 032035Z AUTO 04007KT 10SM CLR 12/04 A3013 RMK AO2  T01180037,,,,,,38.72,,NE,29.47,29.42,,Clear
KIGQ,05/03/2017 20:55 UTC,30.12,52.7,37.76,54.08,9.22,40.0,,,,,,1.0,,,,10.0,,KIGQ 032055Z AUTO 04008KT 10SM CLR 12/03 A3012 RMK AO2  T01150032,,,,,,36.41,,NE,29.47,29.48,,Clear
KIGQ,05/03/2017 21:15 UTC,30.12,52.7,37.94,54.08,9.22,40.0,,,,,,1.0,,,,10.0,,KIGQ 032115Z AUTO 04008KT 10SM CLR 12/03 A3012 RMK AO2  T01150033,,,,,,36.41,,NE,29.47,29.48,,Clear
KIGQ,05/03/2017 21:35 UTC,30.13,51.44,36.68,57.78,10.36,30.0,,,,,,1.0,,,,10.0,,KIGQ 032135Z AUTO 03009KT 10SM CLR 11/03 A3013 RMK AO2  T01080026,,,,,,36.92,,NNE,29.47,29.48,,Clear
KIGQ,05/03/2017 21:55 UTC,30.13,50.9,36.32,53.81,9.22,40.0,,,,,,1.0,,,,10.0,,KIGQ 032155Z AUTO 04008KT 10SM CLR 11/02 A3013 RMK AO2  T01050024,,,,,,34.6,,NE,29.47,29.53,,Clear
KIGQ,05/03/2017 22:15 UTC,30.13,50.72,35.42,57.52,11.5,60.0,,,,,,1.0,,,,10.0,,KIGQ 032215Z AUTO 06010KT 10SM CLR 10/02 A3013 RMK AO2  T01040019,,,,,,36.13,,ENE,29.47,29.5,,Clear
KIGQ,05/03/2017 22:35 UTC,30.13,49.64,35.06,57.52,9.22,50.0,,,,,,1.0,,,,10.0,,KIGQ 032235Z AUTO 05008KT 10SM CLR 10/02 A3013 RMK AO2  T00980017,,,,,,35.11,,NE,29.47,29.53,,Clear
KIGQ,05/03/2017 22:55 UTC,30.13,48.92,35.24,61.51,12.66,40.0,,,,,,1.0,,,,10.0,,KIGQ 032255Z AUTO 04011KT 10SM CLR 09/02 A3013 RMK AO2  T00940018,,,,,,36.14,,NE,29.47,29.51,,Clear
KIGQ,05/03/2017 23:15 UTC,30.13,48.2,36.14,61.51,6.91,40.0,,,,,,1.0,,,,10.0,,KIGQ 032315Z AUTO 04006KT 10SM CLR 09/02 A3013 RMK AO2  T00900023,,,,,,35.46,,NE,29.47,29.53,,Clear
KIGQ,05/03/2017 23:35 UTC,30.14,47.66,35.6,61.51,5.75,30.0,,,,,,1.0,,,,10.0,,KIGQ 032335Z AUTO 03005KT 10SM CLR 09/02 A3014 RMK AO2  T00870020,,,,,,34.95,,NNE,29.48,29.56,,Clear
KIGQ,05/03/2017 23:55 UTC,30.14,47.48,35.78,61.51,5.75,40.0,,,,,,1.0,,,,10.0,,KIGQ 032355Z AUTO 04005KT 10SM CLR 09/02 A3014 RMK AO2 T00860021  10124 20086,54.32,47.48,,,,34.78,,NE,29.48,29.56,,Clear
KIGQ,05/04/2017 00:15 UTC,30.15,47.3,34.88,61.51,5.75,40.0,,,,,,1.0,,,,10.0,,KIGQ 040015Z AUTO 04005KT 10SM CLR 09/02 A3015 RMK AO2  T00850016,,,,,,34.61,,NE,29.49,29.58,,Clear
KIGQ,05/04/2017 00:35 UTC,30.15,46.94,35.06,65.82,6.91,30.0,,,,,,1.0,,,,10.0,,KIGQ 040035Z AUTO 03006KT 10SM CLR 08/02 A3015 RMK AO2  T00830017,,,,,,35.99,,NNE,29.49,29.55,,Clear
KIGQ,05/04/2017 00:55 UTC,30.15,46.76,34.88,65.82,4.61,30.0,,,,,,1.0,,,,10.0,,KIGQ 040055Z AUTO 03004KT 10SM CLR 08/02 A3015 RMK AO2  T00820016,,,,,,35.81,,NNE,29.49,29.56,,Clear
KIGQ,05/04/2017 01:15 UTC,30.15,46.4,35.6,65.82,6.91,40.0,,,,,,1203.0,,,,10.0,,KIGQ 040115Z AUTO 04006KT 10SM BKN120 08/02 A3015,,,12000.0,,,35.47,,NE,29.49,29.57,,Mostly Cloudy
KIGQ,05/04/2017 01:35 UTC,30.15,46.22,35.78,65.82,4.61,50.0,,,,,,1202.0,,,,10.0,,KIGQ 040135Z AUTO 05004KT 10SM SCT120 08/02 A3015 RMK AO2  T00790021,,,,,,35.3,,NE,29.49,29.57,,Partly Cloudy
KIGQ,05/04/2017 01:55 UTC,30.15,45.86,36.5,70.68,5.75,60.0,,,,,,1202.0,,,,10.0,,KIGQ 040155Z AUTO 06005KT 10SM SCT120 08/03 A3015 RMK AO2  T00770025,,,,,,36.77,,ENE,29.49,29.54,,Partly Cloudy
KIGQ,05/04/2017 02:15 UTC,30.15,45.86,35.96,65.82,4.61,50.0,,,,,,1202.0,,,,10.0,,KIGQ 040215Z AUTO 05004KT 10SM SCT120 08/02 A3015 RMK AO2  T00770022,,,,,,34.96,,NE,29.49,29.58,,Partly Cloudy
KIGQ,05/04/2017 02:35 UTC,30.15,45.86,35.96,65.82,5.75,60.0,,,,,,1203.0,,,,10.0,,KIGQ 040235Z AUTO 06005KT 10SM BKN120 08/02 A3015 RMK AO2  T00770022,,,12000.0,,,34.96,,ENE,29.49,29.58,,Mostly Cloudy
KIGQ,05/04/2017 02:55 UTC,30.13,46.04,36.14,65.82,3.44,60.0,,,,,,1104.0,,,,10.0,,KIGQ 040255Z AUTO 06003KT 10SM OVC110 08/02 A3013 RMK AO2  T00780023,,,11000.0,,,35.13,,ENE,29.47,29.55,,Overcast
KIGQ,05/04/2017 03:15 UTC,30.12,45.68,36.5,70.68,5.75,40.0,,,,,,1104.0,,,,10.0,,KIGQ 040315Z AUTO 04005KT 10SM OVC110 08/03 A3012 RMK AO2  T00760025,,,11000.0,,,36.6,,NE,29.47,29.53,,Overcast
KIGQ,05/04/2017 03:35 UTC,30.11,45.68,37.04,70.68,5.75,40.0,,,,,,1104.0,,,,10.0,,KIGQ 040335Z AUTO 04005KT 10SM OVC110 08/03 A3011 RMK AO2  T00760028,,,11000.0,,,36.6,,NE,29.46,29.52,,Overcast
KIGQ,05/04/2017 03:55 UTC,30.1,45.86,37.4,70.68,6.91,40.0,,,,,,1102.0,,,,10.0,,KIGQ 040355Z AUTO 04006KT 10SM SCT110 08/03 A3010 RMK AO2  T00770030,,,,,,36.77,,NE,29.45,29.5,,Partly Cloudy
KIGQ,05/04/2017 04:15 UTC,30.09,45.86,36.5,70.68,5.75,50.0,,,,,,1002.0,,,,10.0,,KIGQ 040415Z AUTO 05005KT 10SM SCT100 08/03 A3009 RMK AO2  T00770025,,,,,,36.77,,NE,29.44,29.49,,Partly Cloudy
KIGQ,05/04/2017 04:35 UTC,30.08,45.5,36.68,70.68,5.75,50.0,,,,,,1002.0,1202.0,,,10.0,,KIGQ 040435Z AUTO 05005KT 10SM SCT100 SCT120 08/03 A3008 RMK AO2  T00750026,,,,,,36.43,,NE,29.43,29.49,,Partly Cloudy
KIGQ,05/04/2017 04:55 UTC,30.07,45.5,38.12,70.68,4.61,50.0,,,,,,952.0,1203.0,,,10.0,,KIGQ 040455Z AUTO 05004KT 10SM SCT095 BKN120 08/03 A3007 RMK AO2  T00750034,,,12000.0,,,36.43,,NE,29.42,29.48,,Mostly Cloudy
KIGQ,05/04/2017 05:15 UTC,30.07,45.68,39.56,75.84,3.44,20.0,,,,,,952.0,1202.0,,,10.0,,KIGQ 040515Z AUTO 02003KT 10SM SCT095 SCT120 08/04 A3007 RMK AO2  T00760042,,,,,,38.41,,NNE,29.42,29.44,,Partly Cloudy
KIGQ,05/04/2017 05:35 UTC,30.07,45.86,41.0,81.34,3.44,10.0,,,,,,1104.0,,,,10.0,,KIGQ 040535Z AUTO 01003KT 10SM OVC110 08/05 A3007 RMK AO2  T00770050,,,11000.0,,,40.4,,N,29.42,29.39,,Overcast
KIGQ,05/04/2017 05:55 UTC,30.06,46.4,42.8,87.19,3.44,20.0,,,,,,904.0,,,,10.0,,KIGQ 040555Z AUTO 02003KT 10SM OVC090 08/06 A3006,,,9000.0,,,42.75,,NNE,29.41,29.32,,Overcast
KIGQ,05/04/2017 06:15 UTC,30.06,46.58,43.52,87.19,4.61,20.0,,,,,,904.0,,,,10.0,,KIGQ 040615Z AUTO 02004KT 10SM OVC090 08/06 A3006 RMK AO2  T00810064,,,9000.0,,,42.93,,NNE,29.41,29.31,,Overcast
KIGQ,05/04/2017 06:35 UTC,30.06,46.58,43.7,93.4,3.44,20.0,,,,,,703.0,904.0,,,10.0,,KIGQ 040635Z AUTO 02003KT 10SM BKN070 OVC090 08/07 A3006 RMK AO2  T00810065,,,7000.0,,,44.76,,NNE,29.41,29.26,,Overcast
KIGQ,05/04/2017 06:55 UTC,30.05,46.58,43.7,93.4,3.44,360.0,,,,,,704.0,,,,10.0,,KIGQ 040655Z AUTO 36003KT 10SM OVC070 08/07 A3005 RMK AO2  T00810065,,,7000.0,,,44.76,,N,29.4,29.25,,Overcast
KIGQ,05/04/2017 07:15 UTC,30.05,46.58,43.88,93.4,3.44,10.0,,13.0,704.0,,,422.0,552.0,,,10.0,,KIGQ 040715Z AUTO 01003KT 10SM -RA SCT042 SCT055 OVC070 08/07  A3005 RMK AO2 T00810066,,,7000.0,,,44.76,,N,29.4,29.25,,Light Rain
KIGQ,05/04/2017 07:35 UTC,30.04,46.4,43.7,93.4,4.61,20.0,,13.0,,,,503.0,704.0,,,10.0,,KIGQ 040735Z AUTO 02004KT 10SM -RA BKN050 OVC070 08/07 A3004 RMK AO2 T00800065,,,5000.0,,,44.58,,NNE,29.39,29.25,,Light Rain
KIGQ,05/04/2017 07:55 UTC,30.04,46.4,43.88,93.4,4.61,10.0,,13.0,,,,423.0,504.0,,,10.0,,KIGQ 040755Z AUTO 01004KT 10SM -RA BKN042 OVC050 08/07 A3004 RMK AO2 T00800066,,,4200.0,,,44.58,,N,29.39,29.25,,Light Rain
KIGQ,05/04/2017 08:15 UTC,30.02,46.04,44.24,93.4,5.75,20.0,,13.0,,,,424.0,,,,10.0,,KIGQ 040815Z AUTO 02005KT 10SM -RA OVC042 08/07 A3002 RMK AO2  T00780068,,,4200.0,,,44.22,,NNE,29.37,29.24,,Light Rain
KIGQ,05/04/2017 08:35 UTC,30.03,45.86,44.6,93.4,5.75,20.0,,13.0,,,,362.0,454.0,,,10.0,,KIGQ 040835Z AUTO 02005KT 10SM -RA SCT036 OVC045 08/07 A3003 RMK AO2 T00770070,,,4500.0,,,44.04,,NNE,29.38,29.26,,Light Rain
KIGQ,05/04/2017 08:55 UTC,30.01,45.5,44.42,93.4,6.91,20.0,,13.0,,,,402.0,474.0,,,10.0,,KIGQ 040855Z AUTO 02006KT 10SM -RA SCT040 OVC047 08/07 A3001 RMK AO2 T00750069,,,4700.0,,,43.68,,NNE,29.36,29.25,,Light Rain
KIGQ,05/04/2017 09:15 UTC,30.01,45.5,44.6,93.4,4.61,10.0,,13.0,,,,402.0,474.0,,,10.0,,KIGQ 040915Z AUTO 01004KT 10SM -RA SCT040 OVC047 08/07 A3001 RMK AO2 T00750070,,,4700.0,,,43.68,,N,29.36,29.25,,Light Rain
KIGQ,05/04/2017 09:35 UTC,30.0,45.68,44.78,93.4,6.91,40.0,,13.0,,,,392.0,474.0,,,10.0,,KIGQ 040935Z AUTO 04006KT 10SM -RA SCT039 OVC047 08/07 A3000 RMK AO2 T00760071,,,4700.0,,,43.86,,NE,29.35,29.23,,Light Rain
KIGQ,05/04/2017 09:55 UTC,30.01,46.4,45.14,93.4,6.91,50.0,,1.0,,,,392.0,474.0,,,10.0,,KIGQ 040955Z AUTO 05006KT 10SM RA SCT039 OVC047 08/07 A3001 RMK AO2 T00800073,,,4700.0,,,44.58,,NE,29.36,29.22,,Rain
KIGQ,05/04/2017 10:15 UTC,30.01,46.94,45.32,93.4,8.05,70.0,,13.0,,,,373.0,494.0,,,10.0,,KIGQ 041015Z AUTO 07007KT 10SM -RA BKN037 OVC049 08/07 A3001 RMK AO2 T00830074,,,3700.0,,,45.11,,ENE,29.36,29.2,,Light Rain
KIGQ,05/04/2017 10:35 UTC,30.01,46.58,45.14,93.4,9.22,80.0,,13.0,554.0,,,372.0,472.0,,,10.0,,KIGQ 041035Z AUTO 08008KT 10SM -RA SCT037 SCT047 OVC055 08/07  A3001 RMK AO2 T00810073,,,5500.0,,,44.76,,E,29.36,29.21,,Light Rain
KIGQ,05/04/2017 10:55 UTC,30.01,46.4,44.6,93.4,10.36,80.0,,13.0,,,,473.0,554.0,,,10.0,,KIGQ 041055Z AUTO 08009KT 10SM -RA BKN047 OVC055 08/07 A3001 RMK AO2 T00800070,,,4700.0,,,44.58,,E,29.36,29.22,,Light Rain
KIGQ,05/04/2017 11:15 UTC,30.02,45.86,44.24,93.4,10.36,80.0,17.27,1.0,,,,504.0,,,,10.0,,KIGQ 041115Z AUTO 08009G15KT 10SM RA OVC050 08/07 A3002 RMK AO2  T00770068,,,5000.0,,,44.04,,E,29.37,29.25,,Rain
KIGQ,05/04/2017 11:35 UTC,30.02,45.68,44.06,93.4,10.36,80.0,,13.0,,,,504.0,,,,10.0,,KIGQ 041135Z AUTO 08009KT 10SM -RA OVC050 08/07 A3002 RMK AO2  T00760067,,,5000.0,,,43.86,,E,29.37,29.25,,Light Rain
KIGQ,05/04/2017 11:55 UTC,30.02,45.5,43.88,93.4,9.22,80.0,16.11,13.0,,,,504.0,,,,10.0,,KIGQ 041155Z AUTO 08008G14KT 10SM -RA OVC050 08/07 A3002 RMK AO2  T00750066 10083 20075,46.94,45.5,5000.0,,,43.68,,E,29.37,29.26,,Light Rain
KIGQ,05/04/2017 12:15 UTC,30.02,45.5,43.7,93.4,11.5,80.0,16.11,13.0,,0.01,,604.0,,,,10.0,,KIGQ 041215Z AUTO 08010G14KT 10SM -RA OVC060 08/07 A3002 RMK AO2  P0001 T00750065,,,6000.0,,,43.68,,E,29.37,29.26,,Light Rain
KIGQ,05/04/2017 12:35 UTC,30.02,45.32,43.7,100.0,11.5,80.0,17.27,13.0,,0.01,,422.0,604.0,,,10.0,,KIGQ 041235Z AUTO 08010G15KT 10SM -RA SCT042 OVC060 07/07  A3002 RMK AO2 P0001 T00740065,,,6000.0,,,45.32,,E,29.37,29.22,,Light Rain
KIGQ,05/04/2017 12:55 UTC,30.01,45.14,43.7,100.0,12.66,70.0,18.41,13.0,,0.01,,422.0,604.0,,,10.0,,KIGQ 041255Z AUTO 07011G16KT 10SM -RA SCT042 OVC060 07/07  A3001 RMK AO2 P0001 T00730065,,,6000.0,,,45.14,,ENE,29.36,29.22,,Light Rain
KIGQ,05/04/2017 13:15 UTC,29.99,44.96,43.52,93.35,13.8,70.0,19.57,13.0,,,,604.0,,,,10.0,,KIGQ 041315Z AUTO 07012G17KT 10SM -RA OVC060 07/06 A2999 RMK AO2  T00720064,,,6000.0,,,43.13,40.37,ENE,29.34,29.25,,Light Rain
KIGQ,05/04/2017 13:35 UTC,29.98,44.78,43.16,93.35,12.66,80.0,18.41,13.0,,,,704.0,,,,10.0,,KIGQ 041335Z AUTO 08011G16KT 10SM -RA OVC070 07/06 A2998 RMK AO2  T00710062,,,7000.0,,,42.95,40.47,E,29.33,29.25,,Light Rain
KIGQ,05/04/2017 13:55 UTC,29.97,44.78,43.16,93.35,10.36,70.0,18.41,13.0,,,,704.0,,,,10.0,,KIGQ 041355Z AUTO 07009G16KT 10SM -RA OVC070 07/06 A2997 RMK AO2  T00710062,,,7000.0,,,42.95,41.2,ENE,29.32,29.24,,Light Rain
KIGQ,05/04/2017 14:15 UTC,29.95,44.78,42.98,93.35,9.22,60.0,17.27,13.0,,,,704.0,,,,10.0,,KIGQ 041415Z AUTO 06008G15KT 10SM -RA OVC070 07/06 A2995 RMK AO2  T00710061,,,7000.0,,,42.95,41.62,ENE,29.3,29.22,,Light Rain
KIGQ,05/04/2017 14:35 UTC,29.95,44.78,43.16,93.35,10.36,60.0,17.27,13.0,,,,704.0,,,,10.0,,KIGQ 041435Z AUTO 06009G15KT 10SM -RA OVC070 07/06 A2995 RMK AO2  T00710062,,,7000.0,,,42.95,41.2,ENE,29.3,29.22,,Light Rain
KIGQ,05/04/2017 14:55 UTC,29.95,44.78,42.8,93.35,14.97,60.0,23.02,13.0,804.0,,0.01,393.0,703.0,,,10.0,,KIGQ 041455Z AUTO 06013G20KT 10SM -RA BKN039 BKN070 OVC080 07/06  A2995 RMK AO2 60001 T00710060,,,3900.0,,,42.95,39.84,ENE,29.3,29.22,,Light Rain
KIGQ,05/04/2017 15:20 UTC,29.96,44.78,42.98,93.35,14.97,50.0,19.57,13.0,,,,142.0,394.0,,,10.0,,KIGQ 041520Z AUTO 05013G17KT 10SM -RA SCT014 OVC039 07/06  A2996 RMK AO2 T00710061,,,3900.0,,,42.95,39.84,NE,29.31,29.23,,Light Rain
KIGQ,05/04/2017 15:35 UTC,29.95,44.96,43.16,93.35,10.36,50.0,19.57,13.0,554.0,,,142.0,393.0,,,10.0,,KIGQ 041535Z AUTO 05009G17KT 10SM -RA SCT014 BKN039 OVC055 07/06  A2995 RMK AO2 T00720062,,,3900.0,,,43.13,41.42,NE,29.3,29.21,,Light Rain
KIGQ,05/04/2017 15:55 UTC,29.94,45.14,43.52,93.35,16.11,60.0,24.16,13.0,554.0,0.01,,132.0,382.0,,,10.0,,KIGQ 041555Z AUTO 06014G21KT 10SM -RA SCT013 SCT038 OVC055 07/06  A2994 RMK AO2 P0001 T00730064,,,5500.0,,,43.31,,ENE,29.29,29.19,,Light Rain
KIGQ,05/04/2017 16:15 UTC,29.94,45.32,44.24,100.0,13.8,50.0,19.57,13.0,,,,134.0,,,,10.0,,KIGQ 041615Z AUTO 05012G17KT 020V080 10SM -RA OVC013 07/07  A2994 RMK AO2 T00740068,,,1300.0,,,45.32,,NE,29.29,29.14,,Light Rain
KIGQ,05/04/2017 16:35 UTC,29.94,45.5,44.06,93.4,14.97,60.0,26.46,13.0,554.0,0.01,,133.0,333.0,,,10.0,,KIGQ 041635Z AUTO 06013G23KT 10SM -RA BKN013 BKN033 OVC055 08/07  A2994 RMK AO2 P0001 T00750067,,,1300.0,,,43.68,,ENE,29.29,29.18,,Light Rain
KIGQ,05/04/2017 16:55 UTC,29.94,45.5,43.88,93.4,13.8,50.0,21.85,13.0,554.0,0.01,,133.0,223.0,,,10.0,,KIGQ 041655Z AUTO 05012G19KT 10SM -RA BKN013 BKN022 OVC055 08/07  A2994 RMK AO2 P0001 T00750066,,,1300.0,,,43.68,,NE,29.29,29.18,,Light Rain
KIGQ,05/04/2017 17:15 UTC,29.94,45.5,43.52,87.19,17.27,40.0,24.16,17.0,,,,134.0,,,,10.0,,KIGQ 041715Z AUTO 04015G21KT 10SM -DZ OVC013 08/06 A2994 RMK AO2  T00750064,,,1300.0,,,41.87,,NE,29.29,29.23,,Light Drizzle
KIGQ,05/04/2017 17:35 UTC,29.94,45.32,42.8,93.35,16.11,60.0,26.46,17.0,,,,134.0,,,,10.0,,KIGQ 041735Z AUTO 06014G23KT 10SM -DZ OVC013 07/06 A2994 RMK AO2  T00740060,,,1300.0,,,43.49,,ENE,29.29,29.19,,Light Drizzle
KIGQ,05/04/2017 17:55 UTC,29.94,45.5,42.62,87.19,21.85,50.0,25.32,17.0,,,,154.0,,0.03,,10.0,,KIGQ 041755Z AUTO 05019G22KT 10SM -DZ OVC015 08/06 A2994 RMK AO2  60003 T00750059 10075 20070,45.5,44.6,1500.0,,,41.87,,NE,29.29,29.23,,Light Drizzle
KIGQ,05/04/2017 18:15 UTC,29.93,45.5,42.26,87.19,18.41,50.0,27.63,17.0,,,,154.0,,,,10.0,,KIGQ 041815Z AUTO 05016G24KT 10SM -DZ OVC015 08/06 A2993 RMK AO2  T00750057,,,1500.0,,,41.87,,NE,29.28,29.22,,Light Drizzle
KIGQ,05/04/2017 18:35 UTC,29.92,45.68,42.08,87.19,17.27,50.0,26.46,,,,,154.0,,,,10.0,,KIGQ 041835Z AUTO 05015G23KT 10SM OVC015 08/06 A2992 RMK AO2  T00760056,,,1500.0,,,42.05,,NE,29.27,29.2,,Overcast
KIGQ,05/04/2017 18:55 UTC,29.92,45.68,41.72,81.34,16.11,60.0,28.77,,,,,154.0,,,,10.0,,KIGQ 041855Z AUTO 06014G25KT 10SM OVC015 08/05 A2992 RMK AO2  T00760054,,,1500.0,,,40.23,,ENE,29.27,29.24,,Overcast
KIGQ,05/04/2017 19:15 UTC,29.92,45.68,41.36,81.34,17.27,50.0,31.07,,,,,174.0,,,,10.0,,KIGQ 041915Z AUTO 05015G27KT 10SM OVC017 08/05 A2992 RMK AO2  T00760052,,,1700.0,,,40.23,,NE,29.27,29.24,,Overcast
KIGQ,05/04/2017 19:35 UTC,29.91,45.86,41.72,81.34,19.57,40.0,28.77,,,,,174.0,,,,10.0,,KIGQ 041935Z AUTO 04017G25KT 10SM OVC017 08/05 A2991 RMK AO2  T00770054,,,1700.0,,,40.4,,NE,29.26,29.23,,Overcast
KIGQ,05/04/2017 19:55 UTC,29.91,47.3,42.62,81.48,18.41,30.0,25.32,,284.0,,,172.0,213.0,,,10.0,,KIGQ 041955Z AUTO 03016G22KT 10SM SCT017 BKN021 OVC028 09/06  A2991 RMK AO2 T00850059,,,2100.0,,,41.86,,NNE,29.26,29.18,,Overcast
KIGQ,05/04/2017 20:15 UTC,29.91,48.74,42.98,81.48,19.57,40.0,26.46,,303.0,,,172.0,212.0,,,10.0,,KIGQ 042015Z AUTO 04017G23KT 10SM SCT017 SCT021 BKN030 09/06  A2991 RMK AO2 T00930061,,,3000.0,,,43.26,,NE,29.26,29.13,,Mostly Cloudy
KIGQ,05/04/2017 20:35 UTC,29.9,48.92,42.8,81.48,16.11,30.0,26.46,,303.0,,,193.0,263.0,,,10.0,,KIGQ 042035Z AUTO 03014G23KT 10SM BKN019 BKN026 BKN030 09/06  A2990 RMK AO2 T00940060,,,1900.0,,,43.44,,NNE,29.25,29.11,,Mostly Cloudy
KIGQ,05/04/2017 20:55 UTC,29.9,48.38,41.9,81.48,19.57,30.0,27.63,,,,,193.0,273.0,,,10.0,,KIGQ 042055Z AUTO 03017G24KT 10SM BKN019 BKN027 09/06 A2990 RMK AO2 T00910055,,,1900.0,,,42.91,,NNE,29.25,29.13,,Mostly Cloudy
KIGQ,05/04/2017 21:15 UTC,29.9,48.02,41.9,81.48,18.41,50.0,26.46,,1202.0,,,212.0,272.0,,,10.0,,KIGQ 042115Z AUTO 05016G23KT 10SM SCT021 SCT027 SCT120 09/06  A2990 RMK AO2 T00890055,,,,,,42.56,,NE,29.25,29.15,,Partly Cloudy
KIGQ,05/04/2017 21:35 UTC,29.91,47.48,41.72,76.02,20.71,30.0,27.63,,,,,192.0,1202.0,,,10.0,,KIGQ 042135Z AUTO 03018G24KT 10SM SCT019 SCT120 09/05 A2991 RMK AO2 T00860054,,,,,,40.22,,NNE,29.26,29.22,,Partly Cloudy
KIGQ,05/04/2017 21:55 UTC,29.91,48.2,41.9,81.48,16.11,40.0,25.32,,,,,192.0,,,,10.0,,KIGQ 042155Z AUTO 04014G22KT 10SM SCT019 09/06 A2991 RMK AO2  T00900055,,,,,,42.74,,NE,29.26,29.15,,Partly Cloudy
KIGQ,05/04/2017 22:15 UTC,29.91,46.94,41.0,81.34,19.57,40.0,27.63,,,,,212.0,1202.0,,,10.0,,KIGQ 042215Z AUTO 04017G24KT 10SM SCT021 SCT120 08/05 A2991 RMK AO2 T00830050,,,,,,41.46,,NE,29.26,29.19,,Partly Cloudy
KIGQ,05/04/2017 22:35 UTC,29.91,46.58,41.0,81.34,21.85,40.0,,,,,,213.0,,,,10.0,,KIGQ 042235Z AUTO 04019KT 10SM BKN021 08/05 A2991 RMK AO2  T00810050,,,2100.0,,,41.11,,NE,29.26,29.2,,Mostly Cloudy
KIGQ,05/04/2017 22:55 UTC,29.91,46.4,41.0,81.34,16.11,40.0,25.32,,,,,212.0,,,,10.0,,KIGQ 042255Z AUTO 04014G22KT 10SM SCT021 08/05 A2991 RMK AO2  T00800050,,,,,,40.93,,NE,29.26,29.21,,Partly Cloudy
KIGQ,05/04/2017 23:15 UTC,29.91,46.58,41.18,81.34,13.8,30.0,20.71,,,,,1202.0,,,,10.0,,KIGQ 042315Z AUTO 03012G18KT 10SM SCT120 08/05 A2991 RMK AO2  T00810051,,,,,,41.11,,NNE,29.26,29.2,,Partly Cloudy
KIGQ,05/04/2017 23:35 UTC,29.9,46.4,41.36,81.34,13.8,40.0,25.32,,,,,1204.0,,,,10.0,,KIGQ 042335Z AUTO 04012G22KT 10SM OVC120 08/05 A2990 RMK AO2  T00800052,,,12000.0,,,40.93,,NE,29.25,29.2,,Overcast
KIGQ,05/05/2017 00:00 UTC,29.89,46.4,41.0,81.34,17.27,40.0,21.85,,,,,1202.0,,,,10.0,,KIGQ 050000Z AUTO 04015G19KT 10SM SCT120 08/05 A2989 RMK AO2  T00800050,,,,,,40.93,,NE,29.24,29.19,,Partly Cloudy
KIGQ,05/05/2017 00:15 UTC,29.9,46.22,41.36,81.34,10.36,20.0,18.41,,,,,1.0,,,,10.0,,KIGQ 050015Z AUTO 02009G16KT 10SM CLR 08/05 A2990 RMK AO2  T00790052,,,,,,40.76,,NNE,29.25,29.21,,Clear
KIGQ,05/05/2017 00:35 UTC,29.9,46.22,41.54,81.34,10.36,30.0,,,,,,1.0,,,,10.0,,KIGQ 050035Z AUTO 03009KT 10SM CLR 08/05 A2990 RMK AO2  T00790053,,,,,,40.76,,NNE,29.25,29.21,,Clear
KIGQ,05/05/2017 00:55 UTC,29.9,46.58,41.18,81.34,9.22,30.0,21.85,,,,,1.0,,,,10.0,,KIGQ 050055Z AUTO 03008G19KT 10SM CLR 08/05 A2990 RMK AO2  T00810051,,,,,,41.11,,NNE,29.25,29.19,,Clear
KIGQ,05/05/2017 01:15 UTC,29.91,46.4,41.18,81.34,8.05,20.0,17.27,,,,,1.0,,,,10.0,,KIGQ 050115Z AUTO 02007G15KT 10SM CLR 08/05 A2991 RMK AO2  T00800051,,,,,,40.93,,NNE,29.26,29.21,,Clear
KIGQ,05/05/2017 01:35 UTC,29.9,46.4,41.0,81.34,14.97,20.0,20.71,,,,,1.0,,,,10.0,,KIGQ 050135Z AUTO 02013G18KT 10SM CLR 08/05 A2990 RMK AO2  T00800050,,,,,,40.93,,NNE,29.25,29.2,,Clear
KIGQ,05/05/2017 01:55 UTC,29.9,45.86,41.0,81.34,11.5,20.0,17.27,,,,,1.0,,,,10.0,,KIGQ 050155Z AUTO 02010G15KT 10SM CLR 08/05 A2990 RMK AO2  T00770050,,,,,,40.4,,NNE,29.25,29.22,,Clear
KIGQ,05/05/2017 02:15 UTC,29.91,46.4,40.46,81.34,8.05,20.0,,,,,,1.0,,,,10.0,,KIGQ 050215Z AUTO 02007KT 10SM CLR 08/05 A2991 RMK AO2  T00800047,,,,,,40.93,,NNE,29.26,29.21,,Clear
KIGQ,05/05/2017 02:35 UTC,29.91,46.4,40.28,81.34,10.36,20.0,17.27,,,,,1.0,,,,10.0,,KIGQ 050235Z AUTO 02009G15KT 10SM CLR 08/05 A2991 RMK AO2  T00800046,,,,,,40.93,,NNE,29.26,29.21,,Clear
KIGQ,05/05/2017 02:55 UTC,29.91,46.94,39.92,75.84,13.8,30.0,18.41,,,,,1.0,,,,10.0,,KIGQ 050255Z AUTO 03012G16KT 10SM CLR 08/04 A2991 RMK AO2  T00830044,,,,,,39.63,,NNE,29.26,29.24,,Clear
KIGQ,05/05/2017 03:15 UTC,29.91,46.4,40.1,81.34,8.05,30.0,,,,,,1.0,,,,10.0,,KIGQ 050315Z AUTO 03007KT 10SM CLR 08/05 A2991 RMK AO2  T00800045,,,,,,40.93,,NNE,29.26,29.21,,Clear
KIGQ,05/05/2017 03:35 UTC,29.89,46.4,40.1,81.34,11.5,40.0,17.27,,,,,1.0,,,,10.0,,KIGQ 050335Z AUTO 04010G15KT 10SM CLR 08/05 A2989 RMK AO2  T00800045,,,,,,40.93,,NE,29.24,29.19,,Clear
KIGQ,05/05/2017 03:55 UTC,29.88,46.58,39.38,75.84,11.5,30.0,,,,,,1.0,,,,10.0,,KIGQ 050355Z AUTO 03010KT 10SM CLR 08/04 A2988 RMK AO2  T00810041,,,,,,39.28,,NNE,29.23,29.22,,Clear
KIGQ,05/05/2017 04:15 UTC,29.88,46.76,38.66,75.84,9.22,30.0,18.41,,,,,1.0,,,,10.0,,KIGQ 050415Z AUTO 03008G16KT 10SM CLR 08/04 A2988 RMK AO2  T00820037,,,,,,39.46,,NNE,29.23,29.21,,Clear
KIGQ,05/05/2017 04:35 UTC,29.87,46.22,38.48,75.84,12.66,20.0,18.41,,,,,1.0,,,,10.0,,KIGQ 050435Z AUTO 02011G16KT 10SM CLR 08/04 A2987 RMK AO2  T00790036,,,,,,38.94,,NNE,29.22,29.22,,Clear
KIGQ,05/05/2017 04:55 UTC,29.86,45.68,38.3,75.84,9.22,20.0,,,,,,1.0,,,,10.0,,KIGQ 050455Z AUTO 02008KT 10SM CLR 08/04 A2986 RMK AO2  T00760035,,,,,,38.41,,NNE,29.21,29.22,,Clear
KIGQ,05/05/2017 05:15 UTC,29.85,45.86,39.2,75.84,12.66,20.0,16.11,,,,,1.0,,,,10.0,,KIGQ 050515Z AUTO 02011G14KT 10SM CLR 08/04 A2985 RMK AO2  T00770040,,,,,,38.59,,NNE,29.2,29.21,,Clear
KIGQ,05/05/2017 05:35 UTC,29.86,46.4,39.38,75.84,12.66,30.0,18.41,,,,,1.0,,,,10.0,,KIGQ 050535Z AUTO 03011G16KT 10SM CLR 08/04 A2986 RMK AO2  T00800041,,,,,,39.11,,NNE,29.21,29.2,,Clear
KIGQ,05/05/2017 05:55 UTC,29.85,45.86,39.56,75.84,13.8,40.0,18.41,,,,,1.0,,,,10.0,,KIGQ 050555Z AUTO 04012G16KT 10SM CLR 08/04 A2985 RMK AO2  T00770042 10083 20075 400950070,46.94,45.5,,49.1,44.6,38.59,,NE,29.2,29.21,,Clear
KIGQ,05/05/2017 06:15 UTC,29.84,45.68,39.56,75.84,10.36,40.0,17.27,,,,,1.0,,,,10.0,,KIGQ 050615Z AUTO 04009G15KT 10SM CLR 08/04 A2984 RMK AO2  T00760042,,,,,,38.41,,NE,29.19,29.2,,Clear
KIGQ,05/05/2017 06:35 UTC,29.83,44.96,39.74,81.2,13.8,40.0,20.71,,,,,1.0,,,,10.0,,KIGQ 050635Z AUTO 04012G18KT 10SM CLR 07/04 A2983 RMK AO2  T00720043,,,,,,39.48,40.37,NE,29.18,29.17,,Clear
KIGQ,05/05/2017 06:55 UTC,29.83,44.96,40.1,87.09,10.36,10.0,20.71,,,,,1.0,,,,10.0,,KIGQ 050655Z AUTO 01009G18KT 10SM CLR 07/05 A2983 RMK AO2  T00720045,,,,,,41.31,41.42,N,29.18,29.13,,Clear
KIGQ,05/05/2017 07:15 UTC,29.83,44.24,40.28,87.09,10.36,20.0,17.27,,,,,1.0,,,,10.0,,KIGQ 050715Z AUTO 02009G15KT 10SM CLR 07/05 A2983 RMK AO2  T00680046,,,,,,40.6,40.56,NNE,29.18,29.15,,Clear
KIGQ,05/05/2017 07:35 UTC,29.83,44.06,40.28,87.09,11.5,20.0,20.71,,,,,1.0,,,,10.0,,KIGQ 050735Z AUTO 02010G18KT 10SM CLR 07/05 A2983 RMK AO2  T00670046,,,,,,40.42,39.96,NNE,29.18,29.16,,Clear
KIGQ,05/05/2017 07:55 UTC,29.82,44.06,40.1,87.09,12.66,20.0,19.57,,,,,1.0,,,,10.0,,KIGQ 050755Z AUTO 02011G17KT 10SM CLR 07/05 A2982 RMK AO2  T00670045,,,,,,40.42,39.6,NNE,29.17,29.15,,Clear
KIGQ,05/05/2017 08:15 UTC,29.82,44.06,40.1,87.09,14.97,20.0,23.02,,,,,1.0,,,,10.0,,KIGQ 050815Z AUTO 02013G20KT 10SM CLR 07/05 A2982 RMK AO2  T00670045,,,,,,40.42,38.96,NNE,29.17,29.15,,Clear
KIGQ,05/05/2017 08:35 UTC,29.82,44.06,40.1,87.09,14.97,30.0,24.16,,,,,1.0,,,,10.0,,KIGQ 050835Z AUTO 03013G21KT 10SM CLR 07/05 A2982 RMK AO2  T00670045,,,,,,40.42,38.96,NNE,29.17,29.15,,Clear
KIGQ,05/05/2017 08:55 UTC,29.82,43.7,40.28,87.09,13.8,10.0,20.71,,,,,1.0,,,,10.0,,KIGQ 050855Z AUTO 01012G18KT 10SM CLR 07/05 A2982 RMK AO2  T00650046,,,,,,40.07,38.83,N,29.17,29.16,,Clear
KIGQ,05/05/2017 09:15 UTC,29.81,43.52,40.46,93.3,14.97,360.0,20.71,,,,,1.0,,,,10.0,,KIGQ 050915Z AUTO 36013G18KT 10SM CLR 06/05 A2981 RMK AO2  T00640047,,,,,,41.69,38.29,N,29.16,29.11,,Clear
KIGQ,05/05/2017 09:35 UTC,29.81,43.52,40.1,93.3,13.8,10.0,24.16,,,,,1.0,,,,10.0,,KIGQ 050935Z AUTO 01012G21KT 10SM CLR 06/05 A2981 RMK AO2  T00640045,,,,,,41.69,38.61,N,29.16,29.11,,Clear
KIGQ,05/05/2017 09:55 UTC,29.81,43.88,40.1,87.09,17.27,10.0,26.46,,,,,1.0,,,,10.0,,KIGQ 050955Z AUTO 01015G23KT 10SM CLR 07/05 A2981 RMK AO2  T00660045,,,,,,40.24,38.17,N,29.16,29.15,,Clear
KIGQ,05/05/2017 10:15 UTC,29.8,43.7,39.74,81.2,16.11,10.0,25.32,,,,,1.0,,,,10.0,,KIGQ 051015Z AUTO 01014G22KT 10SM CLR 07/04 A2980 RMK AO2  T00650043,,,,,,38.25,38.23,N,29.15,29.18,,Clear
KIGQ,05/05/2017 10:35 UTC,29.8,43.88,39.56,81.2,14.97,20.0,21.85,,,,,1.0,,,,10.0,,KIGQ 051035Z AUTO 02013G19KT 10SM CLR 07/04 A2980 RMK AO2  T00660042,,,,,,38.42,38.74,NNE,29.15,29.18,,Clear
KIGQ,05/05/2017 10:55 UTC,29.81,43.7,39.56,81.2,12.66,10.0,23.02,,,,,1.0,,,,10.0,,KIGQ 051055Z AUTO 01011G20KT 10SM CLR 07/04 A2981 RMK AO2  T00650042,,,,,,38.25,39.16,N,29.16,29.19,,Clear
KIGQ,05/05/2017 11:15 UTC,29.81,43.7,39.74,81.2,12.66,10.0,18.41,,,,,1.0,,,,10.0,,KIGQ 051115Z AUTO 01011G16KT 10SM CLR 07/04 A2981 RMK AO2  T00650043,,,,,,38.25,39.16,N,29.16,29.19,,Clear
KIGQ,05/05/2017 11:35 UTC,29.81,43.7,40.46,87.09,17.27,10.0,26.46,,,,,132.0,,,,10.0,,KIGQ 051135Z AUTO 01015G23KT 10SM SCT013 07/05 A2981 RMK AO2  T00650047,,,,,,40.07,37.95,N,29.16,29.15,,Partly Cloudy
KIGQ,05/05/2017 11:55 UTC,29.81,42.62,40.46,93.3,16.11,10.0,26.46,,,,,93.0,133.0,,0.03,10.0,,KIGQ 051155Z AUTO 01014G23KT 10SM BKN009 BKN013 06/05 A2981 RMK AO2 70003 T00590047 10077 20059,45.86,42.62,900.0,,,40.8,36.89,N,29.16,29.14,,Mostly Cloudy
KIGQ,05/05/2017 12:15 UTC,29.81,41.9,40.1,93.3,16.11,360.0,26.46,,,,,93.0,133.0,,,10.0,,KIGQ 051215Z AUTO 36014G23KT 330V030 10SM BKN009 BKN013 06/05  A2981 RMK AO2 T00550045,,,900.0,,,40.08,35.99,N,29.16,29.17,,Mostly Cloudy
KIGQ,05/05/2017 12:35 UTC,29.82,42.08,40.28,93.3,14.97,360.0,27.63,,,,,93.0,,,,10.0,,KIGQ 051235Z AUTO 36013G24KT 10SM BKN009 06/05 A2982 RMK AO2  T00560046,,,900.0,,,40.26,36.52,N,29.17,29.17,,Mostly Cloudy
KIGQ,05/05/2017 12:55 UTC,29.82,42.8,40.28,93.3,18.41,360.0,25.32,,,,,94.0,,,,10.0,,KIGQ 051255Z AUTO 36016G22KT 10SM OVC009 06/05 A2982 RMK AO2  T00600046,,,900.0,,,40.98,36.57,N,29.17,29.15,,Overcast
KIGQ,05/05/2017 13:15 UTC,29.82,42.8,40.82,93.3,9.22,10.0,29.93,,,,,94.0,,,,10.0,,KIGQ 051315Z AUTO 01008G26KT 10SM OVC009 06/05 A2982 RMK AO2  T00600049,,,900.0,,,40.98,39.27,N,29.17,29.15,,Overcast
KIGQ,05/05/2017 13:35 UTC,29.82,43.52,41.0,93.3,19.57,20.0,27.63,,,,,94.0,,,,10.0,,KIGQ 051335Z AUTO 02017G24KT 10SM OVC009 06/05 A2982 RMK AO2  T00640050,,,900.0,,,41.69,37.22,NNE,29.17,29.12,,Overcast
KIGQ,05/05/2017 13:55 UTC,29.83,43.16,41.0,93.3,13.8,20.0,26.46,,,,,94.0,,,,10.0,,KIGQ 051355Z AUTO 02012G23KT 10SM OVC009 06/05 A2983 RMK AO2  T00620050,,,900.0,,,41.33,38.17,NNE,29.18,29.15,,Overcast
KIGQ,05/05/2017 14:15 UTC,29.82,43.16,41.0,93.3,20.71,20.0,27.63,,,,,94.0,,,,10.0,,KIGQ 051415Z AUTO 02018G24KT 10SM OVC009 06/05 A2982 RMK AO2  T00620050,,,900.0,,,41.33,36.53,NNE,29.17,29.14,,Overcast
KIGQ,05/05/2017 14:35 UTC,29.82,42.44,40.46,93.3,19.57,20.0,29.93,,,,,74.0,,,,10.0,,KIGQ 051435Z AUTO 02017G26KT 10SM OVC007 06/05 A2982 RMK AO2  T00580047,,,700.0,,,40.62,35.86,NNE,29.17,29.16,,Overcast
KIGQ,05/05/2017 14:55 UTC,29.83,42.08,40.28,93.3,14.97,20.0,24.16,,,,,74.0,,,,10.0,,KIGQ 051455Z AUTO 02013G21KT 10SM OVC007 06/05 A2983 RMK AO2  T00560046,,,700.0,,,40.26,36.52,NNE,29.18,29.18,,Overcast
KIGQ,05/05/2017 15:15 UTC,29.83,42.8,40.46,93.3,18.41,10.0,25.32,,,,,74.0,,,,10.0,,KIGQ 051515Z AUTO 01016G22KT 10SM OVC007 06/05 A2983 RMK AO2  T00600047,,,700.0,,,40.98,36.57,N,29.18,29.16,,Overcast
KIGQ,05/05/2017 15:35 UTC,29.83,43.52,41.0,93.3,12.66,360.0,21.85,,,,,74.0,,,,10.0,,KIGQ 051535Z AUTO 36011G19KT 10SM OVC007 06/05 A2983 RMK AO2  T00640050,,,700.0,,,41.69,38.94,N,29.18,29.14,,Overcast
KIGQ,05/05/2017 15:55 UTC,29.82,45.14,41.9,93.35,12.66,360.0,27.63,,,,,74.0,,,,10.0,,KIGQ 051555Z AUTO 36011G24KT 10SM OVC007 07/06 A2982 RMK AO2  T00730055,,,700.0,,,43.31,,N,29.17,29.07,,Overcast
KIGQ,05/05/2017 16:15 UTC,29.83,44.96,41.54,87.09,14.97,360.0,26.46,,,,,94.0,,,,10.0,,KIGQ 051615Z AUTO 36013G23KT 330V030 10SM OVC009 07/05 A2983 RMK AO2 T00720053,,,900.0,,,41.31,40.07,N,29.18,29.13,,Overcast
KIGQ,05/05/2017 16:35 UTC,29.83,44.6,41.18,87.09,14.97,10.0,25.32,,,,,94.0,,,,10.0,,KIGQ 051635Z AUTO 01013G22KT 10SM OVC009 07/05 A2983 RMK AO2  T00700051,,,900.0,,,40.95,39.62,N,29.18,29.14,,Overcast
KIGQ,05/05/2017 16:55 UTC,29.84,44.6,41.0,87.09,11.5,360.0,27.63,,,,,94.0,,,,10.0,,KIGQ 051655Z AUTO 36010G24KT 10SM OVC009 07/05 A2984 RMK AO2  T00700050,,,900.0,,,40.95,40.61,N,29.19,29.15,,Overcast
KIGQ,05/05/2017 17:15 UTC,29.84,45.14,41.18,87.09,18.41,10.0,27.63,,,,,114.0,,,,10.0,,KIGQ 051715Z AUTO 01016G24KT 10SM OVC011 07/05 A2984 RMK AO2  T00730051,,,1100.0,,,41.48,,N,29.19,29.14,,Overcast
KIGQ,05/05/2017 17:35 UTC,29.83,44.96,41.18,87.09,18.41,10.0,24.16,,,,,114.0,,,,10.0,,KIGQ 051735Z AUTO 01016G21KT 10SM OVC011 07/05 A2983 RMK AO2  T00720051,,,1100.0,,,41.31,39.27,N,29.18,29.13,,Overcast
KIGQ,05/05/2017 17:55 UTC,29.83,44.6,40.64,87.09,14.97,350.0,24.16,,,,,114.0,,,,10.0,,KIGQ 051755Z AUTO 35013G21KT 10SM OVC011 07/05 A2983 RMK AO2  T00700048 10076 20055,45.68,41.9,1100.0,,,40.95,39.62,N,29.18,29.14,,Overcast
KIGQ,05/05/2017 18:15 UTC,29.83,44.96,41.18,87.09,17.27,350.0,23.02,,,,,114.0,,,,10.0,,KIGQ 051815Z AUTO 35015G20KT 10SM OVC011 07/05 A2983 RMK AO2  T00720051,,,1100.0,,,41.31,39.52,N,29.18,29.13,,Overcast
KIGQ,05/05/2017 18:35 UTC,29.82,44.96,41.18,87.09,17.27,350.0,25.32,,,,,114.0,,,,10.0,,KIGQ 051835Z AUTO 35015G22KT 330V030 10SM OVC011 07/05 A2982 RMK AO2 T00720051,,,1100.0,,,41.31,39.52,N,29.17,29.12,,Overcast
KIGQ,05/05/2017 18:55 UTC,29.82,46.58,41.9,87.19,16.11,360.0,24.16,,,,,134.0,,,,10.0,,KIGQ 051855Z AUTO 36014G21KT 10SM OVC013 08/06 A2982 RMK AO2  T00810055,,,1300.0,,,42.93,,N,29.17,29.07,,Overcast
KIGQ,05/05/2017 19:15 UTC,29.81,48.74,42.62,81.48,18.41,10.0,26.46,,,,,152.0,,,,10.0,,KIGQ 051915Z AUTO 01016G23KT 10SM SCT015 09/06 A2981 RMK AO2  T00930059,,,,,,43.26,,N,29.16,29.03,,Partly Cloudy
KIGQ,05/05/2017 19:35 UTC,29.81,49.46,42.98,76.18,13.8,350.0,26.46,,,,,172.0,,,,10.0,,KIGQ 051935Z AUTO 35012G23KT 10SM SCT017 10/06 A2981 RMK AO2  T00970061,,,,,,42.19,,N,29.16,29.05,,Partly Cloudy
KIGQ,05/05/2017 19:55 UTC,29.81,48.38,41.36,76.02,16.11,360.0,33.38,,,,,1.0,,,,10.0,,KIGQ 051955Z AUTO 36014G29KT 10SM CLR 09/05 A2981 RMK AO2  T00910052,,,,,,41.09,,N,29.16,29.09,,Clear
KIGQ,05/05/2017 20:15 UTC,29.81,48.56,40.82,76.02,24.16,360.0,32.21,,,,,1.0,,,,10.0,,KIGQ 052015Z AUTO 36021G28KT 10SM CLR 09/05 A2981 RMK AO2  T00920049,,,,,,41.27,,N,29.16,29.08,,Clear
KIGQ,05/05/2017 20:35 UTC,29.81,49.64,41.36,71.08,18.41,10.0,31.07,,,,,1.0,,,,10.0,,KIGQ 052035Z AUTO 01016G27KT 10SM CLR 10/05 A2981 RMK AO2  T00980052,,,,,,40.56,,N,29.16,29.09,,Clear
KIGQ,05/05/2017 20:55 UTC,29.81,50.18,41.9,76.18,17.27,10.0,31.07,,,,,1.0,,,,10.0,,KIGQ 052055Z AUTO 01015G27KT 10SM CLR 10/06 A2981 RMK AO2  T01010055,,,,,,42.89,,N,29.16,29.03,,Clear
KIGQ,05/05/2017 21:15 UTC,29.81,51.26,41.9,71.27,17.27,10.0,25.32,,,,,1.0,,,,10.0,,KIGQ 052115Z AUTO 01015G22KT 10SM CLR 11/06 A2981 RMK AO2  T01070055,,,,,,42.18,,N,29.16,29.04,,Clear
KIGQ,05/05/2017 21:35 UTC,29.81,51.98,41.36,66.49,14.97,360.0,25.32,,,,,1.0,,,,10.0,,KIGQ 052135Z AUTO 36013G22KT 10SM CLR 11/05 A2981 RMK AO2  T01110052,,,,,,41.06,,N,29.16,29.06,,Clear
KIGQ,05/05/2017 21:55 UTC,29.81,52.34,41.0,66.49,12.66,360.0,21.85,,,,,1.0,,,,10.0,,KIGQ 052155Z AUTO 36011G19KT 10SM CLR 11/05 A2981 RMK AO2  T01130050,,,,,,41.4,,N,29.16,29.05,,Clear
KIGQ,05/05/2017 22:15 UTC,29.81,51.98,40.82,66.49,18.41,30.0,27.63,,,,,1.0,,,,10.0,,KIGQ 052215Z AUTO 03016G24KT 10SM CLR 11/05 A2981 RMK AO2  T01110049,,,,,,41.06,,NNE,29.16,29.06,,Clear
KIGQ,05/05/2017 22:35 UTC,29.81,50.72,40.46,71.08,12.66,10.0,26.46,,,,,1.0,,,,10.0,,KIGQ 052235Z AUTO 01011G23KT 10SM CLR 10/05 A2981 RMK AO2  T01040047,,,,,,41.59,,N,29.16,29.06,,Clear
KIGQ,05/05/2017 22:55 UTC,29.81,51.08,39.38,62.0,13.8,10.0,21.85,,,,,1.0,,,,10.0,,KIGQ 052255Z AUTO 01012G19KT 10SM CLR 11/04 A2981 RMK AO2  T01060041,,,,,,38.39,,N,29.16,29.13,,Clear
KIGQ,05/05/2017 23:15 UTC,29.8,50.9,39.02,62.0,10.36,10.0,23.02,,,,,1.0,,,,10.0,,KIGQ 052315Z AUTO 01009G20KT 10SM CLR 11/04 A2980 RMK AO2  T01050039,,,,,,38.22,,N,29.15,29.13,,Clear
KIGQ,05/05/2017 23:35 UTC,29.8,51.26,37.94,57.78,13.8,10.0,21.85,,,,,1.0,,,,10.0,,KIGQ 052335Z AUTO 01012G19KT 10SM CLR 11/03 A2980 RMK AO2  T01070033,,,,,,36.75,,N,29.15,29.16,,Clear
KIGQ,05/05/2017 23:55 UTC,29.8,49.64,38.84,66.27,11.5,10.0,19.57,,,,,1.0,,,,10.0,,KIGQ 052355Z AUTO 01010G17KT 10SM CLR 10/04 A2980 RMK AO2  T00980038 10115 20070,52.7,44.6,,,,38.74,,N,29.15,29.12,,Clear
KIGQ,05/06/2017 00:15 UTC,29.8,48.56,39.56,70.88,12.66,10.0,18.41,,,,,1.0,,,,10.0,,KIGQ 060015Z AUTO 01011G16KT 10SM CLR 09/04 A2980 RMK AO2  T00920042,,,,,,39.44,,N,29.15,29.12,,Clear
KIGQ,05/06/2017 00:35 UTC,29.81,48.02,39.2,70.88,11.5,10.0,16.11,,,,,1.0,,,,10.0,,KIGQ 060035Z AUTO 01010G14KT 10SM CLR 09/04 A2981 RMK AO2  T00890040,,,,,,38.92,,N,29.16,29.14,,Clear
KIGQ,05/06/2017 00:55 UTC,29.81,46.58,39.38,75.84,10.36,10.0,,,,,,1.0,,,,10.0,,KIGQ 060055Z AUTO 01009KT 10SM CLR 08/04 A2981 RMK AO2  T00810041,,,,,,39.28,,N,29.16,29.15,,Clear
KIGQ,05/06/2017 01:15 UTC,29.81,45.68,39.74,75.84,5.75,360.0,,,,,,1.0,,,,10.0,,KIGQ 060115Z AUTO 36005KT 10SM CLR 08/04 A2981 RMK AO2  T00760043,,,,,,38.41,,N,29.16,29.17,,Clear
KIGQ,05/06/2017 01:35 UTC,29.81,45.32,39.74,81.2,9.22,350.0,,,,,,1.0,,,,10.0,,KIGQ 060135Z AUTO 35008KT 10SM CLR 07/04 A2981 RMK AO2  T00740043,,,,,,39.83,,N,29.16,29.14,,Clear
KIGQ,05/06/2017 01:55 UTC,29.81,44.24,39.38,81.2,5.75,360.0,,,,,,1.0,,,,10.0,,KIGQ 060155Z AUTO 36005KT 10SM CLR 07/04 A2981 RMK AO2  T00680041,,,,,,38.78,,N,29.16,29.18,,Clear
KIGQ,05/06/2017 02:15 UTC,29.8,43.88,39.2,81.2,4.61,340.0,,,,,,1.0,,,,10.0,,KIGQ 060215Z AUTO 34004KT 10SM CLR 07/04 A2980 RMK AO2  T00660040,,,,,,38.42,,NNW,29.15,29.18,,Clear
KIGQ,05/06/2017 02:35 UTC,29.79,43.7,38.84,81.2,0.0,0.0,,,,,,1.0,,,,10.0,,KIGQ 060235Z AUTO 00000KT 10SM CLR 07/04 A2979 RMK AO2  T00650038,,,,,,38.25,,N,29.14,29.17,,Clear
KIGQ,05/06/2017 02:55 UTC,29.8,43.52,38.66,86.99,4.61,330.0,,,,,,1.0,,,,10.0,,KIGQ 060255Z AUTO 33004KT 10SM CLR 06/04 A2980 RMK AO2  T00640037,,,,,,39.86,,NNW,29.15,29.15,,Clear
KIGQ,05/06/2017 03:15 UTC,29.79,44.06,39.2,81.2,3.44,350.0,,,,,,953.0,,,,10.0,,KIGQ 060315Z AUTO 35003KT 10SM BKN095 07/04 A2979 RMK AO2  T00670040,,,9500.0,,,38.6,,N,29.14,29.16,,Mostly Cloudy
KIGQ,05/06/2017 03:35 UTC,29.78,44.6,38.66,81.2,3.44,350.0,,,,,,853.0,1103.0,,,10.0,,KIGQ 060335Z AUTO 35003KT 10SM BKN085 BKN110 07/04 A2978 RMK AO2  T00700037,,,8500.0,,,39.13,,N,29.13,29.13,,Mostly Cloudy
KIGQ,05/06/2017 03:55 UTC,29.77,44.06,38.3,81.2,0.0,0.0,,,,,,802.0,952.0,,,10.0,,KIGQ 060355Z AUTO 00000KT 10SM SCT080 SCT095 07/04 A2977 RMK AO2  T00670035,,,,,,38.6,,N,29.12,29.14,,Partly Cloudy
KIGQ,05/06/2017 04:15 UTC,29.77,43.88,38.3,81.2,3.44,360.0,,,,,,1003.0,,,,10.0,,KIGQ 060415Z AUTO 36003KT 10SM BKN100 07/04 A2977 RMK AO2  T00660035,,,10000.0,,,38.42,,N,29.12,29.15,,Mostly Cloudy
KIGQ,05/06/2017 04:35 UTC,29.76,44.6,38.12,75.67,4.61,340.0,,,,,,1004.0,,,,10.0,,KIGQ 060435Z AUTO 34004KT 10SM OVC100 07/03 A2976 RMK AO2  T00700034,,,10000.0,,,37.31,,NNW,29.11,29.15,,Overcast
KIGQ,05/06/2017 04:55 UTC,29.76,45.32,37.76,75.67,4.61,320.0,,,,,,802.0,1004.0,,,10.0,,KIGQ 060455Z AUTO 32004KT 10SM SCT080 OVC100 07/03 A2976 RMK AO2  T00740032,,,10000.0,,,38.0,,NW,29.11,29.13,,Overcast
KIGQ,05/06/2017 05:15 UTC,29.76,45.68,37.4,70.68,5.75,330.0,,,,,,904.0,,,,10.0,,KIGQ 060515Z AUTO 33005KT 10SM OVC090 08/03 A2976 RMK AO2  T00760030,,,9000.0,,,36.6,,NNW,29.11,29.16,,Overcast
KIGQ,05/06/2017 05:35 UTC,29.76,46.4,36.5,70.68,4.61,330.0,,,,,,902.0,,,,10.0,,KIGQ 060535Z AUTO 33004KT 10SM SCT090 08/03 A2976 RMK AO2  T00800025,,,,,,37.29,,NNW,29.11,29.14,,Partly Cloudy
KIGQ,05/06/2017 05:55 UTC,29.76,46.22,36.86,70.68,8.05,320.0,,,,,,702.0,,,,10.0,,KIGQ 060555Z AUTO 32007KT 10SM SCT070 08/03 A2976 RMK AO2  T00790027 10097 20060 401150055,49.46,42.8,,52.7,41.9,37.12,,NW,29.11,29.15,,Partly Cloudy
KIGQ,05/06/2017 06:15 UTC,29.76,46.4,37.22,70.68,8.05,320.0,,,,,,702.0,1103.0,,,10.0,,KIGQ 060615Z AUTO 32007KT 10SM SCT070 BKN110 08/03 A2976 RMK AO2  T00800029,,,11000.0,,,37.29,,NW,29.11,29.14,,Mostly Cloudy
KIGQ,05/06/2017 06:35 UTC,29.75,46.76,37.4,70.68,6.91,310.0,,,804.0,,,602.0,703.0,,,10.0,,KIGQ 060635Z AUTO 31006KT 10SM SCT060 BKN070 OVC080 08/03  A2975 RMK AO2 T00820030,,,7000.0,,,37.64,,NW,29.1,29.12,,Overcast
KIGQ,05/06/2017 06:55 UTC,29.75,45.86,38.48,75.84,8.05,300.0,,13.0,,,,503.0,704.0,,,10.0,,KIGQ 060655Z AUTO 30007KT 10SM -RA BKN050 OVC070 08/04 A2975 RMK AO2 T00770036,,,5000.0,,,38.59,,WNW,29.1,29.11,,Light Rain
KIGQ,05/06/2017 07:15 UTC,29.75,44.78,40.28,87.09,6.91,300.0,,13.0,,,,504.0,,,,10.0,,KIGQ 060715Z AUTO 30006KT 10SM -RA OVC050 07/05 A2975 RMK AO2  T00710046,,,5000.0,,,41.13,,WNW,29.1,29.06,,Light Rain
KIGQ,05/06/2017 07:35 UTC,29.74,44.6,40.46,87.09,5.75,300.0,,13.0,,,,504.0,,,,10.0,,KIGQ 060735Z AUTO 30005KT 10SM -RA OVC050 07/05 A2974 RMK AO2  T00700047,,,5000.0,,,40.95,,WNW,29.09,29.05,,Light Rain
KIGQ,05/06/2017 07:55 UTC,29.75,44.06,41.36,87.09,5.75,300.0,,13.0,,,,492.0,604.0,,,10.0,,KIGQ 060755Z AUTO 30005KT 10SM -RA SCT049 OVC060 07/05 A2975 RMK AO2 T00670052,,,6000.0,,,40.42,,WNW,29.1,29.08,,Light Rain
KIGQ,05/06/2017 08:15 UTC,29.74,43.7,41.9,93.35,6.91,280.0,,1.0,,,,492.0,604.0,,,10.0,,KIGQ 060815Z AUTO 28006KT 10SM RA SCT049 OVC060 07/06 A2974 RMK AO2 T00650055,,,6000.0,,,41.88,,W,29.09,29.04,,Rain
KIGQ,05/06/2017 08:35 UTC,29.73,43.7,41.9,93.35,5.75,270.0,,13.0,,,,603.0,704.0,,,10.0,,KIGQ 060835Z AUTO 27005KT 10SM -RA BKN060 OVC070 07/06 A2973 RMK AO2 T00650055,,,6000.0,,,41.88,,W,29.08,29.03,,Light Rain
KIGQ,05/06/2017 08:55 UTC,29.74,43.16,41.9,100.0,3.44,300.0,,,754.0,,,422.0,653.0,,,10.0,,KIGQ 060855Z AUTO 30003KT 10SM SCT042 BKN065 OVC075 06/06  A2974 RMK AO2 T00620055,,,6500.0,,,43.16,,WNW,29.09,29.01,,Overcast
KIGQ,05/06/2017 09:15 UTC,29.74,43.16,41.54,93.3,0.0,0.0,,,,,,442.0,504.0,,,10.0,,KIGQ 060915Z AUTO 00000KT 10SM SCT044 OVC050 06/05 A2974 RMK AO2  T00620053,,,5000.0,,,41.33,,N,29.09,29.06,,Overcast
KIGQ,05/06/2017 09:35 UTC,29.74,43.16,41.9,100.0,0.0,0.0,,,,,,502.0,554.0,,,10.0,,KIGQ 060935Z AUTO 00000KT 10SM SCT050 OVC055 06/06 A2974 RMK AO2  T00620055,,,5500.0,,,43.16,,N,29.09,29.01,,Overcast
KIGQ,05/06/2017 09:55 UTC,29.74,43.7,42.08,93.35,0.0,0.0,,,,,,604.0,,,,10.0,,KIGQ 060955Z AUTO 00000KT 10SM OVC060 07/06 A2974 RMK AO2  T00650056,,,6000.0,,,41.88,,N,29.09,29.04,,Overcast
KIGQ,05/06/2017 10:15 UTC,29.74,43.16,42.08,100.0,0.0,0.0,,,,,,603.0,704.0,,,10.0,,KIGQ 061015Z AUTO 00000KT 10SM BKN060 OVC070 06/06 A2974 RMK AO2  T00620056,,,6000.0,,,43.16,,N,29.09,29.01,,Overcast
KIGQ,05/06/2017 10:35 UTC,29.75,43.7,42.44,93.35,0.0,0.0,,,,,,604.0,,,,10.0,,KIGQ 061035Z AUTO 00000KT 10SM OVC060 07/06 A2975 RMK AO2  T00650058,,,6000.0,,,41.88,,N,29.1,29.05,,Overcast
KIGQ,05/06/2017 10:55 UTC,29.75,43.7,42.8,93.35,0.0,0.0,,,,,,604.0,,,,10.0,,KIGQ 061055Z AUTO 00000KT 10SM OVC060 07/06 A2975 RMK AO2  T00650060,,,6000.0,,,41.88,,N,29.1,29.05,,Overcast
KIGQ,05/06/2017 11:15 UTC,29.76,44.96,39.2,81.2,8.05,10.0,,,,,,604.0,,,,10.0,,KIGQ 061115Z AUTO 01007KT 10SM OVC060 07/04 A2976 RMK AO2  T00720040,,,6000.0,,,39.48,42.3,N,29.11,29.1,,Overcast
KIGQ,05/06/2017 11:35 UTC,29.76,44.6,38.66,81.2,10.36,20.0,,,,,,604.0,,,,10.0,,KIGQ 061135Z AUTO 02009KT 10SM OVC060 07/04 A2976 RMK AO2  T00700037,,,6000.0,,,39.13,40.99,NNE,29.11,29.11,,Overcast
KIGQ,05/06/2017 11:55 UTC,29.77,44.42,38.3,81.2,5.75,360.0,,,,,,604.0,,,,10.0,,KIGQ 061155Z AUTO 36005KT 10SM OVC060 07/04 A2977 RMK AO2  T00690035 10083 20062,46.94,43.16,6000.0,,,38.95,,N,29.12,29.13,,Overcast
KIGQ,05/06/2017 12:15 UTC,29.77,44.6,39.02,81.2,9.22,20.0,,,,,,604.0,,,,10.0,,KIGQ 061215Z AUTO 02008KT 10SM OVC060 07/04 A2977 RMK AO2  T00700039,,,6000.0,,,39.13,41.4,NNE,29.12,29.12,,Overcast
KIGQ,05/06/2017 12:35 UTC,29.77,44.6,39.2,81.2,8.05,360.0,,,,,,604.0,,,,10.0,,KIGQ 061235Z AUTO 36007KT 10SM OVC060 07/04 A2977 RMK AO2  T00700040,,,6000.0,,,39.13,41.88,N,29.12,29.12,,Overcast
KIGQ,05/06/2017 12:55 UTC,29.78,44.78,38.48,81.2,6.91,10.0,,,,,,602.0,854.0,,,10.0,,KIGQ 061255Z AUTO 01006KT 10SM SCT060 OVC085 07/04 A2978 RMK AO2  T00710036,,,8500.0,,,39.3,,N,29.13,29.13,,Overcast
KIGQ,05/06/2017 13:15 UTC,29.79,45.14,38.48,81.2,11.5,20.0,16.11,,,,,854.0,,,,10.0,,KIGQ 061315Z AUTO 02010G14KT 10SM OVC085 07/04 A2979 RMK AO2  T00730036,,,8500.0,,,39.66,,NNE,29.14,29.13,,Overcast
KIGQ,05/06/2017 13:35 UTC,29.8,45.14,38.66,81.2,11.5,10.0,20.71,,,,,854.0,,,,10.0,,KIGQ 061335Z AUTO 01010G18KT 10SM OVC085 07/04 A2980 RMK AO2  T00730037,,,8500.0,,,39.66,,N,29.15,29.14,,Overcast
KIGQ,05/06/2017 13:55 UTC,29.8,45.5,38.66,75.84,13.8,360.0,23.02,,,,,853.0,,,,10.0,,KIGQ 061355Z AUTO 36012G20KT 10SM BKN085 08/04 A2980 RMK AO2  T00750037,,,8500.0,,,38.24,,N,29.15,29.17,,Mostly Cloudy
KIGQ,05/06/2017 14:15 UTC,29.81,45.68,38.66,75.84,17.27,10.0,24.16,,,,,852.0,,,,10.0,,KIGQ 061415Z AUTO 01015G21KT 10SM SCT085 08/04 A2981 RMK AO2  T00760037,,,,,,38.41,,N,29.16,29.17,,Partly Cloudy
KIGQ,05/06/2017 14:35 UTC,29.81,46.4,38.66,75.84,16.11,360.0,23.02,,,,,1.0,,,,10.0,,KIGQ 061435Z AUTO 36014G20KT 10SM CLR 08/04 A2981 RMK AO2  T00800037,,,,,,39.11,,N,29.16,29.15,,Clear
KIGQ,05/06/2017 14:55 UTC,29.82,47.3,39.38,70.88,13.8,350.0,20.71,,,,,1.0,,,,10.0,,KIGQ 061455Z AUTO 35012G18KT 10SM CLR 09/04 A2982 RMK AO2  T00850041,,,,,,38.23,,N,29.17,29.17,,Clear
KIGQ,05/06/2017 15:15 UTC,29.82,48.74,40.46,76.02,16.11,20.0,24.16,,,,,1.0,,,,10.0,,KIGQ 061515Z AUTO 02014G21KT 10SM CLR 09/05 A2982 RMK AO2  T00930047,,,,,,41.44,,NNE,29.17,29.09,,Clear
KIGQ,05/06/2017 15:35 UTC,29.83,48.56,40.82,76.02,14.97,20.0,24.16,,,,,1.0,,,,10.0,,KIGQ 061535Z AUTO 02013G21KT 10SM CLR 09/05 A2983 RMK AO2  T00920049,,,,,,41.27,,NNE,29.18,29.1,,Clear
KIGQ,05/06/2017 15:55 UTC,29.83,48.2,40.64,76.02,17.27,10.0,27.63,,,,,1.0,,,,10.0,,KIGQ 061555Z AUTO 01015G24KT 10SM CLR 09/05 A2983 RMK AO2  T00900048,,,,,,40.92,,N,29.18,29.11,,Clear
KIGQ,05/06/2017 16:15 UTC,29.84,48.56,40.28,76.02,13.8,360.0,27.63,,,,,1.0,,,,10.0,,KIGQ 061615Z AUTO 36012G24KT 10SM CLR 09/05 A2984 RMK AO2  T00920046,,,,,,41.27,,N,29.19,29.11,,Clear
KIGQ,05/06/2017 16:35 UTC,29.84,48.38,40.46,76.02,17.27,10.0,26.46,,,,,952.0,,,,10.0,,KIGQ 061635Z AUTO 01015G23KT 10SM SCT095 09/05 A2984 RMK AO2  T00910047,,,,,,41.09,,N,29.19,29.12,,Partly Cloudy
KIGQ,05/06/2017 16:55 UTC,29.84,48.74,40.46,76.02,14.97,20.0,26.46,,,,,952.0,,,,10.0,,KIGQ 061655Z AUTO 02013G23KT 10SM SCT095 09/05 A2984 RMK AO2  T00930047,,,,,,41.44,,NNE,29.19,29.11,,Partly Cloudy
KIGQ,05/06/2017 17:15 UTC,29.85,49.1,40.64,71.08,16.11,360.0,25.32,,,,,1.0,,,,10.0,,KIGQ 061715Z AUTO 36014G22KT 10SM CLR 10/05 A2985 RMK AO2  T00950048,,,,,,40.04,,N,29.2,29.15,,Clear
KIGQ,05/06/2017 17:35 UTC,29.85,49.28,38.84,66.27,14.97,10.0,28.77,,,,,1.0,,,,10.0,,KIGQ 061735Z AUTO 01013G25KT 10SM CLR 10/04 A2985 RMK AO2  T00960038,,,,,,38.39,,N,29.2,29.19,,Clear
KIGQ,05/06/2017 17:55 UTC,29.85,49.46,39.38,66.27,16.11,10.0,28.77,,,,,1.0,,,,10.0,,KIGQ 061755Z AUTO 01014G25KT 10SM CLR 10/04 A2985 RMK AO2  T00970041 10100 20069,50.0,44.42,,,,38.57,,N,29.2,29.18,,Clear
KIGQ,05/06/2017 18:15 UTC,29.85,50.72,38.84,66.27,14.97,10.0,26.46,,,,,1.0,,,,10.0,,KIGQ 061815Z AUTO 01013G23KT 330V040 10SM CLR 10/04 A2985 RMK AO2  T01040038,,,,,,39.77,,N,29.2,29.14,,Clear
KIGQ,05/06/2017 18:35 UTC,29.85,50.72,37.94,61.76,18.41,10.0,32.21,,,,,1.0,,,,10.0,,KIGQ 061835Z AUTO 01016G28KT 10SM CLR 10/03 A2985 RMK AO2  T01040033,,,,,,37.95,,N,29.2,29.19,,Clear
KIGQ,05/06/2017 18:55 UTC,29.85,51.44,38.3,62.0,16.11,20.0,27.63,,,,,1.0,,,,10.0,,KIGQ 061855Z AUTO 02014G24KT 10SM CLR 11/04 A2985 RMK AO2  T01080035,,,,,,38.73,,NNE,29.2,29.16,,Clear
KIGQ,05/06/2017 19:15 UTC,29.85,51.8,38.48,62.0,20.71,20.0,26.46,,,,,1.0,,,,10.0,,KIGQ 061915Z AUTO 02018G23KT 10SM CLR 11/04 A2985 RMK AO2  T01100036,,,,,,39.07,,NNE,29.2,29.15,,Clear
KIGQ,05/06/2017 19:35 UTC,29.85,51.8,37.76,57.78,23.02,20.0,28.77,,,,,1.0,,,,10.0,,KIGQ 061935Z AUTO 02020G25KT 10SM CLR 11/03 A2985 RMK AO2  T01100032,,,,,,37.26,,NNE,29.2,29.19,,Clear
KIGQ,05/06/2017 19:55 UTC,29.86,52.52,37.76,57.78,19.57,10.0,25.32,,,,,1.0,,,,10.0,,KIGQ 061955Z AUTO 01017G22KT 10SM CLR 11/03 A2986 RMK AO2  T01140032,,,,,,37.94,,N,29.21,29.18,,Clear
KIGQ,05/06/2017 20:15 UTC,29.86,52.34,37.22,57.78,10.36,10.0,25.32,,,,,1.0,,,,10.0,,KIGQ 062015Z AUTO 01009G22KT 10SM CLR 11/03 A2986 RMK AO2  T01130029,,,,,,37.77,,N,29.21,29.19,,Clear
KIGQ,05/06/2017 20:35 UTC,29.86,51.98,35.24,53.81,18.41,30.0,24.16,,,,,1.0,,,,10.0,,KIGQ 062035Z AUTO 03016G21KT 10SM CLR 11/02 A2986 RMK AO2  T01110018,,,,,,35.61,,NNE,29.21,29.24,,Clear
KIGQ,05/06/2017 20:55 UTC,29.86,51.62,35.42,53.81,16.11,360.0,25.32,,,,,1.0,,,,10.0,,KIGQ 062055Z AUTO 36014G22KT 10SM CLR 11/02 A2986 RMK AO2  T01090019,,,,,,35.28,,N,29.21,29.25,,Clear
KIGQ,05/06/2017 21:15 UTC,29.87,51.08,34.34,50.08,14.97,20.0,25.32,,,,,1.0,,,,10.0,,KIGQ 062115Z AUTO 02013G22KT 10SM CLR 11/01 A2987 RMK AO2  T01060013,,,,,,32.96,,NNE,29.22,29.31,,Clear
KIGQ,05/06/2017 21:35 UTC,29.86,51.26,34.34,50.08,14.97,20.0,21.85,,,,,1.0,,,,10.0,,KIGQ 062135Z AUTO 02013G19KT 10SM CLR 11/01 A2986 RMK AO2  T01070013,,,,,,33.13,,NNE,29.21,29.29,,Clear
KIGQ,05/06/2017 21:55 UTC,29.86,51.62,33.26,50.08,13.8,360.0,21.85,,,,,1.0,,,,10.0,,KIGQ 062155Z AUTO 36012G19KT 330V030 10SM CLR 11/01 A2986 RMK AO2  T01090007,,,,,,33.46,,N,29.21,29.29,,Clear
KIGQ,05/06/2017 22:15 UTC,29.86,51.62,33.26,50.08,13.8,360.0,18.41,,,,,1.0,,,,10.0,,KIGQ 062215Z AUTO 36012G16KT 10SM CLR 11/01 A2986 RMK AO2  T01090007,,,,,,33.46,,N,29.21,29.29,,Clear
KIGQ,05/06/2017 22:35 UTC,29.87,50.72,32.72,49.8,16.11,10.0,24.16,,,,,1.0,,,,10.0,,KIGQ 062235Z AUTO 01014G21KT 340V040 10SM CLR 10/00 A2987 RMK AO2  T01040004,,,,,,32.49,,N,29.22,29.32,,Clear
KIGQ,05/06/2017 22:55 UTC,29.87,50.9,33.98,50.08,12.66,360.0,20.71,,,,,1.0,,,,10.0,,KIGQ 062255Z AUTO 36011G18KT 10SM CLR 11/01 A2987 RMK AO2  T01050011,,,,,,32.8,,N,29.22,29.31,,Clear
KIGQ,05/06/2017 23:15 UTC,29.87,50.36,33.62,53.53,11.5,20.0,,,,,,1.0,,,,10.0,,KIGQ 062315Z AUTO 02010KT 10SM CLR 10/01 A2987 RMK AO2  T01020009,,,,,,33.97,,NNE,29.22,29.29,,Clear
KIGQ,05/06/2017 23:35 UTC,29.88,49.46,33.98,53.53,10.36,10.0,18.41,,,,,1.0,,,,10.0,,KIGQ 062335Z AUTO 01009G16KT 10SM CLR 10/01 A2988 RMK AO2  T00970011,,,,,,33.13,,N,29.23,29.33,,Clear
KIGQ,05/06/2017 23:55 UTC,29.88,48.74,32.36,53.26,12.66,10.0,20.71,,,,,1.0,,,,10.0,,KIGQ 062355Z AUTO 01011G18KT 10SM CLR 09/00 A2988 RMK AO2  T00930002 10118 20093,53.24,48.74,,,,32.33,,N,29.23,29.35,,Clear
KIGQ,05/07/2017 00:15 UTC,29.88,47.84,31.82,53.26,11.5,20.0,17.27,,,,,1.0,,,,10.0,,KIGQ 070015Z AUTO 02010G15KT 10SM CLR 09/00 A2988 RMK AO2  T00881001,,,,,,31.49,,NNE,29.23,29.37,,Clear
KIGQ,05/07/2017 00:35 UTC,29.89,47.12,31.82,56.99,10.36,10.0,,,,,,1.0,,,,10.0,,KIGQ 070035Z AUTO 01009KT 10SM CLR 08/00 A2989 RMK AO2  T00841001,,,,,,32.51,,N,29.24,29.36,,Clear
KIGQ,05/07/2017 00:55 UTC,29.89,46.04,32.0,56.99,5.75,10.0,,,,,,1.0,,,,10.0,,KIGQ 070055Z AUTO 01005KT 10SM CLR 08/00 A2989 RMK AO2  T00780000,,,,,,31.5,,N,29.24,29.39,,Clear
KIGQ,05/07/2017 01:15 UTC,29.9,45.5,31.46,56.99,5.75,360.0,,,,,,1.0,,,,10.0,,KIGQ 070115Z AUTO 36005KT 10SM CLR 08/00 A2990 RMK AO2  T00751003,,,,,,30.99,,N,29.25,29.41,,Clear
KIGQ,05/07/2017 01:35 UTC,29.9,45.14,31.1,61.02,4.61,350.0,,,,,,1.0,,,,10.0,,KIGQ 070135Z AUTO 35004KT 10SM CLR 07/00 A2990 RMK AO2  T00731005,,,,,,32.36,,N,29.25,29.39,,Clear
KIGQ,05/07/2017 01:55 UTC,29.9,44.78,31.1,61.02,3.44,350.0,,,,,,1.0,,,,10.0,,KIGQ 070155Z AUTO 35003KT 10SM CLR 07/00 A2990 RMK AO2  T00711005,,,,,,32.02,,N,29.25,29.4,,Clear
KIGQ,05/07/2017 02:15 UTC,29.91,44.6,30.56,56.72,3.44,340.0,,,,,,1.0,,,,10.0,,KIGQ 070215Z AUTO 34003KT 10SM CLR 07/M01 A2991 RMK AO2  T00701008,,,,,,30.03,,NNW,29.26,29.44,,Clear
KIGQ,05/07/2017 02:35 UTC,29.92,44.42,29.84,56.72,3.44,340.0,,,,,,1.0,,,,10.0,,KIGQ 070235Z AUTO 34003KT 10SM CLR 07/M01 A2992 RMK AO2  T00691012,,,,,,29.86,,NNW,29.27,29.46,,Clear
KIGQ,05/07/2017 02:55 UTC,29.92,44.06,28.58,52.7,4.61,360.0,,,,,,1.0,,,,10.0,,KIGQ 070255Z AUTO 36004KT 10SM CLR 07/M02 A2992 RMK AO2  T00671019,,,,,,27.71,,N,29.27,29.49,,Clear
KIGQ,05/07/2017 03:15 UTC,29.92,44.42,27.68,52.7,6.91,350.0,,,,,,1.0,,,,10.0,,KIGQ 070315Z AUTO 35006KT 10SM CLR 07/M02 A2992 RMK AO2  T00691024,,,,,,28.05,,N,29.27,29.48,,Clear
KIGQ,05/07/2017 03:35 UTC,29.93,43.88,28.76,52.7,4.61,10.0,,,,,,1.0,,,,10.0,,KIGQ 070335Z AUTO 01004KT 10SM CLR 07/M02 A2993 RMK AO2  T00661018,,,,,,27.54,,N,29.28,29.5,,Clear
KIGQ,05/07/2017 03:55 UTC,29.93,43.16,29.3,60.77,4.61,360.0,,,,,,1.0,,,,10.0,,KIGQ 070355Z AUTO 36004KT 10SM CLR 06/M01 A2993 RMK AO2  T00621015,,,,,,30.39,,N,29.28,29.47,,Clear
KIGQ,05/07/2017 04:15 UTC,29.93,43.7,28.94,52.7,4.61,360.0,,,,,,1.0,,,,10.0,,KIGQ 070415Z AUTO 36004KT 10SM CLR 07/M02 A2993 RMK AO2  T00651017,,,,,,27.38,,N,29.28,29.51,,Clear
KIGQ,05/07/2017 04:35 UTC,29.94,43.88,29.66,56.72,8.05,10.0,,,,,,802.0,,,,10.0,,KIGQ 070435Z AUTO 01007KT 10SM SCT080 07/M01 A2994 RMK AO2  T00661013,,,,,,29.35,41.03,N,29.29,29.49,,Partly Cloudy
KIGQ,05/07/2017 04:55 UTC,29.94,43.7,30.74,56.72,10.36,10.0,,,,,,802.0,,,,10.0,,KIGQ 070455Z AUTO 01009KT 10SM SCT080 07/M01 A2994 RMK AO2  T00651007,,,,,,29.18,39.91,N,29.29,29.49,,Partly Cloudy
KIGQ,05/07/2017 05:15 UTC,29.94,43.16,31.64,65.37,8.05,10.0,,,,,,802.0,,,,10.0,,KIGQ 070515Z AUTO 01007KT 10SM SCT080 06/00 A2994 RMK AO2  T00621002,,,,,,32.21,40.18,N,29.29,29.44,,Partly Cloudy
KIGQ,05/07/2017 05:35 UTC,29.94,42.8,31.64,65.37,6.91,10.0,,,,,,1.0,,,,10.0,,KIGQ 070535Z AUTO 01006KT 10SM CLR 06/00 A2994 RMK AO2  T00601002,,,,,,31.86,,N,29.29,29.45,,Clear
KIGQ,05/07/2017 05:55 UTC,29.94,42.08,31.64,65.37,6.91,360.0,,,,,,1.0,,,,10.0,,KIGQ 070555Z AUTO 36006KT 10SM CLR 06/00 A2994 RMK AO2 T00561002  10092 20055 401180055,48.56,41.9,,53.24,41.9,31.18,,N,29.29,29.47,,Clear
KIGQ,05/07/2017 06:15 UTC,29.95,41.9,31.64,65.37,5.75,360.0,,,,,,1.0,,,,10.0,,KIGQ 070615Z AUTO 36005KT 10SM CLR 06/00 A2995 RMK AO2  T00551002,,,,,,31.01,,N,29.3,29.48,,Clear
KIGQ,05/07/2017 06:35 UTC,29.94,41.9,31.46,65.37,9.22,10.0,,,,,,1.0,,,,10.0,,KIGQ 070635Z AUTO 01008KT 10SM CLR 06/00 A2994 RMK AO2  T00551003,,,,,,31.01,38.2,N,29.29,29.47,,Clear
KIGQ,05/07/2017 06:55 UTC,29.95,41.9,31.1,65.37,6.91,10.0,,,,,,1.0,,,,10.0,,KIGQ 070655Z AUTO 01006KT 10SM CLR 06/00 A2995 RMK AO2  T00551005,,,,,,31.01,,N,29.3,29.48,,Clear
KIGQ,05/07/2017 07:15 UTC,29.95,41.54,30.2,65.13,8.05,10.0,,,,,,1.0,,,,10.0,,KIGQ 070715Z AUTO 01007KT 10SM CLR 05/M01 A2995 RMK AO2  T00531010,,,,,,30.57,38.28,N,29.3,29.49,,Clear
KIGQ,05/07/2017 07:35 UTC,29.95,41.9,29.84,60.77,5.75,10.0,,,,,,1.0,,,,10.0,,KIGQ 070735Z AUTO 01005KT 10SM CLR 06/M01 A2995 RMK AO2  T00551012,,,,,,29.19,,N,29.3,29.51,,Clear
KIGQ,05/07/2017 07:55 UTC,29.96,41.54,29.3,65.13,6.91,10.0,,,,,,1.0,,,,10.0,,KIGQ 070755Z AUTO 01006KT 10SM CLR 05/M01 A2996 RMK AO2  T00531015,,,,,,30.57,,N,29.31,29.5,,Clear
KIGQ,05/07/2017 08:15 UTC,29.96,41.36,29.3,65.13,5.75,10.0,,,,,,1.0,,,,10.0,,KIGQ 070815Z AUTO 01005KT 10SM CLR 05/M01 A2996 RMK AO2  T00521015,,,,,,30.4,,N,29.31,29.51,,Clear
KIGQ,05/07/2017 08:35 UTC,29.96,41.18,29.12,60.51,6.91,360.0,,,,,,1.0,,,,10.0,,KIGQ 070835Z AUTO 36006KT 10SM CLR 05/M02 A2996 RMK AO2  T00511016,,,,,,28.41,,N,29.31,29.54,,Clear
KIGQ,05/07/2017 08:55 UTC,29.96,41.0,28.94,60.51,5.75,10.0,,,,,,1.0,,,,10.0,,KIGQ 070855Z AUTO 01005KT 10SM CLR 05/M02 A2996 RMK AO2  T00501017,,,,,,28.24,,N,29.31,29.54,,Clear
KIGQ,05/07/2017 09:15 UTC,29.97,41.36,28.4,60.51,4.61,350.0,,,,,,1.0,,,,10.0,,KIGQ 070915Z AUTO 35004KT 10SM CLR 05/M02 A2997 RMK AO2  T00521020,,,,,,28.58,,N,29.32,29.55,,Clear
KIGQ,05/07/2017 09:35 UTC,29.97,40.28,28.58,60.51,4.61,350.0,,,,,,1.0,,,,10.0,,KIGQ 070935Z AUTO 35004KT 10SM CLR 05/M02 A2997 RMK AO2  T00461019,,,,,,27.56,,N,29.32,29.57,,Clear
KIGQ,05/07/2017 09:55 UTC,29.97,39.56,28.4,63.99,3.44,340.0,,,,,,1.0,,,,10.0,,KIGQ 070955Z AUTO 34003KT 10SM CLR 04/M02 A2997 RMK AO2  T00421020,,,,,,28.25,,NNW,29.32,29.56,,Clear
KIGQ,05/07/2017 10:15 UTC,29.98,39.56,27.86,64.9,0.0,0.0,,,,,,1.0,,,,10.0,,KIGQ 071015Z AUTO 00000KT 10SM CLR 04/M02 A2998 RMK AO2  T00421023,,,,,,28.6,,N,29.33,29.57,,Clear
KIGQ,05/07/2017 10:35 UTC,29.98,39.02,28.4,64.9,0.0,0.0,,,,,,1.0,,,,10.0,,KIGQ 071035Z AUTO 00000KT 10SM CLR 04/M02 A2998 RMK AO2  T00391020,,,,,,28.08,,N,29.33,29.58,,Clear
KIGQ,05/07/2017 10:55 UTC,29.99,36.14,29.12,74.78,0.0,0.0,,,,,,1.0,,,,10.0,,KIGQ 071055Z AUTO 00000KT 10SM CLR 02/M02 A2999 RMK AO2  T00231016,,,,,,28.81,,N,29.34,29.59,,Clear
KIGQ,05/07/2017 11:15 UTC,29.99,35.6,30.2,80.49,3.44,260.0,,,,,,1.0,,,,10.0,,KIGQ 071115Z AUTO 26003KT 10SM CLR 02/M01 A2999 RMK AO2  T00201010,,,,,,30.12,,W,29.34,29.58,,Clear
KIGQ,05/07/2017 11:35 UTC,30.0,36.86,30.92,74.96,0.0,0.0,,,,,,1.0,,,,10.0,,KIGQ 071135Z AUTO 00000KT 10SM CLR 03/M01 A3000 RMK AO2  T00271006,,,,,,29.57,,N,29.35,29.59,,Clear
KIGQ,05/07/2017 11:55 UTC,30.01,39.38,31.1,75.14,3.44,300.0,,,,,,1.0,,,,10.0,,KIGQ 071155Z AUTO 30003KT 10SM CLR 04/00 A3001 RMK AO2 T00411005  10056 20017,42.08,35.06,,,,32.07,,WNW,29.36,29.54,,Clear
KIGQ,05/07/2017 12:15 UTC,30.02,41.9,30.56,60.77,4.61,310.0,,,,,,1.0,,,,10.0,,KIGQ 071215Z AUTO 31004KT 10SM CLR 06/M01 A3002 RMK AO2  T00551008,,,,,,29.19,,NW,29.37,29.58,,Clear
KIGQ,05/07/2017 12:35 UTC,30.03,43.34,29.66,60.77,4.61,330.0,,,,,,1.0,,,,10.0,,KIGQ 071235Z AUTO 33004KT 10SM CLR 06/M01 A3003 RMK AO2  T00631013,,,,,,30.56,,NNW,29.38,29.56,,Clear
KIGQ,05/07/2017 12:55 UTC,30.03,44.78,30.38,56.72,5.75,330.0,,,,,,1.0,,,,10.0,,KIGQ 071255Z AUTO 33005KT 10SM CLR 07/M01 A3003 RMK AO2  T00711009,,,,,,30.2,,NNW,29.38,29.56,,Clear
KIGQ,05/07/2017 13:15 UTC,30.04,46.76,28.4,49.22,10.36,10.0,17.27,,,,,1.0,,,,10.0,,KIGQ 071315Z AUTO 01009G15KT 10SM CLR 08/M02 A3004 RMK AO2  T00821020,,,,,,28.54,,N,29.39,29.59,,Clear
KIGQ,05/07/2017 13:35 UTC,30.04,47.12,29.3,52.98,10.36,10.0,,,,,,1.0,,,,10.0,,KIGQ 071335Z AUTO 01009KT 10SM CLR 08/M01 A3004 RMK AO2  T00841015,,,,,,30.69,,N,29.39,29.55,,Clear
KIGQ,05/07/2017 13:55 UTC,30.04,48.2,29.3,49.51,8.05,20.0,16.11,,,,,1.0,,,,10.0,,KIGQ 071355Z AUTO 02007G14KT 10SM CLR 09/M01 A3004 RMK AO2  T00901015,,,,,,30.01,,NNE,29.39,29.55,,Clear
KIGQ,05/07/2017 14:15 UTC,30.04,48.38,29.3,49.51,12.66,30.0,18.41,,,,,1.0,,,,10.0,,KIGQ 071415Z AUTO 03011G16KT 10SM CLR 09/M01 A3004 RMK AO2  T00911015,,,,,,30.18,,NNE,29.39,29.55,,Clear
KIGQ,05/07/2017 14:35 UTC,30.04,49.1,29.84,46.29,9.22,10.0,,,,,,1.0,,,,10.0,,KIGQ 071435Z AUTO 01008KT 10SM CLR 10/M01 A3004 RMK AO2  T00951012,,,,,,29.18,,N,29.39,29.56,,Clear
KIGQ,05/07/2017 14:55 UTC,30.05,49.28,30.2,46.29,8.05,340.0,,,,,,1.0,,,,10.0,,KIGQ 071455Z AUTO 34007KT 10SM CLR 10/M01 A3005 RMK AO2  T00961010,,,,,,29.35,,NNW,29.4,29.57,,Clear
KIGQ,05/07/2017 15:15 UTC,30.05,50.36,32.18,49.8,10.36,20.0,,,,,,1.0,,,,10.0,,KIGQ 071515Z AUTO 02009KT 340V040 10SM CLR 10/00 A3005 RMK AO2  T01020001,,,,,,32.16,,NNE,29.4,29.51,,Clear
KIGQ,05/07/2017 15:35 UTC,30.04,50.72,30.2,46.29,9.22,10.0,,,,,,1.0,,,,10.0,,KIGQ 071535Z AUTO 01008KT 10SM CLR 10/M01 A3004 RMK AO2  T01041010,,,,,,30.67,,N,29.39,29.53,,Clear
KIGQ,05/07/2017 15:55 UTC,30.05,51.08,29.66,43.31,10.36,360.0,,,,,,1.0,,,,10.0,,KIGQ 071555Z AUTO 36009KT 10SM CLR 11/M01 A3005 RMK AO2  T01061013,,,,,,29.35,,N,29.4,29.56,,Clear
KIGQ,05/07/2017 16:15 UTC,30.04,51.44,29.48,43.31,6.91,20.0,17.27,,,,,1.0,,,,10.0,,KIGQ 071615Z AUTO 02006G15KT 10SM CLR 11/M01 A3004 RMK AO2  T01081014,,,,,,29.68,,NNE,29.39,29.54,,Clear
KIGQ,05/07/2017 16:35 UTC,30.04,52.52,31.46,46.59,11.5,40.0,,,,,,1.0,,,,10.0,,KIGQ 071635Z AUTO 04010KT 10SM CLR 11/00 A3004 RMK AO2  T01141003,,,,,,32.48,,NE,29.39,29.48,,Clear
KIGQ,05/07/2017 16:55 UTC,30.04,52.7,31.82,43.61,10.36,50.0,16.11,,,,,1.0,,,,10.0,,KIGQ 071655Z AUTO 05009G14KT 10SM CLR 12/00 A3004 RMK AO2  T01151001,,,,,,31.0,,NE,29.39,29.51,,Clear
KIGQ,05/07/2017 17:15 UTC,30.04,52.88,32.0,43.61,10.36,40.0,,,,,,1.0,,,,10.0,,KIGQ 071715Z AUTO 04009KT 10SM CLR 12/00 A3004 RMK AO2  T01160000,,,,,,31.16,,NE,29.39,29.5,,Clear
KIGQ,05/07/2017 17:35 UTC,30.04,53.06,31.46,43.61,9.22,30.0,,,,,,1.0,,,,10.0,,KIGQ 071735Z AUTO 03008KT 10SM CLR 12/00 A3004 RMK AO2  T01171003,,,,,,31.33,,NNE,29.39,29.5,,Clear
KIGQ,05/07/2017 17:55 UTC,30.03,53.24,31.46,43.61,8.05,40.0,16.11,,,,,1.0,,,,10.0,,KIGQ 071755Z AUTO 04007G14KT 360V060 10SM CLR 12/00 A3003 RMK AO2  T01181003 10120 20043,53.6,39.74,,,,31.49,,NE,29.38,29.49,,Clear
KIGQ,05/07/2017 18:15 UTC,30.03,53.24,33.98,46.88,9.22,50.0,,,,,,1.0,,,,10.0,,KIGQ 071815Z AUTO 05008KT 10SM CLR 12/01 A3003 RMK AO2  T01180011,,,,,,33.3,,NE,29.38,29.45,,Clear
KIGQ,05/07/2017 18:35 UTC,30.03,52.88,34.34,46.88,10.36,50.0,,,,,,1.0,,,,10.0,,KIGQ 071835Z AUTO 05009KT 10SM CLR 12/01 A3003 RMK AO2  T01160013,,,,,,32.97,,NE,29.38,29.46,,Clear
KIGQ,05/07/2017 18:55 UTC,30.04,52.52,35.24,53.81,11.5,50.0,,,,,,1.0,,,,10.0,,KIGQ 071855Z AUTO 05010KT 10SM CLR 11/02 A3004 RMK AO2  T01140018,,,,,,36.12,,NE,29.39,29.41,,Clear
KIGQ,05/07/2017 19:15 UTC,30.04,51.62,35.96,53.81,9.22,40.0,16.11,,,,,1.0,,,,10.0,,KIGQ 071915Z AUTO 04008G14KT 10SM CLR 11/02 A3004 RMK AO2  T01090022,,,,,,35.28,,NE,29.39,29.43,,Clear
KIGQ,05/07/2017 19:35 UTC,30.04,52.16,35.24,53.81,9.22,40.0,,,,,,1.0,,,,10.0,,KIGQ 071935Z AUTO 04008KT 10SM CLR 11/02 A3004 RMK AO2  T01120018,,,,,,35.78,,NE,29.39,29.42,,Clear
KIGQ,05/07/2017 19:55 UTC,30.04,52.16,35.78,53.81,8.05,40.0,,,,,,1.0,,,,10.0,,KIGQ 071955Z AUTO 04007KT 10SM CLR 11/02 A3004 RMK AO2  T01120021,,,,,,35.78,,NE,29.39,29.42,,Clear
KIGQ,05/07/2017 20:15 UTC,30.04,51.8,34.16,50.08,10.36,30.0,,,,,,1.0,,,,10.0,,KIGQ 072015Z AUTO 03009KT 10SM CLR 11/01 A3004 RMK AO2  T01100012,,,,,,33.63,,NNE,29.39,29.46,,Clear
KIGQ,05/07/2017 20:35 UTC,30.04,51.44,35.6,53.81,11.5,20.0,,,,,,1.0,,,,10.0,,KIGQ 072035Z AUTO 02010KT 10SM CLR 11/02 A3004 RMK AO2  T01080020,,,,,,35.11,,NNE,29.39,29.44,,Clear
KIGQ,05/07/2017 20:55 UTC,30.04,50.9,33.8,50.08,11.5,30.0,,,,,,1.0,,,,10.0,,KIGQ 072055Z AUTO 03010KT 360V060 10SM CLR 11/01 A3004 RMK AO2  T01050010,,,,,,32.8,,NNE,29.39,29.49,,Clear
KIGQ,05/07/2017 21:15 UTC,30.04,50.0,32.18,49.8,11.5,40.0,17.27,,,,,1.0,,,,10.0,,KIGQ 072115Z AUTO 04010G15KT 10SM CLR 10/00 A3004 RMK AO2  T01000001,,,,,,31.82,,NE,29.39,29.51,,Clear
KIGQ,05/07/2017 21:35 UTC,30.04,48.92,32.36,53.26,13.8,30.0,17.27,,,,,1.0,,,,10.0,,KIGQ 072135Z AUTO 03012G15KT 10SM CLR 09/00 A3004 RMK AO2  T00940002,,,,,,32.5,,NNE,29.39,29.5,,Clear
KIGQ,05/07/2017 21:55 UTC,30.04,49.1,33.44,53.53,12.66,30.0,,,,,,1.0,,,,10.0,,KIGQ 072155Z AUTO 03011KT 10SM CLR 10/01 A3004 RMK AO2  T00950008,,,,,,32.79,,NNE,29.39,29.5,,Clear
KIGQ,05/07/2017 22:15 UTC,30.05,48.56,33.62,57.25,10.36,40.0,,,,,,1.0,,,,10.0,,KIGQ 072215Z AUTO 04009KT 10SM CLR 09/01 A3005 RMK AO2  T00920009,,,,,,33.98,,NE,29.4,29.49,,Clear
KIGQ,05/07/2017 22:35 UTC,30.05,47.3,32.54,53.26,11.5,40.0,,,,,,1.0,,,,10.0,,KIGQ 072235Z AUTO 04010KT 10SM CLR 09/00 A3005 RMK AO2  T00850003,,,,,,30.99,,NE,29.4,29.55,,Clear
KIGQ,05/07/2017 22:55 UTC,30.06,46.94,32.54,56.99,10.36,30.0,,,,,,1.0,,,,10.0,,KIGQ 072255Z AUTO 03009KT 10SM CLR 08/00 A3006 RMK AO2  T00830003,,,,,,32.34,,NNE,29.41,29.54,,Clear
KIGQ,05/07/2017 23:15 UTC,30.06,46.94,32.0,56.99,10.36,40.0,,,,,,1.0,,,,10.0,,KIGQ 072315Z AUTO 04009KT 10SM CLR 08/00 A3006 RMK AO2  T00830000,,,,,,32.34,,NE,29.41,29.54,,Clear
KIGQ,05/07/2017 23:35 UTC,30.06,46.4,31.82,56.99,9.22,50.0,,,,,,1.0,,,,10.0,,KIGQ 072335Z AUTO 05008KT 10SM CLR 08/00 A3006 RMK AO2  T00801001,,,,,,31.84,,NE,29.41,29.55,,Clear
KIGQ,05/07/2017 23:55 UTC,30.05,45.14,30.2,55.57,8.05,40.0,,,,,,1.0,,,,10.0,,KIGQ 072355Z AUTO 04007KT 10SM CLR 07/M01 A3005 RMK AO2 T00731010  10121 20073,53.78,45.14,,,,30.03,,NE,29.4,29.58,,Clear
KIGQ,05/08/2017 00:15 UTC,30.05,44.6,30.74,56.72,9.22,70.0,,,,,,1.0,,,,10.0,,KIGQ 080015Z AUTO 07008KT 10SM CLR 07/M01 A3005 RMK AO2  T00701007,,,,,,30.03,41.4,ENE,29.4,29.58,,Clear
KIGQ,05/08/2017 00:35 UTC,30.05,43.52,30.2,60.77,8.05,50.0,,,,,,1.0,,,,10.0,,KIGQ 080035Z AUTO 05007KT 10SM CLR 06/M01 A3005 RMK AO2  T00641010,,,,,,30.73,40.61,NE,29.4,29.58,,Clear
KIGQ,05/08/2017 00:55 UTC,30.05,42.98,28.22,56.46,6.91,50.0,,,,,,1.0,,,,10.0,,KIGQ 080055Z AUTO 05006KT 10SM CLR 06/M02 A3005 RMK AO2  T00611021,,,,,,28.4,,NE,29.4,29.62,,Clear
KIGQ,05/08/2017 01:15 UTC,30.05,41.9,28.4,56.46,4.61,60.0,,,,,,1.0,,,,10.0,,KIGQ 080115Z AUTO 06004KT 10SM CLR 06/M02 A3005 RMK AO2  T00551020,,,,,,27.38,,ENE,29.4,29.64,,Clear
KIGQ,05/08/2017 01:35 UTC,30.05,41.0,29.12,60.51,3.44,70.0,,,,,,1.0,,,,10.0,,KIGQ 080135Z AUTO 07003KT 10SM CLR 05/M02 A3005 RMK AO2  T00501016,,,,,,28.24,,ENE,29.4,29.63,,Clear
KIGQ,05/08/2017 01:55 UTC,30.05,41.36,29.84,65.13,5.75,70.0,,,,,,1.0,,,,10.0,,KIGQ 080155Z AUTO 07005KT 10SM CLR 05/M01 A3005 RMK AO2  T00521012,,,,,,30.4,,ENE,29.4,29.6,,Clear
KIGQ,05/08/2017 02:15 UTC,30.06,41.18,29.48,65.13,0.0,0.0,,,,,,1.0,,,,10.0,,KIGQ 080215Z AUTO 00000KT 10SM CLR 05/M01 A3006 RMK AO2  T00511014,,,,,,30.23,,N,29.41,29.61,,Clear
KIGQ,05/08/2017 02:35 UTC,30.06,40.46,30.2,65.13,4.61,80.0,,,,,,1.0,,,,10.0,,KIGQ 080235Z AUTO 08004KT 10SM CLR 05/M01 A3006 RMK AO2  T00471010,,,,,,29.54,,E,29.41,29.63,,Clear
KIGQ,05/08/2017 02:55 UTC,30.07,40.82,30.38,65.13,3.44,80.0,,,,,,1.0,,,,10.0,,KIGQ 080255Z AUTO 08003KT 10SM CLR 05/M01 A3007 RMK AO2  T00491009,,,,,,29.88,,E,29.42,29.63,,Clear
KIGQ,05/08/2017 03:15 UTC,30.06,40.82,30.2,65.13,3.44,100.0,,,,,,1.0,,,,10.0,,KIGQ 080315Z AUTO 10003KT 10SM CLR 05/M01 A3006 RMK AO2  T00491010,,,,,,29.88,,E,29.41,29.62,,Clear
KIGQ,05/08/2017 03:35 UTC,30.06,39.2,30.92,69.85,0.0,0.0,,,,,,1.0,,,,10.0,,KIGQ 080335Z AUTO 00000KT 10SM CLR 04/M01 A3006 RMK AO2  T00401006,,,,,,30.07,,N,29.41,29.63,,Clear
KIGQ,05/08/2017 03:55 UTC,30.06,39.38,31.28,75.14,0.0,0.0,,,,,,1.0,,,,10.0,,KIGQ 080355Z AUTO 00000KT 10SM CLR 04/00 A3006 RMK AO2  T00411004,,,,,,32.07,,N,29.41,29.59,,Clear
KIGQ,05/08/2017 04:15 UTC,30.06,39.02,31.28,75.14,0.0,0.0,,,,,,1.0,,,,10.0,,KIGQ 080415Z AUTO 00000KT 10SM CLR 04/00 A3006 RMK AO2  T00391004,,,,,,31.72,,N,29.41,29.6,,Clear
KIGQ,05/08/2017 04:35 UTC,30.07,39.2,32.0,75.14,0.0,0.0,,,,,,1.0,,,,10.0,,KIGQ 080435Z AUTO 00000KT 10SM CLR 04/00 A3007 RMK AO2  T00400000,,,,,,31.9,,N,29.42,29.61,,Clear
KIGQ,05/08/2017 04:55 UTC,30.07,37.04,32.9,86.68,0.0,0.0,,,,,,1.0,,,,10.0,,KIGQ 080455Z AUTO 00000KT 10SM CLR 03/01 A3007 RMK AO2  T00280005,,,,,,33.39,,N,29.42,29.6,,Clear
KIGQ,05/08/2017 05:15 UTC,30.08,37.22,32.54,80.63,0.0,0.0,,,,,,1.0,,,,10.0,,KIGQ 080515Z AUTO 00000KT 10SM CLR 03/00 A3008 RMK AO2  T00290003,,,,,,31.74,,N,29.43,29.64,,Clear
KIGQ,05/08/2017 05:35 UTC,30.08,37.22,32.0,80.63,0.0,0.0,,,,,,1.0,,,,10.0,,KIGQ 080535Z AUTO 00000KT 10SM CLR 03/00 A3008 RMK AO2  T00290000,,,,,,31.74,,N,29.43,29.64,,Clear
KIGQ,05/08/2017 05:55 UTC,30.09,36.14,32.18,86.58,0.0,0.0,,,,,,1.0,,,,10.0,,KIGQ 080555Z AUTO 00000KT 10SM CLR 02/00 A3009 RMK AO2 T00230001  10073 20023 401210017,45.14,36.14,,53.78,35.06,32.47,,N,29.44,29.64,,Clear
KIGQ,05/08/2017 06:15 UTC,30.09,36.14,32.18,86.58,0.0,0.0,,,,,,1.0,,,,10.0,,KIGQ 080615Z AUTO 00000KT 10SM CLR 02/00 A3009 RMK AO2  T00230001,,,,,,32.47,,N,29.44,29.64,,Clear
KIGQ,05/08/2017 06:35 UTC,30.09,35.24,32.0,86.58,0.0,0.0,,,,,,1.0,,,,10.0,,KIGQ 080635Z AUTO 00000KT 10SM CLR 02/00 A3009 RMK AO2  T00180000,,,,,,31.59,,N,29.44,29.66,,Clear
KIGQ,05/08/2017 06:55 UTC,30.09,35.06,32.0,86.58,0.0,0.0,,,,,,1.0,,,,10.0,,KIGQ 080655Z AUTO 00000KT 10SM CLR 02/00 A3009 RMK AO2  T00170000,,,,,,31.41,,N,29.44,29.67,,Clear
KIGQ,05/08/2017 07:15 UTC,30.1,35.24,32.0,86.58,0.0,0.0,,,,,,1.0,,,,10.0,,KIGQ 080715Z AUTO 00000KT 10SM CLR 02/00 A3010 RMK AO2  T00180000,,,,,,31.59,,N,29.45,29.67,,Clear
KIGQ,05/08/2017 07:35 UTC,30.1,34.88,32.0,86.58,0.0,0.0,,,,,,1.0,,,,10.0,,KIGQ 080735Z AUTO 00000KT 10SM CLR 02/00 A3010 RMK AO2  T00160000,,,,,,31.23,,N,29.45,29.68,,Clear
KIGQ,05/08/2017 07:55 UTC,30.1,34.34,32.0,93.02,0.0,0.0,,,,,,1.0,,,,10.0,,KIGQ 080755Z AUTO 00000KT 10SM CLR 01/00 A3010 RMK AO2  T00130000,,,,,,32.51,,N,29.45,29.66,,Clear
KIGQ,05/08/2017 08:15 UTC,30.1,35.06,32.0,86.58,0.0,0.0,,,,,,1.0,,,,10.0,,KIGQ 080815Z AUTO 00000KT 10SM CLR 02/00 A3010 RMK AO2  T00170000,,,,,,31.41,,N,29.45,29.68,,Clear
KIGQ,05/08/2017 08:35 UTC,30.11,32.9,32.0,93.02,0.0,0.0,,,,,,1.0,,,,10.0,,KIGQ 080835Z AUTO 00000KT 10SM CLR 01/00 A3011 RMK AO2  T00050000,,,,,,31.08,,N,29.46,29.71,,Clear
KIGQ,05/08/2017 08:55 UTC,30.11,32.0,31.64,100.0,0.0,0.0,,,,,,1.0,,,,10.0,,KIGQ 080855Z AUTO 00000KT 10SM CLR 00/00 A3011 RMK AO2  T00001002,,,,,,32.0,,N,29.46,29.7,,Clear
KIGQ,05/08/2017 09:15 UTC,30.11,32.36,32.0,100.0,0.0,0.0,,,,,,1.0,,,,10.0,,KIGQ 080915Z AUTO 00000KT 10SM CLR 00/00 A3011 RMK AO2 LTG DSNT W  T00020000,,,,,,32.36,,N,29.46,29.69,,Clear
KIGQ,05/08/2017 09:35 UTC,30.11,35.06,32.18,86.58,0.0,0.0,,,,,,1.0,,,,10.0,,KIGQ 080935Z AUTO 00000KT 10SM CLR 02/00 A3011 RMK AO2  T00170001,,,,,,31.41,,N,29.46,29.69,,Clear
KIGQ,05/08/2017 09:55 UTC,30.13,33.8,30.92,89.04,0.0,0.0,,,,,,1.0,,,,10.0,,KIGQ 080955Z AUTO 00000KT 10SM CLR 01/M01 A3013 RMK AO2 LTG DSNT W  T00101006,,,,,,30.87,,N,29.47,29.71,,Clear
KIGQ,05/08/2017 10:15 UTC,30.13,30.02,29.12,92.91,0.0,0.0,,,,,,1.0,,,,10.0,,KIGQ 081015Z AUTO 00000KT 10SM CLR M01/M02 A3013 RMK AO2  T10111016,,,,,,28.19,,N,29.47,29.77,,Clear
KIGQ,05/08/2017 10:35 UTC,30.14,31.1,30.38,92.96,0.0,0.0,,,,,,1.0,,,,10.0,,KIGQ 081035Z AUTO 00000KT 10SM CLR 00/M01 A3014 RMK AO2  T10051009,,,,,,29.28,,N,29.48,29.76,,Clear
KIGQ,05/08/2017 10:55 UTC,30.14,32.0,31.1,100.0,0.0,0.0,,,,,,1.0,,,,10.0,,KIGQ 081055Z AUTO 00000KT 10SM CLR 00/00 A3014 RMK AO2  T00001005,,,,,,32.0,,N,29.48,29.72,,Clear
KIGQ,05/08/2017 11:15 UTC,30.15,32.54,31.82,100.0,0.0,0.0,,,,,,1.0,,,,10.0,,KIGQ 081115Z AUTO 00000KT 10SM CLR 00/00 A3015 RMK AO2  T00031001,,,,,,32.54,,N,29.49,29.72,,Clear
KIGQ,05/08/2017 11:35 UTC,30.15,33.08,32.0,93.02,0.0,0.0,,,,,,1.0,,,,10.0,,KIGQ 081135Z AUTO 00000KT 10SM CLR 01/00 A3015 RMK AO2  T00060000,,,,,,31.26,,N,29.49,29.73,,Clear
KIGQ,05/08/2017 11:55 UTC,30.15,34.88,32.9,93.08,0.0,0.0,,,,,,1.0,,,,10.0,,KIGQ 081155Z AUTO 00000KT 10SM CLR 02/01 A3015 RMK AO2 T00160005  10023 21011,36.14,30.02,,,,33.06,,N,29.49,29.69,,Clear
KIGQ,05/08/2017 12:15 UTC,30.16,37.22,35.78,93.13,0.0,0.0,,,,,,1.0,,,,10.0,,KIGQ 081215Z AUTO 00000KT 10SM CLR 03/02 A3016 RMK AO2 LTG DSNT W  T00290021,,,,,,35.39,,N,29.5,29.64,,Clear
KIGQ,05/08/2017 12:35 UTC,30.16,40.64,37.58,86.89,0.0,0.0,,,,,,1.0,,,,10.0,,KIGQ 081235Z AUTO 00000KT 10SM CLR 05/03 A3016 RMK AO2  T00480031,,,,,,36.99,,N,29.5,29.59,,Clear
KIGQ,05/08/2017 12:55 UTC,30.16,43.52,34.52,70.27,3.44,60.0,,,,,,1.0,,,,10.0,,KIGQ 081255Z AUTO 06003KT 10SM CLR 06/01 A3016 RMK AO2  T00640014,,,,,,34.37,,ENE,29.5,29.62,,Clear
KIGQ,05/08/2017 13:15 UTC,30.16,45.14,34.16,65.6,3.44,40.0,,,,,,902.0,,,,10.0,,KIGQ 081315Z AUTO 04003KT 10SM SCT090 07/01 A3016 RMK AO2  T00730012,,,,,,34.18,,NE,29.5,29.61,,Partly Cloudy
KIGQ,05/08/2017 13:40 UTC,30.17,46.58,31.64,56.99,3.44,20.0,,,,,,903.0,,,,10.0,,KIGQ 081340Z AUTO 02003KT 10SM BKN090 08/00 A3017 RMK AO2  T00811002,,,9000.0,,,32.01,,NNE,29.51,29.65,,Mostly Cloudy
KIGQ,05/08/2017 13:55 UTC,30.18,47.12,31.82,56.99,3.44,30.0,,,,,,903.0,,,,10.0,,KIGQ 081355Z AUTO 03003KT 10SM BKN090 08/00 A3018 RMK AO2  T00841001,,,9000.0,,,32.51,,NNE,29.52,29.65,,Mostly Cloudy
KIGQ,05/08/2017 14:15 UTC,30.18,47.66,28.58,46.0,0.0,0.0,,,,,,1.0,,,,10.0,,KIGQ 081415Z AUTO 00000KT 10SM CLR 09/M02 A3018 RMK AO2  T00871019,,,,,,27.71,,N,29.52,29.73,,Clear
KIGQ,05/08/2017 14:35 UTC,30.18,49.1,29.12,43.01,4.61,30.0,,,,,,952.0,,,,10.0,,KIGQ 081435Z AUTO 03004KT 10SM SCT095 10/M02 A3018 RMK AO2  T00951016,,,,,,27.38,,NNE,29.52,29.72,,Partly Cloudy
KIGQ,05/08/2017 14:55 UTC,30.18,49.82,30.38,46.29,0.0,0.0,,,,,,952.0,,,,10.0,,KIGQ 081455Z AUTO 00000KT 10SM SCT095 10/M01 A3018 RMK AO2  T00991009,,,,,,29.84,,N,29.52,29.68,,Partly Cloudy
KIGQ,05/08/2017 15:15 UTC,30.18,49.46,28.58,43.01,0.0,0.0,,,,,,1002.0,,,,10.0,,KIGQ 081515Z AUTO 00000KT 10SM SCT100 10/M02 A3018 RMK AO2 LTG  DSNT W T00971019,,,,,,27.71,,N,29.52,29.72,,Partly Cloudy
KIGQ,05/08/2017 15:35 UTC,30.17,50.9,31.1,46.59,5.75,110.0,,,,,,1002.0,,,,10.0,,KIGQ 081535Z AUTO 11005KT 10SM SCT100 11/00 A3017 RMK AO2  T01051005,,,,,,30.99,,ESE,29.51,29.64,,Partly Cloudy
KIGQ,05/08/2017 15:55 UTC,30.17,51.26,29.84,43.31,0.0,0.0,,,,,,1.0,,,,10.0,,KIGQ 081555Z AUTO 00000KT 10SM CLR 11/M01 A3017 RMK AO2  T01071012,,,,,,29.52,,N,29.51,29.67,,Clear
KIGQ,05/08/2017 16:15 UTC,30.16,52.52,31.64,46.59,4.61,40.0,,,,,,1.0,,,,10.0,,KIGQ 081615Z AUTO 04004KT 10SM CLR 11/00 A3016 RMK AO2  T01141002,,,,,,32.48,,NE,29.5,29.59,,Clear
KIGQ,05/08/2017 16:35 UTC,30.16,51.98,30.38,43.31,5.75,20.0,,,,,,1.0,,,,10.0,,KIGQ 081635Z AUTO 02005KT 10SM CLR 11/M01 A3016 RMK AO2  T01111009,,,,,,30.17,,NNE,29.5,29.64,,Clear
KIGQ,05/08/2017 16:55 UTC,30.15,52.16,31.1,46.59,5.75,10.0,,,,,,1.0,,,,10.0,,KIGQ 081655Z AUTO 01005KT 10SM CLR 11/00 A3015 RMK AO2  T01121005,,,,,,32.15,,N,29.49,29.59,,Clear
KIGQ,05/08/2017 17:15 UTC,30.15,52.88,31.82,43.61,6.91,20.0,,,,,,1.0,,,,10.0,,KIGQ 081715Z AUTO 02006KT 10SM CLR 12/00 A3015 RMK AO2  T01161001,,,,,,31.16,,NNE,29.49,29.61,,Clear
KIGQ,05/08/2017 17:35 UTC,30.13,52.16,31.82,46.59,6.91,30.0,,,,,,1.0,,,,10.0,,KIGQ 081735Z AUTO 03006KT 10SM CLR 11/00 A3013 RMK AO2  T01121001,,,,,,32.15,,NNE,29.47,29.57,,Clear
KIGQ,05/08/2017 17:55 UTC,30.13,52.7,32.54,43.61,6.91,30.0,,,,,,1.0,,,,10.0,,KIGQ 081755Z AUTO 03006KT 10SM CLR 12/00 A3013 RMK AO2 T01150003  10118 20017,53.24,35.06,,,,31.0,,NNE,29.47,29.59,,Clear
KIGQ,05/08/2017 18:15 UTC,30.13,53.6,32.54,43.61,5.75,40.0,,,,,,1.0,,,,10.0,,KIGQ 081815Z AUTO 04005KT 10SM CLR 12/00 A3013 RMK AO2  T01200003,,,,,,31.82,,NE,29.47,29.57,,Clear
KIGQ,05/08/2017 18:35 UTC,30.11,53.6,32.9,46.88,8.05,40.0,,,,,,1.0,,,,10.0,,KIGQ 081835Z AUTO 04007KT 10SM CLR 12/01 A3011 RMK AO2  T01200005,,,,,,33.63,,NE,29.46,29.52,,Clear
KIGQ,05/08/2017 18:55 UTC,30.11,53.42,32.54,43.61,8.05,20.0,,,,,,952.0,,,,10.0,,KIGQ 081855Z AUTO 02007KT 10SM SCT095 12/00 A3011 RMK AO2  T01190003,,,,,,31.66,,NNE,29.46,29.56,,Partly Cloudy
KIGQ,05/08/2017 19:15 UTC,30.1,54.14,34.52,46.88,6.91,60.0,,,,,,1.0,,,,10.0,,KIGQ 081915Z AUTO 06006KT 10SM CLR 12/01 A3010 RMK AO2  T01230014,,,,,,34.12,,ENE,29.45,29.5,,Clear
KIGQ,05/08/2017 19:35 UTC,30.09,54.5,33.98,43.9,8.05,40.0,,,,,,1.0,,,,10.0,,KIGQ 081935Z AUTO 04007KT 010V070 10SM CLR 13/01 A3009 RMK AO2  T01250011,,,,,,32.81,,NE,29.44,29.51,,Clear
KIGQ,05/08/2017 19:55 UTC,30.08,54.5,33.62,43.9,8.05,50.0,,,,,,702.0,902.0,,,10.0,,KIGQ 081955Z AUTO 05007KT 010V070 10SM SCT070 SCT090 13/01  A3008 RMK AO2 T01250009,,,,,,32.81,,NE,29.43,29.5,,Partly Cloudy
KIGQ,05/08/2017 20:15 UTC,30.08,54.68,33.98,43.9,8.05,40.0,,,,,,1.0,,,,10.0,,KIGQ 082015Z AUTO 04007KT 10SM CLR 13/01 A3008 RMK AO2  T01260011,,,,,,32.97,,NE,29.43,29.5,,Clear
KIGQ,05/08/2017 20:35 UTC,30.06,54.32,33.98,46.88,8.05,40.0,,,,,,1.0,,,,10.0,,KIGQ 082035Z AUTO 04007KT 10SM CLR 12/01 A3006 RMK AO2  T01240011,,,,,,34.29,,NE,29.41,29.46,,Clear
KIGQ,05/08/2017 20:55 UTC,30.06,53.78,33.08,46.88,9.22,40.0,,,,,,1.0,,,,10.0,,KIGQ 082055Z AUTO 04008KT 10SM CLR 12/01 A3006 RMK AO2  T01210006,,,,,,33.79,,NE,29.41,29.47,,Clear
KIGQ,05/08/2017 21:15 UTC,30.06,53.78,33.44,46.88,8.05,50.0,,,,,,1.0,,,,10.0,,KIGQ 082115Z AUTO 05007KT 10SM CLR 12/01 A3006 RMK AO2  T01210008,,,,,,33.79,,NE,29.41,29.47,,Clear
KIGQ,05/08/2017 21:35 UTC,30.05,52.7,32.36,43.61,10.36,50.0,,,,,,1.0,,,,10.0,,KIGQ 082135Z AUTO 05009KT 10SM CLR 12/00 A3005 RMK AO2  T01150002,,,,,,31.0,,NE,29.4,29.52,,Clear
KIGQ,05/08/2017 21:55 UTC,30.05,52.34,32.0,46.59,9.22,40.0,,,,,,1.0,,,,10.0,,KIGQ 082155Z AUTO 04008KT 10SM CLR 11/00 A3005 RMK AO2  T01130000,,,,,,32.32,,NE,29.4,29.5,,Clear
KIGQ,05/08/2017 22:15 UTC,30.04,52.52,31.64,46.59,11.5,60.0,,,,,,1.0,,,,10.0,,KIGQ 082215Z AUTO 06010KT 10SM CLR 11/00 A3004 RMK AO2  T01141002,,,,,,32.48,,ENE,29.39,29.48,,Clear
KIGQ,05/08/2017 22:35 UTC,30.04,49.46,30.92,46.29,10.36,40.0,,,,,,1.0,,,,10.0,,KIGQ 082235Z AUTO 04009KT 10SM CLR 10/M01 A3004 RMK AO2  T00971006,,,,,,29.51,,NE,29.39,29.55,,Clear
KIGQ,05/08/2017 22:55 UTC,30.05,49.1,30.2,46.29,8.05,60.0,,,,,,1.0,,,,10.0,,KIGQ 082255Z AUTO 06007KT 10SM CLR 10/M01 A3005 RMK AO2  T00951010,,,,,,29.18,,ENE,29.4,29.57,,Clear
KIGQ,05/08/2017 23:15 UTC,30.06,49.1,32.0,49.8,9.22,30.0,,,,,,1.0,,,,10.0,,KIGQ 082315Z AUTO 03008KT 10SM CLR 10/00 A3006 RMK AO2  T00950000,,,,,,30.99,,NNE,29.41,29.55,,Clear
KIGQ,05/08/2017 23:35 UTC,30.06,48.2,32.0,53.26,9.22,30.0,,,,,,1.0,,,,10.0,,KIGQ 082335Z AUTO 03008KT 10SM CLR 09/00 A3006 RMK AO2  T00900000,,,,,,31.83,,NNE,29.41,29.54,,Clear
KIGQ,05/08/2017 23:55 UTC,30.06,47.3,32.18,53.26,5.75,50.0,,,,,,652.0,,,,10.0,,KIGQ 082355Z AUTO 05005KT 10SM SCT065 09/00 A3006 RMK AO2  T00850001 10127 20085,54.86,47.3,,,,30.99,,NE,29.41,29.56,,Partly Cloudy
KIGQ,05/09/2017 00:15 UTC,30.05,46.58,32.18,56.99,8.05,50.0,,,,,,652.0,,,,10.0,,KIGQ 090015Z AUTO 05007KT 10SM SCT065 08/00 A3005 RMK AO2  T00810001,,,,,,32.01,,NE,29.4,29.54,,Partly Cloudy
KIGQ,05/09/2017 00:35 UTC,30.04,46.04,32.54,56.99,8.05,60.0,,,,,,1.0,,,,10.0,,KIGQ 090035Z AUTO 06007KT 10SM CLR 08/00 A3004 RMK AO2  T00780003,,,,,,31.5,,ENE,29.39,29.54,,Clear
KIGQ,05/09/2017 00:55 UTC,30.04,45.86,33.26,61.27,6.91,60.0,,,,,,1.0,,,,10.0,,KIGQ 090055Z AUTO 06006KT 10SM CLR 08/01 A3004 RMK AO2  T00770007,,,,,,33.14,,ENE,29.39,29.51,,Clear
KIGQ,05/09/2017 01:15 UTC,30.04,45.5,32.72,56.99,5.75,40.0,,,,,,1202.0,,,,10.0,,KIGQ 090115Z AUTO 04005KT 10SM SCT120 08/00 A3004 RMK AO2  T00750004,,,,,,30.99,,NE,29.39,29.55,,Partly Cloudy
KIGQ,05/09/2017 01:35 UTC,30.03,45.68,32.0,56.99,4.61,70.0,,,,,,852.0,1203.0,,,10.0,,KIGQ 090135Z AUTO 07004KT 10SM SCT085 BKN120 08/00 A3003 RMK AO2  T00760000,,,12000.0,,,31.16,,ENE,29.38,29.54,,Mostly Cloudy
KIGQ,05/09/2017 01:55 UTC,30.02,46.22,32.9,61.27,5.75,80.0,,,,,,852.0,1203.0,,,10.0,,KIGQ 090155Z AUTO 08005KT 10SM SCT085 BKN120 08/01 A3002 RMK AO2  T00790005,,,12000.0,,,33.49,,E,29.37,29.48,,Mostly Cloudy
KIGQ,05/09/2017 02:15 UTC,30.02,46.58,32.54,56.99,4.61,60.0,,,,,,753.0,1204.0,,,10.0,,KIGQ 090215Z AUTO 06004KT 10SM BKN075 OVC120 08/00 A3002 RMK AO2  T00810003,,,7500.0,,,32.01,,ENE,29.37,29.51,,Overcast
KIGQ,05/09/2017 02:35 UTC,30.03,46.76,29.66,52.98,0.0,0.0,,,,,,753.0,1104.0,,,10.0,,KIGQ 090235Z AUTO 00000KT 10SM BKN075 OVC110 08/M01 A3003 RMK AO2  T00821013,,,7500.0,,,30.36,,N,29.38,29.55,,Overcast
KIGQ,05/09/2017 02:55 UTC,30.03,46.58,31.64,56.99,4.61,60.0,,,1103.0,,,602.0,752.0,,,10.0,,KIGQ 090255Z AUTO 06004KT 10SM SCT060 SCT075 BKN110 08/00  A3003 RMK AO2 T00811002,,,11000.0,,,32.01,,ENE,29.38,29.52,,Mostly Cloudy
KIGQ,05/09/2017 03:15 UTC,30.03,46.76,32.0,56.99,3.44,50.0,,13.0,,,,1104.0,,,,10.0,,KIGQ 090315Z AUTO 05003KT 10SM -RA OVC110 08/00 A3003 RMK AO2  T00820000,,,11000.0,,,32.18,,NE,29.38,29.51,,Light Rain
KIGQ,05/09/2017 03:35 UTC,30.02,46.76,33.44,61.27,4.61,50.0,,13.0,,,,1104.0,,,,10.0,,KIGQ 090335Z AUTO 05004KT 10SM -RA OVC110 08/01 A3002 RMK AO2  T00820008,,,11000.0,,,34.0,,NE,29.37,29.47,,Light Rain
KIGQ,05/09/2017 03:55 UTC,30.01,46.4,34.7,65.82,3.44,60.0,,13.0,,,,852.0,1104.0,,,10.0,,KIGQ 090355Z AUTO 06003KT 10SM -RA SCT085 OVC110 08/02 A3001 RMK AO2 T00800015,,,11000.0,,,35.47,,ENE,29.36,29.43,,Light Rain
KIGQ,05/09/2017 04:15 UTC,30.03,45.5,35.78,65.82,4.61,20.0,,13.0,,,,1004.0,,,,10.0,,KIGQ 090415Z AUTO 02004KT 10SM -RA OVC100 08/02 A3003 RMK AO2  T00750021,,,10000.0,,,34.61,,NNE,29.38,29.48,,Light Rain
KIGQ,05/09/2017 04:35 UTC,30.03,44.96,38.84,81.2,6.91,30.0,,13.0,,,,1004.0,,,,10.0,,KIGQ 090435Z AUTO 03006KT 10SM -RA OVC100 07/04 A3003 RMK AO2 LTG  DSNT W T00720038,,,10000.0,,,39.48,,NNE,29.38,29.38,,Light Rain
KIGQ,05/09/2017 04:55 UTC,30.02,44.96,39.38,81.2,8.05,50.0,,,,,,1004.0,,,,10.0,,KIGQ 090455Z AUTO 05007KT 10SM OVC100 07/04 A3002 RMK AO2  T00720041,,,10000.0,,,39.48,42.3,NE,29.37,29.37,,Overcast
KIGQ,05/09/2017 05:15 UTC,30.01,44.78,40.1,87.09,6.91,40.0,,,,,,1004.0,,,,10.0,,KIGQ 090515Z AUTO 04006KT 10SM -VCTSRA OVC100 07/05 A3001 RMK AO2  LTG DSNT W T00710045,,,10000.0,,,41.13,,NE,29.36,29.32,,Overcast
KIGQ,05/09/2017 05:35 UTC,30.01,44.24,40.28,87.09,5.75,60.0,,13.0,,,,904.0,,,,10.0,,KIGQ 090535Z AUTO 06005KT 10SM -RA OVC090 07/05 A3001 RMK AO2 LTG  DSNT W T00680046,,,9000.0,,,40.6,,ENE,29.36,29.34,,Light Rain
KIGQ,05/09/2017 05:55 UTC,30.01,44.06,40.46,87.09,5.75,70.0,,,,,,503.0,904.0,,,10.0,,KIGQ 090555Z AUTO 07005KT 10SM BKN050 OVC090 07/05 A3001 RMK AO2  T00670047 10085 20067 401271011,47.3,44.06,5000.0,54.86,30.02,40.42,,ENE,29.36,29.34,,Overcast
KIGQ,05/09/2017 06:15 UTC,30.01,43.88,40.46,87.09,4.61,80.0,,,,,,504.0,,,,10.0,,KIGQ 090615Z AUTO 08004KT 10SM OVC050 07/05 A3001 RMK AO2 LTG DSNT  SW T00660047,,,5000.0,,,40.24,,E,29.36,29.35,,Overcast
KIGQ,05/09/2017 06:35 UTC,30.0,44.06,40.82,87.09,3.44,90.0,,,,,,503.0,804.0,,,10.0,,KIGQ 090635Z AUTO 09003KT 10SM BKN050 OVC080 07/05 A3000 RMK AO2  LTG DSNT W T00670049,,,5000.0,,,40.42,,E,29.35,29.33,,Overcast
KIGQ,05/09/2017 06:55 UTC,29.99,44.06,41.0,87.09,0.0,0.0,,,,,,803.0,1004.0,,,10.0,,KIGQ 090655Z AUTO 00000KT 10SM BKN080 OVC100 07/05 A2999 RMK AO2  LTG DSNT W T00670050,,,8000.0,,,40.42,,N,29.34,29.32,,Overcast
KIGQ,05/09/2017 07:15 UTC,29.98,44.06,40.1,87.09,4.61,100.0,,5.0,,,,803.0,1004.0,,,10.0,,KIGQ 090715Z AUTO 10004KT 10SM VCTS BKN080 OVC100 07/05 A2998 RMK AO2 T00670045,,,8000.0,,,40.42,,E,29.33,29.31,,Thunder
KIGQ,05/09/2017 07:35 UTC,29.97,44.24,39.56,81.2,4.61,80.0,,,,,,802.0,1004.0,,,10.0,,KIGQ 090735Z AUTO 08004KT 10SM SCT080 OVC100 07/04 A2997 RMK AO2  T00680042,,,10000.0,,,38.78,,E,29.32,29.34,,Overcast
KIGQ,05/09/2017 07:55 UTC,29.96,44.78,37.4,75.67,4.61,100.0,,,,,,1004.0,,,,10.0,,KIGQ 090755Z AUTO 10004KT 10SM OVC100 07/03 A2996 RMK AO2 LTG DSNT  SW AND W T00710030,,,10000.0,,,37.48,,E,29.31,29.35,,Overcast
KIGQ,05/09/2017 08:15 UTC,29.96,45.14,36.14,70.47,4.61,110.0,,,,,,1004.0,,,,10.0,,KIGQ 090815Z AUTO 11004KT 10SM OVC100 07/02 A2996 RMK AO2 LTG DSNT  SW AND W T00730023,,,10000.0,,,36.0,,ESE,29.31,29.38,,Overcast
KIGQ,05/09/2017 08:35 UTC,29.98,45.32,33.62,65.6,0.0,0.0,,,,,,1004.0,,,,10.0,,KIGQ 090835Z AUTO 00000KT 10SM OVC100 07/01 A2998 RMK AO2 LTG DSNT  SW T00740009,,,10000.0,,,34.36,,N,29.33,29.43,,Overcast
KIGQ,05/09/2017 08:55 UTC,29.98,44.96,35.96,70.47,0.0,0.0,,13.0,,,,603.0,1004.0,,,10.0,,KIGQ 090855Z AUTO 00000KT 10SM -RA BKN060 OVC100 07/02 A2998 RMK AO2 LTG DSNT S AND W T00720022,,,6000.0,,,35.83,,N,29.33,29.41,,Light Rain
KIGQ,05/09/2017 09:15 UTC,29.99,43.88,38.48,81.2,0.0,0.0,,14.0,,,,343.0,604.0,,,7.0,,KIGQ 090915Z AUTO 00000KT 7SM +RA BKN034 OVC060 07/04 A2999 RMK AO2 LTG DSNT S THRU W T00660036,,,3400.0,,,38.42,,N,29.34,29.37,,Heavy Rain
KIGQ,05/09/2017 09:35 UTC,29.99,42.44,39.38,86.99,4.61,40.0,,14.0,,0.07,,344.0,,,,4.0,,KIGQ 090935Z AUTO 04004KT 4SM +RA OVC034 06/04 A2999 RMK AO2 LTG  DSNT S P0007 T00580041,,,3400.0,,,38.8,,NE,29.34,29.37,,Heavy Rain
KIGQ,05/09/2017 09:55 UTC,29.94,41.36,37.58,86.89,8.05,80.0,,1.0,954.0,0.15,,342.0,753.0,,,7.0,,KIGQ 090955Z AUTO 08007KT 7SM RA SCT034 BKN075 OVC095 05/03  A2994 RMK AO2 LTG DSNT SE THRU W P0015 T00520031,,,7500.0,,,37.7,38.07,E,29.29,29.35,,Rain
KIGQ,05/09/2017 10:15 UTC,29.97,41.72,37.4,86.89,0.0,0.0,,1.0,954.0,0.02,,373.0,703.0,,,5.0,,KIGQ 091015Z AUTO 00000KT 5SM RA BKN037 BKN070 OVC095 05/03  A2997 RMK AO2 LTG DSNT SE AND W P0002 T00540030,,,3700.0,,,38.06,,N,29.32,29.37,,Rain
KIGQ,05/09/2017 10:35 UTC,29.96,41.18,38.12,86.89,0.0,0.0,,1.0,,0.06,,374.0,,,,4.0,,KIGQ 091035Z AUTO 00000KT 4SM RA OVC037 05/03 A2996 RMK AO2 P0006  T00510034,,,3700.0,,,37.53,,N,29.31,29.38,,Rain
KIGQ,05/09/2017 10:55 UTC,29.96,41.18,38.66,93.24,3.44,60.0,,1.0,,0.07,,394.0,,,,7.0,,KIGQ 091055Z AUTO 06003KT 7SM RA OVC039 05/04 A2996 RMK AO2 P0007  T00510037,,,3900.0,,,39.35,,ENE,29.31,29.34,,Rain
KIGQ,05/09/2017 11:15 UTC,29.95,41.0,38.3,93.24,5.75,110.0,,13.0,,,,334.0,,,,7.0,,KIGQ 091115Z AUTO 11005KT 7SM -RA OVC033 05/04 A2995 RMK AO2 LTG  DSNT SE AND SW T00500035,,,3300.0,,,39.17,,ESE,29.3,29.34,,Light Rain
KIGQ,05/09/2017 11:35 UTC,29.95,41.0,38.66,93.24,5.75,120.0,,13.0,,,,314.0,,,,10.0,,KIGQ 091135Z AUTO 12005KT 10SM -RA OVC031 05/04 A2995 RMK AO2  T00500037,,,3100.0,,,39.17,,ESE,29.3,29.34,,Light Rain
KIGQ,05/09/2017 11:55 UTC,29.94,41.0,39.2,93.24,6.91,110.0,,1.0,,0.01,,294.0,,0.23,0.23,10.0,,KIGQ 091155Z AUTO 11006KT 10SM RA OVC029 05/04 A2994 RMK AO2 P0001  60023 70023 T00500040 10075 20050,45.5,41.0,2900.0,,,39.17,,ESE,29.29,29.33,,Rain
KIGQ,05/09/2017 12:15 UTC,29.97,41.18,38.66,93.24,3.44,140.0,,13.0,,0.01,,274.0,,,,10.0,,KIGQ 091215Z AUTO 14003KT 10SM -RA OVC027 05/04 A2997 RMK AO2  P0001 T00510037,,,2700.0,,,39.35,,SE,29.32,29.35,,Light Rain
KIGQ,05/09/2017 12:35 UTC,29.96,41.36,39.02,93.24,4.61,110.0,,13.0,,0.01,,274.0,,,,10.0,,KIGQ 091235Z AUTO 11004KT 10SM -RA OVC027 05/04 A2996 RMK AO2 LTG  DSNT S P0001 T00520039,,,2700.0,,,39.53,,ESE,29.31,29.34,,Light Rain
KIGQ,05/09/2017 12:55 UTC,29.95,41.72,39.38,93.24,5.75,100.0,,13.0,,0.01,,254.0,,,,10.0,,KIGQ 091255Z AUTO 10005KT 10SM -RA OVC025 05/04 A2995 RMK AO2 LTG  DSNT S P0001 T00540041,,,2500.0,,,39.89,,E,29.3,29.31,,Light Rain
KIGQ,05/09/2017 13:15 UTC,29.98,41.9,39.38,86.99,3.44,110.0,,13.0,,,,254.0,,,,10.0,,KIGQ 091315Z AUTO 11003KT 10SM -RA OVC025 06/04 A2998 RMK AO2  T00550041,,,2500.0,,,38.26,,ESE,29.33,29.38,,Light Rain
KIGQ,05/09/2017 13:35 UTC,29.97,42.26,40.28,93.3,4.61,100.0,,13.0,,,,254.0,,,,10.0,,KIGQ 091335Z AUTO 10004KT 10SM -RA OVC025 06/05 A2997 RMK AO2  T00570046,,,2500.0,,,40.44,,E,29.32,29.32,,Light Rain
KIGQ,05/09/2017 13:55 UTC,29.96,42.8,40.28,93.3,6.91,80.0,,13.0,,,,234.0,,,,10.0,,KIGQ 091355Z AUTO 08006KT 10SM -RA OVC023 06/05 A2996 RMK AO2  T00600046,,,2300.0,,,40.98,,E,29.31,29.29,,Light Rain
KIGQ,05/09/2017 14:15 UTC,29.96,42.98,41.18,93.3,4.61,80.0,,,,,,234.0,,,,10.0,,KIGQ 091415Z AUTO 08004KT 10SM OVC023 06/05 A2996 RMK AO2 LTG DSNT  SE T00610051,,,2300.0,,,41.15,,E,29.31,29.29,,Overcast
KIGQ,05/09/2017 14:35 UTC,29.97,43.34,40.82,93.3,6.91,80.0,,,,,,234.0,,,,10.0,,KIGQ 091435Z AUTO 08006KT 10SM OVC023 06/05 A2997 RMK AO2  T00630049,,,2300.0,,,41.51,,E,29.32,29.28,,Overcast
KIGQ,05/09/2017 14:55 UTC,29.96,43.7,41.0,87.09,5.75,90.0,,,,,0.01,214.0,,,,10.0,,KIGQ 091455Z AUTO 09005KT 10SM OVC021 07/05 A2996 RMK AO2 60001  T00650050,,,2100.0,,,40.07,,E,29.31,29.3,,Overcast
KIGQ,05/09/2017 15:15 UTC,29.98,44.06,40.82,87.09,5.75,110.0,,,,,,214.0,,,,10.0,,KIGQ 091515Z AUTO 11005KT 10SM OVC021 07/05 A2998 RMK AO2  T00670049,,,2100.0,,,40.42,,ESE,29.33,29.31,,Overcast
KIGQ,05/09/2017 15:35 UTC,29.97,44.6,41.36,87.09,6.91,110.0,,,,,,214.0,,,,10.0,,KIGQ 091535Z AUTO 11006KT 10SM OVC021 07/05 A2997 RMK AO2  T00700052,,,2100.0,,,40.95,,ESE,29.32,29.29,,Overcast
KIGQ,05/09/2017 15:55 UTC,29.98,45.14,41.72,87.09,5.75,100.0,,,,,,214.0,,,,10.0,,KIGQ 091555Z AUTO 10005KT 10SM OVC021 07/05 A2998 RMK AO2  T00730054,,,2100.0,,,41.48,,E,29.33,29.28,,Overcast
KIGQ,05/09/2017 16:15 UTC,29.99,46.04,42.44,87.19,6.91,110.0,,,,,,214.0,,,,10.0,,KIGQ 091615Z AUTO 11006KT 10SM OVC021 08/06 A2999 RMK AO2  T00780058,,,2100.0,,,42.4,,ESE,29.34,29.26,,Overcast
KIGQ,05/09/2017 16:35 UTC,29.98,46.76,43.16,87.19,6.91,110.0,,,,,,214.0,,,,10.0,,KIGQ 091635Z AUTO 11006KT 10SM OVC021 08/06 A2998 RMK AO2  T00820062,,,2100.0,,,43.11,,ESE,29.33,29.22,,Overcast
KIGQ,05/09/2017 16:55 UTC,29.98,47.48,43.7,87.28,5.75,100.0,,,,,,214.0,,,,10.0,,KIGQ 091655Z AUTO 10005KT 10SM OVC021 09/07 A2998 RMK AO2  T00860065,,,2100.0,,,43.85,,E,29.33,29.2,,Overcast
KIGQ,05/09/2017 17:15 UTC,29.98,48.2,43.88,87.28,6.91,110.0,,,,,,214.0,,,,10.0,,KIGQ 091715Z AUTO 11006KT 10SM OVC021 09/07 A2998 RMK AO2  T00900066,,,2100.0,,,44.55,,ESE,29.33,29.17,,Overcast
KIGQ,05/09/2017 17:35 UTC,29.98,49.82,44.42,81.61,6.91,110.0,,,,,,214.0,,,,10.0,,KIGQ 091735Z AUTO 11006KT 10SM OVC021 10/07 A2998 RMK AO2  T00990069,,,2100.0,,,44.36,,ESE,29.33,29.16,,Overcast
KIGQ,05/09/2017 17:55 UTC,29.97,50.36,45.14,81.61,9.22,120.0,,,,,,234.0,,0.01,,10.0,,KIGQ 091755Z AUTO 12008KT 10SM OVC023 10/07 A2997 RMK AO2 60001  T01020073 10103 20050,50.54,41.0,2300.0,,,44.89,,ESE,29.32,29.13,,Overcast
KIGQ,05/09/2017 18:15 UTC,29.97,51.26,45.68,81.75,8.05,100.0,,,,,,234.0,,,,10.0,,KIGQ 091815Z AUTO 10007KT 10SM OVC023 11/08 A2997 RMK AO2  T01070076,,,2300.0,,,45.81,,E,29.32,29.1,,Overcast
KIGQ,05/09/2017 18:35 UTC,29.97,51.8,45.68,81.75,5.75,110.0,,,,,,234.0,,,,10.0,,KIGQ 091835Z AUTO 11005KT 10SM OVC023 11/08 A2997 RMK AO2  T01100076,,,2300.0,,,46.34,,ESE,29.32,29.08,,Overcast
KIGQ,05/09/2017 18:55 UTC,29.96,52.52,46.04,81.75,4.61,90.0,,,,,,234.0,,,,10.0,,KIGQ 091855Z AUTO 09004KT 10SM OVC023 11/08 A2996 RMK AO2  T01140078,,,2300.0,,,47.05,,E,29.31,29.04,,Overcast
KIGQ,05/09/2017 19:15 UTC,29.96,53.78,47.12,76.52,5.75,80.0,,,,,,234.0,,,,10.0,,KIGQ 091915Z AUTO 08005KT 10SM OVC023 12/08 A2996 RMK AO2  T01210084,,,2300.0,,,46.5,,E,29.31,29.04,,Overcast
KIGQ,05/09/2017 19:35 UTC,29.96,54.14,46.76,76.52,3.44,110.0,,,,,,233.0,354.0,,,10.0,,KIGQ 091935Z AUTO 11003KT 10SM BKN023 OVC035 12/08 A2996 RMK AO2  T01230082,,,2300.0,,,46.85,,ESE,29.31,29.03,,Overcast
KIGQ,05/09/2017 19:55 UTC,29.95,55.4,48.2,76.68,6.91,100.0,,,,,,253.0,374.0,,,10.0,,KIGQ 091955Z AUTO 10006KT 10SM BKN025 OVC037 13/09 A2995,,,2500.0,,,48.13,,E,29.3,28.97,,Overcast
KIGQ,05/09/2017 20:15 UTC,29.94,56.3,48.2,71.85,6.91,110.0,,,,,,232.0,394.0,,,10.0,,KIGQ 092015Z AUTO 11006KT 10SM SCT023 OVC039 14/09 A2994 RMK AO2  T01350090,,,3900.0,,,47.25,,ESE,29.29,28.98,,Overcast
KIGQ,05/09/2017 20:35 UTC,29.93,56.48,48.02,71.85,8.05,130.0,,,,,,233.0,394.0,,,10.0,,KIGQ 092035Z AUTO 13007KT 10SM BKN023 OVC039 14/09 A2993 RMK AO2  T01360089,,,2300.0,,,47.43,,SE,29.28,28.96,,Overcast
KIGQ,05/09/2017 20:55 UTC,29.92,56.66,48.02,71.85,9.22,100.0,,,,,,234.0,,,,10.0,,KIGQ 092055Z AUTO 10008KT 10SM OVC023 14/09 A2992 RMK AO2  T01370089,,,2300.0,,,47.6,,E,29.27,28.94,,Overcast
KIGQ,05/09/2017 21:15 UTC,29.92,57.38,49.1,76.85,5.75,120.0,,,,,,233.0,384.0,,,10.0,,KIGQ 092115Z AUTO 12005KT 10SM BKN023 OVC038 14/10 A2992 RMK AO2  T01410095,,,2300.0,,,50.11,,ESE,29.27,28.85,,Overcast
KIGQ,05/09/2017 21:35 UTC,29.91,57.74,50.0,76.85,6.91,100.0,,,,,,212.0,384.0,,,10.0,,KIGQ 092135Z AUTO 10006KT 10SM SCT021 OVC038 14/10 A2991 RMK AO2  T01430100,,,3800.0,,,50.46,,E,29.26,28.82,,Overcast
KIGQ,05/09/2017 21:55 UTC,29.92,58.1,51.08,77.01,3.44,130.0,,,,,,364.0,,,,10.0,,KIGQ 092155Z AUTO 13003KT 10SM OVC036 15/11 A2992 RMK AO2  T01450106,,,3600.0,,,50.87,,SE,29.27,28.81,,Overcast
KIGQ,05/09/2017 22:15 UTC,29.92,58.46,51.98,77.01,6.91,150.0,,,,,,364.0,,,,10.0,,KIGQ 092215Z AUTO 15006KT 10SM OVC036 15/11 A2992 RMK AO2  T01470111,,,3600.0,,,51.22,,SSE,29.27,28.79,,Overcast
KIGQ,05/09/2017 22:35 UTC,29.91,58.64,52.34,77.01,8.05,110.0,,,,,,372.0,434.0,,,10.0,,KIGQ 092235Z AUTO 11007KT 10SM SCT037 OVC043 15/11 A2991 RMK AO2  T01480113,,,4300.0,,,51.39,,ESE,29.26,28.78,,Overcast
KIGQ,05/09/2017 23:15 UTC,29.91,58.1,51.98,77.01,6.91,100.0,,,,,,363.0,,,,10.0,,KIGQ 092315Z AUTO 10006KT 10SM BKN036 15/11 A2991 RMK AO2  T01450111,,,3600.0,,,50.87,,E,29.26,28.8,,Mostly Cloudy
KIGQ,05/09/2017 23:35 UTC,29.91,57.38,49.82,76.85,3.44,40.0,,,,,,364.0,,,,10.0,,KIGQ 092335Z AUTO 04003KT 10SM OVC036 14/10 A2991 RMK AO2  T01410099,,,3600.0,,,50.11,,NE,29.26,28.84,,Overcast
KIGQ,05/09/2017 23:55 UTC,29.91,54.14,46.22,76.52,8.05,40.0,,,,,,344.0,,,,10.0,,KIGQ 092355Z AUTO 04007KT 10SM OVC034 12/08 A2991 RMK AO2  T01230079 10149 20102,58.82,50.36,3400.0,,,46.85,,NE,29.26,28.98,,Overcast
KIGQ,05/10/2017 00:15 UTC,29.92,52.7,44.06,71.47,8.05,40.0,,,,,,324.0,,,,10.0,,KIGQ 100015Z AUTO 04007KT 10SM OVC032 12/07 A2992 RMK AO2  T01150067,,,3200.0,,,43.64,,NE,29.27,29.1,,Overcast
KIGQ,05/10/2017 00:35 UTC,29.92,51.44,42.08,71.27,6.91,40.0,,,,,,324.0,,,,10.0,,KIGQ 100035Z AUTO 04006KT 10SM OVC032 11/06 A2992 RMK AO2  T01080056,,,3200.0,,,42.36,,NE,29.27,29.14,,Overcast
KIGQ,05/10/2017 00:55 UTC,29.93,50.36,40.64,71.08,8.05,50.0,,,,,,324.0,,,,10.0,,KIGQ 100055Z AUTO 05007KT 10SM OVC032 10/05 A2993 RMK AO2  T01020048,,,3200.0,,,41.25,,NE,29.28,29.19,,Overcast
KIGQ,05/10/2017 01:15 UTC,29.94,50.36,41.0,71.08,4.61,30.0,,,,,,304.0,,,,10.0,,KIGQ 100115Z AUTO 03004KT 10SM OVC030 10/05 A2994 RMK AO2  T01020050,,,3000.0,,,41.25,,NNE,29.29,29.2,,Overcast
KIGQ,05/10/2017 01:35 UTC,29.94,50.0,40.82,71.08,8.05,40.0,,,,,,304.0,,,,10.0,,KIGQ 100135Z AUTO 04007KT 10SM OVC030 10/05 A2994 RMK AO2  T01000049,,,3000.0,,,40.9,,NE,29.29,29.21,,Overcast
KIGQ,05/10/2017 01:55 UTC,29.94,50.0,39.74,66.27,6.91,50.0,,,,,,284.0,,,,10.0,,KIGQ 100155Z AUTO 05006KT 10SM OVC028 10/04 A2994 RMK AO2  T01000043,,,2800.0,,,39.08,,NE,29.29,29.26,,Overcast
KIGQ,05/10/2017 02:15 UTC,29.94,49.46,40.64,71.08,8.05,50.0,,,,,,284.0,,,,10.0,,KIGQ 100215Z AUTO 05007KT 10SM OVC028 10/05 A2994 RMK AO2  T00970048,,,2800.0,,,40.38,,NE,29.29,29.23,,Overcast
KIGQ,05/10/2017 02:35 UTC,29.94,49.1,40.46,71.08,4.61,40.0,,,,,,284.0,,,,10.0,,KIGQ 100235Z AUTO 04004KT 10SM OVC028 10/05 A2994 RMK AO2  T00950047,,,2800.0,,,40.04,,NE,29.29,29.24,,Overcast
KIGQ,05/10/2017 02:55 UTC,29.95,49.28,40.28,71.08,3.44,30.0,,,,,,264.0,,,,10.0,,KIGQ 100255Z AUTO 03003KT 10SM OVC026 10/05 A2995 RMK AO2  T00960046,,,2600.0,,,40.21,,NNE,29.3,29.25,,Overcast
KIGQ,05/10/2017 03:15 UTC,29.95,49.46,40.46,71.08,3.44,20.0,,,,,,264.0,,,,10.0,,KIGQ 100315Z AUTO 02003KT 10SM OVC026 10/05 A2995 RMK AO2  T00970047,,,2600.0,,,40.38,,NNE,29.3,29.24,,Overcast
KIGQ,05/10/2017 03:35 UTC,29.95,49.46,41.18,71.08,4.61,20.0,,,,,,244.0,,,,10.0,,KIGQ 100335Z AUTO 02004KT 10SM OVC024 10/05 A2995 RMK AO2  T00970051,,,2400.0,,,40.38,,NNE,29.3,29.24,,Overcast
KIGQ,05/10/2017 03:55 UTC,29.96,49.46,42.62,76.18,3.44,10.0,,,,,,244.0,,,,10.0,,KIGQ 100355Z AUTO 01003KT 10SM OVC024 10/06 A2996 RMK AO2  T00970059,,,2400.0,,,42.19,,N,29.31,29.2,,Overcast
KIGQ,05/10/2017 04:15 UTC,29.96,49.46,43.52,76.18,3.44,20.0,,,,,,244.0,,,,10.0,,KIGQ 100415Z AUTO 02003KT 10SM OVC024 10/06 A2996 RMK AO2  T00970064,,,2400.0,,,42.19,,NNE,29.31,29.2,,Overcast
KIGQ,05/10/2017 04:35 UTC,29.95,49.46,44.24,81.61,4.61,30.0,,,,,,244.0,,,,10.0,,KIGQ 100435Z AUTO 03004KT 10SM OVC024 10/07 A2995 RMK AO2  T00970068,,,2400.0,,,44.01,,NNE,29.3,29.15,,Overcast
KIGQ,05/10/2017 04:55 UTC,29.95,49.64,44.6,81.61,0.0,0.0,,,,,,224.0,,,,10.0,,KIGQ 100455Z AUTO 00000KT 10SM OVC022 10/07 A2995 RMK AO2  T00980070,,,2200.0,,,44.19,,N,29.3,29.14,,Overcast
KIGQ,05/10/2017 05:15 UTC,29.96,50.0,44.42,81.61,0.0,0.0,,,,,,224.0,,,,10.0,,KIGQ 100515Z AUTO 00000KT 10SM OVC022 10/07 A2996 RMK AO2  T01000069,,,2200.0,,,44.54,,N,29.31,29.14,,Overcast
KIGQ,05/10/2017 05:35 UTC,29.96,50.0,44.06,81.61,0.0,0.0,,,,,,204.0,,,,10.0,,KIGQ 100535Z AUTO 00000KT 10SM OVC020 10/07 A2996 RMK AO2  T01000067,,,2000.0,,,44.54,,N,29.31,29.14,,Overcast
KIGQ,05/10/2017 05:55 UTC,29.95,50.0,43.88,81.61,3.44,20.0,,,,,,204.0,,,,10.0,,KIGQ 100555Z AUTO 02003KT 10SM OVC020 10/07 A2995 RMK AO2  T01000066 10121 20095 401490050,53.78,49.1,2000.0,58.82,41.0,44.54,,NNE,29.3,29.13,,Overcast
KIGQ,05/10/2017 06:15 UTC,29.96,49.64,43.7,81.61,4.61,10.0,,,,,,224.0,,,,10.0,,KIGQ 100615Z AUTO 01004KT 10SM OVC022 10/07 A2996 RMK AO2  T00980065,,,2200.0,,,44.19,,N,29.31,29.15,,Overcast
KIGQ,05/10/2017 06:35 UTC,29.96,49.46,43.7,81.61,3.44,350.0,,,,,,224.0,,,,10.0,,KIGQ 100635Z AUTO 35003KT 10SM OVC022 10/07 A2996 RMK AO2  T00970065,,,2200.0,,,44.01,,N,29.31,29.16,,Overcast
KIGQ,05/10/2017 06:55 UTC,29.96,49.28,43.7,81.61,0.0,0.0,,,,,,204.0,,,,10.0,,KIGQ 100655Z AUTO 00000KT 10SM OVC020 10/07 A2996 RMK AO2  T00960065,,,2000.0,,,43.83,,N,29.31,29.16,,Overcast
KIGQ,05/10/2017 07:15 UTC,29.95,49.1,43.7,81.61,0.0,0.0,,,,,,224.0,,,,10.0,,KIGQ 100715Z AUTO 00000KT 10SM OVC022 10/07 A2995 RMK AO2  T00950065,,,2200.0,,,43.66,,N,29.3,29.16,,Overcast
KIGQ,05/10/2017 07:35 UTC,29.96,48.92,43.16,81.48,0.0,0.0,,,,,,244.0,,,,10.0,,KIGQ 100735Z AUTO 00000KT 10SM OVC024 09/06 A2996 RMK AO2  T00940062,,,2400.0,,,43.44,,N,29.31,29.18,,Overcast
KIGQ,05/10/2017 07:55 UTC,29.96,48.74,42.98,81.48,3.44,10.0,,,,,,244.0,,,,10.0,,KIGQ 100755Z AUTO 01003KT 10SM OVC024 09/06 A2996 RMK AO2  T00930061,,,2400.0,,,43.26,,N,29.31,29.18,,Overcast
KIGQ,05/10/2017 08:15 UTC,29.95,48.2,42.08,81.48,3.44,10.0,,,,,,244.0,,,,10.0,,KIGQ 100815Z AUTO 01003KT 10SM OVC024 09/06 A2995 RMK AO2  T00900056,,,2400.0,,,42.74,,N,29.3,29.19,,Overcast
KIGQ,05/10/2017 08:35 UTC,29.96,48.2,42.08,81.48,0.0,0.0,,,,,,244.0,,,,10.0,,KIGQ 100835Z AUTO 00000KT 10SM OVC024 09/06 A2996 RMK AO2  T00900056,,,2400.0,,,42.74,,N,29.31,29.2,,Overcast
KIGQ,05/10/2017 08:55 UTC,29.95,48.38,42.26,81.48,3.44,20.0,,,,,,244.0,,,,10.0,,KIGQ 100855Z AUTO 02003KT 10SM OVC024 09/06 A2995 RMK AO2  T00910057,,,2400.0,,,42.91,,NNE,29.3,29.18,,Overcast
KIGQ,05/10/2017 09:15 UTC,29.96,48.2,41.9,81.48,0.0,0.0,,,,,,244.0,,,,10.0,,KIGQ 100915Z AUTO 00000KT 10SM OVC024 09/06 A2996 RMK AO2  T00900055,,,2400.0,,,42.74,,N,29.31,29.2,,Overcast
KIGQ,05/10/2017 09:35 UTC,29.95,48.2,41.9,81.48,0.0,0.0,,,,,,244.0,,,,10.0,,KIGQ 100935Z AUTO 00000KT 10SM OVC024 09/06 A2995 RMK AO2  T00900055,,,2400.0,,,42.74,,N,29.3,29.19,,Overcast
KIGQ,05/10/2017 09:55 UTC,29.96,47.48,41.72,76.02,0.0,0.0,,,,,,244.0,,,,10.0,,KIGQ 100955Z AUTO 00000KT 10SM OVC024 09/05 A2996 RMK AO2  T00860054,,,2400.0,,,40.22,,N,29.31,29.27,,Overcast
KIGQ,05/10/2017 10:15 UTC,29.95,47.12,41.18,81.34,0.0,0.0,,,,,,242.0,,,,10.0,,KIGQ 101015Z AUTO 00000KT 10SM SCT024 08/05 A2995 RMK AO2  T00840051,,,,,,41.64,,N,29.3,29.23,,Partly Cloudy
KIGQ,05/10/2017 10:35 UTC,29.95,46.4,42.08,87.19,0.0,0.0,,,,,,242.0,,,,10.0,,KIGQ 101035Z AUTO 00000KT 10SM SCT024 08/06 A2995 RMK AO2  T00800056,,,,,,42.75,,N,29.3,29.21,,Partly Cloudy
KIGQ,05/10/2017 10:55 UTC,29.96,46.04,41.9,87.19,0.0,0.0,,,,,,243.0,,,,10.0,,KIGQ 101055Z AUTO 00000KT 10SM BKN024 08/06 A2996 RMK AO2  T00780055,,,2400.0,,,42.4,,N,29.31,29.23,,Mostly Cloudy
KIGQ,05/10/2017 11:15 UTC,29.97,46.58,42.26,87.19,0.0,0.0,,,,,,244.0,,,,10.0,,KIGQ 101115Z AUTO 00000KT 10SM OVC024 08/06 A2997 RMK AO2  T00810057,,,2400.0,,,42.93,,N,29.32,29.22,,Overcast
KIGQ,05/10/2017 11:35 UTC,29.96,46.04,43.7,93.4,0.0,0.0,,,,,,243.0,,,,10.0,,KIGQ 101135Z AUTO 00000KT 10SM BKN024 08/07 A2996 RMK AO2  T00780065,,,2400.0,,,44.22,,N,29.31,29.18,,Mostly Cloudy
KIGQ,05/10/2017 11:55 UTC,29.98,48.2,43.16,81.48,0.0,0.0,,,,,,242.0,1102.0,,0.01,10.0,,KIGQ 101155Z AUTO 00000KT 10SM SCT024 SCT110 09/06 A2998 RMK AO2  70001 T00900062 10100 20074,50.0,45.32,,,,42.74,,N,29.33,29.22,,Partly Cloudy
KIGQ,05/10/2017 12:15 UTC,29.99,49.64,43.88,81.61,3.44,10.0,,,,,,1102.0,,,,10.0,,KIGQ 101215Z AUTO 01003KT 10SM SCT110 10/07 A2999 RMK AO2  T00980066,,,,,,44.19,,N,29.34,29.18,,Partly Cloudy
KIGQ,05/10/2017 12:35 UTC,29.99,50.9,44.6,76.35,3.44,10.0,,,,,,242.0,,,,10.0,,KIGQ 101235Z AUTO 01003KT 10SM SCT024 11/07 A2999 RMK AO2  T01050070,,,,,,43.65,,N,29.34,29.18,,Partly Cloudy
KIGQ,05/10/2017 12:55 UTC,29.99,51.98,44.78,76.35,0.0,0.0,,,,,,244.0,,,,10.0,,KIGQ 101255Z AUTO 00000KT 10SM OVC024 11/07 A2999 RMK AO2  T01110071,,,2400.0,,,44.7,,N,29.34,29.14,,Overcast
KIGQ,05/10/2017 13:15 UTC,29.99,53.6,45.68,76.52,0.0,0.0,,,,,,244.0,,,,10.0,,KIGQ 101315Z AUTO 00000KT 10SM OVC024 12/08 A2999 RMK AO2  T01200076,,,2400.0,,,46.33,,N,29.34,29.08,,Overcast
KIGQ,05/10/2017 13:35 UTC,29.98,55.4,46.76,71.66,0.0,0.0,,,,,,244.0,,,,10.0,,KIGQ 101335Z AUTO 00000KT 10SM OVC024 13/08 A2998 RMK AO2  T01300082,,,2400.0,,,46.32,,N,29.33,29.05,,Overcast
KIGQ,05/10/2017 13:55 UTC,29.98,57.38,47.12,67.15,0.0,0.0,,,,,,242.0,,,,10.0,,KIGQ 101355Z AUTO 00000KT 10SM SCT024 14/08 A2998 RMK AO2  T01410084,,,,,,46.48,,N,29.33,29.03,,Partly Cloudy
KIGQ,05/10/2017 14:15 UTC,29.98,59.0,48.56,67.36,3.44,120.0,,,,,,1.0,,,,10.0,,KIGQ 101415Z AUTO 12003KT 10SM CLR 15/09 A2998 RMK AO2  T01500092,,,,,,48.11,,ESE,29.33,28.96,,Clear
KIGQ,05/10/2017 14:35 UTC,29.98,60.44,49.82,67.57,0.0,0.0,,,,,,1.0,,,,10.0,,KIGQ 101435Z AUTO 00000KT 10SM CLR 16/10 A2998 RMK AO2  T01580099,,,,,,49.58,,N,29.33,28.9,,Clear
KIGQ,05/10/2017 14:55 UTC,29.97,61.88,51.44,67.79,4.61,50.0,,,,,,1.0,,,,10.0,,KIGQ 101455Z AUTO 05004KT 10SM CLR 17/11 A2997 RMK AO2 LTG DSNT W  T01660108,,,,,,51.04,,NE,29.32,28.82,,Clear
KIGQ,05/10/2017 15:15 UTC,29.97,62.96,52.34,67.79,0.0,0.0,,,,,,1.0,,,,10.0,,KIGQ 101515Z AUTO 00000KT 10SM CLR 17/11 A2997 RMK AO2  T01720113,,,,,,52.08,,N,29.32,28.77,,Clear
KIGQ,05/10/2017 15:35 UTC,29.96,64.4,53.96,67.99,3.44,100.0,,,,,,1.0,,,,10.0,,KIGQ 101535Z AUTO 10003KT 10SM CLR 18/12 A2996 RMK AO2  T01800122,,,,,,53.54,,E,29.31,28.68,,Clear
KIGQ,05/10/2017 15:55 UTC,29.97,65.12,53.96,67.99,3.44,130.0,,,,,,1.0,,,,10.0,,KIGQ 101555Z AUTO 13003KT 10SM CLR 18/12 A2997 RMK AO2  T01840122,,,,,,54.22,,SE,29.32,28.66,,Clear
KIGQ,05/10/2017 16:15 UTC,29.96,66.2,55.4,68.2,0.0,0.0,,,,,,1.0,,,,10.0,,KIGQ 101615Z AUTO 00000KT 10SM CLR 19/13 A2996 RMK AO2  T01900130,,,,,,55.34,,N,29.31,28.58,,Clear
KIGQ,05/10/2017 16:35 UTC,29.96,66.74,54.86,68.2,6.91,30.0,,,,,,1.0,,,,10.0,,KIGQ 101635Z AUTO 03006KT 10SM CLR 19/13 A2996 RMK AO2  T01930127,,,,,,55.86,,NNE,29.31,28.56,,Clear
KIGQ,05/10/2017 16:55 UTC,29.96,66.02,54.14,63.87,5.75,50.0,,,,,,1.0,,,,10.0,,KIGQ 101655Z AUTO 05005KT 10SM CLR 19/12 A2996 RMK AO2  T01890123,,,,,,53.36,,NE,29.31,28.67,,Clear
KIGQ,05/10/2017 17:15 UTC,29.96,66.02,53.24,63.87,8.05,30.0,,,,,,1102.0,,,,10.0,,KIGQ 101715Z AUTO 03007KT 10SM SCT110 19/12 A2996 RMK AO2 LTG DSNT  W T01890118,,,,,,53.36,,NNE,29.31,28.67,,Partly Cloudy
KIGQ,05/10/2017 17:35 UTC,29.96,66.2,54.14,63.87,9.22,20.0,,,,,,1102.0,,,,10.0,,KIGQ 101735Z AUTO 02008KT 10SM SCT110 19/12 A2996 RMK AO2  T01900123,,,,,,53.54,,NNE,29.31,28.66,,Partly Cloudy
KIGQ,05/10/2017 17:55 UTC,29.95,65.12,52.7,67.99,9.22,60.0,,,,,,1203.0,,,,10.0,,KIGQ 101755Z AUTO 06008KT 10SM BKN120 18/12 A2995 RMK AO2 LTG DSNT  W T01840115 10193 20091,66.74,48.38,12000.0,,,54.22,,ENE,29.3,28.64,,Mostly Cloudy
KIGQ,05/10/2017 18:15 UTC,29.94,64.94,51.26,63.64,10.36,50.0,,,,,,1203.0,,,,10.0,,KIGQ 101815Z AUTO 05009KT 10SM BKN120 18/11 A2994 RMK AO2 LTG DSNT  W T01830107,,,12000.0,,,52.24,,NE,29.29,28.71,,Mostly Cloudy
KIGQ,05/10/2017 18:35 UTC,29.95,64.22,51.08,63.64,6.91,20.0,,,,,,1202.0,,,,10.0,,KIGQ 101835Z AUTO 02006KT 10SM SCT120 18/11 A2995 RMK AO2  T01790106,,,,,,51.55,,NNE,29.3,28.76,,Partly Cloudy
KIGQ,05/10/2017 18:55 UTC,29.96,64.4,50.0,59.54,8.05,10.0,,,,,,1103.0,,,,10.0,,KIGQ 101855Z AUTO 01007KT 10SM BKN110 18/10 A2996,,,11000.0,,,49.92,,N,29.31,28.83,,Mostly Cloudy
KIGQ,05/10/2017 19:15 UTC,29.97,59.9,51.08,72.23,6.91,30.0,,1.0,,,,852.0,1104.0,,,10.0,,KIGQ 101915Z AUTO 03006KT 10SM RA SCT085 OVC110 16/11 A2997 RMK AO2 T01550106,,,11000.0,,,50.87,,NNE,29.32,28.84,,Rain
KIGQ,05/10/2017 19:35 UTC,29.98,56.84,50.36,76.85,5.75,340.0,,1.0,,,,702.0,854.0,,,7.0,,KIGQ 101935Z AUTO 34005KT 7SM RA SCT070 OVC085 14/10 A2998 RMK AO2  T01380102,,,8500.0,,,49.59,,NNW,29.33,28.93,,Rain
KIGQ,05/10/2017 19:55 UTC,29.93,55.58,51.62,87.66,4.61,50.0,,14.0,704.0,0.04,,312.0,553.0,,,4.0,,KIGQ 101955Z AUTO 05004KT 4SM +RA SCT031 BKN055 OVC070 13/11  A2993 RMK AO2 P0004 T01310109,,,5500.0,,,51.94,,NE,29.28,28.81,,Heavy Rain
KIGQ,05/10/2017 20:15 UTC,29.91,56.3,52.52,82.14,8.05,80.0,,,1104.0,,,312.0,472.0,,,7.0,,KIGQ 102015Z AUTO 08007KT 7SM SCT031 SCT047 OVC110 14/11 A2991 RMK AO2 T01350114,,,11000.0,,,50.87,,E,29.26,28.82,,Overcast
KIGQ,05/10/2017 20:35 UTC,29.91,55.4,52.16,87.66,6.91,80.0,,,,,,1004.0,,,,7.0,,KIGQ 102035Z AUTO 08006KT 7SM OVC100 13/11 A2991 RMK AO2  T01300112,,,10000.0,,,51.76,,E,29.26,28.8,,Overcast
KIGQ,05/10/2017 20:55 UTC,29.9,55.22,51.98,87.66,4.61,120.0,,,,,0.04,904.0,,,,7.0,,KIGQ 102055Z AUTO 12004KT 7SM OVC090 13/11 A2990 RMK AO2 60004  T01290111,,,9000.0,,,51.59,,ESE,29.25,28.79,,Overcast
KIGQ,05/10/2017 21:15 UTC,29.88,56.84,54.14,87.75,5.75,110.0,,,,,,803.0,1003.0,,,7.0,,KIGQ 102115Z AUTO 11005KT 7SM BKN080 BKN100 14/12 A2988 RMK AO2  T01380123,,,8000.0,,,53.21,,ESE,29.23,28.69,,Mostly Cloudy
KIGQ,05/10/2017 21:35 UTC,29.88,58.28,54.68,87.85,0.0,0.0,,,1003.0,,,652.0,802.0,,,7.0,,KIGQ 102135Z AUTO 00000KT 7SM SCT065 SCT080 BKN100 15/13 A2988 RMK AO2 T01460126,,,10000.0,,,54.66,,N,29.23,28.62,,Mostly Cloudy
KIGQ,05/10/2017 21:55 UTC,29.88,59.36,55.58,87.85,8.05,350.0,,,1004.0,,,552.0,803.0,,,7.0,,KIGQ 102155Z AUTO 35007KT 7SM SCT055 BKN080 OVC100 15/13 A2988 RMK AO2 T01520131,,,8000.0,,,55.73,,N,29.23,28.56,,Overcast
KIGQ,05/10/2017 22:15 UTC,29.88,59.36,55.04,87.85,4.61,40.0,,,,,,552.0,802.0,,,7.0,,KIGQ 102215Z AUTO 04004KT 7SM SCT055 SCT080 15/13 A2988 RMK AO2  T01520128,,,,,,55.73,,NE,29.23,28.56,,Partly Cloudy
KIGQ,05/10/2017 22:35 UTC,29.87,59.54,54.68,87.85,4.61,40.0,,,,,,702.0,1002.0,,,7.0,,KIGQ 102235Z AUTO 04004KT 7SM SCT070 SCT100 15/13 A2987 RMK AO2  T01530126,,,,,,55.9,,NE,29.22,28.54,,Partly Cloudy
KIGQ,05/10/2017 22:55 UTC,29.86,59.54,53.96,82.27,6.91,30.0,,,1103.0,,,552.0,702.0,,,7.0,,KIGQ 102255Z AUTO 03006KT 7SM SCT055 SCT070 BKN110 15/12 A2986 RMK AO2 LTG DSNT SW T01530122,,,11000.0,,,54.08,,NNE,29.21,28.61,,Mostly Cloudy
KIGQ,05/10/2017 23:15 UTC,29.85,59.18,53.78,82.27,6.91,30.0,,,954.0,,,552.0,703.0,,,7.0,,KIGQ 102315Z AUTO 03006KT 7SM SCT055 BKN070 OVC095 15/12 A2985 RMK AO2 T01510121,,,7000.0,,,53.73,,NNE,29.2,28.62,,Overcast
KIGQ,05/10/2017 23:35 UTC,29.86,57.2,50.54,76.85,8.05,30.0,,,,,,704.0,,,,10.0,,KIGQ 102335Z AUTO 03007KT 10SM OVC070 14/10 A2986 RMK AO2 LTG DSNT  W T01400103,,,7000.0,,,49.94,,NNE,29.21,28.79,,Overcast
KIGQ,05/10/2017 23:55 UTC,29.86,54.86,49.28,82.01,12.66,30.0,18.41,,704.0,,,343.0,503.0,0.04,,7.0,,KIGQ 102355Z AUTO 03011G16KT 7SM BKN034 BKN050 OVC070 13/10  A2986 RMK AO2 LTG DSNT W 60004 T01270096 10190 20127,66.2,54.86,3400.0,,,49.42,,NNE,29.21,28.83,,Overcast
KIGQ,05/11/2017 00:15 UTC,29.84,52.7,47.48,81.88,11.5,40.0,,,604.0,,,372.0,503.0,,,10.0,,KIGQ 110015Z AUTO 04010KT 10SM SCT037 BKN050 OVC060 12/09  A2984 RMK AO2 LTG DSNT SW T01150086,,,5000.0,,,47.26,,NE,29.19,28.91,,Overcast
KIGQ,05/11/2017 00:35 UTC,29.83,52.88,48.38,81.88,6.91,50.0,,,954.0,,,482.0,603.0,,,10.0,,KIGQ 110035Z AUTO 05006KT 10SM SCT048 BKN060 OVC095 12/09  A2983 RMK AO2 LTG DSNT E AND W T01160091,,,6000.0,,,47.44,,NE,29.18,28.89,,Overcast
KIGQ,05/11/2017 00:55 UTC,29.83,53.06,48.56,81.88,6.91,50.0,,,1004.0,,,352.0,503.0,,,10.0,,KIGQ 110055Z AUTO 05006KT 10SM SCT035 BKN050 OVC100 12/09  A2983 RMK AO2 LTG DSNT SW THRU N T01170092,,,5000.0,,,47.62,,NE,29.18,28.88,,Overcast
KIGQ,05/11/2017 01:15 UTC,29.84,51.8,50.0,93.55,10.36,10.0,,66.0,,0.16,,172.0,324.0,,,3.0,,KIGQ 110115Z AUTO 01009KT 3SM TSRA SCT017 OVC032 11/10 A2984 RMK AO2 LTG DSNT NE THRU SW P0016 T01100100,,,3200.0,,,49.98,,N,29.19,28.83,,Thunderstorm
KIGQ,05/11/2017 01:35 UTC,29.86,51.8,51.08,100.0,20.71,320.0,25.32,77.0,304.0,0.4,,53.0,83.0,,,1.25,,KIGQ 110135Z AUTO 32018G22KT 1 1/4SM -TSRA BKN005 BKN008 OVC030  11/11 A2986 RMK AO2 LTG DSNT ALQS P0040 T01100106,,,500.0,,,51.8,,NW,29.21,28.78,,Light Rain/Thunderstorm
KIGQ,05/11/2017 01:55 UTC,29.84,51.62,51.62,100.0,11.5,40.0,,,604.0,0.56,,73.0,213.0,,,4.0,,KIGQ 110155Z AUTO 04010KT 4SM -VCTSRA BKN007 BKN021 OVC060 11/11  A2984 RMK AO2 LTG DSNT NE AND S P0056 T01090109,,,700.0,,,51.62,,NE,29.19,28.77,,Overcast
KIGQ,05/11/2017 02:15 UTC,29.86,53.06,53.06,100.0,11.5,20.0,24.16,,444.0,0.11,,53.0,303.0,,,3.0,,KIGQ 110215Z AUTO 02010G21KT 3SM +VCTSRA BKN005 BKN030 OVC044  12/12 A2986 RMK AO2 LTG DSNT NE THRU S P0011 T01170117,,,500.0,,,53.06,,NNE,29.21,28.72,,Overcast
KIGQ,05/11/2017 02:35 UTC,29.84,53.96,53.96,100.0,16.11,40.0,20.71,14.0,,0.27,,54.0,,,,3.0,,KIGQ 110235Z AUTO 04014G18KT 3SM +RA OVC005 12/12 A2984 RMK AO2  P0027 T01220122,,,500.0,,,53.96,,NE,29.19,28.66,,Heavy Rain
KIGQ,05/11/2017 02:55 UTC,29.83,54.86,54.86,100.0,13.8,50.0,23.02,1.0,,0.34,0.9,34.0,,,,4.0,,KIGQ 110255Z AUTO 05012G20KT 4SM RA OVC003 13/13 A2983 RMK AO2  P0034 60090 T01270127,,,300.0,,,54.86,,NE,29.18,28.6,,Rain
KIGQ,05/11/2017 03:15 UTC,29.81,54.86,54.86,100.0,16.11,80.0,23.02,13.0,,0.05,,33.0,424.0,,,4.0,,KIGQ 110315Z AUTO 08014G20KT 4SM -RA BKN003 OVC042 13/13 A2981 RMK AO2 LTG DSNT SE P0005 T01270127,,,300.0,,,54.86,,E,29.16,28.58,,Light Rain
KIGQ,05/11/2017 03:35 UTC,29.82,55.94,55.94,100.0,13.8,80.0,20.71,14.0,464.0,0.09,,83.0,383.0,,,5.0,,KIGQ 110335Z AUTO 08012G18KT 5SM +RA BKN008 BKN038 OVC046 13/13  A2982 RMK AO2 LTG DSNT E P0009 T01330133,,,800.0,,,55.94,,E,29.17,28.53,,Heavy Rain
KIGQ,05/11/2017 03:55 UTC,29.84,55.94,55.94,100.0,9.22,40.0,17.27,13.0,384.0,0.2,,63.0,183.0,,,5.0,,KIGQ 110355Z AUTO 04008G15KT 5SM -RA BKN006 BKN018 OVC038 13/13  A2984 RMK AO2 P0020 T01330133,,,600.0,,,55.94,,NE,29.19,28.55,,Light Rain
KIGQ,05/11/2017 04:15 UTC,29.84,55.58,55.58,100.0,5.75,20.0,,13.0,,,,83.0,294.0,,,7.0,,KIGQ 110415Z AUTO 02005KT 7SM -RA BKN008 OVC029 13/13 A2984 RMK AO2 T01310131,,,800.0,,,55.58,,NNE,29.19,28.57,,Light Rain
KIGQ,05/11/2017 04:35 UTC,29.85,54.5,54.5,100.0,6.91,10.0,,1.0,,,,63.0,94.0,,,5.0,,KIGQ 110435Z AUTO 01006KT 5SM RA BKN006 OVC009 13/13 A2985 RMK AO2  T01250125,,,600.0,,,54.5,,N,29.2,28.64,,Rain
KIGQ,05/11/2017 04:55 UTC,29.85,53.6,53.6,100.0,6.91,10.0,,14.0,,0.02,,44.0,,,,3.0,,KIGQ 110455Z AUTO 01006KT 3SM +RA OVC004 12/12 A2985 RMK AO2 P0002  T01200120,,,400.0,,,53.6,,N,29.2,28.68,,Heavy Rain
KIGQ,05/11/2017 05:15 UTC,29.84,51.98,51.98,100.0,8.05,20.0,,2.0,,,,44.0,,,,2.5,,KIGQ 110515Z AUTO 02007KT 2 1/2SM DZ OVC004 11/11 A2984 RMK AO2  T01110111,,,400.0,,,51.98,,NNE,29.19,28.75,,Drizzle
KIGQ,05/11/2017 05:35 UTC,29.85,51.44,51.44,100.0,9.22,30.0,,31.0,,,,44.0,,,,2.5,,KIGQ 110535Z AUTO 03008KT 2 1/2SM BR OVC004 11/11 A2985 RMK AO2  T01080108,,,400.0,,,51.44,,NNE,29.2,28.79,,Mist
KIGQ,05/11/2017 05:55 UTC,29.86,51.26,51.26,100.0,11.5,10.0,16.11,31.0,,,,44.0,,1.13,,2.5,,KIGQ 110555Z AUTO 01010G14KT 2 1/2SM BR OVC004 11/11 A2986 RMK AO2  60113 T01070107 10134 20105 401930074,56.12,50.9,400.0,66.74,45.32,51.26,,N,29.21,28.81,,Mist
KIGQ,05/11/2017 06:15 UTC,29.86,49.64,49.64,100.0,9.22,30.0,,31.0,,,,44.0,,,,3.0,,KIGQ 110615Z AUTO 03008KT 3SM BR OVC004 10/10 A2986 RMK AO2  T00980098,,,400.0,,,49.64,,NNE,29.21,28.88,,Mist
KIGQ,05/11/2017 06:35 UTC,29.87,49.28,49.28,100.0,9.22,360.0,,31.0,,,,44.0,,,,2.5,,KIGQ 110635Z AUTO 36008KT 2 1/2SM BR OVC004 10/10 A2987 RMK AO2  T00960096,,,400.0,,,49.28,,N,29.22,28.91,,Mist
KIGQ,05/11/2017 06:55 UTC,29.87,48.2,48.2,100.0,9.22,360.0,,31.0,,,,44.0,,,,3.0,,KIGQ 110655Z AUTO 36008KT 3SM BR OVC004 09/09 A2987 RMK AO2  T00900090,,,400.0,,,48.2,,N,29.22,28.95,,Mist
KIGQ,05/11/2017 07:15 UTC,29.88,48.2,48.2,100.0,6.91,360.0,,31.0,,,,44.0,,,,4.0,,KIGQ 110715Z AUTO 36006KT 4SM BR OVC004 09/09 A2988 RMK AO2  T00900090,,,400.0,,,48.2,,N,29.23,28.96,,Mist
KIGQ,05/11/2017 07:35 UTC,29.88,48.2,48.2,100.0,5.75,10.0,,31.0,,,,44.0,,,,3.0,,KIGQ 110735Z AUTO 01005KT 3SM BR OVC004 09/09 A2988 RMK AO2  T00900090,,,400.0,,,48.2,,N,29.23,28.96,,Mist
KIGQ,05/11/2017 07:55 UTC,29.89,48.38,48.38,100.0,3.44,10.0,,31.0,254.0,,,42.0,143.0,,,3.0,,KIGQ 110755Z AUTO 01003KT 3SM BR SCT004 BKN014 OVC025 09/09  A2989 RMK AO2 T00910091,,,1400.0,,,48.38,,N,29.24,28.97,,Mist
KIGQ,05/11/2017 08:15 UTC,29.9,49.1,49.1,100.0,4.61,360.0,,31.0,254.0,,,43.0,143.0,,,3.0,,KIGQ 110815Z AUTO 36004KT 3SM BR BKN004 BKN014 OVC025 10/10  A2990 RMK AO2 T00950095,,,400.0,,,49.1,,N,29.25,28.95,,Mist
KIGQ,05/11/2017 08:35 UTC,29.91,49.1,49.1,100.0,4.61,10.0,,31.0,184.0,,,42.0,133.0,,,3.0,,KIGQ 110835Z AUTO 01004KT 3SM BR SCT004 BKN013 OVC018 10/10  A2991 RMK AO2 T00950095,,,1300.0,,,49.1,,N,29.26,28.96,,Mist
KIGQ,05/11/2017 08:55 UTC,29.9,49.46,49.46,100.0,5.75,30.0,,31.0,,,,42.0,164.0,,,3.0,,KIGQ 110855Z AUTO 03005KT 3SM BR SCT004 OVC016 10/10 A2990 RMK AO2  T00970097,,,1600.0,,,49.46,,NNE,29.25,28.93,,Mist
KIGQ,05/11/2017 09:15 UTC,29.88,49.46,49.46,100.0,10.36,40.0,,31.0,144.0,,,43.0,93.0,,,5.0,,KIGQ 110915Z AUTO 04009KT 5SM BR BKN004 BKN009 OVC014 10/10  A2988 RMK AO2 LTG DSNT SW T00970097,,,400.0,,,49.46,,NE,29.23,28.91,,Mist
KIGQ,05/11/2017 09:35 UTC,29.88,49.1,49.1,100.0,9.22,40.0,,,,,,44.0,,,,7.0,,KIGQ 110935Z AUTO 04008KT 7SM OVC004 10/10 A2988 RMK AO2  T00950095,,,400.0,,,49.1,,NE,29.23,28.92,,Overcast
KIGQ,05/11/2017 09:55 UTC,29.89,48.92,48.92,100.0,10.36,50.0,,,,,,44.0,,,,10.0,,KIGQ 110955Z AUTO 05009KT 10SM OVC004 09/09 A2989 RMK AO2  T00940094,,,400.0,,,48.92,,NE,29.24,28.94,,Overcast
KIGQ,05/11/2017 10:15 UTC,29.91,48.56,48.56,100.0,8.05,40.0,,,,,,44.0,,,,7.0,,KIGQ 111015Z AUTO 04007KT 7SM OVC004 09/09 A2991 RMK AO2  T00920092,,,400.0,,,48.56,,NE,29.26,28.98,,Overcast
KIGQ,05/11/2017 10:35 UTC,29.92,48.38,48.38,100.0,9.22,40.0,,,,,,44.0,,,,7.0,,KIGQ 111035Z AUTO 04008KT 7SM OVC004 09/09 A2992 RMK AO2  T00910091,,,400.0,,,48.38,,NE,29.27,29.0,,Overcast
KIGQ,05/11/2017 10:55 UTC,29.94,47.84,47.84,100.0,6.91,40.0,,,,,,44.0,,,,10.0,,KIGQ 111055Z AUTO 04006KT 10SM OVC004 09/09 A2994 RMK AO2  T00880088,,,400.0,,,47.84,,NE,29.29,29.04,,Overcast
KIGQ,05/11/2017 11:15 UTC,29.94,48.02,48.02,100.0,5.75,40.0,,,,,,64.0,,,,10.0,,KIGQ 111115Z AUTO 04005KT 10SM OVC006 09/09 A2994 RMK AO2  T00890089,,,600.0,,,48.02,,NE,29.29,29.03,,Overcast
KIGQ,05/11/2017 11:35 UTC,29.93,48.2,48.2,100.0,5.75,60.0,,,,,,63.0,124.0,,,10.0,,KIGQ 111135Z AUTO 06005KT 10SM BKN006 OVC012 09/09 A2993 RMK AO2  T00900090,,,600.0,,,48.2,,ENE,29.28,29.01,,Overcast
KIGQ,05/11/2017 11:55 UTC,29.93,48.74,48.74,100.0,4.61,50.0,,,344.0,,,63.0,123.0,,1.17,10.0,,KIGQ 111155Z AUTO 05004KT 10SM BKN006 BKN012 OVC034 09/09 A2993 RMK AO2 70117 T00930093 10106 20088,51.08,47.84,600.0,,,48.74,,NE,29.28,28.99,,Overcast
KIGQ,05/11/2017 12:15 UTC,29.94,49.1,48.74,98.66,4.61,90.0,,,,,,64.0,,,,7.0,,KIGQ 111215Z AUTO 09004KT 7SM OVC006 10/09 A2994 RMK AO2  T00950093,,,600.0,,,48.73,,E,29.29,29.0,,Overcast
KIGQ,05/11/2017 12:35 UTC,29.96,49.1,48.56,98.0,3.44,70.0,,,,,,64.0,,,,7.0,,KIGQ 111235Z AUTO 07003KT 7SM OVC006 10/09 A2996 RMK AO2  T00950092,,,600.0,,,48.55,,ENE,29.31,29.02,,Overcast
KIGQ,05/11/2017 12:55 UTC,29.95,50.0,48.92,96.06,3.44,30.0,,,,,,83.0,454.0,,,7.0,,KIGQ 111255Z AUTO 03003KT 7SM BKN008 OVC045 10/09 A2995 RMK AO2  T01000094,,,800.0,,,48.91,,NNE,29.3,28.99,,Overcast
KIGQ,05/11/2017 13:15 UTC,29.95,51.26,49.64,94.17,0.0,0.0,,,,,,83.0,454.0,,,10.0,,KIGQ 111315Z AUTO 00000KT 10SM BKN008 OVC045 11/10 A2995 RMK AO2  T01070098,,,800.0,,,49.62,,N,29.3,28.96,,Overcast
KIGQ,05/11/2017 13:35 UTC,29.95,52.34,49.82,91.1,3.44,360.0,,,,,,83.0,,,,10.0,,KIGQ 111335Z AUTO 36003KT 10SM BKN008 11/10 A2995 RMK AO2  T01130099,,,800.0,,,49.79,,N,29.3,28.94,,Mostly Cloudy
KIGQ,05/11/2017 13:55 UTC,29.96,53.42,50.18,88.74,6.91,20.0,,,,,,104.0,,,,10.0,,KIGQ 111355Z AUTO 02006KT 10SM OVC010 12/10 A2996 RMK AO2  T01190101,,,1000.0,,,50.15,,NNE,29.31,28.93,,Overcast
KIGQ,05/11/2017 14:15 UTC,29.96,52.88,49.28,87.53,10.36,30.0,,,,,,124.0,,,,10.0,,KIGQ 111415Z AUTO 03009KT 10SM OVC012 12/10 A2996 RMK AO2  T01160096,,,1200.0,,,49.24,,NNE,29.31,28.96,,Overcast
KIGQ,05/11/2017 14:35 UTC,29.96,53.78,50.36,88.17,9.22,40.0,,,,,,124.0,,,,7.0,,KIGQ 111435Z AUTO 04008KT 7SM OVC012 12/10 A2996 RMK AO2  T01210102,,,1200.0,,,50.33,,NE,29.31,28.92,,Overcast
KIGQ,05/11/2017 14:55 UTC,29.96,53.96,50.18,87.0,6.91,40.0,,,,,,123.0,,,,10.0,,KIGQ 111455Z AUTO 04006KT 10SM BKN012 12/10 A2996 RMK AO2  T01220101,,,1200.0,,,50.14,,NE,29.31,28.92,,Mostly Cloudy
KIGQ,05/11/2017 15:15 UTC,29.96,53.6,49.28,85.25,9.22,30.0,,,,,,122.0,,,,10.0,,KIGQ 111515Z AUTO 03008KT 10SM SCT012 12/10 A2996 RMK AO2  T01200096,,,,,,49.23,,NNE,29.31,28.96,,Partly Cloudy
KIGQ,05/11/2017 15:35 UTC,29.97,52.88,48.74,85.79,9.22,30.0,,,,,,1.0,,,,10.0,,KIGQ 111535Z AUTO 03008KT 10SM CLR 12/09 A2997 RMK AO2  T01160093,,,,,,48.7,,NNE,29.32,28.99,,Clear
KIGQ,05/11/2017 15:55 UTC,29.97,52.7,48.56,85.77,10.36,40.0,,,,,,1.0,,,,10.0,,KIGQ 111555Z AUTO 04009KT 10SM CLR 12/09 A2997 RMK AO2  T01150092,,,,,,48.51,,NE,29.32,29.0,,Clear
KIGQ,05/11/2017 16:15 UTC,29.96,52.34,48.56,86.92,8.05,20.0,,,,,,132.0,,,,10.0,,KIGQ 111615Z AUTO 02007KT 10SM SCT013 11/09 A2996 RMK AO2  T01130092,,,,,,48.52,,NNE,29.31,28.99,,Partly Cloudy
KIGQ,05/11/2017 16:35 UTC,29.96,53.42,48.92,84.67,11.5,30.0,,,,,,132.0,,,,10.0,,KIGQ 111635Z AUTO 03010KT 10SM SCT013 12/09 A2996 RMK AO2  T01190094,,,,,,48.87,,NNE,29.31,28.97,,Partly Cloudy
KIGQ,05/11/2017 16:55 UTC,29.96,54.68,49.64,83.07,10.36,30.0,,,,,,1.0,,,,10.0,,KIGQ 111655Z AUTO 03009KT 10SM CLR 13/10 A2996 RMK AO2  T01260098,,,,,,49.59,,NNE,29.31,28.93,,Clear
KIGQ,05/11/2017 17:15 UTC,29.97,55.4,49.28,79.84,8.05,10.0,16.11,,,,,1.0,,,,10.0,,KIGQ 111715Z AUTO 01007G14KT 340V050 10SM CLR 13/10 A2997 RMK AO2  T01300096,,,,,,49.22,,N,29.32,28.95,,Clear
KIGQ,05/11/2017 17:35 UTC,29.98,55.76,49.1,78.28,9.22,60.0,,,,,,1.0,,,,10.0,,KIGQ 111735Z AUTO 06008KT 10SM CLR 13/10 A2998 RMK AO2  T01320095,,,,,,49.04,,ENE,29.33,28.96,,Clear
KIGQ,05/11/2017 17:55 UTC,29.98,56.12,50.0,79.9,10.36,40.0,,,,,,1.0,,,,10.0,,KIGQ 111755Z AUTO 04009KT 020V090 10SM CLR 13/10 A2998 RMK AO2  T01340100 10134 20094,56.12,48.92,,,,49.94,,NE,29.33,28.93,,Clear
KIGQ,05/11/2017 18:15 UTC,29.97,57.02,49.82,76.83,8.05,20.0,,,,,,1.0,,,,10.0,,KIGQ 111815Z AUTO 02007KT 10SM CLR 14/10 A2997 RMK AO2  T01390099,,,,,,49.76,,NNE,29.32,28.91,,Clear
KIGQ,05/11/2017 18:35 UTC,29.98,56.3,48.92,76.25,11.5,40.0,17.27,,,,,1.0,,,,10.0,,KIGQ 111835Z AUTO 04010G15KT 10SM CLR 14/09 A2998 RMK AO2  T01350094,,,,,,48.85,,NE,29.33,28.96,,Clear
KIGQ,05/11/2017 18:55 UTC,29.99,57.02,48.74,73.8,10.36,360.0,,,,,,1.0,,,,10.0,,KIGQ 111855Z AUTO 36009KT 10SM CLR 14/09 A2999 RMK AO2  T01390093,,,,,,48.67,,N,29.34,28.97,,Clear
KIGQ,05/11/2017 19:15 UTC,29.99,56.48,48.02,73.25,11.5,360.0,16.11,,,,,1.0,,,,10.0,,KIGQ 111915Z AUTO 36010G14KT 10SM CLR 14/09 A2999 RMK AO2  T01360089,,,,,,47.95,,N,29.34,29.0,,Clear
KIGQ,05/11/2017 19:35 UTC,29.98,57.56,48.2,70.93,12.66,40.0,18.41,,,,,1.0,,,,10.0,,KIGQ 111935Z AUTO 04011G16KT 10SM CLR 14/09 A2998 RMK AO2  T01420090,,,,,,48.12,,NE,29.33,28.98,,Clear
KIGQ,05/11/2017 19:55 UTC,29.98,57.92,48.2,70.02,9.22,10.0,,,,,,1.0,,,,10.0,,KIGQ 111955Z AUTO 01008KT 10SM CLR 14/09 A2998 RMK AO2  T01440090,,,,,,48.12,,N,29.33,28.97,,Clear
KIGQ,05/11/2017 20:15 UTC,29.97,58.1,48.74,70.99,10.36,30.0,,,,,,1.0,,,,10.0,,KIGQ 112015Z AUTO 03009KT 10SM CLR 15/09 A2997 RMK AO2  T01450093,,,,,,48.66,,NNE,29.32,28.94,,Clear
KIGQ,05/11/2017 20:35 UTC,29.97,58.1,48.74,70.99,6.91,10.0,,,,,,1.0,,,,10.0,,KIGQ 112035Z AUTO 01006KT 10SM CLR 15/09 A2997 RMK AO2  T01450093,,,,,,48.66,,N,29.32,28.94,,Clear
KIGQ,05/11/2017 20:55 UTC,29.96,58.28,49.28,71.97,9.22,30.0,,,,,,1.0,,,,10.0,,KIGQ 112055Z AUTO 03008KT 010V070 10SM CLR 15/10 A2996 RMK AO2  T01460096,,,,,,49.21,,NNE,29.31,28.91,,Clear
KIGQ,05/11/2017 21:15 UTC,29.95,58.28,48.74,70.53,8.05,20.0,,,,,,1.0,,,,10.0,,KIGQ 112115Z AUTO 02007KT 350V050 10SM CLR 15/09 A2995 RMK AO2  T01460093,,,,,,48.66,,NNE,29.3,28.92,,Clear
KIGQ,05/11/2017 21:35 UTC,29.96,57.92,48.74,71.45,9.22,40.0,,,,,,1.0,,,,10.0,,KIGQ 112135Z AUTO 04008KT 10SM CLR 14/09 A2996 RMK AO2  T01440093,,,,,,48.66,,NE,29.31,28.93,,Clear
KIGQ,05/11/2017 21:55 UTC,29.97,58.1,48.56,70.51,8.05,20.0,,,,,,1.0,,,,10.0,,KIGQ 112155Z AUTO 02007KT 10SM CLR 15/09 A2997 RMK AO2  T01450092,,,,,,48.48,,NNE,29.32,28.95,,Clear
KIGQ,05/11/2017 22:15 UTC,29.97,57.2,48.56,72.83,8.05,10.0,,,,,,1.0,,,,10.0,,KIGQ 112215Z AUTO 01007KT 10SM CLR 14/09 A2997 RMK AO2  T01400092,,,,,,48.49,,N,29.32,28.96,,Clear
KIGQ,05/11/2017 22:35 UTC,29.96,57.56,48.2,70.93,10.36,10.0,,,,,,1.0,,,,10.0,,KIGQ 112235Z AUTO 01009KT 10SM CLR 14/09 A2996 RMK AO2  T01420090,,,,,,48.12,,N,29.31,28.96,,Clear
KIGQ,05/11/2017 22:55 UTC,29.96,57.38,47.3,69.02,10.36,30.0,,,,,,1.0,,,,10.0,,KIGQ 112255Z AUTO 03009KT 10SM CLR 14/09 A2996 RMK AO2  T01410085,,,,,,47.22,,NNE,29.31,28.99,,Clear
KIGQ,05/11/2017 23:15 UTC,29.95,57.38,46.58,67.17,8.05,20.0,,,,,,1.0,,,,10.0,,KIGQ 112315Z AUTO 02007KT 10SM CLR 14/08 A2995 RMK AO2  T01410081,,,,,,46.49,,NNE,29.3,29.0,,Clear
KIGQ,05/11/2017 23:35 UTC,29.95,57.38,45.86,65.37,8.05,20.0,,,,,,1.0,,,,10.0,,KIGQ 112335Z AUTO 02007KT 10SM CLR 14/08 A2995 RMK AO2  T01410077,,,,,,45.76,,NNE,29.3,29.02,,Clear
KIGQ,05/11/2017 23:55 UTC,29.95,56.66,45.32,65.72,8.05,10.0,,,,,,1.0,,,,10.0,,KIGQ 112355Z AUTO 01007KT 10SM CLR 14/07 A2995 RMK AO2 T01370074  10147 20135,58.46,56.3,,,,45.22,,N,29.3,29.05,,Clear
KIGQ,05/12/2017 00:15 UTC,29.95,56.3,45.14,66.13,6.91,360.0,,,,,,1.0,,,,10.0,,KIGQ 120015Z AUTO 36006KT 10SM CLR 14/07 A2995 RMK AO2  T01350073,,,,,,45.04,,N,29.3,29.06,,Clear
KIGQ,05/12/2017 00:35 UTC,29.95,55.58,45.32,68.34,5.75,20.0,,,,,,1.0,,,,10.0,,KIGQ 120035Z AUTO 02005KT 10SM CLR 13/07 A2995 RMK AO2  T01310074,,,,,,45.23,,NNE,29.3,29.06,,Clear
KIGQ,05/12/2017 00:55 UTC,29.95,54.86,44.96,69.2,4.61,40.0,,,,,,1.0,,,,10.0,,KIGQ 120055Z AUTO 04004KT 10SM CLR 13/07 A2995 RMK AO2  T01270072,,,,,,44.87,,NE,29.3,29.07,,Clear
KIGQ,05/12/2017 01:15 UTC,29.97,53.6,44.42,70.98,4.61,70.0,,,,,,1.0,,,,10.0,,KIGQ 120115Z AUTO 07004KT 10SM CLR 12/07 A2997 RMK AO2  T01200069,,,,,,44.33,,ENE,29.32,29.12,,Clear
KIGQ,05/12/2017 01:35 UTC,29.99,53.42,44.24,70.96,0.0,0.0,,,,,,1.0,,,,10.0,,KIGQ 120135Z AUTO 00000KT 10SM CLR 12/07 A2999 RMK AO2  T01190068,,,,,,44.15,,N,29.34,29.15,,Clear
KIGQ,05/12/2017 01:55 UTC,30.0,53.24,44.42,71.92,0.0,0.0,,,,,,1.0,,,,10.0,,KIGQ 120155Z AUTO 00000KT 10SM CLR 12/07 A3000 RMK AO2  T01180069,,,,,,44.33,,N,29.35,29.15,,Clear
KIGQ,05/12/2017 02:15 UTC,29.99,50.54,45.5,82.78,4.61,80.0,,,,,,1.0,,,,10.0,,KIGQ 120215Z AUTO 08004KT 10SM CLR 10/08 A2999 RMK AO2  T01030075,,,,,,45.44,,E,29.34,29.14,,Clear
KIGQ,05/12/2017 02:35 UTC,29.97,50.18,44.96,82.19,5.75,60.0,,,,,,1.0,,,,10.0,,KIGQ 120235Z AUTO 06005KT 10SM CLR 10/07 A2997 RMK AO2  T01010072,,,,,,44.9,,ENE,29.32,29.13,,Clear
KIGQ,05/12/2017 02:55 UTC,29.97,50.0,43.52,78.32,4.61,40.0,,,,,,1.0,,,,10.0,,KIGQ 120255Z AUTO 04004KT 10SM CLR 10/06 A2997 RMK AO2  T01000064,,,,,,43.45,,NE,29.32,29.18,,Clear
KIGQ,05/12/2017 03:15 UTC,29.98,49.82,43.52,78.84,4.61,40.0,,,,,,1.0,,,,10.0,,KIGQ 120315Z AUTO 04004KT 10SM CLR 10/06 A2998 RMK AO2  T00990064,,,,,,43.45,,NE,29.33,29.19,,Clear
KIGQ,05/12/2017 03:35 UTC,30.0,49.46,43.7,80.46,0.0,0.0,,,,,,1.0,,,,10.0,,KIGQ 120335Z AUTO 00000KT 10SM CLR 10/07 A3000 RMK AO2  T00970065,,,,,,43.63,,N,29.35,29.21,,Clear
KIGQ,05/12/2017 03:55 UTC,30.0,49.1,45.32,86.74,0.0,0.0,,,,,,1.0,,,,10.0,,KIGQ 120355Z AUTO 00000KT 10SM CLR 10/07 A3000 RMK AO2  T00950074,,,,,,45.28,,N,29.35,29.16,,Clear
KIGQ,05/12/2017 04:15 UTC,30.0,49.28,43.34,79.89,0.0,0.0,,,,,,1.0,,,,10.0,,KIGQ 120415Z AUTO 00000KT 10SM CLR 10/06 A3000 RMK AO2  T00960063,,,,,,43.27,,N,29.35,29.22,,Clear
KIGQ,05/12/2017 04:35 UTC,29.99,48.74,43.7,82.65,0.0,0.0,,,,,,1.0,,,,10.0,,KIGQ 120435Z AUTO 00000KT 10SM CLR 09/07 A2999 RMK AO2  T00930065,,,,,,43.64,,N,29.34,29.2,,Clear
KIGQ,05/12/2017 04:55 UTC,29.99,48.38,44.24,85.52,0.0,0.0,,,,,,1.0,,,,10.0,,KIGQ 120455Z AUTO 00000KT 10SM CLR 09/07 A2999 RMK AO2  T00910068,,,,,,44.19,,N,29.34,29.19,,Clear
KIGQ,05/12/2017 05:15 UTC,29.98,47.66,43.52,85.47,3.44,350.0,,,,,,1.0,,,,10.0,,KIGQ 120515Z AUTO 35003KT 10SM CLR 09/06 A2998 RMK AO2  T00870064,,,,,,43.47,,N,29.33,29.21,,Clear
KIGQ,05/12/2017 05:35 UTC,29.97,48.38,43.88,84.35,4.61,350.0,,,,,,1.0,,,,10.0,,KIGQ 120535Z AUTO 35004KT 10SM CLR 09/07 A2997 RMK AO2  T00910066,,,,,,43.83,,N,29.32,29.18,,Clear
KIGQ,05/12/2017 05:55 UTC,29.97,48.2,43.7,84.34,3.44,350.0,,,,,,1.0,,,,10.0,,KIGQ 120555Z AUTO 35003KT 10SM CLR 09/07 A2997 RMK AO2 T00900065  10136 20085 401470085,56.48,47.3,,58.46,47.3,43.65,,N,29.32,29.19,,Clear
KIGQ,05/12/2017 06:15 UTC,29.97,47.84,43.52,84.9,0.0,0.0,,,,,,1.0,,,,10.0,,KIGQ 120615Z AUTO 00000KT 10SM CLR 09/06 A2997 RMK AO2  T00880064,,,,,,43.47,,N,29.32,29.19,,Clear
KIGQ,05/12/2017 06:35 UTC,29.97,47.3,43.7,87.24,3.44,330.0,,,,,,1.0,,,,10.0,,KIGQ 120635Z AUTO 33003KT 10SM CLR 09/07 A2997 RMK AO2  T00850065,,,,,,43.66,,NNW,29.32,29.19,,Clear
KIGQ,05/12/2017 06:55 UTC,29.96,46.94,43.7,88.43,0.0,0.0,,,,,,1.0,,,,10.0,,KIGQ 120655Z AUTO 00000KT 10SM CLR 08/07 A2996 RMK AO2  T00830065,,,,,,43.66,,N,29.31,29.19,,Clear
KIGQ,05/12/2017 07:15 UTC,29.96,47.3,43.7,87.24,0.0,0.0,,,,,,1.0,,,,10.0,,KIGQ 120715Z AUTO 00000KT 10SM CLR 09/07 A2996 RMK AO2  T00850065,,,,,,43.66,,N,29.31,29.18,,Clear
KIGQ,05/12/2017 07:35 UTC,29.97,47.66,43.7,86.06,0.0,0.0,,,,,,1.0,,,,10.0,,KIGQ 120735Z AUTO 00000KT 10SM CLR 09/07 A2997 RMK AO2  T00870065,,,,,,43.65,,N,29.32,29.19,,Clear
KIGQ,05/12/2017 07:55 UTC,29.96,47.48,43.7,86.65,0.0,0.0,,,,,,1.0,,,,10.0,,KIGQ 120755Z AUTO 00000KT 10SM CLR 09/07 A2996 RMK AO2  T00860065,,,,,,43.65,,N,29.31,29.18,,Clear
KIGQ,05/12/2017 08:15 UTC,29.96,45.14,42.8,91.45,0.0,0.0,,,,,,1.0,,,,10.0,,KIGQ 120815Z AUTO 00000KT 10SM CLR 07/06 A2996 RMK AO2  T00730060,,,,,,42.77,,N,29.31,29.23,,Clear
KIGQ,05/12/2017 08:35 UTC,29.95,45.5,43.52,92.73,0.0,0.0,,,,,,1.0,,,,10.0,,KIGQ 120835Z AUTO 00000KT 10SM CLR 08/06 A2995 RMK AO2  T00750064,,,,,,43.49,,N,29.3,29.19,,Clear
KIGQ,05/12/2017 08:55 UTC,29.95,45.86,43.88,92.74,0.0,0.0,,,,,,1.0,,,,10.0,,KIGQ 120855Z AUTO 00000KT 10SM CLR 08/07 A2995 RMK AO2  T00770066,,,,,,43.85,,N,29.3,29.18,,Clear
KIGQ,05/12/2017 09:15 UTC,29.95,45.5,43.7,93.37,0.0,0.0,,,,,,1.0,,,,10.0,,KIGQ 120915Z AUTO 00000KT 10SM CLR 08/07 A2995 RMK AO2  T00750065,,,,,,43.67,,N,29.3,29.19,,Clear
KIGQ,05/12/2017 09:35 UTC,29.95,44.6,43.34,95.3,0.0,0.0,,,,,,1.0,,,,10.0,,KIGQ 120935Z AUTO 00000KT 10SM CLR 07/06 A2995 RMK AO2  T00700063,,,,,,43.32,,N,29.3,29.21,,Clear
KIGQ,05/12/2017 09:55 UTC,29.95,45.5,44.42,95.98,0.0,0.0,,,,,,1.0,,,,10.0,,KIGQ 120955Z AUTO 00000KT 10SM CLR 08/07 A2995 RMK AO2  T00750069,,,,,,44.41,,N,29.3,29.17,,Clear
KIGQ,05/12/2017 10:15 UTC,29.96,42.08,41.72,98.62,0.0,0.0,,,,,,1.0,,,,7.0,,KIGQ 121015Z AUTO 00000KT 7SM CLR 06/05 A2996 RMK AO2  T00560054,,,,,,41.71,,N,29.31,29.28,,Clear
KIGQ,05/12/2017 10:35 UTC,29.96,43.16,43.16,100.0,0.0,0.0,,31.0,,,,1.0,,,,5.0,,KIGQ 121035Z AUTO 00000KT 5SM BR CLR 06/06 A2996 RMK AO2  T00620062,,,,,,43.16,,N,29.31,29.23,,Mist
KIGQ,05/12/2017 10:55 UTC,29.96,43.7,43.16,97.95,0.0,0.0,,,,,,1.0,,,,7.0,,KIGQ 121055Z AUTO 00000KT 7SM CLR 07/06 A2996 RMK AO2  T00650062,,,,,,43.15,,N,29.31,29.23,,Clear
KIGQ,05/12/2017 11:15 UTC,29.97,44.24,43.7,97.96,0.0,0.0,,,,,,1.0,,,,7.0,,KIGQ 121115Z AUTO 00000KT 7SM CLR 07/07 A2997 RMK AO2  T00680065,,,,,,43.69,,N,29.32,29.22,,Clear
KIGQ,05/12/2017 11:35 UTC,29.97,45.14,44.6,97.97,0.0,0.0,,31.0,,,,1.0,,,,5.0,,KIGQ 121135Z AUTO 00000KT 5SM BR CLR 07/07 A2997 RMK AO2  T00730070,,,,,,44.59,,N,29.32,29.19,,Mist
KIGQ,05/12/2017 11:55 UTC,29.98,47.3,46.76,97.99,0.0,0.0,,31.0,,,,1.0,,,,5.0,,KIGQ 121155Z AUTO 00000KT 5SM BR CLR 09/08 A2998 RMK AO2 T00850082  10090 20056,48.2,42.08,,,,46.75,,N,29.33,29.12,,Mist
KIGQ,05/12/2017 12:15 UTC,29.98,49.82,47.3,91.0,0.0,0.0,,,,,,1.0,,,,10.0,,KIGQ 121215Z AUTO 00000KT 10SM CLR 10/09 A2998 RMK AO2  T00990085,,,,,,47.27,,N,29.33,29.08,,Clear
KIGQ,05/12/2017 12:35 UTC,29.97,51.44,47.66,86.87,0.0,0.0,,,,,,1.0,,,,10.0,,KIGQ 121235Z AUTO 00000KT 10SM CLR 11/09 A2997 RMK AO2  T01080087,,,,,,47.62,,N,29.32,29.04,,Clear
KIGQ,05/12/2017 12:55 UTC,29.98,52.88,48.2,84.07,0.0,0.0,,,,,,1.0,,,,10.0,,KIGQ 121255Z AUTO 00000KT 10SM CLR 12/09 A2998 RMK AO2  T01160090,,,,,,48.15,,N,29.33,29.02,,Clear
KIGQ,05/12/2017 13:15 UTC,29.98,54.5,48.74,80.85,0.0,0.0,,,,,,1.0,,,,10.0,,KIGQ 121315Z AUTO 00000KT 10SM CLR 13/09 A2998 RMK AO2  T01250093,,,,,,48.68,,N,29.33,28.99,,Clear
KIGQ,05/12/2017 13:35 UTC,29.98,56.48,49.64,77.82,0.0,0.0,,,,,,1.0,,,,10.0,,KIGQ 121335Z AUTO 00000KT 10SM CLR 14/10 A2998 RMK AO2  T01360098,,,,,,49.58,,N,29.33,28.94,,Clear
KIGQ,05/12/2017 13:55 UTC,29.98,58.1,49.82,73.9,0.0,0.0,,,,,,1.0,,,,10.0,,KIGQ 121355Z AUTO 00000KT 10SM CLR 15/10 A2998 RMK AO2  T01450099,,,,,,49.75,,N,29.33,28.91,,Clear
KIGQ,05/12/2017 14:15 UTC,29.97,59.36,50.72,73.05,0.0,0.0,,,,,,1.0,,,,10.0,,KIGQ 121415Z AUTO 00000KT 10SM CLR 15/10 A2997 RMK AO2  T01520104,,,,,,50.65,,N,29.32,28.86,,Clear
KIGQ,05/12/2017 14:35 UTC,29.97,60.8,51.44,71.28,3.44,340.0,,,,,,1.0,,,,10.0,,KIGQ 121435Z AUTO 34003KT 10SM CLR 16/11 A2997 RMK AO2  T01600108,,,,,,51.37,,NNW,29.32,28.82,,Clear
KIGQ,05/12/2017 14:55 UTC,29.97,61.7,50.72,67.23,3.44,360.0,,,,,,1.0,,,,10.0,,KIGQ 121455Z AUTO 36003KT 10SM CLR 17/10 A2997 RMK AO2  T01650104,,,,,,50.64,,N,29.32,28.84,,Clear
KIGQ,05/12/2017 15:15 UTC,29.97,62.42,51.62,67.76,5.75,360.0,,,,,,1.0,,,,10.0,,KIGQ 121515Z AUTO 36005KT 10SM CLR 17/11 A2997 RMK AO2  T01690109,,,,,,51.55,,N,29.32,28.79,,Clear
KIGQ,05/12/2017 15:35 UTC,29.97,61.52,50.54,67.21,5.75,20.0,,,,,,1.0,,,,10.0,,KIGQ 121535Z AUTO 02005KT 10SM CLR 16/10 A2997 RMK AO2  T01640103,,,,,,50.46,,NNE,29.32,28.84,,Clear
KIGQ,05/12/2017 15:55 UTC,29.97,62.6,49.1,61.33,6.91,20.0,,,,,,1.0,,,,10.0,,KIGQ 121555Z AUTO 02006KT 340V040 10SM CLR 17/10 A2997 RMK AO2  T01700095,,,,,,49.02,,NNE,29.32,28.89,,Clear
KIGQ,05/12/2017 16:15 UTC,29.97,62.96,48.92,60.15,8.05,10.0,,,,,,1.0,,,,10.0,,KIGQ 121615Z AUTO 01007KT 10SM CLR 17/09 A2997 RMK AO2  T01720094,,,,,,48.83,,N,29.32,28.89,,Clear
KIGQ,05/12/2017 16:35 UTC,29.97,63.68,48.74,58.26,6.91,360.0,,,,,,1.0,,,,10.0,,KIGQ 121635Z AUTO 36006KT 10SM CLR 18/09 A2997 RMK AO2  T01760093,,,,,,48.65,,N,29.32,28.89,,Clear
KIGQ,05/12/2017 16:55 UTC,29.97,63.86,48.56,57.5,9.22,40.0,,,,,,1.0,,,,10.0,,KIGQ 121655Z AUTO 04008KT 10SM CLR 18/09 A2997 RMK AO2  T01770092,,,,,,48.47,,NE,29.32,28.9,,Clear
KIGQ,05/12/2017 17:15 UTC,29.97,65.12,49.82,57.68,8.05,20.0,,,,,,1.0,,,,10.0,,KIGQ 121715Z AUTO 02007KT 350V050 10SM CLR 18/10 A2997 RMK AO2  T01840099,,,,,,49.74,,NNE,29.32,28.84,,Clear
KIGQ,05/12/2017 17:35 UTC,29.96,64.76,48.74,56.1,9.22,50.0,,,,,,1.0,,,,10.0,,KIGQ 121735Z AUTO 05008KT 10SM CLR 18/09 A2996 RMK AO2  T01820093,,,,,,48.65,,NE,29.31,28.87,,Clear
KIGQ,05/12/2017 17:55 UTC,29.96,64.76,48.02,54.61,8.05,20.0,,,,,,1.0,,,,10.0,,KIGQ 121755Z AUTO 02007KT 10SM CLR 18/09 A2996 RMK AO2 T01820089  10184 20087,65.12,47.66,,,,47.93,,NNE,29.31,28.9,,Clear
KIGQ,05/12/2017 18:15 UTC,29.96,65.12,48.56,55.03,8.05,350.0,,,,,,1.0,,,,10.0,,KIGQ 121815Z AUTO 35007KT 10SM CLR 18/09 A2996 RMK AO2  T01840092,,,,,,48.47,,N,29.31,28.88,,Clear
KIGQ,05/12/2017 18:35 UTC,29.96,65.12,48.2,54.29,6.91,20.0,,,,,,1.0,,,,10.0,,KIGQ 121835Z AUTO 02006KT 10SM CLR 18/09 A2996 RMK AO2  T01840090,,,,,,48.11,,NNE,29.31,28.89,,Clear
KIGQ,05/12/2017 18:55 UTC,29.96,64.94,48.02,54.27,9.22,40.0,,,,,,1.0,,,,10.0,,KIGQ 121855Z AUTO 04008KT 010V070 10SM CLR 18/09 A2996 RMK AO2  T01830089,,,,,,47.93,,NE,29.31,28.9,,Clear
KIGQ,05/12/2017 19:15 UTC,29.96,65.66,48.02,52.93,8.05,20.0,,,,,,1.0,,,,10.0,,KIGQ 121915Z AUTO 02007KT 10SM CLR 19/09 A2996 RMK AO2  T01870089,,,,,,47.93,,NNE,29.31,28.89,,Clear
KIGQ,05/12/2017 19:35 UTC,29.95,66.38,47.3,50.25,10.36,70.0,,,,,,1.0,,,,10.0,,KIGQ 121935Z AUTO 07009KT 10SM CLR 19/09 A2995 RMK AO2  T01910085,,,,,,47.21,,ENE,29.3,28.9,,Clear
KIGQ,05/12/2017 19:55 UTC,29.95,65.84,45.86,48.49,8.05,50.0,,,,,,1.0,,,,10.0,,KIGQ 121955Z AUTO 05007KT 360V070 10SM CLR 19/08 A2995 RMK AO2  T01880077,,,,,,45.77,,NE,29.3,28.95,,Clear
KIGQ,05/12/2017 20:15 UTC,29.95,66.38,45.14,46.31,10.36,30.0,,,,,,1.0,,,,10.0,,KIGQ 122015Z AUTO 03009KT 10SM CLR 19/07 A2995 RMK AO2  T01910073,,,,,,45.05,,NNE,29.3,28.97,,Clear
KIGQ,05/12/2017 20:35 UTC,29.95,66.2,45.14,46.6,9.22,30.0,16.11,,,,,1.0,,,,10.0,,KIGQ 122035Z AUTO 03008G14KT 10SM CLR 19/07 A2995 RMK AO2  T01900073,,,,,,45.05,,NNE,29.3,28.98,,Clear
KIGQ,05/12/2017 20:55 UTC,29.94,64.94,47.12,52.46,10.36,40.0,,,,,,1.0,,,,10.0,,KIGQ 122055Z AUTO 04009KT 010V080 10SM CLR 18/08 A2994 RMK AO2  T01830084,,,,,,47.02,,NE,29.29,28.91,,Clear
KIGQ,05/12/2017 21:15 UTC,29.94,63.32,48.56,58.6,6.91,20.0,,,,,,1.0,,,,10.0,,KIGQ 122115Z AUTO 02006KT 10SM CLR 17/09 A2994 RMK AO2  T01740092,,,,,,48.47,,NNE,29.29,28.87,,Clear
KIGQ,05/12/2017 21:35 UTC,29.94,63.5,47.12,55.17,9.22,30.0,,,,,,1.0,,,,10.0,,KIGQ 122135Z AUTO 03008KT 10SM CLR 18/08 A2994 RMK AO2  T01750084,,,,,,47.02,,NNE,29.29,28.92,,Clear
KIGQ,05/12/2017 21:55 UTC,29.94,63.32,45.86,52.94,8.05,60.0,,,,,,1.0,,,,10.0,,KIGQ 122155Z AUTO 06007KT 10SM CLR 17/08 A2994 RMK AO2  T01740077,,,,,,45.76,,ENE,29.29,28.96,,Clear
KIGQ,05/12/2017 22:15 UTC,29.94,62.42,45.32,53.53,11.5,40.0,,,,,,1.0,,,,10.0,,KIGQ 122215Z AUTO 04010KT 10SM CLR 17/07 A2994 RMK AO2  T01690074,,,,,,45.21,,NE,29.29,28.99,,Clear
KIGQ,05/12/2017 22:35 UTC,29.94,62.6,46.76,56.17,8.05,50.0,,,,,,1.0,,,,10.0,,KIGQ 122235Z AUTO 05007KT 10SM CLR 17/08 A2994 RMK AO2  T01700082,,,,,,46.66,,NE,29.29,28.94,,Clear
KIGQ,05/12/2017 22:55 UTC,29.94,61.88,46.4,56.84,6.91,50.0,,,,,,1.0,,,,10.0,,KIGQ 122255Z AUTO 05006KT 10SM CLR 17/08 A2994 RMK AO2  T01660080,,,,,,46.3,,NE,29.29,28.96,,Clear
KIGQ,05/12/2017 23:15 UTC,29.94,61.16,45.68,56.73,9.22,30.0,,,,,,1.0,,,,10.0,,KIGQ 122315Z AUTO 03008KT 10SM CLR 16/08 A2994 RMK AO2  T01620076,,,,,,45.57,,NNE,29.29,28.99,,Clear
KIGQ,05/12/2017 23:35 UTC,29.94,59.9,45.14,58.12,6.91,50.0,,,,,,1.0,,,,10.0,,KIGQ 122335Z AUTO 05006KT 10SM CLR 16/07 A2994 RMK AO2  T01550073,,,,,,45.03,,NE,29.29,29.02,,Clear
KIGQ,05/12/2017 23:55 UTC,29.94,58.82,44.6,59.18,5.75,50.0,,,,,,1.0,,,,10.0,,KIGQ 122355Z AUTO 05005KT 10SM CLR 15/07 A2994 RMK AO2 T01490070  10193 20149,66.74,58.82,,,,44.49,,NE,29.29,29.04,,Clear
KIGQ,05/13/2017 00:15 UTC,29.94,58.1,44.42,60.31,5.75,40.0,,,,,,1.0,,,,10.0,,KIGQ 130015Z AUTO 04005KT 10SM CLR 15/07 A2994 RMK AO2  T01450069,,,,,,44.31,,NE,29.29,29.05,,Clear
KIGQ,05/13/2017 00:35 UTC,29.94,57.02,44.42,62.69,4.61,30.0,,,,,,1.0,,,,10.0,,KIGQ 130035Z AUTO 03004KT 10SM CLR 14/07 A2994 RMK AO2  T01390069,,,,,,44.31,,NNE,29.29,29.06,,Clear
KIGQ,05/13/2017 00:55 UTC,29.94,55.94,43.7,63.42,3.44,20.0,,,,,,1.0,,,,10.0,,KIGQ 130055Z AUTO 02003KT 10SM CLR 13/07 A2994 RMK AO2  T01330065,,,,,,43.59,,NNE,29.29,29.09,,Clear
KIGQ,05/13/2017 01:15 UTC,29.94,55.4,44.42,66.48,3.44,20.0,,,,,,1.0,,,,10.0,,KIGQ 130115Z AUTO 02003KT 10SM CLR 13/07 A2994 RMK AO2  T01300069,,,,,,44.32,,NNE,29.29,29.07,,Clear
KIGQ,05/13/2017 01:35 UTC,29.94,54.14,44.42,69.59,4.61,20.0,,,,,,1.0,,,,10.0,,KIGQ 130135Z AUTO 02004KT 10SM CLR 12/07 A2994 RMK AO2  T01230069,,,,,,44.32,,NNE,29.29,29.09,,Clear
KIGQ,05/13/2017 01:55 UTC,29.95,54.5,43.7,66.82,0.0,0.0,,,,,,1.0,,,,10.0,,KIGQ 130155Z AUTO 00000KT 10SM CLR 13/07 A2995 RMK AO2  T01250065,,,,,,43.6,,N,29.3,29.11,,Clear
KIGQ,05/13/2017 02:15 UTC,29.95,54.5,44.06,67.75,0.0,0.0,,,,,,1.0,,,,10.0,,KIGQ 130215Z AUTO 00000KT 10SM CLR 13/07 A2995 RMK AO2  T01250067,,,,,,43.96,,N,29.3,29.1,,Clear
KIGQ,05/13/2017 02:35 UTC,29.96,53.6,45.5,73.96,0.0,0.0,,,,,,1.0,,,,10.0,,KIGQ 130235Z AUTO 00000KT 10SM CLR 12/08 A2996 RMK AO2  T01200075,,,,,,45.42,,N,29.31,29.08,,Clear
KIGQ,05/13/2017 02:55 UTC,29.96,52.88,46.04,77.5,3.44,360.0,,,,,,1.0,,,,10.0,,KIGQ 130255Z AUTO 36003KT 10SM CLR 12/08 A2996 RMK AO2  T01160078,,,,,,45.97,,N,29.31,29.07,,Clear
KIGQ,05/13/2017 03:15 UTC,29.96,51.26,45.5,80.6,4.61,10.0,,,,,,1.0,,,,10.0,,KIGQ 130315Z AUTO 01004KT 10SM CLR 11/08 A2996 RMK AO2  T01070075,,,,,,45.44,,N,29.31,29.1,,Clear
KIGQ,05/13/2017 03:35 UTC,29.96,51.26,45.5,80.6,0.0,0.0,,,,,,703.0,,,,10.0,,KIGQ 130335Z AUTO 00000KT 10SM BKN070 11/08 A2996 RMK AO2  T01070075,,,7000.0,,,45.44,,N,29.31,29.1,,Mostly Cloudy
KIGQ,05/13/2017 03:55 UTC,29.95,51.26,45.5,80.6,0.0,0.0,,,,,,653.0,753.0,,,10.0,,KIGQ 130355Z AUTO 00000KT 10SM BKN065 BKN075 11/08 A2995 RMK AO2  T01070075,,,6500.0,,,45.44,,N,29.3,29.09,,Mostly Cloudy
KIGQ,05/13/2017 04:15 UTC,29.95,51.26,45.32,80.05,0.0,0.0,,,,,,652.0,752.0,,,10.0,,KIGQ 130415Z AUTO 00000KT 10SM SCT065 SCT075 11/07 A2995 RMK AO2  T01070074,,,,,,45.25,,N,29.3,29.09,,Partly Cloudy
KIGQ,05/13/2017 04:35 UTC,29.96,51.08,45.5,81.14,0.0,0.0,,,,,,1.0,,,,10.0,,KIGQ 130435Z AUTO 00000KT 10SM CLR 11/08 A2996 RMK AO2  T01060075,,,,,,45.44,,N,29.31,29.1,,Clear
KIGQ,05/13/2017 04:55 UTC,29.95,50.54,45.14,81.65,0.0,0.0,,,,,,1.0,,,,10.0,,KIGQ 130455Z AUTO 00000KT 10SM CLR 10/07 A2995 RMK AO2  T01030073,,,,,,45.08,,N,29.3,29.11,,Clear
KIGQ,05/13/2017 05:15 UTC,29.95,50.36,44.96,81.64,0.0,0.0,,,,,,702.0,803.0,,,10.0,,KIGQ 130515Z AUTO 00000KT 10SM SCT070 BKN080 10/07 A2995 RMK AO2  T01020072,,,8000.0,,,44.9,,N,29.3,29.11,,Mostly Cloudy
KIGQ,05/13/2017 05:35 UTC,29.94,50.18,44.96,82.19,0.0,0.0,,,,,,702.0,,,,10.0,,KIGQ 130535Z AUTO 00000KT 10SM SCT070 10/07 A2994 RMK AO2  T01010072,,,,,,44.9,,N,29.29,29.1,,Partly Cloudy
KIGQ,05/13/2017 05:55 UTC,29.94,49.1,45.14,86.15,0.0,0.0,,,,,,803.0,,,,10.0,,KIGQ 130555Z AUTO 00000KT 10SM BKN080 10/07 A2994 RMK AO2  T00950073 10148 20095 401930056,58.64,49.1,8000.0,66.74,42.08,45.09,,N,29.29,29.11,,Mostly Cloudy
KIGQ,05/13/2017 06:15 UTC,29.93,48.92,45.32,87.32,0.0,0.0,,,,,,804.0,,,,10.0,,KIGQ 130615Z AUTO 00000KT 10SM OVC080 09/07 A2993 RMK AO2  T00940074,,,8000.0,,,45.28,,N,29.28,29.09,,Overcast
KIGQ,05/13/2017 06:35 UTC,29.93,48.56,46.4,92.2,0.0,0.0,,,,,,803.0,,,,10.0,,KIGQ 130635Z AUTO 00000KT 10SM BKN080 09/08 A2993 RMK AO2  T00920080,,,8000.0,,,46.37,,N,29.28,29.07,,Mostly Cloudy
KIGQ,05/13/2017 06:55 UTC,29.92,47.12,46.04,96.01,0.0,0.0,,,,,,1.0,,,,10.0,,KIGQ 130655Z AUTO 00000KT 10SM CLR 08/08 A2992 RMK AO2  T00840078,,,,,,46.03,,N,29.27,29.08,,Clear
KIGQ,05/13/2017 07:15 UTC,29.92,46.04,45.5,97.98,0.0,0.0,,,,,,1.0,,,,10.0,,KIGQ 130715Z AUTO 00000KT 10SM CLR 08/08 A2992 RMK AO2  T00780075,,,,,,45.49,,N,29.27,29.11,,Clear
KIGQ,05/13/2017 07:35 UTC,29.92,45.5,44.6,96.64,0.0,0.0,,,,,,1.0,,,,10.0,,KIGQ 130735Z AUTO 00000KT 10SM CLR 08/07 A2992 RMK AO2  T00750070,,,,,,44.59,,N,29.27,29.14,,Clear
KIGQ,05/13/2017 07:55 UTC,29.92,44.78,43.88,96.63,0.0,0.0,,,,,,1.0,,,,10.0,,KIGQ 130755Z AUTO 00000KT 10SM CLR 07/07 A2992 RMK AO2  T00710066,,,,,,43.87,,N,29.27,29.16,,Clear
KIGQ,05/13/2017 08:15 UTC,29.92,44.24,43.7,97.96,0.0,0.0,,,,,,1.0,,,,10.0,,KIGQ 130815Z AUTO 00000KT 10SM CLR 07/07 A2992 RMK AO2  T00680065,,,,,,43.69,,N,29.27,29.17,,Clear
KIGQ,05/13/2017 08:35 UTC,29.92,44.96,44.6,98.64,0.0,0.0,,,,,,1.0,,,,10.0,,KIGQ 130835Z AUTO 00000KT 10SM CLR 07/07 A2992 RMK AO2  T00720070,,,,,,44.6,,N,29.27,29.14,,Clear
KIGQ,05/13/2017 08:55 UTC,29.92,44.24,44.06,99.32,0.0,0.0,,,,,,1.0,,,,7.0,,KIGQ 130855Z AUTO 00000KT 7SM CLR 07/07 A2992 RMK AO2  T00680067,,,,,,44.06,,N,29.27,29.16,,Clear
KIGQ,05/13/2017 09:15 UTC,29.92,44.24,44.06,99.32,0.0,0.0,,,,,,1.0,,,,10.0,,KIGQ 130915Z AUTO 00000KT 10SM CLR 07/07 A2992 RMK AO2  T00680067,,,,,,44.06,,N,29.27,29.16,,Clear
KIGQ,05/13/2017 09:35 UTC,29.93,44.24,43.7,97.96,0.0,0.0,,,,,,1.0,,,,10.0,,KIGQ 130935Z AUTO 00000KT 10SM CLR 07/07 A2993 RMK AO2  T00680065,,,,,,43.69,,N,29.28,29.18,,Clear
KIGQ,05/13/2017 10:15 UTC,29.92,43.34,43.34,100.0,0.0,0.0,,31.0,,,,1.0,,,,4.0,,KIGQ 131015Z AUTO 00000KT 4SM BR CLR 06/06 A2992 RMK AO2  T00630063,,,,,,43.34,,N,29.27,29.19,,Mist
KIGQ,05/13/2017 10:35 UTC,29.93,43.52,43.52,100.0,0.0,0.0,,,,,,1.0,,,,7.0,,KIGQ 131035Z AUTO 00000KT 7SM CLR 06/06 A2993 RMK AO2  T00640064,,,,,,43.52,,N,29.28,29.19,,Clear
KIGQ,05/13/2017 10:55 UTC,29.93,42.44,42.44,100.0,0.0,0.0,,31.0,,,,1.0,,,,5.0,,KIGQ 131055Z AUTO 00000KT 5SM BR CLR 06/06 A2993 RMK AO2  T00580058,,,,,,42.44,,N,29.28,29.23,,Mist
KIGQ,05/13/2017 11:15 UTC,29.93,43.7,43.7,100.0,0.0,0.0,,,,,,1.0,,,,7.0,,KIGQ 131115Z AUTO 00000KT 7SM CLR 07/07 A2993 RMK AO2  T00650065,,,,,,43.7,,N,29.28,29.19,,Clear
KIGQ,05/13/2017 11:35 UTC,29.94,44.78,44.78,100.0,0.0,0.0,,,,,,1202.0,,,,7.0,,KIGQ 131135Z AUTO 00000KT 7SM SCT120 07/07 A2994 RMK AO2  T00710071,,,,,,44.78,,N,29.29,29.16,,Partly Cloudy
KIGQ,05/13/2017 11:55 UTC,29.94,46.4,45.86,97.98,0.0,0.0,,,,,,1202.0,,,,7.0,,KIGQ 131155Z AUTO 00000KT 7SM SCT120 08/08 A2994 RMK AO2 T00800077  10095 20057,49.1,42.26,,,,45.85,,N,29.29,29.11,,Partly Cloudy
KIGQ,05/13/2017 12:15 UTC,29.94,48.56,47.66,96.68,0.0,0.0,,,,,,1.0,,,,7.0,,KIGQ 131215Z AUTO 00000KT 7SM CLR 09/09 A2994 RMK AO2  T00920087,,,,,,47.65,,N,29.29,29.04,,Clear
KIGQ,05/13/2017 12:35 UTC,29.95,52.7,48.2,84.63,0.0,0.0,,,,,,902.0,1202.0,,,10.0,,KIGQ 131235Z AUTO 00000KT 10SM SCT090 SCT120 12/09 A2995 RMK AO2  T01150090,,,,,,48.15,,N,29.3,28.99,,Partly Cloudy
KIGQ,05/13/2017 12:55 UTC,29.95,54.86,49.1,80.88,0.0,0.0,,,,,,1002.0,,,,10.0,,KIGQ 131255Z AUTO 00000KT 10SM SCT100 13/10 A2995 RMK AO2  T01270095,,,,,,49.04,,N,29.3,28.94,,Partly Cloudy
KIGQ,05/13/2017 13:15 UTC,29.95,57.56,50.18,76.37,0.0,0.0,,,,,,1.0,,,,10.0,,KIGQ 131315Z AUTO 00000KT 10SM CLR 14/10 A2995 RMK AO2  T01420101,,,,,,50.12,,N,29.3,28.88,,Clear
KIGQ,05/13/2017 13:35 UTC,29.95,60.08,50.72,71.2,0.0,0.0,,,,,,953.0,,,,10.0,,KIGQ 131335Z AUTO 00000KT 10SM BKN095 16/10 A2995 RMK AO2  T01560104,,,9500.0,,,50.65,,N,29.3,28.83,,Mostly Cloudy
KIGQ,05/13/2017 13:55 UTC,29.95,61.16,51.62,70.84,3.44,240.0,,,,,,954.0,,,,10.0,,KIGQ 131355Z AUTO 24003KT 10SM OVC095 16/11 A2995 RMK AO2  T01620109,,,9500.0,,,51.55,,WSW,29.3,28.79,,Overcast
KIGQ,05/13/2017 14:15 UTC,29.95,62.96,51.62,66.49,4.61,210.0,,,,,,952.0,1103.0,,,10.0,,KIGQ 131415Z AUTO 21004KT 10SM SCT095 BKN110 17/11 A2995 RMK AO2  T01720109,,,11000.0,,,51.55,,SSW,29.3,28.77,,Mostly Cloudy
KIGQ,05/13/2017 14:35 UTC,29.95,64.94,52.34,63.71,4.61,230.0,,,,,,1003.0,,,,10.0,,KIGQ 131435Z AUTO 23004KT 10SM BKN100 18/11 A2995 RMK AO2  T01830113,,,10000.0,,,52.27,,SW,29.3,28.72,,Mostly Cloudy
KIGQ,05/13/2017 14:55 UTC,29.94,66.38,52.16,60.21,5.75,240.0,,,,,,1003.0,,,,10.0,,KIGQ 131455Z AUTO 24005KT 10SM BKN100 19/11 A2994 RMK AO2  T01910112,,,10000.0,,,52.09,,WSW,29.29,28.7,,Mostly Cloudy
KIGQ,05/13/2017 15:15 UTC,29.93,67.46,52.34,58.39,9.22,240.0,,,,,,902.0,1102.0,,,10.0,,KIGQ 131515Z AUTO 24008KT 10SM SCT090 SCT110 20/11 A2993 RMK AO2  T01970113,,,,,,52.27,,WSW,29.28,28.68,,Partly Cloudy
KIGQ,05/13/2017 15:35 UTC,29.93,68.54,52.88,57.39,11.5,270.0,,,,,,904.0,,,,10.0,,KIGQ 131535Z AUTO 27010KT 10SM OVC090 20/12 A2993 RMK AO2  T02030116,,,9000.0,,,52.82,,W,29.28,28.64,,Overcast
KIGQ,05/13/2017 15:55 UTC,29.92,68.54,53.24,58.16,10.36,260.0,,,,,,903.0,,,,10.0,,KIGQ 131555Z AUTO 26009KT 10SM BKN090 20/12 A2992 RMK AO2  T02030118,,,9000.0,,,53.18,,W,29.27,28.62,,Mostly Cloudy
KIGQ,05/13/2017 16:15 UTC,29.92,68.9,52.52,55.95,9.22,230.0,,,,,,902.0,1202.0,,,10.0,,KIGQ 131615Z AUTO 23008KT 10SM SCT090 SCT120 21/11 A2992 RMK AO2  T02050114,,,,,,52.46,,SW,29.27,28.64,,Partly Cloudy
KIGQ,05/13/2017 16:35 UTC,29.91,70.88,51.98,51.27,10.36,220.0,,,,,,1202.0,,,,10.0,,KIGQ 131635Z AUTO 22009KT 10SM SCT120 22/11 A2991 RMK AO2  T02160111,,,,,,51.93,,SW,29.26,28.64,,Partly Cloudy
KIGQ,05/13/2017 16:55 UTC,29.91,70.52,50.18,48.56,12.66,260.0,16.11,,,,,1203.0,,,,10.0,,KIGQ 131655Z AUTO 26011G14KT 10SM BKN120 21/10 A2991 RMK AO2  T02140101,,,12000.0,,,50.12,,W,29.26,28.72,,Mostly Cloudy
KIGQ,05/13/2017 17:15 UTC,29.89,71.06,50.54,48.32,9.22,240.0,,,,,,1103.0,,,,10.0,,KIGQ 131715Z AUTO 24008KT 10SM BKN110 22/10 A2989 RMK AO2  T02170103,,,11000.0,,,50.48,,WSW,29.24,28.68,,Mostly Cloudy
KIGQ,05/13/2017 17:35 UTC,29.88,72.86,50.9,46.08,14.97,240.0,18.41,,,,,1103.0,,,,10.0,,KIGQ 131735Z AUTO 24013G16KT 10SM BKN110 23/11 A2988 RMK AO2  T02270105,,,11000.0,,,50.86,,WSW,29.23,28.64,,Mostly Cloudy
KIGQ,05/13/2017 17:55 UTC,29.87,72.86,52.52,48.91,13.8,220.0,19.57,,,,,1103.0,,,,10.0,,KIGQ 131755Z AUTO 22012G17KT 10SM BKN110 23/11 A2987 RMK AO2  T02270114 10227 20077,72.86,45.86,11000.0,,,52.47,,SW,29.22,28.56,,Mostly Cloudy
KIGQ,05/13/2017 18:15 UTC,29.87,72.14,50.0,45.66,11.5,250.0,20.71,,,,,1103.0,,,,10.0,,KIGQ 131815Z AUTO 25010G18KT 10SM BKN110 22/10 A2987 RMK AO2  T02230100,,,11000.0,,,49.95,,WSW,29.22,28.67,,Mostly Cloudy
KIGQ,05/13/2017 18:35 UTC,29.87,72.5,51.26,47.26,16.11,230.0,,,,,,1003.0,,,,10.0,,KIGQ 131835Z AUTO 23014KT 10SM BKN100 23/11 A2987 RMK AO2  T02250107,,,10000.0,,,51.21,,SW,29.22,28.62,,Mostly Cloudy
KIGQ,05/13/2017 18:55 UTC,29.86,72.14,50.36,46.27,11.5,250.0,23.02,,,,,1003.0,1203.0,,,10.0,,KIGQ 131855Z AUTO 25010G20KT 10SM BKN100 BKN120 22/10 A2986 RMK AO2 T02230102,,,10000.0,,,50.31,,WSW,29.21,28.65,,Mostly Cloudy
KIGQ,05/13/2017 19:15 UTC,29.85,75.2,52.88,45.83,12.66,260.0,17.27,,,,,1002.0,1202.0,,,10.0,,KIGQ 131915Z AUTO 26011G15KT 10SM SCT100 SCT120 24/12 A2985 RMK AO2 T02400116,,,,,,52.85,,W,29.2,28.5,,Partly Cloudy
KIGQ,05/13/2017 19:35 UTC,29.85,72.86,50.9,46.08,10.36,270.0,20.71,,,,,1103.0,,,,10.0,,KIGQ 131935Z AUTO 27009G18KT 10SM BKN110 23/11 A2985 RMK AO2  T02270105,,,11000.0,,,50.86,,W,29.2,28.61,,Mostly Cloudy
KIGQ,05/13/2017 19:55 UTC,29.85,72.86,50.0,44.56,12.66,270.0,17.27,,,,,1004.0,,,,10.0,,KIGQ 131955Z AUTO 27011G15KT 10SM OVC100 23/10 A2985 RMK AO2  T02270100,,,10000.0,,,49.95,,W,29.2,28.64,,Overcast
KIGQ,05/13/2017 20:15 UTC,29.83,75.02,53.06,46.41,10.36,270.0,,,,,,1002.0,1203.0,,,10.0,,KIGQ 132015Z AUTO 27009KT 10SM SCT100 BKN120 24/12 A2983 RMK AO2  T02390117,,,12000.0,,,53.03,,W,29.18,28.48,,Mostly Cloudy
KIGQ,05/13/2017 20:35 UTC,29.82,74.48,53.06,47.26,12.66,260.0,19.57,,,,,1202.0,,,,10.0,,KIGQ 132035Z AUTO 26011G17KT 10SM SCT120 24/12 A2982 RMK AO2  T02360117,,,,,,53.03,,W,29.17,28.47,,Partly Cloudy
KIGQ,05/13/2017 20:55 UTC,29.81,77.72,54.5,44.73,12.66,260.0,18.41,,,,,1202.0,,,,10.0,,KIGQ 132055Z AUTO 26011G16KT 10SM SCT120 25/13 A2981 RMK AO2  T02540125,,,,,,54.5,,W,29.16,28.36,,Partly Cloudy
KIGQ,05/13/2017 21:15 UTC,29.81,78.8,54.14,42.61,12.66,290.0,17.27,,,,,1102.0,,,,10.0,,KIGQ 132115Z AUTO 29011G15KT 10SM SCT110 26/12 A2981 RMK AO2  T02600123,,,,,,54.15,,WNW,29.16,28.37,,Partly Cloudy
KIGQ,05/13/2017 21:35 UTC,29.8,78.26,53.6,42.53,9.22,300.0,,,,,,1102.0,,,,10.0,,KIGQ 132135Z AUTO 30008KT 10SM SCT110 26/12 A2980 RMK AO2  T02570120,,,,,,53.61,,WNW,29.15,28.39,,Partly Cloudy
KIGQ,05/13/2017 21:55 UTC,29.8,78.8,54.86,43.74,9.22,290.0,12.66,,,,,1.0,,,,10.0,,KIGQ 132155Z AUTO 29008G11KT 10SM CLR 26/13 A2980 RMK AO2  T02600127,,,,,,54.87,,WNW,29.15,28.33,,Clear
KIGQ,05/13/2017 22:15 UTC,29.8,78.26,53.96,43.09,13.8,280.0,18.41,,,,,1.0,,,,10.0,,KIGQ 132215Z AUTO 28012G16KT 10SM CLR 26/12 A2980 RMK AO2  T02570122,,,,,,53.96,,W,29.15,28.38,,Clear
KIGQ,05/13/2017 22:35 UTC,29.8,78.8,55.04,44.03,5.75,300.0,,,,,,1102.0,,,,10.0,,KIGQ 132235Z AUTO 30005KT 10SM SCT110 26/13 A2980 RMK AO2  T02600128,,,,,,55.05,,WNW,29.15,28.32,,Partly Cloudy
KIGQ,05/13/2017 22:55 UTC,29.79,78.8,53.06,40.96,11.5,330.0,19.57,,,,,802.0,1102.0,,,10.0,,KIGQ 132255Z AUTO 33010G17KT 10SM SCT080 SCT110 26/12 A2979 RMK AO2 T02600117,,,,,,53.07,,NNW,29.14,28.4,,Partly Cloudy
KIGQ,05/13/2017 23:15 UTC,29.79,78.44,53.6,42.28,9.22,280.0,,,,,,1.0,,,,10.0,,KIGQ 132315Z AUTO 28008KT 10SM CLR 26/12 A2979 RMK AO2  T02580120,,,,,,53.61,,W,29.14,28.38,,Clear
KIGQ,05/13/2017 23:35 UTC,29.79,78.26,53.6,42.53,9.22,300.0,,,,,,1.0,,,,10.0,,KIGQ 132335Z AUTO 30008KT 10SM CLR 26/12 A2979 RMK AO2  T02570120,,,,,,53.61,,WNW,29.14,28.38,,Clear
KIGQ,05/13/2017 23:55 UTC,29.79,77.9,52.34,41.09,13.8,330.0,18.41,,,,,1.0,,,,10.0,,KIGQ 132355Z AUTO 33012G16KT 10SM CLR 26/11 A2979 RMK AO2  T02550113 10263 20223,79.34,72.14,,,,52.34,,NNW,29.14,28.44,,Clear
KIGQ,05/14/2017 00:15 UTC,29.8,77.0,52.7,42.89,6.91,310.0,,,,,,1.0,,,,10.0,,KIGQ 140015Z AUTO 31006KT 10SM CLR 25/12 A2980 RMK AO2  T02500115,,,,,,52.69,,NW,29.15,28.44,,Clear
KIGQ,05/14/2017 00:35 UTC,29.8,75.92,52.7,44.45,4.61,320.0,,,,,,1.0,,,,10.0,,KIGQ 140035Z AUTO 32004KT 10SM CLR 24/12 A2980 RMK AO2  T02440115,,,,,,52.68,,NW,29.15,28.45,,Clear
KIGQ,05/14/2017 00:55 UTC,29.8,75.02,52.7,45.8,3.44,300.0,,,,,,1.0,,,,10.0,,KIGQ 140055Z AUTO 30003KT 10SM CLR 24/12 A2980 RMK AO2  T02390115,,,,,,52.67,,WNW,29.15,28.46,,Clear
KIGQ,05/14/2017 01:15 UTC,29.8,73.4,52.34,47.72,3.44,50.0,,,,,,1.0,,,,10.0,,KIGQ 140115Z AUTO 05003KT 10SM CLR 23/11 A2980 RMK AO2  T02300113,,,,,,52.3,,NE,29.15,28.49,,Clear
KIGQ,05/14/2017 01:35 UTC,29.8,69.26,52.7,55.63,0.0,0.0,,,,,,1.0,,,,10.0,,KIGQ 140135Z AUTO 00000KT 10SM CLR 21/12 A2980 RMK AO2  T02070115,,,,,,52.64,,N,29.15,28.51,,Clear
KIGQ,05/14/2017 01:55 UTC,29.81,67.28,53.42,61.13,4.61,100.0,,,,,,1.0,,,,10.0,,KIGQ 140155Z AUTO 10004KT 10SM CLR 20/12 A2981 RMK AO2  T01960119,,,,,,53.36,,E,29.16,28.51,,Clear
KIGQ,05/14/2017 02:15 UTC,29.81,65.48,54.14,66.79,0.0,0.0,,,,,,1.0,,,,10.0,,KIGQ 140215Z AUTO 00000KT 10SM CLR 19/12 A2981 RMK AO2  T01860123,,,,,,54.08,,N,29.16,28.5,,Clear
KIGQ,05/14/2017 02:35 UTC,29.82,66.38,53.06,62.23,3.44,50.0,,,,,,1.0,,,,10.0,,KIGQ 140235Z AUTO 05003KT 10SM CLR 19/12 A2982 RMK AO2  T01910117,,,,,,52.99,,NE,29.17,28.54,,Clear
KIGQ,05/14/2017 02:55 UTC,29.82,66.38,51.08,57.86,0.0,0.0,,,,,,1.0,,,,10.0,,KIGQ 140255Z AUTO 00000KT 10SM CLR 19/11 A2982 RMK AO2  T01910106,,,,,,51.01,,N,29.17,28.63,,Clear
KIGQ,05/14/2017 03:15 UTC,29.83,65.84,50.36,57.4,0.0,0.0,,,,,,1.0,,,,10.0,,KIGQ 140315Z AUTO 00000KT 10SM CLR 19/10 A2983 RMK AO2  T01880102,,,,,,50.28,,N,29.18,28.67,,Clear
KIGQ,05/14/2017 03:35 UTC,29.83,64.04,49.64,59.49,4.61,20.0,,,,,,1.0,,,,10.0,,KIGQ 140335Z AUTO 02004KT 10SM CLR 18/10 A2983 RMK AO2  T01780098,,,,,,49.56,,NNE,29.18,28.71,,Clear
KIGQ,05/14/2017 03:55 UTC,29.84,63.5,49.1,59.42,0.0,0.0,,,,,,1.0,,,,10.0,,KIGQ 140355Z AUTO 00000KT 10SM CLR 18/10 A2984 RMK AO2  T01750095,,,,,,49.01,,N,29.19,28.75,,Clear
KIGQ,05/14/2017 04:15 UTC,29.84,62.6,48.38,59.7,4.61,50.0,,,,,,1.0,,,,10.0,,KIGQ 140415Z AUTO 05004KT 10SM CLR 17/09 A2984 RMK AO2  T01700091,,,,,,48.29,,NE,29.19,28.78,,Clear
KIGQ,05/14/2017 04:35 UTC,29.84,62.96,47.84,57.77,0.0,0.0,,,,,,1.0,,,,10.0,,KIGQ 140435Z AUTO 00000KT 10SM CLR 17/09 A2984 RMK AO2  T01720088,,,,,,47.75,,N,29.19,28.8,,Clear
KIGQ,05/14/2017 04:55 UTC,29.84,61.88,47.66,59.6,0.0,0.0,,,,,,1.0,,,,10.0,,KIGQ 140455Z AUTO 00000KT 10SM CLR 17/09 A2984 RMK AO2  T01660087,,,,,,47.57,,N,29.19,28.81,,Clear
KIGQ,05/14/2017 05:15 UTC,29.85,59.0,49.1,69.67,0.0,0.0,,,,,,1.0,,,,10.0,,KIGQ 140515Z AUTO 00000KT 10SM CLR 15/10 A2985 RMK AO2  T01500095,,,,,,49.02,,N,29.2,28.8,,Clear
KIGQ,05/14/2017 05:35 UTC,29.85,56.66,49.1,75.77,0.0,0.0,,,,,,1.0,,,,10.0,,KIGQ 140535Z AUTO 00000KT 10SM CLR 14/10 A2985 RMK AO2  T01370095,,,,,,49.03,,N,29.2,28.82,,Clear
KIGQ,05/14/2017 05:55 UTC,29.85,55.76,50.0,80.95,0.0,0.0,,,,,,1.0,,,,10.0,,KIGQ 140555Z AUTO 00000KT 10SM CLR 13/10 A2985 RMK AO2 T01320100  10255 20132 402630057,77.9,55.76,,79.34,42.26,49.95,,N,29.2,28.8,,Clear
KIGQ,05/14/2017 06:15 UTC,29.86,55.22,49.82,82.0,3.44,290.0,,,,,,1.0,,,,10.0,,KIGQ 140615Z AUTO 29003KT 10SM CLR 13/10 A2986 RMK AO2  T01290099,,,,,,49.77,,WNW,29.21,28.82,,Clear
KIGQ,05/14/2017 06:35 UTC,29.85,55.04,48.92,79.81,3.44,360.0,,,,,,1.0,,,,10.0,,KIGQ 140635Z AUTO 36003KT 10SM CLR 13/09 A2985 RMK AO2  T01280094,,,,,,48.86,,N,29.2,28.84,,Clear
KIGQ,05/14/2017 06:55 UTC,29.86,54.5,48.74,80.85,0.0,0.0,,,,,,1.0,,,,10.0,,KIGQ 140655Z AUTO 00000KT 10SM CLR 13/09 A2986 RMK AO2  T01250093,,,,,,48.68,,N,29.21,28.86,,Clear
KIGQ,05/14/2017 07:15 UTC,29.86,54.32,48.2,79.76,0.0,0.0,,,,,,1.0,,,,10.0,,KIGQ 140715Z AUTO 00000KT 10SM CLR 12/09 A2986 RMK AO2  T01240090,,,,,,48.14,,N,29.21,28.88,,Clear
KIGQ,05/14/2017 07:35 UTC,29.86,52.7,49.28,88.11,0.0,0.0,,,,,,1.0,,,,10.0,,KIGQ 140735Z AUTO 00000KT 10SM CLR 12/10 A2986 RMK AO2  T01150096,,,,,,49.24,,N,29.21,28.86,,Clear
KIGQ,05/14/2017 07:55 UTC,29.85,53.06,48.38,84.08,0.0,0.0,,,,,,1.0,,,,10.0,,KIGQ 140755Z AUTO 00000KT 10SM CLR 12/09 A2985 RMK AO2  T01170091,,,,,,48.33,,N,29.2,28.88,,Clear
KIGQ,05/14/2017 08:15 UTC,29.86,50.36,48.92,94.78,0.0,0.0,,,,,,1.0,,,,10.0,,KIGQ 140815Z AUTO 00000KT 10SM CLR 10/09 A2986 RMK AO2  T01020094,,,,,,48.9,,N,29.21,28.9,,Clear
KIGQ,05/14/2017 08:35 UTC,29.86,51.26,49.28,92.91,0.0,0.0,,,,,,1.0,,,,10.0,,KIGQ 140835Z AUTO 00000KT 10SM CLR 11/10 A2986 RMK AO2  T01070096,,,,,,49.26,,N,29.21,28.88,,Clear
KIGQ,05/14/2017 08:55 UTC,29.86,51.62,49.1,91.07,0.0,0.0,,,,,,1.0,,,,10.0,,KIGQ 140855Z AUTO 00000KT 10SM CLR 11/10 A2986 RMK AO2  T01090095,,,,,,49.07,,N,29.21,28.88,,Clear
KIGQ,05/14/2017 09:15 UTC,29.86,50.0,48.2,93.5,0.0,0.0,,,,,,1.0,,,,10.0,,KIGQ 140915Z AUTO 00000KT 10SM CLR 10/09 A2986 RMK AO2  T01000090,,,,,,48.18,,N,29.21,28.92,,Clear
KIGQ,05/14/2017 09:35 UTC,29.86,51.26,49.1,92.29,0.0,0.0,,,,,,1.0,,,,10.0,,KIGQ 140935Z AUTO 00000KT 10SM CLR 11/10 A2986 RMK AO2  T01070095,,,,,,49.08,,N,29.21,28.88,,Clear
KIGQ,05/14/2017 09:55 UTC,29.87,49.28,47.48,93.48,0.0,0.0,,,,,,1.0,,,,10.0,,KIGQ 140955Z AUTO 00000KT 10SM CLR 10/09 A2987 RMK AO2  T00960086,,,,,,47.46,,N,29.22,28.96,,Clear
KIGQ,05/14/2017 10:15 UTC,29.87,49.82,49.1,97.35,0.0,0.0,,,,,,1.0,,,,10.0,,KIGQ 141015Z AUTO 00000KT 10SM CLR 10/10 A2987 RMK AO2  T00990095,,,,,,49.09,,N,29.22,28.91,,Clear
KIGQ,05/14/2017 10:35 UTC,29.87,48.92,48.02,96.69,0.0,0.0,,,,,,1.0,,,,10.0,,KIGQ 141035Z AUTO 00000KT 10SM CLR 09/09 A2987 RMK AO2  T00940089,,,,,,48.01,,N,29.22,28.95,,Clear
KIGQ,05/14/2017 10:55 UTC,29.88,50.54,49.28,95.42,3.44,10.0,,,,,,1.0,,,,10.0,,KIGQ 141055Z AUTO 01003KT 10SM CLR 10/10 A2988 RMK AO2  T01030096,,,,,,49.26,,N,29.23,28.9,,Clear
KIGQ,05/14/2017 11:15 UTC,29.89,51.62,49.82,93.55,0.0,0.0,,,,,,1.0,,,,10.0,,KIGQ 141115Z AUTO 00000KT 10SM CLR 11/10 A2989 RMK AO2  T01090099,,,,,,49.8,,N,29.24,28.89,,Clear
KIGQ,05/14/2017 11:35 UTC,29.9,54.14,49.64,84.72,4.61,20.0,,,,,,1.0,,,,10.0,,KIGQ 141135Z AUTO 02004KT 10SM CLR 12/10 A2990 RMK AO2  T01230098,,,,,,49.6,,NNE,29.25,28.88,,Clear
KIGQ,05/14/2017 11:55 UTC,29.91,54.86,50.36,84.76,4.61,30.0,,,,,,1.0,,,,10.0,,KIGQ 141155Z AUTO 03004KT 10SM CLR 13/10 A2991 RMK AO2 T01270102  10133 20089,55.94,48.02,,,,50.32,,NNE,29.26,28.85,,Clear
KIGQ,05/14/2017 12:15 UTC,29.91,55.4,50.9,84.8,4.61,50.0,,,,,,1.0,,,,7.0,,KIGQ 141215Z AUTO 05004KT 7SM CLR 13/11 A2991 RMK AO2  T01300105,,,,,,50.86,,NE,29.26,28.83,,Clear
KIGQ,05/14/2017 12:35 UTC,29.92,56.12,50.54,81.52,3.44,40.0,,,,,,1.0,,,,7.0,,KIGQ 141235Z AUTO 04003KT 7SM CLR 13/10 A2992 RMK AO2  T01340103,,,,,,50.49,,NE,29.27,28.85,,Clear
KIGQ,05/14/2017 12:55 UTC,29.92,57.38,50.0,76.35,0.0,0.0,,,,,,1.0,,,,10.0,,KIGQ 141255Z AUTO 00000KT 10SM CLR 14/10 A2992 RMK AO2  T01410100,,,,,,49.94,,N,29.27,28.85,,Clear
KIGQ,05/14/2017 13:15 UTC,29.93,58.82,50.0,72.51,0.0,0.0,,,,,,1.0,,,,10.0,,KIGQ 141315Z AUTO 00000KT 10SM CLR 15/10 A2993 RMK AO2  T01490100,,,,,,49.93,,N,29.28,28.85,,Clear
KIGQ,05/14/2017 13:35 UTC,29.93,60.08,50.54,70.73,3.44,20.0,,,,,,1.0,,,,10.0,,KIGQ 141335Z AUTO 02003KT 10SM CLR 16/10 A2993 RMK AO2  T01560103,,,,,,50.47,,NNE,29.28,28.82,,Clear
KIGQ,05/14/2017 13:55 UTC,29.94,61.34,50.9,68.55,3.44,50.0,,,,,,1.0,,,,10.0,,KIGQ 141355Z AUTO 05003KT 10SM CLR 16/11 A2994 RMK AO2  T01630105,,,,,,50.83,,NE,29.29,28.8,,Clear
KIGQ,05/14/2017 14:15 UTC,29.94,62.42,51.62,67.76,3.44,30.0,,,,,,1.0,,,,10.0,,KIGQ 141415Z AUTO 03003KT 10SM CLR 17/11 A2994 RMK AO2  T01690109,,,,,,51.55,,NNE,29.29,28.76,,Clear
KIGQ,05/14/2017 14:35 UTC,29.94,62.96,51.26,65.61,4.61,20.0,,,,,,1.0,,,,10.0,,KIGQ 141435Z AUTO 02004KT 10SM CLR 17/11 A2994 RMK AO2  T01720107,,,,,,51.18,,NNE,29.29,28.77,,Clear
KIGQ,05/14/2017 14:55 UTC,29.94,64.04,51.08,62.76,4.61,10.0,,,,,,1.0,,,,10.0,,KIGQ 141455Z AUTO 01004KT 10SM CLR 18/11 A2994 RMK AO2  T01780106,,,,,,51.0,,N,29.29,28.77,,Clear
KIGQ,05/14/2017 15:15 UTC,29.94,64.76,51.08,61.2,3.44,60.0,,,,,,1.0,,,,10.0,,KIGQ 141515Z AUTO 06003KT 10SM CLR 18/11 A2994 RMK AO2  T01820106,,,,,,51.0,,ENE,29.29,28.76,,Clear
KIGQ,05/14/2017 15:35 UTC,29.94,65.66,51.8,60.92,3.44,40.0,,,,,,1.0,,,,10.0,,KIGQ 141535Z AUTO 04003KT 10SM CLR 19/11 A2994 RMK AO2  T01870110,,,,,,51.73,,NE,29.29,28.73,,Clear
KIGQ,05/14/2017 15:55 UTC,29.94,67.28,52.88,59.93,5.75,30.0,,,,,,1.0,,,,10.0,,KIGQ 141555Z AUTO 03005KT 10SM CLR 20/12 A2994 RMK AO2  T01960116,,,,,,52.81,,NNE,29.29,28.67,,Clear
KIGQ,05/14/2017 16:15 UTC,29.94,67.82,53.24,59.61,6.91,50.0,,,,,,1.0,,,,10.0,,KIGQ 141615Z AUTO 05006KT 10SM CLR 20/12 A2994 RMK AO2  T01990118,,,,,,53.18,,NE,29.29,28.64,,Clear
KIGQ,05/14/2017 16:35 UTC,29.94,68.36,52.88,57.75,4.61,50.0,,,,,,1.0,,,,10.0,,KIGQ 141635Z AUTO 05004KT 10SM CLR 20/12 A2994 RMK AO2  T02020116,,,,,,52.82,,NE,29.29,28.65,,Clear
KIGQ,05/14/2017 16:55 UTC,29.93,69.08,53.42,57.47,9.22,50.0,,,,,,1.0,,,,10.0,,KIGQ 141655Z AUTO 05008KT 10SM CLR 21/12 A2993 RMK AO2  T02060119,,,,,,53.36,,NE,29.28,28.61,,Clear
KIGQ,05/14/2017 17:15 UTC,29.93,69.44,53.24,56.39,6.91,60.0,,,,,,1.0,,,,10.0,,KIGQ 141715Z AUTO 06006KT 10SM CLR 21/12 A2993 RMK AO2  T02080118,,,,,,53.18,,ENE,29.28,28.62,,Clear
KIGQ,05/14/2017 17:35 UTC,29.92,70.34,54.32,56.89,9.22,60.0,,,,,,1.0,,,,10.0,,KIGQ 141735Z AUTO 06008KT 10SM CLR 21/12 A2992 RMK AO2  T02130124,,,,,,54.27,,ENE,29.27,28.55,,Clear
KIGQ,05/14/2017 17:55 UTC,29.92,68.54,52.7,57.02,9.22,50.0,,,,,,1.0,,,,10.0,,KIGQ 141755Z AUTO 05008KT 10SM CLR 20/12 A2992 RMK AO2 T02030115  10214 20127,70.52,54.86,,,,52.64,,NE,29.27,28.64,,Clear
KIGQ,05/14/2017 18:15 UTC,29.92,67.82,52.52,58.06,8.05,50.0,,,,,,1.0,,,,10.0,,KIGQ 141815Z AUTO 05007KT 10SM CLR 20/11 A2992 RMK AO2  T01990114,,,,,,52.46,,NE,29.27,28.65,,Clear
KIGQ,05/14/2017 18:35 UTC,29.92,68.18,52.16,56.59,5.75,50.0,,,,,,652.0,,,,10.0,,KIGQ 141835Z AUTO 05005KT 10SM SCT065 20/11 A2992 RMK AO2  T02010112,,,,,,52.09,,NE,29.27,28.67,,Partly Cloudy
KIGQ,05/14/2017 18:55 UTC,29.92,66.38,51.08,57.86,9.22,60.0,,,,,,652.0,,,,10.0,,KIGQ 141855Z AUTO 06008KT 10SM SCT065 19/11 A2992 RMK AO2  T01910106,,,,,,51.01,,ENE,29.27,28.73,,Partly Cloudy
KIGQ,05/14/2017 19:15 UTC,29.93,65.84,51.26,59.34,4.61,30.0,16.11,,,,,1.0,,,,10.0,,KIGQ 141915Z AUTO 03004G14KT 10SM CLR 19/11 A2993 RMK AO2  T01880107,,,,,,51.18,,NNE,29.28,28.74,,Clear
KIGQ,05/14/2017 19:35 UTC,29.93,65.12,49.82,57.68,13.8,60.0,,,,,,1.0,,,,10.0,,KIGQ 141935Z AUTO 06012KT 10SM CLR 18/10 A2993 RMK AO2  T01840099,,,,,,49.74,,ENE,29.28,28.8,,Clear
KIGQ,05/14/2017 19:55 UTC,29.93,62.78,50.0,63.02,9.22,10.0,18.41,,,,,1.0,,,,10.0,,KIGQ 141955Z AUTO 01008G16KT 10SM CLR 17/10 A2993 RMK AO2  T01710100,,,,,,49.92,,N,29.28,28.81,,Clear
KIGQ,05/14/2017 20:15 UTC,29.93,60.98,49.28,65.37,14.97,40.0,21.85,,,,,1.0,,,,10.0,,KIGQ 142015Z AUTO 04013G19KT 360V060 10SM CLR 16/10 A2993 RMK AO2  T01610096,,,,,,49.2,,NE,29.28,28.86,,Clear
KIGQ,05/14/2017 20:35 UTC,29.93,62.6,50.9,65.57,12.66,50.0,,,,,,1.0,,,,10.0,,KIGQ 142035Z AUTO 05011KT 10SM CLR 17/11 A2993 RMK AO2  T01700105,,,,,,50.82,,NE,29.28,28.78,,Clear
KIGQ,05/14/2017 20:55 UTC,29.92,62.6,50.36,64.27,12.66,40.0,16.11,,,,,1.0,,,,10.0,,KIGQ 142055Z AUTO 04011G14KT 10SM CLR 17/10 A2992 RMK AO2  T01700102,,,,,,50.28,,NE,29.27,28.79,,Clear
KIGQ,05/14/2017 21:15 UTC,29.92,60.98,48.74,64.06,12.66,50.0,,,,,,1.0,,,,10.0,,KIGQ 142115Z AUTO 05011KT 10SM CLR 16/09 A2992 RMK AO2  T01610093,,,,,,48.65,,NE,29.27,28.86,,Clear
KIGQ,05/14/2017 21:35 UTC,29.92,60.26,47.3,62.27,11.5,50.0,,,,,,1.0,,,,10.0,,KIGQ 142135Z AUTO 05010KT 10SM CLR 16/09 A2992 RMK AO2  T01570085,,,,,,47.21,,NE,29.27,28.92,,Clear
KIGQ,05/14/2017 21:55 UTC,29.92,58.64,44.78,59.97,16.11,30.0,,,,,,1.0,,,,10.0,,KIGQ 142155Z AUTO 03014KT 10SM CLR 15/07 A2992 RMK AO2  T01480071,,,,,,44.67,,NNE,29.27,29.02,,Clear
KIGQ,05/14/2017 22:15 UTC,29.92,58.28,44.24,59.51,10.36,40.0,16.11,,,,,1.0,,,,10.0,,KIGQ 142215Z AUTO 04009G14KT 10SM CLR 15/07 A2992 RMK AO2  T01460068,,,,,,44.13,,NE,29.27,29.04,,Clear
KIGQ,05/14/2017 22:35 UTC,29.92,56.66,42.26,58.47,14.97,40.0,20.71,,,,,1.0,,,,10.0,,KIGQ 142235Z AUTO 04013G18KT 10SM CLR 14/06 A2992 RMK AO2  T01370057,,,,,,42.14,,NE,29.27,29.11,,Clear
KIGQ,05/14/2017 22:55 UTC,29.92,57.2,43.34,59.77,10.36,40.0,18.41,,,,,1.0,,,,10.0,,KIGQ 142255Z AUTO 04009G16KT 10SM CLR 14/06 A2992 RMK AO2  T01400063,,,,,,43.23,,NE,29.27,29.07,,Clear
KIGQ,05/14/2017 23:15 UTC,29.92,55.58,41.72,59.55,16.11,40.0,19.57,,,,,1.0,,,,10.0,,KIGQ 142315Z AUTO 04014G17KT 10SM CLR 13/05 A2992 RMK AO2  T01310054,,,,,,41.6,,NE,29.27,29.13,,Clear
KIGQ,05/14/2017 23:35 UTC,29.92,56.12,42.98,61.29,9.22,50.0,,,,,,1.0,,,,10.0,,KIGQ 142335Z AUTO 05008KT 10SM CLR 13/06 A2992 RMK AO2  T01340061,,,,,,42.86,,NE,29.27,29.09,,Clear
KIGQ,05/14/2017 23:55 UTC,29.91,55.4,41.9,60.35,11.5,50.0,,,,,,1.0,,,,10.0,,KIGQ 142355Z AUTO 05010KT 10SM CLR 13/06 A2991 RMK AO2 T01300055  10203 20130,68.54,55.4,,,,41.78,,NE,29.26,29.12,,Clear
KIGQ,05/15/2017 00:15 UTC,29.92,54.5,41.72,61.93,9.22,50.0,,,,,,1.0,,,,10.0,,KIGQ 150015Z AUTO 05008KT 10SM CLR 13/05 A2992 RMK AO2  T01250054,,,,,,41.6,,NE,29.27,29.14,,Clear
KIGQ,05/15/2017 00:35 UTC,29.92,53.06,41.72,65.28,11.5,50.0,,,,,,1.0,,,,10.0,,KIGQ 150035Z AUTO 05010KT 10SM CLR 12/05 A2992 RMK AO2  T01170054,,,,,,41.61,,NE,29.27,29.15,,Clear
KIGQ,05/15/2017 00:55 UTC,29.93,51.8,41.0,66.49,10.36,50.0,,,,,,1.0,,,,10.0,,KIGQ 150055Z AUTO 05009KT 10SM CLR 11/05 A2993 RMK AO2  T01100050,,,,,,40.89,,NE,29.28,29.19,,Clear
KIGQ,05/15/2017 01:15 UTC,29.93,50.9,40.82,68.27,10.36,40.0,,,,,,1.0,,,,10.0,,KIGQ 150115Z AUTO 04009KT 10SM CLR 11/05 A2993 RMK AO2  T01050049,,,,,,40.71,,NE,29.28,29.2,,Clear
KIGQ,05/15/2017 01:35 UTC,29.93,50.54,41.54,71.14,6.91,30.0,,,,,,1.0,,,,10.0,,KIGQ 150135Z AUTO 03006KT 10SM CLR 10/05 A2993 RMK AO2  T01030053,,,,,,41.44,,NNE,29.28,29.18,,Clear
KIGQ,05/15/2017 01:55 UTC,29.94,50.18,41.72,72.6,6.91,40.0,,,,,,1.0,,,,10.0,,KIGQ 150155Z AUTO 04006KT 10SM CLR 10/05 A2994 RMK AO2  T01010054,,,,,,41.63,,NE,29.29,29.19,,Clear
KIGQ,05/15/2017 02:15 UTC,29.94,50.0,41.0,71.08,8.05,40.0,,,,,,1.0,,,,10.0,,KIGQ 150215Z AUTO 04007KT 10SM CLR 10/05 A2994 RMK AO2  T01000050,,,,,,40.9,,NE,29.29,29.21,,Clear
KIGQ,05/15/2017 02:35 UTC,29.95,50.18,39.2,65.83,8.05,40.0,,,,,,1.0,,,,10.0,,KIGQ 150235Z AUTO 04007KT 10SM CLR 10/04 A2995 RMK AO2  T01010040,,,,,,39.08,,NE,29.3,29.27,,Clear
KIGQ,05/15/2017 02:55 UTC,29.97,50.18,38.66,64.46,9.22,40.0,,,,,,902.0,,,,10.0,,KIGQ 150255Z AUTO 04008KT 10SM SCT090 10/04 A2997 RMK AO2  T01010037,,,,,,38.54,,NE,29.32,29.3,,Partly Cloudy
KIGQ,05/15/2017 03:15 UTC,29.98,50.9,38.3,61.88,6.91,40.0,,,,,,903.0,,,,10.0,,KIGQ 150315Z AUTO 04006KT 10SM BKN090 11/04 A2998 RMK AO2  T01050035,,,9000.0,,,38.17,,NE,29.33,29.31,,Mostly Cloudy
KIGQ,05/15/2017 03:35 UTC,29.97,50.9,39.2,64.1,5.75,60.0,,,,,,903.0,,,,10.0,,KIGQ 150335Z AUTO 06005KT 10SM BKN090 11/04 A2997 RMK AO2  T01050040,,,9000.0,,,39.08,,ENE,29.32,29.28,,Mostly Cloudy
KIGQ,05/15/2017 03:55 UTC,29.97,50.9,39.92,65.92,6.91,60.0,,,,,,1.0,,,,10.0,,KIGQ 150355Z AUTO 06006KT 10SM CLR 11/04 A2997 RMK AO2  T01050044,,,,,,39.8,,ENE,29.32,29.26,,Clear
KIGQ,05/15/2017 04:15 UTC,29.96,50.36,41.18,70.62,3.44,80.0,,13.0,1102.0,,,752.0,852.0,,,10.0,,KIGQ 150415Z AUTO 08003KT 10SM -RA SCT075 SCT085 SCT110 10/05  A2996 RMK AO2 T01020051,,,,,,41.08,,E,29.31,29.23,,Light Rain
KIGQ,05/15/2017 04:35 UTC,29.97,50.9,41.72,70.68,3.44,40.0,,,,,,1202.0,,,,10.0,,KIGQ 150435Z AUTO 04003KT 10SM SCT120 11/05 A2997 RMK AO2  T01050054,,,,,,41.62,,NE,29.32,29.22,,Partly Cloudy
KIGQ,05/15/2017 04:55 UTC,29.98,50.72,42.08,72.15,5.75,10.0,,,,,,1.0,,,,10.0,,KIGQ 150455Z AUTO 01005KT 10SM CLR 10/06 A2998 RMK AO2  T01040056,,,,,,41.99,,N,29.33,29.22,,Clear
KIGQ,05/15/2017 05:15 UTC,29.98,51.08,42.08,71.19,4.61,20.0,,,,,,1.0,,,,10.0,,KIGQ 150515Z AUTO 02004KT 10SM CLR 11/06 A2998 RMK AO2  T01060056,,,,,,41.98,,NNE,29.33,29.22,,Clear
KIGQ,05/15/2017 05:35 UTC,29.98,51.44,42.08,70.25,3.44,60.0,,,,,,1202.0,,,,10.0,,KIGQ 150535Z AUTO 06003KT 10SM SCT120 11/06 A2998 RMK AO2  T01080056,,,,,,41.98,,ENE,29.33,29.21,,Partly Cloudy
KIGQ,05/15/2017 05:55 UTC,29.98,51.08,41.9,70.7,3.44,360.0,,,,,,1202.0,,,,10.0,,KIGQ 150555Z AUTO 36003KT 10SM SCT120 11/06 A2998 RMK AO2  T01060055 10130 20100 402140089,55.4,50.0,,70.52,48.02,41.8,,N,29.33,29.22,,Partly Cloudy
KIGQ,05/15/2017 06:15 UTC,29.99,51.08,41.0,68.29,5.75,20.0,,,,,,1.0,,,,10.0,,KIGQ 150615Z AUTO 02005KT 10SM CLR 11/05 A2999 RMK AO2  T01060050,,,,,,40.89,,NNE,29.34,29.25,,Clear
KIGQ,05/15/2017 06:35 UTC,29.98,50.9,40.64,67.79,0.0,0.0,,,,,,1.0,,,,10.0,,KIGQ 150635Z AUTO 00000KT 10SM CLR 11/05 A2998 RMK AO2  T01050048,,,,,,40.53,,N,29.33,29.26,,Clear
KIGQ,05/15/2017 06:55 UTC,29.98,50.36,42.8,75.17,3.44,20.0,,,,,,1.0,,,,10.0,,KIGQ 150655Z AUTO 02003KT 10SM CLR 10/06 A2998 RMK AO2  T01020060,,,,,,42.72,,NNE,29.33,29.2,,Clear
KIGQ,05/15/2017 07:15 UTC,29.98,49.82,42.98,77.23,0.0,0.0,,,,,,1.0,,,,10.0,,KIGQ 150715Z AUTO 00000KT 10SM CLR 10/06 A2998 RMK AO2  T00990061,,,,,,42.9,,N,29.33,29.2,,Clear
KIGQ,05/15/2017 07:35 UTC,29.97,49.46,42.98,78.27,0.0,0.0,,,,,,1.0,,,,10.0,,KIGQ 150735Z AUTO 00000KT 10SM CLR 10/06 A2997 RMK AO2  T00970061,,,,,,42.91,,N,29.32,29.2,,Clear
KIGQ,05/15/2017 07:55 UTC,29.96,49.46,43.34,79.36,0.0,0.0,,,,,,1.0,,,,10.0,,KIGQ 150755Z AUTO 00000KT 10SM CLR 10/06 A2996 RMK AO2  T00970063,,,,,,43.27,,N,29.31,29.18,,Clear
KIGQ,05/15/2017 08:15 UTC,29.96,49.1,43.34,80.43,0.0,0.0,,,,,,1.0,,,,10.0,,KIGQ 150815Z AUTO 00000KT 10SM CLR 10/06 A2996 RMK AO2  T00950063,,,,,,43.27,,N,29.31,29.18,,Clear
KIGQ,05/15/2017 08:35 UTC,29.96,49.1,43.34,80.43,3.44,40.0,,,,,,1.0,,,,10.0,,KIGQ 150835Z AUTO 04003KT 10SM CLR 10/06 A2996 RMK AO2  T00950063,,,,,,43.27,,NE,29.31,29.18,,Clear
KIGQ,05/15/2017 08:55 UTC,29.97,49.1,43.7,81.55,3.44,50.0,,,,,,1.0,,,,10.0,,KIGQ 150855Z AUTO 05003KT 10SM CLR 10/07 A2997 RMK AO2  T00950065,,,,,,43.64,,NE,29.32,29.18,,Clear
KIGQ,05/15/2017 09:15 UTC,29.97,48.56,43.88,83.78,4.61,80.0,,,,,,1.0,,,,10.0,,KIGQ 150915Z AUTO 08004KT 10SM CLR 09/07 A2997 RMK AO2  T00920066,,,,,,43.82,,E,29.32,29.18,,Clear
KIGQ,05/15/2017 09:35 UTC,29.96,48.56,44.24,84.94,3.44,80.0,,,,,,1.0,,,,10.0,,KIGQ 150935Z AUTO 08003KT 10SM CLR 09/07 A2996 RMK AO2  T00920068,,,,,,44.19,,E,29.31,29.16,,Clear
KIGQ,05/15/2017 09:55 UTC,29.96,48.2,44.6,87.28,3.44,80.0,,,,,,1.0,,,,10.0,,KIGQ 150955Z AUTO 08003KT 10SM CLR 09/07 A2996 RMK AO2  T00900070,,,,,,44.55,,E,29.31,29.15,,Clear
KIGQ,05/15/2017 10:15 UTC,29.97,48.38,44.78,87.29,3.44,70.0,,,,,,1.0,,,,10.0,,KIGQ 151015Z AUTO 07003KT 10SM CLR 09/07 A2997 RMK AO2  T00910071,,,,,,44.74,,ENE,29.32,29.16,,Clear
KIGQ,05/15/2017 10:35 UTC,29.97,47.84,44.78,89.08,0.0,0.0,,,,,,1.0,,,,10.0,,KIGQ 151035Z AUTO 00000KT 10SM CLR 09/07 A2997 RMK AO2  T00880071,,,,,,44.74,,N,29.32,29.16,,Clear
KIGQ,05/15/2017 10:55 UTC,29.98,48.2,45.5,90.32,0.0,0.0,,,,,,1.0,,,,10.0,,KIGQ 151055Z AUTO 00000KT 10SM CLR 09/08 A2998 RMK AO2  T00900075,,,,,,45.47,,N,29.33,29.15,,Clear
KIGQ,05/15/2017 11:15 UTC,29.98,48.74,45.86,89.73,0.0,0.0,,,,,,1.0,,,,10.0,,KIGQ 151115Z AUTO 00000KT 10SM CLR 09/08 A2998 RMK AO2  T00930077,,,,,,45.82,,N,29.33,29.13,,Clear
KIGQ,05/15/2017 11:35 UTC,29.98,50.36,47.12,88.59,3.44,100.0,,,,,,1.0,,,,10.0,,KIGQ 151135Z AUTO 10003KT 10SM CLR 10/08 A2998 RMK AO2  T01020084,,,,,,47.08,,E,29.33,29.08,,Clear
KIGQ,05/15/2017 11:55 UTC,29.98,52.34,47.66,84.03,3.44,130.0,,,,,,1.0,,,,10.0,,KIGQ 151155Z AUTO 13003KT 10SM CLR 11/09 A2998 RMK AO2 T01130087  10113 20087,52.34,47.66,,,,47.61,,SE,29.33,29.04,,Clear
KIGQ,05/15/2017 12:15 UTC,29.98,54.86,48.92,80.34,5.75,140.0,,,,,,1.0,,,,10.0,,KIGQ 151215Z AUTO 14005KT 10SM CLR 13/09 A2998 RMK AO2  T01270094,,,,,,48.86,,SE,29.33,28.98,,Clear
KIGQ,05/15/2017 12:35 UTC,29.99,57.92,49.82,74.38,5.75,130.0,,,,,,1.0,,,,10.0,,KIGQ 151235Z AUTO 13005KT 10SM CLR 14/10 A2999 RMK AO2  T01440099,,,,,,49.75,,SE,29.34,28.93,,Clear
KIGQ,05/15/2017 12:55 UTC,29.99,60.8,50.18,68.03,6.91,130.0,,,,,,1.0,,,,10.0,,KIGQ 151255Z AUTO 13006KT 10SM CLR 16/10 A2999 RMK AO2  T01600101,,,,,,50.1,,SE,29.34,28.88,,Clear
KIGQ,05/15/2017 13:15 UTC,29.99,62.6,50.9,65.57,9.22,130.0,,,,,,1.0,,,,10.0,,KIGQ 151315Z AUTO 13008KT 10SM CLR 17/11 A2999 RMK AO2  T01700105,,,,,,50.82,,SE,29.34,28.84,,Clear
KIGQ,05/15/2017 13:35 UTC,29.99,63.32,50.72,63.51,9.22,140.0,,,,,,1.0,,,,10.0,,KIGQ 151335Z AUTO 14008KT 10SM CLR 17/10 A2999 RMK AO2  T01740104,,,,,,50.64,,SE,29.34,28.84,,Clear
KIGQ,05/15/2017 13:55 UTC,29.99,64.76,51.26,61.61,9.22,140.0,,,,,,1.0,,,,10.0,,KIGQ 151355Z AUTO 14008KT 10SM CLR 18/11 A2999 RMK AO2  T01820107,,,,,,51.18,,SE,29.34,28.81,,Clear
KIGQ,05/15/2017 14:15 UTC,29.99,65.84,51.44,59.74,6.91,150.0,,,,,,1.0,,,,10.0,,KIGQ 151415Z AUTO 15006KT 10SM CLR 19/11 A2999 RMK AO2  T01880108,,,,,,51.37,,SSE,29.34,28.79,,Clear
KIGQ,05/15/2017 14:35 UTC,30.0,68.0,52.88,58.47,9.22,150.0,,,,,,1.0,,,,10.0,,KIGQ 151435Z AUTO 15008KT 10SM CLR 20/12 A3000 RMK AO2  T02000116,,,,,,52.82,,SSE,29.35,28.72,,Clear
KIGQ,05/15/2017 14:55 UTC,29.99,67.82,53.06,59.22,6.91,130.0,,,,,,1.0,,,,10.0,,KIGQ 151455Z AUTO 13006KT 10SM CLR 20/12 A2999 RMK AO2  T01990117,,,,,,53.0,,SE,29.34,28.7,,Clear
KIGQ,05/15/2017 15:15 UTC,29.99,69.08,53.24,57.09,8.05,140.0,,,,,,1.0,,,,10.0,,KIGQ 151515Z AUTO 14007KT 10SM CLR 21/12 A2999 RMK AO2  T02060118,,,,,,53.18,,SE,29.34,28.68,,Clear
KIGQ,05/15/2017 15:35 UTC,29.99,70.52,54.68,57.29,5.75,110.0,,,,,,1.0,,,,10.0,,KIGQ 151535Z AUTO 11005KT 10SM CLR 21/13 A2999 RMK AO2  T02140126,,,,,,54.63,,ESE,29.34,28.61,,Clear
KIGQ,05/15/2017 15:55 UTC,29.97,71.96,55.76,56.75,6.91,150.0,,,,,,1.0,,,,10.0,,KIGQ 151555Z AUTO 15006KT 10SM CLR 22/13 A2997 RMK AO2  T02220132,,,,,,55.72,,SSE,29.32,28.52,,Clear
KIGQ,05/15/2017 16:15 UTC,29.98,72.86,56.12,55.77,6.91,50.0,,,,,,1.0,,,,10.0,,KIGQ 151615Z AUTO 05006KT 10SM CLR 23/13 A2998 RMK AO2  T02270134,,,,,,56.08,,NE,29.33,28.5,,Clear
KIGQ,05/15/2017 16:35 UTC,29.97,74.3,56.84,54.55,8.05,160.0,,,,,,1.0,,,,10.0,,KIGQ 151635Z AUTO 16007KT 020V190 10SM CLR 24/14 A2997 RMK AO2  T02350138,,,,,,56.81,,SSE,29.32,28.44,,Clear
KIGQ,05/15/2017 16:55 UTC,29.97,75.92,57.74,53.38,8.05,130.0,,,,,,1.0,,,,10.0,,KIGQ 151655Z AUTO 13007KT 10SM CLR 24/14 A2997 RMK AO2  T02440143,,,,,,57.72,,SE,29.32,28.38,,Clear
KIGQ,05/15/2017 17:15 UTC,29.96,76.82,57.74,51.81,9.22,130.0,,,,,,1.0,,,,10.0,,KIGQ 151715Z AUTO 13008KT 10SM CLR 25/14 A2996 RMK AO2  T02490143,,,,,,57.73,,SE,29.31,28.36,,Clear
KIGQ,05/15/2017 17:35 UTC,29.96,77.9,58.28,50.98,9.22,120.0,,,,,,1.0,,,,10.0,,KIGQ 151735Z AUTO 12008KT 10SM CLR 26/15 A2996 RMK AO2  T02550146,,,,,,58.28,,ESE,29.31,28.32,,Clear
KIGQ,05/15/2017 17:55 UTC,29.96,78.98,59.18,50.81,8.05,140.0,,,,,,1.0,,,,10.0,,KIGQ 151755Z AUTO 14007KT 10SM CLR 26/15 A2996 RMK AO2 T02610151  10261 20115,78.98,52.7,,,,59.19,,SE,29.31,28.26,,Clear
KIGQ,05/15/2017 18:15 UTC,29.95,78.98,58.82,50.16,8.05,140.0,,,,,,1.0,,,,10.0,,KIGQ 151815Z AUTO 14007KT 10SM CLR 26/15 A2995 RMK AO2  T02610149,,,,,,58.83,,SE,29.3,28.27,,Clear
KIGQ,05/15/2017 18:35 UTC,29.95,79.52,58.28,48.34,6.91,110.0,,,,,,1.0,,,,10.0,,KIGQ 151835Z AUTO 11006KT 10SM CLR 26/15 A2995 RMK AO2  T02640146,,,,,,58.29,,ESE,29.3,28.3,,Clear
KIGQ,05/15/2017 18:55 UTC,29.94,80.42,58.82,47.86,6.91,140.0,,,,,,802.0,,,,10.0,,KIGQ 151855Z AUTO 14006KT 10SM SCT080 27/15 A2994 RMK AO2  T02690149,,,,,,58.85,,SE,29.29,28.25,80.96,Partly Cloudy
KIGQ,05/15/2017 19:15 UTC,29.94,80.78,59.36,48.22,11.5,150.0,,,,,,802.0,,,,10.0,,KIGQ 151915Z AUTO 15010KT 10SM SCT080 27/15 A2994 RMK AO2  T02710152,,,,,,59.39,,SSE,29.29,28.22,81.32,Partly Cloudy
KIGQ,05/15/2017 19:35 UTC,29.93,81.5,58.64,45.91,8.05,130.0,,,,,,1.0,,,,10.0,,KIGQ 151935Z AUTO 13007KT 10SM CLR 28/15 A2993 RMK AO2  T02750148,,,,,,58.68,,SE,29.28,28.24,81.71,Clear
KIGQ,05/15/2017 19:55 UTC,29.93,81.86,60.08,47.77,11.5,190.0,18.41,,,,,953.0,,,,10.0,,KIGQ 151955Z AUTO 19010G16KT 10SM BKN095 28/16 A2993 RMK AO2  T02770156,,,9500.0,,,60.12,,S,29.28,28.16,82.3,Mostly Cloudy
KIGQ,05/15/2017 20:15 UTC,29.92,81.68,59.36,46.83,6.91,160.0,,,,,,952.0,,,,10.0,,KIGQ 152015Z AUTO 16006KT 10SM SCT095 28/15 A2992 RMK AO2  T02760152,,,,,,59.4,,SSE,29.27,28.19,82.0,Partly Cloudy
KIGQ,05/15/2017 20:35 UTC,29.9,82.04,59.18,45.99,10.36,150.0,,,953.0,,,652.0,802.0,,,10.0,,KIGQ 152035Z AUTO 15009KT 10SM SCT065 SCT080 BKN095 28/15 A2990 RMK AO2 LTG DSNT NW T02780151,,,9500.0,,,59.22,,SSE,29.25,28.17,82.24,Mostly Cloudy
KIGQ,05/15/2017 20:55 UTC,29.9,81.5,59.9,48.02,6.91,140.0,,,,,,652.0,803.0,,,10.0,,KIGQ 152055Z AUTO 14006KT 10SM SCT065 BKN080 28/16 A2990 RMK AO2  LTG DSNT NW T02750155,,,8000.0,,,59.93,,SE,29.25,28.14,81.98,Mostly Cloudy
KIGQ,05/15/2017 21:15 UTC,29.89,81.68,60.62,48.98,9.22,160.0,,,,,,803.0,1003.0,,,10.0,,KIGQ 152115Z AUTO 16008KT 10SM BKN080 BKN100 28/16 A2989 RMK AO2  T02760159,,,8000.0,,,60.66,,SSE,29.24,28.08,82.29,Mostly Cloudy
KIGQ,05/15/2017 21:35 UTC,29.89,81.86,61.52,50.27,8.05,150.0,,,,,,803.0,1003.0,,,10.0,,KIGQ 152135Z AUTO 15007KT 10SM BKN080 BKN100 28/16 A2989 RMK AO2  T02770164,,,8000.0,,,61.56,,SSE,29.24,28.03,82.66,Mostly Cloudy
KIGQ,05/15/2017 21:55 UTC,29.88,81.68,60.8,49.29,8.05,140.0,,,,,,803.0,,,,10.0,,KIGQ 152155Z AUTO 14007KT 10SM BKN080 28/16 A2988 RMK AO2 LTG DSNT  NW T02760160,,,8000.0,,,60.83,,SE,29.23,28.06,82.33,Mostly Cloudy
KIGQ,05/15/2017 22:15 UTC,29.88,82.4,61.88,50.03,9.22,140.0,,,,,,802.0,,,,10.0,,KIGQ 152215Z AUTO 14008KT 10SM SCT080 28/17 A2988 RMK AO2 LTG DSNT  N T02800166,,,,,,61.92,,SE,29.23,27.99,83.21,Partly Cloudy
KIGQ,05/15/2017 22:35 UTC,29.88,82.58,61.34,48.8,10.36,150.0,,,,,,1.0,,,,10.0,,KIGQ 152235Z AUTO 15009KT 10SM CLR 28/16 A2988 RMK AO2  T02810163,,,,,,61.38,,SSE,29.23,28.02,83.22,Clear
KIGQ,05/15/2017 22:55 UTC,29.88,82.4,61.16,48.77,9.22,140.0,,,,,,1.0,,,,10.0,,KIGQ 152255Z AUTO 14008KT 10SM CLR 28/16 A2988 RMK AO2  T02800162,,,,,,61.2,,SE,29.23,28.04,83.01,Clear
KIGQ,05/15/2017 23:15 UTC,29.87,81.68,59.72,47.43,9.22,140.0,,,,,,1.0,,,,10.0,,KIGQ 152315Z AUTO 14008KT 10SM CLR 28/15 A2987 RMK AO2  T02760154,,,,,,59.75,,SE,29.22,28.12,82.08,Clear
KIGQ,05/15/2017 23:35 UTC,29.86,81.14,59.9,48.58,8.05,140.0,,,,,,1.0,,,,10.0,,KIGQ 152335Z AUTO 14007KT 10SM CLR 27/16 A2986 RMK AO2 LTG DSNT N  T02730155,,,,,,59.93,,SE,29.21,28.1,81.7,Clear
KIGQ,05/15/2017 23:55 UTC,29.87,80.24,59.72,49.71,4.61,150.0,,,,,,1.0,,,,10.0,,KIGQ 152355Z AUTO 15004KT 10SM CLR 27/15 A2987 RMK AO2 T02680154  10283 20260,82.94,78.8,,,,59.74,,SSE,29.22,28.13,80.99,Clear
KIGQ,05/16/2017 00:15 UTC,29.87,79.7,60.26,51.57,6.91,130.0,,,,,,802.0,,,,10.0,,KIGQ 160015Z AUTO 13006KT 10SM SCT080 27/16 A2987 RMK AO2 LTG DSNT  N T02650157,,,,,,60.27,,SE,29.22,28.1,,Partly Cloudy
KIGQ,05/16/2017 00:35 UTC,29.86,79.7,59.9,50.92,8.05,140.0,,,,,,803.0,,,,10.0,,KIGQ 160035Z AUTO 14007KT 10SM BKN080 27/16 A2986 RMK AO2  T02650155,,,8000.0,,,59.92,,SE,29.21,28.12,,Mostly Cloudy
KIGQ,05/16/2017 00:55 UTC,29.85,78.8,59.9,52.44,9.22,140.0,,,,,,802.0,,,,10.0,,KIGQ 160055Z AUTO 14008KT 10SM SCT080 26/16 A2985 RMK AO2  T02600155,,,,,,59.91,,SE,29.2,28.11,,Partly Cloudy
KIGQ,05/16/2017 01:15 UTC,29.84,78.26,59.72,53.04,9.22,130.0,,,,,,752.0,,,,10.0,,KIGQ 160115Z AUTO 13008KT 10SM SCT075 26/15 A2984 RMK AO2  T02570154,,,,,,59.72,,SE,29.19,28.12,,Partly Cloudy
KIGQ,05/16/2017 01:35 UTC,29.83,77.36,59.9,54.98,11.5,140.0,,,,,,752.0,,,,10.0,,KIGQ 160135Z AUTO 14010KT 10SM SCT075 25/16 A2983 RMK AO2  T02520155,,,,,,59.89,,SE,29.18,28.11,,Partly Cloudy
KIGQ,05/16/2017 01:55 UTC,29.84,76.28,59.9,56.98,10.36,150.0,,,,,,1.0,,,,10.0,,KIGQ 160155Z AUTO 15009KT 10SM CLR 25/16 A2984 RMK AO2  T02460155,,,,,,59.89,,SSE,29.19,28.13,,Clear
KIGQ,05/16/2017 02:15 UTC,29.86,75.02,59.9,59.42,9.22,170.0,,,,,,1.0,,,,10.0,,KIGQ 160215Z AUTO 17008KT 10SM CLR 24/16 A2986 RMK AO2  T02390155,,,,,,59.88,,S,29.21,28.16,,Clear
KIGQ,05/16/2017 02:35 UTC,29.89,73.4,60.26,63.53,6.91,180.0,,,,,,1.0,,,,10.0,,KIGQ 160235Z AUTO 18006KT 10SM CLR 23/16 A2989 RMK AO2  T02300157,,,,,,60.23,,S,29.24,28.19,,Clear
KIGQ,05/16/2017 02:55 UTC,29.89,71.42,60.08,67.48,8.05,180.0,,,,,,1.0,,,,10.0,,KIGQ 160255Z AUTO 18007KT 10SM CLR 22/16 A2989 RMK AO2 LTG DSNT NE  T02190156,,,,,,60.05,,S,29.24,28.22,,Clear
KIGQ,05/16/2017 03:15 UTC,29.89,71.6,60.08,67.07,5.75,170.0,,,,,,1.0,,,,10.0,,KIGQ 160315Z AUTO 17005KT 10SM CLR 22/16 A2989 RMK AO2  T02200156,,,,,,60.05,,S,29.24,28.22,,Clear
KIGQ,05/16/2017 03:35 UTC,29.89,71.96,60.26,66.69,5.75,150.0,,,,,,1.0,,,,10.0,,KIGQ 160335Z AUTO 15005KT 10SM CLR 22/16 A2989 RMK AO2  T02220157,,,,,,60.23,,SSE,29.24,28.21,,Clear
KIGQ,05/16/2017 03:55 UTC,29.89,71.42,60.26,67.92,5.75,170.0,,,,,,1.0,,,,10.0,,KIGQ 160355Z AUTO 17005KT 10SM CLR 22/16 A2989 RMK AO2 LTG DSNT NE  AND NW T02190157,,,,,,60.23,,S,29.24,28.21,,Clear
KIGQ,05/16/2017 04:15 UTC,29.89,68.0,60.26,76.31,5.75,190.0,,,,,,1.0,,,,10.0,,KIGQ 160415Z AUTO 19005KT 10SM CLR 20/16 A2989 RMK AO2 LTG DSNT N  AND NW T02000157,,,,,,60.22,,S,29.24,28.25,,Clear
KIGQ,05/16/2017 04:35 UTC,29.9,68.9,60.44,74.47,6.91,200.0,,,,,,1.0,,,,10.0,,KIGQ 160435Z AUTO 20006KT 10SM CLR 21/16 A2990 RMK AO2 LTG DSNT N  T02050158,,,,,,60.41,,SSW,29.25,28.24,,Clear
KIGQ,05/16/2017 04:55 UTC,29.9,69.8,60.8,73.15,6.91,190.0,,,,,,1.0,,,,10.0,,KIGQ 160455Z AUTO 19006KT 10SM CLR 21/16 A2990 RMK AO2 LTG DSNT N  T02100160,,,,,,60.77,,S,29.25,28.21,,Clear
KIGQ,05/16/2017 05:15 UTC,29.91,69.26,60.8,74.51,4.61,210.0,,,,,,1002.0,,,,10.0,,KIGQ 160515Z AUTO 21004KT 10SM SCT100 21/16 A2991 RMK AO2 LTG DSNT  N T02070160,,,,,,60.77,,SSW,29.26,28.23,,Partly Cloudy
KIGQ,05/16/2017 05:35 UTC,29.9,67.1,60.26,78.71,0.0,0.0,,,,,,1002.0,,,,10.0,,KIGQ 160535Z AUTO 00000KT 10SM SCT100 20/16 A2990 RMK AO2 LTG DSNT  N T01950157,,,,,,60.23,,N,29.25,28.27,,Partly Cloudy
KIGQ,05/16/2017 05:55 UTC,29.89,69.08,60.26,73.54,3.44,190.0,,,,,,1.0,,,,10.0,,KIGQ 160555Z AUTO 19003KT 10SM CLR 21/16 A2989 RMK AO2 LTG DSNT NE  T02060157 10267 20195 402830087,80.06,67.1,,82.94,47.66,60.22,,S,29.24,28.24,,Clear
KIGQ,05/16/2017 06:15 UTC,29.88,67.1,60.44,79.22,5.75,180.0,,,,,,1.0,,,,10.0,,KIGQ 160615Z AUTO 18005KT 10SM CLR 20/16 A2988 RMK AO2 LTG DSNT NE  T01950158,,,,,,60.41,,S,29.23,28.24,,Clear
KIGQ,05/16/2017 06:35 UTC,29.86,67.1,60.08,78.21,4.61,190.0,,,,,,1.0,,,,10.0,,KIGQ 160635Z AUTO 19004KT 10SM CLR 20/16 A2986 RMK AO2  T01950156,,,,,,60.04,,S,29.21,28.24,,Clear
KIGQ,05/16/2017 06:55 UTC,29.85,66.92,60.26,79.21,0.0,0.0,,,,,,1.0,,,,10.0,,KIGQ 160655Z AUTO 00000KT 10SM CLR 19/16 A2985 RMK AO2  T01940157,,,,,,60.23,,N,29.2,28.22,,Clear
KIGQ,05/16/2017 07:15 UTC,29.84,67.82,59.9,75.81,0.0,0.0,,,,,,1.0,,,,10.0,,KIGQ 160715Z AUTO 00000KT 10SM CLR 20/16 A2984 RMK AO2  T01990155,,,,,,59.86,,N,29.19,28.22,,Clear
KIGQ,05/16/2017 07:35 UTC,29.84,66.56,59.9,79.18,4.61,190.0,,,,,,1.0,,,,10.0,,KIGQ 160735Z AUTO 19004KT 10SM CLR 19/16 A2984 RMK AO2  T01920155,,,,,,59.87,,S,29.19,28.24,,Clear
KIGQ,05/16/2017 07:55 UTC,29.85,66.56,60.26,80.2,6.91,200.0,,,,,,1.0,,,,10.0,,KIGQ 160755Z AUTO 20006KT 10SM CLR 19/16 A2985 RMK AO2  T01920157,,,,,,60.23,,SSW,29.2,28.23,,Clear
KIGQ,05/16/2017 08:15 UTC,29.84,66.38,59.9,79.67,8.05,200.0,,,,,,1.0,,,,10.0,,KIGQ 160815Z AUTO 20007KT 10SM CLR 19/16 A2984 RMK AO2  T01910155,,,,,,59.87,,SSW,29.19,28.24,,Clear
KIGQ,05/16/2017 08:35 UTC,29.84,67.1,59.9,77.71,11.5,200.0,17.27,,,,,1.0,,,,10.0,,KIGQ 160835Z AUTO 20010G15KT 10SM CLR 20/16 A2984 RMK AO2  T01950155,,,,,,59.86,,SSW,29.19,28.23,,Clear
KIGQ,05/16/2017 08:55 UTC,29.85,67.1,59.9,77.71,10.36,210.0,,,,,,1.0,,,,10.0,,KIGQ 160855Z AUTO 21009KT 10SM CLR 20/16 A2985 RMK AO2  T01950155,,,,,,59.86,,SSW,29.2,28.24,,Clear
KIGQ,05/16/2017 09:15 UTC,29.85,66.38,59.9,79.67,11.5,210.0,,,,,,1.0,,,,10.0,,KIGQ 160915Z AUTO 21010KT 10SM CLR 19/16 A2985 RMK AO2  T01910155,,,,,,59.87,,SSW,29.2,28.25,,Clear
KIGQ,05/16/2017 09:35 UTC,29.85,65.84,59.9,81.17,9.22,210.0,,,,,,1.0,,,,10.0,,KIGQ 160935Z AUTO 21008KT 10SM CLR 19/16 A2985 RMK AO2  T01880155,,,,,,59.87,,SSW,29.2,28.26,,Clear
KIGQ,05/16/2017 09:55 UTC,29.85,65.12,59.54,82.17,10.36,210.0,,,,,,1.0,,,,10.0,,KIGQ 160955Z AUTO 21009KT 10SM CLR 18/15 A2985 RMK AO2  T01840153,,,,,,59.51,,SSW,29.2,28.28,,Clear
KIGQ,05/16/2017 10:15 UTC,29.86,64.58,59.54,83.73,9.22,210.0,,,,,,1.0,,,,10.0,,KIGQ 161015Z AUTO 21008KT 10SM CLR 18/15 A2986 RMK AO2  T01810153,,,,,,59.51,,SSW,29.21,28.3,,Clear
KIGQ,05/16/2017 10:35 UTC,29.86,63.68,59.36,85.85,6.91,210.0,,,,,,1.0,,,,10.0,,KIGQ 161035Z AUTO 21006KT 10SM CLR 18/15 A2986 RMK AO2  T01760152,,,,,,59.33,,SSW,29.21,28.32,,Clear
KIGQ,05/16/2017 10:55 UTC,29.85,63.68,59.54,86.4,9.22,210.0,,,,,,1.0,,,,10.0,,KIGQ 161055Z AUTO 21008KT 10SM CLR 18/15 A2985 RMK AO2  T01760153,,,,,,59.51,,SSW,29.2,28.3,,Clear
KIGQ,05/16/2017 11:15 UTC,29.85,64.58,59.9,84.81,8.05,200.0,,,,,,1.0,,,,10.0,,KIGQ 161115Z AUTO 20007KT 10SM CLR 18/16 A2985 RMK AO2  T01810155,,,,,,59.87,,SSW,29.2,28.27,,Clear
KIGQ,05/16/2017 11:35 UTC,29.85,64.76,60.44,85.91,6.91,200.0,,,,,,1.0,,,,10.0,,KIGQ 161135Z AUTO 20006KT 10SM CLR 18/16 A2985 RMK AO2  T01820158,,,,,,60.41,,SSW,29.2,28.24,,Clear
KIGQ,05/16/2017 11:55 UTC,29.86,65.84,60.8,83.81,5.75,200.0,,,,,,1.0,,,,10.0,,KIGQ 161155Z AUTO 20005KT 10SM CLR 19/16 A2986 RMK AO2 T01880160  10202 20174,68.36,63.32,,,,60.77,,SSW,29.21,28.22,,Clear
KIGQ,05/16/2017 12:15 UTC,29.88,66.38,60.98,82.78,5.75,220.0,,,,,,1.0,,,,10.0,,KIGQ 161215Z AUTO 22005KT 10SM CLR 19/16 A2988 RMK AO2  T01910161,,,,,,60.95,,SW,29.23,28.22,,Clear
KIGQ,05/16/2017 12:35 UTC,29.89,66.56,61.52,83.86,4.61,210.0,,,,,,1.0,,,,10.0,,KIGQ 161235Z AUTO 21004KT 10SM CLR 19/16 A2989 RMK AO2  T01920164,,,,,,61.5,,SSW,29.24,28.2,,Clear
KIGQ,05/16/2017 12:55 UTC,29.88,67.64,62.06,82.34,4.61,180.0,,,,,,1.0,,,,10.0,,KIGQ 161255Z AUTO 18004KT 10SM CLR 20/17 A2988 RMK AO2  T01980167,,,,,,62.03,,S,29.23,28.15,,Clear
KIGQ,05/16/2017 13:15 UTC,29.88,68.9,62.42,79.87,8.05,170.0,,,,,,1.0,,,,10.0,,KIGQ 161315Z AUTO 17007KT 10SM CLR 21/17 A2988 RMK AO2  T02050169,,,,,,62.39,,S,29.23,28.11,,Clear
KIGQ,05/16/2017 13:35 UTC,29.88,69.8,62.78,78.44,10.36,200.0,,,,,,1.0,,,,10.0,,KIGQ 161335Z AUTO 20009KT 10SM CLR 21/17 A2988 RMK AO2  T02100171,,,,,,62.76,,SSW,29.23,28.08,,Clear
KIGQ,05/16/2017 13:55 UTC,29.88,70.7,63.5,78.02,12.66,210.0,,,,,,1.0,,,,10.0,,KIGQ 161355Z AUTO 21011KT 10SM CLR 22/18 A2988 RMK AO2  T02150175,,,,,,63.48,,SSW,29.23,28.02,,Clear
KIGQ,05/16/2017 14:15 UTC,29.87,71.6,63.5,75.68,11.5,190.0,,,,,,1.0,,,,10.0,,KIGQ 161415Z AUTO 19010KT 10SM CLR 22/18 A2987 RMK AO2  T02200175,,,,,,63.48,,S,29.22,28.0,,Clear
KIGQ,05/16/2017 14:35 UTC,29.87,72.68,64.04,74.36,10.36,200.0,,,,,,1.0,,,,10.0,,KIGQ 161435Z AUTO 20009KT 10SM CLR 23/18 A2987 RMK AO2  T02260178,,,,,,64.02,,SSW,29.22,27.96,,Clear
KIGQ,05/16/2017 14:55 UTC,29.86,74.66,64.4,70.46,11.5,220.0,,,,,,1.0,,,,10.0,,KIGQ 161455Z AUTO 22010KT 10SM CLR 24/18 A2986 RMK AO2  T02370180,,,,,,64.38,,SW,29.21,27.9,,Clear
KIGQ,05/16/2017 15:15 UTC,29.86,76.1,64.94,68.44,9.22,220.0,,,,,,1.0,,,,10.0,,KIGQ 161515Z AUTO 22008KT 10SM CLR 25/18 A2986 RMK AO2  T02450183,,,,,,64.93,,SW,29.21,27.85,,Clear
KIGQ,05/16/2017 15:35 UTC,29.86,76.82,65.48,68.1,11.5,200.0,,,,,,1.0,,,,10.0,,KIGQ 161535Z AUTO 20010KT 10SM CLR 25/19 A2986 RMK AO2  T02490186,,,,,,65.48,,SSW,29.21,27.8,,Clear
KIGQ,05/16/2017 15:55 UTC,29.86,78.44,65.66,64.96,12.66,210.0,,,,,,1.0,,,,10.0,,KIGQ 161555Z AUTO 21011KT 10SM CLR 26/19 A2986 RMK AO2  T02580187,,,,,,65.66,,SSW,29.21,27.77,,Clear
KIGQ,05/16/2017 16:15 UTC,29.86,78.8,65.84,64.6,13.8,210.0,,,,,,1.0,,,,10.0,,KIGQ 161615Z AUTO 21012KT 10SM CLR 26/19 A2986 RMK AO2  T02600188,,,,,,65.85,,SSW,29.21,27.76,,Clear
KIGQ,05/16/2017 16:35 UTC,29.86,80.6,66.2,61.67,12.66,210.0,,,,,,1.0,,,,10.0,,KIGQ 161635Z AUTO 21011KT 10SM CLR 27/19 A2986 RMK AO2  T02700190,,,,,,66.22,,SSW,29.21,27.71,82.77,Clear
KIGQ,05/16/2017 16:55 UTC,29.85,80.24,65.66,61.25,8.05,200.0,16.11,,,,,1.0,,,,10.0,,KIGQ 161655Z AUTO 20007G14KT 10SM CLR 27/19 A2985 RMK AO2  T02680187,,,,,,65.68,,SSW,29.2,27.74,82.25,Clear
KIGQ,05/16/2017 17:15 UTC,29.84,80.96,66.92,62.49,14.97,200.0,,,,,,412.0,,,,10.0,,KIGQ 161715Z AUTO 20013KT 10SM SCT041 27/19 A2984 RMK AO2  T02720194,,,,,,66.94,,SSW,29.19,27.64,83.37,Partly Cloudy
KIGQ,05/16/2017 17:35 UTC,29.83,82.22,66.56,59.25,12.66,200.0,18.41,,,,,432.0,502.0,,,10.0,,KIGQ 161735Z AUTO 20011G16KT 10SM SCT043 SCT050 28/19 A2983 RMK AO2 T02790192,,,,,,66.59,,SSW,29.18,27.64,84.6,Partly Cloudy
KIGQ,05/16/2017 17:55 UTC,29.82,82.22,66.38,58.88,13.8,200.0,18.41,,,,,473.0,553.0,,,10.0,,KIGQ 161755Z AUTO 20012G16KT 150V210 10SM BKN047 BKN055 28/19  A2982 RMK AO2 T02790191 10281 20189,82.58,66.02,4700.0,,,66.41,,SSW,29.17,27.64,84.53,Mostly Cloudy
KIGQ,05/16/2017 18:15 UTC,29.81,83.66,64.4,52.48,14.97,190.0,23.02,,,,,493.0,,,,10.0,,KIGQ 161815Z AUTO 19013G20KT 10SM BKN049 29/18 A2981 RMK AO2  T02870180,,,4900.0,,,64.45,,S,29.16,27.75,85.21,Mostly Cloudy
KIGQ,05/16/2017 18:35 UTC,29.8,83.66,64.4,52.48,18.41,200.0,25.32,,,,,552.0,,,,10.0,,KIGQ 161835Z AUTO 20016G22KT 10SM SCT055 29/18 A2980 RMK AO2  T02870180,,,,,,64.45,,SSW,29.15,27.74,85.21,Partly Cloudy
KIGQ,05/16/2017 18:55 UTC,29.79,85.1,63.14,47.95,20.71,210.0,26.46,,,,,1.0,,,,10.0,,KIGQ 161855Z AUTO 21018G23KT 10SM CLR 30/17 A2979 RMK AO2  T02950173,,,,,,63.21,,SSW,29.14,27.79,86.1,Clear
KIGQ,05/16/2017 19:15 UTC,29.78,85.1,62.24,46.46,20.71,190.0,29.93,,,,,1.0,,,,10.0,,KIGQ 161915Z AUTO 19018G26KT 10SM CLR 30/17 A2978 RMK AO2  T02950168,,,,,,62.31,,S,29.13,27.84,85.76,Clear
KIGQ,05/16/2017 19:35 UTC,29.77,85.1,62.6,47.05,23.02,200.0,28.77,,,,,1.0,,,,10.0,,KIGQ 161935Z AUTO 20020G25KT 10SM CLR 30/17 A2977 RMK AO2  T02950170,,,,,,62.67,,SSW,29.12,27.81,85.89,Clear
KIGQ,05/16/2017 19:55 UTC,29.77,85.28,61.52,45.03,23.02,190.0,35.68,,,,,1.0,,,,10.0,,KIGQ 161955Z AUTO 19020G31KT 10SM CLR 30/16 A2977 RMK AO2  T02960164,,,,,,61.59,,S,29.12,27.87,85.66,Clear
KIGQ,05/16/2017 20:15 UTC,29.76,85.1,60.08,43.04,20.71,200.0,31.07,,,,,1.0,,,,10.0,,KIGQ 162015Z AUTO 20018G27KT 10SM CLR 30/16 A2976 RMK AO2  T02950156,,,,,,60.16,,SSW,29.11,27.95,85.02,Clear
KIGQ,05/16/2017 20:35 UTC,29.76,85.46,59.72,42.01,21.85,200.0,31.07,,,,,1.0,,,,10.0,,KIGQ 162035Z AUTO 20019G27KT 10SM CLR 30/15 A2976 RMK AO2  T02970154,,,,,,59.8,,SSW,29.11,27.97,85.23,Clear
KIGQ,05/16/2017 20:55 UTC,29.75,84.92,59.9,43.01,24.16,200.0,35.68,,,,,1.0,,,,10.0,,KIGQ 162055Z AUTO 20021G31KT 10SM CLR 29/16 A2975 RMK AO2  T02940155,,,,,,59.97,,SSW,29.1,27.95,84.81,Clear
KIGQ,05/16/2017 21:15 UTC,29.75,86.0,59.36,40.76,16.11,210.0,34.52,,,,,1.0,,,,10.0,,KIGQ 162115Z AUTO 21014G30KT 10SM CLR 30/15 A2975 RMK AO2  T03000152,,,,,,59.45,,SSW,29.1,27.98,85.6,Clear
KIGQ,05/16/2017 21:35 UTC,29.74,85.46,60.62,43.37,18.41,210.0,28.77,,,,,1.0,,,,10.0,,KIGQ 162135Z AUTO 21016G25KT 10SM CLR 30/16 A2974 RMK AO2  T02970159,,,,,,60.7,,SSW,29.09,27.9,85.52,Clear
KIGQ,05/16/2017 21:55 UTC,29.75,85.1,58.1,40.1,25.32,200.0,32.21,,,,,1.0,,,,10.0,,KIGQ 162155Z AUTO 20022G28KT 10SM CLR 30/15 A2975 RMK AO2  T02950145,,,,,,58.18,,SSW,29.1,28.05,84.45,Clear
KIGQ,05/16/2017 22:15 UTC,29.75,84.74,58.64,41.36,24.16,210.0,32.21,,,,,1.0,,,,10.0,,KIGQ 162215Z AUTO 21021G28KT 10SM CLR 29/15 A2975 RMK AO2  T02930148,,,,,,58.72,,SSW,29.1,28.03,84.29,Clear
KIGQ,05/16/2017 22:35 UTC,29.75,84.38,58.1,41.04,26.46,210.0,33.38,,,,,1.0,,,,10.0,,KIGQ 162235Z AUTO 21023G29KT 10SM CLR 29/15 A2975 RMK AO2  T02910145,,,,,,58.17,,SSW,29.1,28.06,83.85,Clear
KIGQ,05/16/2017 22:55 UTC,29.74,84.38,57.2,39.73,25.32,220.0,32.21,,,,,1.0,,,,10.0,,KIGQ 162255Z AUTO 22022G28KT 10SM CLR 29/14 A2974 RMK AO2  T02910140,,,,,,57.27,,SW,29.09,28.1,83.63,Clear
KIGQ,05/16/2017 23:15 UTC,29.74,84.02,57.92,41.25,16.11,210.0,34.52,,,,,1.0,,,,10.0,,KIGQ 162315Z AUTO 21014G30KT 10SM CLR 29/14 A2974 RMK AO2  T02890144,,,,,,57.99,,SSW,29.09,28.06,83.51,Clear
KIGQ,05/16/2017 23:35 UTC,29.74,83.48,58.1,42.24,23.02,220.0,29.93,,,,,1.0,,,,10.0,,KIGQ 162335Z AUTO 22020G26KT 10SM CLR 29/15 A2974 RMK AO2  T02860145,,,,,,58.16,,SW,29.09,28.06,83.12,Clear
KIGQ,05/16/2017 23:55 UTC,29.74,82.76,58.64,44.07,18.41,210.0,28.77,,,,,1.0,,,,10.0,,KIGQ 162355Z AUTO 21016G25KT 10SM CLR 28/15 A2974 RMK AO2  T02820148 10300 20282,86.0,82.76,,,,58.69,,SSW,29.09,28.04,82.68,Clear
KIGQ,05/17/2017 00:15 UTC,29.74,81.68,59.9,47.74,17.27,200.0,26.46,,,,,1.0,,,,10.0,,KIGQ 170015Z AUTO 20015G23KT 10SM CLR 28/16 A2974 RMK AO2  T02760155,,,,,,59.93,,SSW,29.09,27.97,82.12,Clear
KIGQ,05/17/2017 00:35 UTC,29.74,80.78,59.54,48.53,18.41,200.0,24.16,,,,,1.0,,,,10.0,,KIGQ 170035Z AUTO 20016G21KT 10SM CLR 27/15 A2974 RMK AO2  T02710153,,,,,,59.57,,SSW,29.09,28.0,81.36,Clear
KIGQ,05/17/2017 00:55 UTC,29.74,79.88,59.72,50.29,13.8,200.0,21.85,,,,,1.0,,,,10.0,,KIGQ 170055Z AUTO 20012G19KT 10SM CLR 27/15 A2974 RMK AO2  T02660154,,,,,,59.73,,SSW,29.09,28.0,,Clear
KIGQ,05/17/2017 01:15 UTC,29.73,78.44,59.9,53.06,11.5,190.0,,,,,,1.0,,,,10.0,,KIGQ 170115Z AUTO 19010KT 10SM CLR 26/16 A2973 RMK AO2  T02580155,,,,,,59.9,,S,29.08,28.0,,Clear
KIGQ,05/17/2017 01:35 UTC,29.73,77.9,60.08,54.36,16.11,190.0,,,,,,1.0,,,,10.0,,KIGQ 170135Z AUTO 19014KT 10SM CLR 26/16 A2973 RMK AO2  T02550156,,,,,,60.08,,S,29.08,27.99,,Clear
KIGQ,05/17/2017 01:55 UTC,29.73,77.0,60.08,56.0,12.66,190.0,18.41,,,,,1.0,,,,10.0,,KIGQ 170155Z AUTO 19011G16KT 10SM CLR 25/16 A2973 RMK AO2  T02500156,,,,,,60.07,,S,29.08,28.0,,Clear
KIGQ,05/17/2017 02:15 UTC,29.73,76.46,60.44,57.74,12.66,200.0,20.71,,,,,1.0,,,,10.0,,KIGQ 170215Z AUTO 20011G18KT 10SM CLR 25/16 A2973 RMK AO2  T02470158,,,,,,60.43,,SSW,29.08,27.99,,Clear
KIGQ,05/17/2017 02:35 UTC,29.74,76.28,60.8,58.83,12.66,200.0,23.02,,,,,1.0,,,,10.0,,KIGQ 170235Z AUTO 20011G20KT 10SM CLR 25/16 A2974 RMK AO2  T02460160,,,,,,60.79,,SSW,29.09,27.98,,Clear
KIGQ,05/17/2017 03:15 UTC,29.74,75.56,60.8,60.25,14.97,200.0,23.02,,,,,1.0,,,,10.0,,KIGQ 170315Z AUTO 20013G20KT 10SM CLR 24/16 A2974 RMK AO2  T02420160,,,,,,60.78,,SSW,29.09,27.98,,Clear
KIGQ,05/17/2017 03:35 UTC,29.73,75.38,60.8,60.62,14.97,200.0,24.16,,,,,1.0,,,,10.0,,KIGQ 170335Z AUTO 20013G21KT 10SM CLR 24/16 A2973 RMK AO2  T02410160,,,,,,60.78,,SSW,29.08,27.98,,Clear
KIGQ,05/17/2017 03:55 UTC,29.73,74.84,60.8,61.72,14.97,200.0,20.71,,,,,1.0,,,,10.0,,KIGQ 170355Z AUTO 20013G18KT 10SM CLR 24/16 A2973 RMK AO2  T02380160,,,,,,60.78,,SSW,29.08,27.98,,Clear
KIGQ,05/17/2017 04:15 UTC,29.74,74.3,60.8,62.84,12.66,210.0,,,,,,1.0,,,,10.0,,KIGQ 170415Z AUTO 21011KT 10SM CLR 24/16 A2974 RMK AO2  T02350160,,,,,,60.78,,SSW,29.09,28.0,,Clear
KIGQ,05/17/2017 04:35 UTC,29.73,73.4,60.8,64.76,13.8,200.0,18.41,,,,,1.0,,,,10.0,,KIGQ 170435Z AUTO 20012G16KT 10SM CLR 23/16 A2973 RMK AO2  T02300160,,,,,,60.77,,SSW,29.08,28.0,,Clear
KIGQ,05/17/2017 04:55 UTC,29.73,72.14,60.98,68.0,11.5,200.0,17.27,,,,,1.0,,,,10.0,,KIGQ 170455Z AUTO 20010G15KT 10SM CLR 22/16 A2973 RMK AO2  T02230161,,,,,,60.95,,SSW,29.08,28.0,,Clear
KIGQ,05/17/2017 05:15 UTC,29.73,71.96,61.7,70.18,13.8,200.0,18.41,,,,,1.0,,,,10.0,,KIGQ 170515Z AUTO 20012G16KT 10SM CLR 22/17 A2973 RMK AO2  T02220165,,,,,,61.67,,SSW,29.08,27.96,,Clear
KIGQ,05/17/2017 05:35 UTC,29.72,72.68,62.06,69.37,13.8,200.0,21.85,,,,,1.0,,,,10.0,,KIGQ 170535Z AUTO 20012G19KT 10SM CLR 23/17 A2972 RMK AO2  T02260167,,,,,,62.04,,SSW,29.07,27.92,,Clear
KIGQ,05/17/2017 05:55 UTC,29.73,72.68,62.24,69.81,18.41,210.0,23.02,,,,,1.0,,,,10.0,,KIGQ 170555Z AUTO 21016G20KT 10SM CLR 23/17 A2973 RMK AO2  T02260168 10282 20221 403000174,82.76,71.78,,86.0,63.32,62.22,,SSW,29.08,27.92,,Clear
KIGQ,05/17/2017 06:15 UTC,29.73,72.32,62.24,70.66,14.97,210.0,19.57,,,,,1.0,,,,10.0,,KIGQ 170615Z AUTO 21013G17KT 10SM CLR 22/17 A2973 RMK AO2  T02240168,,,,,,62.21,,SSW,29.08,27.93,,Clear
KIGQ,05/17/2017 06:35 UTC,29.73,72.14,62.24,71.09,17.27,210.0,23.02,,,,,1.0,,,,10.0,,KIGQ 170635Z AUTO 21015G20KT 10SM CLR 22/17 A2973 RMK AO2  T02230168,,,,,,62.21,,SSW,29.08,27.93,,Clear
KIGQ,05/17/2017 06:55 UTC,29.73,71.78,62.24,71.96,13.8,210.0,,,,,,1.0,,,,10.0,,KIGQ 170655Z AUTO 21012KT 10SM CLR 22/17 A2973 RMK AO2  T02210168,,,,,,62.21,,SSW,29.08,27.93,,Clear
KIGQ,05/17/2017 07:15 UTC,29.73,72.14,62.24,71.09,13.8,200.0,21.85,,,,,1.0,,,,10.0,,KIGQ 170715Z AUTO 20012G19KT 10SM CLR 22/17 A2973 RMK AO2  T02230168,,,,,,62.21,,SSW,29.08,27.93,,Clear
KIGQ,05/17/2017 07:35 UTC,29.72,71.06,62.06,73.27,14.97,210.0,,,,,,1.0,,,,10.0,,KIGQ 170735Z AUTO 21013KT 10SM CLR 22/17 A2972 RMK AO2  T02170167,,,,,,62.03,,SSW,29.07,27.94,,Clear
KIGQ,05/17/2017 07:55 UTC,29.73,70.88,61.88,73.25,12.66,210.0,18.41,,,,,1.0,,,,10.0,,KIGQ 170755Z AUTO 21011G16KT 10SM CLR 22/17 A2973 RMK AO2  T02160166,,,,,,61.85,,SSW,29.08,27.97,,Clear
KIGQ,05/17/2017 08:15 UTC,29.73,70.7,61.7,73.23,10.36,210.0,,,,,,1.0,,,,10.0,,KIGQ 170815Z AUTO 21009KT 10SM CLR 22/17 A2973 RMK AO2  T02150165,,,,,,61.67,,SSW,29.08,27.98,,Clear
KIGQ,05/17/2017 08:35 UTC,29.73,70.34,61.52,73.67,11.5,200.0,,,,,,1.0,,,,10.0,,KIGQ 170835Z AUTO 20010KT 10SM CLR 21/16 A2973 RMK AO2  T02130164,,,,,,61.49,,SSW,29.08,27.99,,Clear
KIGQ,05/17/2017 08:55 UTC,29.75,69.08,61.34,76.41,9.22,210.0,,,,,,1.0,,,,10.0,,KIGQ 170855Z AUTO 21008KT 10SM CLR 21/16 A2975 RMK AO2  T02060163,,,,,,61.31,,SSW,29.1,28.04,,Clear
KIGQ,05/17/2017 09:15 UTC,29.76,68.9,61.7,77.87,10.36,200.0,,,,,,1.0,,,,10.0,,KIGQ 170915Z AUTO 20009KT 10SM CLR 21/17 A2976 RMK AO2  T02050165,,,,,,61.67,,SSW,29.11,28.03,,Clear
KIGQ,05/17/2017 09:35 UTC,29.77,68.36,61.7,79.32,8.05,210.0,,,,,,1.0,,,,10.0,,KIGQ 170935Z AUTO 21007KT 10SM CLR 20/17 A2977 RMK AO2  T02020165,,,,,,61.67,,SSW,29.12,28.05,,Clear
KIGQ,05/17/2017 09:55 UTC,29.77,68.72,61.88,78.85,10.36,190.0,,,,,,1.0,,,,10.0,,KIGQ 170955Z AUTO 19009KT 10SM CLR 20/17 A2977 RMK AO2  T02040166,,,,,,61.85,,S,29.12,28.03,,Clear
KIGQ,05/17/2017 10:15 UTC,29.76,68.0,62.06,81.33,10.36,190.0,,,,,,1.0,,,,10.0,,KIGQ 171015Z AUTO 19009KT 10SM CLR 20/17 A2976 RMK AO2  T02000167,,,,,,62.03,,S,29.11,28.02,,Clear
KIGQ,05/17/2017 10:35 UTC,29.76,67.82,62.06,81.84,10.36,190.0,,,,,,1.0,,,,10.0,,KIGQ 171035Z AUTO 19009KT 10SM CLR 20/17 A2976 RMK AO2  T01990167,,,,,,62.04,,S,29.11,28.02,,Clear
KIGQ,05/17/2017 10:55 UTC,29.76,67.82,62.24,82.36,10.36,190.0,,,,,,1.0,,,,10.0,,KIGQ 171055Z AUTO 19009KT 10SM CLR 20/17 A2976 RMK AO2  T01990168,,,,,,62.22,,S,29.11,28.01,,Clear
KIGQ,05/17/2017 11:15 UTC,29.76,68.18,62.6,82.38,9.22,190.0,,,,,,1.0,,,,10.0,,KIGQ 171115Z AUTO 19008KT 10SM CLR 20/17 A2976 RMK AO2  T02010170,,,,,,62.57,,S,29.11,27.99,,Clear
KIGQ,05/17/2017 11:35 UTC,29.77,68.9,62.96,81.4,10.36,190.0,16.11,,,,,1.0,,,,10.0,,KIGQ 171135Z AUTO 19009G14KT 10SM CLR 21/17 A2977 RMK AO2  T02050172,,,,,,62.94,,S,29.12,27.97,,Clear
KIGQ,05/17/2017 11:55 UTC,29.77,68.9,63.5,82.95,11.5,190.0,,,,,,1.0,,,,10.0,,KIGQ 171155Z AUTO 19010KT 10SM CLR 21/18 A2977 RMK AO2 T02050175  10225 20197,72.5,67.46,,,,63.48,,S,29.12,27.94,,Clear
KIGQ,05/17/2017 12:15 UTC,29.77,69.98,63.68,80.46,13.8,180.0,,,,,,1.0,,,,10.0,,KIGQ 171215Z AUTO 18012KT 10SM CLR 21/18 A2977 RMK AO2  T02110176,,,,,,63.66,,S,29.12,27.91,,Clear
KIGQ,05/17/2017 12:35 UTC,29.77,71.06,64.22,79.04,14.97,190.0,18.41,,,,,1.0,,,,10.0,,KIGQ 171235Z AUTO 19013G16KT 10SM CLR 22/18 A2977 RMK AO2  T02170179,,,,,,64.2,,S,29.12,27.86,,Clear
KIGQ,05/17/2017 12:55 UTC,29.77,72.14,64.4,76.68,14.97,190.0,20.71,,,,,1.0,,,,10.0,,KIGQ 171255Z AUTO 19013G18KT 10SM CLR 22/18 A2977 RMK AO2  T02230180,,,,,,64.38,,S,29.12,27.84,,Clear
KIGQ,05/17/2017 13:15 UTC,29.78,73.94,64.58,72.64,14.97,200.0,20.71,,,,,1.0,,,,10.0,,KIGQ 171315Z AUTO 20013G18KT 10SM CLR 23/18 A2978 RMK AO2  T02330181,,,,,,64.57,,SSW,29.13,27.82,,Clear
KIGQ,05/17/2017 13:35 UTC,29.77,74.84,64.94,71.37,16.11,190.0,23.02,,,,,1.0,,,,10.0,,KIGQ 171335Z AUTO 19014G20KT 10SM CLR 24/18 A2977 RMK AO2  T02380183,,,,,,64.93,,S,29.12,27.77,,Clear
KIGQ,05/17/2017 13:55 UTC,29.77,76.1,64.76,68.02,16.11,200.0,26.46,,,,,1.0,,,,10.0,,KIGQ 171355Z AUTO 20014G23KT 10SM CLR 25/18 A2977 RMK AO2  T02450182,,,,,,64.75,,SSW,29.12,27.77,,Clear
KIGQ,05/17/2017 14:15 UTC,29.76,77.18,64.76,65.63,19.57,200.0,31.07,,,,,392.0,,,,10.0,,KIGQ 171415Z AUTO 20017G27KT 10SM SCT039 25/18 A2976 RMK AO2 LTG  DSNT W T02510182,,,,,,64.76,,SSW,29.11,27.75,,Partly Cloudy
KIGQ,05/17/2017 14:35 UTC,29.76,77.54,64.58,64.45,20.71,200.0,29.93,,,,,412.0,,,,10.0,,KIGQ 171435Z AUTO 20018G26KT 10SM SCT041 25/18 A2976 RMK AO2  T02530181,,,,,,64.58,,SSW,29.11,27.75,,Partly Cloudy
KIGQ,05/17/2017 14:55 UTC,29.75,77.72,64.76,64.47,26.46,200.0,33.38,,503.0,,,413.0,483.0,,,10.0,,KIGQ 171455Z AUTO 20023G29KT 10SM BKN041 BKN048 BKN050 25/18 A2975 RMK AO2 T02540182,,,4100.0,,,64.76,,SSW,29.1,27.73,,Mostly Cloudy
KIGQ,05/17/2017 15:15 UTC,29.74,78.26,64.4,62.54,25.32,200.0,32.21,,503.0,,,422.0,483.0,,,10.0,,KIGQ 171515Z AUTO 20022G28KT 10SM SCT042 BKN048 BKN050 26/18 A2974 RMK AO2 T02570180,,,4800.0,,,64.4,,SSW,29.09,27.74,,Mostly Cloudy
KIGQ,05/17/2017 15:35 UTC,29.74,78.98,64.94,62.24,20.71,200.0,33.38,,,,,442.0,603.0,,,10.0,,KIGQ 171535Z AUTO 20018G29KT 10SM SCT044 BKN060 26/18 A2974 RMK AO2 T02610183,,,6000.0,,,64.94,,SSW,29.09,27.69,,Mostly Cloudy
KIGQ,05/17/2017 15:55 UTC,29.73,78.8,64.04,60.68,19.57,210.0,25.32,,,,,443.0,603.0,,,10.0,,KIGQ 171555Z AUTO 21017G22KT 10SM BKN044 BKN060 26/18 A2973 RMK AO2 T02600178,,,4400.0,,,64.05,,SSW,29.08,27.74,,Mostly Cloudy
KIGQ,05/17/2017 16:15 UTC,29.73,80.42,64.04,57.55,24.16,200.0,34.52,,,,,462.0,602.0,,,10.0,,KIGQ 171615Z AUTO 20021G30KT 10SM SCT046 SCT060 27/18 A2973 RMK AO2 T02690178,,,,,,64.06,,SSW,29.08,27.72,82.03,Partly Cloudy
KIGQ,05/17/2017 16:35 UTC,29.74,80.6,64.4,57.94,24.16,200.0,31.07,,,,,482.0,602.0,,,10.0,,KIGQ 171635Z AUTO 20021G27KT 10SM SCT048 SCT060 27/18 A2974 RMK AO2 LTG DSNT NW T02700180,,,,,,64.42,,SSW,29.09,27.71,82.28,Partly Cloudy
KIGQ,05/17/2017 16:55 UTC,29.73,80.06,63.68,57.5,21.85,210.0,,,,,,,,,,,,KIGQ 171655Z AUTO 21019KT 27/18 A2973 RMK AO2 T02670176 PWINO,,,,,,63.7,,SSW,29.08,27.75,81.61,
KIGQ,05/17/2017 17:15 UTC,29.73,79.88,63.68,57.84,19.57,200.0,28.77,,,,,503.0,654.0,,,10.0,,KIGQ 171715Z AUTO 20017G25KT 10SM BKN050 OVC065 27/18 A2973 RMK AO2 T02660176,,,5000.0,,,63.69,,SSW,29.08,27.75,,Overcast
KIGQ,05/17/2017 17:35 UTC,29.71,82.22,64.58,55.32,21.85,190.0,29.93,,,,,502.0,653.0,,,10.0,,KIGQ 171735Z AUTO 19019G26KT 10SM SCT050 BKN065 28/18 A2971 RMK AO2 T02790181,,,6500.0,,,64.62,,S,29.06,27.65,83.89,Mostly Cloudy
KIGQ,05/17/2017 17:55 UTC,29.71,80.06,63.14,56.42,20.71,200.0,28.77,,,,,503.0,653.0,,,10.0,,KIGQ 171755Z AUTO 20018G25KT 10SM BKN050 BKN065 27/17 A2971 RMK AO2 6//// T02670173,,,5000.0,,,63.15,,SSW,29.06,27.77,81.5,Mostly Cloudy
KIGQ,05/17/2017 18:15 UTC,29.72,80.6,62.42,54.05,24.16,210.0,33.38,,,,,653.0,,,,10.0,,KIGQ 171815Z AUTO 21021G29KT 10SM BKN065 27/17 A2972 RMK AO2  T02700169,,,6500.0,,,62.44,,SSW,29.07,27.81,81.81,Mostly Cloudy
KIGQ,05/17/2017 18:35 UTC,29.7,80.78,63.32,55.46,21.85,180.0,32.21,,,,,552.0,,,,10.0,,KIGQ 171835Z AUTO 18019G28KT 10SM SCT055 27/17 A2970 RMK AO2  T02710174,,,,,,63.34,,S,29.05,27.74,82.18,Partly Cloudy
KIGQ,05/17/2017 18:55 UTC,29.68,81.86,62.6,52.22,20.71,190.0,33.38,,,,,552.0,,,,10.0,,KIGQ 171855Z AUTO 19018G29KT 10SM SCT055 28/17 A2968 RMK AO2  T02770170,,,,,,62.63,,S,29.03,27.75,82.95,Partly Cloudy
KIGQ,05/17/2017 19:15 UTC,29.69,82.58,62.24,50.37,20.71,190.0,32.21,,,,,1.0,,,,10.0,,KIGQ 171915Z AUTO 19018G28KT 10SM CLR 28/17 A2969 RMK AO2  T02810168,,,,,,62.28,,S,29.04,27.78,83.47,Clear
KIGQ,05/17/2017 19:35 UTC,29.7,82.76,61.7,49.14,26.46,200.0,36.82,,,,,602.0,,,,7.0,,KIGQ 171935Z AUTO 20023G32KT 7SM SCT060 28/17 A2970 RMK AO2  T02820165,,,,,,61.75,,SSW,29.05,27.82,83.47,Partly Cloudy
KIGQ,05/17/2017 19:55 UTC,29.68,82.04,60.62,48.41,26.46,190.0,35.68,,652.0,,,362.0,452.0,,,10.0,,KIGQ 171955Z AUTO 19023G31KT 10SM SCT036 SCT045 SCT065 28/16 A2968 RMK AO2 T02780159,,,,,,60.66,,S,29.03,27.87,82.58,Partly Cloudy
KIGQ,05/17/2017 20:15 UTC,29.67,81.5,59.72,47.71,23.02,200.0,32.21,,,,,1.0,,,,10.0,,KIGQ 172015Z AUTO 20020G28KT 10SM CLR 28/15 A2967 RMK AO2  T02750154,,,,,,59.75,,SSW,29.02,27.92,81.94,Clear
KIGQ,05/17/2017 20:35 UTC,29.63,81.5,59.72,47.71,23.02,190.0,28.77,,,,,1.0,,,,10.0,,KIGQ 172035Z AUTO 19020G25KT 10SM CLR 28/15 A2963 RMK AO2  T02750154,,,,,,59.75,,S,28.99,27.88,81.94,Clear
KIGQ,05/17/2017 20:55 UTC,29.66,82.4,59.72,46.34,23.02,200.0,31.07,,,,,1.0,,,,10.0,,KIGQ 172055Z AUTO 20020G27KT 10SM CLR 28/15 A2966 RMK AO2  T02800154,,,,,,59.76,,SSW,29.02,27.91,82.65,Clear
KIGQ,05/17/2017 21:15 UTC,29.65,81.5,59.72,47.71,25.32,180.0,34.52,,,,,1.0,,,,10.0,,KIGQ 172115Z AUTO 18022G30KT 10SM CLR 28/15 A2965 RMK AO2  T02750154,,,,,,59.75,,S,29.01,27.9,81.94,Clear
KIGQ,05/17/2017 21:35 UTC,29.66,82.4,59.9,46.64,26.46,190.0,37.98,,,,,1.0,,,,10.0,,KIGQ 172135Z AUTO 19023G33KT 10SM CLR 28/16 A2966 RMK AO2  T02800155,,,,,,59.94,,S,29.02,27.9,82.69,Clear
KIGQ,05/17/2017 21:55 UTC,29.66,81.68,59.54,47.13,20.71,180.0,32.21,,,,,373.0,453.0,,,10.0,,KIGQ 172155Z AUTO 18018G28KT 10SM BKN037 BKN045 28/15 A2966 RMK AO2 T02760153,,,3700.0,,,59.57,,S,29.02,27.92,82.04,Mostly Cloudy
KIGQ,05/17/2017 22:15 UTC,29.67,80.78,58.1,46.09,27.63,190.0,35.68,,,,,343.0,413.0,,,10.0,,KIGQ 172215Z AUTO 19024G31KT 10SM BKN034 BKN041 27/15 A2967 RMK AO2 T02710145,,,3400.0,,,58.12,,S,29.02,28.01,81.09,Mostly Cloudy
KIGQ,05/17/2017 22:35 UTC,29.65,78.98,58.46,49.52,17.27,190.0,28.77,,,,,322.0,382.0,,,10.0,,KIGQ 172235Z AUTO 19015G25KT 10SM SCT032 SCT038 26/15 A2965 RMK AO2 LTG DSNT W T02610147,,,,,,58.47,,S,29.01,28.0,,Partly Cloudy
KIGQ,05/17/2017 22:55 UTC,29.65,79.7,59.72,50.59,25.32,200.0,34.52,,,,,1.0,,,,10.0,,KIGQ 172255Z AUTO 20022G30KT 10SM CLR 27/15 A2965 RMK AO2  T02650154,,,,,,59.73,,SSW,29.01,27.92,,Clear
KIGQ,05/17/2017 23:15 UTC,29.64,79.7,60.44,51.9,28.77,200.0,36.82,,,,,1.0,,,,10.0,,KIGQ 172315Z AUTO 20025G32KT 10SM CLR 27/16 A2964 RMK AO2  T02650158,,,,,,60.45,,SSW,29.0,27.87,,Clear
KIGQ,05/17/2017 23:35 UTC,29.65,79.34,58.82,49.57,26.46,200.0,40.29,,,,,383.0,433.0,,,10.0,,KIGQ 172335Z AUTO 20023G35KT 10SM BKN038 BKN043 26/15 A2965 RMK AO2 T02630149,,,3800.0,,,58.83,,SSW,29.01,27.98,,Mostly Cloudy
KIGQ,05/17/2017 23:55 UTC,29.65,78.62,59.72,52.41,20.71,190.0,39.12,,,,,384.0,,,,10.0,,KIGQ 172355Z AUTO 19018G34KT 10SM OVC038 26/15 A2965 RMK AO2  T02590154 10285 20259,83.3,78.62,3800.0,,,59.72,,S,29.01,27.93,,Overcast
KIGQ,05/18/2017 00:15 UTC,29.65,77.9,60.08,54.36,27.63,190.0,41.43,,,,,344.0,,,,7.0,,KIGQ 180015Z AUTO 19024G36KT 7SM OVC034 26/16 A2965 RMK AO2  T02550156,,,3400.0,,,60.08,,S,29.01,27.92,,Overcast
KIGQ,05/18/2017 00:35 UTC,29.66,77.9,59.9,54.01,29.93,190.0,39.12,,704.0,,,343.0,443.0,,,7.0,,KIGQ 180035Z AUTO 19026G34KT 7SM BKN034 BKN044 OVC070 26/16 A2966 RMK AO2 LTG DSNT S T02550155,,,3400.0,,,59.9,,S,29.02,27.94,,Overcast
KIGQ,05/18/2017 00:55 UTC,29.65,77.54,59.9,54.66,24.16,190.0,39.12,,604.0,,,362.0,432.0,,,10.0,,KIGQ 180055Z AUTO 19021G34KT 10SM SCT036 SCT043 OVC060 25/16 A2965 RMK AO2 LTG DSNT S T02530155,,,6000.0,,,59.9,,S,29.01,27.93,,Overcast
KIGQ,05/18/2017 01:15 UTC,29.64,77.18,60.26,56.02,26.46,180.0,40.29,,,,,604.0,,,,10.0,,KIGQ 180115Z AUTO 18023G35KT 10SM OVC060 25/16 A2964 RMK AO2  T02510157,,,6000.0,,,60.25,,S,29.0,27.91,,Overcast
KIGQ,05/18/2017 01:35 UTC,29.64,76.1,60.8,59.18,21.85,190.0,29.93,,,,,602.0,652.0,,,10.0,,KIGQ 180135Z AUTO 19019G26KT 10SM SCT060 SCT065 25/16 A2964 RMK AO2 T02450160,,,,,,60.79,,S,29.0,27.89,,Partly Cloudy
KIGQ,05/18/2017 01:55 UTC,29.65,76.1,60.98,59.56,23.02,180.0,32.21,,,,,653.0,,,,10.0,,KIGQ 180155Z AUTO 18020G28KT 10SM BKN065 25/16 A2965 RMK AO2  T02450161,,,6500.0,,,60.97,,S,29.01,27.89,,Mostly Cloudy
KIGQ,05/18/2017 02:15 UTC,29.65,75.38,61.16,61.39,20.71,190.0,31.07,,,,,553.0,,,,10.0,,KIGQ 180215Z AUTO 19018G27KT 10SM BKN055 24/16 A2965 RMK AO2  T02410162,,,5500.0,,,61.14,,S,29.01,27.88,,Mostly Cloudy
KIGQ,05/18/2017 02:35 UTC,29.66,75.02,61.7,63.33,17.27,190.0,28.77,,,,,552.0,,,,10.0,,KIGQ 180235Z AUTO 19015G25KT 10SM SCT055 24/17 A2966 RMK AO2  T02390165,,,,,,61.68,,S,29.02,27.87,,Partly Cloudy
KIGQ,05/18/2017 02:55 UTC,29.67,74.66,61.88,64.5,25.32,190.0,33.38,,,,,1.0,,,,10.0,,KIGQ 180255Z AUTO 19022G29KT 10SM CLR 24/17 A2967 RMK AO2  T02370166,,,,,,61.86,,S,29.02,27.86,,Clear
KIGQ,05/18/2017 03:15 UTC,29.66,74.66,62.24,65.33,21.85,190.0,31.07,,,,,1.0,,,,10.0,,KIGQ 180315Z AUTO 19019G27KT 10SM CLR 24/17 A2966 RMK AO2  T02370168,,,,,,62.22,,S,29.02,27.84,,Clear
KIGQ,05/18/2017 03:35 UTC,29.66,74.84,62.6,65.76,23.02,190.0,32.21,,,,,1.0,,,,10.0,,KIGQ 180335Z AUTO 19020G28KT 10SM CLR 24/17 A2966 RMK AO2  T02380170,,,,,,62.58,,S,29.02,27.82,,Clear
KIGQ,05/18/2017 03:55 UTC,29.65,74.84,62.6,65.76,24.16,190.0,34.52,,,,,1.0,,,,10.0,,KIGQ 180355Z AUTO 19021G30KT 10SM CLR 24/17 A2965 RMK AO2 LTG DSNT  W T02380170,,,,,,62.58,,S,29.01,27.81,,Clear
KIGQ,05/18/2017 04:15 UTC,29.65,75.2,62.6,64.98,24.16,200.0,37.98,,,,,1.0,,,,10.0,,KIGQ 180415Z AUTO 20021G33KT 10SM CLR 24/17 A2965 RMK AO2  T02400170,,,,,,62.58,,SSW,29.01,27.8,,Clear
KIGQ,05/18/2017 04:35 UTC,29.66,75.02,62.6,65.37,24.16,200.0,33.38,,,,,1.0,,,,10.0,,KIGQ 180435Z AUTO 20021G29KT 10SM CLR 24/17 A2966 RMK AO2 LTG DSNT  W T02390170,,,,,,62.58,,SSW,29.02,27.81,,Clear
KIGQ,05/18/2017 04:55 UTC,29.65,75.2,62.6,64.98,24.16,200.0,36.82,,,,,1.0,,,,10.0,,KIGQ 180455Z AUTO 20021G32KT 10SM CLR 24/17 A2965 RMK AO2 LTG DSNT  W AND NW T02400170,,,,,,62.58,,SSW,29.01,27.8,,Clear
KIGQ,05/18/2017 05:15 UTC,29.66,75.2,62.6,64.98,25.32,210.0,35.68,,,,,1.0,,,,10.0,,KIGQ 180515Z AUTO 21022G31KT 10SM CLR 24/17 A2966 RMK AO2 LTG DSNT  W AND NW T02400170,,,,,,62.58,,SSW,29.02,27.81,,Clear
KIGQ,05/18/2017 05:35 UTC,29.66,75.38,62.24,63.78,21.85,210.0,32.21,,,,,1.0,,,,10.0,,KIGQ 180535Z AUTO 21019G28KT 10SM CLR 24/17 A2966 RMK AO2 LTG DSNT  W THRU N T02410168,,,,,,62.23,,SSW,29.02,27.83,,Clear
KIGQ,05/18/2017 05:55 UTC,29.66,75.2,62.6,64.98,20.71,210.0,31.07,5.0,,,,1002.0,,,,10.0,,KIGQ 180555Z AUTO 21018G27KT 10SM VCTS SCT100 24/17 A2966 RMK AO2  LTG DSNT W THRU N T02400170 10258 20236,78.44,74.48,,,,62.58,,SSW,29.02,27.81,,Thunder
KIGQ,05/18/2017 06:15 UTC,29.65,75.2,62.6,64.98,23.02,210.0,36.82,,,,,1002.0,,,,10.0,,KIGQ 180615Z AUTO 21020G32KT 10SM SCT100 24/17 A2965 RMK AO2 LTG  DSNT ALQS T02400170,,,,,,62.58,,SSW,29.01,27.8,,Partly Cloudy
KIGQ,05/18/2017 06:35 UTC,29.69,70.7,64.58,81.02,31.07,240.0,37.98,,1003.0,0.03,,432.0,603.0,,,7.0,,KIGQ 180635Z AUTO 24027G33KT 7SM +VCTSRA SCT043 BKN060 BKN100  22/18 A2969 RMK AO2 LTG DSNT SW THRU NE P0003 T02150181,,,6000.0,,,64.56,,WSW,29.04,27.77,,Mostly Cloudy
KIGQ,05/18/2017 06:55 UTC,29.68,64.94,61.52,88.7,23.02,220.0,33.38,78.0,904.0,0.17,,422.0,603.0,,,5.0,,KIGQ 180655Z AUTO 22020G29KT 5SM +TSRA SCT042 BKN060 OVC090 18/16  A2968 RMK AO2 LTG DSNT ALQS P0017 T01830164,,,6000.0,,,61.5,,SW,29.03,28.01,,Heavy Rain/Thunderstorm
KIGQ,05/18/2017 07:15 UTC,29.68,66.38,62.42,87.1,14.97,210.0,,,904.0,,,392.0,702.0,,,10.0,,KIGQ 180715Z AUTO 21013KT 10SM SCT039 SCT070 OVC090 19/17 A2968 RMK AO2 LTG DSNT E T01910169,,,9000.0,,,62.4,,SSW,29.03,27.94,,Overcast
KIGQ,05/18/2017 07:35 UTC,29.67,66.38,63.14,89.33,10.36,200.0,18.41,,,,,902.0,,,,10.0,,KIGQ 180735Z AUTO 20009G16KT 10SM SCT090 19/17 A2967 RMK AO2  T01910173,,,,,,63.12,,SSW,29.02,27.89,,Partly Cloudy
KIGQ,05/18/2017 07:55 UTC,29.67,66.2,63.5,91.03,10.36,190.0,,,,,,952.0,,,,10.0,,KIGQ 180755Z AUTO 19009KT 10SM SCT095 19/18 A2967 RMK AO2  T01900175,,,,,,63.49,,S,29.02,27.87,,Partly Cloudy
KIGQ,05/18/2017 08:15 UTC,29.67,68.0,64.58,88.84,12.66,200.0,,,,,,952.0,,,,10.0,,KIGQ 180815Z AUTO 20011KT 10SM SCT095 20/18 A2967 RMK AO2  T02000181,,,,,,64.56,,SSW,29.02,27.78,,Partly Cloudy
KIGQ,05/18/2017 08:35 UTC,29.67,69.8,65.3,85.66,16.11,210.0,19.57,,,,,1.0,,,,10.0,,KIGQ 180835Z AUTO 21014G17KT 10SM CLR 21/19 A2967 RMK AO2 LTG DSNT  S T02100185,,,,,,65.29,,SSW,29.02,27.71,,Clear
KIGQ,05/18/2017 08:55 UTC,29.67,69.98,65.3,85.13,18.41,210.0,23.02,,,,0.17,1.0,,,,10.0,,KIGQ 180855Z AUTO 21016G20KT 10SM CLR 21/19 A2967 RMK AO2 60017  T02110185,,,,,,65.28,,SSW,29.02,27.71,,Clear
KIGQ,05/18/2017 09:15 UTC,29.67,70.52,65.3,83.58,17.27,210.0,24.16,,,,,1.0,,,,10.0,,KIGQ 180915Z AUTO 21015G21KT 10SM CLR 21/19 A2967 RMK AO2  T02140185,,,,,,65.28,,SSW,29.02,27.7,,Clear
KIGQ,05/18/2017 09:35 UTC,29.67,70.16,65.3,84.61,17.27,210.0,24.16,,,,,1.0,,,,10.0,,KIGQ 180935Z AUTO 21015G21KT 10SM CLR 21/19 A2967 RMK AO2 LTG DSNT  S T02120185,,,,,,65.28,,SSW,29.02,27.71,,Clear
KIGQ,05/18/2017 09:55 UTC,29.67,69.98,64.94,84.07,16.11,210.0,20.71,,,,,1.0,,,,10.0,,KIGQ 180955Z AUTO 21014G18KT 10SM CLR 21/18 A2967 RMK AO2 LTG DSNT  SE T02110183,,,,,,64.92,,SSW,29.02,27.73,,Clear
KIGQ,05/18/2017 10:15 UTC,29.68,69.8,64.76,84.06,14.97,210.0,25.32,,,,,1.0,,,,10.0,,KIGQ 181015Z AUTO 21013G22KT 10SM CLR 21/18 A2968 RMK AO2 LTG DSNT  SE T02100182,,,,,,64.74,,SSW,29.03,27.76,,Clear
KIGQ,05/18/2017 10:35 UTC,29.69,69.8,64.76,84.06,14.97,210.0,24.16,,,,,1.0,,,,10.0,,KIGQ 181035Z AUTO 21013G21KT 10SM CLR 21/18 A2969 RMK AO2  T02100182,,,,,,64.74,,SSW,29.04,27.77,,Clear
KIGQ,05/18/2017 10:55 UTC,29.69,69.44,64.58,84.57,17.27,210.0,21.85,,,,,1.0,,,,10.0,,KIGQ 181055Z AUTO 21015G19KT 10SM CLR 21/18 A2969 RMK AO2  T02080181,,,,,,64.56,,SSW,29.04,27.78,,Clear
KIGQ,05/18/2017 11:15 UTC,29.69,69.44,64.58,84.57,16.11,210.0,19.57,,,,,1.0,,,,10.0,,KIGQ 181115Z AUTO 21014G17KT 10SM CLR 21/18 A2969 RMK AO2  T02080181,,,,,,64.56,,SSW,29.04,27.78,,Clear
KIGQ,05/18/2017 11:35 UTC,29.7,69.98,64.76,83.55,17.27,210.0,25.32,,,,,1.0,,,,10.0,,KIGQ 181135Z AUTO 21015G22KT 10SM CLR 21/18 A2970 RMK AO2 LTG DSNT  SE T02110182,,,,,,64.74,,SSW,29.05,27.77,,Clear
KIGQ,05/18/2017 11:55 UTC,29.71,70.7,64.76,81.53,19.57,210.0,28.77,,,,,1.0,,0.17,,10.0,,KIGQ 181155Z AUTO 21017G25KT 10SM CLR 22/18 A2971 RMK AO2 60017  7//// T02150182 10241 20183,75.38,64.94,,,,64.74,,SSW,29.06,27.77,,Clear
KIGQ,05/18/2017 12:15 UTC,29.71,71.06,64.94,81.04,19.57,220.0,29.93,,,,,1.0,,,,10.0,,KIGQ 181215Z AUTO 22017G26KT 10SM CLR 22/18 A2971 RMK AO2  T02170183,,,,,,64.92,,SW,29.06,27.76,,Clear
KIGQ,05/18/2017 12:35 UTC,29.71,71.6,65.3,80.58,18.41,220.0,26.46,,,,,1.0,,,,10.0,,KIGQ 181235Z AUTO 22016G23KT 10SM CLR 22/19 A2971 RMK AO2 LTG DSNT  SE T02200185,,,,,,65.28,,SW,29.06,27.73,,Clear
KIGQ,05/18/2017 12:55 UTC,29.73,72.5,64.22,75.28,27.63,220.0,33.38,,,,,1.0,,,,10.0,,KIGQ 181255Z AUTO 22024G29KT 10SM CLR 23/18 A2973 RMK AO2  T02250179,,,,,,64.2,,SW,29.08,27.81,,Clear
KIGQ,05/18/2017 13:15 UTC,29.73,72.86,63.68,72.99,25.32,230.0,36.82,,,,,1.0,,,,10.0,,KIGQ 181315Z AUTO 23022G32KT 10SM CLR 23/18 A2973 RMK AO2 LTG DSNT  SE T02270176,,,,,,63.66,,SW,29.08,27.83,,Clear
KIGQ,05/18/2017 13:35 UTC,29.74,73.4,63.86,72.13,26.46,230.0,33.38,,,,,1.0,,,,10.0,,KIGQ 181335Z AUTO 23023G29KT 10SM CLR 23/18 A2974 RMK AO2  T02300177,,,,,,63.84,,SW,29.09,27.83,,Clear
KIGQ,05/18/2017 13:55 UTC,29.74,73.94,63.5,69.95,23.02,230.0,34.52,,,,,342.0,,,,10.0,,KIGQ 181355Z AUTO 23020G30KT 10SM SCT034 23/18 A2974 RMK AO2  T02330175,,,,,,63.48,,SW,29.09,27.84,,Partly Cloudy
KIGQ,05/18/2017 14:15 UTC,29.75,74.3,62.42,66.54,26.46,250.0,36.82,,,,,362.0,,,,10.0,,KIGQ 181415Z AUTO 25023G32KT 10SM SCT036 24/17 A2975 RMK AO2 LTG  DSNT E T02350169,,,,,,62.4,,WSW,29.1,27.91,,Partly Cloudy
KIGQ,05/18/2017 14:35 UTC,29.75,74.84,62.06,64.53,24.16,230.0,39.12,,,,,1.0,,,,10.0,,KIGQ 181435Z AUTO 23021G34KT 10SM CLR 24/17 A2975 RMK AO2  T02380167,,,,,,62.04,,SW,29.1,27.93,,Clear
KIGQ,05/18/2017 14:55 UTC,29.75,75.56,62.6,64.21,23.02,230.0,34.52,,,,,1.0,,,,10.0,,KIGQ 181455Z AUTO 23020G30KT 10SM CLR 24/17 A2975 RMK AO2  T02420170,,,,,,62.59,,SW,29.1,27.89,,Clear
KIGQ,05/18/2017 15:15 UTC,29.76,76.28,61.7,60.73,26.46,230.0,39.12,,,,,1.0,,,,10.0,,KIGQ 181515Z AUTO 23023G34KT 10SM CLR 25/17 A2976 RMK AO2  T02460165,,,,,,61.69,,SW,29.11,27.94,,Clear
KIGQ,05/18/2017 15:35 UTC,29.77,76.64,61.7,60.01,23.02,240.0,37.98,,,,,1.0,,,,10.0,,KIGQ 181535Z AUTO 24020G33KT 10SM CLR 25/17 A2977 RMK AO2  T02480165,,,,,,61.69,,WSW,29.12,27.95,,Clear
KIGQ,05/18/2017 15:55 UTC,29.77,77.18,61.88,59.33,21.85,230.0,28.77,,,,,1.0,,,,10.0,,KIGQ 181555Z AUTO 23019G25KT 10SM CLR 25/17 A2977 RMK AO2  T02510166,,,,,,61.88,,SW,29.12,27.93,,Clear
KIGQ,05/18/2017 16:15 UTC,29.77,78.26,62.24,57.98,25.32,230.0,35.68,,,,,1.0,,,,10.0,,KIGQ 181615Z AUTO 23022G31KT 10SM CLR 26/17 A2977 RMK AO2  T02570168,,,,,,62.24,,SW,29.12,27.9,,Clear
KIGQ,05/18/2017 16:35 UTC,29.78,78.8,62.78,58.06,21.85,230.0,32.21,,,,,502.0,,,,10.0,,KIGQ 181635Z AUTO 23019G28KT 10SM SCT050 26/17 A2978 RMK AO2 LTG  DSNT E T02600171,,,,,,62.79,,SW,29.13,27.87,,Partly Cloudy
KIGQ,05/18/2017 16:55 UTC,29.78,79.7,58.46,48.37,27.63,240.0,33.38,,,,,1.0,,,,10.0,,KIGQ 181655Z AUTO 24024G29KT 10SM CLR 27/15 A2978 RMK AO2  T02650147,,,,,,58.48,,WSW,29.13,28.11,,Clear
KIGQ,05/18/2017 17:15 UTC,29.79,80.06,58.28,47.49,27.63,250.0,34.52,,,,,1.0,,,,10.0,,KIGQ 181715Z AUTO 25024G30KT 10SM CLR 27/15 A2979 RMK AO2  T02670146,,,,,,58.3,,WSW,29.14,28.13,80.0,Clear
KIGQ,05/18/2017 17:35 UTC,29.79,80.78,59.54,48.53,19.57,240.0,32.21,,,,,1.0,,,,10.0,,KIGQ 181735Z AUTO 24017G28KT 10SM CLR 27/15 A2979 RMK AO2  T02710153,,,,,,59.57,,WSW,29.14,28.05,81.36,Clear
KIGQ,05/18/2017 17:55 UTC,29.79,81.14,61.16,50.8,18.41,260.0,27.63,,,,,1.0,,,,10.0,,KIGQ 181755Z AUTO 26016G24KT 10SM CLR 27/16 A2979 RMK AO2  T02730162 10274 20215,81.32,70.7,,,,61.19,,W,29.14,27.96,81.97,Clear
KIGQ,05/18/2017 18:15 UTC,29.79,81.14,59.72,48.27,23.02,260.0,29.93,,,,,1.0,,,,10.0,,KIGQ 181815Z AUTO 26020G26KT 10SM CLR 27/15 A2979 RMK AO2  T02730154,,,,,,59.75,,W,29.14,28.04,81.66,Clear
KIGQ,05/18/2017 18:35 UTC,29.8,81.14,59.72,48.27,18.41,270.0,31.07,,,,,1.0,,,,10.0,,KIGQ 181835Z AUTO 27016G27KT 10SM CLR 27/15 A2980 RMK AO2  T02730154,,,,,,59.75,,W,29.15,28.05,81.66,Clear
KIGQ,05/18/2017 18:55 UTC,29.81,81.86,59.72,47.16,25.32,260.0,35.68,,,,,1.0,,,,10.0,,KIGQ 181855Z AUTO 26022G31KT 10SM CLR 28/15 A2981 RMK AO2  T02770154,,,,,,59.76,,W,29.16,28.05,82.22,Clear
KIGQ,05/18/2017 19:15 UTC,29.81,82.04,59.54,46.59,23.02,260.0,28.77,,,,,1.0,,,,10.0,,KIGQ 181915Z AUTO 26020G25KT 10SM CLR 28/15 A2981 RMK AO2  T02780153,,,,,,59.58,,W,29.16,28.06,82.32,Clear
KIGQ,05/18/2017 19:35 UTC,29.81,81.5,61.34,50.53,13.8,280.0,25.32,,,,,1.0,,,,10.0,,KIGQ 181935Z AUTO 28012G22KT 10SM CLR 28/16 A2981 RMK AO2  T02750163,,,,,,61.37,,W,29.16,27.96,82.31,Clear
KIGQ,05/18/2017 19:55 UTC,29.82,81.14,61.16,50.8,19.57,270.0,25.32,,,,,1.0,,,,10.0,,KIGQ 181955Z AUTO 27017G22KT 10SM CLR 27/16 A2982 RMK AO2  T02730162,,,,,,61.19,,W,29.17,27.99,81.97,Clear
KIGQ,05/18/2017 20:15 UTC,29.83,80.78,61.16,51.4,16.11,270.0,20.71,,,,,1.0,,,,10.0,,KIGQ 182015Z AUTO 27014G18KT 10SM CLR 27/16 A2983 RMK AO2  T02710162,,,,,,61.18,,W,29.18,28.0,81.68,Clear
KIGQ,05/18/2017 20:35 UTC,29.83,80.6,61.34,52.03,13.8,270.0,23.02,,,,,1.0,,,,10.0,,KIGQ 182035Z AUTO 27012G20KT 10SM CLR 27/16 A2983 RMK AO2  T02700163,,,,,,61.36,,W,29.18,27.99,81.58,Clear
KIGQ,05/18/2017 20:55 UTC,29.83,80.96,61.16,51.1,14.97,270.0,21.85,,,,,1.0,,,,10.0,,KIGQ 182055Z AUTO 27013G19KT 10SM CLR 27/16 A2983 RMK AO2  T02720162,,,,,,61.18,,W,29.18,28.0,81.83,Clear
KIGQ,05/18/2017 21:15 UTC,29.84,80.42,60.98,51.68,13.8,280.0,20.71,,,,,1.0,,,,10.0,,KIGQ 182115Z AUTO 28012G18KT 10SM CLR 27/16 A2984 RMK AO2  T02690161,,,,,,61.0,,W,29.19,28.03,81.36,Clear
KIGQ,05/18/2017 21:35 UTC,29.84,80.06,60.8,51.95,14.97,310.0,18.41,,,,,1.0,,,,10.0,,KIGQ 182135Z AUTO 31013G16KT 10SM CLR 27/16 A2984 RMK AO2  T02670160,,,,,,60.81,,NW,29.19,28.04,81.05,Clear
KIGQ,05/18/2017 21:55 UTC,29.84,80.42,61.52,52.67,13.8,280.0,17.27,,,,,1.0,,,,10.0,,KIGQ 182155Z AUTO 28012G15KT 10SM CLR 27/16 A2984 RMK AO2  T02690164,,,,,,61.54,,W,29.19,27.99,81.47,Clear
KIGQ,05/18/2017 22:15 UTC,29.85,79.88,60.8,52.26,13.8,290.0,18.41,,,,,1.0,,,,10.0,,KIGQ 182215Z AUTO 29012G16KT 10SM CLR 27/16 A2985 RMK AO2  T02660160,,,,,,60.81,,WNW,29.2,28.05,,Clear
KIGQ,05/18/2017 22:35 UTC,29.85,79.7,60.98,52.91,9.22,290.0,19.57,,,,,1.0,,,,10.0,,KIGQ 182235Z AUTO 29008G17KT 10SM CLR 27/16 A2985 RMK AO2  T02650161,,,,,,61.0,,WNW,29.2,28.04,,Clear
KIGQ,05/18/2017 22:55 UTC,29.85,79.7,60.8,52.57,10.36,310.0,17.27,,,,,1.0,,,,10.0,,KIGQ 182255Z AUTO 31009G15KT 10SM CLR 27/16 A2985 RMK AO2  T02650160,,,,,,60.81,,NW,29.2,28.05,,Clear
KIGQ,05/18/2017 23:15 UTC,29.85,78.98,60.98,54.17,10.36,300.0,16.11,,,,,1.0,,,,10.0,,KIGQ 182315Z AUTO 30009G14KT 10SM CLR 26/16 A2985 RMK AO2 LTG DSNT  E THRU S T02610161,,,,,,60.99,,WNW,29.2,28.05,,Clear
KIGQ,05/18/2017 23:35 UTC,29.85,77.9,61.34,56.84,11.5,320.0,,,,,,1.0,,,,10.0,,KIGQ 182335Z AUTO 32010KT 10SM CLR 26/16 A2985 RMK AO2  T02550163,,,,,,61.34,,NW,29.2,28.04,,Clear
KIGQ,05/18/2017 23:55 UTC,29.86,76.64,60.8,58.13,10.36,300.0,,,,,,1.0,,,,10.0,,KIGQ 182355Z AUTO 30009KT 10SM CLR 25/16 A2986 RMK AO2 T02480160  10279 20248,82.22,76.64,,,,60.79,,WNW,29.21,28.1,,Clear
KIGQ,05/19/2017 00:15 UTC,29.87,75.38,59.9,58.71,13.8,330.0,17.27,,,,,1.0,,,,10.0,,KIGQ 190015Z AUTO 33012G15KT 10SM CLR 24/16 A2987 RMK AO2 LTG DSNT  SE T02410155,,,,,,59.88,,NNW,29.22,28.17,,Clear
KIGQ,05/19/2017 00:35 UTC,29.88,74.3,59.72,60.47,12.66,310.0,17.27,,,,,1.0,,,,10.0,,KIGQ 190035Z AUTO 31011G15KT 10SM CLR 24/15 A2988 RMK AO2  T02350154,,,,,,59.69,,NW,29.23,28.2,,Clear
KIGQ,05/19/2017 00:55 UTC,29.89,73.4,58.46,59.58,6.91,330.0,16.11,,,,,1.0,,,,10.0,,KIGQ 190055Z AUTO 33006G14KT 10SM CLR 23/15 A2989 RMK AO2  T02300147,,,,,,58.43,,NNW,29.24,28.29,,Clear
KIGQ,05/19/2017 01:15 UTC,29.93,60.8,53.06,75.66,19.57,30.0,31.07,,,,,1.0,,,,10.0,,KIGQ 190115Z AUTO 03017G27KT 10SM CLR 16/12 A2993 RMK AO2  T01600117,,,,,,53.0,,NNE,29.28,28.71,,Clear
KIGQ,05/19/2017 01:35 UTC,29.94,57.02,51.26,81.04,12.66,50.0,25.32,,,,,1.0,,,,10.0,,KIGQ 190135Z AUTO 05011G22KT 10SM CLR 14/11 A2994 RMK AO2  T01390107,,,,,,51.21,,NE,29.29,28.83,,Clear
KIGQ,05/19/2017 01:55 UTC,29.96,53.78,49.1,84.13,17.27,40.0,24.16,,,,,1.0,,,,10.0,,KIGQ 190155Z AUTO 04015G21KT 10SM CLR 12/10 A2996 RMK AO2  T01210095,,,,,,49.05,,NE,29.31,28.96,,Clear
KIGQ,05/19/2017 02:15 UTC,29.98,52.16,48.2,86.32,18.41,40.0,25.32,,,,,1.0,,,,10.0,,KIGQ 190215Z AUTO 04016G22KT 10SM CLR 11/09 A2998 RMK AO2 LTG DSNT  SE T01120090,,,,,,48.16,,NE,29.33,29.03,,Clear
KIGQ,05/19/2017 02:35 UTC,30.01,51.08,47.3,86.85,16.11,40.0,21.85,,,,,232.0,,,,10.0,,KIGQ 190235Z AUTO 04014G19KT 10SM SCT023 11/09 A3001 RMK AO2 LTG  DSNT SE T01060085,,,,,,47.26,,NE,29.36,29.1,,Partly Cloudy
KIGQ,05/19/2017 02:55 UTC,30.03,50.54,46.04,84.49,14.97,40.0,25.32,,,,,232.0,,,,10.0,,KIGQ 190255Z AUTO 04013G22KT 10SM SCT023 10/08 A3003 RMK AO2  T01030078,,,,,,45.99,,NE,29.38,29.16,,Partly Cloudy
KIGQ,05/19/2017 03:15 UTC,30.04,50.36,45.32,82.76,18.41,40.0,24.16,,,,,1.0,,,,10.0,,KIGQ 190315Z AUTO 04016G21KT 10SM CLR 10/07 A3004 RMK AO2  T01020074,,,,,,45.26,,NE,29.39,29.19,,Clear
KIGQ,05/19/2017 03:35 UTC,30.05,50.54,44.96,81.1,17.27,40.0,21.85,,,,,1.0,,,,10.0,,KIGQ 190335Z AUTO 04015G19KT 10SM CLR 10/07 A3005 RMK AO2  T01030072,,,,,,44.9,,NE,29.4,29.21,,Clear
KIGQ,05/19/2017 03:55 UTC,30.06,50.54,44.78,80.54,12.66,40.0,23.02,,,,,263.0,,,,10.0,,KIGQ 190355Z AUTO 04011G20KT 10SM BKN026 10/07 A3006 RMK AO2  T01030071,,,2600.0,,,44.71,,NE,29.41,29.23,,Mostly Cloudy
KIGQ,05/19/2017 04:15 UTC,30.06,50.9,44.78,79.48,19.57,40.0,24.16,,,,,264.0,,,,10.0,,KIGQ 190415Z AUTO 04017G21KT 10SM OVC026 11/07 A3006 RMK AO2  T01050071,,,2600.0,,,44.71,,NE,29.41,29.22,,Overcast
KIGQ,05/19/2017 04:35 UTC,30.06,50.9,44.24,77.86,12.66,50.0,26.46,,,,,284.0,,,,10.0,,KIGQ 190435Z AUTO 05011G23KT 10SM OVC028 11/07 A3006 RMK AO2  T01050068,,,2800.0,,,44.17,,NE,29.41,29.24,,Overcast
KIGQ,05/19/2017 04:55 UTC,30.06,50.9,44.06,77.33,11.5,50.0,21.85,,,,,284.0,,,,10.0,,KIGQ 190455Z AUTO 05010G19KT 10SM OVC028 11/07 A3006 RMK AO2  T01050067,,,2800.0,,,43.99,,NE,29.41,29.25,,Overcast
KIGQ,05/19/2017 05:15 UTC,30.06,50.54,43.88,77.83,13.8,40.0,27.63,,,,,284.0,,,,10.0,,KIGQ 190515Z AUTO 04012G24KT 10SM OVC028 10/07 A3006 RMK AO2  T01030066,,,2800.0,,,43.81,,NE,29.41,29.25,,Overcast
KIGQ,05/19/2017 05:35 UTC,30.06,50.0,43.88,79.4,17.27,30.0,25.32,,,,,284.0,,,,10.0,,KIGQ 190535Z AUTO 03015G22KT 10SM OVC028 10/07 A3006 RMK AO2 LTG  DSNT SW T01000066,,,2800.0,,,43.81,,NNE,29.41,29.26,,Overcast
KIGQ,05/19/2017 05:55 UTC,30.06,49.28,43.52,80.44,18.41,40.0,25.32,,,,,283.0,,,,10.0,,KIGQ 190555Z AUTO 04016G22KT 10SM BKN028 10/06 A3006 RMK AO2  T00960064 10248 20096 402790096,76.64,49.28,2800.0,82.22,49.28,43.45,,NE,29.41,29.27,,Mostly Cloudy
KIGQ,05/19/2017 06:15 UTC,30.06,48.74,42.8,79.85,19.57,40.0,26.46,,,,,283.0,,,,10.0,,KIGQ 190615Z AUTO 04017G23KT 10SM BKN028 09/06 A3006 RMK AO2  T00930060,,,2800.0,,,42.73,,NE,29.41,29.3,,Mostly Cloudy
KIGQ,05/19/2017 06:35 UTC,30.06,48.38,42.62,80.37,16.11,40.0,23.02,,,,,283.0,,,,10.0,,KIGQ 190635Z AUTO 04014G20KT 10SM BKN028 09/06 A3006 RMK AO2  T00910059,,,2800.0,,,42.55,,NE,29.41,29.31,,Mostly Cloudy
KIGQ,05/19/2017 06:55 UTC,30.07,47.66,41.0,77.57,17.27,40.0,26.46,,,,,282.0,,,,10.0,,KIGQ 190655Z AUTO 04015G23KT 10SM SCT028 09/05 A3007 RMK AO2  T00870050,,,,,,40.92,,NE,29.42,29.36,,Partly Cloudy
KIGQ,05/19/2017 07:15 UTC,30.07,47.48,40.28,75.95,13.8,40.0,21.85,,,,,242.0,,,,10.0,,KIGQ 190715Z AUTO 04012G19KT 10SM SCT024 09/05 A3007 RMK AO2 LTG  DSNT S T00860046,,,,,,40.19,,NE,29.42,29.38,,Partly Cloudy
KIGQ,05/19/2017 07:35 UTC,30.08,46.76,40.64,79.13,12.66,40.0,19.57,,,,,242.0,,,,10.0,,KIGQ 190735Z AUTO 04011G17KT 10SM SCT024 08/05 A3008 RMK AO2 LTG  DSNT S T00820048,,,,,,40.56,,NE,29.43,29.39,,Partly Cloudy
KIGQ,05/19/2017 07:55 UTC,30.07,46.4,40.46,79.66,12.66,30.0,18.41,,,,,1.0,,,,10.0,,KIGQ 190755Z AUTO 03011G16KT 10SM CLR 08/05 A3007 RMK AO2 LTG DSNT  S T00800047,,,,,,40.39,,NNE,29.42,29.39,,Clear
KIGQ,05/19/2017 08:15 UTC,30.08,46.04,39.02,76.34,16.11,20.0,25.32,,,,,602.0,,,,10.0,,KIGQ 190815Z AUTO 02014G22KT 10SM SCT060 08/04 A3008 RMK AO2  T00780039,,,,,,38.93,,NNE,29.43,29.43,,Partly Cloudy
KIGQ,05/19/2017 08:35 UTC,30.06,45.68,39.2,77.94,13.8,20.0,21.85,,,,,602.0,,,,10.0,,KIGQ 190835Z AUTO 02012G19KT 10SM SCT060 08/04 A3006 RMK AO2 LTG  DSNT S T00760040,,,,,,39.12,,NNE,29.41,29.41,,Partly Cloudy
KIGQ,05/19/2017 08:55 UTC,30.06,44.96,38.84,78.98,17.27,20.0,25.32,,,,,1.0,,,,10.0,,KIGQ 190855Z AUTO 02015G22KT 10SM CLR 07/04 A3006 RMK AO2  T00720038,,,,,,38.76,39.52,NNE,29.41,29.43,,Clear
KIGQ,05/19/2017 09:15 UTC,30.07,44.96,38.84,78.98,12.66,20.0,25.32,,,,,1.0,,,,10.0,,KIGQ 190915Z AUTO 02011G22KT 10SM CLR 07/04 A3007 RMK AO2 LTG DSNT  SE T00720038,,,,,,38.76,40.69,NNE,29.42,29.44,,Clear
KIGQ,05/19/2017 09:35 UTC,30.08,44.06,38.66,81.16,12.66,30.0,21.85,,,,,1.0,,,,10.0,,KIGQ 190935Z AUTO 03011G19KT 10SM CLR 07/04 A3008 RMK AO2 LTG DSNT  S T00670037,,,,,,38.59,39.6,NNE,29.43,29.46,,Clear
KIGQ,05/19/2017 09:55 UTC,30.09,44.06,39.38,83.48,11.5,20.0,26.46,,,,,553.0,,,,10.0,,KIGQ 190955Z AUTO 02010G23KT 10SM BKN055 07/04 A3009 RMK AO2  T00670041,,,5500.0,,,39.32,39.96,NNE,29.44,29.45,,Mostly Cloudy
KIGQ,05/19/2017 10:15 UTC,30.09,44.06,38.48,80.59,13.8,30.0,25.32,,,,,553.0,,,,10.0,,KIGQ 191015Z AUTO 03012G22KT 10SM BKN055 07/04 A3009 RMK AO2 LTG  DSNT S T00670036,,,5500.0,,,38.41,39.27,NNE,29.44,29.47,,Mostly Cloudy
KIGQ,05/19/2017 10:35 UTC,30.08,43.7,39.2,84.04,13.8,30.0,24.16,,,,,553.0,,,,10.0,,KIGQ 191035Z AUTO 03012G21KT 10SM BKN055 07/04 A3008 RMK AO2  T00650040,,,5500.0,,,39.14,38.83,NNE,29.43,29.45,,Mostly Cloudy
KIGQ,05/19/2017 10:55 UTC,30.08,43.16,39.56,87.01,14.97,30.0,24.16,,,,,132.0,554.0,,,10.0,,KIGQ 191055Z AUTO 03013G21KT 10SM SCT013 OVC055 06/04 A3008 RMK AO2 T00620042,,,5500.0,,,39.51,37.85,NNE,29.43,29.44,,Overcast
KIGQ,05/19/2017 11:15 UTC,30.1,43.16,39.92,88.24,13.8,30.0,21.85,,,,,133.0,554.0,,,10.0,,KIGQ 191115Z AUTO 03012G19KT 10SM BKN013 OVC055 06/04 A3010 RMK AO2 T00620044,,,1300.0,,,39.88,38.17,NNE,29.45,29.46,,Overcast
KIGQ,05/19/2017 11:35 UTC,30.09,43.34,40.28,88.87,13.8,30.0,19.57,,,,,133.0,554.0,,,10.0,,KIGQ 191135Z AUTO 03012G17KT 10SM BKN013 OVC055 06/05 A3009 RMK AO2 LTG DSNT SE T00630046,,,1300.0,,,40.24,38.39,NNE,29.44,29.44,,Overcast
KIGQ,05/19/2017 11:55 UTC,30.09,43.34,40.64,90.12,14.97,40.0,23.02,,,,,114.0,,,,10.0,,KIGQ 191155Z AUTO 04013G20KT 10SM OVC011 06/05 A3009 RMK AO2 LTG  DSNT S T00630048 10096 20062,49.28,43.16,1100.0,,,40.6,38.07,NE,29.44,29.43,,Overcast
KIGQ,05/19/2017 12:15 UTC,30.09,43.7,40.46,88.27,16.11,40.0,21.85,,,,,114.0,,,,10.0,,KIGQ 191215Z AUTO 04014G19KT 10SM OVC011 07/05 A3009 RMK AO2  T00650047,,,1100.0,,,40.42,38.23,NE,29.44,29.43,,Overcast
KIGQ,05/19/2017 12:35 UTC,30.08,43.88,40.28,87.05,13.8,40.0,23.02,,,,,134.0,,,,10.0,,KIGQ 191235Z AUTO 04012G20KT 10SM OVC013 07/05 A3008 RMK AO2  T00660046,,,1300.0,,,40.23,39.05,NE,29.43,29.42,,Overcast
KIGQ,05/19/2017 12:55 UTC,30.08,43.88,40.28,87.05,17.27,40.0,24.16,,,,,134.0,,,,10.0,,KIGQ 191255Z AUTO 04015G21KT 10SM OVC013 07/05 A3008 RMK AO2  T00660046,,,1300.0,,,40.23,38.17,NE,29.43,29.42,,Overcast
KIGQ,05/19/2017 13:15 UTC,30.1,44.06,40.28,86.45,18.41,40.0,24.16,,,,,134.0,,,,10.0,,KIGQ 191315Z AUTO 04016G21KT 10SM OVC013 07/05 A3010 RMK AO2  T00670046,,,1300.0,,,40.23,38.14,NE,29.45,29.44,,Overcast
KIGQ,05/19/2017 13:35 UTC,30.09,44.06,40.46,87.06,16.11,50.0,24.16,,,,,134.0,,,,10.0,,KIGQ 191335Z AUTO 05014G21KT 10SM OVC013 07/05 A3009 RMK AO2 LTG  DSNT SW T00670047,,,1300.0,,,40.41,38.67,NE,29.44,29.43,,Overcast
KIGQ,05/19/2017 13:55 UTC,30.1,44.6,41.0,87.09,11.5,20.0,23.02,,,,,134.0,,,,10.0,,KIGQ 191355Z AUTO 02010G20KT 10SM OVC013 07/05 A3010 RMK AO2 LTG  DSNT S AND SW T00700050,,,1300.0,,,40.95,40.61,NNE,29.45,29.42,,Overcast
KIGQ,05/19/2017 14:15 UTC,30.1,44.6,41.0,87.09,11.5,30.0,20.71,,,,,134.0,,,,10.0,,KIGQ 191415Z AUTO 03010G18KT 10SM OVC013 07/05 A3010 RMK AO2 LTG  DSNT S T00700050,,,1300.0,,,40.95,40.61,NNE,29.45,29.42,,Overcast
KIGQ,05/19/2017 14:35 UTC,30.13,44.6,41.36,88.31,9.22,360.0,16.11,13.0,,,,134.0,,,,10.0,,KIGQ 191435Z AUTO 36008G14KT 10SM -RA OVC013 07/05 A3013 RMK AO2  LTG DSNT SW T00700052,,,1300.0,,,41.32,41.4,N,29.47,29.43,,Light Rain
KIGQ,05/19/2017 14:55 UTC,30.16,44.06,42.08,92.69,6.91,360.0,,13.0,,,,134.0,,,,10.0,,KIGQ 191455Z AUTO 36006KT 10SM -RA OVC013 07/06 A3016 RMK AO2 LTG  DSNT S AND NW T00670056,,,1300.0,,,42.05,,N,29.5,29.45,,Light Rain
KIGQ,05/19/2017 15:15 UTC,30.14,43.88,42.8,95.95,6.91,10.0,,1.0,,0.02,,114.0,,,,7.0,,KIGQ 191515Z AUTO 01006KT 7SM RA OVC011 07/06 A3014 RMK AO2 LTG  DSNT SE AND SW P0002 T00660060,,,1100.0,,,42.79,,N,29.48,29.41,,Rain
KIGQ,05/19/2017 15:35 UTC,30.06,44.06,43.34,97.28,11.5,30.0,27.63,13.0,704.0,0.04,,113.0,283.0,,,7.0,,KIGQ 191535Z AUTO 03010G24KT 7SM -RA BKN011 BKN028 OVC070 07/06  A3006 RMK AO2 P0004 T00670063,,,1100.0,,,43.33,39.96,NNE,29.41,29.32,,Light Rain
KIGQ,05/19/2017 15:55 UTC,30.01,44.06,43.16,96.62,23.02,40.0,31.07,13.0,,0.05,,94.0,,,,10.0,,KIGQ 191555Z AUTO 04020G27KT 10SM -RA OVC009 07/06 A3001 RMK AO2  LTG DSNT S P0005 T00670062,,,900.0,,,43.15,37.24,NE,29.36,29.28,,Light Rain
KIGQ,05/19/2017 16:15 UTC,30.03,44.6,43.52,95.96,18.41,60.0,26.46,13.0,,,,94.0,,,,10.0,,KIGQ 191615Z AUTO 06016G23KT 10SM -RA OVC009 07/06 A3003 RMK AO2  T00700064,,,900.0,,,43.51,38.82,ENE,29.38,29.28,,Light Rain
KIGQ,05/19/2017 16:35 UTC,30.03,44.78,43.7,95.96,16.11,40.0,20.71,,,,,94.0,,,,7.0,,KIGQ 191635Z AUTO 04014G18KT 7SM OVC009 07/07 A3003 RMK AO2  T00710065,,,900.0,,,43.68,39.56,NE,29.38,29.28,,Overcast
KIGQ,05/19/2017 16:55 UTC,30.03,45.32,44.06,95.32,14.97,50.0,23.02,,,,,94.0,,,,10.0,,KIGQ 191655Z AUTO 05013G20KT 10SM OVC009 07/07 A3003 RMK AO2 LTG  DSNT S T00740067,,,900.0,,,44.04,,NE,29.38,29.26,,Overcast
KIGQ,05/19/2017 17:15 UTC,30.05,45.68,44.24,94.67,9.22,50.0,,,,,,94.0,,,,10.0,,KIGQ 191715Z AUTO 05008KT 10SM OVC009 08/07 A3005 RMK AO2  T00760068,,,900.0,,,44.22,,NE,29.4,29.28,,Overcast
KIGQ,05/19/2017 17:35 UTC,30.06,46.4,44.96,94.69,9.22,50.0,18.41,13.0,,,,94.0,,,,10.0,,KIGQ 191735Z AUTO 05008G16KT 10SM -RA OVC009 08/07 A3006 RMK AO2  T00800072,,,900.0,,,44.94,,NE,29.41,29.26,,Light Rain
KIGQ,05/19/2017 17:55 UTC,30.06,47.48,45.86,94.07,11.5,20.0,19.57,,,,,94.0,,0.05,,10.0,,KIGQ 191755Z AUTO 02010G17KT 10SM OVC009 09/08 A3006 RMK AO2 60005  T00860077 10086 20063,47.48,43.34,900.0,,,45.84,,NNE,29.41,29.22,,Overcast
KIGQ,05/19/2017 18:15 UTC,30.07,47.66,45.5,92.17,12.66,10.0,19.57,,,,,94.0,,,,10.0,,KIGQ 191815Z AUTO 01011G17KT 10SM OVC009 09/08 A3007 RMK AO2  T00870075,,,900.0,,,45.47,,N,29.42,29.24,,Overcast
KIGQ,05/19/2017 18:35 UTC,30.07,47.48,44.96,90.91,14.97,10.0,19.57,,,,,114.0,,,,10.0,,KIGQ 191835Z AUTO 01013G17KT 10SM OVC011 09/07 A3007 RMK AO2  T00860072,,,1100.0,,,44.93,,N,29.42,29.26,,Overcast
KIGQ,05/19/2017 18:55 UTC,30.06,47.48,44.78,90.29,17.27,20.0,21.85,,,,,114.0,,,,10.0,,KIGQ 191855Z AUTO 02015G19KT 10SM OVC011 09/07 A3006 RMK AO2  T00860071,,,1100.0,,,44.75,,NNE,29.41,29.26,,Overcast
KIGQ,05/19/2017 19:15 UTC,30.06,47.66,44.78,89.68,10.36,10.0,20.71,,,,,114.0,,,,10.0,,KIGQ 191915Z AUTO 01009G18KT 10SM OVC011 09/07 A3006 RMK AO2  T00870071,,,1100.0,,,44.74,,N,29.41,29.25,,Overcast
KIGQ,05/19/2017 19:35 UTC,30.08,46.76,44.24,90.88,10.36,10.0,20.71,13.0,,,,114.0,,,,10.0,,KIGQ 191935Z AUTO 01009G18KT 340V040 10SM -RA OVC011 08/07 A3008 RMK AO2 T00820068,,,1100.0,,,44.21,,N,29.43,29.3,,Light Rain
KIGQ,05/19/2017 19:55 UTC,30.1,46.04,44.78,95.33,10.36,360.0,20.71,14.0,,0.01,,114.0,,,,5.0,,KIGQ 191955Z AUTO 36009G18KT 5SM +RA OVC011 08/07 A3010 RMK AO2  P0001 T00780071,,,1100.0,,,44.76,,N,29.45,29.31,,Heavy Rain
KIGQ,05/19/2017 20:15 UTC,30.08,45.68,45.32,98.64,11.5,20.0,19.57,13.0,,0.02,,74.0,,,,2.5,,KIGQ 192015Z AUTO 02010G17KT 2 1/2SM -RA OVC007 08/07 A3008 RMK AO2 P0002 T00760074,,,700.0,,,45.31,,NNE,29.43,29.28,,Light Rain
KIGQ,05/19/2017 20:35 UTC,30.09,45.5,45.14,98.64,11.5,10.0,19.57,1.0,,0.04,,74.0,,,,4.0,,KIGQ 192035Z AUTO 01010G17KT 4SM RA OVC007 08/07 A3009 RMK AO2  P0004 T00750073,,,700.0,,,45.13,,N,29.44,29.29,,Rain
KIGQ,05/19/2017 20:55 UTC,30.08,45.5,45.5,100.0,14.97,30.0,25.32,13.0,,0.04,0.05,54.0,,,,5.0,,KIGQ 192055Z AUTO 03013G22KT 5SM -RA OVC005 08/08 A3008 RMK AO2  P0004 60005 T00750075,,,500.0,,,45.5,,NNE,29.43,29.27,,Light Rain
KIGQ,05/19/2017 21:15 UTC,30.09,45.14,44.78,98.64,18.41,20.0,26.46,2.0,,,,54.0,,,,5.0,,KIGQ 192115Z AUTO 02016G23KT 5SM DZ OVC005 07/07 A3009 RMK AO2  T00730071,,,500.0,,,44.77,,NNE,29.44,29.31,,Drizzle
KIGQ,05/19/2017 21:35 UTC,30.1,45.5,45.14,98.64,12.66,20.0,24.16,13.0,,,,54.0,,,,5.0,,KIGQ 192135Z AUTO 02011G21KT 5SM -RA OVC005 08/07 A3010 RMK AO2  T00750073,,,500.0,,,45.13,,NNE,29.45,29.3,,Light Rain
KIGQ,05/19/2017 21:55 UTC,30.11,45.5,45.32,99.32,12.66,30.0,21.85,2.0,,,,54.0,,,,5.0,,KIGQ 192155Z AUTO 03011G19KT 5SM DZ OVC005 08/07 A3011 RMK AO2  T00750074,,,500.0,,,45.32,,NNE,29.46,29.31,,Drizzle
KIGQ,05/19/2017 22:15 UTC,30.12,45.5,45.5,100.0,11.5,20.0,18.41,1.0,,,,54.0,,,,3.0,,KIGQ 192215Z AUTO 02010G16KT 3SM RA OVC005 08/08 A3012 RMK AO2  T00750075,,,500.0,,,45.5,,NNE,29.47,29.31,,Rain
KIGQ,05/19/2017 22:35 UTC,30.13,45.86,45.86,100.0,11.5,20.0,20.71,2.0,,,,54.0,,,,4.0,,KIGQ 192235Z AUTO 02010G18KT 4SM DZ OVC005 08/08 A3013 RMK AO2  T00770077,,,500.0,,,45.86,,NNE,29.47,29.3,,Drizzle
KIGQ,05/19/2017 22:55 UTC,30.13,46.04,46.04,100.0,11.5,20.0,17.27,2.0,,,,54.0,,,,3.0,,KIGQ 192255Z AUTO 02010G15KT 3SM DZ OVC005 08/08 A3013 RMK AO2  T00780078,,,500.0,,,46.04,,NNE,29.47,29.29,,Drizzle
KIGQ,05/19/2017 23:15 UTC,30.13,46.4,46.4,100.0,10.36,20.0,18.41,2.0,,,,54.0,,,,2.5,,KIGQ 192315Z AUTO 02009G16KT 2 1/2SM DZ OVC005 08/08 A3013 RMK AO2  T00800080,,,500.0,,,46.4,,NNE,29.47,29.28,,Drizzle
KIGQ,05/19/2017 23:35 UTC,30.12,46.04,46.04,100.0,14.97,30.0,19.57,2.0,,,,54.0,,,,3.0,,KIGQ 192335Z AUTO 03013G17KT 3SM DZ OVC005 08/08 A3012 RMK AO2  T00780078,,,500.0,,,46.04,,NNE,29.47,29.29,,Drizzle
KIGQ,05/19/2017 23:55 UTC,30.12,46.22,46.22,100.0,10.36,30.0,17.27,17.0,,,,54.0,,0.05,,3.0,,KIGQ 192355Z AUTO 03009G15KT 3SM -DZ OVC005 08/08 A3012 RMK AO2  60005 T00790079 10090 20073,48.2,45.14,500.0,,,46.22,,NNE,29.47,29.29,,Light Drizzle
KIGQ,05/20/2017 00:15 UTC,30.12,46.4,46.4,100.0,12.66,20.0,20.71,31.0,,,,54.0,,,,3.0,,KIGQ 200015Z AUTO 02011G18KT 3SM BR OVC005 08/08 A3012 RMK AO2  T00800080,,,500.0,,,46.4,,NNE,29.47,29.28,,Mist
KIGQ,05/20/2017 00:35 UTC,30.12,46.58,46.58,100.0,14.97,30.0,19.57,31.0,,,,54.0,,,,4.0,,KIGQ 200035Z AUTO 03013G17KT 4SM BR OVC005 08/08 A3012 RMK AO2  T00810081,,,500.0,,,46.58,,NNE,29.47,29.27,,Mist
KIGQ,05/20/2017 00:55 UTC,30.13,46.94,46.94,100.0,10.36,30.0,18.41,,,,,54.0,,,,7.0,,KIGQ 200055Z AUTO 03009G16KT 7SM OVC005 08/08 A3013 RMK AO2  T00830083,,,500.0,,,46.94,,NNE,29.47,29.26,,Overcast
KIGQ,05/20/2017 01:15 UTC,30.13,47.3,47.3,100.0,13.8,40.0,19.57,,,,,54.0,,,,10.0,,KIGQ 200115Z AUTO 04012G17KT 10SM OVC005 09/09 A3013 RMK AO2  T00850085,,,500.0,,,47.3,,NE,29.47,29.24,,Overcast
KIGQ,05/20/2017 01:35 UTC,30.13,47.48,47.48,100.0,10.36,40.0,16.11,,,,,54.0,,,,10.0,,KIGQ 200135Z AUTO 04009G14KT 10SM OVC005 09/09 A3013 RMK AO2  T00860086,,,500.0,,,47.48,,NE,29.47,29.24,,Overcast
KIGQ,05/20/2017 01:55 UTC,30.13,47.84,47.84,100.0,10.36,40.0,,,,,,54.0,,,,7.0,,KIGQ 200155Z AUTO 04009KT 7SM OVC005 09/09 A3013 RMK AO2  T00880088,,,500.0,,,47.84,,NE,29.47,29.22,,Overcast
KIGQ,05/20/2017 02:15 UTC,30.14,48.56,48.56,100.0,10.36,50.0,,,,,,54.0,,,,7.0,,KIGQ 200215Z AUTO 05009KT 7SM OVC005 09/09 A3014 RMK AO2  T00920092,,,500.0,,,48.56,,NE,29.48,29.2,,Overcast
KIGQ,05/20/2017 02:35 UTC,30.15,49.1,49.1,100.0,9.22,60.0,,,,,,54.0,,,,7.0,,KIGQ 200235Z AUTO 06008KT 7SM OVC005 10/10 A3015 RMK AO2  T00950095,,,500.0,,,49.1,,ENE,29.49,29.19,,Overcast
KIGQ,05/20/2017 02:55 UTC,30.15,50.0,49.64,98.67,9.22,50.0,16.11,,,,,62.0,114.0,,,10.0,,KIGQ 200255Z AUTO 05008G14KT 10SM SCT006 OVC011 10/10 A3015 RMK AO2 T01000098,,,1100.0,,,49.64,,NE,29.49,29.16,,Overcast
KIGQ,05/20/2017 03:15 UTC,30.14,50.18,49.1,96.06,13.8,70.0,18.41,,,,,134.0,,,,10.0,,KIGQ 200315Z AUTO 07012G16KT 10SM OVC013 10/10 A3014 RMK AO2  T01010095,,,1300.0,,,49.09,,ENE,29.48,29.17,,Overcast
KIGQ,05/20/2017 03:35 UTC,30.13,50.36,49.1,95.42,9.22,70.0,,,,,,134.0,,,,10.0,,KIGQ 200335Z AUTO 07008KT 10SM OVC013 10/10 A3013 RMK AO2  T01020095,,,1300.0,,,49.09,,ENE,29.47,29.16,,Overcast
KIGQ,05/20/2017 03:55 UTC,30.14,50.18,49.1,96.06,10.36,80.0,,,,,,114.0,,,,10.0,,KIGQ 200355Z AUTO 08009KT 10SM OVC011 10/10 A3014 RMK AO2  T01010095,,,1100.0,,,49.09,,E,29.48,29.17,,Overcast
KIGQ,05/20/2017 04:15 UTC,30.14,50.18,49.1,96.06,6.91,70.0,,,,,,134.0,,,,10.0,,KIGQ 200415Z AUTO 07006KT 10SM OVC013 10/10 A3014 RMK AO2  T01010095,,,1300.0,,,49.09,,ENE,29.48,29.17,,Overcast
KIGQ,05/20/2017 04:35 UTC,30.15,50.36,49.1,95.42,5.75,70.0,,,,,,134.0,,,,10.0,,KIGQ 200435Z AUTO 07005KT 10SM OVC013 10/10 A3015 RMK AO2  T01020095,,,1300.0,,,49.09,,ENE,29.49,29.18,,Overcast
KIGQ,05/20/2017 04:55 UTC,30.15,50.54,49.1,94.78,5.75,60.0,,,,,,134.0,,,,10.0,,KIGQ 200455Z AUTO 06005KT 10SM OVC013 10/10 A3015 RMK AO2  T01030095,,,1300.0,,,49.08,,ENE,29.49,29.18,,Overcast
KIGQ,05/20/2017 05:15 UTC,30.14,50.36,48.74,94.14,5.75,50.0,,,,,,134.0,,,,10.0,,KIGQ 200515Z AUTO 05005KT 10SM OVC013 10/09 A3014 RMK AO2  T01020093,,,1300.0,,,48.72,,NE,29.48,29.18,,Overcast
KIGQ,05/20/2017 05:35 UTC,30.14,50.54,48.56,92.89,6.91,60.0,,,,,,134.0,,,,10.0,,KIGQ 200535Z AUTO 06006KT 10SM OVC013 10/09 A3014 RMK AO2  T01030092,,,1300.0,,,48.54,,ENE,29.48,29.18,,Overcast
KIGQ,05/20/2017 05:55 UTC,30.14,50.54,48.74,93.52,4.61,60.0,,,,,,134.0,,,,10.0,,KIGQ 200555Z AUTO 06004KT 10SM OVC013 10/09 A3014 RMK AO2  T01030093 10103 20079 401030062,50.54,46.22,1300.0,50.54,43.16,48.72,,ENE,29.48,29.18,,Overcast
KIGQ,05/20/2017 06:15 UTC,30.14,50.54,48.74,93.52,8.05,60.0,,,284.0,,,133.0,203.0,,,10.0,,KIGQ 200615Z AUTO 06007KT 10SM BKN013 BKN020 OVC028 10/09 A3014 RMK AO2 T01030093,,,1300.0,,,48.72,,ENE,29.48,29.18,,Overcast
KIGQ,05/20/2017 06:55 UTC,30.14,50.9,48.2,90.43,8.05,70.0,,,,,,174.0,,,,10.0,,KIGQ 200655Z AUTO 07007KT 10SM OVC017 11/09 A3014 RMK AO2  T01050090,,,1700.0,,,48.17,,ENE,29.48,29.19,,Overcast
KIGQ,05/20/2017 07:15 UTC,30.13,50.9,48.38,91.04,4.61,40.0,,,,,,174.0,,,,10.0,,KIGQ 200715Z AUTO 04004KT 10SM OVC017 11/09 A3013 RMK AO2  T01050091,,,1700.0,,,48.35,,NE,29.47,29.18,,Overcast
KIGQ,05/20/2017 07:35 UTC,30.13,50.54,49.1,94.78,5.75,40.0,,,,,,174.0,,,,10.0,,KIGQ 200735Z AUTO 04005KT 10SM OVC017 10/10 A3013 RMK AO2  T01030095,,,1700.0,,,49.08,,NE,29.47,29.16,,Overcast
KIGQ,05/20/2017 07:55 UTC,30.13,50.36,49.1,95.42,5.75,50.0,,,,,,154.0,,,,10.0,,KIGQ 200755Z AUTO 05005KT 10SM OVC015 10/10 A3013 RMK AO2  T01020095,,,1500.0,,,49.09,,NE,29.47,29.16,,Overcast
KIGQ,05/20/2017 08:15 UTC,30.08,50.36,49.28,96.06,11.5,50.0,,,,,,154.0,,,,10.0,,KIGQ 200815Z AUTO 05010KT 10SM OVC015 10/10 A3008 RMK AO2  T01020096,,,1500.0,,,49.27,,NE,29.43,29.11,,Overcast
KIGQ,05/20/2017 08:35 UTC,30.05,50.18,49.1,96.06,13.8,60.0,18.41,,,,,154.0,,,,10.0,,KIGQ 200835Z AUTO 06012G16KT 10SM OVC015 10/10 A3005 RMK AO2  T01010095,,,1500.0,,,49.09,,ENE,29.4,29.09,,Overcast
KIGQ,05/20/2017 08:55 UTC,30.08,50.54,49.1,94.78,9.22,70.0,,,,,,134.0,,,,10.0,,KIGQ 200855Z AUTO 07008KT 10SM OVC013 10/10 A3008 RMK AO2  T01030095,,,1300.0,,,49.08,,ENE,29.43,29.11,,Overcast
KIGQ,05/20/2017 09:15 UTC,30.1,50.9,49.1,93.53,4.61,100.0,,,,,,114.0,,,,10.0,,KIGQ 200915Z AUTO 10004KT 10SM OVC011 11/10 A3010 RMK AO2  T01050095,,,1100.0,,,49.08,,E,29.45,29.13,,Overcast
KIGQ,05/20/2017 09:35 UTC,30.08,50.9,49.1,93.53,9.22,80.0,,,,,,114.0,,,,10.0,,KIGQ 200935Z AUTO 08008KT 10SM OVC011 11/10 A3008 RMK AO2  T01050095,,,1100.0,,,49.08,,E,29.43,29.11,,Overcast
KIGQ,05/20/2017 09:55 UTC,30.08,50.54,49.1,94.78,9.22,80.0,,,,,,114.0,,,,10.0,,KIGQ 200955Z AUTO 08008KT 10SM OVC011 10/10 A3008 RMK AO2  T01030095,,,1100.0,,,49.08,,E,29.43,29.11,,Overcast
KIGQ,05/20/2017 10:15 UTC,30.09,50.72,49.28,94.79,9.22,100.0,,,,,,114.0,,,,10.0,,KIGQ 201015Z AUTO 10008KT 10SM OVC011 10/10 A3009 RMK AO2  T01040096,,,1100.0,,,49.26,,E,29.44,29.12,,Overcast
KIGQ,05/20/2017 10:35 UTC,30.09,50.9,49.28,94.16,10.36,100.0,,,,,,114.0,,,,10.0,,KIGQ 201035Z AUTO 10009KT 10SM OVC011 11/10 A3009 RMK AO2  T01050096,,,1100.0,,,49.26,,E,29.44,29.11,,Overcast
KIGQ,05/20/2017 10:55 UTC,30.08,50.54,49.1,94.78,11.5,100.0,,,,,,114.0,,,,7.0,,KIGQ 201055Z AUTO 10010KT 7SM OVC011 10/10 A3008 RMK AO2  T01030095,,,1100.0,,,49.08,,E,29.43,29.11,,Overcast
KIGQ,05/20/2017 11:15 UTC,30.08,50.72,49.1,94.15,10.36,90.0,,,,,,94.0,,,,7.0,,KIGQ 201115Z AUTO 09009KT 7SM OVC009 10/10 A3008 RMK AO2  T01040095,,,900.0,,,49.08,,E,29.43,29.11,,Overcast
KIGQ,05/20/2017 11:35 UTC,30.08,50.72,49.28,94.79,11.5,80.0,,,,,,94.0,,,,7.0,,KIGQ 201135Z AUTO 08010KT 7SM OVC009 10/10 A3008 RMK AO2  T01040096,,,900.0,,,49.26,,E,29.43,29.11,,Overcast
KIGQ,05/20/2017 11:55 UTC,30.08,50.9,49.46,94.79,11.5,90.0,,,,,,94.0,,,0.1,7.0,,KIGQ 201155Z AUTO 09010KT 7SM OVC009 11/10 A3008 RMK AO2 70010  T01050097 10105 20101,50.9,50.18,900.0,,,49.44,,E,29.43,29.1,,Overcast
KIGQ,05/20/2017 12:15 UTC,30.08,51.08,49.46,94.16,11.5,90.0,,,,,,94.0,,,,7.0,,KIGQ 201215Z AUTO 09010KT 7SM OVC009 11/10 A3008 RMK AO2  T01060097,,,900.0,,,49.44,,E,29.43,29.1,,Overcast
KIGQ,05/20/2017 12:35 UTC,30.06,51.26,49.82,94.8,14.97,90.0,20.71,,,,,94.0,,,,7.0,,KIGQ 201235Z AUTO 09013G18KT 7SM OVC009 11/10 A3006 RMK AO2  T01070099,,,900.0,,,49.8,,E,29.41,29.06,,Overcast
KIGQ,05/20/2017 12:55 UTC,30.07,51.8,49.46,91.69,9.22,90.0,,,,,,94.0,,,,7.0,,KIGQ 201255Z AUTO 09008KT 7SM OVC009 11/10 A3007 RMK AO2  T01100097,,,900.0,,,49.43,,E,29.42,29.08,,Overcast
KIGQ,05/20/2017 13:15 UTC,30.06,52.16,50.18,92.94,11.5,90.0,,,,,,114.0,,,,10.0,,KIGQ 201315Z AUTO 09010KT 10SM OVC011 11/10 A3006 RMK AO2 LTG DSNT  SW T01120101,,,1100.0,,,50.16,,E,29.41,29.04,,Overcast
KIGQ,05/20/2017 13:35 UTC,30.06,52.52,50.18,91.72,12.66,100.0,,,,,,114.0,,,,10.0,,KIGQ 201335Z AUTO 10011KT 10SM OVC011 11/10 A3006 RMK AO2  T01140101,,,1100.0,,,50.16,,E,29.41,29.04,,Overcast
KIGQ,05/20/2017 13:55 UTC,30.06,52.7,50.18,91.11,11.5,90.0,,,,,,114.0,,,,7.0,,KIGQ 201355Z AUTO 09010KT 7SM OVC011 12/10 A3006 RMK AO2  T01150101,,,1100.0,,,50.15,,E,29.41,29.04,,Overcast
KIGQ,05/20/2017 14:15 UTC,30.07,52.7,50.36,91.72,9.22,110.0,,,,,,114.0,,,,10.0,,KIGQ 201415Z AUTO 11008KT 10SM OVC011 12/10 A3007 RMK AO2 LTG DSNT  SE THRU SW T01150102,,,1100.0,,,50.33,,ESE,29.42,29.04,,Overcast
KIGQ,05/20/2017 14:35 UTC,30.05,52.7,50.36,91.72,9.22,90.0,18.41,5.0,,,,114.0,,,,7.0,,KIGQ 201435Z AUTO 09008G16KT 7SM VCTS OVC011 12/10 A3005 RMK AO2  LTG DSNT SE THRU W T01150102,,,1100.0,,,50.33,,E,29.4,29.02,,Thunder
KIGQ,05/20/2017 14:55 UTC,30.05,52.52,51.08,94.83,8.05,90.0,,13.0,,,,114.0,,,,7.0,,KIGQ 201455Z AUTO 09007KT 7SM -RA OVC011 11/11 A3005 RMK AO2 LTG  DSNT ALQS T01140106,,,1100.0,,,51.06,,E,29.4,28.99,,Light Rain
KIGQ,05/20/2017 15:15 UTC,30.07,52.52,51.26,95.46,8.05,130.0,,,,,,114.0,,,,7.0,,KIGQ 201515Z AUTO 13007KT 7SM -VCTSRA OVC011 11/11 A3007 RMK AO2  LTG DSNT N SE AND W T01140107,,,1100.0,,,51.25,,SE,29.42,29.01,,Overcast
KIGQ,05/20/2017 15:35 UTC,30.08,52.16,51.44,97.38,10.36,120.0,,,,0.1,,113.0,374.0,,,2.5,,KIGQ 201535Z AUTO 12009KT 2 1/2SM +VCTSRA BKN011 OVC037 11/11  A3008 RMK AO2 LTG DSNT E THRU W P0010 T01120108,,,1100.0,,,51.43,,ESE,29.43,29.02,,Overcast
KIGQ,05/20/2017 15:55 UTC,30.05,51.98,51.98,100.0,11.5,100.0,,66.0,804.0,0.24,,112.0,373.0,,,3.0,,KIGQ 201555Z AUTO 10010KT 3SM TSRA SCT011 BKN037 OVC080 11/11  A3005 RMK AO2 LTG DSNT ALQS P0024 T01110111,,,3700.0,,,51.98,,E,29.4,28.97,,Thunderstorm
KIGQ,05/20/2017 16:15 UTC,30.02,52.52,52.52,100.0,14.97,100.0,19.57,,904.0,0.02,,83.0,253.0,,,4.0,,KIGQ 201615Z AUTO 10013G17KT 4SM -VCTSRA BKN008 BKN025 OVC090  11/11 A3002 RMK AO2 LTG DSNT N THRU SE P0002 T01140114,,,800.0,,,52.52,,E,29.37,28.91,,Overcast
KIGQ,05/20/2017 16:35 UTC,29.99,53.06,53.06,100.0,11.5,90.0,21.85,13.0,,0.02,,64.0,,,,5.0,,KIGQ 201635Z AUTO 09010G19KT 5SM -RA OVC006 12/12 A2999 RMK AO2  LTG DSNT NE AND SE P0002 T01170117,,,600.0,,,53.06,,E,29.34,28.85,,Light Rain
KIGQ,05/20/2017 16:55 UTC,29.99,53.96,53.78,99.34,16.11,90.0,19.57,13.0,,0.02,,64.0,,,,7.0,,KIGQ 201655Z AUTO 09014G17KT 7SM -RA OVC006 12/12 A2999 RMK AO2  P0002 T01220121,,,600.0,,,53.78,,E,29.34,28.82,,Light Rain
KIGQ,05/20/2017 17:15 UTC,29.98,55.22,54.68,98.06,16.11,100.0,,,,,,64.0,,,,10.0,,KIGQ 201715Z AUTO 10014KT 10SM OVC006 13/13 A2998 RMK AO2 LTG DSNT  NE T01290126,,,600.0,,,54.68,,E,29.33,28.76,,Overcast
KIGQ,05/20/2017 17:35 UTC,29.97,56.84,55.4,94.92,14.97,120.0,25.32,,,,,84.0,,,,10.0,,KIGQ 201735Z AUTO 12013G22KT 10SM OVC008 14/13 A2997 RMK AO2 LTG  DSNT NE AND E T01380130,,,800.0,,,55.39,,ESE,29.32,28.7,,Overcast
KIGQ,05/20/2017 17:55 UTC,29.95,58.28,56.12,92.52,14.97,120.0,,,,,,104.0,,0.26,,10.0,,KIGQ 201755Z AUTO 12013KT 10SM OVC010 15/13 A2995 RMK AO2 60026  T01460134 10146 20105,58.28,50.9,1000.0,,,56.1,,ESE,29.3,28.63,,Overcast
KIGQ,05/20/2017 18:15 UTC,29.94,59.9,56.84,89.62,9.22,110.0,24.16,,,,,123.0,,,,10.0,,KIGQ 201815Z AUTO 11008G21KT 090V150 10SM BKN012 16/14 A2994 RMK AO2 T01550138,,,1200.0,,,56.82,,ESE,29.29,28.57,,Mostly Cloudy
KIGQ,05/20/2017 18:35 UTC,29.95,60.98,57.56,88.52,8.05,120.0,,,,,,124.0,,,,10.0,,KIGQ 201835Z AUTO 12007KT 10SM OVC012 16/14 A2995 RMK AO2  T01610142,,,1200.0,,,57.54,,ESE,29.3,28.53,,Overcast
KIGQ,05/20/2017 18:55 UTC,29.96,61.88,57.92,86.86,13.8,130.0,17.27,,,,,144.0,,,,10.0,,KIGQ 201855Z AUTO 13012G15KT 10SM OVC014 17/14 A2996 RMK AO2  T01660144,,,1400.0,,,57.89,,SE,29.31,28.51,,Overcast
KIGQ,05/20/2017 19:15 UTC,29.95,61.16,58.1,89.67,9.22,130.0,12.66,,,,,144.0,,,,10.0,,KIGQ 201915Z AUTO 13008G11KT 10SM OVC014 16/15 A2995 RMK AO2  T01620145,,,1400.0,,,58.08,,SE,29.3,28.5,,Overcast
KIGQ,05/20/2017 19:35 UTC,29.95,61.88,59.0,90.28,6.91,130.0,,,,,,124.0,,,,10.0,,KIGQ 201935Z AUTO 13006KT 10SM OVC012 17/15 A2995 RMK AO2  T01660150,,,1200.0,,,58.98,,SE,29.3,28.45,,Overcast
KIGQ,05/20/2017 19:55 UTC,29.94,63.68,60.26,88.64,6.91,130.0,,,,,,124.0,,,,10.0,,KIGQ 201955Z AUTO 13006KT 10SM OVC012 18/16 A2994 RMK AO2  T01760157,,,1200.0,,,60.24,,SE,29.29,28.35,,Overcast
KIGQ,05/20/2017 20:15 UTC,29.94,63.86,60.62,89.22,5.75,140.0,,,,,,124.0,,,,10.0,,KIGQ 202015Z AUTO 14005KT 10SM OVC012 18/16 A2994 RMK AO2  T01770159,,,1200.0,,,60.6,,SE,29.29,28.33,,Overcast
KIGQ,05/20/2017 20:35 UTC,29.94,64.58,61.34,89.25,4.61,140.0,,,,,,124.0,,,,10.0,,KIGQ 202035Z AUTO 14004KT 10SM OVC012 18/16 A2994 RMK AO2  T01810163,,,1200.0,,,61.32,,SE,29.29,28.29,,Overcast
KIGQ,05/20/2017 20:55 UTC,29.94,64.4,61.52,90.39,3.44,150.0,,,,,,144.0,,,,10.0,,KIGQ 202055Z AUTO 15003KT 10SM OVC014 18/16 A2994 RMK AO2  T01800164,,,1400.0,,,61.5,,SSE,29.29,28.28,,Overcast
KIGQ,05/20/2017 21:15 UTC,29.94,66.2,62.78,88.76,8.05,120.0,,,,,,164.0,,,,10.0,,KIGQ 202115Z AUTO 12007KT 10SM OVC016 19/17 A2994 RMK AO2  T01900171,,,1600.0,,,62.76,,ESE,29.29,28.18,,Overcast
KIGQ,05/20/2017 21:35 UTC,29.93,67.46,63.5,87.16,12.66,130.0,,,503.0,,,162.0,253.0,,,10.0,,KIGQ 202135Z AUTO 13011KT 10SM SCT016 BKN025 BKN050 20/18 A2993 RMK AO2 T01970175,,,2500.0,,,63.48,,SE,29.28,28.12,,Mostly Cloudy
KIGQ,05/20/2017 21:55 UTC,29.93,67.46,63.5,87.16,12.66,130.0,17.27,,,,,142.0,253.0,,,10.0,,KIGQ 202155Z AUTO 13011G15KT 10SM SCT014 BKN025 20/18 A2993 RMK AO2 T01970175,,,2500.0,,,63.48,,SE,29.28,28.12,,Mostly Cloudy
KIGQ,05/20/2017 22:15 UTC,29.92,67.28,63.5,87.7,9.22,130.0,,,653.0,,,142.0,502.0,,,10.0,,KIGQ 202215Z AUTO 13008KT 10SM SCT014 SCT050 BKN065 20/18 A2992 RMK AO2 T01960175,,,6500.0,,,63.48,,SE,29.27,28.11,,Mostly Cloudy
KIGQ,05/20/2017 22:35 UTC,29.91,68.18,63.86,86.1,13.8,120.0,18.41,,,,,652.0,,,,10.0,,KIGQ 202235Z AUTO 12012G16KT 10SM SCT065 20/18 A2991 RMK AO2  T02010177,,,,,,63.84,,ESE,29.26,28.07,,Partly Cloudy
KIGQ,05/20/2017 22:55 UTC,29.91,68.36,63.86,85.57,13.8,120.0,,,,,,652.0,,,,10.0,,KIGQ 202255Z AUTO 12012KT 10SM SCT065 20/18 A2991 RMK AO2  T02020177,,,,,,63.84,,ESE,29.26,28.06,,Partly Cloudy
KIGQ,05/20/2017 23:15 UTC,29.9,67.28,63.5,87.7,13.8,130.0,17.27,,,,,652.0,1202.0,,,10.0,,KIGQ 202315Z AUTO 13012G15KT 10SM SCT065 SCT120 20/18 A2990 RMK AO2 LTG DSNT S T01960175,,,,,,63.48,,SE,29.25,28.09,,Partly Cloudy
KIGQ,05/20/2017 23:35 UTC,29.91,67.1,63.5,88.24,11.5,130.0,17.27,,,,,652.0,1202.0,,,10.0,,KIGQ 202335Z AUTO 13010G15KT 10SM SCT065 SCT120 20/18 A2991 RMK AO2 T01950175,,,,,,63.48,,SE,29.26,28.1,,Partly Cloudy
KIGQ,05/20/2017 23:55 UTC,29.9,67.1,63.5,88.24,14.97,130.0,20.71,5.0,,,,1202.0,,,,10.0,,KIGQ 202355Z AUTO 13013G18KT 10SM VCTS SCT120 20/18 A2990 RMK AO2  LTG DSNT SE T01950175 10202 20147,68.36,58.46,,,,63.48,,SE,29.25,28.09,,Thunder
KIGQ,05/21/2017 00:15 UTC,29.91,66.38,63.5,90.46,10.36,130.0,,5.0,,,,1202.0,,,,10.0,,KIGQ 210015Z AUTO 13009KT 10SM VCTS SCT120 19/18 A2991 RMK AO2 LTG  DSNT E T01910175,,,,,,63.48,,SE,29.26,28.11,,Thunder
KIGQ,05/21/2017 00:35 UTC,29.9,65.3,62.96,92.15,9.22,120.0,16.11,,,,,1.0,,,,10.0,,KIGQ 210035Z AUTO 12008G14KT 10SM CLR 19/17 A2990 RMK AO2  T01850172,,,,,,62.95,,ESE,29.25,28.15,,Clear
KIGQ,05/21/2017 00:55 UTC,29.91,64.58,62.78,93.9,6.91,140.0,,,,,,1.0,,,,10.0,,KIGQ 210055Z AUTO 14006KT 10SM CLR 18/17 A2991 RMK AO2  T01810171,,,,,,62.77,,SE,29.26,28.18,,Clear
KIGQ,05/21/2017 01:15 UTC,29.91,64.04,62.6,95.08,9.22,130.0,,,,,,1.0,,,,10.0,,KIGQ 210115Z AUTO 13008KT 10SM CLR 18/17 A2991 RMK AO2 LTG DSNT E  T01780170,,,,,,62.59,,SE,29.26,28.19,,Clear
KIGQ,05/21/2017 01:35 UTC,29.91,63.86,62.78,96.29,3.44,140.0,,,,,,1.0,,,,10.0,,KIGQ 210135Z AUTO 14003KT 10SM CLR 18/17 A2991 RMK AO2 LTG DSNT SE  T01770171,,,,,,62.77,,SE,29.26,28.18,,Clear
KIGQ,05/21/2017 01:55 UTC,29.91,63.5,62.6,96.89,4.61,140.0,,,,,,1.0,,,,10.0,,KIGQ 210155Z AUTO 14004KT 10SM CLR 18/17 A2991 RMK AO2  T01750170,,,,,,62.59,,SE,29.26,28.2,,Clear
KIGQ,05/21/2017 02:15 UTC,29.91,63.5,62.78,97.51,5.75,140.0,,,,,,1.0,,,,10.0,,KIGQ 210215Z AUTO 14005KT 10SM CLR 18/17 A2991 RMK AO2 LTG DSNT E  T01750171,,,,,,62.78,,SE,29.26,28.19,,Clear
KIGQ,05/21/2017 02:35 UTC,29.9,63.5,62.96,98.12,3.44,140.0,,,,,,1.0,,,,10.0,,KIGQ 210235Z AUTO 14003KT 10SM CLR 18/17 A2990 RMK AO2  T01750172,,,,,,62.96,,SE,29.25,28.17,,Clear
KIGQ,05/21/2017 02:55 UTC,29.91,63.5,63.14,98.75,4.61,120.0,,,,,,1.0,,,,10.0,,KIGQ 210255Z AUTO 12004KT 10SM CLR 18/17 A2991 RMK AO2  T01750173,,,,,,63.14,,ESE,29.26,28.17,,Clear
KIGQ,05/21/2017 03:15 UTC,29.91,63.5,63.14,98.75,5.75,130.0,,,,,,1.0,,,,7.0,,KIGQ 210315Z AUTO 13005KT 7SM CLR 18/17 A2991 RMK AO2 LTG DSNT E  T01750173,,,,,,63.14,,SE,29.26,28.17,,Clear
KIGQ,05/21/2017 03:40 UTC,29.91,63.32,63.14,99.37,9.22,120.0,,,,,,1.0,,,,7.0,,KIGQ 210340Z AUTO 12008KT 7SM CLR 17/17 A2991 RMK AO2 LTG DSNT NE  T01740173,,,,,,63.14,,ESE,29.26,28.17,,Clear
KIGQ,05/21/2017 03:55 UTC,29.91,63.5,63.5,100.0,8.05,130.0,,,,,,1.0,,,,7.0,,KIGQ 210355Z AUTO 13007KT 7SM CLR 18/18 A2991 RMK AO2  T01750175,,,,,,63.5,,SE,29.26,28.15,,Clear
KIGQ,05/21/2017 04:15 UTC,29.91,63.5,63.5,100.0,8.05,130.0,,,,,,1.0,,,,7.0,,KIGQ 210415Z AUTO 13007KT 7SM CLR 18/18 A2991 RMK AO2 LTG DSNT E  T01750175,,,,,,63.5,,SE,29.26,28.15,,Clear
KIGQ,05/21/2017 04:35 UTC,29.91,63.5,63.5,100.0,6.91,130.0,,31.0,,,,1.0,,,,5.0,,KIGQ 210435Z AUTO 13006KT 5SM BR CLR 18/18 A2991 RMK AO2  T01750175,,,,,,63.5,,SE,29.26,28.15,,Mist
KIGQ,05/21/2017 04:55 UTC,29.9,63.5,63.5,100.0,4.61,140.0,,31.0,,,,1.0,,,,5.0,,KIGQ 210455Z AUTO 14004KT 5SM BR CLR 18/18 A2990 RMK AO2  T01750175,,,,,,63.5,,SE,29.25,28.14,,Mist
KIGQ,05/21/2017 05:15 UTC,29.9,63.14,63.14,100.0,4.61,160.0,,31.0,,,,1.0,,,,5.0,,KIGQ 210515Z AUTO 16004KT 5SM BR CLR 17/17 A2990 RMK AO2  T01730173,,,,,,63.14,,SSE,29.25,28.16,,Mist
KIGQ,05/21/2017 05:35 UTC,29.9,62.96,62.96,100.0,3.44,180.0,,31.0,,,,1.0,,,,5.0,,KIGQ 210535Z AUTO 18003KT 5SM BR CLR 17/17 A2990 RMK AO2  T01720172,,,,,,62.96,,S,29.25,28.18,,Mist
KIGQ,05/21/2017 05:55 UTC,29.9,62.6,62.6,100.0,4.61,130.0,,31.0,,,,1202.0,,,,4.0,,KIGQ 210555Z AUTO 13004KT 4SM BR SCT120 17/17 A2990 RMK AO2  T01700170 10195 20170 402020101,67.1,62.6,,68.36,50.18,62.6,,SE,29.25,28.2,,Mist
KIGQ,05/21/2017 06:15 UTC,29.89,62.96,62.96,100.0,3.44,160.0,,31.0,,,,1202.0,,,,5.0,,KIGQ 210615Z AUTO 16003KT 5SM BR SCT120 17/17 A2989 RMK AO2  T01720172,,,,,,62.96,,SSE,29.24,28.17,,Mist
KIGQ,05/21/2017 06:35 UTC,29.89,62.6,62.6,100.0,3.44,150.0,,31.0,,,,42.0,,,,4.0,,KIGQ 210635Z AUTO 15003KT 4SM BR SCT004 17/17 A2989 RMK AO2  T01700170,,,,,,62.6,,SSE,29.24,28.19,,Mist
KIGQ,05/21/2017 06:55 UTC,29.88,63.5,63.5,100.0,6.91,140.0,,31.0,,,,44.0,,,,5.0,,KIGQ 210655Z AUTO 14006KT 5SM BR OVC004 18/18 A2988 RMK AO2  T01750175,,,400.0,,,63.5,,SE,29.23,28.12,,Mist
KIGQ,05/21/2017 07:15 UTC,29.88,63.5,63.5,100.0,3.44,170.0,,31.0,,,,43.0,1203.0,,,5.0,,KIGQ 210715Z AUTO 17003KT 5SM BR BKN004 BKN120 18/18 A2988 RMK AO2  T01750175,,,400.0,,,63.5,,S,29.23,28.12,,Mist
KIGQ,05/21/2017 07:35 UTC,29.87,63.32,63.32,100.0,0.0,0.0,,31.0,,,,1202.0,,,,5.0,,KIGQ 210735Z AUTO 00000KT 5SM BR SCT120 17/17 A2987 RMK AO2  T01740174,,,,,,63.32,,N,29.22,28.12,,Mist
KIGQ,05/21/2017 07:55 UTC,29.86,62.24,62.24,100.0,0.0,0.0,,31.0,,,,1203.0,,,,3.0,,KIGQ 210755Z AUTO 00000KT 3SM BR BKN120 17/17 A2986 RMK AO2  T01680168,,,12000.0,,,62.24,,N,29.21,28.19,,Mist
KIGQ,05/21/2017 08:15 UTC,29.86,62.24,62.24,100.0,3.44,160.0,,31.0,,,,1002.0,1203.0,,,4.0,,KIGQ 210815Z AUTO 16003KT 4SM BR SCT100 BKN120 17/17 A2986 RMK AO2  LTG DSNT S T01680168,,,12000.0,,,62.24,,SSE,29.21,28.19,,Mist
KIGQ,05/21/2017 08:35 UTC,29.86,62.78,62.78,100.0,3.44,170.0,,13.0,,,,853.0,1203.0,,,4.0,,KIGQ 210835Z AUTO 17003KT 4SM -RA BKN085 BKN120 17/17 A2986 RMK AO2 LTG DSNT S T01710171,,,8500.0,,,62.78,,S,29.21,28.15,,Light Rain
KIGQ,05/21/2017 08:55 UTC,29.87,63.5,63.5,100.0,8.05,170.0,,,1104.0,,,222.0,603.0,,,4.0,,KIGQ 210855Z AUTO 17007KT 4SM VCTSRA SCT022 BKN060 OVC110 18/18  A2987 RMK AO2 LTG DSNT E AND SE T01750175,,,6000.0,,,63.5,,S,29.22,28.11,,Overcast
KIGQ,05/21/2017 09:15 UTC,29.86,64.04,64.04,100.0,6.91,170.0,,1.0,1104.0,0.01,,62.0,223.0,,,7.0,,KIGQ 210915Z AUTO 17006KT 7SM RA SCT006 BKN022 OVC110 18/18 A2986 RMK AO2 LTG DSNT NE P0001 T01780178,,,2200.0,,,64.04,,S,29.21,28.06,,Rain
KIGQ,05/21/2017 09:35 UTC,29.87,64.04,64.04,100.0,5.75,190.0,,,343.0,0.01,,83.0,203.0,,,7.0,,KIGQ 210935Z AUTO 19005KT 7SM BKN008 BKN020 BKN034 18/18 A2987 RMK AO2 LTG DSNT NE P0001 T01780178,,,800.0,,,64.04,,S,29.22,28.07,,Mostly Cloudy
KIGQ,05/21/2017 09:55 UTC,29.86,64.4,64.4,100.0,5.75,210.0,,,274.0,0.01,,82.0,183.0,,,10.0,,KIGQ 210955Z AUTO 21005KT 10SM SCT008 BKN018 OVC027 18/18 A2986 RMK AO2 LTG DSNT NE P0001 T01800180,,,1800.0,,,64.4,,SSW,29.21,28.03,,Overcast
KIGQ,05/21/2017 10:15 UTC,29.87,64.4,64.4,100.0,8.05,210.0,,,,,,152.0,314.0,,,10.0,,KIGQ 211015Z AUTO 21007KT 10SM SCT015 OVC031 18/18 A2987 RMK AO2  LTG DSNT NE T01800180,,,3100.0,,,64.4,,SSW,29.22,28.04,,Overcast
KIGQ,05/21/2017 10:35 UTC,29.87,64.4,64.4,100.0,9.22,220.0,,,314.0,,,133.0,193.0,,,10.0,,KIGQ 211035Z AUTO 22008KT 10SM BKN013 BKN019 OVC031 18/18 A2987 RMK AO2 T01800180,,,1300.0,,,64.4,,SW,29.22,28.04,,Overcast
KIGQ,05/21/2017 10:55 UTC,29.88,62.42,59.36,89.73,14.97,270.0,24.16,,,,,103.0,154.0,,,10.0,,KIGQ 211055Z AUTO 27013G21KT 10SM BKN010 OVC015 17/15 A2988 RMK AO2 T01690152,,,1000.0,,,59.34,,W,29.23,28.35,,Overcast
KIGQ,05/21/2017 11:15 UTC,29.89,60.98,57.2,87.38,11.5,280.0,,,,,,152.0,214.0,,,10.0,,KIGQ 211115Z AUTO 28010KT 10SM SCT015 OVC021 16/14 A2989 RMK AO2  T01610140,,,2100.0,,,57.17,,W,29.24,28.49,,Overcast
KIGQ,05/21/2017 11:35 UTC,29.91,60.26,55.58,84.54,11.5,270.0,17.27,,,,,234.0,,,,10.0,,KIGQ 211135Z AUTO 27010G15KT 10SM OVC023 16/13 A2991 RMK AO2  T01570131,,,2300.0,,,55.54,,W,29.26,28.59,,Overcast
KIGQ,05/21/2017 11:55 UTC,29.91,59.9,55.94,86.75,5.75,250.0,,,,,,254.0,,0.01,0.27,10.0,,KIGQ 211155Z AUTO 25005KT 10SM OVC025 16/13 A2991 RMK AO2 60001  70027 T01550133 10181 20155,64.58,59.9,2500.0,,,55.91,,WSW,29.26,28.58,,Overcast
KIGQ,05/21/2017 12:15 UTC,29.92,59.54,55.76,87.3,9.22,260.0,,13.0,,,,274.0,,,,10.0,,KIGQ 211215Z AUTO 26008KT 10SM -RA OVC027 15/13 A2992 RMK AO2  T01530132,,,2700.0,,,55.73,,W,29.27,28.6,,Light Rain
KIGQ,05/21/2017 12:35 UTC,29.93,60.08,56.48,87.9,10.36,250.0,16.11,,,,,314.0,,,,10.0,,KIGQ 211235Z AUTO 25009G14KT 10SM OVC031 16/14 A2993 RMK AO2  T01560136,,,3100.0,,,56.45,,WSW,29.28,28.57,,Overcast
KIGQ,05/21/2017 12:55 UTC,29.93,60.44,53.42,77.65,18.41,270.0,23.02,,,,,354.0,,,,10.0,,KIGQ 211255Z AUTO 27016G20KT 10SM OVC035 16/12 A2993 RMK AO2  T01580119,,,3500.0,,,53.37,,W,29.28,28.7,,Overcast
KIGQ,05/21/2017 13:15 UTC,29.93,59.9,53.06,78.11,13.8,260.0,,,,,,393.0,464.0,,,10.0,,KIGQ 211315Z AUTO 26012KT 10SM BKN039 OVC046 16/12 A2993 RMK AO2  T01550117,,,3900.0,,,53.01,,W,29.28,28.72,,Overcast
KIGQ,05/21/2017 13:35 UTC,29.94,59.9,52.88,77.6,10.36,240.0,,,,,,413.0,553.0,,,10.0,,KIGQ 211335Z AUTO 24009KT 10SM BKN041 BKN055 16/12 A2994 RMK AO2  T01550116,,,4100.0,,,52.83,,WSW,29.29,28.74,,Mostly Cloudy
KIGQ,05/21/2017 13:55 UTC,29.94,62.06,54.5,76.27,9.22,250.0,,,503.0,,,262.0,312.0,,,10.0,,KIGQ 211355Z AUTO 25008KT 10SM SCT026 SCT031 BKN050 17/13 A2994 RMK AO2 LTG DSNT E T01670125,,,5000.0,,,54.45,,WSW,29.29,28.65,,Mostly Cloudy
KIGQ,05/21/2017 14:15 UTC,29.94,62.42,52.88,70.98,14.97,250.0,19.57,,,,,292.0,502.0,,,10.0,,KIGQ 211415Z AUTO 25013G17KT 10SM SCT029 SCT050 17/12 A2994 RMK AO2 T01690116,,,,,,52.82,,WSW,29.29,28.71,,Partly Cloudy
KIGQ,05/21/2017 14:35 UTC,29.94,62.24,50.9,66.4,13.8,240.0,23.02,,,,,1.0,,,,10.0,,KIGQ 211435Z AUTO 24012G20KT 10SM CLR 17/11 A2994 RMK AO2  T01680105,,,,,,50.82,,WSW,29.29,28.79,,Clear
KIGQ,05/21/2017 14:55 UTC,29.94,62.6,50.54,64.7,13.8,240.0,21.85,,,,,1.0,,,,10.0,,KIGQ 211455Z AUTO 24012G19KT 10SM CLR 17/10 A2994 RMK AO2  T01700103,,,,,,50.46,,WSW,29.29,28.8,,Clear
KIGQ,05/21/2017 15:15 UTC,29.94,62.96,51.26,65.61,14.97,230.0,20.71,,,,,1.0,,,,10.0,,KIGQ 211515Z AUTO 23013G18KT 10SM CLR 17/11 A2994 RMK AO2  T01720107,,,,,,51.18,,SW,29.29,28.77,,Clear
KIGQ,05/21/2017 15:35 UTC,29.95,63.5,50.54,62.69,19.57,230.0,23.02,,,,,1.0,,,,10.0,,KIGQ 211535Z AUTO 23017G20KT 10SM CLR 18/10 A2995 RMK AO2  T01750103,,,,,,50.46,,SW,29.3,28.81,,Clear
KIGQ,05/21/2017 15:55 UTC,29.94,63.14,50.36,63.06,18.41,220.0,23.02,,,,,392.0,,,,10.0,,KIGQ 211555Z AUTO 22016G20KT 10SM SCT039 17/10 A2994 RMK AO2  T01730102,,,,,,50.28,,SW,29.29,28.81,,Partly Cloudy
KIGQ,05/21/2017 16:15 UTC,29.95,64.76,51.8,62.85,18.41,230.0,23.02,,,,,373.0,,,,10.0,,KIGQ 211615Z AUTO 23016G20KT 10SM BKN037 18/11 A2995 RMK AO2  T01820110,,,3700.0,,,51.73,,SW,29.3,28.74,,Mostly Cloudy
KIGQ,05/21/2017 16:35 UTC,29.95,62.6,50.18,63.84,17.27,250.0,24.16,,,,,373.0,434.0,,,10.0,,KIGQ 211635Z AUTO 25015G21KT 10SM BKN037 OVC043 17/10 A2995 RMK AO2 T01700101,,,3700.0,,,50.1,,WSW,29.3,28.83,,Overcast
KIGQ,05/21/2017 16:55 UTC,29.95,62.6,50.0,63.42,18.41,250.0,,,,,,414.0,,,,10.0,,KIGQ 211655Z AUTO 25016KT 10SM OVC041 17/10 A2995 RMK AO2  T01700100,,,4100.0,,,49.92,,WSW,29.3,28.83,,Overcast
KIGQ,05/21/2017 17:15 UTC,29.95,62.78,50.54,64.29,18.41,250.0,23.02,,,,,404.0,,,,10.0,,KIGQ 211715Z AUTO 25016G20KT 10SM OVC040 17/10 A2995 RMK AO2  T01710103,,,4000.0,,,50.46,,WSW,29.3,28.81,,Overcast
KIGQ,05/21/2017 17:35 UTC,29.96,63.68,50.36,61.88,14.97,250.0,24.16,,,,,403.0,484.0,,,10.0,,KIGQ 211735Z AUTO 25013G21KT 10SM BKN040 OVC048 18/10 A2996 RMK AO2 T01760102,,,4000.0,,,50.28,,WSW,29.31,28.82,,Overcast
KIGQ,05/21/2017 17:55 UTC,29.96,62.78,50.18,63.44,16.11,240.0,21.85,,,,,402.0,464.0,,,10.0,,KIGQ 211755Z AUTO 24014G19KT 10SM SCT040 OVC046 17/10 A2996 RMK AO2 T01710101 10182 20153,64.76,59.54,4600.0,,,50.1,,WSW,29.31,28.84,,Overcast
KIGQ,05/21/2017 18:15 UTC,29.96,62.78,50.36,63.86,17.27,240.0,21.85,,,,,382.0,464.0,,,10.0,,KIGQ 211815Z AUTO 24015G19KT 10SM SCT038 OVC046 17/10 A2996 RMK AO2 T01710102,,,4600.0,,,50.28,,WSW,29.31,28.83,,Overcast
KIGQ,05/21/2017 18:35 UTC,29.96,62.06,49.82,64.2,16.11,250.0,21.85,,,,,413.0,504.0,,,10.0,,KIGQ 211835Z AUTO 25014G19KT 10SM BKN041 OVC050 17/10 A2996 RMK AO2 T01670099,,,4100.0,,,49.74,,WSW,29.31,28.86,,Overcast
KIGQ,05/21/2017 18:55 UTC,29.96,62.6,50.54,64.7,18.41,250.0,,,,,,392.0,484.0,,,10.0,,KIGQ 211855Z AUTO 25016KT 10SM SCT039 OVC048 17/10 A2996 RMK AO2  T01700103,,,4800.0,,,50.46,,WSW,29.31,28.82,,Overcast
KIGQ,05/21/2017 19:15 UTC,29.97,62.6,50.0,63.42,14.97,230.0,,,504.0,,,372.0,432.0,,,10.0,,KIGQ 211915Z AUTO 23013KT 10SM SCT037 SCT043 OVC050 17/10 A2997 RMK AO2 T01700100,,,5000.0,,,49.92,,SW,29.32,28.85,,Overcast
KIGQ,05/21/2017 19:35 UTC,29.97,62.6,50.36,64.27,17.27,250.0,24.16,,,,,372.0,484.0,,,10.0,,KIGQ 211935Z AUTO 25015G21KT 10SM SCT037 OVC048 17/10 A2997 RMK AO2 T01700102,,,4800.0,,,50.28,,WSW,29.32,28.84,,Overcast
KIGQ,05/21/2017 19:55 UTC,29.97,61.52,50.0,65.88,14.97,250.0,19.57,,,,,373.0,484.0,,,10.0,,KIGQ 211955Z AUTO 25013G17KT 10SM BKN037 OVC048 16/10 A2997 RMK AO2 T01640100,,,3700.0,,,49.92,,WSW,29.32,28.86,,Overcast
KIGQ,05/21/2017 20:15 UTC,29.97,61.34,49.64,65.41,14.97,250.0,20.71,,,,,373.0,444.0,,,10.0,,KIGQ 212015Z AUTO 25013G18KT 10SM BKN037 OVC044 16/10 A2997 RMK AO2 T01630098,,,3700.0,,,49.56,,WSW,29.32,28.88,,Overcast
KIGQ,05/21/2017 20:35 UTC,29.97,60.98,48.92,64.5,19.57,260.0,25.32,,,,,392.0,454.0,,,10.0,,KIGQ 212035Z AUTO 26017G22KT 10SM SCT039 OVC045 16/09 A2997 RMK AO2 T01610094,,,4500.0,,,48.84,,W,29.32,28.91,,Overcast
KIGQ,05/21/2017 20:55 UTC,29.97,60.8,49.28,65.79,16.11,260.0,23.02,,,,,392.0,454.0,,,10.0,,KIGQ 212055Z AUTO 26014G20KT 10SM SCT039 OVC045 16/10 A2997 RMK AO2 T01600096,,,4500.0,,,49.2,,W,29.32,28.9,,Overcast
KIGQ,05/21/2017 21:15 UTC,29.98,60.08,49.64,68.4,13.8,260.0,20.71,,,,,382.0,454.0,,,10.0,,KIGQ 212115Z AUTO 26012G18KT 10SM SCT038 OVC045 16/10 A2998 RMK AO2 T01560098,,,4500.0,,,49.56,,W,29.33,28.9,,Overcast
KIGQ,05/21/2017 21:35 UTC,29.98,59.0,48.38,67.82,14.97,240.0,26.46,,,,,383.0,434.0,,,10.0,,KIGQ 212135Z AUTO 24013G23KT 10SM BKN038 OVC043 15/09 A2998 RMK AO2 T01500091,,,3800.0,,,48.3,,WSW,29.33,28.96,,Overcast
KIGQ,05/21/2017 21:55 UTC,29.98,58.28,47.66,67.73,17.27,250.0,23.02,,,,,362.0,434.0,,,10.0,,KIGQ 212155Z AUTO 25015G20KT 10SM SCT036 OVC043 15/09 A2998 RMK AO2 T01460087,,,4300.0,,,47.57,,WSW,29.33,28.99,,Overcast
KIGQ,05/21/2017 22:15 UTC,29.99,58.46,47.12,65.95,13.8,250.0,24.16,,454.0,,,332.0,392.0,,,10.0,,KIGQ 212215Z AUTO 25012G21KT 10SM SCT033 SCT039 OVC045 15/08 A2999 RMK AO2 T01470084,,,4500.0,,,47.03,,WSW,29.34,29.01,,Overcast
KIGQ,05/21/2017 22:35 UTC,29.99,57.74,47.48,68.59,14.97,250.0,25.32,,,,,352.0,454.0,,,10.0,,KIGQ 212235Z AUTO 25013G22KT 10SM SCT035 OVC045 14/09 A2999 RMK AO2 T01430086,,,4500.0,,,47.39,,WSW,29.34,29.01,,Overcast
KIGQ,05/21/2017 22:55 UTC,29.99,57.2,47.48,69.94,17.27,250.0,24.16,,,,,352.0,454.0,,,10.0,,KIGQ 212255Z AUTO 25015G21KT 10SM SCT035 OVC045 14/09 A2999 RMK AO2 T01400086,,,4500.0,,,47.4,,WSW,29.34,29.01,,Overcast
KIGQ,05/21/2017 23:15 UTC,29.99,56.48,47.12,70.81,21.85,250.0,25.32,,,,,402.0,454.0,,,10.0,,KIGQ 212315Z AUTO 25019G22KT 10SM SCT040 OVC045 14/08 A2999 RMK AO2 T01360084,,,4500.0,,,47.04,,WSW,29.34,29.03,,Overcast
KIGQ,05/21/2017 23:35 UTC,,55.4,47.84,75.65,17.27,270.0,25.32,,464.0,,,292.0,393.0,,,10.0,,KIGQ 212335Z AUTO 27015G22KT 10SM SCT029 BKN039 OVC046 13/09 A3 RMK AO2 T01300088,,,3900.0,,,47.77,,W,,,,Overcast
KIGQ,05/21/2017 23:55 UTC,,54.5,47.12,76.08,19.57,280.0,25.32,,444.0,,,273.0,333.0,,,10.0,,KIGQ 212355Z AUTO 28017G22KT 10SM BKN027 BKN033 OVC044 13/08 A3 RMK AO2 T01250084 10174 20125,63.32,54.5,2700.0,,,47.05,,W,,,,Overcast
KIGQ,05/22/2017 00:15 UTC,30.01,53.06,46.58,78.58,21.85,270.0,27.63,,,,,253.0,294.0,,,10.0,,KIGQ 220015Z AUTO 27019G24KT 10SM BKN025 OVC029 12/08 A3001 RMK AO2 T01170081,,,2500.0,,,46.51,,W,29.36,29.1,,Overcast
KIGQ,05/22/2017 00:35 UTC,30.01,52.52,45.14,75.9,13.8,270.0,21.85,,384.0,,,253.0,313.0,,,10.0,,KIGQ 220035Z AUTO 27012G19KT 10SM BKN025 BKN031 OVC038 11/07 A3001 RMK AO2 T01140073,,,2500.0,,,45.06,,W,29.36,29.15,,Overcast
KIGQ,05/22/2017 00:55 UTC,30.01,52.16,45.14,76.91,10.36,280.0,,,444.0,,,252.0,313.0,,,10.0,,KIGQ 220055Z AUTO 28009KT 10SM SCT025 BKN031 OVC044 11/07 A3001 RMK AO2 T01120073,,,3100.0,,,45.07,,W,29.36,29.15,,Overcast
KIGQ,05/22/2017 01:15 UTC,30.02,51.98,44.42,75.33,16.11,270.0,21.85,,444.0,,,293.0,363.0,,,10.0,,KIGQ 220115Z AUTO 27014G19KT 10SM BKN029 BKN036 OVC044 11/07 A3002 RMK AO2 T01110069,,,2900.0,,,44.34,,W,29.37,29.18,,Overcast
KIGQ,05/22/2017 01:35 UTC,30.03,51.98,43.16,71.79,14.97,270.0,20.71,,464.0,,,292.0,362.0,,,10.0,,KIGQ 220135Z AUTO 27013G18KT 10SM SCT029 SCT036 OVC046 11/06 A3003 RMK AO2 T01110062,,,4600.0,,,43.07,,W,29.38,29.23,,Overcast
KIGQ,05/22/2017 01:55 UTC,30.04,51.98,40.82,65.6,10.36,260.0,23.02,,,,,444.0,,,,10.0,,KIGQ 220155Z AUTO 26009G20KT 10SM OVC044 11/05 A3004 RMK AO2  T01110049,,,4400.0,,,40.71,,W,29.39,29.3,,Overcast
KIGQ,05/22/2017 02:15 UTC,30.05,51.8,41.72,68.37,12.66,260.0,18.41,,,,,464.0,,,,10.0,,KIGQ 220215Z AUTO 26011G16KT 10SM OVC046 11/05 A3005 RMK AO2  T01100054,,,4600.0,,,41.62,,W,29.4,29.29,,Overcast
KIGQ,05/22/2017 02:35 UTC,30.05,51.8,42.44,70.29,11.5,260.0,16.11,,,,,464.0,,,,10.0,,KIGQ 220235Z AUTO 26010G14KT 10SM OVC046 11/06 A3005 RMK AO2  T01100058,,,4600.0,,,42.34,,W,29.4,29.27,,Overcast
KIGQ,05/22/2017 02:55 UTC,30.06,51.8,42.44,70.29,12.66,250.0,18.41,,,,,444.0,,,,10.0,,KIGQ 220255Z AUTO 25011G16KT 10SM OVC044 11/06 A3006 RMK AO2  T01100058,,,4400.0,,,42.34,,WSW,29.41,29.28,,Overcast
KIGQ,05/22/2017 03:15 UTC,30.06,51.8,42.44,70.29,14.97,250.0,18.41,,,,,442.0,504.0,,,10.0,,KIGQ 220315Z AUTO 25013G16KT 10SM SCT044 OVC050 11/06 A3006 RMK AO2 T01100058,,,5000.0,,,42.34,,WSW,29.41,29.28,,Overcast
KIGQ,05/22/2017 03:35 UTC,30.06,51.62,42.8,71.75,10.36,250.0,16.11,,,,,504.0,,,,10.0,,KIGQ 220335Z AUTO 25009G14KT 10SM OVC050 11/06 A3006 RMK AO2  T01090060,,,5000.0,,,42.71,,WSW,29.41,29.27,,Overcast
KIGQ,05/22/2017 04:15 UTC,30.06,51.08,43.7,75.76,9.22,230.0,,,,,,504.0,,,,10.0,,KIGQ 220415Z AUTO 23008KT 10SM OVC050 11/07 A3006 RMK AO2  T01060065,,,5000.0,,,43.62,,SW,29.41,29.25,,Overcast
KIGQ,05/22/2017 04:35 UTC,30.05,51.08,43.7,75.76,10.36,240.0,,,,,,504.0,,,,10.0,,KIGQ 220435Z AUTO 24009KT 10SM OVC050 11/07 A3005 RMK AO2  T01060065,,,5000.0,,,43.62,,WSW,29.4,29.24,,Overcast
KIGQ,05/22/2017 04:55 UTC,30.04,51.08,44.06,76.81,6.91,240.0,,,,,,504.0,,,,10.0,,KIGQ 220455Z AUTO 24006KT 10SM OVC050 11/07 A3004 RMK AO2  T01060067,,,5000.0,,,43.98,,WSW,29.39,29.22,,Overcast
KIGQ,05/22/2017 05:15 UTC,30.04,51.08,44.24,77.34,8.05,240.0,,,,,,504.0,,,,10.0,,KIGQ 220515Z AUTO 24007KT 10SM OVC050 11/07 A3004 RMK AO2  T01060068,,,5000.0,,,44.16,,WSW,29.39,29.22,,Overcast
KIGQ,05/22/2017 05:35 UTC,30.04,51.08,44.6,78.41,10.36,240.0,,,,,,504.0,,,,10.0,,KIGQ 220535Z AUTO 24009KT 10SM OVC050 11/07 A3004 RMK AO2  T01060070,,,5000.0,,,44.53,,WSW,29.39,29.21,,Overcast
KIGQ,05/22/2017 05:55 UTC,30.03,51.08,44.6,78.41,9.22,250.0,,,,,,504.0,,,,10.0,,KIGQ 220555Z AUTO 25008KT 10SM OVC050 11/07 A3003 RMK AO2  T01060070 10123 20105 401820105,54.14,50.9,5000.0,64.76,50.9,44.53,,WSW,29.38,29.2,,Overcast
KIGQ,05/22/2017 06:15 UTC,30.03,51.26,44.6,77.89,9.22,240.0,,,,,,504.0,,,,10.0,,KIGQ 220615Z AUTO 24008KT 10SM OVC050 11/07 A3003 RMK AO2  T01070070,,,5000.0,,,44.53,,WSW,29.38,29.2,,Overcast
KIGQ,05/22/2017 06:35 UTC,30.03,51.08,44.78,78.95,8.05,230.0,,,,,,504.0,,,,10.0,,KIGQ 220635Z AUTO 23007KT 10SM OVC050 11/07 A3003 RMK AO2  T01060071,,,5000.0,,,44.71,,SW,29.38,29.19,,Overcast
KIGQ,05/22/2017 06:55 UTC,30.03,51.26,44.96,78.96,8.05,230.0,,,,,,504.0,,,,10.0,,KIGQ 220655Z AUTO 23007KT 10SM OVC050 11/07 A3003 RMK AO2  T01070072,,,5000.0,,,44.89,,SW,29.38,29.19,,Overcast
KIGQ,05/22/2017 07:15 UTC,30.03,51.26,44.96,78.96,10.36,240.0,,,,,,504.0,,,,10.0,,KIGQ 220715Z AUTO 24009KT 10SM OVC050 11/07 A3003 RMK AO2  T01070072,,,5000.0,,,44.89,,WSW,29.38,29.19,,Overcast
KIGQ,05/22/2017 07:35 UTC,30.03,51.62,44.24,75.81,14.97,260.0,18.41,,,,,504.0,,,,10.0,,KIGQ 220735Z AUTO 26013G16KT 10SM OVC050 11/07 A3003 RMK AO2  T01090068,,,5000.0,,,44.16,,W,29.38,29.2,,Overcast
KIGQ,05/22/2017 07:55 UTC,30.03,50.72,43.34,75.73,10.36,260.0,,,,,,502.0,,,,10.0,,KIGQ 220755Z AUTO 26009KT 10SM SCT050 10/06 A3003 RMK AO2  T01040063,,,,,,43.26,,W,29.38,29.24,,Partly Cloudy
KIGQ,05/22/2017 08:15 UTC,30.02,50.36,43.34,76.75,10.36,240.0,,,,,,1.0,,,,10.0,,KIGQ 220815Z AUTO 24009KT 10SM CLR 10/06 A3002 RMK AO2  T01020063,,,,,,43.26,,WSW,29.37,29.23,,Clear
KIGQ,05/22/2017 08:35 UTC,30.03,49.64,43.34,78.83,9.22,250.0,,,,,,1.0,,,,10.0,,KIGQ 220835Z AUTO 25008KT 10SM CLR 10/06 A3003 RMK AO2  T00980063,,,,,,43.27,,WSW,29.38,29.25,,Clear
KIGQ,05/22/2017 08:55 UTC,30.03,49.1,43.34,80.43,8.05,250.0,,,,,,1.0,,,,10.0,,KIGQ 220855Z AUTO 25007KT 10SM CLR 10/06 A3003 RMK AO2  T00950063,,,,,,43.27,,WSW,29.38,29.25,,Clear
KIGQ,05/22/2017 09:15 UTC,30.03,48.2,43.34,83.18,6.91,230.0,,,,,,1.0,,,,10.0,,KIGQ 220915Z AUTO 23006KT 10SM CLR 09/06 A3003 RMK AO2  T00900063,,,,,,43.28,,SW,29.38,29.26,,Clear
KIGQ,05/22/2017 09:35 UTC,30.04,47.66,43.7,86.06,8.05,230.0,,,,,,1.0,,,,10.0,,KIGQ 220935Z AUTO 23007KT 10SM CLR 09/07 A3004 RMK AO2  T00870065,,,,,,43.65,,SW,29.39,29.26,,Clear
KIGQ,05/22/2017 09:55 UTC,30.04,47.3,43.7,87.24,6.91,240.0,,,,,,1.0,,,,10.0,,KIGQ 220955Z AUTO 24006KT 10SM CLR 09/07 A3004 RMK AO2  T00850065,,,,,,43.66,,WSW,29.39,29.27,,Clear
KIGQ,05/22/2017 10:15 UTC,30.04,46.94,43.7,88.43,8.05,230.0,,,,,,1.0,,,,10.0,,KIGQ 221015Z AUTO 23007KT 10SM CLR 08/07 A3004 RMK AO2  T00830065,,,,,,43.66,,SW,29.39,29.27,,Clear
KIGQ,05/22/2017 10:35 UTC,30.05,45.68,43.34,91.47,5.75,210.0,,,,,,1.0,,,,10.0,,KIGQ 221035Z AUTO 21005KT 10SM CLR 08/06 A3005 RMK AO2  T00760063,,,,,,43.31,,SSW,29.4,29.3,,Clear
KIGQ,05/22/2017 10:55 UTC,30.05,45.5,43.7,93.37,5.75,210.0,,,,,,1.0,,,,10.0,,KIGQ 221055Z AUTO 21005KT 10SM CLR 08/07 A3005 RMK AO2  T00750065,,,,,,43.67,,SSW,29.4,29.29,,Clear
KIGQ,05/22/2017 11:15 UTC,30.06,46.94,44.6,91.52,6.91,220.0,,,,,,1.0,,,,10.0,,KIGQ 221115Z AUTO 22006KT 10SM CLR 08/07 A3006 RMK AO2  T00830070,,,,,,44.57,,SW,29.41,29.26,,Clear
KIGQ,05/22/2017 11:35 UTC,30.06,48.38,44.96,87.89,9.22,210.0,,,,,,1.0,,,,10.0,,KIGQ 221135Z AUTO 21008KT 10SM CLR 09/07 A3006 RMK AO2  T00910072,,,,,,44.92,,SSW,29.41,29.24,,Clear
KIGQ,05/22/2017 11:55 UTC,30.06,49.82,45.32,84.44,9.22,230.0,,,,,,1.0,,,,10.0,,KIGQ 221155Z AUTO 23008KT 10SM CLR 10/07 A3006 RMK AO2 T00990074  10110 20075,51.8,45.5,,,,45.27,,SW,29.41,29.22,,Clear
KIGQ,05/22/2017 12:15 UTC,30.07,51.08,45.5,81.14,9.22,230.0,,,,,,1.0,,,,10.0,,KIGQ 221215Z AUTO 23008KT 10SM CLR 11/08 A3007 RMK AO2  T01060075,,,,,,45.44,,SW,29.42,29.21,,Clear
KIGQ,05/22/2017 12:35 UTC,30.07,52.7,45.68,76.96,11.5,230.0,,,,,,1.0,,,,10.0,,KIGQ 221235Z AUTO 23010KT 10SM CLR 12/08 A3007 RMK AO2  T01150076,,,,,,45.61,,SW,29.42,29.19,,Clear
KIGQ,05/22/2017 12:55 UTC,30.07,54.5,46.04,73.04,12.66,250.0,,,,,,1.0,,,,10.0,,KIGQ 221255Z AUTO 25011KT 10SM CLR 13/08 A3007 RMK AO2  T01250078,,,,,,45.96,,WSW,29.42,29.17,,Clear
KIGQ,05/22/2017 13:15 UTC,30.06,55.58,46.04,70.23,10.36,250.0,,,,,,1.0,,,,10.0,,KIGQ 221315Z AUTO 25009KT 10SM CLR 13/08 A3006 RMK AO2  T01310078,,,,,,45.95,,WSW,29.41,29.15,,Clear
KIGQ,05/22/2017 13:35 UTC,30.05,56.84,46.4,68.03,13.8,250.0,,,,,,1.0,,,,10.0,,KIGQ 221335Z AUTO 25012KT 10SM CLR 14/08 A3005 RMK AO2  T01380080,,,,,,46.31,,WSW,29.4,29.11,,Clear
KIGQ,05/22/2017 13:55 UTC,30.05,57.56,46.4,66.28,10.36,240.0,,,,,,1.0,,,,10.0,,KIGQ 221355Z AUTO 24009KT 10SM CLR 14/08 A3005 RMK AO2  T01420080,,,,,,46.3,,WSW,29.4,29.11,,Clear
KIGQ,05/22/2017 14:15 UTC,30.06,58.28,46.76,65.48,12.66,240.0,17.27,,,,,1.0,,,,10.0,,KIGQ 221415Z AUTO 24011G15KT 10SM CLR 15/08 A3006 RMK AO2  T01460082,,,,,,46.67,,WSW,29.41,29.1,,Clear
KIGQ,05/22/2017 14:35 UTC,30.06,59.54,46.94,63.02,9.22,250.0,,,,,,1.0,,,,10.0,,KIGQ 221435Z AUTO 25008KT 10SM CLR 15/08 A3006 RMK AO2  T01530083,,,,,,46.84,,WSW,29.41,29.08,,Clear
KIGQ,05/22/2017 14:55 UTC,30.05,60.44,46.22,59.4,11.5,220.0,,,,,,1.0,,,,10.0,,KIGQ 221455Z AUTO 22010KT 10SM CLR 16/08 A3005 RMK AO2  T01580079,,,,,,46.12,,SW,29.4,29.09,,Clear
KIGQ,05/22/2017 15:15 UTC,30.05,60.98,46.76,59.47,13.8,230.0,,,,,,1.0,,,,10.0,,KIGQ 221515Z AUTO 23012KT 10SM CLR 16/08 A3005 RMK AO2  T01610082,,,,,,46.66,,SW,29.4,29.07,,Clear
KIGQ,05/22/2017 15:35 UTC,30.05,62.42,47.84,58.87,13.8,230.0,17.27,,,,,1.0,,,,10.0,,KIGQ 221535Z AUTO 23012G15KT 10SM CLR 17/09 A3005 RMK AO2  T01690088,,,,,,47.75,,SW,29.4,29.02,,Clear
KIGQ,05/22/2017 15:55 UTC,30.04,62.96,47.84,57.77,12.66,210.0,,,,,,1.0,,,,10.0,,KIGQ 221555Z AUTO 21011KT 10SM CLR 17/09 A3004 RMK AO2  T01720088,,,,,,47.75,,SSW,29.39,29.0,,Clear
KIGQ,05/22/2017 16:15 UTC,30.03,64.4,48.56,56.43,13.8,230.0,19.57,,,,,1.0,,,,10.0,,KIGQ 221615Z AUTO 23012G17KT 10SM CLR 18/09 A3003 RMK AO2  T01800092,,,,,,48.47,,SW,29.38,28.95,,Clear
KIGQ,05/22/2017 16:35 UTC,30.03,65.3,48.92,55.43,12.66,210.0,21.85,,,,,1.0,,,,10.0,,KIGQ 221635Z AUTO 21011G19KT 10SM CLR 19/09 A3003 RMK AO2  T01850094,,,,,,48.83,,SSW,29.38,28.93,,Clear
KIGQ,05/22/2017 16:55 UTC,30.02,65.84,48.74,54.04,16.11,230.0,21.85,,,,,1.0,,,,10.0,,KIGQ 221655Z AUTO 23014G19KT 10SM CLR 19/09 A3002 RMK AO2  T01880093,,,,,,48.66,,SW,29.37,28.92,,Clear
KIGQ,05/22/2017 17:15 UTC,30.01,67.1,48.56,51.39,14.97,230.0,23.02,,,,,1.0,,,,10.0,,KIGQ 221715Z AUTO 23013G20KT 10SM CLR 20/09 A3001 RMK AO2  T01950092,,,,,,48.48,,SW,29.36,28.91,,Clear
KIGQ,05/22/2017 17:35 UTC,30.01,68.0,49.1,50.83,17.27,230.0,21.85,,,,,1.0,,,,10.0,,KIGQ 221735Z AUTO 23015G19KT 10SM CLR 20/10 A3001 RMK AO2  T02000095,,,,,,49.02,,SW,29.36,28.88,,Clear
KIGQ,05/22/2017 17:55 UTC,29.99,69.26,50.54,51.37,12.66,220.0,21.85,,,,,1.0,,,,10.0,,KIGQ 221755Z AUTO 22011G19KT 10SM CLR 21/10 A2999 RMK AO2  T02070103 10207 20100,69.26,50.0,,,,50.47,,SW,29.34,28.79,,Clear
KIGQ,05/22/2017 18:15 UTC,29.99,69.62,49.1,48.09,16.11,240.0,24.16,,,,,1.0,,,,10.0,,KIGQ 221815Z AUTO 24014G21KT 10SM CLR 21/10 A2999 RMK AO2  T02090095,,,,,,49.03,,WSW,29.34,28.85,,Clear
KIGQ,05/22/2017 18:35 UTC,29.99,70.88,49.28,46.39,13.8,220.0,,,,,,1.0,,,,10.0,,KIGQ 221835Z AUTO 22012KT 10SM CLR 22/10 A2999 RMK AO2  T02160096,,,,,,49.22,,SW,29.34,28.83,,Clear
KIGQ,05/22/2017 18:55 UTC,29.98,71.24,48.74,44.91,11.5,230.0,23.02,,,,,1.0,,,,10.0,,KIGQ 221855Z AUTO 23010G20KT 10SM CLR 22/09 A2998 RMK AO2  T02180093,,,,,,48.68,,SW,29.33,28.84,,Clear
KIGQ,05/22/2017 19:15 UTC,29.96,72.5,48.74,43.04,13.8,230.0,23.02,,,,,1.0,,,,10.0,,KIGQ 221915Z AUTO 23012G20KT 10SM CLR 23/09 A2996 RMK AO2  T02250093,,,,,,48.69,,SW,29.31,28.81,,Clear
KIGQ,05/22/2017 19:35 UTC,29.96,73.04,48.2,41.42,16.11,230.0,21.85,,,,,802.0,,,,10.0,,KIGQ 221935Z AUTO 23014G19KT 10SM SCT080 23/09 A2996 RMK AO2  T02280090,,,,,,48.16,,SW,29.31,28.83,,Partly Cloudy
KIGQ,05/22/2017 19:55 UTC,29.95,73.4,48.38,41.2,12.66,250.0,24.16,,,,,1.0,,,,10.0,,KIGQ 221955Z AUTO 25011G21KT 10SM CLR 23/09 A2995 RMK AO2  T02300091,,,,,,48.34,,WSW,29.3,28.81,,Clear
KIGQ,05/22/2017 20:15 UTC,29.95,74.3,48.2,39.7,14.97,240.0,25.32,,,,,1.0,,,,10.0,,KIGQ 222015Z AUTO 24013G22KT 10SM CLR 24/09 A2995 RMK AO2  T02350090,,,,,,48.16,,WSW,29.3,28.81,,Clear
KIGQ,05/22/2017 20:35 UTC,29.94,73.76,46.76,38.3,18.41,220.0,24.16,,,,,802.0,,,,10.0,,KIGQ 222035Z AUTO 22016G21KT 10SM SCT080 23/08 A2994 RMK AO2  T02320082,,,,,,46.72,,SW,29.29,28.85,,Partly Cloudy
KIGQ,05/22/2017 20:55 UTC,29.94,74.66,49.1,40.57,18.41,220.0,,,,,,1.0,,,,10.0,,KIGQ 222055Z AUTO 22016KT 10SM CLR 24/10 A2994 RMK AO2  T02370095,,,,,,49.07,,SW,29.29,28.76,,Clear
KIGQ,05/22/2017 21:15 UTC,29.93,75.38,48.38,38.56,16.11,210.0,23.02,,,,,802.0,,,,10.0,,KIGQ 222115Z AUTO 21014G20KT 10SM SCT080 24/09 A2993 RMK AO2  T02410091,,,,,,48.36,,SSW,29.28,28.77,,Partly Cloudy
KIGQ,05/22/2017 21:35 UTC,29.93,73.4,46.58,38.5,19.57,230.0,27.63,,,,,802.0,1002.0,,,10.0,,KIGQ 222135Z AUTO 23017G24KT 10SM SCT080 SCT100 23/08 A2993 RMK AO2 T02300081,,,,,,46.54,,SW,29.28,28.85,,Partly Cloudy
KIGQ,05/22/2017 21:55 UTC,29.92,72.5,48.02,41.89,17.27,240.0,23.02,,,,,903.0,,,,10.0,,KIGQ 222155Z AUTO 24015G20KT 10SM BKN090 23/09 A2992 RMK AO2  T02250089,,,9000.0,,,47.97,,WSW,29.27,28.8,,Mostly Cloudy
KIGQ,05/22/2017 22:15 UTC,29.93,71.6,46.22,40.36,20.71,230.0,25.32,,,,,1003.0,,,,10.0,,KIGQ 222215Z AUTO 23018G22KT 10SM BKN100 22/08 A2993 RMK AO2  T02200079,,,10000.0,,,46.16,,SW,29.28,28.88,,Mostly Cloudy
KIGQ,05/22/2017 22:35 UTC,29.93,71.06,46.04,40.82,13.8,240.0,26.46,,,,,1004.0,,,,10.0,,KIGQ 222235Z AUTO 24012G23KT 10SM OVC100 22/08 A2993 RMK AO2  T02170078,,,10000.0,,,45.97,,WSW,29.28,28.89,,Overcast
KIGQ,05/22/2017 22:55 UTC,29.93,70.7,45.68,40.76,14.97,240.0,21.85,,,,,1004.0,,,,10.0,,KIGQ 222255Z AUTO 24013G19KT 10SM OVC100 22/08 A2993 RMK AO2  T02150076,,,10000.0,,,45.61,,WSW,29.28,28.9,,Overcast
KIGQ,05/22/2017 23:15 UTC,29.92,69.8,44.6,40.34,10.36,230.0,,,,,,904.0,,,,10.0,,KIGQ 222315Z AUTO 23009KT 10SM OVC090 21/07 A2992 RMK AO2  T02100070,,,9000.0,,,44.52,,SW,29.27,28.94,,Overcast
KIGQ,05/22/2017 23:35 UTC,29.92,68.9,46.58,44.84,10.36,220.0,,,,,,904.0,,,,10.0,,KIGQ 222335Z AUTO 22009KT 10SM OVC090 21/08 A2992 RMK AO2  T02050081,,,9000.0,,,46.5,,SW,29.27,28.88,,Overcast
KIGQ,05/22/2017 23:55 UTC,29.93,68.9,46.76,45.15,12.66,230.0,17.27,,,,,904.0,,,,10.0,,KIGQ 222355Z AUTO 23011G15KT 10SM OVC090 21/08 A2993 RMK AO2  T02050082 10241 20203,75.38,68.54,9000.0,,,46.68,,SW,29.28,28.88,,Overcast
KIGQ,05/23/2017 00:15 UTC,29.94,66.92,52.7,60.28,13.8,250.0,27.63,,,,,904.0,,,,10.0,,KIGQ 230015Z AUTO 25012G24KT 10SM OVC090 19/12 A2994 RMK AO2  T01940115,,,9000.0,,,52.63,,WSW,29.29,28.68,,Overcast
KIGQ,05/23/2017 00:35 UTC,29.95,65.84,53.42,64.25,10.36,250.0,16.11,,,,,804.0,,,,10.0,,KIGQ 230035Z AUTO 25009G14KT 10SM OVC080 19/12 A2995 RMK AO2  T01880119,,,8000.0,,,53.36,,WSW,29.3,28.67,,Overcast
KIGQ,05/23/2017 00:55 UTC,29.95,64.4,53.06,66.66,14.97,240.0,24.16,,,,,804.0,,,,10.0,,KIGQ 230055Z AUTO 24013G21KT 10SM OVC080 18/12 A2995 RMK AO2  T01800117,,,8000.0,,,52.99,,WSW,29.3,28.7,,Overcast
KIGQ,05/23/2017 01:15 UTC,29.95,63.5,54.32,72.04,14.97,240.0,24.16,1.0,,,,704.0,,,,10.0,,KIGQ 230115Z AUTO 24013G21KT 10SM RA OVC070 18/12 A2995 RMK AO2  T01750124,,,7000.0,,,54.26,,WSW,29.3,28.65,,Rain
KIGQ,05/23/2017 01:35 UTC,29.95,62.96,53.96,72.45,13.8,230.0,,13.0,,,,502.0,704.0,,,10.0,,KIGQ 230135Z AUTO 23012KT 10SM -RA SCT050 OVC070 17/12 A2995 RMK AO2 T01720122,,,7000.0,,,53.9,,SW,29.3,28.67,,Light Rain
KIGQ,05/23/2017 01:55 UTC,29.94,62.96,53.6,71.51,17.27,220.0,21.85,,804.0,,,602.0,703.0,,,10.0,,KIGQ 230155Z AUTO 22015G19KT 10SM SCT060 BKN070 OVC080 17/12 A2994 RMK AO2 T01720120,,,7000.0,,,53.54,,SW,29.29,28.68,,Overcast
KIGQ,05/23/2017 02:15 UTC,29.94,63.32,52.16,66.98,16.11,230.0,24.16,,853.0,,,602.0,802.0,,,10.0,,KIGQ 230215Z AUTO 23014G21KT 10SM SCT060 SCT080 BKN085 17/11 A2994 RMK AO2 T01740112,,,8500.0,,,52.09,,SW,29.29,28.73,,Mostly Cloudy
KIGQ,05/23/2017 02:35 UTC,29.94,63.14,51.8,66.51,14.97,240.0,24.16,,1203.0,,,602.0,752.0,,,10.0,,KIGQ 230235Z AUTO 24013G21KT 10SM SCT060 SCT075 BKN120 17/11 A2994 RMK AO2 T01730110,,,12000.0,,,51.73,,WSW,29.29,28.75,,Mostly Cloudy
KIGQ,05/23/2017 02:55 UTC,29.94,62.42,52.34,69.59,13.8,250.0,18.41,,1004.0,,,602.0,853.0,,,10.0,,KIGQ 230255Z AUTO 25012G16KT 10SM SCT060 BKN085 OVC100 17/11 A2994 RMK AO2 T01690113,,,8500.0,,,52.27,,WSW,29.29,28.73,,Overcast
KIGQ,05/23/2017 03:15 UTC,29.93,61.7,52.7,72.32,9.22,250.0,,,,,,1004.0,,,,10.0,,KIGQ 230315Z AUTO 25008KT 10SM OVC100 17/12 A2993 RMK AO2  T01650115,,,10000.0,,,52.64,,WSW,29.28,28.72,,Overcast
KIGQ,05/23/2017 03:35 UTC,29.93,60.26,53.24,77.63,8.05,250.0,,,,,,1003.0,,,,10.0,,KIGQ 230335Z AUTO 25007KT 10SM BKN100 16/12 A2993 RMK AO2  T01570118,,,10000.0,,,53.19,,WSW,29.28,28.71,,Mostly Cloudy
KIGQ,05/23/2017 03:55 UTC,29.93,59.54,53.78,81.23,9.22,250.0,,,,,,1002.0,,,,10.0,,KIGQ 230355Z AUTO 25008KT 10SM SCT100 15/12 A2993 RMK AO2  T01530121,,,,,,53.73,,WSW,29.28,28.69,,Partly Cloudy
KIGQ,05/23/2017 04:15 UTC,29.93,59.9,54.14,81.26,9.22,230.0,,,1003.0,,,552.0,703.0,,,10.0,,KIGQ 230415Z AUTO 23008KT 10SM SCT055 BKN070 BKN100 16/12 A2993 RMK AO2 T01550123,,,7000.0,,,54.09,,SW,29.28,28.68,,Mostly Cloudy
KIGQ,05/23/2017 04:35 UTC,29.92,59.72,54.68,83.41,8.05,220.0,,13.0,,,,552.0,804.0,,,10.0,,KIGQ 230435Z AUTO 22007KT 10SM -RA SCT055 OVC080 15/13 A2992 RMK AO2 T01540126,,,8000.0,,,54.64,,SW,29.27,28.64,,Light Rain
KIGQ,05/23/2017 04:55 UTC,29.92,59.0,55.04,86.7,8.05,210.0,,17.0,,,,702.0,804.0,,,10.0,,KIGQ 230455Z AUTO 21007KT 10SM -DZ SCT070 OVC080 15/13 A2992 RMK AO2 T01500128,,,8000.0,,,55.01,,SSW,29.27,28.64,,Light Drizzle
KIGQ,05/23/2017 05:15 UTC,29.91,58.28,55.04,88.97,6.91,220.0,,,,,,702.0,804.0,,,10.0,,KIGQ 230515Z AUTO 22006KT 10SM SCT070 OVC080 15/13 A2991 RMK AO2  T01460128,,,8000.0,,,55.01,,SW,29.26,28.63,,Overcast
KIGQ,05/23/2017 05:35 UTC,29.91,58.1,54.68,88.38,9.22,220.0,,,,,,803.0,1103.0,,,10.0,,KIGQ 230535Z AUTO 22008KT 10SM BKN080 BKN110 15/13 A2991 RMK AO2  T01450126,,,8000.0,,,54.65,,SW,29.26,28.65,,Mostly Cloudy
KIGQ,05/23/2017 05:55 UTC,29.9,59.54,54.5,83.4,11.5,210.0,,,,,,804.0,,,,10.0,,KIGQ 230555Z AUTO 21010KT 10SM OVC080 15/13 A2990 RMK AO2  T01530125 10205 20145 402410075,68.9,58.1,8000.0,75.38,45.5,54.46,,SSW,29.25,28.63,,Overcast
KIGQ,05/23/2017 06:15 UTC,29.9,59.54,54.68,83.94,10.36,210.0,,,,,,804.0,,,,10.0,,KIGQ 230615Z AUTO 21009KT 10SM OVC080 15/13 A2990 RMK AO2  T01530126,,,8000.0,,,54.64,,SSW,29.25,28.63,,Overcast
KIGQ,05/23/2017 06:35 UTC,29.89,58.28,55.58,90.73,8.05,200.0,,13.0,,,,602.0,704.0,,,10.0,,KIGQ 230635Z AUTO 20007KT 10SM -RA SCT060 OVC070 15/13 A2989 RMK AO2 T01460131,,,7000.0,,,55.56,,SSW,29.24,28.59,,Light Rain
KIGQ,05/23/2017 06:55 UTC,29.88,58.46,55.4,89.56,9.22,200.0,,,804.0,,,602.0,702.0,,,10.0,,KIGQ 230655Z AUTO 20008KT 10SM SCT060 SCT070 OVC080 15/13 A2988 RMK AO2 T01470130,,,8000.0,,,55.37,,SSW,29.23,28.59,,Overcast
KIGQ,05/23/2017 07:15 UTC,29.88,58.46,55.4,89.56,8.05,200.0,,,,,,704.0,,,,10.0,,KIGQ 230715Z AUTO 20007KT 10SM OVC070 15/13 A2988 RMK AO2  T01470130,,,7000.0,,,55.37,,SSW,29.23,28.59,,Overcast
KIGQ,05/23/2017 07:35 UTC,29.87,58.64,55.4,88.98,6.91,200.0,,,,,,704.0,,,,10.0,,KIGQ 230735Z AUTO 20006KT 10SM OVC070 15/13 A2987 RMK AO2  T01480130,,,7000.0,,,55.37,,SSW,29.22,28.57,,Overcast
KIGQ,05/23/2017 07:55 UTC,29.86,59.0,55.4,87.85,8.05,210.0,,,,,,704.0,,,,10.0,,KIGQ 230755Z AUTO 21007KT 10SM OVC070 15/13 A2986 RMK AO2  T01500130,,,7000.0,,,55.37,,SSW,29.21,28.56,,Overcast
KIGQ,05/23/2017 08:15 UTC,29.86,59.18,55.4,87.28,10.36,220.0,,,,,,704.0,,,,10.0,,KIGQ 230815Z AUTO 22009KT 10SM OVC070 15/13 A2986 RMK AO2  T01510130,,,7000.0,,,55.37,,SW,29.21,28.56,,Overcast
KIGQ,05/23/2017 08:35 UTC,29.86,59.18,55.4,87.28,9.22,220.0,,,,,,704.0,,,,10.0,,KIGQ 230835Z AUTO 22008KT 10SM OVC070 15/13 A2986 RMK AO2  T01510130,,,7000.0,,,55.37,,SW,29.21,28.56,,Overcast
KIGQ,05/23/2017 08:55 UTC,29.85,59.18,55.04,86.15,10.36,210.0,,,,,,704.0,,,,10.0,,KIGQ 230855Z AUTO 21009KT 10SM OVC070 15/13 A2985 RMK AO2  T01510128,,,7000.0,,,55.01,,SSW,29.2,28.56,,Overcast
KIGQ,05/23/2017 09:15 UTC,29.84,58.82,54.68,86.13,8.05,210.0,,,,,,904.0,,,,10.0,,KIGQ 230915Z AUTO 21007KT 10SM OVC090 15/13 A2984 RMK AO2  T01490126,,,9000.0,,,54.65,,SSW,29.19,28.57,,Overcast
KIGQ,05/23/2017 09:35 UTC,29.84,58.46,54.5,86.67,6.91,210.0,,,,,,904.0,,,,10.0,,KIGQ 230935Z AUTO 21006KT 10SM OVC090 15/13 A2984 RMK AO2  T01470125,,,9000.0,,,54.46,,SSW,29.19,28.58,,Overcast
KIGQ,05/23/2017 09:55 UTC,29.84,58.46,54.14,85.54,8.05,210.0,,,,,,904.0,,,,10.0,,KIGQ 230955Z AUTO 21007KT 10SM OVC090 15/12 A2984 RMK AO2  T01470123,,,9000.0,,,54.1,,SSW,29.19,28.6,,Overcast
KIGQ,05/23/2017 10:15 UTC,29.84,58.1,54.5,87.8,9.22,200.0,,,,,,904.0,,,,10.0,,KIGQ 231015Z AUTO 20008KT 10SM OVC090 15/13 A2984 RMK AO2  T01450125,,,9000.0,,,54.47,,SSW,29.19,28.59,,Overcast
KIGQ,05/23/2017 10:35 UTC,29.84,58.1,54.5,87.8,8.05,210.0,,,,,,804.0,,,,10.0,,KIGQ 231035Z AUTO 21007KT 10SM OVC080 15/13 A2984 RMK AO2  T01450125,,,8000.0,,,54.47,,SSW,29.19,28.59,,Overcast
KIGQ,05/23/2017 10:55 UTC,29.84,58.1,54.5,87.8,9.22,200.0,,13.0,,,,804.0,,,,10.0,,KIGQ 231055Z AUTO 20008KT 10SM -RA OVC080 15/13 A2984 RMK AO2  T01450125,,,8000.0,,,54.47,,SSW,29.19,28.59,,Light Rain
KIGQ,05/23/2017 11:15 UTC,29.84,58.1,54.14,86.66,5.75,200.0,,,,,,804.0,,,,10.0,,KIGQ 231115Z AUTO 20005KT 10SM OVC080 15/12 A2984 RMK AO2  T01450123,,,8000.0,,,54.11,,SSW,29.19,28.6,,Overcast
KIGQ,05/23/2017 11:35 UTC,29.84,58.1,54.5,87.8,5.75,220.0,,13.0,,,,704.0,,,,10.0,,KIGQ 231135Z AUTO 22005KT 10SM -RA OVC070 15/13 A2984 RMK AO2  T01450125,,,7000.0,,,54.47,,SW,29.19,28.59,,Light Rain
KIGQ,05/23/2017 11:55 UTC,29.84,58.64,54.86,87.25,3.44,220.0,,13.0,804.0,,,502.0,603.0,,,10.0,,KIGQ 231155Z AUTO 22003KT 10SM -RA SCT050 BKN060 OVC080 15/13  A2984 RMK AO2 T01480127 10155 20144,59.9,57.92,6000.0,,,54.83,,SW,29.19,28.57,,Light Rain
KIGQ,05/23/2017 12:15 UTC,29.84,59.0,55.4,87.85,5.75,220.0,,,1003.0,,,503.0,703.0,,,10.0,,KIGQ 231215Z AUTO 22005KT 10SM BKN050 BKN070 BKN100 15/13 A2984 RMK AO2 T01500130,,,5000.0,,,55.37,,SW,29.19,28.54,,Mostly Cloudy
KIGQ,05/23/2017 12:35 UTC,29.83,59.36,54.86,85.04,5.75,230.0,,,,,,503.0,1004.0,,,10.0,,KIGQ 231235Z AUTO 23005KT 10SM BKN050 OVC100 15/13 A2983 RMK AO2  T01520127,,,5000.0,,,54.82,,SW,29.18,28.55,,Overcast
KIGQ,05/23/2017 12:55 UTC,29.84,59.18,55.04,86.15,8.05,220.0,,13.0,,,,502.0,804.0,,,10.0,,KIGQ 231255Z AUTO 22007KT 10SM -RA SCT050 OVC080 15/13 A2984 RMK AO2 T01510128,,,8000.0,,,55.01,,SW,29.19,28.55,,Light Rain
KIGQ,05/23/2017 13:15 UTC,29.84,58.64,55.58,89.57,9.22,230.0,,13.0,,,,804.0,,,,10.0,,KIGQ 231315Z AUTO 23008KT 10SM -RA OVC080 15/13 A2984 RMK AO2  T01480131,,,8000.0,,,55.56,,SW,29.19,28.54,,Light Rain
KIGQ,05/23/2017 13:35 UTC,29.84,59.0,55.94,89.58,8.05,240.0,,1.0,,,,804.0,,,,10.0,,KIGQ 231335Z AUTO 24007KT 10SM RA OVC080 15/13 A2984 RMK AO2  T01500133,,,8000.0,,,55.91,,WSW,29.19,28.52,,Rain
KIGQ,05/23/2017 13:55 UTC,29.84,59.36,56.3,89.6,10.36,250.0,,2.0,804.0,,,602.0,703.0,,,10.0,,KIGQ 231355Z AUTO 25009KT 10SM DZ SCT060 BKN070 OVC080 15/14 A2984 RMK AO2 T01520135,,,7000.0,,,56.28,,WSW,29.19,28.5,,Drizzle
KIGQ,05/23/2017 14:15 UTC,29.84,59.18,56.48,90.76,11.5,270.0,,13.0,604.0,,,412.0,503.0,,,10.0,,KIGQ 231415Z AUTO 27010KT 10SM -RA SCT041 BKN050 OVC060 15/14  A2984 RMK AO2 T01510136,,,5000.0,,,56.46,,W,29.19,28.49,,Light Rain
KIGQ,05/23/2017 14:35 UTC,29.84,58.64,57.02,94.35,6.91,270.0,,13.0,654.0,,,162.0,412.0,,,10.0,,KIGQ 231435Z AUTO 27006KT 10SM -RA SCT016 SCT041 OVC065 15/14  A2984 RMK AO2 T01480139,,,6500.0,,,57.01,,W,29.19,28.47,,Light Rain
KIGQ,05/23/2017 14:55 UTC,29.83,58.64,57.2,94.96,6.91,280.0,,13.0,854.0,,,122.0,653.0,,,10.0,,KIGQ 231455Z AUTO 28006KT 10SM -RA SCT012 BKN065 OVC085 15/14  A2983 RMK AO2 T01480140,,,6500.0,,,57.19,,W,29.18,28.45,,Light Rain
KIGQ,05/23/2017 15:15 UTC,29.83,58.82,57.56,95.58,5.75,260.0,,13.0,754.0,,,102.0,503.0,,,10.0,,KIGQ 231515Z AUTO 26005KT 10SM -RA SCT010 BKN050 OVC075 15/14  A2983 RMK AO2 T01490142,,,5000.0,,,57.55,,W,29.18,28.43,,Light Rain
KIGQ,05/23/2017 15:35 UTC,29.83,59.18,57.56,94.36,5.75,280.0,,13.0,654.0,,,102.0,503.0,,,10.0,,KIGQ 231535Z AUTO 28005KT 10SM -RA SCT010 BKN050 OVC065 15/14  A2983 RMK AO2 T01510142,,,5000.0,,,57.55,,W,29.18,28.43,,Light Rain
KIGQ,05/23/2017 15:55 UTC,29.82,60.62,57.38,89.07,3.44,250.0,,13.0,754.0,,,352.0,423.0,,,10.0,,KIGQ 231555Z AUTO 25003KT 10SM -RA SCT035 BKN042 OVC075 16/14  A2982 RMK AO2 T01590141,,,4200.0,,,57.35,,WSW,29.17,28.41,,Light Rain
KIGQ,05/23/2017 16:15 UTC,29.82,60.08,55.76,85.64,0.0,0.0,,,854.0,,,372.0,753.0,,,10.0,,KIGQ 231615Z AUTO 00000KT 10SM SCT037 BKN075 OVC085 16/13 A2982 RMK AO2 T01560132,,,7500.0,,,55.73,,N,29.17,28.49,,Overcast
KIGQ,05/23/2017 16:35 UTC,29.81,60.44,54.68,81.3,0.0,0.0,,13.0,,,,753.0,854.0,,,10.0,,KIGQ 231635Z AUTO 00000KT 10SM -RA BKN075 OVC085 16/13 A2981 RMK AO2 T01580126,,,7500.0,,,54.64,,N,29.16,28.52,,Light Rain
KIGQ,05/23/2017 16:55 UTC,29.8,60.98,54.68,79.76,0.0,0.0,,,,,,754.0,,,,10.0,,KIGQ 231655Z AUTO 00000KT 10SM OVC075 16/13 A2980 RMK AO2  T01610126,,,7500.0,,,54.63,,N,29.15,28.51,,Overcast
KIGQ,05/23/2017 17:15 UTC,29.8,61.7,53.96,75.74,0.0,0.0,,13.0,854.0,,,342.0,753.0,,,10.0,,KIGQ 231715Z AUTO 00000KT 10SM -RA SCT034 BKN075 OVC085 17/12  A2980 RMK AO2 T01650122,,,7500.0,,,53.91,,N,29.15,28.53,,Light Rain
KIGQ,05/23/2017 17:35 UTC,29.78,62.06,54.5,76.27,0.0,0.0,,13.0,854.0,,,322.0,432.0,,,10.0,,KIGQ 231735Z AUTO 00000KT 10SM -RA SCT032 SCT043 OVC085 17/13  A2978 RMK AO2 T01670125,,,8500.0,,,54.45,,N,29.13,28.48,,Light Rain
KIGQ,05/23/2017 17:55 UTC,29.77,62.96,55.58,76.85,0.0,0.0,,,,,,952.0,,,,10.0,,KIGQ 231755Z AUTO 00000KT 10SM SCT095 17/13 A2977 RMK AO2  T01720131 10172 20147,62.96,58.46,,,,55.53,,N,29.12,28.42,,Partly Cloudy
KIGQ,05/23/2017 18:15 UTC,29.76,63.14,55.58,76.37,3.44,110.0,,,,,,602.0,1103.0,,,10.0,,KIGQ 231815Z AUTO 11003KT 10SM SCT060 BKN110 17/13 A2976 RMK AO2  T01730131,,,11000.0,,,55.53,,ESE,29.11,28.4,,Mostly Cloudy
KIGQ,05/23/2017 18:35 UTC,29.76,63.14,54.68,73.91,0.0,0.0,,,,,,603.0,1103.0,,,10.0,,KIGQ 231835Z AUTO 00000KT 10SM BKN060 BKN110 17/13 A2976 RMK AO2  T01730126,,,6000.0,,,54.62,,N,29.11,28.44,,Mostly Cloudy
KIGQ,05/23/2017 18:55 UTC,29.76,62.96,54.86,74.87,0.0,0.0,,13.0,804.0,,,602.0,703.0,,,10.0,,KIGQ 231855Z AUTO 00000KT 10SM -RA SCT060 BKN070 OVC080 17/13  A2976 RMK AO2 T01720127,,,7000.0,,,54.81,,N,29.11,28.44,,Light Rain
KIGQ,05/23/2017 19:15 UTC,29.74,62.96,56.3,78.88,8.05,110.0,,13.0,1004.0,,,472.0,803.0,,,10.0,,KIGQ 231915Z AUTO 11007KT 10SM -RA SCT047 BKN080 OVC100 17/14  A2974 RMK AO2 T01720135,,,8000.0,,,56.26,,ESE,29.09,28.35,,Light Rain
KIGQ,05/23/2017 19:35 UTC,29.74,63.5,56.48,77.91,5.75,100.0,,,,,,904.0,,,,10.0,,KIGQ 231935Z AUTO 10005KT 10SM OVC090 18/14 A2974 RMK AO2  T01750136,,,9000.0,,,56.44,,E,29.09,28.34,,Overcast
KIGQ,05/23/2017 19:55 UTC,29.74,63.14,56.48,78.9,5.75,120.0,,,,,,904.0,,,,10.0,,KIGQ 231955Z AUTO 12005KT 10SM OVC090 17/14 A2974 RMK AO2  T01730136,,,9000.0,,,56.44,,ESE,29.09,28.34,,Overcast
KIGQ,05/23/2017 20:15 UTC,29.73,63.68,56.84,78.43,0.0,0.0,,,,,,802.0,1004.0,,,10.0,,KIGQ 232015Z AUTO 00000KT 10SM SCT080 OVC100 18/14 A2973 RMK AO2  T01760138,,,10000.0,,,56.8,,N,29.08,28.31,,Overcast
KIGQ,05/23/2017 20:35 UTC,29.73,63.86,57.2,78.96,4.61,100.0,,,,,,702.0,904.0,,,10.0,,KIGQ 232035Z AUTO 10004KT 10SM SCT070 OVC090 18/14 A2973 RMK AO2  T01770140,,,9000.0,,,57.16,,E,29.08,28.29,,Overcast
KIGQ,05/23/2017 20:55 UTC,29.72,64.4,57.74,79.0,6.91,50.0,,,,,,702.0,1004.0,,,10.0,,KIGQ 232055Z AUTO 05006KT 10SM SCT070 OVC100 18/14 A2972 RMK AO2  T01800143,,,10000.0,,,57.7,,NE,29.07,28.25,,Overcast
KIGQ,05/23/2017 21:15 UTC,29.72,62.42,57.2,83.05,4.61,20.0,,,1104.0,,,202.0,903.0,,,10.0,,KIGQ 232115Z AUTO 02004KT 10SM SCT020 BKN090 OVC110 17/14 A2972 RMK AO2 LTG DSNT SW AND W T01690140,,,9000.0,,,57.17,,NNE,29.07,28.3,,Overcast
KIGQ,05/23/2017 21:35 UTC,29.72,61.34,56.48,84.06,5.75,10.0,,,904.0,,,272.0,603.0,,,10.0,,KIGQ 232135Z AUTO 01005KT 10SM SCT027 BKN060 OVC090 16/14 A2972 RMK AO2 LTG DSNT W T01630136,,,6000.0,,,56.44,,N,29.07,28.34,,Overcast
KIGQ,05/23/2017 21:55 UTC,29.72,59.9,55.94,86.75,5.75,20.0,,13.0,,,,603.0,754.0,,,10.0,,KIGQ 232155Z AUTO 02005KT 10SM -RA BKN060 OVC075 16/13 A2972 RMK AO2 T01550133,,,6000.0,,,55.91,,NNE,29.07,28.38,,Light Rain
KIGQ,05/23/2017 22:15 UTC,29.72,59.0,55.76,89.0,5.75,360.0,,1.0,,,,654.0,,,,10.0,,KIGQ 232215Z AUTO 36005KT 10SM RA OVC065 15/13 A2972 RMK AO2  T01500132,,,6500.0,,,55.73,,N,29.07,28.4,,Rain
KIGQ,05/23/2017 22:35 UTC,29.72,58.28,56.3,93.12,8.05,330.0,,13.0,,,,652.0,704.0,,,10.0,,KIGQ 232235Z AUTO 33007KT 10SM -RA SCT065 OVC070 15/14 A2972 RMK AO2 T01460135,,,7000.0,,,56.28,,NNW,29.07,28.39,,Light Rain
KIGQ,05/23/2017 22:55 UTC,29.71,57.2,55.76,94.93,5.75,330.0,,1.0,704.0,,,242.0,653.0,,,7.0,,KIGQ 232255Z AUTO 33005KT 7SM RA SCT024 BKN065 OVC070 14/13 A2971 RMK AO2 LTG DSNT S T01400132,,,6500.0,,,55.75,,NNW,29.06,28.41,,Rain
KIGQ,05/23/2017 23:15 UTC,29.71,56.48,55.76,97.43,6.91,330.0,,1.0,754.0,,,223.0,363.0,,,7.0,,KIGQ 232315Z AUTO 33006KT 7SM RA BKN022 BKN036 OVC075 14/13 A2971 RMK AO2 LTG DSNT S T01360132,,,2200.0,,,55.75,,NNW,29.06,28.42,,Rain
KIGQ,05/23/2017 23:35 UTC,29.72,56.48,55.58,96.8,3.44,350.0,,13.0,,,,223.0,804.0,,,10.0,,KIGQ 232335Z AUTO 35003KT 10SM -RA BKN022 OVC080 14/13 A2972 RMK AO2 LTG DSNT S T01360131,,,2200.0,,,55.57,,N,29.07,28.44,,Light Rain
KIGQ,05/23/2017 23:55 UTC,29.71,56.3,55.58,97.43,4.61,50.0,,14.0,804.0,0.02,,242.0,503.0,0.02,,4.0,,KIGQ 232355Z AUTO 05004KT 4SM +RA SCT024 BKN050 OVC080 14/13 A2971 RMK AO2 P0002 60002 T01350131 10180 20135,64.4,56.3,5000.0,,,55.57,,NE,29.06,28.43,,Heavy Rain
KIGQ,05/24/2017 00:15 UTC,29.71,56.3,55.58,97.43,4.61,100.0,,13.0,,,,502.0,654.0,,,10.0,,KIGQ 240015Z AUTO 10004KT 10SM -RA SCT050 OVC065 14/13 A2971 RMK AO2 T01350131,,,6500.0,,,55.57,,E,29.06,28.43,,Light Rain
KIGQ,05/24/2017 00:35 UTC,29.71,56.12,55.58,98.06,3.44,20.0,,13.0,,,,652.0,704.0,,,10.0,,KIGQ 240035Z AUTO 02003KT 10SM -RA SCT065 OVC070 13/13 A2971 RMK AO2 T01340131,,,7000.0,,,55.57,,NNE,29.06,28.43,,Light Rain
KIGQ,05/24/2017 00:55 UTC,29.7,55.94,55.76,99.35,3.44,340.0,,13.0,,,,704.0,,,,10.0,,KIGQ 240055Z AUTO 34003KT 10SM -RA OVC070 13/13 A2970 RMK AO2  T01330132,,,7000.0,,,55.76,,NNW,29.05,28.42,,Light Rain
KIGQ,05/24/2017 01:15 UTC,29.7,55.76,55.58,99.35,3.44,360.0,,13.0,,,,702.0,754.0,,,10.0,,KIGQ 240115Z AUTO 36003KT 10SM -RA SCT070 OVC075 13/13 A2970 RMK AO2 T01320131,,,7500.0,,,55.58,,N,29.05,28.43,,Light Rain
KIGQ,05/24/2017 01:35 UTC,29.69,55.94,55.58,98.7,3.44,10.0,,,,,,552.0,754.0,,,10.0,,KIGQ 240135Z AUTO 01003KT 10SM SCT055 OVC075 13/13 A2969 RMK AO2  T01330131,,,7500.0,,,55.58,,N,29.04,28.41,,Overcast
KIGQ,05/24/2017 01:55 UTC,29.7,55.94,55.76,99.35,3.44,310.0,,13.0,,,,552.0,704.0,,,10.0,,KIGQ 240155Z AUTO 31003KT 10SM -RA SCT055 OVC070 13/13 A2970 RMK AO2 T01330132,,,7000.0,,,55.76,,NW,29.05,28.42,,Light Rain
KIGQ,05/24/2017 02:15 UTC,29.7,55.76,55.76,100.0,3.44,320.0,,,804.0,,,82.0,362.0,,,7.0,,KIGQ 240215Z AUTO 32003KT 7SM SCT008 SCT036 OVC080 13/13 A2970 RMK AO2 T01320132,,,8000.0,,,55.76,,NW,29.05,28.42,,Overcast
KIGQ,05/24/2017 02:35 UTC,29.7,55.76,55.58,99.35,0.0,0.0,,,,,,502.0,804.0,,,7.0,,KIGQ 240235Z AUTO 00000KT 7SM SCT050 OVC080 13/13 A2970 RMK AO2  T01320131,,,8000.0,,,55.58,,N,29.05,28.43,,Overcast
KIGQ,05/24/2017 02:55 UTC,29.7,55.58,55.58,100.0,0.0,0.0,,31.0,,,,502.0,804.0,,,5.0,,KIGQ 240255Z AUTO 00000KT 5SM BR SCT050 OVC080 13/13 A2970 RMK AO2  T01310131,,,8000.0,,,55.58,,N,29.05,28.43,,Mist
KIGQ,05/24/2017 03:15 UTC,29.69,55.4,55.4,100.0,3.44,340.0,,,,,,804.0,,,,10.0,,KIGQ 240315Z AUTO 34003KT 10SM OVC080 13/13 A2969 RMK AO2  T01300130,,,8000.0,,,55.4,,NNW,29.04,28.43,,Overcast
KIGQ,05/24/2017 03:35 UTC,29.68,55.4,55.4,100.0,0.0,0.0,,,,,,804.0,,,,10.0,,KIGQ 240335Z AUTO 00000KT 10SM OVC080 13/13 A2968 RMK AO2  T01300130,,,8000.0,,,55.4,,N,29.03,28.42,,Overcast
KIGQ,05/24/2017 03:55 UTC,29.67,55.4,55.4,100.0,4.61,40.0,,,,,,854.0,,,,7.0,,KIGQ 240355Z AUTO 04004KT 7SM OVC085 13/13 A2967 RMK AO2  T01300130,,,8500.0,,,55.4,,NE,29.02,28.41,,Overcast
KIGQ,05/24/2017 04:15 UTC,29.68,55.4,55.4,100.0,0.0,0.0,,13.0,,,,854.0,,,,7.0,,KIGQ 240415Z AUTO 00000KT 7SM -RA OVC085 13/13 A2968 RMK AO2  T01300130,,,8500.0,,,55.4,,N,29.03,28.42,,Light Rain
KIGQ,05/24/2017 04:35 UTC,29.68,55.4,54.86,98.06,3.44,20.0,,,,,,854.0,,,,10.0,,KIGQ 240435Z AUTO 02003KT 10SM OVC085 13/13 A2968 RMK AO2  T01300127,,,8500.0,,,54.86,,NNE,29.03,28.44,,Overcast
KIGQ,05/24/2017 04:55 UTC,29.67,54.86,54.5,98.7,3.44,20.0,,,,,,602.0,954.0,,,10.0,,KIGQ 240455Z AUTO 02003KT 10SM SCT060 OVC095 13/13 A2967 RMK AO2  T01270125,,,9500.0,,,54.5,,NNE,29.02,28.45,,Overcast
KIGQ,05/24/2017 05:15 UTC,29.67,54.68,54.5,99.35,0.0,0.0,,,,,,602.0,954.0,,,10.0,,KIGQ 240515Z AUTO 00000KT 10SM SCT060 OVC095 13/13 A2967 RMK AO2  T01260125,,,9500.0,,,54.5,,N,29.02,28.45,,Overcast
KIGQ,05/24/2017 05:35 UTC,29.66,54.68,54.68,100.0,3.44,20.0,,13.0,954.0,,,423.0,703.0,,,10.0,,KIGQ 240535Z AUTO 02003KT 10SM -RA BKN042 BKN070 OVC095 13/13  A2966 RMK AO2 T01260126,,,4200.0,,,54.68,,NNE,29.02,28.45,,Light Rain
KIGQ,05/24/2017 05:55 UTC,29.66,54.68,54.68,100.0,3.44,20.0,,1.0,754.0,,,423.0,503.0,,,7.0,,KIGQ 240555Z AUTO 02003KT 7SM RA BKN042 BKN050 OVC075 13/13 A2966 RMK AO2 T01260126 10135 20126 401800126,56.3,54.68,4200.0,64.4,54.68,54.68,,NNE,29.02,28.45,,Rain
KIGQ,05/24/2017 06:15 UTC,29.64,54.68,54.68,100.0,5.75,10.0,,1.0,754.0,,,402.0,603.0,,,5.0,,KIGQ 240615Z AUTO 01005KT 5SM RA SCT040 BKN060 OVC075 13/13 A2964 RMK AO2 T01260126,,,6000.0,,,54.68,,N,29.0,28.43,,Rain
KIGQ,05/24/2017 06:35 UTC,29.63,54.68,54.68,100.0,3.44,360.0,,1.0,754.0,,,382.0,602.0,,,4.0,,KIGQ 240635Z AUTO 36003KT 4SM RA SCT038 SCT060 OVC075 13/13 A2963 RMK AO2 T01260126,,,7500.0,,,54.68,,N,28.99,28.42,,Rain
KIGQ,05/24/2017 06:55 UTC,29.63,54.86,54.86,100.0,3.44,10.0,,1.0,,,,754.0,,,,3.0,,KIGQ 240655Z AUTO 01003KT 3SM RA OVC075 13/13 A2963 RMK AO2  T01270127,,,7500.0,,,54.86,,N,28.99,28.41,,Rain
KIGQ,05/24/2017 07:15 UTC,29.63,54.86,54.86,100.0,0.0,0.0,,1.0,754.0,,,42.0,603.0,,,2.5,,KIGQ 240715Z AUTO 00000KT 2 1/2SM RA SCT004 BKN060 OVC075 13/13  A2963 RMK AO2 T01270127,,,6000.0,,,54.86,,N,28.99,28.41,,Rain
KIGQ,05/24/2017 07:35 UTC,29.62,55.04,55.04,100.0,4.61,30.0,,1.0,474.0,0.02,,43.0,103.0,,,2.0,,KIGQ 240735Z AUTO 03004KT 2SM RA BKN004 BKN010 OVC047 13/13 A2962 RMK AO2 P0002 T01280128,,,400.0,,,55.04,,NNE,28.98,28.39,,Rain
KIGQ,05/24/2017 07:55 UTC,29.61,55.04,55.04,100.0,3.44,30.0,,1.0,754.0,0.02,,42.0,553.0,,,2.5,,KIGQ 240755Z AUTO 03003KT 2 1/2SM RA SCT004 BKN055 OVC075 13/13  A2961 RMK AO2 P0002 T01280128,,,5500.0,,,55.04,,NNE,28.97,28.38,,Rain
KIGQ,05/24/2017 08:15 UTC,29.61,54.68,54.68,100.0,3.44,360.0,,13.0,854.0,,,392.0,703.0,,,2.5,,KIGQ 240815Z AUTO 36003KT 2 1/2SM -RA SCT039 BKN070 OVC085 13/13  A2961 RMK AO2 T01260126,,,7000.0,,,54.68,,N,28.97,28.39,,Light Rain
KIGQ,05/24/2017 08:35 UTC,29.61,54.68,54.68,100.0,3.44,330.0,,14.0,654.0,0.01,,43.0,353.0,,,2.5,,KIGQ 240835Z AUTO 33003KT 2 1/2SM +RA BKN004 BKN035 OVC065 13/13  A2961 RMK AO2 P0001 T01260126,,,400.0,,,54.68,,NNW,28.97,28.39,,Heavy Rain
KIGQ,05/24/2017 08:55 UTC,29.61,54.5,54.5,100.0,6.91,360.0,,1.0,,0.04,0.06,44.0,,,,3.0,,KIGQ 240855Z AUTO 36006KT 3SM RA OVC004 13/13 A2961 RMK AO2 P0004  60006 T01250125,,,400.0,,,54.5,,N,28.97,28.4,,Rain
KIGQ,05/24/2017 09:15 UTC,29.61,54.14,54.14,100.0,6.91,360.0,,1.0,,,,44.0,,,,3.0,,KIGQ 240915Z AUTO 36006KT 3SM RA OVC004 12/12 A2961 RMK AO2  T01230123,,,400.0,,,54.14,,N,28.97,28.42,,Rain
KIGQ,05/24/2017 09:40 UTC,29.6,53.96,53.96,100.0,6.91,10.0,,13.0,,0.02,,44.0,,,,4.0,,KIGQ 240940Z AUTO 01006KT 4SM -RA OVC004 12/12 A2960 RMK AO2 P0002  T01220122,,,400.0,,,53.96,,N,28.96,28.42,,Light Rain
KIGQ,05/24/2017 09:55 UTC,29.59,53.96,53.96,100.0,6.91,360.0,,13.0,,0.02,,44.0,,,,4.0,,KIGQ 240955Z AUTO 36006KT 4SM -RA OVC004 12/12 A2959 RMK AO2 P0002  T01220122,,,400.0,,,53.96,,N,28.95,28.41,,Light Rain
KIGQ,05/24/2017 10:15 UTC,29.58,53.78,53.78,100.0,10.36,10.0,,13.0,704.0,,,43.0,323.0,,,5.0,,KIGQ 241015Z AUTO 01009KT 5SM -RA BKN004 BKN032 OVC070 12/12 A2958 RMK AO2 T01210121,,,400.0,,,53.78,,N,28.94,28.41,,Light Rain
KIGQ,05/24/2017 10:35 UTC,29.58,53.6,53.6,100.0,9.22,40.0,,13.0,704.0,,,43.0,193.0,,,5.0,,KIGQ 241035Z AUTO 04008KT 5SM -RA BKN004 BKN019 OVC070 12/12 A2958 RMK AO2 T01200120,,,400.0,,,53.6,,NE,28.94,28.42,,Light Rain
KIGQ,05/24/2017 10:55 UTC,29.58,53.6,53.6,100.0,9.22,20.0,17.27,31.0,,,,44.0,,,,5.0,,KIGQ 241055Z AUTO 02008G15KT 5SM BR OVC004 12/12 A2958 RMK AO2  T01200120,,,400.0,,,53.6,,NNE,28.94,28.42,,Mist
KIGQ,05/24/2017 11:20 UTC,29.58,53.6,53.6,100.0,9.22,10.0,,31.0,,,,64.0,,,,5.0,,KIGQ 241120Z AUTO 01008KT 5SM BR OVC006 12/12 A2958 RMK AO2  T01200120,,,600.0,,,53.6,,N,28.94,28.42,,Mist
KIGQ,05/24/2017 11:35 UTC,29.58,53.6,53.6,100.0,8.05,10.0,,31.0,,,,64.0,,,,5.0,,KIGQ 241135Z AUTO 01007KT 5SM BR OVC006 12/12 A2958 RMK AO2  T01200120,,,600.0,,,53.6,,N,28.94,28.42,,Mist
KIGQ,05/24/2017 11:55 UTC,29.58,53.6,53.6,100.0,6.91,10.0,,31.0,,,,64.0,,0.08,0.1,5.0,,KIGQ 241155Z AUTO 01006KT 5SM BR OVC006 12/12 A2958 RMK AO2 60008  70010 T01200120 10128 20120,55.04,53.6,600.0,,,53.6,,N,28.94,28.42,,Mist
KIGQ,05/24/2017 12:15 UTC,29.58,53.6,53.6,100.0,6.91,10.0,,31.0,,,,64.0,,,,4.0,,KIGQ 241215Z AUTO 01006KT 4SM BR OVC006 12/12 A2958 RMK AO2  T01200120,,,600.0,,,53.6,,N,28.94,28.42,,Mist
KIGQ,05/24/2017 12:35 UTC,29.57,53.6,53.6,100.0,8.05,20.0,,31.0,,,,64.0,,,,3.0,,KIGQ 241235Z AUTO 02007KT 3SM BR OVC006 12/12 A2957 RMK AO2  T01200120,,,600.0,,,53.6,,NNE,28.93,28.41,,Mist
KIGQ,05/24/2017 12:55 UTC,29.58,53.6,53.6,100.0,6.91,20.0,,31.0,,,,64.0,,,,3.0,,KIGQ 241255Z AUTO 02006KT 3SM BR OVC006 12/12 A2958 RMK AO2  T01200120,,,600.0,,,53.6,,NNE,28.94,28.42,,Mist
KIGQ,05/24/2017 13:15 UTC,29.58,53.6,53.6,100.0,4.61,10.0,,31.0,,,,64.0,,,,3.0,,KIGQ 241315Z AUTO 01004KT 3SM BR OVC006 12/12 A2958 RMK AO2  T01200120,,,600.0,,,53.6,,N,28.94,28.42,,Mist
KIGQ,05/24/2017 13:35 UTC,29.58,53.6,53.42,99.34,9.22,10.0,,31.0,,,,64.0,,,,4.0,,KIGQ 241335Z AUTO 01008KT 4SM BR OVC006 12/12 A2958 RMK AO2  T01200119,,,600.0,,,53.42,,N,28.94,28.43,,Mist
KIGQ,05/24/2017 13:55 UTC,29.57,53.96,53.6,98.69,6.91,20.0,,31.0,,,,64.0,,,,4.0,,KIGQ 241355Z AUTO 02006KT 4SM BR OVC006 12/12 A2957 RMK AO2  T01220120,,,600.0,,,53.6,,NNE,28.93,28.41,,Mist
KIGQ,05/24/2017 14:15 UTC,29.57,54.32,53.78,98.05,6.91,10.0,,31.0,,,,64.0,,,,5.0,,KIGQ 241415Z AUTO 01006KT 5SM BR OVC006 12/12 A2957 RMK AO2  T01240121,,,600.0,,,53.77,,N,28.93,28.39,,Mist
KIGQ,05/24/2017 14:35 UTC,29.56,54.5,53.78,97.41,6.91,10.0,,31.0,,,,64.0,,,,5.0,,KIGQ 241435Z AUTO 01006KT 5SM BR OVC006 13/12 A2956 RMK AO2  T01250121,,,600.0,,,53.77,,N,28.92,28.38,,Mist
KIGQ,05/24/2017 14:55 UTC,29.56,54.5,53.6,96.77,6.91,10.0,,31.0,,,,64.0,,,,5.0,,KIGQ 241455Z AUTO 01006KT 5SM BR OVC006 13/12 A2956 RMK AO2  T01250120,,,600.0,,,53.59,,N,28.92,28.39,,Mist
KIGQ,05/24/2017 15:15 UTC,29.56,54.5,53.42,96.13,9.22,10.0,,31.0,,,,84.0,,,,5.0,,KIGQ 241515Z AUTO 01008KT 5SM BR OVC008 13/12 A2956 RMK AO2  T01250119,,,800.0,,,53.41,,N,28.92,28.4,,Mist
KIGQ,05/24/2017 15:35 UTC,29.56,54.86,53.42,94.88,9.22,360.0,,,,,,84.0,,,,7.0,,KIGQ 241535Z AUTO 36008KT 7SM OVC008 13/12 A2956 RMK AO2  T01270119,,,800.0,,,53.41,,N,28.92,28.39,,Overcast
KIGQ,05/24/2017 15:55 UTC,29.56,54.5,52.88,94.25,9.22,360.0,,,,,,84.0,,,,7.0,,KIGQ 241555Z AUTO 36008KT 7SM OVC008 13/12 A2956 RMK AO2  T01250116,,,800.0,,,52.86,,N,28.92,28.42,,Overcast
KIGQ,05/24/2017 16:15 UTC,29.55,55.58,53.78,93.66,8.05,20.0,,,,,,84.0,,,,7.0,,KIGQ 241615Z AUTO 02007KT 7SM OVC008 13/12 A2955 RMK AO2  T01310121,,,800.0,,,53.76,,NNE,28.91,28.36,,Overcast
KIGQ,05/24/2017 16:35 UTC,29.55,55.4,53.42,93.04,9.22,360.0,,,,,,84.0,,,,10.0,,KIGQ 241635Z AUTO 36008KT 10SM OVC008 13/12 A2955 RMK AO2  T01300119,,,800.0,,,53.4,,N,28.91,28.38,,Overcast
KIGQ,05/24/2017 16:55 UTC,29.55,55.4,53.24,92.43,5.75,360.0,,,,,,84.0,,,,10.0,,KIGQ 241655Z AUTO 36005KT 10SM OVC008 13/12 A2955 RMK AO2  T01300118,,,800.0,,,53.22,,N,28.91,28.38,,Overcast
KIGQ,05/24/2017 17:15 UTC,29.55,55.4,53.24,92.43,9.22,10.0,,,,,,84.0,,,,10.0,,KIGQ 241715Z AUTO 01008KT 10SM OVC008 13/12 A2955 RMK AO2  T01300118,,,800.0,,,53.22,,N,28.91,28.38,,Overcast
KIGQ,05/24/2017 17:35 UTC,29.55,55.4,52.88,91.21,9.22,10.0,,,,,,104.0,,,,10.0,,KIGQ 241735Z AUTO 01008KT 10SM OVC010 13/12 A2955 RMK AO2 LTG DSNT  SE T01300116,,,1000.0,,,52.85,,N,28.91,28.4,,Overcast
KIGQ,05/24/2017 17:55 UTC,29.55,55.58,53.06,91.22,8.05,360.0,,,,,,104.0,,,,10.0,,KIGQ 241755Z AUTO 36007KT 10SM OVC010 13/12 A2955 RMK AO2  T01310117 10132 20120,55.76,53.6,1000.0,,,53.04,,N,28.91,28.39,,Overcast
KIGQ,05/24/2017 18:15 UTC,29.54,55.4,52.7,90.61,9.22,360.0,,,,,,104.0,,,,10.0,,KIGQ 241815Z AUTO 36008KT 10SM OVC010 13/12 A2954 RMK AO2  T01300115,,,1000.0,,,52.67,,N,28.9,28.39,,Overcast
KIGQ,05/24/2017 18:35 UTC,29.54,56.66,53.96,90.66,10.36,20.0,,,,,,104.0,,,,10.0,,KIGQ 241835Z AUTO 02009KT 10SM OVC010 14/12 A2954 RMK AO2  T01370122,,,1000.0,,,53.93,,NNE,28.9,28.33,,Overcast
KIGQ,05/24/2017 18:55 UTC,29.54,57.38,53.78,87.76,9.22,360.0,,,854.0,,,103.0,183.0,,,10.0,,KIGQ 241855Z AUTO 36008KT 10SM BKN010 BKN018 OVC085 14/12 A2954 RMK AO2 LTG DSNT E T01410121,,,1000.0,,,53.75,,N,28.9,28.33,,Overcast
KIGQ,05/24/2017 19:15 UTC,29.54,58.28,54.32,86.67,10.36,10.0,16.11,,853.0,,,122.0,182.0,,,10.0,,KIGQ 241915Z AUTO 01009G14KT 10SM SCT012 SCT018 BKN085 15/12 A2954 RMK AO2 T01460124,,,8500.0,,,54.29,,N,28.9,28.3,,Mostly Cloudy
KIGQ,05/24/2017 19:35 UTC,29.54,58.1,53.78,85.52,11.5,360.0,,,,,,122.0,952.0,,,10.0,,KIGQ 241935Z AUTO 36010KT 10SM SCT012 SCT095 15/12 A2954 RMK AO2  T01450121,,,,,,53.74,,N,28.9,28.32,,Partly Cloudy
KIGQ,05/24/2017 19:55 UTC,29.54,57.2,53.24,86.61,11.5,20.0,,,,,,1.0,,,,10.0,,KIGQ 241955Z AUTO 02010KT 10SM CLR 14/12 A2954 RMK AO2  T01400118,,,,,,53.21,,NNE,28.9,28.35,,Clear
KIGQ,05/24/2017 20:15 UTC,29.54,56.48,52.88,87.72,10.36,20.0,,,,,,802.0,,,,10.0,,KIGQ 242015Z AUTO 02009KT 10SM SCT080 14/12 A2954 RMK AO2  T01360116,,,,,,52.85,,NNE,28.9,28.38,,Partly Cloudy
KIGQ,05/24/2017 20:35 UTC,29.54,55.58,52.34,88.84,12.66,10.0,18.41,,,,,423.0,803.0,,,10.0,,KIGQ 242035Z AUTO 01011G16KT 10SM BKN042 BKN080 13/11 A2954 RMK AO2 T01310113,,,4200.0,,,52.31,,N,28.9,28.41,,Mostly Cloudy
KIGQ,05/24/2017 20:55 UTC,29.54,54.5,52.16,91.79,14.97,20.0,,13.0,604.0,,,112.0,403.0,,,10.0,,KIGQ 242055Z AUTO 02013KT 10SM -RA SCT011 BKN040 OVC060 13/11  A2954 RMK AO2 T01250112,,,4000.0,,,52.14,,NNE,28.9,28.42,,Light Rain
KIGQ,05/24/2017 21:15 UTC,29.55,53.6,52.34,95.48,12.66,20.0,17.27,13.0,604.0,,,112.0,382.0,,,10.0,,KIGQ 242115Z AUTO 02011G15KT 10SM -RA SCT011 SCT038 OVC060 12/11  A2955 RMK AO2 T01200113,,,6000.0,,,52.33,,NNE,28.91,28.44,,Light Rain
KIGQ,05/24/2017 21:35 UTC,29.55,53.24,52.34,96.75,8.05,20.0,,13.0,604.0,,,92.0,483.0,,,10.0,,KIGQ 242135Z AUTO 02007KT 10SM -RA SCT009 BKN048 OVC060 12/11  A2955 RMK AO2 T01180113,,,4800.0,,,52.33,,NNE,28.91,28.44,,Light Rain
KIGQ,05/24/2017 21:55 UTC,29.56,53.6,52.7,96.76,11.5,20.0,,13.0,484.0,,,92.0,413.0,,,10.0,,KIGQ 242155Z AUTO 02010KT 10SM -RA SCT009 BKN041 OVC048 12/12  A2956 RMK AO2 T01200115,,,4100.0,,,52.69,,NNE,28.92,28.43,,Light Rain
KIGQ,05/24/2017 22:15 UTC,29.56,52.34,51.8,98.03,8.05,10.0,,13.0,,,,93.0,414.0,,,10.0,,KIGQ 242215Z AUTO 01007KT 10SM -RA BKN009 OVC041 11/11 A2956 RMK AO2 T01130110,,,900.0,,,51.79,,N,28.92,28.48,,Light Rain
KIGQ,05/24/2017 22:35 UTC,29.56,51.8,51.44,98.68,10.36,10.0,16.11,13.0,,,,74.0,,,,10.0,,KIGQ 242235Z AUTO 01009G14KT 10SM -RA OVC007 11/11 A2956 RMK AO2  T01100108,,,700.0,,,51.44,,N,28.92,28.5,,Light Rain
KIGQ,05/24/2017 22:55 UTC,29.55,51.44,51.08,98.68,9.22,10.0,,1.0,,,,74.0,,,,7.0,,KIGQ 242255Z AUTO 01008KT 7SM RA OVC007 11/11 A2955 RMK AO2  T01080106,,,700.0,,,51.08,,N,28.91,28.51,,Rain
KIGQ,05/24/2017 23:15 UTC,29.55,50.9,50.9,100.0,11.5,360.0,16.11,1.0,,0.01,,74.0,,,,10.0,,KIGQ 242315Z AUTO 36010G14KT 10SM RA OVC007 11/11 A2955 RMK AO2  P0001 T01050105,,,700.0,,,50.9,,N,28.91,28.52,,Rain
KIGQ,05/24/2017 23:35 UTC,29.55,51.26,51.26,100.0,9.22,360.0,16.11,1.0,,0.01,,54.0,,,,7.0,,KIGQ 242335Z AUTO 36008G14KT 7SM RA OVC005 11/11 A2955 RMK AO2  P0001 T01070107,,,500.0,,,51.26,,N,28.91,28.5,,Rain
KIGQ,05/24/2017 23:55 UTC,29.55,51.08,51.08,100.0,9.22,360.0,17.27,13.0,,0.02,,54.0,,0.02,,7.0,,KIGQ 242355Z AUTO 36008G15KT 7SM -RA OVC005 11/11 A2955 RMK AO2  P0002 60002 T01060106 10149 20105,58.82,50.9,500.0,,,51.08,,N,28.91,28.51,,Light Rain
KIGQ,05/25/2017 00:15 UTC,29.55,50.72,50.72,100.0,9.22,10.0,18.41,1.0,,,,54.0,,,,7.0,,KIGQ 250015Z AUTO 01008G16KT 7SM RA OVC005 10/10 A2955 RMK AO2  T01040104,,,500.0,,,50.72,,N,28.91,28.53,,Rain
KIGQ,05/25/2017 00:35 UTC,29.55,50.18,50.18,100.0,10.36,350.0,20.71,13.0,,0.01,,54.0,,,,10.0,,KIGQ 250035Z AUTO 35009G18KT 10SM -RA OVC005 10/10 A2955 RMK AO2  P0001 T01010101,,,500.0,,,50.18,,N,28.91,28.55,,Light Rain
KIGQ,05/25/2017 00:55 UTC,29.55,49.64,49.64,100.0,10.36,350.0,17.27,13.0,,0.01,,54.0,,,,10.0,,KIGQ 250055Z AUTO 35009G15KT 10SM -RA OVC005 10/10 A2955 RMK AO2  P0001 T00980098,,,500.0,,,49.64,,N,28.91,28.58,,Light Rain
KIGQ,05/25/2017 01:15 UTC,29.55,50.0,50.0,100.0,9.22,350.0,,,,,,54.0,,,,10.0,,KIGQ 250115Z AUTO 35008KT 10SM OVC005 10/10 A2955 RMK AO2  T01000100,,,500.0,,,50.0,,N,28.91,28.56,,Overcast
KIGQ,05/25/2017 01:35 UTC,29.55,50.0,50.0,100.0,8.05,350.0,,,,,,54.0,,,,10.0,,KIGQ 250135Z AUTO 35007KT 10SM OVC005 10/10 A2955 RMK AO2  T01000100,,,500.0,,,50.0,,N,28.91,28.56,,Overcast
KIGQ,05/25/2017 01:55 UTC,29.54,50.0,50.0,100.0,8.05,360.0,16.11,,,,,54.0,,,,10.0,,KIGQ 250155Z AUTO 36007G14KT 10SM OVC005 10/10 A2954 RMK AO2  T01000100,,,500.0,,,50.0,,N,28.9,28.55,,Overcast
KIGQ,05/25/2017 02:15 UTC,29.55,50.0,50.0,100.0,8.05,340.0,,,,,,54.0,,,,10.0,,KIGQ 250215Z AUTO 34007KT 10SM OVC005 10/10 A2955 RMK AO2  T01000100,,,500.0,,,50.0,,NNW,28.91,28.56,,Overcast
KIGQ,05/25/2017 02:35 UTC,29.55,50.0,50.0,100.0,9.22,360.0,,,,,,54.0,,,,10.0,,KIGQ 250235Z AUTO 36008KT 10SM OVC005 10/10 A2955 RMK AO2  T01000100,,,500.0,,,50.0,,N,28.91,28.56,,Overcast
KIGQ,05/25/2017 02:55 UTC,29.55,50.0,50.0,100.0,6.91,350.0,,,,,0.01,54.0,,,,7.0,,KIGQ 250255Z AUTO 35006KT 7SM OVC005 10/10 A2955 RMK AO2 60001  T01000100,,,500.0,,,50.0,,N,28.91,28.56,,Overcast
KIGQ,05/25/2017 03:15 UTC,29.55,50.36,50.36,100.0,6.91,350.0,,,,,,54.0,,,,7.0,,KIGQ 250315Z AUTO 35006KT 7SM OVC005 10/10 A2955 RMK AO2  T01020102,,,500.0,,,50.36,,N,28.91,28.54,,Overcast
KIGQ,05/25/2017 03:35 UTC,29.55,50.9,50.9,100.0,6.91,360.0,,,,,,54.0,,,,7.0,,KIGQ 250335Z AUTO 36006KT 7SM OVC005 11/11 A2955 RMK AO2  T01050105,,,500.0,,,50.9,,N,28.91,28.52,,Overcast
KIGQ,05/25/2017 03:55 UTC,29.55,51.08,51.08,100.0,6.91,350.0,,,,,,54.0,,,,10.0,,KIGQ 250355Z AUTO 35006KT 10SM OVC005 11/11 A2955 RMK AO2  T01060106,,,500.0,,,51.08,,N,28.91,28.51,,Overcast
KIGQ,05/25/2017 04:15 UTC,29.55,51.08,51.08,100.0,8.05,350.0,,,,,,54.0,,,,10.0,,KIGQ 250415Z AUTO 35007KT 320V020 10SM OVC005 11/11 A2955 RMK AO2  T01060106,,,500.0,,,51.08,,N,28.91,28.51,,Overcast
KIGQ,05/25/2017 04:35 UTC,29.55,51.26,51.26,100.0,6.91,360.0,,,,,,54.0,,,,10.0,,KIGQ 250435Z AUTO 36006KT 10SM OVC005 11/11 A2955 RMK AO2  T01070107,,,500.0,,,51.26,,N,28.91,28.5,,Overcast
KIGQ,05/25/2017 04:55 UTC,29.54,51.26,51.26,100.0,5.75,350.0,,,,,,74.0,,,,10.0,,KIGQ 250455Z AUTO 35005KT 10SM OVC007 11/11 A2954 RMK AO2  T01070107,,,700.0,,,51.26,,N,28.9,28.49,,Overcast
KIGQ,05/25/2017 05:15 UTC,29.54,51.8,51.44,98.68,5.75,360.0,,,,,,74.0,,,,7.0,,KIGQ 250515Z AUTO 36005KT 7SM OVC007 11/11 A2954 RMK AO2  T01100108,,,700.0,,,51.44,,N,28.9,28.48,,Overcast
KIGQ,05/25/2017 05:35 UTC,29.54,51.98,51.8,99.34,5.75,330.0,,,,,,73.0,224.0,,,7.0,,KIGQ 250535Z AUTO 33005KT 7SM BKN007 OVC022 11/11 A2954 RMK AO2  T01110110,,,700.0,,,51.8,,NNW,28.9,28.46,,Overcast
KIGQ,05/25/2017 05:55 UTC,29.54,51.8,51.26,98.03,6.91,340.0,,,,,,72.0,224.0,0.01,,7.0,,KIGQ 250555Z AUTO 34006KT 7SM SCT007 OVC022 11/11 A2954 RMK AO2  60001 T01100107 10111 20098 401490098,51.98,49.64,2200.0,58.82,49.64,51.25,,NNW,28.9,28.49,,Overcast
KIGQ,05/25/2017 06:15 UTC,29.54,51.8,51.26,98.03,5.75,340.0,,,244.0,,,72.0,182.0,,,7.0,,KIGQ 250615Z AUTO 34005KT 7SM SCT007 SCT018 OVC024 11/11 A2954 RMK AO2 T01100107,,,2400.0,,,51.25,,NNW,28.9,28.49,,Overcast
KIGQ,05/25/2017 06:35 UTC,29.53,51.8,51.26,98.03,6.91,350.0,,,244.0,,,92.0,172.0,,,10.0,,KIGQ 250635Z AUTO 35006KT 10SM SCT009 SCT017 OVC024 11/11 A2953 RMK AO2 T01100107,,,2400.0,,,51.25,,N,28.89,28.48,,Overcast
KIGQ,05/25/2017 06:55 UTC,29.53,51.8,51.26,98.03,5.75,350.0,,,314.0,,,92.0,243.0,,,10.0,,KIGQ 250655Z AUTO 35005KT 10SM SCT009 BKN024 OVC031 11/11 A2953 RMK AO2 T01100107,,,2400.0,,,51.25,,N,28.89,28.48,,Overcast
KIGQ,05/25/2017 07:15 UTC,29.53,51.98,51.62,98.68,6.91,340.0,,,314.0,,,92.0,223.0,,,10.0,,KIGQ 250715Z AUTO 34006KT 10SM SCT009 BKN022 OVC031 11/11 A2953 RMK AO2 T01110109,,,2200.0,,,51.62,,NNW,28.89,28.46,,Overcast
KIGQ,05/25/2017 07:35 UTC,29.52,52.7,51.8,96.74,8.05,350.0,,,,,,224.0,,,,10.0,,KIGQ 250735Z AUTO 35007KT 10SM OVC022 12/11 A2952 RMK AO2  T01150110,,,2200.0,,,51.79,,N,28.88,28.44,,Overcast
KIGQ,05/25/2017 07:55 UTC,29.52,53.06,51.98,96.11,6.91,340.0,,,,,,224.0,,,,10.0,,KIGQ 250755Z AUTO 34006KT 10SM OVC022 12/11 A2952 RMK AO2  T01170111,,,2200.0,,,51.97,,NNW,28.88,28.43,,Overcast
KIGQ,05/25/2017 08:15 UTC,29.52,53.78,52.34,94.86,8.05,360.0,,,,,,204.0,,,,10.0,,KIGQ 250815Z AUTO 36007KT 10SM OVC020 12/11 A2952 RMK AO2  T01210113,,,2000.0,,,52.33,,N,28.88,28.41,,Overcast
KIGQ,05/25/2017 08:35 UTC,29.52,54.14,51.98,92.39,9.22,360.0,17.27,,,,,204.0,,,,10.0,,KIGQ 250835Z AUTO 36008G15KT 10SM OVC020 12/11 A2952 RMK AO2  T01230111,,,2000.0,,,51.96,,N,28.88,28.41,,Overcast
KIGQ,05/25/2017 08:55 UTC,29.52,53.78,51.98,93.61,8.05,360.0,,,,,,204.0,,,,10.0,,KIGQ 250855Z AUTO 36007KT 10SM OVC020 12/11 A2952 RMK AO2  T01210111,,,2000.0,,,51.96,,N,28.88,28.42,,Overcast
KIGQ,05/25/2017 09:15 UTC,29.53,53.6,51.8,93.6,8.05,360.0,,,,,,204.0,,,,10.0,,KIGQ 250915Z AUTO 36007KT 10SM OVC020 12/11 A2953 RMK AO2  T01200110,,,2000.0,,,51.78,,N,28.89,28.44,,Overcast
KIGQ,05/25/2017 09:35 UTC,29.53,53.6,51.26,91.76,11.5,360.0,17.27,,,,,184.0,,,,10.0,,KIGQ 250935Z AUTO 36010G15KT 10SM OVC018 12/11 A2953 RMK AO2  T01200107,,,1800.0,,,51.24,,N,28.89,28.46,,Overcast
KIGQ,05/25/2017 09:55 UTC,29.53,53.6,51.44,92.37,8.05,350.0,,,,,,184.0,,,,10.0,,KIGQ 250955Z AUTO 35007KT 10SM OVC018 12/11 A2953 RMK AO2  T01200108,,,1800.0,,,51.42,,N,28.89,28.45,,Overcast
KIGQ,05/25/2017 10:15 UTC,29.54,53.78,51.8,92.99,6.91,360.0,,,,,,113.0,184.0,,,10.0,,KIGQ 251015Z AUTO 36006KT 310V030 10SM BKN011 OVC018 12/11 A2954 RMK AO2 T01210110,,,1100.0,,,51.78,,N,28.9,28.45,,Overcast
KIGQ,05/25/2017 10:35 UTC,29.55,53.6,51.8,93.6,8.05,350.0,,,,,,114.0,,,,10.0,,KIGQ 251035Z AUTO 35007KT 10SM OVC011 12/11 A2955 RMK AO2  T01200110,,,1100.0,,,51.78,,N,28.91,28.46,,Overcast
KIGQ,05/25/2017 10:55 UTC,29.55,53.6,51.8,93.6,5.75,360.0,,,,,,114.0,,,,10.0,,KIGQ 251055Z AUTO 36005KT 10SM OVC011 12/11 A2955 RMK AO2  T01200110,,,1100.0,,,51.78,,N,28.91,28.46,,Overcast
KIGQ,05/25/2017 11:15 UTC,29.56,53.6,51.98,94.23,6.91,340.0,,,,,,114.0,,,,10.0,,KIGQ 251115Z AUTO 34006KT 10SM OVC011 12/11 A2956 RMK AO2  T01200111,,,1100.0,,,51.96,,NNW,28.92,28.46,,Overcast
KIGQ,05/25/2017 11:35 UTC,29.56,53.96,52.34,94.24,5.75,360.0,,,,,,114.0,,,,10.0,,KIGQ 251135Z AUTO 36005KT 10SM OVC011 12/11 A2956 RMK AO2  T01220113,,,1100.0,,,52.32,,N,28.92,28.44,,Overcast
KIGQ,05/25/2017 11:55 UTC,29.57,53.6,52.16,94.85,10.36,10.0,17.27,,,,,94.0,,,0.03,10.0,,KIGQ 251155Z AUTO 01009G15KT 10SM OVC009 12/11 A2957 RMK AO2 70003  T01200112 10123 20110,54.14,51.8,900.0,,,52.14,,N,28.93,28.46,,Overcast
KIGQ,05/25/2017 12:15 UTC,29.57,53.6,51.98,94.23,10.36,360.0,18.41,,,,,94.0,,,,10.0,,KIGQ 251215Z AUTO 36009G16KT 10SM OVC009 12/11 A2957 RMK AO2  T01200111,,,900.0,,,51.96,,N,28.93,28.47,,Overcast
KIGQ,05/25/2017 12:35 UTC,29.57,53.6,52.16,94.85,6.91,350.0,17.27,,,,,94.0,,,,7.0,,KIGQ 251235Z AUTO 35006G15KT 7SM OVC009 12/11 A2957 RMK AO2  T01200112,,,900.0,,,52.14,,N,28.93,28.46,,Overcast
KIGQ,05/25/2017 12:55 UTC,29.58,53.06,52.7,98.69,10.36,360.0,,1.0,,,,74.0,,,,2.5,,KIGQ 251255Z AUTO 36009KT 2 1/2SM RA OVC007 12/12 A2958 RMK AO2  T01170115,,,700.0,,,52.7,,N,28.94,28.46,,Rain
KIGQ,05/25/2017 13:15 UTC,29.59,52.7,52.7,100.0,10.36,350.0,18.41,2.0,,,,54.0,,,,2.0,,KIGQ 251315Z AUTO 35009G16KT 2SM DZ OVC005 12/12 A2959 RMK AO2  T01150115,,,500.0,,,52.7,,N,28.95,28.47,,Drizzle
KIGQ,05/25/2017 13:35 UTC,29.6,52.7,52.7,100.0,9.22,360.0,,2.0,,,,54.0,,,,2.5,,KIGQ 251335Z AUTO 36008KT 2 1/2SM DZ OVC005 12/12 A2960 RMK AO2  T01150115,,,500.0,,,52.7,,N,28.96,28.48,,Drizzle
KIGQ,05/25/2017 13:55 UTC,29.61,52.88,52.88,100.0,6.91,340.0,,2.0,,,,54.0,,,,2.0,,KIGQ 251355Z AUTO 34006KT 2SM DZ OVC005 12/12 A2961 RMK AO2  T01160116,,,500.0,,,52.88,,NNW,28.97,28.49,,Drizzle
KIGQ,05/25/2017 14:15 UTC,29.61,53.6,53.6,100.0,9.22,350.0,,2.0,,,,54.0,,,,1.75,,KIGQ 251415Z AUTO 35008KT 1 3/4SM DZ OVC005 12/12 A2961 RMK AO2  T01200120,,,500.0,,,53.6,,N,28.97,28.45,,Drizzle
KIGQ,05/25/2017 14:35 UTC,29.61,53.78,53.78,100.0,10.36,340.0,,2.0,,,,54.0,,,,2.5,,KIGQ 251435Z AUTO 34009KT 2 1/2SM DZ OVC005 12/12 A2961 RMK AO2  T01210121,,,500.0,,,53.78,,NNW,28.97,28.44,,Drizzle
KIGQ,05/25/2017 14:55 UTC,29.62,54.32,54.32,100.0,10.36,350.0,,17.0,,,,54.0,,,,4.0,,KIGQ 251455Z AUTO 35009KT 4SM -DZ OVC005 12/12 A2962 RMK AO2  T01240124,,,500.0,,,54.32,,N,28.98,28.42,,Light Drizzle
KIGQ,05/25/2017 15:15 UTC,29.62,54.5,54.5,100.0,6.91,350.0,16.11,31.0,,,,74.0,,,,4.0,,KIGQ 251515Z AUTO 35006G14KT 4SM BR OVC007 13/13 A2962 RMK AO2  T01250125,,,700.0,,,54.5,,N,28.98,28.41,,Mist
KIGQ,05/25/2017 15:35 UTC,29.62,55.4,54.68,97.42,12.66,350.0,16.11,,,,,74.0,,,,7.0,,KIGQ 251535Z AUTO 35011G14KT 7SM OVC007 13/13 A2962 RMK AO2  T01300126,,,700.0,,,54.67,,N,28.98,28.4,,Overcast
KIGQ,05/25/2017 15:55 UTC,29.62,55.58,53.96,94.28,10.36,350.0,,,,,,114.0,,,,10.0,,KIGQ 251555Z AUTO 35009KT 10SM OVC011 13/12 A2962 RMK AO2  T01310122,,,1100.0,,,53.95,,N,28.98,28.42,,Overcast
KIGQ,05/25/2017 16:15 UTC,29.63,56.3,54.14,92.46,8.05,350.0,,,,,,114.0,,,,10.0,,KIGQ 251615Z AUTO 35007KT 10SM OVC011 14/12 A2963 RMK AO2  T01350123,,,1100.0,,,54.12,,N,28.99,28.42,,Overcast
KIGQ,05/25/2017 16:35 UTC,29.63,57.92,55.04,90.12,8.05,350.0,,,,,,134.0,,,,10.0,,KIGQ 251635Z AUTO 35007KT 10SM OVC013 14/13 A2963 RMK AO2  T01440128,,,1300.0,,,55.01,,N,28.99,28.36,,Overcast
KIGQ,05/25/2017 16:55 UTC,29.63,58.28,54.68,87.81,10.36,20.0,,,,,,134.0,,,,10.0,,KIGQ 251655Z AUTO 02009KT 10SM OVC013 15/13 A2963 RMK AO2  T01460126,,,1300.0,,,54.65,,NNE,28.99,28.37,,Overcast
KIGQ,05/25/2017 17:15 UTC,29.64,58.46,54.68,87.24,8.05,20.0,,,,,,154.0,,,,10.0,,KIGQ 251715Z AUTO 02007KT 10SM OVC015 15/13 A2964 RMK AO2  T01470126,,,1500.0,,,54.65,,NNE,29.0,28.38,,Overcast
KIGQ,05/25/2017 17:35 UTC,29.63,60.08,55.04,83.43,8.05,10.0,,,,,,172.0,234.0,,,10.0,,KIGQ 251735Z AUTO 01007KT 10SM SCT017 OVC023 16/13 A2963 RMK AO2  T01560128,,,2300.0,,,55.0,,N,28.99,28.34,,Overcast
KIGQ,05/25/2017 17:55 UTC,29.63,62.06,56.84,83.02,8.05,340.0,,,,,,233.0,433.0,,,10.0,,KIGQ 251755Z AUTO 34007KT 10SM BKN023 BKN043 17/14 A2963 RMK AO2  T01670138 10167 20115,62.06,52.7,2300.0,,,56.8,,NNW,28.99,28.24,,Mostly Cloudy
KIGQ,05/25/2017 18:15 UTC,29.64,62.42,55.58,78.33,11.5,30.0,,,,,,213.0,,,,10.0,,KIGQ 251815Z AUTO 03010KT 10SM BKN021 17/13 A2964 RMK AO2  T01690131,,,2100.0,,,55.53,,NNE,29.0,28.3,,Mostly Cloudy
KIGQ,05/25/2017 18:35 UTC,29.64,62.6,56.48,80.41,10.36,10.0,16.11,,,,,213.0,,,,10.0,,KIGQ 251835Z AUTO 01009G14KT 10SM BKN021 17/14 A2964 RMK AO2  T01700136,,,2100.0,,,56.44,,N,29.0,28.26,,Mostly Cloudy
KIGQ,05/25/2017 18:55 UTC,29.64,63.86,56.84,77.94,5.75,350.0,,,423.0,,,232.0,292.0,,,10.0,,KIGQ 251855Z AUTO 35005KT 10SM SCT023 SCT029 BKN042 18/14 A2964 RMK AO2 T01770138,,,4200.0,,,56.8,,N,29.0,28.23,,Mostly Cloudy
KIGQ,05/25/2017 19:15 UTC,29.64,64.58,57.02,76.5,10.36,30.0,,,,,,302.0,404.0,,,10.0,,KIGQ 251915Z AUTO 03009KT 10SM SCT030 OVC040 18/14 A2964 RMK AO2  T01810139,,,4000.0,,,56.98,,NNE,29.0,28.21,,Overcast
KIGQ,05/25/2017 19:35 UTC,29.65,63.86,55.76,74.96,10.36,10.0,,,,,,364.0,,,,10.0,,KIGQ 251935Z AUTO 01009KT 10SM OVC036 18/13 A2965 RMK AO2  T01770132,,,3600.0,,,55.71,,N,29.01,28.29,,Overcast
KIGQ,05/25/2017 19:55 UTC,29.65,64.76,56.48,74.56,11.5,40.0,,,,,,363.0,,,,10.0,,KIGQ 251955Z AUTO 04010KT 10SM BKN036 18/14 A2965 RMK AO2  T01820136,,,3600.0,,,56.43,,NE,29.01,28.24,,Mostly Cloudy
KIGQ,05/25/2017 20:15 UTC,29.65,64.04,56.3,75.96,10.36,20.0,,,,,,382.0,,,,10.0,,KIGQ 252015Z AUTO 02009KT 10SM SCT038 18/14 A2965 RMK AO2  T01780135,,,,,,56.25,,NNE,29.01,28.26,,Partly Cloudy
KIGQ,05/25/2017 20:35 UTC,29.65,64.4,55.58,73.08,13.8,30.0,20.71,,,,,402.0,,,,10.0,,KIGQ 252035Z AUTO 03012G18KT 10SM SCT040 18/13 A2965 RMK AO2  T01800131,,,,,,55.53,,NNE,29.01,28.29,,Partly Cloudy
KIGQ,05/25/2017 20:55 UTC,29.65,64.4,55.58,73.08,13.8,30.0,19.57,,,,,382.0,,,,10.0,,KIGQ 252055Z AUTO 03012G17KT 10SM SCT038 18/13 A2965 RMK AO2  T01800131,,,,,,55.53,,NNE,29.01,28.29,,Partly Cloudy
KIGQ,05/25/2017 21:15 UTC,29.66,63.86,54.5,71.6,12.66,20.0,17.27,,,,,382.0,,,,10.0,,KIGQ 252115Z AUTO 02011G15KT 10SM SCT038 18/13 A2966 RMK AO2  T01770125,,,,,,54.44,,NNE,29.02,28.35,,Partly Cloudy
KIGQ,05/25/2017 21:35 UTC,29.66,62.24,54.5,75.79,11.5,10.0,18.41,,,,,382.0,472.0,,,10.0,,KIGQ 252135Z AUTO 01010G16KT 10SM SCT038 SCT047 17/13 A2966 RMK AO2 T01680125,,,,,,54.45,,N,29.02,28.37,,Partly Cloudy
KIGQ,05/25/2017 21:55 UTC,29.67,60.26,53.6,78.66,9.22,10.0,,,553.0,,,382.0,472.0,,,10.0,,KIGQ 252155Z AUTO 01008KT 10SM SCT038 SCT047 BKN055 16/12 A2967 RMK AO2 T01570120,,,5500.0,,,53.55,,N,29.02,28.43,,Mostly Cloudy
KIGQ,05/25/2017 22:15 UTC,29.68,60.08,53.6,79.16,10.36,360.0,18.41,,654.0,,,363.0,423.0,,,10.0,,KIGQ 252215Z AUTO 36009G16KT 10SM BKN036 BKN042 OVC065 16/12 A2968 RMK AO2 T01560120,,,3600.0,,,53.55,,N,29.03,28.44,,Overcast
KIGQ,05/25/2017 22:35 UTC,29.68,59.0,53.24,81.19,6.91,350.0,,,,,,343.0,424.0,,,10.0,,KIGQ 252235Z AUTO 35006KT 10SM BKN034 OVC042 15/12 A2968 RMK AO2  T01500118,,,3400.0,,,53.19,,N,29.03,28.47,,Overcast
KIGQ,05/25/2017 22:55 UTC,29.68,60.08,54.14,80.74,8.05,30.0,,,703.0,,,342.0,422.0,,,10.0,,KIGQ 252255Z AUTO 03007KT 10SM SCT034 SCT042 BKN070 16/12 A2968 RMK AO2 T01560123,,,7000.0,,,54.09,,NNE,29.03,28.42,,Mostly Cloudy
KIGQ,05/25/2017 23:15 UTC,29.68,59.54,53.6,80.7,8.05,20.0,,,,,,462.0,702.0,,,10.0,,KIGQ 252315Z AUTO 02007KT 10SM SCT046 SCT070 15/12 A2968 RMK AO2  T01530120,,,,,,53.55,,NNE,29.03,28.45,,Partly Cloudy
KIGQ,05/25/2017 23:35 UTC,29.69,58.64,53.6,83.34,10.36,20.0,,,,,,462.0,553.0,,,10.0,,KIGQ 252335Z AUTO 02009KT 10SM SCT046 BKN055 15/12 A2969 RMK AO2  T01480120,,,5500.0,,,53.56,,NNE,29.04,28.47,,Mostly Cloudy
KIGQ,05/25/2017 23:55 UTC,29.69,57.74,53.24,84.94,5.75,10.0,,,,,,422.0,552.0,,,10.0,,KIGQ 252355Z AUTO 01005KT 10SM SCT042 SCT055 14/12 A2969 RMK AO2  T01430118 10185 20143,65.3,57.74,,,,53.2,,N,29.04,28.49,,Partly Cloudy
KIGQ,05/26/2017 00:15 UTC,29.7,57.56,52.7,83.81,6.91,360.0,,,,,,453.0,603.0,,,10.0,,KIGQ 260015Z AUTO 36006KT 10SM BKN045 BKN060 14/12 A2970 RMK AO2  T01420115,,,4500.0,,,52.66,,N,29.05,28.52,,Mostly Cloudy
KIGQ,05/26/2017 00:35 UTC,29.71,57.38,52.7,84.36,6.91,30.0,,,,,,472.0,603.0,,,10.0,,KIGQ 260035Z AUTO 03006KT 10SM SCT047 BKN060 14/12 A2971 RMK AO2  T01410115,,,6000.0,,,52.66,,NNE,29.06,28.54,,Mostly Cloudy
KIGQ,05/26/2017 00:55 UTC,29.71,56.48,52.34,85.99,5.75,30.0,,,,,,1.0,,,,10.0,,KIGQ 260055Z AUTO 03005KT 10SM CLR 14/11 A2971 RMK AO2  T01360113,,,,,,52.3,,NNE,29.06,28.56,,Clear
KIGQ,05/26/2017 01:15 UTC,29.72,56.3,52.16,85.98,0.0,0.0,,,,,,1.0,,,,10.0,,KIGQ 260115Z AUTO 00000KT 10SM CLR 14/11 A2972 RMK AO2  T01350112,,,,,,52.12,,N,29.07,28.58,,Clear
KIGQ,05/26/2017 01:35 UTC,29.73,55.76,52.16,87.68,0.0,0.0,,,,,,1.0,,,,10.0,,KIGQ 260135Z AUTO 00000KT 10SM CLR 13/11 A2973 RMK AO2  T01320112,,,,,,52.13,,N,29.08,28.59,,Clear
KIGQ,05/26/2017 01:55 UTC,29.74,56.3,52.34,86.56,0.0,0.0,,,,,,1.0,,,,10.0,,KIGQ 260155Z AUTO 00000KT 10SM CLR 14/11 A2974 RMK AO2  T01350113,,,,,,52.3,,N,29.09,28.59,,Clear
KIGQ,05/26/2017 02:15 UTC,29.75,55.58,52.52,89.43,0.0,0.0,,,,,,1.0,,,,10.0,,KIGQ 260215Z AUTO 00000KT 10SM CLR 13/11 A2975 RMK AO2  T01310114,,,,,,52.49,,N,29.1,28.6,,Clear
KIGQ,05/26/2017 02:35 UTC,29.76,53.24,51.62,94.22,0.0,0.0,,,,,,1.0,,,,10.0,,KIGQ 260235Z AUTO 00000KT 10SM CLR 12/11 A2976 RMK AO2  T01180109,,,,,,51.6,,N,29.11,28.67,,Clear
KIGQ,05/26/2017 02:55 UTC,29.77,52.34,51.08,95.46,0.0,0.0,,,,,,1.0,,,,10.0,,KIGQ 260255Z AUTO 00000KT 10SM CLR 11/11 A2977 RMK AO2  T01130106,,,,,,51.07,,N,29.12,28.71,,Clear
KIGQ,05/26/2017 03:15 UTC,29.77,53.78,51.44,91.76,3.44,20.0,,,,,,1.0,,,,10.0,,KIGQ 260315Z AUTO 02003KT 10SM CLR 12/11 A2977 RMK AO2  T01210108,,,,,,51.41,,NNE,29.12,28.68,,Clear
KIGQ,05/26/2017 03:35 UTC,29.78,53.96,51.44,91.16,0.0,0.0,,,,,,1.0,,,,10.0,,KIGQ 260335Z AUTO 00000KT 10SM CLR 12/11 A2978 RMK AO2  T01220108,,,,,,51.41,,N,29.13,28.69,,Clear
KIGQ,05/26/2017 03:55 UTC,29.78,51.98,50.54,94.82,0.0,0.0,,,,,,1.0,,,,10.0,,KIGQ 260355Z AUTO 00000KT 10SM CLR 11/10 A2978 RMK AO2  T01110103,,,,,,50.52,,N,29.13,28.74,,Clear
KIGQ,05/26/2017 04:15 UTC,29.79,50.9,50.18,97.37,0.0,0.0,,,,,,1.0,,,,10.0,,KIGQ 260415Z AUTO 00000KT 10SM CLR 11/10 A2979 RMK AO2  T01050101,,,,,,50.17,,N,29.14,28.78,,Clear
KIGQ,05/26/2017 04:35 UTC,29.8,50.9,50.54,98.68,3.44,230.0,,,,,,1.0,,,,10.0,,KIGQ 260435Z AUTO 23003KT 10SM CLR 11/10 A2980 RMK AO2  T01050103,,,,,,50.54,,SW,29.15,28.78,,Clear
KIGQ,05/26/2017 04:55 UTC,29.8,49.64,49.64,100.0,0.0,0.0,,,,,,1.0,,,,10.0,,KIGQ 260455Z AUTO 00000KT 10SM CLR 10/10 A2980 RMK AO2  T00980098,,,,,,49.64,,N,29.15,28.82,,Clear
KIGQ,05/26/2017 05:15 UTC,29.8,49.64,49.64,100.0,0.0,0.0,,,,,,1.0,,,,10.0,,KIGQ 260515Z AUTO 00000KT 10SM CLR 10/10 A2980 RMK AO2  T00980098,,,,,,49.64,,N,29.15,28.82,,Clear
KIGQ,05/26/2017 05:35 UTC,29.8,48.74,48.74,100.0,0.0,0.0,,31.0,,,,1.0,,,,5.0,,KIGQ 260535Z AUTO 00000KT 5SM BR CLR 09/09 A2980 RMK AO2 LTG DSNT  W T00930093,,,,,,48.74,,N,29.15,28.86,,Mist
KIGQ,05/26/2017 05:55 UTC,29.8,48.74,48.74,100.0,0.0,0.0,,31.0,,,,1.0,,,,5.0,,KIGQ 260555Z AUTO 00000KT 5SM BR CLR 09/09 A2980 RMK AO2 T00930093  10144 20089 401850089,57.92,48.02,,65.3,48.02,48.74,,N,29.15,28.86,,Mist
KIGQ,05/26/2017 06:15 UTC,29.8,49.82,49.82,100.0,0.0,0.0,,31.0,,,,1.0,,,,5.0,,KIGQ 260615Z AUTO 00000KT 5SM BR CLR 10/10 A2980 RMK AO2  T00990099,,,,,,49.82,,N,29.15,28.81,,Mist
KIGQ,05/26/2017 06:35 UTC,29.8,49.46,49.46,100.0,0.0,0.0,,,,,,1.0,,,,7.0,,KIGQ 260635Z AUTO 00000KT 7SM CLR 10/10 A2980 RMK AO2  T00970097,,,,,,49.46,,N,29.15,28.83,,Clear
KIGQ,05/26/2017 06:55 UTC,29.81,48.02,48.02,100.0,0.0,0.0,,31.0,,,,1.0,,,,5.0,,KIGQ 260655Z AUTO 00000KT 5SM BR CLR 09/09 A2981 RMK AO2  T00890089,,,,,,48.02,,N,29.16,28.9,,Mist
KIGQ,05/26/2017 07:15 UTC,29.81,48.92,48.92,100.0,0.0,0.0,,31.0,,,,1.0,,,,4.0,,KIGQ 260715Z AUTO 00000KT 4SM BR CLR 09/09 A2981 RMK AO2  T00940094,,,,,,48.92,,N,29.16,28.86,,Mist
KIGQ,05/26/2017 07:35 UTC,29.82,49.1,49.1,100.0,0.0,0.0,,31.0,,,,1.0,,,,5.0,,KIGQ 260735Z AUTO 00000KT 5SM BR CLR 10/10 A2982 RMK AO2  T00950095,,,,,,49.1,,N,29.17,28.86,,Mist
KIGQ,05/26/2017 07:55 UTC,29.82,48.92,48.92,100.0,3.44,240.0,,,,,,1.0,,,,7.0,,KIGQ 260755Z AUTO 24003KT 7SM CLR 09/09 A2982 RMK AO2  T00940094,,,,,,48.92,,WSW,29.17,28.87,,Clear
KIGQ,05/26/2017 08:15 UTC,29.82,48.2,48.2,100.0,0.0,0.0,,,,,,1.0,,,,7.0,,KIGQ 260815Z AUTO 00000KT 7SM CLR 09/09 A2982 RMK AO2  T00900090,,,,,,48.2,,N,29.17,28.9,,Clear
KIGQ,05/26/2017 08:35 UTC,29.83,49.1,49.1,100.0,0.0,0.0,,31.0,,,,1.0,,,,5.0,,KIGQ 260835Z AUTO 00000KT 5SM BR CLR 10/10 A2983 RMK AO2  T00950095,,,,,,49.1,,N,29.18,28.87,,Mist
KIGQ,05/26/2017 08:55 UTC,29.84,48.74,48.74,100.0,0.0,0.0,,,,,,1.0,,,,7.0,,KIGQ 260855Z AUTO 00000KT 7SM CLR 09/09 A2984 RMK AO2  T00930093,,,,,,48.74,,N,29.19,28.9,,Clear
KIGQ,05/26/2017 09:15 UTC,29.83,48.2,48.2,100.0,0.0,0.0,,31.0,,,,75.0,,,,1.5,,KIGQ 260915Z AUTO 00000KT 1 1/2SM BR VV007 09/09 A2983 RMK AO2  T00900090,,,700.0,,,48.2,,N,29.18,28.91,,Mist
KIGQ,05/26/2017 09:35 UTC,29.84,49.1,49.1,100.0,0.0,0.0,,31.0,,,,1.0,,,,5.0,,KIGQ 260935Z AUTO 00000KT 5SM BR CLR 10/10 A2984 RMK AO2  T00950095,,,,,,49.1,,N,29.19,28.88,,Mist
KIGQ,05/26/2017 09:55 UTC,29.84,48.2,48.2,100.0,0.0,0.0,,31.0,,,,1202.0,,,,4.0,,KIGQ 260955Z AUTO 00000KT 4SM BR SCT120 09/09 A2984 RMK AO2  T00900090,,,,,,48.2,,N,29.19,28.92,,Mist
KIGQ,05/26/2017 10:15 UTC,29.85,48.56,48.56,100.0,0.0,0.0,,31.0,,,,1.0,,,,3.0,,KIGQ 261015Z AUTO 00000KT 3SM BR CLR 09/09 A2985 RMK AO2  T00920092,,,,,,48.56,,N,29.2,28.92,,Mist
KIGQ,05/26/2017 10:35 UTC,29.86,48.2,48.2,100.0,0.0,0.0,,31.0,,,,1.0,,,,3.0,,KIGQ 261035Z AUTO 00000KT 3SM BR CLR 09/09 A2986 RMK AO2  T00900090,,,,,,48.2,,N,29.21,28.94,,Mist
KIGQ,05/26/2017 10:55 UTC,29.86,47.48,47.48,100.0,0.0,0.0,,31.0,,,,75.0,,,,1.25,,KIGQ 261055Z AUTO 00000KT 1 1/4SM BR VV007 09/09 A2986 RMK AO2  T00860086,,,700.0,,,47.48,,N,29.21,28.97,,Mist
KIGQ,05/26/2017 11:15 UTC,29.86,48.92,48.92,100.0,0.0,0.0,,31.0,,,,1.0,,,,4.0,,KIGQ 261115Z AUTO 00000KT 4SM BR CLR 09/09 A2986 RMK AO2  T00940094,,,,,,48.92,,N,29.21,28.91,,Mist
KIGQ,05/26/2017 11:35 UTC,29.87,51.08,51.08,100.0,0.0,0.0,,31.0,,,,1.0,,,,4.0,,KIGQ 261135Z AUTO 00000KT 4SM BR CLR 11/11 A2987 RMK AO2  T01060106,,,,,,51.08,,N,29.22,28.83,,Mist
KIGQ,05/26/2017 11:55 UTC,29.86,52.34,52.34,100.0,0.0,0.0,,31.0,,,,1.0,,,,3.0,,KIGQ 261155Z AUTO 00000KT 3SM BR CLR 11/11 A2986 RMK AO2 T01130113  10113 20086,52.34,47.48,,,,52.34,,N,29.21,28.76,,Mist
KIGQ,05/26/2017 12:15 UTC,29.87,54.86,53.6,95.51,0.0,0.0,,31.0,,,,1.0,,,,5.0,,KIGQ 261215Z AUTO 00000KT 5SM BR CLR 13/12 A2987 RMK AO2  T01270120,,,,,,53.59,,N,29.22,28.69,,Mist
KIGQ,05/26/2017 12:35 UTC,29.87,56.48,54.14,91.86,0.0,0.0,,,,,,1.0,,,,10.0,,KIGQ 261235Z AUTO 00000KT 10SM CLR 14/12 A2987 RMK AO2  T01360123,,,,,,54.12,,N,29.22,28.65,,Clear
KIGQ,05/26/2017 12:55 UTC,29.88,58.28,55.58,90.73,0.0,0.0,,,,,,1.0,,,,10.0,,KIGQ 261255Z AUTO 00000KT 10SM CLR 15/13 A2988 RMK AO2  T01460131,,,,,,55.56,,N,29.23,28.58,,Clear
KIGQ,05/26/2017 13:15 UTC,29.88,60.62,56.12,85.12,0.0,0.0,,,,,,1.0,,,,10.0,,KIGQ 261315Z AUTO 00000KT 10SM CLR 16/13 A2988 RMK AO2  T01590134,,,,,,56.09,,N,29.23,28.53,,Clear
KIGQ,05/26/2017 13:35 UTC,29.87,62.6,56.12,79.37,0.0,0.0,,,,,,1.0,,,,10.0,,KIGQ 261335Z AUTO 00000KT 10SM CLR 17/13 A2987 RMK AO2  T01700134,,,,,,56.08,,N,29.22,28.5,,Clear
KIGQ,05/26/2017 13:55 UTC,29.88,63.86,56.3,76.44,3.44,130.0,,,,,,1.0,,,,10.0,,KIGQ 261355Z AUTO 13003KT 10SM CLR 18/14 A2988 RMK AO2  T01770135,,,,,,56.26,,SE,29.23,28.49,,Clear
KIGQ,05/26/2017 14:15 UTC,29.89,64.4,56.84,76.48,3.44,130.0,,,,,,1.0,,,,10.0,,KIGQ 261415Z AUTO 13003KT 10SM CLR 18/14 A2989 RMK AO2  T01800138,,,,,,56.79,,SE,29.24,28.47,,Clear
KIGQ,05/26/2017 14:35 UTC,29.89,66.02,57.92,75.16,3.44,150.0,,,,,,1.0,,,,10.0,,KIGQ 261435Z AUTO 15003KT 10SM CLR 19/14 A2989 RMK AO2  T01890144,,,,,,57.88,,SSE,29.24,28.4,,Clear
KIGQ,05/26/2017 14:55 UTC,29.89,65.3,58.28,78.06,6.91,200.0,,,,,,1.0,,,,10.0,,KIGQ 261455Z AUTO 20006KT 10SM CLR 19/15 A2989 RMK AO2  T01850146,,,,,,58.24,,SSW,29.24,28.39,,Clear
KIGQ,05/26/2017 15:15 UTC,29.89,65.66,58.1,76.6,4.61,180.0,,,,,,1.0,,,,10.0,,KIGQ 261515Z AUTO 18004KT 10SM CLR 19/15 A2989 RMK AO2  T01870145,,,,,,58.06,,S,29.24,28.39,,Clear
KIGQ,05/26/2017 15:35 UTC,29.87,65.3,58.1,77.56,4.61,140.0,,13.0,,,,1202.0,,,,10.0,,KIGQ 261535Z AUTO 14004KT 10SM -RA SCT120 19/15 A2987 RMK AO2  T01850145,,,,,,58.06,,SE,29.22,28.37,,Light Rain
KIGQ,05/26/2017 15:55 UTC,29.84,68.36,59.9,74.42,10.36,100.0,,,,,,1.0,,,,10.0,,KIGQ 261555Z AUTO 10009KT 10SM CLR 20/16 A2984 RMK AO2  T02020155,,,,,,59.86,,E,29.19,28.22,,Clear
KIGQ,05/26/2017 16:15 UTC,29.83,67.28,58.82,74.32,9.22,110.0,,,,,,1.0,,,,10.0,,KIGQ 261615Z AUTO 11008KT 10SM CLR 20/15 A2983 RMK AO2  T01960149,,,,,,58.78,,ESE,29.18,28.27,,Clear
KIGQ,05/26/2017 16:35 UTC,29.83,69.26,59.36,70.79,9.22,90.0,,,,,,1.0,,,,10.0,,KIGQ 261635Z AUTO 09008KT 10SM CLR 21/15 A2983 RMK AO2  T02070152,,,,,,59.32,,E,29.18,28.22,,Clear
KIGQ,05/26/2017 16:55 UTC,29.82,70.34,60.26,70.45,10.36,140.0,,,,,,1.0,,,,10.0,,KIGQ 261655Z AUTO 14009KT 10SM CLR 21/16 A2982 RMK AO2  T02130157,,,,,,60.23,,SE,29.17,28.15,,Clear
KIGQ,05/26/2017 17:15 UTC,29.82,69.8,59.72,70.39,10.36,100.0,,,,,,1202.0,,,,10.0,,KIGQ 261715Z AUTO 10009KT 10SM SCT120 21/15 A2982 RMK AO2  T02100154,,,,,,59.68,,E,29.17,28.19,,Partly Cloudy
KIGQ,05/26/2017 17:35 UTC,29.83,69.98,58.82,67.75,10.36,90.0,,,,,,1202.0,,,,10.0,,KIGQ 261735Z AUTO 09009KT 10SM SCT120 21/15 A2983 RMK AO2  T02110149,,,,,,58.78,,E,29.18,28.24,,Partly Cloudy
KIGQ,05/26/2017 17:55 UTC,29.83,68.72,58.64,70.28,9.22,110.0,,,,,,1002.0,1202.0,,,10.0,,KIGQ 261755Z AUTO 11008KT 10SM SCT100 SCT120 20/15 A2983 RMK AO2  T02040148 10213 20115,70.34,52.7,,,,58.6,,ESE,29.18,28.27,,Partly Cloudy
KIGQ,05/26/2017 18:15 UTC,29.83,70.52,59.54,68.25,8.05,130.0,,,,,,1102.0,,,,10.0,,KIGQ 261815Z AUTO 13007KT 10SM SCT110 21/15 A2983 RMK AO2  T02140153,,,,,,59.5,,SE,29.18,28.2,,Partly Cloudy
KIGQ,05/26/2017 18:55 UTC,29.84,73.22,60.44,64.33,6.91,140.0,,,,,,1102.0,,,,10.0,,KIGQ 261855Z AUTO 14006KT 10SM SCT110 23/16 A2984 RMK AO2  T02290158,,,,,,60.41,,SE,29.19,28.13,,Partly Cloudy
KIGQ,05/26/2017 19:15 UTC,29.82,72.68,59.72,63.85,10.36,130.0,,,,,,1202.0,,,,10.0,,KIGQ 261915Z AUTO 13009KT 10SM SCT120 23/15 A2982 RMK AO2 LTG DSNT  W T02260154,,,,,,59.69,,SE,29.17,28.16,,Partly Cloudy
KIGQ,05/26/2017 19:35 UTC,29.82,74.3,60.08,61.25,8.05,140.0,,,,,,1203.0,,,,10.0,,KIGQ 261935Z AUTO 14007KT 100V180 10SM BKN120 24/16 A2982 RMK AO2  LTG DSNT W T02350156,,,12000.0,,,60.05,,SE,29.17,28.12,,Mostly Cloudy
KIGQ,05/26/2017 19:55 UTC,29.82,73.76,59.9,61.97,5.75,110.0,,,,,,442.0,1203.0,,,10.0,,KIGQ 261955Z AUTO 11005KT 10SM SCT044 BKN120 23/16 A2982 RMK AO2  LTG DSNT W T02320155,,,12000.0,,,59.87,,ESE,29.17,28.14,,Mostly Cloudy
KIGQ,05/26/2017 20:15 UTC,29.82,73.58,58.1,58.47,9.22,140.0,,,,,,462.0,1103.0,,,10.0,,KIGQ 262015Z AUTO 14008KT 10SM SCT046 BKN110 23/15 A2982 RMK AO2  T02310145,,,11000.0,,,58.07,,SE,29.17,28.23,,Mostly Cloudy
KIGQ,05/26/2017 20:35 UTC,29.81,72.5,57.92,60.24,6.91,150.0,,,1103.0,,,502.0,653.0,,,10.0,,KIGQ 262035Z AUTO 15006KT 10SM SCT050 BKN065 BKN110 23/14 A2981 RMK AO2 T02250144,,,6500.0,,,57.89,,SSE,29.16,28.24,,Mostly Cloudy
KIGQ,05/26/2017 20:55 UTC,29.8,71.42,58.82,64.52,5.75,130.0,,,,,,653.0,804.0,,,10.0,,KIGQ 262055Z AUTO 13005KT 10SM VCTSRA BKN065 OVC080 22/15 A2980 RMK AO2 LTG DSNT SW AND W T02190149,,,6500.0,,,58.78,,SE,29.15,28.2,,Overcast
KIGQ,05/26/2017 21:15 UTC,29.81,65.12,59.9,83.23,5.75,360.0,,1.0,,0.01,,553.0,704.0,,,5.0,,KIGQ 262115Z AUTO 36005KT 5SM RA BKN055 OVC070 18/16 A2981 RMK AO2  LTG DSNT S THRU NW P0001 T01840155,,,5500.0,,,59.87,,N,29.16,28.22,,Rain
KIGQ,05/26/2017 21:35 UTC,29.8,62.06,59.18,90.29,6.91,30.0,,14.0,804.0,0.04,,502.0,703.0,,,7.0,,KIGQ 262135Z AUTO 03006KT 7SM +RA SCT050 BKN070 OVC080 17/15 A2980 RMK AO2 LTG DSNT SW P0004 T01670151,,,7000.0,,,59.16,,NNE,29.15,28.29,,Heavy Rain
KIGQ,05/26/2017 21:55 UTC,29.8,60.98,59.18,93.8,8.05,60.0,,,754.0,0.08,,432.0,503.0,,,5.0,,KIGQ 262155Z AUTO 06007KT 5SM VCTSRA SCT043 BKN050 OVC075 16/15  A2980 RMK AO2 LTG DSNT SE THRU W P0008 T01610151,,,5000.0,,,59.17,,ENE,29.15,28.3,,Overcast
KIGQ,05/26/2017 22:15 UTC,29.79,60.08,59.18,96.85,4.61,70.0,,66.0,1104.0,0.04,,372.0,653.0,,,5.0,,KIGQ 262215Z AUTO 07004KT 5SM TSRA SCT037 BKN065 OVC110 16/15  A2979 RMK AO2 LTG DSNT ALQS P0004 T01560151,,,6500.0,,,59.17,,ENE,29.14,28.3,,Thunderstorm
KIGQ,05/26/2017 22:35 UTC,29.79,60.44,59.9,98.1,5.75,60.0,,,1104.0,0.04,,363.0,483.0,,,10.0,,KIGQ 262235Z AUTO 06005KT 10SM -VCTSRA BKN036 BKN048 OVC110 16/16  A2979 RMK AO2 LTG DSNT SE AND S P0004 T01580155,,,3600.0,,,59.9,,ENE,29.14,28.26,,Overcast
KIGQ,05/26/2017 22:55 UTC,29.78,60.98,60.8,99.36,5.75,80.0,,13.0,504.0,0.04,,332.0,432.0,,,7.0,,KIGQ 262255Z AUTO 08005KT 7SM -RA SCT033 SCT043 OVC050 16/16 A2978 RMK AO2 LTG DSNT E P0004 T01610160,,,5000.0,,,60.8,,E,29.13,28.2,,Light Rain
KIGQ,05/26/2017 23:15 UTC,29.77,60.98,60.8,99.36,4.61,60.0,,,,,,503.0,754.0,,,7.0,,KIGQ 262315Z AUTO 06004KT 7SM BKN050 OVC075 16/16 A2977 RMK AO2  LTG DSNT SE T01610160,,,5000.0,,,60.8,,ENE,29.12,28.19,,Overcast
KIGQ,05/26/2017 23:35 UTC,29.78,62.42,60.8,94.44,8.05,120.0,25.32,,904.0,,,112.0,503.0,,,10.0,,KIGQ 262335Z AUTO 12007G22KT 10SM SCT011 BKN050 OVC090 17/16 A2978 RMK AO2 T01690160,,,5000.0,,,60.79,,ESE,29.13,28.18,,Overcast
KIGQ,05/26/2017 23:55 UTC,29.82,61.34,59.18,92.62,6.91,350.0,,,604.0,,,173.0,263.0,0.12,,10.0,,KIGQ 262355Z AUTO 35006KT 10SM BKN017 BKN026 OVC060 16/15 A2982 RMK AO2 LTG DSNT E THRU S 60012 T01630151 10235 20155,74.3,59.9,1700.0,,,59.17,,N,29.17,28.32,,Overcast
KIGQ,05/27/2017 00:15 UTC,29.82,58.28,56.66,94.34,9.22,50.0,,,354.0,,,223.0,303.0,,,10.0,,KIGQ 270015Z AUTO 05008KT 10SM BKN022 BKN030 OVC035 15/14 A2982 RMK AO2 LTG DSNT SE T01460137,,,2200.0,,,56.65,,NE,29.17,28.47,,Overcast
KIGQ,05/27/2017 00:35 UTC,29.82,58.1,55.76,91.91,8.05,50.0,,,,,,222.0,354.0,,,10.0,,KIGQ 270035Z AUTO 05007KT 10SM SCT022 OVC035 15/13 A2982 RMK AO2  LTG DSNT E T01450132,,,3500.0,,,55.74,,NE,29.17,28.51,,Overcast
KIGQ,05/27/2017 00:55 UTC,29.82,57.38,55.58,93.71,8.05,50.0,,,704.0,,,352.0,453.0,,,10.0,,KIGQ 270055Z AUTO 05007KT 10SM SCT035 BKN045 OVC070 14/13 A2982 RMK AO2 T01410131,,,4500.0,,,55.56,,NE,29.17,28.53,,Overcast
KIGQ,05/27/2017 01:15 UTC,29.82,57.2,55.4,93.7,6.91,40.0,,,804.0,,,482.0,703.0,,,10.0,,KIGQ 270115Z AUTO 04006KT 10SM SCT048 BKN070 OVC080 14/13 A2982 RMK AO2 T01400130,,,7000.0,,,55.38,,NE,29.17,28.54,,Overcast
KIGQ,05/27/2017 01:35 UTC,29.82,56.48,55.22,95.54,8.05,40.0,,,,,,703.0,,,,10.0,,KIGQ 270135Z AUTO 04007KT 10SM BKN070 14/13 A2982 RMK AO2 LTG DSNT  SE AND S T01360129,,,7000.0,,,55.21,,NE,29.17,28.56,,Mostly Cloudy
KIGQ,05/27/2017 01:55 UTC,29.83,56.48,55.22,95.54,9.22,40.0,,,803.0,,,312.0,383.0,,,10.0,,KIGQ 270155Z AUTO 04008KT 10SM SCT031 BKN038 BKN080 14/13 A2983 RMK AO2 T01360129,,,3800.0,,,55.21,,NE,29.18,28.57,,Mostly Cloudy
KIGQ,05/27/2017 02:15 UTC,29.83,56.66,55.4,95.54,9.22,30.0,,,,,,293.0,384.0,,,10.0,,KIGQ 270215Z AUTO 03008KT 10SM BKN029 OVC038 14/13 A2983 RMK AO2  T01370130,,,2900.0,,,55.39,,NNE,29.18,28.56,,Overcast
KIGQ,05/27/2017 02:35 UTC,29.84,56.3,55.4,96.79,8.05,30.0,,,,,,294.0,,,,10.0,,KIGQ 270235Z AUTO 03007KT 10SM OVC029 14/13 A2984 RMK AO2  T01350130,,,2900.0,,,55.39,,NNE,29.19,28.57,,Overcast
KIGQ,05/27/2017 02:55 UTC,29.84,55.58,54.86,97.42,6.91,30.0,,,,,,72.0,274.0,,,10.0,,KIGQ 270255Z AUTO 03006KT 10SM SCT007 OVC027 13/13 A2984 RMK AO2  T01310127,,,2700.0,,,54.85,,NNE,29.19,28.6,,Overcast
KIGQ,05/27/2017 03:15 UTC,29.84,55.4,54.5,96.78,11.5,40.0,16.11,,,,,72.0,254.0,,,10.0,,KIGQ 270315Z AUTO 04010G14KT 10SM SCT007 OVC025 13/13 A2984 RMK AO2 T01300125,,,2500.0,,,54.49,,NE,29.19,28.62,,Overcast
KIGQ,05/27/2017 03:35 UTC,29.85,55.4,54.86,98.06,8.05,40.0,,,,,,73.0,254.0,,,10.0,,KIGQ 270335Z AUTO 04007KT 10SM BKN007 OVC025 13/13 A2985 RMK AO2  T01300127,,,700.0,,,54.86,,NE,29.2,28.61,,Overcast
KIGQ,05/27/2017 03:55 UTC,29.84,55.76,55.4,98.7,8.05,60.0,,,,,,72.0,254.0,,,10.0,,KIGQ 270355Z AUTO 06007KT 10SM SCT007 OVC025 13/13 A2984 RMK AO2  T01320130,,,2500.0,,,55.4,,ENE,29.19,28.58,,Overcast
KIGQ,05/27/2017 04:15 UTC,29.84,55.76,55.4,98.7,6.91,30.0,,,384.0,,,253.0,293.0,,,10.0,,KIGQ 270415Z AUTO 03006KT 10SM BKN025 BKN029 OVC038 13/13 A2984 RMK AO2 T01320130,,,2500.0,,,55.4,,NNE,29.19,28.58,,Overcast
KIGQ,05/27/2017 04:35 UTC,29.85,55.94,55.4,98.06,5.75,20.0,,,384.0,,,273.0,313.0,,,10.0,,KIGQ 270435Z AUTO 02005KT 10SM BKN027 BKN031 OVC038 13/13 A2985 RMK AO2 T01330130,,,2700.0,,,55.39,,NNE,29.2,28.58,,Overcast
KIGQ,05/27/2017 04:55 UTC,29.85,55.58,55.04,98.06,4.61,20.0,,,,,,293.0,354.0,,,10.0,,KIGQ 270455Z AUTO 02004KT 10SM BKN029 OVC035 13/13 A2985 RMK AO2  T01310128,,,2900.0,,,55.04,,NNE,29.2,28.6,,Overcast
KIGQ,05/27/2017 05:15 UTC,29.85,55.76,55.22,98.06,3.44,360.0,,,,,,293.0,424.0,,,10.0,,KIGQ 270515Z AUTO 36003KT 10SM BKN029 OVC042 13/13 A2985 RMK AO2  T01320129,,,2900.0,,,55.21,,N,29.2,28.59,,Overcast
KIGQ,05/27/2017 05:35 UTC,29.85,55.58,55.04,98.06,4.61,10.0,,,504.0,,,342.0,423.0,,,10.0,,KIGQ 270535Z AUTO 01004KT 10SM SCT034 BKN042 OVC050 13/13 A2985 RMK AO2 T01310128,,,4200.0,,,55.04,,N,29.2,28.6,,Overcast
KIGQ,05/27/2017 05:55 UTC,29.85,55.58,55.22,98.7,3.44,20.0,,,503.0,,,272.0,422.0,,,10.0,,KIGQ 270555Z AUTO 02003KT 10SM SCT027 SCT042 BKN050 13/13 A2985 RMK AO2 T01310129 10162 20130 402350086,61.16,55.4,5000.0,74.3,47.48,55.22,,NNE,29.2,28.6,,Mostly Cloudy
KIGQ,05/27/2017 06:15 UTC,29.85,55.4,55.4,100.0,3.44,20.0,,,,,,233.0,483.0,,,7.0,,KIGQ 270615Z AUTO 02003KT 7SM BKN023 BKN048 13/13 A2985 RMK AO2  T01300130,,,2300.0,,,55.4,,NNE,29.2,28.59,,Mostly Cloudy
KIGQ,05/27/2017 06:35 UTC,29.85,55.4,55.4,100.0,4.61,20.0,,,,,,233.0,,,,7.0,,KIGQ 270635Z AUTO 02004KT 7SM BKN023 13/13 A2985 RMK AO2  T01300130,,,2300.0,,,55.4,,NNE,29.2,28.59,,Mostly Cloudy
KIGQ,05/27/2017 06:55 UTC,29.86,55.76,55.76,100.0,4.61,360.0,,,,,,122.0,253.0,,,7.0,,KIGQ 270655Z AUTO 36004KT 7SM SCT012 BKN025 13/13 A2986 RMK AO2  T01320132,,,2500.0,,,55.76,,N,29.21,28.58,,Mostly Cloudy
KIGQ,05/27/2017 07:15 UTC,29.86,56.12,56.12,100.0,0.0,0.0,,,,,,53.0,124.0,,,7.0,,KIGQ 270715Z AUTO 00000KT 7SM BKN005 OVC012 13/13 A2986 RMK AO2  T01340134,,,500.0,,,56.12,,N,29.21,28.56,,Overcast
KIGQ,05/27/2017 07:35 UTC,29.86,55.94,55.94,100.0,3.44,10.0,,,,,,74.0,,,,7.0,,KIGQ 270735Z AUTO 01003KT 7SM OVC007 13/13 A2986 RMK AO2  T01330133,,,700.0,,,55.94,,N,29.21,28.57,,Overcast
KIGQ,05/27/2017 07:55 UTC,29.86,55.94,55.94,100.0,4.61,360.0,,,,,,94.0,,,,7.0,,KIGQ 270755Z AUTO 36004KT 7SM OVC009 13/13 A2986 RMK AO2  T01330133,,,900.0,,,55.94,,N,29.21,28.57,,Overcast
KIGQ,05/27/2017 08:15 UTC,29.86,55.04,54.86,99.35,4.61,20.0,,,,,,94.0,,,,10.0,,KIGQ 270815Z AUTO 02004KT 10SM OVC009 13/13 A2986 RMK AO2  T01280127,,,900.0,,,54.86,,NNE,29.21,28.63,,Overcast
KIGQ,05/27/2017 08:35 UTC,29.86,55.4,55.04,98.7,3.44,50.0,,,,,,94.0,,,,7.0,,KIGQ 270835Z AUTO 05003KT 7SM OVC009 13/13 A2986 RMK AO2  T01300128,,,900.0,,,55.04,,NE,29.21,28.62,,Overcast
KIGQ,05/27/2017 08:55 UTC,29.86,55.4,55.04,98.7,3.44,10.0,,,,,,94.0,,,,7.0,,KIGQ 270855Z AUTO 01003KT 7SM OVC009 13/13 A2986 RMK AO2  T01300128,,,900.0,,,55.04,,N,29.21,28.62,,Overcast
KIGQ,05/27/2017 09:15 UTC,29.86,55.58,55.4,99.35,4.61,20.0,,31.0,,,,94.0,,,,5.0,,KIGQ 270915Z AUTO 02004KT 5SM BR OVC009 13/13 A2986 RMK AO2  T01310130,,,900.0,,,55.4,,NNE,29.21,28.6,,Mist
KIGQ,05/27/2017 09:35 UTC,29.86,55.58,55.58,100.0,5.75,360.0,,31.0,194.0,,,52.0,93.0,,,5.0,,KIGQ 270935Z AUTO 36005KT 5SM BR SCT005 BKN009 OVC019 13/13 A2986 RMK AO2 T01310131,,,900.0,,,55.58,,N,29.21,28.59,,Mist
KIGQ,05/27/2017 10:15 UTC,29.87,55.4,55.4,100.0,5.75,10.0,,31.0,,,,54.0,,,,5.0,,KIGQ 271015Z AUTO 01005KT 5SM BR OVC005 13/13 A2987 RMK AO2  T01300130,,,500.0,,,55.4,,N,29.22,28.61,,Mist
KIGQ,05/27/2017 10:35 UTC,29.88,54.86,54.86,100.0,4.61,10.0,,,,,,54.0,,,,7.0,,KIGQ 271035Z AUTO 01004KT 7SM OVC005 13/13 A2988 RMK AO2  T01270127,,,500.0,,,54.86,,N,29.23,28.65,,Overcast
KIGQ,05/27/2017 10:55 UTC,29.89,54.5,54.14,98.7,4.61,10.0,,,,,,54.0,,,,10.0,,KIGQ 271055Z AUTO 01004KT 10SM OVC005 13/12 A2989 RMK AO2  T01250123,,,500.0,,,54.14,,N,29.24,28.69,,Overcast
KIGQ,05/27/2017 11:15 UTC,29.89,54.68,54.14,98.05,4.61,30.0,,,,,,73.0,164.0,,,10.0,,KIGQ 271115Z AUTO 03004KT 10SM BKN007 OVC016 13/12 A2989 RMK AO2  T01260123,,,700.0,,,54.13,,NNE,29.24,28.69,,Overcast
KIGQ,05/27/2017 11:35 UTC,29.9,55.4,54.5,96.78,4.61,20.0,,,304.0,,,72.0,172.0,,,10.0,,KIGQ 271135Z AUTO 02004KT 10SM SCT007 SCT017 OVC030 13/13 A2990 RMK AO2 T01300125,,,3000.0,,,54.49,,NNE,29.25,28.68,,Overcast
KIGQ,05/27/2017 11:55 UTC,29.9,55.58,54.5,96.15,3.44,360.0,,,,,,72.0,303.0,,0.12,10.0,,KIGQ 271155Z AUTO 36003KT 10SM SCT007 BKN030 13/13 A2990 RMK AO2  70012 T01310125 10135 20125,56.3,54.5,3000.0,,,54.49,,N,29.25,28.68,,Mostly Cloudy
KIGQ,05/27/2017 12:15 UTC,29.92,57.38,54.86,91.29,0.0,0.0,,,302.0,,,72.0,132.0,,,10.0,,KIGQ 271215Z AUTO 00000KT 10SM SCT007 SCT013 SCT030 14/13 A2992 RMK AO2 T01410127,,,,,,54.84,,N,29.27,28.66,,Partly Cloudy
KIGQ,05/27/2017 12:35 UTC,29.93,57.56,55.04,91.29,5.75,20.0,,,,,,132.0,283.0,,,10.0,,KIGQ 271235Z AUTO 02005KT 10SM SCT013 BKN028 14/13 A2993 RMK AO2  T01420128,,,2800.0,,,55.02,,NNE,29.28,28.66,,Mostly Cloudy
KIGQ,05/27/2017 12:55 UTC,29.92,58.82,55.94,90.16,3.44,360.0,,,,,,283.0,,,,10.0,,KIGQ 271255Z AUTO 36003KT 10SM BKN028 15/13 A2992 RMK AO2  T01490133,,,2800.0,,,55.92,,N,29.27,28.6,,Mostly Cloudy
KIGQ,05/27/2017 13:15 UTC,29.92,59.72,56.12,87.88,4.61,10.0,,,,,,92.0,283.0,,,10.0,,KIGQ 271315Z AUTO 01004KT 10SM SCT009 BKN028 15/13 A2992 RMK AO2  T01540134,,,2800.0,,,56.09,,N,29.27,28.58,,Mostly Cloudy
KIGQ,05/27/2017 13:35 UTC,29.93,60.26,57.02,89.06,4.61,10.0,,,,,,114.0,,,,10.0,,KIGQ 271335Z AUTO 01004KT 10SM OVC011 16/14 A2993 RMK AO2  T01570139,,,1100.0,,,57.0,,N,29.28,28.54,,Overcast
KIGQ,05/27/2017 13:55 UTC,29.93,61.16,57.38,87.39,4.61,360.0,,,,,,113.0,,,,10.0,,KIGQ 271355Z AUTO 36004KT 10SM BKN011 16/14 A2993 RMK AO2  T01620141,,,1100.0,,,57.35,,N,29.28,28.52,,Mostly Cloudy
KIGQ,05/27/2017 14:15 UTC,29.93,62.78,58.28,85.25,4.61,10.0,,,,,,132.0,,,,10.0,,KIGQ 271415Z AUTO 01004KT 10SM SCT013 17/15 A2993 RMK AO2  T01710146,,,,,,58.25,,N,29.28,28.46,,Partly Cloudy
KIGQ,05/27/2017 14:35 UTC,29.93,64.04,58.64,82.62,6.91,70.0,,,,,,163.0,,,,10.0,,KIGQ 271435Z AUTO 07006KT 10SM BKN016 18/15 A2993 RMK AO2  T01780148,,,1600.0,,,58.61,,ENE,29.28,28.42,,Mostly Cloudy
KIGQ,05/27/2017 14:55 UTC,29.93,64.4,59.0,82.65,5.75,30.0,,,,,,184.0,,,,7.0,,KIGQ 271455Z AUTO 03005KT 7SM OVC018 18/15 A2993 RMK AO2  T01800150,,,1800.0,,,58.97,,NNE,29.28,28.4,,Overcast
KIGQ,05/27/2017 15:15 UTC,29.92,64.76,59.54,83.2,6.91,40.0,,,,,,183.0,,,,10.0,,KIGQ 271515Z AUTO 04006KT 10SM BKN018 18/15 A2992 RMK AO2  T01820153,,,1800.0,,,59.51,,NE,29.27,28.36,,Mostly Cloudy
KIGQ,05/27/2017 15:35 UTC,29.92,65.48,59.54,81.15,8.05,70.0,,,,,,164.0,,,,10.0,,KIGQ 271535Z AUTO 07007KT 10SM OVC016 19/15 A2992 RMK AO2  T01860153,,,1600.0,,,59.51,,ENE,29.27,28.35,,Overcast
KIGQ,05/27/2017 15:55 UTC,29.92,65.48,59.36,80.63,6.91,60.0,,,,,,183.0,,,,10.0,,KIGQ 271555Z AUTO 06006KT 10SM BKN018 19/15 A2992 RMK AO2  T01860152,,,1800.0,,,59.33,,ENE,29.27,28.36,,Mostly Cloudy
KIGQ,05/27/2017 16:15 UTC,29.91,66.38,59.54,78.66,6.91,80.0,,,,,,182.0,,,,10.0,,KIGQ 271615Z AUTO 08006KT 10SM SCT018 19/15 A2991 RMK AO2  T01910153,,,,,,59.51,,E,29.26,28.33,,Partly Cloudy
KIGQ,05/27/2017 16:35 UTC,29.91,67.1,60.08,78.21,8.05,60.0,,,,,,1.0,,,,10.0,,KIGQ 271635Z AUTO 06007KT 10SM CLR 20/16 A2991 RMK AO2  T01950156,,,,,,60.04,,ENE,29.26,28.29,,Clear
KIGQ,05/27/2017 16:55 UTC,29.91,67.64,60.44,77.76,6.91,30.0,,,,,,1.0,,,,10.0,,KIGQ 271655Z AUTO 03006KT 10SM CLR 20/16 A2991 RMK AO2  T01980158,,,,,,60.41,,NNE,29.26,28.27,,Clear
KIGQ,05/27/2017 17:15 UTC,29.92,68.18,60.44,76.33,4.61,80.0,,,,,,1.0,,,,10.0,,KIGQ 271715Z AUTO 08004KT 10SM CLR 20/16 A2992 RMK AO2  T02010158,,,,,,60.41,,E,29.27,28.27,,Clear
KIGQ,05/27/2017 17:35 UTC,29.91,68.72,60.8,75.89,0.0,0.0,,,,,,1.0,,,,10.0,,KIGQ 271735Z AUTO 00000KT 10SM CLR 20/16 A2991 RMK AO2  T02040160,,,,,,60.77,,N,29.26,28.23,,Clear
KIGQ,05/27/2017 17:55 UTC,29.91,69.26,61.16,75.46,5.75,30.0,,,,,,1.0,,,,10.0,,KIGQ 271755Z AUTO 03005KT 10SM CLR 21/16 A2991 RMK AO2 T02070162  10209 20131,69.62,55.58,,,,61.13,,NNE,29.26,28.21,,Clear
KIGQ,05/27/2017 18:15 UTC,29.91,69.62,60.8,73.6,4.61,10.0,,,,,,1.0,,,,10.0,,KIGQ 271815Z AUTO 01004KT 10SM CLR 21/16 A2991 RMK AO2  T02090160,,,,,,60.77,,N,29.26,28.22,,Clear
KIGQ,05/27/2017 18:35 UTC,29.91,69.8,61.16,74.08,3.44,20.0,,,,,,1.0,,,,10.0,,KIGQ 271835Z AUTO 02003KT 10SM CLR 21/16 A2991 RMK AO2  T02100162,,,,,,61.13,,NNE,29.26,28.2,,Clear
KIGQ,05/27/2017 18:55 UTC,29.91,70.52,60.98,71.83,3.44,360.0,,,,,,1.0,,,,10.0,,KIGQ 271855Z AUTO 36003KT 10SM CLR 21/16 A2991 RMK AO2  T02140161,,,,,,60.95,,N,29.26,28.2,,Clear
KIGQ,05/27/2017 19:15 UTC,29.91,70.88,60.98,70.96,3.44,80.0,,,,,,1.0,,,,10.0,,KIGQ 271915Z AUTO 08003KT 10SM CLR 22/16 A2991 RMK AO2  T02160161,,,,,,60.95,,E,29.26,28.2,,Clear
KIGQ,05/27/2017 19:35 UTC,29.89,72.14,61.52,69.31,3.44,80.0,,,,,,1.0,,,,10.0,,KIGQ 271935Z AUTO 08003KT 10SM CLR 22/16 A2989 RMK AO2  T02230164,,,,,,61.49,,E,29.24,28.13,,Clear
KIGQ,05/27/2017 19:55 UTC,29.89,72.32,61.88,69.77,4.61,30.0,,,,,,1.0,,,,10.0,,KIGQ 271955Z AUTO 03004KT 10SM CLR 22/17 A2989 RMK AO2  T02240166,,,,,,61.85,,NNE,29.24,28.11,,Clear
KIGQ,05/27/2017 20:15 UTC,29.88,72.5,62.42,70.68,6.91,40.0,,,,,,1.0,,,,10.0,,KIGQ 272015Z AUTO 04006KT 10SM CLR 23/17 A2988 RMK AO2  T02250169,,,,,,62.4,,NE,29.23,28.07,,Clear
KIGQ,05/27/2017 20:35 UTC,29.86,72.32,62.6,71.56,8.05,40.0,,,,,,1.0,,,,10.0,,KIGQ 272035Z AUTO 04007KT 10SM CLR 22/17 A2986 RMK AO2  T02240170,,,,,,62.57,,NE,29.21,28.04,,Clear
KIGQ,05/27/2017 20:55 UTC,29.86,72.32,62.24,70.66,5.75,50.0,,,,,,1.0,,,,7.0,,KIGQ 272055Z AUTO 05005KT 7SM CLR 22/17 A2986 RMK AO2  T02240168,,,,,,62.21,,NE,29.21,28.06,,Clear
KIGQ,05/27/2017 21:15 UTC,29.87,71.78,62.06,71.51,5.75,50.0,,,,,,1.0,,,,10.0,,KIGQ 272115Z AUTO 05005KT 10SM CLR 22/17 A2987 RMK AO2  T02210167,,,,,,62.03,,NE,29.22,28.09,,Clear
KIGQ,05/27/2017 21:35 UTC,29.88,71.6,60.98,69.25,4.61,30.0,,,,,,1.0,,,,10.0,,KIGQ 272135Z AUTO 03004KT 10SM CLR 22/16 A2988 RMK AO2  T02200161,,,,,,60.95,,NNE,29.23,28.16,,Clear
KIGQ,05/27/2017 21:55 UTC,29.88,70.52,59.9,69.13,8.05,20.0,,,,,,1.0,,,,10.0,,KIGQ 272155Z AUTO 02007KT 10SM CLR 21/16 A2988 RMK AO2  T02140155,,,,,,59.86,,NNE,29.23,28.23,,Clear
KIGQ,05/27/2017 22:15 UTC,29.88,70.34,60.26,70.45,9.22,40.0,,,,,,1.0,,,,10.0,,KIGQ 272215Z AUTO 04008KT 10SM CLR 21/16 A2988 RMK AO2  T02130157,,,,,,60.23,,NE,29.23,28.21,,Clear
KIGQ,05/27/2017 22:35 UTC,29.88,70.16,60.26,70.88,5.75,50.0,,,,,,1.0,,,,10.0,,KIGQ 272235Z AUTO 05005KT 10SM CLR 21/16 A2988 RMK AO2  T02120157,,,,,,60.22,,NE,29.23,28.22,,Clear
KIGQ,05/27/2017 22:55 UTC,29.85,69.44,59.54,70.81,9.22,60.0,,,,,,1.0,,,,10.0,,KIGQ 272255Z AUTO 06008KT 10SM CLR 21/15 A2985 RMK AO2  T02080153,,,,,,59.5,,ENE,29.2,28.23,,Clear
KIGQ,05/27/2017 23:15 UTC,29.87,68.72,59.18,71.65,5.75,50.0,,,,,,1.0,,,,10.0,,KIGQ 272315Z AUTO 05005KT 10SM CLR 20/15 A2987 RMK AO2 LTG DSNT S  T02040151,,,,,,59.14,,NE,29.22,28.28,,Clear
KIGQ,05/27/2017 23:35 UTC,29.86,68.0,59.18,73.44,5.75,50.0,,,,,,1.0,,,,10.0,,KIGQ 272335Z AUTO 05005KT 10SM CLR 20/15 A2986 RMK AO2  T02000151,,,,,,59.14,,NE,29.21,28.28,,Clear
KIGQ,05/27/2017 23:55 UTC,29.87,66.74,59.36,77.19,5.75,40.0,,,,,,1.0,,,,7.0,,KIGQ 272355Z AUTO 04005KT 7SM CLR 19/15 A2987 RMK AO2 T01930152  10226 20193,72.68,66.74,,,,59.32,,NE,29.22,28.29,,Clear
KIGQ,05/28/2017 00:15 UTC,29.87,65.66,58.82,78.6,5.75,40.0,,,,,,1.0,,,,10.0,,KIGQ 280015Z AUTO 04005KT 10SM CLR 19/15 A2987 RMK AO2  T01870149,,,,,,58.78,,NE,29.22,28.33,,Clear
KIGQ,05/28/2017 00:35 UTC,29.86,64.58,58.46,80.56,5.75,40.0,,,,,,1.0,,,,10.0,,KIGQ 280035Z AUTO 04005KT 10SM CLR 18/15 A2986 RMK AO2  T01810147,,,,,,58.42,,NE,29.21,28.35,,Clear
KIGQ,05/28/2017 00:55 UTC,29.86,63.32,57.92,82.57,6.91,30.0,,,,,,1.0,,,,10.0,,KIGQ 280055Z AUTO 03006KT 10SM CLR 17/14 A2986 RMK AO2  T01740144,,,,,,57.88,,NNE,29.21,28.4,,Clear
KIGQ,05/28/2017 01:15 UTC,29.84,62.42,57.2,83.05,4.61,50.0,,,,,,1.0,,,,10.0,,KIGQ 280115Z AUTO 05004KT 10SM CLR 17/14 A2984 RMK AO2  T01690140,,,,,,57.17,,NE,29.19,28.42,,Clear
KIGQ,05/28/2017 01:35 UTC,29.84,61.7,56.84,84.08,6.91,60.0,,,,,,1.0,,,,10.0,,KIGQ 280135Z AUTO 06006KT 10SM CLR 17/14 A2984 RMK AO2  T01650138,,,,,,56.8,,ENE,29.19,28.44,,Clear
KIGQ,05/28/2017 01:55 UTC,29.84,61.16,56.66,85.15,5.75,80.0,,,,,,1.0,,,,10.0,,KIGQ 280155Z AUTO 08005KT 10SM CLR 16/14 A2984 RMK AO2  T01620137,,,,,,56.63,,E,29.19,28.46,,Clear
KIGQ,05/28/2017 02:15 UTC,29.84,60.8,56.12,84.57,4.61,80.0,,,,,,1.0,,,,10.0,,KIGQ 280215Z AUTO 08004KT 10SM CLR 16/13 A2984 RMK AO2  T01600134,,,,,,56.08,,E,29.19,28.49,,Clear
KIGQ,05/28/2017 02:35 UTC,29.83,60.44,55.94,85.1,4.61,70.0,,,,,,1.0,,,,10.0,,KIGQ 280235Z AUTO 07004KT 10SM CLR 16/13 A2983 RMK AO2  T01580133,,,,,,55.9,,ENE,29.18,28.49,,Clear
KIGQ,05/28/2017 02:55 UTC,29.85,60.62,56.3,85.67,3.44,80.0,,,,,,1.0,,,,10.0,,KIGQ 280255Z AUTO 08003KT 10SM CLR 16/14 A2985 RMK AO2  T01590135,,,,,,56.27,,E,29.2,28.49,,Clear
KIGQ,05/28/2017 03:15 UTC,29.86,60.8,56.12,84.57,0.0,0.0,,,,,,1.0,,,,10.0,,KIGQ 280315Z AUTO 00000KT 10SM CLR 16/13 A2986 RMK AO2  T01600134,,,,,,56.08,,N,29.21,28.51,,Clear
KIGQ,05/28/2017 03:35 UTC,29.85,60.26,56.3,86.77,3.44,80.0,,,,,,1.0,,,,10.0,,KIGQ 280335Z AUTO 08003KT 10SM CLR 16/14 A2985 RMK AO2  T01570135,,,,,,56.27,,E,29.2,28.5,,Clear
KIGQ,05/28/2017 03:55 UTC,29.85,59.9,56.48,88.46,0.0,0.0,,,,,,1.0,,,,10.0,,KIGQ 280355Z AUTO 00000KT 10SM CLR 16/14 A2985 RMK AO2  T01550136,,,,,,56.45,,N,29.2,28.49,,Clear
KIGQ,05/28/2017 04:15 UTC,29.84,60.08,56.48,87.9,0.0,0.0,,,,,,1.0,,,,10.0,,KIGQ 280415Z AUTO 00000KT 10SM CLR 16/14 A2984 RMK AO2  T01560136,,,,,,56.45,,N,29.19,28.48,,Clear
KIGQ,05/28/2017 04:35 UTC,29.83,60.08,56.48,87.9,0.0,0.0,,,,,,1.0,,,,10.0,,KIGQ 280435Z AUTO 00000KT 10SM CLR 16/14 A2983 RMK AO2  T01560136,,,,,,56.45,,N,29.18,28.47,,Clear
KIGQ,05/28/2017 04:55 UTC,29.84,60.44,56.48,86.78,0.0,0.0,,,,,,1.0,,,,10.0,,KIGQ 280455Z AUTO 00000KT 10SM CLR 16/14 A2984 RMK AO2  T01580136,,,,,,56.45,,N,29.19,28.48,,Clear
KIGQ,05/28/2017 05:15 UTC,29.83,58.64,56.84,93.74,0.0,0.0,,,,,,1.0,,,,10.0,,KIGQ 280515Z AUTO 00000KT 10SM CLR 15/14 A2983 RMK AO2  T01480138,,,,,,56.82,,N,29.18,28.47,,Clear
KIGQ,05/28/2017 05:35 UTC,29.83,59.36,56.84,91.36,0.0,0.0,,,,,,1.0,,,,10.0,,KIGQ 280535Z AUTO 00000KT 10SM CLR 15/14 A2983 RMK AO2  T01520138,,,,,,56.82,,N,29.18,28.46,,Clear
KIGQ,05/28/2017 05:55 UTC,29.83,59.0,56.84,92.54,0.0,0.0,,,,,,1.0,,,,10.0,,KIGQ 280555Z AUTO 00000KT 10SM CLR 15/14 A2983 RMK AO2 T01500138  10192 20148 402260125,66.56,58.64,,72.68,54.5,56.82,,N,29.18,28.47,,Clear
KIGQ,05/28/2017 06:15 UTC,29.82,58.1,56.48,94.34,0.0,0.0,,,,,,1.0,,,,10.0,,KIGQ 280615Z AUTO 00000KT 10SM CLR 15/14 A2982 RMK AO2  T01450136,,,,,,56.47,,N,29.17,28.48,,Clear
KIGQ,05/28/2017 06:35 UTC,29.82,57.38,56.48,96.81,0.0,0.0,,,,,,1.0,,,,7.0,,KIGQ 280635Z AUTO 00000KT 7SM CLR 14/14 A2982 RMK AO2  T01410136,,,,,,56.47,,N,29.17,28.49,,Clear
KIGQ,05/28/2017 06:55 UTC,29.81,56.12,56.12,100.0,0.0,0.0,,,,,,1.0,,,,7.0,,KIGQ 280655Z AUTO 00000KT 7SM CLR 13/13 A2981 RMK AO2  T01340134,,,,,,56.12,,N,29.16,28.51,,Clear
KIGQ,05/28/2017 07:15 UTC,29.79,57.02,56.84,99.35,0.0,0.0,,,,,,1.0,,,,7.0,,KIGQ 280715Z AUTO 00000KT 7SM CLR 14/14 A2979 RMK AO2  T01390138,,,,,,56.84,,N,29.14,28.45,,Clear
KIGQ,05/28/2017 07:35 UTC,29.78,56.66,56.12,98.07,0.0,0.0,,,,,,1.0,,,,7.0,,KIGQ 280735Z AUTO 00000KT 7SM CLR 14/13 A2978 RMK AO2  T01370134,,,,,,56.12,,N,29.13,28.47,,Clear
KIGQ,05/28/2017 07:55 UTC,29.78,57.38,56.48,96.81,0.0,0.0,,,,,,1.0,,,,7.0,,KIGQ 280755Z AUTO 00000KT 7SM CLR 14/14 A2978 RMK AO2  T01410136,,,,,,56.47,,N,29.13,28.45,,Clear
KIGQ,05/28/2017 08:15 UTC,29.78,56.84,56.3,98.07,0.0,0.0,,,,,,1.0,,,,7.0,,KIGQ 280815Z AUTO 00000KT 7SM CLR 14/14 A2978 RMK AO2  T01380135,,,,,,56.3,,N,29.13,28.46,,Clear
KIGQ,05/28/2017 08:35 UTC,29.77,56.48,56.12,98.71,0.0,0.0,,,,,,1.0,,,,7.0,,KIGQ 280835Z AUTO 00000KT 7SM CLR 14/13 A2977 RMK AO2  T01360134,,,,,,56.12,,N,29.12,28.47,,Clear
KIGQ,05/28/2017 08:55 UTC,29.76,55.76,55.58,99.35,0.0,0.0,,,,,,1.0,,,,7.0,,KIGQ 280855Z AUTO 00000KT 7SM CLR 13/13 A2976 RMK AO2  T01320131,,,,,,55.58,,N,29.11,28.49,,Clear
KIGQ,05/28/2017 09:15 UTC,29.75,56.12,56.12,100.0,0.0,0.0,,,,,,1.0,,,,7.0,,KIGQ 280915Z AUTO 00000KT 7SM CLR 13/13 A2975 RMK AO2  T01340134,,,,,,56.12,,N,29.1,28.45,,Clear
KIGQ,05/28/2017 09:35 UTC,29.74,55.94,55.94,100.0,0.0,0.0,,31.0,,,,1.0,,,,5.0,,KIGQ 280935Z AUTO 00000KT 5SM BR CLR 13/13 A2974 RMK AO2  T01330133,,,,,,55.94,,N,29.09,28.45,,Mist
KIGQ,05/28/2017 10:15 UTC,29.73,54.14,54.14,100.0,0.0,0.0,,31.0,,,,1.0,,,,4.0,,KIGQ 281015Z AUTO 00000KT 4SM BR CLR 12/12 A2973 RMK AO2  T01230123,,,,,,54.14,,N,29.08,28.53,,Mist
KIGQ,05/28/2017 10:35 UTC,29.74,53.6,53.6,100.0,0.0,0.0,,31.0,,,,1.0,,,,4.0,,KIGQ 281035Z AUTO 00000KT 4SM BR CLR 12/12 A2974 RMK AO2  T01200120,,,,,,53.6,,N,29.09,28.57,,Mist
KIGQ,05/28/2017 10:55 UTC,29.73,55.4,55.4,100.0,0.0,0.0,,31.0,,,,1.0,,,,5.0,,KIGQ 281055Z AUTO 00000KT 5SM BR CLR 13/13 A2973 RMK AO2  T01300130,,,,,,55.4,,N,29.08,28.47,,Mist
KIGQ,05/28/2017 11:15 UTC,29.74,55.94,55.94,100.0,0.0,0.0,,31.0,,,,1.0,,,,5.0,,KIGQ 281115Z AUTO 00000KT 5SM BR CLR 13/13 A2974 RMK AO2  T01330133,,,,,,55.94,,N,29.09,28.45,,Mist
KIGQ,05/28/2017 11:35 UTC,29.74,55.94,55.94,100.0,0.0,0.0,,31.0,,,,1.0,,,,5.0,,KIGQ 281135Z AUTO 00000KT 5SM BR CLR 13/13 A2974 RMK AO2  T01330133,,,,,,55.94,,N,29.09,28.45,,Mist
KIGQ,05/28/2017 11:55 UTC,29.74,57.56,57.56,100.0,0.0,0.0,,31.0,,,,1.0,,,,5.0,,KIGQ 281155Z AUTO 00000KT 5SM BR CLR 14/14 A2974 RMK AO2 T01420142  10150 20119,59.0,53.42,,,,57.56,,N,29.09,28.36,,Mist
KIGQ,05/28/2017 12:15 UTC,29.74,59.54,59.0,98.09,0.0,0.0,,31.0,,,,1.0,,,,5.0,,KIGQ 281215Z AUTO 00000KT 5SM BR CLR 15/15 A2974 RMK AO2  T01530150,,,,,,58.99,,N,29.09,28.27,,Mist
KIGQ,05/28/2017 12:35 UTC,29.74,60.8,59.72,96.24,0.0,0.0,,31.0,,,,1.0,,,,5.0,,KIGQ 281235Z AUTO 00000KT 5SM BR CLR 16/15 A2974 RMK AO2 LTG DSNT  W T01600154,,,,,,59.71,,N,29.09,28.21,,Mist
KIGQ,05/28/2017 12:55 UTC,29.74,62.24,60.98,95.65,0.0,0.0,,31.0,,,,1.0,,,,5.0,,KIGQ 281255Z AUTO 00000KT 5SM BR CLR 17/16 A2974 RMK AO2  T01680161,,,,,,60.97,,N,29.09,28.13,,Mist
KIGQ,05/28/2017 13:15 UTC,29.74,63.86,62.24,94.47,0.0,0.0,,,,,,1.0,,,,7.0,,KIGQ 281315Z AUTO 00000KT 7SM CLR 18/17 A2974 RMK AO2  T01770168,,,,,,62.23,,N,29.09,28.04,,Clear
KIGQ,05/28/2017 13:35 UTC,29.74,65.66,62.6,89.87,0.0,0.0,,,,,,1.0,,,,10.0,,KIGQ 281335Z AUTO 00000KT 10SM CLR 19/17 A2974 RMK AO2 LTG DSNT NW  T01870170,,,,,,62.58,,N,29.09,28.0,,Clear
KIGQ,05/28/2017 13:55 UTC,29.74,68.0,63.68,86.09,0.0,0.0,,,,,,1.0,,,,10.0,,KIGQ 281355Z AUTO 00000KT 10SM CLR 20/18 A2974 RMK AO2  T02000176,,,,,,63.66,,N,29.09,27.91,,Clear
KIGQ,05/28/2017 14:15 UTC,29.74,69.8,65.3,85.66,3.44,250.0,,,,,,1.0,,,,10.0,,KIGQ 281415Z AUTO 25003KT 10SM CLR 21/19 A2974 RMK AO2  T02100185,,,,,,65.29,,WSW,29.09,27.78,,Clear
KIGQ,05/28/2017 14:35 UTC,29.73,71.6,66.2,83.13,3.44,290.0,,,,,,853.0,,,,10.0,,KIGQ 281435Z AUTO 29003KT 10SM BKN085 22/19 A2973 RMK AO2  T02200190,,,8500.0,,,66.18,,WNW,29.08,27.69,,Mostly Cloudy
KIGQ,05/28/2017 14:55 UTC,29.73,71.6,65.84,82.1,5.75,290.0,,,854.0,,,192.0,302.0,,,10.0,,KIGQ 281455Z AUTO 29005KT 10SM SCT019 SCT030 OVC085 22/19 A2973 RMK AO2 T02200188,,,8500.0,,,65.82,,WNW,29.08,27.71,,Overcast
KIGQ,05/28/2017 15:15 UTC,29.73,71.6,65.48,81.08,5.75,300.0,,,854.0,,,213.0,303.0,,,10.0,,KIGQ 281515Z AUTO 30005KT 10SM BKN021 BKN030 OVC085 22/19 A2973 RMK AO2 T02200186,,,2100.0,,,65.46,,WNW,29.08,27.74,,Overcast
KIGQ,05/28/2017 15:35 UTC,29.73,72.32,65.48,79.14,9.22,310.0,,,854.0,,,213.0,293.0,,,10.0,,KIGQ 281535Z AUTO 31008KT 10SM BKN021 BKN029 OVC085 22/19 A2973 RMK AO2 T02240186,,,2100.0,,,65.46,,NW,29.08,27.73,,Overcast
KIGQ,05/28/2017 15:55 UTC,29.74,73.58,65.12,74.91,9.22,310.0,,,603.0,,,233.0,493.0,,,10.0,,KIGQ 281555Z AUTO 31008KT 10SM BKN023 BKN049 BKN060 23/18 A2974 RMK AO2 T02310184,,,2300.0,,,65.1,,NW,29.09,27.75,,Mostly Cloudy
KIGQ,05/28/2017 16:15 UTC,29.74,74.3,65.12,73.13,10.36,310.0,,,703.0,,,272.0,442.0,,,10.0,,KIGQ 281615Z AUTO 31009KT 10SM SCT027 SCT044 BKN070 24/18 A2974 RMK AO2 T02350184,,,7000.0,,,65.11,,NW,29.09,27.74,,Mostly Cloudy
KIGQ,05/28/2017 16:35 UTC,29.73,75.2,65.48,71.86,6.91,300.0,,,903.0,,,292.0,602.0,,,10.0,,KIGQ 281635Z AUTO 30006KT 10SM SCT029 SCT060 BKN090 24/19 A2973 RMK AO2 T02400186,,,9000.0,,,65.47,,WNW,29.08,27.69,,Mostly Cloudy
KIGQ,05/28/2017 16:55 UTC,29.73,74.66,64.04,69.58,10.36,310.0,,,953.0,,,323.0,603.0,,,10.0,,KIGQ 281655Z AUTO 31009KT 10SM BKN032 BKN060 BKN095 24/18 A2973 RMK AO2 T02370178,,,3200.0,,,64.02,,NW,29.08,27.79,,Mostly Cloudy
KIGQ,05/28/2017 17:15 UTC,29.74,69.44,62.42,78.41,10.36,360.0,20.71,,952.0,,,342.0,442.0,,,10.0,,KIGQ 281715Z AUTO 36009G18KT 10SM SCT034 SCT044 SCT095 21/17 A2974 RMK AO2 T02080169,,,,,,62.39,,N,29.09,27.96,,Partly Cloudy
KIGQ,05/28/2017 17:35 UTC,29.74,68.72,61.16,76.87,14.97,30.0,,,602.0,,,362.0,432.0,,,10.0,,KIGQ 281735Z AUTO 03013KT 10SM SCT036 SCT043 SCT060 20/16 A2974 RMK AO2 T02040162,,,,,,61.13,,NNE,29.09,28.04,,Partly Cloudy
KIGQ,05/28/2017 17:55 UTC,29.74,68.54,61.88,79.33,12.66,30.0,,13.0,902.0,,,282.0,432.0,,,10.0,,KIGQ 281755Z AUTO 03011KT 10SM -RA SCT028 SCT043 SCT090 20/17  A2974 RMK AO2 T02030166 10241 20143,75.38,57.74,,,,61.85,,NNE,29.09,28.0,,Light Rain
KIGQ,05/28/2017 18:15 UTC,29.75,67.82,60.8,78.27,6.91,20.0,,13.0,423.0,,,262.0,322.0,,,10.0,,KIGQ 281815Z AUTO 02006KT 10SM -RA SCT026 SCT032 BKN042 20/16  A2975 RMK AO2 T01990160,,,4200.0,,,60.77,,NNE,29.1,28.08,,Light Rain
KIGQ,05/28/2017 18:35 UTC,29.73,69.98,61.7,75.05,5.75,40.0,,,853.0,,,282.0,422.0,,,10.0,,KIGQ 281835Z AUTO 04005KT 10SM SCT028 SCT042 BKN085 21/17 A2973 RMK AO2 T02110165,,,8500.0,,,61.67,,NE,29.08,27.99,,Mostly Cloudy
KIGQ,05/28/2017 18:55 UTC,29.73,69.98,61.16,73.63,0.0,0.0,,,,,,1102.0,,,,10.0,,KIGQ 281855Z AUTO 00000KT 10SM SCT110 21/16 A2973 RMK AO2  T02110162,,,,,,61.13,,N,29.08,28.02,,Partly Cloudy
KIGQ,05/28/2017 19:15 UTC,29.73,69.26,60.98,74.98,4.61,30.0,,13.0,,,,1002.0,,,,10.0,,KIGQ 281915Z AUTO 03004KT 10SM -RA SCT100 21/16 A2973 RMK AO2  T02070161,,,,,,60.95,,NNE,29.08,28.04,,Light Rain
KIGQ,05/28/2017 19:35 UTC,29.73,68.0,60.08,75.83,6.91,30.0,,,1103.0,,,602.0,903.0,,,10.0,,KIGQ 281935Z AUTO 03006KT 10SM SCT060 BKN090 BKN110 20/16 A2973 RMK AO2 LTG DSNT N T02000156,,,9000.0,,,60.05,,NNE,29.08,28.1,,Mostly Cloudy
KIGQ,05/28/2017 19:55 UTC,29.74,67.64,60.26,77.26,13.8,20.0,17.27,,604.0,,,403.0,493.0,,,10.0,,KIGQ 281955Z AUTO 02012G15KT 10SM BKN040 BKN049 OVC060 20/16 A2974 RMK AO2 T01980157,,,4000.0,,,60.22,,NNE,29.09,28.1,,Overcast
KIGQ,05/28/2017 20:15 UTC,29.73,66.92,59.9,78.2,8.05,30.0,,,,,,373.0,434.0,,,10.0,,KIGQ 282015Z AUTO 03007KT 10SM BKN037 OVC043 19/16 A2973 RMK AO2  T01940155,,,3700.0,,,59.87,,NNE,29.08,28.12,,Overcast
KIGQ,05/28/2017 20:35 UTC,29.73,68.54,60.26,74.91,5.75,20.0,,,,,,362.0,442.0,,,10.0,,KIGQ 282035Z AUTO 02005KT 10SM SCT036 SCT044 20/16 A2973 RMK AO2  T02030157,,,,,,60.22,,NNE,29.08,28.08,,Partly Cloudy
KIGQ,05/28/2017 20:55 UTC,29.73,69.98,60.98,73.16,5.75,20.0,,,,,,442.0,502.0,,,10.0,,KIGQ 282055Z AUTO 02005KT 10SM SCT044 SCT050 21/16 A2973 RMK AO2  T02110161,,,,,,60.95,,NNE,29.08,28.03,,Partly Cloudy
KIGQ,05/28/2017 21:15 UTC,29.74,70.52,60.62,70.92,0.0,0.0,,,,,,1.0,,,,10.0,,KIGQ 282115Z AUTO 00000KT 10SM CLR 21/16 A2974 RMK AO2  T02140159,,,,,,60.59,,N,29.09,28.05,,Clear
KIGQ,05/28/2017 21:35 UTC,29.74,71.78,61.7,70.6,3.44,10.0,,,,,,1.0,,,,10.0,,KIGQ 282135Z AUTO 01003KT 10SM CLR 22/17 A2974 RMK AO2  T02210165,,,,,,61.67,,N,29.09,27.98,,Clear
KIGQ,05/28/2017 21:55 UTC,29.74,72.68,61.52,68.06,4.61,330.0,,,,,,1.0,,,,10.0,,KIGQ 282155Z AUTO 33004KT 10SM CLR 23/16 A2974 RMK AO2  T02260164,,,,,,61.49,,NNW,29.09,27.98,,Clear
KIGQ,05/28/2017 22:15 UTC,29.74,72.5,60.8,66.75,5.75,340.0,,,,,,1.0,,,,10.0,,KIGQ 282215Z AUTO 34005KT 10SM CLR 23/16 A2974 RMK AO2  T02250160,,,,,,60.77,,NNW,29.09,28.02,,Clear
KIGQ,05/28/2017 22:35 UTC,29.75,74.12,59.72,60.84,5.75,290.0,,,,,,1.0,,,,10.0,,KIGQ 282235Z AUTO 29005KT 10SM CLR 23/15 A2975 RMK AO2  T02340154,,,,,,59.7,,WNW,29.1,28.07,,Clear
KIGQ,05/28/2017 22:55 UTC,29.74,74.84,58.28,56.42,8.05,330.0,,,,,,602.0,,,,10.0,,KIGQ 282255Z AUTO 33007KT 10SM SCT060 24/15 A2974 RMK AO2  T02380146,,,,,,58.26,,NNW,29.09,28.13,,Partly Cloudy
KIGQ,05/28/2017 23:15 UTC,29.74,74.66,54.68,49.84,9.22,290.0,,,,,,1.0,,,,10.0,,KIGQ 282315Z AUTO 29008KT 10SM CLR 24/13 A2974 RMK AO2  T02370126,,,,,,54.65,,WNW,29.09,28.31,,Clear
KIGQ,05/28/2017 23:35 UTC,29.74,74.3,53.42,48.17,8.05,300.0,,,,,,1.0,,,,10.0,,KIGQ 282335Z AUTO 30007KT 10SM CLR 24/12 A2974 RMK AO2  T02350119,,,,,,53.39,,WNW,29.09,28.37,,Clear
KIGQ,05/28/2017 23:55 UTC,29.75,73.4,53.96,50.64,11.5,290.0,17.27,,,,,1.0,,,,10.0,,KIGQ 282355Z AUTO 29010G15KT 10SM CLR 23/12 A2975 RMK AO2  T02300122 10238 20193,74.84,66.74,,,,53.92,,WNW,29.1,28.37,,Clear
KIGQ,05/29/2017 00:15 UTC,29.75,72.86,54.14,51.9,9.22,290.0,,,902.0,,,602.0,702.0,,,10.0,,KIGQ 290015Z AUTO 29008KT 10SM SCT060 SCT070 SCT090 23/12 A2975 RMK AO2 T02270123,,,,,,54.1,,WNW,29.1,28.36,,Partly Cloudy
KIGQ,05/29/2017 00:35 UTC,29.76,71.6,54.14,54.16,8.05,280.0,,,,,,1.0,,,,10.0,,KIGQ 290035Z AUTO 28007KT 10SM CLR 22/12 A2976 RMK AO2  T02200123,,,,,,54.09,,W,29.11,28.39,,Clear
KIGQ,05/29/2017 00:55 UTC,29.76,70.16,55.22,59.15,5.75,250.0,,,,,,652.0,,,,10.0,,KIGQ 290055Z AUTO 25005KT 10SM SCT065 21/13 A2976 RMK AO2  T02120129,,,,,,55.17,,WSW,29.11,28.35,,Partly Cloudy
KIGQ,05/29/2017 01:15 UTC,29.76,69.62,55.04,59.85,4.61,250.0,,,,,,602.0,953.0,,,10.0,,KIGQ 290115Z AUTO 25004KT 10SM SCT060 BKN095 21/13 A2976 RMK AO2  LTG DSNT S AND SW T02090128,,,9500.0,,,54.99,,WSW,29.11,28.36,,Mostly Cloudy
KIGQ,05/29/2017 01:35 UTC,29.76,68.9,57.92,68.07,3.44,260.0,,,904.0,,,603.0,703.0,,,10.0,,KIGQ 290135Z AUTO 26003KT 10SM BKN060 BKN070 OVC090 21/14 A2976 RMK AO2 LTG DSNT SE AND SW T02050144,,,6000.0,,,57.88,,W,29.11,28.23,,Overcast
KIGQ,05/29/2017 01:55 UTC,29.77,68.18,57.2,67.98,5.75,260.0,,,,,,602.0,902.0,,,10.0,,KIGQ 290155Z AUTO 26005KT 10SM SCT060 SCT090 20/14 A2977 RMK AO2  LTG DSNT S T02010140,,,,,,57.15,,W,29.12,28.29,,Partly Cloudy
KIGQ,05/29/2017 02:15 UTC,29.77,66.38,56.3,70.02,5.75,270.0,,,,,,1.0,,,,10.0,,KIGQ 290215Z AUTO 27005KT 10SM CLR 19/14 A2977 RMK AO2 LTG DSNT NE  T01910135,,,,,,56.25,,W,29.12,28.35,,Clear
KIGQ,05/29/2017 02:35 UTC,29.77,65.48,56.66,73.19,3.44,270.0,,,,,,1.0,,,,10.0,,KIGQ 290235Z AUTO 27003KT 10SM CLR 19/14 A2977 RMK AO2  T01860137,,,,,,56.61,,W,29.12,28.34,,Clear
KIGQ,05/29/2017 02:55 UTC,29.78,65.66,56.66,72.73,3.44,260.0,,,,,,1.0,,,,10.0,,KIGQ 290255Z AUTO 26003KT 10SM CLR 19/14 A2978 RMK AO2  T01870137,,,,,,56.61,,W,29.13,28.35,,Clear
KIGQ,05/29/2017 03:15 UTC,29.78,62.24,56.12,80.38,0.0,0.0,,,,,,1.0,,,,10.0,,KIGQ 290315Z AUTO 00000KT 10SM CLR 17/13 A2978 RMK AO2  T01680134,,,,,,56.08,,N,29.13,28.41,,Clear
KIGQ,05/29/2017 03:35 UTC,29.78,59.18,55.4,87.28,0.0,0.0,,,,,,1.0,,,,10.0,,KIGQ 290335Z AUTO 00000KT 10SM CLR 15/13 A2978 RMK AO2  T01510130,,,,,,55.37,,N,29.13,28.48,,Clear
KIGQ,05/29/2017 03:55 UTC,29.78,58.28,53.96,85.53,0.0,0.0,,,,,,1.0,,,,10.0,,KIGQ 290355Z AUTO 00000KT 10SM CLR 15/12 A2978 RMK AO2  T01460122,,,,,,53.92,,N,29.13,28.55,,Clear
KIGQ,05/29/2017 04:15 UTC,29.77,59.18,54.5,84.47,0.0,0.0,,,,,,1.0,,,,10.0,,KIGQ 290415Z AUTO 00000KT 10SM CLR 15/13 A2977 RMK AO2  T01510125,,,,,,54.46,,N,29.12,28.51,,Clear
KIGQ,05/29/2017 04:35 UTC,29.77,59.18,53.96,82.83,0.0,0.0,,,,,,1.0,,,,10.0,,KIGQ 290435Z AUTO 00000KT 10SM CLR 15/12 A2977 RMK AO2  T01510122,,,,,,53.92,,N,29.12,28.53,,Clear
KIGQ,05/29/2017 04:55 UTC,29.77,57.74,53.78,86.64,0.0,0.0,,,,,,1.0,,,,10.0,,KIGQ 290455Z AUTO 00000KT 10SM CLR 14/12 A2977 RMK AO2  T01430121,,,,,,53.75,,N,29.12,28.55,,Clear
KIGQ,05/29/2017 05:15 UTC,29.78,56.66,53.24,88.31,0.0,0.0,,,,,,902.0,,,,10.0,,KIGQ 290515Z AUTO 00000KT 10SM SCT090 14/12 A2978 RMK AO2  T01370118,,,,,,53.21,,N,29.13,28.59,,Partly Cloudy
KIGQ,05/29/2017 05:35 UTC,29.79,58.28,53.06,82.76,0.0,0.0,,,,,,1002.0,,,,10.0,,KIGQ 290535Z AUTO 00000KT 10SM SCT100 15/12 A2979 RMK AO2  T01460117,,,,,,53.01,,N,29.14,28.59,,Partly Cloudy
KIGQ,05/29/2017 05:55 UTC,29.79,57.2,52.34,83.79,4.61,200.0,,,,,,1003.0,,,,10.0,,KIGQ 290555Z AUTO 20004KT 10SM BKN100 14/11 A2979 RMK AO2  T01400113 10231 20137 402410119,73.58,56.66,10000.0,75.38,53.42,52.3,,SSW,29.14,28.63,,Mostly Cloudy
KIGQ,05/29/2017 06:15 UTC,29.8,57.38,53.78,87.76,8.05,190.0,,,,,,1104.0,,,,10.0,,KIGQ 290615Z AUTO 19007KT 10SM OVC110 14/12 A2980 RMK AO2  T01410121,,,11000.0,,,53.75,,S,29.15,28.59,,Overcast
KIGQ,05/29/2017 06:35 UTC,29.8,57.92,54.5,88.37,0.0,0.0,,,,,,1104.0,,,,10.0,,KIGQ 290635Z AUTO 00000KT 10SM OVC110 14/13 A2980 RMK AO2  T01440125,,,11000.0,,,54.47,,N,29.15,28.55,,Overcast
KIGQ,05/29/2017 06:55 UTC,29.78,59.36,54.5,83.93,0.0,0.0,,13.0,,,,1004.0,,,,10.0,,KIGQ 290655Z AUTO 00000KT 10SM -RA OVC100 15/13 A2978 RMK AO2  T01520125,,,10000.0,,,54.46,,N,29.13,28.51,,Light Rain
KIGQ,05/29/2017 07:15 UTC,29.78,59.9,54.68,82.88,3.44,200.0,,,,,,1002.0,1202.0,,,10.0,,KIGQ 290715Z AUTO 20003KT 10SM SCT100 SCT120 16/13 A2978 RMK AO2  T01550126,,,,,,54.64,,SSW,29.13,28.5,,Partly Cloudy
KIGQ,05/29/2017 07:35 UTC,29.77,57.2,54.14,89.5,0.0,0.0,,,,,,1203.0,,,,10.0,,KIGQ 290735Z AUTO 00000KT 10SM BKN120 14/12 A2977 RMK AO2  T01400123,,,12000.0,,,54.11,,N,29.12,28.54,,Mostly Cloudy
KIGQ,05/29/2017 07:55 UTC,29.78,56.3,53.24,89.46,5.75,200.0,,,,,,1202.0,,,,10.0,,KIGQ 290755Z AUTO 20005KT 10SM SCT120 14/12 A2978 RMK AO2  T01350118,,,,,,53.21,,SSW,29.13,28.6,,Partly Cloudy
KIGQ,05/29/2017 08:15 UTC,29.79,59.0,53.6,82.27,9.22,220.0,,,,,,1202.0,,,,10.0,,KIGQ 290815Z AUTO 22008KT 10SM SCT120 15/12 A2979 RMK AO2  T01500120,,,,,,53.56,,SW,29.14,28.56,,Partly Cloudy
KIGQ,05/29/2017 08:35 UTC,29.78,60.98,53.6,76.68,6.91,220.0,,,,,,1103.0,,,,10.0,,KIGQ 290835Z AUTO 22006KT 10SM BKN110 16/12 A2978 RMK AO2  T01610120,,,11000.0,,,53.55,,SW,29.13,28.53,,Mostly Cloudy
KIGQ,05/29/2017 08:55 UTC,29.78,60.62,52.88,75.64,3.44,250.0,,,,,,1003.0,,,,10.0,,KIGQ 290855Z AUTO 25003KT 10SM BKN100 16/12 A2978 RMK AO2  T01590116,,,10000.0,,,52.82,,WSW,29.13,28.57,,Mostly Cloudy
KIGQ,05/29/2017 09:35 UTC,29.79,57.56,52.7,83.81,3.44,240.0,,,,,,1.0,,,,10.0,,KIGQ 290935Z AUTO 24003KT 10SM CLR 14/12 A2979 RMK AO2  T01420115,,,,,,52.66,,WSW,29.14,28.62,,Clear
KIGQ,05/29/2017 10:15 UTC,29.79,57.2,52.16,83.24,4.61,240.0,,,,,,1.0,,,,10.0,,KIGQ 291015Z AUTO 24004KT 10SM CLR 14/11 A2979 RMK AO2  T01400112,,,,,,52.12,,WSW,29.14,28.64,,Clear
KIGQ,05/29/2017 10:35 UTC,29.8,57.92,52.34,81.65,4.61,230.0,,,,,,1.0,,,,10.0,,KIGQ 291035Z AUTO 23004KT 10SM CLR 14/11 A2980 RMK AO2  T01440113,,,,,,52.29,,SW,29.15,28.64,,Clear
KIGQ,05/29/2017 10:55 UTC,29.81,57.2,52.52,84.35,3.44,240.0,,,,,,1.0,,,,10.0,,KIGQ 291055Z AUTO 24003KT 10SM CLR 14/11 A2981 RMK AO2  T01400114,,,,,,52.48,,WSW,29.16,28.65,,Clear
KIGQ,05/29/2017 11:15 UTC,29.81,57.38,53.42,86.62,5.75,220.0,,,,,,1.0,,,,10.0,,KIGQ 291115Z AUTO 22005KT 10SM CLR 14/12 A2981 RMK AO2  T01410119,,,,,,53.39,,SW,29.16,28.61,,Clear
KIGQ,05/29/2017 11:35 UTC,29.82,60.26,53.96,79.7,5.75,230.0,,,,,,1.0,,,,10.0,,KIGQ 291135Z AUTO 23005KT 10SM CLR 16/12 A2982 RMK AO2  T01570122,,,,,,53.91,,SW,29.17,28.57,,Clear
KIGQ,05/29/2017 11:55 UTC,29.82,62.06,54.5,76.27,5.75,240.0,,,,,,1.0,,,,10.0,,KIGQ 291155Z AUTO 24005KT 10SM CLR 17/13 A2982 RMK AO2 T01670125  10167 20129,62.06,55.22,,,,54.45,,WSW,29.17,28.53,,Clear
KIGQ,05/29/2017 12:15 UTC,29.82,63.5,54.32,72.04,9.22,260.0,,,,,,1.0,,,,10.0,,KIGQ 291215Z AUTO 26008KT 10SM CLR 18/12 A2982 RMK AO2  T01750124,,,,,,54.26,,W,29.17,28.52,,Clear
KIGQ,05/29/2017 12:35 UTC,29.82,64.94,53.78,67.17,10.36,270.0,,,,,,1.0,,,,10.0,,KIGQ 291235Z AUTO 27009KT 10SM CLR 18/12 A2982 RMK AO2  T01830121,,,,,,53.72,,W,29.17,28.53,,Clear
KIGQ,05/29/2017 12:55 UTC,29.83,66.02,54.5,66.42,10.36,260.0,,,,,,1.0,,,,10.0,,KIGQ 291255Z AUTO 26009KT 10SM CLR 19/13 A2983 RMK AO2  T01890125,,,,,,54.44,,W,29.18,28.49,,Clear
KIGQ,05/29/2017 13:15 UTC,29.82,66.92,54.14,63.54,6.91,250.0,,,,,,1.0,,,,10.0,,KIGQ 291315Z AUTO 25006KT 10SM CLR 19/12 A2982 RMK AO2  T01940123,,,,,,54.08,,WSW,29.17,28.49,,Clear
KIGQ,05/29/2017 13:35 UTC,29.83,68.36,53.24,58.52,9.22,260.0,,,,,,1.0,,,,10.0,,KIGQ 291335Z AUTO 26008KT 10SM CLR 20/12 A2983 RMK AO2  T02020118,,,,,,53.18,,W,29.18,28.53,,Clear
KIGQ,05/29/2017 13:55 UTC,29.83,69.8,52.52,54.25,10.36,270.0,,,,,,1.0,,,,10.0,,KIGQ 291355Z AUTO 27009KT 10SM CLR 21/11 A2983 RMK AO2  T02100114,,,,,,52.46,,W,29.18,28.55,,Clear
KIGQ,05/29/2017 14:15 UTC,29.83,71.24,52.88,52.35,9.22,250.0,,,,,,1.0,,,,10.0,,KIGQ 291415Z AUTO 25008KT 10SM CLR 22/12 A2983 RMK AO2  T02180116,,,,,,52.83,,WSW,29.18,28.52,,Clear
KIGQ,05/29/2017 14:35 UTC,29.83,71.78,51.98,49.73,11.5,270.0,17.27,,,,,1.0,,,,10.0,,KIGQ 291435Z AUTO 27010G15KT 10SM CLR 22/11 A2983 RMK AO2  T02210111,,,,,,51.93,,W,29.18,28.55,,Clear
KIGQ,05/29/2017 14:55 UTC,29.83,72.86,53.24,50.22,12.66,240.0,17.27,,,,,1.0,,,,10.0,,KIGQ 291455Z AUTO 24011G15KT 10SM CLR 23/12 A2983 RMK AO2  T02270118,,,,,,53.2,,WSW,29.18,28.49,,Clear
KIGQ,05/29/2017 15:15 UTC,29.84,72.86,53.78,51.23,13.8,260.0,17.27,,,,,1.0,,,,10.0,,KIGQ 291515Z AUTO 26012G15KT 10SM CLR 23/12 A2984 RMK AO2  T02270121,,,,,,53.74,,W,29.19,28.47,,Clear
KIGQ,05/29/2017 15:35 UTC,29.84,73.4,53.06,49.0,10.36,280.0,,,,,,1.0,,,,10.0,,KIGQ 291535Z AUTO 28009KT 10SM CLR 23/12 A2984 RMK AO2  T02300117,,,,,,53.02,,W,29.19,28.5,,Clear
KIGQ,05/29/2017 15:55 UTC,29.84,73.76,52.34,47.15,13.8,250.0,,,,,,1.0,,,,10.0,,KIGQ 291555Z AUTO 25012KT 10SM CLR 23/11 A2984 RMK AO2  T02320113,,,,,,52.31,,WSW,29.19,28.53,,Clear
KIGQ,05/29/2017 16:15 UTC,29.84,73.94,52.34,46.86,13.8,250.0,17.27,,,,,1202.0,,,,10.0,,KIGQ 291615Z AUTO 25012G15KT 10SM SCT120 23/11 A2984 RMK AO2  T02330113,,,,,,52.3,,WSW,29.19,28.53,,Partly Cloudy
KIGQ,05/29/2017 16:35 UTC,29.85,74.12,51.98,45.97,10.36,260.0,,,,,,1202.0,,,,10.0,,KIGQ 291635Z AUTO 26009KT 10SM SCT120 23/11 A2985 RMK AO2  T02340111,,,,,,51.95,,W,29.2,28.55,,Partly Cloudy
KIGQ,05/29/2017 16:55 UTC,29.85,74.84,51.26,43.7,16.11,250.0,23.02,,,,,1202.0,,,,10.0,,KIGQ 291655Z AUTO 25014G20KT 10SM SCT120 24/11 A2985 RMK AO2  T02380107,,,,,,51.23,,WSW,29.2,28.58,,Partly Cloudy
KIGQ,05/29/2017 17:15 UTC,29.86,75.02,51.62,44.02,19.57,260.0,27.63,,,,,1002.0,1202.0,,,10.0,,KIGQ 291715Z AUTO 26017G24KT 10SM SCT100 SCT120 24/11 A2986 RMK AO2 T02390109,,,,,,51.59,,W,29.21,28.57,,Partly Cloudy
KIGQ,05/29/2017 17:35 UTC,29.86,74.66,51.8,44.85,14.97,240.0,24.16,,,,,1003.0,,,,10.0,,KIGQ 291735Z AUTO 24013G21KT 10SM BKN100 24/11 A2986 RMK AO2  T02370110,,,10000.0,,,51.77,,WSW,29.21,28.56,,Mostly Cloudy
KIGQ,05/29/2017 17:55 UTC,29.85,75.56,52.88,45.29,13.8,240.0,26.46,,,,,1002.0,,,,10.0,,KIGQ 291755Z AUTO 24012G23KT 10SM SCT100 24/12 A2985 RMK AO2  T02420116 10242 20167,75.56,62.06,,,,52.86,,WSW,29.2,28.5,,Partly Cloudy
KIGQ,05/29/2017 18:15 UTC,29.85,75.56,51.98,43.81,13.8,240.0,24.16,,,,,1.0,,,,10.0,,KIGQ 291815Z AUTO 24012G21KT 10SM CLR 24/11 A2985 RMK AO2  T02420111,,,,,,51.96,,WSW,29.2,28.54,,Clear
KIGQ,05/29/2017 18:35 UTC,29.85,75.02,51.44,43.73,24.16,240.0,28.77,,,,,1.0,,,,10.0,,KIGQ 291835Z AUTO 24021G25KT 10SM CLR 24/11 A2985 RMK AO2  T02390108,,,,,,51.41,,WSW,29.2,28.57,,Clear
KIGQ,05/29/2017 18:55 UTC,29.85,76.82,53.42,44.3,23.02,260.0,27.63,,,,,1.0,,,,10.0,,KIGQ 291855Z AUTO 26020G24KT 10SM CLR 25/12 A2985 RMK AO2  T02490119,,,,,,53.41,,W,29.2,28.46,,Clear
KIGQ,05/29/2017 19:15 UTC,29.85,75.74,52.16,43.84,19.57,260.0,26.46,,,,,1.0,,,,10.0,,KIGQ 291915Z AUTO 26017G23KT 10SM CLR 24/11 A2985 RMK AO2  T02430112,,,,,,52.14,,W,29.2,28.53,,Clear
KIGQ,05/29/2017 19:35 UTC,29.84,76.28,52.88,44.22,18.41,250.0,23.02,,,,,752.0,,,,10.0,,KIGQ 291935Z AUTO 25016G20KT 10SM SCT075 25/12 A2984 RMK AO2  T02460116,,,,,,52.87,,WSW,29.19,28.48,,Partly Cloudy
KIGQ,05/29/2017 19:55 UTC,29.83,77.0,51.8,41.49,19.57,280.0,28.77,,,,,1.0,,,,10.0,,KIGQ 291955Z AUTO 28017G25KT 10SM CLR 25/11 A2983 RMK AO2  T02500110,,,,,,51.79,,W,29.18,28.51,,Clear
KIGQ,05/29/2017 20:15 UTC,29.83,76.82,50.0,39.05,17.27,280.0,27.63,,,,,752.0,,,,10.0,,KIGQ 292015Z AUTO 28015G24KT 10SM SCT075 25/10 A2983 RMK AO2  T02490100,,,,,,49.99,,W,29.18,28.59,,Partly Cloudy
KIGQ,05/29/2017 20:35 UTC,29.83,76.64,50.0,39.28,18.41,280.0,25.32,,,,,1.0,,,,10.0,,KIGQ 292035Z AUTO 28016G22KT 240V300 10SM CLR 25/10 A2983 RMK AO2  T02480100,,,,,,49.99,,W,29.18,28.59,,Clear
KIGQ,05/29/2017 20:55 UTC,29.84,76.64,49.1,37.99,18.41,270.0,25.32,,,,,1.0,,,,10.0,,KIGQ 292055Z AUTO 27016G22KT 10SM CLR 25/10 A2984 RMK AO2  T02480095,,,,,,49.09,,W,29.19,28.64,,Clear
KIGQ,05/29/2017 21:15 UTC,29.84,76.28,48.2,37.17,24.16,270.0,28.77,,,,,1.0,,,,10.0,,KIGQ 292115Z AUTO 27021G25KT 10SM CLR 25/09 A2984 RMK AO2  T02460090,,,,,,48.18,,W,29.19,28.68,,Clear
KIGQ,05/29/2017 21:35 UTC,29.84,75.38,48.02,38.04,16.11,260.0,25.32,,,,,1.0,,,,10.0,,KIGQ 292135Z AUTO 26014G22KT 10SM CLR 24/09 A2984 RMK AO2  T02410089,,,,,,47.99,,W,29.19,28.69,,Clear
KIGQ,05/29/2017 21:55 UTC,29.84,75.2,48.56,39.05,18.41,280.0,24.16,,,,,902.0,,,,10.0,,KIGQ 292155Z AUTO 28016G21KT 10SM SCT090 24/09 A2984 RMK AO2  T02400092,,,,,,48.53,,W,29.19,28.67,,Partly Cloudy
KIGQ,05/29/2017 22:15 UTC,29.85,73.76,46.04,37.27,17.27,280.0,27.63,,,,,902.0,,,,10.0,,KIGQ 292215Z AUTO 28015G24KT 10SM SCT090 23/08 A2985 RMK AO2  T02320078,,,,,,46.0,,W,29.2,28.79,,Partly Cloudy
KIGQ,05/29/2017 22:35 UTC,29.84,75.2,46.94,36.75,17.27,290.0,23.02,,,,,902.0,,,,10.0,,KIGQ 292235Z AUTO 29015G20KT 10SM SCT090 24/08 A2984 RMK AO2  T02400083,,,,,,46.92,,WNW,29.19,28.73,,Partly Cloudy
KIGQ,05/29/2017 22:55 UTC,29.84,75.02,47.12,37.22,17.27,290.0,25.32,,,,,902.0,,,,10.0,,KIGQ 292255Z AUTO 29015G22KT 10SM SCT090 24/08 A2984 RMK AO2  T02390084,,,,,,47.09,,WNW,29.19,28.73,,Partly Cloudy
KIGQ,05/29/2017 23:15 UTC,29.86,74.48,48.02,39.2,11.5,280.0,21.85,,,,,952.0,,,,10.0,,KIGQ 292315Z AUTO 28010G19KT 10SM SCT095 24/09 A2986 RMK AO2  T02360089,,,,,,47.99,,W,29.21,28.72,,Partly Cloudy
KIGQ,05/29/2017 23:35 UTC,29.86,73.4,47.66,40.1,11.5,280.0,21.85,,,,,952.0,,,,10.0,,KIGQ 292335Z AUTO 28010G19KT 10SM SCT095 23/09 A2986 RMK AO2  T02300087,,,,,,47.62,,W,29.21,28.74,,Partly Cloudy
KIGQ,05/29/2017 23:55 UTC,29.86,72.68,46.94,39.98,12.66,280.0,19.57,,,,,952.0,,,,10.0,,KIGQ 292355Z AUTO 28011G17KT 10SM SCT095 23/08 A2986 RMK AO2  T02260083 10253 20226,77.54,72.68,,,,46.89,,W,29.21,28.77,,Partly Cloudy
KIGQ,05/30/2017 00:15 UTC,29.87,71.06,46.4,41.38,12.66,290.0,17.27,,,,,1.0,,,,10.0,,KIGQ 300015Z AUTO 29011G15KT 10SM CLR 22/08 A2987 RMK AO2  T02170080,,,,,,46.34,,WNW,29.22,28.81,,Clear
KIGQ,05/30/2017 00:35 UTC,29.87,71.06,46.22,41.1,9.22,280.0,16.11,,,,,1.0,,,,10.0,,KIGQ 300035Z AUTO 28008G14KT 10SM CLR 22/08 A2987 RMK AO2  T02170079,,,,,,46.16,,W,29.22,28.82,,Clear
KIGQ,05/30/2017 00:55 UTC,29.87,69.26,46.4,43.99,6.91,280.0,,,,,,1.0,,,,10.0,,KIGQ 300055Z AUTO 28006KT 10SM CLR 21/08 A2987 RMK AO2  T02070080,,,,,,46.32,,W,29.22,28.83,,Clear
KIGQ,05/30/2017 01:15 UTC,29.87,68.72,46.22,44.51,6.91,280.0,,,,,,1.0,,,,10.0,,KIGQ 300115Z AUTO 28006KT 10SM CLR 20/08 A2987 RMK AO2  T02040079,,,,,,46.14,,W,29.22,28.84,,Clear
KIGQ,05/30/2017 01:35 UTC,29.88,67.1,46.04,46.74,5.75,280.0,,,,,,1.0,,,,10.0,,KIGQ 300135Z AUTO 28005KT 10SM CLR 20/08 A2988 RMK AO2  T01950078,,,,,,45.95,,W,29.23,28.87,,Clear
KIGQ,05/30/2017 01:55 UTC,29.88,66.2,46.22,48.54,4.61,280.0,,,,,,1.0,,,,10.0,,KIGQ 300155Z AUTO 28004KT 10SM CLR 19/08 A2988 RMK AO2  T01900079,,,,,,46.13,,W,29.23,28.87,,Clear
KIGQ,05/30/2017 02:15 UTC,29.89,65.3,47.66,52.87,4.61,260.0,,,,,,1002.0,,,,10.0,,KIGQ 300215Z AUTO 26004KT 10SM SCT100 19/09 A2989 RMK AO2  T01850087,,,,,,47.57,,W,29.24,28.84,,Partly Cloudy
KIGQ,05/30/2017 02:35 UTC,29.89,61.16,50.0,66.72,3.44,240.0,,,,,,1002.0,,,,10.0,,KIGQ 300235Z AUTO 24003KT 10SM SCT100 16/10 A2989 RMK AO2  T01620100,,,,,,49.92,,WSW,29.24,28.79,,Partly Cloudy
KIGQ,05/30/2017 02:55 UTC,29.89,59.18,50.18,72.06,0.0,0.0,,,,,,1.0,,,,10.0,,KIGQ 300255Z AUTO 00000KT 10SM CLR 15/10 A2989 RMK AO2  T01510101,,,,,,50.11,,N,29.24,28.8,,Clear
KIGQ,05/30/2017 03:15 UTC,29.9,59.9,49.1,67.47,0.0,0.0,,,,,,1.0,,,,10.0,,KIGQ 300315Z AUTO 00000KT 10SM CLR 16/10 A2990 RMK AO2  T01550095,,,,,,49.02,,N,29.25,28.84,,Clear
KIGQ,05/30/2017 03:35 UTC,29.9,58.82,50.18,72.99,0.0,0.0,,,,,,1.0,,,,10.0,,KIGQ 300335Z AUTO 00000KT 10SM CLR 15/10 A2990 RMK AO2  T01490101,,,,,,50.11,,N,29.25,28.81,,Clear
KIGQ,05/30/2017 03:55 UTC,29.9,57.2,50.0,76.85,3.44,190.0,,,,,,1.0,,,,10.0,,KIGQ 300355Z AUTO 19003KT 10SM CLR 14/10 A2990 RMK AO2  T01400100,,,,,,49.94,,S,29.25,28.83,,Clear
KIGQ,05/30/2017 04:15 UTC,29.9,56.84,50.18,78.37,0.0,0.0,,,,,,1.0,,,,10.0,,KIGQ 300415Z AUTO 00000KT 10SM CLR 14/10 A2990 RMK AO2  T01380101,,,,,,50.12,,N,29.25,28.83,,Clear
KIGQ,05/30/2017 04:35 UTC,29.9,55.22,49.64,81.45,3.44,220.0,,,,,,802.0,,,,10.0,,KIGQ 300435Z AUTO 22003KT 10SM SCT080 13/10 A2990 RMK AO2  T01290098,,,,,,49.59,,SW,29.25,28.87,,Partly Cloudy
KIGQ,05/30/2017 04:55 UTC,29.91,57.2,49.1,74.31,6.91,260.0,,,,,,802.0,1102.0,,,10.0,,KIGQ 300455Z AUTO 26006KT 10SM SCT080 SCT110 14/10 A2991 RMK AO2  T01400095,,,,,,49.03,,W,29.26,28.88,,Partly Cloudy
KIGQ,05/30/2017 05:15 UTC,29.91,57.56,49.46,74.35,4.61,230.0,,,,,,1103.0,,,,10.0,,KIGQ 300515Z AUTO 23004KT 10SM BKN110 14/10 A2991 RMK AO2  T01420097,,,11000.0,,,49.39,,SW,29.26,28.86,,Mostly Cloudy
KIGQ,05/30/2017 05:35 UTC,29.91,56.48,49.82,78.34,3.44,220.0,,,,,,1103.0,,,,10.0,,KIGQ 300535Z AUTO 22003KT 10SM BKN110 14/10 A2991 RMK AO2  T01360099,,,11000.0,,,49.76,,SW,29.26,28.86,,Mostly Cloudy
KIGQ,05/30/2017 05:55 UTC,29.91,53.6,48.38,82.43,4.61,200.0,,,,,,1102.0,,,,10.0,,KIGQ 300555Z AUTO 20004KT 10SM SCT110 12/09 A2991 RMK AO2  T01200091 10225 20120 402530120,72.5,53.6,,77.54,53.6,48.33,,SSW,29.26,28.94,,Partly Cloudy
KIGQ,05/30/2017 06:15 UTC,29.91,52.88,49.1,86.95,4.61,220.0,,,,,,1.0,,,,10.0,,KIGQ 300615Z AUTO 22004KT 10SM CLR 12/10 A2991 RMK AO2  T01160095,,,,,,49.06,,SW,29.26,28.92,,Clear
KIGQ,05/30/2017 06:35 UTC,29.92,55.04,48.56,78.75,4.61,230.0,,,,,,1.0,,,,10.0,,KIGQ 300635Z AUTO 23004KT 10SM CLR 13/09 A2992 RMK AO2  T01280092,,,,,,48.5,,SW,29.27,28.93,,Clear
KIGQ,05/30/2017 06:55 UTC,29.92,55.04,48.74,79.28,4.61,240.0,,,,,,1.0,,,,10.0,,KIGQ 300655Z AUTO 24004KT 10SM CLR 13/09 A2992 RMK AO2  T01280093,,,,,,48.68,,WSW,29.27,28.92,,Clear
KIGQ,05/30/2017 07:15 UTC,29.92,56.66,48.56,74.26,4.61,240.0,,,,,,1102.0,,,,10.0,,KIGQ 300715Z AUTO 24004KT 10SM SCT110 14/09 A2992 RMK AO2  T01370092,,,,,,48.49,,WSW,29.27,28.91,,Partly Cloudy
KIGQ,05/30/2017 07:35 UTC,29.92,56.3,48.38,74.73,4.61,250.0,,,,,,902.0,1103.0,,,10.0,,KIGQ 300735Z AUTO 25004KT 10SM SCT090 BKN110 14/09 A2992 RMK AO2  T01350091,,,11000.0,,,48.31,,WSW,29.27,28.92,,Mostly Cloudy
KIGQ,05/30/2017 07:55 UTC,29.91,56.3,48.38,74.73,5.75,260.0,,,,,,902.0,,,,10.0,,KIGQ 300755Z AUTO 26005KT 10SM SCT090 14/09 A2991 RMK AO2  T01350091,,,,,,48.31,,W,29.26,28.91,,Partly Cloudy
KIGQ,05/30/2017 08:15 UTC,29.92,55.4,48.74,78.25,6.91,260.0,,,,,,902.0,,,,10.0,,KIGQ 300815Z AUTO 26006KT 10SM SCT090 13/09 A2992 RMK AO2  T01300093,,,,,,48.68,,W,29.27,28.92,,Partly Cloudy
KIGQ,05/30/2017 08:35 UTC,29.92,54.68,48.56,79.78,5.75,260.0,,,,,,1.0,,,,10.0,,KIGQ 300835Z AUTO 26005KT 10SM CLR 13/09 A2992 RMK AO2  T01260092,,,,,,48.5,,W,29.27,28.93,,Clear
KIGQ,05/30/2017 08:55 UTC,29.93,54.68,49.1,81.41,6.91,260.0,,,,,,1.0,,,,10.0,,KIGQ 300855Z AUTO 26006KT 10SM CLR 13/10 A2993 RMK AO2  T01260095,,,,,,49.05,,W,29.28,28.92,,Clear
KIGQ,05/30/2017 09:15 UTC,29.93,54.68,48.74,80.32,6.91,270.0,,,,,,1.0,,,,10.0,,KIGQ 300915Z AUTO 27006KT 10SM CLR 13/09 A2993 RMK AO2  T01260093,,,,,,48.68,,W,29.28,28.93,,Clear
KIGQ,05/30/2017 09:35 UTC,29.93,54.32,48.56,80.84,4.61,260.0,,,,,,1.0,,,,10.0,,KIGQ 300935Z AUTO 26004KT 10SM CLR 12/09 A2993 RMK AO2  T01240092,,,,,,48.5,,W,29.28,28.94,,Clear
KIGQ,05/30/2017 09:55 UTC,29.94,54.14,48.38,80.82,4.61,260.0,,,,,,1.0,,,,10.0,,KIGQ 300955Z AUTO 26004KT 10SM CLR 12/09 A2994 RMK AO2  T01230091,,,,,,48.32,,W,29.29,28.96,,Clear
KIGQ,05/30/2017 10:15 UTC,29.94,53.6,48.2,81.88,4.61,240.0,,,,,,1.0,,,,10.0,,KIGQ 301015Z AUTO 24004KT 10SM CLR 12/09 A2994 RMK AO2  T01200090,,,,,,48.14,,WSW,29.29,28.97,,Clear
KIGQ,05/30/2017 10:35 UTC,29.95,52.7,48.2,84.63,5.75,250.0,,,,,,1.0,,,,10.0,,KIGQ 301035Z AUTO 25005KT 10SM CLR 12/09 A2995 RMK AO2  T01150090,,,,,,48.15,,WSW,29.3,28.99,,Clear
KIGQ,05/30/2017 10:55 UTC,29.96,53.24,48.92,85.23,4.61,250.0,,,,,,1.0,,,,10.0,,KIGQ 301055Z AUTO 25004KT 10SM CLR 12/09 A2996 RMK AO2  T01180094,,,,,,48.87,,WSW,29.31,28.97,,Clear
KIGQ,05/30/2017 11:15 UTC,29.96,54.5,49.82,84.17,4.61,250.0,,,,,,1.0,,,,10.0,,KIGQ 301115Z AUTO 25004KT 10SM CLR 13/10 A2996 RMK AO2  T01250099,,,,,,49.77,,WSW,29.31,28.93,,Clear
KIGQ,05/30/2017 11:35 UTC,29.96,56.3,50.18,79.91,5.75,260.0,,,,,,1.0,,,,10.0,,KIGQ 301135Z AUTO 26005KT 10SM CLR 14/10 A2996 RMK AO2  T01350101,,,,,,50.12,,W,29.31,28.9,,Clear
KIGQ,05/30/2017 11:55 UTC,29.97,58.1,51.08,77.44,8.05,260.0,,,,,,1.0,,,,10.0,,KIGQ 301155Z AUTO 26007KT 10SM CLR 15/11 A2997 RMK AO2 T01450106  10145 20115,58.1,52.7,,,,51.02,,W,29.32,28.86,,Clear
KIGQ,05/30/2017 12:15 UTC,29.97,59.36,51.08,74.03,6.91,260.0,,,,,,1.0,,,,10.0,,KIGQ 301215Z AUTO 26006KT 10SM CLR 15/11 A2997 RMK AO2  T01520106,,,,,,51.01,,W,29.32,28.84,,Clear
KIGQ,05/30/2017 12:35 UTC,29.98,60.8,51.62,71.75,9.22,260.0,,,,,,1.0,,,,10.0,,KIGQ 301235Z AUTO 26008KT 10SM CLR 16/11 A2998 RMK AO2  T01600109,,,,,,51.55,,W,29.33,28.82,,Clear
KIGQ,05/30/2017 12:55 UTC,29.98,61.34,51.8,70.86,8.05,270.0,,,,,,1.0,,,,10.0,,KIGQ 301255Z AUTO 27007KT 10SM CLR 16/11 A2998 RMK AO2  T01630110,,,,,,51.73,,W,29.33,28.81,,Clear
KIGQ,05/30/2017 13:15 UTC,29.98,62.6,51.8,67.79,10.36,260.0,16.11,,,,,1.0,,,,10.0,,KIGQ 301315Z AUTO 26009G14KT 10SM CLR 17/11 A2998 RMK AO2  T01700110,,,,,,51.73,,W,29.33,28.79,,Clear
KIGQ,05/30/2017 13:35 UTC,29.98,63.5,51.8,65.68,12.66,270.0,18.41,,,,,1.0,,,,10.0,,KIGQ 301335Z AUTO 27011G16KT 10SM CLR 18/11 A2998 RMK AO2  T01750110,,,,,,51.73,,W,29.33,28.79,,Clear
KIGQ,05/30/2017 13:55 UTC,29.98,64.4,51.62,63.22,13.8,270.0,20.71,,,,,1.0,,,,10.0,,KIGQ 301355Z AUTO 27012G18KT 10SM CLR 18/11 A2998 RMK AO2  T01800109,,,,,,51.55,,W,29.33,28.79,,Clear
KIGQ,05/30/2017 14:15 UTC,29.98,65.48,51.62,60.89,10.36,280.0,,,,,,1.0,,,,10.0,,KIGQ 301415Z AUTO 28009KT 10SM CLR 19/11 A2998 RMK AO2  T01860109,,,,,,51.55,,W,29.33,28.77,,Clear
KIGQ,05/30/2017 14:35 UTC,29.99,66.02,51.08,58.58,16.11,280.0,24.16,,,,,432.0,,,,10.0,,KIGQ 301435Z AUTO 28014G21KT 10SM SCT043 19/11 A2999 RMK AO2  T01890106,,,,,,51.0,,W,29.34,28.8,,Partly Cloudy
KIGQ,05/30/2017 14:55 UTC,29.98,66.38,50.54,56.71,14.97,260.0,24.16,,,,,452.0,,,,10.0,,KIGQ 301455Z AUTO 26013G21KT 10SM SCT045 19/10 A2998 RMK AO2  T01910103,,,,,,50.46,,W,29.33,28.81,,Partly Cloudy
KIGQ,05/30/2017 15:15 UTC,29.99,66.74,51.08,57.14,13.8,280.0,18.41,,,,,452.0,,,,10.0,,KIGQ 301515Z AUTO 28012G16KT 10SM SCT045 19/11 A2999 RMK AO2  T01930106,,,,,,51.01,,W,29.34,28.8,,Partly Cloudy
KIGQ,05/30/2017 15:35 UTC,29.99,67.1,49.1,52.43,16.11,280.0,26.46,,,,,492.0,,,,10.0,,KIGQ 301535Z AUTO 28014G23KT 10SM SCT049 20/10 A2999 RMK AO2  T01950095,,,,,,49.02,,W,29.34,28.87,,Partly Cloudy
KIGQ,05/30/2017 15:55 UTC,29.99,67.28,47.84,49.71,17.27,280.0,27.63,,,,,492.0,,,,10.0,,KIGQ 301555Z AUTO 28015G24KT 10SM SCT049 20/09 A2999 RMK AO2  T01960088,,,,,,47.76,,W,29.34,28.91,,Partly Cloudy
KIGQ,05/30/2017 16:15 UTC,29.99,68.18,48.02,48.52,10.36,300.0,20.71,,,,,552.0,,,,10.0,,KIGQ 301615Z AUTO 30009G18KT 10SM SCT055 20/09 A2999 RMK AO2  T02010089,,,,,,47.94,,WNW,29.34,28.9,,Partly Cloudy
KIGQ,05/30/2017 16:35 UTC,29.98,67.64,47.66,48.77,12.66,290.0,19.57,,,,,552.0,,,,10.0,,KIGQ 301635Z AUTO 29011G17KT 10SM SCT055 20/09 A2998 RMK AO2  T01980087,,,,,,47.58,,WNW,29.33,28.91,,Partly Cloudy
KIGQ,05/30/2017 16:55 UTC,29.98,69.62,48.56,47.13,13.8,290.0,19.57,,,,,702.0,,,,10.0,,KIGQ 301655Z AUTO 29012G17KT 10SM SCT070 21/09 A2998 RMK AO2  T02090092,,,,,,48.49,,WNW,29.33,28.86,,Partly Cloudy
KIGQ,05/30/2017 17:15 UTC,29.98,68.72,47.84,47.31,12.66,280.0,,,,,,702.0,803.0,,,10.0,,KIGQ 301715Z AUTO 28011KT 10SM SCT070 BKN080 20/09 A2998 RMK AO2  T02040088,,,8000.0,,,47.76,,W,29.33,28.89,,Mostly Cloudy
KIGQ,05/30/2017 17:35 UTC,29.98,69.62,47.84,45.88,16.11,270.0,25.32,,852.0,,,702.0,802.0,,,10.0,,KIGQ 301735Z AUTO 27014G22KT 10SM SCT070 SCT080 SCT085 21/09 A2998 RMK AO2 T02090088,,,,,,47.77,,W,29.33,28.89,,Partly Cloudy
KIGQ,05/30/2017 17:55 UTC,29.98,69.26,48.02,46.76,14.97,260.0,18.41,,1002.0,,,702.0,852.0,,,10.0,,KIGQ 301755Z AUTO 26013G16KT 10SM SCT070 SCT085 SCT100 21/09 A2998 RMK AO2 T02070089 10214 20146,70.52,58.28,,,,47.95,,W,29.33,28.88,,Partly Cloudy
KIGQ,05/30/2017 18:15 UTC,29.97,67.82,46.58,46.53,14.97,270.0,,,,,,852.0,1003.0,,,10.0,,KIGQ 301815Z AUTO 27013KT 10SM SCT085 BKN100 20/08 A2997 RMK AO2  T01990081,,,10000.0,,,46.49,,W,29.32,28.94,,Mostly Cloudy
KIGQ,05/30/2017 18:35 UTC,29.97,69.98,48.92,47.19,14.97,250.0,,,,,,802.0,1104.0,,,7.0,,KIGQ 301835Z AUTO 25013KT 7SM SCT080 OVC110 21/09 A2997 RMK AO2  T02110094,,,11000.0,,,48.85,,WSW,29.32,28.83,,Overcast
KIGQ,05/30/2017 18:55 UTC,29.96,68.0,46.04,45.31,13.8,280.0,21.85,,1104.0,,,702.0,903.0,,,10.0,,KIGQ 301855Z AUTO 28012G19KT 10SM SCT070 BKN090 OVC110 20/08 A2996 RMK AO2 T02000078,,,9000.0,,,45.95,,W,29.31,28.94,,Overcast
KIGQ,05/30/2017 19:15 UTC,29.97,68.36,47.48,47.25,13.8,260.0,,,1104.0,,,703.0,903.0,,,10.0,,KIGQ 301915Z AUTO 26012KT 10SM BKN070 BKN090 OVC110 20/09 A2997 RMK AO2 T02020086,,,7000.0,,,47.4,,W,29.32,28.9,,Overcast
KIGQ,05/30/2017 19:35 UTC,29.97,70.34,46.04,41.83,14.97,270.0,24.16,,1104.0,,,702.0,802.0,,,10.0,,KIGQ 301935Z AUTO 27013G21KT 10SM SCT070 SCT080 OVC110 21/08 A2997 RMK AO2 T02130078,,,11000.0,,,45.97,,W,29.32,28.93,,Overcast
KIGQ,05/30/2017 19:55 UTC,29.97,69.98,46.04,42.35,17.27,260.0,27.63,,,,,802.0,1003.0,,,10.0,,KIGQ 301955Z AUTO 26015G24KT 10SM SCT080 BKN100 21/08 A2997 RMK AO2 T02110078,,,10000.0,,,45.97,,W,29.32,28.94,,Mostly Cloudy
KIGQ,05/30/2017 20:15 UTC,29.96,69.44,45.32,41.97,16.11,260.0,23.02,,,,,803.0,1103.0,,,10.0,,KIGQ 302015Z AUTO 26014G20KT 10SM BKN080 BKN110 21/07 A2996 RMK AO2 T02080074,,,8000.0,,,45.24,,W,29.31,28.96,,Mostly Cloudy
KIGQ,05/30/2017 20:35 UTC,29.96,70.88,45.86,40.79,18.41,280.0,26.46,,,,,903.0,1204.0,,,10.0,,KIGQ 302035Z AUTO 28016G23KT 10SM BKN090 OVC120 22/08 A2996 RMK AO2 T02160077,,,9000.0,,,45.79,,W,29.31,28.93,,Overcast
KIGQ,05/30/2017 20:55 UTC,29.95,72.5,46.22,39.15,14.97,270.0,23.02,,1203.0,,,22.0,902.0,,,10.0,,KIGQ 302055Z AUTO 27013G20KT 10SM SCT002 SCT090 BKN120 23/08 A2995 RMK AO2 T02250079,,,12000.0,,,46.17,,W,29.3,28.89,,Mostly Cloudy
KIGQ,05/30/2017 21:15 UTC,29.95,71.96,45.86,39.33,14.97,270.0,,,,,,1202.0,,,,10.0,,KIGQ 302115Z AUTO 27013KT 10SM SCT120 22/08 A2995 RMK AO2  T02220077,,,,,,45.8,,W,29.3,28.91,,Partly Cloudy
KIGQ,05/30/2017 21:35 UTC,29.95,71.6,45.5,39.27,12.66,260.0,,,,,,802.0,1002.0,,,10.0,,KIGQ 302135Z AUTO 26011KT 10SM SCT080 SCT100 22/08 A2995 RMK AO2  T02200075,,,,,,45.44,,W,29.3,28.92,,Partly Cloudy
KIGQ,05/30/2017 21:55 UTC,29.94,70.34,44.42,39.33,13.8,260.0,23.02,,,,,1003.0,1203.0,,,10.0,,KIGQ 302155Z AUTO 26012G20KT 10SM BKN100 BKN120 21/07 A2994 RMK AO2 T02130069,,,10000.0,,,44.34,,W,29.29,28.96,,Mostly Cloudy
KIGQ,05/30/2017 22:15 UTC,29.94,70.34,44.6,39.61,12.66,260.0,,,,,,1004.0,,,,10.0,,KIGQ 302215Z AUTO 26011KT 10SM OVC100 21/07 A2994 RMK AO2  T02130070,,,10000.0,,,44.53,,W,29.29,28.95,,Overcast
KIGQ,05/30/2017 22:35 UTC,29.94,70.88,45.68,40.51,14.97,250.0,21.85,,,,,1003.0,,,,10.0,,KIGQ 302235Z AUTO 25013G19KT 10SM BKN100 22/08 A2994 RMK AO2  T02160076,,,10000.0,,,45.61,,WSW,29.29,28.91,,Mostly Cloudy
KIGQ,05/30/2017 22:55 UTC,29.94,71.42,46.04,40.33,16.11,270.0,23.02,,,,,1002.0,,,,10.0,,KIGQ 302255Z AUTO 27014G20KT 10SM SCT100 22/08 A2994 RMK AO2  T02190078,,,,,,45.98,,W,29.29,28.9,,Partly Cloudy
KIGQ,05/30/2017 23:15 UTC,29.94,70.7,46.58,42.17,13.8,250.0,21.85,,,,,1.0,,,,10.0,,KIGQ 302315Z AUTO 25012G19KT 10SM CLR 22/08 A2994 RMK AO2  T02150081,,,,,,46.51,,WSW,29.29,28.88,,Clear
KIGQ,05/30/2017 23:35 UTC,29.94,69.62,45.86,42.58,17.27,240.0,24.16,,,,,1202.0,,,,10.0,,KIGQ 302335Z AUTO 24015G21KT 10SM SCT120 21/08 A2994 RMK AO2  T02090077,,,,,,45.79,,WSW,29.29,28.92,,Partly Cloudy
KIGQ,05/30/2017 23:55 UTC,29.94,67.28,47.3,48.71,12.66,250.0,20.71,13.0,1203.0,,,502.0,652.0,,,10.0,,KIGQ 302355Z AUTO 25011G18KT 10SM -RA SCT050 SCT065 BKN120 20/09  A2994 RMK AO2 LTG DSNT N T01960085 10227 20195,72.86,67.1,12000.0,,,47.21,,WSW,29.29,28.88,,Light Rain
KIGQ,05/31/2017 00:15 UTC,29.93,67.28,47.66,49.37,9.22,270.0,,,,,,952.0,,,,10.0,,KIGQ 310015Z AUTO 27008KT 10SM SCT095 20/09 A2993 RMK AO2  T01960087,,,,,,47.57,,W,29.28,28.86,,Partly Cloudy
KIGQ,05/31/2017 00:35 UTC,29.93,65.84,47.12,50.85,3.44,290.0,,,,,,1.0,,,,10.0,,KIGQ 310035Z AUTO 29003KT 10SM CLR 19/08 A2993 RMK AO2  T01880084,,,,,,47.03,,WNW,29.28,28.89,,Clear
KIGQ,05/31/2017 00:55 UTC,29.93,65.12,47.12,52.14,0.0,0.0,,,,,,1002.0,,,,10.0,,KIGQ 310055Z AUTO 00000KT 10SM SCT100 18/08 A2993 RMK AO2 LTG DSNT  SW T01840084,,,,,,47.03,,N,29.28,28.9,,Partly Cloudy
KIGQ,05/31/2017 01:15 UTC,29.94,62.78,51.08,65.59,0.0,0.0,,13.0,1104.0,,,752.0,903.0,,,10.0,,KIGQ 310115Z AUTO 00000KT 10SM -RA SCT075 BKN090 OVC110 17/11  A2994 RMK AO2 T01710106,,,9000.0,,,51.0,,N,29.29,28.78,,Light Rain
KIGQ,05/31/2017 01:35 UTC,29.94,62.6,53.06,71.0,5.75,270.0,,,,,,754.0,,,,10.0,,KIGQ 310135Z AUTO 27005KT 10SM OVC075 17/12 A2994 RMK AO2  T01700117,,,7500.0,,,53.0,,W,29.29,28.7,,Overcast
KIGQ,05/31/2017 01:55 UTC,29.94,62.42,50.54,65.11,6.91,280.0,18.41,13.0,,,,753.0,904.0,,,10.0,,KIGQ 310155Z AUTO 28006G16KT 10SM -RA BKN075 OVC090 17/10 A2994 RMK AO2 LTG DSNT E AND SE T01690103,,,7500.0,,,50.46,,W,29.29,28.81,,Light Rain
KIGQ,05/31/2017 02:15 UTC,29.94,59.36,53.24,80.16,8.05,200.0,,13.0,904.0,0.01,,602.0,752.0,,,10.0,,KIGQ 310215Z AUTO 20007KT 10SM -RA SCT060 SCT075 OVC090 15/12  A2994 RMK AO2 LTG DSNT E AND SE P0001 T01520118,,,9000.0,,,53.19,,SSW,29.29,28.73,,Light Rain
KIGQ,05/31/2017 02:35 UTC,29.94,59.9,52.7,77.09,4.61,210.0,,,1203.0,0.01,,802.0,902.0,,,10.0,,KIGQ 310235Z AUTO 21004KT 10SM SCT080 SCT090 BKN120 16/12 A2994 RMK AO2 LTG DSNT E P0001 T01550115,,,12000.0,,,52.64,,SSW,29.29,28.74,,Mostly Cloudy
KIGQ,05/31/2017 02:55 UTC,29.94,57.92,54.5,88.37,0.0,0.0,,,,0.01,0.01,952.0,1202.0,,,10.0,,KIGQ 310255Z AUTO 00000KT 10SM SCT095 SCT120 14/13 A2994 RMK AO2  P0001 60001 T01440125,,,,,,54.47,,N,29.29,28.69,,Partly Cloudy
KIGQ,05/31/2017 03:15 UTC,29.94,58.1,54.68,88.38,3.44,180.0,,,,,,952.0,1202.0,,,10.0,,KIGQ 310315Z AUTO 18003KT 10SM SCT095 SCT120 15/13 A2994 RMK AO2  LTG DSNT SW T01450126,,,,,,54.65,,S,29.29,28.68,,Partly Cloudy
KIGQ,05/31/2017 03:35 UTC,29.94,55.76,53.96,93.66,3.44,200.0,,,,,,1.0,,,,10.0,,KIGQ 310335Z AUTO 20003KT 10SM CLR 13/12 A2994 RMK AO2  T01320122,,,,,,53.94,,SSW,29.29,28.74,,Clear
KIGQ,05/31/2017 03:55 UTC,29.94,55.04,53.6,94.89,3.44,200.0,,,,,,1102.0,,,,10.0,,KIGQ 310355Z AUTO 20003KT 10SM SCT110 13/12 A2994 RMK AO2  T01280120,,,,,,53.59,,SSW,29.29,28.76,,Partly Cloudy
KIGQ,05/31/2017 04:15 UTC,29.94,56.3,53.06,88.87,0.0,0.0,,,,,,1203.0,,,,10.0,,KIGQ 310415Z AUTO 00000KT 10SM BKN120 14/12 A2994 RMK AO2  T01350117,,,12000.0,,,53.03,,N,29.29,28.77,,Mostly Cloudy
KIGQ,05/31/2017 04:35 UTC,29.95,56.66,52.16,84.87,0.0,0.0,,,,,,1202.0,,,,10.0,,KIGQ 310435Z AUTO 00000KT 10SM SCT120 14/11 A2995 RMK AO2  T01370112,,,,,,52.12,,N,29.3,28.81,,Partly Cloudy
KIGQ,05/31/2017 04:55 UTC,29.95,55.58,51.8,87.09,0.0,0.0,,,,,,1.0,,,,10.0,,KIGQ 310455Z AUTO 00000KT 10SM CLR 13/11 A2995 RMK AO2  T01310110,,,,,,51.76,,N,29.3,28.83,,Clear
KIGQ,05/31/2017 05:15 UTC,29.95,56.48,51.8,84.3,0.0,0.0,,,,,,1202.0,,,,10.0,,KIGQ 310515Z AUTO 00000KT 10SM SCT120 14/11 A2995 RMK AO2  T01360110,,,,,,51.76,,N,29.3,28.83,,Partly Cloudy
KIGQ,05/31/2017 05:35 UTC,29.95,55.4,52.16,88.83,0.0,0.0,,,,,,1.0,,,,10.0,,KIGQ 310535Z AUTO 00000KT 10SM CLR 13/11 A2995 RMK AO2  T01300112,,,,,,52.13,,N,29.3,28.82,,Clear
KIGQ,05/31/2017 05:55 UTC,29.95,55.4,53.06,91.82,0.0,0.0,,,,,,1.0,,0.01,,10.0,,KIGQ 310555Z AUTO 00000KT 10SM CLR 13/12 A2995 RMK AO2 60001  T01300117 10196 20125 402270115,67.28,54.5,,72.86,52.7,53.04,,N,29.3,28.79,,Clear
KIGQ,05/31/2017 06:15 UTC,29.96,53.6,50.9,90.54,0.0,0.0,,,,,,1.0,,,,10.0,,KIGQ 310615Z AUTO 00000KT 10SM CLR 12/11 A2996 RMK AO2  T01200105,,,,,,50.87,,N,29.31,28.9,,Clear
KIGQ,05/31/2017 06:35 UTC,29.96,54.14,52.52,94.24,0.0,0.0,,,,,,1.0,,,,10.0,,KIGQ 310635Z AUTO 00000KT 10SM CLR 12/11 A2996 RMK AO2  T01230114,,,,,,52.5,,N,29.31,28.83,,Clear
KIGQ,05/31/2017 06:55 UTC,29.96,53.06,51.44,94.21,0.0,0.0,,,,,,1103.0,,,,10.0,,KIGQ 310655Z AUTO 00000KT 10SM BKN110 12/11 A2996 RMK AO2  T01170108,,,11000.0,,,51.42,,N,29.31,28.88,,Mostly Cloudy
KIGQ,05/31/2017 07:15 UTC,29.96,52.7,51.8,96.74,0.0,0.0,,,,,,1102.0,,,,10.0,,KIGQ 310715Z AUTO 00000KT 10SM SCT110 12/11 A2996 RMK AO2  T01150110,,,,,,51.79,,N,29.31,28.88,,Partly Cloudy
KIGQ,05/31/2017 07:35 UTC,29.96,52.88,52.52,98.69,3.44,260.0,,,,,,1103.0,,,,10.0,,KIGQ 310735Z AUTO 26003KT 10SM BKN110 12/11 A2996 RMK AO2  T01160114,,,11000.0,,,52.52,,W,29.31,28.85,,Mostly Cloudy
KIGQ,05/31/2017 07:55 UTC,29.96,53.96,51.8,92.38,4.61,270.0,,,,,,1104.0,,,,10.0,,KIGQ 310755Z AUTO 27004KT 10SM OVC110 12/11 A2996 RMK AO2  T01220110,,,11000.0,,,51.78,,W,29.31,28.86,,Overcast
KIGQ,05/31/2017 08:15 UTC,29.96,54.14,50.9,88.77,3.44,280.0,,,,,,1103.0,,,,10.0,,KIGQ 310815Z AUTO 28003KT 10SM BKN110 12/11 A2996 RMK AO2  T01230105,,,11000.0,,,50.87,,W,29.31,28.89,,Mostly Cloudy
KIGQ,05/31/2017 08:35 UTC,29.96,54.32,50.18,85.87,3.44,280.0,,,,,,1002.0,,,,10.0,,KIGQ 310835Z AUTO 28003KT 10SM SCT100 12/10 A2996 RMK AO2  T01240101,,,,,,50.14,,W,29.31,28.92,,Partly Cloudy
KIGQ,05/31/2017 08:55 UTC,29.96,53.24,49.82,88.14,3.44,270.0,,,,,,1.0,,,,10.0,,KIGQ 310855Z AUTO 27003KT 10SM CLR 12/10 A2996 RMK AO2  T01180099,,,,,,49.78,,W,29.31,28.94,,Clear
KIGQ,05/31/2017 09:15 UTC,29.96,52.7,48.74,86.35,3.44,280.0,,,,,,1.0,,,,10.0,,KIGQ 310915Z AUTO 28003KT 10SM CLR 12/09 A2996 RMK AO2  T01150093,,,,,,48.7,,W,29.31,28.98,,Clear
KIGQ,05/31/2017 09:35 UTC,29.96,51.98,49.28,90.48,4.61,270.0,,,,,,1.0,,,,10.0,,KIGQ 310935Z AUTO 27004KT 10SM CLR 11/10 A2996 RMK AO2  T01110096,,,,,,49.25,,W,29.31,28.97,,Clear
KIGQ,05/31/2017 09:55 UTC,29.97,52.34,48.74,87.5,3.44,290.0,,,,,,1.0,,,,10.0,,KIGQ 310955Z AUTO 29003KT 10SM CLR 11/09 A2997 RMK AO2  T01130093,,,,,,48.7,,WNW,29.32,29.0,,Clear
KIGQ,05/31/2017 10:15 UTC,29.97,51.62,48.02,87.47,4.61,270.0,,,,,,1.0,,,,10.0,,KIGQ 311015Z AUTO 27004KT 10SM CLR 11/09 A2997 RMK AO2  T01090089,,,,,,47.98,,W,29.32,29.03,,Clear
KIGQ,05/31/2017 10:35 UTC,29.97,51.98,48.56,88.08,3.44,270.0,,,,,,1.0,,,,10.0,,KIGQ 311035Z AUTO 27003KT 10SM CLR 11/09 A2997 RMK AO2  T01110092,,,,,,48.52,,W,29.32,29.01,,Clear
KIGQ,05/31/2017 10:55 UTC,29.98,51.8,48.56,88.66,4.61,270.0,,,,,,1.0,,,,10.0,,KIGQ 311055Z AUTO 27004KT 10SM CLR 11/09 A2998 RMK AO2  T01100092,,,,,,48.52,,W,29.33,29.02,,Clear
KIGQ,05/31/2017 11:15 UTC,29.99,52.7,49.1,87.52,5.75,270.0,,,,,,1.0,,,,10.0,,KIGQ 311115Z AUTO 27005KT 10SM CLR 12/10 A2999 RMK AO2  T01150095,,,,,,49.06,,W,29.34,29.0,,Clear
KIGQ,05/31/2017 11:35 UTC,29.99,54.32,49.64,84.16,5.75,270.0,,,,,,1.0,,,,10.0,,KIGQ 311135Z AUTO 27005KT 10SM CLR 12/10 A2999 RMK AO2  T01240098,,,,,,49.59,,W,29.34,28.97,,Clear
KIGQ,05/31/2017 11:55 UTC,29.99,56.12,50.0,79.9,4.61,280.0,,,,,,1.0,,,0.01,10.0,,KIGQ 311155Z AUTO 28004KT 10SM CLR 13/10 A2999 RMK AO2 70001  T01340100 10134 20109,56.12,51.62,,,,49.94,,W,29.34,28.94,,Clear
KIGQ,05/31/2017 12:15 UTC,30.0,57.56,49.82,75.35,5.75,270.0,,,,,,1.0,,,,10.0,,KIGQ 311215Z AUTO 27005KT 10SM CLR 14/10 A3000 RMK AO2  T01420099,,,,,,49.75,,W,29.35,28.94,,Clear
KIGQ,05/31/2017 12:35 UTC,30.01,59.18,51.08,74.51,5.75,260.0,,,,,,1.0,,,,10.0,,KIGQ 311235Z AUTO 26005KT 10SM CLR 15/11 A3001 RMK AO2  T01510106,,,,,,51.02,,W,29.36,28.89,,Clear
KIGQ,05/31/2017 12:55 UTC,,,,,,,,,,,,,,,,,,KIGQ 311255Z AUTO RMK TEMPORAIRILY INOPERATIVE,,,,,,,,,,,,
KIGQ,05/31/2017 13:15 UTC,30.01,62.06,46.94,57.64,6.91,270.0,,,,,,1.0,,,,10.0,,KIGQ 311315Z AUTO 27006KT 10SM CLR 17/08 A3001 RMK AO2 T01670083  PWINO,,,,,,46.84,,W,29.36,29.01,,Clear
KIGQ,05/31/2017 13:35 UTC,30.01,62.6,46.22,55.04,6.91,290.0,,,,,,1.0,,,,10.0,,KIGQ 311335Z AUTO 29006KT 10SM CLR 17/08 A3001 RMK AO2  T01700079,,,,,,46.12,,WNW,29.36,29.03,,Clear
KIGQ,05/31/2017 13:55 UTC,30.01,63.32,46.04,53.3,12.66,280.0,18.41,,,,,1.0,,,,10.0,,KIGQ 311355Z AUTO 28011G16KT 10SM CLR 17/08 A3001 RMK AO2  T01740078,,,,,,45.94,,W,29.36,29.03,,Clear
KIGQ,05/31/2017 14:15 UTC,30.01,63.86,46.94,54.11,9.22,310.0,,,,,,1.0,,,,10.0,,KIGQ 311415Z AUTO 31008KT 10SM CLR 18/08 A3001 RMK AO2  T01770083,,,,,,46.84,,NW,29.36,28.99,,Clear
KIGQ,05/31/2017 14:35 UTC,30.01,64.4,46.22,51.68,10.36,280.0,18.41,,,,,1.0,,,,10.0,,KIGQ 311435Z AUTO 28009G16KT 10SM CLR 18/08 A3001 RMK AO2  T01800079,,,,,,46.12,,W,29.36,29.02,,Clear
KIGQ,05/31/2017 14:55 UTC,30.01,64.76,46.04,50.68,10.36,290.0,17.27,,,,0.03,1.0,,,,10.0,,KIGQ 311455Z AUTO 29009G15KT 10SM CLR 18/08 A3001 RMK AO2 60003  T01820078,,,,,,45.94,,WNW,29.36,29.02,,Clear
KIGQ,05/31/2017 15:15 UTC,30.01,65.48,45.68,48.76,17.27,280.0,21.85,,,,,1.0,,,,10.0,,KIGQ 311515Z AUTO 28015G19KT 10SM CLR 19/08 A3001 RMK AO2  T01860076,,,,,,45.58,,W,29.36,29.02,,Clear
KIGQ,05/31/2017 15:35 UTC,30.0,66.2,46.58,49.21,16.11,280.0,24.16,,,,,1.0,,,,10.0,,KIGQ 311535Z AUTO 28014G21KT 10SM CLR 19/08 A3000 RMK AO2  T01900081,,,,,,46.49,,W,29.35,28.98,,Clear
KIGQ,05/31/2017 15:55 UTC,30.01,66.38,46.76,49.24,16.11,270.0,21.85,,,,,1.0,,,,10.0,,KIGQ 311555Z AUTO 27014G19KT 10SM CLR 19/08 A3001 RMK AO2  T01910082,,,,,,46.67,,W,29.36,28.98,,Clear
KIGQ,05/31/2017 16:15 UTC,30.01,67.1,46.4,47.38,13.8,300.0,19.57,,,,,1.0,,,,10.0,,KIGQ 311615Z AUTO 30012G17KT 10SM CLR 20/08 A3001 RMK AO2  T01950080,,,,,,46.31,,WNW,29.36,28.99,,Clear
KIGQ,05/31/2017 16:35 UTC,30.01,68.0,47.48,47.84,16.11,270.0,24.16,,,,,1.0,,,,10.0,,KIGQ 311635Z AUTO 27014G21KT 10SM CLR 20/09 A3001 RMK AO2  T02000086,,,,,,47.4,,W,29.36,28.94,,Clear
KIGQ,05/31/2017 16:55 UTC,30.01,67.46,47.12,48.08,11.5,280.0,,,,,,1.0,,,,10.0,,KIGQ 311655Z AUTO 28010KT 250V310 10SM CLR 20/08 A3001 RMK AO2  T01970084,,,,,,47.03,,W,29.36,28.96,,Clear
KIGQ,05/31/2017 17:15 UTC,30.01,67.82,44.96,43.76,11.5,290.0,18.41,,,,,1.0,,,,10.0,,KIGQ 311715Z AUTO 29010G16KT 10SM CLR 20/07 A3001 RMK AO2  T01990072,,,,,,44.87,,WNW,29.36,29.03,,Clear
KIGQ,05/31/2017 17:35 UTC,30.01,68.36,43.34,40.38,11.5,270.0,24.16,,,,,1.0,,,,10.0,,KIGQ 311735Z AUTO 27010G21KT 10SM CLR 20/06 A3001 RMK AO2  T02020063,,,,,,43.25,,W,29.36,29.08,,Clear
KIGQ,05/31/2017 17:55 UTC,30.01,68.72,43.16,39.61,13.8,300.0,18.41,,,,,1.0,,0.03,,10.0,,KIGQ 311755Z AUTO 30012G16KT 10SM CLR 20/06 A3001 RMK AO2 60003  T02040062 10205 20135,68.9,56.3,,,,43.07,,WNW,29.36,29.08,,Clear
KIGQ,05/31/2017 18:15 UTC,30.01,68.9,42.44,38.3,11.5,280.0,21.85,,,,,1.0,,,,10.0,,KIGQ 311815Z AUTO 28010G19KT 10SM CLR 21/06 A3001 RMK AO2  T02050058,,,,,,42.36,,W,29.36,29.1,,Clear
KIGQ,05/31/2017 18:35 UTC,30.0,69.62,43.34,38.68,18.41,280.0,23.02,,,,,1.0,,,,10.0,,KIGQ 311835Z AUTO 28016G20KT 10SM CLR 21/06 A3000 RMK AO2  T02090063,,,,,,43.26,,W,29.35,29.06,,Clear
KIGQ,05/31/2017 18:55 UTC,30.0,69.8,42.26,36.88,12.66,300.0,17.27,,,,,1.0,,,,10.0,,KIGQ 311855Z AUTO 30011G15KT 10SM CLR 21/06 A3000 RMK AO2  T02100057,,,,,,42.18,,WNW,29.35,29.09,,Clear
KIGQ,05/31/2017 19:15 UTC,30.0,69.8,41.72,36.12,13.8,280.0,23.02,,,,,1.0,,,,10.0,,KIGQ 311915Z AUTO 28012G20KT 10SM CLR 21/05 A3000 RMK AO2  T02100054,,,,,,41.64,,W,29.35,29.11,,Clear
KIGQ,05/31/2017 19:35 UTC,30.0,70.88,42.98,36.55,10.36,300.0,16.11,,,,,1.0,,,,10.0,,KIGQ 311935Z AUTO 30009G14KT 10SM CLR 22/06 A3000 RMK AO2  T02160061,,,,,,42.91,,WNW,29.35,29.06,,Clear
KIGQ,05/31/2017 19:55 UTC,29.99,70.7,42.26,35.77,17.27,270.0,24.16,,,,,1.0,,,,10.0,,KIGQ 311955Z AUTO 27015G21KT 260V320 10SM CLR 22/06 A2999 RMK AO2  T02150057,,,,,,42.19,,W,29.34,29.08,,Clear
KIGQ,05/31/2017 20:15 UTC,29.99,71.6,42.8,35.42,10.36,290.0,18.41,,,,,702.0,,,,10.0,,KIGQ 312015Z AUTO 29009G16KT 10SM SCT070 22/06 A2999 RMK AO2  T02200060,,,,,,42.73,,WNW,29.34,29.05,,Partly Cloudy
KIGQ,05/31/2017 20:35 UTC,29.98,71.42,42.62,35.4,13.8,300.0,17.27,,,,,702.0,,,,10.0,,KIGQ 312035Z AUTO 30012G15KT 10SM SCT070 22/06 A2998 RMK AO2  T02190059,,,,,,42.56,,WNW,29.33,29.05,,Partly Cloudy
KIGQ,05/31/2017 20:55 UTC,29.98,70.52,40.82,34.04,11.5,290.0,19.57,,,,,1.0,,,,10.0,,KIGQ 312055Z AUTO 29010G17KT 10SM CLR 21/05 A2998 RMK AO2  T02140049,,,,,,40.74,,WNW,29.33,29.11,,Clear
KIGQ,05/31/2017 21:15 UTC,29.98,71.6,41.54,33.75,10.36,290.0,18.41,,,,,1.0,,,,10.0,,KIGQ 312115Z AUTO 29009G16KT 10SM CLR 22/05 A2998 RMK AO2  T02200053,,,,,,41.48,,WNW,29.33,29.08,,Clear
KIGQ,05/31/2017 21:35 UTC,29.98,70.34,40.46,33.78,11.5,300.0,17.27,,,,,1.0,,,,10.0,,KIGQ 312135Z AUTO 30010G15KT 10SM CLR 21/05 A2998 RMK AO2  T02130047,,,,,,40.39,,WNW,29.33,29.12,,Clear
KIGQ,05/31/2017 21:55 UTC,29.97,71.6,41.36,33.51,11.5,290.0,17.27,,,,,1.0,,,,10.0,,KIGQ 312155Z AUTO 29010G15KT 10SM CLR 22/05 A2997 RMK AO2  T02200052,,,,,,41.3,,WNW,29.32,29.08,,Clear
KIGQ,05/31/2017 22:15 UTC,29.97,71.6,41.54,33.75,10.36,280.0,,,,,,752.0,,,,10.0,,KIGQ 312215Z AUTO 28009KT 10SM SCT075 22/05 A2997 RMK AO2  T02200053,,,,,,41.48,,W,29.32,29.07,,Partly Cloudy
KIGQ,05/31/2017 22:35 UTC,29.97,71.78,41.36,33.31,10.36,300.0,17.27,,,,,752.0,,,,10.0,,KIGQ 312235Z AUTO 30009G15KT 10SM SCT075 22/05 A2997 RMK AO2  T02210052,,,,,,41.3,,WNW,29.32,29.08,,Partly Cloudy
KIGQ,05/31/2017 22:55 UTC,29.98,71.6,39.74,31.47,11.5,300.0,19.57,,,,,1.0,,,,10.0,,KIGQ 312255Z AUTO 30010G17KT 10SM CLR 22/04 A2998 RMK AO2  T02200043,,,,,,39.68,,WNW,29.33,29.14,,Clear
KIGQ,05/31/2017 23:15 UTC,29.98,71.6,38.3,29.75,11.5,290.0,,,,,,1.0,,,,10.0,,KIGQ 312315Z AUTO 29010KT 10SM CLR 22/04 A2998 RMK AO2  T02200035,,,,,,38.24,,WNW,29.33,29.18,,Clear
KIGQ,05/31/2017 23:35 UTC,29.98,71.06,39.2,31.38,9.22,300.0,18.41,,,,,1.0,,,,10.0,,KIGQ 312335Z AUTO 30008G16KT 10SM CLR 22/04 A2998 RMK AO2  T02170040,,,,,,39.13,,WNW,29.33,29.15,,Clear
KIGQ,05/31/2017 23:55 UTC,29.99,70.7,38.84,31.33,9.22,300.0,17.27,,,,,1.0,,,,10.0,,KIGQ 312355Z AUTO 30008G15KT 10SM CLR 22/04 A2999 RMK AO2  T02150038 10223 20203,72.14,68.54,,,,38.77,,WNW,29.34,29.18,,Clear
