# STATION: KIGQ
# STATION NAME: Lansing Municipal Airport
# LATITUDE: 41.54125
# LONGITUDE: -87.52822
# ELEVATION [ft]: 607
# STATE: IL
Station_ID,Date_Time,altimeter_set_1,air_temp_set_1,dew_point_temperature_set_1,relative_humidity_set_1,wind_speed_set_1,wind_direction_set_1,wind_gust_set_1,weather_cond_code_set_1,cloud_layer_3_code_set_1,precip_accum_one_hour_set_1,precip_accum_three_hour_set_1,cloud_layer_1_code_set_1,cloud_layer_2_code_set_1,precip_accum_six_hour_set_1,precip_accum_24_hour_set_1,visibility_set_1,metar_remark_set_1,metar_set_1,air_temp_high_6_hour_set_1,air_temp_low_6_hour_set_1,ceiling_set_1,air_temp_high_24_hour_set_1,air_temp_low_24_hour_set_1,dew_point_temperature_set_1d,wind_chill_set_1d,wind_cardinal_direction_set_1d,pressure_set_1d,sea_level_pressure_set_1d,heat_index_set_1d,weather_condition_set_1d
,,INHG,Fahrenheit,Fahrenheit,%,Miles/hour,Degrees,Miles/hour,code,code,Inches,Inches,code,code,Inches,Inches,Statute miles,text,text,Fahrenheit,Fahrenheit,Feet,Fahrenheit,Fahrenheit,Fahrenheit,Fahrenheit,Code,INHG,INHG,Fahrenheit,Code
KIGQ,06/01/2017 00:15 UTC,29.99,69.8,39.92,33.69,10.36,290.0,17.27,,,,,802.0,,,,10.0,,KIGQ 010015Z AUTO 29009G15KT 10SM SCT080 21/04 A2999 RMK AO2  T02100044,,,,,,39.84,,WNW,29.34,29.15,,Partly Cloudy
KIGQ,06/01/2017 00:35 UTC,30.0,68.54,39.92,35.17,6.91,290.0,10.36,,,,,802.0,,,,10.0,,KIGQ 010035Z AUTO 29006G09KT 10SM SCT080 20/04 A3000 RMK AO2  T02030044,,,,,,39.83,,WNW,29.35,29.17,,Partly Cloudy
KIGQ,06/01/2017 00:55 UTC,30.0,67.64,39.92,36.28,5.75,290.0,,,,,,1.0,,,,10.0,,KIGQ 010055Z AUTO 29005KT 10SM CLR 20/04 A3000 RMK AO2  T01980044,,,,,,39.82,,WNW,29.35,29.18,,Clear
KIGQ,06/01/2017 01:15 UTC,30.0,66.38,39.74,37.62,6.91,280.0,,,,,,1.0,,,,10.0,,KIGQ 010115Z AUTO 28006KT 10SM CLR 19/04 A3000 RMK AO2  T01910043,,,,,,39.63,,W,29.35,29.19,,Clear
KIGQ,06/01/2017 01:35 UTC,30.0,65.3,39.92,39.33,4.61,280.0,,,,,,1.0,,,,10.0,,KIGQ 010135Z AUTO 28004KT 10SM CLR 19/04 A3000 RMK AO2  T01850044,,,,,,39.8,,W,29.35,29.19,,Clear
KIGQ,06/01/2017 01:55 UTC,30.0,64.94,40.1,40.11,3.44,260.0,,,,,,1.0,,,,10.0,,KIGQ 010155Z AUTO 26003KT 10SM CLR 18/05 A3000 RMK AO2  T01830045,,,,,,39.99,,W,29.35,29.19,,Clear
KIGQ,06/01/2017 02:15 UTC,30.01,64.04,40.64,42.26,3.44,250.0,,,,,,1.0,,,,10.0,,KIGQ 010215Z AUTO 25003KT 10SM CLR 18/05 A3001 RMK AO2  T01780048,,,,,,40.52,,WSW,29.36,29.19,,Clear
KIGQ,06/01/2017 02:35 UTC,30.01,59.9,44.96,57.73,3.44,240.0,,,,,,1.0,,,,10.0,,KIGQ 010235Z AUTO 24003KT 10SM CLR 16/07 A3001 RMK AO2  T01550072,,,,,,44.85,,WSW,29.36,29.09,,Clear
KIGQ,06/01/2017 02:55 UTC,30.01,58.64,44.24,58.75,3.44,240.0,,,,,,1.0,,,,10.0,,KIGQ 010255Z AUTO 24003KT 10SM CLR 15/07 A3001 RMK AO2  T01480068,,,,,,44.13,,WSW,29.36,29.12,,Clear
KIGQ,06/01/2017 03:15 UTC,30.01,61.34,42.26,49.47,3.44,250.0,,,,,,1.0,,,,10.0,,KIGQ 010315Z AUTO 25003KT 10SM CLR 16/06 A3001 RMK AO2  T01630057,,,,,,42.14,,WSW,29.36,29.16,,Clear
KIGQ,06/01/2017 03:35 UTC,30.01,59.54,42.08,52.37,0.0,0.0,,,,,,1.0,,,,10.0,,KIGQ 010335Z AUTO 00000KT 10SM CLR 15/06 A3001 RMK AO2  T01530056,,,,,,41.96,,N,29.36,29.18,,Clear
KIGQ,06/01/2017 03:55 UTC,30.02,56.48,44.24,63.49,0.0,0.0,,,,,,1.0,,,,10.0,,KIGQ 010355Z AUTO 00000KT 10SM CLR 14/07 A3002 RMK AO2  T01360068,,,,,,44.13,,N,29.37,29.15,,Clear
KIGQ,06/01/2017 04:15 UTC,30.02,56.66,44.24,63.08,3.44,270.0,,,,,,1.0,,,,10.0,,KIGQ 010415Z AUTO 27003KT 10SM CLR 14/07 A3002 RMK AO2  T01370068,,,,,,44.13,,W,29.37,29.15,,Clear
KIGQ,06/01/2017 04:35 UTC,30.02,55.4,43.88,65.12,0.0,0.0,,,,,,1.0,,,,10.0,,KIGQ 010435Z AUTO 00000KT 10SM CLR 13/07 A3002 RMK AO2  T01300066,,,,,,43.78,,N,29.37,29.17,,Clear
KIGQ,06/01/2017 04:55 UTC,30.02,56.48,43.34,61.34,0.0,0.0,,,,,,1.0,,,,10.0,,KIGQ 010455Z AUTO 00000KT 10SM CLR 14/06 A3002 RMK AO2  T01360063,,,,,,43.23,,N,29.37,29.18,,Clear
KIGQ,06/01/2017 05:15 UTC,30.02,55.04,41.9,61.15,0.0,0.0,,,,,,1.0,,,,10.0,,KIGQ 010515Z AUTO 00000KT 10SM CLR 13/06 A3002 RMK AO2  T01280055,,,,,,41.78,,N,29.37,29.23,,Clear
KIGQ,06/01/2017 05:35 UTC,30.03,54.14,43.7,67.71,3.44,230.0,,,,,,1.0,,,,10.0,,KIGQ 010535Z AUTO 23003KT 10SM CLR 12/07 A3003 RMK AO2  T01230065,,,,,,43.6,,SW,29.38,29.2,,Clear
KIGQ,06/01/2017 05:55 UTC,30.03,51.98,42.98,71.29,0.0,0.0,,,,,,1.0,,,,10.0,,KIGQ 010555Z AUTO 00000KT 10SM CLR 11/06 A3003 RMK AO2 T01110061  10213 20111 402230109,70.34,51.98,,72.14,51.62,42.89,,N,29.38,29.24,,Clear
KIGQ,06/01/2017 06:15 UTC,30.03,53.24,42.44,66.67,0.0,0.0,,,,,,1.0,,,,10.0,,KIGQ 010615Z AUTO 00000KT 10SM CLR 12/06 A3003 RMK AO2  T01180058,,,,,,42.33,,N,29.38,29.24,,Clear
KIGQ,06/01/2017 06:35 UTC,30.04,53.06,42.26,66.65,0.0,0.0,,,,,,1.0,,,,10.0,,KIGQ 010635Z AUTO 00000KT 10SM CLR 12/06 A3004 RMK AO2  T01170057,,,,,,42.15,,N,29.39,29.26,,Clear
KIGQ,06/01/2017 06:55 UTC,30.04,52.16,41.9,67.94,0.0,0.0,,,,,,1.0,,,,10.0,,KIGQ 010655Z AUTO 00000KT 10SM CLR 11/06 A3004 RMK AO2  T01120055,,,,,,41.79,,N,29.39,29.27,,Clear
KIGQ,06/01/2017 07:15 UTC,30.04,51.62,41.9,69.31,0.0,0.0,,,,,,1.0,,,,10.0,,KIGQ 010715Z AUTO 00000KT 10SM CLR 11/06 A3004 RMK AO2  T01090055,,,,,,41.8,,N,29.39,29.28,,Clear
KIGQ,06/01/2017 07:35 UTC,30.04,51.26,42.62,72.21,0.0,0.0,,,,,,1.0,,,,10.0,,KIGQ 010735Z AUTO 00000KT 10SM CLR 11/06 A3004 RMK AO2  T01070059,,,,,,42.53,,N,29.39,29.26,,Clear
KIGQ,06/01/2017 07:55 UTC,30.04,51.98,42.26,69.35,0.0,0.0,,,,,,1.0,,,,10.0,,KIGQ 010755Z AUTO 00000KT 10SM CLR 11/06 A3004 RMK AO2  T01110057,,,,,,42.16,,N,29.39,29.27,,Clear
KIGQ,06/01/2017 08:15 UTC,30.04,51.62,42.62,71.25,0.0,0.0,,,,,,1.0,,,,10.0,,KIGQ 010815Z AUTO 00000KT 10SM CLR 11/06 A3004 RMK AO2  T01090059,,,,,,42.52,,N,29.39,29.26,,Clear
KIGQ,06/01/2017 08:35 UTC,30.04,50.36,42.26,73.63,0.0,0.0,,,,,,1.0,,,,10.0,,KIGQ 010835Z AUTO 00000KT 10SM CLR 10/06 A3004 RMK AO2  T01020057,,,,,,42.17,,N,29.39,29.28,,Clear
KIGQ,06/01/2017 08:55 UTC,30.04,51.8,42.08,69.33,0.0,0.0,,,,,,1.0,,,,10.0,,KIGQ 010855Z AUTO 00000KT 10SM CLR 11/06 A3004 RMK AO2  T01100056,,,,,,41.98,,N,29.39,29.27,,Clear
KIGQ,06/01/2017 09:15 UTC,30.04,50.9,41.36,69.71,0.0,0.0,,,,,,1.0,,,,10.0,,KIGQ 010915Z AUTO 00000KT 10SM CLR 11/05 A3004 RMK AO2  T01050052,,,,,,41.26,,N,29.39,29.3,,Clear
KIGQ,06/01/2017 09:35 UTC,30.04,52.16,41.9,67.94,0.0,0.0,,,,,,1.0,,,,10.0,,KIGQ 010935Z AUTO 00000KT 10SM CLR 11/06 A3004 RMK AO2  T01120055,,,,,,41.79,,N,29.39,29.27,,Clear
KIGQ,06/01/2017 09:55 UTC,30.05,48.74,41.18,75.02,0.0,0.0,,,,,,1.0,,,,10.0,,KIGQ 010955Z AUTO 00000KT 10SM CLR 09/05 A3005 RMK AO2  T00930051,,,,,,41.09,,N,29.4,29.33,,Clear
KIGQ,06/01/2017 10:15 UTC,30.05,48.02,41.9,79.24,0.0,0.0,,,,,,1.0,,,,10.0,,KIGQ 011015Z AUTO 00000KT 10SM CLR 09/06 A3005 RMK AO2  T00890055,,,,,,41.83,,N,29.4,29.32,,Clear
KIGQ,06/01/2017 10:35 UTC,30.05,47.3,42.08,81.98,4.61,200.0,,,,,,1.0,,,,10.0,,KIGQ 011035Z AUTO 20004KT 10SM CLR 09/06 A3005 RMK AO2  T00850056,,,,,,42.02,,SSW,29.4,29.32,,Clear
KIGQ,06/01/2017 10:55 UTC,30.06,47.48,41.72,80.3,0.0,0.0,,,,,,1.0,,,,10.0,,KIGQ 011055Z AUTO 00000KT 10SM CLR 09/05 A3006 RMK AO2  T00860054,,,,,,41.65,,N,29.41,29.34,,Clear
KIGQ,06/01/2017 11:15 UTC,30.06,49.1,42.44,77.7,0.0,0.0,,,,,,1.0,,,,10.0,,KIGQ 011115Z AUTO 00000KT 10SM CLR 10/06 A3006 RMK AO2  T00950058,,,,,,42.36,,N,29.41,29.3,,Clear
KIGQ,06/01/2017 11:35 UTC,30.07,53.06,46.04,76.99,0.0,0.0,,,,,,1.0,,,,10.0,,KIGQ 011135Z AUTO 00000KT 10SM CLR 12/08 A3007 RMK AO2  T01170078,,,,,,45.97,,N,29.42,29.18,,Clear
KIGQ,06/01/2017 11:55 UTC,30.08,56.48,44.42,63.93,3.44,260.0,,,,,,1.0,,,0.03,10.0,,KIGQ 011155Z AUTO 26003KT 10SM CLR 14/07 A3008 RMK AO2 70003  T01360069 10136 20082,56.48,46.76,,,,44.32,,W,29.43,29.21,,Clear
KIGQ,06/01/2017 12:15 UTC,30.08,58.28,44.96,61.16,3.44,290.0,,,,,,1.0,,,,10.0,,KIGQ 011215Z AUTO 29003KT 10SM CLR 15/07 A3008 RMK AO2  T01460072,,,,,,44.85,,WNW,29.43,29.18,,Clear
KIGQ,06/01/2017 12:35 UTC,30.09,60.08,44.78,56.97,3.44,280.0,,,,,,1.0,,,,10.0,,KIGQ 011235Z AUTO 28003KT 10SM CLR 16/07 A3009 RMK AO2  T01560071,,,,,,44.67,,W,29.44,29.18,,Clear
KIGQ,06/01/2017 12:55 UTC,30.09,61.88,44.78,53.45,4.61,340.0,,,,,,1.0,,,,10.0,,KIGQ 011255Z AUTO 34004KT 10SM CLR 17/07 A3009 RMK AO2  T01660071,,,,,,44.67,,NNW,29.44,29.16,,Clear
KIGQ,06/01/2017 13:15 UTC,30.09,63.32,43.52,48.43,0.0,0.0,,,,,,1.0,,,,10.0,,KIGQ 011315Z AUTO 00000KT 10SM CLR 17/06 A3009 RMK AO2  T01740064,,,,,,43.41,,N,29.44,29.19,,Clear
KIGQ,06/01/2017 13:35 UTC,30.1,64.04,44.06,48.21,0.0,0.0,,,,,,1.0,,,,10.0,,KIGQ 011335Z AUTO 00000KT 10SM CLR 18/07 A3010 RMK AO2  T01780067,,,,,,43.95,,N,29.45,29.18,,Clear
KIGQ,06/01/2017 13:55 UTC,30.1,65.3,44.42,46.77,0.0,0.0,,,,,,1.0,,,,10.0,,KIGQ 011355Z AUTO 00000KT 10SM CLR 19/07 A3010 RMK AO2  T01850069,,,,,,44.32,,N,29.45,29.16,,Clear
KIGQ,06/01/2017 14:15 UTC,30.11,66.38,45.14,46.31,0.0,0.0,,,,,,1.0,,,,10.0,,KIGQ 011415Z AUTO 00000KT 10SM CLR 19/07 A3011 RMK AO2  T01910073,,,,,,45.05,,N,29.46,29.14,,Clear
KIGQ,06/01/2017 14:35 UTC,30.11,67.64,43.88,42.26,0.0,0.0,,,,,,1.0,,,,10.0,,KIGQ 011435Z AUTO 00000KT 10SM CLR 20/07 A3011 RMK AO2  T01980066,,,,,,43.79,,N,29.46,29.17,,Clear
KIGQ,06/01/2017 14:55 UTC,30.11,69.26,45.86,43.1,0.0,0.0,,,,,,1.0,,,,10.0,,KIGQ 011455Z AUTO 00000KT 10SM CLR 21/08 A3011 RMK AO2  T02070077,,,,,,45.78,,N,29.46,29.09,,Clear
KIGQ,06/01/2017 15:15 UTC,30.11,70.16,44.42,39.58,0.0,0.0,,,,,,1.0,,,,10.0,,KIGQ 011515Z AUTO 00000KT 10SM CLR 21/07 A3011 RMK AO2  T02120069,,,,,,44.35,,N,29.46,29.13,,Clear
KIGQ,06/01/2017 15:35 UTC,30.11,70.7,43.34,37.29,3.44,310.0,,,,,,1.0,,,,10.0,,KIGQ 011535Z AUTO 31003KT 10SM CLR 22/06 A3011 RMK AO2  T02150063,,,,,,43.27,,NW,29.46,29.16,,Clear
KIGQ,06/01/2017 15:55 UTC,30.11,71.96,44.6,37.49,0.0,0.0,,,,,,1.0,,,,10.0,,KIGQ 011555Z AUTO 00000KT 10SM CLR 22/07 A3011 RMK AO2  T02220070,,,,,,44.54,,N,29.46,29.11,,Clear
KIGQ,06/01/2017 16:15 UTC,30.1,72.32,41.36,32.71,5.75,30.0,,,,,,1.0,,,,10.0,,KIGQ 011615Z AUTO 03005KT 10SM CLR 22/05 A3010 RMK AO2  T02240052,,,,,,41.31,,NNE,29.45,29.21,,Clear
KIGQ,06/01/2017 16:35 UTC,30.1,73.04,40.82,31.26,5.75,360.0,,,,,,1.0,,,,10.0,,KIGQ 011635Z AUTO 36005KT 10SM CLR 23/05 A3010 RMK AO2  T02280049,,,,,,40.77,,N,29.45,29.22,,Clear
KIGQ,06/01/2017 16:55 UTC,30.1,74.12,41.9,31.44,10.36,290.0,,,,,,1.0,,,,10.0,,KIGQ 011655Z AUTO 29009KT 10SM CLR 23/06 A3010 RMK AO2  T02340055,,,,,,41.87,,WNW,29.45,29.18,,Clear
KIGQ,06/01/2017 17:15 UTC,30.09,73.76,41.18,30.95,5.75,290.0,,,,,,1.0,,,,10.0,,KIGQ 011715Z AUTO 29005KT 10SM CLR 23/05 A3009 RMK AO2  T02320051,,,,,,41.14,,WNW,29.44,29.19,,Clear
KIGQ,06/01/2017 17:35 UTC,30.08,73.94,39.02,28.28,3.44,310.0,,,,,,1.0,,,,10.0,,KIGQ 011735Z AUTO 31003KT 10SM CLR 23/04 A3008 RMK AO2  T02330039,,,,,,38.98,,NW,29.43,29.24,,Clear
KIGQ,06/01/2017 17:55 UTC,30.08,75.02,40.1,28.45,6.91,270.0,,,,,,1.0,,,,10.0,,KIGQ 011755Z AUTO 27006KT 10SM CLR 24/05 A3008 RMK AO2 T02390045  10239 20137,75.02,56.66,,,,40.08,,W,29.43,29.21,,Clear
KIGQ,06/01/2017 18:15 UTC,30.08,75.56,43.52,31.89,9.22,260.0,,,,,,1.0,,,,10.0,,KIGQ 011815Z AUTO 26008KT 210V280 10SM CLR 24/06 A3008 RMK AO2  T02420064,,,,,,43.5,,W,29.43,29.1,,Clear
KIGQ,06/01/2017 18:35 UTC,30.07,75.74,42.8,30.83,9.22,320.0,,,,,,1.0,,,,10.0,,KIGQ 011835Z AUTO 32008KT 10SM CLR 24/06 A3007 RMK AO2  T02430060,,,,,,42.78,,NW,29.42,29.11,,Clear
KIGQ,06/01/2017 18:55 UTC,30.06,75.38,44.24,32.97,9.22,60.0,,,,,,1.0,,,,10.0,,KIGQ 011855Z AUTO 06008KT 10SM CLR 24/07 A3006 RMK AO2  T02410068,,,,,,44.21,,ENE,29.41,29.05,,Clear
KIGQ,06/01/2017 19:15 UTC,30.06,75.56,42.8,31.02,0.0,0.0,,,,,,1.0,,,,10.0,,KIGQ 011915Z AUTO 00000KT 10SM CLR 24/06 A3006 RMK AO2  T02420060,,,,,,42.78,,N,29.41,29.1,,Clear
KIGQ,06/01/2017 19:35 UTC,30.06,75.56,41.54,29.55,3.44,70.0,,,,,,1.0,,,,10.0,,KIGQ 011935Z AUTO 07003KT 10SM CLR 24/05 A3006 RMK AO2  T02420053,,,,,,41.52,,ENE,29.41,29.14,,Clear
KIGQ,06/01/2017 19:55 UTC,30.05,75.2,43.7,32.5,8.05,50.0,,,,,,1.0,,,,10.0,,KIGQ 011955Z AUTO 05007KT 10SM CLR 24/07 A3005 RMK AO2  T02400065,,,,,,43.68,,NE,29.4,29.06,,Clear
KIGQ,06/01/2017 20:15 UTC,30.05,76.1,43.34,31.11,8.05,30.0,,,,,,1.0,,,,10.0,,KIGQ 012015Z AUTO 03007KT 10SM CLR 25/06 A3005 RMK AO2  T02450063,,,,,,43.33,,NNE,29.4,29.07,,Clear
KIGQ,06/01/2017 20:35 UTC,30.04,75.38,42.44,30.78,4.61,70.0,,,,,,1.0,,,,10.0,,KIGQ 012035Z AUTO 07004KT 10SM CLR 24/06 A3004 RMK AO2  T02410058,,,,,,42.42,,ENE,29.39,29.09,,Clear
KIGQ,06/01/2017 20:55 UTC,30.04,75.56,42.62,30.81,6.91,50.0,,,,,,1.0,,,,10.0,,KIGQ 012055Z AUTO 05006KT 10SM CLR 24/06 A3004 RMK AO2  T02420059,,,,,,42.61,,NE,29.39,29.08,,Clear
KIGQ,06/01/2017 21:15 UTC,30.03,75.2,42.08,30.54,4.61,40.0,,,,,,1.0,,,,10.0,,KIGQ 012115Z AUTO 04004KT 10SM CLR 24/06 A3003 RMK AO2  T02400056,,,,,,42.06,,NE,29.38,29.09,,Clear
KIGQ,06/01/2017 21:35 UTC,30.03,75.2,42.08,30.54,6.91,60.0,,,,,,1.0,,,,10.0,,KIGQ 012135Z AUTO 06006KT 10SM CLR 24/06 A3003 RMK AO2  T02400056,,,,,,42.06,,ENE,29.38,29.09,,Clear
KIGQ,06/01/2017 21:55 UTC,30.03,75.2,42.08,30.54,8.05,50.0,,,,,,1.0,,,,10.0,,KIGQ 012155Z AUTO 05007KT 10SM CLR 24/06 A3003 RMK AO2  T02400056,,,,,,42.06,,NE,29.38,29.09,,Clear
KIGQ,06/01/2017 22:15 UTC,30.03,74.3,40.46,29.56,8.05,50.0,,,,,,1.0,,,,10.0,,KIGQ 012215Z AUTO 05007KT 10SM CLR 24/05 A3003 RMK AO2  T02350047,,,,,,40.43,,NE,29.38,29.15,,Clear
KIGQ,06/01/2017 22:35 UTC,30.03,74.12,40.1,29.32,10.36,40.0,,,,,,1.0,,,,10.0,,KIGQ 012235Z AUTO 04009KT 10SM CLR 23/05 A3003 RMK AO2  T02340045,,,,,,40.07,,NE,29.38,29.16,,Clear
KIGQ,06/01/2017 22:55 UTC,30.02,73.4,40.1,30.04,9.22,60.0,,,,,,1.0,,,,10.0,,KIGQ 012255Z AUTO 06008KT 10SM CLR 23/05 A3002 RMK AO2  T02300045,,,,,,40.06,,ENE,29.37,29.16,,Clear
KIGQ,06/01/2017 23:35 UTC,30.02,72.5,40.28,31.18,6.91,70.0,,,,,,1.0,,,,10.0,,KIGQ 012335Z AUTO 07006KT 10SM CLR 23/05 A3002 RMK AO2  T02250046,,,,,,40.23,,ENE,29.37,29.16,,Clear
KIGQ,06/01/2017 23:55 UTC,30.02,71.6,40.82,32.82,5.75,60.0,,,,,,1.0,,,,7.0,,KIGQ 012355Z AUTO 06005KT 7SM CLR 22/05 A3002 RMK AO2 T02200049  10246 20220,76.28,71.6,,,,40.76,,ENE,29.37,29.15,,Clear
KIGQ,06/02/2017 00:15 UTC,30.02,70.88,39.92,32.47,5.75,50.0,,,,,,1.0,,,,10.0,,KIGQ 020015Z AUTO 05005KT 10SM CLR 22/04 A3002 RMK AO2  T02160044,,,,,,39.85,,NE,29.37,29.18,,Clear
KIGQ,06/02/2017 00:35 UTC,30.02,70.16,39.74,33.05,4.61,50.0,,,,,,1.0,,,,10.0,,KIGQ 020035Z AUTO 05004KT 10SM CLR 21/04 A3002 RMK AO2  T02120043,,,,,,39.67,,NE,29.37,29.19,,Clear
KIGQ,06/02/2017 00:55 UTC,30.03,68.54,40.1,35.42,5.75,50.0,,6.0,,,,1.0,,,,5.0,,KIGQ 020055Z AUTO 05005KT 5SM HZ CLR 20/05 A3003 RMK AO2  T02030045,,,,,,40.01,,NE,29.38,29.2,,Haze
KIGQ,06/02/2017 01:15 UTC,30.03,67.64,40.1,36.53,4.61,50.0,,,,,,1.0,,,,10.0,,KIGQ 020115Z AUTO 05004KT 10SM CLR 20/05 A3003 RMK AO2  T01980045,,,,,,40.0,,NE,29.38,29.2,,Clear
KIGQ,06/02/2017 01:35 UTC,30.03,66.56,39.56,37.13,4.61,60.0,,,,,,1.0,,,,10.0,,KIGQ 020135Z AUTO 06004KT 10SM CLR 19/04 A3003 RMK AO2  T01920042,,,,,,39.45,,ENE,29.38,29.22,,Clear
KIGQ,06/02/2017 01:55 UTC,30.04,65.66,40.1,39.12,4.61,50.0,,,,,,1.0,,,,10.0,,KIGQ 020155Z AUTO 05004KT 10SM CLR 19/05 A3004 RMK AO2  T01870045,,,,,,39.99,,NE,29.39,29.22,,Clear
KIGQ,06/02/2017 02:15 UTC,30.04,65.12,40.1,39.86,4.61,60.0,,,,,,1.0,,,,10.0,,KIGQ 020215Z AUTO 06004KT 10SM CLR 18/05 A3004 RMK AO2  T01840045,,,,,,39.99,,ENE,29.39,29.23,,Clear
KIGQ,06/02/2017 02:35 UTC,30.05,64.22,40.28,41.41,3.44,70.0,,,,,,1.0,,,,10.0,,KIGQ 020235Z AUTO 07003KT 10SM CLR 18/05 A3005 RMK AO2  T01790046,,,,,,40.16,,ENE,29.4,29.24,,Clear
KIGQ,06/02/2017 02:55 UTC,30.05,63.86,41.54,44.04,0.0,0.0,,,,,,1.0,,,,10.0,,KIGQ 020255Z AUTO 00000KT 10SM CLR 18/05 A3005 RMK AO2  T01770053,,,,,,41.42,,N,29.4,29.21,,Clear
KIGQ,06/02/2017 03:15 UTC,30.05,62.78,42.08,46.7,0.0,0.0,,,,,,1.0,,,,10.0,,KIGQ 020315Z AUTO 00000KT 10SM CLR 17/06 A3005 RMK AO2  T01710056,,,,,,41.96,,N,29.4,29.2,,Clear
KIGQ,06/02/2017 03:35 UTC,30.06,61.34,42.8,50.51,0.0,0.0,,,,,,1.0,,,,10.0,,KIGQ 020335Z AUTO 00000KT 10SM CLR 16/06 A3006 RMK AO2  T01630060,,,,,,42.68,,N,29.41,29.2,,Clear
KIGQ,06/02/2017 03:55 UTC,30.06,60.98,43.34,52.23,0.0,0.0,,,,,,1.0,,,,10.0,,KIGQ 020355Z AUTO 00000KT 10SM CLR 16/06 A3006 RMK AO2  T01610063,,,,,,43.23,,N,29.41,29.18,,Clear
KIGQ,06/02/2017 04:15 UTC,30.06,59.36,44.96,58.85,0.0,0.0,,,,,,1.0,,,,10.0,,KIGQ 020415Z AUTO 00000KT 10SM CLR 15/07 A3006 RMK AO2  T01520072,,,,,,44.85,,N,29.41,29.15,,Clear
KIGQ,06/02/2017 04:35 UTC,30.06,57.02,47.48,70.39,0.0,0.0,,,,,,1.0,,,,10.0,,KIGQ 020435Z AUTO 00000KT 10SM CLR 14/09 A3006 RMK AO2  T01390086,,,,,,47.4,,N,29.41,29.09,,Clear
KIGQ,06/02/2017 04:55 UTC,30.06,53.06,45.32,74.92,0.0,0.0,,,,,,1.0,,,,10.0,,KIGQ 020455Z AUTO 00000KT 10SM CLR 12/07 A3006 RMK AO2  T01170074,,,,,,45.24,,N,29.41,29.19,,Clear
KIGQ,06/02/2017 05:15 UTC,30.07,53.6,45.86,74.97,0.0,0.0,,,,,,1.0,,,,10.0,,KIGQ 020515Z AUTO 00000KT 10SM CLR 12/08 A3007 RMK AO2  T01200077,,,,,,45.78,,N,29.42,29.18,,Clear
KIGQ,06/02/2017 05:35 UTC,30.06,53.6,47.12,78.63,0.0,0.0,,,,,,1.0,,,,10.0,,KIGQ 020535Z AUTO 00000KT 10SM CLR 12/08 A3006 RMK AO2  T01200084,,,,,,47.06,,N,29.41,29.13,,Clear
KIGQ,06/02/2017 05:55 UTC,30.06,53.6,47.3,79.16,0.0,0.0,,,,,,1.0,,,,10.0,,KIGQ 020555Z AUTO 00000KT 10SM CLR 12/09 A3006 RMK AO2 T01200085  10220 20110 402460082,71.6,51.8,,76.28,46.76,47.24,,N,29.41,29.12,,Clear
KIGQ,06/02/2017 06:15 UTC,30.07,52.34,45.68,77.98,6.91,210.0,,,,,,1.0,,,,10.0,,KIGQ 020615Z AUTO 21006KT 10SM CLR 11/08 A3007 RMK AO2  T01130076,,,,,,45.61,,SSW,29.42,29.2,,Clear
KIGQ,06/02/2017 06:35 UTC,30.06,51.8,46.94,83.43,0.0,0.0,,,,,,1.0,,,,10.0,,KIGQ 020635Z AUTO 00000KT 10SM CLR 11/08 A3006 RMK AO2  T01100083,,,,,,46.89,,N,29.41,29.15,,Clear
KIGQ,06/02/2017 06:55 UTC,30.06,54.14,46.76,76.05,0.0,0.0,,,,,,1.0,,,,10.0,,KIGQ 020655Z AUTO 00000KT 10SM CLR 12/08 A3006 RMK AO2  T01230082,,,,,,46.69,,N,29.41,29.14,,Clear
KIGQ,06/02/2017 07:15 UTC,30.07,53.06,47.3,80.74,0.0,0.0,,,,,,1.0,,,,10.0,,KIGQ 020715Z AUTO 00000KT 10SM CLR 12/09 A3007 RMK AO2  T01170085,,,,,,47.24,,N,29.42,29.14,,Clear
KIGQ,06/02/2017 07:35 UTC,30.07,52.7,47.48,82.37,0.0,0.0,,,,,,1.0,,,,10.0,,KIGQ 020735Z AUTO 00000KT 10SM CLR 12/09 A3007 RMK AO2  T01150086,,,,,,47.43,,N,29.42,29.14,,Clear
KIGQ,06/02/2017 07:55 UTC,30.07,52.88,47.3,81.28,0.0,0.0,,,,,,1.0,,,,10.0,,KIGQ 020755Z AUTO 00000KT 10SM CLR 12/09 A3007 RMK AO2  T01160085,,,,,,47.24,,N,29.42,29.14,,Clear
KIGQ,06/02/2017 08:15 UTC,30.07,53.96,46.4,75.52,0.0,0.0,,,,,,1.0,,,,10.0,,KIGQ 020815Z AUTO 00000KT 10SM CLR 12/08 A3007 RMK AO2  T01220080,,,,,,46.33,,N,29.42,29.16,,Clear
KIGQ,06/02/2017 08:35 UTC,30.07,54.14,45.86,73.51,0.0,0.0,,,,,,1.0,,,,10.0,,KIGQ 020835Z AUTO 00000KT 10SM CLR 12/08 A3007 RMK AO2  T01230077,,,,,,45.78,,N,29.42,29.17,,Clear
KIGQ,06/02/2017 08:55 UTC,30.08,53.78,44.6,71.0,0.0,0.0,,,,,,1.0,,,,10.0,,KIGQ 020855Z AUTO 00000KT 10SM CLR 12/07 A3008 RMK AO2  T01210070,,,,,,44.51,,N,29.43,29.23,,Clear
KIGQ,06/02/2017 09:15 UTC,30.08,52.34,45.14,76.4,0.0,0.0,,,,,,1.0,,,,10.0,,KIGQ 020915Z AUTO 00000KT 10SM CLR 11/07 A3008 RMK AO2  T01130073,,,,,,45.06,,N,29.43,29.22,,Clear
KIGQ,06/02/2017 09:35 UTC,30.08,50.72,45.86,83.36,0.0,0.0,,,,,,1.0,,,,10.0,,KIGQ 020935Z AUTO 00000KT 10SM CLR 10/08 A3008 RMK AO2  T01040077,,,,,,45.81,,N,29.43,29.21,,Clear
KIGQ,06/02/2017 09:55 UTC,30.09,49.46,45.5,86.17,0.0,0.0,,,,,,1.0,,,,10.0,,KIGQ 020955Z AUTO 00000KT 10SM CLR 10/08 A3009 RMK AO2  T00970075,,,,,,45.45,,N,29.44,29.25,,Clear
KIGQ,06/02/2017 10:15 UTC,30.09,50.0,44.96,82.74,0.0,0.0,,,,,,1.0,,,,10.0,,KIGQ 021015Z AUTO 00000KT 10SM CLR 10/07 A3009 RMK AO2  T01000072,,,,,,44.9,,N,29.44,29.26,,Clear
KIGQ,06/02/2017 10:35 UTC,30.1,51.08,44.96,79.49,0.0,0.0,,,,,,1.0,,,,10.0,,KIGQ 021035Z AUTO 00000KT 10SM CLR 11/07 A3010 RMK AO2  T01060072,,,,,,44.89,,N,29.45,29.26,,Clear
KIGQ,06/02/2017 10:55 UTC,30.1,50.18,45.5,83.89,0.0,0.0,,,,,,1.0,,,,10.0,,KIGQ 021055Z AUTO 00000KT 10SM CLR 10/08 A3010 RMK AO2  T01010075,,,,,,45.45,,N,29.45,29.25,,Clear
KIGQ,06/02/2017 11:15 UTC,30.11,51.62,46.58,82.85,0.0,0.0,,,,,,1.0,,,,10.0,,KIGQ 021115Z AUTO 00000KT 10SM CLR 11/08 A3011 RMK AO2  T01090081,,,,,,46.52,,N,29.46,29.22,,Clear
KIGQ,06/02/2017 11:35 UTC,30.11,54.14,48.74,81.92,0.0,0.0,,,,,,1.0,,,,10.0,,KIGQ 021135Z AUTO 00000KT 10SM CLR 12/09 A3011 RMK AO2  T01230093,,,,,,48.69,,N,29.46,29.12,,Clear
KIGQ,06/02/2017 11:55 UTC,30.11,57.38,48.92,73.34,0.0,0.0,,,,,,1.0,,,,10.0,,KIGQ 021155Z AUTO 00000KT 10SM CLR 14/09 A3011 RMK AO2 T01410094  10141 20092,57.38,48.56,,,,48.85,,N,29.46,29.08,,Clear
KIGQ,06/02/2017 12:15 UTC,30.11,60.08,49.28,67.49,3.44,200.0,,,,,,1.0,,,,10.0,,KIGQ 021215Z AUTO 20003KT 10SM CLR 16/10 A3011 RMK AO2  T01560096,,,,,,49.2,,SSW,29.46,29.05,,Clear
KIGQ,06/02/2017 12:35 UTC,30.12,63.14,45.5,52.55,4.61,200.0,,,,,,1.0,,,,10.0,,KIGQ 021235Z AUTO 20004KT 10SM CLR 17/08 A3012 RMK AO2  T01730075,,,,,,45.4,,SSW,29.47,29.16,,Clear
KIGQ,06/02/2017 12:55 UTC,30.12,66.2,43.88,44.41,4.61,200.0,,,,,,1.0,,,,10.0,,KIGQ 021255Z AUTO 20004KT 10SM CLR 19/07 A3012 RMK AO2  T01900066,,,,,,43.78,,SSW,29.47,29.19,,Clear
KIGQ,06/02/2017 13:15 UTC,30.12,68.18,43.7,41.2,4.61,200.0,,,,,,1.0,,,,10.0,,KIGQ 021315Z AUTO 20004KT 10SM CLR 20/07 A3012 RMK AO2  T02010065,,,,,,43.61,,SSW,29.47,29.18,,Clear
KIGQ,06/02/2017 13:35 UTC,30.12,69.8,44.06,39.52,6.91,200.0,,,,,,1.0,,,,10.0,,KIGQ 021335Z AUTO 20006KT 10SM CLR 21/07 A3012 RMK AO2  T02100067,,,,,,43.98,,SSW,29.47,29.16,,Clear
KIGQ,06/02/2017 13:55 UTC,30.13,71.06,43.52,37.09,6.91,210.0,,,,,,1.0,,,,10.0,,KIGQ 021355Z AUTO 21006KT 10SM CLR 22/06 A3013 RMK AO2  T02170064,,,,,,43.45,,SSW,29.47,29.17,,Clear
KIGQ,06/02/2017 14:15 UTC,30.12,72.86,43.34,34.66,8.05,190.0,,,,,,1.0,,,,10.0,,KIGQ 021415Z AUTO 19007KT 10SM CLR 23/06 A3012 RMK AO2  T02270063,,,,,,43.29,,S,29.47,29.16,,Clear
KIGQ,06/02/2017 14:35 UTC,30.12,74.3,43.7,33.49,4.61,170.0,,,,,,1.0,,,,10.0,,KIGQ 021435Z AUTO 17004KT 10SM CLR 24/07 A3012 RMK AO2  T02350065,,,,,,43.67,,S,29.47,29.14,,Clear
KIGQ,06/02/2017 14:55 UTC,30.11,75.2,43.88,32.72,3.44,180.0,,,,,,1.0,,,,10.0,,KIGQ 021455Z AUTO 18003KT 10SM CLR 24/07 A3011 RMK AO2  T02400066,,,,,,43.86,,S,29.46,29.12,,Clear
KIGQ,06/02/2017 15:15 UTC,30.11,75.74,42.26,30.2,0.0,0.0,,,,,,1.0,,,,10.0,,KIGQ 021515Z AUTO 00000KT 10SM CLR 24/06 A3011 RMK AO2  T02430057,,,,,,42.24,,N,29.46,29.17,,Clear
KIGQ,06/02/2017 15:35 UTC,30.11,76.82,45.14,32.53,3.44,210.0,,,,,,1.0,,,,10.0,,KIGQ 021535Z AUTO 21003KT 10SM CLR 25/07 A3011 RMK AO2  T02490073,,,,,,45.13,,SSW,29.46,29.06,,Clear
KIGQ,06/02/2017 15:55 UTC,30.1,77.18,44.06,30.85,5.75,200.0,,,,,,1.0,,,,10.0,,KIGQ 021555Z AUTO 20005KT 10SM CLR 25/07 A3010 RMK AO2  T02510067,,,,,,44.06,,SSW,29.45,29.09,,Clear
KIGQ,06/02/2017 16:15 UTC,30.11,78.26,42.44,27.98,0.0,0.0,,,,,,1.0,,,,10.0,,KIGQ 021615Z AUTO 00000KT 10SM CLR 26/06 A3011 RMK AO2  T02570058,,,,,,42.46,,N,29.46,29.15,,Clear
KIGQ,06/02/2017 16:35 UTC,30.1,79.52,44.24,28.77,3.44,260.0,,,,,,1.0,,,,10.0,,KIGQ 021635Z AUTO 26003KT 10SM CLR 26/07 A3010 RMK AO2  T02640068,,,,,,44.28,,W,29.45,29.07,,Clear
KIGQ,06/02/2017 16:55 UTC,30.1,79.16,41.54,26.24,0.0,0.0,,,,,,1.0,,,,10.0,,KIGQ 021655Z AUTO 00000KT 10SM CLR 26/05 A3010 RMK AO2  T02620053,,,,,,41.58,,N,29.45,29.16,,Clear
KIGQ,06/02/2017 17:15 UTC,30.09,80.06,42.44,26.38,3.44,320.0,,,,,,1.0,,,,10.0,,KIGQ 021715Z AUTO 32003KT 10SM CLR 27/06 A3009 RMK AO2  T02670058,,,,,,42.49,,NW,29.44,29.11,79.01,Clear
KIGQ,06/02/2017 17:35 UTC,30.09,80.6,41.0,24.52,9.22,340.0,17.27,,,,,1.0,,,,10.0,,KIGQ 021735Z AUTO 34008G15KT 10SM CLR 27/05 A3009 RMK AO2  T02700050,,,,,,41.07,,NNW,29.44,29.16,79.51,Clear
KIGQ,06/02/2017 17:55 UTC,30.08,80.42,40.1,23.82,4.61,240.0,,,,,,1.0,,,,10.0,,KIGQ 021755Z AUTO 24004KT 10SM CLR 27/05 A3008 RMK AO2 T02690045  10271 20143,80.78,57.74,,,,40.17,,WSW,29.43,29.18,79.28,Clear
KIGQ,06/02/2017 18:15 UTC,30.08,81.32,40.46,23.46,6.91,250.0,,,,,,1.0,,,,10.0,,KIGQ 021815Z AUTO 25006KT 10SM CLR 27/05 A3008 RMK AO2  T02740047,,,,,,40.55,,WSW,29.43,29.16,79.59,Clear
KIGQ,06/02/2017 18:35 UTC,30.08,81.5,40.64,23.48,5.75,320.0,,,,,,1.0,,,,10.0,,KIGQ 021835Z AUTO 32005KT 10SM CLR 28/05 A3008 RMK AO2  T02750048,,,,,,40.72,,NW,29.43,29.15,79.71,Clear
KIGQ,06/02/2017 18:55 UTC,30.07,81.86,42.26,24.71,5.75,290.0,,,,,,1.0,,,,10.0,,KIGQ 021855Z AUTO 29005KT 10SM CLR 28/06 A3007 RMK AO2  T02770057,,,,,,42.34,,WNW,29.42,29.09,80.02,Clear
KIGQ,06/02/2017 19:15 UTC,30.06,81.86,41.9,24.37,4.61,260.0,,,,,,1.0,,,,10.0,,KIGQ 021915Z AUTO 26004KT 10SM CLR 28/06 A3006 RMK AO2  T02770055,,,,,,41.98,,W,29.41,29.09,80.0,Clear
KIGQ,06/02/2017 19:35 UTC,30.05,82.04,41.9,24.23,3.44,10.0,,,,,,1.0,,,,10.0,,KIGQ 021935Z AUTO 01003KT 10SM CLR 28/06 A3005 RMK AO2  T02780055,,,,,,41.99,,N,29.4,29.08,80.11,Clear
KIGQ,06/02/2017 19:55 UTC,30.05,81.86,39.92,22.57,0.0,0.0,,,,,,1.0,,,,10.0,,KIGQ 021955Z AUTO 00000KT 10SM CLR 28/04 A3005 RMK AO2  T02770044,,,,,,40.01,,N,29.4,29.14,79.9,Clear
KIGQ,06/02/2017 20:15 UTC,30.05,82.58,41.72,23.64,5.75,230.0,,,,,,1.0,,,,10.0,,KIGQ 022015Z AUTO 23005KT 10SM CLR 28/05 A3005 RMK AO2  T02810054,,,,,,41.81,,SW,29.4,29.08,80.45,Clear
KIGQ,06/02/2017 20:35 UTC,30.04,82.22,40.28,22.62,3.44,270.0,,,,,,1.0,,,,10.0,,KIGQ 022035Z AUTO 27003KT 10SM CLR 28/05 A3004 RMK AO2  T02790046,,,,,,40.37,,W,29.39,29.12,80.14,Clear
KIGQ,06/02/2017 20:55 UTC,30.05,82.58,38.48,20.85,0.0,0.0,,,,,,1.0,,,,10.0,,KIGQ 022055Z AUTO 00000KT 10SM CLR 28/04 A3005 RMK AO2  T02810036,,,,,,38.6,,N,29.4,29.18,80.3,Clear
KIGQ,06/02/2017 21:15 UTC,30.04,82.76,39.38,21.47,5.75,240.0,,,,,,1.0,,,,10.0,,KIGQ 022115Z AUTO 24005KT 10SM CLR 28/04 A3004 RMK AO2  T02820041,,,,,,39.5,,WSW,29.39,29.14,80.46,Clear
KIGQ,06/02/2017 21:35 UTC,30.04,82.58,40.28,22.36,4.61,280.0,,,,,,1.0,,,,10.0,,KIGQ 022135Z AUTO 28004KT 10SM CLR 28/05 A3004 RMK AO2  T02810046,,,,,,40.38,,W,29.39,29.12,80.38,Clear
KIGQ,06/02/2017 21:55 UTC,30.03,82.94,40.82,22.57,5.75,260.0,,,,,,1.0,,,,10.0,,KIGQ 022155Z AUTO 26005KT 10SM CLR 28/05 A3003 RMK AO2  T02830049,,,,,,40.93,,W,29.38,29.09,80.64,Clear
KIGQ,06/02/2017 22:15 UTC,30.03,82.76,41.36,23.18,6.91,260.0,,,,,,1.0,,,,10.0,,KIGQ 022215Z AUTO 26006KT 10SM CLR 28/05 A3003 RMK AO2  T02820052,,,,,,41.46,,W,29.38,29.07,80.55,Clear
KIGQ,06/02/2017 22:35 UTC,30.03,81.86,41.0,23.54,0.0,0.0,,,,,,1.0,,,,10.0,,KIGQ 022235Z AUTO 00000KT 10SM CLR 28/05 A3003 RMK AO2  T02770050,,,,,,41.09,,N,29.38,29.09,79.95,Clear
KIGQ,06/02/2017 22:55 UTC,30.02,80.96,41.72,24.92,8.05,70.0,,,,,,1.0,,,,10.0,,KIGQ 022255Z AUTO 07007KT 10SM CLR 27/05 A3002 RMK AO2  T02720054,,,,,,41.79,,ENE,29.37,29.06,79.93,Clear
KIGQ,06/02/2017 23:15 UTC,30.01,81.14,42.8,25.82,5.75,70.0,,,,,,1.0,,,,10.0,,KIGQ 022315Z AUTO 07005KT 10SM CLR 27/06 A3001 RMK AO2  T02730060,,,,,,42.86,,ENE,29.36,29.01,79.62,Clear
KIGQ,06/02/2017 23:35 UTC,30.01,80.06,43.16,27.12,6.91,90.0,,,,,,1.0,,,,10.0,,KIGQ 022335Z AUTO 09006KT 10SM CLR 27/06 A3001 RMK AO2  T02670062,,,,,,43.21,,E,29.36,29.01,79.04,Clear
KIGQ,06/02/2017 23:55 UTC,30.01,78.98,42.44,27.33,6.91,80.0,,,,,,1.0,,,,10.0,,KIGQ 022355Z AUTO 08006KT 10SM CLR 26/06 A3001 RMK AO2 T02610058  10284 20261,83.12,78.98,,,,42.47,,E,29.36,29.04,,Clear
KIGQ,06/03/2017 00:15 UTC,30.01,78.08,42.8,28.54,6.91,100.0,,,,,,1.0,,,,10.0,,KIGQ 030015Z AUTO 10006KT 10SM CLR 26/06 A3001 RMK AO2  T02560060,,,,,,42.82,,E,29.36,29.03,,Clear
KIGQ,06/03/2017 00:35 UTC,30.01,75.74,44.6,33.03,6.91,100.0,,,,,,1.0,,,,10.0,,KIGQ 030035Z AUTO 10006KT 10SM CLR 24/07 A3001 RMK AO2  T02430070,,,,,,44.58,,E,29.36,28.99,,Clear
KIGQ,06/03/2017 00:55 UTC,30.01,75.02,44.42,33.6,4.61,110.0,,,,,,1.0,,,,10.0,,KIGQ 030055Z AUTO 11004KT 10SM CLR 24/07 A3001 RMK AO2  T02390069,,,,,,44.39,,ESE,29.36,29.0,,Clear
KIGQ,06/03/2017 01:15 UTC,30.01,73.4,44.42,35.47,5.75,120.0,,,,,,1.0,,,,10.0,,KIGQ 030115Z AUTO 12005KT 10SM CLR 23/07 A3001 RMK AO2  T02300069,,,,,,44.37,,ESE,29.36,29.01,,Clear
KIGQ,06/03/2017 01:35 UTC,30.01,72.5,44.42,36.56,5.75,120.0,,,,,,1.0,,,,10.0,,KIGQ 030135Z AUTO 12005KT 10SM CLR 23/07 A3001 RMK AO2  T02250069,,,,,,44.37,,ESE,29.36,29.02,,Clear
KIGQ,06/03/2017 01:55 UTC,30.01,70.88,44.42,38.62,4.61,120.0,,,,,,1.0,,,,10.0,,KIGQ 030155Z AUTO 12004KT 10SM CLR 22/07 A3001 RMK AO2  T02160069,,,,,,44.35,,ESE,29.36,29.03,,Clear
KIGQ,06/03/2017 02:15 UTC,30.02,68.36,46.04,44.76,0.0,0.0,,,,,,1.0,,,,10.0,,KIGQ 030215Z AUTO 00000KT 10SM CLR 20/08 A3002 RMK AO2  T02020078,,,,,,45.96,,N,29.37,29.0,,Clear
KIGQ,06/03/2017 02:35 UTC,30.02,68.18,44.78,42.93,4.61,140.0,,,,,,1.0,,,,10.0,,KIGQ 030235Z AUTO 14004KT 10SM CLR 20/07 A3002 RMK AO2  T02010071,,,,,,44.69,,SE,29.37,29.04,,Clear
KIGQ,06/03/2017 02:55 UTC,30.02,67.82,44.06,42.29,4.61,130.0,,,,,,1.0,,,,10.0,,KIGQ 030255Z AUTO 13004KT 10SM CLR 20/07 A3002 RMK AO2  T01990067,,,,,,43.97,,SE,29.37,29.07,,Clear
KIGQ,06/03/2017 03:15 UTC,30.02,67.1,44.06,43.35,0.0,0.0,,,,,,1.0,,,,10.0,,KIGQ 030315Z AUTO 00000KT 10SM CLR 20/07 A3002 RMK AO2  T01950067,,,,,,43.97,,N,29.37,29.08,,Clear
KIGQ,06/03/2017 03:35 UTC,30.02,68.36,42.8,39.56,0.0,0.0,,,,,,1.0,,,,10.0,,KIGQ 030335Z AUTO 00000KT 10SM CLR 20/06 A3002 RMK AO2  T02020060,,,,,,42.71,,N,29.37,29.11,,Clear
KIGQ,06/03/2017 03:55 UTC,30.02,66.38,42.98,42.64,0.0,0.0,,,,,,1.0,,,,10.0,,KIGQ 030355Z AUTO 00000KT 10SM CLR 19/06 A3002 RMK AO2  T01910061,,,,,,42.88,,N,29.37,29.11,,Clear
KIGQ,06/03/2017 04:15 UTC,30.02,64.58,43.34,46.02,0.0,0.0,,,,,,1.0,,,,10.0,,KIGQ 030415Z AUTO 00000KT 10SM CLR 18/06 A3002 RMK AO2  T01810063,,,,,,43.23,,N,29.37,29.12,,Clear
KIGQ,06/03/2017 04:35 UTC,30.02,64.58,42.8,45.08,0.0,0.0,,,,,,1.0,,,,10.0,,KIGQ 030435Z AUTO 00000KT 10SM CLR 18/06 A3002 RMK AO2  T01810060,,,,,,42.69,,N,29.37,29.13,,Clear
KIGQ,06/03/2017 04:55 UTC,30.02,65.66,42.26,42.52,0.0,0.0,,,,,,1.0,,,,10.0,,KIGQ 030455Z AUTO 00000KT 10SM CLR 19/06 A3002 RMK AO2  T01870057,,,,,,42.15,,N,29.37,29.14,,Clear
KIGQ,06/03/2017 05:15 UTC,30.02,62.42,43.88,50.67,0.0,0.0,,,,,,1.0,,,,10.0,,KIGQ 030515Z AUTO 00000KT 10SM CLR 17/07 A3002 RMK AO2  T01690066,,,,,,43.77,,N,29.37,29.12,,Clear
KIGQ,06/03/2017 05:35 UTC,30.02,64.58,41.9,43.54,0.0,0.0,,,,,,1.0,,,,10.0,,KIGQ 030535Z AUTO 00000KT 10SM CLR 18/06 A3002 RMK AO2  T01810055,,,,,,41.78,,N,29.37,29.16,,Clear
KIGQ,06/03/2017 05:55 UTC,30.02,64.04,43.34,46.9,0.0,0.0,,,,,,1.0,,,,10.0,,KIGQ 030555Z AUTO 00000KT 10SM CLR 18/06 A3002 RMK AO2 T01780063  10262 20169 402840092,79.16,62.42,,83.12,48.56,43.23,,N,29.37,29.12,,Clear
KIGQ,06/03/2017 06:15 UTC,30.02,62.96,44.42,50.76,0.0,0.0,,,,,,1.0,,,,10.0,,KIGQ 030615Z AUTO 00000KT 10SM CLR 17/07 A3002 RMK AO2  T01720069,,,,,,44.31,,N,29.37,29.1,,Clear
KIGQ,06/03/2017 06:35 UTC,30.03,59.9,46.58,61.38,0.0,0.0,,,,,,1.0,,,,10.0,,KIGQ 030635Z AUTO 00000KT 10SM CLR 16/08 A3003 RMK AO2  T01550081,,,,,,46.48,,N,29.38,29.06,,Clear
KIGQ,06/03/2017 06:55 UTC,30.03,59.36,46.58,62.57,0.0,0.0,,,,,,1.0,,,,10.0,,KIGQ 030655Z AUTO 00000KT 10SM CLR 15/08 A3003 RMK AO2  T01520081,,,,,,46.48,,N,29.38,29.07,,Clear
KIGQ,06/03/2017 07:15 UTC,30.03,58.1,45.86,63.7,0.0,0.0,,,,,,1.0,,,,10.0,,KIGQ 030715Z AUTO 00000KT 10SM CLR 15/08 A3003 RMK AO2  T01450077,,,,,,45.76,,N,29.38,29.1,,Clear
KIGQ,06/03/2017 07:35 UTC,30.03,58.28,46.76,65.48,0.0,0.0,,,,,,1.0,,,,10.0,,KIGQ 030735Z AUTO 00000KT 10SM CLR 15/08 A3003 RMK AO2  T01460082,,,,,,46.67,,N,29.38,29.07,,Clear
KIGQ,06/03/2017 07:55 UTC,30.04,58.1,46.94,66.35,0.0,0.0,,,,,,1.0,,,,10.0,,KIGQ 030755Z AUTO 00000KT 10SM CLR 15/08 A3004 RMK AO2  T01450083,,,,,,46.85,,N,29.39,29.07,,Clear
KIGQ,06/03/2017 08:15 UTC,30.04,57.02,47.3,69.92,0.0,0.0,,,,,,1.0,,,,10.0,,KIGQ 030815Z AUTO 00000KT 10SM CLR 14/09 A3004 RMK AO2  T01390085,,,,,,47.22,,N,29.39,29.07,,Clear
KIGQ,06/03/2017 08:35 UTC,30.03,55.22,46.94,73.62,0.0,0.0,,,,,,1.0,,,,10.0,,KIGQ 030835Z AUTO 00000KT 10SM CLR 13/08 A3003 RMK AO2  T01290083,,,,,,46.86,,N,29.38,29.09,,Clear
KIGQ,06/03/2017 08:55 UTC,30.03,54.86,47.84,77.15,0.0,0.0,,,,,,1.0,,,,10.0,,KIGQ 030855Z AUTO 00000KT 10SM CLR 13/09 A3003 RMK AO2  T01270088,,,,,,47.77,,N,29.38,29.06,,Clear
KIGQ,06/03/2017 09:15 UTC,30.04,55.4,47.66,75.15,0.0,0.0,,,,,,1.0,,,,10.0,,KIGQ 030915Z AUTO 00000KT 10SM CLR 13/09 A3004 RMK AO2  T01300087,,,,,,47.59,,N,29.39,29.07,,Clear
KIGQ,06/03/2017 09:35 UTC,30.04,53.96,47.66,79.19,0.0,0.0,,,,,,1.0,,,,10.0,,KIGQ 030935Z AUTO 00000KT 10SM CLR 12/09 A3004 RMK AO2  T01220087,,,,,,47.6,,N,29.39,29.09,,Clear
KIGQ,06/03/2017 09:55 UTC,30.04,53.42,46.4,77.02,0.0,0.0,,,,,,1.0,,,,10.0,,KIGQ 030955Z AUTO 00000KT 10SM CLR 12/08 A3004 RMK AO2  T01190080,,,,,,46.33,,N,29.39,29.13,,Clear
KIGQ,06/03/2017 10:15 UTC,30.04,54.86,48.02,77.68,0.0,0.0,,,,,,1.0,,,,10.0,,KIGQ 031015Z AUTO 00000KT 10SM CLR 13/09 A3004 RMK AO2  T01270089,,,,,,47.96,,N,29.39,29.07,,Clear
KIGQ,06/03/2017 10:35 UTC,30.04,55.4,48.02,76.17,0.0,0.0,,,,,,1.0,,,,10.0,,KIGQ 031035Z AUTO 00000KT 10SM CLR 13/09 A3004 RMK AO2  T01300089,,,,,,47.95,,N,29.39,29.06,,Clear
KIGQ,06/03/2017 10:55 UTC,30.05,54.14,47.84,79.2,0.0,0.0,,,,,,1.0,,,,10.0,,KIGQ 031055Z AUTO 00000KT 10SM CLR 12/09 A3005 RMK AO2  T01230088,,,,,,47.78,,N,29.4,29.09,,Clear
KIGQ,06/03/2017 11:15 UTC,30.05,56.66,47.66,71.8,0.0,0.0,,,,,,1.0,,,,10.0,,KIGQ 031115Z AUTO 00000KT 10SM CLR 14/09 A3005 RMK AO2  T01370087,,,,,,47.58,,N,29.4,29.07,,Clear
KIGQ,06/03/2017 11:35 UTC,30.05,57.92,50.18,75.39,0.0,0.0,,,,,,1.0,,,,10.0,,KIGQ 031135Z AUTO 00000KT 10SM CLR 14/10 A3005 RMK AO2  T01440101,,,,,,50.12,,N,29.4,28.97,,Clear
KIGQ,06/03/2017 11:55 UTC,30.05,62.06,50.9,66.83,0.0,0.0,,,,,,1.0,,,,10.0,,KIGQ 031155Z AUTO 00000KT 10SM CLR 17/11 A3005 RMK AO2 T01670105  10177 20116,63.86,52.88,,,,50.83,,N,29.4,28.91,,Clear
KIGQ,06/03/2017 12:15 UTC,30.05,65.66,53.24,64.23,4.61,190.0,,,,,,1.0,,,,10.0,,KIGQ 031215Z AUTO 19004KT 10SM CLR 19/12 A3005 RMK AO2  T01870118,,,,,,53.18,,S,29.4,28.78,,Clear
KIGQ,06/03/2017 12:35 UTC,30.05,68.9,53.24,57.44,3.44,200.0,,,,,,1.0,,,,10.0,,KIGQ 031235Z AUTO 20003KT 10SM CLR 21/12 A3005 RMK AO2  T02050118,,,,,,53.18,,SSW,29.4,28.75,,Clear
KIGQ,06/03/2017 12:55 UTC,30.04,70.7,52.88,53.32,4.61,200.0,,,,,,1.0,,,,10.0,,KIGQ 031255Z AUTO 20004KT 10SM CLR 22/12 A3004 RMK AO2  T02150116,,,,,,52.83,,SSW,29.39,28.74,,Clear
KIGQ,06/03/2017 13:15 UTC,30.05,73.04,53.78,50.92,4.61,200.0,,,,,,1.0,,,,10.0,,KIGQ 031315Z AUTO 20004KT 10SM CLR 23/12 A3005 RMK AO2  T02280121,,,,,,53.74,,SSW,29.4,28.68,,Clear
KIGQ,06/03/2017 13:35 UTC,30.05,75.02,52.52,45.5,3.44,210.0,,,,,,1.0,,,,10.0,,KIGQ 031335Z AUTO 21003KT 10SM CLR 24/11 A3005 RMK AO2  T02390114,,,,,,52.49,,SSW,29.4,28.72,,Clear
KIGQ,06/03/2017 13:55 UTC,30.06,75.74,52.7,44.72,3.44,260.0,,,,,,1.0,,,,10.0,,KIGQ 031355Z AUTO 26003KT 10SM CLR 24/12 A3006 RMK AO2  T02430115,,,,,,52.68,,W,29.41,28.72,,Clear
KIGQ,06/03/2017 14:15 UTC,30.05,77.54,52.7,42.13,0.0,0.0,,,,,,1.0,,,,10.0,,KIGQ 031415Z AUTO 00000KT 10SM CLR 25/12 A3005 RMK AO2  T02530115,,,,,,52.69,,N,29.4,28.69,,Clear
KIGQ,06/03/2017 14:35 UTC,30.06,79.7,52.7,39.25,4.61,230.0,,,,,,1.0,,,,10.0,,KIGQ 031435Z AUTO 23004KT 10SM CLR 27/12 A3006 RMK AO2  T02650115,,,,,,52.72,,SW,29.41,28.69,,Clear
KIGQ,06/03/2017 14:55 UTC,30.06,80.42,50.9,35.88,0.0,0.0,,,,,,1.0,,,,10.0,,KIGQ 031455Z AUTO 00000KT 10SM CLR 27/11 A3006 RMK AO2  T02690105,,,,,,50.94,,N,29.41,28.76,79.85,Clear
KIGQ,06/03/2017 15:15 UTC,30.05,82.4,51.08,33.87,3.44,250.0,,,,,,1.0,,,,10.0,,KIGQ 031515Z AUTO 25003KT 10SM CLR 28/11 A3005 RMK AO2  T02800106,,,,,,51.14,,WSW,29.4,28.73,81.12,Clear
KIGQ,06/03/2017 15:35 UTC,30.05,82.76,51.44,33.93,4.61,270.0,,,,,,1.0,,,,10.0,,KIGQ 031535Z AUTO 27004KT 10SM CLR 28/11 A3005 RMK AO2  T02820108,,,,,,51.51,,W,29.4,28.71,81.41,Clear
KIGQ,06/03/2017 15:55 UTC,30.04,82.76,50.0,32.16,0.0,0.0,,,,,,1.0,,,,10.0,,KIGQ 031555Z AUTO 00000KT 10SM CLR 28/10 A3004 RMK AO2  T02820100,,,,,,50.07,,N,29.39,28.76,81.23,Clear
KIGQ,06/03/2017 16:15 UTC,30.04,84.38,46.94,27.23,0.0,0.0,,,,,,1.0,,,,10.0,,KIGQ 031615Z AUTO 00000KT 10SM CLR 29/08 A3004 RMK AO2  T02910083,,,,,,47.05,,N,29.39,28.88,82.05,Clear
KIGQ,06/03/2017 16:35 UTC,30.04,83.66,49.46,30.62,3.44,310.0,,,,,,1.0,,,,10.0,,KIGQ 031635Z AUTO 31003KT 10SM CLR 29/10 A3004 RMK AO2  T02870097,,,,,,49.54,,NW,29.39,28.78,81.79,Clear
KIGQ,06/03/2017 16:55 UTC,30.04,82.4,52.34,35.48,4.61,300.0,,,,,,1.0,,,,10.0,,KIGQ 031655Z AUTO 30004KT 10SM CLR 28/11 A3004 RMK AO2  T02800113,,,,,,52.4,,WNW,29.39,28.66,81.28,Clear
KIGQ,06/03/2017 17:15 UTC,30.04,83.3,52.88,35.16,4.61,270.0,,,,,,1.0,,,,10.0,,KIGQ 031715Z AUTO 27004KT 10SM CLR 29/12 A3004 RMK AO2  T02850116,,,,,,52.95,,W,29.39,28.63,81.99,Clear
KIGQ,06/03/2017 17:35 UTC,30.03,84.56,53.42,34.44,3.44,260.0,,,,,,1.0,,,,10.0,,KIGQ 031735Z AUTO 26003KT 10SM CLR 29/12 A3003 RMK AO2  T02920119,,,,,,53.51,,W,29.38,28.58,83.01,Clear
KIGQ,06/03/2017 17:55 UTC,30.03,84.38,51.98,32.85,0.0,0.0,,,,,,1.0,,,,10.0,,KIGQ 031755Z AUTO 00000KT 10SM CLR 29/11 A3003 RMK AO2 T02910111  10293 20169,84.74,62.42,,,,52.07,,N,29.38,28.65,82.65,Clear
KIGQ,06/03/2017 18:15 UTC,30.04,79.52,51.44,37.69,13.8,50.0,,,,,,1.0,,,,10.0,,KIGQ 031815Z AUTO 05012KT 10SM CLR 26/11 A3004 RMK AO2  T02640108,,,,,,51.46,,NE,29.39,28.72,,Clear
KIGQ,06/03/2017 18:35 UTC,30.04,74.66,51.8,44.85,11.5,60.0,18.41,,,,,1.0,,,,10.0,,KIGQ 031835Z AUTO 06010G16KT 10SM CLR 24/11 A3004 RMK AO2  T02370110,,,,,,51.77,,ENE,29.39,28.75,,Clear
KIGQ,06/03/2017 18:55 UTC,30.03,75.56,54.5,48.05,11.5,40.0,,,,,,1.0,,,,10.0,,KIGQ 031855Z AUTO 04010KT 020V080 10SM CLR 24/13 A3003 RMK AO2  T02420125,,,,,,54.48,,NE,29.38,28.61,,Clear
KIGQ,06/03/2017 19:15 UTC,30.02,76.82,54.14,45.48,8.05,30.0,,,,,,1.0,,,,10.0,,KIGQ 031915Z AUTO 03007KT 10SM CLR 25/12 A3002 RMK AO2  T02490123,,,,,,54.13,,NNE,29.37,28.6,,Clear
KIGQ,06/03/2017 19:35 UTC,30.01,78.44,53.24,41.72,6.91,30.0,,,,,,1.0,,,,10.0,,KIGQ 031935Z AUTO 03006KT 10SM CLR 26/12 A3001 RMK AO2  T02580118,,,,,,53.24,,NNE,29.36,28.62,,Clear
KIGQ,06/03/2017 19:55 UTC,30.0,79.7,53.42,40.3,6.91,40.0,,,,,,1.0,,,,10.0,,KIGQ 031955Z AUTO 04006KT 10SM CLR 27/12 A3000 RMK AO2  T02650119,,,,,,53.44,,NE,29.35,28.59,,Clear
KIGQ,06/03/2017 20:15 UTC,29.99,80.78,52.88,38.14,5.75,40.0,,,,,,1.0,,,,10.0,,KIGQ 032015Z AUTO 04005KT 10SM CLR 27/12 A2999 RMK AO2  T02710116,,,,,,52.91,,NE,29.34,28.6,80.32,Clear
KIGQ,06/03/2017 20:35 UTC,29.99,82.04,53.96,38.09,6.91,40.0,,,,,,1.0,,,,10.0,,KIGQ 032035Z AUTO 04006KT 10SM CLR 28/12 A2999 RMK AO2  T02780122,,,,,,54.01,,NE,29.34,28.54,81.27,Clear
KIGQ,06/03/2017 20:55 UTC,29.99,82.58,54.14,37.68,6.91,30.0,,,,,,1.0,,,,10.0,,KIGQ 032055Z AUTO 03006KT 10SM CLR 28/12 A2999 RMK AO2  T02810123,,,,,,54.2,,NNE,29.34,28.52,81.67,Clear
KIGQ,06/03/2017 21:15 UTC,29.98,83.3,55.58,38.8,3.44,70.0,,,,,,1.0,,,,10.0,,KIGQ 032115Z AUTO 07003KT 10SM CLR 29/13 A2998 RMK AO2 LTG DSNT NW  T02850131,,,,,,55.65,,ENE,29.33,28.44,82.45,Clear
KIGQ,06/03/2017 21:35 UTC,29.97,83.66,53.6,35.68,6.91,40.0,,,,,,1.0,,,,10.0,,KIGQ 032135Z AUTO 04006KT 10SM CLR 29/12 A2997 RMK AO2  T02870120,,,,,,53.67,,NE,29.32,28.52,82.36,Clear
KIGQ,06/03/2017 21:55 UTC,29.96,84.02,53.24,34.81,4.61,70.0,,,,,,1.0,,,,10.0,,KIGQ 032155Z AUTO 07004KT 10SM CLR 29/12 A2996 RMK AO2  T02890118,,,,,,53.32,,ENE,29.31,28.53,82.57,Clear
KIGQ,06/03/2017 22:15 UTC,29.95,83.3,52.16,34.24,6.91,60.0,,,,,,1.0,,,,10.0,,KIGQ 032215Z AUTO 06006KT 10SM CLR 29/11 A2995 RMK AO2  T02850112,,,,,,52.23,,ENE,29.3,28.57,81.88,Clear
KIGQ,06/03/2017 22:35 UTC,29.94,83.48,52.52,34.49,4.61,60.0,,,,,,1.0,,,,10.0,,KIGQ 032235Z AUTO 06004KT 10SM CLR 29/11 A2994 RMK AO2  T02860114,,,,,,52.59,,ENE,29.29,28.54,82.06,Clear
KIGQ,06/03/2017 22:55 UTC,29.93,83.48,53.24,35.42,5.75,80.0,,,,,,1.0,,,,10.0,,KIGQ 032255Z AUTO 08005KT 10SM CLR 29/12 A2993 RMK AO2  T02860118,,,,,,53.31,,E,29.28,28.5,82.17,Clear
KIGQ,06/03/2017 23:15 UTC,29.92,82.76,53.42,36.49,4.61,100.0,,,,,,1.0,,,,10.0,,KIGQ 032315Z AUTO 10004KT 10SM CLR 28/12 A2992 RMK AO2  T02820119,,,,,,53.48,,E,29.27,28.49,81.69,Clear
KIGQ,06/03/2017 23:35 UTC,29.91,82.58,52.52,35.51,5.75,120.0,,,,,,1.0,,,,10.0,,KIGQ 032335Z AUTO 12005KT 10SM CLR 28/11 A2991 RMK AO2  T02810114,,,,,,52.58,,ESE,29.26,28.52,81.43,Clear
KIGQ,06/03/2017 23:55 UTC,29.91,82.76,54.5,37.96,4.61,110.0,,,,,,1.0,,,,10.0,,KIGQ 032355Z AUTO 11004KT 10SM CLR 28/13 A2991 RMK AO2 T02820125  10295 20230,85.1,73.4,,,,54.56,,ESE,29.26,28.42,81.86,Clear
KIGQ,06/04/2017 00:15 UTC,29.91,80.96,50.18,34.32,4.61,140.0,,,,,,1.0,,,,10.0,,KIGQ 040015Z AUTO 14004KT 10SM CLR 27/10 A2991 RMK AO2  T02720101,,,,,,50.22,,SE,29.26,28.64,80.12,Clear
KIGQ,06/04/2017 00:35 UTC,29.91,81.5,51.08,34.87,3.44,130.0,,,,,,1.0,,,,10.0,,KIGQ 040035Z AUTO 13003KT 10SM CLR 28/11 A2991 RMK AO2  T02750106,,,,,,51.13,,SE,29.26,28.59,80.54,Clear
KIGQ,06/04/2017 00:55 UTC,29.91,81.32,49.46,33.03,0.0,0.0,,,,,,1.0,,,,10.0,,KIGQ 040055Z AUTO 00000KT 10SM CLR 27/10 A2991 RMK AO2  T02740097,,,,,,49.51,,N,29.26,28.66,80.26,Clear
KIGQ,06/04/2017 01:15 UTC,29.91,80.6,50.54,35.19,0.0,0.0,,,,,,1.0,,,,10.0,,KIGQ 040115Z AUTO 00000KT 10SM CLR 27/10 A2991 RMK AO2  T02700103,,,,,,50.57,,N,29.26,28.62,79.94,Clear
KIGQ,06/04/2017 01:35 UTC,29.92,78.08,52.7,41.39,0.0,0.0,,,,,,1202.0,,,,10.0,,KIGQ 040135Z AUTO 00000KT 10SM SCT120 26/12 A2992 RMK AO2  T02560115,,,,,,52.7,,N,29.27,28.56,,Partly Cloudy
KIGQ,06/04/2017 01:55 UTC,29.92,74.66,59.72,59.75,0.0,0.0,,,,,,1202.0,,,,10.0,,KIGQ 040155Z AUTO 00000KT 10SM SCT120 24/15 A2992 RMK AO2  T02370154,,,,,,59.7,,N,29.27,28.24,,Partly Cloudy
KIGQ,06/04/2017 02:15 UTC,29.93,73.4,54.14,50.97,4.61,160.0,,,,,,1.0,,,,10.0,,KIGQ 040215Z AUTO 16004KT 10SM CLR 23/12 A2993 RMK AO2  T02300123,,,,,,54.1,,SSE,29.28,28.54,,Clear
KIGQ,06/04/2017 02:35 UTC,29.94,71.42,55.94,58.17,4.61,190.0,,,,,,1202.0,,,,10.0,,KIGQ 040235Z AUTO 19004KT 10SM SCT120 22/13 A2994 RMK AO2  T02190133,,,,,,55.9,,S,29.29,28.49,,Partly Cloudy
KIGQ,06/04/2017 02:55 UTC,29.94,73.04,54.14,51.59,3.44,190.0,,,,,,1.0,,,,10.0,,KIGQ 040255Z AUTO 19003KT 10SM CLR 23/12 A2994 RMK AO2  T02280123,,,,,,54.1,,S,29.29,28.56,,Clear
KIGQ,06/04/2017 03:15 UTC,29.94,71.6,54.86,55.6,3.44,190.0,,,,,,1203.0,,,,10.0,,KIGQ 040315Z AUTO 19003KT 10SM BKN120 22/13 A2994 RMK AO2  T02200127,,,12000.0,,,54.82,,S,29.29,28.54,,Mostly Cloudy
KIGQ,06/04/2017 03:35 UTC,29.94,71.24,56.3,59.29,4.61,180.0,,,,,,1204.0,,,,10.0,,KIGQ 040335Z AUTO 18004KT 10SM OVC120 22/14 A2994 RMK AO2  T02180135,,,12000.0,,,56.25,,S,29.29,28.47,,Overcast
KIGQ,06/04/2017 03:55 UTC,29.94,72.5,57.2,58.7,0.0,0.0,,,,,,1203.0,,,,10.0,,KIGQ 040355Z AUTO 00000KT 10SM BKN120 23/14 A2994 RMK AO2  T02250140,,,12000.0,,,57.16,,N,29.29,28.41,,Mostly Cloudy
KIGQ,06/04/2017 04:15 UTC,29.94,72.68,57.38,58.72,0.0,0.0,,,,,,1203.0,,,,10.0,,KIGQ 040415Z AUTO 00000KT 10SM BKN120 23/14 A2994 RMK AO2  T02260141,,,12000.0,,,57.34,,N,29.29,28.4,,Mostly Cloudy
KIGQ,06/04/2017 04:35 UTC,29.94,71.42,58.64,64.11,0.0,0.0,,,,,,1104.0,,,,10.0,,KIGQ 040435Z AUTO 00000KT 10SM OVC110 22/15 A2994 RMK AO2  T02190148,,,11000.0,,,58.6,,N,29.29,28.35,,Overcast
KIGQ,06/04/2017 04:55 UTC,29.94,71.24,60.62,69.21,6.91,190.0,,,,,,1104.0,,,,10.0,,KIGQ 040455Z AUTO 19006KT 10SM OVC110 22/16 A2994 RMK AO2  T02180159,,,11000.0,,,60.59,,S,29.29,28.25,,Overcast
KIGQ,06/04/2017 05:15 UTC,29.94,72.14,59.9,65.44,4.61,200.0,,,,,,1203.0,,,,10.0,,KIGQ 040515Z AUTO 20004KT 10SM BKN120 22/16 A2994 RMK AO2  T02230155,,,12000.0,,,59.87,,SSW,29.29,28.28,,Mostly Cloudy
KIGQ,06/04/2017 05:35 UTC,29.93,70.34,59.54,68.67,0.0,0.0,,,,,,1202.0,,,,10.0,,KIGQ 040535Z AUTO 00000KT 10SM SCT120 21/15 A2993 RMK AO2  T02130153,,,,,,59.5,,N,29.28,28.3,,Partly Cloudy
KIGQ,06/04/2017 05:55 UTC,29.92,71.42,59.18,65.35,5.75,250.0,,,,,,1202.0,,,,10.0,,KIGQ 040555Z AUTO 25005KT 10SM SCT120 22/15 A2992 RMK AO2  T02190151 10281 20212 402950116,82.58,70.16,,85.1,52.88,59.14,,WSW,29.27,28.3,,Partly Cloudy
KIGQ,06/04/2017 06:15 UTC,29.91,71.78,59.0,64.15,3.44,230.0,,,,,,1202.0,,,,10.0,,KIGQ 040615Z AUTO 23003KT 10SM SCT120 22/15 A2991 RMK AO2  T02210150,,,,,,58.96,,SW,29.26,28.3,,Partly Cloudy
KIGQ,06/04/2017 06:35 UTC,29.91,67.28,59.18,75.28,5.75,190.0,,,,,,1.0,,,,10.0,,KIGQ 040635Z AUTO 19005KT 10SM CLR 20/15 A2991 RMK AO2 LTG DSNT SW  T01960151,,,,,,59.14,,S,29.26,28.34,,Clear
KIGQ,06/04/2017 06:55 UTC,29.91,68.72,59.18,71.65,10.36,220.0,,,,,,1.0,,,,10.0,,KIGQ 040655Z AUTO 22009KT 10SM CLR 20/15 A2991 RMK AO2 LTG DSNT SW  T02040151,,,,,,59.14,,SW,29.26,28.32,,Clear
KIGQ,06/04/2017 07:15 UTC,29.89,72.86,58.28,60.28,9.22,230.0,,,,,,1.0,,,,10.0,,KIGQ 040715Z AUTO 23008KT 10SM CLR 23/15 A2989 RMK AO2  T02270146,,,,,,58.25,,SW,29.24,28.3,,Clear
KIGQ,06/04/2017 07:35 UTC,29.88,73.94,56.12,53.79,9.22,230.0,,,,,,1.0,,,,10.0,,KIGQ 040735Z AUTO 23008KT 10SM CLR 23/13 A2988 RMK AO2  T02330134,,,,,,56.09,,SW,29.23,28.39,,Clear
KIGQ,06/04/2017 07:55 UTC,29.87,73.4,54.14,50.97,6.91,230.0,,,,,,1.0,,,,10.0,,KIGQ 040755Z AUTO 23006KT 10SM CLR 23/12 A2987 RMK AO2  T02300123,,,,,,54.1,,SW,29.22,28.48,,Clear
KIGQ,06/04/2017 08:15 UTC,29.87,72.5,54.5,53.23,5.75,260.0,,,,,,1.0,,,,10.0,,KIGQ 040815Z AUTO 26005KT 10SM CLR 23/13 A2987 RMK AO2  T02250125,,,,,,54.46,,W,29.22,28.47,,Clear
KIGQ,06/04/2017 08:35 UTC,29.87,73.04,56.3,55.8,8.05,240.0,,,,,,1.0,,,,10.0,,KIGQ 040835Z AUTO 24007KT 10SM CLR 23/14 A2987 RMK AO2  T02280135,,,,,,56.26,,WSW,29.22,28.38,,Clear
KIGQ,06/04/2017 08:55 UTC,29.87,73.4,57.74,58.07,5.75,240.0,,,,,,1.0,,,,10.0,,KIGQ 040855Z AUTO 24005KT 10SM CLR 23/14 A2987 RMK AO2 LTG DSNT N  T02300143,,,,,,57.71,,WSW,29.22,28.31,,Clear
KIGQ,06/04/2017 09:15 UTC,29.87,72.86,58.1,59.9,5.75,240.0,,,,,,1.0,,,,10.0,,KIGQ 040915Z AUTO 24005KT 10SM CLR 23/15 A2987 RMK AO2 LTG DSNT N  T02270145,,,,,,58.07,,WSW,29.22,28.29,,Clear
KIGQ,06/04/2017 09:35 UTC,29.87,72.5,58.46,61.41,8.05,220.0,,,,,,1.0,,,,10.0,,KIGQ 040935Z AUTO 22007KT 10SM CLR 23/15 A2987 RMK AO2 LTG DSNT N  T02250147,,,,,,58.42,,SW,29.22,28.28,,Clear
KIGQ,06/04/2017 09:55 UTC,29.88,71.24,58.82,64.91,6.91,220.0,,,,,,1.0,,,,10.0,,KIGQ 040955Z AUTO 22006KT 10SM CLR 22/15 A2988 RMK AO2  T02180149,,,,,,58.78,,SW,29.23,28.28,,Clear
KIGQ,06/04/2017 10:15 UTC,29.88,69.8,59.0,68.61,5.75,220.0,,,,,,1.0,,,,10.0,,KIGQ 041015Z AUTO 22005KT 10SM CLR 21/15 A2988 RMK AO2  T02100150,,,,,,58.96,,SW,29.23,28.29,,Clear
KIGQ,06/04/2017 10:35 UTC,29.88,70.16,59.0,67.77,5.75,240.0,,,,,,1.0,,,,10.0,,KIGQ 041035Z AUTO 24005KT 10SM CLR 21/15 A2988 RMK AO2  T02120150,,,,,,58.96,,WSW,29.23,28.28,,Clear
KIGQ,06/04/2017 10:55 UTC,29.89,72.5,59.36,63.42,6.91,250.0,,,,,,702.0,953.0,,,10.0,,KIGQ 041055Z AUTO 25006KT 10SM SCT070 BKN095 23/15 A2989 RMK AO2  T02250152,,,9500.0,,,59.33,,WSW,29.24,28.25,,Mostly Cloudy
KIGQ,06/04/2017 11:15 UTC,29.89,72.5,59.54,63.83,9.22,250.0,,,,,,702.0,952.0,,,10.0,,KIGQ 041115Z AUTO 25008KT 10SM SCT070 SCT095 23/15 A2989 RMK AO2  T02250153,,,,,,59.51,,WSW,29.24,28.24,,Partly Cloudy
KIGQ,06/04/2017 11:35 UTC,29.89,72.68,59.9,64.26,5.75,260.0,16.11,,,,,752.0,852.0,,,10.0,,KIGQ 041135Z AUTO 26005G14KT 10SM SCT075 SCT085 23/16 A2989 RMK AO2 T02260155,,,,,,59.87,,W,29.24,28.22,,Partly Cloudy
KIGQ,06/04/2017 11:55 UTC,29.9,72.86,60.44,65.11,5.75,260.0,,,,,,852.0,,,,10.0,,KIGQ 041155Z AUTO 26005KT 10SM SCT085 23/16 A2990 RMK AO2 LTG DSNT  S T02270158 10233 20195,73.94,67.1,,,,60.41,,W,29.25,28.2,,Partly Cloudy
KIGQ,06/04/2017 12:15 UTC,29.89,73.4,60.98,65.18,4.61,240.0,,,,,,852.0,,,,10.0,,KIGQ 041215Z AUTO 24004KT 10SM SCT085 23/16 A2989 RMK AO2 LTG DSNT  SE T02300161,,,,,,60.96,,WSW,29.24,28.15,,Partly Cloudy
KIGQ,06/04/2017 12:35 UTC,29.89,74.12,61.52,64.85,5.75,250.0,,,,,,1.0,,,,10.0,,KIGQ 041235Z AUTO 25005KT 10SM CLR 23/16 A2989 RMK AO2 LTG DSNT E  T02340164,,,,,,61.5,,WSW,29.24,28.11,,Clear
KIGQ,06/04/2017 12:55 UTC,29.88,75.02,61.7,63.33,5.75,250.0,,,,,,1.0,,,,10.0,,KIGQ 041255Z AUTO 25005KT 10SM CLR 24/17 A2988 RMK AO2  T02390165,,,,,,61.68,,WSW,29.23,28.08,,Clear
KIGQ,06/04/2017 13:15 UTC,29.89,76.1,62.24,62.27,8.05,260.0,,,,,,1.0,,,,10.0,,KIGQ 041315Z AUTO 26007KT 10SM CLR 25/17 A2989 RMK AO2  T02450168,,,,,,62.23,,W,29.24,28.05,,Clear
KIGQ,06/04/2017 13:35 UTC,29.88,75.2,62.24,64.16,5.75,240.0,,,,,,1.0,,,,10.0,,KIGQ 041335Z AUTO 24005KT 10SM CLR 24/17 A2988 RMK AO2  T02400168,,,,,,62.22,,WSW,29.23,28.05,,Clear
KIGQ,06/04/2017 13:55 UTC,29.88,77.9,62.96,60.18,5.75,250.0,,,,,,1.0,,,,10.0,,KIGQ 041355Z AUTO 25005KT 10SM CLR 26/17 A2988 RMK AO2  T02550172,,,,,,62.96,,WSW,29.23,27.97,,Clear
KIGQ,06/04/2017 14:15 UTC,29.88,78.26,62.24,57.98,8.05,250.0,,,,,,1.0,,,,10.0,,KIGQ 041415Z AUTO 25007KT 10SM CLR 26/17 A2988 RMK AO2  T02570168,,,,,,62.24,,WSW,29.23,28.01,,Clear
KIGQ,06/04/2017 14:35 UTC,29.88,78.26,62.06,57.62,6.91,250.0,,,,,,1.0,,,,10.0,,KIGQ 041435Z AUTO 25006KT 10SM CLR 26/17 A2988 RMK AO2  T02570167,,,,,,62.06,,WSW,29.23,28.02,,Clear
KIGQ,06/04/2017 14:55 UTC,29.88,78.8,61.88,56.25,6.91,250.0,,,,,,1.0,,,,10.0,,KIGQ 041455Z AUTO 25006KT 10SM CLR 26/17 A2988 RMK AO2  T02600166,,,,,,61.89,,WSW,29.23,28.03,,Clear
KIGQ,06/04/2017 15:15 UTC,29.87,78.98,63.5,59.19,6.91,230.0,,,,,,702.0,,,,10.0,,KIGQ 041515Z AUTO 23006KT 10SM SCT070 26/18 A2987 RMK AO2  T02610175,,,,,,63.51,,SW,29.22,27.92,,Partly Cloudy
KIGQ,06/04/2017 15:35 UTC,29.87,78.44,64.04,61.4,5.75,240.0,,,,,,703.0,,,,10.0,,KIGQ 041535Z AUTO 24005KT 10SM BKN070 26/18 A2987 RMK AO2  T02580178,,,7000.0,,,64.04,,WSW,29.22,27.89,,Mostly Cloudy
KIGQ,06/04/2017 15:55 UTC,29.86,81.5,64.22,55.91,8.05,240.0,,,,,,702.0,,,,10.0,,KIGQ 041555Z AUTO 24007KT 10SM SCT070 28/18 A2986 RMK AO2  T02750179,,,,,,64.24,,WSW,29.21,27.83,83.08,Partly Cloudy
KIGQ,06/04/2017 16:15 UTC,29.85,82.94,63.86,52.7,8.05,280.0,,,,,,1.0,,,,10.0,,KIGQ 041615Z AUTO 28007KT 10SM CLR 28/18 A2985 RMK AO2  T02830177,,,,,,63.9,,W,29.2,27.83,84.32,Clear
KIGQ,06/04/2017 16:35 UTC,29.85,84.56,62.78,48.17,10.36,270.0,16.11,,,,,1202.0,,,,10.0,,KIGQ 041635Z AUTO 27009G14KT 10SM SCT120 29/17 A2985 RMK AO2  T02920171,,,,,,62.84,,W,29.2,27.88,85.45,Partly Cloudy
KIGQ,06/04/2017 16:55 UTC,29.84,85.28,61.52,45.03,10.36,260.0,16.11,,,,,1.0,,,,10.0,,KIGQ 041655Z AUTO 26009G14KT 10SM CLR 30/16 A2984 RMK AO2  T02960164,,,,,,61.59,,W,29.19,27.95,85.66,Clear
KIGQ,06/04/2017 17:15 UTC,29.83,86.36,62.24,44.63,10.36,290.0,,,,,,1.0,,,,10.0,,KIGQ 041715Z AUTO 29009KT 10SM CLR 30/17 A2983 RMK AO2  T03020168,,,,,,62.33,,WNW,29.18,27.88,86.95,Clear
KIGQ,06/04/2017 17:35 UTC,29.83,86.54,61.34,42.99,10.36,290.0,17.27,,,,,652.0,752.0,,,10.0,,KIGQ 041735Z AUTO 29009G15KT 10SM SCT065 SCT075 30/16 A2983 RMK AO2 T03030163,,,,,,61.43,,WNW,29.18,27.93,86.77,Partly Cloudy
KIGQ,06/04/2017 17:55 UTC,29.82,87.44,61.88,42.58,10.36,270.0,,,853.0,,,552.0,753.0,,,10.0,,KIGQ 041755Z AUTO 27009KT 10SM SCT055 BKN075 BKN085 31/17 A2982 RMK AO2 T03080166 10309 20226,87.62,72.68,7500.0,,,61.98,,W,29.17,27.88,87.85,Mostly Cloudy
KIGQ,06/04/2017 18:15 UTC,29.81,87.8,60.98,40.78,10.36,300.0,,,,,,652.0,,,,10.0,,KIGQ 041815Z AUTO 30009KT 10SM SCT065 31/16 A2981 RMK AO2  T03100161,,,,,,61.09,,WNW,29.16,27.92,87.85,Partly Cloudy
KIGQ,06/04/2017 18:35 UTC,29.8,87.8,60.8,40.52,14.97,280.0,18.41,,,,,1.0,,,,10.0,,KIGQ 041835Z AUTO 28013G16KT 10SM CLR 31/16 A2980 RMK AO2  T03100160,,,,,,60.91,,W,29.15,27.93,87.78,Clear
KIGQ,06/04/2017 18:55 UTC,29.79,87.8,60.62,40.27,13.8,250.0,17.27,,,,,702.0,902.0,,,10.0,,KIGQ 041855Z AUTO 25012G15KT 10SM SCT070 SCT090 31/16 A2979 RMK AO2 T03100159,,,,,,60.74,,WSW,29.14,27.93,87.71,Partly Cloudy
KIGQ,06/04/2017 19:15 UTC,29.79,88.16,60.8,40.07,10.36,250.0,,,,,,702.0,803.0,,,10.0,,KIGQ 041915Z AUTO 25009KT 10SM SCT070 BKN080 31/16 A2979 RMK AO2  T03120160,,,8000.0,,,60.92,,WSW,29.14,27.91,88.13,Mostly Cloudy
KIGQ,06/04/2017 19:35 UTC,29.77,88.34,59.54,38.1,10.36,290.0,,,,,,702.0,802.0,,,10.0,,KIGQ 041935Z AUTO 29009KT 10SM SCT070 SCT080 31/15 A2977 RMK AO2  T03130153,,,,,,59.67,,WNW,29.12,27.97,87.85,Partly Cloudy
KIGQ,06/04/2017 19:55 UTC,29.77,88.34,57.02,34.81,12.66,290.0,21.85,,,,,702.0,902.0,,,10.0,,KIGQ 041955Z AUTO 29011G19KT 10SM SCT070 SCT090 31/14 A2977 RMK AO2 T03130139,,,,,,57.16,,WNW,29.12,28.11,87.05,Partly Cloudy
KIGQ,06/04/2017 20:15 UTC,29.76,88.88,57.2,34.44,10.36,290.0,17.27,,,,,752.0,852.0,,,10.0,,KIGQ 042015Z AUTO 29009G15KT 10SM SCT075 SCT085 32/14 A2976 RMK AO2 T03160140,,,,,,57.34,,WNW,29.11,28.08,87.61,Partly Cloudy
KIGQ,06/04/2017 20:35 UTC,29.76,86.9,57.74,37.38,8.05,290.0,,,,,,752.0,902.0,,,10.0,,KIGQ 042035Z AUTO 29007KT 10SM SCT075 SCT090 31/14 A2976 RMK AO2  T03050143,,,,,,57.85,,WNW,29.11,28.07,85.93,Partly Cloudy
KIGQ,06/04/2017 20:55 UTC,29.75,88.7,59.18,37.19,6.91,290.0,,,,,,752.0,902.0,,,10.0,,KIGQ 042055Z AUTO 29006KT 10SM SCT075 SCT090 32/15 A2975 RMK AO2  T03150151,,,,,,59.32,,WNW,29.1,27.96,88.07,Partly Cloudy
KIGQ,06/04/2017 21:15 UTC,29.74,89.24,60.08,37.75,13.8,270.0,17.27,,,,,702.0,,,,10.0,,KIGQ 042115Z AUTO 27012G15KT 10SM SCT070 32/16 A2974 RMK AO2  T03180156,,,,,,60.22,,W,29.09,27.9,88.93,Partly Cloudy
KIGQ,06/04/2017 21:35 UTC,29.74,87.8,57.92,36.57,10.36,280.0,17.27,,,,,703.0,903.0,,,10.0,,KIGQ 042135Z AUTO 28009G15KT 10SM BKN070 BKN090 31/14 A2974 RMK AO2 LTG DSNT SW T03100144,,,7000.0,,,58.05,,W,29.09,28.03,86.81,Mostly Cloudy
KIGQ,06/04/2017 21:55 UTC,29.74,87.26,57.74,36.96,9.22,290.0,,,,,,702.0,903.0,,,10.0,,KIGQ 042155Z AUTO 29008KT 10SM SCT070 BKN090 31/14 A2974 RMK AO2  T03070143,,,9000.0,,,57.86,,WNW,29.09,28.05,86.26,Mostly Cloudy
KIGQ,06/04/2017 22:15 UTC,29.74,86.54,58.28,38.55,8.05,210.0,16.11,,,,,702.0,,,,10.0,,KIGQ 042215Z AUTO 21007G14KT 190V260 10SM SCT070 30/15 A2974 RMK AO2 T03030146,,,,,,58.38,,SSW,29.09,28.02,85.76,Partly Cloudy
KIGQ,06/04/2017 22:35 UTC,29.74,85.46,62.06,45.64,4.61,270.0,,,,,,702.0,,,,10.0,,KIGQ 042235Z AUTO 27004KT 10SM SCT070 30/17 A2974 RMK AO2  T02970167,,,,,,62.14,,W,29.09,27.81,86.03,Partly Cloudy
KIGQ,06/04/2017 22:55 UTC,29.73,87.62,57.38,36.07,8.05,310.0,,,,,,702.0,,,,10.0,,KIGQ 042255Z AUTO 31007KT 10SM SCT070 31/14 A2973 RMK AO2  T03090141,,,,,,57.5,,NW,29.08,28.05,86.48,Partly Cloudy
KIGQ,06/04/2017 23:15 UTC,29.73,88.16,55.04,32.59,8.05,310.0,,,,,,1.0,,,,10.0,,KIGQ 042315Z AUTO 31007KT 10SM CLR 31/13 A2973 RMK AO2  T03120128,,,,,,55.19,,NW,29.08,28.17,86.38,Clear
KIGQ,06/04/2017 23:35 UTC,29.73,87.98,52.52,29.89,10.36,310.0,,,,,,1.0,,,,10.0,,KIGQ 042335Z AUTO 31009KT 10SM CLR 31/11 A2973 RMK AO2  T03110114,,,,,,52.67,,NW,29.08,28.3,85.69,Clear
KIGQ,06/04/2017 23:55 UTC,29.74,87.26,52.52,30.58,10.36,320.0,17.27,,,,,1.0,,,,10.0,,KIGQ 042355Z AUTO 32009G15KT 10SM CLR 31/11 A2974 RMK AO2 LTG DSNT  S T03070114 10321 20294,89.78,84.92,,,,52.66,,NW,29.09,28.31,85.06,Clear
KIGQ,06/05/2017 00:15 UTC,29.74,85.46,52.7,32.59,8.05,310.0,,,,,,1.0,,,,10.0,,KIGQ 050015Z AUTO 31007KT 10SM CLR 30/12 A2974 RMK AO2  T02970115,,,,,,52.81,,NW,29.09,28.32,83.6,Clear
KIGQ,06/05/2017 00:35 UTC,29.75,83.3,55.04,38.04,5.75,30.0,,,,,,1.0,,,,10.0,,KIGQ 050035Z AUTO 03005KT 10SM CLR 29/13 A2975 RMK AO2  T02850128,,,,,,55.1,,NNE,29.1,28.23,82.35,Clear
KIGQ,06/05/2017 00:55 UTC,29.75,81.86,55.76,40.91,4.61,20.0,,,,,,1.0,,,,10.0,,KIGQ 050055Z AUTO 02004KT 10SM CLR 28/13 A2975 RMK AO2  T02770132,,,,,,55.81,,NNE,29.1,28.21,81.44,Clear
KIGQ,06/05/2017 01:15 UTC,29.76,80.24,56.3,43.97,6.91,60.0,,,,,,1.0,,,,10.0,,KIGQ 050115Z AUTO 06006KT 10SM CLR 27/14 A2976 RMK AO2  T02680135,,,,,,56.32,,ENE,29.11,28.2,80.44,Clear
KIGQ,06/05/2017 01:35 UTC,29.76,79.16,56.12,45.25,9.22,50.0,,,,,,1.0,,,,10.0,,KIGQ 050135Z AUTO 05008KT 10SM CLR 26/13 A2976 RMK AO2  T02620134,,,,,,56.13,,NE,29.11,28.22,,Clear
KIGQ,06/05/2017 01:55 UTC,29.76,77.9,57.2,49.04,6.91,40.0,,,,,,1.0,,,,10.0,,KIGQ 050155Z AUTO 04006KT 10SM CLR 26/14 A2976 RMK AO2  T02550140,,,,,,57.2,,NE,29.11,28.18,,Clear
KIGQ,06/05/2017 02:15 UTC,29.77,76.46,57.2,51.43,4.61,40.0,,,,,,1.0,,,,10.0,,KIGQ 050215Z AUTO 04004KT 10SM CLR 25/14 A2977 RMK AO2  T02470140,,,,,,57.19,,NE,29.12,28.2,,Clear
KIGQ,06/05/2017 02:35 UTC,29.77,75.02,57.56,54.65,4.61,40.0,,,,,,1.0,,,,10.0,,KIGQ 050235Z AUTO 04004KT 10SM CLR 24/14 A2977 RMK AO2  T02390142,,,,,,57.54,,NE,29.12,28.2,,Clear
KIGQ,06/05/2017 02:55 UTC,29.78,74.3,57.74,56.34,4.61,40.0,,,,,,1.0,,,,10.0,,KIGQ 050255Z AUTO 04004KT 10SM CLR 24/14 A2978 RMK AO2  T02350143,,,,,,57.71,,NE,29.13,28.2,,Clear
KIGQ,06/05/2017 03:15 UTC,29.78,72.5,58.1,60.63,3.44,50.0,,,,,,1.0,,,,10.0,,KIGQ 050315Z AUTO 05003KT 10SM CLR 23/15 A2978 RMK AO2  T02250145,,,,,,58.07,,NE,29.13,28.2,,Clear
KIGQ,06/05/2017 03:35 UTC,29.78,71.6,58.64,63.72,3.44,30.0,,,,,,1.0,,,,10.0,,KIGQ 050335Z AUTO 03003KT 10SM CLR 22/15 A2978 RMK AO2  T02200148,,,,,,58.6,,NNE,29.13,28.19,,Clear
KIGQ,06/05/2017 03:55 UTC,29.79,70.34,59.18,67.79,0.0,0.0,,,,,,1.0,,,,10.0,,KIGQ 050355Z AUTO 00000KT 10SM CLR 21/15 A2979 RMK AO2  T02130151,,,,,,59.14,,N,29.14,28.18,,Clear
KIGQ,06/05/2017 04:15 UTC,29.79,69.62,59.36,69.92,3.44,20.0,,,,,,1.0,,,,10.0,,KIGQ 050415Z AUTO 02003KT 10SM CLR 21/15 A2979 RMK AO2  T02090152,,,,,,59.32,,NNE,29.14,28.18,,Clear
KIGQ,06/05/2017 04:35 UTC,29.78,69.44,59.54,70.81,0.0,0.0,,,,,,1.0,,,,10.0,,KIGQ 050435Z AUTO 00000KT 10SM CLR 21/15 A2978 RMK AO2  T02080153,,,,,,59.5,,N,29.13,28.16,,Clear
KIGQ,06/05/2017 04:55 UTC,29.78,67.82,59.18,73.89,0.0,0.0,,,,,,1.0,,,,10.0,,KIGQ 050455Z AUTO 00000KT 10SM CLR 20/15 A2978 RMK AO2  T01990151,,,,,,59.14,,N,29.13,28.2,,Clear
KIGQ,06/05/2017 05:15 UTC,29.77,65.84,58.82,78.11,0.0,0.0,,,,,,1.0,,,,10.0,,KIGQ 050515Z AUTO 00000KT 10SM CLR 19/15 A2977 RMK AO2  T01880149,,,,,,58.78,,N,29.12,28.23,,Clear
KIGQ,06/05/2017 05:35 UTC,29.77,64.04,58.46,82.09,0.0,0.0,,,,,,1.0,,,,10.0,,KIGQ 050535Z AUTO 00000KT 10SM CLR 18/15 A2977 RMK AO2  T01780147,,,,,,58.42,,N,29.12,28.27,,Clear
KIGQ,06/05/2017 05:55 UTC,29.76,64.58,59.0,82.13,0.0,0.0,,,,,,1.0,,,,10.0,,KIGQ 050555Z AUTO 00000KT 10SM CLR 18/15 A2976 RMK AO2 T01810150  10304 20168 403210168,86.72,62.24,,89.78,62.24,58.97,,N,29.11,28.23,,Clear
KIGQ,06/05/2017 06:15 UTC,29.76,63.14,58.64,85.27,0.0,0.0,,,,,,1.0,,,,10.0,,KIGQ 050615Z AUTO 00000KT 10SM CLR 17/15 A2976 RMK AO2  T01730148,,,,,,58.61,,N,29.11,28.26,,Clear
KIGQ,06/05/2017 06:35 UTC,29.75,63.86,59.0,84.22,0.0,0.0,,,,,,1.0,,,,10.0,,KIGQ 050635Z AUTO 00000KT 10SM CLR 18/15 A2975 RMK AO2  T01770150,,,,,,58.97,,N,29.1,28.22,,Clear
KIGQ,06/05/2017 06:55 UTC,29.75,61.88,57.2,84.64,0.0,0.0,,,,,,1.0,,,,10.0,,KIGQ 050655Z AUTO 00000KT 10SM CLR 17/14 A2975 RMK AO2  T01660140,,,,,,57.17,,N,29.1,28.33,,Clear
KIGQ,06/05/2017 07:15 UTC,29.75,62.06,58.46,88.0,0.0,0.0,,,,,,1.0,,,,10.0,,KIGQ 050715Z AUTO 00000KT 10SM CLR 17/15 A2975 RMK AO2  T01670147,,,,,,58.44,,N,29.1,28.27,,Clear
KIGQ,06/05/2017 07:35 UTC,29.75,62.78,59.0,87.47,0.0,0.0,,,,,,1.0,,,,10.0,,KIGQ 050735Z AUTO 00000KT 10SM CLR 17/15 A2975 RMK AO2  T01710150,,,,,,58.97,,N,29.1,28.24,,Clear
KIGQ,06/05/2017 07:55 UTC,29.75,61.88,58.28,87.99,0.0,0.0,,,,,,1.0,,,,10.0,,KIGQ 050755Z AUTO 00000KT 10SM CLR 17/15 A2975 RMK AO2  T01660146,,,,,,58.25,,N,29.1,28.28,,Clear
KIGQ,06/05/2017 08:15 UTC,29.75,61.7,58.46,89.12,0.0,0.0,,,,,,1.0,,,,10.0,,KIGQ 050815Z AUTO 00000KT 10SM CLR 17/15 A2975 RMK AO2  T01650147,,,,,,58.44,,N,29.1,28.28,,Clear
KIGQ,06/05/2017 08:35 UTC,29.75,61.16,57.74,88.52,0.0,0.0,,,,,,1.0,,,,7.0,,KIGQ 050835Z AUTO 00000KT 7SM CLR 16/14 A2975 RMK AO2  T01620143,,,,,,57.71,,N,29.1,28.32,,Clear
KIGQ,06/05/2017 08:55 UTC,29.75,59.18,56.66,91.35,0.0,0.0,,,,,,1.0,,,,7.0,,KIGQ 050855Z AUTO 00000KT 7SM CLR 15/14 A2975 RMK AO2  T01510137,,,,,,56.64,,N,29.1,28.39,,Clear
KIGQ,06/05/2017 09:15 UTC,29.75,59.0,56.66,91.94,0.0,0.0,,31.0,,,,1.0,,,,5.0,,KIGQ 050915Z AUTO 00000KT 5SM BR CLR 15/14 A2975 RMK AO2  T01500137,,,,,,56.64,,N,29.1,28.39,,Mist
KIGQ,06/05/2017 09:35 UTC,29.75,59.18,56.84,91.95,0.0,0.0,,,,,,1.0,,,,7.0,,KIGQ 050935Z AUTO 00000KT 7SM CLR 15/14 A2975 RMK AO2  T01510138,,,,,,56.82,,N,29.1,28.38,,Clear
KIGQ,06/05/2017 09:55 UTC,29.75,57.56,55.58,93.1,0.0,0.0,,31.0,,,,1.0,,,,5.0,,KIGQ 050955Z AUTO 00000KT 5SM BR CLR 14/13 A2975 RMK AO2  T01420131,,,,,,55.56,,N,29.1,28.46,,Mist
KIGQ,06/05/2017 10:15 UTC,29.75,58.1,56.48,94.34,0.0,0.0,,31.0,,,,1.0,,,,5.0,,KIGQ 051015Z AUTO 00000KT 5SM BR CLR 15/14 A2975 RMK AO2  T01450136,,,,,,56.47,,N,29.1,28.41,,Mist
KIGQ,06/05/2017 10:35 UTC,29.75,56.48,54.86,94.3,0.0,0.0,,31.0,,,,1.0,,,,2.0,,KIGQ 051035Z AUTO 00000KT 2SM BR CLR 14/13 A2975 RMK AO2  T01360127,,,,,,54.85,,N,29.1,28.5,,Mist
KIGQ,06/05/2017 10:55 UTC,29.76,56.84,55.4,94.92,0.0,0.0,,31.0,,,,1.0,,,,3.0,,KIGQ 051055Z AUTO 00000KT 3SM BR CLR 14/13 A2976 RMK AO2  T01380130,,,,,,55.39,,N,29.11,28.48,,Mist
KIGQ,06/05/2017 11:15 UTC,29.76,57.74,55.76,93.11,0.0,0.0,,31.0,,,,1.0,,,,5.0,,KIGQ 051115Z AUTO 00000KT 5SM BR CLR 14/13 A2976 RMK AO2 LTG DSNT  NE T01430132,,,,,,55.74,,N,29.11,28.46,,Mist
KIGQ,06/05/2017 11:35 UTC,29.76,61.52,58.82,90.85,0.0,0.0,,31.0,,,,1.0,,,,5.0,,KIGQ 051135Z AUTO 00000KT 5SM BR CLR 16/15 A2976 RMK AO2  T01640149,,,,,,58.8,,N,29.11,28.27,,Mist
KIGQ,06/05/2017 11:55 UTC,29.77,66.38,60.26,80.7,4.61,60.0,,,,,,1.0,,,,7.0,,KIGQ 051155Z AUTO 06004KT 7SM CLR 19/16 A2977 RMK AO2 T01910157  10191 20135,66.38,56.3,,,,60.23,,ENE,29.12,28.15,,Clear
KIGQ,06/05/2017 12:15 UTC,29.77,69.8,60.26,71.76,3.44,30.0,,,,,,1.0,,,,7.0,,KIGQ 051215Z AUTO 03003KT 7SM CLR 21/16 A2977 RMK AO2  T02100157,,,,,,60.23,,NNE,29.12,28.11,,Clear
KIGQ,06/05/2017 12:35 UTC,29.79,69.62,56.12,62.24,8.05,40.0,,,,,,1.0,,,,10.0,,KIGQ 051235Z AUTO 04007KT 10SM CLR 21/13 A2979 RMK AO2  T02090134,,,,,,56.07,,NE,29.14,28.34,,Clear
KIGQ,06/05/2017 12:55 UTC,29.79,70.7,54.32,56.2,8.05,30.0,,,,,,1.0,,,,10.0,,KIGQ 051255Z AUTO 03007KT 10SM CLR 22/12 A2979 RMK AO2  T02150124,,,,,,54.27,,NNE,29.14,28.42,,Clear
KIGQ,06/05/2017 13:15 UTC,29.79,72.32,53.78,52.17,8.05,40.0,,,,,,1.0,,,,10.0,,KIGQ 051315Z AUTO 04007KT 10SM CLR 22/12 A2979 RMK AO2  T02240121,,,,,,53.74,,NE,29.14,28.43,,Clear
KIGQ,06/05/2017 13:35 UTC,29.8,74.12,55.04,51.41,4.61,20.0,,,,,,1.0,,,,10.0,,KIGQ 051335Z AUTO 02004KT 10SM CLR 23/13 A2980 RMK AO2  T02340128,,,,,,55.01,,NNE,29.15,28.36,,Clear
KIGQ,06/05/2017 13:55 UTC,29.8,74.84,53.78,47.94,6.91,50.0,,,,,,1.0,,,,10.0,,KIGQ 051355Z AUTO 05006KT 10SM CLR 24/12 A2980 RMK AO2  T02380121,,,,,,53.75,,NE,29.15,28.41,,Clear
KIGQ,06/05/2017 14:15 UTC,29.81,76.1,53.78,45.97,6.91,40.0,,,,,,1.0,,,,10.0,,KIGQ 051415Z AUTO 04006KT 10SM CLR 25/12 A2981 RMK AO2  T02450121,,,,,,53.76,,NE,29.16,28.41,,Clear
KIGQ,06/05/2017 14:35 UTC,29.81,77.0,53.6,44.33,5.75,20.0,,,,,,1.0,,,,10.0,,KIGQ 051435Z AUTO 02005KT 10SM CLR 25/12 A2981 RMK AO2  T02500120,,,,,,53.59,,NNE,29.16,28.41,,Clear
KIGQ,06/05/2017 14:55 UTC,29.81,77.9,53.6,43.03,8.05,30.0,,,,,,1.0,,,,10.0,,KIGQ 051455Z AUTO 03007KT 10SM CLR 26/12 A2981 RMK AO2  T02550120,,,,,,53.6,,NNE,29.16,28.41,,Clear
KIGQ,06/05/2017 15:15 UTC,29.82,70.88,56.66,60.81,14.97,20.0,18.41,,,,,1.0,,,,10.0,,KIGQ 051515Z AUTO 02013G16KT 10SM CLR 22/14 A2982 RMK AO2  T02160137,,,,,,56.62,,NNE,29.17,28.33,,Clear
KIGQ,06/05/2017 15:35 UTC,29.84,68.18,56.48,66.24,17.27,10.0,23.02,,,,,1.0,,,,10.0,,KIGQ 051535Z AUTO 01015G20KT 10SM CLR 20/14 A2984 RMK AO2  T02010136,,,,,,56.43,,N,29.19,28.39,,Clear
KIGQ,06/05/2017 15:55 UTC,29.85,67.28,57.2,70.12,13.8,10.0,19.57,,,,,1.0,,,,10.0,,KIGQ 051555Z AUTO 01012G17KT 10SM CLR 20/14 A2985 RMK AO2  T01960140,,,,,,57.15,,N,29.2,28.38,,Clear
KIGQ,06/05/2017 16:15 UTC,29.86,66.2,56.48,70.92,16.11,10.0,21.85,,,,,1.0,,,,10.0,,KIGQ 051615Z AUTO 01014G19KT 10SM CLR 19/14 A2986 RMK AO2  T01900136,,,,,,56.43,,N,29.21,28.43,,Clear
KIGQ,06/05/2017 16:35 UTC,29.86,66.02,56.3,70.9,14.97,20.0,21.85,,,,,1.0,,,,10.0,,KIGQ 051635Z AUTO 02013G19KT 10SM CLR 19/14 A2986 RMK AO2  T01890135,,,,,,56.25,,NNE,29.21,28.44,,Clear
KIGQ,06/05/2017 16:55 UTC,29.86,66.02,56.66,71.83,11.5,360.0,21.85,,,,,1.0,,,,10.0,,KIGQ 051655Z AUTO 36010G19KT 10SM CLR 19/14 A2986 RMK AO2  T01890137,,,,,,56.61,,N,29.21,28.43,,Clear
KIGQ,06/05/2017 17:15 UTC,29.86,66.38,56.66,70.94,14.97,10.0,19.57,,,,,1.0,,,,10.0,,KIGQ 051715Z AUTO 01013G17KT 10SM CLR 19/14 A2986 RMK AO2  T01910137,,,,,,56.61,,N,29.21,28.42,,Clear
KIGQ,06/05/2017 17:35 UTC,29.87,65.66,56.48,72.26,14.97,20.0,20.71,,,,,1.0,,,,10.0,,KIGQ 051735Z AUTO 02013G18KT 10SM CLR 19/14 A2987 RMK AO2  T01870136,,,,,,56.43,,NNE,29.22,28.45,,Clear
KIGQ,06/05/2017 17:55 UTC,29.87,65.12,55.94,72.2,16.11,10.0,20.71,,,,,1.0,,,,10.0,,KIGQ 051755Z AUTO 01014G18KT 10SM CLR 18/13 A2987 RMK AO2  T01840133 10255 20183,77.9,64.94,,,,55.89,,N,29.22,28.48,,Clear
KIGQ,06/05/2017 18:15 UTC,29.87,64.22,55.22,72.58,17.27,20.0,21.85,,,,,1.0,,,,10.0,,KIGQ 051815Z AUTO 02015G19KT 10SM CLR 18/13 A2987 RMK AO2  T01790129,,,,,,55.16,,NNE,29.22,28.52,,Clear
KIGQ,06/05/2017 18:35 UTC,29.87,63.5,55.04,73.95,16.11,20.0,24.16,,,,,112.0,,,,10.0,,KIGQ 051835Z AUTO 02014G21KT 10SM SCT011 18/13 A2987 RMK AO2  T01750128,,,,,,54.99,,NNE,29.22,28.54,,Partly Cloudy
KIGQ,06/05/2017 18:55 UTC,29.88,62.78,54.5,74.36,14.97,20.0,21.85,,,,,113.0,,,,10.0,,KIGQ 051855Z AUTO 02013G19KT 10SM BKN011 17/13 A2988 RMK AO2  T01710125,,,1100.0,,,54.44,,NNE,29.23,28.58,,Mostly Cloudy
KIGQ,06/05/2017 19:15 UTC,29.88,62.6,53.96,73.38,17.27,30.0,23.02,,,,,114.0,,,,10.0,,KIGQ 051915Z AUTO 03015G20KT 10SM OVC011 17/12 A2988 RMK AO2  T01700122,,,1100.0,,,53.9,,NNE,29.23,28.6,,Overcast
KIGQ,06/05/2017 19:35 UTC,29.88,63.32,53.96,71.55,19.57,20.0,26.46,,,,,133.0,,,,10.0,,KIGQ 051935Z AUTO 02017G23KT 10SM BKN013 17/12 A2988 RMK AO2  T01740122,,,1300.0,,,53.9,,NNE,29.23,28.6,,Mostly Cloudy
KIGQ,06/05/2017 19:55 UTC,29.88,62.96,53.06,70.11,18.41,20.0,26.46,,,,,132.0,,,,10.0,,KIGQ 051955Z AUTO 02016G23KT 10SM SCT013 17/12 A2988 RMK AO2  T01720117,,,,,,53.0,,NNE,29.23,28.64,,Partly Cloudy
KIGQ,06/05/2017 20:15 UTC,29.88,63.68,53.06,68.36,18.41,10.0,25.32,,,,,1.0,,,,10.0,,KIGQ 052015Z AUTO 01016G22KT 10SM CLR 18/12 A2988 RMK AO2  T01760117,,,,,,52.99,,N,29.23,28.63,,Clear
KIGQ,06/05/2017 20:35 UTC,29.88,63.86,52.88,67.48,18.41,360.0,25.32,,,,,1.0,,,,10.0,,KIGQ 052035Z AUTO 36016G22KT 10SM CLR 18/12 A2988 RMK AO2  T01770116,,,,,,52.81,,N,29.23,28.64,,Clear
KIGQ,06/05/2017 20:55 UTC,29.88,63.5,52.88,68.34,18.41,10.0,24.16,,,,,1.0,,,,10.0,,KIGQ 052055Z AUTO 01016G21KT 10SM CLR 18/12 A2988 RMK AO2  T01750116,,,,,,52.81,,N,29.23,28.64,,Clear
KIGQ,06/05/2017 21:15 UTC,29.88,63.86,53.24,68.38,16.11,10.0,24.16,,,,,1.0,,,,10.0,,KIGQ 052115Z AUTO 01014G21KT 10SM CLR 18/12 A2988 RMK AO2  T01770118,,,,,,53.18,,N,29.23,28.62,,Clear
KIGQ,06/05/2017 21:35 UTC,29.88,63.14,53.06,69.67,12.66,10.0,23.02,,,,,1.0,,,,10.0,,KIGQ 052135Z AUTO 01011G20KT 340V040 10SM CLR 17/12 A2988 RMK AO2  T01730117,,,,,,53.0,,N,29.23,28.64,,Clear
KIGQ,06/05/2017 21:55 UTC,29.88,62.96,52.7,69.19,14.97,360.0,21.85,,,,,1.0,,,,10.0,,KIGQ 052155Z AUTO 36013G19KT 10SM CLR 17/12 A2988 RMK AO2  T01720115,,,,,,52.64,,N,29.23,28.65,,Clear
KIGQ,06/05/2017 22:15 UTC,29.88,62.06,52.16,70.01,16.11,360.0,21.85,,,,,1.0,,,,10.0,,KIGQ 052215Z AUTO 36014G19KT 10SM CLR 17/11 A2988 RMK AO2  T01670112,,,,,,52.09,,N,29.23,28.68,,Clear
KIGQ,06/05/2017 22:35 UTC,29.88,62.24,52.52,70.49,13.8,10.0,20.71,,,,,1.0,,,,10.0,,KIGQ 052235Z AUTO 01012G18KT 10SM CLR 17/11 A2988 RMK AO2  T01680114,,,,,,52.45,,N,29.23,28.67,,Clear
KIGQ,06/05/2017 22:55 UTC,29.88,62.42,52.34,69.59,16.11,10.0,21.85,,,,,1.0,,,,10.0,,KIGQ 052255Z AUTO 01014G19KT 10SM CLR 17/11 A2988 RMK AO2  T01690113,,,,,,52.27,,N,29.23,28.67,,Clear
KIGQ,06/05/2017 23:15 UTC,29.89,61.34,51.62,70.4,14.97,20.0,24.16,,,,,1.0,,,,10.0,,KIGQ 052315Z AUTO 02013G21KT 10SM CLR 16/11 A2989 RMK AO2  T01630109,,,,,,51.55,,NNE,29.24,28.72,,Clear
KIGQ,06/05/2017 23:35 UTC,29.89,61.16,51.44,70.38,16.11,10.0,24.16,,,,,1.0,,,,10.0,,KIGQ 052335Z AUTO 01014G21KT 10SM CLR 16/11 A2989 RMK AO2  T01620108,,,,,,51.37,,N,29.24,28.73,,Clear
KIGQ,06/05/2017 23:55 UTC,29.9,60.8,51.08,70.34,11.5,20.0,18.41,,,,,1.0,,,,10.0,,KIGQ 052355Z AUTO 02010G16KT 10SM CLR 16/11 A2990 RMK AO2  T01600106 10185 20159,65.3,60.62,,,,51.01,,NNE,29.25,28.76,,Clear
KIGQ,06/06/2017 00:15 UTC,29.91,60.44,50.9,70.77,10.36,360.0,20.71,,,,,1.0,,,,10.0,,KIGQ 060015Z AUTO 36009G18KT 10SM CLR 16/11 A2991 RMK AO2  T01580105,,,,,,50.83,,N,29.26,28.78,,Clear
KIGQ,06/06/2017 00:35 UTC,29.91,60.26,50.54,70.28,11.5,10.0,21.85,,,,,1.0,,,,10.0,,KIGQ 060035Z AUTO 01010G19KT 10SM CLR 16/10 A2991 RMK AO2  T01570103,,,,,,50.47,,N,29.26,28.79,,Clear
KIGQ,06/06/2017 00:55 UTC,29.91,60.08,50.54,70.73,11.5,10.0,18.41,,,,,1.0,,,,10.0,,KIGQ 060055Z AUTO 01010G16KT 10SM CLR 16/10 A2991 RMK AO2  T01560103,,,,,,50.47,,N,29.26,28.8,,Clear
KIGQ,06/06/2017 01:15 UTC,29.91,59.36,50.54,72.56,9.22,10.0,,,,,,1.0,,,,10.0,,KIGQ 060115Z AUTO 01008KT 10SM CLR 15/10 A2991 RMK AO2  T01520103,,,,,,50.47,,N,29.26,28.8,,Clear
KIGQ,06/06/2017 01:35 UTC,29.92,59.9,50.9,72.14,10.36,10.0,,,,,,1.0,,,,10.0,,KIGQ 060135Z AUTO 01009KT 10SM CLR 16/11 A2992 RMK AO2  T01550105,,,,,,50.83,,N,29.27,28.8,,Clear
KIGQ,06/06/2017 01:55 UTC,29.93,59.18,48.56,67.84,9.22,10.0,18.41,,,,,1.0,,,,10.0,,KIGQ 060155Z AUTO 01008G16KT 10SM CLR 15/09 A2993 RMK AO2  T01510092,,,,,,48.48,,N,29.28,28.9,,Clear
KIGQ,06/06/2017 02:15 UTC,29.94,58.46,48.56,69.61,9.22,10.0,16.11,,,,,1.0,,,,10.0,,KIGQ 060215Z AUTO 01008G14KT 10SM CLR 15/09 A2994 RMK AO2  T01470092,,,,,,48.48,,N,29.29,28.91,,Clear
KIGQ,06/06/2017 02:35 UTC,29.95,58.46,48.2,68.68,8.05,10.0,,,,,,1.0,,,,10.0,,KIGQ 060235Z AUTO 01007KT 10SM CLR 15/09 A2995 RMK AO2  T01470090,,,,,,48.12,,N,29.3,28.94,,Clear
KIGQ,06/06/2017 02:55 UTC,29.96,58.1,48.02,69.1,9.22,10.0,17.27,,,,,1.0,,,,10.0,,KIGQ 060255Z AUTO 01008G15KT 10SM CLR 15/09 A2996 RMK AO2  T01450089,,,,,,47.94,,N,29.31,28.96,,Clear
KIGQ,06/06/2017 03:15 UTC,29.96,58.1,47.12,66.8,10.36,20.0,18.41,,,,,1.0,,,,10.0,,KIGQ 060315Z AUTO 02009G16KT 10SM CLR 15/08 A2996 RMK AO2  T01450084,,,,,,47.03,,NNE,29.31,28.99,,Clear
KIGQ,06/06/2017 03:35 UTC,29.96,58.1,46.22,64.57,11.5,20.0,18.41,,,,,1.0,,,,10.0,,KIGQ 060335Z AUTO 02010G16KT 10SM CLR 15/08 A2996 RMK AO2  T01450079,,,,,,46.12,,NNE,29.31,29.02,,Clear
KIGQ,06/06/2017 03:55 UTC,29.96,58.1,45.14,61.98,9.22,10.0,16.11,,,,,1.0,,,,10.0,,KIGQ 060355Z AUTO 01008G14KT 10SM CLR 15/07 A2996 RMK AO2  T01450073,,,,,,45.04,,N,29.31,29.05,,Clear
KIGQ,06/06/2017 04:15 UTC,29.96,57.56,43.7,59.82,9.22,10.0,,,,,,1.0,,,,10.0,,KIGQ 060415Z AUTO 01008KT 10SM CLR 14/07 A2996 RMK AO2  T01420065,,,,,,43.59,,N,29.31,29.1,,Clear
KIGQ,06/06/2017 04:35 UTC,29.96,57.2,42.98,58.95,6.91,360.0,,,,,,1.0,,,,10.0,,KIGQ 060435Z AUTO 36006KT 10SM CLR 14/06 A2996 RMK AO2  T01400061,,,,,,42.86,,N,29.31,29.12,,Clear
KIGQ,06/06/2017 04:55 UTC,29.96,57.38,42.26,56.97,8.05,10.0,,,,,,1.0,,,,10.0,,KIGQ 060455Z AUTO 01007KT 10SM CLR 14/06 A2996 RMK AO2  T01410057,,,,,,42.14,,N,29.31,29.14,,Clear
KIGQ,06/06/2017 05:15 UTC,29.96,57.38,43.16,58.98,8.05,10.0,,,,,,1.0,,,,10.0,,KIGQ 060515Z AUTO 01007KT 10SM CLR 14/06 A2996 RMK AO2  T01410062,,,,,,43.05,,N,29.31,29.12,,Clear
KIGQ,06/06/2017 05:35 UTC,29.96,56.66,44.6,63.95,10.36,10.0,16.11,,,,,1.0,,,,10.0,,KIGQ 060535Z AUTO 01009G14KT 10SM CLR 14/07 A2996 RMK AO2  T01370070,,,,,,44.5,,N,29.31,29.08,,Clear
KIGQ,06/06/2017 05:55 UTC,29.97,56.3,45.86,67.96,9.22,20.0,18.41,,,,,1.0,,,,10.0,,KIGQ 060555Z AUTO 02008G16KT 10SM CLR 14/08 A2997 RMK AO2  T01350077 10160 20135 402550135,60.8,56.3,,77.9,56.3,45.77,,NNE,29.32,29.05,,Clear
KIGQ,06/06/2017 06:15 UTC,29.97,55.58,46.94,72.66,9.22,10.0,,,,,,1.0,,,,10.0,,KIGQ 060615Z AUTO 01008KT 330V040 10SM CLR 13/08 A2997 RMK AO2  T01310083,,,,,,46.86,,N,29.32,29.03,,Clear
KIGQ,06/06/2017 06:35 UTC,29.97,55.4,47.84,75.65,6.91,10.0,,,,,,1.0,,,,10.0,,KIGQ 060635Z AUTO 01006KT 10SM CLR 13/09 A2997 RMK AO2  T01300088,,,,,,47.77,,N,29.32,29.0,,Clear
KIGQ,06/06/2017 06:55 UTC,29.97,55.4,48.56,77.72,6.91,10.0,,,,,,1.0,,,,10.0,,KIGQ 060655Z AUTO 01006KT 10SM CLR 13/09 A2997 RMK AO2  T01300092,,,,,,48.49,,N,29.32,28.97,,Clear
KIGQ,06/06/2017 07:15 UTC,29.96,55.4,49.1,79.31,6.91,10.0,,,,,,1.0,,,,10.0,,KIGQ 060715Z AUTO 01006KT 10SM CLR 13/10 A2996 RMK AO2  T01300095,,,,,,49.04,,N,29.31,28.94,,Clear
KIGQ,06/06/2017 07:35 UTC,29.97,55.04,49.46,81.44,5.75,360.0,,,,,,1.0,,,,10.0,,KIGQ 060735Z AUTO 36005KT 10SM CLR 13/10 A2997 RMK AO2  T01280097,,,,,,49.41,,N,29.32,28.95,,Clear
KIGQ,06/06/2017 07:55 UTC,29.97,55.04,49.64,81.99,3.44,350.0,,,,,,1.0,,,,10.0,,KIGQ 060755Z AUTO 35003KT 10SM CLR 13/10 A2997 RMK AO2  T01280098,,,,,,49.59,,N,29.32,28.94,,Clear
KIGQ,06/06/2017 08:15 UTC,29.98,54.32,49.1,82.49,0.0,0.0,,,,,,1.0,,,,10.0,,KIGQ 060815Z AUTO 00000KT 10SM CLR 12/10 A2998 RMK AO2  T01240095,,,,,,49.05,,N,29.33,28.98,,Clear
KIGQ,06/06/2017 08:35 UTC,29.98,54.32,49.1,82.49,3.44,350.0,,,,,,1.0,,,,10.0,,KIGQ 060835Z AUTO 35003KT 10SM CLR 12/10 A2998 RMK AO2  T01240095,,,,,,49.05,,N,29.33,28.98,,Clear
KIGQ,06/06/2017 08:55 UTC,29.98,54.68,49.1,81.41,4.61,360.0,,,,,,1.0,,,,10.0,,KIGQ 060855Z AUTO 36004KT 10SM CLR 13/10 A2998 RMK AO2  T01260095,,,,,,49.05,,N,29.33,28.97,,Clear
KIGQ,06/06/2017 09:15 UTC,29.99,54.86,49.28,81.42,5.75,10.0,,,,,,1.0,,,,10.0,,KIGQ 060915Z AUTO 01005KT 10SM CLR 13/10 A2999 RMK AO2  T01270096,,,,,,49.22,,N,29.34,28.97,,Clear
KIGQ,06/06/2017 09:35 UTC,29.99,54.68,49.1,81.41,6.91,10.0,,,,,,1.0,,,,10.0,,KIGQ 060935Z AUTO 01006KT 10SM CLR 13/10 A2999 RMK AO2  T01260095,,,,,,49.05,,N,29.34,28.98,,Clear
KIGQ,06/06/2017 09:55 UTC,29.99,54.14,48.56,81.37,4.61,10.0,,,,,,1.0,,,,10.0,,KIGQ 060955Z AUTO 01004KT 10SM CLR 12/09 A2999 RMK AO2  T01230092,,,,,,48.5,,N,29.34,29.01,,Clear
KIGQ,06/06/2017 10:15 UTC,30.0,53.96,48.38,81.36,4.61,10.0,,,,,,1.0,,,,10.0,,KIGQ 061015Z AUTO 01004KT 10SM CLR 12/09 A3000 RMK AO2  T01220091,,,,,,48.32,,N,29.35,29.02,,Clear
KIGQ,06/06/2017 10:35 UTC,30.01,53.78,48.56,82.45,5.75,10.0,,,,,,1.0,,,,10.0,,KIGQ 061035Z AUTO 01005KT 10SM CLR 12/09 A3001 RMK AO2  T01210092,,,,,,48.51,,N,29.36,29.03,,Clear
KIGQ,06/06/2017 10:55 UTC,30.01,54.5,49.1,81.95,4.61,20.0,,,,,,1.0,,,,10.0,,KIGQ 061055Z AUTO 02004KT 10SM CLR 13/10 A3001 RMK AO2  T01250095,,,,,,49.05,,NNE,29.36,29.0,,Clear
KIGQ,06/06/2017 11:15 UTC,30.02,55.76,49.28,78.81,4.61,20.0,,,,,,1.0,,,,10.0,,KIGQ 061115Z AUTO 02004KT 10SM CLR 13/10 A3002 RMK AO2  T01320096,,,,,,49.22,,NNE,29.37,29.0,,Clear
KIGQ,06/06/2017 11:35 UTC,30.02,57.02,50.0,77.35,6.91,10.0,,,,,,1.0,,,,10.0,,KIGQ 061135Z AUTO 01006KT 10SM CLR 14/10 A3002 RMK AO2  T01390100,,,,,,49.94,,N,29.37,28.96,,Clear
KIGQ,06/06/2017 11:55 UTC,30.03,57.92,50.0,74.88,8.05,10.0,,,,,,1.0,,,,10.0,,KIGQ 061155Z AUTO 01007KT 10SM CLR 14/10 A3003 RMK AO2 T01440100  10144 20120,57.92,53.6,,,,49.93,,N,29.38,28.96,,Clear
KIGQ,06/06/2017 12:15 UTC,30.03,59.0,50.0,72.04,9.22,30.0,,,,,,1.0,,,,10.0,,KIGQ 061215Z AUTO 03008KT 10SM CLR 15/10 A3003 RMK AO2  T01500100,,,,,,49.93,,NNE,29.38,28.95,,Clear
KIGQ,06/06/2017 12:35 UTC,30.04,59.9,50.18,70.24,5.75,20.0,,,,,,1.0,,,,10.0,,KIGQ 061235Z AUTO 02005KT 10SM CLR 16/10 A3004 RMK AO2  T01550101,,,,,,50.11,,NNE,29.39,28.94,,Clear
KIGQ,06/06/2017 12:55 UTC,30.04,60.8,50.18,68.03,10.36,10.0,,,,,,1.0,,,,10.0,,KIGQ 061255Z AUTO 01009KT 10SM CLR 16/10 A3004 RMK AO2  T01600101,,,,,,50.1,,N,29.39,28.94,,Clear
KIGQ,06/06/2017 13:15 UTC,30.05,60.8,50.0,67.57,3.44,10.0,,,,,,1.0,,,,10.0,,KIGQ 061315Z AUTO 01003KT 10SM CLR 16/10 A3005 RMK AO2  T01600100,,,,,,49.92,,N,29.4,28.95,,Clear
KIGQ,06/06/2017 13:35 UTC,30.05,61.34,49.82,65.85,4.61,40.0,,,,,,1.0,,,,10.0,,KIGQ 061335Z AUTO 04004KT 10SM CLR 16/10 A3005 RMK AO2  T01630099,,,,,,49.74,,NE,29.4,28.95,,Clear
KIGQ,06/06/2017 13:55 UTC,30.06,61.7,48.92,62.88,10.36,360.0,,,,,,1.0,,,,10.0,,KIGQ 061355Z AUTO 36009KT 10SM CLR 17/09 A3006 RMK AO2  T01650094,,,,,,48.84,,N,29.41,28.99,,Clear
KIGQ,06/06/2017 14:15 UTC,30.06,61.7,48.2,61.21,13.8,20.0,18.41,,,,,1.0,,,,10.0,,KIGQ 061415Z AUTO 02012G16KT 10SM CLR 17/09 A3006 RMK AO2  T01650090,,,,,,48.11,,NNE,29.41,29.02,,Clear
KIGQ,06/06/2017 14:35 UTC,30.06,62.24,48.92,61.69,8.05,360.0,,,,,,1.0,,,,10.0,,KIGQ 061435Z AUTO 36007KT 330V030 10SM CLR 17/09 A3006 RMK AO2  T01680094,,,,,,48.83,,N,29.41,28.99,,Clear
KIGQ,06/06/2017 14:55 UTC,30.06,62.6,48.2,59.3,10.36,20.0,,,,,,1.0,,,,10.0,,KIGQ 061455Z AUTO 02009KT 10SM CLR 17/09 A3006 RMK AO2  T01700090,,,,,,48.11,,NNE,29.41,29.01,,Clear
KIGQ,06/06/2017 15:15 UTC,30.06,64.4,48.74,56.81,6.91,20.0,,,,,,1.0,,,,10.0,,KIGQ 061515Z AUTO 02006KT 10SM CLR 18/09 A3006 RMK AO2  T01800093,,,,,,48.65,,NNE,29.41,28.98,,Clear
KIGQ,06/06/2017 15:35 UTC,30.05,64.76,48.02,54.61,8.05,20.0,,,,,,1.0,,,,10.0,,KIGQ 061535Z AUTO 02007KT 10SM CLR 18/09 A3005 RMK AO2  T01820089,,,,,,47.93,,NNE,29.4,28.99,,Clear
KIGQ,06/06/2017 15:55 UTC,30.05,66.2,47.84,51.6,14.97,20.0,,,,,,1.0,,,,10.0,,KIGQ 061555Z AUTO 02013KT 10SM CLR 19/09 A3005 RMK AO2  T01900088,,,,,,47.75,,NNE,29.4,28.98,,Clear
KIGQ,06/06/2017 16:15 UTC,30.05,65.3,46.76,51.11,12.66,40.0,18.41,,,,,1.0,,,,10.0,,KIGQ 061615Z AUTO 04011G16KT 10SM CLR 19/08 A3005 RMK AO2  T01850082,,,,,,46.66,,NE,29.4,29.03,,Clear
KIGQ,06/06/2017 16:35 UTC,30.05,66.02,47.3,50.88,10.36,10.0,17.27,,,,,1.0,,,,10.0,,KIGQ 061635Z AUTO 01009G15KT 330V040 10SM CLR 19/09 A3005 RMK AO2  T01890085,,,,,,47.21,,N,29.4,29.01,,Clear
KIGQ,06/06/2017 16:55 UTC,30.05,66.2,47.12,50.22,11.5,360.0,18.41,,,,,1.0,,,,10.0,,KIGQ 061655Z AUTO 36010G16KT 10SM CLR 19/08 A3005 RMK AO2  T01900084,,,,,,47.03,,N,29.4,29.01,,Clear
KIGQ,06/06/2017 17:15 UTC,30.04,67.1,47.48,49.35,9.22,360.0,16.11,,,,,1.0,,,,10.0,,KIGQ 061715Z AUTO 36008G14KT 10SM CLR 20/09 A3004 RMK AO2  T01950086,,,,,,47.4,,N,29.39,28.98,,Clear
KIGQ,06/06/2017 17:35 UTC,30.04,67.46,46.4,46.79,11.5,20.0,17.27,,,,,1.0,,,,10.0,,KIGQ 061735Z AUTO 02010G15KT 10SM CLR 20/08 A3004 RMK AO2  T01970080,,,,,,46.31,,NNE,29.39,29.02,,Clear
KIGQ,06/06/2017 17:55 UTC,30.04,68.0,47.12,47.2,12.66,10.0,,,,,,1.0,,,,10.0,,KIGQ 061755Z AUTO 01011KT 10SM CLR 20/08 A3004 RMK AO2 T02000084  10201 20145,68.18,58.1,,,,47.04,,N,29.39,28.99,,Clear
KIGQ,06/06/2017 18:15 UTC,30.04,69.26,47.12,45.2,11.5,10.0,17.27,,,,,1.0,,,,10.0,,KIGQ 061815Z AUTO 01010G15KT 10SM CLR 21/08 A3004 RMK AO2  T02070084,,,,,,47.04,,N,29.39,28.98,,Clear
KIGQ,06/06/2017 18:35 UTC,30.04,67.46,48.2,50.07,11.5,20.0,,,,,,1.0,,,,10.0,,KIGQ 061835Z AUTO 02010KT 10SM CLR 20/09 A3004 RMK AO2  T01970090,,,,,,48.12,,NNE,29.39,28.95,,Clear
KIGQ,06/06/2017 18:55 UTC,30.03,68.9,47.48,46.39,13.8,40.0,,,,,,1.0,,,,10.0,,KIGQ 061855Z AUTO 04012KT 10SM CLR 21/09 A3003 RMK AO2  T02050086,,,,,,47.4,,NE,29.38,28.96,,Clear
KIGQ,06/06/2017 19:15 UTC,30.03,67.46,49.28,52.14,12.66,30.0,,,,,,1.0,,,,10.0,,KIGQ 061915Z AUTO 03011KT 10SM CLR 20/10 A3003 RMK AO2  T01970096,,,,,,49.2,,NNE,29.38,28.9,,Clear
KIGQ,06/06/2017 19:35 UTC,30.03,67.28,48.74,51.41,12.66,30.0,,,,,,1.0,,,,10.0,,KIGQ 061935Z AUTO 03011KT 10SM CLR 20/09 A3003 RMK AO2  T01960093,,,,,,48.66,,NNE,29.38,28.92,,Clear
KIGQ,06/06/2017 19:55 UTC,30.03,67.82,47.12,47.49,11.5,10.0,16.11,,,,,1.0,,,,10.0,,KIGQ 061955Z AUTO 01010G14KT 350V050 10SM CLR 20/08 A3003 RMK AO2  T01990084,,,,,,47.04,,N,29.38,28.98,,Clear
KIGQ,06/06/2017 20:15 UTC,30.02,68.0,45.32,44.09,11.5,20.0,20.71,,,,,1.0,,,,10.0,,KIGQ 062015Z AUTO 02010G18KT 10SM CLR 20/07 A3002 RMK AO2  T02000074,,,,,,45.23,,NNE,29.37,29.03,,Clear
KIGQ,06/06/2017 20:35 UTC,30.02,68.9,46.58,44.84,12.66,30.0,17.27,,,,,1.0,,,,10.0,,KIGQ 062035Z AUTO 03011G15KT 10SM CLR 21/08 A3002 RMK AO2  T02050081,,,,,,46.5,,NNE,29.37,28.98,,Clear
KIGQ,06/06/2017 20:55 UTC,30.02,68.54,46.94,46.02,10.36,30.0,18.41,,,,,1.0,,,,10.0,,KIGQ 062055Z AUTO 03009G16KT 10SM CLR 20/08 A3002 RMK AO2  T02030083,,,,,,46.86,,NNE,29.37,28.97,,Clear
KIGQ,06/06/2017 21:15 UTC,30.02,68.36,46.76,45.99,11.5,20.0,16.11,,,,,1.0,,,,10.0,,KIGQ 062115Z AUTO 02010G14KT 10SM CLR 20/08 A3002 RMK AO2  T02020082,,,,,,46.68,,NNE,29.37,28.98,,Clear
KIGQ,06/06/2017 21:35 UTC,30.03,68.0,45.68,44.7,12.66,10.0,23.02,,,,,1.0,,,,10.0,,KIGQ 062135Z AUTO 01011G20KT 10SM CLR 20/08 A3003 RMK AO2  T02000076,,,,,,45.59,,N,29.38,29.03,,Clear
KIGQ,06/06/2017 21:55 UTC,30.03,68.18,46.04,45.03,11.5,20.0,17.27,,,,,1.0,,,,10.0,,KIGQ 062155Z AUTO 02010G15KT 10SM CLR 20/08 A3003 RMK AO2  T02010078,,,,,,45.95,,NNE,29.38,29.01,,Clear
KIGQ,06/06/2017 22:15 UTC,30.03,66.74,45.68,46.68,13.8,20.0,25.32,,,,,1.0,,,,10.0,,KIGQ 062215Z AUTO 02012G22KT 10SM CLR 19/08 A3003 RMK AO2  T01930076,,,,,,45.59,,NNE,29.38,29.04,,Clear
KIGQ,06/06/2017 22:35 UTC,30.03,66.56,45.68,46.97,16.11,20.0,24.16,,,,,1.0,,,,10.0,,KIGQ 062235Z AUTO 02014G21KT 10SM CLR 19/08 A3003 RMK AO2  T01920076,,,,,,45.59,,NNE,29.38,29.04,,Clear
KIGQ,06/06/2017 22:55 UTC,30.03,66.92,44.96,45.14,14.97,10.0,24.16,,,,,1.0,,,,10.0,,KIGQ 062255Z AUTO 01013G21KT 10SM CLR 19/07 A3003 RMK AO2  T01940072,,,,,,44.87,,N,29.38,29.06,,Clear
KIGQ,06/06/2017 23:15 UTC,30.04,66.56,43.7,43.56,14.97,10.0,25.32,,,,,1.0,,,,10.0,,KIGQ 062315Z AUTO 01013G22KT 10SM CLR 19/07 A3004 RMK AO2  T01920065,,,,,,43.6,,N,29.39,29.11,,Clear
KIGQ,06/06/2017 23:35 UTC,30.04,66.02,42.98,43.18,10.36,10.0,19.57,,,,,1.0,,,,10.0,,KIGQ 062335Z AUTO 01009G17KT 10SM CLR 19/06 A3004 RMK AO2  T01890061,,,,,,42.88,,N,29.39,29.14,,Clear
KIGQ,06/06/2017 23:55 UTC,30.04,65.3,41.36,41.59,12.66,30.0,16.11,,,,,1.0,,,,10.0,,KIGQ 062355Z AUTO 03011G14KT 10SM CLR 19/05 A3004 RMK AO2  T01850052 10209 20185,69.62,65.3,,,,41.25,,NNE,29.39,29.19,,Clear
KIGQ,06/07/2017 00:15 UTC,30.04,64.58,42.08,43.85,12.66,10.0,21.85,,,,,1.0,,,,10.0,,KIGQ 070015Z AUTO 01011G19KT 10SM CLR 18/06 A3004 RMK AO2  T01810056,,,,,,41.97,,N,29.39,29.18,,Clear
KIGQ,06/07/2017 00:35 UTC,30.04,64.04,42.98,46.25,11.5,20.0,17.27,,,,,1.0,,,,10.0,,KIGQ 070035Z AUTO 02010G15KT 10SM CLR 18/06 A3004 RMK AO2  T01780061,,,,,,42.87,,NNE,29.39,29.15,,Clear
KIGQ,06/07/2017 00:55 UTC,30.04,63.68,43.16,47.16,9.22,10.0,,,,,,1.0,,,,10.0,,KIGQ 070055Z AUTO 01008KT 10SM CLR 18/06 A3004 RMK AO2  T01760062,,,,,,43.04,,N,29.39,29.15,,Clear
KIGQ,06/07/2017 01:15 UTC,30.04,63.14,42.8,47.41,6.91,10.0,,,,,,1.0,,,,10.0,,KIGQ 070115Z AUTO 01006KT 10SM CLR 17/06 A3004 RMK AO2  T01730060,,,,,,42.69,,N,29.39,29.16,,Clear
KIGQ,06/07/2017 01:35 UTC,30.04,62.6,42.98,48.65,10.36,10.0,,,,,,1.0,,,,10.0,,KIGQ 070135Z AUTO 01009KT 10SM CLR 17/06 A3004 RMK AO2  T01700061,,,,,,42.86,,N,29.39,29.16,,Clear
KIGQ,06/07/2017 01:55 UTC,30.04,61.88,43.34,50.59,9.22,10.0,,,,,,1.0,,,,10.0,,KIGQ 070155Z AUTO 01008KT 10SM CLR 17/06 A3004 RMK AO2  T01660063,,,,,,43.22,,N,29.39,29.16,,Clear
KIGQ,06/07/2017 02:15 UTC,30.05,61.88,43.34,50.59,9.22,10.0,,,,,,1.0,,,,10.0,,KIGQ 070215Z AUTO 01008KT 10SM CLR 17/06 A3005 RMK AO2  T01660063,,,,,,43.22,,N,29.4,29.17,,Clear
KIGQ,06/07/2017 02:35 UTC,30.05,61.7,43.16,50.56,8.05,360.0,,,,,,1.0,,,,10.0,,KIGQ 070235Z AUTO 36007KT 10SM CLR 17/06 A3005 RMK AO2  T01650062,,,,,,43.04,,N,29.4,29.17,,Clear
KIGQ,06/07/2017 02:55 UTC,30.06,60.98,43.88,53.32,8.05,360.0,,,,,,1.0,,,,10.0,,KIGQ 070255Z AUTO 36007KT 10SM CLR 16/07 A3006 RMK AO2  T01610066,,,,,,43.77,,N,29.41,29.17,,Clear
KIGQ,06/07/2017 03:15 UTC,30.06,60.44,44.78,56.24,8.05,10.0,,,,,,1.0,,,,10.0,,KIGQ 070315Z AUTO 01007KT 10SM CLR 16/07 A3006 RMK AO2  T01580071,,,,,,44.67,,N,29.41,29.14,,Clear
KIGQ,06/07/2017 03:35 UTC,30.06,59.18,45.5,60.45,5.75,360.0,,,,,,1.0,,,,10.0,,KIGQ 070335Z AUTO 36005KT 10SM CLR 15/08 A3006 RMK AO2  T01510075,,,,,,45.39,,N,29.41,29.13,,Clear
KIGQ,06/07/2017 03:55 UTC,30.06,58.46,46.22,63.74,6.91,10.0,,,,,,1.0,,,,10.0,,KIGQ 070355Z AUTO 01006KT 10SM CLR 15/08 A3006 RMK AO2  T01470079,,,,,,46.12,,N,29.41,29.12,,Clear
KIGQ,06/07/2017 04:15 UTC,30.06,58.1,46.76,65.9,10.36,20.0,,,,,,702.0,,,,10.0,,KIGQ 070415Z AUTO 02009KT 10SM SCT070 15/08 A3006 RMK AO2  T01450082,,,,,,46.67,,NNE,29.41,29.1,,Partly Cloudy
KIGQ,06/07/2017 04:35 UTC,30.07,57.74,47.3,68.13,6.91,20.0,,,,,,702.0,,,,10.0,,KIGQ 070435Z AUTO 02006KT 10SM SCT070 14/09 A3007 RMK AO2  T01430085,,,,,,47.21,,NNE,29.42,29.1,,Partly Cloudy
KIGQ,06/07/2017 04:55 UTC,30.08,57.2,47.84,70.89,3.44,360.0,,,,,,802.0,,,,10.0,,KIGQ 070455Z AUTO 36003KT 10SM SCT080 14/09 A3008 RMK AO2  T01400088,,,,,,47.76,,N,29.43,29.09,,Partly Cloudy
KIGQ,06/07/2017 05:15 UTC,30.08,56.66,48.2,73.27,0.0,0.0,,,,,,1.0,,,,10.0,,KIGQ 070515Z AUTO 00000KT 10SM CLR 14/09 A3008 RMK AO2  T01370090,,,,,,48.13,,N,29.43,29.09,,Clear
KIGQ,06/07/2017 05:35 UTC,30.07,56.66,48.38,73.76,0.0,0.0,,,,,,752.0,,,,10.0,,KIGQ 070535Z AUTO 00000KT 10SM SCT075 14/09 A3007 RMK AO2  T01370091,,,,,,48.31,,N,29.42,29.07,,Partly Cloudy
KIGQ,06/07/2017 05:55 UTC,30.07,55.94,48.2,75.2,0.0,0.0,,,,,,1.0,,,,10.0,,KIGQ 070555Z AUTO 00000KT 10SM CLR 13/09 A3007 RMK AO2 T01330090  10185 20128 402090120,65.3,55.04,,69.62,53.6,48.13,,N,29.42,29.08,,Clear
KIGQ,06/07/2017 06:15 UTC,30.07,55.4,48.56,77.72,0.0,0.0,,,,,,802.0,,,,10.0,,KIGQ 070615Z AUTO 00000KT 10SM SCT080 13/09 A3007 RMK AO2  T01300092,,,,,,48.49,,N,29.42,29.08,,Partly Cloudy
KIGQ,06/07/2017 06:35 UTC,30.07,55.04,48.92,79.81,0.0,0.0,,,,,,802.0,,,,10.0,,KIGQ 070635Z AUTO 00000KT 10SM SCT080 13/09 A3007 RMK AO2  T01280094,,,,,,48.86,,N,29.42,29.07,,Partly Cloudy
KIGQ,06/07/2017 06:55 UTC,30.07,55.4,49.46,80.38,4.61,340.0,,,,,,802.0,,,,10.0,,KIGQ 070655Z AUTO 34004KT 10SM SCT080 13/10 A3007 RMK AO2  T01300097,,,,,,49.4,,NNW,29.42,29.04,,Partly Cloudy
KIGQ,06/07/2017 07:15 UTC,30.07,55.4,50.0,82.01,3.44,350.0,,,,,,802.0,,,,10.0,,KIGQ 070715Z AUTO 35003KT 10SM SCT080 13/10 A3007 RMK AO2  T01300100,,,,,,49.95,,N,29.42,29.02,,Partly Cloudy
KIGQ,06/07/2017 07:35 UTC,30.07,55.58,50.18,82.02,3.44,350.0,,,,,,1.0,,,,10.0,,KIGQ 070735Z AUTO 35003KT 10SM CLR 13/10 A3007 RMK AO2  T01310101,,,,,,50.13,,N,29.42,29.02,,Clear
KIGQ,06/07/2017 07:55 UTC,30.07,55.4,50.0,82.01,3.44,10.0,,,,,,1.0,,,,10.0,,KIGQ 070755Z AUTO 01003KT 10SM CLR 13/10 A3007 RMK AO2  T01300100,,,,,,49.95,,N,29.42,29.02,,Clear
KIGQ,06/07/2017 08:15 UTC,30.07,55.94,48.92,77.25,5.75,30.0,,,,,,1.0,,,,10.0,,KIGQ 070815Z AUTO 03005KT 10SM CLR 13/09 A3007 RMK AO2  T01330094,,,,,,48.86,,NNE,29.42,29.06,,Clear
KIGQ,06/07/2017 08:35 UTC,30.08,57.56,48.56,71.89,9.22,30.0,,,,,,1.0,,,,10.0,,KIGQ 070835Z AUTO 03008KT 10SM CLR 14/09 A3008 RMK AO2  T01420092,,,,,,48.48,,NNE,29.43,29.07,,Clear
KIGQ,06/07/2017 08:55 UTC,30.08,57.02,48.74,73.8,8.05,30.0,,,,,,1.0,,,,10.0,,KIGQ 070855Z AUTO 03007KT 10SM CLR 14/09 A3008 RMK AO2  T01390093,,,,,,48.67,,NNE,29.43,29.06,,Clear
KIGQ,06/07/2017 09:15 UTC,30.08,56.66,49.1,75.77,6.91,30.0,,,,,,1.0,,,,10.0,,KIGQ 070915Z AUTO 03006KT 10SM CLR 14/10 A3008 RMK AO2  T01370095,,,,,,49.03,,NNE,29.43,29.05,,Clear
KIGQ,06/07/2017 09:35 UTC,30.09,56.3,49.1,76.76,8.05,30.0,,,,,,1.0,,,,10.0,,KIGQ 070935Z AUTO 03007KT 10SM CLR 14/10 A3009 RMK AO2  T01350095,,,,,,49.03,,NNE,29.44,29.07,,Clear
KIGQ,06/07/2017 09:55 UTC,30.09,56.3,49.1,76.76,5.75,30.0,,,,,,1.0,,,,10.0,,KIGQ 070955Z AUTO 03005KT 10SM CLR 14/10 A3009 RMK AO2  T01350095,,,,,,49.03,,NNE,29.44,29.07,,Clear
KIGQ,06/07/2017 10:15 UTC,30.09,55.76,48.92,77.76,5.75,30.0,,,,,,1.0,,,,10.0,,KIGQ 071015Z AUTO 03005KT 10SM CLR 13/09 A3009 RMK AO2  T01320094,,,,,,48.86,,NNE,29.44,29.08,,Clear
KIGQ,06/07/2017 10:35 UTC,30.1,55.58,49.1,78.79,3.44,40.0,,,,,,1.0,,,,10.0,,KIGQ 071035Z AUTO 04003KT 10SM CLR 13/10 A3010 RMK AO2  T01310095,,,,,,49.04,,NE,29.45,29.09,,Clear
KIGQ,06/07/2017 10:55 UTC,30.11,55.4,49.1,79.31,5.75,50.0,,,,,,1.0,,,,10.0,,KIGQ 071055Z AUTO 05005KT 10SM CLR 13/10 A3011 RMK AO2  T01300095,,,,,,49.04,,NE,29.46,29.1,,Clear
KIGQ,06/07/2017 11:15 UTC,30.11,57.02,49.46,75.81,5.75,50.0,,,,,,1.0,,,,10.0,,KIGQ 071115Z AUTO 05005KT 10SM CLR 14/10 A3011 RMK AO2  T01390097,,,,,,49.39,,NE,29.46,29.07,,Clear
KIGQ,06/07/2017 11:35 UTC,30.12,58.28,49.46,72.45,8.05,60.0,,,,,,22.0,,,,10.0,,KIGQ 071135Z AUTO 06007KT 10SM SCT002 15/10 A3012 RMK AO2  T01460097,,,,,,49.39,,ENE,29.47,29.07,,Partly Cloudy
KIGQ,06/07/2017 11:55 UTC,30.12,59.54,49.82,70.2,8.05,50.0,,,,,,22.0,,,,10.0,,KIGQ 071155Z AUTO 05007KT 10SM SCT002 15/10 A3012 RMK AO2  T01530099 10153 20126,59.54,54.68,,,,49.75,,NE,29.47,29.04,,Partly Cloudy
KIGQ,06/07/2017 12:15 UTC,30.13,60.44,50.0,68.44,9.22,50.0,,,,,,1.0,,,,10.0,,KIGQ 071215Z AUTO 05008KT 10SM CLR 16/10 A3013 RMK AO2  T01580100,,,,,,49.92,,NE,29.47,29.03,,Clear
KIGQ,06/07/2017 12:35 UTC,30.13,61.16,50.18,67.17,11.5,40.0,,,,,,1.0,,,,10.0,,KIGQ 071235Z AUTO 04010KT 10SM CLR 16/10 A3013 RMK AO2  T01620101,,,,,,50.1,,NE,29.47,29.01,,Clear
KIGQ,06/07/2017 12:55 UTC,30.13,62.06,50.0,64.63,12.66,50.0,17.27,,,,,1.0,,,,10.0,,KIGQ 071255Z AUTO 05011G15KT 10SM CLR 17/10 A3013 RMK AO2  T01670100,,,,,,49.92,,NE,29.47,29.01,,Clear
KIGQ,06/07/2017 13:15 UTC,30.14,62.96,49.46,61.37,12.66,40.0,17.27,,,,,1.0,,,,10.0,,KIGQ 071315Z AUTO 04011G15KT 10SM CLR 17/10 A3014 RMK AO2  T01720097,,,,,,49.37,,NE,29.48,29.03,,Clear
KIGQ,06/07/2017 13:35 UTC,30.13,63.86,50.0,60.68,11.5,50.0,18.41,,,,,1.0,,,,10.0,,KIGQ 071335Z AUTO 05010G16KT 10SM CLR 18/10 A3013 RMK AO2  T01770100,,,,,,49.92,,NE,29.47,29.0,,Clear
KIGQ,06/07/2017 13:55 UTC,30.13,64.4,49.46,58.36,10.36,40.0,18.41,,,,,1.0,,,,10.0,,KIGQ 071355Z AUTO 04009G16KT 10SM CLR 18/10 A3013 RMK AO2  T01800097,,,,,,49.38,,NE,29.47,29.01,,Clear
KIGQ,06/07/2017 14:15 UTC,30.14,65.3,49.64,56.94,10.36,30.0,17.27,,,,,1.0,,,,10.0,,KIGQ 071415Z AUTO 03009G15KT 10SM CLR 19/10 A3014 RMK AO2  T01850098,,,,,,49.56,,NNE,29.48,29.01,,Clear
KIGQ,06/07/2017 14:35 UTC,30.14,65.66,48.92,54.74,11.5,30.0,,,,,,1.0,,,,10.0,,KIGQ 071435Z AUTO 03010KT 10SM CLR 19/09 A3014 RMK AO2  T01870094,,,,,,48.83,,NNE,29.48,29.03,,Clear
KIGQ,06/07/2017 14:55 UTC,30.14,66.2,48.74,53.37,11.5,60.0,,,,,,1.0,,,,10.0,,KIGQ 071455Z AUTO 06010KT 10SM CLR 19/09 A3014 RMK AO2  T01900093,,,,,,48.66,,ENE,29.48,29.03,,Clear
KIGQ,06/07/2017 15:15 UTC,30.14,67.28,47.12,48.38,12.66,60.0,17.27,,,,,1.0,,,,10.0,,KIGQ 071515Z AUTO 06011G15KT 10SM CLR 20/08 A3014 RMK AO2  T01960084,,,,,,47.03,,ENE,29.48,29.08,,Clear
KIGQ,06/07/2017 15:35 UTC,30.14,67.82,47.3,47.81,12.66,40.0,18.41,,,,,1.0,,,,10.0,,KIGQ 071535Z AUTO 04011G16KT 10SM CLR 20/09 A3014 RMK AO2  T01990085,,,,,,47.22,,NE,29.48,29.07,,Clear
KIGQ,06/07/2017 15:55 UTC,30.15,67.46,47.66,49.07,11.5,30.0,17.27,,,,,1.0,,,,10.0,,KIGQ 071555Z AUTO 03010G15KT 10SM CLR 20/09 A3015 RMK AO2  T01970087,,,,,,47.58,,NNE,29.49,29.07,,Clear
KIGQ,06/07/2017 16:15 UTC,30.15,68.0,49.46,51.52,9.22,50.0,,,,,,1.0,,,,10.0,,KIGQ 071615Z AUTO 05008KT 10SM CLR 20/10 A3015 RMK AO2  T02000097,,,,,,49.38,,NE,29.49,29.0,,Clear
KIGQ,06/07/2017 16:35 UTC,30.15,68.18,49.1,50.52,10.36,30.0,16.11,,,,,1.0,,,,10.0,,KIGQ 071635Z AUTO 03009G14KT 10SM CLR 20/10 A3015 RMK AO2  T02010095,,,,,,49.02,,NNE,29.49,29.01,,Clear
KIGQ,06/07/2017 16:55 UTC,30.14,68.9,48.2,47.66,11.5,30.0,18.41,,,,,1.0,,,,10.0,,KIGQ 071655Z AUTO 03010G16KT 350V050 10SM CLR 21/09 A3014 RMK AO2  T02050090,,,,,,48.13,,NNE,29.48,29.03,,Clear
KIGQ,06/07/2017 17:15 UTC,30.14,68.9,47.48,46.39,10.36,30.0,,,,,,1.0,,,,10.0,,KIGQ 071715Z AUTO 03009KT 10SM CLR 21/09 A3014 RMK AO2  T02050086,,,,,,47.4,,NNE,29.48,29.06,,Clear
KIGQ,06/07/2017 17:35 UTC,30.14,69.08,46.94,45.18,10.36,50.0,17.27,,,,,1.0,,,,10.0,,KIGQ 071735Z AUTO 05009G15KT 10SM CLR 21/08 A3014 RMK AO2  T02060083,,,,,,46.87,,NE,29.48,29.08,,Clear
KIGQ,06/07/2017 17:55 UTC,30.13,69.62,46.76,44.05,8.05,360.0,,,,,,1.0,,,,10.0,,KIGQ 071755Z AUTO 36007KT 10SM CLR 21/08 A3013 RMK AO2 T02090082  10209 20154,69.62,59.72,,,,46.69,,N,29.47,29.07,,Clear
KIGQ,06/07/2017 18:15 UTC,30.13,69.8,44.96,40.9,6.91,10.0,19.57,,,,,1.0,,,,10.0,,KIGQ 071815Z AUTO 01006G17KT 10SM CLR 21/07 A3013 RMK AO2  T02100072,,,,,,44.89,,N,29.47,29.13,,Clear
KIGQ,06/07/2017 18:35 UTC,30.13,69.62,44.78,40.87,9.22,30.0,19.57,,,,,1.0,,,,10.0,,KIGQ 071835Z AUTO 03008G17KT 10SM CLR 21/07 A3013 RMK AO2  T02090071,,,,,,44.7,,NNE,29.47,29.14,,Clear
KIGQ,06/07/2017 18:55 UTC,30.12,70.52,46.04,41.58,6.91,30.0,16.11,,,,,1.0,,,,10.0,,KIGQ 071855Z AUTO 03006G14KT 10SM CLR 21/08 A3012 RMK AO2  T02140078,,,,,,45.97,,NNE,29.47,29.09,,Clear
KIGQ,06/07/2017 19:15 UTC,30.12,69.98,45.32,41.21,5.75,20.0,,,,,,1.0,,,,10.0,,KIGQ 071915Z AUTO 02005KT 10SM CLR 21/07 A3012 RMK AO2  T02110074,,,,,,45.25,,NNE,29.47,29.11,,Clear
KIGQ,06/07/2017 19:35 UTC,30.11,71.24,45.5,39.75,9.22,40.0,,,,,,1.0,,,,10.0,,KIGQ 071935Z AUTO 04008KT 10SM CLR 22/08 A3011 RMK AO2  T02180075,,,,,,45.44,,NE,29.46,29.09,,Clear
KIGQ,06/07/2017 19:55 UTC,30.11,71.42,45.86,40.05,5.75,30.0,,,,,,1.0,,,,10.0,,KIGQ 071955Z AUTO 03005KT 10SM CLR 22/08 A3011 RMK AO2  T02190077,,,,,,45.8,,NNE,29.46,29.08,,Clear
KIGQ,06/07/2017 20:15 UTC,30.11,70.16,44.78,40.12,6.91,20.0,,,,,,1.0,,,,10.0,,KIGQ 072015Z AUTO 02006KT 10SM CLR 21/07 A3011 RMK AO2  T02120071,,,,,,44.7,,NNE,29.46,29.12,,Clear
KIGQ,06/07/2017 20:35 UTC,30.11,69.8,44.6,40.34,4.61,20.0,,,,,,1.0,,,,10.0,,KIGQ 072035Z AUTO 02004KT 10SM CLR 21/07 A3011 RMK AO2  T02100070,,,,,,44.52,,NNE,29.46,29.13,,Clear
KIGQ,06/07/2017 20:55 UTC,30.1,71.06,44.6,38.65,5.75,30.0,,,,,,1.0,,,,10.0,,KIGQ 072055Z AUTO 03005KT 10SM CLR 22/07 A3010 RMK AO2  T02170070,,,,,,44.53,,NNE,29.45,29.11,,Clear
KIGQ,06/07/2017 21:15 UTC,30.1,70.34,43.88,38.53,12.66,20.0,16.11,,,,,1.0,,,,10.0,,KIGQ 072115Z AUTO 02011G14KT 10SM CLR 21/07 A3010 RMK AO2  T02130066,,,,,,43.81,,NNE,29.45,29.14,,Clear
KIGQ,06/07/2017 21:35 UTC,30.1,69.98,43.16,37.95,10.36,20.0,,,,,,1.0,,,,10.0,,KIGQ 072135Z AUTO 02009KT 10SM CLR 21/06 A3010 RMK AO2  T02110062,,,,,,43.09,,NNE,29.45,29.17,,Clear
KIGQ,06/07/2017 21:55 UTC,30.09,69.98,43.34,38.21,9.22,20.0,,,,,,1.0,,,,10.0,,KIGQ 072155Z AUTO 02008KT 10SM CLR 21/06 A3009 RMK AO2  T02110063,,,,,,43.26,,NNE,29.44,29.15,,Clear
KIGQ,06/07/2017 22:15 UTC,30.1,70.34,43.7,38.27,9.22,10.0,,,,,,1.0,,,,10.0,,KIGQ 072215Z AUTO 01008KT 10SM CLR 21/07 A3010 RMK AO2  T02130065,,,,,,43.63,,N,29.45,29.15,,Clear
KIGQ,06/07/2017 22:35 UTC,30.1,69.8,42.8,37.66,9.22,360.0,,,,,,1.0,,,,10.0,,KIGQ 072235Z AUTO 36008KT 340V040 10SM CLR 21/06 A3010 RMK AO2  T02100060,,,,,,42.72,,N,29.45,29.18,,Clear
KIGQ,06/07/2017 22:55 UTC,30.09,69.44,42.62,37.86,8.05,10.0,,,,,,1.0,,,,10.0,,KIGQ 072255Z AUTO 01007KT 10SM CLR 21/06 A3009 RMK AO2  T02080059,,,,,,42.54,,N,29.44,29.18,,Clear
KIGQ,06/07/2017 23:15 UTC,30.09,69.26,42.62,38.09,10.36,30.0,,,,,,1.0,,,,10.0,,KIGQ 072315Z AUTO 03009KT 10SM CLR 21/06 A3009 RMK AO2  T02070059,,,,,,42.54,,NNE,29.44,29.18,,Clear
KIGQ,06/07/2017 23:35 UTC,30.08,68.9,42.98,39.1,9.22,40.0,,,,,,1.0,,,,10.0,,KIGQ 072335Z AUTO 04008KT 10SM CLR 21/06 A3008 RMK AO2  T02050061,,,,,,42.89,,NE,29.43,29.16,,Clear
KIGQ,06/07/2017 23:55 UTC,30.08,68.0,41.72,38.42,9.22,30.0,16.11,,,,,1.0,,,,10.0,,KIGQ 072355Z AUTO 03008G14KT 10SM CLR 20/05 A3008 RMK AO2  T02000054 10220 20200,71.6,68.0,,,,41.63,,NNE,29.43,29.2,,Clear
KIGQ,06/08/2017 00:15 UTC,30.08,67.46,42.26,39.96,5.75,10.0,,,,,,1.0,,,,10.0,,KIGQ 080015Z AUTO 01005KT 10SM CLR 20/06 A3008 RMK AO2  T01970057,,,,,,42.16,,N,29.43,29.19,,Clear
KIGQ,06/08/2017 00:35 UTC,30.08,66.92,42.44,40.99,5.75,20.0,,,,,,1.0,,,,10.0,,KIGQ 080035Z AUTO 02005KT 10SM CLR 19/06 A3008 RMK AO2  T01940058,,,,,,42.34,,NNE,29.43,29.19,,Clear
KIGQ,06/08/2017 00:55 UTC,30.08,65.84,43.34,44.05,5.75,20.0,,,,,,1.0,,,,10.0,,KIGQ 080055Z AUTO 02005KT 10SM CLR 19/06 A3008 RMK AO2  T01880063,,,,,,43.24,,NNE,29.43,29.17,,Clear
KIGQ,06/08/2017 01:15 UTC,30.08,64.4,44.6,48.59,3.44,20.0,,,,,,1.0,,,,10.0,,KIGQ 080115Z AUTO 02003KT 10SM CLR 18/07 A3008 RMK AO2  T01800070,,,,,,44.49,,NNE,29.43,29.14,,Clear
KIGQ,06/08/2017 01:35 UTC,30.08,63.5,44.6,50.15,3.44,50.0,,,,,,1.0,,,,10.0,,KIGQ 080135Z AUTO 05003KT 10SM CLR 18/07 A3008 RMK AO2  T01750070,,,,,,44.49,,NE,29.43,29.15,,Clear
KIGQ,06/08/2017 01:55 UTC,30.08,62.96,45.14,52.17,3.44,40.0,,,,,,1.0,,,,10.0,,KIGQ 080155Z AUTO 04003KT 10SM CLR 17/07 A3008 RMK AO2  T01720073,,,,,,45.04,,NE,29.43,29.13,,Clear
KIGQ,06/08/2017 02:15 UTC,30.08,61.88,45.32,54.56,3.44,60.0,,,,,,1.0,,,,10.0,,KIGQ 080215Z AUTO 06003KT 10SM CLR 17/07 A3008 RMK AO2  T01660074,,,,,,45.21,,ENE,29.43,29.14,,Clear
KIGQ,06/08/2017 02:35 UTC,30.09,60.08,46.58,60.99,4.61,80.0,,,,,,1.0,,,,10.0,,KIGQ 080235Z AUTO 08004KT 10SM CLR 16/08 A3009 RMK AO2  T01560081,,,,,,46.48,,E,29.44,29.12,,Clear
KIGQ,06/08/2017 02:55 UTC,30.09,59.36,46.76,63.0,3.44,80.0,,,,,,1.0,,,,10.0,,KIGQ 080255Z AUTO 08003KT 10SM CLR 15/08 A3009 RMK AO2  T01520082,,,,,,46.66,,E,29.44,29.12,,Clear
KIGQ,06/08/2017 03:15 UTC,30.09,59.9,46.94,62.22,0.0,0.0,,,,,,1.0,,,,10.0,,KIGQ 080315Z AUTO 00000KT 10SM CLR 16/08 A3009 RMK AO2  T01550083,,,,,,46.84,,N,29.44,29.11,,Clear
KIGQ,06/08/2017 03:35 UTC,30.09,59.36,46.94,63.43,0.0,0.0,,,,,,1.0,,,,10.0,,KIGQ 080335Z AUTO 00000KT 10SM CLR 15/08 A3009 RMK AO2  T01520083,,,,,,46.85,,N,29.44,29.11,,Clear
KIGQ,06/08/2017 03:55 UTC,30.09,59.0,46.76,63.81,0.0,0.0,,,,,,1.0,,,,10.0,,KIGQ 080355Z AUTO 00000KT 10SM CLR 15/08 A3009 RMK AO2  T01500082,,,,,,46.66,,N,29.44,29.12,,Clear
KIGQ,06/08/2017 04:15 UTC,30.09,58.28,47.12,66.37,0.0,0.0,,,,,,1.0,,,,10.0,,KIGQ 080415Z AUTO 00000KT 10SM CLR 15/08 A3009 RMK AO2  T01460084,,,,,,47.03,,N,29.44,29.12,,Clear
KIGQ,06/08/2017 04:35 UTC,30.09,55.58,46.76,72.17,0.0,0.0,,,,,,1.0,,,,10.0,,KIGQ 080435Z AUTO 00000KT 10SM CLR 13/08 A3009 RMK AO2  T01310082,,,,,,46.68,,N,29.44,29.15,,Clear
KIGQ,06/08/2017 04:55 UTC,30.08,56.48,47.12,70.81,0.0,0.0,,,,,,1.0,,,,10.0,,KIGQ 080455Z AUTO 00000KT 10SM CLR 14/08 A3008 RMK AO2  T01360084,,,,,,47.04,,N,29.43,29.12,,Clear
KIGQ,06/08/2017 05:15 UTC,30.08,55.94,47.66,73.69,0.0,0.0,,,,,,1.0,,,,10.0,,KIGQ 080515Z AUTO 00000KT 10SM CLR 13/09 A3008 RMK AO2  T01330087,,,,,,47.58,,N,29.43,29.11,,Clear
KIGQ,06/08/2017 05:35 UTC,30.08,55.76,47.48,73.67,0.0,0.0,,,,,,1.0,,,,10.0,,KIGQ 080535Z AUTO 00000KT 10SM CLR 13/09 A3008 RMK AO2  T01320086,,,,,,47.4,,N,29.43,29.12,,Clear
KIGQ,06/08/2017 05:55 UTC,30.07,53.78,47.3,78.64,0.0,0.0,,,,,,1.0,,,,10.0,,KIGQ 080555Z AUTO 00000KT 10SM CLR 12/09 A3007 RMK AO2 T01210085  10200 20120 402200120,68.0,53.6,,71.6,53.6,47.23,,N,29.42,29.13,,Clear
KIGQ,06/08/2017 06:15 UTC,30.07,53.6,47.12,78.63,0.0,0.0,,,,,,1.0,,,,10.0,,KIGQ 080615Z AUTO 00000KT 10SM CLR 12/08 A3007 RMK AO2  T01200084,,,,,,47.06,,N,29.42,29.14,,Clear
KIGQ,06/08/2017 06:35 UTC,30.07,53.6,47.12,78.63,0.0,0.0,,,,,,1.0,,,,10.0,,KIGQ 080635Z AUTO 00000KT 10SM CLR 12/08 A3007 RMK AO2  T01200084,,,,,,47.06,,N,29.42,29.14,,Clear
KIGQ,06/08/2017 06:55 UTC,30.07,52.34,46.58,80.68,0.0,0.0,,,,,,1.0,,,,10.0,,KIGQ 080655Z AUTO 00000KT 10SM CLR 11/08 A3007 RMK AO2  T01130081,,,,,,46.52,,N,29.42,29.17,,Clear
KIGQ,06/08/2017 07:15 UTC,30.06,51.8,47.3,84.57,0.0,0.0,,,,,,1.0,,,,10.0,,KIGQ 080715Z AUTO 00000KT 10SM CLR 11/09 A3006 RMK AO2  T01100085,,,,,,47.25,,N,29.41,29.14,,Clear
KIGQ,06/08/2017 07:35 UTC,30.06,50.72,46.76,86.24,0.0,0.0,,,,,,1.0,,,,10.0,,KIGQ 080735Z AUTO 00000KT 10SM CLR 10/08 A3006 RMK AO2  T01040082,,,,,,46.71,,N,29.41,29.17,,Clear
KIGQ,06/08/2017 07:55 UTC,30.05,49.64,46.4,88.56,0.0,0.0,,,,,,1.0,,,,10.0,,KIGQ 080755Z AUTO 00000KT 10SM CLR 10/08 A3005 RMK AO2  T00980080,,,,,,46.36,,N,29.4,29.18,,Clear
KIGQ,06/08/2017 08:15 UTC,30.06,48.56,45.14,87.9,4.61,130.0,,,,,,1.0,,,,10.0,,KIGQ 080815Z AUTO 13004KT 10SM CLR 09/07 A3006 RMK AO2  T00920073,,,,,,45.1,,SE,29.41,29.24,,Clear
KIGQ,06/08/2017 08:35 UTC,30.05,49.82,46.22,87.37,0.0,0.0,,,,,,1.0,,,,10.0,,KIGQ 080835Z AUTO 00000KT 10SM CLR 10/08 A3005 RMK AO2  T00990079,,,,,,46.18,,N,29.4,29.18,,Clear
KIGQ,06/08/2017 08:55 UTC,30.05,51.08,47.12,86.26,0.0,0.0,,,,,,1.0,,,,10.0,,KIGQ 080855Z AUTO 00000KT 10SM CLR 11/08 A3005 RMK AO2  T01060084,,,,,,47.08,,N,29.4,29.14,,Clear
KIGQ,06/08/2017 09:15 UTC,30.04,50.72,45.86,83.36,0.0,0.0,,,,,,1.0,,,,10.0,,KIGQ 080915Z AUTO 00000KT 10SM CLR 10/08 A3004 RMK AO2  T01040077,,,,,,45.81,,N,29.39,29.17,,Clear
KIGQ,06/08/2017 09:35 UTC,30.05,50.9,46.58,85.09,0.0,0.0,,,,,,1.0,,,,10.0,,KIGQ 080935Z AUTO 00000KT 10SM CLR 11/08 A3005 RMK AO2  T01050081,,,,,,46.53,,N,29.4,29.16,,Clear
KIGQ,06/08/2017 09:55 UTC,30.05,50.9,46.58,85.09,0.0,0.0,,,,,,1.0,,,,10.0,,KIGQ 080955Z AUTO 00000KT 10SM CLR 11/08 A3005 RMK AO2  T01050081,,,,,,46.53,,N,29.4,29.16,,Clear
KIGQ,06/08/2017 10:15 UTC,30.05,49.82,45.86,86.19,0.0,0.0,,,,,,1.0,,,,10.0,,KIGQ 081015Z AUTO 00000KT 10SM CLR 10/08 A3005 RMK AO2  T00990077,,,,,,45.81,,N,29.4,29.19,,Clear
KIGQ,06/08/2017 10:35 UTC,30.05,49.1,45.5,87.33,0.0,0.0,,,,,,1.0,,,,10.0,,KIGQ 081035Z AUTO 00000KT 10SM CLR 10/08 A3005 RMK AO2  T00950075,,,,,,45.46,,N,29.4,29.21,,Clear
KIGQ,06/08/2017 10:55 UTC,30.05,49.1,45.86,88.53,0.0,0.0,,,,,,1.0,,,,10.0,,KIGQ 081055Z AUTO 00000KT 10SM CLR 10/08 A3005 RMK AO2  T00950077,,,,,,45.82,,N,29.4,29.2,,Clear
KIGQ,06/08/2017 11:15 UTC,30.06,50.54,47.3,88.6,0.0,0.0,,,,,,1.0,,,,10.0,,KIGQ 081115Z AUTO 00000KT 10SM CLR 10/09 A3006 RMK AO2  T01030085,,,,,,47.26,,N,29.41,29.15,,Clear
KIGQ,06/08/2017 11:35 UTC,30.06,53.06,49.1,86.37,0.0,0.0,,,,,,1.0,,,,10.0,,KIGQ 081135Z AUTO 00000KT 10SM CLR 12/10 A3006 RMK AO2  T01170095,,,,,,49.06,,N,29.41,29.07,,Clear
KIGQ,06/08/2017 11:55 UTC,30.05,55.4,49.82,81.46,0.0,0.0,,,,,,1.0,,,,10.0,,KIGQ 081155Z AUTO 00000KT 10SM CLR 13/10 A3005 RMK AO2 T01300099  10130 20089,55.4,48.02,,,,49.77,,N,29.4,29.01,,Clear
KIGQ,06/08/2017 12:15 UTC,30.05,57.74,50.72,77.41,0.0,0.0,,,,,,1.0,,,,10.0,,KIGQ 081215Z AUTO 00000KT 10SM CLR 14/10 A3005 RMK AO2  T01430104,,,,,,50.66,,N,29.4,28.96,,Clear
KIGQ,06/08/2017 12:35 UTC,30.05,60.8,50.54,68.94,0.0,0.0,,,,,,1.0,,,,10.0,,KIGQ 081235Z AUTO 00000KT 10SM CLR 16/10 A3005 RMK AO2  T01600103,,,,,,50.46,,N,29.4,28.93,,Clear
KIGQ,06/08/2017 12:55 UTC,30.05,63.14,49.82,61.81,3.44,240.0,,,,,,1.0,,,,10.0,,KIGQ 081255Z AUTO 24003KT 10SM CLR 17/10 A3005 RMK AO2  T01730099,,,,,,49.74,,WSW,29.4,28.94,,Clear
KIGQ,06/08/2017 13:15 UTC,30.06,65.12,49.46,56.91,4.61,260.0,,,,,,1.0,,,,10.0,,KIGQ 081315Z AUTO 26004KT 10SM CLR 18/10 A3006 RMK AO2  T01840097,,,,,,49.38,,W,29.41,28.94,,Clear
KIGQ,06/08/2017 13:35 UTC,30.06,66.92,50.0,54.56,0.0,0.0,,,,,,1.0,,,,10.0,,KIGQ 081335Z AUTO 00000KT 10SM CLR 19/10 A3006 RMK AO2  T01940100,,,,,,49.92,,N,29.41,28.91,,Clear
KIGQ,06/08/2017 13:55 UTC,30.05,68.36,49.46,50.89,0.0,0.0,,,,,,1.0,,,,10.0,,KIGQ 081355Z AUTO 00000KT 10SM CLR 20/10 A3005 RMK AO2  T02020097,,,,,,49.39,,N,29.4,28.91,,Clear
KIGQ,06/08/2017 14:15 UTC,30.05,69.8,49.1,47.8,0.0,0.0,,,,,,1.0,,,,10.0,,KIGQ 081415Z AUTO 00000KT 10SM CLR 21/10 A3005 RMK AO2  T02100095,,,,,,49.03,,N,29.4,28.91,,Clear
KIGQ,06/08/2017 14:35 UTC,30.04,71.78,47.84,42.63,3.44,60.0,,,,,,1.0,,,,10.0,,KIGQ 081435Z AUTO 06003KT 10SM CLR 22/09 A3004 RMK AO2  T02210088,,,,,,47.78,,ENE,29.39,28.93,,Clear
KIGQ,06/08/2017 14:55 UTC,30.04,72.86,46.58,39.21,0.0,0.0,,,,,,1.0,,,,10.0,,KIGQ 081455Z AUTO 00000KT 10SM CLR 23/08 A3004 RMK AO2  T02270081,,,,,,46.53,,N,29.39,28.97,,Clear
KIGQ,06/08/2017 15:15 UTC,30.04,73.4,46.4,38.24,0.0,0.0,,,,,,1.0,,,,10.0,,KIGQ 081515Z AUTO 00000KT 10SM CLR 23/08 A3004 RMK AO2  T02300080,,,,,,46.36,,N,29.39,28.97,,Clear
KIGQ,06/08/2017 15:35 UTC,30.03,75.38,44.24,32.97,8.05,20.0,,,,,,1.0,,,,10.0,,KIGQ 081535Z AUTO 02007KT 10SM CLR 24/07 A3003 RMK AO2  T02410068,,,,,,44.21,,NNE,29.38,29.02,,Clear
KIGQ,06/08/2017 15:55 UTC,30.02,75.02,43.52,32.47,5.75,330.0,,,,,,1.0,,,,10.0,,KIGQ 081555Z AUTO 33005KT 10SM CLR 24/06 A3002 RMK AO2  T02390064,,,,,,43.5,,NNW,29.37,29.04,,Clear
KIGQ,06/08/2017 16:15 UTC,30.02,75.56,43.16,31.45,3.44,270.0,,,,,,1.0,,,,10.0,,KIGQ 081615Z AUTO 27003KT 10SM CLR 24/06 A3002 RMK AO2  T02420062,,,,,,43.14,,W,29.37,29.05,,Clear
KIGQ,06/08/2017 16:35 UTC,30.01,75.38,43.52,32.08,0.0,0.0,,,,,,1.0,,,,10.0,,KIGQ 081635Z AUTO 00000KT 10SM CLR 24/06 A3001 RMK AO2  T02410064,,,,,,43.5,,N,29.36,29.03,,Clear
KIGQ,06/08/2017 16:55 UTC,30.01,76.1,43.34,31.11,0.0,0.0,,,,,,1.0,,,,10.0,,KIGQ 081655Z AUTO 00000KT 10SM CLR 25/06 A3001 RMK AO2  T02450063,,,,,,43.33,,N,29.36,29.03,,Clear
KIGQ,06/08/2017 17:15 UTC,30.0,76.46,43.52,30.95,4.61,360.0,,,,,,1.0,,,,10.0,,KIGQ 081715Z AUTO 36004KT 10SM CLR 25/06 A3000 RMK AO2  T02470064,,,,,,43.51,,N,29.35,29.01,,Clear
KIGQ,06/08/2017 17:35 UTC,29.99,76.82,44.42,31.65,4.61,280.0,,,,,,1.0,,,,10.0,,KIGQ 081735Z AUTO 28004KT 10SM CLR 25/07 A2999 RMK AO2  T02490069,,,,,,44.41,,W,29.34,28.97,,Clear
KIGQ,06/08/2017 17:55 UTC,29.98,76.1,43.34,31.11,0.0,0.0,,,,,,1.0,,,,10.0,,KIGQ 081755Z AUTO 00000KT 10SM CLR 25/06 A2998 RMK AO2 T02450063  10251 20131,77.18,55.58,,,,43.33,,N,29.33,29.0,,Clear
KIGQ,06/08/2017 18:15 UTC,29.97,77.72,44.42,30.73,4.61,310.0,,,,,,1.0,,,,10.0,,KIGQ 081815Z AUTO 31004KT 10SM CLR 25/07 A2997 RMK AO2  T02540069,,,,,,44.43,,NW,29.32,28.94,,Clear
KIGQ,06/08/2017 18:35 UTC,29.97,77.54,44.78,31.34,5.75,250.0,,,,,,1.0,,,,10.0,,KIGQ 081835Z AUTO 25005KT 10SM CLR 25/07 A2997 RMK AO2  T02530071,,,,,,44.79,,WSW,29.32,28.93,,Clear
KIGQ,06/08/2017 18:55 UTC,29.96,78.44,44.78,30.42,10.36,250.0,,,,,,1.0,,,,10.0,,KIGQ 081855Z AUTO 25009KT 10SM CLR 26/07 A2996 RMK AO2  T02580071,,,,,,44.8,,WSW,29.31,28.91,,Clear
KIGQ,06/08/2017 19:15 UTC,29.95,78.44,41.54,26.87,5.75,240.0,,,,,,1.0,,,,10.0,,KIGQ 081915Z AUTO 24005KT 10SM CLR 26/05 A2995 RMK AO2  T02580053,,,,,,41.57,,WSW,29.3,29.01,,Clear
KIGQ,06/08/2017 19:35 UTC,29.94,79.16,42.98,27.74,6.91,240.0,,,,,,1.0,,,,10.0,,KIGQ 081935Z AUTO 24006KT 10SM CLR 26/06 A2994 RMK AO2  T02620061,,,,,,43.02,,WSW,29.29,28.95,,Clear
KIGQ,06/08/2017 19:55 UTC,29.94,78.8,43.16,28.26,0.0,0.0,,,,,,1.0,,,,10.0,,KIGQ 081955Z AUTO 00000KT 10SM CLR 26/06 A2994 RMK AO2  T02600062,,,,,,43.19,,N,29.29,28.95,,Clear
KIGQ,06/08/2017 20:15 UTC,29.93,78.98,43.16,28.09,8.05,320.0,,,,,,1.0,,,,10.0,,KIGQ 082015Z AUTO 32007KT 10SM CLR 26/06 A2993 RMK AO2  T02610062,,,,,,43.19,,NW,29.28,28.93,,Clear
KIGQ,06/08/2017 20:35 UTC,29.92,79.7,41.36,25.6,0.0,0.0,,,,,,1.0,,,,10.0,,KIGQ 082035Z AUTO 00000KT 10SM CLR 27/05 A2992 RMK AO2  T02650052,,,,,,41.4,,N,29.27,28.98,,Clear
KIGQ,06/08/2017 20:55 UTC,29.91,80.6,40.82,24.35,5.75,270.0,,,,,,1.0,,,,10.0,,KIGQ 082055Z AUTO 27005KT 10SM CLR 27/05 A2991 RMK AO2  T02700049,,,,,,40.89,,W,29.26,28.98,79.5,Clear
KIGQ,06/08/2017 21:15 UTC,29.9,79.7,41.9,26.14,0.0,0.0,,,,,,1.0,,,,10.0,,KIGQ 082115Z AUTO 00000KT 10SM CLR 27/06 A2990 RMK AO2  T02650055,,,,,,41.94,,N,29.25,28.94,,Clear
KIGQ,06/08/2017 21:35 UTC,29.9,79.88,40.82,24.93,8.05,260.0,,,,,,1.0,,,,10.0,,KIGQ 082135Z AUTO 26007KT 10SM CLR 27/05 A2990 RMK AO2  T02660049,,,,,,40.88,,W,29.25,28.97,,Clear
KIGQ,06/08/2017 21:55 UTC,29.89,79.34,39.92,24.5,9.22,280.0,,,,,,1.0,,,,10.0,,KIGQ 082155Z AUTO 28008KT 10SM CLR 26/04 A2989 RMK AO2  T02630044,,,,,,39.97,,W,29.24,28.99,,Clear
KIGQ,06/08/2017 22:15 UTC,29.89,79.16,40.46,25.17,5.75,290.0,,,,,,1.0,,,,10.0,,KIGQ 082215Z AUTO 29005KT 10SM CLR 26/05 A2989 RMK AO2  T02620047,,,,,,40.51,,WNW,29.24,28.98,,Clear
KIGQ,06/08/2017 22:35 UTC,29.88,78.44,41.54,26.87,3.44,250.0,,,,,,1.0,,,,10.0,,KIGQ 082235Z AUTO 25003KT 10SM CLR 26/05 A2988 RMK AO2  T02580053,,,,,,41.57,,WSW,29.23,28.94,,Clear
KIGQ,06/08/2017 22:55 UTC,29.87,80.24,41.9,25.69,8.05,260.0,,,,,,1.0,,,,10.0,,KIGQ 082255Z AUTO 26007KT 10SM CLR 27/06 A2987 RMK AO2  T02680055,,,,,,41.96,,W,29.22,28.91,79.17,Clear
KIGQ,06/08/2017 23:15 UTC,29.87,77.54,42.44,28.65,5.75,250.0,,,,,,1.0,,,,10.0,,KIGQ 082315Z AUTO 25005KT 10SM CLR 25/06 A2987 RMK AO2  T02530058,,,,,,42.45,,WSW,29.22,28.91,,Clear
KIGQ,06/08/2017 23:35 UTC,29.86,77.9,42.26,28.12,5.75,230.0,,,,,,1.0,,,,10.0,,KIGQ 082335Z AUTO 23005KT 10SM CLR 26/06 A2986 RMK AO2  T02550057,,,,,,42.28,,SW,29.21,28.9,,Clear
KIGQ,06/08/2017 23:55 UTC,29.86,77.36,40.82,27.08,5.75,240.0,,,,,,1.0,,,,10.0,,KIGQ 082355Z AUTO 24005KT 10SM CLR 25/05 A2986 RMK AO2 T02520049  10271 20246,80.78,76.28,,,,40.84,,WSW,29.21,28.95,,Clear
KIGQ,06/09/2017 00:15 UTC,29.86,75.38,43.7,32.3,3.44,210.0,,,,,,1.0,,,,10.0,,KIGQ 090015Z AUTO 21003KT 10SM CLR 24/07 A2986 RMK AO2  T02410065,,,,,,43.68,,SSW,29.21,28.87,,Clear
KIGQ,06/09/2017 00:35 UTC,29.86,74.66,45.32,35.19,3.44,180.0,,,,,,1.0,,,,10.0,,KIGQ 090035Z AUTO 18003KT 10SM CLR 24/07 A2986 RMK AO2  T02370074,,,,,,45.29,,S,29.21,28.82,,Clear
KIGQ,06/09/2017 00:55 UTC,29.86,73.76,45.32,36.27,4.61,180.0,,,,,,1.0,,,,10.0,,KIGQ 090055Z AUTO 18004KT 10SM CLR 23/07 A2986 RMK AO2  T02320074,,,,,,45.28,,S,29.21,28.82,,Clear
KIGQ,06/09/2017 01:15 UTC,29.85,70.52,46.76,42.72,6.91,190.0,,,,,,1202.0,,,,10.0,,KIGQ 090115Z AUTO 19006KT 10SM SCT120 21/08 A2985 RMK AO2  T02140082,,,,,,46.69,,S,29.2,28.79,,Partly Cloudy
KIGQ,06/09/2017 01:35 UTC,29.85,68.36,46.58,45.68,4.61,190.0,,,,,,1102.0,,,,10.0,,KIGQ 090135Z AUTO 19004KT 10SM SCT110 20/08 A2985 RMK AO2  T02020081,,,,,,46.5,,S,29.2,28.81,,Partly Cloudy
KIGQ,06/09/2017 01:55 UTC,29.85,66.2,46.58,49.21,4.61,180.0,,,,,,1202.0,,,,10.0,,KIGQ 090155Z AUTO 18004KT 10SM SCT120 19/08 A2985 RMK AO2  T01900081,,,,,,46.49,,S,29.2,28.83,,Partly Cloudy
KIGQ,06/09/2017 02:15 UTC,29.85,67.1,45.14,45.17,3.44,200.0,,,,,,1.0,,,,10.0,,KIGQ 090215Z AUTO 20003KT 10SM CLR 20/07 A2985 RMK AO2  T01950073,,,,,,45.05,,SSW,29.2,28.87,,Clear
KIGQ,06/09/2017 02:35 UTC,29.85,66.38,46.76,49.24,0.0,0.0,,,,,,1.0,,,,10.0,,KIGQ 090235Z AUTO 00000KT 10SM CLR 19/08 A2985 RMK AO2  T01910082,,,,,,46.67,,N,29.2,28.82,,Clear
KIGQ,06/09/2017 02:55 UTC,29.86,68.0,44.06,42.03,3.44,180.0,,,,,,1103.0,,,,10.0,,KIGQ 090255Z AUTO 18003KT 10SM BKN110 20/07 A2986 RMK AO2  T02000067,,,11000.0,,,43.97,,S,29.21,28.91,,Mostly Cloudy
KIGQ,06/09/2017 03:15 UTC,29.86,65.12,46.22,50.4,0.0,0.0,,,,,,1102.0,,,,10.0,,KIGQ 090315Z AUTO 00000KT 10SM SCT110 18/08 A2986 RMK AO2 LTG DSNT  NW T01840079,,,,,,46.13,,N,29.21,28.86,,Partly Cloudy
KIGQ,06/09/2017 03:35 UTC,29.86,66.56,45.68,46.97,3.44,200.0,,,,,,1002.0,,,,10.0,,KIGQ 090335Z AUTO 20003KT 10SM SCT100 19/08 A2986 RMK AO2 LTG DSNT  NW T01920076,,,,,,45.59,,SSW,29.21,28.86,,Partly Cloudy
KIGQ,06/09/2017 03:55 UTC,29.86,64.58,48.56,56.08,0.0,0.0,,6.0,,,,1003.0,,,,5.0,,KIGQ 090355Z AUTO 00000KT 5SM HZ BKN100 18/09 A2986 RMK AO2  T01810092,,,10000.0,,,48.47,,N,29.21,28.78,,Haze
KIGQ,06/09/2017 04:15 UTC,29.85,65.48,48.74,54.71,6.91,180.0,,,,,,1003.0,,,,10.0,,KIGQ 090415Z AUTO 18006KT 10SM BKN100 19/09 A2985 RMK AO2 LTG DSNT  NW T01860093,,,10000.0,,,48.65,,S,29.2,28.75,,Mostly Cloudy
KIGQ,06/09/2017 04:35 UTC,29.85,66.56,47.66,50.62,0.0,0.0,,,,,,1002.0,1203.0,,,10.0,,KIGQ 090435Z AUTO 00000KT 10SM SCT100 BKN120 19/09 A2985 RMK AO2  T01920087,,,12000.0,,,47.58,,N,29.2,28.78,,Mostly Cloudy
KIGQ,06/09/2017 04:55 UTC,29.86,68.36,44.96,42.96,0.0,0.0,,,,,,1102.0,,,,10.0,,KIGQ 090455Z AUTO 00000KT 10SM SCT110 20/07 A2986 RMK AO2 LTG DSNT  NW T02020072,,,,,,44.87,,N,29.21,28.87,,Partly Cloudy
KIGQ,06/09/2017 05:15 UTC,29.85,64.4,48.92,57.19,0.0,0.0,,,,,,1102.0,,,,10.0,,KIGQ 090515Z AUTO 00000KT 10SM SCT110 18/09 A2985 RMK AO2  T01800094,,,,,,48.83,,N,29.2,28.76,,Partly Cloudy
KIGQ,06/09/2017 05:35 UTC,29.84,63.86,49.1,58.68,3.44,170.0,,,,,,1.0,,,,10.0,,KIGQ 090535Z AUTO 17003KT 10SM CLR 18/10 A2984 RMK AO2  T01770095,,,,,,49.02,,S,29.19,28.74,,Clear
KIGQ,06/09/2017 05:55 UTC,29.84,64.4,48.2,55.67,4.61,190.0,,,,,,1.0,,,,10.0,,KIGQ 090555Z AUTO 19004KT 10SM CLR 18/09 A2984 RMK AO2 T01800090  10252 20174 402710089,77.36,63.32,,80.78,48.02,48.11,,S,29.19,28.77,,Clear
KIGQ,06/09/2017 06:15 UTC,29.84,63.14,51.26,65.2,0.0,0.0,,13.0,,,,1202.0,,,,10.0,,KIGQ 090615Z AUTO 00000KT 10SM -RA SCT120 17/11 A2984 RMK AO2  T01730107,,,,,,51.19,,N,29.19,28.67,,Light Rain
KIGQ,06/09/2017 06:35 UTC,29.83,64.76,53.06,65.83,0.0,0.0,,13.0,,,,1103.0,,,,10.0,,KIGQ 090635Z AUTO 00000KT 10SM -RA BKN110 18/12 A2983 RMK AO2  T01820117,,,11000.0,,,52.99,,N,29.18,28.57,,Light Rain
KIGQ,06/09/2017 06:55 UTC,29.83,65.66,50.9,58.92,6.91,250.0,,13.0,,,,1103.0,,,,10.0,,KIGQ 090655Z AUTO 25006KT 10SM -RA BKN110 19/11 A2983 RMK AO2  T01870105,,,11000.0,,,50.82,,WSW,29.18,28.65,,Light Rain
KIGQ,06/09/2017 07:15 UTC,29.82,65.3,52.7,63.76,4.61,250.0,,1.0,1104.0,,,502.0,802.0,,,10.0,,KIGQ 090715Z AUTO 25004KT 10SM RA SCT050 SCT080 OVC110 19/12 A2982 RMK AO2 T01850115,,,11000.0,,,52.63,,WSW,29.17,28.57,,Rain
KIGQ,06/09/2017 07:35 UTC,29.82,64.58,53.6,67.57,5.75,250.0,,13.0,1004.0,,,502.0,852.0,,,10.0,,KIGQ 090735Z AUTO 25005KT 10SM -RA SCT050 SCT085 OVC100 18/12  A2982 RMK AO2 T01810120,,,10000.0,,,53.54,,WSW,29.17,28.54,,Light Rain
KIGQ,06/09/2017 07:55 UTC,29.8,63.68,54.68,72.53,8.05,230.0,,13.0,,,,1004.0,,,,10.0,,KIGQ 090755Z AUTO 23007KT 10SM -RA OVC100 18/13 A2980 RMK AO2  T01760126,,,10000.0,,,54.62,,SW,29.15,28.48,,Light Rain
KIGQ,06/09/2017 08:15 UTC,29.8,64.4,53.96,68.89,8.05,220.0,,,,,,904.0,,,,10.0,,KIGQ 090815Z AUTO 22007KT 10SM OVC090 18/12 A2980 RMK AO2  T01800122,,,9000.0,,,53.9,,SW,29.15,28.5,,Overcast
KIGQ,06/09/2017 08:35 UTC,29.8,64.58,52.16,64.09,6.91,230.0,,,,,,904.0,,,,10.0,,KIGQ 090835Z AUTO 23006KT 10SM OVC090 18/11 A2980 RMK AO2  T01810112,,,9000.0,,,52.09,,SW,29.15,28.58,,Overcast
KIGQ,06/09/2017 08:55 UTC,29.79,64.76,50.72,60.39,6.91,240.0,,,,,,903.0,,,,10.0,,KIGQ 090855Z AUTO 24006KT 10SM BKN090 18/10 A2979 RMK AO2  T01820104,,,9000.0,,,50.64,,WSW,29.14,28.62,,Mostly Cloudy
KIGQ,06/09/2017 09:15 UTC,29.79,64.04,50.54,61.52,6.91,220.0,,,,,,1002.0,,,,10.0,,KIGQ 090915Z AUTO 22006KT 10SM SCT100 18/10 A2979 RMK AO2  T01780103,,,,,,50.46,,SW,29.14,28.64,,Partly Cloudy
KIGQ,06/09/2017 09:35 UTC,29.79,62.78,50.54,64.29,5.75,220.0,,,,,,1.0,,,,10.0,,KIGQ 090935Z AUTO 22005KT 10SM CLR 17/10 A2979 RMK AO2  T01710103,,,,,,50.46,,SW,29.14,28.65,,Clear
KIGQ,06/09/2017 09:55 UTC,29.8,61.52,50.54,67.21,5.75,210.0,,,,,,1.0,,,,10.0,,KIGQ 090955Z AUTO 21005KT 10SM CLR 16/10 A2980 RMK AO2  T01640103,,,,,,50.46,,SSW,29.15,28.67,,Clear
KIGQ,06/09/2017 10:15 UTC,29.8,60.26,50.9,71.22,4.61,210.0,,,,,,1.0,,,,10.0,,KIGQ 091015Z AUTO 21004KT 10SM CLR 16/11 A2980 RMK AO2  T01570105,,,,,,50.83,,SSW,29.15,28.67,,Clear
KIGQ,06/09/2017 10:35 UTC,29.8,60.8,50.9,69.87,6.91,210.0,,,,,,1102.0,,,,10.0,,KIGQ 091035Z AUTO 21006KT 10SM SCT110 16/11 A2980 RMK AO2  T01600105,,,,,,50.83,,SSW,29.15,28.66,,Partly Cloudy
KIGQ,06/09/2017 10:55 UTC,29.81,63.86,50.9,62.74,6.91,220.0,,,,,,1102.0,,,,10.0,,KIGQ 091055Z AUTO 22006KT 10SM SCT110 18/11 A2981 RMK AO2  T01770105,,,,,,50.83,,SW,29.16,28.65,,Partly Cloudy
KIGQ,06/09/2017 11:15 UTC,29.81,65.84,50.72,58.17,9.22,260.0,,,,,,1003.0,,,,10.0,,KIGQ 091115Z AUTO 26008KT 220V340 10SM BKN100 19/10 A2981 RMK AO2  T01880104,,,10000.0,,,50.64,,W,29.16,28.63,,Mostly Cloudy
KIGQ,06/09/2017 11:35 UTC,29.81,67.1,50.36,54.95,9.22,340.0,,,,,,1002.0,1202.0,,,10.0,,KIGQ 091135Z AUTO 34008KT 270V340 10SM SCT100 SCT120 20/10 A2981 RMK AO2 T01950102,,,,,,50.28,,NNW,29.16,28.64,,Partly Cloudy
KIGQ,06/09/2017 11:55 UTC,29.81,68.0,50.18,52.92,9.22,330.0,,,,,,1002.0,1202.0,,,10.0,,KIGQ 091155Z AUTO 33008KT 230V340 10SM SCT100 SCT120 20/10 A2981 RMK AO2 T02000101 10201 20156,68.18,60.08,,,,50.11,,NNW,29.16,28.64,,Partly Cloudy
KIGQ,06/09/2017 12:15 UTC,29.81,69.8,49.1,47.8,10.36,230.0,17.27,,1103.0,,,802.0,952.0,,,10.0,,KIGQ 091215Z AUTO 23009G15KT 10SM SCT080 SCT095 BKN110 21/10 A2981 RMK AO2 T02100095,,,11000.0,,,49.03,,SW,29.16,28.66,,Mostly Cloudy
KIGQ,06/09/2017 12:35 UTC,29.81,71.06,48.92,45.49,9.22,250.0,,,1102.0,,,802.0,952.0,,,10.0,,KIGQ 091235Z AUTO 25008KT 10SM SCT080 SCT095 SCT110 22/09 A2981 RMK AO2 T02170094,,,,,,48.86,,WSW,29.16,28.66,,Partly Cloudy
KIGQ,06/09/2017 12:55 UTC,29.81,72.5,48.56,42.75,12.66,250.0,18.41,,,,,952.0,,,,10.0,,KIGQ 091255Z AUTO 25011G16KT 230V290 10SM SCT095 23/09 A2981 RMK AO2 T02250092,,,,,,48.51,,WSW,29.16,28.66,,Partly Cloudy
KIGQ,06/09/2017 13:15 UTC,29.82,71.96,48.74,43.83,14.97,260.0,21.85,,,,,902.0,1202.0,,,10.0,,KIGQ 091315Z AUTO 26013G19KT 10SM SCT090 SCT120 22/09 A2982 RMK AO2 T02220093,,,,,,48.69,,W,29.17,28.67,,Partly Cloudy
KIGQ,06/09/2017 13:35 UTC,29.82,74.48,49.1,40.82,14.97,260.0,,,,,,902.0,,,,10.0,,KIGQ 091335Z AUTO 26013KT 10SM SCT090 24/10 A2982 RMK AO2  T02360095,,,,,,49.07,,W,29.17,28.64,,Partly Cloudy
KIGQ,06/09/2017 13:55 UTC,29.82,75.38,49.82,40.69,14.97,260.0,19.57,,,,,1.0,,,,10.0,,KIGQ 091355Z AUTO 26013G17KT 10SM CLR 24/10 A2982 RMK AO2  T02410099,,,,,,49.8,,W,29.17,28.6,,Clear
KIGQ,06/09/2017 14:15 UTC,29.82,75.02,51.08,43.15,11.5,250.0,19.57,,,,,952.0,,,,10.0,,KIGQ 091415Z AUTO 25010G17KT 10SM SCT095 24/11 A2982 RMK AO2  T02390106,,,,,,51.05,,WSW,29.17,28.55,,Partly Cloudy
KIGQ,06/09/2017 14:35 UTC,29.82,76.46,51.44,41.68,13.8,270.0,,,,,,852.0,952.0,,,10.0,,KIGQ 091435Z AUTO 27012KT 10SM SCT085 SCT095 25/11 A2982 RMK AO2  T02470108,,,,,,51.42,,W,29.17,28.52,,Partly Cloudy
KIGQ,06/09/2017 14:55 UTC,29.81,77.54,52.16,41.3,11.5,260.0,,,,,,902.0,,,,10.0,,KIGQ 091455Z AUTO 26010KT 10SM SCT090 25/11 A2981 RMK AO2  T02530112,,,,,,52.15,,W,29.16,28.47,,Partly Cloudy
KIGQ,06/09/2017 15:15 UTC,29.82,78.98,53.06,40.72,13.8,280.0,,,,,,902.0,,,,10.0,,KIGQ 091515Z AUTO 28012KT 250V330 10SM SCT090 26/12 A2982 RMK AO2  T02610117,,,,,,53.07,,W,29.17,28.43,,Partly Cloudy
KIGQ,06/09/2017 15:35 UTC,29.82,80.42,53.96,40.15,11.5,280.0,19.57,,,,,1.0,,,,10.0,,KIGQ 091535Z AUTO 28010G17KT 10SM CLR 27/12 A2982 RMK AO2  T02690122,,,,,,53.99,,W,29.17,28.38,80.24,Clear
KIGQ,06/09/2017 15:55 UTC,29.82,79.88,53.6,40.33,13.8,270.0,19.57,,,,,902.0,,,,10.0,,KIGQ 091555Z AUTO 27012G17KT 10SM SCT090 27/12 A2982 RMK AO2  T02660120,,,,,,53.62,,W,29.17,28.4,,Partly Cloudy
KIGQ,06/09/2017 16:15 UTC,29.82,80.96,54.32,39.97,10.36,260.0,16.11,,,,,1.0,,,,10.0,,KIGQ 091615Z AUTO 26009G14KT 10SM CLR 27/12 A2982 RMK AO2  T02720124,,,,,,54.35,,W,29.17,28.36,80.62,Clear
KIGQ,06/09/2017 16:35 UTC,29.82,81.14,54.14,39.48,11.5,260.0,17.27,,,,,1.0,,,,10.0,,KIGQ 091635Z AUTO 26010G15KT 10SM CLR 27/12 A2982 RMK AO2  T02730123,,,,,,54.18,,W,29.17,28.36,80.71,Clear
KIGQ,06/09/2017 16:55 UTC,29.81,82.22,53.96,37.87,12.66,280.0,17.27,,,,,1.0,,,,10.0,,KIGQ 091655Z AUTO 28011G15KT 10SM CLR 28/12 A2981 RMK AO2  T02790122,,,,,,54.01,,W,29.16,28.35,81.4,Clear
KIGQ,06/09/2017 17:15 UTC,29.81,82.76,53.96,37.22,13.8,260.0,18.41,,,,,1.0,,,,10.0,,KIGQ 091715Z AUTO 26012G16KT 10SM CLR 28/12 A2981 RMK AO2  T02820122,,,,,,54.02,,W,29.16,28.35,81.77,Clear
KIGQ,06/09/2017 17:35 UTC,29.81,83.84,53.78,35.71,12.66,280.0,17.27,,,,,1.0,,,,10.0,,KIGQ 091735Z AUTO 28011G15KT 10SM CLR 29/12 A2981 RMK AO2  T02880121,,,,,,53.86,,W,29.16,28.35,82.53,Clear
KIGQ,06/09/2017 17:55 UTC,29.81,84.38,53.96,35.33,10.36,290.0,,,,,,1.0,,,,10.0,,KIGQ 091755Z AUTO 29009KT 10SM CLR 29/12 A2981 RMK AO2 T02910122  10292 20201,84.56,68.18,,,,54.05,,WNW,29.16,28.34,82.97,Clear
KIGQ,06/09/2017 18:15 UTC,29.81,85.64,53.96,33.93,10.36,290.0,19.57,,,,,1.0,,,,10.0,,KIGQ 091815Z AUTO 29009G17KT 10SM CLR 30/12 A2981 RMK AO2  T02980122,,,,,,54.06,,WNW,29.16,28.33,83.97,Clear
KIGQ,06/09/2017 18:35 UTC,29.8,85.1,52.7,32.97,10.36,290.0,17.27,,,,,702.0,,,,10.0,,KIGQ 091835Z AUTO 29009G15KT 10SM SCT070 30/12 A2980 RMK AO2  T02950115,,,,,,52.8,,WNW,29.15,28.38,83.31,Partly Cloudy
KIGQ,06/09/2017 18:55 UTC,29.8,86.36,52.88,31.88,12.66,270.0,20.71,,,,,702.0,,,,10.0,,KIGQ 091855Z AUTO 27011G18KT 10SM SCT070 30/12 A2980 RMK AO2  T03020116,,,,,,53.0,,W,29.15,28.36,84.36,Partly Cloudy
KIGQ,06/09/2017 19:15 UTC,29.79,85.1,51.98,32.11,14.97,300.0,19.57,,,,,702.0,902.0,,,10.0,,KIGQ 091915Z AUTO 30013G17KT 260V350 10SM SCT070 SCT090 30/11  A2979 RMK AO2 T02950111,,,,,,52.09,,WNW,29.14,28.4,83.2,Partly Cloudy
KIGQ,06/09/2017 19:35 UTC,29.78,87.8,52.88,30.46,14.97,280.0,,,,,,702.0,902.0,,,10.0,,KIGQ 091935Z AUTO 28013KT 10SM SCT070 SCT090 31/12 A2978 RMK AO2  T03100116,,,,,,53.03,,W,29.13,28.33,85.6,Partly Cloudy
KIGQ,06/09/2017 19:55 UTC,29.78,88.7,52.52,29.22,14.97,280.0,20.71,,,,,1.0,,,,10.0,,KIGQ 091955Z AUTO 28013G18KT 10SM CLR 32/11 A2978 RMK AO2  T03150114,,,,,,52.69,,W,29.13,28.34,86.33,Clear
KIGQ,06/09/2017 20:15 UTC,29.77,86.54,52.16,30.87,10.36,290.0,20.71,,,,,802.0,1002.0,,,10.0,,KIGQ 092015Z AUTO 29009G18KT 10SM SCT080 SCT100 30/11 A2977 RMK AO2 LTG DSNT SW T03030112,,,,,,52.29,,WNW,29.12,28.36,84.39,Partly Cloudy
KIGQ,06/09/2017 20:35 UTC,29.76,87.8,51.62,29.08,10.36,310.0,17.27,,,,,902.0,,,,10.0,,KIGQ 092035Z AUTO 31009G15KT 10SM SCT090 31/11 A2976 RMK AO2  T03100109,,,,,,51.77,,NW,29.11,28.37,85.37,Partly Cloudy
KIGQ,06/09/2017 20:55 UTC,29.76,89.06,51.62,27.95,6.91,310.0,25.32,,,,,903.0,,,,10.0,,KIGQ 092055Z AUTO 31006G22KT 270V350 10SM BKN090 32/11 A2976 RMK AO2 T03170109,,,9000.0,,,51.8,,NW,29.11,28.36,86.49,Mostly Cloudy
KIGQ,06/09/2017 21:15 UTC,29.76,88.16,51.62,28.75,12.66,310.0,,,,,,902.0,,,,10.0,,KIGQ 092115Z AUTO 31011KT 10SM SCT090 31/11 A2976 RMK AO2 LTG DSNT  SE AND SW T03120109,,,,,,51.78,,NW,29.11,28.37,85.69,Partly Cloudy
KIGQ,06/09/2017 21:35 UTC,29.77,83.12,54.68,37.77,12.66,40.0,,,,,,902.0,1103.0,,,10.0,,KIGQ 092135Z AUTO 04011KT 10SM SCT090 BKN110 28/13 A2977 RMK AO2  T02840126,,,11000.0,,,54.75,,NE,29.12,28.27,82.15,Mostly Cloudy
KIGQ,06/09/2017 21:55 UTC,29.76,82.76,55.04,38.71,10.36,30.0,,,,,,902.0,,,,10.0,,KIGQ 092155Z AUTO 03009KT 10SM SCT090 28/13 A2976 RMK AO2 LTG DSNT  SE AND S T02820128,,,,,,55.1,,NNE,29.11,28.25,81.95,Partly Cloudy
KIGQ,06/09/2017 22:15 UTC,29.77,80.96,55.4,41.57,5.75,50.0,,,,,,852.0,,,,10.0,,KIGQ 092215Z AUTO 05005KT 10SM SCT085 27/13 A2977 RMK AO2  T02720130,,,,,,55.43,,NE,29.12,28.25,80.77,Partly Cloudy
KIGQ,06/09/2017 22:35 UTC,29.77,77.9,56.3,47.47,6.91,20.0,,,,,,852.0,1102.0,,,10.0,,KIGQ 092235Z AUTO 02006KT 10SM SCT085 SCT110 26/14 A2977 RMK AO2  LTG DSNT SW T02550135,,,,,,56.3,,NNE,29.12,28.23,,Partly Cloudy
KIGQ,06/09/2017 22:55 UTC,29.77,77.36,57.38,50.24,10.36,30.0,,,,,,952.0,1202.0,,,10.0,,KIGQ 092255Z AUTO 03009KT 10SM SCT095 SCT120 25/14 A2977 RMK AO2  LTG DSNT S AND W T02520141,,,,,,57.37,,NNE,29.12,28.18,,Partly Cloudy
KIGQ,06/09/2017 23:15 UTC,29.79,75.2,56.66,52.59,4.61,360.0,,,,,,302.0,853.0,,,10.0,,KIGQ 092315Z AUTO 36004KT 10SM SCT030 BKN085 24/14 A2979 RMK AO2  LTG DSNT SE T02400137,,,8500.0,,,56.64,,N,29.14,28.26,,Mostly Cloudy
KIGQ,06/09/2017 23:35 UTC,29.8,73.04,55.94,55.08,3.44,360.0,,,1003.0,,,282.0,853.0,,,10.0,,KIGQ 092335Z AUTO 36003KT 10SM SCT028 BKN085 BKN100 23/13 A2980 RMK AO2 T02280133,,,8500.0,,,55.9,,N,29.15,28.33,,Mostly Cloudy
KIGQ,06/09/2017 23:55 UTC,29.8,72.5,56.12,56.45,8.05,30.0,,,,,,852.0,1103.0,,,10.0,,KIGQ 092355Z AUTO 03007KT 10SM SCT085 BKN110 23/13 A2980 RMK AO2  T02250134 10318 20225,89.24,72.5,11000.0,,,56.08,,NNE,29.15,28.32,,Mostly Cloudy
KIGQ,06/10/2017 00:15 UTC,29.8,71.42,55.94,58.17,6.91,40.0,,,,,,853.0,1203.0,,,10.0,,KIGQ 100015Z AUTO 04006KT 10SM BKN085 BKN120 22/13 A2980 RMK AO2  T02190133,,,8500.0,,,55.9,,NE,29.15,28.34,,Mostly Cloudy
KIGQ,06/10/2017 00:35 UTC,29.81,69.98,55.58,60.29,0.0,0.0,,,,,,854.0,,,,10.0,,KIGQ 100035Z AUTO 00000KT 10SM OVC085 21/13 A2981 RMK AO2 LTG DSNT  SE T02110131,,,8500.0,,,55.53,,N,29.16,28.39,,Overcast
KIGQ,06/10/2017 00:55 UTC,29.81,70.52,55.04,58.05,6.91,30.0,,13.0,,,,853.0,1104.0,,,10.0,,KIGQ 100055Z AUTO 03006KT 10SM -RA BKN085 OVC110 21/13 A2981 RMK AO2 T02140128,,,8500.0,,,54.99,,NNE,29.16,28.41,,Light Rain
KIGQ,06/10/2017 01:15 UTC,29.8,68.18,54.5,61.65,9.22,40.0,,,,,,903.0,1103.0,,,10.0,,KIGQ 100115Z AUTO 04008KT 10SM BKN090 BKN110 20/13 A2980 RMK AO2  T02010125,,,9000.0,,,54.44,,NE,29.15,28.44,,Mostly Cloudy
KIGQ,06/10/2017 01:35 UTC,29.83,68.36,54.5,61.27,9.22,340.0,,,,,,803.0,1104.0,,,10.0,,KIGQ 100135Z AUTO 34008KT 10SM BKN080 OVC110 20/13 A2983 RMK AO2  T02020125,,,8000.0,,,54.44,,NNW,29.18,28.47,,Overcast
KIGQ,06/10/2017 01:55 UTC,29.84,68.36,55.22,62.9,6.91,360.0,,13.0,,,,803.0,1204.0,,,10.0,,KIGQ 100155Z AUTO 36006KT 10SM -RA BKN080 OVC120 20/13 A2984 RMK AO2 T02020129,,,8000.0,,,55.17,,N,29.19,28.45,,Light Rain
KIGQ,06/10/2017 02:15 UTC,29.82,67.28,55.76,66.57,5.75,80.0,,,1203.0,,,702.0,802.0,,,10.0,,KIGQ 100215Z AUTO 08005KT 10SM SCT070 SCT080 BKN120 20/13 A2982 RMK AO2 T01960132,,,12000.0,,,55.71,,E,29.17,28.41,,Mostly Cloudy
KIGQ,06/10/2017 02:35 UTC,29.83,67.82,55.58,64.92,4.61,90.0,,,,,,702.0,1004.0,,,10.0,,KIGQ 100235Z AUTO 09004KT 10SM SCT070 OVC100 20/13 A2983 RMK AO2  T01990131,,,10000.0,,,55.53,,E,29.18,28.43,,Overcast
KIGQ,06/10/2017 02:55 UTC,29.84,68.0,55.76,64.94,0.0,0.0,,,,,,853.0,1104.0,,,10.0,,KIGQ 100255Z AUTO 00000KT 10SM BKN085 OVC110 20/13 A2984 RMK AO2  T02000132,,,8500.0,,,55.71,,N,29.19,28.43,,Overcast
KIGQ,06/10/2017 03:15 UTC,29.85,67.1,56.12,67.86,0.0,0.0,,,,,,802.0,1204.0,,,10.0,,KIGQ 100315Z AUTO 00000KT 10SM SCT080 OVC120 20/13 A2985 RMK AO2  T01950134,,,12000.0,,,56.07,,N,29.2,28.43,,Overcast
KIGQ,06/10/2017 03:35 UTC,29.85,67.1,55.76,66.98,0.0,0.0,,,,,,1202.0,,,,10.0,,KIGQ 100335Z AUTO 00000KT 10SM SCT120 20/13 A2985 RMK AO2  T01950132,,,,,,55.71,,N,29.2,28.45,,Partly Cloudy
KIGQ,06/10/2017 03:55 UTC,29.85,66.2,55.76,69.1,0.0,0.0,,,,,,1.0,,,,10.0,,KIGQ 100355Z AUTO 00000KT 10SM CLR 19/13 A2985 RMK AO2  T01900132,,,,,,55.71,,N,29.2,28.46,,Clear
KIGQ,06/10/2017 04:15 UTC,29.84,63.68,55.76,75.43,0.0,0.0,,,,,,1.0,,,,10.0,,KIGQ 100415Z AUTO 00000KT 10SM CLR 18/13 A2984 RMK AO2  T01760132,,,,,,55.71,,N,29.19,28.47,,Clear
KIGQ,06/10/2017 04:35 UTC,29.85,63.32,55.4,75.4,0.0,0.0,,,,,,1.0,,,,10.0,,KIGQ 100435Z AUTO 00000KT 10SM CLR 17/13 A2985 RMK AO2  T01740130,,,,,,55.35,,N,29.2,28.5,,Clear
KIGQ,06/10/2017 04:55 UTC,29.85,62.24,55.58,78.82,0.0,0.0,,,,,,1.0,,,,10.0,,KIGQ 100455Z AUTO 00000KT 10SM CLR 17/13 A2985 RMK AO2  T01680131,,,,,,55.53,,N,29.2,28.51,,Clear
KIGQ,06/10/2017 05:15 UTC,29.85,62.24,55.58,78.82,0.0,0.0,,,,,,1.0,,,,10.0,,KIGQ 100515Z AUTO 00000KT 10SM CLR 17/13 A2985 RMK AO2  T01680131,,,,,,55.53,,N,29.2,28.51,,Clear
KIGQ,06/10/2017 05:35 UTC,29.85,62.6,56.3,79.89,0.0,0.0,,,,,,1.0,,,,10.0,,KIGQ 100535Z AUTO 00000KT 10SM CLR 17/14 A2985 RMK AO2  T01700135,,,,,,56.26,,N,29.2,28.47,,Clear
KIGQ,06/10/2017 05:55 UTC,29.85,61.88,56.3,81.94,3.44,180.0,,,,,,1.0,,,,10.0,,KIGQ 100555Z AUTO 18003KT 10SM CLR 17/14 A2985 RMK AO2 T01660135  10225 20165 403180156,72.5,61.7,,89.24,60.08,56.26,,S,29.2,28.48,,Clear
KIGQ,06/10/2017 06:15 UTC,29.85,62.42,57.56,84.13,3.44,200.0,,,,,,1.0,,,,10.0,,KIGQ 100615Z AUTO 20003KT 10SM CLR 17/14 A2985 RMK AO2  T01690142,,,,,,57.53,,SSW,29.2,28.41,,Clear
KIGQ,06/10/2017 06:35 UTC,29.85,62.96,58.46,85.26,0.0,0.0,,,,,,1.0,,,,10.0,,KIGQ 100635Z AUTO 00000KT 10SM CLR 17/15 A2985 RMK AO2  T01720147,,,,,,58.43,,N,29.2,28.36,,Clear
KIGQ,06/10/2017 06:55 UTC,29.85,62.6,59.0,88.02,3.44,200.0,,,,,,1.0,,,,7.0,,KIGQ 100655Z AUTO 20003KT 7SM CLR 17/15 A2985 RMK AO2  T01700150,,,,,,58.97,,SSW,29.2,28.34,,Clear
KIGQ,06/10/2017 07:15 UTC,29.85,62.96,59.18,87.48,3.44,220.0,,,,,,1.0,,,,10.0,,KIGQ 100715Z AUTO 22003KT 10SM CLR 17/15 A2985 RMK AO2  T01720151,,,,,,59.16,,SW,29.2,28.33,,Clear
KIGQ,06/10/2017 07:35 UTC,29.85,63.68,57.92,81.54,3.44,210.0,,,,,,1.0,,,,10.0,,KIGQ 100735Z AUTO 21003KT 10SM CLR 18/14 A2985 RMK AO2  T01760144,,,,,,57.88,,SSW,29.2,28.38,,Clear
KIGQ,06/10/2017 07:55 UTC,29.85,64.58,56.84,76.01,4.61,220.0,,,,,,1.0,,,,10.0,,KIGQ 100755Z AUTO 22004KT 10SM CLR 18/14 A2985 RMK AO2  T01810138,,,,,,56.8,,SW,29.2,28.42,,Clear
KIGQ,06/10/2017 08:15 UTC,29.85,64.04,55.76,74.49,4.61,210.0,,,,,,1.0,,,,10.0,,KIGQ 100815Z AUTO 21004KT 10SM CLR 18/13 A2985 RMK AO2  T01780132,,,,,,55.71,,SSW,29.2,28.48,,Clear
KIGQ,06/10/2017 08:35 UTC,29.85,64.4,55.04,71.66,6.91,220.0,,,,,,1.0,,,,10.0,,KIGQ 100835Z AUTO 22006KT 10SM CLR 18/13 A2985 RMK AO2  T01800128,,,,,,54.99,,SW,29.2,28.51,,Clear
KIGQ,06/10/2017 08:55 UTC,29.85,64.4,54.5,70.26,5.75,210.0,,,,,,1.0,,,,10.0,,KIGQ 100855Z AUTO 21005KT 10SM CLR 18/13 A2985 RMK AO2  T01800125,,,,,,54.44,,SSW,29.2,28.53,,Clear
KIGQ,06/10/2017 09:15 UTC,29.86,64.58,53.78,68.01,6.91,210.0,,,,,,1.0,,,,10.0,,KIGQ 100915Z AUTO 21006KT 10SM CLR 18/12 A2986 RMK AO2  T01810121,,,,,,53.72,,SSW,29.21,28.57,,Clear
KIGQ,06/10/2017 09:35 UTC,29.86,64.58,53.42,67.12,8.05,210.0,,,,,,1.0,,,,10.0,,KIGQ 100935Z AUTO 21007KT 10SM CLR 18/12 A2986 RMK AO2  T01810119,,,,,,53.35,,SSW,29.21,28.59,,Clear
KIGQ,06/10/2017 09:55 UTC,29.87,64.58,52.88,65.81,8.05,210.0,,,,,,1.0,,,,10.0,,KIGQ 100955Z AUTO 21007KT 10SM CLR 18/12 A2987 RMK AO2  T01810116,,,,,,52.81,,SSW,29.22,28.62,,Clear
KIGQ,06/10/2017 10:15 UTC,29.86,64.22,52.7,66.2,8.05,200.0,,,,,,1.0,,,,10.0,,KIGQ 101015Z AUTO 20007KT 10SM CLR 18/12 A2986 RMK AO2  T01790115,,,,,,52.63,,SSW,29.21,28.62,,Clear
KIGQ,06/10/2017 10:35 UTC,29.87,62.78,52.88,70.09,6.91,210.0,,,,,,1.0,,,,10.0,,KIGQ 101035Z AUTO 21006KT 10SM CLR 17/12 A2987 RMK AO2  T01710116,,,,,,52.82,,SSW,29.22,28.64,,Clear
KIGQ,06/10/2017 10:55 UTC,29.88,64.04,52.7,66.62,8.05,210.0,,,,,,1.0,,,,10.0,,KIGQ 101055Z AUTO 21007KT 10SM CLR 18/12 A2988 RMK AO2  T01780115,,,,,,52.63,,SSW,29.23,28.64,,Clear
KIGQ,06/10/2017 11:15 UTC,29.88,64.4,52.7,65.79,8.05,210.0,,,,,,22.0,,,,10.0,,KIGQ 101115Z AUTO 21007KT 10SM SCT002 18/12 A2988 RMK AO2  T01800115,,,,,,52.63,,SSW,29.23,28.64,,Partly Cloudy
KIGQ,06/10/2017 11:35 UTC,29.89,64.94,52.88,64.99,6.91,210.0,,,,,,1.0,,,,10.0,,KIGQ 101135Z AUTO 21006KT 10SM CLR 18/12 A2989 RMK AO2  T01830116,,,,,,52.81,,SSW,29.24,28.64,,Clear
KIGQ,06/10/2017 11:55 UTC,29.9,65.48,53.42,65.06,9.22,210.0,,,,,,1.0,,,,10.0,,KIGQ 101155Z AUTO 21008KT 10SM CLR 19/12 A2990 RMK AO2 T01860119  10186 20165,65.48,61.7,,,,53.36,,SSW,29.25,28.62,,Clear
KIGQ,06/10/2017 12:15 UTC,29.91,66.56,53.96,63.92,9.22,200.0,,,,,,1.0,,,,10.0,,KIGQ 101215Z AUTO 20008KT 10SM CLR 19/12 A2991 RMK AO2  T01920122,,,,,,53.9,,SSW,29.26,28.59,,Clear
KIGQ,06/10/2017 12:35 UTC,29.91,68.18,54.5,61.65,8.05,220.0,,,,,,1.0,,,,10.0,,KIGQ 101235Z AUTO 22007KT 210V360 10SM CLR 20/13 A2991 RMK AO2  T02010125,,,,,,54.44,,SW,29.26,28.55,,Clear
KIGQ,06/10/2017 12:55 UTC,29.91,69.26,54.68,59.8,8.05,270.0,,,,,,1.0,,,,10.0,,KIGQ 101255Z AUTO 27007KT 220V330 10SM CLR 21/13 A2991 RMK AO2  T02070126,,,,,,54.62,,W,29.26,28.54,,Clear
KIGQ,06/10/2017 13:15 UTC,29.91,70.7,55.58,58.84,9.22,220.0,,,,,,1.0,,,,10.0,,KIGQ 101315Z AUTO 22008KT 10SM CLR 22/13 A2991 RMK AO2  T02150131,,,,,,55.53,,SW,29.26,28.48,,Clear
KIGQ,06/10/2017 13:35 UTC,29.92,73.22,56.12,55.1,11.5,320.0,,,,,,1.0,,,,10.0,,KIGQ 101335Z AUTO 32010KT 230V340 10SM CLR 23/13 A2992 RMK AO2  T02290134,,,,,,56.08,,NW,29.27,28.44,,Clear
KIGQ,06/10/2017 13:55 UTC,29.92,74.48,56.12,52.83,11.5,280.0,17.27,,,,,1.0,,,,10.0,,KIGQ 101355Z AUTO 28010G15KT 220V350 10SM CLR 24/13 A2992 RMK AO2  T02360134,,,,,,56.09,,W,29.27,28.43,,Clear
KIGQ,06/10/2017 14:15 UTC,29.92,76.82,55.94,48.56,13.8,220.0,17.27,,,,,1.0,,,,10.0,,KIGQ 101415Z AUTO 22012G15KT 10SM CLR 25/13 A2992 RMK AO2  T02490133,,,,,,55.93,,SW,29.27,28.41,,Clear
KIGQ,06/10/2017 14:35 UTC,29.92,77.72,55.76,46.83,14.97,230.0,,,,,,1.0,,,,10.0,,KIGQ 101435Z AUTO 23013KT 10SM CLR 25/13 A2992 RMK AO2  T02540132,,,,,,55.76,,SW,29.27,28.42,,Clear
KIGQ,06/10/2017 14:55 UTC,29.91,78.44,55.22,44.85,12.66,230.0,20.71,,,,,1.0,,,,10.0,,KIGQ 101455Z AUTO 23011G18KT 10SM CLR 26/13 A2991 RMK AO2  T02580129,,,,,,55.23,,SW,29.26,28.43,,Clear
KIGQ,06/10/2017 15:15 UTC,29.91,79.34,55.22,43.54,16.11,220.0,21.85,,,,,1.0,,,,10.0,,KIGQ 101515Z AUTO 22014G19KT 10SM CLR 26/13 A2991 RMK AO2  T02630129,,,,,,55.23,,SW,29.26,28.42,,Clear
KIGQ,06/10/2017 15:35 UTC,29.9,81.5,53.96,38.76,19.57,230.0,24.16,,,,,1.0,,,,10.0,,KIGQ 101535Z AUTO 23017G21KT 10SM CLR 28/12 A2990 RMK AO2  T02750122,,,,,,54.0,,SW,29.25,28.45,80.92,Clear
KIGQ,06/10/2017 15:55 UTC,29.89,81.68,53.06,37.29,19.57,230.0,26.46,,,,,1.0,,,,10.0,,KIGQ 101555Z AUTO 23017G23KT 10SM CLR 28/12 A2989 RMK AO2  T02760117,,,,,,53.11,,SW,29.24,28.48,80.91,Clear
KIGQ,06/10/2017 16:15 UTC,29.89,82.94,53.42,36.28,17.27,240.0,23.02,,,,,1.0,,,,10.0,,KIGQ 101615Z AUTO 24015G20KT 10SM CLR 28/12 A2989 RMK AO2  T02830119,,,,,,53.49,,WSW,29.24,28.45,81.81,Clear
KIGQ,06/10/2017 16:35 UTC,29.89,83.3,51.98,34.01,21.85,230.0,27.63,,,,,1.0,,,,10.0,,KIGQ 101635Z AUTO 23019G24KT 10SM CLR 29/11 A2989 RMK AO2  T02850111,,,,,,52.05,,SW,29.24,28.52,81.86,Clear
KIGQ,06/10/2017 16:55 UTC,29.89,84.38,51.44,32.21,20.71,230.0,26.46,,,,,1.0,,,,10.0,,KIGQ 101655Z AUTO 23018G23KT 10SM CLR 29/11 A2989 RMK AO2  T02910108,,,,,,51.54,,SW,29.24,28.54,82.57,Clear
KIGQ,06/10/2017 17:15 UTC,29.88,84.38,50.72,31.36,18.41,240.0,,,,,,1.0,,,,10.0,,KIGQ 101715Z AUTO 24016KT 10SM CLR 29/10 A2988 RMK AO2  T02910104,,,,,,50.82,,WSW,29.23,28.56,82.47,Clear
KIGQ,06/10/2017 17:35 UTC,29.88,85.28,51.26,31.08,13.8,210.0,27.63,,,,,1.0,,,,10.0,,KIGQ 101735Z AUTO 21012G24KT 10SM CLR 30/11 A2988 RMK AO2  T02960107,,,,,,51.36,,SSW,29.23,28.53,83.23,Clear
KIGQ,06/10/2017 17:55 UTC,29.87,86.72,51.44,29.89,21.85,220.0,28.77,,,,,1.0,,,,10.0,,KIGQ 101755Z AUTO 22019G25KT 10SM CLR 30/11 A2987 RMK AO2  T03040108 10304 20187,86.72,65.66,,,,51.57,,SW,29.22,28.5,84.42,Clear
KIGQ,06/10/2017 18:15 UTC,29.87,86.72,49.46,27.77,24.16,220.0,35.68,,,,,1.0,,,,10.0,,KIGQ 101815Z AUTO 22021G31KT 10SM CLR 30/10 A2987 RMK AO2  T03040097,,,,,,49.6,,SW,29.22,28.59,84.14,Clear
KIGQ,06/10/2017 18:35 UTC,29.86,86.72,49.28,27.59,19.57,210.0,31.07,,,,,1.0,,,,10.0,,KIGQ 101835Z AUTO 21017G27KT 10SM CLR 30/10 A2986 RMK AO2  T03040096,,,,,,49.42,,SSW,29.21,28.58,84.12,Clear
KIGQ,06/10/2017 18:55 UTC,29.86,87.62,50.0,27.54,20.71,210.0,31.07,,,,,1.0,,,,10.0,,KIGQ 101855Z AUTO 21018G27KT 10SM CLR 31/10 A2986 RMK AO2  T03090100,,,,,,50.16,,SSW,29.21,28.55,84.97,Clear
KIGQ,06/10/2017 19:15 UTC,29.86,87.98,49.1,26.33,25.32,200.0,33.38,,,,,1.0,,,,10.0,,KIGQ 101915Z AUTO 20022G29KT 10SM CLR 31/10 A2986 RMK AO2  T03110095,,,,,,49.27,,SSW,29.21,28.58,85.15,Clear
KIGQ,06/10/2017 19:35 UTC,29.84,88.16,48.74,25.83,18.41,210.0,35.68,,,,,1.0,,,,10.0,,KIGQ 101935Z AUTO 21016G31KT 10SM CLR 31/09 A2984 RMK AO2  T03120093,,,,,,48.91,,SSW,29.19,28.58,85.26,Clear
KIGQ,06/10/2017 19:55 UTC,29.84,88.7,49.82,26.44,21.85,200.0,32.21,,,,,1.0,,,,10.0,,KIGQ 101955Z AUTO 20019G28KT 10SM CLR 32/10 A2984 RMK AO2  T03150099,,,,,,50.0,,SSW,29.19,28.53,85.88,Clear
KIGQ,06/10/2017 20:15 UTC,29.83,88.88,49.28,25.77,23.02,210.0,31.07,,,,,1.0,,,,7.0,,KIGQ 102015Z AUTO 21020G27KT 7SM CLR 32/10 A2983 RMK AO2  T03160096,,,,,,49.47,,SSW,29.18,28.54,85.96,Clear
KIGQ,06/10/2017 20:35 UTC,29.83,89.06,47.48,23.95,24.16,210.0,31.07,,,,,1.0,,,,10.0,,KIGQ 102035Z AUTO 21021G27KT 10SM CLR 32/09 A2983 RMK AO2  T03170086,,,,,,47.68,,SSW,29.18,28.61,85.89,Clear
KIGQ,06/10/2017 20:55 UTC,29.83,88.88,46.94,23.6,21.85,220.0,33.38,,,,,1.0,,,,10.0,,KIGQ 102055Z AUTO 22019G29KT 10SM CLR 32/08 A2983 RMK AO2  T03160083,,,,,,47.13,,SW,29.18,28.63,85.67,Clear
KIGQ,06/10/2017 21:15 UTC,29.82,88.7,45.86,22.79,23.02,200.0,32.21,,,,,1.0,,,,10.0,,KIGQ 102115Z AUTO 20020G28KT 10SM CLR 32/08 A2982 RMK AO2  T03150077,,,,,,46.06,,SSW,29.17,28.67,85.4,Clear
KIGQ,06/10/2017 21:35 UTC,29.82,88.88,44.78,21.75,26.46,210.0,33.38,,,,,1.0,,,,10.0,,KIGQ 102135Z AUTO 21023G29KT 10SM CLR 32/07 A2982 RMK AO2  T03160071,,,,,,44.99,,SSW,29.17,28.71,85.46,Clear
KIGQ,06/10/2017 21:55 UTC,29.81,88.16,44.6,22.1,20.71,220.0,31.07,,,,,1.0,,,,10.0,,KIGQ 102155Z AUTO 22018G27KT 10SM CLR 31/07 A2981 RMK AO2  T03120070,,,,,,44.8,,SW,29.16,28.71,84.83,Clear
KIGQ,06/10/2017 22:15 UTC,29.82,87.98,44.42,22.07,24.16,200.0,33.38,,,,,1.0,,,,10.0,,KIGQ 102215Z AUTO 20021G29KT 10SM CLR 31/07 A2982 RMK AO2  T03110069,,,,,,44.61,,SSW,29.17,28.73,84.67,Clear
KIGQ,06/10/2017 22:35 UTC,29.81,87.8,45.68,23.29,24.16,210.0,33.38,,,,,1.0,,,,10.0,,KIGQ 102235Z AUTO 21021G29KT 10SM CLR 31/08 A2981 RMK AO2  T03100076,,,,,,45.87,,SSW,29.16,28.67,84.62,Clear
KIGQ,06/10/2017 22:55 UTC,29.81,87.44,46.76,24.53,23.02,200.0,34.52,,,,,1.0,,,,10.0,,KIGQ 102255Z AUTO 20020G30KT 10SM CLR 31/08 A2981 RMK AO2  T03080082,,,,,,46.92,,SSW,29.16,28.63,84.43,Clear
KIGQ,06/10/2017 23:15 UTC,29.81,86.9,46.22,24.45,16.11,210.0,28.77,,,,,1.0,,,,10.0,,KIGQ 102315Z AUTO 21014G25KT 10SM CLR 31/08 A2981 RMK AO2  T03050079,,,,,,46.38,,SSW,29.16,28.65,83.93,Clear
KIGQ,06/10/2017 23:35 UTC,29.81,86.18,46.22,25.02,26.46,210.0,31.07,,,,,1.0,,,,10.0,,KIGQ 102335Z AUTO 21023G27KT 10SM CLR 30/08 A2981 RMK AO2  T03010079,,,,,,46.37,,SSW,29.16,28.66,83.35,Clear
KIGQ,06/10/2017 23:55 UTC,29.81,85.46,45.86,25.25,21.85,220.0,29.93,,,,,1.0,,,,10.0,,KIGQ 102355Z AUTO 22019G26KT 10SM CLR 30/08 A2981 RMK AO2  T02970077 10317 20297,89.06,85.46,,,,45.99,,SW,29.16,28.68,82.76,Clear
KIGQ,06/11/2017 00:15 UTC,29.81,85.1,45.86,25.54,23.02,210.0,28.77,,,,,1.0,,,,10.0,,KIGQ 110015Z AUTO 21020G25KT 10SM CLR 30/08 A2981 RMK AO2  T02950077,,,,,,45.98,,SSW,29.16,28.68,82.49,Clear
KIGQ,06/11/2017 00:35 UTC,29.81,83.84,47.3,28.08,18.41,210.0,27.63,,,,,1.0,,,,10.0,,KIGQ 110035Z AUTO 21016G24KT 10SM CLR 29/09 A2981 RMK AO2  T02880085,,,,,,47.4,,SSW,29.16,28.63,81.7,Clear
KIGQ,06/11/2017 00:55 UTC,29.82,83.12,47.84,29.33,17.27,210.0,25.32,,,,,1.0,,,,10.0,,KIGQ 110055Z AUTO 21015G22KT 10SM CLR 28/09 A2982 RMK AO2  T02840088,,,,,,47.92,,SSW,29.17,28.62,81.25,Clear
KIGQ,06/11/2017 01:15 UTC,29.82,81.5,48.2,31.33,16.11,210.0,20.71,,,,,1.0,,,,10.0,,KIGQ 110115Z AUTO 21014G18KT 10SM CLR 28/09 A2982 RMK AO2  T02750090,,,,,,48.26,,SSW,29.17,28.62,80.24,Clear
KIGQ,06/11/2017 01:35 UTC,29.83,80.96,47.66,31.24,14.97,210.0,20.71,,,,,1.0,,,,10.0,,KIGQ 110135Z AUTO 21013G18KT 10SM CLR 27/09 A2983 RMK AO2  T02720087,,,,,,47.71,,SSW,29.18,28.66,79.87,Clear
KIGQ,06/11/2017 01:55 UTC,29.83,79.7,48.2,33.22,16.11,200.0,19.57,,,,,1.0,,,,10.0,,KIGQ 110155Z AUTO 20014G17KT 10SM CLR 27/09 A2983 RMK AO2  T02650090,,,,,,48.23,,SSW,29.18,28.64,,Clear
KIGQ,06/11/2017 02:15 UTC,29.85,78.8,48.74,34.91,12.66,210.0,,,,,,1.0,,,,10.0,,KIGQ 110215Z AUTO 21011KT 10SM CLR 26/09 A2985 RMK AO2  T02600093,,,,,,48.76,,SSW,29.2,28.65,,Clear
KIGQ,06/11/2017 02:35 UTC,29.86,78.26,50.36,37.74,14.97,200.0,20.71,,,,,1.0,,,,10.0,,KIGQ 110235Z AUTO 20013G18KT 10SM CLR 26/10 A2986 RMK AO2  T02570102,,,,,,50.37,,SSW,29.21,28.6,,Clear
KIGQ,06/11/2017 02:55 UTC,29.86,78.26,50.54,37.99,14.97,210.0,23.02,,,,,1.0,,,,10.0,,KIGQ 110255Z AUTO 21013G20KT 10SM CLR 26/10 A2986 RMK AO2  T02570103,,,,,,50.54,,SSW,29.21,28.59,,Clear
KIGQ,06/11/2017 03:15 UTC,29.87,78.08,50.54,38.22,17.27,210.0,24.16,,,,,1.0,,,,10.0,,KIGQ 110315Z AUTO 21015G21KT 10SM CLR 26/10 A2987 RMK AO2  T02560103,,,,,,50.54,,SSW,29.22,28.6,,Clear
KIGQ,06/11/2017 03:35 UTC,29.88,77.36,50.9,39.66,17.27,210.0,24.16,,,,,1.0,,,,10.0,,KIGQ 110335Z AUTO 21015G21KT 10SM CLR 25/11 A2988 RMK AO2  T02520105,,,,,,50.89,,SSW,29.23,28.6,,Clear
KIGQ,06/11/2017 03:55 UTC,29.88,77.0,51.44,40.95,17.27,210.0,25.32,,,,,1.0,,,,10.0,,KIGQ 110355Z AUTO 21015G22KT 10SM CLR 25/11 A2988 RMK AO2  T02500108,,,,,,51.43,,SSW,29.23,28.58,,Clear
KIGQ,06/11/2017 04:15 UTC,29.88,76.1,51.98,43.03,17.27,210.0,21.85,,,,,1.0,,,,10.0,,KIGQ 110415Z AUTO 21015G19KT 10SM CLR 25/11 A2988 RMK AO2  T02450111,,,,,,51.96,,SSW,29.23,28.57,,Clear
KIGQ,06/11/2017 04:35 UTC,29.89,75.38,52.52,44.96,13.8,210.0,20.71,,,,,1.0,,,,10.0,,KIGQ 110435Z AUTO 21012G18KT 10SM CLR 24/11 A2989 RMK AO2  T02410114,,,,,,52.5,,SSW,29.24,28.56,,Clear
KIGQ,06/11/2017 04:55 UTC,29.89,74.66,52.88,46.66,12.66,210.0,19.57,,,,,1.0,,,,10.0,,KIGQ 110455Z AUTO 21011G17KT 10SM CLR 24/12 A2989 RMK AO2  T02370116,,,,,,52.85,,SSW,29.24,28.55,,Clear
KIGQ,06/11/2017 05:15 UTC,29.89,74.12,53.6,48.78,12.66,200.0,19.57,,,,,1.0,,,,10.0,,KIGQ 110515Z AUTO 20011G17KT 10SM CLR 23/12 A2989 RMK AO2  T02340120,,,,,,53.56,,SSW,29.24,28.52,,Clear
KIGQ,06/11/2017 05:35 UTC,29.9,73.58,53.78,50.0,12.66,210.0,,,,,,1.0,,,,10.0,,KIGQ 110535Z AUTO 21011KT 10SM CLR 23/12 A2990 RMK AO2  T02310121,,,,,,53.74,,SSW,29.25,28.53,,Clear
KIGQ,06/11/2017 05:55 UTC,29.9,72.86,53.96,51.56,14.97,210.0,20.71,,,,,1.0,,,,10.0,,KIGQ 110555Z AUTO 21013G18KT 10SM CLR 23/12 A2990 RMK AO2  T02270122 10297 20227 403170165,85.46,72.86,,89.06,61.7,53.92,,SSW,29.25,28.52,,Clear
KIGQ,06/11/2017 06:15 UTC,29.9,72.5,54.5,53.23,13.8,210.0,,,,,,1.0,,,,10.0,,KIGQ 110615Z AUTO 21012KT 10SM CLR 23/13 A2990 RMK AO2  T02250125,,,,,,54.46,,SSW,29.25,28.5,,Clear
KIGQ,06/11/2017 06:35 UTC,29.91,71.78,54.68,54.9,10.36,210.0,17.27,,,,,1.0,,,,10.0,,KIGQ 110635Z AUTO 21009G15KT 10SM CLR 22/13 A2991 RMK AO2  T02210126,,,,,,54.64,,SSW,29.26,28.51,,Clear
KIGQ,06/11/2017 06:55 UTC,29.91,71.42,54.68,55.57,10.36,210.0,,,,,,1.0,,,,10.0,,KIGQ 110655Z AUTO 21009KT 10SM CLR 22/13 A2991 RMK AO2  T02190126,,,,,,54.63,,SSW,29.26,28.52,,Clear
KIGQ,06/11/2017 07:15 UTC,29.92,70.7,54.86,57.32,10.36,200.0,,,,,,1.0,,,,10.0,,KIGQ 110715Z AUTO 20009KT 10SM CLR 22/13 A2992 RMK AO2  T02150127,,,,,,54.81,,SSW,29.27,28.52,,Clear
KIGQ,06/11/2017 07:35 UTC,29.92,69.98,55.04,59.12,10.36,200.0,17.27,,,,,1.0,,,,10.0,,KIGQ 110735Z AUTO 20009G15KT 10SM CLR 21/13 A2992 RMK AO2  T02110128,,,,,,54.99,,SSW,29.27,28.52,,Clear
KIGQ,06/11/2017 07:55 UTC,29.92,69.62,55.4,60.64,11.5,200.0,,,,,,1.0,,,,10.0,,KIGQ 110755Z AUTO 20010KT 10SM CLR 21/13 A2992 RMK AO2  T02090130,,,,,,55.35,,SSW,29.27,28.51,,Clear
KIGQ,06/11/2017 08:15 UTC,29.92,69.8,55.4,60.27,11.5,200.0,,,,,,1.0,,,,10.0,,KIGQ 110815Z AUTO 20010KT 10SM CLR 21/13 A2992 RMK AO2  T02100130,,,,,,55.35,,SSW,29.27,28.51,,Clear
KIGQ,06/11/2017 08:35 UTC,29.93,69.08,55.4,61.77,10.36,200.0,16.11,,,,,1.0,,,,10.0,,KIGQ 110835Z AUTO 20009G14KT 10SM CLR 21/13 A2993 RMK AO2  T02060130,,,,,,55.35,,SSW,29.28,28.52,,Clear
KIGQ,06/11/2017 08:55 UTC,29.93,69.26,55.58,61.79,10.36,210.0,,,,,,1.0,,,,10.0,,KIGQ 110855Z AUTO 21009KT 10SM CLR 21/13 A2993 RMK AO2  T02070131,,,,,,55.53,,SSW,29.28,28.51,,Clear
KIGQ,06/11/2017 09:15 UTC,29.93,68.9,55.58,62.56,9.22,200.0,,,,,,1.0,,,,10.0,,KIGQ 110915Z AUTO 20008KT 10SM CLR 21/13 A2993 RMK AO2  T02050131,,,,,,55.53,,SSW,29.28,28.52,,Clear
KIGQ,06/11/2017 09:35 UTC,29.94,68.9,55.76,62.97,10.36,200.0,16.11,,,,,1.0,,,,10.0,,KIGQ 110935Z AUTO 20009G14KT 10SM CLR 21/13 A2994 RMK AO2  T02050132,,,,,,55.71,,SSW,29.29,28.52,,Clear
KIGQ,06/11/2017 09:55 UTC,29.95,68.9,55.76,62.97,9.22,210.0,,,,,,1.0,,,,10.0,,KIGQ 110955Z AUTO 21008KT 10SM CLR 21/13 A2995 RMK AO2  T02050132,,,,,,55.71,,SSW,29.3,28.53,,Clear
KIGQ,06/11/2017 10:15 UTC,29.95,68.72,55.76,63.36,11.5,210.0,,,,,,1.0,,,,10.0,,KIGQ 111015Z AUTO 21010KT 10SM CLR 20/13 A2995 RMK AO2  T02040132,,,,,,55.71,,SSW,29.3,28.53,,Clear
KIGQ,06/11/2017 10:35 UTC,29.96,68.9,55.94,63.38,12.66,220.0,16.11,,,,,1.0,,,,10.0,,KIGQ 111035Z AUTO 22011G14KT 10SM CLR 21/13 A2996 RMK AO2  T02050133,,,,,,55.89,,SW,29.31,28.53,,Clear
KIGQ,06/11/2017 10:55 UTC,29.96,69.08,56.3,63.82,11.5,220.0,,,,,,1.0,,,,10.0,,KIGQ 111055Z AUTO 22010KT 10SM CLR 21/14 A2996 RMK AO2  T02060135,,,,,,56.25,,SW,29.31,28.51,,Clear
KIGQ,06/11/2017 11:15 UTC,29.96,69.8,56.48,62.67,10.36,210.0,,,,,,1.0,,,,10.0,,KIGQ 111115Z AUTO 21009KT 10SM CLR 21/14 A2996 RMK AO2  T02100136,,,,,,56.43,,SSW,29.31,28.5,,Clear
KIGQ,06/11/2017 11:35 UTC,29.97,69.8,57.02,63.91,9.22,200.0,,,,,,1.0,,,,10.0,,KIGQ 111135Z AUTO 20008KT 10SM CLR 21/14 A2997 RMK AO2  T02100139,,,,,,56.98,,SSW,29.32,28.48,,Clear
KIGQ,06/11/2017 11:55 UTC,29.97,70.7,57.2,62.38,11.5,210.0,17.27,,,,,1.0,,,,10.0,,KIGQ 111155Z AUTO 21010G15KT 10SM CLR 22/14 A2997 RMK AO2  T02150140 10228 20204,73.04,68.72,,,,57.16,,SSW,29.32,28.46,,Clear
KIGQ,06/11/2017 12:15 UTC,29.98,71.78,57.38,60.53,14.97,210.0,19.57,,,,,1.0,,,,10.0,,KIGQ 111215Z AUTO 21013G17KT 10SM CLR 22/14 A2998 RMK AO2  T02210141,,,,,,57.34,,SSW,29.33,28.45,,Clear
KIGQ,06/11/2017 12:35 UTC,29.98,73.4,57.92,58.44,13.8,230.0,,,,,,1.0,,,,10.0,,KIGQ 111235Z AUTO 23012KT 10SM CLR 23/14 A2998 RMK AO2  T02300144,,,,,,57.89,,SW,29.33,28.41,,Clear
KIGQ,06/11/2017 12:55 UTC,29.98,74.84,57.92,55.69,12.66,230.0,20.71,,,,,1.0,,,,10.0,,KIGQ 111255Z AUTO 23011G18KT 10SM CLR 24/14 A2998 RMK AO2  T02380144,,,,,,57.9,,SW,29.33,28.39,,Clear
KIGQ,06/11/2017 13:15 UTC,29.98,76.28,58.28,53.78,17.27,220.0,21.85,,,,,462.0,,,,10.0,,KIGQ 111315Z AUTO 22015G19KT 10SM SCT046 25/15 A2998 RMK AO2  T02460146,,,,,,58.27,,SW,29.33,28.36,,Partly Cloudy
KIGQ,06/11/2017 13:35 UTC,29.98,75.92,58.28,54.43,16.11,230.0,24.16,,,,,484.0,,,,10.0,,KIGQ 111335Z AUTO 23014G21KT 210V300 10SM OVC048 24/15 A2998 RMK AO2 T02440146,,,4800.0,,,58.27,,SW,29.33,28.36,,Overcast
KIGQ,06/11/2017 13:55 UTC,29.98,77.0,58.46,52.85,14.97,240.0,19.57,,,,,504.0,,,,10.0,,KIGQ 111355Z AUTO 24013G17KT 10SM OVC050 25/15 A2998 RMK AO2  T02500147,,,5000.0,,,58.45,,WSW,29.33,28.34,,Overcast
KIGQ,06/11/2017 14:15 UTC,29.98,78.8,59.18,51.11,12.66,230.0,20.71,,,,,503.0,,,,10.0,,KIGQ 111415Z AUTO 23011G18KT 10SM BKN050 26/15 A2998 RMK AO2  T02600151,,,5000.0,,,59.19,,SW,29.33,28.29,,Mostly Cloudy
KIGQ,06/11/2017 14:35 UTC,29.98,80.78,59.54,48.53,18.41,230.0,21.85,,,,,502.0,,,,10.0,,KIGQ 111435Z AUTO 23016G19KT 220V290 10SM SCT050 27/15 A2998 RMK AO2 T02710153,,,,,,59.57,,SW,29.33,28.25,81.36,Partly Cloudy
KIGQ,06/11/2017 14:55 UTC,29.98,81.5,59.36,47.1,14.97,260.0,19.57,,,,,502.0,,,,10.0,,KIGQ 111455Z AUTO 26013G17KT 10SM SCT050 28/15 A2998 RMK AO2 LTG  DSNT NW T02750152,,,,,,59.39,,W,29.33,28.25,81.86,Partly Cloudy
KIGQ,06/11/2017 15:15 UTC,29.99,82.58,59.54,45.78,14.97,230.0,24.16,,,,,1.0,,,,10.0,,KIGQ 111515Z AUTO 23013G21KT 10SM CLR 28/15 A2999 RMK AO2  T02810153,,,,,,59.59,,SW,29.34,28.24,82.75,Clear
KIGQ,06/11/2017 15:35 UTC,29.99,83.84,59.54,43.96,16.11,240.0,21.85,,,,,1.0,,,,10.0,,KIGQ 111535Z AUTO 24014G19KT 10SM CLR 29/15 A2999 RMK AO2  T02880153,,,,,,59.6,,WSW,29.34,28.23,83.78,Clear
KIGQ,06/11/2017 15:55 UTC,29.99,84.38,59.9,43.76,14.97,250.0,23.02,,,,,1.0,,,,10.0,,KIGQ 111555Z AUTO 25013G20KT 10SM CLR 29/16 A2999 RMK AO2  T02910155,,,,,,59.97,,WSW,29.34,28.2,84.34,Clear
KIGQ,06/11/2017 16:15 UTC,29.98,84.92,59.72,42.74,14.97,230.0,21.85,,,,,1.0,,,,10.0,,KIGQ 111615Z AUTO 23013G19KT 10SM CLR 29/15 A2998 RMK AO2  T02940154,,,,,,59.8,,SW,29.33,28.2,84.75,Clear
KIGQ,06/11/2017 16:35 UTC,29.98,86.0,59.72,41.29,16.11,210.0,21.85,,,,,1.0,,,,10.0,,KIGQ 111635Z AUTO 21014G19KT 10SM CLR 30/15 A2998 RMK AO2  T03000154,,,,,,59.81,,SSW,29.33,28.19,85.71,Clear
KIGQ,06/11/2017 16:55 UTC,29.97,86.9,59.18,39.36,14.97,220.0,27.63,,,,,1.0,,,,10.0,,KIGQ 111655Z AUTO 22013G24KT 10SM CLR 31/15 A2997 RMK AO2  T03050151,,,,,,59.28,,SW,29.32,28.2,86.36,Clear
KIGQ,06/11/2017 17:15 UTC,29.96,87.98,59.54,38.53,16.11,230.0,20.71,,,,,1.0,,,,10.0,,KIGQ 111715Z AUTO 23014G18KT 10SM CLR 31/15 A2996 RMK AO2  T03110153,,,,,,59.66,,SW,29.31,28.16,87.5,Clear
KIGQ,06/11/2017 17:35 UTC,29.96,88.34,59.18,37.61,18.41,220.0,25.32,,,,,1.0,,,,10.0,,KIGQ 111735Z AUTO 22016G22KT 10SM CLR 31/15 A2996 RMK AO2  T03130151,,,,,,59.31,,SW,29.31,28.18,87.72,Clear
KIGQ,06/11/2017 17:55 UTC,29.96,88.88,59.0,36.74,19.57,200.0,25.32,,,,,1.0,,,,10.0,,KIGQ 111755Z AUTO 20017G22KT 10SM CLR 32/15 A2996 RMK AO2  T03160150 10316 20215,88.88,70.7,,,,59.14,,SSW,29.31,28.19,88.18,Clear
KIGQ,06/11/2017 18:15 UTC,29.96,88.88,58.82,36.5,20.71,200.0,26.46,,,,,602.0,,,,10.0,,KIGQ 111815Z AUTO 20018G23KT 10SM SCT060 32/15 A2996 RMK AO2  T03160149,,,,,,58.96,,SSW,29.31,28.2,88.12,Partly Cloudy
KIGQ,06/11/2017 18:35 UTC,29.95,88.7,59.18,37.19,14.97,210.0,24.16,,,,,602.0,,,,10.0,,KIGQ 111835Z AUTO 21013G21KT 10SM SCT060 32/15 A2995 RMK AO2  T03150151,,,,,,59.32,,SSW,29.3,28.17,88.07,Partly Cloudy
KIGQ,06/11/2017 18:55 UTC,29.95,88.7,58.1,35.78,13.8,220.0,19.57,,,,,1.0,,,,10.0,,KIGQ 111855Z AUTO 22012G17KT 10SM CLR 32/15 A2995 RMK AO2  T03150145,,,,,,58.24,,SW,29.3,28.23,87.71,Clear
KIGQ,06/11/2017 19:15 UTC,29.95,90.14,57.74,33.76,18.41,190.0,25.32,,,,,1.0,,,,10.0,,KIGQ 111915Z AUTO 19016G22KT 180V240 10SM CLR 32/14 A2995 RMK AO2  T03230143,,,,,,57.91,,S,29.3,28.24,89.0,Clear
KIGQ,06/11/2017 19:35 UTC,29.96,90.86,56.84,31.96,17.27,200.0,24.16,,,,,1.0,,,,10.0,,KIGQ 111935Z AUTO 20015G21KT 10SM CLR 33/14 A2996 RMK AO2  T03270138,,,,,,57.03,,SSW,29.31,28.29,89.44,Clear
KIGQ,06/11/2017 19:55 UTC,29.95,91.22,57.02,31.8,18.41,190.0,25.32,,,,,1.0,,,,10.0,,KIGQ 111955Z AUTO 19016G22KT 10SM CLR 33/14 A2995 RMK AO2  T03290139,,,,,,57.21,,S,29.3,28.27,89.85,Clear
KIGQ,06/11/2017 20:15 UTC,29.95,91.58,56.84,31.25,19.57,200.0,23.02,,,,,1.0,,,,10.0,,KIGQ 112015Z AUTO 20017G20KT 10SM CLR 33/14 A2995 RMK AO2  T03310138,,,,,,57.04,,SSW,29.3,28.27,90.16,Clear
KIGQ,06/11/2017 20:35 UTC,29.94,91.94,55.94,29.91,18.41,200.0,25.32,,,,,1.0,,,,10.0,,KIGQ 112035Z AUTO 20016G22KT 10SM CLR 33/13 A2994 RMK AO2  T03330133,,,,,,56.15,,SSW,29.29,28.31,90.25,Clear
KIGQ,06/11/2017 20:55 UTC,29.94,91.4,55.94,30.42,17.27,210.0,31.07,,,,,1.0,,,,10.0,,KIGQ 112055Z AUTO 21015G27KT 10SM CLR 33/13 A2994 RMK AO2  T03300133,,,,,,56.14,,SSW,29.29,28.31,89.71,Clear
KIGQ,06/11/2017 21:15 UTC,29.94,90.86,54.68,29.55,21.85,190.0,29.93,,,,,1.0,,,,10.0,,KIGQ 112115Z AUTO 19019G26KT 10SM CLR 33/13 A2994 RMK AO2  T03270126,,,,,,54.88,,S,29.29,28.38,88.83,Clear
KIGQ,06/11/2017 21:35 UTC,29.93,90.86,54.86,29.74,21.85,190.0,25.32,,,,,1.0,,,,10.0,,KIGQ 112135Z AUTO 19019G22KT 10SM CLR 33/13 A2993 RMK AO2  T03270127,,,,,,55.05,,S,29.28,28.37,88.88,Clear
KIGQ,06/11/2017 21:55 UTC,29.93,90.68,53.78,28.76,19.57,200.0,28.77,,,,,1.0,,,,10.0,,KIGQ 112155Z AUTO 20017G25KT 10SM CLR 33/12 A2993 RMK AO2  T03260121,,,,,,53.98,,SSW,29.28,28.42,88.44,Clear
KIGQ,06/11/2017 22:15 UTC,29.92,90.5,53.24,28.35,17.27,210.0,27.63,,,,,1.0,,,,10.0,,KIGQ 112215Z AUTO 21015G24KT 10SM CLR 33/12 A2992 RMK AO2  T03250118,,,,,,53.44,,SSW,29.27,28.44,88.15,Clear
KIGQ,06/11/2017 22:35 UTC,29.91,90.14,53.06,28.49,17.27,190.0,25.32,,,,,1.0,,,,10.0,,KIGQ 112235Z AUTO 19015G22KT 10SM CLR 32/12 A2991 RMK AO2  T03230117,,,,,,53.26,,S,29.26,28.44,87.77,Clear
KIGQ,06/11/2017 22:55 UTC,29.9,89.78,52.7,28.43,21.85,210.0,26.46,,,,,1.0,,,,10.0,,KIGQ 112255Z AUTO 21019G23KT 10SM CLR 32/12 A2990 RMK AO2  T03210115,,,,,,52.89,,SSW,29.25,28.45,87.36,Clear
KIGQ,06/11/2017 23:15 UTC,29.9,89.24,53.42,29.69,17.27,200.0,25.32,,,,,1.0,,,,10.0,,KIGQ 112315Z AUTO 20015G22KT 10SM CLR 32/12 A2990 RMK AO2  T03180119,,,,,,53.59,,SSW,29.25,28.42,87.0,Clear
KIGQ,06/11/2017 23:35 UTC,29.91,89.06,53.78,30.25,17.27,210.0,21.85,,,,,1.0,,,,10.0,,KIGQ 112335Z AUTO 21015G19KT 10SM CLR 32/12 A2991 RMK AO2  T03170121,,,,,,53.94,,SSW,29.26,28.41,86.91,Clear
KIGQ,06/11/2017 23:55 UTC,29.91,88.34,54.68,31.98,14.97,200.0,,,,,,1.0,,,,10.0,,KIGQ 112355Z AUTO 20013KT 10SM CLR 31/13 A2991 RMK AO2 T03130126  10333 20313,91.94,88.34,,,,54.83,,SSW,29.26,28.37,86.45,Clear
KIGQ,06/12/2017 00:15 UTC,29.91,87.26,55.04,33.53,13.8,200.0,18.41,,,,,1.0,,,,10.0,,KIGQ 120015Z AUTO 20012G16KT 10SM CLR 31/13 A2991 RMK AO2  T03070128,,,,,,55.17,,SSW,29.26,28.36,85.57,Clear
KIGQ,06/12/2017 00:35 UTC,29.9,86.36,55.58,35.18,11.5,190.0,18.41,,,,,1.0,,,,10.0,,KIGQ 120035Z AUTO 19010G16KT 10SM CLR 30/13 A2990 RMK AO2  T03020131,,,,,,55.69,,S,29.25,28.33,84.91,Clear
KIGQ,06/12/2017 00:55 UTC,29.9,85.28,55.58,36.41,13.8,200.0,21.85,,,,,1.0,,,,10.0,,KIGQ 120055Z AUTO 20012G19KT 10SM CLR 30/13 A2990 RMK AO2  T02960131,,,,,,55.67,,SSW,29.25,28.34,84.0,Clear
KIGQ,06/12/2017 01:15 UTC,29.9,83.84,55.76,38.38,11.5,200.0,,,,,,1.0,,,,10.0,,KIGQ 120115Z AUTO 20010KT 10SM CLR 29/13 A2990 RMK AO2  T02880132,,,,,,55.83,,SSW,29.25,28.34,82.89,Clear
KIGQ,06/12/2017 01:35 UTC,29.91,82.4,56.3,40.99,9.22,200.0,,,,,,1.0,,,,10.0,,KIGQ 120135Z AUTO 20008KT 10SM CLR 28/14 A2991 RMK AO2  T02800135,,,,,,56.35,,SSW,29.26,28.34,81.92,Clear
KIGQ,06/12/2017 01:55 UTC,29.9,81.68,56.3,41.96,12.66,190.0,,,,,,1.0,,,,10.0,,KIGQ 120155Z AUTO 19011KT 10SM CLR 28/14 A2990 RMK AO2  T02760135,,,,,,56.34,,S,29.25,28.33,81.41,Clear
KIGQ,06/12/2017 02:15 UTC,29.89,81.5,55.94,41.66,13.8,190.0,,,,,,1.0,,,,10.0,,KIGQ 120215Z AUTO 19012KT 10SM CLR 28/13 A2989 RMK AO2  T02750133,,,,,,55.98,,S,29.24,28.34,81.22,Clear
KIGQ,06/12/2017 02:35 UTC,29.9,80.78,55.94,42.64,11.5,200.0,17.27,,,,,1.0,,,,10.0,,KIGQ 120235Z AUTO 20010G15KT 10SM CLR 27/13 A2990 RMK AO2  T02710133,,,,,,55.97,,SSW,29.25,28.36,80.74,Clear
KIGQ,06/12/2017 02:55 UTC,29.91,79.88,55.76,43.63,10.36,200.0,,,,,,1.0,,,,10.0,,KIGQ 120255Z AUTO 20009KT 10SM CLR 27/13 A2991 RMK AO2  T02660132,,,,,,55.78,,SSW,29.26,28.39,,Clear
KIGQ,06/12/2017 03:15 UTC,29.91,79.52,55.4,43.57,11.5,200.0,,,,,,1.0,,,,10.0,,KIGQ 120315Z AUTO 20010KT 10SM CLR 26/13 A2991 RMK AO2  T02640130,,,,,,55.42,,SSW,29.26,28.41,,Clear
KIGQ,06/12/2017 03:35 UTC,29.92,79.16,54.86,43.23,12.66,200.0,18.41,,,,,1.0,,,,10.0,,KIGQ 120335Z AUTO 20011G16KT 10SM CLR 26/13 A2992 RMK AO2  T02620127,,,,,,54.87,,SSW,29.27,28.45,,Clear
KIGQ,06/12/2017 03:55 UTC,29.94,78.08,55.22,45.38,11.5,200.0,,,,,,1.0,,,,10.0,,KIGQ 120355Z AUTO 20010KT 10SM CLR 26/13 A2994 RMK AO2  T02560129,,,,,,55.22,,SSW,29.29,28.46,,Clear
KIGQ,06/12/2017 04:15 UTC,29.95,77.72,55.4,46.22,9.22,200.0,,,,,,1.0,,,,10.0,,KIGQ 120415Z AUTO 20008KT 10SM CLR 25/13 A2995 RMK AO2  T02540130,,,,,,55.4,,SSW,29.3,28.46,,Clear
KIGQ,06/12/2017 04:35 UTC,29.96,75.38,56.3,51.6,6.91,190.0,,,,,,1.0,,,,10.0,,KIGQ 120435Z AUTO 19006KT 10SM CLR 24/14 A2996 RMK AO2  T02410135,,,,,,56.28,,S,29.31,28.45,,Clear
KIGQ,06/12/2017 04:55 UTC,29.97,74.3,56.48,53.84,6.91,190.0,,,,,,1.0,,,,10.0,,KIGQ 120455Z AUTO 19006KT 10SM CLR 24/14 A2997 RMK AO2  T02350136,,,,,,56.45,,S,29.32,28.46,,Clear
KIGQ,06/12/2017 05:15 UTC,29.97,73.58,56.66,55.51,5.75,200.0,,,,,,1.0,,,,10.0,,KIGQ 120515Z AUTO 20005KT 10SM CLR 23/14 A2997 RMK AO2  T02310137,,,,,,56.63,,SSW,29.32,28.46,,Clear
KIGQ,06/12/2017 05:35 UTC,29.97,72.5,56.84,57.94,9.22,190.0,,,,,,1.0,,,,10.0,,KIGQ 120535Z AUTO 19008KT 10SM CLR 23/14 A2997 RMK AO2  T02250138,,,,,,56.8,,S,29.32,28.46,,Clear
KIGQ,06/12/2017 05:55 UTC,29.97,72.68,56.84,57.59,8.05,190.0,,,,,,1.0,,,,10.0,,KIGQ 120555Z AUTO 19007KT 10SM CLR 23/14 A2997 RMK AO2 T02260138  10312 20223 403330204,88.16,72.14,,91.94,68.72,56.8,,S,29.32,28.46,,Clear
KIGQ,06/12/2017 06:15 UTC,29.96,73.76,57.2,56.27,10.36,190.0,,,,,,1.0,,,,10.0,,KIGQ 120615Z AUTO 19009KT 10SM CLR 23/14 A2996 RMK AO2  T02320140,,,,,,57.17,,S,29.31,28.42,,Clear
KIGQ,06/12/2017 06:35 UTC,29.96,73.76,57.38,56.63,9.22,190.0,,,,,,1.0,,,,10.0,,KIGQ 120635Z AUTO 19008KT 10SM CLR 23/14 A2996 RMK AO2  T02320141,,,,,,57.35,,S,29.31,28.41,,Clear
KIGQ,06/12/2017 06:55 UTC,29.96,73.22,57.56,58.04,10.36,200.0,,,,,,1.0,,,,10.0,,KIGQ 120655Z AUTO 20009KT 10SM CLR 23/14 A2996 RMK AO2  T02290142,,,,,,57.53,,SSW,29.31,28.41,,Clear
KIGQ,06/12/2017 07:15 UTC,29.96,72.5,57.74,59.85,9.22,200.0,,,,,,1.0,,,,10.0,,KIGQ 120715Z AUTO 20008KT 10SM CLR 23/14 A2996 RMK AO2  T02250143,,,,,,57.71,,SSW,29.31,28.41,,Clear
KIGQ,06/12/2017 07:35 UTC,29.96,72.68,58.1,60.26,9.22,200.0,,,,,,1.0,,,,10.0,,KIGQ 120735Z AUTO 20008KT 10SM CLR 23/15 A2996 RMK AO2  T02260145,,,,,,58.07,,SSW,29.31,28.39,,Clear
KIGQ,06/12/2017 07:55 UTC,29.96,72.5,58.1,60.63,9.22,200.0,,,,,,1.0,,,,10.0,,KIGQ 120755Z AUTO 20008KT 10SM CLR 23/15 A2996 RMK AO2  T02250145,,,,,,58.07,,SSW,29.31,28.39,,Clear
KIGQ,06/12/2017 08:15 UTC,29.96,71.78,58.1,62.12,8.05,200.0,,,,,,1.0,,,,10.0,,KIGQ 120815Z AUTO 20007KT 10SM CLR 22/15 A2996 RMK AO2  T02210145,,,,,,58.06,,SSW,29.31,28.4,,Clear
KIGQ,06/12/2017 08:35 UTC,29.96,71.78,58.1,62.12,8.05,210.0,,,,,,1.0,,,,10.0,,KIGQ 120835Z AUTO 21007KT 10SM CLR 22/15 A2996 RMK AO2  T02210145,,,,,,58.06,,SSW,29.31,28.4,,Clear
KIGQ,06/12/2017 08:55 UTC,29.97,71.24,58.28,63.67,8.05,220.0,,,,,,1.0,,,,10.0,,KIGQ 120855Z AUTO 22007KT 10SM CLR 22/15 A2997 RMK AO2  T02180146,,,,,,58.24,,SW,29.32,28.4,,Clear
KIGQ,06/12/2017 09:15 UTC,29.97,70.88,58.46,64.87,6.91,220.0,,,,,,1.0,,,,10.0,,KIGQ 120915Z AUTO 22006KT 10SM CLR 22/15 A2997 RMK AO2  T02160147,,,,,,58.42,,SW,29.32,28.4,,Clear
KIGQ,06/12/2017 09:35 UTC,29.97,69.98,58.46,66.89,6.91,210.0,,,,,,1.0,,,,10.0,,KIGQ 120935Z AUTO 21006KT 10SM CLR 21/15 A2997 RMK AO2  T02110147,,,,,,58.42,,SSW,29.32,28.41,,Clear
KIGQ,06/12/2017 09:55 UTC,29.97,69.8,58.46,67.3,8.05,200.0,,,,,,1.0,,,,10.0,,KIGQ 120955Z AUTO 20007KT 10SM CLR 21/15 A2997 RMK AO2  T02100147,,,,,,58.42,,SSW,29.32,28.41,,Clear
KIGQ,06/12/2017 10:15 UTC,29.97,69.98,58.64,67.32,0.0,0.0,,,,,,1.0,,,,10.0,,KIGQ 121015Z AUTO 00000KT 10SM CLR 21/15 A2997 RMK AO2  T02110148,,,,,,58.6,,N,29.32,28.4,,Clear
KIGQ,06/12/2017 10:35 UTC,29.98,69.8,59.0,68.61,8.05,210.0,,,,,,1.0,,,,10.0,,KIGQ 121035Z AUTO 21007KT 10SM CLR 21/15 A2998 RMK AO2  T02100150,,,,,,58.96,,SSW,29.33,28.39,,Clear
KIGQ,06/12/2017 10:55 UTC,29.99,70.16,59.18,68.21,8.05,210.0,,,,,,1.0,,,,10.0,,KIGQ 121055Z AUTO 21007KT 10SM CLR 21/15 A2999 RMK AO2  T02120151,,,,,,59.14,,SSW,29.34,28.39,,Clear
KIGQ,06/12/2017 11:15 UTC,29.99,70.88,59.72,67.86,10.36,210.0,,,,,,1.0,,,,10.0,,KIGQ 121115Z AUTO 21009KT 10SM CLR 22/15 A2999 RMK AO2  T02160154,,,,,,59.69,,SSW,29.34,28.35,,Clear
KIGQ,06/12/2017 11:35 UTC,29.99,71.96,60.08,66.26,11.5,210.0,,,,,,1.0,,,,10.0,,KIGQ 121135Z AUTO 21010KT 10SM CLR 22/16 A2999 RMK AO2  T02220156,,,,,,60.05,,SSW,29.34,28.32,,Clear
KIGQ,06/12/2017 11:55 UTC,29.99,73.4,60.62,64.35,12.66,210.0,17.27,,,,,1.0,,,,10.0,,KIGQ 121155Z AUTO 21011G15KT 10SM CLR 23/16 A2999 RMK AO2  T02300159 10235 20210,74.3,69.8,,,,60.59,,SSW,29.34,28.27,,Clear
KIGQ,06/12/2017 12:15 UTC,29.99,74.84,60.8,61.72,12.66,240.0,19.57,,,,,1.0,,,,10.0,,KIGQ 121215Z AUTO 24011G17KT 210V290 10SM CLR 24/16 A2999 RMK AO2  T02380160,,,,,,60.78,,WSW,29.34,28.25,,Clear
KIGQ,06/12/2017 12:35 UTC,29.99,76.1,60.98,59.56,12.66,260.0,17.27,,,,,1.0,,,,10.0,,KIGQ 121235Z AUTO 26011G15KT 220V320 10SM CLR 25/16 A2999 RMK AO2  T02450161,,,,,,60.97,,W,29.34,28.22,,Clear
KIGQ,06/12/2017 12:55 UTC,29.98,77.54,61.88,58.63,13.8,230.0,,,,,,1.0,,,,10.0,,KIGQ 121255Z AUTO 23012KT 200V300 10SM CLR 25/17 A2998 RMK AO2  T02530166,,,,,,61.88,,SW,29.33,28.14,,Clear
KIGQ,06/12/2017 13:15 UTC,29.99,78.98,62.24,56.63,14.97,230.0,19.57,,,,,1.0,,,,10.0,,KIGQ 121315Z AUTO 23013G17KT 10SM CLR 26/17 A2999 RMK AO2  T02610168,,,,,,62.25,,SW,29.34,28.12,,Clear
KIGQ,06/12/2017 13:35 UTC,29.98,80.06,62.6,55.36,13.8,240.0,,,,,,1.0,,,,10.0,,KIGQ 121335Z AUTO 24012KT 10SM CLR 27/17 A2998 RMK AO2  T02670170,,,,,,62.61,,WSW,29.33,28.07,81.39,Clear
KIGQ,06/12/2017 13:55 UTC,29.98,81.32,62.78,53.48,16.11,230.0,20.71,,,,,1.0,,,,10.0,,KIGQ 121355Z AUTO 23014G18KT 10SM CLR 27/17 A2998 RMK AO2  T02740171,,,,,,62.81,,SW,29.33,28.05,82.52,Clear
KIGQ,06/12/2017 14:15 UTC,29.98,82.58,62.78,51.34,13.8,240.0,18.41,,,,,1.0,,,,10.0,,KIGQ 121415Z AUTO 24012G16KT 220V300 10SM CLR 28/17 A2998 RMK AO2  T02810171,,,,,,62.82,,WSW,29.33,28.04,83.64,Clear
KIGQ,06/12/2017 14:35 UTC,29.98,83.66,63.32,50.53,16.11,250.0,19.57,,,,,1.0,,,,10.0,,KIGQ 121435Z AUTO 25014G17KT 230V340 10SM CLR 29/17 A2998 RMK AO2  T02870174,,,,,,63.37,,WSW,29.33,27.99,84.81,Clear
KIGQ,06/12/2017 14:55 UTC,29.98,85.1,63.5,48.56,14.97,220.0,,,,,,1.0,,,,10.0,,KIGQ 121455Z AUTO 22013KT 10SM CLR 30/18 A2998 RMK AO2  T02950175,,,,,,63.57,,SW,29.33,27.96,86.24,Clear
KIGQ,06/12/2017 15:15 UTC,29.98,85.64,63.32,47.43,11.5,230.0,20.71,,,,,1.0,,,,10.0,,KIGQ 121515Z AUTO 23010G18KT 120V030 10SM CLR 30/17 A2998 RMK AO2  T02980174,,,,,,63.39,,SW,29.33,27.97,86.69,Clear
KIGQ,06/12/2017 15:35 UTC,29.97,87.26,63.5,45.34,14.97,240.0,,,,,,1.0,,,,10.0,,KIGQ 121535Z AUTO 24013KT 10SM CLR 31/18 A2997 RMK AO2  T03070175,,,,,,63.6,,WSW,29.32,27.93,88.38,Clear
KIGQ,06/12/2017 15:55 UTC,29.97,87.26,63.14,44.77,13.8,250.0,21.85,,,,,1.0,,,,10.0,,KIGQ 121555Z AUTO 25012G19KT 10SM CLR 31/17 A2997 RMK AO2  T03070173,,,,,,63.24,,WSW,29.32,27.96,88.22,Clear
KIGQ,06/12/2017 16:15 UTC,29.98,86.54,62.6,44.94,12.66,240.0,19.57,,,,,492.0,,,,10.0,,KIGQ 121615Z AUTO 24011G17KT 10SM SCT049 30/17 A2998 RMK AO2  T03030170,,,,,,62.69,,WSW,29.33,28.01,87.27,Partly Cloudy
KIGQ,06/12/2017 16:35 UTC,29.97,88.7,63.68,43.6,13.8,200.0,17.27,,,,,492.0,,,,10.0,,KIGQ 121635Z AUTO 20012G15KT 180V240 10SM SCT049 32/18 A2997 RMK AO2 T03150176,,,,,,63.8,,SSW,29.32,27.91,89.95,Partly Cloudy
KIGQ,06/12/2017 16:55 UTC,29.98,89.42,62.24,40.52,12.66,250.0,19.57,,,,,492.0,,,,10.0,,KIGQ 121655Z AUTO 25011G17KT 230V340 10SM SCT049 32/17 A2998 RMK AO2 T03190168,,,,,,62.38,,WSW,29.33,28.0,90.01,Partly Cloudy
KIGQ,06/12/2017 17:15 UTC,29.98,89.96,62.6,40.35,16.11,230.0,,,,,,502.0,,,,10.0,,KIGQ 121715Z AUTO 23014KT 10SM SCT050 32/17 A2998 RMK AO2  T03220170,,,,,,62.74,,SW,29.33,27.98,90.74,Partly Cloudy
KIGQ,06/12/2017 17:35 UTC,29.97,89.06,62.6,41.5,11.5,250.0,,,,,,502.0,,,,10.0,,KIGQ 121735Z AUTO 25010KT 10SM SCT050 32/17 A2997 RMK AO2  T03170170,,,,,,62.73,,WSW,29.32,27.97,89.8,Partly Cloudy
KIGQ,06/12/2017 17:55 UTC,29.97,90.68,61.7,38.22,12.66,230.0,18.41,,,,,502.0,,,,10.0,,KIGQ 121755Z AUTO 23011G16KT 10SM SCT050 33/17 A2997 RMK AO2  T03260165 10326 20230,90.68,73.4,,,,61.86,,SW,29.32,28.02,91.08,Partly Cloudy
KIGQ,06/12/2017 18:15 UTC,29.96,90.86,61.52,37.76,11.5,240.0,19.57,,,,,602.0,,,,10.0,,KIGQ 121815Z AUTO 24010G17KT 10SM SCT060 33/16 A2996 RMK AO2  T03270164,,,,,,61.68,,WSW,29.31,28.02,91.18,Partly Cloudy
KIGQ,06/12/2017 18:35 UTC,29.96,91.04,61.88,38.03,14.97,240.0,21.85,,,,,602.0,,,,10.0,,KIGQ 121835Z AUTO 24013G19KT 10SM SCT060 33/17 A2996 RMK AO2  T03280166,,,,,,62.04,,WSW,29.31,27.99,91.54,Partly Cloudy
KIGQ,06/12/2017 18:55 UTC,29.95,91.76,61.52,36.72,13.8,260.0,,,,,,602.0,,,,10.0,,KIGQ 121855Z AUTO 26012KT 240V310 10SM SCT060 33/16 A2995 RMK AO2  T03320164,,,,,,61.7,,W,29.3,28.0,92.14,Partly Cloudy
KIGQ,06/12/2017 19:15 UTC,29.94,92.66,62.06,36.4,18.41,230.0,21.85,,,,,602.0,,,,10.0,,KIGQ 121915Z AUTO 23016G19KT 10SM SCT060 34/17 A2994 RMK AO2  T03370167,,,,,,62.26,,SW,29.29,27.95,93.38,Partly Cloudy
KIGQ,06/12/2017 19:35 UTC,29.93,91.76,61.16,36.26,11.5,210.0,21.85,,,,,602.0,,,,10.0,,KIGQ 121935Z AUTO 21010G19KT 10SM SCT060 33/16 A2993 RMK AO2  T03320162,,,,,,61.34,,SSW,29.28,28.0,91.98,Partly Cloudy
KIGQ,06/12/2017 19:55 UTC,29.92,92.66,61.34,35.48,10.36,230.0,19.57,,,,,602.0,,,,10.0,,KIGQ 121955Z AUTO 23009G17KT 10SM SCT060 34/16 A2992 RMK AO2  T03370163,,,,,,61.54,,SW,29.27,27.97,93.03,Partly Cloudy
KIGQ,06/12/2017 20:15 UTC,29.91,93.2,60.98,34.45,13.8,230.0,18.41,,,,,602.0,,,,10.0,,KIGQ 122015Z AUTO 23012G16KT 10SM SCT060 34/16 A2991 RMK AO2  T03400161,,,,,,61.19,,SW,29.26,27.98,93.45,Partly Cloudy
KIGQ,06/12/2017 20:35 UTC,29.91,92.66,60.98,35.03,11.5,230.0,,,,,,702.0,,,,10.0,,KIGQ 122035Z AUTO 23010KT 210V300 10SM SCT070 34/16 A2991 RMK AO2  T03370161,,,,,,61.18,,SW,29.26,27.98,92.86,Partly Cloudy
KIGQ,06/12/2017 20:55 UTC,29.9,93.02,60.62,34.21,13.8,220.0,,,,,,1.0,,,,10.0,,KIGQ 122055Z AUTO 22012KT 10SM CLR 34/16 A2990 RMK AO2  T03390159,,,,,,60.83,,SW,29.25,27.99,93.09,Clear
KIGQ,06/12/2017 21:15 UTC,29.91,93.56,60.26,33.21,16.11,230.0,,,,,,1.0,,,,10.0,,KIGQ 122115Z AUTO 23014KT 10SM CLR 34/16 A2991 RMK AO2  T03420157,,,,,,60.48,,SW,29.26,28.02,93.52,Clear
KIGQ,06/12/2017 21:35 UTC,29.91,93.38,60.08,33.19,13.8,210.0,20.71,,,,,702.0,,,,10.0,,KIGQ 122135Z AUTO 21012G18KT 10SM SCT070 34/16 A2991 RMK AO2  T03410156,,,,,,60.3,,SSW,29.26,28.03,93.25,Partly Cloudy
KIGQ,06/12/2017 21:55 UTC,29.91,93.74,60.8,33.67,12.66,220.0,,,,,,702.0,,,,10.0,,KIGQ 122155Z AUTO 22011KT 10SM SCT070 34/16 A2991 RMK AO2  T03430160,,,,,,61.02,,SW,29.26,27.99,93.96,Partly Cloudy
KIGQ,06/12/2017 22:15 UTC,29.9,93.2,60.44,33.8,14.97,210.0,,,,,,1.0,,,,10.0,,KIGQ 122215Z AUTO 21013KT 10SM CLR 34/16 A2990 RMK AO2 LTG DSNT N  AND NW T03400158,,,,,,60.65,,SSW,29.25,28.0,93.21,Clear
KIGQ,06/12/2017 22:35 UTC,29.9,93.56,59.54,32.37,13.8,220.0,20.71,,,,,1.0,,,,10.0,,KIGQ 122235Z AUTO 22012G18KT 10SM CLR 34/15 A2990 RMK AO2 LTG DSNT  N T03420153,,,,,,59.76,,SW,29.25,28.05,93.21,Clear
KIGQ,06/12/2017 22:55 UTC,29.89,92.48,60.62,34.78,10.36,220.0,,,,,,752.0,,,,10.0,,KIGQ 122255Z AUTO 22009KT 10SM SCT075 34/16 A2989 RMK AO2  T03360159,,,,,,60.82,,SW,29.24,27.99,92.51,Partly Cloudy
KIGQ,06/12/2017 23:15 UTC,29.88,92.3,60.26,34.53,14.97,220.0,20.71,,,,,1.0,,,,10.0,,KIGQ 122315Z AUTO 22013G18KT 10SM CLR 34/16 A2988 RMK AO2  T03350157,,,,,,60.45,,SW,29.23,28.0,92.16,Clear
KIGQ,06/12/2017 23:35 UTC,29.88,92.12,60.44,34.95,13.8,210.0,,,,,,1.0,,,,10.0,,KIGQ 122335Z AUTO 21012KT 10SM CLR 33/16 A2988 RMK AO2  T03340158,,,,,,60.63,,SSW,29.23,27.99,92.05,Clear
KIGQ,06/12/2017 23:55 UTC,29.89,91.4,60.26,35.51,8.05,220.0,,,,,,1.0,,,,10.0,,KIGQ 122355Z AUTO 22007KT 10SM CLR 33/16 A2989 RMK AO2 T03300157  10343 20322,93.74,89.96,,,,60.44,,SW,29.24,28.02,91.21,Clear
KIGQ,06/13/2017 00:15 UTC,29.88,89.6,60.08,37.33,8.05,220.0,,,,,,1.0,,,,10.0,,KIGQ 130015Z AUTO 22007KT 10SM CLR 32/16 A2988 RMK AO2  T03200156,,,,,,60.23,,SW,29.23,28.03,89.29,Clear
KIGQ,06/13/2017 00:35 UTC,29.89,88.88,59.36,37.21,10.36,230.0,,,,,,1.0,,,,10.0,,KIGQ 130035Z AUTO 23009KT 10SM CLR 32/15 A2989 RMK AO2  T03160152,,,,,,59.49,,SW,29.24,28.09,88.31,Clear
KIGQ,06/13/2017 00:55 UTC,29.89,87.98,59.36,38.28,9.22,240.0,,,,,,1.0,,,,10.0,,KIGQ 130055Z AUTO 24008KT 10SM CLR 31/15 A2989 RMK AO2  T03110152,,,,,,59.48,,WSW,29.24,28.1,87.44,Clear
KIGQ,06/13/2017 01:15 UTC,29.9,86.72,59.9,40.62,8.05,220.0,,,,,,1.0,,,,10.0,,KIGQ 130115Z AUTO 22007KT 10SM CLR 30/16 A2990 RMK AO2  T03040155,,,,,,60.0,,SW,29.25,28.09,86.43,Clear
KIGQ,06/13/2017 01:35 UTC,29.91,85.28,60.44,43.34,6.91,220.0,,,,,,1.0,,,,10.0,,KIGQ 130135Z AUTO 22006KT 10SM CLR 30/16 A2991 RMK AO2  T02960158,,,,,,60.52,,SW,29.26,28.08,85.3,Clear
KIGQ,06/13/2017 01:55 UTC,29.91,84.56,60.08,43.79,6.91,220.0,,,,,,1.0,,,,10.0,,KIGQ 130155Z AUTO 22006KT 10SM CLR 29/16 A2991 RMK AO2  T02920156,,,,,,60.15,,SW,29.26,28.11,84.55,Clear
KIGQ,06/13/2017 02:15 UTC,29.94,83.84,60.08,44.81,4.61,220.0,,,,,,1.0,,,,10.0,,KIGQ 130215Z AUTO 22004KT 10SM CLR 29/16 A2994 RMK AO2  T02880156,,,,,,60.14,,SW,29.29,28.15,83.93,Clear
KIGQ,06/13/2017 02:35 UTC,29.95,82.76,60.8,47.6,4.61,250.0,,,,,,1.0,,,,10.0,,KIGQ 130235Z AUTO 25004KT 10SM CLR 28/16 A2995 RMK AO2  T02820160,,,,,,60.85,,WSW,29.3,28.12,83.22,Clear
KIGQ,06/13/2017 02:55 UTC,29.95,82.22,60.8,48.44,0.0,0.0,,,,,,1.0,,,,10.0,,KIGQ 130255Z AUTO 00000KT 10SM CLR 28/16 A2995 RMK AO2  T02790160,,,,,,60.84,,N,29.3,28.13,82.77,Clear
KIGQ,06/13/2017 03:15 UTC,29.95,77.72,61.88,58.28,0.0,0.0,,,,,,1.0,,,,10.0,,KIGQ 130315Z AUTO 00000KT 10SM CLR 25/17 A2995 RMK AO2  T02540166,,,,,,61.88,,N,29.3,28.11,,Clear
KIGQ,06/13/2017 03:35 UTC,29.96,77.0,61.7,59.3,0.0,0.0,,,,,,1.0,,,,10.0,,KIGQ 130335Z AUTO 00000KT 10SM CLR 25/17 A2996 RMK AO2  T02500165,,,,,,61.69,,N,29.31,28.14,,Clear
KIGQ,06/13/2017 03:55 UTC,29.98,77.18,61.34,58.21,14.97,20.0,26.46,,,,,753.0,853.0,,,10.0,,KIGQ 130355Z AUTO 02013G23KT 10SM BKN075 BKN085 25/16 A2998 RMK AO2 T02510163,,,7500.0,,,61.34,,NNE,29.33,28.18,,Mostly Cloudy
KIGQ,06/13/2017 04:15 UTC,29.98,75.56,60.98,60.64,9.22,30.0,,,,,,753.0,854.0,,,10.0,,KIGQ 130415Z AUTO 03008KT 10SM BKN075 OVC085 24/16 A2998 RMK AO2  T02420161,,,7500.0,,,60.96,,NNE,29.33,28.22,,Overcast
KIGQ,06/13/2017 04:35 UTC,29.98,75.2,60.44,60.21,10.36,40.0,,,1103.0,,,752.0,853.0,,,10.0,,KIGQ 130435Z AUTO 04009KT 10SM SCT075 BKN085 BKN110 24/16 A2998 RMK AO2 T02400158,,,8500.0,,,60.42,,NE,29.33,28.25,,Mostly Cloudy
KIGQ,06/13/2017 04:55 UTC,29.97,74.3,60.62,62.44,4.61,100.0,,,,,,702.0,952.0,,,10.0,,KIGQ 130455Z AUTO 10004KT 10SM SCT070 SCT095 24/16 A2997 RMK AO2  T02350159,,,,,,60.6,,E,29.32,28.24,,Partly Cloudy
KIGQ,06/13/2017 05:15 UTC,29.96,73.4,60.08,63.13,5.75,80.0,,,,,,1.0,,,,10.0,,KIGQ 130515Z AUTO 08005KT 10SM CLR 23/16 A2996 RMK AO2  T02300156,,,,,,60.05,,E,29.31,28.27,,Clear
KIGQ,06/13/2017 05:35 UTC,29.95,72.32,60.26,65.88,3.44,90.0,,,,,,1.0,,,,10.0,,KIGQ 130535Z AUTO 09003KT 10SM CLR 22/16 A2995 RMK AO2  T02240157,,,,,,60.23,,E,29.3,28.26,,Clear
KIGQ,06/13/2017 05:55 UTC,29.95,71.78,60.08,66.67,0.0,0.0,,,,,,1.0,,,,10.0,,KIGQ 130555Z AUTO 00000KT 10SM CLR 22/16 A2995 RMK AO2 T02210156  10330 20221 403430210,91.4,71.78,,93.74,69.8,60.05,,N,29.3,28.28,,Clear
KIGQ,06/13/2017 06:15 UTC,29.94,71.42,60.26,67.92,0.0,0.0,,,,,,1.0,,,,10.0,,KIGQ 130615Z AUTO 00000KT 10SM CLR 22/16 A2994 RMK AO2  T02190157,,,,,,60.23,,N,29.29,28.26,,Clear
KIGQ,06/13/2017 06:35 UTC,29.94,71.6,60.62,68.37,0.0,0.0,,,,,,1.0,,,,10.0,,KIGQ 130635Z AUTO 00000KT 10SM CLR 22/16 A2994 RMK AO2  T02200159,,,,,,60.59,,N,29.29,28.24,,Clear
KIGQ,06/13/2017 06:55 UTC,29.96,67.64,60.44,77.76,0.0,0.0,,,,,,1.0,,,,10.0,,KIGQ 130655Z AUTO 00000KT 10SM CLR 20/16 A2996 RMK AO2  T01980158,,,,,,60.41,,N,29.31,28.32,,Clear
KIGQ,06/13/2017 07:15 UTC,29.95,70.52,60.8,71.38,0.0,0.0,,,,,,602.0,,,,10.0,,KIGQ 130715Z AUTO 00000KT 10SM SCT060 21/16 A2995 RMK AO2  T02140160,,,,,,60.77,,N,29.3,28.25,,Partly Cloudy
KIGQ,06/13/2017 07:35 UTC,29.95,70.7,60.8,70.94,0.0,0.0,,,,,,602.0,,,,10.0,,KIGQ 130735Z AUTO 00000KT 10SM SCT060 22/16 A2995 RMK AO2  T02150160,,,,,,60.77,,N,29.3,28.25,,Partly Cloudy
KIGQ,06/13/2017 07:55 UTC,29.96,70.16,60.62,71.79,0.0,0.0,,,,,,1.0,,,,10.0,,KIGQ 130755Z AUTO 00000KT 10SM CLR 21/16 A2996 RMK AO2  T02120159,,,,,,60.58,,N,29.31,28.28,,Clear
KIGQ,06/13/2017 08:15 UTC,29.96,70.16,60.98,72.72,0.0,0.0,,,,,,1.0,,,,10.0,,KIGQ 130815Z AUTO 00000KT 10SM CLR 21/16 A2996 RMK AO2  T02120161,,,,,,60.95,,N,29.31,28.26,,Clear
KIGQ,06/13/2017 08:35 UTC,29.96,67.28,60.8,79.74,0.0,0.0,,,,,,1.0,,,,10.0,,KIGQ 130835Z AUTO 00000KT 10SM CLR 20/16 A2996 RMK AO2  T01960160,,,,,,60.77,,N,29.31,28.3,,Clear
KIGQ,06/13/2017 08:55 UTC,29.96,67.1,61.16,81.27,4.61,190.0,,,,,,1.0,,,,10.0,,KIGQ 130855Z AUTO 19004KT 10SM CLR 20/16 A2996 RMK AO2  T01950162,,,,,,61.13,,S,29.31,28.28,,Clear
KIGQ,06/13/2017 09:15 UTC,29.97,66.02,60.62,82.76,0.0,0.0,,,,,,1.0,,,,10.0,,KIGQ 130915Z AUTO 00000KT 10SM CLR 19/16 A2997 RMK AO2  T01890159,,,,,,60.59,,N,29.32,28.34,,Clear
KIGQ,06/13/2017 09:35 UTC,29.97,67.1,60.98,80.75,0.0,0.0,,,,,,1.0,,,,10.0,,KIGQ 130935Z AUTO 00000KT 10SM CLR 20/16 A2997 RMK AO2  T01950161,,,,,,60.95,,N,29.32,28.3,,Clear
KIGQ,06/13/2017 09:55 UTC,29.98,66.56,60.8,81.75,0.0,0.0,,,,,,1.0,,,,10.0,,KIGQ 130955Z AUTO 00000KT 10SM CLR 19/16 A2998 RMK AO2  T01920160,,,,,,60.77,,N,29.33,28.33,,Clear
KIGQ,06/13/2017 10:15 UTC,29.97,68.0,61.34,79.29,0.0,0.0,,,,,,1.0,,,,10.0,,KIGQ 131015Z AUTO 00000KT 10SM CLR 20/16 A2997 RMK AO2  T02000163,,,,,,61.31,,N,29.32,28.27,,Clear
KIGQ,06/13/2017 10:35 UTC,29.98,68.54,61.34,77.84,0.0,0.0,,,,,,1.0,,,,10.0,,KIGQ 131035Z AUTO 00000KT 10SM CLR 20/16 A2998 RMK AO2  T02030163,,,,,,61.31,,N,29.33,28.28,,Clear
KIGQ,06/13/2017 10:55 UTC,29.98,68.0,61.52,79.8,0.0,0.0,,,,,,1.0,,,,10.0,,KIGQ 131055Z AUTO 00000KT 10SM CLR 20/16 A2998 RMK AO2  T02000164,,,,,,61.49,,N,29.33,28.27,,Clear
KIGQ,06/13/2017 11:15 UTC,29.99,68.36,62.6,81.88,0.0,0.0,,,,,,1.0,,,,10.0,,KIGQ 131115Z AUTO 00000KT 10SM CLR 20/17 A2999 RMK AO2  T02020170,,,,,,62.58,,N,29.34,28.22,,Clear
KIGQ,06/13/2017 11:35 UTC,29.99,71.42,63.5,76.14,0.0,0.0,,,,,,1.0,,,,10.0,,KIGQ 131135Z AUTO 00000KT 10SM CLR 22/18 A2999 RMK AO2 LTG DSNT NW  T02190175,,,,,,63.48,,N,29.34,28.13,,Clear
KIGQ,06/13/2017 11:55 UTC,29.99,74.3,66.02,75.45,4.61,210.0,,,,,,1.0,,,,10.0,,KIGQ 131155Z AUTO 21004KT 10SM CLR 24/19 A2999 RMK AO2 T02350189  10235 20188,74.3,65.84,,,,66.01,,SSW,29.34,27.93,,Clear
KIGQ,06/13/2017 12:15 UTC,29.99,76.28,67.1,73.32,4.61,220.0,,,,,,1.0,,,,10.0,,KIGQ 131215Z AUTO 22004KT 10SM CLR 25/20 A2999 RMK AO2  T02460195,,,,,,67.09,,SW,29.34,27.83,,Clear
KIGQ,06/13/2017 12:35 UTC,30.0,78.08,67.82,70.82,4.61,220.0,,,,,,1.0,,,,10.0,,KIGQ 131235Z AUTO 22004KT 10SM CLR 26/20 A3000 RMK AO2  T02560199,,,,,,67.82,,SW,29.35,27.77,,Clear
KIGQ,06/13/2017 12:55 UTC,30.0,79.88,68.54,68.44,5.75,220.0,,,,,,1.0,,,,10.0,,KIGQ 131255Z AUTO 22005KT 10SM CLR 27/20 A3000 RMK AO2  T02660203,,,,,,68.55,,SW,29.35,27.7,,Clear
KIGQ,06/13/2017 13:15 UTC,30.0,81.5,68.72,65.32,5.75,250.0,,,,,,1.0,,,,10.0,,KIGQ 131315Z AUTO 25005KT 10SM CLR 28/20 A3000 RMK AO2  T02750204,,,,,,68.74,,WSW,29.35,27.66,84.64,Clear
KIGQ,06/13/2017 13:35 UTC,29.99,83.12,69.08,62.76,8.05,260.0,,,,,,1.0,,,,10.0,,KIGQ 131335Z AUTO 26007KT 10SM CLR 28/21 A2999 RMK AO2  T02840206,,,,,,69.11,,W,29.34,27.61,86.75,Clear
KIGQ,06/13/2017 13:55 UTC,29.99,83.66,68.9,61.3,9.22,260.0,,,,,,1.0,,,,10.0,,KIGQ 131355Z AUTO 26008KT 10SM CLR 29/21 A2999 RMK AO2  T02870205,,,,,,68.94,,W,29.34,27.61,87.3,Clear
KIGQ,06/13/2017 14:15 UTC,29.99,85.1,69.26,59.26,5.75,240.0,,,,,,1.0,,,,10.0,,KIGQ 131415Z AUTO 24005KT 10SM CLR 30/21 A2999 RMK AO2  T02950207,,,,,,69.31,,WSW,29.34,27.57,89.2,Clear
KIGQ,06/13/2017 14:35 UTC,29.99,85.64,69.26,58.25,3.44,270.0,,,,,,1.0,,,,10.0,,KIGQ 131435Z AUTO 27003KT 10SM CLR 30/21 A2999 RMK AO2  T02980207,,,,,,69.32,,W,29.34,27.56,89.83,Clear
KIGQ,06/13/2017 14:55 UTC,29.99,85.82,69.08,57.56,4.61,230.0,,,,,,1.0,,,,10.0,,KIGQ 131455Z AUTO 23004KT 10SM CLR 30/21 A2999 RMK AO2  T02990206,,,,,,69.14,,SW,29.34,27.57,89.92,Clear
KIGQ,06/13/2017 15:15 UTC,29.99,86.36,68.18,54.86,9.22,360.0,,,,,,352.0,,,,10.0,,KIGQ 131515Z AUTO 36008KT 10SM SCT035 30/20 A2999 RMK AO2  T03020201,,,,,,68.25,,N,29.34,27.63,89.96,Partly Cloudy
KIGQ,06/13/2017 15:35 UTC,29.99,78.62,63.32,59.52,5.75,40.0,,,553.0,,,353.0,433.0,,,10.0,,KIGQ 131535Z AUTO 04005KT 10SM BKN035 BKN043 BKN055 26/17 A2999 RMK AO2 T02590174,,,3500.0,,,63.32,,NE,29.34,28.05,,Mostly Cloudy
KIGQ,06/13/2017 15:55 UTC,29.99,78.98,63.5,59.19,8.05,20.0,,,602.0,,,352.0,432.0,,,10.0,,KIGQ 131555Z AUTO 02007KT 10SM SCT035 SCT043 SCT060 26/18 A2999 RMK AO2 T02610175,,,,,,63.51,,NNE,29.34,28.04,,Partly Cloudy
KIGQ,06/13/2017 16:15 UTC,29.99,80.78,63.86,56.52,6.91,40.0,,,,,,852.0,,,,10.0,,KIGQ 131615Z AUTO 04006KT 10SM SCT085 27/18 A2999 RMK AO2  T02710177,,,,,,63.88,,NE,29.34,28.0,82.31,Partly Cloudy
KIGQ,06/13/2017 16:35 UTC,29.98,82.58,64.4,54.33,9.22,40.0,,,,,,1.0,,,,10.0,,KIGQ 131635Z AUTO 04008KT 360V060 10SM CLR 28/18 A2998 RMK AO2  T02810180,,,,,,64.43,,NE,29.33,27.93,84.17,Clear
KIGQ,06/13/2017 16:55 UTC,29.98,83.84,64.4,52.17,9.22,30.0,,,,,,702.0,,,,10.0,,KIGQ 131655Z AUTO 03008KT 10SM SCT070 29/18 A2998 RMK AO2  T02880180,,,,,,64.45,,NNE,29.33,27.92,85.39,Partly Cloudy
KIGQ,06/13/2017 17:15 UTC,29.98,84.2,64.04,50.93,6.91,20.0,,,,,,1.0,,,,10.0,,KIGQ 131715Z AUTO 02006KT 10SM CLR 29/18 A2998 RMK AO2  T02900178,,,,,,64.09,,NNE,29.33,27.94,85.59,Clear
KIGQ,06/13/2017 17:35 UTC,29.97,84.56,64.76,51.63,4.61,40.0,,,,,,1.0,,,,10.0,,KIGQ 131735Z AUTO 04004KT 10SM CLR 29/18 A2997 RMK AO2  T02920182,,,,,,64.82,,NE,29.32,27.88,86.25,Clear
KIGQ,06/13/2017 17:55 UTC,29.97,84.74,64.76,51.33,3.44,50.0,,,,,,852.0,,,,10.0,,KIGQ 131755Z AUTO 05003KT 10SM SCT085 29/18 A2997 RMK AO2  T02930182 10305 20236,86.9,74.48,,,,64.82,,NE,29.32,27.87,86.42,Partly Cloudy
KIGQ,06/13/2017 18:15 UTC,29.96,85.64,65.66,51.46,5.75,30.0,,,,,,1.0,,,,10.0,,KIGQ 131815Z AUTO 03005KT 10SM CLR 30/19 A2996 RMK AO2  T02980187,,,,,,65.73,,NNE,29.31,27.79,87.76,Clear
KIGQ,06/13/2017 18:35 UTC,29.96,86.18,65.3,49.96,3.44,30.0,,,,,,1.0,,,,10.0,,KIGQ 131835Z AUTO 03003KT 10SM CLR 30/19 A2996 RMK AO2 LTG DSNT E  T03010185,,,,,,65.38,,NNE,29.31,27.81,88.14,Clear
KIGQ,06/13/2017 18:55 UTC,29.95,86.54,66.02,50.64,8.05,30.0,,,,,,1.0,,,,10.0,,KIGQ 131855Z AUTO 03007KT 10SM CLR 30/19 A2995 RMK AO2 LTG DSNT E  T03030189,,,,,,66.1,,NNE,29.3,27.75,88.9,Clear
KIGQ,06/13/2017 19:15 UTC,29.95,86.0,65.48,50.56,5.75,40.0,,,,,,1.0,,,,10.0,,KIGQ 131915Z AUTO 04005KT 10SM CLR 30/19 A2995 RMK AO2 LTG DSNT E  T03000186,,,,,,65.55,,NE,29.3,27.79,88.05,Clear
KIGQ,06/13/2017 19:35 UTC,29.95,83.66,64.22,52.15,6.91,40.0,,,,,,1.0,,,,10.0,,KIGQ 131935Z AUTO 04006KT 10SM CLR 29/18 A2995 RMK AO2 LTG DSNT E  T02870179,,,,,,64.27,,NE,29.3,27.9,85.14,Clear
KIGQ,06/13/2017 19:55 UTC,29.94,85.1,64.94,51.06,4.61,40.0,,,,,,1.0,,,,10.0,,KIGQ 131955Z AUTO 04004KT 10SM CLR 30/18 A2994 RMK AO2 LTG DSNT E  AND SE T02950183,,,,,,65.0,,NE,29.29,27.83,86.87,Clear
KIGQ,06/13/2017 20:15 UTC,29.94,84.74,65.3,52.3,6.91,50.0,17.27,,,,,1.0,,,,10.0,,KIGQ 132015Z AUTO 05006G15KT 10SM CLR 29/19 A2994 RMK AO2  T02930185,,,,,,65.36,,NE,29.29,27.81,86.67,Clear
KIGQ,06/13/2017 20:35 UTC,29.94,84.38,64.4,51.28,14.97,30.0,,,,,,1.0,,,,10.0,,KIGQ 132035Z AUTO 03013KT 10SM CLR 29/18 A2994 RMK AO2  T02910180,,,,,,64.46,,NNE,29.29,27.87,85.92,Clear
KIGQ,06/13/2017 20:55 UTC,29.92,82.94,64.76,54.39,9.22,40.0,,,,,,1.0,,,,10.0,,KIGQ 132055Z AUTO 04008KT 10SM CLR 28/18 A2992 RMK AO2 LTG DSNT SW  T02830182,,,,,,64.8,,NE,29.27,27.84,84.65,Clear
KIGQ,06/13/2017 21:15 UTC,29.93,82.4,65.12,56.04,11.5,20.0,16.11,5.0,,,,1.0,,,,10.0,,KIGQ 132115Z AUTO 02010G14KT 10SM VCTS CLR 28/18 A2993 RMK AO2 LTG  DSNT S THRU NW T02800184,,,,,,65.15,,NNE,29.28,27.83,84.25,Thunder
KIGQ,06/13/2017 21:35 UTC,29.93,80.78,64.4,57.6,8.05,50.0,,,,,,802.0,1002.0,,,10.0,,KIGQ 132135Z AUTO 05007KT 10SM SCT080 SCT100 27/18 A2993 RMK AO2  LTG DSNT SE THRU W T02710180,,,,,,64.42,,NE,29.28,27.9,82.45,Partly Cloudy
KIGQ,06/13/2017 21:55 UTC,29.95,79.7,62.78,56.37,10.36,70.0,,5.0,,,,653.0,804.0,,,10.0,,KIGQ 132155Z AUTO 07009KT 10SM TS BKN065 OVC080 27/17 A2995 RMK AO2 LTG DSNT ALQS T02650171,,,6500.0,,,62.79,,ENE,29.3,28.04,,Thunder
KIGQ,06/13/2017 22:15 UTC,29.95,75.02,66.02,73.66,10.36,40.0,,77.0,653.0,0.04,,272.0,432.0,,,7.0,,KIGQ 132215Z AUTO 04009KT 7SM -TSRA SCT027 SCT043 BKN065 24/19  A2995 RMK AO2 LTG DSNT ALQS P0004 T02390189,,,6500.0,,,66.01,,NE,29.3,27.88,,Light Rain/Thunderstorm
KIGQ,06/13/2017 22:35 UTC,29.93,74.12,66.02,75.9,9.22,50.0,,77.0,702.0,0.04,,272.0,432.0,,,10.0,,KIGQ 132235Z AUTO 05008KT 10SM -TSRA SCT027 SCT043 SCT070 23/19  A2993 RMK AO2 LTG DSNT ALQS P0004 T02340189,,,,,,66.01,,NE,29.28,27.87,,Light Rain/Thunderstorm
KIGQ,06/13/2017 22:55 UTC,29.91,73.4,66.38,78.73,9.22,40.0,,,,0.04,,1.0,,,,10.0,,KIGQ 132255Z AUTO 04008KT 10SM CLR 23/19 A2991 RMK AO2 LTG DSNT NE  THRU SW P0004 T02300191,,,,,,66.37,,NE,29.26,27.84,,Clear
KIGQ,06/13/2017 23:15 UTC,29.91,72.5,66.02,80.15,9.22,50.0,,5.0,,,,1.0,,,,10.0,,KIGQ 132315Z AUTO 05008KT 10SM VCTS CLR 23/19 A2991 RMK AO2 LTG  DSNT E THRU SW T02250189,,,,,,66.01,,NE,29.26,27.87,,Thunder
KIGQ,06/13/2017 23:35 UTC,29.93,71.96,65.84,81.11,8.05,30.0,,,,,,1.0,,,,10.0,,KIGQ 132335Z AUTO 03007KT 10SM CLR 22/19 A2993 RMK AO2 LTG DSNT E  AND S T02220188,,,,,,65.82,,NNE,29.28,27.91,,Clear
KIGQ,06/13/2017 23:55 UTC,29.92,70.7,64.4,80.51,4.61,340.0,,,,,,1.0,,0.04,,10.0,,KIGQ 132355Z AUTO 34004KT 10SM CLR 22/18 A2992 RMK AO2 LTG DSNT E  THRU SW 60004 T02150180 10303 20215,86.54,70.7,,,,64.38,,NNW,29.27,28.01,,Clear
KIGQ,06/14/2017 00:15 UTC,29.93,70.34,64.22,80.99,0.0,0.0,,,,,,1.0,,,,10.0,,KIGQ 140015Z AUTO 00000KT 10SM CLR 21/18 A2993 RMK AO2 LTG DSNT SE  AND S T02130179,,,,,,64.2,,N,29.28,28.04,,Clear
KIGQ,06/14/2017 00:35 UTC,29.93,70.88,64.76,81.03,0.0,0.0,,,,,,1.0,,,,10.0,,KIGQ 140035Z AUTO 00000KT 10SM CLR 22/18 A2993 RMK AO2 LTG DSNT SW  T02160182,,,,,,64.74,,N,29.28,28.0,,Clear
KIGQ,06/14/2017 00:55 UTC,29.93,75.2,67.46,76.95,8.05,180.0,,,,,,1.0,,,,10.0,,KIGQ 140055Z AUTO 18007KT 10SM CLR 24/20 A2993 RMK AO2 LTG DSNT S  T02400197,,,,,,67.45,,S,29.28,27.76,,Clear
KIGQ,06/14/2017 01:15 UTC,29.94,75.2,66.74,75.06,5.75,130.0,,13.0,,,,1102.0,,,,10.0,,KIGQ 140115Z AUTO 13005KT 10SM -RA SCT110 24/19 A2994 RMK AO2 LTG  DSNT S AND SW T02400193,,,,,,66.73,,SE,29.29,27.82,,Light Rain
KIGQ,06/14/2017 01:35 UTC,29.94,74.3,66.74,77.35,3.44,180.0,,13.0,,,,752.0,1003.0,,,10.0,,KIGQ 140135Z AUTO 18003KT 10SM -RA SCT075 BKN100 24/19 A2994 RMK AO2 LTG DSNT S AND SW T02350193,,,10000.0,,,66.73,,S,29.29,27.83,,Light Rain
KIGQ,06/14/2017 01:55 UTC,29.95,73.58,67.1,80.23,8.05,210.0,,13.0,1002.0,,,752.0,852.0,,,10.0,,KIGQ 140155Z AUTO 21007KT 10SM -RA SCT075 SCT085 SCT100 23/20  A2995 RMK AO2 LTG DSNT S T02310195,,,,,,67.09,,SSW,29.3,27.83,,Light Rain
KIGQ,06/14/2017 02:15 UTC,29.95,72.86,66.56,80.67,6.91,200.0,,13.0,,,,852.0,1102.0,,,10.0,,KIGQ 140215Z AUTO 20006KT 10SM -RA SCT085 SCT110 23/19 A2995 RMK AO2 LTG DSNT S T02270192,,,,,,66.54,,SSW,29.3,27.87,,Light Rain
KIGQ,06/14/2017 02:35 UTC,29.94,71.96,66.56,83.16,6.91,180.0,,13.0,,,,852.0,1002.0,,,10.0,,KIGQ 140235Z AUTO 18006KT 10SM -RA SCT085 SCT100 22/19 A2994 RMK AO2 T02220192,,,,,,66.55,,S,29.29,27.88,,Light Rain
KIGQ,06/14/2017 02:55 UTC,29.96,71.96,65.3,79.6,6.91,160.0,,,,,,1.0,,,,10.0,,KIGQ 140255Z AUTO 16006KT 10SM CLR 22/19 A2996 RMK AO2 LTG DSNT SE  T02220185,,,,,,65.28,,SSE,29.31,27.98,,Clear
KIGQ,06/14/2017 03:15 UTC,29.96,71.96,64.76,78.12,4.61,210.0,,,,,,1.0,,,,10.0,,KIGQ 140315Z AUTO 21004KT 10SM CLR 22/18 A2996 RMK AO2 LTG DSNT SE  T02220182,,,,,,64.74,,SSW,29.31,28.01,,Clear
KIGQ,06/14/2017 03:35 UTC,29.94,71.06,63.86,78.05,6.91,180.0,,,,,,1.0,,,,10.0,,KIGQ 140335Z AUTO 18006KT 10SM CLR 22/18 A2994 RMK AO2  T02170177,,,,,,63.84,,S,29.29,28.06,,Clear
KIGQ,06/14/2017 03:55 UTC,29.94,70.34,63.86,79.98,0.0,0.0,,,,,,902.0,,,,10.0,,KIGQ 140355Z AUTO 00000KT 10SM SCT090 21/18 A2994 RMK AO2 LTG DSNT  SE T02130177,,,,,,63.84,,N,29.29,28.07,,Partly Cloudy
KIGQ,06/14/2017 04:15 UTC,29.93,70.52,63.5,78.5,5.75,210.0,,,1204.0,,,802.0,903.0,,,10.0,,KIGQ 140415Z AUTO 21005KT 10SM SCT080 BKN090 OVC120 21/18 A2993 RMK AO2 T02140175,,,9000.0,,,63.48,,SSW,29.28,28.08,,Overcast
KIGQ,06/14/2017 04:35 UTC,29.94,71.06,62.6,74.68,5.75,220.0,,,954.0,,,703.0,803.0,,,10.0,,KIGQ 140435Z AUTO 22005KT 10SM BKN070 BKN080 OVC095 22/17 A2994 RMK AO2 LTG DSNT S T02170170,,,7000.0,,,62.58,,SW,29.29,28.13,,Overcast
KIGQ,06/14/2017 04:55 UTC,29.94,71.6,62.06,71.94,11.5,200.0,21.85,77.0,954.0,,,282.0,703.0,,,10.0,,KIGQ 140455Z AUTO 20010G19KT 10SM -TSRA SCT028 BKN070 OVC095 22/17  A2994 RMK AO2 LTG DSNT ALQS T02200167,,,7000.0,,,62.03,,SSW,29.29,28.16,,Light Rain/Thunderstorm
KIGQ,06/14/2017 05:15 UTC,29.93,70.7,61.7,73.23,9.22,150.0,,66.0,904.0,0.09,,342.0,703.0,,,7.0,,KIGQ 140515Z AUTO 15008KT 7SM TSRA SCT034 BKN070 OVC090 22/17  A2993 RMK AO2 LTG DSNT SW THRU NE P0009 T02150165,,,7000.0,,,61.67,,SSE,29.28,28.18,,Thunderstorm
KIGQ,06/14/2017 05:35 UTC,29.93,69.98,62.42,76.98,3.44,60.0,,13.0,1203.0,0.09,,652.0,1002.0,,,10.0,,KIGQ 140535Z AUTO 06003KT 10SM -RA SCT065 SCT100 BKN120 21/17  A2993 RMK AO2 LTG DSNT N AND NE P0009 T02110169,,,12000.0,,,62.39,,ENE,29.28,28.15,,Light Rain
KIGQ,06/14/2017 05:55 UTC,29.93,70.16,62.24,76.02,4.61,180.0,,17.0,,0.09,,1202.0,,0.09,,10.0,,KIGQ 140555Z AUTO 18004KT 10SM -DZ SCT120 21/17 A2993 RMK AO2 LTG  DSNT NE P0009 60009 T02120168 10241 20210 403050188,75.38,69.8,,86.9,65.84,62.21,,S,29.28,28.16,,Light Drizzle
KIGQ,06/14/2017 06:15 UTC,29.94,69.62,62.78,78.92,0.0,0.0,,,,,,1.0,,,,10.0,,KIGQ 140615Z AUTO 00000KT 10SM CLR 21/17 A2994 RMK AO2  T02090171,,,,,,62.75,,N,29.29,28.14,,Clear
KIGQ,06/14/2017 06:35 UTC,29.94,69.26,64.04,83.5,5.75,230.0,,,,,,1.0,,,,10.0,,KIGQ 140635Z AUTO 23005KT 10SM CLR 21/18 A2994 RMK AO2  T02070178,,,,,,64.02,,SW,29.29,28.07,,Clear
KIGQ,06/14/2017 06:55 UTC,29.95,68.18,63.86,86.1,3.44,200.0,,,,,,1.0,,,,10.0,,KIGQ 140655Z AUTO 20003KT 10SM CLR 20/18 A2995 RMK AO2  T02010177,,,,,,63.84,,SSW,29.3,28.11,,Clear
KIGQ,06/14/2017 07:15 UTC,29.94,69.08,63.68,82.97,3.44,220.0,,,,,,1.0,,,,10.0,,KIGQ 140715Z AUTO 22003KT 10SM CLR 21/18 A2994 RMK AO2  T02060176,,,,,,63.66,,SW,29.29,28.1,,Clear
KIGQ,06/14/2017 07:35 UTC,29.93,68.72,63.14,82.42,0.0,0.0,,,,,,1.0,,,,10.0,,KIGQ 140735Z AUTO 00000KT 10SM CLR 20/17 A2993 RMK AO2  T02040173,,,,,,63.12,,N,29.28,28.12,,Clear
KIGQ,06/14/2017 07:55 UTC,29.93,68.18,62.6,82.38,5.75,160.0,,,,,,1.0,,,,10.0,,KIGQ 140755Z AUTO 16005KT 10SM CLR 20/17 A2993 RMK AO2 LTG DSNT N  T02010170,,,,,,62.57,,SSE,29.28,28.16,,Clear
KIGQ,06/14/2017 08:15 UTC,29.93,68.0,62.78,83.42,3.44,180.0,,,,,,1.0,,,,10.0,,KIGQ 140815Z AUTO 18003KT 10SM CLR 20/17 A2993 RMK AO2 LTG DSNT N  T02000171,,,,,,62.76,,S,29.28,28.15,,Clear
KIGQ,06/14/2017 08:35 UTC,29.93,68.0,62.6,82.89,3.44,180.0,,,,,,1.0,,,,10.0,,KIGQ 140835Z AUTO 18003KT 10SM CLR 20/17 A2993 RMK AO2 LTG DSNT E  T02000170,,,,,,62.57,,S,29.28,28.16,,Clear
KIGQ,06/14/2017 08:55 UTC,29.93,67.82,62.78,83.94,5.75,160.0,,,,,,1.0,,,,10.0,,KIGQ 140855Z AUTO 16005KT 10SM CLR 20/17 A2993 RMK AO2 LTG DSNT N  T01990171,,,,,,62.76,,SSE,29.28,28.15,,Clear
KIGQ,06/14/2017 09:15 UTC,29.93,68.0,62.78,83.42,3.44,140.0,,,,,,1.0,,,,10.0,,KIGQ 140915Z AUTO 14003KT 10SM CLR 20/17 A2993 RMK AO2  T02000171,,,,,,62.76,,SE,29.28,28.15,,Clear
KIGQ,06/14/2017 09:35 UTC,29.93,67.46,62.6,84.45,0.0,0.0,,,,,,1.0,,,,10.0,,KIGQ 140935Z AUTO 00000KT 10SM CLR 20/17 A2993 RMK AO2 LTG DSNT SE  T01970170,,,,,,62.58,,N,29.28,28.17,,Clear
KIGQ,06/14/2017 09:55 UTC,29.93,67.28,62.78,85.51,3.44,160.0,,,,,,1.0,,,,10.0,,KIGQ 140955Z AUTO 16003KT 10SM CLR 20/17 A2993 RMK AO2  T01960171,,,,,,62.76,,SSE,29.28,28.16,,Clear
KIGQ,06/14/2017 10:15 UTC,29.94,66.38,62.6,87.65,3.44,150.0,,,,,,1.0,,,,10.0,,KIGQ 141015Z AUTO 15003KT 10SM CLR 19/17 A2994 RMK AO2  T01910170,,,,,,62.58,,SSE,29.29,28.19,,Clear
KIGQ,06/14/2017 10:35 UTC,29.95,67.46,62.96,85.52,0.0,0.0,,,,,,1.0,,,,10.0,,KIGQ 141035Z AUTO 00000KT 10SM CLR 20/17 A2995 RMK AO2  T01970172,,,,,,62.94,,N,29.3,28.17,,Clear
KIGQ,06/14/2017 10:55 UTC,29.95,68.0,63.14,84.48,3.44,140.0,,,,,,1.0,,,,10.0,,KIGQ 141055Z AUTO 14003KT 10SM CLR 20/17 A2995 RMK AO2  T02000173,,,,,,63.12,,SE,29.3,28.15,,Clear
KIGQ,06/14/2017 11:15 UTC,29.95,68.9,63.68,83.48,3.44,130.0,,,,,,1.0,,,,10.0,,KIGQ 141115Z AUTO 13003KT 10SM CLR 21/18 A2995 RMK AO2 LTG DSNT SE  T02050176,,,,,,63.66,,SE,29.3,28.11,,Clear
KIGQ,06/14/2017 11:35 UTC,29.96,69.98,64.04,81.48,5.75,230.0,,,,,,1.0,,,,10.0,,KIGQ 141135Z AUTO 23005KT 10SM CLR 21/18 A2996 RMK AO2  T02110178,,,,,,64.02,,SW,29.31,28.08,,Clear
KIGQ,06/14/2017 11:55 UTC,29.96,70.88,64.76,81.03,5.75,200.0,,,,,,1.0,,,0.13,10.0,,KIGQ 141155Z AUTO 20005KT 10SM CLR 22/18 A2996 RMK AO2 70013  T02160182 10216 20191,70.88,66.38,,,,64.74,,SSW,29.31,28.03,,Clear
KIGQ,06/14/2017 12:15 UTC,29.96,70.7,64.76,81.53,4.61,180.0,,,,,,1.0,,,,10.0,,KIGQ 141215Z AUTO 18004KT 10SM CLR 22/18 A2996 RMK AO2 LTG DSNT E  T02150182,,,,,,64.74,,S,29.31,28.03,,Clear
KIGQ,06/14/2017 12:35 UTC,29.96,72.5,66.2,80.65,5.75,190.0,,,,,,1.0,,,,10.0,,KIGQ 141235Z AUTO 19005KT 10SM CLR 23/19 A2996 RMK AO2  T02250190,,,,,,66.19,,S,29.31,27.91,,Clear
KIGQ,06/14/2017 12:55 UTC,29.96,74.3,66.2,75.92,6.91,210.0,,,,,,1.0,,,,10.0,,KIGQ 141255Z AUTO 21006KT 10SM CLR 24/19 A2996 RMK AO2  T02350190,,,,,,66.19,,SSW,29.31,27.89,,Clear
KIGQ,06/14/2017 13:15 UTC,29.95,74.3,66.56,76.87,8.05,190.0,,,,,,1.0,,,,10.0,,KIGQ 141315Z AUTO 19007KT 10SM CLR 24/19 A2995 RMK AO2  T02350192,,,,,,66.55,,S,29.3,27.86,,Clear
KIGQ,06/14/2017 13:35 UTC,29.95,74.66,66.92,76.9,9.22,210.0,,,,,,1.0,,,,10.0,,KIGQ 141335Z AUTO 21008KT 10SM CLR 24/19 A2995 RMK AO2  T02370194,,,,,,66.91,,SSW,29.3,27.83,,Clear
KIGQ,06/14/2017 13:55 UTC,29.96,77.36,68.36,73.88,10.36,210.0,,,,,,1.0,,,,10.0,,KIGQ 141355Z AUTO 21009KT 10SM CLR 25/20 A2996 RMK AO2  T02520202,,,,,,68.36,,SSW,29.31,27.7,,Clear
KIGQ,06/14/2017 14:15 UTC,29.95,79.88,69.08,69.71,11.5,200.0,,,,,,1.0,,,,10.0,,KIGQ 141415Z AUTO 20010KT 10SM CLR 27/21 A2995 RMK AO2 LTG DSNT E  T02660206,,,,,,69.09,,SSW,29.3,27.61,,Clear
KIGQ,06/14/2017 14:35 UTC,29.94,80.78,68.9,67.28,11.5,200.0,,,,,,1.0,,,,10.0,,KIGQ 141435Z AUTO 20010KT 10SM CLR 27/21 A2994 RMK AO2  T02710205,,,,,,68.91,,SSW,29.29,27.6,83.82,Clear
KIGQ,06/14/2017 14:55 UTC,29.93,81.32,69.26,66.93,9.22,200.0,,,,,,1.0,,,,10.0,,KIGQ 141455Z AUTO 20008KT 10SM CLR 27/21 A2993 RMK AO2  T02740207,,,,,,69.28,,SSW,29.28,27.55,84.64,Clear
KIGQ,06/14/2017 15:15 UTC,29.93,82.76,69.98,65.47,9.22,210.0,,,,,,1.0,,,,10.0,,KIGQ 141515Z AUTO 21008KT 10SM CLR 28/21 A2993 RMK AO2  T02820211,,,,,,70.01,,SSW,29.28,27.48,86.79,Clear
KIGQ,06/14/2017 15:35 UTC,29.93,84.02,69.98,62.87,9.22,220.0,,,,,,1.0,,,,10.0,,KIGQ 141535Z AUTO 22008KT 10SM CLR 29/21 A2993 RMK AO2  T02890211,,,,,,70.02,,SW,29.28,27.46,88.35,Clear
KIGQ,06/14/2017 15:55 UTC,29.92,84.02,69.98,62.87,9.22,170.0,,,,,,1.0,,,,10.0,,KIGQ 141555Z AUTO 17008KT 10SM CLR 29/21 A2992 RMK AO2  T02890211,,,,,,70.02,,S,29.27,27.45,88.35,Clear
KIGQ,06/14/2017 16:15 UTC,29.92,85.28,70.16,60.76,8.05,170.0,,,,,,1.0,,,,10.0,,KIGQ 141615Z AUTO 17007KT 10SM CLR 30/21 A2992 RMK AO2  T02960212,,,,,,70.21,,S,29.27,27.42,90.01,Clear
KIGQ,06/14/2017 16:35 UTC,29.92,85.28,69.8,60.02,8.05,170.0,,,,,,1.0,,,,10.0,,KIGQ 141635Z AUTO 17007KT 10SM CLR 30/21 A2992 RMK AO2  T02960210,,,,,,69.85,,S,29.27,27.45,89.76,Clear
KIGQ,06/14/2017 16:55 UTC,29.92,87.26,70.52,57.76,8.05,190.0,,,,,,1.0,,,,10.0,,KIGQ 141655Z AUTO 19007KT 10SM CLR 31/21 A2992 RMK AO2  T03070214,,,,,,70.59,,S,29.27,27.37,92.67,Clear
KIGQ,06/14/2017 17:15 UTC,29.92,86.0,68.9,56.88,8.05,190.0,,,,,,1.0,,,,10.0,,KIGQ 141715Z AUTO 19007KT 10SM CLR 30/21 A2992 RMK AO2  T03000205,,,,,,68.96,,S,29.27,27.51,90.01,Clear
KIGQ,06/14/2017 17:35 UTC,29.91,87.26,68.72,54.32,10.36,200.0,,,,,,402.0,,,,10.0,,KIGQ 141735Z AUTO 20009KT 10SM SCT040 31/20 A2991 RMK AO2  T03070204,,,,,,68.8,,SSW,29.26,27.5,91.35,Partly Cloudy
KIGQ,06/14/2017 17:55 UTC,29.9,89.42,68.36,50.12,9.22,200.0,24.16,5.0,,,,402.0,,,,10.0,,KIGQ 141755Z AUTO 20008G21KT 10SM VCTS SCT040 32/20 A2990 RMK AO2  LTG DSNT SE SW AND NW T03190202 10321 20215,89.78,70.7,,,,68.47,,SSW,29.25,27.5,93.58,Thunder
KIGQ,06/14/2017 18:15 UTC,29.89,84.74,70.34,62.2,8.05,190.0,,14.0,703.0,,,442.0,552.0,,,10.0,,KIGQ 141815Z AUTO 19007KT 10SM +RA SCT044 SCT055 BKN070 29/21  A2989 RMK AO2 LTG DSNT SW THRU N T02930213,,,7000.0,,,70.39,,S,29.24,27.39,89.47,Heavy Rain
KIGQ,06/14/2017 18:35 UTC,29.88,87.98,69.44,54.42,11.5,190.0,17.27,,653.0,,,432.0,503.0,,,10.0,,KIGQ 141835Z AUTO 19010G15KT 10SM SCT043 BKN050 BKN065 31/21 A2988 RMK AO2 LTG DSNT N SE AND SW T03110208,,,5000.0,,,69.53,,S,29.23,27.41,92.7,Mostly Cloudy
KIGQ,06/14/2017 18:55 UTC,29.87,87.44,69.8,56.04,9.22,170.0,,,,,,483.0,653.0,,,10.0,,KIGQ 141855Z AUTO 17008KT 10SM BKN048 BKN065 31/21 A2987 RMK AO2  LTG DSNT NE SW AND W T03080210,,,4800.0,,,69.88,,S,29.22,27.38,92.33,Mostly Cloudy
KIGQ,06/14/2017 19:15 UTC,29.87,86.9,69.8,57.0,6.91,160.0,,,854.0,,,453.0,503.0,,,10.0,,KIGQ 141915Z AUTO 16006KT 10SM BKN045 BKN050 OVC085 31/21 A2987 RMK AO2 LTG DSNT SW AND W T03050210,,,4500.0,,,69.87,,SSE,29.22,27.38,91.69,Overcast
KIGQ,06/14/2017 19:35 UTC,29.86,86.54,69.26,56.61,9.22,190.0,,5.0,803.0,,,452.0,503.0,,,10.0,,KIGQ 141935Z AUTO 19008KT 10SM TS SCT045 BKN050 BKN080 30/21 A2986 RMK AO2 LTG DSNT SE THRU NW T03030207,,,5000.0,,,69.33,,S,29.21,27.42,90.89,Thunder
KIGQ,06/14/2017 19:55 UTC,29.84,83.66,71.06,65.98,0.0,0.0,,,803.0,,,482.0,602.0,,,10.0,,KIGQ 141955Z AUTO 00000KT 10SM -VCTSRA SCT048 SCT060 BKN080 29/22  A2984 RMK AO2 LTG DSNT ALQS T02870217,,,8000.0,,,71.09,,N,29.19,27.29,88.57,Mostly Cloudy
KIGQ,06/14/2017 20:15 UTC,29.83,84.02,69.62,62.11,10.36,160.0,,,852.0,,,502.0,652.0,,,10.0,,KIGQ 142015Z AUTO 16009KT 10SM SCT050 SCT065 SCT085 29/21 A2983 RMK AO2 LTG DSNT ALQS T02890209,,,,,,69.66,,SSE,29.18,27.39,88.14,Partly Cloudy
KIGQ,06/14/2017 20:35 UTC,29.83,83.84,69.44,62.08,6.91,170.0,,5.0,,,,1.0,,,,10.0,,KIGQ 142035Z AUTO 17006KT 10SM TS CLR 29/21 A2983 RMK AO2 LTG DSNT  NE THRU S T02880208,,,,,,69.48,,S,29.18,27.41,87.81,Thunder
KIGQ,06/14/2017 20:55 UTC,29.86,79.7,63.5,57.81,13.8,190.0,,,,,,452.0,,,,10.0,,KIGQ 142055Z AUTO 19012KT 10SM SCT045 27/18 A2986 RMK AO2 LTG DSNT  SE S AND NW T02650175,,,,,,63.51,,S,29.21,27.9,,Partly Cloudy
KIGQ,06/14/2017 21:15 UTC,29.86,76.46,61.88,60.76,13.8,190.0,25.32,5.0,,,,452.0,,,,10.0,,KIGQ 142115Z AUTO 19012G22KT 10SM VCTS SCT045 25/17 A2986 RMK AO2  LTG DSNT SE AND S T02470166,,,,,,61.87,,S,29.21,28.03,,Thunder
KIGQ,06/14/2017 21:35 UTC,29.87,75.56,61.7,62.2,12.66,190.0,20.71,,,,,1.0,,,,10.0,,KIGQ 142135Z AUTO 19011G18KT 10SM CLR 24/17 A2987 RMK AO2 LTG DSNT  ALQS T02420165,,,,,,61.68,,S,29.22,28.06,,Clear
KIGQ,06/14/2017 21:55 UTC,29.86,74.48,61.88,64.89,14.97,180.0,,,,,,1102.0,,,,10.0,,KIGQ 142155Z AUTO 18013KT 10SM SCT110 24/17 A2986 RMK AO2 LTG DSNT  N SE AND S T02360166,,,,,,61.86,,S,29.21,28.06,,Partly Cloudy
KIGQ,06/14/2017 22:15 UTC,29.84,74.12,60.98,63.62,9.22,180.0,16.11,,,,,952.0,,,,10.0,,KIGQ 142215Z AUTO 18008G14KT 10SM SCT095 23/16 A2984 RMK AO2 LTG  DSNT ALQS T02340161,,,,,,60.96,,S,29.19,28.09,,Partly Cloudy
KIGQ,06/14/2017 22:35 UTC,29.83,74.3,60.44,62.04,6.91,170.0,,,,,,803.0,954.0,,,10.0,,KIGQ 142235Z AUTO 17006KT 10SM BKN080 OVC095 24/16 A2983 RMK AO2  LTG DSNT ALQS T02350158,,,8000.0,,,60.42,,S,29.18,28.11,,Overcast
KIGQ,06/14/2017 22:55 UTC,29.86,69.98,63.68,80.46,17.27,260.0,43.73,78.0,804.0,0.35,,93.0,243.0,,,1.25,,KIGQ 142255Z AUTO 26015G38KT 1 1/4SM +TSRA BKN009 BKN024 OVC080  21/18 A2986 RMK AO2 LTG DSNT ALQS P0035 T02110176,,,900.0,,,63.66,,W,29.21,28.0,,Heavy Rain/Thunderstorm
KIGQ,06/14/2017 23:15 UTC,29.89,70.7,61.52,72.77,14.97,250.0,23.02,5.0,1103.0,,,112.0,482.0,,,10.0,,KIGQ 142315Z AUTO 25013G20KT 10SM VCTS SCT011 SCT048 BKN110 22/16  A2989 RMK AO2 LTG DSNT ALQS T02150164,,,11000.0,,,61.49,,WSW,29.24,28.15,,Thunder
KIGQ,06/14/2017 23:35 UTC,29.91,70.16,62.78,77.48,10.36,290.0,21.85,5.0,1103.0,,,193.0,503.0,,,10.0,,KIGQ 142335Z AUTO 29009G19KT 10SM VCTS BKN019 BKN050 BKN110 21/17  A2991 RMK AO2 LTG DSNT ALQS T02120171,,,1900.0,,,62.75,,WNW,29.26,28.1,,Thunder
KIGQ,06/14/2017 23:55 UTC,29.9,69.62,64.4,83.52,5.75,20.0,,1.0,1204.0,0.01,,172.0,1003.0,0.37,,10.0,,KIGQ 142355Z AUTO 02005KT 10SM RA SCT017 BKN100 OVC120 21/18 A2990 RMK AO2 LTG DSNT E THRU S P0001 60037 T02090180 10316  20209,88.88,69.62,10000.0,,,64.38,,NNE,29.25,28.0,,Rain
KIGQ,06/15/2017 00:15 UTC,29.9,69.08,64.76,86.15,5.75,60.0,,,,0.02,,802.0,904.0,,,7.0,,KIGQ 150015Z AUTO 06005KT 7SM -VCTSRA SCT080 OVC090 21/18 A2990 RMK AO2 LTG DSNT E THRU SW P0002 T02060182,,,9000.0,,,64.74,,ENE,29.25,27.99,,Overcast
KIGQ,06/15/2017 00:35 UTC,29.91,68.9,65.3,88.33,0.0,0.0,,,,0.02,,802.0,953.0,,,10.0,,KIGQ 150035Z AUTO 00000KT 10SM -VCTSRA SCT080 BKN095 21/19 A2991 RMK AO2 LTG DSNT SE P0002 T02050185,,,9500.0,,,65.29,,N,29.26,27.97,,Mostly Cloudy
KIGQ,06/15/2017 00:55 UTC,29.91,69.26,65.84,88.9,3.44,100.0,,13.0,954.0,0.02,,652.0,802.0,,,10.0,,KIGQ 150055Z AUTO 10003KT 10SM -RA SCT065 SCT080 OVC095 21/19  A2991 RMK AO2 P0002 T02070188,,,9500.0,,,65.83,,E,29.26,27.93,,Light Rain
KIGQ,06/15/2017 01:15 UTC,29.91,68.9,65.84,90.0,6.91,120.0,,13.0,953.0,,,652.0,802.0,,,10.0,,KIGQ 150115Z AUTO 12006KT 10SM -RA SCT065 SCT080 BKN095 21/19  A2991 RMK AO2 LTG DSNT W T02050188,,,9500.0,,,65.83,,ESE,29.26,27.93,,Light Rain
KIGQ,06/15/2017 01:35 UTC,29.93,68.54,65.3,89.42,8.05,180.0,,,,,,702.0,952.0,,,10.0,,KIGQ 150135Z AUTO 18007KT 10SM SCT070 SCT095 20/19 A2993 RMK AO2  LTG DSNT W T02030185,,,,,,65.29,,S,29.28,27.99,,Partly Cloudy
KIGQ,06/15/2017 01:55 UTC,29.93,68.36,64.94,88.86,12.66,210.0,16.11,,1203.0,,,702.0,802.0,,,10.0,,KIGQ 150155Z AUTO 21011G14KT 10SM SCT070 SCT080 BKN120 20/18 A2993 RMK AO2 LTG DSNT S THRU NW T02020183,,,12000.0,,,64.93,,SSW,29.28,28.02,,Mostly Cloudy
KIGQ,06/15/2017 02:15 UTC,29.9,68.0,64.4,88.29,5.75,160.0,,13.0,1204.0,,,602.0,953.0,,,10.0,,KIGQ 150215Z AUTO 16005KT 10SM -RA SCT060 BKN095 OVC120 20/18  A2990 RMK AO2 T02000180,,,9500.0,,,64.39,,SSE,29.25,28.02,,Light Rain
KIGQ,06/15/2017 02:35 UTC,29.88,67.82,64.4,88.83,8.05,170.0,,,,,,952.0,,,,10.0,,KIGQ 150235Z AUTO 17007KT 10SM SCT095 20/18 A2988 RMK AO2  T01990180,,,,,,64.38,,S,29.23,28.01,,Partly Cloudy
KIGQ,06/15/2017 02:55 UTC,29.87,67.46,64.04,88.82,4.61,170.0,,,,,0.02,1.0,,,,10.0,,KIGQ 150255Z AUTO 17004KT 10SM CLR 20/18 A2987 RMK AO2 60002  T01970178,,,,,,64.02,,S,29.22,28.02,,Clear
KIGQ,06/15/2017 03:15 UTC,29.86,67.1,63.86,89.36,0.0,0.0,,,,,,1.0,,,,10.0,,KIGQ 150315Z AUTO 00000KT 10SM CLR 20/18 A2986 RMK AO2  T01950177,,,,,,63.84,,N,29.21,28.03,,Clear
KIGQ,06/15/2017 03:35 UTC,29.87,67.1,63.68,88.8,4.61,170.0,,,,,,1.0,,,,10.0,,KIGQ 150335Z AUTO 17004KT 10SM CLR 20/18 A2987 RMK AO2 LTG DSNT SW  T01950176,,,,,,63.66,,S,29.22,28.05,,Clear
KIGQ,06/15/2017 03:55 UTC,29.87,67.1,63.5,88.24,4.61,170.0,,,,,,1.0,,,,10.0,,KIGQ 150355Z AUTO 17004KT 10SM CLR 20/18 A2987 RMK AO2  T01950175,,,,,,63.48,,S,29.22,28.06,,Clear
KIGQ,06/15/2017 04:15 UTC,29.87,67.28,63.68,88.25,4.61,160.0,,,,,,1.0,,,,10.0,,KIGQ 150415Z AUTO 16004KT 10SM CLR 20/18 A2987 RMK AO2  T01960176,,,,,,63.66,,SSE,29.22,28.05,,Clear
KIGQ,06/15/2017 04:35 UTC,29.87,67.1,63.86,89.36,4.61,160.0,,,,,,1.0,,,,10.0,,KIGQ 150435Z AUTO 16004KT 10SM CLR 20/18 A2987 RMK AO2  T01950177,,,,,,63.84,,SSE,29.22,28.04,,Clear
KIGQ,06/15/2017 04:55 UTC,29.87,67.46,64.04,88.82,3.44,160.0,,,,,,1.0,,,,10.0,,KIGQ 150455Z AUTO 16003KT 10SM CLR 20/18 A2987 RMK AO2 LTG DSNT NW  T01970178,,,,,,64.02,,SSE,29.22,28.02,,Clear
KIGQ,06/15/2017 05:15 UTC,29.87,67.46,64.4,89.94,5.75,190.0,,,,,,1003.0,,,,10.0,,KIGQ 150515Z AUTO 19005KT 10SM BKN100 20/18 A2987 RMK AO2 LTG DSNT  NW T01970180,,,10000.0,,,64.39,,S,29.22,28.0,,Mostly Cloudy
KIGQ,06/15/2017 05:35 UTC,29.89,68.0,64.4,88.29,12.66,200.0,,,1004.0,,,503.0,803.0,,,10.0,,KIGQ 150535Z AUTO 20011KT 10SM BKN050 BKN080 OVC100 20/18 A2989 RMK AO2 LTG DSNT SW AND W T02000180,,,5000.0,,,64.39,,SSW,29.24,28.01,,Overcast
KIGQ,06/15/2017 05:55 UTC,29.88,68.0,64.4,88.29,10.36,200.0,19.57,5.0,1003.0,,,503.0,803.0,0.02,,10.0,,KIGQ 150555Z AUTO 20009G17KT 10SM VCTS BKN050 BKN080 BKN100 20/18  A2988 RMK AO2 LTG DSNT SW THRU NW 60002 T02000180 10209 20193  403210191,69.62,66.74,5000.0,89.78,66.38,64.39,,SSW,29.23,28.0,,Thunder
KIGQ,06/15/2017 06:15 UTC,29.89,68.54,64.4,86.67,4.61,180.0,,77.0,,,,603.0,754.0,,,10.0,,KIGQ 150615Z AUTO 18004KT 10SM -TSRA BKN060 OVC075 20/18 A2989 RMK AO2 LTG DSNT ALQS T02030180,,,6000.0,,,64.38,,S,29.24,28.01,,Light Rain/Thunderstorm
KIGQ,06/15/2017 06:35 UTC,29.87,68.36,64.4,87.2,11.5,190.0,,13.0,1104.0,,,602.0,653.0,,,10.0,,KIGQ 150635Z AUTO 19010KT 10SM -RA SCT060 BKN065 OVC110 20/18  A2987 RMK AO2 LTG DSNT NE THRU S T02020180,,,6500.0,,,64.38,,S,29.22,27.99,,Light Rain
KIGQ,06/15/2017 06:55 UTC,29.83,68.36,64.4,87.2,12.66,190.0,,,1103.0,,,552.0,752.0,,,10.0,,KIGQ 150655Z AUTO 19011KT 10SM SCT055 SCT075 BKN110 20/18 A2983 RMK AO2 LTG DSNT SE AND S T02020180,,,11000.0,,,64.38,,S,29.18,27.95,,Mostly Cloudy
KIGQ,06/15/2017 07:15 UTC,29.82,68.18,64.4,87.74,11.5,170.0,,,,,,802.0,,,,10.0,,KIGQ 150715Z AUTO 17010KT 10SM SCT080 20/18 A2982 RMK AO2  T02010180,,,,,,64.38,,S,29.17,27.94,,Partly Cloudy
KIGQ,06/15/2017 07:35 UTC,29.84,68.54,64.58,87.21,6.91,210.0,,,,,,132.0,,,,10.0,,KIGQ 150735Z AUTO 21006KT 10SM SCT013 20/18 A2984 RMK AO2 LTG DSNT  NE T02030181,,,,,,64.56,,SSW,29.19,27.95,,Partly Cloudy
KIGQ,06/15/2017 07:55 UTC,29.83,68.36,64.58,87.75,8.05,200.0,,,,,,113.0,,,,10.0,,KIGQ 150755Z AUTO 20007KT 10SM BKN011 20/18 A2983 RMK AO2  T02020181,,,1100.0,,,64.56,,SSW,29.18,27.94,,Mostly Cloudy
KIGQ,06/15/2017 08:15 UTC,29.84,68.0,64.58,88.84,5.75,230.0,,,,,,113.0,,,,10.0,,KIGQ 150815Z AUTO 23005KT 10SM BKN011 20/18 A2984 RMK AO2  T02000181,,,1100.0,,,64.56,,SW,29.19,27.95,,Mostly Cloudy
KIGQ,06/15/2017 08:35 UTC,29.85,68.0,64.4,88.29,6.91,230.0,,,,,,1202.0,,,,10.0,,KIGQ 150835Z AUTO 23006KT 10SM SCT120 20/18 A2985 RMK AO2  T02000180,,,,,,64.39,,SW,29.2,27.97,,Partly Cloudy
KIGQ,06/15/2017 08:55 UTC,29.85,68.36,63.68,85.04,9.22,220.0,,,,,,1202.0,,,,10.0,,KIGQ 150855Z AUTO 22008KT 10SM SCT120 20/18 A2985 RMK AO2  T02020176,,,,,,63.66,,SW,29.2,28.01,,Partly Cloudy
KIGQ,06/15/2017 09:15 UTC,29.85,68.36,63.32,83.97,6.91,220.0,,,,,,1.0,,,,10.0,,KIGQ 150915Z AUTO 22006KT 10SM CLR 20/17 A2985 RMK AO2 LTG DSNT NE  T02020174,,,,,,63.3,,SW,29.2,28.03,,Clear
KIGQ,06/15/2017 09:35 UTC,29.87,68.72,63.14,82.42,8.05,220.0,,5.0,,,,1202.0,,,,10.0,,KIGQ 150935Z AUTO 22007KT 10SM VCTS SCT120 20/17 A2987 RMK AO2  T02040173,,,,,,63.12,,SW,29.22,28.06,,Thunder
KIGQ,06/15/2017 09:55 UTC,29.86,68.54,62.96,82.41,6.91,220.0,,,,,,1203.0,,,,10.0,,KIGQ 150955Z AUTO 22006KT 10SM BKN120 20/17 A2986 RMK AO2 LTG DSNT  NE T02030172,,,12000.0,,,62.94,,SW,29.21,28.06,,Mostly Cloudy
KIGQ,06/15/2017 10:15 UTC,29.85,67.64,63.14,85.53,5.75,160.0,,,,,,1203.0,,,,10.0,,KIGQ 151015Z AUTO 16005KT 10SM BKN120 20/17 A2985 RMK AO2 LTG DSNT  NW T01980173,,,12000.0,,,63.12,,SSE,29.2,28.05,,Mostly Cloudy
KIGQ,06/15/2017 10:35 UTC,29.85,67.64,63.14,85.53,3.44,150.0,,,,,,1103.0,,,,10.0,,KIGQ 151035Z AUTO 15003KT 10SM BKN110 20/17 A2985 RMK AO2  T01980173,,,11000.0,,,63.12,,SSE,29.2,28.05,,Mostly Cloudy
KIGQ,06/15/2017 10:55 UTC,29.85,66.92,62.6,86.03,4.61,180.0,,,,,,1102.0,,,,10.0,,KIGQ 151055Z AUTO 18004KT 10SM SCT110 19/17 A2985 RMK AO2  T01940170,,,,,,62.58,,S,29.2,28.09,,Partly Cloudy
KIGQ,06/15/2017 11:15 UTC,29.86,66.38,62.78,88.21,4.61,170.0,,,,,,1.0,,,,10.0,,KIGQ 151115Z AUTO 17004KT 10SM CLR 19/17 A2986 RMK AO2  T01910171,,,,,,62.76,,S,29.21,28.1,,Clear
KIGQ,06/15/2017 11:35 UTC,29.85,68.72,63.32,82.94,4.61,140.0,,,,,,1.0,,,,10.0,,KIGQ 151135Z AUTO 14004KT 10SM CLR 20/17 A2985 RMK AO2  T02040174,,,,,,63.3,,SE,29.2,28.03,,Clear
KIGQ,06/15/2017 11:55 UTC,29.86,69.44,63.5,81.44,4.61,170.0,,,,,,852.0,,,0.39,10.0,,KIGQ 151155Z AUTO 17004KT 10SM SCT085 21/18 A2986 RMK AO2 70039  T02080175 10208 20191,69.44,66.38,,,,63.48,,S,29.21,28.02,,Partly Cloudy
KIGQ,06/15/2017 12:15 UTC,29.87,69.44,63.68,81.95,3.44,200.0,,,,,,853.0,,,,10.0,,KIGQ 151215Z AUTO 20003KT 10SM BKN085 21/18 A2987 RMK AO2 LTG DSNT  N T02080176,,,8500.0,,,63.66,,SSW,29.22,28.02,,Mostly Cloudy
KIGQ,06/15/2017 12:35 UTC,29.87,70.16,63.14,78.47,6.91,210.0,,,,,,854.0,,,,10.0,,KIGQ 151235Z AUTO 21006KT 10SM OVC085 21/17 A2987 RMK AO2  T02120173,,,8500.0,,,63.12,,SSW,29.22,28.04,,Overcast
KIGQ,06/15/2017 12:55 UTC,29.87,70.7,62.96,76.56,8.05,210.0,,,,,,653.0,854.0,,,10.0,,KIGQ 151255Z AUTO 21007KT 10SM BKN065 OVC085 22/17 A2987 RMK AO2  T02150172,,,6500.0,,,62.94,,SSW,29.22,28.05,,Overcast
KIGQ,06/15/2017 13:15 UTC,29.88,70.7,62.42,75.12,10.36,210.0,,13.0,,,,754.0,,,,10.0,,KIGQ 151315Z AUTO 21009KT 10SM -RA OVC075 22/17 A2988 RMK AO2  T02150169,,,7500.0,,,62.39,,SSW,29.23,28.09,,Light Rain
KIGQ,06/15/2017 13:35 UTC,29.87,72.32,63.14,72.93,8.05,220.0,,,,,,753.0,854.0,,,10.0,,KIGQ 151335Z AUTO 22007KT 10SM BKN075 OVC085 22/17 A2987 RMK AO2  T02240173,,,7500.0,,,63.12,,SW,29.22,28.02,,Overcast
KIGQ,06/15/2017 13:55 UTC,29.88,73.94,63.5,69.95,10.36,240.0,16.11,,,,,753.0,,,,10.0,,KIGQ 151355Z AUTO 24009G14KT 10SM BKN075 23/18 A2988 RMK AO2  T02330175,,,7500.0,,,63.48,,WSW,29.23,27.99,,Mostly Cloudy
KIGQ,06/15/2017 14:15 UTC,29.87,74.48,62.42,66.14,11.5,240.0,16.11,,,,,752.0,1002.0,,,10.0,,KIGQ 151415Z AUTO 24010G14KT 10SM SCT075 SCT100 24/17 A2987 RMK AO2 T02360169,,,,,,62.4,,WSW,29.22,28.03,,Partly Cloudy
KIGQ,06/15/2017 14:35 UTC,29.86,75.74,63.68,66.29,10.36,230.0,,,,,,802.0,1003.0,,,10.0,,KIGQ 151435Z AUTO 23009KT 10SM SCT080 BKN100 24/18 A2986 RMK AO2  T02430176,,,10000.0,,,63.67,,SW,29.21,27.93,,Mostly Cloudy
KIGQ,06/15/2017 14:55 UTC,29.86,76.1,62.78,63.47,13.8,230.0,,,,,,803.0,953.0,,,10.0,,KIGQ 151455Z AUTO 23012KT 10SM BKN080 BKN095 25/17 A2986 RMK AO2  T02450171,,,8000.0,,,62.77,,SW,29.21,27.98,,Mostly Cloudy
KIGQ,06/15/2017 15:15 UTC,29.86,77.36,63.86,63.22,10.36,250.0,16.11,,,,,802.0,,,,10.0,,KIGQ 151515Z AUTO 25009G14KT 10SM SCT080 25/18 A2986 RMK AO2  T02520177,,,,,,63.86,,WSW,29.21,27.9,,Partly Cloudy
KIGQ,06/15/2017 15:35 UTC,29.85,77.54,63.5,62.06,11.5,250.0,,,,,,653.0,,,,10.0,,KIGQ 151535Z AUTO 25010KT 10SM BKN065 25/18 A2985 RMK AO2  T02530175,,,6500.0,,,63.5,,WSW,29.2,27.91,,Mostly Cloudy
KIGQ,06/15/2017 15:55 UTC,29.85,77.18,63.68,63.2,10.36,250.0,,,852.0,,,652.0,752.0,,,10.0,,KIGQ 151555Z AUTO 25009KT 10SM SCT065 SCT075 SCT085 25/18 A2985 RMK AO2 T02510176,,,,,,63.68,,WSW,29.2,27.91,,Partly Cloudy
KIGQ,06/15/2017 16:15 UTC,29.85,77.0,64.22,64.79,11.5,250.0,,,,,,602.0,852.0,,,10.0,,KIGQ 151615Z AUTO 25010KT 10SM SCT060 SCT085 25/18 A2985 RMK AO2  T02500179,,,,,,64.22,,WSW,29.2,27.87,,Partly Cloudy
KIGQ,06/15/2017 16:35 UTC,29.85,78.62,65.3,63.78,8.05,240.0,,,,,,262.0,602.0,,,10.0,,KIGQ 151635Z AUTO 24007KT 10SM SCT026 SCT060 26/19 A2985 RMK AO2  T02590185,,,,,,65.31,,WSW,29.2,27.78,,Partly Cloudy
KIGQ,06/15/2017 16:55 UTC,29.85,77.18,64.76,65.63,10.36,240.0,,,,,,263.0,,,,10.0,,KIGQ 151655Z AUTO 24009KT 10SM BKN026 25/18 A2985 RMK AO2  T02510182,,,2600.0,,,64.76,,WSW,29.2,27.84,,Mostly Cloudy
KIGQ,06/15/2017 17:15 UTC,29.84,79.7,66.56,64.31,11.5,260.0,,,,,,263.0,,,,10.0,,KIGQ 151715Z AUTO 26010KT 10SM BKN026 27/19 A2984 RMK AO2  T02650192,,,2600.0,,,66.57,,W,29.19,27.68,,Mostly Cloudy
KIGQ,06/15/2017 17:35 UTC,29.84,79.88,66.38,63.53,6.91,240.0,,,,,,1.0,,,,10.0,,KIGQ 151735Z AUTO 24006KT 10SM CLR 27/19 A2984 RMK AO2  T02660191,,,,,,66.39,,WSW,29.19,27.69,,Clear
KIGQ,06/15/2017 17:55 UTC,29.85,80.24,66.56,63.18,5.75,270.0,,,,,,1.0,,,,10.0,,KIGQ 151755Z AUTO 27005KT 10SM CLR 27/19 A2985 RMK AO2 T02680192  10268 20207,80.24,69.26,,,,66.57,,W,29.2,27.68,82.48,Clear
KIGQ,06/15/2017 18:15 UTC,29.85,80.78,66.56,62.08,3.44,280.0,,,,,,1.0,,,,10.0,,KIGQ 151815Z AUTO 28003KT 10SM CLR 27/19 A2985 RMK AO2  T02710192,,,,,,66.58,,W,29.2,27.67,83.06,Clear
KIGQ,06/15/2017 18:35 UTC,29.85,82.76,66.74,58.59,6.91,250.0,,,,,,312.0,,,,10.0,,KIGQ 151835Z AUTO 25006KT 10SM SCT031 28/19 A2985 RMK AO2  T02820193,,,,,,66.78,,WSW,29.2,27.64,85.25,Partly Cloudy
KIGQ,06/15/2017 18:55 UTC,29.84,82.04,65.84,58.13,0.0,0.0,,,,,,352.0,442.0,,,10.0,,KIGQ 151855Z AUTO 00000KT 10SM SCT035 SCT044 28/19 A2984 RMK AO2  T02780188,,,,,,65.87,,N,29.19,27.7,84.15,Partly Cloudy
KIGQ,06/15/2017 19:15 UTC,29.84,83.48,64.4,52.78,4.61,270.0,,,,,,412.0,,,,10.0,,KIGQ 151915Z AUTO 27004KT 10SM SCT041 29/18 A2984 RMK AO2  T02860180,,,,,,64.45,,W,29.19,27.78,85.04,Partly Cloudy
KIGQ,06/15/2017 19:35 UTC,29.84,85.1,62.24,46.46,3.44,290.0,,,,,,1.0,,,,10.0,,KIGQ 151935Z AUTO 29003KT 10SM CLR 30/17 A2984 RMK AO2  T02950168,,,,,,62.31,,WNW,29.19,27.9,85.76,Clear
KIGQ,06/15/2017 19:55 UTC,29.84,86.18,63.14,46.33,6.91,280.0,,,,,,502.0,552.0,,,10.0,,KIGQ 151955Z AUTO 28006KT 10SM SCT050 SCT055 30/17 A2984 RMK AO2  T03010173,,,,,,63.22,,W,29.19,27.83,87.15,Partly Cloudy
KIGQ,06/15/2017 20:15 UTC,29.84,87.26,61.7,42.56,9.22,250.0,,,802.0,,,502.0,552.0,,,10.0,,KIGQ 152015Z AUTO 25008KT 10SM SCT050 SCT055 SCT080 31/17 A2984 RMK AO2 T03070165,,,,,,61.81,,WSW,29.19,27.92,87.61,Partly Cloudy
KIGQ,06/15/2017 20:35 UTC,29.83,87.08,61.7,42.8,4.61,290.0,,,,,,1.0,,,,10.0,,KIGQ 152035Z AUTO 29004KT 10SM CLR 31/17 A2983 RMK AO2  T03060165,,,,,,61.8,,WNW,29.18,27.91,87.43,Clear
KIGQ,06/15/2017 20:55 UTC,29.83,87.26,60.08,40.18,5.75,280.0,,,,,,1.0,,,,10.0,,KIGQ 152055Z AUTO 28005KT 10SM CLR 31/16 A2983 RMK AO2  T03070156,,,,,,60.19,,W,29.18,28.0,87.0,Clear
KIGQ,06/15/2017 21:15 UTC,29.83,87.8,58.82,37.77,9.22,270.0,,,,,,702.0,,,,10.0,,KIGQ 152115Z AUTO 27008KT 10SM SCT070 31/15 A2983 RMK AO2  T03100149,,,,,,58.94,,W,29.18,28.07,87.09,Partly Cloudy
KIGQ,06/15/2017 21:35 UTC,29.83,87.26,58.1,37.44,4.61,280.0,,,,,,1.0,,,,10.0,,KIGQ 152135Z AUTO 28004KT 10SM CLR 31/15 A2983 RMK AO2  T03070145,,,,,,58.22,,W,29.18,28.12,86.36,Clear
KIGQ,06/15/2017 21:55 UTC,29.82,88.16,57.38,35.46,5.75,290.0,,,,,,1.0,,,,10.0,,KIGQ 152155Z AUTO 29005KT 10SM CLR 31/14 A2982 RMK AO2  T03120141,,,,,,57.51,,WNW,29.17,28.14,86.99,Clear
KIGQ,06/15/2017 22:15 UTC,29.82,88.7,57.38,34.86,6.91,270.0,,,,,,1.0,,,,10.0,,KIGQ 152215Z AUTO 27006KT 10SM CLR 32/14 A2982 RMK AO2  T03150141,,,,,,57.52,,W,29.17,28.14,87.49,Clear
KIGQ,06/15/2017 22:35 UTC,29.82,88.88,55.4,32.27,9.22,270.0,,,,,,952.0,,,,10.0,,KIGQ 152235Z AUTO 27008KT 10SM SCT095 32/13 A2982 RMK AO2  T03160130,,,,,,55.55,,W,29.17,28.24,87.12,Partly Cloudy
KIGQ,06/15/2017 22:55 UTC,29.81,86.36,54.14,33.38,9.22,280.0,,,,,,752.0,,,,10.0,,KIGQ 152255Z AUTO 28008KT 10SM SCT075 30/12 A2981 RMK AO2  T03020123,,,,,,54.25,,W,29.16,28.31,84.6,Partly Cloudy
KIGQ,06/15/2017 23:15 UTC,29.82,88.16,55.04,32.59,3.44,290.0,,,,,,1.0,,,,10.0,,KIGQ 152315Z AUTO 29003KT 10SM CLR 31/13 A2982 RMK AO2  T03120128,,,,,,55.19,,WNW,29.17,28.26,86.38,Clear
KIGQ,06/15/2017 23:35 UTC,29.82,87.8,55.22,33.17,3.44,300.0,,,,,,902.0,,,,10.0,,KIGQ 152335Z AUTO 30003KT 10SM SCT090 31/13 A2982 RMK AO2  T03100129,,,,,,55.35,,WNW,29.17,28.26,86.09,Partly Cloudy
KIGQ,06/15/2017 23:55 UTC,29.82,87.26,56.66,35.55,4.61,300.0,,,,,,802.0,,,,10.0,,KIGQ 152355Z AUTO 30004KT 10SM SCT080 31/14 A2982 RMK AO2  T03070137 10316 20268,88.88,80.24,,,,56.78,,WNW,29.17,28.19,85.96,Partly Cloudy
KIGQ,06/16/2017 00:15 UTC,29.82,86.36,59.18,40.04,0.0,0.0,,,,,,1.0,,,,10.0,,KIGQ 160015Z AUTO 00000KT 10SM CLR 30/15 A2982 RMK AO2  T03020151,,,,,,59.28,,N,29.17,28.05,85.87,Clear
KIGQ,06/16/2017 00:35 UTC,29.82,85.28,61.7,45.32,4.61,320.0,,,,,,1.0,,,,10.0,,KIGQ 160035Z AUTO 32004KT 10SM CLR 30/17 A2982 RMK AO2  T02960165,,,,,,61.77,,NW,29.17,27.91,85.73,Clear
KIGQ,06/16/2017 00:55 UTC,29.82,85.28,60.08,42.79,0.0,0.0,,,,,,1.0,,,,10.0,,KIGQ 160055Z AUTO 00000KT 10SM CLR 30/16 A2982 RMK AO2  T02960156,,,,,,60.16,,N,29.17,28.01,85.18,Clear
KIGQ,06/16/2017 01:15 UTC,29.82,82.94,61.52,48.54,3.44,10.0,,,,,,1.0,,,,10.0,,KIGQ 160115Z AUTO 01003KT 10SM CLR 28/16 A2982 RMK AO2  T02830164,,,,,,61.56,,N,29.17,27.95,83.57,Clear
KIGQ,06/16/2017 01:35 UTC,29.82,81.5,62.42,52.5,3.44,50.0,,,,,,1.0,,,,10.0,,KIGQ 160135Z AUTO 05003KT 10SM CLR 28/17 A2982 RMK AO2  T02750169,,,,,,62.45,,NE,29.17,27.91,82.58,Clear
KIGQ,06/16/2017 01:55 UTC,29.82,80.78,61.88,52.73,0.0,0.0,,,,,,1.0,,,,10.0,,KIGQ 160155Z AUTO 00000KT 10SM CLR 27/17 A2982 RMK AO2  T02710166,,,,,,61.91,,N,29.17,27.95,81.84,Clear
KIGQ,06/16/2017 02:15 UTC,29.82,75.02,62.96,66.2,3.44,140.0,,,,,,1.0,,,,10.0,,KIGQ 160215Z AUTO 14003KT 10SM CLR 24/17 A2982 RMK AO2  T02390172,,,,,,62.94,,SE,29.17,27.94,,Clear
KIGQ,06/16/2017 02:35 UTC,29.82,74.48,62.96,67.41,0.0,0.0,,,,,,1.0,,,,10.0,,KIGQ 160235Z AUTO 00000KT 10SM CLR 24/17 A2982 RMK AO2  T02360172,,,,,,62.94,,N,29.17,27.95,,Clear
KIGQ,06/16/2017 02:55 UTC,29.82,73.22,62.96,70.31,0.0,0.0,,,,,,1.0,,,,10.0,,KIGQ 160255Z AUTO 00000KT 10SM CLR 23/17 A2982 RMK AO2  T02290172,,,,,,62.94,,N,29.17,27.97,,Clear
KIGQ,06/16/2017 03:15 UTC,29.82,72.5,62.78,71.58,4.61,170.0,,,,,,1.0,,,,10.0,,KIGQ 160315Z AUTO 17004KT 10SM CLR 23/17 A2982 RMK AO2  T02250171,,,,,,62.76,,S,29.17,27.98,,Clear
KIGQ,06/16/2017 03:35 UTC,29.82,71.6,64.4,78.09,4.61,190.0,,,,,,1.0,,,,10.0,,KIGQ 160335Z AUTO 19004KT 10SM CLR 22/18 A2982 RMK AO2  T02200180,,,,,,64.38,,S,29.17,27.9,,Clear
KIGQ,06/16/2017 03:55 UTC,29.83,71.6,64.76,79.08,3.44,190.0,,,,,,1.0,,,,10.0,,KIGQ 160355Z AUTO 19003KT 10SM CLR 22/18 A2983 RMK AO2  T02200182,,,,,,64.74,,S,29.18,27.88,,Clear
KIGQ,06/16/2017 04:15 UTC,29.83,72.14,65.3,79.12,3.44,190.0,,,,,,1.0,,,,10.0,,KIGQ 160415Z AUTO 19003KT 10SM CLR 22/19 A2983 RMK AO2  T02230185,,,,,,65.28,,S,29.18,27.84,,Clear
KIGQ,06/16/2017 04:35 UTC,29.83,72.32,65.3,78.64,3.44,200.0,,,,,,1.0,,,,10.0,,KIGQ 160435Z AUTO 20003KT 10SM CLR 22/19 A2983 RMK AO2 LTG DSNT NW  T02240185,,,,,,65.28,,SSW,29.18,27.84,,Clear
KIGQ,06/16/2017 04:55 UTC,29.83,72.32,65.3,78.64,3.44,200.0,,,,,,1.0,,,,10.0,,KIGQ 160455Z AUTO 20003KT 10SM CLR 22/19 A2983 RMK AO2  T02240185,,,,,,65.28,,SSW,29.18,27.84,,Clear
KIGQ,06/16/2017 05:15 UTC,29.83,71.6,65.3,80.58,5.75,220.0,,,,,,1.0,,,,10.0,,KIGQ 160515Z AUTO 22005KT 10SM CLR 22/19 A2983 RMK AO2 LTG DSNT W  T02200185,,,,,,65.28,,SW,29.18,27.85,,Clear
KIGQ,06/16/2017 05:35 UTC,29.85,72.86,65.48,77.71,8.05,210.0,,,,,,1002.0,,,,10.0,,KIGQ 160535Z AUTO 21007KT 10SM SCT100 23/19 A2985 RMK AO2  T02270186,,,,,,65.46,,SSW,29.2,27.84,,Partly Cloudy
KIGQ,06/16/2017 05:55 UTC,29.86,74.84,64.76,70.93,11.5,260.0,,,1104.0,,,602.0,1003.0,,,10.0,,KIGQ 160555Z AUTO 26010KT 10SM SCT060 BKN100 OVC110 24/18 A2986 RMK AO2 LTG DSNT N T02380182 10306 20216 403160191,87.08,70.88,10000.0,88.88,66.38,64.75,,W,29.21,27.88,,Overcast
KIGQ,06/16/2017 06:15 UTC,29.86,75.92,60.8,59.54,10.36,290.0,19.57,,1203.0,,,602.0,902.0,,,10.0,,KIGQ 160615Z AUTO 29009G17KT 10SM SCT060 SCT090 BKN120 24/16 A2986 RMK AO2 LTG DSNT SW T02440160,,,12000.0,,,60.79,,WNW,29.21,28.1,,Mostly Cloudy
KIGQ,06/16/2017 06:35 UTC,29.86,75.2,59.0,57.2,8.05,290.0,,5.0,,,,1202.0,,,,10.0,,KIGQ 160635Z AUTO 29007KT 10SM VCTS SCT120 24/15 A2986 RMK AO2 LTG  DSNT NE AND SW T02400150,,,,,,58.98,,WNW,29.21,28.21,,Thunder
KIGQ,06/16/2017 06:55 UTC,29.89,75.2,58.28,55.74,17.27,260.0,26.46,,,,,703.0,803.0,,,10.0,,KIGQ 160655Z AUTO 26015G23KT 10SM BKN070 BKN080 24/15 A2989 RMK AO2 LTG DSNT W T02400146,,,7000.0,,,58.26,,W,29.24,28.28,,Mostly Cloudy
KIGQ,06/16/2017 07:15 UTC,29.88,69.98,60.8,72.7,12.66,250.0,,1.0,953.0,,,652.0,803.0,,,10.0,,KIGQ 160715Z AUTO 25011KT 10SM RA SCT065 BKN080 BKN095 21/16 A2988 RMK AO2 LTG DSNT SW T02110160,,,8000.0,,,60.77,,WSW,29.23,28.19,,Rain
KIGQ,06/16/2017 07:35 UTC,29.9,67.46,61.16,80.26,11.5,250.0,,1.0,1204.0,0.01,,752.0,802.0,,,10.0,,KIGQ 160735Z AUTO 25010KT 10SM RA SCT075 SCT080 OVC120 20/16 A2990 RMK AO2 LTG DSNT NE P0001 T01970162,,,12000.0,,,61.13,,WSW,29.25,28.22,,Rain
KIGQ,06/16/2017 07:55 UTC,29.87,66.2,61.52,84.91,10.36,280.0,,13.0,,0.01,,1204.0,,,,10.0,,KIGQ 160755Z AUTO 28009KT 10SM -RA OVC120 19/16 A2987 RMK AO2  P0001 T01900164,,,12000.0,,,61.5,,W,29.22,28.18,,Light Rain
KIGQ,06/16/2017 08:15 UTC,29.86,65.84,61.16,84.88,5.75,290.0,,,,,,1104.0,,,,10.0,,KIGQ 160815Z AUTO 29005KT 10SM OVC110 19/16 A2986 RMK AO2 LTG DSNT  W T01880162,,,11000.0,,,61.13,,WNW,29.21,28.2,,Overcast
KIGQ,06/16/2017 08:35 UTC,29.86,67.1,61.16,81.27,5.75,300.0,,1.0,,,,1104.0,,,,10.0,,KIGQ 160835Z AUTO 30005KT 10SM RA OVC110 20/16 A2986 RMK AO2  T01950162,,,11000.0,,,61.13,,WNW,29.21,28.18,,Rain
KIGQ,06/16/2017 08:55 UTC,29.82,66.56,62.24,86.01,4.61,80.0,,13.0,,,0.01,1104.0,,,,10.0,,KIGQ 160855Z AUTO 08004KT 10SM -RA OVC110 19/17 A2982 RMK AO2  60001 T01920168,,,11000.0,,,62.22,,E,29.17,28.09,,Light Rain
KIGQ,06/16/2017 09:15 UTC,29.82,66.56,62.78,87.66,0.0,0.0,,,,,,1202.0,,,,10.0,,KIGQ 160915Z AUTO 00000KT 10SM SCT120 19/17 A2982 RMK AO2  T01920171,,,,,,62.76,,N,29.17,28.06,,Partly Cloudy
KIGQ,06/16/2017 09:35 UTC,29.83,67.46,60.8,79.25,8.05,270.0,,,,,,1.0,,,,10.0,,KIGQ 160935Z AUTO 27007KT 10SM CLR 20/16 A2983 RMK AO2 LTG DSNT W  T01970160,,,,,,60.77,,W,29.18,28.17,,Clear
KIGQ,06/16/2017 09:55 UTC,29.85,66.38,60.98,82.78,9.22,260.0,,,,,,1.0,,,,10.0,,KIGQ 160955Z AUTO 26008KT 10SM CLR 19/16 A2985 RMK AO2  T01910161,,,,,,60.95,,W,29.2,28.19,,Clear
KIGQ,06/16/2017 10:15 UTC,29.84,66.74,60.98,81.76,8.05,260.0,,,,,,1.0,,,,10.0,,KIGQ 161015Z AUTO 26007KT 10SM CLR 19/16 A2984 RMK AO2  T01930161,,,,,,60.95,,W,29.19,28.18,,Clear
KIGQ,06/16/2017 10:35 UTC,29.86,66.74,60.98,81.76,5.75,240.0,,,,,,1.0,,,,10.0,,KIGQ 161035Z AUTO 24005KT 10SM CLR 19/16 A2986 RMK AO2  T01930161,,,,,,60.95,,WSW,29.21,28.2,,Clear
KIGQ,06/16/2017 10:55 UTC,29.86,66.56,61.16,82.8,8.05,240.0,,,,,,1.0,,,,7.0,,KIGQ 161055Z AUTO 24007KT 7SM CLR 19/16 A2986 RMK AO2  T01920162,,,,,,61.13,,WSW,29.21,28.19,,Clear
KIGQ,06/16/2017 11:15 UTC,29.88,67.64,60.08,76.77,12.66,260.0,16.11,,,,,1.0,,,,10.0,,KIGQ 161115Z AUTO 26011G14KT 10SM CLR 20/16 A2988 RMK AO2  T01980156,,,,,,60.04,,W,29.23,28.26,,Clear
KIGQ,06/16/2017 11:35 UTC,29.9,67.82,59.36,74.37,19.57,270.0,29.93,13.0,1202.0,,,652.0,1002.0,,,10.0,,KIGQ 161135Z AUTO 27017G26KT 10SM -RA SCT065 SCT100 SCT120 20/15  A2990 RMK AO2 T01990152,,,,,,59.32,,W,29.25,28.31,,Light Rain
KIGQ,06/16/2017 11:55 UTC,29.91,67.1,59.72,77.22,18.41,270.0,26.46,13.0,1003.0,,,552.0,652.0,0.01,0.01,10.0,,KIGQ 161155Z AUTO 27016G23KT 10SM -RA SCT055 SCT065 BKN100 20/15  A2991 RMK AO2 60001 70001 T01950154 10245 20188,76.1,65.84,10000.0,,,59.69,,W,29.26,28.31,,Light Rain
KIGQ,06/16/2017 12:15 UTC,29.89,66.38,59.9,79.67,11.5,280.0,17.27,13.0,,,,652.0,1103.0,,,10.0,,KIGQ 161215Z AUTO 28010G15KT 10SM -RA SCT065 BKN110 19/16 A2989 RMK AO2 T01910155,,,11000.0,,,59.87,,W,29.24,28.29,,Light Rain
KIGQ,06/16/2017 12:35 UTC,29.89,66.56,59.9,79.18,8.05,270.0,,13.0,1103.0,,,502.0,752.0,,,10.0,,KIGQ 161235Z AUTO 27007KT 10SM -RA SCT050 SCT075 BKN110 19/16  A2989 RMK AO2 T01920155,,,11000.0,,,59.87,,W,29.24,28.29,,Light Rain
KIGQ,06/16/2017 12:55 UTC,29.89,66.38,60.8,82.26,3.44,260.0,,1.0,,,,1104.0,,,,10.0,,KIGQ 161255Z AUTO 26003KT 10SM RA OVC110 19/16 A2989 RMK AO2  T01910160,,,11000.0,,,60.77,,W,29.24,28.24,,Rain
KIGQ,06/16/2017 13:15 UTC,29.88,66.74,61.16,82.28,0.0,0.0,,13.0,,,,752.0,1104.0,,,10.0,,KIGQ 161315Z AUTO 00000KT 10SM -RA SCT075 OVC110 19/16 A2988 RMK AO2 T01930162,,,11000.0,,,61.13,,N,29.23,28.21,,Light Rain
KIGQ,06/16/2017 13:35 UTC,29.86,67.82,61.7,80.8,5.75,160.0,,,,,,1203.0,,,,10.0,,KIGQ 161335Z AUTO 16005KT 10SM BKN120 20/17 A2986 RMK AO2  T01990165,,,12000.0,,,61.67,,SSE,29.21,28.14,,Mostly Cloudy
KIGQ,06/16/2017 13:55 UTC,29.84,68.72,62.06,79.35,4.61,130.0,,13.0,1103.0,,,292.0,472.0,,,10.0,,KIGQ 161355Z AUTO 13004KT 10SM -RA SCT029 SCT047 BKN110 20/17  A2984 RMK AO2 T02040167,,,11000.0,,,62.03,,SE,29.19,28.09,,Light Rain
KIGQ,06/16/2017 14:15 UTC,29.82,69.98,62.6,77.47,4.61,150.0,,,,,,1102.0,,,,10.0,,KIGQ 161415Z AUTO 15004KT 10SM SCT110 21/17 A2982 RMK AO2  T02110170,,,,,,62.57,,SSE,29.17,28.03,,Partly Cloudy
KIGQ,06/16/2017 14:35 UTC,29.83,72.5,63.68,73.88,8.05,190.0,,,,,,1102.0,,,,10.0,,KIGQ 161435Z AUTO 19007KT 10SM SCT110 23/18 A2983 RMK AO2  T02250176,,,,,,63.66,,S,29.18,27.94,,Partly Cloudy
KIGQ,06/16/2017 14:55 UTC,29.83,72.68,63.68,73.43,8.05,190.0,,,,,,1.0,,,,10.0,,KIGQ 161455Z AUTO 19007KT 10SM CLR 23/18 A2983 RMK AO2  T02260176,,,,,,63.66,,S,29.18,27.94,,Clear
KIGQ,06/16/2017 15:15 UTC,29.83,73.76,63.5,70.37,9.22,200.0,,,,,,1.0,,,,10.0,,KIGQ 161515Z AUTO 20008KT 10SM CLR 23/18 A2983 RMK AO2  T02320175,,,,,,63.48,,SSW,29.18,27.94,,Clear
KIGQ,06/16/2017 15:35 UTC,29.83,73.04,63.5,72.09,9.22,200.0,,,,,,952.0,1202.0,,,10.0,,KIGQ 161535Z AUTO 20008KT 10SM SCT095 SCT120 23/18 A2983 RMK AO2  T02280175,,,,,,63.48,,SSW,29.18,27.95,,Partly Cloudy
KIGQ,06/16/2017 15:55 UTC,29.84,72.5,63.5,73.41,5.75,220.0,,,,,,802.0,1104.0,,,10.0,,KIGQ 161555Z AUTO 22005KT 10SM SCT080 OVC110 23/18 A2984 RMK AO2  T02250175,,,11000.0,,,63.48,,SW,29.19,27.96,,Overcast
KIGQ,06/16/2017 16:15 UTC,29.84,72.86,64.22,74.38,5.75,190.0,,,,,,1204.0,,,,10.0,,KIGQ 161615Z AUTO 19005KT 10SM OVC120 23/18 A2984 RMK AO2  T02270179,,,12000.0,,,64.2,,S,29.19,27.91,,Overcast
KIGQ,06/16/2017 16:35 UTC,29.84,72.86,63.86,73.45,9.22,210.0,,,,,,1204.0,,,,10.0,,KIGQ 161635Z AUTO 21008KT 10SM OVC120 23/18 A2984 RMK AO2  T02270177,,,12000.0,,,63.84,,SSW,29.19,27.94,,Overcast
KIGQ,06/16/2017 16:55 UTC,29.84,73.58,64.22,72.6,3.44,240.0,,,,,,1104.0,,,,10.0,,KIGQ 161655Z AUTO 24003KT 10SM OVC110 23/18 A2984 RMK AO2  T02310179,,,11000.0,,,64.2,,WSW,29.19,27.9,,Overcast
KIGQ,06/16/2017 17:15 UTC,29.85,75.74,65.3,70.14,8.05,180.0,,,1103.0,,,552.0,702.0,,,10.0,,KIGQ 161715Z AUTO 18007KT 10SM SCT055 SCT070 BKN110 24/19 A2985 RMK AO2 T02430185,,,11000.0,,,65.29,,S,29.2,27.82,,Mostly Cloudy
KIGQ,06/16/2017 17:35 UTC,29.84,77.18,64.58,65.22,8.05,170.0,,,,,,1.0,,,,10.0,,KIGQ 161735Z AUTO 17007KT 10SM CLR 25/18 A2984 RMK AO2  T02510181,,,,,,64.58,,S,29.19,27.84,,Clear
KIGQ,06/16/2017 17:55 UTC,29.84,78.08,63.32,60.58,8.05,190.0,,,,,,1.0,,,,10.0,,KIGQ 161755Z AUTO 19007KT 10SM CLR 26/17 A2984 RMK AO2 T02560174  10257 20191,78.26,66.38,,,,63.32,,S,29.19,27.91,,Clear
KIGQ,06/16/2017 18:15 UTC,29.83,78.8,63.32,59.17,6.91,180.0,,,,,,1.0,,,,10.0,,KIGQ 161815Z AUTO 18006KT 10SM CLR 26/17 A2983 RMK AO2  T02600174,,,,,,63.33,,S,29.18,27.89,,Clear
KIGQ,06/16/2017 18:35 UTC,29.83,80.96,62.24,53.09,9.22,200.0,,,,,,1.0,,,,10.0,,KIGQ 161835Z AUTO 20008KT 170V230 10SM CLR 27/17 A2983 RMK AO2  T02720168,,,,,,62.27,,SSW,29.18,27.93,82.08,Clear
KIGQ,06/16/2017 18:55 UTC,29.83,81.32,62.24,52.47,6.91,210.0,,,,,,1.0,,,,10.0,,KIGQ 161855Z AUTO 21006KT 10SM CLR 27/17 A2983 RMK AO2  T02740168,,,,,,62.27,,SSW,29.18,27.93,82.38,Clear
KIGQ,06/16/2017 19:15 UTC,29.82,82.22,61.34,49.37,8.05,250.0,,,,,,1.0,,,,10.0,,KIGQ 161915Z AUTO 25007KT 10SM CLR 28/16 A2982 RMK AO2  T02790163,,,,,,61.38,,WSW,29.17,27.97,82.91,Clear
KIGQ,06/16/2017 19:35 UTC,29.83,82.76,62.06,49.76,9.22,220.0,,,,,,1202.0,,,,10.0,,KIGQ 161935Z AUTO 22008KT 10SM SCT120 28/17 A2983 RMK AO2  T02820167,,,,,,62.1,,SW,29.18,27.93,83.58,Partly Cloudy
KIGQ,06/16/2017 19:55 UTC,29.82,82.94,62.06,49.48,5.75,210.0,9.22,,,,,1.0,,,,10.0,,KIGQ 161955Z AUTO 21005G08KT 10SM CLR 28/17 A2982 RMK AO2  T02830167,,,,,,62.11,,SSW,29.17,27.91,83.74,Clear
KIGQ,06/16/2017 20:15 UTC,29.81,84.74,62.24,47.0,10.36,210.0,16.11,,,,,462.0,,,,10.0,,KIGQ 162015Z AUTO 21009G14KT 10SM SCT046 29/17 A2981 RMK AO2  T02930168,,,,,,62.31,,SSW,29.16,27.88,85.42,Partly Cloudy
KIGQ,06/16/2017 20:35 UTC,29.81,83.48,60.8,46.51,6.91,210.0,17.27,,,,,552.0,,,,10.0,,KIGQ 162035Z AUTO 21006G15KT 10SM SCT055 29/16 A2981 RMK AO2  T02860160,,,,,,60.86,,SSW,29.16,27.98,83.83,Partly Cloudy
KIGQ,06/16/2017 20:55 UTC,29.81,84.74,61.7,46.11,9.22,240.0,,,,,,502.0,,,,10.0,,KIGQ 162055Z AUTO 24008KT 10SM SCT050 29/17 A2981 RMK AO2  T02930165,,,,,,61.77,,WSW,29.16,27.91,85.23,Partly Cloudy
KIGQ,06/16/2017 21:15 UTC,29.8,84.38,62.6,48.15,8.05,210.0,,,,,,502.0,,,,10.0,,KIGQ 162115Z AUTO 21007KT 10SM SCT050 29/17 A2980 RMK AO2  T02910170,,,,,,62.66,,SSW,29.15,27.85,85.22,Partly Cloudy
KIGQ,06/16/2017 21:35 UTC,29.79,84.02,62.24,48.09,8.05,190.0,16.11,,,,,1.0,,,,10.0,,KIGQ 162135Z AUTO 19007G14KT 10SM CLR 29/17 A2979 RMK AO2  T02890168,,,,,,62.3,,S,29.14,27.86,84.76,Clear
KIGQ,06/16/2017 21:55 UTC,29.78,84.02,62.78,49.01,6.91,200.0,,,,,,1.0,,,,10.0,,KIGQ 162155Z AUTO 20006KT 10SM CLR 29/17 A2978 RMK AO2 LTG DSNT SW  T02890171,,,,,,62.83,,SSW,29.13,27.82,84.95,Clear
KIGQ,06/16/2017 22:15 UTC,29.77,83.66,62.24,48.65,9.22,200.0,,,,,,1.0,,,,10.0,,KIGQ 162215Z AUTO 20008KT 10SM CLR 29/17 A2977 RMK AO2  T02870168,,,,,,62.29,,SSW,29.12,27.85,84.43,Clear
KIGQ,06/16/2017 22:35 UTC,29.76,84.2,61.7,46.91,9.22,200.0,,,,,,1.0,,,,10.0,,KIGQ 162235Z AUTO 20008KT 10SM CLR 29/17 A2976 RMK AO2  T02900165,,,,,,61.76,,SSW,29.11,27.86,84.74,Clear
KIGQ,06/16/2017 22:55 UTC,29.75,84.38,61.52,46.35,9.22,180.0,,,,,,1.0,,,,10.0,,KIGQ 162255Z AUTO 18008KT 10SM CLR 29/16 A2975 RMK AO2  T02910164,,,,,,61.58,,S,29.1,27.86,84.84,Clear
KIGQ,06/16/2017 23:15 UTC,29.75,84.2,62.06,47.51,8.05,210.0,,,,,,1.0,,,,10.0,,KIGQ 162315Z AUTO 21007KT 10SM CLR 29/17 A2975 RMK AO2  T02900167,,,,,,62.12,,SSW,29.1,27.83,84.86,Clear
KIGQ,06/16/2017 23:35 UTC,29.75,83.84,62.6,48.99,8.05,180.0,,,,,,1.0,,,,10.0,,KIGQ 162335Z AUTO 18007KT 10SM CLR 29/17 A2975 RMK AO2  T02880170,,,,,,62.66,,S,29.1,27.8,84.72,Clear
KIGQ,06/16/2017 23:55 UTC,29.74,83.48,62.96,50.19,8.05,190.0,,,,,,1.0,,,,10.0,,KIGQ 162355Z AUTO 19007KT 10SM CLR 29/17 A2974 RMK AO2 T02860172  10294 20254,84.92,77.72,,,,63.01,,S,29.09,27.77,84.51,Clear
KIGQ,06/17/2017 00:15 UTC,29.74,82.4,63.5,52.96,6.91,170.0,,,,,,1.0,,,,10.0,,KIGQ 170015Z AUTO 17006KT 10SM CLR 28/18 A2974 RMK AO2  T02800175,,,,,,63.54,,S,29.09,27.75,83.7,Clear
KIGQ,06/17/2017 00:35 UTC,29.74,82.4,62.6,51.31,8.05,170.0,,,,,,1.0,,,,10.0,,KIGQ 170035Z AUTO 17007KT 10SM CLR 28/17 A2974 RMK AO2  T02800170,,,,,,62.64,,S,29.09,27.81,83.42,Clear
KIGQ,06/17/2017 00:55 UTC,29.75,80.6,63.5,56.14,4.61,170.0,,,,,,1.0,,,,10.0,,KIGQ 170055Z AUTO 17004KT 10SM CLR 27/18 A2975 RMK AO2  T02700175,,,,,,63.52,,S,29.1,27.78,82.06,Clear
KIGQ,06/17/2017 01:15 UTC,29.75,79.34,63.68,58.87,3.44,150.0,,,,,,652.0,,,,10.0,,KIGQ 170115Z AUTO 15003KT 10SM SCT065 26/18 A2975 RMK AO2  T02630176,,,,,,63.69,,SSE,29.1,27.78,,Partly Cloudy
KIGQ,06/17/2017 01:35 UTC,29.75,79.52,63.68,58.52,4.61,150.0,,,,,,652.0,,,,10.0,,KIGQ 170135Z AUTO 15004KT 10SM SCT065 26/18 A2975 RMK AO2  T02640176,,,,,,63.69,,SSE,29.1,27.78,,Partly Cloudy
KIGQ,06/17/2017 01:55 UTC,29.74,78.8,63.86,60.3,5.75,150.0,,,,,,652.0,,,,10.0,,KIGQ 170155Z AUTO 15005KT 10SM SCT065 26/18 A2974 RMK AO2  T02600177,,,,,,63.87,,SSE,29.09,27.76,,Partly Cloudy
KIGQ,06/17/2017 02:15 UTC,29.74,78.62,63.86,60.65,6.91,170.0,,,,,,652.0,,,,10.0,,KIGQ 170215Z AUTO 17006KT 10SM SCT065 26/18 A2974 RMK AO2  T02590177,,,,,,63.86,,S,29.09,27.77,,Partly Cloudy
KIGQ,06/17/2017 02:35 UTC,29.74,77.54,64.04,63.24,8.05,170.0,,,,,,1.0,,,,10.0,,KIGQ 170235Z AUTO 17007KT 10SM CLR 25/18 A2974 RMK AO2  T02530178,,,,,,64.04,,S,29.09,27.77,,Clear
KIGQ,06/17/2017 02:55 UTC,29.74,76.28,64.22,66.35,6.91,170.0,,,,,,1.0,,,,10.0,,KIGQ 170255Z AUTO 17006KT 10SM CLR 25/18 A2974 RMK AO2  T02460179,,,,,,64.21,,S,29.09,27.77,,Clear
KIGQ,06/17/2017 03:15 UTC,29.74,75.74,63.86,66.71,9.22,170.0,,,,,,1.0,,,,10.0,,KIGQ 170315Z AUTO 17008KT 10SM CLR 24/18 A2974 RMK AO2  T02430177,,,,,,63.85,,S,29.09,27.8,,Clear
KIGQ,06/17/2017 03:35 UTC,29.72,74.84,64.4,70.04,6.91,170.0,,,,,,1.0,,,,10.0,,KIGQ 170335Z AUTO 17006KT 10SM CLR 24/18 A2972 RMK AO2  T02380180,,,,,,64.38,,S,29.07,27.76,,Clear
KIGQ,06/17/2017 03:55 UTC,29.71,74.3,64.4,71.32,6.91,170.0,,,,,,1.0,,,,10.0,,KIGQ 170355Z AUTO 17006KT 10SM CLR 24/18 A2971 RMK AO2  T02350180,,,,,,64.39,,S,29.06,27.75,,Clear
KIGQ,06/17/2017 04:15 UTC,29.71,73.76,63.86,71.26,5.75,180.0,,,,,,1.0,,,,10.0,,KIGQ 170415Z AUTO 18005KT 10SM CLR 23/18 A2971 RMK AO2  T02320177,,,,,,63.84,,S,29.06,27.79,,Clear
KIGQ,06/17/2017 04:35 UTC,29.69,73.4,63.86,72.13,10.36,170.0,,,,,,1.0,,,,10.0,,KIGQ 170435Z AUTO 17009KT 10SM CLR 23/18 A2969 RMK AO2  T02300177,,,,,,63.84,,S,29.04,27.78,,Clear
KIGQ,06/17/2017 04:55 UTC,29.71,73.04,64.4,74.39,6.91,190.0,,,,,,1.0,,,,10.0,,KIGQ 170455Z AUTO 19006KT 10SM CLR 23/18 A2971 RMK AO2  T02280180,,,,,,64.38,,S,29.06,27.77,,Clear
KIGQ,06/17/2017 05:15 UTC,29.72,72.5,64.4,75.76,8.05,190.0,,,,,,1.0,,,,10.0,,KIGQ 170515Z AUTO 19007KT 10SM CLR 23/18 A2972 RMK AO2 LTG DSNT W  T02250180,,,,,,64.38,,S,29.07,27.78,,Clear
KIGQ,06/17/2017 05:35 UTC,29.71,72.5,64.76,76.71,8.05,180.0,,,,,,1.0,,,,10.0,,KIGQ 170535Z AUTO 18007KT 10SM CLR 23/18 A2971 RMK AO2  T02250182,,,,,,64.74,,S,29.06,27.75,,Clear
KIGQ,06/17/2017 05:55 UTC,29.71,72.68,65.3,77.7,9.22,190.0,,,,,,1.0,,,,10.0,,KIGQ 170555Z AUTO 19008KT 10SM CLR 23/19 A2971 RMK AO2 T02260185  10285 20225 402940188,83.3,72.5,,84.92,65.84,65.28,,S,29.06,27.71,,Clear
KIGQ,06/17/2017 06:15 UTC,29.71,73.04,65.48,77.24,6.91,190.0,,,,,,1.0,,,,10.0,,KIGQ 170615Z AUTO 19006KT 10SM CLR 23/19 A2971 RMK AO2  T02280186,,,,,,65.46,,S,29.06,27.7,,Clear
KIGQ,06/17/2017 06:35 UTC,29.71,73.4,65.66,76.79,10.36,200.0,,,,,,1.0,,,,10.0,,KIGQ 170635Z AUTO 20009KT 10SM CLR 23/19 A2971 RMK AO2  T02300187,,,,,,65.64,,SSW,29.06,27.68,,Clear
KIGQ,06/17/2017 06:55 UTC,29.7,73.04,65.66,77.73,10.36,190.0,,,,,,1.0,,,,10.0,,KIGQ 170655Z AUTO 19009KT 10SM CLR 23/19 A2970 RMK AO2  T02280187,,,,,,65.65,,S,29.05,27.68,,Clear
KIGQ,06/17/2017 07:15 UTC,29.7,73.4,65.48,76.31,9.22,200.0,,,,,,1.0,,,,10.0,,KIGQ 170715Z AUTO 20008KT 10SM CLR 23/19 A2970 RMK AO2  T02300186,,,,,,65.46,,SSW,29.05,27.68,,Clear
KIGQ,06/17/2017 07:35 UTC,29.69,72.86,65.48,77.71,6.91,200.0,,,,,,1.0,,,,10.0,,KIGQ 170735Z AUTO 20006KT 10SM CLR 23/19 A2969 RMK AO2  T02270186,,,,,,65.46,,SSW,29.04,27.68,,Clear
KIGQ,06/17/2017 07:55 UTC,29.69,72.86,65.66,78.2,6.91,200.0,,,,,,1.0,,,,10.0,,KIGQ 170755Z AUTO 20006KT 10SM CLR 23/19 A2969 RMK AO2  T02270187,,,,,,65.64,,SSW,29.04,27.67,,Clear
KIGQ,06/17/2017 08:15 UTC,29.69,72.68,66.2,80.16,6.91,200.0,,,,,,1.0,,,,10.0,,KIGQ 170815Z AUTO 20006KT 10SM CLR 23/19 A2969 RMK AO2  T02260190,,,,,,66.19,,SSW,29.04,27.64,,Clear
KIGQ,06/17/2017 08:35 UTC,29.69,72.14,66.38,82.14,6.91,200.0,,,,,,1002.0,,,,10.0,,KIGQ 170835Z AUTO 20006KT 10SM SCT100 22/19 A2969 RMK AO2  T02230191,,,,,,66.36,,SSW,29.04,27.63,,Partly Cloudy
KIGQ,06/17/2017 08:55 UTC,29.68,72.5,66.56,81.66,8.05,190.0,,,,,,1103.0,,,,10.0,,KIGQ 170855Z AUTO 19007KT 10SM BKN110 23/19 A2968 RMK AO2  T02250192,,,11000.0,,,66.55,,S,29.03,27.6,,Mostly Cloudy
KIGQ,06/17/2017 09:15 UTC,29.67,72.68,66.92,82.18,10.36,180.0,,,,,,1102.0,,,,10.0,,KIGQ 170915Z AUTO 18009KT 10SM SCT110 23/19 A2967 RMK AO2  T02260194,,,,,,66.91,,S,29.02,27.57,,Partly Cloudy
KIGQ,06/17/2017 09:35 UTC,29.66,72.86,66.92,81.68,6.91,190.0,,,,,,1202.0,,,,10.0,,KIGQ 170935Z AUTO 19006KT 10SM SCT120 23/19 A2966 RMK AO2  T02270194,,,,,,66.91,,S,29.02,27.57,,Partly Cloudy
KIGQ,06/17/2017 09:55 UTC,29.67,72.68,66.92,82.18,5.75,200.0,,,,,,1202.0,,,,10.0,,KIGQ 170955Z AUTO 20005KT 10SM SCT120 23/19 A2967 RMK AO2  T02260194,,,,,,66.91,,SSW,29.02,27.57,,Partly Cloudy
KIGQ,06/17/2017 10:15 UTC,29.68,72.68,66.74,81.67,9.22,210.0,,,,,,1202.0,,,,10.0,,KIGQ 171015Z AUTO 21008KT 10SM SCT120 23/19 A2968 RMK AO2  T02260193,,,,,,66.73,,SSW,29.03,27.59,,Partly Cloudy
KIGQ,06/17/2017 10:35 UTC,29.68,72.86,66.74,81.18,8.05,230.0,,,,,,1.0,,,,10.0,,KIGQ 171035Z AUTO 23007KT 10SM CLR 23/19 A2968 RMK AO2  T02270193,,,,,,66.73,,SW,29.03,27.59,,Clear
KIGQ,06/17/2017 10:55 UTC,29.69,73.04,66.74,80.69,5.75,220.0,,,,,,423.0,503.0,,,10.0,,KIGQ 171055Z AUTO 22005KT 10SM BKN042 BKN050 23/19 A2969 RMK AO2  LTG DSNT NE T02280193,,,4200.0,,,66.73,,SW,29.04,27.6,,Mostly Cloudy
KIGQ,06/17/2017 11:15 UTC,29.69,72.86,67.1,82.19,8.05,210.0,,,,,,422.0,502.0,,,10.0,,KIGQ 171115Z AUTO 21007KT 10SM SCT042 SCT050 23/20 A2969 RMK AO2  T02270195,,,,,,67.09,,SSW,29.04,27.57,,Partly Cloudy
KIGQ,06/17/2017 11:35 UTC,29.68,72.86,67.1,82.19,8.05,200.0,,,,,,1.0,,,,10.0,,KIGQ 171135Z AUTO 20007KT 10SM CLR 23/20 A2968 RMK AO2  T02270195,,,,,,67.09,,SSW,29.03,27.56,,Clear
KIGQ,06/17/2017 11:55 UTC,29.68,72.86,66.74,81.18,5.75,210.0,,,,,,432.0,,,,10.0,,KIGQ 171155Z AUTO 21005KT 10SM SCT043 23/19 A2968 RMK AO2  T02270193 10230 20223,73.4,72.14,,,,66.73,,SSW,29.03,27.59,,Partly Cloudy
KIGQ,06/17/2017 12:15 UTC,29.69,73.04,67.1,81.69,3.44,310.0,,,704.0,,,433.0,493.0,,,10.0,,KIGQ 171215Z AUTO 31003KT 10SM BKN043 BKN049 OVC070 23/20 A2969 RMK AO2 T02280195,,,4300.0,,,67.09,,NW,29.04,27.57,,Overcast
KIGQ,06/17/2017 12:35 UTC,29.68,73.58,66.92,79.73,0.0,0.0,,,,,,492.0,702.0,,,10.0,,KIGQ 171235Z AUTO 00000KT 10SM SCT049 SCT070 23/19 A2968 RMK AO2  T02310194,,,,,,66.91,,N,29.03,27.57,,Partly Cloudy
KIGQ,06/17/2017 12:55 UTC,29.67,73.76,67.28,80.24,3.44,170.0,,,,,,1.0,,,,10.0,,KIGQ 171255Z AUTO 17003KT 10SM CLR 23/20 A2967 RMK AO2  T02320196,,,,,,67.27,,S,29.02,27.53,,Clear
KIGQ,06/17/2017 13:15 UTC,29.67,74.48,67.28,78.33,9.22,190.0,,,,,,1.0,,,,10.0,,KIGQ 171315Z AUTO 19008KT 10SM CLR 24/20 A2967 RMK AO2  T02360196,,,,,,67.27,,S,29.02,27.52,,Clear
KIGQ,06/17/2017 13:35 UTC,29.66,75.2,67.1,76.0,9.22,190.0,,,,,,1.0,,,,10.0,,KIGQ 171335Z AUTO 19008KT 10SM CLR 24/20 A2966 RMK AO2  T02400195,,,,,,67.09,,S,29.02,27.52,,Clear
KIGQ,06/17/2017 13:55 UTC,29.66,76.1,67.28,74.22,10.36,200.0,,,,,,1.0,,,,10.0,,KIGQ 171355Z AUTO 20009KT 10SM CLR 25/20 A2966 RMK AO2  T02450196,,,,,,67.27,,SSW,29.02,27.5,,Clear
KIGQ,06/17/2017 14:15 UTC,29.66,77.36,67.46,71.63,16.11,220.0,21.85,,,,,1.0,,,,10.0,,KIGQ 171415Z AUTO 22014G19KT 190V260 10SM CLR 25/20 A2966 RMK AO2  T02520197,,,,,,67.46,,SW,29.02,27.47,,Clear
KIGQ,06/17/2017 14:35 UTC,29.67,77.72,66.92,69.48,14.97,210.0,24.16,,,,,1.0,,,,10.0,,KIGQ 171435Z AUTO 21013G21KT 10SM CLR 25/19 A2967 RMK AO2  T02540194,,,,,,66.92,,SSW,29.02,27.5,,Clear
KIGQ,06/17/2017 14:55 UTC,29.66,78.98,67.1,67.08,17.27,210.0,,,,,,1.0,,,,10.0,,KIGQ 171455Z AUTO 21015KT 10SM CLR 26/20 A2966 RMK AO2  T02610195,,,,,,67.11,,SSW,29.02,27.47,,Clear
KIGQ,06/17/2017 15:15 UTC,29.66,79.7,67.1,65.52,14.97,220.0,,,,,,1.0,,,,10.0,,KIGQ 171515Z AUTO 22013KT 10SM CLR 27/20 A2966 RMK AO2  T02650195,,,,,,67.11,,SW,29.02,27.47,,Clear
KIGQ,06/17/2017 15:35 UTC,29.66,81.5,67.1,61.79,16.11,220.0,,,,,,1.0,,,,10.0,,KIGQ 171535Z AUTO 22014KT 10SM CLR 28/20 A2966 RMK AO2  T02750195,,,,,,67.12,,SW,29.02,27.44,84.03,Clear
KIGQ,06/17/2017 15:55 UTC,29.66,82.04,66.2,58.86,20.71,210.0,,,,,,1.0,,,,10.0,,KIGQ 171555Z AUTO 21018KT 10SM CLR 28/19 A2966 RMK AO2  T02780190,,,,,,66.23,,SSW,29.02,27.5,84.28,Clear
KIGQ,06/17/2017 16:15 UTC,29.66,82.58,65.48,56.42,18.41,210.0,25.32,,,,,372.0,,,,10.0,,KIGQ 171615Z AUTO 21016G22KT 10SM SCT037 28/19 A2966 RMK AO2  T02810186,,,,,,65.52,,SSW,29.02,27.54,84.56,Partly Cloudy
KIGQ,06/17/2017 16:35 UTC,29.66,83.48,64.94,53.78,17.27,220.0,24.16,,,,,393.0,,,,10.0,,KIGQ 171635Z AUTO 22015G21KT 10SM BKN039 29/18 A2966 RMK AO2  T02860183,,,3900.0,,,64.98,,SW,29.02,27.57,85.25,Mostly Cloudy
KIGQ,06/17/2017 16:55 UTC,29.66,82.4,65.3,56.39,16.11,230.0,20.71,,,,,414.0,,,,10.0,,KIGQ 171655Z AUTO 23014G18KT 10SM OVC041 28/19 A2966 RMK AO2  T02800185,,,4100.0,,,65.33,,SW,29.02,27.56,84.31,Overcast
KIGQ,06/17/2017 17:15 UTC,29.66,84.38,66.02,54.25,13.8,230.0,,,503.0,,,382.0,443.0,,,10.0,,KIGQ 171715Z AUTO 23012KT 10SM SCT038 BKN044 BKN050 29/19 A2966 RMK AO2 T02910189,,,4400.0,,,66.07,,SW,29.02,27.49,86.63,Mostly Cloudy
KIGQ,06/17/2017 17:35 UTC,29.66,82.94,65.66,56.11,13.8,230.0,21.85,,,,,404.0,,,,10.0,,KIGQ 171735Z AUTO 23012G19KT 10SM OVC040 28/19 A2966 RMK AO2  T02830187,,,4000.0,,,65.7,,SW,29.02,27.53,84.99,Overcast
KIGQ,06/17/2017 17:55 UTC,29.66,84.2,66.38,55.25,17.27,230.0,20.71,,,,,382.0,504.0,,,10.0,,KIGQ 171755Z AUTO 23015G18KT 10SM SCT038 OVC050 29/19 A2966 RMK AO2 T02900191 10294 20227,84.92,72.86,5000.0,,,66.43,,SW,29.02,27.46,86.61,Overcast
KIGQ,06/17/2017 18:15 UTC,29.65,84.92,66.02,53.32,19.57,230.0,,,,,,382.0,503.0,,,10.0,,KIGQ 171815Z AUTO 23017KT 10SM SCT038 BKN050 29/19 A2965 RMK AO2  T02940189,,,5000.0,,,66.08,,SW,29.01,27.47,87.19,Mostly Cloudy
KIGQ,06/17/2017 18:35 UTC,29.66,83.84,65.3,53.83,14.97,230.0,19.57,,,,,413.0,504.0,,,10.0,,KIGQ 171835Z AUTO 23013G17KT 10SM BKN041 OVC050 29/19 A2966 RMK AO2 T02880185,,,4100.0,,,65.35,,SW,29.02,27.54,85.76,Overcast
KIGQ,06/17/2017 18:55 UTC,29.65,83.66,65.84,55.17,11.5,230.0,,,504.0,,,422.0,483.0,,,10.0,,KIGQ 171855Z AUTO 23010KT 10SM SCT042 BKN048 OVC050 29/19 A2965 RMK AO2 T02870188,,,4800.0,,,65.88,,SW,29.01,27.5,85.81,Overcast
KIGQ,06/17/2017 19:15 UTC,29.65,85.46,65.66,51.76,12.66,220.0,,,754.0,,,422.0,603.0,,,10.0,,KIGQ 171915Z AUTO 22011KT 10SM SCT042 BKN060 OVC075 30/19 A2965 RMK AO2 T02970187,,,6000.0,,,65.73,,SW,29.01,27.49,87.58,Overcast
KIGQ,06/17/2017 19:35 UTC,29.65,85.1,65.3,51.71,10.36,250.0,,,,,,422.0,554.0,,,10.0,,KIGQ 171935Z AUTO 25009KT 10SM SCT042 OVC055 30/19 A2965 RMK AO2  T02950185,,,5500.0,,,65.36,,WSW,29.01,27.52,87.03,Overcast
KIGQ,06/17/2017 19:55 UTC,29.65,86.54,66.02,50.64,9.22,230.0,,,,,,472.0,553.0,,,10.0,,KIGQ 171955Z AUTO 23008KT 10SM SCT047 BKN055 30/19 A2965 RMK AO2  T03030189,,,5500.0,,,66.1,,SW,29.01,27.45,88.9,Mostly Cloudy
KIGQ,06/17/2017 20:15 UTC,29.65,85.64,64.76,49.88,13.8,230.0,,,653.0,,,452.0,503.0,,,10.0,,KIGQ 172015Z AUTO 23012KT 10SM SCT045 BKN050 BKN065 30/18 A2965 RMK AO2 T02980182,,,5000.0,,,64.83,,SW,29.01,27.55,87.33,Mostly Cloudy
KIGQ,06/17/2017 20:35 UTC,29.65,86.18,65.12,49.64,14.97,240.0,19.57,,754.0,,,472.0,552.0,,,10.0,,KIGQ 172035Z AUTO 24013G17KT 10SM SCT047 SCT055 OVC075 30/18 A2965 RMK AO2 T03010184,,,7500.0,,,65.19,,WSW,29.01,27.52,88.05,Overcast
KIGQ,06/17/2017 20:55 UTC,29.64,86.9,64.4,47.32,14.97,230.0,18.41,,804.0,,,492.0,653.0,,,10.0,,KIGQ 172055Z AUTO 23013G16KT 10SM SCT049 BKN065 OVC080 31/18 A2964 RMK AO2 T03050180,,,6500.0,,,64.49,,SW,29.0,27.55,88.44,Overcast
KIGQ,06/17/2017 21:15 UTC,29.63,85.46,63.68,48.31,10.36,240.0,,,,,,492.0,853.0,,,10.0,,KIGQ 172115Z AUTO 24009KT 10SM SCT049 BKN085 30/18 A2963 RMK AO2  T02970176,,,8500.0,,,63.75,,WSW,28.99,27.6,86.67,Mostly Cloudy
KIGQ,06/17/2017 21:35 UTC,29.64,84.92,63.5,48.84,14.97,250.0,19.57,,,,,702.0,853.0,,,10.0,,KIGQ 172135Z AUTO 25013G17KT 10SM SCT070 BKN085 29/18 A2964 RMK AO2 T02940175,,,8500.0,,,63.57,,WSW,29.0,27.63,86.07,Mostly Cloudy
KIGQ,06/17/2017 21:55 UTC,29.63,87.44,63.5,45.08,12.66,230.0,18.41,,,,,702.0,853.0,,,10.0,,KIGQ 172155Z AUTO 23011G16KT 10SM SCT070 BKN085 31/18 A2963 RMK AO2 T03080175,,,8500.0,,,63.6,,SW,28.99,27.6,88.56,Mostly Cloudy
KIGQ,06/17/2017 22:15 UTC,29.63,86.18,66.92,52.84,14.97,210.0,19.57,,,,,852.0,,,,10.0,,KIGQ 172215Z AUTO 21013G17KT 10SM SCT085 30/19 A2963 RMK AO2 LTG  DSNT N T03010194,,,,,,66.99,,SSW,28.99,27.37,89.01,Partly Cloudy
KIGQ,06/17/2017 22:35 UTC,29.63,86.0,66.56,52.49,11.5,210.0,,,,,,452.0,,,,10.0,,KIGQ 172235Z AUTO 21010KT 10SM SCT045 30/19 A2963 RMK AO2 LTG DSNT  NE T03000192,,,,,,66.63,,SSW,28.99,27.4,88.62,Partly Cloudy
KIGQ,06/17/2017 22:55 UTC,29.63,84.02,65.12,53.19,11.5,210.0,,,702.0,,,452.0,502.0,,,10.0,,KIGQ 172255Z AUTO 21010KT 10SM SCT045 SCT050 SCT070 29/18 A2963 RMK AO2 LTG DSNT NE T02890184,,,,,,65.17,,SSW,28.99,27.52,85.86,Partly Cloudy
KIGQ,06/17/2017 23:15 UTC,29.63,83.66,65.12,53.81,11.5,210.0,,,,,,502.0,702.0,,,10.0,,KIGQ 172315Z AUTO 21010KT 10SM SCT050 SCT070 29/18 A2963 RMK AO2  T02870184,,,,,,65.17,,SSW,28.99,27.53,85.5,Partly Cloudy
KIGQ,06/17/2017 23:35 UTC,29.62,83.48,65.48,54.8,9.22,220.0,,,,,,482.0,602.0,,,10.0,,KIGQ 172335Z AUTO 22008KT 10SM SCT048 SCT060 29/19 A2962 RMK AO2  LTG DSNT NW T02860186,,,,,,65.52,,SW,28.98,27.49,85.47,Partly Cloudy
KIGQ,06/17/2017 23:55 UTC,29.61,83.3,65.84,55.81,10.36,190.0,,,,,,1.0,,,,10.0,,KIGQ 172355Z AUTO 19009KT 10SM CLR 29/19 A2961 RMK AO2 T02850188  10309 20285,87.62,83.3,,,,65.88,,S,28.97,27.46,85.44,Clear
KIGQ,06/18/2017 00:15 UTC,29.62,82.22,65.3,56.72,11.5,200.0,,,,,,1.0,,,,10.0,,KIGQ 180015Z AUTO 20010KT 10SM CLR 28/19 A2962 RMK AO2 LTG DSNT N  T02790185,,,,,,65.33,,SSW,28.98,27.52,84.14,Clear
KIGQ,06/18/2017 00:35 UTC,29.61,81.68,65.3,57.72,8.05,190.0,,,,,,1.0,,,,10.0,,KIGQ 180035Z AUTO 19007KT 10SM CLR 28/19 A2961 RMK AO2 LTG DSNT W  T02760185,,,,,,65.33,,S,28.97,27.52,83.6,Clear
KIGQ,06/18/2017 00:55 UTC,29.61,81.5,65.12,57.69,6.91,200.0,,,,,,493.0,553.0,,,10.0,,KIGQ 180055Z AUTO 20006KT 10SM BKN049 BKN055 28/18 A2961 RMK AO2  T02750184,,,4900.0,,,65.14,,SSW,28.97,27.53,83.36,Mostly Cloudy
KIGQ,06/18/2017 01:15 UTC,29.61,80.6,64.58,58.3,9.22,190.0,,,,,,493.0,603.0,,,10.0,,KIGQ 180115Z AUTO 19008KT 10SM BKN049 BKN060 27/18 A2961 RMK AO2  LTG DSNT W T02700181,,,4900.0,,,64.6,,S,28.97,27.58,82.33,Mostly Cloudy
KIGQ,06/18/2017 01:35 UTC,29.61,80.06,64.76,59.71,9.22,190.0,,,,,,492.0,,,,10.0,,KIGQ 180135Z AUTO 19008KT 10SM SCT049 27/18 A2961 RMK AO2  T02670182,,,,,,64.77,,S,28.97,27.57,81.85,Partly Cloudy
KIGQ,06/18/2017 01:55 UTC,29.61,79.16,65.48,63.05,5.75,180.0,,,,,,1.0,,,,10.0,,KIGQ 180155Z AUTO 18005KT 10SM CLR 26/19 A2961 RMK AO2 LTG DSNT SW  THRU NW T02620186,,,,,,65.49,,S,28.97,27.53,,Clear
KIGQ,06/18/2017 02:15 UTC,29.63,77.72,67.28,70.35,6.91,200.0,,13.0,,,,952.0,1103.0,,,10.0,,KIGQ 180215Z AUTO 20006KT 10SM -RA SCT095 BKN110 25/20 A2963 RMK AO2 LTG DSNT SW AND W T02540196,,,11000.0,,,67.28,,SSW,28.99,27.45,,Light Rain
KIGQ,06/18/2017 02:35 UTC,29.63,76.1,68.72,77.98,0.0,0.0,,,1004.0,,,482.0,553.0,,,10.0,,KIGQ 180235Z AUTO 00000KT 10SM VCTSRA SCT048 BKN055 OVC100 25/20  A2963 RMK AO2 LTG DSNT SW AND W T02450204,,,5500.0,,,68.71,,N,28.99,27.37,,Overcast
KIGQ,06/18/2017 02:55 UTC,29.63,75.74,68.9,79.41,4.61,200.0,,66.0,1104.0,,,462.0,503.0,,,10.0,,KIGQ 180255Z AUTO 20004KT 10SM TSRA SCT046 BKN050 OVC110 24/21  A2963 RMK AO2 LTG DSNT ALQS T02430205,,,5000.0,,,68.89,,SSW,28.99,27.36,,Thunderstorm
KIGQ,06/18/2017 03:15 UTC,29.62,74.12,69.62,85.9,4.61,170.0,,,1004.0,0.02,,482.0,803.0,,,10.0,,KIGQ 180315Z AUTO 17004KT 10SM VCTSRA SCT048 BKN080 OVC100 23/21  A2962 RMK AO2 LTG DSNT NE THRU SW P0002 T02340209,,,8000.0,,,69.61,,S,28.98,27.32,,Overcast
KIGQ,06/18/2017 03:35 UTC,29.6,74.66,69.8,84.88,6.91,170.0,,77.0,1004.0,0.02,,492.0,802.0,,,10.0,,KIGQ 180335Z AUTO 17006KT 10SM -TSRA SCT049 SCT080 OVC100 24/21  A2960 RMK AO2 LTG DSNT NE S AND SW P0002 T02370210,,,10000.0,,,69.79,,S,28.96,27.28,,Light Rain/Thunderstorm
KIGQ,06/18/2017 03:55 UTC,29.6,74.3,69.98,86.44,8.05,190.0,,13.0,1004.0,0.02,,452.0,753.0,,,10.0,,KIGQ 180355Z AUTO 19007KT 10SM -RA SCT045 BKN075 OVC100 24/21  A2960 RMK AO2 LTG DSNT NE THRU SW P0002 T02350211,,,7500.0,,,69.97,,S,28.96,27.27,,Light Rain
KIGQ,06/18/2017 04:15 UTC,29.61,74.3,69.98,86.44,13.8,210.0,18.41,1.0,653.0,,,202.0,453.0,,,10.0,,KIGQ 180415Z AUTO 21012G16KT 10SM RA SCT020 BKN045 BKN065 24/21  A2961 RMK AO2 LTG DSNT NE THRU SW T02350211,,,4500.0,,,69.97,,SSW,28.97,27.28,,Rain
KIGQ,06/18/2017 04:35 UTC,29.61,73.22,69.08,86.91,16.11,210.0,,77.0,374.0,,,122.0,203.0,,,10.0,,KIGQ 180435Z AUTO 21014KT 10SM -TSRA SCT012 BKN020 OVC037 23/21  A2961 RMK AO2 LTG DSNT NE AND S T02290206,,,2000.0,,,69.07,,SSW,28.97,27.36,,Light Rain/Thunderstorm
KIGQ,06/18/2017 04:55 UTC,29.61,72.32,67.82,85.8,12.66,220.0,17.27,,423.0,,,103.0,243.0,,,10.0,,KIGQ 180455Z AUTO 22011G15KT 10SM BKN010 BKN024 BKN042 22/20 A2961 RMK AO2 LTG DSNT SE AND S T02240199,,,1000.0,,,67.81,,SW,28.97,27.46,,Mostly Cloudy
KIGQ,06/18/2017 05:15 UTC,29.61,70.34,64.76,82.53,13.8,220.0,24.16,,,,,952.0,,,,10.0,,KIGQ 180515Z AUTO 22012G21KT 10SM SCT095 21/18 A2961 RMK AO2 LTG  DSNT SE AND SW T02130182,,,,,,64.74,,SW,28.97,27.69,,Partly Cloudy
KIGQ,06/18/2017 05:35 UTC,29.6,69.8,65.3,85.66,14.97,220.0,20.71,,,,,1.0,,,,10.0,,KIGQ 180535Z AUTO 22013G18KT 10SM CLR 21/19 A2960 RMK AO2 LTG DSNT  NE AND S T02100185,,,,,,65.29,,SW,28.96,27.65,,Clear
KIGQ,06/18/2017 05:55 UTC,29.6,69.44,65.3,86.71,14.97,220.0,19.57,5.0,,,,1.0,,0.02,,10.0,,KIGQ 180555Z AUTO 22013G17KT 10SM VCTS CLR 21/19 A2960 RMK AO2 LTG  DSNT NE AND S 60002 T02080185 10283 20208 403090208,82.94,69.44,,87.62,69.44,65.28,,SW,28.96,27.66,,Thunder
KIGQ,06/18/2017 06:15 UTC,29.6,69.26,65.3,87.25,11.5,230.0,16.11,,,,,1.0,,,,10.0,,KIGQ 180615Z AUTO 23010G14KT 10SM CLR 21/19 A2960 RMK AO2 LTG DSNT  SE AND S T02070185,,,,,,65.29,,SW,28.96,27.66,,Clear
KIGQ,06/18/2017 06:35 UTC,29.59,69.08,65.3,87.79,12.66,220.0,16.11,,,,,1.0,,,,10.0,,KIGQ 180635Z AUTO 22011G14KT 10SM CLR 21/19 A2959 RMK AO2 LTG DSNT  SW T02060185,,,,,,65.29,,SW,28.95,27.65,,Clear
KIGQ,06/18/2017 06:55 UTC,29.58,68.9,64.94,87.23,11.5,200.0,,,,,,113.0,,,,10.0,,KIGQ 180655Z AUTO 20010KT 10SM BKN011 21/18 A2958 RMK AO2 LTG DSNT  E THRU SW T02050183,,,1100.0,,,64.92,,SSW,28.94,27.66,,Mostly Cloudy
KIGQ,06/18/2017 07:15 UTC,29.57,69.26,65.48,87.8,14.97,220.0,19.57,,,,,92.0,272.0,,,10.0,,KIGQ 180715Z AUTO 22013G17KT 10SM SCT009 SCT027 21/19 A2957 RMK AO2 LTG DSNT S AND SW T02070186,,,,,,65.47,,SW,28.93,27.62,,Partly Cloudy
KIGQ,06/18/2017 07:35 UTC,29.57,69.8,65.84,87.28,13.8,200.0,,,,,,113.0,,,,10.0,,KIGQ 180735Z AUTO 20012KT 10SM BKN011 21/19 A2957 RMK AO2 LTG DSNT  SE THRU SW T02100188,,,1100.0,,,65.83,,SSW,28.93,27.59,,Mostly Cloudy
KIGQ,06/18/2017 07:55 UTC,29.57,69.8,65.48,86.19,16.11,210.0,23.02,,,,,113.0,903.0,,,10.0,,KIGQ 180755Z AUTO 21014G20KT 10SM BKN011 BKN090 21/19 A2957 RMK AO2 LTG DSNT S AND SW T02100186,,,1100.0,,,65.46,,SSW,28.93,27.61,,Mostly Cloudy
KIGQ,06/18/2017 08:15 UTC,29.57,69.8,65.3,85.66,14.97,220.0,21.85,5.0,,,,113.0,,,,10.0,,KIGQ 180815Z AUTO 22013G19KT 10SM VCTS BKN011 21/19 A2957 RMK AO2  LTG DSNT SE AND SW T02100185,,,1100.0,,,65.29,,SW,28.93,27.62,,Thunder
KIGQ,06/18/2017 08:35 UTC,29.58,69.26,65.3,87.25,14.97,230.0,21.85,,1104.0,,,113.0,903.0,,,10.0,,KIGQ 180835Z AUTO 23013G19KT 10SM BKN011 BKN090 OVC110 21/19 A2958 RMK AO2 LTG DSNT S T02070185,,,1100.0,,,65.29,,SW,28.94,27.64,,Overcast
KIGQ,06/18/2017 08:55 UTC,29.59,69.44,62.96,79.91,17.27,230.0,24.16,,,,,112.0,1004.0,,,10.0,,KIGQ 180855Z AUTO 23015G21KT 10SM SCT011 OVC100 21/17 A2959 RMK AO2 LTG DSNT SW T02080172,,,10000.0,,,62.94,,SW,28.95,27.79,,Overcast
KIGQ,06/18/2017 09:15 UTC,29.6,68.9,62.42,79.87,16.11,230.0,,,,,,904.0,,,,10.0,,KIGQ 180915Z AUTO 23014KT 10SM OVC090 21/17 A2960 RMK AO2 LTG DSNT  SE AND W T02050169,,,9000.0,,,62.39,,SW,28.96,27.84,,Overcast
KIGQ,06/18/2017 09:35 UTC,29.61,68.18,62.42,81.86,11.5,220.0,18.41,13.0,,,,372.0,904.0,,,10.0,,KIGQ 180935Z AUTO 22010G16KT 10SM -RA SCT037 OVC090 20/17 A2961 RMK AO2 T02010169,,,9000.0,,,62.39,,SW,28.97,27.85,,Light Rain
KIGQ,06/18/2017 09:55 UTC,29.61,67.64,62.6,83.92,9.22,210.0,,,,,,904.0,,,,10.0,,KIGQ 180955Z AUTO 21008KT 10SM OVC090 20/17 A2961 RMK AO2 LTG DSNT  E AND SW T01980170,,,9000.0,,,62.58,,SSW,28.97,27.85,,Overcast
KIGQ,06/18/2017 10:15 UTC,29.62,67.46,62.24,83.38,8.05,220.0,,,,,,803.0,1104.0,,,10.0,,KIGQ 181015Z AUTO 22007KT 10SM BKN080 OVC110 20/17 A2962 RMK AO2  T01970168,,,8000.0,,,62.21,,SW,28.98,27.88,,Overcast
KIGQ,06/18/2017 10:35 UTC,29.62,67.82,62.06,81.84,6.91,220.0,,,904.0,,,703.0,803.0,,,10.0,,KIGQ 181035Z AUTO 22006KT 10SM BKN070 BKN080 OVC090 20/17 A2962 RMK AO2 T01990167,,,7000.0,,,62.04,,SW,28.98,27.89,,Overcast
KIGQ,06/18/2017 10:55 UTC,29.61,67.46,62.06,82.86,6.91,240.0,,,802.0,,,322.0,652.0,,,10.0,,KIGQ 181055Z AUTO 24006KT 10SM SCT032 SCT065 SCT080 20/17 A2961 RMK AO2 T01970167,,,,,,62.04,,WSW,28.97,27.88,,Partly Cloudy
KIGQ,06/18/2017 11:15 UTC,29.62,68.0,63.14,84.48,9.22,220.0,,,,,,302.0,553.0,,,10.0,,KIGQ 181115Z AUTO 22008KT 10SM SCT030 BKN055 20/17 A2962 RMK AO2  T02000173,,,5500.0,,,63.12,,SW,28.98,27.83,,Mostly Cloudy
KIGQ,06/18/2017 11:35 UTC,29.61,69.8,64.58,83.54,10.36,220.0,,,1104.0,,,322.0,553.0,,,10.0,,KIGQ 181135Z AUTO 22009KT 10SM SCT032 BKN055 OVC110 21/18 A2961 RMK AO2 T02100181,,,5500.0,,,64.56,,SW,28.97,27.71,,Overcast
KIGQ,06/18/2017 11:55 UTC,29.61,69.98,64.76,83.55,9.22,210.0,,,,,,472.0,1203.0,,0.02,10.0,,KIGQ 181155Z AUTO 21008KT 10SM SCT047 BKN120 21/18 A2961 RMK AO2  70002 T02110182 10212 20196,70.16,67.28,12000.0,,,64.74,,SSW,28.97,27.69,,Mostly Cloudy
KIGQ,06/18/2017 12:15 UTC,29.61,70.34,64.94,83.05,11.5,230.0,,,,,,473.0,,,,10.0,,KIGQ 181215Z AUTO 23010KT 10SM BKN047 21/18 A2961 RMK AO2  T02130183,,,4700.0,,,64.92,,SW,28.97,27.68,,Mostly Cloudy
KIGQ,06/18/2017 12:35 UTC,29.62,70.16,65.3,84.61,12.66,230.0,,,494.0,,,153.0,223.0,,,10.0,,KIGQ 181235Z AUTO 23011KT 10SM BKN015 BKN022 OVC049 21/19 A2962 RMK AO2 T02120185,,,1500.0,,,65.28,,SW,28.98,27.67,,Overcast
KIGQ,06/18/2017 12:55 UTC,29.62,71.96,66.02,81.62,11.5,240.0,18.41,,,,,153.0,204.0,,,10.0,,KIGQ 181255Z AUTO 24010G16KT 10SM BKN015 OVC020 22/19 A2962 RMK AO2 T02220189,,,1500.0,,,66.0,,WSW,28.98,27.6,,Overcast
KIGQ,06/18/2017 13:15 UTC,29.63,72.5,65.3,78.17,12.66,270.0,19.57,,,,,154.0,,,,10.0,,KIGQ 181315Z AUTO 27011G17KT 10SM OVC015 23/19 A2963 RMK AO2  T02250185,,,1500.0,,,65.28,,W,28.99,27.65,,Overcast
KIGQ,06/18/2017 13:35 UTC,29.63,73.58,62.06,67.3,13.8,280.0,23.02,,423.0,,,152.0,273.0,,,10.0,,KIGQ 181335Z AUTO 28012G20KT 10SM SCT015 BKN027 BKN042 23/17 A2963 RMK AO2 T02310167,,,2700.0,,,62.04,,W,28.99,27.83,,Mostly Cloudy
KIGQ,06/18/2017 13:55 UTC,29.63,74.48,62.6,66.56,17.27,260.0,23.02,,,,,272.0,,,,10.0,,KIGQ 181355Z AUTO 26015G20KT 10SM SCT027 24/17 A2963 RMK AO2  T02360170,,,,,,62.58,,W,28.99,27.79,,Partly Cloudy
KIGQ,06/18/2017 14:15 UTC,29.64,74.66,61.34,63.29,13.8,270.0,21.85,,,,,252.0,,,,10.0,,KIGQ 181415Z AUTO 27012G19KT 10SM SCT025 24/16 A2964 RMK AO2  T02370163,,,,,,61.32,,W,29.0,27.87,,Partly Cloudy
KIGQ,06/18/2017 14:35 UTC,29.65,75.2,60.62,60.59,20.71,250.0,25.32,,,,,292.0,,,,10.0,,KIGQ 181435Z AUTO 25018G22KT 10SM SCT029 24/16 A2965 RMK AO2  T02400159,,,,,,60.6,,WSW,29.01,27.92,,Partly Cloudy
KIGQ,06/18/2017 14:55 UTC,29.65,75.2,58.64,56.47,16.11,270.0,26.46,,,,,312.0,402.0,,,10.0,,KIGQ 181455Z AUTO 27014G23KT 10SM SCT031 SCT040 24/15 A2965 RMK AO2 T02400148,,,,,,58.62,,W,29.01,28.03,,Partly Cloudy
KIGQ,06/18/2017 15:15 UTC,29.65,75.2,57.56,54.32,23.02,270.0,29.93,,,,,332.0,,,,10.0,,KIGQ 181515Z AUTO 27020G26KT 10SM SCT033 24/14 A2965 RMK AO2  T02400142,,,,,,57.54,,W,29.01,28.08,,Partly Cloudy
KIGQ,06/18/2017 15:35 UTC,29.66,75.56,57.56,53.68,17.27,280.0,26.46,,,,,352.0,,,,10.0,,KIGQ 181535Z AUTO 28015G23KT 10SM SCT035 24/14 A2966 RMK AO2  T02420142,,,,,,57.54,,W,29.02,28.09,,Partly Cloudy
KIGQ,06/18/2017 15:55 UTC,29.66,76.1,56.84,51.37,16.11,280.0,29.93,,,,,1.0,,,,10.0,,KIGQ 181555Z AUTO 28014G26KT 10SM CLR 25/14 A2966 RMK AO2  T02450138,,,,,,56.82,,W,29.02,28.12,,Clear
KIGQ,06/18/2017 16:15 UTC,29.66,77.36,57.56,50.57,17.27,260.0,23.02,,,,,432.0,502.0,,,10.0,,KIGQ 181615Z AUTO 26015G20KT 10SM SCT043 SCT050 25/14 A2966 RMK AO2 T02520142,,,,,,57.56,,W,29.02,28.07,,Partly Cloudy
KIGQ,06/18/2017 16:35 UTC,29.66,77.18,55.58,47.36,13.8,270.0,27.63,,,,,452.0,,,,10.0,,KIGQ 181635Z AUTO 27012G24KT 10SM SCT045 25/13 A2966 RMK AO2  T02510131,,,,,,55.57,,W,29.02,28.17,,Partly Cloudy
KIGQ,06/18/2017 16:55 UTC,29.67,77.9,54.86,45.06,21.85,280.0,29.93,,,,,452.0,502.0,,,10.0,,KIGQ 181655Z AUTO 28019G26KT 10SM SCT045 SCT050 26/13 A2967 RMK AO2 T02550127,,,,,,54.86,,W,29.02,28.2,,Partly Cloudy
KIGQ,06/18/2017 17:15 UTC,29.67,77.9,56.84,48.41,17.27,280.0,24.16,,,,,462.0,,,,10.0,,KIGQ 181715Z AUTO 28015G21KT 10SM SCT046 26/14 A2967 RMK AO2  T02550138,,,,,,56.84,,W,29.02,28.1,,Partly Cloudy
KIGQ,06/18/2017 17:35 UTC,29.67,78.62,56.12,46.06,18.41,270.0,21.85,,,,,472.0,502.0,,,10.0,,KIGQ 181735Z AUTO 27016G19KT 10SM SCT047 SCT050 26/13 A2967 RMK AO2 T02590134,,,,,,56.13,,W,29.02,28.13,,Partly Cloudy
KIGQ,06/18/2017 17:55 UTC,29.68,78.26,55.76,46.0,19.57,260.0,24.16,,,,,472.0,,,,10.0,,KIGQ 181755Z AUTO 26017G21KT 10SM SCT047 26/13 A2968 RMK AO2  T02570132 10261 20211,78.98,69.98,,,,55.76,,W,29.03,28.17,,Partly Cloudy
KIGQ,06/18/2017 18:15 UTC,29.68,77.9,55.04,45.35,12.66,300.0,17.27,,,,,492.0,602.0,,,10.0,,KIGQ 181815Z AUTO 30011G15KT 10SM SCT049 SCT060 26/13 A2968 RMK AO2 T02550128,,,,,,55.04,,WNW,29.03,28.21,,Partly Cloudy
KIGQ,06/18/2017 18:35 UTC,29.68,78.08,55.4,45.68,17.27,260.0,20.71,,,,,604.0,,,,10.0,,KIGQ 181835Z AUTO 26015G18KT 10SM OVC060 26/13 A2968 RMK AO2  T02560130,,,6000.0,,,55.4,,W,29.03,28.19,,Overcast
KIGQ,06/18/2017 18:55 UTC,29.68,77.18,54.68,45.84,11.5,280.0,20.71,,704.0,,,492.0,603.0,,,10.0,,KIGQ 181855Z AUTO 28010G18KT 10SM SCT049 BKN060 OVC070 25/13 A2968 RMK AO2 T02510126,,,6000.0,,,54.67,,W,29.03,28.23,,Overcast
KIGQ,06/18/2017 19:15 UTC,29.68,79.52,56.84,45.9,17.27,250.0,,,803.0,,,492.0,703.0,,,10.0,,KIGQ 181915Z AUTO 25015KT 10SM SCT049 BKN070 BKN080 26/14 A2968 RMK AO2 T02640138,,,7000.0,,,56.85,,WSW,29.03,28.1,,Mostly Cloudy
KIGQ,06/18/2017 19:35 UTC,29.68,76.82,55.04,47.0,17.27,270.0,25.32,,703.0,,,472.0,552.0,,,10.0,,KIGQ 181935Z AUTO 27015G22KT 10SM SCT047 SCT055 BKN070 25/13 A2968 RMK AO2 T02490128,,,7000.0,,,55.03,,W,29.03,28.21,,Mostly Cloudy
KIGQ,06/18/2017 19:55 UTC,29.68,78.08,55.22,45.38,18.41,260.0,25.32,,,,,493.0,703.0,,,10.0,,KIGQ 181955Z AUTO 26016G22KT 10SM BKN049 BKN070 26/13 A2968 RMK AO2 T02560129,,,4900.0,,,55.22,,W,29.03,28.19,,Mostly Cloudy
KIGQ,06/18/2017 20:15 UTC,29.69,77.9,53.42,42.75,16.11,270.0,25.32,,,,,492.0,703.0,,,10.0,,KIGQ 182015Z AUTO 27014G22KT 10SM SCT049 BKN070 26/12 A2969 RMK AO2 T02550119,,,7000.0,,,53.42,,W,29.04,28.29,,Mostly Cloudy
KIGQ,06/18/2017 20:35 UTC,29.68,77.72,55.22,45.92,13.8,270.0,23.02,,,,,502.0,703.0,,,10.0,,KIGQ 182035Z AUTO 27012G20KT 10SM SCT050 BKN070 25/13 A2968 RMK AO2 T02540129,,,7000.0,,,55.22,,W,29.03,28.2,,Mostly Cloudy
KIGQ,06/18/2017 20:55 UTC,29.69,76.46,54.14,46.03,14.97,270.0,21.85,,,,,502.0,703.0,,,10.0,,KIGQ 182055Z AUTO 27013G19KT 10SM SCT050 BKN070 25/12 A2969 RMK AO2 T02470123,,,7000.0,,,54.13,,W,29.04,28.27,,Mostly Cloudy
KIGQ,06/18/2017 21:15 UTC,29.69,78.8,53.96,42.33,18.41,270.0,,,,,,502.0,702.0,,,10.0,,KIGQ 182115Z AUTO 27016KT 10SM SCT050 SCT070 26/12 A2969 RMK AO2  T02600122,,,,,,53.97,,W,29.04,28.26,,Partly Cloudy
KIGQ,06/18/2017 21:35 UTC,29.7,76.28,54.68,47.22,12.66,280.0,20.71,,753.0,,,502.0,652.0,,,10.0,,KIGQ 182135Z AUTO 28011G18KT 10SM SCT050 SCT065 BKN075 25/13 A2970 RMK AO2 T02460126,,,7500.0,,,54.66,,W,29.05,28.26,,Mostly Cloudy
KIGQ,06/18/2017 21:55 UTC,29.7,76.1,56.12,50.05,13.8,280.0,19.57,,854.0,,,503.0,653.0,,,10.0,,KIGQ 182155Z AUTO 28012G17KT 10SM BKN050 BKN065 OVC085 25/13 A2970 RMK AO2 T02450134,,,5000.0,,,56.1,,W,29.05,28.19,,Overcast
KIGQ,06/18/2017 22:15 UTC,29.7,76.64,55.04,47.28,13.8,290.0,25.32,,752.0,,,482.0,602.0,,,10.0,,KIGQ 182215Z AUTO 29012G22KT 10SM SCT048 SCT060 SCT075 25/13 A2970 RMK AO2 T02480128,,,,,,55.03,,WNW,29.05,28.24,,Partly Cloudy
KIGQ,06/18/2017 22:35 UTC,29.7,76.46,53.24,44.54,18.41,270.0,29.93,,,,,502.0,,,,10.0,,KIGQ 182235Z AUTO 27016G26KT 10SM SCT050 25/12 A2970 RMK AO2  T02470118,,,,,,53.23,,W,29.05,28.32,,Partly Cloudy
KIGQ,06/18/2017 22:55 UTC,29.7,76.28,50.72,40.83,10.36,290.0,16.11,,,,,1.0,,,,10.0,,KIGQ 182255Z AUTO 29009G14KT 10SM CLR 25/10 A2970 RMK AO2  T02460104,,,,,,50.7,,WNW,29.05,28.43,,Clear
KIGQ,06/18/2017 23:15 UTC,29.71,76.28,51.98,42.78,13.8,290.0,,,,,,1.0,,,,10.0,,KIGQ 182315Z AUTO 29012KT 10SM CLR 25/11 A2971 RMK AO2  T02460111,,,,,,51.97,,WNW,29.06,28.39,,Clear
KIGQ,06/18/2017 23:35 UTC,29.72,75.92,52.34,43.87,11.5,280.0,18.41,,,,,22.0,,,,10.0,,KIGQ 182335Z AUTO 28010G16KT 10SM SCT002 24/11 A2972 RMK AO2  T02440113,,,,,,52.32,,W,29.07,28.39,,Partly Cloudy
KIGQ,06/18/2017 23:55 UTC,29.72,75.56,52.88,45.29,10.36,290.0,,,,,,22.0,852.0,,,10.0,,KIGQ 182355Z AUTO 29009KT 10SM SCT002 SCT085 24/12 A2972 RMK AO2  T02420116 10266 20238,79.88,74.84,,,,52.86,,WNW,29.07,28.37,,Partly Cloudy
KIGQ,06/19/2017 00:15 UTC,29.73,74.12,52.7,47.2,8.05,290.0,,,,,,1.0,,,,10.0,,KIGQ 190015Z AUTO 29007KT 10SM CLR 23/12 A2973 RMK AO2  T02340115,,,,,,52.67,,WNW,29.08,28.4,,Clear
KIGQ,06/19/2017 00:35 UTC,29.74,73.4,53.06,49.0,8.05,270.0,,,,,,903.0,,,,10.0,,KIGQ 190035Z AUTO 27007KT 10SM BKN090 23/12 A2974 RMK AO2  T02300117,,,9000.0,,,53.02,,W,29.09,28.4,,Mostly Cloudy
KIGQ,06/19/2017 00:55 UTC,29.75,72.86,53.42,50.56,9.22,260.0,,,,,,903.0,,,,10.0,,KIGQ 190055Z AUTO 26008KT 10SM BKN090 23/12 A2975 RMK AO2  T02270119,,,9000.0,,,53.38,,W,29.1,28.4,,Mostly Cloudy
KIGQ,06/19/2017 01:15 UTC,29.75,72.86,53.42,50.56,6.91,260.0,,,,,,702.0,903.0,,,10.0,,KIGQ 190115Z AUTO 26006KT 10SM SCT070 BKN090 23/12 A2975 RMK AO2  T02270119,,,9000.0,,,53.38,,W,29.1,28.4,,Mostly Cloudy
KIGQ,06/19/2017 01:35 UTC,29.75,72.5,53.6,51.51,10.36,250.0,,,,,,702.0,904.0,,,10.0,,KIGQ 190135Z AUTO 25009KT 10SM SCT070 OVC090 23/12 A2975 RMK AO2  T02250120,,,9000.0,,,53.56,,WSW,29.1,28.39,,Overcast
KIGQ,06/19/2017 01:55 UTC,29.76,72.86,53.78,51.23,10.36,270.0,16.11,,,,,653.0,904.0,,,10.0,,KIGQ 190155Z AUTO 27009G14KT 10SM BKN065 OVC090 23/12 A2976 RMK AO2 T02270121,,,6500.0,,,53.74,,W,29.11,28.39,,Overcast
KIGQ,06/19/2017 02:15 UTC,29.76,72.5,54.14,52.54,9.22,240.0,,,,,,604.0,,,,10.0,,KIGQ 190215Z AUTO 24008KT 10SM OVC060 23/12 A2976 RMK AO2  T02250123,,,6000.0,,,54.1,,WSW,29.11,28.38,,Overcast
KIGQ,06/19/2017 02:35 UTC,29.76,70.88,54.5,56.23,6.91,240.0,,,,,,602.0,1002.0,,,10.0,,KIGQ 190235Z AUTO 24006KT 10SM SCT060 SCT100 22/13 A2976 RMK AO2  T02160125,,,,,,54.45,,WSW,29.11,28.38,,Partly Cloudy
KIGQ,06/19/2017 02:55 UTC,29.76,69.98,54.86,58.74,5.75,230.0,,,903.0,,,502.0,602.0,,,10.0,,KIGQ 190255Z AUTO 23005KT 10SM SCT050 SCT060 BKN090 21/13 A2976 RMK AO2 T02110127,,,9000.0,,,54.81,,SW,29.11,28.37,,Mostly Cloudy
KIGQ,06/19/2017 03:15 UTC,29.77,68.9,55.58,62.56,5.75,220.0,,,904.0,,,502.0,602.0,,,10.0,,KIGQ 190315Z AUTO 22005KT 10SM SCT050 SCT060 OVC090 21/13 A2977 RMK AO2 T02050131,,,9000.0,,,55.53,,SW,29.12,28.36,,Overcast
KIGQ,06/19/2017 05:15 UTC,29.8,67.1,55.94,67.42,5.75,250.0,,,,,,482.0,802.0,,,10.0,,KIGQ 190515Z AUTO 25005KT 10SM SCT048 SCT080 20/13 A2980 RMK AO2  T01950133,,,,,,55.89,,WSW,29.15,28.39,,Partly Cloudy
KIGQ,06/19/2017 05:35 UTC,29.8,66.38,55.76,68.67,4.61,240.0,,,,,,602.0,,,,10.0,,KIGQ 190535Z AUTO 24004KT 10SM SCT060 19/13 A2980 RMK AO2  T01910132,,,,,,55.71,,WSW,29.15,28.4,,Partly Cloudy
KIGQ,06/19/2017 05:55 UTC,29.8,65.66,55.94,70.86,4.61,240.0,,,,,,602.0,902.0,,,10.0,,KIGQ 190555Z AUTO 24004KT 10SM SCT060 SCT090 19/13 A2980 RMK AO2  T01870133 10241 20187 402660187,75.38,65.66,,79.88,65.66,55.89,,WSW,29.15,28.4,,Partly Cloudy
KIGQ,06/19/2017 06:15 UTC,29.79,64.58,55.58,72.62,5.75,250.0,,,,,,1.0,,,,10.0,,KIGQ 190615Z AUTO 25005KT 10SM CLR 18/13 A2979 RMK AO2  T01810131,,,,,,55.53,,WSW,29.14,28.42,,Clear
KIGQ,06/19/2017 06:35 UTC,29.79,64.04,55.76,74.49,4.61,260.0,,,,,,1.0,,,,10.0,,KIGQ 190635Z AUTO 26004KT 10SM CLR 18/13 A2979 RMK AO2  T01780132,,,,,,55.71,,W,29.14,28.42,,Clear
KIGQ,06/19/2017 06:55 UTC,29.78,63.86,55.58,74.47,5.75,280.0,,,,,,1.0,,,,10.0,,KIGQ 190655Z AUTO 28005KT 10SM CLR 18/13 A2978 RMK AO2  T01770131,,,,,,55.53,,W,29.13,28.42,,Clear
KIGQ,06/19/2017 07:15 UTC,29.78,63.5,55.58,75.41,4.61,280.0,,,,,,1.0,,,,10.0,,KIGQ 190715Z AUTO 28004KT 10SM CLR 18/13 A2978 RMK AO2  T01750131,,,,,,55.53,,W,29.13,28.42,,Clear
KIGQ,06/19/2017 07:35 UTC,29.77,63.14,55.58,76.37,4.61,270.0,,,,,,1.0,,,,10.0,,KIGQ 190735Z AUTO 27004KT 10SM CLR 17/13 A2977 RMK AO2  T01730131,,,,,,55.53,,W,29.12,28.42,,Clear
KIGQ,06/19/2017 07:55 UTC,29.78,61.7,55.4,79.82,4.61,240.0,,,,,,1.0,,,,10.0,,KIGQ 190755Z AUTO 24004KT 10SM CLR 17/13 A2978 RMK AO2  T01650130,,,,,,55.36,,WSW,29.13,28.45,,Clear
KIGQ,06/19/2017 08:15 UTC,29.78,60.44,55.04,82.37,0.0,0.0,,,,,,1.0,,,,10.0,,KIGQ 190815Z AUTO 00000KT 10SM CLR 16/13 A2978 RMK AO2  T01580128,,,,,,55.0,,N,29.13,28.48,,Clear
KIGQ,06/19/2017 08:35 UTC,29.78,60.98,55.4,81.87,0.0,0.0,,,,,,1.0,,,,10.0,,KIGQ 190835Z AUTO 00000KT 10SM CLR 16/13 A2978 RMK AO2  T01610130,,,,,,55.36,,N,29.13,28.46,,Clear
KIGQ,06/19/2017 08:55 UTC,29.78,59.9,54.68,82.88,0.0,0.0,,,,,,1.0,,,,10.0,,KIGQ 190855Z AUTO 00000KT 10SM CLR 16/13 A2978 RMK AO2  T01550126,,,,,,54.64,,N,29.13,28.5,,Clear
KIGQ,06/19/2017 09:15 UTC,29.79,60.8,55.22,81.86,0.0,0.0,,,,,,1.0,,,,10.0,,KIGQ 190915Z AUTO 00000KT 10SM CLR 16/13 A2979 RMK AO2  T01600129,,,,,,55.18,,N,29.14,28.48,,Clear
KIGQ,06/19/2017 09:35 UTC,29.8,59.9,54.86,83.42,3.44,190.0,,,,,,1.0,,,,10.0,,KIGQ 190935Z AUTO 19003KT 10SM CLR 16/13 A2980 RMK AO2  T01550127,,,,,,54.82,,S,29.15,28.51,,Clear
KIGQ,06/19/2017 09:55 UTC,29.81,58.64,54.32,85.56,4.61,200.0,,,,,,1.0,,,,10.0,,KIGQ 190955Z AUTO 20004KT 10SM CLR 15/12 A2981 RMK AO2  T01480124,,,,,,54.29,,SSW,29.16,28.56,,Clear
KIGQ,06/19/2017 10:15 UTC,29.81,58.1,54.14,86.66,3.44,220.0,,,,,,1.0,,,,10.0,,KIGQ 191015Z AUTO 22003KT 10SM CLR 15/12 A2981 RMK AO2  T01450123,,,,,,54.11,,SW,29.16,28.57,,Clear
KIGQ,06/19/2017 10:35 UTC,29.81,58.1,53.6,84.96,3.44,230.0,,31.0,,,,1.0,,,,5.0,,KIGQ 191035Z AUTO 23003KT 5SM BR CLR 15/12 A2981 RMK AO2  T01450120,,,,,,53.56,,SW,29.16,28.59,,Mist
KIGQ,06/19/2017 10:55 UTC,29.82,57.38,53.6,87.19,3.44,230.0,,,,,,1.0,,,,10.0,,KIGQ 191055Z AUTO 23003KT 10SM CLR 14/12 A2982 RMK AO2  T01410120,,,,,,53.57,,SW,29.17,28.61,,Clear
KIGQ,06/19/2017 11:15 UTC,29.82,59.9,55.4,85.07,3.44,210.0,,,,,,1.0,,,,10.0,,KIGQ 191115Z AUTO 21003KT 10SM CLR 16/13 A2982 RMK AO2  T01550130,,,,,,55.36,,SSW,29.17,28.51,,Clear
KIGQ,06/19/2017 11:35 UTC,29.83,63.14,56.66,79.41,3.44,230.0,,,,,,1.0,,,,7.0,,KIGQ 191135Z AUTO 23003KT 7SM CLR 17/14 A2983 RMK AO2  T01730137,,,,,,56.62,,SW,29.18,28.43,,Clear
KIGQ,06/19/2017 11:55 UTC,29.83,65.3,56.84,74.12,4.61,230.0,,,,,,1.0,,,,10.0,,KIGQ 191155Z AUTO 23004KT 10SM CLR 19/14 A2983 RMK AO2 T01850138  10187 20140,65.66,57.2,,,,56.79,,SW,29.18,28.39,,Clear
KIGQ,06/19/2017 12:15 UTC,29.84,66.56,56.66,70.5,6.91,240.0,,,,,,1.0,,,,10.0,,KIGQ 191215Z AUTO 24006KT 10SM CLR 19/14 A2984 RMK AO2  T01920137,,,,,,56.61,,WSW,29.19,28.4,,Clear
KIGQ,06/19/2017 12:35 UTC,29.84,67.82,56.3,66.63,9.22,250.0,,,,,,1202.0,,,,10.0,,KIGQ 191235Z AUTO 25008KT 10SM SCT120 20/14 A2984 RMK AO2  T01990135,,,,,,56.25,,WSW,29.19,28.4,,Partly Cloudy
KIGQ,06/19/2017 12:55 UTC,29.84,68.36,56.66,66.26,9.22,260.0,,,,,,1202.0,,,,10.0,,KIGQ 191255Z AUTO 26008KT 10SM SCT120 20/14 A2984 RMK AO2  T02020137,,,,,,56.61,,W,29.19,28.38,,Partly Cloudy
KIGQ,06/19/2017 13:15 UTC,29.85,69.44,56.66,63.86,8.05,270.0,,,,,,1202.0,,,,10.0,,KIGQ 191315Z AUTO 27007KT 10SM SCT120 21/14 A2985 RMK AO2  T02080137,,,,,,56.61,,W,29.2,28.38,,Partly Cloudy
KIGQ,06/19/2017 13:35 UTC,29.85,69.8,56.3,62.27,8.05,270.0,,,,,,1.0,,,,10.0,,KIGQ 191335Z AUTO 27007KT 10SM CLR 21/14 A2985 RMK AO2  T02100135,,,,,,56.25,,W,29.2,28.39,,Clear
KIGQ,06/19/2017 13:55 UTC,29.85,71.24,56.3,59.29,6.91,280.0,,,,,,1202.0,,,,10.0,,KIGQ 191355Z AUTO 28006KT 10SM SCT120 22/14 A2985 RMK AO2  T02180135,,,,,,56.25,,W,29.2,28.38,,Partly Cloudy
KIGQ,06/19/2017 14:15 UTC,29.85,71.42,56.3,58.93,8.05,260.0,,,,,,1202.0,,,,10.0,,KIGQ 191415Z AUTO 26007KT 10SM SCT120 22/14 A2985 RMK AO2  T02190135,,,,,,56.26,,W,29.2,28.38,,Partly Cloudy
KIGQ,06/19/2017 14:35 UTC,29.85,72.32,56.48,57.54,11.5,270.0,,,,,,1.0,,,,10.0,,KIGQ 191435Z AUTO 27010KT 10SM CLR 22/14 A2985 RMK AO2  T02240136,,,,,,56.44,,W,29.2,28.36,,Clear
KIGQ,06/19/2017 14:55 UTC,29.85,74.3,55.04,51.1,11.5,260.0,16.11,,,,,1.0,,,,10.0,,KIGQ 191455Z AUTO 26010G14KT 10SM CLR 24/13 A2985 RMK AO2  T02350128,,,,,,55.01,,W,29.2,28.41,,Clear
KIGQ,06/19/2017 15:15 UTC,29.86,73.94,54.86,51.39,14.97,270.0,,,,,,392.0,462.0,,,10.0,,KIGQ 191515Z AUTO 27013KT 10SM SCT039 SCT046 23/13 A2986 RMK AO2  T02330127,,,,,,54.83,,W,29.21,28.43,,Partly Cloudy
KIGQ,06/19/2017 15:35 UTC,29.86,74.84,55.04,50.19,10.36,290.0,17.27,,,,,392.0,,,,10.0,,KIGQ 191535Z AUTO 29009G15KT 10SM SCT039 24/13 A2986 RMK AO2 LTG  DSNT E T02380128,,,,,,55.01,,WNW,29.21,28.42,,Partly Cloudy
KIGQ,06/19/2017 15:55 UTC,29.86,73.22,52.88,48.97,10.36,280.0,14.97,,602.0,,,422.0,502.0,,,10.0,,KIGQ 191555Z AUTO 28009G13KT 10SM SCT042 SCT050 SCT060 23/12 A2986 RMK AO2 LTG DSNT E T02290116,,,,,,52.84,,W,29.21,28.53,,Partly Cloudy
KIGQ,06/19/2017 16:15 UTC,29.86,74.84,53.24,47.0,11.5,270.0,17.27,,703.0,,,463.0,503.0,,,10.0,,KIGQ 191615Z AUTO 27010G15KT 10SM BKN046 BKN050 BKN070 24/12 A2986 RMK AO2 LTG DSNT SE T02380118,,,4600.0,,,53.21,,W,29.21,28.5,,Mostly Cloudy
KIGQ,06/19/2017 16:35 UTC,29.86,75.92,53.06,45.04,10.36,290.0,18.41,,703.0,,,463.0,503.0,,,10.0,,KIGQ 191635Z AUTO 29009G16KT 10SM BKN046 BKN050 BKN070 24/12 A2986 RMK AO2 T02440117,,,4600.0,,,53.04,,WNW,29.21,28.5,,Mostly Cloudy
KIGQ,06/19/2017 16:55 UTC,29.85,76.46,53.96,45.73,11.5,270.0,,5.0,1203.0,,,502.0,602.0,,,10.0,,KIGQ 191655Z AUTO 27010KT 10SM TS SCT050 SCT060 BKN120 25/12 A2985 RMK AO2 LTG DSNT N AND E T02470122,,,12000.0,,,53.95,,W,29.2,28.44,,Thunder
KIGQ,06/19/2017 17:15 UTC,29.85,75.38,52.34,44.66,11.5,300.0,,,1103.0,,,502.0,602.0,,,10.0,,KIGQ 191715Z AUTO 30010KT 10SM SCT050 SCT060 BKN110 24/11 A2985 RMK AO2 LTG DSNT N AND E T02410113,,,11000.0,,,52.31,,WNW,29.2,28.52,,Mostly Cloudy
KIGQ,06/19/2017 17:35 UTC,29.84,77.72,52.7,41.88,14.97,270.0,21.85,,802.0,,,502.0,602.0,,,10.0,,KIGQ 191735Z AUTO 27013G19KT 10SM SCT050 SCT060 SCT080 25/12 A2984 RMK AO2 LTG DSNT E T02540115,,,,,,52.7,,W,29.19,28.48,,Partly Cloudy
KIGQ,06/19/2017 17:55 UTC,29.84,77.72,52.52,41.61,9.22,290.0,19.57,,,,,1.0,,,,10.0,,KIGQ 191755Z AUTO 29008G17KT 10SM CLR 25/11 A2984 RMK AO2 LTG DSNT  N S AND SW T02540114 10256 20186,78.08,65.48,,,,52.52,,WNW,29.19,28.49,,Clear
KIGQ,06/19/2017 18:15 UTC,29.83,77.36,51.62,40.73,14.97,270.0,20.71,,,,,602.0,702.0,,,10.0,,KIGQ 191815Z AUTO 27013G18KT 10SM SCT060 SCT070 25/11 A2983 RMK AO2 LTG DSNT N AND SE T02520109,,,,,,51.61,,W,29.18,28.52,,Partly Cloudy
KIGQ,06/19/2017 18:35 UTC,29.83,78.62,51.26,38.56,20.71,260.0,31.07,5.0,952.0,,,602.0,702.0,,,10.0,,KIGQ 191835Z AUTO 26018G27KT 10SM VCTS SCT060 SCT070 SCT095 26/11  A2983 RMK AO2 LTG DSNT NW THRU SE T02590107,,,,,,51.27,,W,29.18,28.53,,Thunder
KIGQ,06/19/2017 18:55 UTC,29.83,76.28,51.26,41.66,14.97,290.0,25.32,,803.0,,,603.0,703.0,,,10.0,,KIGQ 191855Z AUTO 29013G22KT 10SM BKN060 BKN070 BKN080 25/11 A2983 RMK AO2 LTG DSNT NE T02460107,,,6000.0,,,51.25,,WNW,29.18,28.54,,Mostly Cloudy
KIGQ,06/19/2017 19:15 UTC,29.82,79.7,51.62,37.72,21.85,280.0,29.93,5.0,,,,603.0,,,,10.0,,KIGQ 191915Z AUTO 28019G26KT 10SM VCTS BKN060 27/11 A2982 RMK AO2  LTG DSNT N AND SE T02650109,,,6000.0,,,51.64,,W,29.17,28.49,,Thunder
KIGQ,06/19/2017 19:35 UTC,29.82,78.62,51.98,39.6,14.97,270.0,25.32,,1202.0,,,602.0,752.0,,,10.0,,KIGQ 191935Z AUTO 27013G22KT 10SM SCT060 SCT075 SCT120 26/11 A2982 RMK AO2 LTG DSNT E SE AND NW T02590111,,,,,,51.99,,W,29.17,28.48,,Partly Cloudy
KIGQ,06/19/2017 19:55 UTC,29.81,79.7,49.82,35.29,16.11,270.0,25.32,,1102.0,,,602.0,752.0,,,10.0,,KIGQ 191955Z AUTO 27014G22KT 10SM SCT060 SCT075 SCT110 27/10 A2981 RMK AO2 LTG DSNT NW T02650099,,,,,,49.85,,W,29.16,28.56,,Partly Cloudy
KIGQ,06/19/2017 20:15 UTC,29.81,78.98,48.2,34.01,16.11,290.0,34.52,5.0,,,,752.0,,,,10.0,,KIGQ 192015Z AUTO 29014G30KT 10SM VCTS SCT075 26/09 A2981 RMK AO2  LTG DSNT NW THRU NE T02610090,,,,,,48.22,,WNW,29.16,28.63,,Thunder
KIGQ,06/19/2017 20:35 UTC,29.82,80.6,48.2,32.25,16.11,300.0,33.38,5.0,,,,1.0,,,,10.0,,KIGQ 192035Z AUTO 30014G29KT 10SM VCTS CLR 27/09 A2982 RMK AO2 LTG  DSNT NW THRU NE T02700090,,,,,,48.24,,WNW,29.17,28.63,79.88,Thunder
KIGQ,06/19/2017 20:55 UTC,29.82,77.54,48.02,35.42,17.27,300.0,26.46,,,,,702.0,1002.0,,,10.0,,KIGQ 192055Z AUTO 30015G23KT 10SM SCT070 SCT100 25/09 A2982 RMK AO2 LTG DSNT NW THRU NE T02530089,,,,,,48.02,,WNW,29.17,28.66,,Partly Cloudy
KIGQ,06/19/2017 21:15 UTC,29.83,74.66,50.9,43.38,11.5,340.0,19.57,,,,,753.0,1103.0,,,10.0,,KIGQ 192115Z AUTO 34010G17KT 10SM BKN075 BKN110 24/11 A2983 RMK AO2 LTG DSNT N THRU E T02370105,,,7500.0,,,50.87,,NNW,29.18,28.57,,Mostly Cloudy
KIGQ,06/19/2017 21:35 UTC,29.83,74.3,50.9,43.91,11.5,340.0,,,,,,653.0,803.0,,,10.0,,KIGQ 192135Z AUTO 34010KT 10SM BKN065 BKN080 24/11 A2983 RMK AO2  LTG DSNT E AND NW T02350105,,,6500.0,,,50.87,,NNW,29.18,28.57,,Mostly Cloudy
KIGQ,06/19/2017 21:55 UTC,29.87,71.06,50.9,48.96,12.66,360.0,31.07,,753.0,,,482.0,653.0,,,10.0,,KIGQ 192155Z AUTO 36011G27KT 10SM SCT048 BKN065 BKN075 22/11 A2987 RMK AO2 LTG DSNT NW T02170105,,,6500.0,,,50.84,,N,29.22,28.64,,Mostly Cloudy
KIGQ,06/19/2017 22:15 UTC,29.86,70.7,50.9,49.57,6.91,360.0,,,752.0,,,482.0,652.0,,,10.0,,KIGQ 192215Z AUTO 36006KT 10SM SCT048 SCT065 SCT075 22/11 A2986 RMK AO2 LTG DSNT E AND W T02150105,,,,,,50.84,,N,29.21,28.64,,Partly Cloudy
KIGQ,06/19/2017 22:35 UTC,29.86,69.98,51.98,52.86,11.5,10.0,,,,,,1002.0,1202.0,,,10.0,,KIGQ 192235Z AUTO 01010KT 10SM SCT100 SCT120 21/11 A2986 RMK AO2  LTG DSNT W AND NW T02110111,,,,,,51.92,,N,29.21,28.6,,Partly Cloudy
KIGQ,06/19/2017 22:55 UTC,29.89,68.18,51.08,54.38,9.22,320.0,,,,,,702.0,1002.0,,,10.0,,KIGQ 192255Z AUTO 32008KT 10SM SCT070 SCT100 20/11 A2989 RMK AO2  LTG DSNT N AND NW T02010106,,,,,,51.01,,NW,29.24,28.68,,Partly Cloudy
KIGQ,06/19/2017 23:15 UTC,29.87,68.54,50.36,52.3,8.05,10.0,16.11,,1003.0,,,602.0,752.0,,,10.0,,KIGQ 192315Z AUTO 01007G14KT 10SM SCT060 SCT075 BKN100 20/10 A2987 RMK AO2 T02030102,,,10000.0,,,50.29,,N,29.22,28.69,,Mostly Cloudy
KIGQ,06/19/2017 23:35 UTC,29.87,68.9,51.44,53.76,4.61,340.0,,,1202.0,,,752.0,902.0,,,10.0,,KIGQ 192335Z AUTO 34004KT 10SM SCT075 SCT090 SCT120 21/11 A2987 RMK AO2 LTG DSNT W T02050108,,,,,,51.37,,NNW,29.22,28.64,,Partly Cloudy
KIGQ,06/19/2017 23:55 UTC,29.88,68.72,51.44,54.1,4.61,320.0,,,,,,902.0,1102.0,,,10.0,,KIGQ 192355Z AUTO 32004KT 10SM SCT090 SCT110 20/11 A2988 RMK AO2  LTG DSNT S T02040108 10271 20200,80.78,68.0,,,,51.38,,NW,29.23,28.65,,Partly Cloudy
KIGQ,06/20/2017 00:15 UTC,29.88,68.72,51.26,53.74,4.61,350.0,,5.0,,,,902.0,1102.0,,,10.0,,KIGQ 200015Z AUTO 35004KT 10SM VCTS SCT090 SCT110 20/11 A2988 RMK AO2 LTG DSNT S T02040107,,,,,,51.19,,N,29.23,28.66,,Thunder
KIGQ,06/20/2017 00:35 UTC,29.89,66.74,51.08,57.14,4.61,330.0,,,,,,903.0,,,,10.0,,KIGQ 200035Z AUTO 33004KT 10SM BKN090 19/11 A2989 RMK AO2 LTG DSNT  SW AND W T01930106,,,9000.0,,,51.01,,NNW,29.24,28.69,,Mostly Cloudy
KIGQ,06/20/2017 00:55 UTC,29.9,66.74,53.24,61.87,10.36,300.0,16.11,14.0,904.0,,,412.0,803.0,,,10.0,,KIGQ 200055Z AUTO 30009G14KT 240V320 10SM +RA SCT041 BKN080 OVC090  19/12 A2990 RMK AO2 LTG DSNT SW T01930118,,,8000.0,,,53.18,,WNW,29.25,28.61,,Heavy Rain
KIGQ,06/20/2017 01:15 UTC,29.89,63.86,54.68,72.07,5.75,250.0,,,1002.0,,,652.0,752.0,,,10.0,,KIGQ 200115Z AUTO 25005KT 10SM SCT065 SCT075 SCT100 18/13 A2989 RMK AO2 T01770126,,,,,,54.62,,WSW,29.24,28.57,,Partly Cloudy
KIGQ,06/20/2017 01:35 UTC,29.89,63.68,54.68,72.53,4.61,250.0,,,,,,1002.0,,,,10.0,,KIGQ 200135Z AUTO 25004KT 10SM SCT100 18/13 A2989 RMK AO2  T01760126,,,,,,54.62,,WSW,29.24,28.57,,Partly Cloudy
KIGQ,06/20/2017 01:55 UTC,29.91,63.32,54.68,73.45,4.61,290.0,,,,,,1102.0,,,,10.0,,KIGQ 200155Z AUTO 29004KT 10SM SCT110 17/13 A2991 RMK AO2  T01740126,,,,,,54.63,,WNW,29.26,28.6,,Partly Cloudy
KIGQ,06/20/2017 02:15 UTC,29.91,62.24,54.5,75.79,5.75,240.0,,,,,,1.0,,,,10.0,,KIGQ 200215Z AUTO 24005KT 10SM CLR 17/13 A2991 RMK AO2  T01680125,,,,,,54.45,,WSW,29.26,28.61,,Clear
KIGQ,06/20/2017 02:35 UTC,29.93,61.7,54.68,77.75,5.75,260.0,,,,,,1.0,,,,10.0,,KIGQ 200235Z AUTO 26005KT 10SM CLR 17/13 A2993 RMK AO2  T01650126,,,,,,54.63,,W,29.28,28.63,,Clear
KIGQ,06/20/2017 02:55 UTC,29.94,62.6,53.6,72.42,6.91,270.0,,,,,,1.0,,,,10.0,,KIGQ 200255Z AUTO 27006KT 10SM CLR 17/12 A2994 RMK AO2  T01700120,,,,,,53.54,,W,29.29,28.68,,Clear
KIGQ,06/20/2017 03:15 UTC,29.94,61.88,52.7,71.87,6.91,250.0,,,,,,1.0,,,,10.0,,KIGQ 200315Z AUTO 25006KT 10SM CLR 17/12 A2994 RMK AO2  T01660115,,,,,,52.64,,WSW,29.29,28.72,,Clear
KIGQ,06/20/2017 03:35 UTC,29.94,62.24,53.24,72.38,6.91,250.0,,,,,,1.0,,,,10.0,,KIGQ 200335Z AUTO 25006KT 10SM CLR 17/12 A2994 RMK AO2  T01680118,,,,,,53.18,,WSW,29.29,28.7,,Clear
KIGQ,06/20/2017 03:55 UTC,29.95,61.7,53.06,73.29,5.75,260.0,,,,,,1.0,,,,10.0,,KIGQ 200355Z AUTO 26005KT 10SM CLR 17/12 A2995 RMK AO2  T01650117,,,,,,53.0,,W,29.3,28.72,,Clear
KIGQ,06/20/2017 04:15 UTC,29.95,61.88,53.24,73.3,6.91,240.0,,,,,,1.0,,,,10.0,,KIGQ 200415Z AUTO 24006KT 10SM CLR 17/12 A2995 RMK AO2  T01660118,,,,,,53.18,,WSW,29.3,28.71,,Clear
KIGQ,06/20/2017 04:35 UTC,29.95,60.98,53.6,76.68,5.75,240.0,,,,,,1.0,,,,10.0,,KIGQ 200435Z AUTO 24005KT 10SM CLR 16/12 A2995 RMK AO2  T01610120,,,,,,53.55,,WSW,29.3,28.71,,Clear
KIGQ,06/20/2017 04:55 UTC,29.94,60.62,53.78,78.17,5.75,260.0,,,,,,1.0,,,,10.0,,KIGQ 200455Z AUTO 26005KT 10SM CLR 16/12 A2994 RMK AO2  T01590121,,,,,,53.73,,W,29.29,28.69,,Clear
KIGQ,06/20/2017 05:15 UTC,29.94,59.54,53.78,81.23,6.91,270.0,,,,,,1.0,,,,10.0,,KIGQ 200515Z AUTO 27006KT 10SM CLR 15/12 A2994 RMK AO2  T01530121,,,,,,53.73,,W,29.29,28.7,,Clear
KIGQ,06/20/2017 05:35 UTC,29.94,59.9,53.78,80.2,3.44,290.0,,,,,,1.0,,,,10.0,,KIGQ 200535Z AUTO 29003KT 10SM CLR 16/12 A2994 RMK AO2  T01550121,,,,,,53.73,,WNW,29.29,28.7,,Clear
KIGQ,06/20/2017 05:55 UTC,29.94,59.18,53.78,82.28,3.44,270.0,,,,,,1.0,,,,10.0,,KIGQ 200555Z AUTO 27003KT 10SM CLR 15/12 A2994 RMK AO2 T01510121  10205 20151 402710140,68.9,59.18,,80.78,57.2,53.74,,W,29.29,28.71,,Clear
KIGQ,06/20/2017 06:15 UTC,29.95,58.28,53.42,83.86,4.61,240.0,,,,,,1.0,,,,10.0,,KIGQ 200615Z AUTO 24004KT 10SM CLR 15/12 A2995 RMK AO2  T01460119,,,,,,53.38,,WSW,29.3,28.74,,Clear
KIGQ,06/20/2017 06:35 UTC,29.95,57.38,52.88,84.92,5.75,220.0,,,,,,1.0,,,,10.0,,KIGQ 200635Z AUTO 22005KT 10SM CLR 14/12 A2995 RMK AO2  T01410116,,,,,,52.84,,SW,29.3,28.77,,Clear
KIGQ,06/20/2017 06:55 UTC,29.95,59.18,53.6,81.74,4.61,250.0,,,,,,1.0,,,,10.0,,KIGQ 200655Z AUTO 25004KT 10SM CLR 15/12 A2995 RMK AO2  T01510120,,,,,,53.55,,WSW,29.3,28.73,,Clear
KIGQ,06/20/2017 07:15 UTC,29.95,59.0,53.6,82.27,3.44,250.0,,,,,,1.0,,,,10.0,,KIGQ 200715Z AUTO 25003KT 10SM CLR 15/12 A2995 RMK AO2  T01500120,,,,,,53.56,,WSW,29.3,28.73,,Clear
KIGQ,06/20/2017 07:35 UTC,29.95,58.64,53.06,81.7,4.61,260.0,,,,,,1.0,,,,10.0,,KIGQ 200735Z AUTO 26004KT 10SM CLR 15/12 A2995 RMK AO2  T01480117,,,,,,53.01,,W,29.3,28.75,,Clear
KIGQ,06/20/2017 07:55 UTC,29.95,58.28,52.88,82.22,5.75,260.0,,,,,,1.0,,,,10.0,,KIGQ 200755Z AUTO 26005KT 10SM CLR 15/12 A2995 RMK AO2  T01460116,,,,,,52.83,,W,29.3,28.76,,Clear
KIGQ,06/20/2017 08:15 UTC,29.96,58.1,52.7,82.21,4.61,230.0,,,,,,1.0,,,,10.0,,KIGQ 200815Z AUTO 23004KT 10SM CLR 15/12 A2996 RMK AO2  T01450115,,,,,,52.66,,SW,29.31,28.78,,Clear
KIGQ,06/20/2017 08:35 UTC,29.96,57.56,52.7,83.81,4.61,250.0,,,,,,1.0,,,,10.0,,KIGQ 200835Z AUTO 25004KT 10SM CLR 14/12 A2996 RMK AO2  T01420115,,,,,,52.66,,WSW,29.31,28.79,,Clear
KIGQ,06/20/2017 08:55 UTC,29.96,58.28,52.88,82.22,6.91,260.0,,,,,,1.0,,,,10.0,,KIGQ 200855Z AUTO 26006KT 10SM CLR 15/12 A2996 RMK AO2  T01460116,,,,,,52.83,,W,29.31,28.77,,Clear
KIGQ,06/20/2017 09:15 UTC,29.97,58.28,52.7,81.68,4.61,250.0,,,,,,1.0,,,,10.0,,KIGQ 200915Z AUTO 25004KT 10SM CLR 15/12 A2997 RMK AO2  T01460115,,,,,,52.65,,WSW,29.32,28.79,,Clear
KIGQ,06/20/2017 09:35 UTC,29.97,57.38,51.98,82.15,3.44,220.0,,,,,,1.0,,,,10.0,,KIGQ 200935Z AUTO 22003KT 10SM CLR 14/11 A2997 RMK AO2  T01410111,,,,,,51.93,,SW,29.32,28.83,,Clear
KIGQ,06/20/2017 09:55 UTC,29.97,56.66,51.8,83.76,3.44,240.0,,,,,,1.0,,,,7.0,,KIGQ 200955Z AUTO 24003KT 7SM CLR 14/11 A2997 RMK AO2  T01370110,,,,,,51.76,,WSW,29.32,28.84,,Clear
KIGQ,06/20/2017 10:15 UTC,29.97,57.74,52.16,81.64,5.75,250.0,,,,,,1.0,,,,10.0,,KIGQ 201015Z AUTO 25005KT 10SM CLR 14/11 A2997 RMK AO2  T01430112,,,,,,52.11,,WSW,29.32,28.82,,Clear
KIGQ,06/20/2017 10:35 UTC,29.97,57.92,52.16,81.11,3.44,240.0,,,,,,1.0,,,,10.0,,KIGQ 201035Z AUTO 24003KT 10SM CLR 14/11 A2997 RMK AO2  T01440112,,,,,,52.11,,WSW,29.32,28.82,,Clear
KIGQ,06/20/2017 10:55 UTC,29.97,57.74,52.34,82.18,0.0,0.0,,,,,,1.0,,,,10.0,,KIGQ 201055Z AUTO 00000KT 10SM CLR 14/11 A2997 RMK AO2  T01430113,,,,,,52.29,,N,29.32,28.81,,Clear
KIGQ,06/20/2017 11:15 UTC,29.97,57.38,52.7,84.36,3.44,200.0,,31.0,,,,22.0,,,,3.0,,KIGQ 201115Z AUTO 20003KT 3SM BR SCT002 14/12 A2997 RMK AO2  T01410115,,,,,,52.66,,SSW,29.32,28.8,,Mist
KIGQ,06/20/2017 11:35 UTC,29.97,60.08,54.86,82.89,4.61,220.0,,,,,,22.0,,,,10.0,,KIGQ 201135Z AUTO 22004KT 10SM SCT002 16/13 A2997 RMK AO2  T01560127,,,,,,54.82,,SW,29.32,28.68,,Partly Cloudy
KIGQ,06/20/2017 11:55 UTC,29.98,62.06,54.86,77.28,3.44,220.0,,,,,,22.0,,,,10.0,,KIGQ 201155Z AUTO 22003KT 10SM SCT002 17/13 A2998 RMK AO2  T01670127 10167 20136,62.06,56.48,,,,54.81,,SW,29.33,28.67,,Partly Cloudy
KIGQ,06/20/2017 12:15 UTC,29.98,64.04,55.22,73.04,5.75,250.0,,,,,,22.0,,,,10.0,,KIGQ 201215Z AUTO 25005KT 10SM SCT002 18/13 A2998 RMK AO2  T01780129,,,,,,55.17,,WSW,29.33,28.64,,Partly Cloudy
KIGQ,06/20/2017 12:35 UTC,29.98,66.74,54.32,64.36,8.05,240.0,,,,,,1.0,,,,10.0,,KIGQ 201235Z AUTO 24007KT 10SM CLR 19/12 A2998 RMK AO2  T01930124,,,,,,54.26,,WSW,29.33,28.65,,Clear
KIGQ,06/20/2017 12:55 UTC,29.99,67.82,54.86,63.24,8.05,250.0,,,,,,1.0,,,,10.0,,KIGQ 201255Z AUTO 25007KT 10SM CLR 20/13 A2999 RMK AO2  T01990127,,,,,,54.8,,WSW,29.34,28.62,,Clear
KIGQ,06/20/2017 13:15 UTC,29.99,69.08,54.5,59.78,8.05,260.0,,,,,,1.0,,,,10.0,,KIGQ 201315Z AUTO 26007KT 10SM CLR 21/13 A2999 RMK AO2  T02060125,,,,,,54.44,,W,29.34,28.63,,Clear
KIGQ,06/20/2017 13:35 UTC,29.99,70.88,54.32,55.86,9.22,260.0,,,,,,1.0,,,,10.0,,KIGQ 201335Z AUTO 26008KT 10SM CLR 22/12 A2999 RMK AO2  T02160124,,,,,,54.27,,W,29.34,28.62,,Clear
KIGQ,06/20/2017 13:55 UTC,29.99,71.96,53.42,52.11,9.22,280.0,16.11,,,,,1.0,,,,10.0,,KIGQ 201355Z AUTO 28008G14KT 10SM CLR 22/12 A2999 RMK AO2  T02220119,,,,,,53.37,,W,29.34,28.65,,Clear
KIGQ,06/20/2017 14:15 UTC,29.99,73.22,52.34,48.01,13.8,260.0,17.27,,,,,1.0,,,,10.0,,KIGQ 201415Z AUTO 26012G15KT 10SM CLR 23/11 A2999 RMK AO2  T02290113,,,,,,52.3,,W,29.34,28.69,,Clear
KIGQ,06/20/2017 14:35 UTC,29.99,74.12,50.9,44.17,13.8,280.0,18.41,,,,,1.0,,,,10.0,,KIGQ 201435Z AUTO 28012G16KT 10SM CLR 23/11 A2999 RMK AO2  T02340105,,,,,,50.86,,W,29.34,28.74,,Clear
KIGQ,06/20/2017 14:55 UTC,29.98,75.2,50.54,42.04,13.8,290.0,,,,,,1.0,,,,10.0,,KIGQ 201455Z AUTO 29012KT 10SM CLR 24/10 A2998 RMK AO2  T02400103,,,,,,50.51,,WNW,29.33,28.74,,Clear
KIGQ,06/20/2017 15:15 UTC,29.98,76.1,49.28,38.94,11.5,280.0,20.71,,,,,1.0,,,,10.0,,KIGQ 201515Z AUTO 28010G18KT 10SM CLR 25/10 A2998 RMK AO2  T02450096,,,,,,49.27,,W,29.33,28.78,,Clear
KIGQ,06/20/2017 15:35 UTC,29.98,76.64,48.92,37.73,16.11,270.0,21.85,,,,,1.0,,,,10.0,,KIGQ 201535Z AUTO 27014G19KT 10SM CLR 25/09 A2998 RMK AO2  T02480094,,,,,,48.91,,W,29.33,28.79,,Clear
KIGQ,06/20/2017 15:55 UTC,29.98,77.18,49.64,38.08,12.66,270.0,19.57,,,,,1.0,,,,10.0,,KIGQ 201555Z AUTO 27011G17KT 10SM CLR 25/10 A2998 RMK AO2  T02510098,,,,,,49.64,,W,29.33,28.76,,Clear
KIGQ,06/20/2017 16:15 UTC,29.97,77.18,49.1,37.32,13.8,270.0,18.41,,,,,1.0,,,,10.0,,KIGQ 201615Z AUTO 27012G16KT 10SM CLR 25/10 A2997 RMK AO2  T02510095,,,,,,49.1,,W,29.32,28.77,,Clear
KIGQ,06/20/2017 16:35 UTC,29.97,77.9,49.28,36.69,11.5,260.0,20.71,,,,,1.0,,,,10.0,,KIGQ 201635Z AUTO 26010G18KT 10SM CLR 26/10 A2997 RMK AO2  T02550096,,,,,,49.29,,W,29.32,28.76,,Clear
KIGQ,06/20/2017 16:55 UTC,29.96,79.16,48.92,34.73,11.5,270.0,19.57,,,,,1.0,,,,10.0,,KIGQ 201655Z AUTO 27010G17KT 10SM CLR 26/09 A2996 RMK AO2  T02620094,,,,,,48.94,,W,29.31,28.75,,Clear
KIGQ,06/20/2017 17:15 UTC,29.95,79.34,48.02,33.38,9.22,280.0,17.27,,,,,1.0,,,,10.0,,KIGQ 201715Z AUTO 28008G15KT 10SM CLR 26/09 A2995 RMK AO2  T02630089,,,,,,48.04,,W,29.3,28.78,,Clear
KIGQ,06/20/2017 17:35 UTC,29.94,80.06,47.48,31.95,6.91,270.0,,,,,,1.0,,,,10.0,,KIGQ 201735Z AUTO 27006KT 10SM CLR 27/09 A2994 RMK AO2  T02670086,,,,,,47.51,,W,29.29,28.78,79.27,Clear
KIGQ,06/20/2017 17:55 UTC,29.93,82.4,47.66,29.82,12.66,270.0,19.57,,,,,1.0,,,,10.0,,KIGQ 201755Z AUTO 27011G17KT 10SM CLR 28/09 A2993 RMK AO2  T02800087 10280 20167,82.4,62.06,,,,47.74,,W,29.28,28.75,80.76,Clear
KIGQ,06/20/2017 18:15 UTC,29.93,82.58,47.84,29.84,17.27,270.0,24.16,,,,,1.0,,,,10.0,,KIGQ 201815Z AUTO 27015G21KT 10SM CLR 28/09 A2993 RMK AO2  T02810088,,,,,,47.91,,W,29.28,28.74,80.89,Clear
KIGQ,06/20/2017 18:35 UTC,29.92,82.4,46.22,28.24,11.5,270.0,24.16,,,,,1.0,,,,10.0,,KIGQ 201835Z AUTO 27010G21KT 10SM CLR 28/08 A2992 RMK AO2  T02800079,,,,,,46.3,,W,29.27,28.79,80.63,Clear
KIGQ,06/20/2017 18:55 UTC,29.91,81.14,45.68,28.82,10.36,280.0,,,,,,1102.0,,,,10.0,,KIGQ 201855Z AUTO 28009KT 10SM SCT110 27/08 A2991 RMK AO2  T02730076,,,,,,45.74,,W,29.26,28.81,79.82,Partly Cloudy
KIGQ,06/20/2017 19:15 UTC,29.9,79.34,46.22,31.2,5.75,230.0,,,,,,902.0,1102.0,,,10.0,,KIGQ 201915Z AUTO 23005KT 10SM SCT090 SCT110 26/08 A2990 RMK AO2  T02630079,,,,,,46.25,,SW,29.25,28.79,,Partly Cloudy
KIGQ,06/20/2017 19:35 UTC,29.9,79.7,46.76,31.47,6.91,260.0,,,,,,903.0,1203.0,,,10.0,,KIGQ 201935Z AUTO 26006KT 10SM BKN090 BKN120 27/08 A2990 RMK AO2  LTG DSNT W T02650082,,,9000.0,,,46.8,,W,29.25,28.77,,Mostly Cloudy
KIGQ,06/20/2017 19:55 UTC,29.92,68.9,55.4,62.15,16.11,10.0,28.77,,,0.01,,803.0,1103.0,,,10.0,,KIGQ 201955Z AUTO 01014G25KT 10SM +VCTSRA BKN080 BKN110 21/13  A2992 RMK AO2 LTG DSNT S THRU NW P0001 T02050130,,,8000.0,,,55.35,,N,29.27,28.52,,Mostly Cloudy
KIGQ,06/20/2017 20:15 UTC,29.91,65.3,58.82,79.58,10.36,80.0,,1.0,804.0,0.03,,242.0,703.0,,,5.0,,KIGQ 202015Z AUTO 08009KT 5SM RA SCT024 BKN070 OVC080 19/15 A2991 RMK AO2 LTG DSNT S AND SW P0003 T01850149,,,7000.0,,,58.78,,E,29.26,28.38,,Rain
KIGQ,06/20/2017 20:35 UTC,29.9,66.74,59.36,77.19,11.5,40.0,,,1204.0,0.03,,242.0,903.0,,,10.0,,KIGQ 202035Z AUTO 04010KT 10SM SCT024 BKN090 OVC120 19/15 A2990 RMK AO2 P0003 T01930152,,,9000.0,,,59.32,,NE,29.25,28.32,,Overcast
KIGQ,06/20/2017 20:55 UTC,29.92,65.48,57.38,75.11,17.27,20.0,26.46,,1204.0,0.03,0.05,702.0,903.0,,,10.0,,KIGQ 202055Z AUTO 02015G23KT 10SM VCTSRA SCT070 BKN090 OVC120  19/14 A2992 RMK AO2 LTG DSNT W P0003 60005 T01860141,,,9000.0,,,57.34,,NNE,29.27,28.46,,Overcast
KIGQ,06/20/2017 21:15 UTC,29.95,62.06,57.38,84.65,10.36,20.0,21.85,13.0,904.0,0.01,,382.0,802.0,,,10.0,,KIGQ 202115Z AUTO 02009G19KT 10SM -RA SCT038 SCT080 OVC090 17/14  A2995 RMK AO2 LTG DSNT W P0001 T01670141,,,9000.0,,,57.35,,NNE,29.3,28.53,,Light Rain
KIGQ,06/20/2017 21:35 UTC,29.95,60.98,56.66,85.69,13.8,360.0,21.85,1.0,,0.02,,702.0,904.0,,,10.0,,KIGQ 202135Z AUTO 36012G19KT 340V050 10SM RA SCT070 OVC090 16/14  A2995 RMK AO2 LTG DSNT W P0002 T01610137,,,9000.0,,,56.63,,N,29.3,28.57,,Rain
KIGQ,06/20/2017 21:55 UTC,29.96,60.26,56.66,87.91,8.05,20.0,,1.0,,0.04,,702.0,904.0,,,10.0,,KIGQ 202155Z AUTO 02007KT 10SM RA SCT070 OVC090 16/14 A2996 RMK AO2 LTG DSNT W P0004 T01570137,,,9000.0,,,56.63,,NNE,29.31,28.59,,Rain
KIGQ,06/20/2017 22:15 UTC,29.96,59.9,56.48,88.46,4.61,60.0,,1.0,,0.01,,652.0,904.0,,,7.0,,KIGQ 202215Z AUTO 06004KT 7SM RA SCT065 OVC090 16/14 A2996 RMK AO2  P0001 T01550136,,,9000.0,,,56.45,,ENE,29.31,28.6,,Rain
KIGQ,06/20/2017 22:35 UTC,29.92,60.08,56.84,89.05,10.36,120.0,,13.0,1104.0,0.03,,412.0,803.0,,,7.0,,KIGQ 202235Z AUTO 12009KT 7SM -RA SCT041 BKN080 OVC110 16/14 A2992 RMK AO2 P0003 T01560138,,,8000.0,,,56.81,,ESE,29.27,28.54,,Light Rain
KIGQ,06/20/2017 22:55 UTC,29.91,60.98,57.2,87.38,3.44,130.0,,,1202.0,0.03,,852.0,1002.0,,,10.0,,KIGQ 202255Z AUTO 13003KT 10SM SCT085 SCT100 SCT120 16/14 A2991 RMK AO2 P0003 T01610140,,,,,,57.17,,SE,29.26,28.51,,Partly Cloudy
KIGQ,06/20/2017 23:15 UTC,29.91,62.78,58.1,84.7,3.44,90.0,,,,,,1.0,,,,10.0,,KIGQ 202315Z AUTO 09003KT 10SM CLR 17/15 A2991 RMK AO2  T01710145,,,,,,58.07,,E,29.26,28.44,,Clear
KIGQ,06/20/2017 23:35 UTC,29.91,63.86,57.56,79.99,0.0,0.0,,,,,,22.0,,,,10.0,,KIGQ 202335Z AUTO 00000KT 10SM SCT002 18/14 A2991 RMK AO2  T01770142,,,,,,57.52,,N,29.26,28.46,,Partly Cloudy
KIGQ,06/20/2017 23:55 UTC,29.9,64.4,58.28,80.55,0.0,0.0,,,,,,1.0,,0.13,,10.0,,KIGQ 202355Z AUTO 00000KT 10SM CLR 18/15 A2990 RMK AO2 60013  T01800146 10283 20155,82.94,59.9,,,,58.24,,N,29.25,28.41,,Clear
KIGQ,06/21/2017 00:15 UTC,29.91,64.58,58.1,79.53,0.0,0.0,,,,,,1.0,,,,10.0,,KIGQ 210015Z AUTO 00000KT 10SM CLR 18/15 A2991 RMK AO2  T01810145,,,,,,58.06,,N,29.26,28.42,,Clear
KIGQ,06/21/2017 00:35 UTC,29.92,65.12,57.38,76.05,0.0,0.0,,,,,,1.0,,,,10.0,,KIGQ 210035Z AUTO 00000KT 10SM CLR 18/14 A2992 RMK AO2  T01840141,,,,,,57.33,,N,29.27,28.46,,Clear
KIGQ,06/21/2017 00:55 UTC,29.92,64.94,57.38,76.53,0.0,0.0,,,,,,802.0,,,,7.0,,KIGQ 210055Z AUTO 00000KT 7SM SCT080 18/14 A2992 RMK AO2  T01830141,,,,,,57.34,,N,29.27,28.46,,Partly Cloudy
KIGQ,06/21/2017 01:15 UTC,29.91,64.04,57.74,80.0,3.44,60.0,,,,,,802.0,,,,10.0,,KIGQ 210115Z AUTO 06003KT 10SM SCT080 18/14 A2991 RMK AO2  T01780143,,,,,,57.7,,ENE,29.26,28.45,,Partly Cloudy
KIGQ,06/21/2017 01:35 UTC,29.92,63.5,56.66,78.42,0.0,0.0,,,,,,1.0,,,,10.0,,KIGQ 210135Z AUTO 00000KT 10SM CLR 18/14 A2992 RMK AO2  T01750137,,,,,,56.62,,N,29.27,28.51,,Clear
KIGQ,06/21/2017 01:55 UTC,29.92,62.78,57.38,82.54,0.0,0.0,,,,,,1.0,,,,10.0,,KIGQ 210155Z AUTO 00000KT 10SM CLR 17/14 A2992 RMK AO2  T01710141,,,,,,57.35,,N,29.27,28.49,,Clear
KIGQ,06/21/2017 02:15 UTC,29.93,62.06,57.56,85.2,0.0,0.0,,,,,,1.0,,,,10.0,,KIGQ 210215Z AUTO 00000KT 10SM CLR 17/14 A2993 RMK AO2  T01670142,,,,,,57.53,,N,29.28,28.5,,Clear
KIGQ,06/21/2017 02:35 UTC,29.94,61.88,58.1,87.42,0.0,0.0,,,,,,1.0,,,,10.0,,KIGQ 210235Z AUTO 00000KT 10SM CLR 17/15 A2994 RMK AO2  T01660145,,,,,,58.07,,N,29.29,28.48,,Clear
KIGQ,06/21/2017 02:55 UTC,29.95,61.88,58.28,87.99,0.0,0.0,,,,,,1.0,,,,10.0,,KIGQ 210255Z AUTO 00000KT 10SM CLR 17/15 A2995 RMK AO2  T01660146,,,,,,58.25,,N,29.3,28.49,,Clear
KIGQ,06/21/2017 03:15 UTC,29.96,58.64,55.94,90.74,4.61,190.0,,,,,,1.0,,,,10.0,,KIGQ 210315Z AUTO 19004KT 10SM CLR 15/13 A2996 RMK AO2  T01480133,,,,,,55.92,,S,29.31,28.64,,Clear
KIGQ,06/21/2017 03:35 UTC,29.97,57.02,54.86,92.48,0.0,0.0,,31.0,,,,1.0,,,,4.0,,KIGQ 210335Z AUTO 00000KT 4SM BR CLR 14/13 A2997 RMK AO2  T01390127,,,,,,54.84,,N,29.32,28.72,,Mist
KIGQ,06/21/2017 03:55 UTC,29.97,59.54,59.0,98.09,0.0,0.0,,,,,,1.0,,,,10.0,,KIGQ 210355Z AUTO 00000KT 10SM CLR 15/15 A2997 RMK AO2  T01530150,,,,,,58.99,,N,29.32,28.5,,Clear
KIGQ,06/21/2017 04:15 UTC,29.97,59.72,59.18,98.09,0.0,0.0,,31.0,,,,1.0,,,,5.0,,KIGQ 210415Z AUTO 00000KT 5SM BR CLR 15/15 A2997 RMK AO2  T01540151,,,,,,59.17,,N,29.32,28.49,,Mist
KIGQ,06/21/2017 04:35 UTC,29.97,59.72,59.0,97.47,0.0,0.0,,,,,,1.0,,,,10.0,,KIGQ 210435Z AUTO 00000KT 10SM CLR 15/15 A2997 RMK AO2  T01540150,,,,,,59.0,,N,29.32,28.5,,Clear
KIGQ,06/21/2017 04:55 UTC,29.97,58.46,57.56,96.82,0.0,0.0,,31.0,,,,1.0,,,,2.0,,KIGQ 210455Z AUTO 00000KT 2SM BR CLR 15/14 A2997 RMK AO2 VIS 1V5  T01470142,,,,,,57.55,,N,29.32,28.58,,Mist
KIGQ,06/21/2017 05:15 UTC,29.97,58.46,58.1,98.72,0.0,0.0,,,,,,1.0,,,,10.0,,KIGQ 210515Z AUTO 00000KT 10SM CLR 15/15 A2997 RMK AO2  T01470145,,,,,,58.1,,N,29.32,28.56,,Clear
KIGQ,06/21/2017 05:35 UTC,29.97,57.56,57.02,98.08,0.0,0.0,,,,,,1.0,,,,7.0,,KIGQ 210535Z AUTO 00000KT 7SM CLR 14/14 A2997 RMK AO2  T01420139,,,,,,57.02,,N,29.32,28.62,,Clear
KIGQ,06/21/2017 05:55 UTC,29.98,55.22,54.14,96.14,0.0,0.0,,31.0,,,,702.0,,,,1.5,,KIGQ 210555Z AUTO 00000KT 1 1/2SM BR SCT070 13/12 A2998 RMK AO2  VIS 1/2V5 T01290123 10185 20129 402830129,65.3,55.22,,82.94,55.22,54.13,,N,29.33,28.78,,Mist
KIGQ,06/21/2017 06:15 UTC,29.98,56.3,55.94,98.71,0.0,0.0,,31.0,,,,23.0,703.0,,,1.0,,KIGQ 210615Z AUTO 00000KT 1SM BR BKN002 BKN070 14/13 A2998 RMK AO2  T01350133,,,200.0,,,55.94,,N,29.33,28.69,,Mist
KIGQ,06/21/2017 06:35 UTC,29.97,56.84,56.48,98.71,3.44,350.0,,,,,,702.0,,,,7.0,,KIGQ 210635Z AUTO 35003KT 7SM SCT070 14/14 A2997 RMK AO2  T01380136,,,,,,56.48,,N,29.32,28.65,,Partly Cloudy
KIGQ,06/21/2017 06:55 UTC,29.96,57.38,57.2,99.35,0.0,0.0,,,,,,1.0,,,,7.0,,KIGQ 210655Z AUTO 00000KT 7SM CLR 14/14 A2996 RMK AO2  T01410140,,,,,,57.2,,N,29.31,28.6,,Clear
KIGQ,06/21/2017 07:15 UTC,29.96,58.1,57.56,98.08,3.44,20.0,,,,,,1.0,,,,7.0,,KIGQ 210715Z AUTO 02003KT 7SM CLR 15/14 A2996 RMK AO2  T01450142,,,,,,57.56,,NNE,29.31,28.58,,Clear
KIGQ,06/21/2017 07:35 UTC,29.96,58.1,57.56,98.08,0.0,0.0,,,,,,1.0,,,,7.0,,KIGQ 210735Z AUTO 00000KT 7SM CLR 15/14 A2996 RMK AO2  T01450142,,,,,,57.56,,N,29.31,28.58,,Clear
KIGQ,06/21/2017 07:55 UTC,29.96,57.2,56.84,98.71,0.0,0.0,,31.0,,,,75.0,,,,1.5,,KIGQ 210755Z AUTO 00000KT 1 1/2SM BR VV007 14/14 A2996 RMK AO2  T01400138,,,700.0,,,56.84,,N,29.31,28.62,,Mist
KIGQ,06/21/2017 08:15 UTC,29.96,55.58,55.22,98.7,0.0,0.0,,31.0,,,,55.0,,,,0.75,,KIGQ 210815Z AUTO 00000KT 3/4SM BR VV005 13/13 A2996 RMK AO2  T01310129,,,500.0,,,55.22,,N,29.31,28.71,,Mist
KIGQ,06/21/2017 08:35 UTC,29.95,55.94,55.58,98.7,0.0,0.0,,31.0,,,,75.0,,,,1.0,,KIGQ 210835Z AUTO 00000KT 1SM BR VV007 13/13 A2995 RMK AO2  T01330131,,,700.0,,,55.58,,N,29.3,28.68,,Mist
KIGQ,06/21/2017 08:55 UTC,29.95,56.48,56.12,98.71,0.0,0.0,,31.0,,,,1.0,,,,4.0,,KIGQ 210855Z AUTO 00000KT 4SM BR CLR 14/13 A2995 RMK AO2  T01360134,,,,,,56.12,,N,29.3,28.65,,Mist
KIGQ,06/21/2017 09:15 UTC,29.95,56.66,56.3,98.71,0.0,0.0,,,,,,1.0,,,,7.0,,KIGQ 210915Z AUTO 00000KT 7SM CLR 14/14 A2995 RMK AO2  T01370135,,,,,,56.3,,N,29.3,28.64,,Clear
KIGQ,06/21/2017 09:35 UTC,29.95,55.76,55.4,98.7,0.0,0.0,,,,,,1.0,,,,7.0,,KIGQ 210935Z AUTO 00000KT 7SM CLR 13/13 A2995 RMK AO2  T01320130,,,,,,55.4,,N,29.3,28.69,,Clear
KIGQ,06/21/2017 09:55 UTC,29.96,53.06,52.88,99.34,0.0,0.0,,31.0,,,,1.0,,,,4.0,,KIGQ 210955Z AUTO 00000KT 4SM BR CLR 12/12 A2996 RMK AO2  T01170116,,,,,,52.88,,N,29.31,28.83,,Mist
KIGQ,06/21/2017 10:15 UTC,29.97,53.24,52.88,98.69,0.0,0.0,,9.0,,,,25.0,,,,0.25,,KIGQ 211015Z AUTO 00000KT 1/4SM FG VV002 12/12 A2997 RMK AO2  T01180116,,,200.0,,,52.88,,N,29.32,28.84,,Fog
KIGQ,06/21/2017 10:35 UTC,29.98,53.42,52.88,98.04,0.0,0.0,,31.0,,,,55.0,,,,0.75,,KIGQ 211035Z AUTO 00000KT 3/4SM BR VV005 12/12 A2998 RMK AO2  T01190116,,,500.0,,,52.87,,N,29.33,28.85,,Mist
KIGQ,06/21/2017 10:55 UTC,29.99,55.04,54.86,99.35,0.0,0.0,,31.0,,,,75.0,,,,1.0,,KIGQ 211055Z AUTO 00000KT 1SM BR VV007 13/13 A2999 RMK AO2  T01280127,,,700.0,,,54.86,,N,29.34,28.76,,Mist
KIGQ,06/21/2017 11:15 UTC,29.98,55.76,55.58,99.35,0.0,0.0,,,,,,42.0,,,,7.0,,KIGQ 211115Z AUTO 00000KT 7SM SCT004 13/13 A2998 RMK AO2  T01320131,,,,,,55.58,,N,29.33,28.71,,Partly Cloudy
KIGQ,06/21/2017 11:35 UTC,29.99,57.38,57.2,99.35,3.44,80.0,,,,,,42.0,,,,10.0,,KIGQ 211135Z AUTO 08003KT 10SM SCT004 14/14 A2999 RMK AO2  T01410140,,,,,,57.2,,E,29.34,28.63,,Partly Cloudy
KIGQ,06/21/2017 11:55 UTC,29.98,59.9,56.66,89.04,4.61,80.0,,,,,,1.0,,,0.13,10.0,,KIGQ 211155Z AUTO 08004KT 10SM CLR 16/14 A2998 RMK AO2 70013  T01550137 10155 20117,59.9,53.06,,,,56.63,,E,29.33,28.62,,Clear
KIGQ,06/21/2017 12:15 UTC,29.98,61.7,56.48,83.0,0.0,0.0,,,,,,1.0,,,,10.0,,KIGQ 211215Z AUTO 00000KT 10SM CLR 17/14 A2998 RMK AO2  T01650136,,,,,,56.44,,N,29.33,28.6,,Clear
KIGQ,06/21/2017 12:35 UTC,29.99,63.32,57.02,79.94,3.44,100.0,,,,,,1.0,,,,10.0,,KIGQ 211235Z AUTO 10003KT 10SM CLR 17/14 A2999 RMK AO2  T01740139,,,,,,56.98,,E,29.34,28.57,,Clear
KIGQ,06/21/2017 12:55 UTC,29.99,64.76,57.74,78.02,8.05,70.0,,,,,,1.0,,,,10.0,,KIGQ 211255Z AUTO 07007KT 10SM CLR 18/14 A2999 RMK AO2  T01820143,,,,,,57.7,,ENE,29.34,28.52,,Clear
KIGQ,06/21/2017 13:15 UTC,29.99,66.2,56.66,71.38,8.05,90.0,,,,,,1.0,,,,10.0,,KIGQ 211315Z AUTO 09007KT 10SM CLR 19/14 A2999 RMK AO2  T01900137,,,,,,56.61,,E,29.34,28.56,,Clear
KIGQ,06/21/2017 13:35 UTC,29.99,67.1,55.04,65.25,8.05,80.0,,,,,,1.0,,,,10.0,,KIGQ 211335Z AUTO 08007KT 10SM CLR 20/13 A2999 RMK AO2  T01950128,,,,,,54.98,,E,29.34,28.62,,Clear
KIGQ,06/21/2017 13:55 UTC,29.99,67.82,54.68,62.83,9.22,80.0,,,,,,1.0,,,,10.0,,KIGQ 211355Z AUTO 08008KT 10SM CLR 20/13 A2999 RMK AO2  T01990126,,,,,,54.62,,E,29.34,28.63,,Clear
KIGQ,06/21/2017 14:15 UTC,29.99,69.08,54.5,59.78,8.05,110.0,,,,,,1.0,,,,10.0,,KIGQ 211415Z AUTO 11007KT 10SM CLR 21/13 A2999 RMK AO2  T02060125,,,,,,54.44,,ESE,29.34,28.63,,Clear
KIGQ,06/21/2017 14:35 UTC,30.0,69.8,53.06,55.34,5.75,80.0,,,,,,1.0,,,,10.0,,KIGQ 211435Z AUTO 08005KT 10SM CLR 21/12 A3000 RMK AO2  T02100117,,,,,,53.0,,E,29.35,28.69,,Clear
KIGQ,06/21/2017 14:55 UTC,29.99,70.7,52.52,52.62,6.91,100.0,,,,,,1.0,,,,10.0,,KIGQ 211455Z AUTO 10006KT 10SM CLR 22/11 A2999 RMK AO2  T02150114,,,,,,52.47,,E,29.34,28.7,,Clear
KIGQ,06/21/2017 15:15 UTC,30.0,71.6,53.42,52.75,4.61,120.0,,,,,,1.0,,,,10.0,,KIGQ 211515Z AUTO 12004KT 10SM CLR 22/12 A3000 RMK AO2  T02200119,,,,,,53.37,,ESE,29.35,28.66,,Clear
KIGQ,06/21/2017 15:35 UTC,30.0,71.96,53.78,52.8,3.44,170.0,,,,,,1.0,,,,10.0,,KIGQ 211535Z AUTO 17003KT 10SM CLR 22/12 A3000 RMK AO2  T02220121,,,,,,53.73,,S,29.35,28.64,,Clear
KIGQ,06/21/2017 15:55 UTC,30.0,72.5,53.42,51.17,4.61,110.0,,,,,,1.0,,,,10.0,,KIGQ 211555Z AUTO 11004KT 10SM CLR 23/12 A3000 RMK AO2  T02250119,,,,,,53.37,,ESE,29.35,28.65,,Clear
KIGQ,06/21/2017 16:15 UTC,29.99,73.4,53.24,49.32,4.61,70.0,,,,,,1.0,,,,10.0,,KIGQ 211615Z AUTO 07004KT 10SM CLR 23/12 A2999 RMK AO2  T02300118,,,,,,53.2,,ENE,29.34,28.64,,Clear
KIGQ,06/21/2017 16:35 UTC,29.99,73.4,53.6,49.97,3.44,110.0,,,,,,1.0,,,,10.0,,KIGQ 211635Z AUTO 11003KT 10SM CLR 23/12 A2999 RMK AO2  T02300120,,,,,,53.56,,ESE,29.34,28.63,,Clear
KIGQ,06/21/2017 16:55 UTC,29.99,74.12,52.34,46.58,5.75,160.0,,,,,,1.0,,,,10.0,,KIGQ 211655Z AUTO 16005KT 10SM CLR 23/11 A2999 RMK AO2  T02340113,,,,,,52.31,,SSE,29.34,28.68,,Clear
KIGQ,06/21/2017 17:15 UTC,29.99,74.48,53.42,47.88,3.44,90.0,,,,,,1.0,,,,10.0,,KIGQ 211715Z AUTO 09003KT 10SM CLR 24/12 A2999 RMK AO2  T02360119,,,,,,53.39,,E,29.34,28.63,,Clear
KIGQ,06/21/2017 17:35 UTC,29.99,75.02,52.34,45.2,0.0,0.0,,,,,,1.0,,,,10.0,,KIGQ 211735Z AUTO 00000KT 10SM CLR 24/11 A2999 RMK AO2  T02390113,,,,,,52.31,,N,29.34,28.67,,Clear
KIGQ,06/21/2017 17:55 UTC,29.99,75.38,51.8,43.78,5.75,170.0,,,,,,1202.0,,,,10.0,,KIGQ 211755Z AUTO 17005KT 10SM SCT120 24/11 A2999 RMK AO2  T02410110 10245 20155,76.1,59.9,,,,51.77,,S,29.34,28.69,,Partly Cloudy
KIGQ,06/21/2017 18:15 UTC,29.98,76.64,53.6,44.86,0.0,0.0,,,,,,1202.0,,,,10.0,,KIGQ 211815Z AUTO 00000KT 10SM SCT120 25/12 A2998 RMK AO2  T02480120,,,,,,53.59,,N,29.33,28.59,,Partly Cloudy
KIGQ,06/21/2017 18:35 UTC,29.97,77.36,52.88,42.67,5.75,150.0,,,,,,1.0,,,,10.0,,KIGQ 211835Z AUTO 15005KT 10SM CLR 25/12 A2997 RMK AO2  T02520116,,,,,,52.88,,SSE,29.32,28.61,,Clear
KIGQ,06/21/2017 18:55 UTC,29.97,76.64,51.8,41.99,4.61,190.0,,,,,,1.0,,,,10.0,,KIGQ 211855Z AUTO 19004KT 10SM CLR 25/11 A2997 RMK AO2  T02480110,,,,,,51.79,,S,29.32,28.66,,Clear
KIGQ,06/21/2017 19:15 UTC,29.96,77.72,50.18,38.16,3.44,30.0,,,,,,1.0,,,,10.0,,KIGQ 211915Z AUTO 03003KT 10SM CLR 25/10 A2996 RMK AO2  T02540101,,,,,,50.18,,NNE,29.31,28.71,,Clear
KIGQ,06/21/2017 19:35 UTC,29.97,78.08,51.08,38.99,3.44,220.0,,,,,,1.0,,,,10.0,,KIGQ 211935Z AUTO 22003KT 10SM CLR 26/11 A2997 RMK AO2  T02560106,,,,,,51.08,,SW,29.32,28.68,,Clear
KIGQ,06/21/2017 19:55 UTC,29.97,79.52,53.24,40.27,3.44,210.0,,,,,,1.0,,,,10.0,,KIGQ 211955Z AUTO 21003KT 10SM CLR 26/12 A2997 RMK AO2  T02640118,,,,,,53.26,,SSW,29.32,28.57,,Clear
KIGQ,06/21/2017 20:15 UTC,29.97,78.8,51.62,38.85,5.75,130.0,,,,,,1.0,,,,10.0,,KIGQ 212015Z AUTO 13005KT 10SM CLR 26/11 A2997 RMK AO2  T02600109,,,,,,51.63,,SE,29.32,28.65,,Clear
KIGQ,06/21/2017 20:35 UTC,29.94,78.98,52.34,39.66,6.91,160.0,,,,,,1.0,,,,10.0,,KIGQ 212035Z AUTO 16006KT 140V200 10SM CLR 26/11 A2994 RMK AO2  T02610113,,,,,,52.36,,SSE,29.29,28.59,,Clear
KIGQ,06/21/2017 20:55 UTC,29.94,78.26,52.16,40.34,0.0,0.0,,,,,,1.0,,,,10.0,,KIGQ 212055Z AUTO 00000KT 10SM CLR 26/11 A2994 RMK AO2  T02570112,,,,,,52.17,,N,29.29,28.6,,Clear
KIGQ,06/21/2017 21:15 UTC,29.94,77.9,52.16,40.82,4.61,170.0,,,,,,1.0,,,,10.0,,KIGQ 212115Z AUTO 17004KT 10SM CLR 26/11 A2994 RMK AO2  T02550112,,,,,,52.16,,S,29.29,28.6,,Clear
KIGQ,06/21/2017 21:35 UTC,29.92,77.54,55.58,46.8,6.91,70.0,,,,,,1.0,,,,10.0,,KIGQ 212135Z AUTO 07006KT 10SM CLR 25/13 A2992 RMK AO2  T02530131,,,,,,55.57,,ENE,29.27,28.43,,Clear
KIGQ,06/21/2017 21:55 UTC,29.9,78.44,56.66,47.25,9.22,80.0,,,,,,1.0,,,,10.0,,KIGQ 212155Z AUTO 08008KT 10SM CLR 26/14 A2990 RMK AO2  T02580137,,,,,,56.67,,E,29.25,28.34,,Clear
KIGQ,06/21/2017 22:15 UTC,29.89,79.16,54.68,42.95,9.22,150.0,,,,,,1.0,,,,10.0,,KIGQ 212215Z AUTO 15008KT 10SM CLR 26/13 A2989 RMK AO2  T02620126,,,,,,54.69,,SSE,29.24,28.43,,Clear
KIGQ,06/21/2017 22:35 UTC,29.9,78.8,55.04,44.03,8.05,130.0,,,,,,1202.0,,,,10.0,,KIGQ 212235Z AUTO 13007KT 10SM SCT120 26/13 A2990 RMK AO2  T02600128,,,,,,55.05,,SE,29.25,28.42,,Partly Cloudy
KIGQ,06/21/2017 22:55 UTC,29.89,80.42,55.22,42.03,8.05,160.0,,,,,,1103.0,,,,10.0,,KIGQ 212255Z AUTO 16007KT 10SM BKN110 27/13 A2989 RMK AO2  T02690129,,,11000.0,,,55.24,,SSE,29.24,28.39,80.4,Mostly Cloudy
KIGQ,06/21/2017 23:15 UTC,29.89,80.06,55.94,43.66,6.91,140.0,,,,,,1102.0,,,,10.0,,KIGQ 212315Z AUTO 14006KT 10SM SCT110 27/13 A2989 RMK AO2  T02670133,,,,,,55.96,,SE,29.24,28.35,79.82,Partly Cloudy
KIGQ,06/21/2017 23:35 UTC,29.89,79.52,54.86,42.72,10.36,200.0,,,,,,1.0,,,,10.0,,KIGQ 212335Z AUTO 20009KT 10SM CLR 26/13 A2989 RMK AO2  T02640127,,,,,,54.87,,SSW,29.24,28.41,,Clear
KIGQ,06/21/2017 23:55 UTC,29.9,77.9,52.88,41.91,8.05,190.0,,,,,,1002.0,,,,10.0,,KIGQ 212355Z AUTO 19007KT 10SM SCT100 26/12 A2990 RMK AO2  T02550116 10269 20241,80.42,75.38,,,,52.88,,S,29.25,28.53,,Partly Cloudy
KIGQ,06/22/2017 00:15 UTC,29.91,77.36,55.4,46.77,4.61,190.0,,,,,,1102.0,,,,10.0,,KIGQ 220015Z AUTO 19004KT 10SM SCT110 25/13 A2991 RMK AO2  T02520130,,,,,,55.39,,S,29.26,28.43,,Partly Cloudy
KIGQ,06/22/2017 00:35 UTC,29.91,77.0,56.48,49.22,3.44,190.0,,,,,,1.0,,,,10.0,,KIGQ 220035Z AUTO 19003KT 10SM CLR 25/14 A2991 RMK AO2  T02500136,,,,,,56.47,,S,29.26,28.38,,Clear
KIGQ,06/22/2017 00:55 UTC,29.91,76.46,58.1,53.12,3.44,220.0,,,,,,1.0,,,,10.0,,KIGQ 220055Z AUTO 22003KT 10SM CLR 25/15 A2991 RMK AO2  T02470145,,,,,,58.09,,SW,29.26,28.3,,Clear
KIGQ,06/22/2017 01:15 UTC,29.91,75.56,57.92,54.37,0.0,0.0,,,,,,1.0,,,,10.0,,KIGQ 220115Z AUTO 00000KT 10SM CLR 24/14 A2991 RMK AO2  T02420144,,,,,,57.9,,N,29.26,28.32,,Clear
KIGQ,06/22/2017 01:35 UTC,29.91,74.84,58.64,57.15,0.0,0.0,,,,,,1.0,,,,10.0,,KIGQ 220135Z AUTO 00000KT 10SM CLR 24/15 A2991 RMK AO2  T02380148,,,,,,58.62,,N,29.26,28.28,,Clear
KIGQ,06/22/2017 01:55 UTC,29.91,73.04,58.28,59.92,0.0,0.0,,,,,,1.0,,,,10.0,,KIGQ 220155Z AUTO 00000KT 10SM CLR 23/15 A2991 RMK AO2  T02280146,,,,,,58.25,,N,29.26,28.32,,Clear
KIGQ,06/22/2017 02:15 UTC,29.91,72.5,57.56,59.46,0.0,0.0,,,,,,1002.0,,,,10.0,,KIGQ 220215Z AUTO 00000KT 10SM SCT100 23/14 A2991 RMK AO2  T02250142,,,,,,57.52,,N,29.26,28.36,,Partly Cloudy
KIGQ,06/22/2017 02:35 UTC,29.91,72.68,59.18,62.63,0.0,0.0,,,,,,1002.0,,,,10.0,,KIGQ 220235Z AUTO 00000KT 10SM SCT100 23/15 A2991 RMK AO2  T02260151,,,,,,59.15,,N,29.26,28.28,,Partly Cloudy
KIGQ,06/22/2017 02:55 UTC,29.92,70.7,59.9,68.71,0.0,0.0,,,,,,1.0,,,,10.0,,KIGQ 220255Z AUTO 00000KT 10SM CLR 22/16 A2992 RMK AO2  T02150155,,,,,,59.87,,N,29.27,28.27,,Clear
KIGQ,06/22/2017 03:15 UTC,29.91,70.88,60.08,68.73,0.0,0.0,,,,,,1.0,,,,10.0,,KIGQ 220315Z AUTO 00000KT 10SM CLR 22/16 A2991 RMK AO2  T02160156,,,,,,60.05,,N,29.26,28.25,,Clear
KIGQ,06/22/2017 03:35 UTC,29.92,71.24,60.8,69.65,0.0,0.0,,,,,,1.0,,,,10.0,,KIGQ 220335Z AUTO 00000KT 10SM CLR 22/16 A2992 RMK AO2  T02180160,,,,,,60.77,,N,29.27,28.22,,Clear
KIGQ,06/22/2017 03:55 UTC,29.91,70.34,60.44,70.9,0.0,0.0,,,,,,1.0,,,,10.0,,KIGQ 220355Z AUTO 00000KT 10SM CLR 21/16 A2991 RMK AO2  T02130158,,,,,,60.41,,N,29.26,28.24,,Clear
KIGQ,06/22/2017 04:15 UTC,29.91,70.7,60.08,69.15,0.0,0.0,,,,,,903.0,,,,10.0,,KIGQ 220415Z AUTO 00000KT 10SM BKN090 22/16 A2991 RMK AO2  T02150156,,,9000.0,,,60.05,,N,29.26,28.25,,Mostly Cloudy
KIGQ,06/22/2017 04:35 UTC,29.9,70.88,59.36,66.99,6.91,150.0,,,,,,902.0,,,,10.0,,KIGQ 220435Z AUTO 15006KT 10SM SCT090 22/15 A2990 RMK AO2  T02160152,,,,,,59.32,,SSE,29.25,28.28,,Partly Cloudy
KIGQ,06/22/2017 04:55 UTC,29.89,72.32,59.0,62.99,5.75,150.0,,,,,,1.0,,,,10.0,,KIGQ 220455Z AUTO 15005KT 10SM CLR 22/15 A2989 RMK AO2  T02240150,,,,,,58.97,,SSE,29.24,28.27,,Clear
KIGQ,06/22/2017 05:15 UTC,29.88,72.5,59.0,62.61,5.75,150.0,,,,,,1.0,,,,10.0,,KIGQ 220515Z AUTO 15005KT 10SM CLR 23/15 A2988 RMK AO2  T02250150,,,,,,58.97,,SSE,29.23,28.26,,Clear
KIGQ,06/22/2017 05:35 UTC,29.88,72.5,59.9,64.65,4.61,130.0,,,,,,1.0,,,,10.0,,KIGQ 220535Z AUTO 13004KT 10SM CLR 23/16 A2988 RMK AO2  T02250155,,,,,,59.87,,SE,29.23,28.21,,Clear
KIGQ,06/22/2017 05:55 UTC,29.88,71.6,60.26,67.5,3.44,140.0,,,,,,1.0,,,,10.0,,KIGQ 220555Z AUTO 14003KT 10SM CLR 22/16 A2988 RMK AO2 T02200157  10255 20213 402690117,77.9,70.34,,80.42,53.06,60.23,,SE,29.23,28.2,,Clear
KIGQ,06/22/2017 06:15 UTC,29.88,71.6,60.8,68.81,4.61,160.0,,,,,,1.0,,,,10.0,,KIGQ 220615Z AUTO 16004KT 10SM CLR 22/16 A2988 RMK AO2  T02200160,,,,,,60.77,,SSE,29.23,28.17,,Clear
KIGQ,06/22/2017 06:35 UTC,29.87,71.6,61.7,71.04,4.61,160.0,,,,,,1.0,,,,10.0,,KIGQ 220635Z AUTO 16004KT 10SM CLR 22/17 A2987 RMK AO2  T02200165,,,,,,61.67,,SSE,29.22,28.11,,Clear
KIGQ,06/22/2017 06:55 UTC,29.86,72.5,63.86,74.34,9.22,180.0,,13.0,,,,1.0,,,,10.0,,KIGQ 220655Z AUTO 18008KT 10SM -RA CLR 23/18 A2986 RMK AO2  T02250177,,,,,,63.84,,S,29.21,27.96,,Light Rain
KIGQ,06/22/2017 07:15 UTC,29.86,73.76,65.66,75.87,9.22,200.0,,,,,,1.0,,,,10.0,,KIGQ 220715Z AUTO 20008KT 10SM CLR 23/19 A2986 RMK AO2  T02320187,,,,,,65.64,,SSW,29.21,27.83,,Clear
KIGQ,06/22/2017 07:35 UTC,29.86,75.38,67.1,75.55,16.11,200.0,20.71,,,,,1.0,,,,10.0,,KIGQ 220735Z AUTO 20014G18KT 10SM CLR 24/20 A2986 RMK AO2  T02410195,,,,,,67.09,,SSW,29.21,27.71,,Clear
KIGQ,06/22/2017 07:55 UTC,29.86,75.56,67.28,75.56,12.66,210.0,18.41,,,,,1.0,,,,10.0,,KIGQ 220755Z AUTO 21011G16KT 10SM CLR 24/20 A2986 RMK AO2  T02420196,,,,,,67.27,,SSW,29.21,27.7,,Clear
KIGQ,06/22/2017 08:15 UTC,29.87,75.56,67.46,76.03,11.5,220.0,,,,,,1.0,,,,10.0,,KIGQ 220815Z AUTO 22010KT 10SM CLR 24/20 A2987 RMK AO2  T02420197,,,,,,67.45,,SW,29.22,27.7,,Clear
KIGQ,06/22/2017 08:35 UTC,29.87,74.84,67.46,77.88,8.05,200.0,,,,,,1.0,,,,10.0,,KIGQ 220835Z AUTO 20007KT 10SM CLR 24/20 A2987 RMK AO2  T02380197,,,,,,67.45,,SSW,29.22,27.71,,Clear
KIGQ,06/22/2017 08:55 UTC,29.87,74.48,67.64,79.31,8.05,210.0,,,,,,1.0,,,,10.0,,KIGQ 220855Z AUTO 21007KT 10SM CLR 24/20 A2987 RMK AO2  T02360198,,,,,,67.63,,SSW,29.22,27.7,,Clear
KIGQ,06/22/2017 09:15 UTC,29.87,74.48,67.1,77.85,12.66,210.0,17.27,,,,,1.0,,,,10.0,,KIGQ 220915Z AUTO 21011G15KT 10SM CLR 24/20 A2987 RMK AO2  T02360195,,,,,,67.09,,SSW,29.22,27.74,,Clear
KIGQ,06/22/2017 09:35 UTC,29.86,74.48,66.38,75.94,11.5,210.0,,,,,,1.0,,,,10.0,,KIGQ 220935Z AUTO 21010KT 10SM CLR 24/19 A2986 RMK AO2  T02360191,,,,,,66.37,,SSW,29.21,27.77,,Clear
KIGQ,06/22/2017 09:55 UTC,29.85,74.3,66.2,75.92,11.5,210.0,16.11,,,,,1.0,,,,10.0,,KIGQ 220955Z AUTO 21010G14KT 10SM CLR 24/19 A2985 RMK AO2  T02350190,,,,,,66.19,,SSW,29.2,27.78,,Clear
KIGQ,06/22/2017 10:15 UTC,29.86,74.3,65.48,74.05,12.66,210.0,,,,,,1.0,,,,10.0,,KIGQ 221015Z AUTO 21011KT 10SM CLR 24/19 A2986 RMK AO2  T02350186,,,,,,65.47,,SSW,29.21,27.84,,Clear
KIGQ,06/22/2017 10:35 UTC,29.86,74.3,65.48,74.05,11.5,210.0,,,,,,1.0,,,,10.0,,KIGQ 221035Z AUTO 21010KT 10SM CLR 24/19 A2986 RMK AO2  T02350186,,,,,,65.47,,SSW,29.21,27.84,,Clear
KIGQ,06/22/2017 10:55 UTC,29.88,74.12,65.48,74.5,8.05,220.0,,,,,,1.0,,,,10.0,,KIGQ 221055Z AUTO 22007KT 10SM CLR 23/19 A2988 RMK AO2  T02340186,,,,,,65.47,,SW,29.23,27.86,,Clear
KIGQ,06/22/2017 11:15 UTC,29.89,74.12,65.66,74.96,8.05,220.0,,,,,,1.0,,,,10.0,,KIGQ 221115Z AUTO 22007KT 10SM CLR 23/19 A2989 RMK AO2 LTG DSNT NE  T02340187,,,,,,65.64,,SW,29.24,27.86,,Clear
KIGQ,06/22/2017 11:35 UTC,29.89,73.94,65.66,75.41,6.91,210.0,,,,,,1.0,,,,10.0,,KIGQ 221135Z AUTO 21006KT 10SM CLR 23/19 A2989 RMK AO2  T02330187,,,,,,65.64,,SSW,29.24,27.86,,Clear
KIGQ,06/22/2017 11:55 UTC,29.89,73.76,66.2,77.3,8.05,210.0,,,,,,1.0,,,,10.0,,KIGQ 221155Z AUTO 21007KT 10SM CLR 23/19 A2989 RMK AO2 T02320190  10244 20217,75.92,71.06,,,,66.18,,SSW,29.24,27.83,,Clear
KIGQ,06/22/2017 12:15 UTC,29.89,73.94,66.56,77.8,10.36,210.0,,,,,,1.0,,,,10.0,,KIGQ 221215Z AUTO 21009KT 10SM CLR 23/19 A2989 RMK AO2  T02330192,,,,,,66.55,,SSW,29.24,27.8,,Clear
KIGQ,06/22/2017 12:35 UTC,29.9,73.76,66.74,78.76,9.22,200.0,,,,,,1.0,,,,10.0,,KIGQ 221235Z AUTO 20008KT 10SM CLR 23/19 A2990 RMK AO2 LTG DSNT E  T02320193,,,,,,66.73,,SSW,29.25,27.8,,Clear
KIGQ,06/22/2017 12:55 UTC,29.91,73.94,67.1,79.27,8.05,220.0,,,,,,1.0,,,,10.0,,KIGQ 221255Z AUTO 22007KT 10SM CLR 23/20 A2991 RMK AO2 LTG DSNT NE  AND E T02330195,,,,,,67.09,,SW,29.26,27.78,,Clear
KIGQ,06/22/2017 13:15 UTC,29.92,74.3,67.1,78.32,6.91,240.0,,,,,,1002.0,,,,10.0,,KIGQ 221315Z AUTO 24006KT 10SM SCT100 24/20 A2992 RMK AO2  T02350195,,,,,,67.09,,WSW,29.27,27.79,,Partly Cloudy
KIGQ,06/22/2017 13:35 UTC,29.91,74.48,67.28,78.33,5.75,220.0,,1.0,1002.0,,,652.0,852.0,,,10.0,,KIGQ 221335Z AUTO 22005KT 10SM RA SCT065 SCT085 SCT100 24/20 A2991 RMK AO2 T02360196,,,,,,67.27,,SW,29.26,27.76,,Rain
KIGQ,06/22/2017 13:55 UTC,29.91,74.3,68.18,81.28,9.22,190.0,,,852.0,,,482.0,652.0,,,10.0,,KIGQ 221355Z AUTO 19008KT 10SM SCT048 SCT065 SCT085 24/20 A2991 RMK AO2 T02350201,,,,,,68.17,,S,29.26,27.7,,Partly Cloudy
KIGQ,06/22/2017 14:15 UTC,29.9,74.48,67.82,79.8,10.36,200.0,,13.0,,,,752.0,952.0,,,10.0,,KIGQ 221415Z AUTO 20009KT 10SM -RA SCT075 SCT095 24/20 A2990 RMK AO2 T02360199,,,,,,67.81,,SSW,29.25,27.72,,Light Rain
KIGQ,06/22/2017 14:35 UTC,29.88,77.18,68.54,74.78,8.05,210.0,,,,,,1.0,,,,10.0,,KIGQ 221435Z AUTO 21007KT 10SM CLR 25/20 A2988 RMK AO2  T02510203,,,,,,68.54,,SSW,29.23,27.61,,Clear
KIGQ,06/22/2017 14:55 UTC,29.88,80.78,68.18,65.64,16.11,200.0,19.57,,,,,1.0,,,,10.0,,KIGQ 221455Z AUTO 20014G17KT 10SM CLR 27/20 A2988 RMK AO2  T02710201,,,,,,68.19,,SSW,29.23,27.59,83.58,Clear
KIGQ,06/22/2017 15:15 UTC,29.87,81.5,68.0,63.73,12.66,220.0,20.71,,,,,1.0,,,,10.0,,KIGQ 221515Z AUTO 22011G18KT 10SM CLR 28/20 A2987 RMK AO2  T02750200,,,,,,68.02,,SW,29.22,27.58,84.36,Clear
KIGQ,06/22/2017 15:35 UTC,29.86,82.76,67.28,59.69,16.11,210.0,19.57,,,,,302.0,,,,10.0,,KIGQ 221535Z AUTO 21014G17KT 10SM SCT030 28/20 A2986 RMK AO2  T02820196,,,,,,67.31,,SSW,29.21,27.61,85.48,Partly Cloudy
KIGQ,06/22/2017 15:55 UTC,29.86,83.3,68.36,60.88,17.27,200.0,24.16,,,,,312.0,,,,10.0,,KIGQ 221555Z AUTO 20015G21KT 10SM SCT031 29/20 A2986 RMK AO2  T02850202,,,,,,68.4,,SSW,29.21,27.52,86.6,Partly Cloudy
KIGQ,06/22/2017 16:15 UTC,29.86,81.68,68.18,63.75,13.8,220.0,,,,,,292.0,,,,10.0,,KIGQ 221615Z AUTO 22012KT 10SM SCT029 28/20 A2986 RMK AO2  T02760201,,,,,,68.2,,SW,29.21,27.56,84.64,Partly Cloudy
KIGQ,06/22/2017 16:35 UTC,29.86,82.94,68.18,61.21,17.27,220.0,20.71,,,,,292.0,,,,10.0,,KIGQ 221635Z AUTO 22015G18KT 10SM SCT029 28/20 A2986 RMK AO2  T02830201,,,,,,68.21,,SW,29.21,27.54,86.1,Partly Cloudy
KIGQ,06/22/2017 16:55 UTC,29.85,82.58,66.92,59.3,18.41,190.0,23.02,,,,,312.0,,,,10.0,,KIGQ 221655Z AUTO 19016G20KT 10SM SCT031 28/19 A2985 RMK AO2  T02810194,,,,,,66.95,,S,29.2,27.63,85.13,Partly Cloudy
KIGQ,06/22/2017 17:15 UTC,29.84,82.58,67.46,60.41,16.11,200.0,21.85,,,,,322.0,,,,10.0,,KIGQ 221715Z AUTO 20014G19KT 10SM SCT032 28/20 A2984 RMK AO2  T02810197,,,,,,67.49,,SSW,29.19,27.58,85.36,Partly Cloudy
KIGQ,06/22/2017 17:35 UTC,29.84,82.22,68.36,63.04,17.27,190.0,,,,,,302.0,352.0,,,10.0,,KIGQ 221735Z AUTO 19015KT 10SM SCT030 SCT035 28/20 A2984 RMK AO2  T02790202,,,,,,68.39,,S,29.19,27.52,85.35,Partly Cloudy
KIGQ,06/22/2017 17:55 UTC,29.83,84.38,68.72,59.53,14.97,190.0,23.02,,,,,322.0,393.0,,,10.0,,KIGQ 221755Z AUTO 19013G20KT 10SM SCT032 BKN039 29/20 A2983 RMK AO2 T02910204 10291 20231,84.38,73.58,3900.0,,,68.76,,S,29.18,27.45,88.03,Mostly Cloudy
KIGQ,06/22/2017 18:15 UTC,29.83,84.2,67.82,58.06,19.57,210.0,25.32,,,,,362.0,464.0,,,10.0,,KIGQ 221815Z AUTO 21017G22KT 10SM SCT036 OVC046 29/20 A2983 RMK AO2 T02900199,,,4600.0,,,67.87,,SSW,29.18,27.52,87.34,Overcast
KIGQ,06/22/2017 18:35 UTC,29.82,85.1,68.18,57.11,20.71,210.0,28.77,,,,,383.0,443.0,,,10.0,,KIGQ 221835Z AUTO 21018G25KT 10SM BKN038 BKN044 30/20 A2982 RMK AO2 T02950201,,,3800.0,,,68.23,,SSW,29.17,27.48,88.54,Mostly Cloudy
KIGQ,06/22/2017 18:55 UTC,29.81,86.0,68.0,55.15,14.97,220.0,23.02,,503.0,,,362.0,442.0,,,10.0,,KIGQ 221855Z AUTO 22013G20KT 10SM SCT036 SCT044 BKN050 30/20 A2981 RMK AO2 T03000200,,,5000.0,,,68.06,,SW,29.16,27.47,89.45,Mostly Cloudy
KIGQ,06/22/2017 19:15 UTC,29.81,86.36,68.0,54.53,12.66,220.0,23.02,,704.0,,,382.0,503.0,,,10.0,,KIGQ 221915Z AUTO 22011G20KT 10SM SCT038 BKN050 OVC070 30/20 A2981 RMK AO2 T03020200,,,5000.0,,,68.07,,SW,29.16,27.47,89.85,Overcast
KIGQ,06/22/2017 19:35 UTC,29.81,85.64,67.82,55.45,19.57,210.0,,,704.0,,,402.0,503.0,,,10.0,,KIGQ 221935Z AUTO 21017KT 10SM SCT040 BKN050 OVC070 30/20 A2981 RMK AO2 T02980199,,,5000.0,,,67.88,,SSW,29.16,27.49,88.94,Overcast
KIGQ,06/22/2017 19:55 UTC,29.81,85.64,67.64,55.1,20.71,200.0,24.16,,804.0,,,403.0,503.0,,,10.0,,KIGQ 221955Z AUTO 20018G21KT 10SM BKN040 BKN050 OVC080 30/20 A2981 RMK AO2 T02980198,,,4000.0,,,67.7,,SSW,29.16,27.5,88.83,Overcast
KIGQ,06/22/2017 20:15 UTC,29.8,86.54,68.0,54.22,19.57,200.0,26.46,,804.0,,,403.0,503.0,,,10.0,,KIGQ 222015Z AUTO 20017G23KT 10SM BKN040 BKN050 OVC080 30/20 A2980 RMK AO2 T03030200,,,4000.0,,,68.07,,SSW,29.15,27.45,90.05,Overcast
KIGQ,06/22/2017 20:35 UTC,29.8,85.46,67.82,55.77,21.85,200.0,28.77,,804.0,,,403.0,503.0,,,10.0,,KIGQ 222035Z AUTO 20019G25KT 10SM BKN040 BKN050 OVC080 30/20 A2980 RMK AO2 T02970199,,,4000.0,,,67.88,,SSW,29.15,27.48,88.74,Overcast
KIGQ,06/22/2017 20:55 UTC,29.78,85.64,68.18,56.14,19.57,200.0,25.32,,904.0,,,402.0,472.0,,,10.0,,KIGQ 222055Z AUTO 20017G22KT 10SM SCT040 SCT047 OVC090 30/20 A2978 RMK AO2 T02980201,,,9000.0,,,68.24,,SSW,29.13,27.43,89.15,Overcast
KIGQ,06/22/2017 21:15 UTC,29.78,84.2,68.0,58.42,16.11,200.0,23.02,,,,,903.0,,,,10.0,,KIGQ 222115Z AUTO 20014G20KT 10SM BKN090 29/20 A2978 RMK AO2  T02900200,,,9000.0,,,68.05,,SSW,29.13,27.46,87.43,Mostly Cloudy
KIGQ,06/22/2017 21:35 UTC,29.77,83.48,68.0,59.78,16.11,200.0,,,,,,804.0,,,,10.0,,KIGQ 222135Z AUTO 20014KT 10SM OVC080 29/20 A2977 RMK AO2 LTG DSNT  NW T02860200,,,8000.0,,,68.04,,SSW,29.12,27.46,86.62,Overcast
KIGQ,06/22/2017 21:55 UTC,29.77,83.84,67.82,58.73,17.27,220.0,23.02,,,,,804.0,,,,10.0,,KIGQ 222155Z AUTO 22015G20KT 10SM OVC080 29/20 A2977 RMK AO2 LTG  DSNT NE T02880199,,,8000.0,,,67.86,,SW,29.12,27.47,86.93,Overcast
KIGQ,06/22/2017 22:15 UTC,29.76,82.04,69.08,64.99,11.5,190.0,19.57,,804.0,,,372.0,433.0,,,10.0,,KIGQ 222215Z AUTO 19010G17KT 10SM SCT037 BKN043 OVC080 28/21 A2976 RMK AO2 T02780206,,,4300.0,,,69.11,,S,29.11,27.38,85.45,Overcast
KIGQ,06/22/2017 22:35 UTC,29.76,83.66,68.54,60.55,17.27,200.0,21.85,,1004.0,,,362.0,483.0,,,10.0,,KIGQ 222235Z AUTO 20015G19KT 10SM SCT036 BKN048 OVC100 29/20 A2976 RMK AO2 T02870203,,,4800.0,,,68.58,,SSW,29.11,27.41,87.1,Overcast
KIGQ,06/22/2017 22:55 UTC,29.75,84.56,69.62,61.04,14.97,200.0,,,474.0,,,323.0,393.0,,,10.0,,KIGQ 222255Z AUTO 20013KT 10SM BKN032 BKN039 OVC047 29/21 A2975 RMK AO2 T02920209,,,3200.0,,,69.67,,SSW,29.1,27.3,88.78,Overcast
KIGQ,06/22/2017 23:15 UTC,29.75,82.4,69.26,64.63,13.8,200.0,19.57,,,,,323.0,444.0,,,10.0,,KIGQ 222315Z AUTO 20012G17KT 10SM BKN032 OVC044 28/21 A2975 RMK AO2 T02800207,,,3200.0,,,69.29,,SSW,29.1,27.36,85.98,Overcast
KIGQ,06/22/2017 23:35 UTC,29.75,82.22,67.64,61.5,18.41,210.0,26.46,,603.0,,,302.0,462.0,,,10.0,,KIGQ 222335Z AUTO 21016G23KT 10SM SCT030 SCT046 BKN060 28/20 A2975 RMK AO2 T02790198,,,6000.0,,,67.67,,SSW,29.1,27.48,85.04,Mostly Cloudy
KIGQ,06/22/2017 23:55 UTC,29.75,81.68,68.72,64.94,16.11,190.0,25.32,,704.0,,,322.0,603.0,,,10.0,,KIGQ 222355Z AUTO 19014G22KT 10SM SCT032 BKN060 OVC070 28/20 A2975 RMK AO2 T02760204 10305 20275,86.9,81.5,6000.0,,,68.74,,S,29.1,27.41,84.86,Overcast
KIGQ,06/23/2017 00:15 UTC,29.74,80.6,69.08,68.1,16.11,190.0,23.02,,484.0,,,303.0,383.0,,,10.0,,KIGQ 230015Z AUTO 19014G20KT 10SM BKN030 BKN038 OVC048 27/21 A2974 RMK AO2 T02700206,,,3000.0,,,69.1,,S,29.09,27.38,83.66,Overcast
KIGQ,06/23/2017 00:35 UTC,29.74,80.24,68.54,67.64,17.27,190.0,27.63,,853.0,,,302.0,402.0,,,10.0,,KIGQ 230035Z AUTO 19015G24KT 10SM SCT030 SCT040 BKN085 27/20 A2974 RMK AO2 T02680203,,,8500.0,,,68.55,,S,29.09,27.43,83.03,Mostly Cloudy
KIGQ,06/23/2017 00:55 UTC,29.74,79.34,68.36,69.23,16.11,190.0,,,852.0,,,282.0,422.0,,,10.0,,KIGQ 230055Z AUTO 19014KT 10SM SCT028 SCT042 SCT085 26/20 A2974 RMK AO2 T02630202,,,,,,68.37,,S,29.09,27.45,,Partly Cloudy
KIGQ,06/23/2017 01:15 UTC,29.74,78.8,68.36,70.46,18.41,190.0,23.02,,652.0,,,282.0,462.0,,,10.0,,KIGQ 230115Z AUTO 19016G20KT 10SM SCT028 SCT046 SCT065 26/20 A2974 RMK AO2 T02600202,,,,,,68.36,,S,29.09,27.46,,Partly Cloudy
KIGQ,06/23/2017 01:35 UTC,29.74,78.8,68.72,71.34,20.71,190.0,24.16,,,,,302.0,483.0,,,10.0,,KIGQ 230135Z AUTO 19018G21KT 10SM SCT030 BKN048 26/20 A2974 RMK AO2 T02600204,,,4800.0,,,68.73,,S,29.09,27.43,,Mostly Cloudy
KIGQ,06/23/2017 01:55 UTC,29.74,77.9,68.18,72.13,18.41,200.0,21.85,,,,,253.0,324.0,,,10.0,,KIGQ 230155Z AUTO 20016G19KT 10SM BKN025 OVC032 26/20 A2974 RMK AO2 T02550201,,,2500.0,,,68.18,,SSW,29.09,27.48,,Overcast
KIGQ,06/23/2017 02:15 UTC,29.74,77.36,68.18,73.43,14.97,200.0,20.71,,,,,294.0,,,,10.0,,KIGQ 230215Z AUTO 20013G18KT 10SM OVC029 25/20 A2974 RMK AO2  T02520201,,,2900.0,,,68.18,,SSW,29.09,27.49,,Overcast
KIGQ,06/23/2017 02:35 UTC,29.75,77.18,68.0,73.41,9.22,200.0,21.85,,,,,223.0,294.0,,,10.0,,KIGQ 230235Z AUTO 20008G19KT 10SM BKN022 OVC029 25/20 A2975 RMK AO2 T02510200,,,2200.0,,,68.0,,SSW,29.1,27.52,,Overcast
KIGQ,06/23/2017 02:55 UTC,29.76,77.0,68.0,73.85,14.97,210.0,24.16,,,,,244.0,,,,10.0,,KIGQ 230255Z AUTO 21013G21KT 10SM OVC024 25/20 A2976 RMK AO2  T02500200,,,2400.0,,,68.0,,SSW,29.11,27.53,,Overcast
KIGQ,06/23/2017 03:15 UTC,29.76,76.28,68.0,75.63,13.8,190.0,21.85,,,,,213.0,274.0,,,10.0,,KIGQ 230315Z AUTO 19012G19KT 10SM BKN021 OVC027 25/20 A2976 RMK AO2 T02460200,,,2100.0,,,68.0,,S,29.11,27.54,,Overcast
KIGQ,06/23/2017 03:35 UTC,29.76,75.56,68.0,77.46,11.5,200.0,,,384.0,,,212.0,273.0,,,10.0,,KIGQ 230335Z AUTO 20010KT 10SM SCT021 BKN027 OVC038 24/20 A2976 RMK AO2 T02420200,,,2700.0,,,67.99,,SSW,29.11,27.55,,Overcast
KIGQ,06/23/2017 03:55 UTC,29.75,75.2,68.0,78.39,13.8,200.0,,,,,,193.0,384.0,,,10.0,,KIGQ 230355Z AUTO 20012KT 10SM BKN019 OVC038 24/20 A2975 RMK AO2  LTG DSNT NW T02400200,,,1900.0,,,67.99,,SSW,29.1,27.54,,Overcast
KIGQ,06/23/2017 04:15 UTC,29.76,74.84,68.0,79.34,16.11,210.0,20.71,,,,,174.0,,,,10.0,,KIGQ 230415Z AUTO 21014G18KT 10SM OVC017 24/20 A2976 RMK AO2  T02380200,,,1700.0,,,67.99,,SSW,29.11,27.56,,Overcast
KIGQ,06/23/2017 04:35 UTC,29.75,74.48,68.18,80.79,11.5,200.0,16.11,,,,,154.0,,,,10.0,,KIGQ 230435Z AUTO 20010G14KT 10SM OVC015 24/20 A2975 RMK AO2  T02360201,,,1500.0,,,68.17,,SSW,29.1,27.54,,Overcast
KIGQ,06/23/2017 04:55 UTC,29.74,74.3,68.18,81.28,11.5,200.0,,,,,,154.0,,,,10.0,,KIGQ 230455Z AUTO 20010KT 10SM OVC015 24/20 A2974 RMK AO2  T02350201,,,1500.0,,,68.17,,SSW,29.09,27.53,,Overcast
KIGQ,06/23/2017 05:15 UTC,29.74,74.3,68.36,81.78,9.22,200.0,,,,,,134.0,,,,10.0,,KIGQ 230515Z AUTO 20008KT 10SM OVC013 24/20 A2974 RMK AO2  T02350202,,,1300.0,,,68.35,,SSW,29.09,27.52,,Overcast
KIGQ,06/23/2017 05:35 UTC,29.73,73.94,68.54,83.29,11.5,200.0,,,,,,134.0,,,,10.0,,KIGQ 230535Z AUTO 20010KT 10SM OVC013 23/20 A2973 RMK AO2  T02330203,,,1300.0,,,68.53,,SSW,29.08,27.5,,Overcast
KIGQ,06/23/2017 05:55 UTC,29.72,73.76,68.54,83.79,12.66,210.0,,,,,,134.0,,,,10.0,,KIGQ 230555Z AUTO 21011KT 10SM OVC013 23/20 A2972 RMK AO2  T02320203 10276 20232 403050217,81.68,73.76,1300.0,86.9,71.06,68.53,,SSW,29.07,27.49,,Overcast
KIGQ,06/23/2017 06:15 UTC,29.71,73.76,68.9,84.83,13.8,210.0,17.27,,,,,114.0,,,,10.0,,KIGQ 230615Z AUTO 21012G15KT 10SM OVC011 23/21 A2971 RMK AO2  T02320205,,,1100.0,,,68.89,,SSW,29.06,27.46,,Overcast
KIGQ,06/23/2017 06:35 UTC,29.68,73.4,69.08,86.39,13.8,200.0,,,,,,94.0,,,,10.0,,KIGQ 230635Z AUTO 20012KT 10SM OVC009 23/21 A2968 RMK AO2  T02300206,,,900.0,,,69.07,,SSW,29.03,27.42,,Overcast
KIGQ,06/23/2017 06:55 UTC,29.68,73.4,69.26,86.92,12.66,210.0,18.41,,,,,94.0,,,,10.0,,KIGQ 230655Z AUTO 21011G16KT 10SM OVC009 23/21 A2968 RMK AO2  T02300207,,,900.0,,,69.25,,SSW,29.03,27.41,,Overcast
KIGQ,06/23/2017 07:15 UTC,29.67,73.58,69.26,86.4,11.5,210.0,18.41,,,,,94.0,,,,10.0,,KIGQ 230715Z AUTO 21010G16KT 10SM OVC009 23/21 A2967 RMK AO2  T02310207,,,900.0,,,69.25,,SSW,29.02,27.39,,Overcast
KIGQ,06/23/2017 07:35 UTC,29.67,73.94,69.26,85.36,12.66,220.0,18.41,,,,,114.0,,,,10.0,,KIGQ 230735Z AUTO 22011G16KT 10SM OVC011 23/21 A2967 RMK AO2  T02330207,,,1100.0,,,69.25,,SW,29.02,27.39,,Overcast
KIGQ,06/23/2017 07:55 UTC,29.67,73.94,69.26,85.36,10.36,230.0,,,,,,114.0,,,,10.0,,KIGQ 230755Z AUTO 23009KT 10SM OVC011 23/21 A2967 RMK AO2 LTG DSNT  NE T02330207,,,1100.0,,,69.25,,SW,29.02,27.39,,Overcast
KIGQ,06/23/2017 08:15 UTC,29.66,74.3,69.26,84.34,11.5,220.0,19.57,,,,,114.0,,,,10.0,,KIGQ 230815Z AUTO 22010G17KT 10SM OVC011 24/21 A2966 RMK AO2  T02350207,,,1100.0,,,69.25,,SW,29.02,27.38,,Overcast
KIGQ,06/23/2017 08:35 UTC,29.66,74.3,69.44,84.86,13.8,220.0,18.41,,,,,114.0,,,,10.0,,KIGQ 230835Z AUTO 22012G16KT 10SM OVC011 24/21 A2966 RMK AO2 LTG  DSNT SE T02350208,,,1100.0,,,69.43,,SW,29.02,27.37,,Overcast
KIGQ,06/23/2017 08:55 UTC,29.66,74.48,69.44,84.35,10.36,230.0,,,,,,114.0,,,,10.0,,KIGQ 230855Z AUTO 23009KT 10SM OVC011 24/21 A2966 RMK AO2 LTG DSNT  SE T02360208,,,1100.0,,,69.43,,SW,29.02,27.37,,Overcast
KIGQ,06/23/2017 09:15 UTC,29.66,74.66,69.8,84.88,13.8,240.0,,,,,,114.0,,,,10.0,,KIGQ 230915Z AUTO 24012KT 10SM OVC011 24/21 A2966 RMK AO2 LTG DSNT  SE T02370210,,,1100.0,,,69.79,,WSW,29.02,27.34,,Overcast
KIGQ,06/23/2017 09:35 UTC,29.66,74.66,69.8,84.88,10.36,240.0,,,,,,114.0,,,,10.0,,KIGQ 230935Z AUTO 24009KT 10SM OVC011 24/21 A2966 RMK AO2 LTG DSNT  SE AND S T02370210,,,1100.0,,,69.79,,WSW,29.02,27.34,,Overcast
KIGQ,06/23/2017 09:55 UTC,29.66,74.84,69.8,84.37,9.22,230.0,,,,,,114.0,,,,10.0,,KIGQ 230955Z AUTO 23008KT 10SM OVC011 24/21 A2966 RMK AO2 LTG DSNT  N AND W T02380210,,,1100.0,,,69.79,,SW,29.02,27.34,,Overcast
KIGQ,06/23/2017 10:15 UTC,29.65,75.02,69.8,83.87,10.36,230.0,,,,,,114.0,,,,10.0,,KIGQ 231015Z AUTO 23009KT 10SM OVC011 24/21 A2965 RMK AO2 LTG DSNT  E SE AND W T02390210,,,1100.0,,,69.79,,SW,29.01,27.32,,Overcast
KIGQ,06/23/2017 10:35 UTC,29.65,75.2,69.8,83.37,10.36,230.0,,,,,,114.0,,,,10.0,,KIGQ 231035Z AUTO 23009KT 10SM OVC011 24/21 A2965 RMK AO2 LTG DSNT  ALQS T02400210,,,1100.0,,,69.79,,SW,29.01,27.32,,Overcast
KIGQ,06/23/2017 10:55 UTC,29.65,75.2,69.98,83.88,10.36,230.0,,,,,,134.0,,,,10.0,,KIGQ 231055Z AUTO 23009KT 10SM OVC013 24/21 A2965 RMK AO2 LTG DSNT  ALQS T02400211,,,1300.0,,,69.97,,SW,29.01,27.31,,Overcast
KIGQ,06/23/2017 11:15 UTC,29.68,68.18,65.3,90.53,6.91,330.0,10.36,,,0.24,,83.0,134.0,,,1.75,,KIGQ 231115Z AUTO 33006G09KT 1 3/4SM +VCTSRA BKN008 OVC013 20/19  A2968 RMK AO2 LTG DSNT ALQS P0024 T02010185,,,800.0,,,65.29,,NNW,29.03,27.74,,Overcast
KIGQ,06/23/2017 11:35 UTC,29.68,68.0,65.48,91.67,4.61,50.0,,77.0,504.0,0.31,,103.0,273.0,,,7.0,,KIGQ 231135Z AUTO 05004KT 7SM -TSRA BKN010 BKN027 OVC050 20/19  A2968 RMK AO2 LTG DSNT ALQS P0031 T02000186,,,1000.0,,,65.47,,NE,29.03,27.73,,Light Rain/Thunderstorm
KIGQ,06/23/2017 11:55 UTC,29.67,67.46,65.3,92.8,0.0,0.0,,1.0,1104.0,0.31,,82.0,263.0,0.31,0.31,7.0,,KIGQ 231155Z AUTO 00000KT 7SM RA SCT008 BKN026 OVC110 20/19 A2967 RMK AO2 LTG DSNT ALQS P0031 60031 70031 T01970185 10240  20197,75.2,67.46,2600.0,,,65.29,,N,29.02,27.74,,Rain
KIGQ,06/23/2017 12:15 UTC,29.68,68.0,65.66,92.24,0.0,0.0,,14.0,1004.0,0.05,,63.0,273.0,,,4.0,,KIGQ 231215Z AUTO 00000KT 4SM +RA BKN006 BKN027 OVC100 20/19 A2968 RMK AO2 LTG DSNT SW P0005 T02000187,,,600.0,,,65.65,,N,29.03,27.72,,Heavy Rain
KIGQ,06/23/2017 12:35 UTC,29.69,68.0,65.84,92.82,5.75,250.0,,1.0,,0.09,,64.0,,,,7.0,,KIGQ 231235Z AUTO 25005KT 7SM RA OVC006 20/19 A2969 RMK AO2 LTG  DSNT SW P0009 T02000188,,,600.0,,,65.83,,WSW,29.04,27.72,,Rain
KIGQ,06/23/2017 12:55 UTC,29.7,68.18,66.2,93.4,6.91,240.0,,,,0.09,,72.0,144.0,,,10.0,,KIGQ 231255Z AUTO 24006KT 10SM SCT007 OVC014 20/19 A2970 RMK AO2  P0009 T02010190,,,1400.0,,,66.19,,WSW,29.05,27.71,,Overcast
KIGQ,06/23/2017 13:15 UTC,29.7,68.54,65.66,90.55,6.91,270.0,,,,,,72.0,144.0,,,10.0,,KIGQ 231315Z AUTO 27006KT 10SM SCT007 OVC014 20/19 A2970 RMK AO2  T02030187,,,1400.0,,,65.65,,W,29.05,27.74,,Overcast
KIGQ,06/23/2017 13:35 UTC,29.7,68.72,65.3,88.87,6.91,320.0,,,204.0,,,72.0,163.0,,,10.0,,KIGQ 231335Z AUTO 32006KT 10SM SCT007 BKN016 OVC020 20/19 A2970 RMK AO2 T02040185,,,1600.0,,,65.28,,NW,29.05,27.76,,Overcast
KIGQ,06/23/2017 13:55 UTC,29.7,68.9,65.3,88.33,3.44,290.0,,,234.0,,,102.0,183.0,,,10.0,,KIGQ 231355Z AUTO 29003KT 10SM SCT010 BKN018 OVC023 21/19 A2970 RMK AO2 T02050185,,,1800.0,,,65.29,,WNW,29.05,27.75,,Overcast
KIGQ,06/23/2017 14:15 UTC,29.71,68.36,64.76,88.3,4.61,360.0,,,214.0,,,102.0,143.0,,,10.0,,KIGQ 231415Z AUTO 36004KT 10SM SCT010 BKN014 OVC021 20/18 A2971 RMK AO2 T02020182,,,1400.0,,,64.74,,N,29.06,27.81,,Overcast
KIGQ,06/23/2017 14:35 UTC,29.7,66.92,63.32,88.23,8.05,10.0,,,,,,103.0,164.0,,,10.0,,KIGQ 231435Z AUTO 01007KT 10SM BKN010 OVC016 19/17 A2970 RMK AO2  T01940174,,,1000.0,,,63.3,,N,29.05,27.9,,Overcast
KIGQ,06/23/2017 14:55 UTC,29.68,66.38,63.14,89.33,5.75,10.0,,,,,0.09,144.0,,,,10.0,,KIGQ 231455Z AUTO 01005KT 10SM OVC014 19/17 A2968 RMK AO2 LTG DSNT  E 60009 T01910173,,,1400.0,,,63.12,,N,29.03,27.9,,Overcast
KIGQ,06/23/2017 15:15 UTC,29.68,68.72,64.04,85.06,8.05,10.0,,,,,,142.0,214.0,,,10.0,,KIGQ 231515Z AUTO 01007KT 10SM SCT014 OVC021 20/18 A2968 RMK AO2  T02040178,,,2100.0,,,64.02,,N,29.03,27.81,,Overcast
KIGQ,06/23/2017 15:35 UTC,29.68,69.8,61.34,74.56,11.5,360.0,16.11,,,,,212.0,,,,10.0,,KIGQ 231535Z AUTO 36010G14KT 10SM SCT021 21/16 A2968 RMK AO2  T02100163,,,,,,61.31,,N,29.03,27.96,,Partly Cloudy
KIGQ,06/23/2017 15:55 UTC,29.7,70.34,60.08,70.0,11.5,360.0,18.41,,,,,1.0,,,,10.0,,KIGQ 231555Z AUTO 36010G16KT 10SM CLR 21/16 A2970 RMK AO2  T02130156,,,,,,60.04,,N,29.05,28.04,,Clear
KIGQ,06/23/2017 16:15 UTC,29.7,70.88,59.36,66.99,12.66,360.0,,,,,,1.0,,,,10.0,,KIGQ 231615Z AUTO 36011KT 10SM CLR 22/15 A2970 RMK AO2  T02160152,,,,,,59.32,,N,29.05,28.07,,Clear
KIGQ,06/23/2017 16:35 UTC,29.7,71.6,55.76,57.44,9.22,350.0,17.27,,,,,1.0,,,,10.0,,KIGQ 231635Z AUTO 35008G15KT 320V020 10SM CLR 22/13 A2970 RMK AO2  T02200132,,,,,,55.72,,N,29.05,28.25,,Clear
KIGQ,06/23/2017 16:55 UTC,29.71,72.68,58.28,60.65,5.75,360.0,,,,,,1.0,,,,10.0,,KIGQ 231655Z AUTO 36005KT 10SM CLR 23/15 A2971 RMK AO2  T02260146,,,,,,58.25,,N,29.06,28.12,,Clear
KIGQ,06/23/2017 17:15 UTC,29.71,74.48,57.92,56.37,6.91,10.0,,,,,,1.0,,,,10.0,,KIGQ 231715Z AUTO 01006KT 10SM CLR 24/14 A2971 RMK AO2  T02360144,,,,,,57.9,,N,29.06,28.12,,Clear
KIGQ,06/23/2017 17:35 UTC,29.72,75.74,57.92,54.05,5.75,310.0,,,,,,1.0,,,,10.0,,KIGQ 231735Z AUTO 31005KT 10SM CLR 24/14 A2972 RMK AO2  T02430144,,,,,,57.9,,NW,29.07,28.12,,Clear
KIGQ,06/23/2017 18:00 UTC,29.72,75.38,57.74,54.35,3.44,10.0,,,,,,1.0,,,,10.0,,KIGQ 231800Z AUTO 01003KT 10SM CLR 24/14 A2972 RMK AO2  T02410143,,,,,,57.72,,N,29.07,28.13,,Clear
KIGQ,06/23/2017 18:15 UTC,29.72,75.38,55.94,50.93,4.61,20.0,,,,,,1.0,,,,10.0,,KIGQ 231815Z AUTO 02004KT 10SM CLR 24/13 A2972 RMK AO2  T02410133,,,,,,55.92,,NNE,29.07,28.22,,Clear
KIGQ,06/23/2017 18:35 UTC,29.72,76.1,55.4,48.77,6.91,40.0,,,,,,1.0,,,,10.0,,KIGQ 231835Z AUTO 04006KT 10SM CLR 25/13 A2972 RMK AO2  T02450130,,,,,,55.39,,NE,29.07,28.24,,Clear
KIGQ,06/23/2017 18:55 UTC,29.71,76.46,54.86,47.25,6.91,40.0,,,,,,1.0,,,,10.0,,KIGQ 231855Z AUTO 04006KT 10SM CLR 25/13 A2971 RMK AO2  T02470127,,,,,,54.85,,NE,29.06,28.26,,Clear
KIGQ,06/23/2017 19:15 UTC,29.71,77.54,54.14,44.41,6.91,20.0,,,,,,1.0,,,,10.0,,KIGQ 231915Z AUTO 02006KT 10SM CLR 25/12 A2971 RMK AO2  T02530123,,,,,,54.13,,NNE,29.06,28.28,,Clear
KIGQ,06/23/2017 19:35 UTC,29.71,77.9,52.88,41.91,8.05,70.0,,,,,,1.0,,,,10.0,,KIGQ 231935Z AUTO 07007KT 10SM CLR 26/12 A2971 RMK AO2  T02550116,,,,,,52.88,,ENE,29.06,28.34,,Clear
KIGQ,06/23/2017 19:55 UTC,29.71,78.98,51.08,37.86,9.22,60.0,,,,,,1.0,,,,10.0,,KIGQ 231955Z AUTO 06008KT 10SM CLR 26/11 A2971 RMK AO2  T02610106,,,,,,51.1,,ENE,29.06,28.41,,Clear
KIGQ,06/23/2017 20:15 UTC,29.72,79.7,51.26,37.22,4.61,10.0,,,,,,1.0,,,,10.0,,KIGQ 232015Z AUTO 01004KT 10SM CLR 27/11 A2972 RMK AO2  T02650107,,,,,,51.28,,N,29.07,28.41,,Clear
KIGQ,06/23/2017 20:35 UTC,29.72,78.26,51.08,38.76,4.61,60.0,,,,,,1.0,,,,10.0,,KIGQ 232035Z AUTO 06004KT 10SM CLR 26/11 A2972 RMK AO2  T02570106,,,,,,51.08,,ENE,29.07,28.42,,Clear
KIGQ,06/23/2017 20:55 UTC,29.72,78.98,53.06,40.72,8.05,70.0,,,,,,752.0,,,,10.0,,KIGQ 232055Z AUTO 07007KT 10SM SCT075 26/12 A2972 RMK AO2  T02610117,,,,,,53.07,,ENE,29.07,28.33,,Partly Cloudy
KIGQ,06/23/2017 21:15 UTC,29.71,78.98,50.36,36.86,5.75,50.0,,,,,,752.0,,,,10.0,,KIGQ 232115Z AUTO 05005KT 10SM SCT075 26/10 A2971 RMK AO2  T02610102,,,,,,50.38,,NE,29.06,28.44,,Partly Cloudy
KIGQ,06/23/2017 21:35 UTC,29.72,79.88,49.46,34.61,4.61,50.0,,,,,,1.0,,,,10.0,,KIGQ 232135Z AUTO 05004KT 10SM CLR 27/10 A2972 RMK AO2  T02660097,,,,,,49.49,,NE,29.07,28.48,,Clear
KIGQ,06/23/2017 21:55 UTC,29.72,80.42,47.66,31.79,6.91,260.0,,,,,,902.0,,,,10.0,,KIGQ 232155Z AUTO 26006KT 10SM SCT090 27/09 A2972 RMK AO2  T02690087,,,,,,47.7,,W,29.07,28.55,79.66,Partly Cloudy
KIGQ,06/23/2017 22:15 UTC,29.72,80.24,45.86,29.88,6.91,300.0,,,,,,902.0,,,,10.0,,KIGQ 232215Z AUTO 30006KT 10SM SCT090 27/08 A2972 RMK AO2  T02680077,,,,,,45.9,,WNW,29.07,28.62,79.37,Partly Cloudy
KIGQ,06/23/2017 22:35 UTC,29.72,79.88,47.84,32.58,11.5,290.0,,,,,,802.0,,,,10.0,,KIGQ 232235Z AUTO 29010KT 10SM SCT080 27/09 A2972 RMK AO2  T02660088,,,,,,47.87,,WNW,29.07,28.54,,Partly Cloudy
KIGQ,06/23/2017 22:55 UTC,29.72,79.16,47.66,33.13,9.22,280.0,,,,,,852.0,,,,10.0,,KIGQ 232255Z AUTO 28008KT 10SM SCT085 26/09 A2972 RMK AO2  T02620087,,,,,,47.68,,W,29.07,28.56,,Partly Cloudy
KIGQ,06/23/2017 23:15 UTC,29.72,79.7,47.48,32.33,9.22,300.0,,,,,,852.0,,,,10.0,,KIGQ 232315Z AUTO 30008KT 10SM SCT085 27/09 A2972 RMK AO2  T02650086,,,,,,47.51,,WNW,29.07,28.56,,Partly Cloudy
KIGQ,06/23/2017 23:35 UTC,29.72,78.98,48.38,34.24,11.5,280.0,17.27,,,,,852.0,,,,10.0,,KIGQ 232335Z AUTO 28010G15KT 10SM SCT085 26/09 A2972 RMK AO2  T02610091,,,,,,48.4,,W,29.07,28.53,,Partly Cloudy
KIGQ,06/23/2017 23:55 UTC,29.73,77.0,49.64,38.3,8.05,290.0,,,,,,853.0,,,,10.0,,KIGQ 232355Z AUTO 29007KT 10SM BKN085 25/10 A2973 RMK AO2  T02500098 10271 20241,80.78,75.38,8500.0,,,49.63,,WNW,29.08,28.5,,Mostly Cloudy
KIGQ,06/24/2017 00:15 UTC,29.72,77.0,50.18,39.08,8.05,280.0,,,,,,753.0,954.0,,,10.0,,KIGQ 240015Z AUTO 28007KT 10SM BKN075 OVC095 25/10 A2972 RMK AO2  T02500101,,,7500.0,,,50.17,,W,29.07,28.47,,Overcast
KIGQ,06/24/2017 00:35 UTC,29.73,77.0,51.26,40.67,9.22,290.0,,,,,,752.0,954.0,,,10.0,,KIGQ 240035Z AUTO 29008KT 10SM SCT075 OVC095 25/11 A2973 RMK AO2  T02500107,,,9500.0,,,51.25,,WNW,29.08,28.44,,Overcast
KIGQ,06/24/2017 00:55 UTC,29.74,75.92,52.16,43.58,8.05,280.0,,,952.0,,,752.0,802.0,,,10.0,,KIGQ 240055Z AUTO 28007KT 10SM SCT075 SCT080 SCT095 24/11 A2974 RMK AO2 T02440112,,,,,,52.14,,W,29.09,28.42,,Partly Cloudy
KIGQ,06/24/2017 01:15 UTC,29.74,76.1,52.16,43.32,10.36,280.0,,,1003.0,,,652.0,802.0,,,10.0,,KIGQ 240115Z AUTO 28009KT 10SM SCT065 SCT080 BKN100 25/11 A2974 RMK AO2 T02450112,,,10000.0,,,52.14,,W,29.09,28.41,,Mostly Cloudy
KIGQ,06/24/2017 01:35 UTC,29.76,75.2,50.18,41.48,10.36,290.0,20.71,,1003.0,,,652.0,802.0,,,10.0,,KIGQ 240135Z AUTO 29009G18KT 10SM SCT065 SCT080 BKN100 24/10 A2976 RMK AO2 T02400101,,,10000.0,,,50.15,,WNW,29.11,28.53,,Mostly Cloudy
KIGQ,06/24/2017 01:55 UTC,29.76,74.48,51.26,44.23,11.5,320.0,17.27,,,,,902.0,,,,10.0,,KIGQ 240155Z AUTO 32010G15KT 10SM SCT090 24/11 A2976 RMK AO2  T02360107,,,,,,51.23,,NW,29.11,28.49,,Partly Cloudy
KIGQ,06/24/2017 02:15 UTC,29.78,73.4,51.8,46.78,8.05,300.0,,,,,,1.0,,,,10.0,,KIGQ 240215Z AUTO 30007KT 10SM CLR 23/11 A2978 RMK AO2  T02300110,,,,,,51.76,,WNW,29.13,28.49,,Clear
KIGQ,06/24/2017 02:35 UTC,29.79,72.86,51.8,47.63,9.22,300.0,,,,,,702.0,,,,10.0,,KIGQ 240235Z AUTO 30008KT 10SM SCT070 23/11 A2979 RMK AO2  T02270110,,,,,,51.75,,WNW,29.14,28.51,,Partly Cloudy
KIGQ,06/24/2017 02:55 UTC,29.81,72.5,52.52,49.51,9.22,280.0,16.11,,,,,702.0,803.0,,,10.0,,KIGQ 240255Z AUTO 28008G14KT 10SM SCT070 BKN080 23/11 A2981 RMK AO2 T02250114,,,8000.0,,,52.47,,W,29.16,28.5,,Mostly Cloudy
KIGQ,06/24/2017 03:15 UTC,29.82,71.24,53.6,53.75,9.22,290.0,,,,,,802.0,,,,10.0,,KIGQ 240315Z AUTO 29008KT 10SM SCT080 22/12 A2982 RMK AO2  T02180120,,,,,,53.55,,WNW,29.17,28.47,,Partly Cloudy
KIGQ,06/24/2017 03:35 UTC,29.83,70.52,53.42,54.72,10.36,300.0,18.41,,,,,1.0,,,,10.0,,KIGQ 240335Z AUTO 30009G16KT 10SM CLR 21/12 A2983 RMK AO2  T02140119,,,,,,53.37,,WNW,29.18,28.5,,Clear
KIGQ,06/24/2017 03:55 UTC,29.83,69.8,53.6,56.44,9.22,290.0,18.41,,,,,552.0,,,,10.0,,KIGQ 240355Z AUTO 29008G16KT 10SM SCT055 21/12 A2983 RMK AO2  T02100120,,,,,,53.54,,WNW,29.18,28.5,,Partly Cloudy
KIGQ,06/24/2017 04:15 UTC,29.85,69.08,53.42,57.47,9.22,300.0,,,,,,552.0,,,,10.0,,KIGQ 240415Z AUTO 30008KT 10SM SCT055 21/12 A2985 RMK AO2  T02060119,,,,,,53.36,,WNW,29.2,28.53,,Partly Cloudy
KIGQ,06/24/2017 04:35 UTC,29.85,68.54,53.06,57.77,8.05,300.0,,,,,,552.0,,,,10.0,,KIGQ 240435Z AUTO 30007KT 10SM SCT055 20/12 A2985 RMK AO2  T02030117,,,,,,53.0,,WNW,29.2,28.55,,Partly Cloudy
KIGQ,06/24/2017 04:55 UTC,29.86,68.0,53.42,59.63,6.91,290.0,,,,,,482.0,,,,10.0,,KIGQ 240455Z AUTO 29006KT 10SM SCT048 20/12 A2986 RMK AO2  T02000119,,,,,,53.36,,WNW,29.21,28.55,,Partly Cloudy
KIGQ,06/24/2017 05:15 UTC,29.87,67.1,53.24,61.11,8.05,290.0,,,,,,482.0,,,,10.0,,KIGQ 240515Z AUTO 29007KT 10SM SCT048 20/12 A2987 RMK AO2  T01950118,,,,,,53.18,,WNW,29.22,28.58,,Partly Cloudy
KIGQ,06/24/2017 05:35 UTC,29.87,66.38,52.88,61.82,6.91,290.0,,,,,,1.0,,,,10.0,,KIGQ 240535Z AUTO 29006KT 10SM CLR 19/12 A2987 RMK AO2  T01910116,,,,,,52.81,,WNW,29.22,28.6,,Clear
KIGQ,06/24/2017 05:55 UTC,29.87,65.48,52.7,63.36,5.75,290.0,,,,,,1.0,,,,10.0,,KIGQ 240555Z AUTO 29005KT 10SM CLR 19/12 A2987 RMK AO2 T01860115  10251 20186 402710186,77.18,65.48,,80.78,65.48,52.63,,WNW,29.22,28.62,,Clear
KIGQ,06/24/2017 06:15 UTC,29.87,65.3,52.7,63.76,5.75,290.0,,,,,,1.0,,,,10.0,,KIGQ 240615Z AUTO 29005KT 10SM CLR 19/12 A2987 RMK AO2  T01850115,,,,,,52.63,,WNW,29.22,28.62,,Clear
KIGQ,06/24/2017 06:35 UTC,29.87,64.58,53.06,66.25,8.05,300.0,,,,,,1.0,,,,10.0,,KIGQ 240635Z AUTO 30007KT 10SM CLR 18/12 A2987 RMK AO2  T01810117,,,,,,53.0,,WNW,29.22,28.61,,Clear
KIGQ,06/24/2017 06:55 UTC,29.88,64.4,53.06,66.66,6.91,300.0,,,,,,1.0,,,,10.0,,KIGQ 240655Z AUTO 30006KT 10SM CLR 18/12 A2988 RMK AO2  T01800117,,,,,,52.99,,WNW,29.23,28.62,,Clear
KIGQ,06/24/2017 07:15 UTC,29.88,64.4,52.88,66.22,8.05,290.0,,,,,,1.0,,,,10.0,,KIGQ 240715Z AUTO 29007KT 10SM CLR 18/12 A2988 RMK AO2  T01800116,,,,,,52.81,,WNW,29.23,28.63,,Clear
KIGQ,06/24/2017 07:35 UTC,29.88,63.5,52.88,68.34,6.91,290.0,,,,,,1.0,,,,10.0,,KIGQ 240735Z AUTO 29006KT 10SM CLR 18/12 A2988 RMK AO2  T01750116,,,,,,52.81,,WNW,29.23,28.64,,Clear
KIGQ,06/24/2017 07:55 UTC,29.89,63.32,53.06,69.23,6.91,280.0,,,,,,1.0,,,,10.0,,KIGQ 240755Z AUTO 28006KT 10SM CLR 17/12 A2989 RMK AO2  T01740117,,,,,,53.0,,W,29.24,28.64,,Clear
KIGQ,06/24/2017 08:15 UTC,29.89,62.6,53.6,72.42,5.75,290.0,,,,,,1.0,,,,10.0,,KIGQ 240815Z AUTO 29005KT 10SM CLR 17/12 A2989 RMK AO2  T01700120,,,,,,53.54,,WNW,29.24,28.63,,Clear
KIGQ,06/24/2017 08:35 UTC,29.89,62.24,53.78,73.82,6.91,290.0,,,,,,1.0,,,,10.0,,KIGQ 240835Z AUTO 29006KT 10SM CLR 17/12 A2989 RMK AO2  T01680121,,,,,,53.72,,WNW,29.24,28.63,,Clear
KIGQ,06/24/2017 08:55 UTC,29.89,62.06,53.78,74.29,5.75,280.0,,,,,,1.0,,,,10.0,,KIGQ 240855Z AUTO 28005KT 10SM CLR 17/12 A2989 RMK AO2  T01670121,,,,,,53.72,,W,29.24,28.63,,Clear
KIGQ,06/24/2017 09:15 UTC,29.9,60.08,53.6,79.16,5.75,260.0,,,,,,1.0,,,,10.0,,KIGQ 240915Z AUTO 26005KT 10SM CLR 16/12 A2990 RMK AO2  T01560120,,,,,,53.55,,W,29.25,28.67,,Clear
KIGQ,06/24/2017 09:35 UTC,29.91,60.08,54.14,80.74,4.61,280.0,,,,,,1.0,,,,10.0,,KIGQ 240935Z AUTO 28004KT 10SM CLR 16/12 A2991 RMK AO2  T01560123,,,,,,54.09,,W,29.26,28.65,,Clear
KIGQ,06/24/2017 09:55 UTC,29.91,59.54,54.14,82.31,4.61,270.0,,,,,,1.0,,,,10.0,,KIGQ 240955Z AUTO 27004KT 10SM CLR 15/12 A2991 RMK AO2  T01530123,,,,,,54.1,,W,29.26,28.66,,Clear
KIGQ,06/24/2017 10:15 UTC,29.91,59.18,54.5,84.47,5.75,270.0,,,,,,1.0,,,,10.0,,KIGQ 241015Z AUTO 27005KT 10SM CLR 15/13 A2991 RMK AO2  T01510125,,,,,,54.46,,W,29.26,28.65,,Clear
KIGQ,06/24/2017 10:35 UTC,29.91,59.36,54.14,82.84,5.75,270.0,,,,,,1.0,,,,10.0,,KIGQ 241035Z AUTO 27005KT 10SM CLR 15/12 A2991 RMK AO2  T01520123,,,,,,54.1,,W,29.26,28.66,,Clear
KIGQ,06/24/2017 10:55 UTC,29.92,59.9,54.5,82.33,4.61,260.0,,,,,,1.0,,,,10.0,,KIGQ 241055Z AUTO 26004KT 10SM CLR 16/13 A2992 RMK AO2  T01550125,,,,,,54.46,,W,29.27,28.65,,Clear
KIGQ,06/24/2017 11:15 UTC,29.92,60.62,55.04,81.85,5.75,270.0,,,,,,22.0,,,,10.0,,KIGQ 241115Z AUTO 27005KT 10SM SCT002 16/13 A2992 RMK AO2  T01590128,,,,,,55.0,,W,29.27,28.62,,Partly Cloudy
KIGQ,06/24/2017 11:35 UTC,29.92,61.88,55.04,78.28,6.91,280.0,,,,,,22.0,,,,10.0,,KIGQ 241135Z AUTO 28006KT 10SM SCT002 17/13 A2992 RMK AO2  T01660128,,,,,,54.99,,W,29.27,28.61,,Partly Cloudy
KIGQ,06/24/2017 11:55 UTC,29.92,62.96,55.04,75.36,8.05,280.0,,,,,,1.0,,,0.09,10.0,,KIGQ 241155Z AUTO 28007KT 10SM CLR 17/13 A2992 RMK AO2 70009  T01720128 10186 20151,65.48,59.18,,,,54.99,,W,29.27,28.59,,Clear
KIGQ,06/24/2017 12:15 UTC,29.93,64.04,55.04,72.57,9.22,280.0,,,,,,1.0,,,,10.0,,KIGQ 241215Z AUTO 28008KT 10SM CLR 18/13 A2993 RMK AO2  T01780128,,,,,,54.99,,W,29.28,28.59,,Clear
KIGQ,06/24/2017 12:35 UTC,29.93,64.76,54.68,69.85,8.05,300.0,,,,,,1.0,,,,10.0,,KIGQ 241235Z AUTO 30007KT 10SM CLR 18/13 A2993 RMK AO2  T01820126,,,,,,54.62,,WNW,29.28,28.6,,Clear
KIGQ,06/24/2017 12:55 UTC,29.94,65.66,54.68,67.69,8.05,300.0,,,,,,1.0,,,,10.0,,KIGQ 241255Z AUTO 30007KT 10SM CLR 19/13 A2994 RMK AO2  T01870126,,,,,,54.62,,WNW,29.29,28.6,,Clear
KIGQ,06/24/2017 13:15 UTC,29.94,66.2,54.32,65.57,8.05,280.0,,,,,,1.0,,,,10.0,,KIGQ 241315Z AUTO 28007KT 10SM CLR 19/12 A2994 RMK AO2  T01900124,,,,,,54.26,,W,29.29,28.61,,Clear
KIGQ,06/24/2017 13:35 UTC,29.95,67.1,54.32,63.57,10.36,270.0,,,,,,1.0,,,,10.0,,KIGQ 241335Z AUTO 27009KT 10SM CLR 20/12 A2995 RMK AO2  T01950124,,,,,,54.26,,W,29.3,28.61,,Clear
KIGQ,06/24/2017 13:55 UTC,29.96,68.0,54.32,61.63,6.91,310.0,,,,,,1.0,,,,10.0,,KIGQ 241355Z AUTO 31006KT 10SM CLR 20/12 A2996 RMK AO2  T02000124,,,,,,54.26,,NW,29.31,28.62,,Clear
KIGQ,06/24/2017 14:15 UTC,29.96,68.36,54.14,60.47,9.22,290.0,16.11,,,,,272.0,,,,10.0,,KIGQ 241415Z AUTO 29008G14KT 10SM SCT027 20/12 A2996 RMK AO2  T02020123,,,,,,54.08,,WNW,29.31,28.62,,Partly Cloudy
KIGQ,06/24/2017 14:35 UTC,29.96,69.08,54.32,59.39,9.22,250.0,,,,,,312.0,,,,10.0,,KIGQ 241435Z AUTO 25008KT 10SM SCT031 21/12 A2996 RMK AO2  T02060124,,,,,,54.26,,WSW,29.31,28.6,,Partly Cloudy
KIGQ,06/24/2017 14:55 UTC,29.97,69.8,53.78,56.82,9.22,270.0,16.11,,,,,312.0,552.0,,,10.0,,KIGQ 241455Z AUTO 27008G14KT 10SM SCT031 SCT055 21/12 A2997 RMK AO2 T02100121,,,,,,53.73,,W,29.32,28.63,,Partly Cloudy
KIGQ,06/24/2017 15:15 UTC,29.97,70.52,53.24,54.36,11.5,270.0,,,653.0,,,352.0,553.0,,,10.0,,KIGQ 241515Z AUTO 27010KT 10SM SCT035 BKN055 BKN065 21/12 A2997 RMK AO2 T02140118,,,5500.0,,,53.19,,W,29.32,28.65,,Mostly Cloudy
KIGQ,06/24/2017 15:35 UTC,29.97,69.98,53.96,56.84,11.5,280.0,17.27,,473.0,,,333.0,403.0,,,10.0,,KIGQ 241535Z AUTO 28010G15KT 10SM BKN033 BKN040 BKN047 21/12 A2997 RMK AO2 T02110122,,,3300.0,,,53.9,,W,29.32,28.62,,Mostly Cloudy
KIGQ,06/24/2017 15:55 UTC,29.98,69.44,52.7,55.29,11.5,270.0,16.11,,603.0,,,353.0,483.0,,,10.0,,KIGQ 241555Z AUTO 27010G14KT 10SM BKN035 BKN048 BKN060 21/12 A2998 RMK AO2 T02080115,,,3500.0,,,52.64,,W,29.33,28.69,,Mostly Cloudy
KIGQ,06/24/2017 16:15 UTC,29.99,70.16,52.7,53.95,16.11,270.0,20.71,,753.0,,,392.0,472.0,,,10.0,,KIGQ 241615Z AUTO 27014G18KT 10SM SCT039 SCT047 BKN075 21/12 A2999 RMK AO2 T02120115,,,7500.0,,,52.64,,W,29.34,28.7,,Mostly Cloudy
KIGQ,06/24/2017 16:35 UTC,29.99,73.04,51.62,47.03,17.27,260.0,25.32,,602.0,,,422.0,502.0,,,10.0,,KIGQ 241635Z AUTO 26015G22KT 10SM SCT042 SCT050 SCT060 23/11 A2999 RMK AO2 T02280109,,,,,,51.57,,W,29.34,28.72,,Partly Cloudy
KIGQ,06/24/2017 16:55 UTC,29.99,72.5,49.46,44.21,17.27,260.0,26.46,,753.0,,,462.0,602.0,,,10.0,,KIGQ 241655Z AUTO 26015G23KT 10SM SCT046 SCT060 BKN075 23/10 A2999 RMK AO2 T02250097,,,7500.0,,,49.41,,W,29.34,28.81,,Mostly Cloudy
KIGQ,06/24/2017 17:15 UTC,30.0,72.86,49.64,43.97,16.11,270.0,21.85,,,,,602.0,752.0,,,10.0,,KIGQ 241715Z AUTO 27014G19KT 10SM SCT060 SCT075 23/10 A3000 RMK AO2 T02270098,,,,,,49.59,,W,29.35,28.81,,Partly Cloudy
KIGQ,06/24/2017 17:35 UTC,30.0,73.04,48.02,41.14,18.41,260.0,25.32,,,,,502.0,652.0,,,10.0,,KIGQ 241735Z AUTO 26016G22KT 10SM SCT050 SCT065 23/09 A3000 RMK AO2 LTG DSNT N T02280089,,,,,,47.97,,W,29.35,28.87,,Partly Cloudy
KIGQ,06/24/2017 17:55 UTC,30.0,73.94,48.2,40.19,19.57,270.0,26.46,,,,,602.0,,,,10.0,,KIGQ 241755Z AUTO 27017G23KT 10SM SCT060 23/09 A3000 RMK AO2  T02330090 10233 20172,73.94,62.96,,,,48.16,,W,29.35,28.86,,Partly Cloudy
KIGQ,06/24/2017 18:15 UTC,30.0,73.22,47.12,39.53,19.57,260.0,25.32,,,,,752.0,,,,10.0,,KIGQ 241815Z AUTO 26017G22KT 10SM SCT075 23/08 A3000 RMK AO2  T02290084,,,,,,47.07,,W,29.35,28.91,,Partly Cloudy
KIGQ,06/24/2017 18:35 UTC,29.99,73.22,46.94,39.26,18.41,260.0,24.16,,,,,552.0,752.0,,,10.0,,KIGQ 241835Z AUTO 26016G21KT 10SM SCT055 SCT075 23/08 A2999 RMK AO2 T02290083,,,,,,46.89,,W,29.34,28.9,,Partly Cloudy
KIGQ,06/24/2017 18:55 UTC,30.0,71.96,47.66,42.09,11.5,280.0,24.16,,,,,553.0,753.0,,,10.0,,KIGQ 241855Z AUTO 28010G21KT 10SM BKN055 BKN075 22/09 A3000 RMK AO2 T02220087,,,5500.0,,,47.6,,W,29.35,28.89,,Mostly Cloudy
KIGQ,06/24/2017 19:15 UTC,30.0,72.86,46.04,38.41,16.11,280.0,21.85,,,,,552.0,802.0,,,10.0,,KIGQ 241915Z AUTO 28014G19KT 10SM SCT055 SCT080 23/08 A3000 RMK AO2 LTG DSNT NE T02270078,,,,,,45.99,,W,29.35,28.95,,Partly Cloudy
KIGQ,06/24/2017 19:35 UTC,30.0,72.32,46.04,39.12,10.36,300.0,26.46,,,,,552.0,803.0,,,10.0,,KIGQ 241935Z AUTO 30009G23KT 10SM SCT055 BKN080 22/08 A3000 RMK AO2 T02240078,,,8000.0,,,45.99,,WNW,29.35,28.95,,Mostly Cloudy
KIGQ,06/24/2017 19:55 UTC,30.0,72.68,46.58,39.44,14.97,290.0,20.71,,,,,552.0,803.0,,,10.0,,KIGQ 241955Z AUTO 29013G18KT 10SM SCT055 BKN080 23/08 A3000 RMK AO2 T02260081,,,8000.0,,,46.53,,WNW,29.35,28.93,,Mostly Cloudy
KIGQ,06/24/2017 20:15 UTC,30.0,73.4,47.66,40.1,14.97,290.0,28.77,,,,,552.0,802.0,,,10.0,,KIGQ 242015Z AUTO 29013G25KT 10SM SCT055 SCT080 23/09 A3000 RMK AO2 T02300087,,,,,,47.62,,WNW,29.35,28.88,,Partly Cloudy
KIGQ,06/24/2017 20:35 UTC,30.0,73.4,44.24,35.23,17.27,290.0,24.16,,,,,552.0,,,,10.0,,KIGQ 242035Z AUTO 29015G21KT 10SM SCT055 23/07 A3000 RMK AO2  T02300068,,,,,,44.2,,WNW,29.35,29.01,,Partly Cloudy
KIGQ,06/24/2017 20:55 UTC,30.0,74.3,44.78,34.89,19.57,270.0,24.16,,,,,702.0,,,,10.0,,KIGQ 242055Z AUTO 27017G21KT 10SM SCT070 24/07 A3000 RMK AO2  T02350071,,,,,,44.74,,W,29.35,28.98,,Partly Cloudy
KIGQ,06/24/2017 21:15 UTC,30.0,74.3,43.7,33.49,12.66,310.0,27.63,,,,,702.0,,,,10.0,,KIGQ 242115Z AUTO 31011G24KT 10SM SCT070 24/07 A3000 RMK AO2  T02350065,,,,,,43.67,,NW,29.35,29.02,,Partly Cloudy
KIGQ,06/24/2017 21:35 UTC,30.0,72.32,43.16,35.05,18.41,260.0,24.16,,,,,702.0,,,,10.0,,KIGQ 242135Z AUTO 26016G21KT 10SM SCT070 22/06 A3000 RMK AO2  T02240062,,,,,,43.1,,W,29.35,29.05,,Partly Cloudy
KIGQ,06/24/2017 21:55 UTC,30.0,74.12,44.06,34.15,16.11,280.0,25.32,,,,,703.0,,,,10.0,,KIGQ 242155Z AUTO 28014G22KT 10SM BKN070 23/07 A3000 RMK AO2  T02340067,,,7000.0,,,44.02,,W,29.35,29.01,,Mostly Cloudy
KIGQ,06/24/2017 22:15 UTC,30.0,71.96,42.08,34.04,18.41,280.0,25.32,,,,,702.0,,,,10.0,,KIGQ 242215Z AUTO 28016G22KT 10SM SCT070 22/06 A3000 RMK AO2  T02220056,,,,,,42.02,,W,29.35,29.08,,Partly Cloudy
KIGQ,06/24/2017 22:35 UTC,30.0,72.32,42.62,34.34,12.66,270.0,21.85,,,,,702.0,,,,10.0,,KIGQ 242235Z AUTO 27011G19KT 10SM SCT070 22/06 A3000 RMK AO2  T02240059,,,,,,42.57,,W,29.35,29.06,,Partly Cloudy
KIGQ,06/24/2017 22:55 UTC,30.0,72.5,41.72,32.97,19.57,290.0,27.63,,,,,702.0,,,,10.0,,KIGQ 242255Z AUTO 29017G24KT 10SM SCT070 23/05 A3000 RMK AO2  T02250054,,,,,,41.67,,WNW,29.35,29.09,,Partly Cloudy
KIGQ,06/24/2017 23:15 UTC,30.01,71.78,41.36,33.31,17.27,290.0,25.32,,,,,702.0,,,,10.0,,KIGQ 242315Z AUTO 29015G22KT 10SM SCT070 22/05 A3001 RMK AO2  T02210052,,,,,,41.3,,WNW,29.36,29.12,,Partly Cloudy
KIGQ,06/24/2017 23:35 UTC,30.01,71.6,41.0,33.05,12.66,310.0,20.71,,,,,702.0,,,,10.0,,KIGQ 242335Z AUTO 31011G18KT 10SM SCT070 22/05 A3001 RMK AO2  T02200050,,,,,,40.94,,NW,29.36,29.13,,Partly Cloudy
KIGQ,06/24/2017 23:55 UTC,30.02,70.88,39.38,31.8,12.66,290.0,23.02,,,,,1.0,,,,10.0,,KIGQ 242355Z AUTO 29011G20KT 10SM CLR 22/04 A3002 RMK AO2  T02160041 10236 20216,74.48,70.88,,,,39.31,,WNW,29.37,29.19,,Clear
KIGQ,06/25/2017 00:15 UTC,30.02,70.16,39.56,32.82,5.75,290.0,17.27,,,,,1.0,,,,10.0,,KIGQ 250015Z AUTO 29005G15KT 10SM CLR 21/04 A3002 RMK AO2  T02120042,,,,,,39.49,,WNW,29.37,29.19,,Clear
KIGQ,06/25/2017 00:35 UTC,30.03,69.44,39.74,33.87,10.36,300.0,,,,,,1.0,,,,10.0,,KIGQ 250035Z AUTO 30009KT 10SM CLR 21/04 A3003 RMK AO2  T02080043,,,,,,39.66,,WNW,29.38,29.2,,Clear
KIGQ,06/25/2017 00:55 UTC,30.04,68.36,39.92,35.39,6.91,300.0,16.11,,,,,1.0,,,,10.0,,KIGQ 250055Z AUTO 30006G14KT 10SM CLR 20/04 A3004 RMK AO2  T02020044,,,,,,39.83,,WNW,29.39,29.21,,Clear
KIGQ,06/25/2017 01:15 UTC,30.04,67.64,39.56,35.77,8.05,290.0,,,,,,1.0,,,,10.0,,KIGQ 250115Z AUTO 29007KT 10SM CLR 20/04 A3004 RMK AO2  T01980042,,,,,,39.46,,WNW,29.39,29.23,,Clear
KIGQ,06/25/2017 01:35 UTC,30.04,66.38,40.1,38.15,5.75,290.0,,,,,,1.0,,,,10.0,,KIGQ 250135Z AUTO 29005KT 10SM CLR 19/05 A3004 RMK AO2  T01910045,,,,,,39.99,,WNW,29.39,29.22,,Clear
KIGQ,06/25/2017 01:55 UTC,30.05,65.66,40.1,39.12,5.75,280.0,,,,,,1.0,,,,10.0,,KIGQ 250155Z AUTO 28005KT 10SM CLR 19/05 A3005 RMK AO2  T01870045,,,,,,39.99,,W,29.4,29.23,,Clear
KIGQ,06/25/2017 02:15 UTC,30.06,64.58,40.82,41.76,3.44,270.0,,,,,,852.0,,,,10.0,,KIGQ 250215Z AUTO 27003KT 10SM SCT085 18/05 A3006 RMK AO2  T01810049,,,,,,40.7,,W,29.41,29.23,,Partly Cloudy
KIGQ,06/25/2017 02:35 UTC,30.07,63.86,42.98,46.55,0.0,0.0,,,,,,852.0,,,,10.0,,KIGQ 250235Z AUTO 00000KT 10SM SCT085 18/06 A3007 RMK AO2 LTG DSNT  W T01770061,,,,,,42.87,,N,29.42,29.18,,Partly Cloudy
KIGQ,06/25/2017 02:55 UTC,30.07,59.0,44.78,59.2,3.44,210.0,,,,,,952.0,,,,10.0,,KIGQ 250255Z AUTO 21003KT 10SM SCT095 15/07 A3007 RMK AO2  T01500071,,,,,,44.67,,SSW,29.42,29.17,,Partly Cloudy
KIGQ,06/25/2017 03:15 UTC,30.07,57.74,45.68,64.09,4.61,220.0,,,,,,952.0,,,,10.0,,KIGQ 250315Z AUTO 22004KT 10SM SCT095 14/08 A3007 RMK AO2  T01430076,,,,,,45.58,,SW,29.42,29.15,,Partly Cloudy
KIGQ,06/25/2017 03:35 UTC,30.06,55.04,46.4,72.61,5.75,200.0,,,,,,1.0,,,,10.0,,KIGQ 250335Z AUTO 20005KT 10SM CLR 13/08 A3006 RMK AO2  T01280080,,,,,,46.32,,SSW,29.41,29.14,,Clear
KIGQ,06/25/2017 03:55 UTC,30.07,55.58,46.94,72.66,0.0,0.0,,,,,,902.0,,,,10.0,,KIGQ 250355Z AUTO 00000KT 10SM SCT090 13/08 A3007 RMK AO2  T01310083,,,,,,46.86,,N,29.42,29.13,,Partly Cloudy
KIGQ,06/25/2017 04:15 UTC,30.07,59.18,44.42,58.02,0.0,0.0,,,,,,902.0,1103.0,,,10.0,,KIGQ 250415Z AUTO 00000KT 10SM SCT090 BKN110 15/07 A3007 RMK AO2  T01510069,,,11000.0,,,44.31,,N,29.42,29.18,,Mostly Cloudy
KIGQ,06/25/2017 04:35 UTC,30.07,59.36,45.32,59.66,5.75,230.0,,,,,,803.0,1103.0,,,10.0,,KIGQ 250435Z AUTO 23005KT 10SM BKN080 BKN110 15/07 A3007 RMK AO2  T01520074,,,8000.0,,,45.22,,SW,29.42,29.15,,Mostly Cloudy
KIGQ,06/25/2017 04:55 UTC,30.07,59.36,45.68,60.48,3.44,250.0,,,1103.0,,,802.0,902.0,,,10.0,,KIGQ 250455Z AUTO 25003KT 10SM SCT080 SCT090 BKN110 15/08 A3007 RMK AO2 T01520076,,,11000.0,,,45.58,,WSW,29.42,29.14,,Mostly Cloudy
KIGQ,06/25/2017 05:15 UTC,30.07,60.8,45.68,57.46,4.61,250.0,,,,,,803.0,1103.0,,,10.0,,KIGQ 250515Z AUTO 25004KT 10SM BKN080 BKN110 16/08 A3007 RMK AO2  T01600076,,,8000.0,,,45.58,,WSW,29.42,29.12,,Mostly Cloudy
KIGQ,06/25/2017 05:35 UTC,30.06,59.72,47.12,63.05,5.75,220.0,,,,,,803.0,1104.0,,,10.0,,KIGQ 250535Z AUTO 22005KT 10SM BKN080 OVC110 15/08 A3006 RMK AO2  T01540084,,,8000.0,,,47.03,,SW,29.41,29.07,,Overcast
KIGQ,06/25/2017 05:55 UTC,30.06,58.82,47.48,65.99,5.75,220.0,,,,,,904.0,,,,10.0,,KIGQ 250555Z AUTO 22005KT 10SM OVC090 15/09 A3006 RMK AO2  T01490086 10215 20128 402360128,70.7,55.04,9000.0,74.48,55.04,47.39,,SW,29.41,29.07,,Overcast
KIGQ,06/25/2017 06:15 UTC,30.06,59.0,46.94,64.25,4.61,240.0,,,,,,803.0,1104.0,,,10.0,,KIGQ 250615Z AUTO 24004KT 10SM BKN080 OVC110 15/08 A3006 RMK AO2  T01500083,,,8000.0,,,46.85,,WSW,29.41,29.09,,Overcast
KIGQ,06/25/2017 06:35 UTC,30.06,60.08,46.76,61.4,4.61,290.0,,,,,,803.0,1104.0,,,10.0,,KIGQ 250635Z AUTO 29004KT 10SM BKN080 OVC110 16/08 A3006 RMK AO2  T01560082,,,8000.0,,,46.66,,WNW,29.41,29.08,,Overcast
KIGQ,06/25/2017 06:55 UTC,30.05,58.82,46.76,64.22,4.61,250.0,,,,,,903.0,1104.0,,,10.0,,KIGQ 250655Z AUTO 25004KT 10SM BKN090 OVC110 15/08 A3005 RMK AO2  T01490082,,,9000.0,,,46.66,,WSW,29.4,29.08,,Overcast
KIGQ,06/25/2017 07:15 UTC,30.05,58.82,46.76,64.22,5.75,260.0,,,,,,904.0,,,,10.0,,KIGQ 250715Z AUTO 26005KT 10SM OVC090 15/08 A3005 RMK AO2  T01490082,,,9000.0,,,46.66,,W,29.4,29.08,,Overcast
KIGQ,06/25/2017 07:35 UTC,30.05,59.0,46.58,63.38,8.05,270.0,,,,,,802.0,953.0,,,10.0,,KIGQ 250735Z AUTO 27007KT 10SM SCT080 BKN095 15/08 A3005 RMK AO2  T01500081,,,9500.0,,,46.48,,W,29.4,29.09,,Mostly Cloudy
KIGQ,06/25/2017 07:55 UTC,30.06,59.18,46.4,62.55,8.05,290.0,,,,,,903.0,,,,10.0,,KIGQ 250755Z AUTO 29007KT 10SM BKN090 15/08 A3006 RMK AO2  T01510080,,,9000.0,,,46.3,,WNW,29.41,29.1,,Mostly Cloudy
KIGQ,06/25/2017 08:15 UTC,30.06,59.18,44.96,59.23,8.05,300.0,,,,,,902.0,,,,10.0,,KIGQ 250815Z AUTO 30007KT 10SM SCT090 15/07 A3006 RMK AO2  T01510072,,,,,,44.85,,WNW,29.41,29.15,,Partly Cloudy
KIGQ,06/25/2017 08:35 UTC,30.06,58.1,44.24,59.89,9.22,300.0,,,,,,1.0,,,,10.0,,KIGQ 250835Z AUTO 30008KT 10SM CLR 15/07 A3006 RMK AO2  T01450068,,,,,,44.13,,WNW,29.41,29.18,,Clear
KIGQ,06/25/2017 08:55 UTC,30.07,58.1,43.88,59.08,6.91,300.0,,,,,,1.0,,,,10.0,,KIGQ 250855Z AUTO 30006KT 10SM CLR 15/07 A3007 RMK AO2  T01450066,,,,,,43.77,,WNW,29.42,29.2,,Clear
KIGQ,06/25/2017 09:15 UTC,30.07,56.66,43.88,62.22,4.61,300.0,,,,,,1.0,,,,10.0,,KIGQ 250915Z AUTO 30004KT 10SM CLR 14/07 A3007 RMK AO2  T01370066,,,,,,43.77,,WNW,29.42,29.21,,Clear
KIGQ,06/25/2017 09:35 UTC,30.08,55.76,44.06,64.72,4.61,280.0,,,,,,1.0,,,,10.0,,KIGQ 250935Z AUTO 28004KT 10SM CLR 13/07 A3008 RMK AO2  T01320067,,,,,,43.96,,W,29.43,29.22,,Clear
KIGQ,06/25/2017 09:55 UTC,30.08,54.5,44.6,69.16,4.61,250.0,,,,,,1.0,,,,10.0,,KIGQ 250955Z AUTO 25004KT 10SM CLR 13/07 A3008 RMK AO2  T01250070,,,,,,44.51,,WSW,29.43,29.22,,Clear
KIGQ,06/25/2017 10:15 UTC,30.09,53.6,44.96,72.45,5.75,250.0,,,,,,1.0,,,,10.0,,KIGQ 251015Z AUTO 25005KT 10SM CLR 12/07 A3009 RMK AO2  T01200072,,,,,,44.87,,WSW,29.44,29.23,,Clear
KIGQ,06/25/2017 10:35 UTC,30.1,53.6,45.68,74.46,5.75,270.0,,,,,,1.0,,,,10.0,,KIGQ 251035Z AUTO 27005KT 10SM CLR 12/08 A3010 RMK AO2  T01200076,,,,,,45.6,,W,29.45,29.22,,Clear
KIGQ,06/25/2017 10:55 UTC,30.1,53.78,46.76,77.06,5.75,270.0,,,,,,1.0,,,,10.0,,KIGQ 251055Z AUTO 27005KT 10SM CLR 12/08 A3010 RMK AO2  T01210082,,,,,,46.69,,W,29.45,29.18,,Clear
KIGQ,06/25/2017 11:15 UTC,30.11,55.4,46.76,72.64,5.75,270.0,,,,,,1.0,,,,10.0,,KIGQ 251115Z AUTO 27005KT 10SM CLR 13/08 A3011 RMK AO2  T01300082,,,,,,46.68,,W,29.46,29.18,,Clear
KIGQ,06/25/2017 11:35 UTC,30.1,56.48,47.12,70.81,8.05,260.0,,,,,,1.0,,,,10.0,,KIGQ 251135Z AUTO 26007KT 10SM CLR 14/08 A3010 RMK AO2  T01360084,,,,,,47.04,,W,29.45,29.14,,Clear
KIGQ,06/25/2017 11:55 UTC,30.11,58.1,47.3,67.26,9.22,260.0,,,,,,1.0,,,,10.0,,KIGQ 251155Z AUTO 26008KT 10SM CLR 15/09 A3011 RMK AO2 T01450085  10156 20118,60.08,53.24,,,,47.21,,W,29.46,29.13,,Clear
KIGQ,06/25/2017 12:15 UTC,30.11,59.54,46.76,62.6,11.5,270.0,16.11,,,,,1.0,,,,10.0,,KIGQ 251215Z AUTO 27010G14KT 10SM CLR 15/08 A3011 RMK AO2  T01530082,,,,,,46.67,,W,29.46,29.14,,Clear
KIGQ,06/25/2017 12:35 UTC,30.11,60.8,46.76,59.86,11.5,280.0,,,,,,1.0,,,,10.0,,KIGQ 251235Z AUTO 28010KT 10SM CLR 16/08 A3011 RMK AO2  T01600082,,,,,,46.66,,W,29.46,29.13,,Clear
KIGQ,06/25/2017 12:55 UTC,30.11,61.88,47.3,58.8,12.66,290.0,17.27,,,,,22.0,,,,10.0,,KIGQ 251255Z AUTO 29011G15KT 10SM SCT002 17/09 A3011 RMK AO2  T01660085,,,,,,47.21,,WNW,29.46,29.1,,Partly Cloudy
KIGQ,06/25/2017 13:15 UTC,30.12,62.6,46.76,56.17,12.66,280.0,18.41,,,,,1.0,,,,10.0,,KIGQ 251315Z AUTO 28011G16KT 260V320 10SM CLR 17/08 A3012 RMK AO2  T01700082,,,,,,46.66,,W,29.47,29.12,,Clear
KIGQ,06/25/2017 13:35 UTC,30.12,63.14,46.94,55.49,10.36,270.0,20.71,,,,,1.0,,,,10.0,,KIGQ 251335Z AUTO 27009G18KT 10SM CLR 17/08 A3012 RMK AO2  T01730083,,,,,,46.84,,W,29.47,29.11,,Clear
KIGQ,06/25/2017 13:55 UTC,30.12,64.4,46.94,53.1,13.8,280.0,20.71,,,,,1.0,,,,10.0,,KIGQ 251355Z AUTO 28012G18KT 10SM CLR 18/08 A3012 RMK AO2  T01800083,,,,,,46.84,,W,29.47,29.1,,Clear
KIGQ,06/25/2017 14:15 UTC,30.12,64.94,46.58,51.41,14.97,290.0,20.71,,,,,382.0,,,,10.0,,KIGQ 251415Z AUTO 29013G18KT 10SM SCT038 18/08 A3012 RMK AO2  T01830081,,,,,,46.49,,WNW,29.47,29.11,,Partly Cloudy
KIGQ,06/25/2017 14:35 UTC,30.12,65.66,46.04,49.12,14.97,270.0,23.02,,,,,422.0,,,,10.0,,KIGQ 251435Z AUTO 27013G20KT 10SM SCT042 19/08 A3012 RMK AO2  T01870078,,,,,,45.94,,W,29.47,29.12,,Partly Cloudy
KIGQ,06/25/2017 14:55 UTC,30.12,66.38,45.68,47.27,11.5,310.0,24.16,,,,,442.0,492.0,,,10.0,,KIGQ 251455Z AUTO 31010G21KT 10SM SCT044 SCT049 19/08 A3012 RMK AO2 T01910076,,,,,,45.59,,NW,29.47,29.13,,Partly Cloudy
KIGQ,06/25/2017 15:15 UTC,30.12,66.92,45.68,46.39,14.97,270.0,21.85,,,,,442.0,,,,10.0,,KIGQ 251515Z AUTO 27013G19KT 10SM SCT044 19/08 A3012 RMK AO2  T01940076,,,,,,45.59,,W,29.47,29.13,,Partly Cloudy
KIGQ,06/25/2017 15:35 UTC,30.12,67.1,45.14,45.17,13.8,270.0,20.71,,,,,482.0,,,,10.0,,KIGQ 251535Z AUTO 27012G18KT 10SM SCT048 20/07 A3012 RMK AO2  T01950073,,,,,,45.05,,W,29.47,29.14,,Partly Cloudy
KIGQ,06/25/2017 15:55 UTC,30.12,68.0,44.78,43.2,13.8,290.0,23.02,,,,,503.0,553.0,,,10.0,,KIGQ 251555Z AUTO 29012G20KT 10SM BKN050 BKN055 20/07 A3012 RMK AO2 T02000071,,,5000.0,,,44.69,,WNW,29.47,29.15,,Mostly Cloudy
KIGQ,06/25/2017 16:15 UTC,30.12,69.08,45.5,42.78,17.27,290.0,25.32,,,,,503.0,,,,10.0,,KIGQ 251615Z AUTO 29015G22KT 10SM BKN050 21/08 A3012 RMK AO2  T02060075,,,5000.0,,,45.42,,WNW,29.47,29.12,,Mostly Cloudy
KIGQ,06/25/2017 16:35 UTC,30.12,67.46,42.8,40.8,13.8,280.0,23.02,,,,,503.0,,,,10.0,,KIGQ 251635Z AUTO 28012G20KT 10SM BKN050 20/06 A3012 RMK AO2  T01970060,,,5000.0,,,42.71,,W,29.47,29.21,,Mostly Cloudy
KIGQ,06/25/2017 16:55 UTC,30.12,68.18,42.44,39.25,14.97,280.0,28.77,,,,,552.0,703.0,,,10.0,,KIGQ 251655Z AUTO 28013G25KT 10SM SCT055 BKN070 20/06 A3012 RMK AO2 T02010058,,,7000.0,,,42.35,,W,29.47,29.22,,Mostly Cloudy
KIGQ,06/25/2017 17:15 UTC,30.12,69.08,44.06,40.5,13.8,310.0,21.85,,,,,602.0,703.0,,,10.0,,KIGQ 251715Z AUTO 31012G19KT 10SM SCT060 BKN070 21/07 A3012 RMK AO2 T02060067,,,7000.0,,,43.98,,NW,29.47,29.16,,Mostly Cloudy
KIGQ,06/25/2017 17:35 UTC,30.12,68.0,42.98,40.33,16.11,270.0,20.71,,,,,603.0,703.0,,,10.0,,KIGQ 251735Z AUTO 27014G18KT 10SM BKN060 BKN070 20/06 A3012 RMK AO2 T02000061,,,6000.0,,,42.89,,W,29.47,29.21,,Mostly Cloudy
KIGQ,06/25/2017 17:55 UTC,30.12,70.16,44.06,39.04,14.97,260.0,24.16,,,,,602.0,702.0,,,10.0,,KIGQ 251755Z AUTO 26013G21KT 10SM SCT060 SCT070 21/07 A3012 RMK AO2 T02120067 10212 20146,70.16,58.28,,,,43.99,,W,29.47,29.16,,Partly Cloudy
KIGQ,06/25/2017 18:15 UTC,30.11,70.16,41.9,35.93,16.11,270.0,32.21,,,,,602.0,703.0,,,10.0,,KIGQ 251815Z AUTO 27014G28KT 10SM SCT060 BKN070 21/06 A3011 RMK AO2 T02120055,,,7000.0,,,41.82,,W,29.46,29.21,,Mostly Cloudy
KIGQ,06/25/2017 18:35 UTC,30.11,69.08,41.54,36.77,13.8,290.0,24.16,,,,,603.0,753.0,,,10.0,,KIGQ 251835Z AUTO 29012G21KT 10SM BKN060 BKN075 21/05 A3011 RMK AO2 T02060053,,,6000.0,,,41.46,,WNW,29.46,29.23,,Mostly Cloudy
KIGQ,06/25/2017 18:55 UTC,30.11,69.26,41.72,36.79,13.8,290.0,24.16,,,,,603.0,754.0,,,10.0,,KIGQ 251855Z AUTO 29012G21KT 10SM BKN060 OVC075 21/05 A3011 RMK AO2 T02070054,,,6000.0,,,41.63,,WNW,29.46,29.23,,Overcast
KIGQ,06/25/2017 19:15 UTC,30.11,68.9,41.9,37.51,9.22,290.0,18.41,,,,,603.0,754.0,,,10.0,,KIGQ 251915Z AUTO 29008G16KT 10SM BKN060 OVC075 21/06 A3011 RMK AO2 T02050055,,,6000.0,,,41.81,,WNW,29.46,29.22,,Overcast
KIGQ,06/25/2017 19:35 UTC,30.11,71.78,42.62,34.97,17.27,280.0,26.46,,,,,603.0,754.0,,,10.0,,KIGQ 251935Z AUTO 28015G23KT 10SM BKN060 OVC075 22/06 A3011 RMK AO2 T02210059,,,6000.0,,,42.56,,W,29.46,29.18,,Overcast
KIGQ,06/25/2017 19:55 UTC,30.11,71.24,42.26,35.12,13.8,280.0,23.02,,,,,602.0,854.0,,,10.0,,KIGQ 251955Z AUTO 28012G20KT 10SM SCT060 OVC085 22/06 A3011 RMK AO2 T02180057,,,8500.0,,,42.19,,W,29.46,29.2,,Overcast
KIGQ,06/25/2017 20:15 UTC,30.1,71.6,41.72,33.98,16.11,280.0,23.02,,,,,602.0,853.0,,,10.0,,KIGQ 252015Z AUTO 28014G20KT 10SM SCT060 BKN085 22/05 A3010 RMK AO2 T02200054,,,8500.0,,,41.66,,W,29.45,29.2,,Mostly Cloudy
KIGQ,06/25/2017 20:35 UTC,30.1,70.16,43.16,37.72,11.5,300.0,23.02,,,,,652.0,854.0,,,10.0,,KIGQ 252035Z AUTO 30010G20KT 10SM SCT065 OVC085 21/06 A3010 RMK AO2 T02120062,,,8500.0,,,43.09,,WNW,29.45,29.16,,Overcast
KIGQ,06/25/2017 20:55 UTC,30.09,71.06,42.98,36.33,19.57,270.0,28.77,,,,,652.0,854.0,,,10.0,,KIGQ 252055Z AUTO 27017G25KT 10SM SCT065 OVC085 22/06 A3009 RMK AO2 T02170061,,,8500.0,,,42.91,,W,29.44,29.15,,Overcast
KIGQ,06/25/2017 21:15 UTC,30.09,70.88,43.34,37.06,14.97,260.0,23.02,,,,,853.0,,,,10.0,,KIGQ 252115Z AUTO 26013G20KT 10SM BKN085 22/06 A3009 RMK AO2  T02160063,,,8500.0,,,43.27,,W,29.44,29.14,,Mostly Cloudy
KIGQ,06/25/2017 21:35 UTC,30.08,71.96,44.24,36.98,13.8,290.0,18.41,,804.0,,,602.0,752.0,,,10.0,,KIGQ 252135Z AUTO 29012G16KT 10SM SCT060 SCT075 OVC080 22/07 A3008 RMK AO2 T02220068,,,8000.0,,,44.18,,WNW,29.43,29.1,,Overcast
KIGQ,06/25/2017 21:55 UTC,30.08,69.98,43.7,38.74,14.97,280.0,23.02,,,,,602.0,853.0,,,10.0,,KIGQ 252155Z AUTO 28013G20KT 10SM SCT060 BKN085 21/07 A3008 RMK AO2 T02110065,,,8500.0,,,43.62,,W,29.43,29.13,,Mostly Cloudy
KIGQ,06/25/2017 22:15 UTC,30.08,69.08,44.06,40.5,10.36,290.0,,,,,,853.0,,,,10.0,,KIGQ 252215Z AUTO 29009KT 10SM BKN085 21/07 A3008 RMK AO2  T02060067,,,8500.0,,,43.98,,WNW,29.43,29.12,,Mostly Cloudy
KIGQ,06/25/2017 22:35 UTC,30.08,69.8,45.5,41.74,14.97,270.0,21.85,,,,,602.0,854.0,,,10.0,,KIGQ 252235Z AUTO 27013G19KT 10SM SCT060 OVC085 21/08 A3008 RMK AO2 T02100075,,,8500.0,,,45.42,,W,29.43,29.07,,Overcast
KIGQ,06/25/2017 22:55 UTC,30.08,70.88,44.96,39.42,13.8,290.0,23.02,,,,,602.0,853.0,,,10.0,,KIGQ 252255Z AUTO 29012G20KT 10SM SCT060 BKN085 22/07 A3008 RMK AO2 T02160072,,,8500.0,,,44.89,,WNW,29.43,29.08,,Mostly Cloudy
KIGQ,06/25/2017 23:15 UTC,30.08,69.8,45.14,41.18,18.41,270.0,23.02,,,,,602.0,852.0,,,10.0,,KIGQ 252315Z AUTO 27016G20KT 10SM SCT060 SCT085 21/07 A3008 RMK AO2 T02100073,,,,,,45.07,,W,29.43,29.08,,Partly Cloudy
KIGQ,06/25/2017 23:35 UTC,30.09,68.36,44.06,41.51,14.97,290.0,19.57,,,,,753.0,,,,10.0,,KIGQ 252335Z AUTO 29013G17KT 10SM BKN075 20/07 A3009 RMK AO2  T02020067,,,7500.0,,,43.97,,WNW,29.44,29.14,,Mostly Cloudy
KIGQ,06/25/2017 23:55 UTC,30.09,68.72,44.6,41.86,14.97,280.0,18.41,,,,,602.0,754.0,,,10.0,,KIGQ 252355Z AUTO 28013G16KT 10SM SCT060 OVC075 20/07 A3009 RMK AO2 T02040070 10223 20200,72.14,68.0,7500.0,,,44.52,,W,29.44,29.12,,Overcast
KIGQ,06/26/2017 00:15 UTC,30.09,68.54,45.14,42.99,17.27,270.0,24.16,,,,,602.0,753.0,,,10.0,,KIGQ 260015Z AUTO 27015G21KT 10SM SCT060 BKN075 20/07 A3009 RMK AO2 T02030073,,,7500.0,,,45.06,,W,29.44,29.1,,Mostly Cloudy
KIGQ,06/26/2017 00:35 UTC,30.1,67.1,46.04,46.74,12.66,280.0,23.02,,,,,752.0,,,,10.0,,KIGQ 260035Z AUTO 28011G20KT 10SM SCT075 20/08 A3010 RMK AO2  T01950078,,,,,,45.95,,W,29.45,29.09,,Partly Cloudy
KIGQ,06/26/2017 00:55 UTC,30.1,66.38,46.58,48.9,17.27,280.0,24.16,,,,,502.0,752.0,,,10.0,,KIGQ 260055Z AUTO 28015G21KT 10SM SCT050 SCT075 19/08 A3010 RMK AO2 T01910081,,,,,,46.49,,W,29.45,29.08,,Partly Cloudy
KIGQ,06/26/2017 01:15 UTC,30.1,64.76,45.32,49.32,13.8,280.0,24.16,,,,,1.0,,,,10.0,,KIGQ 260115Z AUTO 28012G21KT 10SM CLR 18/07 A3010 RMK AO2  T01820074,,,,,,45.22,,W,29.45,29.13,,Clear
KIGQ,06/26/2017 01:35 UTC,30.11,63.5,45.5,51.89,14.97,290.0,21.85,,,,,1.0,,,,10.0,,KIGQ 260135Z AUTO 29013G19KT 10SM CLR 18/08 A3011 RMK AO2  T01750075,,,,,,45.4,,WNW,29.46,29.15,,Clear
KIGQ,06/26/2017 01:55 UTC,30.11,62.96,45.5,52.88,9.22,280.0,,,,,,1.0,,,,10.0,,KIGQ 260155Z AUTO 28008KT 10SM CLR 17/08 A3011 RMK AO2  T01720075,,,,,,45.39,,W,29.46,29.15,,Clear
KIGQ,06/26/2017 02:15 UTC,30.11,61.88,46.04,56.07,10.36,280.0,,,,,,1.0,,,,10.0,,KIGQ 260215Z AUTO 28009KT 10SM CLR 17/08 A3011 RMK AO2  T01660078,,,,,,45.94,,W,29.46,29.14,,Clear
KIGQ,06/26/2017 02:35 UTC,30.11,61.34,46.4,57.93,6.91,270.0,,,,,,1.0,,,,10.0,,KIGQ 260235Z AUTO 27006KT 10SM CLR 16/08 A3011 RMK AO2  T01630080,,,,,,46.3,,W,29.46,29.14,,Clear
KIGQ,06/26/2017 02:55 UTC,30.11,60.98,46.58,59.07,9.22,280.0,,,,,,1.0,,,,10.0,,KIGQ 260255Z AUTO 28008KT 10SM CLR 16/08 A3011 RMK AO2  T01610081,,,,,,46.48,,W,29.46,29.13,,Clear
KIGQ,06/26/2017 03:15 UTC,30.12,60.44,46.94,61.04,6.91,280.0,,,,,,1.0,,,,10.0,,KIGQ 260315Z AUTO 28006KT 10SM CLR 16/08 A3012 RMK AO2  T01580083,,,,,,46.84,,W,29.47,29.14,,Clear
KIGQ,06/26/2017 03:35 UTC,30.12,59.9,47.3,63.07,6.91,280.0,,,,,,1.0,,,,10.0,,KIGQ 260335Z AUTO 28006KT 10SM CLR 16/09 A3012 RMK AO2  T01550085,,,,,,47.21,,W,29.47,29.13,,Clear
KIGQ,06/26/2017 03:55 UTC,30.12,60.08,47.3,62.67,8.05,280.0,,,,,,1.0,,,,10.0,,KIGQ 260355Z AUTO 28007KT 10SM CLR 16/09 A3012 RMK AO2  T01560085,,,,,,47.21,,W,29.47,29.13,,Clear
KIGQ,06/26/2017 04:15 UTC,30.12,59.54,47.3,63.88,8.05,280.0,,,,,,1.0,,,,10.0,,KIGQ 260415Z AUTO 28007KT 10SM CLR 15/09 A3012 RMK AO2  T01530085,,,,,,47.21,,W,29.47,29.13,,Clear
KIGQ,06/26/2017 04:35 UTC,30.12,59.18,47.48,65.15,6.91,280.0,,,,,,1.0,,,,10.0,,KIGQ 260435Z AUTO 28006KT 10SM CLR 15/09 A3012 RMK AO2  T01510086,,,,,,47.39,,W,29.47,29.13,,Clear
KIGQ,06/26/2017 04:55 UTC,30.12,59.0,47.48,65.57,5.75,280.0,,,,,,1.0,,,,10.0,,KIGQ 260455Z AUTO 28005KT 10SM CLR 15/09 A3012 RMK AO2  T01500086,,,,,,47.39,,W,29.47,29.13,,Clear
KIGQ,06/26/2017 05:15 UTC,30.11,59.0,47.48,65.57,6.91,280.0,,,,,,1.0,,,,10.0,,KIGQ 260515Z AUTO 28006KT 10SM CLR 15/09 A3011 RMK AO2  T01500086,,,,,,47.39,,W,29.46,29.12,,Clear
KIGQ,06/26/2017 05:35 UTC,30.12,58.28,47.48,67.28,5.75,270.0,,,,,,1.0,,,,10.0,,KIGQ 260535Z AUTO 27005KT 10SM CLR 15/09 A3012 RMK AO2  T01460086,,,,,,47.39,,W,29.47,29.14,,Clear
KIGQ,06/26/2017 05:55 UTC,30.12,57.92,47.66,68.61,3.44,280.0,,,,,,1.0,,,,10.0,,KIGQ 260555Z AUTO 28003KT 10SM CLR 14/09 A3012 RMK AO2 T01440087  10205 20142 402230118,68.9,57.56,,72.14,53.24,47.57,,W,29.47,29.13,,Clear
KIGQ,06/26/2017 06:15 UTC,30.12,56.84,47.66,71.33,4.61,230.0,,,,,,442.0,,,,10.0,,KIGQ 260615Z AUTO 23004KT 10SM SCT044 14/09 A3012 RMK AO2  T01380087,,,,,,47.58,,SW,29.47,29.14,,Partly Cloudy
KIGQ,06/26/2017 06:35 UTC,30.11,55.4,48.2,76.68,3.44,240.0,,,,,,442.0,,,,10.0,,KIGQ 260635Z AUTO 24003KT 10SM SCT044 13/09 A3011 RMK AO2  T01300090,,,,,,48.13,,WSW,29.46,29.13,,Partly Cloudy
KIGQ,06/26/2017 06:55 UTC,30.11,54.86,48.02,77.68,0.0,0.0,,,,,,1.0,,,,10.0,,KIGQ 260655Z AUTO 00000KT 10SM CLR 13/09 A3011 RMK AO2  T01270089,,,,,,47.96,,N,29.46,29.14,,Clear
KIGQ,06/26/2017 07:15 UTC,30.11,54.68,47.48,76.62,3.44,240.0,,,,,,1.0,,,,10.0,,KIGQ 260715Z AUTO 24003KT 10SM CLR 13/09 A3011 RMK AO2  T01260086,,,,,,47.41,,WSW,29.46,29.16,,Clear
KIGQ,06/26/2017 07:35 UTC,30.11,52.7,47.3,81.81,3.44,240.0,,,,,,1.0,,,,10.0,,KIGQ 260735Z AUTO 24003KT 10SM CLR 12/09 A3011 RMK AO2  T01150085,,,,,,47.24,,WSW,29.46,29.18,,Clear
KIGQ,06/26/2017 07:55 UTC,30.11,52.52,47.3,82.36,4.61,240.0,,,,,,1.0,,,,10.0,,KIGQ 260755Z AUTO 24004KT 10SM CLR 11/09 A3011 RMK AO2  T01140085,,,,,,47.25,,WSW,29.46,29.18,,Clear
KIGQ,06/26/2017 08:15 UTC,30.11,52.52,47.12,81.8,4.61,230.0,,,,,,1.0,,,,10.0,,KIGQ 260815Z AUTO 23004KT 10SM CLR 11/08 A3011 RMK AO2  T01140084,,,,,,47.06,,SW,29.46,29.19,,Clear
KIGQ,06/26/2017 08:35 UTC,30.11,51.44,47.12,85.12,0.0,0.0,,,,,,1.0,,,,10.0,,KIGQ 260835Z AUTO 00000KT 10SM CLR 11/08 A3011 RMK AO2  T01080084,,,,,,47.07,,N,29.46,29.2,,Clear
KIGQ,06/26/2017 08:55 UTC,30.11,51.44,47.3,85.7,0.0,0.0,,,,,,1.0,,,,10.0,,KIGQ 260855Z AUTO 00000KT 10SM CLR 11/09 A3011 RMK AO2  T01080085,,,,,,47.25,,N,29.46,29.19,,Clear
KIGQ,06/26/2017 09:15 UTC,30.11,51.26,47.3,86.27,0.0,0.0,,,,,,1.0,,,,10.0,,KIGQ 260915Z AUTO 00000KT 10SM CLR 11/09 A3011 RMK AO2  T01070085,,,,,,47.26,,N,29.46,29.2,,Clear
KIGQ,06/26/2017 09:35 UTC,30.11,50.0,46.4,87.38,0.0,0.0,,,,,,1.0,,,,10.0,,KIGQ 260935Z AUTO 00000KT 10SM CLR 10/08 A3011 RMK AO2  T01000080,,,,,,46.36,,N,29.46,29.24,,Clear
KIGQ,06/26/2017 09:55 UTC,30.11,49.46,46.58,89.76,0.0,0.0,,,,,,1.0,,,,10.0,,KIGQ 260955Z AUTO 00000KT 10SM CLR 10/08 A3011 RMK AO2  T00970081,,,,,,46.55,,N,29.46,29.24,,Clear
KIGQ,06/26/2017 10:15 UTC,30.12,50.54,46.76,86.82,3.44,250.0,,,,,,1.0,,,,10.0,,KIGQ 261015Z AUTO 25003KT 10SM CLR 10/08 A3012 RMK AO2  T01030082,,,,,,46.72,,WSW,29.47,29.23,,Clear
KIGQ,06/26/2017 10:35 UTC,30.12,51.44,47.3,85.7,4.61,240.0,,,,,,1.0,,,,10.0,,KIGQ 261035Z AUTO 24004KT 10SM CLR 11/09 A3012 RMK AO2  T01080085,,,,,,47.25,,WSW,29.47,29.2,,Clear
KIGQ,06/26/2017 10:55 UTC,30.13,52.7,48.02,84.06,5.75,250.0,,,,,,1.0,,,,10.0,,KIGQ 261055Z AUTO 25005KT 10SM CLR 12/09 A3013 RMK AO2  T01150089,,,,,,47.97,,WSW,29.47,29.17,,Clear
KIGQ,06/26/2017 11:15 UTC,30.14,53.96,48.38,81.36,4.61,290.0,,,,,,1.0,,,,10.0,,KIGQ 261115Z AUTO 29004KT 10SM CLR 12/09 A3014 RMK AO2  T01220091,,,,,,48.32,,WNW,29.48,29.16,,Clear
KIGQ,06/26/2017 11:35 UTC,30.13,55.58,48.74,77.74,5.75,280.0,,,,,,1.0,,,,10.0,,KIGQ 261135Z AUTO 28005KT 10SM CLR 13/09 A3013 RMK AO2  T01310093,,,,,,48.68,,W,29.47,29.12,,Clear
KIGQ,06/26/2017 11:55 UTC,30.14,55.58,48.92,78.26,6.91,260.0,,,,,,1.0,,,,10.0,,KIGQ 261155Z AUTO 26006KT 10SM CLR 13/09 A3014 RMK AO2 T01310094  10146 20096,58.28,49.28,,,,48.86,,W,29.48,29.12,,Clear
KIGQ,06/26/2017 12:15 UTC,30.14,57.38,49.1,73.83,6.91,260.0,,,,,,1.0,,,,10.0,,KIGQ 261215Z AUTO 26006KT 10SM CLR 14/10 A3014 RMK AO2  T01410095,,,,,,49.03,,W,29.48,29.1,,Clear
KIGQ,06/26/2017 12:35 UTC,30.14,58.46,50.0,73.45,6.91,260.0,,,,,,1.0,,,,10.0,,KIGQ 261235Z AUTO 26006KT 10SM CLR 15/10 A3014 RMK AO2  T01470100,,,,,,49.93,,W,29.48,29.06,,Clear
KIGQ,06/26/2017 12:55 UTC,30.13,59.36,49.46,69.71,6.91,260.0,,,,,,1.0,,,,10.0,,KIGQ 261255Z AUTO 26006KT 10SM CLR 15/10 A3013 RMK AO2  T01520097,,,,,,49.38,,W,29.47,29.06,,Clear
KIGQ,06/26/2017 13:15 UTC,30.13,61.7,50.0,65.46,6.91,270.0,,,,,,1.0,,,,10.0,,KIGQ 261315Z AUTO 27006KT 10SM CLR 17/10 A3013 RMK AO2  T01650100,,,,,,49.92,,W,29.47,29.02,,Clear
KIGQ,06/26/2017 13:35 UTC,30.13,62.42,49.64,62.97,8.05,250.0,,,,,,1.0,,,,10.0,,KIGQ 261335Z AUTO 25007KT 10SM CLR 17/10 A3013 RMK AO2  T01690098,,,,,,49.56,,WSW,29.47,29.02,,Clear
KIGQ,06/26/2017 13:55 UTC,30.12,63.68,49.1,59.05,8.05,260.0,,,,,,1.0,,,,10.0,,KIGQ 261355Z AUTO 26007KT 10SM CLR 18/10 A3012 RMK AO2  T01760095,,,,,,49.02,,W,29.47,29.03,,Clear
KIGQ,06/26/2017 14:15 UTC,30.12,65.84,48.02,52.6,8.05,270.0,,,,,,1.0,,,,10.0,,KIGQ 261415Z AUTO 27007KT 10SM CLR 19/09 A3012 RMK AO2  T01880089,,,,,,47.93,,W,29.47,29.05,,Clear
KIGQ,06/26/2017 14:35 UTC,30.12,67.1,45.86,46.42,9.22,260.0,,,,,,902.0,,,,10.0,,KIGQ 261435Z AUTO 26008KT 10SM SCT090 20/08 A3012 RMK AO2  T01950077,,,,,,45.77,,W,29.47,29.12,,Partly Cloudy
KIGQ,06/26/2017 14:55 UTC,30.12,68.18,42.8,39.8,10.36,290.0,17.27,,,,,1.0,,,,10.0,,KIGQ 261455Z AUTO 29009G15KT 10SM CLR 20/06 A3012 RMK AO2  T02010060,,,,,,42.71,,WNW,29.47,29.21,,Clear
KIGQ,06/26/2017 15:15 UTC,30.12,68.36,45.14,43.25,11.5,260.0,,,,,,1.0,,,,10.0,,KIGQ 261515Z AUTO 26010KT 10SM CLR 20/07 A3012 RMK AO2  T02020073,,,,,,45.05,,W,29.47,29.13,,Clear
KIGQ,06/26/2017 15:35 UTC,30.11,69.08,42.62,38.33,16.11,270.0,26.46,,,,,602.0,952.0,,,10.0,,KIGQ 261535Z AUTO 27014G23KT 10SM SCT060 SCT095 21/06 A3011 RMK AO2 T02060059,,,,,,42.54,,W,29.46,29.2,,Partly Cloudy
KIGQ,06/26/2017 15:55 UTC,30.1,68.54,42.26,38.51,11.5,300.0,20.71,,,,,602.0,952.0,,,10.0,,KIGQ 261555Z AUTO 30010G18KT 10SM SCT060 SCT095 20/06 A3010 RMK AO2 T02030057,,,,,,42.17,,WNW,29.45,29.2,,Partly Cloudy
KIGQ,06/26/2017 16:15 UTC,30.1,69.98,42.8,37.43,11.5,290.0,18.41,,903.0,,,603.0,803.0,,,10.0,,KIGQ 261615Z AUTO 29010G16KT 10SM BKN060 BKN080 BKN090 21/06 A3010 RMK AO2 T02110060,,,6000.0,,,42.73,,WNW,29.45,29.18,,Mostly Cloudy
KIGQ,06/26/2017 16:35 UTC,30.1,68.9,41.54,36.99,16.11,290.0,25.32,,903.0,,,602.0,802.0,,,10.0,,KIGQ 261635Z AUTO 29014G22KT 10SM SCT060 SCT080 BKN090 21/05 A3010 RMK AO2 T02050053,,,9000.0,,,41.45,,WNW,29.45,29.22,,Mostly Cloudy
KIGQ,06/26/2017 16:55 UTC,30.09,68.36,42.26,38.74,14.97,280.0,24.16,,903.0,,,603.0,803.0,,,10.0,,KIGQ 261655Z AUTO 28013G21KT 10SM BKN060 BKN080 BKN090 20/06 A3009 RMK AO2 T02020057,,,6000.0,,,42.17,,W,29.44,29.19,,Mostly Cloudy
KIGQ,06/26/2017 17:15 UTC,30.09,68.9,42.8,38.83,11.5,270.0,17.27,,,,,603.0,904.0,,,10.0,,KIGQ 261715Z AUTO 27010G15KT 10SM BKN060 OVC090 21/06 A3009 RMK AO2 T02050060,,,6000.0,,,42.71,,W,29.44,29.17,,Overcast
KIGQ,06/26/2017 17:35 UTC,30.08,71.24,44.06,37.63,11.5,280.0,16.11,,903.0,,,602.0,702.0,,,10.0,,KIGQ 261735Z AUTO 28010G14KT 10SM SCT060 SCT070 BKN090 22/07 A3008 RMK AO2 T02180067,,,9000.0,,,43.99,,W,29.43,29.11,,Mostly Cloudy
KIGQ,06/26/2017 17:55 UTC,30.08,68.54,43.16,39.86,11.5,290.0,21.85,,,,,603.0,903.0,,,10.0,,KIGQ 261755Z AUTO 29010G19KT 10SM BKN060 BKN090 20/06 A3008 RMK AO2 T02030062 10220 20132,71.6,55.76,6000.0,,,43.07,,WNW,29.43,29.16,,Mostly Cloudy
KIGQ,06/26/2017 18:15 UTC,30.07,69.26,42.98,38.62,13.8,280.0,19.57,,904.0,,,602.0,803.0,,,10.0,,KIGQ 261815Z AUTO 28012G17KT 10SM SCT060 BKN080 OVC090 21/06 A3007 RMK AO2 T02070061,,,8000.0,,,42.9,,W,29.42,29.15,,Overcast
KIGQ,06/26/2017 18:35 UTC,30.06,69.62,43.88,39.49,10.36,280.0,16.11,,1103.0,,,602.0,803.0,,,10.0,,KIGQ 261835Z AUTO 28009G14KT 10SM SCT060 BKN080 BKN110 21/07 A3006 RMK AO2 T02090066 PWINO,,,8000.0,,,43.8,,W,29.41,29.1,,Mostly Cloudy
KIGQ,06/26/2017 18:55 UTC,30.06,69.26,46.04,43.4,12.66,260.0,,13.0,953.0,,,282.0,752.0,,,10.0,,KIGQ 261855Z AUTO 26011KT 10SM -RA SCT028 SCT075 BKN095 21/08  A3006 RMK AO2 T02070078,,,9500.0,,,45.96,,W,29.41,29.03,,Light Rain
KIGQ,06/26/2017 19:15 UTC,30.05,71.6,42.08,34.46,16.11,290.0,26.46,,1202.0,,,752.0,1002.0,,,10.0,,KIGQ 261915Z AUTO 29014G23KT 10SM SCT075 SCT100 SCT120 22/06 A3005 RMK AO2 LTG DSNT SW T02200056,,,,,,42.02,,WNW,29.4,29.14,,Partly Cloudy
KIGQ,06/26/2017 19:35 UTC,30.04,71.96,41.54,33.34,16.11,290.0,25.32,,,,,752.0,1102.0,,,10.0,,KIGQ 261935Z AUTO 29014G22KT 10SM SCT075 SCT110 22/05 A3004 RMK AO2 LTG DSNT SE T02220053,,,,,,41.48,,WNW,29.39,29.14,,Partly Cloudy
KIGQ,06/26/2017 19:55 UTC,30.04,71.42,41.72,34.19,12.66,310.0,25.32,,,,,752.0,1102.0,,,10.0,,KIGQ 261955Z AUTO 31011G22KT 10SM SCT075 SCT110 22/05 A3004 RMK AO2 LTG DSNT SE T02190054,,,,,,41.66,,NW,29.39,29.14,,Partly Cloudy
KIGQ,06/26/2017 20:15 UTC,30.04,72.5,41.9,33.2,14.97,300.0,19.57,,1203.0,,,703.0,803.0,,,10.0,,KIGQ 262015Z AUTO 30013G17KT 10SM BKN070 BKN080 BKN120 23/06 A3004 RMK AO2 T02250055,,,7000.0,,,41.85,,WNW,29.39,29.13,,Mostly Cloudy
KIGQ,06/26/2017 20:35 UTC,30.03,73.4,41.0,31.11,13.8,290.0,27.63,,,,,702.0,802.0,,,10.0,,KIGQ 262035Z AUTO 29012G24KT 10SM SCT070 SCT080 23/05 A3003 RMK AO2 T02300050,,,,,,40.96,,WNW,29.38,29.14,,Partly Cloudy
KIGQ,06/26/2017 20:55 UTC,30.03,71.6,41.0,33.05,13.8,300.0,20.71,,,,,702.0,902.0,,,10.0,,KIGQ 262055Z AUTO 30012G18KT 10SM SCT070 SCT090 22/05 A3003 RMK AO2 LTG DSNT SW T02200050,,,,,,40.94,,WNW,29.38,29.15,,Partly Cloudy
KIGQ,06/26/2017 21:15 UTC,30.03,72.86,40.82,31.45,13.8,310.0,19.57,,,,,703.0,,,,10.0,,KIGQ 262115Z AUTO 31012G17KT 10SM BKN070 23/05 A3003 RMK AO2  T02270049,,,7000.0,,,40.77,,NW,29.38,29.15,,Mostly Cloudy
KIGQ,06/26/2017 21:35 UTC,30.03,71.78,40.1,31.72,12.66,290.0,20.71,,,,,702.0,903.0,,,10.0,,KIGQ 262135Z AUTO 29011G18KT 10SM SCT070 BKN090 22/05 A3003 RMK AO2 T02210045,,,9000.0,,,40.04,,WNW,29.38,29.18,,Mostly Cloudy
KIGQ,06/26/2017 21:55 UTC,30.02,69.98,39.02,32.33,11.5,280.0,19.57,,,,,903.0,,,,10.0,,KIGQ 262155Z AUTO 28010G17KT 10SM BKN090 21/04 A3002 RMK AO2  T02110039,,,9000.0,,,38.94,,W,29.37,29.21,,Mostly Cloudy
KIGQ,06/26/2017 22:15 UTC,30.02,72.14,39.92,31.12,12.66,300.0,19.57,,,,,752.0,902.0,,,10.0,,KIGQ 262215Z AUTO 30011G17KT 10SM SCT075 SCT090 22/04 A3002 RMK AO2 LTG DSNT S T02230044,,,,,,39.86,,WNW,29.37,29.17,,Partly Cloudy
KIGQ,06/26/2017 22:35 UTC,30.02,71.42,39.2,31.0,13.8,310.0,18.41,,,,,1002.0,,,,10.0,,KIGQ 262235Z AUTO 31012G16KT 10SM SCT100 22/04 A3002 RMK AO2  T02190040,,,,,,39.13,,NW,29.37,29.19,,Partly Cloudy
KIGQ,06/26/2017 22:55 UTC,30.02,71.6,40.1,31.92,11.5,350.0,23.02,,,,,702.0,1003.0,,,10.0,,KIGQ 262255Z AUTO 35010G20KT 10SM SCT070 BKN100 22/05 A3002 RMK AO2 T02200045,,,10000.0,,,40.04,,N,29.37,29.17,,Mostly Cloudy
KIGQ,06/26/2017 23:15 UTC,30.02,69.98,39.92,33.48,13.8,310.0,19.57,,,,,702.0,1002.0,,,10.0,,KIGQ 262315Z AUTO 31012G17KT 10SM SCT070 SCT100 21/04 A3002 RMK AO2 T02110044,,,,,,39.84,,NW,29.37,29.18,,Partly Cloudy
KIGQ,06/26/2017 23:35 UTC,30.03,69.98,39.74,33.25,10.36,300.0,,,,,,903.0,,,,10.0,,KIGQ 262335Z AUTO 30009KT 10SM BKN090 21/04 A3003 RMK AO2  T02110043,,,9000.0,,,39.66,,WNW,29.38,29.2,,Mostly Cloudy
KIGQ,06/26/2017 23:55 UTC,30.03,68.9,37.94,32.15,10.36,310.0,18.41,,,,,1004.0,,,,10.0,,KIGQ 262355Z AUTO 31009G16KT 10SM OVC100 21/03 A3003 RMK AO2  T02050033 10232 20201,73.76,68.18,10000.0,,,37.85,,NW,29.38,29.25,,Overcast
KIGQ,06/27/2017 00:15 UTC,30.04,62.78,49.46,61.76,12.66,50.0,20.71,,904.0,,,372.0,702.0,,,10.0,,KIGQ 270015Z AUTO 05011G18KT 10SM SCT037 SCT070 OVC090 17/10 A3004 RMK AO2 T01710097,,,9000.0,,,49.37,,NE,29.39,28.94,,Overcast
KIGQ,06/27/2017 00:35 UTC,30.04,63.14,47.12,55.87,9.22,30.0,,,,,,703.0,903.0,,,10.0,,KIGQ 270035Z AUTO 03008KT 10SM BKN070 BKN090 17/08 A3004 RMK AO2  T01730084,,,7000.0,,,47.02,,NNE,29.39,29.03,,Mostly Cloudy
KIGQ,06/27/2017 00:55 UTC,30.05,63.5,46.94,54.8,6.91,50.0,,,,,,703.0,904.0,,,10.0,,KIGQ 270055Z AUTO 05006KT 10SM BKN070 OVC090 18/08 A3005 RMK AO2  T01750083,,,7000.0,,,46.85,,NE,29.4,29.04,,Overcast
KIGQ,06/27/2017 01:15 UTC,30.05,62.6,47.3,57.33,0.0,0.0,,,,,,703.0,903.0,,,10.0,,KIGQ 270115Z AUTO 00000KT 10SM BKN070 BKN090 17/09 A3005 RMK AO2  T01700085,,,7000.0,,,47.21,,N,29.4,29.03,,Mostly Cloudy
KIGQ,06/27/2017 01:35 UTC,30.05,63.5,41.9,45.22,8.05,310.0,,,,,,803.0,,,,10.0,,KIGQ 270135Z AUTO 31007KT 10SM BKN080 18/06 A3005 RMK AO2  T01750055,,,8000.0,,,41.78,,NW,29.4,29.2,,Mostly Cloudy
KIGQ,06/27/2017 01:55 UTC,30.06,63.14,41.18,44.54,11.5,320.0,17.27,,,,,803.0,,,,10.0,,KIGQ 270155Z AUTO 32010G15KT 10SM BKN080 17/05 A3006 RMK AO2  T01730051,,,8000.0,,,41.06,,NW,29.41,29.23,,Mostly Cloudy
KIGQ,06/27/2017 02:15 UTC,30.06,62.24,41.36,46.29,6.91,320.0,,,,,,802.0,,,,10.0,,KIGQ 270215Z AUTO 32006KT 10SM SCT080 17/05 A3006 RMK AO2  T01680052,,,,,,41.24,,NW,29.41,29.23,,Partly Cloudy
KIGQ,06/27/2017 02:35 UTC,30.08,61.52,41.9,48.48,4.61,310.0,,,,,,802.0,,,,10.0,,KIGQ 270235Z AUTO 31004KT 10SM SCT080 16/06 A3008 RMK AO2  T01640055,,,,,,41.78,,NW,29.43,29.24,,Partly Cloudy
KIGQ,06/27/2017 02:55 UTC,30.08,61.52,41.54,47.81,9.22,320.0,,,,,,1.0,,,,10.0,,KIGQ 270255Z AUTO 32008KT 10SM CLR 16/05 A3008 RMK AO2  T01640053,,,,,,41.41,,NW,29.43,29.25,,Clear
KIGQ,06/27/2017 03:15 UTC,30.09,60.98,41.36,48.39,6.91,310.0,,,,,,1.0,,,,10.0,,KIGQ 270315Z AUTO 31006KT 10SM CLR 16/05 A3009 RMK AO2  T01610052,,,,,,41.23,,NW,29.44,29.27,,Clear
KIGQ,06/27/2017 03:35 UTC,30.09,60.08,42.08,51.37,5.75,310.0,,,,,,1.0,,,,10.0,,KIGQ 270335Z AUTO 31005KT 10SM CLR 16/06 A3009 RMK AO2  T01560056,,,,,,41.95,,NW,29.44,29.26,,Clear
KIGQ,06/27/2017 03:55 UTC,30.09,59.36,42.26,53.07,5.75,300.0,,,,,,1.0,,,,10.0,,KIGQ 270355Z AUTO 30005KT 10SM CLR 15/06 A3009 RMK AO2  T01520057,,,,,,42.14,,WNW,29.44,29.26,,Clear
KIGQ,06/27/2017 04:15 UTC,30.1,58.46,42.44,55.19,4.61,300.0,,,,,,1.0,,,,10.0,,KIGQ 270415Z AUTO 30004KT 10SM CLR 15/06 A3010 RMK AO2  T01470058,,,,,,42.32,,WNW,29.45,29.27,,Clear
KIGQ,06/27/2017 04:35 UTC,30.1,58.1,42.44,55.9,3.44,290.0,,,,,,1.0,,,,10.0,,KIGQ 270435Z AUTO 29003KT 10SM CLR 15/06 A3010 RMK AO2  T01450058,,,,,,42.32,,WNW,29.45,29.27,,Clear
KIGQ,06/27/2017 04:55 UTC,30.1,57.02,42.8,58.93,4.61,270.0,,,,,,1.0,,,,10.0,,KIGQ 270455Z AUTO 27004KT 10SM CLR 14/06 A3010 RMK AO2  T01390060,,,,,,42.68,,W,29.45,29.27,,Clear
KIGQ,06/27/2017 05:15 UTC,30.11,56.48,43.52,61.77,3.44,280.0,,,,,,1.0,,,,10.0,,KIGQ 270515Z AUTO 28003KT 10SM CLR 14/06 A3011 RMK AO2  T01360064,,,,,,43.41,,W,29.46,29.27,,Clear
KIGQ,06/27/2017 05:35 UTC,30.11,55.58,43.52,63.81,3.44,280.0,,,,,,1.0,,,,10.0,,KIGQ 270535Z AUTO 28003KT 10SM CLR 13/06 A3011 RMK AO2  T01310064,,,,,,43.41,,W,29.46,29.27,,Clear
KIGQ,06/27/2017 05:55 UTC,30.11,55.4,43.7,64.67,3.44,280.0,,,,,,1.0,,,,10.0,,KIGQ 270555Z AUTO 28003KT 10SM CLR 13/07 A3011 RMK AO2 T01300065  10204 20129 402320096,68.72,55.22,,73.76,49.28,43.59,,W,29.46,29.27,,Clear
KIGQ,06/27/2017 06:15 UTC,30.11,54.68,43.7,66.39,4.61,290.0,,,,,,1.0,,,,10.0,,KIGQ 270615Z AUTO 29004KT 10SM CLR 13/07 A3011 RMK AO2  T01260065,,,,,,43.6,,WNW,29.46,29.27,,Clear
KIGQ,06/27/2017 06:35 UTC,30.11,54.14,44.06,68.64,3.44,280.0,,,,,,1.0,,,,10.0,,KIGQ 270635Z AUTO 28003KT 10SM CLR 12/07 A3011 RMK AO2  T01230067,,,,,,43.96,,W,29.46,29.27,,Clear
KIGQ,06/27/2017 06:55 UTC,30.1,54.32,44.06,68.2,3.44,300.0,,,,,,1.0,,,,10.0,,KIGQ 270655Z AUTO 30003KT 10SM CLR 12/07 A3010 RMK AO2  T01240067,,,,,,43.96,,WNW,29.45,29.26,,Clear
KIGQ,06/27/2017 07:15 UTC,30.1,53.96,44.24,69.57,0.0,0.0,,,,,,1.0,,,,10.0,,KIGQ 270715Z AUTO 00000KT 10SM CLR 12/07 A3010 RMK AO2  T01220068,,,,,,44.14,,N,29.45,29.25,,Clear
KIGQ,06/27/2017 07:35 UTC,30.1,52.7,43.7,71.37,3.44,290.0,,,,,,1.0,,,,10.0,,KIGQ 270735Z AUTO 29003KT 10SM CLR 12/07 A3010 RMK AO2  T01150065,,,,,,43.61,,WNW,29.45,29.28,,Clear
KIGQ,06/27/2017 07:55 UTC,30.11,52.7,44.06,72.36,3.44,280.0,,,,,,1.0,,,,10.0,,KIGQ 270755Z AUTO 28003KT 10SM CLR 12/07 A3011 RMK AO2  T01150067,,,,,,43.97,,W,29.46,29.28,,Clear
KIGQ,06/27/2017 08:15 UTC,30.11,52.34,44.42,74.34,0.0,0.0,,,,,,1.0,,,,10.0,,KIGQ 270815Z AUTO 00000KT 10SM CLR 11/07 A3011 RMK AO2  T01130069,,,,,,44.34,,N,29.46,29.27,,Clear
KIGQ,06/27/2017 08:35 UTC,30.11,51.26,44.42,77.36,4.61,260.0,,,,,,1.0,,,,10.0,,KIGQ 270835Z AUTO 26004KT 10SM CLR 11/07 A3011 RMK AO2  T01070069,,,,,,44.35,,W,29.46,29.28,,Clear
KIGQ,06/27/2017 08:55 UTC,30.11,50.54,44.42,79.45,0.0,0.0,,,,,,1.0,,,,10.0,,KIGQ 270855Z AUTO 00000KT 10SM CLR 10/07 A3011 RMK AO2  T01030069,,,,,,44.35,,N,29.46,29.29,,Clear
KIGQ,06/27/2017 09:15 UTC,30.11,50.0,43.7,78.86,0.0,0.0,,,,,,1.0,,,,10.0,,KIGQ 270915Z AUTO 00000KT 10SM CLR 10/07 A3011 RMK AO2  T01000065,,,,,,43.63,,N,29.46,29.31,,Clear
KIGQ,06/27/2017 09:35 UTC,30.11,48.38,43.16,82.06,0.0,0.0,,,,,,1.0,,,,10.0,,KIGQ 270935Z AUTO 00000KT 10SM CLR 09/06 A3011 RMK AO2  T00910062,,,,,,43.1,,N,29.46,29.34,,Clear
KIGQ,06/27/2017 09:55 UTC,30.12,47.48,43.16,84.87,0.0,0.0,,,,,,1.0,,,,10.0,,KIGQ 270955Z AUTO 00000KT 10SM CLR 09/06 A3012 RMK AO2  T00860062,,,,,,43.11,,N,29.47,29.36,,Clear
KIGQ,06/27/2017 10:15 UTC,30.13,46.4,42.8,87.19,3.44,210.0,,,,,,1.0,,,,10.0,,KIGQ 271015Z AUTO 21003KT 10SM CLR 08/06 A3013 RMK AO2  T00800060,,,,,,42.75,,SSW,29.47,29.38,,Clear
KIGQ,06/27/2017 10:35 UTC,30.13,46.76,43.16,87.21,0.0,0.0,,,,,,1.0,,,,10.0,,KIGQ 271035Z AUTO 00000KT 10SM CLR 08/06 A3013 RMK AO2  T00820062,,,,,,43.12,,N,29.47,29.37,,Clear
KIGQ,06/27/2017 10:55 UTC,30.13,47.12,44.06,89.05,0.0,0.0,,,,,,1.0,,,,10.0,,KIGQ 271055Z AUTO 00000KT 10SM CLR 08/07 A3013 RMK AO2  T00840067,,,,,,44.02,,N,29.47,29.34,,Clear
KIGQ,06/27/2017 11:15 UTC,30.13,49.82,45.14,83.87,0.0,0.0,,,,,,1.0,,,,10.0,,KIGQ 271115Z AUTO 00000KT 10SM CLR 10/07 A3013 RMK AO2  T00990073,,,,,,45.09,,N,29.47,29.28,,Clear
KIGQ,06/27/2017 11:35 UTC,30.13,51.8,47.3,84.57,0.0,0.0,,,,,,1.0,,,,10.0,,KIGQ 271135Z AUTO 00000KT 10SM CLR 11/09 A3013 RMK AO2  T01100085,,,,,,47.25,,N,29.47,29.2,,Clear
KIGQ,06/27/2017 11:55 UTC,30.13,54.86,48.38,78.73,0.0,0.0,,,,,,22.0,,,,10.0,,KIGQ 271155Z AUTO 00000KT 10SM SCT002 13/09 A3013 RMK AO2  T01270091 10130 20080,55.4,46.4,,,,48.32,,N,29.47,29.14,,Partly Cloudy
KIGQ,06/27/2017 12:15 UTC,30.14,57.56,47.12,68.11,0.0,0.0,,,,,,22.0,,,,10.0,,KIGQ 271215Z AUTO 00000KT 10SM SCT002 14/08 A3014 RMK AO2  T01420084,,,,,,47.03,,N,29.48,29.16,,Partly Cloudy
KIGQ,06/27/2017 12:35 UTC,30.14,59.54,47.66,64.75,0.0,0.0,,,,,,1.0,,,,10.0,,KIGQ 271235Z AUTO 00000KT 10SM CLR 15/09 A3014 RMK AO2  T01530087,,,,,,47.57,,N,29.48,29.13,,Clear
KIGQ,06/27/2017 12:55 UTC,30.15,61.7,47.12,58.77,3.44,260.0,,,,,,1.0,,,,10.0,,KIGQ 271255Z AUTO 26003KT 10SM CLR 17/08 A3015 RMK AO2  T01650084,,,,,,47.02,,W,29.49,29.14,,Clear
KIGQ,06/27/2017 13:15 UTC,30.15,62.96,46.58,55.09,6.91,260.0,,,,,,1.0,,,,10.0,,KIGQ 271315Z AUTO 26006KT 10SM CLR 17/08 A3015 RMK AO2  T01720081,,,,,,46.48,,W,29.49,29.15,,Clear
KIGQ,06/27/2017 13:35 UTC,30.16,64.58,46.4,51.7,5.75,270.0,,,,,,1.0,,,,10.0,,KIGQ 271335Z AUTO 27005KT 10SM CLR 18/08 A3016 RMK AO2  T01810080,,,,,,46.3,,W,29.5,29.15,,Clear
KIGQ,06/27/2017 13:55 UTC,30.16,65.84,44.78,46.54,9.22,270.0,,,,,,1.0,,,,10.0,,KIGQ 271355Z AUTO 27008KT 10SM CLR 19/07 A3016 RMK AO2  T01880071,,,,,,44.68,,W,29.5,29.19,,Clear
KIGQ,06/27/2017 14:15 UTC,30.16,66.2,45.32,46.92,8.05,250.0,,,,,,1.0,,,,10.0,,KIGQ 271415Z AUTO 25007KT 10SM CLR 19/07 A3016 RMK AO2  T01900074,,,,,,45.23,,WSW,29.5,29.17,,Clear
KIGQ,06/27/2017 14:35 UTC,30.15,67.46,45.14,44.61,9.22,280.0,,,,,,1.0,,,,10.0,,KIGQ 271435Z AUTO 28008KT 10SM CLR 20/07 A3015 RMK AO2  T01970073,,,,,,45.05,,W,29.49,29.16,,Clear
KIGQ,06/27/2017 14:55 UTC,30.15,67.64,44.06,42.55,6.91,270.0,,,,,,1.0,,,,10.0,,KIGQ 271455Z AUTO 27006KT 10SM CLR 20/07 A3015 RMK AO2  T01980067,,,,,,43.97,,W,29.49,29.19,,Clear
KIGQ,06/27/2017 15:15 UTC,30.15,68.72,45.32,43.02,11.5,270.0,,,,,,1.0,,,,10.0,,KIGQ 271515Z AUTO 27010KT 10SM CLR 20/07 A3015 RMK AO2  T02040074,,,,,,45.24,,W,29.49,29.14,,Clear
KIGQ,06/27/2017 15:35 UTC,30.15,68.72,44.06,41.0,11.5,270.0,18.41,,,,,502.0,,,,10.0,,KIGQ 271535Z AUTO 27010G16KT 10SM SCT050 20/07 A3015 RMK AO2  T02040067,,,,,,43.97,,W,29.49,29.19,,Partly Cloudy
KIGQ,06/27/2017 15:55 UTC,30.15,70.34,43.7,38.27,10.36,310.0,,,,,,502.0,,,,10.0,,KIGQ 271555Z AUTO 31009KT 10SM SCT050 21/07 A3015 RMK AO2  T02130065,,,,,,43.63,,NW,29.49,29.19,,Partly Cloudy
KIGQ,06/27/2017 16:15 UTC,30.14,70.34,44.6,39.61,11.5,280.0,,,,,,1.0,,,,10.0,,KIGQ 271615Z AUTO 28010KT 10SM CLR 21/07 A3014 RMK AO2  T02130070,,,,,,44.53,,W,29.48,29.15,,Clear
KIGQ,06/27/2017 16:35 UTC,30.14,70.52,43.52,37.77,9.22,280.0,,,,,,1.0,,,,10.0,,KIGQ 271635Z AUTO 28008KT 10SM CLR 21/06 A3014 RMK AO2  T02140064,,,,,,43.45,,W,29.48,29.18,,Clear
KIGQ,06/27/2017 16:55 UTC,30.13,71.06,43.52,37.09,8.05,340.0,,,,,,1.0,,,,10.0,,KIGQ 271655Z AUTO 34007KT 10SM CLR 22/06 A3013 RMK AO2  T02170064,,,,,,43.45,,NNW,29.47,29.17,,Clear
KIGQ,06/27/2017 17:15 UTC,30.13,69.98,43.88,39.01,9.22,300.0,,,,,,602.0,,,,10.0,,KIGQ 271715Z AUTO 30008KT 10SM SCT060 21/07 A3013 RMK AO2  T02110066,,,,,,43.81,,WNW,29.47,29.16,,Partly Cloudy
KIGQ,06/27/2017 17:35 UTC,30.13,69.62,42.8,37.89,8.05,270.0,,,,,,603.0,,,,10.0,,KIGQ 271735Z AUTO 27007KT 230V290 10SM BKN060 21/06 A3013 RMK AO2  T02090060,,,6000.0,,,42.72,,W,29.47,29.2,,Mostly Cloudy
KIGQ,06/27/2017 17:55 UTC,30.13,71.24,42.98,36.11,6.91,310.0,,,,,,653.0,,,,10.0,,KIGQ 271755Z AUTO 31006KT 10SM BKN065 22/06 A3013 RMK AO2  T02180061 10224 20129,72.32,55.22,6500.0,,,42.92,,NW,29.47,29.18,,Mostly Cloudy
KIGQ,06/27/2017 18:15 UTC,30.12,70.88,42.8,36.3,3.44,20.0,,,,,,653.0,753.0,,,10.0,,KIGQ 271815Z AUTO 02003KT 10SM BKN065 BKN075 22/06 A3012 RMK AO2  T02160060,,,6500.0,,,42.73,,NNE,29.47,29.19,,Mostly Cloudy
KIGQ,06/27/2017 18:35 UTC,30.11,72.68,42.98,34.39,6.91,300.0,,,,,,652.0,753.0,,,10.0,,KIGQ 271835Z AUTO 30006KT 10SM SCT065 BKN075 23/06 A3011 RMK AO2  T02260061,,,7500.0,,,42.93,,WNW,29.46,29.16,,Mostly Cloudy
KIGQ,06/27/2017 18:55 UTC,30.11,74.3,43.88,33.72,5.75,280.0,,,,,,652.0,753.0,,,10.0,,KIGQ 271855Z AUTO 28005KT 10SM SCT065 BKN075 24/07 A3011 RMK AO2  T02350066,,,7500.0,,,43.85,,W,29.46,29.12,,Mostly Cloudy
KIGQ,06/27/2017 19:15 UTC,30.1,74.48,44.6,34.45,6.91,300.0,,,,,,653.0,,,,10.0,,KIGQ 271915Z AUTO 30006KT 10SM BKN065 24/07 A3010 RMK AO2  T02360070,,,6500.0,,,44.57,,WNW,29.45,29.09,,Mostly Cloudy
KIGQ,06/27/2017 19:35 UTC,30.1,74.3,43.34,33.03,4.61,290.0,,,,,,752.0,,,,10.0,,KIGQ 271935Z AUTO 29004KT 10SM SCT075 24/06 A3010 RMK AO2  T02350063,,,,,,43.31,,WNW,29.45,29.13,,Partly Cloudy
KIGQ,06/27/2017 19:55 UTC,30.09,74.66,44.06,33.54,6.91,280.0,,,,,,752.0,,,,10.0,,KIGQ 271955Z AUTO 28006KT 10SM SCT075 24/07 A3009 RMK AO2  T02370067,,,,,,44.03,,W,29.44,29.09,,Partly Cloudy
KIGQ,06/27/2017 20:15 UTC,30.08,73.94,42.8,32.74,0.0,0.0,,,,,,752.0,,,,10.0,,KIGQ 272015Z AUTO 00000KT 10SM SCT075 23/06 A3008 RMK AO2  T02330060,,,,,,42.76,,N,29.43,29.13,,Partly Cloudy
KIGQ,06/27/2017 20:35 UTC,30.08,75.92,44.06,32.17,5.75,260.0,,,,,,752.0,,,,10.0,,KIGQ 272035Z AUTO 26005KT 10SM SCT075 24/07 A3008 RMK AO2  T02440067,,,,,,44.05,,W,29.43,29.08,,Partly Cloudy
KIGQ,06/27/2017 20:55 UTC,30.08,74.12,42.44,32.1,0.0,0.0,,,,,,752.0,,,,10.0,,KIGQ 272055Z AUTO 00000KT 10SM SCT075 23/06 A3008 RMK AO2  T02340058,,,,,,42.41,,N,29.43,29.14,,Partly Cloudy
KIGQ,06/27/2017 21:15 UTC,30.08,72.86,43.16,34.42,4.61,250.0,,,,,,752.0,,,,10.0,,KIGQ 272115Z AUTO 25004KT 10SM SCT075 23/06 A3008 RMK AO2  T02270062,,,,,,43.11,,WSW,29.43,29.13,,Partly Cloudy
KIGQ,06/27/2017 21:35 UTC,30.07,73.22,42.44,33.08,0.0,0.0,,,,,,754.0,,,,10.0,,KIGQ 272135Z AUTO 00000KT 10SM OVC075 23/06 A3007 RMK AO2  T02290058,,,7500.0,,,42.39,,N,29.42,29.14,,Overcast
KIGQ,06/27/2017 21:55 UTC,30.06,72.68,42.8,34.16,4.61,290.0,,,,,,752.0,,,,10.0,,KIGQ 272155Z AUTO 29004KT 10SM SCT075 23/06 A3006 RMK AO2  T02260060,,,,,,42.75,,WNW,29.41,29.12,,Partly Cloudy
KIGQ,06/27/2017 22:15 UTC,30.06,73.76,43.52,33.86,3.44,290.0,,,,,,753.0,,,,10.0,,KIGQ 272215Z AUTO 29003KT 10SM BKN075 23/06 A3006 RMK AO2  T02320064,,,7500.0,,,43.48,,WNW,29.41,29.09,,Mostly Cloudy
KIGQ,06/27/2017 22:35 UTC,30.05,74.84,43.16,32.21,5.75,260.0,,,,,,752.0,,,,10.0,,KIGQ 272235Z AUTO 26005KT 10SM SCT075 24/06 A3005 RMK AO2  T02380062,,,,,,43.13,,W,29.4,29.08,,Partly Cloudy
KIGQ,06/27/2017 22:55 UTC,30.04,75.56,43.7,32.11,3.44,260.0,,,,,,752.0,,,,10.0,,KIGQ 272255Z AUTO 26003KT 10SM SCT075 24/07 A3004 RMK AO2  T02420065,,,,,,43.68,,W,29.39,29.05,,Partly Cloudy
KIGQ,06/27/2017 23:15 UTC,30.04,74.12,42.98,32.77,4.61,250.0,,,,,,752.0,,,,10.0,,KIGQ 272315Z AUTO 25004KT 10SM SCT075 23/06 A3004 RMK AO2  T02340061,,,,,,42.94,,WSW,29.39,29.08,,Partly Cloudy
KIGQ,06/27/2017 23:35 UTC,30.04,74.12,44.06,34.15,10.36,200.0,,,,,,752.0,,,,10.0,,KIGQ 272335Z AUTO 20009KT 10SM SCT075 23/07 A3004 RMK AO2  T02340067,,,,,,44.02,,SSW,29.39,29.05,,Partly Cloudy
KIGQ,06/27/2017 23:55 UTC,30.03,73.4,43.52,34.27,6.91,210.0,,,,,,752.0,,,,10.0,,KIGQ 272355Z AUTO 21006KT 10SM SCT075 23/06 A3003 RMK AO2  T02300064 10244 20214,75.92,70.52,,,,43.47,,SSW,29.38,29.06,,Partly Cloudy
KIGQ,06/28/2017 00:35 UTC,30.03,71.6,44.6,37.95,8.05,210.0,,,,,,1.0,,,,10.0,,KIGQ 280035Z AUTO 21007KT 10SM CLR 22/07 A3003 RMK AO2  T02200070,,,,,,44.54,,SSW,29.38,29.04,,Clear
KIGQ,06/28/2017 00:55 UTC,30.04,70.7,44.06,38.33,10.36,210.0,,,,,,1.0,,,,10.0,,KIGQ 280055Z AUTO 21009KT 10SM CLR 22/07 A3004 RMK AO2  T02150067,,,,,,43.99,,SSW,29.39,29.07,,Clear
KIGQ,06/28/2017 01:15 UTC,30.04,68.9,43.88,40.47,6.91,220.0,,,,,,1.0,,,,10.0,,KIGQ 280115Z AUTO 22006KT 10SM CLR 21/07 A3004 RMK AO2  T02050066,,,,,,43.79,,SW,29.39,29.09,,Clear
KIGQ,06/28/2017 01:35 UTC,30.03,66.74,44.42,44.5,5.75,210.0,,,,,,1.0,,,,10.0,,KIGQ 280135Z AUTO 21005KT 10SM CLR 19/07 A3003 RMK AO2  T01930069,,,,,,44.33,,SSW,29.38,29.08,,Clear
KIGQ,06/28/2017 01:55 UTC,30.03,62.6,45.86,54.29,4.61,190.0,,,,,,1.0,,,,10.0,,KIGQ 280155Z AUTO 19004KT 10SM CLR 17/08 A3003 RMK AO2  T01700077,,,,,,45.76,,S,29.38,29.06,,Clear
KIGQ,06/28/2017 02:15 UTC,30.04,60.8,46.58,59.45,4.61,210.0,,,,,,1.0,,,,10.0,,KIGQ 280215Z AUTO 21004KT 10SM CLR 16/08 A3004 RMK AO2  T01600081,,,,,,46.48,,SSW,29.39,29.06,,Clear
KIGQ,06/28/2017 02:35 UTC,30.05,60.26,46.58,60.6,4.61,190.0,,,,,,1.0,,,,10.0,,KIGQ 280235Z AUTO 19004KT 10SM CLR 16/08 A3005 RMK AO2  T01570081,,,,,,46.48,,S,29.4,29.08,,Clear
KIGQ,06/28/2017 02:55 UTC,30.05,60.26,45.68,58.57,5.75,190.0,,,,,,1.0,,,,10.0,,KIGQ 280255Z AUTO 19005KT 10SM CLR 16/08 A3005 RMK AO2  T01570076,,,,,,45.58,,S,29.4,29.11,,Clear
KIGQ,06/28/2017 03:15 UTC,30.05,59.18,46.4,62.55,4.61,180.0,,,,,,1.0,,,,10.0,,KIGQ 280315Z AUTO 18004KT 10SM CLR 15/08 A3005 RMK AO2  T01510080,,,,,,46.3,,S,29.4,29.09,,Clear
KIGQ,06/28/2017 03:35 UTC,30.05,61.16,45.32,55.96,5.75,180.0,,,,,,1.0,,,,10.0,,KIGQ 280335Z AUTO 18005KT 10SM CLR 16/07 A3005 RMK AO2  T01620074,,,,,,45.21,,S,29.4,29.11,,Clear
KIGQ,06/28/2017 03:55 UTC,30.05,59.0,45.86,61.68,5.75,180.0,,,,,,1.0,,,,10.0,,KIGQ 280355Z AUTO 18005KT 10SM CLR 15/08 A3005 RMK AO2  T01500077,,,,,,45.76,,S,29.4,29.11,,Clear
KIGQ,06/28/2017 04:15 UTC,30.06,58.1,46.22,64.57,5.75,170.0,,,,,,1.0,,,,10.0,,KIGQ 280415Z AUTO 17005KT 10SM CLR 15/08 A3006 RMK AO2  T01450079,,,,,,46.12,,S,29.41,29.12,,Clear
KIGQ,06/28/2017 04:35 UTC,30.06,58.28,46.76,65.48,6.91,190.0,,,,,,1.0,,,,10.0,,KIGQ 280435Z AUTO 19006KT 10SM CLR 15/08 A3006 RMK AO2  T01460082,,,,,,46.67,,S,29.41,29.1,,Clear
KIGQ,06/28/2017 04:55 UTC,30.06,57.56,46.4,66.28,6.91,190.0,,,,,,1.0,,,,10.0,,KIGQ 280455Z AUTO 19006KT 10SM CLR 14/08 A3006 RMK AO2  T01420080,,,,,,46.3,,S,29.41,29.12,,Clear
KIGQ,06/28/2017 05:15 UTC,30.07,57.74,46.58,66.31,5.75,190.0,,,,,,1.0,,,,10.0,,KIGQ 280515Z AUTO 19005KT 10SM CLR 14/08 A3007 RMK AO2  T01430081,,,,,,46.49,,S,29.42,29.12,,Clear
KIGQ,06/28/2017 05:35 UTC,30.07,57.56,46.76,67.19,5.75,190.0,,,,,,1.0,,,,10.0,,KIGQ 280535Z AUTO 19005KT 10SM CLR 14/08 A3007 RMK AO2  T01420082,,,,,,46.67,,S,29.42,29.12,,Clear
KIGQ,06/28/2017 05:55 UTC,30.06,57.74,46.94,67.21,6.91,200.0,,,,,,1.0,,,,10.0,,KIGQ 280555Z AUTO 20006KT 10SM CLR 14/08 A3006 RMK AO2 T01430083  10230 20140 402440080,73.4,57.2,,75.92,46.4,46.85,,SSW,29.41,29.1,,Clear
KIGQ,06/28/2017 06:15 UTC,30.06,57.92,46.94,66.78,5.75,190.0,,,,,,1.0,,,,10.0,,KIGQ 280615Z AUTO 19005KT 10SM CLR 14/08 A3006 RMK AO2  T01440083,,,,,,46.85,,S,29.41,29.1,,Clear
KIGQ,06/28/2017 06:35 UTC,30.07,56.84,46.58,68.49,4.61,200.0,,,,,,1.0,,,,10.0,,KIGQ 280635Z AUTO 20004KT 10SM CLR 14/08 A3007 RMK AO2  T01380081,,,,,,46.49,,SSW,29.42,29.13,,Clear
KIGQ,06/28/2017 06:55 UTC,30.07,56.3,46.4,69.36,5.75,190.0,,,,,,1.0,,,,10.0,,KIGQ 280655Z AUTO 19005KT 10SM CLR 14/08 A3007 RMK AO2  T01350080,,,,,,46.31,,S,29.42,29.14,,Clear
KIGQ,06/28/2017 07:15 UTC,30.06,54.86,46.22,72.59,6.91,180.0,,,,,,1.0,,,,10.0,,KIGQ 280715Z AUTO 18006KT 10SM CLR 13/08 A3006 RMK AO2  T01270079,,,,,,46.14,,S,29.41,29.15,,Clear
KIGQ,06/28/2017 07:35 UTC,30.04,55.58,46.58,71.68,5.75,170.0,,,,,,1.0,,,,10.0,,KIGQ 280735Z AUTO 17005KT 10SM CLR 13/08 A3004 RMK AO2  T01310081,,,,,,46.5,,S,29.39,29.11,,Clear
KIGQ,06/28/2017 07:55 UTC,30.02,56.3,46.94,70.79,6.91,170.0,,,,,,1.0,,,,10.0,,KIGQ 280755Z AUTO 17006KT 10SM CLR 14/08 A3002 RMK AO2  T01350083,,,,,,46.86,,S,29.37,29.07,,Clear
KIGQ,06/28/2017 08:15 UTC,30.03,56.48,46.76,69.86,8.05,190.0,,,,,,1.0,,,,10.0,,KIGQ 280815Z AUTO 19007KT 10SM CLR 14/08 A3003 RMK AO2  T01360082,,,,,,46.67,,S,29.38,29.08,,Clear
KIGQ,06/28/2017 08:35 UTC,30.03,57.02,46.76,68.51,6.91,180.0,,,,,,1.0,,,,10.0,,KIGQ 280835Z AUTO 18006KT 10SM CLR 14/08 A3003 RMK AO2  T01390082,,,,,,46.67,,S,29.38,29.08,,Clear
KIGQ,06/28/2017 08:55 UTC,30.04,56.3,46.58,69.84,6.91,190.0,,,,,,1.0,,,,10.0,,KIGQ 280855Z AUTO 19006KT 10SM CLR 14/08 A3004 RMK AO2  T01350081,,,,,,46.49,,S,29.39,29.1,,Clear
KIGQ,06/28/2017 09:15 UTC,30.03,55.94,46.58,70.75,6.91,180.0,,,,,,1.0,,,,10.0,,KIGQ 280915Z AUTO 18006KT 10SM CLR 13/08 A3003 RMK AO2  T01330081,,,,,,46.49,,S,29.38,29.09,,Clear
KIGQ,06/28/2017 09:35 UTC,30.03,56.3,46.58,69.84,6.91,190.0,,,,,,1.0,,,,10.0,,KIGQ 280935Z AUTO 19006KT 10SM CLR 14/08 A3003 RMK AO2  T01350081,,,,,,46.49,,S,29.38,29.09,,Clear
KIGQ,06/28/2017 09:55 UTC,30.03,56.66,46.76,69.4,6.91,180.0,,,,,,1.0,,,,10.0,,KIGQ 280955Z AUTO 18006KT 10SM CLR 14/08 A3003 RMK AO2  T01370082,,,,,,46.67,,S,29.38,29.08,,Clear
KIGQ,06/28/2017 10:15 UTC,30.04,57.2,46.94,68.53,8.05,180.0,,,,,,1.0,,,,10.0,,KIGQ 281015Z AUTO 18007KT 10SM CLR 14/08 A3004 RMK AO2  T01400083,,,,,,46.85,,S,29.39,29.08,,Clear
KIGQ,06/28/2017 10:35 UTC,30.03,58.1,46.76,65.9,8.05,180.0,,,,,,1.0,,,,10.0,,KIGQ 281035Z AUTO 18007KT 10SM CLR 15/08 A3003 RMK AO2  T01450082,,,,,,46.67,,S,29.38,29.07,,Clear
KIGQ,06/28/2017 10:55 UTC,30.02,59.18,46.76,63.4,9.22,180.0,,,,,,1.0,,,,10.0,,KIGQ 281055Z AUTO 18008KT 10SM CLR 15/08 A3002 RMK AO2  T01510082,,,,,,46.66,,S,29.37,29.05,,Clear
KIGQ,06/28/2017 11:15 UTC,30.02,60.62,46.58,59.83,10.36,170.0,,,,,,1.0,,,,10.0,,KIGQ 281115Z AUTO 17009KT 10SM CLR 16/08 A3002 RMK AO2  T01590081,,,,,,46.48,,S,29.37,29.04,,Clear
KIGQ,06/28/2017 11:35 UTC,30.01,61.7,46.94,58.38,11.5,180.0,,,,,,502.0,,,,10.0,,KIGQ 281135Z AUTO 18010KT 10SM SCT050 17/08 A3001 RMK AO2  T01650083,,,,,,46.84,,S,29.36,29.01,,Partly Cloudy
KIGQ,06/28/2017 11:55 UTC,30.01,62.06,47.3,58.43,12.66,170.0,16.11,,,,,502.0,,,,10.0,,KIGQ 281155Z AUTO 17011G14KT 10SM SCT050 17/09 A3001 RMK AO2  T01670085 10167 20126,62.06,54.68,,,,47.21,,S,29.36,29.0,,Partly Cloudy
KIGQ,06/28/2017 12:15 UTC,30.01,63.5,47.84,56.68,13.8,180.0,,,,,,1.0,,,,10.0,,KIGQ 281215Z AUTO 18012KT 10SM CLR 18/09 A3001 RMK AO2  T01750088,,,,,,47.75,,S,29.36,28.97,,Clear
KIGQ,06/28/2017 12:35 UTC,30.03,63.5,48.2,57.45,13.8,190.0,19.57,,,,,1.0,,,,10.0,,KIGQ 281235Z AUTO 19012G17KT 10SM CLR 18/09 A3003 RMK AO2  T01750090,,,,,,48.11,,S,29.38,28.97,,Clear
KIGQ,06/28/2017 12:55 UTC,30.04,64.04,48.92,57.92,9.22,190.0,,,,,,432.0,,,,10.0,,KIGQ 281255Z AUTO 19008KT 10SM SCT043 18/09 A3004 RMK AO2  T01780094,,,,,,48.83,,S,29.39,28.95,,Partly Cloudy
KIGQ,06/28/2017 13:15 UTC,30.04,64.76,49.28,57.24,13.8,190.0,,,,,,432.0,,,,10.0,,KIGQ 281315Z AUTO 19012KT 10SM SCT043 18/10 A3004 RMK AO2  T01820096,,,,,,49.19,,S,29.39,28.93,,Partly Cloudy
KIGQ,06/28/2017 13:35 UTC,30.04,65.3,50.0,57.71,10.36,190.0,,,,,,1.0,,,,10.0,,KIGQ 281335Z AUTO 19009KT 10SM CLR 19/10 A3004 RMK AO2  T01850100,,,,,,49.92,,S,29.39,28.9,,Clear
KIGQ,06/28/2017 13:55 UTC,30.03,67.1,50.72,55.69,14.97,190.0,19.57,,,,,1.0,,,,10.0,,KIGQ 281355Z AUTO 19013G17KT 10SM CLR 20/10 A3003 RMK AO2  T01950104,,,,,,50.65,,S,29.38,28.85,,Clear
KIGQ,06/28/2017 14:15 UTC,30.03,68.36,50.36,52.62,14.97,190.0,19.57,,,,,1.0,,,,10.0,,KIGQ 281415Z AUTO 19013G17KT 10SM CLR 20/10 A3003 RMK AO2 LTG DSNT  W T02020102,,,,,,50.29,,S,29.38,28.85,,Clear
KIGQ,06/28/2017 14:35 UTC,30.03,68.54,50.72,53.0,12.66,190.0,,,,,,852.0,,,,10.0,,KIGQ 281435Z AUTO 19011KT 10SM SCT085 20/10 A3003 RMK AO2 LTG DSNT  W T02030104,,,,,,50.65,,S,29.38,28.83,,Partly Cloudy
KIGQ,06/28/2017 14:55 UTC,30.03,68.72,51.08,53.38,11.5,200.0,,,,,,753.0,803.0,,,10.0,,KIGQ 281455Z AUTO 20010KT 10SM BKN075 BKN080 20/11 A3003 RMK AO2  T02040106,,,7500.0,,,51.01,,SSW,29.38,28.82,,Mostly Cloudy
KIGQ,06/28/2017 15:15 UTC,30.02,68.9,51.26,53.41,14.97,190.0,19.57,,,,,704.0,,,,10.0,,KIGQ 281515Z AUTO 19013G17KT 10SM OVC070 21/11 A3002 RMK AO2 LTG  DSNT W T02050107,,,7000.0,,,51.19,,S,29.37,28.8,,Overcast
KIGQ,06/28/2017 15:35 UTC,30.01,68.9,51.26,53.41,12.66,190.0,,,,,,704.0,,,,10.0,,KIGQ 281535Z AUTO 19011KT 10SM OVC070 21/11 A3001 RMK AO2 LTG DSNT  W T02050107,,,7000.0,,,51.19,,S,29.36,28.79,,Overcast
KIGQ,06/28/2017 15:55 UTC,30.02,69.08,51.26,53.08,13.8,190.0,,,,,,704.0,,,,10.0,,KIGQ 281555Z AUTO 19012KT 10SM OVC070 21/11 A3002 RMK AO2 LTG DSNT  W T02060107,,,7000.0,,,51.19,,S,29.37,28.8,,Overcast
KIGQ,06/28/2017 16:15 UTC,30.01,69.26,51.98,54.17,12.66,190.0,,,,,,703.0,954.0,,,10.0,,KIGQ 281615Z AUTO 19011KT 10SM BKN070 OVC095 21/11 A3001 RMK AO2  LTG DSNT SW AND W T02070111,,,7000.0,,,51.91,,S,29.36,28.76,,Overcast
KIGQ,06/28/2017 16:35 UTC,30.02,69.26,52.7,55.63,8.05,200.0,,,,,,803.0,954.0,,,10.0,,KIGQ 281635Z AUTO 20007KT 10SM BKN080 OVC095 21/12 A3002 RMK AO2  LTG DSNT SW T02070115,,,8000.0,,,52.64,,SSW,29.37,28.74,,Overcast
KIGQ,06/28/2017 16:55 UTC,30.02,69.44,53.06,56.02,11.5,200.0,,,,,,803.0,1003.0,,,10.0,,KIGQ 281655Z AUTO 20010KT 10SM BKN080 BKN100 21/12 A3002 RMK AO2  T02080117,,,8000.0,,,53.0,,SSW,29.37,28.72,,Mostly Cloudy
KIGQ,06/28/2017 17:15 UTC,30.01,69.8,53.6,56.44,9.22,190.0,,,,,,803.0,1003.0,,,10.0,,KIGQ 281715Z AUTO 19008KT 10SM BKN080 BKN100 21/12 A3001 RMK AO2  LTG DSNT SW T02100120,,,8000.0,,,53.54,,S,29.36,28.68,,Mostly Cloudy
KIGQ,06/28/2017 17:35 UTC,30.0,67.28,56.84,69.22,8.05,170.0,,13.0,,,,452.0,804.0,,,10.0,,KIGQ 281735Z AUTO 17007KT 10SM -RA SCT045 OVC080 20/14 A3000 RMK AO2 T01960138,,,8000.0,,,56.79,,S,29.35,28.55,,Light Rain
KIGQ,06/28/2017 17:55 UTC,29.97,68.54,56.66,65.86,12.66,160.0,,,1104.0,,,552.0,903.0,,,10.0,,KIGQ 281755Z AUTO 16011KT 10SM SCT055 BKN090 OVC110 20/14 A2997 RMK AO2 LTG DSNT NW T02030137 10210 20168,69.8,62.24,9000.0,,,56.61,,SSE,29.32,28.51,,Overcast
KIGQ,06/28/2017 18:15 UTC,29.94,68.9,57.38,66.76,13.8,170.0,20.71,13.0,1104.0,,,322.0,603.0,,,10.0,,KIGQ 281815Z AUTO 17012G18KT 10SM -RA SCT032 BKN060 OVC110 21/14  A2994 RMK AO2 LTG DSNT W T02050141,,,6000.0,,,57.33,,S,29.29,28.44,,Light Rain
KIGQ,06/28/2017 18:35 UTC,29.94,71.06,57.56,62.43,17.27,170.0,21.85,,1002.0,,,332.0,462.0,,,10.0,,KIGQ 281835Z AUTO 17015G19KT 10SM SCT033 SCT046 SCT100 22/14 A2994 RMK AO2 LTG DSNT NW T02170142,,,,,,57.52,,S,29.29,28.41,,Partly Cloudy
KIGQ,06/28/2017 18:55 UTC,29.92,73.76,58.64,59.25,14.97,170.0,24.16,,,,,1202.0,,,,10.0,,KIGQ 281855Z AUTO 17013G21KT 10SM SCT120 23/15 A2992 RMK AO2  T02320148,,,,,,58.61,,S,29.27,28.31,,Partly Cloudy
KIGQ,06/28/2017 19:15 UTC,29.92,77.0,58.28,52.51,20.71,180.0,25.32,,,,,1202.0,,,,10.0,,KIGQ 281915Z AUTO 18018G22KT 10SM SCT120 25/15 A2992 RMK AO2  T02500146,,,,,,58.27,,S,29.27,28.29,,Partly Cloudy
KIGQ,06/28/2017 19:35 UTC,29.89,77.72,58.1,50.95,23.02,170.0,32.21,,,,,1202.0,,,,10.0,,KIGQ 281935Z AUTO 17020G28KT 10SM SCT120 25/15 A2989 RMK AO2  T02540145,,,,,,58.1,,S,29.24,28.26,,Partly Cloudy
KIGQ,06/28/2017 19:55 UTC,29.9,77.0,58.1,52.18,17.27,190.0,26.46,,,,,1.0,,,,10.0,,KIGQ 281955Z AUTO 19015G23KT 10SM CLR 25/15 A2990 RMK AO2  T02500145,,,,,,58.09,,S,29.25,28.28,,Clear
KIGQ,06/28/2017 20:15 UTC,29.89,79.7,58.1,47.75,18.41,180.0,26.46,,,,,602.0,702.0,,,10.0,,KIGQ 282015Z AUTO 18016G23KT 10SM SCT060 SCT070 27/15 A2989 RMK AO2 T02650145,,,,,,58.12,,S,29.24,28.25,,Partly Cloudy
KIGQ,06/28/2017 20:35 UTC,29.89,80.06,57.56,46.28,17.27,180.0,27.63,,,,,1.0,,,,10.0,,KIGQ 282035Z AUTO 18015G24KT 10SM CLR 27/14 A2989 RMK AO2 LTG DSNT  W AND NW T02670142,,,,,,57.58,,S,29.24,28.27,79.94,Clear
KIGQ,06/28/2017 20:55 UTC,29.87,81.5,57.02,43.31,21.85,190.0,27.63,,,,,1.0,,,,10.0,,KIGQ 282055Z AUTO 19019G24KT 10SM CLR 28/14 A2987 RMK AO2 LTG DSNT  W T02750139,,,,,,57.05,,S,29.22,28.27,81.41,Clear
KIGQ,06/28/2017 21:15 UTC,29.88,80.78,56.3,43.2,27.63,190.0,34.52,,,,,1.0,,,,10.0,,KIGQ 282115Z AUTO 19024G30KT 10SM CLR 27/14 A2988 RMK AO2 LTG DSNT  W AND NW T02710135,,,,,,56.33,,S,29.23,28.32,80.79,Clear
KIGQ,06/28/2017 21:35 UTC,29.87,80.78,56.66,43.77,24.16,190.0,35.68,,,,,1.0,,,,10.0,,KIGQ 282135Z AUTO 19021G31KT 10SM CLR 27/14 A2987 RMK AO2 LTG DSNT  W AND NW T02710137,,,,,,56.69,,S,29.22,28.29,80.85,Clear
KIGQ,06/28/2017 21:55 UTC,29.87,81.14,57.56,44.68,18.41,190.0,33.38,,,,,1.0,,,,10.0,,KIGQ 282155Z AUTO 19016G29KT 10SM CLR 27/14 A2987 RMK AO2 LTG DSNT  N AND W T02730142,,,,,,57.59,,S,29.22,28.24,81.25,Clear
KIGQ,06/28/2017 22:15 UTC,29.87,80.6,56.3,43.46,25.32,200.0,33.38,,,,,1.0,,,,10.0,,KIGQ 282215Z AUTO 20022G29KT 10SM CLR 27/14 A2987 RMK AO2 LTG DSNT  N T02700135,,,,,,56.33,,SSW,29.22,28.31,80.68,Clear
KIGQ,06/28/2017 22:35 UTC,29.88,79.7,56.3,44.75,23.02,200.0,28.77,,,,,1202.0,,,,10.0,,KIGQ 282235Z AUTO 20020G25KT 10SM SCT120 27/14 A2988 RMK AO2  T02650135,,,,,,56.32,,SSW,29.23,28.33,,Partly Cloudy
KIGQ,06/28/2017 22:55 UTC,29.87,79.16,57.38,47.36,19.57,200.0,25.32,,1002.0,,,602.0,752.0,,,10.0,,KIGQ 282255Z AUTO 20017G22KT 10SM SCT060 SCT075 SCT100 26/14 A2987 RMK AO2 T02620141,,,,,,57.39,,SSW,29.22,28.27,,Partly Cloudy
KIGQ,06/28/2017 23:15 UTC,29.83,78.98,57.38,47.64,20.71,190.0,28.77,,1202.0,,,602.0,902.0,,,10.0,,KIGQ 282315Z AUTO 19018G25KT 10SM SCT060 SCT090 SCT120 26/14 A2983 RMK AO2 LTG DSNT N T02610141,,,,,,57.39,,S,29.18,28.23,,Partly Cloudy
KIGQ,06/28/2017 23:35 UTC,29.8,79.52,57.56,47.11,21.85,190.0,31.07,13.0,1202.0,,,602.0,902.0,,,10.0,,KIGQ 282335Z AUTO 19019G27KT 10SM -RA SCT060 SCT090 SCT120 26/14  A2980 RMK AO2 T02640142,,,,,,57.58,,S,29.15,28.18,,Light Rain
KIGQ,06/28/2017 23:55 UTC,29.81,79.7,56.66,45.34,24.16,190.0,29.93,,,,,1.0,,,,10.0,,KIGQ 282355Z AUTO 19021G26KT 10SM CLR 27/14 A2981 RMK AO2  T02650137 10280 20204,82.4,68.72,,,,56.68,,S,29.16,28.24,,Clear
KIGQ,06/29/2017 00:15 UTC,29.82,78.98,56.66,46.42,17.27,190.0,24.16,,,,,1103.0,,,,10.0,,KIGQ 290015Z AUTO 19015G21KT 10SM BKN110 26/14 A2982 RMK AO2  T02610137,,,11000.0,,,56.67,,S,29.17,28.26,,Mostly Cloudy
KIGQ,06/29/2017 00:35 UTC,29.81,78.98,56.84,46.72,19.57,190.0,28.77,,,,,1104.0,,,,10.0,,KIGQ 290035Z AUTO 19017G25KT 10SM OVC110 26/14 A2981 RMK AO2  T02610138,,,11000.0,,,56.85,,S,29.16,28.24,,Overcast
KIGQ,06/29/2017 00:55 UTC,29.81,77.9,57.56,49.68,20.71,190.0,29.93,,,,,1002.0,,,,10.0,,KIGQ 290055Z AUTO 19018G26KT 10SM SCT100 26/14 A2981 RMK AO2 LTG  DSNT NW T02550142,,,,,,57.56,,S,29.16,28.21,,Partly Cloudy
KIGQ,06/29/2017 01:15 UTC,29.81,77.0,58.1,52.18,16.11,190.0,24.16,,,,,1.0,,,,10.0,,KIGQ 290115Z AUTO 19014G21KT 10SM CLR 25/15 A2981 RMK AO2  T02500145,,,,,,58.09,,S,29.16,28.19,,Clear
KIGQ,06/29/2017 01:35 UTC,29.8,76.46,58.64,54.15,19.57,190.0,27.63,,,,,1.0,,,,10.0,,KIGQ 290135Z AUTO 19017G24KT 10SM CLR 25/15 A2980 RMK AO2 LTG DSNT  NW T02470148,,,,,,58.63,,S,29.15,28.16,,Clear
KIGQ,06/29/2017 01:55 UTC,29.82,76.64,59.54,55.59,13.8,190.0,25.32,,,,,1003.0,,,,10.0,,KIGQ 290155Z AUTO 19012G22KT 10SM BKN100 25/15 A2982 RMK AO2  T02480153,,,10000.0,,,59.53,,S,29.17,28.13,,Mostly Cloudy
KIGQ,06/29/2017 02:15 UTC,29.8,76.1,59.9,57.32,17.27,190.0,24.16,,,,,1102.0,,,,10.0,,KIGQ 290215Z AUTO 19015G21KT 10SM SCT110 25/16 A2980 RMK AO2  T02450155,,,,,,59.89,,S,29.15,28.09,,Partly Cloudy
KIGQ,06/29/2017 02:35 UTC,29.83,75.56,60.08,58.73,17.27,200.0,23.02,,,,,1.0,,,,10.0,,KIGQ 290235Z AUTO 20015G20KT 10SM CLR 24/16 A2983 RMK AO2 LTG DSNT  W AND NW T02420156,,,,,,60.06,,SSW,29.18,28.12,,Clear
KIGQ,06/29/2017 02:55 UTC,29.85,75.74,60.26,58.76,14.97,200.0,23.02,,,,,1102.0,,,,10.0,,KIGQ 290255Z AUTO 20013G20KT 10SM SCT110 24/16 A2985 RMK AO2 LTG  DSNT NE T02430157,,,,,,60.25,,SSW,29.2,28.13,,Partly Cloudy
KIGQ,06/29/2017 03:15 UTC,29.86,76.1,60.44,58.43,18.41,200.0,,,1204.0,,,702.0,802.0,,,10.0,,KIGQ 290315Z AUTO 20016KT 10SM SCT070 SCT080 OVC120 25/16 A2986 RMK AO2 LTG DSNT N AND W T02450158,,,12000.0,,,60.43,,SSW,29.21,28.12,,Overcast
KIGQ,06/29/2017 03:35 UTC,29.84,73.22,61.88,67.69,12.66,190.0,,13.0,,,,702.0,1103.0,,,10.0,,KIGQ 290335Z AUTO 19011KT 10SM -RA SCT070 BKN110 23/17 A2984 RMK AO2 LTG DSNT NE AND NW T02290166,,,11000.0,,,61.86,,S,29.19,28.05,,Light Rain
KIGQ,06/29/2017 03:55 UTC,29.83,71.78,62.24,71.96,19.57,190.0,23.02,13.0,1103.0,,,282.0,702.0,,,10.0,,KIGQ 290355Z AUTO 19017G20KT 10SM -RA SCT028 SCT070 BKN110 22/17  A2983 RMK AO2 LTG DSNT NE AND NW T02210168,,,11000.0,,,62.21,,S,29.18,28.04,,Light Rain
KIGQ,06/29/2017 04:15 UTC,29.83,71.96,62.24,71.52,18.41,190.0,23.02,13.0,,,,1203.0,,,,10.0,,KIGQ 290415Z AUTO 19016G20KT 10SM -RA BKN120 22/17 A2983 RMK AO2  LTG DSNT N AND NW T02220168,,,12000.0,,,62.21,,S,29.18,28.03,,Light Rain
KIGQ,06/29/2017 04:35 UTC,29.83,72.86,61.7,68.08,16.11,190.0,21.85,13.0,,,,1203.0,,,,10.0,,KIGQ 290435Z AUTO 19014G19KT 10SM -RA BKN120 23/17 A2983 RMK AO2  LTG DSNT NW T02270165,,,12000.0,,,61.67,,S,29.18,28.05,,Light Rain
KIGQ,06/29/2017 04:55 UTC,29.82,72.68,61.7,68.49,18.41,190.0,23.02,13.0,,,,1202.0,,,,10.0,,KIGQ 290455Z AUTO 19016G20KT 10SM -RA SCT120 23/17 A2982 RMK AO2  T02260165,,,,,,61.67,,S,29.17,28.05,,Light Rain
KIGQ,06/29/2017 05:15 UTC,29.82,72.68,61.88,68.93,20.71,200.0,26.46,13.0,,,,1202.0,,,,10.0,,KIGQ 290515Z AUTO 20018G23KT 10SM -RA SCT120 23/17 A2982 RMK AO2  LTG DSNT N AND NE T02260166,,,,,,61.85,,SSW,29.17,28.04,,Light Rain
KIGQ,06/29/2017 05:35 UTC,29.82,73.76,61.7,66.05,17.27,200.0,25.32,,,,,1202.0,,,,10.0,,KIGQ 290535Z AUTO 20015G22KT 10SM SCT120 23/17 A2982 RMK AO2 LTG  DSNT N AND NE T02320165,,,,,,61.68,,SSW,29.17,28.03,,Partly Cloudy
KIGQ,06/29/2017 05:55 UTC,29.82,74.3,61.7,64.87,10.36,210.0,20.71,,,,,1202.0,,,,10.0,,KIGQ 290555Z AUTO 21009G18KT 10SM SCT120 24/17 A2982 RMK AO2 LTG  DSNT NE AND SW T02350165 10265 20221 402800126,79.7,71.78,,82.4,54.68,61.68,,SSW,29.17,28.03,,Partly Cloudy
KIGQ,06/29/2017 06:15 UTC,29.81,74.3,61.7,64.87,5.75,230.0,,,,,,1202.0,,,,10.0,,KIGQ 290615Z AUTO 23005KT 10SM SCT120 24/17 A2981 RMK AO2 LTG DSNT  NE T02350165,,,,,,61.68,,SW,29.16,28.02,,Partly Cloudy
KIGQ,06/29/2017 06:35 UTC,29.84,74.3,61.7,64.87,5.75,300.0,,,,,,1202.0,,,,10.0,,KIGQ 290635Z AUTO 30005KT 220V310 10SM SCT120 24/17 A2984 RMK AO2  T02350165,,,,,,61.68,,WNW,29.19,28.05,,Partly Cloudy
KIGQ,06/29/2017 06:55 UTC,29.82,74.12,61.88,65.68,9.22,210.0,,,,,,1202.0,,,,10.0,,KIGQ 290655Z AUTO 21008KT 10SM SCT120 23/17 A2982 RMK AO2  T02340166,,,,,,61.86,,SSW,29.17,28.02,,Partly Cloudy
KIGQ,06/29/2017 07:15 UTC,29.81,73.4,62.06,67.71,10.36,190.0,,,,,,1.0,,,,10.0,,KIGQ 290715Z AUTO 19009KT 10SM CLR 23/17 A2981 RMK AO2  T02300167,,,,,,62.04,,S,29.16,28.01,,Clear
KIGQ,06/29/2017 07:35 UTC,29.8,73.4,62.24,68.14,8.05,190.0,,,,,,1.0,,,,10.0,,KIGQ 290735Z AUTO 19007KT 10SM CLR 23/17 A2980 RMK AO2  T02300168,,,,,,62.22,,S,29.15,27.99,,Clear
KIGQ,06/29/2017 07:55 UTC,29.79,73.4,62.06,67.71,10.36,200.0,16.11,,,,,1.0,,,,10.0,,KIGQ 290755Z AUTO 20009G14KT 10SM CLR 23/17 A2979 RMK AO2  T02300167,,,,,,62.04,,SSW,29.14,27.99,,Clear
KIGQ,06/29/2017 08:15 UTC,29.78,73.94,62.06,66.5,10.36,200.0,,,,,,442.0,,,,10.0,,KIGQ 290815Z AUTO 20009KT 10SM SCT044 23/17 A2978 RMK AO2  T02330167,,,,,,62.04,,SSW,29.13,27.97,,Partly Cloudy
KIGQ,06/29/2017 08:35 UTC,29.76,73.94,62.06,66.5,11.5,200.0,,,,,,1.0,,,,10.0,,KIGQ 290835Z AUTO 20010KT 10SM CLR 23/17 A2976 RMK AO2  T02330167,,,,,,62.04,,SSW,29.11,27.95,,Clear
KIGQ,06/29/2017 08:55 UTC,29.77,73.94,62.24,66.92,10.36,220.0,,,,,,422.0,,,,10.0,,KIGQ 290855Z AUTO 22009KT 10SM SCT042 23/17 A2977 RMK AO2  T02330168,,,,,,62.22,,SW,29.12,27.95,,Partly Cloudy
KIGQ,06/29/2017 09:15 UTC,29.76,73.4,62.6,69.01,10.36,190.0,,,,,,422.0,,,,10.0,,KIGQ 290915Z AUTO 19009KT 10SM SCT042 23/17 A2976 RMK AO2  T02300170,,,,,,62.58,,S,29.11,27.92,,Partly Cloudy
KIGQ,06/29/2017 09:35 UTC,29.77,73.04,62.6,69.85,10.36,200.0,,,,,,1.0,,,,10.0,,KIGQ 290935Z AUTO 20009KT 10SM CLR 23/17 A2977 RMK AO2  T02280170,,,,,,62.58,,SSW,29.12,27.94,,Clear
KIGQ,06/29/2017 09:55 UTC,29.76,73.04,62.6,69.85,9.22,200.0,,,,,,1.0,,,,10.0,,KIGQ 290955Z AUTO 20008KT 10SM CLR 23/17 A2976 RMK AO2  T02280170,,,,,,62.58,,SSW,29.11,27.93,,Clear
KIGQ,06/29/2017 10:15 UTC,29.76,73.22,62.6,69.43,10.36,210.0,,,,,,1.0,,,,10.0,,KIGQ 291015Z AUTO 21009KT 10SM CLR 23/17 A2976 RMK AO2  T02290170,,,,,,62.58,,SSW,29.11,27.93,,Clear
KIGQ,06/29/2017 10:35 UTC,29.77,73.04,62.42,69.41,10.36,210.0,,,,,,1.0,,,,10.0,,KIGQ 291035Z AUTO 21009KT 10SM CLR 23/17 A2977 RMK AO2  T02280169,,,,,,62.4,,SSW,29.12,27.95,,Clear
KIGQ,06/29/2017 10:55 UTC,29.79,72.86,61.88,68.51,13.8,230.0,19.57,,,,,1.0,,,,10.0,,KIGQ 291055Z AUTO 23012G17KT 10SM CLR 23/17 A2979 RMK AO2  T02270166,,,,,,61.85,,SW,29.14,28.0,,Clear
KIGQ,06/29/2017 11:15 UTC,29.79,73.22,61.7,67.26,12.66,220.0,,,,,,1.0,,,,10.0,,KIGQ 291115Z AUTO 22011KT 10SM CLR 23/17 A2979 RMK AO2  T02290165,,,,,,61.67,,SW,29.14,28.01,,Clear
KIGQ,06/29/2017 11:35 UTC,29.8,73.4,61.7,66.86,10.36,230.0,,,,,,1.0,,,,10.0,,KIGQ 291135Z AUTO 23009KT 10SM CLR 23/17 A2980 RMK AO2  T02300165,,,,,,61.68,,SW,29.15,28.02,,Clear
KIGQ,06/29/2017 11:55 UTC,29.8,73.4,61.52,66.43,10.36,220.0,,,,,,1.0,,,,10.0,,KIGQ 291155Z AUTO 22009KT 10SM CLR 23/16 A2980 RMK AO2 T02300164  10236 20226,74.48,72.68,,,,61.49,,SW,29.15,28.03,,Clear
KIGQ,06/29/2017 12:15 UTC,29.81,73.4,61.16,65.59,11.5,210.0,16.11,,,,,1.0,,,,10.0,,KIGQ 291215Z AUTO 21010G14KT 10SM CLR 23/16 A2981 RMK AO2  T02300162,,,,,,61.13,,SSW,29.16,28.06,,Clear
KIGQ,06/29/2017 12:35 UTC,29.82,73.4,60.8,64.76,10.36,220.0,,,,,,22.0,,,,10.0,,KIGQ 291235Z AUTO 22009KT 10SM SCT002 23/16 A2982 RMK AO2  T02300160,,,,,,60.77,,SW,29.17,28.09,,Partly Cloudy
KIGQ,06/29/2017 12:55 UTC,29.81,74.66,60.98,62.49,12.66,220.0,,,,,,22.0,,,,10.0,,KIGQ 291255Z AUTO 22011KT 10SM SCT002 24/16 A2981 RMK AO2  T02370161,,,,,,60.96,,SW,29.16,28.06,,Partly Cloudy
KIGQ,06/29/2017 13:15 UTC,29.81,74.66,60.44,61.3,13.8,230.0,,,,,,1.0,,,,10.0,,KIGQ 291315Z AUTO 23012KT 10SM CLR 24/16 A2981 RMK AO2  T02370158,,,,,,60.42,,SW,29.16,28.09,,Clear
KIGQ,06/29/2017 13:35 UTC,29.81,75.02,59.9,59.42,12.66,220.0,19.57,,,,,1.0,,,,10.0,,KIGQ 291335Z AUTO 22011G17KT 10SM CLR 24/16 A2981 RMK AO2  T02390155,,,,,,59.88,,SW,29.16,28.11,,Clear
KIGQ,06/29/2017 13:55 UTC,29.81,75.02,60.08,59.8,13.8,220.0,,,,,,1.0,,,,10.0,,KIGQ 291355Z AUTO 22012KT 10SM CLR 24/16 A2981 RMK AO2  T02390156,,,,,,60.06,,SW,29.16,28.1,,Clear
KIGQ,06/29/2017 14:15 UTC,29.81,75.92,60.08,58.04,12.66,230.0,,,,,,1.0,,,,10.0,,KIGQ 291415Z AUTO 23011KT 10SM CLR 24/16 A2981 RMK AO2  T02440156,,,,,,60.07,,SW,29.16,28.09,,Clear
KIGQ,06/29/2017 14:35 UTC,29.81,76.1,60.08,57.69,14.97,210.0,19.57,,,,,1.0,,,,10.0,,KIGQ 291435Z AUTO 21013G17KT 10SM CLR 25/16 A2981 RMK AO2  T02450156,,,,,,60.07,,SSW,29.16,28.09,,Clear
KIGQ,06/29/2017 14:55 UTC,29.82,77.0,59.0,53.88,17.27,250.0,24.16,,,,,1.0,,,,10.0,,KIGQ 291455Z AUTO 25015G21KT 10SM CLR 25/15 A2982 RMK AO2  T02500150,,,,,,58.99,,WSW,29.17,28.15,,Clear
KIGQ,06/29/2017 15:15 UTC,29.82,78.08,59.54,53.01,21.85,230.0,,,,,,353.0,,,,10.0,,KIGQ 291515Z AUTO 23019KT 10SM BKN035 26/15 A2982 RMK AO2  T02560153,,,3500.0,,,59.54,,SW,29.17,28.11,,Mostly Cloudy
KIGQ,06/29/2017 15:35 UTC,29.83,78.08,59.9,53.69,18.41,230.0,25.32,,,,,353.0,,,,10.0,,KIGQ 291535Z AUTO 23016G22KT 10SM BKN035 26/16 A2983 RMK AO2  T02560155,,,3500.0,,,59.9,,SW,29.18,28.1,,Mostly Cloudy
KIGQ,06/29/2017 15:55 UTC,29.83,77.9,60.8,55.77,16.11,230.0,25.32,,,,,332.0,,,,10.0,,KIGQ 291555Z AUTO 23014G22KT 10SM SCT033 26/16 A2983 RMK AO2  T02550160,,,,,,60.8,,SW,29.18,28.05,,Partly Cloudy
KIGQ,06/29/2017 16:15 UTC,29.83,78.44,61.34,55.84,18.41,250.0,24.16,,,,,332.0,,,,10.0,,KIGQ 291615Z AUTO 25016G21KT 10SM SCT033 26/16 A2983 RMK AO2  T02580163,,,,,,61.34,,WSW,29.18,28.01,,Partly Cloudy
KIGQ,06/29/2017 16:35 UTC,29.84,79.7,61.88,54.61,16.11,230.0,,,,,,352.0,,,,10.0,,KIGQ 291635Z AUTO 23014KT 10SM SCT035 27/17 A2984 RMK AO2  T02650166,,,,,,61.89,,SW,29.19,27.98,,Partly Cloudy
KIGQ,06/29/2017 16:55 UTC,29.85,80.24,62.06,54.0,19.57,220.0,24.16,,,,,352.0,,,,10.0,,KIGQ 291655Z AUTO 22017G21KT 10SM SCT035 27/17 A2985 RMK AO2  T02680167,,,,,,62.08,,SW,29.2,27.97,81.43,Partly Cloudy
KIGQ,06/29/2017 17:15 UTC,29.86,79.88,61.7,53.95,23.02,230.0,28.77,,,,,352.0,,,,10.0,,KIGQ 291715Z AUTO 23020G25KT 10SM SCT035 27/17 A2986 RMK AO2  T02660165,,,,,,61.71,,SW,29.21,28.01,,Partly Cloudy
KIGQ,06/29/2017 17:35 UTC,29.86,80.78,61.7,52.39,17.27,230.0,26.46,,,,,352.0,,,,10.0,,KIGQ 291735Z AUTO 23015G23KT 10SM SCT035 27/17 A2986 RMK AO2  T02710165,,,,,,61.72,,SW,29.21,28.0,81.8,Partly Cloudy
KIGQ,06/29/2017 17:55 UTC,29.86,82.04,62.42,51.59,16.11,220.0,24.16,,,,,1.0,,,,10.0,,KIGQ 291755Z AUTO 22014G21KT 10SM CLR 28/17 A2986 RMK AO2  T02780169 10279 20227,82.22,72.86,,,,62.46,,SW,29.21,27.94,83.05,Clear
KIGQ,06/29/2017 18:15 UTC,29.85,81.86,62.78,52.55,12.66,220.0,17.27,,,,,1.0,,,,10.0,,KIGQ 291815Z AUTO 22011G15KT 10SM CLR 28/17 A2985 RMK AO2  T02770171,,,,,,62.81,,SW,29.2,27.91,83.0,Clear
KIGQ,06/29/2017 18:35 UTC,29.86,83.3,63.86,52.1,17.27,260.0,20.71,,,,,382.0,,,,10.0,,KIGQ 291835Z AUTO 26015G18KT 10SM SCT038 29/18 A2986 RMK AO2  T02850177,,,,,,63.91,,W,29.21,27.84,84.66,Partly Cloudy
KIGQ,06/29/2017 18:55 UTC,29.86,81.68,64.22,55.59,12.66,250.0,21.85,,,,,383.0,,,,10.0,,KIGQ 291855Z AUTO 25011G19KT 10SM BKN038 28/18 A2986 RMK AO2  T02760179,,,3800.0,,,64.25,,WSW,29.21,27.83,83.26,Mostly Cloudy
KIGQ,06/29/2017 19:15 UTC,29.86,81.86,64.4,55.61,10.36,240.0,16.11,,,,,403.0,603.0,,,10.0,,KIGQ 291915Z AUTO 24009G14KT 10SM BKN040 BKN060 28/18 A2986 RMK AO2 T02770180,,,4000.0,,,64.43,,WSW,29.21,27.82,83.48,Mostly Cloudy
KIGQ,06/29/2017 19:35 UTC,29.86,81.68,64.22,55.59,12.66,250.0,20.71,,653.0,,,403.0,473.0,,,10.0,,KIGQ 291935Z AUTO 25011G18KT 10SM BKN040 BKN047 BKN065 28/18 A2986 RMK AO2 T02760179,,,4000.0,,,64.25,,WSW,29.21,27.83,83.26,Mostly Cloudy
KIGQ,06/29/2017 19:55 UTC,29.86,81.5,63.68,54.87,17.27,230.0,23.02,,,,,403.0,504.0,,,10.0,,KIGQ 291955Z AUTO 23015G20KT 10SM BKN040 OVC050 28/18 A2986 RMK AO2 T02750176,,,4000.0,,,63.71,,SW,29.21,27.87,82.93,Overcast
KIGQ,06/29/2017 20:15 UTC,29.87,82.58,61.88,49.74,17.27,260.0,25.32,,704.0,,,402.0,483.0,,,10.0,,KIGQ 292015Z AUTO 26015G22KT 10SM SCT040 BKN048 OVC070 28/17 A2987 RMK AO2 T02810166,,,4800.0,,,61.92,,W,29.22,27.98,83.37,Overcast
KIGQ,06/29/2017 20:35 UTC,29.87,80.6,62.78,54.74,18.41,240.0,23.02,,704.0,,,422.0,483.0,,,10.0,,KIGQ 292035Z AUTO 24016G20KT 10SM SCT042 BKN048 OVC070 27/17 A2987 RMK AO2 T02700171,,,4800.0,,,62.8,,WSW,29.22,27.94,81.89,Overcast
KIGQ,06/29/2017 20:55 UTC,29.86,80.24,62.96,55.74,17.27,230.0,24.16,,1103.0,,,422.0,482.0,,,10.0,,KIGQ 292055Z AUTO 23015G21KT 10SM SCT042 SCT048 BKN110 27/17 A2986 RMK AO2 T02680172,,,11000.0,,,62.98,,SW,29.21,27.93,81.62,Mostly Cloudy
KIGQ,06/29/2017 21:15 UTC,29.87,76.64,63.68,64.34,10.36,220.0,18.41,,,,,1003.0,,,,10.0,,KIGQ 292115Z AUTO 22009G16KT 10SM BKN100 25/18 A2987 RMK AO2  T02480176,,,10000.0,,,63.67,,SW,29.22,27.93,,Mostly Cloudy
KIGQ,06/29/2017 21:35 UTC,29.86,77.0,63.32,62.78,8.05,220.0,,,,,,1003.0,,,,10.0,,KIGQ 292135Z AUTO 22007KT 10SM BKN100 25/17 A2986 RMK AO2  T02500174,,,10000.0,,,63.31,,SW,29.21,27.94,,Mostly Cloudy
KIGQ,06/29/2017 21:55 UTC,29.86,76.1,64.4,67.17,9.22,210.0,,,,,,1102.0,,,,10.0,,KIGQ 292155Z AUTO 21008KT 10SM SCT110 25/18 A2986 RMK AO2  T02450180,,,,,,64.39,,SSW,29.21,27.88,,Partly Cloudy
KIGQ,06/29/2017 22:15 UTC,29.86,75.56,65.3,70.56,10.36,220.0,,,,,,1203.0,,,,10.0,,KIGQ 292215Z AUTO 22009KT 10SM BKN120 24/19 A2986 RMK AO2  T02420185,,,12000.0,,,65.29,,SW,29.21,27.83,,Mostly Cloudy
KIGQ,06/29/2017 22:35 UTC,29.86,75.74,65.66,71.02,6.91,230.0,,,,,,1202.0,,,,10.0,,KIGQ 292235Z AUTO 23006KT 10SM SCT120 24/19 A2986 RMK AO2  T02430187,,,,,,65.65,,SW,29.21,27.81,,Partly Cloudy
KIGQ,06/29/2017 22:55 UTC,29.86,76.1,65.3,69.31,8.05,220.0,,,,,,1202.0,,,,10.0,,KIGQ 292255Z AUTO 22007KT 10SM SCT120 25/19 A2986 RMK AO2  T02450185,,,,,,65.29,,SW,29.21,27.82,,Partly Cloudy
KIGQ,06/29/2017 23:15 UTC,29.86,76.46,63.86,65.13,6.91,240.0,,,,,,1202.0,,,,10.0,,KIGQ 292315Z AUTO 24006KT 10SM SCT120 25/18 A2986 RMK AO2  T02470177,,,,,,63.85,,WSW,29.21,27.91,,Partly Cloudy
KIGQ,06/29/2017 23:35 UTC,29.84,77.0,63.14,62.39,4.61,260.0,,,,,,1203.0,,,,10.0,,KIGQ 292335Z AUTO 26004KT 10SM BKN120 25/17 A2984 RMK AO2  T02500173,,,12000.0,,,63.14,,W,29.19,27.93,,Mostly Cloudy
KIGQ,06/29/2017 23:55 UTC,29.84,77.0,62.96,61.99,3.44,260.0,,,,,,1204.0,,,,10.0,,KIGQ 292355Z AUTO 26003KT 10SM OVC120 25/17 A2984 RMK AO2 LTG DSNT  SW T02500172 10288 20241,83.84,75.38,12000.0,,,62.95,,W,29.19,27.94,,Overcast
KIGQ,06/30/2017 00:15 UTC,29.85,76.46,63.5,64.32,4.61,240.0,,,1103.0,,,702.0,1002.0,,,10.0,,KIGQ 300015Z AUTO 24004KT 10SM SCT070 SCT100 BKN110 25/18 A2985 RMK AO2 LTG DSNT W T02470175,,,11000.0,,,63.49,,WSW,29.2,27.93,,Mostly Cloudy
KIGQ,06/30/2017 00:35 UTC,29.87,71.96,65.12,79.11,9.22,270.0,,14.0,954.0,0.15,,262.0,413.0,,,2.5,,KIGQ 300035Z AUTO 27008KT 2 1/2SM +RA SCT026 BKN041 OVC095 22/18  A2987 RMK AO2 P0015 T02220184,,,4100.0,,,65.1,,W,29.22,27.9,,Heavy Rain
KIGQ,06/30/2017 00:55 UTC,29.85,70.88,65.84,84.13,0.0,0.0,,1.0,854.0,0.24,,162.0,753.0,,,10.0,,KIGQ 300055Z AUTO 00000KT 10SM RA SCT016 BKN075 OVC085 22/19 A2985 RMK AO2 LTG DSNT E P0024 T02160188,,,7500.0,,,65.82,,N,29.2,27.85,,Rain
KIGQ,06/30/2017 01:15 UTC,29.86,69.8,66.02,87.82,4.61,150.0,,,503.0,,,322.0,442.0,,,10.0,,KIGQ 300115Z AUTO 15004KT 10SM SCT032 SCT044 BKN050 21/19 A2986 RMK AO2 LTG DSNT E AND SE T02100189,,,5000.0,,,66.01,,SSE,29.21,27.86,,Mostly Cloudy
KIGQ,06/30/2017 01:35 UTC,29.86,69.62,65.66,87.27,10.36,150.0,,,,,,503.0,704.0,,,10.0,,KIGQ 300135Z AUTO 15009KT 10SM BKN050 OVC070 21/19 A2986 RMK AO2  LTG DSNT S T02090187,,,5000.0,,,65.65,,SSE,29.21,27.88,,Overcast
KIGQ,06/30/2017 01:55 UTC,29.84,69.44,65.12,86.17,6.91,100.0,,,853.0,,,502.0,753.0,,,10.0,,KIGQ 300155Z AUTO 10006KT 10SM SCT050 BKN075 BKN085 21/18 A2984 RMK AO2 LTG DSNT SE AND S T02080184,,,7500.0,,,65.1,,E,29.19,27.9,,Mostly Cloudy
KIGQ,06/30/2017 02:15 UTC,29.85,69.8,65.84,87.28,3.44,310.0,,5.0,854.0,,,653.0,753.0,,,10.0,,KIGQ 300215Z AUTO 31003KT 10SM TS BKN065 BKN075 OVC085 21/19 A2985 RMK AO2 LTG DSNT S T02100188,,,6500.0,,,65.83,,NW,29.2,27.86,,Thunder
KIGQ,06/30/2017 02:35 UTC,29.86,68.9,66.2,91.13,0.0,0.0,,,804.0,0.09,,242.0,443.0,,,4.0,,KIGQ 300235Z AUTO 00000KT 4SM +VCTSRA SCT024 BKN044 OVC080 21/19  A2986 RMK AO2 LTG DSNT SE AND S P0009 T02050190,,,4400.0,,,66.19,,N,29.21,27.86,,Overcast
KIGQ,06/30/2017 02:55 UTC,29.86,68.36,66.2,92.83,6.91,150.0,,14.0,754.0,0.16,0.4,242.0,703.0,,,5.0,,KIGQ 300255Z AUTO 15006KT 5SM +RA SCT024 BKN070 OVC075 20/19 A2986 RMK AO2 LTG DSNT E P0016 60040 T02020190,,,7000.0,,,66.19,,SSE,29.21,27.87,,Heavy Rain
KIGQ,06/30/2017 03:15 UTC,29.86,68.36,66.38,93.41,5.75,170.0,,13.0,754.0,0.06,,372.0,653.0,,,7.0,,KIGQ 300315Z AUTO 17005KT 7SM -RA SCT037 BKN065 OVC075 20/19 A2986 RMK AO2 LTG DSNT E AND SE P0006 T02020191,,,6500.0,,,66.37,,S,29.21,27.86,,Light Rain
KIGQ,06/30/2017 03:35 UTC,29.86,68.0,65.66,92.24,6.91,130.0,,13.0,,0.06,,502.0,854.0,,,10.0,,KIGQ 300335Z AUTO 13006KT 10SM -RA SCT050 OVC085 20/19 A2986 RMK AO2 LTG DSNT E AND SE P0006 T02000187,,,8500.0,,,65.65,,SE,29.21,27.91,,Light Rain
KIGQ,06/30/2017 03:55 UTC,29.86,67.46,65.3,92.8,5.75,160.0,,,854.0,0.06,,432.0,503.0,,,10.0,,KIGQ 300355Z AUTO 16005KT 10SM SCT043 BKN050 OVC085 20/19 A2986 RMK AO2 P0006 T01970185,,,5000.0,,,65.29,,SSE,29.21,27.94,,Overcast
KIGQ,06/30/2017 04:15 UTC,29.86,67.46,64.76,91.08,3.44,150.0,,,,,,473.0,604.0,,,10.0,,KIGQ 300415Z AUTO 15003KT 10SM BKN047 OVC060 20/18 A2986 RMK AO2  LTG DSNT SE T01970182,,,4700.0,,,64.75,,SSE,29.21,27.97,,Overcast
KIGQ,06/30/2017 04:35 UTC,29.86,67.1,64.4,91.06,0.0,0.0,,,954.0,,,423.0,503.0,,,10.0,,KIGQ 300435Z AUTO 00000KT 10SM BKN042 BKN050 OVC095 20/18 A2986 RMK AO2 T01950180,,,4200.0,,,64.39,,N,29.21,28.0,,Overcast
KIGQ,06/30/2017 04:55 UTC,29.87,67.1,64.58,91.64,4.61,230.0,,,554.0,,,422.0,472.0,,,10.0,,KIGQ 300455Z AUTO 23004KT 10SM SCT042 SCT047 OVC055 20/18 A2987 RMK AO2 T01950181,,,5500.0,,,64.57,,SW,29.22,28.0,,Overcast
KIGQ,06/30/2017 05:15 UTC,29.88,66.92,64.58,92.21,3.44,260.0,,,,,,552.0,,,,10.0,,KIGQ 300515Z AUTO 26003KT 10SM SCT055 19/18 A2988 RMK AO2 LTG DSNT  E T01940181,,,,,,64.57,,W,29.23,28.01,,Partly Cloudy
KIGQ,06/30/2017 05:35 UTC,29.88,66.38,64.22,92.77,3.44,240.0,,,,,,1.0,,,,10.0,,KIGQ 300535Z AUTO 24003KT 10SM CLR 19/18 A2988 RMK AO2  T01910179,,,,,,64.21,,WSW,29.23,28.04,,Clear
KIGQ,06/30/2017 05:55 UTC,29.88,65.84,64.04,93.93,4.61,260.0,,,,,,1.0,,0.47,,7.0,,KIGQ 300555Z AUTO 26004KT 7SM CLR 19/18 A2988 RMK AO2 LTG DSNT S  60047 T01880178 10250 20188 402880188,77.0,65.84,,83.84,65.84,64.03,,W,29.23,28.05,,Clear
KIGQ,06/30/2017 06:15 UTC,29.88,66.02,64.76,95.72,4.61,270.0,,31.0,,,,1.0,,,,5.0,,KIGQ 300615Z AUTO 27004KT 5SM BR CLR 19/18 A2988 RMK AO2  T01890182,,,,,,64.75,,W,29.23,28.01,,Mist
KIGQ,06/30/2017 06:35 UTC,29.88,66.2,65.3,96.93,4.61,280.0,,31.0,,,,1.0,,,,5.0,,KIGQ 300635Z AUTO 28004KT 5SM BR CLR 19/19 A2988 RMK AO2  T01900185,,,,,,65.3,,W,29.23,27.97,,Mist
KIGQ,06/30/2017 06:55 UTC,29.88,65.84,65.3,98.14,3.44,260.0,,31.0,,,,1.0,,,,4.0,,KIGQ 300655Z AUTO 26003KT 4SM BR CLR 19/19 A2988 RMK AO2  T01880185,,,,,,65.3,,W,29.23,27.98,,Mist
KIGQ,06/30/2017 07:15 UTC,29.88,64.76,64.04,97.52,0.0,0.0,,31.0,,,,55.0,,,,0.75,,KIGQ 300715Z AUTO 00000KT 3/4SM BR VV005 18/18 A2988 RMK AO2  T01820178,,,500.0,,,64.04,,N,29.23,28.07,,Mist
KIGQ,06/30/2017 07:35 UTC,29.86,64.94,64.4,98.14,0.0,0.0,,31.0,,,,32.0,,,,1.25,,KIGQ 300735Z AUTO 00000KT 1 1/4SM BR SCT003 18/18 A2986 RMK AO2  T01830180,,,,,,64.4,,N,29.21,28.03,,Mist
KIGQ,06/30/2017 07:55 UTC,29.85,63.68,63.14,98.13,3.44,160.0,,9.0,,,,34.0,,,,0.25,,KIGQ 300755Z AUTO 16003KT 1/4SM FG OVC003 18/17 A2985 RMK AO2 LTG  DSNT S T01760173,,,300.0,,,63.14,,SSE,29.2,28.11,,Fog
KIGQ,06/30/2017 08:15 UTC,29.85,64.04,63.68,98.75,0.0,0.0,,31.0,,,,33.0,,,,1.25,,KIGQ 300815Z AUTO 00000KT 1 1/4SM BR BKN003 18/18 A2985 RMK AO2  T01780176,,,300.0,,,63.68,,N,29.2,28.07,,Mist
KIGQ,06/30/2017 08:35 UTC,29.84,64.76,64.4,98.75,0.0,0.0,,9.0,,,,34.0,,,,0.25,,KIGQ 300835Z AUTO 00000KT 1/4SM FG OVC003 18/18 A2984 RMK AO2  T01820180,,,300.0,,,64.4,,N,29.19,28.01,,Fog
KIGQ,06/30/2017 08:55 UTC,29.85,65.48,65.3,99.38,3.44,210.0,,9.0,,,,34.0,,,,0.25,,KIGQ 300855Z AUTO 21003KT 1/4SM FG OVC003 19/19 A2985 RMK AO2  T01860185,,,300.0,,,65.3,,SSW,29.2,27.95,,Fog
KIGQ,06/30/2017 09:15 UTC,29.83,65.66,65.3,98.76,4.61,160.0,,9.0,,,,34.0,,,,0.5,,KIGQ 300915Z AUTO 16004KT 1/2SM FG OVC003 19/19 A2983 RMK AO2  T01870185,,,300.0,,,65.3,,SSE,29.18,27.93,,Fog
KIGQ,06/30/2017 09:35 UTC,29.85,65.48,65.3,99.38,5.75,200.0,,31.0,,,,34.0,,,,2.0,,KIGQ 300935Z AUTO 20005KT 2SM BR OVC003 19/19 A2985 RMK AO2  T01860185,,,300.0,,,65.3,,SSW,29.2,27.95,,Mist
KIGQ,06/30/2017 09:55 UTC,29.87,65.3,65.12,99.38,5.75,230.0,,31.0,,,,34.0,,,,4.0,,KIGQ 300955Z AUTO 23005KT 4SM BR OVC003 19/18 A2987 RMK AO2  T01850184,,,300.0,,,65.12,,SW,29.22,27.99,,Mist
KIGQ,06/30/2017 10:15 UTC,29.88,65.48,65.3,99.38,3.44,230.0,,31.0,,,,34.0,,,,5.0,,KIGQ 301015Z AUTO 23003KT 5SM BR OVC003 19/19 A2988 RMK AO2  T01860185,,,300.0,,,65.3,,SW,29.23,27.98,,Mist
KIGQ,06/30/2017 10:35 UTC,29.88,64.94,64.58,98.75,3.44,220.0,,31.0,,,,33.0,,,,3.0,,KIGQ 301035Z AUTO 22003KT 3SM BR BKN003 18/18 A2988 RMK AO2  T01830181,,,300.0,,,64.58,,SW,29.23,28.04,,Mist
KIGQ,06/30/2017 10:55 UTC,29.87,64.76,64.4,98.75,0.0,0.0,,31.0,,,,1.0,,,,2.5,,KIGQ 301055Z AUTO 00000KT 2 1/2SM BR CLR 18/18 A2987 RMK AO2  T01820180,,,,,,64.4,,N,29.22,28.04,,Mist
KIGQ,06/30/2017 11:15 UTC,29.86,64.94,64.58,98.75,3.44,160.0,,31.0,,,,1.0,,,,2.5,,KIGQ 301115Z AUTO 16003KT 2 1/2SM BR CLR 18/18 A2986 RMK AO2  T01830181,,,,,,64.58,,SSE,29.21,28.01,,Mist
KIGQ,06/30/2017 11:35 UTC,29.87,66.2,65.84,98.76,3.44,190.0,,31.0,,,,1.0,,,,4.0,,KIGQ 301135Z AUTO 19003KT 4SM BR CLR 19/19 A2987 RMK AO2  T01900188,,,,,,65.84,,S,29.22,27.93,,Mist
KIGQ,06/30/2017 11:55 UTC,29.86,66.56,66.2,98.76,3.44,200.0,,31.0,,,,1.0,,,0.47,5.0,,KIGQ 301155Z AUTO 20003KT 5SM BR CLR 19/19 A2986 RMK AO2 70047  T01920190 10192 20175,66.56,63.5,,,,66.2,,SSW,29.21,27.89,,Mist
KIGQ,06/30/2017 12:15 UTC,29.86,68.0,67.28,97.55,4.61,190.0,,,,,,1.0,,,,7.0,,KIGQ 301215Z AUTO 19004KT 7SM CLR 20/20 A2986 RMK AO2  T02000196,,,,,,67.28,,S,29.21,27.8,,Clear
KIGQ,06/30/2017 12:35 UTC,29.86,69.8,68.18,94.61,5.75,200.0,,,,,,1.0,,,,10.0,,KIGQ 301235Z AUTO 20005KT 10SM CLR 21/20 A2986 RMK AO2  T02100201,,,,,,68.17,,SSW,29.21,27.72,,Clear
KIGQ,06/30/2017 12:55 UTC,29.86,70.7,66.38,86.24,5.75,200.0,,,,,,1.0,,,,10.0,,KIGQ 301255Z AUTO 20005KT 10SM CLR 22/19 A2986 RMK AO2  T02150191,,,,,,66.37,,SSW,29.21,27.82,,Clear
KIGQ,06/30/2017 13:15 UTC,29.86,72.68,67.28,83.2,5.75,210.0,,,,,,1.0,,,,10.0,,KIGQ 301315Z AUTO 21005KT 10SM CLR 23/20 A2986 RMK AO2  T02260196,,,,,,67.27,,SSW,29.21,27.74,,Clear
KIGQ,06/30/2017 13:35 UTC,29.86,74.12,67.46,79.77,4.61,210.0,,,,,,1.0,,,,10.0,,KIGQ 301335Z AUTO 21004KT 10SM CLR 23/20 A2986 RMK AO2  T02340197,,,,,,67.45,,SSW,29.21,27.71,,Clear
KIGQ,06/30/2017 13:55 UTC,29.87,74.48,66.74,76.89,9.22,230.0,,,,,,1.0,,,,10.0,,KIGQ 301355Z AUTO 23008KT 10SM CLR 24/19 A2987 RMK AO2  T02360193,,,,,,66.73,,SW,29.22,27.76,,Clear
KIGQ,06/30/2017 14:15 UTC,29.87,74.84,66.92,76.44,5.75,200.0,,,,,,1.0,,,,10.0,,KIGQ 301415Z AUTO 20005KT 10SM CLR 24/19 A2987 RMK AO2  T02380194,,,,,,66.91,,SSW,29.22,27.74,,Clear
KIGQ,06/30/2017 14:35 UTC,29.86,76.28,67.46,74.24,9.22,200.0,,,,,,1.0,,,,10.0,,KIGQ 301435Z AUTO 20008KT 10SM CLR 25/20 A2986 RMK AO2  T02460197,,,,,,67.46,,SSW,29.21,27.68,,Clear
KIGQ,06/30/2017 14:55 UTC,29.86,78.08,69.26,74.41,11.5,210.0,,,,,,1.0,,,,10.0,,KIGQ 301455Z AUTO 21010KT 10SM CLR 26/21 A2986 RMK AO2  T02560207,,,,,,69.26,,SSW,29.21,27.52,,Clear
KIGQ,06/30/2017 15:15 UTC,29.86,77.9,69.08,74.39,11.5,200.0,16.11,,703.0,,,192.0,602.0,,,10.0,,KIGQ 301515Z AUTO 20010G14KT 10SM SCT019 SCT060 BKN070 26/21 A2986 RMK AO2 T02550206,,,7000.0,,,69.08,,SSW,29.21,27.54,,Mostly Cloudy
KIGQ,06/30/2017 15:35 UTC,29.86,79.34,69.08,70.95,10.36,240.0,,,702.0,,,192.0,602.0,,,10.0,,KIGQ 301535Z AUTO 24009KT 10SM SCT019 SCT060 SCT070 26/21 A2986 RMK AO2 T02630206,,,,,,69.09,,WSW,29.21,27.52,,Partly Cloudy
KIGQ,06/30/2017 15:55 UTC,29.86,80.6,69.62,69.36,8.05,230.0,,,702.0,,,212.0,262.0,,,10.0,,KIGQ 301555Z AUTO 23007KT 10SM SCT021 SCT026 SCT070 27/21 A2986 RMK AO2 T02700209,,,,,,69.63,,SW,29.21,27.46,83.84,Partly Cloudy
KIGQ,06/30/2017 16:15 UTC,29.85,80.6,68.72,67.26,9.22,220.0,,,703.0,,,232.0,282.0,,,10.0,,KIGQ 301615Z AUTO 22008KT 200V260 10SM SCT023 SCT028 BKN070 27/20  A2985 RMK AO2 T02700204,,,7000.0,,,68.73,,SW,29.2,27.52,83.54,Mostly Cloudy
KIGQ,06/30/2017 16:35 UTC,29.84,81.5,68.54,64.92,4.61,220.0,,,,,,272.0,,,,10.0,,KIGQ 301635Z AUTO 22004KT 10SM SCT027 28/20 A2984 RMK AO2  T02750203,,,,,,68.56,,SW,29.19,27.51,84.57,Partly Cloudy
KIGQ,06/30/2017 16:55 UTC,29.84,82.22,67.64,61.5,5.75,240.0,,,,,,272.0,363.0,,,10.0,,KIGQ 301655Z AUTO 24005KT 10SM SCT027 BKN036 28/20 A2984 RMK AO2  T02790198,,,3600.0,,,67.67,,WSW,29.19,27.57,85.04,Mostly Cloudy
KIGQ,06/30/2017 17:15 UTC,29.83,81.32,67.82,63.71,6.91,170.0,,,,,,323.0,384.0,,,10.0,,KIGQ 301715Z AUTO 17006KT 10SM BKN032 OVC038 27/20 A2983 RMK AO2  T02740199,,,3200.0,,,67.84,,S,29.18,27.56,84.09,Overcast
KIGQ,06/30/2017 17:35 UTC,29.82,82.22,67.64,61.5,3.44,220.0,,,504.0,,,323.0,433.0,,,10.0,,KIGQ 301735Z AUTO 22003KT 10SM BKN032 BKN043 OVC050 28/20 A2982 RMK AO2 T02790198,,,3200.0,,,67.67,,SW,29.17,27.55,85.04,Overcast
KIGQ,06/30/2017 17:55 UTC,29.82,81.5,67.28,62.17,3.44,290.0,,,503.0,,,322.0,413.0,,,10.0,,KIGQ 301755Z AUTO 29003KT 10SM SCT032 BKN041 BKN050 28/20 A2982 RMK AO2 LTG DSNT S T02750196 10280 20193,82.4,66.74,4100.0,,,67.3,,WNW,29.17,27.58,84.09,Mostly Cloudy
KIGQ,06/30/2017 18:15 UTC,29.82,77.72,66.56,68.62,8.05,30.0,,,493.0,,,343.0,403.0,,,10.0,,KIGQ 301815Z AUTO 03007KT 10SM BKN034 BKN040 BKN049 25/19 A2982 RMK AO2 LTG DSNT SE AND S T02540192,,,3400.0,,,66.56,,NNE,29.17,27.68,,Mostly Cloudy
KIGQ,06/30/2017 18:35 UTC,29.82,76.46,66.74,71.99,8.05,50.0,,,,,,343.0,414.0,,,10.0,,KIGQ 301835Z AUTO 05007KT 10SM BKN034 OVC041 25/19 A2982 RMK AO2  LTG DSNT SE AND S T02470193,,,3400.0,,,66.74,,NE,29.17,27.68,,Overcast
KIGQ,06/30/2017 18:55 UTC,29.82,76.46,66.38,71.1,8.05,70.0,,,504.0,,,363.0,423.0,,,10.0,,KIGQ 301855Z AUTO 07007KT 10SM BKN036 BKN042 OVC050 25/19 A2982 RMK AO2 LTG DSNT SE T02470191,,,3600.0,,,66.38,,ENE,29.17,27.71,,Overcast
KIGQ,06/30/2017 19:15 UTC,29.81,77.54,66.92,69.89,8.05,50.0,,5.0,603.0,,,363.0,463.0,,,10.0,,KIGQ 301915Z AUTO 05007KT 10SM VCTS BKN036 BKN046 BKN060 25/19  A2981 RMK AO2 LTG DSNT SE S AND NW T02530194,,,3600.0,,,66.92,,NE,29.16,27.65,,Thunder
KIGQ,06/30/2017 19:35 UTC,29.83,72.32,63.68,74.32,9.22,360.0,,13.0,804.0,,,172.0,453.0,,,10.0,,KIGQ 301935Z AUTO 36008KT 10SM -RA SCT017 BKN045 OVC080 22/18  A2983 RMK AO2 LTG DSNT NW THRU E T02240176,,,4500.0,,,63.66,,N,29.18,27.94,,Light Rain
KIGQ,06/30/2017 19:55 UTC,29.81,72.32,66.74,82.67,3.44,10.0,,,332.0,0.18,,172.0,252.0,,,10.0,,KIGQ 301955Z AUTO 01003KT 10SM SCT017 SCT025 SCT033 22/19 A2981 RMK AO2 LTG DSNT N THRU E P0018 T02240193,,,,,,66.73,,N,29.16,27.73,,Partly Cloudy
KIGQ,06/30/2017 20:15 UTC,29.81,73.76,67.1,79.74,5.75,100.0,,,,,,1.0,,,,10.0,,KIGQ 302015Z AUTO 10005KT 10SM CLR 23/20 A2981 RMK AO2 LTG DSNT E  T02320195,,,,,,67.09,,E,29.16,27.68,,Clear
KIGQ,06/30/2017 20:35 UTC,29.81,75.02,67.64,77.89,3.44,230.0,,,,,,1.0,,,,10.0,,KIGQ 302035Z AUTO 23003KT 10SM CLR 24/20 A2981 RMK AO2  T02390198,,,,,,67.63,,SW,29.16,27.63,,Clear
KIGQ,06/30/2017 20:55 UTC,29.81,76.1,66.38,71.95,3.44,110.0,,,,,0.18,492.0,,,,10.0,,KIGQ 302055Z AUTO 11003KT 10SM SCT049 25/19 A2981 RMK AO2 60018  T02450191,,,,,,66.37,,ESE,29.16,27.7,,Partly Cloudy
KIGQ,06/30/2017 21:15 UTC,29.81,76.46,66.2,70.65,0.0,0.0,,,,,,492.0,802.0,,,10.0,,KIGQ 302115Z AUTO 00000KT 10SM SCT049 SCT080 25/19 A2981 RMK AO2  T02470190,,,,,,66.19,,N,29.16,27.71,,Partly Cloudy
KIGQ,06/30/2017 21:35 UTC,29.8,77.18,67.1,71.17,0.0,0.0,,,,,,802.0,,,,10.0,,KIGQ 302135Z AUTO 00000KT 10SM SCT080 25/20 A2980 RMK AO2  T02510195,,,,,,67.1,,N,29.15,27.63,,Partly Cloudy
KIGQ,06/30/2017 21:55 UTC,29.81,77.18,67.28,71.61,4.61,90.0,,,,,,1.0,,,,10.0,,KIGQ 302155Z AUTO 09004KT 10SM CLR 25/20 A2981 RMK AO2 LTG DSNT S  T02510196,,,,,,67.28,,E,29.16,27.63,,Clear
KIGQ,06/30/2017 22:15 UTC,29.81,76.46,65.3,68.48,9.22,110.0,,,,,,442.0,602.0,,,10.0,,KIGQ 302215Z AUTO 11008KT 10SM SCT044 SCT060 25/19 A2981 RMK AO2  T02470185,,,,,,65.29,,ESE,29.16,27.77,,Partly Cloudy
KIGQ,06/30/2017 22:35 UTC,29.8,75.92,67.46,75.13,4.61,130.0,,14.0,903.0,,,482.0,602.0,,,7.0,,KIGQ 302235Z AUTO 13004KT 7SM +RA SCT048 SCT060 BKN090 24/20 A2980 RMK AO2 T02440197,,,9000.0,,,67.45,,SE,29.15,27.62,,Heavy Rain
KIGQ,06/30/2017 22:55 UTC,29.8,73.94,68.54,83.29,4.61,110.0,,13.0,854.0,0.05,,312.0,553.0,,,7.0,,KIGQ 302255Z AUTO 11004KT 7SM -RA SCT031 BKN055 OVC085 23/20 A2980 RMK AO2 P0005 T02330203,,,5500.0,,,68.53,,ESE,29.15,27.57,,Light Rain
KIGQ,06/30/2017 23:15 UTC,29.8,74.3,68.9,83.31,3.44,130.0,,,753.0,,,372.0,482.0,,,10.0,,KIGQ 302315Z AUTO 13003KT 10SM SCT037 SCT048 BKN075 24/21 A2980 RMK AO2 T02350205,,,7500.0,,,68.89,,SE,29.15,27.54,,Mostly Cloudy
KIGQ,06/30/2017 23:35 UTC,29.81,74.48,68.9,82.81,0.0,0.0,,17.0,753.0,,,372.0,503.0,,,10.0,,KIGQ 302335Z AUTO 00000KT 10SM -DZ SCT037 BKN050 BKN075 24/21  A2981 RMK AO2 T02360205,,,5000.0,,,68.89,,N,29.16,27.55,,Light Drizzle
KIGQ,06/30/2017 23:55 UTC,29.81,74.66,68.9,82.31,5.75,170.0,,6.0,804.0,,,392.0,483.0,0.23,,1.75,,KIGQ 302355Z AUTO 17005KT 1 3/4SM HZ SCT039 BKN048 OVC080 24/21  A2981 RMK AO2 60023 T02370205 10275 20212,81.5,70.16,4800.0,,,68.89,,S,29.16,27.55,,Haze
