# STATION: KIGQ
# STATION NAME: Lansing Municipal Airport
# LATITUDE: 41.54125
# LONGITUDE: -87.52822
# ELEVATION [ft]: 607
# STATE: IL
Station_ID,Date_Time,altimeter_set_1,air_temp_set_1,dew_point_temperature_set_1,relative_humidity_set_1,wind_speed_set_1,wind_direction_set_1,wind_gust_set_1,weather_cond_code_set_1,cloud_layer_3_code_set_1,precip_accum_one_hour_set_1,precip_accum_three_hour_set_1,cloud_layer_1_code_set_1,cloud_layer_2_code_set_1,precip_accum_six_hour_set_1,precip_accum_24_hour_set_1,visibility_set_1,metar_remark_set_1,metar_set_1,air_temp_high_6_hour_set_1,air_temp_low_6_hour_set_1,ceiling_set_1,air_temp_high_24_hour_set_1,air_temp_low_24_hour_set_1,dew_point_temperature_set_1d,wind_chill_set_1d,wind_cardinal_direction_set_1d,pressure_set_1d,sea_level_pressure_set_1d,heat_index_set_1d,weather_condition_set_1d
,,INHG,Fahrenheit,Fahrenheit,%,Miles/hour,Degrees,Miles/hour,code,code,Inches,Inches,code,code,Inches,Inches,Statute miles,text,text,Fahrenheit,Fahrenheit,Feet,Fahrenheit,Fahrenheit,Fahrenheit,Fahrenheit,Code,INHG,INHG,Fahrenheit,Code
KIGQ,10/01/2016 00:15 UTC,30.06,60.44,60.44,100.0,8.05,40.0,,1.0,,0.01,,93.0,134.0,,,7.0,,KIGQ 010015Z AUTO 04007KT 7SM RA BKN009 OVC013 16/16 A3006 RMK AO2  P0001 T01580158,,,900.0,,,60.44,,NE,29.41,28.51,,Rain
KIGQ,10/01/2016 00:35 UTC,30.06,60.26,60.26,100.0,9.22,50.0,,1.0,,0.01,,93.0,164.0,,,10.0,,KIGQ 010035Z AUTO 05008KT 10SM RA BKN009 OVC016 16/16 A3006 RMK AO2 P0001 T01570157,,,900.0,,,60.26,,NE,29.41,28.52,,Rain
KIGQ,10/01/2016 00:55 UTC,30.05,60.26,60.26,100.0,8.05,40.0,,1.0,,0.01,,134.0,,,,10.0,,KIGQ 010055Z AUTO 04007KT 10SM RA OVC013 16/16 A3005 RMK AO2 P0001  T01570157,,,1300.0,,,60.26,,NE,29.4,28.51,,Rain
KIGQ,10/01/2016 01:15 UTC,30.06,60.26,60.26,100.0,9.22,40.0,,13.0,,,,134.0,,,,10.0,,KIGQ 010115Z AUTO 04008KT 10SM -RA OVC013 16/16 A3006 RMK AO2  T01570157,,,1300.0,,,60.26,,NE,29.41,28.52,,Light Rain
KIGQ,10/01/2016 01:35 UTC,30.05,60.26,60.08,100.0,9.22,40.0,,13.0,264.0,,,153.0,193.0,,,10.0,,KIGQ 010135Z AUTO 04008KT 10SM -RA BKN015 BKN019 OVC026 16/16  A3005 RMK AO2 T01570156,,,1500.0,,,60.26,,NE,29.4,28.51,,Light Rain
KIGQ,10/01/2016 01:55 UTC,30.05,60.26,60.08,100.0,6.91,50.0,,13.0,,,,154.0,,,,10.0,,KIGQ 010155Z AUTO 05006KT 10SM -RA OVC015 16/16 A3005 RMK AO2  T01570156,,,1500.0,,,60.26,,NE,29.4,28.51,,Light Rain
KIGQ,10/01/2016 02:15 UTC,30.04,60.26,60.08,100.0,5.75,40.0,,1.0,,,,134.0,,,,10.0,,KIGQ 010215Z AUTO 04005KT 10SM RA OVC013 16/16 A3004 RMK AO2  T01570156,,,1300.0,,,60.26,,NE,29.39,28.5,,Rain
KIGQ,10/01/2016 02:35 UTC,30.04,60.44,60.08,100.0,6.91,50.0,,,,,,133.0,484.0,,,10.0,,KIGQ 010235Z AUTO 05006KT 10SM BKN013 OVC048 16/16 A3004 RMK AO2  T01580156,,,1300.0,,,60.44,,NE,29.39,28.49,,Overcast
KIGQ,10/01/2016 02:55 UTC,30.04,60.8,59.9,100.0,8.05,60.0,,,,,0.01,133.0,484.0,,,10.0,,KIGQ 010255Z AUTO 06007KT 10SM BKN013 OVC048 16/16 A3004 RMK AO2  60001 T01600155,,,1300.0,,,60.8,,ENE,29.39,28.46,,Overcast
KIGQ,10/01/2016 03:15 UTC,30.04,60.44,59.9,100.0,5.75,40.0,,,,,,133.0,184.0,,,10.0,,KIGQ 010315Z AUTO 04005KT 10SM BKN013 OVC018 16/16 A3004 RMK AO2  T01580155,,,1300.0,,,60.44,,NE,29.39,28.49,,Overcast
KIGQ,10/01/2016 03:35 UTC,30.04,60.26,59.9,100.0,5.75,50.0,,,,,,134.0,,,,10.0,,KIGQ 010335Z AUTO 05005KT 10SM OVC013 16/16 A3004 RMK AO2  T01570155,,,1300.0,,,60.26,,NE,29.39,28.5,,Overcast
KIGQ,10/01/2016 03:55 UTC,30.04,60.44,60.08,100.0,4.61,60.0,,,,,,133.0,194.0,,,10.0,,KIGQ 010355Z AUTO 06004KT 10SM BKN013 OVC019 16/16 A3004 RMK AO2  T01580156,,,1300.0,,,60.44,,ENE,29.39,28.49,,Overcast
KIGQ,10/01/2016 04:15 UTC,30.04,60.8,60.08,100.0,5.75,70.0,,,654.0,,,162.0,293.0,,,10.0,,KIGQ 010415Z AUTO 07005KT 10SM SCT016 BKN029 OVC065 16/16  A3004 RMK AO2 T01600156,,,2900.0,,,60.8,,ENE,29.39,28.46,,Overcast
KIGQ,10/01/2016 04:35 UTC,30.05,60.44,59.9,100.0,6.91,70.0,,,654.0,,,142.0,323.0,,,10.0,,KIGQ 010435Z AUTO 07006KT 10SM SCT014 BKN032 OVC065 16/16  A3005 RMK AO2 T01580155,,,3200.0,,,60.44,,ENE,29.4,28.5,,Overcast
KIGQ,10/01/2016 04:55 UTC,30.05,60.44,59.9,100.0,5.75,90.0,,,,,,144.0,,,,10.0,,KIGQ 010455Z AUTO 09005KT 10SM OVC014 16/16 A3005 RMK AO2  T01580155,,,1400.0,,,60.44,,E,29.4,28.5,,Overcast
KIGQ,10/01/2016 05:15 UTC,30.04,60.26,59.54,93.8,4.61,80.0,,,,,,124.0,,,,10.0,,KIGQ 010515Z AUTO 08004KT 10SM OVC012 16/15 A3004 RMK AO2  T01570153,,,1200.0,,,58.45,,E,29.39,28.59,,Overcast
KIGQ,10/01/2016 05:35 UTC,30.04,60.08,59.36,93.8,5.75,80.0,,,,,,124.0,,,,10.0,,KIGQ 010535Z AUTO 08005KT 10SM OVC012 16/15 A3004 RMK AO2  T01560152,,,1200.0,,,58.27,,E,29.39,28.6,,Overcast
KIGQ,10/01/2016 05:55 UTC,30.04,59.36,59.0,100.0,4.61,80.0,,,,,,103.0,254.0,0.01,,10.0,,KIGQ 010555Z AUTO 08004KT 10SM BKN010 OVC025 15/15 A3004 RMK AO2  60001 T01520150 10160 20152 401800151,60.8,59.36,1000.0,64.4,59.18,59.36,,E,29.39,28.56,,Overcast
KIGQ,10/01/2016 06:15 UTC,30.04,58.1,58.1,100.0,3.44,40.0,,,322.0,,,102.0,252.0,,,10.0,,KIGQ 010615Z AUTO 04003KT 10SM SCT010 SCT025 SCT032 15/15  A3004 RMK AO2 T01450145,,,,,,58.1,,NE,29.39,28.63,,Partly Cloudy
KIGQ,10/01/2016 06:35 UTC,30.04,57.74,57.74,100.0,3.44,360.0,,,,,,322.0,,,,10.0,,KIGQ 010635Z AUTO 36003KT 10SM SCT032 14/14 A3004 RMK AO2 LTG DSNT  E T01430143,,,,,,57.74,,N,29.39,28.65,,Partly Cloudy
KIGQ,10/01/2016 06:55 UTC,30.04,57.2,57.2,100.0,3.44,30.0,,,,,,1.0,,,,7.0,,KIGQ 010655Z AUTO 03003KT 7SM CLR 14/14 A3004 RMK AO2  T01400140,,,,,,57.2,,NNE,29.39,28.68,,Clear
KIGQ,10/01/2016 07:15 UTC,30.04,57.2,57.2,100.0,4.61,40.0,,,,,,272.0,,,,10.0,,KIGQ 010715Z AUTO 04004KT 10SM SCT027 14/14 A3004 RMK AO2  T01400140,,,,,,57.2,,NE,29.39,28.68,,Partly Cloudy
KIGQ,10/01/2016 07:35 UTC,30.04,57.74,57.74,100.0,0.0,0.0,,,703.0,,,143.0,273.0,,,10.0,,KIGQ 010735Z AUTO 00000KT 10SM BKN014 BKN027 BKN070 14/14  A3004 RMK AO2 T01430143,,,1400.0,,,57.74,,N,29.39,28.65,,Mostly Cloudy
KIGQ,10/01/2016 07:55 UTC,30.03,57.2,57.2,100.0,3.44,350.0,,,,,,142.0,703.0,,,10.0,,KIGQ 010755Z AUTO 35003KT 10SM SCT014 BKN070 14/14 A3003 RMK AO2  T01400140,,,7000.0,,,57.2,,N,29.38,28.67,,Mostly Cloudy
KIGQ,10/01/2016 08:15 UTC,30.03,56.48,56.48,100.0,3.44,30.0,,,,,,342.0,703.0,,,10.0,,KIGQ 010815Z AUTO 03003KT 10SM SCT034 BKN070 14/14 A3003 RMK AO2  LTG DSNT E T01360136,,,7000.0,,,56.48,,NNE,29.38,28.71,,Mostly Cloudy
KIGQ,10/01/2016 08:35 UTC,30.02,56.84,56.84,100.0,3.44,350.0,,,,,,343.0,434.0,,,7.0,,KIGQ 010835Z AUTO 35003KT 7SM BKN034 OVC043 14/14 A3002 RMK AO2  LTG DSNT E T01380138,,,3400.0,,,56.84,,N,29.37,28.68,,Overcast
KIGQ,10/01/2016 08:55 UTC,30.02,56.48,56.48,100.0,0.0,0.0,,,803.0,,,342.0,432.0,,,7.0,,KIGQ 010855Z AUTO 00000KT 7SM SCT034 SCT043 BKN080 14/14 A3002 RMK AO2 T01360136,,,8000.0,,,56.48,,N,29.37,28.7,,Mostly Cloudy
KIGQ,10/01/2016 09:15 UTC,30.02,56.12,56.12,100.0,0.0,0.0,,31.0,652.0,,,332.0,462.0,,,4.0,,KIGQ 010915Z AUTO 00000KT 4SM BR SCT033 SCT046 SCT065 13/13  A3002 RMK AO2 T01340134,,,,,,56.12,,N,29.37,28.72,,Mist
KIGQ,10/01/2016 09:35 UTC,30.02,55.94,55.94,100.0,0.0,0.0,,31.0,,,,353.0,,,,4.0,,KIGQ 010935Z AUTO 00000KT 4SM BR BKN035 13/13 A3002 RMK AO2  T01330133,,,3500.0,,,55.94,,N,29.37,28.73,,Mist
KIGQ,10/01/2016 09:55 UTC,30.01,56.3,56.3,100.0,4.61,330.0,,31.0,,,,353.0,854.0,,,4.0,,KIGQ 010955Z AUTO 33004KT 4SM BR BKN035 OVC085 14/14 A3001 RMK AO2  T01350135,,,3500.0,,,56.3,,NNW,29.36,28.7,,Mist
KIGQ,10/01/2016 10:15 UTC,30.01,56.66,56.66,100.0,0.0,0.0,,5.0,854.0,,,152.0,362.0,,,7.0,,KIGQ 011015Z AUTO 00000KT 7SM VCTS SCT015 SCT036 OVC085 14/14  A3001 RMK AO2 T01370137,,,8500.0,,,56.66,,N,29.36,28.68,,Thunder
KIGQ,10/01/2016 10:35 UTC,30.02,56.66,56.66,100.0,0.0,0.0,,31.0,,,,174.0,,,,5.0,,KIGQ 011035Z AUTO 00000KT 5SM BR OVC017 14/14 A3002 RMK AO2 LTG  DSNT E T01370137,,,1700.0,,,56.66,,N,29.37,28.69,,Mist
KIGQ,10/01/2016 10:55 UTC,30.01,57.38,57.38,100.0,3.44,280.0,,,504.0,,,172.0,253.0,,,5.0,,KIGQ 011055Z AUTO 28003KT 5SM -VCTSRA SCT017 BKN025 OVC050 14/14  A3001 RMK AO2 LTG DSNT E T01410141,,,2500.0,,,57.38,,W,29.36,28.64,,Overcast
KIGQ,10/01/2016 11:15 UTC,30.01,57.74,57.74,100.0,3.44,320.0,,5.0,704.0,,,342.0,553.0,,,7.0,,KIGQ 011115Z AUTO 32003KT 7SM VCTS SCT034 BKN055 OVC070 14/14  A3001 RMK AO2 LTG DSNT E T01430143,,,5500.0,,,57.74,,NW,29.36,28.62,,Thunder
KIGQ,10/01/2016 11:35 UTC,30.01,58.1,58.1,100.0,3.44,310.0,,,504.0,0.01,,142.0,223.0,,,4.0,,KIGQ 011135Z AUTO 31003KT 4SM VCTSRA SCT014 BKN022 OVC050 15/15  A3001 RMK AO2 LTG DSNT E P0001 T01450145,,,2200.0,,,58.1,,NW,29.36,28.6,,Overcast
KIGQ,10/01/2016 11:55 UTC,30.01,58.28,58.28,100.0,3.44,280.0,,,404.0,0.05,,142.0,263.0,0.05,0.17,4.0,,KIGQ 011155Z AUTO 28003KT 4SM VCTSRA SCT014 BKN026 OVC040 15/15  A3001 RMK AO2 LTG DSNT E P0005 60005 70017 T01460146 10151  20132,59.18,55.76,2600.0,,,58.28,,W,29.36,28.59,,Overcast
KIGQ,10/01/2016 12:15 UTC,30.01,58.28,58.28,100.0,3.44,290.0,,66.0,364.0,,,162.0,273.0,,,5.0,,KIGQ 011215Z AUTO 29003KT 5SM TSRA SCT016 BKN027 OVC036 15/15  A3001 RMK AO2 LTG DSNT NE AND E T01460146,,,2700.0,,,58.28,,WNW,29.36,28.59,,Thunderstorm
KIGQ,10/01/2016 12:35 UTC,30.01,58.46,58.46,100.0,0.0,0.0,,14.0,274.0,0.07,,152.0,222.0,,,4.0,,KIGQ 011235Z AUTO 00000KT 4SM +RA SCT015 SCT022 OVC027 15/15  A3001 RMK AO2 P0007 T01470147,,,2700.0,,,58.46,,N,29.36,28.58,,Heavy Rain
KIGQ,10/01/2016 12:55 UTC,30.01,58.46,58.46,100.0,3.44,10.0,16.11,14.0,284.0,0.31,,82.0,233.0,,,2.5,,KIGQ 011255Z AUTO 01003G14KT 2 1/2SM +RA SCT008 BKN023 OVC028  15/15 A3001 RMK AO2 P0031 T01470147,,,2300.0,,,58.46,,N,29.36,28.58,,Heavy Rain
KIGQ,10/01/2016 13:15 UTC,30.01,58.1,58.1,100.0,0.0,0.0,,1.0,254.0,0.01,,83.0,193.0,,,7.0,,KIGQ 011315Z AUTO 00000KT 7SM RA BKN008 BKN019 OVC025 15/15  A3001 RMK AO2 P0001 T01450145,,,800.0,,,58.1,,N,29.36,28.6,,Rain
KIGQ,10/01/2016 13:35 UTC,30.01,57.74,57.74,100.0,4.61,50.0,,1.0,904.0,0.05,,63.0,123.0,,,7.0,,KIGQ 011335Z AUTO 05004KT 7SM RA BKN006 BKN012 OVC090 14/14  A3001 RMK AO2 P0005 T01430143,,,600.0,,,57.74,,NE,29.36,28.62,,Rain
KIGQ,10/01/2016 13:55 UTC,30.01,58.1,58.1,100.0,6.91,320.0,,1.0,904.0,0.07,,62.0,203.0,,,7.0,,KIGQ 011355Z AUTO 32006KT 7SM RA SCT006 BKN020 OVC090 15/15  A3001 RMK AO2 P0007 T01450145,,,2000.0,,,58.1,,NW,29.36,28.6,,Rain
KIGQ,10/01/2016 14:15 UTC,30.01,58.1,58.1,100.0,3.44,340.0,,13.0,414.0,,,222.0,343.0,,,10.0,,KIGQ 011415Z AUTO 34003KT 10SM -RA SCT022 BKN034 OVC041 15/15  A3001 RMK AO2 T01450145,,,3400.0,,,58.1,,NNW,29.36,28.6,,Light Rain
KIGQ,10/01/2016 14:35 UTC,30.01,58.1,58.1,100.0,3.44,330.0,,13.0,424.0,,,82.0,332.0,,,5.0,,KIGQ 011435Z AUTO 33003KT 5SM -RA SCT008 SCT033 OVC042 15/15  A3001 RMK AO2 T01450145,,,4200.0,,,58.1,,NNW,29.36,28.6,,Light Rain
KIGQ,10/01/2016 14:55 UTC,30.01,58.1,58.1,100.0,5.75,310.0,,13.0,904.0,,0.38,32.0,403.0,,,7.0,,KIGQ 011455Z AUTO 31005KT 7SM -RA SCT003 BKN040 OVC090 15/15  A3001 RMK AO2 60038 T01450145,,,4000.0,,,58.1,,NW,29.36,28.6,,Light Rain
KIGQ,10/01/2016 15:15 UTC,30.01,58.46,58.46,100.0,5.75,320.0,,1.0,904.0,,,102.0,803.0,,,7.0,,KIGQ 011515Z AUTO 32005KT 7SM RA SCT010 BKN080 OVC090 15/15  A3001 RMK AO2 T01470147,,,8000.0,,,58.46,,NW,29.36,28.58,,Rain
KIGQ,10/01/2016 15:35 UTC,30.01,59.0,59.0,100.0,4.61,320.0,,1.0,804.0,,,82.0,703.0,,,7.0,,KIGQ 011535Z AUTO 32004KT 7SM RA SCT008 BKN070 OVC080 15/15  A3001 RMK AO2 T01500150,,,7000.0,,,59.0,,NW,29.36,28.55,,Rain
KIGQ,10/01/2016 15:55 UTC,30.01,59.72,59.72,100.0,6.91,320.0,,13.0,704.0,,,32.0,83.0,,,7.0,,KIGQ 011555Z AUTO 32006KT 7SM -RA SCT003 BKN008 OVC070 15/15  A3001 RMK AO2 T01540154,,,800.0,,,59.72,,NW,29.36,28.5,,Light Rain
KIGQ,10/01/2016 16:15 UTC,30.01,59.9,59.9,100.0,4.61,350.0,,17.0,,,,43.0,84.0,,,7.0,,KIGQ 011615Z AUTO 35004KT 7SM -DZ BKN004 OVC008 16/16 A3001 RMK AO2 LTG DSNT NW T01550155,,,400.0,,,59.9,,N,29.36,28.49,,Light Drizzle
KIGQ,10/01/2016 16:35 UTC,30.0,60.62,60.62,100.0,8.05,300.0,,,,,,43.0,84.0,,,10.0,,KIGQ 011635Z AUTO 30007KT 10SM BKN004 OVC008 16/16 A3000 RMK AO2  T01590159,,,400.0,,,60.62,,WNW,29.35,28.44,,Overcast
KIGQ,10/01/2016 16:55 UTC,30.0,60.8,60.8,100.0,6.91,320.0,,,,,,63.0,174.0,,,10.0,,KIGQ 011655Z AUTO 32006KT 10SM BKN006 OVC017 16/16 A3000 RMK AO2  T01600160,,,600.0,,,60.8,,NW,29.35,28.42,,Overcast
KIGQ,10/01/2016 17:15 UTC,30.0,60.8,60.8,100.0,5.75,320.0,,,384.0,,,42.0,153.0,,,10.0,,KIGQ 011715Z AUTO 32005KT 10SM SCT004 BKN015 OVC038 16/16  A3000 RMK AO2 T01600160,,,1500.0,,,60.8,,NW,29.35,28.42,,Overcast
KIGQ,10/01/2016 17:35 UTC,30.0,60.8,60.8,100.0,5.75,300.0,,1.0,384.0,,,62.0,312.0,,,7.0,,KIGQ 011735Z AUTO 30005KT 7SM RA SCT006 SCT031 OVC038 16/16  A3000 RMK AO2 T01600160,,,3800.0,,,60.8,,WNW,29.35,28.42,,Rain
KIGQ,10/01/2016 17:55 UTC,29.99,61.34,61.34,100.0,3.44,330.0,,13.0,404.0,,,62.0,303.0,0.38,,10.0,,KIGQ 011755Z AUTO 33003KT 10SM -RA SCT006 BKN030 OVC040 16/16  A2999 RMK AO2 60038 T01630163 10163 20143,61.34,57.74,3000.0,,,61.34,,NNW,29.34,28.38,,Light Rain
KIGQ,10/01/2016 18:15 UTC,29.99,62.06,62.06,100.0,3.44,340.0,,,404.0,,,62.0,203.0,,,10.0,,KIGQ 011815Z AUTO 34003KT 10SM SCT006 BKN020 OVC040 17/17  A2999 RMK AO2 T01670167,,,2000.0,,,62.06,,NNW,29.34,28.33,,Overcast
KIGQ,10/01/2016 18:35 UTC,29.98,62.6,61.7,100.0,5.75,320.0,,,404.0,,,83.0,143.0,,,10.0,,KIGQ 011835Z AUTO 32005KT 10SM BKN008 BKN014 OVC040 17/17  A2998 RMK AO2 LTG DSNT SE T01700165,,,800.0,,,62.6,,NW,29.33,28.28,,Overcast
KIGQ,10/01/2016 18:55 UTC,29.97,63.5,61.34,88.11,5.75,10.0,,,334.0,,,102.0,203.0,,,10.0,,KIGQ 011855Z AUTO 01005KT 10SM SCT010 BKN020 OVC033 18/16  A2997 RMK AO2 LTG DSNT E T01750163,,,2000.0,,,59.89,,N,29.32,28.41,,Overcast
KIGQ,10/01/2016 19:15 UTC,29.97,62.6,61.16,93.84,4.61,10.0,,13.0,414.0,,,102.0,163.0,,,10.0,,KIGQ 011915Z AUTO 01004KT 10SM -RA SCT010 BKN016 OVC041 17/16  A2997 RMK AO2 T01700162,,,1600.0,,,60.79,,N,29.32,28.37,,Light Rain
KIGQ,10/01/2016 19:35 UTC,29.97,63.5,61.34,88.11,4.61,30.0,,,704.0,,,132.0,413.0,,,10.0,,KIGQ 011935Z AUTO 03004KT 10SM SCT013 BKN041 OVC070 18/16  A2997 RMK AO2 T01750163,,,4100.0,,,59.89,,NNE,29.32,28.41,,Overcast
KIGQ,10/01/2016 19:55 UTC,29.97,65.48,61.88,88.2,5.75,30.0,,,704.0,,,132.0,172.0,,,10.0,,KIGQ 011955Z AUTO 03005KT 10SM SCT013 SCT017 OVC070 19/17  A2997 RMK AO2 T01860166,,,7000.0,,,61.87,,NNE,29.32,28.27,,Overcast
KIGQ,10/01/2016 20:15 UTC,29.96,64.04,60.44,88.11,5.75,10.0,,,954.0,,,162.0,703.0,,,10.0,,KIGQ 012015Z AUTO 01005KT 10SM SCT016 BKN070 OVC095 18/16  A2996 RMK AO2 LTG DSNT E T01780158,,,7000.0,,,60.42,,N,29.31,28.36,,Overcast
KIGQ,10/01/2016 20:35 UTC,29.96,64.94,60.8,88.11,8.05,30.0,,,552.0,,,162.0,292.0,,,10.0,,KIGQ 012035Z AUTO 03007KT 10SM SCT016 SCT029 SCT055 18/16  A2996 RMK AO2 LTG DSNT E T01830160,,,,,,61.31,,NNE,29.31,28.3,,Partly Cloudy
KIGQ,10/01/2016 20:55 UTC,29.97,64.4,60.44,88.11,5.75,10.0,,,1003.0,,,162.0,312.0,,,10.0,,KIGQ 012055Z AUTO 01005KT 10SM SCT016 SCT031 BKN100 18/16  A2997 RMK AO2 T01800158,,,10000.0,,,60.78,,N,29.32,28.35,,Mostly Cloudy
KIGQ,10/01/2016 21:15 UTC,29.96,63.86,59.9,88.11,3.44,360.0,,,1003.0,,,182.0,312.0,,,10.0,,KIGQ 012115Z AUTO 36003KT 10SM SCT018 SCT031 BKN100 18/16  A2996 RMK AO2 T01770155,,,10000.0,,,60.25,,N,29.31,28.37,,Mostly Cloudy
KIGQ,10/01/2016 21:35 UTC,29.97,63.14,59.0,88.02,4.61,360.0,,,954.0,,,182.0,243.0,,,10.0,,KIGQ 012135Z AUTO 36004KT 10SM SCT018 BKN024 OVC095 17/15  A2997 RMK AO2 T01730150,,,2400.0,,,59.51,,N,29.32,28.43,,Overcast
KIGQ,10/01/2016 21:55 UTC,29.97,62.42,60.08,93.84,5.75,310.0,,,754.0,,,212.0,253.0,,,10.0,,KIGQ 012155Z AUTO 31005KT 10SM SCT021 BKN025 OVC075 17/16  A2997 RMK AO2 T01690156,,,2500.0,,,60.61,,NW,29.32,28.38,,Overcast
KIGQ,10/01/2016 22:15 UTC,29.97,61.7,60.08,93.84,4.61,280.0,,,754.0,,,212.0,463.0,,,10.0,,KIGQ 012215Z AUTO 28004KT 10SM SCT021 BKN046 OVC075 17/16  A2997 RMK AO2 LTG DSNT E T01650156,,,4600.0,,,59.89,,W,29.32,28.43,,Overcast
KIGQ,10/01/2016 22:35 UTC,29.97,61.16,59.9,100.0,0.0,0.0,,,854.0,,,442.0,503.0,,,10.0,,KIGQ 012235Z AUTO 00000KT 10SM SCT044 BKN050 OVC085 16/16  A2997 RMK AO2 LTG DSNT NE AND E T01620155,,,5000.0,,,61.16,,N,29.32,28.37,,Overcast
KIGQ,10/01/2016 22:55 UTC,29.97,60.8,59.9,100.0,3.44,300.0,,,854.0,,,132.0,503.0,,,10.0,,KIGQ 012255Z AUTO 30003KT 10SM SCT013 BKN050 OVC085 16/16  A2997 RMK AO2 T01600155,,,5000.0,,,60.8,,WNW,29.32,28.39,,Overcast
KIGQ,10/01/2016 23:15 UTC,29.97,60.44,59.9,100.0,3.44,290.0,,,243.0,,,152.0,193.0,,,10.0,,KIGQ 012315Z AUTO 29003KT 10SM SCT015 BKN019 BKN024 16/16  A2997 RMK AO2 T01580155,,,1900.0,,,60.44,,WNW,29.32,28.42,,Mostly Cloudy
KIGQ,10/01/2016 23:35 UTC,29.98,59.9,59.9,100.0,0.0,0.0,,,,,,132.0,,,,10.0,,KIGQ 012335Z AUTO 00000KT 10SM SCT013 16/16 A2998 RMK AO2  T01550155,,,,,,59.9,,N,29.33,28.46,,Partly Cloudy
KIGQ,10/01/2016 23:55 UTC,29.98,60.08,60.08,100.0,0.0,0.0,,,804.0,,,152.0,423.0,,,10.0,,KIGQ 012355Z AUTO 00000KT 10SM SCT015 BKN042 OVC080 16/16  A2998 RMK AO2 T01560156 10186 20155,65.48,59.9,4200.0,,,60.08,,N,29.33,28.45,,Overcast
KIGQ,10/02/2016 00:15 UTC,29.98,60.08,60.08,100.0,0.0,0.0,,,854.0,,,343.0,413.0,,,10.0,,KIGQ 020015Z AUTO 00000KT 10SM BKN034 BKN041 OVC085 16/16  A2998 RMK AO2 T01560156,,,3400.0,,,60.08,,N,29.33,28.45,,Overcast
KIGQ,10/02/2016 00:35 UTC,29.98,60.8,60.26,100.0,0.0,0.0,,,904.0,,,122.0,343.0,,,10.0,,KIGQ 020035Z AUTO 00000KT 10SM SCT012 BKN034 OVC090 16/16  A2998 RMK AO2 T01600157,,,3400.0,,,60.8,,N,29.33,28.4,,Overcast
KIGQ,10/02/2016 00:55 UTC,29.98,60.8,60.26,100.0,0.0,0.0,,,654.0,,,122.0,603.0,,,10.0,,KIGQ 020055Z AUTO 00000KT 10SM SCT012 BKN060 OVC065 16/16  A2998 RMK AO2 T01600157,,,6000.0,,,60.8,,N,29.33,28.4,,Overcast
KIGQ,10/02/2016 01:15 UTC,29.98,59.9,59.9,100.0,0.0,0.0,,,854.0,,,163.0,653.0,,,10.0,,KIGQ 020115Z AUTO 00000KT 10SM BKN016 BKN065 OVC085 16/16  A2998 RMK AO2 T01550155,,,1600.0,,,59.9,,N,29.33,28.46,,Overcast
KIGQ,10/02/2016 01:35 UTC,29.99,60.08,60.08,100.0,3.44,310.0,,,,,,83.0,164.0,,,7.0,,KIGQ 020135Z AUTO 31003KT 7SM BKN008 OVC016 16/16 A2999 RMK AO2  T01560156,,,800.0,,,60.08,,NW,29.34,28.46,,Overcast
KIGQ,10/02/2016 01:55 UTC,29.99,60.26,60.26,100.0,3.44,320.0,,,,,,84.0,,,,10.0,,KIGQ 020155Z AUTO 32003KT 10SM OVC008 16/16 A2999 RMK AO2  T01570157,,,800.0,,,60.26,,NW,29.34,28.45,,Overcast
KIGQ,10/02/2016 02:15 UTC,29.99,60.44,60.44,100.0,3.44,320.0,,,,,,84.0,,,,10.0,,KIGQ 020215Z AUTO 32003KT 10SM OVC008 16/16 A2999 RMK AO2  T01580158,,,800.0,,,60.44,,NW,29.34,28.44,,Overcast
KIGQ,10/02/2016 02:35 UTC,29.99,59.72,59.72,100.0,4.61,310.0,,,133.0,,,62.0,102.0,,,10.0,,KIGQ 020235Z AUTO 31004KT 10SM SCT006 SCT010 BKN013 15/15  A2999 RMK AO2 T01540154,,,1300.0,,,59.72,,NW,29.34,28.48,,Mostly Cloudy
KIGQ,10/02/2016 02:55 UTC,29.99,58.64,58.64,100.0,0.0,0.0,,,,,,132.0,,,,7.0,,KIGQ 020255Z AUTO 00000KT 7SM SCT013 15/15 A2999 RMK AO2  T01480148,,,,,,58.64,,N,29.34,28.55,,Partly Cloudy
KIGQ,10/02/2016 03:15 UTC,29.99,58.46,58.46,100.0,0.0,0.0,,31.0,,,,32.0,,,,4.0,,KIGQ 020315Z AUTO 00000KT 4SM BR SCT003 15/15 A2999 RMK AO2  T01470147,,,,,,58.46,,N,29.34,28.56,,Mist
KIGQ,10/02/2016 03:35 UTC,29.99,58.1,58.1,100.0,0.0,0.0,,31.0,,,,1.0,,,,4.0,,KIGQ 020335Z AUTO 00000KT 4SM BR CLR 15/15 A2999 RMK AO2  T01450145,,,,,,58.1,,N,29.34,28.58,,Mist
KIGQ,10/02/2016 03:55 UTC,30.0,56.12,56.12,100.0,0.0,0.0,,9.0,,,,34.0,,,,0.25,,KIGQ 020355Z AUTO 00000KT 1/4SM FG OVC003 13/13 A3000 RMK AO2  T01340134,,,300.0,,,56.12,,N,29.35,28.7,,Fog
KIGQ,10/02/2016 04:15 UTC,29.99,55.4,55.4,100.0,4.61,280.0,,9.0,,,,14.0,,,,0.25,,KIGQ 020415Z AUTO 28004KT 1/4SM FG OVC001 13/13 A2999 RMK AO2  T01300130,,,100.0,,,55.4,,W,29.34,28.73,,Fog
KIGQ,10/02/2016 04:35 UTC,30.0,55.94,55.94,100.0,0.0,0.0,,9.0,,,,14.0,,,,0.25,,KIGQ 020435Z AUTO 00000KT 1/4SM FG OVC001 13/13 A3000 RMK AO2  T01330133,,,100.0,,,55.94,,N,29.35,28.71,,Fog
KIGQ,10/02/2016 04:55 UTC,30.0,57.2,57.2,100.0,0.0,0.0,,9.0,,,,14.0,,,,0.5,,KIGQ 020455Z AUTO 00000KT 1/2SM FG OVC001 14/14 A3000 RMK AO2  T01400140,,,100.0,,,57.2,,N,29.35,28.64,,Fog
KIGQ,10/02/2016 05:15 UTC,30.01,57.74,57.74,100.0,3.44,290.0,,31.0,,,,14.0,,,,0.75,,KIGQ 020515Z AUTO 29003KT 3/4SM BR OVC001 14/14 A3001 RMK AO2  T01430143,,,100.0,,,57.74,,WNW,29.36,28.62,,Mist
KIGQ,10/02/2016 05:35 UTC,30.01,57.56,57.56,100.0,3.44,340.0,,9.0,,,,14.0,,,,0.5,,KIGQ 020535Z AUTO 34003KT 1/2SM FG OVC001 14/14 A3001 RMK AO2  T01420142,,,100.0,,,57.56,,NNW,29.36,28.63,,Fog
KIGQ,10/02/2016 05:55 UTC,30.01,57.38,57.38,100.0,3.44,320.0,,9.0,,,,14.0,,,,0.5,,KIGQ 020555Z AUTO 32003KT 1/2SM FG OVC001 14/14 A3001 RMK AO2  T01410141 10161 20126 401860126,60.98,54.68,100.0,65.48,54.68,57.38,,NW,29.36,28.64,,Fog
KIGQ,10/02/2016 06:15 UTC,30.0,57.38,57.38,100.0,0.0,0.0,,9.0,,,,14.0,,,,0.25,,KIGQ 020615Z AUTO 00000KT 1/4SM FG OVC001 14/14 A3000 RMK AO2  T01410141,,,100.0,,,57.38,,N,29.35,28.63,,Fog
KIGQ,10/02/2016 06:35 UTC,30.01,57.2,57.2,100.0,3.44,270.0,,9.0,,,,14.0,,,,0.25,,KIGQ 020635Z AUTO 27003KT 1/4SM FG OVC001 14/14 A3001 RMK AO2  T01400140,,,100.0,,,57.2,,W,29.36,28.65,,Fog
KIGQ,10/02/2016 06:55 UTC,30.01,57.38,57.38,100.0,6.91,280.0,,9.0,,,,14.0,,,,0.5,,KIGQ 020655Z AUTO 28006KT 1/2SM FG OVC001 14/14 A3001 RMK AO2  T01410141,,,100.0,,,57.38,,W,29.36,28.64,,Fog
KIGQ,10/02/2016 07:15 UTC,30.01,57.56,57.56,100.0,3.44,290.0,,31.0,,,,34.0,,,,3.0,,KIGQ 020715Z AUTO 29003KT 3SM BR OVC003 14/14 A3001 RMK AO2  T01420142,,,300.0,,,57.56,,WNW,29.36,28.63,,Mist
KIGQ,10/02/2016 07:35 UTC,30.01,57.38,57.38,100.0,3.44,280.0,,31.0,,,,94.0,,,,3.0,,KIGQ 020735Z AUTO 28003KT 3SM BR OVC009 14/14 A3001 RMK AO2  T01410141,,,900.0,,,57.38,,W,29.36,28.64,,Mist
KIGQ,10/02/2016 07:55 UTC,30.01,57.38,57.38,100.0,3.44,280.0,,31.0,,,,94.0,,,,4.0,,KIGQ 020755Z AUTO 28003KT 4SM BR OVC009 14/14 A3001 RMK AO2  T01410141,,,900.0,,,57.38,,W,29.36,28.64,,Mist
KIGQ,10/02/2016 08:15 UTC,30.01,57.56,57.56,100.0,0.0,0.0,,31.0,,,,74.0,,,,4.0,,KIGQ 020815Z AUTO 00000KT 4SM BR OVC007 14/14 A3001 RMK AO2  T01420142,,,700.0,,,57.56,,N,29.36,28.63,,Mist
KIGQ,10/02/2016 08:35 UTC,30.01,58.1,58.1,100.0,5.75,300.0,,31.0,,,,74.0,,,,4.0,,KIGQ 020835Z AUTO 30005KT 4SM BR OVC007 15/15 A3001 RMK AO2  T01450145,,,700.0,,,58.1,,WNW,29.36,28.6,,Mist
KIGQ,10/02/2016 08:55 UTC,30.01,58.1,58.1,100.0,4.61,280.0,,31.0,,,,54.0,,,,3.0,,KIGQ 020855Z AUTO 28004KT 3SM BR OVC005 15/15 A3001 RMK AO2  T01450145,,,500.0,,,58.1,,W,29.36,28.6,,Mist
KIGQ,10/02/2016 09:15 UTC,30.01,58.1,58.1,100.0,4.61,290.0,,31.0,,,,54.0,,,,3.0,,KIGQ 020915Z AUTO 29004KT 3SM BR OVC005 15/15 A3001 RMK AO2  T01450145,,,500.0,,,58.1,,WNW,29.36,28.6,,Mist
KIGQ,10/02/2016 09:35 UTC,30.01,58.1,58.1,100.0,4.61,300.0,,31.0,,,,54.0,,,,3.0,,KIGQ 020935Z AUTO 30004KT 3SM BR OVC005 15/15 A3001 RMK AO2  T01450145,,,500.0,,,58.1,,WNW,29.36,28.6,,Mist
KIGQ,10/02/2016 09:55 UTC,30.01,57.74,57.74,100.0,5.75,330.0,,31.0,,,,54.0,,,,3.0,,KIGQ 020955Z AUTO 33005KT 3SM BR OVC005 14/14 A3001 RMK AO2  T01430143,,,500.0,,,57.74,,NNW,29.36,28.62,,Mist
KIGQ,10/02/2016 10:15 UTC,30.02,57.56,57.56,100.0,3.44,340.0,,31.0,,,,54.0,,,,3.0,,KIGQ 021015Z AUTO 34003KT 3SM BR OVC005 14/14 A3002 RMK AO2  T01420142,,,500.0,,,57.56,,NNW,29.37,28.64,,Mist
KIGQ,10/02/2016 10:35 UTC,30.02,58.1,58.1,100.0,0.0,0.0,,31.0,,,,54.0,,,,5.0,,KIGQ 021035Z AUTO 00000KT 5SM BR OVC005 15/15 A3002 RMK AO2  T01450145,,,500.0,,,58.1,,N,29.37,28.61,,Mist
KIGQ,10/02/2016 10:55 UTC,30.02,58.1,58.1,100.0,5.75,320.0,,31.0,,,,54.0,,,,5.0,,KIGQ 021055Z AUTO 32005KT 5SM BR OVC005 15/15 A3002 RMK AO2  T01450145,,,500.0,,,58.1,,NW,29.37,28.61,,Mist
KIGQ,10/02/2016 11:15 UTC,30.03,58.1,58.1,100.0,3.44,330.0,,31.0,,,,74.0,,,,5.0,,KIGQ 021115Z AUTO 33003KT 5SM BR OVC007 15/15 A3003 RMK AO2  T01450145,,,700.0,,,58.1,,NNW,29.38,28.62,,Mist
KIGQ,10/02/2016 11:35 UTC,30.03,58.28,58.28,100.0,4.61,330.0,,,,,,94.0,,,,7.0,,KIGQ 021135Z AUTO 33004KT 7SM OVC009 15/15 A3003 RMK AO2  T01460146,,,900.0,,,58.28,,NNW,29.38,28.61,,Overcast
KIGQ,10/02/2016 11:55 UTC,30.04,58.46,58.46,100.0,9.22,310.0,,,,,,94.0,,,0.38,10.0,,KIGQ 021155Z AUTO 31008KT 10SM OVC009 15/15 A3004 RMK AO2 70038  T01470147 10147 20140,58.46,57.2,900.0,,,58.46,,NW,29.39,28.61,,Overcast
KIGQ,10/02/2016 12:15 UTC,30.04,58.28,58.28,100.0,4.61,290.0,,,,,,94.0,,,,7.0,,KIGQ 021215Z AUTO 29004KT 7SM OVC009 15/15 A3004 RMK AO2  T01460146,,,900.0,,,58.28,,WNW,29.39,28.62,,Overcast
KIGQ,10/02/2016 12:35 UTC,30.05,58.1,58.1,100.0,6.91,300.0,,,,,,94.0,,,,7.0,,KIGQ 021235Z AUTO 30006KT 7SM OVC009 15/15 A3005 RMK AO2  T01450145,,,900.0,,,58.1,,WNW,29.4,28.64,,Overcast
KIGQ,10/02/2016 12:55 UTC,30.04,58.28,58.28,100.0,3.44,310.0,,,,,,94.0,,,,7.0,,KIGQ 021255Z AUTO 31003KT 7SM OVC009 15/15 A3004 RMK AO2  T01460146,,,900.0,,,58.28,,NW,29.39,28.62,,Overcast
KIGQ,10/02/2016 13:15 UTC,30.05,58.64,58.64,100.0,6.91,310.0,,,,,,94.0,,,,7.0,,KIGQ 021315Z AUTO 31006KT 7SM OVC009 15/15 A3005 RMK AO2  T01480148,,,900.0,,,58.64,,NW,29.4,28.61,,Overcast
KIGQ,10/02/2016 13:35 UTC,30.05,58.28,58.28,100.0,4.61,300.0,,,,,,94.0,,,,7.0,,KIGQ 021335Z AUTO 30004KT 7SM OVC009 15/15 A3005 RMK AO2  T01460146,,,900.0,,,58.28,,WNW,29.4,28.63,,Overcast
KIGQ,10/02/2016 13:55 UTC,30.05,58.1,57.74,93.75,4.61,310.0,,,,,,94.0,,,,10.0,,KIGQ 021355Z AUTO 31004KT 10SM OVC009 15/14 A3005 RMK AO2  T01450143,,,900.0,,,56.29,,NW,29.4,28.72,,Overcast
KIGQ,10/02/2016 14:15 UTC,30.06,59.0,58.46,100.0,4.61,260.0,,,,,,94.0,,,,10.0,,KIGQ 021415Z AUTO 26004KT 10SM OVC009 15/15 A3006 RMK AO2  T01500147,,,900.0,,,59.0,,W,29.41,28.6,,Overcast
KIGQ,10/02/2016 14:35 UTC,30.06,59.72,58.28,100.0,0.0,0.0,,,,,,93.0,144.0,,,10.0,,KIGQ 021435Z AUTO 00000KT 10SM BKN009 OVC014 15/15 A3006 RMK AO2  T01540146,,,900.0,,,59.72,,N,29.41,28.55,,Overcast
KIGQ,10/02/2016 14:55 UTC,30.06,61.16,58.82,93.8,3.44,300.0,,,,,,114.0,,,,10.0,,KIGQ 021455Z AUTO 30003KT 10SM OVC011 16/15 A3006 RMK AO2  T01620149,,,1100.0,,,59.34,,WNW,29.41,28.55,,Overcast
KIGQ,10/02/2016 15:15 UTC,30.07,61.88,58.64,88.02,4.61,280.0,,,,,,133.0,184.0,,,10.0,,KIGQ 021515Z AUTO 28004KT 10SM BKN013 OVC018 17/15 A3007 RMK AO2  T01660148,,,1300.0,,,58.26,,W,29.42,28.61,,Overcast
KIGQ,10/02/2016 15:35 UTC,30.07,62.78,59.36,88.02,8.05,290.0,,,,,,154.0,,,,10.0,,KIGQ 021535Z AUTO 29007KT 10SM OVC015 17/15 A3007 RMK AO2  T01710152,,,1500.0,,,59.15,,WNW,29.42,28.55,,Overcast
KIGQ,10/02/2016 15:55 UTC,30.08,62.6,58.64,88.02,8.05,260.0,,,,,,174.0,,,,10.0,,KIGQ 021555Z AUTO 26007KT 10SM OVC017 17/15 A3008 RMK AO2  T01700148,,,1700.0,,,58.97,,W,29.43,28.57,,Overcast
KIGQ,10/02/2016 16:15 UTC,30.08,62.96,58.46,88.02,4.61,260.0,,,,,,194.0,,,,10.0,,KIGQ 021615Z AUTO 26004KT 10SM OVC019 17/15 A3008 RMK AO2  T01720147,,,1900.0,,,59.33,,W,29.43,28.55,,Overcast
KIGQ,10/02/2016 16:35 UTC,30.08,63.68,58.46,82.65,6.91,270.0,,,,,,194.0,,,,10.0,,KIGQ 021635Z AUTO 27006KT 10SM OVC019 18/15 A3008 RMK AO2  T01760147,,,1900.0,,,58.26,,W,29.43,28.6,,Overcast
KIGQ,10/02/2016 16:55 UTC,30.08,64.04,58.46,82.65,8.05,290.0,,,,,,214.0,,,,10.0,,KIGQ 021655Z AUTO 29007KT 10SM OVC021 18/15 A3008 RMK AO2  T01780147,,,2100.0,,,58.62,,WNW,29.43,28.57,,Overcast
KIGQ,10/02/2016 17:15 UTC,30.08,63.68,58.64,82.65,6.91,290.0,,,,,,212.0,284.0,,,10.0,,KIGQ 021715Z AUTO 29006KT 10SM SCT021 OVC028 18/15 A3008 RMK AO2  T01760148,,,2800.0,,,58.26,,WNW,29.43,28.6,,Overcast
KIGQ,10/02/2016 17:35 UTC,30.08,65.84,59.36,77.64,4.61,300.0,,,324.0,,,192.0,262.0,,,10.0,,KIGQ 021735Z AUTO 30004KT 10SM SCT019 SCT026 OVC032 19/15  A3008 RMK AO2 T01880152,,,3200.0,,,58.61,,WNW,29.43,28.55,,Overcast
KIGQ,10/02/2016 17:55 UTC,30.08,64.94,58.28,82.65,5.75,270.0,,,804.0,,,232.0,323.0,,,10.0,,KIGQ 021755Z AUTO 27005KT 10SM SCT023 BKN032 OVC080 18/15  A3008 RMK AO2 T01830146 10188 20145,65.84,58.1,3200.0,,,59.5,,W,29.43,28.52,,Overcast
KIGQ,10/02/2016 18:15 UTC,30.07,64.76,58.82,82.65,5.75,250.0,,,,,,232.0,414.0,,,10.0,,KIGQ 021815Z AUTO 25005KT 10SM SCT023 OVC041 18/15 A3007 RMK AO2  T01820149,,,4100.0,,,59.32,,WSW,29.42,28.52,,Overcast
KIGQ,10/02/2016 18:35 UTC,30.06,66.38,59.36,77.64,9.22,270.0,,,804.0,,,433.0,483.0,,,10.0,,KIGQ 021835Z AUTO 27008KT 10SM BKN043 BKN048 OVC080 19/15  A3006 RMK AO2 T01910152,,,4300.0,,,59.14,,W,29.41,28.5,,Overcast
KIGQ,10/02/2016 18:55 UTC,30.06,65.66,58.46,77.64,4.61,270.0,,,,,,252.0,454.0,,,10.0,,KIGQ 021855Z AUTO 27004KT 10SM SCT025 OVC045 19/15 A3006 RMK AO2  T01870147,,,4500.0,,,58.44,,W,29.41,28.54,,Overcast
KIGQ,10/02/2016 19:15 UTC,30.05,64.94,58.1,82.65,6.91,270.0,,,,,,273.0,414.0,,,10.0,,KIGQ 021915Z AUTO 27006KT 10SM BKN027 OVC041 18/15 A3005 RMK AO2  T01830145,,,2700.0,,,59.5,,W,29.4,28.49,,Overcast
KIGQ,10/02/2016 19:35 UTC,30.05,66.2,58.28,77.64,9.22,270.0,,,504.0,,,272.0,322.0,,,10.0,,KIGQ 021935Z AUTO 27008KT 10SM SCT027 SCT032 OVC050 19/15  A3005 RMK AO2 T01900146,,,5000.0,,,58.96,,W,29.4,28.5,,Overcast
KIGQ,10/02/2016 19:55 UTC,30.05,67.1,58.82,72.97,9.22,270.0,,,,,,302.0,504.0,,,10.0,,KIGQ 021955Z AUTO 27008KT 10SM SCT030 OVC050 20/15 A3005 RMK AO2  T01950149,,,5000.0,,,58.09,,W,29.4,28.54,,Overcast
KIGQ,10/02/2016 20:15 UTC,30.05,67.28,58.46,72.97,8.05,270.0,,,504.0,,,302.0,372.0,,,10.0,,KIGQ 022015Z AUTO 27007KT 10SM SCT030 SCT037 OVC050 20/15  A3005 RMK AO2 T01960147,,,5000.0,,,58.27,,W,29.4,28.52,,Overcast
KIGQ,10/02/2016 20:35 UTC,30.05,66.38,58.28,77.64,3.44,290.0,,,504.0,,,302.0,373.0,,,10.0,,KIGQ 022035Z AUTO 29003KT 10SM SCT030 BKN037 OVC050 19/15  A3005 RMK AO2 T01910146,,,3700.0,,,59.14,,WNW,29.4,28.49,,Overcast
KIGQ,10/02/2016 20:55 UTC,30.05,65.48,58.1,77.64,6.91,280.0,,,484.0,,,292.0,353.0,,,10.0,,KIGQ 022055Z AUTO 28006KT 10SM SCT029 BKN035 OVC048 19/15  A3005 RMK AO2 T01860145,,,3500.0,,,58.26,,W,29.4,28.55,,Overcast
KIGQ,10/02/2016 21:15 UTC,30.05,63.5,58.82,82.65,0.0,0.0,,,,,,324.0,,,,10.0,,KIGQ 022115Z AUTO 00000KT 10SM OVC032 18/15 A3005 RMK AO2  T01750149,,,3200.0,,,58.09,,N,29.4,28.58,,Overcast
KIGQ,10/02/2016 21:35 UTC,30.05,63.32,59.0,88.02,3.44,330.0,,,,,,344.0,,,,10.0,,KIGQ 022135Z AUTO 33003KT 10SM OVC034 17/15 A3005 RMK AO2  T01740150,,,3400.0,,,59.68,,NNW,29.4,28.5,,Overcast
KIGQ,10/02/2016 21:55 UTC,30.05,63.14,59.18,88.02,6.91,340.0,,,,,,344.0,,,,10.0,,KIGQ 022155Z AUTO 34006KT 10SM OVC034 17/15 A3005 RMK AO2  T01730151,,,3400.0,,,59.51,,NNW,29.4,28.51,,Overcast
KIGQ,10/02/2016 22:15 UTC,30.05,62.96,59.9,93.84,3.44,10.0,,,,,,344.0,,,,10.0,,KIGQ 022215Z AUTO 01003KT 10SM OVC034 17/16 A3005 RMK AO2  T01720155,,,3400.0,,,61.14,,N,29.4,28.43,,Overcast
KIGQ,10/02/2016 22:35 UTC,30.06,62.78,59.9,93.84,4.61,10.0,,,,,,344.0,,,,10.0,,KIGQ 022235Z AUTO 01004KT 10SM OVC034 17/16 A3006 RMK AO2  T01710155,,,3400.0,,,60.96,,N,29.41,28.45,,Overcast
KIGQ,10/02/2016 22:55 UTC,30.07,62.6,59.72,88.02,4.61,20.0,,,,,,284.0,,,,10.0,,KIGQ 022255Z AUTO 02004KT 10SM OVC028 17/15 A3007 RMK AO2  T01700154,,,2800.0,,,58.97,,NNE,29.42,28.56,,Overcast
KIGQ,10/02/2016 23:15 UTC,30.08,62.06,59.9,93.84,3.44,30.0,,,394.0,,,262.0,332.0,,,10.0,,KIGQ 022315Z AUTO 03003KT 10SM SCT026 SCT033 OVC039 17/16  A3008 RMK AO2 T01670155,,,3900.0,,,60.25,,NNE,29.43,28.52,,Overcast
KIGQ,10/02/2016 23:35 UTC,30.08,61.88,60.26,93.84,4.61,10.0,,,,,,364.0,,,,10.0,,KIGQ 022335Z AUTO 01004KT 10SM OVC036 17/16 A3008 RMK AO2  T01660157,,,3600.0,,,60.07,,N,29.43,28.53,,Overcast
KIGQ,10/02/2016 23:55 UTC,30.08,61.34,60.08,100.0,0.0,0.0,,,,,,372.0,504.0,,,10.0,,KIGQ 022355Z AUTO 00000KT 10SM SCT037 OVC050 16/16 A3008 RMK AO2  T01630156 10197 20163,67.46,61.34,5000.0,,,61.34,,N,29.43,28.47,,Overcast
KIGQ,10/03/2016 00:15 UTC,30.08,61.52,59.9,100.0,3.44,340.0,,,,,,464.0,,,,10.0,,KIGQ 030015Z AUTO 34003KT 10SM OVC046 16/16 A3008 RMK AO2  T01640155,,,4600.0,,,61.52,,NNW,29.43,28.46,,Overcast
KIGQ,10/03/2016 00:35 UTC,30.09,61.34,59.9,100.0,3.44,360.0,,,554.0,,,162.0,462.0,,,10.0,,KIGQ 030035Z AUTO 36003KT 10SM SCT016 SCT046 OVC055 16/16  A3009 RMK AO2 T01630155,,,5500.0,,,61.34,,N,29.44,28.48,,Overcast
KIGQ,10/03/2016 00:55 UTC,30.09,61.16,59.9,100.0,4.61,10.0,,,554.0,,,142.0,212.0,,,10.0,,KIGQ 030055Z AUTO 01004KT 10SM SCT014 SCT021 OVC055 16/16  A3009 RMK AO2 T01620155,,,5500.0,,,61.16,,N,29.44,28.49,,Overcast
KIGQ,10/03/2016 01:15 UTC,30.09,60.8,59.36,93.8,3.44,10.0,,,,,,432.0,554.0,,,10.0,,KIGQ 030115Z AUTO 01003KT 10SM SCT043 OVC055 16/15 A3009 RMK AO2  T01600152,,,5500.0,,,58.99,,N,29.44,28.61,,Overcast
KIGQ,10/03/2016 01:35 UTC,30.1,60.98,59.72,93.8,4.61,360.0,,,554.0,,,373.0,433.0,,,10.0,,KIGQ 030135Z AUTO 36004KT 10SM BKN037 BKN043 OVC055 16/15  A3010 RMK AO2 T01610154,,,3700.0,,,59.17,,N,29.45,28.61,,Overcast
KIGQ,10/03/2016 01:55 UTC,30.1,61.16,59.9,100.0,0.0,0.0,,,,,,202.0,354.0,,,10.0,,KIGQ 030155Z AUTO 00000KT 10SM SCT020 OVC035 16/16 A3010 RMK AO2  T01620155,,,3500.0,,,61.16,,N,29.45,28.5,,Overcast
KIGQ,10/03/2016 02:15 UTC,30.09,61.34,59.9,100.0,3.44,360.0,,,,,,202.0,334.0,,,10.0,,KIGQ 030215Z AUTO 36003KT 10SM SCT020 OVC033 16/16 A3009 RMK AO2  T01630155,,,3300.0,,,61.34,,N,29.44,28.48,,Overcast
KIGQ,10/03/2016 02:35 UTC,30.09,61.34,59.9,100.0,3.44,350.0,,,,,,354.0,,,,10.0,,KIGQ 030235Z AUTO 35003KT 10SM OVC035 16/16 A3009 RMK AO2  T01630155,,,3500.0,,,61.34,,N,29.44,28.48,,Overcast
KIGQ,10/03/2016 02:55 UTC,30.09,61.34,59.72,93.8,3.44,360.0,,,,,,352.0,554.0,,,10.0,,KIGQ 030255Z AUTO 36003KT 10SM SCT035 OVC055 16/15 A3009 RMK AO2  T01630154,,,5500.0,,,59.52,,N,29.44,28.57,,Overcast
KIGQ,10/03/2016 03:15 UTC,30.1,61.16,59.54,93.8,0.0,0.0,,,,,,282.0,554.0,,,10.0,,KIGQ 030315Z AUTO 00000KT 10SM SCT028 OVC055 16/15 A3010 RMK AO2  T01620153,,,5500.0,,,59.34,,N,29.45,28.59,,Overcast
KIGQ,10/03/2016 03:35 UTC,30.1,61.16,59.36,93.8,3.44,350.0,,,,,,283.0,504.0,,,10.0,,KIGQ 030335Z AUTO 35003KT 10SM BKN028 OVC050 16/15 A3010 RMK AO2  T01620152,,,2800.0,,,59.34,,N,29.45,28.59,,Overcast
KIGQ,10/03/2016 03:55 UTC,30.1,60.98,59.0,93.8,3.44,350.0,,,504.0,,,303.0,343.0,,,10.0,,KIGQ 030355Z AUTO 35003KT 10SM BKN030 BKN034 OVC050 16/15  A3010 RMK AO2 T01610150,,,3000.0,,,59.17,,N,29.45,28.61,,Overcast
KIGQ,10/03/2016 04:15 UTC,30.1,61.16,59.0,93.8,0.0,0.0,,,,,,304.0,,,,10.0,,KIGQ 030415Z AUTO 00000KT 10SM OVC030 16/15 A3010 RMK AO2  T01620150,,,3000.0,,,59.34,,N,29.45,28.59,,Overcast
KIGQ,10/03/2016 04:35 UTC,30.1,61.16,59.0,93.8,0.0,0.0,,,,,,322.0,554.0,,,10.0,,KIGQ 030435Z AUTO 00000KT 10SM SCT032 OVC055 16/15 A3010 RMK AO2  T01620150,,,5500.0,,,59.34,,N,29.45,28.59,,Overcast
KIGQ,10/03/2016 04:55 UTC,30.1,60.98,58.82,93.8,3.44,340.0,,,,,,554.0,,,,10.0,,KIGQ 030455Z AUTO 34003KT 10SM OVC055 16/15 A3010 RMK AO2  T01610149,,,5500.0,,,59.17,,NNW,29.45,28.61,,Overcast
KIGQ,10/03/2016 05:15 UTC,30.1,60.8,58.64,93.8,0.0,0.0,,,,,,554.0,,,,10.0,,KIGQ 030515Z AUTO 00000KT 10SM OVC055 16/15 A3010 RMK AO2  T01600148,,,5500.0,,,58.99,,N,29.45,28.62,,Overcast
KIGQ,10/03/2016 05:35 UTC,30.1,60.08,58.28,93.8,0.0,0.0,,,,,,553.0,,,,10.0,,KIGQ 030535Z AUTO 00000KT 10SM BKN055 16/15 A3010 RMK AO2  T01560146,,,5500.0,,,58.27,,N,29.45,28.66,,Mostly Cloudy
KIGQ,10/03/2016 05:55 UTC,30.1,59.0,58.64,100.0,0.0,0.0,,,,,,403.0,554.0,,,10.0,,KIGQ 030555Z AUTO 00000KT 10SM BKN040 OVC055 15/15 A3010 RMK AO2  T01500148 10165 20150 401970140,61.7,59.0,4000.0,67.46,57.2,59.0,,N,29.45,28.64,,Overcast
KIGQ,10/03/2016 06:15 UTC,30.1,59.0,58.64,100.0,0.0,0.0,,,,,,404.0,,,,10.0,,KIGQ 030615Z AUTO 00000KT 10SM OVC040 15/15 A3010 RMK AO2  T01500148,,,4000.0,,,59.0,,N,29.45,28.64,,Overcast
KIGQ,10/03/2016 06:35 UTC,30.1,59.36,58.64,100.0,0.0,0.0,,,,,,403.0,604.0,,,10.0,,KIGQ 030635Z AUTO 00000KT 10SM BKN040 OVC060 15/15 A3010 RMK AO2  T01520148,,,4000.0,,,59.36,,N,29.45,28.62,,Overcast
KIGQ,10/03/2016 06:55 UTC,30.1,59.18,58.64,100.0,0.0,0.0,,,,,,404.0,,,,10.0,,KIGQ 030655Z AUTO 00000KT 10SM OVC040 15/15 A3010 RMK AO2  T01510148,,,4000.0,,,59.18,,N,29.45,28.63,,Overcast
KIGQ,10/03/2016 07:15 UTC,30.1,59.18,58.82,100.0,0.0,0.0,,,,,,383.0,554.0,,,10.0,,KIGQ 030715Z AUTO 00000KT 10SM BKN038 OVC055 15/15 A3010 RMK AO2  T01510149,,,3800.0,,,59.18,,N,29.45,28.63,,Overcast
KIGQ,10/03/2016 07:35 UTC,30.09,59.36,58.82,100.0,0.0,0.0,,,,,,383.0,554.0,,,10.0,,KIGQ 030735Z AUTO 00000KT 10SM BKN038 OVC055 15/15 A3009 RMK AO2  T01520149,,,3800.0,,,59.36,,N,29.44,28.61,,Overcast
KIGQ,10/03/2016 07:55 UTC,30.09,59.0,58.64,100.0,0.0,0.0,,,,,,382.0,554.0,,,10.0,,KIGQ 030755Z AUTO 00000KT 10SM SCT038 OVC055 15/15 A3009 RMK AO2  T01500148,,,5500.0,,,59.0,,N,29.44,28.63,,Overcast
KIGQ,10/03/2016 08:15 UTC,30.09,59.0,59.0,100.0,0.0,0.0,,,,,,554.0,,,,10.0,,KIGQ 030815Z AUTO 00000KT 10SM OVC055 15/15 A3009 RMK AO2  T01500150,,,5500.0,,,59.0,,N,29.44,28.63,,Overcast
KIGQ,10/03/2016 08:35 UTC,30.09,59.36,59.0,100.0,0.0,0.0,,,,,,504.0,,,,10.0,,KIGQ 030835Z AUTO 00000KT 10SM OVC050 15/15 A3009 RMK AO2  T01520150,,,5000.0,,,59.36,,N,29.44,28.61,,Overcast
KIGQ,10/03/2016 08:55 UTC,30.09,59.54,59.0,100.0,0.0,0.0,,,,,,504.0,,,,10.0,,KIGQ 030855Z AUTO 00000KT 10SM OVC050 15/15 A3009 RMK AO2  T01530150,,,5000.0,,,59.54,,N,29.44,28.6,,Overcast
KIGQ,10/03/2016 09:15 UTC,30.09,59.72,59.0,100.0,0.0,0.0,,,,,,504.0,,,,10.0,,KIGQ 030915Z AUTO 00000KT 10SM OVC050 15/15 A3009 RMK AO2  T01540150,,,5000.0,,,59.72,,N,29.44,28.58,,Overcast
KIGQ,10/03/2016 09:35 UTC,30.1,59.9,59.0,93.8,0.0,0.0,,,,,,504.0,,,,10.0,,KIGQ 030935Z AUTO 00000KT 10SM OVC050 16/15 A3010 RMK AO2  T01550150,,,5000.0,,,58.09,,N,29.45,28.67,,Overcast
KIGQ,10/03/2016 09:55 UTC,30.1,59.9,58.82,93.8,0.0,0.0,,,,,,504.0,,,,10.0,,KIGQ 030955Z AUTO 00000KT 10SM OVC050 16/15 A3010 RMK AO2  T01550149,,,5000.0,,,58.09,,N,29.45,28.67,,Overcast
KIGQ,10/03/2016 10:15 UTC,30.1,59.9,58.64,93.8,0.0,0.0,,,,,,504.0,,,,10.0,,KIGQ 031015Z AUTO 00000KT 10SM OVC050 16/15 A3010 RMK AO2  T01550148,,,5000.0,,,58.09,,N,29.45,28.67,,Overcast
KIGQ,10/03/2016 10:35 UTC,30.1,60.08,58.46,93.8,3.44,350.0,,,,,,504.0,,,,10.0,,KIGQ 031035Z AUTO 35003KT 10SM OVC050 16/15 A3010 RMK AO2  T01560147,,,5000.0,,,58.27,,N,29.45,28.66,,Overcast
KIGQ,10/03/2016 10:55 UTC,30.1,60.08,58.46,93.8,0.0,0.0,,,,,,504.0,,,,10.0,,KIGQ 031055Z AUTO 00000KT 10SM OVC050 16/15 A3010 RMK AO2  T01560147,,,5000.0,,,58.27,,N,29.45,28.66,,Overcast
KIGQ,10/03/2016 11:15 UTC,30.11,59.9,58.1,93.8,0.0,0.0,,,,,,504.0,,,,10.0,,KIGQ 031115Z AUTO 00000KT 10SM OVC050 16/15 A3011 RMK AO2  T01550145,,,5000.0,,,58.09,,N,29.46,28.68,,Overcast
KIGQ,10/03/2016 11:35 UTC,30.11,59.9,58.28,93.8,0.0,0.0,,,,,,484.0,,,,10.0,,KIGQ 031135Z AUTO 00000KT 10SM OVC048 16/15 A3011 RMK AO2  T01550146,,,4800.0,,,58.09,,N,29.46,28.68,,Overcast
KIGQ,10/03/2016 11:55 UTC,30.11,59.9,58.46,93.8,0.0,0.0,,,,,,484.0,,,,10.0,,KIGQ 031155Z AUTO 00000KT 10SM OVC048 16/15 A3011 RMK AO2  T01550147 10156 20148,60.08,58.64,4800.0,,,58.09,,N,29.46,28.68,,Overcast
KIGQ,10/03/2016 12:15 UTC,30.11,60.08,58.64,93.8,0.0,0.0,,,,,,484.0,,,,10.0,,KIGQ 031215Z AUTO 00000KT 10SM OVC048 16/15 A3011 RMK AO2  T01560148,,,4800.0,,,58.27,,N,29.46,28.67,,Overcast
KIGQ,10/03/2016 12:35 UTC,30.11,60.26,58.82,93.8,3.44,340.0,,,,,,484.0,,,,10.0,,KIGQ 031235Z AUTO 34003KT 10SM OVC048 16/15 A3011 RMK AO2  T01570149,,,4800.0,,,58.45,,NNW,29.46,28.66,,Overcast
KIGQ,10/03/2016 12:55 UTC,30.11,60.8,59.0,93.8,0.0,0.0,,,,,,484.0,,,,10.0,,KIGQ 031255Z AUTO 00000KT 10SM OVC048 16/15 A3011 RMK AO2  T01600150,,,4800.0,,,58.99,,N,29.46,28.63,,Overcast
KIGQ,10/03/2016 13:15 UTC,30.12,60.98,59.0,93.8,0.0,0.0,,,,,,484.0,,,,10.0,,KIGQ 031315Z AUTO 00000KT 10SM OVC048 16/15 A3012 RMK AO2  T01610150,,,4800.0,,,59.17,,N,29.47,28.63,,Overcast
KIGQ,10/03/2016 13:35 UTC,30.12,61.7,59.0,88.02,3.44,320.0,,,,,,464.0,,,,10.0,,KIGQ 031335Z AUTO 32003KT 10SM OVC046 17/15 A3012 RMK AO2  T01650150,,,4600.0,,,58.09,,NW,29.47,28.67,,Overcast
KIGQ,10/03/2016 13:55 UTC,30.12,61.88,59.0,88.02,3.44,310.0,,,,,,464.0,,,,10.0,,KIGQ 031355Z AUTO 31003KT 10SM OVC046 17/15 A3012 RMK AO2  T01660150,,,4600.0,,,58.26,,NW,29.47,28.66,,Overcast
KIGQ,10/03/2016 14:15 UTC,30.12,62.6,59.36,88.02,0.0,0.0,,,,,,484.0,,,,10.0,,KIGQ 031415Z AUTO 00000KT 10SM OVC048 17/15 A3012 RMK AO2  T01700152,,,4800.0,,,58.97,,N,29.47,28.62,,Overcast
KIGQ,10/03/2016 14:35 UTC,30.12,62.96,59.54,88.02,0.0,0.0,,,,,,484.0,,,,10.0,,KIGQ 031435Z AUTO 00000KT 10SM OVC048 17/15 A3012 RMK AO2  T01720153,,,4800.0,,,59.33,,N,29.47,28.59,,Overcast
KIGQ,10/03/2016 14:55 UTC,30.13,63.14,59.36,88.02,0.0,0.0,,,,,,152.0,484.0,,,10.0,,KIGQ 031455Z AUTO 00000KT 10SM SCT015 OVC048 17/15 A3013 RMK AO2  T01730152,,,4800.0,,,59.51,,N,29.47,28.58,,Overcast
KIGQ,10/03/2016 15:15 UTC,30.13,63.32,59.18,88.02,3.44,350.0,,,484.0,,,152.0,223.0,,,10.0,,KIGQ 031515Z AUTO 35003KT 10SM SCT015 BKN022 OVC048 17/15  A3013 RMK AO2 T01740151,,,2200.0,,,59.68,,N,29.47,28.57,,Overcast
KIGQ,10/03/2016 15:35 UTC,30.13,63.5,59.54,82.65,0.0,0.0,,,484.0,,,152.0,222.0,,,10.0,,KIGQ 031535Z AUTO 00000KT 10SM SCT015 SCT022 OVC048 18/15  A3013 RMK AO2 T01750153,,,4800.0,,,58.09,,N,29.47,28.65,,Overcast
KIGQ,10/03/2016 15:55 UTC,30.13,63.86,60.08,88.11,3.44,30.0,,,464.0,,,172.0,232.0,,,10.0,,KIGQ 031555Z AUTO 03003KT 10SM SCT017 SCT023 OVC046 18/16  A3013 RMK AO2 T01770156,,,4600.0,,,60.25,,NNE,29.47,28.53,,Overcast
KIGQ,10/03/2016 16:15 UTC,30.12,64.04,59.72,82.65,0.0,0.0,,,464.0,,,172.0,212.0,,,10.0,,KIGQ 031615Z AUTO 00000KT 10SM SCT017 SCT021 OVC046 18/15  A3012 RMK AO2 T01780154,,,4600.0,,,58.62,,N,29.47,28.62,,Overcast
KIGQ,10/03/2016 16:35 UTC,30.12,64.4,60.08,88.11,4.61,30.0,,,424.0,,,173.0,233.0,,,10.0,,KIGQ 031635Z AUTO 03004KT 10SM BKN017 BKN023 OVC042 18/16  A3012 RMK AO2 T01800156,,,1700.0,,,60.78,,NNE,29.47,28.5,,Overcast
KIGQ,10/03/2016 16:55 UTC,30.12,63.68,59.9,88.11,4.61,40.0,,,,,,172.0,384.0,,,10.0,,KIGQ 031655Z AUTO 04004KT 10SM SCT017 OVC038 18/16 A3012 RMK AO2  T01760155,,,3800.0,,,60.07,,NE,29.47,28.55,,Overcast
KIGQ,10/03/2016 17:15 UTC,30.12,64.04,59.9,88.11,4.61,50.0,,,,,,384.0,,,,10.0,,KIGQ 031715Z AUTO 05004KT 10SM OVC038 18/16 A3012 RMK AO2  T01780155,,,3800.0,,,60.42,,NE,29.47,28.52,,Overcast
KIGQ,10/03/2016 17:35 UTC,30.11,64.04,60.8,88.11,3.44,80.0,,,,,,384.0,,,,10.0,,KIGQ 031735Z AUTO 08003KT 10SM OVC038 18/16 A3011 RMK AO2  T01780160,,,3800.0,,,60.42,,E,29.46,28.51,,Overcast
KIGQ,10/03/2016 17:55 UTC,30.11,64.22,60.08,88.11,0.0,0.0,,,,,,384.0,,,,10.0,,KIGQ 031755Z AUTO 00000KT 10SM OVC038 18/16 A3011 RMK AO2  T01790156 10180 20155,64.4,59.9,3800.0,,,60.6,,N,29.46,28.5,,Overcast
KIGQ,10/03/2016 18:15 UTC,30.1,64.22,59.9,88.11,0.0,0.0,,,,,,384.0,,,,10.0,,KIGQ 031815Z AUTO 00000KT 10SM OVC038 18/16 A3010 RMK AO2  T01790155,,,3800.0,,,60.6,,N,29.45,28.49,,Overcast
KIGQ,10/03/2016 18:35 UTC,30.1,64.04,60.26,88.11,0.0,0.0,,,,,,364.0,,,,10.0,,KIGQ 031835Z AUTO 00000KT 10SM OVC036 18/16 A3010 RMK AO2  T01780157,,,3600.0,,,60.42,,N,29.45,28.5,,Overcast
KIGQ,10/03/2016 18:55 UTC,30.09,63.86,59.72,82.65,0.0,0.0,,,,,,152.0,364.0,,,10.0,,KIGQ 031855Z AUTO 00000KT 10SM SCT015 OVC036 18/15 A3009 RMK AO2  T01770154,,,3600.0,,,58.44,,N,29.44,28.6,,Overcast
KIGQ,10/03/2016 19:15 UTC,30.09,64.04,59.9,88.11,3.44,20.0,,,,,,364.0,,,,10.0,,KIGQ 031915Z AUTO 02003KT 10SM OVC036 18/16 A3009 RMK AO2  T01780155,,,3600.0,,,60.42,,NNE,29.44,28.49,,Overcast
KIGQ,10/03/2016 19:35 UTC,30.08,64.4,59.54,82.65,0.0,0.0,,,,,,384.0,,,,10.0,,KIGQ 031935Z AUTO 00000KT 10SM OVC038 18/15 A3008 RMK AO2  T01800153,,,3800.0,,,58.97,,N,29.43,28.55,,Overcast
KIGQ,10/03/2016 19:55 UTC,30.08,64.4,58.82,82.65,6.91,30.0,,,,,,404.0,,,,10.0,,KIGQ 031955Z AUTO 03006KT 10SM OVC040 18/15 A3008 RMK AO2  T01800149,,,4000.0,,,58.97,,NNE,29.43,28.55,,Overcast
KIGQ,10/03/2016 20:15 UTC,30.08,64.4,59.18,82.65,4.61,30.0,,,,,,424.0,,,,10.0,,KIGQ 032015Z AUTO 03004KT 10SM OVC042 18/15 A3008 RMK AO2  T01800151,,,4200.0,,,58.97,,NNE,29.43,28.55,,Overcast
KIGQ,10/03/2016 20:35 UTC,30.08,64.4,58.82,82.65,4.61,360.0,,,,,,442.0,504.0,,,10.0,,KIGQ 032035Z AUTO 36004KT 10SM SCT044 OVC050 18/15 A3008 RMK AO2  T01800149,,,5000.0,,,58.97,,N,29.43,28.55,,Overcast
KIGQ,10/03/2016 20:55 UTC,30.08,64.4,59.18,82.65,4.61,30.0,,,,,,504.0,,,,10.0,,KIGQ 032055Z AUTO 03004KT 10SM OVC050 18/15 A3008 RMK AO2  T01800151,,,5000.0,,,58.97,,NNE,29.43,28.55,,Overcast
KIGQ,10/03/2016 21:15 UTC,30.08,64.4,59.36,82.65,4.61,30.0,,,,,,504.0,,,,10.0,,KIGQ 032115Z AUTO 03004KT 10SM OVC050 18/15 A3008 RMK AO2  T01800152,,,5000.0,,,58.97,,NNE,29.43,28.55,,Overcast
KIGQ,10/03/2016 21:35 UTC,30.07,64.58,59.72,82.65,3.44,20.0,,,,,,504.0,,,,10.0,,KIGQ 032135Z AUTO 02003KT 10SM OVC050 18/15 A3007 RMK AO2  T01810154,,,5000.0,,,59.14,,NNE,29.42,28.53,,Overcast
KIGQ,10/03/2016 21:55 UTC,30.07,64.4,59.0,82.65,0.0,0.0,,,,,,504.0,,,,10.0,,KIGQ 032155Z AUTO 00000KT 10SM OVC050 18/15 A3007 RMK AO2  T01800150,,,5000.0,,,58.97,,N,29.42,28.54,,Overcast
KIGQ,10/03/2016 22:15 UTC,30.07,64.4,59.18,82.65,4.61,60.0,,,,,,504.0,,,,10.0,,KIGQ 032215Z AUTO 06004KT 10SM OVC050 18/15 A3007 RMK AO2  T01800151,,,5000.0,,,58.97,,ENE,29.42,28.54,,Overcast
KIGQ,10/03/2016 22:35 UTC,30.07,63.86,58.82,82.65,4.61,60.0,,,,,,604.0,,,,10.0,,KIGQ 032235Z AUTO 06004KT 10SM OVC060 18/15 A3007 RMK AO2  T01770149,,,6000.0,,,58.44,,ENE,29.42,28.58,,Overcast
KIGQ,10/03/2016 22:55 UTC,30.06,63.5,58.82,82.65,3.44,70.0,,,,,,604.0,,,,10.0,,KIGQ 032255Z AUTO 07003KT 10SM OVC060 18/15 A3006 RMK AO2  T01750149,,,6000.0,,,58.09,,ENE,29.41,28.59,,Overcast
KIGQ,10/03/2016 23:15 UTC,30.07,62.96,59.18,88.02,0.0,0.0,,,,,,604.0,,,,10.0,,KIGQ 032315Z AUTO 00000KT 10SM OVC060 17/15 A3007 RMK AO2  T01720151,,,6000.0,,,59.33,,N,29.42,28.54,,Overcast
KIGQ,10/03/2016 23:35 UTC,30.07,62.78,59.0,88.02,4.61,80.0,,,,,,604.0,,,,10.0,,KIGQ 032335Z AUTO 08004KT 10SM OVC060 17/15 A3007 RMK AO2  T01710150,,,6000.0,,,59.15,,E,29.42,28.55,,Overcast
KIGQ,10/03/2016 23:55 UTC,30.07,62.24,59.18,88.02,3.44,60.0,,,,,,604.0,,,,10.0,,KIGQ 032355Z AUTO 06003KT 10SM OVC060 17/15 A3007 RMK AO2  T01680151 10182 20168,64.76,62.24,6000.0,,,58.62,,ENE,29.42,28.59,,Overcast
KIGQ,10/04/2016 00:15 UTC,30.07,62.06,59.9,93.84,4.61,70.0,,,,,,604.0,,,,10.0,,KIGQ 040015Z AUTO 07004KT 10SM OVC060 17/16 A3007 RMK AO2  T01670155,,,6000.0,,,60.25,,ENE,29.42,28.51,,Overcast
KIGQ,10/04/2016 00:35 UTC,30.08,61.7,59.54,88.02,4.61,100.0,,,,,,604.0,,,,10.0,,KIGQ 040035Z AUTO 10004KT 10SM OVC060 17/15 A3008 RMK AO2  T01650153,,,6000.0,,,58.09,,E,29.43,28.63,,Overcast
KIGQ,10/04/2016 00:55 UTC,30.08,61.88,59.54,88.02,5.75,90.0,,,,,,604.0,,,,10.0,,KIGQ 040055Z AUTO 09005KT 10SM OVC060 17/15 A3008 RMK AO2  T01660153,,,6000.0,,,58.26,,E,29.43,28.62,,Overcast
KIGQ,10/04/2016 01:15 UTC,30.08,61.7,59.9,93.84,3.44,80.0,,,,,,604.0,,,,10.0,,KIGQ 040115Z AUTO 08003KT 10SM OVC060 17/16 A3008 RMK AO2  T01650155,,,6000.0,,,59.89,,E,29.43,28.54,,Overcast
KIGQ,10/04/2016 01:35 UTC,30.07,61.34,59.72,93.8,3.44,80.0,,,,,,604.0,,,,10.0,,KIGQ 040135Z AUTO 08003KT 10SM OVC060 16/15 A3007 RMK AO2  T01630154,,,6000.0,,,59.52,,E,29.42,28.55,,Overcast
KIGQ,10/04/2016 01:55 UTC,30.07,61.16,59.9,100.0,4.61,90.0,,,,,,604.0,,,,10.0,,KIGQ 040155Z AUTO 09004KT 10SM OVC060 16/16 A3007 RMK AO2  T01620155,,,6000.0,,,61.16,,E,29.42,28.47,,Overcast
KIGQ,10/04/2016 02:15 UTC,30.07,60.62,59.54,93.8,4.61,90.0,,,,,,604.0,,,,10.0,,KIGQ 040215Z AUTO 09004KT 10SM OVC060 16/15 A3007 RMK AO2  T01590153,,,6000.0,,,58.81,,E,29.42,28.6,,Overcast
KIGQ,10/04/2016 02:35 UTC,30.08,60.26,59.72,93.8,4.61,130.0,,,,,,604.0,,,,10.0,,KIGQ 040235Z AUTO 13004KT 10SM OVC060 16/15 A3008 RMK AO2  T01570154,,,6000.0,,,58.45,,SE,29.43,28.63,,Overcast
KIGQ,10/04/2016 02:55 UTC,30.07,60.08,59.54,93.8,3.44,120.0,,,,,,604.0,,,,10.0,,KIGQ 040255Z AUTO 12003KT 10SM OVC060 16/15 A3007 RMK AO2  T01560153,,,6000.0,,,58.27,,ESE,29.42,28.63,,Overcast
KIGQ,10/04/2016 03:15 UTC,30.07,59.0,59.0,100.0,3.44,110.0,,,,,,602.0,,,,10.0,,KIGQ 040315Z AUTO 11003KT 10SM SCT060 15/15 A3007 RMK AO2  T01500150,,,,,,59.0,,ESE,29.42,28.61,,Partly Cloudy
KIGQ,10/04/2016 03:35 UTC,30.07,58.46,58.46,100.0,4.61,120.0,,,,,,1.0,,,,10.0,,KIGQ 040335Z AUTO 12004KT 10SM CLR 15/15 A3007 RMK AO2  T01470147,,,,,,58.46,,ESE,29.42,28.64,,Clear
KIGQ,10/04/2016 03:55 UTC,30.07,58.1,58.1,100.0,3.44,100.0,,,,,,1.0,,,,10.0,,KIGQ 040355Z AUTO 10003KT 10SM CLR 15/15 A3007 RMK AO2  T01450145,,,,,,58.1,,E,29.42,28.66,,Clear
KIGQ,10/04/2016 04:15 UTC,30.07,58.1,58.1,100.0,0.0,0.0,,,,,,1.0,,,,10.0,,KIGQ 040415Z AUTO 00000KT 10SM CLR 15/15 A3007 RMK AO2  T01450145,,,,,,58.1,,N,29.42,28.66,,Clear
KIGQ,10/04/2016 04:35 UTC,30.07,57.56,57.56,100.0,3.44,110.0,,,,,,603.0,,,,10.0,,KIGQ 040435Z AUTO 11003KT 10SM BKN060 14/14 A3007 RMK AO2  T01420142,,,6000.0,,,57.56,,ESE,29.42,28.69,,Mostly Cloudy
KIGQ,10/04/2016 04:55 UTC,30.07,58.46,58.46,100.0,3.44,110.0,,,,,,604.0,,,,10.0,,KIGQ 040455Z AUTO 11003KT 10SM OVC060 15/15 A3007 RMK AO2  T01470147,,,6000.0,,,58.46,,ESE,29.42,28.64,,Overcast
KIGQ,10/04/2016 05:15 UTC,30.07,59.0,59.0,100.0,3.44,120.0,,,,,,604.0,,,,10.0,,KIGQ 040515Z AUTO 12003KT 10SM OVC060 15/15 A3007 RMK AO2  T01500150,,,6000.0,,,59.0,,ESE,29.42,28.61,,Overcast
KIGQ,10/04/2016 05:35 UTC,30.07,59.0,59.0,100.0,4.61,120.0,,,,,,604.0,,,,10.0,,KIGQ 040535Z AUTO 12004KT 10SM OVC060 15/15 A3007 RMK AO2  T01500150,,,6000.0,,,59.0,,ESE,29.42,28.61,,Overcast
KIGQ,10/04/2016 05:55 UTC,30.08,59.36,59.0,100.0,4.61,130.0,,,,,,604.0,,,,10.0,,KIGQ 040555Z AUTO 13004KT 10SM OVC060 15/15 A3008 RMK AO2  T01520150 10168 20141 401820141,62.24,57.38,6000.0,64.76,57.38,59.36,,SE,29.43,28.6,,Overcast
KIGQ,10/04/2016 06:15 UTC,30.08,59.54,59.0,100.0,4.61,120.0,,,,,,604.0,,,,10.0,,KIGQ 040615Z AUTO 12004KT 10SM OVC060 15/15 A3008 RMK AO2  T01530150,,,6000.0,,,59.54,,ESE,29.43,28.59,,Overcast
KIGQ,10/04/2016 06:35 UTC,30.08,59.54,59.0,100.0,5.75,120.0,,,,,,604.0,,,,10.0,,KIGQ 040635Z AUTO 12005KT 10SM OVC060 15/15 A3008 RMK AO2  T01530150,,,6000.0,,,59.54,,ESE,29.43,28.59,,Overcast
KIGQ,10/04/2016 06:55 UTC,30.08,59.9,59.0,93.8,4.61,120.0,,,,,,604.0,,,,10.0,,KIGQ 040655Z AUTO 12004KT 10SM OVC060 16/15 A3008 RMK AO2  T01550150,,,6000.0,,,58.09,,ESE,29.43,28.65,,Overcast
KIGQ,10/04/2016 07:15 UTC,30.08,60.26,59.18,93.8,6.91,120.0,,,,,,604.0,,,,10.0,,KIGQ 040715Z AUTO 12006KT 10SM OVC060 16/15 A3008 RMK AO2  T01570151,,,6000.0,,,58.45,,ESE,29.43,28.63,,Overcast
KIGQ,10/04/2016 07:35 UTC,30.08,60.44,59.18,93.8,8.05,120.0,,,,,,604.0,,,,10.0,,KIGQ 040735Z AUTO 12007KT 10SM OVC060 16/15 A3008 RMK AO2  T01580151,,,6000.0,,,58.63,,ESE,29.43,28.62,,Overcast
KIGQ,10/04/2016 07:55 UTC,30.08,60.44,59.18,93.8,6.91,130.0,,,,,,604.0,,,,10.0,,KIGQ 040755Z AUTO 13006KT 10SM OVC060 16/15 A3008 RMK AO2  T01580151,,,6000.0,,,58.63,,SE,29.43,28.62,,Overcast
KIGQ,10/04/2016 08:15 UTC,30.08,60.44,59.18,93.8,5.75,130.0,,,,,,604.0,,,,10.0,,KIGQ 040815Z AUTO 13005KT 10SM OVC060 16/15 A3008 RMK AO2  T01580151,,,6000.0,,,58.63,,SE,29.43,28.62,,Overcast
KIGQ,10/04/2016 08:35 UTC,30.08,60.44,59.0,93.8,6.91,130.0,,,,,,604.0,,,,10.0,,KIGQ 040835Z AUTO 13006KT 10SM OVC060 16/15 A3008 RMK AO2  T01580150,,,6000.0,,,58.63,,SE,29.43,28.62,,Overcast
KIGQ,10/04/2016 08:55 UTC,30.08,60.44,59.0,93.8,5.75,130.0,,,,,,604.0,,,,10.0,,KIGQ 040855Z AUTO 13005KT 10SM OVC060 16/15 A3008 RMK AO2  T01580150,,,6000.0,,,58.63,,SE,29.43,28.62,,Overcast
KIGQ,10/04/2016 09:15 UTC,30.08,60.08,59.0,93.8,4.61,130.0,,,,,,604.0,,,,10.0,,KIGQ 040915Z AUTO 13004KT 10SM OVC060 16/15 A3008 RMK AO2  T01560150,,,6000.0,,,58.27,,SE,29.43,28.64,,Overcast
KIGQ,10/04/2016 09:35 UTC,30.08,60.08,59.0,93.8,5.75,130.0,,,,,,604.0,,,,10.0,,KIGQ 040935Z AUTO 13005KT 10SM OVC060 16/15 A3008 RMK AO2  T01560150,,,6000.0,,,58.27,,SE,29.43,28.64,,Overcast
KIGQ,10/04/2016 09:55 UTC,30.08,59.9,59.0,93.8,5.75,120.0,,,,,,604.0,,,,10.0,,KIGQ 040955Z AUTO 12005KT 10SM OVC060 16/15 A3008 RMK AO2  T01550150,,,6000.0,,,58.09,,ESE,29.43,28.65,,Overcast
KIGQ,10/04/2016 10:15 UTC,30.09,59.9,58.82,93.8,6.91,130.0,,,,,,604.0,,,,10.0,,KIGQ 041015Z AUTO 13006KT 10SM OVC060 16/15 A3009 RMK AO2  T01550149,,,6000.0,,,58.09,,SE,29.44,28.66,,Overcast
KIGQ,10/04/2016 10:35 UTC,30.09,59.9,59.0,93.8,6.91,130.0,,,,,,604.0,,,,10.0,,KIGQ 041035Z AUTO 13006KT 10SM OVC060 16/15 A3009 RMK AO2  T01550150,,,6000.0,,,58.09,,SE,29.44,28.66,,Overcast
KIGQ,10/04/2016 10:55 UTC,30.09,59.9,58.82,93.8,8.05,130.0,,,,,,604.0,,,,10.0,,KIGQ 041055Z AUTO 13007KT 10SM OVC060 16/15 A3009 RMK AO2  T01550149,,,6000.0,,,58.09,,SE,29.44,28.66,,Overcast
KIGQ,10/04/2016 11:15 UTC,30.09,60.08,59.0,93.8,5.75,120.0,,,,,,604.0,,,,10.0,,KIGQ 041115Z AUTO 12005KT 10SM OVC060 16/15 A3009 RMK AO2  T01560150,,,6000.0,,,58.27,,ESE,29.44,28.65,,Overcast
KIGQ,10/04/2016 11:35 UTC,30.1,60.08,58.64,93.8,4.61,130.0,,,,,,604.0,,,,10.0,,KIGQ 041135Z AUTO 13004KT 10SM OVC060 16/15 A3010 RMK AO2  T01560148,,,6000.0,,,58.27,,SE,29.45,28.66,,Overcast
KIGQ,10/04/2016 11:55 UTC,30.09,60.08,58.46,93.8,5.75,120.0,,,,,,604.0,,,,10.0,,KIGQ 041155Z AUTO 12005KT 10SM OVC060 16/15 A3009 RMK AO2  T01560147 10158 20152,60.44,59.36,6000.0,,,58.27,,ESE,29.44,28.65,,Overcast
KIGQ,10/04/2016 12:15 UTC,30.1,60.26,58.46,93.8,5.75,120.0,,,,,,604.0,,,,10.0,,KIGQ 041215Z AUTO 12005KT 10SM OVC060 16/15 A3010 RMK AO2  T01570147,,,6000.0,,,58.45,,ESE,29.45,28.65,,Overcast
KIGQ,10/04/2016 12:35 UTC,30.1,60.26,58.64,93.8,4.61,130.0,,,,,,604.0,,,,10.0,,KIGQ 041235Z AUTO 13004KT 10SM OVC060 16/15 A3010 RMK AO2  T01570148,,,6000.0,,,58.45,,SE,29.45,28.65,,Overcast
KIGQ,10/04/2016 12:55 UTC,30.1,60.62,58.46,93.8,4.61,130.0,,,,,,604.0,,,,10.0,,KIGQ 041255Z AUTO 13004KT 10SM OVC060 16/15 A3010 RMK AO2  T01590147,,,6000.0,,,58.81,,SE,29.45,28.63,,Overcast
KIGQ,10/04/2016 13:15 UTC,30.09,60.8,58.82,93.8,5.75,130.0,,,,,,,,,,10.0,,KIGQ 041315Z AUTO 13005KT 10SM 16/15 A3009 RMK AO2 T01600149,,,,,,58.99,,SE,29.44,28.61,,
KIGQ,10/04/2016 13:35 UTC,30.09,61.34,58.82,93.8,6.91,140.0,,,,,,654.0,,,,10.0,,KIGQ 041335Z AUTO 14006KT 10SM OVC065 16/15 A3009 RMK AO2  T01630149,,,6500.0,,,59.52,,SE,29.44,28.57,,Overcast
KIGQ,10/04/2016 13:55 UTC,30.09,61.88,59.0,88.02,8.05,130.0,,,,,,654.0,,,,10.0,,KIGQ 041355Z AUTO 13007KT 10SM OVC065 17/15 A3009 RMK AO2  T01660150,,,6500.0,,,58.26,,SE,29.44,28.63,,Overcast
KIGQ,10/04/2016 14:15 UTC,30.09,62.78,59.18,88.02,9.22,130.0,,,,,,654.0,,,,10.0,,KIGQ 041415Z AUTO 13008KT 10SM OVC065 17/15 A3009 RMK AO2  T01710151,,,6500.0,,,59.15,,SE,29.44,28.57,,Overcast
KIGQ,10/04/2016 14:35 UTC,30.09,64.94,59.9,88.11,8.05,130.0,,,,,,654.0,,,,10.0,,KIGQ 041435Z AUTO 13007KT 030V310 10SM OVC065 18/16 A3009 RMK AO2  T01830155,,,6500.0,,,61.31,,SE,29.44,28.43,,Overcast
KIGQ,10/04/2016 14:55 UTC,30.1,66.38,60.08,82.77,9.22,140.0,,,,,,652.0,,,,10.0,,KIGQ 041455Z AUTO 14008KT 10SM SCT065 19/16 A3010 RMK AO2  T01910156,,,,,,60.95,,SE,29.45,28.45,,Partly Cloudy
KIGQ,10/04/2016 15:15 UTC,30.09,68.18,60.44,77.79,8.05,150.0,,,,,,1.0,,,,10.0,,KIGQ 041515Z AUTO 15007KT 10SM CLR 20/16 A3009 RMK AO2  T02010158,,,,,,60.94,,SSE,29.44,28.41,,Clear
KIGQ,10/04/2016 15:35 UTC,30.09,69.26,60.26,73.15,8.05,130.0,,,,,,1.0,,,,10.0,,KIGQ 041535Z AUTO 13007KT 10SM CLR 21/16 A3009 RMK AO2  T02070157,,,,,,60.25,,SE,29.44,28.44,,Clear
KIGQ,10/04/2016 15:55 UTC,30.09,70.34,60.62,73.15,11.5,130.0,,,,,,1.0,,,,10.0,,KIGQ 041555Z AUTO 13010KT 10SM CLR 21/16 A3009 RMK AO2  T02130159,,,,,,61.29,,SE,29.44,28.37,,Clear
KIGQ,10/04/2016 16:15 UTC,30.09,70.88,60.98,68.81,9.22,140.0,,,,,,1.0,,,,10.0,,KIGQ 041615Z AUTO 14008KT 10SM CLR 22/16 A3009 RMK AO2  T02160161,,,,,,60.08,,SE,29.44,28.43,,Clear
KIGQ,10/04/2016 16:35 UTC,30.08,72.32,60.8,68.81,10.36,140.0,,,,,,1.0,,,,10.0,,KIGQ 041635Z AUTO 14009KT 10SM CLR 22/16 A3008 RMK AO2  T02240160,,,,,,61.46,,SE,29.43,28.33,,Clear
KIGQ,10/04/2016 16:55 UTC,30.08,71.78,59.9,68.81,9.22,140.0,,,,,,1.0,,,,10.0,,KIGQ 041655Z AUTO 14008KT 10SM CLR 22/16 A3008 RMK AO2  T02210155,,,,,,60.94,,SE,29.43,28.36,,Clear
KIGQ,10/04/2016 17:15 UTC,30.08,71.42,59.72,64.54,6.91,160.0,,,,,,382.0,462.0,,,10.0,,KIGQ 041715Z AUTO 16006KT 10SM SCT038 SCT046 22/15 A3008 RMK AO2  T02190154,,,,,,58.79,,SSE,29.43,28.48,,Partly Cloudy
KIGQ,10/04/2016 17:35 UTC,30.07,72.32,59.54,64.54,8.05,140.0,,,,,,402.0,462.0,,,10.0,,KIGQ 041735Z AUTO 14007KT 10SM SCT040 SCT046 22/15 A3007 RMK AO2  T02240153,,,,,,59.65,,SE,29.42,28.42,,Partly Cloudy
KIGQ,10/04/2016 17:55 UTC,30.06,74.48,59.54,57.2,11.5,170.0,,,,,,602.0,,,,10.0,,KIGQ 041755Z AUTO 17010KT 10SM SCT060 24/15 A3006 RMK AO2  T02360153 10236 20156,74.48,60.08,,,,58.3,,S,29.41,28.46,,Partly Cloudy
KIGQ,10/04/2016 18:15 UTC,30.06,73.76,58.28,60.75,9.22,150.0,,,,,,503.0,603.0,,,10.0,,KIGQ 041815Z AUTO 15008KT 10SM BKN050 BKN060 23/15 A3006 RMK AO2  T02320146,,,5000.0,,,59.31,,SSE,29.41,28.41,,Mostly Cloudy
KIGQ,10/04/2016 18:35 UTC,30.05,74.66,58.82,57.2,9.22,140.0,,,,,,502.0,604.0,,,10.0,,KIGQ 041835Z AUTO 14008KT 10SM SCT050 OVC060 24/15 A3005 RMK AO2  T02370149,,,6000.0,,,58.47,,SE,29.4,28.44,,Overcast
KIGQ,10/04/2016 18:55 UTC,30.04,73.04,57.74,56.95,8.05,180.0,,,,,,502.0,703.0,,,10.0,,KIGQ 041855Z AUTO 18007KT 10SM SCT050 BKN070 23/14 A3004 RMK AO2  T02280143,,,7000.0,,,56.83,,S,29.39,28.53,,Mostly Cloudy
KIGQ,10/04/2016 19:15 UTC,30.04,74.66,57.92,53.62,5.75,160.0,,,,,,703.0,,,,10.0,,KIGQ 041915Z AUTO 16005KT 10SM BKN070 24/14 A3004 RMK AO2  T02370144,,,7000.0,,,56.67,,SSE,29.39,28.52,,Mostly Cloudy
KIGQ,10/04/2016 19:35 UTC,30.03,76.1,59.0,53.88,9.22,120.0,,,,,,703.0,,,,10.0,,KIGQ 041935Z AUTO 12008KT 10SM BKN070 25/15 A3003 RMK AO2  T02450150,,,7000.0,,,58.15,,ESE,29.38,28.42,,Mostly Cloudy
KIGQ,10/04/2016 19:55 UTC,30.02,73.4,58.28,60.75,10.36,100.0,,,,,,702.0,,,,10.0,,KIGQ 041955Z AUTO 10009KT 10SM SCT070 23/15 A3002 RMK AO2  T02300146,,,,,,58.97,,E,29.37,28.39,,Partly Cloudy
KIGQ,10/04/2016 20:15 UTC,30.02,73.58,57.74,56.95,8.05,130.0,,,,,,702.0,,,,10.0,,KIGQ 042015Z AUTO 13007KT 10SM SCT070 23/14 A3002 RMK AO2  T02310143,,,,,,57.34,,SE,29.37,28.48,,Partly Cloudy
KIGQ,10/04/2016 20:35 UTC,30.01,74.66,58.46,57.2,8.05,110.0,,,,,,1.0,,,,10.0,,KIGQ 042035Z AUTO 11007KT 10SM CLR 24/15 A3001 RMK AO2  T02370147,,,,,,58.47,,ESE,29.36,28.4,,Clear
KIGQ,10/04/2016 20:55 UTC,30.0,76.28,58.82,53.88,9.22,110.0,,,,,,1.0,,,,10.0,,KIGQ 042055Z AUTO 11008KT 10SM CLR 25/15 A3000 RMK AO2  T02460149,,,,,,58.32,,ESE,29.35,28.38,,Clear
KIGQ,10/04/2016 21:15 UTC,30.0,75.56,58.82,57.2,10.36,110.0,,,,,,702.0,,,,10.0,,KIGQ 042115Z AUTO 11009KT 10SM SCT070 24/15 A3000 RMK AO2  T02420149,,,,,,59.32,,ESE,29.35,28.33,,Partly Cloudy
KIGQ,10/04/2016 21:35 UTC,30.0,74.3,57.56,53.62,9.22,120.0,,,,,,602.0,703.0,,,10.0,,KIGQ 042135Z AUTO 12008KT 10SM SCT060 BKN070 24/14 A3000 RMK AO2  T02350142,,,7000.0,,,56.34,,ESE,29.35,28.5,,Mostly Cloudy
KIGQ,10/04/2016 21:55 UTC,29.99,73.4,58.1,60.75,9.22,110.0,,,,,,602.0,703.0,,,10.0,,KIGQ 042155Z AUTO 11008KT 10SM SCT060 BKN070 23/15 A2999 RMK AO2  T02300145,,,7000.0,,,58.97,,ESE,29.34,28.36,,Mostly Cloudy
KIGQ,10/04/2016 22:15 UTC,29.98,73.94,57.92,56.95,9.22,120.0,,,,,,702.0,,,,10.0,,KIGQ 042215Z AUTO 12008KT 10SM SCT070 23/14 A2998 RMK AO2  T02330144,,,,,,57.68,,ESE,29.33,28.41,,Partly Cloudy
KIGQ,10/04/2016 22:35 UTC,29.98,72.5,58.28,60.75,6.91,110.0,,,,,,1.0,,,,10.0,,KIGQ 042235Z AUTO 11006KT 10SM CLR 23/15 A2998 RMK AO2 LTG DSNT W  T02250146,,,,,,58.12,,ESE,29.33,28.41,,Clear
KIGQ,10/04/2016 22:55 UTC,29.98,71.96,58.82,64.54,5.75,120.0,,,,,,1.0,,,,10.0,,KIGQ 042255Z AUTO 12005KT 10SM CLR 22/15 A2998 RMK AO2  T02220149,,,,,,59.31,,ESE,29.33,28.35,,Clear
KIGQ,10/04/2016 23:15 UTC,29.98,71.06,58.46,64.54,5.75,110.0,,,,,,1.0,,,,10.0,,KIGQ 042315Z AUTO 11005KT 10SM CLR 22/15 A2998 RMK AO2  T02170147,,,,,,58.45,,ESE,29.33,28.4,,Clear
KIGQ,10/04/2016 23:35 UTC,29.98,69.08,58.28,68.61,6.91,110.0,,,,,,1.0,,,,10.0,,KIGQ 042335Z AUTO 11006KT 10SM CLR 21/15 A2998 RMK AO2  T02060146,,,,,,58.27,,ESE,29.33,28.43,,Clear
KIGQ,10/04/2016 23:55 UTC,29.98,68.0,58.28,72.97,5.75,110.0,,,,,,1.0,,,,10.0,,KIGQ 042355Z AUTO 11005KT 10SM CLR 20/15 A2998 RMK AO2 T02000146  10246 20200,76.28,68.0,,,,58.96,,ESE,29.33,28.41,,Clear
KIGQ,10/05/2016 00:15 UTC,29.98,67.1,58.28,72.97,4.61,110.0,,,,,,1.0,,,,10.0,,KIGQ 050015Z AUTO 11004KT 10SM CLR 20/15 A2998 RMK AO2  T01950146,,,,,,58.09,,ESE,29.33,28.46,,Clear
KIGQ,10/05/2016 00:35 UTC,29.98,66.74,58.28,77.64,4.61,100.0,,,,,,1.0,,,,10.0,,KIGQ 050035Z AUTO 10004KT 10SM CLR 19/15 A2998 RMK AO2  T01930146,,,,,,59.49,,E,29.33,28.4,,Clear
KIGQ,10/05/2016 00:55 UTC,29.98,,,,4.61,110.0,,,,,,,,,,,,KIGQ 050055Z AUTO 11004KT A2998 RMK AO2 PWINO,,,,,,,,ESE,29.33,,,
KIGQ,10/05/2016 01:15 UTC,29.98,64.76,58.28,82.65,5.75,110.0,,,,,,1.0,,,,10.0,,KIGQ 050115Z AUTO 11005KT 10SM CLR 18/15 A2998 RMK AO2  T01820146,,,,,,59.32,,ESE,29.33,28.43,,Clear
KIGQ,10/05/2016 01:35 UTC,29.99,64.4,58.28,82.65,5.75,120.0,,,,,,1.0,,,,10.0,,KIGQ 050135Z AUTO 12005KT 10SM CLR 18/15 A2999 RMK AO2  T01800146,,,,,,58.97,,ESE,29.34,28.46,,Clear
KIGQ,10/05/2016 01:55 UTC,29.99,64.58,58.1,82.65,6.91,120.0,,,,,,1.0,,,,10.0,,KIGQ 050155Z AUTO 12006KT 10SM CLR 18/15 A2999 RMK AO2  T01810145,,,,,,59.14,,ESE,29.34,28.45,,Clear
KIGQ,10/05/2016 02:15 UTC,29.99,64.94,58.28,82.65,4.61,140.0,,,,,,1.0,,,,10.0,,KIGQ 050215Z AUTO 14004KT 10SM CLR 18/15 A2999 RMK AO2  T01830146,,,,,,59.5,,SE,29.34,28.43,,Clear
KIGQ,10/05/2016 02:35 UTC,29.99,64.04,58.1,82.65,4.61,140.0,,,,,,1.0,,,,10.0,,KIGQ 050235Z AUTO 14004KT 10SM CLR 18/15 A2999 RMK AO2  T01780145,,,,,,58.62,,SE,29.34,28.48,,Clear
KIGQ,10/05/2016 02:55 UTC,29.99,63.14,58.1,88.02,5.75,120.0,,,,,,1.0,,,,10.0,,KIGQ 050255Z AUTO 12005KT 10SM CLR 17/15 A2999 RMK AO2  T01730145,,,,,,59.51,,ESE,29.34,28.45,,Clear
KIGQ,10/05/2016 03:15 UTC,29.99,63.86,58.46,82.65,5.75,140.0,,,,,,1.0,,,,10.0,,KIGQ 050315Z AUTO 14005KT 10SM CLR 18/15 A2999 RMK AO2  T01770147,,,,,,58.44,,SE,29.34,28.49,,Clear
KIGQ,10/05/2016 03:35 UTC,29.99,63.32,58.28,88.02,5.75,130.0,,,,,,1.0,,,,10.0,,KIGQ 050335Z AUTO 13005KT 10SM CLR 17/15 A2999 RMK AO2  T01740146,,,,,,59.68,,SE,29.34,28.44,,Clear
KIGQ,10/05/2016 03:55 UTC,29.99,62.6,58.28,88.02,5.75,130.0,,,,,,1.0,,,,10.0,,KIGQ 050355Z AUTO 13005KT 10SM CLR 17/15 A2999 RMK AO2  T01700146,,,,,,58.97,,SE,29.34,28.48,,Clear
KIGQ,10/05/2016 04:15 UTC,29.99,62.6,58.28,88.02,5.75,120.0,,,,,,1.0,,,,10.0,,KIGQ 050415Z AUTO 12005KT 10SM CLR 17/15 A2999 RMK AO2  T01700146,,,,,,58.97,,ESE,29.34,28.48,,Clear
KIGQ,10/05/2016 04:35 UTC,29.99,61.88,58.28,88.02,5.75,120.0,,,,,,1.0,,,,10.0,,KIGQ 050435Z AUTO 12005KT 10SM CLR 17/15 A2999 RMK AO2  T01660146,,,,,,58.26,,ESE,29.34,28.53,,Clear
KIGQ,10/05/2016 04:55 UTC,29.99,62.06,58.28,88.02,5.75,130.0,,,,,,1.0,,,,10.0,,KIGQ 050455Z AUTO 13005KT 10SM CLR 17/15 A2999 RMK AO2  T01670146,,,,,,58.44,,SE,29.34,28.52,,Clear
KIGQ,10/05/2016 05:15 UTC,29.99,61.7,58.1,88.02,3.44,120.0,,,,,,1.0,,,,10.0,,KIGQ 050515Z AUTO 12003KT 10SM CLR 17/15 A2999 RMK AO2  T01650145,,,,,,58.09,,ESE,29.34,28.54,,Clear
KIGQ,10/05/2016 05:35 UTC,29.99,60.98,58.1,93.8,3.44,130.0,,,,,,1.0,,,,10.0,,KIGQ 050535Z AUTO 13003KT 10SM CLR 16/15 A2999 RMK AO2  T01610145,,,,,,59.17,,SE,29.34,28.49,,Clear
KIGQ,10/05/2016 05:55 UTC,29.99,60.8,58.1,93.8,3.44,130.0,,,,,,1.0,,,,10.0,,KIGQ 050555Z AUTO 13003KT 10SM CLR 16/15 A2999 RMK AO2 T01600145  10185 20160,65.3,60.8,,,,58.99,,SE,29.34,28.5,,Clear
KIGQ,10/05/2016 06:15 UTC,29.99,60.8,58.1,93.8,4.61,130.0,,,,,,1.0,,,,10.0,,KIGQ 050615Z AUTO 13004KT 10SM CLR 16/15 A2999 RMK AO2  T01600145,,,,,,58.99,,SE,29.34,28.5,,Clear
KIGQ,10/05/2016 06:35 UTC,29.99,61.52,58.46,93.8,4.61,140.0,,,,,,1.0,,,,10.0,,KIGQ 050635Z AUTO 14004KT 10SM CLR 16/15 A2999 RMK AO2  T01640147,,,,,,59.7,,SE,29.34,28.46,,Clear
KIGQ,10/05/2016 06:55 UTC,29.99,61.88,58.82,88.02,5.75,140.0,,,,,,1.0,,,,10.0,,KIGQ 050655Z AUTO 14005KT 10SM CLR 17/15 A2999 RMK AO2  T01660149,,,,,,58.26,,SE,29.34,28.53,,Clear
KIGQ,10/05/2016 07:15 UTC,29.98,62.06,59.0,88.02,4.61,130.0,,,,,,652.0,,,,10.0,,KIGQ 050715Z AUTO 13004KT 10SM SCT065 17/15 A2998 RMK AO2  T01670150,,,,,,58.44,,SE,29.33,28.51,,Partly Cloudy
KIGQ,10/05/2016 07:35 UTC,29.98,62.78,59.36,88.02,5.75,130.0,,,,,,652.0,,,,10.0,,KIGQ 050735Z AUTO 13005KT 10SM SCT065 17/15 A2998 RMK AO2  T01710152,,,,,,59.15,,SE,29.33,28.46,,Partly Cloudy
KIGQ,10/05/2016 07:55 UTC,29.97,63.68,59.9,88.11,6.91,130.0,,,,,,652.0,,,,10.0,,KIGQ 050755Z AUTO 13006KT 10SM SCT065 18/16 A2997 RMK AO2  T01760155,,,,,,60.07,,SE,29.32,28.39,,Partly Cloudy
KIGQ,10/05/2016 08:15 UTC,29.97,64.58,60.26,88.11,5.75,140.0,,,,,,604.0,,,,10.0,,KIGQ 050815Z AUTO 14005KT 10SM OVC060 18/16 A2997 RMK AO2  T01810157,,,6000.0,,,60.95,,SE,29.32,28.34,,Overcast
KIGQ,10/05/2016 08:35 UTC,29.96,65.84,60.44,82.77,10.36,150.0,16.11,,,,,602.0,,,,10.0,,KIGQ 050835Z AUTO 15009G14KT 10SM SCT060 19/16 A2996 RMK AO2  T01880158,,,,,,60.42,,SSE,29.31,28.34,,Partly Cloudy
KIGQ,10/05/2016 08:55 UTC,29.96,66.38,60.8,82.77,9.22,150.0,,,,,,603.0,,,,10.0,,KIGQ 050855Z AUTO 15008KT 10SM BKN060 19/16 A2996 RMK AO2  T01910160,,,6000.0,,,60.95,,SSE,29.31,28.3,,Mostly Cloudy
KIGQ,10/05/2016 09:15 UTC,29.96,66.2,60.8,82.77,10.36,150.0,,,,,,604.0,,,,10.0,,KIGQ 050915Z AUTO 15009KT 10SM OVC060 19/16 A2996 RMK AO2  T01900160,,,6000.0,,,60.77,,SSE,29.31,28.32,,Overcast
KIGQ,10/05/2016 09:35 UTC,29.96,65.3,60.62,82.77,8.05,150.0,,,,,,603.0,803.0,,,10.0,,KIGQ 050935Z AUTO 15007KT 10SM BKN060 BKN080 19/16 A2996 RMK AO2  T01850159,,,6000.0,,,59.89,,SSE,29.31,28.37,,Mostly Cloudy
KIGQ,10/05/2016 09:55 UTC,29.96,65.48,60.8,82.77,11.5,140.0,,,,,,702.0,802.0,,,10.0,,KIGQ 050955Z AUTO 14010KT 10SM SCT070 SCT080 19/16 A2996 RMK AO2  T01860160,,,,,,60.07,,SE,29.31,28.36,,Partly Cloudy
KIGQ,10/05/2016 10:15 UTC,29.96,65.3,60.8,82.77,9.22,160.0,,,,,,702.0,802.0,,,10.0,,KIGQ 051015Z AUTO 16008KT 10SM SCT070 SCT080 19/16 A2996 RMK AO2  T01850160,,,,,,59.89,,SSE,29.31,28.37,,Partly Cloudy
KIGQ,10/05/2016 10:35 UTC,29.96,65.12,60.8,88.11,8.05,150.0,,,,,,702.0,802.0,,,10.0,,KIGQ 051035Z AUTO 15007KT 10SM SCT070 SCT080 18/16 A2996 RMK AO2  T01840160,,,,,,61.49,,SSE,29.31,28.29,,Partly Cloudy
KIGQ,10/05/2016 10:55 UTC,29.96,65.66,60.98,82.77,9.22,160.0,,,,,,702.0,903.0,,,10.0,,KIGQ 051055Z AUTO 16008KT 10SM SCT070 BKN090 19/16 A2996 RMK AO2  T01870161,,,9000.0,,,60.24,,SSE,29.31,28.35,,Mostly Cloudy
KIGQ,10/05/2016 11:15 UTC,29.96,65.12,60.8,88.11,12.66,160.0,18.41,,,,,702.0,,,,10.0,,KIGQ 051115Z AUTO 16011G16KT 10SM SCT070 18/16 A2996 RMK AO2  T01840160,,,,,,61.49,,SSE,29.31,28.29,,Partly Cloudy
KIGQ,10/05/2016 11:35 UTC,29.96,64.94,60.8,88.11,12.66,160.0,,,,,,1.0,,,,10.0,,KIGQ 051135Z AUTO 16011KT 10SM CLR 18/16 A2996 RMK AO2  T01830160,,,,,,61.31,,SSE,29.31,28.3,,Clear
KIGQ,10/05/2016 11:55 UTC,29.96,65.12,60.98,88.11,10.36,160.0,,,,,,753.0,,,,10.0,,KIGQ 051155Z AUTO 16009KT 10SM BKN075 18/16 A2996 RMK AO2 7////  T01840161 10192 20160,66.56,60.8,7500.0,,,61.49,,SSE,29.31,28.29,,Mostly Cloudy
KIGQ,10/05/2016 12:15 UTC,29.96,64.94,60.8,88.11,11.5,150.0,,,,,,753.0,,,,10.0,,KIGQ 051215Z AUTO 15010KT 10SM BKN075 18/16 A2996 RMK AO2  T01830160,,,7500.0,,,61.31,,SSE,29.31,28.3,,Mostly Cloudy
KIGQ,10/05/2016 12:35 UTC,29.96,65.48,60.98,82.77,9.22,150.0,18.41,,,,,1.0,,,,10.0,,KIGQ 051235Z AUTO 15008G16KT 10SM CLR 19/16 A2996 RMK AO2  T01860161,,,,,,60.07,,SSE,29.31,28.36,,Clear
KIGQ,10/05/2016 12:55 UTC,29.96,66.74,61.52,82.77,11.5,160.0,,,,,,1.0,,,,10.0,,KIGQ 051255Z AUTO 16010KT 060V180 10SM CLR 19/16 A2996 RMK AO2  T01930164,,,,,,61.3,,SSE,29.31,28.28,,Clear
KIGQ,10/05/2016 13:15 UTC,29.96,67.28,61.7,82.89,16.11,160.0,21.85,,,,,752.0,,,,10.0,,KIGQ 051315Z AUTO 16014G19KT 10SM SCT075 20/17 A2996 RMK AO2  T01960165,,,,,,61.87,,SSE,29.31,28.24,,Partly Cloudy
KIGQ,10/05/2016 13:35 UTC,29.96,68.18,61.88,82.89,17.27,160.0,21.85,,,,,752.0,,,,10.0,,KIGQ 051335Z AUTO 16015G19KT 10SM SCT075 20/17 A2996 RMK AO2  T02010166,,,,,,62.75,,SSE,29.31,28.18,,Partly Cloudy
KIGQ,10/05/2016 13:55 UTC,29.96,68.9,62.6,77.94,14.97,170.0,19.57,,,,,752.0,,,,10.0,,KIGQ 051355Z AUTO 17013G17KT 10SM SCT075 21/17 A2996 RMK AO2  T02050170,,,,,,61.7,,S,29.31,28.23,,Partly Cloudy
KIGQ,10/05/2016 14:15 UTC,29.97,69.62,62.96,77.94,14.97,180.0,23.02,,,,,1.0,,,,10.0,,KIGQ 051415Z AUTO 18013G20KT 10SM CLR 21/17 A2997 RMK AO2  T02090172,,,,,,62.4,,S,29.32,28.19,,Clear
KIGQ,10/05/2016 14:35 UTC,29.96,70.88,63.14,73.32,14.97,180.0,20.71,,,,,1.0,,,,10.0,,KIGQ 051435Z AUTO 18013G18KT 10SM CLR 22/17 A2996 RMK AO2  T02160173,,,,,,61.88,,S,29.31,28.2,,Clear
KIGQ,10/05/2016 14:55 UTC,29.97,71.96,63.32,73.32,18.41,180.0,23.02,,,,,652.0,,,,10.0,,KIGQ 051455Z AUTO 18016G20KT 10SM SCT065 22/17 A2997 RMK AO2  T02220174,,,,,,62.92,,S,29.32,28.13,,Partly Cloudy
KIGQ,10/05/2016 15:15 UTC,29.96,73.04,63.86,73.5,16.11,190.0,20.71,,,,,652.0,,,,10.0,,KIGQ 051515Z AUTO 19014G18KT 10SM SCT065 23/18 A2996 RMK AO2  T02280177,,,,,,64.03,,S,29.31,28.04,,Partly Cloudy
KIGQ,10/05/2016 15:35 UTC,29.96,74.66,64.4,69.21,14.97,200.0,20.71,,,,,1.0,,,,10.0,,KIGQ 051535Z AUTO 20013G18KT 10SM CLR 24/18 A2996 RMK AO2  T02370180,,,,,,63.87,,SSW,29.31,28.03,,Clear
KIGQ,10/05/2016 15:55 UTC,29.95,75.74,64.22,69.21,18.41,190.0,23.02,,,,,1.0,,,,10.0,,KIGQ 051555Z AUTO 19016G20KT 10SM CLR 24/18 A2995 RMK AO2  T02430179,,,,,,64.91,,S,29.3,27.95,,Clear
KIGQ,10/05/2016 16:15 UTC,29.95,76.1,64.58,65.2,14.97,200.0,,,,,,1.0,,,,10.0,,KIGQ 051615Z AUTO 20013KT 10SM CLR 25/18 A2995 RMK AO2  T02450181,,,,,,63.54,,SSW,29.3,28.03,,Clear
KIGQ,10/05/2016 16:35 UTC,29.95,75.2,63.5,69.21,17.27,190.0,23.02,,,,,602.0,1002.0,,,10.0,,KIGQ 051635Z AUTO 19015G20KT 10SM SCT060 SCT100 24/18 A2995 RMK AO2 T02400175,,,,,,64.39,,S,29.3,27.99,,Partly Cloudy
KIGQ,10/05/2016 16:55 UTC,29.94,75.74,64.4,69.21,14.97,190.0,,,,,,602.0,1102.0,,,10.0,,KIGQ 051655Z AUTO 19013KT 10SM SCT060 SCT110 24/18 A2994 RMK AO2  T02430180,,,,,,64.91,,S,29.29,27.94,,Partly Cloudy
KIGQ,10/05/2016 17:15 UTC,29.94,76.28,64.4,65.2,18.41,190.0,21.85,,1103.0,,,703.0,953.0,,,10.0,,KIGQ 051715Z AUTO 19016G19KT 10SM BKN070 BKN095 BKN110 25/18  A2994 RMK AO2 T02460180,,,7000.0,,,63.71,,S,29.29,28.01,,Mostly Cloudy
KIGQ,10/05/2016 17:35 UTC,29.95,77.36,64.76,65.2,16.11,200.0,21.85,,954.0,,,432.0,703.0,,,10.0,,KIGQ 051735Z AUTO 20014G19KT 10SM SCT043 BKN070 OVC095 25/18  A2995 RMK AO2 T02520182,,,7000.0,,,64.74,,SSW,29.3,27.94,,Overcast
KIGQ,10/05/2016 17:55 UTC,29.96,76.1,64.04,65.2,13.8,210.0,21.85,,954.0,,,433.0,603.0,,,10.0,,KIGQ 051755Z AUTO 21012G19KT 10SM BKN043 BKN060 OVC095 25/18  A2996 RMK AO2 T02450178 10252 20183,77.36,64.94,4300.0,,,63.54,,SSW,29.31,28.04,,Overcast
KIGQ,10/05/2016 18:15 UTC,29.95,77.36,65.12,65.2,13.8,210.0,,,,,,433.0,754.0,,,10.0,,KIGQ 051815Z AUTO 21012KT 10SM BKN043 OVC075 25/18 A2995 RMK AO2  T02520184,,,4300.0,,,64.74,,SSW,29.3,27.94,,Overcast
KIGQ,10/05/2016 18:35 UTC,29.94,78.26,64.76,61.44,14.97,200.0,23.02,,,,,452.0,753.0,,,10.0,,KIGQ 051835Z AUTO 20013G20KT 10SM SCT045 BKN075 26/18 A2994 RMK AO2 T02570182,,,7500.0,,,63.89,,SSW,29.29,27.97,,Mostly Cloudy
KIGQ,10/05/2016 18:55 UTC,29.94,78.98,65.12,61.44,17.27,210.0,20.71,,854.0,,,432.0,503.0,,,10.0,,KIGQ 051855Z AUTO 21015G18KT 10SM SCT043 BKN050 OVC085 26/18  A2994 RMK AO2 T02610184,,,5000.0,,,64.57,,SSW,29.29,27.92,,Overcast
KIGQ,10/05/2016 19:15 UTC,29.94,77.0,64.76,65.2,10.36,220.0,,,854.0,,,432.0,753.0,,,10.0,,KIGQ 051915Z AUTO 22009KT 10SM SCT043 BKN075 OVC085 25/18  A2994 RMK AO2 T02500182,,,7500.0,,,64.4,,SW,29.29,27.95,,Overcast
KIGQ,10/05/2016 19:35 UTC,29.94,79.34,64.94,61.44,19.57,210.0,25.32,,853.0,,,452.0,503.0,,,10.0,,KIGQ 051935Z AUTO 21017G22KT 10SM SCT045 BKN050 BKN085 26/18  A2994 RMK AO2 T02630183,,,5000.0,,,64.91,,SSW,29.29,27.89,,Mostly Cloudy
KIGQ,10/05/2016 19:55 UTC,29.94,79.7,65.48,61.67,12.66,220.0,17.27,,752.0,,,472.0,502.0,,,10.0,,KIGQ 051955Z AUTO 22011G15KT 10SM SCT047 SCT050 SCT075 27/19  A2994 RMK AO2 T02650186,,,,,,65.36,,SW,29.29,27.86,,Partly Cloudy
KIGQ,10/05/2016 20:15 UTC,29.94,80.6,63.32,54.4,14.97,230.0,20.71,,,,,502.0,652.0,,,10.0,,KIGQ 052015Z AUTO 23013G18KT 10SM SCT050 SCT065 27/17 A2994 RMK AO2 T02700174,,,,,,62.62,,SW,29.29,28.03,81.85,Partly Cloudy
KIGQ,10/05/2016 20:35 UTC,29.94,79.16,62.6,57.69,13.8,220.0,,,,,,602.0,902.0,,,10.0,,KIGQ 052035Z AUTO 22012KT 10SM SCT060 SCT090 26/17 A2994 RMK AO2  T02620170,,,,,,62.94,,SW,29.29,28.02,,Partly Cloudy
KIGQ,10/05/2016 20:55 UTC,29.95,78.98,62.06,57.69,10.36,230.0,20.71,,,,,602.0,652.0,,,10.0,,KIGQ 052055Z AUTO 23009G18KT 10SM SCT060 SCT065 26/17 A2995 RMK AO2 T02610167,,,,,,62.77,,SW,29.3,28.04,,Partly Cloudy
KIGQ,10/05/2016 21:15 UTC,29.95,80.06,60.8,51.05,14.97,230.0,,,,,,602.0,802.0,,,10.0,,KIGQ 052115Z AUTO 23013KT 10SM SCT060 SCT080 27/16 A2995 RMK AO2  T02670160,,,,,,60.32,,SW,29.3,28.18,80.96,Partly Cloudy
KIGQ,10/05/2016 21:35 UTC,29.95,79.52,60.8,54.14,13.8,240.0,18.41,,,,,702.0,,,,10.0,,KIGQ 052135Z AUTO 24012G16KT 10SM SCT070 26/16 A2995 RMK AO2  T02640160,,,,,,61.48,,WSW,29.3,28.12,,Partly Cloudy
KIGQ,10/05/2016 21:55 UTC,29.95,78.98,60.44,54.14,11.5,220.0,,,,,,1.0,,,,10.0,,KIGQ 052155Z AUTO 22010KT 10SM CLR 26/16 A2995 RMK AO2  T02610158,,,,,,60.97,,SW,29.3,28.15,,Clear
KIGQ,10/05/2016 22:15 UTC,29.96,78.8,60.26,54.14,10.36,230.0,,,,,,702.0,852.0,,,10.0,,KIGQ 052215Z AUTO 23009KT 10SM SCT070 SCT085 26/16 A2996 RMK AO2  T02600157,,,,,,60.81,,SW,29.31,28.17,,Partly Cloudy
KIGQ,10/05/2016 22:35 UTC,29.96,77.36,61.16,57.45,5.75,220.0,,,,,,1.0,,,,10.0,,KIGQ 052235Z AUTO 22005KT 10SM CLR 25/16 A2996 RMK AO2  T02520162,,,,,,61.13,,SW,29.31,28.17,,Clear
KIGQ,10/05/2016 22:55 UTC,29.97,76.46,60.44,57.45,8.05,220.0,,,,,,652.0,,,,10.0,,KIGQ 052255Z AUTO 22007KT 10SM SCT065 25/16 A2997 RMK AO2  T02470158,,,,,,60.29,,SW,29.32,28.24,,Partly Cloudy
KIGQ,10/05/2016 23:15 UTC,29.97,74.66,60.26,60.98,5.75,210.0,,,,,,652.0,,,,10.0,,KIGQ 052315Z AUTO 21005KT 10SM SCT065 24/16 A2997 RMK AO2  T02370157,,,,,,60.27,,SSW,29.32,28.26,,Partly Cloudy
KIGQ,10/05/2016 23:35 UTC,29.98,72.5,59.9,64.76,4.61,230.0,,,,,,1.0,,,,10.0,,KIGQ 052335Z AUTO 23004KT 10SM CLR 23/16 A2998 RMK AO2  T02250155,,,,,,59.92,,SW,29.33,28.31,,Clear
KIGQ,10/05/2016 23:55 UTC,29.99,71.6,59.36,64.54,5.75,210.0,,,,,,1.0,,,,10.0,,KIGQ 052355Z AUTO 21005KT 10SM CLR 22/15 A2999 RMK AO2 T02200152  10271 20220,80.78,71.6,,,,58.96,,SSW,29.34,28.38,,Clear
KIGQ,10/06/2016 00:15 UTC,30.0,67.64,59.54,72.97,3.44,220.0,,,,,,1.0,,,,10.0,,KIGQ 060015Z AUTO 22003KT 10SM CLR 20/15 A3000 RMK AO2  T01980153,,,,,,58.61,,SW,29.35,28.45,,Clear
KIGQ,10/06/2016 00:35 UTC,30.01,68.36,59.36,72.97,3.44,250.0,,,,,,1.0,,,,10.0,,KIGQ 060035Z AUTO 25003KT 10SM CLR 20/15 A3001 RMK AO2  T02020152,,,,,,59.31,,WSW,29.36,28.42,,Clear
KIGQ,10/06/2016 00:55 UTC,30.01,67.46,59.36,72.97,0.0,0.0,,,,,,1.0,,,,10.0,,KIGQ 060055Z AUTO 00000KT 10SM CLR 20/15 A3001 RMK AO2  T01970152,,,,,,58.44,,N,29.36,28.47,,Clear
KIGQ,10/06/2016 01:15 UTC,30.01,66.02,60.08,82.77,0.0,0.0,,,,,,1.0,,,,10.0,,KIGQ 060115Z AUTO 00000KT 10SM CLR 19/16 A3001 RMK AO2  T01890156,,,,,,60.6,,N,29.36,28.38,,Clear
KIGQ,10/06/2016 01:35 UTC,30.02,64.94,59.18,82.65,0.0,0.0,,,,,,1.0,,,,10.0,,KIGQ 060135Z AUTO 00000KT 10SM CLR 18/15 A3002 RMK AO2  T01830151,,,,,,59.5,,N,29.37,28.46,,Clear
KIGQ,10/06/2016 01:55 UTC,30.03,62.42,59.0,88.02,0.0,0.0,,,,,,1.0,,,,10.0,,KIGQ 060155Z AUTO 00000KT 10SM CLR 17/15 A3003 RMK AO2  T01690150,,,,,,58.8,,N,29.38,28.53,,Clear
KIGQ,10/06/2016 02:15 UTC,30.04,62.06,58.46,88.02,0.0,0.0,,,,,,1.0,,,,10.0,,KIGQ 060215Z AUTO 00000KT 10SM CLR 17/15 A3004 RMK AO2  T01670147,,,,,,58.44,,N,29.39,28.57,,Clear
KIGQ,10/06/2016 02:35 UTC,30.04,62.42,58.64,88.02,0.0,0.0,,,,,,1.0,,,,10.0,,KIGQ 060235Z AUTO 00000KT 10SM CLR 17/15 A3004 RMK AO2  T01690148,,,,,,58.8,,N,29.39,28.54,,Clear
KIGQ,10/06/2016 02:55 UTC,30.05,61.52,58.28,93.8,0.0,0.0,,,,,,1.0,,,,10.0,,KIGQ 060255Z AUTO 00000KT 10SM CLR 16/15 A3005 RMK AO2  T01640146,,,,,,59.7,,N,29.4,28.52,,Clear
KIGQ,10/06/2016 03:15 UTC,30.05,62.78,58.64,88.02,0.0,0.0,,,,,,1.0,,,,10.0,,KIGQ 060315Z AUTO 00000KT 10SM CLR 17/15 A3005 RMK AO2  T01710148,,,,,,59.15,,N,29.4,28.53,,Clear
KIGQ,10/06/2016 03:35 UTC,30.06,62.24,59.0,88.02,0.0,0.0,,,,,,1.0,,,,10.0,,KIGQ 060335Z AUTO 00000KT 10SM CLR 17/15 A3006 RMK AO2  T01680150,,,,,,58.62,,N,29.41,28.58,,Clear
KIGQ,10/06/2016 03:55 UTC,30.07,62.24,59.0,88.02,0.0,0.0,,,,,,1.0,,,,10.0,,KIGQ 060355Z AUTO 00000KT 10SM CLR 17/15 A3007 RMK AO2  T01680150,,,,,,58.62,,N,29.42,28.59,,Clear
KIGQ,10/06/2016 04:15 UTC,30.08,62.78,59.18,88.02,3.44,300.0,,,,,,602.0,,,,10.0,,KIGQ 060415Z AUTO 30003KT 10SM SCT060 17/15 A3008 RMK AO2  T01710151,,,,,,59.15,,WNW,29.43,28.56,,Partly Cloudy
KIGQ,10/06/2016 04:35 UTC,30.08,62.06,59.36,88.02,0.0,0.0,,,,,,603.0,,,,10.0,,KIGQ 060435Z AUTO 00000KT 10SM BKN060 17/15 A3008 RMK AO2  T01670152,,,6000.0,,,58.44,,N,29.43,28.61,,Mostly Cloudy
KIGQ,10/06/2016 04:55 UTC,30.08,61.88,59.54,88.02,0.0,0.0,,,,,,604.0,,,,10.0,,KIGQ 060455Z AUTO 00000KT 10SM OVC060 17/15 A3008 RMK AO2  T01660153,,,6000.0,,,58.26,,N,29.43,28.62,,Overcast
KIGQ,10/06/2016 05:15 UTC,30.08,61.88,59.9,93.84,0.0,0.0,,,,,,603.0,,,,10.0,,KIGQ 060515Z AUTO 00000KT 10SM BKN060 17/16 A3008 RMK AO2  T01660155,,,6000.0,,,60.07,,N,29.43,28.53,,Mostly Cloudy
KIGQ,10/06/2016 05:35 UTC,30.09,62.24,60.08,93.84,0.0,0.0,,,,,,602.0,,,,10.0,,KIGQ 060535Z AUTO 00000KT 10SM SCT060 17/16 A3009 RMK AO2  T01680156,,,,,,60.43,,N,29.44,28.52,,Partly Cloudy
KIGQ,10/06/2016 05:55 UTC,30.09,60.8,59.72,93.8,0.0,0.0,,,,,,1.0,,,,10.0,,KIGQ 060555Z AUTO 00000KT 10SM CLR 16/15 A3009 RMK AO2 T01600154  10219 20158 402710158,71.42,60.44,,80.78,60.44,58.99,,N,29.44,28.61,,Clear
KIGQ,10/06/2016 06:15 UTC,30.08,58.1,57.56,93.75,0.0,0.0,,,,,,552.0,,,,10.0,,KIGQ 060615Z AUTO 00000KT 10SM SCT055 15/14 A3008 RMK AO2  T01450142,,,,,,56.29,,N,29.43,28.75,,Partly Cloudy
KIGQ,10/06/2016 06:35 UTC,30.08,60.44,59.54,93.8,0.0,0.0,,,,,,1.0,,,,10.0,,KIGQ 060635Z AUTO 00000KT 10SM CLR 16/15 A3008 RMK AO2  T01580153,,,,,,58.63,,N,29.43,28.62,,Clear
KIGQ,10/06/2016 06:55 UTC,30.08,56.84,56.48,100.0,0.0,0.0,,,,,,1.0,,,,10.0,,KIGQ 060655Z AUTO 00000KT 10SM CLR 14/14 A3008 RMK AO2  T01380136,,,,,,56.84,,N,29.43,28.75,,Clear
KIGQ,10/06/2016 07:15 UTC,30.08,59.9,59.18,93.8,5.75,150.0,,,,,,1.0,,,,10.0,,KIGQ 060715Z AUTO 15005KT 10SM CLR 16/15 A3008 RMK AO2  T01550151,,,,,,58.09,,SSE,29.43,28.65,,Clear
KIGQ,10/06/2016 07:35 UTC,30.08,60.08,59.36,93.8,0.0,0.0,,,,,,1.0,,,,10.0,,KIGQ 060735Z AUTO 00000KT 10SM CLR 16/15 A3008 RMK AO2  T01560152,,,,,,58.27,,N,29.43,28.64,,Clear
KIGQ,10/06/2016 07:55 UTC,30.08,57.2,57.2,100.0,3.44,140.0,,,,,,1.0,,,,10.0,,KIGQ 060755Z AUTO 14003KT 10SM CLR 14/14 A3008 RMK AO2  T01400140,,,,,,57.2,,SE,29.43,28.72,,Clear
KIGQ,10/06/2016 08:15 UTC,30.08,57.02,57.02,100.0,0.0,0.0,,,,,,1.0,,,,7.0,,KIGQ 060815Z AUTO 00000KT 7SM CLR 14/14 A3008 RMK AO2 LTG DSNT W  T01390139,,,,,,57.02,,N,29.43,28.74,,Clear
KIGQ,10/06/2016 08:35 UTC,30.08,57.74,57.74,100.0,0.0,0.0,,,,,,1.0,,,,7.0,,KIGQ 060835Z AUTO 00000KT 7SM CLR 14/14 A3008 RMK AO2  T01430143,,,,,,57.74,,N,29.43,28.69,,Clear
KIGQ,10/06/2016 08:55 UTC,30.08,57.2,57.2,100.0,0.0,0.0,,,,,,1.0,,,,7.0,,KIGQ 060855Z AUTO 00000KT 7SM CLR 14/14 A3008 RMK AO2 LTG DSNT W  T01400140,,,,,,57.2,,N,29.43,28.72,,Clear
KIGQ,10/06/2016 09:15 UTC,30.08,57.38,57.38,100.0,3.44,120.0,,31.0,,,,1.0,,,,3.0,,KIGQ 060915Z AUTO 12003KT 3SM BR CLR 14/14 A3008 RMK AO2 LTG DSNT  SW T01410141,,,,,,57.38,,ESE,29.43,28.71,,Mist
KIGQ,10/06/2016 09:35 UTC,30.07,59.9,59.9,100.0,4.61,110.0,,,,,,1.0,,,,7.0,,KIGQ 060935Z AUTO 11004KT 7SM CLR 16/16 A3007 RMK AO2 LTG DSNT SW  AND W T01550155,,,,,,59.9,,ESE,29.42,28.55,,Clear
KIGQ,10/06/2016 09:55 UTC,30.08,59.9,59.9,100.0,4.61,130.0,,,,,,502.0,,,,7.0,,KIGQ 060955Z AUTO 13004KT 7SM SCT050 16/16 A3008 RMK AO2 LTG DSNT  W T01550155,,,,,,59.9,,SE,29.43,28.56,,Partly Cloudy
KIGQ,10/06/2016 10:15 UTC,30.08,61.52,61.52,100.0,3.44,110.0,,31.0,,,,483.0,,,,5.0,,KIGQ 061015Z AUTO 11003KT 5SM BR BKN048 16/16 A3008 RMK AO2 LTG  DSNT SW AND W T01640164,,,4800.0,,,61.52,,ESE,29.43,28.46,,Mist
KIGQ,10/06/2016 10:35 UTC,30.07,62.24,62.24,100.0,4.61,110.0,,31.0,,,,483.0,,,,5.0,,KIGQ 061035Z AUTO 11004KT 5SM BR BKN048 17/17 A3007 RMK AO2 LTG  DSNT SW AND W T01680168,,,4800.0,,,62.24,,ESE,29.42,28.4,,Mist
KIGQ,10/06/2016 10:55 UTC,30.08,62.42,62.42,100.0,0.0,0.0,,31.0,,,,482.0,,,,5.0,,KIGQ 061055Z AUTO 00000KT 5SM BR SCT048 17/17 A3008 RMK AO2 LTG  DSNT SW T01690169,,,,,,62.42,,N,29.43,28.4,,Mist
KIGQ,10/06/2016 11:15 UTC,30.08,62.6,62.6,100.0,0.0,0.0,,31.0,,,,483.0,,,,5.0,,KIGQ 061115Z AUTO 00000KT 5SM BR BKN048 17/17 A3008 RMK AO2 LTG  DSNT SW AND NW T01700170,,,4800.0,,,62.6,,N,29.43,28.38,,Mist
KIGQ,10/06/2016 11:35 UTC,30.07,62.96,62.96,100.0,3.44,90.0,,5.0,,,,443.0,504.0,,,7.0,,KIGQ 061135Z AUTO 09003KT 7SM VCTS BKN044 OVC050 17/17 A3007 RMK AO2 LTG DSNT SW AND W T01720172,,,4400.0,,,62.96,,E,29.42,28.35,,Thunder
KIGQ,10/06/2016 11:55 UTC,30.1,62.96,62.96,100.0,4.61,250.0,,66.0,704.0,,,393.0,503.0,,,5.0,,KIGQ 061155Z AUTO 25004KT 5SM TSRA BKN039 BKN050 OVC070 17/17  A3010 RMK AO2 LTG DSNT S THRU W T01720172 10173 20135,63.14,56.3,3900.0,,,62.96,,WSW,29.45,28.38,,Thunderstorm
KIGQ,10/06/2016 12:15 UTC,30.13,63.68,63.68,100.0,11.5,200.0,18.41,78.0,554.0,0.11,,82.0,393.0,,,4.0,,KIGQ 061215Z AUTO 20010G16KT 4SM +TSRA SCT008 BKN039 OVC055 18/18  A3013 RMK AO2 LTG DSNT ALQS P0011 T01760176,,,3900.0,,,63.68,,SSW,29.47,28.35,,Heavy Rain/Thunderstorm
KIGQ,10/06/2016 12:35 UTC,30.11,64.04,64.04,100.0,0.0,0.0,,66.0,1004.0,0.22,,322.0,653.0,,,7.0,,KIGQ 061235Z AUTO 00000KT 7SM TSRA SCT032 BKN065 OVC100 18/18  A3011 RMK AO2 LTG DSNT NE THRU SE P0022 T01780178,,,6500.0,,,64.04,,N,29.46,28.31,,Thunderstorm
KIGQ,10/06/2016 12:55 UTC,30.11,63.86,63.86,100.0,3.44,60.0,,77.0,,0.24,,904.0,,,,10.0,,KIGQ 061255Z AUTO 06003KT 10SM -TSRA OVC090 18/18 A3011 RMK AO2  LTG DSNT NE THRU SE P0024 T01770177,,,9000.0,,,63.86,,ENE,29.46,28.33,,Light Rain/Thunderstorm
KIGQ,10/06/2016 13:15 UTC,30.12,64.4,64.4,100.0,3.44,90.0,,13.0,1004.0,,,462.0,902.0,,,10.0,,KIGQ 061315Z AUTO 09003KT 10SM -RA SCT046 SCT090 OVC100 18/18  A3012 RMK AO2 LTG DSNT E THRU S T01800180,,,10000.0,,,64.4,,E,29.47,28.3,,Light Rain
KIGQ,10/06/2016 13:35 UTC,30.13,64.04,64.04,100.0,8.05,130.0,,,,0.12,,373.0,474.0,,,1.0,,KIGQ 061335Z AUTO 13007KT 1SM +VCTSRA BKN037 OVC047 18/18  A3013 RMK AO2 VIS 1/4V5 LTG DSNT E AND SE P0012 T01780178,,,3700.0,,,64.04,,SE,29.47,28.32,,Overcast
KIGQ,10/06/2016 13:55 UTC,30.12,64.22,64.22,100.0,4.61,110.0,,1.0,1204.0,0.17,,362.0,903.0,,,7.0,,KIGQ 061355Z AUTO 11004KT 7SM RA SCT036 BKN090 OVC120 18/18  A3012 RMK AO2 LTG DSNT E AND SW P0017 T01790179,,,9000.0,,,64.22,,ESE,29.47,28.31,,Rain
KIGQ,10/06/2016 14:15 UTC,30.12,64.94,64.94,100.0,4.61,140.0,,13.0,1104.0,0.01,,502.0,1003.0,,,10.0,,KIGQ 061415Z AUTO 14004KT 10SM -RA SCT050 BKN100 OVC110 18/18  A3012 RMK AO2 LTG DSNT E P0001 T01830183,,,10000.0,,,64.94,,SE,29.47,28.26,,Light Rain
KIGQ,10/06/2016 14:35 UTC,30.13,64.94,64.94,100.0,0.0,0.0,,1.0,1104.0,0.01,,442.0,853.0,,,7.0,,KIGQ 061435Z AUTO 00000KT 7SM RA SCT044 BKN085 OVC110 18/18  A3013 RMK AO2 LTG DSNT E P0001 T01830183,,,8500.0,,,64.94,,N,29.47,28.26,,Rain
KIGQ,10/06/2016 14:55 UTC,30.13,64.94,,100.0,3.44,100.0,,1.0,904.0,0.04,0.45,422.0,602.0,,,5.0,,,,,9000.0,,,64.94,,E,29.47,28.26,,Rain
KIGQ,10/06/2016 15:15 UTC,30.13,65.12,,100.0,0.0,0.0,,1.0,954.0,0.02,,472.0,752.0,,,4.0,,,,,9500.0,,,65.12,,N,29.47,28.24,,Rain
KIGQ,10/06/2016 15:35 UTC,30.13,65.84,,100.0,3.44,130.0,,13.0,954.0,0.02,,302.0,483.0,,,7.0,,,,,4800.0,,,65.84,,SE,29.47,28.19,,Light Rain
KIGQ,10/06/2016 15:55 UTC,30.14,65.84,65.84,100.0,0.0,0.0,,1.0,414.0,0.02,,42.0,273.0,,,7.0,,KIGQ 061555Z AUTO 00000KT 7SM RA SCT004 BKN027 OVC041 19/19  A3014 RMK AO2 P0002 T01880188,,,2700.0,,,65.84,,N,29.48,28.2,,Rain
KIGQ,10/06/2016 16:15 UTC,30.14,66.2,66.2,100.0,3.44,160.0,,14.0,,0.09,,42.0,274.0,,,2.0,,KIGQ 061615Z AUTO 16003KT 2SM +RA SCT004 OVC027 19/19 A3014 RMK AO2 P0009 T01900190,,,2700.0,,,66.2,,SSE,29.48,28.17,,Heavy Rain
KIGQ,10/06/2016 16:35 UTC,30.12,66.2,66.2,100.0,11.5,120.0,,1.0,704.0,0.13,,302.0,413.0,,,4.0,,KIGQ 061635Z AUTO 12010KT 4SM RA SCT030 BKN041 OVC070 19/19  A3012 RMK AO2 P0013 T01900190,,,4100.0,,,66.2,,ESE,29.47,28.16,,Rain
KIGQ,10/06/2016 16:55 UTC,30.1,66.38,66.38,100.0,14.97,130.0,,13.0,854.0,0.14,,322.0,703.0,,,5.0,,KIGQ 061655Z AUTO 13013KT 5SM -RA SCT032 BKN070 OVC085 19/19  A3010 RMK AO2 P0014 T01910191,,,7000.0,,,66.38,,SE,29.45,28.13,,Light Rain
KIGQ,10/06/2016 17:15 UTC,30.1,67.46,67.46,100.0,16.11,150.0,20.71,13.0,953.0,,,552.0,802.0,,,10.0,,KIGQ 061715Z AUTO 15014G18KT 10SM -RA SCT055 SCT080 BKN095 20/20  A3010 RMK AO2 T01970197,,,9500.0,,,67.46,,SSE,29.45,28.04,,Light Rain
KIGQ,10/06/2016 17:35 UTC,30.11,67.82,67.82,100.0,10.36,150.0,17.27,,954.0,,,502.0,802.0,,,10.0,,KIGQ 061735Z AUTO 15009G15KT 10SM SCT050 SCT080 OVC095 20/20  A3011 RMK AO2 T01990199,,,9500.0,,,67.82,,SSE,29.46,28.02,,Overcast
KIGQ,10/06/2016 17:55 UTC,30.1,68.0,68.0,100.0,8.05,140.0,,,854.0,0.01,,482.0,702.0,0.63,,10.0,,KIGQ 061755Z AUTO 14007KT 10SM SCT048 SCT070 OVC085 20/20  A3010 RMK AO2 P0001 60063 T02000200 10200 20170,68.0,62.6,8500.0,,,68.0,,SE,29.45,28.0,,Overcast
KIGQ,10/06/2016 18:15 UTC,30.09,68.9,68.36,94.03,11.5,140.0,17.27,,,,,902.0,1203.0,,,10.0,,KIGQ 061815Z AUTO 14010G15KT 10SM SCT090 BKN120 21/20 A3009 RMK AO2 T02050202,,,12000.0,,,67.1,,SE,29.44,28.03,,Mostly Cloudy
KIGQ,10/06/2016 18:35 UTC,30.09,69.26,68.9,100.0,9.22,150.0,,,,,,1202.0,,,,10.0,,KIGQ 061835Z AUTO 15008KT 10SM SCT120 21/21 A3009 RMK AO2  T02070205,,,,,,69.26,,SSE,29.44,27.88,,Partly Cloudy
KIGQ,10/06/2016 18:55 UTC,30.08,71.6,69.8,94.07,8.05,160.0,,,,,,1202.0,,,,10.0,,KIGQ 061855Z AUTO 16007KT 10SM SCT120 22/21 A3008 RMK AO2  T02200210,,,,,,69.79,,SSE,29.43,27.8,,Partly Cloudy
KIGQ,10/06/2016 19:15 UTC,30.07,72.5,69.98,88.54,8.05,150.0,,,,,,1.0,,,,10.0,,KIGQ 061915Z AUTO 15007KT 10SM CLR 23/21 A3007 RMK AO2  T02250211,,,,,,68.91,,SSE,29.42,27.84,,Clear
KIGQ,10/06/2016 19:35 UTC,30.06,75.2,70.88,88.62,10.36,160.0,,,,,,1.0,,,,10.0,,KIGQ 061935Z AUTO 16009KT 10SM CLR 24/22 A3006 RMK AO2  T02400216,,,,,,71.6,,SSE,29.41,27.59,,Clear
KIGQ,10/06/2016 19:55 UTC,30.06,76.1,70.16,78.54,8.05,150.0,,,,,,1.0,,,,10.0,,KIGQ 061955Z AUTO 15007KT 10SM CLR 25/21 A3006 RMK AO2  T02450212,,,,,,68.92,,SSE,29.41,27.78,,Clear
KIGQ,10/06/2016 20:15 UTC,30.06,75.92,70.88,88.62,4.61,160.0,,,903.0,,,603.0,703.0,,,10.0,,KIGQ 062015Z AUTO 16004KT 10SM BKN060 BKN070 BKN090 24/22  A3006 RMK AO2 LTG DSNT SW T02440216,,,6000.0,,,72.31,,SSE,29.41,27.52,,Mostly Cloudy
KIGQ,10/06/2016 20:35 UTC,30.05,77.0,70.88,83.48,3.44,150.0,,,,,,602.0,902.0,,,10.0,,KIGQ 062035Z AUTO 15003KT 10SM SCT060 SCT090 25/22 A3005 RMK AO2  LTG DSNT W T02500216,,,,,,71.6,,SSE,29.4,27.55,,Partly Cloudy
KIGQ,10/06/2016 20:55 UTC,30.05,78.62,69.44,74.02,12.66,170.0,,,,,,603.0,703.0,,,10.0,,KIGQ 062055Z AUTO 17011KT 10SM BKN060 BKN070 26/21 A3005 RMK AO2  T02590208,,,6000.0,,,69.63,,S,29.4,27.68,,Mostly Cloudy
KIGQ,10/06/2016 21:15 UTC,30.04,77.18,69.08,78.54,8.05,170.0,,,,,,602.0,702.0,,,10.0,,KIGQ 062115Z AUTO 17007KT 10SM SCT060 SCT070 25/21 A3004 RMK AO2  LTG DSNT W T02510206,,,,,,69.97,,S,29.39,27.67,,Partly Cloudy
KIGQ,10/06/2016 21:35 UTC,30.04,77.0,69.08,78.54,5.75,190.0,,5.0,,,,552.0,702.0,,,10.0,,KIGQ 062135Z AUTO 19005KT 10SM VCTS SCT055 SCT070 25/21 A3004 RMK AO2 LTG DSNT NW T02500206,,,,,,69.8,,S,29.39,27.68,,Thunder
KIGQ,10/06/2016 21:55 UTC,30.04,76.28,70.52,78.54,0.0,0.0,,,802.0,,,552.0,702.0,,,10.0,,KIGQ 062155Z AUTO 00000KT 10SM SCT055 SCT070 SCT080 25/21  A3004 RMK AO2 LTG DSNT N T02460214,,,,,,69.1,,N,29.39,27.74,,Partly Cloudy
KIGQ,10/06/2016 22:15 UTC,30.04,73.58,71.42,94.12,0.0,0.0,,,,,,502.0,702.0,,,10.0,,KIGQ 062215Z AUTO 00000KT 10SM SCT050 SCT070 23/22 A3004 RMK AO2  LTG DSNT N T02310219,,,,,,71.78,,N,29.39,27.58,,Partly Cloudy
KIGQ,10/06/2016 22:35 UTC,30.04,73.4,70.7,94.12,4.61,340.0,,,,,,503.0,703.0,,,10.0,,KIGQ 062235Z AUTO 34004KT 10SM BKN050 BKN070 23/22 A3004 RMK AO2  T02300215,,,5000.0,,,71.6,,NNW,29.39,27.6,,Mostly Cloudy
KIGQ,10/06/2016 22:55 UTC,30.04,72.68,70.7,94.12,0.0,0.0,,,,,,504.0,,,,10.0,,KIGQ 062255Z AUTO 00000KT 10SM OVC050 23/22 A3004 RMK AO2 LTG DSNT  NE T02260215,,,5000.0,,,70.88,,N,29.39,27.66,,Overcast
KIGQ,10/06/2016 23:15 UTC,30.04,71.96,70.52,94.07,3.44,40.0,,,903.0,,,503.0,653.0,,,10.0,,KIGQ 062315Z AUTO 04003KT 10SM BKN050 BKN065 BKN090 22/21  A3004 RMK AO2 LTG DSNT NE T02220214,,,5000.0,,,70.15,,NE,29.39,27.73,,Mostly Cloudy
KIGQ,10/06/2016 23:35 UTC,30.03,71.78,70.34,94.07,0.0,0.0,,,902.0,,,602.0,702.0,,,10.0,,KIGQ 062335Z AUTO 00000KT 10SM SCT060 SCT070 SCT090 22/21  A3003 RMK AO2 T02210213,,,,,,69.97,,N,29.38,27.73,,Partly Cloudy
KIGQ,10/06/2016 23:55 UTC,30.04,70.7,70.16,94.07,0.0,0.0,,,1002.0,,,602.0,702.0,,,10.0,,KIGQ 062355Z AUTO 00000KT 10SM SCT060 SCT070 SCT100 22/21  A3004 RMK AO2 LTG DSNT NW T02150212 10261 20200,78.98,68.0,,,,68.9,,N,29.39,27.83,,Partly Cloudy
KIGQ,10/07/2016 00:15 UTC,30.03,70.34,69.98,100.0,0.0,0.0,,,,,,602.0,902.0,,,7.0,,KIGQ 070015Z AUTO 00000KT 7SM SCT060 SCT090 21/21 A3003 RMK AO2  LTG DSNT NW T02130211,,,,,,70.34,,N,29.38,27.73,,Partly Cloudy
KIGQ,10/07/2016 00:35 UTC,30.03,69.98,69.98,100.0,0.0,0.0,,,803.0,,,603.0,703.0,,,7.0,,KIGQ 070035Z AUTO 00000KT 7SM BKN060 BKN070 BKN080 21/21 A3003 RMK AO2 T02110211,,,6000.0,,,69.98,,N,29.38,27.76,,Mostly Cloudy
KIGQ,10/07/2016 00:55 UTC,30.02,69.08,69.08,100.0,0.0,0.0,,31.0,,,,602.0,802.0,,,4.0,,KIGQ 070055Z AUTO 00000KT 4SM BR SCT060 SCT080 21/21 A3002 RMK AO2  T02060206,,,,,,69.08,,N,29.37,27.83,,Mist
KIGQ,10/07/2016 01:15 UTC,30.02,68.72,68.72,100.0,3.44,120.0,,,,,,1.0,,,,10.0,,KIGQ 070115Z AUTO 12003KT 10SM CLR 20/20 A3002 RMK AO2  T02040204,,,,,,68.72,,ESE,29.37,27.86,,Clear
KIGQ,10/07/2016 01:35 UTC,30.01,68.18,67.28,100.0,4.61,130.0,,,,,,1.0,,,,10.0,,KIGQ 070135Z AUTO 13004KT 10SM CLR 20/20 A3001 RMK AO2  T02010196,,,,,,68.18,,SE,29.36,27.89,,Clear
KIGQ,10/07/2016 01:55 UTC,30.02,71.06,66.38,83.13,5.75,150.0,,,,,,1.0,,,,10.0,,KIGQ 070155Z AUTO 15005KT 10SM CLR 22/19 A3002 RMK AO2  T02170191,,,,,,65.65,,SSE,29.37,28.03,,Clear
KIGQ,10/07/2016 02:15 UTC,30.02,72.5,65.48,78.24,9.22,160.0,,,,,,1202.0,,,,10.0,,KIGQ 070215Z AUTO 16008KT 10SM SCT120 23/19 A3002 RMK AO2  T02250186,,,,,,65.31,,SSE,29.37,28.03,,Partly Cloudy
KIGQ,10/07/2016 02:35 UTC,30.03,72.32,65.3,83.13,10.36,170.0,,,,,,1.0,,,,10.0,,KIGQ 070235Z AUTO 17009KT 10SM CLR 22/19 A3003 RMK AO2  T02240185,,,,,,66.89,,S,29.38,27.94,,Clear
KIGQ,10/07/2016 02:55 UTC,30.04,71.06,64.94,78.09,9.22,180.0,,,,,,1.0,,,,10.0,,KIGQ 070255Z AUTO 18008KT 10SM CLR 22/18 A3004 RMK AO2 LTG DSNT N  T02170183,,,,,,63.85,,S,29.39,28.16,,Clear
KIGQ,10/07/2016 03:15 UTC,30.03,71.24,64.76,78.09,10.36,170.0,,,,,,1.0,,,,10.0,,KIGQ 070315Z AUTO 17009KT 10SM CLR 22/18 A3003 RMK AO2  T02180182,,,,,,64.03,,S,29.38,28.14,,Clear
KIGQ,10/07/2016 03:35 UTC,30.03,70.7,64.58,78.09,10.36,180.0,,,,,,1.0,,,,10.0,,KIGQ 070335Z AUTO 18009KT 10SM CLR 22/18 A3003 RMK AO2  T02150181,,,,,,63.5,,S,29.38,28.18,,Clear
KIGQ,10/07/2016 03:55 UTC,30.03,70.16,64.58,83.01,11.5,170.0,,,,,,1.0,,,,10.0,,KIGQ 070355Z AUTO 17010KT 10SM CLR 21/18 A3003 RMK AO2  T02120181,,,,,,64.73,,S,29.38,28.11,,Clear
KIGQ,10/07/2016 04:15 UTC,30.02,70.88,64.4,78.09,11.5,180.0,,,,,,1.0,,,,10.0,,KIGQ 070415Z AUTO 18010KT 10SM CLR 22/18 A3002 RMK AO2  T02160180,,,,,,63.68,,S,29.37,28.15,,Clear
KIGQ,10/07/2016 04:35 UTC,30.02,69.8,64.4,83.01,10.36,180.0,,,,,,1.0,,,,10.0,,KIGQ 070435Z AUTO 18009KT 10SM CLR 21/18 A3002 RMK AO2  T02100180,,,,,,64.38,,S,29.37,28.12,,Clear
KIGQ,10/07/2016 04:55 UTC,30.02,68.9,64.4,83.01,10.36,190.0,,,,,,1.0,,,,10.0,,KIGQ 070455Z AUTO 19009KT 10SM CLR 21/18 A3002 RMK AO2  T02050180,,,,,,63.5,,S,29.37,28.19,,Clear
KIGQ,10/07/2016 05:15 UTC,30.02,68.54,64.04,88.29,9.22,180.0,,,,,,1.0,,,,10.0,,KIGQ 070515Z AUTO 18008KT 10SM CLR 20/18 A3002 RMK AO2  T02030178,,,,,,64.92,,S,29.37,28.11,,Clear
KIGQ,10/07/2016 05:35 UTC,30.02,68.9,64.04,83.01,9.22,180.0,,,,,,1.0,,,,10.0,,KIGQ 070535Z AUTO 18008KT 10SM CLR 21/18 A3002 RMK AO2  T02050178,,,,,,63.5,,S,29.37,28.19,,Clear
KIGQ,10/07/2016 05:55 UTC,30.02,68.9,63.86,83.01,10.36,190.0,,,,,,1.0,,,,10.0,,KIGQ 070555Z AUTO 19009KT 10SM CLR 21/18 A3002 RMK AO2 T02050177  10225 20199 402610135,72.5,67.82,,78.98,56.3,63.5,,S,29.37,28.19,,Clear
KIGQ,10/07/2016 06:15 UTC,30.02,68.9,63.68,83.01,8.05,190.0,,,,,,1.0,,,,10.0,,KIGQ 070615Z AUTO 19007KT 10SM CLR 21/18 A3002 RMK AO2  T02050176,,,,,,63.5,,S,29.37,28.19,,Clear
KIGQ,10/07/2016 06:35 UTC,30.03,68.54,63.68,88.29,9.22,190.0,,,,,,1.0,,,,10.0,,KIGQ 070635Z AUTO 19008KT 10SM CLR 20/18 A3003 RMK AO2  T02030176,,,,,,64.92,,S,29.38,28.12,,Clear
KIGQ,10/07/2016 06:55 UTC,30.03,67.28,63.5,88.29,6.91,180.0,,,,,,1.0,,,,10.0,,KIGQ 070655Z AUTO 18006KT 10SM CLR 20/18 A3003 RMK AO2  T01960175,,,,,,63.68,,S,29.38,28.21,,Clear
KIGQ,10/07/2016 07:15 UTC,30.03,66.56,63.5,93.94,8.05,190.0,,,,,,1.0,,,,10.0,,KIGQ 070715Z AUTO 19007KT 10SM CLR 19/18 A3003 RMK AO2  T01920175,,,,,,64.75,,S,29.38,28.15,,Clear
KIGQ,10/07/2016 07:35 UTC,30.02,66.74,63.5,89.35,9.22,180.0,,,,,,1.0,,,,10.0,,KIGQ 070735Z AUTO 18008KT 10SM CLR 19/18 A3002 RMK AO2  T01930175,,,,,,63.49,,S,29.37,28.22,,Clear
KIGQ,10/07/2016 07:55 UTC,30.02,66.38,63.14,89.33,8.05,190.0,,,,,,1.0,,,,10.0,,KIGQ 070755Z AUTO 19007KT 10SM CLR 19/17 A3002 RMK AO2 LTG DSNT NW  T01910173,,,,,,63.12,,S,29.37,28.24,,Clear
KIGQ,10/07/2016 08:15 UTC,30.02,66.2,62.96,88.2,6.91,190.0,,,,,,1.0,,,,10.0,,KIGQ 070815Z AUTO 19006KT 10SM CLR 19/17 A3002 RMK AO2  T01900172,,,,,,62.58,,S,29.37,28.28,,Clear
KIGQ,10/07/2016 08:35 UTC,30.02,66.74,63.14,88.2,8.05,190.0,,,,,,1.0,,,,10.0,,KIGQ 070835Z AUTO 19007KT 10SM CLR 19/17 A3002 RMK AO2  T01930173,,,,,,63.11,,S,29.37,28.24,,Clear
KIGQ,10/07/2016 08:55 UTC,30.02,66.2,62.96,88.2,5.75,190.0,,,,,,1202.0,,,,10.0,,KIGQ 070855Z AUTO 19005KT 10SM SCT120 19/17 A3002 RMK AO2  T01900172,,,,,,62.58,,S,29.37,28.28,,Partly Cloudy
KIGQ,10/07/2016 09:15 UTC,30.03,64.94,62.78,93.89,4.61,200.0,,,,,,1202.0,,,,10.0,,KIGQ 070915Z AUTO 20004KT 10SM SCT120 18/17 A3003 RMK AO2  T01830171,,,,,,63.12,,SSW,29.38,28.27,,Partly Cloudy
KIGQ,10/07/2016 09:35 UTC,30.03,65.84,63.14,88.2,6.91,210.0,,,,,,1103.0,,,,10.0,,KIGQ 070935Z AUTO 21006KT 10SM BKN110 19/17 A3003 RMK AO2  T01880173,,,11000.0,,,62.23,,SSW,29.38,28.31,,Mostly Cloudy
KIGQ,10/07/2016 09:55 UTC,30.03,64.4,62.6,93.89,5.75,180.0,,,,,,1103.0,,,,10.0,,KIGQ 070955Z AUTO 18005KT 10SM BKN110 18/17 A3003 RMK AO2  T01800170,,,11000.0,,,62.59,,S,29.38,28.31,,Mostly Cloudy
KIGQ,10/07/2016 10:15 UTC,30.03,64.94,62.96,93.89,5.75,190.0,,,,,,702.0,1203.0,,,10.0,,KIGQ 071015Z AUTO 19005KT 10SM SCT070 BKN120 18/17 A3003 RMK AO2  T01830172,,,12000.0,,,63.12,,S,29.38,28.27,,Mostly Cloudy
KIGQ,10/07/2016 10:35 UTC,30.04,64.22,62.6,93.89,4.61,200.0,,,,,,702.0,,,,10.0,,KIGQ 071035Z AUTO 20004KT 10SM SCT070 18/17 A3004 RMK AO2  T01790170,,,,,,62.41,,SSW,29.39,28.33,,Partly Cloudy
KIGQ,10/07/2016 10:55 UTC,30.03,63.32,62.24,100.0,6.91,180.0,,,,,,1.0,,,,10.0,,KIGQ 071055Z AUTO 18006KT 10SM CLR 17/17 A3003 RMK AO2  T01740168,,,,,,63.32,,S,29.38,28.28,,Clear
KIGQ,10/07/2016 11:15 UTC,30.02,63.5,62.24,93.89,6.91,190.0,,,,,,1.0,,,,10.0,,KIGQ 071115Z AUTO 19006KT 10SM CLR 18/17 A3002 RMK AO2  T01750168,,,,,,61.69,,S,29.37,28.36,,Clear
KIGQ,10/07/2016 11:35 UTC,30.01,62.96,62.06,100.0,6.91,170.0,,,,,,1.0,,,,10.0,,KIGQ 071135Z AUTO 17006KT 10SM CLR 17/17 A3001 RMK AO2  T01720167,,,,,,62.96,,S,29.36,28.29,,Clear
KIGQ,10/07/2016 11:55 UTC,30.0,64.22,62.06,93.89,9.22,170.0,,,,,,1.0,,,0.63,10.0,,KIGQ 071155Z AUTO 17008KT 10SM CLR 18/17 A3000 RMK AO2 70063  T01790167 10207 20171,69.26,62.78,,,,62.41,,S,29.35,28.29,,Clear
KIGQ,10/07/2016 12:15 UTC,29.99,64.04,62.06,93.89,10.36,170.0,,,,,,1.0,,,,10.0,,KIGQ 071215Z AUTO 17009KT 10SM CLR 18/17 A2999 RMK AO2  T01780167,,,,,,62.23,,S,29.34,28.29,,Clear
KIGQ,10/07/2016 12:35 UTC,29.99,64.94,62.24,93.89,10.36,170.0,,,,,,1.0,,,,10.0,,KIGQ 071235Z AUTO 17009KT 10SM CLR 18/17 A2999 RMK AO2  T01830168,,,,,,63.12,,S,29.34,28.23,,Clear
KIGQ,10/07/2016 12:55 UTC,29.99,65.3,62.24,88.2,11.5,170.0,,,,,,1.0,,,,10.0,,KIGQ 071255Z AUTO 17010KT 10SM CLR 19/17 A2999 RMK AO2  T01850168,,,,,,61.69,,S,29.34,28.31,,Clear
KIGQ,10/07/2016 13:15 UTC,30.0,66.2,62.78,88.2,9.22,180.0,,,,,,1.0,,,,10.0,,KIGQ 071315Z AUTO 18008KT 10SM CLR 19/17 A3000 RMK AO2  T01900171,,,,,,62.58,,S,29.35,28.26,,Clear
KIGQ,10/07/2016 13:35 UTC,30.01,67.28,62.96,82.89,10.36,190.0,17.27,,,,,1.0,,,,10.0,,KIGQ 071335Z AUTO 19009G15KT 10SM CLR 20/17 A3001 RMK AO2  T01960172,,,,,,61.87,,S,29.36,28.29,,Clear
KIGQ,10/07/2016 13:55 UTC,30.02,68.0,63.5,88.29,10.36,240.0,,,,,,1.0,,,,10.0,,KIGQ 071355Z AUTO 24009KT 10SM CLR 20/18 A3002 RMK AO2  T02000175,,,,,,64.39,,WSW,29.37,28.15,,Clear
KIGQ,10/07/2016 14:15 UTC,30.03,68.9,63.5,83.01,12.66,230.0,17.27,,,,,332.0,,,,10.0,,KIGQ 071415Z AUTO 23011G15KT 10SM SCT033 21/18 A3003 RMK AO2  T02050175,,,,,,63.5,,SW,29.38,28.2,,Partly Cloudy
KIGQ,10/07/2016 14:35 UTC,30.03,68.0,62.96,82.89,13.8,250.0,19.57,,,,,334.0,,,,10.0,,KIGQ 071435Z AUTO 25012G17KT 10SM OVC033 20/17 A3003 RMK AO2  T02000172,,,3300.0,,,62.57,,WSW,29.38,28.26,,Overcast
KIGQ,10/07/2016 14:55 UTC,30.04,67.82,62.96,82.89,14.97,270.0,,,,,,334.0,,,,10.0,,KIGQ 071455Z AUTO 27013KT 10SM OVC033 20/17 A3004 RMK AO2  T01990172,,,3300.0,,,62.4,,W,29.39,28.29,,Overcast
KIGQ,10/07/2016 15:15 UTC,30.05,68.0,62.6,82.89,14.97,270.0,19.57,,,,,252.0,354.0,,,10.0,,KIGQ 071515Z AUTO 27013G17KT 10SM SCT025 OVC035 20/17 A3005 RMK AO2 T02000170,,,3500.0,,,62.57,,W,29.4,28.28,,Overcast
KIGQ,10/07/2016 15:35 UTC,30.04,68.18,62.78,82.89,10.36,260.0,,,394.0,,,222.0,272.0,,,10.0,,KIGQ 071535Z AUTO 26009KT 10SM SCT022 SCT027 OVC039 20/17  A3004 RMK AO2 T02010171,,,3900.0,,,62.75,,W,29.39,28.26,,Overcast
KIGQ,10/07/2016 15:55 UTC,30.04,69.08,63.14,77.94,11.5,270.0,,,,,,434.0,,,,10.0,,KIGQ 071555Z AUTO 27010KT 10SM OVC043 21/17 A3004 RMK AO2  T02060173,,,4300.0,,,61.87,,W,29.39,28.3,,Overcast
KIGQ,10/07/2016 16:15 UTC,30.04,69.8,62.6,77.94,12.66,260.0,17.27,,,,,494.0,,,,10.0,,KIGQ 071615Z AUTO 26011G15KT 10SM OVC049 21/17 A3004 RMK AO2  T02100170,,,4900.0,,,62.57,,W,29.39,28.25,,Overcast
KIGQ,10/07/2016 16:35 UTC,30.05,69.8,61.34,73.15,16.11,260.0,19.57,,,,,272.0,554.0,,,10.0,,KIGQ 071635Z AUTO 26014G17KT 10SM SCT027 OVC055 21/16 A3005 RMK AO2 T02100163,,,5500.0,,,60.77,,W,29.4,28.36,,Overcast
KIGQ,10/07/2016 16:55 UTC,30.06,70.34,62.24,77.94,10.36,290.0,17.27,,,,,273.0,554.0,,,10.0,,KIGQ 071655Z AUTO 29009G15KT 10SM BKN027 OVC055 21/17 A3006 RMK AO2 T02130168,,,2700.0,,,63.1,,WNW,29.41,28.23,,Overcast
KIGQ,10/07/2016 17:15 UTC,30.07,71.42,62.06,73.32,14.97,260.0,21.85,,,,,272.0,322.0,,,10.0,,KIGQ 071715Z AUTO 26013G19KT 10SM SCT027 SCT032 22/17 A3007 RMK AO2 T02190167,,,,,,62.4,,W,29.42,28.27,,Partly Cloudy
KIGQ,10/07/2016 17:35 UTC,30.08,70.34,60.98,73.15,13.8,290.0,,,,,,283.0,333.0,,,10.0,,KIGQ 071735Z AUTO 29012KT 10SM BKN028 BKN033 21/16 A3008 RMK AO2  T02130161,,,2800.0,,,61.29,,WNW,29.43,28.36,,Mostly Cloudy
KIGQ,10/07/2016 17:55 UTC,30.09,68.9,59.9,73.15,17.27,270.0,,,,,,263.0,,,,10.0,,KIGQ 071755Z AUTO 27015KT 10SM BKN026 21/16 A3009 RMK AO2  T02050155 10222 20177,71.96,63.86,2600.0,,,59.9,,W,29.44,28.46,,Mostly Cloudy
KIGQ,10/07/2016 18:15 UTC,30.1,66.56,57.92,72.78,16.11,300.0,23.02,,,,,284.0,,,,10.0,,KIGQ 071815Z AUTO 30014G20KT 10SM OVC028 19/14 A3010 RMK AO2  T01920144,,,2800.0,,,57.5,,WNW,29.45,28.62,,Overcast
KIGQ,10/07/2016 18:35 UTC,30.1,64.76,56.48,77.48,14.97,280.0,19.57,,,,,283.0,,,,10.0,,KIGQ 071835Z AUTO 28013G17KT 10SM BKN028 18/14 A3010 RMK AO2  T01820136,,,2800.0,,,57.51,,W,29.45,28.64,,Mostly Cloudy
KIGQ,10/07/2016 18:55 UTC,30.1,64.76,56.66,77.48,12.66,310.0,18.41,,,,,282.0,,,,10.0,,KIGQ 071855Z AUTO 31011G16KT 10SM SCT028 18/14 A3010 RMK AO2  T01820137,,,,,,57.51,,NW,29.45,28.64,,Partly Cloudy
KIGQ,10/07/2016 19:15 UTC,30.11,62.6,54.68,77.33,12.66,290.0,18.41,,,,,1.0,,,,10.0,,KIGQ 071915Z AUTO 29011G16KT 10SM CLR 17/13 A3011 RMK AO2  T01700126,,,,,,55.35,,WNW,29.46,28.78,,Clear
KIGQ,10/07/2016 19:35 UTC,30.11,61.88,54.32,72.42,12.66,300.0,18.41,,,,,1.0,,,,10.0,,KIGQ 071935Z AUTO 30011G16KT 10SM CLR 17/12 A3011 RMK AO2  T01660124,,,,,,52.85,,WNW,29.46,28.89,,Clear
KIGQ,10/07/2016 19:55 UTC,30.12,59.9,52.7,77.17,9.22,310.0,17.27,,,,,1202.0,,,,10.0,,KIGQ 071955Z AUTO 31008G15KT 10SM SCT120 16/12 A3012 RMK AO2  T01550115,,,,,,52.67,,NW,29.47,28.93,,Partly Cloudy
KIGQ,10/07/2016 20:15 UTC,30.13,59.18,51.98,77.01,8.05,300.0,,,,,,1203.0,,,,10.0,,KIGQ 072015Z AUTO 30007KT 10SM BKN120 15/11 A3013 RMK AO2  T01510111,,,12000.0,,,51.92,,WNW,29.47,28.96,,Mostly Cloudy
KIGQ,10/07/2016 20:35 UTC,30.13,59.18,51.62,77.01,9.22,300.0,,,,,,1202.0,,,,10.0,,KIGQ 072035Z AUTO 30008KT 10SM SCT120 15/11 A3013 RMK AO2  T01510109,,,,,,51.92,,WNW,29.47,28.96,,Partly Cloudy
KIGQ,10/07/2016 20:55 UTC,30.13,59.0,50.72,72.04,8.05,300.0,16.11,,,,,1.0,,,,10.0,,KIGQ 072055Z AUTO 30007G14KT 10SM CLR 15/10 A3013 RMK AO2  T01500104,,,,,,49.93,,WNW,29.47,29.04,,Clear
KIGQ,10/07/2016 21:15 UTC,30.13,59.18,51.08,77.01,6.91,290.0,,,,,,1.0,,,,10.0,,KIGQ 072115Z AUTO 29006KT 10SM CLR 15/11 A3013 RMK AO2  T01510106,,,,,,51.92,,WNW,29.47,28.96,,Clear
KIGQ,10/07/2016 21:35 UTC,30.14,59.54,50.9,77.01,5.75,300.0,,,,,,1202.0,,,,10.0,,KIGQ 072135Z AUTO 30005KT 10SM SCT120 15/11 A3014 RMK AO2  T01530105,,,,,,52.27,,WNW,29.48,28.96,,Partly Cloudy
KIGQ,10/07/2016 21:55 UTC,30.14,60.26,51.26,72.23,5.75,290.0,,,,,,1102.0,,,,10.0,,KIGQ 072155Z AUTO 29005KT 10SM SCT110 16/11 A3014 RMK AO2  T01570107,,,,,,51.21,,WNW,29.48,28.99,,Partly Cloudy
KIGQ,10/07/2016 22:15 UTC,30.14,60.44,51.62,72.23,5.75,290.0,,,,,,1.0,,,,10.0,,KIGQ 072215Z AUTO 29005KT 10SM CLR 16/11 A3014 RMK AO2  T01580109,,,,,,51.39,,WNW,29.48,28.98,,Clear
KIGQ,10/07/2016 22:35 UTC,30.14,59.9,49.64,67.57,8.05,290.0,,,,,,1.0,,,,10.0,,KIGQ 072235Z AUTO 29007KT 10SM CLR 16/10 A3014 RMK AO2  T01550098,,,,,,49.06,,WNW,29.48,29.07,,Clear
KIGQ,10/07/2016 22:55 UTC,30.15,59.18,48.92,67.36,8.05,300.0,,,,,,1.0,,,,10.0,,KIGQ 072255Z AUTO 30007KT 10SM CLR 15/09 A3015 RMK AO2  T01510094,,,,,,48.29,,WNW,29.49,29.12,,Clear
KIGQ,10/07/2016 23:15 UTC,30.16,58.46,47.48,67.36,6.91,290.0,,,,,,1.0,,,,10.0,,KIGQ 072315Z AUTO 29006KT 10SM CLR 15/09 A3016 RMK AO2  T01470086,,,,,,47.6,,WNW,29.5,29.16,,Clear
KIGQ,10/07/2016 23:35 UTC,30.17,57.56,47.48,71.85,6.91,290.0,,,,,,1.0,,,,10.0,,KIGQ 072335Z AUTO 29006KT 10SM CLR 14/09 A3017 RMK AO2  T01420086,,,,,,48.47,,WNW,29.51,29.15,,Clear
KIGQ,10/07/2016 23:55 UTC,30.17,57.38,47.3,71.85,10.36,290.0,,,,,,1.0,,,,10.0,,KIGQ 072355Z AUTO 29009KT 10SM CLR 14/09 A3017 RMK AO2 T01410085  10204 20141,68.72,57.38,,,,48.29,,WNW,29.51,29.15,,Clear
KIGQ,10/08/2016 00:15 UTC,30.18,56.66,46.58,67.15,10.36,300.0,,,,,,1.0,,,,10.0,,KIGQ 080015Z AUTO 30009KT 10SM CLR 14/08 A3018 RMK AO2  T01370081,,,,,,45.79,,WNW,29.52,29.25,,Clear
KIGQ,10/08/2016 00:35 UTC,30.19,56.3,45.5,67.15,8.05,300.0,,,,,,1.0,,,,10.0,,KIGQ 080035Z AUTO 30007KT 10SM CLR 14/08 A3019 RMK AO2  T01350075,,,,,,45.45,,WNW,29.53,29.28,,Clear
KIGQ,10/08/2016 00:55 UTC,30.19,55.4,45.14,66.93,3.44,290.0,,,,,,1.0,,,,10.0,,KIGQ 080055Z AUTO 29003KT 10SM CLR 13/07 A3019 RMK AO2  T01300073,,,,,,44.5,,WNW,29.53,29.31,,Clear
KIGQ,10/08/2016 01:15 UTC,30.19,53.96,45.14,71.47,4.61,290.0,,,,,,1.0,,,,10.0,,KIGQ 080115Z AUTO 29004KT 10SM CLR 12/07 A3019 RMK AO2  T01220073,,,,,,44.86,,WNW,29.53,29.32,,Clear
KIGQ,10/08/2016 01:35 UTC,30.2,52.88,45.5,76.52,3.44,300.0,,,,,,1.0,,,,10.0,,KIGQ 080135Z AUTO 30003KT 10SM CLR 12/08 A3020 RMK AO2  T01160075,,,,,,45.63,,WNW,29.54,29.31,,Clear
KIGQ,10/08/2016 01:55 UTC,30.2,52.7,45.32,71.47,4.61,300.0,,,,,,1.0,,,,10.0,,KIGQ 080155Z AUTO 30004KT 10SM CLR 12/07 A3020 RMK AO2  T01150074,,,,,,43.64,,WNW,29.54,29.37,,Clear
KIGQ,10/08/2016 02:15 UTC,30.2,52.7,44.06,71.47,6.91,300.0,,,,,,1.0,,,,10.0,,KIGQ 080215Z AUTO 30006KT 10SM CLR 12/07 A3020 RMK AO2  T01150067,,,,,,43.64,,WNW,29.54,29.37,,Clear
KIGQ,10/08/2016 02:35 UTC,30.2,52.34,43.34,71.27,8.05,290.0,,,,,,1.0,,,,10.0,,KIGQ 080235Z AUTO 29007KT 10SM CLR 11/06 A3020 RMK AO2  T01130063,,,,,,43.22,,WNW,29.54,29.39,,Clear
KIGQ,10/08/2016 02:55 UTC,30.21,51.98,42.62,71.27,6.91,300.0,,,,,,1.0,,,,10.0,,KIGQ 080255Z AUTO 30006KT 10SM CLR 11/06 A3021 RMK AO2  T01110059,,,,,,42.88,,WNW,29.55,29.41,,Clear
KIGQ,10/08/2016 03:15 UTC,30.21,51.62,41.9,71.27,8.05,300.0,,,,,,1.0,,,,10.0,,KIGQ 080315Z AUTO 30007KT 10SM CLR 11/06 A3021 RMK AO2  T01090055,,,,,,42.53,,WNW,29.55,29.42,,Clear
KIGQ,10/08/2016 03:35 UTC,30.21,51.44,41.0,67.38,5.75,300.0,,,,,,1.0,,,,10.0,,KIGQ 080335Z AUTO 30005KT 10SM CLR 11/05 A3021 RMK AO2  T01080050,,,,,,40.89,,WNW,29.55,29.47,,Clear
KIGQ,10/08/2016 03:55 UTC,30.21,50.54,40.64,71.08,9.22,310.0,,,,,,1.0,,,,10.0,,KIGQ 080355Z AUTO 31008KT 10SM CLR 10/05 A3021 RMK AO2  T01030048,,,,,,41.42,,NW,29.55,29.46,,Clear
KIGQ,10/08/2016 04:15 UTC,30.21,50.54,40.1,71.08,8.05,300.0,,,,,,1.0,,,,10.0,,KIGQ 080415Z AUTO 30007KT 10SM CLR 10/05 A3021 RMK AO2  T01030045,,,,,,41.42,,WNW,29.55,29.46,,Clear
KIGQ,10/08/2016 04:35 UTC,30.21,49.1,40.46,71.08,6.91,290.0,,,,,,1.0,,,,10.0,,KIGQ 080435Z AUTO 29006KT 10SM CLR 10/05 A3021 RMK AO2  T00950047,,,,,,40.04,,WNW,29.55,29.51,,Clear
KIGQ,10/08/2016 04:55 UTC,30.21,49.1,40.1,71.08,6.91,300.0,,,,,,1.0,,,,10.0,,KIGQ 080455Z AUTO 30006KT 10SM CLR 10/05 A3021 RMK AO2  T00950045,,,,,,40.04,,WNW,29.55,29.51,,Clear
KIGQ,10/08/2016 05:15 UTC,30.21,48.56,40.1,76.02,5.75,300.0,,,,,,1.0,,,,10.0,,KIGQ 080515Z AUTO 30005KT 10SM CLR 09/05 A3021 RMK AO2  T00920045,,,,,,41.27,,WNW,29.55,29.48,,Clear
KIGQ,10/08/2016 05:35 UTC,30.21,48.92,39.56,70.88,6.91,300.0,,,,,,1.0,,,,10.0,,KIGQ 080535Z AUTO 30006KT 10SM CLR 09/04 A3021 RMK AO2  T00940042,,,,,,39.79,,WNW,29.55,29.51,,Clear
KIGQ,10/08/2016 05:55 UTC,30.21,49.1,39.38,66.27,5.75,300.0,,,,,,1.0,,,,10.0,,KIGQ 080555Z AUTO 30005KT 10SM CLR 10/04 A3021 RMK AO2 T00950041  10140 20091 402220091,57.2,48.38,,71.96,48.38,38.22,,WNW,29.55,29.55,,Clear
KIGQ,10/08/2016 06:15 UTC,30.22,48.56,39.38,70.88,4.61,300.0,,,,,,1.0,,,,10.0,,KIGQ 080615Z AUTO 30004KT 10SM CLR 09/04 A3022 RMK AO2  T00920041,,,,,,39.44,,WNW,29.56,29.53,,Clear
KIGQ,10/08/2016 06:35 UTC,30.23,47.66,39.38,70.88,3.44,300.0,,,,,,1.0,,,,10.0,,KIGQ 080635Z AUTO 30003KT 10SM CLR 09/04 A3023 RMK AO2  T00870041,,,,,,38.58,,WNW,29.57,29.57,,Clear
KIGQ,10/08/2016 06:55 UTC,30.23,47.84,39.38,70.88,0.0,0.0,,,,,,1.0,,,,10.0,,KIGQ 080655Z AUTO 00000KT 10SM CLR 09/04 A3023 RMK AO2  T00880041,,,,,,38.75,,N,29.57,29.57,,Clear
KIGQ,10/08/2016 07:15 UTC,30.23,46.58,39.56,75.84,3.44,310.0,,,,,,1.0,,,,10.0,,KIGQ 080715Z AUTO 31003KT 10SM CLR 08/04 A3023 RMK AO2  T00810042,,,,,,39.28,,NW,29.57,29.56,,Clear
KIGQ,10/08/2016 07:35 UTC,30.23,46.94,39.2,74.31,4.61,300.0,,,,,,1.0,,,,10.0,,KIGQ 080735Z AUTO 30004KT 10SM CLR 08/04 A3023 RMK AO2  T00830040,,,,,,39.1,,WNW,29.57,29.57,,Clear
KIGQ,10/08/2016 07:55 UTC,30.24,46.58,39.38,75.84,4.61,320.0,,,,,,1.0,,,,10.0,,KIGQ 080755Z AUTO 32004KT 10SM CLR 08/04 A3024 RMK AO2  T00810041,,,,,,39.28,,NW,29.58,29.57,,Clear
KIGQ,10/08/2016 08:15 UTC,30.24,46.04,39.38,75.84,3.44,320.0,,,,,,1.0,,,,10.0,,KIGQ 080815Z AUTO 32003KT 10SM CLR 08/04 A3024 RMK AO2  T00780041,,,,,,38.76,,NW,29.58,29.59,,Clear
KIGQ,10/08/2016 08:35 UTC,30.24,45.32,39.2,81.2,5.75,310.0,,,,,,1.0,,,,10.0,,KIGQ 080835Z AUTO 31005KT 10SM CLR 07/04 A3024 RMK AO2  T00740040,,,,,,39.83,,NW,29.58,29.57,,Clear
KIGQ,10/08/2016 08:55 UTC,30.24,46.4,38.3,75.84,6.91,320.0,,,,,,1.0,,,,10.0,,KIGQ 080855Z AUTO 32006KT 10SM CLR 08/04 A3024 RMK AO2  T00800035,,,,,,39.11,,NW,29.58,29.58,,Clear
KIGQ,10/08/2016 09:15 UTC,30.24,46.04,37.4,70.68,4.61,330.0,,,,,,1.0,,,,10.0,,KIGQ 080915Z AUTO 33004KT 10SM CLR 08/03 A3024 RMK AO2  T00780030,,,,,,36.95,,NNW,29.58,29.63,,Clear
KIGQ,10/08/2016 09:35 UTC,30.25,45.5,37.4,70.68,3.44,320.0,,,,,,1.0,,,,10.0,,KIGQ 080935Z AUTO 32003KT 10SM CLR 08/03 A3025 RMK AO2  T00750030,,,,,,36.43,,NW,29.59,29.65,,Clear
KIGQ,10/08/2016 09:55 UTC,30.25,45.14,38.12,75.67,0.0,0.0,,,,,,1.0,,,,10.0,,KIGQ 080955Z AUTO 00000KT 10SM CLR 07/03 A3025 RMK AO2  T00730034,,,,,,37.83,,N,29.59,29.63,,Clear
KIGQ,10/08/2016 10:15 UTC,30.26,44.24,38.48,81.2,0.0,0.0,,,,,,1.0,,,,10.0,,KIGQ 081015Z AUTO 00000KT 10SM CLR 07/04 A3026 RMK AO2  T00680036,,,,,,38.78,,N,29.6,29.62,,Clear
KIGQ,10/08/2016 10:35 UTC,30.26,43.34,38.48,86.99,0.0,0.0,,,,,,1.0,,,,10.0,,KIGQ 081035Z AUTO 00000KT 10SM CLR 06/04 A3026 RMK AO2  T00630036,,,,,,39.68,,N,29.6,29.61,,Clear
KIGQ,10/08/2016 10:55 UTC,30.27,42.8,38.84,86.99,0.0,0.0,,,,,,1.0,,,,10.0,,KIGQ 081055Z AUTO 00000KT 10SM CLR 06/04 A3027 RMK AO2  T00600038,,,,,,39.15,,N,29.61,29.64,,Clear
KIGQ,10/08/2016 11:15 UTC,30.28,41.9,38.66,86.99,0.0,0.0,,,,,,1.0,,,,10.0,,KIGQ 081115Z AUTO 00000KT 10SM CLR 06/04 A3028 RMK AO2  T00550037,,,,,,38.26,,N,29.62,29.67,,Clear
KIGQ,10/08/2016 11:35 UTC,30.28,40.46,38.66,93.24,0.0,0.0,,,,,,1.0,,,,10.0,,KIGQ 081135Z AUTO 00000KT 10SM CLR 05/04 A3028 RMK AO2  T00470037,,,,,,38.64,,N,29.62,29.68,,Clear
KIGQ,10/08/2016 11:55 UTC,30.28,39.38,38.48,100.0,0.0,0.0,,,,,,1.0,,,,10.0,,KIGQ 081155Z AUTO 00000KT 10SM CLR 04/04 A3028 RMK AO2 T00410036  10094 20041,48.92,39.38,,,,39.38,,N,29.62,29.67,,Clear
KIGQ,10/08/2016 12:15 UTC,30.28,41.0,39.02,93.24,0.0,0.0,,,,,,1.0,,,,10.0,,KIGQ 081215Z AUTO 00000KT 10SM CLR 05/04 A3028 RMK AO2  T00500039,,,,,,39.17,,N,29.62,29.66,,Clear
KIGQ,10/08/2016 12:35 UTC,30.28,41.54,40.1,100.0,0.0,0.0,,,,,,1.0,,,,10.0,,KIGQ 081235Z AUTO 00000KT 10SM CLR 05/05 A3028 RMK AO2  T00530045,,,,,,41.54,,N,29.62,29.61,,Clear
KIGQ,10/08/2016 12:55 UTC,30.29,43.16,41.9,100.0,0.0,0.0,,,,,,1.0,,,,10.0,,KIGQ 081255Z AUTO 00000KT 10SM CLR 06/06 A3029 RMK AO2  T00620055,,,,,,43.16,,N,29.63,29.56,,Clear
KIGQ,10/08/2016 13:15 UTC,30.3,46.04,42.62,87.19,0.0,0.0,,,,,,1.0,,,,10.0,,KIGQ 081315Z AUTO 00000KT 10SM CLR 08/06 A3030 RMK AO2  T00780059,,,,,,42.4,,N,29.64,29.56,,Clear
KIGQ,10/08/2016 13:35 UTC,30.3,48.2,42.26,81.48,3.44,320.0,,,,,,1.0,,,,10.0,,KIGQ 081335Z AUTO 32003KT 10SM CLR 09/06 A3030 RMK AO2  T00900057,,,,,,42.74,,NW,29.64,29.54,,Clear
KIGQ,10/08/2016 13:55 UTC,30.3,50.18,40.82,71.08,4.61,330.0,,,,,,1.0,,,,10.0,,KIGQ 081355Z AUTO 33004KT 10SM CLR 10/05 A3030 RMK AO2  T01010049,,,,,,41.08,,NNW,29.64,29.56,,Clear
KIGQ,10/08/2016 14:15 UTC,30.3,50.9,39.56,62.0,8.05,320.0,16.11,,,,,1.0,,,,10.0,,KIGQ 081415Z AUTO 32007G14KT 10SM CLR 11/04 A3030 RMK AO2  T01050042,,,,,,38.22,,NW,29.64,29.63,,Clear
KIGQ,10/08/2016 14:35 UTC,30.31,51.8,38.48,62.0,5.75,360.0,,,,,,1.0,,,,10.0,,KIGQ 081435Z AUTO 36005KT 10SM CLR 11/04 A3031 RMK AO2  T01100036,,,,,,39.07,,N,29.65,29.61,,Clear
KIGQ,10/08/2016 14:55 UTC,30.31,53.24,39.38,58.03,6.91,330.0,,,,,,1.0,,,,10.0,,KIGQ 081455Z AUTO 33006KT 10SM CLR 12/04 A3031 RMK AO2  T01180041,,,,,,38.72,,NNW,29.65,29.61,,Clear
KIGQ,10/08/2016 15:15 UTC,30.31,53.78,39.74,58.03,6.91,340.0,,,,,,1.0,,,,10.0,,KIGQ 081515Z AUTO 34006KT 10SM CLR 12/04 A3031 RMK AO2  T01210043,,,,,,39.23,,NNW,29.65,29.59,,Clear
KIGQ,10/08/2016 15:35 UTC,30.31,54.68,39.56,54.35,8.05,330.0,,,,,,1.0,,,,10.0,,KIGQ 081535Z AUTO 33007KT 310V010 10SM CLR 13/04 A3031 RMK AO2  T01260042,,,,,,38.39,,NNW,29.65,29.61,,Clear
KIGQ,10/08/2016 15:55 UTC,30.3,56.12,40.46,58.29,5.75,10.0,,,,,,1.0,,,,10.0,,KIGQ 081555Z AUTO 01005KT 10SM CLR 13/05 A3030 RMK AO2  T01340047,,,,,,41.55,,N,29.64,29.5,,Clear
KIGQ,10/08/2016 16:15 UTC,30.3,56.48,40.46,54.62,11.5,320.0,,,,,,1.0,,,,10.0,,KIGQ 081615Z AUTO 32010KT 10SM CLR 14/05 A3030 RMK AO2  T01360047,,,,,,40.2,,NW,29.64,29.54,,Clear
KIGQ,10/08/2016 16:35 UTC,30.29,57.38,41.36,54.62,4.61,330.0,,,,,,1.0,,,,10.0,,KIGQ 081635Z AUTO 33004KT 10SM CLR 14/05 A3029 RMK AO2  T01410052,,,,,,41.04,,NNW,29.63,29.5,,Clear
KIGQ,10/08/2016 16:55 UTC,30.29,57.74,41.18,54.62,4.61,340.0,,,,,,1.0,,,,10.0,,KIGQ 081655Z AUTO 34004KT 10SM CLR 14/05 A3029 RMK AO2  T01430051,,,,,,41.37,,NNW,29.63,29.49,,Clear
KIGQ,10/08/2016 17:15 UTC,30.28,58.82,41.72,51.21,4.61,310.0,,,,,,1.0,,,,10.0,,KIGQ 081715Z AUTO 31004KT 10SM CLR 15/05 A3028 RMK AO2  T01490054,,,,,,40.7,,NW,29.62,29.49,,Clear
KIGQ,10/08/2016 17:35 UTC,30.28,59.18,42.08,54.89,4.61,270.0,,,,,,1.0,,,,10.0,,KIGQ 081735Z AUTO 27004KT 10SM CLR 15/06 A3028 RMK AO2  T01510056,,,,,,42.85,,W,29.62,29.42,,Clear
KIGQ,10/08/2016 17:55 UTC,30.26,59.72,41.9,54.89,0.0,0.0,,,,,,1.0,,,,10.0,,KIGQ 081755Z AUTO 00000KT 10SM CLR 15/06 A3026 RMK AO2 T01540055  10155 20042,59.9,39.56,,,,43.35,,N,29.6,29.38,,Clear
KIGQ,10/08/2016 18:15 UTC,30.26,60.62,42.8,51.81,6.91,310.0,,,,,,1.0,,,,10.0,,KIGQ 081815Z AUTO 31006KT 10SM CLR 16/06 A3026 RMK AO2  T01590060,,,,,,42.68,,NW,29.6,29.4,,Clear
KIGQ,10/08/2016 18:35 UTC,30.26,61.52,43.52,51.48,8.05,310.0,,,,,,1.0,,,,10.0,,KIGQ 081835Z AUTO 31007KT 10SM CLR 16/06 A3026 RMK AO2  T01640064,,,,,,43.35,,NW,29.6,29.37,,Clear
KIGQ,10/08/2016 18:55 UTC,30.25,62.06,45.5,55.41,4.61,290.0,,,,,,1.0,,,,10.0,,KIGQ 081855Z AUTO 29004KT 10SM CLR 17/08 A3025 RMK AO2  T01670075,,,,,,45.79,,WNW,29.59,29.28,,Clear
KIGQ,10/08/2016 19:15 UTC,30.24,62.06,44.96,51.76,6.91,300.0,,,,,,1.0,,,,10.0,,KIGQ 081915Z AUTO 30006KT 10SM CLR 17/07 A3024 RMK AO2  T01670072,,,,,,43.99,,WNW,29.58,29.33,,Clear
KIGQ,10/08/2016 19:35 UTC,30.24,62.06,45.32,51.76,5.75,310.0,16.11,,,,,1.0,,,,10.0,,KIGQ 081935Z AUTO 31005G14KT 10SM CLR 17/07 A3024 RMK AO2  T01670074,,,,,,43.99,,NW,29.58,29.33,,Clear
KIGQ,10/08/2016 19:55 UTC,30.24,62.78,45.5,55.41,10.36,270.0,,,,,,1.0,,,,10.0,,KIGQ 081955Z AUTO 27009KT 10SM CLR 17/08 A3024 RMK AO2  T01710075,,,,,,46.47,,W,29.58,29.24,,Clear
KIGQ,10/08/2016 20:15 UTC,30.24,62.78,45.14,51.76,10.36,290.0,,,,,,1.0,,,,10.0,,KIGQ 082015Z AUTO 29009KT 10SM CLR 17/07 A3024 RMK AO2  T01710073,,,,,,44.66,,WNW,29.58,29.3,,Clear
KIGQ,10/08/2016 20:35 UTC,30.24,62.78,45.32,51.76,6.91,260.0,,,,,,1.0,,,,10.0,,KIGQ 082035Z AUTO 26006KT 10SM CLR 17/07 A3024 RMK AO2  T01710074,,,,,,44.66,,W,29.58,29.3,,Clear
KIGQ,10/08/2016 20:55 UTC,30.23,62.78,44.78,51.76,4.61,290.0,,,,,,1.0,,,,10.0,,KIGQ 082055Z AUTO 29004KT 10SM CLR 17/07 A3023 RMK AO2  T01710071,,,,,,44.66,,WNW,29.57,29.29,,Clear
KIGQ,10/08/2016 21:15 UTC,30.23,63.32,45.5,55.41,8.05,280.0,,,,,,1.0,,,,10.0,,KIGQ 082115Z AUTO 28007KT 10SM CLR 17/08 A3023 RMK AO2  T01740075,,,,,,46.97,,W,29.57,29.21,,Clear
KIGQ,10/08/2016 21:35 UTC,30.22,63.32,45.5,55.41,6.91,260.0,,,,,,1.0,,,,10.0,,KIGQ 082135Z AUTO 26006KT 10SM CLR 17/08 A3022 RMK AO2  T01740075,,,,,,46.97,,W,29.56,29.2,,Clear
KIGQ,10/08/2016 21:55 UTC,30.22,62.78,44.96,51.76,4.61,290.0,,,,,,1.0,,,,10.0,,KIGQ 082155Z AUTO 29004KT 10SM CLR 17/07 A3022 RMK AO2  T01710072,,,,,,44.66,,WNW,29.56,29.28,,Clear
KIGQ,10/08/2016 22:15 UTC,30.23,62.6,45.14,51.76,5.75,270.0,,,,,,1.0,,,,10.0,,KIGQ 082215Z AUTO 27005KT 10SM CLR 17/07 A3023 RMK AO2  T01700073,,,,,,44.49,,W,29.57,29.3,,Clear
KIGQ,10/08/2016 22:35 UTC,30.23,61.88,46.04,55.41,0.0,0.0,,,,,,1.0,,,,10.0,,KIGQ 082235Z AUTO 00000KT 10SM CLR 17/08 A3023 RMK AO2  T01660078,,,,,,45.62,,N,29.57,29.27,,Clear
KIGQ,10/08/2016 22:55 UTC,30.23,60.44,47.48,63.18,0.0,0.0,,,,,,1.0,,,,10.0,,KIGQ 082255Z AUTO 00000KT 10SM CLR 16/09 A3023 RMK AO2  T01580086,,,,,,47.77,,N,29.57,29.21,,Clear
KIGQ,10/08/2016 23:15 UTC,30.23,59.0,47.12,62.95,3.44,70.0,,,,,,1.0,,,,10.0,,KIGQ 082315Z AUTO 07003KT 10SM CLR 15/08 A3023 RMK AO2  T01500084,,,,,,46.3,,ENE,29.57,29.27,,Clear
KIGQ,10/08/2016 23:35 UTC,30.23,57.56,46.76,67.15,3.44,80.0,,,,,,1.0,,,,10.0,,KIGQ 082335Z AUTO 08003KT 10SM CLR 14/08 A3023 RMK AO2  T01420082,,,,,,46.65,,E,29.57,29.27,,Clear
KIGQ,10/08/2016 23:55 UTC,30.24,57.38,46.76,67.15,3.44,90.0,,,,,,1.0,,,,10.0,,KIGQ 082355Z AUTO 09003KT 10SM CLR 14/08 A3024 RMK AO2 T01410082  10176 20140,63.68,57.2,,,,46.48,,E,29.58,29.29,,Clear
KIGQ,10/09/2016 00:15 UTC,30.24,57.2,47.12,67.15,3.44,70.0,,,,,,1.0,,,,10.0,,KIGQ 090015Z AUTO 07003KT 10SM CLR 14/08 A3024 RMK AO2  T01400084,,,,,,46.31,,ENE,29.58,29.29,,Clear
KIGQ,10/09/2016 00:35 UTC,30.24,54.32,47.66,81.88,0.0,0.0,,,,,,1.0,,,,7.0,,KIGQ 090035Z AUTO 00000KT 7SM CLR 12/09 A3024 RMK AO2  T01240087,,,,,,48.85,,N,29.58,29.24,,Clear
KIGQ,10/09/2016 00:55 UTC,30.24,55.22,47.48,76.68,4.61,80.0,,,,,,1.0,,,,10.0,,KIGQ 090055Z AUTO 08004KT 10SM CLR 13/09 A3024 RMK AO2  T01290086,,,,,,47.96,,E,29.58,29.26,,Clear
KIGQ,10/09/2016 01:15 UTC,30.25,54.14,47.84,81.88,3.44,80.0,,,,,,1.0,,,,10.0,,KIGQ 090115Z AUTO 08003KT 10SM CLR 12/09 A3025 RMK AO2  T01230088,,,,,,48.67,,E,29.59,29.25,,Clear
KIGQ,10/09/2016 01:35 UTC,30.26,53.24,47.66,81.88,0.0,0.0,,,,,,1.0,,,,10.0,,KIGQ 090135Z AUTO 00000KT 10SM CLR 12/09 A3026 RMK AO2  T01180087,,,,,,47.79,,N,29.6,29.3,,Clear
KIGQ,10/09/2016 01:55 UTC,30.26,52.88,47.48,81.88,0.0,0.0,,,,,,1.0,,,,10.0,,KIGQ 090155Z AUTO 00000KT 10SM CLR 12/09 A3026 RMK AO2  T01160086,,,,,,47.44,,N,29.6,29.32,,Clear
KIGQ,10/09/2016 02:15 UTC,30.27,51.44,47.66,87.48,0.0,0.0,,,,,,1.0,,,,10.0,,KIGQ 090215Z AUTO 00000KT 10SM CLR 11/09 A3027 RMK AO2  T01080087,,,,,,47.81,,N,29.61,29.33,,Clear
KIGQ,10/09/2016 02:35 UTC,30.27,51.62,47.3,87.48,0.0,0.0,,,,,,1.0,,,,10.0,,KIGQ 090235Z AUTO 00000KT 10SM CLR 11/09 A3027 RMK AO2  T01090085,,,,,,47.98,,N,29.61,29.32,,Clear
KIGQ,10/09/2016 02:55 UTC,30.28,51.62,47.48,87.48,0.0,0.0,,,,,,1.0,,,,10.0,,KIGQ 090255Z AUTO 00000KT 10SM CLR 11/09 A3028 RMK AO2  T01090086,,,,,,47.98,,N,29.62,29.33,,Clear
KIGQ,10/09/2016 03:15 UTC,30.28,51.08,47.3,87.48,3.44,60.0,,,,,,1.0,,,,10.0,,KIGQ 090315Z AUTO 06003KT 10SM CLR 11/09 A3028 RMK AO2  T01060085,,,,,,47.45,,ENE,29.62,29.35,,Clear
KIGQ,10/09/2016 03:35 UTC,30.29,50.18,47.12,87.38,0.0,0.0,,,,,,1.0,,,,10.0,,KIGQ 090335Z AUTO 00000KT 10SM CLR 10/08 A3029 RMK AO2  T01010084,,,,,,46.54,,N,29.63,29.4,,Clear
KIGQ,10/09/2016 03:55 UTC,30.29,50.0,47.3,93.5,0.0,0.0,,,,,,1.0,,,,10.0,,KIGQ 090355Z AUTO 00000KT 10SM CLR 10/09 A3029 RMK AO2  T01000085,,,,,,48.18,,N,29.63,29.35,,Clear
KIGQ,10/09/2016 04:15 UTC,30.29,50.0,47.3,93.5,0.0,0.0,,,,,,1.0,,,,10.0,,KIGQ 090415Z AUTO 00000KT 10SM CLR 10/09 A3029 RMK AO2  T01000085,,,,,,48.18,,N,29.63,29.35,,Clear
KIGQ,10/09/2016 04:35 UTC,30.29,47.84,46.22,93.45,0.0,0.0,,,,,,1.0,,,,10.0,,KIGQ 090435Z AUTO 00000KT 10SM CLR 09/08 A3029 RMK AO2  T00880079,,,,,,46.02,,N,29.63,29.44,,Clear
KIGQ,10/09/2016 04:55 UTC,30.29,48.2,47.3,100.0,0.0,0.0,,,,,,1.0,,,,10.0,,KIGQ 090455Z AUTO 00000KT 10SM CLR 09/09 A3029 RMK AO2  T00900085,,,,,,48.2,,N,29.63,29.37,,Clear
KIGQ,10/09/2016 05:15 UTC,30.29,47.48,46.94,93.45,0.0,0.0,,,,,,1.0,,,,10.0,,KIGQ 090515Z AUTO 00000KT 10SM CLR 09/08 A3029 RMK AO2  T00860083,,,,,,45.66,,N,29.63,29.45,,Clear
KIGQ,10/09/2016 05:35 UTC,30.28,45.68,45.5,100.0,0.0,0.0,,,,,,1.0,,,,10.0,,KIGQ 090535Z AUTO 00000KT 10SM CLR 08/08 A3028 RMK AO2  T00760075,,,,,,45.68,,N,29.62,29.46,,Clear
KIGQ,10/09/2016 05:55 UTC,30.28,46.76,46.58,100.0,0.0,0.0,,,,,,753.0,,,,10.0,,KIGQ 090555Z AUTO 00000KT 10SM BKN075 08/08 A3028 RMK AO2  T00820081 10141 20076 401760041,57.38,45.68,7500.0,63.68,39.38,46.76,,N,29.62,29.42,,Mostly Cloudy
KIGQ,10/09/2016 06:15 UTC,30.28,46.94,46.58,100.0,0.0,0.0,,,,,,754.0,,,,10.0,,KIGQ 090615Z AUTO 00000KT 10SM OVC075 08/08 A3028 RMK AO2  T00830081,,,7500.0,,,46.94,,N,29.62,29.41,,Overcast
KIGQ,10/09/2016 06:35 UTC,30.27,47.84,47.3,100.0,0.0,0.0,,,,,,754.0,,,,10.0,,KIGQ 090635Z AUTO 00000KT 10SM OVC075 09/09 A3027 RMK AO2  T00880085,,,7500.0,,,47.84,,N,29.61,29.37,,Overcast
KIGQ,10/09/2016 06:55 UTC,30.28,46.4,46.4,100.0,0.0,0.0,,,,,,754.0,,,,10.0,,KIGQ 090655Z AUTO 00000KT 10SM OVC075 08/08 A3028 RMK AO2  T00800080,,,7500.0,,,46.4,,N,29.62,29.43,,Overcast
KIGQ,10/09/2016 07:15 UTC,30.28,47.3,46.4,93.45,0.0,0.0,,,,,,753.0,,,,10.0,,KIGQ 090715Z AUTO 00000KT 10SM BKN075 09/08 A3028 RMK AO2  T00850080,,,7500.0,,,45.48,,N,29.62,29.45,,Mostly Cloudy
KIGQ,10/09/2016 07:35 UTC,30.28,46.4,45.86,100.0,0.0,0.0,,,,,,1.0,,,,10.0,,KIGQ 090735Z AUTO 00000KT 10SM CLR 08/08 A3028 RMK AO2  T00800077,,,,,,46.4,,N,29.62,29.43,,Clear
KIGQ,10/09/2016 07:55 UTC,30.27,46.4,45.5,100.0,0.0,0.0,,,,,,1.0,,,,10.0,,KIGQ 090755Z AUTO 00000KT 10SM CLR 08/08 A3027 RMK AO2  T00800075,,,,,,46.4,,N,29.61,29.42,,Clear
KIGQ,10/09/2016 08:15 UTC,30.27,46.76,45.68,100.0,0.0,0.0,,,,,,1.0,,,,10.0,,KIGQ 090815Z AUTO 00000KT 10SM CLR 08/08 A3027 RMK AO2  T00820076,,,,,,46.76,,N,29.61,29.41,,Clear
KIGQ,10/09/2016 08:35 UTC,30.27,46.76,46.04,100.0,3.44,140.0,,,,,,1.0,,,,10.0,,KIGQ 090835Z AUTO 14003KT 10SM CLR 08/08 A3027 RMK AO2  T00820078,,,,,,46.76,,SE,29.61,29.41,,Clear
KIGQ,10/09/2016 08:55 UTC,30.27,46.94,45.86,100.0,0.0,0.0,,,,,,1.0,,,,10.0,,KIGQ 090855Z AUTO 00000KT 10SM CLR 08/08 A3027 RMK AO2  T00830077,,,,,,46.94,,N,29.61,29.4,,Clear
KIGQ,10/09/2016 09:15 UTC,30.27,46.94,45.5,100.0,0.0,0.0,,,,,,1.0,,,,10.0,,KIGQ 090915Z AUTO 00000KT 10SM CLR 08/08 A3027 RMK AO2  T00830075,,,,,,46.94,,N,29.61,29.4,,Clear
KIGQ,10/09/2016 09:35 UTC,30.28,46.58,45.14,93.4,3.44,100.0,,,,,,1.0,,,,10.0,,KIGQ 090935Z AUTO 10003KT 10SM CLR 08/07 A3028 RMK AO2  T00810073,,,,,,44.76,,E,29.62,29.48,,Clear
KIGQ,10/09/2016 09:55 UTC,30.28,45.32,44.78,100.0,0.0,0.0,,,,,,1.0,,,,10.0,,KIGQ 090955Z AUTO 00000KT 10SM CLR 07/07 A3028 RMK AO2  T00740071,,,,,,45.32,,N,29.62,29.47,,Clear
KIGQ,10/09/2016 10:15 UTC,30.28,45.32,44.42,100.0,3.44,140.0,,,,,,1.0,,,,10.0,,KIGQ 091015Z AUTO 14003KT 10SM CLR 07/07 A3028 RMK AO2  T00740069,,,,,,45.32,,SE,29.62,29.47,,Clear
KIGQ,10/09/2016 10:35 UTC,30.29,45.32,44.78,100.0,3.44,120.0,,,,,,1.0,,,,7.0,,KIGQ 091035Z AUTO 12003KT 7SM CLR 07/07 A3029 RMK AO2  T00740071,,,,,,45.32,,ESE,29.63,29.48,,Clear
KIGQ,10/09/2016 10:55 UTC,30.29,44.96,44.42,100.0,3.44,120.0,,,,,,1.0,,,,10.0,,KIGQ 091055Z AUTO 12003KT 10SM CLR 07/07 A3029 RMK AO2  T00720069,,,,,,44.96,,ESE,29.63,29.5,,Clear
KIGQ,10/09/2016 11:15 UTC,30.29,44.6,44.06,100.0,3.44,130.0,,,,,,1.0,,,,10.0,,KIGQ 091115Z AUTO 13003KT 10SM CLR 07/07 A3029 RMK AO2  T00700067,,,,,,44.6,,SE,29.63,29.51,,Clear
KIGQ,10/09/2016 11:35 UTC,30.3,44.06,43.52,93.35,3.44,170.0,,,,,,1.0,,,,10.0,,KIGQ 091135Z AUTO 17003KT 10SM CLR 07/06 A3030 RMK AO2  T00670064,,,,,,42.24,,S,29.64,29.59,,Clear
KIGQ,10/09/2016 11:55 UTC,30.31,44.24,43.88,100.0,4.61,140.0,,,,,,1.0,,,,10.0,,KIGQ 091155Z AUTO 14004KT 10SM CLR 07/07 A3031 RMK AO2 T00680066  10088 20064,47.84,43.52,,,,44.24,,SE,29.65,29.54,,Clear
KIGQ,10/09/2016 12:15 UTC,30.31,45.14,44.24,100.0,4.61,130.0,,,,,,1.0,,,,10.0,,KIGQ 091215Z AUTO 13004KT 10SM CLR 07/07 A3031 RMK AO2  T00730068,,,,,,45.14,,SE,29.65,29.51,,Clear
KIGQ,10/09/2016 12:35 UTC,30.32,45.86,44.6,93.4,4.61,120.0,,,,,,1.0,,,,10.0,,KIGQ 091235Z AUTO 12004KT 10SM CLR 08/07 A3032 RMK AO2  T00770070,,,,,,44.04,,ESE,29.66,29.54,,Clear
KIGQ,10/09/2016 12:55 UTC,30.32,47.3,45.5,93.45,5.75,120.0,,,,,,1.0,,,,10.0,,KIGQ 091255Z AUTO 12005KT 10SM CLR 09/08 A3032 RMK AO2  T00850075,,,,,,45.48,,ESE,29.66,29.49,,Clear
KIGQ,10/09/2016 13:15 UTC,30.33,48.38,45.86,93.45,4.61,110.0,,,,,,1.0,,,,10.0,,KIGQ 091315Z AUTO 11004KT 10SM CLR 09/08 A3033 RMK AO2  T00910077,,,,,,46.56,,ESE,29.67,29.46,,Clear
KIGQ,10/09/2016 13:35 UTC,30.34,49.46,46.22,87.38,6.91,110.0,,,,,,1.0,,,,10.0,,KIGQ 091335Z AUTO 11006KT 10SM CLR 10/08 A3034 RMK AO2  T00970079,,,,,,45.83,,ESE,29.68,29.48,,Clear
KIGQ,10/09/2016 13:55 UTC,30.34,50.72,46.76,87.38,5.75,120.0,,,,,,1.0,,,,10.0,,KIGQ 091355Z AUTO 12005KT 10SM CLR 10/08 A3034 RMK AO2  T01040082,,,,,,47.07,,ESE,29.68,29.43,,Clear
KIGQ,10/09/2016 14:15 UTC,30.35,51.8,46.76,81.75,9.22,100.0,,,,,,1.0,,,,10.0,,KIGQ 091415Z AUTO 10008KT 10SM CLR 11/08 A3035 RMK AO2  T01100082,,,,,,46.34,,E,29.69,29.45,,Clear
KIGQ,10/09/2016 14:35 UTC,30.35,52.7,47.12,76.52,8.05,120.0,,,,,,1.0,,,,10.0,,KIGQ 091435Z AUTO 12007KT 10SM CLR 12/08 A3035 RMK AO2  T01150084,,,,,,45.45,,ESE,29.69,29.47,,Clear
KIGQ,10/09/2016 14:55 UTC,30.35,54.14,47.66,81.88,5.75,130.0,,,,,,1.0,,,,10.0,,KIGQ 091455Z AUTO 13005KT 10SM CLR 12/09 A3035 RMK AO2  T01230087,,,,,,48.67,,SE,29.69,29.36,,Clear
KIGQ,10/09/2016 15:15 UTC,30.35,55.22,48.02,76.68,8.05,100.0,,,,,,1.0,,,,10.0,,KIGQ 091515Z AUTO 10007KT 10SM CLR 13/09 A3035 RMK AO2  T01290089,,,,,,47.96,,E,29.69,29.37,,Clear
KIGQ,10/09/2016 15:35 UTC,30.36,56.12,48.02,76.68,9.22,90.0,,,,,,1.0,,,,10.0,,KIGQ 091535Z AUTO 09008KT 10SM CLR 13/09 A3036 RMK AO2  T01340089,,,,,,48.83,,E,29.7,29.34,,Clear
KIGQ,10/09/2016 15:55 UTC,30.36,57.2,48.2,71.85,9.22,90.0,,,,,,1.0,,,,10.0,,KIGQ 091555Z AUTO 09008KT 10SM CLR 14/09 A3036 RMK AO2  T01400090,,,,,,48.12,,E,29.7,29.36,,Clear
KIGQ,10/09/2016 16:15 UTC,30.36,58.1,48.38,67.36,8.05,90.0,,,,,,1.0,,,,10.0,,KIGQ 091615Z AUTO 09007KT 10SM CLR 15/09 A3036 RMK AO2  T01450091,,,,,,47.25,,E,29.7,29.38,,Clear
KIGQ,10/09/2016 16:35 UTC,30.36,59.0,48.56,67.36,6.91,100.0,,,,,,1.0,,,,10.0,,KIGQ 091635Z AUTO 10006KT 10SM CLR 15/09 A3036 RMK AO2  T01500092,,,,,,48.11,,E,29.7,29.34,,Clear
KIGQ,10/09/2016 16:55 UTC,30.36,59.72,48.56,67.36,6.91,70.0,,,,,,1.0,,,,10.0,,KIGQ 091655Z AUTO 07006KT 10SM CLR 15/09 A3036 RMK AO2  T01540092,,,,,,48.8,,ENE,29.7,29.31,,Clear
KIGQ,10/09/2016 17:15 UTC,30.36,60.26,48.38,63.18,5.75,110.0,,,,,,1.0,,,,10.0,,KIGQ 091715Z AUTO 11005KT 10SM CLR 16/09 A3036 RMK AO2  T01570091,,,,,,47.6,,ESE,29.7,29.35,,Clear
KIGQ,10/09/2016 17:35 UTC,30.35,61.34,49.28,67.57,8.05,130.0,,,,,,1.0,,,,10.0,,KIGQ 091735Z AUTO 13007KT 10SM CLR 16/10 A3035 RMK AO2  T01630096,,,,,,50.44,,SE,29.69,29.22,,Clear
KIGQ,10/09/2016 17:55 UTC,30.34,61.88,49.1,63.42,5.75,110.0,,,,,,1.0,,,,10.0,,KIGQ 091755Z AUTO 11005KT 10SM CLR 17/10 A3034 RMK AO2 T01660095  10166 20069,61.88,44.42,,,,49.24,,ESE,29.68,29.25,,Clear
KIGQ,10/09/2016 18:15 UTC,30.34,62.96,49.82,63.42,0.0,0.0,,,,,,1.0,,,,10.0,,KIGQ 091815Z AUTO 00000KT 10SM CLR 17/10 A3034 RMK AO2  T01720099,,,,,,50.26,,N,29.68,29.21,,Clear
KIGQ,10/09/2016 18:35 UTC,30.33,63.14,48.92,59.3,0.0,0.0,,,,,,1.0,,,,10.0,,KIGQ 091835Z AUTO 00000KT 10SM CLR 17/09 A3033 RMK AO2  T01730094,,,,,,48.62,,N,29.67,29.25,,Clear
KIGQ,10/09/2016 18:55 UTC,30.33,63.5,49.46,59.54,3.44,110.0,,,,,,1.0,,,,10.0,,KIGQ 091855Z AUTO 11003KT 10SM CLR 18/10 A3033 RMK AO2  T01750097,,,,,,49.07,,ESE,29.67,29.23,,Clear
KIGQ,10/09/2016 19:15 UTC,30.32,64.04,49.1,59.54,6.91,20.0,,,,,,1.0,,,,10.0,,KIGQ 091915Z AUTO 02006KT 10SM CLR 18/10 A3032 RMK AO2  T01780095,,,,,,49.58,,NNE,29.66,29.2,,Clear
KIGQ,10/09/2016 19:35 UTC,30.32,64.22,49.1,59.54,9.22,40.0,,,,,,1.0,,,,10.0,,KIGQ 091935Z AUTO 04008KT 10SM CLR 18/10 A3032 RMK AO2  T01790095,,,,,,49.75,,NE,29.66,29.19,,Clear
KIGQ,10/09/2016 19:55 UTC,30.32,63.32,49.46,63.42,9.22,40.0,,,,,,1.0,,,,10.0,,KIGQ 091955Z AUTO 04008KT 010V070 10SM CLR 17/10 A3032 RMK AO2  T01740097,,,,,,50.6,,NE,29.66,29.17,,Clear
KIGQ,10/09/2016 20:15 UTC,30.32,63.32,49.1,63.42,8.05,50.0,,,,,,1.0,,,,10.0,,KIGQ 092015Z AUTO 05007KT 10SM CLR 17/10 A3032 RMK AO2  T01740095,,,,,,50.6,,NE,29.66,29.17,,Clear
KIGQ,10/09/2016 20:35 UTC,30.32,62.96,49.82,63.42,10.36,50.0,,,,,,1.0,,,,10.0,,KIGQ 092035Z AUTO 05009KT 10SM CLR 17/10 A3032 RMK AO2  T01720099,,,,,,50.26,,NE,29.66,29.18,,Clear
KIGQ,10/09/2016 20:55 UTC,30.32,62.6,49.64,63.42,11.5,30.0,,,,,,1.0,,,,10.0,,KIGQ 092055Z AUTO 03010KT 10SM CLR 17/10 A3032 RMK AO2  T01700098,,,,,,49.92,,NNE,29.66,29.2,,Clear
KIGQ,10/09/2016 21:15 UTC,30.32,61.7,49.64,63.42,9.22,40.0,,6.0,,,,75.0,,,,1.0,,KIGQ 092115Z AUTO 04008KT 1SM HZ VV007 17/10 A3032 RMK AO2  T01650098,,,700.0,,,49.07,,NE,29.66,29.24,,Haze
KIGQ,10/09/2016 21:35 UTC,30.32,61.16,49.28,67.57,12.66,40.0,17.27,,,,,1.0,,,,10.0,,KIGQ 092135Z AUTO 04011G15KT 10SM CLR 16/10 A3032 RMK AO2  T01620096,,,,,,50.26,,NE,29.66,29.2,,Clear
KIGQ,10/09/2016 21:55 UTC,30.32,60.8,49.28,67.57,11.5,30.0,,,,,,1.0,,,,10.0,,KIGQ 092155Z AUTO 03010KT 10SM CLR 16/10 A3032 RMK AO2  T01600096,,,,,,49.92,,NNE,29.66,29.22,,Clear
KIGQ,10/09/2016 22:15 UTC,30.32,60.08,49.64,67.57,8.05,40.0,,,,,,1.0,,,,10.0,,KIGQ 092215Z AUTO 04007KT 10SM CLR 16/10 A3032 RMK AO2  T01560098,,,,,,49.23,,NE,29.66,29.25,,Clear
KIGQ,10/09/2016 22:35 UTC,30.32,59.9,49.82,67.57,9.22,50.0,,,,,,1.0,,,,10.0,,KIGQ 092235Z AUTO 05008KT 10SM CLR 16/10 A3032 RMK AO2  T01550099,,,,,,49.06,,NE,29.66,29.26,,Clear
KIGQ,10/09/2016 22:55 UTC,30.32,59.36,50.0,72.04,6.91,40.0,,,,,,1.0,,,,10.0,,KIGQ 092255Z AUTO 04006KT 10SM CLR 15/10 A3032 RMK AO2  T01520100,,,,,,50.27,,NE,29.66,29.22,,Clear
KIGQ,10/09/2016 23:15 UTC,30.32,58.64,50.18,72.04,6.91,40.0,,,,,,1.0,,,,10.0,,KIGQ 092315Z AUTO 04006KT 10SM CLR 15/10 A3032 RMK AO2  T01480101,,,,,,49.58,,NE,29.66,29.25,,Clear
KIGQ,10/09/2016 23:35 UTC,30.32,58.1,49.82,72.04,5.75,40.0,,,,,,1.0,,,,10.0,,KIGQ 092335Z AUTO 04005KT 10SM CLR 15/10 A3032 RMK AO2  T01450099,,,,,,49.06,,NE,29.66,29.27,,Clear
KIGQ,10/09/2016 23:55 UTC,30.32,57.02,49.28,76.85,4.61,40.0,,,,,,1.0,,,,10.0,,KIGQ 092355Z AUTO 04004KT 10SM CLR 14/10 A3032 RMK AO2 T01390096  10182 20139,64.76,57.02,,,,49.76,,NE,29.66,29.26,,Clear
KIGQ,10/10/2016 00:15 UTC,30.33,56.48,49.1,76.85,5.75,40.0,,,,,,1.0,,,,10.0,,KIGQ 100015Z AUTO 04005KT 10SM CLR 14/10 A3033 RMK AO2  T01360095,,,,,,49.24,,NE,29.67,29.29,,Clear
KIGQ,10/10/2016 00:35 UTC,30.33,55.94,48.74,76.68,4.61,40.0,,,,,,1.0,,,,10.0,,KIGQ 100035Z AUTO 04004KT 10SM CLR 13/09 A3033 RMK AO2  T01330093,,,,,,48.66,,NE,29.67,29.32,,Clear
KIGQ,10/10/2016 00:55 UTC,30.34,55.76,48.56,76.68,5.75,40.0,,,,,,1.0,,,,10.0,,KIGQ 100055Z AUTO 04005KT 10SM CLR 13/09 A3034 RMK AO2  T01320092,,,,,,48.48,,NE,29.68,29.34,,Clear
KIGQ,10/10/2016 01:15 UTC,30.34,55.58,48.92,76.68,3.44,50.0,,,,,,1.0,,,,10.0,,KIGQ 100115Z AUTO 05003KT 10SM CLR 13/09 A3034 RMK AO2  T01310094,,,,,,48.31,,NE,29.68,29.34,,Clear
KIGQ,10/10/2016 01:35 UTC,30.34,55.4,49.28,82.01,4.61,50.0,,,,,,1.0,,,,10.0,,KIGQ 100135Z AUTO 05004KT 10SM CLR 13/10 A3034 RMK AO2  T01300096,,,,,,49.95,,NE,29.68,29.29,,Clear
KIGQ,10/10/2016 01:55 UTC,30.34,55.76,49.64,82.01,3.44,50.0,,,,,,1.0,,,,10.0,,KIGQ 100155Z AUTO 05003KT 10SM CLR 13/10 A3034 RMK AO2  T01320098,,,,,,50.3,,NE,29.68,29.27,,Clear
KIGQ,10/10/2016 02:15 UTC,30.34,55.58,49.82,82.01,4.61,60.0,,,,,,1.0,,,,10.0,,KIGQ 100215Z AUTO 06004KT 10SM CLR 13/10 A3034 RMK AO2  T01310099,,,,,,50.12,,ENE,29.68,29.28,,Clear
KIGQ,10/10/2016 02:35 UTC,30.35,54.86,49.64,82.01,4.61,70.0,,,,,,1.0,,,,10.0,,KIGQ 100235Z AUTO 07004KT 10SM CLR 13/10 A3035 RMK AO2  T01270098,,,,,,49.42,,ENE,29.69,29.32,,Clear
KIGQ,10/10/2016 02:55 UTC,30.36,54.86,49.82,82.01,0.0,0.0,,,,,,1.0,,,,10.0,,KIGQ 100255Z AUTO 00000KT 10SM CLR 13/10 A3036 RMK AO2  T01270099,,,,,,49.42,,N,29.7,29.33,,Clear
KIGQ,10/10/2016 03:15 UTC,30.36,54.14,48.74,81.88,4.61,80.0,,,,,,1.0,,,,10.0,,KIGQ 100315Z AUTO 08004KT 10SM CLR 12/09 A3036 RMK AO2  T01230093,,,,,,48.67,,E,29.7,29.37,,Clear
KIGQ,10/10/2016 03:35 UTC,30.36,53.6,47.3,81.88,4.61,80.0,,,,,,1.0,,,,10.0,,KIGQ 100335Z AUTO 08004KT 10SM CLR 12/09 A3036 RMK AO2  T01200085,,,,,,48.14,,E,29.7,29.39,,Clear
KIGQ,10/10/2016 03:55 UTC,30.36,53.06,46.58,76.52,4.61,80.0,,,,,,1.0,,,,10.0,,KIGQ 100355Z AUTO 08004KT 10SM CLR 12/08 A3036 RMK AO2  T01170081,,,,,,45.8,,E,29.7,29.47,,Clear
KIGQ,10/10/2016 04:15 UTC,30.35,52.7,46.4,76.52,4.61,80.0,,,,,,1.0,,,,10.0,,KIGQ 100415Z AUTO 08004KT 10SM CLR 12/08 A3035 RMK AO2  T01150080,,,,,,45.45,,E,29.69,29.47,,Clear
KIGQ,10/10/2016 04:35 UTC,30.35,51.98,46.04,81.75,3.44,80.0,,,,,,1.0,,,,10.0,,KIGQ 100435Z AUTO 08003KT 10SM CLR 11/08 A3035 RMK AO2  T01110078,,,,,,46.52,,E,29.69,29.45,,Clear
KIGQ,10/10/2016 04:55 UTC,30.34,51.26,45.68,81.75,3.44,80.0,,,,,,1.0,,,,10.0,,KIGQ 100455Z AUTO 08003KT 10SM CLR 11/08 A3034 RMK AO2  T01070076,,,,,,45.81,,E,29.68,29.46,,Clear
KIGQ,10/10/2016 05:15 UTC,30.34,51.08,45.5,81.75,3.44,60.0,,,,,,1.0,,,,10.0,,KIGQ 100515Z AUTO 06003KT 10SM CLR 11/08 A3034 RMK AO2  T01060075,,,,,,45.64,,ENE,29.68,29.47,,Clear
KIGQ,10/10/2016 05:35 UTC,30.33,50.54,45.5,87.38,3.44,70.0,,,,,,1.0,,,,10.0,,KIGQ 100535Z AUTO 07003KT 10SM CLR 10/08 A3033 RMK AO2  T01030075,,,,,,46.89,,ENE,29.67,29.43,,Clear
KIGQ,10/10/2016 05:55 UTC,30.34,50.0,45.5,87.38,0.0,0.0,,,,,,1.0,,,,10.0,,KIGQ 100555Z AUTO 00000KT 10SM CLR 10/08 A3034 RMK AO2 T01000075  10138 20100 401820064,56.84,50.0,,64.76,43.52,46.36,,N,29.68,29.46,,Clear
KIGQ,10/10/2016 06:15 UTC,30.34,50.0,45.5,87.38,3.44,90.0,,,,,,1.0,,,,10.0,,KIGQ 100615Z AUTO 09003KT 10SM CLR 10/08 A3034 RMK AO2  T01000075,,,,,,46.36,,E,29.68,29.46,,Clear
KIGQ,10/10/2016 06:35 UTC,30.34,49.28,45.5,87.38,0.0,0.0,,,,,,1.0,,,,10.0,,KIGQ 100635Z AUTO 00000KT 10SM CLR 10/08 A3034 RMK AO2  T00960075,,,,,,45.65,,N,29.68,29.49,,Clear
KIGQ,10/10/2016 06:55 UTC,30.34,48.2,44.96,87.28,0.0,0.0,,,,,,1.0,,,,10.0,,KIGQ 100655Z AUTO 00000KT 10SM CLR 09/07 A3034 RMK AO2  T00900072,,,,,,44.55,,N,29.68,29.53,,Clear
KIGQ,10/10/2016 07:15 UTC,30.33,46.4,44.6,93.4,3.44,70.0,,,,,,1.0,,,,10.0,,KIGQ 100715Z AUTO 07003KT 10SM CLR 08/07 A3033 RMK AO2  T00800070,,,,,,44.58,,ENE,29.67,29.53,,Clear
KIGQ,10/10/2016 07:35 UTC,30.34,47.84,44.6,87.28,0.0,0.0,,,,,,1.0,,,,10.0,,KIGQ 100735Z AUTO 00000KT 10SM CLR 09/07 A3034 RMK AO2  T00880070,,,,,,44.2,,N,29.68,29.54,,Clear
KIGQ,10/10/2016 07:55 UTC,30.33,45.86,44.6,93.4,0.0,0.0,,,,,,1.0,,,,10.0,,KIGQ 100755Z AUTO 00000KT 10SM CLR 08/07 A3033 RMK AO2  T00770070,,,,,,44.04,,N,29.67,29.55,,Clear
KIGQ,10/10/2016 08:15 UTC,30.33,45.32,44.42,100.0,0.0,0.0,,,,,,1.0,,,,10.0,,KIGQ 100815Z AUTO 00000KT 10SM CLR 07/07 A3033 RMK AO2  T00740069,,,,,,45.32,,N,29.67,29.52,,Clear
KIGQ,10/10/2016 08:35 UTC,30.33,46.4,44.6,93.4,3.44,110.0,,,,,,1.0,,,,10.0,,KIGQ 100835Z AUTO 11003KT 10SM CLR 08/07 A3033 RMK AO2  T00800070,,,,,,44.58,,ESE,29.67,29.53,,Clear
KIGQ,10/10/2016 08:55 UTC,30.34,45.5,44.24,93.4,3.44,110.0,,,,,,1.0,,,,10.0,,KIGQ 100855Z AUTO 11003KT 10SM CLR 08/07 A3034 RMK AO2  T00750068,,,,,,43.68,,ESE,29.68,29.58,,Clear
KIGQ,10/10/2016 09:15 UTC,30.34,45.68,43.88,93.4,3.44,110.0,,,,,,1.0,,,,10.0,,KIGQ 100915Z AUTO 11003KT 10SM CLR 08/07 A3034 RMK AO2  T00760066,,,,,,43.86,,ESE,29.68,29.57,,Clear
KIGQ,10/10/2016 09:35 UTC,30.34,44.6,43.16,93.35,3.44,120.0,,,,,,1.0,,,,10.0,,KIGQ 100935Z AUTO 12003KT 10SM CLR 07/06 A3034 RMK AO2  T00700062,,,,,,42.78,,ESE,29.68,29.61,,Clear
KIGQ,10/10/2016 09:55 UTC,30.34,45.14,43.52,93.35,3.44,120.0,,,,,,1.0,,,,10.0,,KIGQ 100955Z AUTO 12003KT 10SM CLR 07/06 A3034 RMK AO2  T00730064,,,,,,43.31,,ESE,29.68,29.59,,Clear
KIGQ,10/10/2016 10:15 UTC,30.35,45.32,43.16,93.35,3.44,130.0,,,,,,1.0,,,,10.0,,KIGQ 101015Z AUTO 13003KT 10SM CLR 07/06 A3035 RMK AO2  T00740062,,,,,,43.49,,SE,29.69,29.59,,Clear
KIGQ,10/10/2016 10:35 UTC,30.35,45.5,42.98,87.19,4.61,130.0,,,,,,1.0,,,,10.0,,KIGQ 101035Z AUTO 13004KT 10SM CLR 08/06 A3035 RMK AO2  T00750061,,,,,,41.87,,SE,29.69,29.63,,Clear
KIGQ,10/10/2016 10:55 UTC,30.36,45.68,43.16,87.19,3.44,140.0,,,,,,1.0,,,,10.0,,KIGQ 101055Z AUTO 14003KT 10SM CLR 08/06 A3036 RMK AO2  T00760062,,,,,,42.05,,SE,29.7,29.64,,Clear
KIGQ,10/10/2016 11:15 UTC,30.36,45.86,42.8,87.19,4.61,140.0,,,,,,1.0,,,,10.0,,KIGQ 101115Z AUTO 14004KT 10SM CLR 08/06 A3036 RMK AO2  T00770060,,,,,,42.22,,SE,29.7,29.63,,Clear
KIGQ,10/10/2016 11:35 UTC,30.36,46.04,42.98,88.99,3.44,140.0,,,,,,1.0,,,,10.0,,KIGQ 101135Z AUTO 14003KT 10SM CLR 08/06 A3036 RMK AO2  T00780061,,,,,,42.94,,SE,29.7,29.61,,Clear
KIGQ,10/10/2016 11:55 UTC,30.36,45.5,42.8,87.19,3.44,130.0,,,,,,1.0,,,,10.0,,KIGQ 101155Z AUTO 13003KT 10SM CLR 08/06 A3036 RMK AO2 T00750060  10100 20070,50.0,44.6,,,,41.87,,SE,29.7,29.64,,Clear
KIGQ,10/10/2016 12:15 UTC,30.37,45.32,42.8,93.35,3.44,130.0,,,,,,1.0,,,,10.0,,KIGQ 101215Z AUTO 13003KT 10SM CLR 07/06 A3037 RMK AO2  T00740060,,,,,,43.49,,SE,29.71,29.61,,Clear
KIGQ,10/10/2016 12:35 UTC,30.36,46.4,43.52,87.19,5.75,130.0,,,,,,1.0,,,,10.0,,KIGQ 101235Z AUTO 13005KT 10SM CLR 08/06 A3036 RMK AO2  T00800064,,,,,,42.75,,SE,29.7,29.61,,Clear
KIGQ,10/10/2016 12:55 UTC,30.37,48.2,44.6,87.28,4.61,150.0,,,,,,1.0,,,,10.0,,KIGQ 101255Z AUTO 15004KT 10SM CLR 09/07 A3037,,,,,,44.55,,SSE,29.71,29.56,,Clear
KIGQ,10/10/2016 13:15 UTC,30.37,49.1,44.6,81.61,8.05,140.0,,,,,,1.0,,,,10.0,,KIGQ 101315Z AUTO 14007KT 10SM CLR 10/07 A3037 RMK AO2  T00950070,,,,,,43.66,,SE,29.71,29.58,,Clear
KIGQ,10/10/2016 13:35 UTC,30.37,50.36,45.32,81.61,8.05,150.0,,,,,,1.0,,,,10.0,,KIGQ 101335Z AUTO 15007KT 10SM CLR 10/07 A3037 RMK AO2  T01020074,,,,,,44.89,,SSE,29.71,29.53,,Clear
KIGQ,10/10/2016 13:55 UTC,30.37,51.98,45.86,81.75,9.22,140.0,,,,,,1.0,,,,10.0,,KIGQ 101355Z AUTO 14008KT 10SM CLR 11/08 A3037 RMK AO2  T01110077,,,,,,46.52,,SE,29.71,29.47,,Clear
KIGQ,10/10/2016 14:15 UTC,30.37,53.6,46.4,76.52,6.91,160.0,,,,,,1.0,,,,10.0,,KIGQ 101415Z AUTO 16006KT 10SM CLR 12/08 A3037 RMK AO2  T01200080,,,,,,46.33,,SSE,29.71,29.46,,Clear
KIGQ,10/10/2016 14:35 UTC,30.37,54.5,47.66,76.68,6.91,150.0,,,,,,1.0,,,,10.0,,KIGQ 101435Z AUTO 15006KT 10SM CLR 13/09 A3037 RMK AO2  T01250087,,,,,,47.26,,SSE,29.71,29.42,,Clear
KIGQ,10/10/2016 14:55 UTC,30.38,55.58,48.2,76.68,6.91,150.0,,,,,,1.0,,,,10.0,,KIGQ 101455Z AUTO 15006KT 10SM CLR 13/09 A3038 RMK AO2  T01310090,,,,,,48.31,,SSE,29.72,29.39,,Clear
KIGQ,10/10/2016 15:15 UTC,30.37,56.3,47.84,71.85,4.61,160.0,,,,,,1.0,,,,10.0,,KIGQ 101515Z AUTO 16004KT 10SM CLR 14/09 A3037 RMK AO2  T01350088,,,,,,47.25,,SSE,29.71,29.4,,Clear
KIGQ,10/10/2016 15:35 UTC,30.37,57.74,49.1,76.85,5.75,150.0,,,,,,1.0,,,,10.0,,KIGQ 101535Z AUTO 15005KT 10SM CLR 14/10 A3037 RMK AO2  T01430095,,,,,,50.46,,SSE,29.71,29.28,,Clear
KIGQ,10/10/2016 15:55 UTC,30.36,59.72,50.36,72.04,5.75,140.0,,,,,,1.0,,,,10.0,,KIGQ 101555Z AUTO 14005KT 10SM CLR 15/10 A3036 RMK AO2  T01540102,,,,,,50.62,,SE,29.7,29.24,,Clear
KIGQ,10/10/2016 16:15 UTC,30.36,60.44,51.08,72.23,5.75,160.0,,,,,,1.0,,,,10.0,,KIGQ 101615Z AUTO 16005KT 10SM CLR 16/11 A3036 RMK AO2  T01580106,,,,,,51.39,,SSE,29.7,29.21,,Clear
KIGQ,10/10/2016 16:35 UTC,30.34,61.7,51.62,67.79,4.61,150.0,,,,,,1.0,,,,10.0,,KIGQ 101635Z AUTO 15004KT 10SM CLR 17/11 A3034 RMK AO2  T01650109,,,,,,50.87,,SSE,29.68,29.19,,Clear
KIGQ,10/10/2016 16:55 UTC,30.34,63.5,53.06,67.99,6.91,150.0,,,,,,1.0,,,,10.0,,KIGQ 101655Z AUTO 15006KT 10SM CLR 18/12 A3034 RMK AO2  T01750117,,,,,,52.67,,SSE,29.68,29.1,,Clear
KIGQ,10/10/2016 17:15 UTC,30.34,63.86,52.88,67.99,4.61,170.0,,,,,,1.0,,,,10.0,,KIGQ 101715Z AUTO 17004KT 10SM CLR 18/12 A3034 RMK AO2  T01770116,,,,,,53.02,,S,29.68,29.09,,Clear
KIGQ,10/10/2016 17:35 UTC,30.33,64.76,52.52,63.64,3.44,180.0,,,,,,1.0,,,,10.0,,KIGQ 101735Z AUTO 18003KT 10SM CLR 18/11 A3033 RMK AO2  T01820114,,,,,,52.07,,S,29.67,29.11,,Clear
KIGQ,10/10/2016 17:55 UTC,30.32,65.48,52.7,63.87,4.61,130.0,,,,,,1.0,,,,10.0,,KIGQ 101755Z AUTO 13004KT 10SM CLR 19/12 A3032 RMK AO2 T01860115  10186 20072,65.48,44.96,,,,52.85,,SE,29.66,29.06,,Clear
KIGQ,10/10/2016 18:15 UTC,30.32,66.38,53.42,63.06,0.0,0.0,,,,,,1.0,,,,10.0,,KIGQ 101815Z AUTO 00000KT 10SM CLR 19/12 A3032 RMK AO2  T01910119,,,,,,53.36,,N,29.66,29.03,,Clear
KIGQ,10/10/2016 18:35 UTC,30.31,67.46,53.42,60.03,6.91,170.0,,,,,,1.0,,,,10.0,,KIGQ 101835Z AUTO 17006KT 10SM CLR 20/12 A3031 RMK AO2  T01970119,,,,,,53.03,,S,29.65,29.02,,Clear
KIGQ,10/10/2016 18:55 UTC,30.3,68.18,52.52,56.19,6.91,170.0,,,,,,1.0,,,,10.0,,KIGQ 101855Z AUTO 17006KT 10SM CLR 20/11 A3030 RMK AO2  T02010114,,,,,,51.9,,S,29.64,29.05,,Clear
KIGQ,10/10/2016 19:15 UTC,30.29,68.36,51.8,56.19,3.44,210.0,,,,,,1.0,,,,10.0,,KIGQ 101915Z AUTO 21003KT 10SM CLR 20/11 A3029 RMK AO2  T02020110,,,,,,52.07,,SSW,29.63,29.03,,Clear
KIGQ,10/10/2016 19:35 UTC,30.29,69.08,52.7,56.44,4.61,170.0,,,,,,1.0,,,,10.0,,KIGQ 101935Z AUTO 17004KT 10SM CLR 21/12 A3029 RMK AO2  T02060115,,,,,,52.87,,S,29.63,28.99,,Clear
KIGQ,10/10/2016 19:55 UTC,30.28,69.8,51.8,52.83,0.0,0.0,,,,,,1.0,,,,10.0,,KIGQ 101955Z AUTO 00000KT 10SM CLR 21/11 A3028 RMK AO2  T02100110,,,,,,51.74,,N,29.62,29.02,,Clear
KIGQ,10/10/2016 20:15 UTC,30.28,70.16,53.24,56.44,5.75,170.0,,,,,,1.0,,,,10.0,,KIGQ 102015Z AUTO 17005KT 10SM CLR 21/12 A3028 RMK AO2  T02120118,,,,,,53.88,,S,29.62,28.93,,Clear
KIGQ,10/10/2016 20:35 UTC,30.27,70.7,51.44,49.7,4.61,130.0,,,,,,1.0,,,,10.0,,KIGQ 102035Z AUTO 13004KT 10SM CLR 22/11 A3027 RMK AO2  T02150108,,,,,,50.91,,SE,29.61,29.04,,Clear
KIGQ,10/10/2016 20:55 UTC,30.27,70.7,51.98,49.7,4.61,140.0,,,,,,1.0,,,,10.0,,KIGQ 102055Z AUTO 14004KT 10SM CLR 22/11 A3027 RMK AO2  T02150111,,,,,,50.91,,SE,29.61,29.04,,Clear
KIGQ,10/10/2016 21:15 UTC,30.26,70.7,51.8,49.7,5.75,140.0,,,,,,1.0,,,,10.0,,KIGQ 102115Z AUTO 14005KT 10SM CLR 22/11 A3026 RMK AO2  T02150110,,,,,,50.91,,SE,29.6,29.03,,Clear
KIGQ,10/10/2016 21:35 UTC,30.26,69.98,52.34,52.83,6.91,150.0,,,,,,1.0,,,,10.0,,KIGQ 102135Z AUTO 15006KT 10SM CLR 21/11 A3026 RMK AO2  T02110113,,,,,,51.9,,SSE,29.6,28.99,,Clear
KIGQ,10/10/2016 21:55 UTC,30.26,69.08,51.8,52.83,5.75,140.0,,,,,,1.0,,,,10.0,,KIGQ 102155Z AUTO 14005KT 10SM CLR 21/11 A3026 RMK AO2  T02060110,,,,,,51.07,,SE,29.6,29.04,,Clear
KIGQ,10/10/2016 22:15 UTC,30.26,68.36,51.08,56.19,4.61,140.0,,,,,,1.0,,,,10.0,,KIGQ 102215Z AUTO 14004KT 10SM CLR 20/11 A3026 RMK AO2  T02020106,,,,,,52.07,,SE,29.6,29.0,,Clear
KIGQ,10/10/2016 22:35 UTC,30.26,66.74,50.9,59.79,5.75,130.0,,,,,,1.0,,,,10.0,,KIGQ 102235Z AUTO 13005KT 10SM CLR 19/11 A3026 RMK AO2  T01930105,,,,,,52.24,,SE,29.6,29.01,,Clear
KIGQ,10/10/2016 22:55 UTC,30.26,66.2,50.9,59.79,4.61,130.0,,,,,,1.0,,,,10.0,,KIGQ 102255Z AUTO 13004KT 10SM CLR 19/11 A3026 RMK AO2  T01900105,,,,,,51.73,,SE,29.6,29.04,,Clear
KIGQ,10/10/2016 23:15 UTC,30.26,65.3,50.9,59.79,3.44,130.0,,,,,,1.0,,,,10.0,,KIGQ 102315Z AUTO 13003KT 10SM CLR 19/11 A3026 RMK AO2  T01850105,,,,,,50.88,,SE,29.6,29.08,,Clear
KIGQ,10/10/2016 23:35 UTC,30.26,63.5,50.72,59.54,4.61,130.0,,,,,,1.0,,,,10.0,,KIGQ 102335Z AUTO 13004KT 10SM CLR 18/10 A3026 RMK AO2  T01750104,,,,,,49.07,,SE,29.6,29.16,,Clear
KIGQ,10/10/2016 23:55 UTC,30.25,62.42,50.54,63.42,4.61,110.0,,,,,,1.0,,,,10.0,,KIGQ 102355Z AUTO 11004KT 10SM CLR 17/10 A3025 RMK AO2 T01690103  10217 20169,71.06,62.42,,,,49.75,,ESE,29.59,29.14,,Clear
KIGQ,10/11/2016 00:15 UTC,30.25,61.16,51.26,72.23,4.61,110.0,,,,,,1.0,,,,10.0,,KIGQ 110015Z AUTO 11004KT 10SM CLR 16/11 A3025 RMK AO2  T01620107,,,,,,52.08,,ESE,29.59,29.06,,Clear
KIGQ,10/11/2016 00:35 UTC,30.25,60.98,51.08,72.23,5.75,120.0,,,,,,1.0,,,,10.0,,KIGQ 110035Z AUTO 12005KT 10SM CLR 16/11 A3025 RMK AO2  T01610106,,,,,,51.91,,ESE,29.59,29.07,,Clear
KIGQ,10/11/2016 00:55 UTC,30.25,60.08,50.9,72.23,5.75,120.0,,,,,,1.0,,,,10.0,,KIGQ 110055Z AUTO 12005KT 10SM CLR 16/11 A3025 RMK AO2 LTG DSNT W  T01560105,,,,,,51.04,,ESE,29.59,29.11,,Clear
KIGQ,10/11/2016 01:15 UTC,30.25,59.9,50.9,72.23,4.61,120.0,,,,,,1.0,,,,10.0,,KIGQ 110115Z AUTO 12004KT 10SM CLR 16/11 A3025 RMK AO2  T01550105,,,,,,50.87,,ESE,29.59,29.12,,Clear
KIGQ,10/11/2016 01:35 UTC,30.25,59.18,50.54,72.04,4.61,120.0,,,,,,1.0,,,,10.0,,KIGQ 110135Z AUTO 12004KT 10SM CLR 15/10 A3025 RMK AO2  T01510103,,,,,,50.1,,ESE,29.59,29.16,,Clear
KIGQ,10/11/2016 01:55 UTC,30.25,59.0,50.36,72.04,4.61,120.0,,,,,,1.0,,,,10.0,,KIGQ 110155Z AUTO 12004KT 10SM CLR 15/10 A3025 RMK AO2  T01500102,,,,,,49.93,,ESE,29.59,29.16,,Clear
KIGQ,10/11/2016 02:15 UTC,30.25,60.08,50.36,67.57,0.0,0.0,,,,,,1.0,,,,10.0,,KIGQ 110215Z AUTO 00000KT 10SM CLR 16/10 A3025 RMK AO2  T01560102,,,,,,49.23,,N,29.59,29.18,,Clear
KIGQ,10/11/2016 02:35 UTC,30.25,59.9,50.54,67.57,3.44,150.0,,,,,,1.0,,,,10.0,,KIGQ 110235Z AUTO 15003KT 10SM CLR 16/10 A3025 RMK AO2  T01550103,,,,,,49.06,,SSE,29.59,29.19,,Clear
KIGQ,10/11/2016 02:55 UTC,30.25,60.8,50.54,67.57,4.61,140.0,,,,,,1.0,,,,10.0,,KIGQ 110255Z AUTO 14004KT 10SM CLR 16/10 A3025 RMK AO2  T01600103,,,,,,49.92,,SE,29.59,29.15,,Clear
KIGQ,10/11/2016 03:15 UTC,30.24,60.98,50.9,72.23,3.44,130.0,,,,,,1.0,,,,10.0,,KIGQ 110315Z AUTO 13003KT 10SM CLR 16/11 A3024 RMK AO2  T01610105,,,,,,51.91,,SE,29.58,29.06,,Clear
KIGQ,10/11/2016 03:35 UTC,30.24,60.98,50.9,72.23,4.61,150.0,,,,,,1202.0,,,,10.0,,KIGQ 110335Z AUTO 15004KT 10SM SCT120 16/11 A3024 RMK AO2  T01610105,,,,,,51.91,,SSE,29.58,29.06,,Partly Cloudy
KIGQ,10/11/2016 03:55 UTC,30.24,60.98,50.9,72.23,4.61,140.0,,,,,,1103.0,,,,10.0,,KIGQ 110355Z AUTO 14004KT 10SM BKN110 16/11 A3024 RMK AO2  T01610105,,,11000.0,,,51.91,,SE,29.58,29.06,,Mostly Cloudy
KIGQ,10/11/2016 04:15 UTC,30.24,61.16,50.72,67.57,4.61,150.0,,,,,,1103.0,,,,10.0,,KIGQ 110415Z AUTO 15004KT 10SM BKN110 16/10 A3024 RMK AO2  T01620104,,,11000.0,,,50.26,,SSE,29.58,29.12,,Mostly Cloudy
KIGQ,10/11/2016 04:35 UTC,30.23,60.62,50.54,67.57,3.44,140.0,,,,,,1.0,,,,10.0,,KIGQ 110435Z AUTO 14003KT 10SM CLR 16/10 A3023 RMK AO2  T01590103,,,,,,49.75,,SE,29.57,29.13,,Clear
KIGQ,10/11/2016 04:55 UTC,30.23,59.9,50.36,67.57,3.44,150.0,,,,,,1.0,,,,10.0,,KIGQ 110455Z AUTO 15003KT 10SM CLR 16/10 A3023 RMK AO2  T01550102,,,,,,49.06,,SSE,29.57,29.17,,Clear
KIGQ,10/11/2016 05:15 UTC,30.23,60.08,50.9,72.23,4.61,150.0,,,,,,1.0,,,,10.0,,KIGQ 110515Z AUTO 15004KT 10SM CLR 16/11 A3023 RMK AO2  T01560105,,,,,,51.04,,SSE,29.57,29.09,,Clear
KIGQ,10/11/2016 05:35 UTC,30.23,59.54,50.9,77.01,4.61,160.0,,,,,,1.0,,,,10.0,,KIGQ 110535Z AUTO 16004KT 10SM CLR 15/11 A3023 RMK AO2  T01530105,,,,,,52.27,,SSE,29.57,29.05,,Clear
KIGQ,10/11/2016 05:55 UTC,30.24,58.46,51.08,77.01,4.61,160.0,,,,,,1.0,,,,10.0,,KIGQ 110555Z AUTO 16004KT 10SM CLR 15/11 A3024 RMK AO2 T01470106  10168 20147 402170070,62.24,58.46,,71.06,44.6,51.22,,SSE,29.58,29.11,,Clear
KIGQ,10/11/2016 06:15 UTC,30.24,59.72,51.8,77.01,5.75,170.0,,,,,,1.0,,,,10.0,,KIGQ 110615Z AUTO 17005KT 10SM CLR 15/11 A3024 RMK AO2  T01540110,,,,,,52.44,,S,29.58,29.05,,Clear
KIGQ,10/11/2016 06:35 UTC,30.24,59.18,51.98,77.01,5.75,180.0,,,,,,1202.0,,,,10.0,,KIGQ 110635Z AUTO 18005KT 10SM SCT120 15/11 A3024 RMK AO2  T01510111,,,,,,51.92,,S,29.58,29.08,,Partly Cloudy
KIGQ,10/11/2016 06:55 UTC,30.24,59.0,,77.01,6.91,190.0,,,,,,1202.0,,,,10.0,,,,,,,,51.74,,S,29.58,29.09,,Partly Cloudy
KIGQ,10/11/2016 07:15 UTC,30.24,57.74,,80.56,5.75,180.0,,,,,,1203.0,,,,10.0,,,,,12000.0,,,51.75,,S,29.58,29.1,,Mostly Cloudy
KIGQ,10/11/2016 07:35 UTC,30.24,57.56,,81.08,5.75,170.0,,,,,,1103.0,,,,10.0,,,,,11000.0,,,51.75,,S,29.58,29.1,,Mostly Cloudy
KIGQ,10/11/2016 07:55 UTC,30.24,58.1,,79.53,6.91,170.0,,,,,,1103.0,,,,10.0,,,,,11000.0,,,51.75,,S,29.58,29.09,,Mostly Cloudy
KIGQ,10/11/2016 08:15 UTC,30.23,57.38,,81.61,6.91,170.0,,,,,,1102.0,,,,10.0,,,,,,,,51.75,,S,29.57,29.09,,Partly Cloudy
KIGQ,10/11/2016 08:35 UTC,30.23,55.94,,84.83,6.91,180.0,,,,,,1102.0,,,,10.0,,,,,,,,51.4,,S,29.57,29.12,,Partly Cloudy
KIGQ,10/11/2016 08:55 UTC,30.23,55.4,,87.66,6.91,180.0,,,,,,1.0,,,,10.0,,,,,,,,51.76,,S,29.57,29.11,,Clear
KIGQ,10/11/2016 09:15 UTC,30.23,55.4,,87.66,6.91,170.0,,,,,,1.0,,,,10.0,,,,,,,,51.76,,S,29.57,29.11,,Clear
KIGQ,10/11/2016 09:35 UTC,30.23,55.94,,87.11,6.91,180.0,,,,,,1.0,,,,10.0,,,,,,,,52.12,,S,29.57,29.09,,Clear
KIGQ,10/11/2016 09:55 UTC,30.23,55.58,,88.25,8.05,180.0,,,,,,1.0,,,,10.0,,,,,,,,52.13,,S,29.57,29.1,,Clear
KIGQ,10/11/2016 10:15 UTC,30.24,56.84,,86.02,8.05,190.0,,,,,,1.0,,,,10.0,,,,,,,,52.66,,S,29.58,29.07,,Clear
KIGQ,10/11/2016 10:35 UTC,30.24,57.2,,87.75,6.91,180.0,,,,,,1.0,,,,10.0,,,,,,,,53.57,,S,29.58,29.03,,Clear
KIGQ,10/11/2016 10:55 UTC,30.24,56.48,,86.57,6.91,180.0,,,,,,1.0,,,,10.0,,,,,,,,52.48,,S,29.58,29.08,,Clear
KIGQ,10/11/2016 11:15 UTC,30.24,55.4,,87.66,6.91,180.0,,,,,,1.0,,,,10.0,,,,,,,,51.76,,S,29.58,29.12,,Clear
KIGQ,10/11/2016 11:35 UTC,30.24,55.94,52.7,93.65,8.05,180.0,,,,,,1.0,,,,10.0,,KIGQ 111135Z AUTO 18007KT 10SM CLR 13/12 A3024 RMK AO2  T01330115,,,,,,54.12,,S,29.58,29.02,,Clear
KIGQ,10/11/2016 11:55 UTC,30.24,55.4,52.34,87.66,6.91,180.0,,,,,,1.0,,,,10.0,,KIGQ 111155Z AUTO 18006KT 10SM CLR 13/11 A3024 RMK AO2 T01300113  10156 20130,60.08,55.4,,,,51.76,,S,29.58,29.12,,Clear
KIGQ,10/11/2016 12:15 UTC,30.24,55.58,52.7,93.65,6.91,180.0,,,,,,1.0,,,,10.0,,KIGQ 111215Z AUTO 18006KT 10SM CLR 13/12 A3024 RMK AO2  T01310115,,,,,,53.76,,S,29.58,29.04,,Clear
KIGQ,10/11/2016 12:35 UTC,30.24,56.66,53.06,87.75,6.91,180.0,,,,,,1.0,,,,10.0,,KIGQ 111235Z AUTO 18006KT 10SM CLR 14/12 A3024 RMK AO2  T01370117,,,,,,53.03,,S,29.58,29.06,,Clear
KIGQ,10/11/2016 12:55 UTC,30.24,57.2,53.06,87.75,8.05,180.0,,,,,,1102.0,,,,10.0,,KIGQ 111255Z AUTO 18007KT 10SM SCT110 14/12 A3024 RMK AO2  T01400117,,,,,,53.57,,S,29.58,29.03,,Partly Cloudy
KIGQ,10/11/2016 13:15 UTC,30.24,57.2,53.06,87.75,8.05,180.0,,,,,,1202.0,,,,10.0,,KIGQ 111315Z AUTO 18007KT 10SM SCT120 14/12 A3024 RMK AO2  T01400117,,,,,,53.57,,S,29.58,29.03,,Partly Cloudy
KIGQ,10/11/2016 13:35 UTC,30.24,57.74,53.24,87.75,8.05,180.0,,,,,,1.0,,,,10.0,,KIGQ 111335Z AUTO 18007KT 10SM CLR 14/12 A3024 RMK AO2  T01430118,,,,,,54.1,,S,29.58,29.0,,Clear
KIGQ,10/11/2016 13:55 UTC,30.24,58.28,53.24,82.27,10.36,180.0,,,,,,1.0,,,,10.0,,KIGQ 111355Z AUTO 18009KT 10SM CLR 15/12 A3024 RMK AO2  T01460118,,,,,,52.85,,S,29.58,29.05,,Clear
KIGQ,10/11/2016 14:15 UTC,30.24,59.9,54.14,77.17,9.22,190.0,,,,,,1102.0,,,,10.0,,KIGQ 111415Z AUTO 19008KT 10SM SCT110 16/12 A3024 RMK AO2  T01550123,,,,,,52.67,,S,29.58,29.04,,Partly Cloudy
KIGQ,10/11/2016 14:35 UTC,30.24,61.88,53.78,72.42,11.5,190.0,,,,,,1102.0,,,,10.0,,KIGQ 111435Z AUTO 19010KT 10SM SCT110 17/12 A3024 RMK AO2  T01660121,,,,,,52.85,,S,29.58,29.01,,Partly Cloudy
KIGQ,10/11/2016 14:55 UTC,30.24,62.96,53.78,72.42,11.5,200.0,,,,,,1.0,,,,10.0,,KIGQ 111455Z AUTO 20010KT 10SM CLR 17/12 A3024 RMK AO2  T01720121,,,,,,53.89,,SSW,29.58,28.96,,Clear
KIGQ,10/11/2016 15:15 UTC,30.23,61.88,53.96,72.42,9.22,200.0,,,,,,1202.0,,,,10.0,,KIGQ 111515Z AUTO 20008KT 10SM SCT120 17/12 A3023 RMK AO2  T01660122,,,,,,52.85,,SSW,29.57,29.0,,Partly Cloudy
KIGQ,10/11/2016 15:35 UTC,30.24,62.96,54.68,77.33,9.22,210.0,,,,,,1.0,,,,10.0,,KIGQ 111535Z AUTO 21008KT 10SM CLR 17/13 A3024 RMK AO2  T01720126,,,,,,55.7,,SSW,29.58,28.88,,Clear
KIGQ,10/11/2016 15:55 UTC,30.23,65.3,54.68,68.2,10.36,210.0,,,,,,1.0,,,,10.0,,KIGQ 111555Z AUTO 21009KT 10SM CLR 19/13 A3023 RMK AO2  T01850126,,,,,,54.48,,SSW,29.57,28.9,,Clear
KIGQ,10/11/2016 16:15 UTC,30.23,64.76,54.5,72.6,9.22,190.0,,,,,,1202.0,,,,10.0,,KIGQ 111615Z AUTO 19008KT 10SM SCT120 18/13 A3023 RMK AO2  T01820125,,,,,,55.69,,S,29.57,28.85,,Partly Cloudy
KIGQ,10/11/2016 16:35 UTC,30.21,66.02,55.22,68.2,11.5,190.0,,,,,,1203.0,,,,10.0,,KIGQ 111635Z AUTO 19010KT 10SM BKN120 19/13 A3021 RMK AO2  T01890129,,,12000.0,,,55.17,,S,29.55,28.84,,Mostly Cloudy
KIGQ,10/11/2016 16:55 UTC,30.2,68.0,54.68,64.1,11.5,180.0,,,,,,1202.0,,,,10.0,,KIGQ 111655Z AUTO 18010KT 10SM SCT120 20/13 A3020 RMK AO2  T02000126,,,,,,55.35,,S,29.54,28.8,,Partly Cloudy
KIGQ,10/11/2016 17:15 UTC,30.18,68.72,55.4,64.1,12.66,180.0,,,,,,1203.0,,,,10.0,,KIGQ 111715Z AUTO 18011KT 10SM BKN120 20/13 A3018 RMK AO2  T02040130,,,12000.0,,,56.03,,S,29.52,28.74,,Mostly Cloudy
KIGQ,10/11/2016 17:35 UTC,30.17,70.34,55.4,60.27,9.22,170.0,,,,,,1202.0,,,,10.0,,KIGQ 111735Z AUTO 17008KT 10SM SCT120 21/13 A3017 RMK AO2  T02130130,,,,,,55.86,,S,29.51,28.72,,Partly Cloudy
KIGQ,10/11/2016 17:55 UTC,30.16,70.52,55.58,60.27,11.5,170.0,,,,,,1.0,,,,10.0,,KIGQ 111755Z AUTO 17010KT 10SM CLR 21/13 A3016 RMK AO2 T02140131  10214 20130,70.52,55.4,,,,56.03,,S,29.5,28.7,,Clear
KIGQ,10/11/2016 18:15 UTC,30.16,70.16,54.32,56.44,12.66,200.0,17.27,,,,,1.0,,,,10.0,,KIGQ 111815Z AUTO 20011G15KT 10SM CLR 21/12 A3016 RMK AO2  T02120124,,,,,,53.88,,SSW,29.5,28.81,,Clear
KIGQ,10/11/2016 18:35 UTC,30.15,69.98,55.04,60.27,13.8,170.0,18.41,,,,,1102.0,,,,10.0,,KIGQ 111835Z AUTO 17012G16KT 10SM SCT110 21/13 A3015 RMK AO2  T02110128,,,,,,55.52,,S,29.49,28.72,,Partly Cloudy
KIGQ,10/11/2016 18:55 UTC,30.14,72.5,54.32,49.97,18.41,180.0,21.85,,,,,1.0,,,,10.0,,KIGQ 111855Z AUTO 18016G19KT 10SM CLR 23/12 A3014 RMK AO2  T02250124,,,,,,52.73,,S,29.48,28.82,,Clear
KIGQ,10/11/2016 19:15 UTC,30.13,72.5,53.6,49.97,16.11,180.0,21.85,,,,,1.0,,,,10.0,,KIGQ 111915Z AUTO 18014G19KT 10SM CLR 23/12 A3013 RMK AO2  T02250120,,,,,,52.73,,S,29.47,28.81,,Clear
KIGQ,10/11/2016 19:35 UTC,30.13,70.34,53.24,54.69,12.66,200.0,,,,,,1.0,,,,10.0,,KIGQ 111935Z AUTO 20011KT 10SM CLR 21/12 A3013 RMK AO2  T02130118,,,,,,53.18,,SSW,29.47,28.8,,Clear
KIGQ,10/11/2016 19:55 UTC,30.12,72.86,53.42,49.97,10.36,210.0,18.41,,,,,1.0,,,,10.0,,KIGQ 111955Z AUTO 21009G16KT 10SM CLR 23/12 A3012 RMK AO2  T02270119,,,,,,53.06,,SSW,29.47,28.79,,Clear
KIGQ,10/11/2016 20:15 UTC,30.11,73.4,53.96,49.97,11.5,210.0,,,,,,1.0,,,,10.0,,KIGQ 112015Z AUTO 21010KT 10SM CLR 23/12 A3011 RMK AO2  T02300122,,,,,,53.56,,SSW,29.46,28.75,,Clear
KIGQ,10/11/2016 20:35 UTC,30.1,73.04,54.68,53.36,10.36,180.0,,,,,,1103.0,,,,10.0,,KIGQ 112035Z AUTO 18009KT 10SM BKN110 23/13 A3010 RMK AO2  T02280126,,,11000.0,,,55.03,,S,29.45,28.68,,Mostly Cloudy
KIGQ,10/11/2016 20:55 UTC,30.09,74.84,53.78,47.06,12.66,190.0,17.27,,,,,1104.0,,,,10.0,,KIGQ 112055Z AUTO 19011G15KT 10SM OVC110 24/12 A3009 RMK AO2  T02380121,,,11000.0,,,53.25,,S,29.44,28.73,,Overcast
KIGQ,10/11/2016 21:15 UTC,30.09,73.58,53.06,49.97,9.22,190.0,,,,,,1104.0,,,,10.0,,KIGQ 112115Z AUTO 19008KT 10SM OVC110 23/12 A3009 RMK AO2  T02310117,,,11000.0,,,53.73,,S,29.44,28.72,,Overcast
KIGQ,10/11/2016 21:35 UTC,30.09,74.3,53.78,47.06,9.22,190.0,,,,,,1104.0,,,,10.0,,KIGQ 112135Z AUTO 19008KT 10SM OVC110 24/12 A3009 RMK AO2  T02350121,,,11000.0,,,52.75,,S,29.44,28.76,,Overcast
KIGQ,10/11/2016 21:55 UTC,30.08,73.04,53.96,49.97,16.11,190.0,19.57,,,,,1103.0,,,,10.0,,KIGQ 112155Z AUTO 19014G17KT 10SM BKN110 23/12 A3008 RMK AO2  T02280122,,,11000.0,,,53.23,,S,29.43,28.74,,Mostly Cloudy
KIGQ,10/11/2016 22:15 UTC,30.08,71.78,52.52,49.7,11.5,190.0,,,,,,1102.0,,,,10.0,,KIGQ 112215Z AUTO 19010KT 10SM SCT110 22/11 A3008 RMK AO2  T02210114,,,,,,51.91,,S,29.43,28.81,,Partly Cloudy
KIGQ,10/11/2016 22:35 UTC,30.08,69.98,53.24,56.44,10.36,170.0,,,,,,1102.0,,,,10.0,,KIGQ 112235Z AUTO 17009KT 10SM SCT110 21/12 A3008 RMK AO2  T02110118,,,,,,53.71,,S,29.43,28.74,,Partly Cloudy
KIGQ,10/11/2016 22:55 UTC,30.08,68.36,52.88,60.03,6.91,170.0,,,,,,1.0,,,,10.0,,KIGQ 112255Z AUTO 17006KT 10SM CLR 20/12 A3008 RMK AO2  T02020116,,,,,,53.88,,S,29.43,28.75,,Clear
KIGQ,10/11/2016 23:15 UTC,30.07,66.02,52.88,63.87,5.75,160.0,,,,,,1.0,,,,10.0,,KIGQ 112315Z AUTO 16005KT 10SM CLR 19/12 A3007 RMK AO2  T01890116,,,,,,53.36,,SSE,29.42,28.79,,Clear
KIGQ,10/11/2016 23:35 UTC,30.08,67.1,52.7,60.03,3.44,150.0,,,,,,1.0,,,,10.0,,KIGQ 112335Z AUTO 15003KT 10SM CLR 20/12 A3008 RMK AO2  T01950115,,,,,,52.69,,SSE,29.43,28.81,,Clear
KIGQ,10/11/2016 23:55 UTC,30.07,65.48,52.88,63.87,5.75,150.0,,,,,,1.0,,,,10.0,,KIGQ 112355Z AUTO 15005KT 10SM CLR 19/12 A3007 RMK AO2 T01860116  10240 20186,75.2,65.48,,,,52.85,,SSE,29.42,28.81,,Clear
KIGQ,10/12/2016 00:15 UTC,30.08,64.58,53.06,67.99,6.91,150.0,,,,,,1.0,,,,10.0,,KIGQ 120015Z AUTO 15006KT 10SM CLR 18/12 A3008 RMK AO2  T01810117,,,,,,53.71,,SSE,29.43,28.8,,Clear
KIGQ,10/12/2016 00:35 UTC,30.08,64.76,52.88,67.99,8.05,160.0,,,,,,1.0,,,,10.0,,KIGQ 120035Z AUTO 16007KT 10SM CLR 18/12 A3008 RMK AO2  T01820116,,,,,,53.88,,SSE,29.43,28.79,,Clear
KIGQ,10/12/2016 00:55 UTC,30.08,64.4,52.52,63.64,6.91,160.0,,,,,,1.0,,,,10.0,,KIGQ 120055Z AUTO 16006KT 10SM CLR 18/11 A3008 RMK AO2  T01800114,,,,,,51.73,,SSE,29.43,28.88,,Clear
KIGQ,10/12/2016 01:15 UTC,30.07,64.58,51.98,63.64,8.05,170.0,,,,,,1.0,,,,10.0,,KIGQ 120115Z AUTO 17007KT 10SM CLR 18/11 A3007 RMK AO2  T01810111,,,,,,51.9,,S,29.42,28.86,,Clear
KIGQ,10/12/2016 01:35 UTC,30.07,63.14,51.8,67.79,6.91,170.0,,,,,,1.0,,,,10.0,,KIGQ 120135Z AUTO 17006KT 10SM CLR 17/11 A3007 RMK AO2  T01730110,,,,,,52.25,,S,29.42,28.86,,Clear
KIGQ,10/12/2016 01:55 UTC,30.07,61.88,51.8,67.79,6.91,170.0,,,,,,1.0,,,,10.0,,KIGQ 120155Z AUTO 17006KT 10SM CLR 17/11 A3007 RMK AO2  T01660110,,,,,,51.04,,S,29.42,28.92,,Clear
KIGQ,10/12/2016 02:15 UTC,30.07,60.08,51.26,72.23,8.05,180.0,,,,,,1.0,,,,10.0,,KIGQ 120215Z AUTO 18007KT 10SM CLR 16/11 A3007 RMK AO2  T01560107,,,,,,51.04,,S,29.42,28.94,,Clear
KIGQ,10/12/2016 02:35 UTC,30.07,60.26,51.44,72.23,8.05,180.0,,,,,,1.0,,,,10.0,,KIGQ 120235Z AUTO 18007KT 10SM CLR 16/11 A3007 RMK AO2  T01570108,,,,,,51.21,,S,29.42,28.93,,Clear
KIGQ,10/12/2016 02:55 UTC,30.07,61.34,51.8,72.23,9.22,190.0,,,,,,1.0,,,,10.0,,KIGQ 120255Z AUTO 19008KT 10SM CLR 16/11 A3007 RMK AO2  T01630110,,,,,,52.25,,S,29.42,28.88,,Clear
KIGQ,10/12/2016 03:15 UTC,30.07,61.34,51.62,72.23,9.22,180.0,,,,,,1.0,,,,10.0,,KIGQ 120315Z AUTO 18008KT 10SM CLR 16/11 A3007 RMK AO2  T01630109,,,,,,52.25,,S,29.42,28.88,,Clear
KIGQ,10/12/2016 03:35 UTC,30.07,60.98,51.44,72.23,10.36,180.0,,,,,,1.0,,,,10.0,,KIGQ 120335Z AUTO 18009KT 10SM CLR 16/11 A3007 RMK AO2  T01610108,,,,,,51.91,,S,29.42,28.9,,Clear
KIGQ,10/12/2016 03:55 UTC,30.07,60.08,51.44,72.23,8.05,180.0,,,,,,1.0,,,,10.0,,KIGQ 120355Z AUTO 18007KT 10SM CLR 16/11 A3007 RMK AO2  T01560108,,,,,,51.04,,S,29.42,28.94,,Clear
KIGQ,10/12/2016 04:15 UTC,30.06,59.9,51.26,72.23,9.22,180.0,,,,,,1.0,,,,10.0,,KIGQ 120415Z AUTO 18008KT 10SM CLR 16/11 A3006 RMK AO2  T01550107,,,,,,50.87,,S,29.41,28.94,,Clear
KIGQ,10/12/2016 04:35 UTC,30.06,59.9,51.26,72.23,8.05,180.0,,,,,,1.0,,,,10.0,,KIGQ 120435Z AUTO 18007KT 10SM CLR 16/11 A3006 RMK AO2  T01550107,,,,,,50.87,,S,29.41,28.94,,Clear
KIGQ,10/12/2016 04:55 UTC,30.06,59.9,51.44,72.23,9.22,180.0,,,,,,1.0,,,,10.0,,KIGQ 120455Z AUTO 18008KT 10SM CLR 16/11 A3006 RMK AO2  T01550108,,,,,,50.87,,S,29.41,28.94,,Clear
KIGQ,10/12/2016 05:15 UTC,30.05,59.9,51.26,72.23,9.22,180.0,,,,,,1.0,,,,10.0,,KIGQ 120515Z AUTO 18008KT 10SM CLR 16/11 A3005 RMK AO2  T01550107,,,,,,50.87,,S,29.4,28.93,,Clear
KIGQ,10/12/2016 05:35 UTC,30.04,58.64,51.26,77.01,8.05,180.0,,,,,,1.0,,,,10.0,,KIGQ 120535Z AUTO 18007KT 10SM CLR 15/11 A3004 RMK AO2  T01480107,,,,,,51.39,,S,29.39,28.91,,Clear
KIGQ,10/12/2016 05:55 UTC,30.04,58.1,51.26,77.01,8.05,180.0,,,,,,1.0,,,,10.0,,KIGQ 120555Z AUTO 18007KT 10SM CLR 15/11 A3004 RMK AO2 LTG DSNT SW  AND W T01450107 10186 20145 402400130,65.48,58.1,,75.2,55.4,50.87,,S,29.39,28.93,,Clear
KIGQ,10/12/2016 06:15 UTC,30.05,58.1,51.26,77.01,8.05,180.0,,,,,,1.0,,,,10.0,,KIGQ 120615Z AUTO 18007KT 10SM CLR 15/11 A3005 RMK AO2 LTG DSNT SW  AND W T01450107,,,,,,50.87,,S,29.4,28.94,,Clear
KIGQ,10/12/2016 06:35 UTC,30.05,57.2,51.44,82.14,6.91,180.0,,,,,,1.0,,,,10.0,,KIGQ 120635Z AUTO 18006KT 10SM CLR 14/11 A3005 RMK AO2 LTG DSNT SW  AND W T01400108,,,,,,51.75,,S,29.4,28.92,,Clear
KIGQ,10/12/2016 06:55 UTC,30.06,59.0,52.34,77.01,6.91,190.0,,,,,,853.0,,,,10.0,,KIGQ 120655Z AUTO 19006KT 10SM BKN085 15/11 A3006 RMK AO2 LTG DSNT  S THRU W T01500113,,,8500.0,,,51.74,,S,29.41,28.91,,Mostly Cloudy
KIGQ,10/12/2016 07:15 UTC,30.05,59.54,52.7,82.27,6.91,180.0,,,,,,854.0,,,,10.0,,KIGQ 120715Z AUTO 18006KT 10SM OVC085 15/12 A3005 RMK AO2 LTG DSNT  SW AND W T01530115,,,8500.0,,,54.08,,S,29.4,28.8,,Overcast
KIGQ,10/12/2016 07:35 UTC,30.04,59.18,52.7,82.27,8.05,180.0,,,,,,852.0,,,,10.0,,KIGQ 120735Z AUTO 18007KT 10SM SCT085 15/12 A3004 RMK AO2 LTG DSNT  W T01510115,,,,,,53.73,,S,29.39,28.81,,Partly Cloudy
KIGQ,10/12/2016 07:55 UTC,30.05,60.44,52.7,77.17,11.5,200.0,,,,,,852.0,,,,10.0,,KIGQ 120755Z AUTO 20010KT 10SM SCT085 16/12 A3005 RMK AO2 LTG DSNT  SE AND W T01580115,,,,,,53.2,,SSW,29.4,28.83,,Partly Cloudy
KIGQ,10/12/2016 08:15 UTC,30.04,61.7,53.24,72.42,10.36,200.0,,,,,,1202.0,,,,10.0,,KIGQ 120815Z AUTO 20009KT 10SM SCT120 17/12 A3004 RMK AO2  T01650118,,,,,,52.67,,SSW,29.39,28.83,,Partly Cloudy
KIGQ,10/12/2016 08:35 UTC,30.04,61.16,53.6,77.17,12.66,210.0,,,,,,902.0,1203.0,,,10.0,,KIGQ 120835Z AUTO 21011KT 10SM SCT090 BKN120 16/12 A3004 RMK AO2  LTG DSNT ALQS T01620120,,,12000.0,,,53.9,,SSW,29.39,28.78,,Mostly Cloudy
KIGQ,10/12/2016 08:55 UTC,30.03,60.62,54.5,82.4,10.36,200.0,,,,,,902.0,1202.0,,,10.0,,KIGQ 120855Z AUTO 20009KT 10SM SCT090 SCT120 16/13 A3003 RMK AO2  T01590125,,,,,,55.18,,SSW,29.38,28.72,,Partly Cloudy
KIGQ,10/12/2016 09:15 UTC,30.02,61.52,55.22,82.4,11.5,200.0,17.27,13.0,,,,1103.0,,,,10.0,,KIGQ 120915Z AUTO 20010G15KT 10SM -RA BKN110 16/13 A3002 RMK AO2  LTG DSNT N T01640129,,,11000.0,,,56.07,,SSW,29.37,28.66,,Light Rain
KIGQ,10/12/2016 09:35 UTC,30.02,61.16,56.48,87.94,11.5,200.0,,13.0,,,,1104.0,,,,10.0,,KIGQ 120935Z AUTO 20010KT 10SM -RA OVC110 16/14 A3002 RMK AO2  T01620136,,,11000.0,,,57.53,,SSW,29.37,28.6,,Light Rain
KIGQ,10/12/2016 09:55 UTC,30.0,60.62,57.74,87.94,9.22,190.0,,13.0,,,,1104.0,,,,10.0,,KIGQ 120955Z AUTO 19008KT 10SM -RA OVC110 16/14 A3000 RMK AO2  T01590143,,,11000.0,,,57.0,,S,29.35,28.61,,Light Rain
KIGQ,10/12/2016 10:15 UTC,30.0,60.44,57.92,87.94,11.5,190.0,17.27,,,,,1003.0,,,,10.0,,KIGQ 121015Z AUTO 19010G15KT 10SM BKN100 16/14 A3000 RMK AO2  T01580144,,,10000.0,,,56.82,,S,29.35,28.62,,Mostly Cloudy
KIGQ,10/12/2016 10:35 UTC,30.0,60.26,58.1,93.8,10.36,190.0,,,,,,1202.0,,,,10.0,,KIGQ 121035Z AUTO 19009KT 10SM SCT120 16/15 A3000 RMK AO2  T01570145,,,,,,58.45,,S,29.35,28.55,,Partly Cloudy
KIGQ,10/12/2016 10:55 UTC,29.99,60.98,58.1,93.8,12.66,190.0,16.11,,,,,1003.0,,,,10.0,,KIGQ 121055Z AUTO 19011G14KT 10SM BKN100 16/15 A2999 RMK AO2  T01610145,,,10000.0,,,59.17,,S,29.34,28.49,,Mostly Cloudy
KIGQ,10/12/2016 11:15 UTC,29.97,60.8,57.56,87.94,12.66,170.0,,,,,,1002.0,,,,10.0,,KIGQ 121115Z AUTO 17011KT 10SM SCT100 16/14 A2997 RMK AO2 LTG DSNT  W T01600142,,,,,,57.17,,S,29.32,28.57,,Partly Cloudy
KIGQ,10/12/2016 11:35 UTC,29.99,60.26,57.2,87.94,9.22,200.0,,,,,,1.0,,,,10.0,,KIGQ 121135Z AUTO 20008KT 10SM CLR 16/14 A2999 RMK AO2 LTG DSNT W  T01570140,,,,,,56.64,,SSW,29.34,28.62,,Clear
KIGQ,10/12/2016 11:55 UTC,30.01,59.9,57.2,87.94,11.5,210.0,,,,,,1.0,,,,10.0,,KIGQ 121155Z AUTO 21010KT 10SM CLR 16/14 A3001 RMK AO2 T01550140  10166 20140,61.88,57.2,,,,56.29,,SSW,29.36,28.66,,Clear
KIGQ,10/12/2016 12:15 UTC,30.01,59.54,57.2,93.75,9.22,210.0,,,,,,1102.0,,,,10.0,,KIGQ 121215Z AUTO 21008KT 10SM SCT110 15/14 A3001 RMK AO2 LTG DSNT  W AND NW T01530140,,,,,,57.72,,SSW,29.36,28.6,,Partly Cloudy
KIGQ,10/12/2016 12:35 UTC,30.0,59.9,57.56,87.94,6.91,200.0,,13.0,,,,1102.0,,,,10.0,,KIGQ 121235Z AUTO 20006KT 10SM -RA SCT110 16/14 A3000 RMK AO2  T01550142,,,,,,56.29,,SSW,29.35,28.65,,Light Rain
KIGQ,10/12/2016 12:55 UTC,30.0,59.36,57.38,93.75,3.44,200.0,,,,,,1.0,,,,10.0,,KIGQ 121255Z AUTO 20003KT 10SM CLR 15/14 A3000 RMK AO2  T01520141,,,,,,57.54,,SSW,29.35,28.6,,Clear
KIGQ,10/12/2016 13:15 UTC,29.99,60.8,58.46,93.8,8.05,180.0,,,,,,1102.0,,,,10.0,,KIGQ 121315Z AUTO 18007KT 10SM SCT110 16/15 A2999 RMK AO2  T01600147,,,,,,58.99,,S,29.34,28.5,,Partly Cloudy
KIGQ,10/12/2016 13:35 UTC,29.99,61.16,58.1,93.8,8.05,180.0,,,,,,1.0,,,,10.0,,KIGQ 121335Z AUTO 18007KT 10SM CLR 16/15 A2999 RMK AO2 LTG DSNT N  AND W T01620145,,,,,,59.34,,S,29.34,28.48,,Clear
KIGQ,10/12/2016 13:55 UTC,29.98,63.5,58.82,82.65,11.5,170.0,16.11,,,,,1.0,,,,10.0,,KIGQ 121355Z AUTO 17010G14KT 10SM CLR 18/15 A2998 RMK AO2  T01750149,,,,,,58.09,,S,29.33,28.51,,Clear
KIGQ,10/12/2016 14:15 UTC,29.98,65.12,59.54,82.65,14.97,190.0,,,,,,1.0,,,,10.0,,KIGQ 121415Z AUTO 19013KT 10SM CLR 18/15 A2998 RMK AO2  T01840153,,,,,,59.67,,S,29.33,28.41,,Clear
KIGQ,10/12/2016 14:35 UTC,29.98,64.94,59.18,82.65,14.97,190.0,21.85,,,,,1.0,,,,10.0,,KIGQ 121435Z AUTO 19013G19KT 10SM CLR 18/15 A2998 RMK AO2 LTG DSNT  NW T01830151,,,,,,59.5,,S,29.33,28.42,,Clear
KIGQ,10/12/2016 14:55 UTC,29.96,66.74,60.44,82.77,14.97,200.0,18.41,,,,,1.0,,,,10.0,,KIGQ 121455Z AUTO 20013G16KT 10SM CLR 19/16 A2996 RMK AO2 LTG DSNT  N T01930158,,,,,,61.3,,SSW,29.31,28.28,,Clear
KIGQ,10/12/2016 15:15 UTC,29.95,68.0,60.98,77.79,20.71,200.0,26.46,,,,,1.0,,,,10.0,,KIGQ 121515Z AUTO 20018G23KT 10SM CLR 20/16 A2995 RMK AO2 LTG DSNT  W T02000161,,,,,,60.77,,SSW,29.3,28.28,,Clear
KIGQ,10/12/2016 15:35 UTC,29.96,68.36,61.16,77.79,16.11,220.0,23.02,,,,,1.0,,,,10.0,,KIGQ 121535Z AUTO 22014G20KT 10SM CLR 20/16 A2996 RMK AO2 LTG DSNT  SW THRU N T02020162,,,,,,61.12,,SW,29.31,28.27,,Clear
KIGQ,10/12/2016 15:55 UTC,29.96,68.18,61.7,82.89,16.11,230.0,24.16,5.0,,,,253.0,,,,10.0,,KIGQ 121555Z AUTO 23014G21KT 10SM VCTS BKN025 20/17 A2996 RMK AO2  LTG DSNT SW THRU N T02010165,,,2500.0,,,62.75,,SW,29.31,28.18,,Thunder
KIGQ,10/12/2016 16:15 UTC,29.96,67.28,61.52,77.79,13.8,220.0,18.41,,,,,252.0,1203.0,,,10.0,,KIGQ 121615Z AUTO 22012G16KT 10SM SCT025 BKN120 20/16 A2996 RMK AO2 LTG DSNT SW AND W T01960164,,,12000.0,,,60.07,,SW,29.31,28.34,,Mostly Cloudy
KIGQ,10/12/2016 16:35 UTC,29.95,67.1,61.34,77.79,13.8,200.0,20.71,,,,,1203.0,,,,10.0,,KIGQ 121635Z AUTO 20012G18KT 10SM BKN120 20/16 A2995 RMK AO2 LTG  DSNT W T01950163,,,12000.0,,,59.89,,SSW,29.3,28.34,,Mostly Cloudy
KIGQ,10/12/2016 16:55 UTC,29.96,67.28,61.7,82.89,11.5,220.0,,,,,,502.0,1104.0,,,10.0,,KIGQ 121655Z AUTO 22010KT 10SM SCT050 OVC110 20/17 A2996 RMK AO2  LTG DSNT N AND W T01960165,,,11000.0,,,61.87,,SW,29.31,28.24,,Overcast
KIGQ,10/12/2016 17:15 UTC,29.97,68.18,62.6,82.89,13.8,250.0,,5.0,1004.0,,,273.0,503.0,,,10.0,,KIGQ 121715Z AUTO 25012KT 230V330 10SM VCTS BKN027 BKN050 OVC100  20/17 A2997 RMK AO2 LTG DSNT N AND W T02010170,,,2700.0,,,62.75,,WSW,29.32,28.19,,Thunder
KIGQ,10/12/2016 17:35 UTC,29.96,68.9,62.96,77.94,11.5,230.0,23.02,5.0,,,,254.0,,,,10.0,,KIGQ 121735Z AUTO 23010G20KT 10SM TS OVC025 21/17 A2996 RMK AO2  T02050172,,,2500.0,,,61.7,,SW,29.31,28.23,,Thunder
KIGQ,10/12/2016 17:55 UTC,29.95,68.72,62.78,82.89,12.66,250.0,,5.0,,,,253.0,314.0,,,10.0,,KIGQ 121755Z AUTO 25011KT 230V320 10SM TS BKN025 OVC031 20/17  A2995 RMK AO2 LTG DSNT N AND S T02040171 10206 20152,69.08,59.36,2500.0,,,63.28,,WSW,29.3,28.13,,Thunder
KIGQ,10/12/2016 18:15 UTC,29.94,67.28,62.78,82.89,11.5,230.0,23.02,13.0,,,,252.0,344.0,,,10.0,,KIGQ 121815Z AUTO 23010G20KT 10SM -RA SCT025 OVC034 20/17  A2994 RMK AO2 LTG DSNT W THRU NE T01960171,,,3400.0,,,61.87,,SW,29.29,28.22,,Light Rain
KIGQ,10/12/2016 18:35 UTC,29.93,67.1,62.96,82.89,8.05,230.0,18.41,,954.0,,,332.0,492.0,,,10.0,,KIGQ 121835Z AUTO 23007G16KT 10SM SCT033 SCT049 OVC095 20/17  A2993 RMK AO2 T01950172,,,9500.0,,,61.69,,SW,29.28,28.22,,Overcast
KIGQ,10/12/2016 18:55 UTC,29.93,68.0,63.5,88.29,10.36,230.0,,,,,,242.0,953.0,,,10.0,,KIGQ 121855Z AUTO 23009KT 10SM SCT024 BKN095 20/18 A2993 RMK AO2  T02000175,,,9500.0,,,64.39,,SW,29.28,28.06,,Mostly Cloudy
KIGQ,10/12/2016 19:15 UTC,29.94,67.28,63.5,88.29,10.36,240.0,19.57,1.0,604.0,,,223.0,293.0,,,10.0,,KIGQ 121915Z AUTO 24009G17KT 10SM RA BKN022 BKN029 OVC060 20/18  A2994 RMK AO2 T01960175,,,2200.0,,,63.68,,WSW,29.29,28.12,,Rain
KIGQ,10/12/2016 19:35 UTC,29.94,65.48,63.68,93.92,11.5,240.0,,1.0,704.0,0.01,,183.0,283.0,,,7.0,,KIGQ 121935Z AUTO 24010KT 7SM RA BKN018 BKN028 OVC070 19/18 A2994 RMK AO2 LTG DSNT SE P0001 T01860176,,,1800.0,,,63.67,,WSW,29.29,28.14,,Rain
KIGQ,10/12/2016 19:55 UTC,29.93,64.94,64.04,100.0,10.36,260.0,,13.0,704.0,0.01,,143.0,313.0,,,7.0,,KIGQ 121955Z AUTO 26009KT 220V330 7SM -RA BKN014 BKN031 OVC070  18/18 A2993 RMK AO2 LTG DSNT E P0001 T01830178,,,1400.0,,,64.94,,W,29.28,28.06,,Light Rain
KIGQ,10/12/2016 20:15 UTC,29.94,64.22,63.32,93.89,13.8,260.0,21.85,1.0,,,,124.0,,,,7.0,,KIGQ 122015Z AUTO 26012G19KT 7SM RA OVC012 18/17 A2994 RMK AO2 LTG  DSNT E T01790174,,,1200.0,,,62.41,,W,29.29,28.23,,Rain
KIGQ,10/12/2016 20:35 UTC,29.94,62.24,61.7,100.0,12.66,250.0,,14.0,424.0,0.06,,122.0,353.0,,,5.0,,KIGQ 122035Z AUTO 25011KT 5SM +RA SCT012 BKN035 OVC042 17/17  A2994 RMK AO2 P0006 T01680165,,,3500.0,,,62.24,,WSW,29.29,28.27,,Heavy Rain
KIGQ,10/12/2016 20:55 UTC,29.94,62.6,62.24,100.0,10.36,250.0,,13.0,424.0,0.07,0.08,103.0,353.0,,,7.0,,KIGQ 122055Z AUTO 25009KT 240V310 7SM -RA BKN010 BKN035 OVC042  17/17 A2994 RMK AO2 P0007 60008 T01700168,,,1000.0,,,62.6,,WSW,29.29,28.24,,Light Rain
KIGQ,10/12/2016 21:15 UTC,29.95,61.34,60.26,100.0,16.11,270.0,34.52,13.0,,,,103.0,184.0,,,7.0,,KIGQ 122115Z AUTO 27014G30KT 7SM -RA BKN010 OVC018 16/16 A2995 RMK AO2 T01630157,,,1000.0,,,61.34,,W,29.3,28.34,,Light Rain
KIGQ,10/12/2016 21:35 UTC,29.96,60.08,58.82,93.8,16.11,280.0,32.21,,,,,102.0,184.0,,,10.0,,KIGQ 122135Z AUTO 28014G28KT 10SM SCT010 OVC018 16/15 A2996 RMK AO2 T01560149,,,1800.0,,,58.27,,W,29.31,28.52,,Overcast
KIGQ,10/12/2016 21:55 UTC,29.98,58.1,57.38,93.75,18.41,280.0,24.16,14.0,,0.01,,103.0,164.0,,,4.0,,KIGQ 122155Z AUTO 28016G21KT 4SM +RA BKN010 OVC016 15/14 A2998 RMK AO2 P0001 T01450141,,,1000.0,,,56.29,,W,29.33,28.65,,Heavy Rain
KIGQ,10/12/2016 22:15 UTC,29.98,56.48,55.94,93.7,11.5,280.0,16.11,13.0,374.0,,,103.0,183.0,,,10.0,,KIGQ 122215Z AUTO 28010G14KT 10SM -RA BKN010 BKN018 OVC037 14/13  A2998 RMK AO2 T01360133,,,1000.0,,,54.67,,W,29.33,28.74,,Light Rain
KIGQ,10/12/2016 22:35 UTC,29.99,55.94,55.4,100.0,10.36,290.0,16.11,13.0,,0.01,,103.0,354.0,,,10.0,,KIGQ 122235Z AUTO 29009G14KT 10SM -RA BKN010 OVC035 13/13  A2999 RMK AO2 P0001 T01330130,,,1000.0,,,55.94,,WNW,29.34,28.7,,Light Rain
KIGQ,10/12/2016 22:55 UTC,30.0,55.4,55.04,100.0,8.05,290.0,,1.0,,0.01,,104.0,,,,10.0,,KIGQ 122255Z AUTO 29007KT 10SM RA OVC010 13/13 A3000 RMK AO2 P0001  T01300128,,,1000.0,,,55.4,,WNW,29.35,28.74,,Rain
KIGQ,10/12/2016 23:15 UTC,30.02,55.22,54.68,100.0,10.36,320.0,16.11,,,,,103.0,154.0,,,10.0,,KIGQ 122315Z AUTO 32009G14KT 10SM BKN010 OVC015 13/13 A3002 RMK AO2 T01290126,,,1000.0,,,55.22,,NW,29.37,28.77,,Overcast
KIGQ,10/12/2016 23:35 UTC,30.03,54.14,52.7,100.0,12.66,310.0,16.11,,364.0,,,82.0,133.0,,,10.0,,KIGQ 122335Z AUTO 31011G14KT 10SM SCT008 BKN013 OVC036 12/12  A3003 RMK AO2 T01230115,,,1300.0,,,54.14,,NW,29.38,28.84,,Overcast
KIGQ,10/12/2016 23:55 UTC,30.04,52.7,51.08,93.6,9.22,310.0,21.85,13.0,,,,152.0,364.0,0.11,,10.0,,KIGQ 122355Z AUTO 31008G19KT 10SM -RA SCT015 OVC036 12/11  A3004 RMK AO2 60011 T01150106 10203 20115,68.54,52.7,3600.0,,,50.89,,NW,29.39,28.99,,Light Rain
KIGQ,10/13/2016 00:15 UTC,30.05,52.16,51.26,100.0,11.5,320.0,,13.0,344.0,,,153.0,223.0,,,10.0,,KIGQ 130015Z AUTO 32010KT 10SM -RA BKN015 BKN022 OVC034 11/11  A3005 RMK AO2 T01120107,,,1500.0,,,52.16,,NW,29.4,28.96,,Light Rain
KIGQ,10/13/2016 00:35 UTC,30.07,51.44,50.0,93.55,10.36,320.0,17.27,,,,,154.0,,,,10.0,,KIGQ 130035Z AUTO 32009G15KT 10SM OVC015 11/10 A3007 RMK AO2  T01080100,,,1500.0,,,49.62,,NW,29.42,29.08,,Overcast
KIGQ,10/13/2016 00:55 UTC,30.08,51.26,49.46,93.55,11.5,320.0,,,,,,154.0,,,,10.0,,KIGQ 130055Z AUTO 32010KT 10SM OVC015 11/10 A3008 RMK AO2  T01070097,,,1500.0,,,49.44,,NW,29.43,29.09,,Overcast
KIGQ,10/13/2016 01:15 UTC,30.09,51.08,49.1,93.55,9.22,330.0,,,,,,173.0,344.0,,,10.0,,KIGQ 130115Z AUTO 33008KT 10SM BKN017 OVC034 11/10 A3009 RMK AO2  T01060095,,,1700.0,,,49.26,,NNW,29.44,29.11,,Overcast
KIGQ,10/13/2016 01:35 UTC,30.1,51.08,49.1,93.55,6.91,340.0,16.11,,,,,173.0,344.0,,,10.0,,KIGQ 130135Z AUTO 34006G14KT 10SM BKN017 OVC034 11/10 A3010 RMK AO2 T01060095,,,1700.0,,,49.26,,NNW,29.45,29.12,,Overcast
KIGQ,10/13/2016 01:55 UTC,30.11,50.9,48.56,87.48,8.05,330.0,,,,,,174.0,,,,10.0,,KIGQ 130155Z AUTO 33007KT 10SM OVC017 11/09 A3011 RMK AO2  T01050092,,,1700.0,,,47.28,,NNW,29.46,29.2,,Overcast
KIGQ,10/13/2016 02:15 UTC,30.12,51.08,48.56,87.48,9.22,330.0,,,,,,154.0,,,,10.0,,KIGQ 130215Z AUTO 33008KT 10SM OVC015 11/09 A3012 RMK AO2  T01060092,,,1500.0,,,47.45,,NNW,29.47,29.2,,Overcast
KIGQ,10/13/2016 02:35 UTC,30.13,50.9,48.74,87.48,5.75,320.0,,,,,,154.0,,,,10.0,,KIGQ 130235Z AUTO 32005KT 10SM OVC015 11/09 A3013 RMK AO2  T01050093,,,1500.0,,,47.28,,NW,29.47,29.21,,Overcast
KIGQ,10/13/2016 02:55 UTC,30.14,50.36,48.38,93.5,6.91,310.0,16.11,,,,,143.0,224.0,,,10.0,,KIGQ 130255Z AUTO 31006G14KT 10SM BKN014 OVC022 10/09 A3014 RMK AO2 T01020091,,,1400.0,,,48.54,,NW,29.48,29.18,,Overcast
KIGQ,10/13/2016 03:15 UTC,30.15,50.0,48.02,93.5,11.5,320.0,,,,,,143.0,244.0,,,10.0,,KIGQ 130315Z AUTO 32010KT 10SM BKN014 OVC024 10/09 A3015 RMK AO2  T01000089,,,1400.0,,,48.18,,NW,29.49,29.21,,Overcast
KIGQ,10/13/2016 03:35 UTC,30.16,49.46,47.66,93.5,9.22,310.0,,,,,,124.0,,,,10.0,,KIGQ 130335Z AUTO 31008KT 10SM OVC012 10/09 A3016 RMK AO2  T00970087,,,1200.0,,,47.64,,NW,29.5,29.24,,Overcast
KIGQ,10/13/2016 03:55 UTC,30.16,49.64,47.12,87.38,9.22,320.0,,,,,,122.0,224.0,,,10.0,,KIGQ 130355Z AUTO 32008KT 10SM SCT012 OVC022 10/08 A3016 RMK AO2  T00980084,,,2200.0,,,46.0,,NW,29.5,29.29,,Overcast
KIGQ,10/13/2016 04:15 UTC,30.17,49.64,46.76,87.38,10.36,310.0,,,,,,152.0,204.0,,,10.0,,KIGQ 130415Z AUTO 31009KT 10SM SCT015 OVC020 10/08 A3017 RMK AO2  T00980082,,,2000.0,,,46.0,,NW,29.51,29.3,,Overcast
KIGQ,10/13/2016 04:35 UTC,30.17,48.38,46.76,93.45,12.66,310.0,17.27,2.0,,,,102.0,164.0,,,7.0,,KIGQ 130435Z AUTO 31011G15KT 7SM DZ SCT010 OVC016 09/08 A3017 RMK AO2 T00910082,,,1600.0,,,46.56,,NW,29.51,29.3,,Drizzle
KIGQ,10/13/2016 04:55 UTC,30.18,47.3,46.4,93.45,9.22,320.0,16.11,,,,,124.0,,,,10.0,,KIGQ 130455Z AUTO 32008G14KT 10SM OVC012 09/08 A3018 RMK AO2  T00850080,,,1200.0,,,45.48,,NW,29.52,29.35,,Overcast
KIGQ,10/13/2016 05:15 UTC,30.19,47.48,45.68,93.45,6.91,330.0,,,,,,144.0,,,,10.0,,KIGQ 130515Z AUTO 33006KT 10SM OVC014 09/08 A3019 RMK AO2  T00860076,,,1400.0,,,45.66,,NNW,29.53,29.35,,Overcast
KIGQ,10/13/2016 05:35 UTC,30.19,47.48,44.24,87.28,10.36,320.0,,,,,,163.0,224.0,,,10.0,,KIGQ 130535Z AUTO 32009KT 10SM BKN016 OVC022 09/07 A3019 RMK AO2  T00860068,,,1600.0,,,43.85,,NW,29.53,29.4,,Overcast
KIGQ,10/13/2016 05:55 UTC,30.19,47.48,43.7,87.28,9.22,330.0,,,344.0,,,182.0,222.0,,,10.0,,KIGQ 130555Z AUTO 33008KT 10SM SCT018 SCT022 OVC034 09/07  A3019 RMK AO2 T00860065 10115 20085 402060085,52.7,47.3,3400.0,69.08,47.3,43.85,,NNW,29.53,29.4,,Overcast
KIGQ,10/13/2016 06:15 UTC,30.19,47.3,43.88,87.28,8.05,320.0,17.27,,344.0,,,183.0,233.0,,,10.0,,KIGQ 130615Z AUTO 32007G15KT 10SM BKN018 BKN023 OVC034 09/07  A3019 RMK AO2 T00850066,,,1800.0,,,43.67,,NW,29.53,29.41,,Overcast
KIGQ,10/13/2016 06:35 UTC,30.2,46.76,42.98,87.19,9.22,320.0,,,,,,204.0,,,,10.0,,KIGQ 130635Z AUTO 32008KT 10SM OVC020 08/06 A3020 RMK AO2  T00820061,,,2000.0,,,43.11,,NW,29.54,29.44,,Overcast
KIGQ,10/13/2016 06:55 UTC,30.2,46.4,42.8,87.19,9.22,330.0,18.41,,,,,202.0,364.0,,,10.0,,KIGQ 130655Z AUTO 33008G16KT 10SM SCT020 OVC036 08/06 A3020 RMK AO2 T00800060,,,3600.0,,,42.75,,NNW,29.54,29.45,,Overcast
KIGQ,10/13/2016 07:15 UTC,30.21,46.4,41.9,87.19,8.05,330.0,,,,,,272.0,364.0,,,10.0,,KIGQ 130715Z AUTO 33007KT 10SM SCT027 OVC036 08/06 A3021 RMK AO2  T00800055,,,3600.0,,,42.75,,NNW,29.55,29.46,,Overcast
KIGQ,10/13/2016 07:35 UTC,30.21,45.86,41.18,83.6,9.22,330.0,,,,,,364.0,,,,10.0,,KIGQ 130735Z AUTO 33008KT 310V010 10SM OVC036 08/05 A3021 RMK AO2  T00770051,,,3600.0,,,41.12,,NNW,29.55,29.51,,Overcast
KIGQ,10/13/2016 07:55 UTC,30.21,45.5,40.64,81.34,8.05,330.0,,,,,,364.0,,,,10.0,,KIGQ 130755Z AUTO 33007KT 10SM OVC036 08/05 A3021 RMK AO2  T00750048,,,3600.0,,,40.05,,NNW,29.55,29.53,,Overcast
KIGQ,10/13/2016 08:15 UTC,30.21,45.5,40.1,81.34,11.5,320.0,,,,,,364.0,,,,10.0,,KIGQ 130815Z AUTO 32010KT 10SM OVC036 08/05 A3021 RMK AO2  T00750045,,,3600.0,,,40.05,,NW,29.55,29.53,,Overcast
KIGQ,10/13/2016 08:35 UTC,30.22,44.6,39.74,81.2,8.05,330.0,,,,,,364.0,,,,10.0,,KIGQ 130835Z AUTO 33007KT 10SM OVC036 07/04 A3022 RMK AO2  T00700043,,,3600.0,,,39.13,41.88,NNW,29.56,29.57,,Overcast
KIGQ,10/13/2016 08:55 UTC,30.24,44.06,39.38,81.2,6.91,320.0,,,,,,364.0,,,,10.0,,KIGQ 130855Z AUTO 32006KT 10SM OVC036 07/04 A3024 RMK AO2  T00670041,,,3600.0,,,38.6,,NW,29.58,29.61,,Overcast
KIGQ,10/13/2016 09:15 UTC,30.24,43.7,39.38,81.2,8.05,310.0,,,,,,363.0,,,,10.0,,KIGQ 130915Z AUTO 31007KT 10SM BKN036 07/04 A3024 RMK AO2  T00650041,,,3600.0,,,38.25,40.82,NW,29.58,29.62,,Mostly Cloudy
KIGQ,10/13/2016 09:35 UTC,30.25,43.16,39.2,86.99,6.91,320.0,,,,,,364.0,,,,10.0,,KIGQ 130935Z AUTO 32006KT 10SM OVC036 06/04 A3025 RMK AO2  T00620040,,,3600.0,,,39.5,,NW,29.59,29.61,,Overcast
KIGQ,10/13/2016 09:55 UTC,30.25,43.16,38.3,86.99,8.05,330.0,,,,,,344.0,,,,10.0,,KIGQ 130955Z AUTO 33007KT 10SM OVC034 06/04 A3025 RMK AO2  T00620035,,,3400.0,,,39.5,40.18,NNW,29.59,29.61,,Overcast
KIGQ,10/13/2016 10:15 UTC,30.25,42.8,37.58,81.06,4.61,320.0,,,,,,303.0,353.0,,,10.0,,KIGQ 131015Z AUTO 32004KT 10SM BKN030 BKN035 06/03 A3025 RMK AO2  T00600031,,,3000.0,,,37.33,,NW,29.59,29.66,,Mostly Cloudy
KIGQ,10/13/2016 10:35 UTC,30.26,42.8,37.4,81.06,4.61,310.0,,,,,,304.0,,,,10.0,,KIGQ 131035Z AUTO 31004KT 10SM OVC030 06/03 A3026 RMK AO2  T00600030,,,3000.0,,,37.33,,NW,29.6,29.67,,Overcast
KIGQ,10/13/2016 10:55 UTC,30.26,41.72,37.4,86.89,3.44,290.0,,,,,,303.0,,,,10.0,,KIGQ 131055Z AUTO 29003KT 10SM BKN030 05/03 A3026 RMK AO2  T00540030,,,3000.0,,,38.06,,WNW,29.6,29.66,,Mostly Cloudy
KIGQ,10/13/2016 11:15 UTC,30.27,40.64,37.4,86.89,4.61,280.0,,,,,,302.0,,,,10.0,,KIGQ 131115Z AUTO 28004KT 10SM SCT030 05/03 A3027 RMK AO2  T00480030,,,,,,36.99,,W,29.61,29.7,,Partly Cloudy
KIGQ,10/13/2016 11:35 UTC,30.27,40.1,37.4,86.89,3.44,290.0,,,,,,1.0,,,,10.0,,KIGQ 131135Z AUTO 29003KT 10SM CLR 05/03 A3027 RMK AO2  T00450030,,,,,,36.46,,WNW,29.61,29.71,,Clear
KIGQ,10/13/2016 11:55 UTC,30.27,40.1,36.86,86.89,3.44,290.0,,,,,,1.0,,,0.11,10.0,,KIGQ 131155Z AUTO 29003KT 10SM CLR 05/03 A3027 RMK AO2 70011  T00450027 10086 20045,47.48,40.1,,,,36.46,,WNW,29.61,29.71,,Clear
KIGQ,10/13/2016 12:15 UTC,30.28,39.92,37.04,93.19,3.44,280.0,,,,,,1.0,,,,10.0,,KIGQ 131215Z AUTO 28003KT 10SM CLR 04/03 A3028 RMK AO2  T00440028,,,,,,38.09,,W,29.62,29.69,,Clear
KIGQ,10/13/2016 12:35 UTC,30.28,40.1,37.58,86.89,4.61,310.0,,,,,,1.0,,,,10.0,,KIGQ 131235Z AUTO 31004KT 10SM CLR 05/03 A3028 RMK AO2  T00450031,,,,,,36.46,,NW,29.62,29.73,,Clear
KIGQ,10/13/2016 12:55 UTC,30.29,42.08,38.66,86.99,5.75,320.0,,,,,,1.0,,,,10.0,,KIGQ 131255Z AUTO 32005KT 10SM CLR 06/04 A3029 RMK AO2  T00560037,,,,,,38.44,,NW,29.63,29.68,,Clear
KIGQ,10/13/2016 13:15 UTC,30.3,43.52,39.02,86.99,6.91,320.0,,,,,,1.0,,,,10.0,,KIGQ 131315Z AUTO 32006KT 10SM CLR 06/04 A3030 RMK AO2  T00640039,,,,,,39.86,,NW,29.64,29.65,,Clear
KIGQ,10/13/2016 13:35 UTC,30.31,44.78,39.38,81.2,6.91,310.0,,,,,,1.0,,,,10.0,,KIGQ 131335Z AUTO 31006KT 10SM CLR 07/04 A3031 RMK AO2  T00710041,,,,,,39.3,,NW,29.65,29.66,,Clear
KIGQ,10/13/2016 13:55 UTC,30.32,45.86,39.56,75.84,6.91,300.0,,,,,,1.0,,,,10.0,,KIGQ 131355Z AUTO 30006KT 10SM CLR 08/04 A3032 RMK AO2  T00770042,,,,,,38.59,,WNW,29.66,29.68,,Clear
KIGQ,10/13/2016 14:15 UTC,30.32,46.76,40.28,81.34,6.91,310.0,,,,,,1.0,,,,10.0,,KIGQ 131415Z AUTO 31006KT 10SM CLR 08/05 A3032 RMK AO2  T00820046,,,,,,41.28,,NW,29.66,29.61,,Clear
KIGQ,10/13/2016 14:35 UTC,30.32,47.66,40.28,76.02,8.05,310.0,,,,,,1.0,,,,10.0,,KIGQ 131435Z AUTO 31007KT 10SM CLR 09/05 A3032 RMK AO2  T00870046,,,,,,40.39,,NW,29.66,29.62,,Clear
KIGQ,10/13/2016 14:55 UTC,30.33,48.38,40.28,76.02,5.75,300.0,,,,,,1.0,,,,10.0,,KIGQ 131455Z AUTO 30005KT 10SM CLR 09/05 A3033 RMK AO2  T00910046,,,,,,41.09,,WNW,29.67,29.61,,Clear
KIGQ,10/13/2016 15:20 UTC,30.33,49.46,40.82,71.08,4.61,290.0,,,,,,1.0,,,,10.0,,KIGQ 131520Z AUTO 29004KT 10SM CLR 10/05 A3033 RMK AO2  T00970049,,,,,,40.38,,WNW,29.67,29.62,,Clear
KIGQ,10/13/2016 15:35 UTC,30.33,50.0,40.64,71.08,0.0,0.0,,,,,,1.0,,,,10.0,,KIGQ 131535Z AUTO 00000KT 10SM CLR 10/05 A3033 RMK AO2  T01000048,,,,,,40.9,,N,29.67,29.6,,Clear
KIGQ,10/13/2016 15:55 UTC,30.33,50.9,41.36,66.49,3.44,360.0,,,,,,1.0,,,,10.0,,KIGQ 131555Z AUTO 36003KT 10SM CLR 11/05 A3033 RMK AO2  T01050052,,,,,,40.03,,N,29.67,29.61,,Clear
KIGQ,10/13/2016 16:15 UTC,30.33,51.26,40.82,66.49,0.0,0.0,,,,,,1.0,,,,10.0,,KIGQ 131615Z AUTO 00000KT 10SM CLR 11/05 A3033 RMK AO2  T01070049,,,,,,40.37,,N,29.67,29.6,,Clear
KIGQ,10/13/2016 16:35 UTC,30.33,51.98,41.0,66.49,0.0,0.0,,,,,,1.0,,,,10.0,,KIGQ 131635Z AUTO 00000KT 10SM CLR 11/05 A3033 RMK AO2  T01110050,,,,,,41.06,,N,29.67,29.58,,Clear
KIGQ,10/13/2016 16:55 UTC,30.33,53.42,41.54,62.24,4.61,220.0,,,,,,332.0,,,,10.0,,KIGQ 131655Z AUTO 22004KT 10SM SCT033 12/05 A3033 RMK AO2  T01190053,,,,,,40.71,,SW,29.67,29.58,,Partly Cloudy
KIGQ,10/13/2016 17:15 UTC,30.33,52.52,40.28,66.49,0.0,0.0,,,,,,352.0,,,,10.0,,KIGQ 131715Z AUTO 00000KT 10SM SCT035 11/05 A3033 RMK AO2  T01140046,,,,,,41.57,,N,29.67,29.56,,Partly Cloudy
KIGQ,10/13/2016 17:35 UTC,30.33,53.78,41.36,62.24,3.44,310.0,,,,,,352.0,,,,10.0,,KIGQ 131735Z AUTO 31003KT 10SM SCT035 12/05 A3033 RMK AO2  T01210052,,,,,,41.05,,NW,29.67,29.57,,Partly Cloudy
KIGQ,10/13/2016 17:55 UTC,30.32,54.68,41.54,58.29,4.61,250.0,,,,,,372.0,,,,10.0,,KIGQ 131755Z AUTO 25004KT 10SM SCT037 13/05 A3032 RMK AO2  T01260053 10127 20043,54.86,39.74,,,,40.2,,WSW,29.66,29.57,,Partly Cloudy
KIGQ,10/13/2016 18:15 UTC,30.32,55.04,41.54,58.29,4.61,240.0,,,,,,1.0,,,,10.0,,KIGQ 131815Z AUTO 24004KT 10SM CLR 13/05 A3032 RMK AO2  T01280053,,,,,,40.53,,WSW,29.66,29.56,,Clear
KIGQ,10/13/2016 18:35 UTC,30.31,55.04,41.72,58.29,3.44,220.0,,,,,,1.0,,,,10.0,,KIGQ 131835Z AUTO 22003KT 10SM CLR 13/05 A3031 RMK AO2  T01280054,,,,,,40.53,,SW,29.65,29.55,,Clear
KIGQ,10/13/2016 18:55 UTC,30.31,55.22,40.46,58.29,0.0,0.0,,,,,,1.0,,,,10.0,,KIGQ 131855Z AUTO 00000KT 10SM CLR 13/05 A3031 RMK AO2  T01290047,,,,,,40.7,,N,29.65,29.54,,Clear
KIGQ,10/13/2016 19:15 UTC,30.3,55.4,39.56,54.35,0.0,0.0,,,,,,1.0,,,,10.0,,KIGQ 131915Z AUTO 00000KT 10SM CLR 13/04 A3030 RMK AO2  T01300042,,,,,,39.06,,N,29.64,29.57,,Clear
KIGQ,10/13/2016 19:35 UTC,30.29,56.3,40.46,54.62,4.61,250.0,,,,,,1.0,,,,10.0,,KIGQ 131935Z AUTO 25004KT 10SM CLR 14/05 A3029 RMK AO2  T01350047,,,,,,40.03,,WSW,29.63,29.53,,Clear
KIGQ,10/13/2016 19:55 UTC,30.29,56.12,41.54,58.29,3.44,150.0,,,,,,1.0,,,,10.0,,KIGQ 131955Z AUTO 15003KT 10SM CLR 13/05 A3029 RMK AO2  T01340053,,,,,,41.55,,SSE,29.63,29.49,,Clear
KIGQ,10/13/2016 20:15 UTC,30.28,56.48,40.46,54.62,0.0,0.0,,,,,,1.0,,,,10.0,,KIGQ 132015Z AUTO 00000KT 10SM CLR 14/05 A3028 RMK AO2  T01360047,,,,,,40.2,,N,29.62,29.52,,Clear
KIGQ,10/13/2016 20:35 UTC,30.28,56.48,40.1,54.62,0.0,0.0,,,,,,1.0,,,,10.0,,KIGQ 132035Z AUTO 00000KT 10SM CLR 14/05 A3028 RMK AO2  T01360045,,,,,,40.2,,N,29.62,29.52,,Clear
KIGQ,10/13/2016 20:55 UTC,30.27,57.38,40.46,54.62,4.61,240.0,,,,,,1.0,,,,10.0,,KIGQ 132055Z AUTO 24004KT 10SM CLR 14/05 A3027 RMK AO2  T01410047,,,,,,41.04,,WSW,29.61,29.48,,Clear
KIGQ,10/13/2016 21:15 UTC,30.27,57.56,38.66,50.93,0.0,0.0,,,,,,1.0,,,,10.0,,KIGQ 132115Z AUTO 00000KT 10SM CLR 14/04 A3027 RMK AO2  T01420037,,,,,,39.39,,N,29.61,29.52,,Clear
KIGQ,10/13/2016 21:35 UTC,30.27,56.66,42.62,58.55,4.61,40.0,,,,,,1.0,,,,10.0,,KIGQ 132135Z AUTO 04004KT 10SM CLR 14/06 A3027 RMK AO2  T01370059,,,,,,42.18,,NE,29.61,29.45,,Clear
KIGQ,10/13/2016 21:55 UTC,30.27,55.4,44.24,66.93,5.75,60.0,,,,,,1.0,,,,10.0,,KIGQ 132155Z AUTO 06005KT 10SM CLR 13/07 A3027 RMK AO2  T01300068,,,,,,44.5,,ENE,29.61,29.4,,Clear
KIGQ,10/13/2016 22:15 UTC,30.27,54.68,44.06,66.93,5.75,50.0,,,,,,1.0,,,,10.0,,KIGQ 132215Z AUTO 05005KT 10SM CLR 13/07 A3027 RMK AO2  T01260067,,,,,,43.81,,NE,29.61,29.42,,Clear
KIGQ,10/13/2016 22:35 UTC,30.28,53.6,43.7,71.47,4.61,30.0,,,,,,1.0,,,,10.0,,KIGQ 132235Z AUTO 03004KT 10SM CLR 12/07 A3028 RMK AO2  T01200065,,,,,,44.51,,NNE,29.62,29.42,,Clear
KIGQ,10/13/2016 22:55 UTC,30.28,52.34,43.16,71.27,3.44,80.0,,,,,,1.0,,,,10.0,,KIGQ 132255Z AUTO 08003KT 10SM CLR 11/06 A3028 RMK AO2  T01130062,,,,,,43.22,,E,29.62,29.47,,Clear
KIGQ,10/13/2016 23:15 UTC,30.28,51.44,43.16,71.27,4.61,80.0,,,,,,1.0,,,,10.0,,KIGQ 132315Z AUTO 08004KT 10SM CLR 11/06 A3028 RMK AO2  T01080062,,,,,,42.36,,E,29.62,29.5,,Clear
KIGQ,10/13/2016 23:35 UTC,30.28,50.0,43.52,76.18,3.44,90.0,,,,,,1.0,,,,10.0,,KIGQ 132335Z AUTO 09003KT 10SM CLR 10/06 A3028 RMK AO2  T01000064,,,,,,42.72,,E,29.62,29.5,,Clear
KIGQ,10/13/2016 23:55 UTC,30.28,50.0,43.34,76.18,4.61,80.0,,,,,,1.0,,,,10.0,,KIGQ 132355Z AUTO 08004KT 10SM CLR 10/06 A3028 RMK AO2 T01000063  10142 20098,57.56,49.64,,,,42.72,,E,29.62,29.5,,Clear
KIGQ,10/14/2016 00:15 UTC,30.28,49.1,43.16,76.18,3.44,80.0,,,,,,1.0,,,,10.0,,KIGQ 140015Z AUTO 08003KT 10SM CLR 10/06 A3028 RMK AO2  T00950062,,,,,,41.84,,E,29.62,29.53,,Clear
KIGQ,10/14/2016 00:35 UTC,30.29,49.1,43.16,76.18,3.44,90.0,,,,,,1.0,,,,10.0,,KIGQ 140035Z AUTO 09003KT 10SM CLR 10/06 A3029 RMK AO2  T00950062,,,,,,41.84,,E,29.63,29.54,,Clear
KIGQ,10/14/2016 00:55 UTC,30.29,48.2,43.16,81.48,0.0,0.0,,,,,,1.0,,,,10.0,,KIGQ 140055Z AUTO 00000KT 10SM CLR 09/06 A3029 RMK AO2  T00900062,,,,,,42.74,,N,29.63,29.53,,Clear
KIGQ,10/14/2016 01:15 UTC,30.29,44.06,42.8,93.35,0.0,0.0,,,,,,1.0,,,,10.0,,KIGQ 140115Z AUTO 00000KT 10SM CLR 07/06 A3029 RMK AO2  T00670060,,,,,,42.24,,N,29.63,29.58,,Clear
KIGQ,10/14/2016 01:35 UTC,30.3,44.6,43.52,93.35,0.0,0.0,,,,,,1.0,,,,10.0,,KIGQ 140135Z AUTO 00000KT 10SM CLR 07/06 A3030 RMK AO2  T00700064,,,,,,42.78,,N,29.64,29.57,,Clear
KIGQ,10/14/2016 01:55 UTC,30.3,46.04,43.7,93.4,0.0,0.0,,,,,,1.0,,,,10.0,,KIGQ 140155Z AUTO 00000KT 10SM CLR 08/07 A3030 RMK AO2  T00780065,,,,,,44.22,,N,29.64,29.52,,Clear
KIGQ,10/14/2016 02:15 UTC,30.3,43.88,42.62,93.35,0.0,0.0,,,,,,1.0,,,,10.0,,KIGQ 140215Z AUTO 00000KT 10SM CLR 07/06 A3030 RMK AO2  T00660059,,,,,,42.06,,N,29.64,29.59,,Clear
KIGQ,10/14/2016 02:35 UTC,30.3,43.16,42.8,100.0,0.0,0.0,,,,,,1.0,,,,10.0,,KIGQ 140235Z AUTO 00000KT 10SM CLR 06/06 A3030 RMK AO2  T00620060,,,,,,43.16,,N,29.64,29.57,,Clear
KIGQ,10/14/2016 02:55 UTC,30.3,40.82,40.82,100.0,0.0,0.0,,,,,,1.0,,,,10.0,,KIGQ 140255Z AUTO 00000KT 10SM CLR 05/05 A3030 RMK AO2  T00490049,,,,,,40.82,,N,29.64,29.65,,Clear
KIGQ,10/14/2016 03:15 UTC,30.31,41.36,41.18,100.0,0.0,0.0,,,,,,1.0,,,,10.0,,KIGQ 140315Z AUTO 00000KT 10SM CLR 05/05 A3031 RMK AO2  T00520051,,,,,,41.36,,N,29.65,29.64,,Clear
KIGQ,10/14/2016 03:35 UTC,30.3,39.92,39.92,100.0,0.0,0.0,,,,,,1.0,,,,10.0,,KIGQ 140335Z AUTO 00000KT 10SM CLR 04/04 A3030 RMK AO2  T00440044,,,,,,39.92,,N,29.64,29.68,,Clear
KIGQ,10/14/2016 03:55 UTC,30.3,41.36,41.36,100.0,0.0,0.0,,,,,,1.0,,,,10.0,,KIGQ 140355Z AUTO 00000KT 10SM CLR 05/05 A3030 RMK AO2  T00520052,,,,,,41.36,,N,29.64,29.63,,Clear
KIGQ,10/14/2016 04:15 UTC,30.3,41.36,41.18,100.0,0.0,0.0,,,,,,1.0,,,,10.0,,KIGQ 140415Z AUTO 00000KT 10SM CLR 05/05 A3030 RMK AO2  T00520051,,,,,,41.36,,N,29.64,29.63,,Clear
KIGQ,10/14/2016 04:35 UTC,30.3,39.56,39.56,100.0,0.0,0.0,,9.0,,,,55.0,,,,0.5,,KIGQ 140435Z AUTO 00000KT 1/2SM FG VV005 04/04 A3030 RMK AO2  T00420042,,,500.0,,,39.56,,N,29.64,29.69,,Fog
KIGQ,10/14/2016 04:55 UTC,30.3,39.2,39.2,100.0,0.0,0.0,,,,,,1.0,,,,7.0,,KIGQ 140455Z AUTO 00000KT 7SM CLR 04/04 A3030 RMK AO2  T00400040,,,,,,39.2,,N,29.64,29.7,,Clear
KIGQ,10/14/2016 05:15 UTC,30.31,40.46,40.46,100.0,0.0,0.0,,,,,,1.0,,,,10.0,,KIGQ 140515Z AUTO 00000KT 10SM CLR 05/05 A3031 RMK AO2  T00470047,,,,,,40.46,,N,29.65,29.67,,Clear
KIGQ,10/14/2016 05:35 UTC,30.31,40.28,40.28,100.0,0.0,0.0,,,,,,1.0,,,,10.0,,KIGQ 140535Z AUTO 00000KT 10SM CLR 05/05 A3031 RMK AO2  T00460046,,,,,,40.28,,N,29.65,29.68,,Clear
KIGQ,10/14/2016 05:55 UTC,30.31,39.02,39.02,100.0,0.0,0.0,,31.0,,,,1.0,,,,2.5,,KIGQ 140555Z AUTO 00000KT 2 1/2SM BR CLR 04/04 A3031 RMK AO2 VIS  3/4V5 T00390039 10098 20036 401420036,49.64,38.48,,57.56,38.48,39.02,,N,29.65,29.71,,Mist
KIGQ,10/14/2016 06:15 UTC,30.31,38.3,38.3,100.0,0.0,0.0,,,,,,1.0,,,,10.0,,KIGQ 140615Z AUTO 00000KT 10SM CLR 04/04 A3031 RMK AO2  T00350035,,,,,,38.3,,N,29.65,29.73,,Clear
KIGQ,10/14/2016 06:35 UTC,30.31,37.4,37.4,100.0,0.0,0.0,,,,,,1.0,,,,10.0,,KIGQ 140635Z AUTO 00000KT 10SM CLR 03/03 A3031 RMK AO2  T00300030,,,,,,37.4,,N,29.65,29.76,,Clear
KIGQ,10/14/2016 06:55 UTC,30.31,38.12,38.12,100.0,0.0,0.0,,,,,,1.0,,,,7.0,,KIGQ 140655Z AUTO 00000KT 7SM CLR 03/03 A3031 RMK AO2  T00340034,,,,,,38.12,,N,29.65,29.74,,Clear
KIGQ,10/14/2016 07:15 UTC,30.31,36.86,36.86,100.0,0.0,0.0,,,,,,1.0,,,,10.0,,KIGQ 140715Z AUTO 00000KT 10SM CLR 03/03 A3031 RMK AO2  T00270027,,,,,,36.86,,N,29.65,29.77,,Clear
KIGQ,10/14/2016 07:35 UTC,30.3,37.94,37.94,100.0,0.0,0.0,,,,,,1.0,,,,10.0,,KIGQ 140735Z AUTO 00000KT 10SM CLR 03/03 A3030 RMK AO2  T00330033,,,,,,37.94,,N,29.64,29.73,,Clear
KIGQ,10/14/2016 07:55 UTC,30.29,38.12,38.12,100.0,0.0,0.0,,,,,,1.0,,,,10.0,,KIGQ 140755Z AUTO 00000KT 10SM CLR 03/03 A3029 RMK AO2  T00340034,,,,,,38.12,,N,29.63,29.72,,Clear
KIGQ,10/14/2016 08:15 UTC,30.29,38.84,38.84,100.0,0.0,0.0,,,,,,1.0,,,,10.0,,KIGQ 140815Z AUTO 00000KT 10SM CLR 04/04 A3029 RMK AO2  T00380038,,,,,,38.84,,N,29.63,29.7,,Clear
KIGQ,10/14/2016 08:35 UTC,30.29,39.2,39.2,100.0,0.0,0.0,,,,,,1.0,,,,10.0,,KIGQ 140835Z AUTO 00000KT 10SM CLR 04/04 A3029 RMK AO2  T00400040,,,,,,39.2,,N,29.63,29.69,,Clear
KIGQ,10/14/2016 08:55 UTC,30.29,39.2,39.2,100.0,0.0,0.0,,,,,,1.0,,,,10.0,,KIGQ 140855Z AUTO 00000KT 10SM CLR 04/04 A3029 RMK AO2  T00400040,,,,,,39.2,,N,29.63,29.69,,Clear
KIGQ,10/14/2016 09:15 UTC,30.29,38.12,38.12,100.0,3.44,120.0,,,,,,1.0,,,,10.0,,KIGQ 140915Z AUTO 12003KT 10SM CLR 03/03 A3029 RMK AO2  T00340034,,,,,,38.12,,ESE,29.63,29.72,,Clear
KIGQ,10/14/2016 09:35 UTC,30.29,38.66,38.66,100.0,0.0,0.0,,,,,,1.0,,,,10.0,,KIGQ 140935Z AUTO 00000KT 10SM CLR 04/04 A3029 RMK AO2  T00370037,,,,,,38.66,,N,29.63,29.7,,Clear
KIGQ,10/14/2016 09:55 UTC,30.29,39.2,39.2,100.0,0.0,0.0,,,,,,1.0,,,,10.0,,KIGQ 140955Z AUTO 00000KT 10SM CLR 04/04 A3029 RMK AO2  T00400040,,,,,,39.2,,N,29.63,29.69,,Clear
KIGQ,10/14/2016 10:15 UTC,30.29,39.2,39.2,100.0,0.0,0.0,,,,,,1.0,,,,10.0,,KIGQ 141015Z AUTO 00000KT 10SM CLR 04/04 A3029 RMK AO2  T00400040,,,,,,39.2,,N,29.63,29.69,,Clear
KIGQ,10/14/2016 10:35 UTC,30.3,39.38,39.38,100.0,0.0,0.0,,,,,,1.0,,,,10.0,,KIGQ 141035Z AUTO 00000KT 10SM CLR 04/04 A3030 RMK AO2  T00410041,,,,,,39.38,,N,29.64,29.69,,Clear
KIGQ,10/14/2016 10:55 UTC,30.3,39.38,39.38,100.0,0.0,0.0,,,,,,1.0,,,,10.0,,KIGQ 141055Z AUTO 00000KT 10SM CLR 04/04 A3030 RMK AO2  T00410041,,,,,,39.38,,N,29.64,29.69,,Clear
KIGQ,10/14/2016 11:15 UTC,30.3,39.02,39.02,100.0,3.44,110.0,,,,,,1.0,,,,10.0,,KIGQ 141115Z AUTO 11003KT 10SM CLR 04/04 A3030 RMK AO2  T00390039,,,,,,39.02,,ESE,29.64,29.7,,Clear
KIGQ,10/14/2016 11:35 UTC,30.3,38.48,38.48,100.0,0.0,0.0,,,,,,1.0,,,,10.0,,KIGQ 141135Z AUTO 00000KT 10SM CLR 04/04 A3030 RMK AO2  T00360036,,,,,,38.48,,N,29.64,29.72,,Clear
KIGQ,10/14/2016 11:55 UTC,30.3,38.12,38.12,100.0,0.0,0.0,,,,,,1.0,,,,10.0,,KIGQ 141155Z AUTO 00000KT 10SM CLR 03/03 A3030 RMK AO2 T00340034  10042 20025,39.56,36.5,,,,38.12,,N,29.64,29.73,,Clear
KIGQ,10/14/2016 12:15 UTC,30.3,37.94,37.94,100.0,4.61,120.0,,,,,,1.0,,,,10.0,,KIGQ 141215Z AUTO 12004KT 10SM CLR 03/03 A3030 RMK AO2  T00330033,,,,,,37.94,,ESE,29.64,29.73,,Clear
KIGQ,10/14/2016 12:35 UTC,30.29,37.94,37.94,100.0,0.0,0.0,,,,,,1.0,,,,10.0,,KIGQ 141235Z AUTO 00000KT 10SM CLR 03/03 A3029 RMK AO2  T00330033,,,,,,37.94,,N,29.63,29.72,,Clear
KIGQ,10/14/2016 12:55 UTC,30.3,38.66,38.66,100.0,0.0,0.0,,,,,,1.0,,,,10.0,,KIGQ 141255Z AUTO 00000KT 10SM CLR 04/04 A3030 RMK AO2  T00370037,,,,,,38.66,,N,29.64,29.71,,Clear
KIGQ,10/14/2016 13:15 UTC,30.3,41.18,41.18,100.0,0.0,0.0,,,,,,1.0,,,,10.0,,KIGQ 141315Z AUTO 00000KT 10SM CLR 05/05 A3030 RMK AO2  T00510051,,,,,,41.18,,N,29.64,29.64,,Clear
KIGQ,10/14/2016 13:35 UTC,30.31,43.88,42.62,93.35,0.0,0.0,,,,,,1.0,,,,10.0,,KIGQ 141335Z AUTO 00000KT 10SM CLR 07/06 A3031 RMK AO2  T00660059,,,,,,42.06,,N,29.65,29.6,,Clear
KIGQ,10/14/2016 13:55 UTC,30.32,46.22,43.7,93.4,4.61,40.0,,,,,,1.0,,,,10.0,,KIGQ 141355Z AUTO 04004KT 10SM CLR 08/07 A3032 RMK AO2  T00790065,,,,,,44.4,,NE,29.66,29.53,,Clear
KIGQ,10/14/2016 14:15 UTC,30.32,48.92,44.42,87.28,6.91,70.0,,,,,,1.0,,,,10.0,,KIGQ 141415Z AUTO 07006KT 10SM CLR 09/07 A3032 RMK AO2  T00940069,,,,,,45.26,,ENE,29.66,29.48,,Clear
KIGQ,10/14/2016 14:35 UTC,30.31,51.26,45.5,81.75,4.61,120.0,,,,,,1.0,,,,10.0,,KIGQ 141435Z AUTO 12004KT 10SM CLR 11/08 A3031 RMK AO2  T01070075,,,,,,45.81,,ESE,29.65,29.43,,Clear
KIGQ,10/14/2016 14:55 UTC,30.31,53.24,46.04,76.52,5.75,140.0,,,,,,1.0,,,,10.0,,KIGQ 141455Z AUTO 14005KT 10SM CLR 12/08 A3031 RMK AO2  T01180078,,,,,,45.98,,SE,29.65,29.41,,Clear
KIGQ,10/14/2016 15:15 UTC,30.3,55.04,45.68,71.66,8.05,160.0,,,,,,1.0,,,,10.0,,KIGQ 141515Z AUTO 16007KT 10SM CLR 13/08 A3030 RMK AO2  T01280076,,,,,,45.97,,SSE,29.64,29.38,,Clear
KIGQ,10/14/2016 15:35 UTC,30.29,56.84,46.04,67.15,9.22,150.0,,,,,,1.0,,,,10.0,,KIGQ 141535Z AUTO 15008KT 10SM CLR 14/08 A3029 RMK AO2  T01380078,,,,,,45.96,,SSE,29.63,29.36,,Clear
KIGQ,10/14/2016 15:55 UTC,30.28,58.28,46.76,62.95,8.05,170.0,,,,,,1.0,,,,10.0,,KIGQ 141555Z AUTO 17007KT 10SM CLR 15/08 A3028 RMK AO2  T01460082,,,,,,45.62,,S,29.62,29.35,,Clear
KIGQ,10/14/2016 16:15 UTC,30.28,59.36,46.04,62.95,10.36,160.0,16.11,,,,,1.0,,,,10.0,,KIGQ 141615Z AUTO 16009G14KT 10SM CLR 15/08 A3028 RMK AO2  T01520078,,,,,,46.64,,SSE,29.62,29.3,,Clear
KIGQ,10/14/2016 16:35 UTC,30.26,60.08,46.4,59.05,10.36,150.0,,,,,,1.0,,,,10.0,,KIGQ 141635Z AUTO 15009KT 10SM CLR 16/08 A3026 RMK AO2  T01560080,,,,,,45.62,,SSE,29.6,29.31,,Clear
KIGQ,10/14/2016 16:55 UTC,30.26,61.16,47.3,63.18,9.22,180.0,,,,,,1.0,,,,10.0,,KIGQ 141655Z AUTO 18008KT 10SM CLR 16/09 A3026 RMK AO2  T01620085,,,,,,48.45,,S,29.6,29.21,,Clear
KIGQ,10/14/2016 17:15 UTC,30.25,61.88,47.66,59.3,9.22,160.0,18.41,,,,,1.0,,,,10.0,,KIGQ 141715Z AUTO 16008G16KT 10SM CLR 17/09 A3025 RMK AO2  T01660087,,,,,,47.43,,SSE,29.59,29.23,,Clear
KIGQ,10/14/2016 17:35 UTC,30.24,62.42,47.66,59.3,12.66,170.0,,,,,,1.0,,,,10.0,,KIGQ 141735Z AUTO 17011KT 10SM CLR 17/09 A3024 RMK AO2  T01690087,,,,,,47.94,,S,29.58,29.19,,Clear
KIGQ,10/14/2016 17:55 UTC,30.23,62.78,47.84,59.3,10.36,180.0,17.27,,,,,1.0,,,,10.0,,KIGQ 141755Z AUTO 18009G15KT 10SM CLR 17/09 A3023 RMK AO2  T01710088 10171 20030,62.78,37.4,,,,48.28,,S,29.57,29.17,,Clear
KIGQ,10/14/2016 18:15 UTC,30.21,63.14,48.02,59.3,13.8,160.0,,,,,,1.0,,,,10.0,,KIGQ 141815Z AUTO 16012KT 10SM CLR 17/09 A3021 RMK AO2  T01730089,,,,,,48.62,,SSE,29.55,29.13,,Clear
KIGQ,10/14/2016 18:35 UTC,30.21,64.04,48.38,55.67,13.8,170.0,,,,,,1.0,,,,10.0,,KIGQ 141835Z AUTO 17012KT 10SM CLR 18/09 A3021 RMK AO2  T01780091,,,,,,47.77,,S,29.55,29.15,,Clear
KIGQ,10/14/2016 18:55 UTC,30.2,64.04,48.38,55.67,11.5,170.0,,,,,,1.0,,,,10.0,,KIGQ 141855Z AUTO 17010KT 10SM CLR 18/09 A3020 RMK AO2  T01780091,,,,,,47.77,,S,29.54,29.14,,Clear
KIGQ,10/14/2016 19:15 UTC,30.19,64.58,47.3,55.67,5.75,170.0,18.41,,,,,1.0,,,,10.0,,KIGQ 141915Z AUTO 17005G16KT 10SM CLR 18/09 A3019 RMK AO2  T01810085,,,,,,48.28,,S,29.53,29.11,,Clear
KIGQ,10/14/2016 19:35 UTC,30.19,65.12,47.84,55.67,8.05,190.0,,,,,,1.0,,,,10.0,,KIGQ 141935Z AUTO 19007KT 10SM CLR 18/09 A3019 RMK AO2  T01840088,,,,,,48.78,,S,29.53,29.09,,Clear
KIGQ,10/14/2016 19:55 UTC,30.19,65.66,47.66,52.3,13.8,160.0,17.27,,,,,1.0,,,,10.0,,KIGQ 141955Z AUTO 16012G15KT 10SM CLR 19/09 A3019 RMK AO2  T01870087,,,,,,47.61,,SSE,29.53,29.13,,Clear
KIGQ,10/14/2016 20:15 UTC,30.18,66.02,47.12,48.87,9.22,170.0,18.41,,,,,1.0,,,,10.0,,KIGQ 142015Z AUTO 17008G16KT 10SM CLR 19/08 A3018 RMK AO2  T01890084,,,,,,46.14,,S,29.52,29.16,,Clear
KIGQ,10/14/2016 20:35 UTC,30.18,66.02,47.3,52.3,10.36,160.0,,,,,,1.0,,,,10.0,,KIGQ 142035Z AUTO 16009KT 10SM CLR 19/09 A3018 RMK AO2  T01890085,,,,,,47.95,,SSE,29.52,29.1,,Clear
KIGQ,10/14/2016 20:55 UTC,30.17,65.48,46.94,48.87,9.22,170.0,18.41,,,,,1.0,,,,10.0,,KIGQ 142055Z AUTO 17008G16KT 10SM CLR 19/08 A3017 RMK AO2  T01860083,,,,,,45.64,,S,29.51,29.18,,Clear
KIGQ,10/14/2016 21:15 UTC,30.17,66.2,48.74,52.3,6.91,160.0,,,,,,1.0,,,,10.0,,KIGQ 142115Z AUTO 16006KT 10SM CLR 19/09 A3017 RMK AO2  T01900093,,,,,,48.11,,SSE,29.51,29.08,,Clear
KIGQ,10/14/2016 21:35 UTC,30.18,65.48,46.94,48.87,10.36,190.0,,,,,,1.0,,,,10.0,,KIGQ 142135Z AUTO 19009KT 10SM CLR 19/08 A3018 RMK AO2  T01860083,,,,,,45.64,,S,29.52,29.19,,Clear
KIGQ,10/14/2016 21:55 UTC,30.17,64.76,48.56,55.67,8.05,180.0,,,,,,1.0,,,,10.0,,KIGQ 142155Z AUTO 18007KT 10SM CLR 18/09 A3017 RMK AO2  T01820092,,,,,,48.45,,S,29.51,29.08,,Clear
KIGQ,10/14/2016 22:15 UTC,30.16,64.4,47.84,55.67,9.22,150.0,,,,,,1.0,,,,10.0,,KIGQ 142215Z AUTO 15008KT 110V190 10SM CLR 18/09 A3016 RMK AO2  T01800088,,,,,,48.11,,SSE,29.5,29.09,,Clear
KIGQ,10/14/2016 22:35 UTC,30.15,63.5,47.84,55.67,6.91,140.0,,,,,,1.0,,,,10.0,,KIGQ 142235Z AUTO 14006KT 10SM CLR 18/09 A3015 RMK AO2  T01750088,,,,,,47.27,,SE,29.49,29.12,,Clear
KIGQ,10/14/2016 22:55 UTC,30.15,62.24,47.84,59.3,4.61,150.0,,,,,,1.0,,,,10.0,,KIGQ 142255Z AUTO 15004KT 10SM CLR 17/09 A3015 RMK AO2  T01680088,,,,,,47.77,,SSE,29.49,29.11,,Clear
KIGQ,10/14/2016 23:15 UTC,30.15,61.16,48.2,63.18,4.61,140.0,,,,,,1.0,,,,10.0,,KIGQ 142315Z AUTO 14004KT 10SM CLR 16/09 A3015 RMK AO2  T01620090,,,,,,48.45,,SE,29.49,29.09,,Clear
KIGQ,10/14/2016 23:35 UTC,30.14,58.82,47.66,67.36,5.75,140.0,,,,,,1.0,,,,10.0,,KIGQ 142335Z AUTO 14005KT 10SM CLR 15/09 A3014 RMK AO2  T01490087,,,,,,47.94,,SE,29.48,29.12,,Clear
KIGQ,10/14/2016 23:55 UTC,30.14,58.28,47.48,67.36,4.61,150.0,,,,,,1.0,,,,10.0,,KIGQ 142355Z AUTO 15004KT 10SM CLR 15/09 A3014 RMK AO2 T01460086  10190 20146,66.2,58.28,,,,47.43,,SSE,29.48,29.15,,Clear
KIGQ,10/15/2016 00:15 UTC,30.13,57.38,47.3,71.85,6.91,150.0,,,,,,1.0,,,,10.0,,KIGQ 150015Z AUTO 15006KT 10SM CLR 14/09 A3013 RMK AO2  T01410085,,,,,,48.29,,SSE,29.47,29.11,,Clear
KIGQ,10/15/2016 00:35 UTC,30.13,57.38,47.3,71.85,6.91,150.0,,,,,,1.0,,,,10.0,,KIGQ 150035Z AUTO 15006KT 10SM CLR 14/09 A3013 RMK AO2  T01410085,,,,,,48.29,,SSE,29.47,29.11,,Clear
KIGQ,10/15/2016 00:55 UTC,30.14,55.94,46.94,71.66,5.75,160.0,,,,,,1.0,,,,10.0,,KIGQ 150055Z AUTO 16005KT 10SM CLR 13/08 A3014 RMK AO2  T01330083,,,,,,46.84,,SSE,29.48,29.19,,Clear
KIGQ,10/15/2016 01:15 UTC,30.13,55.4,47.12,71.66,6.91,160.0,,,,,,1.0,,,,10.0,,KIGQ 150115Z AUTO 16006KT 10SM CLR 13/08 A3013 RMK AO2  T01300084,,,,,,46.32,,SSE,29.47,29.2,,Clear
KIGQ,10/15/2016 01:35 UTC,30.13,55.4,46.76,71.66,5.75,160.0,,,,,,1.0,,,,10.0,,KIGQ 150135Z AUTO 16005KT 10SM CLR 13/08 A3013 RMK AO2  T01300082,,,,,,46.32,,SSE,29.47,29.2,,Clear
KIGQ,10/15/2016 01:55 UTC,30.13,54.86,46.4,71.66,5.75,160.0,,,,,,1.0,,,,10.0,,KIGQ 150155Z AUTO 16005KT 10SM CLR 13/08 A3013 RMK AO2  T01270080,,,,,,45.8,,SSE,29.47,29.22,,Clear
KIGQ,10/15/2016 02:15 UTC,30.13,51.98,45.86,81.75,6.91,180.0,,,,,,1.0,,,,10.0,,KIGQ 150215Z AUTO 18006KT 10SM CLR 11/08 A3013 RMK AO2  T01110077,,,,,,46.52,,S,29.47,29.22,,Clear
KIGQ,10/15/2016 02:35 UTC,30.13,51.44,45.68,81.75,6.91,170.0,,,,,,1.0,,,,10.0,,KIGQ 150235Z AUTO 17006KT 10SM CLR 11/08 A3013 RMK AO2  T01080076,,,,,,45.99,,S,29.47,29.24,,Clear
KIGQ,10/15/2016 02:55 UTC,30.13,52.52,45.86,81.75,6.91,190.0,,,,,,1.0,,,,10.0,,KIGQ 150255Z AUTO 19006KT 10SM CLR 11/08 A3013 RMK AO2  T01140077,,,,,,47.05,,S,29.47,29.2,,Clear
KIGQ,10/15/2016 03:15 UTC,30.13,51.26,45.86,81.75,8.05,180.0,,,,,,1.0,,,,10.0,,KIGQ 150315Z AUTO 18007KT 10SM CLR 11/08 A3013 RMK AO2  T01070077,,,,,,45.81,,S,29.47,29.25,,Clear
KIGQ,10/15/2016 03:35 UTC,30.13,51.62,46.04,81.75,5.75,190.0,,,,,,1.0,,,,10.0,,KIGQ 150335Z AUTO 19005KT 10SM CLR 11/08 A3013 RMK AO2  T01090078,,,,,,46.17,,S,29.47,29.24,,Clear
KIGQ,10/15/2016 03:55 UTC,30.12,50.36,45.68,87.38,8.05,180.0,,,,,,1.0,,,,10.0,,KIGQ 150355Z AUTO 18007KT 10SM CLR 10/08 A3012 RMK AO2  T01020076,,,,,,46.71,,S,29.47,29.23,,Clear
KIGQ,10/15/2016 04:15 UTC,30.12,50.0,45.68,87.38,6.91,180.0,,,,,,1.0,,,,10.0,,KIGQ 150415Z AUTO 18006KT 10SM CLR 10/08 A3012 RMK AO2  T01000076,,,,,,46.36,,S,29.47,29.25,,Clear
KIGQ,10/15/2016 04:35 UTC,30.12,50.0,45.86,87.38,6.91,180.0,,,,,,1.0,,,,10.0,,KIGQ 150435Z AUTO 18006KT 10SM CLR 10/08 A3012 RMK AO2  T01000077,,,,,,46.36,,S,29.47,29.25,,Clear
KIGQ,10/15/2016 04:55 UTC,30.11,51.08,46.76,81.75,9.22,180.0,,,,,,1.0,,,,10.0,,KIGQ 150455Z AUTO 18008KT 10SM CLR 11/08 A3011 RMK AO2  T01060082,,,,,,45.64,,S,29.46,29.25,,Clear
KIGQ,10/15/2016 05:15 UTC,30.12,51.26,47.3,87.48,8.05,190.0,,,,,,1.0,,,,10.0,,KIGQ 150515Z AUTO 19007KT 10SM CLR 11/09 A3012 RMK AO2  T01070085,,,,,,47.63,,S,29.47,29.19,,Clear
KIGQ,10/15/2016 05:35 UTC,30.12,51.08,47.3,87.48,6.91,180.0,,,,,,1.0,,,,10.0,,KIGQ 150535Z AUTO 18006KT 10SM CLR 11/09 A3012 RMK AO2  T01060085,,,,,,47.45,,S,29.47,29.2,,Clear
KIGQ,10/15/2016 05:55 UTC,30.11,49.1,46.94,87.38,8.05,180.0,,,,,,1.0,,,,10.0,,KIGQ 150555Z AUTO 18007KT 10SM CLR 10/08 A3011 RMK AO2 T00950083  10147 20095 401900025,58.46,49.1,,66.2,36.5,45.47,,S,29.46,29.27,,Clear
KIGQ,10/15/2016 06:15 UTC,30.11,50.0,47.48,93.5,5.75,180.0,,,,,,1.0,,,,10.0,,KIGQ 150615Z AUTO 18005KT 10SM CLR 10/09 A3011 RMK AO2  T01000086,,,,,,48.18,,S,29.46,29.18,,Clear
KIGQ,10/15/2016 06:35 UTC,30.11,49.28,47.3,93.5,5.75,180.0,,,,,,1.0,,,,10.0,,KIGQ 150635Z AUTO 18005KT 10SM CLR 10/09 A3011 RMK AO2  T00960085,,,,,,47.46,,S,29.46,29.21,,Clear
KIGQ,10/15/2016 06:55 UTC,30.11,48.74,47.3,100.0,5.75,200.0,,,,,,1.0,,,,10.0,,KIGQ 150655Z AUTO 20005KT 10SM CLR 09/09 A3011 RMK AO2  T00930085,,,,,,48.74,,SSW,29.46,29.17,,Clear
KIGQ,10/15/2016 07:15 UTC,30.11,48.56,46.94,93.45,5.75,180.0,,,,,,1.0,,,,10.0,,KIGQ 150715Z AUTO 18005KT 10SM CLR 09/08 A3011 RMK AO2  T00920083,,,,,,46.73,,S,29.46,29.24,,Clear
KIGQ,10/15/2016 07:35 UTC,30.11,48.38,47.3,100.0,5.75,190.0,,,,,,1.0,,,,10.0,,KIGQ 150735Z AUTO 19005KT 10SM CLR 09/09 A3011 RMK AO2  T00910085,,,,,,48.38,,S,29.46,29.19,,Clear
KIGQ,10/15/2016 07:55 UTC,30.1,48.38,47.48,100.0,5.75,190.0,,,,,,1.0,,,,10.0,,KIGQ 150755Z AUTO 19005KT 10SM CLR 09/09 A3010 RMK AO2  T00910086,,,,,,48.38,,S,29.45,29.18,,Clear
KIGQ,10/15/2016 08:15 UTC,30.09,48.2,47.3,100.0,5.75,170.0,,,,,,1.0,,,,10.0,,KIGQ 150815Z AUTO 17005KT 10SM CLR 09/09 A3009 RMK AO2  T00900085,,,,,,48.2,,S,29.44,29.18,,Clear
KIGQ,10/15/2016 08:35 UTC,30.09,49.1,48.2,93.5,4.61,190.0,,,,,,1.0,,,,10.0,,KIGQ 150835Z AUTO 19004KT 10SM CLR 10/09 A3009 RMK AO2  T00950090,,,,,,47.28,,S,29.44,29.2,,Clear
KIGQ,10/15/2016 08:55 UTC,30.08,49.64,49.1,100.0,5.75,180.0,,,,,,1.0,,,,10.0,,KIGQ 150855Z AUTO 18005KT 10SM CLR 10/10 A3008 RMK AO2  T00980095,,,,,,49.64,,S,29.43,29.11,,Clear
KIGQ,10/15/2016 09:15 UTC,30.08,50.54,50.18,100.0,8.05,180.0,,,,,,113.0,,,,10.0,,KIGQ 150915Z AUTO 18007KT 10SM BKN011 10/10 A3008 RMK AO2  T01030101,,,1100.0,,,50.54,,S,29.43,29.07,,Mostly Cloudy
KIGQ,10/15/2016 09:35 UTC,30.07,52.16,51.26,100.0,10.36,180.0,,,,,,114.0,,,,10.0,,KIGQ 150935Z AUTO 18009KT 10SM OVC011 11/11 A3007 RMK AO2  T01120107,,,1100.0,,,52.16,,S,29.42,28.98,,Overcast
KIGQ,10/15/2016 09:55 UTC,30.07,53.06,52.16,93.6,9.22,170.0,,,,,,114.0,,,,10.0,,KIGQ 150955Z AUTO 17008KT 10SM OVC011 12/11 A3007 RMK AO2  T01170112,,,1100.0,,,51.24,,S,29.42,29.0,,Overcast
KIGQ,10/15/2016 10:15 UTC,30.07,53.96,53.24,100.0,9.22,170.0,,,,,,114.0,,,,10.0,,KIGQ 151015Z AUTO 17008KT 10SM OVC011 12/12 A3007 RMK AO2  T01220118,,,1100.0,,,53.96,,S,29.42,28.89,,Overcast
KIGQ,10/15/2016 10:35 UTC,30.06,54.5,53.6,93.65,6.91,190.0,,,,,,114.0,,,,10.0,,KIGQ 151035Z AUTO 19006KT 10SM OVC011 13/12 A3006 RMK AO2  T01250120,,,1100.0,,,52.69,,S,29.41,28.92,,Overcast
KIGQ,10/15/2016 10:55 UTC,30.06,55.4,54.68,100.0,10.36,170.0,,,,,,94.0,,,,10.0,,KIGQ 151055Z AUTO 17009KT 10SM OVC009 13/13 A3006 RMK AO2  T01300126,,,900.0,,,55.4,,S,29.41,28.8,,Overcast
KIGQ,10/15/2016 11:15 UTC,30.07,55.22,54.5,100.0,10.36,180.0,,,,,,94.0,,,,7.0,,KIGQ 151115Z AUTO 18009KT 7SM OVC009 13/13 A3007 RMK AO2  T01290125,,,900.0,,,55.22,,S,29.42,28.82,,Overcast
KIGQ,10/15/2016 11:35 UTC,30.08,55.58,55.4,100.0,12.66,200.0,17.27,31.0,,,,74.0,,,,5.0,,KIGQ 151135Z AUTO 20011G15KT 5SM BR OVC007 13/13 A3008 RMK AO2  T01310130,,,700.0,,,55.58,,SSW,29.43,28.82,,Mist
KIGQ,10/15/2016 11:55 UTC,30.08,55.4,55.4,100.0,10.36,200.0,,31.0,,,,44.0,,,,2.0,,KIGQ 151155Z AUTO 20009KT 2SM BR OVC004 13/13 A3008 RMK AO2  T01300130 10131 20088,55.58,47.84,400.0,,,55.4,,SSW,29.43,28.82,,Mist
KIGQ,10/15/2016 12:15 UTC,30.08,55.4,55.4,100.0,9.22,200.0,,2.0,,,,44.0,,,,1.75,,KIGQ 151215Z AUTO 20008KT 1 3/4SM DZ OVC004 13/13 A3008 RMK AO2  T01300130,,,400.0,,,55.4,,SSW,29.43,28.82,,Drizzle
KIGQ,10/15/2016 12:35 UTC,30.07,56.3,56.3,100.0,9.22,190.0,17.27,2.0,,,,44.0,,,,1.25,,KIGQ 151235Z AUTO 19008G15KT 1 1/4SM DZ OVC004 14/14 A3007 RMK AO2  T01350135,,,400.0,,,56.3,,S,29.42,28.77,,Drizzle
KIGQ,10/15/2016 12:55 UTC,30.07,56.66,56.66,100.0,12.66,190.0,,17.0,,,,44.0,,,,1.75,,KIGQ 151255Z AUTO 19011KT 1 3/4SM -DZ OVC004 14/14 A3007 RMK AO2  T01370137,,,400.0,,,56.66,,S,29.42,28.75,,Light Drizzle
KIGQ,10/15/2016 13:15 UTC,30.07,57.38,57.38,100.0,11.5,190.0,,31.0,,,,44.0,,,,4.0,,KIGQ 151315Z AUTO 19010KT 4SM BR OVC004 14/14 A3007 RMK AO2  T01410141,,,400.0,,,57.38,,S,29.42,28.7,,Mist
KIGQ,10/15/2016 13:35 UTC,30.08,58.1,58.1,100.0,11.5,200.0,,31.0,,,,64.0,,,,5.0,,KIGQ 151335Z AUTO 20010KT 5SM BR OVC006 15/15 A3008 RMK AO2  T01450145,,,600.0,,,58.1,,SSW,29.43,28.67,,Mist
KIGQ,10/15/2016 13:55 UTC,30.07,58.64,58.64,100.0,12.66,200.0,,31.0,,,,64.0,,,,5.0,,KIGQ 151355Z AUTO 20011KT 5SM BR OVC006 15/15 A3007 RMK AO2  T01480148,,,600.0,,,58.64,,SSW,29.42,28.63,,Mist
KIGQ,10/15/2016 14:15 UTC,30.07,59.36,59.36,100.0,11.5,200.0,,31.0,,,,64.0,,,,5.0,,KIGQ 151415Z AUTO 20010KT 5SM BR OVC006 15/15 A3007 RMK AO2  T01520152,,,600.0,,,59.36,,SSW,29.42,28.59,,Mist
KIGQ,10/15/2016 14:35 UTC,30.07,59.9,59.9,100.0,12.66,210.0,18.41,31.0,,,,64.0,,,,5.0,,KIGQ 151435Z AUTO 21011G16KT 5SM BR OVC006 16/16 A3007 RMK AO2  T01550155,,,600.0,,,59.9,,SSW,29.42,28.55,,Mist
KIGQ,10/15/2016 14:55 UTC,30.06,60.44,60.44,100.0,13.8,200.0,17.27,31.0,,,,64.0,,,,5.0,,KIGQ 151455Z AUTO 20012G15KT 5SM BR OVC006 16/16 A3006 RMK AO2  T01580158,,,600.0,,,60.44,,SSW,29.41,28.51,,Mist
KIGQ,10/15/2016 15:15 UTC,30.06,60.8,60.26,100.0,12.66,210.0,18.41,31.0,,,,84.0,,,,5.0,,KIGQ 151515Z AUTO 21011G16KT 5SM BR OVC008 16/16 A3006 RMK AO2  T01600157,,,800.0,,,60.8,,SSW,29.41,28.48,,Mist
KIGQ,10/15/2016 15:35 UTC,30.06,60.98,60.44,100.0,12.66,210.0,,31.0,,,,84.0,,,,5.0,,KIGQ 151535Z AUTO 21011KT 5SM BR OVC008 16/16 A3006 RMK AO2  T01610158,,,800.0,,,60.98,,SSW,29.41,28.47,,Mist
KIGQ,10/15/2016 15:55 UTC,30.06,61.52,60.8,100.0,11.5,200.0,,31.0,,,,84.0,,,,5.0,,KIGQ 151555Z AUTO 20010KT 5SM BR OVC008 16/16 A3006 RMK AO2  T01640160,,,800.0,,,61.52,,SSW,29.41,28.44,,Mist
KIGQ,10/15/2016 16:15 UTC,30.04,62.06,60.98,93.84,12.66,200.0,,,,,,84.0,,,,7.0,,KIGQ 151615Z AUTO 20011KT 7SM OVC008 17/16 A3004 RMK AO2  T01670161,,,800.0,,,60.25,,SSW,29.39,28.48,,Overcast
KIGQ,10/15/2016 16:35 UTC,30.04,62.78,61.34,93.84,13.8,200.0,20.71,,,,,104.0,,,,10.0,,KIGQ 151635Z AUTO 20012G18KT 10SM OVC010 17/16 A3004 RMK AO2  T01710163,,,1000.0,,,60.96,,SSW,29.39,28.43,,Overcast
KIGQ,10/15/2016 16:55 UTC,30.03,63.86,61.52,88.11,14.97,210.0,23.02,,,,,124.0,,,,10.0,,KIGQ 151655Z AUTO 21013G20KT 180V240 10SM OVC012 18/16 A3003 RMK AO2 T01770164,,,1200.0,,,60.25,,SSW,29.38,28.44,,Overcast
KIGQ,10/15/2016 17:15 UTC,30.02,64.58,61.7,93.89,16.11,210.0,19.57,,,,,124.0,,,,10.0,,KIGQ 151715Z AUTO 21014G17KT 10SM OVC012 18/17 A3002 RMK AO2  T01810165,,,1200.0,,,62.77,,SSW,29.37,28.29,,Overcast
KIGQ,10/15/2016 17:35 UTC,30.02,64.58,61.7,93.89,14.97,210.0,23.02,,,,,124.0,,,,10.0,,KIGQ 151735Z AUTO 21013G20KT 10SM OVC012 18/17 A3002 RMK AO2  T01810165,,,1200.0,,,62.77,,SSW,29.37,28.29,,Overcast
KIGQ,10/15/2016 17:55 UTC,30.02,64.58,61.7,93.89,17.27,200.0,21.85,,,,,144.0,,,,10.0,,KIGQ 151755Z AUTO 20015G19KT 10SM OVC014 18/17 A3002 RMK AO2  T01810165 10181 20130,64.58,55.4,1400.0,,,62.77,,SSW,29.37,28.29,,Overcast
KIGQ,10/15/2016 18:15 UTC,30.01,64.58,61.7,93.89,14.97,200.0,19.57,,,,,144.0,,,,10.0,,KIGQ 151815Z AUTO 20013G17KT 10SM OVC014 18/17 A3001 RMK AO2  T01810165,,,1400.0,,,62.77,,SSW,29.36,28.28,,Overcast
KIGQ,10/15/2016 18:35 UTC,30.01,64.58,61.88,93.89,14.97,200.0,20.71,,,,,144.0,,,,10.0,,KIGQ 151835Z AUTO 20013G18KT 10SM OVC014 18/17 A3001 RMK AO2  T01810166,,,1400.0,,,62.77,,SSW,29.36,28.28,,Overcast
KIGQ,10/15/2016 18:55 UTC,30.0,64.58,61.88,93.89,16.11,200.0,26.46,,,,,124.0,,,,10.0,,KIGQ 151855Z AUTO 20014G23KT 10SM OVC012 18/17 A3000 RMK AO2  T01810166,,,1200.0,,,62.77,,SSW,29.35,28.27,,Overcast
KIGQ,10/15/2016 19:15 UTC,29.99,64.76,62.24,93.89,18.41,200.0,23.02,,,,,124.0,,,,10.0,,KIGQ 151915Z AUTO 20016G20KT 10SM OVC012 18/17 A2999 RMK AO2  T01820168,,,1200.0,,,62.95,,SSW,29.34,28.24,,Overcast
KIGQ,10/15/2016 19:35 UTC,29.99,64.94,62.6,93.89,14.97,200.0,23.02,,,,,124.0,,,,10.0,,KIGQ 151935Z AUTO 20013G20KT 10SM OVC012 18/17 A2999 RMK AO2  T01830170,,,1200.0,,,63.12,,SSW,29.34,28.23,,Overcast
KIGQ,10/15/2016 19:55 UTC,29.99,64.94,62.6,93.89,14.97,200.0,23.02,,,,,124.0,,,,10.0,,KIGQ 151955Z AUTO 20013G20KT 10SM OVC012 18/17 A2999 RMK AO2  T01830170,,,1200.0,,,63.12,,SSW,29.34,28.23,,Overcast
KIGQ,10/15/2016 20:15 UTC,29.98,65.48,62.78,88.2,19.57,200.0,26.46,,,,,124.0,,,,10.0,,KIGQ 152015Z AUTO 20017G23KT 10SM OVC012 19/17 A2998 RMK AO2  T01860171,,,1200.0,,,61.87,,SSW,29.33,28.28,,Overcast
KIGQ,10/15/2016 20:35 UTC,29.97,66.74,63.14,88.2,13.8,190.0,19.57,,,,,124.0,,,,10.0,,KIGQ 152035Z AUTO 19012G17KT 10SM OVC012 19/17 A2997 RMK AO2  T01930173,,,1200.0,,,63.11,,S,29.32,28.19,,Overcast
KIGQ,10/15/2016 20:55 UTC,29.96,68.18,63.68,88.29,14.97,180.0,24.16,,,,,143.0,453.0,,,10.0,,KIGQ 152055Z AUTO 18013G21KT 10SM BKN014 BKN045 20/18 A2996 RMK AO2 T02010176,,,1400.0,,,64.56,,S,29.31,28.07,,Mostly Cloudy
KIGQ,10/15/2016 21:15 UTC,29.96,68.36,63.5,88.29,19.57,180.0,23.02,,653.0,,,162.0,492.0,,,10.0,,KIGQ 152115Z AUTO 18017G20KT 10SM SCT016 SCT049 BKN065 20/18  A2996 RMK AO2 T02020175,,,6500.0,,,64.74,,S,29.31,28.06,,Mostly Cloudy
KIGQ,10/15/2016 21:35 UTC,29.96,69.62,63.68,83.01,13.8,180.0,20.71,,653.0,,,473.0,553.0,,,10.0,,KIGQ 152135Z AUTO 18012G18KT 10SM BKN047 BKN055 BKN065 21/18  A2996 RMK AO2 T02090176,,,4700.0,,,64.2,,S,29.31,28.08,,Mostly Cloudy
KIGQ,10/15/2016 21:55 UTC,29.96,69.08,63.68,83.01,13.8,190.0,18.41,,653.0,,,492.0,552.0,,,10.0,,KIGQ 152155Z AUTO 19012G16KT 10SM SCT049 SCT055 BKN065 21/18  A2996 RMK AO2 T02060176,,,6500.0,,,63.67,,S,29.31,28.11,,Mostly Cloudy
KIGQ,10/15/2016 22:15 UTC,29.96,68.36,63.5,88.29,11.5,190.0,,,,,,603.0,704.0,,,10.0,,KIGQ 152215Z AUTO 19010KT 10SM BKN060 OVC070 20/18 A2996 RMK AO2  T02020175,,,6000.0,,,64.74,,S,29.31,28.06,,Overcast
KIGQ,10/15/2016 22:35 UTC,29.95,68.18,63.5,88.29,11.5,190.0,,,,,,602.0,703.0,,,10.0,,KIGQ 152235Z AUTO 19010KT 10SM SCT060 BKN070 20/18 A2995 RMK AO2  T02010175,,,7000.0,,,64.56,,S,29.3,28.06,,Mostly Cloudy
KIGQ,10/15/2016 22:55 UTC,29.95,68.54,63.68,88.29,12.66,190.0,,,,,,753.0,,,,10.0,,KIGQ 152255Z AUTO 19011KT 10SM BKN075 20/18 A2995 RMK AO2  T02030176,,,7500.0,,,64.92,,S,29.3,28.04,,Mostly Cloudy
KIGQ,10/15/2016 23:15 UTC,29.95,68.36,63.68,88.29,13.8,190.0,,,,,,654.0,,,,10.0,,KIGQ 152315Z AUTO 19012KT 10SM OVC065 20/18 A2995 RMK AO2  T02020176,,,6500.0,,,64.74,,S,29.3,28.05,,Overcast
KIGQ,10/15/2016 23:35 UTC,29.95,68.18,63.68,85.56,12.66,180.0,,,,,,652.0,,,,10.0,,KIGQ 152335Z AUTO 18011KT 10SM SCT065 20/18 A2995 RMK AO2  T02010176,,,,,,63.66,,S,29.3,28.12,,Partly Cloudy
KIGQ,10/15/2016 23:55 UTC,29.95,68.18,63.68,88.29,14.97,180.0,,,,,,1.0,,,,10.0,,KIGQ 152355Z AUTO 18013KT 10SM CLR 20/18 A2995 RMK AO2 T02010176  10210 20181,69.8,64.58,,,,64.56,,S,29.3,28.06,,Clear
KIGQ,10/16/2016 00:15 UTC,29.95,68.0,63.5,88.29,12.66,190.0,,,,,,652.0,,,,10.0,,KIGQ 160015Z AUTO 19011KT 10SM SCT065 20/18 A2995 RMK AO2  T02000175,,,,,,64.39,,S,29.3,28.08,,Partly Cloudy
KIGQ,10/16/2016 00:35 UTC,29.95,68.18,63.5,88.29,14.97,190.0,19.57,,,,,652.0,,,,10.0,,KIGQ 160035Z AUTO 19013G17KT 10SM SCT065 20/18 A2995 RMK AO2  T02010175,,,,,,64.56,,S,29.3,28.06,,Partly Cloudy
KIGQ,10/16/2016 00:55 UTC,29.94,68.54,63.5,88.29,14.97,190.0,21.85,,,,,1.0,,,,10.0,,KIGQ 160055Z AUTO 19013G19KT 10SM CLR 20/18 A2994 RMK AO2  T02030175,,,,,,64.92,,S,29.29,28.03,,Clear
KIGQ,10/16/2016 01:15 UTC,29.94,68.72,63.32,82.89,14.97,190.0,20.71,,,,,1.0,,,,10.0,,KIGQ 160115Z AUTO 19013G18KT 10SM CLR 20/17 A2994 RMK AO2  T02040174,,,,,,63.28,,S,29.29,28.12,,Clear
KIGQ,10/16/2016 01:35 UTC,29.95,68.72,62.96,82.89,12.66,190.0,20.71,,,,,702.0,,,,10.0,,KIGQ 160135Z AUTO 19011G18KT 10SM SCT070 20/17 A2995 RMK AO2  T02040172,,,,,,63.28,,S,29.3,28.13,,Partly Cloudy
KIGQ,10/16/2016 01:55 UTC,29.94,68.36,62.78,82.89,12.66,190.0,18.41,,,,,702.0,,,,10.0,,KIGQ 160155Z AUTO 19011G16KT 10SM SCT070 20/17 A2994 RMK AO2  T02020171,,,,,,62.93,,S,29.29,28.15,,Partly Cloudy
KIGQ,10/16/2016 02:15 UTC,29.95,68.18,62.78,82.89,10.36,200.0,,,,,,602.0,,,,10.0,,KIGQ 160215Z AUTO 20009KT 10SM SCT060 20/17 A2995 RMK AO2  T02010171,,,,,,62.75,,SSW,29.3,28.17,,Partly Cloudy
KIGQ,10/16/2016 02:35 UTC,29.95,68.0,62.6,82.89,11.5,210.0,,,,,,603.0,,,,10.0,,KIGQ 160235Z AUTO 21010KT 10SM BKN060 20/17 A2995 RMK AO2  T02000170,,,6000.0,,,62.57,,SSW,29.3,28.18,,Mostly Cloudy
KIGQ,10/16/2016 02:55 UTC,29.96,68.36,62.78,82.89,10.36,220.0,,,,,,603.0,,,,10.0,,KIGQ 160255Z AUTO 22009KT 10SM BKN060 20/17 A2996 RMK AO2  T02020171,,,6000.0,,,62.93,,SW,29.31,28.17,,Mostly Cloudy
KIGQ,10/16/2016 03:15 UTC,29.97,68.9,62.78,77.94,12.66,220.0,17.27,,,,,604.0,,,,10.0,,KIGQ 160315Z AUTO 22011G15KT 10SM OVC060 21/17 A2997 RMK AO2  T02050171,,,6000.0,,,61.7,,SW,29.32,28.24,,Overcast
KIGQ,10/16/2016 03:35 UTC,29.97,68.54,62.78,82.89,9.22,220.0,,,,,,604.0,,,,10.0,,KIGQ 160335Z AUTO 22008KT 10SM OVC060 20/17 A2997 RMK AO2  T02030171,,,6000.0,,,63.1,,SW,29.32,28.17,,Overcast
KIGQ,10/16/2016 03:55 UTC,29.96,68.0,62.78,82.89,10.36,190.0,,,,,,602.0,702.0,,,10.0,,KIGQ 160355Z AUTO 19009KT 10SM SCT060 SCT070 20/17 A2996 RMK AO2  T02000171,,,,,,62.57,,S,29.31,28.19,,Partly Cloudy
KIGQ,10/16/2016 04:15 UTC,29.96,67.64,62.78,82.89,11.5,200.0,,,,,,602.0,,,,10.0,,KIGQ 160415Z AUTO 20010KT 10SM SCT060 20/17 A2996 RMK AO2  T01980171,,,,,,62.22,,SSW,29.31,28.22,,Partly Cloudy
KIGQ,10/16/2016 04:35 UTC,29.96,67.82,62.6,82.89,13.8,200.0,19.57,,,,,602.0,,,,10.0,,KIGQ 160435Z AUTO 20012G17KT 10SM SCT060 20/17 A2996 RMK AO2 LTG  DSNT W T01990170,,,,,,62.4,,SSW,29.31,28.21,,Partly Cloudy
KIGQ,10/16/2016 04:55 UTC,29.96,68.18,62.6,82.89,12.66,210.0,19.57,,,,,1103.0,,,,10.0,,KIGQ 160455Z AUTO 21011G17KT 10SM BKN110 20/17 A2996 RMK AO2 LTG  DSNT NW T02010170,,,11000.0,,,62.75,,SSW,29.31,28.18,,Mostly Cloudy
KIGQ,10/16/2016 05:15 UTC,29.96,68.0,62.6,82.89,12.66,210.0,18.41,,,,,1102.0,,,,10.0,,KIGQ 160515Z AUTO 21011G16KT 10SM SCT110 20/17 A2996 RMK AO2 LTG  DSNT W AND NW T02000170,,,,,,62.57,,SSW,29.31,28.19,,Partly Cloudy
KIGQ,10/16/2016 05:35 UTC,29.95,67.64,62.6,82.89,13.8,210.0,,,,,,652.0,1002.0,,,10.0,,KIGQ 160535Z AUTO 21012KT 10SM SCT065 SCT100 20/17 A2995 RMK AO2  LTG DSNT N AND NW T01980170,,,,,,62.22,,SSW,29.3,28.21,,Partly Cloudy
KIGQ,10/16/2016 05:55 UTC,29.96,66.56,63.14,88.2,11.5,220.0,21.85,13.0,1104.0,,,652.0,903.0,,,10.0,,KIGQ 160555Z AUTO 22010G19KT 10SM -RA SCT065 BKN090 OVC110 19/17  A2996 RMK AO2 LTG DSNT N AND NW T01920173 10205 20192  402100088,68.9,66.56,9000.0,69.8,47.84,62.94,,SW,29.31,28.19,,Light Rain
KIGQ,10/16/2016 06:15 UTC,29.96,66.56,62.78,88.2,11.5,200.0,,,,,,653.0,904.0,,,10.0,,KIGQ 160615Z AUTO 20010KT 10SM BKN065 OVC090 19/17 A2996 RMK AO2  LTG DSNT N AND NW T01920171,,,6500.0,,,62.94,,SSW,29.31,28.19,,Overcast
KIGQ,10/16/2016 06:35 UTC,29.95,66.74,62.96,88.2,16.11,200.0,21.85,14.0,,,,654.0,,,,10.0,,KIGQ 160635Z AUTO 20014G19KT 10SM +RA OVC065 19/17 A2995 RMK AO2  LTG DSNT N AND NW T01930172,,,6500.0,,,63.11,,SSW,29.3,28.17,,Heavy Rain
KIGQ,10/16/2016 06:55 UTC,29.94,64.76,63.5,100.0,11.5,210.0,20.71,13.0,,0.01,,654.0,,,,10.0,,KIGQ 160655Z AUTO 21010G18KT 10SM -RA OVC065 18/18 A2994 RMK AO2  LTG DSNT W AND NW P0001 T01820175,,,6500.0,,,64.76,,SSW,29.29,28.09,,Light Rain
KIGQ,10/16/2016 07:15 UTC,29.94,65.3,62.96,88.2,11.5,200.0,,,1104.0,,,653.0,903.0,,,10.0,,KIGQ 160715Z AUTO 20010KT 10SM BKN065 BKN090 OVC110 19/17  A2994 RMK AO2 LTG DSNT NW T01850172,,,6500.0,,,61.69,,SSW,29.29,28.26,,Overcast
KIGQ,10/16/2016 07:35 UTC,29.92,64.58,62.6,93.89,10.36,190.0,,,1103.0,,,652.0,902.0,,,10.0,,KIGQ 160735Z AUTO 19009KT 10SM SCT065 SCT090 BKN110 18/17  A2992 RMK AO2 LTG DSNT NW T01810170,,,11000.0,,,62.77,,S,29.27,28.19,,Mostly Cloudy
KIGQ,10/16/2016 07:55 UTC,29.92,64.58,62.6,93.89,9.22,200.0,,,,,,652.0,902.0,,,10.0,,KIGQ 160755Z AUTO 20008KT 10SM SCT065 SCT090 18/17 A2992 RMK AO2  LTG DSNT N AND NW T01810170,,,,,,62.77,,SSW,29.27,28.19,,Partly Cloudy
KIGQ,10/16/2016 08:15 UTC,29.92,65.3,62.6,88.2,11.5,210.0,,,,,,752.0,,,,10.0,,KIGQ 160815Z AUTO 21010KT 10SM SCT075 19/17 A2992 RMK AO2 LTG DSNT  NW THRU NE T01850170,,,,,,61.69,,SSW,29.27,28.24,,Partly Cloudy
KIGQ,10/16/2016 08:35 UTC,29.91,65.12,62.24,93.89,9.22,200.0,,,,,,752.0,1202.0,,,10.0,,KIGQ 160835Z AUTO 20008KT 10SM SCT075 SCT120 18/17 A2991 RMK AO2  LTG DSNT W THRU N T01840168,,,,,,63.3,,SSW,29.26,28.14,,Partly Cloudy
KIGQ,10/16/2016 08:55 UTC,29.91,65.3,62.24,88.2,12.66,200.0,18.41,5.0,,,0.01,702.0,1202.0,,,10.0,,KIGQ 160855Z AUTO 20011G16KT 10SM VCTS SCT070 SCT120 19/17  A2991 RMK AO2 LTG DSNT W THRU N 60001 T01850168,,,,,,61.69,,SSW,29.26,28.23,,Thunder
KIGQ,10/16/2016 09:15 UTC,29.9,66.02,62.6,88.2,14.97,200.0,19.57,5.0,,,,703.0,1204.0,,,10.0,,KIGQ 160915Z AUTO 20013G17KT 10SM VCTS BKN070 OVC120 19/17  A2990 RMK AO2 LTG DSNT W AND NW T01890170,,,7000.0,,,62.4,,SSW,29.25,28.17,,Thunder
KIGQ,10/16/2016 09:35 UTC,29.89,65.84,62.78,88.2,17.27,200.0,,,903.0,,,492.0,803.0,,,10.0,,KIGQ 160935Z AUTO 20015KT 10SM -VCTSRA SCT049 BKN080 BKN090 19/17  A2989 RMK AO2 LTG DSNT W AND NW T01880171,,,8000.0,,,62.23,,SSW,29.24,28.17,,Mostly Cloudy
KIGQ,10/16/2016 09:55 UTC,29.89,66.38,62.78,88.2,14.97,200.0,21.85,5.0,,,,603.0,803.0,,,10.0,,KIGQ 160955Z AUTO 20013G19KT 10SM VCTS BKN060 BKN080 19/17  A2989 RMK AO2 LTG DSNT W AND NW T01910171,,,6000.0,,,62.76,,SSW,29.24,28.13,,Thunder
KIGQ,10/16/2016 10:15 UTC,29.89,67.1,62.6,82.89,12.66,210.0,21.85,,,,,704.0,,,,10.0,,KIGQ 161015Z AUTO 21011G19KT 10SM OVC070 20/17 A2989 RMK AO2 LTG  DSNT N AND NW T01950170,,,7000.0,,,61.69,,SSW,29.24,28.18,,Overcast
KIGQ,10/16/2016 10:35 UTC,29.89,66.2,62.96,88.2,14.97,210.0,19.57,,954.0,,,602.0,703.0,,,10.0,,KIGQ 161035Z AUTO 21013G17KT 10SM -VCTSRA SCT060 BKN070 OVC095  19/17 A2989 RMK AO2 LTG DSNT W THRU NE T01900172,,,7000.0,,,62.58,,SSW,29.24,28.14,,Overcast
KIGQ,10/16/2016 10:55 UTC,29.9,66.74,62.96,88.2,12.66,220.0,21.85,5.0,1104.0,,,423.0,603.0,,,10.0,,KIGQ 161055Z AUTO 22011G19KT 10SM VCTS BKN042 BKN060 OVC110 19/17  A2990 RMK AO2 LTG DSNT ALQS T01930172,,,4200.0,,,63.11,,SW,29.25,28.12,,Thunder
KIGQ,10/16/2016 11:15 UTC,29.91,66.02,63.14,88.2,11.5,230.0,20.71,66.0,434.0,,,303.0,353.0,,,7.0,,KIGQ 161115Z AUTO 23010G18KT 7SM TSRA BKN030 BKN035 OVC043 19/17  A2991 RMK AO2 LTG DSNT ALQS T01890173,,,3000.0,,,62.4,,SW,29.26,28.18,,Thunderstorm
KIGQ,10/16/2016 11:35 UTC,29.91,65.48,63.5,93.94,10.36,230.0,,78.0,,0.02,,264.0,,,,2.0,,KIGQ 161135Z AUTO 23009KT 2SM +TSRA OVC026 19/18 A2991 RMK AO2 VIS  1/4V5 LTG DSNT ALQS P0002 T01860175,,,2600.0,,,63.68,,SW,29.26,28.11,,Heavy Rain/Thunderstorm
KIGQ,10/16/2016 11:55 UTC,29.91,64.4,63.86,100.0,10.36,230.0,,78.0,,0.08,,132.0,224.0,0.09,0.09,5.0,,KIGQ 161155Z AUTO 23009KT 5SM +TSRA SCT013 OVC022 18/18 A2991 RMK AO2 LTG DSNT NE THRU SW P0008 60009 70009 T01800177 10195  20180,67.1,64.4,2200.0,,,64.4,,SW,29.26,28.08,,Heavy Rain/Thunderstorm
KIGQ,10/16/2016 12:15 UTC,29.91,63.86,63.86,100.0,5.75,200.0,,,,,,204.0,,,,10.0,,KIGQ 161215Z AUTO 20005KT 10SM OVC020 18/18 A2991 RMK AO2 LTG DSNT  NE T01770177,,,2000.0,,,63.86,,SSW,29.26,28.12,,Overcast
KIGQ,10/16/2016 12:35 UTC,29.91,64.22,63.68,100.0,8.05,210.0,,,,,,204.0,,,,10.0,,KIGQ 161235Z AUTO 21007KT 10SM OVC020 18/18 A2991 RMK AO2 LTG DSNT  ALQS T01790176,,,2000.0,,,64.22,,SSW,29.26,28.1,,Overcast
KIGQ,10/16/2016 12:55 UTC,29.92,64.4,63.68,100.0,5.75,210.0,,13.0,,,,134.0,,,,10.0,,KIGQ 161255Z AUTO 21005KT 10SM -RA OVC013 18/18 A2992 RMK AO2 LTG  DSNT N THRU SE T01800176,,,1300.0,,,64.4,,SSW,29.27,28.09,,Light Rain
KIGQ,10/16/2016 13:15 UTC,29.92,64.04,63.86,100.0,5.75,230.0,,,,,,93.0,134.0,,,7.0,,KIGQ 161315Z AUTO 23005KT 7SM -VCTSRA BKN009 OVC013 18/18  A2992 RMK AO2 LTG DSNT NE THRU S T01780177,,,900.0,,,64.04,,SW,29.27,28.12,,Overcast
KIGQ,10/16/2016 13:35 UTC,29.92,63.86,63.86,100.0,6.91,210.0,,1.0,,0.04,,74.0,,,,3.0,,KIGQ 161335Z AUTO 21006KT 3SM RA OVC007 18/18 A2992 RMK AO2 LTG  DSNT E AND SE P0004 T01770177,,,700.0,,,63.86,,SSW,29.27,28.13,,Rain
KIGQ,10/16/2016 13:55 UTC,29.93,63.86,63.86,100.0,6.91,220.0,,13.0,,0.04,,74.0,,,,7.0,,KIGQ 161355Z AUTO 22006KT 7SM -RA OVC007 18/18 A2993 RMK AO2 LTG  DSNT SE P0004 T01770177,,,700.0,,,63.86,,SW,29.28,28.14,,Light Rain
KIGQ,10/16/2016 14:15 UTC,29.93,64.04,64.04,100.0,6.91,210.0,,,,,,74.0,,,,10.0,,KIGQ 161415Z AUTO 21006KT 10SM OVC007 18/18 A2993 RMK AO2  T01780178,,,700.0,,,64.04,,SSW,29.28,28.13,,Overcast
KIGQ,10/16/2016 14:35 UTC,29.94,64.04,64.04,100.0,8.05,200.0,,,,,,74.0,,,,10.0,,KIGQ 161435Z AUTO 20007KT 10SM OVC007 18/18 A2994 RMK AO2  T01780178,,,700.0,,,64.04,,SSW,29.29,28.14,,Overcast
KIGQ,10/16/2016 14:55 UTC,29.93,64.04,64.04,100.0,6.91,220.0,,,,,0.04,73.0,134.0,,,7.0,,KIGQ 161455Z AUTO 22006KT 7SM BKN007 OVC013 18/18 A2993 RMK AO2  60004 T01780178,,,700.0,,,64.04,,SW,29.28,28.13,,Overcast
KIGQ,10/16/2016 15:15 UTC,29.94,64.4,64.4,100.0,6.91,210.0,,,,,,72.0,154.0,,,10.0,,KIGQ 161515Z AUTO 21006KT 10SM SCT007 OVC015 18/18 A2994 RMK AO2  T01800180,,,1500.0,,,64.4,,SSW,29.29,28.11,,Overcast
KIGQ,10/16/2016 15:35 UTC,29.94,64.4,64.4,100.0,6.91,200.0,,,,,,154.0,,,,10.0,,KIGQ 161535Z AUTO 20006KT 10SM OVC015 18/18 A2994 RMK AO2  T01800180,,,1500.0,,,64.4,,SSW,29.29,28.11,,Overcast
KIGQ,10/16/2016 15:55 UTC,29.94,64.4,64.4,100.0,5.75,190.0,,,,,,154.0,,,,10.0,,KIGQ 161555Z AUTO 19005KT 10SM OVC015 18/18 A2994 RMK AO2  T01800180,,,1500.0,,,64.4,,S,29.29,28.11,,Overcast
KIGQ,10/16/2016 16:15 UTC,29.94,64.4,64.4,100.0,6.91,200.0,,,,,,154.0,,,,10.0,,KIGQ 161615Z AUTO 20006KT 10SM OVC015 18/18 A2994 RMK AO2  T01800180,,,1500.0,,,64.4,,SSW,29.29,28.11,,Overcast
KIGQ,10/16/2016 16:35 UTC,29.94,64.94,64.94,100.0,6.91,200.0,,,,,,114.0,,,,10.0,,KIGQ 161635Z AUTO 20006KT 10SM OVC011 18/18 A2994 RMK AO2  T01830183,,,1100.0,,,64.94,,SSW,29.29,28.07,,Overcast
KIGQ,10/16/2016 16:55 UTC,29.94,65.66,65.3,100.0,9.22,200.0,,,,,,114.0,,,,10.0,,KIGQ 161655Z AUTO 20008KT 10SM OVC011 19/19 A2994 RMK AO2  T01870185,,,1100.0,,,65.66,,SSW,29.29,28.02,,Overcast
KIGQ,10/16/2016 17:15 UTC,29.94,67.1,66.38,93.98,9.22,200.0,,,,,,134.0,,,,10.0,,KIGQ 161715Z AUTO 20008KT 10SM OVC013 20/19 A2994 RMK AO2  T01950191,,,1300.0,,,65.3,,SSW,29.29,28.02,,Overcast
KIGQ,10/16/2016 17:35 UTC,29.93,68.0,66.74,93.98,9.22,220.0,,,,,,93.0,134.0,,,10.0,,KIGQ 161735Z AUTO 22008KT 190V310 10SM BKN009 OVC013 20/19  A2993 RMK AO2 T02000193,,,900.0,,,66.19,,SW,29.28,27.94,,Overcast
KIGQ,10/16/2016 17:55 UTC,29.92,68.0,66.56,93.98,9.22,230.0,,,,,,93.0,134.0,0.04,,10.0,,KIGQ 161755Z AUTO 23008KT 10SM BKN009 OVC013 20/19 A2992 RMK AO2  60004 T02000192 10201 20177,68.18,63.86,900.0,,,66.19,,SW,29.27,27.93,,Overcast
KIGQ,10/16/2016 18:15 UTC,29.92,68.54,67.1,100.0,10.36,210.0,,,,,,94.0,,,,10.0,,KIGQ 161815Z AUTO 21009KT 200V320 10SM OVC009 20/20 A2992 RMK AO2  T02030195,,,900.0,,,68.54,,SSW,29.27,27.77,,Overcast
KIGQ,10/16/2016 18:35 UTC,29.91,68.72,67.1,100.0,10.36,210.0,,,,,,94.0,,,,10.0,,KIGQ 161835Z AUTO 21009KT 10SM OVC009 20/20 A2991 RMK AO2  T02040195,,,900.0,,,68.72,,SSW,29.26,27.74,,Overcast
KIGQ,10/16/2016 18:55 UTC,29.9,69.26,67.46,94.03,10.36,200.0,,,,,,94.0,,,,10.0,,KIGQ 161855Z AUTO 20009KT 10SM OVC009 21/20 A2990 RMK AO2  T02070197,,,900.0,,,67.46,,SSW,29.25,27.81,,Overcast
KIGQ,10/16/2016 19:15 UTC,29.89,69.44,67.1,94.03,8.05,210.0,,,244.0,,,113.0,163.0,,,10.0,,KIGQ 161915Z AUTO 21007KT 10SM BKN011 BKN016 OVC024 21/20  A2989 RMK AO2 T02080195,,,1100.0,,,67.64,,SSW,29.24,27.79,,Overcast
KIGQ,10/16/2016 19:35 UTC,29.9,69.8,67.46,92.3,8.05,210.0,,,,,,113.0,244.0,,,10.0,,KIGQ 161935Z AUTO 21007KT 10SM BKN011 OVC024 21/20 A2990 RMK AO2  T02100197,,,1100.0,,,67.45,,SSW,29.25,27.8,,Overcast
KIGQ,10/16/2016 19:55 UTC,29.9,69.8,67.28,94.03,6.91,220.0,,,234.0,,,113.0,193.0,,,10.0,,KIGQ 161955Z AUTO 22006KT 10SM BKN011 BKN019 OVC023 21/20  A2990 RMK AO2 T02100196,,,1100.0,,,67.99,,SW,29.25,27.77,,Overcast
KIGQ,10/16/2016 20:15 UTC,29.9,69.98,67.46,94.03,8.05,230.0,,,,,,163.0,254.0,,,10.0,,KIGQ 162015Z AUTO 23007KT 10SM BKN016 OVC025 21/20 A2990 RMK AO2  T02110197,,,1600.0,,,68.17,,SW,29.25,27.75,,Overcast
KIGQ,10/16/2016 20:35 UTC,29.9,69.26,67.1,94.03,8.05,190.0,,,,,,144.0,,,,10.0,,KIGQ 162035Z AUTO 19007KT 10SM OVC014 21/20 A2990 RMK AO2  T02070195,,,1400.0,,,67.46,,S,29.25,27.81,,Overcast
KIGQ,10/16/2016 20:55 UTC,29.89,69.8,67.1,94.03,9.22,200.0,,,304.0,,,142.0,212.0,,,10.0,,KIGQ 162055Z AUTO 20008KT 10SM SCT014 SCT021 OVC030 21/20  A2989 RMK AO2 T02100195,,,3000.0,,,67.99,,SSW,29.24,27.76,,Overcast
KIGQ,10/16/2016 21:15 UTC,29.88,69.98,67.1,94.03,5.75,200.0,,,383.0,,,262.0,323.0,,,10.0,,KIGQ 162115Z AUTO 20005KT 10SM SCT026 BKN032 BKN038 21/20  A2988 RMK AO2 T02110195,,,3200.0,,,68.17,,SSW,29.23,27.73,,Mostly Cloudy
KIGQ,10/16/2016 21:35 UTC,29.89,69.8,67.1,94.03,5.75,200.0,,,,,,302.0,383.0,,,10.0,,KIGQ 162135Z AUTO 20005KT 10SM SCT030 BKN038 21/20 A2989 RMK AO2  T02100195,,,3800.0,,,67.99,,SSW,29.24,27.76,,Mostly Cloudy
KIGQ,10/16/2016 21:55 UTC,29.88,69.8,67.28,94.03,4.61,180.0,,,,,,323.0,384.0,,,10.0,,KIGQ 162155Z AUTO 18004KT 10SM BKN032 OVC038 21/20 A2988 RMK AO2  T02100196,,,3200.0,,,67.99,,S,29.23,27.75,,Overcast
KIGQ,10/16/2016 22:15 UTC,29.88,70.34,67.46,94.03,3.44,160.0,,,,,,404.0,,,,10.0,,KIGQ 162215Z AUTO 16003KT 10SM OVC040 21/20 A2988 RMK AO2  T02130197,,,4000.0,,,68.53,,SSE,29.23,27.7,,Overcast
KIGQ,10/16/2016 22:35 UTC,29.88,70.16,67.28,94.03,4.61,170.0,,,,,,402.0,604.0,,,10.0,,KIGQ 162235Z AUTO 17004KT 10SM SCT040 OVC060 21/20 A2988 RMK AO2  T02120196,,,6000.0,,,68.35,,S,29.23,27.72,,Overcast
KIGQ,10/16/2016 22:55 UTC,29.88,69.8,66.92,88.37,6.91,160.0,,,,,,343.0,604.0,,,10.0,,KIGQ 162255Z AUTO 16006KT 10SM BKN034 OVC060 21/19 A2988 RMK AO2  T02100194,,,3400.0,,,66.19,,SSE,29.23,27.87,,Overcast
KIGQ,10/16/2016 23:15 UTC,29.88,68.9,66.56,88.37,8.05,160.0,,,,,,323.0,,,,10.0,,KIGQ 162315Z AUTO 16007KT 10SM BKN032 21/19 A2988 RMK AO2  T02050192,,,3200.0,,,65.3,,SSE,29.23,27.94,,Mostly Cloudy
KIGQ,10/16/2016 23:35 UTC,29.88,69.08,66.56,88.37,6.91,150.0,,,,,,304.0,,,,10.0,,KIGQ 162335Z AUTO 15006KT 10SM OVC030 21/19 A2988 RMK AO2  T02060192,,,3000.0,,,65.48,,SSE,29.23,27.92,,Overcast
KIGQ,10/16/2016 23:55 UTC,29.88,68.36,66.2,93.98,5.75,150.0,,,,,,302.0,553.0,,,10.0,,KIGQ 162355Z AUTO 15005KT 10SM SCT030 BKN055 20/19 A2988 RMK AO2  T02020190 10214 20200,70.52,68.0,5500.0,,,66.55,,SSE,29.23,27.86,,Mostly Cloudy
KIGQ,10/17/2016 00:15 UTC,29.88,68.0,66.02,93.98,5.75,140.0,,,,,,552.0,,,,10.0,,KIGQ 170015Z AUTO 14005KT 10SM SCT055 20/19 A2988 RMK AO2  T02000189,,,,,,66.19,,SE,29.23,27.89,,Partly Cloudy
KIGQ,10/17/2016 00:35 UTC,29.88,67.1,65.48,93.98,5.75,140.0,,,,,,1.0,,,,10.0,,KIGQ 170035Z AUTO 14005KT 10SM CLR 20/19 A2988 RMK AO2  T01950186,,,,,,65.3,,SE,29.23,27.96,,Clear
KIGQ,10/17/2016 00:55 UTC,29.88,66.38,65.3,100.0,6.91,130.0,,,,,,1.0,,,,10.0,,KIGQ 170055Z AUTO 13006KT 10SM CLR 19/19 A2988 RMK AO2  T01910185,,,,,,66.38,,SE,29.23,27.9,,Clear
KIGQ,10/17/2016 01:15 UTC,29.88,66.2,65.3,100.0,6.91,130.0,,,,,,1.0,,,,10.0,,KIGQ 170115Z AUTO 13006KT 10SM CLR 19/19 A2988 RMK AO2  T01900185,,,,,,66.2,,SE,29.23,27.92,,Clear
KIGQ,10/17/2016 01:35 UTC,29.88,66.2,65.48,100.0,5.75,130.0,,,,,,503.0,,,,10.0,,KIGQ 170135Z AUTO 13005KT 10SM BKN050 19/19 A2988 RMK AO2  T01900186,,,5000.0,,,66.2,,SE,29.23,27.92,,Mostly Cloudy
KIGQ,10/17/2016 01:55 UTC,29.88,66.56,65.66,100.0,5.75,140.0,,,,,,504.0,,,,10.0,,KIGQ 170155Z AUTO 14005KT 10SM OVC050 19/19 A2988 RMK AO2  T01920187,,,5000.0,,,66.56,,SE,29.23,27.89,,Overcast
KIGQ,10/17/2016 02:15 UTC,29.87,66.2,65.48,100.0,6.91,130.0,,,,,,462.0,603.0,,,10.0,,KIGQ 170215Z AUTO 13006KT 10SM SCT046 BKN060 19/19 A2987 RMK AO2  T01900186,,,6000.0,,,66.2,,SE,29.22,27.91,,Mostly Cloudy
KIGQ,10/17/2016 02:35 UTC,29.87,66.2,65.48,100.0,4.61,130.0,,,604.0,,,402.0,492.0,,,10.0,,KIGQ 170235Z AUTO 13004KT 10SM SCT040 SCT049 OVC060 19/19  A2987 RMK AO2 T01900186,,,6000.0,,,66.2,,SE,29.22,27.91,,Overcast
KIGQ,10/17/2016 02:55 UTC,29.86,66.38,65.66,100.0,5.75,130.0,,,604.0,,,403.0,493.0,,,10.0,,KIGQ 170255Z AUTO 13005KT 10SM BKN040 BKN049 OVC060 19/19  A2986 RMK AO2 T01910187,,,4000.0,,,66.38,,SE,29.21,27.88,,Overcast
KIGQ,10/17/2016 03:15 UTC,29.86,66.56,65.48,100.0,6.91,150.0,,,,,,403.0,494.0,,,10.0,,KIGQ 170315Z AUTO 15006KT 10SM BKN040 OVC049 19/19 A2986 RMK AO2  T01920186,,,4000.0,,,66.56,,SSE,29.21,27.87,,Overcast
KIGQ,10/17/2016 03:35 UTC,29.87,67.1,65.48,93.98,5.75,150.0,,,,,,423.0,504.0,,,10.0,,KIGQ 170335Z AUTO 15005KT 10SM BKN042 OVC050 20/19 A2987 RMK AO2  T01950186,,,4200.0,,,65.3,,SSE,29.22,27.95,,Overcast
KIGQ,10/17/2016 03:55 UTC,29.86,67.28,65.66,93.98,4.61,150.0,,,,,,404.0,,,,10.0,,KIGQ 170355Z AUTO 15004KT 10SM OVC040 20/19 A2986 RMK AO2  T01960187,,,4000.0,,,65.48,,SSE,29.21,27.93,,Overcast
KIGQ,10/17/2016 04:15 UTC,29.86,66.38,65.3,100.0,4.61,140.0,,,,,,402.0,553.0,,,10.0,,KIGQ 170415Z AUTO 14004KT 10SM SCT040 BKN055 19/19 A2986 RMK AO2  T01910185,,,5500.0,,,66.38,,SE,29.21,27.88,,Mostly Cloudy
KIGQ,10/17/2016 04:35 UTC,29.85,66.56,65.48,100.0,5.75,140.0,,,,,,403.0,554.0,,,10.0,,KIGQ 170435Z AUTO 14005KT 10SM BKN040 OVC055 19/19 A2985 RMK AO2  T01920186,,,4000.0,,,66.56,,SE,29.2,27.86,,Overcast
KIGQ,10/17/2016 04:55 UTC,29.85,66.56,65.3,100.0,5.75,130.0,,,,,,403.0,504.0,,,10.0,,KIGQ 170455Z AUTO 13005KT 10SM BKN040 OVC050 19/19 A2985 RMK AO2  T01920185,,,4000.0,,,66.56,,SE,29.2,27.86,,Overcast
KIGQ,10/17/2016 05:15 UTC,29.84,66.2,65.12,93.94,5.75,150.0,,,,,,402.0,502.0,,,10.0,,KIGQ 170515Z AUTO 15005KT 10SM SCT040 SCT050 19/18 A2984 RMK AO2  T01900184,,,,,,64.39,,SSE,29.19,27.99,,Partly Cloudy
KIGQ,10/17/2016 05:35 UTC,29.84,66.02,65.3,100.0,5.75,160.0,,,,,,382.0,,,,10.0,,KIGQ 170535Z AUTO 16005KT 10SM SCT038 19/19 A2984 RMK AO2  T01890185,,,,,,66.02,,SSE,29.19,27.89,,Partly Cloudy
KIGQ,10/17/2016 05:55 UTC,29.83,66.38,65.3,100.0,8.05,170.0,,,,,,382.0,,,,10.0,,KIGQ 170555Z AUTO 17007KT 10SM SCT038 19/19 A2983 RMK AO2  T01910185 10202 20188 402140177,68.36,65.84,,70.52,63.86,66.38,,S,29.18,27.85,,Partly Cloudy
KIGQ,10/17/2016 06:15 UTC,29.83,66.38,65.3,100.0,6.91,180.0,,,,,,1.0,,,,10.0,,KIGQ 170615Z AUTO 18006KT 10SM CLR 19/19 A2983 RMK AO2  T01910185,,,,,,66.38,,S,29.18,27.85,,Clear
KIGQ,10/17/2016 06:35 UTC,29.83,66.2,65.3,100.0,8.05,180.0,,,,,,1.0,,,,10.0,,KIGQ 170635Z AUTO 18007KT 10SM CLR 19/19 A2983 RMK AO2  T01900185,,,,,,66.2,,S,29.18,27.87,,Clear
KIGQ,10/17/2016 06:55 UTC,29.82,66.38,65.48,100.0,9.22,170.0,,,,,,1.0,,,,10.0,,KIGQ 170655Z AUTO 17008KT 10SM CLR 19/19 A2982 RMK AO2  T01910186,,,,,,66.38,,S,29.17,27.84,,Clear
KIGQ,10/17/2016 07:15 UTC,29.81,66.38,65.3,100.0,9.22,180.0,,,,,,1.0,,,,10.0,,KIGQ 170715Z AUTO 18008KT 10SM CLR 19/19 A2981 RMK AO2  T01910185,,,,,,66.38,,S,29.16,27.83,,Clear
KIGQ,10/17/2016 07:35 UTC,29.82,66.38,65.48,100.0,8.05,190.0,,,,,,1.0,,,,10.0,,KIGQ 170735Z AUTO 19007KT 10SM CLR 19/19 A2982 RMK AO2  T01910186,,,,,,66.38,,S,29.17,27.84,,Clear
KIGQ,10/17/2016 07:55 UTC,29.81,66.38,65.66,100.0,10.36,190.0,,,,,,1.0,,,,10.0,,KIGQ 170755Z AUTO 19009KT 10SM CLR 19/19 A2981 RMK AO2  T01910187,,,,,,66.38,,S,29.16,27.83,,Clear
KIGQ,10/17/2016 08:15 UTC,29.78,66.92,65.84,100.0,12.66,190.0,,,,,,1.0,,,,10.0,,KIGQ 170815Z AUTO 19011KT 10SM CLR 19/19 A2978 RMK AO2  T01940188,,,,,,66.92,,S,29.13,27.76,,Clear
KIGQ,10/17/2016 08:35 UTC,29.77,66.56,65.66,100.0,11.5,190.0,,,,,,1.0,,,,10.0,,KIGQ 170835Z AUTO 19010KT 10SM CLR 19/19 A2977 RMK AO2  T01920187,,,,,,66.56,,S,29.12,27.78,,Clear
KIGQ,10/17/2016 08:55 UTC,29.77,66.74,65.66,100.0,12.66,190.0,,,,,,1.0,,,,10.0,,KIGQ 170855Z AUTO 19011KT 10SM CLR 19/19 A2977 RMK AO2  T01930187,,,,,,66.74,,S,29.12,27.76,,Clear
KIGQ,10/17/2016 09:15 UTC,29.76,66.74,65.84,100.0,11.5,190.0,,,,,,1.0,,,,10.0,,KIGQ 170915Z AUTO 19010KT 10SM CLR 19/19 A2976 RMK AO2  T01930188,,,,,,66.74,,S,29.11,27.75,,Clear
KIGQ,10/17/2016 09:35 UTC,29.76,67.1,65.84,93.98,11.5,200.0,,,,,,1.0,,,,10.0,,KIGQ 170935Z AUTO 20010KT 10SM CLR 20/19 A2976 RMK AO2  T01950188,,,,,,65.3,,SSW,29.11,27.84,,Clear
KIGQ,10/17/2016 09:55 UTC,29.76,67.1,65.84,93.98,14.97,190.0,,,,,,1.0,,,,10.0,,KIGQ 170955Z AUTO 19013KT 10SM CLR 20/19 A2976 RMK AO2  T01950188,,,,,,65.3,,S,29.11,27.84,,Clear
KIGQ,10/17/2016 10:15 UTC,29.76,67.1,65.66,93.98,13.8,200.0,20.71,,,,,1.0,,,,10.0,,KIGQ 171015Z AUTO 20012G18KT 10SM CLR 20/19 A2976 RMK AO2  T01950187,,,,,,65.3,,SSW,29.11,27.84,,Clear
KIGQ,10/17/2016 10:35 UTC,29.75,67.28,65.66,93.98,13.8,200.0,23.02,,,,,1.0,,,,10.0,,KIGQ 171035Z AUTO 20012G20KT 10SM CLR 20/19 A2975 RMK AO2  T01960187,,,,,,65.48,,SSW,29.1,27.82,,Clear
KIGQ,10/17/2016 10:55 UTC,29.74,67.1,65.48,93.98,14.97,190.0,19.57,,,,,1.0,,,,10.0,,KIGQ 171055Z AUTO 19013G17KT 10SM CLR 20/19 A2974 RMK AO2  T01950186,,,,,,65.3,,S,29.09,27.82,,Clear
KIGQ,10/17/2016 11:15 UTC,29.74,67.1,65.48,93.98,16.11,190.0,21.85,,,,,1.0,,,,10.0,,KIGQ 171115Z AUTO 19014G19KT 10SM CLR 20/19 A2974 RMK AO2  T01950186,,,,,,65.3,,S,29.09,27.82,,Clear
KIGQ,10/17/2016 11:35 UTC,29.74,67.1,65.3,93.98,16.11,200.0,23.02,,,,,1.0,,,,10.0,,KIGQ 171135Z AUTO 20014G20KT 10SM CLR 20/19 A2974 RMK AO2  T01950185,,,,,,65.3,,SSW,29.09,27.82,,Clear
KIGQ,10/17/2016 11:55 UTC,29.75,66.38,64.94,93.94,11.5,200.0,18.41,,,,,1.0,,,0.04,10.0,,KIGQ 171155Z AUTO 20010G16KT 10SM CLR 19/18 A2975 RMK AO2 70004  T01910183 10196 20188,67.28,65.84,,,,64.57,,SSW,29.1,27.88,,Clear
KIGQ,10/17/2016 12:15 UTC,29.74,66.38,64.94,93.94,16.11,200.0,19.57,,,,,1.0,,,,10.0,,KIGQ 171215Z AUTO 20014G17KT 10SM CLR 19/18 A2974 RMK AO2  T01910183,,,,,,64.57,,SSW,29.09,27.87,,Clear
KIGQ,10/17/2016 12:35 UTC,29.74,66.56,65.12,93.94,14.97,200.0,,,,,,322.0,472.0,,,10.0,,KIGQ 171235Z AUTO 20013KT 10SM SCT032 SCT047 19/18 A2974 RMK AO2  T01920184,,,,,,64.75,,SSW,29.09,27.86,,Partly Cloudy
KIGQ,10/17/2016 12:55 UTC,29.74,67.1,65.3,93.98,17.27,200.0,20.71,,,,,323.0,474.0,,,10.0,,KIGQ 171255Z AUTO 20015G18KT 10SM BKN032 OVC047 20/19 A2974 RMK AO2 T01950185,,,3200.0,,,65.3,,SSW,29.09,27.82,,Overcast
KIGQ,10/17/2016 13:15 UTC,29.74,67.64,65.3,93.98,16.11,210.0,23.02,,,,,304.0,,,,10.0,,KIGQ 171315Z AUTO 21014G20KT 10SM OVC030 20/19 A2974 RMK AO2  T01980185,,,3000.0,,,65.83,,SSW,29.09,27.78,,Overcast
KIGQ,10/17/2016 13:35 UTC,29.74,68.18,65.48,93.98,16.11,200.0,20.71,,,,,303.0,484.0,,,10.0,,KIGQ 171335Z AUTO 20014G18KT 10SM BKN030 OVC048 20/19 A2974 RMK AO2 T02010186,,,3000.0,,,66.37,,SSW,29.09,27.74,,Overcast
KIGQ,10/17/2016 13:55 UTC,29.74,68.72,65.48,93.98,16.11,200.0,21.85,,,,,323.0,384.0,,,10.0,,KIGQ 171355Z AUTO 20014G19KT 10SM BKN032 OVC038 20/19 A2974 RMK AO2 T02040186,,,3200.0,,,66.91,,SSW,29.09,27.69,,Overcast
KIGQ,10/17/2016 14:15 UTC,29.74,68.9,65.48,88.37,14.97,210.0,,,,,,344.0,,,,10.0,,KIGQ 171415Z AUTO 21013KT 10SM OVC034 21/19 A2974 RMK AO2  T02050186,,,3400.0,,,65.3,,SSW,29.09,27.79,,Overcast
KIGQ,10/17/2016 14:35 UTC,29.74,69.08,65.48,88.37,14.97,210.0,21.85,,,,,324.0,,,,10.0,,KIGQ 171435Z AUTO 21013G19KT 10SM OVC032 21/19 A2974 RMK AO2  T02060186,,,3200.0,,,65.48,,SSW,29.09,27.78,,Overcast
KIGQ,10/17/2016 14:55 UTC,29.73,70.52,66.02,88.37,17.27,210.0,27.63,,,,,324.0,,,,10.0,,KIGQ 171455Z AUTO 21015G24KT 10SM OVC032 21/19 A2973 RMK AO2 LTG  DSNT NE T02140189,,,3200.0,,,66.9,,SSW,29.08,27.66,,Overcast
KIGQ,10/17/2016 15:15 UTC,29.72,71.24,66.56,83.13,19.57,210.0,25.32,,,,,324.0,,,,10.0,,KIGQ 171515Z AUTO 21017G22KT 10SM OVC032 22/19 A2972 RMK AO2  T02180192,,,3200.0,,,65.83,,SSW,29.07,27.71,,Overcast
KIGQ,10/17/2016 15:35 UTC,29.71,71.6,66.38,83.13,19.57,200.0,25.32,,,,,323.0,,,,10.0,,KIGQ 171535Z AUTO 20017G22KT 10SM BKN032 22/19 A2971 RMK AO2  T02200191,,,3200.0,,,66.18,,SSW,29.06,27.67,,Mostly Cloudy
KIGQ,10/17/2016 15:55 UTC,29.7,73.4,67.28,83.25,16.11,210.0,23.02,,,,,323.0,,,,10.0,,KIGQ 171555Z AUTO 21014G20KT 10SM BKN032 23/20 A2970 RMK AO2  T02300196,,,3200.0,,,67.99,,SSW,29.05,27.51,,Mostly Cloudy
KIGQ,10/17/2016 16:15 UTC,29.7,74.3,67.46,78.39,20.71,210.0,32.21,,,,,362.0,,,,10.0,,KIGQ 171615Z AUTO 21018G28KT 10SM SCT036 24/20 A2970 RMK AO2  T02350197,,,,,,67.12,,SSW,29.05,27.56,,Partly Cloudy
KIGQ,10/17/2016 16:35 UTC,29.69,75.74,68.0,78.39,23.02,220.0,26.46,,,,,272.0,383.0,,,10.0,,KIGQ 171635Z AUTO 22020G23KT 10SM SCT027 BKN038 24/20 A2969 RMK AO2 T02430200,,,3800.0,,,68.52,,SW,29.04,27.44,,Mostly Cloudy
KIGQ,10/17/2016 16:55 UTC,29.68,76.1,68.0,73.85,18.41,210.0,27.63,,,,,273.0,403.0,,,10.0,,KIGQ 171655Z AUTO 21016G24KT 10SM BKN027 BKN040 25/20 A2968 RMK AO2 T02450200,,,2700.0,,,67.13,,SSW,29.03,27.52,,Mostly Cloudy
KIGQ,10/17/2016 17:15 UTC,29.67,76.28,68.0,73.85,20.71,210.0,27.63,,,,,273.0,,,,10.0,,KIGQ 171715Z AUTO 21018G24KT 10SM BKN027 25/20 A2967 RMK AO2  T02460200,,,2700.0,,,67.3,,SSW,29.02,27.49,,Mostly Cloudy
KIGQ,10/17/2016 17:35 UTC,29.66,76.46,67.82,73.85,19.57,210.0,28.77,,,,,294.0,,,,10.0,,KIGQ 171735Z AUTO 21017G25KT 10SM OVC029 25/20 A2966 RMK AO2  T02470199,,,2900.0,,,67.48,,SSW,29.02,27.48,,Overcast
KIGQ,10/17/2016 17:55 UTC,29.65,78.26,68.54,69.6,17.27,200.0,29.93,,,,,313.0,,,,10.0,,KIGQ 171755Z AUTO 20015G26KT 10SM BKN031 26/20 A2965 RMK AO2  T02570203 10257 20191,78.26,66.38,3100.0,,,67.49,,SSW,29.01,27.45,,Mostly Cloudy
KIGQ,10/17/2016 18:15 UTC,29.63,78.26,67.82,69.6,17.27,210.0,31.07,,,,,313.0,,,,10.0,,KIGQ 171815Z AUTO 21015G27KT 10SM BKN031 26/20 A2963 RMK AO2  T02570199,,,3100.0,,,67.49,,SSW,28.99,27.43,,Mostly Cloudy
KIGQ,10/17/2016 18:35 UTC,29.63,79.88,69.08,69.79,18.41,210.0,28.77,,,,,333.0,,,,10.0,,KIGQ 171835Z AUTO 21016G25KT 10SM BKN033 27/21 A2963 RMK AO2  T02660206,,,3300.0,,,69.12,,SSW,28.99,27.29,,Mostly Cloudy
KIGQ,10/17/2016 18:55 UTC,29.62,79.52,68.72,69.6,23.02,210.0,28.77,,,,,332.0,,,,10.0,,KIGQ 171855Z AUTO 21020G25KT 10SM SCT033 26/20 A2962 RMK AO2  T02640204,,,,,,68.7,,SSW,28.98,27.31,,Partly Cloudy
KIGQ,10/17/2016 19:15 UTC,29.61,80.42,68.18,65.62,19.57,200.0,31.07,,,,,352.0,,,,10.0,,KIGQ 171915Z AUTO 20017G27KT 10SM SCT035 27/20 A2961 RMK AO2  T02690201,,,,,,67.84,,SSW,28.97,27.35,83.04,Partly Cloudy
KIGQ,10/17/2016 19:35 UTC,29.59,81.14,68.18,65.62,18.41,190.0,27.63,,,,,1.0,,,,10.0,,KIGQ 171935Z AUTO 19016G24KT 10SM CLR 27/20 A2959 RMK AO2  T02730201,,,,,,68.53,,S,28.95,27.28,84.13,Clear
KIGQ,10/17/2016 19:55 UTC,29.58,81.5,68.0,61.9,23.02,190.0,31.07,,,,,1.0,,,,10.0,,KIGQ 171955Z AUTO 19020G27KT 10SM CLR 28/20 A2958 RMK AO2  T02750200,,,,,,67.18,,S,28.94,27.36,84.05,Clear
KIGQ,10/17/2016 20:15 UTC,29.57,81.68,67.64,61.9,23.02,190.0,33.38,,,,,1.0,,,,10.0,,KIGQ 172015Z AUTO 19020G29KT 10SM CLR 28/20 A2957 RMK AO2  T02760198,,,,,,67.35,,S,28.93,27.34,84.31,Clear
KIGQ,10/17/2016 20:55 UTC,29.55,81.86,67.82,61.9,19.57,190.0,32.21,,,,,1.0,,,,10.0,,KIGQ 172055Z AUTO 19017G28KT 10SM CLR 28/20 A2955 RMK AO2  T02770199,,,,,,67.52,,S,28.91,27.3,84.57,Clear
KIGQ,10/17/2016 21:15 UTC,29.55,81.68,66.92,58.18,24.16,190.0,34.52,,,,,1.0,,,,10.0,,KIGQ 172115Z AUTO 19021G30KT 10SM CLR 28/19 A2955 RMK AO2  T02760194,,,,,,65.56,,S,28.91,27.44,83.67,Clear
KIGQ,10/17/2016 21:55 UTC,29.53,80.6,68.0,65.62,23.02,180.0,27.63,,,,,1.0,,,,10.0,,KIGQ 172155Z AUTO 18020G24KT 10SM CLR 27/20 A2953,,,,,,68.01,,S,28.89,27.26,83.31,Clear
KIGQ,10/17/2016 22:15 UTC,29.54,80.96,66.74,61.67,20.71,190.0,26.46,,,,,1.0,,,,10.0,,KIGQ 172215Z AUTO 19018G23KT 10SM CLR 27/19 A2954 RMK AO2  T02720193,,,,,,66.56,,S,28.9,27.37,83.25,Clear
KIGQ,10/17/2016 22:35 UTC,29.53,80.6,66.38,61.67,19.57,190.0,28.77,,,,,1.0,,,,10.0,,KIGQ 172235Z AUTO 19017G25KT 10SM CLR 27/19 A2953 RMK AO2  T02700191,,,,,,66.22,,S,28.89,27.39,82.77,Clear
KIGQ,10/17/2016 22:55 UTC,29.53,79.7,66.2,61.67,23.02,190.0,29.93,,,,,1.0,,,,10.0,,KIGQ 172255Z AUTO 19020G26KT 10SM CLR 27/19 A2953 RMK AO2  T02650190,,,,,,65.36,,S,28.89,27.45,,Clear
KIGQ,10/17/2016 23:15 UTC,29.53,79.34,65.66,65.41,18.41,190.0,28.77,,,,,1.0,,,,10.0,,KIGQ 172315Z AUTO 19016G25KT 10SM CLR 26/19 A2953 RMK AO2  T02630187,,,,,,66.72,,S,28.89,27.37,,Clear
KIGQ,10/17/2016 23:35 UTC,29.53,78.44,65.48,65.41,17.27,180.0,27.63,,,,,1.0,,,,10.0,,KIGQ 172335Z AUTO 18015G24KT 10SM CLR 26/19 A2953 RMK AO2  T02580186,,,,,,65.86,,S,28.89,27.43,,Clear
KIGQ,10/17/2016 23:55 UTC,29.53,77.9,65.84,65.41,23.02,190.0,29.93,,,,,1.0,,,,10.0,,KIGQ 172355Z AUTO 19020G26KT 10SM CLR 26/19 A2953 RMK AO2  T02550188 10277 20255,81.86,77.9,,,,65.35,,S,28.89,27.47,,Clear
KIGQ,10/18/2016 00:15 UTC,29.53,77.54,65.48,69.4,19.57,190.0,27.63,,,,,1.0,,,,10.0,,KIGQ 180015Z AUTO 19017G24KT 10SM CLR 25/19 A2953 RMK AO2  T02530186,,,,,,66.71,,S,28.89,27.39,,Clear
KIGQ,10/18/2016 00:35 UTC,29.52,77.0,65.48,69.4,20.71,190.0,29.93,,,,,1.0,,,,10.0,,KIGQ 180035Z AUTO 19018G26KT 10SM CLR 25/19 A2952 RMK AO2  T02500186,,,,,,66.19,,S,28.88,27.42,,Clear
KIGQ,10/18/2016 00:55 UTC,29.53,76.82,65.3,69.4,20.71,190.0,36.82,,,,,1.0,,,,10.0,,KIGQ 180055Z AUTO 19018G32KT 10SM CLR 25/19 A2953 RMK AO2  T02490185,,,,,,66.02,,S,28.89,27.44,,Clear
KIGQ,10/18/2016 01:15 UTC,29.53,76.46,65.12,65.2,19.57,200.0,34.52,,,,,1.0,,,,10.0,,KIGQ 180115Z AUTO 20017G30KT 10SM CLR 25/18 A2953 RMK AO2  T02470184,,,,,,63.88,,SSW,28.89,27.59,,Clear
KIGQ,10/18/2016 01:35 UTC,29.53,76.1,65.3,69.4,23.02,200.0,32.21,,,,,1.0,,,,10.0,,KIGQ 180135Z AUTO 20020G28KT 10SM CLR 25/19 A2953 RMK AO2  T02450185,,,,,,65.33,,SSW,28.89,27.5,,Clear
KIGQ,10/18/2016 01:55 UTC,29.54,75.74,65.3,73.67,27.63,200.0,35.68,,,,,1.0,,,,10.0,,KIGQ 180155Z AUTO 20024G31KT 10SM CLR 24/19 A2954 RMK AO2  T02430185,,,,,,66.71,,SSW,28.9,27.42,,Clear
KIGQ,10/18/2016 02:15 UTC,29.55,75.38,65.3,73.67,21.85,210.0,31.07,,,,,1.0,,,,10.0,,KIGQ 180215Z AUTO 21019G27KT 10SM CLR 24/19 A2955 RMK AO2  T02410185,,,,,,66.36,,SSW,28.91,27.46,,Clear
KIGQ,10/18/2016 02:35 UTC,29.55,74.66,65.3,73.67,18.41,210.0,26.46,,,,,1.0,,,,10.0,,KIGQ 180235Z AUTO 21016G23KT 10SM CLR 24/19 A2955 RMK AO2  T02370185,,,,,,65.67,,SSW,28.91,27.51,,Clear
KIGQ,10/18/2016 02:55 UTC,29.56,75.02,65.3,73.67,19.57,210.0,33.38,,,,,1.0,,,,10.0,,KIGQ 180255Z AUTO 21017G29KT 10SM CLR 24/19 A2956 RMK AO2  T02390185,,,,,,66.01,,SSW,28.92,27.5,,Clear
KIGQ,10/18/2016 03:15 UTC,29.56,75.02,65.12,69.21,24.16,200.0,31.07,,,,,1.0,,,,10.0,,KIGQ 180315Z AUTO 20021G27KT 10SM CLR 24/18 A2956 RMK AO2  T02390184,,,,,,64.22,,SSW,28.92,27.61,,Clear
KIGQ,10/18/2016 03:35 UTC,29.56,74.66,64.76,71.35,23.02,210.0,29.93,,,,,1.0,,,,10.0,,KIGQ 180335Z AUTO 21020G26KT 10SM CLR 24/18 A2956 RMK AO2  T02370182,,,,,,64.74,,SSW,28.92,27.58,,Clear
KIGQ,10/18/2016 03:55 UTC,29.57,74.3,64.76,69.21,20.71,210.0,29.93,,,,,1.0,,,,10.0,,KIGQ 180355Z AUTO 21018G26KT 10SM CLR 24/18 A2957 RMK AO2  T02350182,,,,,,63.52,,SSW,28.93,27.67,,Clear
KIGQ,10/18/2016 04:15 UTC,29.56,74.3,64.58,69.21,23.02,210.0,32.21,,,,,1.0,,,,10.0,,KIGQ 180415Z AUTO 21020G28KT 10SM CLR 24/18 A2956 RMK AO2  T02350181,,,,,,63.52,,SSW,28.92,27.66,,Clear
KIGQ,10/18/2016 04:35 UTC,29.56,74.12,64.58,73.5,21.85,210.0,32.21,,,,,1.0,,,,10.0,,KIGQ 180435Z AUTO 21019G28KT 10SM CLR 23/18 A2956 RMK AO2  T02340181,,,,,,65.08,,SSW,28.92,27.57,,Clear
KIGQ,10/18/2016 04:55 UTC,29.56,74.12,64.4,73.5,23.02,210.0,33.38,,,,,1.0,,,,10.0,,KIGQ 180455Z AUTO 21020G29KT 10SM CLR 23/18 A2956 RMK AO2  T02340180,,,,,,65.08,,SSW,28.92,27.57,,Clear
KIGQ,10/18/2016 05:15 UTC,29.56,73.76,64.4,73.5,23.02,210.0,31.07,,,,,1.0,,,,10.0,,KIGQ 180515Z AUTO 21020G27KT 10SM CLR 23/18 A2956 RMK AO2  T02320180,,,,,,64.73,,SSW,28.92,27.59,,Clear
KIGQ,10/18/2016 05:35 UTC,29.56,73.58,64.4,73.5,24.16,210.0,34.52,,,,,1.0,,,,10.0,,KIGQ 180535Z AUTO 21021G30KT 10SM CLR 23/18 A2956 RMK AO2  T02310180,,,,,,64.56,,SSW,28.92,27.61,,Clear
KIGQ,10/18/2016 05:55 UTC,29.56,73.4,64.22,73.5,24.16,210.0,32.21,,,,,1.0,,,,10.0,,KIGQ 180555Z AUTO 21021G28KT 10SM CLR 23/18 A2956 RMK AO2  T02300179 10256 20230 402770188,78.08,73.4,,81.86,65.84,64.38,,SSW,28.92,27.62,,Clear
KIGQ,10/18/2016 06:15 UTC,29.56,73.04,64.22,73.5,21.85,210.0,29.93,,,,,1.0,,,,10.0,,KIGQ 180615Z AUTO 21019G26KT 10SM CLR 23/18 A2956 RMK AO2  T02280179,,,,,,64.03,,SSW,28.92,27.65,,Clear
KIGQ,10/18/2016 06:35 UTC,29.56,72.86,64.4,73.5,21.85,210.0,34.52,,,,,1.0,,,,10.0,,KIGQ 180635Z AUTO 21019G30KT 10SM CLR 23/18 A2956 RMK AO2  T02270180,,,,,,63.86,,SSW,28.92,27.66,,Clear
KIGQ,10/18/2016 06:55 UTC,29.56,72.5,64.04,73.5,23.02,210.0,32.21,,,,,1.0,,,,10.0,,KIGQ 180655Z AUTO 21020G28KT 10SM CLR 23/18 A2956 RMK AO2  T02250178,,,,,,63.51,,SSW,28.92,27.69,,Clear
KIGQ,10/18/2016 07:15 UTC,29.57,72.68,64.04,73.5,17.27,210.0,31.07,,,,,1.0,,,,10.0,,KIGQ 180715Z AUTO 21015G27KT 10SM CLR 23/18 A2957 RMK AO2  T02260178,,,,,,63.69,,SSW,28.93,27.68,,Clear
KIGQ,10/18/2016 07:35 UTC,29.56,72.14,64.04,75.72,21.85,210.0,33.38,,,,,602.0,702.0,,,10.0,,KIGQ 180735Z AUTO 21019G29KT 10SM SCT060 SCT070 22/18 A2956 RMK AO2 T02230178,,,,,,64.02,,SSW,28.92,27.66,,Partly Cloudy
KIGQ,10/18/2016 07:55 UTC,29.56,72.14,64.04,78.09,18.41,210.0,26.46,,,,,703.0,,,,10.0,,KIGQ 180755Z AUTO 21016G23KT 10SM BKN070 22/18 A2956 RMK AO2  T02230178,,,7000.0,,,64.9,,SSW,28.92,27.6,,Mostly Cloudy
KIGQ,10/18/2016 08:15 UTC,29.56,71.78,64.04,78.09,18.41,210.0,28.77,,,,,702.0,,,,10.0,,KIGQ 180815Z AUTO 21016G25KT 10SM SCT070 22/18 A2956 RMK AO2  T02210178,,,,,,64.55,,SSW,28.92,27.63,,Partly Cloudy
KIGQ,10/18/2016 08:35 UTC,29.56,71.6,63.86,78.09,19.57,210.0,28.77,,,,,702.0,,,,10.0,,KIGQ 180835Z AUTO 21017G25KT 10SM SCT070 22/18 A2956 RMK AO2  T02200177,,,,,,64.38,,SSW,28.92,27.64,,Partly Cloudy
KIGQ,10/18/2016 08:55 UTC,29.57,71.42,64.04,78.09,17.27,220.0,25.32,,,,,1.0,,,,10.0,,KIGQ 180855Z AUTO 22015G22KT 10SM CLR 22/18 A2957 RMK AO2  T02190178,,,,,,64.2,,SW,28.93,27.67,,Clear
KIGQ,10/18/2016 09:15 UTC,29.57,71.42,64.04,78.09,23.02,220.0,35.68,,,,,1.0,,,,10.0,,KIGQ 180915Z AUTO 22020G31KT 10SM CLR 22/18 A2957 RMK AO2  T02190178,,,,,,64.2,,SW,28.93,27.67,,Clear
KIGQ,10/18/2016 09:35 UTC,29.57,71.24,64.04,78.09,16.11,220.0,28.77,,,,,1.0,,,,10.0,,KIGQ 180935Z AUTO 22014G25KT 10SM CLR 22/18 A2957 RMK AO2  T02180178,,,,,,64.03,,SW,28.93,27.68,,Clear
KIGQ,10/18/2016 09:55 UTC,29.58,70.88,64.4,78.09,19.57,220.0,23.02,,,,,422.0,,,,10.0,,KIGQ 180955Z AUTO 22017G20KT 10SM SCT042 22/18 A2958 RMK AO2  T02160180,,,,,,63.68,,SW,28.94,27.72,,Partly Cloudy
KIGQ,10/18/2016 10:15 UTC,29.58,70.7,64.4,78.09,18.41,220.0,24.16,,,,,422.0,,,,10.0,,KIGQ 181015Z AUTO 22016G21KT 10SM SCT042 22/18 A2958 RMK AO2  T02150180,,,,,,63.5,,SW,28.94,27.73,,Partly Cloudy
KIGQ,10/18/2016 10:35 UTC,29.58,70.88,64.4,78.09,16.11,220.0,25.32,,,,,422.0,,,,10.0,,KIGQ 181035Z AUTO 22014G22KT 190V250 10SM SCT042 22/18 A2958 RMK AO2 T02160180,,,,,,63.68,,SW,28.94,27.72,,Partly Cloudy
KIGQ,10/18/2016 10:55 UTC,29.59,70.88,64.58,78.09,18.41,220.0,23.02,,,,,423.0,,,,10.0,,KIGQ 181055Z AUTO 22016G20KT 10SM BKN042 22/18 A2959 RMK AO2  T02160181,,,4200.0,,,63.68,,SW,28.95,27.73,,Mostly Cloudy
KIGQ,10/18/2016 11:15 UTC,29.59,70.7,64.58,78.09,18.41,220.0,25.32,,,,,442.0,,,,10.0,,KIGQ 181115Z AUTO 22016G22KT 10SM SCT044 22/18 A2959 RMK AO2  T02150181,,,,,,63.5,,SW,28.95,27.74,,Partly Cloudy
KIGQ,10/18/2016 11:35 UTC,29.6,70.88,64.76,78.09,14.97,230.0,25.32,,,,,403.0,,,,10.0,,KIGQ 181135Z AUTO 23013G22KT 10SM BKN040 22/18 A2960 RMK AO2  T02160182,,,4000.0,,,63.68,,SW,28.96,27.74,,Mostly Cloudy
KIGQ,10/18/2016 11:55 UTC,29.6,70.7,64.76,78.09,16.11,220.0,27.63,,,,,402.0,,,,10.0,,KIGQ 181155Z AUTO 22014G24KT 10SM SCT040 22/18 A2960 RMK AO2  T02150182 10230 20214,73.4,70.52,,,,63.5,,SW,28.96,27.75,,Partly Cloudy
KIGQ,10/18/2016 12:20 UTC,29.61,69.98,64.76,83.01,14.97,220.0,21.85,,,,,1.0,,,,10.0,,KIGQ 181220Z AUTO 22013G19KT 10SM CLR 21/18 A2961 RMK AO2  T02110182,,,,,,64.56,,SW,28.97,27.7,,Clear
KIGQ,10/18/2016 12:35 UTC,29.61,69.98,64.94,83.01,16.11,230.0,19.57,,,,,1.0,,,,10.0,,KIGQ 181235Z AUTO 23014G17KT 10SM CLR 21/18 A2961 RMK AO2  T02110183,,,,,,64.56,,SW,28.97,27.7,,Clear
KIGQ,10/18/2016 12:55 UTC,29.62,70.52,65.3,88.37,12.66,220.0,,,,,,343.0,,,,10.0,,KIGQ 181255Z AUTO 22011KT 10SM BKN034 21/19 A2962 RMK AO2  T02140185,,,3400.0,,,66.9,,SW,28.98,27.56,,Mostly Cloudy
KIGQ,10/18/2016 13:20 UTC,29.63,69.98,65.3,88.37,12.66,220.0,20.71,,,,,343.0,,,,10.0,,KIGQ 181320Z AUTO 22011G18KT 10SM BKN034 21/19 A2963 RMK AO2  T02110185,,,3400.0,,,66.36,,SW,28.99,27.61,,Mostly Cloudy
KIGQ,10/18/2016 13:35 UTC,29.63,71.24,65.66,83.13,18.41,220.0,25.32,,,,,322.0,,,,10.0,,KIGQ 181335Z AUTO 22016G22KT 10SM SCT032 22/19 A2963 RMK AO2  T02180187,,,,,,65.83,,SW,28.99,27.63,,Partly Cloudy
KIGQ,10/18/2016 13:55 UTC,29.64,72.14,66.2,83.13,12.66,220.0,20.71,,,,,322.0,,,,10.0,,KIGQ 181355Z AUTO 22011G18KT 10SM SCT032 22/19 A2964 RMK AO2  T02230190,,,,,,66.71,,SW,29.0,27.57,,Partly Cloudy
KIGQ,10/18/2016 14:15 UTC,29.64,73.04,66.38,78.24,17.27,230.0,24.16,,,,,322.0,,,,10.0,,KIGQ 181415Z AUTO 23015G21KT 10SM SCT032 23/19 A2964 RMK AO2  T02280191,,,,,,65.83,,SW,29.0,27.61,,Partly Cloudy
KIGQ,10/18/2016 14:35 UTC,29.65,73.94,67.1,83.25,17.27,240.0,23.02,,,,,1.0,,,,10.0,,KIGQ 181435Z AUTO 24015G20KT 10SM CLR 23/20 A2965 RMK AO2  T02330195,,,,,,68.52,,WSW,29.01,27.43,,Clear
KIGQ,10/18/2016 14:55 UTC,29.65,74.3,67.1,78.39,14.97,250.0,23.02,,,,,273.0,,,,10.0,,KIGQ 181455Z AUTO 25013G20KT 10SM BKN027 24/20 A2965 RMK AO2  T02350195,,,2700.0,,,67.12,,WSW,29.01,27.52,,Mostly Cloudy
KIGQ,10/18/2016 15:15 UTC,29.66,74.3,67.1,78.39,21.85,250.0,26.46,,,,,274.0,,,,10.0,,KIGQ 181515Z AUTO 25019G23KT 10SM OVC027 24/20 A2966 RMK AO2  T02350195,,,2700.0,,,67.12,,WSW,29.02,27.53,,Overcast
KIGQ,10/18/2016 15:35 UTC,29.67,73.94,66.56,78.24,12.66,260.0,23.02,,,,,273.0,383.0,,,10.0,,KIGQ 181535Z AUTO 26011G20KT 10SM BKN027 BKN038 23/19 A2967 RMK AO2 T02330192,,,2700.0,,,66.71,,W,29.02,27.56,,Mostly Cloudy
KIGQ,10/18/2016 15:55 UTC,29.67,75.74,66.56,73.67,13.8,260.0,25.32,,444.0,,,302.0,383.0,,,10.0,,KIGQ 181555Z AUTO 26012G22KT 10SM SCT030 BKN038 OVC044 24/19  A2967 RMK AO2 T02430192,,,3800.0,,,66.71,,W,29.02,27.54,,Overcast
KIGQ,10/18/2016 16:15 UTC,29.68,74.3,66.2,73.67,17.27,270.0,21.85,,464.0,,,302.0,352.0,,,10.0,,KIGQ 181615Z AUTO 27015G19KT 10SM SCT030 SCT035 OVC046 24/19  A2968 RMK AO2 T02350190,,,4600.0,,,65.32,,W,29.03,27.66,,Overcast
KIGQ,10/18/2016 16:35 UTC,29.69,74.84,66.02,73.67,11.5,280.0,18.41,,484.0,,,302.0,362.0,,,10.0,,KIGQ 181635Z AUTO 28010G16KT 10SM SCT030 SCT036 OVC048 24/19  A2969 RMK AO2 T02380189,,,4800.0,,,65.84,,W,29.04,27.63,,Overcast
KIGQ,10/18/2016 16:55 UTC,29.7,74.66,65.48,73.67,13.8,270.0,,,503.0,,,302.0,362.0,,,10.0,,KIGQ 181655Z AUTO 27012KT 10SM SCT030 SCT036 BKN050 24/19  A2970 RMK AO2 T02370186,,,5000.0,,,65.67,,W,29.05,27.66,,Mostly Cloudy
KIGQ,10/18/2016 17:15 UTC,29.7,76.28,64.76,65.2,13.8,280.0,,,,,,1.0,,,,10.0,,KIGQ 181715Z AUTO 28012KT 10SM CLR 25/18 A2970 RMK AO2  T02460182,,,,,,63.71,,W,29.05,27.76,,Clear
KIGQ,10/18/2016 17:35 UTC,29.7,77.18,65.48,69.4,14.97,260.0,18.41,,,,,1.0,,,,10.0,,KIGQ 181735Z AUTO 26013G16KT 10SM CLR 25/19 A2970 RMK AO2  T02510186,,,,,,66.37,,W,29.05,27.58,,Clear
KIGQ,10/18/2016 17:55 UTC,29.71,77.72,64.04,65.2,16.11,260.0,23.02,,,,,402.0,,,,10.0,,KIGQ 181755Z AUTO 26014G20KT 10SM SCT040 25/18 A2971 RMK AO2  T02540178 10255 20211,77.9,69.98,,,,65.08,,W,29.06,27.67,,Partly Cloudy
KIGQ,10/18/2016 18:15 UTC,29.71,78.08,63.32,57.69,12.66,260.0,18.41,,,,,422.0,,,,10.0,,KIGQ 181815Z AUTO 26011G16KT 10SM SCT042 26/17 A2971 RMK AO2  T02560174,,,,,,61.93,,W,29.06,27.86,,Partly Cloudy
KIGQ,10/18/2016 18:35 UTC,29.72,76.1,62.78,61.21,10.36,270.0,,,,,,422.0,502.0,,,10.0,,KIGQ 181835Z AUTO 27009KT 10SM SCT042 SCT050 25/17 A2972 RMK AO2  T02450171,,,,,,61.74,,W,29.07,27.9,,Partly Cloudy
KIGQ,10/18/2016 18:55 UTC,29.72,77.18,64.04,65.2,10.36,300.0,16.11,,,,,422.0,483.0,,,10.0,,KIGQ 181855Z AUTO 30009G14KT 10SM SCT042 BKN048 25/18 A2972 RMK AO2 T02510178,,,4800.0,,,64.57,,WNW,29.07,27.72,,Mostly Cloudy
KIGQ,10/18/2016 19:15 UTC,29.73,76.46,62.96,61.21,5.75,280.0,,,,,,422.0,482.0,,,10.0,,KIGQ 181915Z AUTO 28005KT 10SM SCT042 SCT048 25/17 A2973 RMK AO2  T02470172,,,,,,62.08,,W,29.08,27.89,,Partly Cloudy
KIGQ,10/18/2016 19:35 UTC,29.74,77.36,62.24,61.21,9.22,260.0,,,,,,462.0,552.0,,,10.0,,KIGQ 181935Z AUTO 26008KT 10SM SCT046 SCT055 25/17 A2974 RMK AO2  T02520168,,,,,,62.93,,W,29.09,27.84,,Partly Cloudy
KIGQ,10/18/2016 19:55 UTC,29.74,77.0,62.78,61.21,10.36,300.0,,,,,,462.0,552.0,,,10.0,,KIGQ 181955Z AUTO 30009KT 10SM SCT046 SCT055 25/17 A2974 RMK AO2  T02500171,,,,,,62.59,,WNW,29.09,27.86,,Partly Cloudy
KIGQ,10/18/2016 20:15 UTC,29.75,77.18,62.78,61.21,9.22,10.0,,,,,,462.0,,,,10.0,,KIGQ 182015Z AUTO 01008KT 330V050 10SM SCT046 25/17 A2975 RMK AO2  T02510171,,,,,,62.76,,N,29.1,27.86,,Partly Cloudy
KIGQ,10/18/2016 20:35 UTC,29.76,70.52,61.7,77.94,9.22,20.0,,,,,,442.0,803.0,,,10.0,,KIGQ 182035Z AUTO 02008KT 10SM SCT044 BKN080 21/17 A2976 RMK AO2  T02140165,,,8000.0,,,63.27,,NNE,29.11,27.92,,Mostly Cloudy
KIGQ,10/18/2016 20:55 UTC,29.77,68.72,60.26,77.79,9.22,20.0,,,802.0,,,492.0,602.0,,,10.0,,KIGQ 182055Z AUTO 02008KT 10SM SCT049 SCT060 SCT080 20/16  A2977 RMK AO2 T02040157,,,,,,61.47,,NNE,29.12,28.05,,Partly Cloudy
KIGQ,10/18/2016 21:15 UTC,29.78,68.9,60.26,73.15,8.05,60.0,,,,,,492.0,602.0,,,10.0,,KIGQ 182115Z AUTO 06007KT 10SM SCT049 SCT060 21/16 A2978 RMK AO2  T02050157,,,,,,59.9,,ENE,29.13,28.15,,Partly Cloudy
KIGQ,10/18/2016 21:35 UTC,29.8,68.0,59.36,72.97,9.22,60.0,,,,,,1.0,,,,10.0,,KIGQ 182135Z AUTO 06008KT 10SM CLR 20/15 A2980 RMK AO2  T02000152,,,,,,58.96,,ENE,29.15,28.23,,Clear
KIGQ,10/18/2016 21:55 UTC,29.81,67.1,58.64,72.97,6.91,40.0,,,,,,1.0,,,,10.0,,KIGQ 182155Z AUTO 04006KT 10SM CLR 20/15 A2981 RMK AO2  T01950148,,,,,,58.09,,NE,29.16,28.29,,Clear
KIGQ,10/18/2016 22:15 UTC,29.81,66.2,57.74,72.78,6.91,60.0,,,,,,1.0,,,,10.0,,KIGQ 182215Z AUTO 06006KT 10SM CLR 19/14 A2981 RMK AO2  T01900143,,,,,,57.15,,ENE,29.16,28.35,,Clear
KIGQ,10/18/2016 22:35 UTC,29.82,65.3,57.2,72.78,5.75,40.0,,,,,,1.0,,,,10.0,,KIGQ 182235Z AUTO 04005KT 10SM CLR 19/14 A2982 RMK AO2  T01850140,,,,,,56.28,,NE,29.17,28.41,,Clear
KIGQ,10/18/2016 22:55 UTC,29.83,64.22,57.2,77.48,3.44,40.0,,,,,,1.0,,,,10.0,,KIGQ 182255Z AUTO 04003KT 10SM CLR 18/14 A2983 RMK AO2  T01790140,,,,,,56.98,,NE,29.18,28.4,,Clear
KIGQ,10/18/2016 23:15 UTC,29.85,63.5,56.84,77.48,3.44,50.0,,,,,,1.0,,,,10.0,,KIGQ 182315Z AUTO 05003KT 10SM CLR 18/14 A2985 RMK AO2  T01750138,,,,,,56.28,,NE,29.2,28.46,,Clear
KIGQ,10/18/2016 23:35 UTC,29.86,62.96,56.84,82.52,3.44,40.0,,,,,,1.0,,,,10.0,,KIGQ 182335Z AUTO 04003KT 10SM CLR 17/14 A2986 RMK AO2  T01720138,,,,,,57.51,,NE,29.21,28.42,,Clear
KIGQ,10/18/2016 23:55 UTC,29.86,62.6,56.84,82.52,0.0,0.0,,,,,,1.0,,,,10.0,,KIGQ 182355Z AUTO 00000KT 10SM CLR 17/14 A2986 RMK AO2 T01700138  10257 20170,78.26,62.6,,,,57.16,,N,29.21,28.44,,Clear
KIGQ,10/19/2016 00:15 UTC,29.88,61.88,56.84,82.52,0.0,0.0,,,,,,1.0,,,,10.0,,KIGQ 190015Z AUTO 00000KT 10SM CLR 17/14 A2988 RMK AO2  T01660138,,,,,,56.46,,N,29.23,28.5,,Clear
KIGQ,10/19/2016 00:35 UTC,29.88,61.7,57.02,82.52,0.0,0.0,,,,,,1.0,,,,10.0,,KIGQ 190035Z AUTO 00000KT 10SM CLR 17/14 A2988 RMK AO2  T01650139,,,,,,56.28,,N,29.23,28.51,,Clear
KIGQ,10/19/2016 00:55 UTC,29.89,60.8,56.66,87.94,0.0,0.0,,,,,,1.0,,,,10.0,,KIGQ 190055Z AUTO 00000KT 10SM CLR 16/14 A2989 RMK AO2  T01600137,,,,,,57.17,,N,29.24,28.49,,Clear
KIGQ,10/19/2016 01:15 UTC,29.9,59.9,57.02,87.94,0.0,0.0,,,,,,1.0,,,,10.0,,KIGQ 190115Z AUTO 00000KT 10SM CLR 16/14 A2990 RMK AO2  T01550139,,,,,,56.29,,N,29.25,28.55,,Clear
KIGQ,10/19/2016 01:35 UTC,29.91,57.92,57.02,100.0,0.0,0.0,,,,,,1.0,,,,10.0,,KIGQ 190135Z AUTO 00000KT 10SM CLR 14/14 A2991 RMK AO2  T01440139,,,,,,57.92,,N,29.26,28.51,,Clear
KIGQ,10/19/2016 01:55 UTC,29.91,55.22,54.86,100.0,0.0,0.0,,,,,,1.0,,,,10.0,,KIGQ 190155Z AUTO 00000KT 10SM CLR 13/13 A2991 RMK AO2  T01290127,,,,,,55.22,,N,29.26,28.66,,Clear
KIGQ,10/19/2016 02:15 UTC,29.92,55.76,55.76,100.0,0.0,0.0,,,,,,1.0,,,,10.0,,KIGQ 190215Z AUTO 00000KT 10SM CLR 13/13 A2992 RMK AO2  T01320132,,,,,,55.76,,N,29.27,28.64,,Clear
KIGQ,10/19/2016 02:35 UTC,29.93,55.4,55.4,100.0,0.0,0.0,,,,,,1.0,,,,10.0,,KIGQ 190235Z AUTO 00000KT 10SM CLR 13/13 A2993 RMK AO2  T01300130,,,,,,55.4,,N,29.28,28.67,,Clear
KIGQ,10/19/2016 02:55 UTC,29.94,54.5,54.5,100.0,0.0,0.0,,,,,,1.0,,,,10.0,,KIGQ 190255Z AUTO 00000KT 10SM CLR 13/13 A2994 RMK AO2  T01250125,,,,,,54.5,,N,29.29,28.73,,Clear
KIGQ,10/19/2016 03:15 UTC,29.94,54.32,54.32,100.0,0.0,0.0,,,,,,1.0,,,,10.0,,KIGQ 190315Z AUTO 00000KT 10SM CLR 12/12 A2994 RMK AO2  T01240124,,,,,,54.32,,N,29.29,28.74,,Clear
KIGQ,10/19/2016 03:35 UTC,29.95,55.04,55.04,100.0,0.0,0.0,,,,,,1.0,,,,10.0,,KIGQ 190335Z AUTO 00000KT 10SM CLR 13/13 A2995 RMK AO2  T01280128,,,,,,55.04,,N,29.3,28.71,,Clear
KIGQ,10/19/2016 03:55 UTC,29.96,54.86,54.86,100.0,0.0,0.0,,,,,,1.0,,,,10.0,,KIGQ 190355Z AUTO 00000KT 10SM CLR 13/13 A2996 RMK AO2  T01270127,,,,,,54.86,,N,29.31,28.73,,Clear
KIGQ,10/19/2016 04:15 UTC,29.96,53.6,53.6,100.0,0.0,0.0,,,,,,1.0,,,,10.0,,KIGQ 190415Z AUTO 00000KT 10SM CLR 12/12 A2996 RMK AO2  T01200120,,,,,,53.6,,N,29.31,28.8,,Clear
KIGQ,10/19/2016 04:35 UTC,29.96,51.8,51.8,100.0,0.0,0.0,,,,,,1.0,,,,10.0,,KIGQ 190435Z AUTO 00000KT 10SM CLR 11/11 A2996 RMK AO2  T01100110,,,,,,51.8,,N,29.31,28.88,,Clear
KIGQ,10/19/2016 04:55 UTC,29.97,52.34,52.34,100.0,0.0,0.0,,31.0,,,,1.0,,,,3.0,,KIGQ 190455Z AUTO 00000KT 3SM BR CLR 11/11 A2997 RMK AO2  T01130113,,,,,,52.34,,N,29.32,28.87,,Mist
KIGQ,10/19/2016 05:15 UTC,29.98,50.36,50.36,100.0,0.0,0.0,,,,,,1.0,,,,10.0,,KIGQ 190515Z AUTO 00000KT 10SM CLR 10/10 A2998 RMK AO2  T01020102,,,,,,50.36,,N,29.33,28.97,,Clear
KIGQ,10/19/2016 05:35 UTC,29.98,50.36,50.36,100.0,0.0,0.0,,31.0,,,,75.0,,,,1.0,,KIGQ 190535Z AUTO 00000KT 1SM BR VV007 10/10 A2998 RMK AO2 VIS  1/2V5 T01020102,,,700.0,,,50.36,,N,29.33,28.97,,Mist
KIGQ,10/19/2016 05:55 UTC,29.98,50.72,50.72,100.0,0.0,0.0,,31.0,,,,1.0,,,,2.0,,KIGQ 190555Z AUTO 00000KT 2SM BR CLR 10/10 A2998 RMK AO2 VIS 3/4V5  T01040104 10170 20100 402570100,62.6,50.0,,78.26,50.0,50.72,,N,29.33,28.96,,Mist
KIGQ,10/19/2016 06:15 UTC,29.99,51.98,51.98,100.0,0.0,0.0,,31.0,,,,22.0,,,,1.5,,KIGQ 190615Z AUTO 00000KT 1 1/2SM BR SCT002 11/11 A2999 RMK AO2  T01110111,,,,,,51.98,,N,29.34,28.91,,Mist
KIGQ,10/19/2016 06:35 UTC,30.0,50.18,50.18,100.0,0.0,0.0,,9.0,,,,23.0,,,,0.5,,KIGQ 190635Z AUTO 00000KT 1/2SM FG BKN002 10/10 A3000 RMK AO2  T01010101,,,200.0,,,50.18,,N,29.35,29.0,,Fog
KIGQ,10/19/2016 06:55 UTC,30.0,49.1,49.1,100.0,0.0,0.0,,9.0,,,,23.0,,,,0.5,,KIGQ 190655Z AUTO 00000KT 1/2SM FG BKN002 10/10 A3000 RMK AO2  T00950095,,,200.0,,,49.1,,N,29.35,29.05,,Fog
KIGQ,10/19/2016 07:15 UTC,30.0,48.2,48.2,100.0,0.0,0.0,,31.0,,,,24.0,,,,0.75,,KIGQ 190715Z AUTO 00000KT 3/4SM BR OVC002 09/09 A3000 RMK AO2  T00900090,,,200.0,,,48.2,,N,29.35,29.09,,Mist
KIGQ,10/19/2016 07:35 UTC,30.01,48.02,48.02,100.0,0.0,0.0,,31.0,,,,23.0,,,,2.0,,KIGQ 190735Z AUTO 00000KT 2SM BR BKN002 09/09 A3001 RMK AO2  T00890089,,,200.0,,,48.02,,N,29.36,29.1,,Mist
KIGQ,10/19/2016 07:55 UTC,30.01,48.74,48.74,100.0,0.0,0.0,,31.0,,,,1.0,,,,4.0,,KIGQ 190755Z AUTO 00000KT 4SM BR CLR 09/09 A3001 RMK AO2  T00930093,,,,,,48.74,,N,29.36,29.07,,Mist
KIGQ,10/19/2016 08:15 UTC,30.01,47.12,47.12,100.0,0.0,0.0,,31.0,,,,1.0,,,,5.0,,KIGQ 190815Z AUTO 00000KT 5SM BR CLR 08/08 A3001 RMK AO2  T00840084,,,,,,47.12,,N,29.36,29.14,,Mist
KIGQ,10/19/2016 08:35 UTC,30.02,48.02,48.02,100.0,0.0,0.0,,31.0,,,,1.0,,,,3.0,,KIGQ 190835Z AUTO 00000KT 3SM BR CLR 09/09 A3002 RMK AO2  T00890089,,,,,,48.02,,N,29.37,29.11,,Mist
KIGQ,10/19/2016 08:55 UTC,30.02,47.66,47.66,100.0,0.0,0.0,,,,,,1.0,,,,7.0,,KIGQ 190855Z AUTO 00000KT 7SM CLR 09/09 A3002 RMK AO2  T00870087,,,,,,47.66,,N,29.37,29.13,,Clear
KIGQ,10/19/2016 09:15 UTC,30.02,48.56,48.56,100.0,0.0,0.0,,,,,,1.0,,,,7.0,,KIGQ 190915Z AUTO 00000KT 7SM CLR 09/09 A3002 RMK AO2  T00920092,,,,,,48.56,,N,29.37,29.09,,Clear
KIGQ,10/19/2016 09:35 UTC,30.02,48.74,48.74,100.0,0.0,0.0,,31.0,,,,1.0,,,,5.0,,KIGQ 190935Z AUTO 00000KT 5SM BR CLR 09/09 A3002 RMK AO2  T00930093,,,,,,48.74,,N,29.37,29.08,,Mist
KIGQ,10/19/2016 09:55 UTC,30.02,47.48,47.48,100.0,0.0,0.0,,,,,,1.0,,,,7.0,,KIGQ 190955Z AUTO 00000KT 7SM CLR 09/09 A3002 RMK AO2  T00860086,,,,,,47.48,,N,29.37,29.14,,Clear
KIGQ,10/19/2016 10:15 UTC,30.03,47.66,47.66,100.0,0.0,0.0,,,,,,1.0,,,,7.0,,KIGQ 191015Z AUTO 00000KT 7SM CLR 09/09 A3003 RMK AO2  T00870087,,,,,,47.66,,N,29.38,29.14,,Clear
KIGQ,10/19/2016 10:35 UTC,30.04,47.48,47.48,100.0,0.0,0.0,,31.0,,,,1.0,,,,5.0,,KIGQ 191035Z AUTO 00000KT 5SM BR CLR 09/09 A3004 RMK AO2  T00860086,,,,,,47.48,,N,29.39,29.16,,Mist
KIGQ,10/19/2016 10:55 UTC,30.06,48.38,48.38,100.0,0.0,0.0,,,,,,1.0,,,,10.0,,KIGQ 191055Z AUTO 00000KT 10SM CLR 09/09 A3006 RMK AO2  T00910091,,,,,,48.38,,N,29.41,29.14,,Clear
KIGQ,10/19/2016 11:15 UTC,30.06,47.3,47.3,100.0,0.0,0.0,,,,,,1.0,,,,10.0,,KIGQ 191115Z AUTO 00000KT 10SM CLR 09/09 A3006 RMK AO2  T00850085,,,,,,47.3,,N,29.41,29.18,,Clear
KIGQ,10/19/2016 11:35 UTC,30.07,46.22,46.22,100.0,0.0,0.0,,31.0,,,,75.0,,,,1.0,,KIGQ 191135Z AUTO 00000KT 1SM BR VV007 08/08 A3007 RMK AO2  T00790079,,,700.0,,,46.22,,N,29.42,29.24,,Mist
KIGQ,10/19/2016 11:55 UTC,30.08,47.12,47.12,100.0,0.0,0.0,,31.0,,,,1.0,,,,5.0,,KIGQ 191155Z AUTO 00000KT 5SM BR CLR 08/08 A3008 RMK AO2 T00840084  10111 20075,51.98,45.5,,,,47.12,,N,29.43,29.21,,Mist
KIGQ,10/19/2016 12:15 UTC,30.08,48.2,48.2,100.0,0.0,0.0,,,,,,1.0,,,,10.0,,KIGQ 191215Z AUTO 00000KT 10SM CLR 09/09 A3008 RMK AO2  T00900090,,,,,,48.2,,N,29.43,29.17,,Clear
KIGQ,10/19/2016 12:35 UTC,30.08,47.66,47.66,100.0,0.0,0.0,,,,,,1.0,,,,10.0,,KIGQ 191235Z AUTO 00000KT 10SM CLR 09/09 A3008 RMK AO2  T00870087,,,,,,47.66,,N,29.43,29.19,,Clear
KIGQ,10/19/2016 12:55 UTC,30.1,48.2,48.2,100.0,0.0,0.0,,,,,,1.0,,,,10.0,,KIGQ 191255Z AUTO 00000KT 10SM CLR 09/09 A3010 RMK AO2  T00900090,,,,,,48.2,,N,29.45,29.19,,Clear
KIGQ,10/19/2016 13:15 UTC,30.11,49.1,49.1,100.0,0.0,0.0,,,,,,1.0,,,,10.0,,KIGQ 191315Z AUTO 00000KT 10SM CLR 10/10 A3011 RMK AO2  T00950095,,,,,,49.1,,N,29.46,29.16,,Clear
KIGQ,10/19/2016 13:35 UTC,30.11,51.08,51.08,100.0,0.0,0.0,,,,,,1.0,,,,10.0,,KIGQ 191335Z AUTO 00000KT 10SM CLR 11/11 A3011 RMK AO2  T01060106,,,,,,51.08,,N,29.46,29.07,,Clear
KIGQ,10/19/2016 13:55 UTC,30.12,53.96,52.88,100.0,4.61,320.0,,,,,,1.0,,,,10.0,,KIGQ 191355Z AUTO 32004KT 10SM CLR 12/12 A3012 RMK AO2  T01220116,,,,,,53.96,,NW,29.47,28.94,,Clear
KIGQ,10/19/2016 14:15 UTC,30.12,57.02,53.78,87.75,3.44,340.0,,,,,,1.0,,,,10.0,,KIGQ 191415Z AUTO 34003KT 10SM CLR 14/12 A3012 RMK AO2 LTG DSNT SW  T01390121,,,,,,53.39,,NNW,29.47,28.93,,Clear
KIGQ,10/19/2016 14:35 UTC,30.12,60.08,54.5,82.4,0.0,0.0,,,,,,1.0,,,,10.0,,KIGQ 191435Z AUTO 00000KT 10SM CLR 16/13 A3012 RMK AO2  T01560125,,,,,,54.66,,N,29.47,28.84,,Clear
KIGQ,10/19/2016 14:55 UTC,30.12,61.16,53.78,77.17,0.0,0.0,,,,,,1.0,,,,10.0,,KIGQ 191455Z AUTO 00000KT 10SM CLR 16/12 A3012 RMK AO2  T01620121,,,,,,53.9,,N,29.47,28.86,,Clear
KIGQ,10/19/2016 15:15 UTC,30.12,63.32,54.86,77.33,3.44,360.0,,,,,,1.0,,,,10.0,,KIGQ 191515Z AUTO 36003KT 10SM CLR 17/13 A3012 RMK AO2  T01740127,,,,,,56.05,,N,29.47,28.75,,Clear
KIGQ,10/19/2016 15:35 UTC,30.12,64.58,55.04,72.6,4.61,60.0,,,,,,1.0,,,,10.0,,KIGQ 191535Z AUTO 06004KT 10SM CLR 18/13 A3012 RMK AO2  T01810128,,,,,,55.52,,ENE,29.47,28.76,,Clear
KIGQ,10/19/2016 15:55 UTC,30.12,65.48,55.04,68.2,4.61,20.0,,,,,,1.0,,,,10.0,,KIGQ 191555Z AUTO 02004KT 10SM CLR 19/13 A3012 RMK AO2  T01860128,,,,,,54.65,,NNE,29.47,28.79,,Clear
KIGQ,10/19/2016 16:15 UTC,30.12,66.92,55.04,68.2,3.44,60.0,,,,,,1.0,,,,10.0,,KIGQ 191615Z AUTO 06003KT 10SM CLR 19/13 A3012 RMK AO2  T01940128,,,,,,56.03,,ENE,29.47,28.71,,Clear
KIGQ,10/19/2016 16:35 UTC,30.11,67.64,54.68,64.1,6.91,50.0,,,,,,1.0,,,,10.0,,KIGQ 191635Z AUTO 05006KT 10SM CLR 20/13 A3011 RMK AO2  T01980126,,,,,,55.0,,NE,29.46,28.74,,Clear
KIGQ,10/19/2016 16:55 UTC,30.12,68.36,54.14,60.03,4.61,80.0,,,,,,1.0,,,,10.0,,KIGQ 191655Z AUTO 08004KT 10SM CLR 20/12 A3012 RMK AO2  T02020123,,,,,,53.88,,E,29.47,28.79,,Clear
KIGQ,10/19/2016 17:15 UTC,30.11,69.08,51.98,52.83,0.0,0.0,,,,,,1.0,,,,10.0,,KIGQ 191715Z AUTO 00000KT 10SM CLR 21/11 A3011 RMK AO2  T02060111,,,,,,51.07,,N,29.46,28.89,,Clear
KIGQ,10/19/2016 17:35 UTC,30.11,69.26,50.72,49.43,0.0,0.0,,,,,,1.0,,,,10.0,,KIGQ 191735Z AUTO 00000KT 10SM CLR 21/10 A3011 RMK AO2  T02070104,,,,,,49.44,,N,29.46,28.96,,Clear
KIGQ,10/19/2016 17:55 UTC,30.1,69.8,51.44,52.83,0.0,0.0,,,,,,1.0,,,,10.0,,KIGQ 191755Z AUTO 00000KT 10SM CLR 21/11 A3010 RMK AO2 LTG DSNT S  T02100108 10210 20084,69.8,47.12,,,,51.74,,N,29.45,28.85,,Clear
KIGQ,10/19/2016 18:15 UTC,30.09,68.9,50.72,49.43,0.0,0.0,,,,,,1.0,,,,10.0,,KIGQ 191815Z AUTO 00000KT 10SM CLR 21/10 A3009 RMK AO2  T02050104,,,,,,49.1,,N,29.44,28.95,,Clear
KIGQ,10/19/2016 18:35 UTC,30.09,69.08,50.9,52.83,0.0,0.0,,,,,,1.0,,,,10.0,,KIGQ 191835Z AUTO 00000KT 10SM CLR 21/11 A3009 RMK AO2  T02060105,,,,,,51.07,,N,29.44,28.87,,Clear
KIGQ,10/19/2016 18:55 UTC,30.08,68.0,52.16,56.19,5.75,360.0,,,,,,1.0,,,,10.0,,KIGQ 191855Z AUTO 36005KT 10SM CLR 20/11 A3008 RMK AO2 LTG DSNT S  AND SW T02000112,,,,,,51.73,,N,29.43,28.85,,Clear
KIGQ,10/19/2016 19:15 UTC,30.08,67.28,51.26,56.19,8.05,20.0,,,,,,1202.0,,,,10.0,,KIGQ 191915Z AUTO 02007KT 10SM SCT120 20/11 A3008 RMK AO2  T01960107,,,,,,51.06,,NNE,29.43,28.88,,Partly Cloudy
KIGQ,10/19/2016 19:35 UTC,30.08,66.74,50.9,56.76,8.05,20.0,,,,,,1203.0,,,,10.0,,KIGQ 191935Z AUTO 02007KT 10SM BKN120 19/11 A3008 RMK AO2  T01930105,,,12000.0,,,50.82,,NNE,29.43,28.89,,Mostly Cloudy
KIGQ,10/19/2016 19:55 UTC,30.08,66.2,50.0,55.93,6.91,20.0,,,,,,1202.0,,,,10.0,,KIGQ 191955Z AUTO 02006KT 10SM SCT120 19/10 A3008 RMK AO2  T01900100,,,,,,49.92,,NNE,29.43,28.93,,Partly Cloudy
KIGQ,10/19/2016 20:15 UTC,30.06,65.12,50.72,59.54,9.22,20.0,,,,,,1.0,,,,10.0,,KIGQ 192015Z AUTO 02008KT 350V050 10SM CLR 18/10 A3006 RMK AO2  T01840104,,,,,,50.6,,NNE,29.41,28.9,,Clear
KIGQ,10/19/2016 20:35 UTC,30.07,64.58,52.16,63.64,8.05,30.0,,,,,,1202.0,,,,10.0,,KIGQ 192035Z AUTO 03007KT 10SM SCT120 18/11 A3007 RMK AO2 LTG DSNT  S T01810112,,,,,,51.9,,NNE,29.42,28.86,,Partly Cloudy
KIGQ,10/19/2016 20:55 UTC,30.08,64.4,52.16,63.64,5.75,20.0,,,,,,1202.0,,,,10.0,,KIGQ 192055Z AUTO 02005KT 10SM SCT120 18/11 A3008 RMK AO2 LTG DSNT  S T01800112,,,,,,51.73,,NNE,29.43,28.88,,Partly Cloudy
KIGQ,10/19/2016 21:15 UTC,30.08,63.86,51.08,63.64,5.75,30.0,,,,,,1202.0,,,,10.0,,KIGQ 192115Z AUTO 03005KT 10SM SCT120 18/11 A3008 RMK AO2  T01770106,,,,,,51.21,,NNE,29.43,28.91,,Partly Cloudy
KIGQ,10/19/2016 21:35 UTC,30.07,63.5,51.8,63.64,6.91,40.0,,,,,,1203.0,,,,10.0,,KIGQ 192135Z AUTO 04006KT 10SM BKN120 18/11 A3007 RMK AO2 LTG DSNT  S T01750110,,,12000.0,,,50.87,,NE,29.42,28.91,,Mostly Cloudy
KIGQ,10/19/2016 21:55 UTC,30.09,62.6,52.34,67.79,4.61,60.0,,17.0,,,,1104.0,,,,10.0,,KIGQ 192155Z AUTO 06004KT 10SM -DZ OVC110 17/11 A3009 RMK AO2  T01700113,,,11000.0,,,51.73,,ENE,29.44,28.91,,Light Drizzle
KIGQ,10/19/2016 22:15 UTC,30.11,62.24,52.16,67.79,0.0,0.0,,,,,,1104.0,,,,10.0,,KIGQ 192215Z AUTO 00000KT 10SM OVC110 17/11 A3011 RMK AO2  T01680112,,,11000.0,,,51.39,,N,29.46,28.94,,Overcast
KIGQ,10/19/2016 22:35 UTC,30.08,60.44,53.42,77.17,6.91,30.0,,1.0,1204.0,,,752.0,953.0,,,7.0,,KIGQ 192235Z AUTO 03006KT 7SM RA SCT075 BKN095 OVC120 16/12  A3008 RMK AO2 T01580119,,,9500.0,,,53.2,,NNE,29.43,28.86,,Rain
KIGQ,10/19/2016 22:55 UTC,30.08,59.9,54.68,82.4,5.75,50.0,,13.0,,,,902.0,1104.0,,,10.0,,KIGQ 192255Z AUTO 05005KT 10SM -RA SCT090 OVC110 16/13 A3008 RMK AO2 LTG DSNT SW T01550126,,,11000.0,,,54.48,,NE,29.43,28.81,,Light Rain
KIGQ,10/19/2016 23:15 UTC,30.1,59.54,55.4,87.85,5.75,40.0,,13.0,1104.0,,,602.0,902.0,,,10.0,,KIGQ 192315Z AUTO 04005KT 10SM -RA SCT060 SCT090 OVC110 15/13  A3010 RMK AO2 LTG DSNT SW T01530130,,,11000.0,,,55.9,,NE,29.45,28.77,,Light Rain
KIGQ,10/19/2016 23:35 UTC,30.12,59.54,55.58,87.85,4.61,30.0,,13.0,,,,903.0,1104.0,,,10.0,,KIGQ 192335Z AUTO 03004KT 10SM -RA BKN090 OVC110 15/13 A3012 RMK AO2 LTG DSNT SW T01530131,,,9000.0,,,55.9,,NNE,29.47,28.8,,Light Rain
KIGQ,10/19/2016 23:55 UTC,30.11,59.0,56.48,93.75,6.91,30.0,,13.0,,,,903.0,1104.0,,,10.0,,KIGQ 192355Z AUTO 03006KT 10SM -RA BKN090 OVC110 15/14 A3011 RMK AO2 LTG DSNT SW T01500136 10211 20150,69.98,59.0,9000.0,,,57.18,,NNE,29.46,28.73,,Light Rain
KIGQ,10/20/2016 00:15 UTC,30.13,59.18,56.48,93.75,5.75,30.0,,13.0,,,,903.0,1204.0,,,10.0,,KIGQ 200015Z AUTO 03005KT 10SM -RA BKN090 OVC120 15/14 A3013 RMK AO2 LTG DSNT S T01510136,,,9000.0,,,57.36,,NNE,29.47,28.73,,Light Rain
KIGQ,10/20/2016 00:35 UTC,30.11,58.82,55.04,87.85,5.75,50.0,,1.0,,0.01,,1004.0,,,,10.0,,KIGQ 200035Z AUTO 05005KT 10SM RA OVC100 15/13 A3011 RMK AO2 P0001  T01490128,,,10000.0,,,55.19,,NE,29.46,28.82,,Rain
KIGQ,10/20/2016 00:55 UTC,30.11,57.74,56.3,100.0,3.44,90.0,,,,0.01,,1004.0,,,,10.0,,KIGQ 200055Z AUTO 09003KT 10SM OVC100 14/14 A3011 RMK AO2 LTG DSNT  S P0001 T01430135,,,10000.0,,,57.74,,E,29.46,28.72,,Overcast
KIGQ,10/20/2016 01:15 UTC,30.13,58.46,55.76,87.85,0.0,0.0,,,,,,1004.0,,,,10.0,,KIGQ 200115Z AUTO 00000KT 10SM OVC100 15/13 A3013 RMK AO2  T01470132,,,10000.0,,,54.84,,N,29.47,28.85,,Overcast
KIGQ,10/20/2016 01:35 UTC,30.13,58.1,56.3,93.75,0.0,0.0,,13.0,,,,1004.0,,,,10.0,,KIGQ 200135Z AUTO 00000KT 10SM -RA OVC100 15/14 A3013 RMK AO2  T01450135,,,10000.0,,,56.29,,N,29.47,28.8,,Light Rain
KIGQ,10/20/2016 01:55 UTC,30.11,57.74,56.48,100.0,0.0,0.0,,,,,,904.0,,,,10.0,,KIGQ 200155Z AUTO 00000KT 10SM OVC090 14/14 A3011 RMK AO2  T01430136,,,9000.0,,,57.74,,N,29.46,28.72,,Overcast
KIGQ,10/20/2016 02:15 UTC,30.11,58.64,55.22,87.85,5.75,10.0,,,,,,904.0,,,,10.0,,KIGQ 200215Z AUTO 01005KT 10SM OVC090 15/13 A3011 RMK AO2  T01480129,,,9000.0,,,55.02,,N,29.46,28.83,,Overcast
KIGQ,10/20/2016 02:35 UTC,30.11,58.82,54.68,87.85,3.44,60.0,,,,,,904.0,,,,10.0,,KIGQ 200235Z AUTO 06003KT 10SM OVC090 15/13 A3011 RMK AO2  T01490126,,,9000.0,,,55.19,,ENE,29.46,28.82,,Overcast
KIGQ,10/20/2016 02:55 UTC,30.11,59.0,54.14,82.27,5.75,30.0,,,,,0.01,904.0,,,,10.0,,KIGQ 200255Z AUTO 03005KT 10SM OVC090 15/12 A3011 RMK AO2 60001  T01500123,,,9000.0,,,53.56,,NNE,29.46,28.89,,Overcast
KIGQ,10/20/2016 03:15 UTC,30.11,58.28,53.78,82.27,0.0,0.0,,,,,,904.0,,,,10.0,,KIGQ 200315Z AUTO 00000KT 10SM OVC090 15/12 A3011 RMK AO2  T01460121,,,9000.0,,,52.85,,N,29.46,28.93,,Overcast
KIGQ,10/20/2016 03:35 UTC,30.1,58.64,52.7,80.63,4.61,30.0,,,,,,904.0,,,,10.0,,KIGQ 200335Z AUTO 03004KT 10SM OVC090 15/12 A3010 RMK AO2 LTG DSNT  S AND SW T01480115,,,9000.0,,,52.65,,NNE,29.45,28.92,,Overcast
KIGQ,10/20/2016 03:55 UTC,30.1,58.28,53.24,82.27,0.0,0.0,,,,,,904.0,,,,10.0,,KIGQ 200355Z AUTO 00000KT 10SM OVC090 15/12 A3010 RMK AO2  T01460118,,,9000.0,,,52.85,,N,29.45,28.92,,Overcast
KIGQ,10/20/2016 04:15 UTC,30.11,57.92,53.6,87.75,0.0,0.0,,,,,,904.0,,,,10.0,,KIGQ 200415Z AUTO 00000KT 10SM OVC090 14/12 A3011 RMK AO2 LTG DSNT  SE T01440120,,,9000.0,,,54.28,,N,29.46,28.87,,Overcast
KIGQ,10/20/2016 04:35 UTC,30.1,58.1,53.78,82.27,0.0,0.0,,13.0,,,,1004.0,,,,10.0,,KIGQ 200435Z AUTO 00000KT 10SM -RA OVC100 15/12 A3010 RMK AO2 LTG  DSNT SE T01450121,,,10000.0,,,52.68,,N,29.45,28.93,,Light Rain
KIGQ,10/20/2016 04:55 UTC,30.08,57.74,54.5,93.7,0.0,0.0,,,,,,1104.0,,,,10.0,,KIGQ 200455Z AUTO 00000KT 10SM OVC110 14/13 A3008 RMK AO2  T01430125,,,11000.0,,,55.92,,N,29.43,28.77,,Overcast
KIGQ,10/20/2016 05:15 UTC,30.07,57.56,54.86,93.7,3.44,60.0,,,,,,1104.0,,,,10.0,,KIGQ 200515Z AUTO 06003KT 10SM OVC110 14/13 A3007 RMK AO2  T01420127,,,11000.0,,,55.74,,ENE,29.42,28.77,,Overcast
KIGQ,10/20/2016 05:35 UTC,30.08,57.2,55.4,93.7,3.44,90.0,,,,,,1104.0,,,,10.0,,KIGQ 200535Z AUTO 09003KT 10SM OVC110 14/13 A3008 RMK AO2 LTG DSNT  E T01400130,,,11000.0,,,55.38,,E,29.43,28.8,,Overcast
KIGQ,10/20/2016 05:55 UTC,30.08,57.02,54.68,93.7,3.44,100.0,,,,,,1103.0,,0.01,,10.0,,KIGQ 200555Z AUTO 10003KT 10SM BKN110 14/13 A3008 RMK AO2 60001  T01390126 10152 20138 402110075,59.36,56.84,11000.0,69.98,45.5,55.2,,E,29.43,28.81,,Mostly Cloudy
KIGQ,10/20/2016 06:15 UTC,30.08,56.3,53.78,87.75,3.44,80.0,,,,,,1102.0,,,,10.0,,KIGQ 200615Z AUTO 08003KT 10SM SCT110 14/12 A3008 RMK AO2  T01350121,,,,,,52.68,,E,29.43,28.92,,Partly Cloudy
KIGQ,10/20/2016 06:35 UTC,30.07,56.48,52.16,82.14,4.61,80.0,,,,,,1.0,,,,10.0,,KIGQ 200635Z AUTO 08004KT 10SM CLR 14/11 A3007 RMK AO2  T01360112,,,,,,51.05,,E,29.42,28.97,,Clear
KIGQ,10/20/2016 06:55 UTC,30.08,56.3,51.26,82.14,0.0,0.0,,,,,,1.0,,,,10.0,,KIGQ 200655Z AUTO 00000KT 10SM CLR 14/11 A3008 RMK AO2  T01350107,,,,,,50.87,,N,29.43,28.99,,Clear
KIGQ,10/20/2016 07:15 UTC,30.08,56.12,51.44,87.66,0.0,0.0,,,,,,1.0,,,,10.0,,KIGQ 200715Z AUTO 00000KT 10SM CLR 13/11 A3008 RMK AO2  T01340108,,,,,,52.47,,N,29.43,28.93,,Clear
KIGQ,10/20/2016 07:35 UTC,30.08,55.58,51.98,87.66,0.0,0.0,,,,,,1.0,,,,10.0,,KIGQ 200735Z AUTO 00000KT 10SM CLR 13/11 A3008 RMK AO2  T01310111,,,,,,51.94,,N,29.43,28.96,,Clear
KIGQ,10/20/2016 07:55 UTC,30.08,54.68,51.8,87.66,0.0,0.0,,,,,,1203.0,,,,10.0,,KIGQ 200755Z AUTO 00000KT 10SM BKN120 13/11 A3008 RMK AO2  T01260110,,,12000.0,,,51.05,,N,29.43,29.0,,Mostly Cloudy
KIGQ,10/20/2016 08:15 UTC,30.09,55.04,52.52,87.66,0.0,0.0,,,,,,1204.0,,,,10.0,,KIGQ 200815Z AUTO 00000KT 10SM OVC120 13/11 A3009 RMK AO2  T01280114,,,12000.0,,,51.41,,N,29.44,29.0,,Overcast
KIGQ,10/20/2016 08:35 UTC,30.08,54.86,52.34,87.66,0.0,0.0,,,,,,1203.0,,,,10.0,,KIGQ 200835Z AUTO 00000KT 10SM BKN120 13/11 A3008 RMK AO2  T01270113,,,12000.0,,,51.23,,N,29.43,28.99,,Mostly Cloudy
KIGQ,10/20/2016 08:55 UTC,30.09,55.94,51.44,87.66,0.0,0.0,,,,,,1203.0,,,,10.0,,KIGQ 200855Z AUTO 00000KT 10SM BKN120 13/11 A3009 RMK AO2  T01330108,,,12000.0,,,52.3,,N,29.44,28.95,,Mostly Cloudy
KIGQ,10/20/2016 09:15 UTC,30.09,55.58,52.52,87.66,3.44,330.0,,,,,,1202.0,,,,10.0,,KIGQ 200915Z AUTO 33003KT 10SM SCT120 13/11 A3009 RMK AO2  T01310114,,,,,,51.94,,NNW,29.44,28.97,,Partly Cloudy
KIGQ,10/20/2016 09:35 UTC,30.1,55.4,53.24,93.65,0.0,0.0,,,,,,1202.0,,,,10.0,,KIGQ 200935Z AUTO 00000KT 10SM SCT120 13/12 A3010 RMK AO2  T01300118,,,,,,53.58,,N,29.45,28.92,,Partly Cloudy
KIGQ,10/20/2016 09:55 UTC,30.09,54.86,53.78,93.65,3.44,330.0,,,,,,1.0,,,,10.0,,KIGQ 200955Z AUTO 33003KT 10SM CLR 13/12 A3009 RMK AO2  T01270121,,,,,,53.05,,NNW,29.44,28.94,,Clear
KIGQ,10/20/2016 10:15 UTC,30.09,54.68,53.96,93.65,3.44,330.0,,,,,,752.0,,,,10.0,,KIGQ 201015Z AUTO 33003KT 10SM SCT075 13/12 A3009 RMK AO2  T01260122,,,,,,52.87,,NNW,29.44,28.95,,Partly Cloudy
KIGQ,10/20/2016 10:35 UTC,30.09,54.86,53.06,93.65,0.0,0.0,,,,,,752.0,,,,10.0,,KIGQ 201035Z AUTO 00000KT 10SM SCT075 13/12 A3009 RMK AO2  T01270117,,,,,,53.05,,N,29.44,28.94,,Partly Cloudy
KIGQ,10/20/2016 10:55 UTC,30.1,54.68,51.8,87.66,0.0,0.0,,,,,,1.0,,,,10.0,,KIGQ 201055Z AUTO 00000KT 10SM CLR 13/11 A3010 RMK AO2  T01260110,,,,,,51.05,,N,29.45,29.02,,Clear
KIGQ,10/20/2016 11:15 UTC,30.09,54.86,51.98,87.66,3.44,10.0,,,,,,222.0,,,,10.0,,KIGQ 201115Z AUTO 01003KT 10SM SCT022 13/11 A3009 RMK AO2  T01270111,,,,,,51.23,,N,29.44,29.0,,Partly Cloudy
KIGQ,10/20/2016 11:35 UTC,30.09,55.4,51.8,87.66,6.91,360.0,,,,,,1.0,,,,10.0,,KIGQ 201135Z AUTO 36006KT 10SM CLR 13/11 A3009 RMK AO2  T01300110,,,,,,51.76,,N,29.44,28.98,,Clear
KIGQ,10/20/2016 11:55 UTC,30.09,55.94,52.7,93.65,4.61,360.0,,,,,,1.0,,,0.01,10.0,,KIGQ 201155Z AUTO 36004KT 10SM CLR 13/12 A3009 RMK AO2 70001  T01330115 10137 20125,56.66,54.5,,,,54.12,,N,29.44,28.88,,Clear
KIGQ,10/20/2016 12:15 UTC,30.08,55.94,54.14,93.65,4.61,360.0,,,,,,133.0,,,,10.0,,KIGQ 201215Z AUTO 36004KT 10SM BKN013 13/12 A3008 RMK AO2  T01330123,,,1300.0,,,54.12,,N,29.43,28.87,,Mostly Cloudy
KIGQ,10/20/2016 12:35 UTC,30.09,57.2,55.94,93.7,8.05,360.0,,,,,,113.0,,,,10.0,,KIGQ 201235Z AUTO 36007KT 10SM BKN011 14/13 A3009 RMK AO2  T01400133,,,1100.0,,,55.38,,N,29.44,28.81,,Mostly Cloudy
KIGQ,10/20/2016 12:55 UTC,30.08,57.56,55.4,93.7,10.36,10.0,,,,,,132.0,,,,10.0,,KIGQ 201255Z AUTO 01009KT 10SM SCT013 14/13 A3008 RMK AO2  T01420130,,,,,,55.74,,N,29.43,28.78,,Partly Cloudy
KIGQ,10/20/2016 13:15 UTC,30.09,58.28,55.58,87.85,10.36,10.0,16.11,,,,,152.0,,,,10.0,,KIGQ 201315Z AUTO 01009G14KT 10SM SCT015 15/13 A3009 RMK AO2  T01460131,,,,,,54.66,,N,29.44,28.83,,Partly Cloudy
KIGQ,10/20/2016 13:35 UTC,30.09,58.64,56.66,93.75,14.97,360.0,18.41,,,,,153.0,233.0,,,10.0,,KIGQ 201335Z AUTO 36013G16KT 10SM BKN015 BKN023 15/14 A3009 RMK AO2 T01480137,,,1500.0,,,56.83,,N,29.44,28.73,,Mostly Cloudy
KIGQ,10/20/2016 13:55 UTC,30.1,58.28,56.12,87.85,13.8,10.0,20.71,,,,,153.0,224.0,,,10.0,,KIGQ 201355Z AUTO 01012G18KT 10SM BKN015 OVC022 15/13 A3010 RMK AO2 T01460134,,,1500.0,,,54.66,,N,29.45,28.84,,Overcast
KIGQ,10/20/2016 14:15 UTC,30.1,58.1,55.58,87.85,13.8,360.0,19.57,,,,,152.0,224.0,,,10.0,,KIGQ 201415Z AUTO 36012G17KT 10SM SCT015 OVC022 15/13 A3010 RMK AO2 T01450131,,,2200.0,,,54.48,,N,29.45,28.85,,Overcast
KIGQ,10/20/2016 14:35 UTC,30.09,58.1,55.76,87.85,16.11,360.0,23.02,,,,,123.0,194.0,,,10.0,,KIGQ 201435Z AUTO 36014G20KT 10SM BKN012 OVC019 15/13 A3009 RMK AO2 T01450132,,,1200.0,,,54.48,,N,29.44,28.84,,Overcast
KIGQ,10/20/2016 14:55 UTC,30.1,57.74,55.58,93.7,13.8,360.0,20.71,,,,,124.0,,,,10.0,,KIGQ 201455Z AUTO 36012G18KT 10SM OVC012 14/13 A3010 RMK AO2  T01430131,,,1200.0,,,55.92,,N,29.45,28.8,,Overcast
KIGQ,10/20/2016 15:15 UTC,30.1,57.56,55.4,93.7,12.66,360.0,21.85,,,,,124.0,,,,10.0,,KIGQ 201515Z AUTO 36011G19KT 330V030 10SM OVC012 14/13 A3010 RMK AO2 T01420130,,,1200.0,,,55.74,,N,29.45,28.81,,Overcast
KIGQ,10/20/2016 15:35 UTC,30.1,57.38,55.22,93.7,13.8,10.0,21.85,,,,,124.0,,,,10.0,,KIGQ 201535Z AUTO 01012G19KT 10SM OVC012 14/13 A3010 RMK AO2  T01410129,,,1200.0,,,55.56,,N,29.45,28.81,,Overcast
KIGQ,10/20/2016 15:55 UTC,30.11,57.38,55.04,93.7,11.5,10.0,24.16,,,,,124.0,,,,10.0,,KIGQ 201555Z AUTO 01010G21KT 10SM OVC012 14/13 A3011 RMK AO2  T01410128,,,1200.0,,,55.56,,N,29.46,28.83,,Overcast
KIGQ,10/20/2016 16:15 UTC,30.11,57.2,54.68,93.7,10.36,360.0,18.41,,,,,124.0,,,,10.0,,KIGQ 201615Z AUTO 36009G16KT 340V040 10SM OVC012 14/13 A3011 RMK AO2 T01400126,,,1200.0,,,55.38,,N,29.46,28.83,,Overcast
KIGQ,10/20/2016 16:35 UTC,30.11,57.2,54.5,93.7,13.8,10.0,21.85,,,,,124.0,,,,10.0,,KIGQ 201635Z AUTO 01012G19KT 10SM OVC012 14/13 A3011 RMK AO2  T01400125,,,1200.0,,,55.38,,N,29.46,28.83,,Overcast
KIGQ,10/20/2016 16:55 UTC,30.11,56.84,54.32,87.75,14.97,360.0,20.71,,,,,124.0,,,,10.0,,KIGQ 201655Z AUTO 36013G18KT 10SM OVC012 14/12 A3011 RMK AO2  T01380124,,,1200.0,,,53.21,,N,29.46,28.93,,Overcast
KIGQ,10/20/2016 17:15 UTC,30.11,56.66,54.14,87.75,14.97,360.0,20.71,,,,,124.0,,,,10.0,,KIGQ 201715Z AUTO 36013G18KT 10SM OVC012 14/12 A3011 RMK AO2  T01370123,,,1200.0,,,53.03,,N,29.46,28.94,,Overcast
KIGQ,10/20/2016 17:35 UTC,30.11,56.48,53.96,87.75,8.05,360.0,20.71,,,,,124.0,,,,10.0,,KIGQ 201735Z AUTO 36007G18KT 10SM OVC012 14/12 A3011 RMK AO2  T01360122,,,1200.0,,,52.86,,N,29.46,28.95,,Overcast
KIGQ,10/20/2016 17:55 UTC,30.11,55.58,53.24,93.65,12.66,360.0,19.57,,,,,124.0,,,,10.0,,KIGQ 201755Z AUTO 36011G17KT 10SM OVC012 13/12 A3011 RMK AO2  T01310118 10149 20131,58.82,55.58,1200.0,,,53.76,,N,29.46,28.92,,Overcast
KIGQ,10/20/2016 18:15 UTC,30.11,55.04,52.7,93.65,12.66,360.0,18.41,,,,,124.0,,,,10.0,,KIGQ 201815Z AUTO 36011G16KT 10SM OVC012 13/12 A3011 RMK AO2  T01280115,,,1200.0,,,53.22,,N,29.46,28.95,,Overcast
KIGQ,10/20/2016 18:35 UTC,30.11,54.86,52.34,87.66,12.66,350.0,21.85,,,,,124.0,,,,10.0,,KIGQ 201835Z AUTO 35011G19KT 10SM OVC012 13/11 A3011 RMK AO2  T01270113,,,1200.0,,,51.23,,N,29.46,29.03,,Overcast
KIGQ,10/20/2016 18:55 UTC,30.11,54.5,51.98,87.66,10.36,350.0,21.85,,,,,124.0,,,,10.0,,KIGQ 201855Z AUTO 35009G19KT 10SM OVC012 13/11 A3011 RMK AO2  T01250111,,,1200.0,,,50.88,,N,29.46,29.04,,Overcast
KIGQ,10/20/2016 19:15 UTC,30.11,54.5,51.8,87.66,14.97,350.0,20.71,,,,,124.0,,,,10.0,,KIGQ 201915Z AUTO 35013G18KT 10SM OVC012 13/11 A3011 RMK AO2  T01250110,,,1200.0,,,50.88,,N,29.46,29.04,,Overcast
KIGQ,10/20/2016 19:35 UTC,30.11,53.78,51.08,93.6,11.5,350.0,20.71,,,,,124.0,,,,10.0,,KIGQ 201935Z AUTO 35010G18KT 10SM OVC012 12/11 A3011 RMK AO2  T01210106,,,1200.0,,,51.96,,N,29.46,29.01,,Overcast
KIGQ,10/20/2016 19:55 UTC,30.11,53.78,50.9,93.6,12.66,360.0,18.41,,,,,124.0,,,,10.0,,KIGQ 201955Z AUTO 36011G16KT 10SM OVC012 12/11 A3011 RMK AO2  T01210105,,,1200.0,,,51.96,,N,29.46,29.01,,Overcast
KIGQ,10/20/2016 20:15 UTC,30.11,53.6,50.54,87.57,12.66,360.0,20.71,,,,,124.0,,,,10.0,,KIGQ 202015Z AUTO 36011G18KT 320V020 10SM OVC012 12/10 A3011 RMK AO2 T01200103,,,1200.0,,,49.96,,N,29.46,29.08,,Overcast
KIGQ,10/20/2016 20:35 UTC,30.11,53.78,50.72,87.57,12.66,350.0,18.41,,,,,124.0,,,,10.0,,KIGQ 202035Z AUTO 35011G16KT 10SM OVC012 12/10 A3011 RMK AO2  T01210104,,,1200.0,,,50.14,,N,29.46,29.08,,Overcast
KIGQ,10/20/2016 20:55 UTC,30.11,53.6,50.36,87.57,12.66,350.0,18.41,,,,,124.0,,,,10.0,,KIGQ 202055Z AUTO 35011G16KT 10SM OVC012 12/10 A3011 RMK AO2  T01200102,,,1200.0,,,49.96,,N,29.46,29.08,,Overcast
KIGQ,10/20/2016 21:15 UTC,30.11,53.42,50.18,87.57,11.5,360.0,23.02,,,,,144.0,,,,10.0,,KIGQ 202115Z AUTO 36010G20KT 10SM OVC014 12/10 A3011 RMK AO2  T01190101,,,1400.0,,,49.79,,N,29.46,29.09,,Overcast
KIGQ,10/20/2016 21:35 UTC,30.11,53.6,50.0,87.57,14.97,350.0,21.85,,,,,143.0,194.0,,,10.0,,KIGQ 202135Z AUTO 35013G19KT 10SM BKN014 OVC019 12/10 A3011 RMK AO2 T01200100,,,1400.0,,,49.96,,N,29.46,29.08,,Overcast
KIGQ,10/20/2016 21:55 UTC,30.11,53.6,49.82,87.57,13.8,360.0,24.16,,,,,164.0,,,,10.0,,KIGQ 202155Z AUTO 36012G21KT 10SM OVC016 12/10 A3011 RMK AO2  T01200099,,,1600.0,,,49.96,,N,29.46,29.08,,Overcast
KIGQ,10/20/2016 22:15 UTC,30.12,53.24,49.28,87.57,11.5,360.0,18.41,,,,,164.0,,,,10.0,,KIGQ 202215Z AUTO 36010G16KT 10SM OVC016 12/10 A3012 RMK AO2  T01180096,,,1600.0,,,49.61,,N,29.47,29.11,,Overcast
KIGQ,10/20/2016 22:35 UTC,30.12,53.06,49.1,87.57,11.5,350.0,21.85,,,,,164.0,,,,10.0,,KIGQ 202235Z AUTO 35010G19KT 10SM OVC016 12/10 A3012 RMK AO2  T01170095,,,1600.0,,,49.43,,N,29.47,29.12,,Overcast
KIGQ,10/20/2016 22:55 UTC,30.12,53.06,48.74,81.88,14.97,350.0,23.02,,,,,164.0,,,,10.0,,KIGQ 202255Z AUTO 35013G20KT 10SM OVC016 12/09 A3012 RMK AO2  T01170093,,,1600.0,,,47.62,,N,29.47,29.18,,Overcast
KIGQ,10/20/2016 23:15 UTC,30.13,52.88,48.2,81.88,13.8,360.0,23.02,,,,,184.0,,,,10.0,,KIGQ 202315Z AUTO 36012G20KT 10SM OVC018 12/09 A3013 RMK AO2  T01160090,,,1800.0,,,47.44,,N,29.47,29.18,,Overcast
KIGQ,10/20/2016 23:35 UTC,30.13,52.7,47.3,81.88,14.97,350.0,24.16,,,,,204.0,,,,10.0,,KIGQ 202335Z AUTO 35013G21KT 10SM OVC020 12/09 A3013 RMK AO2  T01150085,,,2000.0,,,47.26,,N,29.47,29.19,,Overcast
KIGQ,10/20/2016 23:55 UTC,30.13,52.52,46.4,81.75,10.36,360.0,21.85,,,,,224.0,,,,10.0,,KIGQ 202355Z AUTO 36009G19KT 10SM OVC022 11/08 A3013 RMK AO2  T01140080 10131 20114,55.58,52.52,2200.0,,,47.05,,N,29.47,29.2,,Overcast
KIGQ,10/21/2016 00:15 UTC,30.13,52.34,45.86,81.75,13.8,360.0,20.71,,,,,263.0,344.0,,,10.0,,KIGQ 210015Z AUTO 36012G18KT 10SM BKN026 OVC034 11/08 A3013 RMK AO2 T01130077,,,2600.0,,,46.87,,N,29.47,29.21,,Overcast
KIGQ,10/21/2016 00:35 UTC,30.14,52.16,45.68,81.75,11.5,360.0,19.57,,454.0,,,262.0,353.0,,,10.0,,KIGQ 210035Z AUTO 36010G17KT 10SM SCT026 BKN035 OVC045 11/08  A3014 RMK AO2 T01120076,,,3500.0,,,46.69,,N,29.48,29.23,,Overcast
KIGQ,10/21/2016 00:55 UTC,30.14,51.98,45.5,81.75,9.22,350.0,21.85,,474.0,,,262.0,312.0,,,10.0,,KIGQ 210055Z AUTO 35008G19KT 310V020 10SM SCT026 SCT031 OVC047  11/08 A3014 RMK AO2 T01110075,,,4700.0,,,46.52,,N,29.48,29.23,,Overcast
KIGQ,10/21/2016 01:15 UTC,30.14,51.8,44.78,76.35,11.5,360.0,24.16,,474.0,,,242.0,292.0,,,10.0,,KIGQ 210115Z AUTO 36010G21KT 10SM SCT024 SCT029 OVC047 11/07  A3014 RMK AO2 T01100071,,,4700.0,,,44.52,,N,29.48,29.29,,Overcast
KIGQ,10/21/2016 01:35 UTC,30.14,51.8,44.42,76.35,11.5,360.0,20.71,,,,,323.0,474.0,,,10.0,,KIGQ 210135Z AUTO 36010G18KT 10SM BKN032 OVC047 11/07 A3014 RMK AO2 T01100069,,,3200.0,,,44.52,,N,29.48,29.29,,Overcast
KIGQ,10/21/2016 01:55 UTC,30.15,51.44,44.06,76.35,9.22,350.0,17.27,,,,,272.0,344.0,,,10.0,,KIGQ 210155Z AUTO 35008G15KT 10SM SCT027 OVC034 11/07 A3015 RMK AO2 T01080067,,,3400.0,,,44.17,,N,29.49,29.32,,Overcast
KIGQ,10/21/2016 02:15 UTC,30.15,51.26,43.7,76.35,13.8,350.0,18.41,,,,,283.0,364.0,,,10.0,,KIGQ 210215Z AUTO 35012G16KT 10SM BKN028 OVC036 11/07 A3015 RMK AO2 T01070065,,,2800.0,,,44.0,,N,29.49,29.32,,Overcast
KIGQ,10/21/2016 02:35 UTC,30.15,51.26,43.7,76.35,10.36,350.0,21.85,,,,,283.0,334.0,,,10.0,,KIGQ 210235Z AUTO 35009G19KT 10SM BKN028 OVC033 11/07 A3015 RMK AO2 T01070065,,,2800.0,,,44.0,,N,29.49,29.32,,Overcast
KIGQ,10/21/2016 02:55 UTC,30.16,50.9,43.34,71.27,14.97,340.0,,,,,,314.0,,,,10.0,,KIGQ 210255Z AUTO 34013KT 10SM OVC031 11/06 A3016 RMK AO2  T01050063,,,3100.0,,,41.84,,NNW,29.5,29.4,,Overcast
KIGQ,10/21/2016 03:15 UTC,30.16,50.9,42.8,71.27,13.8,350.0,18.41,,,,,294.0,,,,10.0,,KIGQ 210315Z AUTO 35012G16KT 10SM OVC029 11/06 A3016 RMK AO2  T01050060,,,2900.0,,,41.84,,N,29.5,29.4,,Overcast
KIGQ,10/21/2016 03:35 UTC,30.16,50.18,42.44,76.18,9.22,330.0,17.27,,,,,294.0,,,,10.0,,KIGQ 210335Z AUTO 33008G15KT 10SM OVC029 10/06 A3016 RMK AO2  T01010058,,,2900.0,,,42.89,,NNW,29.5,29.37,,Overcast
KIGQ,10/21/2016 03:55 UTC,30.16,50.0,42.26,76.18,9.22,350.0,,,,,,294.0,,,,10.0,,KIGQ 210355Z AUTO 35008KT 10SM OVC029 10/06 A3016 RMK AO2  T01000057,,,2900.0,,,42.72,,N,29.5,29.38,,Overcast
KIGQ,10/21/2016 04:15 UTC,30.15,50.0,42.08,76.18,10.36,350.0,16.11,,,,,313.0,374.0,,,10.0,,KIGQ 210415Z AUTO 35009G14KT 310V020 10SM BKN031 OVC037 10/06  A3015 RMK AO2 T01000056,,,3100.0,,,42.72,,N,29.49,29.37,,Overcast
KIGQ,10/21/2016 04:35 UTC,30.15,50.0,41.72,71.08,8.05,340.0,,,,,,374.0,,,,10.0,,KIGQ 210435Z AUTO 34007KT 310V030 10SM OVC037 10/05 A3015 RMK AO2  T01000054,,,3700.0,,,40.9,,NNW,29.49,29.42,,Overcast
KIGQ,10/21/2016 04:55 UTC,30.15,49.1,41.18,71.08,9.22,320.0,,,,,,314.0,,,,10.0,,KIGQ 210455Z AUTO 32008KT 10SM OVC031 10/05 A3015 RMK AO2  T00950051,,,3100.0,,,40.04,,NW,29.49,29.44,,Overcast
KIGQ,10/21/2016 05:15 UTC,30.14,48.56,40.82,76.02,10.36,330.0,17.27,,,,,294.0,,,,10.0,,KIGQ 210515Z AUTO 33009G15KT 10SM OVC029 09/05 A3014 RMK AO2  T00920049,,,2900.0,,,41.27,,NNW,29.48,29.41,,Overcast
KIGQ,10/21/2016 05:35 UTC,30.14,48.2,40.28,76.02,9.22,320.0,17.27,,,,,294.0,,,,10.0,,KIGQ 210535Z AUTO 32008G15KT 10SM OVC029 09/05 A3014 RMK AO2  T00900046,,,2900.0,,,40.92,,NW,29.48,29.42,,Overcast
KIGQ,10/21/2016 05:55 UTC,30.14,48.02,39.56,70.88,14.97,330.0,,,,,,294.0,,,,10.0,,KIGQ 210555Z AUTO 33013KT 10SM OVC029 09/04 A3014 RMK AO2  T00890042 10113 20089 401490089,52.34,48.02,2900.0,58.82,48.02,38.92,,NNW,29.48,29.47,,Overcast
KIGQ,10/21/2016 06:15 UTC,30.14,47.66,39.2,70.88,10.36,320.0,,,,,,273.0,374.0,,,10.0,,KIGQ 210615Z AUTO 32009KT 10SM BKN027 OVC037 09/04 A3014 RMK AO2  T00870040,,,2700.0,,,38.58,,NW,29.48,29.48,,Overcast
KIGQ,10/21/2016 06:35 UTC,30.14,46.94,38.66,75.84,9.22,330.0,17.27,,,,,272.0,394.0,,,10.0,,KIGQ 210635Z AUTO 33008G15KT 10SM SCT027 OVC039 08/04 A3014 RMK AO2 T00830037,,,3900.0,,,39.63,,NNW,29.48,29.46,,Overcast
KIGQ,10/21/2016 06:55 UTC,30.14,46.4,37.94,70.68,13.8,340.0,18.41,,,,,253.0,414.0,,,10.0,,KIGQ 210655Z AUTO 34012G16KT 10SM BKN025 OVC041 08/03 A3014 RMK AO2 T00800033,,,2500.0,,,37.29,,NNW,29.48,29.52,,Overcast
KIGQ,10/21/2016 07:15 UTC,30.14,46.4,37.58,70.68,11.5,320.0,19.57,,,,,254.0,,,,10.0,,KIGQ 210715Z AUTO 32010G17KT 10SM OVC025 08/03 A3014 RMK AO2  T00800031,,,2500.0,,,37.29,,NW,29.48,29.52,,Overcast
KIGQ,10/21/2016 07:35 UTC,30.13,45.5,37.04,70.68,12.66,320.0,18.41,,,,,274.0,,,,10.0,,KIGQ 210735Z AUTO 32011G16KT 10SM OVC027 08/03 A3013 RMK AO2  T00750028,,,2700.0,,,36.43,,NW,29.47,29.53,,Overcast
KIGQ,10/21/2016 07:55 UTC,30.13,44.78,36.68,75.67,5.75,330.0,17.27,,,,,273.0,,,,10.0,,KIGQ 210755Z AUTO 33005G15KT 10SM BKN027 07/03 A3013 RMK AO2  T00710026,,,2700.0,,,37.48,,NNW,29.47,29.52,,Mostly Cloudy
KIGQ,10/21/2016 08:15 UTC,30.13,44.42,36.68,75.67,8.05,330.0,,,,,,292.0,342.0,,,10.0,,KIGQ 210815Z AUTO 33007KT 10SM SCT029 SCT034 07/03 A3013 RMK AO2  T00690026,,,,,,37.13,41.66,NNW,29.47,29.53,,Partly Cloudy
KIGQ,10/21/2016 08:35 UTC,30.12,44.06,36.68,75.67,9.22,330.0,,,,,,252.0,312.0,,,10.0,,KIGQ 210835Z AUTO 33008KT 10SM SCT025 SCT031 07/03 A3012 RMK AO2  T00670026,,,,,,36.78,40.76,NNW,29.47,29.54,,Partly Cloudy
KIGQ,10/21/2016 08:55 UTC,30.12,44.06,36.68,75.67,9.22,320.0,,,,,,312.0,353.0,,,10.0,,KIGQ 210855Z AUTO 32008KT 10SM SCT031 BKN035 07/03 A3012 RMK AO2  T00670026,,,3500.0,,,36.78,40.76,NW,29.47,29.54,,Mostly Cloudy
KIGQ,10/21/2016 09:15 UTC,30.12,44.06,36.86,75.67,10.36,320.0,17.27,,,,,313.0,,,,10.0,,KIGQ 210915Z AUTO 32009G15KT 10SM BKN031 07/03 A3012 RMK AO2  T00670027,,,3100.0,,,36.78,40.34,NW,29.47,29.54,,Mostly Cloudy
KIGQ,10/21/2016 09:35 UTC,30.13,43.7,36.68,75.67,8.05,320.0,,,,,,312.0,382.0,,,10.0,,KIGQ 210935Z AUTO 32007KT 10SM SCT031 SCT038 07/03 A3013 RMK AO2  T00650026,,,,,,36.43,40.82,NW,29.47,29.55,,Partly Cloudy
KIGQ,10/21/2016 09:55 UTC,30.12,42.8,36.68,81.06,8.05,320.0,,,,,,1.0,,,,10.0,,KIGQ 210955Z AUTO 32007KT 10SM CLR 06/03 A3012 RMK AO2  T00600026,,,,,,37.33,39.76,NW,29.47,29.53,,Clear
KIGQ,10/21/2016 10:15 UTC,30.13,42.98,36.86,81.06,8.05,320.0,,,,,,182.0,242.0,,,10.0,,KIGQ 211015Z AUTO 32007KT 10SM SCT018 SCT024 06/03 A3013 RMK AO2  T00610027,,,,,,37.5,39.97,NW,29.47,29.53,,Partly Cloudy
KIGQ,10/21/2016 10:35 UTC,30.13,43.7,37.4,75.67,9.22,320.0,,,393.0,,,262.0,343.0,,,10.0,,KIGQ 211035Z AUTO 32008KT 10SM SCT026 BKN034 BKN039 07/03  A3013 RMK AO2 T00650030,,,3400.0,,,36.43,40.33,NW,29.47,29.55,,Mostly Cloudy
KIGQ,10/21/2016 10:55 UTC,30.13,43.7,37.76,75.67,9.22,320.0,,,404.0,,,233.0,343.0,,,10.0,,KIGQ 211055Z AUTO 32008KT 10SM BKN023 BKN034 OVC040 07/03  A3013 RMK AO2 T00650032,,,2300.0,,,36.43,40.33,NW,29.47,29.55,,Overcast
KIGQ,10/21/2016 11:15 UTC,30.13,44.06,39.38,81.2,9.22,330.0,,13.0,484.0,,,192.0,233.0,,,10.0,,KIGQ 211115Z AUTO 33008KT 10SM -RA SCT019 BKN023 OVC048 07/04  A3013 RMK AO2 T00670041,,,2300.0,,,38.6,40.76,NNW,29.47,29.5,,Light Rain
KIGQ,10/21/2016 11:35 UTC,30.13,43.88,40.82,87.09,8.05,330.0,,1.0,,,,194.0,,,,10.0,,KIGQ 211135Z AUTO 33007KT 10SM RA OVC019 07/05 A3013 RMK AO2  T00660049,,,1900.0,,,40.24,41.03,NNW,29.47,29.46,,Rain
KIGQ,10/21/2016 11:55 UTC,30.13,44.24,41.72,87.09,9.22,330.0,,1.0,,,,153.0,204.0,,,10.0,,KIGQ 211155Z AUTO 33008KT 10SM RA BKN015 OVC020 07/05 A3013 RMK AO2 T00680054 10089 20060,48.02,42.8,1500.0,,,40.6,40.97,NNW,29.47,29.45,,Rain
KIGQ,10/21/2016 12:15 UTC,30.13,44.06,42.98,93.35,11.5,320.0,,1.0,,,,153.0,224.0,,,7.0,,KIGQ 211215Z AUTO 32010KT 7SM RA BKN015 OVC022 07/06 A3013 RMK AO2  T00670061,,,1500.0,,,42.24,39.96,NW,29.47,29.41,,Rain
KIGQ,10/21/2016 12:35 UTC,30.14,44.24,43.7,100.0,10.36,320.0,,13.0,324.0,,,152.0,223.0,,,7.0,,KIGQ 211235Z AUTO 32009KT 7SM -RA SCT015 BKN022 OVC032 07/07  A3014 RMK AO2 T00680065,,,2200.0,,,44.24,40.56,NW,29.48,29.37,,Light Rain
KIGQ,10/21/2016 12:55 UTC,30.15,44.6,43.88,100.0,9.22,330.0,,13.0,334.0,0.01,,183.0,283.0,,,7.0,,KIGQ 211255Z AUTO 33008KT 7SM -RA BKN018 BKN028 OVC033 07/07  A3015 RMK AO2 P0001 T00700066,,,1800.0,,,44.6,41.4,NNW,29.49,29.37,,Light Rain
KIGQ,10/21/2016 13:15 UTC,30.16,44.78,44.06,100.0,10.36,330.0,,14.0,364.0,0.01,,203.0,273.0,,,10.0,,KIGQ 211315Z AUTO 33009KT 10SM +RA BKN020 BKN027 OVC036 07/07  A3016 RMK AO2 P0001 T00710067,,,2000.0,,,44.78,41.2,NNW,29.5,29.37,,Heavy Rain
KIGQ,10/21/2016 13:35 UTC,30.17,44.6,43.7,100.0,10.36,320.0,,13.0,394.0,0.02,,142.0,233.0,,,7.0,,KIGQ 211335Z AUTO 32009KT 7SM -RA SCT014 BKN023 OVC039 07/07  A3017 RMK AO2 P0002 T00700065,,,2300.0,,,44.6,40.99,NW,29.51,29.39,,Light Rain
KIGQ,10/21/2016 13:55 UTC,30.18,44.96,43.7,100.0,12.66,320.0,18.41,1.0,444.0,0.02,,132.0,193.0,,,10.0,,KIGQ 211355Z AUTO 32011G16KT 10SM RA SCT013 BKN019 OVC044 07/07  A3018 RMK AO2 P0002 T00720065,,,1900.0,,,44.96,40.69,NW,29.52,29.39,,Rain
KIGQ,10/21/2016 14:15 UTC,30.18,44.6,43.16,93.35,12.66,330.0,18.41,13.0,324.0,0.01,,192.0,252.0,,,10.0,,KIGQ 211415Z AUTO 33011G16KT 10SM -RA SCT019 SCT025 OVC032 07/06  A3018 RMK AO2 P0001 T00700062,,,3200.0,,,42.78,40.25,NNW,29.52,29.45,,Light Rain
KIGQ,10/21/2016 14:35 UTC,30.18,45.5,43.52,87.19,9.22,340.0,17.27,1.0,384.0,0.01,,242.0,303.0,,,10.0,,KIGQ 211435Z AUTO 34008G15KT 320V020 10SM RA SCT024 BKN030 OVC038  08/06 A3018 RMK AO2 P0001 T00750064,,,3000.0,,,41.87,,NNW,29.52,29.46,,Rain
KIGQ,10/21/2016 14:55 UTC,30.17,46.58,43.7,93.4,9.22,350.0,,,484.0,0.01,0.04,283.0,393.0,,,10.0,,KIGQ 211455Z AUTO 35008KT 10SM BKN028 BKN039 OVC048 08/07  A3017 RMK AO2 P0001 60004 T00810065,,,2800.0,,,44.76,,N,29.51,29.37,,Overcast
KIGQ,10/21/2016 15:15 UTC,30.17,47.66,44.06,87.28,5.75,340.0,,,,,,284.0,,,,10.0,,KIGQ 211515Z AUTO 34005KT 10SM OVC028 09/07 A3017 RMK AO2  T00870067,,,2800.0,,,44.02,,NNW,29.51,29.38,,Overcast
KIGQ,10/21/2016 15:35 UTC,30.17,49.1,44.6,81.61,8.05,350.0,,,,,,253.0,314.0,,,10.0,,KIGQ 211535Z AUTO 35007KT 10SM BKN025 OVC031 10/07 A3017 RMK AO2  T00950070,,,2500.0,,,43.66,,N,29.51,29.37,,Overcast
KIGQ,10/21/2016 15:55 UTC,30.17,49.28,44.42,81.61,11.5,350.0,21.85,,,,,253.0,373.0,,,10.0,,KIGQ 211555Z AUTO 35010G19KT 10SM BKN025 BKN037 10/07 A3017 RMK AO2 T00960069,,,2500.0,,,43.83,,N,29.51,29.37,,Mostly Cloudy
KIGQ,10/21/2016 16:15 UTC,30.17,51.44,44.6,76.35,12.66,340.0,19.57,,372.0,,,232.0,282.0,,,10.0,,KIGQ 211615Z AUTO 34011G17KT 10SM SCT023 SCT028 SCT037 11/07  A3017 RMK AO2 T01080070,,,,,,44.17,,NNW,29.51,29.34,,Partly Cloudy
KIGQ,10/21/2016 16:35 UTC,30.18,51.44,44.24,76.35,12.66,360.0,19.57,,,,,233.0,,,,10.0,,KIGQ 211635Z AUTO 36011G17KT 330V030 10SM BKN023 11/07 A3018 RMK AO2 T01080068,,,2300.0,,,44.17,,N,29.52,29.35,,Mostly Cloudy
KIGQ,10/21/2016 16:55 UTC,30.17,52.52,43.52,71.27,13.8,360.0,17.27,,,,,253.0,303.0,,,10.0,,KIGQ 211655Z AUTO 36012G15KT 10SM BKN025 BKN030 11/06 A3017 RMK AO2 T01140064,,,2500.0,,,43.4,,N,29.51,29.35,,Mostly Cloudy
KIGQ,10/21/2016 17:15 UTC,30.17,51.62,43.16,71.27,11.5,340.0,18.41,,,,,283.0,,,,10.0,,KIGQ 211715Z AUTO 34010G16KT 310V010 10SM BKN028 11/06 A3017 RMK AO2 T01090062,,,2800.0,,,42.53,,NNW,29.51,29.38,,Mostly Cloudy
KIGQ,10/21/2016 17:35 UTC,30.16,51.62,42.62,71.27,9.22,10.0,,,,,,283.0,353.0,,,10.0,,KIGQ 211735Z AUTO 01008KT 340V050 10SM BKN028 BKN035 11/06  A3016 RMK AO2 T01090059,,,2800.0,,,42.53,,N,29.5,29.37,,Mostly Cloudy
KIGQ,10/21/2016 17:55 UTC,30.16,51.08,42.08,71.27,9.22,360.0,17.27,,,,,323.0,413.0,0.04,,10.0,,KIGQ 211755Z AUTO 36008G15KT 10SM BKN032 BKN041 11/06 A3016 RMK AO2 60004 T01060056 10116 20067,52.88,44.06,3200.0,,,42.01,,N,29.5,29.39,,Mostly Cloudy
KIGQ,10/21/2016 18:15 UTC,30.16,51.26,41.72,66.49,9.22,10.0,17.27,,454.0,,,322.0,382.0,,,10.0,,KIGQ 211815Z AUTO 01008G15KT 10SM SCT032 SCT038 OVC045 11/05  A3016 RMK AO2 T01070054,,,4500.0,,,40.37,,N,29.5,29.43,,Overcast
KIGQ,10/21/2016 18:35 UTC,30.15,51.8,41.9,71.27,10.36,40.0,16.11,,,,,322.0,433.0,,,10.0,,KIGQ 211835Z AUTO 04009G14KT 10SM SCT032 BKN043 11/06 A3015 RMK AO2 T01100055,,,4300.0,,,42.7,,NE,29.49,29.35,,Mostly Cloudy
KIGQ,10/21/2016 18:55 UTC,30.14,51.8,41.0,66.49,8.05,360.0,,,,,,392.0,483.0,,,10.0,,KIGQ 211855Z AUTO 36007KT 10SM SCT039 BKN048 11/05 A3014 RMK AO2  T01100050,,,4800.0,,,40.89,,N,29.48,29.39,,Mostly Cloudy
KIGQ,10/21/2016 19:15 UTC,30.14,52.52,40.82,66.49,9.22,30.0,,,,,,372.0,484.0,,,10.0,,KIGQ 211915Z AUTO 03008KT 10SM SCT037 OVC048 11/05 A3014 RMK AO2  T01140049,,,4800.0,,,41.57,,NNE,29.48,29.37,,Overcast
KIGQ,10/21/2016 19:35 UTC,30.13,51.08,40.1,66.49,8.05,10.0,,,,,,382.0,503.0,,,10.0,,KIGQ 211935Z AUTO 01007KT 320V040 10SM SCT038 BKN050 11/05  A3013 RMK AO2 T01060045,,,5000.0,,,40.2,,N,29.47,29.4,,Mostly Cloudy
KIGQ,10/21/2016 19:55 UTC,30.13,50.9,39.56,62.0,8.05,20.0,,,,,,503.0,,,,10.0,,KIGQ 211955Z AUTO 02007KT 10SM BKN050 11/04 A3013 RMK AO2  T01050042,,,5000.0,,,38.22,,NNE,29.47,29.45,,Mostly Cloudy
KIGQ,10/21/2016 20:15 UTC,30.13,50.0,39.02,66.27,8.05,360.0,,,,,,484.0,,,,10.0,,KIGQ 212015Z AUTO 36007KT 10SM OVC048 10/04 A3013 RMK AO2  T01000039,,,4800.0,,,39.08,,N,29.47,29.44,,Overcast
KIGQ,10/21/2016 20:35 UTC,30.13,50.0,39.02,66.27,9.22,20.0,16.11,,,,,484.0,,,,10.0,,KIGQ 212035Z AUTO 02008G14KT 10SM OVC048 10/04 A3013 RMK AO2  T01000039,,,4800.0,,,39.08,,NNE,29.47,29.44,,Overcast
KIGQ,10/21/2016 20:55 UTC,30.13,49.82,39.56,66.27,10.36,30.0,,,,,,484.0,,,,10.0,,KIGQ 212055Z AUTO 03009KT 10SM OVC048 10/04 A3013 RMK AO2  T00990042,,,4800.0,,,38.91,,NNE,29.47,29.45,,Overcast
KIGQ,10/21/2016 21:15 UTC,30.14,49.46,38.66,66.27,12.66,10.0,18.41,,,,,504.0,,,,10.0,,KIGQ 212115Z AUTO 01011G16KT 10SM OVC050 10/04 A3014 RMK AO2  T00970037,,,5000.0,,,38.57,,N,29.48,29.47,,Overcast
KIGQ,10/21/2016 21:35 UTC,30.14,49.1,38.48,66.27,9.22,10.0,,,,,,504.0,,,,10.0,,KIGQ 212135Z AUTO 01008KT 10SM OVC050 10/04 A3014 RMK AO2  T00950036,,,5000.0,,,38.22,,N,29.48,29.48,,Overcast
KIGQ,10/21/2016 21:55 UTC,30.14,48.74,37.76,66.05,12.66,10.0,18.41,,,,,503.0,604.0,,,10.0,,KIGQ 212155Z AUTO 01011G16KT 10SM BKN050 OVC060 09/03 A3014 RMK AO2 T00930032,,,5000.0,,,37.79,,N,29.48,29.49,,Overcast
KIGQ,10/21/2016 22:15 UTC,30.14,48.56,37.58,66.05,8.05,360.0,16.11,,,,,503.0,604.0,,,10.0,,KIGQ 212215Z AUTO 36007G14KT 10SM BKN050 OVC060 09/03 A3014 RMK AO2 T00920031,,,5000.0,,,37.62,,N,29.48,29.49,,Overcast
KIGQ,10/21/2016 22:35 UTC,30.14,48.38,37.4,66.05,6.91,350.0,,,,,,502.0,604.0,,,10.0,,KIGQ 212235Z AUTO 35006KT 10SM SCT050 OVC060 09/03 A3014 RMK AO2  T00910030,,,6000.0,,,37.45,,N,29.48,29.5,,Overcast
KIGQ,10/21/2016 22:55 UTC,30.14,48.38,37.22,66.05,10.36,10.0,,,,,,502.0,604.0,,,10.0,,KIGQ 212255Z AUTO 01009KT 10SM SCT050 OVC060 09/03 A3014 RMK AO2  T00910029,,,6000.0,,,37.45,,N,29.48,29.5,,Overcast
KIGQ,10/21/2016 23:15 UTC,30.14,48.2,37.04,66.05,9.22,10.0,,,,,,503.0,704.0,,,10.0,,KIGQ 212315Z AUTO 01008KT 10SM BKN050 OVC070 09/03 A3014 RMK AO2  T00900028,,,5000.0,,,37.28,,N,29.48,29.5,,Overcast
KIGQ,10/21/2016 23:35 UTC,30.14,47.48,37.22,66.05,4.61,340.0,,,704.0,,,502.0,602.0,,,10.0,,KIGQ 212335Z AUTO 34004KT 10SM SCT050 SCT060 OVC070 09/03  A3014 RMK AO2 T00860029,,,7000.0,,,36.59,,NNW,29.48,29.52,,Overcast
KIGQ,10/21/2016 23:55 UTC,30.15,46.76,36.14,65.82,6.91,350.0,,,,,,462.0,703.0,,,10.0,,KIGQ 212355Z AUTO 35006KT 10SM SCT046 BKN070 08/02 A3015 RMK AO2  T00820023 10115 20082,52.7,46.76,7000.0,,,35.81,,N,29.49,29.56,,Mostly Cloudy
KIGQ,10/22/2016 00:15 UTC,30.15,45.86,34.88,65.82,8.05,330.0,,,,,,462.0,,,,10.0,,KIGQ 220015Z AUTO 33007KT 10SM SCT046 08/02 A3015 RMK AO2  T00770016,,,,,,34.96,,NNW,29.49,29.58,,Partly Cloudy
KIGQ,10/22/2016 00:35 UTC,30.15,44.6,34.52,65.6,4.61,330.0,,,,,,1.0,,,,10.0,,KIGQ 220035Z AUTO 33004KT 10SM CLR 07/01 A3015 RMK AO2  T00700014,,,,,,33.67,,NNW,29.49,29.61,,Clear
KIGQ,10/22/2016 00:55 UTC,30.14,43.88,34.16,65.6,3.44,330.0,,,,,,1.0,,,,10.0,,KIGQ 220055Z AUTO 33003KT 10SM CLR 07/01 A3014 RMK AO2  T00660012,,,,,,32.98,,NNW,29.48,29.62,,Clear
KIGQ,10/22/2016 01:15 UTC,30.14,43.7,34.16,65.6,3.44,330.0,,,,,,1.0,,,,10.0,,KIGQ 220115Z AUTO 33003KT 10SM CLR 07/01 A3014 RMK AO2  T00650012,,,,,,32.81,,NNW,29.48,29.62,,Clear
KIGQ,10/22/2016 01:35 UTC,30.13,42.8,34.34,70.27,3.44,300.0,,,,,,1.0,,,,10.0,,KIGQ 220135Z AUTO 30003KT 10SM CLR 06/01 A3013 RMK AO2  T00600013,,,,,,33.68,,WNW,29.47,29.6,,Clear
KIGQ,10/22/2016 01:55 UTC,30.13,41.36,34.34,75.32,3.44,300.0,,,,,,1.0,,,,10.0,,KIGQ 220155Z AUTO 30003KT 10SM CLR 05/01 A3013 RMK AO2  T00520013,,,,,,34.05,,WNW,29.47,29.61,,Clear
KIGQ,10/22/2016 02:15 UTC,30.13,40.64,34.34,75.32,4.61,300.0,,,,,,1.0,,,,10.0,,KIGQ 220215Z AUTO 30004KT 10SM CLR 05/01 A3013 RMK AO2  T00480013,,,,,,33.35,,WNW,29.47,29.63,,Clear
KIGQ,10/22/2016 02:35 UTC,30.13,40.28,33.8,75.32,4.61,310.0,,,,,,1.0,,,,10.0,,KIGQ 220235Z AUTO 31004KT 10SM CLR 05/01 A3013 RMK AO2  T00460010,,,,,,33.0,,NW,29.47,29.63,,Clear
KIGQ,10/22/2016 02:55 UTC,30.13,40.28,33.8,75.32,3.44,310.0,,,,,,1.0,,,,10.0,,KIGQ 220255Z AUTO 31003KT 10SM CLR 05/01 A3013 RMK AO2  T00460010,,,,,,33.0,,NW,29.47,29.63,,Clear
KIGQ,10/22/2016 03:15 UTC,30.13,40.28,33.8,75.32,3.44,300.0,,,,,,1.0,,,,10.0,,KIGQ 220315Z AUTO 30003KT 10SM CLR 05/01 A3013 RMK AO2  T00460010,,,,,,33.0,,WNW,29.47,29.63,,Clear
KIGQ,10/22/2016 03:35 UTC,30.12,40.1,33.62,77.44,3.44,320.0,,,,,,1.0,,,,10.0,,KIGQ 220335Z AUTO 32003KT 10SM CLR 05/01 A3012 RMK AO2  T00450009,,,,,,33.53,,NW,29.47,29.63,,Clear
KIGQ,10/22/2016 03:55 UTC,30.13,40.64,33.8,75.32,3.44,320.0,,,,,,1.0,,,,10.0,,KIGQ 220355Z AUTO 32003KT 10SM CLR 05/01 A3013 RMK AO2  T00480010,,,,,,33.35,,NW,29.47,29.63,,Clear
KIGQ,10/22/2016 04:15 UTC,30.13,40.1,33.62,75.32,5.75,320.0,,,,,,1.0,,,,10.0,,KIGQ 220415Z AUTO 32005KT 10SM CLR 05/01 A3013 RMK AO2  T00450009,,,,,,32.83,,NW,29.47,29.64,,Clear
KIGQ,10/22/2016 04:35 UTC,30.12,40.28,33.26,75.32,5.75,310.0,,,,,,1.0,,,,10.0,,KIGQ 220435Z AUTO 31005KT 10SM CLR 05/01 A3012 RMK AO2  T00460007,,,,,,33.0,,NW,29.47,29.63,,Clear
KIGQ,10/22/2016 04:55 UTC,30.12,41.0,33.26,75.32,6.91,320.0,,,,,,1.0,,,,10.0,,KIGQ 220455Z AUTO 32006KT 10SM CLR 05/01 A3012 RMK AO2  T00500007,,,,,,33.7,,NW,29.47,29.62,,Clear
KIGQ,10/22/2016 05:15 UTC,30.12,40.82,33.26,75.32,6.91,320.0,,,,,,1.0,,,,10.0,,KIGQ 220515Z AUTO 32006KT 10SM CLR 05/01 A3012 RMK AO2  T00490007,,,,,,33.53,,NW,29.47,29.62,,Clear
KIGQ,10/22/2016 05:35 UTC,30.12,41.0,33.08,75.32,8.05,320.0,,,,,,1.0,,,,10.0,,KIGQ 220535Z AUTO 32007KT 10SM CLR 05/01 A3012 RMK AO2  T00500006,,,,,,33.7,37.65,NW,29.47,29.62,,Clear
KIGQ,10/22/2016 05:55 UTC,30.12,40.46,33.08,75.32,6.91,330.0,,,,,,1.0,,,,10.0,,KIGQ 220555Z AUTO 33006KT 10SM CLR 05/01 A3012 RMK AO2 T00470006  10082 20045 401160045,46.76,40.1,,52.88,40.1,33.18,,NNW,29.47,29.63,,Clear
KIGQ,10/22/2016 06:15 UTC,30.13,40.1,33.26,75.32,6.91,320.0,,,,,,1.0,,,,10.0,,KIGQ 220615Z AUTO 32006KT 10SM CLR 05/01 A3013 RMK AO2  T00450007,,,,,,32.83,,NW,29.47,29.64,,Clear
KIGQ,10/22/2016 06:35 UTC,30.12,39.74,32.9,80.78,3.44,330.0,,,,,,1.0,,,,10.0,,KIGQ 220635Z AUTO 33003KT 10SM CLR 04/01 A3012 RMK AO2  T00430005,,,,,,34.25,,NNW,29.47,29.62,,Clear
KIGQ,10/22/2016 06:55 UTC,30.12,39.2,33.08,80.78,0.0,0.0,,,,,,1.0,,,,10.0,,KIGQ 220655Z AUTO 00000KT 10SM CLR 04/01 A3012 RMK AO2  T00400006,,,,,,33.72,,N,29.47,29.63,,Clear
KIGQ,10/22/2016 07:15 UTC,30.13,38.48,33.26,80.78,3.44,290.0,,,,,,1.0,,,,10.0,,KIGQ 220715Z AUTO 29003KT 10SM CLR 04/01 A3013 RMK AO2  T00360007,,,,,,33.02,,WNW,29.47,29.65,,Clear
KIGQ,10/22/2016 07:35 UTC,30.13,38.3,33.26,80.78,4.61,300.0,,,,,,1.0,,,,10.0,,KIGQ 220735Z AUTO 30004KT 10SM CLR 04/01 A3013 RMK AO2  T00350007,,,,,,32.84,,WNW,29.47,29.65,,Clear
KIGQ,10/22/2016 07:55 UTC,30.12,37.76,33.08,86.68,3.44,310.0,,,,,,1.0,,,,10.0,,KIGQ 220755Z AUTO 31003KT 10SM CLR 03/01 A3012 RMK AO2  T00320006,,,,,,34.1,,NW,29.47,29.63,,Clear
KIGQ,10/22/2016 08:15 UTC,30.13,37.94,33.08,86.68,3.44,300.0,,,,,,1.0,,,,10.0,,KIGQ 220815Z AUTO 30003KT 10SM CLR 03/01 A3013 RMK AO2  T00330006,,,,,,34.28,,WNW,29.47,29.63,,Clear
KIGQ,10/22/2016 08:35 UTC,30.13,38.12,33.08,81.87,3.44,320.0,,,,,,1.0,,,,10.0,,KIGQ 220835Z AUTO 32003KT 10SM CLR 03/01 A3013 RMK AO2  T00340006,,,,,,33.01,,NW,29.47,29.65,,Clear
KIGQ,10/22/2016 08:55 UTC,30.12,38.3,33.08,80.78,0.0,0.0,,,,,,1202.0,,,,10.0,,KIGQ 220855Z AUTO 00000KT 10SM SCT120 04/01 A3012 RMK AO2  T00350006,,,,,,32.84,,N,29.47,29.65,,Partly Cloudy
KIGQ,10/22/2016 09:15 UTC,30.12,37.22,33.62,86.68,0.0,0.0,,,,,,1103.0,,,,10.0,,KIGQ 220915Z AUTO 00000KT 10SM BKN110 03/01 A3012 RMK AO2  T00290009,,,11000.0,,,33.57,,N,29.47,29.65,,Mostly Cloudy
KIGQ,10/22/2016 09:35 UTC,30.12,35.6,33.26,93.08,0.0,0.0,,,,,,1104.0,,,,10.0,,KIGQ 220935Z AUTO 00000KT 10SM OVC110 02/01 A3012 RMK AO2  T00200007,,,11000.0,,,33.77,,N,29.47,29.65,,Overcast
KIGQ,10/22/2016 09:55 UTC,30.11,36.32,33.26,93.08,0.0,0.0,,,,,,1204.0,,,,10.0,,KIGQ 220955Z AUTO 00000KT 10SM OVC120 02/01 A3011 RMK AO2  T00240007,,,12000.0,,,34.49,,N,29.46,29.63,,Overcast
KIGQ,10/22/2016 10:15 UTC,30.12,35.78,33.8,93.08,0.0,0.0,,,,,,1204.0,,,,10.0,,KIGQ 221015Z AUTO 00000KT 10SM OVC120 02/01 A3012 RMK AO2  T00210010,,,12000.0,,,33.95,,N,29.47,29.65,,Overcast
KIGQ,10/22/2016 10:35 UTC,30.12,36.68,34.16,86.68,0.0,0.0,,,,,,1202.0,,,,10.0,,KIGQ 221035Z AUTO 00000KT 10SM SCT120 03/01 A3012 RMK AO2  T00260012,,,,,,33.04,,N,29.47,29.66,,Partly Cloudy
KIGQ,10/22/2016 10:55 UTC,30.12,34.88,33.44,93.08,0.0,0.0,,,,,,1202.0,,,,10.0,,KIGQ 221055Z AUTO 00000KT 10SM SCT120 02/01 A3012 RMK AO2  T00160008,,,,,,33.06,,N,29.47,29.67,,Partly Cloudy
KIGQ,10/22/2016 11:15 UTC,30.12,34.88,32.9,93.08,0.0,0.0,,,,,,1.0,,,,10.0,,KIGQ 221115Z AUTO 00000KT 10SM CLR 02/01 A3012 RMK AO2  T00160005,,,,,,33.06,,N,29.47,29.67,,Clear
KIGQ,10/22/2016 11:35 UTC,30.11,34.52,32.9,100.0,0.0,0.0,,,,,,1.0,,,,10.0,,KIGQ 221135Z AUTO 00000KT 10SM CLR 01/01 A3011 RMK AO2  T00140005,,,,,,34.52,,N,29.46,29.64,,Clear
KIGQ,10/22/2016 11:55 UTC,30.11,34.7,33.44,93.08,0.0,0.0,,,,,,1.0,,,0.04,10.0,,KIGQ 221155Z AUTO 00000KT 10SM CLR 02/01 A3011 RMK AO2 70004  T00150008 10046 20010,40.28,33.8,,,,32.88,,N,29.46,29.67,,Clear
KIGQ,10/22/2016 12:15 UTC,30.11,34.16,33.08,100.0,3.44,270.0,,,,,,1.0,,,,10.0,,KIGQ 221215Z AUTO 27003KT 10SM CLR 01/01 A3011 RMK AO2  T00120006,,,,,,34.16,,W,29.46,29.65,,Clear
KIGQ,10/22/2016 12:35 UTC,30.12,34.52,33.08,100.0,0.0,0.0,,,,,,1.0,,,,10.0,,KIGQ 221235Z AUTO 00000KT 10SM CLR 01/01 A3012 RMK AO2  T00140006,,,,,,34.52,,N,29.47,29.65,,Clear
KIGQ,10/22/2016 12:55 UTC,30.12,35.96,33.44,93.08,5.75,270.0,,,,,,1.0,,,,10.0,,KIGQ 221255Z AUTO 27005KT 10SM CLR 02/01 A3012 RMK AO2  T00220008,,,,,,34.13,,W,29.47,29.65,,Clear
KIGQ,10/22/2016 13:15 UTC,30.12,38.66,34.88,86.79,0.0,0.0,,,,,,1.0,,,,10.0,,KIGQ 221315Z AUTO 00000KT 10SM CLR 04/02 A3012 RMK AO2  T00370016,,,,,,35.02,,N,29.47,29.61,,Clear
KIGQ,10/22/2016 13:35 UTC,30.12,41.54,35.6,80.92,0.0,0.0,,,,,,1002.0,,,,10.0,,KIGQ 221335Z AUTO 00000KT 10SM SCT100 05/02 A3012 RMK AO2  T00530020,,,,,,36.05,,N,29.47,29.57,,Partly Cloudy
KIGQ,10/22/2016 13:55 UTC,30.13,43.88,36.68,75.67,4.61,280.0,,,,,,1002.0,,,,10.0,,KIGQ 221355Z AUTO 28004KT 10SM SCT100 07/03 A3013 RMK AO2  T00660026,,,,,,36.61,,W,29.47,29.54,,Partly Cloudy
KIGQ,10/22/2016 14:15 UTC,30.13,45.5,35.96,65.82,8.05,290.0,,,,,,1.0,,,,10.0,,KIGQ 221415Z AUTO 29007KT 10SM CLR 08/02 A3013 RMK AO2  T00750022,,,,,,34.61,,WNW,29.47,29.57,,Clear
KIGQ,10/22/2016 14:35 UTC,30.13,46.76,35.42,65.82,5.75,290.0,,,,,,1.0,,,,10.0,,KIGQ 221435Z AUTO 29005KT 10SM CLR 08/02 A3013 RMK AO2  T00820019,,,,,,35.81,,WNW,29.47,29.54,,Clear
KIGQ,10/22/2016 14:55 UTC,30.13,48.02,35.42,61.51,4.61,290.0,,,,,,702.0,,,,10.0,,KIGQ 221455Z AUTO 29004KT 10SM SCT070 09/02 A3013 RMK AO2  T00890019,,,,,,35.29,,WNW,29.47,29.54,,Partly Cloudy
KIGQ,10/22/2016 15:15 UTC,30.14,49.64,35.06,57.52,6.91,290.0,,,,,,1.0,,,,10.0,,KIGQ 221515Z AUTO 29006KT 10SM CLR 10/02 A3014 RMK AO2  T00980017,,,,,,35.11,,WNW,29.48,29.54,,Clear
KIGQ,10/22/2016 15:35 UTC,30.14,50.36,34.34,53.53,3.44,290.0,,,,,,1.0,,,,10.0,,KIGQ 221535Z AUTO 29003KT 10SM CLR 10/01 A3014 RMK AO2  T01020013,,,,,,33.97,,WNW,29.48,29.56,,Clear
KIGQ,10/22/2016 15:55 UTC,30.13,51.26,35.24,53.81,4.61,270.0,,,,,,703.0,,,,10.0,,KIGQ 221555Z AUTO 27004KT 10SM BKN070 11/02 A3013 RMK AO2  T01070018,,,7000.0,,,34.94,,W,29.47,29.52,,Mostly Cloudy
KIGQ,10/22/2016 16:15 UTC,30.13,51.26,37.4,57.78,8.05,260.0,,,,,,704.0,,,,10.0,,KIGQ 221615Z AUTO 26007KT 10SM OVC070 11/03 A3013 RMK AO2  T01070030,,,7000.0,,,36.75,,W,29.47,29.48,,Overcast
KIGQ,10/22/2016 16:35 UTC,30.13,50.72,35.6,57.52,8.05,260.0,,,,,,704.0,,,,10.0,,KIGQ 221635Z AUTO 26007KT 10SM OVC070 10/02 A3013 RMK AO2  T01040020,,,7000.0,,,36.13,,W,29.47,29.5,,Overcast
KIGQ,10/22/2016 16:55 UTC,30.12,51.62,36.32,53.81,10.36,260.0,,,,,,704.0,,,,10.0,,KIGQ 221655Z AUTO 26009KT 10SM OVC070 11/02 A3012 RMK AO2  T01090024,,,7000.0,,,35.28,,W,29.47,29.51,,Overcast
KIGQ,10/22/2016 17:15 UTC,30.11,52.88,36.86,54.08,10.36,240.0,,,,,,702.0,1003.0,,,10.0,,KIGQ 221715Z AUTO 24009KT 10SM SCT070 BKN100 12/03 A3011 RMK AO2  T01160027,,,10000.0,,,36.58,,WSW,29.46,29.47,,Mostly Cloudy
KIGQ,10/22/2016 17:35 UTC,30.1,52.7,37.04,54.08,5.75,240.0,,,,,,1004.0,,,,10.0,,KIGQ 221735Z AUTO 24005KT 10SM OVC100 12/03 A3010 RMK AO2  T01150028,,,10000.0,,,36.41,,WSW,29.45,29.46,,Overcast
KIGQ,10/22/2016 17:55 UTC,30.09,54.5,39.38,54.35,8.05,250.0,,,,,,1003.0,,,,10.0,,KIGQ 221755Z AUTO 25007KT 10SM BKN100 13/04 A3009 RMK AO2  T01250041 10125 20011,54.5,33.98,10000.0,,,38.22,,WSW,29.44,29.4,,Mostly Cloudy
KIGQ,10/22/2016 18:15 UTC,30.07,55.58,39.92,54.35,6.91,250.0,,,,,,1003.0,,,,10.0,,KIGQ 221815Z AUTO 25006KT 10SM BKN100 13/04 A3007 RMK AO2  T01310044,,,10000.0,,,39.23,,WSW,29.42,29.34,,Mostly Cloudy
KIGQ,10/22/2016 18:35 UTC,30.06,55.4,39.56,54.35,8.05,220.0,,,,,,1003.0,,,,10.0,,KIGQ 221835Z AUTO 22007KT 10SM BKN100 13/04 A3006 RMK AO2  T01300042,,,10000.0,,,39.06,,SW,29.41,29.34,,Mostly Cloudy
KIGQ,10/22/2016 18:55 UTC,30.05,57.2,41.18,54.62,8.05,240.0,,,,,,1002.0,,,,10.0,,KIGQ 221855Z AUTO 24007KT 10SM SCT100 14/05 A3005 RMK AO2  T01400051,,,,,,40.87,,WSW,29.4,29.27,,Partly Cloudy
KIGQ,10/22/2016 19:15 UTC,30.05,56.84,40.46,54.62,6.91,240.0,,,,,,1.0,,,,10.0,,KIGQ 221915Z AUTO 24006KT 10SM CLR 14/05 A3005 RMK AO2  T01380047,,,,,,40.53,,WSW,29.4,29.28,,Clear
KIGQ,10/22/2016 19:35 UTC,30.04,58.28,41.18,51.21,11.5,250.0,,,,,,1.0,,,,10.0,,KIGQ 221935Z AUTO 25010KT 10SM CLR 15/05 A3004 RMK AO2  T01460051,,,,,,40.2,,WSW,29.39,29.27,,Clear
KIGQ,10/22/2016 19:55 UTC,30.03,58.46,41.9,54.89,11.5,250.0,,,,,,1.0,,,,10.0,,KIGQ 221955Z AUTO 25010KT 10SM CLR 15/06 A3003 RMK AO2  T01470055,,,,,,42.18,,WSW,29.38,29.2,,Clear
KIGQ,10/22/2016 20:15 UTC,30.03,58.64,41.72,51.21,10.36,230.0,,,,,,702.0,,,,10.0,,KIGQ 222015Z AUTO 23009KT 210V270 10SM SCT070 15/05 A3003 RMK AO2  T01480054,,,,,,40.54,,SW,29.38,29.25,,Partly Cloudy
KIGQ,10/22/2016 20:35 UTC,30.02,59.9,42.08,51.48,11.5,240.0,,,,,,703.0,,,,10.0,,KIGQ 222035Z AUTO 24010KT 10SM BKN070 16/06 A3002 RMK AO2  T01550056,,,7000.0,,,41.84,,WSW,29.37,29.19,,Mostly Cloudy
KIGQ,10/22/2016 20:55 UTC,30.01,59.54,42.98,54.89,9.22,230.0,,,,,,702.0,803.0,,,10.0,,KIGQ 222055Z AUTO 23008KT 10SM SCT070 BKN080 15/06 A3001 RMK AO2  T01530061,,,8000.0,,,43.19,,SW,29.36,29.15,,Mostly Cloudy
KIGQ,10/22/2016 21:15 UTC,30.01,59.36,42.62,54.89,11.5,210.0,,,,,,802.0,,,,10.0,,KIGQ 222115Z AUTO 21010KT 10SM SCT080 15/06 A3001 RMK AO2  T01520059,,,,,,43.02,,SSW,29.36,29.15,,Partly Cloudy
KIGQ,10/22/2016 21:35 UTC,30.01,59.36,42.98,54.89,14.97,230.0,,,,,,802.0,,,,10.0,,KIGQ 222135Z AUTO 23013KT 10SM SCT080 15/06 A3001 RMK AO2  T01520061,,,,,,43.02,,SW,29.36,29.15,,Partly Cloudy
KIGQ,10/22/2016 21:55 UTC,30.0,58.46,42.8,54.89,11.5,220.0,,,,,,1.0,,,,10.0,,KIGQ 222155Z AUTO 22010KT 10SM CLR 15/06 A3000 RMK AO2  T01470060,,,,,,42.18,,SW,29.35,29.17,,Clear
KIGQ,10/22/2016 22:15 UTC,30.0,58.1,42.8,54.89,8.05,240.0,,,,,,1.0,,,,10.0,,KIGQ 222215Z AUTO 24007KT 10SM CLR 15/06 A3000 RMK AO2  T01450060,,,,,,41.84,,WSW,29.35,29.19,,Clear
KIGQ,10/22/2016 22:35 UTC,30.0,56.66,43.34,58.55,6.91,220.0,,,,,,1.0,,,,10.0,,KIGQ 222235Z AUTO 22006KT 10SM CLR 14/06 A3000 RMK AO2  T01370063,,,,,,42.18,,SW,29.35,29.19,,Clear
KIGQ,10/22/2016 22:55 UTC,30.0,54.68,43.7,66.93,5.75,210.0,,,,,,1.0,,,,10.0,,KIGQ 222255Z AUTO 21005KT 10SM CLR 13/07 A3000 RMK AO2  T01260065,,,,,,43.81,,SSW,29.35,29.16,,Clear
KIGQ,10/22/2016 23:15 UTC,30.0,51.08,42.8,71.27,5.75,200.0,,,,,,1.0,,,,10.0,,KIGQ 222315Z AUTO 20005KT 10SM CLR 11/06 A3000 RMK AO2  T01060060,,,,,,42.01,,SSW,29.35,29.24,,Clear
KIGQ,10/22/2016 23:35 UTC,30.0,50.9,42.8,71.27,4.61,220.0,,,,,,1.0,,,,10.0,,KIGQ 222335Z AUTO 22004KT 10SM CLR 11/06 A3000 RMK AO2  T01050060,,,,,,41.84,,SW,29.35,29.24,,Clear
KIGQ,10/22/2016 23:55 UTC,30.0,51.44,43.7,76.35,5.75,210.0,,,,,,1.0,,,,10.0,,KIGQ 222355Z AUTO 21005KT 10SM CLR 11/07 A3000 RMK AO2 T01080065  10155 20097,59.9,49.46,,,,44.17,,SSW,29.35,29.17,,Clear
KIGQ,10/23/2016 00:15 UTC,30.0,49.82,43.52,76.18,4.61,210.0,,,,,,1.0,,,,10.0,,KIGQ 230015Z AUTO 21004KT 10SM CLR 10/06 A3000 RMK AO2  T00990064,,,,,,42.54,,SSW,29.35,29.23,,Clear
KIGQ,10/23/2016 00:35 UTC,30.0,45.5,41.72,81.34,5.75,190.0,,,,,,1.0,,,,10.0,,KIGQ 230035Z AUTO 19005KT 10SM CLR 08/05 A3000 RMK AO2  T00750054,,,,,,40.05,,S,29.35,29.33,,Clear
KIGQ,10/23/2016 00:55 UTC,30.0,46.4,42.08,87.19,6.91,200.0,,,,,,1.0,,,,10.0,,KIGQ 230055Z AUTO 20006KT 10SM CLR 08/06 A3000 RMK AO2  T00800056,,,,,,42.75,,SSW,29.35,29.26,,Clear
KIGQ,10/23/2016 01:15 UTC,30.0,48.02,42.98,81.48,4.61,210.0,,,,,,1.0,,,,10.0,,KIGQ 230115Z AUTO 21004KT 10SM CLR 09/06 A3000 RMK AO2  T00890061,,,,,,42.56,,SSW,29.35,29.25,,Clear
KIGQ,10/23/2016 01:35 UTC,30.0,48.2,43.16,81.48,5.75,200.0,,,,,,1.0,,,,10.0,,KIGQ 230135Z AUTO 20005KT 10SM CLR 09/06 A3000 RMK AO2  T00900062,,,,,,42.74,,SSW,29.35,29.24,,Clear
KIGQ,10/23/2016 01:55 UTC,30.0,49.28,43.7,81.61,6.91,220.0,,,,,,1.0,,,,10.0,,KIGQ 230155Z AUTO 22006KT 10SM CLR 10/07 A3000 RMK AO2  T00960065,,,,,,43.83,,SW,29.35,29.2,,Clear
KIGQ,10/23/2016 02:15 UTC,30.0,49.1,43.7,81.61,6.91,210.0,,,,,,1.0,,,,10.0,,KIGQ 230215Z AUTO 21006KT 10SM CLR 10/07 A3000 RMK AO2  T00950065,,,,,,43.66,,SSW,29.35,29.21,,Clear
KIGQ,10/23/2016 02:35 UTC,30.0,48.56,43.7,87.28,5.75,220.0,,,,,,1.0,,,,10.0,,KIGQ 230235Z AUTO 22005KT 10SM CLR 09/07 A3000 RMK AO2  T00920065,,,,,,44.91,,SW,29.35,29.18,,Clear
KIGQ,10/23/2016 02:55 UTC,30.0,48.56,43.7,87.28,6.91,230.0,,,,,,1.0,,,,10.0,,KIGQ 230255Z AUTO 23006KT 10SM CLR 09/07 A3000 RMK AO2  T00920065,,,,,,44.91,,SW,29.35,29.18,,Clear
KIGQ,10/23/2016 03:15 UTC,30.01,49.1,43.88,81.61,6.91,240.0,,,,,,1.0,,,,10.0,,KIGQ 230315Z AUTO 24006KT 10SM CLR 10/07 A3001 RMK AO2  T00950066,,,,,,43.66,,WSW,29.36,29.22,,Clear
KIGQ,10/23/2016 03:35 UTC,30.01,48.56,43.88,87.28,6.91,240.0,,,,,,1.0,,,,10.0,,KIGQ 230335Z AUTO 24006KT 10SM CLR 09/07 A3001 RMK AO2  T00920066,,,,,,44.91,,WSW,29.36,29.19,,Clear
KIGQ,10/23/2016 03:55 UTC,30.01,47.84,43.7,87.28,5.75,230.0,,,,,,1.0,,,,10.0,,KIGQ 230355Z AUTO 23005KT 10SM CLR 09/07 A3001 RMK AO2  T00880065,,,,,,44.2,,SW,29.36,29.22,,Clear
KIGQ,10/23/2016 04:15 UTC,30.01,46.94,43.7,93.4,5.75,220.0,,,,,,1.0,,,,10.0,,KIGQ 230415Z AUTO 22005KT 10SM CLR 08/07 A3001 RMK AO2  T00830065,,,,,,45.11,,SW,29.36,29.2,,Clear
KIGQ,10/23/2016 04:35 UTC,30.01,46.04,43.16,87.19,4.61,210.0,,,,,,1.0,,,,10.0,,KIGQ 230435Z AUTO 21004KT 10SM CLR 08/06 A3001 RMK AO2  T00780062,,,,,,42.4,,SSW,29.36,29.28,,Clear
KIGQ,10/23/2016 04:55 UTC,30.01,45.5,42.98,87.19,4.61,220.0,,,,,,1.0,,,,10.0,,KIGQ 230455Z AUTO 22004KT 10SM CLR 08/06 A3001 RMK AO2  T00750061,,,,,,41.87,,SW,29.36,29.3,,Clear
KIGQ,10/23/2016 05:15 UTC,30.01,45.5,43.16,87.19,5.75,220.0,,,,,,1.0,,,,10.0,,KIGQ 230515Z AUTO 22005KT 10SM CLR 08/06 A3001 RMK AO2  T00750062,,,,,,41.87,,SW,29.36,29.3,,Clear
KIGQ,10/23/2016 05:35 UTC,30.01,45.5,43.16,87.19,5.75,220.0,,,,,,1.0,,,,10.0,,KIGQ 230535Z AUTO 22005KT 10SM CLR 08/06 A3001 RMK AO2  T00750062,,,,,,41.87,,SW,29.36,29.3,,Clear
KIGQ,10/23/2016 05:55 UTC,30.01,45.68,43.16,87.19,5.75,230.0,,,,,,1.0,,,,10.0,,KIGQ 230555Z AUTO 23005KT 10SM CLR 08/06 A3001 RMK AO2 T00760062  10110 20074 401550010,51.8,45.32,,59.9,33.8,42.05,,SW,29.36,29.29,,Clear
KIGQ,10/23/2016 06:15 UTC,30.02,45.86,43.34,87.19,4.61,230.0,,,,,,1.0,,,,10.0,,KIGQ 230615Z AUTO 23004KT 10SM CLR 08/06 A3002 RMK AO2  T00770063,,,,,,42.22,,SW,29.37,29.3,,Clear
KIGQ,10/23/2016 06:35 UTC,30.02,46.04,43.88,93.4,4.61,230.0,,,,,,1.0,,,,10.0,,KIGQ 230635Z AUTO 23004KT 10SM CLR 08/07 A3002 RMK AO2  T00780066,,,,,,44.22,,SW,29.37,29.24,,Clear
KIGQ,10/23/2016 06:55 UTC,30.02,43.34,42.26,100.0,0.0,0.0,,,,,,1.0,,,,10.0,,KIGQ 230655Z AUTO 00000KT 10SM CLR 06/06 A3002 RMK AO2  T00630057,,,,,,43.34,,N,29.37,29.29,,Clear
KIGQ,10/23/2016 07:15 UTC,30.02,42.98,41.9,100.0,3.44,200.0,,,,,,1.0,,,,10.0,,KIGQ 230715Z AUTO 20003KT 10SM CLR 06/06 A3002 RMK AO2  T00610055,,,,,,42.98,,SSW,29.37,29.3,,Clear
KIGQ,10/23/2016 07:35 UTC,30.02,42.08,41.0,93.3,3.44,200.0,,,,,,1.0,,,,10.0,,KIGQ 230735Z AUTO 20003KT 10SM CLR 06/05 A3002 RMK AO2  T00560050,,,,,,40.26,,SSW,29.37,29.37,,Clear
KIGQ,10/23/2016 07:55 UTC,30.02,42.08,41.72,93.3,3.44,190.0,,,,,,1.0,,,,10.0,,KIGQ 230755Z AUTO 19003KT 10SM CLR 06/05 A3002 RMK AO2  T00560054,,,,,,40.26,,S,29.37,29.37,,Clear
KIGQ,10/23/2016 08:15 UTC,30.02,41.9,41.54,93.3,4.61,190.0,,,,,,1.0,,,,10.0,,KIGQ 230815Z AUTO 19004KT 10SM CLR 06/05 A3002 RMK AO2  T00550053,,,,,,40.08,,S,29.37,29.38,,Clear
KIGQ,10/23/2016 08:35 UTC,30.03,41.18,40.64,100.0,3.44,200.0,,,,,,1.0,,,,10.0,,KIGQ 230835Z AUTO 20003KT 10SM CLR 05/05 A3003 RMK AO2  T00510048,,,,,,41.18,,SSW,29.38,29.37,,Clear
KIGQ,10/23/2016 08:55 UTC,30.02,41.18,41.18,100.0,4.61,190.0,,,,,,1.0,,,,10.0,,KIGQ 230855Z AUTO 19004KT 10SM CLR 05/05 A3002 RMK AO2  T00510051,,,,,,41.18,,S,29.37,29.36,,Clear
KIGQ,10/23/2016 09:15 UTC,30.02,41.72,41.54,100.0,3.44,190.0,,,,,,1.0,,,,10.0,,KIGQ 230915Z AUTO 19003KT 10SM CLR 05/05 A3002 RMK AO2  T00540053,,,,,,41.72,,S,29.37,29.34,,Clear
KIGQ,10/23/2016 09:35 UTC,30.02,42.44,42.08,100.0,0.0,0.0,,,,,,1.0,,,,10.0,,KIGQ 230935Z AUTO 00000KT 10SM CLR 06/06 A3002 RMK AO2  T00580056,,,,,,42.44,,N,29.37,29.32,,Clear
KIGQ,10/23/2016 09:55 UTC,30.01,41.18,41.0,100.0,3.44,190.0,,,,,,1.0,,,,10.0,,KIGQ 230955Z AUTO 19003KT 10SM CLR 05/05 A3001 RMK AO2  T00510050,,,,,,41.18,,S,29.36,29.35,,Clear
KIGQ,10/23/2016 10:15 UTC,30.01,41.0,41.0,100.0,3.44,170.0,,,,,,1.0,,,,10.0,,KIGQ 231015Z AUTO 17003KT 10SM CLR 05/05 A3001 RMK AO2  T00500050,,,,,,41.0,,S,29.36,29.36,,Clear
KIGQ,10/23/2016 10:35 UTC,30.01,40.28,40.28,100.0,4.61,180.0,,,,,,1.0,,,,10.0,,KIGQ 231035Z AUTO 18004KT 10SM CLR 05/05 A3001 RMK AO2  T00460046,,,,,,40.28,,S,29.36,29.38,,Clear
KIGQ,10/23/2016 10:55 UTC,30.01,40.46,40.46,100.0,3.44,180.0,,,,,,1.0,,,,10.0,,KIGQ 231055Z AUTO 18003KT 10SM CLR 05/05 A3001 RMK AO2  T00470047,,,,,,40.46,,S,29.36,29.37,,Clear
KIGQ,10/23/2016 11:15 UTC,30.0,40.64,40.64,100.0,4.61,180.0,,,,,,1.0,,,,10.0,,KIGQ 231115Z AUTO 18004KT 10SM CLR 05/05 A3000 RMK AO2  T00480048,,,,,,40.64,,S,29.35,29.36,,Clear
KIGQ,10/23/2016 11:35 UTC,30.0,40.82,40.64,100.0,4.61,190.0,,,,,,1.0,,,,10.0,,KIGQ 231135Z AUTO 19004KT 10SM CLR 05/05 A3000 RMK AO2  T00490048,,,,,,40.82,,S,29.35,29.35,,Clear
KIGQ,10/23/2016 11:55 UTC,29.99,40.46,40.46,100.0,4.61,200.0,,,,,,1.0,,,,10.0,,KIGQ 231155Z AUTO 20004KT 10SM CLR 05/05 A2999 RMK AO2 T00470047  10078 20045,46.04,40.1,,,,40.46,,SSW,29.34,29.35,,Clear
KIGQ,10/23/2016 12:15 UTC,29.99,41.0,40.82,100.0,4.61,180.0,,,,,,1.0,,,,10.0,,KIGQ 231215Z AUTO 18004KT 10SM CLR 05/05 A2999 RMK AO2  T00500049,,,,,,41.0,,S,29.34,29.34,,Clear
KIGQ,10/23/2016 12:35 UTC,29.99,41.9,41.54,93.3,4.61,180.0,,,,,,1.0,,,,10.0,,KIGQ 231235Z AUTO 18004KT 10SM CLR 06/05 A2999 RMK AO2  T00550053,,,,,,40.08,,S,29.34,29.35,,Clear
KIGQ,10/23/2016 12:55 UTC,29.99,43.16,42.8,100.0,3.44,170.0,,,,,,1.0,,,,10.0,,KIGQ 231255Z AUTO 17003KT 10SM CLR 06/06 A2999 RMK AO2  T00620060,,,,,,43.16,,S,29.34,29.27,,Clear
KIGQ,10/23/2016 13:15 UTC,29.98,45.5,44.42,93.4,3.44,190.0,,,,,,1.0,,,,10.0,,KIGQ 231315Z AUTO 19003KT 10SM CLR 08/07 A2998 RMK AO2  T00750069,,,,,,43.68,,S,29.33,29.22,,Clear
KIGQ,10/23/2016 13:35 UTC,29.99,47.66,45.68,93.45,5.75,220.0,,,,,,1.0,,,,10.0,,KIGQ 231335Z AUTO 22005KT 10SM CLR 09/08 A2999 RMK AO2  T00870076,,,,,,45.84,,SW,29.34,29.15,,Clear
KIGQ,10/23/2016 13:55 UTC,29.99,49.64,46.58,87.38,6.91,220.0,,,,,,1.0,,,,10.0,,KIGQ 231355Z AUTO 22006KT 10SM CLR 10/08 A2999 RMK AO2  T00980081,,,,,,46.0,,SW,29.34,29.13,,Clear
KIGQ,10/23/2016 14:15 UTC,29.99,51.8,47.84,87.48,5.75,220.0,,,,,,1.0,,,,10.0,,KIGQ 231415Z AUTO 22005KT 10SM CLR 11/09 A2999 RMK AO2  T01100088,,,,,,48.16,,SW,29.34,29.04,,Clear
KIGQ,10/23/2016 14:35 UTC,29.98,53.6,48.02,81.88,6.91,210.0,,,,,,1.0,,,,10.0,,KIGQ 231435Z AUTO 21006KT 10SM CLR 12/09 A2998 RMK AO2  T01200089,,,,,,48.14,,SSW,29.33,29.01,,Clear
KIGQ,10/23/2016 14:55 UTC,29.97,54.86,49.1,82.01,8.05,190.0,,,,,,1.0,,,,10.0,,KIGQ 231455Z AUTO 19007KT 10SM CLR 13/10 A2997 RMK AO2  T01270095,,,,,,49.42,,S,29.32,28.95,,Clear
KIGQ,10/23/2016 15:15 UTC,29.95,56.48,49.82,76.85,8.05,190.0,,,,,,1.0,,,,10.0,,KIGQ 231515Z AUTO 19007KT 10SM CLR 14/10 A2995 RMK AO2  T01360099,,,,,,49.24,,S,29.3,28.92,,Clear
KIGQ,10/23/2016 15:35 UTC,29.95,58.46,50.72,72.04,11.5,200.0,,,,,,1.0,,,,10.0,,KIGQ 231535Z AUTO 20010KT 10SM CLR 15/10 A2995 RMK AO2  T01470104,,,,,,49.41,,SSW,29.3,28.89,,Clear
KIGQ,10/23/2016 15:55 UTC,29.95,60.26,51.8,72.23,10.36,230.0,17.27,,,,,1.0,,,,10.0,,KIGQ 231555Z AUTO 23009G15KT 10SM CLR 16/11 A2995 RMK AO2  T01570110,,,,,,51.21,,SW,29.3,28.81,,Clear
KIGQ,10/23/2016 16:15 UTC,29.94,61.34,52.16,72.23,10.36,210.0,,,,,,1.0,,,,10.0,,KIGQ 231615Z AUTO 21009KT 10SM CLR 16/11 A2994 RMK AO2  T01630112,,,,,,52.25,,SSW,29.29,28.75,,Clear
KIGQ,10/23/2016 16:35 UTC,29.93,62.6,52.7,72.42,12.66,210.0,,,,,,1.0,,,,10.0,,KIGQ 231635Z AUTO 21011KT 10SM CLR 17/12 A2993 RMK AO2  T01700115,,,,,,53.54,,SSW,29.28,28.67,,Clear
KIGQ,10/23/2016 16:55 UTC,29.91,64.4,53.42,67.99,17.27,210.0,20.71,,,,,1.0,,,,10.0,,KIGQ 231655Z AUTO 21015G18KT 10SM CLR 18/12 A2991 RMK AO2  T01800119,,,,,,53.54,,SSW,29.26,28.63,,Clear
KIGQ,10/23/2016 17:15 UTC,29.9,66.02,53.78,63.87,18.41,210.0,23.02,,,,,1.0,,,,10.0,,KIGQ 231715Z AUTO 21016G20KT 10SM CLR 19/12 A2990 RMK AO2  T01890121,,,,,,53.36,,SSW,29.25,28.61,,Clear
KIGQ,10/23/2016 17:35 UTC,29.89,67.82,54.5,64.1,17.27,240.0,20.71,,,,,1.0,,,,10.0,,KIGQ 231735Z AUTO 24015G18KT 10SM CLR 20/13 A2989 RMK AO2  T01990125,,,,,,55.18,,WSW,29.24,28.5,,Clear
KIGQ,10/23/2016 17:55 UTC,29.88,68.0,53.42,60.03,16.11,240.0,24.16,,,,,1.0,,,,10.0,,KIGQ 231755Z AUTO 24014G21KT 10SM CLR 20/12 A2988 RMK AO2  T02000119 10201 20049,68.18,40.82,,,,53.54,,WSW,29.23,28.57,,Clear
KIGQ,10/23/2016 18:15 UTC,29.87,69.8,54.68,60.27,14.97,240.0,20.71,,,,,1.0,,,,10.0,,KIGQ 231815Z AUTO 24013G18KT 10SM CLR 21/13 A2987 RMK AO2  T02100126,,,,,,55.35,,WSW,29.22,28.46,,Clear
KIGQ,10/23/2016 18:35 UTC,29.87,70.52,54.86,60.27,19.57,230.0,23.02,,,,,1.0,,,,10.0,,KIGQ 231835Z AUTO 23017G20KT 10SM CLR 21/13 A2987 RMK AO2  T02140127,,,,,,56.03,,SW,29.22,28.42,,Clear
KIGQ,10/23/2016 18:55 UTC,29.86,71.24,55.04,56.7,17.27,240.0,25.32,,,,,1.0,,,,10.0,,KIGQ 231855Z AUTO 24015G22KT 10SM CLR 22/13 A2986 RMK AO2  T02180128,,,,,,55.02,,WSW,29.21,28.45,,Clear
KIGQ,10/23/2016 19:15 UTC,29.86,71.6,54.5,56.7,20.71,240.0,25.32,,,,,1.0,,,,10.0,,KIGQ 231915Z AUTO 24018G22KT 10SM CLR 22/13 A2986 RMK AO2  T02200125,,,,,,55.36,,WSW,29.21,28.43,,Clear
KIGQ,10/23/2016 19:35 UTC,29.86,72.32,54.68,56.7,20.71,250.0,29.93,,,,,1.0,,,,10.0,,KIGQ 231935Z AUTO 25018G26KT 10SM CLR 22/13 A2986 RMK AO2  T02240126,,,,,,56.03,,WSW,29.21,28.39,,Clear
KIGQ,10/23/2016 19:55 UTC,29.86,71.96,54.5,56.7,25.32,270.0,33.38,,,,,1.0,,,,10.0,,KIGQ 231955Z AUTO 27022G29KT 10SM CLR 22/13 A2986 RMK AO2  T02220125,,,,,,55.69,,W,29.21,28.41,,Clear
KIGQ,10/23/2016 20:15 UTC,29.86,72.5,55.22,53.36,18.41,250.0,26.46,,,,,1.0,,,,10.0,,KIGQ 232015Z AUTO 25016G23KT 10SM CLR 23/13 A2986 RMK AO2  T02250129,,,,,,54.52,,WSW,29.21,28.46,,Clear
KIGQ,10/23/2016 20:35 UTC,29.86,72.32,55.04,56.7,23.02,250.0,29.93,,,,,1.0,,,,10.0,,KIGQ 232035Z AUTO 25020G26KT 10SM CLR 22/13 A2986 RMK AO2  T02240128,,,,,,56.03,,WSW,29.21,28.39,,Clear
KIGQ,10/23/2016 20:55 UTC,29.86,69.98,54.5,60.27,20.71,250.0,26.46,,,,,1.0,,,,10.0,,KIGQ 232055Z AUTO 25018G23KT 10SM CLR 21/13 A2986 RMK AO2  T02110125,,,,,,55.52,,WSW,29.21,28.44,,Clear
KIGQ,10/23/2016 21:15 UTC,29.86,70.16,54.68,60.27,17.27,260.0,23.02,,,,,1.0,,,,10.0,,KIGQ 232115Z AUTO 26015G20KT 10SM CLR 21/13 A2986 RMK AO2  T02120126,,,,,,55.69,,W,29.21,28.43,,Clear
KIGQ,10/23/2016 21:35 UTC,29.87,70.7,54.86,56.7,21.85,260.0,28.77,,,,,1.0,,,,10.0,,KIGQ 232135Z AUTO 26019G25KT 10SM CLR 22/13 A2987 RMK AO2  T02150127,,,,,,54.51,,W,29.22,28.49,,Clear
KIGQ,10/23/2016 21:55 UTC,29.87,70.7,53.96,53.1,19.57,260.0,29.93,,,,,1.0,,,,10.0,,KIGQ 232155Z AUTO 26017G26KT 10SM CLR 22/12 A2987 RMK AO2  T02150122,,,,,,52.71,,W,29.22,28.57,,Clear
KIGQ,10/23/2016 22:15 UTC,29.88,69.98,52.7,56.44,19.57,270.0,25.32,,,,,1.0,,,,10.0,,KIGQ 232215Z AUTO 27017G22KT 10SM CLR 21/12 A2988 RMK AO2  T02110115,,,,,,53.71,,W,29.23,28.54,,Clear
KIGQ,10/23/2016 22:35 UTC,29.89,68.72,51.8,56.19,19.57,260.0,24.16,,,,,1.0,,,,10.0,,KIGQ 232235Z AUTO 26017G21KT 10SM CLR 20/11 A2989 RMK AO2  T02040110,,,,,,52.41,,W,29.24,28.62,,Clear
KIGQ,10/23/2016 22:55 UTC,29.9,67.64,51.8,56.19,12.66,270.0,21.85,,,,,1.0,,,,10.0,,KIGQ 232255Z AUTO 27011G19KT 10SM CLR 20/11 A2990 RMK AO2  T01980110,,,,,,51.4,,W,29.25,28.68,,Clear
KIGQ,10/23/2016 23:15 UTC,29.91,66.2,51.26,59.79,12.66,260.0,,,,,,1.0,,,,10.0,,KIGQ 232315Z AUTO 26011KT 10SM CLR 19/11 A2991 RMK AO2  T01900107,,,,,,51.73,,W,29.26,28.69,,Clear
KIGQ,10/23/2016 23:35 UTC,29.92,65.84,49.82,55.93,12.66,270.0,19.57,,,,,1.0,,,,10.0,,KIGQ 232335Z AUTO 27011G17KT 10SM CLR 19/10 A2992 RMK AO2  T01880099,,,,,,49.58,,W,29.27,28.79,,Clear
KIGQ,10/23/2016 23:55 UTC,29.93,64.4,49.1,59.54,10.36,270.0,,,,,,1.0,,,,10.0,,KIGQ 232355Z AUTO 27009KT 10SM CLR 18/10 A2993 RMK AO2 T01800095  10226 20180,72.68,64.4,,,,49.92,,W,29.28,28.8,,Clear
KIGQ,10/24/2016 00:15 UTC,29.94,64.04,48.38,55.67,9.22,280.0,,,,,,1.0,,,,10.0,,KIGQ 240015Z AUTO 28008KT 10SM CLR 18/09 A2994 RMK AO2  T01780091,,,,,,47.77,,W,29.29,28.89,,Clear
KIGQ,10/24/2016 00:35 UTC,29.95,63.68,48.2,55.67,10.36,280.0,,,,,,1.0,,,,10.0,,KIGQ 240035Z AUTO 28009KT 10SM CLR 18/09 A2995 RMK AO2  T01760090,,,,,,47.43,,W,29.3,28.91,,Clear
KIGQ,10/24/2016 00:55 UTC,29.96,62.96,47.48,59.3,8.05,290.0,,,,,,1.0,,,,10.0,,KIGQ 240055Z AUTO 29007KT 10SM CLR 17/09 A2996 RMK AO2  T01720086,,,,,,48.45,,WNW,29.31,28.9,,Clear
KIGQ,10/24/2016 01:15 UTC,29.98,62.06,46.4,55.41,5.75,290.0,,,,,,1.0,,,,10.0,,KIGQ 240115Z AUTO 29005KT 10SM CLR 17/08 A2998 RMK AO2  T01670080,,,,,,45.79,,WNW,29.33,29.01,,Clear
KIGQ,10/24/2016 01:35 UTC,29.99,61.7,44.24,51.76,9.22,300.0,,,,,,1.0,,,,10.0,,KIGQ 240135Z AUTO 30008KT 10SM CLR 17/07 A2999 RMK AO2  T01650068,,,,,,43.66,,WNW,29.34,29.09,,Clear
KIGQ,10/24/2016 01:55 UTC,30.0,62.24,42.08,48.31,8.05,310.0,,,,,,1.0,,,,10.0,,KIGQ 240155Z AUTO 31007KT 10SM CLR 17/06 A3000 RMK AO2  T01680056,,,,,,42.35,,NW,29.35,29.14,,Clear
KIGQ,10/24/2016 02:15 UTC,30.01,62.24,40.82,45.07,9.22,330.0,,,,,,1.0,,,,10.0,,KIGQ 240215Z AUTO 33008KT 10SM CLR 17/05 A3001 RMK AO2  T01680049,,,,,,40.54,,NNW,29.36,29.2,,Clear
KIGQ,10/24/2016 02:35 UTC,30.03,60.98,41.72,48.03,11.5,340.0,,,,,,1.0,,,,10.0,,KIGQ 240235Z AUTO 34010KT 300V010 10SM CLR 16/05 A3003 RMK AO2  T01610054,,,,,,41.04,,NNW,29.38,29.22,,Clear
KIGQ,10/24/2016 02:55 UTC,30.05,60.98,44.24,55.15,14.97,10.0,21.85,,,,,1.0,,,,10.0,,KIGQ 240255Z AUTO 01013G19KT 10SM CLR 16/07 A3005 RMK AO2  T01610068,,,,,,44.66,,N,29.4,29.13,,Clear
KIGQ,10/24/2016 03:15 UTC,30.06,57.02,54.14,87.75,12.66,10.0,24.16,,,,,122.0,,,,10.0,,KIGQ 240315Z AUTO 01011G21KT 10SM SCT012 14/12 A3006 RMK AO2  T01390123,,,,,,53.39,,N,29.41,28.87,,Partly Cloudy
KIGQ,10/24/2016 03:35 UTC,30.08,56.3,53.6,87.75,13.8,10.0,19.57,,,,,123.0,,,,10.0,,KIGQ 240335Z AUTO 01012G17KT 10SM BKN012 14/12 A3008 RMK AO2  T01350120,,,1200.0,,,52.68,,N,29.43,28.92,,Mostly Cloudy
KIGQ,10/24/2016 03:55 UTC,30.09,55.94,53.6,93.65,8.05,360.0,16.11,,,,,142.0,,,,10.0,,KIGQ 240355Z AUTO 36007G14KT 10SM SCT014 13/12 A3009 RMK AO2  T01330120,,,,,,54.12,,N,29.44,28.88,,Partly Cloudy
KIGQ,10/24/2016 04:15 UTC,30.1,55.76,53.42,93.65,8.05,360.0,16.11,,,,,163.0,,,,10.0,,KIGQ 240415Z AUTO 36007G14KT 330V030 10SM BKN016 13/12 A3010 RMK AO2 T01320119,,,1600.0,,,53.94,,N,29.45,28.9,,Mostly Cloudy
KIGQ,10/24/2016 04:35 UTC,30.1,55.4,51.98,87.66,8.05,360.0,,,,,,163.0,,,,10.0,,KIGQ 240435Z AUTO 36007KT 10SM BKN016 13/11 A3010 RMK AO2  T01300111,,,1600.0,,,51.76,,N,29.45,28.99,,Mostly Cloudy
KIGQ,10/24/2016 04:55 UTC,30.11,54.68,51.44,87.66,8.05,360.0,,,,,,182.0,,,,10.0,,KIGQ 240455Z AUTO 36007KT 320V020 10SM SCT018 13/11 A3011 RMK AO2  T01260108,,,,,,51.05,,N,29.46,29.03,,Partly Cloudy
KIGQ,10/24/2016 05:15 UTC,30.12,54.5,51.08,87.66,5.75,360.0,,,,,,202.0,252.0,,,10.0,,KIGQ 240515Z AUTO 36005KT 10SM SCT020 SCT025 13/11 A3012 RMK AO2  T01250106,,,,,,50.88,,N,29.47,29.05,,Partly Cloudy
KIGQ,10/24/2016 05:35 UTC,30.13,54.68,50.72,82.01,10.36,360.0,,,,,,223.0,273.0,,,10.0,,KIGQ 240535Z AUTO 36009KT 10SM BKN022 BKN027 13/10 A3013 RMK AO2  T01260104,,,2200.0,,,49.24,,N,29.47,29.11,,Mostly Cloudy
KIGQ,10/24/2016 05:55 UTC,30.13,54.68,50.36,82.01,8.05,10.0,,,,,,223.0,,,,10.0,,KIGQ 240555Z AUTO 01007KT 10SM BKN022 13/10 A3013 RMK AO2  T01260102 10180 20125 402260045,64.4,54.5,2200.0,72.68,40.1,49.24,,N,29.47,29.11,,Mostly Cloudy
KIGQ,10/24/2016 06:15 UTC,30.15,54.68,50.0,82.01,9.22,360.0,,,362.0,,,202.0,252.0,,,10.0,,KIGQ 240615Z AUTO 36008KT 10SM SCT020 SCT025 SCT036 13/10  A3015 RMK AO2 T01260100,,,,,,49.24,,N,29.49,29.13,,Partly Cloudy
KIGQ,10/24/2016 06:35 UTC,30.16,54.14,49.28,87.57,5.75,360.0,,,,,,222.0,,,,10.0,,KIGQ 240635Z AUTO 36005KT 10SM SCT022 12/10 A3016 RMK AO2  T01230096,,,,,,50.49,,N,29.5,29.1,,Partly Cloudy
KIGQ,10/24/2016 06:55 UTC,30.16,53.96,48.92,81.88,5.75,360.0,,,,,,243.0,,,,10.0,,KIGQ 240655Z AUTO 36005KT 10SM BKN024 12/09 A3016 RMK AO2  T01220094,,,2400.0,,,48.5,,N,29.5,29.17,,Mostly Cloudy
KIGQ,10/24/2016 07:15 UTC,30.16,53.96,49.1,87.57,5.75,350.0,,,,,,242.0,363.0,,,10.0,,KIGQ 240715Z AUTO 35005KT 10SM SCT024 BKN036 12/10 A3016 RMK AO2  T01220095,,,3600.0,,,50.32,,N,29.5,29.11,,Mostly Cloudy
KIGQ,10/24/2016 07:35 UTC,30.17,53.78,49.1,87.57,12.66,350.0,19.57,,,,,212.0,363.0,,,10.0,,KIGQ 240735Z AUTO 35011G17KT 10SM SCT021 BKN036 12/10 A3017 RMK AO2 T01210095,,,3600.0,,,50.14,,N,29.51,29.13,,Mostly Cloudy
KIGQ,10/24/2016 07:55 UTC,30.18,53.96,50.0,87.57,12.66,10.0,19.57,,313.0,,,213.0,263.0,,,10.0,,KIGQ 240755Z AUTO 01011G17KT 10SM BKN021 BKN026 BKN031 12/10  A3018 RMK AO2 T01220100,,,2100.0,,,50.32,,N,29.52,29.13,,Mostly Cloudy
KIGQ,10/24/2016 08:15 UTC,30.19,53.96,49.28,87.57,10.36,360.0,18.41,,,,,193.0,264.0,,,10.0,,KIGQ 240815Z AUTO 36009G16KT 10SM BKN019 OVC026 12/10 A3019 RMK AO2 T01220096,,,1900.0,,,50.32,,N,29.53,29.14,,Overcast
KIGQ,10/24/2016 08:35 UTC,30.19,53.24,47.84,81.88,11.5,360.0,18.41,,,,,213.0,314.0,,,10.0,,KIGQ 240835Z AUTO 36010G16KT 10SM BKN021 OVC031 12/09 A3019 RMK AO2 T01180088,,,2100.0,,,47.79,,N,29.53,29.23,,Overcast
KIGQ,10/24/2016 08:55 UTC,30.21,51.98,47.66,87.48,10.36,350.0,19.57,,,,,212.0,312.0,,,10.0,,KIGQ 240855Z AUTO 35009G17KT 10SM SCT021 SCT031 11/09 A3021 RMK AO2 T01110087,,,,,,48.34,,N,29.55,29.25,,Partly Cloudy
KIGQ,10/24/2016 09:15 UTC,30.21,51.26,46.76,81.75,6.91,350.0,,,,,,1.0,,,,10.0,,KIGQ 240915Z AUTO 35006KT 10SM CLR 11/08 A3021 RMK AO2  T01070082,,,,,,45.81,,N,29.55,29.33,,Clear
KIGQ,10/24/2016 09:35 UTC,30.22,50.36,46.04,87.38,4.61,350.0,,,,,,1.0,,,,10.0,,KIGQ 240935Z AUTO 35004KT 10SM CLR 10/08 A3022 RMK AO2  T01020078,,,,,,46.71,,N,29.56,29.32,,Clear
KIGQ,10/24/2016 09:55 UTC,30.23,50.36,45.68,87.38,5.75,350.0,,,,,,1.0,,,,10.0,,KIGQ 240955Z AUTO 35005KT 10SM CLR 10/08 A3023 RMK AO2  T01020076,,,,,,46.71,,N,29.57,29.33,,Clear
KIGQ,10/24/2016 10:15 UTC,30.24,50.0,45.5,87.38,5.75,350.0,,,,,,1.0,,,,10.0,,KIGQ 241015Z AUTO 35005KT 10SM CLR 10/08 A3024 RMK AO2  T01000075,,,,,,46.36,,N,29.58,29.36,,Clear
KIGQ,10/24/2016 10:35 UTC,30.25,49.82,44.78,81.61,3.44,350.0,,,,,,1.0,,,,10.0,,KIGQ 241035Z AUTO 35003KT 10SM CLR 10/07 A3025 RMK AO2  T00990071,,,,,,44.36,,N,29.59,29.43,,Clear
KIGQ,10/24/2016 10:55 UTC,30.27,49.46,43.88,81.61,4.61,340.0,,,,,,1.0,,,,10.0,,KIGQ 241055Z AUTO 34004KT 10SM CLR 10/07 A3027 RMK AO2  T00970066,,,,,,44.01,,NNW,29.61,29.46,,Clear
KIGQ,10/24/2016 11:15 UTC,30.27,49.1,43.7,81.61,4.61,350.0,,,,,,1.0,,,,10.0,,KIGQ 241115Z AUTO 35004KT 10SM CLR 10/07 A3027 RMK AO2  T00950065,,,,,,43.66,,N,29.61,29.47,,Clear
KIGQ,10/24/2016 11:35 UTC,30.28,48.38,43.34,81.48,4.61,330.0,,,,,,1.0,,,,10.0,,KIGQ 241135Z AUTO 33004KT 10SM CLR 09/06 A3028 RMK AO2  T00910063,,,,,,42.91,,NNW,29.62,29.51,,Clear
KIGQ,10/24/2016 11:55 UTC,30.29,47.48,42.8,81.48,4.61,330.0,,,,,,1.0,,,,10.0,,KIGQ 241155Z AUTO 33004KT 10SM CLR 09/06 A3029 RMK AO2 T00860060  10126 20086,54.68,47.48,,,,42.03,,NNW,29.63,29.55,,Clear
KIGQ,10/24/2016 12:15 UTC,30.29,46.4,42.26,87.19,5.75,320.0,,,,,,1.0,,,,10.0,,KIGQ 241215Z AUTO 32005KT 10SM CLR 08/06 A3029 RMK AO2  T00800057,,,,,,42.75,,NW,29.63,29.54,,Clear
KIGQ,10/24/2016 12:35 UTC,30.3,46.22,42.8,87.19,5.75,320.0,,,,,,1.0,,,,10.0,,KIGQ 241235Z AUTO 32005KT 10SM CLR 08/06 A3030 RMK AO2  T00790060,,,,,,42.58,,NW,29.64,29.56,,Clear
KIGQ,10/24/2016 12:55 UTC,30.31,46.4,42.98,87.19,5.75,320.0,,,,,,1.0,,,,10.0,,KIGQ 241255Z AUTO 32005KT 10SM CLR 08/06 A3031 RMK AO2  T00800061,,,,,,42.75,,NW,29.65,29.56,,Clear
KIGQ,10/24/2016 13:15 UTC,30.32,47.3,43.16,81.48,6.91,320.0,,,,,,1.0,,,,10.0,,KIGQ 241315Z AUTO 32006KT 10SM CLR 09/06 A3032 RMK AO2  T00850062,,,,,,41.86,,NW,29.66,29.59,,Clear
KIGQ,10/24/2016 13:35 UTC,30.34,48.56,43.88,87.28,5.75,330.0,,,,,,1.0,,,,10.0,,KIGQ 241335Z AUTO 33005KT 10SM CLR 09/07 A3034 RMK AO2  T00920066,,,,,,44.91,,NNW,29.68,29.52,,Clear
KIGQ,10/24/2016 13:55 UTC,30.34,50.0,44.06,81.61,8.05,340.0,,,,,,1.0,,,,10.0,,KIGQ 241355Z AUTO 34007KT 10SM CLR 10/07 A3034 RMK AO2  T01000067,,,,,,44.54,,NNW,29.68,29.51,,Clear
KIGQ,10/24/2016 14:15 UTC,30.36,50.9,43.88,76.35,10.36,350.0,,,,,,1.0,,,,10.0,,KIGQ 241415Z AUTO 35009KT 10SM CLR 11/07 A3036 RMK AO2  T01050066,,,,,,43.65,,N,29.7,29.55,,Clear
KIGQ,10/24/2016 14:35 UTC,30.36,51.98,44.24,76.35,6.91,340.0,,,,,,1.0,,,,10.0,,KIGQ 241435Z AUTO 34006KT 10SM CLR 11/07 A3036 RMK AO2  T01110068,,,,,,44.7,,NNW,29.7,29.51,,Clear
KIGQ,10/24/2016 14:55 UTC,30.37,52.7,45.14,71.47,8.05,360.0,,,,,,1.0,,,,10.0,,KIGQ 241455Z AUTO 36007KT 10SM CLR 12/07 A3037 RMK AO2  T01150073,,,,,,43.64,,N,29.71,29.55,,Clear
KIGQ,10/24/2016 15:15 UTC,30.37,53.78,45.14,71.47,9.22,350.0,,,,,,262.0,,,,10.0,,KIGQ 241515Z AUTO 35008KT 10SM SCT026 12/07 A3037 RMK AO2  T01210073,,,,,,44.68,,N,29.71,29.51,,Partly Cloudy
KIGQ,10/24/2016 15:35 UTC,30.38,53.24,44.24,71.43,11.5,360.0,17.27,,,,,292.0,,,,10.0,,KIGQ 241535Z AUTO 36010G15KT 10SM SCT029 12/07 A3038 RMK AO2  T01180068,,,,,,44.15,,N,29.72,29.54,,Partly Cloudy
KIGQ,10/24/2016 15:55 UTC,30.38,52.52,44.06,72.84,8.05,10.0,,,,,,292.0,,,,10.0,,KIGQ 241555Z AUTO 01007KT 340V040 10SM SCT029 11/07 A3038 RMK AO2  T01140067,,,,,,43.97,,N,29.72,29.55,,Partly Cloudy
KIGQ,10/24/2016 16:15 UTC,30.38,53.42,44.6,71.94,10.36,30.0,,,,,,312.0,,,,10.0,,KIGQ 241615Z AUTO 03009KT 10SM SCT031 12/07 A3038 RMK AO2  T01190070,,,,,,44.51,,NNE,29.72,29.52,,Partly Cloudy
KIGQ,10/24/2016 16:35 UTC,30.39,53.6,44.06,71.47,8.05,10.0,,,,,,313.0,,,,10.0,,KIGQ 241635Z AUTO 01007KT 10SM BKN031 12/07 A3039 RMK AO2  T01200067,,,3100.0,,,44.51,,N,29.73,29.53,,Mostly Cloudy
KIGQ,10/24/2016 16:55 UTC,30.39,53.96,43.34,66.71,6.91,360.0,,,,,,293.0,353.0,,,10.0,,KIGQ 241655Z AUTO 36006KT 10SM BKN029 BKN035 12/06 A3039 RMK AO2  T01220063,,,2900.0,,,43.04,,N,29.73,29.57,,Mostly Cloudy
KIGQ,10/24/2016 17:15 UTC,30.39,54.86,43.16,62.48,11.5,10.0,,,,,,313.0,,,,10.0,,KIGQ 241715Z AUTO 01010KT 10SM BKN031 13/06 A3039 RMK AO2  T01270062,,,3100.0,,,42.17,,N,29.73,29.59,,Mostly Cloudy
KIGQ,10/24/2016 17:35 UTC,30.39,54.32,44.78,71.47,10.36,360.0,16.11,,,,,312.0,,,,10.0,,KIGQ 241735Z AUTO 36009G14KT 10SM SCT031 12/07 A3039 RMK AO2  T01240071,,,,,,45.2,,N,29.73,29.51,,Partly Cloudy
KIGQ,10/24/2016 17:55 UTC,30.39,53.96,44.06,71.47,12.66,20.0,18.41,,,,,292.0,,,,10.0,,KIGQ 241755Z AUTO 02011G16KT 360V060 10SM SCT029 12/07 A3039 RMK AO2 T01220067 10127 20078,54.86,46.04,,,,44.86,,NNE,29.73,29.52,,Partly Cloudy
KIGQ,10/24/2016 18:15 UTC,30.39,53.42,42.44,66.71,11.5,30.0,,,,,,292.0,,,,10.0,,KIGQ 241815Z AUTO 03010KT 10SM SCT029 12/06 A3039 RMK AO2  T01190058,,,,,,42.52,,NNE,29.73,29.59,,Partly Cloudy
KIGQ,10/24/2016 18:35 UTC,30.38,53.6,42.62,66.71,9.22,30.0,17.27,,,,,1.0,,,,10.0,,KIGQ 241835Z AUTO 03008G15KT 10SM CLR 12/06 A3038 RMK AO2  T01200059,,,,,,42.69,,NNE,29.72,29.57,,Clear
KIGQ,10/24/2016 18:55 UTC,30.38,53.6,42.26,66.71,12.66,40.0,18.41,,,,,1.0,,,,10.0,,KIGQ 241855Z AUTO 04011G16KT 10SM CLR 12/06 A3038 RMK AO2  T01200057,,,,,,42.69,,NE,29.72,29.57,,Clear
KIGQ,10/24/2016 19:15 UTC,30.38,53.06,42.08,66.71,11.5,40.0,,,,,,1.0,,,,10.0,,KIGQ 241915Z AUTO 04010KT 10SM CLR 12/06 A3038 RMK AO2  T01170056,,,,,,42.18,,NE,29.72,29.59,,Clear
KIGQ,10/24/2016 19:35 UTC,30.38,53.24,42.26,66.71,12.66,20.0,16.11,,,,,1.0,,,,10.0,,KIGQ 241935Z AUTO 02011G14KT 10SM CLR 12/06 A3038 RMK AO2  T01180057,,,,,,42.35,,NNE,29.72,29.59,,Clear
KIGQ,10/24/2016 19:55 UTC,30.37,53.24,42.8,66.71,8.05,50.0,,,,,,1.0,,,,10.0,,KIGQ 241955Z AUTO 05007KT 10SM CLR 12/06 A3037 RMK AO2  T01180060,,,,,,42.35,,NE,29.71,29.58,,Clear
KIGQ,10/24/2016 20:15 UTC,30.38,53.42,43.52,66.71,8.05,10.0,,,,,,1.0,,,,10.0,,KIGQ 242015Z AUTO 01007KT 10SM CLR 12/06 A3038 RMK AO2  T01190064,,,,,,42.52,,N,29.72,29.58,,Clear
KIGQ,10/24/2016 20:35 UTC,30.38,52.88,42.98,66.71,8.05,30.0,,,,,,1.0,,,,10.0,,KIGQ 242035Z AUTO 03007KT 10SM CLR 12/06 A3038 RMK AO2  T01160061,,,,,,42.01,,NNE,29.72,29.6,,Clear
KIGQ,10/24/2016 20:55 UTC,30.38,52.7,42.98,66.71,6.91,40.0,,,,,,1.0,,,,10.0,,KIGQ 242055Z AUTO 04006KT 10SM CLR 12/06 A3038 RMK AO2  T01150061,,,,,,41.83,,NE,29.72,29.6,,Clear
KIGQ,10/24/2016 21:15 UTC,30.38,52.34,43.16,71.27,8.05,40.0,,,,,,1.0,,,,10.0,,KIGQ 242115Z AUTO 04007KT 10SM CLR 11/06 A3038 RMK AO2  T01130062,,,,,,43.22,,NE,29.72,29.57,,Clear
KIGQ,10/24/2016 21:35 UTC,30.39,51.98,42.98,71.27,5.75,30.0,,,,,,1.0,,,,10.0,,KIGQ 242135Z AUTO 03005KT 10SM CLR 11/06 A3039 RMK AO2  T01110061,,,,,,42.88,,NNE,29.73,29.59,,Clear
KIGQ,10/24/2016 21:55 UTC,30.39,51.44,42.8,71.27,8.05,30.0,,,,,,1.0,,,,10.0,,KIGQ 242155Z AUTO 03007KT 10SM CLR 11/06 A3039 RMK AO2  T01080060,,,,,,42.36,,NNE,29.73,29.61,,Clear
KIGQ,10/24/2016 22:15 UTC,30.39,50.72,42.44,76.18,6.91,50.0,,,,,,1.0,,,,10.0,,KIGQ 242215Z AUTO 05006KT 10SM CLR 10/06 A3039 RMK AO2  T01040058,,,,,,43.42,,NE,29.73,29.59,,Clear
KIGQ,10/24/2016 22:35 UTC,30.39,49.82,41.36,71.08,6.91,60.0,,,,,,1.0,,,,10.0,,KIGQ 242235Z AUTO 06006KT 10SM CLR 10/05 A3039 RMK AO2  T00990052,,,,,,40.73,,ENE,29.73,29.67,,Clear
KIGQ,10/24/2016 22:55 UTC,30.38,48.74,41.0,76.02,6.91,60.0,,,,,,1.0,,,,10.0,,KIGQ 242255Z AUTO 06006KT 10SM CLR 09/05 A3038 RMK AO2  T00930050,,,,,,41.44,,ENE,29.72,29.65,,Clear
KIGQ,10/24/2016 23:15 UTC,30.39,48.2,40.46,76.02,4.61,50.0,,,,,,1.0,,,,10.0,,KIGQ 242315Z AUTO 05004KT 10SM CLR 09/05 A3039 RMK AO2  T00900047,,,,,,40.92,,NE,29.73,29.68,,Clear
KIGQ,10/24/2016 23:35 UTC,30.39,47.66,40.46,75.96,4.61,50.0,,,,,,1.0,,,,10.0,,KIGQ 242335Z AUTO 05004KT 10SM CLR 09/05 A3039 RMK AO2  T00870047,,,,,,40.37,,NE,29.73,29.69,,Clear
KIGQ,10/24/2016 23:55 UTC,30.39,47.48,40.46,76.02,0.0,0.0,,,,,,1.0,,,,10.0,,KIGQ 242355Z AUTO 00000KT 10SM CLR 09/05 A3039 RMK AO2 T00860047  10122 20085,53.96,47.3,,,,40.22,,N,29.73,29.7,,Clear
KIGQ,10/25/2016 00:15 UTC,30.39,46.58,40.82,81.34,4.61,40.0,,,,,,1.0,,,,10.0,,KIGQ 250015Z AUTO 04004KT 10SM CLR 08/05 A3039 RMK AO2  T00810049,,,,,,41.11,,NE,29.73,29.68,,Clear
KIGQ,10/25/2016 00:35 UTC,30.4,46.4,40.64,81.34,0.0,0.0,,,,,,1.0,,,,10.0,,KIGQ 250035Z AUTO 00000KT 10SM CLR 08/05 A3040 RMK AO2  T00800048,,,,,,40.93,,N,29.74,29.7,,Clear
KIGQ,10/25/2016 00:55 UTC,30.4,45.5,40.82,81.34,0.0,0.0,,,,,,1.0,,,,10.0,,KIGQ 250055Z AUTO 00000KT 10SM CLR 08/05 A3040 RMK AO2  T00750049,,,,,,40.05,,N,29.74,29.73,,Clear
KIGQ,10/25/2016 01:15 UTC,30.4,42.44,39.92,86.99,0.0,0.0,,,,,,1.0,,,,10.0,,KIGQ 250115Z AUTO 00000KT 10SM CLR 06/04 A3040 RMK AO2  T00580044,,,,,,38.8,,N,29.74,29.78,,Clear
KIGQ,10/25/2016 01:35 UTC,30.4,43.52,40.82,93.3,0.0,0.0,,,,,,1.0,,,,10.0,,KIGQ 250135Z AUTO 00000KT 10SM CLR 06/05 A3040 RMK AO2  T00640049,,,,,,41.69,,N,29.74,29.71,,Clear
KIGQ,10/25/2016 01:55 UTC,30.41,42.44,39.56,86.99,0.0,0.0,,,,,,1.0,,,,10.0,,KIGQ 250155Z AUTO 00000KT 10SM CLR 06/04 A3041 RMK AO2  T00580042,,,,,,38.8,,N,29.75,29.79,,Clear
KIGQ,10/25/2016 02:15 UTC,30.41,41.72,39.56,93.24,0.0,0.0,,,,,,1.0,,,,10.0,,KIGQ 250215Z AUTO 00000KT 10SM CLR 05/04 A3041 RMK AO2  T00540042,,,,,,39.89,,N,29.75,29.77,,Clear
KIGQ,10/25/2016 02:35 UTC,30.41,39.56,38.84,100.0,0.0,0.0,,,,,,1.0,,,,10.0,,KIGQ 250235Z AUTO 00000KT 10SM CLR 04/04 A3041 RMK AO2  T00420038,,,,,,39.56,,N,29.75,29.8,,Clear
KIGQ,10/25/2016 02:55 UTC,30.41,39.2,38.12,93.19,0.0,0.0,,,,,,1.0,,,,10.0,,KIGQ 250255Z AUTO 00000KT 10SM CLR 04/03 A3041 RMK AO2  T00400034,,,,,,37.37,,N,29.75,29.85,,Clear
KIGQ,10/25/2016 03:15 UTC,30.41,39.02,39.02,100.0,0.0,0.0,,,,,,1.0,,,,10.0,,KIGQ 250315Z AUTO 00000KT 10SM CLR 04/04 A3041 RMK AO2  T00390039,,,,,,39.02,,N,29.75,29.82,,Clear
KIGQ,10/25/2016 03:35 UTC,30.41,37.76,37.04,100.0,0.0,0.0,,,,,,1.0,,,,10.0,,KIGQ 250335Z AUTO 00000KT 10SM CLR 03/03 A3041 RMK AO2  T00320028,,,,,,37.76,,N,29.75,29.85,,Clear
KIGQ,10/25/2016 03:55 UTC,30.41,37.04,37.04,100.0,0.0,0.0,,,,,,1.0,,,,10.0,,KIGQ 250355Z AUTO 00000KT 10SM CLR 03/03 A3041 RMK AO2  T00280028,,,,,,37.04,,N,29.75,29.87,,Clear
KIGQ,10/25/2016 04:15 UTC,30.41,36.14,36.14,100.0,0.0,0.0,,,,,,1.0,,,,10.0,,KIGQ 250415Z AUTO 00000KT 10SM CLR 02/02 A3041 RMK AO2  T00230023,,,,,,36.14,,N,29.75,29.89,,Clear
KIGQ,10/25/2016 04:35 UTC,30.42,38.48,38.48,100.0,0.0,0.0,,,,,,1.0,,,,10.0,,KIGQ 250435Z AUTO 00000KT 10SM CLR 04/04 A3042 RMK AO2  T00360036,,,,,,38.48,,N,29.76,29.84,,Clear
KIGQ,10/25/2016 04:55 UTC,30.41,36.86,36.86,100.0,0.0,0.0,,,,,,1.0,,,,10.0,,KIGQ 250455Z AUTO 00000KT 10SM CLR 03/03 A3041 RMK AO2  T00270027,,,,,,36.86,,N,29.75,29.88,,Clear
KIGQ,10/25/2016 05:15 UTC,30.41,36.68,36.68,100.0,0.0,0.0,,31.0,,,,55.0,,,,0.75,,KIGQ 250515Z AUTO 00000KT 3/4SM BR VV005 03/03 A3041 RMK AO2  T00260026,,,500.0,,,36.68,,N,29.75,29.88,,Mist
KIGQ,10/25/2016 05:35 UTC,30.41,36.5,36.5,100.0,0.0,0.0,,,,,,1.0,,,,7.0,,KIGQ 250535Z AUTO 00000KT 7SM CLR 03/03 A3041 RMK AO2  T00250025,,,,,,36.5,,N,29.75,29.89,,Clear
KIGQ,10/25/2016 05:55 UTC,30.41,35.6,35.6,100.0,0.0,0.0,,,,,,1.0,,,,10.0,,KIGQ 250555Z AUTO 00000KT 10SM CLR 02/02 A3041 RMK AO2 T00200020  10087 20020 401270020,47.66,35.6,,54.86,35.6,35.6,,N,29.75,29.91,,Clear
KIGQ,10/25/2016 06:15 UTC,30.41,34.52,34.52,100.0,0.0,0.0,,,,,,1.0,,,,10.0,,KIGQ 250615Z AUTO 00000KT 10SM CLR 01/01 A3041 RMK AO2  T00140014,,,,,,34.52,,N,29.75,29.94,,Clear
KIGQ,10/25/2016 06:35 UTC,30.41,36.5,36.5,100.0,0.0,0.0,,,,,,1.0,,,,10.0,,KIGQ 250635Z AUTO 00000KT 10SM CLR 03/03 A3041 RMK AO2  T00250025,,,,,,36.5,,N,29.75,29.89,,Clear
KIGQ,10/25/2016 06:55 UTC,30.41,36.5,36.5,100.0,0.0,0.0,,,,,,1.0,,,,10.0,,KIGQ 250655Z AUTO 00000KT 10SM CLR 03/03 A3041 RMK AO2  T00250025,,,,,,36.5,,N,29.75,29.89,,Clear
KIGQ,10/25/2016 07:15 UTC,30.41,35.6,35.6,100.0,0.0,0.0,,,,,,1.0,,,,10.0,,KIGQ 250715Z AUTO 00000KT 10SM CLR 02/02 A3041 RMK AO2  T00200020,,,,,,35.6,,N,29.75,29.91,,Clear
KIGQ,10/25/2016 07:35 UTC,30.41,35.6,35.6,100.0,0.0,0.0,,,,,,1.0,,,,10.0,,KIGQ 250735Z AUTO 00000KT 10SM CLR 02/02 A3041 RMK AO2  T00200020,,,,,,35.6,,N,29.75,29.91,,Clear
KIGQ,10/25/2016 07:55 UTC,30.41,34.88,34.88,100.0,0.0,0.0,,,,,,1.0,,,,10.0,,KIGQ 250755Z AUTO 00000KT 10SM CLR 02/02 A3041 RMK AO2  T00160016,,,,,,34.88,,N,29.75,29.93,,Clear
KIGQ,10/25/2016 08:15 UTC,30.41,34.88,34.88,100.0,0.0,0.0,,,,,,1.0,,,,10.0,,KIGQ 250815Z AUTO 00000KT 10SM CLR 02/02 A3041 RMK AO2  T00160016,,,,,,34.88,,N,29.75,29.93,,Clear
KIGQ,10/25/2016 08:35 UTC,30.41,35.6,35.6,100.0,0.0,0.0,,,,,,1.0,,,,10.0,,KIGQ 250835Z AUTO 00000KT 10SM CLR 02/02 A3041 RMK AO2  T00200020,,,,,,35.6,,N,29.75,29.91,,Clear
KIGQ,10/25/2016 08:55 UTC,30.41,36.68,36.68,100.0,0.0,0.0,,,,,,1.0,,,,10.0,,KIGQ 250855Z AUTO 00000KT 10SM CLR 03/03 A3041 RMK AO2  T00260026,,,,,,36.68,,N,29.75,29.88,,Clear
KIGQ,10/25/2016 09:15 UTC,30.41,37.76,37.58,100.0,0.0,0.0,,,,,,1.0,,,,10.0,,KIGQ 250915Z AUTO 00000KT 10SM CLR 03/03 A3041 RMK AO2  T00320031,,,,,,37.76,,N,29.75,29.85,,Clear
KIGQ,10/25/2016 09:35 UTC,30.42,37.76,37.58,100.0,0.0,0.0,,,,,,1.0,,,,10.0,,KIGQ 250935Z AUTO 00000KT 10SM CLR 03/03 A3042 RMK AO2  T00320031,,,,,,37.76,,N,29.76,29.86,,Clear
KIGQ,10/25/2016 09:55 UTC,30.42,38.84,38.3,100.0,0.0,0.0,,,,,,1.0,,,,10.0,,KIGQ 250955Z AUTO 00000KT 10SM CLR 04/04 A3042 RMK AO2  T00380035,,,,,,38.84,,N,29.76,29.83,,Clear
KIGQ,10/25/2016 10:15 UTC,30.42,38.48,37.4,93.19,3.44,120.0,,,,,,1.0,,,,10.0,,KIGQ 251015Z AUTO 12003KT 10SM CLR 04/03 A3042 RMK AO2  T00360030,,,,,,36.66,,ESE,29.76,29.88,,Clear
KIGQ,10/25/2016 10:35 UTC,30.42,39.02,37.04,93.19,4.61,120.0,,,,,,1.0,,,,10.0,,KIGQ 251035Z AUTO 12004KT 10SM CLR 04/03 A3042 RMK AO2  T00390028,,,,,,37.2,,ESE,29.76,29.86,,Clear
KIGQ,10/25/2016 10:55 UTC,30.42,38.66,36.68,93.19,4.61,120.0,,,,,,1.0,,,,10.0,,KIGQ 251055Z AUTO 12004KT 10SM CLR 04/03 A3042 RMK AO2  T00370026,,,,,,36.84,,ESE,29.76,29.87,,Clear
KIGQ,10/25/2016 11:15 UTC,30.42,39.2,37.04,93.19,4.61,120.0,,,,,,1.0,,,,10.0,,KIGQ 251115Z AUTO 12004KT 10SM CLR 04/03 A3042 RMK AO2  T00400028,,,,,,37.37,,ESE,29.76,29.86,,Clear
KIGQ,10/25/2016 11:35 UTC,30.43,39.38,37.22,93.19,4.61,110.0,,,,,,1.0,,,,10.0,,KIGQ 251135Z AUTO 11004KT 10SM CLR 04/03 A3043 RMK AO2  T00410029,,,,,,37.55,,ESE,29.77,29.86,,Clear
KIGQ,10/25/2016 11:55 UTC,30.43,39.38,37.4,93.19,3.44,120.0,,,,,,1.0,,,,10.0,,KIGQ 251155Z AUTO 12003KT 10SM CLR 04/03 A3043 RMK AO2 T00410030  10042 20011,39.56,33.98,,,,37.55,,ESE,29.77,29.86,,Clear
KIGQ,10/25/2016 12:15 UTC,30.44,40.1,37.58,86.89,3.44,120.0,,,,,,1.0,,,,10.0,,KIGQ 251215Z AUTO 12003KT 10SM CLR 05/03 A3044 RMK AO2  T00450031,,,,,,36.46,,ESE,29.78,29.89,,Clear
KIGQ,10/25/2016 12:35 UTC,30.45,40.1,38.12,86.89,3.44,110.0,,,,,,1.0,,,,10.0,,KIGQ 251235Z AUTO 11003KT 10SM CLR 05/03 A3045 RMK AO2  T00450034,,,,,,36.46,,ESE,29.79,29.9,,Clear
KIGQ,10/25/2016 12:55 UTC,30.45,41.0,37.76,86.89,4.61,110.0,,,,,,1.0,,,,10.0,,KIGQ 251255Z AUTO 11004KT 10SM CLR 05/03 A3045 RMK AO2  T00500032,,,,,,37.35,,ESE,29.79,29.87,,Clear
KIGQ,10/25/2016 13:15 UTC,30.46,41.36,37.76,86.89,4.61,120.0,,,,,,1.0,,,,10.0,,KIGQ 251315Z AUTO 12004KT 10SM CLR 05/03 A3046 RMK AO2  T00520032,,,,,,37.7,,ESE,29.8,29.87,,Clear
KIGQ,10/25/2016 13:35 UTC,30.46,41.72,37.94,86.89,4.61,120.0,,,,,,1.0,,,,10.0,,KIGQ 251335Z AUTO 12004KT 10SM CLR 05/03 A3046 RMK AO2  T00540033,,,,,,38.06,,ESE,29.8,29.86,,Clear
KIGQ,10/25/2016 13:55 UTC,30.46,42.08,38.3,86.99,5.75,120.0,,,,,,1.0,,,,10.0,,KIGQ 251355Z AUTO 12005KT 10SM CLR 06/04 A3046 RMK AO2  T00560035,,,,,,38.44,,ESE,29.8,29.85,,Clear
KIGQ,10/25/2016 14:15 UTC,30.46,42.98,38.48,86.99,5.75,120.0,,,,,,1.0,,,,10.0,,KIGQ 251415Z AUTO 12005KT 10SM CLR 06/04 A3046 RMK AO2  T00610036,,,,,,39.33,,ESE,29.8,29.83,,Clear
KIGQ,10/25/2016 14:35 UTC,30.46,43.88,38.48,81.2,9.22,130.0,,,,,,1.0,,,,10.0,,KIGQ 251435Z AUTO 13008KT 10SM CLR 07/04 A3046 RMK AO2  T00660036,,,,,,38.42,40.55,SE,29.8,29.84,,Clear
KIGQ,10/25/2016 14:55 UTC,30.47,44.96,38.66,81.2,8.05,120.0,,,,,,1.0,,,,10.0,,KIGQ 251455Z AUTO 12007KT 10SM CLR 07/04 A3047 RMK AO2  T00720037,,,,,,39.48,42.3,ESE,29.81,29.82,,Clear
KIGQ,10/25/2016 15:15 UTC,30.47,45.5,38.48,75.84,6.91,120.0,,,,,,1.0,,,,10.0,,KIGQ 251515Z AUTO 12006KT 10SM CLR 08/04 A3047 RMK AO2  T00750036,,,,,,38.24,,ESE,29.81,29.84,,Clear
KIGQ,10/25/2016 15:35 UTC,30.46,46.76,38.84,75.84,9.22,130.0,,,,,,1.0,,,,10.0,,KIGQ 251535Z AUTO 13008KT 10SM CLR 08/04 A3046 RMK AO2  T00820038,,,,,,39.46,,SE,29.8,29.79,,Clear
KIGQ,10/25/2016 15:55 UTC,30.47,48.02,39.38,70.88,8.05,130.0,,,,,,1202.0,,,,10.0,,KIGQ 251555Z AUTO 13007KT 10SM SCT120 09/04 A3047 RMK AO2  T00890041,,,,,,38.92,,SE,29.81,29.81,,Partly Cloudy
KIGQ,10/25/2016 16:15 UTC,30.46,48.38,39.02,70.88,10.36,110.0,,,,,,1202.0,,,,10.0,,KIGQ 251615Z AUTO 11009KT 10SM SCT120 09/04 A3046 RMK AO2  T00910039,,,,,,39.27,,ESE,29.8,29.78,,Partly Cloudy
KIGQ,10/25/2016 16:35 UTC,30.46,48.2,38.3,70.88,10.36,150.0,,,,,,1203.0,,,,10.0,,KIGQ 251635Z AUTO 15009KT 10SM BKN120 09/04 A3046 RMK AO2  T00900035,,,12000.0,,,39.1,,SSE,29.8,29.79,,Mostly Cloudy
KIGQ,10/25/2016 16:55 UTC,30.46,48.38,39.02,70.88,9.22,140.0,,,,,,1203.0,,,,10.0,,KIGQ 251655Z AUTO 14008KT 10SM BKN120 09/04 A3046 RMK AO2  T00910039,,,12000.0,,,39.27,,SE,29.8,29.78,,Mostly Cloudy
KIGQ,10/25/2016 17:15 UTC,30.46,49.64,39.56,66.27,8.05,140.0,,,,,,1202.0,,,,10.0,,KIGQ 251715Z AUTO 14007KT 10SM SCT120 10/04 A3046 RMK AO2  T00980042,,,,,,38.74,,SE,29.8,29.79,,Partly Cloudy
KIGQ,10/25/2016 17:35 UTC,30.44,49.28,38.84,66.27,10.36,130.0,,,,,,1202.0,,,,10.0,,KIGQ 251735Z AUTO 13009KT 10SM SCT120 10/04 A3044 RMK AO2  T00960038,,,,,,38.39,,SE,29.78,29.78,,Partly Cloudy
KIGQ,10/25/2016 17:55 UTC,30.44,49.28,38.48,66.27,9.22,110.0,,,,,,1.0,,,,10.0,,KIGQ 251755Z AUTO 11008KT 10SM CLR 10/04 A3044 RMK AO2 T00960036  10100 20041,50.0,39.38,,,,38.39,,ESE,29.78,29.78,,Clear
KIGQ,10/25/2016 18:15 UTC,30.43,49.82,39.38,66.27,10.36,130.0,,,,,,1.0,,,,10.0,,KIGQ 251815Z AUTO 13009KT 10SM CLR 10/04 A3043 RMK AO2  T00990041,,,,,,38.91,,SE,29.77,29.75,,Clear
KIGQ,10/25/2016 18:35 UTC,30.41,50.0,39.38,66.27,10.36,130.0,,,,,,1.0,,,,10.0,,KIGQ 251835Z AUTO 13009KT 10SM CLR 10/04 A3041 RMK AO2  T01000041,,,,,,39.08,,SE,29.75,29.73,,Clear
KIGQ,10/25/2016 18:55 UTC,30.41,49.64,39.2,66.27,9.22,130.0,,,,,,1102.0,,,,10.0,,KIGQ 251855Z AUTO 13008KT 10SM SCT110 10/04 A3041 RMK AO2  T00980040,,,,,,38.74,,SE,29.75,29.74,,Partly Cloudy
KIGQ,10/25/2016 19:15 UTC,30.4,50.18,39.38,66.27,6.91,130.0,,,,,,1102.0,,,,10.0,,KIGQ 251915Z AUTO 13006KT 10SM SCT110 10/04 A3040 RMK AO2  T01010041,,,,,,39.25,,SE,29.74,29.71,,Partly Cloudy
KIGQ,10/25/2016 19:35 UTC,30.39,51.44,40.46,66.49,9.22,130.0,,,,,,1202.0,,,,10.0,,KIGQ 251935Z AUTO 13008KT 090V150 10SM SCT120 11/05 A3039 RMK AO2  T01080047,,,,,,40.54,,SE,29.73,29.66,,Partly Cloudy
KIGQ,10/25/2016 19:55 UTC,30.39,51.08,40.46,66.49,9.22,90.0,,,,,,1202.0,,,,10.0,,KIGQ 251955Z AUTO 09008KT 10SM SCT120 11/05 A3039 RMK AO2  T01060047,,,,,,40.2,,E,29.73,29.67,,Partly Cloudy
KIGQ,10/25/2016 20:15 UTC,30.39,50.9,40.1,66.49,5.75,110.0,,,,,,1102.0,,,,10.0,,KIGQ 252015Z AUTO 11005KT 10SM SCT110 11/05 A3039 RMK AO2  T01050045,,,,,,40.03,,ESE,29.73,29.68,,Partly Cloudy
KIGQ,10/25/2016 20:35 UTC,30.39,50.72,40.82,71.08,4.61,120.0,,,,,,1004.0,,,,10.0,,KIGQ 252035Z AUTO 12004KT 10SM OVC100 10/05 A3039 RMK AO2  T01040049,,,10000.0,,,41.59,,ESE,29.73,29.64,,Overcast
KIGQ,10/25/2016 20:55 UTC,30.39,51.08,40.82,66.49,6.91,120.0,,,,,,903.0,1103.0,,,10.0,,KIGQ 252055Z AUTO 12006KT 10SM BKN090 BKN110 11/05 A3039 RMK AO2  T01060049,,,9000.0,,,40.2,,ESE,29.73,29.67,,Mostly Cloudy
KIGQ,10/25/2016 21:15 UTC,30.39,51.08,40.46,66.49,6.91,120.0,,,,,,903.0,,,,10.0,,KIGQ 252115Z AUTO 12006KT 10SM BKN090 11/05 A3039 RMK AO2  T01060047,,,9000.0,,,40.2,,ESE,29.73,29.67,,Mostly Cloudy
KIGQ,10/25/2016 21:35 UTC,30.37,50.9,40.1,66.49,9.22,100.0,,,,,,904.0,,,,10.0,,KIGQ 252135Z AUTO 10008KT 10SM OVC090 11/05 A3037 RMK AO2  T01050045,,,9000.0,,,40.03,,E,29.71,29.65,,Overcast
KIGQ,10/25/2016 21:55 UTC,30.37,50.36,40.1,71.08,6.91,110.0,,,,,,904.0,,,,10.0,,KIGQ 252155Z AUTO 11006KT 10SM OVC090 10/05 A3037 RMK AO2  T01020045,,,9000.0,,,41.25,,ESE,29.71,29.63,,Overcast
KIGQ,10/25/2016 22:15 UTC,30.37,50.18,39.38,66.27,8.05,100.0,,,,,,1004.0,,,,10.0,,KIGQ 252215Z AUTO 10007KT 10SM OVC100 10/04 A3037 RMK AO2  T01010041,,,10000.0,,,39.25,,E,29.71,29.68,,Overcast
KIGQ,10/25/2016 22:35 UTC,30.37,50.0,39.02,66.27,9.22,90.0,,,,,,1004.0,,,,10.0,,KIGQ 252235Z AUTO 09008KT 10SM OVC100 10/04 A3037 RMK AO2  T01000039,,,10000.0,,,39.08,,E,29.71,29.68,,Overcast
KIGQ,10/25/2016 22:55 UTC,30.37,50.0,39.02,66.27,5.75,90.0,,,,,,1004.0,,,,10.0,,KIGQ 252255Z AUTO 09005KT 10SM OVC100 10/04 A3037 RMK AO2  T01000039,,,10000.0,,,39.08,,E,29.71,29.68,,Overcast
KIGQ,10/25/2016 23:15 UTC,30.38,49.46,39.56,66.27,3.44,120.0,,,,,,1004.0,,,,10.0,,KIGQ 252315Z AUTO 12003KT 10SM OVC100 10/04 A3038 RMK AO2  T00970042,,,10000.0,,,38.57,,ESE,29.72,29.71,,Overcast
KIGQ,10/25/2016 23:35 UTC,30.38,49.28,40.1,71.08,4.61,100.0,,,,,,1004.0,,,,10.0,,KIGQ 252335Z AUTO 10004KT 10SM OVC100 10/05 A3038 RMK AO2 LTG DSNT  SW T00960045,,,10000.0,,,40.21,,E,29.72,29.67,,Overcast
KIGQ,10/25/2016 23:55 UTC,30.38,49.1,40.28,71.08,4.61,100.0,,13.0,,,,904.0,,,,10.0,,KIGQ 252355Z AUTO 10004KT 10SM -RA OVC090 10/05 A3038 RMK AO2  T00950046 10109 20095,51.62,49.1,9000.0,,,40.04,,E,29.72,29.68,,Light Rain
KIGQ,10/26/2016 00:15 UTC,30.38,48.92,40.46,76.02,5.75,90.0,,,,,,904.0,,,,10.0,,KIGQ 260015Z AUTO 09005KT 10SM OVC090 09/05 A3038 RMK AO2  T00940047,,,9000.0,,,41.61,,E,29.72,29.64,,Overcast
KIGQ,10/26/2016 00:35 UTC,30.38,49.1,40.46,71.08,5.75,100.0,,,1004.0,,,552.0,752.0,,,10.0,,KIGQ 260035Z AUTO 10005KT 10SM SCT055 SCT075 OVC100 10/05  A3038 RMK AO2 T00950047,,,10000.0,,,40.04,,E,29.72,29.68,,Overcast
KIGQ,10/26/2016 00:55 UTC,30.39,49.1,40.46,71.08,4.61,90.0,,13.0,,,,552.0,1004.0,,,10.0,,KIGQ 260055Z AUTO 09004KT 10SM -RA SCT055 OVC100 10/05 A3039 RMK AO2 LTG DSNT SW T00950047,,,10000.0,,,40.04,,E,29.73,29.69,,Light Rain
KIGQ,10/26/2016 01:15 UTC,30.38,49.1,40.64,71.08,4.61,90.0,,,,,,1004.0,,,,10.0,,KIGQ 260115Z AUTO 09004KT 10SM OVC100 10/05 A3038 RMK AO2  T00950048,,,10000.0,,,40.04,,E,29.72,29.68,,Overcast
KIGQ,10/26/2016 01:35 UTC,30.38,48.74,40.28,76.02,4.61,100.0,,,,,,904.0,,,,10.0,,KIGQ 260135Z AUTO 10004KT 10SM OVC090 09/05 A3038 RMK AO2  T00930046,,,9000.0,,,41.44,,E,29.72,29.65,,Overcast
KIGQ,10/26/2016 01:55 UTC,30.37,48.56,40.28,76.02,5.75,100.0,,,,,,904.0,,,,10.0,,KIGQ 260155Z AUTO 10005KT 10SM OVC090 09/05 A3037 RMK AO2  T00920046,,,9000.0,,,41.27,,E,29.71,29.64,,Overcast
KIGQ,10/26/2016 02:15 UTC,30.37,48.56,40.28,76.02,3.44,90.0,,,,,,904.0,,,,10.0,,KIGQ 260215Z AUTO 09003KT 10SM OVC090 09/05 A3037 RMK AO2 LTG DSNT  W T00920046,,,9000.0,,,41.27,,E,29.71,29.64,,Overcast
KIGQ,10/26/2016 02:35 UTC,30.37,48.74,40.1,76.02,4.61,90.0,,,,,,904.0,,,,10.0,,KIGQ 260235Z AUTO 09004KT 10SM OVC090 09/05 A3037 RMK AO2  T00930045,,,9000.0,,,41.44,,E,29.71,29.64,,Overcast
KIGQ,10/26/2016 02:55 UTC,30.36,48.56,40.28,76.02,6.91,90.0,,,,,,904.0,,,,10.0,,KIGQ 260255Z AUTO 09006KT 10SM OVC090 09/05 A3036 RMK AO2  T00920046,,,9000.0,,,41.27,,E,29.7,29.63,,Overcast
KIGQ,10/26/2016 03:15 UTC,30.36,48.38,40.46,76.02,6.91,100.0,,,,,,904.0,,,,10.0,,KIGQ 260315Z AUTO 10006KT 10SM OVC090 09/05 A3036 RMK AO2  T00910047,,,9000.0,,,41.09,,E,29.7,29.64,,Overcast
KIGQ,10/26/2016 03:35 UTC,30.36,48.2,40.46,76.02,3.44,120.0,,,,,,904.0,,,,10.0,,KIGQ 260335Z AUTO 12003KT 10SM OVC090 09/05 A3036 RMK AO2  T00900047,,,9000.0,,,40.92,,ESE,29.7,29.64,,Overcast
KIGQ,10/26/2016 03:55 UTC,30.36,48.2,40.28,76.02,5.75,100.0,,,,,,904.0,,,,10.0,,KIGQ 260355Z AUTO 10005KT 10SM OVC090 09/05 A3036 RMK AO2  T00900046,,,9000.0,,,40.92,,E,29.7,29.64,,Overcast
KIGQ,10/26/2016 04:15 UTC,30.35,48.2,40.46,76.02,5.75,100.0,,,,,,903.0,1104.0,,,10.0,,KIGQ 260415Z AUTO 10005KT 10SM BKN090 OVC110 09/05 A3035 RMK AO2  T00900047,,,9000.0,,,40.92,,E,29.69,29.63,,Overcast
KIGQ,10/26/2016 04:35 UTC,30.34,48.2,40.28,76.02,6.91,120.0,,,,,,904.0,,,,10.0,,KIGQ 260435Z AUTO 12006KT 10SM OVC090 09/05 A3034 RMK AO2  T00900046,,,9000.0,,,40.92,,ESE,29.68,29.62,,Overcast
KIGQ,10/26/2016 04:55 UTC,30.34,48.2,40.1,76.02,4.61,100.0,,,,,,804.0,,,,10.0,,KIGQ 260455Z AUTO 10004KT 10SM OVC080 09/05 A3034 RMK AO2  T00900045,,,8000.0,,,40.92,,E,29.68,29.62,,Overcast
KIGQ,10/26/2016 05:15 UTC,30.34,48.2,40.28,76.02,6.91,110.0,,,,,,804.0,,,,10.0,,KIGQ 260515Z AUTO 11006KT 10SM OVC080 09/05 A3034 RMK AO2  T00900046,,,8000.0,,,40.92,,ESE,29.68,29.62,,Overcast
KIGQ,10/26/2016 05:35 UTC,30.34,48.56,39.56,70.88,6.91,120.0,,,,,,804.0,,,,10.0,,KIGQ 260535Z AUTO 12006KT 10SM OVC080 09/04 A3034 RMK AO2  T00920042,,,8000.0,,,39.44,,ESE,29.68,29.66,,Overcast
KIGQ,10/26/2016 05:55 UTC,30.32,48.74,39.56,70.88,6.91,110.0,,,,,,804.0,,,,10.0,,KIGQ 260555Z AUTO 11006KT 10SM OVC080 09/04 A3032 RMK AO2  T00930042 10096 20089 401090011,49.28,48.02,8000.0,51.62,33.98,39.62,,ESE,29.66,29.63,,Overcast
KIGQ,10/26/2016 06:15 UTC,30.32,49.1,39.2,66.27,8.05,120.0,,,,,,704.0,,,,10.0,,KIGQ 260615Z AUTO 12007KT 10SM OVC070 10/04 A3032 RMK AO2  T00950040,,,7000.0,,,38.22,,ESE,29.66,29.66,,Overcast
KIGQ,10/26/2016 06:35 UTC,30.32,49.1,39.2,66.27,8.05,120.0,,,,,,704.0,,,,10.0,,KIGQ 260635Z AUTO 12007KT 10SM OVC070 10/04 A3032 RMK AO2  T00950040,,,7000.0,,,38.22,,ESE,29.66,29.66,,Overcast
KIGQ,10/26/2016 06:55 UTC,30.33,48.2,39.92,70.88,6.91,130.0,,13.0,,,,704.0,,,,10.0,,KIGQ 260655Z AUTO 13006KT 10SM -RA OVC070 09/04 A3033 RMK AO2  T00900044,,,7000.0,,,39.1,,SE,29.67,29.66,,Light Rain
KIGQ,10/26/2016 07:15 UTC,30.34,47.48,41.0,76.02,4.61,130.0,,13.0,,,,704.0,,,,10.0,,KIGQ 260715Z AUTO 13004KT 10SM -RA OVC070 09/05 A3034 RMK AO2  T00860050,,,7000.0,,,40.22,,SE,29.68,29.65,,Light Rain
KIGQ,10/26/2016 07:35 UTC,30.33,46.4,41.9,84.22,5.75,110.0,,1.0,,,,604.0,,,,10.0,,KIGQ 260735Z AUTO 11005KT 10SM RA OVC060 08/06 A3033 RMK AO2  T00800055,,,6000.0,,,41.84,,ESE,29.67,29.61,,Rain
KIGQ,10/26/2016 07:55 UTC,30.32,45.5,42.62,89.59,8.05,100.0,,1.0,,0.02,,604.0,,,,10.0,,KIGQ 260755Z AUTO 10007KT 10SM RA OVC060 08/06 A3032 RMK AO2 LTG  DSNT SW P0002 T00750059,,,6000.0,,,42.58,,E,29.66,29.59,,Rain
KIGQ,10/26/2016 08:15 UTC,30.31,45.14,42.62,93.35,6.91,110.0,,1.0,1004.0,0.02,,503.0,653.0,,,10.0,,KIGQ 260815Z AUTO 11006KT 10SM RA BKN050 BKN065 OVC100 07/06  A3031 RMK AO2 P0002 T00730059,,,5000.0,,,43.31,,ESE,29.65,29.56,,Rain
KIGQ,10/26/2016 08:35 UTC,30.29,44.96,42.8,93.35,10.36,110.0,,1.0,,0.02,,504.0,,,,10.0,,KIGQ 260835Z AUTO 11009KT 10SM RA OVC050 07/06 A3029 RMK AO2 P0002  T00720060,,,5000.0,,,43.13,41.42,ESE,29.63,29.55,,Rain
KIGQ,10/26/2016 08:55 UTC,30.29,44.6,42.8,93.35,11.5,100.0,,13.0,,0.02,0.04,504.0,,,,10.0,,KIGQ 260855Z AUTO 10010KT 10SM -RA OVC050 07/06 A3029 RMK AO2  P0002 60004 T00700060,,,5000.0,,,42.78,40.61,E,29.63,29.56,,Light Rain
KIGQ,10/26/2016 09:15 UTC,30.29,44.78,42.62,93.35,9.22,100.0,,13.0,,,,504.0,,,,10.0,,KIGQ 260915Z AUTO 10008KT 10SM -RA OVC050 07/06 A3029 RMK AO2  T00710059,,,5000.0,,,42.95,41.62,E,29.63,29.55,,Light Rain
KIGQ,10/26/2016 09:35 UTC,30.29,44.78,42.62,93.35,9.22,120.0,,1.0,,0.01,,504.0,,,,10.0,,KIGQ 260935Z AUTO 12008KT 10SM RA OVC050 07/06 A3029 RMK AO2 P0001  T00710059,,,5000.0,,,42.95,41.62,ESE,29.63,29.55,,Rain
KIGQ,10/26/2016 09:55 UTC,30.31,44.24,42.44,93.35,5.75,100.0,,14.0,,0.02,,504.0,,,,7.0,,KIGQ 260955Z AUTO 10005KT 7SM +RA OVC050 07/06 A3031 RMK AO2 P0002  T00680058,,,5000.0,,,42.42,,E,29.65,29.59,,Heavy Rain
KIGQ,10/26/2016 10:15 UTC,30.29,44.06,42.44,93.35,11.5,90.0,,14.0,,0.06,,442.0,504.0,,,5.0,,KIGQ 261015Z AUTO 09010KT 5SM +RA SCT044 OVC050 07/06 A3029 RMK AO2 P0006 T00670058,,,5000.0,,,42.24,39.96,E,29.63,29.58,,Heavy Rain
KIGQ,10/26/2016 10:35 UTC,30.32,43.7,42.98,93.35,6.91,70.0,,41.0,604.0,0.13,,352.0,503.0,,,2.5,,KIGQ 261035Z AUTO 07006KT 2 1/2SM UP SCT035 BKN050 OVC060 07/06  A3032 RMK AO2 P0013 T00650061,,,5000.0,,,41.88,,ENE,29.66,29.62,,Unknown Precip
KIGQ,10/26/2016 10:55 UTC,30.31,43.7,42.98,93.35,9.22,90.0,,1.0,,0.13,,352.0,484.0,,,10.0,,KIGQ 261055Z AUTO 09008KT 10SM RA SCT035 OVC048 07/06 A3031 RMK AO2 LTG DSNT W P0013 T00650061,,,4800.0,,,41.88,40.33,E,29.65,29.61,,Rain
KIGQ,10/26/2016 11:15 UTC,30.29,43.7,42.98,93.35,10.36,100.0,,,,,,504.0,,,,10.0,,KIGQ 261115Z AUTO 10009KT 10SM OVC050 07/06 A3029 RMK AO2  T00650061,,,5000.0,,,41.88,39.91,E,29.63,29.59,,Overcast
KIGQ,10/26/2016 11:35 UTC,30.27,43.7,42.8,93.35,11.5,100.0,17.27,,,,,504.0,,,,10.0,,KIGQ 261135Z AUTO 10010G15KT 10SM OVC050 07/06 A3027 RMK AO2 LTG  DSNT W T00650060,,,5000.0,,,41.88,39.52,E,29.61,29.57,,Overcast
KIGQ,10/26/2016 11:55 UTC,30.26,43.7,42.26,93.35,14.97,120.0,21.85,17.0,,,,503.0,904.0,0.2,0.2,10.0,,KIGQ 261155Z AUTO 12013G19KT 10SM -DZ BKN050 OVC090 07/06  A3026 RMK AO2 LTG DSNT W 60020 70020 T00650057 10095 20065,49.1,43.7,5000.0,,,41.88,38.51,ESE,29.6,29.56,,Light Drizzle
KIGQ,10/26/2016 12:15 UTC,30.24,43.7,41.9,93.35,16.11,110.0,23.02,17.0,904.0,,,502.0,802.0,,,10.0,,KIGQ 261215Z AUTO 11014G20KT 10SM -DZ SCT050 SCT080 OVC090 07/06  A3024 RMK AO2 T00650055,,,9000.0,,,41.88,38.23,ESE,29.58,29.54,,Light Drizzle
KIGQ,10/26/2016 12:35 UTC,30.23,43.7,41.9,93.35,16.11,110.0,20.71,,904.0,,,553.0,803.0,,,10.0,,KIGQ 261235Z AUTO 11014G18KT 10SM BKN055 BKN080 OVC090 07/06  A3023 RMK AO2 T00650055,,,5500.0,,,41.88,38.23,ESE,29.57,29.53,,Overcast
KIGQ,10/26/2016 12:55 UTC,30.21,43.7,41.72,87.09,13.8,120.0,21.85,,,,,554.0,,,,10.0,,KIGQ 261255Z AUTO 12012G19KT 10SM OVC055 07/05 A3021 RMK AO2 LTG  DSNT W T00650054,,,5500.0,,,40.07,38.83,ESE,29.55,29.55,,Overcast
KIGQ,10/26/2016 13:15 UTC,30.21,44.06,41.54,87.09,13.8,120.0,21.85,,,,,554.0,,,,10.0,,KIGQ 261315Z AUTO 12012G19KT 10SM OVC055 07/05 A3021 RMK AO2  T00670053,,,5500.0,,,40.42,39.27,ESE,29.55,29.54,,Overcast
KIGQ,10/26/2016 13:35 UTC,30.22,44.24,41.36,87.09,16.11,130.0,20.71,,,,,554.0,,,,10.0,,KIGQ 261335Z AUTO 13014G18KT 10SM OVC055 07/05 A3022 RMK AO2  T00680052,,,5500.0,,,40.6,38.9,SE,29.56,29.54,,Overcast
KIGQ,10/26/2016 13:55 UTC,30.21,44.6,41.36,87.09,16.11,130.0,,17.0,,,,554.0,,,,10.0,,KIGQ 261355Z AUTO 13014KT 10SM -DZ OVC055 07/05 A3021 RMK AO2 LTG  DSNT W T00700052,,,5500.0,,,40.95,39.34,SE,29.55,29.52,,Light Drizzle
KIGQ,10/26/2016 14:15 UTC,30.21,45.14,41.36,87.09,13.8,130.0,21.85,,,,,554.0,,,,10.0,,KIGQ 261415Z AUTO 13012G19KT 10SM OVC055 07/05 A3021 RMK AO2 LTG  DSNT W T00730052,,,5500.0,,,41.48,,SE,29.55,29.5,,Overcast
KIGQ,10/26/2016 14:35 UTC,30.21,45.5,41.0,81.34,17.27,130.0,24.16,,,,,554.0,,,,10.0,,KIGQ 261435Z AUTO 13015G21KT 10SM OVC055 08/05 A3021 RMK AO2 LTG  DSNT W T00750050,,,5500.0,,,40.05,,SE,29.55,29.53,,Overcast
KIGQ,10/26/2016 14:55 UTC,30.2,45.86,41.18,81.34,17.27,130.0,24.16,,,,,554.0,,,,10.0,,KIGQ 261455Z AUTO 13015G21KT 10SM OVC055 08/05 A3020 RMK AO2 LTG  DSNT SW THRU NW T00770051,,,5500.0,,,40.4,,SE,29.54,29.51,,Overcast
KIGQ,10/26/2016 15:15 UTC,30.17,46.4,41.18,81.34,17.27,130.0,26.46,,,,,554.0,,,,10.0,,KIGQ 261515Z AUTO 13015G23KT 10SM OVC055 08/05 A3017 RMK AO2  T00800051,,,5500.0,,,40.93,,SE,29.51,29.47,,Overcast
KIGQ,10/26/2016 15:35 UTC,30.15,46.58,41.18,81.34,19.57,130.0,28.77,,,,,554.0,,,,10.0,,KIGQ 261535Z AUTO 13017G25KT 10SM OVC055 08/05 A3015 RMK AO2  T00810051,,,5500.0,,,41.11,,SE,29.49,29.44,,Overcast
KIGQ,10/26/2016 15:55 UTC,30.15,46.94,41.36,81.34,14.97,140.0,23.02,,,,,504.0,,,,10.0,,KIGQ 261555Z AUTO 14013G20KT 10SM OVC050 08/05 A3015 RMK AO2 LTG  DSNT SW AND W T00830052,,,5000.0,,,41.46,,SE,29.49,29.43,,Overcast
KIGQ,10/26/2016 16:15 UTC,30.17,47.3,41.36,76.02,8.05,140.0,27.63,,,,,484.0,,,,10.0,,KIGQ 261615Z AUTO 14007G24KT 100V190 10SM OVC048 09/05 A3017 RMK AO2 T00850052,,,4800.0,,,40.04,,SE,29.51,29.48,,Overcast
KIGQ,10/26/2016 16:35 UTC,30.18,46.04,42.8,87.19,10.36,140.0,,14.0,,0.06,,482.0,554.0,,,3.0,,KIGQ 261635Z AUTO 14009KT 3SM +RA SCT048 OVC055 08/06 A3018 RMK AO2 LTG DSNT E P0006 T00780060,,,5500.0,,,42.4,,SE,29.52,29.44,,Heavy Rain
KIGQ,10/26/2016 16:55 UTC,30.16,45.86,43.7,93.4,9.22,150.0,,14.0,,0.11,,504.0,,,,5.0,,KIGQ 261655Z AUTO 15008KT 5SM +RA OVC050 08/07 A3016 RMK AO2 P0011  T00770065,,,5000.0,,,44.04,,SSE,29.5,29.38,,Heavy Rain
KIGQ,10/26/2016 17:15 UTC,30.13,45.5,44.24,93.4,16.11,150.0,,1.0,904.0,0.04,,502.0,753.0,,,7.0,,KIGQ 261715Z AUTO 15014KT 7SM RA SCT050 BKN075 OVC090 08/07  A3013 RMK AO2 P0004 T00750068,,,7500.0,,,43.68,,SSE,29.47,29.36,,Rain
KIGQ,10/26/2016 17:35 UTC,30.06,45.5,44.24,93.4,19.57,150.0,26.46,1.0,,0.08,,702.0,804.0,,,4.0,,KIGQ 261735Z AUTO 15017G23KT 4SM RA SCT070 OVC080 08/07 A3006 RMK AO2 LTG DSNT SW P0008 T00750068,,,8000.0,,,43.68,,SSE,29.41,29.3,,Rain
KIGQ,10/26/2016 17:55 UTC,30.06,45.68,44.06,93.4,21.85,150.0,32.21,1.0,,0.09,,904.0,,0.2,,7.0,,KIGQ 261755Z AUTO 15019G28KT 7SM RA OVC090 08/07 A3006 RMK AO2  P0009 60020 T00760067 10086 20065,47.48,43.7,9000.0,,,43.86,,SSE,29.41,29.3,,Rain
KIGQ,10/26/2016 18:15 UTC,30.06,45.68,44.24,93.4,14.97,130.0,24.16,13.0,,0.02,,702.0,904.0,,,7.0,,KIGQ 261815Z AUTO 13013G21KT 7SM -RA SCT070 OVC090 08/07 A3006 RMK AO2 P0002 T00760068,,,9000.0,,,43.86,,SE,29.41,29.3,,Light Rain
KIGQ,10/26/2016 18:35 UTC,30.06,46.4,44.78,93.4,11.5,140.0,17.27,13.0,,0.03,,702.0,904.0,,,10.0,,KIGQ 261835Z AUTO 14010G15KT 10SM -RA SCT070 OVC090 08/07  A3006 RMK AO2 P0003 T00800071,,,9000.0,,,44.58,,SE,29.41,29.27,,Light Rain
KIGQ,10/26/2016 18:55 UTC,30.06,46.76,45.14,93.4,12.66,160.0,19.57,1.0,1004.0,0.03,,332.0,502.0,,,10.0,,KIGQ 261855Z AUTO 16011G17KT 10SM RA SCT033 SCT050 OVC100 08/07  A3006 RMK AO2 P0003 T00820073,,,10000.0,,,44.93,,SSE,29.41,29.26,,Rain
KIGQ,10/26/2016 19:15 UTC,30.03,46.58,44.96,93.4,12.66,140.0,24.16,1.0,854.0,0.01,,292.0,753.0,,,7.0,,KIGQ 261915Z AUTO 14011G21KT 7SM RA SCT029 BKN075 OVC085 08/07  A3003 RMK AO2 P0001 T00810072,,,7500.0,,,44.76,,SE,29.38,29.23,,Rain
KIGQ,10/26/2016 19:35 UTC,30.05,47.3,45.68,93.45,8.05,170.0,,13.0,854.0,0.02,,272.0,603.0,,,10.0,,KIGQ 261935Z AUTO 17007KT 10SM -RA SCT027 BKN060 OVC085 09/08  A3005 RMK AO2 P0002 T00850076,,,6000.0,,,45.48,,S,29.4,29.23,,Light Rain
KIGQ,10/26/2016 19:55 UTC,30.02,47.66,46.76,93.45,9.22,150.0,,13.0,704.0,0.03,,303.0,503.0,,,10.0,,KIGQ 261955Z AUTO 15008KT 10SM -RA BKN030 BKN050 OVC070 09/08  A3002 RMK AO2 LTG DSNT NW P0003 T00870082,,,3000.0,,,45.84,,SSE,29.37,29.18,,Light Rain
KIGQ,10/26/2016 20:15 UTC,30.01,48.38,46.94,93.45,10.36,150.0,,17.0,704.0,,,303.0,403.0,,,10.0,,KIGQ 262015Z AUTO 15009KT 10SM -DZ BKN030 BKN040 OVC070 09/08  A3001 RMK AO2 T00910083,,,3000.0,,,46.56,,SSE,29.36,29.14,,Light Drizzle
KIGQ,10/26/2016 20:35 UTC,30.03,48.2,46.4,93.45,8.05,150.0,,13.0,,,,274.0,,,,10.0,,KIGQ 262035Z AUTO 15007KT 10SM -RA OVC027 09/08 A3003 RMK AO2  T00900080,,,2700.0,,,46.38,,SSE,29.38,29.17,,Light Rain
KIGQ,10/26/2016 20:55 UTC,30.02,48.02,46.76,93.45,10.36,150.0,,13.0,,,0.06,254.0,,,,5.0,,KIGQ 262055Z AUTO 15009KT 5SM -RA OVC025 09/08 A3002 RMK AO2 LTG  DSNT S 60006 T00890082,,,2500.0,,,46.2,,SSE,29.37,29.17,,Light Rain
KIGQ,10/26/2016 21:15 UTC,30.0,47.66,46.94,93.45,13.8,150.0,19.57,1.0,,0.01,,254.0,,,,5.0,,KIGQ 262115Z AUTO 15012G17KT 5SM RA OVC025 09/08 A3000 RMK AO2 LTG  DSNT S P0001 T00870083,,,2500.0,,,45.84,,SSE,29.35,29.16,,Rain
KIGQ,10/26/2016 21:35 UTC,29.99,47.84,47.48,100.0,13.8,150.0,19.57,13.0,,0.05,,254.0,,,,7.0,,KIGQ 262135Z AUTO 15012G17KT 7SM -RA OVC025 09/09 A2999 RMK AO2  P0005 T00880086,,,2500.0,,,47.84,,SSE,29.34,29.09,,Light Rain
KIGQ,10/26/2016 21:55 UTC,30.01,48.56,47.48,100.0,0.0,0.0,,,,0.05,,274.0,,,,10.0,,KIGQ 262155Z AUTO 00000KT 10SM OVC027 09/09 A3001 RMK AO2 P0005  T00920086,,,2700.0,,,48.56,,N,29.36,29.08,,Overcast
KIGQ,10/26/2016 22:15 UTC,30.02,48.56,47.84,100.0,4.61,20.0,,14.0,,,,142.0,294.0,,,7.0,,KIGQ 262215Z AUTO 02004KT 7SM +RA SCT014 OVC029 09/09 A3002 RMK AO2 T00920088,,,2900.0,,,48.56,,NNE,29.37,29.09,,Heavy Rain
KIGQ,10/26/2016 22:35 UTC,30.01,47.84,47.84,100.0,5.75,80.0,,1.0,,0.12,,163.0,284.0,,,1.5,,KIGQ 262235Z AUTO 08005KT 1 1/2SM RA BKN016 OVC028 09/09 A3001 RMK AO2 VIS 1/2V5 P0012 T00880088,,,1600.0,,,47.84,,E,29.36,29.11,,Rain
KIGQ,10/26/2016 22:55 UTC,30.01,48.2,48.2,100.0,5.75,80.0,,14.0,304.0,0.15,,192.0,263.0,,,5.0,,KIGQ 262255Z AUTO 08005KT 5SM +RA SCT019 BKN026 OVC030 09/09  A3001 RMK AO2 P0015 T00900090,,,2600.0,,,48.2,,E,29.36,29.1,,Heavy Rain
KIGQ,10/26/2016 23:15 UTC,30.01,48.2,48.2,100.0,6.91,90.0,,1.0,,,,254.0,,,,10.0,,KIGQ 262315Z AUTO 09006KT 10SM RA OVC025 09/09 A3001 RMK AO2  T00900090,,,2500.0,,,48.2,,E,29.36,29.1,,Rain
KIGQ,10/26/2016 23:35 UTC,30.0,48.2,48.2,100.0,5.75,90.0,,13.0,,,,234.0,,,,7.0,,KIGQ 262335Z AUTO 09005KT 7SM -RA OVC023 09/09 A3000 RMK AO2  T00900090,,,2300.0,,,48.2,,E,29.35,29.09,,Light Rain
KIGQ,10/26/2016 23:55 UTC,30.0,48.2,48.2,100.0,4.61,90.0,,1.0,,,,194.0,,0.26,,7.0,,KIGQ 262355Z AUTO 09004KT 7SM RA OVC019 09/09 A3000 RMK AO2 60026  T00900090 10093 20076,48.74,45.68,1900.0,,,48.2,,E,29.35,29.09,,Rain
KIGQ,10/27/2016 00:15 UTC,29.99,48.2,48.2,100.0,4.61,100.0,,2.0,,,,194.0,,,,5.0,,KIGQ 270015Z AUTO 10004KT 5SM DZ OVC019 09/09 A2999 RMK AO2  T00900090,,,1900.0,,,48.2,,E,29.34,29.08,,Drizzle
KIGQ,10/27/2016 00:35 UTC,29.99,48.2,48.2,100.0,8.05,110.0,,2.0,,,,154.0,,,,4.0,,KIGQ 270035Z AUTO 11007KT 4SM DZ OVC015 09/09 A2999 RMK AO2  T00900090,,,1500.0,,,48.2,,ESE,29.34,29.08,,Drizzle
KIGQ,10/27/2016 00:55 UTC,29.98,48.2,48.2,100.0,5.75,120.0,,17.0,,,,134.0,,,,3.0,,KIGQ 270055Z AUTO 12005KT 3SM -DZ OVC013 09/09 A2998 RMK AO2  T00900090,,,1300.0,,,48.2,,ESE,29.33,29.06,,Light Drizzle
KIGQ,10/27/2016 01:15 UTC,29.98,48.2,48.2,100.0,3.44,140.0,,1.0,,,,42.0,114.0,,,2.5,,KIGQ 270115Z AUTO 14003KT 2 1/2SM RA SCT004 OVC011 09/09 A2998 RMK AO2 T00900090,,,1100.0,,,48.2,,SE,29.33,29.06,,Rain
KIGQ,10/27/2016 01:35 UTC,29.97,48.56,48.56,100.0,0.0,0.0,,18.0,,,,44.0,,,,2.0,,KIGQ 270135Z AUTO 00000KT 2SM +DZ OVC004 09/09 A2997 RMK AO2  T00920092,,,400.0,,,48.56,,N,29.32,29.04,,Heavy Drizzle
KIGQ,10/27/2016 01:55 UTC,29.97,48.92,48.92,100.0,0.0,0.0,,1.0,,,,44.0,,,,2.5,,KIGQ 270155Z AUTO 00000KT 2 1/2SM RA OVC004 09/09 A2997 RMK AO2  T00940094,,,400.0,,,48.92,,N,29.32,29.02,,Rain
KIGQ,10/27/2016 02:15 UTC,29.96,49.1,49.1,100.0,6.91,130.0,,1.0,,,,44.0,,,,2.5,,KIGQ 270215Z AUTO 13006KT 2 1/2SM RA OVC004 10/10 A2996 RMK AO2  T00950095,,,400.0,,,49.1,,SE,29.31,29.01,,Rain
KIGQ,10/27/2016 02:35 UTC,29.96,49.46,49.46,100.0,4.61,160.0,,17.0,,,,44.0,,,,2.5,,KIGQ 270235Z AUTO 16004KT 2 1/2SM -DZ OVC004 10/10 A2996 RMK AO2  T00970097,,,400.0,,,49.46,,SSE,29.31,28.99,,Light Drizzle
KIGQ,10/27/2016 02:55 UTC,29.96,50.0,50.0,100.0,0.0,0.0,,18.0,,,,44.0,,,,1.75,,KIGQ 270255Z AUTO 00000KT 1 3/4SM +DZ OVC004 10/10 A2996 RMK AO2  T01000100,,,400.0,,,50.0,,N,29.31,28.97,,Heavy Drizzle
KIGQ,10/27/2016 03:15 UTC,29.96,50.18,50.18,100.0,0.0,0.0,,14.0,,,,44.0,,,,1.75,,KIGQ 270315Z AUTO 00000KT 1 3/4SM +RA OVC004 10/10 A2996 RMK AO2  T01010101,,,400.0,,,50.18,,N,29.31,28.96,,Heavy Rain
KIGQ,10/27/2016 03:35 UTC,29.96,50.9,50.9,100.0,0.0,0.0,,18.0,,,,44.0,,,,1.75,,KIGQ 270335Z AUTO 00000KT 1 3/4SM +DZ OVC004 11/11 A2996 RMK AO2  T01050105,,,400.0,,,50.9,,N,29.31,28.93,,Heavy Drizzle
KIGQ,10/27/2016 03:55 UTC,29.96,50.9,50.9,100.0,0.0,0.0,,18.0,,,,24.0,,,,1.5,,KIGQ 270355Z AUTO 00000KT 1 1/2SM +DZ OVC002 11/11 A2996 RMK AO2  T01050105,,,200.0,,,50.9,,N,29.31,28.93,,Heavy Drizzle
KIGQ,10/27/2016 04:15 UTC,29.96,51.08,51.08,100.0,0.0,0.0,,17.0,,,,24.0,,,,1.25,,KIGQ 270415Z AUTO 00000KT 1 1/4SM -DZ OVC002 11/11 A2996 RMK AO2  T01060106,,,200.0,,,51.08,,N,29.31,28.92,,Light Drizzle
KIGQ,10/27/2016 04:35 UTC,29.97,52.52,52.52,100.0,8.05,270.0,,31.0,,,,24.0,,,,2.5,,KIGQ 270435Z AUTO 27007KT 2 1/2SM BR OVC002 11/11 A2997 RMK AO2  T01140114,,,200.0,,,52.52,,W,29.32,28.86,,Mist
KIGQ,10/27/2016 04:55 UTC,29.98,52.34,52.34,100.0,12.66,280.0,19.57,31.0,,,,44.0,,,,4.0,,KIGQ 270455Z AUTO 28011G17KT 4SM BR OVC004 11/11 A2998 RMK AO2  T01130113,,,400.0,,,52.34,,W,29.33,28.88,,Mist
KIGQ,10/27/2016 05:15 UTC,29.98,51.8,51.8,100.0,12.66,280.0,18.41,31.0,,,,44.0,,,,5.0,,KIGQ 270515Z AUTO 28011G16KT 5SM BR OVC004 11/11 A2998 RMK AO2  T01100110,,,400.0,,,51.8,,W,29.33,28.91,,Mist
KIGQ,10/27/2016 05:35 UTC,29.98,51.26,51.26,100.0,9.22,280.0,16.11,31.0,,,,44.0,,,,5.0,,KIGQ 270535Z AUTO 28008G14KT 5SM BR OVC004 11/11 A2998 RMK AO2  T01070107,,,400.0,,,51.26,,W,29.33,28.93,,Mist
KIGQ,10/27/2016 05:55 UTC,29.99,50.9,50.9,100.0,11.5,280.0,,31.0,,,,44.0,,,,5.0,,KIGQ 270555Z AUTO 28010KT 5SM BR OVC004 11/11 A2999 RMK AO2  T01050105 10115 20090 401150065,52.7,48.2,400.0,52.7,43.7,50.9,,W,29.34,28.96,,Mist
KIGQ,10/27/2016 06:15 UTC,30.0,50.54,50.54,100.0,11.5,300.0,18.41,,,,,44.0,,,,7.0,,KIGQ 270615Z AUTO 30010G16KT 7SM OVC004 10/10 A3000 RMK AO2  T01030103,,,400.0,,,50.54,,WNW,29.35,28.98,,Overcast
KIGQ,10/27/2016 06:35 UTC,30.0,50.0,50.0,100.0,11.5,290.0,20.71,,,,,64.0,,,,10.0,,KIGQ 270635Z AUTO 29010G18KT 10SM OVC006 10/10 A3000 RMK AO2  T01000100,,,600.0,,,50.0,,WNW,29.35,29.01,,Overcast
KIGQ,10/27/2016 06:55 UTC,30.01,49.28,49.28,100.0,11.5,300.0,17.27,,,,,64.0,,,,10.0,,KIGQ 270655Z AUTO 30010G15KT 10SM OVC006 10/10 A3001 RMK AO2  T00960096,,,600.0,,,49.28,,WNW,29.36,29.05,,Overcast
KIGQ,10/27/2016 07:15 UTC,30.02,49.1,49.1,100.0,9.22,280.0,,,,,,84.0,,,,10.0,,KIGQ 270715Z AUTO 28008KT 10SM OVC008 10/10 A3002 RMK AO2  T00950095,,,800.0,,,49.1,,W,29.37,29.07,,Overcast
KIGQ,10/27/2016 07:35 UTC,30.01,48.92,48.92,100.0,10.36,280.0,,,,,,84.0,,,,10.0,,KIGQ 270735Z AUTO 28009KT 10SM OVC008 09/09 A3001 RMK AO2  T00940094,,,800.0,,,48.92,,W,29.36,29.07,,Overcast
KIGQ,10/27/2016 07:55 UTC,30.02,48.56,48.56,100.0,9.22,280.0,,,,,,84.0,,,,7.0,,KIGQ 270755Z AUTO 28008KT 7SM OVC008 09/09 A3002 RMK AO2  T00920092,,,800.0,,,48.56,,W,29.37,29.09,,Overcast
KIGQ,10/27/2016 08:15 UTC,30.03,48.56,48.56,100.0,9.22,290.0,,,,,,64.0,,,,7.0,,KIGQ 270815Z AUTO 29008KT 7SM OVC006 09/09 A3003 RMK AO2  T00920092,,,600.0,,,48.56,,WNW,29.38,29.1,,Overcast
KIGQ,10/27/2016 08:35 UTC,30.04,48.56,48.56,100.0,8.05,300.0,,1.0,,,,64.0,,,,2.5,,KIGQ 270835Z AUTO 30007KT 2 1/2SM RA OVC006 09/09 A3004 RMK AO2  T00920092,,,600.0,,,48.56,,WNW,29.39,29.11,,Rain
KIGQ,10/27/2016 08:55 UTC,30.04,48.38,48.38,100.0,9.22,300.0,,2.0,,,,44.0,,,,3.0,,KIGQ 270855Z AUTO 30008KT 3SM DZ OVC004 09/09 A3004 RMK AO2  T00910091,,,400.0,,,48.38,,WNW,29.39,29.12,,Drizzle
KIGQ,10/27/2016 09:15 UTC,30.05,48.56,48.56,100.0,6.91,300.0,,2.0,,,,44.0,,,,3.0,,KIGQ 270915Z AUTO 30006KT 3SM DZ OVC004 09/09 A3005 RMK AO2  T00920092,,,400.0,,,48.56,,WNW,29.4,29.12,,Drizzle
KIGQ,10/27/2016 09:35 UTC,30.05,48.92,48.92,100.0,5.75,300.0,,,,,,43.0,124.0,,,7.0,,KIGQ 270935Z AUTO 30005KT 7SM BKN004 OVC012 09/09 A3005 RMK AO2  T00940094,,,400.0,,,48.92,,WNW,29.4,29.11,,Overcast
KIGQ,10/27/2016 09:55 UTC,30.06,49.1,49.1,100.0,4.61,290.0,,,,,,74.0,,,,7.0,,KIGQ 270955Z AUTO 29004KT 7SM OVC007 10/10 A3006 RMK AO2  T00950095,,,700.0,,,49.1,,WNW,29.41,29.11,,Overcast
KIGQ,10/27/2016 10:15 UTC,30.07,49.1,49.1,100.0,4.61,300.0,,1.0,,,,73.0,144.0,,,5.0,,KIGQ 271015Z AUTO 30004KT 5SM RA BKN007 OVC014 10/10 A3007 RMK AO2  T00950095,,,700.0,,,49.1,,WNW,29.42,29.12,,Rain
KIGQ,10/27/2016 10:35 UTC,30.08,49.1,49.1,100.0,6.91,360.0,,1.0,,,,93.0,134.0,,,7.0,,KIGQ 271035Z AUTO 36006KT 7SM RA BKN009 OVC013 10/10 A3008 RMK AO2  T00950095,,,900.0,,,49.1,,N,29.43,29.13,,Rain
KIGQ,10/27/2016 10:55 UTC,30.09,48.56,48.38,100.0,8.05,360.0,,2.0,194.0,,,72.0,122.0,,,7.0,,KIGQ 271055Z AUTO 36007KT 7SM DZ SCT007 SCT012 OVC019 09/09  A3009 RMK AO2 T00920091,,,1900.0,,,48.56,,N,29.44,29.16,,Drizzle
KIGQ,10/27/2016 11:15 UTC,30.11,48.2,47.48,100.0,8.05,360.0,,2.0,,,,194.0,,,,10.0,,KIGQ 271115Z AUTO 36007KT 10SM DZ OVC019 09/09 A3011 RMK AO2  T00900086,,,1900.0,,,48.2,,N,29.46,29.2,,Drizzle
KIGQ,10/27/2016 11:35 UTC,30.11,48.2,46.94,93.45,5.75,340.0,,,,,,192.0,294.0,,,10.0,,KIGQ 271135Z AUTO 34005KT 10SM SCT019 OVC029 09/08 A3011 RMK AO2  T00900083,,,2900.0,,,46.38,,NNW,29.46,29.25,,Overcast
KIGQ,10/27/2016 11:55 UTC,30.12,48.2,46.58,93.45,6.91,360.0,,,,,,294.0,,,0.46,10.0,,KIGQ 271155Z AUTO 36006KT 10SM OVC029 09/08 A3012 RMK AO2 70046  T00900081 10105 20090,50.9,48.2,2900.0,,,46.38,,N,29.47,29.26,,Overcast
KIGQ,10/27/2016 12:15 UTC,30.13,47.66,46.04,93.45,9.22,330.0,16.11,,,,,152.0,294.0,,,10.0,,KIGQ 271215Z AUTO 33008G14KT 10SM SCT015 OVC029 09/08 A3013 RMK AO2 T00870078,,,2900.0,,,45.84,,NNW,29.47,29.28,,Overcast
KIGQ,10/27/2016 12:35 UTC,30.14,47.3,45.14,87.28,9.22,330.0,,,,,,152.0,294.0,,,10.0,,KIGQ 271235Z AUTO 33008KT 310V010 10SM SCT015 OVC029 09/07  A3014 RMK AO2 T00850073,,,2900.0,,,43.67,,NNW,29.48,29.36,,Overcast
KIGQ,10/27/2016 12:55 UTC,30.16,46.4,44.06,93.4,8.05,330.0,,,,,,274.0,,,,10.0,,KIGQ 271255Z AUTO 33007KT 10SM OVC027 08/07 A3016 RMK AO2  T00800067,,,2700.0,,,44.58,,NNW,29.5,29.36,,Overcast
KIGQ,10/27/2016 13:15 UTC,30.17,46.4,43.88,93.4,9.22,330.0,,,,,,183.0,274.0,,,10.0,,KIGQ 271315Z AUTO 33008KT 10SM BKN018 OVC027 08/07 A3017 RMK AO2  T00800066,,,1800.0,,,44.58,,NNW,29.51,29.37,,Overcast
KIGQ,10/27/2016 13:35 UTC,30.18,45.68,43.16,87.19,8.05,320.0,,,,,,182.0,233.0,,,10.0,,KIGQ 271335Z AUTO 32007KT 10SM SCT018 BKN023 08/06 A3018 RMK AO2  T00760062,,,2300.0,,,42.05,,NW,29.52,29.45,,Mostly Cloudy
KIGQ,10/27/2016 13:55 UTC,30.19,45.5,42.62,87.19,13.8,330.0,20.71,,,,,182.0,253.0,,,10.0,,KIGQ 271355Z AUTO 33012G18KT 10SM SCT018 BKN025 08/06 A3019 RMK AO2 T00750059,,,2500.0,,,41.87,,NNW,29.53,29.47,,Mostly Cloudy
KIGQ,10/27/2016 14:15 UTC,30.19,46.04,42.08,87.19,10.36,310.0,16.11,,,,,182.0,252.0,,,10.0,,KIGQ 271415Z AUTO 31009G14KT 10SM SCT018 SCT025 08/06 A3019 RMK AO2 T00780056,,,,,,42.4,,NW,29.53,29.45,,Partly Cloudy
KIGQ,10/27/2016 14:35 UTC,30.19,46.4,41.36,81.34,11.5,320.0,,,,,,202.0,272.0,,,10.0,,KIGQ 271435Z AUTO 32010KT 10SM SCT020 SCT027 08/05 A3019 RMK AO2  T00800052,,,,,,40.93,,NW,29.53,29.49,,Partly Cloudy
KIGQ,10/27/2016 14:55 UTC,30.2,46.94,41.36,81.34,10.36,320.0,,,,,,233.0,,,,10.0,,KIGQ 271455Z AUTO 32009KT 10SM BKN023 08/05 A3020 RMK AO2  T00830052,,,2300.0,,,41.46,,NW,29.54,29.48,,Mostly Cloudy
KIGQ,10/27/2016 15:15 UTC,30.21,46.76,42.08,87.19,8.05,320.0,,,,,,234.0,,,,10.0,,KIGQ 271515Z AUTO 32007KT 10SM OVC023 08/06 A3021 RMK AO2  T00820056,,,2300.0,,,43.11,,NW,29.55,29.45,,Overcast
KIGQ,10/27/2016 15:35 UTC,30.21,46.58,41.0,81.34,10.36,340.0,,,,,,234.0,,,,10.0,,KIGQ 271535Z AUTO 34009KT 10SM OVC023 08/05 A3021 RMK AO2  T00810050,,,2300.0,,,41.11,,NNW,29.55,29.5,,Overcast
KIGQ,10/27/2016 15:55 UTC,30.22,46.58,41.18,81.34,11.5,310.0,16.11,,,,,234.0,,,,10.0,,KIGQ 271555Z AUTO 31010G14KT 10SM OVC023 08/05 A3022 RMK AO2  T00810051,,,2300.0,,,41.11,,NW,29.56,29.51,,Overcast
KIGQ,10/27/2016 16:15 UTC,30.22,46.94,40.82,81.34,5.75,310.0,9.22,,,,,234.0,,,,10.0,,KIGQ 271615Z AUTO 31005G08KT 10SM OVC023 08/05 A3022 RMK AO2  T00830049,,,2300.0,,,41.46,,NW,29.56,29.5,,Overcast
KIGQ,10/27/2016 16:35 UTC,30.23,47.3,41.36,76.02,4.61,350.0,,,,,,234.0,,,,10.0,,KIGQ 271635Z AUTO 35004KT 10SM OVC023 09/05 A3023 RMK AO2  T00850052,,,2300.0,,,40.04,,N,29.57,29.54,,Overcast
KIGQ,10/27/2016 16:55 UTC,30.24,47.48,41.18,76.02,5.75,350.0,,,,,,234.0,,,,10.0,,KIGQ 271655Z AUTO 35005KT 10SM OVC023 09/05 A3024 RMK AO2  T00860051,,,2300.0,,,40.22,,N,29.58,29.54,,Overcast
KIGQ,10/27/2016 17:15 UTC,30.24,47.48,41.0,76.02,8.05,310.0,,,,,,234.0,,,,10.0,,KIGQ 271715Z AUTO 31007KT 10SM OVC023 09/05 A3024 RMK AO2  T00860050,,,2300.0,,,40.22,,NW,29.58,29.54,,Overcast
KIGQ,10/27/2016 17:35 UTC,30.24,47.84,41.0,76.02,5.75,300.0,16.11,,,,,234.0,,,,10.0,,KIGQ 271735Z AUTO 30005G14KT 10SM OVC023 09/05 A3024 RMK AO2  T00880050,,,2300.0,,,40.57,,WNW,29.58,29.53,,Overcast
KIGQ,10/27/2016 17:55 UTC,30.24,48.02,41.54,76.02,9.22,310.0,,,,,,254.0,,,,10.0,,KIGQ 271755Z AUTO 31008KT 10SM OVC025 09/05 A3024 RMK AO2  T00890053 10090 20074,48.2,45.32,2500.0,,,40.74,,NW,29.58,29.53,,Overcast
KIGQ,10/27/2016 18:15 UTC,30.24,47.84,41.18,76.02,9.22,300.0,,,,,,254.0,,,,10.0,,KIGQ 271815Z AUTO 30008KT 10SM OVC025 09/05 A3024 RMK AO2  T00880051,,,2500.0,,,40.57,,WNW,29.58,29.53,,Overcast
KIGQ,10/27/2016 18:35 UTC,30.24,48.38,41.54,76.02,5.75,300.0,,,,,,254.0,,,,10.0,,KIGQ 271835Z AUTO 30005KT 10SM OVC025 09/05 A3024 RMK AO2  T00910053,,,2500.0,,,41.09,,WNW,29.58,29.52,,Overcast
KIGQ,10/27/2016 18:55 UTC,30.24,48.74,41.36,76.02,4.61,320.0,,,,,,254.0,,,,10.0,,KIGQ 271855Z AUTO 32004KT 10SM OVC025 09/05 A3024 RMK AO2  T00930052,,,2500.0,,,41.44,,NW,29.58,29.5,,Overcast
KIGQ,10/27/2016 19:15 UTC,30.24,48.38,41.72,76.02,5.75,320.0,,,,,,254.0,,,,10.0,,KIGQ 271915Z AUTO 32005KT 10SM OVC025 09/05 A3024 RMK AO2  T00910054,,,2500.0,,,41.09,,NW,29.58,29.52,,Overcast
KIGQ,10/27/2016 19:35 UTC,30.24,48.74,41.72,76.6,5.75,300.0,,,,,,254.0,,,,10.0,,KIGQ 271935Z AUTO 30005KT 10SM OVC025 09/05 A3024 RMK AO2  T00930054,,,2500.0,,,41.64,,WNW,29.58,29.5,,Overcast
KIGQ,10/27/2016 19:55 UTC,30.24,48.38,41.36,76.02,5.75,270.0,,,,,,274.0,,,,10.0,,KIGQ 271955Z AUTO 27005KT 10SM OVC027 09/05 A3024 RMK AO2  T00910052,,,2700.0,,,41.09,,W,29.58,29.52,,Overcast
KIGQ,10/27/2016 20:15 UTC,30.24,48.56,41.54,76.02,4.61,290.0,,,,,,274.0,,,,10.0,,KIGQ 272015Z AUTO 29004KT 10SM OVC027 09/05 A3024 RMK AO2  T00920053,,,2700.0,,,41.27,,WNW,29.58,29.51,,Overcast
KIGQ,10/27/2016 20:35 UTC,30.24,50.36,42.08,76.18,6.91,320.0,,,,,,274.0,,,,10.0,,KIGQ 272035Z AUTO 32006KT 10SM OVC027 10/06 A3024 RMK AO2  T01020056,,,2700.0,,,43.07,,NW,29.58,29.45,,Overcast
KIGQ,10/27/2016 20:55 UTC,30.24,50.36,41.36,71.08,3.44,320.0,,,,,,274.0,,,,10.0,,KIGQ 272055Z AUTO 32003KT 10SM OVC027 10/05 A3024 RMK AO2  T01020052,,,2700.0,,,41.25,,NW,29.58,29.5,,Overcast
KIGQ,10/27/2016 21:15 UTC,30.25,48.92,41.0,76.02,3.44,280.0,,,,,,294.0,,,,10.0,,KIGQ 272115Z AUTO 28003KT 10SM OVC029 09/05 A3025 RMK AO2  T00940050,,,2900.0,,,41.61,,W,29.59,29.51,,Overcast
KIGQ,10/27/2016 21:35 UTC,30.25,48.38,40.46,76.02,4.61,290.0,,,,,,273.0,,,,10.0,,KIGQ 272135Z AUTO 29004KT 10SM BKN027 09/05 A3025 RMK AO2  T00910047,,,2700.0,,,41.09,,WNW,29.59,29.53,,Mostly Cloudy
KIGQ,10/27/2016 21:55 UTC,30.24,48.2,41.18,76.02,4.61,280.0,,,,,,293.0,,,,10.0,,KIGQ 272155Z AUTO 28004KT 10SM BKN029 09/05 A3024 RMK AO2  T00900051,,,2900.0,,,40.92,,W,29.58,29.52,,Mostly Cloudy
KIGQ,10/27/2016 22:15 UTC,30.24,48.02,40.64,76.02,0.0,0.0,,,,,,292.0,1202.0,,,10.0,,KIGQ 272215Z AUTO 00000KT 10SM SCT029 SCT120 09/05 A3024 RMK AO2  T00890048,,,,,,40.74,,N,29.58,29.53,,Partly Cloudy
KIGQ,10/27/2016 22:35 UTC,30.25,46.94,40.46,81.34,3.44,290.0,,,,,,1202.0,,,,10.0,,KIGQ 272235Z AUTO 29003KT 10SM SCT120 08/05 A3025 RMK AO2  T00830047,,,,,,41.46,,WNW,29.59,29.53,,Partly Cloudy
KIGQ,10/27/2016 22:55 UTC,30.25,45.5,40.82,81.34,3.44,270.0,,,,,,1.0,,,,10.0,,KIGQ 272255Z AUTO 27003KT 10SM CLR 08/05 A3025 RMK AO2  T00750049,,,,,,40.05,,W,29.59,29.58,,Clear
KIGQ,10/27/2016 23:15 UTC,30.25,45.5,41.0,81.34,3.44,270.0,,,,,,1.0,,,,10.0,,KIGQ 272315Z AUTO 27003KT 10SM CLR 08/05 A3025 RMK AO2  T00750050,,,,,,40.05,,W,29.59,29.58,,Clear
KIGQ,10/27/2016 23:35 UTC,30.25,43.52,41.36,93.3,0.0,0.0,,,,,,1.0,,,,10.0,,KIGQ 272335Z AUTO 00000KT 10SM CLR 06/05 A3025 RMK AO2  T00640052,,,,,,41.69,,N,29.59,29.55,,Clear
KIGQ,10/27/2016 23:55 UTC,30.26,42.98,41.54,93.3,0.0,0.0,,,,,,1.0,,,,10.0,,KIGQ 272355Z AUTO 00000KT 10SM CLR 06/05 A3026 RMK AO2 T00610053  10104 20055,50.72,41.9,,,,41.15,,N,29.6,29.58,,Clear
KIGQ,10/28/2016 00:15 UTC,30.26,43.7,42.08,93.35,0.0,0.0,,,,,,1202.0,,,,10.0,,KIGQ 280015Z AUTO 00000KT 10SM SCT120 07/06 A3026 RMK AO2  T00650056,,,,,,41.88,,N,29.6,29.56,,Partly Cloudy
KIGQ,10/28/2016 00:35 UTC,30.27,44.24,42.8,93.35,3.44,200.0,,,,,,1202.0,,,,10.0,,KIGQ 280035Z AUTO 20003KT 10SM SCT120 07/06 A3027 RMK AO2  T00680060,,,,,,42.42,,SSW,29.61,29.55,,Partly Cloudy
KIGQ,10/28/2016 00:55 UTC,30.27,45.14,42.62,93.35,0.0,0.0,,,,,,1203.0,,,,10.0,,KIGQ 280055Z AUTO 00000KT 10SM BKN120 07/06 A3027 RMK AO2  T00730059,,,12000.0,,,43.31,,N,29.61,29.52,,Mostly Cloudy
KIGQ,10/28/2016 01:15 UTC,30.27,44.78,42.8,93.35,3.44,220.0,,,,,,1204.0,,,,10.0,,KIGQ 280115Z AUTO 22003KT 10SM OVC120 07/06 A3027 RMK AO2  T00710060,,,12000.0,,,42.95,,SW,29.61,29.53,,Overcast
KIGQ,10/28/2016 01:35 UTC,30.27,44.96,42.8,93.35,3.44,210.0,,,,,,1204.0,,,,10.0,,KIGQ 280135Z AUTO 21003KT 10SM OVC120 07/06 A3027 RMK AO2  T00720060,,,12000.0,,,43.13,,SSW,29.61,29.53,,Overcast
KIGQ,10/28/2016 01:55 UTC,30.27,44.78,42.98,93.35,4.61,240.0,,,,,,1204.0,,,,10.0,,KIGQ 280155Z AUTO 24004KT 10SM OVC120 07/06 A3027 RMK AO2  T00710061,,,12000.0,,,42.95,,WSW,29.61,29.53,,Overcast
KIGQ,10/28/2016 02:15 UTC,30.27,44.78,42.98,93.35,3.44,210.0,,,,,,1002.0,1204.0,,,10.0,,KIGQ 280215Z AUTO 21003KT 10SM SCT100 OVC120 07/06 A3027 RMK AO2  T00710061,,,12000.0,,,42.95,,SSW,29.61,29.53,,Overcast
KIGQ,10/28/2016 02:35 UTC,30.27,44.6,42.8,93.35,3.44,210.0,,,,,,1204.0,,,,10.0,,KIGQ 280235Z AUTO 21003KT 10SM OVC120 07/06 A3027 RMK AO2  T00700060,,,12000.0,,,42.78,,SSW,29.61,29.54,,Overcast
KIGQ,10/28/2016 02:55 UTC,30.28,44.6,42.8,93.35,0.0,0.0,,,,,,1204.0,,,,10.0,,KIGQ 280255Z AUTO 00000KT 10SM OVC120 07/06 A3028 RMK AO2  T00700060,,,12000.0,,,42.78,,N,29.62,29.55,,Overcast
KIGQ,10/28/2016 03:15 UTC,30.27,44.42,42.8,93.35,3.44,190.0,,,,,,1204.0,,,,10.0,,KIGQ 280315Z AUTO 19003KT 10SM OVC120 07/06 A3027 RMK AO2  T00690060,,,12000.0,,,42.6,,S,29.61,29.54,,Overcast
KIGQ,10/28/2016 03:35 UTC,30.27,44.24,42.8,94.64,3.44,190.0,,,,,,1204.0,,,,10.0,,KIGQ 280335Z AUTO 19003KT 10SM OVC120 07/06 A3027 RMK AO2  T00680060,,,12000.0,,,42.78,,S,29.61,29.54,,Overcast
KIGQ,10/28/2016 03:55 UTC,30.27,43.7,42.98,93.35,3.44,190.0,,,,,,1204.0,,,,10.0,,KIGQ 280355Z AUTO 19003KT 10SM OVC120 07/06 A3027 RMK AO2  T00650061,,,12000.0,,,41.88,,S,29.61,29.57,,Overcast
KIGQ,10/28/2016 04:15 UTC,30.27,43.7,42.98,93.35,0.0,0.0,,,,,,1204.0,,,,10.0,,KIGQ 280415Z AUTO 00000KT 10SM OVC120 07/06 A3027 RMK AO2  T00650061,,,12000.0,,,41.88,,N,29.61,29.57,,Overcast
KIGQ,10/28/2016 04:35 UTC,30.26,43.16,42.62,100.0,3.44,190.0,,,,,,1204.0,,,,10.0,,KIGQ 280435Z AUTO 19003KT 10SM OVC120 06/06 A3026 RMK AO2  T00620059,,,12000.0,,,43.16,,S,29.6,29.53,,Overcast
KIGQ,10/28/2016 04:55 UTC,30.27,42.98,42.26,100.0,3.44,230.0,,,,,,1202.0,,,,10.0,,KIGQ 280455Z AUTO 23003KT 10SM SCT120 06/06 A3027 RMK AO2  T00610057,,,,,,42.98,,SW,29.61,29.55,,Partly Cloudy
KIGQ,10/28/2016 05:15 UTC,30.27,42.08,41.36,93.3,3.44,220.0,,,,,,1.0,,,,10.0,,KIGQ 280515Z AUTO 22003KT 10SM CLR 06/05 A3027 RMK AO2  T00560052,,,,,,40.26,,SW,29.61,29.62,,Clear
KIGQ,10/28/2016 05:35 UTC,30.26,40.46,40.28,100.0,3.44,200.0,,,,,,1.0,,,,10.0,,KIGQ 280535Z AUTO 20003KT 10SM CLR 05/05 A3026 RMK AO2  T00470046,,,,,,40.46,,SSW,29.6,29.62,,Clear
KIGQ,10/28/2016 05:55 UTC,30.26,41.0,41.0,100.0,0.0,0.0,,,,,,1.0,,,,10.0,,KIGQ 280555Z AUTO 00000KT 10SM CLR 05/05 A3026 RMK AO2 T00500050  10073 20047 401050047,45.14,40.46,,50.9,40.46,41.0,,N,29.6,29.6,,Clear
KIGQ,10/28/2016 06:15 UTC,30.26,40.64,40.64,100.0,0.0,0.0,,,,,,1.0,,,,10.0,,KIGQ 280615Z AUTO 00000KT 10SM CLR 05/05 A3026 RMK AO2  T00480048,,,,,,40.64,,N,29.6,29.61,,Clear
KIGQ,10/28/2016 06:35 UTC,30.26,39.92,39.92,100.0,3.44,190.0,,,,,,1.0,,,,10.0,,KIGQ 280635Z AUTO 19003KT 10SM CLR 04/04 A3026 RMK AO2  T00440044,,,,,,39.92,,S,29.6,29.64,,Clear
KIGQ,10/28/2016 06:55 UTC,30.26,39.56,39.56,100.0,3.44,190.0,,,,,,1.0,,,,7.0,,KIGQ 280655Z AUTO 19003KT 7SM CLR 04/04 A3026 RMK AO2  T00420042,,,,,,39.56,,S,29.6,29.65,,Clear
KIGQ,10/28/2016 07:15 UTC,30.26,38.48,38.48,100.0,3.44,180.0,,,,,,1.0,,,,7.0,,KIGQ 280715Z AUTO 18003KT 7SM CLR 04/04 A3026 RMK AO2  T00360036,,,,,,38.48,,S,29.6,29.68,,Clear
KIGQ,10/28/2016 07:35 UTC,30.26,38.48,38.48,100.0,4.61,180.0,,,,,,1.0,,,,7.0,,KIGQ 280735Z AUTO 18004KT 7SM CLR 04/04 A3026 RMK AO2  T00360036,,,,,,38.48,,S,29.6,29.68,,Clear
KIGQ,10/28/2016 07:55 UTC,30.27,38.3,38.3,100.0,0.0,0.0,,,,,,1.0,,,,7.0,,KIGQ 280755Z AUTO 00000KT 7SM CLR 04/04 A3027 RMK AO2  T00350035,,,,,,38.3,,N,29.61,29.69,,Clear
KIGQ,10/28/2016 08:15 UTC,30.27,38.66,38.66,100.0,0.0,0.0,,31.0,,,,1.0,,,,5.0,,KIGQ 280815Z AUTO 00000KT 5SM BR CLR 04/04 A3027 RMK AO2  T00370037,,,,,,38.66,,N,29.61,29.68,,Mist
KIGQ,10/28/2016 08:35 UTC,30.27,38.48,38.48,100.0,0.0,0.0,,31.0,,,,1.0,,,,5.0,,KIGQ 280835Z AUTO 00000KT 5SM BR CLR 04/04 A3027 RMK AO2  T00360036,,,,,,38.48,,N,29.61,29.69,,Mist
KIGQ,10/28/2016 08:55 UTC,30.27,38.3,38.3,100.0,0.0,0.0,,31.0,,,,1.0,,,,4.0,,KIGQ 280855Z AUTO 00000KT 4SM BR CLR 04/04 A3027 RMK AO2  T00350035,,,,,,38.3,,N,29.61,29.69,,Mist
KIGQ,10/28/2016 09:15 UTC,30.27,37.58,37.58,100.0,4.61,170.0,,31.0,,,,1.0,,,,3.0,,KIGQ 280915Z AUTO 17004KT 3SM BR CLR 03/03 A3027 RMK AO2  T00310031,,,,,,37.58,,S,29.61,29.71,,Mist
KIGQ,10/28/2016 09:35 UTC,30.27,36.68,36.68,100.0,5.75,170.0,,31.0,,,,1.0,,,,5.0,,KIGQ 280935Z AUTO 17005KT 5SM BR CLR 03/03 A3027 RMK AO2  T00260026,,,,,,36.68,,S,29.61,29.74,,Mist
KIGQ,10/28/2016 09:55 UTC,30.26,37.22,37.22,100.0,5.75,170.0,,,,,,152.0,,,,7.0,,KIGQ 280955Z AUTO 17005KT 7SM SCT015 03/03 A3026 RMK AO2  T00290029,,,,,,37.22,,S,29.6,29.71,,Partly Cloudy
KIGQ,10/28/2016 10:15 UTC,30.26,39.56,39.56,100.0,5.75,160.0,,,,,,153.0,,,,7.0,,KIGQ 281015Z AUTO 16005KT 7SM BKN015 04/04 A3026 RMK AO2  T00420042,,,1500.0,,,39.56,,SSE,29.6,29.65,,Mostly Cloudy
KIGQ,10/28/2016 10:35 UTC,30.25,41.0,41.0,100.0,5.75,170.0,,,,,,152.0,,,,10.0,,KIGQ 281035Z AUTO 17005KT 10SM SCT015 05/05 A3025 RMK AO2  T00500050,,,,,,41.0,,S,29.59,29.59,,Partly Cloudy
KIGQ,10/28/2016 10:55 UTC,30.25,41.36,41.36,100.0,5.75,160.0,,,,,,1.0,,,,7.0,,KIGQ 281055Z AUTO 16005KT 7SM CLR 05/05 A3025 RMK AO2  T00520052,,,,,,41.36,,SSE,29.59,29.58,,Clear
KIGQ,10/28/2016 11:15 UTC,30.25,42.08,41.9,100.0,5.75,160.0,,,,,,1.0,,,,7.0,,KIGQ 281115Z AUTO 16005KT 7SM CLR 06/06 A3025 RMK AO2  T00560055,,,,,,42.08,,SSE,29.59,29.56,,Clear
KIGQ,10/28/2016 11:35 UTC,30.24,42.08,42.08,100.0,5.75,150.0,,,,,,1.0,,,,7.0,,KIGQ 281135Z AUTO 15005KT 7SM CLR 06/06 A3024 RMK AO2  T00560056,,,,,,42.08,,SSE,29.58,29.55,,Clear
KIGQ,10/28/2016 11:55 UTC,30.24,41.72,41.72,100.0,4.61,190.0,,,,,,1.0,,,,7.0,,KIGQ 281155Z AUTO 19004KT 7SM CLR 05/05 A3024 RMK AO2 T00540054  10057 20026,42.26,36.68,,,,41.72,,S,29.58,29.56,,Clear
KIGQ,10/28/2016 12:15 UTC,30.25,41.9,41.9,100.0,6.91,200.0,,,,,,1.0,,,,7.0,,KIGQ 281215Z AUTO 20006KT 7SM CLR 06/06 A3025 RMK AO2  T00550055,,,,,,41.9,,SSW,29.59,29.56,,Clear
KIGQ,10/28/2016 12:35 UTC,30.26,42.08,42.08,100.0,5.75,190.0,,31.0,,,,1.0,,,,5.0,,KIGQ 281235Z AUTO 19005KT 5SM BR CLR 06/06 A3026 RMK AO2  T00560056,,,,,,42.08,,S,29.6,29.57,,Mist
KIGQ,10/28/2016 12:55 UTC,30.25,42.8,42.8,100.0,9.22,170.0,,,,,,1.0,,,,7.0,,KIGQ 281255Z AUTO 17008KT 7SM CLR 06/06 A3025 RMK AO2  T00600060,,,,,,42.8,39.27,S,29.59,29.53,,Clear
KIGQ,10/28/2016 13:15 UTC,30.25,43.7,42.8,93.35,9.22,180.0,,,,,,1.0,,,,7.0,,KIGQ 281315Z AUTO 18008KT 7SM CLR 07/06 A3025 RMK AO2  T00650060,,,,,,41.88,40.33,S,29.59,29.55,,Clear
KIGQ,10/28/2016 13:35 UTC,30.26,43.88,42.8,93.35,10.36,170.0,,,,,,1.0,,,,10.0,,KIGQ 281335Z AUTO 17009KT 10SM CLR 07/06 A3026 RMK AO2  T00660060,,,,,,42.06,40.12,S,29.6,29.55,,Clear
KIGQ,10/28/2016 13:55 UTC,30.26,45.5,43.88,93.4,10.36,180.0,,,,,,1.0,,,,7.0,,KIGQ 281355Z AUTO 18009KT 7SM CLR 08/07 A3026 RMK AO2  T00750066,,,,,,43.68,,S,29.6,29.5,,Clear
KIGQ,10/28/2016 14:15 UTC,30.25,46.76,44.6,93.4,10.36,180.0,,,,,,1.0,,,,10.0,,KIGQ 281415Z AUTO 18009KT 10SM CLR 08/07 A3025 RMK AO2  T00820070,,,,,,44.93,,S,29.59,29.44,,Clear
KIGQ,10/28/2016 14:35 UTC,30.25,47.48,44.78,87.28,10.36,170.0,,,,,,1.0,,,,10.0,,KIGQ 281435Z AUTO 17009KT 10SM CLR 09/07 A3025 RMK AO2  T00860071,,,,,,43.85,,S,29.59,29.46,,Clear
KIGQ,10/28/2016 14:55 UTC,30.24,48.2,45.5,93.45,11.5,180.0,,,,,,1.0,,,,10.0,,KIGQ 281455Z AUTO 18010KT 10SM CLR 09/08 A3024 RMK AO2  T00900075,,,,,,46.38,,S,29.58,29.37,,Clear
KIGQ,10/28/2016 15:15 UTC,30.23,49.82,46.58,87.38,14.97,180.0,,,,,,1.0,,,,10.0,,KIGQ 281515Z AUTO 18013KT 10SM CLR 10/08 A3023 RMK AO2  T00990081,,,,,,46.18,,S,29.57,29.35,,Clear
KIGQ,10/28/2016 15:35 UTC,30.22,50.9,47.3,87.48,12.66,190.0,18.41,,,,,1.0,,,,10.0,,KIGQ 281535Z AUTO 19011G16KT 10SM CLR 11/09 A3022 RMK AO2  T01050085,,,,,,47.28,,S,29.56,29.3,,Clear
KIGQ,10/28/2016 15:55 UTC,30.21,52.34,47.84,87.48,13.8,180.0,20.71,,,,,1.0,,,,10.0,,KIGQ 281555Z AUTO 18012G18KT 10SM CLR 11/09 A3021 RMK AO2  T01130088,,,,,,48.69,,S,29.55,29.23,,Clear
KIGQ,10/28/2016 16:15 UTC,30.21,53.96,48.92,81.88,13.8,190.0,,,,,,1.0,,,,10.0,,KIGQ 281615Z AUTO 19012KT 10SM CLR 12/09 A3021 RMK AO2  T01220094,,,,,,48.5,,S,29.55,29.22,,Clear
KIGQ,10/28/2016 16:35 UTC,30.19,54.5,49.46,82.01,12.66,200.0,17.27,,,,,1.0,,,,10.0,,KIGQ 281635Z AUTO 20011G15KT 10SM CLR 13/10 A3019 RMK AO2  T01250097,,,,,,49.07,,SSW,29.53,29.18,,Clear
KIGQ,10/28/2016 16:55 UTC,30.18,55.22,50.36,82.01,13.8,180.0,,,,,,1.0,,,,10.0,,KIGQ 281655Z AUTO 18012KT 10SM CLR 13/10 A3018 RMK AO2  T01290102,,,,,,49.77,,S,29.52,29.13,,Clear
KIGQ,10/28/2016 17:15 UTC,30.16,56.84,50.9,82.14,13.8,180.0,19.57,,,,,1.0,,,,10.0,,KIGQ 281715Z AUTO 18012G17KT 10SM CLR 14/11 A3016 RMK AO2  T01380105,,,,,,51.4,,S,29.5,29.04,,Clear
KIGQ,10/28/2016 17:35 UTC,30.15,57.38,51.26,82.14,14.97,190.0,,,,,,212.0,,,,10.0,,KIGQ 281735Z AUTO 19013KT 10SM SCT021 14/11 A3015 RMK AO2  T01410107,,,,,,51.93,,S,29.49,29.0,,Partly Cloudy
KIGQ,10/28/2016 17:55 UTC,30.13,58.28,51.98,77.01,13.8,180.0,,,,,,194.0,,,,10.0,,KIGQ 281755Z AUTO 18012KT 10SM OVC019 15/11 A3013 RMK AO2  T01460111 10146 20052,58.28,41.36,1900.0,,,51.04,,S,29.47,29.01,,Overcast
KIGQ,10/28/2016 18:15 UTC,30.12,58.46,52.34,77.01,12.66,180.0,19.57,,,,,193.0,,,,10.0,,KIGQ 281815Z AUTO 18011G17KT 10SM BKN019 15/11 A3012 RMK AO2  T01470113,,,1900.0,,,51.22,,S,29.47,29.0,,Mostly Cloudy
KIGQ,10/28/2016 18:35 UTC,30.11,59.36,53.24,82.27,14.97,200.0,,,,,,192.0,,,,10.0,,KIGQ 281835Z AUTO 20013KT 10SM SCT019 15/12 A3011 RMK AO2  T01520118,,,,,,53.91,,SSW,29.46,28.87,,Partly Cloudy
KIGQ,10/28/2016 18:55 UTC,30.1,60.44,54.14,77.17,11.5,170.0,,,,,,1.0,,,,10.0,,KIGQ 281855Z AUTO 17010KT 10SM CLR 16/12 A3010 RMK AO2  T01580123,,,,,,53.2,,S,29.45,28.88,,Clear
KIGQ,10/28/2016 19:15 UTC,30.08,62.24,54.86,77.33,16.11,190.0,,,,,,1.0,,,,10.0,,KIGQ 281915Z AUTO 19014KT 10SM CLR 17/13 A3008 RMK AO2  T01680127,,,,,,55.0,,S,29.43,28.76,,Clear
KIGQ,10/28/2016 19:35 UTC,30.08,62.6,55.76,78.34,11.5,190.0,,,,,,1.0,,,,10.0,,KIGQ 281935Z AUTO 19010KT 10SM CLR 17/13 A3008 RMK AO2  T01700132,,,,,,55.71,,S,29.43,28.73,,Clear
KIGQ,10/28/2016 19:55 UTC,30.07,62.78,55.76,77.33,13.8,190.0,18.41,,,,,1.0,,,,10.0,,KIGQ 281955Z AUTO 19012G16KT 10SM CLR 17/13 A3007 RMK AO2  T01710132,,,,,,55.53,,S,29.42,28.72,,Clear
KIGQ,10/28/2016 20:15 UTC,30.07,62.6,56.12,77.33,11.5,190.0,16.11,,,,,1.0,,,,10.0,,KIGQ 282015Z AUTO 19010G14KT 10SM CLR 17/13 A3007 RMK AO2  T01700134,,,,,,55.35,,S,29.42,28.73,,Clear
KIGQ,10/28/2016 20:35 UTC,30.06,63.5,56.3,77.48,16.11,190.0,,,,,,1.0,,,,10.0,,KIGQ 282035Z AUTO 19014KT 10SM CLR 18/14 A3006 RMK AO2  T01750135,,,,,,56.28,,S,29.41,28.67,,Clear
KIGQ,10/28/2016 20:55 UTC,30.05,63.14,56.66,82.52,10.36,190.0,,,,,,1.0,,,,10.0,,KIGQ 282055Z AUTO 19009KT 10SM CLR 17/14 A3005 RMK AO2  T01730137,,,,,,57.69,,S,29.4,28.6,,Clear
KIGQ,10/28/2016 21:15 UTC,30.04,63.5,57.2,77.48,13.8,190.0,19.57,,,,,1.0,,,,10.0,,KIGQ 282115Z AUTO 19012G17KT 10SM CLR 18/14 A3004 RMK AO2  T01750140,,,,,,56.28,,S,29.39,28.65,,Clear
KIGQ,10/28/2016 21:35 UTC,30.03,62.96,57.38,82.52,13.8,190.0,,,,,,1.0,,,,10.0,,KIGQ 282135Z AUTO 19012KT 10SM CLR 17/14 A3003 RMK AO2  T01720141,,,,,,57.51,,S,29.38,28.59,,Clear
KIGQ,10/28/2016 21:55 UTC,30.03,62.78,57.38,82.52,12.66,190.0,,,,,,1.0,,,,10.0,,KIGQ 282155Z AUTO 19011KT 10SM CLR 17/14 A3003 RMK AO2  T01710141,,,,,,57.34,,S,29.38,28.6,,Clear
KIGQ,10/28/2016 22:15 UTC,30.01,62.24,57.38,82.52,11.5,190.0,,,,,,1.0,,,,10.0,,KIGQ 282215Z AUTO 19010KT 10SM CLR 17/14 A3001 RMK AO2  T01680141,,,,,,56.81,,S,29.36,28.61,,Clear
KIGQ,10/28/2016 22:35 UTC,30.01,60.98,57.2,87.94,10.36,180.0,,,,,,1.0,,,,10.0,,KIGQ 282235Z AUTO 18009KT 10SM CLR 16/14 A3001 RMK AO2  T01610140,,,,,,57.35,,S,29.36,28.6,,Clear
KIGQ,10/28/2016 22:55 UTC,30.01,60.98,57.02,87.94,11.5,180.0,,,,,,1.0,,,,10.0,,KIGQ 282255Z AUTO 18010KT 10SM CLR 16/14 A3001 RMK AO2  T01610139,,,,,,57.35,,S,29.36,28.6,,Clear
KIGQ,10/28/2016 23:15 UTC,30.0,60.8,56.84,87.94,13.8,180.0,,,,,,1.0,,,,10.0,,KIGQ 282315Z AUTO 18012KT 10SM CLR 16/14 A3000 RMK AO2  T01600138,,,,,,57.17,,S,29.35,28.6,,Clear
KIGQ,10/28/2016 23:35 UTC,30.0,60.8,56.66,87.94,14.97,180.0,19.57,,,,,1.0,,,,10.0,,KIGQ 282335Z AUTO 18013G17KT 10SM CLR 16/14 A3000 RMK AO2  T01600137,,,,,,57.17,,S,29.35,28.6,,Clear
KIGQ,10/28/2016 23:55 UTC,30.0,60.8,56.66,87.94,16.11,180.0,,,,,,1.0,,,,10.0,,KIGQ 282355Z AUTO 18014KT 10SM CLR 16/14 A3000 RMK AO2 T01600137  10176 20147,63.68,58.46,,,,57.17,,S,29.35,28.6,,Clear
KIGQ,10/29/2016 00:15 UTC,30.0,60.44,56.66,87.94,13.8,180.0,,,,,,1.0,,,,10.0,,KIGQ 290015Z AUTO 18012KT 10SM CLR 16/14 A3000 RMK AO2  T01580137,,,,,,56.82,,S,29.35,28.62,,Clear
KIGQ,10/29/2016 00:35 UTC,30.0,60.44,56.84,87.94,18.41,190.0,,,,,,1.0,,,,10.0,,KIGQ 290035Z AUTO 19016KT 10SM CLR 16/14 A3000 RMK AO2  T01580138,,,,,,56.82,,S,29.35,28.62,,Clear
KIGQ,10/29/2016 00:55 UTC,30.0,60.8,57.2,87.94,14.97,190.0,21.85,,,,,1.0,,,,10.0,,KIGQ 290055Z AUTO 19013G19KT 10SM CLR 16/14 A3000 RMK AO2  T01600140,,,,,,57.17,,S,29.35,28.6,,Clear
KIGQ,10/29/2016 01:15 UTC,30.0,60.8,56.84,87.94,18.41,200.0,26.46,,,,,1.0,,,,10.0,,KIGQ 290115Z AUTO 20016G23KT 10SM CLR 16/14 A3000 RMK AO2  T01600138,,,,,,57.17,,SSW,29.35,28.6,,Clear
KIGQ,10/29/2016 01:35 UTC,29.99,60.8,56.66,87.94,16.11,200.0,21.85,,,,,1.0,,,,10.0,,KIGQ 290135Z AUTO 20014G19KT 10SM CLR 16/14 A2999 RMK AO2  T01600137,,,,,,57.17,,SSW,29.34,28.59,,Clear
KIGQ,10/29/2016 01:55 UTC,29.99,60.8,56.48,87.94,18.41,200.0,25.32,,,,,1.0,,,,10.0,,KIGQ 290155Z AUTO 20016G22KT 10SM CLR 16/14 A2999 RMK AO2  T01600136,,,,,,57.17,,SSW,29.34,28.59,,Clear
KIGQ,10/29/2016 02:15 UTC,29.98,60.8,56.48,87.94,18.41,200.0,26.46,,,,,1.0,,,,10.0,,KIGQ 290215Z AUTO 20016G23KT 10SM CLR 16/14 A2998 RMK AO2  T01600136,,,,,,57.17,,SSW,29.33,28.58,,Clear
KIGQ,10/29/2016 02:35 UTC,29.97,60.8,56.66,87.94,14.97,200.0,24.16,,,,,1.0,,,,10.0,,KIGQ 290235Z AUTO 20013G21KT 10SM CLR 16/14 A2997 RMK AO2  T01600137,,,,,,57.17,,SSW,29.32,28.57,,Clear
KIGQ,10/29/2016 02:55 UTC,29.97,60.98,56.66,87.94,20.71,200.0,27.63,,,,,1.0,,,,10.0,,KIGQ 290255Z AUTO 20018G24KT 10SM CLR 16/14 A2997 RMK AO2  T01610137,,,,,,57.35,,SSW,29.32,28.56,,Clear
KIGQ,10/29/2016 03:15 UTC,29.97,61.34,57.2,87.94,21.85,210.0,27.63,,,,,1.0,,,,10.0,,KIGQ 290315Z AUTO 21019G24KT 10SM CLR 16/14 A2997 RMK AO2  T01630140,,,,,,57.71,,SSW,29.32,28.54,,Clear
KIGQ,10/29/2016 03:35 UTC,29.96,61.16,57.2,87.94,19.57,210.0,28.77,,,,,1.0,,,,10.0,,KIGQ 290335Z AUTO 21017G25KT 10SM CLR 16/14 A2996 RMK AO2  T01620140,,,,,,57.53,,SSW,29.31,28.54,,Clear
KIGQ,10/29/2016 03:55 UTC,29.96,61.16,57.38,87.94,18.41,210.0,31.07,,,,,1.0,,,,10.0,,KIGQ 290355Z AUTO 21016G27KT 10SM CLR 16/14 A2996 RMK AO2  T01620141,,,,,,57.53,,SSW,29.31,28.54,,Clear
KIGQ,10/29/2016 04:15 UTC,29.96,61.16,57.56,87.94,18.41,210.0,25.32,,,,,1.0,,,,10.0,,KIGQ 290415Z AUTO 21016G22KT 10SM CLR 16/14 A2996 RMK AO2  T01620142,,,,,,57.53,,SSW,29.31,28.54,,Clear
KIGQ,10/29/2016 04:35 UTC,29.95,61.7,58.1,88.02,19.57,210.0,25.32,,,,,1.0,,,,10.0,,KIGQ 290435Z AUTO 21017G22KT 10SM CLR 17/15 A2995 RMK AO2  T01650145,,,,,,58.09,,SSW,29.3,28.5,,Clear
KIGQ,10/29/2016 04:55 UTC,29.95,62.06,58.46,88.02,17.27,210.0,29.93,,,,,1.0,,,,10.0,,KIGQ 290455Z AUTO 21015G26KT 10SM CLR 17/15 A2995 RMK AO2  T01670147,,,,,,58.44,,SSW,29.3,28.47,,Clear
KIGQ,10/29/2016 05:15 UTC,29.94,61.7,58.46,88.02,17.27,210.0,,,,,,1.0,,,,10.0,,KIGQ 290515Z AUTO 21015KT 10SM CLR 17/15 A2994 RMK AO2  T01650147,,,,,,58.09,,SSW,29.29,28.49,,Clear
KIGQ,10/29/2016 05:35 UTC,29.94,61.7,58.46,88.02,19.57,220.0,26.46,,,,,1.0,,,,10.0,,KIGQ 290535Z AUTO 22017G23KT 10SM CLR 17/15 A2994 RMK AO2  T01650147,,,,,,58.09,,SW,29.29,28.49,,Clear
KIGQ,10/29/2016 05:55 UTC,29.94,61.7,59.0,88.02,16.11,220.0,,,,,,1.0,,,,10.0,,KIGQ 290555Z AUTO 22014KT 10SM CLR 17/15 A2994 RMK AO2 T01650150  10167 20156 401760026,62.06,60.08,,63.68,36.68,58.09,,SW,29.29,28.49,,Clear
KIGQ,10/29/2016 06:15 UTC,29.94,61.88,59.18,88.02,19.57,220.0,24.16,,,,,1.0,,,,10.0,,KIGQ 290615Z AUTO 22017G21KT 10SM CLR 17/15 A2994 RMK AO2  T01660151,,,,,,58.26,,SW,29.29,28.48,,Clear
KIGQ,10/29/2016 06:35 UTC,29.93,62.24,59.36,88.02,14.97,220.0,21.85,,,,,1.0,,,,10.0,,KIGQ 290635Z AUTO 22013G19KT 10SM CLR 17/15 A2993 RMK AO2  T01680152,,,,,,58.62,,SW,29.28,28.44,,Clear
KIGQ,10/29/2016 06:55 UTC,29.93,62.6,59.9,93.84,17.27,210.0,20.71,,,,,1.0,,,,10.0,,KIGQ 290655Z AUTO 21015G18KT 10SM CLR 17/16 A2993 RMK AO2  T01700155,,,,,,60.79,,SSW,29.28,28.33,,Clear
KIGQ,10/29/2016 07:15 UTC,29.92,62.78,59.9,93.84,13.8,220.0,20.71,,,,,1.0,,,,10.0,,KIGQ 290715Z AUTO 22012G18KT 10SM CLR 17/16 A2992 RMK AO2  T01710155,,,,,,60.96,,SW,29.27,28.31,,Clear
KIGQ,10/29/2016 07:35 UTC,29.92,62.6,59.9,93.84,14.97,220.0,19.57,,,,,1.0,,,,10.0,,KIGQ 290735Z AUTO 22013G17KT 10SM CLR 17/16 A2992 RMK AO2  T01700155,,,,,,60.79,,SW,29.27,28.32,,Clear
KIGQ,10/29/2016 07:55 UTC,29.92,62.96,59.9,93.84,13.8,220.0,20.71,,,,,1.0,,,,10.0,,KIGQ 290755Z AUTO 22012G18KT 10SM CLR 17/16 A2992 RMK AO2  T01720155,,,,,,61.14,,SW,29.27,28.3,,Clear
KIGQ,10/29/2016 08:15 UTC,29.92,62.78,59.9,93.84,12.66,220.0,,,,,,1.0,,,,10.0,,KIGQ 290815Z AUTO 22011KT 10SM CLR 17/16 A2992 RMK AO2  T01710155,,,,,,60.96,,SW,29.27,28.31,,Clear
KIGQ,10/29/2016 08:35 UTC,29.91,63.14,59.9,93.84,13.8,220.0,23.02,,,,,1.0,,,,10.0,,KIGQ 290835Z AUTO 22012G20KT 10SM CLR 17/16 A2991 RMK AO2  T01730155,,,,,,61.32,,SW,29.26,28.27,,Clear
KIGQ,10/29/2016 08:55 UTC,29.91,63.86,60.26,88.11,16.11,220.0,,,,,,1.0,,,,10.0,,KIGQ 290855Z AUTO 22014KT 10SM CLR 18/16 A2991 RMK AO2  T01770157,,,,,,60.25,,SW,29.26,28.32,,Clear
KIGQ,10/29/2016 09:15 UTC,29.91,63.68,60.08,88.11,12.66,220.0,,,,,,1.0,,,,10.0,,KIGQ 290915Z AUTO 22011KT 10SM CLR 18/16 A2991 RMK AO2  T01760156,,,,,,60.07,,SW,29.26,28.33,,Clear
KIGQ,10/29/2016 09:35 UTC,29.91,63.86,60.26,88.11,12.66,230.0,18.41,,,,,702.0,,,,10.0,,KIGQ 290935Z AUTO 23011G16KT 10SM SCT070 18/16 A2991 RMK AO2  T01770157,,,,,,60.25,,SW,29.26,28.32,,Partly Cloudy
KIGQ,10/29/2016 09:55 UTC,29.91,63.68,60.08,88.11,12.66,230.0,20.71,,,,,1.0,,,,10.0,,KIGQ 290955Z AUTO 23011G18KT 10SM CLR 18/16 A2991 RMK AO2  T01760156,,,,,,60.07,,SW,29.26,28.33,,Clear
KIGQ,10/29/2016 10:15 UTC,29.91,63.5,60.08,88.11,12.66,230.0,,,,,,1.0,,,,10.0,,KIGQ 291015Z AUTO 23011KT 10SM CLR 18/16 A2991 RMK AO2  T01750156,,,,,,59.89,,SW,29.26,28.34,,Clear
KIGQ,10/29/2016 10:35 UTC,29.92,63.5,59.9,88.11,10.36,230.0,18.41,,,,,1.0,,,,10.0,,KIGQ 291035Z AUTO 23009G16KT 10SM CLR 18/16 A2992 RMK AO2  T01750155,,,,,,59.89,,SW,29.27,28.35,,Clear
KIGQ,10/29/2016 10:55 UTC,29.92,62.96,59.9,93.84,10.36,230.0,,,,,,1.0,,,,10.0,,KIGQ 291055Z AUTO 23009KT 10SM CLR 17/16 A2992 RMK AO2  T01720155,,,,,,61.14,,SW,29.27,28.3,,Clear
KIGQ,10/29/2016 11:15 UTC,29.92,62.6,59.54,88.02,11.5,220.0,,,,,,1.0,,,,10.0,,KIGQ 291115Z AUTO 22010KT 10SM CLR 17/15 A2992 RMK AO2  T01700153,,,,,,58.97,,SW,29.27,28.41,,Clear
KIGQ,10/29/2016 11:35 UTC,29.92,62.42,59.54,88.02,11.5,230.0,,,,,,1.0,,,,10.0,,KIGQ 291135Z AUTO 23010KT 10SM CLR 17/15 A2992 RMK AO2  T01690153,,,,,,58.8,,SW,29.27,28.42,,Clear
KIGQ,10/29/2016 11:55 UTC,29.92,62.6,59.54,88.02,12.66,230.0,,,,,,1.0,,,,10.0,,KIGQ 291155Z AUTO 23011KT 10SM CLR 17/15 A2992 RMK AO2 T01700153  10178 20165,64.04,61.7,,,,58.97,,SW,29.27,28.41,,Clear
KIGQ,10/29/2016 12:15 UTC,29.92,62.6,59.54,88.02,10.36,230.0,18.41,,,,,1.0,,,,10.0,,KIGQ 291215Z AUTO 23009G16KT 10SM CLR 17/15 A2992 RMK AO2  T01700153,,,,,,58.97,,SW,29.27,28.41,,Clear
KIGQ,10/29/2016 12:35 UTC,29.93,61.88,59.36,88.02,10.36,220.0,,,,,,1.0,,,,10.0,,KIGQ 291235Z AUTO 22009KT 10SM CLR 17/15 A2993 RMK AO2  T01660152,,,,,,58.26,,SW,29.28,28.47,,Clear
KIGQ,10/29/2016 12:55 UTC,29.93,62.06,59.36,88.02,11.5,220.0,,,,,,1.0,,,,10.0,,KIGQ 291255Z AUTO 22010KT 10SM CLR 17/15 A2993 RMK AO2  T01670152,,,,,,58.44,,SW,29.28,28.45,,Clear
KIGQ,10/29/2016 13:15 UTC,29.93,62.78,59.72,88.02,10.36,230.0,,,,,,1.0,,,,10.0,,KIGQ 291315Z AUTO 23009KT 10SM CLR 17/15 A2993 RMK AO2  T01710154,,,,,,59.15,,SW,29.28,28.41,,Clear
KIGQ,10/29/2016 13:35 UTC,29.93,63.14,59.9,93.84,12.66,230.0,16.11,,,,,1.0,,,,10.0,,KIGQ 291335Z AUTO 23011G14KT 10SM CLR 17/16 A2993 RMK AO2  T01730155,,,,,,61.32,,SW,29.28,28.29,,Clear
KIGQ,10/29/2016 13:55 UTC,29.94,63.86,60.08,88.11,11.5,230.0,,,,,,1.0,,,,10.0,,KIGQ 291355Z AUTO 23010KT 10SM CLR 18/16 A2994 RMK AO2  T01770156,,,,,,60.25,,SW,29.29,28.35,,Clear
KIGQ,10/29/2016 14:15 UTC,29.94,64.58,60.08,88.11,9.22,230.0,,,,,,1.0,,,,10.0,,KIGQ 291415Z AUTO 23008KT 10SM CLR 18/16 A2994 RMK AO2  T01810156,,,,,,60.95,,SW,29.29,28.31,,Clear
KIGQ,10/29/2016 14:35 UTC,29.94,65.48,60.44,82.77,11.5,230.0,,,,,,1.0,,,,10.0,,KIGQ 291435Z AUTO 23010KT 10SM CLR 19/16 A2994 RMK AO2  T01860158,,,,,,60.07,,SW,29.29,28.34,,Clear
KIGQ,10/29/2016 14:55 UTC,29.94,66.2,60.8,82.77,10.36,240.0,17.27,,,,,1.0,,,,10.0,,KIGQ 291455Z AUTO 24009G15KT 10SM CLR 19/16 A2994 RMK AO2  T01900160,,,,,,60.77,,WSW,29.29,28.29,,Clear
KIGQ,10/29/2016 15:15 UTC,29.95,67.82,61.52,77.79,12.66,240.0,,,,,,1.0,,,,10.0,,KIGQ 291515Z AUTO 24011KT 10SM CLR 20/16 A2995 RMK AO2  T01990164,,,,,,60.59,,WSW,29.3,28.3,,Clear
KIGQ,10/29/2016 15:35 UTC,29.94,68.0,60.8,77.79,16.11,240.0,,,,,,1.0,,,,10.0,,KIGQ 291535Z AUTO 24014KT 10SM CLR 20/16 A2994 RMK AO2  T02000160,,,,,,60.77,,WSW,29.29,28.27,,Clear
KIGQ,10/29/2016 15:55 UTC,29.94,68.36,60.98,77.79,11.5,250.0,21.85,,,,,1.0,,,,10.0,,KIGQ 291555Z AUTO 25010G19KT 10SM CLR 20/16 A2994 RMK AO2  T02020161,,,,,,61.12,,WSW,29.29,28.25,,Clear
KIGQ,10/29/2016 16:15 UTC,29.95,68.72,61.34,77.79,10.36,250.0,,,,,,1.0,,,,10.0,,KIGQ 291615Z AUTO 25009KT 10SM CLR 20/16 A2995 RMK AO2  T02040163,,,,,,61.47,,WSW,29.3,28.24,,Clear
KIGQ,10/29/2016 16:35 UTC,29.95,69.26,61.52,73.15,13.8,240.0,18.41,,,,,1.0,,,,10.0,,KIGQ 291635Z AUTO 24012G16KT 10SM CLR 21/16 A2995 RMK AO2  T02070164,,,,,,60.25,,WSW,29.3,28.3,,Clear
KIGQ,10/29/2016 16:55 UTC,29.95,70.16,61.7,77.94,13.8,250.0,19.57,,,,,1.0,,,,10.0,,KIGQ 291655Z AUTO 25012G17KT 10SM CLR 21/17 A2995 RMK AO2  T02120165,,,,,,62.92,,WSW,29.3,28.14,,Clear
KIGQ,10/29/2016 17:15 UTC,29.94,70.7,62.06,73.32,12.66,250.0,19.57,,,,,313.0,,,,10.0,,KIGQ 291715Z AUTO 25011G17KT 10SM BKN031 22/17 A2994 RMK AO2  T02150167,,,3100.0,,,61.7,,WSW,29.29,28.19,,Mostly Cloudy
KIGQ,10/29/2016 17:35 UTC,29.94,70.88,61.88,73.32,16.11,250.0,21.85,,,,,314.0,,,,10.0,,KIGQ 291735Z AUTO 25014G19KT 10SM OVC031 22/17 A2994 RMK AO2  T02160166,,,3100.0,,,61.88,,WSW,29.29,28.18,,Overcast
KIGQ,10/29/2016 17:55 UTC,29.94,70.7,62.06,73.32,12.66,260.0,19.57,,,,,314.0,,,,10.0,,KIGQ 291755Z AUTO 26011G17KT 10SM OVC031 22/17 A2994 RMK AO2  T02150167 10216 20166,70.88,61.88,3100.0,,,61.7,,W,29.29,28.19,,Overcast
KIGQ,10/29/2016 18:15 UTC,29.93,71.6,62.6,73.32,12.66,250.0,18.41,,,,,314.0,,,,10.0,,KIGQ 291815Z AUTO 25011G16KT 10SM OVC031 22/17 A2993 RMK AO2  T02200170,,,3100.0,,,62.57,,WSW,29.28,28.12,,Overcast
KIGQ,10/29/2016 18:35 UTC,29.92,72.5,63.14,69.01,11.5,250.0,,,,,,313.0,,,,10.0,,KIGQ 291835Z AUTO 25010KT 10SM BKN031 23/17 A2992 RMK AO2  T02250173,,,3100.0,,,61.71,,WSW,29.27,28.15,,Mostly Cloudy
KIGQ,10/29/2016 18:55 UTC,29.91,72.32,63.14,73.32,12.66,240.0,,,,,,333.0,,,,10.0,,KIGQ 291855Z AUTO 24011KT 10SM BKN033 22/17 A2991 RMK AO2  T02240173,,,3300.0,,,63.27,,WSW,29.26,28.05,,Mostly Cloudy
KIGQ,10/29/2016 19:15 UTC,29.91,72.5,62.96,69.01,9.22,240.0,,,,,,332.0,,,,10.0,,KIGQ 291915Z AUTO 24008KT 10SM SCT033 23/17 A2991 RMK AO2  T02250172,,,,,,61.71,,WSW,29.26,28.14,,Partly Cloudy
KIGQ,10/29/2016 19:35 UTC,29.91,73.04,63.32,69.01,11.5,250.0,16.11,,,,,332.0,,,,10.0,,KIGQ 291935Z AUTO 25010G14KT 10SM SCT033 23/17 A2991 RMK AO2  T02280174,,,,,,62.23,,WSW,29.26,28.1,,Partly Cloudy
KIGQ,10/29/2016 19:55 UTC,29.91,74.12,63.5,73.5,9.22,250.0,,,,,,372.0,,,,10.0,,KIGQ 291955Z AUTO 25008KT 10SM SCT037 23/18 A2991 RMK AO2  T02340175,,,,,,65.08,,WSW,29.26,27.91,,Partly Cloudy
KIGQ,10/29/2016 20:15 UTC,29.91,73.22,63.32,69.01,10.36,260.0,,,,,,374.0,,,,10.0,,KIGQ 292015Z AUTO 26009KT 10SM OVC037 23/17 A2991 RMK AO2  T02290174,,,3700.0,,,62.41,,W,29.26,28.09,,Overcast
KIGQ,10/29/2016 20:35 UTC,29.91,72.86,63.5,73.5,9.22,250.0,,,,,,374.0,,,,10.0,,KIGQ 292035Z AUTO 25008KT 10SM OVC037 23/18 A2991 RMK AO2  T02270175,,,3700.0,,,63.86,,WSW,29.26,28.01,,Overcast
KIGQ,10/29/2016 20:55 UTC,29.92,72.86,63.68,73.5,8.05,270.0,,,,,,374.0,,,,10.0,,KIGQ 292055Z AUTO 27007KT 10SM OVC037 23/18 A2992 RMK AO2  T02270176,,,3700.0,,,63.86,,W,29.27,28.02,,Overcast
KIGQ,10/29/2016 21:15 UTC,29.92,72.68,63.5,73.5,8.05,260.0,,,,,,394.0,,,,10.0,,KIGQ 292115Z AUTO 26007KT 10SM OVC039 23/18 A2992 RMK AO2  T02260175,,,3900.0,,,63.69,,W,29.27,28.03,,Overcast
KIGQ,10/29/2016 21:35 UTC,29.92,72.32,63.5,78.09,6.91,260.0,,,,,,394.0,,,,10.0,,KIGQ 292135Z AUTO 26006KT 10SM OVC039 22/18 A2992 RMK AO2  T02240175,,,3900.0,,,65.08,,W,29.27,27.95,,Overcast
KIGQ,10/29/2016 21:55 UTC,29.92,71.78,63.5,78.09,4.61,250.0,,,,,,414.0,,,,10.0,,KIGQ 292155Z AUTO 25004KT 10SM OVC041 22/18 A2992 RMK AO2  T02210175,,,4100.0,,,64.55,,WSW,29.27,27.99,,Overcast
KIGQ,10/29/2016 22:15 UTC,29.93,71.24,63.5,78.09,3.44,270.0,,,,,,414.0,,,,10.0,,KIGQ 292215Z AUTO 27003KT 10SM OVC041 22/18 A2993 RMK AO2  T02180175,,,4100.0,,,64.03,,W,29.28,28.04,,Overcast
KIGQ,10/29/2016 22:35 UTC,29.93,71.24,63.68,78.09,0.0,0.0,,,,,,434.0,,,,10.0,,KIGQ 292235Z AUTO 00000KT 10SM OVC043 22/18 A2993 RMK AO2  T02180176,,,4300.0,,,64.03,,N,29.28,28.04,,Overcast
KIGQ,10/29/2016 22:55 UTC,29.93,69.26,63.68,83.01,0.0,0.0,,,,,,454.0,,,,10.0,,KIGQ 292255Z AUTO 00000KT 10SM OVC045 21/18 A2993 RMK AO2  T02070176,,,4500.0,,,63.85,,N,29.28,28.07,,Overcast
KIGQ,10/29/2016 23:15 UTC,29.94,67.64,63.14,82.89,0.0,0.0,,,,,,474.0,,,,10.0,,KIGQ 292315Z AUTO 00000KT 10SM OVC047 20/17 A2994 RMK AO2  T01980173,,,4700.0,,,62.22,,N,29.29,28.2,,Overcast
KIGQ,10/29/2016 23:35 UTC,29.94,66.92,63.5,93.94,0.0,0.0,,,,,,474.0,,,,10.0,,KIGQ 292335Z AUTO 00000KT 10SM OVC047 19/18 A2994 RMK AO2  T01940175,,,4700.0,,,65.11,,N,29.29,28.04,,Overcast
KIGQ,10/29/2016 23:55 UTC,29.95,68.0,62.78,82.89,6.91,20.0,,,,,,454.0,,,,10.0,,KIGQ 292355Z AUTO 02006KT 10SM OVC045 20/17 A2995 RMK AO2  T02000171 10235 20187,74.3,65.66,4500.0,,,62.57,,NNE,29.3,28.18,,Overcast
KIGQ,10/30/2016 00:15 UTC,29.96,66.2,61.7,88.2,8.05,30.0,,,,,,452.0,504.0,,,10.0,,KIGQ 300015Z AUTO 03007KT 10SM SCT045 OVC050 19/17 A2996 RMK AO2  T01900165,,,5000.0,,,62.58,,NNE,29.31,28.22,,Overcast
KIGQ,10/30/2016 00:35 UTC,29.96,64.94,61.16,88.11,5.75,30.0,,,,,,504.0,,,,10.0,,KIGQ 300035Z AUTO 03005KT 10SM OVC050 18/16 A2996 RMK AO2  T01830162,,,5000.0,,,61.31,,NNE,29.31,28.3,,Overcast
KIGQ,10/30/2016 00:55 UTC,29.96,62.96,60.44,93.84,9.22,40.0,,,,,,503.0,,,,10.0,,KIGQ 300055Z AUTO 04008KT 10SM BKN050 17/16 A2996 RMK AO2  T01720158,,,5000.0,,,61.14,,NE,29.31,28.34,,Mostly Cloudy
KIGQ,10/30/2016 01:15 UTC,29.97,60.8,59.36,93.8,10.36,20.0,,,,,,502.0,,,,7.0,,KIGQ 300115Z AUTO 02009KT 7SM SCT050 16/15 A2997 RMK AO2  T01600152,,,,,,58.99,,NNE,29.32,28.48,,Partly Cloudy
KIGQ,10/30/2016 01:35 UTC,29.97,59.18,59.0,100.0,9.22,30.0,,31.0,,,,53.0,,,,5.0,,KIGQ 300135Z AUTO 03008KT 5SM BR BKN005 15/15 A2997 RMK AO2  T01510150,,,500.0,,,59.18,,NNE,29.32,28.5,,Mist
KIGQ,10/30/2016 01:55 UTC,29.98,59.0,59.0,100.0,8.05,30.0,,31.0,,,,54.0,,,,4.0,,KIGQ 300155Z AUTO 03007KT 4SM BR OVC005 15/15 A2998 RMK AO2  T01500150,,,500.0,,,59.0,,NNE,29.33,28.52,,Mist
KIGQ,10/30/2016 02:15 UTC,29.99,58.64,58.64,100.0,8.05,30.0,,31.0,,,,54.0,,,,4.0,,KIGQ 300215Z AUTO 03007KT 4SM BR OVC005 15/15 A2999 RMK AO2  T01480148,,,500.0,,,58.64,,NNE,29.34,28.55,,Mist
KIGQ,10/30/2016 02:35 UTC,29.99,58.28,58.1,100.0,11.5,30.0,,31.0,,,,54.0,,,,5.0,,KIGQ 300235Z AUTO 03010KT 5SM BR OVC005 15/15 A2999 RMK AO2  T01460145,,,500.0,,,58.28,,NNE,29.34,28.57,,Mist
KIGQ,10/30/2016 02:55 UTC,30.0,58.46,56.66,93.75,11.5,40.0,17.27,,,,,52.0,654.0,,,10.0,,KIGQ 300255Z AUTO 04010G15KT 10SM SCT005 OVC065 15/14 A3000 RMK AO2 T01470137,,,6500.0,,,56.65,,NE,29.35,28.65,,Overcast
KIGQ,10/30/2016 03:15 UTC,30.0,58.1,56.12,87.85,11.5,40.0,,,,,,133.0,654.0,,,10.0,,KIGQ 300315Z AUTO 04010KT 10SM BKN013 OVC065 15/13 A3000 RMK AO2  T01450134,,,1300.0,,,54.48,,NE,29.35,28.75,,Overcast
KIGQ,10/30/2016 03:35 UTC,30.0,58.1,55.76,87.85,10.36,40.0,,,,,,134.0,,,,10.0,,KIGQ 300335Z AUTO 04009KT 10SM OVC013 15/13 A3000 RMK AO2  T01450132,,,1300.0,,,54.48,,NE,29.35,28.75,,Overcast
KIGQ,10/30/2016 03:55 UTC,30.0,58.1,55.76,87.85,5.75,30.0,,,,,,134.0,,,,10.0,,KIGQ 300355Z AUTO 03005KT 10SM OVC013 15/13 A3000 RMK AO2  T01450132,,,1300.0,,,54.48,,NNE,29.35,28.75,,Overcast
KIGQ,10/30/2016 04:15 UTC,30.0,58.1,55.58,87.85,4.61,40.0,,,,,,134.0,,,,10.0,,KIGQ 300415Z AUTO 04004KT 10SM OVC013 15/13 A3000 RMK AO2  T01450131,,,1300.0,,,54.48,,NE,29.35,28.75,,Overcast
KIGQ,10/30/2016 04:35 UTC,30.0,58.1,54.32,82.27,5.75,30.0,,,,,,154.0,,,,10.0,,KIGQ 300435Z AUTO 03005KT 10SM OVC015 15/12 A3000 RMK AO2  T01450124,,,1500.0,,,52.68,,NNE,29.35,28.82,,Overcast
KIGQ,10/30/2016 04:55 UTC,30.0,57.56,53.6,87.75,8.05,40.0,,,,,,154.0,,,,10.0,,KIGQ 300455Z AUTO 04007KT 10SM OVC015 14/12 A3000 RMK AO2  T01420120,,,1500.0,,,53.92,,NE,29.35,28.78,,Overcast
KIGQ,10/30/2016 05:15 UTC,29.99,57.2,53.6,87.75,9.22,40.0,,,,,,154.0,,,,10.0,,KIGQ 300515Z AUTO 04008KT 10SM OVC015 14/12 A2999 RMK AO2  T01400120,,,1500.0,,,53.57,,NE,29.34,28.79,,Overcast
KIGQ,10/30/2016 05:35 UTC,29.99,56.66,53.96,87.75,9.22,50.0,,,,,,154.0,,,,10.0,,KIGQ 300535Z AUTO 05008KT 10SM OVC015 14/12 A2999 RMK AO2 LTG DSNT  NW T01370122,,,1500.0,,,53.03,,NE,29.34,28.81,,Overcast
KIGQ,10/30/2016 05:55 UTC,30.0,56.48,53.78,87.75,8.05,30.0,,,,,,174.0,,,,10.0,,KIGQ 300555Z AUTO 03007KT 10SM OVC017 14/12 A3000 RMK AO2  T01360121 10200 20136 402350136,68.0,56.48,1700.0,74.3,56.48,52.86,,NNE,29.35,28.83,,Overcast
KIGQ,10/30/2016 06:15 UTC,29.99,56.48,53.96,87.75,8.05,40.0,,,,,,173.0,604.0,,,10.0,,KIGQ 300615Z AUTO 04007KT 10SM BKN017 OVC060 14/12 A2999 RMK AO2  T01360122,,,1700.0,,,52.86,,NE,29.34,28.82,,Overcast
KIGQ,10/30/2016 06:35 UTC,29.98,56.3,53.96,87.75,8.05,40.0,,,,,,603.0,754.0,,,10.0,,KIGQ 300635Z AUTO 04007KT 10SM BKN060 OVC075 14/12 A2998 RMK AO2  LTG DSNT N AND NW T01350122,,,6000.0,,,52.68,,NE,29.33,28.82,,Overcast
KIGQ,10/30/2016 06:55 UTC,29.97,55.94,53.96,93.65,6.91,40.0,,,,,,602.0,754.0,,,10.0,,KIGQ 300655Z AUTO 04006KT 10SM SCT060 OVC075 13/12 A2997 RMK AO2  LTG DSNT N T01330122,,,7500.0,,,54.12,,NE,29.32,28.76,,Overcast
KIGQ,10/30/2016 07:15 UTC,29.97,55.94,54.14,93.65,5.75,40.0,,,,,,602.0,854.0,,,10.0,,KIGQ 300715Z AUTO 04005KT 10SM SCT060 OVC085 13/12 A2997 RMK AO2  LTG DSNT N T01330123,,,8500.0,,,54.12,,NE,29.32,28.76,,Overcast
KIGQ,10/30/2016 07:35 UTC,29.97,55.4,53.96,93.65,5.75,30.0,,,853.0,,,602.0,702.0,,,10.0,,KIGQ 300735Z AUTO 03005KT 10SM SCT060 SCT070 BKN085 13/12  A2997 RMK AO2 LTG DSNT NE T01300122,,,8500.0,,,53.58,,NNE,29.32,28.79,,Mostly Cloudy
KIGQ,10/30/2016 07:55 UTC,29.98,55.4,53.96,93.65,5.75,20.0,,,,,,602.0,752.0,,,10.0,,KIGQ 300755Z AUTO 02005KT 10SM SCT060 SCT075 13/12 A2998 RMK AO2  LTG DSNT W THRU NE T01300122,,,,,,53.58,,NNE,29.33,28.8,,Partly Cloudy
KIGQ,10/30/2016 08:15 UTC,29.98,55.4,53.6,93.65,6.91,20.0,,,752.0,,,172.0,602.0,,,10.0,,KIGQ 300815Z AUTO 02006KT 10SM SCT017 SCT060 SCT075 13/12  A2998 RMK AO2 LTG DSNT N AND W T01300120,,,,,,53.58,,NNE,29.33,28.8,,Partly Cloudy
KIGQ,10/30/2016 08:35 UTC,29.98,55.76,53.78,93.65,3.44,30.0,,,,,,212.0,603.0,,,10.0,,KIGQ 300835Z AUTO 03003KT 10SM SCT021 BKN060 13/12 A2998 RMK AO2  LTG DSNT N AND W T01320121,,,6000.0,,,53.94,,NNE,29.33,28.78,,Mostly Cloudy
KIGQ,10/30/2016 08:55 UTC,29.98,55.58,53.6,93.65,5.75,10.0,,,,,,222.0,604.0,,,10.0,,KIGQ 300855Z AUTO 01005KT 10SM SCT022 OVC060 13/12 A2998 RMK AO2  LTG DSNT W AND NW T01310120,,,6000.0,,,53.76,,N,29.33,28.79,,Overcast
KIGQ,10/30/2016 09:15 UTC,29.98,55.94,53.06,93.65,8.05,20.0,,,,,,223.0,604.0,,,10.0,,KIGQ 300915Z AUTO 02007KT 10SM BKN022 OVC060 13/12 A2998 RMK AO2  T01330117,,,2200.0,,,54.12,,NNE,29.33,28.77,,Overcast
KIGQ,10/30/2016 09:35 UTC,30.01,55.4,53.24,93.65,10.36,360.0,,13.0,,,,224.0,,,,10.0,,KIGQ 300935Z AUTO 36009KT 10SM -RA OVC022 13/12 A3001 RMK AO2 LTG  DSNT NW T01300118,,,2200.0,,,53.58,,N,29.36,28.83,,Light Rain
KIGQ,10/30/2016 09:55 UTC,30.03,54.68,53.42,93.65,13.8,360.0,19.57,13.0,224.0,,,133.0,183.0,,,10.0,,KIGQ 300955Z AUTO 36012G17KT 10SM -RA BKN013 BKN018 OVC022 13/12  A3003 RMK AO2 T01260119,,,1300.0,,,52.87,,N,29.38,28.88,,Light Rain
KIGQ,10/30/2016 10:15 UTC,30.03,53.6,52.7,100.0,13.8,10.0,19.57,14.0,704.0,0.01,,112.0,313.0,,,7.0,,KIGQ 301015Z AUTO 01012G17KT 7SM +RA SCT011 BKN031 OVC070 12/12  A3003 RMK AO2 P0001 T01200115,,,3100.0,,,53.6,,N,29.38,28.87,,Heavy Rain
KIGQ,10/30/2016 10:35 UTC,30.01,52.7,52.7,100.0,13.8,20.0,20.71,14.0,464.0,0.07,,63.0,313.0,,,7.0,,KIGQ 301035Z AUTO 02012G18KT 7SM +RA BKN006 BKN031 OVC046 12/12  A3001 RMK AO2 P0007 T01150115,,,600.0,,,52.7,,NNE,29.36,28.89,,Heavy Rain
KIGQ,10/30/2016 10:55 UTC,30.04,52.34,52.34,100.0,5.75,360.0,,13.0,904.0,0.08,,83.0,483.0,,,10.0,,KIGQ 301055Z AUTO 36005KT 10SM -RA BKN008 BKN048 OVC090 11/11  A3004 RMK AO2 P0008 T01130113,,,800.0,,,52.34,,N,29.39,28.94,,Light Rain
KIGQ,10/30/2016 11:15 UTC,30.05,52.7,52.34,93.6,9.22,10.0,16.11,,,,,123.0,284.0,,,10.0,,KIGQ 301115Z AUTO 01008G14KT 10SM BKN012 OVC028 12/11 A3005 RMK AO2 T01150113,,,1200.0,,,50.89,,N,29.4,29.0,,Overcast
KIGQ,10/30/2016 11:35 UTC,30.04,53.24,52.16,96.11,9.22,20.0,18.41,,,,,123.0,284.0,,,10.0,,KIGQ 301135Z AUTO 02008G16KT 10SM BKN012 OVC028 12/11 A3004 RMK AO2 T01180112,,,1200.0,,,52.15,,NNE,29.39,28.94,,Overcast
KIGQ,10/30/2016 11:55 UTC,30.05,53.6,52.88,100.0,8.05,10.0,,,,,,124.0,,0.08,0.08,10.0,,KIGQ 301155Z AUTO 01007KT 10SM OVC012 12/12 A3005 RMK AO2 60008  70008 T01200116 10137 20113,56.66,52.34,1200.0,,,53.6,,N,29.4,28.89,,Overcast
KIGQ,10/30/2016 12:15 UTC,30.06,53.6,51.8,93.6,13.8,30.0,21.85,,424.0,,,143.0,203.0,,,10.0,,KIGQ 301215Z AUTO 03012G19KT 10SM BKN014 BKN020 OVC042 12/11  A3006 RMK AO2 T01200110,,,1400.0,,,51.78,,NNE,29.41,28.97,,Overcast
KIGQ,10/30/2016 12:35 UTC,30.06,53.6,51.26,93.6,6.91,30.0,,,444.0,,,142.0,202.0,,,10.0,,KIGQ 301235Z AUTO 03006KT 10SM SCT014 SCT020 OVC044 12/11  A3006 RMK AO2 T01200107,,,4400.0,,,51.78,,NNE,29.41,28.97,,Overcast
KIGQ,10/30/2016 12:55 UTC,30.08,53.6,51.08,93.6,5.75,40.0,,,,,,162.0,464.0,,,10.0,,KIGQ 301255Z AUTO 04005KT 10SM SCT016 OVC046 12/11 A3008 RMK AO2  T01200106,,,4600.0,,,51.78,,NE,29.43,28.99,,Overcast
KIGQ,10/30/2016 13:15 UTC,30.08,53.6,51.08,93.6,6.91,40.0,,,904.0,,,163.0,483.0,,,10.0,,KIGQ 301315Z AUTO 04006KT 10SM BKN016 BKN048 OVC090 12/11  A3008 RMK AO2 T01200106,,,1600.0,,,51.78,,NE,29.43,28.99,,Overcast
KIGQ,10/30/2016 13:35 UTC,30.09,53.96,50.72,87.57,11.5,40.0,20.71,,1204.0,,,163.0,903.0,,,10.0,,KIGQ 301335Z AUTO 04010G18KT 10SM BKN016 BKN090 OVC120 12/10  A3009 RMK AO2 T01220104,,,1600.0,,,50.32,,NE,29.44,29.05,,Overcast
KIGQ,10/30/2016 13:55 UTC,30.1,54.14,50.9,93.6,11.5,40.0,17.27,,,,,162.0,1203.0,,,10.0,,KIGQ 301355Z AUTO 04010G15KT 10SM SCT016 BKN120 12/11 A3010 RMK AO2 T01230105,,,12000.0,,,52.32,,NE,29.45,28.98,,Mostly Cloudy
KIGQ,10/30/2016 14:15 UTC,30.1,54.14,50.18,87.57,13.8,40.0,17.27,,,,,163.0,1103.0,,,10.0,,KIGQ 301415Z AUTO 04012G15KT 10SM BKN016 BKN110 12/10 A3010 RMK AO2 T01230101,,,1600.0,,,50.49,,NE,29.45,29.05,,Mostly Cloudy
KIGQ,10/30/2016 14:35 UTC,30.11,54.32,50.72,87.57,11.5,50.0,18.41,,,,,163.0,,,,10.0,,KIGQ 301435Z AUTO 05010G16KT 10SM BKN016 12/10 A3011 RMK AO2  T01240104,,,1600.0,,,50.67,,NE,29.46,29.05,,Mostly Cloudy
KIGQ,10/30/2016 14:55 UTC,30.11,54.5,50.36,82.01,13.8,30.0,18.41,,,,,164.0,,,,10.0,,KIGQ 301455Z AUTO 03012G16KT 10SM OVC016 13/10 A3011 RMK AO2  T01250102,,,1600.0,,,49.07,,NNE,29.46,29.11,,Overcast
KIGQ,10/30/2016 15:15 UTC,30.13,54.5,50.36,82.01,9.22,30.0,18.41,,,,,164.0,,,,10.0,,KIGQ 301515Z AUTO 03008G16KT 10SM OVC016 13/10 A3013 RMK AO2 LTG  DSNT E T01250102,,,1600.0,,,49.07,,NNE,29.47,29.12,,Overcast
KIGQ,10/30/2016 15:35 UTC,30.14,53.6,49.1,87.57,13.8,20.0,19.57,,,,,184.0,,,,10.0,,KIGQ 301535Z AUTO 02012G17KT 10SM OVC018 12/10 A3014 RMK AO2  T01200095,,,1800.0,,,49.96,,NNE,29.48,29.1,,Overcast
KIGQ,10/30/2016 15:55 UTC,30.16,53.78,49.28,87.57,11.5,10.0,,,,,,184.0,,,,10.0,,KIGQ 301555Z AUTO 01010KT 10SM OVC018 12/10 A3016 RMK AO2  T01210096,,,1800.0,,,50.14,,N,29.5,29.12,,Overcast
KIGQ,10/30/2016 16:15 UTC,30.16,53.78,48.92,81.88,6.91,30.0,18.41,,,,,184.0,,,,10.0,,KIGQ 301615Z AUTO 03006G16KT 10SM OVC018 12/09 A3016 RMK AO2  T01210094,,,1800.0,,,48.32,,NNE,29.5,29.18,,Overcast
KIGQ,10/30/2016 16:35 UTC,30.17,55.04,48.74,76.68,12.66,20.0,17.27,,,,,204.0,,,,10.0,,KIGQ 301635Z AUTO 02011G15KT 10SM OVC020 13/09 A3017 RMK AO2  T01280093,,,2000.0,,,47.78,,NNE,29.51,29.19,,Overcast
KIGQ,10/30/2016 16:55 UTC,30.17,53.78,48.38,81.88,10.36,30.0,,,,,,204.0,,,,10.0,,KIGQ 301655Z AUTO 03009KT 10SM OVC020 12/09 A3017 RMK AO2  T01210091,,,2000.0,,,48.32,,NNE,29.51,29.19,,Overcast
KIGQ,10/30/2016 17:15 UTC,30.17,55.04,48.2,76.68,9.22,40.0,,,,,,204.0,,,,10.0,,KIGQ 301715Z AUTO 04008KT 10SM OVC020 13/09 A3017 RMK AO2  T01280090,,,2000.0,,,47.78,,NE,29.51,29.19,,Overcast
KIGQ,10/30/2016 17:35 UTC,30.17,55.58,48.92,76.68,11.5,50.0,,,,,,204.0,,,,10.0,,KIGQ 301735Z AUTO 05010KT 10SM OVC020 13/09 A3017 RMK AO2  T01310094,,,2000.0,,,48.31,,NE,29.51,29.17,,Overcast
KIGQ,10/30/2016 17:55 UTC,30.17,54.5,48.56,76.68,9.22,20.0,16.11,,,,,204.0,,,,10.0,,KIGQ 301755Z AUTO 02008G14KT 10SM OVC020 13/09 A3017 RMK AO2  T01250092 10135 20118,56.3,53.24,2000.0,,,47.26,,NNE,29.51,29.22,,Overcast
KIGQ,10/30/2016 18:15 UTC,30.17,54.68,47.84,76.68,11.5,30.0,,,,,,233.0,294.0,,,10.0,,KIGQ 301815Z AUTO 03010KT 10SM BKN023 OVC029 13/09 A3017 RMK AO2  T01260088,,,2300.0,,,47.43,,NNE,29.51,29.21,,Overcast
KIGQ,10/30/2016 18:35 UTC,30.18,53.96,48.2,81.88,12.66,40.0,19.57,,,,,254.0,,,,10.0,,KIGQ 301835Z AUTO 04011G17KT 10SM OVC025 12/09 A3018 RMK AO2  T01220090,,,2500.0,,,48.5,,NE,29.52,29.19,,Overcast
KIGQ,10/30/2016 18:55 UTC,30.19,53.6,48.38,81.88,10.36,50.0,,,,,,234.0,,,,10.0,,KIGQ 301855Z AUTO 05009KT 10SM OVC023 12/09 A3019 RMK AO2  T01200091,,,2300.0,,,48.14,,NE,29.53,29.22,,Overcast
KIGQ,10/30/2016 19:15 UTC,30.18,53.78,48.92,81.88,6.91,40.0,,,,,,213.0,274.0,,,10.0,,KIGQ 301915Z AUTO 04006KT 10SM BKN021 OVC027 12/09 A3018 RMK AO2  T01210094,,,2100.0,,,48.32,,NE,29.52,29.2,,Overcast
KIGQ,10/30/2016 19:35 UTC,30.18,53.6,48.74,81.88,9.22,40.0,,,,,,193.0,254.0,,,10.0,,KIGQ 301935Z AUTO 04008KT 10SM BKN019 OVC025 12/09 A3018 RMK AO2  T01200093,,,1900.0,,,48.14,,NE,29.52,29.21,,Overcast
KIGQ,10/30/2016 19:55 UTC,30.19,53.78,48.56,81.88,12.66,20.0,16.11,,,,,213.0,274.0,,,10.0,,KIGQ 301955Z AUTO 02011G14KT 10SM BKN021 OVC027 12/09 A3019 RMK AO2 T01210092,,,2100.0,,,48.32,,NNE,29.53,29.21,,Overcast
KIGQ,10/30/2016 20:15 UTC,30.19,53.96,48.02,81.88,11.5,30.0,17.27,,324.0,,,192.0,242.0,,,10.0,,KIGQ 302015Z AUTO 03010G15KT 10SM SCT019 SCT024 OVC032 12/09  A3019 RMK AO2 T01220089,,,3200.0,,,48.5,,NNE,29.53,29.2,,Overcast
KIGQ,10/30/2016 20:35 UTC,30.2,53.6,47.66,81.88,11.5,20.0,17.27,,,,,222.0,324.0,,,10.0,,KIGQ 302035Z AUTO 02010G15KT 10SM SCT022 OVC032 12/09 A3020 RMK AO2 T01200087,,,3200.0,,,48.14,,NNE,29.54,29.23,,Overcast
KIGQ,10/30/2016 20:55 UTC,30.2,53.24,47.84,81.88,8.05,20.0,17.27,,,,,232.0,304.0,,,10.0,,KIGQ 302055Z AUTO 02007G15KT 10SM SCT023 OVC030 12/09 A3020 RMK AO2 T01180088,,,3000.0,,,47.79,,NNE,29.54,29.24,,Overcast
KIGQ,10/30/2016 21:15 UTC,30.2,52.88,47.3,81.88,8.05,20.0,,,,,,232.0,304.0,,,10.0,,KIGQ 302115Z AUTO 02007KT 340V050 10SM SCT023 OVC030 12/09  A3020 RMK AO2 T01160085,,,3000.0,,,47.44,,NNE,29.54,29.26,,Overcast
KIGQ,10/30/2016 21:35 UTC,30.21,52.7,46.76,76.52,10.36,360.0,,,,,,233.0,304.0,,,10.0,,KIGQ 302135Z AUTO 36009KT 10SM BKN023 OVC030 12/08 A3021 RMK AO2  T01150082,,,2300.0,,,45.45,,N,29.55,29.33,,Overcast
KIGQ,10/30/2016 21:55 UTC,30.21,52.16,46.4,81.75,9.22,10.0,,,,,,254.0,,,,10.0,,KIGQ 302155Z AUTO 01008KT 10SM OVC025 11/08 A3021 RMK AO2  T01120080,,,2500.0,,,46.69,,N,29.55,29.3,,Overcast
KIGQ,10/30/2016 22:15 UTC,30.21,51.98,46.04,81.75,8.05,10.0,,,,,,254.0,,,,10.0,,KIGQ 302215Z AUTO 01007KT 10SM OVC025 11/08 A3021 RMK AO2  T01110078,,,2500.0,,,46.52,,N,29.55,29.3,,Overcast
KIGQ,10/30/2016 22:35 UTC,30.21,51.8,46.04,81.75,9.22,20.0,,,,,,254.0,,,,10.0,,KIGQ 302235Z AUTO 02008KT 10SM OVC025 11/08 A3021 RMK AO2  T01100078,,,2500.0,,,46.34,,NNE,29.55,29.31,,Overcast
KIGQ,10/30/2016 22:55 UTC,30.22,51.44,44.42,76.35,9.22,30.0,,,,,,254.0,,,,10.0,,KIGQ 302255Z AUTO 03008KT 10SM OVC025 11/07 A3022 RMK AO2  T01080069,,,2500.0,,,44.17,,NNE,29.56,29.39,,Overcast
KIGQ,10/30/2016 23:15 UTC,30.23,51.26,44.06,76.35,6.91,20.0,16.11,,,,,254.0,,,,10.0,,KIGQ 302315Z AUTO 02006G14KT 10SM OVC025 11/07 A3023 RMK AO2  T01070067,,,2500.0,,,44.0,,NNE,29.57,29.4,,Overcast
KIGQ,10/30/2016 23:35 UTC,30.23,51.08,43.52,75.24,5.75,20.0,,,,,,274.0,,,,10.0,,KIGQ 302335Z AUTO 02005KT 10SM OVC027 11/06 A3023 RMK AO2  T01060064,,,2700.0,,,43.44,,NNE,29.57,29.42,,Overcast
KIGQ,10/30/2016 23:55 UTC,30.24,50.54,42.98,76.18,6.91,20.0,,,,,,294.0,,,,10.0,,KIGQ 302355Z AUTO 02006KT 10SM OVC029 10/06 A3024 RMK AO2  T01030061 10126 20103,54.68,50.54,2900.0,,,43.24,,NNE,29.58,29.44,,Overcast
KIGQ,10/31/2016 00:15 UTC,30.24,50.54,43.7,81.61,5.75,30.0,,,,,,294.0,,,,10.0,,KIGQ 310015Z AUTO 03005KT 10SM OVC029 10/07 A3024 RMK AO2  T01030065,,,2900.0,,,45.06,,NNE,29.58,29.39,,Overcast
KIGQ,10/31/2016 00:35 UTC,30.24,50.0,43.52,76.18,4.61,20.0,,,,,,294.0,,,,10.0,,KIGQ 310035Z AUTO 02004KT 10SM OVC029 10/06 A3024 RMK AO2  T01000064,,,2900.0,,,42.72,,NNE,29.58,29.46,,Overcast
KIGQ,10/31/2016 00:55 UTC,30.23,50.18,42.98,76.18,9.22,30.0,,,,,,294.0,,,,10.0,,KIGQ 310055Z AUTO 03008KT 10SM OVC029 10/06 A3023 RMK AO2  T01010061,,,2900.0,,,42.89,,NNE,29.57,29.44,,Overcast
KIGQ,10/31/2016 01:15 UTC,30.23,50.0,42.98,76.18,5.75,20.0,,,,,,274.0,,,,10.0,,KIGQ 310115Z AUTO 02005KT 10SM OVC027 10/06 A3023 RMK AO2  T01000061,,,2700.0,,,42.72,,NNE,29.57,29.45,,Overcast
KIGQ,10/31/2016 01:35 UTC,30.23,50.0,42.8,76.18,5.75,20.0,,,,,,274.0,,,,10.0,,KIGQ 310135Z AUTO 02005KT 10SM OVC027 10/06 A3023 RMK AO2  T01000060,,,2700.0,,,42.72,,NNE,29.57,29.45,,Overcast
KIGQ,10/31/2016 01:55 UTC,30.23,49.46,42.62,76.18,6.91,20.0,,,,,,274.0,,,,10.0,,KIGQ 310155Z AUTO 02006KT 10SM OVC027 10/06 A3023 RMK AO2  T00970059,,,2700.0,,,42.19,,NNE,29.57,29.47,,Overcast
KIGQ,10/31/2016 02:15 UTC,30.23,49.46,42.8,76.18,0.0,0.0,,,,,,274.0,,,,10.0,,KIGQ 310215Z AUTO 00000KT 10SM OVC027 10/06 A3023 RMK AO2  T00970060,,,2700.0,,,42.19,,N,29.57,29.47,,Overcast
KIGQ,10/31/2016 02:35 UTC,30.23,49.46,43.16,76.18,5.75,50.0,,,,,,274.0,,,,10.0,,KIGQ 310235Z AUTO 05005KT 10SM OVC027 10/06 A3023 RMK AO2  T00970062,,,2700.0,,,42.19,,NE,29.57,29.47,,Overcast
KIGQ,10/31/2016 02:55 UTC,30.23,49.64,43.16,76.18,3.44,30.0,,,,,,274.0,,,,10.0,,KIGQ 310255Z AUTO 03003KT 10SM OVC027 10/06 A3023 RMK AO2  T00980062,,,2700.0,,,42.37,,NNE,29.57,29.46,,Overcast
KIGQ,10/31/2016 03:15 UTC,30.22,49.46,42.8,76.18,5.75,50.0,,,,,,274.0,,,,10.0,,KIGQ 310315Z AUTO 05005KT 10SM OVC027 10/06 A3022 RMK AO2  T00970060,,,2700.0,,,42.19,,NE,29.56,29.46,,Overcast
KIGQ,10/31/2016 03:35 UTC,30.22,49.28,42.98,76.18,5.75,40.0,,,,,,274.0,,,,10.0,,KIGQ 310335Z AUTO 04005KT 10SM OVC027 10/06 A3022 RMK AO2  T00960061,,,2700.0,,,42.02,,NE,29.56,29.46,,Overcast
KIGQ,10/31/2016 03:55 UTC,30.22,49.28,42.8,76.18,3.44,30.0,,,,,,254.0,,,,10.0,,KIGQ 310355Z AUTO 03003KT 10SM OVC025 10/06 A3022 RMK AO2  T00960060,,,2500.0,,,42.02,,NNE,29.56,29.46,,Overcast
KIGQ,10/31/2016 04:15 UTC,30.21,49.1,42.8,76.18,5.75,40.0,,,,,,254.0,,,,10.0,,KIGQ 310415Z AUTO 04005KT 10SM OVC025 10/06 A3021 RMK AO2  T00950060,,,2500.0,,,41.84,,NE,29.55,29.46,,Overcast
KIGQ,10/31/2016 04:35 UTC,30.21,47.48,42.26,81.48,3.44,20.0,,,,,,253.0,,,,10.0,,KIGQ 310435Z AUTO 02003KT 10SM BKN025 09/06 A3021 RMK AO2  T00860057,,,2500.0,,,42.03,,NNE,29.55,29.47,,Mostly Cloudy
KIGQ,10/31/2016 04:55 UTC,30.21,46.94,41.9,87.19,3.44,40.0,,,,,,253.0,,,,10.0,,KIGQ 310455Z AUTO 04003KT 10SM BKN025 08/06 A3021 RMK AO2  T00830055,,,2500.0,,,43.29,,NE,29.55,29.44,,Mostly Cloudy
KIGQ,10/31/2016 05:15 UTC,30.21,45.68,42.44,87.19,0.0,0.0,,,,,,254.0,,,,10.0,,KIGQ 310515Z AUTO 00000KT 10SM OVC025 08/06 A3021 RMK AO2  T00760058,,,2500.0,,,42.05,,N,29.55,29.48,,Overcast
KIGQ,10/31/2016 05:35 UTC,30.21,46.22,43.52,87.19,0.0,0.0,,,,,,254.0,,,,10.0,,KIGQ 310535Z AUTO 00000KT 10SM OVC025 08/06 A3021 RMK AO2  T00790064,,,2500.0,,,42.58,,N,29.55,29.47,,Overcast
KIGQ,10/31/2016 05:55 UTC,30.21,45.68,43.34,87.19,0.0,0.0,,,,,,254.0,,,,10.0,,KIGQ 310555Z AUTO 00000KT 10SM OVC025 08/06 A3021 RMK AO2  T00760063 10105 20073 401370073,50.9,45.14,2500.0,56.66,45.14,42.05,,N,29.55,29.48,,Overcast
KIGQ,10/31/2016 06:15 UTC,30.21,44.24,42.8,93.35,0.0,0.0,,,,,,254.0,,,,10.0,,KIGQ 310615Z AUTO 00000KT 10SM OVC025 07/06 A3021 RMK AO2  T00680060,,,2500.0,,,42.42,,N,29.55,29.49,,Overcast
KIGQ,10/31/2016 06:35 UTC,30.21,43.88,42.44,93.35,0.0,0.0,,,,,,273.0,,,,10.0,,KIGQ 310635Z AUTO 00000KT 10SM BKN027 07/06 A3021 RMK AO2  T00660058,,,2700.0,,,42.06,,N,29.55,29.5,,Mostly Cloudy
KIGQ,10/31/2016 06:55 UTC,30.2,41.54,41.18,100.0,0.0,0.0,,,,,,1.0,,,,10.0,,KIGQ 310655Z AUTO 00000KT 10SM CLR 05/05 A3020 RMK AO2  T00530051,,,,,,41.54,,N,29.54,29.52,,Clear
KIGQ,10/31/2016 07:15 UTC,30.2,41.0,41.0,100.0,0.0,0.0,,,,,,1.0,,,,10.0,,KIGQ 310715Z AUTO 00000KT 10SM CLR 05/05 A3020 RMK AO2  T00500050,,,,,,41.0,,N,29.54,29.54,,Clear
KIGQ,10/31/2016 07:35 UTC,30.2,40.82,40.82,100.0,0.0,0.0,,,,,,1.0,,,,10.0,,KIGQ 310735Z AUTO 00000KT 10SM CLR 05/05 A3020 RMK AO2  T00490049,,,,,,40.82,,N,29.54,29.55,,Clear
KIGQ,10/31/2016 07:55 UTC,30.19,41.0,41.0,100.0,0.0,0.0,,,,,,1.0,,,,10.0,,KIGQ 310755Z AUTO 00000KT 10SM CLR 05/05 A3019 RMK AO2  T00500050,,,,,,41.0,,N,29.53,29.53,,Clear
KIGQ,10/31/2016 08:15 UTC,30.19,40.28,40.28,100.0,0.0,0.0,,,,,,1.0,,,,10.0,,KIGQ 310815Z AUTO 00000KT 10SM CLR 05/05 A3019 RMK AO2  T00460046,,,,,,40.28,,N,29.53,29.55,,Clear
KIGQ,10/31/2016 08:35 UTC,30.19,39.92,39.92,100.0,0.0,0.0,,,,,,1.0,,,,10.0,,KIGQ 310835Z AUTO 00000KT 10SM CLR 04/04 A3019 RMK AO2  T00440044,,,,,,39.92,,N,29.53,29.56,,Clear
KIGQ,10/31/2016 08:55 UTC,30.19,40.28,40.28,100.0,5.75,130.0,,,,,,1.0,,,,10.0,,KIGQ 310855Z AUTO 13005KT 10SM CLR 05/05 A3019 RMK AO2  T00460046,,,,,,40.28,,SE,29.53,29.55,,Clear
KIGQ,10/31/2016 09:15 UTC,30.17,41.9,41.72,93.3,8.05,120.0,,,,,,1.0,,,,10.0,,KIGQ 310915Z AUTO 12007KT 10SM CLR 06/05 A3017 RMK AO2  T00550054,,,,,,40.08,38.7,ESE,29.51,29.52,,Clear
KIGQ,10/31/2016 09:35 UTC,30.17,42.08,41.54,93.3,8.05,120.0,,,,,,1.0,,,,10.0,,KIGQ 310935Z AUTO 12007KT 10SM CLR 06/05 A3017 RMK AO2  T00560053,,,,,,40.26,38.92,ESE,29.51,29.52,,Clear
KIGQ,10/31/2016 09:55 UTC,30.17,41.9,41.18,93.3,6.91,110.0,,,,,,1.0,,,,10.0,,KIGQ 310955Z AUTO 11006KT 10SM CLR 06/05 A3017 RMK AO2  T00550051,,,,,,40.08,,ESE,29.51,29.52,,Clear
KIGQ,10/31/2016 10:15 UTC,30.19,41.36,40.64,100.0,3.44,110.0,,,,,,1.0,,,,10.0,,KIGQ 311015Z AUTO 11003KT 10SM CLR 05/05 A3019 RMK AO2  T00520048,,,,,,41.36,,ESE,29.53,29.52,,Clear
KIGQ,10/31/2016 10:35 UTC,30.18,40.82,40.1,100.0,5.75,110.0,,,,,,1.0,,,,10.0,,KIGQ 311035Z AUTO 11005KT 10SM CLR 05/05 A3018 RMK AO2  T00490045,,,,,,40.82,,ESE,29.52,29.53,,Clear
KIGQ,10/31/2016 10:55 UTC,30.2,41.18,40.28,100.0,0.0,0.0,,,,,,1.0,,,,10.0,,KIGQ 311055Z AUTO 00000KT 10SM CLR 05/05 A3020 RMK AO2  T00510046,,,,,,41.18,,N,29.54,29.53,,Clear
KIGQ,10/31/2016 11:15 UTC,30.19,40.46,39.92,93.24,4.61,120.0,,,,,,1.0,,,,10.0,,KIGQ 311115Z AUTO 12004KT 10SM CLR 05/04 A3019 RMK AO2  T00470044,,,,,,38.64,,ESE,29.53,29.59,,Clear
KIGQ,10/31/2016 11:35 UTC,30.19,40.1,39.74,93.24,4.61,120.0,,,,,,1.0,,,,10.0,,KIGQ 311135Z AUTO 12004KT 10SM CLR 05/04 A3019 RMK AO2  T00450043,,,,,,38.28,,ESE,29.53,29.6,,Clear
KIGQ,10/31/2016 11:55 UTC,30.18,39.74,39.38,100.0,3.44,110.0,,,,,,1.0,,,,10.0,,KIGQ 311155Z AUTO 11003KT 10SM CLR 04/04 A3018 RMK AO2 T00430041  10078 20042,46.04,39.56,,,,39.74,,ESE,29.52,29.56,,Clear
KIGQ,10/31/2016 12:15 UTC,30.19,40.46,39.74,93.24,0.0,0.0,,,,,,1.0,,,,10.0,,KIGQ 311215Z AUTO 00000KT 10SM CLR 05/04 A3019 RMK AO2  T00470043,,,,,,38.64,,N,29.53,29.59,,Clear
KIGQ,10/31/2016 12:35 UTC,30.18,39.74,39.38,100.0,3.44,120.0,,,,,,1.0,,,,10.0,,KIGQ 311235Z AUTO 12003KT 10SM CLR 04/04 A3018 RMK AO2  T00430041,,,,,,39.74,,ESE,29.52,29.56,,Clear
KIGQ,10/31/2016 12:55 UTC,30.19,39.56,39.2,100.0,0.0,0.0,,,,,,1.0,,,,10.0,,KIGQ 311255Z AUTO 00000KT 10SM CLR 04/04 A3019 RMK AO2  T00420040,,,,,,39.56,,N,29.53,29.57,,Clear
KIGQ,10/31/2016 13:15 UTC,30.19,40.28,40.1,100.0,4.61,100.0,,,,,,1.0,,,,10.0,,KIGQ 311315Z AUTO 10004KT 10SM CLR 05/05 A3019 RMK AO2  T00460045,,,,,,40.28,,E,29.53,29.55,,Clear
KIGQ,10/31/2016 13:35 UTC,30.19,42.08,41.0,93.3,4.61,130.0,,,,,,1.0,,,,10.0,,KIGQ 311335Z AUTO 13004KT 10SM CLR 06/05 A3019 RMK AO2  T00560050,,,,,,40.26,,SE,29.53,29.54,,Clear
KIGQ,10/31/2016 13:55 UTC,30.18,43.52,41.72,93.3,6.91,130.0,,,,,,1.0,,,,10.0,,KIGQ 311355Z AUTO 13006KT 10SM CLR 06/05 A3018 RMK AO2  T00640054,,,,,,41.69,,SE,29.52,29.48,,Clear
KIGQ,10/31/2016 14:15 UTC,30.19,44.78,42.26,93.35,6.91,140.0,,,,,,1.0,,,,10.0,,KIGQ 311415Z AUTO 14006KT 10SM CLR 07/06 A3019 RMK AO2  T00710057,,,,,,42.95,,SE,29.53,29.45,,Clear
KIGQ,10/31/2016 14:35 UTC,30.17,46.4,42.8,87.19,9.22,150.0,,,,,,1.0,,,,10.0,,KIGQ 311435Z AUTO 15008KT 10SM CLR 08/06 A3017 RMK AO2  T00800060,,,,,,42.75,,SSE,29.51,29.42,,Clear
KIGQ,10/31/2016 14:55 UTC,30.17,47.3,42.98,81.48,6.91,160.0,,,,,,1.0,,,,10.0,,KIGQ 311455Z AUTO 16006KT 10SM CLR 09/06 A3017 RMK AO2  T00850061,,,,,,41.86,,SSE,29.51,29.43,,Clear
KIGQ,10/31/2016 15:15 UTC,30.17,48.02,43.16,81.48,8.05,160.0,,,,,,1.0,,,,10.0,,KIGQ 311515Z AUTO 16007KT 10SM CLR 09/06 A3017 RMK AO2  T00890062,,,,,,42.56,,SSE,29.51,29.41,,Clear
KIGQ,10/31/2016 15:35 UTC,30.16,49.1,44.42,81.61,8.05,150.0,,,,,,1.0,,,,10.0,,KIGQ 311535Z AUTO 15007KT 10SM CLR 10/07 A3016 RMK AO2  T00950069,,,,,,43.66,,SSE,29.5,29.36,,Clear
KIGQ,10/31/2016 15:55 UTC,30.16,48.92,44.24,87.28,10.36,150.0,,,,,,1.0,,,,10.0,,KIGQ 311555Z AUTO 15009KT 10SM CLR 09/07 A3016 RMK AO2  T00940068,,,,,,45.26,,SSE,29.5,29.32,,Clear
KIGQ,10/31/2016 16:15 UTC,30.15,49.28,44.96,81.61,8.05,150.0,,,,,,1.0,,,,10.0,,KIGQ 311615Z AUTO 15007KT 10SM CLR 10/07 A3015 RMK AO2  T00960072,,,,,,43.83,,SSE,29.49,29.35,,Clear
KIGQ,10/31/2016 16:35 UTC,30.14,50.0,44.78,81.61,10.36,160.0,,,,,,1.0,,,,10.0,,KIGQ 311635Z AUTO 16009KT 10SM CLR 10/07 A3014 RMK AO2  T01000071,,,,,,44.54,,SSE,29.48,29.31,,Clear
KIGQ,10/31/2016 16:55 UTC,30.13,52.16,46.58,81.75,9.22,140.0,,,,,,1.0,,,,10.0,,KIGQ 311655Z AUTO 14008KT 10SM CLR 11/08 A3013 RMK AO2  T01120081,,,,,,46.69,,SE,29.47,29.22,,Clear
KIGQ,10/31/2016 17:15 UTC,30.12,52.34,46.4,81.75,8.05,150.0,,,,,,1.0,,,,10.0,,KIGQ 311715Z AUTO 15007KT 10SM CLR 11/08 A3012 RMK AO2  T01130080,,,,,,46.87,,SSE,29.47,29.21,,Clear
KIGQ,10/31/2016 17:35 UTC,30.11,52.52,46.4,81.75,9.22,160.0,,,,,,1.0,,,,10.0,,KIGQ 311735Z AUTO 16008KT 10SM CLR 11/08 A3011 RMK AO2  T01140080,,,,,,47.05,,SSE,29.46,29.19,,Clear
KIGQ,10/31/2016 17:55 UTC,30.09,53.24,46.94,76.52,9.22,140.0,,,,,,1.0,,,,10.0,,KIGQ 311755Z AUTO 14008KT 10SM CLR 12/08 A3009 RMK AO2 T01180083  10118 20042,53.24,39.56,,,,45.98,,SE,29.44,29.2,,Clear
KIGQ,10/31/2016 18:15 UTC,30.09,53.6,46.94,76.52,6.91,150.0,,,,,,1.0,,,,10.0,,KIGQ 311815Z AUTO 15006KT 10SM CLR 12/08 A3009 RMK AO2  T01200083,,,,,,46.33,,SSE,29.44,29.18,,Clear
KIGQ,10/31/2016 18:35 UTC,30.08,55.04,48.02,76.68,8.05,160.0,,,,,,1.0,,,,10.0,,KIGQ 311835Z AUTO 16007KT 10SM CLR 13/09 A3008 RMK AO2  T01280089,,,,,,47.78,,SSE,29.43,29.11,,Clear
KIGQ,10/31/2016 18:55 UTC,30.06,55.4,47.84,76.68,9.22,130.0,,,,,,1.0,,,,10.0,,KIGQ 311855Z AUTO 13008KT 10SM CLR 13/09 A3006 RMK AO2  T01300088,,,,,,48.13,,SE,29.41,29.08,,Clear
KIGQ,10/31/2016 19:15 UTC,30.05,55.94,48.38,76.68,6.91,160.0,,,,,,1.0,,,,10.0,,KIGQ 311915Z AUTO 16006KT 10SM CLR 13/09 A3005 RMK AO2  T01330091,,,,,,48.66,,SSE,29.4,29.04,,Clear
KIGQ,10/31/2016 19:35 UTC,30.04,56.3,48.92,71.85,9.22,140.0,,,,,,1.0,,,,10.0,,KIGQ 311935Z AUTO 14008KT 10SM CLR 14/09 A3004 RMK AO2  T01350094,,,,,,47.25,,SE,29.39,29.08,,Clear
KIGQ,10/31/2016 19:55 UTC,30.02,57.38,49.28,76.85,8.05,130.0,,,,,,1.0,,,,10.0,,KIGQ 311955Z AUTO 13007KT 10SM CLR 14/10 A3002 RMK AO2  T01410096,,,,,,50.11,,SE,29.37,28.95,,Clear
KIGQ,10/31/2016 20:15 UTC,30.02,58.46,49.82,72.04,10.36,160.0,,,,,,1.0,,,,10.0,,KIGQ 312015Z AUTO 16009KT 10SM CLR 15/10 A3002 RMK AO2  T01470099,,,,,,49.41,,SSE,29.37,28.96,,Clear
KIGQ,10/31/2016 20:35 UTC,30.0,58.46,49.82,72.04,11.5,140.0,17.27,,,,,1.0,,,,10.0,,KIGQ 312035Z AUTO 14010G15KT 10SM CLR 15/10 A3000 RMK AO2  T01470099,,,,,,49.41,,SE,29.35,28.94,,Clear
KIGQ,10/31/2016 20:55 UTC,29.99,58.28,49.64,72.04,9.22,150.0,,,,,,1.0,,,,10.0,,KIGQ 312055Z AUTO 15008KT 10SM CLR 15/10 A2999 RMK AO2  T01460098,,,,,,49.23,,SSE,29.34,28.94,,Clear
KIGQ,10/31/2016 21:15 UTC,29.99,58.28,49.28,72.04,10.36,150.0,,,,,,1.0,,,,10.0,,KIGQ 312115Z AUTO 15009KT 010V170 10SM CLR 15/10 A2999 RMK AO2  T01460096,,,,,,49.23,,SSE,29.34,28.94,,Clear
KIGQ,10/31/2016 21:35 UTC,29.99,58.46,49.82,72.04,10.36,160.0,,,,,,1.0,,,,10.0,,KIGQ 312135Z AUTO 16009KT 10SM CLR 15/10 A2999 RMK AO2  T01470099,,,,,,49.41,,SSE,29.34,28.93,,Clear
KIGQ,10/31/2016 21:55 UTC,29.99,58.28,50.18,72.04,8.05,150.0,,,,,,1.0,,,,10.0,,KIGQ 312155Z AUTO 15007KT 10SM CLR 15/10 A2999 RMK AO2  T01460101,,,,,,49.23,,SSE,29.34,28.94,,Clear
KIGQ,10/31/2016 22:15 UTC,29.97,58.1,50.18,72.04,9.22,150.0,,,,,,1.0,,,,10.0,,KIGQ 312215Z AUTO 15008KT 10SM CLR 15/10 A2997 RMK AO2  T01450101,,,,,,49.06,,SSE,29.32,28.93,,Clear
KIGQ,10/31/2016 22:35 UTC,29.96,57.92,50.36,76.85,8.05,150.0,,,,,,1.0,,,,10.0,,KIGQ 312235Z AUTO 15007KT 10SM CLR 14/10 A2996 RMK AO2  T01440102,,,,,,50.64,,SSE,29.31,28.86,,Clear
KIGQ,10/31/2016 22:55 UTC,29.95,57.56,50.36,76.85,11.5,140.0,,,,,,1.0,,,,10.0,,KIGQ 312255Z AUTO 14010KT 10SM CLR 14/10 A2995 RMK AO2  T01420102,,,,,,50.29,,SE,29.3,28.87,,Clear
KIGQ,10/31/2016 23:15 UTC,29.94,57.2,50.54,76.85,11.5,150.0,,,,,,1.0,,,,10.0,,KIGQ 312315Z AUTO 15010KT 10SM CLR 14/10 A2994 RMK AO2  T01400103,,,,,,49.94,,SSE,29.29,28.87,,Clear
KIGQ,10/31/2016 23:35 UTC,29.94,57.02,50.54,78.91,10.36,150.0,16.11,,,,,1.0,,,,10.0,,KIGQ 312335Z AUTO 15009G14KT 10SM CLR 14/10 A2994 RMK AO2  T01390103,,,,,,50.48,,SSE,29.29,28.86,,Clear
KIGQ,10/31/2016 23:55 UTC,29.93,57.2,50.54,76.85,10.36,140.0,,,,,,1.0,,,,10.0,,KIGQ 312355Z AUTO 14009KT 10SM CLR 14/10 A2993 RMK AO2 T01400103  10150 20117,59.0,53.06,,,,49.94,,SE,29.28,28.86,,Clear
