# STATION: KIGQ
# STATION NAME: Lansing Municipal Airport
# LATITUDE: 41.54125
# LONGITUDE: -87.52822
# ELEVATION [ft]: 607
# STATE: IL
Station_ID,Date_Time,altimeter_set_1,air_temp_set_1,dew_point_temperature_set_1,relative_humidity_set_1,wind_speed_set_1,wind_direction_set_1,wind_gust_set_1,weather_cond_code_set_1,cloud_layer_3_code_set_1,precip_accum_one_hour_set_1,precip_accum_three_hour_set_1,cloud_layer_1_code_set_1,cloud_layer_2_code_set_1,precip_accum_six_hour_set_1,precip_accum_24_hour_set_1,visibility_set_1,metar_remark_set_1,metar_set_1,air_temp_high_6_hour_set_1,air_temp_low_6_hour_set_1,ceiling_set_1,air_temp_high_24_hour_set_1,air_temp_low_24_hour_set_1,dew_point_temperature_set_1d,wind_chill_set_1d,wind_cardinal_direction_set_1d,pressure_set_1d,sea_level_pressure_set_1d,heat_index_set_1d,weather_condition_set_1d
,,INHG,Fahrenheit,Fahrenheit,%,Miles/hour,Degrees,Miles/hour,code,code,Inches,Inches,code,code,Inches,Inches,Statute miles,text,text,Fahrenheit,Fahrenheit,Feet,Fahrenheit,Fahrenheit,Fahrenheit,Fahrenheit,Code,INHG,INHG,Fahrenheit,Code
KIGQ,12/01/2016 00:15 UTC,29.69,35.6,33.44,93.08,10.36,240.0,,,334.0,,,132.0,212.0,,,10.0,,KIGQ 010015Z AUTO 24009KT 10SM SCT013 SCT021 OVC033 02/01  A2969 RMK AO2 T00200008,,,3300.0,,,33.77,30.21,WSW,29.04,29.22,,Overcast
KIGQ,12/01/2016 00:35 UTC,29.7,35.96,33.08,93.08,11.5,240.0,17.27,,,,,354.0,,,,10.0,,KIGQ 010035Z AUTO 24010G15KT 10SM OVC035 02/01 A2970 RMK AO2  T00220006,,,3500.0,,,34.13,30.18,WSW,29.05,29.22,,Overcast
KIGQ,12/01/2016 00:55 UTC,29.7,35.78,32.9,93.08,12.66,230.0,,,,,,334.0,,,,10.0,,KIGQ 010055Z AUTO 23011KT 10SM OVC033 02/01 A2970 RMK AO2  T00210005,,,3300.0,,,33.95,29.53,SW,29.05,29.22,,Overcast
KIGQ,12/01/2016 01:15 UTC,29.7,35.96,32.18,86.58,10.36,240.0,17.27,,,,,282.0,344.0,,,10.0,,KIGQ 010115Z AUTO 24009G15KT 10SM SCT028 OVC034 02/00 A2970 RMK AO2 T00220001,,,3400.0,,,32.3,30.64,WSW,29.05,29.25,,Overcast
KIGQ,12/01/2016 01:35 UTC,29.7,35.96,32.18,86.58,11.5,240.0,19.57,,,,,364.0,,,,10.0,,KIGQ 010135Z AUTO 24010G17KT 10SM OVC036 02/00 A2970 RMK AO2  T00220001,,,3600.0,,,32.3,30.18,WSW,29.05,29.25,,Overcast
KIGQ,12/01/2016 01:55 UTC,29.7,35.96,32.0,86.58,10.36,240.0,17.27,,,,,312.0,374.0,,,10.0,,KIGQ 010155Z AUTO 24009G15KT 10SM SCT031 OVC037 02/00 A2970 RMK AO2 T00220000,,,3700.0,,,32.3,30.64,WSW,29.05,29.25,,Overcast
KIGQ,12/01/2016 02:15 UTC,29.69,36.14,32.0,86.58,11.5,240.0,16.11,,,,,292.0,374.0,,,10.0,,KIGQ 010215Z AUTO 24010G14KT 10SM SCT029 OVC037 02/00 A2969 RMK AO2 LTG DSNT NE T00230000,,,3700.0,,,32.47,30.4,WSW,29.04,29.23,,Overcast
KIGQ,12/01/2016 02:35 UTC,29.69,36.5,32.0,80.63,13.8,240.0,20.71,,,,,302.0,374.0,,,10.0,,KIGQ 010235Z AUTO 24012G18KT 10SM SCT030 OVC037 03/00 A2969 RMK AO2 T00250000,,,3700.0,,,31.04,30.01,WSW,29.04,29.25,,Overcast
KIGQ,12/01/2016 02:55 UTC,29.7,36.14,32.0,86.58,12.66,240.0,17.27,,,,,322.0,374.0,,,10.0,,KIGQ 010255Z AUTO 24011G15KT 10SM SCT032 OVC037 02/00 A2970 RMK AO2 T00230000,,,3700.0,,,32.47,29.97,WSW,29.05,29.24,,Overcast
KIGQ,12/01/2016 03:15 UTC,29.7,35.96,32.0,86.58,12.66,240.0,17.27,,,,,303.0,414.0,,,10.0,,KIGQ 010315Z AUTO 24011G15KT 10SM BKN030 OVC041 02/00 A2970 RMK AO2 T00220000,,,3000.0,,,32.3,29.75,WSW,29.05,29.25,,Overcast
KIGQ,12/01/2016 03:35 UTC,29.7,36.5,31.82,80.63,14.97,230.0,19.57,,424.0,,,303.0,373.0,,,10.0,,KIGQ 010335Z AUTO 23013G17KT 10SM BKN030 BKN037 OVC042 03/00  A2970 RMK AO2 T00251001,,,3000.0,,,31.04,29.64,SW,29.05,29.26,,Overcast
KIGQ,12/01/2016 03:55 UTC,29.7,36.5,31.64,80.63,16.11,230.0,,,444.0,,,303.0,353.0,,,10.0,,KIGQ 010355Z AUTO 23014KT 10SM BKN030 BKN035 OVC044 03/00  A2970 RMK AO2 T00251002,,,3000.0,,,31.04,29.3,SW,29.05,29.26,,Overcast
KIGQ,12/01/2016 04:15 UTC,29.7,36.5,31.46,80.63,11.5,230.0,20.71,,424.0,,,303.0,363.0,,,10.0,,KIGQ 010415Z AUTO 23010G18KT 10SM BKN030 BKN036 OVC042 03/00  A2970 RMK AO2 T00251003,,,3000.0,,,31.04,30.83,SW,29.05,29.26,,Overcast
KIGQ,12/01/2016 04:35 UTC,29.7,36.5,31.64,80.63,13.8,240.0,,,,,,303.0,404.0,,,10.0,,KIGQ 010435Z AUTO 24012KT 10SM BKN030 OVC040 03/00 A2970 RMK AO2  T00251002,,,3000.0,,,31.04,30.01,WSW,29.05,29.26,,Overcast
KIGQ,12/01/2016 04:55 UTC,29.7,36.32,31.46,86.58,16.11,240.0,20.71,,,,,284.0,,,,10.0,,KIGQ 010455Z AUTO 24014G18KT 10SM OVC028 02/00 A2970 RMK AO2  T00241003,,,2800.0,,,32.65,29.08,WSW,29.05,29.24,,Overcast
KIGQ,12/01/2016 05:15 UTC,29.7,36.14,31.64,86.58,18.41,240.0,23.02,,,,,284.0,,,,10.0,,KIGQ 010515Z AUTO 24016G20KT 10SM OVC028 02/00 A2970 RMK AO2  T00231002,,,2800.0,,,32.47,28.22,WSW,29.05,29.24,,Overcast
KIGQ,12/01/2016 05:35 UTC,29.7,35.78,31.82,86.58,12.66,240.0,19.57,,,,,264.0,,,,10.0,,KIGQ 010535Z AUTO 24011G17KT 10SM OVC026 02/00 A2970 RMK AO2  T00211001,,,2600.0,,,32.12,29.53,WSW,29.05,29.25,,Overcast
KIGQ,12/01/2016 05:55 UTC,29.7,35.6,31.82,86.58,14.97,240.0,21.85,,,,,202.0,264.0,,,10.0,,KIGQ 010555Z AUTO 24013G19KT 10SM SCT020 OVC026 02/00 A2970 RMK AO2 T00201001 10025 20018 400751010,36.5,35.24,2600.0,45.5,30.2,31.94,28.53,WSW,29.05,29.26,,Overcast
KIGQ,12/01/2016 06:15 UTC,29.7,35.78,31.82,86.58,16.11,230.0,,,444.0,,,202.0,263.0,,,10.0,,KIGQ 010615Z AUTO 23014KT 10SM SCT020 BKN026 OVC044 02/00  A2970 RMK AO2 T00211001,,,2600.0,,,32.12,28.41,SW,29.05,29.25,,Overcast
KIGQ,12/01/2016 06:35 UTC,29.7,35.78,32.0,86.58,14.97,240.0,21.85,,,,,244.0,,,,10.0,,KIGQ 010635Z AUTO 24013G19KT 10SM OVC024 02/00 A2970 RMK AO2  T00210000,,,2400.0,,,32.12,28.75,WSW,29.05,29.25,,Overcast
KIGQ,12/01/2016 06:55 UTC,29.7,35.78,31.82,86.58,14.97,230.0,21.85,,,,,224.0,,,,10.0,,KIGQ 010655Z AUTO 23013G19KT 10SM OVC022 02/00 A2970 RMK AO2  T00211001,,,2200.0,,,32.12,28.75,SW,29.05,29.25,,Overcast
KIGQ,12/01/2016 07:15 UTC,29.71,35.78,31.82,86.58,12.66,240.0,,,,,,224.0,,,,10.0,,KIGQ 010715Z AUTO 24011KT 10SM OVC022 02/00 A2971 RMK AO2  T00211001,,,2200.0,,,32.12,29.53,WSW,29.06,29.26,,Overcast
KIGQ,12/01/2016 07:35 UTC,29.71,35.78,31.82,86.58,14.97,230.0,,,,,,224.0,,,,10.0,,KIGQ 010735Z AUTO 23013KT 10SM OVC022 02/00 A2971 RMK AO2  T00211001,,,2200.0,,,32.12,28.75,SW,29.06,29.26,,Overcast
KIGQ,12/01/2016 07:55 UTC,29.71,35.78,31.82,86.58,13.8,240.0,21.85,,,,,244.0,,,,10.0,,KIGQ 010755Z AUTO 24012G19KT 10SM OVC024 02/00 A2971 RMK AO2  T00211001,,,2400.0,,,32.12,29.13,WSW,29.06,29.26,,Overcast
KIGQ,12/01/2016 08:15 UTC,29.72,35.78,32.0,86.58,10.36,240.0,19.57,,,,,224.0,,,,10.0,,KIGQ 010815Z AUTO 24009G17KT 10SM OVC022 02/00 A2972 RMK AO2  T00210000,,,2200.0,,,32.12,30.43,WSW,29.07,29.27,,Overcast
KIGQ,12/01/2016 08:35 UTC,29.72,35.6,32.0,86.58,17.27,230.0,24.16,20.0,,,,224.0,,,,10.0,,KIGQ 010835Z AUTO 23015G21KT 10SM -SN OVC022 02/00 A2972 RMK AO2  T00200000,,,2200.0,,,31.94,27.85,SW,29.07,29.28,,Light Snow
KIGQ,12/01/2016 08:55 UTC,29.72,35.78,32.0,86.58,17.27,240.0,21.85,,,,,204.0,,,,10.0,,KIGQ 010855Z AUTO 24015G19KT 10SM OVC020 02/00 A2972 RMK AO2  T00210000,,,2000.0,,,32.12,28.08,WSW,29.07,29.27,,Overcast
KIGQ,12/01/2016 09:15 UTC,29.72,35.96,32.0,86.58,16.11,250.0,21.85,,,,,184.0,,,,10.0,,KIGQ 010915Z AUTO 25014G19KT 10SM OVC018 02/00 A2972 RMK AO2  T00220000,,,1800.0,,,32.3,28.63,WSW,29.07,29.27,,Overcast
KIGQ,12/01/2016 09:35 UTC,29.73,35.24,32.9,93.08,14.97,240.0,23.02,17.0,,,,184.0,,,,5.0,,KIGQ 010935Z AUTO 24013G20KT 5SM -DZ OVC018 02/01 A2973 RMK AO2  T00180005,,,1800.0,,,33.41,28.09,WSW,29.08,29.26,,Light Drizzle
KIGQ,12/01/2016 09:55 UTC,29.74,35.6,32.9,93.08,13.8,240.0,20.71,,,,,164.0,,,,10.0,,KIGQ 010955Z AUTO 24012G18KT 10SM OVC016 02/01 A2974 RMK AO2  T00200005,,,1600.0,,,33.77,28.91,WSW,29.09,29.27,,Overcast
KIGQ,12/01/2016 10:15 UTC,29.74,35.78,32.9,93.08,13.8,240.0,18.41,,,,,164.0,,,,10.0,,KIGQ 011015Z AUTO 24012G16KT 10SM OVC016 02/01 A2974 RMK AO2  T00210005,,,1600.0,,,33.95,29.13,WSW,29.09,29.26,,Overcast
KIGQ,12/01/2016 10:35 UTC,29.74,35.96,32.9,93.08,13.8,230.0,19.57,,,,,164.0,,,,10.0,,KIGQ 011035Z AUTO 23012G17KT 10SM OVC016 02/01 A2974 RMK AO2  T00220005,,,1600.0,,,34.13,29.35,SW,29.09,29.26,,Overcast
KIGQ,12/01/2016 10:55 UTC,29.75,36.14,32.9,93.08,10.36,250.0,19.57,,,,,164.0,,,,10.0,,KIGQ 011055Z AUTO 25009G17KT 10SM OVC016 02/01 A2975 RMK AO2  T00230005,,,1600.0,,,34.31,30.86,WSW,29.1,29.26,,Overcast
KIGQ,12/01/2016 11:15 UTC,29.75,36.5,33.26,86.68,12.66,250.0,21.85,,,,,164.0,,,,10.0,,KIGQ 011115Z AUTO 25011G19KT 10SM OVC016 03/01 A2975 RMK AO2  T00250007,,,1600.0,,,32.86,30.4,WSW,29.1,29.29,,Overcast
KIGQ,12/01/2016 11:35 UTC,29.76,36.5,33.26,86.68,14.97,250.0,18.41,,,,,164.0,,,,10.0,,KIGQ 011135Z AUTO 25013G16KT 10SM OVC016 03/01 A2976 RMK AO2  T00250007,,,1600.0,,,32.86,29.64,WSW,29.11,29.3,,Overcast
KIGQ,12/01/2016 11:55 UTC,29.77,36.5,33.62,86.68,19.57,250.0,,,,,,144.0,,,,10.0,,KIGQ 011155Z AUTO 25017KT 10SM OVC014 03/01 A2977 RMK AO2  T00250009 10025 20018,36.5,35.24,1400.0,,,32.86,28.38,WSW,29.12,29.31,,Overcast
KIGQ,12/01/2016 12:15 UTC,29.77,36.5,33.8,86.68,13.8,270.0,21.85,13.0,,,,144.0,,,,10.0,,KIGQ 011215Z AUTO 27012G19KT 10SM -RA OVC014 03/01 A2977 RMK AO2  T00250010,,,1400.0,,,32.86,30.01,W,29.12,29.31,,Light Rain
KIGQ,12/01/2016 12:35 UTC,29.78,36.5,33.8,86.68,16.11,260.0,21.85,,,,,144.0,,,,10.0,,KIGQ 011235Z AUTO 26014G19KT 10SM OVC014 03/01 A2978 RMK AO2  T00250010,,,1400.0,,,32.86,29.3,W,29.13,29.32,,Overcast
KIGQ,12/01/2016 12:55 UTC,29.78,36.68,33.8,86.68,16.11,260.0,24.16,,,,,144.0,,,,10.0,,KIGQ 011255Z AUTO 26014G21KT 10SM OVC014 03/01 A2978 RMK AO2  T00260010,,,1400.0,,,33.04,29.52,W,29.13,29.31,,Overcast
KIGQ,12/01/2016 13:15 UTC,29.78,36.68,33.8,86.68,14.97,260.0,,,,,,144.0,,,,10.0,,KIGQ 011315Z AUTO 26013KT 10SM OVC014 03/01 A2978 RMK AO2  T00260010,,,1400.0,,,33.04,29.86,W,29.13,29.31,,Overcast
KIGQ,12/01/2016 13:35 UTC,29.8,36.68,34.16,86.68,16.11,260.0,26.46,,,,,144.0,,,,10.0,,KIGQ 011335Z AUTO 26014G23KT 10SM OVC014 03/01 A2980 RMK AO2  T00260012,,,1400.0,,,33.04,29.52,W,29.15,29.33,,Overcast
KIGQ,12/01/2016 13:55 UTC,29.81,36.68,34.16,86.68,18.41,250.0,,,,,,144.0,,,,10.0,,KIGQ 011355Z AUTO 25016KT 10SM OVC014 03/01 A2981 RMK AO2  T00260012,,,1400.0,,,33.04,28.9,WSW,29.16,29.34,,Overcast
KIGQ,12/01/2016 14:15 UTC,29.81,36.86,34.34,86.68,17.27,250.0,23.02,,,,,144.0,,,,10.0,,KIGQ 011415Z AUTO 25015G20KT 10SM OVC014 03/01 A2981 RMK AO2  T00270013,,,1400.0,,,33.21,29.42,WSW,29.16,29.34,,Overcast
KIGQ,12/01/2016 14:35 UTC,29.82,37.04,34.34,86.68,14.97,260.0,20.71,,,,,144.0,,,,10.0,,KIGQ 011435Z AUTO 26013G18KT 10SM OVC014 03/01 A2982 RMK AO2  T00280013,,,1400.0,,,33.39,30.31,W,29.17,29.34,,Overcast
KIGQ,12/01/2016 14:55 UTC,29.83,37.58,34.34,86.68,16.11,260.0,,,,,,164.0,,,,10.0,,KIGQ 011455Z AUTO 26014KT 10SM OVC016 03/01 A2983 RMK AO2  T00310013,,,1600.0,,,33.92,30.64,W,29.18,29.34,,Overcast
KIGQ,12/01/2016 15:15 UTC,29.83,37.94,34.7,93.13,16.11,260.0,21.85,,,,,164.0,,,,10.0,,KIGQ 011515Z AUTO 26014G19KT 10SM OVC016 03/02 A2983 RMK AO2  T00330015,,,1600.0,,,36.11,31.09,W,29.18,29.3,,Overcast
KIGQ,12/01/2016 15:35 UTC,29.84,38.3,34.7,86.79,13.8,260.0,21.85,,,,,164.0,,,,10.0,,KIGQ 011535Z AUTO 26012G19KT 10SM OVC016 04/02 A2984 RMK AO2  T00350015,,,1600.0,,,34.66,32.22,W,29.19,29.33,,Overcast
KIGQ,12/01/2016 15:55 UTC,29.85,38.48,34.7,86.79,14.97,260.0,20.71,,,,,164.0,,,,10.0,,KIGQ 011555Z AUTO 26013G18KT 10SM OVC016 04/02 A2985 RMK AO2  T00360015,,,1600.0,,,34.84,32.08,W,29.2,29.34,,Overcast
KIGQ,12/01/2016 16:15 UTC,29.85,38.84,35.06,86.79,11.5,260.0,,,,,,164.0,,,,10.0,,KIGQ 011615Z AUTO 26010KT 10SM OVC016 04/02 A2985 RMK AO2  T00380017,,,1600.0,,,35.19,33.66,W,29.2,29.33,,Overcast
KIGQ,12/01/2016 16:35 UTC,29.86,38.66,35.06,86.79,14.97,270.0,21.85,,,,,164.0,,,,10.0,,KIGQ 011635Z AUTO 27013G19KT 10SM OVC016 04/02 A2986 RMK AO2  T00370017,,,1600.0,,,35.02,32.3,W,29.21,29.34,,Overcast
KIGQ,12/01/2016 16:55 UTC,29.86,38.66,35.42,86.79,13.8,270.0,19.57,,,,,164.0,,,,10.0,,KIGQ 011655Z AUTO 27012G17KT 10SM OVC016 04/02 A2986 RMK AO2  T00370019,,,1600.0,,,35.02,32.66,W,29.21,29.34,,Overcast
KIGQ,12/01/2016 17:15 UTC,29.86,38.66,35.6,86.79,13.8,270.0,,17.0,,,,164.0,,,,10.0,,KIGQ 011715Z AUTO 27012KT 10SM -DZ OVC016 04/02 A2986 RMK AO2  T00370020,,,1600.0,,,35.02,32.66,W,29.21,29.34,,Light Drizzle
KIGQ,12/01/2016 17:35 UTC,29.86,39.2,35.6,86.79,16.11,260.0,25.32,,,,,164.0,,,,10.0,,KIGQ 011735Z AUTO 26014G22KT 10SM OVC016 04/02 A2986 RMK AO2  T00400020,,,1600.0,,,35.55,32.65,W,29.21,29.33,,Overcast
KIGQ,12/01/2016 17:55 UTC,29.86,39.56,35.42,86.79,16.11,260.0,24.16,,,,,164.0,,,,10.0,,KIGQ 011755Z AUTO 26014G21KT 10SM OVC016 04/02 A2986 RMK AO2  T00420019 10042 20025,39.56,36.5,1600.0,,,35.9,33.09,W,29.21,29.32,,Overcast
KIGQ,12/01/2016 18:15 UTC,29.87,39.38,35.42,86.79,16.11,260.0,20.71,,,,,164.0,,,,10.0,,KIGQ 011815Z AUTO 26014G18KT 10SM OVC016 04/02 A2987 RMK AO2  T00410019,,,1600.0,,,35.72,32.87,W,29.22,29.34,,Overcast
KIGQ,12/01/2016 18:35 UTC,29.87,40.1,35.24,80.92,16.11,270.0,24.16,,354.0,,,183.0,243.0,,,10.0,,KIGQ 011835Z AUTO 27014G21KT 10SM BKN018 BKN024 OVC035 05/02  A2987 RMK AO2 T00450018,,,1800.0,,,34.64,33.76,W,29.22,29.35,,Overcast
KIGQ,12/01/2016 18:55 UTC,29.87,40.1,35.06,80.92,17.27,260.0,23.02,,,,,204.0,,,,10.0,,KIGQ 011855Z AUTO 26015G20KT 10SM OVC020 05/02 A2987 RMK AO2  T00450017,,,2000.0,,,34.64,33.46,W,29.22,29.35,,Overcast
KIGQ,12/02/2016 14:35 UTC,30.15,,,,9.22,260.0,,,,,,,,,,,,KIGQ 021435Z AUTO 26008KT A3015 RMK AO2 PWINO,,,,,,,,W,29.49,,,
KIGQ,12/02/2016 14:55 UTC,30.16,37.22,35.24,93.13,8.05,260.0,,,,,,344.0,,,,10.0,,KIGQ 021455Z AUTO 26007KT 10SM OVC034 03/02 A3016 RMK AO2 6////  T00290018,,,3400.0,,,35.39,33.21,W,29.5,29.64,,Overcast
KIGQ,12/02/2016 15:15 UTC,30.16,37.94,34.88,93.13,8.05,250.0,,,,,,364.0,,,,10.0,,KIGQ 021515Z AUTO 25007KT 10SM OVC036 03/02 A3016 RMK AO2  T00330016,,,3600.0,,,36.11,34.05,WSW,29.5,29.63,,Overcast
KIGQ,12/02/2016 15:35 UTC,30.16,38.3,34.7,86.79,9.22,250.0,,,,,,384.0,,,,10.0,,KIGQ 021535Z AUTO 25008KT 10SM OVC038 04/02 A3016 RMK AO2  T00350015,,,3800.0,,,34.66,33.93,WSW,29.5,29.65,,Overcast
KIGQ,12/02/2016 15:55 UTC,30.16,38.66,33.8,80.78,6.91,280.0,,,,,,384.0,,,,10.0,,KIGQ 021555Z AUTO 28006KT 10SM OVC038 04/01 A3016 RMK AO2  T00370010,,,3800.0,,,33.19,,W,29.5,29.67,,Overcast
KIGQ,12/02/2016 16:15 UTC,30.17,39.2,33.44,80.78,10.36,270.0,,,384.0,,,232.0,323.0,,,10.0,,KIGQ 021615Z AUTO 27009KT 10SM SCT023 BKN032 OVC038 04/01  A3017 RMK AO2 T00400008,,,3200.0,,,33.72,34.52,W,29.51,29.67,,Overcast
KIGQ,12/02/2016 16:35 UTC,30.17,38.84,32.9,80.78,12.66,270.0,17.27,,,,,253.0,354.0,,,10.0,,KIGQ 021635Z AUTO 27011G15KT 10SM BKN025 OVC035 04/01 A3017 RMK AO2 T00380005,,,2500.0,,,33.37,33.25,W,29.51,29.68,,Overcast
KIGQ,12/02/2016 16:55 UTC,30.17,38.66,33.62,80.78,11.5,270.0,,,,,,253.0,314.0,,,10.0,,KIGQ 021655Z AUTO 27010KT 10SM BKN025 OVC031 04/01 A3017 RMK AO2  T00370009,,,2500.0,,,33.19,33.44,W,29.51,29.68,,Overcast
KIGQ,12/02/2016 17:15 UTC,30.17,39.2,33.26,80.78,11.5,270.0,,,364.0,,,233.0,293.0,,,10.0,,KIGQ 021715Z AUTO 27010KT 10SM BKN023 BKN029 OVC036 04/01  A3017 RMK AO2 T00400007,,,2300.0,,,33.72,34.09,W,29.51,29.67,,Overcast
KIGQ,12/02/2016 17:35 UTC,30.17,39.2,33.26,80.78,11.5,270.0,,,,,,232.0,304.0,,,10.0,,KIGQ 021735Z AUTO 27010KT 10SM SCT023 OVC030 04/01 A3017 RMK AO2  T00400007,,,3000.0,,,33.72,34.09,W,29.51,29.67,,Overcast
KIGQ,12/02/2016 17:55 UTC,30.18,38.84,32.72,75.14,10.36,270.0,18.41,,,,,304.0,,,,10.0,,KIGQ 021755Z AUTO 27009G16KT 10SM OVC030 04/00 A3018 RMK AO2 6////  T00380004,,,3000.0,,,31.55,34.09,W,29.52,29.72,,Overcast
KIGQ,12/02/2016 18:15 UTC,30.18,38.84,33.26,80.78,11.5,280.0,,,,,,253.0,314.0,,,10.0,,KIGQ 021815Z AUTO 28010KT 10SM BKN025 OVC031 04/01 A3018 RMK AO2  T00380007,,,2500.0,,,33.37,33.66,W,29.52,29.69,,Overcast
KIGQ,12/02/2016 18:35 UTC,30.18,39.2,32.9,80.78,8.05,280.0,,,,,,252.0,314.0,,,10.0,,KIGQ 021835Z AUTO 28007KT 10SM SCT025 OVC031 04/01 A3018 RMK AO2  T00400005,,,3100.0,,,33.72,35.53,W,29.52,29.68,,Overcast
KIGQ,12/02/2016 18:55 UTC,30.18,39.02,33.26,80.78,9.22,290.0,,,,,,294.0,,,,10.0,,KIGQ 021855Z AUTO 29008KT 10SM OVC029 04/01 A3018 RMK AO2  T00390007,,,2900.0,,,33.55,34.78,WNW,29.52,29.68,,Overcast
KIGQ,12/02/2016 19:15 UTC,30.19,38.3,34.52,80.78,13.8,290.0,17.27,13.0,304.0,,,182.0,253.0,,,5.0,,KIGQ 021915Z AUTO 29012G15KT 5SM -RA SCT018 BKN025 OVC030 04/01  A3019 RMK AO2 T00350014,,,2500.0,,,32.84,32.22,WNW,29.53,29.71,,Light Rain
KIGQ,12/02/2016 19:35 UTC,30.19,36.68,35.06,93.13,4.61,310.0,,,354.0,,,162.0,252.0,,,10.0,,KIGQ 021935Z AUTO 31004KT 10SM SCT016 SCT025 OVC035 03/02  A3019 RMK AO2 T00260017,,,3500.0,,,34.86,,NW,29.53,29.69,,Overcast
KIGQ,12/02/2016 19:55 UTC,30.21,37.4,35.42,93.13,6.91,270.0,,,,,,342.0,444.0,,,10.0,,KIGQ 021955Z AUTO 27006KT 10SM SCT034 OVC044 03/02 A3021 RMK AO2  T00300019,,,4400.0,,,35.57,,W,29.55,29.69,,Overcast
KIGQ,12/02/2016 20:15 UTC,30.21,37.76,35.06,93.13,5.75,280.0,,,,,,444.0,,,,10.0,,KIGQ 022015Z AUTO 28005KT 10SM OVC044 03/02 A3021 RMK AO2  T00320017,,,4400.0,,,35.93,,W,29.55,29.68,,Overcast
KIGQ,12/02/2016 20:35 UTC,30.21,37.94,34.88,93.13,5.75,270.0,,,,,,424.0,,,,10.0,,KIGQ 022035Z AUTO 27005KT 10SM OVC042 03/02 A3021 RMK AO2  T00330016,,,4200.0,,,36.11,,W,29.55,29.68,,Overcast
KIGQ,12/02/2016 20:55 UTC,30.21,38.3,34.16,80.78,5.75,290.0,,,,,,424.0,,,,10.0,,KIGQ 022055Z AUTO 29005KT 10SM OVC042 04/01 A3021 RMK AO2  T00350012,,,4200.0,,,32.84,,WNW,29.55,29.73,,Overcast
KIGQ,12/02/2016 21:15 UTC,30.22,38.48,33.62,80.78,5.75,290.0,,,,,,464.0,,,,10.0,,KIGQ 022115Z AUTO 29005KT 10SM OVC046 04/01 A3022 RMK AO2  T00360009,,,4600.0,,,33.02,,WNW,29.56,29.74,,Overcast
KIGQ,12/02/2016 21:35 UTC,30.23,38.48,33.62,80.78,4.61,310.0,,,,,,372.0,444.0,,,10.0,,KIGQ 022135Z AUTO 31004KT 10SM SCT037 OVC044 04/01 A3023 RMK AO2  T00360009,,,4400.0,,,33.02,,NW,29.57,29.75,,Overcast
KIGQ,12/02/2016 21:55 UTC,30.23,38.48,33.08,80.78,8.05,310.0,,,,,,382.0,464.0,,,10.0,,KIGQ 022155Z AUTO 31007KT 10SM SCT038 OVC046 04/01 A3023 RMK AO2  T00360006,,,4600.0,,,33.02,34.69,NW,29.57,29.75,,Overcast
KIGQ,12/02/2016 22:15 UTC,30.24,38.3,33.08,80.78,6.91,300.0,,,,,,262.0,464.0,,,10.0,,KIGQ 022215Z AUTO 30006KT 10SM SCT026 OVC046 04/01 A3024 RMK AO2  T00350006,,,4600.0,,,32.84,,WNW,29.58,29.76,,Overcast
KIGQ,12/02/2016 22:35 UTC,30.24,38.3,32.0,75.14,8.05,300.0,,,464.0,,,262.0,342.0,,,10.0,,KIGQ 022235Z AUTO 30007KT 10SM SCT026 SCT034 OVC046 04/00  A3024 RMK AO2 T00350000,,,4600.0,,,31.03,34.48,WNW,29.58,29.79,,Overcast
KIGQ,12/02/2016 22:55 UTC,30.25,37.94,32.0,80.63,6.91,310.0,,,,,,444.0,,,,10.0,,KIGQ 022255Z AUTO 31006KT 10SM OVC044 03/00 A3025 RMK AO2  T00330000,,,4400.0,,,32.44,,NW,29.59,29.78,,Overcast
KIGQ,12/02/2016 23:15 UTC,30.25,37.94,31.46,80.63,6.91,310.0,,,,,,343.0,424.0,,,10.0,,KIGQ 022315Z AUTO 31006KT 10SM BKN034 OVC042 03/00 A3025 RMK AO2  T00331003,,,3400.0,,,32.44,,NW,29.59,29.78,,Overcast
KIGQ,12/02/2016 23:35 UTC,30.25,37.76,30.56,74.96,6.91,320.0,,,,,,344.0,,,,10.0,,KIGQ 022335Z AUTO 32006KT 10SM OVC034 03/M01 A3025 RMK AO2  T00321008,,,3400.0,,,30.44,,NW,29.59,29.82,,Overcast
KIGQ,12/02/2016 23:55 UTC,30.26,37.58,29.84,74.96,3.44,310.0,,,,,,364.0,,,,10.0,,KIGQ 022355Z AUTO 31003KT 10SM OVC036 03/M01 A3026 RMK AO2  T00311012 10040 20025,39.2,36.5,3600.0,,,30.27,,NW,29.6,29.83,,Overcast
KIGQ,12/03/2016 00:15 UTC,30.27,37.58,29.84,74.96,4.61,290.0,,,,,,404.0,,,,10.0,,KIGQ 030015Z AUTO 29004KT 10SM OVC040 03/M01 A3027 RMK AO2  T00311012,,,4000.0,,,30.27,,WNW,29.61,29.84,,Overcast
KIGQ,12/03/2016 00:35 UTC,30.28,37.4,30.38,74.96,6.91,290.0,,,,,,384.0,,,,10.0,,KIGQ 030035Z AUTO 29006KT 10SM OVC038 03/M01 A3028 RMK AO2  T00301009,,,3800.0,,,30.09,,WNW,29.62,29.85,,Overcast
KIGQ,12/03/2016 00:55 UTC,30.29,37.4,30.2,74.96,5.75,290.0,,,,,,364.0,,,,10.0,,KIGQ 030055Z AUTO 29005KT 10SM OVC036 03/M01 A3029 RMK AO2  T00301010,,,3600.0,,,30.09,,WNW,29.63,29.86,,Overcast
KIGQ,12/03/2016 01:15 UTC,30.29,37.22,29.3,74.96,8.05,320.0,,,,,,364.0,,,,10.0,,KIGQ 030115Z AUTO 32007KT 10SM OVC036 03/M01 A3029 RMK AO2  T00291015,,,3600.0,,,29.92,33.21,NW,29.63,29.87,,Overcast
KIGQ,12/03/2016 01:35 UTC,30.3,37.04,28.22,69.64,8.05,310.0,,,,,,364.0,,,,10.0,,KIGQ 030135Z AUTO 31007KT 10SM OVC036 03/M02 A3030 RMK AO2  T00281021,,,3600.0,,,27.92,33.0,NW,29.64,29.91,,Overcast
KIGQ,12/03/2016 01:55 UTC,30.3,36.68,28.76,69.64,6.91,290.0,,,,,,344.0,,,,10.0,,KIGQ 030155Z AUTO 29006KT 10SM OVC034 03/M02 A3030 RMK AO2  T00261018,,,3400.0,,,27.58,,WNW,29.64,29.91,,Overcast
KIGQ,12/03/2016 02:15 UTC,30.3,36.5,28.04,69.64,9.22,280.0,,,,,,344.0,,,,10.0,,KIGQ 030215Z AUTO 28008KT 10SM OVC034 03/M02 A3030 RMK AO2  T00251022,,,3400.0,,,27.41,31.79,W,29.64,29.92,,Overcast
KIGQ,12/03/2016 02:35 UTC,30.3,36.14,27.32,69.43,8.05,290.0,,,,,,364.0,,,,10.0,,KIGQ 030235Z AUTO 29007KT 10SM OVC036 02/M03 A3030 RMK AO2  T00231026,,,3600.0,,,26.99,31.94,WNW,29.64,29.93,,Overcast
KIGQ,12/03/2016 02:55 UTC,30.31,35.78,26.96,69.43,6.91,280.0,,,,,,364.0,,,,10.0,,KIGQ 030255Z AUTO 28006KT 10SM OVC036 02/M03 A3031 RMK AO2  T00211028,,,3600.0,,,26.64,,W,29.65,29.94,,Overcast
KIGQ,12/03/2016 03:15 UTC,30.31,35.6,27.14,69.43,6.91,280.0,,,,,,344.0,,,,10.0,,KIGQ 030315Z AUTO 28006KT 10SM OVC034 02/M03 A3031 RMK AO2  T00201027,,,3400.0,,,26.47,,W,29.65,29.95,,Overcast
KIGQ,12/03/2016 03:35 UTC,30.32,35.6,26.6,69.43,8.05,280.0,,,,,,344.0,,,,10.0,,KIGQ 030335Z AUTO 28007KT 10SM OVC034 02/M03 A3032 RMK AO2  T00201030,,,3400.0,,,26.47,31.3,W,29.66,29.96,,Overcast
KIGQ,12/03/2016 03:55 UTC,30.32,35.06,26.42,69.43,10.36,280.0,,,,,,344.0,,,,10.0,,KIGQ 030355Z AUTO 28009KT 10SM OVC034 02/M03 A3032 RMK AO2  T00171031,,,3400.0,,,25.95,29.56,W,29.66,29.97,,Overcast
KIGQ,12/03/2016 04:15 UTC,30.32,34.7,27.14,69.43,8.05,260.0,,,,,,344.0,,,,10.0,,KIGQ 030415Z AUTO 26007KT 10SM OVC034 02/M03 A3032 RMK AO2  T00151027,,,3400.0,,,25.6,30.25,W,29.66,29.97,,Overcast
KIGQ,12/03/2016 04:35 UTC,30.33,34.7,26.96,69.43,8.05,270.0,,,,,,344.0,,,,10.0,,KIGQ 030435Z AUTO 27007KT 10SM OVC034 02/M03 A3033 RMK AO2  T00151028,,,3400.0,,,25.6,30.25,W,29.67,29.98,,Overcast
KIGQ,12/03/2016 04:55 UTC,30.32,34.7,26.6,69.43,5.75,280.0,,,,,,344.0,,,,10.0,,KIGQ 030455Z AUTO 28005KT 10SM OVC034 02/M03 A3032 RMK AO2  T00151030,,,3400.0,,,25.6,,W,29.66,29.97,,Overcast
KIGQ,12/03/2016 05:15 UTC,30.31,34.16,26.78,74.6,4.61,280.0,,,,,,344.0,,,,10.0,,KIGQ 030515Z AUTO 28004KT 10SM OVC034 01/M03 A3031 RMK AO2  T00121029,,,3400.0,,,26.84,,W,29.65,29.95,,Overcast
KIGQ,12/03/2016 05:35 UTC,30.31,33.98,26.78,74.6,5.75,280.0,,,,,,344.0,,,,10.0,,KIGQ 030535Z AUTO 28005KT 10SM OVC034 01/M03 A3031 RMK AO2  T00111029,,,3400.0,,,26.67,,W,29.65,29.95,,Overcast
KIGQ,12/03/2016 05:55 UTC,30.31,33.8,26.6,74.6,5.75,290.0,,,,,,344.0,,,,10.0,,KIGQ 030555Z AUTO 29005KT 10SM OVC034 01/M03 A3031 RMK AO2  T00101030 10032 20010,37.76,33.8,3400.0,,,26.49,,WNW,29.65,29.96,,Overcast
KIGQ,12/03/2016 06:15 UTC,30.32,33.8,26.06,74.6,8.05,290.0,,,,,,344.0,,,,10.0,,KIGQ 030615Z AUTO 29007KT 10SM OVC034 01/M03 A3032 RMK AO2  T00101033,,,3400.0,,,26.49,29.19,WNW,29.66,29.97,,Overcast
KIGQ,12/03/2016 06:35 UTC,30.32,33.8,26.06,74.6,6.91,290.0,,,,,,344.0,,,,10.0,,KIGQ 030635Z AUTO 29006KT 10SM OVC034 01/M03 A3032 RMK AO2  T00101033,,,3400.0,,,26.49,,WNW,29.66,29.97,,Overcast
KIGQ,12/03/2016 06:55 UTC,30.31,32.9,25.52,69.22,6.91,300.0,,,,,,344.0,,,,10.0,,KIGQ 030655Z AUTO 30006KT 10SM OVC034 01/M04 A3031 RMK AO2  T00051036,,,3400.0,,,23.8,,WNW,29.65,29.99,,Overcast
KIGQ,12/03/2016 07:35 UTC,30.32,31.64,24.8,74.41,5.75,280.0,,,,,,342.0,,,,10.0,,KIGQ 030735Z AUTO 28005KT 10SM SCT034 00/M04 A3032 RMK AO2  T10021040,,,,,,24.34,,W,29.66,30.0,,Partly Cloudy
KIGQ,12/03/2016 07:55 UTC,30.33,31.28,24.8,74.41,6.91,270.0,,,,,,342.0,,,,10.0,,KIGQ 030755Z AUTO 27006KT 10SM SCT034 00/M04 A3033 RMK AO2  T10041040,,,,,,23.99,,W,29.67,30.02,,Partly Cloudy
KIGQ,12/03/2016 08:15 UTC,30.34,31.64,24.8,74.41,6.91,280.0,,,,,,343.0,,,,10.0,,KIGQ 030815Z AUTO 28006KT 10SM BKN034 00/M04 A3034 RMK AO2  T10021040,,,3400.0,,,24.34,,W,29.68,30.03,,Mostly Cloudy
KIGQ,12/03/2016 08:55 UTC,30.34,31.1,24.62,74.41,5.75,270.0,,,,,,344.0,,,,10.0,,KIGQ 030855Z AUTO 27005KT 10SM OVC034 00/M04 A3034 RMK AO2  T10051041,,,3400.0,,,23.82,,W,29.68,30.03,,Overcast
KIGQ,12/03/2016 09:15 UTC,30.33,31.46,24.8,74.41,4.61,280.0,,,,,,344.0,,,,10.0,,KIGQ 030915Z AUTO 28004KT 10SM OVC034 00/M04 A3033 RMK AO2  T10031040,,,3400.0,,,24.16,,W,29.67,30.02,,Overcast
KIGQ,12/03/2016 09:35 UTC,30.34,31.1,24.98,74.41,3.44,270.0,,,,,,344.0,,,,10.0,,KIGQ 030935Z AUTO 27003KT 10SM OVC034 00/M04 A3034 RMK AO2  T10051039,,,3400.0,,,23.82,,W,29.68,30.03,,Overcast
KIGQ,12/03/2016 11:15 UTC,30.36,32.36,25.52,74.41,6.91,310.0,,,,,,304.0,,,,10.0,,KIGQ 031115Z AUTO 31006KT 10SM OVC030 00/M04 A3036 RMK AO2  T00021036,,,3000.0,,,25.04,,NW,29.7,30.03,,Overcast
KIGQ,12/03/2016 11:35 UTC,30.36,32.54,25.34,74.41,8.05,300.0,,,,,,304.0,,,,10.0,,KIGQ 031135Z AUTO 30007KT 10SM OVC030 00/M04 A3036 RMK AO2  T00031037,,,3000.0,,,25.21,27.71,WNW,29.7,30.03,,Overcast
KIGQ,12/03/2016 11:55 UTC,30.36,32.36,25.7,80.19,10.36,270.0,,,,,,284.0,,,,10.0,,KIGQ 031155Z AUTO 27009KT 10SM OVC028 00/M03 A3036 RMK AO2 7////  T00021035 10010 21006,33.8,30.92,2800.0,,,26.86,26.33,W,29.7,30.01,,Overcast
KIGQ,12/03/2016 12:15 UTC,30.36,32.36,25.16,74.41,6.91,280.0,,,,,,284.0,,,,10.0,,KIGQ 031215Z AUTO 28006KT 10SM OVC028 00/M04 A3036 RMK AO2  T00021038,,,2800.0,,,25.04,,W,29.7,30.03,,Overcast
KIGQ,12/03/2016 12:35 UTC,30.36,32.18,25.52,74.41,5.75,320.0,,,,,,284.0,,,,10.0,,KIGQ 031235Z AUTO 32005KT 10SM OVC028 00/M04 A3036 RMK AO2  T00011036,,,2800.0,,,24.86,,NW,29.7,30.04,,Overcast
KIGQ,12/03/2016 12:55 UTC,30.36,32.18,25.52,74.41,5.75,290.0,,,,,,284.0,,,,10.0,,KIGQ 031255Z AUTO 29005KT 10SM OVC028 00/M04 A3036 RMK AO2  T00011036,,,2800.0,,,24.86,,WNW,29.7,30.04,,Overcast
KIGQ,12/03/2016 13:15 UTC,30.36,32.18,25.34,74.41,6.91,300.0,,,,,,284.0,,,,10.0,,KIGQ 031315Z AUTO 30006KT 10SM OVC028 00/M04 A3036 RMK AO2  T00011037,,,2800.0,,,24.86,,WNW,29.7,30.04,,Overcast
KIGQ,12/03/2016 13:35 UTC,30.36,32.18,25.34,74.41,6.91,310.0,,,,,,284.0,,,,10.0,,KIGQ 031335Z AUTO 31006KT 10SM OVC028 00/M04 A3036 RMK AO2  T00011037,,,2800.0,,,24.86,,NW,29.7,30.04,,Overcast
KIGQ,12/03/2016 13:55 UTC,30.37,32.18,25.34,74.41,8.05,320.0,,,,,,284.0,,,,10.0,,KIGQ 031355Z AUTO 32007KT 10SM OVC028 00/M04 A3037 RMK AO2  T00011037,,,2800.0,,,24.86,27.29,NW,29.71,30.05,,Overcast
KIGQ,12/03/2016 14:15 UTC,30.36,32.36,25.52,74.41,6.91,300.0,,,,,,284.0,,,,10.0,,KIGQ 031415Z AUTO 30006KT 10SM OVC028 00/M04 A3036 RMK AO2  T00021036,,,2800.0,,,25.04,,WNW,29.7,30.03,,Overcast
KIGQ,12/03/2016 14:35 UTC,30.36,32.36,25.52,74.41,4.61,310.0,,,,,,284.0,,,,10.0,,KIGQ 031435Z AUTO 31004KT 10SM OVC028 00/M04 A3036 RMK AO2  T00021036,,,2800.0,,,25.04,,NW,29.7,30.03,,Overcast
KIGQ,12/03/2016 14:55 UTC,30.34,32.36,25.52,74.41,4.61,290.0,,,,,,264.0,,,,10.0,,KIGQ 031455Z AUTO 29004KT 10SM OVC026 00/M04 A3034 RMK AO2  T00021036,,,2600.0,,,25.04,,WNW,29.68,30.01,,Overcast
KIGQ,12/03/2016 15:15 UTC,30.33,32.9,25.34,69.22,5.75,350.0,,,,,,264.0,,,,10.0,,KIGQ 031515Z AUTO 35005KT 10SM OVC026 01/M04 A3033 RMK AO2  T00051037,,,2600.0,,,23.8,,N,29.67,30.01,,Overcast
KIGQ,12/03/2016 15:35 UTC,30.34,33.08,25.52,69.22,4.61,360.0,,,,,,264.0,,,,10.0,,KIGQ 031535Z AUTO 36004KT 10SM OVC026 01/M04 A3034 RMK AO2  T00061036,,,2600.0,,,23.98,,N,29.68,30.02,,Overcast
KIGQ,12/03/2016 15:55 UTC,30.36,33.08,25.52,69.22,4.61,310.0,,,,,,264.0,,,,10.0,,KIGQ 031555Z AUTO 31004KT 10SM OVC026 01/M04 A3036 RMK AO2  T00061036,,,2600.0,,,23.98,,NW,29.7,30.04,,Overcast
KIGQ,12/03/2016 16:15 UTC,30.34,33.08,24.98,69.22,0.0,0.0,,,,,,264.0,,,,10.0,,KIGQ 031615Z AUTO 00000KT 10SM OVC026 01/M04 A3034 RMK AO2  T00061039,,,2600.0,,,23.98,,N,29.68,30.02,,Overcast
KIGQ,12/03/2016 16:35 UTC,30.36,33.44,25.52,69.22,3.44,280.0,,,,,,264.0,,,,10.0,,KIGQ 031635Z AUTO 28003KT 10SM OVC026 01/M04 A3036 RMK AO2  T00081036,,,2600.0,,,24.32,,W,29.7,30.04,,Overcast
KIGQ,12/03/2016 16:55 UTC,30.34,33.8,26.06,74.6,4.61,290.0,,,,,,284.0,,,,10.0,,KIGQ 031655Z AUTO 29004KT 10SM OVC028 01/M03 A3034 RMK AO2  T00101033,,,2800.0,,,26.49,,WNW,29.68,29.99,,Overcast
KIGQ,12/03/2016 17:15 UTC,30.35,33.8,25.7,74.6,0.0,0.0,,,,,,284.0,,,,10.0,,KIGQ 031715Z AUTO 00000KT 10SM OVC028 01/M03 A3035 RMK AO2  T00101035,,,2800.0,,,26.49,,N,29.69,30.0,,Overcast
KIGQ,12/03/2016 17:35 UTC,30.36,33.8,26.06,74.6,6.91,230.0,,,,,,284.0,,,,10.0,,KIGQ 031735Z AUTO 23006KT 10SM OVC028 01/M03 A3036 RMK AO2  T00101033,,,2800.0,,,26.49,,SW,29.7,30.01,,Overcast
KIGQ,12/03/2016 17:55 UTC,30.36,33.8,26.24,74.6,3.44,240.0,,,,,,284.0,,,,10.0,,KIGQ 031755Z AUTO 24003KT 10SM OVC028 01/M03 A3036 RMK AO2  T00101032 10011 20001,33.98,32.18,2800.0,,,26.49,,WSW,29.7,30.01,,Overcast
KIGQ,12/03/2016 18:15 UTC,30.35,33.98,26.24,74.6,3.44,260.0,,,,,,284.0,,,,10.0,,KIGQ 031815Z AUTO 26003KT 10SM OVC028 01/M03 A3035 RMK AO2  T00111032,,,2800.0,,,26.67,,W,29.69,29.99,,Overcast
KIGQ,12/03/2016 18:35 UTC,30.36,34.16,26.42,74.6,5.75,240.0,,,,,,284.0,,,,10.0,,KIGQ 031835Z AUTO 24005KT 10SM OVC028 01/M03 A3036 RMK AO2  T00121031,,,2800.0,,,26.84,,WSW,29.7,30.0,,Overcast
KIGQ,12/03/2016 18:55 UTC,30.34,34.16,26.96,74.6,3.44,260.0,,,,,,264.0,,,,10.0,,KIGQ 031855Z AUTO 26003KT 10SM OVC026 01/M03 A3034 RMK AO2  T00121028,,,2600.0,,,26.84,,W,29.68,29.98,,Overcast
KIGQ,12/03/2016 19:15 UTC,30.34,33.98,27.14,74.6,6.91,260.0,,,,,,264.0,,,,10.0,,KIGQ 031915Z AUTO 26006KT 10SM OVC026 01/M03 A3034 RMK AO2  T00111027,,,2600.0,,,26.67,,W,29.68,29.98,,Overcast
KIGQ,12/03/2016 19:35 UTC,30.34,33.8,27.5,80.34,4.61,280.0,,,,,,264.0,,,,10.0,,KIGQ 031935Z AUTO 28004KT 10SM OVC026 01/M02 A3034 RMK AO2  T00101025,,,2600.0,,,28.31,,W,29.68,29.96,,Overcast
KIGQ,12/03/2016 19:55 UTC,30.34,33.8,26.96,74.6,5.75,230.0,,,,,,264.0,,,,10.0,,KIGQ 031955Z AUTO 23005KT 10SM OVC026 01/M03 A3034 RMK AO2  T00101028,,,2600.0,,,26.49,,SW,29.68,29.99,,Overcast
KIGQ,12/03/2016 20:15 UTC,30.34,33.8,27.32,74.6,4.61,250.0,,,,,,264.0,,,,10.0,,KIGQ 032015Z AUTO 25004KT 10SM OVC026 01/M03 A3034 RMK AO2  T00101026,,,2600.0,,,26.49,,WSW,29.68,29.99,,Overcast
KIGQ,12/03/2016 20:35 UTC,30.34,33.8,26.42,74.6,4.61,280.0,,,,,,264.0,,,,10.0,,KIGQ 032035Z AUTO 28004KT 10SM OVC026 01/M03 A3034 RMK AO2  T00101031,,,2600.0,,,26.49,,W,29.68,29.99,,Overcast
KIGQ,12/03/2016 20:55 UTC,30.34,33.44,26.24,74.6,6.91,270.0,,,,,,264.0,,,,10.0,,KIGQ 032055Z AUTO 27006KT 10SM OVC026 01/M03 A3034 RMK AO2  T00081032,,,2600.0,,,26.14,,W,29.68,29.99,,Overcast
KIGQ,12/03/2016 21:15 UTC,30.34,33.26,26.42,74.6,4.61,280.0,,,,,,264.0,,,,10.0,,KIGQ 032115Z AUTO 28004KT 10SM OVC026 01/M03 A3034 RMK AO2  T00071031,,,2600.0,,,25.97,,W,29.68,30.0,,Overcast
KIGQ,12/03/2016 21:35 UTC,30.34,33.26,26.42,74.6,5.75,280.0,,,,,,264.0,,,,10.0,,KIGQ 032135Z AUTO 28005KT 10SM OVC026 01/M03 A3034 RMK AO2  T00071031,,,2600.0,,,25.97,,W,29.68,30.0,,Overcast
KIGQ,12/03/2016 21:55 UTC,30.33,33.26,26.78,74.6,5.75,290.0,,,,,,264.0,,,,10.0,,KIGQ 032155Z AUTO 29005KT 10SM OVC026 01/M03 A3033 RMK AO2  T00071029,,,2600.0,,,25.97,,WNW,29.67,29.99,,Overcast
KIGQ,12/03/2016 22:15 UTC,30.33,33.08,27.14,74.6,5.75,290.0,,,,,,264.0,,,,10.0,,KIGQ 032215Z AUTO 29005KT 10SM OVC026 01/M03 A3033 RMK AO2  T00061027,,,2600.0,,,25.79,,WNW,29.67,29.99,,Overcast
KIGQ,12/03/2016 22:35 UTC,30.32,32.9,27.14,74.6,3.44,290.0,,,,,,244.0,,,,10.0,,KIGQ 032235Z AUTO 29003KT 10SM OVC024 01/M03 A3032 RMK AO2  T00051027,,,2400.0,,,25.62,,WNW,29.66,29.98,,Overcast
KIGQ,12/03/2016 22:55 UTC,30.32,33.08,27.32,74.6,4.61,290.0,,,,,,244.0,,,,10.0,,KIGQ 032255Z AUTO 29004KT 10SM OVC024 01/M03 A3032 RMK AO2  T00061026,,,2400.0,,,25.79,,WNW,29.66,29.98,,Overcast
KIGQ,12/03/2016 23:15 UTC,30.32,32.0,26.6,80.19,0.0,0.0,,,,,,243.0,,,,10.0,,KIGQ 032315Z AUTO 00000KT 10SM BKN024 00/M03 A3032 RMK AO2  T00001030,,,2400.0,,,26.51,,N,29.66,29.98,,Mostly Cloudy
KIGQ,12/03/2016 23:35 UTC,30.31,31.46,26.6,80.19,0.0,0.0,,,,,,1.0,,,,10.0,,KIGQ 032335Z AUTO 00000KT 10SM CLR 00/M03 A3031 RMK AO2  T10031030,,,,,,25.99,,N,29.65,29.98,,Clear
KIGQ,12/03/2016 23:55 UTC,30.32,30.38,26.96,86.26,3.44,220.0,,,,,,1.0,,,,10.0,,KIGQ 032355Z AUTO 22003KT 10SM CLR M01/M03 A3032 RMK AO2 T10091028  10014 21009,34.52,30.38,,,,26.72,,SW,29.66,29.98,,Clear
KIGQ,12/04/2016 00:15 UTC,30.32,28.94,26.78,92.85,0.0,0.0,,,,,,1.0,,,,10.0,,KIGQ 040015Z AUTO 00000KT 10SM CLR M02/M03 A3032 RMK AO2  T10171029,,,,,,27.1,,N,29.66,29.99,,Clear
KIGQ,12/04/2016 00:35 UTC,30.32,28.4,26.6,92.85,0.0,0.0,,,,,,1.0,,,,10.0,,KIGQ 040035Z AUTO 00000KT 10SM CLR M02/M03 A3032 RMK AO2  T10201030,,,,,,26.57,,N,29.66,30.0,,Clear
KIGQ,12/04/2016 00:55 UTC,30.31,28.76,27.14,92.85,0.0,0.0,,,,,,1.0,,,,10.0,,KIGQ 040055Z AUTO 00000KT 10SM CLR M02/M03 A3031 RMK AO2  T10181027,,,,,,26.93,,N,29.65,29.98,,Clear
KIGQ,12/04/2016 01:15 UTC,30.31,29.12,27.5,100.0,0.0,0.0,,,,,,1.0,,,,10.0,,KIGQ 040115Z AUTO 00000KT 10SM CLR M02/M02 A3031 RMK AO2  T10161025,,,,,,29.12,,N,29.65,29.95,,Clear
KIGQ,12/04/2016 01:35 UTC,30.31,28.4,26.6,92.85,0.0,0.0,,,,,,1.0,,,,10.0,,KIGQ 040135Z AUTO 00000KT 10SM CLR M02/M03 A3031 RMK AO2  T10201030,,,,,,26.57,,N,29.65,29.99,,Clear
KIGQ,12/04/2016 01:55 UTC,30.31,28.22,26.96,92.85,0.0,0.0,,,,,,1.0,,,,10.0,,KIGQ 040155Z AUTO 00000KT 10SM CLR M02/M03 A3031 RMK AO2  T10211028,,,,,,26.39,,N,29.65,29.99,,Clear
KIGQ,12/04/2016 02:15 UTC,30.31,29.48,27.32,86.26,0.0,0.0,,,,,,1.0,,,,10.0,,KIGQ 040215Z AUTO 00000KT 10SM CLR M01/M03 A3031 RMK AO2  T10141026,,,,,,25.83,,N,29.65,29.99,,Clear
KIGQ,12/04/2016 02:35 UTC,30.31,28.94,27.5,100.0,3.44,170.0,,,,,,1.0,,,,10.0,,KIGQ 040235Z AUTO 17003KT 10SM CLR M02/M02 A3031 RMK AO2  T10171025,,,,,,28.94,,S,29.65,29.96,,Clear
KIGQ,12/04/2016 02:55 UTC,30.3,28.94,27.5,100.0,0.0,0.0,,,,,,1.0,,,,10.0,,KIGQ 040255Z AUTO 00000KT 10SM CLR M02/M02 A3030 RMK AO2  T10171025,,,,,,28.94,,N,29.64,29.95,,Clear
KIGQ,12/04/2016 03:15 UTC,30.3,28.4,27.5,100.0,0.0,0.0,,,,,,1.0,,,,10.0,,KIGQ 040315Z AUTO 00000KT 10SM CLR M02/M02 A3030 RMK AO2  T10201025,,,,,,28.4,,N,29.64,29.96,,Clear
KIGQ,12/04/2016 03:35 UTC,30.29,29.12,28.22,100.0,0.0,0.0,,,,,,1.0,,,,10.0,,KIGQ 040335Z AUTO 00000KT 10SM CLR M02/M02 A3029 RMK AO2  T10161021,,,,,,29.12,,N,29.63,29.93,,Clear
KIGQ,12/04/2016 03:55 UTC,30.29,29.66,27.68,92.91,3.44,230.0,,,,,,1.0,,,,10.0,,KIGQ 040355Z AUTO 23003KT 10SM CLR M01/M02 A3029 RMK AO2  T10131024,,,,,,27.83,,SW,29.63,29.94,,Clear
KIGQ,12/04/2016 04:15 UTC,30.28,29.66,27.68,92.91,3.44,170.0,,,,,,1.0,,,,10.0,,KIGQ 040415Z AUTO 17003KT 10SM CLR M01/M02 A3028 RMK AO2  T10131024,,,,,,27.83,,S,29.62,29.93,,Clear
KIGQ,12/04/2016 04:35 UTC,30.29,29.3,27.86,92.91,0.0,0.0,,,,,,1.0,,,,10.0,,KIGQ 040435Z AUTO 00000KT 10SM CLR M01/M02 A3029 RMK AO2  T10151023,,,,,,27.48,,N,29.63,29.95,,Clear
KIGQ,12/04/2016 04:55 UTC,30.29,29.48,27.86,92.91,4.61,200.0,,,,,,1.0,,,,10.0,,KIGQ 040455Z AUTO 20004KT 10SM CLR M01/M02 A3029 RMK AO2  T10141023,,,,,,27.66,,SSW,29.63,29.95,,Clear
KIGQ,12/04/2016 05:15 UTC,30.28,29.3,27.68,92.91,0.0,0.0,,,,,,1202.0,,,,10.0,,KIGQ 040515Z AUTO 00000KT 10SM SCT120 M01/M02 A3028 RMK AO2  T10151024,,,,,,27.48,,N,29.62,29.94,,Partly Cloudy
KIGQ,12/04/2016 05:35 UTC,30.27,29.3,27.86,92.91,0.0,0.0,,,,,,1202.0,,,,10.0,,KIGQ 040535Z AUTO 00000KT 10SM SCT120 M01/M02 A3027 RMK AO2  T10151023,,,,,,27.48,,N,29.61,29.93,,Partly Cloudy
KIGQ,12/04/2016 05:55 UTC,30.28,30.02,28.22,92.91,3.44,220.0,,,,,,1.0,,,,10.0,,KIGQ 040555Z AUTO 22003KT 10SM CLR M01/M02 A3028 RMK AO2 T10111021  11011 21022 400141022,30.02,28.04,,34.52,28.04,28.19,,SW,29.62,29.93,,Clear
KIGQ,12/04/2016 06:15 UTC,30.28,30.2,27.86,92.91,0.0,0.0,,,,,,1.0,,,,10.0,,KIGQ 040615Z AUTO 00000KT 10SM CLR M01/M02 A3028 RMK AO2  T10101023,,,,,,28.37,,N,29.62,29.92,,Clear
KIGQ,12/04/2016 06:35 UTC,30.27,30.2,28.04,92.91,0.0,0.0,,,,,,1.0,,,,10.0,,KIGQ 040635Z AUTO 00000KT 10SM CLR M01/M02 A3027 RMK AO2  T10101022,,,,,,28.37,,N,29.61,29.91,,Clear
KIGQ,12/04/2016 06:55 UTC,30.26,30.2,28.22,92.91,0.0,0.0,,,,,,1.0,,,,10.0,,KIGQ 040655Z AUTO 00000KT 10SM CLR M01/M02 A3026 RMK AO2  T10101021,,,,,,28.37,,N,29.6,29.9,,Clear
KIGQ,12/04/2016 07:15 UTC,30.25,30.2,28.22,92.91,0.0,0.0,,,,,,1202.0,,,,10.0,,KIGQ 040715Z AUTO 00000KT 10SM SCT120 M01/M02 A3025 RMK AO2  T10101021,,,,,,28.37,,N,29.59,29.89,,Partly Cloudy
KIGQ,12/04/2016 07:35 UTC,30.25,30.2,28.04,92.91,0.0,0.0,,,,,,1.0,,,,10.0,,KIGQ 040735Z AUTO 00000KT 10SM CLR M01/M02 A3025 RMK AO2  T10101022,,,,,,28.37,,N,29.59,29.89,,Clear
KIGQ,12/04/2016 07:55 UTC,30.24,30.56,28.4,92.91,0.0,0.0,,,,,,1202.0,,,,10.0,,KIGQ 040755Z AUTO 00000KT 10SM SCT120 M01/M02 A3024 RMK AO2  T10081020,,,,,,28.73,,N,29.58,29.88,,Partly Cloudy
KIGQ,12/04/2016 08:15 UTC,30.26,30.74,28.4,92.91,0.0,0.0,,,,,,1203.0,,,,10.0,,KIGQ 040815Z AUTO 00000KT 10SM BKN120 M01/M02 A3026 RMK AO2  T10071020,,,12000.0,,,28.91,,N,29.6,29.89,,Mostly Cloudy
KIGQ,12/04/2016 08:35 UTC,30.25,30.92,28.4,92.91,0.0,0.0,,,,,,302.0,1104.0,,,10.0,,KIGQ 040835Z AUTO 00000KT 10SM SCT030 OVC110 M01/M02 A3025 RMK AO2  T10061020,,,11000.0,,,29.08,,N,29.59,29.88,,Overcast
KIGQ,12/04/2016 08:55 UTC,30.24,30.92,28.76,92.91,0.0,0.0,,,,,,303.0,1104.0,,,10.0,,KIGQ 040855Z AUTO 00000KT 10SM BKN030 OVC110 M01/M02 A3024 RMK AO2  T10061018,,,3000.0,,,29.08,,N,29.58,29.87,,Overcast
KIGQ,12/04/2016 09:15 UTC,30.23,30.92,28.4,92.91,0.0,0.0,,,,,,303.0,1104.0,,,10.0,,KIGQ 040915Z AUTO 00000KT 10SM BKN030 OVC110 M01/M02 A3023 RMK AO2  T10061020,,,3000.0,,,29.08,,N,29.57,29.86,,Overcast
KIGQ,12/04/2016 09:35 UTC,30.23,31.1,28.04,86.37,0.0,0.0,,,,,,282.0,1104.0,,,10.0,,KIGQ 040935Z AUTO 00000KT 10SM SCT028 OVC110 00/M02 A3023 RMK AO2  T10051022,,,11000.0,,,27.46,,N,29.57,29.88,,Overcast
KIGQ,12/04/2016 09:55 UTC,30.22,31.1,28.94,86.37,0.0,0.0,,,,,,1004.0,,,,10.0,,KIGQ 040955Z AUTO 00000KT 10SM OVC100 00/M02 A3022 RMK AO2  T10051017,,,10000.0,,,27.46,,N,29.56,29.87,,Overcast
KIGQ,12/04/2016 10:15 UTC,30.21,31.1,28.94,86.37,0.0,0.0,,,,,,1004.0,,,,10.0,,KIGQ 041015Z AUTO 00000KT 10SM OVC100 00/M02 A3021 RMK AO2  T10051017,,,10000.0,,,27.46,,N,29.55,29.86,,Overcast
KIGQ,12/04/2016 10:35 UTC,30.2,31.1,28.76,86.37,0.0,0.0,,,,,,1004.0,,,,10.0,,KIGQ 041035Z AUTO 00000KT 10SM OVC100 00/M02 A3020 RMK AO2  T10051018,,,10000.0,,,27.46,,N,29.54,29.85,,Overcast
KIGQ,12/04/2016 10:55 UTC,30.19,30.2,28.4,92.91,3.44,110.0,,,,,,1003.0,,,,10.0,,KIGQ 041055Z AUTO 11003KT 10SM BKN100 M01/M02 A3019 RMK AO2  T10101020,,,10000.0,,,28.37,,ESE,29.53,29.83,,Mostly Cloudy
KIGQ,12/04/2016 11:15 UTC,30.18,30.2,28.22,92.91,0.0,0.0,,,,,,1002.0,,,,10.0,,KIGQ 041115Z AUTO 00000KT 10SM SCT100 M01/M02 A3018 RMK AO2  T10101021,,,,,,28.37,,N,29.52,29.82,,Partly Cloudy
KIGQ,12/04/2016 11:35 UTC,30.19,30.02,28.4,92.91,0.0,0.0,,,,,,1002.0,,,,10.0,,KIGQ 041135Z AUTO 00000KT 10SM SCT100 M01/M02 A3019 RMK AO2  T10111020,,,,,,28.19,,N,29.53,29.84,,Partly Cloudy
KIGQ,12/04/2016 11:55 UTC,30.19,30.2,28.58,92.91,0.0,0.0,,,,,,1004.0,,,,10.0,,KIGQ 041155Z AUTO 00000KT 10SM OVC100 M01/M02 A3019 RMK AO2  T10101019 11005 21012,31.1,29.84,10000.0,,,28.37,,N,29.53,29.83,,Overcast
KIGQ,12/04/2016 12:15 UTC,30.19,30.56,28.58,92.91,0.0,0.0,,,,,,1004.0,,,,10.0,,KIGQ 041215Z AUTO 00000KT 10SM OVC100 M01/M02 A3019 RMK AO2  T10081019,,,10000.0,,,28.73,,N,29.53,29.83,,Overcast
KIGQ,12/04/2016 12:35 UTC,30.17,30.92,29.12,92.91,3.44,100.0,,,,,,1004.0,,,,10.0,,KIGQ 041235Z AUTO 10003KT 10SM OVC100 M01/M02 A3017 RMK AO2  T10061016,,,10000.0,,,29.08,,E,29.51,29.8,,Overcast
KIGQ,12/04/2016 12:55 UTC,30.18,31.1,28.94,86.37,3.44,120.0,,,,,,252.0,1004.0,,,10.0,,KIGQ 041255Z AUTO 12003KT 10SM SCT025 OVC100 00/M02 A3018 RMK AO2  T10051017,,,10000.0,,,27.46,,ESE,29.52,29.83,,Overcast
KIGQ,12/04/2016 13:15 UTC,30.18,31.46,29.12,86.37,0.0,0.0,,,,,,253.0,1004.0,,,10.0,,KIGQ 041315Z AUTO 00000KT 10SM BKN025 OVC100 00/M02 A3018 RMK AO2  T10031016,,,2500.0,,,27.81,,N,29.52,29.82,,Overcast
KIGQ,12/04/2016 13:35 UTC,30.17,31.64,28.94,86.37,3.44,90.0,,,,,,254.0,,,,10.0,,KIGQ 041335Z AUTO 09003KT 10SM OVC025 00/M02 A3017 RMK AO2  T10021017,,,2500.0,,,27.99,,E,29.51,29.81,,Overcast
KIGQ,12/04/2016 13:55 UTC,30.16,31.64,29.12,86.37,6.91,110.0,,,954.0,,,253.0,703.0,,,10.0,,KIGQ 041355Z AUTO 11006KT 10SM BKN025 BKN070 OVC095 00/M02  A3016 RMK AO2 T10021016,,,2500.0,,,27.99,,ESE,29.5,29.8,,Overcast
KIGQ,12/04/2016 14:15 UTC,30.15,31.82,29.3,92.96,5.75,100.0,,,,,,252.0,954.0,,,10.0,,KIGQ 041415Z AUTO 10005KT 10SM SCT025 OVC095 00/M01 A3015 RMK AO2  T10011015,,,9500.0,,,29.99,,E,29.49,29.76,,Overcast
KIGQ,12/04/2016 14:35 UTC,30.14,32.0,29.12,86.37,5.75,80.0,,,,,,702.0,954.0,,,10.0,,KIGQ 041435Z AUTO 08005KT 10SM SCT070 OVC095 00/M02 A3014 RMK AO2  T00001016,,,9500.0,,,28.34,,E,29.48,29.77,,Overcast
KIGQ,12/04/2016 14:55 UTC,30.14,32.0,29.48,92.96,8.05,100.0,,,,,,703.0,954.0,,,10.0,,KIGQ 041455Z AUTO 10007KT 10SM BKN070 OVC095 00/M01 A3014 RMK AO2  T00001014,,,7000.0,,,30.17,27.08,E,29.48,29.75,,Overcast
KIGQ,12/04/2016 15:15 UTC,30.13,32.18,29.66,92.96,4.61,80.0,,,,,,703.0,854.0,,,10.0,,KIGQ 041515Z AUTO 08004KT 10SM BKN070 OVC085 00/M01 A3013 RMK AO2  T00011013,,,7000.0,,,30.35,,E,29.47,29.73,,Overcast
KIGQ,12/04/2016 15:35 UTC,30.11,32.36,29.66,92.96,5.75,90.0,,,,,,602.0,704.0,,,10.0,,KIGQ 041535Z AUTO 09005KT 10SM SCT060 OVC070 00/M01 A3011 RMK AO2  T00021013,,,7000.0,,,30.53,,E,29.46,29.72,,Overcast
KIGQ,12/04/2016 15:55 UTC,30.1,33.08,29.84,86.48,6.91,110.0,,,654.0,,,442.0,553.0,,,10.0,,KIGQ 041555Z AUTO 11006KT 10SM SCT044 BKN055 OVC065 01/M01  A3010 RMK AO2 T00061012,,,5500.0,,,29.44,,ESE,29.45,29.72,,Overcast
KIGQ,12/04/2016 16:15 UTC,30.09,32.9,29.48,86.48,6.91,100.0,,,954.0,,,452.0,503.0,,,7.0,,KIGQ 041615Z AUTO 10006KT 7SM SCT045 BKN050 OVC095 01/M01  A3009 RMK AO2 T00051014,,,5000.0,,,29.26,,E,29.44,29.71,,Overcast
KIGQ,12/04/2016 16:35 UTC,30.06,33.08,29.48,86.48,9.22,110.0,,20.0,904.0,,,412.0,703.0,,,7.0,,KIGQ 041635Z AUTO 11008KT 7SM -SN SCT041 BKN070 OVC090 01/M01  A3006 RMK AO2 T00061014,,,7000.0,,,29.44,27.73,ESE,29.41,29.68,,Light Snow
KIGQ,12/04/2016 16:55 UTC,30.06,33.08,30.2,86.48,5.75,110.0,,20.0,,,,602.0,704.0,,,5.0,,KIGQ 041655Z AUTO 11005KT 5SM -SN SCT060 OVC070 01/M01 A3006 RMK AO2 T00061010,,,7000.0,,,29.44,,ESE,29.41,29.68,,Light Snow
KIGQ,12/04/2016 17:15 UTC,30.05,32.9,30.56,86.48,4.61,110.0,,20.0,604.0,,,192.0,373.0,,,2.5,,KIGQ 041715Z AUTO 11004KT 2 1/2SM -SN SCT019 BKN037 OVC060 01/M01  A3005 RMK AO2 T00051008,,,3700.0,,,29.26,,ESE,29.4,29.67,,Light Snow
KIGQ,12/04/2016 17:35 UTC,30.04,32.0,31.64,100.0,3.44,110.0,,20.0,,,,114.0,,,,0.75,,KIGQ 041735Z AUTO 11003KT 3/4SM -SN OVC011 00/00 A3004 RMK AO2  T00001002,,,1100.0,,,32.0,,ESE,29.39,29.63,,Light Snow
KIGQ,12/04/2016 17:55 UTC,30.03,32.0,32.0,100.0,4.61,100.0,,3.0,,0.01,,94.0,,0.01,,0.5,,KIGQ 041755Z AUTO 10004KT 1/2SM SN OVC009 00/00 A3003 RMK AO2  P0001 60001 T00000000 10006 21010,33.08,30.2,900.0,,,32.0,,E,29.38,29.62,,Snow
KIGQ,12/04/2016 18:15 UTC,30.01,32.0,32.0,100.0,0.0,0.0,,3.0,,0.01,,33.0,74.0,,,0.5,,KIGQ 041815Z AUTO 00000KT 1/2SM SN BKN003 OVC007 00/00 A3001 RMK AO2 P0001 T00000000,,,300.0,,,32.0,,N,29.36,29.6,,Snow
KIGQ,12/04/2016 18:35 UTC,30.0,32.0,32.0,100.0,0.0,0.0,,20.0,,0.03,,34.0,,,,0.5,,KIGQ 041835Z AUTO 00000KT 1/2SM -SN OVC003 00/00 A3000 RMK AO2  P0003 T00000000,,,300.0,,,32.0,,N,29.35,29.59,,Light Snow
KIGQ,12/04/2016 18:55 UTC,29.99,32.0,32.0,100.0,0.0,0.0,,3.0,,0.04,,34.0,,,,0.5,,KIGQ 041855Z AUTO 00000KT 1/2SM SN OVC003 00/00 A2999 RMK AO2  P0004 T00000000,,,300.0,,,32.0,,N,29.34,29.58,,Snow
KIGQ,12/04/2016 19:15 UTC,29.97,32.0,32.0,100.0,0.0,0.0,,3.0,,0.02,,34.0,,,,0.5,,KIGQ 041915Z AUTO 00000KT 1/2SM SN OVC003 00/00 A2997 RMK AO2  P0002 T00000000,,,300.0,,,32.0,,N,29.32,29.56,,Snow
KIGQ,12/04/2016 19:35 UTC,29.96,32.0,32.0,100.0,0.0,0.0,,20.0,,0.03,,34.0,,,,0.5,,KIGQ 041935Z AUTO 00000KT 1/2SM -SN OVC003 00/00 A2996 RMK AO2  P0003 T00000000,,,300.0,,,32.0,,N,29.31,29.54,,Light Snow
KIGQ,12/04/2016 19:55 UTC,29.95,32.0,32.0,100.0,0.0,0.0,,20.0,,0.04,,34.0,,,,0.75,,KIGQ 041955Z AUTO 00000KT 3/4SM -SN OVC003 00/00 A2995 RMK AO2  P0004 T00000000,,,300.0,,,32.0,,N,29.3,29.53,,Light Snow
KIGQ,12/04/2016 20:15 UTC,29.94,32.0,32.0,100.0,0.0,0.0,,3.0,,0.02,,54.0,,,,0.5,,KIGQ 042015Z AUTO 00000KT 1/2SM SN OVC005 00/00 A2994 RMK AO2  P0002 T00000000,,,500.0,,,32.0,,N,29.29,29.52,,Snow
KIGQ,12/04/2016 20:35 UTC,29.93,32.0,32.0,100.0,0.0,0.0,,3.0,,0.04,,54.0,,,,0.5,,KIGQ 042035Z AUTO 00000KT 1/2SM SN OVC005 00/00 A2993 RMK AO2  P0004 T00000000,,,500.0,,,32.0,,N,29.28,29.51,,Snow
KIGQ,12/04/2016 20:55 UTC,29.92,32.0,32.0,100.0,0.0,0.0,,20.0,,0.06,0.14,54.0,,,,0.5,,KIGQ 042055Z AUTO 00000KT 1/2SM -SN OVC005 00/00 A2992 RMK AO2  P0006 60014 T00000000,,,500.0,,,32.0,,N,29.27,29.5,,Light Snow
KIGQ,12/04/2016 21:15 UTC,29.9,32.0,32.0,100.0,3.44,60.0,,20.0,,0.01,,54.0,,,,0.5,,KIGQ 042115Z AUTO 06003KT 1/2SM -SN OVC005 00/00 A2990 RMK AO2  P0001 T00000000,,,500.0,,,32.0,,ENE,29.25,29.48,,Light Snow
KIGQ,12/04/2016 21:35 UTC,29.88,32.0,32.0,100.0,3.44,80.0,,20.0,,0.03,,54.0,,,,0.5,,KIGQ 042135Z AUTO 08003KT 1/2SM -SN OVC005 00/00 A2988 RMK AO2  P0003 T00000000,,,500.0,,,32.0,,E,29.23,29.46,,Light Snow
KIGQ,12/04/2016 21:55 UTC,29.89,32.0,32.0,100.0,0.0,0.0,,20.0,,0.03,,34.0,,,,0.75,,KIGQ 042155Z AUTO 00000KT 3/4SM -SN OVC003 00/00 A2989 RMK AO2  P0003 T00000000,,,300.0,,,32.0,,N,29.24,29.47,,Light Snow
KIGQ,12/04/2016 22:15 UTC,29.9,32.0,32.0,100.0,0.0,0.0,,3.0,,0.01,,34.0,,,,0.5,,KIGQ 042215Z AUTO 00000KT 1/2SM SN OVC003 00/00 A2990 RMK AO2  P0001 T00000000,,,300.0,,,32.0,,N,29.25,29.48,,Snow
KIGQ,12/04/2016 22:35 UTC,29.89,32.0,32.0,100.0,0.0,0.0,,20.0,,0.03,,64.0,,,,0.75,,KIGQ 042235Z AUTO 00000KT 3/4SM -SN OVC006 00/00 A2989 RMK AO2  P0003 T00000000,,,600.0,,,32.0,,N,29.24,29.47,,Light Snow
KIGQ,12/04/2016 22:55 UTC,29.91,32.0,32.0,100.0,3.44,300.0,,20.0,,0.03,,34.0,,,,1.25,,KIGQ 042255Z AUTO 30003KT 1 1/4SM -SN OVC003 00/00 A2991 RMK AO2  P0003 T00000000,,,300.0,,,32.0,,WNW,29.26,29.49,,Light Snow
KIGQ,12/04/2016 23:15 UTC,29.9,32.0,32.0,100.0,4.61,310.0,,20.0,,,,34.0,,,,1.25,,KIGQ 042315Z AUTO 31004KT 1 1/4SM -SN OVC003 00/00 A2990 RMK AO2  T00000000,,,300.0,,,32.0,,NW,29.25,29.48,,Light Snow
KIGQ,12/04/2016 23:35 UTC,29.9,32.0,32.0,100.0,0.0,0.0,,20.0,,0.01,,34.0,,,,1.25,,KIGQ 042335Z AUTO 00000KT 1 1/4SM -SN OVC003 00/00 A2990 RMK AO2  P0001 T00000000,,,300.0,,,32.0,,N,29.25,29.48,,Light Snow
KIGQ,12/04/2016 23:55 UTC,29.89,32.0,32.0,100.0,0.0,0.0,,20.0,,0.01,,34.0,,0.21,,1.5,,KIGQ 042355Z AUTO 00000KT 1 1/2SM -SN OVC003 00/00 A2989 RMK AO2  P0001 60021 T00000000 10000 20000,32.0,32.0,300.0,,,32.0,,N,29.24,29.47,,Light Snow
KIGQ,12/05/2016 00:15 UTC,29.88,32.0,32.0,100.0,0.0,0.0,,20.0,,,,34.0,,,,2.5,,KIGQ 050015Z AUTO 00000KT 2 1/2SM -SN OVC003 00/00 A2988 RMK AO2  T00000000,,,300.0,,,32.0,,N,29.23,29.46,,Light Snow
KIGQ,12/05/2016 00:35 UTC,29.89,32.0,32.0,100.0,0.0,0.0,,20.0,,,,34.0,,,,2.5,,KIGQ 050035Z AUTO 00000KT 2 1/2SM -SN OVC003 00/00 A2989 RMK AO2  T00000000,,,300.0,,,32.0,,N,29.24,29.47,,Light Snow
KIGQ,12/05/2016 00:55 UTC,29.88,32.0,32.0,100.0,0.0,0.0,,31.0,,,,34.0,,,,2.5,,KIGQ 050055Z AUTO 00000KT 2 1/2SM BR OVC003 00/00 A2988 RMK AO2  T00000000,,,300.0,,,32.0,,N,29.23,29.46,,Mist
KIGQ,12/05/2016 01:15 UTC,29.89,32.0,32.0,100.0,0.0,0.0,,20.0,,,,34.0,,,,2.5,,KIGQ 050115Z AUTO 00000KT 2 1/2SM -SN OVC003 00/00 A2989 RMK AO2  T00000000,,,300.0,,,32.0,,N,29.24,29.47,,Light Snow
KIGQ,12/05/2016 01:35 UTC,29.89,32.0,32.0,100.0,0.0,0.0,,20.0,,,,34.0,,,,2.5,,KIGQ 050135Z AUTO 00000KT 2 1/2SM -SN OVC003 00/00 A2989 RMK AO2  T00000000,,,300.0,,,32.0,,N,29.24,29.47,,Light Snow
KIGQ,12/05/2016 01:55 UTC,29.89,32.0,32.0,100.0,0.0,0.0,,20.0,,,,33.0,164.0,,,3.0,,KIGQ 050155Z AUTO 00000KT 3SM -SN BKN003 OVC016 00/00 A2989 RMK AO2 T00000000,,,300.0,,,32.0,,N,29.24,29.47,,Light Snow
KIGQ,12/05/2016 02:15 UTC,29.89,32.0,32.0,100.0,0.0,0.0,,31.0,,,,33.0,154.0,,,3.0,,KIGQ 050215Z AUTO 00000KT 3SM BR BKN003 OVC015 00/00 A2989 RMK AO2  T00000000,,,300.0,,,32.0,,N,29.24,29.47,,Mist
KIGQ,12/05/2016 02:35 UTC,29.9,32.0,32.0,100.0,3.44,260.0,,31.0,,,,34.0,,,,3.0,,KIGQ 050235Z AUTO 26003KT 3SM BR OVC003 00/00 A2990 RMK AO2  T00000000,,,300.0,,,32.0,,W,29.25,29.48,,Mist
KIGQ,12/05/2016 02:55 UTC,29.9,30.92,30.92,100.0,0.0,0.0,,31.0,,,,33.0,184.0,,,3.0,,KIGQ 050255Z AUTO 00000KT 3SM BR BKN003 OVC018 M01/M01 A2990 RMK AO2 T10061006,,,300.0,,,30.92,,N,29.25,29.51,,Mist
KIGQ,12/05/2016 03:15 UTC,29.9,30.2,30.2,100.0,0.0,0.0,,31.0,,,,32.0,184.0,,,2.5,,KIGQ 050315Z AUTO 00000KT 2 1/2SM BR SCT003 OVC018 M01/M01  A2990 RMK AO2 T10101010,,,1800.0,,,30.2,,N,29.25,29.52,,Mist
KIGQ,12/05/2016 03:35 UTC,29.9,29.84,29.84,100.0,3.44,250.0,,31.0,,,,53.0,184.0,,,3.0,,KIGQ 050335Z AUTO 25003KT 3SM BR BKN005 OVC018 M01/M01 A2990 RMK AO2 T10121012,,,500.0,,,29.84,,WSW,29.25,29.53,,Mist
KIGQ,12/05/2016 03:55 UTC,29.91,31.64,31.64,100.0,4.61,270.0,,31.0,,,,54.0,,,,5.0,,KIGQ 050355Z AUTO 27004KT 5SM BR OVC005 00/00 A2991 RMK AO2  T10021002,,,500.0,,,31.64,,W,29.26,29.5,,Mist
KIGQ,12/05/2016 04:15 UTC,29.92,31.1,31.1,100.0,3.44,250.0,,31.0,,,,54.0,,,,5.0,,KIGQ 050415Z AUTO 25003KT 5SM BR OVC005 00/00 A2992 RMK AO2  T10051005,,,500.0,,,31.1,,WSW,29.27,29.52,,Mist
KIGQ,12/05/2016 04:35 UTC,29.93,31.64,31.64,100.0,6.91,260.0,,31.0,,,,54.0,,,,5.0,,KIGQ 050435Z AUTO 26006KT 5SM BR OVC005 00/00 A2993 RMK AO2  T10021002,,,500.0,,,31.64,,W,29.28,29.52,,Mist
KIGQ,12/05/2016 04:55 UTC,29.94,32.0,32.0,100.0,4.61,250.0,,31.0,,,,53.0,124.0,,,5.0,,KIGQ 050455Z AUTO 25004KT 5SM BR BKN005 OVC012 00/00 A2994 RMK AO2  T00000000,,,500.0,,,32.0,,WSW,29.29,29.52,,Mist
KIGQ,12/05/2016 05:15 UTC,29.95,32.18,32.18,100.0,5.75,250.0,,31.0,,,,54.0,,,,4.0,,KIGQ 050515Z AUTO 25005KT 4SM BR OVC005 00/00 A2995 RMK AO2  T00010001,,,500.0,,,32.18,,WSW,29.3,29.53,,Mist
KIGQ,12/05/2016 05:35 UTC,29.94,32.36,32.36,100.0,5.75,250.0,,31.0,,,,54.0,,,,4.0,,KIGQ 050535Z AUTO 25005KT 4SM BR OVC005 00/00 A2994 RMK AO2  T00020002,,,500.0,,,32.36,,WSW,29.29,29.52,,Mist
KIGQ,12/05/2016 05:55 UTC,29.95,32.54,32.54,100.0,5.75,260.0,,31.0,,,,54.0,,,,5.0,,KIGQ 050555Z AUTO 26005KT 5SM BR OVC005 00/00 A2995 RMK AO2  T00030003 10003 21015 400061015,32.54,29.3,500.0,33.08,29.3,32.54,,W,29.3,29.52,,Mist
KIGQ,12/05/2016 06:15 UTC,29.96,32.36,32.18,100.0,6.91,270.0,,,,,,74.0,,,,10.0,,KIGQ 050615Z AUTO 27006KT 10SM OVC007 00/00 A2996 RMK AO2  T00020001,,,700.0,,,32.36,,W,29.31,29.54,,Overcast
KIGQ,12/05/2016 06:35 UTC,29.96,32.36,32.18,100.0,6.91,240.0,,,,,,74.0,,,,7.0,,KIGQ 050635Z AUTO 24006KT 7SM OVC007 00/00 A2996 RMK AO2  T00020001,,,700.0,,,32.36,,WSW,29.31,29.54,,Overcast
KIGQ,12/05/2016 06:55 UTC,29.96,32.18,32.18,100.0,8.05,260.0,,,,,,54.0,,,,7.0,,KIGQ 050655Z AUTO 26007KT 7SM OVC005 00/00 A2996 RMK AO2  T00010001,,,500.0,,,32.18,27.29,W,29.31,29.54,,Overcast
KIGQ,12/05/2016 07:15 UTC,29.96,32.54,32.18,100.0,8.05,270.0,,,,,,74.0,,,,10.0,,KIGQ 050715Z AUTO 27007KT 10SM OVC007 00/00 A2996 RMK AO2  T00030001,,,700.0,,,32.54,27.71,W,29.31,29.53,,Overcast
KIGQ,12/05/2016 07:35 UTC,29.97,32.36,32.18,100.0,5.75,270.0,,,,,,74.0,,,,10.0,,KIGQ 050735Z AUTO 27005KT 10SM OVC007 00/00 A2997 RMK AO2  T00020001,,,700.0,,,32.36,,W,29.32,29.55,,Overcast
KIGQ,12/05/2016 07:55 UTC,29.98,32.54,32.0,100.0,5.75,270.0,,,,,,74.0,,,,10.0,,KIGQ 050755Z AUTO 27005KT 10SM OVC007 00/00 A2998 RMK AO2  T00030000,,,700.0,,,32.54,,W,29.33,29.55,,Overcast
KIGQ,12/05/2016 08:15 UTC,30.0,32.72,32.0,100.0,5.75,260.0,,,,,,74.0,,,,10.0,,KIGQ 050815Z AUTO 26005KT 10SM OVC007 00/00 A3000 RMK AO2  T00040000,,,700.0,,,32.72,,W,29.35,29.57,,Overcast
KIGQ,12/05/2016 08:35 UTC,30.01,32.54,32.0,100.0,6.91,250.0,,,,,,94.0,,,,10.0,,KIGQ 050835Z AUTO 25006KT 10SM OVC009 00/00 A3001 RMK AO2  T00030000,,,900.0,,,32.54,,WSW,29.36,29.58,,Overcast
KIGQ,12/05/2016 08:55 UTC,30.01,32.9,32.0,93.02,8.05,270.0,,,,,,94.0,,,,10.0,,KIGQ 050855Z AUTO 27007KT 10SM OVC009 01/00 A3001 RMK AO2  T00050000,,,900.0,,,31.08,28.13,W,29.36,29.6,,Overcast
KIGQ,12/05/2016 09:15 UTC,30.0,32.54,32.0,100.0,8.05,260.0,,,,,,94.0,,,,10.0,,KIGQ 050915Z AUTO 26007KT 10SM OVC009 00/00 A3000 RMK AO2  T00030000,,,900.0,,,32.54,27.71,W,29.35,29.57,,Overcast
KIGQ,12/05/2016 09:35 UTC,30.01,32.9,32.0,93.02,8.05,260.0,,,,,,94.0,,,,10.0,,KIGQ 050935Z AUTO 26007KT 10SM OVC009 01/00 A3001 RMK AO2  T00050000,,,900.0,,,31.08,28.13,W,29.36,29.6,,Overcast
KIGQ,12/05/2016 09:55 UTC,30.02,32.9,32.0,93.02,6.91,260.0,,,,,,94.0,,,,10.0,,KIGQ 050955Z AUTO 26006KT 10SM OVC009 01/00 A3002 RMK AO2  T00050000,,,900.0,,,31.08,,W,29.37,29.61,,Overcast
KIGQ,12/05/2016 10:15 UTC,30.01,32.72,32.0,100.0,5.75,260.0,,,,,,94.0,,,,10.0,,KIGQ 051015Z AUTO 26005KT 10SM OVC009 00/00 A3001 RMK AO2  T00040000,,,900.0,,,32.72,,W,29.36,29.58,,Overcast
KIGQ,12/05/2016 10:35 UTC,30.01,32.54,32.0,100.0,5.75,270.0,,,,,,94.0,,,,10.0,,KIGQ 051035Z AUTO 27005KT 10SM OVC009 00/00 A3001 RMK AO2  T00030000,,,900.0,,,32.54,,W,29.36,29.58,,Overcast
KIGQ,12/05/2016 10:55 UTC,30.02,32.54,32.0,100.0,5.75,260.0,,,,,,94.0,,,,10.0,,KIGQ 051055Z AUTO 26005KT 10SM OVC009 00/00 A3002 RMK AO2  T00030000,,,900.0,,,32.54,,W,29.37,29.59,,Overcast
KIGQ,12/05/2016 11:15 UTC,30.01,32.54,32.0,100.0,4.61,270.0,,,,,,94.0,,,,10.0,,KIGQ 051115Z AUTO 27004KT 10SM OVC009 00/00 A3001 RMK AO2  T00030000,,,900.0,,,32.54,,W,29.36,29.58,,Overcast
KIGQ,12/05/2016 11:35 UTC,30.01,32.36,32.0,100.0,4.61,280.0,,,,,,94.0,,,,10.0,,KIGQ 051135Z AUTO 28004KT 10SM OVC009 00/00 A3001 RMK AO2  T00020000,,,900.0,,,32.36,,W,29.36,29.59,,Overcast
KIGQ,12/05/2016 11:55 UTC,30.02,32.0,32.0,100.0,3.44,280.0,,,,,,94.0,,,0.22,10.0,,KIGQ 051155Z AUTO 28003KT 10SM OVC009 00/00 A3002 RMK AO2 70022  T00000000 10005 20000,32.9,32.0,900.0,,,32.0,,W,29.37,29.61,,Overcast
KIGQ,12/05/2016 12:15 UTC,30.02,32.0,32.0,100.0,5.75,250.0,,,,,,74.0,,,,10.0,,KIGQ 051215Z AUTO 25005KT 10SM OVC007 00/00 A3002 RMK AO2  T00000000,,,700.0,,,32.0,,WSW,29.37,29.61,,Overcast
KIGQ,12/05/2016 12:35 UTC,30.03,32.0,32.0,100.0,3.44,240.0,,,,,,74.0,,,,10.0,,KIGQ 051235Z AUTO 24003KT 10SM OVC007 00/00 A3003 RMK AO2  T00000000,,,700.0,,,32.0,,WSW,29.38,29.62,,Overcast
KIGQ,12/05/2016 12:55 UTC,30.03,32.0,31.82,100.0,0.0,0.0,,,,,,74.0,,,,10.0,,KIGQ 051255Z AUTO 00000KT 10SM OVC007 00/00 A3003 RMK AO2  T00001001,,,700.0,,,32.0,,N,29.38,29.62,,Overcast
KIGQ,12/05/2016 13:15 UTC,30.03,32.0,31.82,100.0,3.44,240.0,,31.0,,,,74.0,,,,5.0,,KIGQ 051315Z AUTO 24003KT 5SM BR OVC007 00/00 A3003 RMK AO2  T00001001,,,700.0,,,32.0,,WSW,29.38,29.62,,Mist
KIGQ,12/05/2016 13:35 UTC,30.03,32.0,31.82,100.0,4.61,220.0,,31.0,,,,74.0,,,,5.0,,KIGQ 051335Z AUTO 22004KT 5SM BR OVC007 00/00 A3003 RMK AO2  T00001001,,,700.0,,,32.0,,SW,29.38,29.62,,Mist
KIGQ,12/05/2016 13:55 UTC,30.03,32.0,32.0,100.0,3.44,220.0,,31.0,,,,74.0,,,,5.0,,KIGQ 051355Z AUTO 22003KT 5SM BR OVC007 00/00 A3003 RMK AO2  T00000000,,,700.0,,,32.0,,SW,29.38,29.62,,Mist
KIGQ,12/05/2016 14:15 UTC,30.04,32.0,31.82,100.0,5.75,200.0,,,,,,74.0,,,,7.0,,KIGQ 051415Z AUTO 20005KT 7SM OVC007 00/00 A3004 RMK AO2  T00001001,,,700.0,,,32.0,,SSW,29.39,29.63,,Overcast
KIGQ,12/05/2016 14:35 UTC,30.05,32.0,32.0,100.0,5.75,220.0,,,,,,74.0,,,,7.0,,KIGQ 051435Z AUTO 22005KT 7SM OVC007 00/00 A3005 RMK AO2  T00000000,,,700.0,,,32.0,,SW,29.4,29.64,,Overcast
KIGQ,12/05/2016 14:55 UTC,30.05,32.0,32.0,100.0,5.75,260.0,,,,,,54.0,,,,7.0,,KIGQ 051455Z AUTO 26005KT 7SM OVC005 00/00 A3005 RMK AO2  T00000000,,,500.0,,,32.0,,W,29.4,29.64,,Overcast
KIGQ,12/05/2016 15:15 UTC,30.05,32.0,32.0,100.0,6.91,210.0,,,,,,54.0,,,,10.0,,KIGQ 051515Z AUTO 21006KT 10SM OVC005 00/00 A3005 RMK AO2  T00000000,,,500.0,,,32.0,,SSW,29.4,29.64,,Overcast
KIGQ,12/05/2016 15:35 UTC,30.06,32.0,32.0,100.0,6.91,210.0,,,,,,54.0,,,,7.0,,KIGQ 051535Z AUTO 21006KT 7SM OVC005 00/00 A3006 RMK AO2  T00000000,,,500.0,,,32.0,,SSW,29.41,29.65,,Overcast
KIGQ,12/05/2016 15:55 UTC,30.07,32.0,31.82,100.0,9.22,200.0,,,,,,54.0,,,,7.0,,KIGQ 051555Z AUTO 20008KT 7SM OVC005 00/00 A3007 RMK AO2  T00001001,,,500.0,,,32.0,26.45,SSW,29.42,29.66,,Overcast
KIGQ,12/05/2016 16:15 UTC,30.07,32.0,32.0,100.0,10.36,210.0,,,,,,54.0,,,,7.0,,KIGQ 051615Z AUTO 21009KT 7SM OVC005 00/00 A3007 RMK AO2  T00000000,,,500.0,,,32.0,25.9,SSW,29.42,29.66,,Overcast
KIGQ,12/05/2016 16:55 UTC,30.06,32.0,32.0,100.0,10.36,190.0,,,,,,54.0,,,,7.0,,KIGQ 051655Z AUTO 19009KT 7SM OVC005 00/00 A3006 RMK AO2  T00000000,,,500.0,,,32.0,25.9,S,29.41,29.65,,Overcast
KIGQ,12/05/2016 17:15 UTC,30.07,32.0,32.0,100.0,10.36,180.0,,,,,,54.0,,,,7.0,,KIGQ 051715Z AUTO 18009KT 7SM OVC005 00/00 A3007 RMK AO2  T00000000,,,500.0,,,32.0,25.9,S,29.42,29.66,,Overcast
KIGQ,12/05/2016 17:35 UTC,30.07,32.18,32.0,100.0,11.5,190.0,,,,,,54.0,,,,7.0,,KIGQ 051735Z AUTO 19010KT 7SM OVC005 00/00 A3007 RMK AO2  T00010000,,,500.0,,,32.18,25.62,S,29.42,29.65,,Overcast
KIGQ,12/05/2016 17:55 UTC,30.07,32.0,32.0,100.0,13.8,220.0,,,,,,54.0,,,,10.0,,KIGQ 051755Z AUTO 22012KT 10SM OVC005 00/00 A3007 RMK AO2  T00000000 10001 20000,32.18,32.0,500.0,,,32.0,24.5,SW,29.42,29.66,,Overcast
KIGQ,12/05/2016 18:15 UTC,30.06,32.18,32.0,100.0,10.36,200.0,16.11,,,,,54.0,,,,10.0,,KIGQ 051815Z AUTO 20009G14KT 10SM OVC005 00/00 A3006 RMK AO2  T00010000,,,500.0,,,32.18,26.12,SSW,29.41,29.64,,Overcast
KIGQ,12/05/2016 18:35 UTC,30.04,32.18,32.0,100.0,10.36,190.0,,,,,,54.0,,,,10.0,,KIGQ 051835Z AUTO 19009KT 10SM OVC005 00/00 A3004 RMK AO2  T00010000,,,500.0,,,32.18,26.12,S,29.39,29.62,,Overcast
KIGQ,12/05/2016 18:55 UTC,30.03,32.0,32.0,100.0,11.5,180.0,,,,,,54.0,,,,7.0,,KIGQ 051855Z AUTO 18010KT 7SM OVC005 00/00 A3003 RMK AO2  T00000000,,,500.0,,,32.0,25.4,S,29.38,29.62,,Overcast
KIGQ,12/05/2016 19:15 UTC,30.02,32.0,32.0,100.0,8.05,190.0,,,,,,54.0,,,,7.0,,KIGQ 051915Z AUTO 19007KT 7SM OVC005 00/00 A3002 RMK AO2  T00000000,,,500.0,,,32.0,27.08,S,29.37,29.61,,Overcast
KIGQ,12/05/2016 19:35 UTC,30.02,32.0,32.0,100.0,10.36,230.0,,,,,,54.0,,,,7.0,,KIGQ 051935Z AUTO 23009KT 190V330 7SM OVC005 00/00 A3002 RMK AO2  T00000000,,,500.0,,,32.0,25.9,SW,29.37,29.61,,Overcast
KIGQ,12/05/2016 19:55 UTC,30.03,32.0,32.0,100.0,10.36,190.0,,,,,,54.0,,,,10.0,,KIGQ 051955Z AUTO 19009KT 10SM OVC005 00/00 A3003 RMK AO2  T00000000,,,500.0,,,32.0,25.9,S,29.38,29.62,,Overcast
KIGQ,12/05/2016 20:15 UTC,30.03,32.0,32.0,100.0,12.66,190.0,,,,,,54.0,,,,10.0,,KIGQ 052015Z AUTO 19011KT 10SM OVC005 00/00 A3003 RMK AO2  T00000000,,,500.0,,,32.0,24.93,S,29.38,29.62,,Overcast
KIGQ,12/05/2016 20:35 UTC,30.02,32.18,32.0,100.0,10.36,170.0,,,,,,54.0,,,,7.0,,KIGQ 052035Z AUTO 17009KT 7SM OVC005 00/00 A3002 RMK AO2  T00010000,,,500.0,,,32.18,26.12,S,29.37,29.6,,Overcast
KIGQ,12/05/2016 20:55 UTC,30.02,32.0,32.0,100.0,9.22,190.0,,,,,,54.0,,,,10.0,,KIGQ 052055Z AUTO 19008KT 10SM OVC005 00/00 A3002 RMK AO2  T00000000,,,500.0,,,32.0,26.45,S,29.37,29.61,,Overcast
KIGQ,12/05/2016 21:15 UTC,30.02,32.0,32.0,100.0,9.22,180.0,,,,,,54.0,,,,10.0,,KIGQ 052115Z AUTO 18008KT 10SM OVC005 00/00 A3002 RMK AO2  T00000000,,,500.0,,,32.0,26.45,S,29.37,29.61,,Overcast
KIGQ,12/05/2016 21:35 UTC,30.02,32.0,32.0,100.0,6.91,190.0,,,,,,54.0,,,,10.0,,KIGQ 052135Z AUTO 19006KT 10SM OVC005 00/00 A3002 RMK AO2  T00000000,,,500.0,,,32.0,,S,29.37,29.61,,Overcast
KIGQ,12/05/2016 21:55 UTC,30.01,32.0,32.0,100.0,10.36,180.0,,,,,,54.0,,,,7.0,,KIGQ 052155Z AUTO 18009KT 7SM OVC005 00/00 A3001 RMK AO2  T00000000,,,500.0,,,32.0,25.9,S,29.36,29.6,,Overcast
KIGQ,12/05/2016 22:15 UTC,30.01,32.0,32.0,100.0,9.22,170.0,,31.0,,,,54.0,,,,5.0,,KIGQ 052215Z AUTO 17008KT 5SM BR OVC005 00/00 A3001 RMK AO2  T00000000,,,500.0,,,32.0,26.45,S,29.36,29.6,,Mist
KIGQ,12/05/2016 22:35 UTC,30.0,32.0,32.0,100.0,3.44,140.0,,,,,,54.0,,,,7.0,,KIGQ 052235Z AUTO 14003KT 7SM OVC005 00/00 A3000 RMK AO2  T00000000,,,500.0,,,32.0,,SE,29.35,29.59,,Overcast
KIGQ,12/05/2016 22:55 UTC,30.0,31.82,31.82,100.0,8.05,160.0,,,,,,54.0,,,,7.0,,KIGQ 052255Z AUTO 16007KT 7SM OVC005 00/00 A3000 RMK AO2  T10011001,,,500.0,,,31.82,26.86,SSE,29.35,29.59,,Overcast
KIGQ,12/05/2016 23:15 UTC,30.0,32.0,32.0,100.0,5.75,120.0,,,,,,54.0,,,,7.0,,KIGQ 052315Z AUTO 12005KT 7SM OVC005 00/00 A3000 RMK AO2  T00000000,,,500.0,,,32.0,,ESE,29.35,29.59,,Overcast
KIGQ,12/05/2016 23:35 UTC,30.01,32.0,32.0,100.0,6.91,130.0,,,,,,54.0,,,,7.0,,KIGQ 052335Z AUTO 13006KT 7SM OVC005 00/00 A3001 RMK AO2  T00000000,,,500.0,,,32.0,,SE,29.36,29.6,,Overcast
KIGQ,12/05/2016 23:55 UTC,30.0,32.0,31.82,100.0,5.75,130.0,,,,,,54.0,,,,10.0,,KIGQ 052355Z AUTO 13005KT 10SM OVC005 00/00 A3000 RMK AO2  T00001001 10001 21002,32.18,31.64,500.0,,,32.0,,SE,29.35,29.59,,Overcast
KIGQ,12/06/2016 00:15 UTC,30.0,32.0,31.82,100.0,4.61,120.0,,,,,,54.0,,,,10.0,,KIGQ 060015Z AUTO 12004KT 10SM OVC005 00/00 A3000 RMK AO2  T00001001,,,500.0,,,32.0,,ESE,29.35,29.59,,Overcast
KIGQ,12/06/2016 00:35 UTC,30.0,32.0,32.0,100.0,6.91,140.0,,,,,,54.0,,,,10.0,,KIGQ 060035Z AUTO 14006KT 10SM OVC005 00/00 A3000 RMK AO2  T00000000,,,500.0,,,32.0,,SE,29.35,29.59,,Overcast
KIGQ,12/06/2016 00:55 UTC,30.0,32.0,32.0,100.0,6.91,130.0,,,,,,54.0,,,,10.0,,KIGQ 060055Z AUTO 13006KT 10SM OVC005 00/00 A3000 RMK AO2  T00000000,,,500.0,,,32.0,,SE,29.35,29.59,,Overcast
KIGQ,12/06/2016 01:15 UTC,29.99,32.0,32.0,100.0,6.91,120.0,,,,,,54.0,,,,7.0,,KIGQ 060115Z AUTO 12006KT 7SM OVC005 00/00 A2999 RMK AO2  T00000000,,,500.0,,,32.0,,ESE,29.34,29.58,,Overcast
KIGQ,12/06/2016 01:35 UTC,29.98,32.0,32.0,100.0,5.75,110.0,,,,,,54.0,,,,7.0,,KIGQ 060135Z AUTO 11005KT 7SM OVC005 00/00 A2998 RMK AO2  T00000000,,,500.0,,,32.0,,ESE,29.33,29.57,,Overcast
KIGQ,12/06/2016 01:55 UTC,29.99,32.0,32.0,100.0,5.75,130.0,,,,,,54.0,,,,7.0,,KIGQ 060155Z AUTO 13005KT 7SM OVC005 00/00 A2999 RMK AO2  T00000000,,,500.0,,,32.0,,SE,29.34,29.58,,Overcast
KIGQ,12/06/2016 02:15 UTC,29.99,32.18,32.18,100.0,4.61,140.0,,31.0,,,,54.0,,,,5.0,,KIGQ 060215Z AUTO 14004KT 5SM BR OVC005 00/00 A2999 RMK AO2  T00010001,,,500.0,,,32.18,,SE,29.34,29.57,,Mist
KIGQ,12/06/2016 02:35 UTC,29.99,32.36,32.36,100.0,4.61,120.0,,31.0,,,,54.0,,,,5.0,,KIGQ 060235Z AUTO 12004KT 5SM BR OVC005 00/00 A2999 RMK AO2  T00020002,,,500.0,,,32.36,,ESE,29.34,29.57,,Mist
KIGQ,12/06/2016 02:55 UTC,29.97,32.54,32.54,100.0,6.91,110.0,,31.0,,,,54.0,,,,5.0,,KIGQ 060255Z AUTO 11006KT 5SM BR OVC005 00/00 A2997 RMK AO2  T00030003,,,500.0,,,32.54,,ESE,29.32,29.54,,Mist
KIGQ,12/06/2016 03:15 UTC,29.97,32.54,32.54,100.0,8.05,110.0,,31.0,,,,54.0,,,,5.0,,KIGQ 060315Z AUTO 11007KT 5SM BR OVC005 00/00 A2997 RMK AO2  T00030003,,,500.0,,,32.54,27.71,ESE,29.32,29.54,,Mist
KIGQ,12/06/2016 03:35 UTC,29.97,32.54,32.54,100.0,5.75,90.0,,31.0,,,,54.0,,,,5.0,,KIGQ 060335Z AUTO 09005KT 5SM BR OVC005 00/00 A2997 RMK AO2  T00030003,,,500.0,,,32.54,,E,29.32,29.54,,Mist
KIGQ,12/06/2016 03:55 UTC,29.96,32.36,32.18,100.0,5.75,90.0,,31.0,,,,54.0,,,,5.0,,KIGQ 060355Z AUTO 09005KT 5SM BR OVC005 00/00 A2996 RMK AO2  T00020001,,,500.0,,,32.36,,E,29.31,29.54,,Mist
KIGQ,12/06/2016 04:15 UTC,29.95,32.0,32.0,100.0,5.75,90.0,,31.0,,,,54.0,,,,5.0,,KIGQ 060415Z AUTO 09005KT 5SM BR OVC005 00/00 A2995 RMK AO2  T00000000,,,500.0,,,32.0,,E,29.3,29.53,,Mist
KIGQ,12/06/2016 04:35 UTC,29.94,32.0,32.0,100.0,5.75,90.0,,31.0,,,,53.0,,,,5.0,,KIGQ 060435Z AUTO 09005KT 5SM BR BKN005 00/00 A2994 RMK AO2  T00000000,,,500.0,,,32.0,,E,29.29,29.52,,Mist
KIGQ,12/06/2016 04:55 UTC,29.94,31.46,31.46,100.0,5.75,80.0,,31.0,,,,52.0,,,,5.0,,KIGQ 060455Z AUTO 08005KT 5SM BR SCT005 00/00 A2994 RMK AO2  T10031003,,,,,,31.46,,E,29.29,29.54,,Mist
KIGQ,12/06/2016 05:15 UTC,29.94,30.92,30.92,100.0,4.61,130.0,,31.0,,,,1.0,,,,5.0,,KIGQ 060515Z AUTO 13004KT 5SM BR CLR M01/M01 A2994 RMK AO2  T10061006,,,,,,30.92,,SE,29.29,29.55,,Mist
KIGQ,12/06/2016 05:35 UTC,29.93,29.84,29.84,100.0,4.61,90.0,,31.0,,,,1.0,,,,5.0,,KIGQ 060535Z AUTO 09004KT 5SM BR CLR M01/M01 A2993 RMK AO2  T10121012,,,,,,29.84,,E,29.28,29.56,,Mist
KIGQ,12/06/2016 05:55 UTC,29.92,30.02,30.02,100.0,4.61,90.0,,31.0,,,,1.0,,,,5.0,,KIGQ 060555Z AUTO 09004KT 5SM BR CLR M01/M01 A2992 RMK AO2  T10111011 10005 21012 400051012,32.9,29.84,,32.9,29.84,30.02,,E,29.27,29.55,,Mist
KIGQ,12/06/2016 06:15 UTC,29.91,29.12,29.12,100.0,4.61,100.0,,31.0,,,,1.0,,,,4.0,,KIGQ 060615Z AUTO 10004KT 4SM BR CLR M02/M02 A2991 RMK AO2  T10161016,,,,,,29.12,,E,29.26,29.55,,Mist
KIGQ,12/06/2016 06:35 UTC,29.9,29.3,29.3,100.0,3.44,110.0,,31.0,,,,1.0,,,,4.0,,KIGQ 060635Z AUTO 11003KT 4SM BR CLR M01/M01 A2990 RMK AO2  T10151015,,,,,,29.3,,ESE,29.25,29.54,,Mist
KIGQ,12/06/2016 06:55 UTC,29.88,29.12,29.12,100.0,4.61,100.0,,31.0,,,,1.0,,,,4.0,,KIGQ 060655Z AUTO 10004KT 4SM BR CLR M02/M02 A2988 RMK AO2  T10161016,,,,,,29.12,,E,29.23,29.52,,Mist
KIGQ,12/06/2016 07:15 UTC,29.88,29.3,29.3,100.0,3.44,100.0,,31.0,,,,1.0,,,,5.0,,KIGQ 060715Z AUTO 10003KT 5SM BR CLR M01/M01 A2988 RMK AO2  T10151015,,,,,,29.3,,E,29.23,29.52,,Mist
KIGQ,12/06/2016 07:35 UTC,29.88,30.56,30.56,100.0,3.44,90.0,,31.0,,,,1.0,,,,5.0,,KIGQ 060735Z AUTO 09003KT 5SM BR CLR M01/M01 A2988 RMK AO2  T10081008,,,,,,30.56,,E,29.23,29.49,,Mist
KIGQ,12/06/2016 07:55 UTC,29.88,30.74,30.74,100.0,3.44,80.0,,31.0,,,,1.0,,,,5.0,,KIGQ 060755Z AUTO 08003KT 5SM BR CLR M01/M01 A2988 RMK AO2  T10071007,,,,,,30.74,,E,29.23,29.49,,Mist
KIGQ,12/06/2016 08:15 UTC,29.87,30.74,30.56,100.0,3.44,80.0,,31.0,,,,1.0,,,,5.0,,KIGQ 060815Z AUTO 08003KT 5SM BR CLR M01/M01 A2987 RMK AO2  T10071008,,,,,,30.74,,E,29.22,29.48,,Mist
KIGQ,12/06/2016 08:35 UTC,29.87,30.38,30.38,100.0,0.0,0.0,,31.0,,,,1.0,,,,5.0,,KIGQ 060835Z AUTO 00000KT 5SM BR CLR M01/M01 A2987 RMK AO2  T10091009,,,,,,30.38,,N,29.22,29.49,,Mist
KIGQ,12/06/2016 08:55 UTC,29.86,30.56,30.56,100.0,3.44,60.0,,31.0,,,,1.0,,,,5.0,,KIGQ 060855Z AUTO 06003KT 5SM BR CLR M01/M01 A2986 RMK AO2  T10081008,,,,,,30.56,,ENE,29.21,29.47,,Mist
KIGQ,12/06/2016 09:15 UTC,29.85,30.2,30.2,100.0,4.61,30.0,,31.0,,,,1.0,,,,4.0,,KIGQ 060915Z AUTO 03004KT 4SM BR CLR M01/M01 A2985 RMK AO2  T10101010,,,,,,30.2,,NNE,29.2,29.47,,Mist
KIGQ,12/06/2016 09:35 UTC,29.84,30.02,30.02,100.0,3.44,30.0,,31.0,,,,1.0,,,,4.0,,KIGQ 060935Z AUTO 03003KT 4SM BR CLR M01/M01 A2984 RMK AO2  T10111011,,,,,,30.02,,NNE,29.19,29.46,,Mist
KIGQ,12/06/2016 09:55 UTC,29.83,30.2,30.2,100.0,5.75,80.0,,31.0,,,,1.0,,,,4.0,,KIGQ 060955Z AUTO 08005KT 4SM BR CLR M01/M01 A2983 RMK AO2  T10101010,,,,,,30.2,,E,29.18,29.45,,Mist
KIGQ,12/06/2016 10:15 UTC,29.82,30.2,30.2,100.0,3.44,80.0,,31.0,,,,1.0,,,,5.0,,KIGQ 061015Z AUTO 08003KT 5SM BR CLR M01/M01 A2982 RMK AO2  T10101010,,,,,,30.2,,E,29.17,29.44,,Mist
KIGQ,12/06/2016 10:35 UTC,29.81,30.74,30.74,100.0,0.0,0.0,,31.0,,,,1.0,,,,5.0,,KIGQ 061035Z AUTO 00000KT 5SM BR CLR M01/M01 A2981 RMK AO2  T10071007,,,,,,30.74,,N,29.16,29.42,,Mist
KIGQ,12/06/2016 10:55 UTC,29.8,30.56,30.56,100.0,4.61,60.0,,31.0,,,,1.0,,,,5.0,,KIGQ 061055Z AUTO 06004KT 5SM BR CLR M01/M01 A2980 RMK AO2  T10081008,,,,,,30.56,,ENE,29.15,29.41,,Mist
KIGQ,12/06/2016 11:15 UTC,29.8,30.74,30.56,100.0,3.44,80.0,,31.0,,,,1.0,,,,5.0,,KIGQ 061115Z AUTO 08003KT 5SM BR CLR M01/M01 A2980 RMK AO2  T10071008,,,,,,30.74,,E,29.15,29.41,,Mist
KIGQ,12/06/2016 11:35 UTC,29.8,29.66,29.66,100.0,0.0,0.0,,31.0,,,,1.0,,,,4.0,,KIGQ 061135Z AUTO 00000KT 4SM BR CLR M01/M01 A2980 RMK AO2  T10131013,,,,,,29.66,,N,29.15,29.43,,Mist
KIGQ,12/06/2016 11:55 UTC,29.8,28.58,28.58,100.0,0.0,0.0,,31.0,,,,1.0,,,,2.0,,KIGQ 061155Z AUTO 00000KT 2SM BR CLR M02/M02 A2980 RMK AO2  T10191019 11005 21019,31.1,28.58,,,,28.58,,N,29.15,29.45,,Mist
KIGQ,12/06/2016 12:15 UTC,29.79,28.04,28.04,100.0,3.44,20.0,,31.0,,,,1.0,,,,2.5,,KIGQ 061215Z AUTO 02003KT 2 1/2SM BR CLR M02/M02 A2979 RMK AO2  T10221022,,,,,,28.04,,NNE,29.14,29.45,,Mist
KIGQ,12/06/2016 12:35 UTC,29.78,28.4,28.4,100.0,0.0,0.0,,31.0,,,,1.0,,,,2.5,,KIGQ 061235Z AUTO 00000KT 2 1/2SM BR CLR M02/M02 A2978 RMK AO2  T10201020,,,,,,28.4,,N,29.13,29.43,,Mist
KIGQ,12/06/2016 12:55 UTC,29.77,29.12,29.12,100.0,0.0,0.0,,31.0,,,,1.0,,,,3.0,,KIGQ 061255Z AUTO 00000KT 3SM BR CLR M02/M02 A2977 RMK AO2  T10161016,,,,,,29.12,,N,29.12,29.41,,Mist
KIGQ,12/06/2016 13:15 UTC,29.77,30.02,30.02,100.0,0.0,0.0,,31.0,,,,1.0,,,,2.5,,KIGQ 061315Z AUTO 00000KT 2 1/2SM BR CLR M01/M01 A2977 RMK AO2  T10111011,,,,,,30.02,,N,29.12,29.39,,Mist
KIGQ,12/06/2016 13:35 UTC,29.77,30.2,30.2,100.0,4.61,350.0,,31.0,,,,1.0,,,,3.0,,KIGQ 061335Z AUTO 35004KT 3SM BR CLR M01/M01 A2977 RMK AO2  T10101010,,,,,,30.2,,N,29.12,29.39,,Mist
KIGQ,12/06/2016 13:55 UTC,29.78,30.92,30.92,100.0,0.0,0.0,,31.0,,,,1.0,,,,3.0,,KIGQ 061355Z AUTO 00000KT 3SM BR CLR M01/M01 A2978 RMK AO2  T10061006,,,,,,30.92,,N,29.13,29.38,,Mist
KIGQ,12/06/2016 14:15 UTC,29.77,31.46,31.28,100.0,0.0,0.0,,31.0,,,,1.0,,,,4.0,,KIGQ 061415Z AUTO 00000KT 4SM BR CLR 00/00 A2977 RMK AO2  T10031004,,,,,,31.46,,N,29.12,29.36,,Mist
KIGQ,12/06/2016 14:35 UTC,29.77,32.0,31.46,100.0,3.44,360.0,,31.0,,,,1.0,,,,4.0,,KIGQ 061435Z AUTO 36003KT 4SM BR CLR 00/00 A2977 RMK AO2  T00001003,,,,,,32.0,,N,29.12,29.35,,Mist
KIGQ,12/06/2016 14:55 UTC,29.76,32.18,31.64,100.0,0.0,0.0,,31.0,,,,353.0,,,,4.0,,KIGQ 061455Z AUTO 00000KT 4SM BR BKN035 00/00 A2976 RMK AO2  T00011002,,,3500.0,,,32.18,,N,29.11,29.34,,Mist
KIGQ,12/06/2016 15:15 UTC,29.76,32.9,32.0,93.02,0.0,0.0,,31.0,,,,354.0,,,,4.0,,KIGQ 061515Z AUTO 00000KT 4SM BR OVC035 01/00 A2976 RMK AO2  T00050000,,,3500.0,,,31.08,,N,29.11,29.35,,Mist
KIGQ,12/06/2016 15:35 UTC,29.78,33.8,32.18,93.02,0.0,0.0,,31.0,,,,354.0,,,,4.0,,KIGQ 061535Z AUTO 00000KT 4SM BR OVC035 01/00 A2978 RMK AO2  T00100001,,,3500.0,,,31.97,,N,29.13,29.35,,Mist
KIGQ,12/06/2016 15:55 UTC,29.78,34.16,32.36,93.02,0.0,0.0,,31.0,,,,354.0,,,,4.0,,KIGQ 061555Z AUTO 00000KT 4SM BR OVC035 01/00 A2978 RMK AO2  T00120002,,,3500.0,,,32.33,,N,29.13,29.34,,Mist
KIGQ,12/06/2016 16:15 UTC,29.78,34.52,32.9,100.0,0.0,0.0,,31.0,,,,354.0,,,,4.0,,KIGQ 061615Z AUTO 00000KT 4SM BR OVC035 01/01 A2978 RMK AO2  T00140005,,,3500.0,,,34.52,,N,29.13,29.3,,Mist
KIGQ,12/06/2016 16:35 UTC,29.77,35.42,32.9,93.08,0.0,0.0,,31.0,,,,353.0,,,,5.0,,KIGQ 061635Z AUTO 00000KT 5SM BR BKN035 02/01 A2977 RMK AO2  T00190005,,,3500.0,,,33.59,,N,29.12,29.3,,Mist
KIGQ,12/06/2016 16:55 UTC,29.76,35.96,33.08,93.08,0.0,0.0,,31.0,,,,332.0,,,,4.0,,KIGQ 061655Z AUTO 00000KT 4SM BR SCT033 02/01 A2976 RMK AO2  T00220006,,,,,,34.13,,N,29.11,29.28,,Mist
KIGQ,12/06/2016 17:15 UTC,29.75,35.96,32.36,86.58,0.0,0.0,,31.0,,,,1.0,,,,5.0,,KIGQ 061715Z AUTO 00000KT 5SM BR CLR 02/00 A2975 RMK AO2  T00220002,,,,,,32.3,,N,29.1,29.3,,Mist
KIGQ,12/06/2016 17:35 UTC,29.74,35.78,32.36,86.58,0.0,0.0,,31.0,,,,1.0,,,,5.0,,KIGQ 061735Z AUTO 00000KT 5SM BR CLR 02/00 A2974 RMK AO2  T00210002,,,,,,32.12,,N,29.09,29.29,,Mist
KIGQ,12/06/2016 17:55 UTC,29.74,36.5,32.0,80.63,0.0,0.0,,,,,,1.0,,,,7.0,,KIGQ 061755Z AUTO 00000KT 7SM CLR 03/00 A2974 RMK AO2 T00250000  10025 21031,36.5,26.42,,,,31.04,,N,29.09,29.3,,Clear
KIGQ,12/06/2016 18:15 UTC,29.74,36.86,33.08,86.03,4.61,240.0,,,,,,1.0,,,,7.0,,KIGQ 061815Z AUTO 24004KT 7SM CLR 03/01 A2974 RMK AO2  T00270006,,,,,,33.02,,WSW,29.09,29.27,,Clear
KIGQ,12/06/2016 18:35 UTC,29.74,38.3,33.62,83.07,5.75,250.0,,,,,,172.0,,,,7.0,,KIGQ 061835Z AUTO 25005KT 7SM SCT017 04/01 A2974 RMK AO2  T00350009,,,,,,33.55,,WSW,29.09,29.25,,Partly Cloudy
KIGQ,12/06/2016 18:55 UTC,29.74,37.94,33.98,86.68,10.36,250.0,,,,,,173.0,,,,7.0,,KIGQ 061855Z AUTO 25009KT 7SM BKN017 03/01 A2974 RMK AO2  T00330011,,,1700.0,,,34.28,33.01,WSW,29.09,29.24,,Mostly Cloudy
KIGQ,12/06/2016 19:15 UTC,29.76,37.04,33.62,86.68,23.02,270.0,26.46,,,,,174.0,,,,7.0,,KIGQ 061915Z AUTO 27020G23KT 7SM OVC017 03/01 A2976 RMK AO2  T00280009,,,1700.0,,,33.39,28.28,W,29.11,29.28,,Overcast
KIGQ,12/06/2016 19:35 UTC,29.77,34.7,32.9,93.08,11.5,290.0,,31.0,,,,83.0,174.0,,,5.0,,KIGQ 061935Z AUTO 29010KT 5SM BR BKN008 OVC017 02/01 A2977 RMK AO2  T00150005,,,800.0,,,32.88,28.66,WNW,29.12,29.32,,Mist
KIGQ,12/06/2016 19:55 UTC,29.77,34.34,32.9,100.0,8.05,290.0,,31.0,,,,84.0,,,,5.0,,KIGQ 061955Z AUTO 29007KT 5SM BR OVC008 01/01 A2977 RMK AO2  T00130005,,,800.0,,,34.34,29.82,WNW,29.12,29.3,,Mist
KIGQ,12/06/2016 20:15 UTC,29.8,34.52,32.9,93.72,12.66,280.0,,31.0,,,,83.0,134.0,,,5.0,,KIGQ 062015Z AUTO 28011KT 5SM BR BKN008 OVC013 01/01 A2980 RMK AO2  T00140005,,,800.0,,,32.87,28.0,W,29.15,29.35,,Mist
KIGQ,12/06/2016 20:35 UTC,29.81,34.7,32.9,93.08,11.5,280.0,17.27,31.0,,,,104.0,,,,5.0,,KIGQ 062035Z AUTO 28010G15KT 5SM BR OVC010 02/01 A2981 RMK AO2  T00150005,,,1000.0,,,32.88,28.66,W,29.16,29.36,,Mist
KIGQ,12/06/2016 20:55 UTC,29.82,34.7,33.08,93.08,11.5,290.0,,31.0,,,,104.0,,,,4.0,,KIGQ 062055Z AUTO 29010KT 4SM BR OVC010 02/01 A2982 RMK AO2  T00150006,,,1000.0,,,32.88,28.66,WNW,29.17,29.37,,Mist
KIGQ,12/06/2016 21:15 UTC,29.82,34.7,33.08,93.08,10.36,270.0,,31.0,,,,104.0,,,,5.0,,KIGQ 062115Z AUTO 27009KT 5SM BR OVC010 02/01 A2982 RMK AO2  T00150006,,,1000.0,,,32.88,29.13,W,29.17,29.37,,Mist
KIGQ,12/06/2016 21:35 UTC,29.83,34.7,33.08,93.08,9.22,270.0,,,,,,104.0,,,,7.0,,KIGQ 062135Z AUTO 27008KT 7SM OVC010 02/01 A2983 RMK AO2  T00150006,,,1000.0,,,32.88,29.65,W,29.18,29.38,,Overcast
KIGQ,12/06/2016 21:55 UTC,29.83,34.7,33.08,93.08,12.66,280.0,,,,,,104.0,,,,7.0,,KIGQ 062155Z AUTO 28011KT 7SM OVC010 02/01 A2983 RMK AO2  T00150006,,,1000.0,,,32.88,28.21,W,29.18,29.38,,Overcast
KIGQ,12/06/2016 22:15 UTC,29.84,34.7,32.9,93.08,10.36,270.0,,,,,,124.0,,,,10.0,,KIGQ 062215Z AUTO 27009KT 10SM OVC012 02/01 A2984 RMK AO2  T00150005,,,1200.0,,,32.88,29.13,W,29.19,29.39,,Overcast
KIGQ,12/06/2016 22:35 UTC,29.85,34.34,32.0,93.02,11.5,280.0,19.57,,,,,143.0,,,,10.0,,KIGQ 062235Z AUTO 28010G17KT 10SM BKN014 01/00 A2985 RMK AO2  T00130000,,,1400.0,,,32.51,28.22,W,29.2,29.41,,Mostly Cloudy
KIGQ,12/06/2016 22:55 UTC,29.86,33.8,31.82,93.02,12.66,270.0,,,,,,142.0,,,,10.0,,KIGQ 062255Z AUTO 27011KT 10SM SCT014 01/00 A2986 RMK AO2  T00101001,,,,,,31.97,27.12,W,29.21,29.43,,Partly Cloudy
KIGQ,12/06/2016 23:15 UTC,29.88,33.26,31.1,93.02,11.5,260.0,,,,,,162.0,,,,10.0,,KIGQ 062315Z AUTO 26010KT 10SM SCT016 01/00 A2988 RMK AO2  T00071005,,,,,,31.43,26.92,W,29.23,29.46,,Partly Cloudy
KIGQ,12/06/2016 23:35 UTC,29.88,32.9,30.56,86.48,11.5,270.0,18.41,,,,,162.0,,,,10.0,,KIGQ 062335Z AUTO 27010G16KT 10SM SCT016 01/M01 A2988 RMK AO2  T00051008,,,,,,29.26,26.49,W,29.23,29.5,,Partly Cloudy
KIGQ,12/06/2016 23:55 UTC,29.89,32.54,29.48,92.96,18.41,270.0,24.16,,,,,172.0,222.0,,,10.0,,KIGQ 062355Z AUTO 27016G21KT 10SM SCT017 SCT022 00/M01 A2989 RMK AO2 T00031014 10037 20003,38.66,32.54,,,,30.7,23.71,W,29.24,29.49,,Partly Cloudy
KIGQ,12/07/2016 00:15 UTC,29.9,32.0,26.96,80.19,17.27,270.0,23.02,,,,,172.0,222.0,,,10.0,,KIGQ 070015Z AUTO 27015G20KT 10SM SCT017 SCT022 00/M03 A2990 RMK AO2 T00001028,,,,,,26.51,23.37,W,29.25,29.56,,Partly Cloudy
KIGQ,12/07/2016 00:35 UTC,29.91,31.64,26.06,80.19,20.71,270.0,28.77,,,,,1.0,,,,10.0,,KIGQ 070035Z AUTO 27018G25KT 10SM CLR 00/M03 A2991 RMK AO2  T10021033,,,,,,26.16,21.96,W,29.26,29.58,,Clear
KIGQ,12/07/2016 00:55 UTC,29.92,31.28,25.88,80.19,13.8,270.0,25.32,,,,,1.0,,,,10.0,,KIGQ 070055Z AUTO 27012G22KT 10SM CLR 00/M03 A2992 RMK AO2  T10041034,,,,,,25.81,23.62,W,29.27,29.59,,Clear
KIGQ,12/07/2016 01:15 UTC,29.93,30.74,26.06,86.26,12.66,260.0,21.85,,,,,1.0,,,,10.0,,KIGQ 070115Z AUTO 26011G19KT 10SM CLR M01/M03 A2993 RMK AO2  T10071033,,,,,,27.07,23.4,W,29.28,29.59,,Clear
KIGQ,12/07/2016 01:35 UTC,29.93,30.92,25.52,80.04,13.8,270.0,25.32,,,,,1.0,,,,10.0,,KIGQ 070135Z AUTO 27012G22KT 10SM CLR M01/M04 A2993 RMK AO2  T10061036,,,,,,25.41,23.18,W,29.28,29.61,,Clear
KIGQ,12/07/2016 01:55 UTC,29.94,30.56,25.16,80.04,16.11,270.0,,,,,,1.0,,,,10.0,,KIGQ 070155Z AUTO 27014KT 10SM CLR M01/M04 A2994 RMK AO2  T10081038,,,,,,25.06,21.94,W,29.29,29.63,,Clear
KIGQ,12/07/2016 02:15 UTC,29.95,30.2,24.98,80.65,18.41,270.0,25.32,,,,,1.0,,,,10.0,,KIGQ 070215Z AUTO 27016G22KT 10SM CLR M01/M04 A2995 RMK AO2  T10101039,,,,,,24.9,20.78,W,29.3,29.64,,Clear
KIGQ,12/07/2016 02:35 UTC,29.96,30.2,24.8,80.04,14.97,270.0,,,,,,1.0,,,,10.0,,KIGQ 070235Z AUTO 27013KT 10SM CLR M01/M04 A2996 RMK AO2  T10101040,,,,,,24.71,21.88,W,29.31,29.65,,Clear
KIGQ,12/07/2016 02:55 UTC,29.97,29.66,24.8,80.04,16.11,270.0,27.63,,,,,1.0,,,,10.0,,KIGQ 070255Z AUTO 27014G24KT 10SM CLR M01/M04 A2997 RMK AO2  T10131040,,,,,,24.18,20.82,W,29.32,29.67,,Clear
KIGQ,12/07/2016 03:15 UTC,29.98,29.12,24.8,86.15,12.66,270.0,19.57,,,,,1.0,,,,10.0,,KIGQ 070315Z AUTO 27011G17KT 10SM CLR M02/M04 A2998 RMK AO2  T10161040,,,,,,25.45,21.43,W,29.33,29.67,,Clear
KIGQ,12/07/2016 03:35 UTC,29.98,28.94,24.62,86.15,13.8,260.0,20.71,,,,,1.0,,,,10.0,,KIGQ 070335Z AUTO 26012G18KT 10SM CLR M02/M04 A2998 RMK AO2  T10171041,,,,,,25.27,20.76,W,29.33,29.67,,Clear
KIGQ,12/07/2016 03:55 UTC,29.98,28.58,23.9,86.15,10.36,280.0,18.41,,,,,1.0,,,,10.0,,KIGQ 070355Z AUTO 28009G16KT 10SM CLR M02/M04 A2998 RMK AO2  T10191045,,,,,,24.91,21.8,W,29.33,29.68,,Clear
KIGQ,12/07/2016 04:15 UTC,29.98,28.4,23.36,79.89,11.5,270.0,18.41,,,,,1.0,,,,10.0,,KIGQ 070415Z AUTO 27010G16KT 10SM CLR M02/M05 A2998 RMK AO2  T10201048,,,,,,22.91,21.05,W,29.33,29.7,,Clear
KIGQ,12/07/2016 04:35 UTC,29.99,28.4,23.0,79.89,13.8,270.0,19.57,,,,,1.0,,,,10.0,,KIGQ 070435Z AUTO 27012G17KT 10SM CLR M02/M05 A2999 RMK AO2  T10201050,,,,,,22.91,20.1,W,29.34,29.71,,Clear
KIGQ,12/07/2016 04:55 UTC,29.99,28.04,23.0,79.89,14.97,260.0,19.57,,,,,1.0,,,,10.0,,KIGQ 070455Z AUTO 26013G17KT 10SM CLR M02/M05 A2999 RMK AO2  T10221050,,,,,,22.56,19.22,W,29.34,29.72,,Clear
KIGQ,12/07/2016 05:15 UTC,29.99,27.68,22.82,79.89,10.36,250.0,,,,,,1.0,,,,10.0,,KIGQ 070515Z AUTO 25009KT 10SM CLR M02/M05 A2999 RMK AO2  T10241051,,,,,,22.21,20.73,WSW,29.34,29.72,,Clear
KIGQ,12/07/2016 05:35 UTC,30.0,27.5,23.0,79.89,10.36,250.0,,,,,,1.0,,,,10.0,,KIGQ 070535Z AUTO 25009KT 10SM CLR M02/M05 A3000 RMK AO2  T10251050,,,,,,22.03,20.51,WSW,29.35,29.74,,Clear
KIGQ,12/07/2016 05:55 UTC,30.0,27.32,23.0,86.04,10.36,250.0,,,,,,1.0,,,,10.0,,KIGQ 070555Z AUTO 25009KT 10SM CLR M03/M05 A3000 RMK AO2 T10261050  10002 21026 400371031,32.36,27.32,,38.66,26.42,23.64,20.3,WSW,29.35,29.72,,Clear
KIGQ,12/07/2016 06:15 UTC,30.01,27.5,23.0,79.89,12.66,250.0,,,,,,1.0,,,,10.0,,KIGQ 070615Z AUTO 25011KT 10SM CLR M02/M05 A3001 RMK AO2  T10251050,,,,,,22.03,19.46,WSW,29.36,29.75,,Clear
KIGQ,12/07/2016 06:35 UTC,30.02,27.5,22.28,79.89,14.97,260.0,19.57,,,,,1.0,,,,10.0,,KIGQ 070635Z AUTO 26013G17KT 10SM CLR M02/M05 A3002 RMK AO2  T10251054,,,,,,22.03,18.55,W,29.37,29.76,,Clear
KIGQ,12/07/2016 06:55 UTC,30.02,28.04,21.92,74.03,17.27,260.0,,,,,,1.0,,,,10.0,,KIGQ 070655Z AUTO 26015KT 10SM CLR M02/M06 A3002 RMK AO2  T10221056,,,,,,20.73,18.43,W,29.37,29.77,,Clear
KIGQ,12/07/2016 07:15 UTC,30.02,27.5,21.92,74.03,11.5,260.0,,,,,,1.0,,,,10.0,,KIGQ 070715Z AUTO 26010KT 10SM CLR M02/M06 A3002 RMK AO2  T10251056,,,,,,20.21,19.97,W,29.37,29.77,,Clear
KIGQ,12/07/2016 07:35 UTC,30.02,27.68,21.56,74.03,14.97,260.0,21.85,,,,,1.0,,,,10.0,,KIGQ 070735Z AUTO 26013G19KT 10SM CLR M02/M06 A3002 RMK AO2  T10241058,,,,,,20.39,18.77,W,29.37,29.77,,Clear
KIGQ,12/07/2016 07:55 UTC,30.03,28.04,21.2,74.03,14.97,270.0,,,,,,1.0,,,,10.0,,KIGQ 070755Z AUTO 27013KT 10SM CLR M02/M06 A3003 RMK AO2  T10221060,,,,,,20.73,19.22,W,29.38,29.78,,Clear
KIGQ,12/07/2016 08:15 UTC,30.04,28.22,21.02,74.03,14.97,260.0,24.16,,,,,1.0,,,,10.0,,KIGQ 070815Z AUTO 26013G21KT 10SM CLR M02/M06 A3004 RMK AO2  T10211061,,,,,,20.91,19.44,W,29.39,29.78,,Clear
KIGQ,12/07/2016 08:35 UTC,30.04,28.04,20.66,74.03,14.97,260.0,23.02,,,,,1.0,,,,10.0,,KIGQ 070835Z AUTO 26013G20KT 10SM CLR M02/M06 A3004 RMK AO2  T10221063,,,,,,20.73,19.22,W,29.39,29.79,,Clear
KIGQ,12/07/2016 08:55 UTC,30.04,27.5,20.3,74.03,12.66,270.0,18.41,,,,,1.0,,,,10.0,,KIGQ 070855Z AUTO 27011G16KT 10SM CLR M02/M06 A3004 RMK AO2  T10251065,,,,,,20.21,19.46,W,29.39,29.79,,Clear
KIGQ,12/07/2016 09:15 UTC,30.04,27.32,20.3,79.74,12.66,260.0,18.41,,,,,1.0,,,,10.0,,KIGQ 070915Z AUTO 26011G16KT 10SM CLR M03/M06 A3004 RMK AO2  T10261065,,,,,,21.81,19.24,W,29.39,29.78,,Clear
KIGQ,12/07/2016 09:35 UTC,30.03,27.14,20.12,73.84,12.66,270.0,21.85,,,,,1.0,,,,10.0,,KIGQ 070935Z AUTO 27011G19KT 10SM CLR M03/M07 A3003 RMK AO2  T10271066,,,,,,19.8,19.02,W,29.38,29.79,,Clear
KIGQ,12/07/2016 09:55 UTC,30.04,26.78,20.12,73.84,14.97,270.0,,,,,,1.0,,,,10.0,,KIGQ 070955Z AUTO 27013KT 10SM CLR M03/M07 A3004 RMK AO2  T10291066,,,,,,19.46,17.66,W,29.39,29.8,,Clear
KIGQ,12/07/2016 10:15 UTC,30.04,26.6,20.48,79.74,12.66,270.0,,,,,,1.0,,,,10.0,,KIGQ 071015Z AUTO 27011KT 10SM CLR M03/M06 A3004 RMK AO2  T10301064,,,,,,21.11,18.36,W,29.39,29.79,,Clear
KIGQ,12/07/2016 10:35 UTC,30.05,26.96,20.66,79.74,11.5,270.0,18.41,,,,,1.0,,,,10.0,,KIGQ 071035Z AUTO 27010G16KT 10SM CLR M03/M06 A3005 RMK AO2  T10281063,,,,,,21.46,19.32,W,29.4,29.8,,Clear
KIGQ,12/07/2016 10:55 UTC,30.06,26.6,20.84,79.74,13.8,270.0,20.71,,,,,1.0,,,,10.0,,KIGQ 071055Z AUTO 27012G18KT 10SM CLR M03/M06 A3006 RMK AO2  T10301062,,,,,,21.11,17.89,W,29.41,29.81,,Clear
KIGQ,12/07/2016 11:15 UTC,30.08,26.96,20.66,79.74,14.97,260.0,19.57,,,,,1.0,,,,10.0,,KIGQ 071115Z AUTO 26013G17KT 10SM CLR M03/M06 A3008 RMK AO2  T10281063,,,,,,21.46,17.89,W,29.43,29.83,,Clear
KIGQ,12/07/2016 11:35 UTC,30.08,26.96,20.84,79.74,12.66,270.0,17.27,,,,,1.0,,,,10.0,,KIGQ 071135Z AUTO 27011G15KT 10SM CLR M03/M06 A3008 RMK AO2  T10281062,,,,,,21.46,18.8,W,29.43,29.83,,Clear
KIGQ,12/07/2016 11:55 UTC,30.08,26.96,21.02,79.74,12.66,260.0,19.57,,,,,1.0,,,,10.0,,KIGQ 071155Z AUTO 26011G17KT 10SM CLR M03/M06 A3008 RMK AO2  T10281061 11021 21030,28.22,26.6,,,,21.46,18.8,W,29.43,29.83,,Clear
KIGQ,12/07/2016 12:15 UTC,30.08,26.78,21.02,79.74,8.05,250.0,,,,,,1202.0,,,,10.0,,KIGQ 071215Z AUTO 25007KT 10SM SCT120 M03/M06 A3008 RMK AO2  T10291061,,,,,,21.29,20.94,WSW,29.43,29.83,,Partly Cloudy
KIGQ,12/07/2016 12:35 UTC,30.08,26.96,21.38,79.74,8.05,240.0,,,,,,1103.0,,,,10.0,,KIGQ 071235Z AUTO 24007KT 10SM BKN110 M03/M06 A3008 RMK AO2  T10281059,,,11000.0,,,21.46,21.16,WSW,29.43,29.83,,Mostly Cloudy
KIGQ,12/07/2016 12:55 UTC,30.08,26.6,21.02,79.74,9.22,260.0,,,,,,1103.0,,,,10.0,,KIGQ 071255Z AUTO 26008KT 10SM BKN110 M03/M06 A3008 RMK AO2  T10301061,,,11000.0,,,21.11,20.04,W,29.43,29.83,,Mostly Cloudy
KIGQ,12/07/2016 13:15 UTC,30.08,26.6,21.38,79.74,10.36,260.0,,,,,,1203.0,,,,10.0,,KIGQ 071315Z AUTO 26009KT 10SM BKN120 M03/M06 A3008 RMK AO2  T10301059,,,12000.0,,,21.11,19.43,W,29.43,29.83,,Mostly Cloudy
KIGQ,12/07/2016 13:35 UTC,30.08,26.6,20.66,79.74,9.22,270.0,21.85,,,,,1203.0,,,,10.0,,KIGQ 071335Z AUTO 27008G19KT 10SM BKN120 M03/M06 A3008 RMK AO2  T10301063,,,12000.0,,,21.11,20.04,W,29.43,29.83,,Mostly Cloudy
KIGQ,12/07/2016 13:55 UTC,30.08,26.42,20.66,79.74,10.36,280.0,16.11,,,,,1202.0,,,,10.0,,KIGQ 071355Z AUTO 28009G14KT 10SM SCT120 M03/M06 A3008 RMK AO2  T10311063,,,,,,20.93,19.22,W,29.43,29.83,,Partly Cloudy
KIGQ,12/07/2016 14:15 UTC,30.08,26.6,20.84,79.74,12.66,270.0,18.41,,,,,1.0,,,,10.0,,KIGQ 071415Z AUTO 27011G16KT 10SM CLR M03/M06 A3008 RMK AO2  T10301062,,,,,,21.11,18.36,W,29.43,29.83,,Clear
KIGQ,12/07/2016 14:35 UTC,30.09,26.78,20.48,79.74,16.11,270.0,20.71,,,,,1.0,,,,10.0,,KIGQ 071435Z AUTO 27014G18KT 10SM CLR M03/M06 A3009 RMK AO2  T10291064,,,,,,21.29,17.25,W,29.44,29.84,,Clear
KIGQ,12/07/2016 14:55 UTC,30.1,27.32,21.02,76.81,11.5,280.0,,,,,,1.0,,,,10.0,,KIGQ 071455Z AUTO 28010KT 10SM CLR M03/M06 A3010 RMK AO2  T10261061,,,,,,20.92,19.75,W,29.45,29.85,,Clear
KIGQ,12/07/2016 15:15 UTC,30.11,26.96,20.66,79.74,12.66,260.0,,,,,,1.0,,,,10.0,,KIGQ 071515Z AUTO 26011KT 10SM CLR M03/M06 A3011 RMK AO2  T10281063,,,,,,21.46,18.8,W,29.46,29.86,,Clear
KIGQ,12/07/2016 15:35 UTC,30.13,27.68,20.84,74.03,12.66,260.0,17.27,,,,,1.0,,,,10.0,,KIGQ 071535Z AUTO 26011G15KT 10SM CLR M02/M06 A3013 RMK AO2  T10241062,,,,,,20.39,19.68,W,29.47,29.87,,Clear
KIGQ,12/07/2016 15:55 UTC,30.13,27.86,20.84,74.03,9.22,250.0,12.66,,,,,1.0,,,,10.0,,KIGQ 071555Z AUTO 25008G11KT 10SM CLR M02/M06 A3013 RMK AO2  T10231062,,,,,,20.56,21.54,WSW,29.47,29.87,,Clear
KIGQ,12/07/2016 16:15 UTC,30.14,28.4,21.2,74.03,11.5,280.0,20.71,,,,,1.0,,,,10.0,,KIGQ 071615Z AUTO 28010G18KT 10SM CLR M02/M06 A3014 RMK AO2  T10201060,,,,,,21.08,21.05,W,29.48,29.87,,Clear
KIGQ,12/07/2016 16:35 UTC,30.13,29.12,21.74,74.03,13.8,250.0,18.41,,,,,1.0,,,,10.0,,KIGQ 071635Z AUTO 25012G16KT 10SM CLR M02/M06 A3013 RMK AO2  T10161057,,,,,,21.78,20.98,WSW,29.47,29.85,,Clear
KIGQ,12/07/2016 16:55 UTC,30.12,28.22,21.38,74.03,12.66,250.0,,,,,,1.0,,,,10.0,,KIGQ 071655Z AUTO 25011KT 10SM CLR M02/M06 A3012 RMK AO2  T10211059,,,,,,20.91,20.33,WSW,29.47,29.87,,Clear
KIGQ,12/07/2016 17:15 UTC,30.11,27.5,21.2,74.03,8.05,250.0,,,,,,1102.0,,,,10.0,,KIGQ 071715Z AUTO 25007KT 10SM SCT110 M02/M06 A3011 RMK AO2  T10251060,,,,,,20.21,21.79,WSW,29.46,29.87,,Partly Cloudy
KIGQ,12/07/2016 17:35 UTC,30.11,27.32,21.38,79.74,10.36,230.0,,,,,,1103.0,,,,10.0,,KIGQ 071735Z AUTO 23009KT 10SM BKN110 M03/M06 A3011 RMK AO2  T10261059,,,11000.0,,,21.81,20.3,SW,29.46,29.85,,Mostly Cloudy
KIGQ,12/07/2016 17:55 UTC,30.1,28.4,22.46,78.09,11.5,240.0,,,,,,1104.0,,,,10.0,,KIGQ 071755Z AUTO 24010KT 10SM OVC110 M02/M05 A3010 RMK AO2  T10201053 11016 21031,29.12,26.42,11000.0,,,22.36,21.05,WSW,29.45,29.83,,Overcast
KIGQ,12/07/2016 18:15 UTC,30.11,28.4,22.46,79.89,13.8,230.0,,,,,,1104.0,,,,10.0,,KIGQ 071815Z AUTO 23012KT 10SM OVC110 M02/M05 A3011 RMK AO2  T10201053,,,11000.0,,,22.91,20.1,SW,29.46,29.83,,Overcast
KIGQ,12/07/2016 18:35 UTC,30.1,28.4,22.46,79.89,13.8,250.0,17.27,,,,,1104.0,,,,10.0,,KIGQ 071835Z AUTO 25012G15KT 10SM OVC110 M02/M05 A3010 RMK AO2  T10201053,,,11000.0,,,22.91,20.1,WSW,29.45,29.82,,Overcast
KIGQ,12/07/2016 18:55 UTC,30.1,28.4,22.64,79.89,12.66,260.0,,,,,,1104.0,,,,10.0,,KIGQ 071855Z AUTO 26011KT 10SM OVC110 M02/M05 A3010 RMK AO2  T10201052,,,11000.0,,,22.91,20.55,W,29.45,29.82,,Overcast
KIGQ,12/07/2016 19:15 UTC,30.1,29.84,23.18,75.89,14.97,260.0,18.41,,,,,1104.0,,,,10.0,,KIGQ 071915Z AUTO 26013G16KT 10SM OVC110 M01/M05 A3010 RMK AO2  T10121049,,,11000.0,,,23.07,21.43,W,29.45,29.81,,Overcast
KIGQ,12/07/2016 19:35 UTC,30.09,28.94,22.82,79.89,13.8,240.0,,,,,,1202.0,,,,10.0,,KIGQ 071935Z AUTO 24012KT 10SM SCT120 M02/M05 A3009 RMK AO2  T10171051,,,,,,23.44,20.76,WSW,29.44,29.81,,Partly Cloudy
KIGQ,12/07/2016 19:55 UTC,30.1,28.94,22.64,79.89,14.97,240.0,,,,,,1.0,,,,10.0,,KIGQ 071955Z AUTO 24013KT 10SM CLR M02/M05 A3010 RMK AO2  T10171052,,,,,,23.44,20.33,WSW,29.45,29.82,,Clear
KIGQ,12/07/2016 20:15 UTC,30.11,28.4,22.82,79.89,14.97,250.0,19.57,,,,,1202.0,,,,10.0,,KIGQ 072015Z AUTO 25013G17KT 10SM SCT120 M02/M05 A3011 RMK AO2  T10201051,,,,,,22.91,19.66,WSW,29.46,29.83,,Partly Cloudy
KIGQ,12/07/2016 20:35 UTC,30.11,28.94,22.64,76.96,16.11,250.0,21.85,,,,,1202.0,,,,10.0,,KIGQ 072035Z AUTO 25014G19KT 10SM SCT120 M02/M05 A3011 RMK AO2  T10171052,,,,,,22.54,19.93,WSW,29.46,29.84,,Partly Cloudy
KIGQ,12/07/2016 20:55 UTC,30.11,29.12,23.54,79.89,10.36,250.0,19.57,,,,,1202.0,,,,10.0,,KIGQ 072055Z AUTO 25009G17KT 10SM SCT120 M02/M05 A3011 RMK AO2  T10161047,,,,,,23.61,22.45,WSW,29.46,29.82,,Partly Cloudy
KIGQ,12/07/2016 21:15 UTC,30.12,28.94,21.56,74.03,17.27,260.0,,,,,,1202.0,,,,10.0,,KIGQ 072115Z AUTO 26015KT 10SM SCT120 M02/M06 A3012 RMK AO2  T10171058,,,,,,21.6,19.55,W,29.47,29.85,,Partly Cloudy
KIGQ,12/07/2016 21:35 UTC,30.12,28.76,22.28,79.89,12.66,260.0,,,,,,1202.0,,,,10.0,,KIGQ 072135Z AUTO 26011KT 10SM SCT120 M02/M05 A3012 RMK AO2  T10181054,,,,,,23.26,20.99,W,29.47,29.84,,Partly Cloudy
KIGQ,12/07/2016 21:55 UTC,30.12,28.22,22.82,79.87,14.97,250.0,20.71,,,,,1203.0,,,,10.0,,KIGQ 072155Z AUTO 25013G18KT 10SM BKN120 M02/M05 A3012 RMK AO2  T10211051,,,12000.0,,,22.73,19.44,WSW,29.47,29.85,,Mostly Cloudy
KIGQ,12/07/2016 22:15 UTC,30.13,27.86,21.92,74.03,17.27,260.0,21.85,,,,,1202.0,,,,10.0,,KIGQ 072215Z AUTO 26015G19KT 10SM SCT120 M02/M06 A3013 RMK AO2  T10231056,,,,,,20.56,18.21,W,29.47,29.87,,Partly Cloudy
KIGQ,12/07/2016 22:35 UTC,30.13,27.5,21.38,74.03,13.8,270.0,,,,,,1202.0,,,,10.0,,KIGQ 072235Z AUTO 27012KT 10SM SCT120 M02/M06 A3013 RMK AO2  T10251059,,,,,,20.21,18.99,W,29.47,29.88,,Partly Cloudy
KIGQ,12/07/2016 22:55 UTC,30.13,27.32,21.2,79.74,11.5,250.0,19.57,,,,,1.0,,,,10.0,,KIGQ 072255Z AUTO 25010G17KT 10SM CLR M03/M06 A3013 RMK AO2  T10261060,,,,,,21.81,19.75,WSW,29.47,29.86,,Clear
KIGQ,12/07/2016 23:15 UTC,30.14,26.96,21.92,79.74,12.66,260.0,,,,,,1.0,,,,10.0,,KIGQ 072315Z AUTO 26011KT 10SM CLR M03/M06 A3014 RMK AO2  T10281056,,,,,,21.46,18.8,W,29.48,29.88,,Clear
KIGQ,12/07/2016 23:35 UTC,30.14,26.6,21.74,79.74,16.11,260.0,20.71,,,,,1.0,,,,10.0,,KIGQ 072335Z AUTO 26014G18KT 10SM CLR M03/M06 A3014 RMK AO2  T10301057,,,,,,21.11,17.03,W,29.48,29.88,,Clear
KIGQ,12/07/2016 23:55 UTC,30.14,26.6,21.92,79.74,12.66,260.0,,,,,,1.0,,,,10.0,,KIGQ 072355Z AUTO 26011KT 10SM CLR M03/M06 A3014 RMK AO2 T10301056  11011 21030,30.02,26.6,,,,21.11,18.36,W,29.48,29.88,,Clear
KIGQ,12/08/2016 00:15 UTC,30.15,26.24,21.92,79.74,11.5,260.0,19.57,,,,,1.0,,,,10.0,,KIGQ 080015Z AUTO 26010G17KT 10SM CLR M03/M06 A3015 RMK AO2  T10321056,,,,,,20.76,18.45,W,29.49,29.9,,Clear
KIGQ,12/08/2016 00:35 UTC,30.15,25.88,21.74,84.06,13.8,270.0,,,,,,1.0,,,,10.0,,KIGQ 080035Z AUTO 27012KT 10SM CLR M03/M06 A3015 RMK AO2  T10341057,,,,,,21.67,17.01,W,29.49,29.89,,Clear
KIGQ,12/08/2016 00:55 UTC,30.15,25.7,21.02,79.74,18.41,270.0,24.16,,,,,1.0,,,,10.0,,KIGQ 080055Z AUTO 27016G21KT 10SM CLR M03/M06 A3015 RMK AO2  T10351061,,,,,,20.23,15.14,W,29.49,29.91,,Clear
KIGQ,12/08/2016 01:15 UTC,30.15,25.7,20.3,79.74,19.57,260.0,31.07,,,,,222.0,,,,10.0,,KIGQ 080115Z AUTO 26017G27KT 10SM SCT022 M03/M06 A3015 RMK AO2  T10351065,,,,,,20.23,14.78,W,29.49,29.91,,Partly Cloudy
KIGQ,12/08/2016 01:35 UTC,30.16,25.52,20.12,79.64,18.41,270.0,26.46,,,,,243.0,,,,10.0,,KIGQ 080135Z AUTO 27016G23KT 10SM BKN024 M04/M07 A3016 RMK AO2  T10361066,,,2400.0,,,20.03,14.92,W,29.5,29.92,,Mostly Cloudy
KIGQ,12/08/2016 01:55 UTC,30.15,24.98,19.4,79.58,13.8,280.0,27.63,,,,,243.0,,,,10.0,,KIGQ 080155Z AUTO 28012G24KT 10SM BKN024 M04/M07 A3015 RMK AO2  T10391070,,,2400.0,,,19.48,15.91,W,29.49,29.92,,Mostly Cloudy
KIGQ,12/08/2016 02:15 UTC,30.15,24.8,19.22,79.58,21.85,270.0,29.93,,,,,243.0,,,,10.0,,KIGQ 080215Z AUTO 27019G26KT 10SM BKN024 M04/M07 A3015 RMK AO2  T10401071,,,2400.0,,,19.31,12.98,W,29.49,29.92,,Mostly Cloudy
KIGQ,12/08/2016 02:35 UTC,30.16,24.26,18.14,73.65,24.16,270.0,34.52,,,,,243.0,,,,10.0,,KIGQ 080235Z AUTO 27021G30KT 10SM BKN024 M04/M08 A3016 RMK AO2  T10431077,,,2400.0,,,16.96,11.67,W,29.5,29.95,,Mostly Cloudy
KIGQ,12/08/2016 02:55 UTC,30.16,23.9,18.68,79.58,13.8,280.0,26.46,,,,,223.0,,,,10.0,,KIGQ 080255Z AUTO 28012G23KT 10SM BKN022 M04/M07 A3016 RMK AO2  T10451074,,,2200.0,,,18.43,14.59,W,29.5,29.94,,Mostly Cloudy
KIGQ,12/08/2016 03:15 UTC,30.16,23.72,18.5,85.82,17.27,290.0,27.63,,,,,224.0,,,,10.0,,KIGQ 080315Z AUTO 29015G24KT 10SM OVC022 M05/M07 A3016 RMK AO2  T10461075,,,2200.0,,,20.04,13.05,WNW,29.5,29.93,,Overcast
KIGQ,12/08/2016 03:35 UTC,30.17,23.36,17.96,79.42,19.57,270.0,26.46,,,,,224.0,,,,10.0,,KIGQ 080335Z AUTO 27017G23KT 10SM OVC022 M05/M08 A3017 RMK AO2  T10481078,,,2200.0,,,17.86,11.84,W,29.51,29.96,,Overcast
KIGQ,12/08/2016 03:55 UTC,30.17,23.36,17.24,79.42,20.71,270.0,27.63,,,,,224.0,,,,10.0,,KIGQ 080355Z AUTO 27018G24KT 10SM OVC022 M05/M08 A3017 RMK AO2  T10481082,,,2200.0,,,17.86,11.49,W,29.51,29.96,,Overcast
KIGQ,12/08/2016 04:15 UTC,30.16,23.36,16.7,79.42,20.71,280.0,29.93,,,,,244.0,,,,10.0,,KIGQ 080415Z AUTO 28018G26KT 10SM OVC024 M05/M08 A3016 RMK AO2  T10481085,,,2400.0,,,17.86,11.49,W,29.5,29.95,,Overcast
KIGQ,12/08/2016 04:35 UTC,30.17,23.54,17.24,79.42,18.41,280.0,25.32,,,,,264.0,,,,10.0,,KIGQ 080435Z AUTO 28016G22KT 10SM OVC026 M05/M08 A3017 RMK AO2  T10471082,,,2600.0,,,18.03,12.44,W,29.51,29.96,,Overcast
KIGQ,12/08/2016 04:55 UTC,30.18,23.9,16.88,73.65,18.41,270.0,25.32,,,,,264.0,,,,10.0,,KIGQ 080455Z AUTO 27016G22KT 10SM OVC026 M04/M08 A3018 RMK AO2  T10451084,,,2600.0,,,16.61,12.89,W,29.52,29.98,,Overcast
KIGQ,12/08/2016 05:15 UTC,30.17,23.9,17.6,73.65,16.11,280.0,23.02,,,,,264.0,,,,10.0,,KIGQ 080515Z AUTO 28014G20KT 10SM OVC026 M04/M08 A3017 RMK AO2  T10451080,,,2600.0,,,16.61,13.68,W,29.51,29.97,,Overcast
KIGQ,12/08/2016 05:35 UTC,30.17,24.08,17.24,73.65,11.5,280.0,27.63,,,,,264.0,,,,10.0,,KIGQ 080535Z AUTO 28010G24KT 10SM OVC026 M04/M08 A3017 RMK AO2  T10441082,,,2600.0,,,16.79,15.84,W,29.51,29.96,,Overcast
KIGQ,12/08/2016 05:55 UTC,30.17,23.9,18.14,73.65,13.8,270.0,27.63,,,,,264.0,,,,10.0,,KIGQ 080555Z AUTO 27012G24KT 10SM OVC026 M04/M08 A3017 RMK AO2  T10451077 11030 21050 410111050,26.6,23.0,2600.0,30.02,23.0,16.61,14.59,W,29.51,29.97,,Overcast
KIGQ,12/08/2016 06:15 UTC,30.17,23.9,17.42,73.65,14.97,280.0,24.16,,,,,264.0,,,,10.0,,KIGQ 080615Z AUTO 28013G21KT 10SM OVC026 M04/M08 A3017 RMK AO2  T10451081,,,2600.0,,,16.61,14.12,W,29.51,29.97,,Overcast
KIGQ,12/08/2016 06:35 UTC,30.17,23.9,17.24,73.65,19.57,270.0,25.32,,,,,264.0,,,,10.0,,KIGQ 080635Z AUTO 27017G22KT 10SM OVC026 M04/M08 A3017 RMK AO2  T10451082,,,2600.0,,,16.61,12.52,W,29.51,29.97,,Overcast
KIGQ,12/08/2016 06:55 UTC,30.17,23.72,17.06,79.42,13.8,280.0,29.93,,,,,264.0,,,,10.0,,KIGQ 080655Z AUTO 28012G26KT 10SM OVC026 M05/M08 A3017 RMK AO2  T10461083,,,2600.0,,,18.21,14.37,W,29.51,29.95,,Overcast
KIGQ,12/08/2016 07:15 UTC,30.17,23.72,16.7,79.42,12.66,280.0,25.32,,,,,264.0,,,,10.0,,KIGQ 080715Z AUTO 28011G22KT 10SM OVC026 M05/M08 A3017 RMK AO2  T10461085,,,2600.0,,,18.21,14.86,W,29.51,29.95,,Overcast
KIGQ,12/08/2016 07:35 UTC,30.17,23.54,16.52,73.45,18.41,280.0,26.46,,,,,264.0,,,,10.0,,KIGQ 080735Z AUTO 28016G23KT 10SM OVC026 M05/M09 A3017 RMK AO2  T10471086,,,2600.0,,,16.2,12.44,W,29.51,29.97,,Overcast
KIGQ,12/08/2016 07:55 UTC,30.18,23.72,17.06,79.42,19.57,270.0,24.16,,,,,264.0,,,,10.0,,KIGQ 080755Z AUTO 27017G21KT 10SM OVC026 M05/M08 A3018 RMK AO2  T10461083,,,2600.0,,,18.21,12.29,W,29.52,29.96,,Overcast
KIGQ,12/08/2016 08:15 UTC,30.18,23.54,17.24,79.42,18.41,260.0,27.63,,,,,264.0,,,,10.0,,KIGQ 080815Z AUTO 26016G24KT 10SM OVC026 M05/M08 A3018 RMK AO2  T10471082,,,2600.0,,,18.03,12.44,W,29.52,29.97,,Overcast
KIGQ,12/08/2016 08:35 UTC,30.18,23.0,16.7,79.42,24.16,270.0,28.77,,,,,264.0,,,,10.0,,KIGQ 080835Z AUTO 27021G25KT 10SM OVC026 M05/M08 A3018 RMK AO2  T10501085,,,2600.0,,,17.51,10.06,W,29.52,29.97,,Overcast
KIGQ,12/08/2016 08:55 UTC,30.18,23.0,16.7,79.42,17.27,290.0,29.93,6.0,,,,264.0,,,,1.75,,KIGQ 080855Z AUTO 29015G26KT 1 3/4SM HZ OVC026 M05/M08 A3018 RMK AO2 VIS 1/4V5 T10501085,,,2600.0,,,17.51,12.15,WNW,29.52,29.97,,Haze
KIGQ,12/08/2016 09:15 UTC,30.18,22.64,16.52,73.45,21.85,260.0,28.77,,,,,264.0,,,,10.0,,KIGQ 080915Z AUTO 26019G25KT 10SM OVC026 M05/M09 A3018 RMK AO2  T10521086,,,2600.0,,,15.33,10.24,W,29.52,29.99,,Overcast
KIGQ,12/08/2016 09:35 UTC,30.18,22.28,16.16,73.45,17.27,270.0,,,,,,264.0,,,,10.0,,KIGQ 080935Z AUTO 27015KT 10SM OVC026 M05/M09 A3018 RMK AO2  T10541088,,,2600.0,,,14.98,11.25,W,29.52,29.99,,Overcast
KIGQ,12/08/2016 09:55 UTC,30.18,22.1,16.16,73.45,17.27,270.0,27.63,,,,,244.0,,,,10.0,,KIGQ 080955Z AUTO 27015G24KT 10SM OVC024 M05/M09 A3018 RMK AO2  T10551088,,,2400.0,,,14.81,11.03,W,29.52,30.0,,Overcast
KIGQ,12/08/2016 10:15 UTC,30.19,21.92,16.16,79.26,14.97,270.0,20.71,20.0,,,,244.0,,,,10.0,,KIGQ 081015Z AUTO 27013G18KT 10SM -SN OVC024 M06/M09 A3019 RMK AO2  T10561088,,,2400.0,,,16.41,11.68,W,29.53,30.0,,Light Snow
KIGQ,12/08/2016 10:35 UTC,30.19,21.74,15.62,79.26,14.97,280.0,23.02,,,,,244.0,,,,10.0,,KIGQ 081035Z AUTO 28013G20KT 10SM OVC024 M06/M09 A3019 RMK AO2  T10571091,,,2400.0,,,16.23,11.45,W,29.53,30.0,,Overcast
KIGQ,12/08/2016 10:55 UTC,30.19,21.74,15.44,79.26,18.41,270.0,25.32,,,,,244.0,,,,10.0,,KIGQ 081055Z AUTO 27016G22KT 10SM OVC024 M06/M09 A3019 RMK AO2  T10571092,,,2400.0,,,16.23,10.18,W,29.53,30.0,,Overcast
KIGQ,12/08/2016 11:15 UTC,30.2,21.56,15.8,79.26,17.27,270.0,21.85,,,,,244.0,,,,10.0,,KIGQ 081115Z AUTO 27015G19KT 10SM OVC024 M06/M09 A3020 RMK AO2  T10581090,,,2400.0,,,16.06,10.35,W,29.54,30.01,,Overcast
KIGQ,12/08/2016 11:35 UTC,30.2,21.2,15.8,79.26,12.66,270.0,19.57,20.0,,,,244.0,,,,10.0,,KIGQ 081135Z AUTO 27011G17KT 10SM -SN OVC024 M06/M09 A3020 RMK AO2  T10601090,,,2400.0,,,15.71,11.8,W,29.54,30.02,,Light Snow
KIGQ,12/08/2016 11:55 UTC,30.2,21.2,16.16,79.26,14.97,280.0,,20.0,,,,224.0,,,,10.0,,KIGQ 081155Z AUTO 28013KT 10SM -SN OVC022 M06/M09 A3020 RMK AO2  T10601088 11044 21060,24.08,21.2,2200.0,,,15.71,10.79,W,29.54,30.02,,Light Snow
KIGQ,12/08/2016 12:15 UTC,30.21,21.2,15.98,79.26,24.16,270.0,33.38,20.0,,,,224.0,,,,10.0,,KIGQ 081215Z AUTO 27021G29KT 10SM -SN OVC022 M06/M09 A3021 RMK AO2  T10601089,,,2200.0,,,15.71,7.75,W,29.55,30.03,,Light Snow
KIGQ,12/08/2016 12:35 UTC,30.22,20.66,14.36,73.25,12.66,280.0,23.02,20.0,,,,244.0,,,,10.0,,KIGQ 081235Z AUTO 28011G20KT 10SM -SN OVC024 M06/M10 A3022 RMK AO2  T10631098,,,2400.0,,,13.36,11.14,W,29.56,30.05,,Light Snow
KIGQ,12/08/2016 12:55 UTC,30.22,20.3,14.18,73.25,25.32,260.0,28.77,,,,,244.0,,,,10.0,,KIGQ 081255Z AUTO 26022G25KT 10SM OVC024 M06/M10 A3022 RMK AO2  T10651099,,,2400.0,,,13.01,6.29,W,29.56,30.06,,Overcast
KIGQ,12/08/2016 13:15 UTC,30.23,19.4,14.0,79.1,17.27,270.0,23.02,,,,,244.0,,,,10.0,,KIGQ 081315Z AUTO 27015G20KT 10SM OVC024 M07/M10 A3023 RMK AO2  T10701100,,,2400.0,,,13.9,7.66,W,29.57,30.07,,Overcast
KIGQ,12/08/2016 13:35 UTC,30.24,19.04,13.28,79.1,19.57,270.0,27.63,,,,,224.0,,,,10.0,,KIGQ 081335Z AUTO 27017G24KT 10SM OVC022 M07/M10 A3024 RMK AO2  T10721104,,,2200.0,,,13.55,6.4,W,29.58,30.08,,Overcast
KIGQ,12/08/2016 13:55 UTC,30.24,18.5,12.92,73.06,16.11,270.0,26.46,,,,,224.0,,,,10.0,,KIGQ 081355Z AUTO 27014G23KT 10SM OVC022 M07/M11 A3024 RMK AO2  T10751106,,,2200.0,,,11.21,6.99,W,29.58,30.1,,Overcast
KIGQ,12/08/2016 14:15 UTC,30.25,18.14,12.02,78.94,21.85,280.0,31.07,,,,,224.0,,,,10.0,,KIGQ 081415Z AUTO 28019G27KT 10SM OVC022 M08/M11 A3025 RMK AO2  T10771111,,,2200.0,,,12.63,4.52,W,29.59,30.1,,Overcast
KIGQ,12/08/2016 14:35 UTC,30.26,18.32,12.38,78.94,18.41,290.0,31.07,20.0,,,,224.0,,,,10.0,,KIGQ 081435Z AUTO 29016G27KT 10SM -SN OVC022 M08/M11 A3026 RMK AO2  T10761109,,,2200.0,,,12.81,5.9,WNW,29.6,30.11,,Light Snow
KIGQ,12/08/2016 14:55 UTC,30.27,18.5,12.92,73.06,24.16,280.0,31.07,20.0,,,,224.0,,,,7.0,,KIGQ 081455Z AUTO 28021G27KT 7SM -SN OVC022 M07/M11 A3027 RMK AO2  T10751106,,,2200.0,,,11.21,4.29,W,29.61,30.13,,Light Snow
KIGQ,12/08/2016 15:15 UTC,30.28,17.96,12.2,78.94,24.16,280.0,31.07,20.0,,,,224.0,,,,1.75,,KIGQ 081515Z AUTO 28021G27KT 1 3/4SM -SN OVC022 M08/M11 A3028 RMK AO2 T10781110,,,2200.0,,,12.46,3.6,W,29.62,30.13,,Light Snow
KIGQ,12/08/2016 15:35 UTC,30.28,17.96,12.2,78.94,18.41,280.0,28.77,20.0,,,,224.0,,,,10.0,,KIGQ 081535Z AUTO 28016G25KT 10SM -SN OVC022 M08/M11 A3028 RMK AO2  T10781110,,,2200.0,,,12.46,5.45,W,29.62,30.13,,Light Snow
KIGQ,12/08/2016 15:55 UTC,30.29,18.14,12.38,78.94,21.85,270.0,28.77,,,,,224.0,,,,7.0,,KIGQ 081555Z AUTO 27019G25KT 7SM OVC022 M08/M11 A3029 RMK AO2  T10771109,,,2200.0,,,12.63,4.52,W,29.63,30.14,,Overcast
KIGQ,12/08/2016 16:15 UTC,30.3,18.32,12.56,78.94,19.57,280.0,26.46,,,,,224.0,,,,10.0,,KIGQ 081615Z AUTO 28017G23KT 10SM OVC022 M08/M11 A3030 RMK AO2  T10761108,,,2200.0,,,12.81,5.49,W,29.64,30.15,,Overcast
KIGQ,12/08/2016 16:35 UTC,30.3,18.5,12.56,73.06,24.16,280.0,32.21,,,,,224.0,,,,10.0,,KIGQ 081635Z AUTO 28021G28KT 10SM OVC022 M07/M11 A3030 RMK AO2  T10751108,,,2200.0,,,11.21,4.29,W,29.64,30.16,,Overcast
KIGQ,12/08/2016 16:55 UTC,30.29,18.5,12.56,73.06,25.32,270.0,33.38,20.0,,,,224.0,,,,10.0,,KIGQ 081655Z AUTO 27022G29KT 10SM -SN OVC022 M07/M11 A3029 RMK AO2  T10751108,,,2200.0,,,11.21,3.97,W,29.63,30.15,,Light Snow
KIGQ,12/08/2016 17:15 UTC,30.29,19.76,13.64,79.1,19.57,270.0,27.63,20.0,,,,224.0,,,,10.0,,KIGQ 081715Z AUTO 27017G24KT 10SM -SN OVC022 M07/M10 A3029 RMK AO2  T10681102,,,2200.0,,,14.26,7.3,W,29.63,30.12,,Light Snow
KIGQ,12/08/2016 17:35 UTC,30.29,20.3,14.0,73.25,16.11,270.0,28.77,,,,,224.0,,,,10.0,,KIGQ 081735Z AUTO 27014G25KT 10SM OVC022 M06/M10 A3029 RMK AO2  T10651100,,,2200.0,,,13.01,9.22,W,29.63,30.13,,Overcast
KIGQ,12/08/2016 17:55 UTC,30.29,19.22,13.64,79.1,19.57,280.0,27.63,,,,,224.0,,,,10.0,,KIGQ 081755Z AUTO 28017G24KT 10SM OVC022 M07/M10 A3029 RMK AO2  T10711102 11060 21078,21.2,17.96,2200.0,,,13.73,6.62,W,29.63,30.13,,Overcast
KIGQ,12/08/2016 18:15 UTC,30.29,19.22,13.46,79.1,24.16,270.0,32.21,,,,,224.0,,,,10.0,,KIGQ 081815Z AUTO 27021G28KT 10SM OVC022 M07/M10 A3029 RMK AO2  T10711103,,,2200.0,,,13.73,5.22,W,29.63,30.13,,Overcast
KIGQ,12/08/2016 18:35 UTC,30.3,19.22,13.46,77.84,17.27,270.0,31.07,,,,,224.0,,,,10.0,,KIGQ 081835Z AUTO 27015G27KT 10SM OVC022 M07/M10 A3030 RMK AO2  T10711103,,,2200.0,,,13.36,7.44,W,29.64,30.14,,Overcast
KIGQ,12/08/2016 18:55 UTC,30.31,19.4,13.82,79.1,18.41,270.0,29.93,,,,,224.0,,,,10.0,,KIGQ 081855Z AUTO 27016G26KT 10SM OVC022 M07/M10 A3031 RMK AO2  T10701101,,,2200.0,,,13.9,7.25,W,29.65,30.15,,Overcast
KIGQ,12/08/2016 19:15 UTC,30.31,19.4,13.82,79.1,19.57,270.0,27.63,20.0,,,,224.0,,,,10.0,,KIGQ 081915Z AUTO 27017G24KT 10SM -SN OVC022 M07/M10 A3031 RMK AO2  T10701101,,,2200.0,,,13.9,6.85,W,29.65,30.15,,Light Snow
KIGQ,12/08/2016 19:35 UTC,30.32,19.4,14.18,79.1,23.02,260.0,31.07,20.0,,,,224.0,,,,10.0,,KIGQ 081935Z AUTO 26020G27KT 10SM -SN OVC022 M07/M10 A3032 RMK AO2  T10701099,,,2200.0,,,13.9,5.77,W,29.66,30.16,,Light Snow
KIGQ,12/08/2016 19:55 UTC,30.32,19.4,13.82,79.1,18.41,280.0,29.93,20.0,,,,224.0,,,,10.0,,KIGQ 081955Z AUTO 28016G26KT 10SM -SN OVC022 M07/M10 A3032 RMK AO2  T10701101,,,2200.0,,,13.9,7.25,W,29.66,30.16,,Light Snow
KIGQ,12/08/2016 20:15 UTC,30.33,19.76,14.54,79.76,18.41,280.0,29.93,20.0,,,,204.0,,,,10.0,,KIGQ 082015Z AUTO 28016G26KT 10SM -SN OVC020 M07/M10 A3033 RMK AO2  T10681097,,,2000.0,,,14.45,7.7,W,29.67,30.16,,Light Snow
KIGQ,12/08/2016 20:35 UTC,30.33,19.4,14.18,79.1,18.41,280.0,32.21,20.0,,,,204.0,,,,10.0,,KIGQ 082035Z AUTO 28016G28KT 10SM -SN OVC020 M07/M10 A3033 RMK AO2  T10701099,,,2000.0,,,13.9,7.25,W,29.67,30.17,,Light Snow
KIGQ,12/08/2016 20:55 UTC,30.34,19.76,14.54,79.1,14.97,280.0,29.93,20.0,,,,204.0,,,,10.0,,KIGQ 082055Z AUTO 28013G26KT 10SM -SN OVC020 M07/M10 A3034 RMK AO2  T10681097,,,2000.0,,,14.26,9.01,W,29.68,30.18,,Light Snow
KIGQ,12/08/2016 21:15 UTC,30.34,19.94,14.9,85.59,17.27,280.0,27.63,20.0,,,,204.0,,,,10.0,,KIGQ 082115Z AUTO 28015G24KT 10SM -SN OVC020 M07/M09 A3034 RMK AO2  T10671095,,,2000.0,,,16.27,8.34,W,29.68,30.16,,Light Snow
KIGQ,12/08/2016 21:35 UTC,30.35,20.12,14.9,85.59,14.97,290.0,24.16,20.0,,,,204.0,,,,10.0,,KIGQ 082135Z AUTO 29013G21KT 10SM -SN OVC020 M07/M09 A3035 RMK AO2  T10661095,,,2000.0,,,16.44,9.46,WNW,29.69,30.17,,Light Snow
KIGQ,12/08/2016 21:55 UTC,30.36,20.3,15.44,79.26,11.5,280.0,25.32,,,,,204.0,,,,10.0,,KIGQ 082155Z AUTO 28010G22KT 10SM OVC020 M06/M09 A3036 RMK AO2  T10651092,,,2000.0,,,14.83,11.28,W,29.7,30.19,,Overcast
KIGQ,12/08/2016 22:15 UTC,30.36,20.66,15.62,79.26,11.5,290.0,23.02,,,,,204.0,,,,10.0,,KIGQ 082215Z AUTO 29010G20KT 10SM OVC020 M06/M09 A3036 RMK AO2  T10631091,,,2000.0,,,15.18,11.71,WNW,29.7,30.19,,Overcast
KIGQ,12/08/2016 22:35 UTC,30.37,21.02,16.16,79.26,16.11,280.0,20.71,,,,,204.0,,,,10.0,,KIGQ 082235Z AUTO 28014G18KT 10SM OVC020 M06/M09 A3037 RMK AO2  T10611088,,,2000.0,,,15.53,10.11,W,29.71,30.19,,Overcast
KIGQ,12/08/2016 22:55 UTC,30.38,21.2,16.34,79.26,11.5,280.0,17.27,20.0,,,,204.0,,,,10.0,,KIGQ 082255Z AUTO 28010G15KT 10SM -SN OVC020 M06/M09 A3038 RMK AO2  T10601087,,,2000.0,,,15.71,12.36,W,29.72,30.2,,Light Snow
KIGQ,12/08/2016 23:15 UTC,30.38,21.74,16.52,79.26,14.97,290.0,23.02,,,,,204.0,,,,10.0,,KIGQ 082315Z AUTO 29013G20KT 10SM OVC020 M06/M09 A3038 RMK AO2  T10571086,,,2000.0,,,16.23,11.45,WNW,29.72,30.19,,Overcast
KIGQ,12/08/2016 23:35 UTC,30.39,21.92,16.7,85.71,11.5,290.0,18.41,,,,,204.0,,,,10.0,,KIGQ 082335Z AUTO 29010G16KT 10SM OVC020 M06/M08 A3039 RMK AO2  T10561085,,,2000.0,,,18.24,13.23,WNW,29.73,30.19,,Overcast
KIGQ,12/08/2016 23:55 UTC,30.39,22.1,16.88,79.42,12.66,280.0,20.71,,,,,224.0,,,,10.0,,KIGQ 082355Z AUTO 28011G18KT 10SM OVC022 M05/M08 A3039 RMK AO2  T10551084 11055 21072,22.1,19.04,2200.0,,,16.63,12.89,W,29.73,30.2,,Overcast
KIGQ,12/09/2016 00:15 UTC,30.39,22.28,17.24,79.42,10.36,290.0,19.57,,,,,224.0,,,,10.0,,KIGQ 090015Z AUTO 29009G17KT 10SM OVC022 M05/M08 A3039 RMK AO2  T10541082,,,2200.0,,,16.8,14.26,WNW,29.73,30.2,,Overcast
KIGQ,12/09/2016 00:35 UTC,30.39,22.64,17.24,79.42,11.5,300.0,17.27,,,,,224.0,,,,10.0,,KIGQ 090035Z AUTO 30010G15KT 10SM OVC022 M05/M08 A3039 RMK AO2  T10521082,,,2200.0,,,17.16,14.1,WNW,29.73,30.19,,Overcast
KIGQ,12/09/2016 00:55 UTC,30.4,22.64,17.24,79.42,12.66,290.0,21.85,,,,,224.0,,,,10.0,,KIGQ 090055Z AUTO 29011G19KT 10SM OVC022 M05/M08 A3040 RMK AO2  T10521082,,,2200.0,,,17.16,13.55,WNW,29.74,30.2,,Overcast
KIGQ,12/09/2016 01:15 UTC,30.4,22.82,17.42,79.42,10.36,300.0,21.85,,,,,224.0,,,,10.0,,KIGQ 090115Z AUTO 30009G19KT 10SM OVC022 M05/M08 A3040 RMK AO2  T10511081,,,2200.0,,,17.33,14.91,WNW,29.74,30.2,,Overcast
KIGQ,12/09/2016 01:35 UTC,30.4,23.0,17.6,79.42,16.11,290.0,20.71,,,,,224.0,,,,10.0,,KIGQ 090135Z AUTO 29014G18KT 10SM OVC022 M05/M08 A3040 RMK AO2  T10501080,,,2200.0,,,17.51,12.57,WNW,29.74,30.2,,Overcast
KIGQ,12/09/2016 01:55 UTC,30.4,23.0,17.42,79.42,12.66,280.0,23.02,,,,,224.0,,,,10.0,,KIGQ 090155Z AUTO 28011G20KT 10SM OVC022 M05/M08 A3040 RMK AO2  T10501081,,,2200.0,,,17.51,13.99,W,29.74,30.2,,Overcast
KIGQ,12/09/2016 02:15 UTC,30.4,23.18,17.6,79.42,14.97,300.0,19.57,,,,,224.0,,,,10.0,,KIGQ 090215Z AUTO 30013G17KT 10SM OVC022 M05/M08 A3040 RMK AO2  T10491080,,,2200.0,,,17.68,13.23,WNW,29.74,30.2,,Overcast
KIGQ,12/09/2016 02:35 UTC,30.41,23.54,17.6,79.42,10.36,300.0,17.27,,,,,244.0,,,,10.0,,KIGQ 090235Z AUTO 30009G15KT 10SM OVC024 M05/M08 A3041 RMK AO2  T10471080,,,2400.0,,,18.03,15.77,WNW,29.75,30.2,,Overcast
KIGQ,12/09/2016 02:55 UTC,30.41,23.72,17.6,79.42,16.11,280.0,,,,,,244.0,,,,10.0,,KIGQ 090255Z AUTO 28014KT 10SM OVC024 M05/M08 A3041 RMK AO2  T10461080,,,2400.0,,,18.21,13.46,W,29.75,30.2,,Overcast
KIGQ,12/09/2016 03:15 UTC,30.41,23.72,18.14,79.42,12.66,280.0,,,,,,244.0,,,,10.0,,KIGQ 090315Z AUTO 28011KT 10SM OVC024 M05/M08 A3041 RMK AO2  T10461077,,,2400.0,,,18.21,14.86,W,29.75,30.2,,Overcast
KIGQ,12/09/2016 03:35 UTC,30.42,23.54,18.5,85.82,9.22,270.0,,20.0,,,,264.0,,,,10.0,,KIGQ 090335Z AUTO 27008KT 10SM -SN OVC026 M05/M07 A3042 RMK AO2  T10471075,,,2600.0,,,19.87,16.41,W,29.76,30.2,,Light Snow
KIGQ,12/09/2016 03:55 UTC,30.42,23.54,18.86,85.82,10.36,280.0,,20.0,,,,264.0,,,,10.0,,KIGQ 090355Z AUTO 28009KT 10SM -SN OVC026 M05/M07 A3042 RMK AO2  T10471073,,,2600.0,,,19.87,15.77,W,29.76,30.2,,Light Snow
KIGQ,12/09/2016 04:15 UTC,30.42,23.18,18.86,85.82,8.05,280.0,,20.0,,,,284.0,,,,10.0,,KIGQ 090415Z AUTO 28007KT 10SM -SN OVC028 M05/M07 A3042 RMK AO2  T10491073,,,2800.0,,,19.51,16.72,W,29.76,30.2,,Light Snow
KIGQ,12/09/2016 04:35 UTC,30.42,22.64,18.5,85.82,10.36,270.0,,,,,,282.0,,,,10.0,,KIGQ 090435Z AUTO 27009KT 10SM SCT028 M05/M07 A3042 RMK AO2  T10521075,,,,,,18.98,14.69,W,29.76,30.21,,Partly Cloudy
KIGQ,12/09/2016 04:55 UTC,30.42,22.1,18.14,79.42,10.36,260.0,,,,,,1.0,,,,10.0,,KIGQ 090455Z AUTO 26009KT 10SM CLR M05/M08 A3042 RMK AO2  T10551077,,,,,,16.63,14.05,W,29.76,30.23,,Clear
KIGQ,12/09/2016 05:15 UTC,30.43,21.56,18.14,85.71,9.22,260.0,,,,,,1.0,,,,10.0,,KIGQ 090515Z AUTO 26008KT 10SM CLR M06/M08 A3043 RMK AO2  T10581077,,,,,,17.89,14.06,W,29.77,30.23,,Clear
KIGQ,12/09/2016 05:35 UTC,30.43,21.56,17.96,85.71,8.05,270.0,,,,,,1.0,,,,10.0,,KIGQ 090535Z AUTO 27007KT 10SM CLR M06/M08 A3043 RMK AO2  T10581078,,,,,,17.89,14.81,W,29.77,30.23,,Clear
KIGQ,12/09/2016 05:55 UTC,30.43,21.74,17.96,85.71,9.22,270.0,,,,,,493.0,,,,10.0,,KIGQ 090555Z AUTO 27008KT 10SM BKN049 M06/M08 A3043 RMK AO2  T10571078 11046 21058 410441078,23.72,21.56,4900.0,24.08,17.96,18.07,14.27,W,29.77,30.23,,Mostly Cloudy
KIGQ,12/09/2016 06:15 UTC,30.43,21.02,17.6,85.71,9.22,270.0,,,,,,492.0,,,,10.0,,KIGQ 090615Z AUTO 27008KT 10SM SCT049 M06/M08 A3043 RMK AO2  T10611080,,,,,,17.36,13.42,W,29.77,30.24,,Partly Cloudy
KIGQ,12/09/2016 06:35 UTC,30.43,21.2,18.14,85.71,9.22,280.0,16.11,,,,,1.0,,,,10.0,,KIGQ 090635Z AUTO 28008G14KT 10SM CLR M06/M08 A3043 RMK AO2  T10601077,,,,,,17.54,13.63,W,29.77,30.24,,Clear
KIGQ,12/09/2016 06:55 UTC,30.43,21.02,17.96,85.71,8.05,280.0,,,,,,493.0,,,,10.0,,KIGQ 090655Z AUTO 28007KT 10SM BKN049 M06/M08 A3043 RMK AO2  T10611078,,,4900.0,,,17.36,14.18,W,29.77,30.24,,Mostly Cloudy
KIGQ,12/09/2016 07:15 UTC,30.44,21.2,17.96,85.71,6.91,280.0,,,,,,494.0,,,,10.0,,KIGQ 090715Z AUTO 28006KT 10SM OVC049 M06/M08 A3044 RMK AO2  T10601078,,,4900.0,,,17.54,,W,29.78,30.25,,Overcast
KIGQ,12/09/2016 07:35 UTC,30.44,21.2,17.96,85.71,9.22,280.0,,,,,,494.0,,,,10.0,,KIGQ 090735Z AUTO 28008KT 10SM OVC049 M06/M08 A3044 RMK AO2  T10601078,,,4900.0,,,17.54,13.63,W,29.78,30.25,,Overcast
KIGQ,12/09/2016 07:55 UTC,30.45,21.02,17.78,85.71,6.91,270.0,,,,,,493.0,,,,10.0,,KIGQ 090755Z AUTO 27006KT 10SM BKN049 M06/M08 A3045 RMK AO2  T10611079,,,4900.0,,,17.36,,W,29.79,30.26,,Mostly Cloudy
KIGQ,12/09/2016 08:15 UTC,30.45,21.2,17.96,85.71,9.22,280.0,,,494.0,,,212.0,283.0,,,10.0,,KIGQ 090815Z AUTO 28008KT 10SM SCT021 BKN028 OVC049 M06/M08  A3045 RMK AO2 T10601078,,,2800.0,,,17.54,13.63,W,29.79,30.26,,Overcast
KIGQ,12/09/2016 08:35 UTC,30.46,21.2,17.96,85.71,9.22,280.0,,,,,,244.0,,,,10.0,,KIGQ 090835Z AUTO 28008KT 10SM OVC024 M06/M08 A3046 RMK AO2  T10601078,,,2400.0,,,17.54,13.63,W,29.8,30.27,,Overcast
KIGQ,12/09/2016 08:55 UTC,30.46,21.56,17.96,85.71,6.91,280.0,,,,,,244.0,,,,10.0,,KIGQ 090855Z AUTO 28006KT 10SM OVC024 M06/M08 A3046 RMK AO2  T10581078,,,2400.0,,,17.89,,W,29.8,30.26,,Overcast
KIGQ,12/09/2016 09:15 UTC,30.46,21.56,18.14,85.71,8.05,280.0,,,,,,224.0,,,,10.0,,KIGQ 090915Z AUTO 28007KT 10SM OVC022 M06/M08 A3046 RMK AO2  T10581077,,,2200.0,,,17.89,14.81,W,29.8,30.26,,Overcast
KIGQ,12/09/2016 09:35 UTC,30.46,21.2,17.96,85.71,6.91,280.0,,,,,,224.0,,,,10.0,,KIGQ 090935Z AUTO 28006KT 10SM OVC022 M06/M08 A3046 RMK AO2  T10601078,,,2200.0,,,17.54,,W,29.8,30.27,,Overcast
KIGQ,12/09/2016 09:55 UTC,30.47,21.38,17.96,85.71,6.91,290.0,,,,,,224.0,,,,10.0,,KIGQ 090955Z AUTO 29006KT 10SM OVC022 M06/M08 A3047 RMK AO2  T10591078,,,2200.0,,,17.71,,WNW,29.81,30.28,,Overcast
KIGQ,12/09/2016 10:15 UTC,30.47,21.56,18.14,85.71,5.75,290.0,,,,,,222.0,504.0,,,10.0,,KIGQ 091015Z AUTO 29005KT 10SM SCT022 OVC050 M06/M08 A3047 RMK AO2  T10581077,,,5000.0,,,17.89,,WNW,29.81,30.27,,Overcast
KIGQ,12/09/2016 10:35 UTC,30.47,21.74,18.5,92.61,5.75,280.0,,,,,,504.0,,,,10.0,,KIGQ 091035Z AUTO 28005KT 10SM OVC050 M06/M07 A3047 RMK AO2  T10571075,,,5000.0,,,19.9,,W,29.81,30.26,,Overcast
KIGQ,12/09/2016 10:55 UTC,30.47,22.1,18.5,85.82,9.22,280.0,,,,,,504.0,,,,10.0,,KIGQ 091055Z AUTO 28008KT 10SM OVC050 M05/M07 A3047 RMK AO2  T10551075,,,5000.0,,,18.45,14.7,W,29.81,30.27,,Overcast
KIGQ,12/09/2016 11:15 UTC,30.48,22.1,18.68,85.82,8.05,280.0,,,,,,504.0,,,,10.0,,KIGQ 091115Z AUTO 28007KT 10SM OVC050 M05/M07 A3048 RMK AO2  T10551074,,,5000.0,,,18.45,15.45,W,29.82,30.28,,Overcast
KIGQ,12/09/2016 11:35 UTC,30.48,22.46,18.86,85.82,9.22,280.0,,,,,,504.0,,,,10.0,,KIGQ 091135Z AUTO 28008KT 10SM OVC050 M05/M07 A3048 RMK AO2  T10531073,,,5000.0,,,18.81,15.13,W,29.82,30.27,,Overcast
KIGQ,12/09/2016 11:55 UTC,30.49,22.46,18.86,85.82,5.75,280.0,,,,,,504.0,,,,10.0,,KIGQ 091155Z AUTO 28005KT 10SM OVC050 M05/M07 A3049 RMK AO2  T10531073 11053 21061,22.46,21.02,5000.0,,,18.81,,W,29.83,30.28,,Overcast
KIGQ,12/09/2016 12:15 UTC,30.49,22.46,18.86,85.82,8.05,280.0,,,,,,504.0,,,,10.0,,KIGQ 091215Z AUTO 28007KT 10SM OVC050 M05/M07 A3049 RMK AO2  T10531073,,,5000.0,,,18.81,15.87,W,29.83,30.28,,Overcast
KIGQ,12/09/2016 12:35 UTC,30.49,22.46,18.86,85.82,9.22,280.0,,,,,,504.0,,,,10.0,,KIGQ 091235Z AUTO 28008KT 10SM OVC050 M05/M07 A3049 RMK AO2  T10531073,,,5000.0,,,18.81,15.13,W,29.83,30.28,,Overcast
KIGQ,12/09/2016 12:55 UTC,30.5,22.46,18.86,85.82,8.05,280.0,,,,,,504.0,,,,10.0,,KIGQ 091255Z AUTO 28007KT 10SM OVC050 M05/M07 A3050 RMK AO2  T10531073,,,5000.0,,,18.81,15.87,W,29.84,30.29,,Overcast
KIGQ,12/09/2016 13:15 UTC,30.5,22.1,18.86,85.82,6.91,280.0,,,,,,182.0,504.0,,,10.0,,KIGQ 091315Z AUTO 28006KT 10SM SCT018 OVC050 M05/M07 A3050 RMK AO2  T10551073,,,5000.0,,,18.45,,W,29.84,30.3,,Overcast
KIGQ,12/09/2016 13:35 UTC,30.5,22.1,18.86,85.82,6.91,290.0,,,,,,182.0,484.0,,,10.0,,KIGQ 091335Z AUTO 29006KT 10SM SCT018 OVC048 M05/M07 A3050 RMK AO2  T10551073,,,4800.0,,,18.45,,WNW,29.84,30.3,,Overcast
KIGQ,12/09/2016 13:55 UTC,30.51,22.82,19.22,85.82,6.91,280.0,,,,,,172.0,484.0,,,10.0,,KIGQ 091355Z AUTO 28006KT 10SM SCT017 OVC048 M05/M07 A3051 RMK AO2  T10511071,,,4800.0,,,19.16,,W,29.85,30.3,,Overcast
KIGQ,12/09/2016 14:15 UTC,30.52,23.0,19.4,85.82,6.91,270.0,,,,,,464.0,,,,10.0,,KIGQ 091415Z AUTO 27006KT 10SM OVC046 M05/M07 A3052 RMK AO2  T10501070,,,4600.0,,,19.34,,W,29.86,30.31,,Overcast
KIGQ,12/09/2016 14:35 UTC,30.52,23.18,19.22,84.52,9.22,270.0,,,,,,444.0,,,,10.0,,KIGQ 091435Z AUTO 27008KT 10SM OVC044 M05/M07 A3052 RMK AO2  T10491071,,,4400.0,,,19.15,15.98,W,29.86,30.31,,Overcast
KIGQ,12/09/2016 14:55 UTC,30.52,23.72,19.58,85.82,8.05,280.0,,,,,,444.0,,,,10.0,,KIGQ 091455Z AUTO 28007KT 10SM OVC044 M05/M07 A3052 RMK AO2  T10461069,,,4400.0,,,20.04,17.35,W,29.86,30.3,,Overcast
KIGQ,12/09/2016 15:15 UTC,30.54,24.08,19.58,79.58,10.36,280.0,,,,,,172.0,444.0,,,10.0,,KIGQ 091515Z AUTO 28009KT 10SM SCT017 OVC044 M04/M07 A3054 RMK AO2  T10441069,,,4400.0,,,18.61,16.42,W,29.88,30.33,,Overcast
KIGQ,12/09/2016 15:35 UTC,30.54,24.44,19.4,79.58,9.22,280.0,,,,,,424.0,,,,10.0,,KIGQ 091535Z AUTO 28008KT 10SM OVC042 M04/M07 A3054 RMK AO2  T10421070,,,4200.0,,,18.96,17.48,W,29.88,30.32,,Overcast
KIGQ,12/09/2016 15:55 UTC,30.54,24.8,19.22,79.58,9.22,280.0,,,,,,424.0,,,,10.0,,KIGQ 091555Z AUTO 28008KT 10SM OVC042 M04/M07 A3054 RMK AO2  T10401071,,,4200.0,,,19.31,17.9,W,29.88,30.32,,Overcast
KIGQ,12/09/2016 16:15 UTC,30.54,25.34,18.68,79.58,10.36,270.0,,,,,,424.0,,,,10.0,,KIGQ 091615Z AUTO 27009KT 10SM OVC042 M04/M07 A3054 RMK AO2  T10371074,,,4200.0,,,19.83,17.93,W,29.88,30.31,,Overcast
KIGQ,12/09/2016 16:35 UTC,30.54,25.7,17.96,68.34,11.5,270.0,,,,,,424.0,,,,10.0,,KIGQ 091635Z AUTO 27010KT 10SM OVC042 M03/M08 A3054 RMK AO2  T10351078,,,4200.0,,,16.6,17.79,W,29.88,30.33,,Overcast
KIGQ,12/09/2016 16:55 UTC,30.53,25.88,15.8,63.2,8.05,280.0,,,,,,292.0,384.0,,,10.0,,KIGQ 091655Z AUTO 28007KT 10SM SCT029 OVC038 M03/M09 A3053 RMK AO2  T10341090,,,3800.0,,,14.95,19.89,W,29.87,30.34,,Overcast
KIGQ,12/09/2016 17:15 UTC,30.52,25.52,16.52,68.11,6.91,290.0,,,,,,324.0,,,,10.0,,KIGQ 091715Z AUTO 29006KT 10SM OVC032 M04/M09 A3052 RMK AO2  T10361086,,,3200.0,,,16.34,,WNW,29.86,30.32,,Overcast
KIGQ,12/09/2016 17:35 UTC,30.52,25.16,17.24,73.65,6.91,290.0,,,,,,304.0,,,,10.0,,KIGQ 091735Z AUTO 29006KT 10SM OVC030 M04/M08 A3052 RMK AO2  T10381082,,,3000.0,,,17.83,,WNW,29.86,30.31,,Overcast
KIGQ,12/09/2016 17:55 UTC,30.52,25.34,16.7,73.65,8.05,280.0,,,,,,304.0,,,,10.0,,KIGQ 091755Z AUTO 28007KT 10SM OVC030 M04/M08 A3052 RMK AO2  T10371085 11034 21055,25.88,22.1,3000.0,,,18.0,19.25,W,29.86,30.3,,Overcast
KIGQ,12/09/2016 18:15 UTC,30.52,25.34,17.78,73.65,11.5,270.0,,,,,,304.0,,,,10.0,,KIGQ 091815Z AUTO 27010KT 10SM OVC030 M04/M08 A3052 RMK AO2  T10371079,,,3000.0,,,18.0,17.36,W,29.86,30.3,,Overcast
KIGQ,12/09/2016 18:35 UTC,30.51,25.16,17.6,73.65,9.22,290.0,,,,,,304.0,,,,10.0,,KIGQ 091835Z AUTO 29008KT 10SM OVC030 M04/M08 A3051 RMK AO2  T10381080,,,3000.0,,,17.83,18.33,WNW,29.85,30.3,,Overcast
KIGQ,12/09/2016 18:55 UTC,30.51,25.34,17.06,73.65,8.05,270.0,,,,,,304.0,,,,10.0,,KIGQ 091855Z AUTO 27007KT 10SM OVC030 M04/M08 A3051 RMK AO2  T10371083,,,3000.0,,,18.0,19.25,W,29.85,30.29,,Overcast
KIGQ,12/09/2016 19:15 UTC,30.51,25.34,16.7,73.65,11.5,260.0,,,,,,304.0,,,,10.0,,KIGQ 091915Z AUTO 26010KT 10SM OVC030 M04/M08 A3051 RMK AO2  T10371085,,,3000.0,,,18.0,17.36,W,29.85,30.29,,Overcast
KIGQ,12/09/2016 19:35 UTC,30.51,25.34,15.98,67.12,10.36,270.0,,,,,,324.0,,,,10.0,,KIGQ 091935Z AUTO 27009KT 10SM OVC032 M04/M09 A3051 RMK AO2  T10371089,,,3200.0,,,15.83,17.93,W,29.85,30.31,,Overcast
KIGQ,12/09/2016 19:55 UTC,30.51,25.16,16.7,73.65,11.5,280.0,,,,,,324.0,,,,10.0,,KIGQ 091955Z AUTO 28010KT 10SM OVC032 M04/M08 A3051 RMK AO2  T10381085,,,3200.0,,,17.83,17.14,W,29.85,30.3,,Overcast
KIGQ,12/09/2016 20:15 UTC,30.51,25.16,16.34,68.11,8.05,310.0,,,,,,324.0,,,,10.0,,KIGQ 092015Z AUTO 31007KT 10SM OVC032 M04/M09 A3051 RMK AO2  T10381087,,,3200.0,,,16.0,19.04,NW,29.85,30.31,,Overcast
KIGQ,12/09/2016 20:35 UTC,30.51,24.62,16.16,68.11,8.05,260.0,,,,,,324.0,,,,10.0,,KIGQ 092035Z AUTO 26007KT 10SM OVC032 M04/M09 A3051 RMK AO2  T10411088,,,3200.0,,,15.48,18.41,W,29.85,30.32,,Overcast
KIGQ,12/09/2016 20:55 UTC,30.51,24.44,15.44,68.11,9.22,260.0,,,,,,324.0,,,,10.0,,KIGQ 092055Z AUTO 26008KT 10SM OVC032 M04/M09 A3051 RMK AO2  T10421092,,,3200.0,,,15.31,17.48,W,29.85,30.32,,Overcast
KIGQ,12/09/2016 21:15 UTC,30.51,24.08,15.08,68.11,9.22,270.0,,,,,,323.0,,,,10.0,,KIGQ 092115Z AUTO 27008KT 10SM BKN032 M04/M09 A3051 RMK AO2  T10441094,,,3200.0,,,14.96,17.05,W,29.85,30.32,,Mostly Cloudy
KIGQ,12/09/2016 21:35 UTC,30.52,23.72,14.9,73.45,9.22,270.0,,,,,,322.0,,,,10.0,,KIGQ 092135Z AUTO 27008KT 10SM SCT032 M05/M09 A3052 RMK AO2  T10461095,,,,,,16.37,16.62,W,29.86,30.33,,Partly Cloudy
KIGQ,12/09/2016 21:55 UTC,30.52,23.0,15.26,73.45,10.36,280.0,,,,,,322.0,,,,10.0,,KIGQ 092155Z AUTO 28009KT 10SM SCT032 M05/M09 A3052 RMK AO2  T10501093,,,,,,15.68,15.12,W,29.86,30.33,,Partly Cloudy
KIGQ,12/09/2016 22:15 UTC,30.52,22.1,14.9,73.45,9.22,260.0,,,,,,322.0,,,,10.0,,KIGQ 092215Z AUTO 26008KT 10SM SCT032 M05/M09 A3052 RMK AO2  T10551095,,,,,,14.81,14.7,W,29.86,30.34,,Partly Cloudy
KIGQ,12/09/2016 22:35 UTC,30.52,21.74,14.9,79.26,6.91,260.0,,,,,,1.0,,,,10.0,,KIGQ 092235Z AUTO 26006KT 10SM CLR M06/M09 A3052 RMK AO2  T10571095,,,,,,16.23,,W,29.86,30.34,,Clear
KIGQ,12/09/2016 22:55 UTC,30.52,21.38,14.72,73.25,6.91,270.0,,,,,,1.0,,,,10.0,,KIGQ 092255Z AUTO 27006KT 10SM CLR M06/M10 A3052 RMK AO2  T10591096,,,,,,14.05,,W,29.86,30.35,,Clear
KIGQ,12/09/2016 23:15 UTC,30.53,21.2,14.72,73.25,6.91,270.0,,,,,,1.0,,,,10.0,,KIGQ 092315Z AUTO 27006KT 10SM CLR M06/M10 A3053 RMK AO2  T10601096,,,,,,13.88,,W,29.87,30.37,,Clear
KIGQ,12/09/2016 23:35 UTC,30.53,21.2,14.72,73.25,6.91,270.0,,,,,,1.0,,,,10.0,,KIGQ 092335Z AUTO 27006KT 10SM CLR M06/M10 A3053 RMK AO2  T10601096,,,,,,13.88,,W,29.87,30.37,,Clear
KIGQ,12/09/2016 23:55 UTC,30.53,20.3,14.54,73.25,4.61,280.0,,,,,,1.0,,,,10.0,,KIGQ 092355Z AUTO 28004KT 10SM CLR M06/M10 A3053 RMK AO2 T10651097  11036 21065,25.52,20.3,,,,13.01,,W,29.87,30.37,,Clear
KIGQ,12/10/2016 00:15 UTC,30.53,19.04,14.0,79.1,4.61,250.0,,,,,,1.0,,,,10.0,,KIGQ 100015Z AUTO 25004KT 10SM CLR M07/M10 A3053 RMK AO2  T10721100,,,,,,13.55,,WSW,29.87,30.38,,Clear
KIGQ,12/10/2016 00:35 UTC,30.53,18.86,14.0,79.1,4.61,260.0,,,,,,1.0,,,,10.0,,KIGQ 100035Z AUTO 26004KT 10SM CLR M07/M10 A3053 RMK AO2  T10731100,,,,,,13.38,,W,29.87,30.38,,Clear
KIGQ,12/10/2016 00:55 UTC,30.53,18.14,13.64,85.47,5.75,260.0,,,,,,1.0,,,,10.0,,KIGQ 100055Z AUTO 26005KT 10SM CLR M08/M10 A3053 RMK AO2  T10771102,,,,,,14.46,,W,29.87,30.38,,Clear
KIGQ,12/10/2016 01:15 UTC,30.53,18.5,14.0,79.1,6.91,270.0,,,,,,1.0,,,,10.0,,KIGQ 100115Z AUTO 27006KT 10SM CLR M07/M10 A3053 RMK AO2  T10751100,,,,,,13.03,,W,29.87,30.38,,Clear
KIGQ,12/10/2016 01:35 UTC,30.53,18.14,13.82,85.47,4.61,260.0,,,,,,1.0,,,,10.0,,KIGQ 100135Z AUTO 26004KT 10SM CLR M08/M10 A3053 RMK AO2  T10771101,,,,,,14.46,,W,29.87,30.38,,Clear
KIGQ,12/10/2016 01:55 UTC,30.53,17.96,13.82,85.47,4.61,260.0,,,,,,1.0,,,,10.0,,KIGQ 100155Z AUTO 26004KT 10SM CLR M08/M10 A3053 RMK AO2  T10781101,,,,,,14.29,,W,29.87,30.38,,Clear
KIGQ,12/10/2016 02:15 UTC,30.53,17.42,13.46,85.47,5.75,260.0,,,,,,1.0,,,,10.0,,KIGQ 100215Z AUTO 26005KT 10SM CLR M08/M10 A3053 RMK AO2  T10811103,,,,,,13.76,,W,29.87,30.38,,Clear
KIGQ,12/10/2016 02:35 UTC,30.52,17.6,13.64,85.47,4.61,260.0,,,,,,1.0,,,,10.0,,KIGQ 100235Z AUTO 26004KT 10SM CLR M08/M10 A3052 RMK AO2  T10801102,,,,,,13.93,,W,29.86,30.37,,Clear
KIGQ,12/10/2016 02:55 UTC,30.52,17.24,13.46,85.47,3.44,250.0,,,,,,1.0,,,,10.0,,KIGQ 100255Z AUTO 25003KT 10SM CLR M08/M10 A3052 RMK AO2  T10821103,,,,,,13.58,,WSW,29.86,30.38,,Clear
KIGQ,12/10/2016 03:15 UTC,30.52,16.88,13.64,85.47,3.44,240.0,,,,,,1.0,,,,10.0,,KIGQ 100315Z AUTO 24003KT 10SM CLR M08/M10 A3052 RMK AO2  T10841102,,,,,,13.23,,WSW,29.86,30.38,,Clear
KIGQ,12/10/2016 03:35 UTC,30.52,17.06,14.0,85.47,4.61,250.0,,,,,,1.0,,,,10.0,,KIGQ 100335Z AUTO 25004KT 10SM CLR M08/M10 A3052 RMK AO2  T10831100,,,,,,13.4,,WSW,29.86,30.38,,Clear
KIGQ,12/10/2016 03:55 UTC,30.52,18.14,14.72,85.47,5.75,250.0,,,,,,1202.0,,,,10.0,,KIGQ 100355Z AUTO 25005KT 10SM SCT120 M08/M10 A3052 RMK AO2  T10771096,,,,,,14.46,,WSW,29.86,30.37,,Partly Cloudy
KIGQ,12/10/2016 04:15 UTC,30.53,18.5,14.9,85.59,5.75,260.0,,,,,,1102.0,,,,10.0,,KIGQ 100415Z AUTO 26005KT 10SM SCT110 M07/M09 A3053 RMK AO2  T10751095,,,,,,14.85,,W,29.87,30.37,,Partly Cloudy
KIGQ,12/10/2016 04:35 UTC,30.53,18.86,14.9,85.59,6.91,260.0,,,,,,1202.0,,,,10.0,,KIGQ 100435Z AUTO 26006KT 10SM SCT120 M07/M09 A3053 RMK AO2  T10731095,,,,,,15.2,,W,29.87,30.37,,Partly Cloudy
KIGQ,12/10/2016 04:55 UTC,30.52,18.86,14.9,85.59,5.75,260.0,,,,,,1202.0,,,,10.0,,KIGQ 100455Z AUTO 26005KT 10SM SCT120 M07/M09 A3052 RMK AO2  T10731095,,,,,,15.2,,W,29.86,30.36,,Partly Cloudy
KIGQ,12/10/2016 05:15 UTC,30.52,18.5,14.9,85.59,6.91,270.0,,,,,,1.0,,,,10.0,,KIGQ 100515Z AUTO 27006KT 10SM CLR M07/M09 A3052 RMK AO2  T10751095,,,,,,14.85,,W,29.86,30.36,,Clear
KIGQ,12/10/2016 05:35 UTC,30.52,18.5,14.9,85.59,5.75,260.0,,,,,,1202.0,,,,10.0,,KIGQ 100535Z AUTO 26005KT 10SM SCT120 M07/M09 A3052 RMK AO2  T10751095,,,,,,14.85,,W,29.86,30.36,,Partly Cloudy
KIGQ,12/10/2016 05:55 UTC,30.52,19.04,15.44,85.59,6.91,260.0,,,,,,1203.0,,,,10.0,,KIGQ 100555Z AUTO 26006KT 10SM BKN120 M07/M09 A3052 RMK AO2  T10721092 11065 21085 410341085,20.3,16.7,12000.0,25.88,16.7,15.38,,W,29.86,30.36,,Mostly Cloudy
KIGQ,12/10/2016 06:15 UTC,30.52,19.22,15.44,85.59,5.75,260.0,,,,,,1102.0,,,,10.0,,KIGQ 100615Z AUTO 26005KT 10SM SCT110 M07/M09 A3052 RMK AO2  T10711092,,,,,,15.56,,W,29.86,30.35,,Partly Cloudy
KIGQ,12/10/2016 06:35 UTC,30.52,19.22,15.44,85.59,5.75,260.0,,,,,,302.0,1102.0,,,10.0,,KIGQ 100635Z AUTO 26005KT 10SM SCT030 SCT110 M07/M09 A3052 RMK AO2  T10711092,,,,,,15.56,,W,29.86,30.35,,Partly Cloudy
KIGQ,12/10/2016 06:55 UTC,30.52,19.4,15.26,85.59,6.91,270.0,,,,,,1103.0,,,,10.0,,KIGQ 100655Z AUTO 27006KT 10SM BKN110 M07/M09 A3052 RMK AO2  T10701093,,,11000.0,,,15.74,,W,29.86,30.35,,Mostly Cloudy
KIGQ,12/10/2016 07:15 UTC,30.52,19.76,14.9,85.59,4.61,290.0,,,,,,903.0,1104.0,,,10.0,,KIGQ 100715Z AUTO 29004KT 10SM BKN090 OVC110 M07/M09 A3052 RMK AO2  T10681095,,,9000.0,,,16.09,,WNW,29.86,30.35,,Overcast
KIGQ,12/10/2016 07:35 UTC,30.52,19.94,15.26,85.59,4.61,280.0,,,,,,312.0,904.0,,,10.0,,KIGQ 100735Z AUTO 28004KT 10SM SCT031 OVC090 M07/M09 A3052 RMK AO2  T10671093,,,9000.0,,,16.27,,W,29.86,30.34,,Overcast
KIGQ,12/10/2016 07:55 UTC,30.52,20.12,15.08,85.59,5.75,280.0,,,,,,312.0,904.0,,,10.0,,KIGQ 100755Z AUTO 28005KT 10SM SCT031 OVC090 M07/M09 A3052 RMK AO2  T10661094,,,9000.0,,,16.44,,W,29.86,30.34,,Overcast
KIGQ,12/10/2016 08:15 UTC,30.52,20.12,15.08,85.59,4.61,270.0,,,,,,903.0,,,,10.0,,KIGQ 100815Z AUTO 27004KT 10SM BKN090 M07/M09 A3052 RMK AO2  T10661094,,,9000.0,,,16.44,,W,29.86,30.34,,Mostly Cloudy
KIGQ,12/10/2016 08:35 UTC,30.53,20.12,15.26,85.59,4.61,280.0,,,,,,293.0,803.0,,,10.0,,KIGQ 100835Z AUTO 28004KT 10SM BKN029 BKN080 M07/M09 A3053 RMK AO2  T10661093,,,2900.0,,,16.44,,W,29.87,30.35,,Mostly Cloudy
KIGQ,12/10/2016 08:55 UTC,30.52,20.3,15.44,79.26,5.75,270.0,,,,,,294.0,,,,10.0,,KIGQ 100855Z AUTO 27005KT 10SM OVC029 M06/M09 A3052 RMK AO2  T10651092,,,2900.0,,,14.83,,W,29.86,30.35,,Overcast
KIGQ,12/10/2016 09:15 UTC,30.52,20.3,15.8,79.26,5.75,250.0,,,,,,294.0,,,,10.0,,KIGQ 100915Z AUTO 25005KT 10SM OVC029 M06/M09 A3052 RMK AO2  T10651090,,,2900.0,,,14.83,,WSW,29.86,30.35,,Overcast
KIGQ,12/10/2016 09:35 UTC,30.52,20.3,15.98,79.26,5.75,260.0,,,,,,274.0,,,,10.0,,KIGQ 100935Z AUTO 26005KT 10SM OVC027 M06/M09 A3052 RMK AO2  T10651089,,,2700.0,,,14.83,,W,29.86,30.35,,Overcast
KIGQ,12/10/2016 09:55 UTC,30.52,20.48,15.8,79.26,6.91,260.0,,,704.0,,,273.0,503.0,,,10.0,,KIGQ 100955Z AUTO 26006KT 10SM BKN027 BKN050 OVC070 M06/M09  A3052 RMK AO2 T10641090,,,2700.0,,,15.0,,W,29.86,30.35,,Overcast
KIGQ,12/10/2016 10:15 UTC,30.52,20.3,15.98,79.26,6.91,260.0,,,504.0,,,253.0,423.0,,,10.0,,KIGQ 101015Z AUTO 26006KT 10SM BKN025 BKN042 OVC050 M06/M09  A3052 RMK AO2 T10651089,,,2500.0,,,14.83,,W,29.86,30.35,,Overcast
KIGQ,12/10/2016 10:35 UTC,30.51,20.66,16.16,79.26,5.75,260.0,,,1204.0,,,252.0,422.0,,,10.0,,KIGQ 101035Z AUTO 26005KT 10SM SCT025 SCT042 OVC120 M06/M09  A3051 RMK AO2 T10631088,,,12000.0,,,15.18,,W,29.85,30.34,,Overcast
KIGQ,12/10/2016 10:55 UTC,30.52,20.66,16.16,79.26,5.75,270.0,,,,,,242.0,1104.0,,,10.0,,KIGQ 101055Z AUTO 27005KT 10SM SCT024 OVC110 M06/M09 A3052 RMK AO2  T10631088,,,11000.0,,,15.18,,W,29.86,30.35,,Overcast
KIGQ,12/10/2016 11:15 UTC,30.52,20.48,16.52,79.26,5.75,260.0,,,,,,242.0,1004.0,,,10.0,,KIGQ 101115Z AUTO 26005KT 10SM SCT024 OVC100 M06/M09 A3052 RMK AO2  T10641086,,,10000.0,,,15.0,,W,29.86,30.35,,Overcast
KIGQ,12/10/2016 11:35 UTC,30.52,20.3,16.52,79.26,5.75,260.0,,,,,,1004.0,,,,10.0,,KIGQ 101135Z AUTO 26005KT 10SM OVC100 M06/M09 A3052 RMK AO2  T10651086,,,10000.0,,,14.83,,W,29.86,30.35,,Overcast
KIGQ,12/10/2016 11:55 UTC,30.53,20.3,16.52,79.26,8.05,270.0,,,,,,1004.0,,,,10.0,,KIGQ 101155Z AUTO 27007KT 10SM OVC100 M06/M09 A3053 RMK AO2  T10651086 11063 21072,20.66,19.04,10000.0,,,14.83,13.33,W,29.87,30.36,,Overcast
KIGQ,12/10/2016 12:15 UTC,30.52,20.3,16.16,79.26,8.05,280.0,,,,,,1104.0,,,,10.0,,KIGQ 101215Z AUTO 28007KT 10SM OVC110 M06/M09 A3052 RMK AO2  T10651088,,,11000.0,,,14.83,13.33,W,29.86,30.35,,Overcast
KIGQ,12/10/2016 12:35 UTC,30.52,20.12,16.52,85.59,8.05,260.0,,,,,,1004.0,,,,10.0,,KIGQ 101235Z AUTO 26007KT 10SM OVC100 M07/M09 A3052 RMK AO2  T10661086,,,10000.0,,,16.44,13.12,W,29.86,30.34,,Overcast
KIGQ,12/10/2016 12:55 UTC,30.52,19.58,15.98,85.59,9.22,250.0,,,,,,1004.0,,,,10.0,,KIGQ 101255Z AUTO 25008KT 10SM OVC100 M07/M09 A3052 RMK AO2  T10691089,,,10000.0,,,15.91,11.71,WSW,29.86,30.35,,Overcast
KIGQ,12/10/2016 13:15 UTC,30.52,19.76,16.16,85.59,9.22,250.0,,,,,,1004.0,,,,10.0,,KIGQ 101315Z AUTO 25008KT 10SM OVC100 M07/M09 A3052 RMK AO2  T10681088,,,10000.0,,,16.09,11.92,WSW,29.86,30.35,,Overcast
KIGQ,12/10/2016 13:35 UTC,30.52,20.12,16.52,85.59,6.91,270.0,,,,,,904.0,,,,10.0,,KIGQ 101335Z AUTO 27006KT 10SM OVC090 M07/M09 A3052 RMK AO2  T10661086,,,9000.0,,,16.44,,W,29.86,30.34,,Overcast
KIGQ,12/10/2016 13:55 UTC,30.53,20.3,16.7,85.71,6.91,290.0,,,,,,904.0,,,,10.0,,KIGQ 101355Z AUTO 29006KT 10SM OVC090 M06/M08 A3053 RMK AO2  T10651085,,,9000.0,,,16.65,,WNW,29.87,30.35,,Overcast
KIGQ,12/10/2016 14:15 UTC,30.54,20.3,16.16,79.26,8.05,280.0,,,,,,904.0,,,,10.0,,KIGQ 101415Z AUTO 28007KT 10SM OVC090 M06/M09 A3054 RMK AO2  T10651088,,,9000.0,,,14.83,13.33,W,29.88,30.37,,Overcast
KIGQ,12/10/2016 14:35 UTC,30.54,20.48,15.8,79.26,9.22,270.0,,,,,,904.0,,,,10.0,,KIGQ 101435Z AUTO 27008KT 10SM OVC090 M06/M09 A3054 RMK AO2  T10641090,,,9000.0,,,15.0,12.78,W,29.88,30.37,,Overcast
KIGQ,12/10/2016 14:55 UTC,30.54,21.02,15.98,79.26,6.91,280.0,,,,,,904.0,,,,10.0,,KIGQ 101455Z AUTO 28006KT 10SM OVC090 M06/M09 A3054 RMK AO2  T10611089,,,9000.0,,,15.53,,W,29.88,30.36,,Overcast
KIGQ,12/10/2016 15:15 UTC,30.54,21.2,15.98,79.26,6.91,270.0,,,,,,904.0,,,,10.0,,KIGQ 101515Z AUTO 27006KT 10SM OVC090 M06/M09 A3054 RMK AO2  T10601089,,,9000.0,,,15.71,,W,29.88,30.36,,Overcast
KIGQ,12/10/2016 15:35 UTC,30.54,21.74,15.8,79.26,5.75,250.0,,,,,,903.0,,,,10.0,,KIGQ 101535Z AUTO 25005KT 10SM BKN090 M06/M09 A3054 RMK AO2  T10571090,,,9000.0,,,16.23,,WSW,29.88,30.36,,Mostly Cloudy
KIGQ,12/10/2016 15:55 UTC,30.54,22.1,15.8,73.45,8.05,250.0,,,,,,903.0,,,,10.0,,KIGQ 101555Z AUTO 25007KT 10SM BKN090 M05/M09 A3054 RMK AO2  T10551090,,,9000.0,,,14.81,15.45,WSW,29.88,30.36,,Mostly Cloudy
KIGQ,12/10/2016 16:15 UTC,30.54,22.82,15.44,73.45,5.75,250.0,,,,,,902.0,,,,10.0,,KIGQ 101615Z AUTO 25005KT 10SM SCT090 M05/M09 A3054 RMK AO2  T10511092,,,,,,15.5,,WSW,29.88,30.36,,Partly Cloudy
KIGQ,12/10/2016 16:35 UTC,30.52,23.0,15.44,73.45,9.22,270.0,,,,,,1.0,,,,10.0,,KIGQ 101635Z AUTO 27008KT 10SM CLR M05/M09 A3052 RMK AO2  T10501092,,,,,,15.68,15.77,W,29.86,30.33,,Clear
KIGQ,12/10/2016 16:55 UTC,30.52,23.72,16.52,73.45,9.22,250.0,,,,,,1.0,,,,10.0,,KIGQ 101655Z AUTO 25008KT 10SM CLR M05/M09 A3052 RMK AO2  T10461086,,,,,,16.37,16.62,WSW,29.86,30.33,,Clear
KIGQ,12/10/2016 17:15 UTC,30.51,23.54,16.34,73.45,10.36,240.0,,,,,,1.0,,,,10.0,,KIGQ 101715Z AUTO 24009KT 10SM CLR M05/M09 A3051 RMK AO2  T10471087,,,,,,16.2,15.77,WSW,29.85,30.32,,Clear
KIGQ,12/10/2016 17:35 UTC,30.5,23.36,16.16,73.45,8.05,230.0,,,,,,242.0,,,,10.0,,KIGQ 101735Z AUTO 23007KT 10SM SCT024 M05/M09 A3050 RMK AO2  T10481088,,,,,,16.03,16.93,SW,29.84,30.31,,Partly Cloudy
KIGQ,12/10/2016 17:55 UTC,30.49,23.9,16.16,68.11,11.5,240.0,,,,,,1.0,,,,10.0,,KIGQ 101755Z AUTO 24010KT 10SM CLR M04/M09 A3049 RMK AO2 T10451088  11045 21070,23.9,19.4,,,,14.79,15.62,WSW,29.83,30.31,,Clear
KIGQ,12/10/2016 18:15 UTC,30.49,23.9,15.8,68.11,6.91,230.0,10.36,,,,,702.0,,,,10.0,,KIGQ 101815Z AUTO 23006G09KT 10SM SCT070 M04/M09 A3049 RMK AO2  T10451090,,,,,,14.79,,SW,29.83,30.31,,Partly Cloudy
KIGQ,12/10/2016 18:35 UTC,30.47,24.44,16.52,68.11,8.05,230.0,,,,,,703.0,,,,10.0,,KIGQ 101835Z AUTO 23007KT 10SM BKN070 M04/M09 A3047 RMK AO2  T10421086,,,7000.0,,,15.31,18.2,SW,29.81,30.28,,Mostly Cloudy
KIGQ,12/10/2016 18:55 UTC,30.47,23.9,16.34,68.11,6.91,240.0,,,,,,703.0,,,,10.0,,KIGQ 101855Z AUTO 24006KT 10SM BKN070 M04/M09 A3047 RMK AO2  T10451087,,,7000.0,,,14.79,,WSW,29.81,30.28,,Mostly Cloudy
KIGQ,12/10/2016 19:15 UTC,30.46,23.9,16.16,68.11,5.75,240.0,,,,,,702.0,903.0,,,10.0,,KIGQ 101915Z AUTO 24005KT 10SM SCT070 BKN090 M04/M09 A3046 RMK AO2  T10451088,,,9000.0,,,14.79,,WSW,29.8,30.27,,Mostly Cloudy
KIGQ,12/10/2016 19:35 UTC,30.46,24.26,15.98,68.11,6.91,270.0,,,,,,804.0,,,,10.0,,KIGQ 101935Z AUTO 27006KT 10SM OVC080 M04/M09 A3046 RMK AO2  T10431089,,,8000.0,,,15.14,,W,29.8,30.27,,Overcast
KIGQ,12/10/2016 19:55 UTC,30.45,23.9,15.98,68.11,5.75,240.0,,,804.0,,,602.0,703.0,,,10.0,,KIGQ 101955Z AUTO 24005KT 10SM SCT060 BKN070 OVC080 M04/M09  A3045 RMK AO2 T10451089,,,7000.0,,,14.79,,WSW,29.79,30.26,,Overcast
KIGQ,12/10/2016 20:15 UTC,30.44,24.26,16.16,68.11,5.75,230.0,,,,,,602.0,704.0,,,10.0,,KIGQ 102015Z AUTO 23005KT 10SM SCT060 OVC070 M04/M09 A3044 RMK AO2  T10431088,,,7000.0,,,15.14,,SW,29.78,30.25,,Overcast
KIGQ,12/10/2016 20:35 UTC,30.43,24.26,17.06,73.65,8.05,190.0,,,,,,552.0,704.0,,,10.0,,KIGQ 102035Z AUTO 19007KT 10SM SCT055 OVC070 M04/M08 A3043 RMK AO2  T10431083,,,7000.0,,,16.96,17.98,S,29.77,30.23,,Overcast
KIGQ,12/10/2016 20:55 UTC,30.44,23.9,16.7,73.65,5.75,210.0,,,,,,604.0,,,,10.0,,KIGQ 102055Z AUTO 21005KT 10SM OVC060 M04/M08 A3044 RMK AO2  T10451085,,,6000.0,,,16.61,,SSW,29.78,30.24,,Overcast
KIGQ,12/10/2016 21:15 UTC,30.43,23.9,16.88,73.65,5.75,190.0,,,,,,654.0,,,,10.0,,KIGQ 102115Z AUTO 19005KT 10SM OVC065 M04/M08 A3043 RMK AO2  T10451084,,,6500.0,,,16.61,,S,29.77,30.23,,Overcast
KIGQ,12/10/2016 21:35 UTC,30.43,23.72,17.24,79.42,5.75,200.0,,,,,,554.0,,,,10.0,,KIGQ 102135Z AUTO 20005KT 10SM OVC055 M05/M08 A3043 RMK AO2  T10461082,,,5500.0,,,18.21,,SSW,29.77,30.22,,Overcast
KIGQ,12/10/2016 21:55 UTC,30.43,23.72,17.42,79.42,9.22,200.0,,,,,,553.0,704.0,,,10.0,,KIGQ 102155Z AUTO 20008KT 10SM BKN055 OVC070 M05/M08 A3043 RMK AO2  T10461081,,,5500.0,,,18.21,16.62,SSW,29.77,30.22,,Overcast
KIGQ,12/10/2016 22:15 UTC,30.44,23.54,18.5,85.82,8.05,220.0,,20.0,,,,423.0,504.0,,,5.0,,KIGQ 102215Z AUTO 22007KT 5SM -SN BKN042 OVC050 M05/M07 A3044 RMK AO2 T10471075,,,4200.0,,,19.87,17.14,SW,29.78,30.22,,Light Snow
KIGQ,12/10/2016 22:35 UTC,30.44,23.36,19.4,85.82,5.75,210.0,,20.0,,,,402.0,474.0,,,5.0,,KIGQ 102235Z AUTO 21005KT 5SM -SN SCT040 OVC047 M05/M07 A3044 RMK AO2 T10481070,,,4700.0,,,19.69,,SSW,29.78,30.22,,Light Snow
KIGQ,12/10/2016 22:55 UTC,30.44,23.36,20.3,92.67,5.75,210.0,,20.0,474.0,,,333.0,403.0,,,3.0,,KIGQ 102255Z AUTO 21005KT 3SM -SN BKN033 BKN040 OVC047 M05/M06  A3044 RMK AO2 T10481065,,,3300.0,,,21.52,,SSW,29.78,30.2,,Light Snow
KIGQ,12/10/2016 23:15 UTC,30.44,23.0,20.66,92.67,5.75,200.0,,20.0,,,,354.0,,,,3.0,,KIGQ 102315Z AUTO 20005KT 3SM -SN OVC035 M05/M06 A3044 RMK AO2  T10501063,,,3500.0,,,21.17,,SSW,29.78,30.21,,Light Snow
KIGQ,12/10/2016 23:35 UTC,30.43,22.82,20.48,92.67,4.61,210.0,,20.0,,,,334.0,,,,3.0,,KIGQ 102335Z AUTO 21004KT 3SM -SN OVC033 M05/M06 A3043 RMK AO2  T10511064,,,3300.0,,,20.99,,SSW,29.77,30.2,,Light Snow
KIGQ,12/10/2016 23:55 UTC,30.42,22.64,20.3,92.67,4.61,200.0,,20.0,,,,274.0,,,,2.5,,KIGQ 102355Z AUTO 20004KT 2 1/2SM -SN OVC027 M05/M06 A3042 RMK AO2  T10521065 11042 21052,24.44,22.64,2700.0,,,20.81,,SSW,29.76,30.19,,Light Snow
KIGQ,12/11/2016 00:15 UTC,30.41,22.1,20.66,92.67,3.44,190.0,,20.0,,,,254.0,,,,2.0,,KIGQ 110015Z AUTO 19003KT 2SM -SN OVC025 M05/M06 A3041 RMK AO2 VIS  1V3 T10551063,,,2500.0,,,20.28,,S,29.75,30.19,,Light Snow
KIGQ,12/11/2016 00:35 UTC,30.4,22.1,21.2,92.67,3.44,180.0,,20.0,,,,234.0,,,,2.0,,KIGQ 110035Z AUTO 18003KT 2SM -SN OVC023 M05/M06 A3040 RMK AO2  T10551060,,,2300.0,,,20.28,,S,29.74,30.18,,Light Snow
KIGQ,12/11/2016 00:55 UTC,30.4,21.92,21.2,100.0,3.44,170.0,,20.0,,,,234.0,,,,1.75,,KIGQ 110055Z AUTO 17003KT 1 3/4SM -SN OVC023 M06/M06 A3040 RMK AO2  T10561060,,,2300.0,,,21.92,,S,29.74,30.17,,Light Snow
KIGQ,12/11/2016 01:15 UTC,30.4,22.1,21.2,92.67,3.44,160.0,,3.0,,,,164.0,,,,1.0,,KIGQ 110115Z AUTO 16003KT 1SM SN OVC016 M05/M06 A3040 RMK AO2  T10551060,,,1600.0,,,20.28,,SSE,29.74,30.18,,Snow
KIGQ,12/11/2016 01:35 UTC,30.39,22.1,21.56,92.67,3.44,150.0,,20.0,,,,144.0,,,,1.25,,KIGQ 110135Z AUTO 15003KT 1 1/4SM -SN OVC014 M05/M06 A3039 RMK AO2  T10551058,,,1400.0,,,20.28,,SSE,29.73,30.17,,Light Snow
KIGQ,12/11/2016 01:55 UTC,30.37,22.1,21.74,92.67,4.61,130.0,,3.0,,0.01,,104.0,,,,1.0,,KIGQ 110155Z AUTO 13004KT 1SM SN OVC010 M05/M06 A3037 RMK AO2  P0001 T10551057,,,1000.0,,,20.28,,SE,29.71,30.15,,Snow
KIGQ,12/11/2016 02:15 UTC,30.36,22.1,21.92,92.67,3.44,140.0,,20.0,,,,103.0,144.0,,,1.5,,KIGQ 110215Z AUTO 14003KT 1 1/2SM -SN BKN010 OVC014 M05/M06  A3036 RMK AO2 T10551056,,,1000.0,,,20.28,,SE,29.7,30.14,,Light Snow
KIGQ,12/11/2016 02:35 UTC,30.34,22.28,22.1,100.0,4.61,120.0,,20.0,,,,173.0,224.0,,,2.0,,KIGQ 110235Z AUTO 12004KT 2SM -SN BKN017 OVC022 M05/M05 A3034 RMK AO2 T10541055,,,1700.0,,,22.28,,ESE,29.68,30.1,,Light Snow
KIGQ,12/11/2016 02:55 UTC,30.34,22.64,22.1,100.0,4.61,150.0,,20.0,,,,233.0,354.0,,,3.0,,KIGQ 110255Z AUTO 15004KT 3SM -SN BKN023 OVC035 M05/M05 A3034 RMK AO2 60001 T10521055,,,2300.0,,,22.64,,SSE,29.68,30.09,,Light Snow
KIGQ,12/11/2016 03:15 UTC,30.34,22.64,22.1,100.0,4.61,160.0,,20.0,,,,194.0,,,,1.5,,KIGQ 110315Z AUTO 16004KT 1 1/2SM -SN OVC019 M05/M05 A3034 RMK AO2  T10521055,,,1900.0,,,22.64,,SSE,29.68,30.09,,Light Snow
KIGQ,12/11/2016 03:35 UTC,30.33,23.0,22.46,100.0,5.75,150.0,,20.0,,,,193.0,804.0,,,2.5,,KIGQ 110335Z AUTO 15005KT 2 1/2SM -SN BKN019 OVC080 M05/M05  A3033 RMK AO2 T10501053,,,1900.0,,,23.0,,SSE,29.67,30.08,,Light Snow
KIGQ,12/11/2016 03:55 UTC,30.33,23.0,22.46,100.0,5.75,150.0,,20.0,804.0,,,192.0,703.0,,,5.0,,KIGQ 110355Z AUTO 15005KT 5SM -SN SCT019 BKN070 OVC080 M05/M05  A3033 RMK AO2 T10501053,,,7000.0,,,23.0,,SSE,29.67,30.08,,Light Snow
KIGQ,12/11/2016 04:15 UTC,30.32,23.18,22.64,100.0,6.91,160.0,,20.0,,,,503.0,704.0,,,4.0,,KIGQ 110415Z AUTO 16006KT 4SM -SN BKN050 OVC070 M05/M05 A3032 RMK AO2 T10491052,,,5000.0,,,23.18,,SSE,29.66,30.07,,Light Snow
KIGQ,12/11/2016 04:35 UTC,30.32,23.72,22.64,100.0,8.05,170.0,,20.0,,,,503.0,804.0,,,5.0,,KIGQ 110435Z AUTO 17007KT 5SM -SN BKN050 OVC080 M05/M05 A3032 RMK AO2 T10461052,,,5000.0,,,23.72,17.35,S,29.66,30.06,,Light Snow
KIGQ,12/11/2016 04:55 UTC,30.32,23.9,22.64,92.73,6.91,160.0,,20.0,804.0,,,122.0,503.0,,,5.0,,KIGQ 110455Z AUTO 16006KT 5SM -SN SCT012 BKN050 OVC080 M04/M05  A3032 RMK AO2 T10451052,,,5000.0,,,22.08,,SSE,29.66,30.07,,Light Snow
KIGQ,12/11/2016 05:20 UTC,30.32,23.9,22.82,92.73,6.91,160.0,,,424.0,,,123.0,163.0,,,10.0,,KIGQ 110520Z AUTO 16006KT 10SM BKN012 BKN016 OVC042 M04/M05  A3032 RMK AO2 T10451051,,,1200.0,,,22.08,,SSE,29.66,30.07,,Overcast
KIGQ,12/11/2016 05:35 UTC,30.3,23.9,22.64,92.73,10.36,160.0,,20.0,444.0,,,122.0,302.0,,,7.0,,KIGQ 110535Z AUTO 16009KT 7SM -SN SCT012 SCT030 OVC044 M04/M05  A3030 RMK AO2 T10451052,,,4400.0,,,22.08,16.2,SSE,29.64,30.05,,Light Snow
KIGQ,12/11/2016 05:55 UTC,30.29,23.9,22.46,92.73,10.36,150.0,,20.0,,,,464.0,,,,10.0,,KIGQ 110555Z AUTO 15009KT 10SM -SN OVC046 M04/M05 A3029 RMK AO2  60001 T10451053 11045 21056 410421072,23.9,21.92,4600.0,24.44,19.04,22.08,16.2,SSE,29.63,30.04,,Light Snow
KIGQ,12/11/2016 06:15 UTC,30.28,23.9,22.46,92.73,8.05,150.0,,20.0,494.0,,,222.0,303.0,,,3.0,,KIGQ 110615Z AUTO 15007KT 3SM -SN SCT022 BKN030 OVC049 M04/M05  A3028 RMK AO2 T10451053,,,3000.0,,,22.08,17.56,SSE,29.62,30.03,,Light Snow
KIGQ,12/11/2016 06:35 UTC,30.27,23.9,22.82,92.73,6.91,150.0,,20.0,,,,233.0,304.0,,,2.5,,KIGQ 110635Z AUTO 15006KT 2 1/2SM -SN BKN023 OVC030 M04/M05  A3027 RMK AO2 T10451051,,,2300.0,,,22.08,,SSE,29.61,30.02,,Light Snow
KIGQ,12/11/2016 06:55 UTC,30.26,23.9,23.0,92.73,6.91,150.0,,20.0,,,,92.0,214.0,,,2.0,,KIGQ 110655Z AUTO 15006KT 2SM -SN SCT009 OVC021 M04/M05 A3026 RMK AO2 T10451050,,,2100.0,,,22.08,,SSE,29.6,30.01,,Light Snow
KIGQ,12/11/2016 07:15 UTC,30.26,23.9,23.0,92.73,8.05,140.0,,20.0,314.0,,,132.0,213.0,,,2.5,,KIGQ 110715Z AUTO 14007KT 2 1/2SM -SN SCT013 BKN021 OVC031 M04/M05  A3026 RMK AO2 T10451050,,,2100.0,,,22.08,17.56,SE,29.6,30.01,,Light Snow
KIGQ,12/11/2016 07:35 UTC,30.25,24.08,23.36,92.73,9.22,130.0,,20.0,294.0,,,132.0,213.0,,,2.0,,KIGQ 110735Z AUTO 13008KT 2SM -SN SCT013 BKN021 OVC029 M04/M05  A3025 RMK AO2 T10441048,,,2100.0,,,22.25,17.05,SE,29.59,30.0,,Light Snow
KIGQ,12/11/2016 07:55 UTC,30.24,24.44,23.36,92.73,6.91,140.0,,,554.0,,,112.0,463.0,,,7.0,,KIGQ 110755Z AUTO 14006KT 7SM SCT011 BKN046 OVC055 M04/M05  A3024 RMK AO2 T10421048,,,4600.0,,,22.61,,SE,29.58,29.98,,Overcast
KIGQ,12/11/2016 08:15 UTC,30.24,24.8,23.54,92.73,9.22,140.0,16.11,20.0,484.0,,,213.0,293.0,,,2.5,,KIGQ 110815Z AUTO 14008G14KT 2 1/2SM -SN BKN021 BKN029 OVC048  M04/M05 A3024 RMK AO2 T10401047,,,2100.0,,,22.97,17.9,SE,29.58,29.98,,Light Snow
KIGQ,12/11/2016 08:35 UTC,30.22,24.8,23.9,100.0,12.66,140.0,,20.0,214.0,,,92.0,153.0,,,2.0,,KIGQ 110835Z AUTO 14011KT 2SM -SN SCT009 BKN015 OVC021 M04/M04  A3022 RMK AO2 T10401045,,,1500.0,,,24.8,16.17,SE,29.56,29.94,,Light Snow
KIGQ,12/11/2016 08:55 UTC,30.21,24.8,23.72,92.73,10.36,130.0,,20.0,654.0,,,192.0,473.0,,,3.0,,KIGQ 110855Z AUTO 13009KT 3SM -SN SCT019 BKN047 OVC065 M04/M05  A3021 RMK AO2 T10401046,,,4700.0,,,22.97,17.28,SE,29.55,29.95,,Light Snow
KIGQ,12/11/2016 09:15 UTC,30.2,24.98,23.9,100.0,10.36,130.0,,20.0,454.0,,,123.0,203.0,,,1.5,,KIGQ 110915Z AUTO 13009KT 1 1/2SM -SN BKN012 BKN020 OVC045 M04/M04  A3020 RMK AO2 T10391045,,,1200.0,,,24.98,17.49,SE,29.54,29.91,,Light Snow
KIGQ,12/11/2016 09:35 UTC,30.18,24.8,24.08,97.03,10.36,130.0,,20.0,654.0,,,82.0,193.0,,,3.0,,KIGQ 110935Z AUTO 13009KT 3SM -SN SCT008 BKN019 OVC065 M04/M04  A3018 RMK AO2 T10401044,,,1900.0,,,24.07,17.28,SE,29.52,29.9,,Light Snow
KIGQ,12/11/2016 09:55 UTC,30.18,25.34,23.9,100.0,8.05,130.0,,,754.0,,,102.0,653.0,,,10.0,,KIGQ 110955Z AUTO 13007KT 10SM SCT010 BKN065 OVC075 M04/M04  A3018 RMK AO2 T10371045,,,6500.0,,,25.34,19.25,SE,29.52,29.89,,Overcast
KIGQ,12/11/2016 10:15 UTC,30.16,25.34,23.9,94.16,6.91,120.0,,,754.0,,,252.0,493.0,,,10.0,,KIGQ 111015Z AUTO 12006KT 10SM SCT025 BKN049 OVC075 M04/M04 A3016 RMK AO2 T10371045,,,4900.0,,,23.87,,ESE,29.5,29.88,,Overcast
KIGQ,12/11/2016 10:35 UTC,30.15,25.52,23.9,100.0,11.5,140.0,,20.0,654.0,,,452.0,502.0,,,7.0,,KIGQ 111035Z AUTO 14010KT 7SM -SN SCT045 SCT050 OVC065 M04/M04  A3015 RMK AO2 T10361045,,,6500.0,,,25.52,17.58,SE,29.49,29.85,,Light Snow
KIGQ,12/11/2016 10:55 UTC,30.15,25.7,24.44,92.79,8.05,150.0,,20.0,654.0,,,122.0,393.0,,,7.0,,KIGQ 111055Z AUTO 15007KT 7SM -SN SCT012 BKN039 OVC065 M03/M04  A3015 RMK AO2 T10351042,,,3900.0,,,23.88,19.68,SSE,29.49,29.87,,Light Snow
KIGQ,12/11/2016 11:15 UTC,30.14,25.88,24.62,92.79,5.75,170.0,10.36,20.0,654.0,,,102.0,413.0,,,5.0,,KIGQ 111115Z AUTO 17005G09KT 5SM -SN SCT010 BKN041 OVC065 M03/M04  A3014 RMK AO2 T10341041,,,4100.0,,,24.05,,S,29.48,29.86,,Light Snow
KIGQ,12/11/2016 11:35 UTC,30.12,26.06,24.8,92.79,12.66,150.0,16.11,20.0,554.0,,,102.0,473.0,,,5.0,,KIGQ 111135Z AUTO 15011G14KT 5SM -SN SCT010 BKN047 OVC055 M03/M04  A3012 RMK AO2 T10331040,,,4700.0,,,24.23,17.71,SSE,29.47,29.84,,Light Snow
KIGQ,12/11/2016 11:55 UTC,30.11,26.24,24.8,92.79,11.5,140.0,,20.0,,,,363.0,474.0,,0.01,7.0,,KIGQ 111155Z AUTO 14010KT 7SM -SN BKN036 OVC047 M03/M04 A3011 RMK AO2 70001 T10321040 11032 21046,26.24,23.72,3600.0,,,24.41,18.45,SE,29.46,29.83,,Light Snow
KIGQ,12/11/2016 12:15 UTC,30.1,26.6,24.8,92.79,14.97,140.0,,41.0,,,,364.0,,,,10.0,,KIGQ 111215Z AUTO 14013KT 10SM UP OVC036 M03/M04 A3010 RMK AO2  T10301040,,,3600.0,,,24.77,17.44,SE,29.45,29.82,,Unknown Precip
KIGQ,12/11/2016 12:35 UTC,30.08,26.6,24.98,92.79,11.5,140.0,16.11,20.0,,,,112.0,364.0,,,4.0,,KIGQ 111235Z AUTO 14010G14KT 4SM -SN SCT011 OVC036 M03/M04  A3008 RMK AO2 T10301039,,,3600.0,,,24.77,18.88,SE,29.43,29.79,,Light Snow
KIGQ,12/11/2016 12:55 UTC,30.08,26.42,25.34,92.79,13.8,140.0,18.41,20.0,384.0,,,92.0,233.0,,,2.5,,KIGQ 111255Z AUTO 14012G16KT 2 1/2SM -SN SCT009 BKN023 OVC038  M03/M04 A3008 RMK AO2 T10311037,,,2300.0,,,24.59,17.67,SE,29.43,29.8,,Light Snow
KIGQ,12/11/2016 13:15 UTC,30.06,26.6,25.7,100.0,12.66,150.0,18.41,20.0,314.0,,,93.0,143.0,,,2.5,,KIGQ 111315Z AUTO 15011G16KT 2 1/2SM -SN BKN009 BKN014 OVC031  M03/M03 A3006 RMK AO2 T10301035,,,900.0,,,26.6,18.36,SSE,29.41,29.75,,Light Snow
KIGQ,12/11/2016 13:35 UTC,30.06,26.6,25.7,100.0,11.5,140.0,17.27,20.0,,,,94.0,,,,1.0,,KIGQ 111335Z AUTO 14010G15KT 1SM -SN OVC009 M03/M03 A3006 RMK AO2  T10301035,,,900.0,,,26.6,18.88,SE,29.41,29.75,,Light Snow
KIGQ,12/11/2016 13:55 UTC,30.05,27.14,26.42,100.0,10.36,140.0,,20.0,434.0,,,73.0,123.0,,,1.75,,KIGQ 111355Z AUTO 14009KT 1 3/4SM -SN BKN007 BKN012 OVC043 M03/M03  A3005 RMK AO2 T10271031,,,700.0,,,27.14,20.08,SE,29.4,29.73,,Light Snow
KIGQ,12/11/2016 14:15 UTC,30.05,27.5,26.42,92.85,10.36,150.0,,20.0,504.0,,,72.0,413.0,,,5.0,,KIGQ 111415Z AUTO 15009KT 5SM -SN SCT007 BKN041 OVC050 M02/M03  A3005 RMK AO2 T10251031,,,4100.0,,,25.68,20.51,SSE,29.4,29.75,,Light Snow
KIGQ,12/11/2016 14:35 UTC,30.04,27.68,26.42,92.85,10.36,140.0,,,504.0,,,113.0,413.0,,,7.0,,KIGQ 111435Z AUTO 14009KT 7SM BKN011 BKN041 OVC050 M02/M03  A3004 RMK AO2 T10241031,,,1100.0,,,25.86,20.73,SE,29.39,29.74,,Overcast
KIGQ,12/11/2016 14:55 UTC,30.03,28.04,26.42,92.85,10.36,150.0,,,,,,112.0,414.0,,,7.0,,KIGQ 111455Z AUTO 15009KT 7SM SCT011 OVC041 M02/M03 A3003 RMK AO2  T10221031,,,4100.0,,,26.21,21.16,SSE,29.38,29.72,,Overcast
KIGQ,12/11/2016 15:15 UTC,30.03,28.94,26.6,92.85,10.36,160.0,17.27,,,,,312.0,414.0,,,10.0,,KIGQ 111515Z AUTO 16009G15KT 10SM SCT031 OVC041 M02/M03 A3003 RMK AO2 T10171030,,,4100.0,,,27.1,22.24,SSE,29.38,29.7,,Overcast
KIGQ,12/11/2016 15:35 UTC,30.03,29.3,26.96,90.83,10.36,170.0,18.41,,414.0,,,162.0,313.0,,,10.0,,KIGQ 111535Z AUTO 17009G16KT 10SM SCT016 BKN031 OVC041 M01/M03  A3003 RMK AO2 T10151028,,,3100.0,,,26.92,22.67,S,29.38,29.7,,Overcast
KIGQ,12/11/2016 15:55 UTC,30.02,29.66,27.5,92.91,11.5,170.0,,,,,,142.0,284.0,,,7.0,,KIGQ 111555Z AUTO 17010KT 7SM SCT014 OVC028 M01/M02 A3002 RMK AO2  T10131025,,,2800.0,,,27.83,22.57,S,29.37,29.68,,Overcast
KIGQ,12/11/2016 16:15 UTC,30.01,29.84,28.76,92.91,12.66,170.0,,20.0,254.0,,,52.0,103.0,,,1.25,,KIGQ 111615Z AUTO 17011KT 1 1/4SM -SN SCT005 BKN010 OVC025 M01/M02  A3001 RMK AO2 T10121018,,,1000.0,,,28.01,22.3,S,29.36,29.67,,Light Snow
KIGQ,12/11/2016 16:35 UTC,29.99,30.2,29.3,100.0,9.22,170.0,,20.0,354.0,,,103.0,133.0,,,4.0,,KIGQ 111635Z AUTO 17008KT 4SM -SN BKN010 BKN013 OVC035 M01/M01  A2999 RMK AO2 T10101015,,,1000.0,,,30.2,24.31,S,29.34,29.61,,Light Snow
KIGQ,12/11/2016 16:55 UTC,29.98,30.56,29.3,100.0,12.66,170.0,,20.0,354.0,,,103.0,133.0,,,5.0,,KIGQ 111655Z AUTO 17011KT 5SM -SN BKN010 BKN013 OVC035 M01/M01  A2998 RMK AO2 T10081015,,,1000.0,,,30.56,23.18,S,29.33,29.6,,Light Snow
KIGQ,12/11/2016 17:15 UTC,29.95,30.74,30.02,100.0,12.66,170.0,,20.0,,,,42.0,84.0,,,1.25,,KIGQ 111715Z AUTO 17011KT 1 1/4SM -SN SCT004 OVC008 M01/M01  A2995 RMK AO2 T10071011,,,800.0,,,30.74,23.4,S,29.3,29.56,,Light Snow
KIGQ,12/11/2016 17:35 UTC,29.94,30.92,30.56,100.0,12.66,170.0,,20.0,,,,84.0,,,,1.5,,KIGQ 111735Z AUTO 17011KT 1 1/2SM -SN OVC008 M01/M01 A2994 RMK AO2  T10061008,,,800.0,,,30.92,23.62,S,29.29,29.55,,Light Snow
KIGQ,12/11/2016 17:55 UTC,29.92,31.1,30.92,92.96,13.8,170.0,,20.0,,,,84.0,,,,2.0,,KIGQ 111755Z AUTO 17012KT 2SM -SN OVC008 00/M01 A2992 RMK AO2  T10051006 11005 21032,31.1,26.24,800.0,,,29.28,23.4,S,29.27,29.55,,Light Snow
KIGQ,12/11/2016 18:15 UTC,29.91,31.46,31.1,100.0,10.36,180.0,,20.0,,,,84.0,,,,2.5,,KIGQ 111815Z AUTO 18009KT 2 1/2SM -SN OVC008 00/00 A2991 RMK AO2  T10031005,,,800.0,,,31.46,25.25,S,29.26,29.51,,Light Snow
KIGQ,12/11/2016 18:35 UTC,29.9,31.64,31.1,100.0,10.36,180.0,,20.0,,,,84.0,,,,4.0,,KIGQ 111835Z AUTO 18009KT 4SM -SN OVC008 00/00 A2990 RMK AO2  T10021005,,,800.0,,,31.64,25.47,S,29.25,29.49,,Light Snow
KIGQ,12/11/2016 18:55 UTC,29.88,31.64,31.1,100.0,8.05,150.0,,20.0,,,,84.0,,,,5.0,,KIGQ 111855Z AUTO 15007KT 100V170 5SM -SN OVC008 00/00 A2988 RMK AO2 T10021005,,,800.0,,,31.64,26.65,SSE,29.23,29.47,,Light Snow
KIGQ,12/11/2016 19:15 UTC,29.87,31.82,31.46,100.0,9.22,160.0,,20.0,,,,84.0,,,,3.0,,KIGQ 111915Z AUTO 16008KT 3SM -SN OVC008 00/00 A2987 RMK AO2  T10011003,,,800.0,,,31.82,26.24,SSE,29.22,29.46,,Light Snow
KIGQ,12/11/2016 19:35 UTC,29.86,32.0,31.64,100.0,10.36,170.0,,20.0,,,,84.0,,,,5.0,,KIGQ 111935Z AUTO 17009KT 5SM -SN OVC008 00/00 A2986 RMK AO2  T00001002,,,800.0,,,32.0,25.9,S,29.21,29.44,,Light Snow
KIGQ,12/11/2016 19:55 UTC,29.85,32.18,32.0,100.0,11.5,180.0,,,,,,84.0,,,,7.0,,KIGQ 111955Z AUTO 18010KT 7SM OVC008 00/00 A2985 RMK AO2  T00010000,,,800.0,,,32.18,25.62,S,29.2,29.43,,Overcast
KIGQ,12/11/2016 20:15 UTC,29.83,32.36,32.0,100.0,10.36,180.0,,20.0,,,,84.0,,,,5.0,,KIGQ 112015Z AUTO 18009KT 5SM -SN OVC008 00/00 A2983 RMK AO2  T00020000,,,800.0,,,32.36,26.33,S,29.18,29.4,,Light Snow
KIGQ,12/11/2016 20:35 UTC,29.84,32.36,32.18,100.0,10.36,180.0,,20.0,,,,84.0,,,,4.0,,KIGQ 112035Z AUTO 18009KT 4SM -SN OVC008 00/00 A2984 RMK AO2  T00020001,,,800.0,,,32.36,26.33,S,29.19,29.41,,Light Snow
KIGQ,12/11/2016 20:55 UTC,29.83,32.36,32.36,100.0,10.36,180.0,,20.0,,,,64.0,,,,4.0,,KIGQ 112055Z AUTO 18009KT 4SM -SN OVC006 00/00 A2983 RMK AO2  T00020002,,,600.0,,,32.36,26.33,S,29.18,29.4,,Light Snow
KIGQ,12/11/2016 21:15 UTC,29.82,32.54,32.54,100.0,11.5,190.0,,31.0,,,,64.0,,,,5.0,,KIGQ 112115Z AUTO 19010KT 5SM BR OVC006 00/00 A2982 RMK AO2  T00030003,,,600.0,,,32.54,26.05,S,29.17,29.39,,Mist
KIGQ,12/11/2016 21:35 UTC,29.83,32.9,32.9,100.0,12.66,200.0,,17.0,,,,64.0,,,,2.5,,KIGQ 112135Z AUTO 20011KT 2 1/2SM -DZ OVC006 01/01 A2983 RMK AO2  T00050005,,,600.0,,,32.9,26.03,SSW,29.18,29.39,,Light Drizzle
KIGQ,12/11/2016 21:55 UTC,29.82,32.9,32.9,100.0,13.8,190.0,17.27,2.0,,,,64.0,,,,2.0,,KIGQ 112155Z AUTO 19012G15KT 2SM DZ OVC006 01/01 A2982 RMK AO2  T00050005,,,600.0,,,32.9,25.61,S,29.17,29.38,,Drizzle
KIGQ,12/11/2016 22:15 UTC,29.82,32.9,32.9,100.0,9.22,190.0,,13.0,,,,64.0,,,,2.0,,KIGQ 112215Z AUTO 19008KT 2SM -RA OVC006 01/01 A2982 RMK AO2  T00050005,,,600.0,,,32.9,27.52,S,29.17,29.38,,Light Rain
KIGQ,12/11/2016 22:35 UTC,29.82,32.54,32.54,100.0,10.36,190.0,,20.0,,,,64.0,,,,3.0,,KIGQ 112235Z AUTO 19009KT 3SM -SN OVC006 00/00 A2982 RMK AO2  T00030003,,,600.0,,,32.54,26.55,S,29.17,29.39,,Light Snow
KIGQ,12/11/2016 22:55 UTC,29.82,32.36,32.36,100.0,8.05,190.0,,20.0,,,,64.0,,,,3.0,,KIGQ 112255Z AUTO 19007KT 3SM -SN OVC006 00/00 A2982 RMK AO2  T00020002,,,600.0,,,32.36,27.5,S,29.17,29.39,,Light Snow
KIGQ,12/11/2016 23:15 UTC,29.81,32.18,32.18,100.0,9.22,190.0,,20.0,,,,64.0,,,,4.0,,KIGQ 112315Z AUTO 19008KT 4SM -SN OVC006 00/00 A2981 RMK AO2  T00010001,,,600.0,,,32.18,26.66,S,29.16,29.39,,Light Snow
KIGQ,12/11/2016 23:35 UTC,29.8,32.18,32.18,100.0,8.05,190.0,,20.0,,0.01,,44.0,,,,3.0,,KIGQ 112335Z AUTO 19007KT 3SM -SN OVC004 00/00 A2980 RMK AO2 P0001  T00010001,,,400.0,,,32.18,27.29,S,29.15,29.38,,Light Snow
KIGQ,12/11/2016 23:55 UTC,29.8,32.0,32.0,100.0,5.75,190.0,,20.0,,0.02,,44.0,,,,0.75,,KIGQ 112355Z AUTO 19005KT 3/4SM -SN OVC004 00/00 A2980 RMK AO2 VIS  1/4V2 P0002 60002 T00000000 10005 21005,32.9,31.1,400.0,,,32.0,,S,29.15,29.38,,Light Snow
KIGQ,12/12/2016 00:15 UTC,29.8,32.0,32.0,100.0,5.75,190.0,,20.0,,0.01,,44.0,,,,1.5,,KIGQ 120015Z AUTO 19005KT 1 1/2SM -SN OVC004 00/00 A2980 RMK AO2  P0001 T00000000,,,400.0,,,32.0,,S,29.15,29.38,,Light Snow
KIGQ,12/12/2016 00:35 UTC,29.79,32.0,32.0,100.0,4.61,190.0,,20.0,,0.02,,44.0,,,,1.25,,KIGQ 120035Z AUTO 19004KT 1 1/4SM -SN OVC004 00/00 A2979 RMK AO2  P0002 T00000000,,,400.0,,,32.0,,S,29.14,29.37,,Light Snow
KIGQ,12/12/2016 00:55 UTC,29.79,32.0,32.0,100.0,5.75,200.0,,20.0,,0.03,,44.0,,,,1.25,,KIGQ 120055Z AUTO 20005KT 1 1/4SM -SN OVC004 00/00 A2979 RMK AO2  P0003 T00000000,,,400.0,,,32.0,,SSW,29.14,29.37,,Light Snow
KIGQ,12/12/2016 01:15 UTC,29.78,32.0,32.0,100.0,5.75,200.0,,20.0,,0.01,,44.0,,,,1.5,,KIGQ 120115Z AUTO 20005KT 1 1/2SM -SN OVC004 00/00 A2978 RMK AO2  P0001 T00000000,,,400.0,,,32.0,,SSW,29.13,29.36,,Light Snow
KIGQ,12/12/2016 01:35 UTC,29.77,32.0,32.0,100.0,6.91,200.0,,20.0,,0.02,,44.0,,,,1.5,,KIGQ 120135Z AUTO 20006KT 1 1/2SM -SN OVC004 00/00 A2977 RMK AO2  P0002 T00000000,,,400.0,,,32.0,,SSW,29.12,29.35,,Light Snow
KIGQ,12/12/2016 01:55 UTC,29.76,32.0,32.0,100.0,6.91,200.0,,20.0,,0.02,,44.0,,,,2.5,,KIGQ 120155Z AUTO 20006KT 2 1/2SM -SN OVC004 00/00 A2976 RMK AO2  P0002 T00000000,,,400.0,,,32.0,,SSW,29.11,29.34,,Light Snow
KIGQ,12/12/2016 02:15 UTC,29.76,32.18,32.18,100.0,6.91,210.0,,20.0,,,,44.0,,,,2.5,,KIGQ 120215Z AUTO 21006KT 2 1/2SM -SN OVC004 00/00 A2976 RMK AO2  T00010001,,,400.0,,,32.18,,SSW,29.11,29.34,,Light Snow
KIGQ,12/12/2016 02:35 UTC,29.76,32.18,32.18,100.0,6.91,220.0,,20.0,,,,44.0,,,,2.5,,KIGQ 120235Z AUTO 22006KT 2 1/2SM -SN OVC004 00/00 A2976 RMK AO2  T00010001,,,400.0,,,32.18,,SW,29.11,29.34,,Light Snow
KIGQ,12/12/2016 02:55 UTC,29.76,32.18,32.18,100.0,5.75,230.0,,20.0,,,,44.0,,,,2.5,,KIGQ 120255Z AUTO 23005KT 2 1/2SM -SN OVC004 00/00 A2976 RMK AO2  60005 T00010001,,,400.0,,,32.18,,SW,29.11,29.34,,Light Snow
KIGQ,12/12/2016 03:15 UTC,29.76,32.18,32.18,100.0,6.91,230.0,,20.0,,,,44.0,,,,3.0,,KIGQ 120315Z AUTO 23006KT 3SM -SN OVC004 00/00 A2976 RMK AO2  T00010001,,,400.0,,,32.18,,SW,29.11,29.34,,Light Snow
KIGQ,12/12/2016 03:35 UTC,29.77,32.18,32.18,100.0,6.91,240.0,,20.0,,0.01,,64.0,,,,2.0,,KIGQ 120335Z AUTO 24006KT 2SM -SN OVC006 00/00 A2977 RMK AO2 P0001  T00010001,,,600.0,,,32.18,,WSW,29.12,29.35,,Light Snow
KIGQ,12/12/2016 03:55 UTC,29.76,32.36,32.36,100.0,6.91,250.0,,20.0,,0.01,,64.0,,,,4.0,,KIGQ 120355Z AUTO 25006KT 4SM -SN OVC006 00/00 A2976 RMK AO2 P0001  T00020002,,,600.0,,,32.36,,WSW,29.11,29.33,,Light Snow
KIGQ,12/12/2016 04:15 UTC,29.77,32.54,32.54,100.0,8.05,250.0,,,,,,64.0,,,,10.0,,KIGQ 120415Z AUTO 25007KT 10SM OVC006 00/00 A2977 RMK AO2  T00030003,,,600.0,,,32.54,27.71,WSW,29.12,29.34,,Overcast
KIGQ,12/12/2016 04:35 UTC,29.78,32.9,32.9,100.0,9.22,250.0,,20.0,,,,64.0,,,,10.0,,KIGQ 120435Z AUTO 25008KT 10SM -SN OVC006 01/01 A2978 RMK AO2  T00050005,,,600.0,,,32.9,27.52,WSW,29.13,29.34,,Light Snow
KIGQ,12/12/2016 04:55 UTC,29.78,32.9,32.9,100.0,9.22,260.0,,,,,,64.0,,,,10.0,,KIGQ 120455Z AUTO 26008KT 10SM OVC006 01/01 A2978 RMK AO2  T00050005,,,600.0,,,32.9,27.52,W,29.13,29.34,,Overcast
KIGQ,12/12/2016 05:15 UTC,29.78,32.9,32.9,100.0,10.36,270.0,17.27,,,,,64.0,,,,10.0,,KIGQ 120515Z AUTO 27009G15KT 10SM OVC006 01/01 A2978 RMK AO2  T00050005,,,600.0,,,32.9,26.98,W,29.13,29.34,,Overcast
KIGQ,12/12/2016 05:35 UTC,29.79,32.9,32.54,93.02,9.22,270.0,,,,,,64.0,,,,10.0,,KIGQ 120535Z AUTO 27008KT 10SM OVC006 01/00 A2979 RMK AO2  T00050003,,,600.0,,,31.08,27.52,W,29.14,29.38,,Overcast
KIGQ,12/12/2016 05:55 UTC,29.8,32.9,32.54,93.02,12.66,270.0,,,,,,64.0,,,,10.0,,KIGQ 120555Z AUTO 27011KT 10SM OVC006 01/00 A2980 RMK AO2 60006  T00050003 10005 20000 400051046,32.9,32.0,600.0,32.9,23.72,31.08,26.03,W,29.15,29.39,,Overcast
KIGQ,12/12/2016 06:15 UTC,29.81,32.9,32.36,93.02,10.36,280.0,,,,,,64.0,,,,10.0,,KIGQ 120615Z AUTO 28009KT 10SM OVC006 01/00 A2981 RMK AO2  T00050002,,,600.0,,,31.08,26.98,W,29.16,29.4,,Overcast
KIGQ,12/12/2016 06:35 UTC,29.81,32.9,32.18,93.02,11.5,280.0,17.27,,,,,84.0,,,,10.0,,KIGQ 120635Z AUTO 28010G15KT 10SM OVC008 01/00 A2981 RMK AO2  T00050001,,,800.0,,,31.08,26.49,W,29.16,29.4,,Overcast
KIGQ,12/12/2016 06:55 UTC,29.82,32.9,32.0,93.02,13.8,270.0,19.57,,,,,84.0,,,,10.0,,KIGQ 120655Z AUTO 27012G17KT 10SM OVC008 01/00 A2982 RMK AO2  T00050000,,,800.0,,,31.08,25.61,W,29.17,29.41,,Overcast
KIGQ,12/12/2016 07:15 UTC,29.82,32.72,32.0,100.0,11.5,280.0,23.02,,,,,84.0,,,,10.0,,KIGQ 120715Z AUTO 28010G20KT 10SM OVC008 00/00 A2982 RMK AO2  T00040000,,,800.0,,,32.72,26.27,W,29.17,29.39,,Overcast
KIGQ,12/12/2016 07:35 UTC,29.83,32.18,31.1,100.0,11.5,290.0,,,,,,104.0,,,,7.0,,KIGQ 120735Z AUTO 29010KT 7SM OVC010 00/00 A2983 RMK AO2  T00011005,,,1000.0,,,32.18,25.62,WNW,29.18,29.41,,Overcast
KIGQ,12/12/2016 07:55 UTC,29.85,32.0,30.02,92.96,14.97,280.0,20.71,,,,,124.0,,,,10.0,,KIGQ 120755Z AUTO 28013G18KT 10SM OVC012 00/M01 A2985 RMK AO2  T00001011,,,1200.0,,,30.17,24.1,W,29.2,29.46,,Overcast
KIGQ,12/12/2016 08:15 UTC,29.86,31.82,29.84,92.96,11.5,280.0,19.57,,,,,124.0,,,,10.0,,KIGQ 120815Z AUTO 28010G17KT 10SM OVC012 00/M01 A2986 RMK AO2  T10011012,,,1200.0,,,29.99,25.18,W,29.21,29.47,,Overcast
KIGQ,12/12/2016 08:35 UTC,29.87,31.1,29.12,86.37,13.8,290.0,20.71,,,,,144.0,,,,10.0,,KIGQ 120835Z AUTO 29012G18KT 10SM OVC014 00/M02 A2987 RMK AO2  T10051016,,,1400.0,,,27.46,23.4,WNW,29.22,29.52,,Overcast
KIGQ,12/12/2016 08:55 UTC,29.88,30.92,28.4,90.23,16.11,280.0,21.85,,,,,144.0,,,,10.0,,KIGQ 120855Z AUTO 28014G19KT 10SM OVC014 M01/M02 A2988 RMK AO2  T10061020,,,1400.0,,,28.36,22.39,W,29.23,29.52,,Overcast
KIGQ,12/12/2016 09:15 UTC,29.88,30.2,27.86,92.91,13.8,280.0,21.85,,,,,143.0,194.0,,,7.0,,KIGQ 120915Z AUTO 28012G19KT 7SM BKN014 OVC019 M01/M02 A2988 RMK AO2 T10101023,,,1400.0,,,28.37,22.3,W,29.23,29.53,,Overcast
KIGQ,12/12/2016 09:35 UTC,29.89,30.2,28.04,92.91,9.22,290.0,,,,,,144.0,,,,7.0,,KIGQ 120935Z AUTO 29008KT 7SM OVC014 M01/M02 A2989 RMK AO2  T10101022,,,1400.0,,,28.37,24.31,WNW,29.24,29.54,,Overcast
KIGQ,12/12/2016 09:55 UTC,29.9,30.02,27.32,89.52,14.97,270.0,,,,,,144.0,,,,7.0,,KIGQ 120955Z AUTO 27013KT 7SM OVC014 M01/M03 A2990 RMK AO2  T10111026,,,1400.0,,,27.27,21.66,W,29.25,29.56,,Overcast
KIGQ,12/12/2016 10:15 UTC,29.9,29.84,26.96,86.26,11.5,280.0,,,274.0,,,163.0,223.0,,,7.0,,KIGQ 121015Z AUTO 28010KT 7SM BKN016 BKN022 OVC027 M01/M03  A2990 RMK AO2 T10121028,,,1600.0,,,26.19,22.79,W,29.25,29.58,,Overcast
KIGQ,12/12/2016 10:35 UTC,29.91,29.3,26.78,86.26,16.11,270.0,20.71,,,,,164.0,,,,7.0,,KIGQ 121035Z AUTO 27014G18KT 7SM OVC016 M01/M03 A2991 RMK AO2  T10151029,,,1600.0,,,25.65,20.38,W,29.26,29.6,,Overcast
KIGQ,12/12/2016 10:55 UTC,29.92,28.94,26.6,92.85,14.97,280.0,20.71,,,,,144.0,,,,7.0,,KIGQ 121055Z AUTO 28013G18KT 7SM OVC014 M02/M03 A2992 RMK AO2  T10171030,,,1400.0,,,27.1,20.33,W,29.27,29.59,,Overcast
KIGQ,12/12/2016 11:15 UTC,29.93,28.22,26.06,92.85,14.97,270.0,20.71,,264.0,,,143.0,203.0,,,7.0,,KIGQ 121115Z AUTO 27013G18KT 7SM BKN014 BKN020 OVC026 M02/M03  A2993 RMK AO2 T10211033,,,1400.0,,,26.39,19.44,W,29.28,29.61,,Overcast
KIGQ,12/12/2016 11:35 UTC,29.93,27.86,25.7,92.85,13.8,280.0,23.02,,,,,124.0,,,,7.0,,KIGQ 121135Z AUTO 28012G20KT 7SM OVC012 M02/M03 A2993 RMK AO2  T10231035,,,1200.0,,,26.03,19.44,W,29.28,29.62,,Overcast
KIGQ,12/12/2016 11:55 UTC,29.95,27.32,24.8,92.79,16.11,280.0,20.71,,,,,123.0,204.0,,0.08,7.0,,KIGQ 121155Z AUTO 28014G18KT 7SM BKN012 OVC020 M03/M04 A2995 RMK AO2 70008 T10261040 10005 21026,32.9,27.32,1200.0,,,25.48,17.92,W,29.3,29.65,,Overcast
KIGQ,12/12/2016 12:15 UTC,29.96,26.6,24.26,92.79,16.11,270.0,,,,,,144.0,,,,7.0,,KIGQ 121215Z AUTO 27014KT 7SM OVC014 M03/M04 A2996 RMK AO2  T10301043,,,1400.0,,,24.77,17.03,W,29.31,29.67,,Overcast
KIGQ,12/12/2016 12:35 UTC,29.97,26.42,23.9,92.79,11.5,280.0,19.57,,,,,144.0,,,,7.0,,KIGQ 121235Z AUTO 28010G17KT 7SM OVC014 M03/M04 A2997 RMK AO2  T10311045,,,1400.0,,,24.59,18.66,W,29.32,29.69,,Overcast
KIGQ,12/12/2016 12:55 UTC,29.99,25.7,21.74,79.74,10.36,280.0,16.11,,,,,164.0,,,,10.0,,KIGQ 121255Z AUTO 28009G14KT 10SM OVC016 M03/M06 A2999 RMK AO2  T10351057,,,1600.0,,,20.23,18.36,W,29.34,29.75,,Overcast
KIGQ,12/12/2016 13:15 UTC,30.0,25.7,22.46,86.04,10.36,280.0,19.57,,,,,164.0,,,,10.0,,KIGQ 121315Z AUTO 28009G17KT 10SM OVC016 M03/M05 A3000 RMK AO2  T10351053,,,1600.0,,,22.05,18.36,W,29.35,29.75,,Overcast
KIGQ,12/12/2016 13:35 UTC,30.01,24.8,21.74,85.93,12.66,270.0,,,,,,144.0,,,,7.0,,KIGQ 121335Z AUTO 27011KT 7SM OVC014 M04/M06 A3001 RMK AO2  T10401057,,,1400.0,,,21.14,16.17,W,29.36,29.77,,Overcast
KIGQ,12/12/2016 13:55 UTC,30.02,24.26,21.2,85.93,12.66,280.0,,,,,,144.0,,,,7.0,,KIGQ 121355Z AUTO 28011KT 7SM OVC014 M04/M06 A3002 RMK AO2  T10431060,,,1400.0,,,20.61,15.52,W,29.37,29.79,,Overcast
KIGQ,12/12/2016 14:15 UTC,30.03,23.72,20.3,92.67,10.36,290.0,18.41,,,,,144.0,,,,10.0,,KIGQ 121415Z AUTO 29009G16KT 10SM OVC014 M05/M06 A3003 RMK AO2  T10461065,,,1400.0,,,21.88,15.99,WNW,29.38,29.79,,Overcast
KIGQ,12/12/2016 14:35 UTC,30.05,23.36,20.84,89.89,12.66,270.0,18.41,,,,,144.0,,,,7.0,,KIGQ 121435Z AUTO 27011G16KT 7SM OVC014 M05/M06 A3005 RMK AO2  T10481062,,,1400.0,,,20.79,14.42,W,29.4,29.82,,Overcast
KIGQ,12/12/2016 14:55 UTC,30.06,22.46,19.94,89.85,14.97,260.0,,31.0,,,,144.0,,,,5.0,,KIGQ 121455Z AUTO 26013KT 5SM BR OVC014 M05/M07 A3006 RMK AO2  T10531067,,,1400.0,,,19.89,12.34,W,29.41,29.84,,Mist
KIGQ,12/12/2016 15:15 UTC,30.07,22.1,19.4,85.82,12.66,270.0,,,,,,144.0,,,,7.0,,KIGQ 121515Z AUTO 27011KT 7SM OVC014 M05/M07 A3007 RMK AO2  T10551070,,,1400.0,,,18.45,12.89,W,29.42,29.87,,Overcast
KIGQ,12/12/2016 15:35 UTC,30.08,22.1,19.4,85.82,12.66,270.0,,,,,,144.0,,,,7.0,,KIGQ 121535Z AUTO 27011KT 7SM OVC014 M05/M07 A3008 RMK AO2  T10551070,,,1400.0,,,18.45,12.89,W,29.43,29.88,,Overcast
KIGQ,12/12/2016 15:55 UTC,30.08,21.74,18.68,92.61,12.66,250.0,,,,,,144.0,,,,7.0,,KIGQ 121555Z AUTO 25011KT 7SM OVC014 M06/M07 A3008 RMK AO2  T10571074,,,1400.0,,,19.9,12.45,WSW,29.43,29.87,,Overcast
KIGQ,12/12/2016 16:15 UTC,30.09,21.38,18.32,85.71,13.8,260.0,,31.0,,,,144.0,,,,5.0,,KIGQ 121615Z AUTO 26012KT 5SM BR OVC014 M06/M08 A3009 RMK AO2  T10591076,,,1400.0,,,17.71,11.5,W,29.44,29.9,,Mist
KIGQ,12/12/2016 16:35 UTC,30.1,20.84,17.24,85.71,14.97,270.0,,31.0,,,,144.0,,,,5.0,,KIGQ 121635Z AUTO 27013KT 5SM BR OVC014 M06/M08 A3010 RMK AO2  T10621082,,,1400.0,,,17.18,10.34,W,29.45,29.91,,Mist
KIGQ,12/12/2016 16:55 UTC,30.1,20.3,17.06,85.71,13.8,280.0,,,,,,144.0,,,,7.0,,KIGQ 121655Z AUTO 28012KT 7SM OVC014 M06/M08 A3010 RMK AO2  T10651083,,,1400.0,,,16.65,10.18,W,29.45,29.92,,Overcast
KIGQ,12/12/2016 17:15 UTC,30.1,20.3,17.06,87.0,14.97,260.0,18.41,,,,,144.0,,,,7.0,,KIGQ 121715Z AUTO 26013G16KT 7SM OVC014 M06/M08 A3010 RMK AO2  T10651083,,,1400.0,,,17.0,9.68,W,29.45,29.92,,Overcast
KIGQ,12/12/2016 17:35 UTC,30.1,20.12,17.42,92.55,14.97,250.0,,31.0,,,,124.0,,,,5.0,,KIGQ 121735Z AUTO 25013KT 5SM BR OVC012 M07/M08 A3010 RMK AO2  T10661081,,,1200.0,,,18.28,9.46,WSW,29.45,29.91,,Mist
KIGQ,12/12/2016 17:55 UTC,30.09,19.76,16.7,92.55,12.66,250.0,,20.0,,,,124.0,,,,5.0,,KIGQ 121755Z AUTO 25011KT 5SM -SN OVC012 M07/M08 A3009 RMK AO2  T10681085 11026 21068,27.32,19.76,1200.0,,,17.92,10.05,WSW,29.44,29.9,,Light Snow
KIGQ,12/12/2016 18:15 UTC,30.09,20.12,16.16,85.59,10.36,270.0,17.27,20.0,,,,144.0,,,,4.0,,KIGQ 121815Z AUTO 27009G15KT 4SM -SN OVC014 M07/M09 A3009 RMK AO2  T10661088,,,1400.0,,,16.44,11.68,W,29.44,29.91,,Light Snow
KIGQ,12/12/2016 18:35 UTC,30.08,19.94,15.8,85.59,12.66,240.0,,31.0,,,,144.0,,,,5.0,,KIGQ 121835Z AUTO 24011KT 5SM BR OVC014 M07/M09 A3008 RMK AO2  T10671090,,,1400.0,,,16.27,10.26,WSW,29.43,29.91,,Mist
KIGQ,12/12/2016 18:55 UTC,30.09,19.94,15.8,85.59,13.8,240.0,,,,,,144.0,,,,7.0,,KIGQ 121855Z AUTO 24012KT 7SM OVC014 M07/M09 A3009 RMK AO2  T10671090,,,1400.0,,,16.27,9.74,WSW,29.44,29.92,,Overcast
KIGQ,12/12/2016 19:15 UTC,30.09,19.58,15.62,85.59,13.8,230.0,,,,,,143.0,,,,7.0,,KIGQ 121915Z AUTO 23012KT 7SM BKN014 M07/M09 A3009 RMK AO2  T10691091,,,1400.0,,,15.91,9.3,SW,29.44,29.92,,Mostly Cloudy
KIGQ,12/12/2016 19:35 UTC,30.1,19.22,14.9,85.59,12.66,240.0,,,,,,142.0,,,,7.0,,KIGQ 121935Z AUTO 24011KT 7SM SCT014 M07/M09 A3010 RMK AO2  T10711095,,,,,,15.56,9.39,WSW,29.45,29.93,,Partly Cloudy
KIGQ,12/12/2016 19:55 UTC,30.1,19.04,14.72,82.91,12.66,250.0,19.57,,,,,142.0,,,,7.0,,KIGQ 121955Z AUTO 25011G17KT 7SM SCT014 M07/M10 A3010 RMK AO2  T10721096,,,,,,14.64,9.17,WSW,29.45,29.94,,Partly Cloudy
KIGQ,12/12/2016 20:15 UTC,30.09,19.22,14.54,79.1,12.66,280.0,,,,,,1.0,,,,10.0,,KIGQ 122015Z AUTO 28011KT 250V330 10SM CLR M07/M10 A3009 RMK AO2  T10711097,,,,,,13.73,9.39,W,29.44,29.94,,Clear
KIGQ,12/12/2016 20:35 UTC,30.09,19.4,14.9,82.29,11.5,250.0,,,,,,1.0,,,,10.0,,KIGQ 122035Z AUTO 25010KT 10SM CLR M07/M09 A3009 RMK AO2  T10701095,,,,,,14.82,10.19,WSW,29.44,29.93,,Clear
KIGQ,12/12/2016 20:55 UTC,30.1,19.94,15.26,85.59,9.22,240.0,,,,,,1.0,,,,10.0,,KIGQ 122055Z AUTO 24008KT 10SM CLR M07/M09 A3010 RMK AO2  T10671093,,,,,,16.27,12.14,WSW,29.45,29.93,,Clear
KIGQ,12/12/2016 21:15 UTC,30.11,19.76,14.72,79.1,11.5,250.0,,,,,,1.0,,,,10.0,,KIGQ 122115Z AUTO 25010KT 10SM CLR M07/M10 A3011 RMK AO2  T10681096,,,,,,14.26,10.62,WSW,29.46,29.95,,Clear
KIGQ,12/12/2016 21:35 UTC,30.1,19.22,14.72,79.1,11.5,250.0,,,,,,1.0,,,,10.0,,KIGQ 122135Z AUTO 25010KT 10SM CLR M07/M10 A3010 RMK AO2  T10711096,,,,,,13.73,9.97,WSW,29.45,29.95,,Clear
KIGQ,12/12/2016 21:55 UTC,30.1,18.5,14.36,79.1,6.91,270.0,,,,,,1.0,,,,10.0,,KIGQ 122155Z AUTO 27006KT 10SM CLR M07/M10 A3010 RMK AO2  T10751098,,,,,,13.03,,W,29.45,29.95,,Clear
KIGQ,12/12/2016 22:15 UTC,30.09,17.42,13.1,85.47,6.91,260.0,,,,,,1.0,,,,10.0,,KIGQ 122215Z AUTO 26006KT 10SM CLR M08/M10 A3009 RMK AO2  T10811105,,,,,,13.76,,W,29.44,29.94,,Clear
KIGQ,12/12/2016 22:35 UTC,30.08,16.7,12.92,78.94,0.0,0.0,,,,,,1.0,,,,10.0,,KIGQ 122235Z AUTO 00000KT 10SM CLR M08/M11 A3008 RMK AO2  T10851106,,,,,,11.23,,N,29.43,29.95,,Clear
KIGQ,12/12/2016 22:55 UTC,30.1,15.62,12.74,85.36,5.75,220.0,,,,,,1.0,,,,10.0,,KIGQ 122255Z AUTO 22005KT 10SM CLR M09/M11 A3010 RMK AO2  T10911107,,,,,,11.96,,SW,29.45,29.97,,Clear
KIGQ,12/12/2016 23:15 UTC,30.12,14.9,12.2,85.36,9.22,220.0,,,,,,1.0,,,,10.0,,KIGQ 122315Z AUTO 22008KT 10SM CLR M09/M11 A3012 RMK AO2  T10951110,,,,,,11.25,6.16,SW,29.47,30.0,,Clear
KIGQ,12/12/2016 23:35 UTC,30.13,15.44,12.56,85.36,9.22,230.0,,,,,,1.0,,,,10.0,,KIGQ 122335Z AUTO 23008KT 10SM CLR M09/M11 A3013 RMK AO2  T10921108,,,,,,11.78,6.8,SW,29.47,30.0,,Clear
KIGQ,12/12/2016 23:55 UTC,30.13,15.26,12.92,85.36,8.05,230.0,,,,,,1.0,,,,10.0,,KIGQ 122355Z AUTO 23007KT 10SM CLR M09/M11 A3013 RMK AO2 T10931106  11065 21101,20.3,13.82,,,,11.61,7.41,SW,29.47,30.0,,Clear
KIGQ,12/13/2016 00:15 UTC,30.13,14.72,13.1,100.0,6.91,230.0,,,,,,1.0,,,,7.0,,KIGQ 130015Z AUTO 23006KT 7SM CLR M10/M10 A3013 RMK AO2  T10961105,,,,,,14.72,,SW,29.47,29.98,,Clear
KIGQ,12/13/2016 00:35 UTC,30.13,14.72,12.92,92.36,5.75,230.0,,,,,,1.0,,,,10.0,,KIGQ 130035Z AUTO 23005KT 10SM CLR M10/M11 A3013 RMK AO2  T10961106,,,,,,12.88,,SW,29.47,29.99,,Clear
KIGQ,12/13/2016 00:55 UTC,30.12,15.08,13.1,92.42,6.91,240.0,,,,,,1.0,,,,10.0,,KIGQ 130055Z AUTO 24006KT 10SM CLR M09/M10 A3012 RMK AO2  T10941105,,,,,,13.25,,WSW,29.47,29.99,,Clear
KIGQ,12/13/2016 01:15 UTC,30.12,14.36,12.38,92.36,5.75,220.0,,,,,,1.0,,,,10.0,,KIGQ 130115Z AUTO 22005KT 10SM CLR M10/M11 A3012 RMK AO2  T10981109,,,,,,12.52,,SW,29.47,30.0,,Clear
KIGQ,12/13/2016 01:35 UTC,30.12,12.02,10.4,92.29,5.75,220.0,,,,,,1.0,,,,7.0,,KIGQ 130135Z AUTO 22005KT 7SM CLR M11/M12 A3012 RMK AO2  T11111120,,,,,,10.19,,SW,29.47,30.02,,Clear
KIGQ,12/13/2016 01:55 UTC,30.11,10.94,10.04,100.0,4.61,220.0,,,,,,1.0,,,,7.0,,KIGQ 130155Z AUTO 22004KT 7SM CLR M12/M12 A3011 RMK AO2  T11171122,,,,,,10.94,,SW,29.46,30.01,,Clear
KIGQ,12/13/2016 02:15 UTC,30.11,11.12,10.22,100.0,0.0,0.0,,,,,,1.0,,,,7.0,,KIGQ 130215Z AUTO 00000KT 7SM CLR M12/M12 A3011 RMK AO2  T11161121,,,,,,11.12,,N,29.46,30.01,,Clear
KIGQ,12/13/2016 02:35 UTC,30.11,8.96,8.24,100.0,0.0,0.0,,31.0,,,,1.0,,,,5.0,,KIGQ 130235Z AUTO 00000KT 5SM BR CLR M13/M13 A3011 RMK AO2  T11281132,,,,,,8.96,,N,29.46,30.03,,Mist
KIGQ,12/13/2016 02:55 UTC,30.11,8.96,7.88,95.23,0.0,0.0,,31.0,,,,1.0,,,,5.0,,KIGQ 130255Z AUTO 00000KT 5SM BR CLR M13/M13 A3011 RMK AO2  T11281134,,,,,,7.86,,N,29.46,30.03,,Mist
KIGQ,12/13/2016 03:15 UTC,30.11,8.6,7.34,92.16,5.75,180.0,,31.0,,,,1.0,,,,5.0,,KIGQ 130315Z AUTO 18005KT 5SM BR CLR M13/M14 A3011 RMK AO2  T11301137,,,,,,6.77,,S,29.46,30.04,,Mist
KIGQ,12/13/2016 03:35 UTC,30.11,9.68,8.6,95.25,6.91,190.0,,,,,,1.0,,,,7.0,,KIGQ 130335Z AUTO 19006KT 7SM CLR M12/M13 A3011 RMK AO2  T11241130,,,,,,8.58,,S,29.46,30.03,,Clear
KIGQ,12/13/2016 03:55 UTC,30.1,11.48,10.58,92.29,4.61,180.0,,,,,,1.0,,,,7.0,,KIGQ 130355Z AUTO 18004KT 7SM CLR M11/M12 A3010 RMK AO2  T11141119,,,,,,9.65,,S,29.45,30.0,,Clear
KIGQ,12/13/2016 04:15 UTC,30.09,11.3,10.22,92.29,0.0,0.0,,,,,,652.0,,,,7.0,,KIGQ 130415Z AUTO 00000KT 7SM SCT065 M11/M12 A3009 RMK AO2  T11151121,,,,,,9.47,,N,29.44,29.99,,Partly Cloudy
KIGQ,12/13/2016 04:35 UTC,30.09,12.2,11.3,100.0,0.0,0.0,,,,,,653.0,,,,7.0,,KIGQ 130435Z AUTO 00000KT 7SM BKN065 M11/M11 A3009 RMK AO2  T11101115,,,6500.0,,,12.2,,N,29.44,29.98,,Mostly Cloudy
KIGQ,12/13/2016 04:55 UTC,30.1,12.02,10.94,92.29,3.44,180.0,,,,,,652.0,,,,7.0,,KIGQ 130455Z AUTO 18003KT 7SM SCT065 M11/M12 A3010 RMK AO2  T11111117,,,,,,10.19,,S,29.45,30.0,,Partly Cloudy
KIGQ,12/13/2016 05:15 UTC,30.1,12.2,11.3,100.0,5.75,190.0,,,,,,1.0,,,,7.0,,KIGQ 130515Z AUTO 19005KT 7SM CLR M11/M11 A3010 RMK AO2  T11101115,,,,,,12.2,,S,29.45,29.99,,Clear
KIGQ,12/13/2016 05:35 UTC,30.1,11.84,10.94,92.29,0.0,0.0,,31.0,,,,1.0,,,,5.0,,KIGQ 130535Z AUTO 00000KT 5SM BR CLR M11/M12 A3010 RMK AO2  T11121117,,,,,,10.01,,N,29.45,30.0,,Mist
KIGQ,12/13/2016 05:55 UTC,30.1,13.82,13.28,100.0,0.0,0.0,,31.0,,,,1203.0,,,,5.0,,KIGQ 130555Z AUTO 00000KT 5SM BR BKN120 M10/M10 A3010 RMK AO2  T11011104 11093 21131 400051131,15.26,8.42,12000.0,32.9,8.42,13.82,,N,29.45,29.97,,Mist
KIGQ,12/13/2016 06:15 UTC,30.1,14.72,14.0,100.0,4.61,210.0,,,,,,1203.0,,,,7.0,,KIGQ 130615Z AUTO 21004KT 7SM BKN120 M10/M10 A3010 RMK AO2  T10961100,,,12000.0,,,14.72,,SSW,29.45,29.96,,Mostly Cloudy
KIGQ,12/13/2016 06:35 UTC,30.1,14.9,14.54,98.43,0.0,0.0,,,,,,1102.0,,,,7.0,,KIGQ 130635Z AUTO 00000KT 7SM SCT110 M09/M10 A3010 RMK AO2  T10951097,,,,,,14.53,,N,29.45,29.96,,Partly Cloudy
KIGQ,12/13/2016 06:55 UTC,30.11,14.9,14.36,97.66,0.0,0.0,,,,,,1103.0,,,,7.0,,KIGQ 130655Z AUTO 00000KT 7SM BKN110 M09/M10 A3011 RMK AO2  T10951098,,,11000.0,,,14.35,,N,29.46,29.97,,Mostly Cloudy
KIGQ,12/13/2016 07:15 UTC,30.11,15.44,14.9,100.0,4.61,190.0,,,,,,1104.0,,,,7.0,,KIGQ 130715Z AUTO 19004KT 7SM OVC110 M09/M09 A3011 RMK AO2  T10921095,,,11000.0,,,15.44,,S,29.46,29.96,,Overcast
KIGQ,12/13/2016 07:35 UTC,30.1,17.24,16.7,100.0,4.61,170.0,,,,,,1104.0,,,,7.0,,KIGQ 130735Z AUTO 17004KT 7SM OVC110 M08/M08 A3010 RMK AO2  T10821085,,,11000.0,,,17.24,,S,29.45,29.93,,Overcast
KIGQ,12/13/2016 07:55 UTC,30.1,18.32,17.78,100.0,3.44,180.0,,,,,,1104.0,,,,7.0,,KIGQ 130755Z AUTO 18003KT 7SM OVC110 M08/M08 A3010 RMK AO2  T10761079,,,11000.0,,,18.32,,S,29.45,29.92,,Overcast
KIGQ,12/13/2016 08:15 UTC,30.11,18.68,18.5,99.23,3.44,200.0,,,,,,1004.0,,,,7.0,,KIGQ 130815Z AUTO 20003KT 7SM OVC100 M07/M07 A3011 RMK AO2  T10741075,,,10000.0,,,18.5,,SSW,29.46,29.93,,Overcast
KIGQ,12/13/2016 08:35 UTC,30.11,19.4,19.4,100.0,4.61,190.0,,,,,,904.0,,,,7.0,,KIGQ 130835Z AUTO 19004KT 7SM OVC090 M07/M07 A3011 RMK AO2  T10701070,,,9000.0,,,19.4,,S,29.46,29.92,,Overcast
KIGQ,12/13/2016 08:55 UTC,30.1,20.3,20.12,92.61,5.75,190.0,,,,,,904.0,,,,7.0,,KIGQ 130855Z AUTO 19005KT 7SM OVC090 M06/M07 A3010 RMK AO2  T10651066,,,9000.0,,,18.48,,S,29.45,29.91,,Overcast
KIGQ,12/13/2016 09:15 UTC,30.11,20.84,20.12,92.61,5.75,210.0,,,1004.0,,,702.0,803.0,,,7.0,,KIGQ 130915Z AUTO 21005KT 7SM SCT070 BKN080 OVC100 M06/M07  A3011 RMK AO2 T10621066,,,8000.0,,,19.01,,SSW,29.46,29.91,,Overcast
KIGQ,12/13/2016 09:35 UTC,30.1,20.84,19.76,95.5,5.75,210.0,,,,,,702.0,904.0,,,7.0,,KIGQ 130935Z AUTO 21005KT 7SM SCT070 OVC090 M06/M07 A3010 RMK AO2  T10621068,,,9000.0,,,19.74,,SSW,29.45,29.89,,Overcast
KIGQ,12/13/2016 09:55 UTC,30.1,21.2,20.3,96.24,4.61,220.0,,,,,,703.0,904.0,,,7.0,,KIGQ 130955Z AUTO 22004KT 7SM BKN070 OVC090 M06/M06 A3010 RMK AO2  T10601065,,,7000.0,,,20.28,,SW,29.45,29.89,,Overcast
KIGQ,12/13/2016 10:15 UTC,30.1,21.74,20.66,100.0,4.61,220.0,,,,,,702.0,904.0,,,7.0,,KIGQ 131015Z AUTO 22004KT 7SM SCT070 OVC090 M06/M06 A3010 RMK AO2  T10571063,,,9000.0,,,21.74,,SW,29.45,29.87,,Overcast
KIGQ,12/13/2016 10:35 UTC,30.09,22.28,21.2,92.67,4.61,210.0,,,,,,703.0,904.0,,,7.0,,KIGQ 131035Z AUTO 21004KT 7SM BKN070 OVC090 M05/M06 A3009 RMK AO2  T10541060,,,7000.0,,,20.45,,SSW,29.44,29.87,,Overcast
KIGQ,12/13/2016 10:55 UTC,30.1,22.64,21.2,92.67,3.44,230.0,,20.0,654.0,,,422.0,503.0,,,7.0,,KIGQ 131055Z AUTO 23003KT 7SM -SN SCT042 BKN050 OVC065 M05/M06  A3010 RMK AO2 T10521060,,,5000.0,,,20.81,,SW,29.45,29.88,,Light Snow
KIGQ,12/13/2016 11:15 UTC,30.09,22.82,21.92,92.67,0.0,0.0,,20.0,384.0,,,153.0,283.0,,,1.75,,KIGQ 131115Z AUTO 00000KT 1 3/4SM -SN BKN015 BKN028 OVC038 M05/M06  A3009 RMK AO2 T10511056,,,1500.0,,,20.99,,N,29.44,29.86,,Light Snow
KIGQ,12/13/2016 11:35 UTC,30.09,22.64,22.1,100.0,0.0,0.0,,20.0,244.0,,,123.0,193.0,,,2.0,,KIGQ 131135Z AUTO 00000KT 2SM -SN BKN012 BKN019 OVC024 M05/M05  A3009 RMK AO2 T10521055,,,1200.0,,,22.64,,N,29.44,29.85,,Light Snow
KIGQ,12/13/2016 11:55 UTC,30.09,23.54,22.82,100.0,4.61,280.0,,20.0,554.0,,,232.0,473.0,,,4.0,,KIGQ 131155Z AUTO 28004KT 4SM -SN SCT023 BKN047 OVC055 M05/M05  A3009 RMK AO2 T10471051 11046 21101,23.72,13.82,4700.0,,,23.54,,W,29.44,29.84,,Light Snow
KIGQ,12/13/2016 12:15 UTC,30.1,23.0,22.1,100.0,3.44,290.0,,,1204.0,,,102.0,473.0,,,7.0,,KIGQ 131215Z AUTO 29003KT 7SM SCT010 BKN047 OVC120 M05/M05  A3010 RMK AO2 T10501055,,,4700.0,,,23.0,,WNW,29.45,29.85,,Overcast
KIGQ,12/13/2016 12:35 UTC,30.1,22.82,21.56,92.67,0.0,0.0,,,1203.0,,,103.0,653.0,,,7.0,,KIGQ 131235Z AUTO 00000KT 7SM BKN010 BKN065 BKN120 M05/M06  A3010 RMK AO2 T10511058,,,1000.0,,,20.99,,N,29.45,29.87,,Mostly Cloudy
KIGQ,12/13/2016 12:55 UTC,30.1,22.46,21.2,94.8,3.44,290.0,,,,,,102.0,752.0,,,7.0,,KIGQ 131255Z AUTO 29003KT 7SM SCT010 SCT075 M05/M06 A3010 RMK AO2  T10531060,,,,,,21.18,,WNW,29.45,29.87,,Partly Cloudy
KIGQ,12/13/2016 13:15 UTC,30.11,22.1,20.12,85.82,3.44,300.0,,,752.0,,,102.0,192.0,,,10.0,,KIGQ 131315Z AUTO 30003KT 10SM SCT010 SCT019 SCT075 M05/M07  A3011 RMK AO2 T10551066,,,,,,18.45,,WNW,29.46,29.91,,Partly Cloudy
KIGQ,12/13/2016 13:35 UTC,30.12,22.1,20.3,92.67,5.75,260.0,,,,,,193.0,,,,7.0,,KIGQ 131335Z AUTO 26005KT 7SM BKN019 M05/M06 A3012 RMK AO2  T10551065,,,1900.0,,,20.28,,W,29.47,29.9,,Mostly Cloudy
KIGQ,12/13/2016 13:55 UTC,30.14,22.1,20.12,85.82,8.05,270.0,,,,,,132.0,194.0,,,10.0,,KIGQ 131355Z AUTO 27007KT 10SM SCT013 OVC019 M05/M07 A3014 RMK AO2  T10551066,,,1900.0,,,18.45,15.45,W,29.48,29.93,,Overcast
KIGQ,12/13/2016 14:15 UTC,30.15,22.1,19.4,85.82,9.22,290.0,,,,,,154.0,,,,10.0,,KIGQ 131415Z AUTO 29008KT 10SM OVC015 M05/M07 A3015 RMK AO2  T10551070,,,1500.0,,,18.45,14.7,WNW,29.49,29.94,,Overcast
KIGQ,12/13/2016 14:35 UTC,30.15,21.56,17.96,85.71,5.75,290.0,,,,,,153.0,,,,10.0,,KIGQ 131435Z AUTO 29005KT 10SM BKN015 M06/M08 A3015 RMK AO2  T10581078,,,1500.0,,,17.89,,WNW,29.49,29.95,,Mostly Cloudy
KIGQ,12/13/2016 14:55 UTC,30.15,21.02,17.42,85.71,8.05,270.0,,,,,,152.0,,,,10.0,,KIGQ 131455Z AUTO 27007KT 10SM SCT015 M06/M08 A3015 RMK AO2  T10611081,,,,,,17.36,14.18,W,29.49,29.95,,Partly Cloudy
KIGQ,12/13/2016 15:15 UTC,30.17,20.84,16.7,85.71,6.91,300.0,,,,,,152.0,,,,10.0,,KIGQ 131515Z AUTO 30006KT 10SM SCT015 M06/M08 A3017 RMK AO2  T10621085,,,,,,17.18,,WNW,29.51,29.98,,Partly Cloudy
KIGQ,12/13/2016 15:35 UTC,30.17,20.66,16.16,79.26,11.5,310.0,,,,,,1.0,,,,10.0,,KIGQ 131535Z AUTO 31010KT 10SM CLR M06/M09 A3017 RMK AO2  T10631088,,,,,,15.18,11.71,NW,29.51,29.99,,Clear
KIGQ,12/13/2016 15:55 UTC,30.19,19.94,15.26,81.69,12.66,330.0,,,,,,162.0,,,,10.0,,KIGQ 131555Z AUTO 33011KT 10SM SCT016 M07/M09 A3019 RMK AO2  T10671093,,,,,,15.18,10.26,NNW,29.53,30.01,,Partly Cloudy
KIGQ,12/13/2016 16:15 UTC,30.19,19.22,13.46,79.1,9.22,340.0,,,,,,162.0,,,,10.0,,KIGQ 131615Z AUTO 34008KT 10SM SCT016 M07/M10 A3019 RMK AO2  T10711103,,,,,,13.73,11.28,NNW,29.53,30.03,,Partly Cloudy
KIGQ,12/13/2016 16:35 UTC,30.19,18.5,11.84,73.06,8.05,310.0,,,,,,1.0,,,,10.0,,KIGQ 131635Z AUTO 31007KT 10SM CLR M07/M11 A3019 RMK AO2  T10751112,,,,,,11.21,11.22,NW,29.53,30.05,,Clear
KIGQ,12/13/2016 16:55 UTC,30.19,18.5,9.86,67.42,10.36,320.0,,,,,,1.0,,,,10.0,,KIGQ 131655Z AUTO 32009KT 10SM CLR M07/M12 A3019 RMK AO2  T10751123,,,,,,9.39,9.74,NW,29.53,30.06,,Clear
KIGQ,12/13/2016 17:15 UTC,30.2,19.22,10.4,67.42,5.75,300.0,,,,,,1.0,,,,10.0,,KIGQ 131715Z AUTO 30005KT 10SM CLR M07/M12 A3020 RMK AO2  T10711120,,,,,,10.08,,WNW,29.54,30.06,,Clear
KIGQ,12/13/2016 17:35 UTC,30.19,19.22,9.5,67.42,9.22,340.0,,,,,,1.0,,,,10.0,,KIGQ 131735Z AUTO 34008KT 10SM CLR M07/M12 A3019 RMK AO2  T10711125,,,,,,10.08,11.28,NNW,29.53,30.05,,Clear
KIGQ,12/13/2016 17:55 UTC,30.19,19.58,7.88,62.18,8.05,320.0,,,,,,1.0,,,,10.0,,KIGQ 131755Z AUTO 32007KT 10SM CLR M07/M13 A3019 RMK AO2 T10691134  11047 21075,23.54,18.5,,,,8.6,12.49,NW,29.53,30.06,,Clear
KIGQ,12/13/2016 18:15 UTC,30.18,19.94,7.88,62.18,8.05,340.0,,,,,,1.0,,,,10.0,,KIGQ 131815Z AUTO 34007KT 10SM CLR M07/M13 A3018 RMK AO2  T10671134,,,,,,8.94,12.91,NNW,29.52,30.04,,Clear
KIGQ,12/13/2016 18:35 UTC,30.18,20.48,8.06,57.58,6.91,330.0,,,,,,1.0,,,,10.0,,KIGQ 131835Z AUTO 33006KT 10SM CLR M06/M13 A3018 RMK AO2  T10641133,,,,,,7.73,,NNW,29.52,30.05,,Clear
KIGQ,12/13/2016 18:55 UTC,30.17,20.66,7.88,57.58,9.22,330.0,,,,,,1.0,,,,10.0,,KIGQ 131855Z AUTO 33008KT 10SM CLR M06/M13 A3017 RMK AO2  T10631134,,,,,,7.9,12.99,NNW,29.51,30.03,,Clear
KIGQ,12/13/2016 19:15 UTC,30.16,21.02,8.24,57.58,10.36,320.0,19.57,,,,,1.0,,,,10.0,,KIGQ 131915Z AUTO 32009G17KT 10SM CLR M06/M13 A3016 RMK AO2  T10611132,,,,,,8.24,12.75,NW,29.5,30.02,,Clear
KIGQ,12/13/2016 19:35 UTC,30.17,20.84,7.16,53.07,11.5,330.0,,,,,,1.0,,,,10.0,,KIGQ 131935Z AUTO 33010KT 10SM CLR M06/M14 A3017 RMK AO2  T10621138,,,,,,6.25,11.93,NNW,29.51,30.04,,Clear
KIGQ,12/13/2016 19:55 UTC,30.17,20.84,7.52,53.07,5.75,330.0,,,,,,1.0,,,,10.0,,KIGQ 131955Z AUTO 33005KT 10SM CLR M06/M14 A3017 RMK AO2  T10621136,,,,,,6.25,,NNW,29.51,30.04,,Clear
KIGQ,12/13/2016 20:15 UTC,30.17,20.48,6.98,53.07,6.91,310.0,10.36,,,,,1.0,,,,10.0,,KIGQ 132015Z AUTO 31006G09KT 10SM CLR M06/M14 A3017 RMK AO2  T10641139,,,,,,5.92,,NW,29.51,30.05,,Clear
KIGQ,12/13/2016 20:35 UTC,30.18,20.12,5.9,57.3,9.22,300.0,,,,,,1.0,,,,10.0,,KIGQ 132035Z AUTO 30008KT 10SM CLR M07/M14 A3018 RMK AO2  T10661145,,,,,,7.28,12.35,WNW,29.52,30.05,,Clear
KIGQ,12/13/2016 20:55 UTC,30.19,19.94,5.0,52.77,8.05,300.0,,,,,,1.0,,,,10.0,,KIGQ 132055Z AUTO 30007KT 10SM CLR M07/M15 A3019 RMK AO2  T10671150,,,,,,5.29,12.91,WNW,29.53,30.07,,Clear
KIGQ,12/13/2016 21:15 UTC,30.19,19.58,5.72,52.77,8.05,290.0,,,,,,1.0,,,,10.0,,KIGQ 132115Z AUTO 29007KT 10SM CLR M07/M15 A3019 RMK AO2  T10691146,,,,,,4.96,12.49,WNW,29.53,30.07,,Clear
KIGQ,12/13/2016 21:35 UTC,30.19,19.04,5.36,54.49,3.44,300.0,,,,,,1.0,,,,10.0,,KIGQ 132135Z AUTO 30003KT 10SM CLR M07/M15 A3019 RMK AO2  T10721148,,,,,,5.16,,WNW,29.53,30.07,,Clear
KIGQ,12/13/2016 21:55 UTC,30.19,18.5,4.82,54.4,6.91,310.0,,,,,,1.0,,,,10.0,,KIGQ 132155Z AUTO 31006KT 10SM CLR M07/M15 A3019 RMK AO2  T10751151,,,,,,4.62,,NW,29.53,30.08,,Clear
KIGQ,12/13/2016 22:15 UTC,30.19,17.24,4.46,57.02,8.05,290.0,,,,,,1.0,,,,10.0,,KIGQ 132215Z AUTO 29007KT 10SM CLR M08/M15 A3019 RMK AO2  T10821153,,,,,,4.47,9.74,WNW,29.53,30.08,,Clear
KIGQ,12/13/2016 22:35 UTC,30.19,16.34,1.58,52.17,8.05,300.0,,,,,,1.0,,,,10.0,,KIGQ 132235Z AUTO 30007KT 10SM CLR M09/M17 A3019 RMK AO2  T10871169,,,,,,1.69,8.68,WNW,29.53,30.1,,Clear
KIGQ,12/13/2016 22:55 UTC,30.21,15.08,1.4,52.17,8.05,290.0,,,,,,1.0,,,,10.0,,KIGQ 132255Z AUTO 29007KT 10SM CLR M09/M17 A3021 RMK AO2  T10941170,,,,,,0.52,7.2,WNW,29.55,30.13,,Clear
KIGQ,12/13/2016 23:15 UTC,30.22,14.18,3.2,61.39,8.05,280.0,,,,,,1.0,,,,10.0,,KIGQ 132315Z AUTO 28007KT 10SM CLR M10/M16 A3022 RMK AO2  T10991160,,,,,,3.2,6.15,W,29.56,30.13,,Clear
KIGQ,12/13/2016 23:35 UTC,30.22,13.46,2.3,60.29,8.05,270.0,,,,,,1.0,,,,10.0,,KIGQ 132335Z AUTO 27007KT 10SM CLR M10/M16 A3022 RMK AO2  T11031165,,,,,,2.13,5.3,W,29.56,30.14,,Clear
KIGQ,12/13/2016 23:55 UTC,30.23,11.3,5.0,75.19,9.22,290.0,,,,,,1.0,,,,10.0,,KIGQ 132355Z AUTO 29008KT 10SM CLR M11/M15 A3023 RMK AO2 T11151150  11060 21115,21.2,11.3,,,,4.89,1.88,WNW,29.57,30.15,,Clear
KIGQ,12/14/2016 00:15 UTC,30.24,10.58,3.92,72.03,10.36,290.0,,,,,,1.0,,,,10.0,,KIGQ 140015Z AUTO 29009KT 10SM CLR M12/M16 A3024 RMK AO2  T11191156,,,,,,3.25,0.25,WNW,29.58,30.17,,Clear
KIGQ,12/14/2016 00:35 UTC,30.24,9.68,3.2,74.39,10.36,290.0,,,,,,1.0,,,,10.0,,KIGQ 140035Z AUTO 29009KT 10SM CLR M12/M16 A3024 RMK AO2  T11241160,,,,,,3.09,-0.82,WNW,29.58,30.17,,Clear
KIGQ,12/14/2016 00:55 UTC,30.25,9.32,2.66,78.1,8.05,280.0,,,,,,1.0,,,,10.0,,KIGQ 140055Z AUTO 28007KT 10SM CLR M13/M16 A3025 RMK AO2  T11261163,,,,,,3.81,0.44,W,29.59,30.18,,Clear
KIGQ,12/14/2016 01:15 UTC,30.25,8.6,2.12,71.81,6.91,280.0,,,,,,1.0,,,,10.0,,KIGQ 140115Z AUTO 28006KT 10SM CLR M13/M17 A3025 RMK AO2  T11301166,,,,,,1.28,,W,29.59,30.19,,Clear
KIGQ,12/14/2016 01:35 UTC,30.25,8.24,1.4,71.81,3.44,290.0,,,,,,1.0,,,,10.0,,KIGQ 140135Z AUTO 29003KT 10SM CLR M13/M17 A3025 RMK AO2  T11321170,,,,,,0.93,,WNW,29.59,30.19,,Clear
KIGQ,12/14/2016 01:55 UTC,30.25,8.06,-0.4,65.98,5.75,290.0,,,,,,1.0,,,,10.0,,KIGQ 140155Z AUTO 29005KT 10SM CLR M13/M18 A3025 RMK AO2  T11331180,,,,,,-1.06,,WNW,29.59,30.2,,Clear
KIGQ,12/14/2016 02:15 UTC,30.25,7.88,-0.94,65.98,5.75,290.0,,,,,,1.0,,,,10.0,,KIGQ 140215Z AUTO 29005KT 10SM CLR M13/M18 A3025 RMK AO2  T11341183,,,,,,-1.23,,WNW,29.59,30.2,,Clear
KIGQ,12/14/2016 02:35 UTC,30.25,7.52,-1.12,71.6,6.91,280.0,,,,,,1.0,,,,10.0,,KIGQ 140235Z AUTO 28006KT 10SM CLR M14/M18 A3025 RMK AO2  T11361184,,,,,,0.18,,W,29.59,30.2,,Clear
KIGQ,12/14/2016 02:55 UTC,30.25,6.8,-0.76,71.6,9.22,270.0,,,,,,1.0,,,,10.0,,KIGQ 140255Z AUTO 27008KT 10SM CLR M14/M18 A3025 RMK AO2  T11401182,,,,,,-0.52,-3.46,W,29.59,30.2,,Clear
KIGQ,12/14/2016 03:15 UTC,30.26,6.8,-0.22,71.6,9.22,270.0,,,,,,1.0,,,,10.0,,KIGQ 140315Z AUTO 27008KT 10SM CLR M14/M18 A3026 RMK AO2  T11401179,,,,,,-0.52,-3.46,W,29.6,30.21,,Clear
KIGQ,12/14/2016 03:35 UTC,30.26,6.62,-0.22,71.6,9.22,270.0,,,,,,1.0,,,,10.0,,KIGQ 140335Z AUTO 27008KT 10SM CLR M14/M18 A3026 RMK AO2  T11411179,,,,,,-0.69,-3.67,W,29.6,30.21,,Clear
KIGQ,12/14/2016 03:55 UTC,30.26,5.72,-0.4,77.75,9.22,270.0,,,,,,1.0,,,,10.0,,KIGQ 140355Z AUTO 27008KT 10SM CLR M15/M18 A3026 RMK AO2  T11461180,,,,,,0.21,-4.74,W,29.6,30.21,,Clear
KIGQ,12/14/2016 04:15 UTC,30.26,5.54,-0.4,77.75,9.22,270.0,,,,,,1.0,,,,10.0,,KIGQ 140415Z AUTO 27008KT 10SM CLR M15/M18 A3026 RMK AO2  T11471180,,,,,,0.03,-4.95,W,29.6,30.22,,Clear
KIGQ,12/14/2016 04:35 UTC,30.27,5.0,-0.76,77.75,9.22,270.0,,,,,,1.0,,,,10.0,,KIGQ 140435Z AUTO 27008KT 10SM CLR M15/M18 A3027 RMK AO2  T11501182,,,,,,-0.49,-5.59,W,29.61,30.23,,Clear
KIGQ,12/14/2016 04:55 UTC,30.27,5.0,-0.76,77.75,8.05,260.0,,,,,,1.0,,,,10.0,,KIGQ 140455Z AUTO 26007KT 10SM CLR M15/M18 A3027 RMK AO2  T11501182,,,,,,-0.49,-4.64,W,29.61,30.23,,Clear
KIGQ,12/14/2016 05:15 UTC,30.27,4.1,-1.3,77.75,8.05,260.0,,,,,,1.0,,,,10.0,,KIGQ 140515Z AUTO 26007KT 10SM CLR M15/M18 A3027 RMK AO2  T11551185,,,,,,-1.37,-5.69,W,29.61,30.24,,Clear
KIGQ,12/14/2016 05:35 UTC,30.27,3.74,-1.3,84.49,8.05,260.0,,,,,,1.0,,,,10.0,,KIGQ 140535Z AUTO 26007KT 10SM CLR M16/M18 A3027 RMK AO2  T11571185,,,,,,0.07,-6.12,W,29.61,30.23,,Clear
KIGQ,12/14/2016 05:55 UTC,30.27,3.2,-1.66,77.57,8.05,250.0,,,,,,1.0,,,,10.0,,KIGQ 140555Z AUTO 25007KT 10SM CLR M16/M19 A3027 RMK AO2 T11601187  11115 21160 410461160,11.3,3.2,,23.72,3.2,-2.29,-6.75,WSW,29.61,30.24,,Clear
KIGQ,12/14/2016 06:15 UTC,30.27,3.38,-2.02,77.57,9.22,260.0,,,,,,1.0,,,,10.0,,KIGQ 140615Z AUTO 26008KT 10SM CLR M16/M19 A3027 RMK AO2  T11591189,,,,,,-2.12,-7.51,W,29.61,30.24,,Clear
KIGQ,12/14/2016 06:35 UTC,30.26,3.56,-2.2,76.29,6.91,260.0,,,,,,1.0,,,,10.0,,KIGQ 140635Z AUTO 26006KT 10SM CLR M16/M19 A3026 RMK AO2  T11581190,,,,,,-2.29,,W,29.6,30.23,,Clear
KIGQ,12/14/2016 06:55 UTC,30.26,3.38,-2.38,77.57,8.05,250.0,,,,,,1.0,,,,10.0,,KIGQ 140655Z AUTO 25007KT 10SM CLR M16/M19 A3026 RMK AO2  T11591191,,,,,,-2.12,-6.54,WSW,29.6,30.23,,Clear
KIGQ,12/14/2016 07:15 UTC,30.26,3.2,-2.2,77.57,3.44,260.0,,,,,,1.0,,,,10.0,,KIGQ 140715Z AUTO 26003KT 10SM CLR M16/M19 A3026 RMK AO2  T11601190,,,,,,-2.29,,W,29.6,30.23,,Clear
KIGQ,12/14/2016 07:35 UTC,30.25,3.38,-2.2,77.57,4.61,240.0,,,,,,1.0,,,,10.0,,KIGQ 140735Z AUTO 24004KT 10SM CLR M16/M19 A3025 RMK AO2  T11591190,,,,,,-2.12,,WSW,29.59,30.22,,Clear
KIGQ,12/14/2016 07:55 UTC,30.25,3.38,-2.02,77.57,3.44,240.0,,,,,,1.0,,,,10.0,,KIGQ 140755Z AUTO 24003KT 10SM CLR M16/M19 A3025 RMK AO2  T11591189,,,,,,-2.12,,WSW,29.59,30.22,,Clear
KIGQ,12/14/2016 08:15 UTC,30.24,3.02,-2.38,77.57,3.44,220.0,,,,,,1.0,,,,10.0,,KIGQ 140815Z AUTO 22003KT 10SM CLR M16/M19 A3024 RMK AO2  T11611191,,,,,,-2.46,,SW,29.58,30.21,,Clear
KIGQ,12/14/2016 08:35 UTC,30.24,-0.58,-4.18,84.23,3.44,200.0,,,,,,1.0,,,,10.0,,KIGQ 140835Z AUTO 20003KT 10SM CLR M18/M20 A3024 RMK AO2  T11811201,,,,,,-4.24,,SSW,29.58,30.23,,Clear
KIGQ,12/14/2016 08:55 UTC,30.23,-0.4,-3.82,84.96,3.44,220.0,,,,,,1.0,,,,10.0,,KIGQ 140855Z AUTO 22003KT 10SM CLR M18/M20 A3023 RMK AO2  T11801199,,,,,,-3.88,,SW,29.57,30.22,,Clear
KIGQ,12/14/2016 09:15 UTC,30.24,-0.04,-2.74,91.81,3.44,240.0,,,,,,1.0,,,,10.0,,KIGQ 140915Z AUTO 24003KT 10SM CLR M18/M19 A3024 RMK AO2  T11781193,,,,,,-1.88,,WSW,29.58,30.22,,Clear
KIGQ,12/14/2016 09:35 UTC,30.24,1.4,-2.38,84.36,3.44,240.0,,,,,,1.0,,,,10.0,,KIGQ 140935Z AUTO 24003KT 10SM CLR M17/M19 A3024 RMK AO2  T11701191,,,,,,-2.26,,WSW,29.58,30.22,,Clear
KIGQ,12/14/2016 09:55 UTC,30.25,3.2,-1.3,84.49,5.75,260.0,,,,,,1.0,,,,10.0,,KIGQ 140955Z AUTO 26005KT 10SM CLR M16/M18 A3025 RMK AO2  T11601185,,,,,,-0.46,,W,29.59,30.22,,Clear
KIGQ,12/14/2016 10:15 UTC,30.23,5.0,-0.76,77.75,6.91,240.0,,,,,,1.0,,,,10.0,,KIGQ 141015Z AUTO 24006KT 10SM CLR M15/M18 A3023 RMK AO2  T11501182,,,,,,-0.49,,WSW,29.57,30.19,,Clear
KIGQ,12/14/2016 10:35 UTC,30.23,5.0,-0.76,77.75,9.22,240.0,,,,,,1202.0,,,,10.0,,KIGQ 141035Z AUTO 24008KT 10SM SCT120 M15/M18 A3023 RMK AO2  T11501182,,,,,,-0.49,-5.59,WSW,29.57,30.19,,Partly Cloudy
KIGQ,12/14/2016 10:55 UTC,30.23,6.26,-0.4,71.6,8.05,250.0,,,,,,1203.0,,,,10.0,,KIGQ 141055Z AUTO 25007KT 10SM BKN120 M14/M18 A3023 RMK AO2  T11431180,,,12000.0,,,-1.04,-3.16,WSW,29.57,30.19,,Mostly Cloudy
KIGQ,12/14/2016 11:15 UTC,30.23,7.52,0.32,71.6,9.22,250.0,,,,,,1202.0,,,,10.0,,KIGQ 141115Z AUTO 25008KT 10SM SCT120 M14/M18 A3023 RMK AO2  T11361176,,,,,,0.18,-2.6,WSW,29.57,30.18,,Partly Cloudy
KIGQ,12/14/2016 11:35 UTC,30.22,7.16,0.32,71.6,6.91,230.0,,,,,,1.0,,,,10.0,,KIGQ 141135Z AUTO 23006KT 10SM CLR M14/M18 A3022 RMK AO2  T11381176,,,,,,-0.17,,SW,29.56,30.17,,Clear
KIGQ,12/14/2016 11:55 UTC,30.22,7.34,0.14,71.6,5.75,240.0,,,,,,1.0,,,,10.0,,KIGQ 141155Z AUTO 24005KT 10SM CLR M14/M18 A3022 RMK AO2 T11371177  11135 21185,7.7,-1.3,,,,0.0,,WSW,29.56,30.17,,Clear
KIGQ,12/14/2016 12:15 UTC,30.22,4.64,-1.48,71.38,5.75,200.0,,,,,,1.0,,,,10.0,,KIGQ 141215Z AUTO 20005KT 10SM CLR M15/M19 A3022 RMK AO2  T11521186,,,,,,-2.66,,SSW,29.56,30.19,,Clear
KIGQ,12/14/2016 12:35 UTC,30.22,5.36,-0.04,77.78,9.22,230.0,,,,,,1.0,,,,10.0,,KIGQ 141235Z AUTO 23008KT 10SM CLR M15/M18 A3022 RMK AO2  T11481178,,,,,,-0.13,-5.16,SW,29.56,30.18,,Clear
KIGQ,12/14/2016 12:55 UTC,30.23,5.72,-0.4,75.22,8.05,220.0,,,,,,1102.0,,,,10.0,,KIGQ 141255Z AUTO 22007KT 10SM SCT110 M15/M18 A3023 RMK AO2  T11461180,,,,,,-0.5,-3.79,SW,29.57,30.19,,Partly Cloudy
KIGQ,12/14/2016 13:15 UTC,30.24,5.9,-0.04,71.6,6.91,230.0,,,,,,1102.0,,,,10.0,,KIGQ 141315Z AUTO 23006KT 10SM SCT110 M14/M18 A3024 RMK AO2  T11451178,,,,,,-1.38,,SW,29.58,30.2,,Partly Cloudy
KIGQ,12/14/2016 13:35 UTC,30.23,4.64,-1.12,77.75,6.91,210.0,,,,,,1.0,,,,10.0,,KIGQ 141335Z AUTO 21006KT 10SM CLR M15/M18 A3023 RMK AO2  T11521184,,,,,,-0.84,,SSW,29.57,30.19,,Clear
KIGQ,12/14/2016 13:55 UTC,30.22,5.0,-0.4,77.75,10.36,200.0,,,,,,1.0,,,,10.0,,KIGQ 141355Z AUTO 20009KT 10SM CLR M15/M18 A3022 RMK AO2  T11501180,,,,,,-0.49,-6.43,SSW,29.56,30.18,,Clear
KIGQ,12/14/2016 14:15 UTC,30.21,5.9,0.14,76.53,10.36,210.0,,,,,,1102.0,,,,10.0,,KIGQ 141415Z AUTO 21009KT 10SM SCT110 M14/M18 A3021 RMK AO2  T11451177,,,,,,0.04,-5.35,SSW,29.55,30.16,,Partly Cloudy
KIGQ,12/14/2016 14:35 UTC,30.21,8.06,1.94,75.47,9.22,230.0,,,,,,1203.0,,,,10.0,,KIGQ 141435Z AUTO 23008KT 10SM BKN120 M13/M17 A3021 RMK AO2  T11331167,,,12000.0,,,1.84,-1.96,SW,29.55,30.15,,Mostly Cloudy
KIGQ,12/14/2016 14:55 UTC,30.21,11.3,3.74,66.47,12.66,230.0,,,,,,1202.0,,,,10.0,,KIGQ 141455Z AUTO 23011KT 10SM SCT120 M11/M16 A3021 RMK AO2  T11151157,,,,,,2.19,-0.24,SW,29.55,30.14,,Partly Cloudy
KIGQ,12/14/2016 15:15 UTC,30.22,13.1,4.82,66.71,9.22,240.0,,,,,,953.0,,,,10.0,,KIGQ 141515Z AUTO 24008KT 10SM BKN095 M10/M15 A3022 RMK AO2  T11051151,,,9500.0,,,3.99,4.02,WSW,29.56,30.13,,Mostly Cloudy
KIGQ,12/14/2016 15:35 UTC,30.22,14.9,5.54,61.66,16.11,240.0,,,,,,854.0,,,,10.0,,KIGQ 141535Z AUTO 24014KT 10SM OVC085 M09/M15 A3022 RMK AO2  T10951147,,,8500.0,,,3.98,2.53,WSW,29.56,30.13,,Overcast
KIGQ,12/14/2016 15:55 UTC,30.22,15.26,6.44,67.43,11.5,250.0,,,,,,703.0,854.0,,,10.0,,KIGQ 141555Z AUTO 25010KT 10SM BKN070 OVC085 M09/M14 A3022 RMK AO2  T10931142,,,7000.0,,,6.29,5.19,WSW,29.56,30.12,,Overcast
KIGQ,12/14/2016 16:15 UTC,30.21,15.44,6.26,66.95,14.97,240.0,20.71,,,,,602.0,704.0,,,10.0,,KIGQ 141615Z AUTO 24013G18KT 10SM SCT060 OVC070 M09/M14 A3021 RMK AO2 T10921143,,,7000.0,,,6.31,3.69,WSW,29.55,30.1,,Overcast
KIGQ,12/14/2016 16:35 UTC,30.21,15.8,6.98,67.5,13.8,250.0,,,,,,503.0,604.0,,,10.0,,KIGQ 141635Z AUTO 25012KT 10SM BKN050 OVC060 M09/M14 A3021 RMK AO2  T10901139,,,5000.0,,,6.83,4.67,WSW,29.55,30.1,,Overcast
KIGQ,12/14/2016 16:55 UTC,30.19,15.8,7.88,72.65,11.5,240.0,,,504.0,,,333.0,413.0,,,7.0,,KIGQ 141655Z AUTO 24010KT 7SM BKN033 BKN041 OVC050 M09/M13  A3019 RMK AO2 T10901134,,,3300.0,,,8.48,5.85,WSW,29.53,30.07,,Overcast
KIGQ,12/14/2016 17:15 UTC,30.19,16.52,8.96,72.65,9.22,240.0,,20.0,,,,314.0,,,,5.0,,KIGQ 141715Z AUTO 24008KT 5SM -SN OVC031 M09/M13 A3019 RMK AO2  T10861128,,,3100.0,,,9.17,8.08,WSW,29.53,30.07,,Light Snow
KIGQ,12/14/2016 17:35 UTC,30.16,18.32,11.12,72.85,10.36,230.0,,20.0,,,,283.0,334.0,,,7.0,,KIGQ 141735Z AUTO 23009KT 7SM -SN BKN028 OVC033 M08/M12 A3016 RMK AO2 T10761116,,,2800.0,,,10.97,9.52,SW,29.5,30.02,,Light Snow
KIGQ,12/14/2016 17:55 UTC,30.15,18.32,11.48,74.11,11.5,230.0,,20.0,,,,303.0,364.0,,,7.0,,KIGQ 141755Z AUTO 23010KT 7SM -SN BKN030 OVC036 M08/M11 A3015 RMK AO2 T10761114 11075 21161,18.5,3.02,3000.0,,,11.36,8.89,SW,29.49,30.01,,Light Snow
KIGQ,12/14/2016 18:15 UTC,30.14,19.22,12.2,73.06,12.66,240.0,19.57,,494.0,,,312.0,383.0,,,10.0,,KIGQ 141815Z AUTO 24011G17KT 10SM SCT031 BKN038 OVC049 M07/M11  A3014 RMK AO2 T10711110,,,3800.0,,,11.91,9.39,WSW,29.48,29.99,,Overcast
KIGQ,12/14/2016 18:35 UTC,30.13,20.12,12.2,73.06,16.11,250.0,21.85,,,,,474.0,,,,10.0,,KIGQ 141835Z AUTO 25014G19KT 10SM OVC047 M07/M11 A3013 RMK AO2  T10661110,,,4700.0,,,12.77,9.0,WSW,29.47,29.97,,Overcast
KIGQ,12/14/2016 18:55 UTC,30.12,20.84,11.66,67.65,16.11,260.0,,,,,,493.0,654.0,,,10.0,,KIGQ 141855Z AUTO 26014KT 10SM BKN049 OVC065 M06/M11 A3012 RMK AO2  T10621113,,,4900.0,,,11.71,9.89,W,29.47,29.97,,Overcast
KIGQ,12/14/2016 19:15 UTC,30.11,21.2,10.58,62.44,17.27,270.0,26.46,,,,,493.0,654.0,,,10.0,,KIGQ 141915Z AUTO 27015G23KT 10SM BKN049 OVC065 M06/M12 A3011 RMK AO2 T10601119,,,4900.0,,,10.23,9.91,W,29.46,29.97,,Overcast
KIGQ,12/14/2016 19:35 UTC,30.11,20.3,8.96,57.58,21.85,260.0,31.07,,,,,554.0,,,,10.0,,KIGQ 141935Z AUTO 26019G27KT 10SM OVC055 M06/M13 A3011 RMK AO2  T10651128,,,5500.0,,,7.56,7.27,W,29.46,29.99,,Overcast
KIGQ,12/14/2016 19:55 UTC,30.11,20.66,9.68,61.86,23.02,260.0,29.93,,,,,552.0,,,,10.0,,KIGQ 141955Z AUTO 26020G26KT 10SM SCT055 M06/M12 A3011 RMK AO2  T10631124,,,,,,9.51,7.38,W,29.46,29.97,,Partly Cloudy
KIGQ,12/14/2016 20:15 UTC,30.11,20.3,9.32,57.58,19.57,270.0,33.38,,,,,362.0,,,,10.0,,KIGQ 142015Z AUTO 27017G29KT 10SM SCT036 M06/M13 A3011 RMK AO2  T10651126,,,,,,7.56,7.98,W,29.46,29.99,,Partly Cloudy
KIGQ,12/14/2016 20:35 UTC,30.11,20.12,9.86,63.81,24.16,280.0,32.21,,,,,1.0,,,,10.0,,KIGQ 142035Z AUTO 28021G28KT 10SM CLR M07/M12 A3011 RMK AO2  T10661123,,,,,,9.69,6.37,W,29.46,29.98,,Clear
KIGQ,12/14/2016 20:55 UTC,30.11,19.94,9.5,63.28,21.85,270.0,34.52,,,,,352.0,,,,10.0,,KIGQ 142055Z AUTO 27019G30KT 10SM SCT035 M07/M12 A3011 RMK AO2  T10671125,,,,,,9.34,6.81,W,29.46,29.98,,Partly Cloudy
KIGQ,12/14/2016 21:15 UTC,30.12,19.76,8.78,62.18,24.16,280.0,32.21,,,,,373.0,443.0,,,10.0,,KIGQ 142115Z AUTO 28021G28KT 10SM BKN037 BKN044 M07/M13 A3012 RMK AO2 T10681129,,,3700.0,,,8.77,5.91,W,29.47,29.99,,Mostly Cloudy
KIGQ,12/14/2016 21:35 UTC,30.13,18.5,5.9,57.16,17.27,280.0,28.77,,,,,393.0,,,,10.0,,KIGQ 142135Z AUTO 28015G25KT 10SM BKN039 M07/M14 A3013 RMK AO2  T10751145,,,3900.0,,,5.71,6.54,W,29.47,30.01,,Mostly Cloudy
KIGQ,12/14/2016 21:55 UTC,30.13,17.96,6.26,61.92,20.71,270.0,29.93,,,,,392.0,,,,10.0,,KIGQ 142155Z AUTO 27018G26KT 10SM SCT039 M08/M14 A3013 RMK AO2  T10781143,,,,,,6.97,4.66,W,29.47,30.01,,Partly Cloudy
KIGQ,12/14/2016 22:15 UTC,30.14,15.44,3.74,56.74,25.32,280.0,33.38,,,,,1.0,,,,10.0,,KIGQ 142215Z AUTO 28022G29KT 10SM CLR M09/M16 A3014 RMK AO2  T10921157,,,,,,2.67,0.04,W,29.48,30.05,,Clear
KIGQ,12/14/2016 22:35 UTC,30.15,14.54,2.48,61.39,23.02,290.0,36.82,,,,,1.0,,,,10.0,,KIGQ 142235Z AUTO 29020G32KT 10SM CLR M10/M16 A3015 RMK AO2  T10971164,,,,,,3.54,-0.43,WNW,29.49,30.06,,Clear
KIGQ,12/14/2016 22:55 UTC,30.16,14.0,3.2,61.39,19.57,290.0,34.52,,,,,1.0,,,,10.0,,KIGQ 142255Z AUTO 29017G30KT 10SM CLR M10/M16 A3016 RMK AO2  T11001160,,,,,,3.03,0.05,WNW,29.5,30.07,,Clear
KIGQ,12/14/2016 23:15 UTC,30.17,13.64,4.1,66.71,19.57,280.0,32.21,,,,,1.0,,,,10.0,,KIGQ 142315Z AUTO 28017G28KT 10SM CLR M10/M15 A3017 RMK AO2  T11021155,,,,,,4.51,-0.4,W,29.51,30.08,,Clear
KIGQ,12/14/2016 23:35 UTC,30.17,13.1,3.92,61.39,18.41,280.0,29.93,,,,,1.0,,,,10.0,,KIGQ 142335Z AUTO 28016G26KT 10SM CLR M10/M16 A3017 RMK AO2  T11051156,,,,,,2.18,-0.64,W,29.51,30.09,,Clear
KIGQ,12/14/2016 23:55 UTC,30.17,12.38,2.12,61.12,18.41,280.0,26.46,,,,,1.0,,,,10.0,,KIGQ 142355Z AUTO 28016G23KT 10SM CLR M11/M17 A3017 RMK AO2  T11091166 11060 21109,21.2,12.38,,,,1.4,-1.54,W,29.51,30.09,,Clear
KIGQ,12/15/2016 00:15 UTC,30.17,11.66,0.5,61.12,23.02,280.0,32.21,,,,,1.0,,,,10.0,,KIGQ 150015Z AUTO 28020G28KT 10SM CLR M11/M17 A3017 RMK AO2  T11131175,,,,,,0.72,-4.1,W,29.51,30.1,,Clear
KIGQ,12/15/2016 00:35 UTC,30.19,11.12,1.22,66.23,19.57,280.0,29.93,,,,,1.0,,,,10.0,,KIGQ 150035Z AUTO 28017G26KT 10SM CLR M12/M17 A3019 RMK AO2  T11161171,,,,,,1.94,-3.57,W,29.53,30.12,,Clear
KIGQ,12/15/2016 00:55 UTC,30.19,10.58,0.14,60.85,14.97,290.0,27.63,,,,,1.0,,,,10.0,,KIGQ 150055Z AUTO 29013G24KT 10SM CLR M12/M18 A3019 RMK AO2  T11191177,,,,,,-0.4,-2.3,WNW,29.53,30.13,,Clear
KIGQ,12/15/2016 01:15 UTC,30.19,10.22,-0.94,60.85,19.57,290.0,29.93,,,,,1.0,,,,10.0,,KIGQ 150115Z AUTO 29017G26KT 10SM CLR M12/M18 A3019 RMK AO2  T11211183,,,,,,-0.74,-4.71,WNW,29.53,30.13,,Clear
KIGQ,12/15/2016 01:35 UTC,30.2,9.5,-1.48,55.87,20.71,280.0,27.63,,,,,1.0,,,,10.0,,KIGQ 150135Z AUTO 28018G24KT 10SM CLR M12/M19 A3020 RMK AO2  T11251186,,,,,,-3.23,-6.04,W,29.54,30.15,,Clear
KIGQ,12/15/2016 01:55 UTC,30.21,9.32,-1.3,61.21,21.85,280.0,34.52,,,,,1.0,,,,10.0,,KIGQ 150155Z AUTO 28019G30KT 10SM CLR M13/M18 A3021 RMK AO2  T11261185,,,,,,-1.46,-6.68,W,29.55,30.16,,Clear
KIGQ,12/15/2016 02:15 UTC,30.21,8.6,-2.38,60.58,19.57,290.0,25.32,,,,,1.0,,,,10.0,,KIGQ 150215Z AUTO 29017G22KT 10SM CLR M13/M19 A3021 RMK AO2  T11301191,,,,,,-2.36,-6.75,WNW,29.55,30.16,,Clear
KIGQ,12/15/2016 02:35 UTC,30.23,8.24,-2.38,60.58,14.97,290.0,25.32,,,,,1.0,,,,10.0,,KIGQ 150235Z AUTO 29013G22KT 10SM CLR M13/M19 A3023 RMK AO2  T11321191,,,,,,-2.7,-5.18,WNW,29.57,30.18,,Clear
KIGQ,12/15/2016 02:55 UTC,30.23,7.7,-2.74,60.58,13.8,280.0,24.16,,,,,1.0,,,,10.0,,KIGQ 150255Z AUTO 28012G21KT 10SM CLR M13/M19 A3023 RMK AO2  T11351193,,,,,,-3.21,-5.25,W,29.57,30.19,,Clear
KIGQ,12/15/2016 03:15 UTC,30.23,7.34,-3.28,60.91,16.11,300.0,24.16,,,,,1.0,,,,10.0,,KIGQ 150315Z AUTO 30014G21KT 10SM CLR M14/M20 A3023 RMK AO2  T11371196,,,,,,-3.44,-6.84,WNW,29.57,30.19,,Clear
KIGQ,12/15/2016 03:35 UTC,30.24,6.8,-3.64,60.31,17.27,290.0,24.16,,,,,1.0,,,,10.0,,KIGQ 150335Z AUTO 29015G21KT 10SM CLR M14/M20 A3024 RMK AO2  T11401198,,,,,,-4.16,-8.04,WNW,29.58,30.2,,Clear
KIGQ,12/15/2016 03:55 UTC,30.25,6.62,-3.46,60.31,11.5,290.0,27.63,,,,,1.0,,,,10.0,,KIGQ 150355Z AUTO 29010G24KT 10SM CLR M14/M20 A3025 RMK AO2  T11411197,,,,,,-4.33,-5.24,WNW,29.59,30.21,,Clear
KIGQ,12/15/2016 04:15 UTC,30.26,6.26,-3.46,60.31,14.97,300.0,25.32,,,,,1.0,,,,10.0,,KIGQ 150415Z AUTO 30013G22KT 10SM CLR M14/M20 A3026 RMK AO2  T11431197,,,,,,-4.67,-7.62,WNW,29.6,30.23,,Clear
KIGQ,12/15/2016 04:35 UTC,30.27,5.9,-4.0,60.31,13.8,300.0,24.16,,,,,1.0,,,,10.0,,KIGQ 150435Z AUTO 30012G21KT 10SM CLR M14/M20 A3027 RMK AO2  T11451200,,,,,,-5.01,-7.45,WNW,29.61,30.24,,Clear
KIGQ,12/15/2016 04:55 UTC,30.27,5.72,-4.0,65.49,16.11,310.0,21.85,,,,,1.0,,,,10.0,,KIGQ 150455Z AUTO 31014G19KT 10SM CLR M15/M20 A3027 RMK AO2  T11461200,,,,,,-3.45,-8.85,NW,29.61,30.23,,Clear
KIGQ,12/15/2016 05:15 UTC,30.29,5.18,-4.54,65.49,12.66,300.0,19.57,,,,,1.0,,,,10.0,,KIGQ 150515Z AUTO 30011G17KT 10SM CLR M15/M20 A3029 RMK AO2  T11491203,,,,,,-3.97,-7.69,WNW,29.63,30.26,,Clear
KIGQ,12/15/2016 05:35 UTC,30.29,5.0,-4.36,64.36,10.36,290.0,16.11,,,,,1.0,,,,10.0,,KIGQ 150535Z AUTO 29009G14KT 10SM CLR M15/M20 A3029 RMK AO2  T11501202,,,,,,-4.5,-6.43,WNW,29.63,30.26,,Clear
KIGQ,12/15/2016 05:55 UTC,30.29,4.46,-4.54,65.49,11.5,290.0,18.41,,,,,1.0,,,,10.0,,KIGQ 150555Z AUTO 29010G16KT 10SM CLR M15/M20 A3029 RMK AO2  T11531203 11110 21153 410601185,12.2,4.46,,21.2,-1.3,-4.65,-7.84,WNW,29.63,30.26,,Clear
KIGQ,12/15/2016 06:15 UTC,30.3,4.28,-4.9,65.49,8.05,300.0,17.27,,,,,1.0,,,,10.0,,KIGQ 150615Z AUTO 30007G15KT 10SM CLR M15/M20 A3030 RMK AO2  T11541205,,,,,,-4.82,-5.48,WNW,29.64,30.27,,Clear
KIGQ,12/15/2016 06:35 UTC,30.3,3.92,-4.9,71.16,8.05,290.0,,,,,,1.0,,,,10.0,,KIGQ 150635Z AUTO 29007KT 10SM CLR M16/M20 A3030 RMK AO2  T11561205,,,,,,-3.42,-5.91,WNW,29.64,30.27,,Clear
KIGQ,12/15/2016 06:55 UTC,30.3,3.74,-4.9,71.16,6.91,290.0,,,,,,1.0,,,,10.0,,KIGQ 150655Z AUTO 29006KT 10SM CLR M16/M20 A3030 RMK AO2  T11571205,,,,,,-3.6,,WNW,29.64,30.27,,Clear
KIGQ,12/15/2016 07:15 UTC,30.31,3.74,-4.9,71.16,8.05,300.0,,,,,,1.0,,,,10.0,,KIGQ 150715Z AUTO 30007KT 10SM CLR M16/M20 A3031 RMK AO2  T11571205,,,,,,-3.6,-6.12,WNW,29.65,30.28,,Clear
KIGQ,12/15/2016 07:35 UTC,30.32,3.56,-4.9,71.16,8.05,290.0,,,,,,1.0,,,,10.0,,KIGQ 150735Z AUTO 29007KT 10SM CLR M16/M20 A3032 RMK AO2  T11581205,,,,,,-3.77,-6.33,WNW,29.66,30.29,,Clear
KIGQ,12/15/2016 07:55 UTC,30.32,3.02,-4.9,68.71,9.22,290.0,,,,,,1.0,,,,10.0,,KIGQ 150755Z AUTO 29008KT 10SM CLR M16/M20 A3032 RMK AO2  T11611205,,,,,,-5.02,-7.94,WNW,29.66,30.3,,Clear
KIGQ,12/15/2016 08:15 UTC,30.34,3.02,-5.26,65.23,9.22,290.0,17.27,,,,,1.0,,,,10.0,,KIGQ 150815Z AUTO 29008G15KT 10SM CLR M16/M21 A3034 RMK AO2  T11611207,,,,,,-6.11,-7.94,WNW,29.68,30.32,,Clear
KIGQ,12/15/2016 08:35 UTC,30.34,2.48,-5.44,68.64,9.22,280.0,,,,,,1.0,,,,10.0,,KIGQ 150835Z AUTO 28008KT 10SM CLR M16/M21 A3034 RMK AO2  T11641208,,,,,,-5.56,-8.58,W,29.68,30.32,,Clear
KIGQ,12/15/2016 08:55 UTC,30.34,2.3,-5.62,65.23,8.05,280.0,,,,,,1.0,,,,10.0,,KIGQ 150855Z AUTO 28007KT 10SM CLR M16/M21 A3034 RMK AO2  T11651209,,,,,,-6.79,-7.81,W,29.68,30.33,,Clear
KIGQ,12/15/2016 09:15 UTC,30.34,2.12,-5.8,70.94,9.22,280.0,,,,,,1.0,,,,10.0,,KIGQ 150915Z AUTO 28008KT 10SM CLR M17/M21 A3034 RMK AO2  T11661210,,,,,,-5.22,-9.01,W,29.68,30.32,,Clear
KIGQ,12/15/2016 09:35 UTC,30.35,1.76,-5.8,70.94,9.22,280.0,,,,,,1.0,,,,10.0,,KIGQ 150935Z AUTO 28008KT 10SM CLR M17/M21 A3035 RMK AO2  T11681210,,,,,,-5.57,-9.44,W,29.69,30.34,,Clear
KIGQ,12/15/2016 09:55 UTC,30.36,1.4,-6.16,69.71,9.22,280.0,,,,,,1.0,,,,10.0,,KIGQ 150955Z AUTO 28008KT 10SM CLR M17/M21 A3036 RMK AO2  T11701212,,,,,,-6.28,-9.86,W,29.7,30.35,,Clear
KIGQ,12/15/2016 10:15 UTC,30.36,1.4,-5.98,70.94,10.36,280.0,,,,,,1.0,,,,10.0,,KIGQ 151015Z AUTO 28009KT 10SM CLR M17/M21 A3036 RMK AO2  T11701211,,,,,,-5.91,-10.74,W,29.7,30.35,,Clear
KIGQ,12/15/2016 10:35 UTC,30.36,1.22,-6.16,70.94,9.22,290.0,,,,,,1.0,,,,10.0,,KIGQ 151035Z AUTO 29008KT 10SM CLR M17/M21 A3036 RMK AO2  T11711212,,,,,,-6.09,-10.08,WNW,29.7,30.35,,Clear
KIGQ,12/15/2016 10:55 UTC,30.37,0.32,-6.34,77.21,9.22,260.0,,,,,,1.0,,,,10.0,,KIGQ 151055Z AUTO 26008KT 10SM CLR M18/M21 A3037 RMK AO2  T11761213,,,,,,-5.19,-11.15,W,29.71,30.36,,Clear
KIGQ,12/15/2016 11:15 UTC,30.38,0.5,-5.8,70.94,9.22,270.0,,,,,,1.0,,,,10.0,,KIGQ 151115Z AUTO 27008KT 10SM CLR M17/M21 A3038 RMK AO2  T11751210,,,,,,-6.78,-10.93,W,29.72,30.37,,Clear
KIGQ,12/15/2016 11:35 UTC,30.38,0.5,-5.98,70.94,11.5,280.0,,,,,,1.0,,,,10.0,,KIGQ 151135Z AUTO 28010KT 10SM CLR M17/M21 A3038 RMK AO2  T11751211,,,,,,-6.78,-12.62,W,29.72,30.37,,Clear
KIGQ,12/15/2016 11:55 UTC,30.38,0.32,-6.16,73.34,10.36,280.0,,,,,,1.0,,,,10.0,,KIGQ 151155Z AUTO 28009KT 10SM CLR M18/M21 A3038 RMK AO2 T11761212  11153 21177,4.46,0.14,,,,-6.26,-12.03,W,29.72,30.37,,Clear
KIGQ,12/15/2016 12:15 UTC,30.39,0.14,-6.16,77.21,9.22,270.0,,,,,,1.0,,,,10.0,,KIGQ 151215Z AUTO 27008KT 10SM CLR M18/M21 A3039 RMK AO2  T11771212,,,,,,-5.36,-11.36,W,29.73,30.38,,Clear
KIGQ,12/15/2016 12:35 UTC,30.39,-0.58,-6.52,77.21,10.36,270.0,,,,,,1.0,,,,10.0,,KIGQ 151235Z AUTO 27009KT 10SM CLR M18/M21 A3039 RMK AO2  T11811214,,,,,,-6.06,-13.11,W,29.73,30.39,,Clear
KIGQ,12/15/2016 12:55 UTC,30.39,-0.76,-6.52,77.21,10.36,260.0,,,,,,1.0,,,,10.0,,KIGQ 151255Z AUTO 26009KT 10SM CLR M18/M21 A3039 RMK AO2  T11821214,,,,,,-6.24,-13.32,W,29.73,30.39,,Clear
KIGQ,12/15/2016 13:15 UTC,30.4,-0.4,-6.34,77.21,6.91,290.0,,,,,,1.0,,,,10.0,,KIGQ 151315Z AUTO 29006KT 10SM CLR M18/M21 A3040 RMK AO2  T11801213,,,,,,-5.89,,WNW,29.74,30.39,,Clear
KIGQ,12/15/2016 13:35 UTC,30.4,0.14,-6.34,77.21,10.36,270.0,,,,,,1.0,,,,10.0,,KIGQ 151335Z AUTO 27009KT 10SM CLR M18/M21 A3040 RMK AO2  T11771213,,,,,,-5.36,-12.25,W,29.74,30.39,,Clear
KIGQ,12/15/2016 13:55 UTC,30.41,0.14,-6.34,73.31,14.97,270.0,,,,,,1.0,,,,10.0,,KIGQ 151355Z AUTO 27013KT 10SM CLR M18/M21 A3041 RMK AO2  T11771213,,,,,,-6.44,-15.16,W,29.75,30.4,,Clear
KIGQ,12/15/2016 14:15 UTC,30.42,0.5,-6.16,70.94,13.8,270.0,,,,,,1.0,,,,10.0,,KIGQ 151415Z AUTO 27012KT 10SM CLR M17/M21 A3042 RMK AO2  T11751212,,,,,,-6.78,-14.06,W,29.76,30.41,,Clear
KIGQ,12/15/2016 14:35 UTC,30.43,1.4,-5.98,70.94,12.66,270.0,,,,,,1.0,,,,10.0,,KIGQ 151435Z AUTO 27011KT 10SM CLR M17/M21 A3043 RMK AO2  T11701211,,,,,,-5.91,-12.28,W,29.77,30.42,,Clear
KIGQ,12/15/2016 14:55 UTC,30.44,1.76,-5.98,70.94,11.5,270.0,,,,,,1.0,,,,10.0,,KIGQ 151455Z AUTO 27010KT 10SM CLR M17/M21 A3044 RMK AO2  T11681211,,,,,,-5.57,-11.1,W,29.78,30.43,,Clear
KIGQ,12/15/2016 15:15 UTC,30.44,2.48,-5.8,65.23,13.8,270.0,,,,,,1.0,,,,10.0,,KIGQ 151515Z AUTO 27012KT 10SM CLR M16/M21 A3044 RMK AO2  T11641210,,,,,,-6.62,-11.64,W,29.78,30.43,,Clear
KIGQ,12/15/2016 15:35 UTC,30.45,2.84,-5.8,65.23,17.27,270.0,,,,,,1.0,,,,10.0,,KIGQ 151535Z AUTO 27015KT 10SM CLR M16/M21 A3045 RMK AO2  T11621210,,,,,,-6.28,-12.98,W,29.79,30.44,,Clear
KIGQ,12/15/2016 15:55 UTC,30.46,3.74,-5.8,65.23,14.97,280.0,23.02,,,,,1.0,,,,10.0,,KIGQ 151555Z AUTO 28013G20KT 10SM CLR M16/M21 A3046 RMK AO2  T11571210,,,,,,-5.42,-10.73,W,29.8,30.44,,Clear
KIGQ,12/15/2016 16:15 UTC,30.45,4.1,-4.9,65.49,13.8,260.0,,,,,,1.0,,,,10.0,,KIGQ 151615Z AUTO 26012KT 10SM CLR M15/M20 A3045 RMK AO2  T11551205,,,,,,-5.0,-9.66,W,29.79,30.43,,Clear
KIGQ,12/15/2016 16:35 UTC,30.45,4.82,-4.18,65.49,16.11,260.0,19.57,,,,,1.0,,,,10.0,,KIGQ 151635Z AUTO 26014G17KT 10SM CLR M15/M20 A3045 RMK AO2  T11511201,,,,,,-4.31,-9.97,W,29.79,30.42,,Clear
KIGQ,12/15/2016 16:55 UTC,30.45,5.18,-4.0,65.49,14.97,260.0,,,,,,1.0,,,,10.0,,KIGQ 151655Z AUTO 26013KT 10SM CLR M15/M20 A3045 RMK AO2  T11491200,,,,,,-3.97,-8.95,W,29.79,30.42,,Clear
KIGQ,12/15/2016 17:15 UTC,30.44,5.9,-3.28,60.31,11.5,260.0,,,,,,1.0,,,,10.0,,KIGQ 151715Z AUTO 26010KT 10SM CLR M14/M20 A3044 RMK AO2  T11451196,,,,,,-5.01,-6.1,W,29.78,30.41,,Clear
KIGQ,12/15/2016 17:35 UTC,30.43,7.52,-2.74,65.74,12.66,280.0,19.57,,,,,1.0,,,,10.0,,KIGQ 151735Z AUTO 28011G17KT 10SM CLR M14/M19 A3043 RMK AO2  T11361193,,,,,,-1.65,-4.84,W,29.77,30.39,,Clear
KIGQ,12/15/2016 17:55 UTC,30.43,7.7,-2.38,60.58,12.66,260.0,,,,,,1.0,,,,10.0,,KIGQ 151755Z AUTO 26011KT 10SM CLR M13/M19 A3043 RMK AO2 T11351191  11135 21182,7.7,-0.76,,,,-3.21,-4.62,W,29.77,30.39,,Clear
KIGQ,12/15/2016 18:15 UTC,30.44,7.7,-2.38,60.58,12.66,260.0,,,,,,1.0,,,,10.0,,KIGQ 151815Z AUTO 26011KT 10SM CLR M13/M19 A3044 RMK AO2  T11351191,,,,,,-3.21,-4.62,W,29.78,30.4,,Clear
KIGQ,12/15/2016 18:35 UTC,30.43,8.42,-2.2,60.58,13.8,260.0,18.41,,,,,1.0,,,,10.0,,KIGQ 151835Z AUTO 26012G16KT 10SM CLR M13/M19 A3043 RMK AO2  T11311190,,,,,,-2.53,-4.37,W,29.77,30.39,,Clear
KIGQ,12/15/2016 18:55 UTC,30.43,9.5,-1.3,60.85,11.5,270.0,18.41,,,,,1.0,,,,10.0,,KIGQ 151855Z AUTO 27010G16KT 10SM CLR M12/M18 A3043 RMK AO2  T11251185,,,,,,-1.42,-1.76,W,29.77,30.38,,Clear
KIGQ,12/15/2016 19:15 UTC,30.42,9.5,-1.3,60.85,11.5,260.0,18.41,,,,,1.0,,,,10.0,,KIGQ 151915Z AUTO 26010G16KT 10SM CLR M12/M18 A3042 RMK AO2  T11251185,,,,,,-1.42,-1.76,W,29.76,30.37,,Clear
KIGQ,12/15/2016 19:35 UTC,30.43,9.86,-0.94,60.85,12.66,270.0,,,,,,1.0,,,,10.0,,KIGQ 151935Z AUTO 27011KT 10SM CLR M12/M18 A3043 RMK AO2  T11231183,,,,,,-1.08,-1.99,W,29.77,30.38,,Clear
KIGQ,12/15/2016 19:55 UTC,30.44,10.4,-0.4,60.85,11.5,260.0,,,,,,1.0,,,,10.0,,KIGQ 151955Z AUTO 26010KT 10SM CLR M12/M18 A3044 RMK AO2  T11201180,,,,,,-0.57,-0.67,W,29.78,30.38,,Clear
KIGQ,12/15/2016 20:15 UTC,30.44,10.4,0.14,60.85,14.97,260.0,18.41,,,,,1.0,,,,10.0,,KIGQ 152015Z AUTO 26013G16KT 10SM CLR M12/M18 A3044 RMK AO2  T11201177,,,,,,-0.57,-2.52,W,29.78,30.38,,Clear
KIGQ,12/15/2016 20:35 UTC,30.43,9.5,0.32,60.85,10.36,260.0,,,,,,1.0,,,,10.0,,KIGQ 152035Z AUTO 26009KT 10SM CLR M12/M18 A3043 RMK AO2  T11251176,,,,,,-1.42,-1.04,W,29.77,30.38,,Clear
KIGQ,12/15/2016 20:55 UTC,30.42,9.86,0.32,60.85,10.36,260.0,,,,,,1.0,,,,10.0,,KIGQ 152055Z AUTO 26009KT 10SM CLR M12/M18 A3042 RMK AO2  T11231176,,,,,,-1.08,-0.61,W,29.76,30.37,,Clear
KIGQ,12/15/2016 21:15 UTC,30.42,10.04,-0.4,60.85,10.36,270.0,,,,,,1.0,,,,10.0,,KIGQ 152115Z AUTO 27009KT 10SM CLR M12/M18 A3042 RMK AO2  T11221180,,,,,,-0.91,-0.39,W,29.76,30.37,,Clear
KIGQ,12/15/2016 21:35 UTC,30.43,9.32,-0.76,65.98,11.5,260.0,,,,,,1.0,,,,10.0,,KIGQ 152135Z AUTO 26010KT 10SM CLR M13/M18 A3043 RMK AO2  T11261182,,,,,,0.14,-1.98,W,29.77,30.38,,Clear
KIGQ,12/15/2016 21:55 UTC,30.44,8.42,-0.4,65.98,12.66,260.0,16.11,,,,,1.0,,,,10.0,,KIGQ 152155Z AUTO 26011G14KT 10SM CLR M13/M18 A3044 RMK AO2  T11311180,,,,,,-0.72,-3.75,W,29.78,30.39,,Clear
KIGQ,12/15/2016 22:15 UTC,30.44,7.7,-0.94,65.98,8.05,260.0,,,,,,1.0,,,,10.0,,KIGQ 152215Z AUTO 26007KT 10SM CLR M13/M18 A3044 RMK AO2  T11351183,,,,,,-1.4,-1.47,W,29.78,30.4,,Clear
KIGQ,12/15/2016 22:35 UTC,30.43,6.62,-0.4,71.6,8.05,230.0,,,,,,1.0,,,,10.0,,KIGQ 152235Z AUTO 23007KT 10SM CLR M14/M18 A3043 RMK AO2  T11411180,,,,,,-0.69,-2.73,SW,29.77,30.39,,Clear
KIGQ,12/15/2016 22:55 UTC,30.44,5.72,-0.4,77.75,6.91,240.0,,,,,,1.0,,,,10.0,,KIGQ 152255Z AUTO 24006KT 10SM CLR M15/M18 A3044 RMK AO2  T11461180,,,,,,0.21,,WSW,29.78,30.4,,Clear
KIGQ,12/15/2016 23:15 UTC,30.44,5.36,-0.4,77.75,5.75,250.0,,,,,,1.0,,,,10.0,,KIGQ 152315Z AUTO 25005KT 10SM CLR M15/M18 A3044 RMK AO2  T11481180,,,,,,-0.14,,WSW,29.78,30.4,,Clear
KIGQ,12/15/2016 23:35 UTC,30.43,5.0,-0.76,77.75,5.75,250.0,,,,,,1.0,,,,10.0,,KIGQ 152335Z AUTO 25005KT 10SM CLR M15/M18 A3043 RMK AO2  T11501182,,,,,,-0.49,,WSW,29.77,30.39,,Clear
KIGQ,12/15/2016 23:55 UTC,30.42,4.82,-1.12,77.75,5.75,260.0,,,,,,1.0,,,,10.0,,KIGQ 152355Z AUTO 26005KT 10SM CLR M15/M18 A3042 RMK AO2 T11511184  11120 21151,10.4,4.82,,,,-0.67,,W,29.76,30.38,,Clear
KIGQ,12/16/2016 00:15 UTC,30.42,4.64,-1.3,77.75,5.75,250.0,,,,,,1.0,,,,10.0,,KIGQ 160015Z AUTO 25005KT 10SM CLR M15/M18 A3042 RMK AO2  T11521185,,,,,,-0.84,,WSW,29.76,30.39,,Clear
KIGQ,12/16/2016 00:35 UTC,30.41,5.36,-0.58,77.75,4.61,260.0,,,,,,1.0,,,,10.0,,KIGQ 160035Z AUTO 26004KT 10SM CLR M15/M18 A3041 RMK AO2  T11481181,,,,,,-0.14,,W,29.75,30.37,,Clear
KIGQ,12/16/2016 00:55 UTC,30.42,5.72,-0.4,77.75,4.61,270.0,,,,,,1.0,,,,10.0,,KIGQ 160055Z AUTO 27004KT 10SM CLR M15/M18 A3042 RMK AO2  T11461180,,,,,,0.21,,W,29.76,30.38,,Clear
KIGQ,12/16/2016 01:15 UTC,30.42,5.9,-0.4,71.6,4.61,270.0,,,,,,1.0,,,,10.0,,KIGQ 160115Z AUTO 27004KT 10SM CLR M14/M18 A3042 RMK AO2  T11451180,,,,,,-1.38,,W,29.76,30.38,,Clear
KIGQ,12/16/2016 01:35 UTC,30.41,6.44,-0.04,71.6,6.91,260.0,,,,,,1.0,,,,10.0,,KIGQ 160135Z AUTO 26006KT 10SM CLR M14/M18 A3041 RMK AO2  T11421178,,,,,,-0.86,,W,29.75,30.37,,Clear
KIGQ,12/16/2016 01:55 UTC,30.4,6.62,0.14,71.6,5.75,270.0,,,,,,1.0,,,,10.0,,KIGQ 160155Z AUTO 27005KT 10SM CLR M14/M18 A3040 RMK AO2  T11411177,,,,,,-0.69,,W,29.74,30.36,,Clear
KIGQ,12/16/2016 02:15 UTC,30.4,6.62,0.14,71.6,5.75,260.0,,,,,,1.0,,,,10.0,,KIGQ 160215Z AUTO 26005KT 10SM CLR M14/M18 A3040 RMK AO2  T11411177,,,,,,-0.69,,W,29.74,30.36,,Clear
KIGQ,12/16/2016 02:35 UTC,30.4,6.62,-0.04,71.6,5.75,250.0,,,,,,1.0,,,,10.0,,KIGQ 160235Z AUTO 25005KT 10SM CLR M14/M18 A3040 RMK AO2  T11411178,,,,,,-0.69,,WSW,29.74,30.36,,Clear
KIGQ,12/16/2016 02:55 UTC,30.41,6.8,0.14,71.6,5.75,260.0,,,,,,1202.0,,,,10.0,,KIGQ 160255Z AUTO 26005KT 10SM SCT120 M14/M18 A3041 RMK AO2  T11401177,,,,,,-0.52,,W,29.75,30.37,,Partly Cloudy
KIGQ,12/16/2016 03:15 UTC,30.4,7.16,0.32,71.6,5.75,250.0,,,,,,1202.0,,,,10.0,,KIGQ 160315Z AUTO 25005KT 10SM SCT120 M14/M18 A3040 RMK AO2  T11381176,,,,,,-0.17,,WSW,29.74,30.35,,Partly Cloudy
KIGQ,12/16/2016 03:35 UTC,30.39,7.52,0.14,71.6,0.0,0.0,,,,,,1.0,,,,10.0,,KIGQ 160335Z AUTO 00000KT 10SM CLR M14/M18 A3039 RMK AO2  T11361177,,,,,,0.18,,N,29.73,30.34,,Clear
KIGQ,12/16/2016 03:55 UTC,30.39,7.34,-0.4,71.6,5.75,230.0,,,,,,1.0,,,,10.0,,KIGQ 160355Z AUTO 23005KT 10SM CLR M14/M18 A3039 RMK AO2  T11371180,,,,,,0.0,,SW,29.73,30.34,,Clear
KIGQ,12/16/2016 04:15 UTC,30.4,7.34,-0.4,71.6,4.61,240.0,,,,,,1.0,,,,10.0,,KIGQ 160415Z AUTO 24004KT 10SM CLR M14/M18 A3040 RMK AO2  T11371180,,,,,,0.0,,WSW,29.74,30.35,,Clear
KIGQ,12/16/2016 04:35 UTC,30.41,7.52,-0.4,71.6,4.61,220.0,,,,,,1202.0,,,,10.0,,KIGQ 160435Z AUTO 22004KT 10SM SCT120 M14/M18 A3041 RMK AO2  T11361180,,,,,,0.18,,SW,29.75,30.36,,Partly Cloudy
KIGQ,12/16/2016 04:55 UTC,30.4,7.7,0.32,65.98,4.61,240.0,,,,,,1202.0,,,,10.0,,KIGQ 160455Z AUTO 24004KT 10SM SCT120 M13/M18 A3040 RMK AO2  T11351176,,,,,,-1.4,,WSW,29.74,30.36,,Partly Cloudy
KIGQ,12/16/2016 05:15 UTC,30.39,8.06,1.58,71.81,3.44,200.0,,,,,,1103.0,,,,10.0,,KIGQ 160515Z AUTO 20003KT 10SM BKN110 M13/M17 A3039 RMK AO2  T11331169,,,11000.0,,,0.76,,SSW,29.73,30.34,,Mostly Cloudy
KIGQ,12/16/2016 05:35 UTC,30.39,8.24,1.58,71.81,0.0,0.0,,,,,,1103.0,,,,10.0,,KIGQ 160535Z AUTO 00000KT 10SM BKN110 M13/M17 A3039 RMK AO2  T11321169,,,11000.0,,,0.93,,N,29.73,30.34,,Mostly Cloudy
KIGQ,12/16/2016 05:55 UTC,30.37,8.6,2.3,78.1,3.44,190.0,,,,,,1004.0,,,,10.0,,KIGQ 160555Z AUTO 19003KT 10SM OVC100 M13/M16 A3037 RMK AO2  T11301165 11130 21154 411201182,8.6,4.28,10000.0,10.4,-0.76,3.11,,S,29.71,30.31,,Overcast
KIGQ,12/16/2016 06:15 UTC,30.37,8.42,2.66,78.1,3.44,180.0,,,,,,1004.0,,,,10.0,,KIGQ 160615Z AUTO 18003KT 10SM OVC100 M13/M16 A3037 RMK AO2  T11311163,,,10000.0,,,2.93,,S,29.71,30.31,,Overcast
KIGQ,12/16/2016 06:35 UTC,30.36,8.42,2.3,78.1,4.61,180.0,,,,,,1004.0,,,,10.0,,KIGQ 160635Z AUTO 18004KT 10SM OVC100 M13/M16 A3036 RMK AO2  T11311165,,,10000.0,,,2.93,,S,29.7,30.3,,Overcast
KIGQ,12/16/2016 06:55 UTC,30.36,8.78,3.02,78.1,4.61,180.0,,,,,,904.0,,,,10.0,,KIGQ 160655Z AUTO 18004KT 10SM OVC090 M13/M16 A3036 RMK AO2  T11291161,,,9000.0,,,3.28,,S,29.7,30.3,,Overcast
KIGQ,12/16/2016 07:15 UTC,30.36,9.14,2.66,78.1,3.44,170.0,,,,,,804.0,,,,10.0,,KIGQ 160715Z AUTO 17003KT 10SM OVC080 M13/M16 A3036 RMK AO2  T11271163,,,8000.0,,,3.63,,S,29.7,30.29,,Overcast
KIGQ,12/16/2016 07:35 UTC,30.36,9.32,3.74,78.1,0.0,0.0,,,,,,904.0,,,,10.0,,KIGQ 160735Z AUTO 00000KT 10SM OVC090 M13/M16 A3036 RMK AO2  T11261157,,,9000.0,,,3.81,,N,29.7,30.29,,Overcast
KIGQ,12/16/2016 07:55 UTC,30.36,9.32,3.92,78.1,0.0,0.0,,,1104.0,,,752.0,903.0,,,10.0,,KIGQ 160755Z AUTO 00000KT 10SM SCT075 BKN090 OVC110 M13/M16  A3036 RMK AO2 T11261156,,,9000.0,,,3.81,,N,29.7,30.29,,Overcast
KIGQ,12/16/2016 08:15 UTC,30.36,9.5,4.46,78.27,0.0,0.0,,,,,,752.0,1104.0,,,10.0,,KIGQ 160815Z AUTO 00000KT 10SM SCT075 OVC110 M12/M15 A3036 RMK AO2  T11251153,,,11000.0,,,4.03,,N,29.7,30.29,,Overcast
KIGQ,12/16/2016 08:35 UTC,30.34,9.68,5.0,78.27,4.61,160.0,,20.0,1104.0,,,232.0,443.0,,,7.0,,KIGQ 160835Z AUTO 16004KT 7SM -SN SCT023 BKN044 OVC110 M12/M15  A3034 RMK AO2 T11241150,,,4400.0,,,4.21,,SSE,29.68,30.27,,Light Snow
KIGQ,12/16/2016 08:55 UTC,30.34,9.5,5.9,84.99,3.44,170.0,,20.0,,,,152.0,264.0,,,2.5,,KIGQ 160855Z AUTO 17003KT 2 1/2SM -SN SCT015 OVC026 M12/M14  A3034 RMK AO2 T11251145,,,2600.0,,,5.85,,S,29.68,30.26,,Light Snow
KIGQ,12/16/2016 09:15 UTC,30.32,9.5,6.62,84.99,4.61,130.0,,20.0,504.0,,,263.0,333.0,,,5.0,,KIGQ 160915Z AUTO 13004KT 5SM -SN BKN026 BKN033 OVC050 M12/M14  A3032 RMK AO2 T11251141,,,2600.0,,,5.85,,SE,29.66,30.24,,Light Snow
KIGQ,12/16/2016 09:35 UTC,30.31,10.04,6.8,84.99,3.44,130.0,,,,,,502.0,954.0,,,10.0,,KIGQ 160935Z AUTO 13003KT 10SM SCT050 OVC095 M12/M14 A3031 RMK AO2  T11221140,,,9500.0,,,6.38,,SE,29.65,30.23,,Overcast
KIGQ,12/16/2016 09:55 UTC,30.31,10.4,7.34,84.99,4.61,140.0,,,,,,954.0,,,,10.0,,KIGQ 160955Z AUTO 14004KT 10SM OVC095 M12/M14 A3031 RMK AO2  T11201137,,,9500.0,,,6.73,,SE,29.65,30.23,,Overcast
KIGQ,12/16/2016 10:15 UTC,30.31,10.4,6.8,84.99,4.61,140.0,,,,,,804.0,,,,10.0,,KIGQ 161015Z AUTO 14004KT 10SM OVC080 M12/M14 A3031 RMK AO2  T11201140,,,8000.0,,,6.73,,SE,29.65,30.23,,Overcast
KIGQ,12/16/2016 10:35 UTC,30.29,10.76,5.9,84.99,4.61,140.0,,,,,,703.0,804.0,,,10.0,,KIGQ 161035Z AUTO 14004KT 10SM BKN070 OVC080 M12/M14 A3029 RMK AO2  T11181145,,,7000.0,,,7.09,,SE,29.63,30.2,,Overcast
KIGQ,12/16/2016 10:55 UTC,30.29,11.12,5.54,78.27,4.61,150.0,,,,,,702.0,804.0,,,10.0,,KIGQ 161055Z AUTO 15004KT 10SM SCT070 OVC080 M12/M15 A3029 RMK AO2  T11161147,,,8000.0,,,5.61,,SSE,29.63,30.21,,Overcast
KIGQ,12/16/2016 11:15 UTC,30.28,11.12,5.9,84.99,8.05,150.0,,,,,,804.0,,,,10.0,,KIGQ 161115Z AUTO 15007KT 10SM OVC080 M12/M14 A3028 RMK AO2  T11161145,,,8000.0,,,7.44,2.55,SSE,29.62,30.19,,Overcast
KIGQ,12/16/2016 11:35 UTC,30.28,11.3,6.26,78.44,9.22,140.0,,,,,,804.0,,,,10.0,,KIGQ 161135Z AUTO 14008KT 10SM OVC080 M11/M14 A3028 RMK AO2  T11151143,,,8000.0,,,5.83,1.88,SE,29.62,30.19,,Overcast
KIGQ,12/16/2016 11:55 UTC,30.27,12.02,6.8,78.44,8.05,140.0,,,,,,804.0,,,,10.0,,KIGQ 161155Z AUTO 14007KT 10SM OVC080 M11/M14 A3027 RMK AO2  T11111140 11111 21132,12.02,8.24,8000.0,,,6.53,3.61,SE,29.61,30.18,,Overcast
KIGQ,12/16/2016 12:15 UTC,30.27,12.2,7.52,78.44,8.05,140.0,,,,,,804.0,,,,10.0,,KIGQ 161215Z AUTO 14007KT 10SM OVC080 M11/M14 A3027 RMK AO2  T11101136,,,8000.0,,,6.71,3.82,SE,29.61,30.18,,Overcast
KIGQ,12/16/2016 12:35 UTC,30.27,12.2,7.52,78.44,8.05,140.0,,,,,,804.0,,,,10.0,,KIGQ 161235Z AUTO 14007KT 10SM OVC080 M11/M14 A3027 RMK AO2  T11101136,,,8000.0,,,6.71,3.82,SE,29.61,30.18,,Overcast
KIGQ,12/16/2016 12:55 UTC,30.26,12.38,7.7,85.11,8.05,140.0,,,,,,804.0,,,,10.0,,KIGQ 161255Z AUTO 14007KT 10SM OVC080 M11/M13 A3026 RMK AO2  T11091135,,,8000.0,,,8.71,4.03,SE,29.6,30.16,,Overcast
KIGQ,12/16/2016 13:15 UTC,30.25,12.74,8.06,85.11,9.22,150.0,,,,,,804.0,,,,10.0,,KIGQ 161315Z AUTO 15008KT 10SM OVC080 M11/M13 A3025 RMK AO2  T11071133,,,8000.0,,,9.06,3.59,SSE,29.59,30.14,,Overcast
KIGQ,12/16/2016 13:35 UTC,30.24,13.1,8.06,78.61,9.22,140.0,,,,,,804.0,,,,10.0,,KIGQ 161335Z AUTO 14008KT 10SM OVC080 M10/M13 A3024 RMK AO2  T11051133,,,8000.0,,,7.63,4.02,SE,29.58,30.14,,Overcast
KIGQ,12/16/2016 13:55 UTC,30.23,13.46,8.24,78.61,6.91,140.0,,,,,,804.0,,,,10.0,,KIGQ 161355Z AUTO 14006KT 10SM OVC080 M10/M13 A3023 RMK AO2  T11031132,,,8000.0,,,7.98,,SE,29.57,30.13,,Overcast
KIGQ,12/16/2016 14:15 UTC,30.23,14.0,7.7,78.61,8.05,140.0,,,,,,804.0,,,,10.0,,KIGQ 161415Z AUTO 14007KT 10SM OVC080 M10/M13 A3023 RMK AO2  T11001135,,,8000.0,,,8.51,5.93,SE,29.57,30.12,,Overcast
KIGQ,12/16/2016 14:35 UTC,30.23,14.72,7.7,78.61,9.22,140.0,,,,,,804.0,,,,10.0,,KIGQ 161435Z AUTO 14008KT 10SM OVC080 M10/M13 A3023 RMK AO2  T10961135,,,8000.0,,,9.21,5.94,SE,29.57,30.11,,Overcast
KIGQ,12/16/2016 14:55 UTC,30.22,14.9,7.7,72.65,10.36,150.0,,,,,,704.0,,,,10.0,,KIGQ 161455Z AUTO 15009KT 10SM OVC070 M09/M13 A3022 RMK AO2  T10951135,,,7000.0,,,7.61,5.43,SSE,29.56,30.11,,Overcast
KIGQ,12/16/2016 15:15 UTC,30.21,15.44,8.06,72.65,9.22,150.0,,,,,,704.0,,,,10.0,,KIGQ 161515Z AUTO 15008KT 10SM OVC070 M09/M13 A3021 RMK AO2  T10921133,,,7000.0,,,8.13,6.8,SSE,29.55,30.1,,Overcast
KIGQ,12/16/2016 15:35 UTC,30.21,15.8,8.06,72.65,12.66,150.0,,,,,,704.0,,,,10.0,,KIGQ 161535Z AUTO 15011KT 10SM OVC070 M09/M13 A3021 RMK AO2  T10901133,,,7000.0,,,8.48,5.23,SSE,29.55,30.09,,Overcast
KIGQ,12/16/2016 15:55 UTC,30.19,16.16,8.24,72.65,9.22,150.0,17.27,,,,,552.0,654.0,,,10.0,,KIGQ 161555Z AUTO 15008G15KT 10SM SCT055 OVC065 M09/M13 A3019 RMK AO2 T10881132,,,6500.0,,,8.83,7.65,SSE,29.53,30.07,,Overcast
KIGQ,12/16/2016 16:15 UTC,30.18,16.52,8.6,72.65,12.66,150.0,,,,,,504.0,,,,10.0,,KIGQ 161615Z AUTO 15011KT 10SM OVC050 M09/M13 A3018 RMK AO2  T10861130,,,5000.0,,,9.17,6.11,SSE,29.52,30.06,,Overcast
KIGQ,12/16/2016 16:35 UTC,30.17,16.7,8.96,67.19,10.36,150.0,,,,,,484.0,,,,10.0,,KIGQ 161635Z AUTO 15009KT 10SM OVC048 M08/M13 A3017 RMK AO2  T10851128,,,4800.0,,,7.59,7.58,SSE,29.51,30.05,,Overcast
KIGQ,12/16/2016 16:55 UTC,30.16,17.24,8.78,67.19,13.8,150.0,17.27,,,,,484.0,,,,10.0,,KIGQ 161655Z AUTO 15012G15KT 10SM OVC048 M08/M13 A3016 RMK AO2  T10821129,,,4800.0,,,8.11,6.43,SSE,29.5,30.04,,Overcast
KIGQ,12/16/2016 17:15 UTC,30.14,17.6,9.14,67.19,12.66,150.0,,,,,,484.0,,,,10.0,,KIGQ 161715Z AUTO 15011KT 10SM OVC048 M08/M13 A3014 RMK AO2  T10801127,,,4800.0,,,8.45,7.42,SSE,29.48,30.01,,Overcast
KIGQ,12/16/2016 17:35 UTC,30.12,17.96,8.96,67.19,12.66,160.0,16.11,,,,,464.0,,,,10.0,,KIGQ 161735Z AUTO 16011G14KT 10SM OVC046 M08/M13 A3012 RMK AO2  T10781128,,,4600.0,,,8.8,7.86,SSE,29.47,30.0,,Overcast
KIGQ,12/16/2016 17:55 UTC,30.11,18.14,9.32,67.19,13.8,150.0,,,,,,464.0,,,,10.0,,KIGQ 161755Z AUTO 15012KT 10SM OVC046 M08/M13 A3011 RMK AO2  T10771126 11077 21111,18.14,12.02,4600.0,,,8.97,7.53,SSE,29.46,29.99,,Overcast
KIGQ,12/16/2016 18:15 UTC,30.09,18.32,9.5,72.85,11.5,150.0,,,,,,464.0,,,,10.0,,KIGQ 161815Z AUTO 15010KT 10SM OVC046 M08/M12 A3009 RMK AO2  T10761125,,,4600.0,,,10.97,8.89,SSE,29.44,29.96,,Overcast
KIGQ,12/16/2016 18:35 UTC,30.07,18.5,9.5,67.42,10.36,140.0,,,,,,444.0,,,,10.0,,KIGQ 161835Z AUTO 14009KT 10SM OVC044 M07/M12 A3007 RMK AO2  T10751125,,,4400.0,,,9.39,9.74,SE,29.42,29.94,,Overcast
KIGQ,12/16/2016 18:55 UTC,30.05,18.5,9.32,62.18,12.66,150.0,,,,,,444.0,,,,10.0,,KIGQ 161855Z AUTO 15011KT 10SM OVC044 M07/M13 A3005 RMK AO2  T10751126,,,4400.0,,,7.58,8.51,SSE,29.4,29.93,,Overcast
KIGQ,12/16/2016 19:15 UTC,30.03,18.5,9.68,67.42,10.36,140.0,,,,,,424.0,,,,10.0,,KIGQ 161915Z AUTO 14009KT 10SM OVC042 M07/M12 A3003 RMK AO2  T10751124,,,4200.0,,,9.39,9.74,SE,29.38,29.9,,Overcast
KIGQ,12/16/2016 19:35 UTC,30.01,18.5,9.68,67.42,10.36,130.0,,,,,,404.0,,,,10.0,,KIGQ 161935Z AUTO 13009KT 10SM OVC040 M07/M12 A3001 RMK AO2  T10751124,,,4000.0,,,9.39,9.74,SE,29.36,29.88,,Overcast
KIGQ,12/16/2016 19:55 UTC,30.0,18.86,9.68,67.42,11.5,150.0,16.11,,,,,384.0,,,,10.0,,KIGQ 161955Z AUTO 15010G14KT 10SM OVC038 M07/M12 A3000 RMK AO2  T10731124,,,3800.0,,,9.73,9.54,SSE,29.35,29.87,,Overcast
KIGQ,12/16/2016 20:15 UTC,29.99,18.86,9.86,67.42,12.66,150.0,17.27,,,,,364.0,,,,10.0,,KIGQ 162015Z AUTO 15011G15KT 10SM OVC036 M07/M12 A2999 RMK AO2  T10731123,,,3600.0,,,9.73,8.95,SSE,29.34,29.86,,Overcast
KIGQ,12/16/2016 20:35 UTC,29.98,19.04,10.04,67.42,9.22,150.0,,,,,,364.0,,,,10.0,,KIGQ 162035Z AUTO 15008KT 10SM OVC036 M07/M12 A2998 RMK AO2  T10721122,,,3600.0,,,9.91,11.07,SSE,29.33,29.85,,Overcast
KIGQ,12/16/2016 20:55 UTC,29.98,19.4,10.4,67.42,10.36,150.0,,,,,,344.0,,,,10.0,,KIGQ 162055Z AUTO 15009KT 10SM OVC034 M07/M12 A2998 RMK AO2  T10701120,,,3400.0,,,10.25,10.81,SSE,29.33,29.84,,Overcast
KIGQ,12/16/2016 21:15 UTC,29.98,19.4,10.22,67.42,13.8,150.0,,,,,,343.0,454.0,,,10.0,,KIGQ 162115Z AUTO 15012KT 10SM BKN034 OVC045 M07/M12 A2998 RMK AO2  T10701121,,,3400.0,,,10.25,9.08,SSE,29.33,29.84,,Overcast
KIGQ,12/16/2016 21:35 UTC,29.95,19.4,10.58,67.42,9.22,140.0,,,484.0,,,342.0,423.0,,,10.0,,KIGQ 162135Z AUTO 14008KT 10SM SCT034 BKN042 OVC048 M07/M12  A2995 RMK AO2 T10701119,,,4200.0,,,10.25,11.5,SE,29.3,29.81,,Overcast
KIGQ,12/16/2016 21:55 UTC,29.94,19.58,10.76,67.42,12.66,140.0,,,654.0,,,412.0,553.0,,,10.0,,KIGQ 162155Z AUTO 14011KT 10SM SCT041 BKN055 OVC065 M07/M12  A2994 RMK AO2 T10691118,,,5500.0,,,10.42,9.83,SE,29.29,29.8,,Overcast
KIGQ,12/16/2016 22:15 UTC,29.92,19.76,11.3,73.06,11.5,130.0,,20.0,554.0,,,392.0,493.0,,,10.0,,KIGQ 162215Z AUTO 13010KT 10SM -SN SCT039 BKN049 OVC055 M07/M11  A2992 RMK AO2 T10681115,,,4900.0,,,12.43,10.62,SE,29.27,29.77,,Light Snow
KIGQ,12/16/2016 22:35 UTC,29.9,19.94,11.12,67.42,12.66,140.0,20.71,,474.0,,,343.0,413.0,,,10.0,,KIGQ 162235Z AUTO 14011G18KT 10SM BKN034 BKN041 OVC047 M07/M12  A2990 RMK AO2 T10671116,,,3400.0,,,10.77,10.26,SE,29.25,29.76,,Overcast
KIGQ,12/16/2016 22:55 UTC,29.89,19.4,12.38,73.06,13.8,140.0,17.27,20.0,474.0,,,333.0,413.0,,,7.0,,KIGQ 162255Z AUTO 14012G15KT 7SM -SN BKN033 BKN041 OVC047 M07/M11  A2989 RMK AO2 T10701109,,,3300.0,,,12.08,9.08,SE,29.24,29.74,,Light Snow
KIGQ,12/16/2016 23:15 UTC,29.88,18.5,15.08,85.59,12.66,140.0,,20.0,,,,163.0,304.0,,,1.75,,KIGQ 162315Z AUTO 14011KT 1 3/4SM -SN BKN016 OVC030 M07/M09  A2988 RMK AO2 T10751094,,,1600.0,,,14.85,8.51,SE,29.23,29.72,,Light Snow
KIGQ,12/16/2016 23:35 UTC,29.86,18.5,15.62,85.59,10.36,130.0,,,,,,192.0,284.0,,,7.0,,KIGQ 162335Z AUTO 13009KT 7SM SCT019 OVC028 M07/M09 A2986 RMK AO2  T10751091,,,2800.0,,,14.85,9.74,SE,29.21,29.7,,Overcast
KIGQ,12/16/2016 23:55 UTC,29.86,18.68,15.44,85.59,11.5,140.0,18.41,20.0,,,,213.0,264.0,,,2.5,,KIGQ 162355Z AUTO 14010G16KT 2 1/2SM -SN BKN021 OVC026 M07/M09  A2986 RMK AO2 T10741092 11067 21077,19.94,18.14,2100.0,,,15.03,9.32,SE,29.21,29.69,,Light Snow
KIGQ,12/17/2016 00:15 UTC,29.86,19.04,14.9,85.59,11.5,150.0,,20.0,,,,234.0,,,,5.0,,KIGQ 170015Z AUTO 15010KT 5SM -SN OVC023 M07/M09 A2986 RMK AO2  T10721095,,,2300.0,,,15.38,9.76,SSE,29.21,29.69,,Light Snow
KIGQ,12/17/2016 00:35 UTC,29.85,18.86,15.98,85.59,12.66,140.0,17.27,20.0,364.0,,,213.0,303.0,,,3.0,,KIGQ 170035Z AUTO 14011G15KT 3SM -SN BKN021 BKN030 OVC036 M07/M09  A2985 RMK AO2 T10731089,,,2100.0,,,15.2,8.95,SE,29.2,29.68,,Light Snow
KIGQ,12/17/2016 00:55 UTC,29.84,18.5,17.06,93.97,9.22,150.0,,20.0,,,,113.0,214.0,,,1.5,,KIGQ 170055Z AUTO 15008KT 1 1/2SM -SN BKN011 OVC021 M07/M08 A2984 RMK AO2 T10751083,,,1100.0,,,17.03,10.43,SSE,29.19,29.66,,Light Snow
KIGQ,12/17/2016 01:15 UTC,29.83,18.86,17.42,92.55,6.91,140.0,,20.0,,,,112.0,174.0,,,1.75,,KIGQ 170115Z AUTO 14006KT 1 3/4SM -SN SCT011 OVC017 M07/M08  A2983 RMK AO2 T10731081,,,1700.0,,,17.03,,SE,29.18,29.65,,Light Snow
KIGQ,12/17/2016 01:35 UTC,29.83,19.04,17.6,92.55,6.91,140.0,,20.0,,,,113.0,164.0,,,2.5,,KIGQ 170135Z AUTO 14006KT 2 1/2SM -SN BKN011 OVC016 M07/M08  A2983 RMK AO2 T10721080,,,1100.0,,,17.21,,SE,29.18,29.65,,Light Snow
KIGQ,12/17/2016 01:55 UTC,29.83,19.4,18.5,100.0,4.61,140.0,,20.0,,,,94.0,,,,4.0,,KIGQ 170155Z AUTO 14004KT 4SM -SN OVC009 M07/M07 A2983 RMK AO2  T10701075,,,900.0,,,19.4,,SE,29.18,29.63,,Light Snow
KIGQ,12/17/2016 02:15 UTC,29.81,19.58,18.68,100.0,5.75,150.0,,20.0,334.0,,,93.0,173.0,,,1.5,,KIGQ 170215Z AUTO 15005KT 1 1/2SM -SN BKN009 BKN017 OVC033 M07/M07  A2981 RMK AO2 T10691074,,,900.0,,,19.58,,SSE,29.16,29.61,,Light Snow
KIGQ,12/17/2016 02:35 UTC,29.76,19.76,18.86,100.0,11.5,130.0,,20.0,,,,192.0,334.0,,,1.5,,KIGQ 170235Z AUTO 13010KT 1 1/2SM -SN SCT019 OVC033 M07/M07  A2976 RMK AO2 T10681073,,,3300.0,,,19.76,10.62,SE,29.11,29.55,,Light Snow
KIGQ,12/17/2016 02:55 UTC,29.75,20.12,19.4,100.0,9.22,150.0,,20.0,334.0,,,72.0,153.0,,,3.0,,KIGQ 170255Z AUTO 15008KT 3SM -SN SCT007 BKN015 OVC033 M07/M07  A2975 RMK AO2 T10661070,,,1500.0,,,20.12,12.35,SSE,29.1,29.54,,Light Snow
KIGQ,12/17/2016 03:15 UTC,29.74,20.66,20.12,92.61,8.05,150.0,,31.0,,,,74.0,,,,5.0,,KIGQ 170315Z AUTO 15007KT 5SM BR OVC007 M06/M07 A2974 RMK AO2  T10631066,,,700.0,,,18.83,13.76,SSE,29.09,29.54,,Mist
KIGQ,12/17/2016 03:35 UTC,29.74,21.2,20.66,100.0,5.75,160.0,,,,,,74.0,,,,7.0,,KIGQ 170335Z AUTO 16005KT 7SM OVC007 M06/M06 A2974 RMK AO2  T10601063,,,700.0,,,21.2,,SSE,29.09,29.51,,Overcast
KIGQ,12/17/2016 03:55 UTC,29.72,21.74,21.02,100.0,5.75,150.0,,,,,,74.0,,,,10.0,,KIGQ 170355Z AUTO 15005KT 10SM OVC007 M06/M06 A2972 RMK AO2  T10571061,,,700.0,,,21.74,,SSE,29.07,29.48,,Overcast
KIGQ,12/17/2016 04:15 UTC,29.72,21.92,21.2,100.0,5.75,140.0,,,,,,74.0,,,,10.0,,KIGQ 170415Z AUTO 14005KT 10SM OVC007 M06/M06 A2972 RMK AO2  T10561060,,,700.0,,,21.92,,SE,29.07,29.48,,Overcast
KIGQ,12/17/2016 04:35 UTC,29.72,22.1,21.38,92.67,5.75,160.0,,20.0,,,,74.0,,,,2.5,,KIGQ 170435Z AUTO 16005KT 2 1/2SM -SN OVC007 M05/M06 A2972 RMK AO2  T10551059,,,700.0,,,20.28,,SSE,29.07,29.5,,Light Snow
KIGQ,12/17/2016 04:55 UTC,29.71,22.1,21.56,92.67,3.44,150.0,,20.0,314.0,,,92.0,133.0,,,1.75,,KIGQ 170455Z AUTO 15003KT 1 3/4SM -SN SCT009 BKN013 OVC031 M05/M06  A2971 RMK AO2 T10551058,,,1300.0,,,20.28,,SSE,29.06,29.49,,Light Snow
KIGQ,12/17/2016 05:15 UTC,29.7,22.1,21.56,92.67,3.44,150.0,,20.0,,,,314.0,,,,1.75,,KIGQ 170515Z AUTO 15003KT 1 3/4SM -SN OVC031 M05/M06 A2970 RMK AO2  T10551058,,,3100.0,,,20.28,,SSE,29.05,29.47,,Light Snow
KIGQ,12/17/2016 05:35 UTC,29.7,22.1,21.56,92.67,4.61,160.0,,20.0,,,,314.0,,,,2.5,,KIGQ 170535Z AUTO 16004KT 2 1/2SM -SN OVC031 M05/M06 A2970 RMK AO2  T10551058,,,3100.0,,,20.28,,SSE,29.05,29.47,,Light Snow
KIGQ,12/17/2016 05:55 UTC,29.67,22.46,21.74,92.67,5.75,150.0,,20.0,,,,314.0,,,,3.0,,KIGQ 170555Z AUTO 15005KT 3SM -SN OVC031 M05/M06 A2967 RMK AO2  T10531057 11053 21075 410531132,22.46,18.5,3100.0,22.46,8.24,20.63,,SSE,29.02,29.44,,Light Snow
KIGQ,12/17/2016 06:15 UTC,29.66,22.64,21.92,92.67,5.75,170.0,,20.0,,,,314.0,,,,10.0,,KIGQ 170615Z AUTO 17005KT 10SM -SN OVC031 M05/M06 A2966 RMK AO2  T10521056,,,3100.0,,,20.81,,S,29.02,29.44,,Light Snow
KIGQ,12/17/2016 06:35 UTC,29.67,22.82,21.92,92.67,5.75,180.0,,,,,,294.0,,,,10.0,,KIGQ 170635Z AUTO 18005KT 10SM OVC029 M05/M06 A2967 RMK AO2  T10511056,,,2900.0,,,20.99,,S,29.02,29.43,,Overcast
KIGQ,12/17/2016 06:55 UTC,29.66,23.0,22.1,100.0,3.44,160.0,,,,,,274.0,,,,10.0,,KIGQ 170655Z AUTO 16003KT 10SM OVC027 M05/M05 A2966 RMK AO2  T10501055,,,2700.0,,,23.0,,SSE,29.02,29.41,,Overcast
KIGQ,12/17/2016 07:15 UTC,29.65,23.36,22.46,100.0,4.61,160.0,,,274.0,,,93.0,153.0,,,10.0,,KIGQ 170715Z AUTO 16004KT 10SM BKN009 BKN015 OVC027 M05/M05  A2965 RMK AO2 T10481053,,,900.0,,,23.36,,SSE,29.01,29.4,,Overcast
KIGQ,12/17/2016 07:35 UTC,29.66,23.72,22.82,100.0,0.0,0.0,,,,,,94.0,,,,10.0,,KIGQ 170735Z AUTO 00000KT 10SM OVC009 M05/M05 A2966 RMK AO2  T10461051,,,900.0,,,23.72,,N,29.02,29.4,,Overcast
KIGQ,12/17/2016 07:55 UTC,29.65,23.72,23.0,100.0,3.44,150.0,,,,,,74.0,,,,10.0,,KIGQ 170755Z AUTO 15003KT 10SM OVC007 M05/M05 A2965 RMK AO2  T10461050,,,700.0,,,23.72,,SSE,29.01,29.39,,Overcast
KIGQ,12/17/2016 08:15 UTC,29.68,23.9,23.36,92.73,0.0,0.0,,20.0,,,,74.0,,,,7.0,,KIGQ 170815Z AUTO 00000KT 7SM -SN OVC007 M04/M05 A2968 RMK AO2  T10451048,,,700.0,,,22.08,,N,29.03,29.43,,Light Snow
KIGQ,12/17/2016 08:35 UTC,29.68,23.9,23.54,92.73,0.0,0.0,,20.0,,,,74.0,,,,4.0,,KIGQ 170835Z AUTO 00000KT 4SM -SN OVC007 M04/M05 A2968 RMK AO2  T10451047,,,700.0,,,22.08,,N,29.03,29.43,,Light Snow
KIGQ,12/17/2016 08:55 UTC,29.66,23.9,23.72,92.73,0.0,0.0,,20.0,,,,74.0,,,,3.0,,KIGQ 170855Z AUTO 00000KT 3SM -SN OVC007 M04/M05 A2966 RMK AO2  T10451046,,,700.0,,,22.08,,N,29.02,29.42,,Light Snow
KIGQ,12/17/2016 09:15 UTC,29.66,23.9,23.72,92.73,0.0,0.0,,,,,,74.0,,,,7.0,,KIGQ 170915Z AUTO 00000KT 7SM OVC007 M04/M05 A2966 RMK AO2  T10451046,,,700.0,,,22.08,,N,29.02,29.42,,Overcast
KIGQ,12/17/2016 09:35 UTC,29.66,24.26,23.9,100.0,0.0,0.0,,,,,,74.0,,,,7.0,,KIGQ 170935Z AUTO 00000KT 7SM OVC007 M04/M04 A2966 RMK AO2  T10431045,,,700.0,,,24.26,,N,29.02,29.4,,Overcast
KIGQ,12/17/2016 09:55 UTC,29.66,24.26,23.9,100.0,0.0,0.0,,,,,,74.0,,,,7.0,,KIGQ 170955Z AUTO 00000KT 7SM OVC007 M04/M04 A2966 RMK AO2  T10431045,,,700.0,,,24.26,,N,29.02,29.4,,Overcast
KIGQ,12/17/2016 10:15 UTC,29.65,24.26,23.9,100.0,0.0,0.0,,,,,,94.0,,,,7.0,,KIGQ 171015Z AUTO 00000KT 7SM OVC009 M04/M04 A2965 RMK AO2  T10431045,,,900.0,,,24.26,,N,29.01,29.38,,Overcast
KIGQ,12/17/2016 10:35 UTC,29.65,24.44,23.9,100.0,0.0,0.0,,20.0,,,,114.0,,,,5.0,,KIGQ 171035Z AUTO 00000KT 5SM -SN OVC011 M04/M04 A2965 RMK AO2  T10421045,,,1100.0,,,24.44,,N,29.01,29.38,,Light Snow
KIGQ,12/17/2016 10:55 UTC,29.66,24.62,23.9,100.0,0.0,0.0,,,,,,114.0,,,,7.0,,KIGQ 171055Z AUTO 00000KT 7SM OVC011 M04/M04 A2966 RMK AO2  T10411045,,,1100.0,,,24.62,,N,29.02,29.39,,Overcast
KIGQ,12/17/2016 11:15 UTC,29.66,24.62,23.9,100.0,0.0,0.0,,,,,,114.0,,,,7.0,,KIGQ 171115Z AUTO 00000KT 7SM OVC011 M04/M04 A2966 RMK AO2  T10411045,,,1100.0,,,24.62,,N,29.02,29.39,,Overcast
KIGQ,12/17/2016 11:35 UTC,29.65,24.62,23.9,100.0,0.0,0.0,,,,,,114.0,,,,7.0,,KIGQ 171135Z AUTO 00000KT 7SM OVC011 M04/M04 A2965 RMK AO2  T10411045,,,1100.0,,,24.62,,N,29.01,29.38,,Overcast
KIGQ,12/17/2016 11:55 UTC,29.65,24.62,23.9,100.0,0.0,0.0,,,504.0,,,113.0,193.0,,,7.0,,KIGQ 171155Z AUTO 00000KT 7SM BKN011 BKN019 OVC050 M04/M04  A2965 RMK AO2 T10411045 11040 21053,24.8,22.46,1100.0,,,24.62,,N,29.01,29.38,,Overcast
KIGQ,12/17/2016 12:15 UTC,29.66,24.8,24.26,100.0,0.0,0.0,,,454.0,,,112.0,192.0,,,7.0,,KIGQ 171215Z AUTO 00000KT 7SM SCT011 SCT019 OVC045 M04/M04  A2966 RMK AO2 T10401043,,,4500.0,,,24.8,,N,29.02,29.39,,Overcast
KIGQ,12/17/2016 12:35 UTC,29.66,24.8,24.26,100.0,0.0,0.0,,31.0,,,,422.0,494.0,,,5.0,,KIGQ 171235Z AUTO 00000KT 5SM BR SCT042 OVC049 M04/M04 A2966 RMK AO2 T10401043,,,4900.0,,,24.8,,N,29.02,29.39,,Mist
KIGQ,12/17/2016 12:55 UTC,29.67,25.16,24.62,100.0,0.0,0.0,,31.0,494.0,,,212.0,393.0,,,5.0,,KIGQ 171255Z AUTO 00000KT 5SM BR SCT021 BKN039 OVC049 M04/M04  A2967 RMK AO2 T10381041,,,3900.0,,,25.16,,N,29.02,29.38,,Mist
KIGQ,12/17/2016 13:15 UTC,29.67,25.16,24.44,100.0,0.0,0.0,,41.0,494.0,,,212.0,372.0,,,5.0,,KIGQ 171315Z AUTO 00000KT 5SM UP SCT021 SCT037 OVC049 M04/M04  A2967 RMK AO2 T10381042,,,4900.0,,,25.16,,N,29.02,29.38,,Unknown Precip
KIGQ,12/17/2016 13:35 UTC,29.67,25.34,24.62,100.0,0.0,0.0,,41.0,,,,494.0,,,,4.0,,KIGQ 171335Z AUTO 00000KT 4SM UP OVC049 M04/M04 A2967 RMK AO2  T10371041,,,4900.0,,,25.34,,N,29.02,29.38,,Unknown Precip
KIGQ,12/17/2016 13:55 UTC,29.67,25.34,24.8,100.0,0.0,0.0,,41.0,,,,342.0,474.0,,,3.0,,KIGQ 171355Z AUTO 00000KT 3SM UP SCT034 OVC047 M04/M04 A2967 RMK AO2 T10371040,,,4700.0,,,25.34,,N,29.02,29.38,,Unknown Precip
KIGQ,12/17/2016 14:15 UTC,29.67,25.52,24.8,100.0,3.44,330.0,,41.0,,,,322.0,474.0,,,4.0,,KIGQ 171415Z AUTO 33003KT 4SM UP SCT032 OVC047 M04/M04 A2967 RMK AO2 T10361040,,,4700.0,,,25.52,,NNW,29.02,29.37,,Unknown Precip
KIGQ,12/17/2016 14:35 UTC,29.68,25.7,25.16,92.79,3.44,310.0,,41.0,,,,304.0,,,,3.0,,KIGQ 171435Z AUTO 31003KT 3SM UP OVC030 M03/M04 A2968 RMK AO2  T10351038,,,3000.0,,,23.88,,NW,29.03,29.4,,Unknown Precip
KIGQ,12/17/2016 14:55 UTC,29.7,25.7,25.52,92.79,0.0,0.0,,41.0,304.0,,,72.0,133.0,,,2.5,,KIGQ 171455Z AUTO 00000KT 2 1/2SM UP SCT007 BKN013 OVC030 M03/M04  A2970 RMK AO2 T10351036,,,1300.0,,,23.88,,N,29.05,29.42,,Unknown Precip
KIGQ,12/17/2016 15:15 UTC,29.71,25.88,25.7,100.0,0.0,0.0,,41.0,,,,74.0,,,,2.0,,KIGQ 171515Z AUTO 00000KT 2SM UP OVC007 M03/M03 A2971 RMK AO2  T10341035,,,700.0,,,25.88,,N,29.06,29.41,,Unknown Precip
KIGQ,12/17/2016 15:35 UTC,29.71,26.24,25.88,100.0,4.61,320.0,,41.0,,,,54.0,,,,1.75,,KIGQ 171535Z AUTO 32004KT 1 3/4SM UP OVC005 M03/M03 A2971 RMK AO2  T10321034,,,500.0,,,26.24,,NW,29.06,29.4,,Unknown Precip
KIGQ,12/17/2016 15:55 UTC,29.71,26.06,25.52,92.79,4.61,340.0,,41.0,,,,54.0,,,,2.0,,KIGQ 171555Z AUTO 34004KT 2SM UP OVC005 M03/M04 A2971 RMK AO2  T10331036,,,500.0,,,24.23,,NNW,29.06,29.43,,Unknown Precip
KIGQ,12/17/2016 16:15 UTC,29.72,25.7,24.98,92.79,8.05,330.0,,41.0,,,,74.0,,,,2.0,,KIGQ 171615Z AUTO 33007KT 2SM UP OVC007 M03/M04 A2972 RMK AO2  T10351039,,,700.0,,,23.88,19.68,NNW,29.07,29.44,,Unknown Precip
KIGQ,12/17/2016 16:35 UTC,29.71,25.16,24.44,100.0,6.91,350.0,,41.0,,,,74.0,,,,2.0,,KIGQ 171635Z AUTO 35006KT 2SM UP OVC007 M04/M04 A2971 RMK AO2  T10381042,,,700.0,,,25.16,,N,29.06,29.42,,Unknown Precip
KIGQ,12/17/2016 16:55 UTC,29.71,24.62,23.9,100.0,6.91,340.0,,41.0,,,,74.0,,,,2.5,,KIGQ 171655Z AUTO 34006KT 2 1/2SM UP OVC007 M04/M04 A2971 RMK AO2  T10411045,,,700.0,,,24.62,,NNW,29.06,29.43,,Unknown Precip
KIGQ,12/17/2016 17:15 UTC,29.71,24.26,23.36,92.73,5.75,340.0,,41.0,,,,73.0,134.0,,,2.5,,KIGQ 171715Z AUTO 34005KT 2 1/2SM UP BKN007 OVC013 M04/M05  A2971 RMK AO2 T10431048,,,700.0,,,22.43,,NNW,29.06,29.45,,Unknown Precip
KIGQ,12/17/2016 17:35 UTC,29.7,23.9,23.18,92.73,6.91,320.0,,41.0,,,,74.0,,,,2.0,,KIGQ 171735Z AUTO 32006KT 2SM UP OVC007 M04/M05 A2970 RMK AO2  T10451049,,,700.0,,,22.08,,NW,29.05,29.45,,Unknown Precip
KIGQ,12/17/2016 17:55 UTC,29.7,23.9,23.0,92.73,5.75,310.0,,41.0,,,,74.0,,,,2.0,,KIGQ 171755Z AUTO 31005KT 2SM UP OVC007 M04/M05 A2970 RMK AO2  T10451050 11031 21045,26.42,23.9,700.0,,,22.08,,NW,29.05,29.45,,Unknown Precip
KIGQ,12/17/2016 18:15 UTC,29.71,23.9,23.18,92.73,5.75,320.0,,41.0,,,,74.0,,,,2.5,,KIGQ 171815Z AUTO 32005KT 2 1/2SM UP OVC007 M04/M05 A2971 RMK AO2  T10451049,,,700.0,,,22.08,,NW,29.06,29.46,,Unknown Precip
KIGQ,12/17/2016 18:35 UTC,29.73,24.26,23.72,92.73,8.05,300.0,,41.0,,,,74.0,,,,2.0,,KIGQ 171835Z AUTO 30007KT 2SM UP OVC007 M04/M05 A2973 RMK AO2  T10431046,,,700.0,,,22.43,17.98,WNW,29.08,29.47,,Unknown Precip
KIGQ,12/17/2016 18:55 UTC,29.74,24.08,23.54,92.73,9.22,310.0,,41.0,,,,74.0,,,,2.0,,KIGQ 171855Z AUTO 31008KT 2SM UP OVC007 M04/M05 A2974 RMK AO2  T10441047,,,700.0,,,22.25,17.05,NW,29.09,29.49,,Unknown Precip
KIGQ,12/17/2016 19:15 UTC,29.73,24.08,23.54,92.73,6.91,320.0,,41.0,,,,74.0,,,,2.0,,KIGQ 171915Z AUTO 32006KT 2SM UP OVC007 M04/M05 A2973 RMK AO2  T10441047,,,700.0,,,22.25,,NW,29.08,29.48,,Unknown Precip
KIGQ,12/17/2016 19:35 UTC,29.72,24.26,23.72,92.73,5.75,330.0,,41.0,,,,54.0,,,,3.0,,KIGQ 171935Z AUTO 33005KT 3SM UP OVC005 M04/M05 A2972 RMK AO2  T10431046,,,500.0,,,22.43,,NNW,29.07,29.46,,Unknown Precip
KIGQ,12/17/2016 19:55 UTC,29.71,23.9,23.0,92.73,6.91,320.0,,,,,,74.0,,,,7.0,,KIGQ 171955Z AUTO 32006KT 7SM OVC007 M04/M05 A2971 RMK AO2  T10451050,,,700.0,,,22.08,,NW,29.06,29.46,,Overcast
KIGQ,12/17/2016 20:15 UTC,29.73,23.9,22.82,92.73,9.22,310.0,,,,,,74.0,,,,7.0,,KIGQ 172015Z AUTO 31008KT 7SM OVC007 M04/M05 A2973 RMK AO2  T10451051,,,700.0,,,22.08,16.84,NW,29.08,29.48,,Overcast
KIGQ,12/17/2016 20:35 UTC,29.74,23.9,23.0,92.73,5.75,310.0,,31.0,,,,74.0,,,,5.0,,KIGQ 172035Z AUTO 31005KT 5SM BR OVC007 M04/M05 A2974 RMK AO2  T10451050,,,700.0,,,22.08,,NW,29.09,29.49,,Mist
KIGQ,12/17/2016 20:55 UTC,29.74,23.9,22.28,92.73,5.75,300.0,,,,,,94.0,,,,10.0,,KIGQ 172055Z AUTO 30005KT 10SM OVC009 M04/M05 A2974 RMK AO2  T10451054,,,900.0,,,22.08,,WNW,29.09,29.49,,Overcast
KIGQ,12/17/2016 21:15 UTC,29.78,23.72,21.92,92.67,6.91,290.0,,,,,,114.0,,,,10.0,,KIGQ 172115Z AUTO 29006KT 10SM OVC011 M05/M06 A2978 RMK AO2  T10461056,,,1100.0,,,21.88,,WNW,29.13,29.53,,Overcast
KIGQ,12/17/2016 21:35 UTC,29.79,23.54,21.56,92.67,8.05,300.0,,,,,,134.0,,,,10.0,,KIGQ 172135Z AUTO 30007KT 10SM OVC013 M05/M06 A2979 RMK AO2  T10471058,,,1300.0,,,21.7,17.14,WNW,29.14,29.55,,Overcast
KIGQ,12/17/2016 21:55 UTC,29.8,23.0,20.48,92.67,6.91,300.0,,,314.0,,,133.0,223.0,,,10.0,,KIGQ 172155Z AUTO 30006KT 10SM BKN013 BKN022 OVC031 M05/M06  A2980 RMK AO2 T10501064,,,1300.0,,,21.17,,WNW,29.15,29.56,,Overcast
KIGQ,12/17/2016 22:15 UTC,29.8,21.92,19.4,92.61,9.22,300.0,,,,,,134.0,,,,10.0,,KIGQ 172215Z AUTO 30008KT 10SM OVC013 M06/M07 A2980 RMK AO2  T10561070,,,1300.0,,,20.08,14.49,WNW,29.15,29.58,,Overcast
KIGQ,12/17/2016 22:35 UTC,29.79,21.38,18.5,92.61,5.75,300.0,,20.0,504.0,,,132.0,402.0,,,10.0,,KIGQ 172235Z AUTO 30005KT 10SM -SN SCT013 SCT040 OVC050 M06/M07  A2979 RMK AO2 T10591075,,,5000.0,,,19.55,,WNW,29.14,29.58,,Light Snow
KIGQ,12/17/2016 22:55 UTC,29.79,21.02,18.32,85.71,6.91,320.0,,20.0,,,,142.0,504.0,,,10.0,,KIGQ 172255Z AUTO 32006KT 10SM -SN SCT014 OVC050 M06/M08 A2979 RMK AO2 T10611076,,,5000.0,,,17.36,,NW,29.14,29.6,,Light Snow
KIGQ,12/17/2016 23:15 UTC,29.77,20.66,17.6,85.71,8.05,320.0,,20.0,,,,143.0,504.0,,,10.0,,KIGQ 172315Z AUTO 32007KT 10SM -SN BKN014 OVC050 M06/M08 A2977 RMK AO2 T10631080,,,1400.0,,,17.01,13.76,NW,29.12,29.58,,Light Snow
KIGQ,12/17/2016 23:35 UTC,29.75,20.3,17.6,85.71,10.36,330.0,,20.0,704.0,,,142.0,502.0,,,10.0,,KIGQ 172335Z AUTO 33009KT 10SM -SN SCT014 SCT050 OVC070 M06/M08  A2975 RMK AO2 T10651080,,,7000.0,,,16.65,11.89,NNW,29.1,29.56,,Light Snow
KIGQ,12/17/2016 23:55 UTC,29.75,20.3,17.6,85.71,9.22,310.0,,20.0,704.0,,,142.0,483.0,,,10.0,,KIGQ 172355Z AUTO 31008KT 10SM -SN SCT014 BKN048 OVC070 M06/M08  A2975 RMK AO2 T10651080 11042 21065,24.44,20.3,4800.0,,,16.65,12.56,NW,29.1,29.56,,Light Snow
KIGQ,12/18/2016 00:15 UTC,29.76,19.94,17.24,92.55,8.05,320.0,,,,,,144.0,,,,10.0,,KIGQ 180015Z AUTO 32007KT 10SM OVC014 M07/M08 A2976 RMK AO2  T10671082,,,1400.0,,,18.1,12.91,NW,29.11,29.56,,Overcast
KIGQ,12/18/2016 00:35 UTC,29.76,19.76,16.7,92.55,5.75,330.0,,,,,,144.0,,,,10.0,,KIGQ 180035Z AUTO 33005KT 10SM OVC014 M07/M08 A2976 RMK AO2  T10681085,,,1400.0,,,17.92,,NNW,29.11,29.57,,Overcast
KIGQ,12/18/2016 00:55 UTC,29.77,19.58,16.88,92.55,3.44,320.0,,,,,,144.0,,,,10.0,,KIGQ 180055Z AUTO 32003KT 10SM OVC014 M07/M08 A2977 RMK AO2  T10691084,,,1400.0,,,17.75,,NW,29.12,29.58,,Overcast
KIGQ,12/18/2016 01:15 UTC,29.79,19.76,16.88,92.55,6.91,310.0,,,,,,143.0,274.0,,,10.0,,KIGQ 180115Z AUTO 31006KT 10SM BKN014 OVC027 M07/M08 A2979 RMK AO2  T10681084,,,1400.0,,,17.92,,NW,29.14,29.6,,Overcast
KIGQ,12/18/2016 01:35 UTC,29.79,19.76,16.88,92.55,5.75,310.0,,,,,,182.0,274.0,,,10.0,,KIGQ 180135Z AUTO 31005KT 10SM SCT018 OVC027 M07/M08 A2979 RMK AO2  T10681084,,,2700.0,,,17.92,,NW,29.14,29.6,,Overcast
KIGQ,12/18/2016 01:55 UTC,29.82,19.94,17.42,92.55,8.05,280.0,,,,,,184.0,,,,10.0,,KIGQ 180155Z AUTO 28007KT 10SM OVC018 M07/M08 A2982 RMK AO2  T10671081,,,1800.0,,,18.1,12.91,W,29.17,29.63,,Overcast
KIGQ,12/18/2016 02:15 UTC,29.81,19.94,17.42,92.55,6.91,280.0,,20.0,,,,164.0,,,,10.0,,KIGQ 180215Z AUTO 28006KT 10SM -SN OVC016 M07/M08 A2981 RMK AO2  T10671081,,,1600.0,,,18.1,,W,29.16,29.62,,Light Snow
KIGQ,12/18/2016 02:35 UTC,29.81,19.94,17.6,92.55,8.05,270.0,,20.0,,,,164.0,,,,5.0,,KIGQ 180235Z AUTO 27007KT 5SM -SN OVC016 M07/M08 A2981 RMK AO2  T10671080,,,1600.0,,,18.1,12.91,W,29.16,29.62,,Light Snow
KIGQ,12/18/2016 02:55 UTC,29.82,19.76,17.96,92.55,10.36,270.0,,20.0,,,,182.0,384.0,,,4.0,,KIGQ 180255Z AUTO 27009KT 4SM -SN SCT018 OVC038 M07/M08 A2982 RMK AO2 T10681078,,,3800.0,,,17.92,11.24,W,29.17,29.63,,Light Snow
KIGQ,12/18/2016 03:15 UTC,29.83,19.58,18.14,92.55,11.5,280.0,,20.0,,,,424.0,,,,3.0,,KIGQ 180315Z AUTO 28010KT 3SM -SN OVC042 M07/M08 A2983 RMK AO2  T10691077,,,4200.0,,,17.75,10.41,W,29.18,29.64,,Light Snow
KIGQ,12/18/2016 03:35 UTC,29.81,19.76,18.5,100.0,8.05,280.0,,20.0,444.0,,,293.0,373.0,,,2.5,,KIGQ 180335Z AUTO 28007KT 2 1/2SM -SN BKN029 BKN037 OVC044 M07/M07  A2981 RMK AO2 T10681075,,,2900.0,,,19.76,12.7,W,29.16,29.6,,Light Snow
KIGQ,12/18/2016 03:55 UTC,29.81,19.76,18.5,100.0,8.05,270.0,,20.0,,,,82.0,244.0,,,2.0,,KIGQ 180355Z AUTO 27007KT 2SM -SN SCT008 OVC024 M07/M07 A2981 RMK AO2 T10681075,,,2400.0,,,19.76,12.7,W,29.16,29.6,,Light Snow
KIGQ,12/18/2016 04:15 UTC,29.83,20.12,19.22,100.0,8.05,290.0,,20.0,,,,204.0,,,,2.0,,KIGQ 180415Z AUTO 29007KT 2SM -SN OVC020 M07/M07 A2983 RMK AO2  T10661071,,,2000.0,,,20.12,13.12,WNW,29.18,29.62,,Light Snow
KIGQ,12/18/2016 04:35 UTC,29.83,20.3,19.4,92.61,8.05,310.0,,20.0,,,,122.0,204.0,,,1.5,,KIGQ 180435Z AUTO 31007KT 1 1/2SM -SN SCT012 OVC020 M06/M07  A2983 RMK AO2 T10651070,,,2000.0,,,18.48,13.33,NW,29.18,29.63,,Light Snow
KIGQ,12/18/2016 04:55 UTC,29.83,20.84,19.76,92.61,9.22,310.0,,20.0,204.0,,,82.0,142.0,,,1.25,,KIGQ 180455Z AUTO 31008KT 1 1/4SM -SN SCT008 SCT014 OVC020 M06/M07  A2983 RMK AO2 T10621068,,,2000.0,,,19.01,13.21,NW,29.18,29.62,,Light Snow
KIGQ,12/18/2016 05:15 UTC,29.85,21.56,20.3,100.0,10.36,310.0,,20.0,,,,72.0,144.0,,,1.5,,KIGQ 180515Z AUTO 31009KT 1 1/2SM -SN SCT007 OVC014 M06/M06  A2985 RMK AO2 T10581065,,,1400.0,,,21.56,13.4,NW,29.2,29.62,,Light Snow
KIGQ,12/18/2016 05:35 UTC,29.86,21.56,20.3,100.0,9.22,310.0,,20.0,,,,124.0,,,,1.25,,KIGQ 180535Z AUTO 31008KT 1 1/4SM -SN OVC012 M06/M06 A2986 RMK AO2  T10581065,,,1200.0,,,21.56,14.06,NW,29.21,29.63,,Light Snow
KIGQ,12/18/2016 05:55 UTC,29.87,21.2,19.94,92.61,12.66,310.0,23.02,20.0,,,,144.0,,,,1.75,,KIGQ 180555Z AUTO 31011G20KT 1 3/4SM -SN OVC014 M06/M07 A2987 RMK AO2 T10601067 11058 21070 410311070,21.56,19.4,1400.0,26.42,19.4,19.37,11.8,NW,29.22,29.66,,Light Snow
KIGQ,12/18/2016 06:15 UTC,29.86,20.66,19.22,92.61,12.66,320.0,18.41,20.0,174.0,,,72.0,123.0,,,2.0,,KIGQ 180615Z AUTO 32011G16KT 2SM -SN SCT007 BKN012 OVC017 M06/M07  A2986 RMK AO2 T10631071,,,1200.0,,,18.83,11.14,NW,29.21,29.66,,Light Snow
KIGQ,12/18/2016 06:35 UTC,29.87,20.12,17.96,92.55,11.5,330.0,23.02,20.0,504.0,,,122.0,243.0,,,4.0,,KIGQ 180635Z AUTO 33010G20KT 4SM -SN SCT012 BKN024 OVC050 M07/M08  A2987 RMK AO2 T10661078,,,2400.0,,,18.28,11.06,NNW,29.22,29.67,,Light Snow
KIGQ,12/18/2016 06:55 UTC,29.92,19.94,17.6,92.55,11.5,320.0,19.57,20.0,424.0,,,142.0,343.0,,,5.0,,KIGQ 180655Z AUTO 32010G17KT 5SM -SN SCT014 BKN034 OVC042 M07/M08  A2992 RMK AO2 T10671080,,,3400.0,,,18.1,10.84,NW,29.27,29.73,,Light Snow
KIGQ,12/18/2016 07:15 UTC,29.9,19.76,17.42,92.55,14.97,320.0,21.85,20.0,424.0,,,143.0,343.0,,,7.0,,KIGQ 180715Z AUTO 32013G19KT 7SM -SN BKN014 BKN034 OVC042 M07/M08  A2990 RMK AO2 T10681081,,,1400.0,,,17.92,9.01,NW,29.25,29.71,,Light Snow
KIGQ,12/18/2016 07:35 UTC,29.95,19.04,16.52,85.59,14.97,310.0,19.57,20.0,,,,144.0,,,,7.0,,KIGQ 180735Z AUTO 31013G17KT 7SM -SN OVC014 M07/M09 A2995 RMK AO2  T10721086,,,1400.0,,,15.38,8.13,NW,29.3,29.78,,Light Snow
KIGQ,12/18/2016 07:55 UTC,29.96,18.32,15.44,92.48,17.27,320.0,23.02,20.0,,,,144.0,,,,2.5,,KIGQ 180755Z AUTO 32015G20KT 2 1/2SM -SN OVC014 M08/M09 A2996 RMK AO2 VIS 1/2V5 T10761092,,,1400.0,,,16.48,6.32,NW,29.31,29.79,,Light Snow
KIGQ,12/18/2016 08:15 UTC,30.0,17.96,15.44,92.48,11.5,320.0,21.85,20.0,454.0,,,162.0,293.0,,,2.5,,KIGQ 180815Z AUTO 32010G19KT 2 1/2SM -SN SCT016 BKN029 OVC045  M08/M09 A3000 RMK AO2 T10781092,,,2900.0,,,16.12,8.45,NW,29.35,29.83,,Light Snow
KIGQ,12/18/2016 08:35 UTC,30.01,17.6,15.8,92.48,14.97,310.0,20.71,3.0,,,,144.0,,,,0.5,,KIGQ 180835Z AUTO 31013G18KT 1/2SM SN OVC014 M08/M09 A3001 RMK AO2  T10801090,,,1400.0,,,15.77,6.35,NW,29.36,29.85,,Snow
KIGQ,12/18/2016 08:55 UTC,30.03,16.7,14.72,85.47,14.97,320.0,25.32,20.0,,,,144.0,,,,1.25,,KIGQ 180855Z AUTO 32013G22KT 1 1/4SM -SN OVC014 M08/M10 A3003 RMK AO2 T10851096,,,1400.0,,,13.05,5.24,NW,29.38,29.89,,Light Snow
KIGQ,12/18/2016 09:15 UTC,30.04,16.52,14.0,92.42,18.41,320.0,25.32,20.0,,,,142.0,214.0,,,2.5,,KIGQ 180915Z AUTO 32016G22KT 2 1/2SM -SN SCT014 OVC021 M09/M10  A3004 RMK AO2 T10861100,,,2100.0,,,14.68,3.64,NW,29.39,29.89,,Light Snow
KIGQ,12/18/2016 09:35 UTC,30.06,16.16,13.46,92.42,14.97,320.0,24.16,20.0,,,,152.0,234.0,,,2.0,,KIGQ 180935Z AUTO 32013G21KT 2SM -SN SCT015 OVC023 M09/M10  A3006 RMK AO2 T10881103,,,2300.0,,,14.32,4.58,NW,29.41,29.92,,Light Snow
KIGQ,12/18/2016 09:55 UTC,30.07,15.62,12.92,85.36,16.11,320.0,25.32,20.0,,,,152.0,284.0,,,2.5,,KIGQ 180955Z AUTO 32014G22KT 2 1/2SM -SN SCT015 OVC028 M09/M11  A3007 RMK AO2 T10911106,,,2800.0,,,11.96,3.42,NW,29.42,29.94,,Light Snow
KIGQ,12/18/2016 10:15 UTC,30.09,15.26,12.38,85.36,14.97,320.0,25.32,20.0,384.0,,,142.0,262.0,,,3.0,,KIGQ 181015Z AUTO 32013G22KT 3SM -SN SCT014 SCT026 OVC038 M09/M11  A3009 RMK AO2 T10931109,,,3800.0,,,11.61,3.47,NW,29.44,29.97,,Light Snow
KIGQ,12/18/2016 10:35 UTC,30.1,14.9,12.2,85.36,12.66,320.0,21.85,20.0,554.0,,,142.0,382.0,,,7.0,,KIGQ 181035Z AUTO 32011G19KT 7SM -SN SCT014 SCT038 OVC055 M09/M11  A3010 RMK AO2 T10951110,,,5500.0,,,11.25,4.14,NW,29.45,29.98,,Light Snow
KIGQ,12/18/2016 10:55 UTC,30.12,14.9,11.66,85.36,16.11,320.0,20.71,,,,,553.0,754.0,,,10.0,,KIGQ 181055Z AUTO 32014G18KT 10SM BKN055 OVC075 M09/M11 A3012 RMK AO2 T10951113,,,5500.0,,,11.25,2.53,NW,29.47,30.0,,Overcast
KIGQ,12/18/2016 11:15 UTC,30.14,14.9,11.3,85.36,16.11,320.0,21.85,,754.0,,,182.0,602.0,,,10.0,,KIGQ 181115Z AUTO 32014G19KT 10SM SCT018 SCT060 OVC075 M09/M11  A3014 RMK AO2 T10951115,,,7500.0,,,11.25,2.53,NW,29.48,30.01,,Overcast
KIGQ,12/18/2016 11:35 UTC,30.16,14.72,11.48,92.36,10.36,310.0,16.11,20.0,854.0,,,182.0,603.0,,,7.0,,KIGQ 181135Z AUTO 31009G14KT 7SM -SN SCT018 BKN060 OVC085 M10/M11  A3016 RMK AO2 T10961114,,,6000.0,,,12.88,5.21,NW,29.5,30.02,,Light Snow
KIGQ,12/18/2016 11:55 UTC,30.19,13.82,9.86,85.24,13.8,310.0,20.71,,604.0,,,182.0,463.0,,,10.0,,KIGQ 181155Z AUTO 31012G18KT 10SM SCT018 BKN046 OVC060 M10/M12  A3019 RMK AO2 T11011123 11060 21101,21.2,13.82,4600.0,,,10.16,2.25,NW,29.53,30.07,,Overcast
KIGQ,12/18/2016 12:15 UTC,30.21,12.74,9.14,85.11,11.5,310.0,17.27,20.0,704.0,,,442.0,603.0,,,7.0,,KIGQ 181215Z AUTO 31010G15KT 7SM -SN SCT044 BKN060 OVC070 M11/M13  A3021 RMK AO2 T11071127,,,6000.0,,,9.06,2.15,NW,29.55,30.1,,Light Snow
KIGQ,12/18/2016 12:35 UTC,30.24,12.2,8.6,85.11,10.36,310.0,,,704.0,,,432.0,602.0,,,10.0,,KIGQ 181235Z AUTO 31009KT 10SM SCT043 SCT060 OVC070 M11/M13  A3024 RMK AO2 T11101130,,,7000.0,,,8.53,2.19,NW,29.58,30.14,,Overcast
KIGQ,12/18/2016 12:55 UTC,30.25,11.66,7.34,78.44,14.97,320.0,20.71,,,,,804.0,,,,10.0,,KIGQ 181255Z AUTO 32013G18KT 10SM OVC080 M11/M14 A3025 RMK AO2  T11131137,,,8000.0,,,6.18,-0.97,NW,29.59,30.16,,Overcast
KIGQ,12/18/2016 13:15 UTC,30.28,11.3,6.8,78.44,12.66,300.0,18.41,,,,,804.0,,,,10.0,,KIGQ 181315Z AUTO 30011G16KT 10SM OVC080 M11/M14 A3028 RMK AO2  T11151140,,,8000.0,,,5.83,-0.24,WNW,29.62,30.19,,Overcast
KIGQ,12/18/2016 13:35 UTC,30.29,10.58,5.72,78.27,13.8,300.0,18.41,,,,,804.0,,,,10.0,,KIGQ 181335Z AUTO 30012G16KT 10SM OVC080 M12/M15 A3029 RMK AO2  T11191146,,,8000.0,,,5.08,-1.72,WNW,29.63,30.21,,Overcast
KIGQ,12/18/2016 13:55 UTC,30.31,9.86,4.82,78.27,12.66,310.0,18.41,,,,,804.0,,,,10.0,,KIGQ 181355Z AUTO 31011G16KT 10SM OVC080 M12/M15 A3031 RMK AO2  T11231151,,,8000.0,,,4.38,-1.99,NW,29.65,30.24,,Overcast
KIGQ,12/18/2016 14:15 UTC,30.34,8.42,3.74,78.1,11.5,310.0,,,,,,802.0,,,,10.0,,KIGQ 181415Z AUTO 31010KT 10SM SCT080 M13/M16 A3034 RMK AO2  T11311157,,,,,,2.93,-3.06,NW,29.68,30.28,,Partly Cloudy
KIGQ,12/18/2016 14:35 UTC,30.36,8.24,3.2,78.1,10.36,310.0,,,,,,1.0,,,,10.0,,KIGQ 181435Z AUTO 31009KT 10SM CLR M13/M16 A3036 RMK AO2  T11321160,,,,,,2.76,-2.55,NW,29.7,30.3,,Clear
KIGQ,12/18/2016 14:55 UTC,30.38,8.42,2.84,78.1,8.05,310.0,,,,,,1.0,,,,10.0,,KIGQ 181455Z AUTO 31007KT 10SM CLR M13/M16 A3038 RMK AO2  T11311162,,,,,,2.93,-0.62,NW,29.72,30.32,,Clear
KIGQ,12/18/2016 15:15 UTC,30.39,8.6,2.84,78.1,9.22,300.0,,,,,,1.0,,,,10.0,,KIGQ 181515Z AUTO 30008KT 10SM CLR M13/M16 A3039 RMK AO2  T11301162,,,,,,3.11,-1.32,WNW,29.73,30.33,,Clear
KIGQ,12/18/2016 15:35 UTC,30.41,8.6,2.84,78.1,10.36,290.0,,,,,,1.0,,,,10.0,,KIGQ 181535Z AUTO 29009KT 10SM CLR M13/M16 A3041 RMK AO2  T11301162,,,,,,3.11,-2.12,WNW,29.75,30.35,,Clear
KIGQ,12/18/2016 15:55 UTC,30.42,9.5,3.02,72.03,10.36,310.0,,,,,,1.0,,,,10.0,,KIGQ 181555Z AUTO 31009KT 10SM CLR M12/M16 A3042 RMK AO2  T11251161,,,,,,2.21,-1.04,NW,29.76,30.36,,Clear
KIGQ,12/18/2016 16:15 UTC,30.44,10.04,3.2,72.03,8.05,300.0,,,,,,1.0,,,,10.0,,KIGQ 181615Z AUTO 30007KT 10SM CLR M12/M16 A3044 RMK AO2  T11221160,,,,,,2.73,1.28,WNW,29.78,30.37,,Clear
KIGQ,12/18/2016 16:35 UTC,30.44,10.4,3.2,72.03,8.05,320.0,,,,,,1.0,,,,10.0,,KIGQ 181635Z AUTO 32007KT 10SM CLR M12/M16 A3044 RMK AO2  T11201160,,,,,,3.08,1.71,NW,29.78,30.37,,Clear
KIGQ,12/18/2016 16:55 UTC,30.45,10.94,4.1,78.27,5.75,300.0,,,,,,1.0,,,,10.0,,KIGQ 181655Z AUTO 30005KT 10SM CLR M12/M15 A3045 RMK AO2  T11171155,,,,,,5.43,,WNW,29.79,30.37,,Clear
KIGQ,12/18/2016 17:15 UTC,30.45,11.3,4.1,72.24,10.36,280.0,,,,,,1.0,,,,10.0,,KIGQ 181715Z AUTO 28009KT 10SM CLR M11/M15 A3045 RMK AO2  T11151155,,,,,,4.01,1.11,W,29.79,30.38,,Clear
KIGQ,12/18/2016 17:35 UTC,30.46,11.12,3.92,72.03,6.91,300.0,,,,,,1.0,,,,10.0,,KIGQ 181735Z AUTO 30006KT 10SM CLR M12/M16 A3046 RMK AO2  T11161156,,,,,,3.77,,WNW,29.8,30.39,,Clear
KIGQ,12/18/2016 17:55 UTC,30.46,11.3,3.92,66.47,8.05,290.0,,,,,,1.0,,,,10.0,,KIGQ 181755Z AUTO 29007KT 10SM CLR M11/M16 A3046 RMK AO2 T11151156  11102 21133,13.64,8.06,,,,2.19,2.76,WNW,29.8,30.39,,Clear
KIGQ,12/18/2016 18:15 UTC,30.47,11.3,3.38,66.47,9.22,270.0,,,,,,1.0,,,,10.0,,KIGQ 181815Z AUTO 27008KT 10SM CLR M11/M16 A3047 RMK AO2  T11151159,,,,,,2.19,1.88,W,29.81,30.4,,Clear
KIGQ,12/18/2016 18:35 UTC,30.48,11.3,3.02,66.47,10.36,270.0,,,,,,1.0,,,,10.0,,KIGQ 181835Z AUTO 27009KT 10SM CLR M11/M16 A3048 RMK AO2  T11151161,,,,,,2.19,1.11,W,29.82,30.41,,Clear
KIGQ,12/18/2016 18:55 UTC,30.48,11.66,3.38,66.47,6.91,290.0,,,,,,1.0,,,,10.0,,KIGQ 181855Z AUTO 29006KT 10SM CLR M11/M16 A3048 RMK AO2  T11131159,,,,,,2.54,,WNW,29.82,30.41,,Clear
KIGQ,12/18/2016 19:15 UTC,30.48,11.66,3.38,66.47,9.22,260.0,,,,,,1.0,,,,10.0,,KIGQ 181915Z AUTO 26008KT 10SM CLR M11/M16 A3048 RMK AO2  T11131159,,,,,,2.54,2.31,W,29.82,30.41,,Clear
KIGQ,12/18/2016 19:35 UTC,30.49,11.3,3.2,66.47,10.36,260.0,,,,,,1.0,,,,10.0,,KIGQ 181935Z AUTO 26009KT 10SM CLR M11/M16 A3049 RMK AO2  T11151160,,,,,,2.19,1.11,W,29.83,30.42,,Clear
KIGQ,12/18/2016 19:55 UTC,30.5,11.12,3.02,72.03,10.36,250.0,,,,,,1.0,,,,10.0,,KIGQ 181955Z AUTO 25009KT 10SM CLR M12/M16 A3050 RMK AO2  T11161161,,,,,,3.77,0.9,WSW,29.84,30.43,,Clear
KIGQ,12/18/2016 20:15 UTC,30.51,10.22,2.3,72.03,10.36,260.0,,,,,,1.0,,,,10.0,,KIGQ 182015Z AUTO 26009KT 10SM CLR M12/M16 A3051 RMK AO2  T11211165,,,,,,2.91,-0.18,W,29.85,30.44,,Clear
KIGQ,12/18/2016 20:35 UTC,30.52,9.5,1.76,66.23,10.36,250.0,,,,,,1.0,,,,10.0,,KIGQ 182035Z AUTO 25009KT 10SM CLR M12/M17 A3052 RMK AO2  T11251168,,,,,,0.4,-1.04,WSW,29.86,30.47,,Clear
KIGQ,12/18/2016 20:55 UTC,30.52,8.6,0.86,71.81,10.36,250.0,,,,,,1.0,,,,10.0,,KIGQ 182055Z AUTO 25009KT 10SM CLR M13/M17 A3052 RMK AO2  T11301173,,,,,,1.28,-2.12,WSW,29.86,30.47,,Clear
KIGQ,12/18/2016 21:15 UTC,30.54,8.06,0.14,65.98,10.36,250.0,,,,,,1.0,,,,10.0,,KIGQ 182115Z AUTO 25009KT 10SM CLR M13/M18 A3054 RMK AO2  T11331177,,,,,,-1.06,-2.76,WSW,29.88,30.5,,Clear
KIGQ,12/18/2016 21:35 UTC,30.55,7.52,-0.4,71.6,8.05,250.0,,,,,,1.0,,,,10.0,,KIGQ 182135Z AUTO 25007KT 10SM CLR M14/M18 A3055 RMK AO2  T11361180,,,,,,0.18,-1.68,WSW,29.89,30.5,,Clear
KIGQ,12/18/2016 21:55 UTC,30.57,6.26,-1.48,65.74,11.5,260.0,,,,,,1.0,,,,10.0,,KIGQ 182155Z AUTO 26010KT 10SM CLR M14/M19 A3057 RMK AO2  T11431186,,,,,,-2.85,-5.67,W,29.91,30.54,,Clear
KIGQ,12/18/2016 22:15 UTC,30.58,4.64,-3.1,71.38,11.5,270.0,,,,,,1.0,,,,10.0,,KIGQ 182215Z AUTO 27010KT 10SM CLR M15/M19 A3058 RMK AO2  T11521195,,,,,,-2.66,-7.63,W,29.92,30.55,,Clear
KIGQ,12/18/2016 22:35 UTC,30.59,3.2,-4.0,71.16,12.66,270.0,,,,,,1.0,,,,10.0,,KIGQ 182235Z AUTO 27011KT 10SM CLR M16/M20 A3059 RMK AO2  T11601200,,,,,,-4.11,-10.09,W,29.92,30.56,,Clear
KIGQ,12/18/2016 22:55 UTC,30.61,2.12,-4.9,77.39,9.22,280.0,,,,,,1.0,,,,10.0,,KIGQ 182255Z AUTO 28008KT 10SM CLR M17/M20 A3061 RMK AO2  T11661205,,,,,,-3.39,-9.01,W,29.94,30.59,,Clear
KIGQ,12/18/2016 23:15 UTC,30.62,1.4,-5.98,70.94,12.66,270.0,,,,,,1.0,,,,10.0,,KIGQ 182315Z AUTO 27011KT 10SM CLR M17/M21 A3062 RMK AO2  T11701211,,,,,,-5.91,-12.28,W,29.95,30.6,,Clear
KIGQ,12/18/2016 23:35 UTC,30.64,0.5,-6.16,70.94,10.36,270.0,,,,,,1.0,,,,10.0,,KIGQ 182335Z AUTO 27009KT 10SM CLR M17/M21 A3064 RMK AO2  T11751212,,,,,,-6.78,-11.82,W,29.97,30.63,,Clear
KIGQ,12/18/2016 23:55 UTC,30.64,-0.04,-6.34,77.21,5.75,270.0,,,,,,1.0,,,,10.0,,KIGQ 182355Z AUTO 27005KT 10SM CLR M18/M21 A3064 RMK AO2 T11781213  11111 21178,12.02,-0.04,,,,-5.54,,W,29.97,30.63,,Clear
KIGQ,12/19/2016 00:15 UTC,30.65,-0.58,-6.7,77.21,6.91,280.0,,,,,,1.0,,,,10.0,,KIGQ 190015Z AUTO 28006KT 10SM CLR M18/M21 A3065 RMK AO2  T11811215,,,,,,-6.06,,W,29.98,30.64,,Clear
KIGQ,12/19/2016 00:35 UTC,30.65,-1.3,-7.06,70.72,6.91,280.0,,,,,,1.0,,,,10.0,,KIGQ 190035Z AUTO 28006KT 10SM CLR M18/M22 A3065 RMK AO2  T11851217,,,,,,-8.57,,W,29.98,30.65,,Clear
KIGQ,12/19/2016 00:55 UTC,30.66,-1.3,-7.6,70.72,9.22,280.0,,,,,,1.0,,,,10.0,,KIGQ 190055Z AUTO 28008KT 10SM CLR M18/M22 A3066 RMK AO2  T11851220,,,,,,-8.57,-13.07,W,29.99,30.66,,Clear
KIGQ,12/19/2016 01:15 UTC,30.67,-1.66,-7.78,77.02,6.91,280.0,,,,,,1.0,,,,10.0,,KIGQ 190115Z AUTO 28006KT 10SM CLR M19/M22 A3067 RMK AO2  T11871221,,,,,,-7.16,,W,30.0,30.67,,Clear
KIGQ,12/19/2016 01:35 UTC,30.68,-2.2,-8.14,77.02,5.75,280.0,,,,,,1.0,,,,10.0,,KIGQ 190135Z AUTO 28005KT 10SM CLR M19/M22 A3068 RMK AO2  T11901223,,,,,,-7.69,,W,30.01,30.68,,Clear
KIGQ,12/19/2016 01:55 UTC,30.69,-2.38,-8.32,77.02,6.91,280.0,,,,,,1.0,,,,10.0,,KIGQ 190155Z AUTO 28006KT 10SM CLR M19/M22 A3069 RMK AO2  T11911224,,,,,,-7.86,,W,30.02,30.69,,Clear
KIGQ,12/19/2016 02:15 UTC,30.69,-3.1,-8.68,70.49,5.75,260.0,,,,,,1.0,,,,10.0,,KIGQ 190215Z AUTO 26005KT 10SM CLR M19/M23 A3069 RMK AO2  T11951226,,,,,,-10.37,,W,30.02,30.7,,Clear
KIGQ,12/19/2016 02:35 UTC,30.69,-3.46,-9.22,76.84,4.61,260.0,,,,,,1.0,,,,10.0,,KIGQ 190235Z AUTO 26004KT 10SM CLR M20/M23 A3069 RMK AO2  T11971229,,,,,,-8.96,,W,30.02,30.7,,Clear
KIGQ,12/19/2016 02:55 UTC,30.69,-4.54,-9.4,76.84,4.61,260.0,,,,,,1.0,,,,10.0,,KIGQ 190255Z AUTO 26004KT 10SM CLR M20/M23 A3069 RMK AO2  T12031230,,,,,,-10.01,,W,30.02,30.7,,Clear
KIGQ,12/19/2016 03:15 UTC,30.69,-4.9,-9.4,76.84,4.61,250.0,,,,,,1.0,,,,10.0,,KIGQ 190315Z AUTO 25004KT 10SM CLR M20/M23 A3069 RMK AO2  T12051230,,,,,,-10.35,,WSW,30.02,30.7,,Clear
KIGQ,12/19/2016 03:35 UTC,30.7,-5.26,-9.58,83.82,5.75,260.0,,,,,,1.0,,,,10.0,,KIGQ 190335Z AUTO 26005KT 10SM CLR M21/M23 A3070 RMK AO2  T12071231,,,,,,-8.93,,W,30.03,30.71,,Clear
KIGQ,12/19/2016 03:55 UTC,30.7,-5.08,-9.4,83.82,3.44,250.0,,,,,,1.0,,,,10.0,,KIGQ 190355Z AUTO 25003KT 10SM CLR M21/M23 A3070 RMK AO2  T12061230,,,,,,-8.75,,WSW,30.03,30.71,,Clear
KIGQ,12/19/2016 04:15 UTC,30.7,-6.34,-10.48,76.65,5.75,230.0,,,,,,1.0,,,,10.0,,KIGQ 190415Z AUTO 23005KT 10SM CLR M21/M24 A3070 RMK AO2  T12131236,,,,,,-11.8,,SW,30.03,30.72,,Clear
KIGQ,12/19/2016 04:35 UTC,30.71,-5.98,-10.3,83.82,5.75,260.0,,,,,,1.0,,,,10.0,,KIGQ 190435Z AUTO 26005KT 10SM CLR M21/M23 A3071 RMK AO2  T12111235,,,,,,-9.63,,W,30.04,30.73,,Clear
KIGQ,12/19/2016 04:55 UTC,30.71,-5.98,-10.48,76.65,6.91,260.0,,,,,,1.0,,,,10.0,,KIGQ 190455Z AUTO 26006KT 10SM CLR M21/M24 A3071 RMK AO2  T12111236,,,,,,-11.45,,W,30.04,30.73,,Clear
KIGQ,12/19/2016 05:15 UTC,30.72,-6.34,-10.84,76.65,4.61,250.0,,,,,,1.0,,,,10.0,,KIGQ 190515Z AUTO 25004KT 10SM CLR M21/M24 A3072 RMK AO2  T12131238,,,,,,-11.8,,WSW,30.05,30.74,,Clear
KIGQ,12/19/2016 05:35 UTC,30.72,-6.16,-10.84,76.65,5.75,240.0,,,,,,1.0,,,,10.0,,KIGQ 190535Z AUTO 24005KT 10SM CLR M21/M24 A3072 RMK AO2  T12121238,,,,,,-11.63,,WSW,30.05,30.74,,Clear
KIGQ,12/19/2016 05:55 UTC,30.72,-7.42,-12.28,76.46,0.0,0.0,,,,,,1.0,,,,10.0,,KIGQ 190555Z AUTO 00000KT 10SM CLR M22/M25 A3072 RMK AO2 T12191246  11178 21219 410601219,-0.04,-7.42,,21.2,-7.42,-12.9,,N,30.05,30.75,,Clear
KIGQ,12/19/2016 06:15 UTC,30.72,-10.12,-13.72,83.55,4.61,210.0,,,,,,1.0,,,,10.0,,KIGQ 190615Z AUTO 21004KT 10SM CLR M23/M25 A3072 RMK AO2  T12341254,,,,,,-13.76,,SSW,30.05,30.76,,Clear
KIGQ,12/19/2016 06:35 UTC,30.72,-10.48,-13.36,91.36,4.61,220.0,,,,,,1.0,,,,10.0,,KIGQ 190635Z AUTO 22004KT 10SM CLR M24/M25 A3072 RMK AO2  T12361252,,,,,,-12.31,,SW,30.05,30.76,,Clear
KIGQ,12/19/2016 06:55 UTC,30.73,-10.3,-13.36,83.55,5.75,230.0,,,,,,1.0,,,,10.0,,KIGQ 190655Z AUTO 23005KT 10SM CLR M23/M25 A3073 RMK AO2  T12351252,,,,,,-13.93,,SW,30.06,30.77,,Clear
KIGQ,12/19/2016 07:15 UTC,30.73,-8.5,-12.1,83.69,5.75,240.0,,,,,,1.0,,,,10.0,,KIGQ 190715Z AUTO 24005KT 10SM CLR M22/M24 A3073 RMK AO2  T12251245,,,,,,-12.14,,WSW,30.06,30.76,,Clear
KIGQ,12/19/2016 07:35 UTC,30.74,-8.5,-11.92,83.69,3.44,250.0,,,,,,1.0,,,,10.0,,KIGQ 190735Z AUTO 25003KT 10SM CLR M22/M24 A3074 RMK AO2  T12251244,,,,,,-12.14,,WSW,30.07,30.77,,Clear
KIGQ,12/19/2016 07:55 UTC,30.73,-11.38,-14.8,83.4,3.44,240.0,,,,,,1.0,,,,10.0,,KIGQ 190755Z AUTO 24003KT 10SM CLR M24/M26 A3073 RMK AO2  T12411260,,,,,,-15.03,,WSW,30.06,30.77,,Clear
KIGQ,12/19/2016 08:15 UTC,30.74,-13.18,-16.06,83.26,0.0,0.0,,,,,,1.0,,,,10.0,,KIGQ 190815Z AUTO 00000KT 10SM CLR M25/M27 A3074 RMK AO2  T12511267,,,,,,-16.82,,N,30.07,30.79,,Clear
KIGQ,12/19/2016 08:35 UTC,30.75,-11.38,-14.26,83.4,4.61,210.0,,,,,,1.0,,,,10.0,,KIGQ 190835Z AUTO 21004KT 10SM CLR M24/M26 A3075 RMK AO2  T12411257,,,,,,-15.03,,SSW,30.08,30.79,,Clear
KIGQ,12/19/2016 08:55 UTC,30.74,-13.0,-15.52,91.29,4.61,180.0,,,,,,1.0,,,,10.0,,KIGQ 190855Z AUTO 18004KT 10SM CLR M25/M26 A3074 RMK AO2  T12501264,,,,,,-14.82,,S,30.07,30.79,,Clear
KIGQ,12/19/2016 09:15 UTC,30.74,-13.18,-16.24,83.26,6.91,180.0,,,,,,1.0,,,,10.0,,KIGQ 190915Z AUTO 18006KT 10SM CLR M25/M27 A3074 RMK AO2  T12511268,,,,,,-16.82,,S,30.07,30.79,,Clear
KIGQ,12/19/2016 09:35 UTC,30.74,-12.64,-15.7,91.29,5.75,190.0,,,,,,1.0,,,,10.0,,KIGQ 190935Z AUTO 19005KT 10SM CLR M25/M26 A3074 RMK AO2  T12481265,,,,,,-14.47,,S,30.07,30.79,,Clear
KIGQ,12/19/2016 09:55 UTC,30.74,-12.1,-15.16,83.4,5.75,190.0,,,,,,1.0,,,,10.0,,KIGQ 190955Z AUTO 19005KT 10SM CLR M24/M26 A3074 RMK AO2  T12451262,,,,,,-15.73,,S,30.07,30.79,,Clear
KIGQ,12/19/2016 10:15 UTC,30.75,-11.74,-15.16,83.4,3.44,210.0,,,,,,1.0,,,,10.0,,KIGQ 191015Z AUTO 21003KT 10SM CLR M24/M26 A3075 RMK AO2  T12431262,,,,,,-15.38,,SSW,30.08,30.79,,Clear
KIGQ,12/19/2016 10:35 UTC,30.74,-12.28,-15.52,91.29,3.44,190.0,,,,,,1.0,,,,10.0,,KIGQ 191035Z AUTO 19003KT 10SM CLR M25/M26 A3074 RMK AO2  T12461264,,,,,,-14.11,,S,30.07,30.79,,Clear
KIGQ,12/19/2016 10:55 UTC,30.74,-13.0,-16.06,83.26,4.61,200.0,,,,,,1.0,,,,10.0,,KIGQ 191055Z AUTO 20004KT 10SM CLR M25/M27 A3074 RMK AO2  T12501267,,,,,,-16.65,,SSW,30.07,30.79,,Clear
KIGQ,12/19/2016 11:15 UTC,30.74,-12.64,-15.7,91.29,4.61,200.0,,,,,,1.0,,,,10.0,,KIGQ 191115Z AUTO 20004KT 10SM CLR M25/M26 A3074 RMK AO2  T12481265,,,,,,-14.47,,SSW,30.07,30.79,,Clear
KIGQ,12/19/2016 11:35 UTC,30.74,-11.92,-15.16,83.4,3.44,210.0,,,,,,1.0,,,,10.0,,KIGQ 191135Z AUTO 21003KT 10SM CLR M24/M26 A3074 RMK AO2  T12441262,,,,,,-15.56,,SSW,30.07,30.79,,Clear
KIGQ,12/19/2016 11:55 UTC,30.74,-11.74,-14.8,83.4,4.61,190.0,,,,,,1.0,,,,10.0,,KIGQ 191155Z AUTO 19004KT 10SM CLR M24/M26 A3074 RMK AO2 T12431260  11222 21255,-7.96,-13.9,,,,-15.38,,S,30.07,30.78,,Clear
KIGQ,12/19/2016 12:15 UTC,30.74,-11.02,-14.44,83.4,3.44,200.0,,,,,,1.0,,,,10.0,,KIGQ 191215Z AUTO 20003KT 10SM CLR M24/M26 A3074 RMK AO2  T12391258,,,,,,-14.67,,SSW,30.07,30.78,,Clear
KIGQ,12/19/2016 12:35 UTC,30.74,-10.3,-13.9,83.55,3.44,210.0,,,,,,1.0,,,,10.0,,KIGQ 191235Z AUTO 21003KT 10SM CLR M23/M25 A3074 RMK AO2  T12351255,,,,,,-13.93,,SSW,30.07,30.78,,Clear
KIGQ,12/19/2016 12:55 UTC,30.75,-11.02,-14.44,83.4,3.44,200.0,,,,,,1.0,,,,10.0,,KIGQ 191255Z AUTO 20003KT 10SM CLR M24/M26 A3075 RMK AO2  T12391258,,,,,,-14.67,,SSW,30.08,30.79,,Clear
KIGQ,12/19/2016 13:15 UTC,30.75,-11.38,-14.8,83.4,5.75,190.0,,,,,,1.0,,,,10.0,,KIGQ 191315Z AUTO 19005KT 10SM CLR M24/M26 A3075 RMK AO2  T12411260,,,,,,-15.03,,S,30.08,30.79,,Clear
KIGQ,12/19/2016 13:35 UTC,30.74,-11.02,-14.44,83.4,4.61,190.0,,,,,,1.0,,,,10.0,,KIGQ 191335Z AUTO 19004KT 10SM CLR M24/M26 A3074 RMK AO2  T12391258,,,,,,-14.67,,S,30.07,30.78,,Clear
KIGQ,12/19/2016 13:55 UTC,30.75,-10.3,-13.9,83.55,4.61,200.0,,,,,,1.0,,,,10.0,,KIGQ 191355Z AUTO 20004KT 10SM CLR M23/M25 A3075 RMK AO2  T12351255,,,,,,-13.93,,SSW,30.08,30.79,,Clear
KIGQ,12/19/2016 14:15 UTC,30.75,-8.86,-12.46,83.55,4.61,200.0,,,,,,1.0,,,,10.0,,KIGQ 191415Z AUTO 20004KT 10SM CLR M23/M25 A3075 RMK AO2  T12271247,,,,,,-12.52,,SSW,30.08,30.78,,Clear
KIGQ,12/19/2016 14:35 UTC,30.76,-6.52,-9.76,83.82,4.61,200.0,,,,,,1.0,,,,10.0,,KIGQ 191435Z AUTO 20004KT 10SM CLR M21/M23 A3076 RMK AO2  T12141232,,,,,,-10.16,,SSW,30.09,30.78,,Clear
KIGQ,12/19/2016 14:55 UTC,30.76,-4.9,-8.68,76.84,5.75,200.0,,,,,,1.0,,,,10.0,,KIGQ 191455Z AUTO 20005KT 10SM CLR M20/M23 A3076 RMK AO2  T12051226,,,,,,-10.35,,SSW,30.09,30.78,,Clear
KIGQ,12/19/2016 15:15 UTC,30.77,-2.56,-7.6,77.02,4.61,200.0,,,,,,1.0,,,,10.0,,KIGQ 191515Z AUTO 20004KT 10SM CLR M19/M22 A3077 RMK AO2  T11921220,,,,,,-8.03,,SSW,30.1,30.77,,Clear
KIGQ,12/19/2016 15:35 UTC,30.77,-0.4,-5.8,77.21,5.75,190.0,,,,,,1.0,,,,10.0,,KIGQ 191535Z AUTO 19005KT 10SM CLR M18/M21 A3077 RMK AO2  T11801210,,,,,,-5.89,,S,30.1,30.76,,Clear
KIGQ,12/19/2016 15:55 UTC,30.77,1.4,-4.72,77.39,6.91,190.0,,,,,,1.0,,,,10.0,,KIGQ 191555Z AUTO 19006KT 10SM CLR M17/M20 A3077 RMK AO2  T11701204,,,,,,-4.09,,S,30.1,30.75,,Clear
KIGQ,12/19/2016 16:15 UTC,30.76,3.38,-4.0,71.16,8.05,200.0,,,,,,1.0,,,,10.0,,KIGQ 191615Z AUTO 20007KT 10SM CLR M16/M20 A3076 RMK AO2  T11591200,,,,,,-3.94,-6.54,SSW,30.09,30.74,,Clear
KIGQ,12/19/2016 16:35 UTC,30.75,5.0,-4.9,65.49,11.5,210.0,,,,,,1.0,,,,10.0,,KIGQ 191635Z AUTO 21010KT 10SM CLR M15/M20 A3075 RMK AO2  T11501205,,,,,,-4.14,-7.19,SSW,30.08,30.72,,Clear
KIGQ,12/19/2016 16:55 UTC,30.74,5.9,-5.44,55.28,11.5,210.0,,,,,,1.0,,,,10.0,,KIGQ 191655Z AUTO 21010KT 10SM CLR M14/M21 A3074 RMK AO2  T11451208,,,,,,-6.82,-6.1,SSW,30.07,30.71,,Clear
KIGQ,12/19/2016 17:15 UTC,30.73,6.62,-5.98,55.28,10.36,200.0,,,,,,1.0,,,,10.0,,KIGQ 191715Z AUTO 20009KT 10SM CLR M14/M21 A3073 RMK AO2  T11411211,,,,,,-6.15,-4.49,SSW,30.06,30.7,,Clear
KIGQ,12/19/2016 17:35 UTC,30.71,6.44,-5.62,55.28,16.11,210.0,,,,,,1.0,,,,10.0,,KIGQ 191735Z AUTO 21014KT 10SM CLR M14/M21 A3071 RMK AO2  T11421209,,,,,,-6.31,-7.96,SSW,30.04,30.68,,Clear
KIGQ,12/19/2016 17:55 UTC,30.71,7.7,-3.64,55.58,11.5,200.0,,,,,,1.0,,,,10.0,,KIGQ 191755Z AUTO 20010KT 10SM CLR M13/M20 A3071 RMK AO2 T11351198  11135 21245,7.7,-12.1,,,,-5.02,-3.93,SSW,30.04,30.67,,Clear
KIGQ,12/19/2016 18:15 UTC,30.69,7.52,-4.0,60.31,10.36,210.0,,,,,,1.0,,,,10.0,,KIGQ 191815Z AUTO 21009KT 10SM CLR M14/M20 A3069 RMK AO2  T11361200,,,,,,-3.48,-3.41,SSW,30.02,30.65,,Clear
KIGQ,12/19/2016 18:35 UTC,30.68,8.6,-3.28,55.58,11.5,210.0,,,,,,1.0,,,,10.0,,KIGQ 191835Z AUTO 21010KT 10SM CLR M13/M20 A3068 RMK AO2  T11301196,,,,,,-4.18,-2.85,SSW,30.01,30.64,,Clear
KIGQ,12/19/2016 18:55 UTC,30.67,8.96,-3.82,55.58,14.97,210.0,,,,,,1.0,,,,10.0,,KIGQ 191855Z AUTO 21013KT 10SM CLR M13/M20 A3067 RMK AO2  T11281199,,,,,,-3.84,-4.3,SSW,30.0,30.62,,Clear
KIGQ,12/19/2016 19:15 UTC,30.66,9.86,-2.02,55.87,10.36,220.0,,,,,,1.0,,,,10.0,,KIGQ 191915Z AUTO 22009KT 10SM CLR M12/M19 A3066 RMK AO2  T11231189,,,,,,-2.89,-0.61,SW,29.99,30.61,,Clear
KIGQ,12/19/2016 19:35 UTC,30.66,9.5,-1.3,60.85,13.8,210.0,,,,,,1.0,,,,10.0,,KIGQ 191935Z AUTO 21012KT 10SM CLR M12/M18 A3066 RMK AO2  T11251185,,,,,,-1.42,-3.04,SSW,29.99,30.6,,Clear
KIGQ,12/19/2016 19:55 UTC,30.65,10.04,-0.4,60.85,11.5,200.0,,,,,,1.0,,,,10.0,,KIGQ 191955Z AUTO 20010KT 10SM CLR M12/M18 A3065 RMK AO2  T11221180,,,,,,-0.91,-1.11,SSW,29.98,30.59,,Clear
KIGQ,12/19/2016 20:15 UTC,30.64,10.22,0.68,66.23,12.66,210.0,18.41,,,,,1.0,,,,10.0,,KIGQ 192015Z AUTO 21011G16KT 10SM CLR M12/M17 A3064 RMK AO2  T11211174,,,,,,1.08,-1.56,SSW,29.97,30.57,,Clear
KIGQ,12/19/2016 20:35 UTC,30.64,10.94,1.58,66.23,11.5,200.0,,,,,,1.0,,,,10.0,,KIGQ 192035Z AUTO 20010KT 10SM CLR M12/M17 A3064 RMK AO2  T11171169,,,,,,1.77,-0.02,SSW,29.97,30.57,,Clear
KIGQ,12/19/2016 20:55 UTC,30.64,10.94,2.48,72.03,14.97,200.0,19.57,,,,,1.0,,,,10.0,,KIGQ 192055Z AUTO 20013G17KT 10SM CLR M12/M16 A3064 RMK AO2  T11171164,,,,,,3.6,-1.86,SSW,29.97,30.56,,Clear
KIGQ,12/19/2016 21:15 UTC,30.62,11.12,3.2,72.03,14.97,200.0,,,,,,1.0,,,,10.0,,KIGQ 192115Z AUTO 20013KT 10SM CLR M12/M16 A3062 RMK AO2  T11161160,,,,,,3.77,-1.63,SSW,29.95,30.54,,Clear
KIGQ,12/19/2016 21:35 UTC,30.61,11.3,3.92,66.47,14.97,200.0,,,,,,1.0,,,,10.0,,KIGQ 192135Z AUTO 20013KT 10SM CLR M11/M16 A3061 RMK AO2  T11151156,,,,,,2.19,-1.41,SSW,29.94,30.54,,Clear
KIGQ,12/19/2016 21:55 UTC,30.61,11.3,4.1,72.24,10.36,200.0,,,,,,1.0,,,,10.0,,KIGQ 192155Z AUTO 20009KT 10SM CLR M11/M15 A3061 RMK AO2  T11151155,,,,,,4.01,1.11,SSW,29.94,30.53,,Clear
KIGQ,12/19/2016 22:15 UTC,30.61,11.3,4.64,72.24,10.36,200.0,,,,,,1.0,,,,10.0,,KIGQ 192215Z AUTO 20009KT 10SM CLR M11/M15 A3061 RMK AO2  T11151152,,,,,,4.01,1.11,SSW,29.94,30.53,,Clear
KIGQ,12/19/2016 22:35 UTC,30.6,10.76,4.64,78.27,9.22,200.0,,,,,,1.0,,,,10.0,,KIGQ 192235Z AUTO 20008KT 10SM CLR M12/M15 A3060 RMK AO2  T11181152,,,,,,5.26,1.24,SSW,29.93,30.52,,Clear
KIGQ,12/19/2016 22:55 UTC,30.59,9.68,4.46,78.27,8.05,200.0,,,,,,1.0,,,,10.0,,KIGQ 192255Z AUTO 20007KT 10SM CLR M12/M15 A3059 RMK AO2  T11241153,,,,,,4.21,0.86,SSW,29.92,30.51,,Clear
KIGQ,12/19/2016 23:15 UTC,30.59,9.32,4.1,84.87,6.91,190.0,,,,,,1.0,,,,10.0,,KIGQ 192315Z AUTO 19006KT 10SM CLR M13/M15 A3059 RMK AO2  T11261155,,,,,,5.64,,S,29.92,30.51,,Clear
KIGQ,12/19/2016 23:35 UTC,30.59,9.5,4.46,78.27,8.05,190.0,,,,,,1.0,,,,10.0,,KIGQ 192335Z AUTO 19007KT 10SM CLR M12/M15 A3059 RMK AO2  T11251153,,,,,,4.03,0.65,S,29.92,30.52,,Clear
KIGQ,12/19/2016 23:55 UTC,30.58,9.86,5.0,78.27,10.36,190.0,,,,,,1.0,,,,10.0,,KIGQ 192355Z AUTO 19009KT 10SM CLR M12/M15 A3058 RMK AO2 T11231150  11115 21138,11.3,7.16,,,,4.38,-0.61,S,29.92,30.51,,Clear
KIGQ,12/20/2016 00:15 UTC,30.58,10.04,5.18,78.27,9.22,200.0,,,,,,1.0,,,,10.0,,KIGQ 200015Z AUTO 20008KT 10SM CLR M12/M15 A3058 RMK AO2  T11221149,,,,,,4.56,0.39,SSW,29.92,30.51,,Clear
KIGQ,12/20/2016 00:35 UTC,30.58,9.68,5.18,78.27,6.91,190.0,,,,,,1.0,,,,10.0,,KIGQ 200035Z AUTO 19006KT 10SM CLR M12/M15 A3058 RMK AO2  T11241149,,,,,,4.21,,S,29.92,30.51,,Clear
KIGQ,12/20/2016 00:55 UTC,30.57,7.52,3.38,84.74,8.05,180.0,,,,,,1.0,,,,10.0,,KIGQ 200055Z AUTO 18007KT 10SM CLR M14/M16 A3057 RMK AO2  T11361159,,,,,,3.84,-1.68,S,29.91,30.51,,Clear
KIGQ,12/20/2016 01:15 UTC,30.57,8.42,4.28,84.87,8.05,180.0,,,,,,1.0,,,,10.0,,KIGQ 200115Z AUTO 18007KT 10SM CLR M13/M15 A3057 RMK AO2  T11311154,,,,,,4.76,-0.62,S,29.91,30.51,,Clear
KIGQ,12/20/2016 01:35 UTC,30.57,9.14,5.0,84.87,8.05,190.0,,,,,,1.0,,,,10.0,,KIGQ 200135Z AUTO 19007KT 10SM CLR M13/M15 A3057 RMK AO2  T11271150,,,,,,5.47,0.23,S,29.91,30.5,,Clear
KIGQ,12/20/2016 01:55 UTC,30.56,8.24,3.74,78.1,6.91,190.0,,,,,,1.0,,,,10.0,,KIGQ 200155Z AUTO 19006KT 10SM CLR M13/M16 A3056 RMK AO2  T11321157,,,,,,2.76,,S,29.9,30.5,,Clear
KIGQ,12/20/2016 02:15 UTC,30.56,8.6,4.64,84.87,8.05,180.0,,,,,,1.0,,,,10.0,,KIGQ 200215Z AUTO 18007KT 10SM CLR M13/M15 A3056 RMK AO2  T11301152,,,,,,4.94,-0.41,S,29.9,30.5,,Clear
KIGQ,12/20/2016 02:35 UTC,30.55,8.24,3.92,78.1,6.91,180.0,,,,,,1.0,,,,10.0,,KIGQ 200235Z AUTO 18006KT 10SM CLR M13/M16 A3055 RMK AO2  T11321156,,,,,,2.76,,S,29.89,30.49,,Clear
KIGQ,12/20/2016 02:55 UTC,30.54,8.78,4.82,84.87,8.05,200.0,,,,,,1.0,,,,10.0,,KIGQ 200255Z AUTO 20007KT 10SM CLR M13/M15 A3054 RMK AO2  T11291151,,,,,,5.11,-0.2,SSW,29.88,30.47,,Clear
KIGQ,12/20/2016 03:15 UTC,30.52,9.68,5.0,78.27,10.36,190.0,,,,,,1.0,,,,10.0,,KIGQ 200315Z AUTO 19009KT 10SM CLR M12/M15 A3052 RMK AO2  T11241150,,,,,,4.21,-0.82,S,29.86,30.45,,Clear
KIGQ,12/20/2016 03:35 UTC,30.52,10.22,5.18,78.27,10.36,200.0,,,,,,1.0,,,,10.0,,KIGQ 200335Z AUTO 20009KT 10SM CLR M12/M15 A3052 RMK AO2  T11211149,,,,,,4.73,-0.18,SSW,29.86,30.45,,Clear
KIGQ,12/20/2016 03:55 UTC,30.51,11.3,5.72,72.24,11.5,200.0,17.27,,,,,1.0,,,,10.0,,KIGQ 200355Z AUTO 20010G15KT 10SM CLR M11/M15 A3051 RMK AO2  T11151146,,,,,,4.01,0.41,SSW,29.85,30.44,,Clear
KIGQ,12/20/2016 04:15 UTC,30.5,11.48,6.08,78.44,10.36,190.0,,,,,,1.0,,,,10.0,,KIGQ 200415Z AUTO 19009KT 10SM CLR M11/M14 A3050 RMK AO2  T11141144,,,,,,6.0,1.33,S,29.84,30.42,,Clear
KIGQ,12/20/2016 04:35 UTC,30.49,12.56,6.8,78.44,13.8,200.0,,,,,,1.0,,,,10.0,,KIGQ 200435Z AUTO 20012KT 10SM CLR M11/M14 A3049 RMK AO2  T11081140,,,,,,7.06,0.7,SSW,29.83,30.4,,Clear
KIGQ,12/20/2016 04:55 UTC,30.49,12.74,6.62,78.44,12.66,200.0,19.57,,,,,1.0,,,,10.0,,KIGQ 200455Z AUTO 20011G17KT 10SM CLR M11/M14 A3049 RMK AO2  T11071141,,,,,,7.23,1.51,SSW,29.83,30.4,,Clear
KIGQ,12/20/2016 05:15 UTC,30.48,12.92,6.62,78.44,11.5,200.0,17.27,,,,,1.0,,,,10.0,,KIGQ 200515Z AUTO 20010G15KT 10SM CLR M11/M14 A3048 RMK AO2  T11061141,,,,,,7.41,2.37,SSW,29.82,30.39,,Clear
KIGQ,12/20/2016 05:35 UTC,30.48,13.46,6.8,72.44,13.8,200.0,,,,,,1.0,,,,10.0,,KIGQ 200535Z AUTO 20012KT 10SM CLR M10/M14 A3048 RMK AO2  T11031140,,,,,,6.16,1.8,SSW,29.82,30.39,,Clear
KIGQ,12/20/2016 05:55 UTC,30.47,13.28,6.62,72.44,13.8,190.0,,,,,,1.0,,,,10.0,,KIGQ 200555Z AUTO 19012KT 10SM CLR M10/M14 A3047 RMK AO2 T11041141  11103 21138 411031255,13.46,7.16,,13.46,-13.9,5.98,1.58,S,29.81,30.38,,Clear
KIGQ,12/20/2016 06:15 UTC,30.47,13.82,6.44,72.44,12.66,210.0,18.41,,,,,1.0,,,,10.0,,KIGQ 200615Z AUTO 21011G16KT 10SM CLR M10/M14 A3047 RMK AO2  T11011142,,,,,,6.5,2.82,SSW,29.81,30.38,,Clear
KIGQ,12/20/2016 06:35 UTC,30.46,14.0,6.44,72.44,13.8,200.0,,,,,,1.0,,,,10.0,,KIGQ 200635Z AUTO 20012KT 10SM CLR M10/M14 A3046 RMK AO2  T11001142,,,,,,6.68,2.47,SSW,29.8,30.36,,Clear
KIGQ,12/20/2016 06:55 UTC,30.44,14.54,6.8,72.44,14.97,200.0,19.57,,,,,1.0,,,,10.0,,KIGQ 200655Z AUTO 20013G17KT 10SM CLR M10/M14 A3044 RMK AO2  T10971140,,,,,,7.2,2.58,SSW,29.78,30.34,,Clear
KIGQ,12/20/2016 07:15 UTC,30.45,14.9,6.8,66.95,12.66,200.0,20.71,,,,,1.0,,,,10.0,,KIGQ 200715Z AUTO 20011G18KT 10SM CLR M09/M14 A3045 RMK AO2  T10951140,,,,,,5.79,4.14,SSW,29.79,30.35,,Clear
KIGQ,12/20/2016 07:35 UTC,30.44,14.72,6.8,72.44,14.97,200.0,23.02,,,,,1.0,,,,10.0,,KIGQ 200735Z AUTO 20013G20KT 10SM CLR M10/M14 A3044 RMK AO2  T10961140,,,,,,7.37,2.8,SSW,29.78,30.34,,Clear
KIGQ,12/20/2016 07:55 UTC,30.43,14.72,6.62,72.44,16.11,200.0,20.71,,,,,1.0,,,,10.0,,KIGQ 200755Z AUTO 20014G18KT 10SM CLR M10/M14 A3043 RMK AO2  T10961141,,,,,,7.37,2.31,SSW,29.77,30.33,,Clear
KIGQ,12/20/2016 08:15 UTC,30.42,14.9,6.62,66.95,14.97,200.0,,,,,,1.0,,,,10.0,,KIGQ 200815Z AUTO 20013KT 10SM CLR M09/M14 A3042 RMK AO2  T10951141,,,,,,5.79,3.02,SSW,29.76,30.32,,Clear
KIGQ,12/20/2016 08:35 UTC,30.42,14.72,6.62,72.44,14.97,200.0,,,,,,1.0,,,,10.0,,KIGQ 200835Z AUTO 20013KT 10SM CLR M10/M14 A3042 RMK AO2  T10961141,,,,,,7.37,2.8,SSW,29.76,30.32,,Clear
KIGQ,12/20/2016 08:55 UTC,30.41,14.72,5.9,72.44,14.97,200.0,,,,,,1.0,,,,10.0,,KIGQ 200855Z AUTO 20013KT 10SM CLR M10/M14 A3041 RMK AO2  T10961145,,,,,,7.37,2.8,SSW,29.75,30.31,,Clear
KIGQ,12/20/2016 09:15 UTC,30.39,14.0,6.44,72.44,12.66,200.0,,,,,,1.0,,,,10.0,,KIGQ 200915Z AUTO 20011KT 10SM CLR M10/M14 A3039 RMK AO2  T11001142,,,,,,6.68,3.04,SSW,29.73,30.29,,Clear
KIGQ,12/20/2016 09:35 UTC,30.37,13.82,6.62,72.44,16.11,200.0,21.85,,,,,1.0,,,,10.0,,KIGQ 200935Z AUTO 20014G19KT 10SM CLR M10/M14 A3037 RMK AO2  T11011141,,,,,,6.5,1.19,SSW,29.71,30.27,,Clear
KIGQ,12/20/2016 09:55 UTC,30.37,14.0,6.8,72.44,14.97,200.0,19.57,,,,,1.0,,,,10.0,,KIGQ 200955Z AUTO 20013G17KT 10SM CLR M10/M14 A3037 RMK AO2  T11001140,,,,,,6.68,1.92,SSW,29.71,30.27,,Clear
KIGQ,12/20/2016 10:15 UTC,30.37,14.54,6.8,72.44,16.11,210.0,20.71,,,,,1.0,,,,10.0,,KIGQ 201015Z AUTO 21014G18KT 10SM CLR M10/M14 A3037 RMK AO2  T10971140,,,,,,7.2,2.08,SSW,29.71,30.27,,Clear
KIGQ,12/20/2016 10:35 UTC,30.36,14.72,6.8,72.44,14.97,200.0,,,,,,1.0,,,,10.0,,KIGQ 201035Z AUTO 20013KT 10SM CLR M10/M14 A3036 RMK AO2  T10961140,,,,,,7.37,2.8,SSW,29.7,30.26,,Clear
KIGQ,12/20/2016 10:55 UTC,30.36,14.72,7.52,72.44,13.8,210.0,19.57,,,,,1.0,,,,10.0,,KIGQ 201055Z AUTO 21012G17KT 10SM CLR M10/M14 A3036 RMK AO2  T10961136,,,,,,7.37,3.35,SSW,29.7,30.26,,Clear
KIGQ,12/20/2016 11:15 UTC,30.34,14.72,7.7,78.61,18.41,200.0,,,,,,1.0,,,,10.0,,KIGQ 201115Z AUTO 20016KT 10SM CLR M10/M13 A3034 RMK AO2  T10961135,,,,,,9.21,1.39,SSW,29.68,30.23,,Clear
KIGQ,12/20/2016 11:35 UTC,30.33,14.72,8.06,78.61,14.97,200.0,,,,,,1.0,,,,10.0,,KIGQ 201135Z AUTO 20013KT 10SM CLR M10/M13 A3033 RMK AO2  T10961133,,,,,,9.21,2.8,SSW,29.67,30.22,,Clear
KIGQ,12/20/2016 11:55 UTC,30.31,15.26,8.6,72.65,17.27,200.0,25.32,,,,,1.0,,,,10.0,,KIGQ 201155Z AUTO 20015G22KT 10SM CLR M09/M13 A3031 RMK AO2  T10931130 11093 21103,15.26,13.46,,,,7.96,2.5,SSW,29.65,30.2,,Clear
KIGQ,12/20/2016 12:15 UTC,30.32,16.52,8.78,72.65,18.41,210.0,24.16,,,,,1.0,,,,10.0,,KIGQ 201215Z AUTO 21016G21KT 10SM CLR M09/M13 A3032 RMK AO2  T10861129,,,,,,9.17,3.64,SSW,29.66,30.2,,Clear
KIGQ,12/20/2016 12:35 UTC,30.31,16.7,9.32,67.19,16.11,210.0,20.71,,,,,1.0,,,,10.0,,KIGQ 201235Z AUTO 21014G18KT 10SM CLR M08/M13 A3031 RMK AO2  T10851126,,,,,,7.59,4.76,SSW,29.65,30.2,,Clear
KIGQ,12/20/2016 12:55 UTC,30.31,17.24,9.32,67.19,18.41,210.0,24.16,,,,,1.0,,,,10.0,,KIGQ 201255Z AUTO 21016G21KT 10SM CLR M08/M13 A3031 RMK AO2  T10821126,,,,,,8.11,4.54,SSW,29.65,30.19,,Clear
KIGQ,12/20/2016 13:15 UTC,30.3,17.6,9.68,72.85,18.41,210.0,26.46,,,,,1.0,,,,10.0,,KIGQ 201315Z AUTO 21016G23KT 10SM CLR M08/M12 A3030 RMK AO2  T10801124,,,,,,10.28,4.99,SSW,29.64,30.17,,Clear
KIGQ,12/20/2016 13:35 UTC,30.27,17.96,10.22,72.85,19.57,200.0,27.63,,,,,1.0,,,,10.0,,KIGQ 201335Z AUTO 20017G24KT 10SM CLR M08/M12 A3027 RMK AO2  T10781121,,,,,,10.62,5.04,SSW,29.61,30.13,,Clear
KIGQ,12/20/2016 13:55 UTC,30.25,18.14,10.4,72.85,20.71,210.0,26.46,,,,,1.0,,,,10.0,,KIGQ 201355Z AUTO 21018G23KT 10SM CLR M08/M12 A3025 RMK AO2  T10771120,,,,,,10.8,4.89,SSW,29.59,30.11,,Clear
KIGQ,12/20/2016 14:15 UTC,30.25,19.04,10.58,67.42,21.85,210.0,28.77,,,,,1.0,,,,10.0,,KIGQ 201415Z AUTO 21019G25KT 10SM CLR M07/M12 A3025 RMK AO2  T10721119,,,,,,9.91,5.67,SSW,29.59,30.11,,Clear
KIGQ,12/20/2016 14:35 UTC,30.25,19.22,10.94,67.42,24.16,210.0,31.07,,,,,1.0,,,,10.0,,KIGQ 201435Z AUTO 21021G27KT 10SM CLR M07/M12 A3025 RMK AO2  T10711117,,,,,,10.08,5.22,SSW,29.59,30.11,,Clear
KIGQ,12/20/2016 14:55 UTC,30.24,19.22,11.12,67.42,20.71,210.0,27.63,,,,,1.0,,,,10.0,,KIGQ 201455Z AUTO 21018G24KT 10SM CLR M07/M12 A3024 RMK AO2  T10711116,,,,,,10.08,6.25,SSW,29.58,30.1,,Clear
KIGQ,12/20/2016 15:15 UTC,30.23,20.3,11.84,67.65,23.02,210.0,,,,,,1.0,,,,10.0,,KIGQ 201515Z AUTO 21020KT 10SM CLR M06/M11 A3023 RMK AO2  T10651112,,,,,,11.19,6.92,SSW,29.57,30.08,,Clear
KIGQ,12/20/2016 15:35 UTC,30.25,21.92,11.84,67.65,19.57,220.0,26.46,,,,,1.0,,,,10.0,,KIGQ 201535Z AUTO 22017G23KT 10SM CLR M06/M11 A3025 RMK AO2  T10561112,,,,,,12.74,10.02,SW,29.59,30.08,,Clear
KIGQ,12/20/2016 15:55 UTC,30.26,22.64,12.74,62.7,20.71,220.0,26.46,,,,,1.0,,,,10.0,,KIGQ 201555Z AUTO 22018G23KT 10SM CLR M05/M11 A3026 RMK AO2  T10521107,,,,,,11.69,10.58,SW,29.6,30.1,,Clear
KIGQ,12/20/2016 16:15 UTC,30.25,23.36,12.92,62.7,19.57,220.0,26.46,,,,,1.0,,,,10.0,,KIGQ 201615Z AUTO 22017G23KT 10SM CLR M05/M11 A3025 RMK AO2  T10481106,,,,,,12.37,11.84,SW,29.59,30.08,,Clear
KIGQ,12/20/2016 16:35 UTC,30.23,24.8,13.82,62.95,21.85,230.0,26.46,,,,,1.0,,,,10.0,,KIGQ 201635Z AUTO 23019G23KT 10SM CLR M04/M10 A3023 RMK AO2  T10401101,,,,,,13.83,12.98,SW,29.57,30.04,,Clear
KIGQ,12/20/2016 16:55 UTC,30.22,25.16,14.0,62.95,23.02,230.0,29.93,,,,,1.0,,,,7.0,,KIGQ 201655Z AUTO 23020G26KT 7SM CLR M04/M10 A3022 RMK AO2  T10381100,,,,,,14.17,13.12,SW,29.56,30.03,,Clear
KIGQ,12/20/2016 17:15 UTC,30.22,25.34,14.36,62.95,20.71,230.0,28.77,,,,,1.0,,,,10.0,,KIGQ 201715Z AUTO 23018G25KT 10SM CLR M04/M10 A3022 RMK AO2  T10371098,,,,,,14.34,13.99,SW,29.56,30.03,,Clear
KIGQ,12/20/2016 17:35 UTC,30.22,26.24,15.08,63.2,16.11,230.0,24.16,,,,,1.0,,,,10.0,,KIGQ 201735Z AUTO 23014G21KT 10SM CLR M03/M09 A3022 RMK AO2  T10321094,,,,,,15.29,16.58,SW,29.56,30.01,,Clear
KIGQ,12/20/2016 17:55 UTC,30.21,27.14,15.44,63.2,14.97,230.0,23.02,,,,,1.0,,,,10.0,,KIGQ 201755Z AUTO 23013G20KT 10SM CLR M03/M09 A3021 RMK AO2  T10271092 11027 21092,27.14,15.44,,,,16.15,18.11,SW,29.55,29.99,,Clear
KIGQ,12/20/2016 18:15 UTC,30.21,27.5,15.8,58.68,14.97,240.0,23.02,,,,,1.0,,,,10.0,,KIGQ 201815Z AUTO 24013G20KT 10SM CLR M02/M09 A3021 RMK AO2  T10251090,,,,,,14.77,18.55,WSW,29.55,30.0,,Clear
KIGQ,12/20/2016 18:35 UTC,30.21,28.04,15.98,58.68,12.66,240.0,,,,,,1.0,,,,10.0,,KIGQ 201835Z AUTO 24011KT 10SM CLR M02/M09 A3021 RMK AO2  T10221089,,,,,,15.27,20.11,WSW,29.55,30.0,,Clear
KIGQ,12/20/2016 19:00 UTC,30.19,28.4,16.52,58.68,12.66,290.0,24.16,,,,,1.0,,,,10.0,,KIGQ 201900Z AUTO 29011G21KT 240V330 10SM CLR M02/M09 A3019 RMK AO2 T10201086,,,,,,15.61,20.55,WNW,29.53,29.97,,Clear
KIGQ,12/20/2016 19:15 UTC,30.18,28.94,17.6,63.45,16.11,230.0,21.85,,,,,1.0,,,,10.0,,KIGQ 201915Z AUTO 23014G19KT 10SM CLR M02/M08 A3018 RMK AO2  T10171080,,,,,,17.95,19.93,SW,29.52,29.94,,Clear
KIGQ,12/20/2016 19:35 UTC,30.18,28.4,17.6,63.45,16.11,230.0,21.85,,,,,1.0,,,,10.0,,KIGQ 201935Z AUTO 23014G19KT 10SM CLR M02/M08 A3018 RMK AO2  T10201080,,,,,,17.44,19.26,SW,29.52,29.95,,Clear
KIGQ,12/20/2016 19:55 UTC,30.18,28.4,18.14,63.45,14.97,250.0,21.85,,,,,1.0,,,,10.0,,KIGQ 201955Z AUTO 25013G19KT 10SM CLR M02/M08 A3018 RMK AO2  T10201077,,,,,,17.44,19.66,WSW,29.52,29.95,,Clear
KIGQ,12/20/2016 20:15 UTC,30.17,28.22,18.5,68.56,14.97,230.0,,,,,,1.0,,,,10.0,,KIGQ 202015Z AUTO 23013KT 10SM CLR M02/M07 A3017 RMK AO2  T10211075,,,,,,19.09,19.44,SW,29.51,29.92,,Clear
KIGQ,12/20/2016 20:35 UTC,30.17,28.22,18.5,68.56,13.8,230.0,,,,,,1.0,,,,10.0,,KIGQ 202035Z AUTO 23012KT 10SM CLR M02/M07 A3017 RMK AO2  T10211075,,,,,,19.09,19.88,SW,29.51,29.92,,Clear
KIGQ,12/20/2016 20:55 UTC,30.17,28.04,18.32,63.45,17.27,230.0,,,,,,1.0,,,,10.0,,KIGQ 202055Z AUTO 23015KT 10SM CLR M02/M08 A3017 RMK AO2  T10221076,,,,,,17.09,18.43,SW,29.51,29.94,,Clear
KIGQ,12/20/2016 21:15 UTC,30.18,27.5,18.68,68.56,10.36,220.0,19.57,,,,,1.0,,,,10.0,,KIGQ 202115Z AUTO 22009G17KT 10SM CLR M02/M07 A3018 RMK AO2  T10251074,,,,,,18.4,20.51,SW,29.52,29.94,,Clear
KIGQ,12/20/2016 21:35 UTC,30.18,27.5,18.86,68.56,14.97,230.0,,,,,,1.0,,,,10.0,,KIGQ 202135Z AUTO 23013KT 10SM CLR M02/M07 A3018 RMK AO2  T10251073,,,,,,18.4,18.55,SW,29.52,29.94,,Clear
KIGQ,12/20/2016 21:55 UTC,30.18,27.14,18.68,73.84,12.66,230.0,,,,,,1.0,,,,10.0,,KIGQ 202155Z AUTO 23011KT 10SM CLR M03/M07 A3018 RMK AO2  T10271074,,,,,,19.8,19.02,SW,29.52,29.93,,Clear
KIGQ,12/20/2016 22:15 UTC,30.18,26.06,18.5,73.84,10.36,220.0,,,,,,1.0,,,,10.0,,KIGQ 202215Z AUTO 22009KT 10SM CLR M03/M07 A3018 RMK AO2  T10331075,,,,,,18.76,18.79,SW,29.52,29.95,,Clear
KIGQ,12/20/2016 22:35 UTC,30.18,25.52,19.22,79.58,11.5,220.0,,,,,,1.0,,,,10.0,,KIGQ 202235Z AUTO 22010KT 10SM CLR M04/M07 A3018 RMK AO2  T10361071,,,,,,20.01,17.58,SW,29.52,29.94,,Clear
KIGQ,12/20/2016 22:55 UTC,30.18,24.8,19.4,79.58,11.5,220.0,,,,,,1.0,,,,10.0,,KIGQ 202255Z AUTO 22010KT 10SM CLR M04/M07 A3018 RMK AO2  T10401070,,,,,,19.31,16.71,SW,29.52,29.95,,Clear
KIGQ,12/20/2016 23:15 UTC,30.18,24.8,19.76,79.58,12.66,220.0,,,,,,1.0,,,,10.0,,KIGQ 202315Z AUTO 22011KT 10SM CLR M04/M07 A3018 RMK AO2  T10401068,,,,,,19.31,16.17,SW,29.52,29.95,,Clear
KIGQ,12/20/2016 23:35 UTC,30.19,24.62,19.76,79.58,13.8,220.0,,,,,,1.0,,,,10.0,,KIGQ 202335Z AUTO 22012KT 10SM CLR M04/M07 A3019 RMK AO2  T10411068,,,,,,19.13,15.47,SW,29.53,29.96,,Clear
KIGQ,12/20/2016 23:55 UTC,30.19,24.26,19.76,79.58,11.5,220.0,,,,,,1.0,,,,10.0,,KIGQ 202355Z AUTO 22010KT 10SM CLR M04/M07 A3019 RMK AO2 T10431068  11016 21043,29.12,24.26,,,,18.78,16.06,SW,29.53,29.97,,Clear
KIGQ,12/21/2016 00:15 UTC,30.19,24.08,19.94,79.58,10.36,220.0,,,,,,1.0,,,,10.0,,KIGQ 210015Z AUTO 22009KT 10SM CLR M04/M07 A3019 RMK AO2  T10441067,,,,,,18.61,16.42,SW,29.53,29.97,,Clear
KIGQ,12/21/2016 00:35 UTC,30.21,23.72,19.58,85.82,8.05,230.0,,,,,,1.0,,,,10.0,,KIGQ 210035Z AUTO 23007KT 10SM CLR M05/M07 A3021 RMK AO2  T10461069,,,,,,20.04,17.35,SW,29.55,29.98,,Clear
KIGQ,12/21/2016 00:55 UTC,30.2,23.18,19.4,85.82,9.22,220.0,,,,,,1.0,,,,10.0,,KIGQ 210055Z AUTO 22008KT 10SM CLR M05/M07 A3020 RMK AO2  T10491070,,,,,,19.51,15.98,SW,29.54,29.98,,Clear
KIGQ,12/21/2016 01:15 UTC,30.2,23.0,19.22,85.82,9.22,210.0,,,,,,1.0,,,,10.0,,KIGQ 210115Z AUTO 21008KT 10SM CLR M05/M07 A3020 RMK AO2  T10501071,,,,,,19.34,15.77,SSW,29.54,29.98,,Clear
KIGQ,12/21/2016 01:35 UTC,30.19,22.64,18.86,85.82,6.91,210.0,,,,,,1.0,,,,10.0,,KIGQ 210135Z AUTO 21006KT 10SM CLR M05/M07 A3019 RMK AO2  T10521073,,,,,,18.98,,SSW,29.53,29.97,,Clear
KIGQ,12/21/2016 01:55 UTC,30.19,22.1,18.86,85.82,8.05,220.0,,,,,,1.0,,,,10.0,,KIGQ 210155Z AUTO 22007KT 10SM CLR M05/M07 A3019 RMK AO2  T10551073,,,,,,18.45,15.45,SW,29.53,29.98,,Clear
KIGQ,12/21/2016 02:15 UTC,30.2,21.74,18.5,92.61,5.75,220.0,,,,,,1.0,,,,10.0,,KIGQ 210215Z AUTO 22005KT 10SM CLR M06/M07 A3020 RMK AO2  T10571075,,,,,,19.9,,SW,29.54,29.98,,Clear
KIGQ,12/21/2016 02:35 UTC,30.2,21.56,18.32,85.71,6.91,220.0,,,,,,1.0,,,,10.0,,KIGQ 210235Z AUTO 22006KT 10SM CLR M06/M08 A3020 RMK AO2  T10581076,,,,,,17.89,,SW,29.54,30.0,,Clear
KIGQ,12/21/2016 02:55 UTC,30.19,21.74,18.5,92.61,8.05,220.0,,,,,,1.0,,,,10.0,,KIGQ 210255Z AUTO 22007KT 10SM CLR M06/M07 A3019 RMK AO2  T10571075,,,,,,19.9,15.02,SW,29.53,29.97,,Clear
KIGQ,12/21/2016 03:15 UTC,30.19,22.46,18.86,85.82,9.22,210.0,,,,,,1.0,,,,10.0,,KIGQ 210315Z AUTO 21008KT 10SM CLR M05/M07 A3019 RMK AO2  T10531073,,,,,,18.81,15.13,SSW,29.53,29.98,,Clear
KIGQ,12/21/2016 03:35 UTC,30.2,22.28,18.5,85.82,8.05,220.0,,,,,,1.0,,,,10.0,,KIGQ 210335Z AUTO 22007KT 10SM CLR M05/M07 A3020 RMK AO2  T10541075,,,,,,18.63,15.66,SW,29.54,29.99,,Clear
KIGQ,12/21/2016 03:55 UTC,30.19,21.92,18.5,92.61,9.22,220.0,,,,,,1.0,,,,10.0,,KIGQ 210355Z AUTO 22008KT 10SM CLR M06/M07 A3019 RMK AO2  T10561075,,,,,,20.08,14.49,SW,29.53,29.97,,Clear
KIGQ,12/21/2016 04:15 UTC,30.19,22.1,18.5,85.82,9.22,220.0,,,,,,1.0,,,,10.0,,KIGQ 210415Z AUTO 22008KT 10SM CLR M05/M07 A3019 RMK AO2  T10551075,,,,,,18.45,14.7,SW,29.53,29.98,,Clear
KIGQ,12/21/2016 04:35 UTC,30.2,21.38,18.14,85.71,8.05,210.0,,,,,,1.0,,,,10.0,,KIGQ 210435Z AUTO 21007KT 10SM CLR M06/M08 A3020 RMK AO2  T10591077,,,,,,17.71,14.6,SSW,29.54,30.0,,Clear
KIGQ,12/21/2016 04:55 UTC,30.2,21.74,18.32,85.71,9.22,210.0,,,,,,1.0,,,,10.0,,KIGQ 210455Z AUTO 21008KT 10SM CLR M06/M08 A3020 RMK AO2  T10571076,,,,,,18.07,14.27,SSW,29.54,30.0,,Clear
KIGQ,12/21/2016 05:15 UTC,30.19,21.2,17.78,85.71,8.05,220.0,,,,,,1.0,,,,10.0,,KIGQ 210515Z AUTO 22007KT 10SM CLR M06/M08 A3019 RMK AO2  T10601079,,,,,,17.54,14.39,SW,29.53,29.99,,Clear
KIGQ,12/21/2016 05:35 UTC,30.19,20.84,17.6,85.71,8.05,230.0,,,,,,1.0,,,,10.0,,KIGQ 210535Z AUTO 23007KT 10SM CLR M06/M08 A3019 RMK AO2  T10621080,,,,,,17.18,13.97,SW,29.53,30.0,,Clear
KIGQ,12/21/2016 05:55 UTC,30.18,20.12,17.24,92.55,5.75,220.0,,,,,,1.0,,,,10.0,,KIGQ 210555Z AUTO 22005KT 10SM CLR M07/M08 A3018 RMK AO2 T10661082  11042 21066 410161103,24.44,20.12,,29.12,13.46,18.28,,SW,29.52,29.98,,Clear
KIGQ,12/21/2016 06:15 UTC,30.18,18.86,16.52,85.59,5.75,240.0,,,,,,1.0,,,,10.0,,KIGQ 210615Z AUTO 24005KT 10SM CLR M07/M09 A3018 RMK AO2  T10731086,,,,,,15.2,,WSW,29.52,30.01,,Clear
KIGQ,12/21/2016 06:35 UTC,30.18,18.68,16.52,85.59,5.75,240.0,,,,,,1.0,,,,10.0,,KIGQ 210635Z AUTO 24005KT 10SM CLR M07/M09 A3018 RMK AO2  T10741086,,,,,,15.03,,WSW,29.52,30.01,,Clear
KIGQ,12/21/2016 06:55 UTC,30.18,19.58,17.24,92.55,5.75,240.0,,,,,,1.0,,,,10.0,,KIGQ 210655Z AUTO 24005KT 10SM CLR M07/M08 A3018 RMK AO2  T10691082,,,,,,17.75,,WSW,29.52,29.99,,Clear
KIGQ,12/21/2016 07:15 UTC,30.19,19.04,16.34,85.59,5.75,230.0,,,,,,1.0,,,,10.0,,KIGQ 210715Z AUTO 23005KT 10SM CLR M07/M09 A3019 RMK AO2  T10721087,,,,,,15.38,,SW,29.53,30.02,,Clear
KIGQ,12/21/2016 07:35 UTC,30.19,18.14,15.8,92.48,5.75,230.0,,,,,,1.0,,,,10.0,,KIGQ 210735Z AUTO 23005KT 10SM CLR M08/M09 A3019 RMK AO2  T10771090,,,,,,16.3,,SW,29.53,30.02,,Clear
KIGQ,12/21/2016 07:55 UTC,30.19,15.8,14.18,92.42,5.75,200.0,,,,,,1.0,,,,10.0,,KIGQ 210755Z AUTO 20005KT 10SM CLR M09/M10 A3019 RMK AO2  T10901099,,,,,,13.97,,SSW,29.53,30.04,,Clear
KIGQ,12/21/2016 08:15 UTC,30.19,16.7,15.26,92.48,5.75,210.0,,,,,,1.0,,,,10.0,,KIGQ 210815Z AUTO 21005KT 10SM CLR M08/M09 A3019 RMK AO2  T10851093,,,,,,14.87,,SSW,29.53,30.03,,Clear
KIGQ,12/21/2016 08:35 UTC,30.18,17.6,15.8,92.48,4.61,220.0,,,,,,1.0,,,,10.0,,KIGQ 210835Z AUTO 22004KT 10SM CLR M08/M09 A3018 RMK AO2  T10801090,,,,,,15.77,,SW,29.52,30.01,,Clear
KIGQ,12/21/2016 08:55 UTC,30.18,19.22,16.7,92.55,6.91,220.0,,,,,,1.0,,,,10.0,,KIGQ 210855Z AUTO 22006KT 10SM CLR M07/M08 A3018 RMK AO2  T10711085,,,,,,17.39,,SW,29.52,29.99,,Clear
KIGQ,12/21/2016 09:15 UTC,30.17,19.04,16.7,92.55,8.05,220.0,,,,,,1.0,,,,10.0,,KIGQ 210915Z AUTO 22007KT 10SM CLR M07/M08 A3017 RMK AO2  T10721085,,,,,,17.21,11.85,SW,29.51,29.98,,Clear
KIGQ,12/21/2016 09:35 UTC,30.17,19.22,16.7,92.55,5.75,220.0,,,,,,1.0,,,,10.0,,KIGQ 210935Z AUTO 22005KT 10SM CLR M07/M08 A3017 RMK AO2  T10711085,,,,,,17.39,,SW,29.51,29.98,,Clear
KIGQ,12/21/2016 09:55 UTC,30.16,19.04,16.7,92.55,4.61,220.0,,,,,,1.0,,,,10.0,,KIGQ 210955Z AUTO 22004KT 10SM CLR M07/M08 A3016 RMK AO2  T10721085,,,,,,17.21,,SW,29.5,29.97,,Clear
KIGQ,12/21/2016 10:15 UTC,30.16,17.6,15.8,92.48,4.61,220.0,,,,,,1.0,,,,10.0,,KIGQ 211015Z AUTO 22004KT 10SM CLR M08/M09 A3016 RMK AO2  T10801090,,,,,,15.77,,SW,29.5,29.99,,Clear
KIGQ,12/21/2016 10:35 UTC,30.16,16.7,15.44,92.48,4.61,220.0,,,,,,1.0,,,,10.0,,KIGQ 211035Z AUTO 22004KT 10SM CLR M08/M09 A3016 RMK AO2  T10851092,,,,,,14.87,,SW,29.5,30.0,,Clear
KIGQ,12/21/2016 10:55 UTC,30.16,15.8,14.36,92.42,3.44,200.0,,,,,,1.0,,,,10.0,,KIGQ 211055Z AUTO 20003KT 10SM CLR M09/M10 A3016 RMK AO2  T10901098,,,,,,13.97,,SSW,29.5,30.01,,Clear
KIGQ,12/21/2016 11:15 UTC,30.16,16.34,14.72,92.42,6.91,180.0,,,,,,1.0,,,,10.0,,KIGQ 211115Z AUTO 18006KT 10SM CLR M09/M10 A3016 RMK AO2  T10871096,,,,,,14.5,,S,29.5,30.01,,Clear
KIGQ,12/21/2016 11:35 UTC,30.16,15.44,14.0,92.42,6.91,190.0,,,,,,1.0,,,,10.0,,KIGQ 211135Z AUTO 19006KT 10SM CLR M09/M10 A3016 RMK AO2  T10921100,,,,,,13.61,,S,29.5,30.02,,Clear
KIGQ,12/21/2016 11:55 UTC,30.15,16.7,14.9,92.48,5.75,180.0,,,,,,1.0,,,,10.0,,KIGQ 211155Z AUTO 18005KT 10SM CLR M08/M09 A3015 RMK AO2 T10851095  11067 21092,19.94,15.44,,,,14.87,,S,29.49,29.99,,Clear
KIGQ,12/21/2016 12:15 UTC,30.15,18.32,16.52,92.48,5.75,180.0,,,,,,1.0,,,,10.0,,KIGQ 211215Z AUTO 18005KT 10SM CLR M08/M09 A3015 RMK AO2  T10761086,,,,,,16.48,,S,29.49,29.97,,Clear
KIGQ,12/21/2016 12:35 UTC,30.16,19.22,17.42,92.55,3.44,170.0,,,,,,1.0,,,,10.0,,KIGQ 211235Z AUTO 17003KT 10SM CLR M07/M08 A3016 RMK AO2  T10711081,,,,,,17.39,,S,29.5,29.97,,Clear
KIGQ,12/21/2016 12:55 UTC,30.15,20.3,18.14,85.71,5.75,170.0,,,,,,1.0,,,,10.0,,KIGQ 211255Z AUTO 17005KT 10SM CLR M06/M08 A3015 RMK AO2  T10651077,,,,,,16.65,,S,29.49,29.96,,Clear
KIGQ,12/21/2016 13:15 UTC,30.16,21.2,18.5,92.61,5.75,170.0,,,,,,1.0,,,,10.0,,KIGQ 211315Z AUTO 17005KT 10SM CLR M06/M07 A3016 RMK AO2  T10601075,,,,,,19.37,,S,29.5,29.95,,Clear
KIGQ,12/21/2016 13:35 UTC,30.16,21.56,18.86,92.61,3.44,150.0,,,,,,1.0,,,,10.0,,KIGQ 211335Z AUTO 15003KT 10SM CLR M06/M07 A3016 RMK AO2  T10581073,,,,,,19.72,,SSE,29.5,29.94,,Clear
KIGQ,12/21/2016 13:55 UTC,30.18,21.74,19.04,92.61,0.0,0.0,,,,,,1202.0,,,,10.0,,KIGQ 211355Z AUTO 00000KT 10SM SCT120 M06/M07 A3018 RMK AO2  T10571072,,,,,,19.9,,N,29.52,29.96,,Partly Cloudy
KIGQ,12/21/2016 14:15 UTC,30.18,22.1,19.22,85.82,3.44,170.0,,,,,,1103.0,,,,10.0,,KIGQ 211415Z AUTO 17003KT 10SM BKN110 M05/M07 A3018 RMK AO2  T10551071,,,11000.0,,,18.45,,S,29.52,29.97,,Mostly Cloudy
KIGQ,12/21/2016 14:35 UTC,30.16,22.28,19.4,85.82,4.61,150.0,,,,,,1104.0,,,,10.0,,KIGQ 211435Z AUTO 15004KT 10SM OVC110 M05/M07 A3016 RMK AO2  T10541070,,,11000.0,,,18.63,,SSE,29.5,29.95,,Overcast
KIGQ,12/21/2016 14:55 UTC,30.17,23.0,19.94,85.82,5.75,180.0,,,,,,1104.0,,,,10.0,,KIGQ 211455Z AUTO 18005KT 10SM OVC110 M05/M07 A3017 RMK AO2  T10501067,,,11000.0,,,19.34,,S,29.51,29.95,,Overcast
KIGQ,12/21/2016 15:15 UTC,30.18,23.72,20.48,92.67,8.05,190.0,,,,,,1203.0,,,,10.0,,KIGQ 211515Z AUTO 19007KT 10SM BKN120 M05/M06 A3018 RMK AO2  T10461064,,,12000.0,,,21.88,17.35,S,29.52,29.93,,Mostly Cloudy
KIGQ,12/21/2016 15:35 UTC,30.16,24.62,21.02,85.93,6.91,180.0,,,,,,1203.0,,,,10.0,,KIGQ 211535Z AUTO 18006KT 10SM BKN120 M04/M06 A3016 RMK AO2  T10411061,,,12000.0,,,20.96,,S,29.5,29.91,,Mostly Cloudy
KIGQ,12/21/2016 15:55 UTC,30.16,25.7,21.56,79.74,6.91,170.0,,,,,,1203.0,,,,10.0,,KIGQ 211555Z AUTO 17006KT 10SM BKN120 M03/M06 A3016 RMK AO2  T10351058,,,12000.0,,,20.23,,S,29.5,29.92,,Mostly Cloudy
KIGQ,12/21/2016 16:15 UTC,30.15,26.42,22.1,86.04,8.05,170.0,,,,,,1203.0,,,,10.0,,KIGQ 211615Z AUTO 17007KT 10SM BKN120 M03/M05 A3015 RMK AO2  T10311055,,,12000.0,,,22.76,20.52,S,29.49,29.88,,Mostly Cloudy
KIGQ,12/21/2016 16:35 UTC,30.15,27.86,22.82,79.89,8.05,180.0,,,,,,1202.0,,,,10.0,,KIGQ 211635Z AUTO 18007KT 10SM SCT120 M02/M05 A3015 RMK AO2  T10231051,,,,,,22.38,22.21,S,29.49,29.87,,Partly Cloudy
KIGQ,12/21/2016 16:55 UTC,30.13,28.94,23.18,79.89,10.36,170.0,,,,,,1.0,,,,10.0,,KIGQ 211655Z AUTO 17009KT 10SM CLR M02/M05 A3013 RMK AO2  T10171049,,,,,,23.44,22.24,S,29.47,29.84,,Clear
KIGQ,12/21/2016 17:15 UTC,30.09,30.2,23.36,74.22,11.5,170.0,,,,,,1.0,,,,10.0,,KIGQ 211715Z AUTO 17010KT 10SM CLR M01/M05 A3009 RMK AO2  T10101048,,,,,,22.88,23.23,S,29.44,29.8,,Clear
KIGQ,12/21/2016 17:35 UTC,30.09,31.1,23.9,74.41,9.22,190.0,,,,,,1.0,,,,10.0,,KIGQ 211735Z AUTO 19008KT 10SM CLR 00/M04 A3009 RMK AO2  T10051045,,,,,,23.82,25.38,S,29.44,29.79,,Clear
KIGQ,12/21/2016 17:55 UTC,30.07,32.0,23.9,74.41,9.22,200.0,,,,,,1203.0,,,,10.0,,KIGQ 211755Z AUTO 20008KT 10SM BKN120 00/M04 A3007 RMK AO2  T00001045 10000 21085,32.0,16.7,12000.0,,,24.69,26.45,SSW,29.42,29.75,,Mostly Cloudy
KIGQ,12/21/2016 18:15 UTC,30.05,32.9,23.9,69.22,10.36,180.0,,,,,,1104.0,,,,10.0,,KIGQ 211815Z AUTO 18009KT 10SM OVC110 01/M04 A3005 RMK AO2  T00051045,,,11000.0,,,23.8,26.98,S,29.4,29.74,,Overcast
KIGQ,12/21/2016 18:35 UTC,30.03,33.26,23.9,69.22,13.8,180.0,,,,,,1103.0,,,,10.0,,KIGQ 211835Z AUTO 18012KT 10SM BKN110 01/M04 A3003 RMK AO2  T00071045,,,11000.0,,,24.15,26.05,S,29.38,29.71,,Mostly Cloudy
KIGQ,12/21/2016 18:55 UTC,30.03,33.8,23.9,69.22,5.75,190.0,,,,,,1104.0,,,,10.0,,KIGQ 211855Z AUTO 19005KT 10SM OVC110 01/M04 A3003 RMK AO2  T00101045,,,11000.0,,,24.67,,S,29.38,29.7,,Overcast
KIGQ,12/21/2016 19:15 UTC,30.02,34.88,23.72,59.74,11.5,200.0,,,,,,1003.0,,,,10.0,,KIGQ 211915Z AUTO 20010KT 10SM BKN100 02/M05 A3002 RMK AO2  T00161046,,,10000.0,,,22.15,28.88,SSW,29.37,29.72,,Mostly Cloudy
KIGQ,12/21/2016 19:35 UTC,30.02,35.24,23.9,64.42,6.91,210.0,,,,,,1003.0,,,,10.0,,KIGQ 211935Z AUTO 21006KT 10SM BKN100 02/M04 A3002 RMK AO2  T00181045,,,10000.0,,,24.3,,SSW,29.37,29.69,,Mostly Cloudy
KIGQ,12/21/2016 19:55 UTC,30.02,35.78,24.26,62.54,9.22,200.0,,,,,,1003.0,,,,10.0,,KIGQ 211955Z AUTO 20008KT 10SM BKN100 02/M04 A3002 RMK AO2  T00211043,,,10000.0,,,24.1,30.93,SSW,29.37,29.69,,Mostly Cloudy
KIGQ,12/21/2016 20:15 UTC,30.02,35.6,24.8,64.42,11.5,200.0,16.11,,,,,1203.0,,,,10.0,,KIGQ 212015Z AUTO 20010G14KT 10SM BKN120 02/M04 A3002 RMK AO2  T00201040,,,12000.0,,,24.64,29.74,SSW,29.37,29.68,,Mostly Cloudy
KIGQ,12/21/2016 20:35 UTC,30.01,34.7,25.88,69.43,11.5,200.0,,,,,,1204.0,,,,10.0,,KIGQ 212035Z AUTO 20010KT 10SM OVC120 02/M03 A3001 RMK AO2  T00151034,,,12000.0,,,25.6,28.66,SSW,29.36,29.67,,Overcast
KIGQ,12/21/2016 20:55 UTC,30.0,34.34,26.6,74.6,10.36,190.0,13.8,,,,,1204.0,,,,10.0,,KIGQ 212055Z AUTO 19009G12KT 10SM OVC120 01/M03 A3000 RMK AO2  T00131030,,,12000.0,,,27.01,28.7,S,29.35,29.64,,Overcast
KIGQ,12/21/2016 21:15 UTC,29.98,33.98,26.96,74.6,16.11,180.0,19.57,,,,,1104.0,,,,10.0,,KIGQ 212115Z AUTO 18014G17KT 10SM OVC110 01/M03 A2998 RMK AO2  T00111028,,,11000.0,,,26.67,26.18,S,29.33,29.63,,Overcast
KIGQ,12/21/2016 21:35 UTC,29.96,33.8,27.5,80.34,14.97,190.0,19.57,,,,,1104.0,,,,10.0,,KIGQ 212135Z AUTO 19013G17KT 10SM OVC110 01/M02 A2996 RMK AO2  T00101025,,,11000.0,,,28.31,26.31,S,29.31,29.59,,Overcast
KIGQ,12/21/2016 21:55 UTC,29.96,33.44,28.22,80.34,12.66,180.0,,,,,,1104.0,,,,10.0,,KIGQ 212155Z AUTO 18011KT 10SM OVC110 01/M02 A2996 RMK AO2  T00081021,,,11000.0,,,27.96,26.68,S,29.31,29.59,,Overcast
KIGQ,12/21/2016 22:15 UTC,29.94,33.8,28.4,80.34,13.8,180.0,,,,,,1102.0,,,,10.0,,KIGQ 212215Z AUTO 18012KT 10SM SCT110 01/M02 A2994 RMK AO2  T00101020,,,,,,28.31,26.71,S,29.29,29.56,,Partly Cloudy
KIGQ,12/21/2016 22:35 UTC,29.94,34.16,28.76,80.34,14.97,180.0,,,,,,1203.0,,,,10.0,,KIGQ 212235Z AUTO 18013KT 10SM BKN120 01/M02 A2994 RMK AO2  T00121018,,,12000.0,,,28.67,26.76,S,29.29,29.56,,Mostly Cloudy
KIGQ,12/21/2016 22:55 UTC,29.94,34.7,28.94,74.78,13.8,190.0,,,,,,1202.0,,,,10.0,,KIGQ 212255Z AUTO 19012KT 10SM SCT120 02/M02 A2994 RMK AO2  T00151017,,,,,,27.42,27.81,S,29.29,29.57,,Partly Cloudy
KIGQ,12/21/2016 23:15 UTC,29.95,35.24,29.12,74.78,13.8,200.0,18.41,,,,,1202.0,,,,10.0,,KIGQ 212315Z AUTO 20012G16KT 10SM SCT120 02/M02 A2995 RMK AO2  T00181016,,,,,,27.94,28.47,SSW,29.3,29.57,,Partly Cloudy
KIGQ,12/21/2016 23:35 UTC,29.94,35.24,29.48,80.49,13.8,200.0,,,,,,1202.0,,,,10.0,,KIGQ 212335Z AUTO 20012KT 10SM SCT120 02/M01 A2994 RMK AO2  T00181014,,,,,,29.77,28.47,SSW,29.29,29.54,,Partly Cloudy
KIGQ,12/21/2016 23:55 UTC,29.95,35.78,29.84,80.49,14.97,210.0,,,,,,1.0,,,,10.0,,KIGQ 212355Z AUTO 21013KT 10SM CLR 02/M01 A2995 RMK AO2 T00211012  10021 20000,35.78,32.0,,,,30.29,28.75,SSW,29.3,29.53,,Clear
KIGQ,12/22/2016 00:15 UTC,29.95,35.6,30.2,80.49,13.8,210.0,,,,,,1202.0,,,,10.0,,KIGQ 220015Z AUTO 21012KT 10SM SCT120 02/M01 A2995 RMK AO2  T00201010,,,,,,30.12,28.91,SSW,29.3,29.54,,Partly Cloudy
KIGQ,12/22/2016 00:35 UTC,29.95,35.6,30.74,80.49,11.5,210.0,,,,,,1.0,,,,10.0,,KIGQ 220035Z AUTO 21010KT 10SM CLR 02/M01 A2995 RMK AO2  T00201007,,,,,,30.12,29.74,SSW,29.3,29.54,,Clear
KIGQ,12/22/2016 00:55 UTC,29.95,35.42,30.74,80.49,10.36,220.0,16.11,,,,,1.0,,,,10.0,,KIGQ 220055Z AUTO 22009G14KT 10SM CLR 02/M01 A2995 RMK AO2  T00191007,,,,,,29.94,29.99,SW,29.3,29.54,,Clear
KIGQ,12/22/2016 01:15 UTC,29.96,35.96,30.74,80.49,11.5,220.0,,,,,,1.0,,,,10.0,,KIGQ 220115Z AUTO 22010KT 10SM CLR 02/M01 A2996 RMK AO2  T00221007,,,,,,30.47,30.18,SW,29.31,29.54,,Clear
KIGQ,12/22/2016 01:35 UTC,29.95,36.32,30.92,80.49,12.66,230.0,,,,,,1.0,,,,10.0,,KIGQ 220135Z AUTO 23011KT 10SM CLR 02/M01 A2995 RMK AO2  T00241006,,,,,,30.82,30.18,SW,29.3,29.52,,Clear
KIGQ,12/22/2016 01:55 UTC,29.95,36.5,30.92,74.96,12.66,230.0,,,,,,1.0,,,,10.0,,KIGQ 220155Z AUTO 23011KT 10SM CLR 03/M01 A2995 RMK AO2  T00251006,,,,,,29.22,30.4,SW,29.3,29.55,,Clear
KIGQ,12/22/2016 02:15 UTC,29.96,37.04,30.74,74.96,12.66,250.0,19.57,,,,,1.0,,,,10.0,,KIGQ 220215Z AUTO 25011G17KT 10SM CLR 03/M01 A2996 RMK AO2  T00281007,,,,,,29.75,31.06,WSW,29.31,29.54,,Clear
KIGQ,12/22/2016 02:35 UTC,29.96,36.68,30.74,74.96,10.36,240.0,,,,,,1.0,,,,10.0,,KIGQ 220235Z AUTO 24009KT 10SM CLR 03/M01 A2996 RMK AO2  T00261007,,,,,,29.4,31.5,WSW,29.31,29.55,,Clear
KIGQ,12/22/2016 02:55 UTC,29.96,35.96,30.56,80.49,9.22,250.0,,,,,,1.0,,,,10.0,,KIGQ 220255Z AUTO 25008KT 10SM CLR 02/M01 A2996 RMK AO2  T00221008,,,,,,30.47,31.15,WSW,29.31,29.54,,Clear
KIGQ,12/22/2016 03:15 UTC,29.96,34.7,29.3,80.49,8.05,250.0,,,,,,1.0,,,,10.0,,KIGQ 220315Z AUTO 25007KT 10SM CLR 02/M01 A2996 RMK AO2  T00151015,,,,,,29.24,30.25,WSW,29.31,29.57,,Clear
KIGQ,12/22/2016 03:35 UTC,29.96,34.16,28.58,80.34,10.36,260.0,,,,,,1.0,,,,10.0,,KIGQ 220335Z AUTO 26009KT 10SM CLR 01/M02 A2996 RMK AO2  T00121019,,,,,,28.67,28.49,W,29.31,29.58,,Clear
KIGQ,12/22/2016 03:55 UTC,29.97,34.52,28.4,80.34,10.36,270.0,,,,,,1.0,,,,10.0,,KIGQ 220355Z AUTO 27009KT 10SM CLR 01/M02 A2997 RMK AO2  T00141020,,,,,,29.02,28.92,W,29.32,29.58,,Clear
KIGQ,12/22/2016 04:15 UTC,29.98,33.98,28.4,80.34,9.22,270.0,,,,,,1.0,,,,10.0,,KIGQ 220415Z AUTO 27008KT 10SM CLR 01/M02 A2998 RMK AO2  T00111020,,,,,,28.49,28.8,W,29.33,29.6,,Clear
KIGQ,12/22/2016 04:35 UTC,29.98,33.08,28.04,80.34,9.22,270.0,,,,,,1.0,,,,10.0,,KIGQ 220435Z AUTO 27008KT 10SM CLR 01/M02 A2998 RMK AO2  T00061022,,,,,,27.61,27.73,W,29.33,29.62,,Clear
KIGQ,12/22/2016 04:55 UTC,29.98,32.9,27.86,80.34,9.22,270.0,,,,,,1.0,,,,10.0,,KIGQ 220455Z AUTO 27008KT 10SM CLR 01/M02 A2998 RMK AO2  T00051023,,,,,,27.44,27.52,W,29.33,29.62,,Clear
KIGQ,12/22/2016 05:15 UTC,29.98,32.36,27.86,86.37,9.22,270.0,,,,,,1.0,,,,10.0,,KIGQ 220515Z AUTO 27008KT 10SM CLR 00/M02 A2998 RMK AO2  T00021023,,,,,,28.7,26.88,W,29.33,29.61,,Clear
KIGQ,12/22/2016 05:35 UTC,29.99,32.0,27.68,86.37,8.05,280.0,,,,,,1.0,,,,10.0,,KIGQ 220535Z AUTO 28007KT 10SM CLR 00/M02 A2999 RMK AO2  T00001024,,,,,,28.34,27.08,W,29.34,29.63,,Clear
KIGQ,12/22/2016 05:55 UTC,30.0,32.0,27.68,86.37,8.05,280.0,,,,,,1.0,,,,10.0,,KIGQ 220555Z AUTO 28007KT 10SM CLR 00/M02 A3000 RMK AO2 T00001024  10028 20000 400281092,37.04,32.0,,37.04,15.44,28.34,27.08,W,29.35,29.64,,Clear
KIGQ,12/22/2016 06:15 UTC,30.01,32.0,27.68,86.37,8.05,280.0,,,,,,313.0,,,,10.0,,KIGQ 220615Z AUTO 28007KT 10SM BKN031 00/M02 A3001 RMK AO2  T00001024,,,3100.0,,,28.34,27.08,W,29.36,29.65,,Mostly Cloudy
KIGQ,12/22/2016 06:35 UTC,30.01,32.0,27.68,86.37,8.05,290.0,,,,,,332.0,,,,10.0,,KIGQ 220635Z AUTO 29007KT 10SM SCT033 00/M02 A3001 RMK AO2  T00001024,,,,,,28.34,27.08,WNW,29.36,29.65,,Partly Cloudy
KIGQ,12/22/2016 06:55 UTC,30.02,32.0,28.04,86.37,9.22,280.0,,,,,,292.0,,,,10.0,,KIGQ 220655Z AUTO 28008KT 10SM SCT029 00/M02 A3002 RMK AO2  T00001022,,,,,,28.34,26.45,W,29.37,29.66,,Partly Cloudy
KIGQ,12/22/2016 07:15 UTC,30.03,32.0,28.04,86.37,10.36,280.0,,,,,,312.0,,,,10.0,,KIGQ 220715Z AUTO 28009KT 10SM SCT031 00/M02 A3003 RMK AO2  T00001022,,,,,,28.34,25.9,W,29.38,29.67,,Partly Cloudy
KIGQ,12/22/2016 07:35 UTC,30.04,32.18,28.58,86.37,6.91,280.0,,,,,,333.0,,,,10.0,,KIGQ 220735Z AUTO 28006KT 10SM BKN033 00/M02 A3004 RMK AO2  T00011019,,,3300.0,,,28.52,,W,29.39,29.67,,Mostly Cloudy
KIGQ,12/22/2016 07:55 UTC,30.06,33.8,29.3,86.48,8.05,270.0,,,,,,334.0,,,,10.0,,KIGQ 220755Z AUTO 27007KT 10SM OVC033 01/M01 A3006 RMK AO2  T00101015,,,3300.0,,,30.14,29.19,W,29.41,29.66,,Overcast
KIGQ,12/22/2016 08:15 UTC,30.08,34.16,30.02,86.48,10.36,280.0,,,,,,354.0,,,,10.0,,KIGQ 220815Z AUTO 28009KT 10SM OVC035 01/M01 A3008 RMK AO2  T00121011,,,3500.0,,,30.5,28.49,W,29.43,29.67,,Overcast
KIGQ,12/22/2016 08:35 UTC,30.09,34.88,30.2,80.49,8.05,290.0,,,,,,374.0,,,,10.0,,KIGQ 220835Z AUTO 29007KT 10SM OVC037 02/M01 A3009 RMK AO2  T00161010,,,3700.0,,,29.41,30.46,WNW,29.44,29.7,,Overcast
KIGQ,12/22/2016 08:55 UTC,30.1,35.24,30.38,80.49,10.36,290.0,,,,,,374.0,,,,10.0,,KIGQ 220855Z AUTO 29009KT 10SM OVC037 02/M01 A3010 RMK AO2  T00181009,,,3700.0,,,29.77,29.78,WNW,29.45,29.7,,Overcast
KIGQ,12/22/2016 09:15 UTC,30.1,35.6,30.74,80.49,8.05,290.0,,,,,,394.0,,,,10.0,,KIGQ 220915Z AUTO 29007KT 10SM OVC039 02/M01 A3010 RMK AO2  T00201007,,,3900.0,,,30.12,31.3,WNW,29.45,29.69,,Overcast
KIGQ,12/22/2016 09:35 UTC,30.11,35.6,30.74,80.49,6.91,290.0,,,,,,374.0,,,,10.0,,KIGQ 220935Z AUTO 29006KT 10SM OVC037 02/M01 A3011 RMK AO2  T00201007,,,3700.0,,,30.12,,WNW,29.46,29.7,,Overcast
KIGQ,12/22/2016 09:55 UTC,30.12,35.6,30.92,80.49,8.05,280.0,,,,,,354.0,,,,10.0,,KIGQ 220955Z AUTO 28007KT 10SM OVC035 02/M01 A3012 RMK AO2  T00201006,,,3500.0,,,30.12,31.3,W,29.47,29.71,,Overcast
KIGQ,12/22/2016 10:15 UTC,30.13,35.6,31.1,86.58,6.91,290.0,,,,,,334.0,,,,10.0,,KIGQ 221015Z AUTO 29006KT 10SM OVC033 02/00 A3013 RMK AO2  T00201005,,,3300.0,,,31.94,,WNW,29.47,29.68,,Overcast
KIGQ,12/22/2016 10:35 UTC,30.13,35.78,31.1,86.58,6.91,280.0,,,,,,314.0,,,,10.0,,KIGQ 221035Z AUTO 28006KT 10SM OVC031 02/00 A3013 RMK AO2  T00211005,,,3100.0,,,32.12,,W,29.47,29.68,,Overcast
KIGQ,12/22/2016 10:55 UTC,30.14,35.78,31.1,86.58,4.61,300.0,,,,,,314.0,,,,10.0,,KIGQ 221055Z AUTO 30004KT 10SM OVC031 02/00 A3014 RMK AO2  T00211005,,,3100.0,,,32.12,,WNW,29.48,29.69,,Overcast
KIGQ,12/22/2016 11:15 UTC,30.15,35.78,31.1,86.58,5.75,300.0,,,,,,314.0,,,,10.0,,KIGQ 221115Z AUTO 30005KT 10SM OVC031 02/00 A3015 RMK AO2  T00211005,,,3100.0,,,32.12,,WNW,29.49,29.7,,Overcast
KIGQ,12/22/2016 11:35 UTC,30.16,36.14,31.1,86.58,5.75,310.0,,,,,,314.0,,,,10.0,,KIGQ 221135Z AUTO 31005KT 10SM OVC031 02/00 A3016 RMK AO2  T00231005,,,3100.0,,,32.47,,NW,29.5,29.7,,Overcast
KIGQ,12/22/2016 11:55 UTC,30.17,36.5,31.1,80.63,8.05,310.0,16.11,,,,,334.0,,,,10.0,,KIGQ 221155Z AUTO 31007G14KT 10SM OVC033 03/00 A3017 RMK AO2  T00251005 10025 21002,36.5,31.64,3300.0,,,31.04,32.36,NW,29.51,29.73,,Overcast
KIGQ,12/22/2016 12:15 UTC,30.19,36.14,31.1,86.58,6.91,310.0,,,,,,334.0,,,,10.0,,KIGQ 221215Z AUTO 31006KT 10SM OVC033 02/00 A3019 RMK AO2  T00231005,,,3300.0,,,32.47,,NW,29.53,29.73,,Overcast
KIGQ,12/22/2016 12:35 UTC,30.2,35.78,30.56,80.49,9.22,310.0,,,,,,333.0,,,,10.0,,KIGQ 221235Z AUTO 31008KT 10SM BKN033 02/M01 A3020 RMK AO2  T00211008,,,3300.0,,,30.29,30.93,NW,29.54,29.78,,Mostly Cloudy
KIGQ,12/22/2016 12:55 UTC,30.21,35.6,30.56,80.49,6.91,320.0,,,,,,314.0,,,,10.0,,KIGQ 221255Z AUTO 32006KT 10SM OVC031 02/M01 A3021 RMK AO2  T00201008,,,3100.0,,,30.12,,NW,29.55,29.79,,Overcast
KIGQ,12/22/2016 13:15 UTC,30.21,34.34,30.02,86.48,6.91,310.0,,,,,,292.0,,,,10.0,,KIGQ 221315Z AUTO 31006KT 10SM SCT029 01/M01 A3021 RMK AO2  T00131011,,,,,,30.67,,NW,29.55,29.79,,Partly Cloudy
KIGQ,12/22/2016 13:35 UTC,30.23,33.98,29.66,86.48,6.91,310.0,,,,,,1.0,,,,10.0,,KIGQ 221335Z AUTO 31006KT 10SM CLR 01/M01 A3023 RMK AO2  T00111013,,,,,,30.32,,NW,29.57,29.82,,Clear
KIGQ,12/22/2016 13:55 UTC,30.24,33.62,29.3,86.48,4.61,300.0,,,,,,1.0,,,,10.0,,KIGQ 221355Z AUTO 30004KT 10SM CLR 01/M01 A3024 RMK AO2  T00091015,,,,,,29.97,,WNW,29.58,29.84,,Clear
KIGQ,12/22/2016 14:15 UTC,30.26,33.8,28.94,80.34,6.91,310.0,,,,,,1.0,,,,10.0,,KIGQ 221415Z AUTO 31006KT 10SM CLR 01/M02 A3026 RMK AO2  T00101017,,,,,,28.31,,NW,29.6,29.88,,Clear
KIGQ,12/22/2016 14:35 UTC,30.26,34.16,28.4,80.34,5.75,320.0,,,,,,1.0,,,,10.0,,KIGQ 221435Z AUTO 32005KT 10SM CLR 01/M02 A3026 RMK AO2  T00121020,,,,,,28.67,,NW,29.6,29.87,,Clear
KIGQ,12/22/2016 14:55 UTC,30.28,35.06,28.4,74.78,8.05,310.0,,,,,,1.0,,,,10.0,,KIGQ 221455Z AUTO 31007KT 10SM CLR 02/M02 A3028 RMK AO2  T00171020,,,,,,27.77,30.67,NW,29.62,29.9,,Clear
KIGQ,12/22/2016 15:15 UTC,30.29,35.6,28.4,74.78,8.05,310.0,,,,,,1.0,,,,10.0,,KIGQ 221515Z AUTO 31007KT 10SM CLR 02/M02 A3029 RMK AO2  T00201020,,,,,,28.29,31.3,NW,29.63,29.9,,Clear
KIGQ,12/22/2016 15:35 UTC,30.3,35.96,29.12,74.78,6.91,290.0,,,,,,1.0,,,,10.0,,KIGQ 221535Z AUTO 29006KT 10SM CLR 02/M02 A3030 RMK AO2  T00221016,,,,,,28.64,,WNW,29.64,29.9,,Clear
KIGQ,12/22/2016 15:55 UTC,30.3,36.5,28.94,69.64,8.05,290.0,,,,,,1.0,,,,10.0,,KIGQ 221555Z AUTO 29007KT 10SM CLR 03/M02 A3030 RMK AO2  T00251017,,,,,,27.41,32.36,WNW,29.64,29.92,,Clear
KIGQ,12/22/2016 16:15 UTC,30.3,36.68,28.4,69.64,9.22,310.0,,,,,,1.0,,,,10.0,,KIGQ 221615Z AUTO 31008KT 10SM CLR 03/M02 A3030 RMK AO2  T00261020,,,,,,27.58,32.0,NW,29.64,29.91,,Clear
KIGQ,12/22/2016 16:35 UTC,30.31,36.86,28.58,69.64,10.36,310.0,,,,,,1.0,,,,10.0,,KIGQ 221635Z AUTO 31009KT 10SM CLR 03/M02 A3031 RMK AO2  T00271019,,,,,,27.75,31.72,NW,29.65,29.92,,Clear
KIGQ,12/22/2016 16:55 UTC,30.31,37.04,28.4,69.64,5.75,300.0,,,,,,1.0,,,,10.0,,KIGQ 221655Z AUTO 30005KT 10SM CLR 03/M02 A3031 RMK AO2  T00281020,,,,,,27.92,,WNW,29.65,29.92,,Clear
KIGQ,12/22/2016 17:15 UTC,30.3,37.76,28.58,69.64,3.44,310.0,,,,,,1.0,,,,10.0,,KIGQ 221715Z AUTO 31003KT 10SM CLR 03/M02 A3030 RMK AO2  T00321019,,,,,,28.62,,NW,29.64,29.89,,Clear
KIGQ,12/22/2016 17:35 UTC,30.3,38.12,28.94,69.64,9.22,270.0,,,,,,1.0,,,,10.0,,KIGQ 221735Z AUTO 27008KT 10SM CLR 03/M02 A3030 RMK AO2  T00341017,,,,,,28.96,33.71,W,29.64,29.89,,Clear
KIGQ,12/22/2016 17:55 UTC,30.3,38.3,28.58,64.9,10.36,270.0,,,,,,1.0,,,,10.0,,KIGQ 221755Z AUTO 27009KT 10SM CLR 04/M02 A3030 RMK AO2 T00351019  10036 20006,38.48,33.08,,,,27.4,33.44,W,29.64,29.91,,Clear
KIGQ,12/22/2016 18:15 UTC,30.29,38.66,28.4,64.9,9.22,280.0,,,,,,1.0,,,,10.0,,KIGQ 221815Z AUTO 28008KT 10SM CLR 04/M02 A3029 RMK AO2  T00371020,,,,,,27.74,34.35,W,29.63,29.89,,Clear
KIGQ,12/22/2016 18:35 UTC,30.31,39.02,28.94,64.9,9.22,280.0,,,,,,1.0,,,,10.0,,KIGQ 221835Z AUTO 28008KT 10SM CLR 04/M02 A3031 RMK AO2  T00391017,,,,,,28.08,34.78,W,29.65,29.9,,Clear
KIGQ,12/22/2016 18:55 UTC,30.31,38.48,28.94,64.9,9.22,260.0,,,,,,1.0,,,,10.0,,KIGQ 221855Z AUTO 26008KT 10SM CLR 04/M02 A3031 RMK AO2  T00361017,,,,,,27.57,34.14,W,29.65,29.91,,Clear
KIGQ,12/22/2016 19:15 UTC,30.31,37.94,29.12,69.64,11.5,230.0,,,,,,1.0,,,,10.0,,KIGQ 221915Z AUTO 23010KT 10SM CLR 03/M02 A3031 RMK AO2  T00331016,,,,,,28.79,32.57,SW,29.65,29.9,,Clear
KIGQ,12/22/2016 19:35 UTC,30.31,37.76,28.94,69.64,11.5,250.0,,,,,,1.0,,,,10.0,,KIGQ 221935Z AUTO 25010KT 10SM CLR 03/M02 A3031 RMK AO2  T00321017,,,,,,28.62,32.35,WSW,29.65,29.9,,Clear
KIGQ,12/22/2016 19:55 UTC,30.32,37.58,28.22,69.64,10.36,270.0,,,,,,1.0,,,,10.0,,KIGQ 221955Z AUTO 27009KT 10SM CLR 03/M02 A3032 RMK AO2  T00311021,,,,,,28.44,32.58,W,29.66,29.92,,Clear
KIGQ,12/22/2016 20:15 UTC,30.32,37.58,28.04,69.64,10.36,250.0,,,,,,1.0,,,,10.0,,KIGQ 222015Z AUTO 25009KT 10SM CLR 03/M02 A3032 RMK AO2  T00311022,,,,,,28.44,32.58,WSW,29.66,29.92,,Clear
KIGQ,12/22/2016 20:35 UTC,30.32,37.22,28.04,69.64,9.22,260.0,,,,,,1.0,,,,10.0,,KIGQ 222035Z AUTO 26008KT 10SM CLR 03/M02 A3032 RMK AO2  T00291022,,,,,,28.1,32.64,W,29.66,29.92,,Clear
KIGQ,12/22/2016 20:55 UTC,30.32,36.86,27.68,69.64,10.36,270.0,,,,,,1.0,,,,10.0,,KIGQ 222055Z AUTO 27009KT 10SM CLR 03/M02 A3032 RMK AO2  T00271024,,,,,,27.75,31.72,W,29.66,29.93,,Clear
KIGQ,12/22/2016 21:15 UTC,30.32,35.96,29.3,80.49,6.91,240.0,,,,,,1.0,,,,10.0,,KIGQ 222115Z AUTO 24006KT 10SM CLR 02/M01 A3032 RMK AO2  T00221015,,,,,,30.47,,WSW,29.66,29.9,,Clear
KIGQ,12/22/2016 21:35 UTC,30.33,35.06,29.12,74.78,9.22,230.0,,,,,,1.0,,,,10.0,,KIGQ 222135Z AUTO 23008KT 10SM CLR 02/M02 A3033 RMK AO2  T00171016,,,,,,27.77,30.08,SW,29.67,29.95,,Clear
KIGQ,12/22/2016 21:55 UTC,30.34,33.98,28.94,80.34,9.22,240.0,,,,,,1.0,,,,10.0,,KIGQ 222155Z AUTO 24008KT 10SM CLR 01/M02 A3034 RMK AO2  T00111017,,,,,,28.49,28.8,WSW,29.68,29.96,,Clear
KIGQ,12/22/2016 22:15 UTC,30.34,32.9,28.4,80.34,6.91,230.0,,,,,,1.0,,,,10.0,,KIGQ 222215Z AUTO 23006KT 10SM CLR 01/M02 A3034 RMK AO2  T00051020,,,,,,27.44,,SW,29.68,29.98,,Clear
KIGQ,12/22/2016 22:35 UTC,30.34,32.0,27.5,86.37,6.91,230.0,,,,,,1.0,,,,10.0,,KIGQ 222235Z AUTO 23006KT 10SM CLR 00/M02 A3034 RMK AO2  T00001025,,,,,,28.34,,SW,29.68,29.97,,Clear
KIGQ,12/22/2016 22:55 UTC,30.36,31.28,27.32,80.19,5.75,230.0,,,,,,1.0,,,,10.0,,KIGQ 222255Z AUTO 23005KT 10SM CLR 00/M03 A3036 RMK AO2  T10041026,,,,,,25.81,,SW,29.7,30.03,,Clear
KIGQ,12/22/2016 23:15 UTC,30.36,31.1,27.14,80.19,6.91,240.0,,,,,,1.0,,,,10.0,,KIGQ 222315Z AUTO 24006KT 10SM CLR 00/M03 A3036 RMK AO2  T10051027,,,,,,25.63,,WSW,29.7,30.03,,Clear
KIGQ,12/22/2016 23:35 UTC,30.36,30.56,26.6,86.26,5.75,240.0,,,,,,1.0,,,,10.0,,KIGQ 222335Z AUTO 24005KT 10SM CLR M01/M03 A3036 RMK AO2  T10081030,,,,,,26.89,,WSW,29.7,30.02,,Clear
KIGQ,12/22/2016 23:55 UTC,30.36,29.12,25.52,86.15,4.61,240.0,,,,,,1.0,,,,10.0,,KIGQ 222355Z AUTO 24004KT 10SM CLR M02/M04 A3036 RMK AO2 T10161036  10039 21016,39.02,29.12,,,,25.45,,WSW,29.7,30.05,,Clear
KIGQ,12/23/2016 00:15 UTC,30.37,26.24,22.82,86.04,0.0,0.0,,,,,,1.0,,,,10.0,,KIGQ 230015Z AUTO 00000KT 10SM CLR M03/M05 A3037 RMK AO2  T10321051,,,,,,22.58,,N,29.71,30.11,,Clear
KIGQ,12/23/2016 00:35 UTC,30.37,23.72,22.82,100.0,0.0,0.0,,,,,,1.0,,,,10.0,,KIGQ 230035Z AUTO 00000KT 10SM CLR M05/M05 A3037 RMK AO2  T10461051,,,,,,23.72,,N,29.71,30.11,,Clear
KIGQ,12/23/2016 00:55 UTC,30.38,23.54,23.0,100.0,3.44,210.0,,,,,,1.0,,,,7.0,,KIGQ 230055Z AUTO 21003KT 7SM CLR M05/M05 A3038 RMK AO2  T10471050,,,,,,23.54,,SSW,29.72,30.12,,Clear
KIGQ,12/23/2016 01:15 UTC,30.38,20.84,20.48,100.0,4.61,200.0,,31.0,,,,1.0,,,,5.0,,KIGQ 230115Z AUTO 20004KT 5SM BR CLR M06/M06 A3038 RMK AO2  T10621064,,,,,,20.84,,SSW,29.72,30.16,,Mist
KIGQ,12/23/2016 01:35 UTC,30.38,20.3,20.3,100.0,0.0,0.0,,31.0,,,,1.0,,,,5.0,,KIGQ 230135Z AUTO 00000KT 5SM BR CLR M06/M06 A3038 RMK AO2  T10651065,,,,,,20.3,,N,29.72,30.17,,Mist
KIGQ,12/23/2016 01:55 UTC,30.37,21.56,21.56,100.0,5.75,200.0,,31.0,,,,1.0,,,,4.0,,KIGQ 230155Z AUTO 20005KT 4SM BR CLR M06/M06 A3037 RMK AO2  T10581058,,,,,,21.56,,SSW,29.71,30.14,,Mist
KIGQ,12/23/2016 02:15 UTC,30.37,19.04,18.86,100.0,5.75,190.0,,31.0,,,,1.0,,,,2.0,,KIGQ 230215Z AUTO 19005KT 2SM BR CLR M07/M07 A3037 RMK AO2  T10721073,,,,,,19.04,,S,29.71,30.18,,Mist
KIGQ,12/23/2016 02:35 UTC,30.37,20.48,20.48,100.0,4.61,200.0,,31.0,,,,1.0,,,,2.0,,KIGQ 230235Z AUTO 20004KT 2SM BR CLR M06/M06 A3037 RMK AO2  T10641064,,,,,,20.48,,SSW,29.71,30.16,,Mist
KIGQ,12/23/2016 02:55 UTC,30.37,21.56,21.56,100.0,4.61,200.0,,30.0,,,,44.0,,,,0.25,,KIGQ 230255Z AUTO 20004KT 1/4SM FZFG OVC004 M06/M06 A3037 RMK AO2  T10581058,,,400.0,,,21.56,,SSW,29.71,30.14,,Ice Fog
KIGQ,12/23/2016 03:15 UTC,30.36,22.1,22.1,100.0,4.61,210.0,,30.0,,,,43.0,,,,0.5,,KIGQ 230315Z AUTO 21004KT 1/2SM FZFG BKN004 M05/M05 A3036 RMK AO2  T10551055,,,400.0,,,22.1,,SSW,29.7,30.12,,Ice Fog
KIGQ,12/23/2016 03:35 UTC,30.37,20.3,20.3,100.0,3.44,200.0,,30.0,,,,43.0,,,,0.5,,KIGQ 230335Z AUTO 20003KT 1/2SM FZFG BKN004 M06/M06 A3037 RMK AO2  T10651065,,,400.0,,,20.3,,SSW,29.71,30.16,,Ice Fog
KIGQ,12/23/2016 03:55 UTC,30.37,21.2,21.2,100.0,5.75,190.0,,31.0,,,,1.0,,,,2.5,,KIGQ 230355Z AUTO 19005KT 2 1/2SM BR CLR M06/M06 A3037 RMK AO2  T10601060,,,,,,21.2,,S,29.71,30.15,,Mist
KIGQ,12/23/2016 04:15 UTC,30.37,21.92,21.92,100.0,4.61,210.0,,31.0,,,,1.0,,,,4.0,,KIGQ 230415Z AUTO 21004KT 4SM BR CLR M06/M06 A3037 RMK AO2  T10561056,,,,,,21.92,,SSW,29.71,30.14,,Mist
KIGQ,12/23/2016 04:35 UTC,30.37,22.28,22.28,100.0,3.44,210.0,,31.0,,,,1.0,,,,5.0,,KIGQ 230435Z AUTO 21003KT 5SM BR CLR M05/M05 A3037 RMK AO2  T10541054,,,,,,22.28,,SSW,29.71,30.13,,Mist
KIGQ,12/23/2016 04:55 UTC,30.37,22.82,22.82,100.0,6.91,190.0,,31.0,,,,1.0,,,,4.0,,KIGQ 230455Z AUTO 19006KT 4SM BR CLR M05/M05 A3037 RMK AO2  T10511051,,,,,,22.82,,S,29.71,30.12,,Mist
KIGQ,12/23/2016 05:15 UTC,30.36,22.82,22.82,100.0,3.44,190.0,,31.0,,,,1.0,,,,5.0,,KIGQ 230515Z AUTO 19003KT 5SM BR CLR M05/M05 A3036 RMK AO2  T10511051,,,,,,22.82,,S,29.7,30.11,,Mist
KIGQ,12/23/2016 05:35 UTC,30.36,22.64,22.64,100.0,4.61,200.0,,31.0,,,,1.0,,,,5.0,,KIGQ 230535Z AUTO 20004KT 5SM BR CLR M05/M05 A3036 RMK AO2  T10521052,,,,,,22.64,,SSW,29.7,30.11,,Mist
KIGQ,12/23/2016 05:55 UTC,30.36,22.1,22.1,100.0,3.44,190.0,,,,,,1.0,,,,7.0,,KIGQ 230555Z AUTO 19003KT 7SM CLR M05/M05 A3036 RMK AO2 T10551055  11017 21072 400391072,28.94,19.04,,39.02,19.04,22.1,,S,29.7,30.12,,Clear
KIGQ,12/23/2016 06:15 UTC,30.35,22.82,22.82,100.0,5.75,200.0,,,,,,1.0,,,,7.0,,KIGQ 230615Z AUTO 20005KT 7SM CLR M05/M05 A3035 RMK AO2  T10511051,,,,,,22.82,,SSW,29.69,30.1,,Clear
KIGQ,12/23/2016 06:35 UTC,30.35,22.82,22.82,100.0,3.44,190.0,,,,,,1.0,,,,7.0,,KIGQ 230635Z AUTO 19003KT 7SM CLR M05/M05 A3035 RMK AO2  T10511051,,,,,,22.82,,S,29.69,30.1,,Clear
KIGQ,12/23/2016 06:55 UTC,30.35,23.9,23.9,100.0,3.44,190.0,,,,,,1.0,,,,7.0,,KIGQ 230655Z AUTO 19003KT 7SM CLR M04/M04 A3035 RMK AO2  T10451045,,,,,,23.9,,S,29.69,30.09,,Clear
KIGQ,12/23/2016 07:15 UTC,30.35,23.36,23.36,100.0,4.61,190.0,,,,,,1.0,,,,7.0,,KIGQ 230715Z AUTO 19004KT 7SM CLR M05/M05 A3035 RMK AO2  T10481048,,,,,,23.36,,S,29.69,30.09,,Clear
KIGQ,12/23/2016 07:35 UTC,30.34,23.36,23.36,100.0,4.61,190.0,,,,,,1.0,,,,7.0,,KIGQ 230735Z AUTO 19004KT 7SM CLR M05/M05 A3034 RMK AO2  T10481048,,,,,,23.36,,S,29.68,30.08,,Clear
KIGQ,12/23/2016 07:55 UTC,30.34,23.0,23.0,100.0,4.61,190.0,,,,,,1.0,,,,7.0,,KIGQ 230755Z AUTO 19004KT 7SM CLR M05/M05 A3034 RMK AO2  T10501050,,,,,,23.0,,S,29.68,30.09,,Clear
KIGQ,12/23/2016 08:15 UTC,30.34,22.82,22.82,100.0,4.61,200.0,,,,,,1.0,,,,7.0,,KIGQ 230815Z AUTO 20004KT 7SM CLR M05/M05 A3034 RMK AO2  T10511051,,,,,,22.82,,SSW,29.68,30.09,,Clear
KIGQ,12/23/2016 08:35 UTC,30.34,23.36,23.36,100.0,6.91,190.0,,,,,,1.0,,,,7.0,,KIGQ 230835Z AUTO 19006KT 7SM CLR M05/M05 A3034 RMK AO2  T10481048,,,,,,23.36,,S,29.68,30.08,,Clear
KIGQ,12/23/2016 08:55 UTC,30.34,23.72,23.72,100.0,4.61,180.0,,,,,,1.0,,,,10.0,,KIGQ 230855Z AUTO 18004KT 10SM CLR M05/M05 A3034 RMK AO2  T10461046,,,,,,23.72,,S,29.68,30.08,,Clear
KIGQ,12/23/2016 09:15 UTC,30.34,24.62,24.62,100.0,5.75,180.0,,,,,,1.0,,,,10.0,,KIGQ 230915Z AUTO 18005KT 10SM CLR M04/M04 A3034 RMK AO2  T10411041,,,,,,24.62,,S,29.68,30.06,,Clear
KIGQ,12/23/2016 09:35 UTC,30.33,25.52,24.8,100.0,0.0,0.0,,,,,,1.0,,,,10.0,,KIGQ 230935Z AUTO 00000KT 10SM CLR M04/M04 A3033 RMK AO2  T10361040,,,,,,25.52,,N,29.67,30.04,,Clear
KIGQ,12/23/2016 09:55 UTC,30.33,25.34,24.8,100.0,4.61,190.0,,,,,,1.0,,,,10.0,,KIGQ 230955Z AUTO 19004KT 10SM CLR M04/M04 A3033 RMK AO2  T10371040,,,,,,25.34,,S,29.67,30.04,,Clear
KIGQ,12/23/2016 10:15 UTC,30.33,25.7,25.16,92.79,4.61,200.0,,,,,,1.0,,,,10.0,,KIGQ 231015Z AUTO 20004KT 10SM CLR M03/M04 A3033 RMK AO2  T10351038,,,,,,23.88,,SSW,29.67,30.05,,Clear
KIGQ,12/23/2016 10:35 UTC,30.32,26.6,25.88,100.0,4.61,190.0,,,,,,1.0,,,,10.0,,KIGQ 231035Z AUTO 19004KT 10SM CLR M03/M03 A3032 RMK AO2  T10301034,,,,,,26.6,,S,29.66,30.01,,Clear
KIGQ,12/23/2016 10:55 UTC,30.33,27.5,26.6,92.85,3.44,200.0,,,,,,1.0,,,,10.0,,KIGQ 231055Z AUTO 20003KT 10SM CLR M02/M03 A3033 RMK AO2  T10251030,,,,,,25.68,,SSW,29.67,30.02,,Clear
KIGQ,12/23/2016 11:15 UTC,30.33,26.96,26.06,100.0,4.61,190.0,,,,,,1.0,,,,10.0,,KIGQ 231115Z AUTO 19004KT 10SM CLR M03/M03 A3033 RMK AO2  T10281033,,,,,,26.96,,S,29.67,30.01,,Clear
KIGQ,12/23/2016 11:35 UTC,30.34,27.14,26.42,100.0,4.61,210.0,,,,,,1.0,,,,10.0,,KIGQ 231135Z AUTO 21004KT 10SM CLR M03/M03 A3034 RMK AO2  T10271031,,,,,,27.14,,SSW,29.68,30.02,,Clear
KIGQ,12/23/2016 11:55 UTC,30.34,28.04,26.96,92.85,5.75,190.0,,,,,,1.0,,,,10.0,,KIGQ 231155Z AUTO 19005KT 10SM CLR M02/M03 A3034 RMK AO2 T10221028  11020 21056,28.4,21.92,,,,26.21,,S,29.68,30.03,,Clear
KIGQ,12/23/2016 12:15 UTC,30.34,27.86,26.78,92.85,5.75,180.0,,,,,,1.0,,,,10.0,,KIGQ 231215Z AUTO 18005KT 10SM CLR M02/M03 A3034 RMK AO2  T10231029,,,,,,26.03,,S,29.68,30.03,,Clear
KIGQ,12/23/2016 12:35 UTC,30.33,28.22,27.32,92.85,6.91,190.0,,,,,,1.0,,,,10.0,,KIGQ 231235Z AUTO 19006KT 10SM CLR M02/M03 A3033 RMK AO2  T10211026,,,,,,26.39,,S,29.67,30.01,,Clear
KIGQ,12/23/2016 12:55 UTC,30.33,29.12,28.04,100.0,5.75,190.0,,,,,,1.0,,,,10.0,,KIGQ 231255Z AUTO 19005KT 10SM CLR M02/M02 A3033 RMK AO2  T10161022,,,,,,29.12,,S,29.67,29.97,,Clear
KIGQ,12/23/2016 13:15 UTC,30.32,29.12,27.86,100.0,5.75,180.0,,,,,,1202.0,,,,10.0,,KIGQ 231315Z AUTO 18005KT 10SM SCT120 M02/M02 A3032 RMK AO2  T10161023,,,,,,29.12,,S,29.66,29.96,,Partly Cloudy
KIGQ,12/23/2016 13:35 UTC,30.31,30.2,28.94,92.91,5.75,170.0,,,,,,1202.0,,,,10.0,,KIGQ 231335Z AUTO 17005KT 10SM SCT120 M01/M02 A3031 RMK AO2  T10101017,,,,,,28.37,,S,29.65,29.95,,Partly Cloudy
KIGQ,12/23/2016 13:55 UTC,30.29,30.56,29.12,92.91,8.05,130.0,,,,,,1203.0,,,,10.0,,KIGQ 231355Z AUTO 13007KT 110V170 10SM BKN120 M01/M02 A3029 RMK AO2 T10081016,,,12000.0,,,28.73,25.38,SE,29.63,29.93,,Mostly Cloudy
KIGQ,12/23/2016 14:15 UTC,30.29,30.74,29.12,92.91,8.05,170.0,,,,,,1203.0,,,,10.0,,KIGQ 231415Z AUTO 17007KT 10SM BKN120 M01/M02 A3029 RMK AO2  T10071016,,,12000.0,,,28.91,25.6,S,29.63,29.92,,Mostly Cloudy
KIGQ,12/23/2016 14:35 UTC,30.3,31.46,29.3,92.96,8.05,190.0,,,,,,1202.0,,,,10.0,,KIGQ 231435Z AUTO 19007KT 10SM SCT120 00/M01 A3030 RMK AO2  T10031015,,,,,,29.63,26.44,S,29.64,29.92,,Partly Cloudy
KIGQ,12/23/2016 14:55 UTC,30.29,32.0,30.02,92.96,5.75,170.0,,,,,,1202.0,,,,10.0,,KIGQ 231455Z AUTO 17005KT 10SM SCT120 00/M01 A3029 RMK AO2  T00001011,,,,,,30.17,,S,29.63,29.9,,Partly Cloudy
KIGQ,12/23/2016 15:15 UTC,30.29,32.0,30.2,92.96,6.91,170.0,,,,,,1202.0,,,,10.0,,KIGQ 231515Z AUTO 17006KT 10SM SCT120 00/M01 A3029 RMK AO2  T00001010,,,,,,30.17,,S,29.63,29.9,,Partly Cloudy
KIGQ,12/23/2016 15:35 UTC,30.28,32.9,31.1,93.02,9.22,170.0,,,,,,1.0,,,,10.0,,KIGQ 231535Z AUTO 17008KT 10SM CLR 01/00 A3028 RMK AO2  T00051005,,,,,,31.08,27.52,S,29.62,29.87,,Clear
KIGQ,12/23/2016 15:55 UTC,30.29,33.08,31.28,93.02,8.05,180.0,,,,,,1.0,,,,10.0,,KIGQ 231555Z AUTO 18007KT 10SM CLR 01/00 A3029 RMK AO2  T00061004,,,,,,31.26,28.34,S,29.63,29.88,,Clear
KIGQ,12/23/2016 16:15 UTC,30.28,34.34,31.82,93.02,8.05,200.0,,,,,,1102.0,,,,10.0,,KIGQ 231615Z AUTO 20007KT 10SM SCT110 01/00 A3028 RMK AO2  T00131001,,,,,,32.51,29.82,SSW,29.62,29.84,,Partly Cloudy
KIGQ,12/23/2016 16:35 UTC,30.26,34.7,32.0,86.58,9.22,180.0,,,,,,903.0,,,,10.0,,KIGQ 231635Z AUTO 18008KT 10SM BKN090 02/00 A3026 RMK AO2  T00150000,,,9000.0,,,31.06,29.65,S,29.6,29.84,,Mostly Cloudy
KIGQ,12/23/2016 16:55 UTC,30.26,34.88,32.0,86.58,9.22,200.0,,,,,,904.0,,,,10.0,,KIGQ 231655Z AUTO 20008KT 10SM OVC090 02/00 A3026 RMK AO2  T00160000,,,9000.0,,,31.23,29.87,SSW,29.6,29.83,,Overcast
KIGQ,12/23/2016 17:15 UTC,30.25,34.88,31.82,86.58,9.22,180.0,16.11,,,,,904.0,,,,10.0,,KIGQ 231715Z AUTO 18008G14KT 10SM OVC090 02/00 A3025 RMK AO2  T00161001,,,9000.0,,,31.23,29.87,S,29.59,29.82,,Overcast
KIGQ,12/23/2016 17:35 UTC,30.23,34.88,32.0,86.58,11.5,190.0,,,,,,1004.0,,,,10.0,,KIGQ 231735Z AUTO 19010KT 10SM OVC100 02/00 A3023 RMK AO2  T00160000,,,10000.0,,,31.23,28.88,S,29.57,29.8,,Overcast
KIGQ,12/23/2016 17:55 UTC,30.21,35.06,32.0,86.58,10.36,180.0,,,,,,1004.0,,,,10.0,,KIGQ 231755Z AUTO 18009KT 10SM OVC100 02/00 A3021 RMK AO2  T00170000 10017 21025,35.06,27.5,10000.0,,,31.41,29.56,S,29.55,29.78,,Overcast
KIGQ,12/23/2016 18:15 UTC,30.19,35.24,32.0,86.58,10.36,180.0,,,,,,1004.0,,,,10.0,,KIGQ 231815Z AUTO 18009KT 10SM OVC100 02/00 A3019 RMK AO2  T00180000,,,10000.0,,,31.59,29.78,S,29.53,29.75,,Overcast
KIGQ,12/23/2016 18:35 UTC,30.17,35.06,32.0,86.58,10.36,170.0,,,,,,904.0,,,,10.0,,KIGQ 231835Z AUTO 17009KT 10SM OVC090 02/00 A3017 RMK AO2  T00170000,,,9000.0,,,31.41,29.56,S,29.51,29.74,,Overcast
KIGQ,12/23/2016 18:55 UTC,30.15,35.24,31.82,86.58,6.91,170.0,,,,,,804.0,,,,10.0,,KIGQ 231855Z AUTO 17006KT 10SM OVC080 02/00 A3015 RMK AO2  T00181001,,,8000.0,,,31.59,,S,29.49,29.71,,Overcast
KIGQ,12/23/2016 19:15 UTC,30.14,35.6,31.82,86.58,8.05,170.0,,,,,,804.0,,,,10.0,,KIGQ 231915Z AUTO 17007KT 10SM OVC080 02/00 A3014 RMK AO2  T00201001,,,8000.0,,,31.94,31.3,S,29.48,29.69,,Overcast
KIGQ,12/23/2016 19:35 UTC,30.13,35.24,32.0,86.58,8.05,170.0,,,854.0,,,552.0,803.0,,,10.0,,KIGQ 231935Z AUTO 17007KT 10SM SCT055 BKN080 OVC085 02/00  A3013 RMK AO2 T00180000,,,8000.0,,,31.59,30.88,S,29.47,29.69,,Overcast
KIGQ,12/23/2016 19:55 UTC,30.11,35.24,31.82,86.58,8.05,150.0,,13.0,654.0,,,432.0,503.0,,,10.0,,KIGQ 231955Z AUTO 15007KT 10SM -RA SCT043 BKN050 OVC065 02/00  A3011 RMK AO2 T00181001,,,5000.0,,,31.59,30.88,SSE,29.46,29.68,,Light Rain
KIGQ,12/23/2016 20:15 UTC,30.09,35.06,32.0,86.58,6.91,160.0,,13.0,,,,452.0,604.0,,,7.0,,KIGQ 232015Z AUTO 16006KT 7SM -RA SCT045 OVC060 02/00 A3009 RMK AO2 T00170000,,,6000.0,,,31.41,,SSE,29.44,29.67,,Light Rain
KIGQ,12/23/2016 20:35 UTC,30.09,35.06,32.0,86.58,6.91,170.0,,,654.0,,,493.0,553.0,,,10.0,,KIGQ 232035Z AUTO 17006KT 10SM BKN049 BKN055 OVC065 02/00  A3009 RMK AO2 T00170000,,,4900.0,,,31.41,,S,29.44,29.67,,Overcast
KIGQ,12/23/2016 20:55 UTC,30.07,34.88,32.0,86.58,8.05,140.0,,,654.0,,,493.0,553.0,,,10.0,,KIGQ 232055Z AUTO 14007KT 10SM BKN049 BKN055 OVC065 02/00  A3007 RMK AO2 T00160000,,,4900.0,,,31.23,30.46,SE,29.42,29.65,,Overcast
KIGQ,12/23/2016 21:15 UTC,30.07,34.88,32.0,86.58,6.91,150.0,,17.0,804.0,,,472.0,603.0,,,10.0,,KIGQ 232115Z AUTO 15006KT 10SM -DZ SCT047 BKN060 OVC080 02/00  A3007 RMK AO2 T00160000,,,6000.0,,,31.23,,SSE,29.42,29.65,,Light Drizzle
KIGQ,12/23/2016 21:35 UTC,30.06,35.24,31.82,86.58,8.05,160.0,,13.0,554.0,,,392.0,453.0,,,10.0,,KIGQ 232135Z AUTO 16007KT 10SM -RA SCT039 BKN045 OVC055 02/00  A3006 RMK AO2 T00181001,,,4500.0,,,31.59,30.88,SSE,29.41,29.63,,Light Rain
KIGQ,12/23/2016 21:55 UTC,30.07,34.88,32.0,86.58,9.22,170.0,,13.0,504.0,,,373.0,453.0,,,7.0,,KIGQ 232155Z AUTO 17008KT 7SM -RA BKN037 BKN045 OVC050 02/00  A3007 RMK AO2 T00160000,,,3700.0,,,31.23,29.87,S,29.42,29.65,,Light Rain
KIGQ,12/23/2016 22:15 UTC,30.05,34.7,32.0,86.58,8.05,150.0,,13.0,,,,374.0,,,,5.0,,KIGQ 232215Z AUTO 15007KT 5SM -RA OVC037 02/00 A3005 RMK AO2  T00150000,,,3700.0,,,31.06,30.25,SSE,29.4,29.63,,Light Rain
KIGQ,12/23/2016 22:35 UTC,30.04,34.34,32.0,93.02,6.91,160.0,,13.0,,,,373.0,464.0,,,7.0,,KIGQ 232235Z AUTO 16006KT 7SM -RA BKN037 OVC046 01/00 A3004 RMK AO2 T00130000,,,3700.0,,,32.51,,SSE,29.39,29.6,,Light Rain
KIGQ,12/23/2016 22:55 UTC,30.03,34.16,32.0,93.02,8.05,150.0,,13.0,604.0,,,393.0,483.0,,,7.0,,KIGQ 232255Z AUTO 15007KT 7SM -RA BKN039 BKN048 OVC060 01/00  A3003 RMK AO2 T00120000,,,3900.0,,,32.33,29.61,SSE,29.38,29.6,,Light Rain
KIGQ,12/23/2016 23:15 UTC,30.01,33.98,32.18,93.02,6.91,140.0,,13.0,,,,483.0,604.0,,,7.0,,KIGQ 232315Z AUTO 14006KT 7SM -RA BKN048 OVC060 01/00 A3001 RMK AO2 T00110001,,,4800.0,,,32.15,,SE,29.36,29.58,,Light Rain
KIGQ,12/23/2016 23:35 UTC,30.0,33.8,32.18,93.02,8.05,170.0,,,,,,482.0,704.0,,,10.0,,KIGQ 232335Z AUTO 17007KT 10SM SCT048 OVC070 01/00 A3000 RMK AO2  T00100001,,,7000.0,,,31.97,29.19,S,29.35,29.57,,Overcast
KIGQ,12/23/2016 23:55 UTC,29.97,34.16,32.0,93.02,6.91,130.0,,,,,,603.0,704.0,,,10.0,,KIGQ 232355Z AUTO 13006KT 10SM BKN060 OVC070 01/00 A2997 RMK AO2  T00120000 10020 20010,35.6,33.8,6000.0,,,32.33,,SE,29.32,29.53,,Overcast
KIGQ,12/24/2016 00:15 UTC,29.98,34.34,32.18,93.02,8.05,160.0,,,,,,604.0,,,,10.0,,KIGQ 240015Z AUTO 16007KT 10SM OVC060 01/00 A2998 RMK AO2  T00130001,,,6000.0,,,32.51,29.82,SSE,29.33,29.54,,Overcast
KIGQ,12/24/2016 00:35 UTC,29.98,34.52,32.18,93.02,8.05,180.0,,,,,,604.0,,,,10.0,,KIGQ 240035Z AUTO 18007KT 10SM OVC060 01/00 A2998 RMK AO2  T00140001,,,6000.0,,,32.68,30.04,S,29.33,29.54,,Overcast
KIGQ,12/24/2016 00:55 UTC,29.98,34.34,32.0,93.02,9.22,190.0,,,,,,504.0,,,,10.0,,KIGQ 240055Z AUTO 19008KT 10SM OVC050 01/00 A2998 RMK AO2  T00130000,,,5000.0,,,32.51,29.23,S,29.33,29.54,,Overcast
KIGQ,12/24/2016 01:15 UTC,29.97,34.34,32.0,93.02,10.36,180.0,,,,,,504.0,,,,10.0,,KIGQ 240115Z AUTO 18009KT 10SM OVC050 01/00 A2997 RMK AO2  T00130000,,,5000.0,,,32.51,28.7,S,29.32,29.53,,Overcast
KIGQ,12/24/2016 01:35 UTC,29.97,34.7,32.0,86.58,8.05,200.0,,,,,,423.0,494.0,,,10.0,,KIGQ 240135Z AUTO 20007KT 10SM BKN042 OVC049 02/00 A2997 RMK AO2  T00150000,,,4200.0,,,31.06,30.25,SSW,29.32,29.55,,Overcast
KIGQ,12/24/2016 01:55 UTC,29.97,34.7,32.0,86.58,12.66,190.0,,,,,,404.0,,,,10.0,,KIGQ 240155Z AUTO 19011KT 10SM OVC040 02/00 A2997 RMK AO2  T00150000,,,4000.0,,,31.06,28.21,S,29.32,29.55,,Overcast
KIGQ,12/24/2016 02:15 UTC,29.96,34.7,32.54,86.58,12.66,200.0,16.11,1.0,384.0,,,163.0,233.0,,,5.0,,KIGQ 240215Z AUTO 20011G14KT 5SM RA BKN016 BKN023 OVC038 02/00  A2996 RMK AO2 T00150003,,,1600.0,,,31.06,28.21,SSW,29.31,29.54,,Rain
KIGQ,12/24/2016 02:35 UTC,29.96,34.16,33.08,100.0,14.97,190.0,18.41,1.0,,,,124.0,,,,5.0,,KIGQ 240235Z AUTO 19013G16KT 5SM RA OVC012 01/01 A2996 RMK AO2  T00120006,,,1200.0,,,34.16,26.76,S,29.31,29.5,,Rain
KIGQ,12/24/2016 02:55 UTC,29.95,33.8,33.26,100.0,9.22,200.0,,13.0,,,,84.0,,,,4.0,,KIGQ 240255Z AUTO 20008KT 4SM -RA OVC008 01/01 A2995 RMK AO2  T00100007,,,800.0,,,33.8,28.59,SSW,29.3,29.49,,Light Rain
KIGQ,12/24/2016 03:15 UTC,29.95,33.8,33.44,100.0,10.36,190.0,,17.0,,,,84.0,,,,5.0,,KIGQ 240315Z AUTO 19009KT 5SM -DZ OVC008 01/01 A2995 RMK AO2  T00100008,,,800.0,,,33.8,28.06,S,29.3,29.49,,Light Drizzle
KIGQ,12/24/2016 03:35 UTC,29.95,33.8,33.62,100.0,9.22,200.0,,1.0,,,,64.0,,,,4.0,,KIGQ 240335Z AUTO 20008KT 4SM RA OVC006 01/01 A2995 RMK AO2  T00100009,,,600.0,,,33.8,28.59,SSW,29.3,29.49,,Rain
KIGQ,12/24/2016 03:55 UTC,29.95,33.8,33.8,100.0,11.5,200.0,,2.0,,,,64.0,,,,2.5,,KIGQ 240355Z AUTO 20010KT 2 1/2SM DZ OVC006 01/01 A2995 RMK AO2  T00100010,,,600.0,,,33.8,27.57,SSW,29.3,29.49,,Drizzle
KIGQ,12/24/2016 04:15 UTC,29.95,33.8,33.8,100.0,11.5,210.0,,2.0,,,,64.0,,,,2.5,,KIGQ 240415Z AUTO 21010KT 2 1/2SM DZ OVC006 01/01 A2995 RMK AO2  T00100010,,,600.0,,,33.8,27.57,SSW,29.3,29.49,,Drizzle
KIGQ,12/24/2016 04:35 UTC,29.94,33.8,33.8,100.0,11.5,210.0,,2.0,,,,44.0,,,,2.0,,KIGQ 240435Z AUTO 21010KT 2SM DZ OVC004 01/01 A2994 RMK AO2  T00100010,,,400.0,,,33.8,27.57,SSW,29.29,29.48,,Drizzle
KIGQ,12/24/2016 04:55 UTC,29.94,33.8,33.8,100.0,10.36,220.0,,2.0,,,,44.0,,,,2.5,,KIGQ 240455Z AUTO 22009KT 2 1/2SM DZ OVC004 01/01 A2994 RMK AO2  T00100010,,,400.0,,,33.8,28.06,SW,29.29,29.48,,Drizzle
KIGQ,12/24/2016 05:15 UTC,29.95,33.98,33.98,100.0,8.05,230.0,,17.0,,,,44.0,,,,2.5,,KIGQ 240515Z AUTO 23007KT 2 1/2SM -DZ OVC004 01/01 A2995 RMK AO2  T00110011,,,400.0,,,33.98,29.4,SW,29.3,29.49,,Light Drizzle
KIGQ,12/24/2016 05:35 UTC,29.95,33.8,33.8,100.0,8.05,220.0,,1.0,,,,44.0,,,,2.0,,KIGQ 240535Z AUTO 22007KT 2SM RA OVC004 01/01 A2995 RMK AO2  T00100010,,,400.0,,,33.8,29.19,SW,29.3,29.49,,Rain
KIGQ,12/24/2016 05:55 UTC,29.96,33.98,33.98,100.0,9.22,230.0,,17.0,,,,44.0,,,,2.5,,KIGQ 240555Z AUTO 23008KT 2 1/2SM -DZ OVC004 01/01 A2996 RMK AO2  T00110011 10016 20010 400201056,34.88,33.8,400.0,35.6,21.92,33.98,28.8,SW,29.31,29.5,,Light Drizzle
KIGQ,12/24/2016 06:15 UTC,29.96,33.98,33.98,100.0,8.05,230.0,,17.0,,,,44.0,,,,2.5,,KIGQ 240615Z AUTO 23007KT 2 1/2SM -DZ OVC004 01/01 A2996 RMK AO2  T00110011,,,400.0,,,33.98,29.4,SW,29.31,29.5,,Light Drizzle
KIGQ,12/24/2016 06:35 UTC,29.96,34.16,34.16,100.0,8.05,240.0,,17.0,,,,44.0,,,,2.5,,KIGQ 240635Z AUTO 24007KT 2 1/2SM -DZ OVC004 01/01 A2996 RMK AO2  T00120012,,,400.0,,,34.16,29.61,WSW,29.31,29.5,,Light Drizzle
KIGQ,12/24/2016 06:55 UTC,29.96,34.34,34.34,100.0,8.05,250.0,,31.0,,,,44.0,,,,4.0,,KIGQ 240655Z AUTO 25007KT 4SM BR OVC004 01/01 A2996 RMK AO2  T00130013,,,400.0,,,34.34,29.82,WSW,29.31,29.49,,Mist
KIGQ,12/24/2016 07:15 UTC,29.96,34.16,34.16,100.0,6.91,250.0,,31.0,,,,44.0,,,,4.0,,KIGQ 240715Z AUTO 25006KT 4SM BR OVC004 01/01 A2996 RMK AO2  T00120012,,,400.0,,,34.16,,WSW,29.31,29.5,,Mist
KIGQ,12/24/2016 07:35 UTC,29.97,34.16,34.16,100.0,6.91,240.0,,31.0,,,,44.0,,,,3.0,,KIGQ 240735Z AUTO 24006KT 3SM BR OVC004 01/01 A2997 RMK AO2  T00120012,,,400.0,,,34.16,,WSW,29.32,29.51,,Mist
KIGQ,12/24/2016 07:55 UTC,29.98,34.16,34.16,100.0,8.05,250.0,,31.0,,,,44.0,,,,2.5,,KIGQ 240755Z AUTO 25007KT 2 1/2SM BR OVC004 01/01 A2998 RMK AO2  T00120012,,,400.0,,,34.16,29.61,WSW,29.33,29.52,,Mist
KIGQ,12/24/2016 08:15 UTC,29.99,34.16,34.16,100.0,5.75,250.0,,31.0,,,,44.0,,,,2.5,,KIGQ 240815Z AUTO 25005KT 2 1/2SM BR OVC004 01/01 A2999 RMK AO2  T00120012,,,400.0,,,34.16,,WSW,29.34,29.53,,Mist
KIGQ,12/24/2016 08:35 UTC,29.99,34.16,34.16,100.0,6.91,260.0,,31.0,,,,44.0,,,,2.0,,KIGQ 240835Z AUTO 26006KT 2SM BR OVC004 01/01 A2999 RMK AO2  T00120012,,,400.0,,,34.16,,W,29.34,29.53,,Mist
KIGQ,12/24/2016 08:55 UTC,30.0,34.16,34.16,100.0,6.91,270.0,,31.0,,,,44.0,,,,1.75,,KIGQ 240855Z AUTO 27006KT 1 3/4SM BR OVC004 01/01 A3000 RMK AO2  T00120012,,,400.0,,,34.16,,W,29.35,29.54,,Mist
KIGQ,12/24/2016 09:15 UTC,30.01,34.16,34.16,100.0,5.75,270.0,,31.0,,,,44.0,,,,1.75,,KIGQ 240915Z AUTO 27005KT 1 3/4SM BR OVC004 01/01 A3001 RMK AO2  T00120012,,,400.0,,,34.16,,W,29.36,29.55,,Mist
KIGQ,12/24/2016 09:35 UTC,30.01,33.98,33.98,100.0,5.75,260.0,,31.0,,,,44.0,,,,1.75,,KIGQ 240935Z AUTO 26005KT 1 3/4SM BR OVC004 01/01 A3001 RMK AO2  T00110011,,,400.0,,,33.98,,W,29.36,29.55,,Mist
KIGQ,12/24/2016 09:55 UTC,30.02,34.16,34.16,100.0,6.91,260.0,,31.0,,,,44.0,,,,2.0,,KIGQ 240955Z AUTO 26006KT 2SM BR OVC004 01/01 A3002 RMK AO2  T00120012,,,400.0,,,34.16,,W,29.37,29.56,,Mist
KIGQ,12/24/2016 10:15 UTC,30.03,34.34,34.34,100.0,5.75,270.0,,31.0,,,,44.0,,,,2.0,,KIGQ 241015Z AUTO 27005KT 2SM BR OVC004 01/01 A3003 RMK AO2  T00130013,,,400.0,,,34.34,,W,29.38,29.56,,Mist
KIGQ,12/24/2016 10:35 UTC,30.04,34.7,34.7,100.0,5.75,290.0,,31.0,,,,44.0,,,,2.5,,KIGQ 241035Z AUTO 29005KT 2 1/2SM BR OVC004 02/02 A3004 RMK AO2  T00150015,,,400.0,,,34.7,,WNW,29.39,29.56,,Mist
KIGQ,12/24/2016 10:55 UTC,30.06,34.7,34.7,100.0,9.22,300.0,,31.0,,,,44.0,,,,4.0,,KIGQ 241055Z AUTO 30008KT 4SM BR OVC004 02/02 A3006 RMK AO2  T00150015,,,400.0,,,34.7,29.65,WNW,29.41,29.58,,Mist
KIGQ,12/24/2016 11:15 UTC,30.08,34.7,34.7,100.0,5.75,310.0,,31.0,,,,64.0,,,,5.0,,KIGQ 241115Z AUTO 31005KT 5SM BR OVC006 02/02 A3008 RMK AO2  T00150015,,,600.0,,,34.7,,NW,29.43,29.6,,Mist
KIGQ,12/24/2016 11:35 UTC,30.08,34.7,34.34,93.08,5.75,300.0,,31.0,,,,64.0,,,,4.0,,KIGQ 241135Z AUTO 30005KT 4SM BR OVC006 02/01 A3008 RMK AO2  T00150013,,,600.0,,,32.88,,WNW,29.43,29.63,,Mist
KIGQ,12/24/2016 11:55 UTC,30.09,34.7,33.8,93.08,6.91,320.0,,31.0,,,,84.0,,,,5.0,,KIGQ 241155Z AUTO 32006KT 5SM BR OVC008 02/01 A3009 RMK AO2  T00150010 10015 20011,34.7,33.98,800.0,,,32.88,,NW,29.44,29.64,,Mist
KIGQ,12/24/2016 12:15 UTC,30.11,34.7,33.8,93.08,4.61,300.0,,31.0,,,,84.0,,,,5.0,,KIGQ 241215Z AUTO 30004KT 5SM BR OVC008 02/01 A3011 RMK AO2  T00150010,,,800.0,,,32.88,,WNW,29.46,29.67,,Mist
KIGQ,12/24/2016 12:35 UTC,30.12,34.52,33.8,100.0,4.61,320.0,,31.0,,,,84.0,,,,5.0,,KIGQ 241235Z AUTO 32004KT 5SM BR OVC008 01/01 A3012 RMK AO2  T00140010,,,800.0,,,34.52,,NW,29.47,29.65,,Mist
KIGQ,12/24/2016 12:55 UTC,30.13,34.16,33.44,100.0,3.44,270.0,,31.0,,,,102.0,174.0,,,5.0,,KIGQ 241255Z AUTO 27003KT 5SM BR SCT010 OVC017 01/01 A3013 RMK AO2  T00120008,,,1700.0,,,34.16,,W,29.47,29.66,,Mist
KIGQ,12/24/2016 13:15 UTC,30.15,34.16,33.8,100.0,3.44,300.0,,31.0,,,,154.0,,,,5.0,,KIGQ 241315Z AUTO 30003KT 5SM BR OVC015 01/01 A3015 RMK AO2  T00120010,,,1500.0,,,34.16,,WNW,29.49,29.68,,Mist
KIGQ,12/24/2016 13:35 UTC,30.16,34.7,33.26,93.08,6.91,310.0,,,,,,114.0,,,,7.0,,KIGQ 241335Z AUTO 31006KT 7SM OVC011 02/01 A3016 RMK AO2  T00150007,,,1100.0,,,32.88,,NW,29.5,29.71,,Overcast
KIGQ,12/24/2016 13:55 UTC,30.17,34.7,32.9,93.08,6.91,320.0,,,,,,114.0,,,,7.0,,KIGQ 241355Z AUTO 32006KT 7SM OVC011 02/01 A3017 RMK AO2  T00150005,,,1100.0,,,32.88,,NW,29.51,29.72,,Overcast
KIGQ,12/24/2016 14:15 UTC,30.19,34.7,32.9,93.08,6.91,290.0,,,,,,114.0,,,,7.0,,KIGQ 241415Z AUTO 29006KT 7SM OVC011 02/01 A3019 RMK AO2  T00150005,,,1100.0,,,32.88,,WNW,29.53,29.74,,Overcast
KIGQ,12/24/2016 14:35 UTC,30.19,34.7,32.54,86.58,5.75,310.0,,,,,,114.0,,,,10.0,,KIGQ 241435Z AUTO 31005KT 10SM OVC011 02/00 A3019 RMK AO2  T00150003,,,1100.0,,,31.06,,NW,29.53,29.76,,Overcast
KIGQ,12/24/2016 14:55 UTC,30.2,34.7,32.9,93.08,3.44,280.0,,,,,,114.0,,,,7.0,,KIGQ 241455Z AUTO 28003KT 7SM OVC011 02/01 A3020 RMK AO2  T00150005,,,1100.0,,,32.88,,W,29.54,29.75,,Overcast
KIGQ,12/24/2016 15:15 UTC,30.21,34.88,32.9,93.08,3.44,360.0,,,,,,114.0,,,,7.0,,KIGQ 241515Z AUTO 36003KT 7SM OVC011 02/01 A3021 RMK AO2  T00160005,,,1100.0,,,33.06,,N,29.55,29.75,,Overcast
KIGQ,12/24/2016 15:35 UTC,30.22,35.06,33.08,93.08,0.0,0.0,,,,,,114.0,,,,7.0,,KIGQ 241535Z AUTO 00000KT 7SM OVC011 02/01 A3022 RMK AO2  T00170006,,,1100.0,,,33.24,,N,29.56,29.76,,Overcast
KIGQ,12/24/2016 15:55 UTC,30.23,34.88,32.72,86.58,0.0,0.0,,,,,,114.0,,,,7.0,,KIGQ 241555Z AUTO 00000KT 7SM OVC011 02/00 A3023 RMK AO2  T00160004,,,1100.0,,,31.23,,N,29.57,29.8,,Overcast
KIGQ,12/24/2016 16:15 UTC,30.23,35.06,32.9,93.08,4.61,330.0,,,,,,114.0,,,,7.0,,KIGQ 241615Z AUTO 33004KT 7SM OVC011 02/01 A3023 RMK AO2  T00170005,,,1100.0,,,33.24,,NNW,29.57,29.77,,Overcast
KIGQ,12/24/2016 16:35 UTC,30.24,35.06,32.9,93.08,0.0,0.0,,,,,,114.0,,,,7.0,,KIGQ 241635Z AUTO 00000KT 7SM OVC011 02/01 A3024 RMK AO2  T00170005,,,1100.0,,,33.24,,N,29.58,29.78,,Overcast
KIGQ,12/24/2016 16:55 UTC,30.24,35.06,32.9,93.08,0.0,0.0,,,,,,114.0,,,,7.0,,KIGQ 241655Z AUTO 00000KT 7SM OVC011 02/01 A3024 RMK AO2  T00170005,,,1100.0,,,33.24,,N,29.58,29.78,,Overcast
KIGQ,12/24/2016 17:15 UTC,30.25,35.06,32.72,86.58,3.44,360.0,,,,,,114.0,,,,7.0,,KIGQ 241715Z AUTO 36003KT 7SM OVC011 02/00 A3025 RMK AO2  T00170004,,,1100.0,,,31.41,,N,29.59,29.82,,Overcast
KIGQ,12/24/2016 17:35 UTC,30.24,35.06,32.54,86.58,0.0,0.0,,,,,,114.0,,,,7.0,,KIGQ 241735Z AUTO 00000KT 7SM OVC011 02/00 A3024 RMK AO2  T00170003,,,1100.0,,,31.41,,N,29.58,29.81,,Overcast
KIGQ,12/24/2016 17:55 UTC,30.25,35.06,32.9,93.08,0.0,0.0,,,,,,114.0,,,,7.0,,KIGQ 241755Z AUTO 00000KT 7SM OVC011 02/01 A3025 RMK AO2 T00170005  10019 20010,35.42,33.8,1100.0,,,33.24,,N,29.59,29.79,,Overcast
KIGQ,12/24/2016 18:15 UTC,30.24,35.06,32.9,93.08,3.44,150.0,,,,,,114.0,,,,7.0,,KIGQ 241815Z AUTO 15003KT 7SM OVC011 02/01 A3024 RMK AO2  T00170005,,,1100.0,,,33.24,,SSE,29.58,29.78,,Overcast
KIGQ,12/24/2016 18:35 UTC,30.24,35.24,32.72,86.58,0.0,0.0,,,,,,114.0,,,,7.0,,KIGQ 241835Z AUTO 00000KT 7SM OVC011 02/00 A3024 RMK AO2  T00180004,,,1100.0,,,31.59,,N,29.58,29.8,,Overcast
KIGQ,12/24/2016 18:55 UTC,30.25,35.24,32.9,93.08,0.0,0.0,,,,,,114.0,,,,7.0,,KIGQ 241855Z AUTO 00000KT 7SM OVC011 02/01 A3025 RMK AO2  T00180005,,,1100.0,,,33.41,,N,29.59,29.79,,Overcast
KIGQ,12/24/2016 19:15 UTC,30.24,35.06,32.9,93.08,0.0,0.0,,31.0,,,,114.0,,,,5.0,,KIGQ 241915Z AUTO 00000KT 5SM BR OVC011 02/01 A3024 RMK AO2  T00170005,,,1100.0,,,33.24,,N,29.58,29.78,,Mist
KIGQ,12/24/2016 19:35 UTC,30.26,35.06,32.9,93.08,0.0,0.0,,31.0,,,,114.0,,,,5.0,,KIGQ 241935Z AUTO 00000KT 5SM BR OVC011 02/01 A3026 RMK AO2  T00170005,,,1100.0,,,33.24,,N,29.6,29.8,,Mist
KIGQ,12/24/2016 19:55 UTC,30.25,34.88,32.9,93.08,0.0,0.0,,,,,,114.0,,,,7.0,,KIGQ 241955Z AUTO 00000KT 7SM OVC011 02/01 A3025 RMK AO2  T00160005,,,1100.0,,,33.06,,N,29.59,29.79,,Overcast
KIGQ,12/24/2016 20:15 UTC,30.26,35.06,32.9,93.08,0.0,0.0,,,,,,114.0,,,,7.0,,KIGQ 242015Z AUTO 00000KT 7SM OVC011 02/01 A3026 RMK AO2  T00170005,,,1100.0,,,33.24,,N,29.6,29.8,,Overcast
KIGQ,12/24/2016 20:35 UTC,30.26,34.7,32.72,86.58,6.91,150.0,,,,,,114.0,,,,7.0,,KIGQ 242035Z AUTO 15006KT 7SM OVC011 02/00 A3026 RMK AO2  T00150004,,,1100.0,,,31.06,,SSE,29.6,29.84,,Overcast
KIGQ,12/24/2016 20:55 UTC,30.27,34.7,32.54,86.58,0.0,0.0,,,,,,114.0,,,,7.0,,KIGQ 242055Z AUTO 00000KT 7SM OVC011 02/00 A3027 RMK AO2  T00150003,,,1100.0,,,31.06,,N,29.61,29.85,,Overcast
KIGQ,12/24/2016 21:15 UTC,30.28,34.52,32.54,93.02,4.61,210.0,,,,,,114.0,,,,7.0,,KIGQ 242115Z AUTO 21004KT 7SM OVC011 01/00 A3028 RMK AO2  T00140003,,,1100.0,,,32.68,,SSW,29.62,29.83,,Overcast
KIGQ,12/24/2016 21:35 UTC,30.29,34.16,32.72,93.02,3.44,210.0,,,,,,114.0,,,,7.0,,KIGQ 242135Z AUTO 21003KT 7SM OVC011 01/00 A3029 RMK AO2  T00120004,,,1100.0,,,32.33,,SSW,29.63,29.85,,Overcast
KIGQ,12/24/2016 21:55 UTC,30.3,33.98,32.54,93.02,4.61,210.0,,,,,,114.0,,,,7.0,,KIGQ 242155Z AUTO 21004KT 7SM OVC011 01/00 A3030 RMK AO2  T00110003,,,1100.0,,,32.15,,SSW,29.64,29.87,,Overcast
KIGQ,12/24/2016 22:15 UTC,30.3,33.8,32.54,93.02,0.0,0.0,,,,,,94.0,,,,7.0,,KIGQ 242215Z AUTO 00000KT 7SM OVC009 01/00 A3030 RMK AO2  T00100003,,,900.0,,,31.97,,N,29.64,29.87,,Overcast
KIGQ,12/24/2016 22:35 UTC,30.29,33.8,32.54,93.02,4.61,120.0,,,,,,94.0,,,,7.0,,KIGQ 242235Z AUTO 12004KT 7SM OVC009 01/00 A3029 RMK AO2  T00100003,,,900.0,,,31.97,,ESE,29.63,29.86,,Overcast
KIGQ,12/24/2016 22:55 UTC,30.29,33.62,32.36,93.02,3.44,160.0,,,,,,94.0,,,,7.0,,KIGQ 242255Z AUTO 16003KT 7SM OVC009 01/00 A3029 RMK AO2  T00090002,,,900.0,,,31.79,,SSE,29.63,29.86,,Overcast
KIGQ,12/24/2016 23:15 UTC,30.31,33.44,32.36,93.02,0.0,0.0,,,,,,94.0,,,,7.0,,KIGQ 242315Z AUTO 00000KT 7SM OVC009 01/00 A3031 RMK AO2  T00080002,,,900.0,,,31.61,,N,29.65,29.89,,Overcast
KIGQ,12/24/2016 23:35 UTC,30.3,33.8,32.18,93.02,0.0,0.0,,,,,,94.0,,,,7.0,,KIGQ 242335Z AUTO 00000KT 7SM OVC009 01/00 A3030 RMK AO2  T00100001,,,900.0,,,31.97,,N,29.64,29.87,,Overcast
KIGQ,12/24/2016 23:55 UTC,30.31,33.8,32.18,93.02,0.0,0.0,,,,,,94.0,,,,7.0,,KIGQ 242355Z AUTO 00000KT 7SM OVC009 01/00 A3031 RMK AO2 T00100001  10018 20007,35.24,33.26,900.0,,,31.97,,N,29.65,29.88,,Overcast
KIGQ,12/25/2016 00:15 UTC,30.32,33.26,32.36,93.02,4.61,130.0,,,,,,94.0,,,,7.0,,KIGQ 250015Z AUTO 13004KT 7SM OVC009 01/00 A3032 RMK AO2  T00070002,,,900.0,,,31.43,,SE,29.66,29.9,,Overcast
KIGQ,12/25/2016 00:35 UTC,30.32,33.62,32.18,93.02,3.44,150.0,,,,,,94.0,,,,7.0,,KIGQ 250035Z AUTO 15003KT 7SM OVC009 01/00 A3032 RMK AO2  T00090001,,,900.0,,,31.79,,SSE,29.66,29.89,,Overcast
KIGQ,12/25/2016 00:55 UTC,30.32,33.26,32.18,93.02,6.91,110.0,,,,,,94.0,,,,7.0,,KIGQ 250055Z AUTO 11006KT 7SM OVC009 01/00 A3032 RMK AO2  T00070001,,,900.0,,,31.43,,ESE,29.66,29.9,,Overcast
KIGQ,12/25/2016 01:15 UTC,30.33,33.26,32.18,93.02,5.75,150.0,,,,,,94.0,,,,7.0,,KIGQ 250115Z AUTO 15005KT 7SM OVC009 01/00 A3033 RMK AO2  T00070001,,,900.0,,,31.43,,SSE,29.67,29.91,,Overcast
KIGQ,12/25/2016 01:35 UTC,30.34,33.26,32.18,93.02,0.0,0.0,,,,,,94.0,,,,7.0,,KIGQ 250135Z AUTO 00000KT 7SM OVC009 01/00 A3034 RMK AO2  T00070001,,,900.0,,,31.43,,N,29.68,29.92,,Overcast
KIGQ,12/25/2016 01:55 UTC,30.36,33.08,32.18,93.02,0.0,0.0,,,,,,94.0,,,,7.0,,KIGQ 250155Z AUTO 00000KT 7SM OVC009 01/00 A3036 RMK AO2  T00060001,,,900.0,,,31.26,,N,29.7,29.95,,Overcast
KIGQ,12/25/2016 02:15 UTC,30.36,33.08,32.18,93.02,5.75,130.0,,,,,,94.0,,,,7.0,,KIGQ 250215Z AUTO 13005KT 7SM OVC009 01/00 A3036 RMK AO2  T00060001,,,900.0,,,31.26,,SE,29.7,29.95,,Overcast
KIGQ,12/25/2016 02:35 UTC,30.36,33.26,32.36,93.02,0.0,0.0,,,,,,74.0,,,,7.0,,KIGQ 250235Z AUTO 00000KT 7SM OVC007 01/00 A3036 RMK AO2  T00070002,,,700.0,,,31.43,,N,29.7,29.94,,Overcast
KIGQ,12/25/2016 02:55 UTC,30.36,33.26,32.36,93.02,4.61,140.0,,,,,,74.0,,,,7.0,,KIGQ 250255Z AUTO 14004KT 7SM OVC007 01/00 A3036 RMK AO2  T00070002,,,700.0,,,31.43,,SE,29.7,29.94,,Overcast
KIGQ,12/25/2016 03:15 UTC,30.36,33.08,32.36,93.02,5.75,90.0,,,,,,74.0,,,,7.0,,KIGQ 250315Z AUTO 09005KT 7SM OVC007 01/00 A3036 RMK AO2  T00060002,,,700.0,,,31.26,,E,29.7,29.95,,Overcast
KIGQ,12/25/2016 03:35 UTC,30.36,33.08,32.36,93.02,5.75,100.0,,,,,,74.0,,,,7.0,,KIGQ 250335Z AUTO 10005KT 7SM OVC007 01/00 A3036 RMK AO2  T00060002,,,700.0,,,31.26,,E,29.7,29.95,,Overcast
KIGQ,12/25/2016 03:55 UTC,30.36,32.9,32.18,93.02,6.91,100.0,,,,,,74.0,,,,7.0,,KIGQ 250355Z AUTO 10006KT 7SM OVC007 01/00 A3036 RMK AO2  T00050001,,,700.0,,,31.08,,E,29.7,29.95,,Overcast
KIGQ,12/25/2016 04:15 UTC,30.37,32.72,32.0,100.0,6.91,110.0,,31.0,,,,74.0,,,,5.0,,KIGQ 250415Z AUTO 11006KT 5SM BR OVC007 00/00 A3037 RMK AO2  T00040000,,,700.0,,,32.72,,ESE,29.71,29.94,,Mist
KIGQ,12/25/2016 04:35 UTC,30.38,32.72,32.0,100.0,6.91,100.0,,,,,,74.0,,,,7.0,,KIGQ 250435Z AUTO 10006KT 7SM OVC007 00/00 A3038 RMK AO2  T00040000,,,700.0,,,32.72,,E,29.72,29.95,,Overcast
KIGQ,12/25/2016 04:55 UTC,30.39,32.72,32.0,100.0,4.61,130.0,,,,,,74.0,,,,7.0,,KIGQ 250455Z AUTO 13004KT 7SM OVC007 00/00 A3039 RMK AO2  T00040000,,,700.0,,,32.72,,SE,29.73,29.96,,Overcast
KIGQ,12/25/2016 05:15 UTC,30.4,32.9,32.0,93.02,4.61,110.0,,,,,,74.0,,,,7.0,,KIGQ 250515Z AUTO 11004KT 7SM OVC007 01/00 A3040 RMK AO2  T00050000,,,700.0,,,31.08,,ESE,29.74,29.99,,Overcast
KIGQ,12/25/2016 05:35 UTC,30.39,32.72,32.0,100.0,4.61,120.0,,,,,,74.0,,,,7.0,,KIGQ 250535Z AUTO 12004KT 7SM OVC007 00/00 A3039 RMK AO2  T00040000,,,700.0,,,32.72,,ESE,29.73,29.96,,Overcast
KIGQ,12/25/2016 05:55 UTC,30.39,32.9,32.0,93.02,4.61,100.0,,,,,,74.0,,,,7.0,,KIGQ 250555Z AUTO 10004KT 7SM OVC007 01/00 A3039 RMK AO2 T00050000  10009 20003 400190003,33.62,32.54,700.0,35.42,32.54,31.08,,E,29.73,29.98,,Overcast
KIGQ,12/25/2016 06:15 UTC,30.39,32.54,32.0,100.0,4.61,140.0,,,,,,74.0,,,,7.0,,KIGQ 250615Z AUTO 14004KT 7SM OVC007 00/00 A3039 RMK AO2  T00030000,,,700.0,,,32.54,,SE,29.73,29.96,,Overcast
KIGQ,12/25/2016 06:35 UTC,30.38,32.54,32.0,100.0,9.22,130.0,,,,,,74.0,,,,7.0,,KIGQ 250635Z AUTO 13008KT 7SM OVC007 00/00 A3038 RMK AO2  T00030000,,,700.0,,,32.54,27.09,SE,29.72,29.95,,Overcast
KIGQ,12/25/2016 06:55 UTC,30.38,32.18,32.0,100.0,12.66,120.0,16.11,,,,,74.0,,,,7.0,,KIGQ 250655Z AUTO 12011G14KT 7SM OVC007 00/00 A3038 RMK AO2  T00010000,,,700.0,,,32.18,25.15,ESE,29.72,29.96,,Overcast
KIGQ,12/25/2016 07:15 UTC,30.38,32.18,32.0,100.0,6.91,110.0,,,,,,74.0,,,,7.0,,KIGQ 250715Z AUTO 11006KT 7SM OVC007 00/00 A3038 RMK AO2  T00010000,,,700.0,,,32.18,,ESE,29.72,29.96,,Overcast
KIGQ,12/25/2016 07:35 UTC,30.37,32.18,32.0,100.0,9.22,120.0,,,,,,54.0,,,,7.0,,KIGQ 250735Z AUTO 12008KT 7SM OVC005 00/00 A3037 RMK AO2  T00010000,,,500.0,,,32.18,26.66,ESE,29.71,29.95,,Overcast
KIGQ,12/25/2016 07:55 UTC,30.39,32.18,32.0,100.0,8.05,130.0,,31.0,,,,54.0,,,,5.0,,KIGQ 250755Z AUTO 13007KT 5SM BR OVC005 00/00 A3039 RMK AO2  T00010000,,,500.0,,,32.18,27.29,SE,29.73,29.97,,Mist
KIGQ,12/25/2016 08:15 UTC,30.39,32.36,32.0,100.0,8.05,130.0,,31.0,,,,54.0,,,,5.0,,KIGQ 250815Z AUTO 13007KT 5SM BR OVC005 00/00 A3039 RMK AO2  T00020000,,,500.0,,,32.36,27.5,SE,29.73,29.97,,Mist
KIGQ,12/25/2016 08:35 UTC,30.39,32.18,32.0,100.0,8.05,130.0,,31.0,,,,54.0,,,,5.0,,KIGQ 250835Z AUTO 13007KT 5SM BR OVC005 00/00 A3039 RMK AO2  T00010000,,,500.0,,,32.18,27.29,SE,29.73,29.97,,Mist
KIGQ,12/25/2016 08:55 UTC,30.39,32.0,32.0,100.0,9.22,150.0,,31.0,,,,54.0,,,,5.0,,KIGQ 250855Z AUTO 15008KT 5SM BR OVC005 00/00 A3039 RMK AO2  T00000000,,,500.0,,,32.0,26.45,SSE,29.73,29.97,,Mist
KIGQ,12/25/2016 09:15 UTC,30.39,32.0,32.0,100.0,9.22,140.0,,31.0,,,,54.0,,,,4.0,,KIGQ 250915Z AUTO 14008KT 4SM BR OVC005 00/00 A3039 RMK AO2  T00000000,,,500.0,,,32.0,26.45,SE,29.73,29.97,,Mist
KIGQ,12/25/2016 09:35 UTC,30.39,32.0,32.0,100.0,9.22,120.0,,31.0,,,,54.0,,,,4.0,,KIGQ 250935Z AUTO 12008KT 4SM BR OVC005 00/00 A3039 RMK AO2  T00000000,,,500.0,,,32.0,26.45,ESE,29.73,29.97,,Mist
KIGQ,12/25/2016 09:55 UTC,30.39,32.0,32.0,100.0,10.36,150.0,,31.0,,,,54.0,,,,4.0,,KIGQ 250955Z AUTO 15009KT 4SM BR OVC005 00/00 A3039 RMK AO2  T00000000,,,500.0,,,32.0,25.9,SSE,29.73,29.97,,Mist
KIGQ,12/25/2016 10:15 UTC,30.38,32.0,32.0,100.0,9.22,120.0,,31.0,,,,54.0,,,,4.0,,KIGQ 251015Z AUTO 12008KT 4SM BR OVC005 00/00 A3038 RMK AO2  T00000000,,,500.0,,,32.0,26.45,ESE,29.72,29.96,,Mist
KIGQ,12/25/2016 10:35 UTC,30.38,32.0,32.0,100.0,9.22,120.0,,31.0,,,,54.0,,,,3.0,,KIGQ 251035Z AUTO 12008KT 3SM BR OVC005 00/00 A3038 RMK AO2  T00000000,,,500.0,,,32.0,26.45,ESE,29.72,29.96,,Mist
KIGQ,12/25/2016 10:55 UTC,30.38,32.0,32.0,100.0,9.22,110.0,,31.0,,,,54.0,,,,3.0,,KIGQ 251055Z AUTO 11008KT 3SM BR OVC005 00/00 A3038 RMK AO2  T00000000,,,500.0,,,32.0,26.45,ESE,29.72,29.96,,Mist
KIGQ,12/25/2016 11:15 UTC,30.39,32.0,32.0,100.0,8.05,120.0,,31.0,,,,54.0,,,,4.0,,KIGQ 251115Z AUTO 12007KT 4SM BR OVC005 00/00 A3039 RMK AO2  T00000000,,,500.0,,,32.0,27.08,ESE,29.73,29.97,,Mist
KIGQ,12/25/2016 11:35 UTC,30.39,32.0,32.0,100.0,9.22,110.0,,31.0,,,,54.0,,,,3.0,,KIGQ 251135Z AUTO 11008KT 3SM BR OVC005 00/00 A3039 RMK AO2  T00000000,,,500.0,,,32.0,26.45,ESE,29.73,29.97,,Mist
KIGQ,12/25/2016 11:55 UTC,30.4,32.0,32.0,100.0,9.22,130.0,,31.0,,,,54.0,,,,4.0,,KIGQ 251155Z AUTO 13008KT 4SM BR OVC005 00/00 A3040 RMK AO2  T00000000 10005 20000,32.9,32.0,500.0,,,32.0,26.45,SE,29.74,29.98,,Mist
KIGQ,12/25/2016 12:15 UTC,30.4,32.0,32.0,100.0,9.22,120.0,,31.0,,,,54.0,,,,4.0,,KIGQ 251215Z AUTO 12008KT 4SM BR OVC005 00/00 A3040 RMK AO2  T00000000,,,500.0,,,32.0,26.45,ESE,29.74,29.98,,Mist
KIGQ,12/25/2016 12:35 UTC,30.39,32.0,32.0,100.0,10.36,130.0,,31.0,,,,54.0,,,,4.0,,KIGQ 251235Z AUTO 13009KT 4SM BR OVC005 00/00 A3039 RMK AO2  T00000000,,,500.0,,,32.0,25.9,SE,29.73,29.97,,Mist
KIGQ,12/25/2016 12:55 UTC,30.4,32.0,32.0,100.0,8.05,110.0,,31.0,,,,54.0,,,,3.0,,KIGQ 251255Z AUTO 11007KT 3SM BR OVC005 00/00 A3040 RMK AO2  T00000000,,,500.0,,,32.0,27.08,ESE,29.74,29.98,,Mist
KIGQ,12/25/2016 13:15 UTC,30.4,32.0,32.0,100.0,4.61,110.0,,31.0,,,,54.0,,,,3.0,,KIGQ 251315Z AUTO 11004KT 3SM BR OVC005 00/00 A3040 RMK AO2  T00000000,,,500.0,,,32.0,,ESE,29.74,29.98,,Mist
KIGQ,12/25/2016 13:35 UTC,30.4,32.0,32.0,100.0,13.8,120.0,,31.0,,,,54.0,,,,3.0,,KIGQ 251335Z AUTO 12012KT 3SM BR OVC005 00/00 A3040 RMK AO2  T00000000,,,500.0,,,32.0,24.5,ESE,29.74,29.98,,Mist
KIGQ,12/25/2016 13:55 UTC,30.4,32.0,32.0,100.0,8.05,100.0,,31.0,,,,74.0,,,,3.0,,KIGQ 251355Z AUTO 10007KT 3SM BR OVC007 00/00 A3040 RMK AO2 LTG  DSNT W T00000000,,,700.0,,,32.0,27.08,E,29.74,29.98,,Mist
KIGQ,12/25/2016 14:15 UTC,30.41,32.0,32.0,100.0,6.91,90.0,,31.0,,,,74.0,,,,2.5,,KIGQ 251415Z AUTO 09006KT 2 1/2SM BR OVC007 00/00 A3041 RMK AO2  T00000000,,,700.0,,,32.0,,E,29.75,29.99,,Mist
KIGQ,12/25/2016 14:35 UTC,30.41,32.18,32.0,100.0,6.91,100.0,,31.0,,,,74.0,,,,3.0,,KIGQ 251435Z AUTO 10006KT 3SM BR OVC007 00/00 A3041 RMK AO2  T00010000,,,700.0,,,32.18,,E,29.75,29.99,,Mist
KIGQ,12/25/2016 14:55 UTC,30.41,32.54,32.18,100.0,8.05,90.0,,31.0,,,,74.0,,,,4.0,,KIGQ 251455Z AUTO 09007KT 4SM BR OVC007 00/00 A3041 RMK AO2  T00030001,,,700.0,,,32.54,27.71,E,29.75,29.98,,Mist
KIGQ,12/25/2016 15:15 UTC,30.41,32.72,32.18,100.0,9.22,100.0,,31.0,,,,74.0,,,,4.0,,KIGQ 251515Z AUTO 10008KT 4SM BR OVC007 00/00 A3041 RMK AO2 LTG  DSNT W T00040001,,,700.0,,,32.72,27.3,E,29.75,29.98,,Mist
KIGQ,12/25/2016 15:35 UTC,30.41,32.72,32.0,100.0,14.97,110.0,20.71,31.0,,,,74.0,,,,5.0,,KIGQ 251535Z AUTO 11013G18KT 5SM BR OVC007 00/00 A3041 RMK AO2  T00040000,,,700.0,,,32.72,24.98,ESE,29.75,29.98,,Mist
KIGQ,12/25/2016 15:55 UTC,30.41,32.36,32.0,100.0,17.27,110.0,20.71,31.0,,,,74.0,,,,5.0,,KIGQ 251555Z AUTO 11015G18KT 5SM BR OVC007 00/00 A3041 RMK AO2  T00020000,,,700.0,,,32.36,23.82,ESE,29.75,29.99,,Mist
KIGQ,12/25/2016 16:15 UTC,30.4,32.54,32.0,100.0,13.8,110.0,18.41,31.0,,,,74.0,,,,4.0,,KIGQ 251615Z AUTO 11012G16KT 4SM BR OVC007 00/00 A3040 RMK AO2  T00030000,,,700.0,,,32.54,25.17,ESE,29.74,29.97,,Mist
KIGQ,12/25/2016 16:35 UTC,30.39,32.9,32.0,93.02,12.66,110.0,18.41,31.0,,,,74.0,,,,3.0,,KIGQ 251635Z AUTO 11011G16KT 3SM BR OVC007 01/00 A3039 RMK AO2  T00050000,,,700.0,,,31.08,26.03,ESE,29.73,29.98,,Mist
KIGQ,12/25/2016 16:55 UTC,30.38,32.9,32.18,93.02,12.66,100.0,16.11,31.0,,,,74.0,,,,3.0,,KIGQ 251655Z AUTO 10011G14KT 3SM BR OVC007 01/00 A3038 RMK AO2 LTG  DSNT W T00050001,,,700.0,,,31.08,26.03,E,29.72,29.97,,Mist
KIGQ,12/25/2016 17:15 UTC,30.35,33.26,32.18,93.02,12.66,100.0,18.41,31.0,,,,74.0,,,,4.0,,KIGQ 251715Z AUTO 10011G16KT 4SM BR OVC007 01/00 A3035 RMK AO2 LTG  DSNT W T00070001,,,700.0,,,31.43,26.46,E,29.69,29.93,,Mist
KIGQ,12/25/2016 17:35 UTC,30.36,33.26,32.0,93.02,12.66,110.0,17.27,31.0,,,,74.0,,,,5.0,,KIGQ 251735Z AUTO 11011G15KT 5SM BR OVC007 01/00 A3036 RMK AO2  T00070000,,,700.0,,,31.43,26.46,ESE,29.7,29.94,,Mist
KIGQ,12/25/2016 17:55 UTC,30.37,33.8,32.0,93.02,10.36,130.0,,,,,,94.0,,,,7.0,,KIGQ 251755Z AUTO 13009KT 7SM OVC009 01/00 A3037 RMK AO2 LTG DSNT  W T00100000 10010 20000,33.8,32.0,900.0,,,31.97,28.06,SE,29.71,29.94,,Overcast
KIGQ,12/25/2016 18:15 UTC,30.36,33.8,32.0,93.02,11.5,100.0,19.57,,,,,94.0,,,,7.0,,KIGQ 251815Z AUTO 10010G17KT 7SM OVC009 01/00 A3036 RMK AO2  T00100000,,,900.0,,,31.97,27.57,E,29.7,29.93,,Overcast
KIGQ,12/25/2016 18:35 UTC,30.33,34.16,32.0,93.02,12.66,110.0,,,,,,114.0,,,,10.0,,KIGQ 251835Z AUTO 11011KT 10SM OVC011 01/00 A3033 RMK AO2  T00120000,,,1100.0,,,32.33,27.56,ESE,29.67,29.89,,Overcast
KIGQ,12/25/2016 18:55 UTC,30.31,34.52,32.18,93.02,12.66,90.0,,,,,,114.0,,,,10.0,,KIGQ 251855Z AUTO 09011KT 10SM OVC011 01/00 A3031 RMK AO2  T00140001,,,1100.0,,,32.68,28.0,E,29.65,29.86,,Overcast
KIGQ,12/25/2016 19:15 UTC,30.3,34.7,32.36,86.58,11.5,100.0,,,,,,114.0,,,,7.0,,KIGQ 251915Z AUTO 10010KT 7SM OVC011 02/00 A3030 RMK AO2  T00150002,,,1100.0,,,31.06,28.66,E,29.64,29.88,,Overcast
KIGQ,12/25/2016 19:35 UTC,30.3,34.52,32.9,100.0,10.36,100.0,,,,,,114.0,,,,7.0,,KIGQ 251935Z AUTO 10009KT 7SM OVC011 01/01 A3030 RMK AO2  T00140005,,,1100.0,,,34.52,28.92,E,29.64,29.82,,Overcast
KIGQ,12/25/2016 19:55 UTC,30.27,33.98,32.9,100.0,13.8,100.0,,31.0,,,,94.0,,,,4.0,,KIGQ 251955Z AUTO 10012KT 4SM BR OVC009 01/01 A3027 RMK AO2  T00110005,,,900.0,,,33.98,26.93,E,29.61,29.81,,Mist
KIGQ,12/25/2016 20:15 UTC,30.29,33.98,33.08,100.0,8.05,100.0,17.27,31.0,,,,74.0,,,,3.0,,KIGQ 252015Z AUTO 10007G15KT 3SM BR OVC007 01/01 A3029 RMK AO2  T00110006,,,700.0,,,33.98,29.4,E,29.63,29.83,,Mist
KIGQ,12/25/2016 20:35 UTC,30.27,33.8,33.26,100.0,6.91,100.0,,31.0,,,,74.0,,,,3.0,,KIGQ 252035Z AUTO 10006KT 3SM BR OVC007 01/01 A3027 RMK AO2  T00100007,,,700.0,,,33.8,,E,29.61,29.81,,Mist
KIGQ,12/25/2016 20:55 UTC,30.26,33.8,33.44,98.57,9.22,90.0,,31.0,,,,74.0,,,,4.0,,KIGQ 252055Z AUTO 09008KT 4SM BR OVC007 01/01 A3026 RMK AO2  T00100008,,,700.0,,,33.43,28.59,E,29.6,29.81,,Mist
KIGQ,12/25/2016 21:15 UTC,30.26,33.8,33.26,100.0,11.5,100.0,16.11,31.0,,,,74.0,,,,4.0,,KIGQ 252115Z AUTO 10010G14KT 4SM BR OVC007 01/01 A3026 RMK AO2  T00100007,,,700.0,,,33.8,27.57,E,29.6,29.8,,Mist
KIGQ,12/25/2016 21:35 UTC,30.26,33.8,33.26,100.0,9.22,100.0,,31.0,,,,74.0,,,,4.0,,KIGQ 252135Z AUTO 10008KT 4SM BR OVC007 01/01 A3026 RMK AO2  T00100007,,,700.0,,,33.8,28.59,E,29.6,29.8,,Mist
KIGQ,12/25/2016 21:55 UTC,30.25,33.8,33.44,98.57,10.36,110.0,,31.0,,,,74.0,,,,4.0,,KIGQ 252155Z AUTO 11009KT 4SM BR OVC007 01/01 A3025 RMK AO2  T00100008,,,700.0,,,33.43,28.06,ESE,29.59,29.8,,Mist
KIGQ,12/25/2016 22:15 UTC,30.24,33.8,33.44,100.0,10.36,100.0,,18.0,,,,74.0,,,,1.75,,KIGQ 252215Z AUTO 10009KT 1 3/4SM +DZ OVC007 01/01 A3024 RMK AO2  T00100008,,,700.0,,,33.8,28.06,E,29.58,29.78,,Heavy Drizzle
KIGQ,12/25/2016 22:35 UTC,30.22,33.8,33.62,100.0,14.97,110.0,21.85,1.0,,,,74.0,,,,4.0,,KIGQ 252235Z AUTO 11013G19KT 4SM RA OVC007 01/01 A3022 RMK AO2  T00100009,,,700.0,,,33.8,26.31,ESE,29.56,29.76,,Rain
KIGQ,12/25/2016 22:55 UTC,30.22,33.8,33.8,100.0,12.66,120.0,,13.0,,0.03,,74.0,,,,4.0,,KIGQ 252255Z AUTO 12011KT 4SM -RA OVC007 01/01 A3022 RMK AO2 P0003  T00100010,,,700.0,,,33.8,27.12,ESE,29.56,29.76,,Light Rain
KIGQ,12/25/2016 23:15 UTC,30.22,33.8,33.8,100.0,16.11,120.0,,13.0,,,,74.0,,,,4.0,,KIGQ 252315Z AUTO 12014KT 4SM -RA OVC007 01/01 A3022 RMK AO2  T00100010,,,700.0,,,33.8,25.96,ESE,29.56,29.76,,Light Rain
KIGQ,12/25/2016 23:35 UTC,30.21,33.98,33.98,100.0,13.8,110.0,,13.0,,0.01,,74.0,,,,5.0,,KIGQ 252335Z AUTO 11012KT 5SM -RA OVC007 01/01 A3021 RMK AO2 P0001  T00110011,,,700.0,,,33.98,26.93,ESE,29.55,29.74,,Light Rain
KIGQ,12/25/2016 23:55 UTC,30.2,33.98,33.98,100.0,11.5,120.0,21.85,1.0,,0.03,,74.0,,0.06,,3.0,,KIGQ 252355Z AUTO 12010G19KT 3SM RA OVC007 01/01 A3020 RMK AO2  P0003 60006 T00110011 10015 20010,34.7,33.8,700.0,,,33.98,27.79,ESE,29.54,29.73,,Rain
KIGQ,12/26/2016 00:15 UTC,30.2,34.16,34.16,100.0,16.11,130.0,21.85,31.0,,,,54.0,,,,3.0,,KIGQ 260015Z AUTO 13014G19KT 3SM BR OVC005 01/01 A3020 RMK AO2  T00120012,,,500.0,,,34.16,26.4,SE,29.54,29.73,,Mist
KIGQ,12/26/2016 00:35 UTC,30.19,34.16,34.16,100.0,11.5,130.0,20.71,31.0,,,,54.0,,,,3.0,,KIGQ 260035Z AUTO 13010G18KT 3SM BR OVC005 01/01 A3019 RMK AO2  T00120012,,,500.0,,,34.16,28.01,SE,29.53,29.72,,Mist
KIGQ,12/26/2016 00:55 UTC,30.2,34.7,34.7,100.0,12.66,130.0,,31.0,,,,54.0,,,,5.0,,KIGQ 260055Z AUTO 13011KT 5SM BR OVC005 02/02 A3020 RMK AO2  T00150015,,,500.0,,,34.7,28.21,SE,29.54,29.72,,Mist
KIGQ,12/26/2016 01:15 UTC,30.18,34.7,34.7,100.0,13.8,130.0,18.41,31.0,,,,54.0,,,,4.0,,KIGQ 260115Z AUTO 13012G16KT 4SM BR OVC005 02/02 A3018 RMK AO2  T00150015,,,500.0,,,34.7,27.81,SE,29.52,29.7,,Mist
KIGQ,12/26/2016 01:35 UTC,30.17,34.88,34.88,100.0,14.97,130.0,20.71,31.0,,,,54.0,,,,3.0,,KIGQ 260135Z AUTO 13013G18KT 3SM BR OVC005 02/02 A3017 RMK AO2  T00160016,,,500.0,,,34.88,27.65,SE,29.51,29.68,,Mist
KIGQ,12/26/2016 01:55 UTC,30.16,35.24,35.24,100.0,16.11,130.0,21.85,31.0,,,,54.0,,,,4.0,,KIGQ 260155Z AUTO 13014G19KT 4SM BR OVC005 02/02 A3016 RMK AO2  T00180018,,,500.0,,,35.24,27.74,SE,29.5,29.66,,Mist
KIGQ,12/26/2016 02:15 UTC,30.15,35.6,35.6,100.0,18.41,140.0,25.32,31.0,,,,54.0,,,,5.0,,KIGQ 260215Z AUTO 14016G22KT 5SM BR OVC005 02/02 A3015 RMK AO2  T00200020,,,500.0,,,35.6,27.55,SE,29.49,29.64,,Mist
KIGQ,12/26/2016 02:35 UTC,30.15,35.6,35.6,100.0,14.97,140.0,23.02,31.0,,,,54.0,,,,4.0,,KIGQ 260235Z AUTO 14013G20KT 4SM BR OVC005 02/02 A3015 RMK AO2  T00200020,,,500.0,,,35.6,28.53,SE,29.49,29.64,,Mist
KIGQ,12/26/2016 02:55 UTC,30.15,35.78,35.78,100.0,12.66,140.0,20.71,31.0,,,,34.0,,,,2.5,,KIGQ 260255Z AUTO 14011G18KT 2 1/2SM BR OVC003 02/02 A3015 RMK AO2  T00210021,,,300.0,,,35.78,29.53,SE,29.49,29.64,,Mist
KIGQ,12/26/2016 03:15 UTC,30.15,36.14,36.14,100.0,12.66,150.0,19.57,31.0,,,,34.0,,,,1.75,,KIGQ 260315Z AUTO 15011G17KT 1 3/4SM BR OVC003 02/02 A3015 RMK AO2  T00230023,,,300.0,,,36.14,29.97,SSE,29.49,29.63,,Mist
KIGQ,12/26/2016 03:35 UTC,30.13,36.14,36.14,100.0,11.5,140.0,18.41,13.0,,,,34.0,,,,1.0,,KIGQ 260335Z AUTO 14010G16KT 1SM -RA OVC003 02/02 A3013 RMK AO2  T00230023,,,300.0,,,36.14,30.4,SE,29.47,29.61,,Light Rain
KIGQ,12/26/2016 03:55 UTC,30.12,36.32,36.32,100.0,14.97,140.0,19.57,31.0,,,,34.0,,,,1.0,,KIGQ 260355Z AUTO 14013G17KT 1SM BR OVC003 02/02 A3012 RMK AO2  T00240024,,,300.0,,,36.32,29.42,SE,29.47,29.6,,Mist
KIGQ,12/26/2016 04:15 UTC,30.1,36.68,36.68,100.0,16.11,140.0,19.57,31.0,,,,34.0,,,,1.0,,KIGQ 260415Z AUTO 14014G17KT 1SM BR OVC003 03/03 A3010 RMK AO2  T00260026,,,300.0,,,36.68,29.52,SE,29.45,29.57,,Mist
KIGQ,12/26/2016 04:35 UTC,30.09,36.86,36.86,100.0,11.5,140.0,24.16,31.0,,,,34.0,,,,1.0,,KIGQ 260435Z AUTO 14010G21KT 1SM BR OVC003 03/03 A3009 RMK AO2  T00270027,,,300.0,,,36.86,31.27,SE,29.44,29.56,,Mist
KIGQ,12/26/2016 04:55 UTC,30.07,37.58,37.58,100.0,13.8,150.0,23.02,31.0,,,,34.0,,,,1.0,,KIGQ 260455Z AUTO 15012G20KT 1SM BR OVC003 03/03 A3007 RMK AO2  T00310031,,,300.0,,,37.58,31.34,SSE,29.42,29.52,,Mist
KIGQ,12/26/2016 05:15 UTC,30.06,38.3,38.3,100.0,13.8,150.0,23.02,31.0,,,,34.0,,,,1.0,,KIGQ 260515Z AUTO 15012G20KT 1SM BR OVC003 04/04 A3006 RMK AO2  T00350035,,,300.0,,,38.3,32.22,SSE,29.41,29.49,,Mist
KIGQ,12/26/2016 05:35 UTC,30.05,39.2,39.2,100.0,14.97,150.0,19.57,31.0,,,,34.0,,,,1.0,,KIGQ 260535Z AUTO 15013G17KT 1SM BR OVC003 04/04 A3005 RMK AO2  T00400040,,,300.0,,,39.2,32.97,SSE,29.4,29.45,,Mist
KIGQ,12/26/2016 05:55 UTC,30.02,39.2,39.2,100.0,17.27,130.0,24.16,1.0,,,,34.0,,,,0.75,,KIGQ 260555Z AUTO 13015G21KT 3/4SM RA OVC003 04/04 A3002 RMK AO2  T00400040 10040 20011 400400000,39.2,33.98,300.0,39.2,32.0,39.2,32.34,SE,29.37,29.42,,Rain
KIGQ,12/26/2016 06:15 UTC,30.0,40.64,40.64,100.0,19.57,150.0,25.32,31.0,,,,34.0,,,,1.0,,KIGQ 260615Z AUTO 15017G22KT 1SM BR OVC003 05/05 A3000 RMK AO2  T00480048,,,300.0,,,40.64,33.59,SSE,29.35,29.36,,Mist
KIGQ,12/26/2016 06:35 UTC,29.99,41.36,41.36,100.0,17.27,150.0,25.32,31.0,,,,34.0,,,,0.75,,KIGQ 260635Z AUTO 15015G22KT 3/4SM BR OVC003 05/05 A2999 RMK AO2  T00520052,,,300.0,,,41.36,35.03,SSE,29.34,29.33,,Mist
KIGQ,12/26/2016 06:55 UTC,29.98,42.8,42.8,100.0,16.11,160.0,24.16,31.0,,,,34.0,,,,0.75,,KIGQ 260655Z AUTO 16014G21KT 3/4SM BR OVC003 06/06 A2998 RMK AO2  T00600060,,,300.0,,,42.8,37.11,SSE,29.33,29.27,,Mist
KIGQ,12/26/2016 07:15 UTC,29.97,44.24,44.24,100.0,17.27,160.0,23.02,31.0,,,,34.0,,,,1.25,,KIGQ 260715Z AUTO 16015G20KT 1 1/4SM BR OVC003 07/07 A2997 RMK AO2  T00680068,,,300.0,,,44.24,38.62,SSE,29.32,29.21,,Mist
KIGQ,12/26/2016 07:35 UTC,29.96,44.96,44.96,100.0,16.11,160.0,25.32,31.0,,,,34.0,,,,1.25,,KIGQ 260735Z AUTO 16014G22KT 1 1/4SM BR OVC003 07/07 A2996 RMK AO2  T00720072,,,300.0,,,44.96,39.79,SSE,29.31,29.17,,Mist
KIGQ,12/26/2016 07:55 UTC,29.94,44.78,44.78,100.0,18.41,150.0,25.32,31.0,,,,34.0,,,,1.0,,KIGQ 260755Z AUTO 15016G22KT 1SM BR OVC003 07/07 A2994 RMK AO2  T00710071,,,300.0,,,44.78,39.05,SSE,29.29,29.16,,Mist
KIGQ,12/26/2016 08:15 UTC,29.94,46.58,46.58,100.0,16.11,160.0,26.46,31.0,,,,34.0,,,,1.75,,KIGQ 260815Z AUTO 16014G23KT 1 3/4SM BR OVC003 08/08 A2994 RMK AO2  T00810081,,,300.0,,,46.58,,SSE,29.29,29.09,,Mist
KIGQ,12/26/2016 08:35 UTC,29.94,47.66,47.66,100.0,18.41,160.0,27.63,31.0,,,,34.0,,,,3.0,,KIGQ 260835Z AUTO 16016G24KT 3SM BR OVC003 09/09 A2994 RMK AO2  T00870087,,,300.0,,,47.66,,SSE,29.29,29.05,,Mist
KIGQ,12/26/2016 08:55 UTC,29.93,49.1,49.1,100.0,17.27,170.0,25.32,31.0,,,,34.0,,,,4.0,,KIGQ 260855Z AUTO 17015G22KT 4SM BR OVC003 10/10 A2993 RMK AO2  T00950095,,,300.0,,,49.1,,S,29.28,28.98,,Mist
KIGQ,12/26/2016 09:15 UTC,29.92,50.36,50.36,100.0,20.71,170.0,28.77,31.0,,,,34.0,,,,5.0,,KIGQ 260915Z AUTO 17018G25KT 5SM BR OVC003 10/10 A2992 RMK AO2 LTG  DSNT S T01020102,,,300.0,,,50.36,,S,29.27,28.91,,Mist
KIGQ,12/26/2016 09:35 UTC,29.91,51.08,51.08,100.0,17.27,180.0,27.63,13.0,,,,54.0,,,,7.0,,KIGQ 260935Z AUTO 18015G24KT 7SM -RA OVC005 11/11 A2991 RMK AO2  T01060106,,,500.0,,,51.08,,S,29.26,28.87,,Light Rain
KIGQ,12/26/2016 09:55 UTC,29.91,51.62,51.62,100.0,18.41,180.0,24.16,,,,,73.0,124.0,,,7.0,,KIGQ 260955Z AUTO 18016G21KT 7SM BKN007 OVC012 11/11 A2991 RMK AO2  T01090109,,,700.0,,,51.62,,S,29.26,28.84,,Overcast
KIGQ,12/26/2016 10:15 UTC,29.91,52.34,52.34,100.0,16.11,190.0,25.32,13.0,,0.01,,72.0,154.0,,,7.0,,KIGQ 261015Z AUTO 19014G22KT 7SM -RA SCT007 OVC015 11/11 A2991 RMK AO2 P0001 T01130113,,,1500.0,,,52.34,,S,29.26,28.81,,Light Rain
KIGQ,12/26/2016 10:35 UTC,29.94,52.88,52.88,100.0,16.11,230.0,21.85,13.0,,0.07,,73.0,134.0,,,4.0,,KIGQ 261035Z AUTO 23014G19KT 4SM -RA BKN007 OVC013 12/12 A2994 RMK AO2 P0007 T01160116,,,700.0,,,52.88,,SW,29.29,28.81,,Light Rain
KIGQ,12/26/2016 10:55 UTC,29.95,52.7,52.7,100.0,17.27,240.0,23.02,17.0,264.0,0.07,,73.0,123.0,,,5.0,,KIGQ 261055Z AUTO 24015G20KT 5SM -DZ BKN007 BKN012 OVC026 12/12  A2995 RMK AO2 P0007 T01150115,,,700.0,,,52.7,,WSW,29.3,28.83,,Light Drizzle
KIGQ,12/26/2016 11:15 UTC,29.94,52.34,52.34,100.0,11.5,230.0,,14.0,354.0,0.01,,72.0,283.0,,,7.0,,KIGQ 261115Z AUTO 23010KT 7SM +RA SCT007 BKN028 OVC035 11/11  A2994 RMK AO2 P0001 T01130113,,,2800.0,,,52.34,,SW,29.29,28.84,,Heavy Rain
KIGQ,12/26/2016 11:35 UTC,29.93,51.26,51.26,100.0,10.36,210.0,,1.0,1004.0,0.05,,342.0,423.0,,,7.0,,KIGQ 261135Z AUTO 21009KT 7SM RA SCT034 BKN042 OVC100 11/11  A2993 RMK AO2 P0005 T01070107,,,4200.0,,,51.26,,SSW,29.28,28.88,,Rain
KIGQ,12/26/2016 11:55 UTC,29.95,50.72,50.72,100.0,12.66,220.0,17.27,13.0,954.0,0.07,,102.0,373.0,0.14,0.2,7.0,,KIGQ 261155Z AUTO 22011G15KT 7SM -RA SCT010 BKN037 OVC095 10/10  A2995 RMK AO2 P0007 60014 70020 T01040104 10117 20041,53.06,39.38,3700.0,,,50.72,,SW,29.3,28.92,,Light Rain
KIGQ,12/26/2016 12:15 UTC,29.97,50.0,50.0,100.0,14.97,220.0,,1.0,754.0,0.02,,302.0,473.0,,,7.0,,KIGQ 261215Z AUTO 22013KT 7SM RA SCT030 BKN047 OVC075 10/10  A2997 RMK AO2 P0002 T01000100,,,4700.0,,,50.0,,SW,29.32,28.98,,Rain
KIGQ,12/26/2016 12:35 UTC,29.96,49.1,49.1,100.0,14.97,210.0,21.85,1.0,704.0,0.07,,72.0,363.0,,,7.0,,KIGQ 261235Z AUTO 21013G19KT 7SM RA SCT007 BKN036 OVC070 10/10  A2996 RMK AO2 P0007 T00950095,,,3600.0,,,49.1,,SSW,29.31,29.01,,Rain
KIGQ,12/26/2016 12:55 UTC,29.94,48.38,48.38,100.0,14.97,200.0,,13.0,804.0,0.08,,342.0,602.0,,,10.0,,KIGQ 261255Z AUTO 20013KT 10SM -RA SCT034 SCT060 OVC080 09/09  A2994 RMK AO2 P0008 T00910091,,,8000.0,,,48.38,,SSW,29.29,29.02,,Light Rain
KIGQ,12/26/2016 13:15 UTC,29.94,48.38,48.38,100.0,14.97,200.0,20.71,,,,,904.0,,,,10.0,,KIGQ 261315Z AUTO 20013G18KT 10SM OVC090 09/09 A2994 RMK AO2  T00910091,,,9000.0,,,48.38,,SSW,29.29,29.02,,Overcast
KIGQ,12/26/2016 13:35 UTC,29.94,48.2,48.2,100.0,17.27,190.0,20.71,17.0,,,,652.0,904.0,,,10.0,,KIGQ 261335Z AUTO 19015G18KT 10SM -DZ SCT065 OVC090 09/09  A2994 RMK AO2 T00900090,,,9000.0,,,48.2,,S,29.29,29.02,,Light Drizzle
KIGQ,12/26/2016 13:55 UTC,29.92,47.66,47.66,100.0,13.8,190.0,,13.0,1104.0,,,652.0,1003.0,,,10.0,,KIGQ 261355Z AUTO 19012KT 10SM -RA SCT065 BKN100 OVC110 09/09  A2992 RMK AO2 T00870087,,,10000.0,,,47.66,,S,29.27,29.03,,Light Rain
KIGQ,12/26/2016 14:15 UTC,29.92,47.66,47.66,100.0,16.11,200.0,19.57,,,,,1002.0,1204.0,,,10.0,,KIGQ 261415Z AUTO 20014G17KT 10SM SCT100 OVC120 09/09 A2992 RMK AO2 T00870087,,,12000.0,,,47.66,,SSW,29.27,29.03,,Overcast
KIGQ,12/26/2016 14:35 UTC,29.92,48.2,47.84,100.0,16.11,220.0,,13.0,,,,953.0,1104.0,,,10.0,,KIGQ 261435Z AUTO 22014KT 10SM -RA BKN095 OVC110 09/09 A2992 RMK AO2 T00900088,,,9500.0,,,48.2,,SW,29.27,29.0,,Light Rain
KIGQ,12/26/2016 14:55 UTC,29.93,48.2,47.84,100.0,16.11,220.0,24.16,,,,0.08,952.0,1103.0,,,10.0,,KIGQ 261455Z AUTO 22014G21KT 10SM SCT095 BKN110 09/09 A2993 RMK AO2 LTG DSNT S 60008 T00900088,,,11000.0,,,48.2,,SW,29.28,29.01,,Mostly Cloudy
KIGQ,12/26/2016 15:15 UTC,29.93,48.2,47.84,100.0,16.11,210.0,20.71,,,,,652.0,1102.0,,,10.0,,KIGQ 261515Z AUTO 21014G18KT 10SM SCT065 SCT110 09/09 A2993 RMK AO2 T00900088,,,,,,48.2,,SSW,29.28,29.01,,Partly Cloudy
KIGQ,12/26/2016 15:35 UTC,29.94,48.2,47.66,100.0,16.11,210.0,20.71,,,,,1.0,,,,10.0,,KIGQ 261535Z AUTO 21014G18KT 10SM CLR 09/09 A2994 RMK AO2  T00900087,,,,,,48.2,,SSW,29.29,29.02,,Clear
KIGQ,12/26/2016 15:55 UTC,29.94,48.56,47.66,100.0,16.11,210.0,21.85,,,,,752.0,,,,10.0,,KIGQ 261555Z AUTO 21014G19KT 10SM SCT075 09/09 A2994 RMK AO2  T00920087,,,,,,48.56,,SSW,29.29,29.01,,Partly Cloudy
KIGQ,12/26/2016 16:15 UTC,29.94,49.82,47.48,93.5,13.8,220.0,21.85,,,,,803.0,1103.0,,,10.0,,KIGQ 261615Z AUTO 22012G19KT 10SM BKN080 BKN110 10/09 A2994 RMK AO2 T00990086,,,8000.0,,,48.0,,SW,29.29,29.01,,Mostly Cloudy
KIGQ,12/26/2016 16:35 UTC,29.93,50.18,46.94,87.38,17.27,230.0,23.02,,,,,704.0,,,,10.0,,KIGQ 261635Z AUTO 23015G20KT 10SM OVC070 10/08 A2993 RMK AO2 LTG  DSNT S T01010083,,,7000.0,,,46.54,,SW,29.28,29.05,,Overcast
KIGQ,12/26/2016 16:55 UTC,29.92,50.0,46.4,87.38,14.97,220.0,21.85,,,,,704.0,,,,10.0,,KIGQ 261655Z AUTO 22013G19KT 10SM OVC070 10/08 A2992 RMK AO2 LTG  DSNT S T01000080,,,7000.0,,,46.36,,SW,29.27,29.04,,Overcast
KIGQ,12/26/2016 17:15 UTC,29.9,50.36,46.4,87.38,17.27,220.0,23.02,,,,,653.0,854.0,,,10.0,,KIGQ 261715Z AUTO 22015G20KT 10SM BKN065 OVC085 10/08 A2990 RMK AO2 LTG DSNT S T01020080,,,6500.0,,,46.71,,SW,29.25,29.01,,Overcast
KIGQ,12/26/2016 17:35 UTC,29.9,50.72,46.4,87.38,19.57,230.0,25.32,,,,,753.0,854.0,,,10.0,,KIGQ 261735Z AUTO 23017G22KT 10SM BKN075 OVC085 10/08 A2990 RMK AO2 T01040080,,,7500.0,,,47.07,,SW,29.25,28.99,,Overcast
KIGQ,12/26/2016 17:55 UTC,29.89,50.54,46.22,87.38,20.71,220.0,25.32,,,,,704.0,,0.08,,10.0,,KIGQ 261755Z AUTO 22018G22KT 10SM OVC070 10/08 A2989 RMK AO2 60008  T01030079 10105 20087,50.9,47.66,7000.0,,,46.89,,SW,29.24,28.99,,Overcast
KIGQ,12/26/2016 18:15 UTC,29.89,50.54,46.22,87.38,19.57,230.0,24.16,,,,,704.0,,,,10.0,,KIGQ 261815Z AUTO 23017G21KT 10SM OVC070 10/08 A2989 RMK AO2  T01030079,,,7000.0,,,46.89,,SW,29.24,28.99,,Overcast
KIGQ,12/26/2016 18:35 UTC,29.88,50.9,46.76,81.75,23.02,230.0,29.93,,,,,702.0,854.0,,,10.0,,KIGQ 261835Z AUTO 23020G26KT 10SM SCT070 OVC085 11/08 A2988 RMK AO2 LTG DSNT S T01050082,,,8500.0,,,45.46,,SW,29.23,29.02,,Overcast
KIGQ,12/26/2016 18:55 UTC,29.89,50.9,46.94,81.75,18.41,230.0,27.63,,,,,854.0,,,,10.0,,KIGQ 261855Z AUTO 23016G24KT 10SM OVC085 11/08 A2989 RMK AO2  T01050083,,,8500.0,,,45.46,,SW,29.24,29.03,,Overcast
KIGQ,12/26/2016 19:15 UTC,29.88,51.08,46.58,81.75,23.02,230.0,28.77,,,,,854.0,,,,10.0,,KIGQ 261915Z AUTO 23020G25KT 10SM OVC085 11/08 A2988 RMK AO2  T01060081,,,8500.0,,,45.64,,SW,29.23,29.01,,Overcast
KIGQ,12/26/2016 19:35 UTC,29.88,51.98,47.12,81.75,17.27,240.0,25.32,,,,,852.0,,,,10.0,,KIGQ 261935Z AUTO 24015G22KT 10SM SCT085 11/08 A2988 RMK AO2  T01110084,,,,,,46.52,,WSW,29.23,28.98,,Partly Cloudy
KIGQ,12/26/2016 19:55 UTC,29.87,52.7,46.22,76.52,25.32,240.0,33.38,,,,,1.0,,,,10.0,,KIGQ 261955Z AUTO 24022G29KT 10SM CLR 12/08 A2987 RMK AO2  T01150079,,,,,,45.45,,WSW,29.22,28.99,,Clear
KIGQ,12/26/2016 20:15 UTC,29.87,52.7,43.88,71.47,25.32,240.0,35.68,,,,,1.0,,,,10.0,,KIGQ 262015Z AUTO 24022G31KT 10SM CLR 12/07 A2987 RMK AO2  T01150066,,,,,,43.64,,WSW,29.22,29.05,,Clear
KIGQ,12/26/2016 20:35 UTC,29.88,52.16,43.52,71.27,17.27,240.0,31.07,,,,,1.0,,,,10.0,,KIGQ 262035Z AUTO 24015G27KT 10SM CLR 11/06 A2988 RMK AO2  T01120064,,,,,,43.05,,WSW,29.23,29.08,,Clear
KIGQ,12/26/2016 20:55 UTC,29.89,51.98,41.18,66.49,24.16,250.0,31.07,,,,,1.0,,,,10.0,,KIGQ 262055Z AUTO 25021G27KT 10SM CLR 11/05 A2989 RMK AO2  T01110051,,,,,,41.06,,WSW,29.24,29.14,,Clear
KIGQ,12/26/2016 21:15 UTC,29.89,51.44,37.76,57.78,23.02,230.0,32.21,,,,,1.0,,,,10.0,,KIGQ 262115Z AUTO 23020G28KT 10SM CLR 11/03 A2989 RMK AO2  T01080032,,,,,,36.92,,SW,29.24,29.24,,Clear
KIGQ,12/26/2016 21:35 UTC,29.9,50.72,37.76,61.76,19.57,240.0,31.07,,,,,1.0,,,,10.0,,KIGQ 262135Z AUTO 24017G27KT 10SM CLR 10/03 A2990 RMK AO2  T01040032,,,,,,37.95,,WSW,29.25,29.24,,Clear
KIGQ,12/26/2016 21:55 UTC,29.9,49.82,37.58,61.76,14.97,230.0,21.85,,,,,1.0,,,,10.0,,KIGQ 262155Z AUTO 23013G19KT 10SM CLR 10/03 A2990 RMK AO2  T00990031,,,,,,37.1,,SW,29.25,29.26,,Clear
KIGQ,12/26/2016 22:15 UTC,29.9,49.1,33.44,53.53,23.02,230.0,31.07,,,,,1.0,,,,10.0,,KIGQ 262215Z AUTO 23020G27KT 10SM CLR 10/01 A2990 RMK AO2  T00950008,,,,,,32.79,,SW,29.25,29.35,,Clear
KIGQ,12/26/2016 22:35 UTC,29.91,47.48,32.36,53.26,19.57,240.0,31.07,,,,,1.0,,,,10.0,,KIGQ 262235Z AUTO 24017G27KT 10SM CLR 09/00 A2991 RMK AO2  T00860002,,,,,,31.16,,WSW,29.26,29.4,,Clear
KIGQ,12/26/2016 22:55 UTC,29.92,46.76,32.36,56.99,19.57,240.0,28.77,,,,,1.0,,,,10.0,,KIGQ 262255Z AUTO 24017G25KT 10SM CLR 08/00 A2992 RMK AO2 LTG DSNT  SW T00820002,,,,,,32.18,,WSW,29.27,29.4,,Clear
KIGQ,12/26/2016 23:15 UTC,29.92,45.5,32.0,56.99,24.16,250.0,29.93,,,,,1.0,,,,10.0,,KIGQ 262315Z AUTO 25021G26KT 10SM CLR 08/00 A2992 RMK AO2  T00750000,,,,,,30.99,,WSW,29.27,29.43,,Clear
KIGQ,12/26/2016 23:35 UTC,29.93,44.42,32.18,61.02,17.27,250.0,25.32,,,,,1.0,,,,10.0,,KIGQ 262335Z AUTO 25015G22KT 10SM CLR 07/00 A2993 RMK AO2  T00690001,,,,,,31.68,38.85,WSW,29.28,29.44,,Clear
KIGQ,12/26/2016 23:55 UTC,29.94,43.52,32.72,65.37,16.11,250.0,25.32,,,,,1.0,,,,10.0,,KIGQ 262355Z AUTO 25014G22KT 10SM CLR 06/00 A2994 RMK AO2  T00640004 10115 20064,52.7,43.52,,,,32.55,38.0,WSW,29.29,29.44,,Clear
KIGQ,12/27/2016 00:15 UTC,29.96,42.26,32.18,65.37,21.85,260.0,32.21,,,,,1.0,,,,10.0,,KIGQ 270015Z AUTO 26019G28KT 10SM CLR 06/00 A2996 RMK AO2  T00570001,,,,,,31.35,35.16,W,29.31,29.49,,Clear
KIGQ,12/27/2016 00:35 UTC,29.97,40.1,31.1,70.06,16.11,270.0,24.16,,,,,1.0,,,,10.0,,KIGQ 270035Z AUTO 27014G21KT 10SM CLR 05/00 A2997 RMK AO2  T00451005,,,,,,31.01,33.76,W,29.32,29.52,,Clear
KIGQ,12/27/2016 00:55 UTC,29.98,39.38,27.32,61.64,23.02,270.0,32.21,,,,,1.0,,,,10.0,,KIGQ 270055Z AUTO 27020G28KT 10SM CLR 04/M03 A2998 RMK AO2  T00411026,,,,,,27.16,31.26,W,29.33,29.59,,Clear
KIGQ,12/27/2016 01:15 UTC,29.99,38.12,26.42,64.66,21.85,270.0,35.68,,,,,1.0,,,,10.0,,KIGQ 270115Z AUTO 27019G31KT 10SM CLR 03/M03 A2999 RMK AO2  T00341031,,,,,,27.13,29.9,W,29.34,29.61,,Clear
KIGQ,12/27/2016 01:35 UTC,30.0,36.86,25.7,64.66,20.71,270.0,34.52,,,,,1.0,,,,10.0,,KIGQ 270135Z AUTO 27018G30KT 10SM CLR 03/M03 A3000 RMK AO2 LTG  DSNT S T00271035,,,,,,25.93,28.56,W,29.35,29.64,,Clear
KIGQ,12/27/2016 01:55 UTC,30.01,35.6,25.52,64.42,18.41,280.0,29.93,,,,,1.0,,,,10.0,,KIGQ 270155Z AUTO 28016G26KT 10SM CLR 02/M04 A3001 RMK AO2  T00201036,,,,,,24.64,27.55,W,29.36,29.67,,Clear
KIGQ,12/27/2016 02:15 UTC,30.01,34.7,25.52,64.42,21.85,270.0,31.07,,,,,1.0,,,,10.0,,KIGQ 270215Z AUTO 27019G27KT 10SM CLR 02/M04 A3001 RMK AO2  T00151036,,,,,,23.79,25.56,W,29.36,29.69,,Clear
KIGQ,12/27/2016 02:35 UTC,30.02,33.98,25.16,69.22,21.85,270.0,31.07,,,,,1.0,,,,10.0,,KIGQ 270235Z AUTO 27019G27KT 10SM CLR 01/M04 A3002 RMK AO2  T00111038,,,,,,24.84,24.65,W,29.37,29.69,,Clear
KIGQ,12/27/2016 02:55 UTC,30.04,33.44,25.7,74.6,19.57,270.0,27.63,,,,,1.0,,,,10.0,,KIGQ 270255Z AUTO 27017G24KT 10SM CLR 01/M03 A3004 RMK AO2  T00081035,,,,,,26.14,24.53,W,29.39,29.7,,Clear
KIGQ,12/27/2016 03:15 UTC,30.05,32.54,25.52,74.41,19.57,280.0,27.63,,,,,1.0,,,,10.0,,KIGQ 270315Z AUTO 28017G24KT 10SM CLR 00/M04 A3005 RMK AO2 LTG  DSNT S T00031036,,,,,,25.21,23.4,W,29.4,29.72,,Clear
KIGQ,12/27/2016 03:35 UTC,30.06,32.0,24.26,74.41,17.27,270.0,26.46,,,,,312.0,,,,10.0,,KIGQ 270335Z AUTO 27015G23KT 10SM SCT031 00/M04 A3006 RMK AO2  T00001043,,,,,,24.69,23.37,W,29.41,29.74,,Partly Cloudy
KIGQ,12/27/2016 03:55 UTC,30.06,31.82,23.9,74.41,19.57,270.0,29.93,,,,,312.0,,,,10.0,,KIGQ 270355Z AUTO 27017G26KT 10SM SCT031 00/M04 A3006 RMK AO2  T10011045,,,,,,24.51,22.49,W,29.41,29.75,,Partly Cloudy
KIGQ,12/27/2016 04:15 UTC,30.07,31.46,23.54,69.0,25.32,270.0,33.38,,,,,312.0,,,,10.0,,KIGQ 270415Z AUTO 27022G29KT 10SM SCT031 00/M05 A3007 RMK AO2  T10031047,,,,,,22.34,20.64,W,29.42,29.78,,Partly Cloudy
KIGQ,12/27/2016 04:35 UTC,30.07,31.1,23.36,69.0,18.41,260.0,26.46,,,,,313.0,,,,10.0,,KIGQ 270435Z AUTO 26016G23KT 10SM BKN031 00/M05 A3007 RMK AO2  T10051048,,,3100.0,,,22.0,21.91,W,29.42,29.79,,Mostly Cloudy
KIGQ,12/27/2016 04:55 UTC,30.07,30.92,23.0,74.22,19.57,280.0,28.77,,,,,312.0,,,,10.0,,KIGQ 270455Z AUTO 28017G25KT 10SM SCT031 M01/M05 A3007 RMK AO2  T10061050,,,,,,23.58,21.36,W,29.42,29.77,,Partly Cloudy
KIGQ,12/27/2016 05:15 UTC,30.08,30.38,21.92,68.78,23.02,280.0,31.07,,,,,312.0,,,,10.0,,KIGQ 270515Z AUTO 28020G27KT 10SM SCT031 M01/M06 A3008 RMK AO2  T10091056,,,,,,21.23,19.78,W,29.43,29.81,,Partly Cloudy
KIGQ,12/27/2016 05:35 UTC,30.08,30.2,21.74,68.78,14.97,280.0,28.77,,,,,1.0,,,,10.0,,KIGQ 270535Z AUTO 28013G25KT 10SM CLR M01/M06 A3008 RMK AO2  T10101057,,,,,,21.06,21.88,W,29.43,29.81,,Clear
KIGQ,12/27/2016 05:55 UTC,30.08,30.02,22.1,74.22,10.36,270.0,23.02,,,,,1.0,,,,10.0,,KIGQ 270555Z AUTO 27009G20KT 10SM CLR M01/M05 A3008 RMK AO2  T10111055 10064 21011 401171011,43.52,30.02,,53.06,30.02,22.71,23.53,W,29.43,29.8,,Clear
KIGQ,12/27/2016 06:15 UTC,30.08,29.3,22.82,74.22,16.11,270.0,21.85,,,,,1.0,,,,10.0,,KIGQ 270615Z AUTO 27014G19KT 10SM CLR M01/M05 A3008 RMK AO2  T10151051,,,,,,22.01,20.38,W,29.43,29.81,,Clear
KIGQ,12/27/2016 06:35 UTC,30.08,29.66,22.46,74.22,17.27,270.0,23.02,,,,,1.0,,,,10.0,,KIGQ 270635Z AUTO 27015G20KT 10SM CLR M01/M05 A3008 RMK AO2  T10131053,,,,,,22.36,20.45,W,29.43,29.8,,Clear
KIGQ,12/27/2016 06:55 UTC,30.08,29.3,21.74,68.78,21.85,270.0,26.46,,,,,1.0,,,,10.0,,KIGQ 270655Z AUTO 27019G23KT 10SM CLR M01/M06 A3008 RMK AO2  T10151057,,,,,,20.2,18.7,W,29.43,29.83,,Clear
KIGQ,12/27/2016 07:15 UTC,30.08,29.3,21.2,68.78,18.41,280.0,27.63,,,,,1.0,,,,10.0,,KIGQ 270715Z AUTO 28016G24KT 10SM CLR M01/M06 A3008 RMK AO2  T10151060,,,,,,20.2,19.65,W,29.43,29.83,,Clear
KIGQ,12/27/2016 07:35 UTC,30.09,28.94,21.2,74.03,18.41,270.0,26.46,,,,,1.0,,,,10.0,,KIGQ 270735Z AUTO 27016G23KT 10SM CLR M02/M06 A3009 RMK AO2  T10171060,,,,,,21.6,19.2,W,29.44,29.82,,Clear
KIGQ,12/27/2016 07:55 UTC,30.1,28.58,21.02,74.03,12.66,270.0,,,,,,1.0,,,,10.0,,KIGQ 270755Z AUTO 27011KT 10SM CLR M02/M06 A3010 RMK AO2  T10191061,,,,,,21.26,20.77,W,29.45,29.84,,Clear
KIGQ,12/27/2016 08:15 UTC,30.11,28.22,21.2,74.03,13.8,280.0,,,,,,1.0,,,,10.0,,KIGQ 270815Z AUTO 28012KT 10SM CLR M02/M06 A3011 RMK AO2  T10211060,,,,,,20.91,19.88,W,29.46,29.86,,Clear
KIGQ,12/27/2016 08:35 UTC,30.11,28.22,21.02,74.03,17.27,280.0,23.02,,,,,282.0,,,,10.0,,KIGQ 270835Z AUTO 28015G20KT 10SM SCT028 M02/M06 A3011 RMK AO2  T10211061,,,,,,20.91,18.66,W,29.46,29.86,,Partly Cloudy
KIGQ,12/27/2016 08:55 UTC,30.11,27.86,20.66,74.03,14.97,280.0,28.77,,,,,1.0,,,,10.0,,KIGQ 270855Z AUTO 28013G25KT 10SM CLR M02/M06 A3011 RMK AO2  T10231063,,,,,,20.56,18.99,W,29.46,29.86,,Clear
KIGQ,12/27/2016 09:15 UTC,30.11,27.5,20.84,74.03,11.5,280.0,18.41,,,,,262.0,,,,10.0,,KIGQ 270915Z AUTO 28010G16KT 10SM SCT026 M02/M06 A3011 RMK AO2  T10251062,,,,,,20.21,19.97,W,29.46,29.87,,Partly Cloudy
KIGQ,12/27/2016 09:35 UTC,30.11,27.14,21.02,79.74,11.5,280.0,17.27,,,,,262.0,,,,10.0,,KIGQ 270935Z AUTO 28010G15KT 10SM SCT026 M03/M06 A3011 RMK AO2  T10271061,,,,,,21.64,19.53,W,29.46,29.85,,Partly Cloudy
KIGQ,12/27/2016 09:55 UTC,30.11,26.6,21.02,79.74,11.5,270.0,,,,,,1.0,,,,10.0,,KIGQ 270955Z AUTO 27010KT 10SM CLR M03/M06 A3011 RMK AO2  T10301061,,,,,,21.11,18.88,W,29.46,29.86,,Clear
KIGQ,12/27/2016 10:15 UTC,30.12,26.6,21.02,79.74,9.22,280.0,,,,,,1.0,,,,10.0,,KIGQ 271015Z AUTO 28008KT 10SM CLR M03/M06 A3012 RMK AO2  T10301061,,,,,,21.11,20.04,W,29.47,29.87,,Clear
KIGQ,12/27/2016 10:35 UTC,30.11,26.42,21.02,79.74,10.36,270.0,,,,,,1.0,,,,10.0,,KIGQ 271035Z AUTO 27009KT 10SM CLR M03/M06 A3011 RMK AO2  T10311061,,,,,,20.93,19.22,W,29.46,29.86,,Clear
KIGQ,12/27/2016 10:55 UTC,30.12,26.24,21.2,79.74,9.22,270.0,,,,,,1.0,,,,10.0,,KIGQ 271055Z AUTO 27008KT 10SM CLR M03/M06 A3012 RMK AO2  T10321060,,,,,,20.76,19.61,W,29.47,29.88,,Clear
KIGQ,12/27/2016 11:15 UTC,30.13,26.06,21.2,79.74,10.36,270.0,,,,,,1.0,,,,10.0,,KIGQ 271115Z AUTO 27009KT 10SM CLR M03/M06 A3013 RMK AO2  T10331060,,,,,,20.58,18.79,W,29.47,29.88,,Clear
KIGQ,12/27/2016 11:35 UTC,30.12,26.24,21.2,79.74,9.22,270.0,,,,,,1.0,,,,10.0,,KIGQ 271135Z AUTO 27008KT 10SM CLR M03/M06 A3012 RMK AO2  T10321060,,,,,,20.76,19.61,W,29.47,29.88,,Clear
KIGQ,12/27/2016 11:55 UTC,30.13,25.7,21.38,79.74,8.05,260.0,,,,,,222.0,,,0.08,10.0,,KIGQ 271155Z AUTO 26007KT 10SM SCT022 M03/M06 A3013 RMK AO2 70008  T10351059 11012 21035,29.84,25.7,,,,20.23,19.68,W,29.47,29.89,,Partly Cloudy
KIGQ,12/27/2016 12:15 UTC,30.13,26.06,22.1,86.04,9.22,250.0,,,,,,223.0,,,,10.0,,KIGQ 271215Z AUTO 25008KT 10SM BKN022 M03/M05 A3013 RMK AO2  T10331055,,,2200.0,,,22.41,19.4,WSW,29.47,29.86,,Mostly Cloudy
KIGQ,12/27/2016 12:35 UTC,30.13,26.42,21.74,79.74,18.41,260.0,21.85,,,,,222.0,,,,10.0,,KIGQ 271235Z AUTO 26016G19KT 10SM SCT022 M03/M06 A3013 RMK AO2  T10311057,,,,,,20.93,16.04,W,29.47,29.87,,Partly Cloudy
KIGQ,12/27/2016 12:55 UTC,30.14,26.06,21.2,79.74,12.66,270.0,17.27,,,,,1.0,,,,10.0,,KIGQ 271255Z AUTO 27011G15KT 10SM CLR M03/M06 A3014 RMK AO2  T10331060,,,,,,20.58,17.71,W,29.48,29.89,,Clear
KIGQ,12/27/2016 13:15 UTC,30.14,25.7,21.56,79.74,10.36,260.0,,,,,,1.0,,,,10.0,,KIGQ 271315Z AUTO 26009KT 10SM CLR M03/M06 A3014 RMK AO2  T10351058,,,,,,20.23,18.36,W,29.48,29.9,,Clear
KIGQ,12/27/2016 13:35 UTC,30.14,25.88,21.74,79.74,13.8,270.0,19.57,,,,,1.0,,,,10.0,,KIGQ 271335Z AUTO 27012G17KT 10SM CLR M03/M06 A3014 RMK AO2  T10341057,,,,,,20.41,17.01,W,29.48,29.89,,Clear
KIGQ,12/27/2016 13:55 UTC,30.14,26.24,21.92,79.74,12.66,260.0,,,,,,1.0,,,,10.0,,KIGQ 271355Z AUTO 26011KT 10SM CLR M03/M06 A3014 RMK AO2  T10321056,,,,,,20.76,17.93,W,29.48,29.89,,Clear
KIGQ,12/27/2016 14:15 UTC,30.15,26.96,22.1,86.04,13.8,260.0,17.27,,,,,1.0,,,,10.0,,KIGQ 271415Z AUTO 26012G15KT 10SM CLR M03/M05 A3015 RMK AO2  T10281055,,,,,,23.29,18.33,W,29.49,29.87,,Clear
KIGQ,12/27/2016 14:35 UTC,30.16,27.5,22.46,79.89,13.8,260.0,20.71,,,,,1.0,,,,10.0,,KIGQ 271435Z AUTO 26012G18KT 10SM CLR M02/M05 A3016 RMK AO2  T10251053,,,,,,22.03,18.99,W,29.5,29.89,,Clear
KIGQ,12/27/2016 14:55 UTC,30.15,28.22,22.82,79.89,17.27,260.0,23.02,,,,,1.0,,,,10.0,,KIGQ 271455Z AUTO 26015G20KT 10SM CLR M02/M05 A3015 RMK AO2  T10211051,,,,,,22.73,18.66,W,29.49,29.87,,Clear
KIGQ,12/27/2016 15:15 UTC,30.14,28.76,22.82,79.89,12.66,260.0,19.57,,,,,1.0,,,,10.0,,KIGQ 271515Z AUTO 26011G17KT 10SM CLR M02/M05 A3014 RMK AO2  T10181051,,,,,,23.26,20.99,W,29.48,29.85,,Clear
KIGQ,12/27/2016 15:35 UTC,30.14,29.66,23.0,74.22,16.11,260.0,20.71,,,,,1.0,,,,10.0,,KIGQ 271535Z AUTO 26014G18KT 10SM CLR M01/M05 A3014 RMK AO2  T10131050,,,,,,22.36,20.82,W,29.48,29.85,,Clear
KIGQ,12/27/2016 15:55 UTC,30.14,30.2,23.0,74.22,17.27,260.0,21.85,,,,,1.0,,,,10.0,,KIGQ 271555Z AUTO 26015G19KT 10SM CLR M01/M05 A3014 RMK AO2  T10101050,,,,,,22.88,21.12,W,29.48,29.85,,Clear
KIGQ,12/27/2016 16:15 UTC,30.14,30.92,23.18,74.22,14.97,250.0,19.57,,,,,1.0,,,,10.0,,KIGQ 271615Z AUTO 25013G17KT 10SM CLR M01/M05 A3014 RMK AO2  T10061049,,,,,,23.58,22.77,WSW,29.48,29.83,,Clear
KIGQ,12/27/2016 16:35 UTC,30.15,31.28,23.54,69.0,18.41,270.0,24.16,,,,,1.0,,,,10.0,,KIGQ 271635Z AUTO 27016G21KT 10SM CLR 00/M05 A3015 RMK AO2  T10041047,,,,,,22.17,22.13,W,29.49,29.86,,Clear
KIGQ,12/27/2016 16:55 UTC,30.13,32.0,24.08,74.41,12.66,260.0,,,,,,232.0,,,,10.0,,KIGQ 271655Z AUTO 26011KT 10SM SCT023 00/M04 A3013 RMK AO2  T00001044,,,,,,24.69,24.93,W,29.47,29.8,,Partly Cloudy
KIGQ,12/27/2016 17:15 UTC,30.14,32.0,23.9,74.41,17.27,270.0,,,,,,1.0,,,,10.0,,KIGQ 271715Z AUTO 27015KT 10SM CLR 00/M04 A3014 RMK AO2  T00001045,,,,,,24.69,23.37,W,29.48,29.81,,Clear
KIGQ,12/27/2016 17:35 UTC,30.13,32.0,23.72,69.0,18.41,270.0,25.32,,,,,242.0,,,,10.0,,KIGQ 271735Z AUTO 27016G22KT 10SM SCT024 00/M05 A3013 RMK AO2  T00001046,,,,,,22.86,23.04,W,29.47,29.83,,Partly Cloudy
KIGQ,12/27/2016 17:55 UTC,30.13,32.0,23.72,69.0,14.97,280.0,24.16,,,,,242.0,,,,10.0,,KIGQ 271755Z AUTO 28013G21KT 10SM SCT024 00/M05 A3013 RMK AO2  T00001046 10001 21036,32.18,25.52,,,,22.86,24.1,W,29.47,29.83,,Partly Cloudy
KIGQ,12/27/2016 18:15 UTC,30.13,32.0,24.62,74.41,16.11,260.0,24.16,,,,,243.0,,,,10.0,,KIGQ 271815Z AUTO 26014G21KT 10SM BKN024 00/M04 A3013 RMK AO2  T00001041,,,2400.0,,,24.69,23.72,W,29.47,29.8,,Mostly Cloudy
KIGQ,12/27/2016 18:35 UTC,30.11,32.54,25.16,74.41,10.36,260.0,16.11,,,,,243.0,,,,10.0,,KIGQ 271835Z AUTO 26009G14KT 10SM BKN024 00/M04 A3011 RMK AO2  T00031038,,,2400.0,,,25.21,26.55,W,29.46,29.79,,Mostly Cloudy
KIGQ,12/27/2016 18:55 UTC,30.13,32.36,25.16,74.41,16.11,270.0,23.02,,,,,222.0,,,,10.0,,KIGQ 271855Z AUTO 27014G20KT 10SM SCT022 00/M04 A3013 RMK AO2  T00021038,,,,,,25.04,24.17,W,29.47,29.8,,Partly Cloudy
KIGQ,12/27/2016 19:15 UTC,30.12,32.9,24.98,69.22,12.66,280.0,20.71,,,,,242.0,,,,10.0,,KIGQ 271915Z AUTO 28011G18KT 10SM SCT024 01/M04 A3012 RMK AO2  T00051039,,,,,,23.8,26.03,W,29.47,29.81,,Partly Cloudy
KIGQ,12/27/2016 19:35 UTC,30.11,33.08,25.16,69.22,13.8,280.0,,,,,,242.0,,,,10.0,,KIGQ 271935Z AUTO 28012KT 10SM SCT024 01/M04 A3011 RMK AO2  T00061038,,,,,,23.98,25.83,W,29.46,29.8,,Partly Cloudy
KIGQ,12/27/2016 19:55 UTC,30.12,32.9,24.98,69.22,17.27,280.0,25.32,,,,,242.0,,,,10.0,,KIGQ 271955Z AUTO 28015G22KT 10SM SCT024 01/M04 A3012 RMK AO2  T00051039,,,,,,23.8,24.49,W,29.47,29.81,,Partly Cloudy
KIGQ,12/27/2016 20:15 UTC,30.13,32.72,24.98,74.41,14.97,270.0,23.02,,,,,242.0,,,,10.0,,KIGQ 272015Z AUTO 27013G20KT 10SM SCT024 00/M04 A3013 RMK AO2  T00041039,,,,,,25.38,24.98,W,29.47,29.79,,Partly Cloudy
KIGQ,12/27/2016 20:35 UTC,30.13,32.9,25.16,69.22,12.66,280.0,18.41,,,,,242.0,,,,10.0,,KIGQ 272035Z AUTO 28011G16KT 10SM SCT024 01/M04 A3013 RMK AO2  T00051038,,,,,,23.8,26.03,W,29.47,29.81,,Partly Cloudy
KIGQ,12/27/2016 20:55 UTC,30.13,32.18,24.62,74.41,18.41,270.0,25.32,,,,,1.0,,,,10.0,,KIGQ 272055Z AUTO 27016G22KT 10SM CLR 00/M04 A3013 RMK AO2  T00011041,,,,,,24.86,23.26,W,29.47,29.8,,Clear
KIGQ,12/27/2016 21:15 UTC,30.13,32.0,24.8,74.41,12.66,260.0,20.71,,,,,1.0,,,,10.0,,KIGQ 272115Z AUTO 26011G18KT 10SM CLR 00/M04 A3013 RMK AO2  T00001040,,,,,,24.69,24.93,W,29.47,29.8,,Clear
KIGQ,12/27/2016 21:35 UTC,30.14,32.0,24.98,74.41,11.5,270.0,18.41,,,,,252.0,,,,10.0,,KIGQ 272135Z AUTO 27010G16KT 10SM SCT025 00/M04 A3014 RMK AO2  T00001039,,,,,,24.69,25.4,W,29.48,29.81,,Partly Cloudy
KIGQ,12/27/2016 21:55 UTC,30.14,31.46,24.98,74.41,13.8,270.0,19.57,,,,,232.0,,,,10.0,,KIGQ 272155Z AUTO 27012G17KT 10SM SCT023 00/M04 A3014 RMK AO2  T10031039,,,,,,24.16,23.84,W,29.48,29.82,,Partly Cloudy
KIGQ,12/27/2016 22:15 UTC,30.15,30.74,24.08,80.04,11.5,280.0,23.02,,,,,232.0,,,,10.0,,KIGQ 272215Z AUTO 28010G20KT 10SM SCT023 M01/M04 A3015 RMK AO2  T10071044,,,,,,25.24,23.88,W,29.49,29.83,,Partly Cloudy
KIGQ,12/27/2016 22:35 UTC,30.16,30.02,23.9,80.04,11.5,280.0,17.27,,,,,1.0,,,,10.0,,KIGQ 272235Z AUTO 28010G15KT 10SM CLR M01/M04 A3016 RMK AO2  T10111045,,,,,,24.54,23.01,W,29.5,29.85,,Clear
KIGQ,12/27/2016 22:55 UTC,30.16,29.48,24.44,80.04,9.22,270.0,,,,,,1.0,,,,10.0,,KIGQ 272255Z AUTO 27008KT 10SM CLR M01/M04 A3016 RMK AO2  T10141042,,,,,,24.01,23.46,W,29.5,29.86,,Clear
KIGQ,12/27/2016 23:15 UTC,30.16,28.76,24.44,86.15,8.05,270.0,,,,,,1.0,,,,10.0,,KIGQ 272315Z AUTO 27007KT 10SM CLR M02/M04 A3016 RMK AO2  T10181042,,,,,,25.09,23.27,W,29.5,29.85,,Clear
KIGQ,12/27/2016 23:35 UTC,30.16,27.86,24.08,86.15,6.91,260.0,,,,,,1.0,,,,10.0,,KIGQ 272335Z AUTO 26006KT 10SM CLR M02/M04 A3016 RMK AO2  T10231044,,,,,,24.21,,W,29.5,29.86,,Clear
KIGQ,12/27/2016 23:55 UTC,30.16,27.68,24.44,86.15,5.75,270.0,,,,,,1.0,,,,10.0,,KIGQ 272355Z AUTO 27005KT 10SM CLR M02/M04 A3016 RMK AO2 T10241042  10007 21027,33.26,27.14,,,,24.03,,W,29.5,29.87,,Clear
KIGQ,12/28/2016 00:15 UTC,30.16,26.6,23.9,92.79,4.61,270.0,,,,,,1.0,,,,10.0,,KIGQ 280015Z AUTO 27004KT 10SM CLR M03/M04 A3016 RMK AO2  T10301045,,,,,,24.77,,W,29.5,29.87,,Clear
KIGQ,12/28/2016 00:35 UTC,30.16,26.96,24.08,92.79,0.0,0.0,,,,,,1.0,,,,10.0,,KIGQ 280035Z AUTO 00000KT 10SM CLR M03/M04 A3016 RMK AO2  T10281044,,,,,,25.13,,N,29.5,29.86,,Clear
KIGQ,12/28/2016 00:55 UTC,30.16,27.14,24.08,92.79,4.61,250.0,,,,,,1.0,,,,10.0,,KIGQ 280055Z AUTO 25004KT 10SM CLR M03/M04 A3016 RMK AO2  T10271044,,,,,,25.3,,WSW,29.5,29.86,,Clear
KIGQ,12/28/2016 01:15 UTC,30.16,26.6,23.9,92.79,4.61,250.0,,,,,,1.0,,,,10.0,,KIGQ 280115Z AUTO 25004KT 10SM CLR M03/M04 A3016 RMK AO2  T10301045,,,,,,24.77,,WSW,29.5,29.87,,Clear
KIGQ,12/28/2016 01:35 UTC,30.16,26.06,23.54,86.04,5.75,250.0,,,,,,1.0,,,,10.0,,KIGQ 280135Z AUTO 25005KT 10SM CLR M03/M05 A3016 RMK AO2  T10331047,,,,,,22.41,,WSW,29.5,29.89,,Clear
KIGQ,12/28/2016 01:55 UTC,30.17,26.24,23.9,92.79,3.44,270.0,,,,,,1.0,,,,10.0,,KIGQ 280155Z AUTO 27003KT 10SM CLR M03/M04 A3017 RMK AO2  T10321045,,,,,,24.41,,W,29.51,29.88,,Clear
KIGQ,12/28/2016 02:15 UTC,30.17,26.24,23.72,86.04,3.44,260.0,,,,,,1.0,,,,10.0,,KIGQ 280215Z AUTO 26003KT 10SM CLR M03/M05 A3017 RMK AO2  T10321046,,,,,,22.58,,W,29.51,29.9,,Clear
KIGQ,12/28/2016 02:35 UTC,30.17,26.24,23.72,86.04,4.61,250.0,,,,,,1.0,,,,10.0,,KIGQ 280235Z AUTO 25004KT 10SM CLR M03/M05 A3017 RMK AO2  T10321046,,,,,,22.58,,WSW,29.51,29.9,,Clear
KIGQ,12/28/2016 02:55 UTC,30.17,26.24,24.26,92.79,0.0,0.0,,,,,,1.0,,,,10.0,,KIGQ 280255Z AUTO 00000KT 10SM CLR M03/M04 A3017 RMK AO2  T10321043,,,,,,24.41,,N,29.51,29.88,,Clear
KIGQ,12/28/2016 03:15 UTC,30.17,25.7,23.9,92.79,0.0,0.0,,,,,,1.0,,,,10.0,,KIGQ 280315Z AUTO 00000KT 10SM CLR M03/M04 A3017 RMK AO2  T10351045,,,,,,23.88,,N,29.51,29.89,,Clear
KIGQ,12/28/2016 03:35 UTC,30.17,24.98,23.9,100.0,0.0,0.0,,,,,,1.0,,,,10.0,,KIGQ 280335Z AUTO 00000KT 10SM CLR M04/M04 A3017 RMK AO2  T10391045,,,,,,24.98,,N,29.51,29.88,,Clear
KIGQ,12/28/2016 03:55 UTC,30.18,24.44,23.72,92.73,0.0,0.0,,,,,,1.0,,,,10.0,,KIGQ 280355Z AUTO 00000KT 10SM CLR M04/M05 A3018 RMK AO2  T10421046,,,,,,22.61,,N,29.52,29.92,,Clear
KIGQ,12/28/2016 04:15 UTC,30.18,24.44,23.54,92.73,0.0,0.0,,,,,,1.0,,,,10.0,,KIGQ 280415Z AUTO 00000KT 10SM CLR M04/M05 A3018 RMK AO2  T10421047,,,,,,22.61,,N,29.52,29.92,,Clear
KIGQ,12/28/2016 04:35 UTC,30.17,24.62,23.72,92.73,0.0,0.0,,,,,,1.0,,,,10.0,,KIGQ 280435Z AUTO 00000KT 10SM CLR M04/M05 A3017 RMK AO2  T10411046,,,,,,22.79,,N,29.51,29.91,,Clear
KIGQ,12/28/2016 04:55 UTC,30.17,22.64,21.74,92.67,0.0,0.0,,,,,,1.0,,,,10.0,,KIGQ 280455Z AUTO 00000KT 10SM CLR M05/M06 A3017 RMK AO2  T10521057,,,,,,20.81,,N,29.51,29.94,,Clear
KIGQ,12/28/2016 05:15 UTC,30.17,22.28,22.1,100.0,0.0,0.0,,,,,,1.0,,,,10.0,,KIGQ 280515Z AUTO 00000KT 10SM CLR M05/M05 A3017 RMK AO2  T10541055,,,,,,22.28,,N,29.51,29.93,,Clear
KIGQ,12/28/2016 05:35 UTC,30.18,21.74,21.56,100.0,0.0,0.0,,,,,,1.0,,,,10.0,,KIGQ 280535Z AUTO 00000KT 10SM CLR M06/M06 A3018 RMK AO2  T10571058,,,,,,21.74,,N,29.52,29.94,,Clear
KIGQ,12/28/2016 05:55 UTC,30.17,20.66,20.48,100.0,0.0,0.0,,,,,,1.0,,,,10.0,,KIGQ 280555Z AUTO 00000KT 10SM CLR M06/M06 A3017 RMK AO2 T10631064  11025 21063 400071063,27.5,20.66,,33.26,20.66,20.66,,N,29.51,29.95,,Clear
KIGQ,12/28/2016 06:15 UTC,30.17,21.56,21.38,100.0,0.0,0.0,,,,,,1.0,,,,10.0,,KIGQ 280615Z AUTO 00000KT 10SM CLR M06/M06 A3017 RMK AO2  T10581059,,,,,,21.56,,N,29.51,29.94,,Clear
KIGQ,12/28/2016 06:35 UTC,30.17,21.2,21.2,100.0,0.0,0.0,,,,,,1.0,,,,10.0,,KIGQ 280635Z AUTO 00000KT 10SM CLR M06/M06 A3017 RMK AO2  T10601060,,,,,,21.2,,N,29.51,29.94,,Clear
KIGQ,12/28/2016 06:55 UTC,30.17,22.46,22.46,100.0,0.0,0.0,,,,,,1.0,,,,10.0,,KIGQ 280655Z AUTO 00000KT 10SM CLR M05/M05 A3017 RMK AO2  T10531053,,,,,,22.46,,N,29.51,29.92,,Clear
KIGQ,12/28/2016 07:15 UTC,30.16,22.64,22.46,100.0,3.44,110.0,,,,,,1.0,,,,10.0,,KIGQ 280715Z AUTO 11003KT 10SM CLR M05/M05 A3016 RMK AO2  T10521053,,,,,,22.64,,ESE,29.5,29.91,,Clear
KIGQ,12/28/2016 07:35 UTC,30.17,21.74,21.38,100.0,0.0,0.0,,,,,,1.0,,,,10.0,,KIGQ 280735Z AUTO 00000KT 10SM CLR M06/M06 A3017 RMK AO2  T10571059,,,,,,21.74,,N,29.51,29.93,,Clear
KIGQ,12/28/2016 07:55 UTC,30.17,22.46,22.28,100.0,0.0,0.0,,,,,,1.0,,,,10.0,,KIGQ 280755Z AUTO 00000KT 10SM CLR M05/M05 A3017 RMK AO2  T10531054,,,,,,22.46,,N,29.51,29.92,,Clear
KIGQ,12/28/2016 08:15 UTC,30.17,21.74,21.56,100.0,0.0,0.0,,,,,,1.0,,,,10.0,,KIGQ 280815Z AUTO 00000KT 10SM CLR M06/M06 A3017 RMK AO2  T10571058,,,,,,21.74,,N,29.51,29.93,,Clear
KIGQ,12/28/2016 08:35 UTC,30.16,21.38,21.38,100.0,3.44,140.0,,,,,,1.0,,,,10.0,,KIGQ 280835Z AUTO 14003KT 10SM CLR M06/M06 A3016 RMK AO2  T10591059,,,,,,21.38,,SE,29.5,29.93,,Clear
KIGQ,12/28/2016 08:55 UTC,30.17,21.38,21.2,100.0,0.0,0.0,,,,,,1.0,,,,10.0,,KIGQ 280855Z AUTO 00000KT 10SM CLR M06/M06 A3017 RMK AO2  T10591060,,,,,,21.38,,N,29.51,29.94,,Clear
KIGQ,12/28/2016 09:15 UTC,30.16,21.38,21.2,100.0,0.0,0.0,,,,,,1.0,,,,10.0,,KIGQ 280915Z AUTO 00000KT 10SM CLR M06/M06 A3016 RMK AO2  T10591060,,,,,,21.38,,N,29.5,29.93,,Clear
KIGQ,12/28/2016 09:35 UTC,30.16,21.2,21.02,100.0,0.0,0.0,,,,,,1.0,,,,10.0,,KIGQ 280935Z AUTO 00000KT 10SM CLR M06/M06 A3016 RMK AO2  T10601061,,,,,,21.2,,N,29.5,29.93,,Clear
KIGQ,12/28/2016 09:55 UTC,30.16,21.2,21.2,100.0,0.0,0.0,,,,,,1.0,,,,10.0,,KIGQ 280955Z AUTO 00000KT 10SM CLR M06/M06 A3016 RMK AO2  T10601060,,,,,,21.2,,N,29.5,29.93,,Clear
KIGQ,12/28/2016 10:15 UTC,30.15,22.1,21.92,92.67,4.61,150.0,,,,,,1.0,,,,10.0,,KIGQ 281015Z AUTO 15004KT 10SM CLR M05/M06 A3015 RMK AO2  T10551056,,,,,,20.28,,SSE,29.49,29.92,,Clear
KIGQ,12/28/2016 10:35 UTC,30.13,22.46,22.28,100.0,4.61,150.0,,,,,,1.0,,,,10.0,,KIGQ 281035Z AUTO 15004KT 10SM CLR M05/M05 A3013 RMK AO2  T10531054,,,,,,22.46,,SSE,29.47,29.88,,Clear
KIGQ,12/28/2016 10:55 UTC,30.12,23.36,23.0,100.0,5.75,150.0,,,,,,1.0,,,,10.0,,KIGQ 281055Z AUTO 15005KT 10SM CLR M05/M05 A3012 RMK AO2  T10481050,,,,,,23.36,,SSE,29.47,29.87,,Clear
KIGQ,12/28/2016 11:15 UTC,30.11,24.26,23.54,92.73,4.61,150.0,,,,,,1.0,,,,10.0,,KIGQ 281115Z AUTO 15004KT 10SM CLR M04/M05 A3011 RMK AO2  T10431047,,,,,,22.43,,SSE,29.46,29.86,,Clear
KIGQ,12/28/2016 11:35 UTC,30.1,24.44,23.54,92.73,4.61,150.0,,,,,,1.0,,,,10.0,,KIGQ 281135Z AUTO 15004KT 10SM CLR M04/M05 A3010 RMK AO2  T10421047,,,,,,22.61,,SSE,29.45,29.85,,Clear
KIGQ,12/28/2016 11:55 UTC,30.11,24.8,23.72,92.73,4.61,150.0,,,,,,1.0,,,,10.0,,KIGQ 281155Z AUTO 15004KT 10SM CLR M04/M05 A3011 RMK AO2 T10401046  11040 21063,24.8,20.66,,,,22.97,,SSE,29.46,29.85,,Clear
KIGQ,12/28/2016 12:15 UTC,30.11,24.8,23.54,92.73,4.61,150.0,,,,,,1.0,,,,10.0,,KIGQ 281215Z AUTO 15004KT 10SM CLR M04/M05 A3011 RMK AO2  T10401047,,,,,,22.97,,SSE,29.46,29.85,,Clear
KIGQ,12/28/2016 12:35 UTC,30.1,25.16,23.72,92.73,5.75,150.0,,,,,,1.0,,,,10.0,,KIGQ 281235Z AUTO 15005KT 10SM CLR M04/M05 A3010 RMK AO2  T10381046,,,,,,23.32,,SSE,29.45,29.84,,Clear
KIGQ,12/28/2016 12:55 UTC,30.1,25.7,23.9,92.79,6.91,170.0,,,,,,1.0,,,,10.0,,KIGQ 281255Z AUTO 17006KT 10SM CLR M03/M04 A3010 RMK AO2  T10351045,,,,,,23.88,,S,29.45,29.83,,Clear
KIGQ,12/28/2016 13:15 UTC,30.09,25.34,23.54,92.73,4.61,160.0,,,,,,1.0,,,,10.0,,KIGQ 281315Z AUTO 16004KT 10SM CLR M04/M05 A3009 RMK AO2  T10371047,,,,,,23.5,,SSE,29.44,29.83,,Clear
KIGQ,12/28/2016 13:35 UTC,30.08,25.88,23.72,86.04,5.75,90.0,,,,,,1.0,,,,10.0,,KIGQ 281335Z AUTO 09005KT 10SM CLR M03/M05 A3008 RMK AO2  T10341046,,,,,,22.23,,E,29.43,29.82,,Clear
KIGQ,12/28/2016 13:55 UTC,30.08,27.32,24.8,92.79,5.75,160.0,,,,,,1.0,,,,10.0,,KIGQ 281355Z AUTO 16005KT 10SM CLR M03/M04 A3008 RMK AO2  T10261040,,,,,,25.48,,SSE,29.43,29.78,,Clear
KIGQ,12/28/2016 14:15 UTC,30.06,30.02,26.42,86.26,13.8,170.0,,,,,,1.0,,,,10.0,,KIGQ 281415Z AUTO 17012KT 10SM CLR M01/M03 A3006 RMK AO2  T10111031,,,,,,26.36,22.08,S,29.41,29.74,,Clear
KIGQ,12/28/2016 14:35 UTC,30.05,30.2,27.14,86.26,10.36,170.0,,,,,,1.0,,,,10.0,,KIGQ 281435Z AUTO 17009KT 10SM CLR M01/M03 A3005 RMK AO2  T10101027,,,,,,26.54,23.74,S,29.4,29.72,,Clear
KIGQ,12/28/2016 14:55 UTC,30.05,31.64,28.04,86.37,9.22,180.0,,,,,,1.0,,,,10.0,,KIGQ 281455Z AUTO 18008KT 10SM CLR 00/M02 A3005 RMK AO2  T10021022,,,,,,27.99,26.02,S,29.4,29.7,,Clear
KIGQ,12/28/2016 15:15 UTC,30.05,32.0,28.58,86.37,9.22,180.0,,,,,,1.0,,,,10.0,,KIGQ 281515Z AUTO 18008KT 10SM CLR 00/M02 A3005 RMK AO2  T00001019,,,,,,28.34,26.45,S,29.4,29.69,,Clear
KIGQ,12/28/2016 15:35 UTC,30.04,34.16,29.48,86.48,12.66,180.0,,,,,,1.0,,,,10.0,,KIGQ 281535Z AUTO 18011KT 10SM CLR 01/M01 A3004 RMK AO2  T00121014,,,,,,30.5,27.56,S,29.39,29.63,,Clear
KIGQ,12/28/2016 15:55 UTC,30.02,36.14,30.02,80.49,16.11,180.0,,,,,,1.0,,,,10.0,,KIGQ 281555Z AUTO 18014KT 10SM CLR 02/M01 A3002 RMK AO2  T00231011,,,,,,30.64,28.86,S,29.37,29.6,,Clear
KIGQ,12/28/2016 16:15 UTC,30.01,37.4,30.2,74.96,21.85,180.0,,,,,,1.0,,,,10.0,,KIGQ 281615Z AUTO 18019KT 10SM CLR 03/M01 A3001 RMK AO2  T00301010,,,,,,30.09,28.99,S,29.36,29.59,,Clear
KIGQ,12/28/2016 16:35 UTC,29.99,38.66,30.02,69.85,18.41,180.0,26.46,,,,,1.0,,,,10.0,,KIGQ 281635Z AUTO 18016G23KT 10SM CLR 04/M01 A2999 RMK AO2  T00371011,,,,,,29.55,31.38,S,29.34,29.57,,Clear
KIGQ,12/28/2016 16:55 UTC,29.97,39.74,30.02,69.85,18.41,180.0,24.16,,,,,1.0,,,,10.0,,KIGQ 281655Z AUTO 18016G21KT 10SM CLR 04/M01 A2997 RMK AO2  T00431011,,,,,,30.59,32.73,S,29.32,29.52,,Clear
KIGQ,12/28/2016 17:15 UTC,29.96,40.64,30.02,65.13,20.71,180.0,29.93,,,,,1.0,,,,10.0,,KIGQ 281715Z AUTO 18018G26KT 10SM CLR 05/M01 A2996 RMK AO2  T00481011,,,,,,29.71,33.34,S,29.31,29.52,,Clear
KIGQ,12/28/2016 17:35 UTC,29.94,41.72,28.04,60.51,27.63,190.0,34.52,,,,,1.0,,,,10.0,,KIGQ 281735Z AUTO 19024G30KT 10SM CLR 05/M02 A2994 RMK AO2  T00541022,,,,,,28.92,33.44,S,29.29,29.51,,Clear
KIGQ,12/28/2016 17:55 UTC,29.92,42.98,29.84,60.77,17.27,190.0,27.63,,,,,1.0,,,,10.0,,KIGQ 281755Z AUTO 19015G24KT 10SM CLR 06/M01 A2992 RMK AO2  T00611012 10061 21041,42.98,24.62,,,,30.21,37.05,S,29.27,29.46,,Clear
KIGQ,12/28/2016 18:15 UTC,29.91,42.26,27.86,56.46,21.85,190.0,29.93,,,,,1.0,,,,10.0,,KIGQ 281815Z AUTO 19019G26KT 10SM CLR 06/M02 A2991 RMK AO2  T00571023,,,,,,27.72,35.16,S,29.26,29.49,,Clear
KIGQ,12/28/2016 18:35 UTC,29.89,41.9,28.04,56.46,19.57,200.0,28.77,,,,,1.0,,,,10.0,,KIGQ 281835Z AUTO 20017G25KT 10SM CLR 06/M02 A2989 RMK AO2  T00551022,,,,,,27.38,35.18,SSW,29.24,29.48,,Clear
KIGQ,12/28/2016 18:55 UTC,29.88,41.54,28.4,60.51,20.71,190.0,26.46,,,,,1.0,,,,10.0,,KIGQ 281855Z AUTO 19018G23KT 10SM CLR 05/M02 A2988 RMK AO2  T00531020,,,,,,28.75,34.48,S,29.23,29.45,,Clear
KIGQ,12/28/2016 19:15 UTC,29.86,42.08,28.76,56.46,23.02,190.0,27.63,,,,,1.0,,,,10.0,,KIGQ 281915Z AUTO 19020G24KT 10SM CLR 06/M02 A2986 RMK AO2  T00561018,,,,,,27.55,34.71,S,29.21,29.44,,Clear
KIGQ,12/28/2016 19:35 UTC,29.86,41.9,29.66,60.77,17.27,200.0,24.16,,,,,1.0,,,,10.0,,KIGQ 281935Z AUTO 20015G21KT 10SM CLR 06/M01 A2986 RMK AO2  T00551013,,,,,,29.19,35.71,SSW,29.21,29.42,,Clear
KIGQ,12/28/2016 19:55 UTC,29.85,41.36,30.2,65.13,18.41,200.0,24.16,,,,,1.0,,,,10.0,,KIGQ 281955Z AUTO 20016G21KT 10SM CLR 05/M01 A2985 RMK AO2  T00521010,,,,,,30.4,34.76,SSW,29.2,29.39,,Clear
KIGQ,12/28/2016 20:15 UTC,29.85,41.54,30.74,65.13,16.11,200.0,,,,,,1.0,,,,10.0,,KIGQ 282015Z AUTO 20014KT 10SM CLR 05/M01 A2985 RMK AO2  T00531007,,,,,,30.57,35.55,SSW,29.2,29.39,,Clear
KIGQ,12/28/2016 20:35 UTC,29.84,42.08,31.1,65.37,14.97,210.0,,,,,,1.0,,,,10.0,,KIGQ 282035Z AUTO 21013KT 10SM CLR 06/00 A2984 RMK AO2 LTG DSNT S  T00561005,,,,,,31.18,36.52,SSW,29.19,29.37,,Clear
KIGQ,12/28/2016 20:55 UTC,29.84,42.08,30.92,60.77,16.11,210.0,23.02,,,,,1.0,,,,10.0,,KIGQ 282055Z AUTO 21014G20KT 10SM CLR 06/M01 A2984 RMK AO2  T00561006,,,,,,29.36,36.22,SSW,29.19,29.4,,Clear
KIGQ,12/28/2016 21:15 UTC,29.83,41.72,30.2,65.13,18.41,210.0,29.93,,,,,1.0,,,,10.0,,KIGQ 282115Z AUTO 21016G26KT 10SM CLR 05/M01 A2983 RMK AO2  T00541010,,,,,,30.74,35.21,SSW,29.18,29.37,,Clear
KIGQ,12/28/2016 21:35 UTC,29.82,41.0,31.1,70.06,13.8,200.0,,,,,,1.0,,,,10.0,,KIGQ 282135Z AUTO 20012KT 10SM CLR 05/00 A2982 RMK AO2  T00501005,,,,,,31.88,35.52,SSW,29.17,29.34,,Clear
KIGQ,12/28/2016 21:55 UTC,29.82,40.1,31.64,70.06,12.66,210.0,17.27,,,,,1.0,,,,10.0,,KIGQ 282155Z AUTO 21011G15KT 10SM CLR 05/00 A2982 RMK AO2  T00451002,,,,,,31.01,34.78,SSW,29.17,29.36,,Clear
KIGQ,12/28/2016 22:15 UTC,29.81,39.38,32.0,75.14,13.8,200.0,20.71,,,,,1.0,,,,10.0,,KIGQ 282215Z AUTO 20012G18KT 10SM CLR 04/00 A2981 RMK AO2  T00410000,,,,,,32.07,33.54,SSW,29.16,29.34,,Clear
KIGQ,12/28/2016 22:35 UTC,29.8,38.84,32.0,75.14,12.66,200.0,19.57,,,,,1.0,,,,10.0,,KIGQ 282235Z AUTO 20011G17KT 10SM CLR 04/00 A2980 RMK AO2  T00380000,,,,,,31.55,33.25,SSW,29.15,29.34,,Clear
KIGQ,12/28/2016 22:55 UTC,29.8,39.2,32.18,75.14,14.97,200.0,,,,,,1.0,,,,10.0,,KIGQ 282255Z AUTO 20013KT 10SM CLR 04/00 A2980 RMK AO2  T00400001,,,,,,31.9,32.97,SSW,29.15,29.33,,Clear
KIGQ,12/28/2016 23:15 UTC,29.81,38.84,32.0,75.14,13.8,220.0,,,,,,1.0,,,,10.0,,KIGQ 282315Z AUTO 22012KT 10SM CLR 04/00 A2981 RMK AO2 LTG DSNT S  T00380000,,,,,,31.55,32.88,SW,29.16,29.35,,Clear
KIGQ,12/28/2016 23:35 UTC,29.8,38.66,32.18,75.14,11.5,210.0,,,,,,1.0,,,,10.0,,KIGQ 282335Z AUTO 21010KT 10SM CLR 04/00 A2980 RMK AO2  T00370001,,,,,,31.37,33.44,SSW,29.15,29.35,,Clear
KIGQ,12/28/2016 23:55 UTC,29.8,37.94,32.18,80.63,11.5,220.0,,,,,,1202.0,,,,10.0,,KIGQ 282355Z AUTO 22010KT 10SM SCT120 03/00 A2980 RMK AO2  T00330001 10062 20033,43.16,37.94,,,,32.44,32.57,SW,29.15,29.33,,Partly Cloudy
KIGQ,12/29/2016 00:15 UTC,29.8,38.12,32.36,80.63,9.22,210.0,,,,,,1203.0,,,,10.0,,KIGQ 290015Z AUTO 21008KT 10SM BKN120 03/00 A2980 RMK AO2  T00340002,,,12000.0,,,32.62,33.71,SSW,29.15,29.33,,Mostly Cloudy
KIGQ,12/29/2016 00:35 UTC,29.79,37.4,32.36,80.63,8.05,220.0,,,,,,1202.0,,,,10.0,,KIGQ 290035Z AUTO 22007KT 10SM SCT120 03/00 A2979 RMK AO2  T00300002,,,,,,31.92,33.42,SW,29.14,29.34,,Partly Cloudy
KIGQ,12/29/2016 00:55 UTC,29.8,37.94,32.9,86.68,11.5,230.0,,,,,,1202.0,,,,10.0,,KIGQ 290055Z AUTO 23010KT 10SM SCT120 03/01 A2980 RMK AO2  T00330005,,,,,,34.28,32.57,SW,29.15,29.3,,Partly Cloudy
KIGQ,12/29/2016 01:15 UTC,29.8,37.94,32.9,86.68,11.5,220.0,,,,,,1202.0,,,,10.0,,KIGQ 290115Z AUTO 22010KT 10SM SCT120 03/01 A2980 RMK AO2  T00330005,,,,,,34.28,32.57,SW,29.15,29.3,,Partly Cloudy
KIGQ,12/29/2016 01:35 UTC,29.81,37.58,32.9,86.68,10.36,230.0,,,,,,1202.0,,,,10.0,,KIGQ 290135Z AUTO 23009KT 10SM SCT120 03/01 A2981 RMK AO2  T00310005,,,,,,33.92,32.58,SW,29.16,29.32,,Partly Cloudy
KIGQ,12/29/2016 01:55 UTC,29.81,38.3,33.26,80.78,11.5,240.0,16.11,,,,,903.0,1204.0,,,10.0,,KIGQ 290155Z AUTO 24010G14KT 10SM BKN090 OVC120 04/01 A2981 RMK AO2 T00350007,,,9000.0,,,32.84,33.0,WSW,29.16,29.33,,Overcast
KIGQ,12/29/2016 02:15 UTC,29.8,37.94,33.26,86.68,13.8,250.0,,,,,,903.0,1104.0,,,10.0,,KIGQ 290215Z AUTO 25012KT 10SM BKN090 OVC110 03/01 A2980 RMK AO2  T00330007,,,9000.0,,,34.28,31.78,WSW,29.15,29.3,,Overcast
KIGQ,12/29/2016 02:35 UTC,29.79,37.58,33.08,86.68,10.36,260.0,,,,,,1202.0,,,,10.0,,KIGQ 290235Z AUTO 26009KT 10SM SCT120 03/01 A2979 RMK AO2  T00310006,,,,,,33.92,32.58,W,29.14,29.3,,Partly Cloudy
KIGQ,12/29/2016 02:55 UTC,29.78,36.86,32.54,80.63,10.36,250.0,,,,,,1.0,,,,10.0,,KIGQ 290255Z AUTO 25009KT 10SM CLR 03/00 A2978 RMK AO2  T00270003,,,,,,31.39,31.72,WSW,29.13,29.34,,Clear
KIGQ,12/29/2016 03:15 UTC,29.8,37.04,32.36,80.63,10.36,260.0,,,,,,1.0,,,,10.0,,KIGQ 290315Z AUTO 26009KT 10SM CLR 03/00 A2980 RMK AO2  T00280002,,,,,,31.57,31.93,W,29.15,29.35,,Clear
KIGQ,12/29/2016 03:35 UTC,29.8,37.22,32.0,80.63,12.66,270.0,,,,,,1.0,,,,10.0,,KIGQ 290335Z AUTO 27011KT 10SM CLR 03/00 A2980 RMK AO2  T00290000,,,,,,31.74,31.28,W,29.15,29.35,,Clear
KIGQ,12/29/2016 03:55 UTC,29.78,37.4,31.64,80.63,12.66,280.0,25.32,,,,,1.0,,,,10.0,,KIGQ 290355Z AUTO 28011G22KT 10SM CLR 03/00 A2978 RMK AO2  T00301002,,,,,,31.92,31.5,W,29.13,29.32,,Clear
KIGQ,12/29/2016 04:15 UTC,29.81,36.68,31.46,80.63,13.8,270.0,,,,,,1.0,,,,10.0,,KIGQ 290415Z AUTO 27012KT 10SM CLR 03/00 A2981 RMK AO2  T00261003,,,,,,31.21,30.23,W,29.16,29.37,,Clear
KIGQ,12/29/2016 04:35 UTC,29.81,35.78,31.1,86.58,11.5,270.0,20.71,,,,,1.0,,,,10.0,,KIGQ 290435Z AUTO 27010G18KT 10SM CLR 02/00 A2981 RMK AO2  T00211005,,,,,,32.12,29.96,W,29.16,29.36,,Clear
KIGQ,12/29/2016 04:55 UTC,29.8,35.6,30.56,80.49,13.8,270.0,23.02,,,,,1.0,,,,10.0,,KIGQ 290455Z AUTO 27012G20KT 10SM CLR 02/M01 A2980 RMK AO2  T00201008,,,,,,30.12,28.91,W,29.15,29.39,,Clear
KIGQ,12/29/2016 05:15 UTC,29.79,35.06,30.2,80.49,12.66,270.0,17.27,,,,,1.0,,,,10.0,,KIGQ 290515Z AUTO 27011G15KT 10SM CLR 02/M01 A2979 RMK AO2  T00171010,,,,,,29.59,28.65,W,29.14,29.39,,Clear
KIGQ,12/29/2016 05:35 UTC,29.79,34.34,30.2,86.48,10.36,270.0,16.11,,,,,1.0,,,,10.0,,KIGQ 290535Z AUTO 27009G14KT 10SM CLR 01/M01 A2979 RMK AO2  T00131010,,,,,,30.67,28.7,W,29.14,29.37,,Clear
KIGQ,12/29/2016 05:55 UTC,29.78,33.98,29.84,86.48,11.5,270.0,,,,,,1.0,,,,10.0,,KIGQ 290555Z AUTO 27010KT 10SM CLR 01/M01 A2978 RMK AO2 T00111012  10035 20011 400621063,38.3,33.98,,43.16,20.66,30.32,27.79,W,29.13,29.37,,Clear
KIGQ,12/29/2016 06:15 UTC,29.78,34.16,29.84,86.48,13.8,270.0,18.41,,,,,1.0,,,,10.0,,KIGQ 290615Z AUTO 27012G16KT 10SM CLR 01/M01 A2978 RMK AO2  T00121012,,,,,,30.5,27.15,W,29.13,29.37,,Clear
KIGQ,12/29/2016 06:35 UTC,29.78,33.62,29.66,86.48,14.97,270.0,20.71,,,,,1.0,,,,10.0,,KIGQ 290635Z AUTO 27013G18KT 10SM CLR 01/M01 A2978 RMK AO2  T00091013,,,,,,29.97,26.09,W,29.13,29.38,,Clear
KIGQ,12/29/2016 06:55 UTC,29.78,33.08,29.66,86.48,12.66,260.0,,,,,,1.0,,,,10.0,,KIGQ 290655Z AUTO 26011KT 10SM CLR 01/M01 A2978 RMK AO2  T00061013,,,,,,29.44,26.24,W,29.13,29.39,,Clear
KIGQ,12/29/2016 07:15 UTC,29.78,33.08,29.3,86.48,13.8,270.0,17.27,,,,,1.0,,,,10.0,,KIGQ 290715Z AUTO 27012G15KT 10SM CLR 01/M01 A2978 RMK AO2  T00061015,,,,,,29.44,25.83,W,29.13,29.39,,Clear
KIGQ,12/29/2016 07:35 UTC,29.78,32.9,29.3,86.48,10.36,270.0,,,,,,1.0,,,,10.0,,KIGQ 290735Z AUTO 27009KT 10SM CLR 01/M01 A2978 RMK AO2  T00051015,,,,,,29.26,26.98,W,29.13,29.39,,Clear
KIGQ,12/29/2016 07:55 UTC,29.79,32.54,29.12,86.37,11.5,270.0,,,,,,1.0,,,,10.0,,KIGQ 290755Z AUTO 27010KT 10SM CLR 00/M02 A2979 RMK AO2  T00031016,,,,,,28.87,26.05,W,29.14,29.41,,Clear
KIGQ,12/29/2016 08:15 UTC,29.79,32.9,29.12,80.34,11.5,270.0,,,,,,1.0,,,,10.0,,KIGQ 290815Z AUTO 27010KT 10SM CLR 01/M02 A2979 RMK AO2  T00051016,,,,,,27.44,26.49,W,29.14,29.43,,Clear
KIGQ,12/29/2016 08:35 UTC,29.79,33.26,28.94,80.34,16.11,270.0,20.71,,,,,1.0,,,,10.0,,KIGQ 290835Z AUTO 27014G18KT 10SM CLR 01/M02 A2979 RMK AO2  T00071017,,,,,,27.79,25.29,W,29.14,29.42,,Clear
KIGQ,12/29/2016 08:55 UTC,29.8,33.26,28.76,80.34,14.97,270.0,,,,,,1.0,,,,10.0,,KIGQ 290855Z AUTO 27013KT 10SM CLR 01/M02 A2980 RMK AO2  T00071018,,,,,,27.79,25.65,W,29.15,29.43,,Clear
KIGQ,12/29/2016 09:15 UTC,29.8,33.08,28.76,80.34,16.11,270.0,21.85,,,,,1.0,,,,10.0,,KIGQ 290915Z AUTO 27014G19KT 10SM CLR 01/M02 A2980 RMK AO2  T00061018,,,,,,27.61,25.06,W,29.15,29.44,,Clear
KIGQ,12/29/2016 09:35 UTC,29.8,32.9,28.76,80.34,11.5,280.0,20.71,,,,,1.0,,,,10.0,,KIGQ 290935Z AUTO 28010G18KT 10SM CLR 01/M02 A2980 RMK AO2  T00051018,,,,,,27.44,26.49,W,29.15,29.44,,Clear
KIGQ,12/29/2016 09:55 UTC,29.8,32.9,28.4,80.34,12.66,270.0,18.41,,,,,1.0,,,,10.0,,KIGQ 290955Z AUTO 27011G16KT 10SM CLR 01/M02 A2980 RMK AO2  T00051020,,,,,,27.44,26.03,W,29.15,29.44,,Clear
KIGQ,12/29/2016 10:15 UTC,29.8,32.36,28.4,86.37,11.5,270.0,17.27,,,,,1.0,,,,10.0,,KIGQ 291015Z AUTO 27010G15KT 10SM CLR 00/M02 A2980 RMK AO2  T00021020,,,,,,28.7,25.83,W,29.15,29.43,,Clear
KIGQ,12/29/2016 10:35 UTC,29.8,32.18,28.4,86.37,13.8,270.0,20.71,,,,,1.0,,,,10.0,,KIGQ 291035Z AUTO 27012G18KT 10SM CLR 00/M02 A2980 RMK AO2  T00011020,,,,,,28.52,24.72,W,29.15,29.43,,Clear
KIGQ,12/29/2016 10:55 UTC,29.8,32.0,28.22,86.37,13.8,280.0,,,,,,1.0,,,,10.0,,KIGQ 291055Z AUTO 28012KT 10SM CLR 00/M02 A2980 RMK AO2  T00001021,,,,,,28.34,24.5,W,29.15,29.43,,Clear
KIGQ,12/29/2016 11:15 UTC,29.8,32.0,28.04,86.37,18.41,270.0,21.85,,,,,1.0,,,,10.0,,KIGQ 291115Z AUTO 27016G19KT 10SM CLR 00/M02 A2980 RMK AO2  T00001022,,,,,,28.34,23.04,W,29.15,29.43,,Clear
KIGQ,12/29/2016 11:35 UTC,29.81,32.0,28.04,86.37,13.8,280.0,17.27,,,,,1.0,,,,10.0,,KIGQ 291135Z AUTO 28012G15KT 10SM CLR 00/M02 A2981 RMK AO2  T00001022,,,,,,28.34,24.5,W,29.16,29.44,,Clear
KIGQ,12/29/2016 11:55 UTC,29.81,32.0,28.04,86.37,17.27,280.0,23.02,,,,,1.0,,,,10.0,,KIGQ 291155Z AUTO 28015G20KT 10SM CLR 00/M02 A2981 RMK AO2  T00001022 10012 21001,34.16,31.82,,,,28.34,23.37,W,29.16,29.44,,Clear
KIGQ,12/29/2016 12:15 UTC,29.83,31.64,27.5,86.37,13.8,280.0,20.71,,,,,1.0,,,,10.0,,KIGQ 291215Z AUTO 28012G18KT 10SM CLR 00/M02 A2983 RMK AO2  T10021025,,,,,,27.99,24.06,W,29.18,29.47,,Clear
KIGQ,12/29/2016 12:35 UTC,29.83,31.46,27.32,80.19,13.8,280.0,19.57,,,,,1.0,,,,10.0,,KIGQ 291235Z AUTO 28012G17KT 10SM CLR 00/M03 A2983 RMK AO2  T10031026,,,,,,25.99,23.84,W,29.18,29.5,,Clear
KIGQ,12/29/2016 12:55 UTC,29.83,31.1,27.14,80.19,12.66,280.0,17.27,,,,,1.0,,,,10.0,,KIGQ 291255Z AUTO 28011G15KT 10SM CLR 00/M03 A2983 RMK AO2  T10051027,,,,,,25.63,23.84,W,29.18,29.5,,Clear
KIGQ,12/29/2016 13:15 UTC,29.84,31.1,27.14,80.19,13.8,280.0,21.85,,,,,1.0,,,,10.0,,KIGQ 291315Z AUTO 28012G19KT 10SM CLR 00/M03 A2984 RMK AO2  T10051027,,,,,,25.63,23.4,W,29.19,29.51,,Clear
KIGQ,12/29/2016 13:35 UTC,29.84,30.74,26.96,86.26,12.66,280.0,18.41,,,,,1.0,,,,10.0,,KIGQ 291335Z AUTO 28011G16KT 10SM CLR M01/M03 A2984 RMK AO2  T10071028,,,,,,27.07,23.4,W,29.19,29.5,,Clear
KIGQ,12/29/2016 13:55 UTC,29.84,30.74,26.96,86.26,13.8,270.0,,,,,,1.0,,,,10.0,,KIGQ 291355Z AUTO 27012KT 10SM CLR M01/M03 A2984 RMK AO2  T10071028,,,,,,27.07,22.96,W,29.19,29.5,,Clear
KIGQ,12/29/2016 14:15 UTC,29.84,30.56,26.96,86.26,14.97,260.0,24.16,,,,,1.0,,,,10.0,,KIGQ 291415Z AUTO 26013G21KT 10SM CLR M01/M03 A2984 RMK AO2  T10081028,,,,,,26.89,22.32,W,29.19,29.5,,Clear
KIGQ,12/29/2016 14:35 UTC,29.84,32.0,27.5,86.37,21.85,270.0,27.63,,,,,1.0,,,,10.0,,KIGQ 291435Z AUTO 27019G24KT 10SM CLR 00/M02 A2984 RMK AO2  T00001025,,,,,,28.34,22.13,W,29.19,29.47,,Clear
KIGQ,12/29/2016 14:55 UTC,29.85,32.18,27.32,80.19,18.41,270.0,26.46,,,,,1.0,,,,10.0,,KIGQ 291455Z AUTO 27016G23KT 10SM CLR 00/M03 A2985 RMK AO2  T00011026,,,,,,26.69,23.26,W,29.2,29.5,,Clear
KIGQ,12/29/2016 15:15 UTC,29.85,32.54,27.14,80.19,23.02,270.0,31.07,,,,,1.0,,,,10.0,,KIGQ 291515Z AUTO 27020G27KT 10SM CLR 00/M03 A2985 RMK AO2  T00031027,,,,,,27.04,22.54,W,29.2,29.5,,Clear
KIGQ,12/29/2016 15:35 UTC,29.86,33.08,27.14,74.6,26.46,270.0,,,,,,1.0,,,,10.0,,KIGQ 291535Z AUTO 27023KT 10SM CLR 01/M03 A2986 RMK AO2  T00061027,,,,,,25.79,22.48,W,29.21,29.52,,Clear
KIGQ,12/29/2016 15:55 UTC,29.86,33.98,27.14,74.6,27.63,270.0,34.52,,,,,1.0,,,,10.0,,KIGQ 291555Z AUTO 27024G30KT 10SM CLR 01/M03 A2986 RMK AO2  T00111027,,,,,,26.67,23.41,W,29.21,29.5,,Clear
KIGQ,12/29/2016 16:15 UTC,29.86,34.7,27.32,69.43,21.85,270.0,31.07,,,,,1.0,,,,10.0,,KIGQ 291615Z AUTO 27019G27KT 10SM CLR 02/M03 A2986 RMK AO2  T00151026,,,,,,25.6,25.56,W,29.21,29.51,,Clear
KIGQ,12/29/2016 16:35 UTC,29.86,34.34,27.5,80.34,19.57,270.0,34.52,,,,,242.0,,,,10.0,,KIGQ 291635Z AUTO 27017G30KT 10SM SCT024 01/M02 A2986 RMK AO2  T00131025,,,,,,28.84,25.66,W,29.21,29.47,,Partly Cloudy
KIGQ,12/29/2016 16:55 UTC,29.86,35.24,28.22,74.78,24.16,260.0,33.38,,,,,222.0,,,,10.0,,KIGQ 291655Z AUTO 26021G29KT 10SM SCT022 02/M02 A2986 RMK AO2  T00181021,,,,,,27.94,25.74,W,29.21,29.48,,Partly Cloudy
KIGQ,12/29/2016 17:15 UTC,29.86,34.88,27.86,74.78,23.02,270.0,34.52,,,,,243.0,,,,10.0,,KIGQ 291715Z AUTO 27020G30KT 10SM BKN024 02/M02 A2986 RMK AO2  T00161023,,,2400.0,,,27.6,25.52,W,29.21,29.49,,Mostly Cloudy
KIGQ,12/29/2016 17:35 UTC,29.86,35.06,27.86,74.78,23.02,270.0,31.07,,,,,244.0,,,,10.0,,KIGQ 291735Z AUTO 27020G27KT 10SM OVC024 02/M02 A2986 RMK AO2  T00171023,,,2400.0,,,27.77,25.75,W,29.21,29.48,,Overcast
KIGQ,12/29/2016 17:55 UTC,29.86,33.8,27.32,74.6,20.71,290.0,29.93,,,,,244.0,,,,10.0,,KIGQ 291755Z AUTO 29018G26KT 10SM OVC024 01/M03 A2986 RMK AO2  T00101026 10019 21010,35.42,30.2,2400.0,,,26.49,24.69,WNW,29.21,29.51,,Overcast
KIGQ,12/29/2016 18:15 UTC,29.86,32.9,26.6,74.6,21.85,280.0,37.98,,,,,244.0,,,,10.0,,KIGQ 291815Z AUTO 28019G33KT 10SM OVC024 01/M03 A2986 RMK AO2  T00051030,,,2400.0,,,25.62,23.27,W,29.21,29.52,,Overcast
KIGQ,12/29/2016 18:35 UTC,29.86,32.54,26.24,80.19,23.02,280.0,33.38,,,,,244.0,,,,10.0,,KIGQ 291835Z AUTO 28020G29KT 10SM OVC024 00/M03 A2986 RMK AO2  T00031032,,,2400.0,,,27.04,22.54,W,29.21,29.51,,Overcast
KIGQ,12/29/2016 18:55 UTC,29.87,32.36,25.7,80.19,20.71,290.0,36.82,,,,,244.0,,,,10.0,,KIGQ 291855Z AUTO 29018G32KT 10SM OVC024 00/M03 A2987 RMK AO2  T00021035,,,2400.0,,,26.86,22.87,WNW,29.22,29.52,,Overcast
KIGQ,12/29/2016 19:15 UTC,29.87,32.54,25.7,80.19,16.11,280.0,23.02,,,,,264.0,,,,10.0,,KIGQ 291915Z AUTO 28014G20KT 10SM OVC026 00/M03 A2987 RMK AO2  T00031035,,,2600.0,,,27.04,24.39,W,29.22,29.52,,Overcast
KIGQ,12/29/2016 19:35 UTC,29.87,32.9,25.7,74.6,11.5,280.0,23.02,,,,,264.0,,,,10.0,,KIGQ 291935Z AUTO 28010G20KT 10SM OVC026 01/M03 A2987 RMK AO2  T00051035,,,2600.0,,,25.62,26.49,W,29.22,29.53,,Overcast
KIGQ,12/29/2016 19:55 UTC,29.88,33.08,25.88,74.6,16.11,280.0,29.93,,,,,284.0,,,,10.0,,KIGQ 291955Z AUTO 28014G26KT 10SM OVC028 01/M03 A2988 RMK AO2  T00061034,,,2800.0,,,25.79,25.06,W,29.23,29.54,,Overcast
KIGQ,12/29/2016 20:15 UTC,29.88,33.26,26.06,74.6,12.66,290.0,23.02,,,,,284.0,,,,10.0,,KIGQ 292015Z AUTO 29011G20KT 10SM OVC028 01/M03 A2988 RMK AO2  T00071033,,,2800.0,,,25.97,26.46,WNW,29.23,29.54,,Overcast
KIGQ,12/29/2016 20:35 UTC,29.89,33.08,26.42,74.6,17.27,300.0,26.46,20.0,,,,284.0,,,,10.0,,KIGQ 292035Z AUTO 30015G23KT 10SM -SN OVC028 01/M03 A2989 RMK AO2  T00061031,,,2800.0,,,25.79,24.71,WNW,29.24,29.55,,Light Snow
KIGQ,12/29/2016 20:55 UTC,29.9,33.26,26.6,74.6,13.8,300.0,23.02,,,,,284.0,,,,10.0,,KIGQ 292055Z AUTO 30012G20KT 10SM OVC028 01/M03 A2990 RMK AO2  T00071030,,,2800.0,,,25.97,26.05,WNW,29.25,29.56,,Overcast
KIGQ,12/29/2016 21:15 UTC,29.91,33.44,26.42,74.6,13.8,290.0,26.46,,,,,304.0,,,,10.0,,KIGQ 292115Z AUTO 29012G23KT 10SM OVC030 01/M03 A2991 RMK AO2  T00081031,,,3000.0,,,26.14,26.27,WNW,29.26,29.56,,Overcast
KIGQ,12/29/2016 21:35 UTC,29.91,33.62,26.42,74.6,17.27,280.0,26.46,,,,,304.0,,,,10.0,,KIGQ 292135Z AUTO 28015G23KT 10SM OVC030 01/M03 A2991 RMK AO2  T00091031,,,3000.0,,,26.32,25.39,W,29.26,29.56,,Overcast
KIGQ,12/29/2016 21:55 UTC,29.92,33.8,25.7,74.6,14.97,290.0,27.63,,,,,324.0,,,,10.0,,KIGQ 292155Z AUTO 29013G24KT 10SM OVC032 01/M03 A2992 RMK AO2  T00101035,,,3200.0,,,26.49,26.31,WNW,29.27,29.57,,Overcast
KIGQ,12/29/2016 22:15 UTC,29.92,33.98,24.8,69.22,17.27,290.0,25.32,,,,,342.0,434.0,,,10.0,,KIGQ 292215Z AUTO 29015G22KT 10SM SCT034 OVC043 01/M04 A2992 RMK AO2 T00111040,,,4300.0,,,24.84,25.83,WNW,29.27,29.59,,Overcast
KIGQ,12/29/2016 22:35 UTC,29.92,34.16,24.44,69.22,12.66,280.0,26.46,,,,,414.0,,,,10.0,,KIGQ 292235Z AUTO 28011G23KT 10SM OVC041 01/M04 A2992 RMK AO2  T00121042,,,4100.0,,,25.01,27.56,W,29.27,29.58,,Overcast
KIGQ,12/29/2016 22:55 UTC,29.93,34.16,24.26,69.22,18.41,300.0,28.77,,,,,393.0,484.0,,,10.0,,KIGQ 292255Z AUTO 30016G25KT 10SM BKN039 OVC048 01/M04 A2993 RMK AO2 T00121043,,,3900.0,,,25.01,25.74,WNW,29.28,29.59,,Overcast
KIGQ,12/29/2016 23:15 UTC,29.94,33.8,25.34,69.22,23.02,280.0,29.93,,494.0,,,362.0,432.0,,,10.0,,KIGQ 292315Z AUTO 28020G26KT 10SM SCT036 SCT043 OVC049 01/M04  A2994 RMK AO2 T00101037,,,4900.0,,,24.67,24.15,W,29.29,29.61,,Overcast
KIGQ,12/29/2016 23:35 UTC,29.94,33.44,25.7,74.6,19.57,280.0,28.77,,474.0,,,292.0,342.0,,,10.0,,KIGQ 292335Z AUTO 28017G25KT 10SM SCT029 SCT034 OVC047 01/M03  A2994 RMK AO2 T00081035,,,4700.0,,,26.14,24.53,W,29.29,29.6,,Overcast
KIGQ,12/29/2016 23:55 UTC,29.94,33.26,26.06,74.6,16.11,280.0,29.93,,434.0,,,292.0,342.0,,,10.0,,KIGQ 292355Z AUTO 28014G26KT 10SM SCT029 SCT034 OVC043 01/M03  A2994 RMK AO2 T00071033 10012 20001,34.16,32.18,4300.0,,,25.97,25.29,W,29.29,29.6,,Overcast
KIGQ,12/30/2016 00:15 UTC,29.94,33.26,25.7,74.6,19.57,280.0,32.21,,454.0,,,292.0,352.0,,,10.0,,KIGQ 300015Z AUTO 28017G28KT 10SM SCT029 SCT035 OVC045 01/M03  A2994 RMK AO2 T00071035,,,4500.0,,,25.97,24.3,W,29.29,29.6,,Overcast
KIGQ,12/30/2016 00:35 UTC,29.94,33.44,24.8,69.22,19.57,280.0,28.77,,,,,402.0,474.0,,,10.0,,KIGQ 300035Z AUTO 28017G25KT 10SM SCT040 OVC047 01/M04 A2994 RMK AO2 T00081040,,,4700.0,,,24.32,24.53,W,29.29,29.62,,Overcast
KIGQ,12/30/2016 00:55 UTC,29.95,33.26,24.62,69.22,18.41,270.0,26.46,,,,,364.0,,,,10.0,,KIGQ 300055Z AUTO 27016G23KT 10SM OVC036 01/M04 A2995 RMK AO2  T00071041,,,3600.0,,,24.15,24.61,W,29.3,29.63,,Overcast
KIGQ,12/30/2016 01:15 UTC,29.95,32.9,24.44,69.22,16.11,290.0,24.16,,,,,404.0,,,,10.0,,KIGQ 300115Z AUTO 29014G21KT 10SM OVC040 01/M04 A2995 RMK AO2  T00051042,,,4000.0,,,23.8,24.84,WNW,29.3,29.64,,Overcast
KIGQ,12/30/2016 01:35 UTC,29.95,32.9,24.26,69.22,16.11,280.0,24.16,,,,,403.0,464.0,,,10.0,,KIGQ 300135Z AUTO 28014G21KT 10SM BKN040 OVC046 01/M04 A2995 RMK AO2 T00051043,,,4000.0,,,23.8,24.84,W,29.3,29.64,,Overcast
KIGQ,12/30/2016 02:15 UTC,29.95,32.54,24.8,74.41,17.27,280.0,26.46,,,,,423.0,484.0,,,10.0,,KIGQ 300215Z AUTO 28015G23KT 10SM BKN042 OVC048 00/M04 A2995 RMK AO2 T00031040,,,4200.0,,,25.21,24.04,W,29.3,29.62,,Overcast
KIGQ,12/30/2016 02:35 UTC,29.95,32.9,24.44,69.22,18.41,280.0,24.16,,,,,362.0,424.0,,,10.0,,KIGQ 300235Z AUTO 28016G21KT 10SM SCT036 OVC042 01/M04 A2995 RMK AO2 T00051042,,,4200.0,,,23.8,24.16,W,29.3,29.64,,Overcast
KIGQ,12/30/2016 02:55 UTC,29.95,32.54,23.9,74.41,12.66,290.0,25.32,,,,,362.0,444.0,,,10.0,,KIGQ 300255Z AUTO 29011G22KT 10SM SCT036 OVC044 00/M04 A2995 RMK AO2 T00031045,,,4400.0,,,25.21,25.59,WNW,29.3,29.62,,Overcast
KIGQ,12/30/2016 03:15 UTC,29.95,32.72,22.82,69.0,14.97,290.0,25.32,,,,,464.0,,,,10.0,,KIGQ 300315Z AUTO 29013G22KT 10SM OVC046 00/M05 A2995 RMK AO2  T00041051,,,4600.0,,,23.55,24.98,WNW,29.3,29.64,,Overcast
KIGQ,12/30/2016 03:35 UTC,29.96,32.54,22.82,69.0,13.8,290.0,21.85,,,,,464.0,,,,10.0,,KIGQ 300335Z AUTO 29012G19KT 10SM OVC046 00/M05 A2996 RMK AO2  T00031051,,,4600.0,,,23.38,25.17,WNW,29.31,29.65,,Overcast
KIGQ,12/30/2016 03:55 UTC,29.95,32.36,23.36,69.0,16.11,300.0,23.02,,554.0,,,362.0,483.0,,,10.0,,KIGQ 300355Z AUTO 30014G20KT 10SM SCT036 BKN048 OVC055 00/M05  A2995 RMK AO2 T00021048,,,4800.0,,,23.21,24.17,WNW,29.3,29.65,,Overcast
KIGQ,12/30/2016 04:15 UTC,29.96,32.18,23.0,69.0,13.8,290.0,24.16,,,,,342.0,504.0,,,10.0,,KIGQ 300415Z AUTO 29012G21KT 10SM SCT034 OVC050 00/M05 A2996 RMK AO2 T00011050,,,5000.0,,,23.04,24.72,WNW,29.31,29.66,,Overcast
KIGQ,12/30/2016 04:35 UTC,29.96,32.0,22.28,69.0,14.97,290.0,27.63,,,,,504.0,,,,10.0,,KIGQ 300435Z AUTO 29013G24KT 10SM OVC050 00/M05 A2996 RMK AO2  T00001054,,,5000.0,,,22.86,24.1,WNW,29.31,29.66,,Overcast
KIGQ,12/30/2016 04:55 UTC,29.97,32.18,21.38,63.94,14.97,290.0,23.02,,,,,422.0,504.0,,,10.0,,KIGQ 300455Z AUTO 29013G20KT 10SM SCT042 OVC050 00/M06 A2997 RMK AO2 T00011059,,,5000.0,,,21.21,24.32,WNW,29.32,29.69,,Overcast
KIGQ,12/30/2016 05:15 UTC,29.97,32.0,21.92,63.94,13.8,290.0,20.71,,,,,383.0,504.0,,,10.0,,KIGQ 300515Z AUTO 29012G18KT 10SM BKN038 OVC050 00/M06 A2997 RMK AO2 T00001056,,,3800.0,,,21.04,24.5,WNW,29.32,29.69,,Overcast
KIGQ,12/30/2016 05:35 UTC,29.97,32.0,21.74,63.94,11.5,290.0,19.57,,,,,384.0,,,,10.0,,KIGQ 300535Z AUTO 29010G17KT 10SM OVC038 00/M06 A2997 RMK AO2  T00001057,,,3800.0,,,21.04,25.4,WNW,29.32,29.69,,Overcast
KIGQ,12/30/2016 05:55 UTC,29.97,32.0,21.56,63.94,13.8,310.0,20.71,,,,,383.0,444.0,,,10.0,,KIGQ 300555Z AUTO 31012G18KT 10SM BKN038 OVC044 00/M06 A2997 RMK AO2 T00001058 10008 20000 400191010,33.44,32.0,3800.0,35.42,30.2,21.04,24.5,NW,29.32,29.69,,Overcast
KIGQ,12/30/2016 06:15 UTC,29.97,31.64,20.48,63.94,11.5,300.0,20.71,,504.0,,,382.0,442.0,,,10.0,,KIGQ 300615Z AUTO 30010G18KT 10SM SCT038 SCT044 OVC050 00/M06  A2997 RMK AO2 T10021064,,,5000.0,,,20.7,24.96,WNW,29.32,29.7,,Overcast
KIGQ,12/30/2016 06:35 UTC,29.98,31.46,20.48,63.94,10.36,300.0,16.11,,,,,392.0,504.0,,,10.0,,KIGQ 300635Z AUTO 30009G14KT 10SM SCT039 OVC050 00/M06 A2998 RMK AO2 T10031064,,,5000.0,,,20.53,25.25,WNW,29.33,29.71,,Overcast
KIGQ,12/30/2016 06:55 UTC,29.98,31.28,20.3,63.94,11.5,290.0,18.41,,554.0,,,392.0,502.0,,,10.0,,KIGQ 300655Z AUTO 29010G16KT 10SM SCT039 SCT050 OVC055 00/M06  A2998 RMK AO2 T10041065,,,5500.0,,,20.35,24.53,WNW,29.33,29.71,,Overcast
KIGQ,12/30/2016 07:15 UTC,29.98,31.1,20.12,59.21,12.66,300.0,21.85,,754.0,,,422.0,553.0,,,10.0,,KIGQ 300715Z AUTO 30011G19KT 10SM SCT042 BKN055 OVC075 00/M07  A2998 RMK AO2 T10051066,,,5500.0,,,18.37,23.84,WNW,29.33,29.73,,Overcast
KIGQ,12/30/2016 07:35 UTC,29.99,30.92,19.22,63.7,14.97,300.0,19.57,,754.0,,,422.0,602.0,,,10.0,,KIGQ 300735Z AUTO 30013G17KT 10SM SCT042 SCT060 OVC075 M01/M07  A2999 RMK AO2 T10061071,,,7500.0,,,19.92,22.77,WNW,29.34,29.73,,Overcast
KIGQ,12/30/2016 07:55 UTC,29.99,30.74,17.24,58.95,14.97,300.0,20.71,,654.0,,,452.0,552.0,,,10.0,,KIGQ 300755Z AUTO 30013G18KT 10SM SCT045 SCT055 OVC065 M01/M08  A2999 RMK AO2 T10071082,,,6500.0,,,17.93,22.54,WNW,29.34,29.75,,Overcast
KIGQ,12/30/2016 08:15 UTC,30.0,30.56,16.7,58.95,13.8,300.0,19.57,,,,,654.0,,,,10.0,,KIGQ 300815Z AUTO 30012G17KT 10SM OVC065 M01/M08 A3000 RMK AO2  T10081085,,,6500.0,,,17.76,22.74,WNW,29.35,29.76,,Overcast
KIGQ,12/30/2016 08:35 UTC,30.01,30.2,17.06,58.95,16.11,300.0,21.85,,,,,654.0,,,,10.0,,KIGQ 300835Z AUTO 30014G19KT 10SM OVC065 M01/M08 A3001 RMK AO2  T10101083,,,6500.0,,,17.42,21.49,WNW,29.36,29.77,,Overcast
KIGQ,12/30/2016 08:55 UTC,30.01,30.02,17.42,58.95,11.5,310.0,17.27,,,,,654.0,,,,10.0,,KIGQ 300855Z AUTO 31010G15KT 10SM OVC065 M01/M08 A3001 RMK AO2  T10111081,,,6500.0,,,17.25,23.01,NW,29.36,29.78,,Overcast
KIGQ,12/30/2016 09:15 UTC,30.01,30.02,17.42,58.95,11.5,300.0,17.27,,,,,654.0,,,,10.0,,KIGQ 300915Z AUTO 30010G15KT 10SM OVC065 M01/M08 A3001 RMK AO2  T10111081,,,6500.0,,,17.25,23.01,WNW,29.36,29.78,,Overcast
KIGQ,12/30/2016 09:35 UTC,30.02,29.3,17.6,58.95,11.5,300.0,19.57,,,,,654.0,,,,10.0,,KIGQ 300935Z AUTO 30010G17KT 10SM OVC065 M01/M08 A3002 RMK AO2  T10151080,,,6500.0,,,16.57,22.14,WNW,29.37,29.8,,Overcast
KIGQ,12/30/2016 09:55 UTC,30.03,28.76,17.78,63.45,10.36,300.0,18.41,,,,,652.0,,,,10.0,,KIGQ 300955Z AUTO 30009G16KT 10SM SCT065 M02/M08 A3003 RMK AO2  T10181079,,,,,,17.78,22.02,WNW,29.38,29.8,,Partly Cloudy
KIGQ,12/30/2016 10:15 UTC,30.03,28.04,18.14,63.45,10.36,300.0,19.57,,,,,1.0,,,,10.0,,KIGQ 301015Z AUTO 30009G17KT 10SM CLR M02/M08 A3003 RMK AO2  T10221077,,,,,,17.09,21.16,WNW,29.38,29.81,,Clear
KIGQ,12/30/2016 10:35 UTC,30.04,27.5,18.32,63.45,14.97,300.0,18.41,,,,,1.0,,,,10.0,,KIGQ 301035Z AUTO 30013G16KT 10SM CLR M02/M08 A3004 RMK AO2  T10251076,,,,,,16.58,18.55,WNW,29.39,29.83,,Clear
KIGQ,12/30/2016 10:55 UTC,30.04,27.14,18.86,73.84,9.22,300.0,,,,,,1.0,,,,10.0,,KIGQ 301055Z AUTO 30008KT 10SM CLR M03/M07 A3004 RMK AO2  T10271073,,,,,,19.8,20.68,WNW,29.39,29.8,,Clear
KIGQ,12/30/2016 11:15 UTC,30.05,26.78,18.86,73.84,10.36,300.0,16.11,,,,,1.0,,,,10.0,,KIGQ 301115Z AUTO 30009G14KT 10SM CLR M03/M07 A3005 RMK AO2  T10291073,,,,,,19.46,19.65,WNW,29.4,29.81,,Clear
KIGQ,12/30/2016 11:35 UTC,30.06,26.24,19.04,73.84,8.05,280.0,,,,,,1.0,,,,10.0,,KIGQ 301135Z AUTO 28007KT 10SM CLR M03/M07 A3006 RMK AO2  T10321072,,,,,,18.93,20.31,W,29.41,29.83,,Clear
KIGQ,12/30/2016 11:55 UTC,30.07,25.7,20.3,79.74,11.5,290.0,17.27,,,,,1.0,,,,10.0,,KIGQ 301155Z AUTO 29010G15KT 10SM CLR M03/M06 A3007 RMK AO2  T10351065 10000 21035,32.0,25.7,,,,20.23,17.79,WNW,29.42,29.83,,Clear
KIGQ,12/30/2016 12:15 UTC,30.07,25.7,20.12,73.84,9.22,280.0,,,,,,1.0,,,,10.0,,KIGQ 301215Z AUTO 28008KT 10SM CLR M03/M07 A3007 RMK AO2  T10351066,,,,,,18.41,18.97,W,29.42,29.85,,Clear
KIGQ,12/30/2016 12:35 UTC,30.08,25.34,19.4,79.58,10.36,280.0,,,,,,1.0,,,,10.0,,KIGQ 301235Z AUTO 28009KT 10SM CLR M04/M07 A3008 RMK AO2  T10371070,,,,,,19.83,17.93,W,29.43,29.85,,Clear
KIGQ,12/30/2016 12:55 UTC,30.08,24.8,19.04,79.58,11.5,290.0,16.11,,,,,1.0,,,,10.0,,KIGQ 301255Z AUTO 29010G14KT 10SM CLR M04/M07 A3008 RMK AO2  T10401072,,,,,,19.31,16.71,WNW,29.43,29.86,,Clear
KIGQ,12/30/2016 13:15 UTC,30.08,24.62,18.5,79.58,8.05,280.0,,,,,,1.0,,,,10.0,,KIGQ 301315Z AUTO 28007KT 10SM CLR M04/M07 A3008 RMK AO2  T10411075,,,,,,19.13,18.41,W,29.43,29.86,,Clear
KIGQ,12/30/2016 13:35 UTC,30.09,24.62,18.68,79.58,9.22,280.0,,,,,,1.0,,,,10.0,,KIGQ 301335Z AUTO 28008KT 10SM CLR M04/M07 A3009 RMK AO2  T10411074,,,,,,19.13,17.69,W,29.44,29.87,,Clear
KIGQ,12/30/2016 13:55 UTC,30.09,25.16,18.86,79.58,8.05,290.0,,,,,,1.0,,,,10.0,,KIGQ 301355Z AUTO 29007KT 10SM CLR M04/M07 A3009 RMK AO2  T10381073,,,,,,19.66,19.04,WNW,29.44,29.86,,Clear
KIGQ,12/30/2016 14:15 UTC,30.1,26.06,19.22,73.84,8.05,280.0,16.11,,,,,1.0,,,,10.0,,KIGQ 301415Z AUTO 28007G14KT 10SM CLR M03/M07 A3010 RMK AO2  T10331071,,,,,,18.76,20.1,W,29.45,29.88,,Clear
KIGQ,12/30/2016 14:35 UTC,30.1,25.7,19.22,73.84,10.36,280.0,16.11,,,,,1.0,,,,10.0,,KIGQ 301435Z AUTO 28009G14KT 10SM CLR M03/M07 A3010 RMK AO2  T10351071,,,,,,18.41,18.36,W,29.45,29.88,,Clear
KIGQ,12/30/2016 14:55 UTC,30.1,26.06,19.4,73.84,9.22,290.0,,,,,,1.0,,,,10.0,,KIGQ 301455Z AUTO 29008KT 10SM CLR M03/M07 A3010 RMK AO2  T10331070,,,,,,18.76,19.4,WNW,29.45,29.88,,Clear
KIGQ,12/30/2016 15:15 UTC,30.1,27.32,19.76,73.84,10.36,280.0,,,,,,1.0,,,,10.0,,KIGQ 301515Z AUTO 28009KT 10SM CLR M03/M07 A3010 RMK AO2  T10261068,,,,,,19.98,20.3,W,29.45,29.86,,Clear
KIGQ,12/30/2016 15:35 UTC,30.1,28.04,19.94,68.56,11.5,290.0,16.11,,,,,1.0,,,,10.0,,KIGQ 301535Z AUTO 29010G14KT 10SM CLR M02/M07 A3010 RMK AO2  T10221067,,,,,,18.91,20.62,WNW,29.45,29.86,,Clear
KIGQ,12/30/2016 15:55 UTC,30.1,28.4,19.94,68.56,11.5,270.0,16.11,,,,,1.0,,,,10.0,,KIGQ 301555Z AUTO 27010G14KT 10SM CLR M02/M07 A3010 RMK AO2  T10201067,,,,,,19.26,21.05,W,29.45,29.86,,Clear
KIGQ,12/30/2016 16:15 UTC,30.1,29.3,20.48,68.78,11.5,270.0,,,,,,1.0,,,,10.0,,KIGQ 301615Z AUTO 27010KT 10SM CLR M01/M06 A3010 RMK AO2  T10151064,,,,,,20.2,22.14,W,29.45,29.85,,Clear
KIGQ,12/30/2016 16:35 UTC,30.1,29.84,20.66,68.78,13.8,250.0,,,,,,1.0,,,,10.0,,KIGQ 301635Z AUTO 25012KT 10SM CLR M01/M06 A3010 RMK AO2  T10121063,,,,,,20.71,21.86,WSW,29.45,29.84,,Clear
KIGQ,12/30/2016 16:55 UTC,30.09,29.66,20.3,68.78,14.97,270.0,,,,,,1.0,,,,10.0,,KIGQ 301655Z AUTO 27013KT 10SM CLR M01/M06 A3009 RMK AO2  T10131065,,,,,,20.54,21.21,W,29.44,29.83,,Clear
KIGQ,12/30/2016 17:15 UTC,30.08,30.2,20.84,68.78,10.36,260.0,16.11,,,,,1.0,,,,10.0,,KIGQ 301715Z AUTO 26009G14KT 10SM CLR M01/M06 A3008 RMK AO2  T10101062,,,,,,21.06,23.74,W,29.43,29.81,,Clear
KIGQ,12/30/2016 17:35 UTC,30.07,30.56,20.66,68.78,13.8,260.0,,,,,,1.0,,,,10.0,,KIGQ 301735Z AUTO 26012KT 10SM CLR M01/M06 A3007 RMK AO2  T10081063,,,,,,21.41,22.74,W,29.42,29.8,,Clear
KIGQ,12/30/2016 17:55 UTC,30.06,31.1,20.84,63.94,12.66,270.0,,,,,,1.0,,,,10.0,,KIGQ 301755Z AUTO 27011KT 10SM CLR 00/M06 A3006 RMK AO2 T10051062  11001 21041,31.82,24.62,,,,20.18,23.84,W,29.41,29.8,,Clear
KIGQ,12/30/2016 18:15 UTC,30.05,31.64,21.2,63.94,10.36,270.0,,,,,,1.0,,,,10.0,,KIGQ 301815Z AUTO 27009KT 10SM CLR 00/M06 A3005 RMK AO2  T10021060,,,,,,20.7,25.47,W,29.4,29.78,,Clear
KIGQ,12/30/2016 18:35 UTC,30.04,31.64,21.2,63.94,8.05,260.0,,,,,,1202.0,,,,10.0,,KIGQ 301835Z AUTO 26007KT 10SM SCT120 00/M06 A3004 RMK AO2  T10021060,,,,,,20.7,26.65,W,29.39,29.77,,Partly Cloudy
KIGQ,12/30/2016 18:55 UTC,30.04,32.0,22.28,69.0,11.5,260.0,,,,,,1204.0,,,,10.0,,KIGQ 301855Z AUTO 26010KT 10SM OVC120 00/M05 A3004 RMK AO2  T00001054,,,12000.0,,,22.86,25.4,W,29.39,29.74,,Overcast
KIGQ,12/30/2016 19:15 UTC,30.04,32.0,22.1,69.0,8.05,260.0,,,,,,1204.0,,,,10.0,,KIGQ 301915Z AUTO 26007KT 10SM OVC120 00/M05 A3004 RMK AO2  T00001055,,,12000.0,,,22.86,27.08,W,29.39,29.74,,Overcast
KIGQ,12/30/2016 19:35 UTC,30.03,32.0,21.56,63.94,10.36,250.0,,,,,,1204.0,,,,10.0,,KIGQ 301935Z AUTO 25009KT 10SM OVC120 00/M06 A3003 RMK AO2  T00001058,,,12000.0,,,21.04,25.9,WSW,29.38,29.75,,Overcast
KIGQ,12/30/2016 19:55 UTC,30.03,32.18,21.56,63.94,10.36,250.0,,,,,,1104.0,,,,10.0,,KIGQ 301955Z AUTO 25009KT 10SM OVC110 00/M06 A3003 RMK AO2  T00011058,,,11000.0,,,21.21,26.12,WSW,29.38,29.75,,Overcast
KIGQ,12/30/2016 20:15 UTC,30.03,32.0,21.38,63.94,12.66,240.0,,,,,,1103.0,,,,10.0,,KIGQ 302015Z AUTO 24011KT 10SM BKN110 00/M06 A3003 RMK AO2  T00001059,,,11000.0,,,21.04,24.93,WSW,29.38,29.75,,Mostly Cloudy
KIGQ,12/30/2016 20:35 UTC,30.02,32.0,21.38,63.94,11.5,230.0,21.85,,,,,1.0,,,,10.0,,KIGQ 302035Z AUTO 23010G19KT 200V280 10SM CLR 00/M06 A3002 RMK AO2  T00001059,,,,,,21.04,25.4,SW,29.37,29.74,,Clear
KIGQ,12/30/2016 20:55 UTC,30.01,32.0,21.74,63.94,10.36,240.0,,,,,,1103.0,,,,10.0,,KIGQ 302055Z AUTO 24009KT 10SM BKN110 00/M06 A3001 RMK AO2  T00001057,,,11000.0,,,21.04,25.9,WSW,29.36,29.73,,Mostly Cloudy
KIGQ,12/30/2016 21:15 UTC,29.99,32.0,22.1,69.0,6.91,210.0,,,,,,1202.0,,,,10.0,,KIGQ 302115Z AUTO 21006KT 10SM SCT120 00/M05 A2999 RMK AO2  T00001055,,,,,,22.86,,SSW,29.34,29.69,,Partly Cloudy
KIGQ,12/30/2016 21:35 UTC,29.99,32.0,22.82,69.0,9.22,200.0,,,,,,1102.0,,,,10.0,,KIGQ 302135Z AUTO 20008KT 10SM SCT110 00/M05 A2999 RMK AO2  T00001051,,,,,,22.86,26.45,SSW,29.34,29.69,,Partly Cloudy
KIGQ,12/30/2016 21:55 UTC,29.98,32.0,23.0,69.0,9.22,210.0,,,,,,1103.0,,,,10.0,,KIGQ 302155Z AUTO 21008KT 10SM BKN110 00/M05 A2998 RMK AO2  T00001050,,,11000.0,,,22.86,26.45,SSW,29.33,29.68,,Mostly Cloudy
KIGQ,12/30/2016 22:15 UTC,29.97,31.82,23.9,74.41,10.36,200.0,,,,,,1103.0,,,,10.0,,KIGQ 302215Z AUTO 20009KT 10SM BKN110 00/M04 A2997 RMK AO2  T10011045,,,11000.0,,,24.51,25.68,SSW,29.32,29.65,,Mostly Cloudy
KIGQ,12/30/2016 22:35 UTC,29.96,31.1,24.26,74.41,8.05,200.0,,,,,,1103.0,,,,10.0,,KIGQ 302235Z AUTO 20007KT 10SM BKN110 00/M04 A2996 RMK AO2  T10051043,,,11000.0,,,23.82,26.02,SSW,29.31,29.66,,Mostly Cloudy
KIGQ,12/30/2016 22:55 UTC,29.95,29.66,23.9,80.04,9.22,190.0,,,,,,1202.0,,,,10.0,,KIGQ 302255Z AUTO 19008KT 10SM SCT120 M01/M04 A2995 RMK AO2  T10131045,,,,,,24.18,23.67,S,29.3,29.65,,Partly Cloudy
KIGQ,12/30/2016 23:15 UTC,29.94,28.94,23.72,79.89,8.05,180.0,,,,,,1.0,,,,10.0,,KIGQ 302315Z AUTO 18007KT 10SM CLR M02/M05 A2994 RMK AO2  T10171046,,,,,,23.44,23.48,S,29.29,29.65,,Clear
KIGQ,12/30/2016 23:35 UTC,29.94,28.58,23.9,86.15,8.05,180.0,,,,,,1.0,,,,10.0,,KIGQ 302335Z AUTO 18007KT 10SM CLR M02/M04 A2994 RMK AO2  T10191045,,,,,,24.91,23.06,S,29.29,29.64,,Clear
KIGQ,12/30/2016 23:55 UTC,29.92,29.12,23.9,86.15,9.22,170.0,,,,,,1.0,,,,10.0,,KIGQ 302355Z AUTO 17008KT 10SM CLR M02/M04 A2992 RMK AO2 T10161045  10003 21021,32.54,28.22,,,,25.45,23.03,S,29.27,29.61,,Clear
KIGQ,12/31/2016 00:20 UTC,29.9,30.02,24.44,80.04,11.5,170.0,,,,,,1.0,,,,10.0,,KIGQ 310020Z AUTO 17010KT 10SM CLR M01/M04 A2990 RMK AO2  T10111042,,,,,,24.54,23.01,S,29.25,29.59,,Clear
KIGQ,12/31/2016 00:35 UTC,29.9,30.02,24.8,80.04,9.22,180.0,,,,,,1.0,,,,10.0,,KIGQ 310035Z AUTO 18008KT 10SM CLR M01/M04 A2990 RMK AO2  T10111040,,,,,,24.54,24.1,S,29.25,29.59,,Clear
KIGQ,12/31/2016 00:55 UTC,29.88,30.38,25.34,80.04,10.36,180.0,,,,,,1.0,,,,10.0,,KIGQ 310055Z AUTO 18009KT 10SM CLR M01/M04 A2988 RMK AO2  T10091037,,,,,,24.89,23.96,S,29.23,29.57,,Clear
KIGQ,12/31/2016 01:15 UTC,29.87,31.1,25.34,74.41,13.8,180.0,,,,,,1.0,,,,10.0,,KIGQ 310115Z AUTO 18012KT 10SM CLR 00/M04 A2987 RMK AO2  T10051037,,,,,,23.82,23.4,S,29.22,29.56,,Clear
KIGQ,12/31/2016 01:35 UTC,29.86,31.1,25.34,74.41,14.97,180.0,,,,,,1.0,,,,10.0,,KIGQ 310135Z AUTO 18013KT 10SM CLR 00/M04 A2986 RMK AO2  T10051037,,,,,,23.82,22.99,S,29.21,29.55,,Clear
KIGQ,12/31/2016 01:55 UTC,29.86,31.64,25.7,80.19,13.8,180.0,,,,,,1.0,,,,10.0,,KIGQ 310155Z AUTO 18012KT 10SM CLR 00/M03 A2986 RMK AO2  T10021035,,,,,,26.16,24.06,S,29.21,29.52,,Clear
KIGQ,12/31/2016 02:15 UTC,29.83,32.0,25.7,80.19,13.8,180.0,,,,,,1.0,,,,10.0,,KIGQ 310215Z AUTO 18012KT 10SM CLR 00/M03 A2983 RMK AO2  T00001035,,,,,,26.51,24.5,S,29.18,29.49,,Clear
KIGQ,12/31/2016 02:35 UTC,29.82,32.0,25.7,80.19,14.97,180.0,21.85,,,,,1.0,,,,10.0,,KIGQ 310235Z AUTO 18013G19KT 10SM CLR 00/M03 A2982 RMK AO2  T00001035,,,,,,26.51,24.1,S,29.17,29.48,,Clear
KIGQ,12/31/2016 02:55 UTC,29.8,32.0,25.34,74.41,17.27,180.0,24.16,,,,,1.0,,,,10.0,,KIGQ 310255Z AUTO 18015G21KT 10SM CLR 00/M04 A2980 RMK AO2  T00001037,,,,,,24.69,23.37,S,29.15,29.48,,Clear
KIGQ,12/31/2016 03:15 UTC,29.79,32.9,24.8,69.22,19.57,190.0,26.46,,,,,1.0,,,,10.0,,KIGQ 310315Z AUTO 19017G23KT 10SM CLR 01/M04 A2979 RMK AO2  T00051040,,,,,,23.8,23.85,S,29.14,29.47,,Clear
KIGQ,12/31/2016 03:35 UTC,29.78,33.08,24.8,69.22,18.41,190.0,24.16,,,,,1.0,,,,10.0,,KIGQ 310335Z AUTO 19016G21KT 10SM CLR 01/M04 A2978 RMK AO2  T00061040,,,,,,23.98,24.39,S,29.13,29.46,,Clear
KIGQ,12/31/2016 03:55 UTC,29.76,33.8,24.8,69.22,17.27,190.0,23.02,,,,,1.0,,,,10.0,,KIGQ 310355Z AUTO 19015G20KT 10SM CLR 01/M04 A2976 RMK AO2  T00101040,,,,,,24.67,25.61,S,29.11,29.43,,Clear
KIGQ,12/31/2016 04:15 UTC,29.76,33.98,24.8,69.22,23.02,190.0,27.63,,,,,1.0,,,,10.0,,KIGQ 310415Z AUTO 19020G24KT 10SM CLR 01/M04 A2976 RMK AO2  T00111040,,,,,,24.84,24.38,S,29.11,29.42,,Clear
KIGQ,12/31/2016 04:35 UTC,29.74,34.16,24.98,69.22,19.57,190.0,26.46,,,,,1.0,,,,10.0,,KIGQ 310435Z AUTO 19017G23KT 10SM CLR 01/M04 A2974 RMK AO2  T00121039,,,,,,25.01,25.43,S,29.09,29.4,,Clear
KIGQ,12/31/2016 04:55 UTC,29.73,34.7,25.16,64.42,18.41,180.0,27.63,,,,,1.0,,,,10.0,,KIGQ 310455Z AUTO 18016G24KT 10SM CLR 02/M04 A2973 RMK AO2  T00151038,,,,,,23.79,26.42,S,29.08,29.4,,Clear
KIGQ,12/31/2016 05:15 UTC,29.71,35.24,25.34,64.42,21.85,200.0,27.63,,,,,1.0,,,,10.0,,KIGQ 310515Z AUTO 20019G24KT 10SM CLR 02/M04 A2971 RMK AO2  T00181037,,,,,,24.3,26.25,SSW,29.06,29.37,,Clear
KIGQ,12/31/2016 05:35 UTC,29.7,35.6,25.7,69.43,19.57,200.0,27.63,,,,,1.0,,,,10.0,,KIGQ 310535Z AUTO 20017G24KT 10SM CLR 02/M03 A2970 RMK AO2  T00201035,,,,,,26.47,27.25,SSW,29.05,29.33,,Clear
KIGQ,12/31/2016 05:55 UTC,29.68,35.06,26.06,69.43,20.71,200.0,28.77,,,,,1.0,,,,10.0,,KIGQ 310555Z AUTO 20018G25KT 10SM CLR 02/M03 A2968 RMK AO2  T00171033 10022 21015 400221041,35.96,29.3,,35.96,24.62,25.95,26.29,SSW,29.03,29.32,,Clear
KIGQ,12/31/2016 06:15 UTC,29.66,34.88,26.24,69.43,19.57,200.0,27.63,,,,,1.0,,,,10.0,,KIGQ 310615Z AUTO 20017G24KT 10SM CLR 02/M03 A2966 RMK AO2  T00161032,,,,,,25.78,26.34,SSW,29.02,29.32,,Clear
KIGQ,12/31/2016 06:35 UTC,29.65,35.24,26.42,69.43,20.71,200.0,25.32,,,,,1.0,,,,10.0,,KIGQ 310635Z AUTO 20018G22KT 10SM CLR 02/M03 A2965 RMK AO2  T00181031,,,,,,26.12,26.51,SSW,29.01,29.3,,Clear
KIGQ,12/31/2016 06:55 UTC,29.64,36.14,26.6,69.43,23.02,210.0,26.46,,,,,1.0,,,,10.0,,KIGQ 310655Z AUTO 21020G23KT 10SM CLR 02/M03 A2964 RMK AO2  T00231030,,,,,,26.99,27.13,SSW,29.0,29.27,,Clear
KIGQ,12/31/2016 07:15 UTC,29.63,37.04,26.6,64.66,19.57,210.0,28.77,,,,,1.0,,,,10.0,,KIGQ 310715Z AUTO 21017G25KT 10SM CLR 03/M03 A2963 RMK AO2  T00281030,,,,,,26.11,29.06,SSW,28.99,29.27,,Clear
KIGQ,12/31/2016 07:35 UTC,29.63,37.4,26.6,64.66,19.57,210.0,28.77,,,,,1.0,,,,10.0,,KIGQ 310735Z AUTO 21017G25KT 10SM CLR 03/M03 A2963 RMK AO2  T00301030,,,,,,26.45,29.51,SSW,28.99,29.26,,Clear
KIGQ,12/31/2016 07:55 UTC,29.62,37.58,26.6,64.66,20.71,210.0,31.07,,,,,1.0,,,,10.0,,KIGQ 310755Z AUTO 21018G27KT 10SM CLR 03/M03 A2962 RMK AO2  T00311030,,,,,,26.62,29.47,SSW,28.98,29.25,,Clear
KIGQ,12/31/2016 08:15 UTC,29.62,37.4,26.78,64.66,19.57,220.0,28.77,,,,,1.0,,,,10.0,,KIGQ 310815Z AUTO 22017G25KT 10SM CLR 03/M03 A2962 RMK AO2  T00301029,,,,,,26.45,29.51,SW,28.98,29.25,,Clear
KIGQ,12/31/2016 08:35 UTC,29.62,37.4,26.96,64.66,19.57,220.0,27.63,,,,,1.0,,,,10.0,,KIGQ 310835Z AUTO 22017G24KT 10SM CLR 03/M03 A2962 RMK AO2  T00301028,,,,,,26.45,29.51,SW,28.98,29.25,,Clear
KIGQ,12/31/2016 08:55 UTC,29.61,37.4,27.14,64.66,14.97,220.0,28.77,,,,,1.0,,,,10.0,,KIGQ 310855Z AUTO 22013G25KT 10SM CLR 03/M03 A2961 RMK AO2  T00301027,,,,,,26.45,30.75,SW,28.97,29.24,,Clear
KIGQ,12/31/2016 09:15 UTC,29.61,37.58,26.6,64.66,16.11,220.0,25.32,,,,,1.0,,,,10.0,,KIGQ 310915Z AUTO 22014G22KT 10SM CLR 03/M03 A2961 RMK AO2  T00311030,,,,,,26.62,30.64,SW,28.97,29.24,,Clear
KIGQ,12/31/2016 09:35 UTC,29.61,37.58,26.6,64.66,18.41,220.0,24.16,,,,,1.0,,,,10.0,,KIGQ 310935Z AUTO 22016G21KT 10SM CLR 03/M03 A2961 RMK AO2  T00311030,,,,,,26.62,30.03,SW,28.97,29.24,,Clear
KIGQ,12/31/2016 09:55 UTC,29.6,38.12,26.42,64.66,19.57,230.0,26.46,,,,,1.0,,,,10.0,,KIGQ 310955Z AUTO 23017G23KT 10SM CLR 03/M03 A2960 RMK AO2  T00341031,,,,,,27.13,30.42,SW,28.96,29.22,,Clear
KIGQ,12/31/2016 10:15 UTC,29.6,37.76,26.42,64.66,13.8,220.0,23.02,,,,,1.0,,,,10.0,,KIGQ 311015Z AUTO 22012G20KT 10SM CLR 03/M03 A2960 RMK AO2  T00321031,,,,,,26.79,31.56,SW,28.96,29.22,,Clear
KIGQ,12/31/2016 10:35 UTC,29.59,37.4,26.42,64.66,12.66,220.0,21.85,,,,,1.0,,,,10.0,,KIGQ 311035Z AUTO 22011G19KT 10SM CLR 03/M03 A2959 RMK AO2  T00301031,,,,,,26.45,31.5,SW,28.95,29.22,,Clear
KIGQ,12/31/2016 10:55 UTC,29.59,37.4,26.42,64.66,13.8,220.0,23.02,,,,,1.0,,,,10.0,,KIGQ 311055Z AUTO 22012G20KT 10SM CLR 03/M03 A2959 RMK AO2  T00301031,,,,,,26.45,31.12,SW,28.95,29.22,,Clear
KIGQ,12/31/2016 11:15 UTC,29.59,36.68,26.42,64.66,14.97,220.0,21.85,,,,,1.0,,,,10.0,,KIGQ 311115Z AUTO 22013G19KT 10SM CLR 03/M03 A2959 RMK AO2  T00261031,,,,,,25.76,29.86,SW,28.95,29.23,,Clear
KIGQ,12/31/2016 11:35 UTC,29.59,36.68,26.6,64.66,13.8,220.0,21.85,,,,,1.0,,,,10.0,,KIGQ 311135Z AUTO 22012G19KT 10SM CLR 03/M03 A2959 RMK AO2  T00261030,,,,,,25.76,30.23,SW,28.95,29.23,,Clear
KIGQ,12/31/2016 11:55 UTC,29.6,36.86,26.42,64.66,13.8,230.0,19.57,,,,,1.0,,,,10.0,,KIGQ 311155Z AUTO 23012G17KT 10SM CLR 03/M03 A2960 RMK AO2  T00271031 10034 20016,38.12,34.88,,,,25.93,30.45,SW,28.96,29.24,,Clear
KIGQ,12/31/2016 12:15 UTC,29.59,37.04,26.42,64.66,14.97,220.0,21.85,,,,,1.0,,,,10.0,,KIGQ 311215Z AUTO 22013G19KT 10SM CLR 03/M03 A2959 RMK AO2  T00281031,,,,,,26.11,30.31,SW,28.95,29.23,,Clear
KIGQ,12/31/2016 12:35 UTC,29.59,36.86,26.6,64.66,10.36,220.0,20.71,,,,,1.0,,,,10.0,,KIGQ 311235Z AUTO 22009G18KT 10SM CLR 03/M03 A2959 RMK AO2  T00271030,,,,,,25.93,31.72,SW,28.95,29.23,,Clear
KIGQ,12/31/2016 12:55 UTC,29.59,36.5,26.6,64.66,11.5,220.0,,,,,,1.0,,,,10.0,,KIGQ 311255Z AUTO 22010KT 10SM CLR 03/M03 A2959 RMK AO2  T00251030,,,,,,25.59,30.83,SW,28.95,29.24,,Clear
KIGQ,12/31/2016 13:15 UTC,29.59,36.14,26.6,69.43,10.36,220.0,,,,,,1.0,,,,10.0,,KIGQ 311315Z AUTO 22009KT 10SM CLR 02/M03 A2959 RMK AO2  T00231030,,,,,,26.99,30.86,SW,28.95,29.22,,Clear
KIGQ,12/31/2016 13:35 UTC,29.59,36.86,26.42,64.66,13.8,220.0,18.41,,,,,1.0,,,,10.0,,KIGQ 311335Z AUTO 22012G16KT 10SM CLR 03/M03 A2959 RMK AO2  T00271031,,,,,,25.93,30.45,SW,28.95,29.23,,Clear
KIGQ,12/31/2016 13:55 UTC,29.6,37.58,26.06,64.66,17.27,230.0,21.85,,,,,1.0,,,,10.0,,KIGQ 311355Z AUTO 23015G19KT 10SM CLR 03/M03 A2960 RMK AO2  T00311033,,,,,,26.62,30.32,SW,28.96,29.23,,Clear
KIGQ,12/31/2016 14:15 UTC,29.6,38.12,25.88,64.66,18.41,230.0,24.16,,,,,1.0,,,,10.0,,KIGQ 311415Z AUTO 23016G21KT 10SM CLR 03/M03 A2960 RMK AO2  T00341034,,,,,,27.13,30.7,SW,28.96,29.22,,Clear
KIGQ,12/31/2016 14:35 UTC,29.61,37.94,26.24,64.66,16.11,230.0,21.85,,,,,1.0,,,,10.0,,KIGQ 311435Z AUTO 23014G19KT 10SM CLR 03/M03 A2961 RMK AO2  T00331032,,,,,,26.96,31.09,SW,28.97,29.23,,Clear
KIGQ,12/31/2016 14:55 UTC,29.61,38.3,26.42,60.26,16.11,230.0,21.85,,,,,1.0,,,,10.0,,KIGQ 311455Z AUTO 23014G19KT 10SM CLR 04/M03 A2961 RMK AO2  T00351031,,,,,,25.58,31.53,SW,28.97,29.25,,Clear
KIGQ,12/31/2016 15:15 UTC,29.61,39.02,26.6,60.26,17.27,230.0,,,,,,1.0,,,,10.0,,KIGQ 311515Z AUTO 23015KT 10SM CLR 04/M03 A2961 RMK AO2  T00391030,,,,,,26.26,32.12,SW,28.97,29.23,,Clear
KIGQ,12/31/2016 15:35 UTC,29.61,39.2,26.6,60.26,14.97,240.0,23.02,,,,,1.0,,,,10.0,,KIGQ 311535Z AUTO 24013G20KT 10SM CLR 04/M03 A2961 RMK AO2  T00401030,,,,,,26.43,32.97,WSW,28.97,29.23,,Clear
KIGQ,12/31/2016 15:55 UTC,29.62,39.74,26.6,60.26,16.11,240.0,24.16,,,,,1.0,,,,10.0,,KIGQ 311555Z AUTO 24014G21KT 10SM CLR 04/M03 A2962 RMK AO2  T00431030,,,,,,26.94,33.32,WSW,28.98,29.23,,Clear
KIGQ,12/31/2016 16:15 UTC,29.63,41.0,27.14,56.19,18.41,250.0,25.32,,,,,1.0,,,,10.0,,KIGQ 311615Z AUTO 25016G22KT 10SM CLR 05/M03 A2963 RMK AO2  T00501027,,,,,,26.42,34.31,WSW,28.99,29.24,,Clear
KIGQ,12/31/2016 16:35 UTC,29.63,41.36,27.86,60.51,17.27,250.0,21.85,,,,,1.0,,,,10.0,,KIGQ 311635Z AUTO 25015G19KT 10SM CLR 05/M02 A2963 RMK AO2  T00521023,,,,,,28.58,35.03,WSW,28.99,29.21,,Clear
KIGQ,12/31/2016 16:55 UTC,29.63,41.36,27.86,60.51,18.41,250.0,25.32,,,,,1.0,,,,10.0,,KIGQ 311655Z AUTO 25016G22KT 10SM CLR 05/M02 A2963 RMK AO2  T00521023,,,,,,28.58,34.76,WSW,28.99,29.21,,Clear
KIGQ,12/31/2016 17:15 UTC,29.64,41.54,28.04,60.51,16.11,260.0,24.16,,,,,1.0,,,,10.0,,KIGQ 311715Z AUTO 26014G21KT 10SM CLR 05/M02 A2964 RMK AO2  T00531022,,,,,,28.75,35.55,W,29.0,29.22,,Clear
KIGQ,12/31/2016 17:35 UTC,29.66,41.18,27.68,60.51,19.57,270.0,26.46,,,,,1.0,,,,10.0,,KIGQ 311735Z AUTO 27017G23KT 10SM CLR 05/M02 A2966 RMK AO2  T00511024,,,,,,28.41,34.27,W,29.02,29.24,,Clear
KIGQ,12/31/2016 17:55 UTC,29.67,39.56,27.86,64.9,16.11,270.0,20.71,,,,,1002.0,,,,10.0,,KIGQ 311755Z AUTO 27014G18KT 10SM SCT100 04/M02 A2967 RMK AO2  T00421023 10054 20022,41.72,35.96,,,,28.6,33.09,W,29.02,29.25,,Partly Cloudy
KIGQ,12/31/2016 18:15 UTC,29.66,39.56,27.32,60.26,14.97,270.0,20.71,,,,,1002.0,1202.0,,,10.0,,KIGQ 311815Z AUTO 27013G18KT 10SM SCT100 SCT120 04/M03 A2966 RMK AO2 T00421026,,,,,,26.77,33.41,W,29.02,29.28,,Partly Cloudy
KIGQ,12/31/2016 18:35 UTC,29.66,40.1,27.14,56.19,17.27,260.0,21.85,,,,,1.0,,,,10.0,,KIGQ 311835Z AUTO 26015G19KT 10SM CLR 05/M03 A2966 RMK AO2  T00451027,,,,,,25.58,33.46,W,29.02,29.29,,Clear
KIGQ,12/31/2016 18:55 UTC,29.67,39.92,27.5,64.9,16.11,270.0,24.16,,,,,1003.0,1203.0,,,10.0,,KIGQ 311855Z AUTO 27014G21KT 10SM BKN100 BKN120 04/M02 A2967 RMK AO2 T00441025,,,10000.0,,,28.94,33.54,W,29.02,29.24,,Mostly Cloudy
KIGQ,12/31/2016 19:15 UTC,29.68,38.48,27.32,60.26,13.8,290.0,25.32,,,,,352.0,1004.0,,,10.0,,KIGQ 311915Z AUTO 29012G22KT 10SM SCT035 OVC100 04/M03 A2968 RMK AO2 T00361026,,,10000.0,,,25.75,32.44,WNW,29.03,29.31,,Overcast
KIGQ,12/31/2016 19:35 UTC,29.7,37.58,26.42,64.66,19.57,280.0,25.32,,,,,353.0,903.0,,,10.0,,KIGQ 311935Z AUTO 28017G22KT 10SM BKN035 BKN090 03/M03 A2970 RMK AO2 T00311031,,,3500.0,,,26.62,29.74,W,29.05,29.32,,Mostly Cloudy
KIGQ,12/31/2016 19:55 UTC,29.71,36.32,25.52,64.42,14.97,280.0,26.46,,,,,332.0,903.0,,,10.0,,KIGQ 311955Z AUTO 28013G23KT 10SM SCT033 BKN090 02/M04 A2971 RMK AO2 T00241036,,,9000.0,,,25.33,29.42,W,29.06,29.35,,Mostly Cloudy
KIGQ,12/31/2016 20:15 UTC,29.71,35.6,24.8,64.42,13.8,290.0,27.63,,,,,353.0,,,,10.0,,KIGQ 312015Z AUTO 29012G24KT 10SM BKN035 02/M04 A2971 RMK AO2  T00201040,,,3500.0,,,24.64,28.91,WNW,29.06,29.37,,Mostly Cloudy
KIGQ,12/31/2016 20:35 UTC,29.73,35.96,25.7,69.43,16.11,270.0,21.85,,,,,354.0,,,,10.0,,KIGQ 312035Z AUTO 27014G19KT 10SM OVC035 02/M03 A2973 RMK AO2  T00221035,,,3500.0,,,26.81,28.63,W,29.08,29.36,,Overcast
KIGQ,12/31/2016 20:55 UTC,29.74,36.32,25.52,64.42,13.8,280.0,19.57,,,,,354.0,,,,10.0,,KIGQ 312055Z AUTO 28012G17KT 10SM OVC035 02/M04 A2974 RMK AO2  T00241036,,,3500.0,,,25.33,29.79,W,29.09,29.38,,Overcast
KIGQ,12/31/2016 21:15 UTC,29.75,35.78,24.8,64.42,13.8,280.0,23.02,,,,,354.0,,,,10.0,,KIGQ 312115Z AUTO 28012G20KT 10SM OVC035 02/M04 A2975 RMK AO2  T00211040,,,3500.0,,,24.82,29.13,W,29.1,29.4,,Overcast
KIGQ,12/31/2016 21:35 UTC,29.76,35.24,23.54,59.74,10.36,290.0,20.71,,,,,374.0,,,,10.0,,KIGQ 312135Z AUTO 29009G18KT 10SM OVC037 02/M05 A2976 RMK AO2  T00181047,,,3700.0,,,22.49,29.78,WNW,29.11,29.44,,Overcast
KIGQ,12/31/2016 21:55 UTC,29.78,34.16,23.18,64.18,11.5,300.0,21.85,,,,,374.0,,,,10.0,,KIGQ 312155Z AUTO 30010G19KT 10SM OVC037 01/M05 A2978 RMK AO2  T00121049,,,3700.0,,,23.18,28.01,WNW,29.13,29.46,,Overcast
KIGQ,12/31/2016 22:15 UTC,29.79,33.8,23.54,64.18,12.66,290.0,18.41,,,,,374.0,,,,10.0,,KIGQ 312215Z AUTO 29011G16KT 10SM OVC037 01/M05 A2979 RMK AO2  T00101047,,,3700.0,,,22.84,27.12,WNW,29.14,29.48,,Overcast
KIGQ,12/31/2016 22:35 UTC,29.81,33.8,23.36,64.18,14.97,290.0,24.16,,,,,374.0,,,,10.0,,KIGQ 312235Z AUTO 29013G21KT 10SM OVC037 01/M05 A2981 RMK AO2  T00101048,,,3700.0,,,22.84,26.31,WNW,29.16,29.5,,Overcast
KIGQ,12/31/2016 22:55 UTC,29.82,33.08,22.46,64.18,12.66,280.0,25.32,,,,,374.0,,,,10.0,,KIGQ 312255Z AUTO 28011G22KT 10SM OVC037 01/M05 A2982 RMK AO2  T00061053,,,3700.0,,,22.16,26.24,W,29.17,29.52,,Overcast
KIGQ,12/31/2016 23:15 UTC,29.84,33.08,22.64,64.18,11.5,300.0,20.71,,,,,374.0,,,,10.0,,KIGQ 312315Z AUTO 30010G18KT 10SM OVC037 01/M05 A2984 RMK AO2  T00061052,,,3700.0,,,22.16,26.7,WNW,29.19,29.54,,Overcast
KIGQ,12/31/2016 23:35 UTC,29.85,32.72,22.46,69.0,12.66,300.0,19.57,,,,,374.0,,,,10.0,,KIGQ 312335Z AUTO 30011G17KT 10SM OVC037 00/M05 A2985 RMK AO2  T00041053,,,3700.0,,,23.55,25.81,WNW,29.2,29.54,,Overcast
KIGQ,12/31/2016 23:55 UTC,29.87,32.0,21.92,63.94,11.5,290.0,20.71,,,,,354.0,,,,10.0,,KIGQ 312355Z AUTO 29010G18KT 10SM OVC035 00/M06 A2987 RMK AO2  T00001056 10046 20000,40.28,32.0,3500.0,,,21.04,25.4,WNW,29.22,29.59,,Overcast
