# STATION: KIGQ
# STATION NAME: Lansing Municipal Airport
# LATITUDE: 41.54125
# LONGITUDE: -87.52822
# ELEVATION [ft]: 607
# STATE: IL
Station_ID,Date_Time,altimeter_set_1,air_temp_set_1,dew_point_temperature_set_1,relative_humidity_set_1,wind_speed_set_1,wind_direction_set_1,wind_gust_set_1,weather_cond_code_set_1,cloud_layer_3_code_set_1,precip_accum_one_hour_set_1,precip_accum_three_hour_set_1,cloud_layer_1_code_set_1,cloud_layer_2_code_set_1,precip_accum_six_hour_set_1,precip_accum_24_hour_set_1,visibility_set_1,metar_remark_set_1,metar_set_1,air_temp_high_6_hour_set_1,air_temp_low_6_hour_set_1,ceiling_set_1,air_temp_high_24_hour_set_1,air_temp_low_24_hour_set_1,dew_point_temperature_set_1d,wind_chill_set_1d,wind_cardinal_direction_set_1d,pressure_set_1d,sea_level_pressure_set_1d,heat_index_set_1d,weather_condition_set_1d
,,INHG,Fahrenheit,Fahrenheit,%,Miles/hour,Degrees,Miles/hour,code,code,Inches,Inches,code,code,Inches,Inches,Statute miles,text,text,Fahrenheit,Fahrenheit,Feet,Fahrenheit,Fahrenheit,Fahrenheit,Fahrenheit,Code,INHG,INHG,Fahrenheit,Code
KIGQ,07/01/2016 00:15 UTC,29.93,75.2,55.4,50.25,10.36,200.0,,,,,,1103.0,,,,10.0,,,,,11000.0,,,55.38,,SSW,29.28,28.47,,Mostly Cloudy
KIGQ,07/01/2016 00:35 UTC,29.94,73.94,55.4,53.36,10.36,190.0,,,,,,502.0,1102.0,,,10.0,,,,,,,,55.87,,S,29.29,28.46,,Partly Cloudy
KIGQ,07/01/2016 00:55 UTC,29.94,73.76,55.4,53.36,10.36,220.0,,,,,,504.0,,,,10.0,,,,,5000.0,,,55.7,,SW,29.29,28.47,,Overcast
KIGQ,07/01/2016 01:15 UTC,29.94,72.68,55.76,53.36,6.91,220.0,,,,,,483.0,553.0,,,10.0,,,,,4800.0,,,54.69,,SW,29.29,28.53,,Mostly Cloudy
KIGQ,07/01/2016 01:35 UTC,29.93,71.78,56.3,58.22,4.61,210.0,,,,,,462.0,553.0,,,10.0,,,,,5500.0,,,56.26,,SSW,29.28,28.45,,Mostly Cloudy
KIGQ,07/01/2016 01:55 UTC,29.93,70.34,57.2,64.32,5.75,190.0,,,,,,444.0,,,,10.0,,,,,4400.0,,,57.67,,S,29.28,28.4,,Overcast
KIGQ,07/01/2016 02:15 UTC,29.92,70.16,57.56,64.32,5.75,190.0,,,,,,422.0,504.0,,,10.0,,,,,5000.0,,,57.5,,S,29.27,28.4,,Overcast
KIGQ,07/01/2016 02:35 UTC,29.93,70.7,58.1,64.43,4.61,200.0,,,504.0,,,383.0,463.0,,,10.0,,,,,3800.0,,,58.06,,SSW,29.28,28.38,,Overcast
KIGQ,07/01/2016 02:55 UTC,29.93,71.06,58.1,64.54,4.61,210.0,,,,,,404.0,,,,10.0,,,,,4000.0,,,58.45,,SSW,29.28,28.35,,Overcast
KIGQ,07/01/2016 03:15 UTC,29.92,70.16,58.64,68.61,5.75,190.0,,,,,,424.0,,,,10.0,,,,,4200.0,,,59.31,,S,29.27,28.31,,Overcast
KIGQ,07/01/2016 03:35 UTC,29.92,69.98,58.46,66.89,3.44,190.0,,,,,,424.0,,,,10.0,,,,,4200.0,,,58.42,,S,29.27,28.35,,Overcast
KIGQ,07/01/2016 03:55 UTC,29.91,68.9,59.0,68.61,3.44,200.0,,,,,,423.0,484.0,,,10.0,,,,,4200.0,,,58.1,,SSW,29.26,28.37,,Overcast
KIGQ,07/01/2016 04:15 UTC,29.91,69.08,59.18,70.77,0.0,0.0,,,504.0,,,403.0,473.0,,,10.0,,,,,4000.0,,,59.14,,N,29.26,28.32,,Overcast
KIGQ,07/01/2016 04:35 UTC,29.91,70.34,58.46,68.61,3.44,250.0,,,504.0,,,383.0,443.0,,,10.0,,,,,3800.0,,,59.48,,WSW,29.26,28.29,,Overcast
KIGQ,07/01/2016 04:55 UTC,29.91,69.98,58.46,68.61,3.44,230.0,,,853.0,,,403.0,603.0,,,10.0,,,,,4000.0,,,59.13,,SW,29.26,28.31,,Mostly Cloudy
KIGQ,07/01/2016 05:15 UTC,29.91,69.08,57.92,64.32,3.44,260.0,,,1102.0,,,422.0,852.0,,,10.0,,,,,,,,56.47,,W,29.26,28.45,,Partly Cloudy
KIGQ,07/01/2016 05:35 UTC,29.91,69.08,58.1,68.09,3.44,290.0,,,,,,1003.0,,,,10.0,,,,,10000.0,,,58.06,,WNW,29.26,28.37,,Mostly Cloudy
KIGQ,07/01/2016 05:55 UTC,29.9,68.72,57.74,68.41,3.44,270.0,,,753.0,,,312.0,482.0,,,10.0,,,74.84,68.72,7500.0,78.8,55.4,57.84,,W,29.25,28.38,,Mostly Cloudy
KIGQ,07/01/2016 06:15 UTC,29.9,68.36,58.1,72.97,4.61,290.0,,,753.0,,,312.0,482.0,,,10.0,,,,,7500.0,,,59.31,,WNW,29.25,28.31,,Mostly Cloudy
KIGQ,07/01/2016 06:35 UTC,29.91,67.46,58.46,72.97,4.61,290.0,,,,,,652.0,753.0,,,10.0,,,,,7500.0,,,58.44,,WNW,29.26,28.37,,Mostly Cloudy
KIGQ,07/01/2016 06:55 UTC,29.9,66.92,59.0,77.64,4.61,300.0,,,,,,652.0,,,,10.0,,,,,,,,59.66,,WNW,29.25,28.3,,Partly Cloudy
KIGQ,07/01/2016 07:15 UTC,29.91,67.1,59.72,72.97,5.75,300.0,,,,,,1.0,,,,10.0,,,,,,,,58.09,,WNW,29.26,28.39,,Clear
KIGQ,07/01/2016 07:35 UTC,29.91,67.28,59.54,72.97,5.75,300.0,,,,,,1.0,,,,10.0,,,,,,,,58.27,,WNW,29.26,28.38,,Clear
KIGQ,07/01/2016 07:55 UTC,29.91,67.1,59.18,72.97,3.44,300.0,,,,,,702.0,,,,10.0,,,,,,,,58.09,,WNW,29.26,28.39,,Partly Cloudy
KIGQ,07/01/2016 08:15 UTC,29.91,66.38,59.0,77.64,3.44,300.0,,,,,,702.0,,,,10.0,,,,,,,,59.14,,WNW,29.26,28.35,,Partly Cloudy
KIGQ,07/01/2016 08:35 UTC,29.91,65.48,58.82,79.09,0.0,0.0,,,,,,1.0,,,,10.0,,,,,,,,58.78,,N,29.26,28.38,,Clear
KIGQ,07/01/2016 08:55 UTC,29.92,64.76,58.1,82.65,3.44,320.0,,,,,,1.0,,,,10.0,,,,,,,,59.32,,NW,29.27,28.37,,Clear
KIGQ,07/01/2016 09:15 UTC,29.93,64.4,58.1,82.65,5.75,330.0,,,,,,1.0,,,,10.0,,,,,,,,58.97,,NNW,29.28,28.4,,Clear
KIGQ,07/01/2016 09:35 UTC,29.94,64.4,58.28,82.65,8.05,340.0,,,,,,1.0,,,,10.0,,,,,,,,58.97,,NNW,29.29,28.41,,Clear
KIGQ,07/01/2016 09:55 UTC,29.94,64.4,58.82,82.65,9.22,330.0,,,,,,162.0,,,,10.0,,,,,,,,58.97,,NNW,29.29,28.41,,Partly Cloudy
KIGQ,07/01/2016 10:15 UTC,29.95,64.22,58.64,82.65,10.36,330.0,17.27,,,,,162.0,,,,10.0,,,,,,,,58.79,,NNW,29.3,28.43,,Partly Cloudy
KIGQ,07/01/2016 10:35 UTC,29.96,64.4,58.64,81.59,8.05,340.0,,,,,,192.0,,,,10.0,,,,,,,,58.61,,NNW,29.31,28.45,,Partly Cloudy
KIGQ,07/01/2016 10:55 UTC,29.97,64.22,58.64,82.65,4.61,340.0,,,,,,192.0,243.0,,,10.0,,,,,2400.0,,,58.79,,NNW,29.32,28.45,,Mostly Cloudy
KIGQ,07/01/2016 11:15 UTC,29.98,64.4,59.0,82.65,6.91,340.0,,,303.0,,,173.0,263.0,,,10.0,,,,,1700.0,,,58.97,,NNW,29.33,28.45,,Mostly Cloudy
KIGQ,07/01/2016 11:35 UTC,29.99,64.4,59.0,82.65,4.61,340.0,,,,,,172.0,302.0,,,10.0,,,,,,,,58.97,,NNW,29.34,28.46,,Partly Cloudy
KIGQ,07/01/2016 11:55 UTC,30.0,65.3,58.28,77.64,9.22,360.0,17.27,,,,,172.0,303.0,,,10.0,,,68.54,63.86,3000.0,,,58.09,,N,29.35,28.5,,Mostly Cloudy
KIGQ,07/01/2016 12:15 UTC,30.0,65.3,58.28,77.64,4.61,360.0,,,,,,172.0,303.0,,,10.0,,,,,3000.0,,,58.09,,N,29.35,28.5,,Mostly Cloudy
KIGQ,07/01/2016 12:35 UTC,30.01,66.92,58.28,73.8,12.66,10.0,21.85,,304.0,,,173.0,223.0,,,10.0,,,,,1700.0,,,58.24,,N,29.36,28.49,,Overcast
KIGQ,07/01/2016 12:55 UTC,30.02,66.74,58.1,77.64,11.5,10.0,21.85,,384.0,,,193.0,243.0,,,10.0,,,,,1900.0,,,59.49,,N,29.37,28.44,,Overcast
KIGQ,07/01/2016 13:15 UTC,30.03,67.82,57.2,68.41,17.27,360.0,24.16,,383.0,,,213.0,313.0,,,10.0,,,,,2100.0,,,56.98,,N,29.38,28.56,,Mostly Cloudy
KIGQ,07/01/2016 13:35 UTC,30.03,68.54,57.56,68.03,9.22,360.0,20.71,,313.0,,,213.0,253.0,,,10.0,,,,,2100.0,,,57.52,,N,29.38,28.53,,Mostly Cloudy
KIGQ,07/01/2016 13:55 UTC,30.04,66.74,57.2,72.78,12.66,10.0,19.57,,433.0,,,213.0,313.0,,,10.0,,,,,2100.0,,,57.67,,N,29.39,28.55,,Mostly Cloudy
KIGQ,07/01/2016 14:15 UTC,30.05,68.0,57.2,68.41,14.97,20.0,23.02,,323.0,,,192.0,263.0,,,10.0,,,,,2600.0,,,57.15,,NNE,29.4,28.57,,Mostly Cloudy
KIGQ,07/01/2016 14:35 UTC,30.06,67.46,55.94,66.59,12.66,360.0,23.02,,,,,223.0,303.0,,,10.0,,,,,2200.0,,,55.89,,N,29.41,28.65,,Mostly Cloudy
KIGQ,07/01/2016 14:55 UTC,30.06,66.02,54.68,68.2,17.27,10.0,25.32,,343.0,,,223.0,263.0,,,10.0,,,,,2200.0,,,55.17,,N,29.41,28.7,,Mostly Cloudy
KIGQ,07/01/2016 15:15 UTC,30.07,66.74,54.86,68.2,14.97,20.0,23.02,,,,,243.0,344.0,,,10.0,,,,,2400.0,,,55.86,,NNE,29.42,28.67,,Overcast
KIGQ,07/01/2016 15:35 UTC,30.08,67.28,54.14,62.76,14.97,20.0,21.85,,,,,263.0,344.0,,,10.0,,,,,2600.0,,,54.08,,NNE,29.43,28.75,,Overcast
KIGQ,07/01/2016 15:55 UTC,30.08,66.74,53.78,63.87,14.97,30.0,21.85,,,,,262.0,344.0,,,10.0,,,,,3400.0,,,54.05,,NNE,29.43,28.76,,Overcast
KIGQ,07/01/2016 16:15 UTC,30.09,67.46,53.96,60.03,10.36,360.0,23.02,,,,,293.0,334.0,,,10.0,,,,,2900.0,,,53.03,,N,29.44,28.81,,Overcast
KIGQ,07/01/2016 16:35 UTC,30.09,68.36,53.78,59.68,12.66,30.0,21.85,,,,,303.0,344.0,,,10.0,,,,,3000.0,,,53.72,,NNE,29.44,28.77,,Overcast
KIGQ,07/01/2016 16:55 UTC,30.1,68.54,53.6,60.03,12.66,30.0,20.71,,,,,283.0,324.0,,,10.0,,,,,2800.0,,,54.05,,NNE,29.45,28.76,,Overcast
KIGQ,07/01/2016 17:15 UTC,30.1,68.54,53.24,60.03,11.5,20.0,,,,,,283.0,,,,10.0,,,,,2800.0,,,54.05,,NNE,29.45,28.76,,Mostly Cloudy
KIGQ,07/01/2016 17:35 UTC,30.11,68.36,53.24,58.52,11.5,10.0,18.41,,,,,283.0,,,,10.0,,,,,2800.0,,,53.18,,N,29.46,28.81,,Mostly Cloudy
KIGQ,07/01/2016 17:55 UTC,30.11,69.44,53.6,56.44,13.8,40.0,20.71,,,,,283.0,,,,10.0,,,70.16,65.3,2800.0,,,53.2,,NE,29.46,28.8,,Mostly Cloudy
KIGQ,07/01/2016 18:15 UTC,30.11,69.8,53.24,56.44,4.61,20.0,17.27,,,,,282.0,,,,10.0,,,,,,,,53.54,,NNE,29.46,28.78,,Partly Cloudy
KIGQ,07/01/2016 18:35 UTC,30.11,69.8,53.6,56.44,12.66,50.0,17.27,,,,,302.0,372.0,,,10.0,,,,,,,,53.54,,NE,29.46,28.78,,Partly Cloudy
KIGQ,07/01/2016 18:55 UTC,30.12,69.62,52.16,52.83,8.05,20.0,18.41,,,,,322.0,,,,10.0,,,,,,,,51.57,,NNE,29.47,28.88,,Partly Cloudy
KIGQ,07/01/2016 19:15 UTC,30.11,69.8,52.88,56.44,9.22,50.0,17.27,,,,,322.0,,,,10.0,,,,,,,,53.54,,NE,29.46,28.78,,Partly Cloudy
KIGQ,07/01/2016 19:35 UTC,30.12,70.16,51.26,51.16,9.22,20.0,,,,,,322.0,,,,10.0,,,,,,,,51.2,,NNE,29.47,28.89,,Partly Cloudy
KIGQ,07/01/2016 19:55 UTC,30.12,69.62,52.7,56.44,10.36,40.0,,,,,,342.0,,,,10.0,,,,,,,,53.37,,NE,29.47,28.8,,Partly Cloudy
KIGQ,07/01/2016 20:15 UTC,30.12,67.64,52.52,56.19,13.8,30.0,18.41,,,,,323.0,,,,10.0,,,,,3200.0,,,51.4,,NNE,29.47,28.9,,Mostly Cloudy
KIGQ,07/01/2016 20:35 UTC,30.12,67.1,52.7,60.03,10.36,40.0,19.57,,,,,323.0,,,,10.0,,,,,3200.0,,,52.69,,NE,29.47,28.86,,Mostly Cloudy
KIGQ,07/01/2016 20:55 UTC,30.13,68.0,52.88,60.03,12.66,60.0,19.57,,,,,302.0,362.0,,,10.0,,,,,,,,53.54,,ENE,29.47,28.81,,Partly Cloudy
KIGQ,07/01/2016 21:15 UTC,30.12,67.28,53.06,60.03,13.8,60.0,18.41,,,,,283.0,,,,10.0,,,,,2800.0,,,52.86,,ENE,29.47,28.85,,Mostly Cloudy
KIGQ,07/01/2016 21:35 UTC,30.13,66.02,53.06,63.01,12.66,50.0,16.11,,,,,282.0,,,,10.0,,,,,,,,52.99,,NE,29.47,28.85,,Partly Cloudy
KIGQ,07/01/2016 21:55 UTC,30.13,66.38,52.88,63.87,3.44,30.0,20.71,,,,,1.0,,,,10.0,,,,,,,,53.71,,NNE,29.47,28.82,,Clear
KIGQ,07/01/2016 22:15 UTC,30.13,65.84,52.7,63.87,12.66,60.0,,,,,,262.0,,,,10.0,,,,,,,,53.19,,ENE,29.47,28.85,,Partly Cloudy
KIGQ,07/01/2016 22:35 UTC,30.13,67.28,51.62,57.22,5.75,30.0,,,,,,1.0,,,,10.0,,,,,,,,51.55,,NNE,29.47,28.9,,Clear
KIGQ,07/01/2016 22:55 UTC,30.13,67.1,50.36,52.57,9.22,50.0,,,,,,1.0,,,,10.0,,,,,,,,49.09,,NE,29.47,29.0,,Clear
KIGQ,07/01/2016 23:15 UTC,30.13,66.56,50.0,55.93,10.36,10.0,16.11,,,,,1.0,,,,10.0,,,,,,,,50.26,,N,29.47,28.96,,Clear
KIGQ,07/01/2016 23:35 UTC,30.13,66.74,50.54,56.01,9.22,40.0,,,,,,1.0,,,,10.0,,,,,,,,50.46,,NE,29.47,28.95,,Clear
KIGQ,07/01/2016 23:55 UTC,30.13,65.84,48.74,52.3,10.36,40.0,,,,,,1.0,,,,10.0,,,71.06,65.66,,,,47.78,,NE,29.47,29.06,,Clear
KIGQ,07/02/2016 00:15 UTC,30.13,65.3,47.66,52.3,9.22,50.0,,,,,,1.0,,,,10.0,,,,,,,,47.28,,NE,29.47,29.08,,Clear
KIGQ,07/02/2016 00:35 UTC,30.14,64.76,47.48,53.51,10.36,50.0,,,,,,1.0,,,,10.0,,,,,,,,47.39,,NE,29.48,29.09,,Clear
KIGQ,07/02/2016 00:55 UTC,30.14,63.86,46.4,52.03,8.05,40.0,,,,,,1.0,,,,10.0,,,,,,,,45.8,,NE,29.48,29.15,,Clear
KIGQ,07/02/2016 01:15 UTC,30.14,63.14,46.04,55.41,11.5,40.0,,,,,,1.0,,,,10.0,,,,,,,,46.8,,NE,29.48,29.12,,Clear
KIGQ,07/02/2016 01:35 UTC,30.14,62.42,46.76,56.53,9.22,40.0,,,,,,1.0,,,,10.0,,,,,,,,46.66,,NE,29.48,29.14,,Clear
KIGQ,07/02/2016 01:55 UTC,30.15,62.6,45.14,51.76,6.91,40.0,,,,,,1.0,,,,10.0,,,,,,,,44.49,,NE,29.49,29.21,,Clear
KIGQ,07/02/2016 02:15 UTC,30.15,62.42,44.96,51.76,5.75,50.0,,,,,,1.0,,,,10.0,,,,,,,,44.33,,NE,29.49,29.22,,Clear
KIGQ,07/02/2016 02:35 UTC,30.15,62.06,44.24,52.03,5.75,40.0,,,,,,1.0,,,,10.0,,,,,,,,44.13,,NE,29.49,29.23,,Clear
KIGQ,07/02/2016 02:55 UTC,30.16,62.6,41.9,48.31,3.44,40.0,,,,,,1.0,,,,10.0,,,,,,,,42.68,,NE,29.5,29.28,,Clear
KIGQ,07/02/2016 03:15 UTC,30.16,62.6,41.18,45.07,0.0,0.0,,,,,,1.0,,,,10.0,,,,,,,,40.87,,N,29.5,29.33,,Clear
KIGQ,07/02/2016 03:35 UTC,30.16,61.7,43.34,50.91,0.0,0.0,,,,,,1.0,,,,10.0,,,,,,,,43.22,,N,29.5,29.27,,Clear
KIGQ,07/02/2016 03:55 UTC,30.16,57.74,44.42,62.72,0.0,0.0,,,,,,1.0,,,,10.0,,,,,,,,45.01,,N,29.5,29.25,,Clear
KIGQ,07/02/2016 04:15 UTC,30.16,56.48,45.32,62.72,0.0,0.0,,,,,,1.0,,,,10.0,,,,,,,,43.81,,N,29.5,29.29,,Clear
KIGQ,07/02/2016 04:35 UTC,30.17,56.66,45.14,65.28,0.0,0.0,,,,,,1.0,,,,10.0,,,,,,,,45.04,,N,29.51,29.27,,Clear
KIGQ,07/02/2016 04:55 UTC,30.16,57.2,46.58,67.15,0.0,0.0,,,,,,1.0,,,,10.0,,,,,,,,46.31,,N,29.5,29.21,,Clear
KIGQ,07/02/2016 05:15 UTC,30.16,54.86,45.5,71.66,0.0,0.0,,,,,,1.0,,,,10.0,,,,,,,,45.8,,N,29.5,29.25,,Clear
KIGQ,07/02/2016 05:35 UTC,30.17,56.84,46.04,67.15,0.0,0.0,,,,,,1.0,,,,10.0,,,,,,,,45.96,,N,29.51,29.24,,Clear
KIGQ,07/02/2016 05:55 UTC,30.17,54.32,46.22,76.52,0.0,0.0,,,,,,1.0,,,,10.0,,,65.84,54.32,,71.06,54.32,47.03,,N,29.51,29.23,,Clear
KIGQ,07/02/2016 06:15 UTC,30.17,53.24,46.58,76.52,0.0,0.0,,,,,,1.0,,,,10.0,,,,,,,,45.98,,N,29.51,29.27,,Clear
KIGQ,07/02/2016 06:35 UTC,30.17,53.06,46.76,76.52,0.0,0.0,,,,,,1.0,,,,10.0,,,,,,,,45.8,,N,29.51,29.27,,Clear
KIGQ,07/02/2016 06:55 UTC,30.16,53.78,47.48,81.88,0.0,0.0,,,,,,1.0,,,,10.0,,,,,,,,48.32,,N,29.5,29.18,,Clear
KIGQ,07/02/2016 07:15 UTC,30.16,54.14,46.76,76.52,0.0,0.0,,,,,,1.0,,,,10.0,,,,,,,,46.85,,N,29.5,29.22,,Clear
KIGQ,07/02/2016 07:35 UTC,30.16,53.24,46.4,77.53,0.0,0.0,,,,,,1.0,,,,10.0,,,,,,,,46.33,,N,29.5,29.25,,Clear
KIGQ,07/02/2016 07:55 UTC,30.16,53.6,46.4,76.52,0.0,0.0,,,,,,1.0,,,,10.0,,,,,,,,46.33,,N,29.5,29.24,,Clear
KIGQ,07/02/2016 08:15 UTC,30.16,52.34,46.94,81.75,3.44,240.0,,,,,,1.0,,,,10.0,,,,,,,,46.87,,WSW,29.5,29.24,,Clear
KIGQ,07/02/2016 08:35 UTC,30.15,51.62,46.4,81.75,0.0,0.0,,,,,,1.0,,,,10.0,,,,,,,,46.17,,N,29.49,29.26,,Clear
KIGQ,07/02/2016 08:55 UTC,30.14,52.7,46.76,76.52,0.0,0.0,,,,,,1.0,,,,10.0,,,,,,,,45.45,,N,29.48,29.26,,Clear
KIGQ,07/02/2016 09:15 UTC,30.14,53.96,47.48,81.88,0.0,0.0,,,,,,1.0,,,,10.0,,,,,,,,48.5,,N,29.48,29.15,,Clear
KIGQ,07/02/2016 09:35 UTC,30.15,52.16,47.66,87.48,0.0,0.0,,,,,,1.0,,,,10.0,,,,,,,,48.52,,N,29.49,29.18,,Clear
KIGQ,07/02/2016 09:55 UTC,30.15,52.52,47.84,87.48,0.0,0.0,,,,,,1.0,,,,10.0,,,,,,,,48.87,,N,29.49,29.16,,Clear
KIGQ,07/02/2016 10:15 UTC,30.15,53.42,48.92,81.88,0.0,0.0,,,,,,1.0,,,,10.0,,,,,,,,47.97,,N,29.49,29.18,,Clear
KIGQ,07/02/2016 10:35 UTC,30.15,53.78,49.28,84.69,0.0,0.0,,,,,,1.0,,,,10.0,,,,,,,,49.23,,N,29.49,29.14,,Clear
KIGQ,07/02/2016 10:55 UTC,30.16,53.96,49.46,87.57,0.0,0.0,,,,,,1.0,,,,10.0,,,,,,,,50.32,,N,29.5,29.11,,Clear
KIGQ,07/02/2016 11:15 UTC,30.17,55.04,50.9,87.66,0.0,0.0,,,,,,1.0,,,,10.0,,,,,,,,51.41,,N,29.51,29.07,,Clear
KIGQ,07/02/2016 11:35 UTC,30.18,57.02,52.34,84.34,0.0,0.0,,,,,,1.0,,,,10.0,,,,,,,,52.3,,N,29.52,29.02,,Clear
KIGQ,07/02/2016 11:55 UTC,30.18,57.56,53.06,87.75,0.0,0.0,,,,,,1.0,,,,10.0,,,57.56,51.44,,,,53.92,,N,29.52,28.95,,Clear
KIGQ,07/02/2016 12:15 UTC,30.19,58.28,53.42,82.27,0.0,0.0,,,,,,1.0,,,,10.0,,,,,,,,52.85,,N,29.53,29.0,,Clear
KIGQ,07/02/2016 12:35 UTC,30.19,59.36,52.88,82.27,0.0,0.0,,,,,,1.0,,,,10.0,,,,,,,,53.91,,N,29.53,28.94,,Clear
KIGQ,07/02/2016 12:55 UTC,30.19,60.98,52.16,72.23,3.44,130.0,,,,,,1.0,,,,10.0,,,,,,,,51.91,,SE,29.53,29.01,,Clear
KIGQ,07/02/2016 13:15 UTC,30.19,63.14,52.7,72.42,3.44,160.0,,,,,,1.0,,,,10.0,,,,,,,,54.06,,SSE,29.53,28.9,,Clear
KIGQ,07/02/2016 13:35 UTC,30.19,64.76,49.1,56.86,5.75,150.0,,,,,,1.0,,,,10.0,,,,,,,,49.01,,SSE,29.53,29.08,,Clear
KIGQ,07/02/2016 13:55 UTC,30.19,65.3,46.94,48.87,4.61,110.0,,,,,,1.0,,,,10.0,,,,,,,,45.47,,ESE,29.53,29.2,,Clear
KIGQ,07/02/2016 14:15 UTC,30.19,65.84,47.12,48.87,4.61,120.0,,,,,,1.0,,,,10.0,,,,,,,,45.97,,ESE,29.53,29.18,,Clear
KIGQ,07/02/2016 14:35 UTC,30.19,67.1,46.94,45.93,6.91,120.0,,,,,,1.0,,,,10.0,,,,,,,,45.49,,ESE,29.53,29.19,,Clear
KIGQ,07/02/2016 14:55 UTC,30.2,68.0,46.22,45.93,4.61,120.0,,,,,,1.0,,,,10.0,,,,,,,,46.31,,ESE,29.54,29.16,,Clear
KIGQ,07/02/2016 15:15 UTC,30.19,68.9,45.86,43.19,8.05,140.0,,,,,,1.0,,,,10.0,,,,,,,,45.51,,SE,29.53,29.17,,Clear
KIGQ,07/02/2016 15:35 UTC,30.18,68.9,43.52,39.92,5.75,100.0,,,,,,1.0,,,,10.0,,,,,,,,43.44,,E,29.52,29.23,,Clear
KIGQ,07/02/2016 15:55 UTC,30.18,69.44,42.8,37.66,5.75,110.0,,,,,,1.0,,,,10.0,,,,,,,,42.4,,ESE,29.52,29.26,,Clear
KIGQ,07/02/2016 16:15 UTC,30.18,69.44,44.42,40.34,5.75,120.0,,,,,,1.0,,,,10.0,,,,,,,,44.2,,ESE,29.52,29.2,,Clear
KIGQ,07/02/2016 16:35 UTC,30.18,69.98,44.24,39.55,6.91,130.0,,,,,,1.0,,,,10.0,,,,,,,,44.17,,SE,29.52,29.2,,Clear
KIGQ,07/02/2016 16:55 UTC,30.18,69.8,44.42,40.34,6.91,120.0,,,,,,1.0,,,,10.0,,,,,,,,44.52,,ESE,29.52,29.19,,Clear
KIGQ,07/02/2016 17:15 UTC,30.19,70.34,44.42,40.34,4.61,120.0,,,,,,1.0,,,,10.0,,,,,,,,45.01,,ESE,29.53,29.18,,Clear
KIGQ,07/02/2016 17:35 UTC,30.18,71.96,43.7,36.22,5.75,130.0,,,,,,1.0,,,,10.0,,,,,,,,43.64,,SE,29.52,29.21,,Clear
KIGQ,07/02/2016 17:55 UTC,30.18,71.42,44.24,37.95,4.61,190.0,,,,,,1.0,,,,10.0,,,73.22,57.56,,,,44.38,,S,29.52,29.19,,Clear
KIGQ,07/02/2016 18:15 UTC,30.17,72.14,43.88,37.95,0.0,0.0,,,,,,1.0,,,,10.0,,,,,,,,45.02,,N,29.51,29.15,,Clear
KIGQ,07/02/2016 18:35 UTC,30.17,73.4,43.52,33.34,6.91,100.0,,,,,,1.0,,,,10.0,,,,,,,,42.76,,E,29.51,29.22,,Clear
KIGQ,07/02/2016 18:55 UTC,30.16,72.14,43.34,35.42,0.0,0.0,,,,,,1.0,,,,10.0,,,,,,,,43.22,,N,29.5,29.2,,Clear
KIGQ,07/02/2016 19:15 UTC,30.16,72.32,42.98,35.42,3.44,220.0,,,,,,1.0,,,,10.0,,,,,,,,43.38,,SW,29.5,29.19,,Clear
KIGQ,07/02/2016 19:35 UTC,30.16,72.68,42.26,33.34,0.0,0.0,,,,,,1.0,,,,10.0,,,,,,,,42.12,,N,29.5,29.23,,Clear
KIGQ,07/02/2016 19:55 UTC,30.15,73.58,41.18,31.11,6.91,130.0,,,,,,1.0,,,,10.0,,,,,,,,41.12,,SE,29.49,29.24,,Clear
KIGQ,07/02/2016 20:15 UTC,30.16,73.58,41.54,31.11,0.0,0.0,,,,,,1.0,,,,10.0,,,,,,,,41.12,,N,29.5,29.25,,Clear
KIGQ,07/02/2016 20:35 UTC,30.16,72.68,42.62,33.92,5.75,170.0,,,,,,1.0,,,,10.0,,,,,,,,42.57,,S,29.5,29.22,,Clear
KIGQ,07/02/2016 20:55 UTC,30.15,73.4,42.26,33.34,5.75,190.0,,,,,,1.0,,,,10.0,,,,,,,,42.76,,S,29.49,29.19,,Clear
KIGQ,07/02/2016 21:15 UTC,30.14,73.58,42.62,33.34,5.75,140.0,,,,,,1.0,,,,10.0,,,,,,,,42.92,,SE,29.48,29.18,,Clear
KIGQ,07/02/2016 21:35 UTC,30.14,73.04,42.98,33.98,5.75,140.0,,,,,,1.0,,,,10.0,,,,,,,,42.93,,SE,29.48,29.18,,Clear
KIGQ,07/02/2016 21:55 UTC,30.13,72.5,41.72,31.11,4.61,140.0,,,,,,1.0,,,,10.0,,,,,,,,40.17,,SE,29.47,29.26,,Clear
KIGQ,07/02/2016 22:15 UTC,30.13,72.32,42.98,35.42,5.75,160.0,,,,,,1.0,,,,10.0,,,,,,,,43.38,,SSE,29.47,29.16,,Clear
KIGQ,07/02/2016 22:35 UTC,30.13,72.5,43.34,33.34,3.44,130.0,,,,,,1.0,,,,10.0,,,,,,,,41.96,,SE,29.47,29.21,,Clear
KIGQ,07/02/2016 22:55 UTC,30.13,72.5,42.8,33.34,8.05,110.0,,,,,,1.0,,,,10.0,,,,,,,,41.96,,ESE,29.47,29.21,,Clear
KIGQ,07/02/2016 23:15 UTC,30.13,71.96,42.8,35.42,5.75,120.0,,,,,,1.0,,,,10.0,,,,,,,,43.05,,ESE,29.47,29.17,,Clear
KIGQ,07/02/2016 23:35 UTC,30.13,71.06,42.98,36.33,3.44,90.0,,,,,,1.0,,,,10.0,,,,,,,,42.91,,E,29.47,29.18,,Clear
KIGQ,07/02/2016 23:55 UTC,30.13,70.7,43.88,37.95,4.61,140.0,,,,,,1.0,,,,10.0,,,74.48,70.7,,,,43.73,,SE,29.47,29.16,,Clear
KIGQ,07/03/2016 00:15 UTC,30.13,70.16,44.96,40.34,4.61,120.0,,,,,,1.0,,,,10.0,,,,,,,,44.85,,ESE,29.47,29.13,,Clear
KIGQ,07/03/2016 00:35 UTC,30.13,69.44,44.78,41.12,4.61,130.0,,,,,,1.0,,,,10.0,,,,,,,,44.7,,SE,29.47,29.14,,Clear
KIGQ,07/03/2016 00:55 UTC,30.13,68.18,48.2,49.15,6.91,100.0,,,,,,1.0,,,,10.0,,,,,,,,48.29,,E,29.47,29.02,,Clear
KIGQ,07/03/2016 01:15 UTC,30.13,67.46,49.46,52.57,5.75,100.0,,,,,,1.0,,,,10.0,,,,,,,,49.43,,E,29.47,28.98,,Clear
KIGQ,07/03/2016 01:35 UTC,30.13,66.2,50.0,55.93,3.44,100.0,,,,,,1.0,,,,10.0,,,,,,,,49.92,,E,29.47,28.98,,Clear
KIGQ,07/03/2016 01:55 UTC,30.13,65.12,50.36,59.54,4.61,100.0,,,,,,1.0,,,,10.0,,,,,,,,50.6,,E,29.47,28.96,,Clear
KIGQ,07/03/2016 02:15 UTC,30.13,64.58,50.9,63.64,4.61,90.0,,,,,,1.0,,,,10.0,,,,,,,,51.9,,E,29.47,28.91,,Clear
KIGQ,07/03/2016 02:35 UTC,30.14,64.58,51.08,63.64,3.44,110.0,,,,,,1.0,,,,10.0,,,,,,,,51.9,,ESE,29.48,28.92,,Clear
KIGQ,07/03/2016 02:55 UTC,30.13,62.06,51.08,67.79,3.44,140.0,,,,,,1.0,,,,10.0,,,,,,,,51.21,,SE,29.47,28.96,,Clear
KIGQ,07/03/2016 03:15 UTC,30.14,61.88,51.26,67.79,3.44,210.0,,,,,,1.0,,,,10.0,,,,,,,,51.04,,SSW,29.48,28.98,,Clear
KIGQ,07/03/2016 03:35 UTC,30.14,62.06,51.8,69.09,0.0,0.0,,,,,,1.0,,,,10.0,,,,,,,,51.73,,N,29.48,28.95,,Clear
KIGQ,07/03/2016 03:55 UTC,30.13,61.16,51.26,72.23,0.0,0.0,,,,,,1.0,,,,10.0,,,,,,,,52.08,,N,29.47,28.94,,Clear
KIGQ,07/03/2016 04:15 UTC,30.12,59.36,51.62,77.01,0.0,0.0,,,,,,1.0,,,,10.0,,,,,,,,52.09,,N,29.47,28.96,,Clear
KIGQ,07/03/2016 04:35 UTC,30.13,60.44,52.7,77.17,0.0,0.0,,,,,,1.0,,,,10.0,,,,,,,,53.2,,N,29.47,28.9,,Clear
KIGQ,07/03/2016 04:55 UTC,30.13,61.16,52.52,72.23,0.0,0.0,,,,,,1.0,,,,10.0,,,,,,,,52.08,,N,29.47,28.94,,Clear
KIGQ,07/03/2016 05:15 UTC,30.12,58.1,50.72,76.42,0.0,0.0,,,,,,1.0,,,,10.0,,,,,,,,50.66,,N,29.47,29.02,,Clear
KIGQ,07/03/2016 05:35 UTC,30.12,58.46,51.8,77.01,0.0,0.0,,,,,,1.0,,,,10.0,,,,,,,,51.22,,N,29.47,29.0,,Clear
KIGQ,07/03/2016 05:55 UTC,30.11,58.46,51.62,77.01,0.0,0.0,,,,,,1.0,,,,10.0,,,70.7,56.66,,74.48,51.44,51.22,,N,29.46,28.99,,Clear
KIGQ,07/03/2016 06:15 UTC,30.11,58.82,52.16,77.01,0.0,0.0,,,,,,1.0,,,,10.0,,,,,,,,51.57,,N,29.46,28.97,,Clear
KIGQ,07/03/2016 06:35 UTC,30.11,57.92,51.98,82.14,0.0,0.0,,,,,,1.0,,,,10.0,,,,,,,,52.46,,N,29.46,28.95,,Clear
KIGQ,07/03/2016 06:55 UTC,30.11,57.92,52.16,82.14,0.0,0.0,,,,,,1.0,,,,10.0,,,,,,,,52.46,,N,29.46,28.95,,Clear
KIGQ,07/03/2016 07:15 UTC,30.11,57.56,51.62,82.14,0.0,0.0,,,,,,1.0,,,,10.0,,,,,,,,52.1,,N,29.46,28.96,,Clear
KIGQ,07/03/2016 07:35 UTC,30.11,55.4,50.72,84.23,0.0,0.0,,,,,,1.0,,,,7.0,,,,,,,,50.67,,N,29.46,29.04,,Clear
KIGQ,07/03/2016 07:55 UTC,30.11,56.12,51.08,87.66,0.0,0.0,,,,,,1.0,,,,10.0,,,,,,,,52.47,,N,29.46,28.96,,Clear
KIGQ,07/03/2016 08:15 UTC,30.11,54.14,50.54,87.6,0.0,0.0,,,,,,1.0,,,,7.0,,,,,,,,50.5,,N,29.46,29.06,,Clear
KIGQ,07/03/2016 08:35 UTC,30.1,55.04,51.08,86.49,0.0,0.0,,,,,,1.0,,,,7.0,,,,,,,,51.04,,N,29.45,29.02,,Clear
KIGQ,07/03/2016 08:55 UTC,30.1,55.94,51.44,87.66,0.0,0.0,,,,,,1.0,,,,10.0,,,,,,,,52.3,,N,29.45,28.96,,Clear
KIGQ,07/03/2016 09:15 UTC,30.1,56.3,51.26,82.14,0.0,0.0,,,,,,1.0,,,,10.0,,,,,,,,50.87,,N,29.45,29.01,,Clear
KIGQ,07/03/2016 09:35 UTC,30.1,55.76,51.08,87.66,0.0,0.0,,,,,,1.0,,,,10.0,,,,,,,,52.12,,N,29.45,28.97,,Clear
KIGQ,07/03/2016 09:55 UTC,30.09,57.02,51.26,82.14,0.0,0.0,,,,,,1.0,,,,10.0,,,,,,,,51.58,,N,29.44,28.97,,Clear
KIGQ,07/03/2016 10:15 UTC,30.09,56.84,50.9,82.14,0.0,0.0,,,,,,1.0,,,,10.0,,,,,,,,51.4,,N,29.44,28.98,,Clear
KIGQ,07/03/2016 10:35 UTC,30.09,56.66,51.26,82.1,0.0,0.0,,,,,,1.0,,,,10.0,,,,,,,,51.21,,N,29.44,28.99,,Clear
KIGQ,07/03/2016 10:55 UTC,30.09,55.4,50.18,82.01,0.0,0.0,,,,,,1.0,,,,10.0,,,,,,,,49.95,,N,29.44,29.05,,Clear
KIGQ,07/03/2016 11:15 UTC,30.1,56.3,51.08,82.14,0.0,0.0,,,,,,1.0,,,,10.0,,,,,,,,50.87,,N,29.45,29.01,,Clear
KIGQ,07/03/2016 11:35 UTC,30.1,58.64,51.98,78.52,0.0,0.0,,,,,,1.0,,,,10.0,,,,,,,,51.92,,N,29.45,28.95,,Clear
KIGQ,07/03/2016 11:55 UTC,30.1,59.54,53.06,82.27,0.0,0.0,,,,,,1.0,,,,10.0,,,59.54,53.24,,,,54.08,,N,29.45,28.85,,Clear
KIGQ,07/03/2016 12:15 UTC,30.11,60.8,53.42,77.17,3.44,130.0,,,,,,1.0,,,,10.0,,,,,,,,53.55,,SE,29.46,28.87,,Clear
KIGQ,07/03/2016 12:35 UTC,30.11,62.06,53.6,72.42,4.61,120.0,,,,,,1.0,,,,10.0,,,,,,,,53.02,,ESE,29.46,28.88,,Clear
KIGQ,07/03/2016 12:55 UTC,30.11,62.96,53.42,72.42,4.61,120.0,,,,,,1.0,,,,10.0,,,,,,,,53.89,,ESE,29.46,28.83,,Clear
KIGQ,07/03/2016 13:15 UTC,30.11,63.86,53.6,67.99,5.75,110.0,,,,,,1.0,,,,10.0,,,,,,,,53.02,,ESE,29.46,28.86,,Clear
KIGQ,07/03/2016 13:35 UTC,30.11,65.48,52.88,63.78,6.91,110.0,,,,,,1.0,,,,10.0,,,,,,,,52.81,,ESE,29.46,28.86,,Clear
KIGQ,07/03/2016 13:55 UTC,30.11,66.38,53.24,63.87,4.61,120.0,,,,,,1.0,,,,10.0,,,,,,,,53.71,,ESE,29.46,28.81,,Clear
KIGQ,07/03/2016 14:15 UTC,30.11,67.64,53.42,60.03,4.61,120.0,,,,,,1.0,,,,10.0,,,,,,,,53.2,,ESE,29.46,28.82,,Clear
KIGQ,07/03/2016 14:35 UTC,30.11,68.9,51.8,54.48,6.91,130.0,,,,,,1.0,,,,10.0,,,,,,,,51.73,,SE,29.46,28.87,,Clear
KIGQ,07/03/2016 14:55 UTC,30.1,70.52,51.44,52.83,5.75,110.0,,,,,,1.0,,,,10.0,,,,,,,,52.41,,ESE,29.45,28.82,,Clear
KIGQ,07/03/2016 15:15 UTC,30.1,71.42,49.1,46.5,9.22,110.0,,,,,,1.0,,,,10.0,,,,,,,,49.78,,ESE,29.45,28.92,,Clear
KIGQ,07/03/2016 15:35 UTC,30.09,73.22,49.64,43.44,10.36,100.0,,,,,,1.0,,,,10.0,,,,,,,,49.59,,E,29.44,28.9,,Clear
KIGQ,07/03/2016 15:55 UTC,30.08,72.5,49.46,43.76,11.5,120.0,,,,,,1.0,,,,10.0,,,,,,,,49.14,,ESE,29.43,28.91,,Clear
KIGQ,07/03/2016 16:15 UTC,30.08,73.94,50.54,43.76,10.36,100.0,,,,,,1.0,,,,10.0,,,,,,,,50.45,,E,29.43,28.85,,Clear
KIGQ,07/03/2016 16:35 UTC,30.08,73.58,50.72,44.68,5.75,130.0,,,,,,1.0,,,,10.0,,,,,,,,50.68,,SE,29.43,28.84,,Clear
KIGQ,07/03/2016 16:55 UTC,30.08,73.58,51.26,46.78,9.22,140.0,,,,,,852.0,,,,10.0,,,,,,,,51.93,,SE,29.43,28.79,,Partly Cloudy
KIGQ,07/03/2016 17:15 UTC,30.08,74.12,52.52,46.78,11.5,140.0,16.11,,,,,853.0,,,,10.0,,,,,8500.0,,,52.42,,SE,29.43,28.76,,Mostly Cloudy
KIGQ,07/03/2016 17:35 UTC,30.08,74.3,53.42,48.17,8.05,140.0,,,,,,854.0,,,,10.0,,,,,8500.0,,,53.39,,SE,29.43,28.72,,Overcast
KIGQ,07/03/2016 17:55 UTC,30.07,74.66,53.6,47.06,8.05,120.0,,,,,,854.0,,,,10.0,,,74.84,59.54,8500.0,,,53.08,,ESE,29.42,28.72,,Overcast
KIGQ,07/03/2016 18:15 UTC,30.07,73.58,54.68,53.36,10.36,200.0,,,,,,412.0,854.0,,,10.0,,,,,8500.0,,,55.53,,SSW,29.42,28.62,,Overcast
KIGQ,07/03/2016 18:35 UTC,30.07,73.22,55.22,53.34,5.75,170.0,,,,,,392.0,854.0,,,10.0,,,,,8500.0,,,55.19,,S,29.42,28.64,,Overcast
KIGQ,07/03/2016 18:55 UTC,30.06,73.4,55.04,53.36,0.0,0.0,,,,,,854.0,,,,10.0,,,,,8500.0,,,55.36,,N,29.41,28.62,,Overcast
KIGQ,07/03/2016 19:15 UTC,30.06,73.76,56.12,53.36,9.22,180.0,,,,,,352.0,853.0,,,10.0,,,,,8500.0,,,55.7,,S,29.41,28.6,,Mostly Cloudy
KIGQ,07/03/2016 19:35 UTC,30.06,73.4,55.04,52.67,10.36,140.0,,,,,,352.0,852.0,,,10.0,,,,,,,,55.0,,SE,29.41,28.63,,Partly Cloudy
KIGQ,07/03/2016 19:55 UTC,30.05,73.04,54.32,49.97,10.36,150.0,,,,,,852.0,,,,10.0,,,,,,,,53.23,,SSE,29.4,28.71,,Partly Cloudy
KIGQ,07/03/2016 20:15 UTC,30.05,73.76,54.32,49.97,6.91,130.0,,,,,,852.0,,,,10.0,,,,,,,,53.89,,SE,29.4,28.67,,Partly Cloudy
KIGQ,07/03/2016 20:35 UTC,30.05,73.58,54.5,53.36,4.61,120.0,,,853.0,,,382.0,452.0,,,10.0,,,,,8500.0,,,55.53,,ESE,29.4,28.6,,Mostly Cloudy
KIGQ,07/03/2016 20:55 UTC,30.04,72.86,54.14,49.97,6.91,40.0,,,854.0,,,382.0,452.0,,,10.0,,,,,8500.0,,,53.06,,NE,29.39,28.71,,Overcast
KIGQ,07/03/2016 21:15 UTC,30.03,73.04,53.96,49.97,10.36,140.0,,,853.0,,,402.0,602.0,,,10.0,,,,,8500.0,,,53.23,,SE,29.38,28.69,,Mostly Cloudy
KIGQ,07/03/2016 21:35 UTC,30.03,73.4,54.86,52.33,10.36,130.0,,,,,,392.0,604.0,,,10.0,,,,,6000.0,,,54.83,,SE,29.38,28.61,,Overcast
KIGQ,07/03/2016 21:55 UTC,30.03,72.5,54.86,53.36,10.36,130.0,,,,,,413.0,604.0,,,10.0,,,,,4100.0,,,54.52,,SE,29.38,28.63,,Overcast
KIGQ,07/03/2016 22:15 UTC,30.02,71.6,55.58,56.7,10.36,50.0,,,,,,394.0,,,,10.0,,,,,3900.0,,,55.36,,NE,29.37,28.59,,Overcast
KIGQ,07/03/2016 22:35 UTC,30.01,72.5,55.94,53.36,11.5,140.0,,,,,,413.0,554.0,,,10.0,,,,,4100.0,,,54.52,,SE,29.36,28.61,,Overcast
KIGQ,07/03/2016 22:55 UTC,30.0,70.7,54.86,56.7,12.66,180.0,,,,,,373.0,434.0,,,10.0,,,,,3700.0,,,54.51,,S,29.35,28.62,,Overcast
KIGQ,07/03/2016 23:15 UTC,30.0,69.62,55.76,60.27,9.22,170.0,,,,,,393.0,654.0,,,10.0,,,,,3900.0,,,55.18,,S,29.35,28.6,,Overcast
KIGQ,07/03/2016 23:35 UTC,30.0,68.54,55.76,64.1,10.36,150.0,,,654.0,,,393.0,503.0,,,10.0,,,,,3900.0,,,55.86,,SSE,29.35,28.58,,Overcast
KIGQ,07/03/2016 23:55 UTC,30.0,68.54,56.12,64.1,9.22,160.0,,,,,,392.0,484.0,,,10.0,,,74.66,68.36,4800.0,,,55.86,,SSE,29.35,28.58,,Overcast
KIGQ,07/04/2016 00:15 UTC,30.0,68.0,55.4,64.1,9.22,150.0,,,904.0,,,482.0,703.0,,,10.0,,,,,7000.0,,,55.35,,SSE,29.35,28.61,,Overcast
KIGQ,07/04/2016 00:35 UTC,30.0,67.46,55.58,64.1,9.22,140.0,,,,,,493.0,654.0,,,10.0,,,,,4900.0,,,54.83,,SE,29.35,28.64,,Overcast
KIGQ,07/04/2016 00:55 UTC,30.0,67.46,55.58,64.1,10.36,140.0,,,,,,494.0,,,,10.0,,,,,4900.0,,,54.83,,SE,29.35,28.64,,Overcast
KIGQ,07/04/2016 01:15 UTC,29.99,67.28,55.58,64.1,9.22,120.0,,,,,,474.0,,,,10.0,,,,,4700.0,,,54.66,,ESE,29.34,28.64,,Overcast
KIGQ,07/04/2016 01:35 UTC,29.99,67.46,55.4,65.3,9.22,110.0,,,,,,474.0,,,,10.0,,,,,4700.0,,,55.35,,ESE,29.34,28.6,,Overcast
KIGQ,07/04/2016 01:55 UTC,29.99,67.82,55.4,64.1,5.75,110.0,,,,,,454.0,,,,10.0,,,,,4500.0,,,55.18,,ESE,29.34,28.61,,Overcast
KIGQ,07/04/2016 02:15 UTC,30.0,67.82,55.58,64.1,6.91,120.0,,,,,,414.0,,,,10.0,,,,,4100.0,,,55.18,,ESE,29.35,28.62,,Overcast
KIGQ,07/04/2016 02:35 UTC,30.0,67.82,55.58,64.92,8.05,140.0,,,,,,414.0,,,,10.0,,,,,4100.0,,,55.53,,SE,29.35,28.6,,Overcast
KIGQ,07/04/2016 02:55 UTC,30.01,67.46,55.58,64.1,8.05,120.0,,,,,,414.0,,,,10.0,,,,,4100.0,,,54.83,,ESE,29.36,28.65,,Overcast
KIGQ,07/04/2016 03:15 UTC,30.01,67.1,55.4,64.1,5.75,120.0,,,,,,394.0,,,,10.0,,,,,3900.0,,,54.49,,ESE,29.36,28.66,,Overcast
KIGQ,07/04/2016 03:35 UTC,30.01,67.1,54.86,64.83,6.91,120.0,,,,,,394.0,,,,10.0,,,,,3900.0,,,54.8,,ESE,29.36,28.65,,Overcast
KIGQ,07/04/2016 03:55 UTC,30.0,67.1,54.68,64.1,8.05,110.0,,,,,,354.0,,,,10.0,,,,,3500.0,,,54.49,,ESE,29.35,28.65,,Overcast
KIGQ,07/04/2016 04:15 UTC,30.0,66.74,54.68,68.2,6.91,100.0,,,,,,354.0,,,,10.0,,,,,3500.0,,,55.86,,E,29.35,28.6,,Overcast
KIGQ,07/04/2016 04:35 UTC,29.99,66.56,54.68,65.62,8.05,120.0,,,,,,374.0,,,,10.0,,,,,3700.0,,,54.62,,ESE,29.34,28.64,,Overcast
KIGQ,07/04/2016 04:55 UTC,29.99,66.38,54.86,68.2,6.91,110.0,,,,,,394.0,,,,10.0,,,,,3900.0,,,55.52,,ESE,29.34,28.61,,Overcast
KIGQ,07/04/2016 05:15 UTC,29.98,66.2,55.04,68.2,6.91,110.0,,,484.0,,,202.0,393.0,,,10.0,,,,,3900.0,,,55.34,,ESE,29.33,28.6,,Overcast
KIGQ,07/04/2016 05:35 UTC,29.97,66.02,55.58,68.2,8.05,130.0,,,,,,183.0,354.0,,,10.0,,,,,1800.0,,,55.17,,SE,29.32,28.6,,Overcast
KIGQ,07/04/2016 05:55 UTC,29.97,65.12,56.3,77.48,4.61,100.0,,,,,,183.0,334.0,,,10.0,,,68.36,65.12,1800.0,74.84,53.24,57.86,,E,29.32,28.49,,Overcast
KIGQ,07/04/2016 06:15 UTC,29.96,64.94,56.48,77.48,4.61,110.0,,,,,,183.0,304.0,,,10.0,,,,,1800.0,,,57.68,,ESE,29.31,28.49,,Overcast
KIGQ,07/04/2016 06:35 UTC,29.96,65.3,56.84,72.78,9.22,110.0,,,,,,184.0,,,,10.0,,,,,1800.0,,,56.28,,ESE,29.31,28.55,,Overcast
KIGQ,07/04/2016 06:55 UTC,29.96,64.4,57.56,77.48,6.91,120.0,,,,,,144.0,,,,10.0,,,,,1400.0,,,57.16,,ESE,29.31,28.52,,Overcast
KIGQ,07/04/2016 07:15 UTC,29.96,63.86,57.74,77.48,5.75,120.0,,,,,,144.0,,,,10.0,,,,,1400.0,,,56.63,,ESE,29.31,28.55,,Overcast
KIGQ,07/04/2016 07:35 UTC,29.96,63.68,58.1,82.65,4.61,140.0,,,,,,144.0,,,,10.0,,,,,1400.0,,,58.26,,SE,29.31,28.47,,Overcast
KIGQ,07/04/2016 07:55 UTC,29.95,63.68,58.1,82.65,4.61,140.0,,,,,,144.0,,,,10.0,,,,,1400.0,,,58.26,,SE,29.3,28.46,,Overcast
KIGQ,07/04/2016 08:15 UTC,29.94,63.5,58.1,82.65,5.75,120.0,,,,,,124.0,,,,10.0,,,,,1200.0,,,58.09,,ESE,29.29,28.46,,Overcast
KIGQ,07/04/2016 08:35 UTC,29.94,63.32,58.1,83.11,6.91,110.0,,,,,,124.0,,,,10.0,,,,,1200.0,,,58.07,,ESE,29.29,28.47,,Overcast
KIGQ,07/04/2016 08:55 UTC,29.94,63.14,58.1,88.02,4.61,110.0,,,,,,104.0,,,,10.0,,,,,1000.0,,,59.51,,ESE,29.29,28.4,,Overcast
KIGQ,07/04/2016 09:15 UTC,29.94,63.14,58.28,88.02,4.61,110.0,,,,,,104.0,,,,10.0,,,,,1000.0,,,59.51,,ESE,29.29,28.4,,Overcast
KIGQ,07/04/2016 09:35 UTC,29.94,62.96,58.28,88.02,4.61,90.0,,,,,,104.0,,,,10.0,,,,,1000.0,,,59.33,,E,29.29,28.41,,Overcast
KIGQ,07/04/2016 09:55 UTC,29.94,62.96,58.46,88.02,5.75,100.0,,,,,,104.0,,,,10.0,,,,,1000.0,,,59.33,,E,29.29,28.41,,Overcast
KIGQ,07/04/2016 10:15 UTC,29.94,62.96,58.46,88.02,4.61,110.0,,,,,,104.0,,,,10.0,,,,,1000.0,,,59.33,,ESE,29.29,28.41,,Overcast
KIGQ,07/04/2016 10:35 UTC,29.93,62.96,58.64,85.81,5.75,90.0,,,,,,104.0,,,,7.0,,,,,1000.0,,,58.61,,E,29.28,28.44,,Overcast
KIGQ,07/04/2016 10:55 UTC,29.93,62.96,59.0,88.02,5.75,120.0,,31.0,,,,84.0,,,,5.0,,,,,800.0,,,59.33,,ESE,29.28,28.4,,Mist
KIGQ,07/04/2016 11:15 UTC,29.93,62.96,59.0,88.02,4.61,110.0,,31.0,,,,84.0,,,,5.0,,,,,800.0,,,59.33,,ESE,29.28,28.4,,Mist
KIGQ,07/04/2016 11:35 UTC,29.92,63.14,59.36,87.49,4.61,130.0,,31.0,,,,84.0,,,,5.0,,,,,800.0,,,59.34,,SE,29.27,28.39,,Mist
KIGQ,07/04/2016 11:55 UTC,29.91,63.5,59.54,82.65,5.75,120.0,,31.0,,,,84.0,,,,5.0,,,65.3,62.96,800.0,,,58.09,,ESE,29.26,28.43,,Mist
KIGQ,07/04/2016 12:15 UTC,29.91,63.68,59.9,88.11,5.75,120.0,,31.0,,,,84.0,,,,5.0,,,,,800.0,,,60.07,,ESE,29.26,28.33,,Mist
KIGQ,07/04/2016 12:35 UTC,29.91,64.4,60.26,88.11,3.44,140.0,,31.0,,,,84.0,,,,5.0,,,,,800.0,,,60.78,,SE,29.26,28.29,,Mist
KIGQ,07/04/2016 12:55 UTC,29.91,64.76,60.44,88.11,3.44,120.0,,6.0,,,,84.0,,,,5.0,,,,,800.0,,,61.13,,ESE,29.26,28.26,,Haze
KIGQ,07/04/2016 13:15 UTC,29.92,65.84,60.62,82.77,3.44,150.0,,,,,,84.0,,,,7.0,,,,,800.0,,,60.42,,SSE,29.27,28.3,,Overcast
KIGQ,07/04/2016 13:35 UTC,29.91,66.2,60.8,82.77,3.44,120.0,,,,,,104.0,,,,7.0,,,,,1000.0,,,60.77,,ESE,29.26,28.26,,Overcast
KIGQ,07/04/2016 13:55 UTC,29.91,66.56,60.98,82.77,4.61,170.0,,,,,,104.0,,,,10.0,,,,,1000.0,,,61.12,,S,29.26,28.24,,Overcast
KIGQ,07/04/2016 14:15 UTC,29.91,66.74,60.98,82.77,4.61,140.0,,,,,,104.0,,,,10.0,,,,,1000.0,,,61.3,,SE,29.26,28.23,,Overcast
KIGQ,07/04/2016 14:35 UTC,29.92,67.28,61.34,81.28,4.61,180.0,,,,,,104.0,,,,10.0,,,,,1000.0,,,61.31,,S,29.27,28.23,,Overcast
KIGQ,07/04/2016 14:55 UTC,29.92,67.28,61.7,82.89,4.61,150.0,,,,,,104.0,,,,10.0,,,,,1000.0,,,61.87,,SSE,29.27,28.2,,Overcast
KIGQ,07/04/2016 15:15 UTC,29.91,68.18,61.88,82.89,3.44,130.0,,,,,,104.0,,,,10.0,,,,,1000.0,,,62.75,,SE,29.26,28.13,,Overcast
KIGQ,07/04/2016 15:35 UTC,29.91,68.0,61.52,79.8,0.0,0.0,,,,,,124.0,,,,10.0,,,,,1200.0,,,61.49,,N,29.26,28.2,,Overcast
KIGQ,07/04/2016 15:55 UTC,29.91,68.18,61.7,79.81,0.0,0.0,,,,,,124.0,,,,10.0,,,,,1200.0,,,61.67,,N,29.26,28.19,,Overcast
KIGQ,07/04/2016 16:15 UTC,29.91,68.9,62.06,78.86,4.61,110.0,,,,,,124.0,,,,10.0,,,,,1200.0,,,62.03,,ESE,29.26,28.16,,Overcast
KIGQ,07/04/2016 16:35 UTC,29.91,69.08,61.88,77.88,3.44,160.0,,,,,,144.0,,,,10.0,,,,,1400.0,,,61.85,,SSE,29.26,28.17,,Overcast
KIGQ,07/04/2016 16:55 UTC,29.9,69.8,62.06,77.94,0.0,0.0,,,,,,144.0,,,,10.0,,,,,1400.0,,,62.57,,N,29.25,28.11,,Overcast
KIGQ,07/04/2016 17:15 UTC,29.89,70.16,62.24,77.94,0.0,0.0,,,,,,144.0,,,,10.0,,,,,1400.0,,,62.92,,N,29.24,28.07,,Overcast
KIGQ,07/04/2016 17:35 UTC,29.88,70.88,62.24,74.19,0.0,0.0,,,,,,164.0,,,,10.0,,,,,1600.0,,,62.21,,N,29.23,28.1,,Overcast
KIGQ,07/04/2016 17:55 UTC,29.88,72.5,62.24,69.01,4.61,120.0,,,,,,184.0,,,,10.0,,,73.04,63.5,1800.0,,,61.71,,ESE,29.23,28.11,,Overcast
KIGQ,07/04/2016 18:15 UTC,29.88,73.22,62.78,69.01,5.75,120.0,,,,,,184.0,,,,10.0,,,,,1800.0,,,62.41,,ESE,29.23,28.06,,Overcast
KIGQ,07/04/2016 18:35 UTC,29.87,74.3,62.96,64.98,6.91,160.0,,,,,,182.0,804.0,,,10.0,,,,,8000.0,,,61.73,,SSE,29.22,28.08,,Overcast
KIGQ,07/04/2016 18:55 UTC,29.87,75.2,63.5,69.21,4.61,190.0,,,,,,202.0,804.0,,,10.0,,,,,8000.0,,,64.39,,S,29.22,27.9,,Overcast
KIGQ,07/04/2016 19:15 UTC,29.86,75.2,62.96,64.98,5.75,180.0,,,,,,222.0,804.0,,,10.0,,,,,8000.0,,,62.58,,S,29.21,28.0,,Overcast
KIGQ,07/04/2016 19:35 UTC,29.87,76.28,63.32,64.29,4.61,210.0,,,,,,242.0,804.0,,,10.0,,,,,8000.0,,,63.31,,SSW,29.22,27.96,,Overcast
KIGQ,07/04/2016 19:55 UTC,29.86,78.08,63.86,61.44,5.75,250.0,,,,,,243.0,803.0,,,10.0,,,,,2400.0,,,63.72,,WSW,29.21,27.9,,Mostly Cloudy
KIGQ,07/04/2016 20:15 UTC,29.86,78.8,63.86,61.44,5.75,220.0,,,,,,263.0,,,,10.0,,,,,2600.0,,,64.4,,SW,29.21,27.85,,Mostly Cloudy
KIGQ,07/04/2016 20:35 UTC,29.86,77.9,63.5,61.33,4.61,260.0,,,,,,283.0,604.0,,,10.0,,,,,2800.0,,,63.5,,W,29.21,27.92,,Overcast
KIGQ,07/04/2016 20:55 UTC,29.86,77.36,63.86,65.2,8.05,210.0,,,,,,282.0,334.0,,,10.0,,,,,3300.0,,,64.74,,SSW,29.21,27.85,,Overcast
KIGQ,07/04/2016 21:15 UTC,29.85,77.72,64.4,65.2,8.05,220.0,,,604.0,,,283.0,343.0,,,10.0,,,,,2800.0,,,65.08,,SW,29.2,27.81,,Overcast
KIGQ,07/04/2016 21:35 UTC,29.86,77.0,64.04,64.38,8.05,230.0,,,604.0,,,263.0,343.0,,,10.0,,,,,2600.0,,,64.03,,SW,29.21,27.9,,Overcast
KIGQ,07/04/2016 21:55 UTC,29.86,76.82,64.04,65.2,8.05,220.0,,,604.0,,,263.0,323.0,,,10.0,,,,,2600.0,,,64.22,,SW,29.21,27.89,,Overcast
KIGQ,07/04/2016 22:15 UTC,29.86,76.64,63.86,65.2,8.05,250.0,,,,,,262.0,604.0,,,10.0,,,,,6000.0,,,64.05,,WSW,29.21,27.9,,Overcast
KIGQ,07/04/2016 22:35 UTC,29.86,76.28,64.04,65.93,9.22,260.0,,,,,,282.0,604.0,,,10.0,,,,,6000.0,,,64.03,,W,29.21,27.9,,Overcast
KIGQ,07/04/2016 22:55 UTC,29.85,76.1,64.04,65.2,8.05,250.0,,,,,,282.0,604.0,,,10.0,,,,,6000.0,,,63.54,,WSW,29.2,27.93,,Overcast
KIGQ,07/04/2016 23:15 UTC,29.85,75.56,63.86,69.21,9.22,240.0,,,,,,604.0,,,,10.0,,,,,6000.0,,,64.73,,WSW,29.2,27.86,,Overcast
KIGQ,07/04/2016 23:35 UTC,29.85,75.2,63.86,67.91,8.05,240.0,,,,,,362.0,604.0,,,10.0,,,,,6000.0,,,63.84,,WSW,29.2,27.92,,Overcast
KIGQ,07/04/2016 23:55 UTC,29.84,74.84,63.86,69.21,9.22,240.0,,,,,,362.0,604.0,,,10.0,,,78.8,71.96,6000.0,,,64.04,,WSW,29.19,27.9,,Overcast
KIGQ,07/05/2016 00:15 UTC,29.84,74.48,64.04,69.21,6.91,250.0,,,,,,604.0,,,,10.0,,,,,6000.0,,,63.7,,WSW,29.19,27.93,,Overcast
KIGQ,07/05/2016 00:35 UTC,29.85,74.3,63.68,69.55,8.05,260.0,,,,,,604.0,,,,10.0,,,,,6000.0,,,63.66,,W,29.2,27.94,,Overcast
KIGQ,07/05/2016 00:55 UTC,29.85,73.94,63.5,73.5,8.05,250.0,,,,,,604.0,,,,10.0,,,,,6000.0,,,64.9,,WSW,29.2,27.87,,Overcast
KIGQ,07/05/2016 01:15 UTC,29.84,73.58,63.68,73.5,4.61,250.0,,,,,,604.0,,,,10.0,,,,,6000.0,,,64.56,,WSW,29.19,27.88,,Overcast
KIGQ,07/05/2016 01:35 UTC,29.84,73.4,63.68,71.67,5.75,260.0,,,,,,604.0,,,,10.0,,,,,6000.0,,,63.66,,W,29.19,27.94,,Overcast
KIGQ,07/05/2016 01:55 UTC,29.84,73.04,63.68,73.5,5.75,280.0,,,,,,604.0,,,,10.0,,,,,6000.0,,,64.03,,W,29.19,27.92,,Overcast
KIGQ,07/05/2016 02:15 UTC,29.84,73.04,63.5,73.5,4.61,270.0,,,,,,604.0,,,,10.0,,,,,6000.0,,,64.03,,W,29.19,27.92,,Overcast
KIGQ,07/05/2016 02:35 UTC,29.85,72.68,63.68,73.43,4.61,260.0,,,,,,502.0,604.0,,,10.0,,,,,6000.0,,,63.66,,W,29.2,27.96,,Overcast
KIGQ,07/05/2016 02:55 UTC,29.84,72.14,63.5,78.09,4.61,230.0,,,,,,604.0,,,,10.0,,,,,6000.0,,,64.9,,SW,29.19,27.88,,Overcast
KIGQ,07/05/2016 03:15 UTC,29.84,71.06,63.5,78.09,3.44,240.0,,,,,,603.0,,,,7.0,,,,,6000.0,,,63.85,,WSW,29.19,27.96,,Mostly Cloudy
KIGQ,07/05/2016 03:35 UTC,29.85,70.16,63.5,83.01,3.44,260.0,,,,,,602.0,,,,7.0,,,,,,,,64.73,,W,29.2,27.92,,Partly Cloudy
KIGQ,07/05/2016 03:55 UTC,29.85,69.62,63.5,83.01,3.44,260.0,,,,,,1.0,,,,7.0,,,,,,,,64.2,,W,29.2,27.96,,Clear
KIGQ,07/05/2016 04:15 UTC,29.85,67.46,61.88,82.89,0.0,0.0,,,,,,1.0,,,,7.0,,,,,,,,62.05,,N,29.2,28.12,,Clear
KIGQ,07/05/2016 04:35 UTC,29.85,66.56,62.42,88.2,0.0,0.0,,6.0,,,,1.0,,,,5.0,,,,,,,,62.94,,N,29.2,28.08,,Haze
KIGQ,07/05/2016 04:55 UTC,29.86,67.1,62.78,82.89,3.44,240.0,,31.0,,,,1.0,,,,4.0,,,,,,,,61.69,,WSW,29.21,28.15,,Mist
KIGQ,07/05/2016 05:15 UTC,29.87,64.04,60.8,88.11,0.0,0.0,,31.0,,,,1.0,,,,2.5,,,,,,,,60.42,,N,29.22,28.27,,Mist
KIGQ,07/05/2016 05:35 UTC,29.87,65.48,62.6,90.43,0.0,0.0,,31.0,,,,1.0,,,,3.0,,,,,,,,62.58,,N,29.22,28.13,,Mist
KIGQ,07/05/2016 05:55 UTC,29.87,62.78,60.08,93.84,3.44,200.0,,31.0,,,,1.0,,,,2.5,,,74.84,62.78,,78.8,62.78,60.96,,SSW,29.22,28.26,,Mist
KIGQ,07/05/2016 06:15 UTC,29.88,63.5,61.34,88.11,0.0,0.0,,31.0,,,,1.0,,,,2.5,,,,,,,,59.89,,N,29.23,28.31,,Mist
KIGQ,07/05/2016 06:35 UTC,29.87,64.04,62.06,93.89,0.0,0.0,,31.0,,,,1.0,,,,3.0,,,,,,,,62.23,,N,29.22,28.17,,Mist
KIGQ,07/05/2016 06:55 UTC,29.87,63.86,62.06,93.89,0.0,0.0,,31.0,,,,502.0,,,,2.5,,,,,,,,62.05,,N,29.22,28.18,,Mist
KIGQ,07/05/2016 07:15 UTC,29.87,63.68,62.96,93.89,0.0,0.0,,31.0,,,,502.0,,,,2.0,,,,,,,,61.87,,N,29.22,28.2,,Mist
KIGQ,07/05/2016 07:35 UTC,29.87,62.24,61.34,96.87,0.0,0.0,,31.0,,,,75.0,,,,1.75,,,,,700.0,,,61.33,,N,29.22,28.24,,Mist
KIGQ,07/05/2016 07:55 UTC,29.88,61.88,61.16,93.84,0.0,0.0,,31.0,,,,32.0,,,,1.0,,,,,,,,60.07,,N,29.23,28.32,,Mist
KIGQ,07/05/2016 08:15 UTC,29.88,62.42,62.06,100.0,0.0,0.0,,31.0,,,,75.0,,,,1.75,,,,,700.0,,,62.42,,N,29.23,28.19,,Mist
KIGQ,07/05/2016 08:35 UTC,29.88,61.7,61.52,99.37,3.44,190.0,,31.0,,,,75.0,,,,1.0,,,,,700.0,,,61.52,,S,29.23,28.25,,Mist
KIGQ,07/05/2016 08:55 UTC,29.89,60.98,60.8,100.0,0.0,0.0,,31.0,,,,433.0,,,,1.25,,,,,4300.0,,,60.98,,N,29.24,28.3,,Mist
KIGQ,07/05/2016 09:15 UTC,29.88,61.7,61.34,93.84,0.0,0.0,,31.0,,,,454.0,,,,1.25,,,,,4500.0,,,59.89,,N,29.23,28.34,,Mist
KIGQ,07/05/2016 09:35 UTC,29.89,62.06,61.7,100.0,0.0,0.0,,31.0,,,,454.0,,,,3.0,,,,,4500.0,,,62.06,,N,29.24,28.23,,Mist
KIGQ,07/05/2016 09:55 UTC,29.89,63.32,62.96,100.0,0.0,0.0,,31.0,,,,454.0,,,,3.0,,,,,4500.0,,,63.32,,N,29.24,28.14,,Mist
KIGQ,07/05/2016 10:15 UTC,29.89,64.4,63.86,100.0,0.0,0.0,,31.0,,,,434.0,,,,4.0,,,,,4300.0,,,64.4,,N,29.24,28.06,,Mist
KIGQ,07/05/2016 10:35 UTC,29.89,64.94,64.4,100.0,0.0,0.0,,31.0,,,,434.0,,,,3.0,,,,,4300.0,,,64.94,,N,29.24,28.02,,Mist
KIGQ,07/05/2016 10:55 UTC,29.89,64.94,64.4,100.0,0.0,0.0,,31.0,,,,454.0,,,,3.0,,,,,4500.0,,,64.94,,N,29.24,28.02,,Mist
KIGQ,07/05/2016 11:15 UTC,29.9,65.66,64.76,93.94,0.0,0.0,,31.0,,,,454.0,,,,4.0,,,,,4500.0,,,63.85,,N,29.25,28.09,,Mist
KIGQ,07/05/2016 11:35 UTC,29.9,67.1,65.48,94.55,0.0,0.0,,31.0,,,,454.0,,,,3.0,,,,,4500.0,,,65.47,,N,29.25,27.97,,Mist
KIGQ,07/05/2016 11:55 UTC,29.91,67.82,65.66,93.98,0.0,0.0,,31.0,,,,434.0,,,,2.5,,,67.82,60.44,4300.0,,,66.01,,N,29.26,27.94,,Mist
KIGQ,07/05/2016 12:15 UTC,29.91,68.72,66.2,93.98,5.75,200.0,,31.0,,,,454.0,,,,4.0,,,,,4500.0,,,66.91,,SSW,29.26,27.87,,Mist
KIGQ,07/05/2016 12:35 UTC,29.91,70.16,66.2,87.29,6.91,220.0,,,,,,474.0,,,,7.0,,,,,4700.0,,,66.18,,SW,29.26,27.89,,Overcast
KIGQ,07/05/2016 12:55 UTC,29.91,71.6,66.56,83.13,4.61,230.0,,,,,,494.0,,,,10.0,,,,,4900.0,,,66.18,,SW,29.26,27.87,,Overcast
KIGQ,07/05/2016 13:15 UTC,29.92,72.5,66.38,78.24,5.75,240.0,,,,,,494.0,,,,10.0,,,,,4900.0,,,65.31,,WSW,29.27,27.93,,Overcast
KIGQ,07/05/2016 13:35 UTC,29.92,73.94,66.74,78.29,5.75,250.0,,,,,,494.0,,,,10.0,,,,,4900.0,,,66.73,,WSW,29.27,27.82,,Overcast
KIGQ,07/05/2016 13:55 UTC,29.92,74.3,66.02,73.67,6.91,260.0,,,,,,412.0,494.0,,,10.0,,,,,4900.0,,,65.32,,W,29.27,27.91,,Overcast
KIGQ,07/05/2016 14:15 UTC,29.92,74.66,66.2,73.67,5.75,250.0,,,,,,464.0,,,,10.0,,,,,4600.0,,,65.67,,WSW,29.27,27.88,,Overcast
KIGQ,07/05/2016 14:35 UTC,29.92,74.3,66.02,75.45,6.91,260.0,,,464.0,,,202.0,343.0,,,10.0,,,,,3400.0,,,66.01,,W,29.27,27.86,,Overcast
KIGQ,07/05/2016 14:55 UTC,29.92,74.66,66.2,73.67,5.75,260.0,,,,,,183.0,274.0,,,10.0,,,,,1800.0,,,65.67,,W,29.27,27.88,,Overcast
KIGQ,07/05/2016 15:15 UTC,29.92,75.74,65.66,73.67,5.75,240.0,,,,,,182.0,294.0,,,10.0,,,,,2900.0,,,66.71,,WSW,29.27,27.8,,Overcast
KIGQ,07/05/2016 15:35 UTC,29.92,77.18,65.66,67.71,6.91,270.0,,,504.0,,,222.0,293.0,,,10.0,,,,,2900.0,,,65.65,,W,29.27,27.85,,Overcast
KIGQ,07/05/2016 15:55 UTC,29.92,77.36,66.02,69.4,6.91,230.0,,,504.0,,,222.0,292.0,,,10.0,,,,,5000.0,,,66.54,,SW,29.27,27.79,,Overcast
KIGQ,07/05/2016 16:15 UTC,29.93,79.34,66.56,65.41,4.61,230.0,,,504.0,,,242.0,283.0,,,10.0,,,,,2800.0,,,66.72,,SW,29.28,27.76,,Overcast
KIGQ,07/05/2016 16:35 UTC,29.92,78.44,65.48,64.56,5.75,250.0,,,504.0,,,262.0,363.0,,,10.0,,,,,3600.0,,,65.48,,WSW,29.27,27.85,,Overcast
KIGQ,07/05/2016 16:55 UTC,29.93,78.44,66.02,65.41,10.36,230.0,,,484.0,,,262.0,363.0,,,10.0,,,,,3600.0,,,65.86,,SW,29.28,27.83,,Overcast
KIGQ,07/05/2016 17:15 UTC,29.92,80.6,66.56,61.67,8.05,220.0,,,483.0,,,302.0,402.0,,,10.0,,,,,4800.0,,,66.22,,SW,29.27,27.77,82.77,Mostly Cloudy
KIGQ,07/05/2016 17:35 UTC,29.92,82.4,66.56,58.18,9.22,220.0,,,503.0,,,322.0,453.0,,,10.0,,,,,4500.0,,,66.23,,SW,29.27,27.75,84.65,Mostly Cloudy
KIGQ,07/05/2016 17:55 UTC,29.91,82.4,66.38,58.18,8.05,240.0,,,,,,452.0,502.0,,,10.0,,,82.4,68.0,,,,66.23,,WSW,29.26,27.74,84.65,Partly Cloudy
KIGQ,07/05/2016 18:15 UTC,29.92,83.66,63.86,51.5,9.22,250.0,,,,,,332.0,503.0,,,10.0,,,,,5000.0,,,63.91,,WSW,29.27,27.89,85.01,Mostly Cloudy
KIGQ,07/05/2016 18:35 UTC,29.92,83.3,64.76,51.58,9.22,240.0,18.41,,,,,382.0,503.0,,,10.0,,,,,5000.0,,,63.62,,WSW,29.27,27.92,84.56,Mostly Cloudy
KIGQ,07/05/2016 18:55 UTC,29.91,84.2,64.22,51.58,9.22,280.0,,,,,,382.0,503.0,,,10.0,,,,,5000.0,,,64.46,,W,29.26,27.84,85.74,Mostly Cloudy
KIGQ,07/05/2016 19:15 UTC,29.91,84.02,63.14,48.42,10.36,220.0,,,,,,432.0,503.0,,,10.0,,,,,5000.0,,,62.49,,SW,29.26,27.97,84.83,Mostly Cloudy
KIGQ,07/05/2016 19:35 UTC,29.91,86.0,63.5,48.69,10.36,240.0,,,,,,452.0,502.0,,,10.0,,,,,,,,64.47,,WSW,29.26,27.82,87.52,Partly Cloudy
KIGQ,07/05/2016 19:55 UTC,29.9,86.72,63.32,45.72,10.36,260.0,21.85,,,,,472.0,552.0,,,10.0,,,,,,,,63.34,,W,29.25,27.88,87.73,Partly Cloudy
KIGQ,07/05/2016 20:15 UTC,29.89,87.08,61.34,40.52,8.05,240.0,,,,,,472.0,552.0,,,10.0,,,,,,,,60.26,,WSW,29.24,28.06,86.86,Partly Cloudy
KIGQ,07/05/2016 20:35 UTC,29.89,84.38,62.6,48.42,8.05,210.0,,,,,,492.0,,,,10.0,,,,,,,,62.82,,SSW,29.24,27.93,85.28,Partly Cloudy
KIGQ,07/05/2016 20:55 UTC,29.89,84.92,63.14,48.42,5.75,240.0,,,,,,493.0,,,,10.0,,,,,4900.0,,,63.32,,WSW,29.24,27.89,85.97,Mostly Cloudy
KIGQ,07/05/2016 21:15 UTC,29.88,86.54,62.42,45.72,5.75,250.0,,,,,,492.0,,,,10.0,,,,,,,,63.18,,WSW,29.23,27.88,87.48,Partly Cloudy
KIGQ,07/05/2016 21:35 UTC,29.88,84.92,63.32,48.42,10.36,230.0,,,,,,472.0,,,,10.0,,,,,,,,63.32,,SW,29.23,27.88,85.97,Partly Cloudy
KIGQ,07/05/2016 21:55 UTC,29.88,85.46,63.5,48.69,10.36,240.0,,,,,,473.0,,,,10.0,,,,,4700.0,,,63.98,,WSW,29.23,27.83,86.77,Mostly Cloudy
KIGQ,07/05/2016 22:15 UTC,29.88,86.36,63.14,45.72,11.5,220.0,16.11,,,,,493.0,,,,10.0,,,,,4900.0,,,63.01,,SW,29.23,27.89,87.23,Mostly Cloudy
KIGQ,07/05/2016 22:35 UTC,29.88,85.1,62.78,47.35,10.36,240.0,,,,,,492.0,,,,10.0,,,,,,,,62.85,,WSW,29.23,27.91,85.96,Partly Cloudy
KIGQ,07/05/2016 22:55 UTC,29.88,86.36,63.5,48.69,10.36,210.0,,,,,,472.0,,,,10.0,,,,,,,,64.81,,SSW,29.23,27.77,88.05,Partly Cloudy
KIGQ,07/05/2016 23:15 UTC,29.87,86.54,63.68,48.69,8.05,220.0,,,,,,473.0,,,,10.0,,,,,4700.0,,,64.97,,SW,29.22,27.75,88.31,Mostly Cloudy
KIGQ,07/05/2016 23:35 UTC,29.88,85.28,62.96,45.72,9.22,230.0,,,,,,472.0,,,,10.0,,,,,,,,62.02,,SW,29.23,27.96,85.82,Partly Cloudy
KIGQ,07/05/2016 23:55 UTC,29.88,83.12,63.14,51.31,10.36,230.0,,,,,,1.0,,,,10.0,,,87.26,82.22,,,,63.3,,SW,29.23,27.9,84.29,Clear
KIGQ,07/06/2016 00:15 UTC,29.87,84.2,64.04,51.58,9.22,200.0,,,,,,462.0,,,,10.0,,,,,,,,64.46,,SSW,29.22,27.8,85.74,Partly Cloudy
KIGQ,07/06/2016 00:35 UTC,29.87,81.86,64.94,56.67,9.22,190.0,,,,,,443.0,,,,10.0,,,,,4400.0,,,64.97,,S,29.22,27.79,83.66,Mostly Cloudy
KIGQ,07/06/2016 00:55 UTC,29.86,80.96,65.66,61.67,8.05,200.0,,,,,,442.0,,,,10.0,,,,,,,,66.56,,SSW,29.21,27.68,83.25,Partly Cloudy
KIGQ,07/06/2016 01:15 UTC,29.87,78.98,66.2,65.41,5.75,200.0,,,,,,1.0,,,,10.0,,,,,,,,66.38,,SSW,29.22,27.73,,Clear
KIGQ,07/06/2016 01:35 UTC,29.87,78.08,66.38,65.41,5.75,200.0,,,,,,413.0,,,,10.0,,,,,4100.0,,,65.52,,SSW,29.22,27.8,,Mostly Cloudy
KIGQ,07/06/2016 01:55 UTC,29.87,77.9,67.1,69.6,5.75,200.0,,,,,,414.0,,,,10.0,,,,,4100.0,,,67.14,,SSW,29.22,27.69,,Overcast
KIGQ,07/06/2016 02:15 UTC,29.87,75.56,66.56,73.67,5.75,180.0,,,,,,433.0,,,,10.0,,,,,4300.0,,,66.54,,S,29.22,27.76,,Mostly Cloudy
KIGQ,07/06/2016 02:35 UTC,29.87,74.3,66.38,76.39,6.91,190.0,,,,,,412.0,,,,10.0,,,,,,,,66.37,,S,29.22,27.79,,Partly Cloudy
KIGQ,07/06/2016 02:55 UTC,29.88,74.12,67.1,83.25,6.91,180.0,,,,,,392.0,,,,10.0,,,,,,,,68.69,,S,29.23,27.64,,Partly Cloudy
KIGQ,07/06/2016 03:15 UTC,29.88,73.4,67.1,83.25,5.75,180.0,,,,,,392.0,,,,10.0,,,,,,,,67.99,,S,29.23,27.7,,Partly Cloudy
KIGQ,07/06/2016 03:35 UTC,29.88,73.58,67.28,83.25,6.91,180.0,,,,,,393.0,,,,10.0,,,,,3900.0,,,68.17,,S,29.23,27.68,,Mostly Cloudy
KIGQ,07/06/2016 03:55 UTC,29.88,73.4,67.64,83.25,8.05,190.0,,,,,,392.0,,,,10.0,,,,,,,,67.99,,S,29.23,27.7,,Partly Cloudy
KIGQ,07/06/2016 04:15 UTC,29.89,73.4,67.64,83.25,5.75,190.0,,,,,,1.0,,,,10.0,,,,,,,,67.99,,S,29.24,27.71,,Clear
KIGQ,07/06/2016 04:35 UTC,29.88,71.78,66.74,84.19,6.91,180.0,,,,,,1.0,,,,10.0,,,,,,,,66.73,,S,29.23,27.81,,Clear
KIGQ,07/06/2016 04:55 UTC,29.88,71.78,66.74,83.13,6.91,180.0,,,,,,1.0,,,,10.0,,,,,,,,66.36,,S,29.23,27.83,,Clear
KIGQ,07/06/2016 05:15 UTC,29.86,70.7,66.74,83.13,9.22,180.0,,,,,,1.0,,,,10.0,,,,,,,,65.3,,S,29.21,27.89,,Clear
KIGQ,07/06/2016 05:35 UTC,29.87,72.14,67.46,88.46,5.75,190.0,,,,,,1.0,,,,10.0,,,,,,,,68.52,,S,29.22,27.67,,Clear
KIGQ,07/06/2016 05:55 UTC,29.86,70.88,66.74,83.13,8.05,180.0,,,,,,1.0,,,,10.0,,,84.2,70.34,,87.26,60.44,65.48,,S,29.21,27.88,,Clear
KIGQ,07/06/2016 06:15 UTC,29.86,71.78,67.1,88.46,8.05,190.0,,,,,,1.0,,,,10.0,,,,,,,,68.17,,S,29.21,27.69,,Clear
KIGQ,07/06/2016 06:35 UTC,29.86,71.78,67.1,88.46,5.75,200.0,,,,,,1.0,,,,10.0,,,,,,,,68.17,,SSW,29.21,27.69,,Clear
KIGQ,07/06/2016 06:55 UTC,29.86,71.96,67.28,88.46,3.44,210.0,,,,,,372.0,,,,10.0,,,,,,,,68.35,,SSW,29.21,27.67,,Partly Cloudy
KIGQ,07/06/2016 07:15 UTC,29.85,72.14,67.64,88.46,3.44,170.0,,,503.0,,,362.0,443.0,,,10.0,,,,,4400.0,,,68.52,,S,29.2,27.65,,Mostly Cloudy
KIGQ,07/06/2016 07:35 UTC,29.85,72.68,68.0,83.25,0.0,0.0,,,,,,363.0,464.0,,,10.0,,,,,3600.0,,,67.28,,N,29.2,27.73,,Overcast
KIGQ,07/06/2016 07:55 UTC,29.85,73.4,68.0,83.25,0.0,0.0,,,,,,363.0,434.0,,,10.0,,,,,3600.0,,,67.99,,N,29.2,27.67,,Overcast
KIGQ,07/06/2016 08:15 UTC,29.84,73.4,68.36,83.25,4.61,160.0,,,,,,364.0,,,,10.0,,,,,3600.0,,,67.99,,SSE,29.19,27.66,,Overcast
KIGQ,07/06/2016 08:35 UTC,29.86,74.12,68.18,81.77,4.61,260.0,,5.0,,,,344.0,,,,10.0,,,,,3400.0,,,68.17,,W,29.21,27.65,,Thunder
KIGQ,07/06/2016 08:55 UTC,29.89,69.8,63.14,77.94,13.8,350.0,42.57,,454.0,0.01,0.01,222.0,363.0,,,7.0,,,,,3600.0,,,62.57,,N,29.24,28.1,,Overcast
KIGQ,07/06/2016 09:15 UTC,29.91,67.1,64.22,88.29,5.75,300.0,,78.0,,0.16,,,,,,5.0,,,,,,,,63.5,,WNW,29.26,28.1,,Heavy Rain/Thunderstorm
KIGQ,07/06/2016 09:35 UTC,29.88,66.56,64.4,93.94,0.0,0.0,,78.0,,0.37,,352.0,484.0,,,4.0,,,,,4800.0,,,64.75,,N,29.23,28.0,,Heavy Rain/Thunderstorm
KIGQ,07/06/2016 09:55 UTC,29.87,67.1,64.4,88.29,3.44,180.0,,77.0,1103.0,0.38,,472.0,652.0,,,10.0,,,,,11000.0,,,63.5,,S,29.22,28.06,,Light Rain/Thunderstorm
KIGQ,07/06/2016 10:15 UTC,29.88,67.28,64.76,88.29,0.0,0.0,,66.0,,,,1202.0,,,,10.0,,,,,,,,63.68,,N,29.23,28.06,,Thunderstorm
KIGQ,07/06/2016 10:35 UTC,29.91,67.28,65.12,88.29,3.44,240.0,,77.0,,,,1102.0,,,,10.0,,,,,,,,63.68,,WSW,29.26,28.09,,Light Rain/Thunderstorm
KIGQ,07/06/2016 10:55 UTC,29.92,67.46,64.94,88.29,0.0,0.0,,66.0,,,,1104.0,,,,10.0,,,,,11000.0,,,63.85,,N,29.27,28.08,,Thunderstorm
KIGQ,07/06/2016 11:15 UTC,29.92,67.64,65.3,93.98,3.44,270.0,,1.0,,0.03,,802.0,1004.0,,,5.0,,,,,10000.0,,,65.83,,W,29.27,27.96,,Rain
KIGQ,07/06/2016 11:35 UTC,29.91,67.46,65.3,92.8,4.61,250.0,,1.0,,0.07,,1104.0,,,,7.0,,,,,11000.0,,,65.29,,WSW,29.26,27.99,,Rain
KIGQ,07/06/2016 11:55 UTC,29.9,67.46,65.3,93.98,5.75,260.0,,1.0,,0.09,,952.0,1104.0,,,10.0,,,,,11000.0,,,65.65,,W,29.25,27.95,,Rain
KIGQ,07/06/2016 12:15 UTC,29.9,68.0,65.12,90.53,12.66,270.0,,,,,,902.0,1104.0,,,10.0,,,,,11000.0,,,65.11,,W,29.25,27.98,,Overcast
KIGQ,07/06/2016 12:35 UTC,29.9,68.0,64.94,88.29,12.66,250.0,,66.0,,0.02,,1104.0,,,,10.0,,,,,11000.0,,,64.39,,WSW,29.25,28.02,,Thunderstorm
KIGQ,07/06/2016 12:55 UTC,29.91,68.18,65.3,93.98,18.41,260.0,23.02,66.0,,0.04,,1104.0,,,,10.0,,,,,11000.0,,,66.37,,W,29.26,27.91,,Thunderstorm
KIGQ,07/06/2016 13:15 UTC,29.91,68.0,65.3,91.1,14.97,250.0,,13.0,1104.0,,,92.0,1003.0,,,10.0,,,,,10000.0,,,65.29,,WSW,29.26,27.98,,Light Rain
KIGQ,07/06/2016 13:35 UTC,29.9,68.0,65.48,93.98,11.5,240.0,,13.0,854.0,,,92.0,703.0,,,10.0,,,,,7000.0,,,66.19,,WSW,29.25,27.91,,Light Rain
KIGQ,07/06/2016 13:55 UTC,29.87,68.36,65.84,93.98,8.05,210.0,,13.0,,,,702.0,854.0,,,10.0,,,,,8500.0,,,66.55,,SSW,29.22,27.85,,Light Rain
KIGQ,07/06/2016 14:15 UTC,29.83,68.72,66.2,93.98,9.22,170.0,,,852.0,,,472.0,702.0,,,10.0,,,,,,,,66.91,,S,29.18,27.79,,Partly Cloudy
KIGQ,07/06/2016 14:35 UTC,29.78,68.9,66.2,88.37,9.22,110.0,,,,,,1.0,,,,10.0,,,,,,,,65.3,,ESE,29.13,27.83,,Clear
KIGQ,07/06/2016 14:55 UTC,29.81,70.16,66.74,88.37,3.44,80.0,,,,,0.04,92.0,,,,10.0,,,,,,,,66.54,,E,29.16,27.77,,Partly Cloudy
KIGQ,07/06/2016 15:15 UTC,29.8,71.42,67.1,88.46,6.91,130.0,,,,,,92.0,,,,10.0,,,,,,,,67.81,,SE,29.15,27.66,,Partly Cloudy
KIGQ,07/06/2016 15:35 UTC,29.8,73.04,67.28,82.2,6.91,150.0,,,,,,1.0,,,,10.0,,,,,,,,67.27,,SSE,29.15,27.67,,Clear
KIGQ,07/06/2016 15:55 UTC,29.78,75.56,68.18,78.39,10.36,150.0,,,,,,1.0,,,,10.0,,,,,,,,68.34,,SSE,29.13,27.54,,Clear
KIGQ,07/06/2016 16:15 UTC,29.83,77.18,67.82,73.85,8.05,210.0,,,,,,1.0,,,,10.0,,,,,,,,68.17,,SSW,29.18,27.58,,Clear
KIGQ,07/06/2016 16:35 UTC,29.83,77.9,68.18,72.13,6.91,250.0,,,,,,1.0,,,,10.0,,,,,,,,68.18,,WSW,29.18,27.57,,Clear
KIGQ,07/06/2016 16:55 UTC,29.84,79.88,68.0,65.62,11.5,250.0,,,,,,1.0,,,,10.0,,,,,,,,67.33,,WSW,29.19,27.62,,Clear
KIGQ,07/06/2016 17:15 UTC,29.83,82.22,66.74,58.18,8.05,270.0,,,,,,1.0,,,,10.0,,,,,,,,66.06,,W,29.18,27.67,84.4,Clear
KIGQ,07/06/2016 17:35 UTC,29.82,83.84,65.3,54.9,9.22,260.0,16.11,,,,,1.0,,,,10.0,,,,,,,,65.91,,W,29.17,27.66,86.0,Clear
KIGQ,07/06/2016 17:55 UTC,29.81,86.0,64.94,48.69,6.91,280.0,,,,,,1.0,,0.04,,10.0,,,86.0,67.46,,,,64.47,,W,29.16,27.72,87.52,Clear
KIGQ,07/06/2016 18:15 UTC,29.81,87.44,59.36,38.01,16.11,270.0,,,,,,1.0,,,,10.0,,,,,,,,58.8,,W,29.16,28.06,86.71,Clear
KIGQ,07/06/2016 18:35 UTC,29.81,88.16,60.8,40.52,16.11,270.0,19.57,,,,,1.0,,,,10.0,,,,,,,,61.24,,W,29.16,27.91,88.26,Clear
KIGQ,07/06/2016 18:55 UTC,29.81,87.8,62.42,43.18,10.36,260.0,21.85,,,,,1.0,,,,10.0,,,,,,,,62.71,,W,29.16,27.82,88.52,Clear
KIGQ,07/06/2016 19:15 UTC,29.81,88.16,64.58,45.99,10.36,280.0,,,,,,1.0,,,,10.0,,,,,,,,64.83,,W,29.16,27.68,89.91,Clear
KIGQ,07/06/2016 19:35 UTC,29.82,88.16,64.94,45.99,16.11,260.0,26.46,,,,,1.0,,,,10.0,,,,,,,,64.83,,W,29.17,27.69,89.91,Clear
KIGQ,07/06/2016 19:55 UTC,29.82,87.98,65.66,48.96,12.66,280.0,18.41,,,,,1.0,,,,10.0,,,,,,,,66.46,,W,29.17,27.58,90.64,Clear
KIGQ,07/06/2016 20:15 UTC,29.81,88.34,66.2,48.96,10.36,270.0,,,,,,452.0,,,,10.0,,,,,,,,66.79,,W,29.16,27.54,91.23,Partly Cloudy
KIGQ,07/06/2016 20:35 UTC,29.81,87.44,67.28,51.4,10.36,260.0,,,,,,1.0,,,,10.0,,,,,,,,67.36,,W,29.16,27.51,90.6,Clear
KIGQ,07/06/2016 20:55 UTC,29.8,87.44,67.46,52.09,10.36,260.0,,,,,,1.0,,,,10.0,,,,,,,,67.75,,W,29.15,27.47,90.85,Clear
KIGQ,07/06/2016 21:15 UTC,29.81,87.8,67.64,52.09,9.22,250.0,,,,,,1.0,,,,10.0,,,,,,,,68.09,,WSW,29.16,27.45,91.47,Clear
KIGQ,07/06/2016 21:35 UTC,29.82,86.54,68.18,54.55,14.97,260.0,,,,,,462.0,,,,10.0,,,,,,,,68.25,,W,29.17,27.46,90.17,Partly Cloudy
KIGQ,07/06/2016 21:55 UTC,29.83,86.18,68.9,58.66,14.97,240.0,,,553.0,,,402.0,483.0,,,10.0,,,,,4800.0,,,70.03,,WSW,29.18,27.34,90.96,Mostly Cloudy
KIGQ,07/06/2016 22:15 UTC,29.83,85.82,69.62,58.66,14.97,240.0,18.41,,,,,403.0,503.0,,,10.0,,,,,4000.0,,,69.69,,WSW,29.18,27.37,90.29,Mostly Cloudy
KIGQ,07/06/2016 22:35 UTC,29.83,85.46,69.62,58.66,12.66,240.0,18.41,,,,,382.0,,,,10.0,,,,,,,,69.35,,WSW,29.18,27.4,89.65,Partly Cloudy
KIGQ,07/06/2016 22:55 UTC,29.83,85.82,69.26,58.66,8.05,260.0,17.27,,,,,1.0,,,,10.0,,,,,,,,69.69,,W,29.18,27.37,90.29,Clear
KIGQ,07/06/2016 23:15 UTC,29.83,86.36,70.16,58.66,11.5,260.0,17.27,,,,,382.0,,,,10.0,,,,,,,,70.2,,W,29.18,27.32,91.29,Partly Cloudy
KIGQ,07/06/2016 23:35 UTC,29.84,85.1,69.8,60.36,9.22,260.0,,,,,,383.0,443.0,,,10.0,,,,,3800.0,,,69.85,,W,29.19,27.37,89.54,Mostly Cloudy
KIGQ,07/06/2016 23:55 UTC,29.83,84.02,69.8,62.13,16.11,270.0,20.71,,,,,362.0,753.0,,,10.0,,,88.7,84.02,7500.0,,,69.67,,W,29.18,27.39,88.14,Mostly Cloudy
KIGQ,07/07/2016 00:15 UTC,29.84,82.76,69.98,65.83,11.5,270.0,19.57,,,,,552.0,652.0,,,10.0,,,,,,,,70.17,,W,29.19,27.38,86.87,Partly Cloudy
KIGQ,07/07/2016 00:35 UTC,29.83,82.4,69.98,65.83,11.5,280.0,,,,,,552.0,,,,10.0,,,,,,,,69.82,,W,29.18,27.4,86.24,Partly Cloudy
KIGQ,07/07/2016 00:55 UTC,29.84,81.5,70.34,65.83,9.22,280.0,,,,,,302.0,352.0,,,10.0,,,,,,,,68.97,,W,29.19,27.48,84.73,Partly Cloudy
KIGQ,07/07/2016 01:15 UTC,29.85,80.96,69.8,69.79,10.36,270.0,,,,,,302.0,352.0,,,10.0,,,,,,,,70.16,,W,29.2,27.41,84.52,Partly Cloudy
KIGQ,07/07/2016 01:35 UTC,29.84,80.78,68.72,66.87,12.66,270.0,18.41,,,,,1.0,,,,10.0,,,,,,,,68.74,,W,29.19,27.51,83.76,Clear
KIGQ,07/07/2016 01:55 UTC,29.84,79.7,68.36,65.62,11.5,260.0,,,,,,1.0,,,,10.0,,,,,,,,67.16,,W,29.19,27.64,,Clear
KIGQ,07/07/2016 02:15 UTC,29.84,79.16,68.36,69.6,8.05,270.0,,,,,,1.0,,,,10.0,,,,,,,,68.35,,W,29.19,27.56,,Clear
KIGQ,07/07/2016 02:35 UTC,29.84,78.08,68.9,74.02,5.75,250.0,,,,,,1.0,,,,10.0,,,,,,,,69.11,,WSW,29.19,27.51,,Clear
KIGQ,07/07/2016 02:55 UTC,29.85,77.18,68.9,78.54,3.44,230.0,,,,,,1.0,,,,10.0,,,,,,,,69.97,,SW,29.2,27.47,,Clear
KIGQ,07/07/2016 03:15 UTC,29.85,75.74,69.98,83.37,3.44,220.0,,,,,,1.0,,,,10.0,,,,,,,,70.32,,SW,29.2,27.47,,Clear
KIGQ,07/07/2016 03:35 UTC,29.85,74.66,69.98,83.37,4.61,220.0,,,,,,1.0,,,,10.0,,,,,,,,69.27,,SW,29.2,27.56,,Clear
KIGQ,07/07/2016 03:55 UTC,29.84,74.3,69.98,83.37,3.44,230.0,,,,,,1.0,,,,10.0,,,,,,,,68.91,,SW,29.19,27.58,,Clear
KIGQ,07/07/2016 04:15 UTC,29.84,72.68,68.9,88.54,4.61,210.0,,,,,,1.0,,,,10.0,,,,,,,,69.08,,SSW,29.19,27.59,,Clear
KIGQ,07/07/2016 04:35 UTC,29.83,73.4,69.08,88.54,3.44,230.0,,,,,,1.0,,,,10.0,,,,,,,,69.79,,SW,29.18,27.52,,Clear
KIGQ,07/07/2016 04:55 UTC,29.84,72.86,68.54,83.25,3.44,230.0,,,,,,1.0,,,,10.0,,,,,,,,67.46,,SW,29.19,27.7,,Clear
KIGQ,07/07/2016 05:15 UTC,29.84,72.86,68.0,83.25,3.44,240.0,,,,,,1.0,,,,10.0,,,,,,,,67.46,,WSW,29.19,27.7,,Clear
KIGQ,07/07/2016 05:35 UTC,29.84,71.24,67.1,86.81,3.44,230.0,,,,,,1.0,,,,10.0,,,,,,,,67.09,,SW,29.19,27.75,,Clear
KIGQ,07/07/2016 05:55 UTC,29.85,72.68,67.1,83.25,4.61,270.0,,,,,,1.0,,,,10.0,,,83.84,71.24,,,,67.28,,W,29.2,27.73,,Clear
KIGQ,07/07/2016 06:15 UTC,29.86,72.14,66.74,83.13,3.44,260.0,,,,,,1.0,,,,10.0,,,,,,,,66.71,,W,29.21,27.78,,Clear
KIGQ,07/07/2016 06:35 UTC,29.85,71.6,66.38,83.13,0.0,0.0,,,,,,1.0,,,,10.0,,,,,,,,66.18,,N,29.2,27.81,,Clear
KIGQ,07/07/2016 06:55 UTC,29.84,70.16,65.84,88.37,0.0,0.0,,,,,,1.0,,,,10.0,,,,,,,,66.54,,N,29.19,27.8,,Clear
KIGQ,07/07/2016 07:15 UTC,29.84,69.98,65.84,86.74,0.0,0.0,,,,,,1.0,,,,10.0,,,,,,,,65.82,,N,29.19,27.85,,Clear
KIGQ,07/07/2016 07:35 UTC,29.84,69.26,65.66,88.37,0.0,0.0,,,,,,1.0,,,,10.0,,,,,,,,65.65,,N,29.19,27.87,,Clear
KIGQ,07/07/2016 07:55 UTC,29.83,67.82,64.58,88.29,3.44,200.0,,,,,,1.0,,,,7.0,,,,,,,,64.21,,SSW,29.18,27.97,,Clear
KIGQ,07/07/2016 08:15 UTC,29.83,68.0,65.12,88.29,0.0,0.0,,,,,,1.0,,,,10.0,,,,,,,,64.39,,N,29.18,27.95,,Clear
KIGQ,07/07/2016 08:35 UTC,29.83,68.18,65.84,92.25,0.0,0.0,,,,,,1.0,,,,10.0,,,,,,,,65.83,,N,29.18,27.86,,Clear
KIGQ,07/07/2016 08:55 UTC,29.84,66.74,64.76,93.94,0.0,0.0,,,,,,1.0,,,,10.0,,,,,,,,64.93,,N,29.19,27.95,,Clear
KIGQ,07/07/2016 09:15 UTC,29.84,66.92,65.12,93.94,3.44,220.0,,,,,,1.0,,,,10.0,,,,,,,,65.11,,SW,29.19,27.93,,Clear
KIGQ,07/07/2016 09:35 UTC,29.85,66.02,63.86,93.94,0.0,0.0,,,,,,203.0,,,,7.0,,,,,2000.0,,,64.21,,N,29.2,28.01,,Mostly Cloudy
KIGQ,07/07/2016 09:55 UTC,29.85,67.64,65.84,93.98,0.0,0.0,,,,,,224.0,,,,10.0,,,,,2200.0,,,65.83,,N,29.2,27.89,,Overcast
KIGQ,07/07/2016 10:15 UTC,29.84,68.9,66.56,88.37,0.0,0.0,,,,,,223.0,304.0,,,10.0,,,,,2200.0,,,65.3,,N,29.19,27.9,,Overcast
KIGQ,07/07/2016 10:35 UTC,29.83,68.9,66.38,91.7,3.44,190.0,,,,,,273.0,,,,10.0,,,,,2700.0,,,66.37,,S,29.18,27.82,,Mostly Cloudy
KIGQ,07/07/2016 10:55 UTC,29.84,68.0,65.84,93.98,0.0,0.0,,,,,,272.0,,,,10.0,,,,,,,,66.19,,N,29.19,27.85,,Partly Cloudy
KIGQ,07/07/2016 11:15 UTC,29.84,68.36,66.38,93.98,5.75,200.0,,,,,,1.0,,,,10.0,,,,,,,,66.55,,SSW,29.19,27.82,,Clear
KIGQ,07/07/2016 11:35 UTC,29.87,69.98,67.64,94.03,3.44,230.0,,,,,,1.0,,,,10.0,,,,,,,,68.17,,SW,29.22,27.72,,Clear
KIGQ,07/07/2016 11:55 UTC,29.89,71.24,68.0,88.46,6.91,250.0,,,,,,1.0,,,0.04,7.0,,,72.86,66.02,,,,67.64,,WSW,29.24,27.76,,Clear
KIGQ,07/07/2016 12:15 UTC,29.89,72.86,68.36,83.25,4.61,250.0,,,,,,92.0,,,,10.0,,,,,,,,67.46,,WSW,29.24,27.75,,Partly Cloudy
KIGQ,07/07/2016 12:35 UTC,29.88,72.68,68.18,83.25,9.22,250.0,,,,,,93.0,,,,10.0,,,,,900.0,,,67.28,,WSW,29.23,27.76,,Mostly Cloudy
KIGQ,07/07/2016 12:55 UTC,29.87,73.76,68.18,83.25,5.75,250.0,,,,,,92.0,,,,10.0,,,,,,,,68.34,,WSW,29.22,27.66,,Partly Cloudy
KIGQ,07/07/2016 13:15 UTC,29.88,74.3,68.0,78.39,9.22,270.0,,,,,,113.0,,,,10.0,,,,,1100.0,,,67.12,,W,29.23,27.75,,Mostly Cloudy
KIGQ,07/07/2016 13:35 UTC,29.88,75.2,68.36,79.36,6.91,260.0,,,,,,134.0,,,,10.0,,,,,1300.0,,,68.35,,W,29.23,27.65,,Overcast
KIGQ,07/07/2016 13:55 UTC,29.87,76.28,68.0,73.85,5.75,250.0,,,,,,154.0,,,,10.0,,,,,1500.0,,,67.3,,WSW,29.22,27.7,,Overcast
KIGQ,07/07/2016 14:15 UTC,29.86,76.64,67.64,73.85,5.75,260.0,,,,,,152.0,,,,10.0,,,,,,,,67.65,,W,29.21,27.66,,Partly Cloudy
KIGQ,07/07/2016 14:35 UTC,29.85,77.9,67.64,70.81,6.91,300.0,,,,,,193.0,,,,10.0,,,,,1900.0,,,67.64,,WNW,29.2,27.63,,Mostly Cloudy
KIGQ,07/07/2016 14:55 UTC,29.86,78.44,67.1,69.6,4.61,230.0,,,,,,192.0,,,,10.0,,,,,,,,67.66,,SW,29.21,27.64,,Partly Cloudy
KIGQ,07/07/2016 15:15 UTC,29.86,79.52,66.74,65.41,8.05,230.0,,,,,,232.0,,,,10.0,,,,,,,,66.89,,SW,29.21,27.68,,Partly Cloudy
KIGQ,07/07/2016 15:35 UTC,29.85,78.98,66.56,65.41,9.22,240.0,,,,,,1.0,,,,10.0,,,,,,,,66.38,,WSW,29.2,27.71,,Clear
KIGQ,07/07/2016 15:55 UTC,29.86,79.52,66.56,65.41,8.05,260.0,,,,,,1.0,,,,10.0,,,,,,,,66.89,,W,29.21,27.68,,Clear
KIGQ,07/07/2016 16:15 UTC,29.86,80.06,66.92,61.67,6.91,250.0,,,,,,1.0,,,,10.0,,,,,,,,65.7,,WSW,29.21,27.75,82.07,Clear
KIGQ,07/07/2016 16:35 UTC,29.86,80.78,67.1,65.62,8.05,230.0,,,,,,1.0,,,,10.0,,,,,,,,68.19,,SW,29.21,27.57,83.57,Clear
KIGQ,07/07/2016 16:55 UTC,29.87,81.5,66.56,58.18,8.05,230.0,,,,,,1.0,,,,10.0,,,,,,,,65.39,,SW,29.22,27.77,83.44,Clear
KIGQ,07/07/2016 17:15 UTC,29.86,81.32,66.92,61.67,11.5,190.0,,,,,,312.0,392.0,,,10.0,,,,,,,,66.9,,S,29.21,27.66,83.75,Partly Cloudy
KIGQ,07/07/2016 17:35 UTC,29.84,81.14,66.56,61.36,8.05,170.0,,,,,,312.0,392.0,,,10.0,,,,,,,,66.58,,S,29.19,27.66,83.45,Partly Cloudy
KIGQ,07/07/2016 17:55 UTC,29.83,80.06,68.9,69.79,8.05,170.0,,,,,,293.0,433.0,,,10.0,,,81.5,71.24,2900.0,,,69.3,,S,29.18,27.47,83.02,Mostly Cloudy
KIGQ,07/07/2016 18:15 UTC,29.81,81.14,69.98,69.79,8.05,200.0,16.11,,,,,263.0,323.0,,,10.0,,,,,2600.0,,,70.33,,SSW,29.16,27.35,84.83,Mostly Cloudy
KIGQ,07/07/2016 18:35 UTC,29.81,81.5,69.8,65.83,11.5,170.0,,,,,,262.0,323.0,,,10.0,,,,,3200.0,,,68.97,,S,29.16,27.45,84.73,Mostly Cloudy
KIGQ,07/07/2016 18:55 UTC,29.79,81.14,69.62,69.79,8.05,160.0,,,,,,262.0,322.0,,,10.0,,,,,,,,70.33,,SSE,29.14,27.33,84.83,Partly Cloudy
KIGQ,07/07/2016 19:15 UTC,29.77,80.78,69.08,69.79,5.75,130.0,,,,,,262.0,322.0,,,10.0,,,,,,,,69.99,,SE,29.12,27.34,84.21,Partly Cloudy
KIGQ,07/07/2016 19:35 UTC,29.77,80.78,69.08,67.7,8.05,140.0,,,,,,262.0,1202.0,,,10.0,,,,,,,,69.1,,SE,29.12,27.41,83.89,Partly Cloudy
KIGQ,07/07/2016 19:55 UTC,29.77,80.96,69.62,69.79,9.22,130.0,,,,,,262.0,1203.0,,,10.0,,,,,12000.0,,,70.16,,SE,29.12,27.33,84.52,Mostly Cloudy
KIGQ,07/07/2016 20:15 UTC,29.78,80.78,69.8,69.79,8.05,150.0,,,,,,1203.0,,,,10.0,,,,,12000.0,,,69.99,,SSE,29.13,27.35,84.21,Mostly Cloudy
KIGQ,07/07/2016 20:35 UTC,29.79,82.04,70.7,69.98,11.5,180.0,,,,,,262.0,1203.0,,,10.0,,,,,12000.0,,,71.28,,S,29.14,27.25,86.51,Mostly Cloudy
KIGQ,07/07/2016 20:55 UTC,29.79,81.68,70.52,65.83,12.66,200.0,,,1204.0,,,243.0,293.0,,,10.0,,,,,2400.0,,,69.14,,SSW,29.14,27.42,85.03,Overcast
KIGQ,07/07/2016 21:15 UTC,29.79,81.68,69.26,65.83,10.36,180.0,,,,,,242.0,1104.0,,,10.0,,,,,11000.0,,,69.14,,S,29.14,27.42,85.03,Overcast
KIGQ,07/07/2016 21:35 UTC,29.79,82.76,67.82,60.81,9.22,190.0,,,,,,1103.0,,,,10.0,,,,,11000.0,,,67.85,,S,29.14,27.5,85.72,Mostly Cloudy
KIGQ,07/07/2016 21:55 UTC,29.79,81.68,69.08,65.83,9.22,220.0,,,,,,603.0,1103.0,,,10.0,,,,,6000.0,,,69.14,,SW,29.14,27.42,85.03,Mostly Cloudy
KIGQ,07/07/2016 22:15 UTC,29.78,82.04,68.72,61.9,6.91,190.0,,,,,,302.0,603.0,,,10.0,,,,,6000.0,,,67.69,,S,29.13,27.51,84.84,Mostly Cloudy
KIGQ,07/07/2016 22:35 UTC,29.79,80.96,68.72,65.62,5.75,190.0,,,,,,282.0,503.0,,,10.0,,,,,5000.0,,,68.36,,S,29.14,27.48,83.85,Mostly Cloudy
KIGQ,07/07/2016 22:55 UTC,29.78,80.24,68.54,65.62,8.05,170.0,,,,,,503.0,703.0,,,10.0,,,,,5000.0,,,67.67,,S,29.13,27.53,82.78,Mostly Cloudy
KIGQ,07/07/2016 23:15 UTC,29.78,81.14,69.8,69.79,6.91,150.0,,13.0,1203.0,,,422.0,602.0,,,10.0,,,,,12000.0,,,70.33,,SSE,29.13,27.32,84.83,Light Rain
KIGQ,07/07/2016 23:35 UTC,29.78,79.7,70.16,69.79,0.0,0.0,,13.0,503.0,,,242.0,363.0,,,10.0,,,,,3600.0,,,68.95,,N,29.13,27.45,,Light Rain
KIGQ,07/07/2016 23:55 UTC,29.79,78.98,70.7,78.68,0.0,0.0,,1.0,704.0,,,242.0,433.0,,,10.0,,,82.94,78.98,4300.0,,,71.78,,N,29.14,27.25,,Rain
KIGQ,07/08/2016 00:15 UTC,29.8,75.38,71.42,88.62,5.75,260.0,10.36,14.0,484.0,0.04,,242.0,413.0,,,4.0,,,,,4100.0,,,71.77,,W,29.15,27.31,,Heavy Rain
KIGQ,07/08/2016 00:35 UTC,29.8,72.5,69.08,88.54,8.05,160.0,,13.0,1004.0,0.08,,192.0,443.0,,,5.0,,,,,4400.0,,,68.91,,SSE,29.15,27.56,,Light Rain
KIGQ,07/08/2016 00:55 UTC,29.79,72.86,69.44,88.54,3.44,90.0,,13.0,1104.0,0.08,,502.0,752.0,,,10.0,,,,,11000.0,,,69.26,,E,29.14,27.52,,Light Rain
KIGQ,07/08/2016 01:15 UTC,29.81,72.68,69.26,88.54,4.61,200.0,,,,,,1103.0,,,,10.0,,,,,11000.0,,,69.08,,SSW,29.16,27.56,,Mostly Cloudy
KIGQ,07/08/2016 01:35 UTC,29.82,71.96,68.9,94.07,3.44,230.0,,,,,,483.0,1103.0,,,10.0,,,,,4800.0,,,70.15,,SW,29.17,27.5,,Mostly Cloudy
KIGQ,07/08/2016 01:55 UTC,29.83,72.14,68.9,94.07,0.0,0.0,,,,,,432.0,483.0,,,10.0,,,,,4800.0,,,70.33,,N,29.18,27.5,,Mostly Cloudy
KIGQ,07/08/2016 02:15 UTC,29.83,72.14,69.26,90.69,0.0,0.0,,,653.0,,,432.0,502.0,,,10.0,,,,,6500.0,,,69.25,,N,29.18,27.58,,Mostly Cloudy
KIGQ,07/08/2016 02:35 UTC,29.83,72.5,69.44,88.54,0.0,0.0,,,,,,653.0,,,,10.0,,,,,6500.0,,,68.91,,N,29.18,27.59,,Mostly Cloudy
KIGQ,07/08/2016 02:55 UTC,29.83,71.96,69.44,94.07,0.0,0.0,,,,,0.08,652.0,,,,10.0,,,,,,,,70.15,,N,29.18,27.51,,Partly Cloudy
KIGQ,07/08/2016 03:15 UTC,29.83,71.6,69.26,94.07,0.0,0.0,,,,,,1.0,,,,7.0,,,,,,,,69.79,,N,29.18,27.54,,Clear
KIGQ,07/08/2016 03:35 UTC,29.84,71.24,69.08,92.91,4.61,310.0,,,,,,1.0,,,,10.0,,,,,,,,69.07,,NW,29.19,27.61,,Clear
KIGQ,07/08/2016 03:55 UTC,29.83,71.06,68.9,94.07,3.44,310.0,,,,,,1.0,,,,10.0,,,,,,,,69.26,,NW,29.18,27.59,,Clear
KIGQ,07/08/2016 04:15 UTC,29.81,71.06,68.9,94.07,3.44,300.0,,,,,,1.0,,,,10.0,,,,,,,,69.26,,WNW,29.16,27.57,,Clear
KIGQ,07/08/2016 04:35 UTC,29.82,71.06,68.9,94.07,3.44,280.0,,,,,,1.0,,,,7.0,,,,,,,,69.26,,W,29.17,27.58,,Clear
KIGQ,07/08/2016 04:55 UTC,29.82,71.24,68.9,94.07,3.44,290.0,,,,,,122.0,,,,7.0,,,,,,,,69.44,,WNW,29.17,27.57,,Partly Cloudy
KIGQ,07/08/2016 05:15 UTC,29.81,71.06,68.9,94.07,0.0,0.0,,,,,,122.0,,,,7.0,,,,,,,,69.26,,N,29.16,27.57,,Partly Cloudy
KIGQ,07/08/2016 05:35 UTC,29.81,70.16,68.36,94.04,0.0,0.0,,31.0,,,,1.0,,,,2.5,,,,,,,,68.35,,N,29.16,27.65,,Mist
KIGQ,07/08/2016 05:55 UTC,29.81,69.8,69.08,100.0,0.0,0.0,,31.0,,,,75.0,,0.08,,1.25,,,78.98,69.08,700.0,82.94,66.02,69.8,,N,29.16,27.55,,Mist
KIGQ,07/08/2016 06:15 UTC,29.81,69.62,69.08,100.0,0.0,0.0,,9.0,,,,54.0,,,,0.25,,,,,500.0,,,69.62,,N,29.16,27.57,,Fog
KIGQ,07/08/2016 06:35 UTC,29.81,69.08,68.72,94.03,0.0,0.0,,31.0,,,,54.0,,,,1.0,,,,,500.0,,,67.28,,N,29.16,27.74,,Mist
KIGQ,07/08/2016 06:55 UTC,29.81,68.72,68.54,100.0,0.0,0.0,,31.0,,,,54.0,,,,0.75,,,,,500.0,,,68.72,,N,29.16,27.64,,Mist
KIGQ,07/08/2016 07:15 UTC,29.81,68.36,68.0,98.77,0.0,0.0,,9.0,,,,54.0,,,,0.5,,,,,500.0,,,68.0,,N,29.16,27.7,,Fog
KIGQ,07/08/2016 07:35 UTC,29.82,68.9,68.36,94.03,3.44,200.0,,31.0,,,,54.0,,,,2.0,,,,,500.0,,,67.1,,SSW,29.17,27.76,,Mist
KIGQ,07/08/2016 07:55 UTC,29.82,68.9,68.72,94.03,0.0,0.0,,31.0,,,,34.0,,,,2.0,,,,,300.0,,,67.1,,N,29.17,27.76,,Mist
KIGQ,07/08/2016 08:15 UTC,29.83,70.16,69.98,100.0,6.91,220.0,,9.0,,,,34.0,,,,0.25,,,,,300.0,,,70.16,,SW,29.18,27.54,,Fog
KIGQ,07/08/2016 08:35 UTC,29.82,69.98,69.8,100.0,3.44,190.0,,2.0,,,,34.0,,,,0.25,,,,,300.0,,,69.98,,S,29.17,27.55,,Drizzle
KIGQ,07/08/2016 08:55 UTC,29.82,69.8,69.44,100.0,0.0,0.0,,2.0,,,,34.0,,,,0.25,,,,,300.0,,,69.8,,N,29.17,27.56,,Drizzle
KIGQ,07/08/2016 09:15 UTC,29.82,69.26,69.08,100.0,0.0,0.0,,2.0,,,,34.0,,,,0.25,,,,,300.0,,,69.26,,N,29.17,27.61,,Drizzle
KIGQ,07/08/2016 09:35 UTC,29.83,68.54,68.36,99.38,5.75,210.0,,31.0,,,,34.0,,,,1.5,,,,,300.0,,,68.36,,SSW,29.18,27.69,,Mist
KIGQ,07/08/2016 09:55 UTC,29.83,68.18,68.0,100.0,3.44,210.0,,9.0,,,,34.0,,,,0.5,,,,,300.0,,,68.18,,SSW,29.18,27.71,,Fog
KIGQ,07/08/2016 10:15 UTC,29.83,68.18,68.0,100.0,0.0,0.0,,9.0,,,,34.0,,,,-0.25,,,,,300.0,,,68.18,,N,29.18,27.71,,Fog
KIGQ,07/08/2016 10:35 UTC,29.84,68.54,68.36,99.38,3.44,230.0,,9.0,,,,34.0,,,,-0.25,,,,,300.0,,,68.36,,SW,29.19,27.7,,Fog
KIGQ,07/08/2016 10:55 UTC,29.85,68.9,68.9,100.0,4.61,250.0,,9.0,,,,34.0,,,,-0.25,,,,,300.0,,,68.9,,WSW,29.2,27.67,,Fog
KIGQ,07/08/2016 11:15 UTC,29.86,69.44,69.26,99.39,6.91,280.0,,9.0,,,,34.0,,,,-0.25,,,,,300.0,,,69.26,,W,29.21,27.65,,Fog
KIGQ,07/08/2016 11:35 UTC,29.86,69.8,69.62,99.39,5.75,280.0,,31.0,,,,34.0,,,,1.0,,,,,300.0,,,69.62,,W,29.21,27.61,,Mist
KIGQ,07/08/2016 11:55 UTC,29.86,70.16,69.98,100.0,0.0,0.0,,31.0,,,,34.0,,,0.08,2.0,,,70.16,67.46,300.0,,,70.16,,N,29.21,27.57,,Mist
KIGQ,07/08/2016 12:15 UTC,29.86,70.7,70.52,94.07,3.44,250.0,,31.0,,,,34.0,,,,2.5,,,,,300.0,,,68.9,,WSW,29.21,27.65,,Mist
KIGQ,07/08/2016 12:35 UTC,29.86,71.42,71.06,100.0,3.44,250.0,,31.0,,,,33.0,,,,4.0,,,,,300.0,,,71.42,,WSW,29.21,27.46,,Mist
KIGQ,07/08/2016 12:55 UTC,29.86,72.68,72.32,94.12,5.75,250.0,,31.0,,,,52.0,353.0,,,5.0,,,,,3500.0,,,70.88,,WSW,29.21,27.48,,Mist
KIGQ,07/08/2016 13:15 UTC,29.87,73.94,72.68,100.0,5.75,250.0,,,,,,352.0,,,,7.0,,,,,,,,73.94,,WSW,29.22,27.23,,Partly Cloudy
KIGQ,07/08/2016 13:35 UTC,29.86,75.2,71.06,88.62,8.05,270.0,,,,,,1.0,,,,10.0,,,,,,,,71.6,,W,29.21,27.39,,Clear
KIGQ,07/08/2016 13:55 UTC,29.86,76.46,71.24,83.48,5.75,240.0,,,,,,1.0,,,,10.0,,,,,,,,71.07,,WSW,29.21,27.41,,Clear
KIGQ,07/08/2016 14:15 UTC,29.85,77.0,70.52,78.54,5.75,300.0,,,,,,1.0,,,,10.0,,,,,,,,69.8,,WNW,29.2,27.49,,Clear
KIGQ,07/08/2016 14:35 UTC,29.84,78.26,70.52,74.02,4.61,270.0,,,,,,1.0,,,,10.0,,,,,,,,69.28,,W,29.19,27.5,,Clear
KIGQ,07/08/2016 14:55 UTC,29.84,79.7,70.34,69.79,4.61,260.0,,,,,,1.0,,,,10.0,,,,,,,,68.95,,W,29.19,27.51,,Clear
KIGQ,07/08/2016 15:15 UTC,29.85,81.68,70.16,65.83,6.91,260.0,,,,,,242.0,312.0,,,10.0,,,,,,,,69.14,,W,29.2,27.48,85.03,Partly Cloudy
KIGQ,07/08/2016 15:35 UTC,29.84,82.4,69.98,65.83,9.22,250.0,16.11,,,,,282.0,,,,10.0,,,,,,,,69.82,,WSW,29.19,27.41,86.24,Partly Cloudy
KIGQ,07/08/2016 15:55 UTC,29.83,83.3,68.54,58.42,9.22,270.0,,,453.0,,,282.0,363.0,,,10.0,,,,,3600.0,,,67.2,,W,29.18,27.58,86.02,Mostly Cloudy
KIGQ,07/08/2016 16:15 UTC,29.83,83.84,68.72,58.42,10.36,250.0,,,,,,322.0,413.0,,,10.0,,,,,4100.0,,,67.71,,WSW,29.18,27.54,86.85,Mostly Cloudy
KIGQ,07/08/2016 16:35 UTC,29.83,83.3,68.36,60.88,10.36,270.0,,,453.0,,,342.0,393.0,,,10.0,,,,,3900.0,,,68.4,,W,29.18,27.49,86.6,Mostly Cloudy
KIGQ,07/08/2016 16:55 UTC,29.83,85.46,69.62,58.66,11.5,250.0,,,473.0,,,332.0,402.0,,,10.0,,,,,4700.0,,,69.35,,WSW,29.18,27.4,89.65,Mostly Cloudy
KIGQ,07/08/2016 17:15 UTC,29.83,84.56,68.54,58.83,11.5,260.0,,,553.0,,,342.0,403.0,,,10.0,,,,,4000.0,,,68.59,,W,29.18,27.47,88.14,Mostly Cloudy
KIGQ,07/08/2016 17:35 UTC,29.82,85.82,67.82,55.15,13.8,260.0,,,603.0,,,362.0,483.0,,,10.0,,,,,4800.0,,,67.89,,W,29.17,27.49,89.14,Mostly Cloudy
KIGQ,07/08/2016 17:55 UTC,29.82,85.28,68.0,55.15,13.8,250.0,17.27,,602.0,,,402.0,482.0,,,10.0,,,86.36,70.16,,,,67.39,,WSW,29.17,27.54,88.26,Partly Cloudy
KIGQ,07/08/2016 18:15 UTC,29.82,85.1,67.82,55.15,12.66,250.0,17.27,,702.0,,,402.0,602.0,,,10.0,,,,,,,,67.22,,WSW,29.17,27.55,87.97,Partly Cloudy
KIGQ,07/08/2016 18:35 UTC,29.82,84.74,67.28,56.01,13.8,250.0,18.41,,603.0,,,412.0,502.0,,,10.0,,,,,6000.0,,,67.33,,WSW,29.17,27.55,87.64,Mostly Cloudy
KIGQ,07/08/2016 18:55 UTC,29.82,84.56,67.46,58.42,19.57,260.0,24.16,,954.0,,,422.0,503.0,,,10.0,,,,,5000.0,,,68.39,,W,29.17,27.47,88.02,Overcast
KIGQ,07/08/2016 19:15 UTC,29.82,86.0,67.28,55.15,17.27,260.0,24.16,,653.0,,,422.0,503.0,,,10.0,,,,,5000.0,,,68.06,,W,29.17,27.48,89.45,Mostly Cloudy
KIGQ,07/08/2016 19:35 UTC,29.82,85.46,64.04,48.92,14.97,290.0,24.16,,,,,483.0,,,,10.0,,,,,4800.0,,,64.11,,WNW,29.17,27.76,86.82,Mostly Cloudy
KIGQ,07/08/2016 19:55 UTC,29.82,87.26,59.18,38.01,21.85,260.0,25.32,,,,,502.0,,,,10.0,,,,,,,,58.64,,W,29.17,28.08,86.49,Partly Cloudy
KIGQ,07/08/2016 20:15 UTC,29.82,87.8,54.68,33.39,18.41,260.0,24.16,,,,,1.0,,,,10.0,,,,,,,,55.53,,W,29.17,28.25,86.13,Clear
KIGQ,07/08/2016 20:35 UTC,29.83,86.9,49.1,27.38,13.8,280.0,27.63,,,,,1.0,,,,10.0,,,,,,,,49.38,,W,29.18,28.55,84.26,Clear
KIGQ,07/08/2016 20:55 UTC,29.82,86.9,54.14,31.27,11.5,280.0,17.27,,,,,1.0,,,,10.0,,,,,,,,52.95,,W,29.17,28.38,84.81,Clear
KIGQ,07/08/2016 21:15 UTC,29.83,86.0,53.6,33.11,24.16,270.0,28.77,,,,,1.0,,,,10.0,,,,,,,,53.71,,W,29.18,28.36,84.2,Clear
KIGQ,07/08/2016 21:35 UTC,29.83,85.46,55.22,35.35,17.27,270.0,20.71,,,,,1.0,,,,10.0,,,,,,,,55.02,,W,29.18,28.3,84.01,Clear
KIGQ,07/08/2016 22:00 UTC,29.83,84.56,55.76,37.44,10.36,280.0,21.85,,,,,1.0,,,,10.0,,,,,,,,55.8,,W,29.18,28.27,83.45,Clear
KIGQ,07/08/2016 22:15 UTC,29.82,83.66,56.3,39.96,18.41,280.0,27.63,,,,,602.0,,,,10.0,,,,,,,,56.78,,W,29.17,28.21,82.95,Partly Cloudy
KIGQ,07/08/2016 22:35 UTC,29.83,84.02,55.4,37.44,14.97,290.0,29.93,,,,,602.0,,,,10.0,,,,,,,,55.31,,WNW,29.18,28.3,82.93,Partly Cloudy
KIGQ,07/08/2016 22:55 UTC,29.82,83.84,55.58,37.44,19.57,280.0,25.32,,,,,602.0,,,,10.0,,,,,,,,55.15,,W,29.17,28.3,82.76,Partly Cloudy
KIGQ,07/08/2016 23:15 UTC,29.82,83.3,56.48,39.96,16.11,270.0,26.46,,,,,602.0,,,,10.0,,,,,,,,56.46,,W,29.17,28.23,82.61,Partly Cloudy
KIGQ,07/08/2016 23:35 UTC,29.83,82.4,56.48,42.34,13.8,280.0,23.02,,,,,603.0,703.0,,,10.0,,,,,6000.0,,,57.24,,W,29.18,28.21,82.09,Mostly Cloudy
KIGQ,07/08/2016 23:55 UTC,29.83,81.68,57.38,42.34,10.36,290.0,19.57,,,,,603.0,703.0,,,10.0,,,87.8,81.68,6000.0,,,56.59,,WNW,29.18,28.25,81.45,Mostly Cloudy
KIGQ,07/09/2016 00:15 UTC,29.83,82.4,57.56,42.9,13.8,290.0,20.71,,,,,603.0,704.0,,,10.0,,,,,6000.0,,,57.61,,WNW,29.18,28.19,82.17,Overcast
KIGQ,07/09/2016 00:35 UTC,29.83,81.14,58.1,47.88,10.36,280.0,17.27,,,,,602.0,752.0,,,10.0,,,,,,,,59.52,,W,29.18,28.09,81.62,Partly Cloudy
KIGQ,07/09/2016 00:55 UTC,29.84,80.24,56.3,44.89,10.36,280.0,17.27,,,,,1.0,,,,10.0,,,,,,,,56.9,,W,29.19,28.25,80.53,Clear
KIGQ,07/09/2016 01:15 UTC,29.85,79.52,55.58,44.61,9.22,290.0,18.41,,,,,1.0,,,,10.0,,,,,,,,56.07,,WNW,29.2,28.31,,Clear
KIGQ,07/09/2016 01:35 UTC,29.85,78.26,55.58,44.61,9.22,290.0,,,,,,1.0,,,,10.0,,,,,,,,54.91,,WNW,29.2,28.38,,Clear
KIGQ,07/09/2016 01:55 UTC,29.86,78.26,54.68,44.61,10.36,300.0,,,,,,1.0,,,,10.0,,,,,,,,54.91,,WNW,29.21,28.39,,Clear
KIGQ,07/09/2016 02:15 UTC,29.88,77.18,55.4,47.05,10.36,300.0,,,,,,1.0,,,,10.0,,,,,,,,55.39,,WNW,29.23,28.4,,Clear
KIGQ,07/09/2016 02:35 UTC,29.89,77.0,55.58,47.33,6.91,290.0,,,,,,1.0,,,,10.0,,,,,,,,55.39,,WNW,29.24,28.41,,Clear
KIGQ,07/09/2016 02:55 UTC,29.9,75.74,56.3,53.62,6.91,280.0,,,,,,1.0,,,,10.0,,,,,,,,57.68,,W,29.25,28.31,,Clear
KIGQ,07/09/2016 03:15 UTC,29.9,75.2,56.48,53.62,6.91,280.0,,,,,,1.0,,,,10.0,,,,,,,,57.18,,W,29.25,28.35,,Clear
KIGQ,07/09/2016 03:35 UTC,29.91,74.48,57.38,53.62,8.05,300.0,,,,,,703.0,,,,10.0,,,,,7000.0,,,56.5,,WNW,29.26,28.4,,Mostly Cloudy
KIGQ,07/09/2016 03:55 UTC,29.9,74.66,57.56,53.62,5.75,290.0,,,,,,703.0,,,,10.0,,,,,7000.0,,,56.67,,WNW,29.25,28.38,,Mostly Cloudy
KIGQ,07/09/2016 04:15 UTC,29.9,73.76,57.38,56.95,5.75,300.0,,,,,,502.0,703.0,,,10.0,,,,,7000.0,,,57.51,,WNW,29.25,28.34,,Mostly Cloudy
KIGQ,07/09/2016 04:35 UTC,29.9,73.04,57.38,58.02,4.61,290.0,,,,,,603.0,,,,10.0,,,,,6000.0,,,57.35,,WNW,29.25,28.36,,Mostly Cloudy
KIGQ,07/09/2016 04:55 UTC,29.9,72.5,57.38,56.95,5.75,290.0,,,,,,603.0,,,,10.0,,,,,6000.0,,,56.32,,WNW,29.25,28.41,,Mostly Cloudy
KIGQ,07/09/2016 05:15 UTC,29.9,72.14,56.66,60.51,6.91,290.0,,,,,,602.0,,,,10.0,,,,,,,,57.67,,WNW,29.25,28.35,,Partly Cloudy
KIGQ,07/09/2016 05:35 UTC,29.91,71.6,56.66,59.34,8.05,300.0,,,,,,1.0,,,,10.0,,,,,,,,56.62,,WNW,29.26,28.42,,Clear
KIGQ,07/09/2016 05:55 UTC,29.91,70.7,56.84,60.51,5.75,280.0,,,,,,1.0,,,,10.0,,,82.4,70.7,,87.8,67.46,56.31,,W,29.26,28.44,,Clear
KIGQ,07/09/2016 06:15 UTC,29.91,69.44,57.2,64.32,5.75,290.0,,,,,,1.0,,,,10.0,,,,,,,,56.81,,WNW,29.26,28.43,,Clear
KIGQ,07/09/2016 06:35 UTC,29.91,69.98,57.2,64.32,5.75,300.0,,,,,,1.0,,,,10.0,,,,,,,,57.33,,WNW,29.26,28.4,,Clear
KIGQ,07/09/2016 06:55 UTC,29.91,69.44,57.38,64.32,8.05,290.0,,,,,,1.0,,,,10.0,,,,,,,,56.81,,WNW,29.26,28.43,,Clear
KIGQ,07/09/2016 07:15 UTC,29.91,69.26,57.38,64.32,6.91,300.0,,,,,,1.0,,,,10.0,,,,,,,,56.64,,WNW,29.26,28.44,,Clear
KIGQ,07/09/2016 07:35 UTC,29.91,68.9,57.74,67.63,6.91,310.0,,,,,,1.0,,,,10.0,,,,,,,,57.7,,NW,29.26,28.39,,Clear
KIGQ,07/09/2016 07:55 UTC,29.91,69.44,58.1,68.61,6.91,310.0,,,,,,1.0,,,,10.0,,,,,,,,58.62,,NW,29.26,28.34,,Clear
KIGQ,07/09/2016 08:15 UTC,29.91,69.08,58.1,68.61,9.22,310.0,,,,,,1.0,,,,10.0,,,,,,,,58.27,,NW,29.26,28.36,,Clear
KIGQ,07/09/2016 08:35 UTC,29.91,68.9,58.28,68.61,8.05,300.0,,,,,,1.0,,,,10.0,,,,,,,,58.1,,WNW,29.26,28.37,,Clear
KIGQ,07/09/2016 08:55 UTC,29.92,68.36,58.46,72.97,5.75,310.0,,,,,,1.0,,,,10.0,,,,,,,,59.31,,NW,29.27,28.33,,Clear
KIGQ,07/09/2016 09:15 UTC,29.93,68.36,58.64,72.97,6.91,310.0,,,,,,1.0,,,,10.0,,,,,,,,59.31,,NW,29.28,28.34,,Clear
KIGQ,07/09/2016 09:35 UTC,29.93,67.64,58.64,72.93,5.75,310.0,,,,,,1.0,,,,10.0,,,,,,,,58.6,,NW,29.28,28.38,,Clear
KIGQ,07/09/2016 09:55 UTC,29.94,67.28,58.82,72.97,4.61,290.0,,,,,,1.0,,,,10.0,,,,,,,,58.27,,WNW,29.29,28.41,,Clear
KIGQ,07/09/2016 10:15 UTC,29.94,66.2,58.82,77.64,3.44,290.0,,,,,,1.0,,,,10.0,,,,,,,,58.96,,WNW,29.29,28.39,,Clear
KIGQ,07/09/2016 10:35 UTC,29.95,66.2,59.0,77.64,4.61,290.0,,,,,,1.0,,,,10.0,,,,,,,,58.96,,WNW,29.3,28.4,,Clear
KIGQ,07/09/2016 10:55 UTC,29.95,65.84,59.0,77.64,0.0,0.0,,,,,,1.0,,,,10.0,,,,,,,,58.61,,N,29.3,28.42,,Clear
KIGQ,07/09/2016 11:15 UTC,29.96,66.92,59.72,77.64,0.0,0.0,,,,,,1.0,,,,10.0,,,,,,,,59.66,,N,29.31,28.37,,Clear
KIGQ,07/09/2016 11:35 UTC,29.96,68.0,59.9,75.34,3.44,330.0,,,,,,1.0,,,,10.0,,,,,,,,59.86,,NNW,29.31,28.34,,Clear
KIGQ,07/09/2016 11:55 UTC,29.97,68.9,59.9,73.15,5.75,340.0,,,,,,1.0,,,,10.0,,,70.52,65.66,,,,59.9,,NNW,29.32,28.34,,Clear
KIGQ,07/09/2016 12:15 UTC,29.98,69.62,60.26,72.2,4.61,350.0,,,,,,1.0,,,,10.0,,,,,,,,60.23,,N,29.33,28.32,,Clear
KIGQ,07/09/2016 12:35 UTC,29.98,69.98,60.26,73.15,5.75,360.0,,,,,,192.0,,,,10.0,,,,,,,,60.94,,N,29.33,28.28,,Partly Cloudy
KIGQ,07/09/2016 12:55 UTC,29.99,68.54,60.08,77.79,6.91,330.0,,,,,,212.0,,,,10.0,,,,,,,,61.29,,NNW,29.34,28.29,,Partly Cloudy
KIGQ,07/09/2016 13:15 UTC,29.99,69.8,60.8,73.15,8.05,330.0,18.41,,,,,213.0,263.0,,,10.0,,,,,2100.0,,,60.77,,NNW,29.34,28.3,,Mostly Cloudy
KIGQ,07/09/2016 13:35 UTC,29.99,71.24,60.26,68.81,10.36,10.0,21.85,,,,,214.0,,,,10.0,,,,,2100.0,,,60.42,,N,29.34,28.31,,Overcast
KIGQ,07/09/2016 13:55 UTC,30.0,71.78,60.26,68.81,12.66,20.0,17.27,,,,,233.0,294.0,,,10.0,,,,,2300.0,,,60.94,,NNE,29.35,28.28,,Overcast
KIGQ,07/09/2016 14:15 UTC,30.01,71.78,59.36,64.54,10.36,40.0,,,,,,232.0,322.0,,,10.0,,,,,,,,59.13,,NE,29.36,28.39,,Partly Cloudy
KIGQ,07/09/2016 14:35 UTC,30.01,70.52,59.0,66.95,8.05,10.0,,,,,,253.0,323.0,,,10.0,,,,,2500.0,,,58.96,,N,29.36,28.41,,Mostly Cloudy
KIGQ,07/09/2016 14:55 UTC,30.02,72.32,59.72,64.54,5.75,30.0,,,,,,253.0,324.0,,,10.0,,,,,2500.0,,,59.65,,NNE,29.37,28.37,,Overcast
KIGQ,07/09/2016 15:15 UTC,30.03,73.22,59.54,60.75,5.75,40.0,,,,,,253.0,323.0,,,10.0,,,,,2500.0,,,58.8,,NE,29.38,28.41,,Mostly Cloudy
KIGQ,07/09/2016 15:35 UTC,30.04,73.22,59.54,62.3,4.61,20.0,,,,,,252.0,,,,10.0,,,,,,,,59.51,,NNE,29.39,28.39,,Partly Cloudy
KIGQ,07/09/2016 15:55 UTC,30.04,74.12,58.64,60.75,3.44,10.0,,,,,,1.0,,,,10.0,,,,,,,,59.65,,N,29.39,28.37,,Clear
KIGQ,07/09/2016 16:15 UTC,30.04,73.58,59.36,61.16,11.5,20.0,17.27,,,,,1.0,,,,10.0,,,,,,,,59.33,,NNE,29.39,28.39,,Clear
KIGQ,07/09/2016 16:35 UTC,30.05,73.76,57.38,56.95,17.27,30.0,,,,,,1.0,,,,10.0,,,,,,,,57.51,,NNE,29.4,28.5,,Clear
KIGQ,07/09/2016 16:55 UTC,30.05,73.76,57.92,56.95,13.8,20.0,19.57,,,,,1.0,,,,10.0,,,,,,,,57.51,,NNE,29.4,28.5,,Clear
KIGQ,07/09/2016 17:15 UTC,30.05,74.84,58.1,57.2,9.22,10.0,18.41,,,,,1.0,,,,10.0,,,,,,,,58.64,,N,29.4,28.43,,Clear
KIGQ,07/09/2016 17:35 UTC,30.05,74.84,57.92,53.62,11.5,30.0,19.57,,,,,1.0,,,,10.0,,,,,,,,56.84,,NNE,29.4,28.52,,Clear
KIGQ,07/09/2016 17:55 UTC,30.05,74.48,57.92,53.62,11.5,30.0,18.41,,,,,1.0,,,,10.0,,,75.56,68.54,,,,56.5,,NNE,29.4,28.54,,Clear
KIGQ,07/09/2016 18:15 UTC,30.05,74.48,58.1,57.2,12.66,20.0,20.71,,,,,1.0,,,,10.0,,,,,,,,58.3,,NNE,29.4,28.45,,Clear
KIGQ,07/09/2016 18:35 UTC,30.05,74.66,58.1,57.2,13.8,40.0,19.57,,,,,1.0,,,,10.0,,,,,,,,58.47,,NE,29.4,28.44,,Clear
KIGQ,07/09/2016 18:55 UTC,30.05,74.66,58.28,57.2,12.66,20.0,18.41,,,,,1.0,,,,10.0,,,,,,,,58.47,,NNE,29.4,28.44,,Clear
KIGQ,07/09/2016 19:15 UTC,30.06,74.48,58.1,56.73,16.11,30.0,20.71,,,,,1.0,,,,10.0,,,,,,,,58.07,,NNE,29.41,28.47,,Clear
KIGQ,07/09/2016 19:35 UTC,30.06,73.94,57.38,56.29,13.8,360.0,21.85,,,,,1.0,,,,10.0,,,,,,,,57.35,,N,29.41,28.51,,Clear
KIGQ,07/09/2016 19:55 UTC,30.07,74.12,56.3,56.95,5.75,20.0,25.32,,,,,1.0,,,,10.0,,,,,,,,57.84,,NNE,29.42,28.49,,Clear
KIGQ,07/09/2016 20:15 UTC,30.07,74.84,57.92,53.62,13.8,20.0,17.27,,,,,1.0,,,,10.0,,,,,,,,56.84,,NNE,29.42,28.54,,Clear
KIGQ,07/09/2016 20:35 UTC,30.06,73.94,57.38,56.95,14.97,40.0,20.71,,,,,1.0,,,,10.0,,,,,,,,57.68,,NE,29.41,28.5,,Clear
KIGQ,07/09/2016 20:55 UTC,30.07,74.48,56.66,53.62,11.5,30.0,19.57,,,,,1.0,,,,10.0,,,,,,,,56.5,,NNE,29.42,28.56,,Clear
KIGQ,07/09/2016 21:15 UTC,30.07,74.66,57.38,53.62,11.5,40.0,16.11,,,,,1.0,,,,10.0,,,,,,,,56.67,,NE,29.42,28.55,,Clear
KIGQ,07/09/2016 21:35 UTC,30.07,74.66,57.38,53.62,11.5,30.0,17.27,,,,,1.0,,,,10.0,,,,,,,,56.67,,NNE,29.42,28.55,,Clear
KIGQ,07/09/2016 21:55 UTC,30.07,73.58,57.74,56.95,11.5,20.0,16.11,,,,,1.0,,,,10.0,,,,,,,,57.34,,NNE,29.42,28.53,,Clear
KIGQ,07/09/2016 22:15 UTC,30.07,73.76,57.56,56.95,10.36,30.0,18.41,,,,,1.0,,,,10.0,,,,,,,,57.51,,NNE,29.42,28.52,,Clear
KIGQ,07/09/2016 22:35 UTC,30.06,73.4,56.66,56.95,11.5,20.0,,,,,,1.0,,,,10.0,,,,,,,,57.17,,NNE,29.41,28.53,,Clear
KIGQ,07/09/2016 22:55 UTC,30.06,73.58,56.3,56.95,12.66,20.0,,,,,,1.0,,,,10.0,,,,,,,,57.34,,NNE,29.41,28.52,,Clear
KIGQ,07/09/2016 23:15 UTC,30.06,73.22,55.58,53.36,11.5,30.0,19.57,,,,,1.0,,,,10.0,,,,,,,,55.2,,NNE,29.41,28.62,,Clear
KIGQ,07/09/2016 23:35 UTC,30.05,72.86,54.32,52.25,11.5,40.0,18.41,,,,,1.0,,,,10.0,,,,,,,,54.28,,NE,29.4,28.66,,Clear
KIGQ,07/09/2016 23:55 UTC,30.05,72.68,53.96,49.97,10.36,30.0,,,,,,1.0,,,,10.0,,,75.38,72.68,,,,52.89,,NNE,29.4,28.73,,Clear
KIGQ,07/10/2016 00:15 UTC,30.06,72.14,55.4,56.7,9.22,50.0,,,,,,1.0,,,,10.0,,,,,,,,55.86,,NE,29.41,28.6,,Clear
KIGQ,07/10/2016 00:35 UTC,30.06,71.6,55.76,57.44,9.22,40.0,,,,,,1.0,,,,10.0,,,,,,,,55.72,,NE,29.41,28.62,,Clear
KIGQ,07/10/2016 00:55 UTC,30.05,70.88,55.4,56.7,5.75,50.0,,,,,,1.0,,,,10.0,,,,,,,,54.68,,NE,29.4,28.66,,Clear
KIGQ,07/10/2016 01:15 UTC,30.04,69.98,55.58,60.27,9.22,60.0,,,,,,1.0,,,,10.0,,,,,,,,55.52,,ENE,29.39,28.62,,Clear
KIGQ,07/10/2016 01:35 UTC,30.05,69.44,55.76,60.27,4.61,40.0,,,,,,1.0,,,,10.0,,,,,,,,55.01,,NE,29.4,28.66,,Clear
KIGQ,07/10/2016 01:55 UTC,30.04,68.54,55.94,64.1,4.61,40.0,,,,,,1.0,,,,10.0,,,,,,,,55.86,,NE,29.39,28.62,,Clear
KIGQ,07/10/2016 02:15 UTC,30.05,68.54,56.3,68.41,0.0,0.0,,,,,,1.0,,,,10.0,,,,,,,,57.67,,N,29.4,28.54,,Clear
KIGQ,07/10/2016 02:35 UTC,30.06,68.36,56.48,65.83,0.0,0.0,,,,,,1.0,,,,10.0,,,,,,,,56.43,,N,29.41,28.61,,Clear
KIGQ,07/10/2016 02:55 UTC,30.07,67.46,57.2,68.41,0.0,0.0,,,,,,1.0,,,,10.0,,,,,,,,56.64,,N,29.42,28.62,,Clear
KIGQ,07/10/2016 03:15 UTC,30.08,66.74,57.2,72.78,0.0,0.0,,,,,,1.0,,,,10.0,,,,,,,,57.67,,N,29.43,28.59,,Clear
KIGQ,07/10/2016 03:35 UTC,30.08,65.84,57.38,74.18,0.0,0.0,,,,,,1.0,,,,10.0,,,,,,,,57.34,,N,29.43,28.62,,Clear
KIGQ,07/10/2016 03:55 UTC,30.08,63.32,57.02,82.52,0.0,0.0,,,,,,1.0,,,,10.0,,,,,,,,57.87,,N,29.43,28.62,,Clear
KIGQ,07/10/2016 04:15 UTC,30.08,64.22,57.56,77.48,0.0,0.0,,,,,,1.0,,,,10.0,,,,,,,,56.98,,N,29.43,28.65,,Clear
KIGQ,07/10/2016 04:35 UTC,30.08,65.66,57.74,72.78,0.0,0.0,,,,,,1.0,,,,10.0,,,,,,,,56.63,,N,29.43,28.65,,Clear
KIGQ,07/10/2016 04:55 UTC,30.08,60.62,56.3,87.94,0.0,0.0,,,,,,1.0,,,,10.0,,,,,,,,57.0,,N,29.43,28.69,,Clear
KIGQ,07/10/2016 05:15 UTC,30.08,62.42,57.38,82.52,0.0,0.0,,,,,,1.0,,,,10.0,,,,,,,,56.99,,N,29.43,28.67,,Clear
KIGQ,07/10/2016 05:35 UTC,30.08,59.18,55.94,87.85,0.0,0.0,,,,,,1.0,,,,10.0,,,,,,,,55.55,,N,29.43,28.77,,Clear
KIGQ,07/10/2016 05:55 UTC,30.08,60.62,57.38,87.94,0.0,0.0,,,,,,1.0,,,,10.0,,,72.68,59.0,,75.56,59.0,57.0,,N,29.43,28.69,,Clear
KIGQ,07/10/2016 06:15 UTC,30.08,61.88,58.46,88.02,0.0,0.0,,,,,,1.0,,,,10.0,,,,,,,,58.26,,N,29.43,28.62,,Clear
KIGQ,07/10/2016 06:35 UTC,30.08,62.6,58.1,88.02,0.0,0.0,,,,,,1.0,,,,10.0,,,,,,,,58.97,,N,29.43,28.57,,Clear
KIGQ,07/10/2016 06:55 UTC,30.08,60.44,56.84,87.94,0.0,0.0,,,,,,1.0,,,,10.0,,,,,,,,56.82,,N,29.43,28.7,,Clear
KIGQ,07/10/2016 07:15 UTC,30.08,59.54,56.84,93.75,0.0,0.0,,,,,,1.0,,,,10.0,,,,,,,,57.72,,N,29.43,28.67,,Clear
KIGQ,07/10/2016 07:35 UTC,30.08,59.54,56.66,93.75,0.0,0.0,,,,,,1.0,,,,10.0,,,,,,,,57.72,,N,29.43,28.67,,Clear
KIGQ,07/10/2016 07:55 UTC,30.08,60.8,57.02,87.94,0.0,0.0,,,,,,1.0,,,,10.0,,,,,,,,57.17,,N,29.43,28.68,,Clear
KIGQ,07/10/2016 08:15 UTC,30.08,60.98,57.2,87.94,0.0,0.0,,,,,,1.0,,,,10.0,,,,,,,,57.35,,N,29.43,28.67,,Clear
KIGQ,07/10/2016 08:35 UTC,30.06,59.54,56.48,93.75,0.0,0.0,,,,,,1.0,,,,10.0,,,,,,,,57.72,,N,29.41,28.65,,Clear
KIGQ,07/10/2016 08:55 UTC,30.06,59.54,56.84,93.75,0.0,0.0,,,,,,1.0,,,,10.0,,,,,,,,57.72,,N,29.41,28.65,,Clear
KIGQ,07/10/2016 09:15 UTC,30.06,59.0,56.3,93.75,0.0,0.0,,,,,,1.0,,,,10.0,,,,,,,,57.18,,N,29.41,28.68,,Clear
KIGQ,07/10/2016 09:35 UTC,30.07,59.54,56.48,93.75,0.0,0.0,,,,,,1.0,,,,10.0,,,,,,,,57.72,,N,29.42,28.66,,Clear
KIGQ,07/10/2016 09:55 UTC,30.08,58.82,55.58,87.85,0.0,0.0,,,,,,1.0,,,,10.0,,,,,,,,55.19,,N,29.43,28.79,,Clear
KIGQ,07/10/2016 10:15 UTC,30.08,58.64,55.4,87.85,0.0,0.0,,,,,,1.0,,,,10.0,,,,,,,,55.02,,N,29.43,28.8,,Clear
KIGQ,07/10/2016 10:35 UTC,30.08,56.66,54.32,91.86,0.0,0.0,,,,,,1.0,,,,10.0,,,,,,,,54.3,,N,29.43,28.86,,Clear
KIGQ,07/10/2016 10:55 UTC,30.08,57.2,54.86,93.7,0.0,0.0,,,,,,1.0,,,,10.0,,,,,,,,55.38,,N,29.43,28.8,,Clear
KIGQ,07/10/2016 11:15 UTC,30.09,58.46,56.3,93.75,0.0,0.0,,,,,,1.0,,,,10.0,,,,,,,,56.65,,N,29.44,28.74,,Clear
KIGQ,07/10/2016 11:35 UTC,30.09,61.52,57.56,87.94,0.0,0.0,,,,,,1.0,,,,10.0,,,,,,,,57.88,,N,29.44,28.65,,Clear
KIGQ,07/10/2016 11:55 UTC,30.1,63.14,58.64,88.02,0.0,0.0,,,,,,1.0,,,,10.0,,,63.14,56.66,,,,59.51,,N,29.45,28.56,,Clear
KIGQ,07/10/2016 12:15 UTC,30.11,65.48,59.18,77.64,0.0,0.0,,,,,,1.0,,,,10.0,,,,,,,,58.26,,N,29.46,28.61,,Clear
KIGQ,07/10/2016 12:35 UTC,30.1,68.36,60.8,76.84,0.0,0.0,,,,,,1.0,,,,10.0,,,,,,,,60.77,,N,29.45,28.43,,Clear
KIGQ,07/10/2016 12:55 UTC,30.1,70.52,61.34,73.15,3.44,40.0,,,,,,1.0,,,,10.0,,,,,,,,61.46,,NE,29.45,28.37,,Clear
KIGQ,07/10/2016 13:15 UTC,30.1,71.96,61.34,68.81,4.61,80.0,,,,,,1.0,,,,10.0,,,,,,,,61.11,,E,29.45,28.37,,Clear
KIGQ,07/10/2016 13:35 UTC,30.08,72.86,60.8,65.95,4.61,80.0,,,,,,1.0,,,,10.0,,,,,,,,60.77,,E,29.43,28.36,,Clear
KIGQ,07/10/2016 13:55 UTC,30.08,73.76,59.9,64.76,5.75,110.0,,,,,,1.0,,,,10.0,,,,,,,,61.12,,ESE,29.43,28.33,,Clear
KIGQ,07/10/2016 14:15 UTC,30.08,74.66,59.0,57.2,0.0,0.0,,,,,,1.0,,,,10.0,,,,,,,,58.47,,N,29.43,28.47,,Clear
KIGQ,07/10/2016 14:35 UTC,30.07,75.56,57.2,52.98,4.61,130.0,,,,,,1.0,,,,10.0,,,,,,,,57.18,,SE,29.42,28.52,,Clear
KIGQ,07/10/2016 14:55 UTC,30.06,76.1,57.2,50.52,4.61,160.0,,,,,,1.0,,,,10.0,,,,,,,,56.36,,SSE,29.41,28.54,,Clear
KIGQ,07/10/2016 15:15 UTC,30.06,77.0,56.84,50.52,5.75,160.0,,,,,,1.0,,,,10.0,,,,,,,,57.19,,SSE,29.41,28.49,,Clear
KIGQ,07/10/2016 15:35 UTC,30.06,77.36,56.84,50.52,4.61,100.0,,,,,,1.0,,,,10.0,,,,,,,,57.53,,E,29.41,28.47,,Clear
KIGQ,07/10/2016 15:55 UTC,30.07,77.9,52.52,39.11,4.61,150.0,,,,,,1.0,,,,10.0,,,,,,,,51.0,,SSE,29.42,28.79,,Clear
KIGQ,07/10/2016 16:15 UTC,30.08,78.98,53.6,41.78,5.75,160.0,,,,,,1.0,,,,10.0,,,,,,,,53.77,,SSE,29.43,28.66,,Clear
KIGQ,07/10/2016 16:35 UTC,30.07,78.98,55.04,44.61,4.61,180.0,,,,,,1.0,,,,10.0,,,,,,,,55.57,,S,29.42,28.57,,Clear
KIGQ,07/10/2016 16:55 UTC,30.08,79.34,56.12,44.61,5.75,240.0,,,,,,1.0,,,,10.0,,,,,,,,55.9,,WSW,29.43,28.56,,Clear
KIGQ,07/10/2016 17:15 UTC,30.08,79.7,55.04,42.06,6.91,200.0,,,,,,1.0,,,,10.0,,,,,,,,54.61,,SSW,29.43,28.62,,Clear
KIGQ,07/10/2016 17:35 UTC,30.09,79.7,54.32,39.39,0.0,0.0,,,,,,1.0,,,,10.0,,,,,,,,52.82,,N,29.44,28.71,,Clear
KIGQ,07/10/2016 17:55 UTC,30.08,79.7,56.3,44.89,8.05,210.0,,,,,,502.0,,,,10.0,,,80.06,63.32,,,,56.4,,SSW,29.43,28.53,,Partly Cloudy
KIGQ,07/10/2016 18:15 UTC,30.08,80.78,56.48,44.89,5.75,220.0,,,,,,502.0,,,,10.0,,,,,,,,57.39,,SW,29.43,28.47,80.97,Partly Cloudy
KIGQ,07/10/2016 18:35 UTC,30.08,80.06,56.48,44.89,4.61,220.0,,,,,,1.0,,,,10.0,,,,,,,,56.73,,SW,29.43,28.51,79.88,Clear
KIGQ,07/10/2016 18:55 UTC,30.07,80.06,56.48,44.89,0.0,0.0,,,,,,503.0,,,,10.0,,,,,5000.0,,,56.73,,N,29.42,28.5,79.88,Mostly Cloudy
KIGQ,07/10/2016 19:15 UTC,30.07,80.06,57.2,44.89,3.44,190.0,,,,,,502.0,,,,10.0,,,,,,,,56.73,,S,29.42,28.5,79.88,Partly Cloudy
KIGQ,07/10/2016 19:35 UTC,30.07,80.06,57.02,44.89,6.91,160.0,,,,,,503.0,,,,10.0,,,,,5000.0,,,56.73,,SSE,29.42,28.5,79.88,Mostly Cloudy
KIGQ,07/10/2016 19:55 UTC,30.06,81.5,56.66,42.34,5.75,210.0,,,,,,502.0,,,,10.0,,,,,,,,56.43,,SSW,29.41,28.49,81.3,Partly Cloudy
KIGQ,07/10/2016 20:15 UTC,30.05,81.32,56.84,44.89,9.22,200.0,,,,,,502.0,,,,10.0,,,,,,,,57.88,,SSW,29.4,28.41,81.43,Partly Cloudy
KIGQ,07/10/2016 20:35 UTC,30.04,80.42,56.12,42.06,5.75,220.0,,,,,,1.0,,,,10.0,,,,,,,,55.26,,SW,29.39,28.54,80.41,Clear
KIGQ,07/10/2016 20:55 UTC,30.03,81.14,55.94,42.06,3.44,180.0,,,,,,1.0,,,,10.0,,,,,,,,55.92,,S,29.38,28.49,80.97,Clear
KIGQ,07/10/2016 21:15 UTC,30.03,80.96,56.48,44.89,4.61,200.0,,,,,,1.0,,,,10.0,,,,,,,,57.56,,SSW,29.38,28.41,81.12,Clear
KIGQ,07/10/2016 21:35 UTC,30.02,80.96,57.74,44.89,8.05,230.0,,,,,,1.0,,,,10.0,,,,,,,,57.56,,SW,29.37,28.4,81.12,Clear
KIGQ,07/10/2016 21:55 UTC,30.02,79.88,58.46,47.88,3.44,210.0,,,,,,1.0,,,,10.0,,,,,,,,58.36,,SSW,29.37,28.36,,Clear
KIGQ,07/10/2016 22:15 UTC,30.01,79.7,59.36,47.88,5.75,200.0,,,,,,1.0,,,,10.0,,,,,,,,58.19,,SSW,29.36,28.36,,Clear
KIGQ,07/10/2016 22:35 UTC,30.0,79.7,59.72,50.59,6.91,190.0,,,,,,1.0,,,,10.0,,,,,,,,59.73,,S,29.35,28.27,,Clear
KIGQ,07/10/2016 22:55 UTC,29.99,80.42,58.64,47.88,9.22,190.0,,,,,,1.0,,,,10.0,,,,,,,,58.86,,S,29.34,28.3,80.96,Clear
KIGQ,07/10/2016 23:15 UTC,29.98,80.24,59.18,47.88,9.22,200.0,,,,,,1.0,,,,10.0,,,,,,,,58.69,,SSW,29.33,28.3,80.81,Clear
KIGQ,07/10/2016 23:35 UTC,29.97,79.52,59.9,54.14,10.36,180.0,,,,,,1.0,,,,10.0,,,,,,,,61.48,,S,29.32,28.14,,Clear
KIGQ,07/10/2016 23:55 UTC,29.96,78.26,58.64,50.78,9.22,160.0,,,,,,1.0,,,,10.0,,,81.86,78.26,,,,58.5,,SSE,29.31,28.31,,Clear
KIGQ,07/11/2016 00:15 UTC,29.96,78.26,60.08,54.14,9.22,190.0,,,,,,1.0,,,,10.0,,,,,,,,60.3,,S,29.31,28.21,,Clear
KIGQ,07/11/2016 00:35 UTC,29.96,77.0,60.8,57.45,6.91,180.0,,,,,,1.0,,,,10.0,,,,,,,,60.79,,S,29.31,28.19,,Clear
KIGQ,07/11/2016 00:55 UTC,29.97,76.28,61.16,57.45,4.61,190.0,,,,,,1.0,,,,10.0,,,,,,,,60.12,,S,29.32,28.25,,Clear
KIGQ,07/11/2016 01:15 UTC,29.96,75.02,60.98,60.98,6.91,160.0,,,,,,1.0,,,,10.0,,,,,,,,60.61,,SSE,29.31,28.22,,Clear
KIGQ,07/11/2016 01:35 UTC,29.96,74.66,60.8,60.98,6.91,160.0,,,,,,1.0,,,,10.0,,,,,,,,60.27,,SSE,29.31,28.25,,Clear
KIGQ,07/11/2016 01:55 UTC,29.97,74.48,60.44,60.98,4.61,170.0,,,,,,1.0,,,,10.0,,,,,,,,60.1,,S,29.32,28.27,,Clear
KIGQ,07/11/2016 02:15 UTC,29.99,72.68,60.98,66.77,4.61,200.0,,,,,,1.0,,,,10.0,,,,,,,,60.95,,SSW,29.34,28.26,,Clear
KIGQ,07/11/2016 02:35 UTC,30.0,71.6,61.34,68.81,3.44,200.0,,,,,,1.0,,,,10.0,,,,,,,,60.77,,SSW,29.35,28.29,,Clear
KIGQ,07/11/2016 02:55 UTC,30.01,71.06,61.34,68.81,4.61,190.0,,,,,,1.0,,,,10.0,,,,,,,,60.25,,S,29.36,28.34,,Clear
KIGQ,07/11/2016 03:15 UTC,30.01,71.6,61.52,68.81,3.44,190.0,,,,,,1.0,,,,10.0,,,,,,,,60.77,,S,29.36,28.3,,Clear
KIGQ,07/11/2016 03:35 UTC,30.01,70.7,60.98,68.81,3.44,130.0,,,,,,1202.0,,,,10.0,,,,,,,,59.91,,SE,29.36,28.36,,Partly Cloudy
KIGQ,07/11/2016 03:55 UTC,30.01,72.32,61.52,68.81,3.44,140.0,,,,,,1203.0,,,,10.0,,,,,12000.0,,,61.46,,SE,29.36,28.26,,Mostly Cloudy
KIGQ,07/11/2016 04:15 UTC,30.01,71.96,61.52,68.81,0.0,0.0,,,,,,1202.0,,,,10.0,,,,,,,,61.11,,N,29.36,28.28,,Partly Cloudy
KIGQ,07/11/2016 04:35 UTC,30.01,70.16,61.52,73.15,4.61,150.0,,,,,,1.0,,,,10.0,,,,,,,,61.12,,SSE,29.36,28.3,,Clear
KIGQ,07/11/2016 04:55 UTC,30.01,69.98,61.34,73.15,3.44,170.0,,,,,,1.0,,,,10.0,,,,,,,,60.94,,S,29.36,28.31,,Clear
KIGQ,07/11/2016 05:15 UTC,30.01,69.8,61.7,77.94,3.44,170.0,,,,,,1.0,,,,10.0,,,,,,,,62.57,,S,29.36,28.22,,Clear
KIGQ,07/11/2016 05:35 UTC,30.01,68.54,61.52,78.33,0.0,0.0,,,,,,1.0,,,,10.0,,,,,,,,61.49,,N,29.36,28.3,,Clear
KIGQ,07/11/2016 05:55 UTC,30.0,68.9,61.88,77.94,3.44,150.0,,,,,,1.0,,,,10.0,,,78.26,68.54,,81.86,56.66,61.7,,SSE,29.35,28.27,,Clear
KIGQ,07/11/2016 06:15 UTC,30.0,69.26,61.88,77.94,4.61,150.0,,,,,,1.0,,,,10.0,,,,,,,,62.05,,SSE,29.35,28.25,,Clear
KIGQ,07/11/2016 06:35 UTC,30.0,69.08,61.88,77.94,4.61,150.0,,,,,,1.0,,,,10.0,,,,,,,,61.87,,SSE,29.35,28.26,,Clear
KIGQ,07/11/2016 06:55 UTC,30.0,69.08,62.06,77.94,4.61,160.0,,,,,,1.0,,,,10.0,,,,,,,,61.87,,SSE,29.35,28.26,,Clear
KIGQ,07/11/2016 07:15 UTC,29.99,68.9,62.06,77.94,3.44,160.0,,,,,,1.0,,,,10.0,,,,,,,,61.7,,SSE,29.34,28.26,,Clear
KIGQ,07/11/2016 07:35 UTC,30.0,68.9,62.06,78.86,3.44,150.0,,,,,,553.0,,,,10.0,,,,,5500.0,,,62.03,,SSE,29.35,28.25,,Mostly Cloudy
KIGQ,07/11/2016 07:55 UTC,29.99,69.44,62.06,77.94,4.61,150.0,,,,,,554.0,,,,10.0,,,,,5500.0,,,62.22,,SSE,29.34,28.23,,Overcast
KIGQ,07/11/2016 08:15 UTC,29.99,69.44,61.88,77.94,6.91,160.0,,,,,,554.0,,,,10.0,,,,,5500.0,,,62.22,,SSE,29.34,28.23,,Overcast
KIGQ,07/11/2016 08:35 UTC,29.98,69.44,61.7,77.94,6.91,160.0,,,,,,552.0,,,,10.0,,,,,,,,62.22,,SSE,29.33,28.22,,Partly Cloudy
KIGQ,07/11/2016 08:55 UTC,29.98,69.62,61.7,77.94,5.75,160.0,,,,,,1.0,,,,10.0,,,,,,,,62.4,,SSE,29.33,28.2,,Clear
KIGQ,07/11/2016 09:15 UTC,29.99,68.18,61.34,77.79,4.61,170.0,,,,,,1.0,,,,10.0,,,,,,,,60.94,,S,29.34,28.31,,Clear
KIGQ,07/11/2016 09:35 UTC,29.98,67.64,61.34,77.79,4.61,180.0,,,,,,352.0,,,,10.0,,,,,,,,60.42,,S,29.33,28.34,,Partly Cloudy
KIGQ,07/11/2016 09:55 UTC,29.99,68.0,61.7,82.89,5.75,190.0,,,,,,352.0,,,,10.0,,,,,,,,62.57,,S,29.34,28.22,,Partly Cloudy
KIGQ,07/11/2016 10:15 UTC,29.99,68.0,61.52,77.79,4.61,170.0,,,,,,352.0,,,,10.0,,,,,,,,60.77,,S,29.34,28.32,,Partly Cloudy
KIGQ,07/11/2016 10:35 UTC,29.99,68.36,61.7,79.32,6.91,170.0,,,,,,372.0,,,,10.0,,,,,,,,61.67,,S,29.34,28.27,,Partly Cloudy
KIGQ,07/11/2016 10:55 UTC,29.99,68.9,61.88,77.94,5.75,180.0,,,,,,1.0,,,,10.0,,,,,,,,61.7,,S,29.34,28.26,,Clear
KIGQ,07/11/2016 11:15 UTC,29.99,69.44,61.88,77.94,6.91,170.0,,,,,,1.0,,,,10.0,,,,,,,,62.22,,S,29.34,28.23,,Clear
KIGQ,07/11/2016 11:35 UTC,29.99,69.98,62.24,76.49,6.91,170.0,,,,,,1.0,,,,10.0,,,,,,,,62.21,,S,29.34,28.22,,Clear
KIGQ,07/11/2016 11:55 UTC,29.99,71.6,62.6,73.32,6.91,180.0,,,,,,332.0,,,,10.0,,,71.6,67.46,,,,62.57,,S,29.34,28.18,,Partly Cloudy
KIGQ,07/11/2016 12:15 UTC,29.99,72.14,62.42,73.32,9.22,170.0,,,,,,352.0,,,,10.0,,,,,,,,63.09,,S,29.34,28.14,,Partly Cloudy
KIGQ,07/11/2016 12:35 UTC,29.99,73.94,62.96,68.63,10.36,190.0,,,,,,1.0,,,,10.0,,,,,,,,62.94,,S,29.34,28.13,,Clear
KIGQ,07/11/2016 12:55 UTC,29.99,75.2,64.04,69.21,10.36,190.0,,,,,,1.0,,,,10.0,,,,,,,,64.39,,S,29.34,28.03,,Clear
KIGQ,07/11/2016 13:15 UTC,29.99,76.64,64.76,65.2,11.5,180.0,,,,,,1.0,,,,10.0,,,,,,,,64.05,,S,29.34,28.03,,Clear
KIGQ,07/11/2016 13:35 UTC,29.99,77.9,65.66,65.41,12.66,180.0,,,,,,1.0,,,,10.0,,,,,,,,65.35,,S,29.34,27.93,,Clear
KIGQ,07/11/2016 13:55 UTC,29.99,78.44,65.84,65.41,11.5,190.0,,,,,,1.0,,,,10.0,,,,,,,,65.86,,S,29.34,27.89,,Clear
KIGQ,07/11/2016 14:15 UTC,29.99,79.16,66.56,65.41,10.36,180.0,,,,,,1.0,,,,10.0,,,,,,,,66.55,,S,29.34,27.84,,Clear
KIGQ,07/11/2016 14:35 UTC,29.99,79.88,67.46,65.62,10.36,200.0,,,,,,1.0,,,,10.0,,,,,,,,67.33,,SSW,29.34,27.77,,Clear
KIGQ,07/11/2016 14:55 UTC,29.99,81.14,68.54,65.62,12.66,200.0,,,,,,1.0,,,,10.0,,,,,,,,68.53,,SSW,29.34,27.67,84.13,Clear
KIGQ,07/11/2016 15:15 UTC,29.99,80.96,68.72,65.62,9.22,180.0,,,,,,1.0,,,,10.0,,,,,,,,68.36,,S,29.34,27.69,83.85,Clear
KIGQ,07/11/2016 15:35 UTC,29.99,82.58,69.8,65.45,11.5,180.0,,,,,,472.0,,,,10.0,,,,,,,,69.83,,S,29.34,27.56,86.47,Partly Cloudy
KIGQ,07/11/2016 15:55 UTC,29.99,83.66,69.8,62.13,11.5,210.0,16.11,,,,,472.0,,,,10.0,,,,,,,,69.33,,SSW,29.34,27.58,87.51,Partly Cloudy
KIGQ,07/11/2016 16:15 UTC,29.99,84.38,69.98,62.13,11.5,210.0,18.41,,,,,1.0,,,,10.0,,,,,,,,70.01,,SSW,29.34,27.52,88.79,Clear
KIGQ,07/11/2016 16:35 UTC,29.99,85.1,69.98,58.66,13.8,200.0,,,,,,1.0,,,,10.0,,,,,,,,69.01,,SSW,29.34,27.59,89.01,Clear
KIGQ,07/11/2016 16:55 UTC,29.99,86.0,70.16,58.66,12.66,220.0,,,,,,1.0,,,,10.0,,,,,,,,69.86,,SW,29.34,27.52,90.62,Clear
KIGQ,07/11/2016 17:15 UTC,29.99,86.18,69.8,58.66,13.8,210.0,18.41,,,,,292.0,,,,10.0,,,,,,,,70.03,,SSW,29.34,27.5,90.96,Partly Cloudy
KIGQ,07/11/2016 17:35 UTC,29.99,86.54,70.16,58.37,12.66,190.0,,,,,,312.0,,,,10.0,,,,,,,,70.22,,S,29.34,27.48,91.53,Partly Cloudy
KIGQ,07/11/2016 17:55 UTC,29.99,87.62,69.62,55.4,14.97,190.0,,,,,,332.0,,,,10.0,,,87.8,71.6,,,,69.71,,S,29.34,27.51,92.42,Partly Cloudy
KIGQ,07/11/2016 18:15 UTC,29.99,87.26,69.08,55.4,12.66,180.0,18.41,,,,,352.0,432.0,,,10.0,,,,,,,,69.37,,S,29.34,27.54,91.75,Partly Cloudy
KIGQ,07/11/2016 18:35 UTC,29.99,87.98,68.9,55.4,9.22,190.0,,,,,,362.0,442.0,,,10.0,,,,,,,,70.05,,S,29.34,27.48,93.1,Partly Cloudy
KIGQ,07/11/2016 18:55 UTC,29.98,88.34,69.26,55.4,13.8,200.0,20.71,,,,,372.0,452.0,,,10.0,,,,,,,,70.38,,SSW,29.33,27.44,93.8,Partly Cloudy
KIGQ,07/11/2016 19:15 UTC,29.97,89.24,69.26,52.35,13.8,200.0,19.57,,,,,372.0,442.0,,,10.0,,,,,,,,69.57,,SSW,29.32,27.48,94.21,Partly Cloudy
KIGQ,07/11/2016 19:35 UTC,29.97,89.96,69.08,50.51,12.66,180.0,,,,,,392.0,,,,10.0,,,,,,,,69.19,,S,29.32,27.51,94.75,Partly Cloudy
KIGQ,07/11/2016 19:55 UTC,29.96,88.52,69.08,55.4,17.27,190.0,21.85,,,,,393.0,493.0,,,10.0,,,,,3900.0,,,70.55,,S,29.31,27.4,94.15,Mostly Cloudy
KIGQ,07/11/2016 20:15 UTC,29.96,88.7,68.72,49.23,13.8,180.0,19.57,,,,,413.0,,,,10.0,,,,,4100.0,,,67.28,,S,29.31,27.65,91.94,Mostly Cloudy
KIGQ,07/11/2016 20:35 UTC,29.95,88.88,69.08,52.35,13.8,180.0,,,,,,422.0,,,,10.0,,,,,,,,69.23,,S,29.3,27.49,93.53,Partly Cloudy
KIGQ,07/11/2016 20:55 UTC,29.95,89.96,68.72,49.23,14.97,180.0,23.02,,,,,402.0,,,,10.0,,,,,,,,68.45,,S,29.3,27.54,94.18,Partly Cloudy
KIGQ,07/11/2016 21:15 UTC,29.95,88.88,68.54,49.23,16.11,200.0,20.71,,,,,423.0,,,,10.0,,,,,4200.0,,,67.45,,SSW,29.3,27.63,92.25,Mostly Cloudy
KIGQ,07/11/2016 21:35 UTC,29.94,89.42,68.54,50.43,17.27,180.0,21.85,,,,,423.0,,,,10.0,,,,,4200.0,,,68.65,,S,29.29,27.52,93.71,Mostly Cloudy
KIGQ,07/11/2016 21:55 UTC,29.93,89.06,68.0,49.23,18.41,210.0,23.02,,,,,423.0,,,,10.0,,,,,4200.0,,,67.62,,SSW,29.28,27.59,92.57,Mostly Cloudy
KIGQ,07/11/2016 22:15 UTC,29.93,87.26,67.82,52.09,17.27,190.0,21.85,,,,,422.0,,,,10.0,,,,,,,,67.58,,S,29.28,27.61,90.54,Partly Cloudy
KIGQ,07/11/2016 22:35 UTC,29.93,86.54,68.36,55.15,17.27,200.0,21.85,,,,,1.0,,,,10.0,,,,,,,,68.57,,SSW,29.28,27.55,90.37,Clear
KIGQ,07/11/2016 22:55 UTC,29.93,87.62,69.08,55.4,17.27,200.0,,,,,,412.0,472.0,,,10.0,,,,,,,,69.71,,SSW,29.28,27.45,92.42,Partly Cloudy
KIGQ,07/11/2016 23:15 UTC,29.92,86.9,68.54,52.09,16.11,180.0,20.71,,,,,392.0,472.0,,,10.0,,,,,,,,67.25,,S,29.27,27.63,89.94,Partly Cloudy
KIGQ,07/11/2016 23:35 UTC,29.93,86.18,68.9,58.66,16.11,200.0,20.71,,,,,1.0,,,,10.0,,,,,,,,70.03,,SSW,29.28,27.44,90.96,Clear
KIGQ,07/11/2016 23:55 UTC,29.93,85.28,68.72,55.15,17.27,190.0,21.85,,,,,1.0,,,,10.0,,,90.14,85.28,,,,67.39,,S,29.28,27.65,88.26,Clear
KIGQ,07/12/2016 00:15 UTC,29.93,84.2,69.08,62.13,13.8,200.0,,,,,,1.0,,,,10.0,,,,,,,,69.84,,SSW,29.28,27.48,88.46,Clear
KIGQ,07/12/2016 00:35 UTC,29.93,83.66,69.08,61.68,11.5,190.0,,,,,,1.0,,,,10.0,,,,,,,,69.12,,S,29.28,27.54,87.4,Clear
KIGQ,07/12/2016 00:55 UTC,29.93,82.4,68.9,65.83,10.36,190.0,,,,,,1.0,,,,10.0,,,,,,,,69.82,,S,29.28,27.5,86.24,Clear
KIGQ,07/12/2016 01:15 UTC,29.93,81.5,68.0,61.9,9.22,190.0,,,,,,1.0,,,,10.0,,,,,,,,67.18,,S,29.28,27.7,84.05,Clear
KIGQ,07/12/2016 01:35 UTC,29.93,80.6,67.82,65.22,8.05,180.0,,,,,,1.0,,,,10.0,,,,,,,,67.84,,S,29.28,27.67,83.25,Clear
KIGQ,07/12/2016 01:55 UTC,29.93,79.88,68.0,65.62,9.22,180.0,,,,,,1.0,,,,10.0,,,,,,,,67.33,,S,29.28,27.71,,Clear
KIGQ,07/12/2016 02:15 UTC,29.93,78.26,68.54,69.6,8.05,180.0,,,,,,1.0,,,,10.0,,,,,,,,67.49,,S,29.28,27.72,,Clear
KIGQ,07/12/2016 02:35 UTC,29.93,78.08,69.26,74.41,8.05,190.0,,,,,,1.0,,,,10.0,,,,,,,,69.26,,S,29.28,27.59,,Clear
KIGQ,07/12/2016 02:55 UTC,29.94,77.9,69.44,74.02,8.05,180.0,,,,,,1.0,,,,10.0,,,,,,,,68.94,,S,29.29,27.63,,Clear
KIGQ,07/12/2016 03:15 UTC,29.93,77.54,69.44,78.54,9.22,180.0,,,,,,1.0,,,,10.0,,,,,,,,70.32,,S,29.28,27.52,,Clear
KIGQ,07/12/2016 03:35 UTC,29.93,78.08,69.44,74.86,11.5,190.0,,,,,,1.0,,,,10.0,,,,,,,,69.44,,S,29.28,27.58,,Clear
KIGQ,07/12/2016 03:55 UTC,29.92,77.18,69.08,78.54,11.5,180.0,,,,,,1.0,,,,10.0,,,,,,,,69.97,,S,29.27,27.54,,Clear
KIGQ,07/12/2016 04:15 UTC,29.92,77.18,69.08,78.54,9.22,190.0,,,,,,1.0,,,,10.0,,,,,,,,69.97,,S,29.27,27.54,,Clear
KIGQ,07/12/2016 04:35 UTC,29.92,77.18,69.08,76.18,11.5,190.0,17.27,,,,,1.0,,,,10.0,,,,,,,,69.08,,S,29.27,27.61,,Clear
KIGQ,07/12/2016 04:55 UTC,29.91,77.0,68.9,78.54,11.5,200.0,,,,,,1.0,,,,10.0,,,,,,,,69.8,,SSW,29.26,27.55,,Clear
KIGQ,07/12/2016 05:15 UTC,29.92,76.46,68.54,73.85,13.8,190.0,19.57,,,,,1.0,,,,10.0,,,,,,,,67.48,,S,29.27,27.73,,Clear
KIGQ,07/12/2016 05:35 UTC,29.92,76.28,68.18,73.85,10.36,200.0,18.41,,,,,1.0,,,,10.0,,,,,,,,67.3,,SSW,29.27,27.75,,Clear
KIGQ,07/12/2016 05:55 UTC,29.92,76.1,68.0,73.85,11.5,200.0,,,,,,1.0,,,,10.0,,,85.28,76.1,,90.14,67.46,67.13,,SSW,29.27,27.76,,Clear
KIGQ,07/12/2016 06:15 UTC,29.92,75.56,67.64,78.39,12.66,200.0,,,,,,1.0,,,,10.0,,,,,,,,68.34,,SSW,29.27,27.68,,Clear
KIGQ,07/12/2016 06:35 UTC,29.91,75.2,67.1,76.0,12.66,190.0,,,,,,1.0,,,,10.0,,,,,,,,67.09,,S,29.26,27.77,,Clear
KIGQ,07/12/2016 06:55 UTC,29.89,74.84,66.38,73.67,10.36,190.0,,,,,,1.0,,,,10.0,,,,,,,,65.84,,S,29.24,27.83,,Clear
KIGQ,07/12/2016 07:15 UTC,29.9,73.94,66.2,78.24,11.5,190.0,,,,,,1.0,,,,10.0,,,,,,,,66.71,,S,29.25,27.8,,Clear
KIGQ,07/12/2016 07:35 UTC,29.9,73.58,65.84,78.24,8.05,200.0,,,,,,1.0,,,,10.0,,,,,,,,66.36,,SSW,29.25,27.83,,Clear
KIGQ,07/12/2016 07:55 UTC,29.91,73.4,65.84,78.24,11.5,210.0,,,,,,1.0,,,,10.0,,,,,,,,66.18,,SSW,29.26,27.85,,Clear
KIGQ,07/12/2016 08:15 UTC,29.9,72.68,65.66,78.24,8.05,190.0,,,,,,1.0,,,,10.0,,,,,,,,65.48,,S,29.25,27.9,,Clear
KIGQ,07/12/2016 08:35 UTC,29.9,72.68,66.02,79.66,9.22,210.0,,,,,,1.0,,,,10.0,,,,,,,,66.0,,SSW,29.25,27.86,,Clear
KIGQ,07/12/2016 08:55 UTC,29.89,72.5,66.2,78.24,9.22,190.0,,,,,,1.0,,,,10.0,,,,,,,,65.31,,S,29.24,27.9,,Clear
KIGQ,07/12/2016 09:15 UTC,29.88,72.5,66.2,78.24,9.22,190.0,,,,,,1.0,,,,10.0,,,,,,,,65.31,,S,29.23,27.89,,Clear
KIGQ,07/12/2016 09:35 UTC,29.89,71.96,66.38,83.13,8.05,190.0,,,,,,1.0,,,,10.0,,,,,,,,66.54,,S,29.24,27.83,,Clear
KIGQ,07/12/2016 09:55 UTC,29.89,71.6,66.38,83.13,9.22,190.0,,,,,,1.0,,,,10.0,,,,,,,,66.18,,S,29.24,27.85,,Clear
KIGQ,07/12/2016 10:15 UTC,29.89,71.42,66.74,83.13,9.22,200.0,,,,,,1.0,,,,10.0,,,,,,,,66.01,,SSW,29.24,27.87,,Clear
KIGQ,07/12/2016 10:35 UTC,29.89,71.6,66.92,83.13,10.36,200.0,,,,,,1.0,,,,10.0,,,,,,,,66.18,,SSW,29.24,27.85,,Clear
KIGQ,07/12/2016 10:55 UTC,29.88,72.14,67.46,88.46,9.22,190.0,,,,,,1.0,,,,10.0,,,,,,,,68.52,,S,29.23,27.68,,Clear
KIGQ,07/12/2016 11:15 UTC,29.88,72.86,68.0,83.25,10.36,190.0,,,,,,1.0,,,,10.0,,,,,,,,67.46,,S,29.23,27.74,,Clear
KIGQ,07/12/2016 11:35 UTC,29.89,73.76,68.36,83.28,11.5,200.0,,,,,,1.0,,,,10.0,,,,,,,,68.35,,SSW,29.24,27.68,,Clear
KIGQ,07/12/2016 11:55 UTC,29.89,74.48,68.9,83.37,8.05,300.0,,,,,,1.0,,,,10.0,,,76.1,71.24,,,,69.09,,WNW,29.24,27.62,,Clear
KIGQ,07/12/2016 12:15 UTC,29.9,74.48,69.08,83.37,11.5,270.0,,,,,,1.0,,,,10.0,,,,,,,,69.09,,W,29.25,27.63,,Clear
KIGQ,07/12/2016 12:35 UTC,29.9,75.92,69.8,83.37,13.8,200.0,17.27,,,,,132.0,,,,10.0,,,,,,,,70.5,,SSW,29.25,27.5,,Partly Cloudy
KIGQ,07/12/2016 12:55 UTC,29.89,77.18,70.16,78.54,13.8,200.0,,,,,,132.0,,,,10.0,,,,,,,,69.97,,SSW,29.24,27.51,,Partly Cloudy
KIGQ,07/12/2016 13:15 UTC,29.89,78.08,70.34,74.02,14.97,220.0,19.57,,,,,132.0,,,,10.0,,,,,,,,69.11,,SW,29.24,27.57,,Partly Cloudy
KIGQ,07/12/2016 13:35 UTC,29.89,77.36,70.16,78.54,12.66,210.0,,,,,,132.0,,,,10.0,,,,,,,,70.15,,SSW,29.24,27.5,,Partly Cloudy
KIGQ,07/12/2016 13:55 UTC,29.88,78.8,70.88,78.68,14.97,200.0,18.41,,,,,132.0,,,,10.0,,,,,,,,71.6,,SSW,29.23,27.35,,Partly Cloudy
KIGQ,07/12/2016 14:15 UTC,29.88,80.06,71.6,74.19,17.27,200.0,21.85,,,,,152.0,,,,10.0,,,,,,,,71.09,,SSW,29.23,27.38,83.58,Partly Cloudy
KIGQ,07/12/2016 14:35 UTC,29.88,80.24,71.42,74.61,16.11,220.0,23.02,,,,,153.0,,,,10.0,,,,,1500.0,,,71.43,,SW,29.23,27.35,83.97,Mostly Cloudy
KIGQ,07/12/2016 14:55 UTC,29.88,78.98,71.24,78.68,10.36,220.0,21.85,,,,,154.0,,,,10.0,,,,,1500.0,,,71.78,,SW,29.23,27.34,,Overcast
KIGQ,07/12/2016 15:15 UTC,29.87,81.32,71.78,74.19,14.97,220.0,19.57,,,,,152.0,212.0,,,10.0,,,,,,,,72.31,,SW,29.22,27.25,85.99,Partly Cloudy
KIGQ,07/12/2016 15:35 UTC,29.86,82.58,71.78,69.98,14.97,210.0,,,,,,172.0,232.0,,,10.0,,,,,,,,71.8,,SSW,29.21,27.27,87.55,Partly Cloudy
KIGQ,07/12/2016 15:55 UTC,29.85,82.94,71.96,69.98,16.11,190.0,,,,,,213.0,,,,10.0,,,,,2100.0,,,72.14,,S,29.2,27.23,88.26,Mostly Cloudy
KIGQ,07/12/2016 16:15 UTC,29.85,84.92,71.78,66.04,16.11,180.0,21.85,,,,,213.0,,,,10.0,,,,,2100.0,,,72.32,,S,29.2,27.19,91.09,Mostly Cloudy
KIGQ,07/12/2016 16:35 UTC,29.83,85.46,72.14,62.35,17.27,170.0,21.85,,,,,212.0,,,,10.0,,,,,,,,71.14,,S,29.18,27.26,90.89,Partly Cloudy
KIGQ,07/12/2016 16:55 UTC,29.83,85.82,71.78,62.35,16.11,180.0,,,,,,232.0,,,,10.0,,,,,,,,71.48,,S,29.18,27.22,91.6,Partly Cloudy
KIGQ,07/12/2016 17:15 UTC,29.83,86.18,72.32,62.35,14.97,190.0,20.71,,,,,232.0,,,,10.0,,,,,,,,71.82,,S,29.18,27.19,92.33,Partly Cloudy
KIGQ,07/12/2016 17:35 UTC,29.83,87.26,71.96,60.64,14.97,200.0,20.71,,,,,252.0,,,,10.0,,,,,,,,72.03,,SSW,29.18,27.16,93.87,Partly Cloudy
KIGQ,07/12/2016 17:55 UTC,29.82,87.44,71.78,58.89,14.97,190.0,,,,,,1.0,,,,10.0,,,88.7,74.48,,,,71.33,,S,29.17,27.21,93.49,Clear
KIGQ,07/12/2016 18:15 UTC,29.82,86.72,71.42,62.35,13.8,200.0,24.16,,,,,282.0,322.0,,,10.0,,,,,,,,72.34,,SSW,29.17,27.13,93.45,Partly Cloudy
KIGQ,07/12/2016 18:35 UTC,29.83,88.7,72.32,58.66,14.97,200.0,24.16,,,,,322.0,,,,10.0,,,,,,,,72.4,,SSW,29.18,27.12,96.02,Partly Cloudy
KIGQ,07/12/2016 18:55 UTC,29.83,88.52,72.32,58.89,18.41,220.0,,,,,,322.0,423.0,,,10.0,,,,,4200.0,,,72.35,,SW,29.18,27.12,95.75,Mostly Cloudy
KIGQ,07/12/2016 19:15 UTC,29.84,87.44,72.32,58.89,12.66,210.0,,,,,,323.0,,,,10.0,,,,,3200.0,,,71.33,,SSW,29.19,27.23,93.49,Mostly Cloudy
KIGQ,07/12/2016 19:35 UTC,29.85,86.54,72.68,66.25,14.97,230.0,23.02,,654.0,,,303.0,363.0,,,10.0,,,,,3000.0,,,73.96,,SW,29.2,27.03,94.71,Overcast
KIGQ,07/12/2016 19:55 UTC,29.85,86.36,72.68,66.25,14.97,230.0,24.16,,653.0,,,302.0,362.0,,,10.0,,,,,6500.0,,,73.79,,SW,29.2,27.04,94.3,Mostly Cloudy
KIGQ,07/12/2016 20:15 UTC,29.85,86.18,72.5,66.25,13.8,240.0,20.71,,703.0,,,322.0,462.0,,,10.0,,,,,7000.0,,,73.62,,WSW,29.2,27.06,93.89,Mostly Cloudy
KIGQ,07/12/2016 20:35 UTC,29.84,88.88,70.7,55.65,14.97,230.0,,,442.0,,,292.0,342.0,,,10.0,,,,,,,,71.02,,SW,29.19,27.24,94.99,Partly Cloudy
KIGQ,07/12/2016 20:55 UTC,29.84,88.52,66.2,48.96,11.5,240.0,,,502.0,,,362.0,452.0,,,10.0,,,,,,,,66.96,,WSW,29.19,27.56,91.54,Partly Cloudy
KIGQ,07/12/2016 21:15 UTC,29.84,88.88,64.76,43.46,13.8,250.0,,,,,,1.0,,,,10.0,,,,,,,,63.87,,WSW,29.19,27.77,90.17,Clear
KIGQ,07/12/2016 21:35 UTC,29.84,89.96,64.22,43.46,14.97,260.0,19.57,,,,,1.0,,,,10.0,,,,,,,,64.86,,W,29.19,27.69,91.84,Clear
KIGQ,07/12/2016 21:55 UTC,29.83,88.88,63.5,43.46,18.41,270.0,24.16,,,,,1.0,,,,10.0,,,,,,,,63.87,,W,29.18,27.76,90.17,Clear
KIGQ,07/12/2016 22:15 UTC,29.83,88.7,65.12,45.84,16.11,270.0,,,,,,1.0,,,,10.0,,,,,,,,65.23,,W,29.18,27.67,90.7,Clear
KIGQ,07/12/2016 22:35 UTC,29.83,88.16,66.2,48.96,11.5,240.0,16.11,,,,,1.0,,,,10.0,,,,,,,,66.63,,WSW,29.18,27.57,90.94,Clear
KIGQ,07/12/2016 22:55 UTC,29.83,87.26,67.28,52.09,13.8,250.0,19.57,,,,,1.0,,,,10.0,,,,,,,,67.58,,WSW,29.18,27.51,90.54,Clear
KIGQ,07/12/2016 23:15 UTC,29.85,85.64,66.74,51.84,12.66,250.0,19.57,,,,,1.0,,,,10.0,,,,,,,,65.94,,WSW,29.2,27.67,87.87,Clear
KIGQ,07/12/2016 23:35 UTC,29.85,84.74,66.92,54.9,12.66,260.0,,,,,,1.0,,,,10.0,,,,,,,,66.75,,W,29.2,27.62,87.34,Clear
KIGQ,07/12/2016 23:55 UTC,29.86,85.1,66.92,51.84,12.66,260.0,17.27,,,,,1.0,,,,10.0,,,89.96,84.2,,,,65.44,,W,29.21,27.72,87.07,Clear
KIGQ,07/13/2016 00:15 UTC,29.87,84.56,64.58,51.3,14.97,250.0,,,,,,1.0,,,,10.0,,,,,,,,64.64,,WSW,29.22,27.79,86.17,Clear
KIGQ,07/13/2016 00:35 UTC,29.87,83.48,65.84,55.49,11.5,250.0,,,,,,1.0,,,,10.0,,,,,,,,65.88,,WSW,29.22,27.71,85.62,Clear
KIGQ,07/13/2016 00:55 UTC,29.88,82.4,64.58,54.65,10.36,250.0,,,,,,1.0,,,,10.0,,,,,,,,64.43,,WSW,29.23,27.83,84.0,Clear
KIGQ,07/13/2016 01:15 UTC,29.88,80.96,64.94,58.35,8.05,250.0,,,,,,1.0,,,,10.0,,,,,,,,64.96,,WSW,29.23,27.81,82.78,Clear
KIGQ,07/13/2016 01:35 UTC,29.88,80.78,65.3,59.43,9.22,240.0,,,,,,1.0,,,,10.0,,,,,,,,65.32,,WSW,29.23,27.79,82.7,Clear
KIGQ,07/13/2016 01:55 UTC,29.88,79.16,65.66,65.41,9.22,250.0,,,,,,1.0,,,,10.0,,,,,,,,66.55,,WSW,29.23,27.72,,Clear
KIGQ,07/13/2016 02:15 UTC,29.89,78.8,65.66,65.41,10.36,260.0,,,,,,1.0,,,,10.0,,,,,,,,66.2,,W,29.24,27.76,,Clear
KIGQ,07/13/2016 02:35 UTC,29.9,78.44,65.3,65.41,8.05,260.0,,,,,,1.0,,,,10.0,,,,,,,,65.86,,W,29.25,27.8,,Clear
KIGQ,07/13/2016 02:55 UTC,29.91,78.08,65.3,65.41,8.05,250.0,,,,,,1.0,,,,10.0,,,,,,,,65.52,,WSW,29.26,27.84,,Clear
KIGQ,07/13/2016 03:15 UTC,29.91,77.18,65.48,69.4,6.91,250.0,,,,,,1.0,,,,10.0,,,,,,,,66.37,,WSW,29.26,27.79,,Clear
KIGQ,07/13/2016 03:35 UTC,29.91,76.64,65.48,69.4,6.91,250.0,,,,,,1.0,,,,10.0,,,,,,,,65.85,,WSW,29.26,27.83,,Clear
KIGQ,07/13/2016 03:55 UTC,29.92,76.1,65.66,69.4,5.75,230.0,,,,,,1.0,,,,10.0,,,,,,,,65.33,,SW,29.27,27.88,,Clear
KIGQ,07/13/2016 04:15 UTC,29.92,74.48,65.66,74.07,6.91,230.0,,,,,,1.0,,,,10.0,,,,,,,,65.65,,SW,29.27,27.88,,Clear
KIGQ,07/13/2016 04:35 UTC,29.92,74.84,66.2,73.67,5.75,240.0,,,,,,1.0,,,,10.0,,,,,,,,65.84,,WSW,29.27,27.87,,Clear
KIGQ,07/13/2016 04:55 UTC,29.93,74.3,66.2,73.67,5.75,230.0,,,,,,1.0,,,,10.0,,,,,,,,65.32,,SW,29.28,27.92,,Clear
KIGQ,07/13/2016 05:15 UTC,29.93,73.22,66.2,78.24,4.61,230.0,,,,,,1.0,,,,10.0,,,,,,,,66.01,,SW,29.28,27.88,,Clear
KIGQ,07/13/2016 05:35 UTC,29.93,71.78,66.2,83.13,5.75,220.0,,,,,,1.0,,,,10.0,,,,,,,,66.36,,SW,29.28,27.88,,Clear
KIGQ,07/13/2016 05:55 UTC,29.93,71.6,66.2,83.13,4.61,220.0,,,,,,1.0,,,,10.0,,,85.1,71.6,,89.96,71.24,66.18,,SW,29.28,27.89,,Clear
KIGQ,07/13/2016 06:15 UTC,29.93,71.6,66.2,83.13,4.61,230.0,,,,,,1.0,,,,10.0,,,,,,,,66.18,,SW,29.28,27.89,,Clear
KIGQ,07/13/2016 06:35 UTC,29.94,70.16,65.12,83.01,3.44,190.0,,,,,,1.0,,,,10.0,,,,,,,,64.73,,S,29.29,28.02,,Clear
KIGQ,07/13/2016 06:55 UTC,29.94,68.36,64.58,88.29,3.44,200.0,,,,,,1.0,,,,10.0,,,,,,,,64.74,,SSW,29.29,28.04,,Clear
KIGQ,07/13/2016 07:15 UTC,29.94,68.72,64.58,88.29,0.0,0.0,,,,,,1.0,,,,10.0,,,,,,,,65.1,,N,29.29,28.01,,Clear
KIGQ,07/13/2016 07:35 UTC,29.94,68.54,65.3,89.42,4.61,200.0,,,,,,1.0,,,,10.0,,,,,,,,65.29,,SSW,29.29,28.0,,Clear
KIGQ,07/13/2016 07:55 UTC,29.94,67.1,64.04,88.29,4.61,200.0,,,,,,1.0,,,,10.0,,,,,,,,63.5,,SSW,29.29,28.13,,Clear
KIGQ,07/13/2016 08:15 UTC,29.94,66.92,63.86,93.94,5.75,180.0,,,,,,1.0,,,,10.0,,,,,,,,65.11,,S,29.29,28.04,,Clear
KIGQ,07/13/2016 08:35 UTC,29.94,67.28,64.76,88.29,0.0,0.0,,,,,,1.0,,,,10.0,,,,,,,,63.68,,N,29.29,28.12,,Clear
KIGQ,07/13/2016 08:55 UTC,29.93,67.82,64.58,88.29,0.0,0.0,,,,,,1.0,,,,10.0,,,,,,,,64.21,,N,29.28,28.07,,Clear
KIGQ,07/13/2016 09:15 UTC,29.93,64.94,62.24,93.89,3.44,160.0,,,,,,1.0,,,,10.0,,,,,,,,63.12,,SSE,29.28,28.17,,Clear
KIGQ,07/13/2016 09:35 UTC,29.93,65.66,63.32,88.2,0.0,0.0,,,,,,1.0,,,,10.0,,,,,,,,62.05,,N,29.28,28.22,,Clear
KIGQ,07/13/2016 09:55 UTC,29.93,66.2,63.86,93.94,0.0,0.0,,,,,,1.0,,,,10.0,,,,,,,,64.39,,N,29.28,28.08,,Clear
KIGQ,07/13/2016 10:15 UTC,29.94,67.1,66.38,93.98,0.0,0.0,,,,,,1.0,,,,10.0,,,,,,,,65.3,,N,29.29,28.02,,Clear
KIGQ,07/13/2016 10:35 UTC,29.94,67.1,65.66,93.98,0.0,0.0,,,,,,1.0,,,,10.0,,,,,,,,65.3,,N,29.29,28.02,,Clear
KIGQ,07/13/2016 10:55 UTC,29.94,66.2,64.4,93.94,3.44,190.0,,,,,,1.0,,,,10.0,,,,,,,,64.39,,S,29.29,28.09,,Clear
KIGQ,07/13/2016 11:15 UTC,29.95,67.1,65.3,93.98,0.0,0.0,,,,,,1.0,,,,10.0,,,,,,,,65.3,,N,29.3,28.03,,Clear
KIGQ,07/13/2016 11:35 UTC,29.94,68.72,66.74,93.98,0.0,0.0,,,,,,1.0,,,,10.0,,,,,,,,66.91,,N,29.29,27.9,,Clear
KIGQ,07/13/2016 11:55 UTC,29.93,70.88,67.46,88.46,3.44,130.0,,,,,,1.0,,,,10.0,,,71.6,64.94,,,,67.28,,SE,29.28,27.83,,Clear
KIGQ,07/13/2016 12:15 UTC,29.94,72.5,68.18,83.25,3.44,150.0,,,,,,1.0,,,,10.0,,,,,,,,67.11,,SSE,29.29,27.83,,Clear
KIGQ,07/13/2016 12:35 UTC,29.93,73.94,68.36,83.25,6.91,160.0,,,,,,1.0,,,,10.0,,,,,,,,68.52,,SSE,29.28,27.7,,Clear
KIGQ,07/13/2016 12:55 UTC,29.94,75.92,68.9,83.37,6.91,190.0,,,,,,1.0,,,,10.0,,,,,,,,70.5,,S,29.29,27.54,,Clear
KIGQ,07/13/2016 13:15 UTC,29.94,77.72,69.44,78.54,9.22,180.0,,,,,,1.0,,,,10.0,,,,,,,,70.5,,S,29.29,27.52,,Clear
KIGQ,07/13/2016 13:35 UTC,29.95,77.0,69.26,78.54,6.91,200.0,,,,,,903.0,,,,10.0,,,,,9000.0,,,69.8,,SSW,29.3,27.59,,Mostly Cloudy
KIGQ,07/13/2016 13:55 UTC,29.95,76.46,69.44,78.54,9.22,190.0,,,,,,904.0,,,,10.0,,,,,9000.0,,,69.27,,S,29.3,27.64,,Overcast
KIGQ,07/13/2016 14:15 UTC,29.96,77.72,70.34,78.54,10.36,200.0,,,503.0,,,132.0,382.0,,,10.0,,,,,5000.0,,,70.5,,SSW,29.31,27.54,,Mostly Cloudy
KIGQ,07/13/2016 14:35 UTC,29.94,77.0,69.8,78.54,6.91,200.0,,,703.0,,,132.0,362.0,,,10.0,,,,,7000.0,,,69.8,,SSW,29.29,27.58,,Mostly Cloudy
KIGQ,07/13/2016 14:55 UTC,29.91,77.0,69.62,78.54,4.61,160.0,,,1102.0,,,602.0,752.0,,,10.0,,,,,,,,69.8,,SSE,29.26,27.55,,Partly Cloudy
KIGQ,07/13/2016 15:15 UTC,29.91,77.36,69.8,78.54,6.91,160.0,,,,,,1.0,,,,10.0,,,,,,,,70.15,,SSE,29.26,27.52,,Clear
KIGQ,07/13/2016 15:35 UTC,29.92,78.8,70.34,74.02,11.5,190.0,,,,,,1.0,,,,10.0,,,,,,,,69.81,,S,29.27,27.53,,Clear
KIGQ,07/13/2016 15:55 UTC,29.91,81.32,69.8,69.79,13.8,170.0,21.85,,,,,1.0,,,,10.0,,,,,,,,70.51,,S,29.26,27.44,85.15,Clear
KIGQ,07/13/2016 16:15 UTC,29.92,82.94,67.46,61.9,20.71,200.0,26.46,,,,,1.0,,,,10.0,,,,,,,,68.54,,SSW,29.27,27.58,86.25,Clear
KIGQ,07/13/2016 16:35 UTC,29.92,81.68,67.28,61.9,18.41,200.0,25.32,,,,,1.0,,,,10.0,,,,,,,,67.35,,SSW,29.27,27.68,84.31,Clear
KIGQ,07/13/2016 16:55 UTC,29.92,81.14,68.36,65.62,12.66,200.0,21.85,,,,,262.0,312.0,,,10.0,,,,,,,,68.53,,SSW,29.27,27.6,84.13,Partly Cloudy
KIGQ,07/13/2016 17:15 UTC,29.91,81.86,68.9,65.83,19.57,230.0,23.02,,,,,262.0,332.0,,,10.0,,,,,,,,69.31,,SW,29.26,27.52,85.32,Partly Cloudy
KIGQ,07/13/2016 17:35 UTC,29.9,84.02,68.9,62.13,16.11,220.0,20.71,,602.0,,,282.0,332.0,,,10.0,,,,,,,,69.67,,SW,29.25,27.46,88.14,Partly Cloudy
KIGQ,07/13/2016 17:55 UTC,29.9,83.66,68.36,58.42,11.5,220.0,20.71,,604.0,,,312.0,402.0,,,10.0,,,84.92,71.24,6000.0,,,67.54,,SW,29.25,27.62,86.57,Overcast
KIGQ,07/13/2016 18:15 UTC,29.9,82.58,68.9,65.83,13.8,230.0,,,,,,292.0,374.0,,,10.0,,,,,3700.0,,,70.0,,SW,29.25,27.45,86.55,Overcast
KIGQ,07/13/2016 18:35 UTC,29.89,84.02,70.16,62.13,13.8,210.0,,,,,,292.0,354.0,,,10.0,,,,,3500.0,,,69.67,,SSW,29.24,27.45,88.14,Overcast
KIGQ,07/13/2016 18:55 UTC,29.87,84.92,70.7,66.04,17.27,200.0,20.71,,423.0,,,272.0,353.0,,,10.0,,,,,3500.0,,,72.32,,SSW,29.22,27.21,91.09,Mostly Cloudy
KIGQ,07/13/2016 19:15 UTC,29.86,84.74,70.16,62.13,13.8,230.0,18.41,,423.0,,,273.0,363.0,,,10.0,,,,,2700.0,,,70.35,,SW,29.21,27.36,89.44,Mostly Cloudy
KIGQ,07/13/2016 19:35 UTC,29.85,83.48,70.7,66.04,12.66,210.0,18.41,,,,,293.0,384.0,,,10.0,,,,,2900.0,,,70.95,,SSW,29.2,27.32,88.24,Overcast
KIGQ,07/13/2016 19:55 UTC,29.84,84.38,70.7,66.04,16.11,210.0,,,433.0,,,292.0,363.0,,,10.0,,,,,3600.0,,,71.81,,SSW,29.19,27.23,89.99,Mostly Cloudy
KIGQ,07/13/2016 20:15 UTC,29.83,83.66,71.42,66.04,13.8,220.0,19.57,,,,,272.0,384.0,,,10.0,,,,,3800.0,,,71.12,,SW,29.18,27.28,88.58,Overcast
KIGQ,07/13/2016 20:35 UTC,29.83,83.48,71.78,66.04,10.36,200.0,,,604.0,,,292.0,373.0,,,10.0,,,,,3700.0,,,70.95,,SSW,29.18,27.3,88.24,Overcast
KIGQ,07/13/2016 20:55 UTC,29.82,85.64,71.96,62.35,16.11,200.0,20.71,,604.0,,,292.0,333.0,,,10.0,,,,,3300.0,,,71.31,,SSW,29.17,27.23,91.24,Overcast
KIGQ,07/13/2016 21:15 UTC,29.82,86.54,71.06,62.35,13.8,230.0,25.32,,413.0,,,292.0,363.0,,,10.0,,,,,3600.0,,,72.17,,SW,29.17,27.15,93.07,Mostly Cloudy
KIGQ,07/13/2016 21:35 UTC,29.82,87.08,70.16,55.4,12.66,230.0,20.71,,704.0,,,322.0,403.0,,,10.0,,,,,4000.0,,,69.21,,SW,29.17,27.38,91.42,Overcast
KIGQ,07/13/2016 21:55 UTC,29.82,86.18,70.16,58.66,11.5,240.0,,,,,,332.0,504.0,,,10.0,,,,,5000.0,,,70.03,,WSW,29.17,27.33,90.96,Overcast
KIGQ,07/13/2016 22:15 UTC,29.81,85.46,69.26,58.66,13.8,210.0,,,603.0,,,372.0,442.0,,,10.0,,,,,6000.0,,,69.35,,SSW,29.16,27.38,89.65,Mostly Cloudy
KIGQ,07/13/2016 22:35 UTC,29.8,84.2,69.44,62.13,11.5,220.0,,,,,,602.0,,,,10.0,,,,,,,,69.84,,SW,29.15,27.34,88.46,Partly Cloudy
KIGQ,07/13/2016 22:55 UTC,29.8,83.66,68.54,58.42,9.22,220.0,,,,,,1.0,,,,10.0,,,,,,,,67.54,,SW,29.15,27.52,86.57,Clear
KIGQ,07/13/2016 23:15 UTC,29.78,82.76,68.36,61.9,9.22,210.0,,,,,,1.0,,,,10.0,,,,,,,,68.37,,SSW,29.13,27.45,85.96,Clear
KIGQ,07/13/2016 23:35 UTC,29.77,81.14,69.08,69.79,4.61,180.0,,,,,,1.0,,,,10.0,,,,,,,,70.33,,S,29.12,27.31,84.83,Clear
KIGQ,07/13/2016 23:55 UTC,29.8,80.96,69.08,69.79,4.61,200.0,,,,,,442.0,,,,10.0,,,87.62,80.96,,,,70.16,,SSW,29.15,27.36,84.52,Partly Cloudy
KIGQ,07/14/2016 00:15 UTC,29.81,80.42,69.44,69.79,8.05,150.0,,5.0,1203.0,,,463.0,803.0,,,10.0,,,,,4600.0,,,69.64,,SSE,29.16,27.41,83.61,Thunder
KIGQ,07/14/2016 00:35 UTC,29.87,70.7,66.56,83.13,23.02,260.0,42.57,78.0,464.0,0.13,,92.0,223.0,,,3.0,,,,,2200.0,,,65.3,,W,29.22,27.9,,Heavy Rain/Thunderstorm
KIGQ,07/14/2016 00:55 UTC,29.88,68.36,65.66,93.98,5.75,260.0,9.22,,704.0,0.38,,82.0,403.0,,,5.0,,,,,4000.0,,,66.55,,W,29.23,27.86,,Overcast
KIGQ,07/14/2016 01:15 UTC,29.84,69.08,66.2,88.37,0.0,0.0,,,904.0,0.01,,392.0,703.0,,,10.0,,,,,7000.0,,,65.48,,N,29.19,27.88,,Overcast
KIGQ,07/14/2016 01:35 UTC,29.8,68.9,66.38,88.37,11.5,110.0,,66.0,,0.02,,703.0,1004.0,,,10.0,,,,,7000.0,,,65.3,,ESE,29.15,27.85,,Thunderstorm
KIGQ,07/14/2016 01:55 UTC,29.78,68.9,66.2,88.37,14.97,170.0,,14.0,,0.06,,752.0,1004.0,,,7.0,,,,,10000.0,,,65.3,,S,29.13,27.83,,Heavy Rain
KIGQ,07/14/2016 02:15 UTC,29.77,68.9,65.84,88.37,8.05,130.0,11.5,,1102.0,,,752.0,902.0,,,10.0,,,,,,,,65.3,,SE,29.12,27.82,,Partly Cloudy
KIGQ,07/14/2016 02:35 UTC,29.78,69.08,66.2,88.37,9.22,140.0,16.11,,,,,1.0,,,,10.0,,,,,,,,65.48,,SE,29.13,27.82,,Clear
KIGQ,07/14/2016 02:55 UTC,29.84,69.08,66.38,88.37,12.66,270.0,19.57,,,,0.44,82.0,,,,10.0,,,,,,,,65.48,,W,29.19,27.88,,Partly Cloudy
KIGQ,07/14/2016 03:15 UTC,29.85,68.9,65.66,88.37,10.36,260.0,,,,,,82.0,142.0,,,10.0,,,,,,,,65.3,,W,29.2,27.91,,Partly Cloudy
KIGQ,07/14/2016 03:35 UTC,29.87,69.08,65.84,88.37,8.05,240.0,17.27,,,,,93.0,143.0,,,10.0,,,,,900.0,,,65.48,,WSW,29.22,27.91,,Mostly Cloudy
KIGQ,07/14/2016 03:55 UTC,29.88,68.9,66.02,88.37,6.91,240.0,,,,,,94.0,,,,10.0,,,,,900.0,,,65.3,,WSW,29.23,27.94,,Overcast
KIGQ,07/14/2016 04:15 UTC,29.88,69.26,66.2,88.37,5.75,250.0,,,,,,74.0,,,,10.0,,,,,700.0,,,65.65,,WSW,29.23,27.91,,Overcast
KIGQ,07/14/2016 04:35 UTC,29.89,69.44,66.56,88.37,6.91,230.0,,,,,,74.0,,,,10.0,,,,,700.0,,,65.83,,SW,29.24,27.91,,Overcast
KIGQ,07/14/2016 04:55 UTC,29.88,69.44,66.38,88.37,9.22,220.0,18.41,,,,,74.0,,,,10.0,,,,,700.0,,,65.83,,SW,29.23,27.9,,Overcast
KIGQ,07/14/2016 05:15 UTC,29.88,69.44,66.38,88.37,9.22,230.0,,,,,,74.0,,,,10.0,,,,,700.0,,,65.83,,SW,29.23,27.9,,Overcast
KIGQ,07/14/2016 05:35 UTC,29.88,69.08,65.66,88.37,11.5,240.0,,,,,,94.0,,,,10.0,,,,,900.0,,,65.48,,WSW,29.23,27.92,,Overcast
KIGQ,07/14/2016 05:55 UTC,29.88,68.9,65.66,88.37,9.22,230.0,,,,,,94.0,,0.44,,10.0,,,81.14,68.36,900.0,87.62,64.94,65.3,,SW,29.23,27.94,,Overcast
KIGQ,07/14/2016 06:15 UTC,29.88,68.9,65.66,88.37,11.5,250.0,,,,,,74.0,,,,7.0,,,,,700.0,,,65.3,,WSW,29.23,27.94,,Overcast
KIGQ,07/14/2016 06:35 UTC,29.87,68.54,65.3,93.98,10.36,240.0,,,,,,74.0,,,,7.0,,,,,700.0,,,66.73,,WSW,29.22,27.84,,Overcast
KIGQ,07/14/2016 06:55 UTC,29.87,68.0,65.3,93.98,8.05,240.0,,,,,,73.0,,,,7.0,,,,,700.0,,,66.19,,WSW,29.22,27.88,,Mostly Cloudy
KIGQ,07/14/2016 07:15 UTC,29.87,67.82,65.12,88.29,11.5,230.0,,,,,,72.0,,,,7.0,,,,,,,,64.21,,SW,29.22,28.01,,Partly Cloudy
KIGQ,07/14/2016 07:35 UTC,29.88,68.0,65.48,93.98,11.5,240.0,,,,,,53.0,104.0,,,10.0,,,,,500.0,,,66.19,,WSW,29.23,27.89,,Overcast
KIGQ,07/14/2016 07:55 UTC,29.87,68.0,65.3,93.98,10.36,240.0,,,,,,54.0,,,,7.0,,,,,500.0,,,66.19,,WSW,29.22,27.88,,Overcast
KIGQ,07/14/2016 08:15 UTC,29.87,68.18,64.94,88.29,9.22,240.0,16.11,,,,,74.0,,,,10.0,,,,,700.0,,,64.56,,WSW,29.22,27.98,,Overcast
KIGQ,07/14/2016 08:35 UTC,29.87,68.18,64.94,88.29,9.22,230.0,,,,,,74.0,,,,10.0,,,,,700.0,,,64.56,,SW,29.22,27.98,,Overcast
KIGQ,07/14/2016 08:55 UTC,29.87,68.36,65.3,93.98,9.22,250.0,,,,,,74.0,,,,7.0,,,,,700.0,,,66.55,,WSW,29.22,27.85,,Overcast
KIGQ,07/14/2016 09:15 UTC,29.87,68.54,65.3,93.98,8.05,240.0,,,,,,94.0,,,,10.0,,,,,900.0,,,66.73,,WSW,29.22,27.84,,Overcast
KIGQ,07/14/2016 09:35 UTC,29.86,68.54,65.3,93.98,10.36,230.0,,,,,,94.0,,,,10.0,,,,,900.0,,,66.73,,SW,29.21,27.83,,Overcast
KIGQ,07/14/2016 09:55 UTC,29.86,68.9,65.48,88.37,9.22,250.0,,,,,,94.0,,,,10.0,,,,,900.0,,,65.3,,WSW,29.21,27.92,,Overcast
KIGQ,07/14/2016 10:15 UTC,29.87,68.9,65.66,88.37,9.22,250.0,,,,,,94.0,,,,10.0,,,,,900.0,,,65.3,,WSW,29.22,27.93,,Overcast
KIGQ,07/14/2016 10:35 UTC,29.87,69.08,65.84,88.37,9.22,250.0,,,,,,94.0,,,,10.0,,,,,900.0,,,65.48,,WSW,29.22,27.91,,Overcast
KIGQ,07/14/2016 10:55 UTC,29.87,69.26,66.2,88.37,6.91,260.0,,,,,,74.0,,,,10.0,,,,,700.0,,,65.65,,W,29.22,27.9,,Overcast
KIGQ,07/14/2016 11:15 UTC,29.88,69.8,66.56,88.37,9.22,260.0,,,,,,74.0,,,,10.0,,,,,700.0,,,66.19,,W,29.23,27.87,,Overcast
KIGQ,07/14/2016 11:35 UTC,29.89,69.98,66.92,88.37,10.36,260.0,,,,,,74.0,,,,7.0,,,,,700.0,,,66.36,,W,29.24,27.86,,Overcast
KIGQ,07/14/2016 11:55 UTC,29.89,70.7,67.1,88.46,8.05,260.0,,,,,,74.0,,,0.44,10.0,,,70.7,67.82,700.0,,,67.1,,W,29.24,27.81,,Overcast
KIGQ,07/14/2016 12:15 UTC,29.9,71.42,67.1,88.46,11.5,260.0,,,,,,94.0,,,,10.0,,,,,900.0,,,67.81,,W,29.25,27.76,,Overcast
KIGQ,07/14/2016 12:35 UTC,29.9,72.5,67.46,83.25,8.05,250.0,,,,,,93.0,,,,10.0,,,,,900.0,,,67.11,,WSW,29.25,27.79,,Mostly Cloudy
KIGQ,07/14/2016 12:55 UTC,29.91,73.76,67.82,83.25,8.05,240.0,,,,,,113.0,,,,10.0,,,,,1100.0,,,68.34,,WSW,29.26,27.7,,Mostly Cloudy
KIGQ,07/14/2016 13:15 UTC,29.91,74.66,68.18,78.39,9.22,220.0,,,,,,112.0,,,,10.0,,,,,,,,67.47,,SW,29.26,27.75,,Partly Cloudy
KIGQ,07/14/2016 13:35 UTC,29.91,75.2,68.0,78.39,10.36,240.0,,,,,,112.0,,,,10.0,,,,,,,,67.99,,WSW,29.26,27.7,,Partly Cloudy
KIGQ,07/14/2016 13:55 UTC,29.91,76.64,68.72,73.85,10.36,230.0,,,,,,1.0,,,,10.0,,,,,,,,67.65,,SW,29.26,27.71,,Clear
KIGQ,07/14/2016 14:15 UTC,29.92,77.0,68.0,73.85,9.22,250.0,,,,,,1.0,,,,10.0,,,,,,,,68.0,,WSW,29.27,27.69,,Clear
KIGQ,07/14/2016 14:35 UTC,29.92,78.08,68.72,69.6,10.36,230.0,,,,,,1.0,,,,10.0,,,,,,,,67.31,,SW,29.27,27.73,,Clear
KIGQ,07/14/2016 14:55 UTC,29.92,78.8,68.18,69.6,10.36,250.0,,,,,,1.0,,,,10.0,,,,,,,,68.01,,WSW,29.27,27.67,,Clear
KIGQ,07/14/2016 15:15 UTC,29.91,80.42,68.0,65.62,10.36,260.0,,,,,,1.0,,,,10.0,,,,,,,,67.84,,W,29.26,27.65,83.04,Clear
KIGQ,07/14/2016 15:35 UTC,29.91,80.78,66.74,61.67,16.11,260.0,19.57,,,,,1.0,,,,10.0,,,,,,,,66.39,,W,29.26,27.75,83.01,Clear
KIGQ,07/14/2016 15:55 UTC,29.9,81.14,65.84,61.67,13.8,250.0,18.41,,,,,1.0,,,,10.0,,,,,,,,66.73,,WSW,29.25,27.71,83.5,Clear
KIGQ,07/14/2016 16:15 UTC,29.89,82.4,65.3,58.18,11.5,240.0,,,,,,1.0,,,,10.0,,,,,,,,66.23,,WSW,29.24,27.72,84.65,Clear
KIGQ,07/14/2016 16:35 UTC,29.88,83.48,64.58,51.58,10.36,240.0,19.57,,,,,1.0,,,,10.0,,,,,,,,63.79,,WSW,29.23,27.86,84.79,Clear
KIGQ,07/14/2016 16:55 UTC,29.88,84.38,60.98,45.44,14.97,260.0,24.16,,,,,1.0,,,,10.0,,,,,,,,61.03,,W,29.23,28.03,84.66,Clear
KIGQ,07/14/2016 17:15 UTC,29.88,84.56,63.68,51.58,12.66,250.0,19.57,,,,,1.0,,,,10.0,,,,,,,,64.79,,WSW,29.23,27.79,86.23,Clear
KIGQ,07/14/2016 17:35 UTC,29.88,84.56,64.58,51.58,12.66,250.0,18.41,,,,,1.0,,,,10.0,,,,,,,,64.79,,WSW,29.23,27.79,86.23,Clear
KIGQ,07/14/2016 17:55 UTC,29.88,85.64,65.12,48.69,13.8,250.0,20.71,,,,,1.0,,,,10.0,,,85.64,70.7,,,,64.14,,WSW,29.23,27.82,87.02,Clear
KIGQ,07/14/2016 18:15 UTC,29.89,86.18,62.42,45.72,16.11,230.0,19.57,,,,,1.0,,,,10.0,,,,,,,,62.85,,SW,29.24,27.91,86.99,Clear
KIGQ,07/14/2016 18:35 UTC,29.88,86.36,61.34,42.9,16.11,260.0,24.16,,,,,502.0,,,,10.0,,,,,,,,61.21,,W,29.23,28.0,86.52,Partly Cloudy
KIGQ,07/14/2016 18:55 UTC,29.88,86.9,58.64,38.01,17.27,270.0,25.32,,,,,1.0,,,,10.0,,,,,,,,58.31,,W,29.23,28.17,86.06,Clear
KIGQ,07/14/2016 19:15 UTC,29.88,87.44,60.08,40.52,20.71,260.0,24.16,,,,,602.0,702.0,,,10.0,,,,,,,,60.59,,W,29.23,28.03,87.31,Partly Cloudy
KIGQ,07/14/2016 19:35 UTC,29.88,86.9,59.36,38.01,14.97,280.0,29.93,,,,,602.0,702.0,,,10.0,,,,,,,,58.31,,W,29.23,28.17,86.06,Partly Cloudy
KIGQ,07/14/2016 19:55 UTC,29.87,87.08,60.62,40.52,13.8,260.0,25.32,,,,,602.0,702.0,,,10.0,,,,,,,,60.26,,W,29.22,28.04,86.86,Partly Cloudy
KIGQ,07/14/2016 20:15 UTC,29.87,86.54,60.44,42.9,17.27,260.0,28.77,,,,,602.0,702.0,,,10.0,,,,,,,,61.38,,W,29.22,27.98,86.75,Partly Cloudy
KIGQ,07/14/2016 20:35 UTC,29.87,86.0,60.08,42.9,14.97,280.0,28.77,,,,,602.0,702.0,,,10.0,,,,,,,,60.88,,W,29.22,28.01,86.07,Partly Cloudy
KIGQ,07/14/2016 20:55 UTC,29.86,86.9,62.78,43.18,14.97,260.0,24.16,,,,,502.0,602.0,,,10.0,,,,,,,,61.89,,W,29.21,27.93,87.29,Partly Cloudy
KIGQ,07/14/2016 21:15 UTC,29.86,86.36,60.8,42.9,19.57,270.0,29.93,,,,,602.0,802.0,,,10.0,,,,,,,,61.21,,W,29.21,27.98,86.52,Partly Cloudy
KIGQ,07/14/2016 21:35 UTC,29.86,86.18,60.62,42.9,17.27,270.0,25.32,,,,,602.0,802.0,,,10.0,,,,,,,,61.05,,W,29.21,27.99,86.3,Partly Cloudy
KIGQ,07/14/2016 21:55 UTC,29.86,84.38,60.62,45.44,13.8,260.0,24.16,,,,,602.0,652.0,,,10.0,,,,,,,,61.03,,W,29.21,28.01,84.66,Partly Cloudy
KIGQ,07/14/2016 22:15 UTC,29.86,85.28,56.84,37.73,24.16,270.0,34.52,,,,,602.0,702.0,,,10.0,,,,,,,,56.65,,W,29.21,28.25,84.22,Partly Cloudy
KIGQ,07/14/2016 22:35 UTC,29.86,84.92,59.54,42.63,16.11,280.0,25.32,,,,,602.0,,,,10.0,,,,,,,,59.72,,W,29.21,28.08,84.73,Partly Cloudy
KIGQ,07/14/2016 22:55 UTC,29.86,84.02,59.18,42.63,16.11,250.0,24.16,,953.0,,,603.0,753.0,,,10.0,,,,,6000.0,,,58.91,,WSW,29.21,28.13,83.74,Mostly Cloudy
KIGQ,07/14/2016 23:15 UTC,29.87,83.84,57.92,39.96,21.85,270.0,27.63,,,,,653.0,753.0,,,10.0,,,,,6500.0,,,56.95,,W,29.22,28.25,83.13,Mostly Cloudy
KIGQ,07/14/2016 23:35 UTC,29.87,84.02,57.38,39.96,20.71,270.0,26.46,,,,,652.0,,,,10.0,,,,,,,,57.11,,W,29.22,28.24,83.3,Partly Cloudy
KIGQ,07/14/2016 23:55 UTC,29.88,83.3,55.4,37.44,16.11,280.0,26.46,,,,,1.0,,,,10.0,,,87.62,83.3,,,,54.67,,W,29.23,28.38,82.27,Clear
KIGQ,07/15/2016 00:15 UTC,29.88,82.22,56.84,42.34,10.36,270.0,18.41,,,,,1.0,,,,10.0,,,,,,,,57.08,,W,29.23,28.27,81.93,Clear
KIGQ,07/15/2016 00:35 UTC,29.88,81.5,55.22,39.68,16.11,280.0,24.16,,,,,1.0,,,,10.0,,,,,,,,54.64,,W,29.23,28.4,81.01,Clear
KIGQ,07/15/2016 00:55 UTC,29.88,80.06,54.5,42.06,10.36,280.0,18.41,,,,,1.0,,,,10.0,,,,,,,,54.94,,W,29.23,28.4,79.74,Clear
KIGQ,07/15/2016 01:15 UTC,29.88,79.16,55.94,44.61,9.22,280.0,,,,,,1.0,,,,10.0,,,,,,,,55.74,,W,29.23,28.36,,Clear
KIGQ,07/15/2016 01:35 UTC,29.89,78.08,57.2,47.61,10.36,270.0,,,,,,1.0,,,,10.0,,,,,,,,56.55,,W,29.24,28.34,,Clear
KIGQ,07/15/2016 01:55 UTC,29.9,77.0,58.28,53.88,9.22,260.0,,,,,,1.0,,,,10.0,,,,,,,,58.99,,W,29.25,28.23,,Clear
KIGQ,07/15/2016 02:15 UTC,29.91,77.0,58.46,53.88,9.22,270.0,,,,,,1.0,,,,10.0,,,,,,,,58.99,,W,29.26,28.24,,Clear
KIGQ,07/15/2016 02:35 UTC,29.92,75.92,58.46,57.2,8.05,260.0,,,,,,802.0,,,,10.0,,,,,,,,59.66,,W,29.27,28.23,,Partly Cloudy
KIGQ,07/15/2016 02:55 UTC,29.92,75.2,58.82,57.2,6.91,260.0,,,,,,1.0,,,,10.0,,,,,,,,58.98,,W,29.27,28.27,,Clear
KIGQ,07/15/2016 03:15 UTC,29.92,74.12,59.0,60.75,6.91,270.0,,,,,,1.0,,,,10.0,,,,,,,,59.65,,W,29.27,28.25,,Clear
KIGQ,07/15/2016 03:35 UTC,29.93,73.94,59.0,60.75,6.91,270.0,,,,,,1.0,,,,10.0,,,,,,,,59.48,,W,29.28,28.27,,Clear
KIGQ,07/15/2016 03:55 UTC,29.92,73.4,59.0,60.75,4.61,280.0,,,,,,802.0,,,,10.0,,,,,,,,58.97,,W,29.27,28.29,,Partly Cloudy
KIGQ,07/15/2016 04:15 UTC,29.93,72.68,59.18,60.75,3.44,260.0,,,,,,1.0,,,,10.0,,,,,,,,58.29,,W,29.28,28.34,,Clear
KIGQ,07/15/2016 04:35 UTC,29.93,70.88,60.26,68.81,3.44,250.0,,,,,,1.0,,,,10.0,,,,,,,,60.08,,WSW,29.28,28.27,,Clear
KIGQ,07/15/2016 04:55 UTC,29.94,70.88,60.98,68.81,3.44,250.0,,,,,,1.0,,,,10.0,,,,,,,,60.08,,WSW,29.29,28.28,,Clear
KIGQ,07/15/2016 05:15 UTC,29.93,70.52,60.98,73.15,4.61,290.0,,,,,,1.0,,,,10.0,,,,,,,,61.46,,WNW,29.28,28.19,,Clear
KIGQ,07/15/2016 05:35 UTC,29.93,70.16,60.98,73.15,5.75,280.0,,,,,,1.0,,,,10.0,,,,,,,,61.12,,W,29.28,28.22,,Clear
KIGQ,07/15/2016 05:55 UTC,29.93,69.8,60.8,73.15,5.75,260.0,,,,,,1.0,,,,10.0,,,83.12,69.8,,87.62,67.82,60.77,,W,29.28,28.24,,Clear
KIGQ,07/15/2016 06:15 UTC,29.93,69.44,60.98,73.15,5.75,260.0,,,,,,652.0,,,,10.0,,,,,,,,60.42,,W,29.28,28.27,,Partly Cloudy
KIGQ,07/15/2016 06:35 UTC,29.93,69.8,61.34,73.15,5.75,290.0,,,,,,653.0,,,,10.0,,,,,6500.0,,,60.77,,WNW,29.28,28.24,,Mostly Cloudy
KIGQ,07/15/2016 06:55 UTC,29.93,69.8,60.26,73.15,5.75,280.0,,,,,,653.0,,,,10.0,,,,,6500.0,,,60.77,,W,29.28,28.24,,Mostly Cloudy
KIGQ,07/15/2016 07:15 UTC,29.93,69.26,59.9,73.15,4.61,270.0,,,,,,653.0,,,,10.0,,,,,6500.0,,,60.25,,W,29.28,28.28,,Mostly Cloudy
KIGQ,07/15/2016 07:35 UTC,29.94,68.18,60.62,77.79,4.61,250.0,,,,,,553.0,,,,10.0,,,,,5500.0,,,60.94,,WSW,29.29,28.26,,Mostly Cloudy
KIGQ,07/15/2016 07:55 UTC,29.94,68.18,60.8,77.79,4.61,250.0,,,,,,554.0,,,,10.0,,,,,5500.0,,,60.94,,WSW,29.29,28.26,,Overcast
KIGQ,07/15/2016 08:15 UTC,29.94,68.0,60.08,77.79,4.61,250.0,,,,,,502.0,703.0,,,10.0,,,,,7000.0,,,60.77,,WSW,29.29,28.27,,Mostly Cloudy
KIGQ,07/15/2016 08:35 UTC,29.94,67.28,59.9,77.79,4.61,260.0,,,,,,603.0,,,,10.0,,,,,6000.0,,,60.07,,W,29.29,28.32,,Mostly Cloudy
KIGQ,07/15/2016 08:55 UTC,29.94,66.56,59.36,77.64,5.75,250.0,,,,,,652.0,,,,10.0,,,,,,,,59.31,,WSW,29.29,28.37,,Partly Cloudy
KIGQ,07/15/2016 09:15 UTC,29.94,66.2,59.0,77.64,4.61,270.0,,,,,,1.0,,,,10.0,,,,,,,,58.96,,W,29.29,28.39,,Clear
KIGQ,07/15/2016 09:35 UTC,29.95,65.66,59.0,77.64,4.61,280.0,,,,,,1.0,,,,10.0,,,,,,,,58.44,,W,29.3,28.43,,Clear
KIGQ,07/15/2016 09:55 UTC,29.96,65.3,59.0,77.64,5.75,280.0,,,,,,1.0,,,,10.0,,,,,,,,58.09,,W,29.31,28.46,,Clear
KIGQ,07/15/2016 10:15 UTC,29.96,64.94,59.0,82.65,5.75,280.0,,,,,,1.0,,,,10.0,,,,,,,,59.5,,W,29.31,28.4,,Clear
KIGQ,07/15/2016 10:35 UTC,29.96,64.4,58.82,82.65,5.75,280.0,,,,,,1.0,,,,10.0,,,,,,,,58.97,,W,29.31,28.43,,Clear
KIGQ,07/15/2016 10:55 UTC,29.97,64.22,58.64,82.65,5.75,270.0,,,,,,1.0,,,,10.0,,,,,,,,58.79,,W,29.32,28.45,,Clear
KIGQ,07/15/2016 11:15 UTC,29.97,65.3,59.0,77.64,3.44,280.0,,,,,,602.0,,,,10.0,,,,,,,,58.09,,W,29.32,28.47,,Partly Cloudy
KIGQ,07/15/2016 11:35 UTC,29.97,66.02,59.0,77.64,4.61,280.0,,,,,,603.0,,,,10.0,,,,,6000.0,,,58.79,,W,29.32,28.43,,Mostly Cloudy
KIGQ,07/15/2016 11:55 UTC,29.98,67.1,58.82,72.97,4.61,280.0,,,,,,603.0,,,,10.0,,,69.98,64.04,6000.0,,,58.09,,W,29.33,28.46,,Mostly Cloudy
KIGQ,07/15/2016 12:15 UTC,29.99,67.46,58.82,72.97,4.61,270.0,,,,,,603.0,,,,10.0,,,,,6000.0,,,58.44,,W,29.34,28.45,,Mostly Cloudy
KIGQ,07/15/2016 12:35 UTC,29.99,68.9,58.64,68.61,4.61,270.0,,,,,,602.0,,,,10.0,,,,,,,,58.1,,W,29.34,28.45,,Partly Cloudy
KIGQ,07/15/2016 12:55 UTC,29.99,69.98,58.28,68.61,4.61,290.0,,,,,,602.0,,,,10.0,,,,,,,,59.13,,WNW,29.34,28.39,,Partly Cloudy
KIGQ,07/15/2016 13:15 UTC,29.99,70.7,57.2,60.51,12.66,300.0,16.11,,,,,1.0,,,,10.0,,,,,,,,56.31,,WNW,29.34,28.52,,Clear
KIGQ,07/15/2016 13:35 UTC,29.99,71.24,57.74,60.51,9.22,290.0,,,,,,1.0,,,,10.0,,,,,,,,56.82,,WNW,29.34,28.49,,Clear
KIGQ,07/15/2016 13:55 UTC,29.99,71.78,57.92,60.51,9.22,300.0,19.57,,,,,1.0,,,,10.0,,,,,,,,57.33,,WNW,29.34,28.46,,Clear
KIGQ,07/15/2016 14:15 UTC,29.99,72.32,57.2,60.51,10.36,280.0,19.57,,,,,1.0,,,,10.0,,,,,,,,57.84,,W,29.34,28.43,,Clear
KIGQ,07/15/2016 14:35 UTC,29.99,73.58,55.4,53.36,10.36,290.0,17.27,,,,,1.0,,,,10.0,,,,,,,,55.53,,WNW,29.34,28.53,,Clear
KIGQ,07/15/2016 14:55 UTC,29.98,74.3,55.58,50.25,10.36,290.0,18.41,,,,,1.0,,,,10.0,,,,,,,,54.55,,WNW,29.33,28.56,,Clear
KIGQ,07/15/2016 15:15 UTC,29.99,75.2,54.86,50.25,13.8,280.0,19.57,,,,,1.0,,,,10.0,,,,,,,,55.38,,W,29.34,28.53,,Clear
KIGQ,07/15/2016 15:35 UTC,29.99,75.02,54.86,50.25,12.66,290.0,20.71,,,,,1.0,,,,10.0,,,,,,,,55.21,,WNW,29.34,28.54,,Clear
KIGQ,07/15/2016 15:55 UTC,29.99,75.38,56.12,50.25,9.22,280.0,18.41,,,,,402.0,,,,10.0,,,,,,,,55.55,,W,29.34,28.52,,Partly Cloudy
KIGQ,07/15/2016 16:15 UTC,29.99,75.92,56.12,50.25,10.36,280.0,16.11,,,,,402.0,462.0,,,10.0,,,,,,,,56.05,,W,29.34,28.49,,Partly Cloudy
KIGQ,07/15/2016 16:35 UTC,29.99,75.56,57.02,53.62,12.66,270.0,17.27,,,,,424.0,,,,10.0,,,,,4200.0,,,57.51,,W,29.34,28.42,,Overcast
KIGQ,07/15/2016 16:55 UTC,29.99,77.0,57.56,50.52,10.36,310.0,,,,,,443.0,,,,10.0,,,,,4400.0,,,57.19,,NW,29.34,28.42,,Mostly Cloudy
KIGQ,07/15/2016 17:15 UTC,30.0,77.36,57.56,50.52,12.66,300.0,,,,,,423.0,503.0,,,10.0,,,,,4200.0,,,57.53,,WNW,29.35,28.41,,Mostly Cloudy
KIGQ,07/15/2016 17:35 UTC,30.0,77.18,56.3,50.52,9.22,290.0,16.11,,,,,422.0,504.0,,,10.0,,,,,5000.0,,,57.36,,WNW,29.35,28.42,,Overcast
KIGQ,07/15/2016 17:55 UTC,30.01,75.92,56.66,53.62,11.5,270.0,16.11,,504.0,,,402.0,472.0,,,10.0,,,78.62,67.1,5000.0,,,57.85,,W,29.36,28.42,,Overcast
KIGQ,07/15/2016 18:15 UTC,30.01,76.64,56.66,50.52,8.05,350.0,,,,,,433.0,504.0,,,10.0,,,,,4300.0,,,56.86,,N,29.36,28.46,,Overcast
KIGQ,07/15/2016 18:35 UTC,30.02,74.12,56.48,56.95,6.91,330.0,17.27,,,,,432.0,554.0,,,10.0,,,,,5500.0,,,57.84,,NNW,29.37,28.44,,Overcast
KIGQ,07/15/2016 18:55 UTC,30.02,74.3,56.84,53.62,8.05,270.0,,,,,,553.0,704.0,,,10.0,,,,,5500.0,,,56.34,,W,29.37,28.52,,Overcast
KIGQ,07/15/2016 19:15 UTC,30.02,74.3,57.02,53.62,6.91,290.0,,,,,,553.0,704.0,,,10.0,,,,,5500.0,,,56.34,,WNW,29.37,28.52,,Overcast
KIGQ,07/15/2016 19:35 UTC,30.02,73.58,57.2,56.95,9.22,270.0,,,,,,554.0,,,,10.0,,,,,5500.0,,,57.34,,W,29.37,28.48,,Overcast
KIGQ,07/15/2016 19:55 UTC,30.03,72.32,59.36,64.54,5.75,10.0,,,,,,422.0,554.0,,,10.0,,,,,5500.0,,,59.65,,N,29.38,28.38,,Overcast
KIGQ,07/15/2016 20:15 UTC,30.03,71.6,60.08,68.81,5.75,360.0,,,,,,403.0,554.0,,,10.0,,,,,4000.0,,,60.77,,N,29.38,28.32,,Overcast
KIGQ,07/15/2016 20:35 UTC,30.04,70.16,61.52,73.15,8.05,10.0,,1.0,,,,403.0,554.0,,,10.0,,,,,4000.0,,,61.12,,N,29.39,28.33,,Rain
KIGQ,07/15/2016 20:55 UTC,30.03,70.7,62.78,73.32,4.61,20.0,,,,,,172.0,384.0,,,10.0,,,,,3800.0,,,61.7,,NNE,29.38,28.28,,Overcast
KIGQ,07/15/2016 21:15 UTC,30.03,70.88,61.52,68.81,10.36,20.0,17.27,,854.0,,,172.0,413.0,,,10.0,,,,,4100.0,,,60.08,,NNE,29.38,28.37,,Overcast
KIGQ,07/15/2016 21:35 UTC,30.03,72.14,61.34,68.81,11.5,10.0,17.27,,853.0,,,192.0,252.0,,,10.0,,,,,8500.0,,,61.29,,N,29.38,28.29,,Mostly Cloudy
KIGQ,07/15/2016 21:55 UTC,30.04,69.8,60.98,73.15,8.05,10.0,,,424.0,,,173.0,253.0,,,10.0,,,,,1700.0,,,60.77,,N,29.39,28.35,,Overcast
KIGQ,07/15/2016 22:15 UTC,30.04,69.08,60.98,73.15,8.05,40.0,16.11,,334.0,,,173.0,263.0,,,10.0,,,,,1700.0,,,60.07,,NE,29.39,28.4,,Overcast
KIGQ,07/15/2016 22:35 UTC,30.03,68.36,60.26,77.79,13.8,30.0,17.27,,404.0,,,172.0,273.0,,,10.0,,,,,2700.0,,,61.12,,NNE,29.38,28.34,,Overcast
KIGQ,07/15/2016 22:55 UTC,30.04,68.18,59.9,77.79,11.5,10.0,17.27,,334.0,,,172.0,223.0,,,10.0,,,,,2200.0,,,60.94,,N,29.39,28.36,,Overcast
KIGQ,07/15/2016 23:15 UTC,30.04,67.64,59.72,72.97,9.22,20.0,,,,,,173.0,254.0,,,10.0,,,,,1700.0,,,58.61,,NNE,29.39,28.49,,Overcast
KIGQ,07/15/2016 23:35 UTC,30.04,68.0,59.54,72.97,9.22,20.0,,,,,,203.0,264.0,,,10.0,,,,,2000.0,,,58.96,,NNE,29.39,28.47,,Overcast
KIGQ,07/15/2016 23:55 UTC,30.05,67.1,59.0,72.97,9.22,10.0,,,,,,203.0,264.0,,,10.0,,,76.82,67.1,2000.0,,,58.09,,N,29.4,28.54,,Overcast
KIGQ,07/16/2016 00:15 UTC,30.05,66.2,59.36,77.64,8.05,10.0,,13.0,,,,224.0,,,,10.0,,,,,2200.0,,,58.96,,N,29.4,28.5,,Light Rain
KIGQ,07/16/2016 00:35 UTC,30.05,66.2,59.18,77.64,8.05,360.0,,,,,,224.0,,,,10.0,,,,,2200.0,,,58.96,,N,29.4,28.5,,Overcast
KIGQ,07/16/2016 00:55 UTC,30.06,66.2,58.64,77.64,10.36,20.0,16.11,,,,,224.0,,,,10.0,,,,,2200.0,,,58.96,,NNE,29.41,28.51,,Overcast
KIGQ,07/16/2016 01:15 UTC,30.06,65.84,57.74,72.78,10.36,30.0,,,,,,224.0,,,,10.0,,,,,2200.0,,,56.8,,NNE,29.41,28.62,,Overcast
KIGQ,07/16/2016 01:35 UTC,30.06,66.02,57.92,72.78,6.91,20.0,,,,,,224.0,,,,10.0,,,,,2200.0,,,56.98,,NNE,29.41,28.61,,Overcast
KIGQ,07/16/2016 01:55 UTC,30.06,66.2,57.38,72.78,5.75,20.0,,,,,,204.0,,,,10.0,,,,,2000.0,,,57.15,,NNE,29.41,28.6,,Overcast
KIGQ,07/16/2016 02:15 UTC,30.06,66.2,57.02,72.78,8.05,10.0,,,,,,223.0,284.0,,,10.0,,,,,2200.0,,,57.15,,N,29.41,28.6,,Overcast
KIGQ,07/16/2016 02:35 UTC,30.06,65.66,56.3,72.78,6.91,40.0,,,,,,253.0,,,,10.0,,,,,2500.0,,,56.63,,NE,29.41,28.63,,Mostly Cloudy
KIGQ,07/16/2016 02:55 UTC,30.07,65.12,55.94,72.6,8.05,30.0,,,,,,252.0,,,,10.0,,,,,,,,56.04,,NNE,29.42,28.68,,Partly Cloudy
KIGQ,07/16/2016 03:15 UTC,30.08,64.94,55.94,72.6,8.05,40.0,,,,,,252.0,,,,10.0,,,,,,,,55.87,,NE,29.43,28.7,,Partly Cloudy
KIGQ,07/16/2016 03:35 UTC,30.08,64.4,55.94,72.6,4.61,60.0,,,,,,252.0,,,,10.0,,,,,,,,55.35,,ENE,29.43,28.73,,Partly Cloudy
KIGQ,07/16/2016 03:55 UTC,30.09,64.4,55.94,72.6,4.61,50.0,,,,,,253.0,,,,10.0,,,,,2500.0,,,55.35,,NE,29.44,28.74,,Mostly Cloudy
KIGQ,07/16/2016 04:15 UTC,30.09,64.04,55.76,72.6,5.75,40.0,,,,,,252.0,,,,10.0,,,,,,,,55.0,,NE,29.44,28.75,,Partly Cloudy
KIGQ,07/16/2016 04:35 UTC,30.1,63.86,54.86,72.6,4.61,60.0,,,,,,1.0,,,,10.0,,,,,,,,54.83,,ENE,29.45,28.77,,Clear
KIGQ,07/16/2016 04:55 UTC,30.1,63.68,54.5,72.6,3.44,40.0,,,,,,1.0,,,,10.0,,,,,,,,54.65,,NE,29.45,28.78,,Clear
KIGQ,07/16/2016 05:15 UTC,30.1,63.32,54.5,77.33,0.0,0.0,,,,,,282.0,,,,10.0,,,,,,,,56.05,,N,29.45,28.73,,Partly Cloudy
KIGQ,07/16/2016 05:35 UTC,30.1,63.14,54.5,77.33,3.44,30.0,,,,,,282.0,,,,10.0,,,,,,,,55.88,,NNE,29.45,28.74,,Partly Cloudy
KIGQ,07/16/2016 05:55 UTC,30.09,62.6,54.5,77.33,4.61,30.0,,,,,,282.0,,,,10.0,,,67.1,62.6,,78.62,62.6,55.35,,NNE,29.44,28.75,,Partly Cloudy
KIGQ,07/16/2016 06:15 UTC,30.09,62.6,54.5,77.33,3.44,20.0,,,,,,1.0,,,,10.0,,,,,,,,55.35,,NNE,29.44,28.75,,Clear
KIGQ,07/16/2016 06:35 UTC,30.1,62.96,54.68,77.33,0.0,0.0,,,,,,1.0,,,,10.0,,,,,,,,55.7,,N,29.45,28.75,,Clear
KIGQ,07/16/2016 06:55 UTC,30.1,62.24,55.04,77.33,0.0,0.0,,,,,,313.0,,,,10.0,,,,,3100.0,,,55.0,,N,29.45,28.78,,Mostly Cloudy
KIGQ,07/16/2016 07:15 UTC,30.1,62.96,55.04,77.33,0.0,0.0,,,,,,313.0,,,,10.0,,,,,3100.0,,,55.7,,N,29.45,28.75,,Mostly Cloudy
KIGQ,07/16/2016 07:35 UTC,30.1,60.08,55.4,82.4,0.0,0.0,,,,,,312.0,,,,10.0,,,,,,,,54.66,,N,29.45,28.82,,Partly Cloudy
KIGQ,07/16/2016 08:00 UTC,30.11,61.7,55.76,77.33,0.0,0.0,,,,,,1.0,,,,10.0,,,,,,,,54.48,,N,29.46,28.82,,Clear
KIGQ,07/16/2016 08:15 UTC,30.11,61.88,55.58,77.33,3.44,330.0,,,,,,1.0,,,,10.0,,,,,,,,54.65,,NNW,29.46,28.81,,Clear
KIGQ,07/16/2016 08:35 UTC,30.1,62.96,55.04,77.33,0.0,0.0,,,,,,1.0,,,,10.0,,,,,,,,55.7,,N,29.45,28.75,,Clear
KIGQ,07/16/2016 08:55 UTC,30.11,63.32,54.86,77.33,0.0,0.0,,,,,,1.0,,,,10.0,,,,,,,,56.05,,N,29.46,28.74,,Clear
KIGQ,07/16/2016 09:15 UTC,30.11,62.6,55.4,77.33,0.0,0.0,,,,,,292.0,,,,10.0,,,,,,,,55.35,,N,29.46,28.78,,Partly Cloudy
KIGQ,07/16/2016 09:35 UTC,30.11,61.88,55.58,77.33,4.61,270.0,,,,,,1.0,,,,10.0,,,,,,,,54.65,,W,29.46,28.81,,Clear
KIGQ,07/16/2016 09:55 UTC,30.11,60.98,55.4,82.4,0.0,0.0,,,,,,1.0,,,,10.0,,,,,,,,55.54,,N,29.46,28.78,,Clear
KIGQ,07/16/2016 10:15 UTC,30.11,61.52,55.58,82.4,0.0,0.0,,,,,,1.0,,,,10.0,,,,,,,,56.07,,N,29.46,28.76,,Clear
KIGQ,07/16/2016 10:35 UTC,30.12,59.54,55.58,87.85,4.61,300.0,,,,,,1.0,,,,10.0,,,,,,,,55.9,,WNW,29.47,28.8,,Clear
KIGQ,07/16/2016 10:55 UTC,30.13,59.9,55.76,82.4,3.44,290.0,,,,,,1.0,,,,10.0,,,,,,,,54.48,,WNW,29.47,28.85,,Clear
KIGQ,07/16/2016 11:15 UTC,30.13,59.54,55.94,87.85,5.75,310.0,,,,,,1.0,,,,10.0,,,,,,,,55.9,,NW,29.47,28.8,,Clear
KIGQ,07/16/2016 11:35 UTC,30.14,60.08,56.48,87.94,3.44,300.0,,,,,,1.0,,,,10.0,,,,,,,,56.46,,WNW,29.48,28.77,,Clear
KIGQ,07/16/2016 11:55 UTC,30.14,62.6,57.2,82.52,4.61,320.0,,,,,,1.0,,,,10.0,,,63.32,59.36,,,,57.16,,NW,29.48,28.71,,Clear
KIGQ,07/16/2016 12:15 UTC,30.14,64.58,57.38,77.48,4.61,320.0,,,,,,1.0,,,,10.0,,,,,,,,57.33,,NW,29.48,28.68,,Clear
KIGQ,07/16/2016 12:35 UTC,30.14,66.38,57.38,72.78,4.61,350.0,,,,,,1.0,,,,10.0,,,,,,,,57.33,,N,29.48,28.66,,Clear
KIGQ,07/16/2016 12:55 UTC,30.15,67.46,56.84,68.41,8.05,20.0,,,,,,1.0,,,,10.0,,,,,,,,56.64,,NNE,29.49,28.69,,Clear
KIGQ,07/16/2016 13:15 UTC,30.15,68.36,56.48,68.41,4.61,20.0,,,,,,1.0,,,,10.0,,,,,,,,57.5,,NNE,29.49,28.64,,Clear
KIGQ,07/16/2016 13:35 UTC,30.15,69.98,55.76,60.27,5.75,40.0,,,,,,303.0,,,,10.0,,,,,3000.0,,,55.52,,NE,29.49,28.72,,Mostly Cloudy
KIGQ,07/16/2016 13:55 UTC,30.15,70.52,53.96,56.44,3.44,30.0,,,,,,323.0,,,,10.0,,,,,3200.0,,,54.22,,NNE,29.49,28.78,,Mostly Cloudy
KIGQ,07/16/2016 14:15 UTC,30.15,70.16,54.14,56.44,4.61,30.0,,,,,,343.0,423.0,,,10.0,,,,,3400.0,,,53.88,,NNE,29.49,28.8,,Mostly Cloudy
KIGQ,07/16/2016 14:35 UTC,30.15,69.44,53.78,56.44,4.61,50.0,,,,,,343.0,423.0,,,10.0,,,,,3400.0,,,53.2,,NE,29.49,28.83,,Mostly Cloudy
KIGQ,07/16/2016 14:55 UTC,30.16,70.7,53.24,53.1,3.44,40.0,,,,,,364.0,,,,10.0,,,,,3600.0,,,52.71,,NE,29.5,28.85,,Overcast
KIGQ,07/16/2016 15:15 UTC,30.16,71.6,53.96,53.1,5.75,80.0,,,,,,363.0,,,,10.0,,,,,3600.0,,,53.55,,E,29.5,28.81,,Mostly Cloudy
KIGQ,07/16/2016 15:35 UTC,30.17,70.34,53.06,56.44,5.75,80.0,,,,,,362.0,,,,10.0,,,,,,,,54.05,,E,29.51,28.81,,Partly Cloudy
KIGQ,07/16/2016 15:55 UTC,30.17,71.78,54.14,53.1,6.91,70.0,,,,,,403.0,483.0,,,10.0,,,,,4000.0,,,53.72,,ENE,29.51,28.81,,Mostly Cloudy
KIGQ,07/16/2016 16:15 UTC,30.17,71.78,53.96,53.1,8.05,60.0,,,,,,402.0,482.0,,,10.0,,,,,,,,53.72,,ENE,29.51,28.81,,Partly Cloudy
KIGQ,07/16/2016 16:35 UTC,30.17,72.14,53.42,53.1,6.91,360.0,,,,,,402.0,,,,10.0,,,,,,,,54.06,,N,29.51,28.79,,Partly Cloudy
KIGQ,07/16/2016 16:55 UTC,30.16,71.96,53.24,53.1,5.75,60.0,9.22,,,,,403.0,,,,10.0,,,,,4000.0,,,53.89,,ENE,29.5,28.79,,Mostly Cloudy
KIGQ,07/16/2016 17:15 UTC,30.16,72.68,53.78,49.97,10.36,40.0,,,,,,402.0,,,,10.0,,,,,,,,52.89,,NE,29.5,28.83,,Partly Cloudy
KIGQ,07/16/2016 17:35 UTC,30.16,73.94,54.68,53.36,5.75,40.0,,,,,,433.0,,,,10.0,,,,,4300.0,,,55.87,,NE,29.5,28.68,,Mostly Cloudy
KIGQ,07/16/2016 17:55 UTC,30.15,73.58,53.96,49.97,8.05,70.0,,,,,,432.0,,,,10.0,,,74.48,62.78,,,,53.73,,ENE,29.49,28.77,,Partly Cloudy
KIGQ,07/16/2016 18:15 UTC,30.15,74.12,53.78,49.97,5.75,110.0,,,,,,432.0,,,,10.0,,,,,,,,54.23,,ESE,29.49,28.74,,Partly Cloudy
KIGQ,07/16/2016 18:35 UTC,30.15,74.12,52.7,49.97,3.44,20.0,,,,,,433.0,,,,10.0,,,,,4300.0,,,54.23,,NNE,29.49,28.74,,Mostly Cloudy
KIGQ,07/16/2016 18:55 UTC,30.15,72.5,52.7,49.97,6.91,80.0,,,,,,453.0,,,,10.0,,,,,4500.0,,,52.73,,E,29.49,28.83,,Mostly Cloudy
KIGQ,07/16/2016 19:15 UTC,30.14,72.86,52.7,49.97,3.44,30.0,,,,,,453.0,503.0,,,10.0,,,,,4500.0,,,53.06,,NNE,29.48,28.8,,Mostly Cloudy
KIGQ,07/16/2016 19:35 UTC,30.14,75.02,52.7,47.06,4.61,120.0,,,,,,453.0,,,,10.0,,,,,4500.0,,,53.41,,ESE,29.48,28.76,,Mostly Cloudy
KIGQ,07/16/2016 19:55 UTC,30.14,76.46,53.6,44.33,3.44,40.0,,,,,,492.0,,,,10.0,,,,,,,,53.1,,NE,29.48,28.77,,Partly Cloudy
KIGQ,07/16/2016 20:15 UTC,30.13,75.74,52.52,44.05,6.91,50.0,,,,,,1.0,,,,10.0,,,,,,,,52.27,,NE,29.47,28.8,,Clear
KIGQ,07/16/2016 20:35 UTC,30.13,75.92,52.7,47.06,6.91,60.0,,,,,,1.0,,,,10.0,,,,,,,,54.24,,ENE,29.47,28.71,,Clear
KIGQ,07/16/2016 20:55 UTC,30.13,76.28,52.16,41.49,8.05,110.0,,,,,,1.0,,,,10.0,,,,,,,,51.14,,ESE,29.47,28.84,,Clear
KIGQ,07/16/2016 21:15 UTC,30.12,75.56,51.26,44.05,6.91,40.0,,,,,,1.0,,,,10.0,,,,,,,,52.1,,NE,29.47,28.81,,Clear
KIGQ,07/16/2016 21:35 UTC,30.11,75.38,51.26,44.05,5.75,40.0,,,,,,1.0,,,,10.0,,,,,,,,51.94,,NE,29.46,28.81,,Clear
KIGQ,07/16/2016 21:55 UTC,30.11,75.92,51.08,44.05,5.75,60.0,,,,,,1.0,,,,10.0,,,,,,,,52.43,,ENE,29.46,28.78,,Clear
KIGQ,07/16/2016 22:15 UTC,30.11,75.56,51.62,44.05,9.22,50.0,,,,,,1.0,,,,10.0,,,,,,,,52.1,,NE,29.46,28.8,,Clear
KIGQ,07/16/2016 22:35 UTC,30.11,75.56,51.62,44.05,5.75,60.0,,,,,,1.0,,,,10.0,,,,,,,,52.1,,ENE,29.46,28.8,,Clear
KIGQ,07/16/2016 22:55 UTC,30.11,75.56,51.08,44.05,8.05,80.0,,,,,,1.0,,,,10.0,,,,,,,,52.1,,E,29.46,28.8,,Clear
KIGQ,07/16/2016 23:15 UTC,30.1,75.74,51.98,44.05,5.75,90.0,,,,,,1.0,,,,10.0,,,,,,,,52.27,,E,29.45,28.78,,Clear
KIGQ,07/16/2016 23:35 UTC,30.1,74.84,51.26,44.05,6.91,100.0,,,,,,1.0,,,,10.0,,,,,,,,51.45,,E,29.45,28.82,,Clear
KIGQ,07/16/2016 23:55 UTC,30.1,74.66,51.44,44.05,5.75,110.0,,,,,,1.0,,,,10.0,,,76.46,72.14,,,,51.28,,ESE,29.45,28.83,,Clear
KIGQ,07/17/2016 00:15 UTC,30.1,73.94,50.9,46.78,6.91,110.0,,,,,,1.0,,,,10.0,,,,,,,,52.26,,ESE,29.45,28.79,,Clear
KIGQ,07/17/2016 00:35 UTC,30.1,72.86,50.9,46.78,6.91,100.0,,,,,,1.0,,,,10.0,,,,,,,,51.26,,E,29.45,28.84,,Clear
KIGQ,07/17/2016 00:55 UTC,30.11,72.32,50.54,46.5,5.75,80.0,,,,,,1.0,,,,10.0,,,,,,,,50.61,,E,29.46,28.89,,Clear
KIGQ,07/17/2016 01:15 UTC,30.11,70.16,50.9,52.83,5.75,90.0,,,,,,1.0,,,,10.0,,,,,,,,52.07,,E,29.46,28.84,,Clear
KIGQ,07/17/2016 01:35 UTC,30.11,69.26,50.9,52.83,4.61,100.0,,,,,,1.0,,,,10.0,,,,,,,,51.23,,E,29.46,28.89,,Clear
KIGQ,07/17/2016 01:55 UTC,30.11,67.64,51.08,56.19,5.75,90.0,,,,,,1.0,,,,10.0,,,,,,,,51.4,,E,29.46,28.89,,Clear
KIGQ,07/17/2016 02:15 UTC,30.11,69.26,50.9,52.83,0.0,0.0,,,,,,1.0,,,,10.0,,,,,,,,51.23,,N,29.46,28.89,,Clear
KIGQ,07/17/2016 02:35 UTC,30.11,66.92,51.8,59.79,0.0,0.0,,,,,,1.0,,,,10.0,,,,,,,,52.41,,N,29.46,28.86,,Clear
KIGQ,07/17/2016 02:55 UTC,30.12,66.02,52.16,59.79,4.61,130.0,,,,,,1.0,,,,10.0,,,,,,,,51.56,,SE,29.47,28.91,,Clear
KIGQ,07/17/2016 03:15 UTC,30.12,65.66,52.34,59.79,0.0,0.0,,,,,,1.0,,,,10.0,,,,,,,,51.22,,N,29.47,28.93,,Clear
KIGQ,07/17/2016 03:35 UTC,30.11,66.02,52.16,59.79,0.0,0.0,,,,,,1.0,,,,10.0,,,,,,,,51.56,,N,29.46,28.9,,Clear
KIGQ,07/17/2016 03:55 UTC,30.11,63.14,52.34,67.79,3.44,140.0,,,,,,1.0,,,,10.0,,,,,,,,52.25,,SE,29.46,28.9,,Clear
KIGQ,07/17/2016 04:15 UTC,30.1,64.76,51.8,63.64,4.61,140.0,,,,,,1.0,,,,10.0,,,,,,,,52.07,,SE,29.45,28.88,,Clear
KIGQ,07/17/2016 04:35 UTC,30.1,64.76,50.9,63.64,4.61,140.0,,,,,,1.0,,,,10.0,,,,,,,,52.07,,SE,29.45,28.88,,Clear
KIGQ,07/17/2016 04:55 UTC,30.1,63.68,50.9,63.64,4.61,160.0,,,,,,1.0,,,,10.0,,,,,,,,51.04,,SSE,29.45,28.93,,Clear
KIGQ,07/17/2016 05:15 UTC,30.1,62.6,51.44,67.79,0.0,0.0,,,,,,1.0,,,,10.0,,,,,,,,51.73,,N,29.45,28.92,,Clear
KIGQ,07/17/2016 05:35 UTC,30.1,63.68,50.72,59.54,3.44,150.0,,,,,,1.0,,,,10.0,,,,,,,,49.24,,SSE,29.45,29.0,,Clear
KIGQ,07/17/2016 05:55 UTC,30.11,62.42,50.9,67.79,0.0,0.0,,,,,,1.0,,,,10.0,,,74.66,61.88,,76.46,59.36,51.56,,N,29.46,28.94,,Clear
KIGQ,07/17/2016 06:15 UTC,30.11,62.78,50.36,63.42,3.44,140.0,,,,,,1.0,,,,10.0,,,,,,,,50.09,,SE,29.46,28.99,,Clear
KIGQ,07/17/2016 06:35 UTC,30.11,62.06,50.9,67.79,0.0,0.0,,,,,,1.0,,,,10.0,,,,,,,,51.21,,N,29.46,28.95,,Clear
KIGQ,07/17/2016 06:55 UTC,30.11,61.34,51.08,72.23,3.44,170.0,,,,,,1.0,,,,10.0,,,,,,,,52.25,,S,29.46,28.92,,Clear
KIGQ,07/17/2016 07:15 UTC,30.1,60.98,50.9,72.23,3.44,150.0,,,,,,1.0,,,,10.0,,,,,,,,51.91,,SSE,29.45,28.93,,Clear
KIGQ,07/17/2016 07:35 UTC,30.09,61.88,51.44,67.79,3.44,160.0,,,,,,1.0,,,,10.0,,,,,,,,51.04,,SSE,29.44,28.94,,Clear
KIGQ,07/17/2016 07:55 UTC,30.09,61.7,50.9,67.79,3.44,160.0,,,,,,1.0,,,,10.0,,,,,,,,50.87,,SSE,29.44,28.95,,Clear
KIGQ,07/17/2016 08:15 UTC,30.1,61.7,50.9,67.79,3.44,170.0,,,,,,1.0,,,,10.0,,,,,,,,50.87,,S,29.45,28.96,,Clear
KIGQ,07/17/2016 08:35 UTC,30.09,60.8,51.08,72.23,3.44,150.0,,,,,,1.0,,,,10.0,,,,,,,,51.73,,SSE,29.44,28.92,,Clear
KIGQ,07/17/2016 08:55 UTC,30.07,62.96,51.08,67.79,5.75,150.0,,,,,,1.0,,,,10.0,,,,,,,,52.08,,SSE,29.42,28.87,,Clear
KIGQ,07/17/2016 09:15 UTC,30.07,63.32,50.9,67.79,4.61,140.0,,,,,,1.0,,,,10.0,,,,,,,,52.42,,SE,29.42,28.85,,Clear
KIGQ,07/17/2016 09:35 UTC,30.08,63.5,51.8,63.64,5.75,150.0,,,,,,1.0,,,,10.0,,,,,,,,50.87,,SSE,29.43,28.92,,Clear
KIGQ,07/17/2016 09:55 UTC,30.07,62.96,52.16,67.79,6.91,160.0,,,,,,1.0,,,,10.0,,,,,,,,52.08,,SSE,29.42,28.87,,Clear
KIGQ,07/17/2016 10:15 UTC,30.08,62.96,52.7,72.42,5.75,160.0,,,,,,1.0,,,,10.0,,,,,,,,53.89,,SSE,29.43,28.8,,Clear
KIGQ,07/17/2016 10:35 UTC,30.09,62.96,53.06,72.42,3.44,170.0,,,,,,1.0,,,,10.0,,,,,,,,53.89,,S,29.44,28.81,,Clear
KIGQ,07/17/2016 10:55 UTC,30.1,63.14,53.96,72.42,4.61,160.0,,,,,,412.0,,,,10.0,,,,,,,,54.06,,SSE,29.45,28.82,,Partly Cloudy
KIGQ,07/17/2016 11:15 UTC,30.1,63.86,55.04,72.6,4.61,160.0,,,,,,432.0,492.0,,,10.0,,,,,,,,54.83,,SSE,29.45,28.77,,Partly Cloudy
KIGQ,07/17/2016 11:35 UTC,30.1,64.94,55.94,72.6,4.61,160.0,,,,,,1.0,,,,10.0,,,,,,,,55.87,,SSE,29.45,28.72,,Clear
KIGQ,07/17/2016 11:55 UTC,30.08,66.38,57.02,72.78,8.05,160.0,,,,,,1.0,,,,10.0,,,66.38,60.26,,,,57.33,,SSE,29.43,28.61,,Clear
KIGQ,07/17/2016 12:15 UTC,30.08,68.0,57.92,68.41,8.05,170.0,,,,,,442.0,652.0,,,10.0,,,,,,,,57.15,,S,29.43,28.6,,Partly Cloudy
KIGQ,07/17/2016 12:35 UTC,30.08,68.9,58.64,68.61,9.22,170.0,,,,,,422.0,602.0,,,10.0,,,,,,,,58.1,,S,29.43,28.55,,Partly Cloudy
KIGQ,07/17/2016 12:55 UTC,30.08,69.26,59.0,68.61,11.5,180.0,,,652.0,,,402.0,503.0,,,10.0,,,,,5000.0,,,58.44,,S,29.43,28.52,,Partly Cloudy
KIGQ,07/17/2016 13:15 UTC,30.08,69.62,60.08,73.15,10.36,180.0,,,803.0,,,503.0,653.0,,,10.0,,,,,5000.0,,,60.6,,S,29.43,28.41,,Mostly Cloudy
KIGQ,07/17/2016 13:35 UTC,30.08,69.26,60.26,73.15,11.5,180.0,,,953.0,,,502.0,602.0,,,10.0,,,,,9500.0,,,60.25,,S,29.43,28.43,,Mostly Cloudy
KIGQ,07/17/2016 13:55 UTC,30.08,68.9,60.44,73.15,11.5,190.0,,,,,,1.0,,,,10.0,,,,,,,,59.9,,S,29.43,28.45,,Clear
KIGQ,07/17/2016 14:15 UTC,30.07,68.9,60.98,73.15,12.66,180.0,,,,,,702.0,802.0,,,10.0,,,,,,,,59.9,,S,29.42,28.44,,Partly Cloudy
KIGQ,07/17/2016 14:35 UTC,30.06,69.44,61.7,77.94,12.66,180.0,,5.0,,,,603.0,1203.0,,,10.0,,,,,6000.0,,,62.22,,S,29.41,28.3,,Thunder
KIGQ,07/17/2016 14:55 UTC,30.07,67.64,63.32,82.89,17.27,190.0,21.85,78.0,554.0,0.22,0.22,162.0,333.0,,,1.25,,,,,3300.0,,,62.22,,S,29.42,28.33,,Heavy Rain/Thunderstorm
KIGQ,07/17/2016 15:15 UTC,30.05,67.46,64.22,88.29,13.8,180.0,,,1004.0,0.01,,162.0,322.0,,,10.0,,,,,10000.0,,,63.85,,S,29.4,28.22,,Overcast
KIGQ,07/17/2016 15:35 UTC,30.04,67.82,64.76,88.29,17.27,180.0,,1.0,1204.0,0.02,,802.0,1003.0,,,10.0,,,,,10000.0,,,64.21,,S,29.39,28.18,,Rain
KIGQ,07/17/2016 15:55 UTC,30.03,68.18,64.58,88.29,12.66,180.0,,13.0,1104.0,0.02,,282.0,903.0,,,10.0,,,,,9000.0,,,64.56,,S,29.38,28.14,,Light Rain
KIGQ,07/17/2016 16:15 UTC,30.0,68.36,64.22,88.29,16.11,160.0,20.71,,,,,802.0,1002.0,,,10.0,,,,,,,,64.74,,SSE,29.35,28.1,,Partly Cloudy
KIGQ,07/17/2016 16:35 UTC,29.99,69.8,64.76,83.01,12.66,170.0,,,,,,1.0,,,,10.0,,,,,,,,64.38,,S,29.34,28.09,,Clear
KIGQ,07/17/2016 16:55 UTC,30.01,71.24,64.76,78.09,16.11,170.0,19.57,,,,,1.0,,,,10.0,,,,,,,,64.03,,S,29.36,28.12,,Clear
KIGQ,07/17/2016 17:15 UTC,30.02,72.32,65.84,83.13,12.66,190.0,,,,,,1.0,,,,10.0,,,,,,,,66.89,,S,29.37,27.93,,Clear
KIGQ,07/17/2016 17:35 UTC,30.03,73.04,65.66,78.24,11.5,190.0,19.57,,,,,1.0,,,,10.0,,,,,,,,65.83,,S,29.38,28.0,,Clear
KIGQ,07/17/2016 17:55 UTC,30.04,73.58,65.48,78.24,12.66,200.0,19.57,,,,,1.0,,0.25,,10.0,,,73.58,66.38,,,,66.36,,SSW,29.39,27.97,,Clear
KIGQ,07/17/2016 18:15 UTC,30.04,75.2,66.02,73.67,13.8,200.0,23.02,,,,,1.0,,,,10.0,,,,,,,,66.19,,SSW,29.39,27.96,,Clear
KIGQ,07/17/2016 18:35 UTC,30.03,76.1,66.38,69.4,13.8,200.0,20.71,,,,,1.0,,,,10.0,,,,,,,,65.33,,SSW,29.38,28.0,,Clear
KIGQ,07/17/2016 18:55 UTC,30.02,77.72,67.46,73.85,16.11,220.0,20.71,,,,,1.0,,,,10.0,,,,,,,,68.69,,SW,29.37,27.73,,Clear
KIGQ,07/17/2016 19:15 UTC,30.02,79.52,67.82,69.6,13.8,220.0,19.57,,,,,1.0,,,,10.0,,,,,,,,68.7,,SW,29.37,27.71,,Clear
KIGQ,07/17/2016 19:35 UTC,30.02,79.88,67.82,65.62,11.5,220.0,18.41,,,,,1.0,,,,10.0,,,,,,,,67.33,,SW,29.37,27.8,,Clear
KIGQ,07/17/2016 19:55 UTC,30.02,80.96,67.64,65.62,14.97,240.0,,,,,,1.0,,,,10.0,,,,,,,,68.36,,WSW,29.37,27.72,83.85,Clear
KIGQ,07/17/2016 20:15 UTC,30.01,80.78,68.18,65.62,14.97,210.0,,,,,,1.0,,,,10.0,,,,,,,,68.19,,SSW,29.36,27.72,83.57,Clear
KIGQ,07/17/2016 20:35 UTC,30.0,82.4,68.36,61.9,17.27,210.0,23.02,,,,,1.0,,,,10.0,,,,,,,,68.03,,SSW,29.35,27.7,85.4,Clear
KIGQ,07/17/2016 20:55 UTC,30.01,82.94,68.54,61.9,17.27,220.0,24.16,,,,,1.0,,,,10.0,,,,,,,,68.54,,SW,29.36,27.67,86.25,Clear
KIGQ,07/17/2016 21:15 UTC,30.0,82.4,68.54,61.9,20.71,220.0,26.46,,,,,352.0,,,,10.0,,,,,,,,68.03,,SW,29.35,27.7,85.4,Partly Cloudy
KIGQ,07/17/2016 21:35 UTC,29.99,81.5,69.08,65.83,16.11,210.0,,,,,,1.0,,,,10.0,,,,,,,,68.97,,SSW,29.34,27.64,84.73,Clear
KIGQ,07/17/2016 21:55 UTC,29.98,81.5,69.8,65.83,13.8,200.0,21.85,,,,,1.0,,,,10.0,,,,,,,,68.97,,SSW,29.33,27.63,84.73,Clear
KIGQ,07/17/2016 22:15 UTC,30.0,82.58,70.34,65.83,18.41,220.0,23.02,,,,,292.0,,,,10.0,,,,,,,,70.0,,SW,29.35,27.55,86.55,Partly Cloudy
KIGQ,07/17/2016 22:35 UTC,29.99,82.4,70.7,69.98,19.57,210.0,25.32,,,,,293.0,,,,10.0,,,,,2900.0,,,71.62,,SSW,29.34,27.42,87.19,Mostly Cloudy
KIGQ,07/17/2016 22:55 UTC,29.99,82.58,71.6,69.98,16.11,220.0,21.85,,,,,272.0,,,,10.0,,,,,,,,71.8,,SW,29.34,27.4,87.55,Partly Cloudy
KIGQ,07/17/2016 23:15 UTC,29.98,81.86,72.5,74.36,17.27,200.0,,,,,,372.0,,,,10.0,,,,,,,,72.9,,SSW,29.33,27.31,87.13,Partly Cloudy
KIGQ,07/17/2016 23:35 UTC,29.99,81.86,72.5,74.36,9.22,210.0,18.41,,,,,1.0,,,,10.0,,,,,,,,72.9,,SSW,29.34,27.32,87.13,Clear
KIGQ,07/17/2016 23:55 UTC,29.99,81.86,72.86,74.36,11.5,210.0,,,,,,1.0,,,,10.0,,,83.66,73.58,,,,72.9,,SSW,29.34,27.32,87.13,Clear
KIGQ,07/18/2016 00:15 UTC,29.99,81.86,73.4,74.36,8.05,230.0,,,,,,1.0,,,,10.0,,,,,,,,72.9,,SW,29.34,27.32,87.13,Clear
KIGQ,07/18/2016 00:35 UTC,29.99,81.5,73.58,74.36,6.91,210.0,,,,,,1.0,,,,10.0,,,,,,,,72.55,,SSW,29.34,27.35,86.38,Clear
KIGQ,07/18/2016 00:55 UTC,29.99,80.42,73.76,78.82,4.61,200.0,,,,,,1.0,,,,10.0,,,,,,,,73.23,,SSW,29.34,27.31,84.95,Clear
KIGQ,07/18/2016 01:15 UTC,30.0,78.62,73.4,83.6,4.61,200.0,,,,,,1.0,,,,10.0,,,,,,,,73.23,,SSW,29.35,27.35,,Clear
KIGQ,07/18/2016 01:35 UTC,30.0,77.54,73.22,88.7,3.44,200.0,,,,,,292.0,,,,10.0,,,,,,,,73.93,,SSW,29.35,27.3,,Partly Cloudy
KIGQ,07/18/2016 01:55 UTC,30.0,77.18,73.22,88.7,5.75,200.0,,,,,,312.0,,,,10.0,,,,,,,,73.58,,SSW,29.35,27.34,,Partly Cloudy
KIGQ,07/18/2016 02:15 UTC,30.01,78.98,73.4,83.6,6.91,210.0,,,952.0,,,312.0,502.0,,,10.0,,,,,,,,73.58,,SSW,29.36,27.32,,Partly Cloudy
KIGQ,07/18/2016 02:35 UTC,30.02,78.8,73.4,83.6,8.05,220.0,,,,,,502.0,,,,10.0,,,,,,,,73.4,,SW,29.37,27.35,,Partly Cloudy
KIGQ,07/18/2016 02:55 UTC,30.03,78.98,72.86,83.6,17.27,230.0,20.71,5.0,473.0,,,222.0,342.0,,,10.0,,,,,4700.0,,,73.58,,SW,29.38,27.34,,Thunder
KIGQ,07/18/2016 03:15 UTC,30.03,76.64,68.0,73.85,12.66,210.0,21.85,5.0,753.0,,,252.0,472.0,,,10.0,,,,,7500.0,,,67.65,,SSW,29.38,27.83,,Thunder
KIGQ,07/18/2016 03:35 UTC,30.05,74.3,69.08,83.37,9.22,230.0,,66.0,,,,702.0,1103.0,,,10.0,,,,,11000.0,,,68.91,,SW,29.4,27.79,,Thunderstorm
KIGQ,07/18/2016 03:55 UTC,30.05,73.76,67.82,83.25,11.5,220.0,18.41,78.0,853.0,0.01,,342.0,552.0,,,2.5,,,,,8500.0,,,68.34,,SW,29.4,27.84,,Heavy Rain/Thunderstorm
KIGQ,07/18/2016 04:15 UTC,30.03,72.68,66.56,78.24,0.0,0.0,,78.0,703.0,0.03,,342.0,472.0,,,7.0,,,,,7000.0,,,65.48,,N,29.38,28.03,,Heavy Rain/Thunderstorm
KIGQ,07/18/2016 04:35 UTC,30.03,71.24,67.1,88.46,5.75,320.0,,78.0,1104.0,0.1,,272.0,453.0,,,10.0,,,,,4500.0,,,67.64,,NW,29.38,27.9,,Heavy Rain/Thunderstorm
KIGQ,07/18/2016 04:55 UTC,30.05,71.6,67.28,88.46,13.8,200.0,20.71,,604.0,0.12,,413.0,493.0,,,10.0,,,,,4100.0,,,67.99,,SSW,29.4,27.9,,Overcast
KIGQ,07/18/2016 05:15 UTC,30.04,70.7,68.0,88.46,17.27,190.0,,,904.0,0.11,,172.0,433.0,,,10.0,,,,,4300.0,,,67.1,,S,29.39,27.96,,Overcast
KIGQ,07/18/2016 05:35 UTC,30.04,70.88,67.28,88.46,10.36,190.0,,5.0,1204.0,0.11,,482.0,803.0,,,10.0,,,,,8000.0,,,67.28,,S,29.39,27.94,,Thunder
KIGQ,07/18/2016 05:55 UTC,30.1,69.8,66.74,88.37,9.22,330.0,,77.0,804.0,0.19,,292.0,603.0,0.32,,5.0,,,81.86,69.8,6000.0,83.66,60.26,66.19,,NNW,29.45,28.09,,Light Rain/Thunderstorm
KIGQ,07/18/2016 06:15 UTC,30.07,71.6,67.64,88.46,0.0,0.0,,77.0,354.0,0.09,,172.0,272.0,,,7.0,,,,,3500.0,,,67.99,,N,29.42,27.92,,Light Rain/Thunderstorm
KIGQ,07/18/2016 06:35 UTC,30.06,71.24,68.0,88.46,8.05,160.0,,17.0,1204.0,0.09,,352.0,703.0,,,10.0,,,,,7000.0,,,67.64,,SSE,29.41,27.93,,Light Drizzle
KIGQ,07/18/2016 06:55 UTC,30.06,70.34,67.28,94.03,6.91,200.0,,,753.0,0.09,,502.0,703.0,,,10.0,,,,,7000.0,,,68.53,,SSW,29.41,27.89,,Mostly Cloudy
KIGQ,07/18/2016 07:15 UTC,30.06,70.34,67.1,94.03,8.05,190.0,,5.0,,,,502.0,1103.0,,,10.0,,,,,11000.0,,,68.53,,S,29.41,27.89,,Thunder
KIGQ,07/18/2016 07:35 UTC,30.06,70.16,66.92,88.37,8.05,180.0,,5.0,1103.0,,,412.0,502.0,,,10.0,,,,,11000.0,,,66.54,,S,29.41,28.02,,Thunder
KIGQ,07/18/2016 07:55 UTC,30.06,69.62,66.56,88.37,3.44,160.0,,,,,,1.0,,,,10.0,,,,,,,,66.01,,SSE,29.41,28.06,,Clear
KIGQ,07/18/2016 08:15 UTC,30.06,68.9,66.2,88.37,5.75,180.0,,5.0,,,,1.0,,,,10.0,,,,,,,,65.3,,S,29.41,28.12,,Thunder
KIGQ,07/18/2016 08:35 UTC,30.05,68.18,65.66,93.98,3.44,200.0,,,,,,1.0,,,,10.0,,,,,,,,66.37,,SSW,29.4,28.05,,Clear
KIGQ,07/18/2016 08:55 UTC,30.04,67.46,65.3,93.98,0.0,0.0,,,,,0.09,1.0,,,,10.0,,,,,,,,65.65,,N,29.39,28.1,,Clear
KIGQ,07/18/2016 09:15 UTC,30.04,67.64,65.66,93.98,0.0,0.0,,,,,,1.0,,,,10.0,,,,,,,,65.83,,N,29.39,28.08,,Clear
KIGQ,07/18/2016 09:35 UTC,30.05,67.64,66.2,93.98,0.0,0.0,,,,,,1.0,,,,10.0,,,,,,,,65.83,,N,29.4,28.09,,Clear
KIGQ,07/18/2016 09:55 UTC,30.06,66.56,65.66,100.0,3.44,220.0,,,,,,1.0,,,,7.0,,,,,,,,66.56,,SW,29.41,28.07,,Clear
KIGQ,07/18/2016 10:15 UTC,30.08,66.56,65.84,100.0,4.61,190.0,,31.0,,,,1.0,,,,5.0,,,,,,,,66.56,,S,29.43,28.09,,Mist
KIGQ,07/18/2016 10:35 UTC,30.09,67.1,66.38,93.98,3.44,220.0,,,,,,1.0,,,,10.0,,,,,,,,65.3,,SW,29.44,28.17,,Clear
KIGQ,07/18/2016 10:55 UTC,30.08,67.1,66.56,93.98,3.44,200.0,,,,,,1.0,,,,10.0,,,,,,,,65.3,,SSW,29.43,28.16,,Clear
KIGQ,07/18/2016 11:15 UTC,30.1,66.92,66.2,100.0,0.0,0.0,,,,,,1.0,,,,10.0,,,,,,,,66.92,,N,29.45,28.08,,Clear
KIGQ,07/18/2016 11:35 UTC,30.11,68.0,67.1,100.0,3.44,240.0,,,,,,1.0,,,,10.0,,,,,,,,68.0,,WSW,29.46,28.01,,Clear
KIGQ,07/18/2016 11:55 UTC,30.12,69.08,67.46,94.03,4.61,270.0,,,,,,1.0,,0.09,0.66,7.0,,,71.96,65.84,,,,67.28,,W,29.47,28.05,,Clear
KIGQ,07/18/2016 12:15 UTC,30.11,70.7,67.82,88.46,3.44,250.0,,,,,,1.0,,,,10.0,,,,,,,,67.1,,WSW,29.46,28.03,,Clear
KIGQ,07/18/2016 12:35 UTC,30.11,71.96,68.18,88.46,0.0,0.0,,,,,,1.0,,,,10.0,,,,,,,,68.35,,N,29.46,27.93,,Clear
KIGQ,07/18/2016 12:55 UTC,30.11,73.04,68.9,88.54,6.91,270.0,,,,,,1.0,,,,10.0,,,,,,,,69.44,,W,29.46,27.83,,Clear
KIGQ,07/18/2016 13:15 UTC,30.12,74.3,69.62,83.37,3.44,300.0,,,,,,1.0,,,,10.0,,,,,,,,68.91,,WNW,29.47,27.86,,Clear
KIGQ,07/18/2016 13:35 UTC,30.14,76.28,70.16,78.54,8.05,330.0,,,,,,1.0,,,,10.0,,,,,,,,69.1,,NNW,29.48,27.83,,Clear
KIGQ,07/18/2016 13:55 UTC,30.15,77.36,70.52,78.54,10.36,320.0,17.27,,,,,1.0,,,,10.0,,,,,,,,70.15,,NW,29.49,27.75,,Clear
KIGQ,07/18/2016 14:15 UTC,30.16,78.26,70.88,78.68,9.22,320.0,16.11,,,,,132.0,,,,10.0,,,,,,,,71.08,,NW,29.5,27.68,,Partly Cloudy
KIGQ,07/18/2016 14:35 UTC,30.17,79.16,70.52,74.02,9.22,320.0,,,,,,153.0,,,,10.0,,,,,1500.0,,,70.15,,NW,29.51,27.75,,Mostly Cloudy
KIGQ,07/18/2016 14:55 UTC,30.17,79.52,70.16,74.02,9.22,330.0,19.57,,,,,183.0,,,,10.0,,,,,1800.0,,,70.5,,NNW,29.51,27.72,,Mostly Cloudy
KIGQ,07/18/2016 15:15 UTC,30.16,81.14,70.7,74.19,3.44,10.0,,,,,,203.0,,,,10.0,,,,,2000.0,,,72.14,,N,29.5,27.55,85.63,Mostly Cloudy
KIGQ,07/18/2016 15:35 UTC,30.17,80.96,69.08,69.79,5.75,50.0,,,,,,223.0,273.0,,,10.0,,,,,2200.0,,,70.16,,NE,29.51,27.72,84.52,Mostly Cloudy
KIGQ,07/18/2016 15:55 UTC,30.17,79.34,68.0,69.6,6.91,30.0,,,,,,243.0,,,,10.0,,,,,2400.0,,,68.52,,NNE,29.51,27.87,,Mostly Cloudy
KIGQ,07/18/2016 16:15 UTC,30.19,78.8,67.1,69.6,6.91,30.0,,,,,,262.0,,,,10.0,,,,,,,,68.01,,NNE,29.53,27.93,,Partly Cloudy
KIGQ,07/18/2016 16:35 UTC,30.19,77.54,64.94,65.2,8.05,30.0,,,,,,262.0,1102.0,,,10.0,,,,,,,,64.91,,NNE,29.53,28.16,,Partly Cloudy
KIGQ,07/18/2016 16:55 UTC,30.18,77.36,64.4,65.2,9.22,80.0,,,,,,1202.0,,,,10.0,,,,,,,,64.74,,E,29.52,28.16,,Partly Cloudy
KIGQ,07/18/2016 17:15 UTC,30.18,78.08,63.5,61.44,5.75,50.0,,,,,,1.0,,,,10.0,,,,,,,,63.72,,NE,29.52,28.22,,Clear
KIGQ,07/18/2016 17:35 UTC,30.17,78.08,63.5,61.44,4.61,70.0,,,,,,1.0,,,,10.0,,,,,,,,63.72,,ENE,29.51,28.21,,Clear
KIGQ,07/18/2016 17:55 UTC,30.18,80.24,64.22,57.94,0.0,0.0,,,,,,1.0,,,,10.0,,,81.5,69.44,,,,64.08,,N,29.52,28.17,81.86,Clear
KIGQ,07/18/2016 18:15 UTC,30.17,78.98,63.5,61.44,5.75,60.0,,,,,,1.0,,,,10.0,,,,,,,,64.57,,ENE,29.51,28.14,,Clear
KIGQ,07/18/2016 18:35 UTC,30.17,80.96,64.04,57.94,5.75,110.0,,,,,,1.0,,,,10.0,,,,,,,,64.76,,ESE,29.51,28.11,82.72,Clear
KIGQ,07/18/2016 18:55 UTC,30.16,80.78,64.4,57.94,0.0,0.0,,,,,,1.0,,,,10.0,,,,,,,,64.59,,N,29.5,28.11,82.5,Clear
KIGQ,07/18/2016 19:15 UTC,30.16,81.86,65.66,58.18,3.44,110.0,,,,,,1.0,,,,10.0,,,,,,,,65.73,,ESE,29.5,28.03,83.91,Clear
KIGQ,07/18/2016 19:35 UTC,30.17,81.68,64.58,54.65,0.0,0.0,,,,,,1.0,,,,10.0,,,,,,,,63.76,,N,29.51,28.17,83.11,Clear
KIGQ,07/18/2016 19:55 UTC,30.16,83.48,64.94,51.58,4.61,310.0,,,,,,1.0,,,,10.0,,,,,,,,63.79,,NW,29.5,28.14,84.79,Clear
KIGQ,07/18/2016 20:15 UTC,30.16,82.94,64.76,54.65,0.0,0.0,,,,,,1.0,,,,10.0,,,,,,,,64.94,,N,29.5,28.07,84.7,Clear
KIGQ,07/18/2016 20:35 UTC,30.15,82.76,65.12,54.65,5.75,280.0,,,,,,1.0,,,,10.0,,,,,,,,64.77,,W,29.49,28.07,84.46,Clear
KIGQ,07/18/2016 20:55 UTC,30.15,84.02,66.2,54.9,0.0,0.0,,,,,,1.0,,,,10.0,,,,,,,,66.08,,N,29.49,27.97,86.26,Clear
KIGQ,07/18/2016 21:15 UTC,30.14,83.66,66.02,54.9,0.0,0.0,,,,,,1.0,,,,10.0,,,,,,,,65.74,,N,29.48,27.98,85.74,Clear
KIGQ,07/18/2016 21:35 UTC,30.15,82.94,66.2,58.18,3.44,210.0,,,,,,392.0,,,,10.0,,,,,,,,66.74,,SSW,29.49,27.93,85.43,Partly Cloudy
KIGQ,07/18/2016 21:55 UTC,30.16,82.76,65.84,58.18,3.44,80.0,,,503.0,,,372.0,433.0,,,10.0,,,,,4300.0,,,66.57,,E,29.5,27.96,85.17,Mostly Cloudy
KIGQ,07/18/2016 22:15 UTC,30.15,81.32,64.58,57.94,8.05,70.0,,,493.0,,,353.0,433.0,,,10.0,,,,,3500.0,,,65.1,,ENE,29.49,28.06,83.17,Mostly Cloudy
KIGQ,07/18/2016 22:35 UTC,30.16,80.6,64.04,57.94,8.05,60.0,,,604.0,,,353.0,463.0,,,10.0,,,,,3500.0,,,64.42,,ENE,29.5,28.13,82.28,Overcast
KIGQ,07/18/2016 22:55 UTC,30.16,80.78,63.86,57.94,4.61,50.0,,,603.0,,,353.0,463.0,,,10.0,,,,,3500.0,,,64.59,,NE,29.5,28.11,82.5,Mostly Cloudy
KIGQ,07/18/2016 23:15 UTC,30.16,80.6,64.04,57.94,6.91,80.0,,,603.0,,,372.0,442.0,,,10.0,,,,,6000.0,,,64.42,,E,29.5,28.13,82.28,Mostly Cloudy
KIGQ,07/18/2016 23:35 UTC,30.15,79.7,64.76,57.94,5.75,80.0,,,603.0,,,372.0,452.0,,,10.0,,,,,6000.0,,,63.57,,E,29.49,28.18,,Mostly Cloudy
KIGQ,07/18/2016 23:55 UTC,30.16,80.06,64.22,57.94,4.61,60.0,,,604.0,,,373.0,433.0,,,10.0,,,84.2,78.98,3700.0,,,63.91,,ENE,29.5,28.16,81.66,Overcast
KIGQ,07/19/2016 00:15 UTC,30.16,79.88,64.58,57.94,3.44,80.0,,,602.0,,,372.0,432.0,,,10.0,,,,,,,,63.74,,E,29.5,28.18,,Partly Cloudy
KIGQ,07/19/2016 00:35 UTC,30.16,79.7,64.94,57.94,3.44,80.0,,,,,,432.0,,,,10.0,,,,,,,,63.57,,E,29.5,28.19,,Partly Cloudy
KIGQ,07/19/2016 00:55 UTC,30.16,,,,4.61,90.0,,,,,,,,,,,,,,,,,,,,E,29.5,,,
KIGQ,07/19/2016 01:15 UTC,30.16,77.18,64.58,65.2,0.0,0.0,,,,,,1.0,,,,10.0,,,,,,,,64.57,,N,29.5,28.15,,Clear
KIGQ,07/19/2016 01:35 UTC,30.16,76.82,64.76,65.2,3.44,100.0,,,,,,1.0,,,,10.0,,,,,,,,64.22,,E,29.5,28.18,,Clear
KIGQ,07/19/2016 01:55 UTC,30.16,76.1,64.4,65.2,0.0,0.0,,,,,,1.0,,,,10.0,,,,,,,,63.54,,N,29.5,28.23,,Clear
KIGQ,07/19/2016 02:15 UTC,30.17,75.2,63.86,69.21,0.0,0.0,,,,,,1.0,,,,10.0,,,,,,,,64.39,,N,29.51,28.2,,Clear
KIGQ,07/19/2016 02:35 UTC,30.17,73.58,64.94,73.5,0.0,0.0,,,,,,1.0,,,,10.0,,,,,,,,64.56,,N,29.51,28.21,,Clear
KIGQ,07/19/2016 02:55 UTC,30.18,71.24,64.76,78.09,0.0,0.0,,,,,,1.0,,,,10.0,,,,,,,,64.03,,N,29.52,28.28,,Clear
KIGQ,07/19/2016 03:15 UTC,30.18,73.4,65.66,78.24,0.0,0.0,,,,,,1.0,,,,10.0,,,,,,,,66.18,,N,29.52,28.11,,Clear
KIGQ,07/19/2016 03:35 UTC,30.17,72.68,66.2,78.24,0.0,0.0,,,,,,1.0,,,,10.0,,,,,,,,65.48,,N,29.51,28.16,,Clear
KIGQ,07/19/2016 03:55 UTC,30.18,69.44,64.04,83.01,0.0,0.0,,,,,,1.0,,,,10.0,,,,,,,,64.03,,N,29.52,28.3,,Clear
KIGQ,07/19/2016 04:15 UTC,30.18,69.08,64.94,83.01,0.0,0.0,,,,,,1.0,,,,10.0,,,,,,,,63.67,,N,29.52,28.33,,Clear
KIGQ,07/19/2016 04:35 UTC,30.19,68.54,65.12,88.29,0.0,0.0,,,,,,1.0,,,,10.0,,,,,,,,64.92,,N,29.53,28.27,,Clear
KIGQ,07/19/2016 04:55 UTC,30.19,69.08,65.12,83.01,0.0,0.0,,,,,,1.0,,,,10.0,,,,,,,,63.67,,N,29.53,28.34,,Clear
KIGQ,07/19/2016 05:15 UTC,30.2,66.56,63.5,93.94,0.0,0.0,,,,,,1.0,,,,10.0,,,,,,,,64.75,,N,29.54,28.32,,Clear
KIGQ,07/19/2016 05:35 UTC,30.2,66.02,63.5,93.94,0.0,0.0,,,,,,1.0,,,,10.0,,,,,,,,64.21,,N,29.54,28.36,,Clear
KIGQ,07/19/2016 05:55 UTC,30.2,66.2,63.32,88.2,0.0,0.0,,,,,,1.0,,,,10.0,,,78.8,65.84,,,,62.58,,N,29.54,28.45,,Clear
KIGQ,07/19/2016 06:15 UTC,30.21,65.3,62.96,88.2,0.0,0.0,,,,,,1.0,,,,10.0,,,,,,,,61.69,,N,29.55,28.52,,Clear
KIGQ,07/19/2016 06:35 UTC,30.2,66.74,64.4,93.94,0.0,0.0,,,,,,1.0,,,,10.0,,,,,,,,64.93,,N,29.54,28.3,,Clear
KIGQ,07/19/2016 06:55 UTC,30.2,65.48,63.32,88.2,0.0,0.0,,31.0,,,,1.0,,,,5.0,,,,,,,,61.87,,N,29.54,28.5,,Mist
KIGQ,07/19/2016 07:15 UTC,30.2,66.02,63.68,93.94,0.0,0.0,,31.0,,,,1.0,,,,5.0,,,,,,,,64.21,,N,29.54,28.36,,Mist
KIGQ,07/19/2016 07:35 UTC,30.2,66.38,65.48,100.0,0.0,0.0,,9.0,,,,55.0,,,,0.5,,,,,500.0,,,66.38,,N,29.54,28.22,,Fog
KIGQ,07/19/2016 07:55 UTC,30.19,66.74,66.2,100.0,0.0,0.0,,31.0,,,,1.0,,,,2.0,,,,,,,,66.74,,N,29.53,28.18,,Mist
KIGQ,07/19/2016 08:15 UTC,30.2,66.2,65.48,100.0,0.0,0.0,,,,,,1.0,,,,7.0,,,,,,,,66.2,,N,29.54,28.23,,Clear
KIGQ,07/19/2016 08:35 UTC,30.19,65.48,64.94,93.94,0.0,0.0,,31.0,,,,75.0,,,,1.25,,,,,700.0,,,63.68,,N,29.53,28.39,,Mist
KIGQ,07/19/2016 08:55 UTC,30.2,65.3,64.4,93.94,0.0,0.0,,,,,,1.0,,,,7.0,,,,,,,,63.5,,N,29.54,28.41,,Clear
KIGQ,07/19/2016 09:15 UTC,30.2,65.84,64.76,93.94,0.0,0.0,,,,,,1.0,,,,10.0,,,,,,,,64.03,,N,29.54,28.37,,Clear
KIGQ,07/19/2016 09:35 UTC,30.21,66.56,65.3,100.0,0.0,0.0,,,,,,1.0,,,,10.0,,,,,,,,66.56,,N,29.55,28.22,,Clear
KIGQ,07/19/2016 09:55 UTC,30.22,64.76,63.5,100.0,0.0,0.0,,,,,,1.0,,,,7.0,,,,,,,,64.76,,N,29.56,28.36,,Clear
KIGQ,07/19/2016 10:15 UTC,30.22,62.78,61.34,93.84,0.0,0.0,,31.0,,,,1.0,,,,5.0,,,,,,,,60.96,,N,29.56,28.6,,Mist
KIGQ,07/19/2016 10:35 UTC,30.22,63.32,62.6,100.0,0.0,0.0,,9.0,,,,5.0,,,,-0.25,,,,,0.0,,,63.32,,N,29.56,28.47,,Fog
KIGQ,07/19/2016 10:55 UTC,30.23,64.76,64.4,100.0,0.0,0.0,,31.0,,,,55.0,,,,0.75,,,,,500.0,,,64.76,,N,29.57,28.37,,Mist
KIGQ,07/19/2016 11:15 UTC,30.24,64.58,64.22,100.0,0.0,0.0,,,,,,1.0,,,,7.0,,,,,,,,64.58,,N,29.58,28.4,,Clear
KIGQ,07/19/2016 11:35 UTC,30.24,65.3,64.58,93.94,0.0,0.0,,,,,,1.0,,,,7.0,,,,,,,,63.5,,N,29.58,28.45,,Clear
KIGQ,07/19/2016 11:55 UTC,30.24,67.64,66.56,93.98,0.0,0.0,,,,,,1.0,,,,7.0,,,67.64,62.6,,,,65.83,,N,29.58,28.28,,Clear
KIGQ,07/19/2016 12:15 UTC,30.24,69.8,66.92,88.37,0.0,0.0,,,,,,1.0,,,,7.0,,,,,,,,66.19,,N,29.58,28.22,,Clear
KIGQ,07/19/2016 12:35 UTC,30.25,71.78,67.28,88.46,0.0,0.0,,,,,,1.0,,,,7.0,,,,,,,,68.17,,N,29.59,28.07,,Clear
KIGQ,07/19/2016 12:55 UTC,30.25,73.76,67.82,83.25,0.0,0.0,,,,,,1.0,,,,10.0,,,,,,,,68.34,,N,29.59,28.03,,Clear
KIGQ,07/19/2016 13:15 UTC,30.25,75.92,68.54,78.39,0.0,0.0,,,,,,1.0,,,,10.0,,,,,,,,68.69,,N,29.59,27.98,,Clear
KIGQ,07/19/2016 13:35 UTC,30.25,77.54,67.64,73.85,0.0,0.0,,,,,,1.0,,,,10.0,,,,,,,,68.52,,N,29.59,27.97,,Clear
KIGQ,07/19/2016 13:55 UTC,30.25,79.52,66.02,65.41,3.44,60.0,,,,,,1.0,,,,10.0,,,,,,,,66.89,,ENE,29.59,28.06,,Clear
KIGQ,07/19/2016 14:15 UTC,30.25,80.78,66.38,61.67,0.0,0.0,,,,,,1.0,,,,10.0,,,,,,,,66.39,,N,29.59,28.08,83.01,Clear
KIGQ,07/19/2016 14:35 UTC,30.25,81.5,66.2,58.18,3.44,40.0,,,,,,1.0,,,,10.0,,,,,,,,65.39,,NE,29.59,28.14,83.44,Clear
KIGQ,07/19/2016 14:55 UTC,30.24,81.68,65.66,58.18,0.0,0.0,,,,,,1.0,,,,10.0,,,,,,,,65.56,,N,29.58,28.12,83.67,Clear
KIGQ,07/19/2016 15:15 UTC,30.25,81.5,65.66,58.18,3.44,330.0,,,,,,1.0,,,,10.0,,,,,,,,65.39,,NNW,29.59,28.14,83.44,Clear
KIGQ,07/19/2016 15:35 UTC,30.25,82.4,64.94,54.65,5.75,140.0,,,,,,363.0,,,,10.0,,,,,3600.0,,,64.43,,SE,29.59,28.2,84.0,Mostly Cloudy
KIGQ,07/19/2016 15:55 UTC,30.26,81.86,63.86,54.65,0.0,0.0,,,,,,362.0,463.0,,,10.0,,,,,4600.0,,,63.93,,N,29.6,28.25,83.33,Mostly Cloudy
KIGQ,07/19/2016 16:15 UTC,30.25,82.76,58.28,45.17,3.44,200.0,,,,,,432.0,,,,10.0,,,,,,,,59.38,,SSW,29.59,28.5,82.84,Partly Cloudy
KIGQ,07/19/2016 16:35 UTC,30.24,83.84,62.06,48.42,0.0,0.0,,,,,,463.0,,,,10.0,,,,,4600.0,,,62.32,,N,29.58,28.31,84.61,Mostly Cloudy
KIGQ,07/19/2016 16:55 UTC,30.24,83.84,61.52,45.44,3.44,100.0,,,,,,463.0,,,,10.0,,,,,4600.0,,,60.53,,E,29.58,28.42,84.04,Mostly Cloudy
KIGQ,07/19/2016 17:15 UTC,30.24,85.1,63.5,48.69,0.0,0.0,,,,,,1.0,,,,10.0,,,,,,,,63.64,,N,29.58,28.21,86.28,Clear
KIGQ,07/19/2016 17:35 UTC,30.23,83.48,63.14,48.42,4.61,180.0,,,,,,472.0,,,,10.0,,,,,,,,61.99,,S,29.57,28.32,84.18,Partly Cloudy
KIGQ,07/19/2016 17:55 UTC,30.22,85.1,63.32,45.72,4.61,190.0,,,,,,452.0,,,,10.0,,,85.46,67.82,,,,61.86,,S,29.56,28.31,85.59,Partly Cloudy
KIGQ,07/19/2016 18:15 UTC,30.23,85.28,62.06,45.72,3.44,250.0,,,,,,502.0,,,,10.0,,,,,,,,62.02,,WSW,29.57,28.3,85.82,Partly Cloudy
KIGQ,07/19/2016 18:35 UTC,30.21,84.56,63.5,51.58,0.0,0.0,,,,,,1.0,,,,10.0,,,,,,,,64.79,,N,29.55,28.11,86.23,Clear
KIGQ,07/19/2016 18:55 UTC,30.21,86.0,62.6,45.72,0.0,0.0,,,,,,1.0,,,,10.0,,,,,,,,62.68,,N,29.55,28.24,86.75,Clear
KIGQ,07/19/2016 19:15 UTC,30.21,86.72,63.5,48.69,3.44,210.0,,,,,,1.0,,,,10.0,,,,,,,,65.14,,SSW,29.55,28.07,88.58,Clear
KIGQ,07/19/2016 19:35 UTC,30.21,85.46,62.6,45.72,4.61,220.0,,,,,,1.0,,,,10.0,,,,,,,,62.19,,SW,29.55,28.27,86.04,Clear
KIGQ,07/19/2016 19:55 UTC,30.21,86.0,63.14,45.72,3.44,190.0,,,,,,1.0,,,,10.0,,,,,,,,62.68,,S,29.55,28.24,86.75,Clear
KIGQ,07/19/2016 20:15 UTC,30.2,85.28,63.86,48.69,5.75,250.0,,,,,,492.0,,,,10.0,,,,,,,,63.81,,WSW,29.54,28.16,86.52,Partly Cloudy
KIGQ,07/19/2016 20:35 UTC,30.21,86.18,64.04,48.69,6.91,280.0,,,,,,493.0,,,,10.0,,,,,4900.0,,,64.64,,W,29.55,28.11,87.78,Mostly Cloudy
KIGQ,07/19/2016 20:55 UTC,30.2,87.26,64.4,45.99,0.0,0.0,,,,,,492.0,553.0,,,10.0,,,,,5500.0,,,64.0,,N,29.54,28.13,88.57,Mostly Cloudy
KIGQ,07/19/2016 21:15 UTC,30.19,86.0,64.4,48.69,0.0,0.0,,,,,,472.0,503.0,,,10.0,,,,,5000.0,,,64.47,,N,29.53,28.1,87.52,Mostly Cloudy
KIGQ,07/19/2016 21:35 UTC,30.19,85.64,64.58,48.69,6.91,230.0,,,,,,474.0,,,,10.0,,,,,4700.0,,,64.14,,SW,29.53,28.12,87.02,Overcast
KIGQ,07/19/2016 21:55 UTC,30.19,84.74,65.12,51.58,4.61,210.0,,,,,,454.0,,,,10.0,,,,,4500.0,,,64.96,,SSW,29.53,28.08,86.49,Overcast
KIGQ,07/19/2016 22:15 UTC,30.19,84.38,65.66,54.9,4.61,190.0,,,,,,454.0,,,,10.0,,,,,4500.0,,,66.42,,S,29.53,27.98,86.8,Overcast
KIGQ,07/19/2016 22:35 UTC,30.19,84.2,65.3,54.9,0.0,0.0,,,,,,454.0,,,,10.0,,,,,4500.0,,,66.25,,N,29.53,28.0,86.53,Overcast
KIGQ,07/19/2016 22:55 UTC,30.18,83.84,64.4,51.58,0.0,0.0,,,,,,452.0,,,,10.0,,,,,,,,64.12,,N,29.52,28.13,85.26,Partly Cloudy
KIGQ,07/19/2016 23:15 UTC,30.17,83.12,64.22,54.65,5.75,50.0,,,,,,452.0,,,,10.0,,,,,,,,65.11,,NE,29.51,28.06,84.94,Partly Cloudy
KIGQ,07/19/2016 23:35 UTC,30.17,82.22,63.32,51.31,5.75,40.0,,,,,,1.0,,,,10.0,,,,,,,,62.47,,NE,29.51,28.24,83.21,Clear
KIGQ,07/19/2016 23:55 UTC,30.17,81.5,62.96,51.31,4.61,60.0,,,,,,1.0,,,,10.0,,,87.26,81.5,,,,61.8,,ENE,29.51,28.29,82.42,Clear
KIGQ,07/20/2016 00:15 UTC,30.17,81.32,60.62,51.05,6.91,70.0,,,,,,493.0,,,,10.0,,,,,4900.0,,,61.49,,ENE,29.51,28.31,82.19,Mostly Cloudy
KIGQ,07/20/2016 00:35 UTC,30.17,80.06,61.52,51.05,4.61,70.0,,,,,,503.0,,,,10.0,,,,,5000.0,,,60.32,,ENE,29.51,28.39,80.96,Mostly Cloudy
KIGQ,07/20/2016 00:55 UTC,30.18,79.16,61.7,57.69,3.44,50.0,,,,,,502.0,,,,10.0,,,,,,,,62.94,,NE,29.52,28.26,,Partly Cloudy
KIGQ,07/20/2016 01:15 UTC,30.19,78.08,62.24,57.69,0.0,0.0,,,,,,502.0,,,,10.0,,,,,,,,61.93,,N,29.53,28.34,,Partly Cloudy
KIGQ,07/20/2016 01:35 UTC,30.19,77.9,62.06,57.69,0.0,0.0,,,,,,1.0,,,,10.0,,,,,,,,61.76,,N,29.53,28.35,,Clear
KIGQ,07/20/2016 01:55 UTC,30.19,77.9,63.86,61.44,0.0,0.0,,,,,,502.0,,,,10.0,,,,,,,,63.55,,N,29.53,28.24,,Partly Cloudy
KIGQ,07/20/2016 02:15 UTC,30.2,77.18,64.76,65.2,0.0,0.0,,,,,,503.0,,,,10.0,,,,,5000.0,,,64.57,,N,29.54,28.19,,Mostly Cloudy
KIGQ,07/20/2016 02:35 UTC,30.2,77.0,64.94,65.2,0.0,0.0,,,,,,504.0,,,,10.0,,,,,5000.0,,,64.4,,N,29.54,28.21,,Overcast
KIGQ,07/20/2016 02:55 UTC,30.21,76.46,64.22,65.2,0.0,0.0,,,,,,602.0,,,,10.0,,,,,,,,63.88,,N,29.55,28.26,,Partly Cloudy
KIGQ,07/20/2016 03:15 UTC,30.2,76.28,64.76,65.2,3.44,40.0,,,,,,1.0,,,,10.0,,,,,,,,63.71,,NE,29.54,28.26,,Clear
KIGQ,07/20/2016 03:35 UTC,30.21,75.38,65.66,73.67,0.0,0.0,,,,,,1.0,,,,10.0,,,,,,,,66.36,,N,29.55,28.11,,Clear
KIGQ,07/20/2016 03:55 UTC,30.21,73.76,65.48,78.24,0.0,0.0,,,,,,1.0,,,,10.0,,,,,,,,66.53,,N,29.55,28.12,,Clear
KIGQ,07/20/2016 04:15 UTC,30.21,74.3,65.84,73.67,0.0,0.0,,,,,,902.0,,,,10.0,,,,,,,,65.32,,N,29.55,28.19,,Partly Cloudy
KIGQ,07/20/2016 04:35 UTC,30.21,72.68,65.3,78.24,0.0,0.0,,,,,,1.0,,,,10.0,,,,,,,,65.48,,N,29.55,28.2,,Clear
KIGQ,07/20/2016 04:55 UTC,30.21,73.04,65.66,78.24,0.0,0.0,,,,,,903.0,,,,10.0,,,,,9000.0,,,65.83,,N,29.55,28.17,,Mostly Cloudy
KIGQ,07/20/2016 05:15 UTC,30.21,72.14,66.2,83.13,0.0,0.0,,,,,,903.0,,,,10.0,,,,,9000.0,,,66.71,,N,29.55,28.13,,Mostly Cloudy
KIGQ,07/20/2016 05:35 UTC,30.2,69.8,65.3,88.37,0.0,0.0,,,,,,1.0,,,,10.0,,,,,,,,66.19,,N,29.54,28.18,,Clear
KIGQ,07/20/2016 05:55 UTC,30.2,70.7,65.84,83.13,0.0,0.0,,,,,,1.0,,,,10.0,,,81.5,69.8,,87.26,62.6,65.3,,N,29.54,28.23,,Clear
KIGQ,07/20/2016 06:15 UTC,30.19,71.6,65.48,83.13,3.44,90.0,,,,,,1.0,,,,10.0,,,,,,,,66.18,,E,29.53,28.15,,Clear
KIGQ,07/20/2016 06:35 UTC,30.19,70.34,65.12,83.01,0.0,0.0,,,,,,1.0,,,,10.0,,,,,,,,64.91,,N,29.53,28.25,,Clear
KIGQ,07/20/2016 06:55 UTC,30.2,70.88,65.3,83.13,0.0,0.0,,,,,,1.0,,,,10.0,,,,,,,,65.48,,N,29.54,28.21,,Clear
KIGQ,07/20/2016 07:15 UTC,30.2,69.8,65.3,88.37,0.0,0.0,,,,,,1.0,,,,10.0,,,,,,,,66.19,,N,29.54,28.18,,Clear
KIGQ,07/20/2016 07:35 UTC,30.2,69.62,65.3,88.37,0.0,0.0,,,,,,1.0,,,,10.0,,,,,,,,66.01,,N,29.54,28.2,,Clear
KIGQ,07/20/2016 07:55 UTC,30.21,69.8,65.3,88.37,0.0,0.0,,,,,,1.0,,,,10.0,,,,,,,,66.19,,N,29.55,28.19,,Clear
KIGQ,07/20/2016 08:15 UTC,30.21,69.44,65.48,88.37,0.0,0.0,,,,,,1.0,,,,10.0,,,,,,,,65.83,,N,29.55,28.22,,Clear
KIGQ,07/20/2016 08:35 UTC,30.21,70.7,64.76,78.09,0.0,0.0,,,,,,1.0,,,,10.0,,,,,,,,63.5,,N,29.55,28.35,,Clear
KIGQ,07/20/2016 08:55 UTC,30.21,69.26,64.58,83.01,0.0,0.0,,,,,,1.0,,,,10.0,,,,,,,,63.85,,N,29.55,28.35,,Clear
KIGQ,07/20/2016 09:15 UTC,30.22,69.8,64.94,83.01,0.0,0.0,,,,,,1.0,,,,10.0,,,,,,,,64.38,,N,29.56,28.32,,Clear
KIGQ,07/20/2016 09:35 UTC,30.22,68.9,64.76,83.01,0.0,0.0,,,,,,1.0,,,,10.0,,,,,,,,63.5,,N,29.56,28.38,,Clear
KIGQ,07/20/2016 09:55 UTC,30.21,67.28,63.86,88.29,0.0,0.0,,,,,,1.0,,,,10.0,,,,,,,,63.68,,N,29.55,28.38,,Clear
KIGQ,07/20/2016 10:15 UTC,30.22,67.82,64.4,88.29,0.0,0.0,,,,,,1.0,,,,10.0,,,,,,,,64.21,,N,29.56,28.35,,Clear
KIGQ,07/20/2016 10:35 UTC,30.22,67.82,64.22,88.29,0.0,0.0,,,,,,1.0,,,,10.0,,,,,,,,64.21,,N,29.56,28.35,,Clear
KIGQ,07/20/2016 10:55 UTC,30.22,67.1,63.68,88.29,0.0,0.0,,,,,,1.0,,,,10.0,,,,,,,,63.5,,N,29.56,28.41,,Clear
KIGQ,07/20/2016 11:15 UTC,30.21,67.82,64.22,88.29,5.75,100.0,,,,,,1202.0,,,,10.0,,,,,,,,64.21,,E,29.55,28.34,,Partly Cloudy
KIGQ,07/20/2016 11:35 UTC,30.22,69.8,65.48,88.37,0.0,0.0,,,,,,1.0,,,,10.0,,,,,,,,66.19,,N,29.56,28.2,,Clear
KIGQ,07/20/2016 11:55 UTC,30.22,72.14,66.02,83.13,0.0,0.0,,,,,,1.0,,,,10.0,,,72.14,67.1,,,,66.71,,N,29.56,28.14,,Clear
KIGQ,07/20/2016 12:15 UTC,30.22,73.58,64.94,73.5,0.0,0.0,,,,,,1.0,,,,10.0,,,,,,,,64.56,,N,29.56,28.26,,Clear
KIGQ,07/20/2016 12:35 UTC,30.21,74.84,65.3,73.67,3.44,140.0,,,,,,1.0,,,,10.0,,,,,,,,65.84,,SE,29.55,28.15,,Clear
KIGQ,07/20/2016 12:55 UTC,30.21,76.1,65.3,69.4,3.44,140.0,,,,,,1.0,,,,10.0,,,,,,,,65.33,,SE,29.55,28.17,,Clear
KIGQ,07/20/2016 13:15 UTC,30.21,77.36,66.02,69.4,3.44,170.0,,,,,,1.0,,,,10.0,,,,,,,,66.54,,S,29.55,28.07,,Clear
KIGQ,07/20/2016 13:35 UTC,30.21,78.26,66.38,65.41,3.44,100.0,,,,,,1.0,,,,10.0,,,,,,,,65.69,,E,29.55,28.12,,Clear
KIGQ,07/20/2016 13:55 UTC,30.21,79.34,67.1,69.6,3.44,160.0,,,,,,1.0,,,,10.0,,,,,,,,68.52,,SSE,29.55,27.91,,Clear
KIGQ,07/20/2016 14:15 UTC,30.21,80.42,67.64,65.62,3.44,200.0,,,,,,1.0,,,,10.0,,,,,,,,67.84,,SSW,29.55,27.94,83.04,Clear
KIGQ,07/20/2016 14:35 UTC,30.22,81.5,68.0,61.9,3.44,210.0,,,,,,1.0,,,,10.0,,,,,,,,67.18,,SSW,29.56,27.99,84.05,Clear
KIGQ,07/20/2016 14:55 UTC,30.21,82.4,68.54,61.9,4.61,180.0,,,,,,1.0,,,,10.0,,,,,,,,68.03,,S,29.55,27.91,85.4,Clear
KIGQ,07/20/2016 15:15 UTC,30.21,83.3,68.9,62.13,5.75,200.0,,,,,,1.0,,,,10.0,,,,,,,,68.99,,SSW,29.55,27.83,86.9,Clear
KIGQ,07/20/2016 15:35 UTC,30.21,84.56,67.82,58.42,5.75,200.0,,,,,,1.0,,,,10.0,,,,,,,,68.39,,SSW,29.55,27.86,88.02,Clear
KIGQ,07/20/2016 15:55 UTC,30.21,85.46,67.82,55.15,6.91,180.0,,,,,,1.0,,,,10.0,,,,,,,,67.56,,S,29.55,27.91,88.55,Clear
KIGQ,07/20/2016 16:15 UTC,30.21,85.28,67.64,55.15,6.91,200.0,,,,,,1.0,,,,10.0,,,,,,,,67.39,,SSW,29.55,27.92,88.26,Clear
KIGQ,07/20/2016 16:35 UTC,30.21,86.18,66.56,51.84,6.91,210.0,,,,,,1.0,,,,10.0,,,,,,,,66.44,,SSW,29.55,27.98,88.7,Clear
KIGQ,07/20/2016 16:55 UTC,30.19,86.72,67.82,55.15,8.05,180.0,,,,,,1.0,,,,10.0,,,,,,,,68.74,,S,29.53,27.79,90.69,Clear
KIGQ,07/20/2016 17:15 UTC,30.19,86.9,67.46,52.09,6.91,230.0,,,,,,1.0,,,,10.0,,,,,,,,67.25,,SW,29.53,27.9,89.94,Clear
KIGQ,07/20/2016 17:35 UTC,30.18,87.26,68.54,52.09,9.22,220.0,,,,,,1.0,,,,10.0,,,,,,,,67.58,,SW,29.52,27.86,90.54,Clear
KIGQ,07/20/2016 17:55 UTC,30.18,87.26,68.72,52.09,8.05,220.0,,,,,,1.0,,,,10.0,,,87.8,72.32,,,,67.58,,SW,29.52,27.86,90.54,Clear
KIGQ,07/20/2016 18:15 UTC,30.18,87.08,69.62,55.4,9.22,200.0,,,,,,1.0,,,,10.0,,,,,,,,69.21,,SSW,29.52,27.74,91.42,Clear
KIGQ,07/20/2016 18:35 UTC,30.19,86.72,69.98,58.66,10.36,220.0,,,503.0,,,362.0,423.0,,,10.0,,,,,4200.0,,,70.54,,SW,29.53,27.65,91.98,Mostly Cloudy
KIGQ,07/20/2016 18:55 UTC,30.19,86.18,69.08,58.66,8.05,230.0,,,502.0,,,362.0,422.0,,,10.0,,,,,,,,70.03,,SW,29.53,27.69,90.96,Partly Cloudy
KIGQ,07/20/2016 19:15 UTC,30.17,85.82,68.9,58.66,8.05,360.0,,,,,,1.0,,,,10.0,,,,,,,,69.69,,N,29.51,27.7,90.29,Clear
KIGQ,07/20/2016 19:35 UTC,30.18,85.1,69.26,58.66,8.05,240.0,,,,,,1.0,,,,10.0,,,,,,,,69.01,,WSW,29.52,27.77,89.01,Clear
KIGQ,07/20/2016 19:55 UTC,30.18,84.56,70.88,66.04,8.05,220.0,,,,,,1.0,,,,10.0,,,,,,,,71.98,,SW,29.52,27.54,90.35,Clear
KIGQ,07/20/2016 20:15 UTC,30.16,84.2,69.44,62.13,9.22,230.0,,,,,,1.0,,,,10.0,,,,,,,,69.84,,SW,29.5,27.7,88.46,Clear
KIGQ,07/20/2016 20:35 UTC,30.16,83.48,68.9,62.13,8.05,300.0,,,,,,1.0,,,,10.0,,,,,,,,69.16,,WNW,29.5,27.76,87.21,Clear
KIGQ,07/20/2016 20:55 UTC,30.15,83.48,68.9,62.13,6.91,260.0,,,,,,1.0,,,,10.0,,,,,,,,69.16,,W,29.49,27.75,87.21,Clear
KIGQ,07/20/2016 21:15 UTC,30.14,84.38,69.44,62.13,6.91,300.0,,,,,,1.0,,,,10.0,,,,,,,,70.01,,WNW,29.48,27.66,88.79,Clear
KIGQ,07/20/2016 21:35 UTC,30.13,85.1,68.9,58.66,8.05,210.0,,,,,,1.0,,,,10.0,,,,,,,,69.01,,SSW,29.47,27.72,89.01,Clear
KIGQ,07/20/2016 21:55 UTC,30.13,83.48,68.54,58.42,5.75,220.0,,,,,,1.0,,,,10.0,,,,,,,,67.37,,SW,29.47,27.86,86.29,Clear
KIGQ,07/20/2016 22:15 UTC,30.13,83.84,68.36,58.42,4.61,230.0,,,,,,1.0,,,,10.0,,,,,,,,67.71,,SW,29.47,27.83,86.85,Clear
KIGQ,07/20/2016 22:35 UTC,30.13,83.3,68.9,62.13,6.91,200.0,,,,,,1.0,,,,10.0,,,,,,,,68.99,,SSW,29.47,27.74,86.9,Clear
KIGQ,07/20/2016 22:55 UTC,30.12,83.3,69.8,62.13,6.91,190.0,,,,,,1.0,,,,10.0,,,,,,,,68.99,,S,29.47,27.74,86.9,Clear
KIGQ,07/20/2016 23:15 UTC,30.12,84.2,69.62,62.13,9.22,180.0,,,,,,1.0,,,,10.0,,,,,,,,69.84,,S,29.47,27.67,88.46,Clear
KIGQ,07/20/2016 23:35 UTC,30.12,83.84,69.8,62.13,5.75,180.0,,,,,,1.0,,,,10.0,,,,,,,,69.5,,S,29.47,27.7,87.83,Clear
KIGQ,07/20/2016 23:55 UTC,30.12,83.3,70.34,62.13,5.75,190.0,,,,,,1.0,,,,10.0,,,87.8,83.3,,,,68.99,,S,29.47,27.74,86.9,Clear
KIGQ,07/21/2016 00:15 UTC,30.12,82.76,70.52,65.83,6.91,190.0,,,,,,282.0,,,,10.0,,,,,,,,70.17,,S,29.47,27.66,86.87,Partly Cloudy
KIGQ,07/21/2016 00:35 UTC,30.13,81.86,70.7,69.98,4.61,200.0,,,,,,1.0,,,,10.0,,,,,,,,71.1,,SSW,29.47,27.6,86.17,Clear
KIGQ,07/21/2016 00:55 UTC,30.13,80.6,71.06,74.19,3.44,190.0,,,,,,1.0,,,,10.0,,,,,,,,71.61,,S,29.47,27.57,84.58,Clear
KIGQ,07/21/2016 01:15 UTC,30.13,79.34,70.7,78.68,3.44,190.0,,,,,,1.0,,,,10.0,,,,,,,,72.13,,S,29.47,27.55,,Clear
KIGQ,07/21/2016 01:35 UTC,30.13,78.08,70.52,74.02,4.61,200.0,,,,,,1.0,,,,10.0,,,,,,,,69.11,,SSW,29.47,27.8,,Clear
KIGQ,07/21/2016 01:55 UTC,30.14,76.64,70.7,83.48,3.44,180.0,,,,,,1.0,,,,10.0,,,,,,,,71.24,,S,29.48,27.67,,Clear
KIGQ,07/21/2016 02:15 UTC,30.14,76.64,70.52,78.54,3.44,150.0,,,,,,1.0,,,,10.0,,,,,,,,69.45,,SSE,29.48,27.8,,Clear
KIGQ,07/21/2016 02:35 UTC,30.15,76.28,70.7,83.48,4.61,190.0,,,,,,1.0,,,,10.0,,,,,,,,70.89,,S,29.49,27.71,,Clear
KIGQ,07/21/2016 02:55 UTC,30.15,74.66,70.16,83.37,4.61,190.0,,,,,,1.0,,,,10.0,,,,,,,,69.27,,S,29.49,27.85,,Clear
KIGQ,07/21/2016 03:15 UTC,30.15,74.66,70.34,83.37,4.61,190.0,,,,,,1.0,,,,10.0,,,,,,,,69.27,,S,29.49,27.85,,Clear
KIGQ,07/21/2016 03:35 UTC,30.14,74.84,70.7,88.62,3.44,190.0,,,,,,1.0,,,,10.0,,,,,,,,71.24,,S,29.48,27.69,,Clear
KIGQ,07/21/2016 03:55 UTC,30.13,74.48,70.34,83.37,4.61,180.0,,,,,,1.0,,,,10.0,,,,,,,,69.09,,S,29.47,27.85,,Clear
KIGQ,07/21/2016 04:15 UTC,30.13,73.58,69.98,88.54,3.44,190.0,,,,,,1.0,,,,10.0,,,,,,,,69.97,,S,29.47,27.8,,Clear
KIGQ,07/21/2016 04:35 UTC,30.13,73.58,69.98,88.54,5.75,180.0,,,,,,1.0,,,,10.0,,,,,,,,69.97,,S,29.47,27.8,,Clear
KIGQ,07/21/2016 04:55 UTC,30.12,72.68,69.62,88.54,5.75,180.0,,,,,,1.0,,,,10.0,,,,,,,,69.08,,S,29.47,27.87,,Clear
KIGQ,07/21/2016 05:15 UTC,30.12,73.94,70.52,88.54,4.61,170.0,,,,,,1.0,,,,10.0,,,,,,,,70.33,,S,29.47,27.77,,Clear
KIGQ,07/21/2016 05:35 UTC,30.11,73.76,70.34,88.54,5.75,180.0,,,,,,1.0,,,,10.0,,,,,,,,70.15,,S,29.46,27.77,,Clear
KIGQ,07/21/2016 05:55 UTC,30.11,73.94,70.52,88.54,4.61,180.0,,,,,,1.0,,,,10.0,,,83.3,72.5,,87.8,67.1,70.33,,S,29.46,27.76,,Clear
KIGQ,07/21/2016 06:15 UTC,30.1,74.3,70.7,88.62,4.61,170.0,,,,,,1.0,,,,10.0,,,,,,,,70.71,,S,29.45,27.71,,Clear
KIGQ,07/21/2016 06:35 UTC,30.1,73.76,69.98,88.54,5.75,180.0,,,,,,1.0,,,,10.0,,,,,,,,70.15,,S,29.45,27.76,,Clear
KIGQ,07/21/2016 06:55 UTC,30.11,73.4,70.16,88.54,4.61,190.0,,,,,,1.0,,,,10.0,,,,,,,,69.79,,S,29.46,27.8,,Clear
KIGQ,07/21/2016 07:15 UTC,30.1,72.68,69.8,88.54,3.44,180.0,,,,,,1.0,,,,10.0,,,,,,,,69.08,,S,29.45,27.85,,Clear
KIGQ,07/21/2016 07:35 UTC,30.11,72.86,69.98,88.54,3.44,190.0,,,,,,1.0,,,,10.0,,,,,,,,69.26,,S,29.46,27.85,,Clear
KIGQ,07/21/2016 07:55 UTC,30.11,71.6,69.08,94.07,4.61,180.0,,,,,,1.0,,,,7.0,,,,,,,,69.79,,S,29.46,27.83,,Clear
KIGQ,07/21/2016 08:15 UTC,30.11,71.78,69.62,94.07,4.61,170.0,,,,,,1.0,,,,10.0,,,,,,,,69.97,,S,29.46,27.81,,Clear
KIGQ,07/21/2016 08:35 UTC,30.11,71.6,69.08,94.07,0.0,0.0,,,,,,1.0,,,,10.0,,,,,,,,69.79,,N,29.46,27.83,,Clear
KIGQ,07/21/2016 08:55 UTC,30.11,71.6,69.62,94.07,4.61,160.0,,,,,,1.0,,,,7.0,,,,,,,,69.79,,SSE,29.46,27.83,,Clear
KIGQ,07/21/2016 09:15 UTC,30.11,71.78,69.8,94.07,4.61,180.0,,,,,,1.0,,,,7.0,,,,,,,,69.97,,S,29.46,27.81,,Clear
KIGQ,07/21/2016 09:35 UTC,30.11,71.24,69.26,94.07,4.61,180.0,,,,,,1.0,,,,7.0,,,,,,,,69.44,,S,29.46,27.86,,Clear
KIGQ,07/21/2016 09:55 UTC,30.11,71.6,69.8,94.07,3.44,180.0,,,,,,1.0,,,,7.0,,,,,,,,69.79,,S,29.46,27.83,,Clear
KIGQ,07/21/2016 10:15 UTC,30.11,70.88,69.8,94.07,5.75,170.0,,31.0,,,,1.0,,,,5.0,,,,,,,,69.08,,S,29.46,27.89,,Mist
KIGQ,07/21/2016 10:35 UTC,30.11,71.6,70.7,100.0,4.61,180.0,,31.0,,,,1.0,,,,5.0,,,,,,,,71.6,,S,29.46,27.69,,Mist
KIGQ,07/21/2016 10:55 UTC,30.11,71.96,71.24,100.0,4.61,190.0,,31.0,,,,162.0,,,,5.0,,,,,,,,71.96,,S,29.46,27.66,,Mist
KIGQ,07/21/2016 11:15 UTC,30.11,72.68,71.78,94.12,5.75,190.0,,,,,,162.0,,,,7.0,,,,,,,,70.88,,S,29.46,27.73,,Partly Cloudy
KIGQ,07/21/2016 11:35 UTC,30.12,73.58,71.96,94.12,5.75,200.0,,,,,,1.0,,,,7.0,,,,,,,,71.78,,SSW,29.47,27.66,,Clear
KIGQ,07/21/2016 11:55 UTC,30.11,74.66,71.96,88.62,6.91,210.0,,,,,,1.0,,,,10.0,,,74.66,70.88,,,,71.06,,SSW,29.46,27.69,,Clear
KIGQ,07/21/2016 12:15 UTC,30.12,75.74,71.78,88.62,6.91,200.0,,,,,,1.0,,,,10.0,,,,,,,,72.13,,SSW,29.47,27.6,,Clear
KIGQ,07/21/2016 12:35 UTC,30.12,77.0,71.78,83.48,9.22,200.0,,,,,,552.0,,,,10.0,,,,,,,,71.6,,SSW,29.47,27.62,,Partly Cloudy
KIGQ,07/21/2016 12:55 UTC,30.11,77.9,71.78,78.68,8.05,210.0,,,,,,502.0,,,,10.0,,,,,,,,70.73,,SSW,29.46,27.67,,Partly Cloudy
KIGQ,07/21/2016 13:15 UTC,30.11,79.34,72.5,83.6,8.05,210.0,,,,,,142.0,,,,10.0,,,,,,,,73.93,,SSW,29.46,27.39,,Partly Cloudy
KIGQ,07/21/2016 13:35 UTC,30.1,80.42,72.86,78.82,10.36,210.0,,,,,,1.0,,,,10.0,,,,,,,,73.23,,SSW,29.45,27.42,84.95,Clear
KIGQ,07/21/2016 13:55 UTC,30.09,81.68,73.58,74.36,9.22,200.0,,,,,,1.0,,,,10.0,,,,,,,,72.73,,SSW,29.44,27.44,86.75,Clear
KIGQ,07/21/2016 14:15 UTC,30.1,82.76,74.3,78.97,11.5,220.0,,,,,,1.0,,,,10.0,,,,,,,,75.57,,SW,29.45,27.19,90.38,Clear
KIGQ,07/21/2016 14:35 UTC,30.09,83.66,74.66,74.52,10.36,200.0,,,,,,1.0,,,,10.0,,,,,,,,74.7,,SSW,29.44,27.24,91.18,Clear
KIGQ,07/21/2016 14:55 UTC,30.08,84.56,75.2,74.52,10.36,210.0,,,,,,1.0,,,,10.0,,,,,,,,75.58,,SSW,29.43,27.14,93.37,Clear
KIGQ,07/21/2016 15:15 UTC,30.1,85.82,75.2,70.36,10.36,200.0,,,,,,1.0,,,,10.0,,,,,,,,75.07,,SSW,29.45,27.19,94.79,Clear
KIGQ,07/21/2016 15:35 UTC,30.1,85.28,74.84,70.36,11.5,220.0,,,,,,362.0,,,,10.0,,,,,,,,74.55,,SW,29.45,27.24,93.49,Partly Cloudy
KIGQ,07/21/2016 15:55 UTC,30.1,86.54,75.02,70.36,10.36,240.0,,,,,,1.0,,,,10.0,,,,,,,,75.76,,WSW,29.45,27.12,96.57,Clear
KIGQ,07/21/2016 16:15 UTC,30.11,88.16,75.56,66.46,10.36,220.0,,,,,,402.0,462.0,,,10.0,,,,,,,,75.61,,SW,29.46,27.12,98.71,Partly Cloudy
KIGQ,07/21/2016 16:35 UTC,30.1,88.52,75.92,66.46,9.22,210.0,,,,,,432.0,,,,10.0,,,,,,,,75.95,,SSW,29.45,27.07,99.63,Partly Cloudy
KIGQ,07/21/2016 16:55 UTC,30.1,89.24,75.38,62.8,6.91,230.0,,,703.0,,,283.0,403.0,,,10.0,,,,,2800.0,,,74.94,,SW,29.45,27.16,99.41,Mostly Cloudy
KIGQ,07/21/2016 17:15 UTC,30.1,89.06,76.1,66.66,8.05,250.0,,,704.0,,,282.0,403.0,,,10.0,,,,,4000.0,,,76.56,,WSW,29.45,27.01,101.15,Overcast
KIGQ,07/21/2016 17:35 UTC,30.08,88.7,75.56,62.8,8.05,210.0,,5.0,494.0,,,282.0,343.0,,,10.0,,,,,3400.0,,,74.43,,SSW,29.43,27.19,98.11,Thunder
KIGQ,07/21/2016 17:55 UTC,30.08,80.6,66.92,61.67,16.11,290.0,39.12,78.0,443.0,0.03,,283.0,343.0,0.03,,7.0,,,89.42,74.84,2800.0,,,66.22,,WNW,29.43,27.93,82.77,Heavy Rain/Thunderstorm
KIGQ,07/21/2016 18:15 UTC,30.09,73.4,68.36,83.25,8.05,30.0,,78.0,,0.47,,143.0,264.0,,,0.75,,,,,1400.0,,,67.99,,NNE,29.44,27.91,,Heavy Rain/Thunderstorm
KIGQ,07/21/2016 18:35 UTC,30.06,75.56,68.9,83.37,0.0,0.0,,,382.0,0.47,,102.0,292.0,,,10.0,,,,,,,,70.15,,N,29.41,27.69,,Partly Cloudy
KIGQ,07/21/2016 18:55 UTC,30.05,76.1,70.7,83.48,3.44,80.0,,5.0,,0.47,,1.0,,,,10.0,,,,,,,,70.71,,E,29.4,27.63,,Thunder
KIGQ,07/21/2016 19:15 UTC,30.04,76.1,69.8,78.54,11.5,90.0,,,,,,382.0,,,,10.0,,,,,,,,68.92,,E,29.39,27.76,,Partly Cloudy
KIGQ,07/21/2016 19:35 UTC,30.07,75.56,70.7,88.62,11.5,100.0,,,,,,242.0,382.0,,,10.0,,,,,,,,71.95,,E,29.42,27.57,,Partly Cloudy
KIGQ,07/21/2016 19:55 UTC,30.05,75.2,70.7,88.62,6.91,100.0,,,372.0,,,242.0,302.0,,,10.0,,,,,,,,71.6,,E,29.4,27.58,,Partly Cloudy
KIGQ,07/21/2016 20:15 UTC,30.04,75.38,70.52,83.37,5.75,120.0,,,,,,392.0,462.0,,,10.0,,,,,,,,69.97,,ESE,29.39,27.69,,Partly Cloudy
KIGQ,07/21/2016 20:35 UTC,30.04,76.1,70.7,83.48,6.91,140.0,,,,,,1.0,,,,10.0,,,,,,,,70.71,,SE,29.39,27.62,,Clear
KIGQ,07/21/2016 20:55 UTC,30.01,77.36,70.16,78.54,8.05,170.0,,,,,0.47,1.0,,,,10.0,,,,,,,,70.15,,S,29.36,27.62,,Clear
KIGQ,07/21/2016 21:15 UTC,30.01,79.16,70.88,78.68,8.05,150.0,,,,,,1.0,,,,10.0,,,,,,,,71.95,,SSE,29.36,27.45,,Clear
KIGQ,07/21/2016 21:35 UTC,30.0,81.32,71.78,74.19,10.36,170.0,,,,,,1.0,,,,10.0,,,,,,,,72.31,,S,29.35,27.39,85.99,Clear
KIGQ,07/21/2016 21:55 UTC,29.99,82.58,73.76,74.36,13.8,170.0,,,,,,1.0,,,,10.0,,,,,,,,73.6,,S,29.34,27.25,88.67,Clear
KIGQ,07/21/2016 22:15 UTC,29.98,84.74,75.02,74.52,16.11,180.0,20.71,,,,,1.0,,,,10.0,,,,,,,,75.75,,S,29.33,27.02,93.82,Clear
KIGQ,07/21/2016 22:35 UTC,29.99,85.1,75.38,70.36,8.05,190.0,,,,,,1.0,,,,10.0,,,,,,,,74.38,,S,29.34,27.15,93.07,Clear
KIGQ,07/21/2016 22:55 UTC,30.0,85.28,76.1,74.69,11.5,190.0,,,,,,1.0,,,,10.0,,,,,,,,76.34,,S,29.35,26.98,95.27,Clear
KIGQ,07/21/2016 23:15 UTC,30.0,84.2,76.28,79.11,5.75,190.0,,,,,,392.0,,,,10.0,,,,,,,,77.02,,S,29.35,26.93,94.19,Partly Cloudy
KIGQ,07/21/2016 23:35 UTC,30.0,84.38,76.64,79.11,9.22,180.0,,,502.0,,,362.0,422.0,,,10.0,,,,,,,,77.2,,S,29.35,26.91,94.68,Partly Cloudy
KIGQ,07/21/2016 23:55 UTC,30.0,83.84,76.82,79.11,8.05,180.0,,,482.0,,,292.0,342.0,0.47,,10.0,,,85.46,72.86,,,,76.67,,S,29.35,26.97,93.22,Partly Cloudy
KIGQ,07/22/2016 00:15 UTC,30.0,83.84,77.0,79.11,8.05,170.0,,,,,,462.0,652.0,,,10.0,,,,,,,,76.67,,S,29.35,26.97,93.22,Partly Cloudy
KIGQ,07/22/2016 00:35 UTC,29.99,83.84,77.18,79.11,8.05,180.0,,,,,,323.0,443.0,,,10.0,,,,,3200.0,,,76.67,,S,29.34,26.96,93.22,Mostly Cloudy
KIGQ,07/22/2016 00:55 UTC,29.98,83.66,77.36,79.11,8.05,190.0,,,,,,323.0,,,,10.0,,,,,3200.0,,,76.5,,S,29.33,26.97,92.74,Mostly Cloudy
KIGQ,07/22/2016 01:15 UTC,29.98,82.76,77.54,83.83,6.91,190.0,,,,,,322.0,,,,10.0,,,,,,,,77.37,,S,29.33,26.9,91.87,Partly Cloudy
KIGQ,07/22/2016 01:35 UTC,29.98,82.58,77.72,83.83,8.05,180.0,,,,,,1.0,,,,10.0,,,,,,,,77.19,,S,29.33,26.92,91.37,Clear
KIGQ,07/22/2016 01:55 UTC,29.98,83.3,77.9,83.94,9.22,190.0,,,,,,803.0,,,,10.0,,,,,8000.0,,,77.94,,S,29.33,26.84,93.44,Mostly Cloudy
KIGQ,07/22/2016 02:15 UTC,29.99,83.3,77.9,83.94,8.05,200.0,,,,,,803.0,,,,10.0,,,,,8000.0,,,77.94,,SSW,29.34,26.85,93.44,Mostly Cloudy
KIGQ,07/22/2016 02:35 UTC,29.99,83.12,77.72,83.83,9.22,190.0,,,,,,802.0,,,,10.0,,,,,,,,77.72,,S,29.34,26.87,92.89,Partly Cloudy
KIGQ,07/22/2016 02:55 UTC,30.01,82.76,77.9,88.94,5.75,220.0,,5.0,803.0,,,412.0,502.0,,,10.0,,,,,8000.0,,,79.16,,SW,29.36,26.76,93.87,Thunder
KIGQ,07/22/2016 03:15 UTC,30.04,77.0,69.08,78.54,23.02,330.0,36.82,66.0,754.0,0.01,,202.0,283.0,,,7.0,,,,,2800.0,,,69.8,,NNW,29.39,27.68,,Thunderstorm
KIGQ,07/22/2016 03:35 UTC,30.05,73.4,70.7,94.12,16.11,360.0,25.32,78.0,284.0,0.44,,82.0,183.0,,,1.75,,,,,1800.0,,,71.6,,N,29.4,27.61,,Heavy Rain/Thunderstorm
KIGQ,07/22/2016 03:55 UTC,30.07,73.4,70.7,94.12,6.91,360.0,,78.0,604.0,0.64,,92.0,353.0,,,7.0,,,,,3500.0,,,71.6,,N,29.42,27.63,,Heavy Rain/Thunderstorm
KIGQ,07/22/2016 04:15 UTC,30.08,73.4,70.16,88.54,0.0,0.0,,77.0,1103.0,,,462.0,552.0,,,10.0,,,,,11000.0,,,69.79,,N,29.43,27.77,,Light Rain/Thunderstorm
KIGQ,07/22/2016 04:35 UTC,30.09,73.04,69.8,88.54,0.0,0.0,,1.0,,,,1003.0,1204.0,,,7.0,,,,,10000.0,,,69.44,,N,29.44,27.81,,Rain
KIGQ,07/22/2016 04:55 UTC,30.07,72.86,69.98,88.54,8.05,150.0,,66.0,,0.06,,853.0,1004.0,,,5.0,,,,,8500.0,,,69.26,,SSE,29.42,27.81,,Thunderstorm
KIGQ,07/22/2016 05:15 UTC,30.01,72.68,69.98,88.54,18.41,150.0,21.85,1.0,,0.04,,752.0,1104.0,,,7.0,,,,,11000.0,,,69.08,,SSE,29.36,27.76,,Rain
KIGQ,07/22/2016 05:35 UTC,29.98,72.86,68.54,83.25,12.66,140.0,21.85,13.0,,0.06,,1202.0,,,,10.0,,,,,,,,67.46,,SE,29.33,27.84,,Light Rain
KIGQ,07/22/2016 05:55 UTC,29.97,73.4,68.0,83.25,4.61,110.0,,13.0,,0.06,,1202.0,,0.76,,10.0,,,84.02,72.5,,89.42,70.88,67.99,,ESE,29.32,27.79,,Light Rain
KIGQ,07/22/2016 06:15 UTC,29.96,73.04,68.0,83.25,0.0,0.0,,13.0,,,,1.0,,,,10.0,,,,,,,,67.64,,N,29.31,27.81,,Light Rain
KIGQ,07/22/2016 06:35 UTC,29.96,72.86,68.36,83.25,0.0,0.0,,,,,,1.0,,,,10.0,,,,,,,,67.46,,N,29.31,27.82,,Clear
KIGQ,07/22/2016 06:55 UTC,29.96,72.5,68.72,83.25,10.36,260.0,,13.0,952.0,,,652.0,752.0,,,10.0,,,,,,,,67.11,,W,29.31,27.85,,Light Rain
KIGQ,07/22/2016 07:15 UTC,29.92,71.96,68.36,88.46,11.5,190.0,,13.0,,,,802.0,1002.0,,,10.0,,,,,,,,68.35,,S,29.27,27.73,,Light Rain
KIGQ,07/22/2016 07:35 UTC,29.97,72.14,68.36,88.46,8.05,300.0,,,,,,1.0,,,,10.0,,,,,,,,68.52,,WNW,29.32,27.77,,Clear
KIGQ,07/22/2016 07:55 UTC,29.96,71.96,68.54,88.46,4.61,290.0,,,,,,163.0,223.0,,,10.0,,,,,1600.0,,,68.35,,WNW,29.31,27.77,,Mostly Cloudy
KIGQ,07/22/2016 08:15 UTC,30.01,72.5,68.9,88.54,5.75,340.0,,,,,,143.0,194.0,,,10.0,,,,,1400.0,,,68.91,,NNW,29.36,27.78,,Overcast
KIGQ,07/22/2016 08:35 UTC,29.98,72.5,68.9,88.54,0.0,0.0,,,,,,163.0,213.0,,,10.0,,,,,1600.0,,,68.91,,N,29.33,27.75,,Mostly Cloudy
KIGQ,07/22/2016 08:55 UTC,29.98,71.6,68.9,94.07,0.0,0.0,,,,,,182.0,,,,10.0,,,,,,,,69.79,,N,29.33,27.7,,Partly Cloudy
KIGQ,07/22/2016 09:15 UTC,29.97,70.7,68.36,88.46,0.0,0.0,,,,,,222.0,,,,10.0,,,,,,,,67.1,,N,29.32,27.89,,Partly Cloudy
KIGQ,07/22/2016 09:35 UTC,29.98,71.06,68.72,88.46,0.0,0.0,,,,,,1.0,,,,10.0,,,,,,,,67.46,,N,29.33,27.87,,Clear
KIGQ,07/22/2016 09:55 UTC,29.98,71.06,68.54,88.46,0.0,0.0,,,,,,1.0,,,,10.0,,,,,,,,67.46,,N,29.33,27.87,,Clear
KIGQ,07/22/2016 10:15 UTC,29.99,71.06,68.9,94.07,0.0,0.0,,,,,,1.0,,,,10.0,,,,,,,,69.26,,N,29.34,27.75,,Clear
KIGQ,07/22/2016 10:35 UTC,29.99,70.88,68.9,94.07,5.75,130.0,,,,,,1.0,,,,10.0,,,,,,,,69.08,,SE,29.34,27.77,,Clear
KIGQ,07/22/2016 10:55 UTC,30.0,70.88,68.9,94.07,0.0,0.0,,,,,,1.0,,,,10.0,,,,,,,,69.08,,N,29.35,27.78,,Clear
KIGQ,07/22/2016 11:15 UTC,30.01,70.7,68.72,88.46,4.61,110.0,,,,,,1.0,,,,10.0,,,,,,,,67.1,,ESE,29.36,27.93,,Clear
KIGQ,07/22/2016 11:35 UTC,30.01,70.88,68.9,94.07,0.0,0.0,,,,,,1.0,,,,10.0,,,,,,,,69.08,,N,29.36,27.79,,Clear
KIGQ,07/22/2016 11:55 UTC,30.03,71.6,69.08,94.07,0.0,0.0,,,,,,1.0,,,1.29,10.0,,,73.4,70.7,,,,69.79,,N,29.38,27.75,,Clear
KIGQ,07/22/2016 12:15 UTC,30.04,71.78,69.08,94.07,0.0,0.0,,,,,,1.0,,,,10.0,,,,,,,,69.97,,N,29.39,27.74,,Clear
KIGQ,07/22/2016 12:35 UTC,30.03,73.22,69.8,88.54,0.0,0.0,,,,,,1.0,,,,10.0,,,,,,,,69.62,,N,29.38,27.74,,Clear
KIGQ,07/22/2016 12:55 UTC,30.03,74.3,70.34,83.37,0.0,0.0,,,,,,1.0,,,,10.0,,,,,,,,68.91,,N,29.38,27.77,,Clear
KIGQ,07/22/2016 13:15 UTC,30.04,75.38,69.98,83.37,0.0,0.0,,,,,,1.0,,,,10.0,,,,,,,,69.97,,N,29.39,27.69,,Clear
KIGQ,07/22/2016 13:35 UTC,30.04,75.56,69.08,83.37,0.0,0.0,,,,,,1.0,,,,10.0,,,,,,,,70.15,,N,29.39,27.67,,Clear
KIGQ,07/22/2016 13:55 UTC,30.04,76.46,69.8,78.54,0.0,0.0,,,,,,1.0,,,,10.0,,,,,,,,69.27,,N,29.39,27.73,,Clear
KIGQ,07/22/2016 14:15 UTC,30.04,76.64,68.9,78.54,3.44,250.0,,,,,,1.0,,,,10.0,,,,,,,,69.45,,WSW,29.39,27.71,,Clear
KIGQ,07/22/2016 14:35 UTC,30.04,77.9,69.8,74.02,3.44,270.0,,,,,,1.0,,,,10.0,,,,,,,,68.94,,W,29.39,27.73,,Clear
KIGQ,07/22/2016 14:55 UTC,30.04,78.8,69.62,74.02,3.44,260.0,,,,,,192.0,,,,10.0,,,,,,,,69.81,,W,29.39,27.66,,Partly Cloudy
KIGQ,07/22/2016 15:15 UTC,30.04,80.06,68.9,69.79,5.75,250.0,,,,,,1.0,,,,10.0,,,,,,,,69.3,,WSW,29.39,27.68,83.02,Clear
KIGQ,07/22/2016 15:35 UTC,30.04,81.32,68.18,65.62,11.5,280.0,,,,,,1.0,,,,10.0,,,,,,,,68.7,,W,29.39,27.71,84.41,Clear
KIGQ,07/22/2016 15:55 UTC,30.05,80.6,67.1,65.62,11.5,270.0,,,,,,1.0,,,,10.0,,,,,,,,68.01,,W,29.4,27.78,83.31,Clear
KIGQ,07/22/2016 16:15 UTC,30.05,80.24,67.28,65.62,11.5,260.0,16.11,,,,,1.0,,,,10.0,,,,,,,,67.67,,W,29.4,27.81,82.78,Clear
KIGQ,07/22/2016 16:35 UTC,30.05,81.68,67.46,61.9,10.36,260.0,,,,,,1.0,,,,10.0,,,,,,,,67.35,,W,29.4,27.81,84.31,Clear
KIGQ,07/22/2016 16:55 UTC,30.05,81.5,68.36,61.9,10.36,250.0,,,,,,1.0,,,,10.0,,,,,,,,67.18,,WSW,29.4,27.83,84.05,Clear
KIGQ,07/22/2016 17:15 UTC,30.05,82.04,68.36,61.9,11.5,260.0,,,,,,1.0,,,,10.0,,,,,,,,67.69,,W,29.4,27.78,84.84,Clear
KIGQ,07/22/2016 17:35 UTC,30.05,84.02,68.9,62.13,10.36,250.0,17.27,,,,,1.0,,,,10.0,,,,,,,,69.67,,WSW,29.4,27.61,88.14,Clear
KIGQ,07/22/2016 17:55 UTC,30.05,83.48,68.36,58.42,11.5,240.0,18.41,,,,,1.0,,,,10.0,,,84.02,71.6,,,,67.37,,WSW,29.4,27.79,86.29,Clear
KIGQ,07/22/2016 18:15 UTC,30.04,84.38,69.26,62.13,6.91,260.0,16.11,,,,,1.0,,,,10.0,,,,,,,,70.01,,W,29.39,27.57,88.79,Clear
KIGQ,07/22/2016 18:35 UTC,30.04,84.92,69.26,62.13,10.36,270.0,,,,,,1.0,,,,10.0,,,,,,,,70.53,,W,29.39,27.53,89.78,Clear
KIGQ,07/22/2016 18:55 UTC,30.03,84.92,69.26,62.13,9.22,260.0,,,,,,1.0,,,,10.0,,,,,,,,70.53,,W,29.38,27.52,89.78,Clear
KIGQ,07/22/2016 19:15 UTC,30.03,85.46,69.98,58.66,10.36,250.0,,,,,,1.0,,,,10.0,,,,,,,,69.35,,WSW,29.38,27.6,89.65,Clear
KIGQ,07/22/2016 19:35 UTC,30.02,85.46,69.98,58.66,8.05,270.0,,,,,,1.0,,,,10.0,,,,,,,,69.35,,W,29.37,27.59,89.65,Clear
KIGQ,07/22/2016 19:55 UTC,30.01,85.82,70.16,58.66,6.91,280.0,,,,,,1.0,,,,10.0,,,,,,,,69.69,,W,29.36,27.55,90.29,Clear
KIGQ,07/22/2016 20:15 UTC,30.0,86.0,70.34,58.66,4.61,300.0,,,,,,1.0,,,,10.0,,,,,,,,69.86,,WNW,29.35,27.53,90.62,Clear
KIGQ,07/22/2016 20:35 UTC,30.0,86.18,70.7,62.35,3.44,260.0,9.22,,,,,1.0,,,,10.0,,KIGQ 222035Z AUTO 26003G08KT 10SM CLR 30/22 A3000 RMK ,,,,,,71.82,,W,29.35,27.37,92.33,Clear
KIGQ,07/22/2016 20:55 UTC,29.99,86.72,71.24,62.35,8.05,270.0,,,,,,1.0,,,,10.0,,KIGQ 222055Z AUTO 27007KT 10SM CLR 30/22 A2999 RMK ,,,,,,72.34,,W,29.34,27.31,93.45,Clear
KIGQ,07/22/2016 21:15 UTC,29.99,87.08,71.06,58.89,5.75,280.0,,,,,,1.0,,,,10.0,,KIGQ 222115Z AUTO 28005KT 10SM CLR 31/22 A2999 RMK ,,,,,,70.99,,W,29.34,27.41,92.77,Clear
KIGQ,07/22/2016 21:35 UTC,29.99,87.44,71.96,58.89,8.05,270.0,,,,,,1.0,,,,10.0,,KIGQ 222135Z AUTO 27007KT 10SM CLR 31/22 A2999 RMK ,,,,,,71.33,,W,29.34,27.38,93.49,Clear
KIGQ,07/22/2016 21:55 UTC,29.98,87.08,71.42,58.89,4.61,280.0,,,,,,1.0,,,,10.0,,KIGQ 222155Z AUTO 28004KT 10SM CLR 31/22 A2998 RMK ,,,,,,70.99,,W,29.33,27.4,92.77,Clear
KIGQ,07/22/2016 22:15 UTC,29.97,87.08,71.06,58.89,0.0,0.0,,,,,,1.0,,,,10.0,,KIGQ 222215Z AUTO 00000KT 10SM CLR 31/22 A2997 RMK ,,,,,,70.99,,N,29.32,27.39,92.77,Clear
KIGQ,07/22/2016 22:35 UTC,29.98,87.26,71.6,58.89,4.61,270.0,,,,,,332.0,,,,10.0,,KIGQ 222235Z AUTO 27004KT 10SM SCT033 31/22 A2998 RMK ,,,,,,71.16,,W,29.33,27.39,93.13,Partly Cloudy
KIGQ,07/22/2016 22:55 UTC,29.97,87.26,71.6,58.89,3.44,320.0,,,,,,1.0,,,,10.0,,KIGQ 222255Z AUTO 32003KT 10SM CLR 31/22 A2997,,,,,,71.16,,NW,29.32,27.38,93.13,Clear
KIGQ,07/22/2016 23:15 UTC,29.97,87.44,71.96,58.89,5.75,230.0,,,,,,1.0,,,,10.0,,KIGQ 222315Z AUTO 23005KT 10SM CLR 31/22 A2997,,,,,,71.33,,SW,29.32,27.36,93.49,Clear
KIGQ,07/22/2016 23:35 UTC,29.97,87.08,71.6,58.89,3.44,260.0,,,,,,1.0,,,,10.0,,KIGQ 222335Z AUTO 26003KT 10SM CLR 31/22 A2997,,,,,,70.99,,W,29.32,27.39,92.77,Clear
KIGQ,07/22/2016 23:55 UTC,29.97,86.36,72.32,62.35,5.75,250.0,,,,,,1.0,,,,10.0,,KIGQ 222355Z AUTO 25005KT 10SM CLR 30/22 A2997,87.8,83.66,,,,71.99,,WSW,29.32,27.32,92.7,Clear
KIGQ,07/23/2016 00:15 UTC,29.97,86.0,72.14,62.35,5.75,250.0,,,,,,1.0,,,,10.0,,KIGQ 230015Z AUTO 25005KT 10SM CLR 30/22 A2997,,,,,,71.65,,WSW,29.32,27.35,91.96,Clear
KIGQ,07/23/2016 00:35 UTC,29.98,84.92,72.68,70.17,5.75,230.0,,,,,,1.0,,,,10.0,,KIGQ 230035Z AUTO 23005KT 10SM CLR 29/23 A2998,,,,,,74.12,,SW,29.33,27.16,92.58,Clear
KIGQ,07/23/2016 00:55 UTC,29.97,83.48,73.58,70.17,4.61,210.0,,,,,,352.0,,,,10.0,,KIGQ 230055Z AUTO 21004KT 10SM SCT035 29/23 A2997,,,,,,72.74,,SSW,29.32,27.29,89.42,Partly Cloudy
KIGQ,07/23/2016 01:15 UTC,29.98,81.32,73.76,78.82,5.75,200.0,,,,,,352.0,,,,10.0,,KIGQ 230115Z AUTO 20005KT 10SM SCT035 27/23 A2998,,,,,,74.11,,SSW,29.33,27.21,86.92,Partly Cloudy
KIGQ,07/23/2016 01:35 UTC,29.98,80.06,73.76,78.82,3.44,210.0,,,,,,352.0,,,,10.0,,KIGQ 230135Z AUTO 21003KT 10SM SCT035 27/23 A2998,,,,,,72.88,,SSW,29.33,27.34,84.2,Partly Cloudy
KIGQ,07/23/2016 01:55 UTC,29.98,80.6,73.94,78.82,4.61,220.0,,,,,,1.0,,,,10.0,,KIGQ 230155Z AUTO 22004KT 10SM CLR 27/23 A2998,,,,,,73.41,,SW,29.33,27.28,85.33,Clear
KIGQ,07/23/2016 02:15 UTC,29.99,78.98,73.76,83.6,4.61,220.0,,,,,,1.0,,,,10.0,,KIGQ 230215Z AUTO 22004KT 10SM CLR 26/23 A2999,,,,,,73.58,,SW,29.34,27.3,,Clear
KIGQ,07/23/2016 02:35 UTC,29.99,77.72,73.04,88.7,3.44,200.0,,,,,,1.0,,,,10.0,,KIGQ 230235Z AUTO 20003KT 10SM CLR 25/23 A2999,,,,,,74.11,,SSW,29.34,27.28,,Clear
KIGQ,07/23/2016 02:55 UTC,29.99,77.0,73.04,88.7,0.0,0.0,,,,,,1.0,,,,10.0,,KIGQ 230255Z AUTO 00000KT 10SM CLR 25/23 A2999,,,,,,73.4,,N,29.34,27.35,,Clear
KIGQ,07/23/2016 03:15 UTC,29.99,77.36,73.04,88.7,4.61,180.0,,,,,,1.0,,,,10.0,,KIGQ 230315Z AUTO 18004KT 10SM CLR 25/23 A2999,,,,,,73.75,,S,29.34,27.31,,Clear
KIGQ,07/23/2016 03:35 UTC,29.99,76.64,72.68,88.7,3.44,200.0,,,,,,1.0,,,,10.0,,KIGQ 230335Z AUTO 20003KT 10SM CLR 25/23 A2999,,,,,,73.04,,SSW,29.34,27.38,,Clear
KIGQ,07/23/2016 03:55 UTC,30.0,77.54,73.58,88.7,4.61,220.0,,,,,,1.0,,,,10.0,,KIGQ 230355Z AUTO 22004KT 10SM CLR 25/23 A3000,,,,,,73.93,,SW,29.35,27.3,,Clear
KIGQ,07/23/2016 04:15 UTC,30.0,77.9,73.58,83.6,4.61,220.0,,,,,,332.0,,,,10.0,,KIGQ 230415Z AUTO 22004KT 10SM SCT033 26/23 A3000,,,,,,72.52,,SW,29.35,27.42,,Partly Cloudy
KIGQ,07/23/2016 04:35 UTC,30.01,78.44,73.76,83.6,4.61,220.0,,,,,,314.0,,,,10.0,,KIGQ 230435Z AUTO 22004KT 10SM OVC031 26/23 A3001,,,3100.0,,,73.05,,SW,29.36,27.37,,Overcast
KIGQ,07/23/2016 04:55 UTC,30.01,78.62,73.94,83.6,4.61,220.0,,,474.0,,,313.0,383.0,,,10.0,,KIGQ 230455Z AUTO 22004KT 10SM BKN031 BKN038 OVC047 26/23  A3001,,,3100.0,,,73.23,,SW,29.36,27.36,,Overcast
KIGQ,07/23/2016 05:15 UTC,30.0,77.72,73.4,88.7,4.61,190.0,,,474.0,,,292.0,332.0,,,10.0,,KIGQ 230515Z AUTO 19004KT 10SM SCT029 SCT033 OVC047 25/23  A3000,,,4700.0,,,74.11,,S,29.35,27.29,,Overcast
KIGQ,07/23/2016 05:35 UTC,30.01,77.0,73.4,88.7,4.61,200.0,,,,,,272.0,503.0,,,10.0,,KIGQ 230535Z AUTO 20004KT 10SM SCT027 BKN050 25/23 A3001,,,5000.0,,,73.4,,SSW,29.36,27.37,,Mostly Cloudy
KIGQ,07/23/2016 05:55 UTC,30.0,77.9,73.4,83.6,4.61,230.0,,,,,,273.0,503.0,,,10.0,,KIGQ 230555Z AUTO 23004KT 10SM BKN027 BKN050 26/23 A3000,86.36,76.28,2700.0,87.8,70.7,72.52,,SW,29.35,27.42,,Mostly Cloudy
KIGQ,07/23/2016 06:15 UTC,30.01,77.54,73.04,88.7,3.44,230.0,,,,,,273.0,,,,10.0,,KIGQ 230615Z AUTO 23003KT 10SM BKN027 25/23 A3001,,,2700.0,,,73.93,,SW,29.36,27.31,,Mostly Cloudy
KIGQ,07/23/2016 06:35 UTC,30.0,76.46,72.5,88.7,3.44,200.0,,,,,,292.0,,,,10.0,,KIGQ 230635Z AUTO 20003KT 10SM SCT029 25/23 A3000,,,,,,72.87,,SSW,29.35,27.41,,Partly Cloudy
KIGQ,07/23/2016 06:55 UTC,30.0,75.38,72.5,94.16,4.61,200.0,,,552.0,,,342.0,472.0,,,10.0,,KIGQ 230655Z AUTO 20004KT 10SM SCT034 SCT047 SCT055 24/23  A3000,,,,,,73.58,,SSW,29.35,27.37,,Partly Cloudy
KIGQ,07/23/2016 07:15 UTC,30.0,75.38,72.86,94.16,0.0,0.0,,,,,,432.0,703.0,,,10.0,,KIGQ 230715Z AUTO 00000KT 10SM SCT043 BKN070 24/23 A3000,,,7000.0,,,73.58,,N,29.35,27.37,,Mostly Cloudy
KIGQ,07/23/2016 07:35 UTC,30.0,76.1,72.68,88.7,0.0,0.0,,,,,,703.0,,,,10.0,,KIGQ 230735Z AUTO 00000KT 10SM BKN070 25/23 A3000,,,7000.0,,,72.51,,N,29.35,27.44,,Mostly Cloudy
KIGQ,07/23/2016 07:55 UTC,29.99,74.84,72.14,88.62,3.44,180.0,,,,,,702.0,,,,10.0,,KIGQ 230755Z AUTO 18003KT 10SM SCT070 24/22 A2999,,,,,,71.24,,S,29.34,27.55,,Partly Cloudy
KIGQ,07/23/2016 08:15 UTC,29.99,74.48,72.14,88.62,4.61,180.0,,,,,,702.0,,,,10.0,,KIGQ 230815Z AUTO 18004KT 10SM SCT070 24/22 A2999,,,,,,70.89,,S,29.34,27.58,,Partly Cloudy
KIGQ,07/23/2016 08:35 UTC,30.0,73.94,71.6,94.12,0.0,0.0,,,,,,1.0,,,,10.0,,KIGQ 230835Z AUTO 00000KT 10SM CLR 23/22 A3000,,,,,,72.13,,N,29.35,27.51,,Clear
KIGQ,07/23/2016 08:55 UTC,29.99,74.84,72.86,94.16,0.0,0.0,,,,,,273.0,343.0,,,10.0,,KIGQ 230855Z AUTO 00000KT 10SM BKN027 BKN034 24/23 A2999,,,2700.0,,,73.04,,N,29.34,27.41,,Mostly Cloudy
KIGQ,07/23/2016 09:15 UTC,29.99,75.2,72.68,94.16,0.0,0.0,,,,,,294.0,,,,10.0,,KIGQ 230915Z AUTO 00000KT 10SM OVC029 24/23 A2999,,,2900.0,,,73.4,,N,29.34,27.37,,Overcast
KIGQ,07/23/2016 09:35 UTC,29.99,74.66,72.5,94.16,0.0,0.0,,,,,,292.0,,,,10.0,,KIGQ 230935Z AUTO 00000KT 10SM SCT029 24/23 A2999,,,,,,72.86,,N,29.34,27.43,,Partly Cloudy
KIGQ,07/23/2016 09:55 UTC,29.98,74.66,72.5,94.16,0.0,0.0,,,,,,1.0,,,,10.0,,KIGQ 230955Z AUTO 00000KT 10SM CLR 24/23 A2998,,,,,,72.86,,N,29.33,27.42,,Clear
KIGQ,07/23/2016 10:15 UTC,29.98,74.12,71.96,94.12,0.0,0.0,,,,,,293.0,,,,10.0,,KIGQ 231015Z AUTO 00000KT 10SM BKN029 23/22 A2998,,,2900.0,,,72.31,,N,29.33,27.47,,Mostly Cloudy
KIGQ,07/23/2016 10:35 UTC,29.99,74.3,73.4,94.16,0.0,0.0,,,,,,294.0,,,,10.0,,KIGQ 231035Z AUTO 00000KT 10SM OVC029 24/23 A2999,,,2900.0,,,72.5,,N,29.34,27.46,,Overcast
KIGQ,07/23/2016 10:55 UTC,29.99,75.02,73.94,94.16,3.44,220.0,,,,,,294.0,,,,10.0,,KIGQ 231055Z AUTO 22003KT 10SM OVC029 24/23 A2999,,,2900.0,,,73.22,,SW,29.34,27.39,,Overcast
KIGQ,07/23/2016 11:15 UTC,29.99,75.2,73.94,94.16,0.0,0.0,,,,,,334.0,,,,10.0,,KIGQ 231115Z AUTO 00000KT 10SM OVC033 24/23 A2999,,,3300.0,,,73.4,,N,29.34,27.37,,Overcast
KIGQ,07/23/2016 11:35 UTC,30.0,75.56,74.3,100.0,0.0,0.0,,,,,,334.0,,,,10.0,,KIGQ 231135Z AUTO 00000KT 10SM OVC033 24/24 A3000,,,3300.0,,,75.56,,N,29.35,27.2,,Overcast
KIGQ,07/23/2016 11:55 UTC,30.0,77.0,74.3,94.2,3.44,270.0,,,,,,354.0,,,,10.0,,KIGQ 231155Z AUTO 27003KT 10SM OVC035 25/24 A3000,78.08,73.94,3500.0,,,75.2,,W,29.35,27.2,,Overcast
KIGQ,07/23/2016 12:15 UTC,30.0,77.72,74.12,88.7,3.44,280.0,,,,,,333.0,454.0,,,10.0,,KIGQ 231215Z AUTO 28003KT 10SM BKN033 OVC045 25/23 A3000,,,3300.0,,,74.11,,W,29.35,27.29,,Overcast
KIGQ,07/23/2016 12:35 UTC,30.01,78.98,74.3,88.78,0.0,0.0,,,493.0,,,322.0,372.0,,,10.0,,KIGQ 231235Z AUTO 00000KT 10SM SCT032 SCT037 BKN049 26/24  A3001,,,4900.0,,,75.38,,N,29.36,27.17,,Mostly Cloudy
KIGQ,07/23/2016 12:55 UTC,30.0,80.6,74.48,83.71,0.0,0.0,,,,,,492.0,,,,10.0,,KIGQ 231255Z AUTO 00000KT 10SM SCT049 27/24 A3000,,,,,,75.21,,N,29.35,27.15,86.17,Partly Cloudy
KIGQ,07/23/2016 13:15 UTC,30.0,82.4,75.02,78.97,0.0,0.0,,,,,,1.0,,,,10.0,,KIGQ 231315Z AUTO 00000KT 10SM CLR 28/24 A3000,,,,,,75.22,,N,29.35,27.12,89.49,Clear
KIGQ,07/23/2016 13:35 UTC,29.99,83.3,75.02,74.52,0.0,0.0,,,,,,1.0,,,,10.0,,KIGQ 231335Z AUTO 00000KT 10SM CLR 29/24 A2999,,,,,,74.36,,N,29.34,27.18,90.34,Clear
KIGQ,07/23/2016 13:55 UTC,30.0,83.66,75.02,74.52,0.0,0.0,,,,,,1.0,,,,10.0,,KIGQ 231355Z AUTO 00000KT 10SM CLR 29/24 A3000,,,,,,74.7,,N,29.35,27.15,91.18,Clear
KIGQ,07/23/2016 14:15 UTC,29.99,84.38,75.38,74.52,0.0,0.0,,,,,,1.0,,,,10.0,,KIGQ 231415Z AUTO 00000KT 10SM CLR 29/24 A2999,,,,,,75.4,,N,29.34,27.07,92.92,Clear
KIGQ,07/23/2016 14:35 UTC,29.99,85.28,75.38,70.36,0.0,0.0,,,,,,552.0,,,,10.0,,KIGQ 231435Z AUTO 00000KT 10SM SCT055 30/24 A2999,,,,,,74.55,,N,29.34,27.13,93.49,Partly Cloudy
KIGQ,07/23/2016 14:55 UTC,29.99,86.0,74.66,70.36,3.44,170.0,,,483.0,,,302.0,382.0,,,10.0,,KIGQ 231455Z AUTO 17003KT 10SM SCT030 SCT038 BKN048 30/24  A2999,,,4800.0,,,75.24,,S,29.34,27.06,95.23,Mostly Cloudy
KIGQ,07/23/2016 15:15 UTC,29.99,86.54,73.4,66.25,0.0,0.0,,,553.0,,,322.0,382.0,,,10.0,,KIGQ 231515Z AUTO 00000KT 10SM SCT032 SCT038 BKN055 30/23  A2999,,,5500.0,,,73.96,,N,29.34,27.17,94.71,Mostly Cloudy
KIGQ,07/23/2016 15:35 UTC,29.99,86.9,73.94,62.58,3.44,170.0,,,552.0,,,342.0,452.0,,,10.0,,KIGQ 231535Z AUTO 17003KT 10SM SCT034 SCT045 SCT055 31/23  A2999,,,,,,72.62,,S,29.34,27.28,93.93,Partly Cloudy
KIGQ,07/23/2016 15:55 UTC,30.0,87.8,75.02,66.46,5.75,200.0,,,,,,382.0,602.0,,,10.0,,KIGQ 231555Z AUTO 20005KT 10SM SCT038 SCT060 31/24 A3000,,,,,,75.26,,SSW,29.35,27.05,97.82,Partly Cloudy
KIGQ,07/23/2016 16:15 UTC,30.0,87.26,74.12,62.58,5.75,210.0,,,603.0,,,273.0,403.0,,,10.0,,KIGQ 231615Z AUTO 21005KT 10SM BKN027 BKN040 BKN060 31/23  A3000,,,2700.0,,,72.96,,SSW,29.35,27.26,94.71,Mostly Cloudy
KIGQ,07/23/2016 16:35 UTC,29.99,87.62,74.3,66.46,6.91,210.0,,,,,,273.0,373.0,,,10.0,,KIGQ 231635Z AUTO 21006KT 10SM BKN027 BKN037 31/24 A2999,,,2700.0,,,75.09,,SSW,29.34,27.05,97.37,Mostly Cloudy
KIGQ,07/23/2016 16:55 UTC,29.99,88.88,74.84,62.8,8.05,230.0,,,453.0,,,273.0,353.0,,,10.0,,KIGQ 231655Z AUTO 23007KT 10SM BKN027 BKN035 BKN045 32/24  A2999,,,2700.0,,,74.6,,SW,29.34,27.08,98.54,Mostly Cloudy
KIGQ,07/23/2016 17:15 UTC,29.99,88.52,74.84,66.46,8.05,230.0,,,503.0,,,272.0,423.0,,,10.0,,KIGQ 231715Z AUTO 23007KT 10SM SCT027 BKN042 BKN050 31/24  A2999,,,4200.0,,,75.95,,SW,29.34,26.96,99.63,Mostly Cloudy
KIGQ,07/23/2016 17:35 UTC,29.99,88.88,74.84,62.8,9.22,220.0,,,472.0,,,292.0,422.0,,,10.0,,KIGQ 231735Z AUTO 22008KT 10SM SCT029 SCT042 SCT047 32/24  A2999,,,,,,74.6,,SW,29.34,27.08,98.54,Partly Cloudy
KIGQ,07/23/2016 17:55 UTC,29.99,89.42,74.3,62.8,8.05,230.0,,,,,,1.0,,,,10.0,,KIGQ 231755Z AUTO 23007KT 10SM CLR 32/24 A2999,89.6,77.0,,,,75.11,,SW,29.34,27.03,99.85,Clear
KIGQ,07/23/2016 18:15 UTC,29.99,89.06,75.02,62.8,10.36,220.0,,,,,,1.0,,,,10.0,,KIGQ 231815Z AUTO 22009KT 10SM CLR 32/24 A2999,,,,,,74.77,,SW,29.34,27.07,98.97,Clear
KIGQ,07/23/2016 18:35 UTC,29.99,89.42,74.66,62.8,8.05,190.0,,,,,,312.0,,,,10.0,,KIGQ 231835Z AUTO 19007KT 10SM SCT031 32/24 A2999,,,,,,75.11,,S,29.34,27.03,99.85,Partly Cloudy
KIGQ,07/23/2016 18:55 UTC,29.98,88.7,75.02,62.8,5.75,210.0,,,,,,312.0,392.0,,,10.0,,KIGQ 231855Z AUTO 21005KT 10SM SCT031 SCT039 32/24 A2998,,,,,,74.43,,SSW,29.33,27.09,98.11,Partly Cloudy
KIGQ,07/23/2016 19:15 UTC,29.97,89.78,75.74,62.8,8.05,210.0,,,,,,312.0,372.0,,,10.0,,KIGQ 231915Z AUTO 21007KT 10SM SCT031 SCT037 32/24 A2997,,,,,,75.45,,SSW,29.32,26.97,100.75,Partly Cloudy
KIGQ,07/23/2016 19:35 UTC,29.97,89.06,74.66,62.8,6.91,240.0,,,,,,292.0,,,,10.0,,KIGQ 231935Z AUTO 24006KT 10SM SCT029 32/24 A2997,,,,,,74.77,,WSW,29.32,27.05,98.97,Partly Cloudy
KIGQ,07/23/2016 19:55 UTC,29.97,89.6,73.58,59.13,9.22,220.0,,,,,,312.0,652.0,,,10.0,,KIGQ 231955Z AUTO 22008KT 10SM SCT031 SCT065 32/23 A2997,,,,,,73.49,,SW,29.32,27.15,98.26,Partly Cloudy
KIGQ,07/23/2016 20:15 UTC,29.96,89.6,74.66,62.8,9.22,220.0,,,,,,332.0,442.0,,,10.0,,KIGQ 232015Z AUTO 22008KT 10SM SCT033 SCT044 32/24 A2996,,,,,,75.28,,SW,29.31,26.98,100.3,Partly Cloudy
KIGQ,07/23/2016 20:35 UTC,29.95,89.78,75.02,62.8,10.36,220.0,,,,,,312.0,442.0,,,10.0,,KIGQ 232035Z AUTO 22009KT 10SM SCT031 SCT044 32/24 A2995,,,,,,75.45,,SW,29.3,26.95,100.75,Partly Cloudy
KIGQ,07/23/2016 20:55 UTC,29.94,89.96,75.38,62.8,8.05,200.0,,,552.0,,,312.0,382.0,,,10.0,,KIGQ 232055Z AUTO 20007KT 10SM SCT031 SCT038 SCT055 32/24  A2994,,,,,,75.62,,SSW,29.29,26.93,101.21,Partly Cloudy
KIGQ,07/23/2016 21:15 UTC,29.93,89.42,74.84,62.8,9.22,200.0,,,552.0,,,312.0,382.0,,,10.0,,KIGQ 232115Z AUTO 20008KT 10SM SCT031 SCT038 SCT055 32/24  A2993,,,,,,75.11,,SSW,29.28,26.97,99.85,Partly Cloudy
KIGQ,07/23/2016 21:35 UTC,29.94,87.98,74.84,66.46,8.05,210.0,,,,,,322.0,,,,10.0,,KIGQ 232135Z AUTO 21007KT 10SM SCT032 31/24 A2994,,,,,,75.43,,SSW,29.29,26.97,98.26,Partly Cloudy
KIGQ,07/23/2016 21:55 UTC,29.95,87.8,75.38,66.46,8.05,210.0,,,,,,322.0,,,,10.0,,KIGQ 232155Z AUTO 21007KT 10SM SCT032 31/24 A2995,,,,,,75.26,,SSW,29.3,27.0,97.82,Partly Cloudy
KIGQ,07/23/2016 22:15 UTC,29.94,88.7,76.1,66.66,8.05,220.0,,,,,,1.0,,,,10.0,,KIGQ 232215Z AUTO 22007KT 10SM CLR 32/25 A2994,,,,,,76.21,,SW,29.29,26.89,100.21,Clear
KIGQ,07/23/2016 22:35 UTC,29.94,87.62,75.74,66.46,9.22,230.0,,,462.0,,,292.0,362.0,,,10.0,,KIGQ 232235Z AUTO 23008KT 10SM SCT029 SCT036 SCT046 31/24  A2994,,,,,,75.09,,SW,29.29,27.0,97.37,Partly Cloudy
KIGQ,07/23/2016 22:55 UTC,29.93,87.26,76.28,70.54,9.22,200.0,,,,,,1.0,,,,10.0,,KIGQ 232255Z AUTO 20008KT 10SM CLR 31/25 A2993,,,,,,76.53,,SSW,29.28,26.86,98.52,Clear
KIGQ,07/23/2016 23:15 UTC,29.94,86.54,75.2,70.36,6.91,220.0,,,,,,272.0,352.0,,,10.0,,KIGQ 232315Z AUTO 22006KT 10SM SCT027 SCT035 30/24 A2994,,,,,,75.76,,SW,29.29,26.96,96.57,Partly Cloudy
KIGQ,07/23/2016 23:35 UTC,29.92,86.0,75.38,70.36,5.75,200.0,,,,,,302.0,352.0,,,10.0,,KIGQ 232335Z AUTO 20005KT 10SM SCT030 SCT035 30/24 A2992,,,,,,75.24,,SSW,29.27,26.99,95.23,Partly Cloudy
KIGQ,07/24/2016 00:00 UTC,29.93,84.74,75.56,74.52,0.0,0.0,,,,,,1.0,,,,10.0,,KIGQ 240000Z AUTO 00000KT 10SM CLR 29/24 A2993,,,,,,75.75,,N,29.28,26.97,93.82,Clear
KIGQ,07/24/2016 00:15 UTC,29.94,84.74,75.02,74.52,3.44,250.0,,,,,,1003.0,,,,10.0,,KIGQ 240015Z AUTO 25003KT 10SM BKN100 29/24 A2994,,,10000.0,,,75.75,,WSW,29.29,26.98,93.82,Mostly Cloudy
KIGQ,07/24/2016 00:35 UTC,29.98,79.88,68.54,65.62,21.85,360.0,26.46,,1004.0,,,212.0,323.0,,,10.0,,KIGQ 240035Z AUTO 36019G23KT 10SM SCT021 BKN032 OVC100 27/20  A2998,,,3200.0,,,67.33,,N,29.33,27.76,,Overcast
KIGQ,07/24/2016 00:55 UTC,29.99,74.66,68.18,78.39,6.91,40.0,23.02,5.0,364.0,,,142.0,243.0,,,10.0,,KIGQ 240055Z AUTO 04006G20KT 350V070 10SM VCTS SCT014 BKN024  OVC036 24/20 A2999,,,2400.0,,,67.47,,NE,29.34,27.83,,Thunder
KIGQ,07/24/2016 01:15 UTC,29.98,75.02,70.34,83.37,6.91,60.0,,,604.0,0.02,,142.0,443.0,,,7.0,,KIGQ 240115Z AUTO 06006KT 7SM VCTSRA SCT014 BKN044 OVC060 24/21  A2998,,,4400.0,,,69.62,,ENE,29.33,27.66,,Overcast
KIGQ,07/24/2016 01:35 UTC,29.96,74.3,71.24,88.62,5.75,120.0,,,602.0,0.02,,142.0,482.0,,,10.0,,KIGQ 240135Z AUTO 12005KT 10SM SCT014 SCT048 SCT060 24/22  A2996,,,,,,70.71,,ESE,29.31,27.57,,Partly Cloudy
KIGQ,07/24/2016 01:55 UTC,29.95,74.66,71.6,88.62,6.91,100.0,,,,0.02,,1.0,,,,10.0,,KIGQ 240155Z AUTO 10006KT 10SM CLR 24/22 A2995,,,,,,71.06,,E,29.3,27.53,,Clear
KIGQ,07/24/2016 02:15 UTC,29.96,74.84,71.6,88.62,13.8,100.0,,,,,,1.0,,,,10.0,,KIGQ 240215Z AUTO 10012KT 10SM CLR 24/22 A2996,,,,,,71.24,,E,29.31,27.52,,Clear
KIGQ,07/24/2016 02:35 UTC,29.97,74.3,70.34,83.37,6.91,120.0,16.11,,,,,1202.0,,,,10.0,,KIGQ 240235Z AUTO 12006G14KT 10SM SCT120 24/21 A2997,,,,,,68.91,,ESE,29.32,27.71,,Partly Cloudy
KIGQ,07/24/2016 02:55 UTC,29.95,74.48,68.9,83.37,5.75,130.0,,5.0,,,0.02,952.0,1202.0,,,10.0,,KIGQ 240255Z AUTO 13005KT 10SM VCTS SCT095 SCT120 24/21 A2995,,,,,,69.09,,SE,29.3,27.68,,Thunder
KIGQ,07/24/2016 03:15 UTC,29.94,74.84,68.36,78.39,5.75,130.0,,,,,,1.0,,,,10.0,,KIGQ 240315Z AUTO 13005KT 10SM CLR 24/20 A2994,,,,,,67.64,,SE,29.29,27.76,,Clear
KIGQ,07/24/2016 03:35 UTC,29.96,75.2,68.72,78.39,0.0,0.0,,,,,,952.0,1103.0,,,10.0,,KIGQ 240335Z AUTO 00000KT 10SM SCT095 BKN110 24/20 A2996,,,11000.0,,,67.99,,N,29.31,27.75,,Mostly Cloudy
KIGQ,07/24/2016 03:55 UTC,30.04,74.3,68.9,83.37,14.97,330.0,29.93,,954.0,0.08,,52.0,363.0,,,4.0,,KIGQ 240355Z AUTO 33013G26KT 4SM +VCTSRA SCT005 BKN036 OVC095  24/21 A3004,,,3600.0,,,68.91,,NNW,29.39,27.78,,Overcast
KIGQ,07/24/2016 04:15 UTC,30.02,69.8,67.28,94.03,8.05,10.0,18.41,78.0,,0.81,,53.0,124.0,,,1.0,,KIGQ 240415Z AUTO 01007G16KT 1SM +TSRA BKN005 OVC012 21/20  A3002,,,500.0,,,67.99,,N,29.37,27.89,,Heavy Rain/Thunderstorm
KIGQ,07/24/2016 04:35 UTC,30.02,69.8,67.64,94.03,4.61,300.0,,78.0,364.0,1.28,,52.0,103.0,,,2.5,,KIGQ 240435Z AUTO 30004KT 2 1/2SM +TSRA SCT005 BKN010 OVC036 21/20  A3002,,,1000.0,,,67.99,,WNW,29.37,27.89,,Heavy Rain/Thunderstorm
KIGQ,07/24/2016 04:55 UTC,30.04,69.98,68.72,94.03,5.75,220.0,,78.0,404.0,1.51,,92.0,312.0,,,4.0,,KIGQ 240455Z AUTO 22005KT 4SM +TSRA SCT009 SCT031 OVC040 21/20  A3004,,,4000.0,,,68.17,,SW,29.39,27.9,,Heavy Rain/Thunderstorm
KIGQ,07/24/2016 05:15 UTC,30.01,69.98,68.9,100.0,3.44,100.0,,66.0,1004.0,0.06,,352.0,453.0,,,4.0,,KIGQ 240515Z AUTO 10003KT 4SM TSRA SCT035 BKN045 OVC100 21/21  A3001,,,4500.0,,,69.98,,E,29.36,27.74,,Thunderstorm
KIGQ,07/24/2016 05:35 UTC,30.01,70.16,68.9,100.0,4.61,100.0,,66.0,1004.0,0.07,,432.0,752.0,,,7.0,,KIGQ 240535Z AUTO 10004KT 7SM TSRA SCT043 SCT075 OVC100 21/21  A3001,,,10000.0,,,70.16,,E,29.36,27.72,,Thunderstorm
KIGQ,07/24/2016 05:55 UTC,30.0,70.34,69.26,100.0,5.75,100.0,,78.0,1004.0,0.13,,602.0,802.0,1.8,,7.0,,KIGQ 240555Z AUTO 10005KT 7SM +TSRA SCT060 SCT080 OVC100 21/21  A3000,85.28,69.62,10000.0,90.14,69.62,70.34,,E,29.35,27.7,,Heavy Rain/Thunderstorm
KIGQ,07/24/2016 06:15 UTC,29.99,70.34,69.08,100.0,6.91,180.0,,1.0,1204.0,0.04,,602.0,1003.0,,,10.0,,KIGQ 240615Z AUTO 18006KT 10SM RA SCT060 BKN100 OVC120 21/21  A2999,,,10000.0,,,70.34,,S,29.34,27.69,,Rain
KIGQ,07/24/2016 06:35 UTC,29.98,70.34,69.08,100.0,5.75,200.0,,,,0.1,,1104.0,,,,5.0,,KIGQ 240635Z AUTO 20005KT 5SM VCTSRA OVC110 21/21 A2998,,,11000.0,,,70.34,,SSW,29.33,27.68,,Overcast
KIGQ,07/24/2016 06:55 UTC,29.95,70.7,69.44,94.07,8.05,130.0,,1.0,,0.11,,1002.0,1203.0,,,10.0,,KIGQ 240655Z AUTO 13007KT 10SM RA SCT100 BKN120 22/21 A2995,,,12000.0,,,68.9,,SE,29.3,27.74,,Rain
KIGQ,07/24/2016 07:15 UTC,29.95,70.34,69.26,100.0,4.61,170.0,,13.0,,,,1103.0,,,,10.0,,KIGQ 240715Z AUTO 17004KT 10SM -RA BKN110 21/21 A2995,,,11000.0,,,70.34,,S,29.3,27.65,,Light Rain
KIGQ,07/24/2016 07:35 UTC,29.95,70.7,68.9,94.07,3.44,200.0,,13.0,,,,902.0,1102.0,,,10.0,,KIGQ 240735Z AUTO 20003KT 10SM -RA SCT090 SCT110 22/21 A2995,,,,,,68.9,,SSW,29.3,27.74,,Light Rain
KIGQ,07/24/2016 07:55 UTC,29.94,70.7,68.9,94.07,3.44,180.0,,,,,,1.0,,,,10.0,,KIGQ 240755Z AUTO 18003KT 10SM CLR 22/21 A2994,,,,,,68.9,,S,29.29,27.73,,Clear
KIGQ,07/24/2016 08:15 UTC,29.94,70.7,69.08,94.07,3.44,200.0,,,,,,1103.0,,,,10.0,,KIGQ 240815Z AUTO 20003KT 10SM BKN110 22/21 A2994,,,11000.0,,,68.9,,SSW,29.29,27.73,,Mostly Cloudy
KIGQ,07/24/2016 08:35 UTC,29.93,70.7,68.9,94.07,4.61,180.0,,,,,,1103.0,,,,10.0,,KIGQ 240835Z AUTO 18004KT 10SM BKN110 22/21 A2993,,,11000.0,,,68.9,,S,29.28,27.72,,Mostly Cloudy
KIGQ,07/24/2016 08:55 UTC,29.93,70.34,68.9,100.0,4.61,170.0,,,,,0.11,1202.0,,,,10.0,,KIGQ 240855Z AUTO 17004KT 10SM SCT120 21/21 A2993,,,,,,70.34,,S,29.28,27.63,,Partly Cloudy
KIGQ,07/24/2016 09:15 UTC,29.92,70.34,69.08,100.0,5.75,190.0,,,,,,1202.0,,,,10.0,,KIGQ 240915Z AUTO 19005KT 10SM SCT120 21/21 A2992,,,,,,70.34,,S,29.27,27.62,,Partly Cloudy
KIGQ,07/24/2016 09:35 UTC,29.93,70.34,68.9,100.0,5.75,180.0,,,,,,1202.0,,,,10.0,,KIGQ 240935Z AUTO 18005KT 10SM SCT120 21/21 A2993,,,,,,70.34,,S,29.28,27.63,,Partly Cloudy
KIGQ,07/24/2016 09:55 UTC,29.93,70.34,68.9,100.0,6.91,180.0,,,,,,1.0,,,,10.0,,KIGQ 240955Z AUTO 18006KT 10SM CLR 21/21 A2993,,,,,,70.34,,S,29.28,27.63,,Clear
KIGQ,07/24/2016 10:15 UTC,29.94,70.34,68.54,94.03,6.91,170.0,,,,,,272.0,1202.0,,,10.0,,KIGQ 241015Z AUTO 17006KT 10SM SCT027 SCT120 21/20 A2994,,,,,,68.53,,S,29.29,27.76,,Partly Cloudy
KIGQ,07/24/2016 10:35 UTC,29.94,70.16,68.18,94.03,6.91,170.0,,,,,,1202.0,,,,10.0,,KIGQ 241035Z AUTO 17006KT 10SM SCT120 21/20 A2994,,,,,,68.35,,S,29.29,27.78,,Partly Cloudy
KIGQ,07/24/2016 10:55 UTC,29.94,70.16,68.18,94.03,6.91,180.0,,,,,,1.0,,,,10.0,,KIGQ 241055Z AUTO 18006KT 10SM CLR 21/20 A2994,,,,,,68.35,,S,29.29,27.78,,Clear
KIGQ,07/24/2016 11:15 UTC,29.94,70.16,68.18,94.03,9.22,170.0,,,,,,1.0,,,,10.0,,KIGQ 241115Z AUTO 17008KT 10SM CLR 21/20 A2994,,,,,,68.35,,S,29.29,27.78,,Clear
KIGQ,07/24/2016 11:35 UTC,29.93,70.7,68.36,88.46,10.36,170.0,,,,,,1.0,,,,10.0,,KIGQ 241135Z AUTO 17009KT 10SM CLR 22/20 A2993,,,,,,67.1,,S,29.28,27.85,,Clear
KIGQ,07/24/2016 11:55 UTC,29.94,71.6,68.36,88.46,8.05,170.0,,,,,,1.0,,0.11,1.91,10.0,,KIGQ 241155Z AUTO 17007KT 10SM CLR 22/20 A2994,71.6,70.16,,,,67.99,,S,29.29,27.78,,Clear
KIGQ,07/24/2016 12:15 UTC,29.95,71.96,68.54,88.46,9.22,170.0,,,,,,1.0,,,,10.0,,KIGQ 241215Z AUTO 17008KT 10SM CLR 22/20 A2995,,,,,,68.35,,S,29.3,27.76,,Clear
KIGQ,07/24/2016 12:35 UTC,29.95,72.86,68.9,88.54,10.36,170.0,,,,,,1.0,,,,10.0,,KIGQ 241235Z AUTO 17009KT 10SM CLR 23/21 A2995,,,,,,69.26,,S,29.3,27.69,,Clear
KIGQ,07/24/2016 12:55 UTC,29.95,73.4,68.9,88.54,10.36,170.0,,,,,,1.0,,,,10.0,,KIGQ 241255Z AUTO 17009KT 10SM CLR 23/21 A2995,,,,,,69.79,,S,29.3,27.64,,Clear
KIGQ,07/24/2016 13:15 UTC,29.96,73.94,69.08,88.54,9.22,150.0,,,,,,1.0,,,,10.0,,KIGQ 241315Z AUTO 15008KT 10SM CLR 23/21 A2996,,,,,,70.33,,SSE,29.31,27.6,,Clear
KIGQ,07/24/2016 13:35 UTC,29.96,74.84,69.44,83.37,9.22,180.0,,,,,,1.0,,,,10.0,,KIGQ 241335Z AUTO 18008KT 10SM CLR 24/21 A2996,,,,,,69.44,,S,29.31,27.66,,Clear
KIGQ,07/24/2016 13:55 UTC,29.95,76.28,69.98,78.54,10.36,170.0,,,,,,1.0,,,,10.0,,KIGQ 241355Z AUTO 17009KT 10SM CLR 25/21 A2995,,,,,,69.1,,S,29.3,27.65,,Clear
KIGQ,07/24/2016 14:15 UTC,29.94,76.82,70.52,78.54,9.22,180.0,18.41,,,,,1.0,,,,10.0,,KIGQ 241415Z AUTO 18008G16KT 10SM CLR 25/21 A2994,,,,,,69.62,,S,29.29,27.59,,Clear
KIGQ,07/24/2016 14:35 UTC,29.94,78.44,71.96,78.68,13.8,180.0,17.27,,,,,1.0,,,,10.0,,KIGQ 241435Z AUTO 18012G15KT 10SM CLR 26/22 A2994,,,,,,71.25,,S,29.29,27.45,,Clear
KIGQ,07/24/2016 14:55 UTC,29.93,79.88,72.86,78.82,11.5,190.0,18.41,,,,,1.0,,,,10.0,,KIGQ 241455Z AUTO 19010G16KT 10SM CLR 27/23 A2993,,,,,,72.71,,S,29.28,27.3,,Clear
KIGQ,07/24/2016 15:15 UTC,29.93,81.14,73.4,78.82,14.97,200.0,19.57,,,,,1.0,,,,10.0,,KIGQ 241515Z AUTO 20013G17KT 10SM CLR 27/23 A2993,,,,,,73.93,,SSW,29.28,27.18,86.52,Clear
KIGQ,07/24/2016 15:35 UTC,29.92,82.4,74.3,78.97,14.97,200.0,23.02,,,,,452.0,,,,10.0,,KIGQ 241535Z AUTO 20013G20KT 10SM SCT045 28/24 A2992,,,,,,75.22,,SSW,29.27,27.04,89.49,Partly Cloudy
KIGQ,07/24/2016 15:55 UTC,29.93,84.2,75.02,74.52,18.41,200.0,,,,,,402.0,,,,10.0,,KIGQ 241555Z AUTO 20016KT 10SM SCT040 29/24 A2993,,,,,,75.23,,SSW,29.28,27.03,92.48,Partly Cloudy
KIGQ,07/24/2016 16:15 UTC,29.93,85.64,76.28,74.69,13.8,210.0,,,,,,202.0,403.0,,,10.0,,KIGQ 241615Z AUTO 21012KT 10SM SCT020 BKN040 30/25 A2993,,,4000.0,,,76.69,,SSW,29.28,26.87,96.22,Mostly Cloudy
KIGQ,07/24/2016 16:35 UTC,29.93,86.0,76.1,74.69,16.11,210.0,,,502.0,,,202.0,422.0,,,10.0,,KIGQ 241635Z AUTO 21014KT 10SM SCT020 SCT042 SCT050 30/25  A2993,,,,,,77.04,,SSW,29.28,26.83,97.19,Partly Cloudy
KIGQ,07/24/2016 16:55 UTC,29.92,86.9,76.28,70.54,17.27,210.0,,,,,,1.0,,,,10.0,,KIGQ 241655Z AUTO 21015KT 10SM CLR 31/25 A2992,,,,,,76.19,,SSW,29.27,26.89,97.58,Clear
KIGQ,07/24/2016 17:15 UTC,29.92,87.26,76.46,70.54,16.11,200.0,21.85,,,,,242.0,292.0,,,10.0,,KIGQ 241715Z AUTO 20014G19KT 10SM SCT024 SCT029 31/25 A2992,,,,,,76.53,,SSW,29.27,26.85,98.52,Partly Cloudy
KIGQ,07/24/2016 17:35 UTC,29.92,87.98,77.18,70.54,16.11,200.0,19.57,,,,,263.0,303.0,,,10.0,,KIGQ 241735Z AUTO 20014G17KT 10SM BKN026 BKN030 31/25 A2992,,,2600.0,,,77.22,,SSW,29.27,26.78,100.46,Mostly Cloudy
KIGQ,07/24/2016 17:55 UTC,29.92,87.8,77.0,70.54,12.66,200.0,,,,,,264.0,,,,10.0,,KIGQ 241755Z AUTO 20011KT 10SM OVC026 31/25 A2992,88.52,71.6,2600.0,,,77.05,,SSW,29.27,26.8,99.97,Overcast
KIGQ,07/24/2016 18:15 UTC,29.91,86.9,76.28,70.54,12.66,190.0,21.85,,,,,283.0,333.0,,,10.0,,KIGQ 241815Z AUTO 19011G19KT 10SM BKN028 BKN033 31/25 A2991,,,2800.0,,,76.19,,S,29.26,26.88,97.58,Mostly Cloudy
KIGQ,07/24/2016 18:35 UTC,29.91,87.26,76.46,70.54,14.97,200.0,19.57,,,,,282.0,,,,10.0,,KIGQ 241835Z AUTO 20013G17KT 10SM SCT028 31/25 A2991,,,,,,76.53,,SSW,29.26,26.84,98.52,Partly Cloudy
KIGQ,07/24/2016 18:55 UTC,29.9,88.7,77.18,66.66,13.8,200.0,18.41,,,,,302.0,,,,10.0,,KIGQ 241855Z AUTO 20012G16KT 10SM SCT030 32/25 A2990,,,,,,76.21,,SSW,29.25,26.85,100.21,Partly Cloudy
KIGQ,07/24/2016 19:15 UTC,29.9,89.6,77.54,66.66,12.66,190.0,,,,,,283.0,1203.0,,,10.0,,KIGQ 241915Z AUTO 19011KT 10SM BKN028 BKN120 32/25 A2990,,,2800.0,,,77.07,,S,29.25,26.75,102.61,Mostly Cloudy
KIGQ,07/24/2016 19:35 UTC,29.89,89.6,77.36,66.66,18.41,190.0,,,,,,262.0,1202.0,,,10.0,,KIGQ 241935Z AUTO 19016KT 10SM SCT026 SCT120 32/25 A2989,,,,,,77.07,,S,29.24,26.74,102.61,Partly Cloudy
KIGQ,07/24/2016 19:55 UTC,29.89,89.24,77.36,66.66,18.41,210.0,25.32,,,,,262.0,,,,10.0,,KIGQ 241955Z AUTO 21016G22KT 10SM SCT026 32/25 A2989,,,,,,76.73,,SSW,29.24,26.78,101.63,Partly Cloudy
KIGQ,07/24/2016 20:15 UTC,29.89,89.42,78.08,70.73,17.27,200.0,20.71,,,,,262.0,,,,10.0,,KIGQ 242015Z AUTO 20015G18KT 10SM SCT026 32/26 A2989,,,,,,78.69,,SSW,29.24,26.58,104.68,Partly Cloudy
KIGQ,07/24/2016 20:35 UTC,29.88,89.06,77.18,66.66,19.57,200.0,,,,,,263.0,,,,10.0,,KIGQ 242035Z AUTO 20017KT 10SM BKN026 32/25 A2988,,,2600.0,,,76.56,,SSW,29.23,26.79,101.15,Mostly Cloudy
KIGQ,07/24/2016 20:55 UTC,29.89,89.42,77.18,66.66,14.97,210.0,,,1103.0,,,283.0,353.0,,,10.0,,KIGQ 242055Z AUTO 21013KT 10SM BKN028 BKN035 BKN110 32/25  A2989,,,2800.0,,,76.9,,SSW,29.24,26.76,102.12,Mostly Cloudy
KIGQ,07/24/2016 21:15 UTC,29.89,89.06,77.36,66.66,13.8,200.0,21.85,,1102.0,,,282.0,332.0,,,10.0,,KIGQ 242115Z AUTO 20012G19KT 10SM SCT028 SCT033 SCT110 32/25  A2989,,,,,,76.56,,SSW,29.24,26.8,101.15,Partly Cloudy
KIGQ,07/24/2016 21:35 UTC,29.88,89.42,77.18,66.66,18.41,220.0,24.16,,,,,282.0,,,,10.0,,KIGQ 242135Z AUTO 22016G21KT 10SM SCT028 32/25 A2988,,,,,,76.9,,SW,29.23,26.75,102.12,Partly Cloudy
KIGQ,07/24/2016 21:55 UTC,29.88,89.6,78.08,70.73,16.11,230.0,23.02,,,,,262.0,372.0,,,10.0,,KIGQ 242155Z AUTO 23014G20KT 10SM SCT026 SCT037 32/26 A2988,,,,,,78.86,,SW,29.23,26.55,105.22,Partly Cloudy
KIGQ,07/24/2016 22:15 UTC,29.88,88.7,77.9,70.73,11.5,210.0,19.57,,,,,272.0,332.0,,,10.0,,KIGQ 242215Z AUTO 21010G17KT 10SM SCT027 SCT033 32/26 A2988,,,,,,78.0,,SSW,29.23,26.65,102.59,Partly Cloudy
KIGQ,07/24/2016 22:35 UTC,29.88,88.7,77.9,70.73,13.8,210.0,18.41,,,,,312.0,,,,10.0,,KIGQ 242235Z AUTO 21012G16KT 10SM SCT031 32/26 A2988,,,,,,78.0,,SSW,29.23,26.65,102.59,Partly Cloudy
KIGQ,07/24/2016 22:55 UTC,29.88,88.16,78.62,74.85,10.36,200.0,,,,,,282.0,,,,10.0,,KIGQ 242255Z AUTO 20009KT 10SM SCT028 31/26 A2988,,,,,,79.19,,SSW,29.23,26.54,103.51,Partly Cloudy
KIGQ,07/24/2016 23:15 UTC,29.86,88.52,78.62,74.85,14.97,200.0,,,,,,282.0,362.0,,,10.0,,KIGQ 242315Z AUTO 20013KT 10SM SCT028 SCT036 31/26 A2986,,,,,,79.54,,SSW,29.21,26.48,104.62,Partly Cloudy
KIGQ,07/24/2016 23:35 UTC,29.87,87.44,77.9,74.85,10.36,210.0,,,,,,1.0,,,,10.0,,KIGQ 242335Z AUTO 21009KT 10SM CLR 31/26 A2987,,,,,,78.5,,SSW,29.22,26.61,101.35,Clear
KIGQ,07/24/2016 23:55 UTC,29.89,86.9,77.72,70.54,10.36,220.0,,,,,,282.0,,,,10.0,,KIGQ 242355Z AUTO 22009KT 10SM SCT028 31/25 A2989,89.78,86.9,,,,76.19,,SW,29.24,26.86,97.58,Partly Cloudy
KIGQ,07/25/2016 00:15 UTC,29.9,86.36,77.9,79.25,8.05,200.0,,5.0,,,,282.0,1102.0,,,10.0,,KIGQ 250015Z AUTO 20007KT 10SM TS SCT028 SCT110 30/26 A2990,,,,,,79.18,,SSW,29.25,26.59,100.52,Thunder
KIGQ,07/25/2016 00:35 UTC,29.94,84.02,66.92,54.9,17.27,10.0,23.02,5.0,483.0,,,242.0,342.0,,,10.0,,KIGQ 250035Z AUTO 01015G20KT 10SM TS SCT024 SCT034 BKN048 29/19  A2994,,,4800.0,,,66.08,,N,29.29,27.76,86.26,Thunder
KIGQ,07/25/2016 00:55 UTC,29.94,75.56,62.78,64.98,10.36,20.0,29.93,77.0,604.0,,,242.0,352.0,,,10.0,,KIGQ 250055Z AUTO 02009G26KT 360V060 10SM -TSRA SCT024 SCT035  OVC060 24/17 A2994,,,6000.0,,,62.93,,NNE,29.29,28.06,,Light Rain/Thunderstorm
KIGQ,07/25/2016 01:15 UTC,29.92,69.8,62.24,77.94,13.8,10.0,28.77,77.0,754.0,0.18,,152.0,603.0,,,2.5,,KIGQ 250115Z AUTO 01012G25KT 330V030 2 1/2SM -TSRA SCT015 BKN060  OVC075 21/17 A2992,,,6000.0,,,62.57,,N,29.27,28.13,,Light Rain/Thunderstorm
KIGQ,07/25/2016 01:35 UTC,29.89,71.78,64.58,78.09,5.75,190.0,,77.0,1103.0,0.19,,242.0,432.0,,,10.0,,KIGQ 250135Z AUTO 19005KT 10SM -TSRA SCT024 SCT043 BKN110 22/18  A2989,,,11000.0,,,64.55,,S,29.24,27.96,,Light Rain/Thunderstorm
KIGQ,07/25/2016 01:55 UTC,29.89,71.96,64.4,78.09,5.75,180.0,,,,0.19,,292.0,382.0,,,10.0,,KIGQ 250155Z AUTO 18005KT 10SM -TSDZ SCT029 SCT038 22/18 A2989,,,,,,64.73,,S,29.24,27.94,,Partly Cloudy
KIGQ,07/25/2016 02:15 UTC,29.89,71.96,64.04,78.09,3.44,110.0,,,,,,293.0,384.0,,,10.0,,KIGQ 250215Z AUTO 11003KT 10SM -VCTSRA BKN029 OVC038 22/18  A2989,,,2900.0,,,64.73,,ESE,29.24,27.94,,Overcast
KIGQ,07/25/2016 02:35 UTC,29.91,72.32,66.56,83.13,10.36,230.0,,13.0,1202.0,,,292.0,802.0,,,7.0,,KIGQ 250235Z AUTO 23009KT 7SM -RA SCT029 SCT080 SCT120 22/19  A2991,,,,,,66.89,,SW,29.26,27.82,,Light Rain
KIGQ,07/25/2016 02:55 UTC,29.92,72.5,66.38,78.24,8.05,210.0,,5.0,,,0.19,702.0,1202.0,,,10.0,,KIGQ 250255Z AUTO 21007KT 10SM TS SCT070 SCT120 23/19 A2992,,,,,,65.31,,SSW,29.27,27.93,,Thunder
KIGQ,07/25/2016 03:15 UTC,29.91,72.86,67.1,83.25,11.5,220.0,,5.0,,,,702.0,,,,10.0,,KIGQ 250315Z AUTO 22010KT 10SM VCTS SCT070 23/20 A2991,,,,,,67.46,,SW,29.26,27.77,,Thunder
KIGQ,07/25/2016 03:35 UTC,29.92,73.4,68.18,83.25,9.22,220.0,,,,,,1.0,,,,10.0,,KIGQ 250335Z AUTO 22008KT 10SM CLR 23/20 A2992,,,,,,67.99,,SW,29.27,27.74,,Clear
KIGQ,07/25/2016 03:55 UTC,29.94,73.94,68.0,83.25,11.5,210.0,,5.0,,,,1.0,,,,10.0,,KIGQ 250355Z AUTO 21010KT 10SM VCTS CLR 23/20 A2994,,,,,,68.52,,SSW,29.29,27.71,,Thunder
KIGQ,07/25/2016 04:15 UTC,29.94,73.4,66.2,78.24,12.66,200.0,18.41,,483.0,,,353.0,413.0,,,10.0,,KIGQ 250415Z AUTO 20011G16KT 10SM BKN035 BKN041 BKN048 23/19  A2994,,,3500.0,,,66.18,,SSW,29.29,27.88,,Mostly Cloudy
KIGQ,07/25/2016 04:35 UTC,29.95,72.86,65.66,78.24,12.66,200.0,24.16,,492.0,,,332.0,422.0,,,10.0,,KIGQ 250435Z AUTO 20011G21KT 10SM SCT033 SCT042 SCT049 23/19  A2995,,,,,,65.66,,SSW,29.3,27.93,,Partly Cloudy
KIGQ,07/25/2016 04:55 UTC,29.95,73.22,65.66,78.24,11.5,200.0,,,,,,352.0,493.0,,,10.0,,KIGQ 250455Z AUTO 20010KT 10SM SCT035 BKN049 23/19 A2995,,,4900.0,,,66.01,,SSW,29.3,27.9,,Mostly Cloudy
KIGQ,07/25/2016 05:15 UTC,29.95,73.04,66.02,78.24,12.66,190.0,23.02,,,,,352.0,,,,10.0,,KIGQ 250515Z AUTO 19011G20KT 10SM SCT035 23/19 A2995,,,,,,65.83,,S,29.3,27.92,,Partly Cloudy
KIGQ,07/25/2016 05:35 UTC,29.96,72.68,66.2,78.24,10.36,180.0,,,,,,373.0,,,,10.0,,KIGQ 250535Z AUTO 18009KT 10SM BKN037 23/19 A2996,,,3700.0,,,65.48,,S,29.31,27.96,,Mostly Cloudy
KIGQ,07/25/2016 05:55 UTC,29.97,72.5,66.74,78.24,11.5,220.0,17.27,13.0,,,,374.0,,0.19,,10.0,,KIGQ 250555Z AUTO 22010G15KT 10SM -RA OVC037 23/19 A2997,86.9,69.44,3700.0,89.78,69.44,65.31,,SW,29.32,27.98,,Light Rain
KIGQ,07/25/2016 06:15 UTC,29.97,71.96,67.1,88.46,9.22,200.0,,,,,,394.0,,,,10.0,,KIGQ 250615Z AUTO 20008KT 10SM OVC039 22/20 A2997,,,3900.0,,,68.35,,SSW,29.32,27.78,,Overcast
KIGQ,07/25/2016 06:35 UTC,29.96,72.32,67.1,88.46,5.75,210.0,,,554.0,,,393.0,463.0,,,10.0,,KIGQ 250635Z AUTO 21005KT 10SM BKN039 BKN046 OVC055 22/20  A2996,,,3900.0,,,68.7,,SSW,29.31,27.74,,Overcast
KIGQ,07/25/2016 06:55 UTC,29.98,72.68,66.74,78.24,5.75,250.0,,,,,,414.0,,,,10.0,,KIGQ 250655Z AUTO 25005KT 10SM OVC041 23/19 A2998,,,4100.0,,,65.48,,WSW,29.33,27.98,,Overcast
KIGQ,07/25/2016 07:15 UTC,29.99,72.5,66.2,78.24,11.5,240.0,,,,,,454.0,,,,10.0,,KIGQ 250715Z AUTO 24010KT 10SM OVC045 23/19 A2999,,,4500.0,,,65.31,,WSW,29.34,28.0,,Overcast
KIGQ,07/25/2016 07:35 UTC,29.97,71.96,65.3,83.13,11.5,250.0,,,,,,483.0,603.0,,,10.0,,KIGQ 250735Z AUTO 25010KT 10SM BKN048 BKN060 22/19 A2997,,,4800.0,,,66.54,,WSW,29.32,27.91,,Mostly Cloudy
KIGQ,07/25/2016 07:55 UTC,29.96,71.6,65.3,83.13,9.22,260.0,,,,,,502.0,602.0,,,10.0,,KIGQ 250755Z AUTO 26008KT 10SM SCT050 SCT060 22/19 A2996,,,,,,66.18,,W,29.31,27.92,,Partly Cloudy
KIGQ,07/25/2016 08:15 UTC,29.96,71.6,65.3,83.13,10.36,260.0,,,,,,482.0,,,,10.0,,KIGQ 250815Z AUTO 26009KT 10SM SCT048 22/19 A2996,,,,,,66.18,,W,29.31,27.92,,Partly Cloudy
KIGQ,07/25/2016 08:35 UTC,29.96,71.96,65.3,83.13,8.05,250.0,,,,,,484.0,,,,10.0,,KIGQ 250835Z AUTO 25007KT 10SM OVC048 22/19 A2996,,,4800.0,,,66.54,,WSW,29.31,27.9,,Overcast
KIGQ,07/25/2016 08:55 UTC,29.96,72.5,65.3,78.24,12.66,250.0,,,,,,504.0,,,,10.0,,KIGQ 250855Z AUTO 25011KT 10SM OVC050 23/19 A2996,,,5000.0,,,65.31,,WSW,29.31,27.97,,Overcast
KIGQ,07/25/2016 09:15 UTC,29.96,72.86,65.12,73.5,12.66,270.0,,,,,,504.0,,,,10.0,,KIGQ 250915Z AUTO 27011KT 10SM OVC050 23/18 A2996,,,5000.0,,,63.86,,W,29.31,28.06,,Overcast
KIGQ,07/25/2016 09:35 UTC,29.97,73.58,65.3,78.24,11.5,280.0,18.41,,,,,464.0,,,,10.0,,KIGQ 250935Z AUTO 28010G16KT 10SM OVC046 23/19 A2997,,,4600.0,,,66.36,,W,29.32,27.9,,Overcast
KIGQ,07/25/2016 09:55 UTC,29.96,73.4,65.3,78.24,9.22,260.0,,,,,,503.0,,,,10.0,,KIGQ 250955Z AUTO 26008KT 10SM BKN050 23/19 A2996,,,5000.0,,,66.18,,W,29.31,27.9,,Mostly Cloudy
KIGQ,07/25/2016 10:15 UTC,29.95,73.04,65.48,78.24,8.05,260.0,,,,,,502.0,,,,10.0,,KIGQ 251015Z AUTO 26007KT 10SM SCT050 23/19 A2995,,,,,,65.83,,W,29.3,27.92,,Partly Cloudy
KIGQ,07/25/2016 10:35 UTC,29.96,71.78,65.84,83.13,5.75,280.0,,,,,,1.0,,,,10.0,,KIGQ 251035Z AUTO 28005KT 10SM CLR 22/19 A2996,,,,,,66.36,,W,29.31,27.91,,Clear
KIGQ,07/25/2016 10:55 UTC,29.96,71.78,66.2,83.13,6.91,260.0,,,,,,1.0,,,,10.0,,KIGQ 251055Z AUTO 26006KT 10SM CLR 22/19 A2996,,,,,,66.36,,W,29.31,27.91,,Clear
KIGQ,07/25/2016 11:15 UTC,29.97,71.78,66.2,83.13,5.75,280.0,,,,,,1.0,,,,10.0,,KIGQ 251115Z AUTO 28005KT 10SM CLR 22/19 A2997,,,,,,66.36,,W,29.32,27.92,,Clear
KIGQ,07/25/2016 11:35 UTC,29.97,71.96,66.92,83.13,3.44,300.0,,,,,,1.0,,,,10.0,,KIGQ 251135Z AUTO 30003KT 10SM CLR 22/19 A2997,,,,,,66.54,,WNW,29.32,27.91,,Clear
KIGQ,07/25/2016 11:55 UTC,29.97,72.5,67.46,83.25,0.0,0.0,,,,,,1.0,,,0.19,10.0,,KIGQ 251155Z AUTO 00000KT 10SM CLR 23/20 A2997,73.76,71.6,,,,67.11,,N,29.32,27.86,,Clear
KIGQ,07/25/2016 12:15 UTC,29.97,73.4,68.36,83.25,3.44,290.0,,,,,,1.0,,,,10.0,,KIGQ 251215Z AUTO 29003KT 10SM CLR 23/20 A2997,,,,,,67.99,,WNW,29.32,27.79,,Clear
KIGQ,07/25/2016 12:35 UTC,29.97,74.66,68.9,83.37,4.61,330.0,,,,,,1.0,,,,10.0,,KIGQ 251235Z AUTO 33004KT 10SM CLR 24/21 A2997,,,,,,69.27,,NNW,29.32,27.68,,Clear
KIGQ,07/25/2016 12:55 UTC,29.97,76.64,68.72,73.85,8.05,340.0,,,,,,1.0,,,,10.0,,KIGQ 251255Z AUTO 34007KT 10SM CLR 25/20 A2997,,,,,,67.65,,NNW,29.32,27.77,,Clear
KIGQ,07/25/2016 13:15 UTC,29.98,77.72,67.82,73.85,6.91,350.0,,,,,,1.0,,,,10.0,,KIGQ 251315Z AUTO 35006KT 10SM CLR 25/20 A2998,,,,,,68.69,,N,29.33,27.69,,Clear
KIGQ,07/25/2016 13:35 UTC,29.99,78.8,66.92,65.41,6.91,360.0,,,,,,1.0,,,,10.0,,KIGQ 251335Z AUTO 36006KT 10SM CLR 26/19 A2999,,,,,,66.2,,N,29.34,27.86,,Clear
KIGQ,07/25/2016 13:55 UTC,30.0,79.52,65.12,61.44,8.05,360.0,,,,,,1.0,,,,10.0,,KIGQ 251355Z AUTO 36007KT 10SM CLR 26/18 A3000,,,,,,65.08,,N,29.35,27.94,,Clear
KIGQ,07/25/2016 14:15 UTC,30.0,79.7,61.88,54.4,9.22,30.0,16.11,,,,,1.0,,,,10.0,,KIGQ 251415Z AUTO 03008G14KT 10SM CLR 27/17 A3000,,,,,,61.78,,NNE,29.35,28.15,,Clear
KIGQ,07/25/2016 14:35 UTC,30.0,79.52,60.98,54.14,10.36,10.0,,,,,,1.0,,,,10.0,,KIGQ 251435Z AUTO 01009KT 10SM CLR 26/16 A3000,,,,,,61.48,,N,29.35,28.17,,Clear
KIGQ,07/25/2016 14:55 UTC,30.01,80.42,61.16,51.05,9.22,30.0,,,,,,1.0,,,,10.0,,KIGQ 251455Z AUTO 03008KT 10SM CLR 27/16 A3001,,,,,,60.66,,NNE,29.36,28.22,81.29,Clear
KIGQ,07/25/2016 15:15 UTC,30.0,80.6,62.42,54.4,11.5,30.0,,,,,,1.0,,,,10.0,,KIGQ 251515Z AUTO 03010KT 10SM CLR 27/17 A3000,,,,,,62.62,,NNE,29.35,28.09,81.85,Clear
KIGQ,07/25/2016 15:35 UTC,30.0,80.96,61.7,54.4,9.22,30.0,16.11,,,,,1.0,,,,10.0,,KIGQ 251535Z AUTO 03008G14KT 10SM CLR 27/17 A3000,,,,,,62.96,,NNE,29.35,28.06,82.24,Clear
KIGQ,07/25/2016 15:55 UTC,30.01,81.32,61.52,51.05,6.91,360.0,,,,,,1.0,,,,10.0,,KIGQ 251555Z AUTO 36006KT 10SM CLR 27/16 A3001,,,,,,61.49,,N,29.36,28.16,82.19,Clear
KIGQ,07/25/2016 16:15 UTC,30.01,81.86,62.42,51.31,6.91,10.0,,,,,,1.0,,,,10.0,,KIGQ 251615Z AUTO 01006KT 10SM CLR 28/17 A3001,,,,,,62.14,,N,29.36,28.12,82.81,Clear
KIGQ,07/25/2016 16:35 UTC,30.01,81.86,61.88,51.31,11.5,40.0,,,,,,1.0,,,,10.0,,KIGQ 251635Z AUTO 04010KT 10SM CLR 28/17 A3001,,,,,,62.14,,NE,29.36,28.12,82.81,Clear
KIGQ,07/25/2016 16:55 UTC,30.01,81.68,60.98,48.15,5.75,40.0,,,,,,1.0,,,,10.0,,KIGQ 251655Z AUTO 04005KT 10SM CLR 28/16 A3001,,,,,,60.18,,NE,29.36,28.23,82.17,Clear
KIGQ,07/25/2016 17:15 UTC,30.02,81.68,62.24,51.31,8.05,80.0,,,,,,1.0,,,,10.0,,KIGQ 251715Z AUTO 08007KT 10SM CLR 28/17 A3002,,,,,,61.97,,E,29.37,28.14,82.61,Clear
KIGQ,07/25/2016 17:35 UTC,30.02,81.5,61.88,51.31,8.05,80.0,,,,,,1.0,,,,10.0,,KIGQ 251735Z AUTO 08007KT 10SM CLR 28/17 A3002,,,,,,61.8,,E,29.37,28.15,82.42,Clear
KIGQ,07/25/2016 17:55 UTC,30.03,82.04,62.6,51.31,5.75,90.0,,,,,,1.0,,,,10.0,,KIGQ 251755Z AUTO 09005KT 10SM CLR 28/17 A3003,82.58,72.5,,,,62.3,,E,29.38,28.12,83.01,Clear
KIGQ,07/25/2016 18:15 UTC,30.03,82.22,62.6,51.31,4.61,10.0,,,,,,1.0,,,,10.0,,KIGQ 251815Z AUTO 01004KT 10SM CLR 28/17 A3003,,,,,,62.47,,N,29.38,28.11,83.21,Clear
KIGQ,07/25/2016 18:35 UTC,30.02,82.58,62.42,51.31,3.44,40.0,,,,,,1.0,,,,10.0,,KIGQ 251835Z AUTO 04003KT 10SM CLR 28/17 A3002,,,,,,62.8,,NE,29.37,28.08,83.63,Clear
KIGQ,07/25/2016 18:55 UTC,30.01,82.94,63.14,51.31,5.75,40.0,,,,,,1.0,,,,10.0,,KIGQ 251855Z AUTO 04005KT 10SM CLR 28/17 A3001,,,,,,63.14,,NE,29.36,28.04,84.06,Clear
KIGQ,07/25/2016 19:15 UTC,30.01,83.48,62.78,48.42,4.61,120.0,,,,,,1.0,,,,10.0,,KIGQ 251915Z AUTO 12004KT 10SM CLR 29/17 A3001,,,,,,61.99,,ESE,29.36,28.11,84.18,Clear
KIGQ,07/25/2016 19:35 UTC,30.0,84.02,63.14,48.42,0.0,0.0,,,,,,1.0,,,,10.0,,KIGQ 251935Z AUTO 00000KT 10SM CLR 29/17 A3000,,,,,,62.49,,N,29.35,28.06,84.83,Clear
KIGQ,07/25/2016 19:55 UTC,30.0,83.66,63.14,48.42,0.0,0.0,,,,,,482.0,,,,10.0,,KIGQ 251955Z AUTO 00000KT 10SM SCT048 29/17 A3000,,,,,,62.16,,N,29.35,28.09,84.39,Partly Cloudy
KIGQ,07/25/2016 20:15 UTC,29.99,84.92,64.04,51.58,4.61,50.0,,,,,,503.0,,,,10.0,,KIGQ 252015Z AUTO 05004KT 10SM BKN050 29/18 A2999,,,5000.0,,,65.13,,NE,29.34,27.87,86.74,Mostly Cloudy
KIGQ,07/25/2016 20:35 UTC,29.99,84.74,62.96,48.42,4.61,50.0,,,,,,503.0,,,,10.0,,KIGQ 252035Z AUTO 05004KT 10SM BKN050 29/17 A2999,,,5000.0,,,63.15,,NE,29.34,28.0,85.74,Mostly Cloudy
KIGQ,07/25/2016 20:55 UTC,29.99,83.66,64.22,51.58,3.44,110.0,,,,,,463.0,503.0,,,10.0,,KIGQ 252055Z AUTO 11003KT 10SM BKN046 BKN050 29/18 A2999,,,4600.0,,,63.96,,ESE,29.34,27.96,85.02,Mostly Cloudy
KIGQ,07/25/2016 21:15 UTC,29.98,84.92,64.94,51.58,4.61,130.0,,,,,,464.0,,,,10.0,,KIGQ 252115Z AUTO 13004KT 10SM OVC046 29/18 A2998,,,4600.0,,,65.13,,SE,29.33,27.86,86.74,Overcast
KIGQ,07/25/2016 21:35 UTC,29.98,82.76,62.78,51.31,8.05,70.0,,,,,,484.0,,,,10.0,,KIGQ 252135Z AUTO 07007KT 10SM OVC048 28/17 A2998,,,4800.0,,,62.97,,ENE,29.33,28.02,83.85,Overcast
KIGQ,07/25/2016 21:55 UTC,29.99,82.4,62.24,51.31,8.05,60.0,,,,,,484.0,,,,10.0,,KIGQ 252155Z AUTO 06007KT 10SM OVC048 28/17 A2999,,,4800.0,,,62.64,,ENE,29.34,28.06,83.42,Overcast
KIGQ,07/25/2016 22:15 UTC,29.99,82.94,62.24,51.31,8.05,80.0,,,,,,483.0,553.0,,,7.0,,KIGQ 252215Z AUTO 08007KT 7SM BKN048 BKN055 28/17 A2999,,,4800.0,,,63.14,,E,29.34,28.02,84.06,Mostly Cloudy
KIGQ,07/25/2016 22:35 UTC,29.99,82.04,61.52,48.15,5.75,80.0,,,,,,552.0,,,,10.0,,KIGQ 252235Z AUTO 08005KT 10SM SCT055 28/16 A2999,,,,,,60.51,,E,29.34,28.19,82.54,Partly Cloudy
KIGQ,07/25/2016 22:55 UTC,29.99,82.04,61.7,51.31,6.91,110.0,,,,,,552.0,,,,10.0,,KIGQ 252255Z AUTO 11006KT 10SM SCT055 28/17 A2999,,,,,,62.3,,ESE,29.34,28.08,83.01,Partly Cloudy
KIGQ,07/25/2016 23:15 UTC,29.98,80.96,64.22,57.94,4.61,100.0,,,,,,1.0,,,,10.0,,KIGQ 252315Z AUTO 10004KT 10SM CLR 27/18 A2998,,,,,,64.76,,E,29.33,27.93,82.72,Clear
KIGQ,07/25/2016 23:35 UTC,29.98,82.58,63.32,51.31,5.75,110.0,,,,,,552.0,,,,10.0,,KIGQ 252335Z AUTO 11005KT 10SM SCT055 28/17 A2998,,,,,,62.8,,ESE,29.33,28.04,83.63,Partly Cloudy
KIGQ,07/25/2016 23:55 UTC,29.99,80.42,63.32,54.4,6.91,110.0,,,,,,552.0,,,,10.0,,KIGQ 252355Z AUTO 11006KT 10SM SCT055 27/17 A2999,85.1,80.42,,,,62.45,,ESE,29.34,28.09,81.66,Partly Cloudy
KIGQ,07/26/2016 00:15 UTC,29.99,81.32,62.42,54.4,5.75,110.0,,,,,,1.0,,,,10.0,,KIGQ 260015Z AUTO 11005KT 10SM CLR 27/17 A2999,,,,,,63.29,,ESE,29.34,28.03,82.65,Clear
KIGQ,07/26/2016 00:35 UTC,29.99,80.24,62.6,54.4,6.91,100.0,,,,,,1.0,,,,10.0,,KIGQ 260035Z AUTO 10006KT 10SM CLR 27/17 A2999,,,,,,62.29,,E,29.34,28.1,81.47,Clear
KIGQ,07/26/2016 00:55 UTC,29.99,78.98,62.24,57.69,5.75,90.0,,,,,,1.0,,,,10.0,,KIGQ 260055Z AUTO 09005KT 10SM CLR 26/17 A2999,,,,,,62.77,,E,29.34,28.08,,Clear
KIGQ,07/26/2016 01:15 UTC,29.99,78.62,61.52,55.87,4.61,80.0,,,,,,1.0,,,,10.0,,KIGQ 260115Z AUTO 08004KT 10SM CLR 26/16 A2999 RMK AO2  T02590164,,,,,,61.53,,E,29.34,28.16,,Clear
KIGQ,07/26/2016 01:35 UTC,30.0,77.72,61.7,61.21,4.61,80.0,,,,,,1.0,,,,10.0,,KIGQ 260135Z AUTO 08004KT 10SM CLR 25/17 A3000,,,,,,63.27,,E,29.35,28.08,,Clear
KIGQ,07/26/2016 01:55 UTC,30.0,78.08,60.98,54.14,3.44,90.0,,,,,,1.0,,,,10.0,,KIGQ 260155Z AUTO 09003KT 10SM CLR 26/16 A3000,,,,,,60.13,,E,29.35,28.26,,Clear
KIGQ,07/26/2016 02:15 UTC,30.01,76.64,62.06,61.21,4.61,90.0,,,,,,1.0,,,,10.0,,KIGQ 260215Z AUTO 09004KT 10SM CLR 25/17 A3001,,,,,,62.25,,E,29.36,28.16,,Clear
KIGQ,07/26/2016 02:35 UTC,30.01,76.28,62.96,61.21,3.44,120.0,,,,,,1.0,,,,10.0,,KIGQ 260235Z AUTO 12003KT 10SM CLR 25/17 A3001,,,,,,61.91,,ESE,29.36,28.19,,Clear
KIGQ,07/26/2016 02:55 UTC,30.01,75.74,63.32,64.98,3.44,110.0,,,,,,1.0,,,,10.0,,KIGQ 260255Z AUTO 11003KT 10SM CLR 24/17 A3001,,,,,,63.1,,ESE,29.36,28.12,,Clear
KIGQ,07/26/2016 03:15 UTC,30.02,75.2,63.5,69.21,3.44,120.0,,,,,,1.0,,,,10.0,,KIGQ 260315Z AUTO 12003KT 10SM CLR 24/18 A3002,,,,,,64.39,,ESE,29.37,28.06,,Clear
KIGQ,07/26/2016 03:35 UTC,30.02,73.22,64.04,73.5,0.0,0.0,,,,,,1.0,,,,10.0,,KIGQ 260335Z AUTO 00000KT 10SM CLR 23/18 A3002,,,,,,64.21,,N,29.37,28.09,,Clear
KIGQ,07/26/2016 03:55 UTC,30.02,71.6,64.4,78.09,0.0,0.0,,,,,,1.0,,,,10.0,,KIGQ 260355Z AUTO 00000KT 10SM CLR 22/18 A3002,,,,,,64.38,,N,29.37,28.1,,Clear
KIGQ,07/26/2016 04:15 UTC,30.02,72.32,65.3,78.64,0.0,0.0,,,,,,1.0,,,,10.0,,KIGQ 260415Z AUTO 00000KT 10SM CLR 22/19 A3002 RMK AO2  T02240185,,,,,,65.28,,N,29.37,28.03,,Clear
KIGQ,07/26/2016 04:35 UTC,30.02,73.58,64.94,73.5,0.0,0.0,,,,,,1.0,,,,10.0,,KIGQ 260435Z AUTO 00000KT 10SM CLR 23/18 A3002,,,,,,64.56,,N,29.37,28.07,,Clear
KIGQ,07/26/2016 04:55 UTC,30.02,72.68,64.94,73.5,0.0,0.0,,,,,,502.0,,,,10.0,,KIGQ 260455Z AUTO 00000KT 10SM SCT050 23/18 A3002,,,,,,63.69,,N,29.37,28.13,,Partly Cloudy
KIGQ,07/26/2016 05:15 UTC,30.03,71.6,65.3,83.13,0.0,0.0,,,,,,502.0,,,,10.0,,KIGQ 260515Z AUTO 00000KT 10SM SCT050 22/19 A3003,,,,,,66.18,,N,29.38,28.0,,Partly Cloudy
KIGQ,07/26/2016 05:35 UTC,30.03,71.6,64.76,78.09,0.0,0.0,,,,,,1.0,,,,10.0,,KIGQ 260535Z AUTO 00000KT 10SM CLR 22/18 A3003,,,,,,64.38,,N,29.38,28.11,,Clear
KIGQ,07/26/2016 05:55 UTC,30.03,71.24,65.3,83.13,0.0,0.0,,,,,,1.0,,,,10.0,,KIGQ 260555Z AUTO 00000KT 10SM CLR 22/19 A3003,81.5,70.88,,85.1,70.88,65.83,,N,29.38,28.02,,Clear
KIGQ,07/26/2016 06:15 UTC,30.03,71.24,65.3,83.13,0.0,0.0,,,,,,1.0,,,,10.0,,KIGQ 260615Z AUTO 00000KT 10SM CLR 22/19 A3003,,,,,,65.83,,N,29.38,28.02,,Clear
KIGQ,07/26/2016 06:35 UTC,30.03,71.6,65.3,83.13,0.0,0.0,,,,,,1.0,,,,10.0,,KIGQ 260635Z AUTO 00000KT 10SM CLR 22/19 A3003,,,,,,66.18,,N,29.38,28.0,,Clear
KIGQ,07/26/2016 06:55 UTC,30.03,71.78,64.58,78.09,0.0,0.0,,,,,,1.0,,,,10.0,,KIGQ 260655Z AUTO 00000KT 10SM CLR 22/18 A3003,,,,,,64.55,,N,29.38,28.1,,Clear
KIGQ,07/26/2016 07:15 UTC,30.03,70.34,64.22,83.01,0.0,0.0,,,,,,1.0,,,,10.0,,KIGQ 260715Z AUTO 00000KT 10SM CLR 21/18 A3003,,,,,,64.91,,N,29.38,28.09,,Clear
KIGQ,07/26/2016 07:35 UTC,30.03,70.88,64.58,78.09,0.0,0.0,,,,,,1.0,,,,10.0,,KIGQ 260735Z AUTO 00000KT 10SM CLR 22/18 A3003,,,,,,63.68,,N,29.38,28.16,,Clear
KIGQ,07/26/2016 07:55 UTC,30.03,71.24,64.4,78.09,3.44,100.0,,,,,,1.0,,,,10.0,,KIGQ 260755Z AUTO 10003KT 10SM CLR 22/18 A3003,,,,,,64.03,,E,29.38,28.14,,Clear
KIGQ,07/26/2016 08:15 UTC,30.03,69.98,64.4,83.01,0.0,0.0,,,,,,1.0,,,,10.0,,KIGQ 260815Z AUTO 00000KT 10SM CLR 21/18 A3003,,,,,,64.56,,N,29.38,28.12,,Clear
KIGQ,07/26/2016 08:35 UTC,30.04,68.9,64.76,83.01,0.0,0.0,,,,,,1.0,,,,10.0,,KIGQ 260835Z AUTO 00000KT 10SM CLR 21/18 A3004,,,,,,63.5,,N,29.39,28.21,,Clear
KIGQ,07/26/2016 08:55 UTC,30.04,68.9,64.76,83.01,0.0,0.0,,,,,,1.0,,,,10.0,,KIGQ 260855Z AUTO 00000KT 10SM CLR 21/18 A3004,,,,,,63.5,,N,29.39,28.21,,Clear
KIGQ,07/26/2016 09:15 UTC,30.04,68.0,64.4,88.29,0.0,0.0,,,,,,1.0,,,,10.0,,KIGQ 260915Z AUTO 00000KT 10SM CLR 20/18 A3004,,,,,,64.39,,N,29.39,28.17,,Clear
KIGQ,07/26/2016 09:35 UTC,30.04,67.1,64.22,88.29,0.0,0.0,,,,,,1.0,,,,10.0,,KIGQ 260935Z AUTO 00000KT 10SM CLR 20/18 A3004,,,,,,63.5,,N,29.39,28.23,,Clear
KIGQ,07/26/2016 09:55 UTC,30.05,67.28,64.4,88.29,0.0,0.0,,,,,,1.0,,,,10.0,,KIGQ 260955Z AUTO 00000KT 10SM CLR 20/18 A3005,,,,,,63.68,,N,29.4,28.23,,Clear
KIGQ,07/26/2016 10:15 UTC,30.05,67.82,64.4,88.29,0.0,0.0,,,,,,1.0,,,,10.0,,KIGQ 261015Z AUTO 00000KT 10SM CLR 20/18 A3005,,,,,,64.21,,N,29.4,28.19,,Clear
KIGQ,07/26/2016 10:35 UTC,30.05,68.0,64.76,88.29,0.0,0.0,,,,,,502.0,,,,10.0,,KIGQ 261035Z AUTO 00000KT 10SM SCT050 20/18 A3005,,,,,,64.39,,N,29.4,28.18,,Partly Cloudy
KIGQ,07/26/2016 10:55 UTC,30.06,68.18,64.58,88.29,0.0,0.0,,,,,,504.0,,,,10.0,,KIGQ 261055Z AUTO 00000KT 10SM OVC050 20/18 A3006,,,5000.0,,,64.56,,N,29.41,28.17,,Overcast
KIGQ,07/26/2016 11:15 UTC,30.06,69.08,64.76,83.01,0.0,0.0,,,,,,504.0,,,,10.0,,KIGQ 261115Z AUTO 00000KT 10SM OVC050 21/18 A3006,,,5000.0,,,63.67,,N,29.41,28.22,,Overcast
KIGQ,07/26/2016 11:35 UTC,30.07,69.26,64.94,83.01,0.0,0.0,,,,,,502.0,,,,10.0,,KIGQ 261135Z AUTO 00000KT 10SM SCT050 21/18 A3007,,,,,,63.85,,N,29.42,28.21,,Partly Cloudy
KIGQ,07/26/2016 11:55 UTC,30.07,70.16,65.48,88.37,0.0,0.0,,,,,,602.0,,,,10.0,,KIGQ 261155Z AUTO 00000KT 10SM SCT060 21/19 A3007,71.96,66.92,,,,66.54,,N,29.42,28.03,,Partly Cloudy
KIGQ,07/26/2016 12:15 UTC,30.08,71.96,64.4,78.09,0.0,0.0,,,,,,602.0,,,,10.0,,KIGQ 261215Z AUTO 00000KT 10SM SCT060 22/18 A3008,,,,,,64.73,,N,29.43,28.14,,Partly Cloudy
KIGQ,07/26/2016 12:35 UTC,30.07,73.76,64.04,73.5,0.0,0.0,,,,,,22.0,602.0,,,10.0,,KIGQ 261235Z AUTO 00000KT 10SM SCT002 SCT060 23/18 A3007,,,,,,64.73,,N,29.42,28.1,,Partly Cloudy
KIGQ,07/26/2016 12:55 UTC,30.07,75.2,64.76,69.21,0.0,0.0,,,,,,22.0,,,,10.0,,KIGQ 261255Z AUTO 00000KT 10SM SCT002 24/18 A3007,,,,,,64.39,,N,29.42,28.11,,Partly Cloudy
KIGQ,07/26/2016 13:15 UTC,30.07,76.64,62.96,61.21,0.0,0.0,,,,,,1.0,,,,10.0,,KIGQ 261315Z AUTO 00000KT 10SM CLR 25/17 A3007,,,,,,62.25,,N,29.42,28.22,,Clear
KIGQ,07/26/2016 13:35 UTC,30.07,78.08,62.78,57.69,3.44,110.0,,,,,,1.0,,,,10.0,,KIGQ 261335Z AUTO 11003KT 10SM CLR 26/17 A3007,,,,,,61.93,,ESE,29.42,28.23,,Clear
KIGQ,07/26/2016 13:55 UTC,30.08,78.98,62.42,57.69,4.61,110.0,,,,,,402.0,,,,10.0,,KIGQ 261355Z AUTO 11004KT 10SM SCT040 26/17 A3008,,,,,,62.77,,ESE,29.43,28.18,,Partly Cloudy
KIGQ,07/26/2016 14:15 UTC,30.08,79.7,62.6,54.4,0.0,0.0,,,,,,422.0,603.0,,,10.0,,KIGQ 261415Z AUTO 00000KT 10SM SCT042 BKN060 27/17 A3008,,,6000.0,,,61.78,,N,29.43,28.23,,Mostly Cloudy
KIGQ,07/26/2016 14:35 UTC,30.08,79.7,63.14,54.4,4.61,100.0,,,,,,422.0,602.0,,,10.0,,KIGQ 261435Z AUTO 10004KT 10SM SCT042 SCT060 27/17 A3008,,,,,,61.78,,E,29.43,28.23,,Partly Cloudy
KIGQ,07/26/2016 14:55 UTC,30.07,80.6,63.68,57.94,3.44,120.0,,,,,,433.0,603.0,,,10.0,,KIGQ 261455Z AUTO 12003KT 10SM BKN043 BKN060 27/18 A3007,,,4300.0,,,64.42,,ESE,29.42,28.04,82.28,Mostly Cloudy
KIGQ,07/26/2016 15:15 UTC,30.08,80.78,63.86,57.94,5.75,150.0,,,,,,432.0,,,,10.0,,KIGQ 261515Z AUTO 15005KT 10SM SCT043 27/18 A3008,,,,,,64.59,,SSE,29.43,28.04,82.5,Partly Cloudy
KIGQ,07/26/2016 15:35 UTC,30.08,81.14,62.78,54.4,4.61,140.0,,,,,,1.0,,,,10.0,,KIGQ 261535Z AUTO 14004KT 10SM CLR 27/17 A3008,,,,,,63.13,,SE,29.43,28.13,82.45,Clear
KIGQ,07/26/2016 15:55 UTC,30.07,81.86,63.14,51.31,4.61,130.0,,,,,,1.0,,,,10.0,,KIGQ 261555Z AUTO 13004KT 10SM CLR 28/17 A3007,,,,,,62.14,,SE,29.42,28.18,82.81,Clear
KIGQ,07/26/2016 16:15 UTC,30.07,82.58,62.6,51.31,4.61,70.0,,,,,,1.0,,,,10.0,,KIGQ 261615Z AUTO 07004KT 10SM CLR 28/17 A3007,,,,,,62.8,,ENE,29.42,28.13,83.63,Clear
KIGQ,07/26/2016 16:35 UTC,30.07,82.76,61.52,48.15,3.44,170.0,,,,,,502.0,,,,10.0,,KIGQ 261635Z AUTO 17003KT 10SM SCT050 28/16 A3007,,,,,,61.17,,S,29.42,28.23,83.31,Partly Cloudy
KIGQ,07/26/2016 16:55 UTC,30.06,83.48,62.42,48.42,0.0,0.0,,,,,,462.0,603.0,,,10.0,,KIGQ 261655Z AUTO 00000KT 10SM SCT046 BKN060 29/17 A3006,,,6000.0,,,61.99,,N,29.41,28.16,84.18,Mostly Cloudy
KIGQ,07/26/2016 17:15 UTC,30.06,83.84,63.14,48.42,4.61,130.0,,,,,,463.0,603.0,,,10.0,,KIGQ 261715Z AUTO 13004KT 10SM BKN046 BKN060 29/17 A3006,,,4600.0,,,62.32,,SE,29.41,28.14,84.61,Mostly Cloudy
KIGQ,07/26/2016 17:35 UTC,30.06,84.2,62.24,48.42,0.0,0.0,,,,,,473.0,754.0,,,10.0,,KIGQ 261735Z AUTO 00000KT 10SM BKN047 OVC075 29/17 A3006,,,4700.0,,,62.66,,N,29.41,28.11,85.05,Overcast
KIGQ,07/26/2016 17:55 UTC,30.05,81.86,62.06,51.31,3.44,110.0,,,,,,474.0,,,,10.0,,KIGQ 261755Z AUTO 11003KT 10SM OVC047 28/17 A3005,84.92,70.34,4700.0,,,62.14,,ESE,29.4,28.16,82.81,Overcast
KIGQ,07/26/2016 18:15 UTC,30.05,81.86,62.96,51.31,4.61,80.0,,,,,,453.0,704.0,,,10.0,,KIGQ 261815Z AUTO 08004KT 10SM BKN045 OVC070 28/17 A3005,,,4500.0,,,62.14,,E,29.4,28.16,82.81,Overcast
KIGQ,07/26/2016 18:35 UTC,30.04,83.84,63.68,51.58,4.61,130.0,,,702.0,,,452.0,502.0,,,10.0,,KIGQ 261835Z AUTO 13004KT 10SM SCT045 SCT050 SCT070 29/18  A3004,,,,,,64.12,,SE,29.39,28.0,85.26,Partly Cloudy
KIGQ,07/26/2016 18:55 UTC,30.04,84.2,64.58,51.58,5.75,120.0,,,,,,1.0,,,,10.0,,KIGQ 261855Z AUTO 12005KT 10SM CLR 29/18 A3004,,,,,,64.46,,ESE,29.39,27.98,85.74,Clear
KIGQ,07/26/2016 19:15 UTC,30.03,84.38,62.96,48.42,0.0,0.0,,,,,,1.0,,,,10.0,,KIGQ 261915Z AUTO 00000KT 10SM CLR 29/17 A3003,,,,,,62.82,,N,29.38,28.07,85.28,Clear
KIGQ,07/26/2016 19:35 UTC,30.03,84.38,64.4,51.58,3.44,160.0,,,,,,1.0,,,,10.0,,KIGQ 261935Z AUTO 16003KT 10SM CLR 29/18 A3003,,,,,,64.62,,SSE,29.38,27.95,85.99,Clear
KIGQ,07/26/2016 19:55 UTC,30.03,85.28,64.76,48.69,6.91,160.0,,,,,,1.0,,,,10.0,,KIGQ 261955Z AUTO 16006KT 10SM CLR 30/18 A3003,,,,,,63.81,,SSE,29.38,28.0,86.52,Clear
KIGQ,07/26/2016 20:15 UTC,30.02,85.28,64.22,48.69,3.44,210.0,,,,,,1.0,,,,10.0,,KIGQ 262015Z AUTO 21003KT 10SM CLR 30/18 A3002 RMK AO2  T02960179,,,,,,63.81,,SSW,29.37,27.99,86.52,Clear
KIGQ,07/26/2016 20:35 UTC,30.01,85.64,64.58,48.69,5.75,220.0,,,,,,1.0,,,,10.0,,KIGQ 262035Z AUTO 22005KT 10SM CLR 30/18 A3001 RMK AO2  T02980181,,,,,,64.14,,SW,29.36,27.95,87.02,Clear
KIGQ,07/26/2016 20:55 UTC,30.01,84.92,63.86,51.58,0.0,0.0,,,,,,462.0,552.0,,,10.0,,KIGQ 262055Z AUTO 00000KT 10SM SCT046 SCT055 29/18 A3001 RMK AO2  T02940177,,,,,,65.13,,N,29.36,27.89,86.74,Partly Cloudy
KIGQ,07/26/2016 21:15 UTC,30.01,82.58,63.86,54.65,5.75,30.0,,,,,,702.0,,,,10.0,,KIGQ 262115Z AUTO 03005KT 10SM SCT070 28/18 A3001 RMK AO2  T02810177,,,,,,64.6,,NNE,29.36,27.95,84.23,Partly Cloudy
KIGQ,07/26/2016 21:35 UTC,30.0,82.76,64.04,54.65,0.0,0.0,,,,,,1.0,,,,10.0,,KIGQ 262135Z AUTO 00000KT 10SM CLR 28/18 A3000 RMK AO2  T02820178,,,,,,64.77,,N,29.35,27.93,84.46,Clear
KIGQ,07/26/2016 21:55 UTC,30.0,84.38,63.68,51.58,4.61,110.0,,,,,,463.0,,,,10.0,,KIGQ 262155Z AUTO 11004KT 10SM BKN046 29/18 A3000 RMK AO2  T02910176,,,4600.0,,,64.62,,ESE,29.35,27.92,85.99,Mostly Cloudy
KIGQ,07/26/2016 22:15 UTC,30.0,82.22,62.78,51.31,6.91,50.0,,,,,,463.0,,,,10.0,,KIGQ 262215Z AUTO 05006KT 10SM BKN046 28/17 A3000 RMK AO2  T02790171,,,4600.0,,,62.47,,NE,29.35,28.08,83.21,Mostly Cloudy
KIGQ,07/26/2016 22:35 UTC,30.0,82.4,62.24,51.31,8.05,40.0,,,,,,1.0,,,,10.0,,KIGQ 262235Z AUTO 04007KT 10SM CLR 28/17 A3000 RMK AO2  T02800168,,,,,,62.64,,NE,29.35,28.07,83.42,Clear
KIGQ,07/26/2016 22:55 UTC,30.0,83.48,62.24,48.42,5.75,50.0,,,,,,1.0,,,,10.0,,KIGQ 262255Z AUTO 05005KT 10SM CLR 29/17 A3000 RMK AO2  T02860168,,,,,,61.99,,NE,29.35,28.1,84.18,Clear
KIGQ,07/26/2016 23:15 UTC,30.0,82.94,61.88,51.31,8.05,40.0,,,,,,1.0,,,,10.0,,KIGQ 262315Z AUTO 04007KT 10SM CLR 28/17 A3000 RMK AO2  T02830166,,,,,,63.14,,NE,29.35,28.03,84.06,Clear
KIGQ,07/26/2016 23:35 UTC,30.01,82.04,60.62,48.15,8.05,40.0,,,,,,1.0,,,,10.0,,KIGQ 262335Z AUTO 04007KT 10SM CLR 28/16 A3001 RMK AO2  T02780159,,,,,,60.51,,NE,29.36,28.21,82.54,Clear
KIGQ,07/26/2016 23:55 UTC,30.01,81.5,60.62,48.15,6.91,30.0,,,,,,1.0,,,,10.0,,KIGQ 262355Z AUTO 03006KT 10SM CLR 28/16 A3001 RMK AO2 T02750159  10298 20275,85.64,81.5,,,,60.01,,NNE,29.36,28.25,82.0,Clear
KIGQ,07/27/2016 00:15 UTC,30.01,81.14,60.26,51.05,6.91,80.0,,,,,,1.0,,,,10.0,,KIGQ 270015Z AUTO 08006KT 10SM CLR 27/16 A3001 RMK AO2  T02730157,,,,,,61.32,,E,29.36,28.17,82.01,Clear
KIGQ,07/27/2016 00:35 UTC,30.01,79.88,60.8,51.05,4.61,50.0,,,,,,1.0,,,,10.0,,KIGQ 270035Z AUTO 05004KT 10SM CLR 27/16 A3001 RMK AO2  T02660160,,,,,,60.16,,NE,29.36,28.25,,Clear
KIGQ,07/27/2016 00:55 UTC,30.02,79.34,59.72,50.78,4.61,50.0,,,,,,552.0,,,,10.0,,KIGQ 270055Z AUTO 05004KT 10SM SCT055 26/15 A3002 RMK AO2  T02630154,,,,,,59.51,,NE,29.37,28.3,,Partly Cloudy
KIGQ,07/27/2016 01:15 UTC,30.02,78.62,59.9,54.14,3.44,50.0,,,,,,503.0,,,,10.0,,KIGQ 270115Z AUTO 05003KT 10SM BKN050 26/16 A3002 RMK AO2  T02590155,,,5000.0,,,60.64,,NE,29.37,28.25,,Mostly Cloudy
KIGQ,07/27/2016 01:35 UTC,30.01,77.54,60.44,57.45,0.0,0.0,,,,,,502.0,,,,10.0,,KIGQ 270135Z AUTO 00000KT 10SM SCT050 25/16 A3001 RMK AO2  T02530158,,,,,,61.3,,N,29.36,28.21,,Partly Cloudy
KIGQ,07/27/2016 01:55 UTC,30.01,76.64,61.34,57.45,3.44,100.0,,,,,,1.0,,,,10.0,,KIGQ 270155Z AUTO 10003KT 10SM CLR 25/16 A3001 RMK AO2  T02480163,,,,,,60.46,,E,29.36,28.27,,Clear
KIGQ,07/27/2016 02:15 UTC,30.01,77.18,59.9,57.45,0.0,0.0,,,,,,1.0,,,,10.0,,KIGQ 270215Z AUTO 00000KT 10SM CLR 25/16 A3001 RMK AO2  T02510155,,,,,,60.96,,N,29.36,28.23,,Clear
KIGQ,07/27/2016 02:35 UTC,30.02,77.18,59.9,57.45,3.44,100.0,,,,,,1.0,,,,10.0,,KIGQ 270235Z AUTO 10003KT 10SM CLR 25/16 A3002 RMK AO2  T02510155,,,,,,60.96,,E,29.37,28.24,,Clear
KIGQ,07/27/2016 02:55 UTC,30.02,76.46,59.9,57.45,3.44,120.0,,,,,,502.0,,,,10.0,,KIGQ 270255Z AUTO 12003KT 10SM SCT050 25/16 A3002 RMK AO2  T02470155,,,,,,60.29,,ESE,29.37,28.29,,Partly Cloudy
KIGQ,07/27/2016 03:15 UTC,30.02,74.3,61.88,64.98,0.0,0.0,,,,,,482.0,,,,10.0,,KIGQ 270315Z AUTO 00000KT 10SM SCT048 24/17 A3002 RMK AO2  T02350166,,,,,,61.73,,N,29.37,28.23,,Partly Cloudy
KIGQ,07/27/2016 03:35 UTC,30.02,72.68,64.22,73.5,0.0,0.0,,,,,,483.0,503.0,,,10.0,,KIGQ 270335Z AUTO 00000KT 10SM BKN048 BKN050 23/18 A3002 RMK AO2  T02260179,,,4800.0,,,63.69,,N,29.37,28.13,,Mostly Cloudy
KIGQ,07/27/2016 03:55 UTC,30.02,70.88,63.68,78.09,4.61,180.0,,,703.0,,,482.0,552.0,,,10.0,,KIGQ 270355Z AUTO 18004KT 10SM SCT048 SCT055 BKN070 22/18  A3002 RMK AO2 T02160176,,,7000.0,,,63.68,,S,29.37,28.15,,Mostly Cloudy
KIGQ,07/27/2016 04:15 UTC,30.02,71.24,63.5,78.09,3.44,190.0,,,,,,482.0,702.0,,,10.0,,KIGQ 270415Z AUTO 19003KT 10SM SCT048 SCT070 22/18 A3002 RMK AO2  T02180175,,,,,,64.03,,S,29.37,28.13,,Partly Cloudy
KIGQ,07/27/2016 04:35 UTC,30.02,71.6,64.04,77.12,0.0,0.0,,,,,,1.0,,,,10.0,,KIGQ 270435Z AUTO 00000KT 10SM CLR 22/18 A3002 RMK AO2  T02200178,,,,,,64.02,,N,29.37,28.12,,Clear
KIGQ,07/27/2016 04:55 UTC,30.02,69.8,63.68,83.01,4.61,180.0,,,,,,1.0,,,,10.0,,KIGQ 270455Z AUTO 18004KT 10SM CLR 21/18 A3002 RMK AO2  T02100176,,,,,,64.38,,S,29.37,28.12,,Clear
KIGQ,07/27/2016 05:15 UTC,30.02,69.26,63.5,83.01,4.61,190.0,,,,,,1.0,,,,10.0,,KIGQ 270515Z AUTO 19004KT 10SM CLR 21/18 A3002 RMK AO2  T02070175,,,,,,63.85,,S,29.37,28.16,,Clear
KIGQ,07/27/2016 05:35 UTC,30.01,69.44,63.68,83.01,3.44,200.0,,,,,,1.0,,,,10.0,,KIGQ 270535Z AUTO 20003KT 10SM CLR 21/18 A3001 RMK AO2  T02080176,,,,,,64.03,,SSW,29.36,28.14,,Clear
KIGQ,07/27/2016 05:55 UTC,30.01,69.44,62.96,77.94,3.44,200.0,,,,,,1.0,,,,10.0,,KIGQ 270555Z AUTO 20003KT 10SM CLR 21/17 A3001 RMK AO2 T02080172  10275 20202 402980194,81.5,68.36,,85.64,66.92,62.22,,SSW,29.36,28.25,,Clear
KIGQ,07/27/2016 06:15 UTC,30.0,70.7,61.88,73.32,0.0,0.0,,,,,,1.0,,,,10.0,,KIGQ 270615Z AUTO 00000KT 10SM CLR 22/17 A3000 RMK AO2  T02150166,,,,,,61.7,,N,29.35,28.25,,Clear
KIGQ,07/27/2016 06:35 UTC,30.0,70.7,61.7,73.32,0.0,0.0,,,,,,1.0,,,,10.0,,KIGQ 270635Z AUTO 00000KT 10SM CLR 22/17 A3000 RMK AO2  T02150165,,,,,,61.7,,N,29.35,28.25,,Clear
KIGQ,07/27/2016 06:55 UTC,30.0,68.9,61.88,77.94,0.0,0.0,,,,,,1.0,,,,10.0,,KIGQ 270655Z AUTO 00000KT 10SM CLR 21/17 A3000 RMK AO2  T02050166,,,,,,61.7,,N,29.35,28.27,,Clear
KIGQ,07/27/2016 07:15 UTC,30.0,69.8,61.7,77.94,0.0,0.0,,,,,,1.0,,,,10.0,,KIGQ 270715Z AUTO 00000KT 10SM CLR 21/17 A3000 RMK AO2  T02100165,,,,,,62.57,,N,29.35,28.21,,Clear
KIGQ,07/27/2016 07:35 UTC,29.99,66.74,61.7,88.2,0.0,0.0,,,,,,1.0,,,,10.0,,KIGQ 270735Z AUTO 00000KT 10SM CLR 19/17 A2999 RMK AO2  T01930165,,,,,,63.11,,N,29.34,28.21,,Clear
KIGQ,07/27/2016 07:55 UTC,30.0,69.08,61.7,77.94,0.0,0.0,,,,,,1.0,,,,10.0,,KIGQ 270755Z AUTO 00000KT 10SM CLR 21/17 A3000 RMK AO2  T02060165,,,,,,61.87,,N,29.35,28.26,,Clear
KIGQ,07/27/2016 08:15 UTC,30.0,69.8,61.88,77.94,0.0,0.0,,,,,,1.0,,,,10.0,,KIGQ 270815Z AUTO 00000KT 10SM CLR 21/17 A3000 RMK AO2  T02100166,,,,,,62.57,,N,29.35,28.21,,Clear
KIGQ,07/27/2016 08:35 UTC,30.0,68.54,61.7,82.89,0.0,0.0,,,,,,1.0,,,,10.0,,KIGQ 270835Z AUTO 00000KT 10SM CLR 20/17 A3000 RMK AO2  T02030165,,,,,,63.1,,N,29.35,28.2,,Clear
KIGQ,07/27/2016 08:55 UTC,30.01,67.28,61.88,82.89,0.0,0.0,,,,,,1.0,,,,10.0,,KIGQ 270855Z AUTO 00000KT 10SM CLR 20/17 A3001 RMK AO2  T01960166,,,,,,61.87,,N,29.36,28.29,,Clear
KIGQ,07/27/2016 09:15 UTC,30.01,66.56,62.42,88.2,0.0,0.0,,,,,,1.0,,,,10.0,,KIGQ 270915Z AUTO 00000KT 10SM CLR 19/17 A3001 RMK AO2  T01920169,,,,,,62.94,,N,29.36,28.24,,Clear
KIGQ,07/27/2016 09:35 UTC,30.01,67.1,62.6,82.89,0.0,0.0,,,,,,1.0,,,,10.0,,KIGQ 270935Z AUTO 00000KT 10SM CLR 20/17 A3001 RMK AO2  T01950170,,,,,,61.69,,N,29.36,28.3,,Clear
KIGQ,07/27/2016 09:55 UTC,30.02,68.0,63.5,88.29,0.0,0.0,,,,,,1.0,,,,10.0,,KIGQ 270955Z AUTO 00000KT 10SM CLR 20/18 A3002 RMK AO2  T02000175,,,,,,64.39,,N,29.37,28.15,,Clear
KIGQ,07/27/2016 10:15 UTC,30.03,67.1,63.14,82.89,0.0,0.0,,,,,,1.0,,,,10.0,,KIGQ 271015Z AUTO 00000KT 10SM CLR 20/17 A3003 RMK AO2  T01950173,,,,,,61.69,,N,29.38,28.33,,Clear
KIGQ,07/27/2016 10:35 UTC,30.03,66.2,62.96,88.2,0.0,0.0,,,,,,1.0,,,,10.0,,KIGQ 271035Z AUTO 00000KT 10SM CLR 19/17 A3003 RMK AO2  T01900172,,,,,,62.58,,N,29.38,28.29,,Clear
KIGQ,07/27/2016 10:55 UTC,30.03,66.56,63.32,88.2,0.0,0.0,,,,,,1.0,,,,10.0,,KIGQ 271055Z AUTO 00000KT 10SM CLR 19/17 A3003 RMK AO2  T01920174,,,,,,62.94,,N,29.38,28.26,,Clear
KIGQ,07/27/2016 11:15 UTC,30.04,65.12,62.24,93.89,4.61,190.0,,,,,,1.0,,,,10.0,,KIGQ 271115Z AUTO 19004KT 10SM CLR 18/17 A3004 RMK AO2  T01840168,,,,,,63.3,,S,29.39,28.27,,Clear
KIGQ,07/27/2016 11:35 UTC,30.03,67.1,64.4,88.29,3.44,180.0,,,,,,1.0,,,,7.0,,KIGQ 271135Z AUTO 18003KT 7SM CLR 20/18 A3003 RMK AO2  T01950180,,,,,,63.5,,S,29.38,28.22,,Clear
KIGQ,07/27/2016 11:55 UTC,30.03,68.9,65.84,88.37,3.44,180.0,,,,,,1.0,,,,7.0,,KIGQ 271155Z AUTO 18003KT 7SM CLR 21/19 A3003 RMK AO2 T02050188  10216 20181,70.88,64.58,,,,65.3,,S,29.38,28.09,,Clear
KIGQ,07/27/2016 12:15 UTC,30.03,70.34,67.1,94.03,3.44,210.0,,31.0,,,,1.0,,,,5.0,,KIGQ 271215Z AUTO 21003KT 5SM BR CLR 21/20 A3003 RMK AO2 LTG DSNT  SW T02130195,,,,,,68.53,,SSW,29.38,27.86,,Mist
KIGQ,07/27/2016 12:35 UTC,30.03,72.32,68.0,88.46,0.0,0.0,,31.0,,,,1.0,,,,5.0,,KIGQ 271235Z AUTO 00000KT 5SM BR CLR 22/20 A3003 RMK AO2  T02240200,,,,,,68.7,,N,29.38,27.82,,Mist
KIGQ,07/27/2016 12:55 UTC,30.03,73.94,68.0,83.25,0.0,0.0,,,,,,1.0,,,,10.0,,KIGQ 271255Z AUTO 00000KT 10SM CLR 23/20 A3003 RMK AO2  T02330200,,,,,,68.52,,N,29.38,27.81,,Clear
KIGQ,07/27/2016 13:15 UTC,30.02,76.64,67.1,73.85,0.0,0.0,,,,,,1.0,,,,10.0,,KIGQ 271315Z AUTO 00000KT 10SM CLR 25/20 A3002 RMK AO2  T02480195,,,,,,67.65,,N,29.37,27.82,,Clear
KIGQ,07/27/2016 13:35 UTC,30.02,77.54,65.84,69.4,0.0,0.0,,,,,,1.0,,,,10.0,,KIGQ 271335Z AUTO 00000KT 10SM CLR 25/19 A3002 RMK AO2  T02530188,,,,,,66.71,,N,29.37,27.87,,Clear
KIGQ,07/27/2016 13:55 UTC,30.02,78.8,65.66,65.41,0.0,0.0,,,,,,1.0,,,,10.0,,KIGQ 271355Z AUTO 00000KT 10SM CLR 26/19 A3002 RMK AO2  T02600187,,,,,,66.2,,N,29.37,27.89,,Clear
KIGQ,07/27/2016 14:15 UTC,30.02,80.42,65.84,61.67,0.0,0.0,,,,,,1.0,,,,10.0,,KIGQ 271415Z AUTO 00000KT 10SM CLR 27/19 A3002 RMK AO2  T02690188,,,,,,66.04,,N,29.37,27.89,82.53,Clear
KIGQ,07/27/2016 14:35 UTC,30.02,81.14,64.94,57.94,0.0,0.0,,,,,,1.0,,,,10.0,,KIGQ 271435Z AUTO 00000KT 10SM CLR 27/18 A3002 RMK AO2  T02730183,,,,,,64.93,,N,29.37,27.95,82.94,Clear
KIGQ,07/27/2016 14:55 UTC,30.02,81.86,65.3,58.18,0.0,0.0,,,,,,1.0,,,,10.0,,KIGQ 271455Z AUTO 00000KT 10SM CLR 28/19 A3002 RMK AO2  T02770185,,,,,,65.73,,N,29.37,27.89,83.91,Clear
KIGQ,07/27/2016 15:15 UTC,30.01,82.4,65.84,58.18,0.0,0.0,,,,,,1.0,,,,10.0,,KIGQ 271515Z AUTO 00000KT 10SM CLR 28/19 A3001 RMK AO2  T02800188,,,,,,66.23,,N,29.36,27.84,84.65,Clear
KIGQ,07/27/2016 15:35 UTC,30.01,82.94,65.66,58.18,0.0,0.0,,,,,,1.0,,,,10.0,,KIGQ 271535Z AUTO 00000KT 10SM CLR 28/19 A3001 RMK AO2  T02830187,,,,,,66.74,,N,29.36,27.8,85.43,Clear
KIGQ,07/27/2016 15:55 UTC,30.02,83.84,64.94,51.58,4.61,200.0,,,,,,1.0,,,,10.0,,KIGQ 271555Z AUTO 20004KT 10SM CLR 29/18 A3002 RMK AO2  T02880183,,,,,,64.12,,SSW,29.37,27.98,85.26,Clear
KIGQ,07/27/2016 16:15 UTC,30.02,84.38,62.78,48.42,0.0,0.0,,,,,,1.0,,,,10.0,,KIGQ 271615Z AUTO 00000KT 10SM CLR 29/17 A3002 RMK AO2  T02910171,,,,,,62.82,,N,29.37,28.06,85.28,Clear
KIGQ,07/27/2016 16:35 UTC,30.03,85.28,63.5,48.69,4.61,250.0,,,,,,1.0,,,,10.0,,KIGQ 271635Z AUTO 25004KT 10SM CLR 30/18 A3003 RMK AO2  T02960175,,,,,,63.81,,WSW,29.38,28.0,86.52,Clear
KIGQ,07/27/2016 16:55 UTC,30.02,85.82,60.44,42.9,0.0,0.0,,,,,,552.0,,,,10.0,,KIGQ 271655Z AUTO 00000KT 10SM SCT055 30/16 A3002 RMK AO2  T02990158,,,,,,60.72,,N,29.37,28.18,85.85,Partly Cloudy
KIGQ,07/27/2016 17:15 UTC,30.02,86.18,61.16,42.9,5.75,200.0,,,,,,1.0,,,,10.0,,KIGQ 271715Z AUTO 20005KT 10SM CLR 30/16 A3002 RMK AO2  T03010162,,,,,,61.05,,SSW,29.37,28.15,86.3,Clear
KIGQ,07/27/2016 17:35 UTC,30.02,86.18,64.58,48.69,8.05,260.0,,,,,,452.0,,,,10.0,,KIGQ 271735Z AUTO 26007KT 10SM SCT045 30/18 A3002 RMK AO2  T03010181,,,,,,64.64,,W,29.37,27.92,87.78,Partly Cloudy
KIGQ,07/27/2016 17:55 UTC,30.01,85.28,64.4,48.69,10.36,250.0,,,,,,453.0,503.0,,,10.0,,KIGQ 271755Z AUTO 25009KT 10SM BKN045 BKN050 30/18 A3001 RMK AO2  T02960180 10303 20205,86.54,68.9,4500.0,,,63.81,,WSW,29.36,27.98,86.52,Mostly Cloudy
KIGQ,07/27/2016 18:15 UTC,30.01,86.36,65.66,51.84,3.44,230.0,,,,,,452.0,702.0,,,10.0,,KIGQ 271815Z AUTO 23003KT 10SM SCT045 SCT070 30/19 A3001 RMK AO2  T03020187,,,,,,66.61,,SW,29.36,27.78,88.99,Partly Cloudy
KIGQ,07/27/2016 18:35 UTC,30.0,86.36,64.94,48.69,6.91,270.0,,,,,,1.0,,,,10.0,,KIGQ 271835Z AUTO 27006KT 10SM CLR 30/18 A3000 RMK AO2  T03020183,,,,,,64.81,,W,29.35,27.89,88.05,Clear
KIGQ,07/27/2016 18:55 UTC,29.99,86.18,63.32,45.72,0.0,0.0,,,,,,1.0,,,,10.0,,KIGQ 271855Z AUTO 00000KT 10SM CLR 30/17 A2999 RMK AO2  T03010174,,,,,,62.85,,N,29.34,28.01,86.99,Clear
KIGQ,07/27/2016 19:15 UTC,29.98,86.9,64.94,45.99,8.05,220.0,,,,,,1.0,,,,10.0,,KIGQ 271915Z AUTO 22007KT 10SM CLR 31/18 A2998 RMK AO2  T03050183,,,,,,63.67,,SW,29.33,27.94,88.05,Clear
KIGQ,07/27/2016 19:35 UTC,29.98,86.9,64.76,45.99,6.91,200.0,,,,,,492.0,,,,10.0,,KIGQ 271935Z AUTO 20006KT 10SM SCT049 31/18 A2998 RMK AO2  T03050182,,,,,,63.67,,SSW,29.33,27.94,88.05,Partly Cloudy
KIGQ,07/27/2016 19:55 UTC,29.96,86.54,63.5,48.69,3.44,200.0,,,,,,1.0,,,,10.0,,KIGQ 271955Z AUTO 20003KT 10SM CLR 30/18 A2996 RMK AO2  T03030175,,,,,,64.97,,SSW,29.31,27.84,88.31,Clear
KIGQ,07/27/2016 20:15 UTC,29.95,87.08,63.32,43.18,5.75,230.0,,,,,,1.0,,,,10.0,,KIGQ 272015Z AUTO 23005KT 10SM CLR 31/17 A2995 RMK AO2  T03060174,,,,,,62.05,,SW,29.3,28.01,87.53,Clear
KIGQ,07/27/2016 20:35 UTC,29.95,87.08,63.5,45.99,6.91,210.0,,,,,,1.0,,,,10.0,,KIGQ 272035Z AUTO 21006KT 10SM CLR 31/18 A2995 RMK AO2  T03060175,,,,,,63.84,,SSW,29.3,27.9,88.31,Clear
KIGQ,07/27/2016 20:55 UTC,29.95,86.0,64.22,48.69,6.91,200.0,,,,,,1.0,,,,10.0,,KIGQ 272055Z AUTO 20006KT 10SM CLR 30/18 A2995 RMK AO2  T03000179,,,,,,64.47,,SSW,29.3,27.87,87.52,Clear
KIGQ,07/27/2016 21:15 UTC,29.95,86.9,63.86,45.99,5.75,220.0,,,,,,1.0,,,,10.0,,KIGQ 272115Z AUTO 22005KT 10SM CLR 31/18 A2995 RMK AO2  T03050177,,,,,,63.67,,SW,29.3,27.91,88.05,Clear
KIGQ,07/27/2016 21:35 UTC,29.94,86.54,63.32,46.09,5.75,220.0,,,,,,1.0,,,,10.0,,KIGQ 272135Z AUTO 22005KT 10SM CLR 30/17 A2994 RMK AO2  T03030174,,,,,,63.41,,SW,29.29,27.92,87.58,Clear
KIGQ,07/27/2016 21:55 UTC,29.94,86.36,64.4,48.14,6.91,230.0,,,,,,502.0,,,,10.0,,KIGQ 272155Z AUTO 23006KT 10SM SCT050 30/18 A2994 RMK AO2  T03020180,,,,,,64.48,,SW,29.29,27.85,87.89,Partly Cloudy
KIGQ,07/27/2016 22:15 UTC,29.94,86.0,64.4,48.69,5.75,210.0,,,,,,502.0,,,,10.0,,KIGQ 272215Z AUTO 21005KT 10SM SCT050 30/18 A2994 RMK AO2  T03000180,,,,,,64.47,,SSW,29.29,27.86,87.52,Partly Cloudy
KIGQ,07/27/2016 22:35 UTC,29.94,86.0,64.76,48.69,8.05,230.0,,,,,,1.0,,,,10.0,,KIGQ 272235Z AUTO 23007KT 10SM CLR 30/18 A2994 RMK AO2  T03000182,,,,,,64.47,,SW,29.29,27.86,87.52,Clear
KIGQ,07/27/2016 22:55 UTC,29.94,84.92,64.22,51.58,6.91,220.0,,,,,,1.0,,,,10.0,,KIGQ 272255Z AUTO 22006KT 10SM CLR 29/18 A2994 RMK AO2  T02940179,,,,,,65.13,,SW,29.29,27.82,86.74,Clear
KIGQ,07/27/2016 23:15 UTC,29.94,84.74,65.3,54.9,6.91,190.0,,,,,,1.0,,,,10.0,,KIGQ 272315Z AUTO 19006KT 10SM CLR 29/19 A2994 RMK AO2  T02930185,,,,,,66.75,,S,29.29,27.71,87.34,Clear
KIGQ,07/27/2016 23:35 UTC,29.93,83.48,65.84,54.9,6.91,210.0,,,,,,1.0,,,,10.0,,KIGQ 272335Z AUTO 21006KT 10SM CLR 29/19 A2993 RMK AO2  T02860188,,,,,,65.58,,SSW,29.28,27.8,85.49,Clear
KIGQ,07/27/2016 23:55 UTC,29.92,82.94,65.48,58.18,5.75,200.0,,,,,,1.0,,,,10.0,,KIGQ 272355Z AUTO 20005KT 10SM CLR 28/19 A2992 RMK AO2 T02830186  10307 20283,87.26,82.94,,,,66.74,,SSW,29.27,27.71,85.43,Clear
KIGQ,07/28/2016 00:15 UTC,29.92,81.32,66.2,61.67,5.75,190.0,,,,,,1.0,,,,10.0,,KIGQ 280015Z AUTO 19005KT 10SM CLR 27/19 A2992 RMK AO2  T02740190,,,,,,66.9,,S,29.27,27.72,83.75,Clear
KIGQ,07/28/2016 00:35 UTC,29.92,79.16,66.92,65.41,5.75,200.0,,,,,,552.0,,,,10.0,,KIGQ 280035Z AUTO 20005KT 10SM SCT055 26/19 A2992 RMK AO2  T02620194,,,,,,66.55,,SSW,29.27,27.77,,Partly Cloudy
KIGQ,07/28/2016 00:55 UTC,29.92,77.54,67.28,73.85,5.75,200.0,,,,,,553.0,,,,10.0,,KIGQ 280055Z AUTO 20005KT 10SM BKN055 25/20 A2992 RMK AO2  T02530196,,,5500.0,,,68.52,,SSW,29.27,27.65,,Mostly Cloudy
KIGQ,07/28/2016 01:15 UTC,29.92,77.18,67.1,73.85,3.44,220.0,,,,,,552.0,,,,10.0,,KIGQ 280115Z AUTO 22003KT 10SM SCT055 25/20 A2992 RMK AO2  T02510195,,,,,,68.17,,SW,29.27,27.68,,Partly Cloudy
KIGQ,07/28/2016 01:35 UTC,29.94,75.56,67.1,78.39,0.0,0.0,,,,,,502.0,,,,10.0,,KIGQ 280135Z AUTO 00000KT 10SM SCT050 24/20 A2994 RMK AO2  T02420195,,,,,,68.34,,N,29.29,27.7,,Partly Cloudy
KIGQ,07/28/2016 01:55 UTC,29.95,78.26,66.92,65.41,3.44,250.0,,,,,,503.0,,,,10.0,,KIGQ 280155Z AUTO 25003KT 10SM BKN050 26/19 A2995 RMK AO2  T02570194,,,5000.0,,,65.69,,WSW,29.3,27.86,,Mostly Cloudy
KIGQ,07/28/2016 02:15 UTC,29.95,78.98,66.2,65.41,3.44,240.0,,,,,,602.0,,,,10.0,,KIGQ 280215Z AUTO 24003KT 10SM SCT060 26/19 A2995 RMK AO2  T02610190,,,,,,66.38,,WSW,29.3,27.81,,Partly Cloudy
KIGQ,07/28/2016 02:35 UTC,29.95,75.02,66.56,73.67,4.61,200.0,,,,,,1.0,,,,10.0,,KIGQ 280235Z AUTO 20004KT 10SM CLR 24/19 A2995 RMK AO2 LTG DSNT NE  T02390192,,,,,,66.01,,SSW,29.3,27.88,,Clear
KIGQ,07/28/2016 02:55 UTC,29.95,73.94,67.1,83.25,4.61,180.0,,,,,,502.0,,,,10.0,,KIGQ 280255Z AUTO 18004KT 10SM SCT050 23/20 A2995 RMK AO2  T02330195,,,,,,68.52,,S,29.3,27.72,,Partly Cloudy
KIGQ,07/28/2016 03:15 UTC,29.96,73.76,66.56,78.24,4.61,190.0,,,,,,503.0,,,,10.0,,KIGQ 280315Z AUTO 19004KT 10SM BKN050 23/19 A2996 RMK AO2  T02320192,,,5000.0,,,66.53,,S,29.31,27.87,,Mostly Cloudy
KIGQ,07/28/2016 03:35 UTC,29.96,73.94,67.1,83.25,0.0,0.0,,,,,,502.0,,,,10.0,,KIGQ 280335Z AUTO 00000KT 10SM SCT050 23/20 A2996 RMK AO2  T02330195,,,,,,68.52,,N,29.31,27.73,,Partly Cloudy
KIGQ,07/28/2016 03:55 UTC,29.96,72.68,66.2,78.24,0.0,0.0,,,,,,502.0,,,,10.0,,KIGQ 280355Z AUTO 00000KT 10SM SCT050 23/19 A2996 RMK AO2  T02260190,,,,,,65.48,,N,29.31,27.96,,Partly Cloudy
KIGQ,07/28/2016 04:15 UTC,29.95,73.76,66.38,78.24,0.0,0.0,,,,,,502.0,,,,10.0,,KIGQ 280415Z AUTO 00000KT 10SM SCT050 23/19 A2995 RMK AO2  T02320191,,,,,,66.53,,N,29.3,27.86,,Partly Cloudy
KIGQ,07/28/2016 04:35 UTC,29.94,73.4,66.38,78.24,0.0,0.0,,,,,,1.0,,,,10.0,,KIGQ 280435Z AUTO 00000KT 10SM CLR 23/19 A2994 RMK AO2  T02300191,,,,,,66.18,,N,29.29,27.88,,Clear
KIGQ,07/28/2016 04:55 UTC,29.95,72.14,66.02,83.13,0.0,0.0,,,,,,1.0,,,,10.0,,KIGQ 280455Z AUTO 00000KT 10SM CLR 22/19 A2995 RMK AO2  T02230189,,,,,,66.71,,N,29.3,27.87,,Clear
KIGQ,07/28/2016 05:15 UTC,29.94,74.12,66.74,78.24,0.0,0.0,,,,,,1.0,,,,10.0,,KIGQ 280515Z AUTO 00000KT 10SM CLR 23/19 A2994 RMK AO2  T02340193,,,,,,66.88,,N,29.29,27.82,,Clear
KIGQ,07/28/2016 05:35 UTC,29.94,73.22,66.56,78.24,0.0,0.0,,,,,,1.0,,,,10.0,,KIGQ 280535Z AUTO 00000KT 10SM CLR 23/19 A2994 RMK AO2  T02290192,,,,,,66.01,,N,29.29,27.89,,Clear
KIGQ,07/28/2016 05:55 UTC,29.94,73.94,66.38,78.24,0.0,0.0,,,,,,1.0,,,,10.0,,KIGQ 280555Z AUTO 00000KT 10SM CLR 23/19 A2994 RMK AO2 T02330191  10283 20220 403070181,82.94,71.6,,87.26,64.58,66.71,,N,29.29,27.84,,Clear
KIGQ,07/28/2016 06:15 UTC,29.94,72.86,66.2,78.24,0.0,0.0,,,,,,1.0,,,,10.0,,KIGQ 280615Z AUTO 00000KT 10SM CLR 23/19 A2994 RMK AO2  T02270190,,,,,,65.66,,N,29.29,27.92,,Clear
KIGQ,07/28/2016 06:35 UTC,29.93,72.86,66.2,78.24,0.0,0.0,,,,,,1.0,,,,10.0,,KIGQ 280635Z AUTO 00000KT 10SM CLR 23/19 A2993 RMK AO2  T02270190,,,,,,65.66,,N,29.28,27.91,,Clear
KIGQ,07/28/2016 06:55 UTC,29.92,69.98,66.02,88.37,0.0,0.0,,,,,,1.0,,,,10.0,,KIGQ 280655Z AUTO 00000KT 10SM CLR 21/19 A2992 RMK AO2  T02110189,,,,,,66.36,,N,29.27,27.89,,Clear
KIGQ,07/28/2016 07:15 UTC,29.92,70.16,66.38,88.37,0.0,0.0,,,,,,1.0,,,,10.0,,KIGQ 280715Z AUTO 00000KT 10SM CLR 21/19 A2992 RMK AO2  T02120191,,,,,,66.54,,N,29.27,27.88,,Clear
KIGQ,07/28/2016 07:35 UTC,29.91,68.72,64.76,88.29,0.0,0.0,,,,,,1.0,,,,10.0,,KIGQ 280735Z AUTO 00000KT 10SM CLR 20/18 A2991 RMK AO2  T02040182,,,,,,65.1,,N,29.26,27.98,,Clear
KIGQ,07/28/2016 07:55 UTC,29.91,68.54,65.12,88.29,0.0,0.0,,,,,,1.0,,,,10.0,,KIGQ 280755Z AUTO 00000KT 10SM CLR 20/18 A2991 RMK AO2  T02030184,,,,,,64.92,,N,29.26,28.0,,Clear
KIGQ,07/28/2016 08:15 UTC,29.91,68.54,65.66,93.98,0.0,0.0,,,,,,1.0,,,,10.0,,KIGQ 280815Z AUTO 00000KT 10SM CLR 20/19 A2991 RMK AO2  T02030187,,,,,,66.73,,N,29.26,27.88,,Clear
KIGQ,07/28/2016 08:35 UTC,29.91,68.18,65.3,93.98,0.0,0.0,,,,,,1.0,,,,10.0,,KIGQ 280835Z AUTO 00000KT 10SM CLR 20/19 A2991 RMK AO2  T02010185,,,,,,66.37,,N,29.26,27.91,,Clear
KIGQ,07/28/2016 08:55 UTC,29.91,69.08,66.38,88.37,0.0,0.0,,,,,,1.0,,,,10.0,,KIGQ 280855Z AUTO 00000KT 10SM CLR 21/19 A2991 RMK AO2  T02060191,,,,,,65.48,,N,29.26,27.95,,Clear
KIGQ,07/28/2016 09:15 UTC,29.9,68.72,65.84,93.98,0.0,0.0,,,,,,1.0,,,,10.0,,KIGQ 280915Z AUTO 00000KT 10SM CLR 20/19 A2990 RMK AO2  T02040188,,,,,,66.91,,N,29.25,27.86,,Clear
KIGQ,07/28/2016 09:35 UTC,29.9,69.08,65.66,88.37,0.0,0.0,,,,,,1.0,,,,10.0,,KIGQ 280935Z AUTO 00000KT 10SM CLR 21/19 A2990 RMK AO2  T02060187,,,,,,65.48,,N,29.25,27.94,,Clear
KIGQ,07/28/2016 09:55 UTC,29.9,68.18,65.66,93.98,0.0,0.0,,,,,,1.0,,,,7.0,,KIGQ 280955Z AUTO 00000KT 7SM CLR 20/19 A2990 RMK AO2  T02010187,,,,,,66.37,,N,29.25,27.9,,Clear
KIGQ,07/28/2016 10:15 UTC,29.9,67.64,64.94,88.29,0.0,0.0,,,,,,1.0,,,,7.0,,KIGQ 281015Z AUTO 00000KT 7SM CLR 20/18 A2990 RMK AO2  T01980183,,,,,,64.03,,N,29.25,28.05,,Clear
KIGQ,07/28/2016 10:35 UTC,29.9,68.0,65.3,93.98,0.0,0.0,,,,,,1.0,,,,10.0,,KIGQ 281035Z AUTO 00000KT 10SM CLR 20/19 A2990 RMK AO2  T02000185,,,,,,66.19,,N,29.25,27.91,,Clear
KIGQ,07/28/2016 10:55 UTC,29.91,68.36,65.48,93.98,0.0,0.0,,,,,,1.0,,,,10.0,,KIGQ 281055Z AUTO 00000KT 10SM CLR 20/19 A2991 RMK AO2  T02020186,,,,,,66.55,,N,29.26,27.89,,Clear
KIGQ,07/28/2016 11:15 UTC,29.91,68.36,65.66,93.98,0.0,0.0,,,,,,1.0,,,,7.0,,KIGQ 281115Z AUTO 00000KT 7SM CLR 20/19 A2991 RMK AO2  T02020187,,,,,,66.55,,N,29.26,27.89,,Clear
KIGQ,07/28/2016 11:35 UTC,29.91,68.18,65.48,93.98,0.0,0.0,,,,,,1.0,,,,10.0,,KIGQ 281135Z AUTO 00000KT 10SM CLR 20/19 A2991 RMK AO2  T02010186,,,,,,66.37,,N,29.26,27.91,,Clear
KIGQ,07/28/2016 11:55 UTC,29.92,70.88,66.38,83.13,0.0,0.0,,,,,,602.0,,,,10.0,,KIGQ 281155Z AUTO 00000KT 10SM SCT060 22/19 A2992 RMK AO2  T02160191 10232 20197,73.76,67.46,,,,65.48,,N,29.27,27.94,,Partly Cloudy
KIGQ,07/28/2016 12:15 UTC,29.92,72.5,67.46,83.25,0.0,0.0,,,,,,602.0,,,,10.0,,KIGQ 281215Z AUTO 00000KT 10SM SCT060 23/20 A2992 RMK AO2 LTG DSNT  SW T02250197,,,,,,67.11,,N,29.27,27.81,,Partly Cloudy
KIGQ,07/28/2016 12:35 UTC,29.93,73.22,67.46,83.25,0.0,0.0,,,,,,1.0,,,,10.0,,KIGQ 281235Z AUTO 00000KT 10SM CLR 23/20 A2993 RMK AO2  T02290197,,,,,,67.81,,N,29.28,27.76,,Clear
KIGQ,07/28/2016 12:55 UTC,29.93,74.48,67.82,78.39,0.0,0.0,,,,,,1.0,,,,10.0,,KIGQ 281255Z AUTO 00000KT 10SM CLR 24/20 A2993 RMK AO2  T02360199,,,,,,67.29,,N,29.28,27.78,,Clear
KIGQ,07/28/2016 13:15 UTC,29.92,75.2,67.82,78.39,0.0,0.0,,,,,,1.0,,,,10.0,,KIGQ 281315Z AUTO 00000KT 10SM CLR 24/20 A2992 RMK AO2  T02400199,,,,,,67.99,,N,29.27,27.71,,Clear
KIGQ,07/28/2016 13:35 UTC,29.92,76.82,68.18,73.85,0.0,0.0,,,,,,1.0,,,,10.0,,KIGQ 281335Z AUTO 00000KT 10SM CLR 25/20 A2992 RMK AO2  T02490201,,,,,,67.82,,N,29.27,27.7,,Clear
KIGQ,07/28/2016 13:55 UTC,29.92,78.26,68.54,69.6,0.0,0.0,,,,,,1.0,,,,10.0,,KIGQ 281355Z AUTO 00000KT 10SM CLR 26/20 A2992 RMK AO2  T02570203,,,,,,67.49,,N,29.27,27.71,,Clear
KIGQ,07/28/2016 14:15 UTC,29.91,78.98,67.82,69.6,3.44,130.0,,,,,,1.0,,,,10.0,,KIGQ 281415Z AUTO 13003KT 10SM CLR 26/20 A2991 RMK AO2  T02610199,,,,,,68.18,,SE,29.26,27.64,,Clear
KIGQ,07/28/2016 14:35 UTC,29.91,79.34,67.82,69.6,0.0,0.0,,,,,,1.0,,,,10.0,,KIGQ 281435Z AUTO 00000KT 10SM CLR 26/20 A2991 RMK AO2  T02630199,,,,,,68.52,,N,29.26,27.61,,Clear
KIGQ,07/28/2016 14:55 UTC,29.91,79.7,67.1,65.62,0.0,0.0,,,,,,1.0,,,,10.0,,KIGQ 281455Z AUTO 00000KT 10SM CLR 27/20 A2991 RMK AO2  T02650195,,,,,,67.16,,N,29.26,27.71,,Clear
KIGQ,07/28/2016 15:15 UTC,29.91,80.24,67.82,65.62,0.0,0.0,,,,,,1.0,,,,10.0,,KIGQ 281515Z AUTO 00000KT 10SM CLR 27/20 A2991 RMK AO2  T02680199,,,,,,67.67,,N,29.26,27.66,82.78,Clear
KIGQ,07/28/2016 15:35 UTC,29.91,81.68,67.82,61.9,0.0,0.0,,,,,,1.0,,,,10.0,,KIGQ 281535Z AUTO 00000KT 10SM CLR 28/20 A2991 RMK AO2  T02760199,,,,,,67.35,,N,29.26,27.67,84.31,Clear
KIGQ,07/28/2016 15:55 UTC,29.91,81.86,67.1,61.9,3.44,160.0,,,,,,652.0,,,,10.0,,KIGQ 281555Z AUTO 16003KT 10SM SCT065 28/20 A2991 RMK AO2  T02770195,,,,,,67.52,,SSE,29.26,27.66,84.57,Partly Cloudy
KIGQ,07/28/2016 16:15 UTC,29.91,82.94,66.92,58.18,4.61,140.0,,,,,,1.0,,,,10.0,,KIGQ 281615Z AUTO 14004KT 10SM CLR 28/19 A2991 RMK AO2  T02830194,,,,,,66.74,,SE,29.26,27.7,85.43,Clear
KIGQ,07/28/2016 16:35 UTC,29.9,82.58,66.92,58.18,6.91,180.0,,,,,,352.0,,,,10.0,,KIGQ 281635Z AUTO 18006KT 10SM SCT035 28/19 A2990 RMK AO2  T02810194,,,,,,66.4,,S,29.25,27.72,84.91,Partly Cloudy
KIGQ,07/28/2016 16:55 UTC,29.9,83.66,66.38,54.9,5.75,140.0,,,553.0,,,352.0,462.0,,,10.0,,KIGQ 281655Z AUTO 14005KT 10SM SCT035 SCT046 BKN055 29/19  A2990 RMK AO2 T02870191,,,5500.0,,,65.74,,SE,29.25,27.75,85.74,Mostly Cloudy
KIGQ,07/28/2016 17:15 UTC,29.89,84.56,66.56,54.9,8.05,170.0,,,,,,1.0,,,,10.0,,KIGQ 281715Z AUTO 17007KT 10SM CLR 29/19 A2989 RMK AO2  T02920192,,,,,,66.58,,S,29.24,27.67,87.07,Clear
KIGQ,07/28/2016 17:35 UTC,29.88,84.74,67.64,58.42,6.91,160.0,,,552.0,,,382.0,482.0,,,10.0,,KIGQ 281735Z AUTO 16006KT 10SM SCT038 SCT048 SCT055 29/20  A2988 RMK AO2 T02930198,,,,,,68.56,,SSE,29.23,27.52,88.32,Partly Cloudy
KIGQ,07/28/2016 17:55 UTC,29.88,84.02,67.46,58.42,8.05,160.0,,,553.0,,,382.0,503.0,,,10.0,,KIGQ 281755Z AUTO 16007KT 140V200 10SM SCT038 BKN050 BKN055 29/20  A2988 RMK AO2 LTG DSNT NW T02890197 10294 20217,84.92,71.06,5000.0,,,67.88,,SSE,29.23,27.58,87.14,Mostly Cloudy
KIGQ,07/28/2016 18:15 UTC,29.88,84.02,66.38,54.9,4.61,200.0,,,653.0,,,402.0,452.0,,,10.0,,KIGQ 281815Z AUTO 20004KT 10SM SCT040 SCT045 BKN065 29/19  A2988 RMK AO2 LTG DSNT NW T02890191,,,6500.0,,,66.08,,SSW,29.23,27.7,86.26,Mostly Cloudy
KIGQ,07/28/2016 18:35 UTC,29.87,84.56,67.1,58.42,9.22,170.0,,,,,,423.0,803.0,,,10.0,,KIGQ 281835Z AUTO 17008KT 160V220 10SM BKN042 BKN080 29/20  A2987 RMK AO2 LTG DSNT NW T02920195,,,4200.0,,,68.39,,S,29.22,27.52,88.02,Mostly Cloudy
KIGQ,07/28/2016 18:55 UTC,29.87,85.46,66.56,51.84,8.05,190.0,,5.0,753.0,,,423.0,473.0,,,10.0,,KIGQ 281855Z AUTO 19007KT 10SM VCTS BKN042 BKN047 BKN075 30/19  A2987 RMK AO2 LTG DSNT NW THRU NE T02970192,,,4200.0,,,65.77,,S,29.22,27.7,87.6,Thunder
KIGQ,07/28/2016 19:15 UTC,29.87,85.1,67.46,55.15,11.5,220.0,,5.0,503.0,,,402.0,453.0,,,10.0,,KIGQ 281915Z AUTO 22010KT 10SM VCTS SCT040 BKN045 BKN050 30/20  A2987 RMK AO2 LTG DSNT NW THRU NE T02950197,,,4500.0,,,67.22,,SW,29.22,27.6,87.97,Thunder
KIGQ,07/28/2016 19:35 UTC,29.89,77.9,64.04,61.44,16.11,330.0,21.85,5.0,,,,423.0,,,,10.0,,KIGQ 281935Z AUTO 33014G19KT 10SM TS BKN042 26/18 A2989 RMK AO2  LTG DSNT ALQS T02550178,,,4200.0,,,63.55,,NNW,29.24,27.95,,Thunder
KIGQ,07/28/2016 19:55 UTC,29.89,73.58,63.32,69.01,11.5,350.0,27.63,77.0,,,,393.0,504.0,,,10.0,,KIGQ 281955Z AUTO 35010G24KT 10SM -TSRA BKN039 OVC050 23/17  A2989 RMK AO2 LTG DSNT ALQS T02310174,,,3900.0,,,62.75,,N,29.24,28.04,,Light Rain/Thunderstorm
KIGQ,07/28/2016 20:15 UTC,29.88,75.74,64.76,69.21,12.66,80.0,24.16,77.0,804.0,,,402.0,463.0,,,10.0,,KIGQ 282015Z AUTO 08011G21KT 10SM -TSRA SCT040 BKN046 OVC080 24/18  A2988 RMK AO2 LTG DSNT ALQS T02430182,,,4600.0,,,64.91,,E,29.23,27.87,,Light Rain/Thunderstorm
KIGQ,07/28/2016 20:35 UTC,29.88,77.9,64.58,61.44,0.0,0.0,,13.0,903.0,,,432.0,602.0,,,10.0,,KIGQ 282035Z AUTO 00000KT 10SM -RA SCT043 SCT060 BKN090 26/18  A2988 RMK AO2 LTG DSNT E W AND NW T02550181,,,9000.0,,,63.55,,N,29.23,27.94,,Light Rain
KIGQ,07/28/2016 20:55 UTC,29.89,78.08,64.22,61.44,5.75,330.0,,,903.0,,,342.0,752.0,,,10.0,,KIGQ 282055Z AUTO 33005KT 10SM SCT034 SCT075 BKN090 26/18  A2989 RMK AO2 LTG DSNT E W AND NW T02560179,,,9000.0,,,63.72,,NNW,29.24,27.93,,Mostly Cloudy
KIGQ,07/28/2016 21:15 UTC,29.9,75.38,64.22,69.21,8.05,320.0,,,903.0,,,602.0,753.0,,,10.0,,KIGQ 282115Z AUTO 32007KT 10SM SCT060 BKN075 BKN090 24/18  A2990 RMK AO2 LTG DSNT ALQS T02410179,,,7500.0,,,64.56,,NW,29.25,27.92,,Mostly Cloudy
KIGQ,07/28/2016 21:35 UTC,29.91,74.48,67.28,78.39,11.5,320.0,,,1003.0,,,552.0,653.0,,,10.0,,KIGQ 282135Z AUTO 32010KT 10SM -VCTSRA SCT055 BKN065 BKN100 24/20  A2991 RMK AO2 LTG DSNT ALQS T02360196,,,6500.0,,,67.29,,NW,29.26,27.76,,Mostly Cloudy
KIGQ,07/28/2016 21:55 UTC,29.91,72.86,68.18,83.25,4.61,300.0,,,1204.0,,,552.0,753.0,,,10.0,,KIGQ 282155Z AUTO 30004KT 10SM -VCTSRA SCT055 BKN075 OVC120 23/20  A2991 RMK AO2 LTG DSNT SW AND NW T02270201,,,7500.0,,,67.46,,WNW,29.26,27.77,,Overcast
KIGQ,07/28/2016 22:15 UTC,29.91,72.86,68.54,83.25,5.75,340.0,,1.0,1203.0,,,752.0,952.0,,,10.0,,KIGQ 282215Z AUTO 34005KT 10SM RA SCT075 SCT095 BKN120 23/20  A2991 RMK AO2 LTG DSNT SW AND W T02270203,,,12000.0,,,67.46,,NNW,29.26,27.77,,Rain
KIGQ,07/28/2016 22:35 UTC,29.89,72.5,68.18,83.25,5.75,30.0,,13.0,853.0,,,402.0,502.0,,,7.0,,KIGQ 282235Z AUTO 03005KT 7SM -RA SCT040 SCT050 BKN085 23/20  A2989 RMK AO2 LTG DSNT W T02250201,,,8500.0,,,67.11,,NNE,29.24,27.78,,Light Rain
KIGQ,07/28/2016 22:55 UTC,29.89,73.58,68.9,88.54,0.0,0.0,,,,,,502.0,,,,10.0,,KIGQ 282255Z AUTO 00000KT 10SM SCT050 23/21 A2989 RMK AO2  T02310205,,,,,,69.97,,N,29.24,27.56,,Partly Cloudy
KIGQ,07/28/2016 23:15 UTC,29.88,75.38,69.08,83.37,0.0,0.0,,,,,,1.0,,,,10.0,,KIGQ 282315Z AUTO 00000KT 10SM CLR 24/21 A2988 RMK AO2  T02410206,,,,,,69.97,,N,29.23,27.53,,Clear
KIGQ,07/28/2016 23:35 UTC,29.89,76.1,68.9,78.54,5.75,40.0,,,,,,1.0,,,,10.0,,KIGQ 282335Z AUTO 04005KT 10SM CLR 25/21 A2989 RMK AO2  T02450205,,,,,,68.92,,NE,29.24,27.61,,Clear
KIGQ,07/28/2016 23:55 UTC,29.88,74.84,68.9,83.37,5.75,30.0,,,,,,1.0,,,,10.0,,KIGQ 282355Z AUTO 03005KT 10SM CLR 24/21 A2988 RMK AO2 T02380205  10302 20225,86.36,72.5,,,,69.44,,NNE,29.23,27.57,,Clear
KIGQ,07/29/2016 00:15 UTC,29.87,74.84,69.8,83.37,4.61,60.0,,,,,,1.0,,,,7.0,,KIGQ 290015Z AUTO 06004KT 7SM CLR 24/21 A2987 RMK AO2  T02380210,,,,,,69.44,,ENE,29.22,27.56,,Clear
KIGQ,07/29/2016 00:35 UTC,29.89,75.38,70.52,83.37,5.75,50.0,,,,,,1.0,,,,10.0,,KIGQ 290035Z AUTO 05005KT 10SM CLR 24/21 A2989 RMK AO2  T02410214,,,,,,69.97,,NE,29.24,27.54,,Clear
KIGQ,07/29/2016 00:55 UTC,29.9,75.2,70.34,83.37,4.61,30.0,,,,,,1.0,,,,10.0,,KIGQ 290055Z AUTO 03004KT 10SM CLR 24/21 A2990 RMK AO2  T02400213,,,,,,69.79,,NNE,29.25,27.56,,Clear
KIGQ,07/29/2016 01:15 UTC,29.91,74.84,70.16,83.37,3.44,360.0,,,,,,1.0,,,,10.0,,KIGQ 290115Z AUTO 36003KT 10SM CLR 24/21 A2991 RMK AO2  T02380212,,,,,,69.44,,N,29.26,27.6,,Clear
KIGQ,07/29/2016 01:35 UTC,29.91,74.48,70.16,83.37,4.61,350.0,,,,,,1.0,,,,7.0,,KIGQ 290135Z AUTO 35004KT 7SM CLR 24/21 A2991 RMK AO2  T02360212,,,,,,69.09,,N,29.26,27.64,,Clear
KIGQ,07/29/2016 01:55 UTC,29.91,74.12,70.34,88.54,5.75,360.0,,,,,,1.0,,,,10.0,,KIGQ 290155Z AUTO 36005KT 10SM CLR 23/21 A2991 RMK AO2  T02340213,,,,,,70.5,,N,29.26,27.54,,Clear
KIGQ,07/29/2016 02:15 UTC,29.91,73.94,70.52,88.54,5.75,10.0,,,,,,1.0,,,,10.0,,KIGQ 290215Z AUTO 01005KT 10SM CLR 23/21 A2991 RMK AO2  T02330214,,,,,,70.33,,N,29.26,27.55,,Clear
KIGQ,07/29/2016 02:35 UTC,29.92,73.76,70.52,88.54,4.61,10.0,,,,,,1.0,,,,10.0,,KIGQ 290235Z AUTO 01004KT 10SM CLR 23/21 A2992 RMK AO2  T02320214,,,,,,70.15,,N,29.27,27.58,,Clear
KIGQ,07/29/2016 02:55 UTC,29.92,73.58,70.7,94.12,4.61,20.0,,,,,,1.0,,,,10.0,,KIGQ 290255Z AUTO 02004KT 10SM CLR 23/22 A2992 RMK AO2  T02310215,,,,,,71.78,,NNE,29.27,27.46,,Clear
KIGQ,07/29/2016 03:15 UTC,29.92,73.4,70.34,88.54,0.0,0.0,,,,,,1.0,,,,7.0,,KIGQ 290315Z AUTO 00000KT 7SM CLR 23/21 A2992 RMK AO2  T02300213,,,,,,69.79,,N,29.27,27.61,,Clear
KIGQ,07/29/2016 03:35 UTC,29.92,73.4,70.7,94.12,0.0,0.0,,,,,,1.0,,,,7.0,,KIGQ 290335Z AUTO 00000KT 7SM CLR 23/22 A2992 RMK AO2  T02300215,,,,,,71.6,,N,29.27,27.47,,Clear
KIGQ,07/29/2016 03:55 UTC,29.91,72.14,69.62,94.07,0.0,0.0,,31.0,,,,1.0,,,,4.0,,KIGQ 290355Z AUTO 00000KT 4SM BR CLR 22/21 A2991 RMK AO2  T02230209,,,,,,70.33,,N,29.26,27.58,,Mist
KIGQ,07/29/2016 04:15 UTC,29.92,72.5,70.34,88.54,0.0,0.0,,31.0,,,,1.0,,,,5.0,,KIGQ 290415Z AUTO 00000KT 5SM BR CLR 23/21 A2992 RMK AO2 LTG DSNT  N T02250213,,,,,,68.91,,N,29.27,27.69,,Mist
KIGQ,07/29/2016 04:35 UTC,29.92,72.5,69.98,88.54,0.0,0.0,,31.0,,,,1.0,,,,5.0,,KIGQ 290435Z AUTO 00000KT 5SM BR CLR 23/21 A2992 RMK AO2  T02250211,,,,,,68.91,,N,29.27,27.69,,Mist
KIGQ,07/29/2016 04:55 UTC,29.92,71.96,69.8,94.07,0.0,0.0,,31.0,,,,1.0,,,,3.0,,KIGQ 290455Z AUTO 00000KT 3SM BR CLR 22/21 A2992 RMK AO2  T02220210,,,,,,70.15,,N,29.27,27.6,,Mist
KIGQ,07/29/2016 05:15 UTC,29.91,70.7,68.0,88.46,3.44,100.0,,,,,,1.0,,,,7.0,,KIGQ 290515Z AUTO 10003KT 7SM CLR 22/20 A2991 RMK AO2  T02150200,,,,,,67.1,,E,29.26,27.83,,Clear
KIGQ,07/29/2016 05:35 UTC,29.91,71.42,68.54,88.46,0.0,0.0,,,,,,1.0,,,,7.0,,KIGQ 290535Z AUTO 00000KT 7SM CLR 22/20 A2991 RMK AO2 LTG DSNT N  T02190203,,,,,,67.81,,N,29.26,27.77,,Clear
KIGQ,07/29/2016 05:55 UTC,29.91,70.52,67.28,94.03,0.0,0.0,,31.0,,,,1.0,,,,4.0,,KIGQ 290555Z AUTO 00000KT 4SM BR CLR 21/20 A2991 RMK AO2 LTG DSNT  N T02140196 10241 20214 403020197,75.38,70.52,,86.36,67.46,68.71,,N,29.26,27.72,,Mist
KIGQ,07/29/2016 06:15 UTC,29.91,68.72,66.56,93.98,0.0,0.0,,9.0,,,,55.0,,,,0.5,,KIGQ 290615Z AUTO 00000KT 1/2SM FG VV005 20/19 A2991 RMK AO2  T02040192,,,500.0,,,66.91,,N,29.26,27.87,,Fog
KIGQ,07/29/2016 06:35 UTC,29.91,70.16,68.9,100.0,0.0,0.0,,31.0,,,,1.0,,,,5.0,,KIGQ 290635Z AUTO 00000KT 5SM BR CLR 21/21 A2991 RMK AO2  T02120205,,,,,,70.16,,N,29.26,27.62,,Mist
KIGQ,07/29/2016 06:55 UTC,29.91,70.88,68.9,94.07,0.0,0.0,,31.0,,,,1.0,,,,5.0,,KIGQ 290655Z AUTO 00000KT 5SM BR CLR 22/21 A2991 RMK AO2 LTG DSNT  N T02160205,,,,,,69.08,,N,29.26,27.69,,Mist
KIGQ,07/29/2016 07:15 UTC,29.92,70.7,68.18,88.46,3.44,360.0,,31.0,,,,1.0,,,,5.0,,KIGQ 290715Z AUTO 36003KT 5SM BR CLR 22/20 A2992 RMK AO2  T02150201,,,,,,67.1,,N,29.27,27.84,,Mist
KIGQ,07/29/2016 07:35 UTC,29.92,70.34,67.28,94.03,3.44,360.0,,,,,,1.0,,,,7.0,,KIGQ 290735Z AUTO 36003KT 7SM CLR 21/20 A2992 RMK AO2  T02130196,,,,,,68.53,,N,29.27,27.74,,Clear
KIGQ,07/29/2016 07:55 UTC,29.91,70.16,66.56,88.37,0.0,0.0,,,,,,383.0,1103.0,,,10.0,,KIGQ 290755Z AUTO 00000KT 10SM BKN038 BKN110 21/19 A2991 RMK AO2  T02120192,,,3800.0,,,66.54,,N,29.26,27.87,,Mostly Cloudy
KIGQ,07/29/2016 08:15 UTC,29.91,69.98,66.2,88.37,3.44,40.0,,,,,,382.0,,,,10.0,,KIGQ 290815Z AUTO 04003KT 10SM SCT038 21/19 A2991 RMK AO2  T02110190,,,,,,66.36,,NE,29.26,27.88,,Partly Cloudy
KIGQ,07/29/2016 08:35 UTC,29.91,69.8,66.2,88.37,0.0,0.0,,,,,,382.0,1103.0,,,10.0,,KIGQ 290835Z AUTO 00000KT 10SM SCT038 BKN110 21/19 A2991 RMK AO2  T02100190,,,11000.0,,,66.19,,N,29.26,27.9,,Mostly Cloudy
KIGQ,07/29/2016 08:55 UTC,29.91,69.98,66.38,88.37,0.0,0.0,,,,,,383.0,1003.0,,,10.0,,KIGQ 290855Z AUTO 00000KT 10SM BKN038 BKN100 21/19 A2991 RMK AO2  T02110191,,,3800.0,,,66.36,,N,29.26,27.88,,Mostly Cloudy
KIGQ,07/29/2016 09:15 UTC,29.91,69.8,66.56,88.37,0.0,0.0,,,,,,402.0,1002.0,,,10.0,,KIGQ 290915Z AUTO 00000KT 10SM SCT040 SCT100 21/19 A2991 RMK AO2  T02100192,,,,,,66.19,,N,29.26,27.9,,Partly Cloudy
KIGQ,07/29/2016 09:35 UTC,29.91,69.08,65.66,88.37,0.0,0.0,,,,,,1.0,,,,10.0,,KIGQ 290935Z AUTO 00000KT 10SM CLR 21/19 A2991 RMK AO2  T02060187,,,,,,65.48,,N,29.26,27.95,,Clear
KIGQ,07/29/2016 09:55 UTC,29.91,68.18,65.66,93.98,0.0,0.0,,,,,,1.0,,,,7.0,,KIGQ 290955Z AUTO 00000KT 7SM CLR 20/19 A2991 RMK AO2  T02010187,,,,,,66.37,,N,29.26,27.91,,Clear
KIGQ,07/29/2016 10:15 UTC,29.91,67.1,65.3,93.98,0.0,0.0,,31.0,,,,1.0,,,,5.0,,KIGQ 291015Z AUTO 00000KT 5SM BR CLR 20/19 A2991 RMK AO2  T01950185,,,,,,65.3,,N,29.26,27.99,,Mist
KIGQ,07/29/2016 10:35 UTC,29.91,67.82,66.2,93.98,0.0,0.0,,,,,,1.0,,,,7.0,,KIGQ 291035Z AUTO 00000KT 7SM CLR 20/19 A2991 RMK AO2  T01990190,,,,,,66.01,,N,29.26,27.94,,Clear
KIGQ,07/29/2016 10:55 UTC,29.91,66.56,64.76,93.94,0.0,0.0,,31.0,,,,1.0,,,,5.0,,KIGQ 291055Z AUTO 00000KT 5SM BR CLR 19/18 A2991 RMK AO2  T01920182,,,,,,64.75,,N,29.26,28.03,,Mist
KIGQ,07/29/2016 11:15 UTC,29.91,66.38,65.12,93.94,0.0,0.0,,31.0,,,,1.0,,,,3.0,,KIGQ 291115Z AUTO 00000KT 3SM BR CLR 19/18 A2991 RMK AO2  T01910184,,,,,,64.57,,N,29.26,28.05,,Mist
KIGQ,07/29/2016 11:35 UTC,29.92,67.28,66.38,93.98,0.0,0.0,,31.0,,,,1.0,,,,5.0,,KIGQ 291135Z AUTO 00000KT 5SM BR CLR 20/19 A2992 RMK AO2  T01960191,,,,,,65.48,,N,29.27,27.99,,Mist
KIGQ,07/29/2016 11:55 UTC,29.92,69.26,67.64,94.03,0.0,0.0,,31.0,,,,1.0,,,,5.0,,KIGQ 291155Z AUTO 00000KT 5SM BR CLR 21/20 A2992 RMK AO2 T02070198  10216 20191,70.88,66.38,,,,67.46,,N,29.27,27.83,,Mist
KIGQ,07/29/2016 12:15 UTC,29.92,71.42,67.82,88.46,0.0,0.0,,,,,,1.0,,,,7.0,,KIGQ 291215Z AUTO 00000KT 7SM CLR 22/20 A2992 RMK AO2  T02190199,,,,,,67.81,,N,29.27,27.78,,Clear
KIGQ,07/29/2016 12:35 UTC,29.93,72.5,67.64,83.25,0.0,0.0,,,,,,1.0,,,,10.0,,KIGQ 291235Z AUTO 00000KT 10SM CLR 23/20 A2993 RMK AO2  T02250198,,,,,,67.11,,N,29.28,27.82,,Clear
KIGQ,07/29/2016 12:55 UTC,29.93,73.4,67.64,83.25,0.0,0.0,,,,,,1.0,,,,10.0,,KIGQ 291255Z AUTO 00000KT 10SM CLR 23/20 A2993 RMK AO2  T02300198,,,,,,67.99,,N,29.28,27.75,,Clear
KIGQ,07/29/2016 13:15 UTC,29.92,74.3,67.82,78.39,0.0,0.0,,,,,,1.0,,,,10.0,,KIGQ 291315Z AUTO 00000KT 10SM CLR 24/20 A2992 RMK AO2  T02350199,,,,,,67.12,,N,29.27,27.79,,Clear
KIGQ,07/29/2016 13:35 UTC,29.92,76.1,67.82,73.85,3.44,10.0,,,,,,1.0,,,,10.0,,KIGQ 291335Z AUTO 01003KT 10SM CLR 25/20 A2992 RMK AO2  T02450199,,,,,,67.13,,N,29.27,27.76,,Clear
KIGQ,07/29/2016 13:55 UTC,29.93,76.82,67.46,73.85,0.0,0.0,,,,,,1.0,,,,10.0,,KIGQ 291355Z AUTO 00000KT 10SM CLR 25/20 A2993 RMK AO2  T02490197,,,,,,67.82,,N,29.28,27.71,,Clear
KIGQ,07/29/2016 14:15 UTC,29.93,77.9,68.0,69.6,0.0,0.0,,,,,,1.0,,,,10.0,,KIGQ 291415Z AUTO 00000KT 10SM CLR 26/20 A2993 RMK AO2 LTG DSNT S  T02550200,,,,,,67.14,,N,29.28,27.75,,Clear
KIGQ,07/29/2016 14:35 UTC,29.93,78.8,68.72,69.6,0.0,0.0,,,,,,1.0,,,,10.0,,KIGQ 291435Z AUTO 00000KT 10SM CLR 26/20 A2993 RMK AO2  T02600204,,,,,,68.01,,N,29.28,27.68,,Clear
KIGQ,07/29/2016 14:55 UTC,29.93,78.8,67.82,69.6,0.0,0.0,,,,,,1.0,,,,10.0,,KIGQ 291455Z AUTO 00000KT 10SM CLR 26/20 A2993 RMK AO2  T02600199,,,,,,68.01,,N,29.28,27.68,,Clear
KIGQ,07/29/2016 15:15 UTC,29.93,79.88,68.0,65.62,0.0,0.0,,,,,,1.0,,,,10.0,,KIGQ 291515Z AUTO 00000KT 10SM CLR 27/20 A2993 RMK AO2  T02660200,,,,,,67.33,,N,29.28,27.71,,Clear
KIGQ,07/29/2016 15:35 UTC,29.93,81.14,68.9,66.5,0.0,0.0,,,,,,232.0,,,,10.0,,KIGQ 291535Z AUTO 00000KT 10SM SCT023 27/21 A2993 RMK AO2  T02730205,,,,,,68.92,,N,29.28,27.58,84.27,Partly Cloudy
KIGQ,07/29/2016 15:55 UTC,29.94,82.4,68.36,61.9,0.0,0.0,,,,,,254.0,,,,10.0,,KIGQ 291555Z AUTO 00000KT 10SM OVC025 28/20 A2994 RMK AO2  T02800202,,,2500.0,,,68.03,,N,29.29,27.64,85.4,Overcast
KIGQ,07/29/2016 16:15 UTC,29.93,81.14,70.34,69.79,6.91,10.0,,,,,,293.0,363.0,,,10.0,,KIGQ 291615Z AUTO 01006KT 10SM BKN029 BKN036 27/21 A2993 RMK AO2  T02730213,,,2900.0,,,70.33,,N,29.28,27.47,84.83,Mostly Cloudy
KIGQ,07/29/2016 16:35 UTC,29.93,80.78,69.44,69.79,3.44,330.0,,,493.0,,,252.0,343.0,,,10.0,,KIGQ 291635Z AUTO 33003KT 10SM SCT025 BKN034 BKN049 27/21  A2993 RMK AO2 LTG DSNT S AND W T02710208,,,3400.0,,,69.99,,NNW,29.28,27.51,84.21,Mostly Cloudy
KIGQ,07/29/2016 16:55 UTC,29.92,80.78,69.08,69.79,3.44,40.0,,,604.0,,,273.0,403.0,,,10.0,,KIGQ 291655Z AUTO 04003KT 10SM BKN027 BKN040 OVC060 27/21  A2992 RMK AO2 T02710206,,,2700.0,,,69.99,,NE,29.27,27.5,84.21,Overcast
KIGQ,07/29/2016 17:15 UTC,29.91,80.96,69.44,69.79,5.75,20.0,,5.0,603.0,,,332.0,413.0,,,10.0,,KIGQ 291715Z AUTO 02005KT 10SM TS SCT033 BKN041 BKN060 27/21  A2991 RMK AO2 LTG DSNT W THRU N T02720208,,,4100.0,,,70.16,,NNE,29.26,27.47,84.52,Thunder
KIGQ,07/29/2016 17:35 UTC,29.91,80.42,69.08,69.79,6.91,20.0,,5.0,404.0,,,252.0,343.0,,,10.0,,KIGQ 291735Z AUTO 02006KT 10SM TS SCT025 BKN034 OVC040 27/21  A2991 RMK AO2 LTG DSNT W AND NW T02690206,,,3400.0,,,69.64,,NNE,29.26,27.52,83.61,Thunder
KIGQ,07/29/2016 17:55 UTC,29.91,74.66,69.44,83.37,10.36,10.0,18.41,66.0,384.0,0.24,,253.0,313.0,0.24,,1.5,,KIGQ 291755Z AUTO 01009G16KT 1 1/2SM TSRA BKN025 BKN031 OVC038  24/21 A2991 RMK AO2 LTG DSNT ALQS P0024 60024 T02370208 10280  20209,82.4,69.62,2500.0,,,69.27,,N,29.26,27.62,,Thunderstorm
KIGQ,07/29/2016 18:15 UTC,29.93,71.6,67.64,88.46,12.66,330.0,,78.0,754.0,0.09,,242.0,363.0,,,5.0,,KIGQ 291815Z AUTO 33011KT 5SM +TSRA SCT024 BKN036 OVC075 22/20  A2993 RMK AO2 LTG DSNT ALQS P0009 T02200198,,,3600.0,,,67.99,,NNW,29.28,27.77,,Heavy Rain/Thunderstorm
KIGQ,07/29/2016 18:35 UTC,29.92,67.1,63.68,88.29,12.66,30.0,,78.0,,0.95,,113.0,214.0,,,0.5,,KIGQ 291835Z AUTO 03011KT 1/2SM +TSRA BKN011 OVC021 20/18  A2992 RMK AO2 LTG DSNT ALQS P0095 T01950176,,,1100.0,,,63.5,,NNE,29.27,28.11,,Heavy Rain/Thunderstorm
KIGQ,07/29/2016 18:55 UTC,29.91,70.16,67.1,94.03,5.75,80.0,,13.0,854.0,0.99,,152.0,332.0,,,10.0,,KIGQ 291855Z AUTO 08005KT 10SM -RA SCT015 SCT033 OVC085 21/20  A2991 RMK AO2 LTG DSNT ALQS P0099 T02120195,,,8500.0,,,68.35,,E,29.26,27.75,,Light Rain
KIGQ,07/29/2016 19:15 UTC,29.9,71.78,68.9,94.07,4.61,60.0,,17.0,1003.0,,,402.0,752.0,,,7.0,,KIGQ 291915Z AUTO 06004KT 7SM -DZ SCT040 SCT075 BKN100 22/21  A2990 RMK AO2 LTG DSNT E W AND NW T02210205,,,10000.0,,,69.97,,ENE,29.25,27.6,,Light Drizzle
KIGQ,07/29/2016 19:35 UTC,29.92,73.58,69.08,88.54,6.91,100.0,,,703.0,,,62.0,292.0,,,7.0,,KIGQ 291935Z AUTO 10006KT 7SM SCT006 SCT029 BKN070 23/21 A2992 RMK AO2 LTG DSNT E AND NW T02310206,,,7000.0,,,69.97,,E,29.27,27.59,,Mostly Cloudy
KIGQ,07/29/2016 19:55 UTC,29.91,74.48,65.66,73.67,6.91,90.0,,5.0,283.0,,,62.0,142.0,,,10.0,,KIGQ 291955Z AUTO 09006KT 10SM VCTS SCT006 SCT014 BKN028 24/19  A2991 RMK AO2 LTG DSNT NW THRU E T02360187,,,2800.0,,,65.49,,E,29.26,27.88,,Thunder
KIGQ,07/29/2016 20:15 UTC,29.92,73.94,66.56,78.24,0.0,0.0,,13.0,1004.0,,,283.0,373.0,,,10.0,,KIGQ 292015Z AUTO 00000KT 10SM -RA BKN028 BKN037 OVC100 23/19  A2992 RMK AO2 LTG DSNT NE AND S T02330192,,,2800.0,,,66.71,,N,29.27,27.82,,Light Rain
KIGQ,07/29/2016 20:35 UTC,29.93,73.04,66.02,78.24,10.36,150.0,,,704.0,,,142.0,283.0,,,10.0,,KIGQ 292035Z AUTO 15009KT 10SM SCT014 BKN028 OVC070 23/19  A2993 RMK AO2 LTG DSNT ALQS T02280189,,,2800.0,,,65.83,,SSE,29.28,27.9,,Overcast
KIGQ,07/29/2016 20:55 UTC,29.92,71.78,67.1,88.46,0.0,0.0,,13.0,604.0,,0.99,142.0,403.0,,,10.0,,KIGQ 292055Z AUTO 00000KT 10SM -RA SCT014 BKN040 OVC060 22/20  A2992 RMK AO2 LTG DSNT W THRU NE 60099 T02210195,,,4000.0,,,68.17,,N,29.27,27.75,,Light Rain
KIGQ,07/29/2016 21:15 UTC,29.91,72.14,66.92,83.13,3.44,110.0,,77.0,904.0,,,363.0,433.0,,,10.0,,KIGQ 292115Z AUTO 11003KT 10SM -TSRA BKN036 BKN043 OVC090 22/19  A2991 RMK AO2 LTG DSNT ALQS T02230194,,,3600.0,,,66.71,,ESE,29.26,27.83,,Light Rain/Thunderstorm
KIGQ,07/29/2016 21:35 UTC,29.93,71.96,65.84,83.13,0.0,0.0,,5.0,853.0,,,172.0,363.0,,,10.0,,KIGQ 292135Z AUTO 00000KT 10SM VCTS SCT017 BKN036 BKN085 22/19  A2993 RMK AO2 LTG DSNT ALQS T02220188,,,3600.0,,,66.54,,N,29.28,27.87,,Thunder
KIGQ,07/29/2016 21:55 UTC,29.94,71.06,66.56,83.13,6.91,10.0,,5.0,274.0,,,143.0,233.0,,,10.0,,KIGQ 292155Z AUTO 01006KT 10SM TS BKN014 BKN023 OVC027 22/19  A2994 RMK AO2 LTG DSNT SW THRU NE T02170192,,,1400.0,,,65.65,,N,29.29,27.95,,Thunder
KIGQ,07/29/2016 22:15 UTC,29.94,70.52,66.02,88.37,6.91,20.0,,,1203.0,,,142.0,232.0,,,10.0,,KIGQ 292215Z AUTO 02006KT 10SM SCT014 SCT023 BKN120 21/19  A2994 RMK AO2 LTG DSNT SW THRU N T02140189,,,12000.0,,,66.9,,NNE,29.29,27.87,,Mostly Cloudy
KIGQ,07/29/2016 22:35 UTC,29.92,69.8,66.2,88.37,5.75,30.0,,13.0,753.0,,,502.0,652.0,,,10.0,,KIGQ 292235Z AUTO 03005KT 10SM -RA SCT050 SCT065 BKN075 21/19  A2992 RMK AO2 LTG DSNT NE T02100190,,,7500.0,,,66.19,,NNE,29.27,27.91,,Light Rain
KIGQ,07/29/2016 22:55 UTC,29.92,70.16,66.56,88.37,6.91,90.0,,13.0,1203.0,,,382.0,502.0,,,10.0,,KIGQ 292255Z AUTO 09006KT 10SM -RA SCT038 SCT050 BKN120 21/19  A2992 RMK AO2 LTG DSNT NE T02120192,,,12000.0,,,66.54,,E,29.27,27.88,,Light Rain
KIGQ,07/29/2016 23:15 UTC,29.92,70.7,66.74,83.13,0.0,0.0,,13.0,1203.0,,,342.0,502.0,,,10.0,,KIGQ 292315Z AUTO 00000KT 10SM -RA SCT034 SCT050 BKN120 22/19  A2992 RMK AO2 T02150193,,,12000.0,,,65.3,,N,29.27,27.95,,Light Rain
KIGQ,07/29/2016 23:35 UTC,29.91,71.06,66.56,83.13,5.75,60.0,,13.0,953.0,,,322.0,502.0,,,10.0,,KIGQ 292335Z AUTO 06005KT 10SM -RA SCT032 SCT050 BKN095 22/19  A2991 RMK AO2 T02170192,,,9500.0,,,65.65,,ENE,29.26,27.92,,Light Rain
KIGQ,07/29/2016 23:55 UTC,29.92,71.06,66.38,83.13,4.61,340.0,,,702.0,,,302.0,502.0,0.99,,10.0,,KIGQ 292355Z AUTO 34004KT 10SM SCT030 SCT050 SCT070 22/19  A2992 RMK AO2 60099 T02170191 10241 20193,75.38,66.74,,,,65.65,,NNW,29.27,27.93,,Partly Cloudy
KIGQ,07/30/2016 00:15 UTC,29.93,70.88,66.56,83.13,3.44,360.0,,,,,,1.0,,,,10.0,,KIGQ 300015Z AUTO 36003KT 10SM CLR 22/19 A2993 RMK AO2  T02160192,,,,,,65.48,,N,29.28,27.95,,Clear
KIGQ,07/30/2016 00:35 UTC,29.94,70.16,66.38,88.37,4.61,30.0,,,,,,1.0,,,,10.0,,KIGQ 300035Z AUTO 03004KT 10SM CLR 21/19 A2994 RMK AO2  T02120191,,,,,,66.54,,NNE,29.29,27.9,,Clear
KIGQ,07/30/2016 00:55 UTC,29.94,70.16,66.38,88.37,8.05,30.0,,,,,,1.0,,,,10.0,,KIGQ 300055Z AUTO 03007KT 10SM CLR 21/19 A2994 RMK AO2  T02120191,,,,,,66.54,,NNE,29.29,27.9,,Clear
KIGQ,07/30/2016 01:15 UTC,29.95,70.34,66.2,88.37,5.75,50.0,,,,,,1.0,,,,10.0,,KIGQ 300115Z AUTO 05005KT 10SM CLR 21/19 A2995 RMK AO2  T02130190,,,,,,66.72,,NE,29.3,27.9,,Clear
KIGQ,07/30/2016 01:35 UTC,29.94,70.34,65.84,88.37,0.0,0.0,,,,,,232.0,,,,10.0,,KIGQ 300135Z AUTO 00000KT 10SM SCT023 21/19 A2994 RMK AO2  T02130188,,,,,,66.72,,N,29.29,27.89,,Partly Cloudy
KIGQ,07/30/2016 01:55 UTC,29.94,70.7,65.48,83.13,3.44,70.0,,,,,,232.0,,,,10.0,,KIGQ 300155Z AUTO 07003KT 10SM SCT023 22/19 A2994 RMK AO2  T02150186,,,,,,65.3,,ENE,29.29,27.97,,Partly Cloudy
KIGQ,07/30/2016 02:15 UTC,29.94,69.98,65.48,88.37,0.0,0.0,,,,,,292.0,,,,10.0,,KIGQ 300215Z AUTO 00000KT 10SM SCT029 21/19 A2994 RMK AO2  T02110186,,,,,,66.36,,N,29.29,27.91,,Partly Cloudy
KIGQ,07/30/2016 02:35 UTC,29.94,69.08,65.48,88.37,0.0,0.0,,,,,,1.0,,,,10.0,,KIGQ 300235Z AUTO 00000KT 10SM CLR 21/19 A2994 RMK AO2  T02060186,,,,,,65.48,,N,29.29,27.98,,Clear
KIGQ,07/30/2016 02:55 UTC,29.94,69.44,65.84,88.37,0.0,0.0,,,,,,1.0,,,,10.0,,KIGQ 300255Z AUTO 00000KT 10SM CLR 21/19 A2994 RMK AO2  T02080188,,,,,,65.83,,N,29.29,27.96,,Clear
KIGQ,07/30/2016 03:15 UTC,29.94,68.9,65.66,88.37,0.0,0.0,,,,,,652.0,,,,10.0,,KIGQ 300315Z AUTO 00000KT 10SM SCT065 21/19 A2994 RMK AO2  T02050187,,,,,,65.3,,N,29.29,28.0,,Partly Cloudy
KIGQ,07/30/2016 03:35 UTC,29.94,69.44,66.2,88.37,0.0,0.0,,,,,,442.0,653.0,,,10.0,,KIGQ 300335Z AUTO 00000KT 10SM SCT044 BKN065 21/19 A2994 RMK AO2  T02080190,,,6500.0,,,65.83,,N,29.29,27.96,,Mostly Cloudy
KIGQ,07/30/2016 03:55 UTC,29.94,69.26,66.2,88.37,0.0,0.0,,,653.0,,,442.0,502.0,,,10.0,,KIGQ 300355Z AUTO 00000KT 10SM SCT044 SCT050 BKN065 21/19  A2994 RMK AO2 T02070190,,,6500.0,,,65.65,,N,29.29,27.97,,Mostly Cloudy
KIGQ,07/30/2016 04:15 UTC,29.94,69.44,66.74,88.37,3.44,50.0,,,654.0,,,242.0,503.0,,,10.0,,KIGQ 300415Z AUTO 05003KT 10SM SCT024 BKN050 OVC065 21/19  A2994 RMK AO2 T02080193,,,5000.0,,,65.83,,NE,29.29,27.96,,Overcast
KIGQ,07/30/2016 04:35 UTC,29.94,70.88,67.64,88.46,5.75,50.0,,,504.0,,,242.0,333.0,,,10.0,,KIGQ 300435Z AUTO 05005KT 10SM SCT024 BKN033 OVC050 22/20  A2994 RMK AO2 T02160198,,,3300.0,,,67.28,,NE,29.29,27.84,,Overcast
KIGQ,07/30/2016 04:55 UTC,29.94,71.42,67.28,88.46,4.61,50.0,,,,,,242.0,504.0,,,10.0,,KIGQ 300455Z AUTO 05004KT 10SM SCT024 OVC050 22/20 A2994 RMK AO2  T02190196,,,5000.0,,,67.81,,NE,29.29,27.8,,Overcast
KIGQ,07/30/2016 05:15 UTC,29.94,71.96,67.28,88.46,6.91,40.0,,,,,,244.0,,,,10.0,,KIGQ 300515Z AUTO 04006KT 10SM OVC024 22/20 A2994 RMK AO2  T02220196,,,2400.0,,,68.35,,NE,29.29,27.75,,Overcast
KIGQ,07/30/2016 05:35 UTC,29.94,71.6,66.56,83.13,5.75,50.0,,,424.0,,,242.0,283.0,,,10.0,,KIGQ 300535Z AUTO 05005KT 10SM SCT024 BKN028 OVC042 22/19  A2994 RMK AO2 T02200192,,,2800.0,,,66.18,,NE,29.29,27.9,,Overcast
KIGQ,07/30/2016 05:55 UTC,29.94,70.88,66.2,83.13,5.75,30.0,,,422.0,,,242.0,322.0,,,10.0,,KIGQ 300555Z AUTO 03005KT 10SM SCT024 SCT032 SCT042 22/19  A2994 RMK AO2 T02160190 10222 20205 402800191,71.96,68.9,,82.4,66.38,65.48,,NNE,29.29,27.96,,Partly Cloudy
KIGQ,07/30/2016 06:15 UTC,29.93,70.7,65.66,83.13,0.0,0.0,,,1203.0,,,212.0,282.0,,,10.0,,KIGQ 300615Z AUTO 00000KT 10SM SCT021 SCT028 BKN120 22/19  A2993 RMK AO2 T02150187,,,12000.0,,,65.3,,N,29.28,27.96,,Mostly Cloudy
KIGQ,07/30/2016 06:35 UTC,29.92,69.8,65.48,88.37,0.0,0.0,,,,,,1202.0,,,,10.0,,KIGQ 300635Z AUTO 00000KT 10SM SCT120 21/19 A2992 RMK AO2  T02100186,,,,,,66.19,,N,29.27,27.91,,Partly Cloudy
KIGQ,07/30/2016 06:55 UTC,29.93,69.08,65.3,88.37,0.0,0.0,,,,,,1.0,,,,10.0,,KIGQ 300655Z AUTO 00000KT 10SM CLR 21/19 A2993 RMK AO2  T02060185,,,,,,65.48,,N,29.28,27.97,,Clear
KIGQ,07/30/2016 07:15 UTC,29.93,68.36,64.94,88.29,0.0,0.0,,,,,,1.0,,,,10.0,,KIGQ 300715Z AUTO 00000KT 10SM CLR 20/18 A2993 RMK AO2  T02020183,,,,,,64.74,,N,29.28,28.03,,Clear
KIGQ,07/30/2016 07:35 UTC,29.92,68.36,65.3,93.98,0.0,0.0,,,,,,1.0,,,,10.0,,KIGQ 300735Z AUTO 00000KT 10SM CLR 20/19 A2992 RMK AO2  T02020185,,,,,,66.55,,N,29.27,27.91,,Clear
KIGQ,07/30/2016 07:55 UTC,29.92,68.0,65.12,88.29,0.0,0.0,,,,,,1.0,,,,10.0,,KIGQ 300755Z AUTO 00000KT 10SM CLR 20/18 A2992 RMK AO2  T02000184,,,,,,64.39,,N,29.27,28.05,,Clear
KIGQ,07/30/2016 08:15 UTC,29.92,67.46,65.12,88.29,3.44,30.0,,,,,,1.0,,,,10.0,,KIGQ 300815Z AUTO 03003KT 10SM CLR 20/18 A2992 RMK AO2  T01970184,,,,,,63.85,,NNE,29.27,28.08,,Clear
KIGQ,07/30/2016 08:35 UTC,29.92,68.0,65.48,93.98,0.0,0.0,,,,,,1.0,,,,10.0,,KIGQ 300835Z AUTO 00000KT 10SM CLR 20/19 A2992 RMK AO2  T02000186,,,,,,66.19,,N,29.27,27.93,,Clear
KIGQ,07/30/2016 08:55 UTC,29.92,68.0,65.48,93.98,0.0,0.0,,,,,,1.0,,,,10.0,,KIGQ 300855Z AUTO 00000KT 10SM CLR 20/19 A2992 RMK AO2  T02000186,,,,,,66.19,,N,29.27,27.93,,Clear
KIGQ,07/30/2016 09:15 UTC,29.92,67.1,64.76,88.29,0.0,0.0,,,,,,362.0,,,,10.0,,KIGQ 300915Z AUTO 00000KT 10SM SCT036 20/18 A2992 RMK AO2  T01950182,,,,,,63.5,,N,29.27,28.11,,Partly Cloudy
KIGQ,07/30/2016 09:35 UTC,29.92,67.28,65.3,93.98,0.0,0.0,,,,,,362.0,,,,10.0,,KIGQ 300935Z AUTO 00000KT 10SM SCT036 20/19 A2992 RMK AO2 LTG DSNT  NE T01960185,,,,,,65.48,,N,29.27,27.99,,Partly Cloudy
KIGQ,07/30/2016 09:55 UTC,29.93,66.2,64.76,93.94,0.0,0.0,,31.0,,,,1.0,,,,4.0,,KIGQ 300955Z AUTO 00000KT 4SM BR CLR 19/18 A2993 RMK AO2 LTG DSNT  NE T01900182,,,,,,64.39,,N,29.28,28.08,,Mist
KIGQ,07/30/2016 10:15 UTC,29.93,66.56,65.66,100.0,3.44,20.0,,5.0,,,,1.0,,,,7.0,,KIGQ 301015Z AUTO 02003KT 7SM VCTS CLR 19/19 A2993 RMK AO2 LTG  DSNT NE T01920187,,,,,,66.56,,NNE,29.28,27.94,,Thunder
KIGQ,07/30/2016 10:35 UTC,29.93,67.1,66.2,93.98,0.0,0.0,,,,,,102.0,,,,10.0,,KIGQ 301035Z AUTO 00000KT 10SM SCT010 20/19 A2993 RMK AO2 LTG DSNT  NE T01950190,,,,,,65.3,,N,29.28,28.01,,Partly Cloudy
KIGQ,07/30/2016 10:55 UTC,29.94,67.64,65.84,93.98,3.44,60.0,,,,,,104.0,,,,10.0,,KIGQ 301055Z AUTO 06003KT 10SM OVC010 20/19 A2994 RMK AO2 LTG DSNT  NE T01980188,,,1000.0,,,65.83,,ENE,29.29,27.98,,Overcast
KIGQ,07/30/2016 11:15 UTC,29.95,67.64,65.3,93.98,0.0,0.0,,,,,,103.0,,,,7.0,,KIGQ 301115Z AUTO 00000KT 7SM BKN010 20/19 A2995 RMK AO2 LTG DSNT  NE T01980185,,,1000.0,,,65.83,,N,29.3,27.99,,Mostly Cloudy
KIGQ,07/30/2016 11:35 UTC,29.95,68.36,66.2,93.98,0.0,0.0,,,,,,102.0,164.0,,,7.0,,KIGQ 301135Z AUTO 00000KT 7SM SCT010 OVC016 20/19 A2995 RMK AO2  T02020190,,,1600.0,,,66.55,,N,29.3,27.94,,Overcast
KIGQ,07/30/2016 11:55 UTC,29.96,68.9,66.38,88.37,4.61,50.0,,,,,,92.0,164.0,,1.23,7.0,,KIGQ 301155Z AUTO 05004KT 7SM SCT009 OVC016 21/19 A2996 RMK AO2  70123 T02050191 10216 20188,70.88,65.84,1600.0,,,65.3,,NE,29.31,28.02,,Overcast
KIGQ,07/30/2016 12:15 UTC,29.96,68.9,66.38,88.37,3.44,100.0,,,284.0,,,93.0,143.0,,,7.0,,KIGQ 301215Z AUTO 10003KT 7SM BKN009 BKN014 OVC028 21/19 A2996 RMK AO2 T02050191,,,900.0,,,65.3,,E,29.31,28.02,,Overcast
KIGQ,07/30/2016 12:35 UTC,29.96,69.26,66.56,88.37,4.61,110.0,,31.0,,,,73.0,124.0,,,5.0,,KIGQ 301235Z AUTO 11004KT 5SM BR BKN007 OVC012 21/19 A2996 RMK AO2  LTG DSNT NE T02070192,,,700.0,,,65.65,,ESE,29.31,27.99,,Mist
KIGQ,07/30/2016 12:55 UTC,29.96,69.62,66.56,88.37,4.61,120.0,,31.0,,,,74.0,,,,5.0,,KIGQ 301255Z AUTO 12004KT 5SM BR OVC007 21/19 A2996 RMK AO2  T02090192,,,700.0,,,66.01,,ESE,29.31,27.96,,Mist
KIGQ,07/30/2016 13:15 UTC,29.96,70.16,66.56,88.37,0.0,0.0,,31.0,,,,93.0,124.0,,,5.0,,KIGQ 301315Z AUTO 00000KT 5SM BR BKN009 OVC012 21/19 A2996 RMK AO2  T02120192,,,900.0,,,66.54,,N,29.31,27.92,,Mist
KIGQ,07/30/2016 13:35 UTC,29.96,70.34,66.2,88.37,4.61,120.0,,,,,,93.0,134.0,,,7.0,,KIGQ 301335Z AUTO 12004KT 7SM BKN009 OVC013 21/19 A2996 RMK AO2  T02130190,,,900.0,,,66.72,,ESE,29.31,27.91,,Overcast
KIGQ,07/30/2016 13:55 UTC,29.97,71.78,66.02,83.13,0.0,0.0,,,,,,134.0,,,,10.0,,KIGQ 301355Z AUTO 00000KT 10SM OVC013 22/19 A2997 RMK AO2  T02210189,,,1300.0,,,66.36,,N,29.32,27.92,,Overcast
KIGQ,07/30/2016 14:15 UTC,29.97,71.96,65.48,83.13,0.0,0.0,,,,,,134.0,,,,10.0,,KIGQ 301415Z AUTO 00000KT 10SM OVC013 22/19 A2997 RMK AO2  T02220186,,,1300.0,,,66.54,,N,29.32,27.91,,Overcast
KIGQ,07/30/2016 14:35 UTC,29.97,72.5,65.66,78.24,0.0,0.0,,,,,,153.0,224.0,,,10.0,,KIGQ 301435Z AUTO 00000KT 10SM BKN015 OVC022 23/19 A2997 RMK AO2  T02250187,,,1500.0,,,65.31,,N,29.32,27.98,,Overcast
KIGQ,07/30/2016 14:55 UTC,29.97,72.5,65.84,78.24,0.0,0.0,,,,,,173.0,224.0,,,10.0,,KIGQ 301455Z AUTO 00000KT 10SM BKN017 OVC022 23/19 A2997 RMK AO2  T02250188,,,1700.0,,,65.31,,N,29.32,27.98,,Overcast
KIGQ,07/30/2016 15:15 UTC,29.97,74.12,65.48,78.24,11.5,30.0,,,,,,173.0,244.0,,,10.0,,KIGQ 301515Z AUTO 03010KT 10SM BKN017 OVC024 23/19 A2997 RMK AO2  T02340186,,,1700.0,,,66.88,,NNE,29.32,27.86,,Overcast
KIGQ,07/30/2016 15:35 UTC,29.97,73.4,65.66,78.24,6.91,30.0,,,,,,203.0,274.0,,,10.0,,KIGQ 301535Z AUTO 03006KT 10SM BKN020 OVC027 23/19 A2997 RMK AO2  T02300187,,,2000.0,,,66.18,,NNE,29.32,27.91,,Overcast
KIGQ,07/30/2016 15:55 UTC,29.97,73.76,65.84,78.24,5.75,30.0,,,,,,214.0,,,,10.0,,KIGQ 301555Z AUTO 03005KT 10SM OVC021 23/19 A2997 RMK AO2  T02320188,,,2100.0,,,66.53,,NNE,29.32,27.88,,Overcast
KIGQ,07/30/2016 16:15 UTC,29.98,73.58,65.66,78.24,8.05,30.0,,,,,,194.0,,,,10.0,,KIGQ 301615Z AUTO 03007KT 10SM OVC019 23/19 A2998 RMK AO2  T02310187,,,1900.0,,,66.36,,NNE,29.33,27.91,,Overcast
KIGQ,07/30/2016 16:35 UTC,29.98,74.3,65.84,73.67,5.75,40.0,,,,,,224.0,,,,10.0,,KIGQ 301635Z AUTO 04005KT 10SM OVC022 24/19 A2998 RMK AO2  T02350188,,,2200.0,,,65.32,,NE,29.33,27.97,,Overcast
KIGQ,07/30/2016 16:55 UTC,29.99,75.38,65.48,73.67,5.75,340.0,,,,,,223.0,284.0,,,10.0,,KIGQ 301655Z AUTO 34005KT 10SM BKN022 OVC028 24/19 A2999 RMK AO2  T02410186,,,2200.0,,,66.36,,NNW,29.34,27.89,,Overcast
KIGQ,07/30/2016 17:15 UTC,29.98,75.2,65.84,73.67,8.05,340.0,,,384.0,,,203.0,313.0,,,10.0,,KIGQ 301715Z AUTO 34007KT 10SM BKN020 BKN031 OVC038 24/19  A2998 RMK AO2 T02400188,,,2000.0,,,66.19,,NNW,29.33,27.9,,Overcast
KIGQ,07/30/2016 17:35 UTC,29.98,75.02,66.38,73.67,9.22,360.0,,,323.0,,,203.0,263.0,,,10.0,,KIGQ 301735Z AUTO 36008KT 10SM BKN020 BKN026 BKN032 24/19  A2998 RMK AO2 T02390191,,,2000.0,,,66.01,,N,29.33,27.91,,Mostly Cloudy
KIGQ,07/30/2016 17:55 UTC,29.98,76.64,66.92,69.4,9.22,10.0,,,363.0,,,202.0,292.0,,,10.0,,KIGQ 301755Z AUTO 01008KT 10SM SCT020 SCT029 BKN036 25/19  A2998 RMK AO2 T02480194 10248 20205,76.64,68.9,3600.0,,,65.85,,N,29.33,27.9,,Mostly Cloudy
KIGQ,07/30/2016 18:15 UTC,29.98,75.38,66.2,73.67,8.05,10.0,,,363.0,,,202.0,263.0,,,10.0,,KIGQ 301815Z AUTO 01007KT 10SM SCT020 BKN026 BKN036 24/19  A2998 RMK AO2 T02410190,,,2600.0,,,66.36,,N,29.33,27.88,,Mostly Cloudy
KIGQ,07/30/2016 18:35 UTC,29.97,75.2,65.84,73.67,9.22,20.0,,,,,,203.0,264.0,,,10.0,,KIGQ 301835Z AUTO 02008KT 10SM BKN020 OVC026 24/19 A2997 RMK AO2  T02400188,,,2000.0,,,66.19,,NNE,29.32,27.89,,Overcast
KIGQ,07/30/2016 18:55 UTC,29.97,75.02,66.2,73.67,8.05,360.0,,,,,,203.0,254.0,,,10.0,,KIGQ 301855Z AUTO 36007KT 10SM BKN020 OVC025 24/19 A2997 RMK AO2  T02390190,,,2000.0,,,66.01,,N,29.32,27.9,,Overcast
KIGQ,07/30/2016 19:15 UTC,29.97,76.28,66.02,69.4,12.66,30.0,,,,,,203.0,283.0,,,10.0,,KIGQ 301915Z AUTO 03011KT 10SM BKN020 BKN028 25/19 A2997 RMK AO2  LTG DSNT SW T02460189,,,2000.0,,,65.5,,NNE,29.32,27.92,,Mostly Cloudy
KIGQ,07/30/2016 19:35 UTC,29.97,75.74,65.48,73.67,10.36,40.0,16.11,,,,,222.0,432.0,,,10.0,,KIGQ 301935Z AUTO 04009G14KT 10SM SCT022 SCT043 24/19 A2997 RMK AO2 T02430186,,,,,,66.71,,NE,29.32,27.85,,Partly Cloudy
KIGQ,07/30/2016 19:55 UTC,29.98,75.02,65.12,69.21,3.44,20.0,,,,,,222.0,434.0,,,10.0,,KIGQ 301955Z AUTO 02003KT 10SM SCT022 OVC043 24/18 A2998 RMK AO2  T02390184,,,4300.0,,,64.22,,NNE,29.33,28.03,,Overcast
KIGQ,07/30/2016 20:15 UTC,29.98,76.1,64.94,65.2,10.36,40.0,,,,,,222.0,434.0,,,10.0,,KIGQ 302015Z AUTO 04009KT 10SM SCT022 OVC043 25/18 A2998 RMK AO2  T02450183,,,4300.0,,,63.54,,NE,29.33,28.06,,Overcast
KIGQ,07/30/2016 20:35 UTC,29.97,76.82,65.66,69.4,10.36,20.0,,,,,,243.0,433.0,,,10.0,,KIGQ 302035Z AUTO 02009KT 10SM BKN024 BKN043 25/19 A2997 RMK AO2  T02490187,,,2400.0,,,66.02,,NNE,29.32,27.88,,Mostly Cloudy
KIGQ,07/30/2016 20:55 UTC,29.97,76.28,65.3,69.4,11.5,20.0,,,,,,223.0,,,,10.0,,KIGQ 302055Z AUTO 02010KT 10SM BKN022 25/19 A2997 RMK AO2  T02460185,,,2200.0,,,65.5,,NNE,29.32,27.92,,Mostly Cloudy
KIGQ,07/30/2016 21:15 UTC,29.97,75.2,65.3,73.67,8.05,20.0,,,,,,243.0,303.0,,,10.0,,KIGQ 302115Z AUTO 02007KT 10SM BKN024 BKN030 24/19 A2997 RMK AO2  LTG DSNT S AND SW T02400185,,,2400.0,,,66.19,,NNE,29.32,27.89,,Mostly Cloudy
KIGQ,07/30/2016 21:35 UTC,29.98,75.02,65.48,73.67,9.22,10.0,,,,,,213.0,284.0,,,10.0,,KIGQ 302135Z AUTO 01008KT 340V040 10SM BKN021 OVC028 24/19  A2998 RMK AO2 LTG DSNT S AND SW T02390186,,,2100.0,,,66.01,,N,29.33,27.91,,Overcast
KIGQ,07/30/2016 21:55 UTC,29.98,75.02,64.76,69.21,9.22,20.0,,,,,,213.0,283.0,,,10.0,,KIGQ 302155Z AUTO 02008KT 10SM BKN021 BKN028 24/18 A2998 RMK AO2  LTG DSNT S T02390182,,,2100.0,,,64.22,,NNE,29.33,28.03,,Mostly Cloudy
KIGQ,07/30/2016 22:15 UTC,29.98,74.84,64.04,69.21,12.66,20.0,,,,,,232.0,,,,10.0,,KIGQ 302215Z AUTO 02011KT 10SM SCT023 24/18 A2998 RMK AO2  T02380178,,,,,,64.04,,NNE,29.33,28.04,,Partly Cloudy
KIGQ,07/30/2016 22:35 UTC,29.98,73.76,64.04,73.5,10.36,10.0,16.11,,,,,252.0,412.0,,,10.0,,KIGQ 302235Z AUTO 01009G14KT 10SM SCT025 SCT041 23/18 A2998 RMK AO2 T02320178,,,,,,64.73,,N,29.33,28.01,,Partly Cloudy
KIGQ,07/30/2016 22:55 UTC,29.97,74.3,64.22,69.21,10.36,30.0,,,,,,233.0,413.0,,,10.0,,KIGQ 302255Z AUTO 03009KT 10SM BKN023 BKN041 24/18 A2997 RMK AO2  T02350179,,,2300.0,,,63.52,,NNE,29.32,28.07,,Mostly Cloudy
KIGQ,07/30/2016 23:15 UTC,29.97,73.22,63.68,73.5,11.5,20.0,,,,,,233.0,,,,10.0,,KIGQ 302315Z AUTO 02010KT 10SM BKN023 23/18 A2997 RMK AO2  T02290176,,,2300.0,,,64.21,,NNE,29.32,28.04,,Mostly Cloudy
KIGQ,07/30/2016 23:35 UTC,29.97,71.96,63.32,73.32,10.36,30.0,,,,,,253.0,,,,10.0,,KIGQ 302335Z AUTO 03009KT 10SM BKN025 22/17 A2997 RMK AO2  T02220174,,,2500.0,,,62.92,,NNE,29.32,28.13,,Mostly Cloudy
KIGQ,07/30/2016 23:55 UTC,29.98,71.78,63.32,73.32,8.05,10.0,,,,,,252.0,,,,10.0,,KIGQ 302355Z AUTO 01007KT 10SM SCT025 22/17 A2998 RMK AO2  T02210174 10250 20220,77.0,71.6,,,,62.75,,N,29.33,28.16,,Partly Cloudy
KIGQ,07/31/2016 00:15 UTC,29.98,71.6,63.14,73.32,11.5,30.0,,,,,,233.0,,,,10.0,,KIGQ 310015Z AUTO 03010KT 10SM BKN023 22/17 A2998 RMK AO2  T02200173,,,2300.0,,,62.57,,NNE,29.33,28.17,,Mostly Cloudy
KIGQ,07/31/2016 00:35 UTC,29.98,71.6,63.5,78.09,9.22,10.0,,,,,,234.0,,,,10.0,,KIGQ 310035Z AUTO 01008KT 10SM OVC023 22/18 A2998 RMK AO2  T02200175,,,2300.0,,,64.38,,N,29.33,28.06,,Overcast
KIGQ,07/31/2016 00:55 UTC,29.99,71.24,63.14,73.32,9.22,20.0,,,,,,234.0,,,,10.0,,KIGQ 310055Z AUTO 02008KT 10SM OVC023 22/17 A2999 RMK AO2 LTG DSNT  E T02180173,,,2300.0,,,62.23,,NNE,29.34,28.2,,Overcast
KIGQ,07/31/2016 01:15 UTC,29.98,71.24,63.5,78.09,9.22,10.0,,,,,,254.0,,,,10.0,,KIGQ 310115Z AUTO 01008KT 10SM OVC025 22/18 A2998 RMK AO2  T02180175,,,2500.0,,,64.03,,N,29.33,28.09,,Overcast
KIGQ,07/31/2016 01:35 UTC,29.98,70.7,63.5,78.09,6.91,20.0,,,,,,273.0,,,,10.0,,KIGQ 310135Z AUTO 02006KT 10SM BKN027 22/18 A2998 RMK AO2  T02150175,,,2700.0,,,63.5,,NNE,29.33,28.12,,Mostly Cloudy
KIGQ,07/31/2016 01:55 UTC,29.98,70.88,64.4,78.09,4.61,20.0,,,,,,273.0,,,,10.0,,KIGQ 310155Z AUTO 02004KT 10SM BKN027 22/18 A2998 RMK AO2  T02160180,,,2700.0,,,63.68,,NNE,29.33,28.11,,Mostly Cloudy
KIGQ,07/31/2016 02:15 UTC,29.99,71.6,64.58,78.09,9.22,30.0,,,,,,173.0,274.0,,,10.0,,KIGQ 310215Z AUTO 03008KT 10SM BKN017 OVC027 22/18 A2999 RMK AO2  T02200181,,,1700.0,,,64.38,,NNE,29.34,28.07,,Overcast
KIGQ,07/31/2016 02:35 UTC,29.99,71.6,64.58,78.09,11.5,40.0,,,333.0,,,192.0,263.0,,,10.0,,KIGQ 310235Z AUTO 04010KT 10SM SCT019 BKN026 BKN033 22/18  A2999 RMK AO2 T02200181,,,2600.0,,,64.38,,NE,29.34,28.07,,Mostly Cloudy
KIGQ,07/31/2016 02:55 UTC,29.99,71.24,64.76,78.09,9.22,50.0,,,342.0,,,172.0,282.0,,,10.0,,KIGQ 310255Z AUTO 05008KT 10SM SCT017 SCT028 SCT034 22/18  A2999 RMK AO2 T02180182,,,,,,64.03,,NE,29.34,28.1,,Partly Cloudy
KIGQ,07/31/2016 03:15 UTC,30.0,70.88,64.76,78.09,8.05,50.0,,,,,,282.0,,,,10.0,,KIGQ 310315Z AUTO 05007KT 10SM SCT028 22/18 A3000 RMK AO2  T02160182,,,,,,63.68,,NE,29.35,28.13,,Partly Cloudy
KIGQ,07/31/2016 03:35 UTC,30.0,70.88,64.76,78.09,6.91,40.0,,,,,,172.0,,,,10.0,,KIGQ 310335Z AUTO 04006KT 10SM SCT017 22/18 A3000 RMK AO2  T02160182,,,,,,63.68,,NE,29.35,28.13,,Partly Cloudy
KIGQ,07/31/2016 03:55 UTC,30.0,70.7,64.76,78.09,4.61,50.0,,,,,,162.0,,,,10.0,,KIGQ 310355Z AUTO 05004KT 10SM SCT016 22/18 A3000 RMK AO2  T02150182,,,,,,63.5,,NE,29.35,28.15,,Partly Cloudy
KIGQ,07/31/2016 04:15 UTC,30.0,70.52,64.76,83.01,8.05,50.0,,,,,,1.0,,,,10.0,,KIGQ 310415Z AUTO 05007KT 10SM CLR 21/18 A3000 RMK AO2  T02140182,,,,,,65.08,,NE,29.35,28.05,,Clear
KIGQ,07/31/2016 04:35 UTC,30.0,70.16,64.4,83.01,5.75,50.0,,,,,,1.0,,,,10.0,,KIGQ 310435Z AUTO 05005KT 10SM CLR 21/18 A3000 RMK AO2  T02120180,,,,,,64.73,,NE,29.35,28.08,,Clear
KIGQ,07/31/2016 04:55 UTC,30.0,69.8,64.4,83.01,4.61,50.0,,,,,,1.0,,,,10.0,,KIGQ 310455Z AUTO 05004KT 10SM CLR 21/18 A3000 RMK AO2  T02100180,,,,,,64.38,,NE,29.35,28.1,,Clear
KIGQ,07/31/2016 05:15 UTC,30.0,69.26,64.4,83.01,3.44,30.0,,,,,,1.0,,,,10.0,,KIGQ 310515Z AUTO 03003KT 10SM CLR 21/18 A3000 RMK AO2  T02070180,,,,,,63.85,,NNE,29.35,28.14,,Clear
KIGQ,07/31/2016 05:35 UTC,30.0,68.9,64.4,83.01,3.44,50.0,,,,,,1.0,,,,10.0,,KIGQ 310535Z AUTO 05003KT 10SM CLR 21/18 A3000 RMK AO2  T02050180,,,,,,63.5,,NE,29.35,28.17,,Clear
KIGQ,07/31/2016 05:55 UTC,30.0,68.54,64.4,88.29,0.0,0.0,,,,,,1.0,,,,10.0,,KIGQ 310555Z AUTO 00000KT 10SM CLR 20/18 A3000 RMK AO2 T02030180  10221 20203 402500188,71.78,68.54,,77.0,65.84,64.92,,N,29.35,28.09,,Clear
KIGQ,07/31/2016 06:15 UTC,30.0,68.18,64.4,88.29,3.44,90.0,,,,,,1.0,,,,10.0,,KIGQ 310615Z AUTO 09003KT 10SM CLR 20/18 A3000 RMK AO2  T02010180,,,,,,64.56,,E,29.35,28.11,,Clear
KIGQ,07/31/2016 06:35 UTC,30.0,67.1,63.32,82.89,0.0,0.0,,,,,,1.0,,,,10.0,,KIGQ 310635Z AUTO 00000KT 10SM CLR 20/17 A3000 RMK AO2  T01950174,,,,,,61.69,,N,29.35,28.29,,Clear
KIGQ,07/31/2016 06:55 UTC,29.99,67.1,64.04,88.29,0.0,0.0,,,,,,1.0,,,,10.0,,KIGQ 310655Z AUTO 00000KT 10SM CLR 20/18 A2999 RMK AO2  T01950178,,,,,,63.5,,N,29.34,28.18,,Clear
KIGQ,07/31/2016 07:15 UTC,29.99,67.1,64.04,88.29,0.0,0.0,,,,,,373.0,,,,10.0,,KIGQ 310715Z AUTO 00000KT 10SM BKN037 20/18 A2999 RMK AO2  T01950178,,,3700.0,,,63.5,,N,29.34,28.18,,Mostly Cloudy
KIGQ,07/31/2016 07:35 UTC,29.99,67.1,64.4,88.29,0.0,0.0,,,,,,374.0,,,,10.0,,KIGQ 310735Z AUTO 00000KT 10SM OVC037 20/18 A2999 RMK AO2  T01950180,,,3700.0,,,63.5,,N,29.34,28.18,,Overcast
KIGQ,07/31/2016 07:55 UTC,29.99,66.92,64.22,93.94,0.0,0.0,,,,,,372.0,,,,10.0,,KIGQ 310755Z AUTO 00000KT 10SM SCT037 19/18 A2999 RMK AO2  T01940179,,,,,,65.11,,N,29.34,28.09,,Partly Cloudy
KIGQ,07/31/2016 08:15 UTC,29.98,66.74,63.68,93.94,0.0,0.0,,,,,,1.0,,,,10.0,,KIGQ 310815Z AUTO 00000KT 10SM CLR 19/18 A2998 RMK AO2  T01930176,,,,,,64.93,,N,29.33,28.09,,Clear
KIGQ,07/31/2016 08:35 UTC,29.99,64.4,61.88,93.89,0.0,0.0,,,,,,1.0,,,,7.0,,KIGQ 310835Z AUTO 00000KT 7SM CLR 18/17 A2999 RMK AO2  T01800166,,,,,,62.59,,N,29.34,28.27,,Clear
KIGQ,07/31/2016 08:55 UTC,29.99,65.66,63.5,93.94,0.0,0.0,,,,,,1.0,,,,10.0,,KIGQ 310855Z AUTO 00000KT 10SM CLR 19/18 A2999 RMK AO2  T01870175,,,,,,63.85,,N,29.34,28.18,,Clear
KIGQ,07/31/2016 09:15 UTC,30.0,65.66,63.5,93.94,0.0,0.0,,,,,,1.0,,,,10.0,,KIGQ 310915Z AUTO 00000KT 10SM CLR 19/18 A3000 RMK AO2  T01870175,,,,,,63.85,,N,29.35,28.19,,Clear
KIGQ,07/31/2016 09:35 UTC,30.0,65.66,63.5,93.94,3.44,320.0,,,,,,152.0,,,,7.0,,KIGQ 310935Z AUTO 32003KT 7SM SCT015 19/18 A3000 RMK AO2  T01870175,,,,,,63.85,,NW,29.35,28.19,,Partly Cloudy
KIGQ,07/31/2016 09:55 UTC,30.0,65.48,63.5,93.94,0.0,0.0,,,,,,152.0,,,,7.0,,KIGQ 310955Z AUTO 00000KT 7SM SCT015 19/18 A3000 RMK AO2  T01860175,,,,,,63.68,,N,29.35,28.2,,Partly Cloudy
KIGQ,07/31/2016 10:15 UTC,30.0,64.4,62.6,93.89,0.0,0.0,,31.0,,,,1.0,,,,5.0,,KIGQ 311015Z AUTO 00000KT 5SM BR CLR 18/17 A3000 RMK AO2  T01800170,,,,,,62.59,,N,29.35,28.28,,Mist
KIGQ,07/31/2016 10:35 UTC,30.01,64.4,62.78,93.89,0.0,0.0,,,,,,1.0,,,,7.0,,KIGQ 311035Z AUTO 00000KT 7SM CLR 18/17 A3001 RMK AO2  T01800171,,,,,,62.59,,N,29.36,28.29,,Clear
KIGQ,07/31/2016 10:55 UTC,30.01,62.6,61.52,93.84,0.0,0.0,,31.0,,,,1.0,,,,2.0,,KIGQ 311055Z AUTO 00000KT 2SM BR CLR 17/16 A3001 RMK AO2  T01700164,,,,,,60.79,,N,29.36,28.41,,Mist
KIGQ,07/31/2016 11:15 UTC,30.02,62.78,61.88,96.88,0.0,0.0,,31.0,,,,1.0,,,,2.5,,KIGQ 311115Z AUTO 00000KT 2 1/2SM BR CLR 17/17 A3002 RMK AO2  T01710166,,,,,,61.87,,N,29.37,28.36,,Mist
KIGQ,07/31/2016 11:35 UTC,30.03,63.32,62.78,100.0,0.0,0.0,,31.0,,,,152.0,222.0,,,4.0,,KIGQ 311135Z AUTO 00000KT 4SM BR SCT015 SCT022 17/17 A3003 RMK AO2  T01740171,,,,,,63.32,,N,29.38,28.28,,Mist
KIGQ,07/31/2016 11:55 UTC,30.03,64.94,64.4,100.0,0.0,0.0,,31.0,,,,203.0,,,,5.0,,KIGQ 311155Z AUTO 00000KT 5SM BR BKN020 18/18 A3003 RMK AO2  T01830180 10204 20167,68.72,62.06,2000.0,,,64.94,,N,29.38,28.17,,Mist
KIGQ,07/31/2016 12:15 UTC,30.04,67.1,65.66,93.98,0.0,0.0,,,,,,183.0,313.0,,,7.0,,KIGQ 311215Z AUTO 00000KT 7SM BKN018 BKN031 20/19 A3004 RMK AO2  T01950187,,,1800.0,,,65.3,,N,29.39,28.12,,Mostly Cloudy
KIGQ,07/31/2016 12:35 UTC,30.04,68.18,65.66,93.98,0.0,0.0,,,313.0,,,182.0,272.0,,,7.0,,KIGQ 311235Z AUTO 00000KT 7SM SCT018 SCT027 BKN031 20/19 A3004 RMK AO2 T02010187,,,3100.0,,,66.37,,N,29.39,28.04,,Mostly Cloudy
KIGQ,07/31/2016 12:55 UTC,30.04,70.88,66.38,83.13,3.44,330.0,,,312.0,,,162.0,262.0,,,10.0,,KIGQ 311255Z AUTO 33003KT 10SM SCT016 SCT026 SCT031 22/19  A3004 RMK AO2 T02160191,,,,,,65.48,,NNW,29.39,28.06,,Partly Cloudy
KIGQ,07/31/2016 13:15 UTC,30.03,71.78,65.84,83.13,0.0,0.0,,,,,,1.0,,,,10.0,,KIGQ 311315Z AUTO 00000KT 10SM CLR 22/19 A3003 RMK AO2  T02210188,,,,,,66.36,,N,29.38,27.98,,Clear
KIGQ,07/31/2016 13:35 UTC,30.03,70.88,65.66,83.13,0.0,0.0,,,232.0,,,122.0,182.0,,,10.0,,KIGQ 311335Z AUTO 00000KT 10SM SCT012 SCT018 SCT023 22/19  A3003 RMK AO2 T02160187,,,,,,65.48,,N,29.38,28.05,,Partly Cloudy
KIGQ,07/31/2016 13:55 UTC,30.04,71.96,66.02,83.13,0.0,0.0,,,,,,213.0,283.0,,,10.0,,KIGQ 311355Z AUTO 00000KT 10SM BKN021 BKN028 22/19 A3004 RMK AO2  T02220189,,,2100.0,,,66.54,,N,29.39,27.98,,Mostly Cloudy
KIGQ,07/31/2016 14:15 UTC,30.04,72.32,65.48,83.13,0.0,0.0,,,422.0,,,192.0,282.0,,,10.0,,KIGQ 311415Z AUTO 00000KT 10SM SCT019 SCT028 SCT042 22/19  A3004 RMK AO2 T02240186,,,,,,66.89,,N,29.39,27.95,,Partly Cloudy
KIGQ,07/31/2016 14:35 UTC,30.04,74.3,65.66,73.67,5.75,20.0,,,,,,422.0,,,,10.0,,KIGQ 311435Z AUTO 02005KT 10SM SCT042 24/19 A3004 RMK AO2  T02350187,,,,,,65.32,,NNE,29.39,28.03,,Partly Cloudy
KIGQ,07/31/2016 14:55 UTC,30.04,74.12,65.12,73.5,3.44,30.0,,,,,,1.0,,,,10.0,,KIGQ 311455Z AUTO 03003KT 10SM CLR 23/18 A3004 RMK AO2  T02340184,,,,,,65.08,,NNE,29.39,28.05,,Clear
KIGQ,07/31/2016 15:15 UTC,30.03,76.64,65.48,69.4,9.22,80.0,,,393.0,,,222.0,322.0,,,10.0,,KIGQ 311515Z AUTO 08008KT 10SM SCT022 SCT032 BKN039 25/19  A3003 RMK AO2 T02480186,,,3900.0,,,65.85,,E,29.38,27.95,,Mostly Cloudy
KIGQ,07/31/2016 15:35 UTC,30.04,76.46,65.12,65.2,6.91,40.0,,,373.0,,,242.0,302.0,,,10.0,,KIGQ 311535Z AUTO 04006KT 10SM SCT024 SCT030 BKN037 25/18  A3004 RMK AO2 T02470184,,,3700.0,,,63.88,,NE,29.39,28.09,,Mostly Cloudy
KIGQ,07/31/2016 15:55 UTC,30.06,76.46,64.94,65.2,5.75,330.0,,,374.0,,,263.0,323.0,,,10.0,,KIGQ 311555Z AUTO 33005KT 10SM BKN026 BKN032 OVC037 25/18  A3006 RMK AO2 T02470183,,,2600.0,,,63.88,,NNW,29.41,28.11,,Overcast
KIGQ,07/31/2016 16:15 UTC,30.05,75.74,64.58,69.21,5.75,360.0,,,393.0,,,263.0,323.0,,,10.0,,KIGQ 311615Z AUTO 36005KT 10SM BKN026 BKN032 BKN039 24/18  A3005 RMK AO2 T02430181,,,2600.0,,,64.91,,N,29.4,28.05,,Mostly Cloudy
KIGQ,07/31/2016 16:35 UTC,30.05,76.64,63.68,65.2,5.75,20.0,,,,,,282.0,392.0,,,10.0,,KIGQ 311635Z AUTO 02005KT 10SM SCT028 SCT039 25/18 A3005 RMK AO2  T02480176,,,,,,64.05,,NNE,29.4,28.09,,Partly Cloudy
KIGQ,07/31/2016 16:55 UTC,30.05,77.72,62.24,61.21,4.61,50.0,,,,,,302.0,,,,10.0,,KIGQ 311655Z AUTO 05004KT 10SM SCT030 25/17 A3005 RMK AO2  T02540168,,,,,,63.27,,NE,29.4,28.13,,Partly Cloudy
KIGQ,07/31/2016 17:15 UTC,30.04,77.9,62.96,57.69,5.75,360.0,,,,,,1.0,,,,10.0,,KIGQ 311715Z AUTO 36005KT 10SM CLR 26/17 A3004 RMK AO2  T02550172,,,,,,61.76,,N,29.39,28.21,,Clear
KIGQ,07/31/2016 17:35 UTC,30.05,78.26,62.24,57.69,8.05,40.0,,,,,,1.0,,,,10.0,,KIGQ 311735Z AUTO 04007KT 10SM CLR 26/17 A3005 RMK AO2  T02570168,,,,,,62.1,,NE,29.4,28.19,,Clear
KIGQ,07/31/2016 17:55 UTC,30.05,78.26,63.14,57.69,5.75,340.0,,,,,,332.0,,,,10.0,,KIGQ 311755Z AUTO 34005KT 10SM SCT033 26/17 A3005 RMK AO2  T02570173 10261 20184,78.98,65.12,,,,62.1,,NNW,29.4,28.19,,Partly Cloudy
KIGQ,07/31/2016 18:15 UTC,30.05,78.8,63.32,57.69,8.05,330.0,,,,,,333.0,,,,10.0,,KIGQ 311815Z AUTO 33007KT 10SM BKN033 26/17 A3005 RMK AO2  T02600174,,,3300.0,,,62.6,,NNW,29.4,28.16,,Mostly Cloudy
KIGQ,07/31/2016 18:35 UTC,30.05,78.8,64.4,61.44,6.91,20.0,20.71,,,,,332.0,,,,10.0,,KIGQ 311835Z AUTO 02006G18KT 350V050 10SM SCT033 26/18 A3005 RMK AO2 T02600180,,,,,,64.4,,NNE,29.4,28.04,,Partly Cloudy
KIGQ,07/31/2016 18:55 UTC,30.06,78.62,64.22,61.44,6.91,10.0,,,,,,312.0,,,,10.0,,KIGQ 311855Z AUTO 01006KT 10SM SCT031 26/18 A3006 RMK AO2  T02590179,,,,,,64.23,,N,29.41,28.07,,Partly Cloudy
KIGQ,07/31/2016 19:15 UTC,30.05,78.8,63.68,61.44,8.05,20.0,,,,,,312.0,,,,10.0,,KIGQ 311915Z AUTO 02007KT 10SM SCT031 26/18 A3005 RMK AO2  T02600176,,,,,,64.4,,NNE,29.4,28.04,,Partly Cloudy
KIGQ,07/31/2016 19:35 UTC,30.05,78.8,64.22,61.44,8.05,20.0,,,,,,1.0,,,,10.0,,KIGQ 311935Z AUTO 02007KT 10SM CLR 26/18 A3005 RMK AO2  T02600179,,,,,,64.4,,NNE,29.4,28.04,,Clear
KIGQ,07/31/2016 19:55 UTC,30.05,78.62,64.22,61.44,5.75,40.0,,,,,,1.0,,,,10.0,,KIGQ 311955Z AUTO 04005KT 10SM CLR 26/18 A3005 RMK AO2  T02590179,,,,,,64.23,,NE,29.4,28.06,,Clear
KIGQ,07/31/2016 20:15 UTC,30.04,78.08,64.58,61.44,10.36,60.0,16.11,,,,,1.0,,,,10.0,,KIGQ 312015Z AUTO 06009G14KT 030V110 10SM CLR 26/18 A3004 RMK AO2  T02560181,,,,,,63.72,,ENE,29.39,28.09,,Clear
KIGQ,07/31/2016 20:35 UTC,30.04,77.72,64.94,65.2,9.22,40.0,,,,,,1.0,,,,10.0,,KIGQ 312035Z AUTO 04008KT 10SM CLR 25/18 A3004 RMK AO2  T02540183,,,,,,65.08,,NE,29.39,28.0,,Clear
KIGQ,07/31/2016 20:55 UTC,30.04,77.18,64.58,65.2,9.22,60.0,,,,,,1.0,,,,10.0,,KIGQ 312055Z AUTO 06008KT 10SM CLR 25/18 A3004 RMK AO2  T02510181,,,,,,64.57,,ENE,29.39,28.04,,Clear
KIGQ,07/31/2016 21:15 UTC,30.04,77.18,64.94,65.2,6.91,30.0,,,,,,1.0,,,,10.0,,KIGQ 312115Z AUTO 03006KT 10SM CLR 25/18 A3004 RMK AO2  T02510183,,,,,,64.57,,NNE,29.39,28.04,,Clear
KIGQ,07/31/2016 21:35 UTC,30.04,76.46,64.76,65.2,5.75,30.0,,,,,,1.0,,,,10.0,,KIGQ 312135Z AUTO 03005KT 10SM CLR 25/18 A3004 RMK AO2  T02470182,,,,,,63.88,,NNE,29.39,28.09,,Clear
KIGQ,07/31/2016 21:55 UTC,30.04,77.0,64.94,65.2,5.75,60.0,,,,,,1.0,,,,10.0,,KIGQ 312155Z AUTO 06005KT 10SM CLR 25/18 A3004 RMK AO2  T02500183,,,,,,64.4,,ENE,29.39,28.06,,Clear
KIGQ,07/31/2016 22:15 UTC,30.04,76.46,64.94,65.2,4.61,40.0,,,,,,1.0,,,,10.0,,KIGQ 312215Z AUTO 04004KT 10SM CLR 25/18 A3004 RMK AO2  T02470183,,,,,,63.88,,NE,29.39,28.09,,Clear
KIGQ,07/31/2016 22:35 UTC,30.03,76.1,64.22,65.2,6.91,50.0,,,,,,1.0,,,,10.0,,KIGQ 312235Z AUTO 05006KT 10SM CLR 25/18 A3003 RMK AO2  T02450179,,,,,,63.54,,NE,29.38,28.11,,Clear
KIGQ,07/31/2016 22:55 UTC,30.03,76.1,64.58,65.2,6.91,60.0,,,,,,1.0,,,,10.0,,KIGQ 312255Z AUTO 06006KT 10SM CLR 25/18 A3003 RMK AO2  T02450181,,,,,,63.54,,ENE,29.38,28.11,,Clear
KIGQ,07/31/2016 23:15 UTC,30.03,76.1,64.22,65.2,8.05,40.0,,,,,,1.0,,,,10.0,,KIGQ 312315Z AUTO 04007KT 10SM CLR 25/18 A3003 RMK AO2  T02450179,,,,,,63.54,,NE,29.38,28.11,,Clear
KIGQ,07/31/2016 23:35 UTC,30.02,74.3,63.5,69.21,8.05,30.0,,,,,,1.0,,,,10.0,,KIGQ 312335Z AUTO 03007KT 10SM CLR 24/18 A3002 RMK AO2  T02350175,,,,,,63.52,,NNE,29.37,28.12,,Clear
KIGQ,07/31/2016 23:55 UTC,30.03,73.58,63.86,73.5,6.91,40.0,,,,,,1.0,,,,10.0,,KIGQ 312355Z AUTO 04006KT 10SM CLR 23/18 A3003 RMK AO2 T02310177  10261 20231,78.98,73.58,,,,64.56,,NE,29.38,28.08,,Clear
