# STATION: KIGQ
# STATION NAME: Lansing Municipal Airport
# LATITUDE: 41.54125
# LONGITUDE: -87.52822
# ELEVATION [ft]: 607
# STATE: IL
Station_ID,Date_Time,altimeter_set_1,air_temp_set_1,dew_point_temperature_set_1,relative_humidity_set_1,wind_speed_set_1,wind_direction_set_1,wind_gust_set_1,weather_cond_code_set_1,cloud_layer_3_code_set_1,precip_accum_one_hour_set_1,precip_accum_three_hour_set_1,cloud_layer_1_code_set_1,cloud_layer_2_code_set_1,precip_accum_six_hour_set_1,precip_accum_24_hour_set_1,visibility_set_1,metar_remark_set_1,metar_set_1,air_temp_high_6_hour_set_1,air_temp_low_6_hour_set_1,ceiling_set_1,air_temp_high_24_hour_set_1,air_temp_low_24_hour_set_1,dew_point_temperature_set_1d,wind_chill_set_1d,wind_cardinal_direction_set_1d,pressure_set_1d,sea_level_pressure_set_1d,heat_index_set_1d,weather_condition_set_1d
,,INHG,Fahrenheit,Fahrenheit,%,Miles/hour,Degrees,Miles/hour,code,code,Inches,Inches,code,code,Inches,Inches,Statute miles,text,text,Fahrenheit,Fahrenheit,Feet,Fahrenheit,Fahrenheit,Fahrenheit,Fahrenheit,Code,INHG,INHG,Fahrenheit,Code
KIGQ,08/01/2016 00:15 UTC,30.03,73.4,63.5,73.5,5.75,60.0,,,,,,1.0,,,,10.0,,KIGQ 010015Z AUTO 06005KT 10SM CLR 23/18 A3003 RMK AO2  T02300175,,,,,,64.38,,ENE,29.38,28.09,,Clear
KIGQ,08/01/2016 00:35 UTC,30.04,72.68,63.68,73.5,4.61,40.0,,,,,,1.0,,,,10.0,,KIGQ 010035Z AUTO 04004KT 10SM CLR 23/18 A3004 RMK AO2  T02260176,,,,,,63.69,,NE,29.39,28.15,,Clear
KIGQ,08/01/2016 00:55 UTC,30.03,72.14,64.4,78.09,5.75,50.0,,,,,,1.0,,,,10.0,,KIGQ 010055Z AUTO 05005KT 10SM CLR 22/18 A3003 RMK AO2  T02230180,,,,,,64.9,,NE,29.38,28.07,,Clear
KIGQ,08/01/2016 01:15 UTC,30.03,71.6,64.4,78.09,5.75,40.0,,,,,,1.0,,,,10.0,,KIGQ 010115Z AUTO 04005KT 10SM CLR 22/18 A3003 RMK AO2  T02200180,,,,,,64.38,,NE,29.38,28.11,,Clear
KIGQ,08/01/2016 01:35 UTC,30.04,71.24,64.94,78.09,4.61,40.0,,,,,,1.0,,,,10.0,,KIGQ 010135Z AUTO 04004KT 10SM CLR 22/18 A3004 RMK AO2  T02180183,,,,,,64.03,,NE,29.39,28.15,,Clear
KIGQ,08/01/2016 01:55 UTC,30.04,70.7,64.76,78.09,3.44,40.0,,,,,,1.0,,,,10.0,,KIGQ 010155Z AUTO 04003KT 10SM CLR 22/18 A3004 RMK AO2  T02150182,,,,,,63.5,,NE,29.39,28.19,,Clear
KIGQ,08/01/2016 02:15 UTC,30.05,70.52,64.94,83.01,4.61,50.0,,,,,,1.0,,,,10.0,,KIGQ 010215Z AUTO 05004KT 10SM CLR 21/18 A3005 RMK AO2  T02140183,,,,,,65.08,,NE,29.4,28.1,,Clear
KIGQ,08/01/2016 02:35 UTC,30.06,70.34,64.94,83.01,3.44,80.0,,,,,,1.0,,,,10.0,,KIGQ 010235Z AUTO 08003KT 10SM CLR 21/18 A3006 RMK AO2  T02130183,,,,,,64.91,,E,29.41,28.12,,Clear
KIGQ,08/01/2016 02:55 UTC,30.07,69.44,64.94,83.01,0.0,0.0,,,,,,1.0,,,,10.0,,KIGQ 010255Z AUTO 00000KT 10SM CLR 21/18 A3007 RMK AO2  T02080183,,,,,,64.03,,N,29.42,28.2,,Clear
KIGQ,08/01/2016 03:15 UTC,30.07,69.98,65.3,88.37,0.0,0.0,,,,,,1.0,,,,10.0,,KIGQ 010315Z AUTO 00000KT 10SM CLR 21/19 A3007 RMK AO2  T02110185,,,,,,66.36,,N,29.42,28.05,,Clear
KIGQ,08/01/2016 03:35 UTC,30.07,69.8,65.3,88.37,0.0,0.0,,,,,,1.0,,,,10.0,,KIGQ 010335Z AUTO 00000KT 10SM CLR 21/19 A3007 RMK AO2  T02100185,,,,,,66.19,,N,29.42,28.06,,Clear
KIGQ,08/01/2016 03:55 UTC,30.08,68.0,64.4,88.29,0.0,0.0,,,,,,1.0,,,,10.0,,KIGQ 010355Z AUTO 00000KT 10SM CLR 20/18 A3008 RMK AO2  T02000180,,,,,,64.39,,N,29.43,28.21,,Clear
KIGQ,08/01/2016 04:15 UTC,30.08,65.84,62.96,88.2,0.0,0.0,,,,,,1.0,,,,10.0,,KIGQ 010415Z AUTO 00000KT 10SM CLR 19/17 A3008 RMK AO2  T01880172,,,,,,62.23,,N,29.43,28.36,,Clear
KIGQ,08/01/2016 04:35 UTC,30.09,66.74,64.22,93.94,0.0,0.0,,,,,,1.0,,,,7.0,,KIGQ 010435Z AUTO 00000KT 7SM CLR 19/18 A3009 RMK AO2  T01930179,,,,,,64.93,,N,29.44,28.2,,Clear
KIGQ,08/01/2016 04:55 UTC,30.08,66.2,64.04,93.94,0.0,0.0,,31.0,,,,1.0,,,,4.0,,KIGQ 010455Z AUTO 00000KT 4SM BR CLR 19/18 A3008 RMK AO2  T01900178,,,,,,64.39,,N,29.43,28.23,,Mist
KIGQ,08/01/2016 05:15 UTC,30.08,66.74,64.76,93.94,0.0,0.0,,,,,,1.0,,,,7.0,,KIGQ 010515Z AUTO 00000KT 7SM CLR 19/18 A3008 RMK AO2  T01930182,,,,,,64.93,,N,29.43,28.19,,Clear
KIGQ,08/01/2016 05:35 UTC,30.08,66.92,64.94,93.94,0.0,0.0,,,,,,1.0,,,,7.0,,KIGQ 010535Z AUTO 00000KT 7SM CLR 19/18 A3008 RMK AO2  T01940183,,,,,,65.11,,N,29.43,28.18,,Clear
KIGQ,08/01/2016 05:55 UTC,30.08,66.74,64.22,93.94,0.0,0.0,,31.0,,,,1.0,,,,5.0,,KIGQ 010555Z AUTO 00000KT 5SM BR CLR 19/18 A3008 RMK AO2 T01930179  10231 20186 402610167,73.58,65.48,,78.98,62.06,64.93,,N,29.43,28.19,,Mist
KIGQ,08/01/2016 06:15 UTC,30.07,66.2,63.86,93.94,0.0,0.0,,31.0,,,,1.0,,,,4.0,,KIGQ 010615Z AUTO 00000KT 4SM BR CLR 19/18 A3007 RMK AO2  T01900177,,,,,,64.39,,N,29.42,28.22,,Mist
KIGQ,08/01/2016 06:35 UTC,30.07,65.48,63.5,93.94,0.0,0.0,,31.0,,,,1.0,,,,5.0,,KIGQ 010635Z AUTO 00000KT 5SM BR CLR 19/18 A3007 RMK AO2  T01860175,,,,,,63.68,,N,29.42,28.27,,Mist
KIGQ,08/01/2016 06:55 UTC,30.07,66.02,64.58,93.94,0.0,0.0,,31.0,,,,1.0,,,,5.0,,KIGQ 010655Z AUTO 00000KT 5SM BR CLR 19/18 A3007 RMK AO2  T01890181,,,,,,64.21,,N,29.42,28.24,,Mist
KIGQ,08/01/2016 07:15 UTC,30.06,66.02,64.4,93.94,3.44,90.0,,31.0,,,,1.0,,,,5.0,,KIGQ 010715Z AUTO 09003KT 5SM BR CLR 19/18 A3006 RMK AO2  T01890180,,,,,,64.21,,E,29.41,28.22,,Mist
KIGQ,08/01/2016 07:35 UTC,30.06,66.02,64.4,93.94,3.44,80.0,,31.0,,,,1.0,,,,5.0,,KIGQ 010735Z AUTO 08003KT 5SM BR CLR 19/18 A3006 RMK AO2  T01890180,,,,,,64.21,,E,29.41,28.22,,Mist
KIGQ,08/01/2016 07:55 UTC,30.06,65.3,63.5,93.94,0.0,0.0,,31.0,,,,1.0,,,,3.0,,KIGQ 010755Z AUTO 00000KT 3SM BR CLR 19/18 A3006 RMK AO2  T01850175,,,,,,63.5,,N,29.41,28.28,,Mist
KIGQ,08/01/2016 08:15 UTC,30.07,65.66,64.58,93.94,0.0,0.0,,31.0,,,,1.0,,,,2.5,,KIGQ 010815Z AUTO 00000KT 2 1/2SM BR CLR 19/18 A3007 RMK AO2  T01870181,,,,,,63.85,,N,29.42,28.26,,Mist
KIGQ,08/01/2016 08:35 UTC,30.08,65.12,64.22,100.0,0.0,0.0,,31.0,,,,1.0,,,,4.0,,KIGQ 010835Z AUTO 00000KT 4SM BR CLR 18/18 A3008 RMK AO2  T01840179,,,,,,65.12,,N,29.43,28.2,,Mist
KIGQ,08/01/2016 08:55 UTC,30.08,62.96,61.52,93.84,0.0,0.0,,31.0,,,,1.0,,,,2.5,,KIGQ 010855Z AUTO 00000KT 2 1/2SM BR CLR 17/16 A3008 RMK AO2  T01720164,,,,,,61.14,,N,29.43,28.46,,Mist
KIGQ,08/01/2016 09:15 UTC,30.09,62.24,60.98,93.84,0.0,0.0,,31.0,,,,1.0,,,,2.5,,KIGQ 010915Z AUTO 00000KT 2 1/2SM BR CLR 17/16 A3009 RMK AO2  T01680161,,,,,,60.43,,N,29.44,28.52,,Mist
KIGQ,08/01/2016 09:35 UTC,30.08,63.14,62.6,100.0,0.0,0.0,,31.0,,,,55.0,,,,0.75,,KIGQ 010935Z AUTO 00000KT 3/4SM BR VV005 17/17 A3008 RMK AO2 VIS  1/4V5 T01730170,,,500.0,,,63.14,,N,29.43,28.35,,Mist
KIGQ,08/01/2016 09:55 UTC,30.07,62.96,62.24,100.0,0.0,0.0,,31.0,,,,75.0,,,,1.5,,KIGQ 010955Z AUTO 00000KT 1 1/2SM BR VV007 17/17 A3007 RMK AO2  T01720168,,,700.0,,,62.96,,N,29.42,28.35,,Mist
KIGQ,08/01/2016 10:15 UTC,30.06,64.4,63.68,100.0,0.0,0.0,,31.0,,,,1.0,,,,4.0,,KIGQ 011015Z AUTO 00000KT 4SM BR CLR 18/18 A3006 RMK AO2  T01800176,,,,,,64.4,,N,29.41,28.24,,Mist
KIGQ,08/01/2016 10:35 UTC,30.06,63.86,63.14,93.89,0.0,0.0,,31.0,,,,1.0,,,,4.0,,KIGQ 011035Z AUTO 00000KT 4SM BR CLR 18/17 A3006 RMK AO2  T01770173,,,,,,62.05,,N,29.41,28.38,,Mist
KIGQ,08/01/2016 10:55 UTC,30.07,60.98,59.9,100.0,0.0,0.0,,31.0,,,,1.0,,,,2.5,,KIGQ 011055Z AUTO 00000KT 2 1/2SM BR CLR 16/16 A3007 RMK AO2 VIS 1  1/4V4 T01610155,,,,,,60.98,,N,29.42,28.48,,Mist
KIGQ,08/01/2016 11:15 UTC,30.07,61.7,61.16,93.84,0.0,0.0,,9.0,,,,24.0,,,,0.25,,KIGQ 011115Z AUTO 00000KT 1/4SM FG OVC002 17/16 A3007 RMK AO2  T01650162,,,200.0,,,59.89,,N,29.42,28.53,,Fog
KIGQ,08/01/2016 11:35 UTC,30.08,62.42,61.7,100.0,0.0,0.0,,9.0,,,,23.0,74.0,,,0.25,,KIGQ 011135Z AUTO 00000KT 1/4SM FG BKN002 OVC007 17/17 A3008 RMK AO2 T01690165,,,200.0,,,62.42,,N,29.43,28.4,,Fog
KIGQ,08/01/2016 11:55 UTC,30.09,64.76,64.22,100.0,0.0,0.0,,31.0,,,,72.0,,,,2.5,,KIGQ 011155Z AUTO 00000KT 2 1/2SM BR SCT007 18/18 A3009 RMK AO2  T01820179 10191 20158,66.38,60.44,,,,64.76,,N,29.44,28.24,,Mist
KIGQ,08/01/2016 12:15 UTC,30.08,66.2,65.66,100.0,0.0,0.0,,31.0,,,,1.0,,,,2.0,,KIGQ 011215Z AUTO 00000KT 2SM BR CLR 19/19 A3008 RMK AO2  T01900187,,,,,,66.2,,N,29.43,28.12,,Mist
KIGQ,08/01/2016 12:35 UTC,30.08,68.36,67.1,100.0,0.0,0.0,,31.0,,,,1.0,,,,5.0,,KIGQ 011235Z AUTO 00000KT 5SM BR CLR 20/20 A3008 RMK AO2  T02020195,,,,,,68.36,,N,29.43,27.95,,Mist
KIGQ,08/01/2016 12:55 UTC,30.09,71.6,67.64,88.46,3.44,90.0,,,,,,1.0,,,,10.0,,KIGQ 011255Z AUTO 09003KT 10SM CLR 22/20 A3009 RMK AO2  T02200198,,,,,,67.99,,E,29.44,27.94,,Clear
KIGQ,08/01/2016 13:15 UTC,30.09,72.86,67.28,83.25,4.61,60.0,,,,,,1.0,,,,10.0,,KIGQ 011315Z AUTO 06004KT 10SM CLR 23/20 A3009 RMK AO2  T02270196,,,,,,67.46,,ENE,29.44,27.95,,Clear
KIGQ,08/01/2016 13:35 UTC,30.09,74.3,67.28,78.39,3.44,90.0,,,,,,1.0,,,,10.0,,KIGQ 011335Z AUTO 09003KT 10SM CLR 24/20 A3009 RMK AO2  T02350196,,,,,,67.12,,E,29.44,27.96,,Clear
KIGQ,08/01/2016 13:55 UTC,30.08,75.2,66.38,73.67,5.75,80.0,,,,,,1.0,,,,10.0,,KIGQ 011355Z AUTO 08005KT 10SM CLR 24/19 A3008 RMK AO2  T02400191,,,,,,66.19,,E,29.43,28.0,,Clear
KIGQ,08/01/2016 14:15 UTC,30.08,75.92,66.56,73.67,4.61,60.0,,,,,,1.0,,,,10.0,,KIGQ 011415Z AUTO 06004KT 10SM CLR 24/19 A3008 RMK AO2  T02440192,,,,,,66.88,,ENE,29.43,27.94,,Clear
KIGQ,08/01/2016 14:35 UTC,30.08,76.46,66.2,69.4,4.61,60.0,,,,,,1.0,,,,10.0,,KIGQ 011435Z AUTO 06004KT 10SM CLR 25/19 A3008 RMK AO2  T02470190,,,,,,65.68,,ENE,29.43,28.02,,Clear
KIGQ,08/01/2016 14:55 UTC,30.09,77.9,66.92,65.41,3.44,120.0,,,,,,232.0,,,,10.0,,KIGQ 011455Z AUTO 12003KT 10SM SCT023 26/19 A3009 RMK AO2  T02550194,,,,,,65.35,,ESE,29.44,28.03,,Partly Cloudy
KIGQ,08/01/2016 15:15 UTC,30.09,78.8,65.66,65.41,5.75,110.0,,,,,,253.0,,,,10.0,,KIGQ 011515Z AUTO 11005KT 10SM BKN025 26/19 A3009 RMK AO2  T02600187,,,2500.0,,,66.2,,ESE,29.44,27.97,,Mostly Cloudy
KIGQ,08/01/2016 15:35 UTC,30.09,79.16,64.94,61.44,3.44,80.0,,,,,,252.0,,,,10.0,,KIGQ 011535Z AUTO 08003KT 10SM SCT025 26/18 A3009 RMK AO2  T02620183,,,,,,64.74,,E,29.44,28.06,,Partly Cloudy
KIGQ,08/01/2016 15:55 UTC,30.1,79.88,64.76,57.94,4.61,120.0,,,,,,312.0,,,,10.0,,KIGQ 011555Z AUTO 12004KT 10SM SCT031 27/18 A3010 RMK AO2  T02660182,,,,,,63.74,,ESE,29.45,28.13,,Partly Cloudy
KIGQ,08/01/2016 16:15 UTC,30.11,79.88,63.68,57.94,0.0,0.0,,,,,,332.0,,,,10.0,,KIGQ 011615Z AUTO 00000KT 10SM SCT033 27/18 A3011 RMK AO2  T02660176,,,,,,63.74,,N,29.46,28.14,,Partly Cloudy
KIGQ,08/01/2016 16:35 UTC,30.1,80.42,63.86,57.94,4.61,180.0,,,,,,352.0,,,,10.0,,KIGQ 011635Z AUTO 18004KT 10SM SCT035 27/18 A3010 RMK AO2  T02690177,,,,,,64.25,,S,29.45,28.09,82.07,Partly Cloudy
KIGQ,08/01/2016 16:55 UTC,30.1,81.32,64.04,57.94,3.44,160.0,,,,,,372.0,,,,10.0,,KIGQ 011655Z AUTO 16003KT 10SM SCT037 27/18 A3010 RMK AO2  T02740178,,,,,,65.1,,SSE,29.45,28.02,83.17,Partly Cloudy
KIGQ,08/01/2016 17:15 UTC,30.1,81.5,64.58,54.65,5.75,150.0,,,,,,372.0,,,,10.0,,KIGQ 011715Z AUTO 15005KT 10SM SCT037 28/18 A3010 RMK AO2  T02750181,,,,,,63.59,,SSE,29.45,28.12,82.9,Partly Cloudy
KIGQ,08/01/2016 17:35 UTC,30.09,81.5,63.5,54.65,5.75,80.0,,,,,,393.0,453.0,,,10.0,,KIGQ 011735Z AUTO 08005KT 10SM BKN039 BKN045 28/18 A3009 RMK AO2  T02750175,,,3900.0,,,63.59,,E,29.44,28.11,82.9,Mostly Cloudy
KIGQ,08/01/2016 17:55 UTC,30.09,81.5,66.02,58.18,5.75,60.0,,,,,,412.0,,,,10.0,,KIGQ 011755Z AUTO 06005KT 10SM SCT041 28/19 A3009 RMK AO2  T02750189 10278 20184,82.04,65.12,,,,65.39,,ENE,29.44,27.99,83.44,Partly Cloudy
KIGQ,08/01/2016 18:15 UTC,30.08,81.68,66.02,58.18,6.91,50.0,,,,,,432.0,,,,10.0,,KIGQ 011815Z AUTO 05006KT 10SM SCT043 28/19 A3008 RMK AO2  T02760189,,,,,,65.56,,NE,29.43,27.97,83.67,Partly Cloudy
KIGQ,08/01/2016 18:35 UTC,30.08,81.5,67.1,61.9,8.05,20.0,,,,,,1.0,,,,10.0,,KIGQ 011835Z AUTO 02007KT 10SM CLR 28/20 A3008 RMK AO2  T02750195,,,,,,67.18,,NNE,29.43,27.86,84.05,Clear
KIGQ,08/01/2016 18:55 UTC,30.08,81.14,67.1,65.62,11.5,60.0,,,,,,1.0,,,,10.0,,KIGQ 011855Z AUTO 06010KT 10SM CLR 27/20 A3008 RMK AO2  T02730195,,,,,,68.53,,ENE,29.43,27.76,84.13,Clear
KIGQ,08/01/2016 19:15 UTC,30.08,80.42,66.56,61.67,10.36,60.0,,,,,,1.0,,,,10.0,,KIGQ 011915Z AUTO 06009KT 10SM CLR 27/19 A3008 RMK AO2  T02690192,,,,,,66.04,,ENE,29.43,27.95,82.53,Clear
KIGQ,08/01/2016 19:35 UTC,30.07,80.78,67.1,65.62,10.36,60.0,,,,,,1.0,,,,10.0,,KIGQ 011935Z AUTO 06009KT 10SM CLR 27/20 A3007 RMK AO2  T02710195,,,,,,68.19,,ENE,29.42,27.78,83.57,Clear
KIGQ,08/01/2016 19:55 UTC,30.07,80.24,65.84,61.67,10.36,40.0,,,,,,1.0,,,,10.0,,KIGQ 011955Z AUTO 04009KT 10SM CLR 27/19 A3007 RMK AO2  T02680188,,,,,,65.87,,NE,29.42,27.95,82.3,Clear
KIGQ,08/01/2016 20:15 UTC,30.06,80.42,66.56,61.67,8.05,30.0,,,,,,1.0,,,,10.0,,KIGQ 012015Z AUTO 03007KT 360V060 10SM CLR 27/19 A3006 RMK AO2  T02690192,,,,,,66.04,,NNE,29.41,27.93,82.53,Clear
KIGQ,08/01/2016 20:35 UTC,30.06,80.6,66.2,61.67,8.05,40.0,,,,,,1.0,,,,10.0,,KIGQ 012035Z AUTO 04007KT 10SM CLR 27/19 A3006 RMK AO2  T02700190,,,,,,66.22,,NE,29.41,27.91,82.77,Clear
KIGQ,08/01/2016 20:55 UTC,30.05,80.6,66.02,61.67,9.22,40.0,,,,,,1.0,,,,10.0,,KIGQ 012055Z AUTO 04008KT 10SM CLR 27/19 A3005 RMK AO2  T02700189,,,,,,66.22,,NE,29.4,27.9,82.77,Clear
KIGQ,08/01/2016 21:15 UTC,30.05,80.6,65.84,61.67,8.05,60.0,,,,,,1.0,,,,10.0,,KIGQ 012115Z AUTO 06007KT 10SM CLR 27/19 A3005 RMK AO2  T02700188,,,,,,66.22,,ENE,29.4,27.9,82.77,Clear
KIGQ,08/01/2016 21:35 UTC,30.05,78.8,65.48,65.41,10.36,40.0,,,,,,1.0,,,,10.0,,KIGQ 012135Z AUTO 04009KT 10SM CLR 26/19 A3005 RMK AO2  T02600186,,,,,,66.2,,NE,29.4,27.93,,Clear
KIGQ,08/01/2016 21:55 UTC,30.04,78.8,65.3,65.41,5.75,60.0,,,,,,1.0,,,,10.0,,KIGQ 012155Z AUTO 06005KT 10SM CLR 26/19 A3004 RMK AO2  T02600185,,,,,,66.2,,ENE,29.39,27.92,,Clear
KIGQ,08/01/2016 22:15 UTC,30.04,78.8,65.48,65.41,6.91,40.0,,,,,,1.0,,,,10.0,,KIGQ 012215Z AUTO 04006KT 10SM CLR 26/19 A3004 RMK AO2  T02600186,,,,,,66.2,,NE,29.39,27.92,,Clear
KIGQ,08/01/2016 22:35 UTC,30.03,78.98,64.94,61.44,8.05,40.0,,,,,,1.0,,,,10.0,,KIGQ 012235Z AUTO 04007KT 10SM CLR 26/18 A3003 RMK AO2  T02610183,,,,,,64.57,,NE,29.38,28.01,,Clear
KIGQ,08/01/2016 22:55 UTC,30.04,78.26,65.12,61.44,5.75,50.0,,,,,,1.0,,,,10.0,,KIGQ 012255Z AUTO 05005KT 10SM CLR 26/18 A3004 RMK AO2  T02570184,,,,,,63.89,,NE,29.39,28.07,,Clear
KIGQ,08/01/2016 23:15 UTC,30.03,77.72,64.94,65.2,9.22,40.0,,,,,,1.0,,,,10.0,,KIGQ 012315Z AUTO 04008KT 10SM CLR 25/18 A3003 RMK AO2  T02540183,,,,,,65.08,,NE,29.38,27.99,,Clear
KIGQ,08/01/2016 23:35 UTC,30.03,77.72,65.12,65.2,8.05,40.0,,,,,,1.0,,,,10.0,,KIGQ 012335Z AUTO 04007KT 10SM CLR 25/18 A3003 RMK AO2  T02540184,,,,,,65.08,,NE,29.38,27.99,,Clear
KIGQ,08/01/2016 23:55 UTC,30.04,77.0,64.4,65.2,9.22,50.0,,,,,,1.0,,,,10.0,,KIGQ 012355Z AUTO 05008KT 10SM CLR 25/18 A3004 RMK AO2 T02500180  10280 20250,82.4,77.0,,,,64.4,,NE,29.39,28.06,,Clear
KIGQ,08/02/2016 00:15 UTC,30.04,77.0,63.5,65.2,8.05,50.0,,,,,,1.0,,,,10.0,,KIGQ 020015Z AUTO 05007KT 10SM CLR 25/18 A3004 RMK AO2  T02500175,,,,,,64.4,,NE,29.39,28.06,,Clear
KIGQ,08/02/2016 00:35 UTC,30.05,76.1,63.86,65.2,5.75,40.0,,,,,,1.0,,,,10.0,,KIGQ 020035Z AUTO 04005KT 10SM CLR 25/18 A3005 RMK AO2  T02450177,,,,,,63.54,,NE,29.4,28.13,,Clear
KIGQ,08/02/2016 00:55 UTC,30.05,75.2,63.5,69.21,6.91,40.0,,,,,,1.0,,,,10.0,,KIGQ 020055Z AUTO 04006KT 10SM CLR 24/18 A3005 RMK AO2  T02400175,,,,,,64.39,,NE,29.4,28.09,,Clear
KIGQ,08/02/2016 01:15 UTC,30.06,74.3,63.14,64.98,5.75,40.0,,,,,,1.0,,,,10.0,,KIGQ 020115Z AUTO 04005KT 10SM CLR 24/17 A3006 RMK AO2  T02350173,,,,,,61.73,,NE,29.41,28.27,,Clear
KIGQ,08/02/2016 01:35 UTC,30.06,73.4,64.4,73.5,4.61,40.0,,,,,,1.0,,,,10.0,,KIGQ 020135Z AUTO 04004KT 10SM CLR 23/18 A3006 RMK AO2  T02300180,,,,,,64.38,,NE,29.41,28.12,,Clear
KIGQ,08/02/2016 01:55 UTC,30.06,73.04,65.3,78.24,4.61,40.0,,,,,,1.0,,,,10.0,,KIGQ 020155Z AUTO 04004KT 10SM CLR 23/19 A3006 RMK AO2  T02280185,,,,,,65.83,,NE,29.41,28.03,,Clear
KIGQ,08/02/2016 02:15 UTC,30.08,72.5,65.48,78.24,0.0,0.0,,,,,,1.0,,,,10.0,,KIGQ 020215Z AUTO 00000KT 10SM CLR 23/19 A3008 RMK AO2  T02250186,,,,,,65.31,,N,29.43,28.09,,Clear
KIGQ,08/02/2016 02:35 UTC,30.08,72.86,65.48,78.24,0.0,0.0,,,,,,1.0,,,,10.0,,KIGQ 020235Z AUTO 00000KT 10SM CLR 23/19 A3008 RMK AO2  T02270186,,,,,,65.66,,N,29.43,28.06,,Clear
KIGQ,08/02/2016 02:55 UTC,30.09,72.5,65.84,78.24,3.44,40.0,,,,,,1.0,,,,10.0,,KIGQ 020255Z AUTO 04003KT 10SM CLR 23/19 A3009 RMK AO2  T02250188,,,,,,65.31,,NE,29.44,28.1,,Clear
KIGQ,08/02/2016 03:15 UTC,30.09,72.14,66.38,83.13,4.61,40.0,,,,,,1.0,,,,10.0,,KIGQ 020315Z AUTO 04004KT 10SM CLR 22/19 A3009 RMK AO2  T02230191,,,,,,66.71,,NE,29.44,28.01,,Clear
KIGQ,08/02/2016 03:35 UTC,30.1,71.96,66.56,83.13,4.61,30.0,,,,,,1.0,,,,10.0,,KIGQ 020335Z AUTO 03004KT 10SM CLR 22/19 A3010 RMK AO2  T02220192,,,,,,66.54,,NNE,29.45,28.04,,Clear
KIGQ,08/02/2016 03:55 UTC,30.1,72.5,66.56,78.24,4.61,30.0,,,,,,1.0,,,,10.0,,KIGQ 020355Z AUTO 03004KT 10SM CLR 23/19 A3010 RMK AO2  T02250192,,,,,,65.31,,NNE,29.45,28.11,,Clear
KIGQ,08/02/2016 04:15 UTC,30.1,72.14,67.1,88.46,5.75,40.0,,,,,,1.0,,,,10.0,,KIGQ 020415Z AUTO 04005KT 10SM CLR 22/20 A3010 RMK AO2  T02230195,,,,,,68.52,,NE,29.45,27.9,,Clear
KIGQ,08/02/2016 04:35 UTC,30.1,71.78,66.74,83.13,3.44,50.0,,,,,,1.0,,,,10.0,,KIGQ 020435Z AUTO 05003KT 10SM CLR 22/19 A3010 RMK AO2  T02210193,,,,,,66.36,,NE,29.45,28.05,,Clear
KIGQ,08/02/2016 04:55 UTC,30.11,71.6,66.2,83.13,3.44,50.0,,,,,,1.0,,,,10.0,,KIGQ 020455Z AUTO 05003KT 10SM CLR 22/19 A3011 RMK AO2  T02200190,,,,,,66.18,,NE,29.46,28.08,,Clear
KIGQ,08/02/2016 05:15 UTC,30.1,71.6,66.2,83.13,0.0,0.0,,,,,,1.0,,,,10.0,,KIGQ 020515Z AUTO 00000KT 10SM CLR 22/19 A3010 RMK AO2  T02200190,,,,,,66.18,,N,29.45,28.07,,Clear
KIGQ,08/02/2016 05:35 UTC,30.1,71.06,66.38,83.13,4.61,40.0,,,,,,1.0,,,,10.0,,KIGQ 020535Z AUTO 04004KT 10SM CLR 22/19 A3010 RMK AO2  T02170191,,,,,,65.65,,NE,29.45,28.11,,Clear
KIGQ,08/02/2016 05:55 UTC,30.1,71.06,66.38,83.13,0.0,0.0,,,,,,1.0,,,,10.0,,KIGQ 020555Z AUTO 00000KT 10SM CLR 22/19 A3010 RMK AO2 T02170191  10250 20216 402800158,77.0,70.88,,82.4,60.44,65.65,,N,29.45,28.11,,Clear
KIGQ,08/02/2016 06:15 UTC,30.1,70.88,66.38,83.13,0.0,0.0,,,,,,1.0,,,,10.0,,KIGQ 020615Z AUTO 00000KT 10SM CLR 22/19 A3010 RMK AO2  T02160191,,,,,,65.48,,N,29.45,28.12,,Clear
KIGQ,08/02/2016 06:35 UTC,30.09,70.7,66.56,83.13,0.0,0.0,,,,,,1.0,,,,10.0,,KIGQ 020635Z AUTO 00000KT 10SM CLR 22/19 A3009 RMK AO2  T02150192,,,,,,65.3,,N,29.44,28.13,,Clear
KIGQ,08/02/2016 06:55 UTC,30.09,70.7,66.2,83.13,3.44,50.0,,,,,,1.0,,,,10.0,,KIGQ 020655Z AUTO 05003KT 10SM CLR 22/19 A3009 RMK AO2  T02150190,,,,,,65.3,,NE,29.44,28.13,,Clear
KIGQ,08/02/2016 07:15 UTC,30.09,70.34,66.2,88.37,0.0,0.0,,,,,,1.0,,,,10.0,,KIGQ 020715Z AUTO 00000KT 10SM CLR 21/19 A3009 RMK AO2  T02130190,,,,,,66.72,,N,29.44,28.04,,Clear
KIGQ,08/02/2016 07:35 UTC,30.08,70.16,66.2,88.37,0.0,0.0,,,,,,1.0,,,,10.0,,KIGQ 020735Z AUTO 00000KT 10SM CLR 21/19 A3008 RMK AO2  T02120190,,,,,,66.54,,N,29.43,28.04,,Clear
KIGQ,08/02/2016 07:55 UTC,30.08,69.44,66.02,88.37,0.0,0.0,,,,,,1.0,,,,10.0,,KIGQ 020755Z AUTO 00000KT 10SM CLR 21/19 A3008 RMK AO2  T02080189,,,,,,65.83,,N,29.43,28.1,,Clear
KIGQ,08/02/2016 08:15 UTC,30.07,69.8,66.2,88.37,0.0,0.0,,,,,,1.0,,,,10.0,,KIGQ 020815Z AUTO 00000KT 10SM CLR 21/19 A3007 RMK AO2  T02100190,,,,,,66.19,,N,29.42,28.06,,Clear
KIGQ,08/02/2016 08:35 UTC,30.07,68.36,65.3,93.98,0.0,0.0,,,,,,1.0,,,,10.0,,KIGQ 020835Z AUTO 00000KT 10SM CLR 20/19 A3007 RMK AO2  T02020185,,,,,,66.55,,N,29.42,28.06,,Clear
KIGQ,08/02/2016 08:55 UTC,30.06,68.36,65.12,88.29,3.44,90.0,,,,,,1.0,,,,10.0,,KIGQ 020855Z AUTO 09003KT 10SM CLR 20/18 A3006 RMK AO2  T02020184,,,,,,64.74,,E,29.41,28.16,,Clear
KIGQ,08/02/2016 09:15 UTC,30.06,68.9,64.76,83.01,0.0,0.0,,,,,,1.0,,,,10.0,,KIGQ 020915Z AUTO 00000KT 10SM CLR 21/18 A3006 RMK AO2  T02050182,,,,,,63.5,,N,29.41,28.23,,Clear
KIGQ,08/02/2016 09:35 UTC,30.06,68.54,63.86,88.29,3.44,130.0,,,,,,1.0,,,,10.0,,KIGQ 020935Z AUTO 13003KT 10SM CLR 20/18 A3006 RMK AO2  T02030177,,,,,,64.92,,SE,29.41,28.15,,Clear
KIGQ,08/02/2016 09:55 UTC,30.06,67.28,63.68,88.29,0.0,0.0,,,,,,1.0,,,,10.0,,KIGQ 020955Z AUTO 00000KT 10SM CLR 20/18 A3006 RMK AO2  T01960176,,,,,,63.68,,N,29.41,28.24,,Clear
KIGQ,08/02/2016 10:15 UTC,30.07,67.82,64.04,88.29,0.0,0.0,,,,,,1.0,,,,10.0,,KIGQ 021015Z AUTO 00000KT 10SM CLR 20/18 A3007 RMK AO2  T01990178,,,,,,64.21,,N,29.42,28.21,,Clear
KIGQ,08/02/2016 10:35 UTC,30.07,67.46,64.22,88.29,0.0,0.0,,,,,,1.0,,,,10.0,,KIGQ 021035Z AUTO 00000KT 10SM CLR 20/18 A3007 RMK AO2  T01970179,,,,,,63.85,,N,29.42,28.24,,Clear
KIGQ,08/02/2016 10:55 UTC,30.08,66.38,63.68,93.94,0.0,0.0,,,,,,1.0,,,,10.0,,KIGQ 021055Z AUTO 00000KT 10SM CLR 19/18 A3008 RMK AO2  T01910176,,,,,,64.57,,N,29.43,28.22,,Clear
KIGQ,08/02/2016 11:15 UTC,30.08,67.28,63.68,88.29,0.0,0.0,,,,,,1.0,,,,10.0,,KIGQ 021115Z AUTO 00000KT 10SM CLR 20/18 A3008 RMK AO2  T01960176,,,,,,63.68,,N,29.43,28.26,,Clear
KIGQ,08/02/2016 11:35 UTC,30.09,68.0,63.68,88.29,0.0,0.0,,,,,,432.0,,,,10.0,,KIGQ 021135Z AUTO 00000KT 10SM SCT043 20/18 A3009 RMK AO2  T02000176,,,,,,64.39,,N,29.44,28.22,,Partly Cloudy
KIGQ,08/02/2016 11:55 UTC,30.09,69.08,63.5,83.01,0.0,0.0,,,,,,432.0,,,,10.0,,KIGQ 021155Z AUTO 00000KT 10SM SCT043 21/18 A3009 RMK AO2  T02060175 10217 20190,71.06,66.2,,,,63.67,,N,29.44,28.25,,Partly Cloudy
KIGQ,08/02/2016 12:15 UTC,30.09,70.16,63.68,83.01,0.0,0.0,,,,,,1.0,,,,10.0,,KIGQ 021215Z AUTO 00000KT 10SM CLR 21/18 A3009 RMK AO2  T02120176,,,,,,64.73,,N,29.44,28.17,,Clear
KIGQ,08/02/2016 12:35 UTC,30.1,71.6,64.4,78.09,0.0,0.0,,,,,,1.0,,,,10.0,,KIGQ 021235Z AUTO 00000KT 10SM CLR 22/18 A3010 RMK AO2  T02200180,,,,,,64.38,,N,29.45,28.18,,Clear
KIGQ,08/02/2016 12:55 UTC,30.1,73.4,63.5,73.5,4.61,150.0,,,,,,1.0,,,,10.0,,KIGQ 021255Z AUTO 15004KT 10SM CLR 23/18 A3010 RMK AO2  T02300175,,,,,,64.38,,SSE,29.45,28.16,,Clear
KIGQ,08/02/2016 13:15 UTC,30.1,74.84,63.86,69.21,3.44,130.0,,,,,,1.0,,,,10.0,,KIGQ 021315Z AUTO 13003KT 10SM CLR 24/18 A3010 RMK AO2  T02380177,,,,,,64.04,,SE,29.45,28.16,,Clear
KIGQ,08/02/2016 13:35 UTC,30.1,76.46,64.4,65.2,3.44,130.0,,,,,,1.0,,,,10.0,,KIGQ 021335Z AUTO 13003KT 10SM CLR 25/18 A3010 RMK AO2  T02470180,,,,,,63.88,,SE,29.45,28.16,,Clear
KIGQ,08/02/2016 13:55 UTC,30.1,77.9,65.66,65.41,3.44,140.0,,,,,,1.0,,,,10.0,,KIGQ 021355Z AUTO 14003KT 10SM CLR 26/19 A3010 RMK AO2  T02550187,,,,,,65.35,,SE,29.45,28.04,,Clear
KIGQ,08/02/2016 14:15 UTC,30.09,79.16,65.3,65.41,5.75,120.0,,,,,,1.0,,,,10.0,,KIGQ 021415Z AUTO 12005KT 10SM CLR 26/19 A3009 RMK AO2  T02620185,,,,,,66.55,,ESE,29.44,27.94,,Clear
KIGQ,08/02/2016 14:35 UTC,30.09,79.88,64.76,57.94,6.91,160.0,,,,,,1.0,,,,10.0,,KIGQ 021435Z AUTO 16006KT 10SM CLR 27/18 A3009 RMK AO2  T02660182,,,,,,63.74,,SSE,29.44,28.12,,Clear
KIGQ,08/02/2016 14:55 UTC,30.1,80.78,65.12,57.94,5.75,170.0,,,,,,1202.0,,,,10.0,,KIGQ 021455Z AUTO 17005KT 10SM SCT120 27/18 A3010 RMK AO2  T02710184,,,,,,64.59,,S,29.45,28.06,82.5,Partly Cloudy
KIGQ,08/02/2016 15:15 UTC,30.1,81.68,66.38,58.18,5.75,170.0,,,,,,1203.0,,,,10.0,,KIGQ 021515Z AUTO 17005KT 10SM BKN120 28/19 A3010 RMK AO2  T02760191,,,12000.0,,,65.56,,S,29.45,27.99,83.67,Mostly Cloudy
KIGQ,08/02/2016 15:35 UTC,30.11,81.68,65.48,58.18,3.44,160.0,,,,,,1204.0,,,,10.0,,KIGQ 021535Z AUTO 16003KT 10SM OVC120 28/19 A3011 RMK AO2  T02760186,,,12000.0,,,65.56,,SSE,29.46,28.0,83.67,Overcast
KIGQ,08/02/2016 15:55 UTC,30.11,82.04,66.56,58.18,5.75,190.0,,,,,,1204.0,,,,10.0,,KIGQ 021555Z AUTO 19005KT 10SM OVC120 28/19 A3011 RMK AO2  T02780192,,,12000.0,,,65.89,,S,29.46,27.97,84.16,Overcast
KIGQ,08/02/2016 16:15 UTC,30.12,83.12,66.2,58.18,4.61,210.0,,,,,,1203.0,,,,10.0,,KIGQ 021615Z AUTO 21004KT 10SM BKN120 28/19 A3012 RMK AO2  T02840190,,,12000.0,,,66.91,,SSW,29.47,27.9,85.69,Mostly Cloudy
KIGQ,08/02/2016 16:35 UTC,30.12,83.48,64.58,51.58,4.61,190.0,,,,,,1202.0,,,,10.0,,KIGQ 021635Z AUTO 19004KT 10SM SCT120 29/18 A3012 RMK AO2  T02860181,,,,,,63.79,,S,29.47,28.11,84.79,Partly Cloudy
KIGQ,08/02/2016 16:55 UTC,30.11,83.48,64.58,51.58,0.0,0.0,,,,,,432.0,,,,10.0,,KIGQ 021655Z AUTO 00000KT 10SM SCT043 29/18 A3011 RMK AO2  T02860181,,,,,,63.79,,N,29.46,28.1,84.79,Partly Cloudy
KIGQ,08/02/2016 17:15 UTC,30.11,84.38,63.86,51.58,0.0,0.0,,,,,,1.0,,,,10.0,,KIGQ 021715Z AUTO 00000KT 10SM CLR 29/18 A3011 RMK AO2  T02910177,,,,,,64.62,,N,29.46,28.03,85.99,Clear
KIGQ,08/02/2016 17:35 UTC,30.1,84.74,63.32,48.42,0.0,0.0,,,,,,1.0,,,,10.0,,KIGQ 021735Z AUTO 00000KT 10SM CLR 29/17 A3010 RMK AO2  T02930174,,,,,,63.15,,N,29.45,28.12,85.74,Clear
KIGQ,08/02/2016 17:55 UTC,30.1,85.28,64.58,48.69,0.0,0.0,,,,,,1.0,,,,10.0,,KIGQ 021755Z AUTO 00000KT 10SM CLR 30/18 A3010 RMK AO2 T02960181  10297 20206,85.46,69.08,,,,63.81,,N,29.45,28.07,86.52,Clear
KIGQ,08/02/2016 18:15 UTC,30.1,86.0,64.76,48.69,0.0,0.0,,,,,,1.0,,,,10.0,,KIGQ 021815Z AUTO 00000KT 10SM CLR 30/18 A3010 RMK AO2  T03000182,,,,,,64.47,,N,29.45,28.02,87.52,Clear
KIGQ,08/02/2016 18:35 UTC,30.09,86.0,64.4,48.69,4.61,170.0,,,,,,1.0,,,,10.0,,KIGQ 021835Z AUTO 17004KT 10SM CLR 30/18 A3009 RMK AO2  T03000180,,,,,,64.47,,S,29.44,28.01,87.52,Clear
KIGQ,08/02/2016 18:55 UTC,30.09,86.36,62.96,45.72,0.0,0.0,,,,,,1.0,,,,10.0,,KIGQ 021855Z AUTO 00000KT 10SM CLR 30/17 A3009 RMK AO2  T03020172,,,,,,63.01,,N,29.44,28.1,87.23,Clear
KIGQ,08/02/2016 19:15 UTC,30.08,85.1,64.76,48.69,6.91,170.0,,,853.0,,,603.0,752.0,,,10.0,,KIGQ 021915Z AUTO 17006KT 10SM BKN060 SCT075 BKN085 30/18  A3008 RMK AO2 T02950182,,,6000.0,,,63.64,,S,29.43,28.06,86.28,Mostly Cloudy
KIGQ,08/02/2016 19:35 UTC,30.08,85.1,65.48,51.84,5.75,140.0,,,753.0,,,502.0,603.0,,,10.0,,KIGQ 021935Z AUTO 14005KT 10SM SCT050 BKN060 BKN075 30/19  A3008 RMK AO2 T02950186,,,6000.0,,,65.44,,SE,29.43,27.94,87.07,Mostly Cloudy
KIGQ,08/02/2016 19:55 UTC,30.08,85.82,65.3,51.84,3.44,130.0,,,853.0,,,462.0,502.0,,,10.0,,KIGQ 021955Z AUTO 13003KT 10SM SCT046 SCT050 BKN085 30/19  A3008 RMK AO2 T02990185,,,8500.0,,,66.11,,SE,29.43,27.89,88.14,Mostly Cloudy
KIGQ,08/02/2016 20:15 UTC,30.07,84.56,65.12,51.58,4.61,130.0,,,,,,463.0,804.0,,,10.0,,KIGQ 022015Z AUTO 13004KT 10SM BKN046 OVC080 29/18 A3007 RMK AO2  T02920184,,,4600.0,,,64.79,,SE,29.42,27.98,86.23,Overcast
KIGQ,08/02/2016 20:35 UTC,30.06,83.66,64.76,51.58,0.0,0.0,,,,,,484.0,,,,10.0,,KIGQ 022035Z AUTO 00000KT 10SM OVC048 29/18 A3006 RMK AO2  T02870182,,,4800.0,,,63.96,,N,29.41,28.03,85.02,Overcast
KIGQ,08/02/2016 20:55 UTC,30.06,83.84,65.84,54.9,5.75,120.0,,,,,,463.0,504.0,,,10.0,,KIGQ 022055Z AUTO 12005KT 10SM BKN046 OVC050 29/19 A3006 RMK AO2  T02880188,,,4600.0,,,65.91,,ESE,29.41,27.9,86.0,Overcast
KIGQ,08/02/2016 21:15 UTC,30.06,82.76,65.12,54.65,6.91,120.0,,,,,,504.0,,,,10.0,,KIGQ 022115Z AUTO 12006KT 10SM OVC050 28/18 A3006 RMK AO2  T02820184,,,5000.0,,,64.77,,ESE,29.41,27.99,84.46,Overcast
KIGQ,08/02/2016 21:35 UTC,30.05,82.94,65.12,54.65,4.61,130.0,,,854.0,,,503.0,703.0,,,10.0,,KIGQ 022135Z AUTO 13004KT 10SM BKN050 BKN070 OVC085 28/18  A3005 RMK AO2 T02830184,,,5000.0,,,64.94,,SE,29.4,27.97,84.7,Overcast
KIGQ,08/02/2016 21:55 UTC,30.05,82.58,66.02,58.18,0.0,0.0,,,853.0,,,502.0,703.0,,,10.0,,KIGQ 022155Z AUTO 00000KT 10SM SCT050 BKN070 BKN085 28/19  A3005 RMK AO2 T02810189,,,7000.0,,,66.4,,N,29.4,27.87,84.91,Mostly Cloudy
KIGQ,08/02/2016 22:15 UTC,30.04,83.3,65.48,54.9,3.44,110.0,,,,,,703.0,,,,10.0,,KIGQ 022215Z AUTO 11003KT 10SM BKN070 29/19 A3004 RMK AO2  T02850186,,,7000.0,,,65.41,,ESE,29.39,27.92,85.24,Mostly Cloudy
KIGQ,08/02/2016 22:35 UTC,30.04,84.56,65.84,54.9,6.91,40.0,,,,,,702.0,,,,10.0,,KIGQ 022235Z AUTO 04006KT 10SM SCT070 29/19 A3004 RMK AO2  T02920188,,,,,,66.58,,NE,29.39,27.83,87.07,Partly Cloudy
KIGQ,08/02/2016 22:55 UTC,30.04,84.02,65.66,54.9,6.91,70.0,,,,,,1.0,,,,10.0,,KIGQ 022255Z AUTO 07006KT 10SM CLR 29/19 A3004 RMK AO2  T02890187,,,,,,66.08,,ENE,29.39,27.87,86.26,Clear
KIGQ,08/02/2016 23:15 UTC,30.04,83.3,65.12,51.58,6.91,40.0,,,,,,1.0,,,,10.0,,KIGQ 022315Z AUTO 04006KT 10SM CLR 29/18 A3004 RMK AO2  T02850184,,,,,,63.62,,NE,29.39,28.04,84.56,Clear
KIGQ,08/02/2016 23:35 UTC,30.04,82.76,64.58,54.65,6.91,60.0,,,,,,1.0,,,,10.0,,KIGQ 022335Z AUTO 06006KT 10SM CLR 28/18 A3004 RMK AO2  T02820181,,,,,,64.77,,ENE,29.39,27.97,84.46,Clear
KIGQ,08/02/2016 23:55 UTC,30.04,81.68,64.4,54.65,6.91,50.0,,,,,,1.0,,,,10.0,,KIGQ 022355Z AUTO 05006KT 10SM CLR 28/18 A3004 RMK AO2 T02760180  10302 20276,86.36,81.68,,,,63.76,,NE,29.39,28.05,83.11,Clear
KIGQ,08/03/2016 00:15 UTC,30.03,80.78,64.4,57.94,5.75,40.0,,,,,,1.0,,,,10.0,,KIGQ 030015Z AUTO 04005KT 10SM CLR 27/18 A3003 RMK AO2  T02710180,,,,,,64.59,,NE,29.38,27.99,82.5,Clear
KIGQ,08/03/2016 00:35 UTC,30.04,80.24,64.4,57.94,4.61,40.0,,,,,,1.0,,,,10.0,,KIGQ 030035Z AUTO 04004KT 10SM CLR 27/18 A3004 RMK AO2  T02680180,,,,,,64.08,,NE,29.39,28.04,81.86,Clear
KIGQ,08/03/2016 00:55 UTC,30.04,79.52,64.4,61.44,0.0,0.0,,,,,,1.0,,,,10.0,,KIGQ 030055Z AUTO 00000KT 10SM CLR 26/18 A3004 RMK AO2  T02640180,,,,,,65.08,,N,29.39,27.98,,Clear
KIGQ,08/03/2016 01:15 UTC,30.04,78.98,64.58,61.44,0.0,0.0,,,,,,1.0,,,,10.0,,KIGQ 030115Z AUTO 00000KT 10SM CLR 26/18 A3004 RMK AO2  T02610181,,,,,,64.57,,N,29.39,28.02,,Clear
KIGQ,08/03/2016 01:35 UTC,30.04,78.26,63.32,57.69,3.44,80.0,,,,,,1.0,,,,10.0,,KIGQ 030135Z AUTO 08003KT 10SM CLR 26/17 A3004 RMK AO2  T02570174,,,,,,62.1,,E,29.39,28.18,,Clear
KIGQ,08/03/2016 01:55 UTC,30.05,78.44,63.5,61.44,0.0,0.0,,,,,,1.0,,,,10.0,,KIGQ 030155Z AUTO 00000KT 10SM CLR 26/18 A3005 RMK AO2  T02580175,,,,,,64.06,,N,29.4,28.07,,Clear
KIGQ,08/03/2016 02:15 UTC,30.05,77.9,63.68,61.44,0.0,0.0,,,,,,1.0,,,,10.0,,KIGQ 030215Z AUTO 00000KT 10SM CLR 26/18 A3005 RMK AO2  T02550176,,,,,,63.55,,N,29.4,28.11,,Clear
KIGQ,08/03/2016 02:35 UTC,30.06,77.0,64.4,65.2,0.0,0.0,,,,,,1.0,,,,10.0,,KIGQ 030235Z AUTO 00000KT 10SM CLR 25/18 A3006 RMK AO2  T02500180,,,,,,64.4,,N,29.41,28.08,,Clear
KIGQ,08/03/2016 02:55 UTC,30.07,76.28,64.94,65.2,0.0,0.0,,,,,,1.0,,,,7.0,,KIGQ 030255Z AUTO 00000KT 7SM CLR 25/18 A3007 RMK AO2  T02460183,,,,,,63.71,,N,29.42,28.14,,Clear
KIGQ,08/03/2016 03:15 UTC,30.06,75.74,64.76,69.21,0.0,0.0,,,,,,1.0,,,,10.0,,KIGQ 030315Z AUTO 00000KT 10SM CLR 24/18 A3006 RMK AO2  T02430182,,,,,,64.91,,N,29.41,28.06,,Clear
KIGQ,08/03/2016 03:35 UTC,30.07,74.48,64.76,69.21,0.0,0.0,,,,,,1.0,,,,10.0,,KIGQ 030335Z AUTO 00000KT 10SM CLR 24/18 A3007 RMK AO2  T02360182,,,,,,63.7,,N,29.42,28.16,,Clear
KIGQ,08/03/2016 03:55 UTC,30.08,71.06,65.3,83.13,0.0,0.0,,,,,,1.0,,,,10.0,,KIGQ 030355Z AUTO 00000KT 10SM CLR 22/19 A3008 RMK AO2  T02170185,,,,,,65.65,,N,29.43,28.09,,Clear
KIGQ,08/03/2016 04:15 UTC,30.08,73.58,65.3,78.24,0.0,0.0,,,,,,1.0,,,,10.0,,KIGQ 030415Z AUTO 00000KT 10SM CLR 23/19 A3008 RMK AO2  T02310185,,,,,,66.36,,N,29.43,28.01,,Clear
KIGQ,08/03/2016 04:35 UTC,30.08,72.68,65.3,78.24,0.0,0.0,,,,,,1.0,,,,10.0,,KIGQ 030435Z AUTO 00000KT 10SM CLR 23/19 A3008 RMK AO2  T02260185,,,,,,65.48,,N,29.43,28.08,,Clear
KIGQ,08/03/2016 04:55 UTC,30.08,70.52,65.66,88.37,0.0,0.0,,,,,,1.0,,,,10.0,,KIGQ 030455Z AUTO 00000KT 10SM CLR 21/19 A3008 RMK AO2  T02140187,,,,,,66.9,,N,29.43,28.01,,Clear
KIGQ,08/03/2016 05:15 UTC,30.08,71.06,65.48,83.13,0.0,0.0,,,,,,1.0,,,,10.0,,KIGQ 030515Z AUTO 00000KT 10SM CLR 22/19 A3008 RMK AO2  T02170186,,,,,,65.65,,N,29.43,28.09,,Clear
KIGQ,08/03/2016 05:35 UTC,30.08,70.34,65.3,88.37,0.0,0.0,,,,,,1.0,,,,10.0,,KIGQ 030535Z AUTO 00000KT 10SM CLR 21/19 A3008 RMK AO2  T02130185,,,,,,66.72,,N,29.43,28.03,,Clear
KIGQ,08/03/2016 05:55 UTC,30.08,69.26,65.48,88.37,0.0,0.0,,,,,,1.0,,,,10.0,,KIGQ 030555Z AUTO 00000KT 10SM CLR 21/19 A3008 RMK AO2 T02070186  10275 20205 403020190,81.5,68.9,,86.36,66.2,65.65,,N,29.43,28.11,,Clear
KIGQ,08/03/2016 06:15 UTC,30.07,70.7,65.48,83.13,0.0,0.0,,,,,,1.0,,,,10.0,,KIGQ 030615Z AUTO 00000KT 10SM CLR 22/19 A3007 RMK AO2  T02150186,,,,,,65.3,,N,29.42,28.11,,Clear
KIGQ,08/03/2016 06:35 UTC,30.07,70.7,65.48,83.13,0.0,0.0,,,,,,1.0,,,,10.0,,KIGQ 030635Z AUTO 00000KT 10SM CLR 22/19 A3007 RMK AO2  T02150186,,,,,,65.3,,N,29.42,28.11,,Clear
KIGQ,08/03/2016 06:55 UTC,30.07,69.62,65.48,88.37,0.0,0.0,,,,,,1.0,,,,10.0,,KIGQ 030655Z AUTO 00000KT 10SM CLR 21/19 A3007 RMK AO2  T02090186,,,,,,66.01,,N,29.42,28.07,,Clear
KIGQ,08/03/2016 07:15 UTC,30.06,69.44,65.3,88.37,0.0,0.0,,,,,,1.0,,,,10.0,,KIGQ 030715Z AUTO 00000KT 10SM CLR 21/19 A3006 RMK AO2  T02080185,,,,,,65.83,,N,29.41,28.08,,Clear
KIGQ,08/03/2016 07:35 UTC,30.06,68.18,64.58,88.29,0.0,0.0,,,,,,1.0,,,,10.0,,KIGQ 030735Z AUTO 00000KT 10SM CLR 20/18 A3006 RMK AO2  T02010181,,,,,,64.56,,N,29.41,28.17,,Clear
KIGQ,08/03/2016 07:55 UTC,30.06,68.9,65.3,88.37,0.0,0.0,,,,,,1.0,,,,10.0,,KIGQ 030755Z AUTO 00000KT 10SM CLR 21/19 A3006 RMK AO2  T02050185,,,,,,65.3,,N,29.41,28.12,,Clear
KIGQ,08/03/2016 08:15 UTC,30.06,69.08,65.48,88.37,0.0,0.0,,,,,,1.0,,,,10.0,,KIGQ 030815Z AUTO 00000KT 10SM CLR 21/19 A3006 RMK AO2  T02060186,,,,,,65.48,,N,29.41,28.11,,Clear
KIGQ,08/03/2016 08:35 UTC,30.06,68.72,65.66,93.98,0.0,0.0,,,,,,1.0,,,,10.0,,KIGQ 030835Z AUTO 00000KT 10SM CLR 20/19 A3006 RMK AO2  T02040187,,,,,,66.91,,N,29.41,28.02,,Clear
KIGQ,08/03/2016 08:55 UTC,30.06,68.0,65.12,88.29,0.0,0.0,,,,,,1.0,,,,10.0,,KIGQ 030855Z AUTO 00000KT 10SM CLR 20/18 A3006 RMK AO2  T02000184,,,,,,64.39,,N,29.41,28.19,,Clear
KIGQ,08/03/2016 09:15 UTC,30.06,66.74,64.4,93.94,0.0,0.0,,,,,,1.0,,,,7.0,,KIGQ 030915Z AUTO 00000KT 7SM CLR 19/18 A3006 RMK AO2  T01930180,,,,,,64.93,,N,29.41,28.17,,Clear
KIGQ,08/03/2016 09:35 UTC,30.05,67.46,64.76,88.29,0.0,0.0,,,,,,1.0,,,,10.0,,KIGQ 030935Z AUTO 00000KT 10SM CLR 20/18 A3005 RMK AO2  T01970182,,,,,,63.85,,N,29.4,28.22,,Clear
KIGQ,08/03/2016 09:55 UTC,30.05,68.0,65.3,93.98,0.0,0.0,,,,,,1.0,,,,7.0,,KIGQ 030955Z AUTO 00000KT 7SM CLR 20/19 A3005 RMK AO2  T02000185,,,,,,66.19,,N,29.4,28.07,,Clear
KIGQ,08/03/2016 10:15 UTC,30.06,68.0,66.2,93.98,0.0,0.0,,,,,,1.0,,,,7.0,,KIGQ 031015Z AUTO 00000KT 7SM CLR 20/19 A3006 RMK AO2  T02000190,,,,,,66.19,,N,29.41,28.08,,Clear
KIGQ,08/03/2016 10:35 UTC,30.06,68.36,65.66,93.98,0.0,0.0,,,,,,1.0,,,,10.0,,KIGQ 031035Z AUTO 00000KT 10SM CLR 20/19 A3006 RMK AO2  T02020187,,,,,,66.55,,N,29.41,28.05,,Clear
KIGQ,08/03/2016 10:55 UTC,30.06,67.46,65.3,93.98,0.0,0.0,,,,,,1.0,,,,10.0,,KIGQ 031055Z AUTO 00000KT 10SM CLR 20/19 A3006 RMK AO2  T01970185,,,,,,65.65,,N,29.41,28.12,,Clear
KIGQ,08/03/2016 11:15 UTC,30.06,69.26,64.94,83.01,0.0,0.0,,,,,,1.0,,,,10.0,,KIGQ 031115Z AUTO 00000KT 10SM CLR 21/18 A3006 RMK AO2  T02070183,,,,,,63.85,,N,29.41,28.2,,Clear
KIGQ,08/03/2016 11:35 UTC,30.08,68.9,65.12,83.01,0.0,0.0,,,,,,1.0,,,,10.0,,KIGQ 031135Z AUTO 00000KT 10SM CLR 21/18 A3008 RMK AO2  T02050184,,,,,,63.5,,N,29.43,28.25,,Clear
KIGQ,08/03/2016 11:55 UTC,30.08,69.98,66.2,88.37,0.0,0.0,,,,,,1.0,,,,10.0,,KIGQ 031155Z AUTO 00000KT 10SM CLR 21/19 A3008 RMK AO2 T02110190  10216 20192,70.88,66.56,,,,66.36,,N,29.43,28.06,,Clear
KIGQ,08/03/2016 12:15 UTC,30.08,71.42,66.02,83.13,0.0,0.0,,,,,,1.0,,,,10.0,,KIGQ 031215Z AUTO 00000KT 10SM CLR 22/19 A3008 RMK AO2  T02190189,,,,,,66.01,,N,29.43,28.06,,Clear
KIGQ,08/03/2016 12:35 UTC,30.09,72.32,66.74,83.13,0.0,0.0,,,,,,1.0,,,,10.0,,KIGQ 031235Z AUTO 00000KT 10SM CLR 22/19 A3009 RMK AO2  T02240193,,,,,,66.89,,N,29.44,28.0,,Clear
KIGQ,08/03/2016 12:55 UTC,30.09,73.4,66.56,78.24,0.0,0.0,,,,,,1.0,,,,10.0,,KIGQ 031255Z AUTO 00000KT 10SM CLR 23/19 A3009 RMK AO2  T02300192,,,,,,66.18,,N,29.44,28.03,,Clear
KIGQ,08/03/2016 13:15 UTC,30.09,75.2,66.2,73.67,0.0,0.0,,,,,,1.0,,,,10.0,,KIGQ 031315Z AUTO 00000KT 10SM CLR 24/19 A3009 RMK AO2  T02400190,,,,,,66.19,,N,29.44,28.01,,Clear
KIGQ,08/03/2016 13:35 UTC,30.09,77.36,67.28,73.85,0.0,0.0,,,,,,1.0,,,,10.0,,KIGQ 031335Z AUTO 00000KT 10SM CLR 25/20 A3009 RMK AO2  T02520196,,,,,,68.35,,N,29.44,27.83,,Clear
KIGQ,08/03/2016 13:55 UTC,30.09,78.98,67.28,69.6,0.0,0.0,,,,,,1.0,,,,10.0,,KIGQ 031355Z AUTO 00000KT 10SM CLR 26/20 A3009 RMK AO2  T02610196,,,,,,68.18,,N,29.44,27.83,,Clear
KIGQ,08/03/2016 14:15 UTC,30.08,80.6,66.74,61.67,0.0,0.0,,,,,,1.0,,,,10.0,,KIGQ 031415Z AUTO 00000KT 10SM CLR 27/19 A3008 RMK AO2  T02700193,,,,,,66.22,,N,29.43,27.93,82.77,Clear
KIGQ,08/03/2016 14:35 UTC,30.08,81.5,67.28,61.9,4.61,150.0,,,,,,1.0,,,,10.0,,KIGQ 031435Z AUTO 15004KT 10SM CLR 28/20 A3008 RMK AO2  T02750196,,,,,,67.18,,SSE,29.43,27.86,84.05,Clear
KIGQ,08/03/2016 14:55 UTC,30.08,82.22,66.74,58.18,4.61,140.0,,,,,,1.0,,,,10.0,,KIGQ 031455Z AUTO 14004KT 10SM CLR 28/19 A3008 RMK AO2  T02790193,,,,,,66.06,,SE,29.43,27.93,84.4,Clear
KIGQ,08/03/2016 15:15 UTC,30.08,82.76,67.46,61.9,5.75,170.0,,,,,,1.0,,,,10.0,,KIGQ 031515Z AUTO 17005KT 10SM CLR 28/20 A3008 RMK AO2  T02820197,,,,,,68.37,,S,29.43,27.76,85.96,Clear
KIGQ,08/03/2016 15:35 UTC,30.09,83.3,66.56,54.9,0.0,0.0,,,,,,1.0,,,,10.0,,KIGQ 031535Z AUTO 00000KT 10SM CLR 29/19 A3009 RMK AO2  T02850192,,,,,,65.41,,N,29.44,27.97,85.24,Clear
KIGQ,08/03/2016 15:55 UTC,30.08,84.38,65.66,54.9,5.75,130.0,,,,,,1.0,,,,10.0,,KIGQ 031555Z AUTO 13005KT 10SM CLR 29/19 A3008 RMK AO2  T02910187,,,,,,66.42,,SE,29.43,27.88,86.8,Clear
KIGQ,08/03/2016 16:15 UTC,30.08,84.02,65.12,51.58,5.75,150.0,,,,,,1.0,,,,10.0,,KIGQ 031615Z AUTO 15005KT 10SM CLR 29/18 A3008 RMK AO2  T02890184,,,,,,64.29,,SSE,29.43,28.03,85.5,Clear
KIGQ,08/03/2016 16:35 UTC,30.08,84.02,65.12,51.58,0.0,0.0,,,,,,442.0,502.0,,,10.0,,KIGQ 031635Z AUTO 00000KT 10SM SCT044 SCT050 29/18 A3008 RMK AO2  T02890184,,,,,,64.29,,N,29.43,28.03,85.5,Partly Cloudy
KIGQ,08/03/2016 16:55 UTC,30.07,85.46,66.2,51.84,5.75,140.0,,,,,,422.0,502.0,,,10.0,,KIGQ 031655Z AUTO 14005KT 10SM SCT042 SCT050 30/19 A3007 RMK AO2  T02970190,,,,,,65.77,,SE,29.42,27.9,87.6,Partly Cloudy
KIGQ,08/03/2016 17:15 UTC,30.06,85.46,64.22,48.69,5.75,190.0,,,,,,472.0,,,,10.0,,KIGQ 031715Z AUTO 19005KT 10SM SCT047 30/18 A3006 RMK AO2  T02970179,,,,,,63.98,,S,29.41,28.02,86.77,Partly Cloudy
KIGQ,08/03/2016 17:35 UTC,30.06,85.28,65.12,48.69,5.75,200.0,,,,,,472.0,,,,10.0,,KIGQ 031735Z AUTO 20005KT 10SM SCT047 30/18 A3006 RMK AO2  T02960184,,,,,,63.81,,SSW,29.41,28.03,86.52,Partly Cloudy
KIGQ,08/03/2016 17:55 UTC,30.06,85.82,65.12,48.69,5.75,210.0,,,,,,493.0,,,,10.0,,KIGQ 031755Z AUTO 21005KT 10SM BKN049 30/18 A3006 RMK AO2  T02990184 10300 20212,86.0,70.16,4900.0,,,64.31,,SSW,29.41,27.99,87.27,Mostly Cloudy
KIGQ,08/03/2016 18:15 UTC,30.06,86.0,64.22,48.69,6.91,140.0,,,,,,493.0,,,,10.0,,KIGQ 031815Z AUTO 14006KT 10SM BKN049 30/18 A3006 RMK AO2  T03000179,,,4900.0,,,64.47,,SE,29.41,27.98,87.52,Mostly Cloudy
KIGQ,08/03/2016 18:35 UTC,30.05,87.08,64.94,45.99,6.91,140.0,,,,,,492.0,,,,10.0,,KIGQ 031835Z AUTO 14006KT 10SM SCT049 31/18 A3005 RMK AO2  T03060183,,,,,,63.84,,SE,29.4,28.0,88.31,Partly Cloudy
KIGQ,08/03/2016 18:55 UTC,30.05,85.1,63.86,48.69,0.0,0.0,,,,,,492.0,,,,10.0,,KIGQ 031855Z AUTO 00000KT 10SM SCT049 30/18 A3005 RMK AO2  T02950177,,,,,,63.64,,N,29.4,28.03,86.28,Partly Cloudy
KIGQ,08/03/2016 19:15 UTC,30.04,85.82,63.32,45.72,4.61,60.0,,,,,,493.0,,,,10.0,,KIGQ 031915Z AUTO 06004KT 10SM BKN049 30/17 A3004 RMK AO2  T02990174,,,4900.0,,,62.52,,ENE,29.39,28.09,86.51,Mostly Cloudy
KIGQ,08/03/2016 19:35 UTC,30.04,86.0,64.76,48.69,5.75,140.0,,,,,,493.0,,,,10.0,,KIGQ 031935Z AUTO 14005KT 10SM BKN049 30/18 A3004 RMK AO2  T03000182,,,4900.0,,,64.47,,SE,29.39,27.96,87.52,Mostly Cloudy
KIGQ,08/03/2016 19:55 UTC,30.03,87.26,64.22,45.99,5.75,190.0,,,,,,492.0,,,,10.0,,KIGQ 031955Z AUTO 19005KT 10SM SCT049 31/18 A3003 RMK AO2  T03070179,,,,,,64.0,,S,29.38,27.97,88.57,Partly Cloudy
KIGQ,08/03/2016 20:15 UTC,30.03,87.08,63.5,45.99,3.44,180.0,,,,,,553.0,,,,10.0,,KIGQ 032015Z AUTO 18003KT 10SM BKN055 31/18 A3003 RMK AO2  T03060175,,,5500.0,,,63.84,,S,29.38,27.98,88.31,Mostly Cloudy
KIGQ,08/03/2016 20:35 UTC,30.03,87.98,63.68,45.99,5.75,140.0,,,,,,553.0,,,,10.0,,KIGQ 032035Z AUTO 14005KT 10SM BKN055 31/18 A3003 RMK AO2  T03110176,,,5500.0,,,64.66,,SE,29.38,27.92,89.64,Mostly Cloudy
KIGQ,08/03/2016 20:55 UTC,30.03,87.98,63.5,45.99,3.44,210.0,,,,,,553.0,,,,10.0,,KIGQ 032055Z AUTO 21003KT 10SM BKN055 31/18 A3003 RMK AO2  T03110175,,,5500.0,,,64.66,,SSW,29.38,27.92,89.64,Mostly Cloudy
KIGQ,08/03/2016 21:15 UTC,30.02,88.7,62.96,40.8,0.0,0.0,,,,,,553.0,,,,10.0,,KIGQ 032115Z AUTO 00000KT 10SM BKN055 32/17 A3002 RMK AO2  T03150172,,,5500.0,,,61.92,,N,29.37,28.08,89.07,Mostly Cloudy
KIGQ,08/03/2016 21:35 UTC,30.02,86.18,63.68,47.21,5.75,160.0,,,,,,552.0,,,,10.0,,KIGQ 032135Z AUTO 16005KT 10SM SCT055 30/18 A3002 RMK AO2  T03010176,,,,,,63.76,,SSE,29.37,27.98,87.38,Partly Cloudy
KIGQ,08/03/2016 21:55 UTC,30.02,87.8,63.32,44.29,0.0,0.0,,,,,,1.0,,,,10.0,,KIGQ 032155Z AUTO 00000KT 10SM CLR 31/17 A3002 RMK AO2  T03100174,,,,,,63.43,,N,29.37,27.99,88.84,Clear
KIGQ,08/03/2016 22:15 UTC,30.02,87.26,62.96,43.18,0.0,0.0,,,,,,1.0,,,,10.0,,KIGQ 032215Z AUTO 00000KT 10SM CLR 31/17 A3002 RMK AO2  T03070172,,,,,,62.21,,N,29.37,28.07,87.77,Clear
KIGQ,08/03/2016 22:35 UTC,30.02,87.26,63.68,45.99,0.0,0.0,,,,,,1.0,,,,10.0,,KIGQ 032235Z AUTO 00000KT 10SM CLR 31/18 A3002 RMK AO2  T03070176,,,,,,64.0,,N,29.37,27.96,88.57,Clear
KIGQ,08/03/2016 22:55 UTC,30.01,86.54,63.14,45.72,4.61,130.0,,,,,,1.0,,,,10.0,,KIGQ 032255Z AUTO 13004KT 10SM CLR 30/17 A3001 RMK AO2  T03030173,,,,,,63.18,,SE,29.36,28.01,87.48,Clear
KIGQ,08/03/2016 23:15 UTC,30.01,86.0,65.3,51.84,5.75,210.0,,,,,,1.0,,,,10.0,,KIGQ 032315Z AUTO 21005KT 10SM CLR 30/19 A3001 RMK AO2  T03000185,,,,,,66.27,,SSW,29.36,27.8,88.42,Clear
KIGQ,08/03/2016 23:35 UTC,30.01,84.92,66.92,54.9,5.75,210.0,,,,,,1.0,,,,10.0,,KIGQ 032335Z AUTO 21005KT 10SM CLR 29/19 A3001 RMK AO2  T02940194,,,,,,66.92,,SSW,29.36,27.77,87.62,Clear
KIGQ,08/03/2016 23:55 UTC,30.01,84.38,66.56,54.9,3.44,220.0,,,,,,482.0,,,,10.0,,KIGQ 032355Z AUTO 22003KT 10SM SCT048 29/19 A3001 RMK AO2  T02910192 10315 20291,88.7,84.38,,,,66.42,,SW,29.36,27.81,86.8,Partly Cloudy
KIGQ,08/04/2016 00:15 UTC,30.01,83.84,65.66,54.9,3.44,220.0,,,,,,1.0,,,,10.0,,KIGQ 040015Z AUTO 22003KT 10SM CLR 29/19 A3001 RMK AO2  T02880187,,,,,,65.91,,SW,29.36,27.85,86.0,Clear
KIGQ,08/04/2016 00:35 UTC,30.01,82.58,67.1,61.9,0.0,0.0,,,,,,1.0,,,,10.0,,KIGQ 040035Z AUTO 00000KT 10SM CLR 28/20 A3001 RMK AO2  T02810195,,,,,,68.2,,N,29.36,27.7,85.68,Clear
KIGQ,08/04/2016 00:55 UTC,30.01,83.3,65.12,51.58,0.0,0.0,,,,,,1.0,,,,10.0,,KIGQ 040055Z AUTO 00000KT 10SM CLR 29/18 A3001 RMK AO2  T02850184,,,,,,63.62,,N,29.36,28.01,84.56,Clear
KIGQ,08/04/2016 01:15 UTC,30.01,81.86,65.12,54.65,0.0,0.0,,,,,,1.0,,,,10.0,,KIGQ 040115Z AUTO 00000KT 10SM CLR 28/18 A3001 RMK AO2  T02770184,,,,,,63.93,,N,29.36,28.0,83.33,Clear
KIGQ,08/04/2016 01:35 UTC,30.01,80.96,65.48,61.67,0.0,0.0,,,,,,1.0,,,,10.0,,KIGQ 040135Z AUTO 00000KT 10SM CLR 27/19 A3001 RMK AO2  T02720186,,,,,,66.56,,N,29.36,27.84,83.25,Clear
KIGQ,08/04/2016 01:55 UTC,30.01,80.78,65.66,61.67,0.0,0.0,,,,,,1.0,,,,10.0,,KIGQ 040155Z AUTO 00000KT 10SM CLR 27/19 A3001 RMK AO2  T02710187,,,,,,66.39,,N,29.36,27.85,83.01,Clear
KIGQ,08/04/2016 02:15 UTC,30.01,78.44,66.38,65.41,3.44,70.0,,,,,,1.0,,,,10.0,,KIGQ 040215Z AUTO 07003KT 10SM CLR 26/19 A3001 RMK AO2  T02580191,,,,,,65.86,,ENE,29.36,27.91,,Clear
KIGQ,08/04/2016 02:35 UTC,30.01,77.9,66.2,65.41,3.44,100.0,,,,,,1.0,,,,10.0,,KIGQ 040235Z AUTO 10003KT 10SM CLR 26/19 A3001 RMK AO2  T02550190,,,,,,65.35,,E,29.36,27.95,,Clear
KIGQ,08/04/2016 02:55 UTC,30.0,78.08,66.2,65.41,4.61,100.0,,,,,,1.0,,,,10.0,,KIGQ 040255Z AUTO 10004KT 10SM CLR 26/19 A3000 RMK AO2  T02560190,,,,,,65.52,,E,29.35,27.93,,Clear
KIGQ,08/04/2016 03:15 UTC,30.01,76.1,66.38,69.4,0.0,0.0,,,,,,1.0,,,,10.0,,KIGQ 040315Z AUTO 00000KT 10SM CLR 25/19 A3001 RMK AO2  T02450191,,,,,,65.33,,N,29.36,27.97,,Clear
KIGQ,08/04/2016 03:35 UTC,30.01,75.74,66.74,73.67,0.0,0.0,,,,,,1.0,,,,10.0,,KIGQ 040335Z AUTO 00000KT 10SM CLR 24/19 A3001 RMK AO2  T02430193,,,,,,66.71,,N,29.36,27.89,,Clear
KIGQ,08/04/2016 03:55 UTC,30.01,74.84,67.1,78.39,0.0,0.0,,,,,,1.0,,,,10.0,,KIGQ 040355Z AUTO 00000KT 10SM CLR 24/20 A3001 RMK AO2  T02380195,,,,,,67.64,,N,29.36,27.83,,Clear
KIGQ,08/04/2016 04:15 UTC,30.01,73.04,67.28,83.25,0.0,0.0,,,,,,1.0,,,,10.0,,KIGQ 040415Z AUTO 00000KT 10SM CLR 23/20 A3001 RMK AO2  T02280196,,,,,,67.64,,N,29.36,27.86,,Clear
KIGQ,08/04/2016 04:35 UTC,30.01,74.66,67.1,78.39,0.0,0.0,,,,,,1.0,,,,10.0,,KIGQ 040435Z AUTO 00000KT 10SM CLR 24/20 A3001 RMK AO2  T02370195,,,,,,67.47,,N,29.36,27.85,,Clear
KIGQ,08/04/2016 04:55 UTC,30.01,74.3,67.28,78.39,0.0,0.0,,,,,,1.0,,,,10.0,,KIGQ 040455Z AUTO 00000KT 10SM CLR 24/20 A3001 RMK AO2  T02350196,,,,,,67.12,,N,29.36,27.88,,Clear
KIGQ,08/04/2016 05:15 UTC,30.01,73.58,67.1,83.25,0.0,0.0,,,,,,1.0,,,,10.0,,KIGQ 040515Z AUTO 00000KT 10SM CLR 23/20 A3001 RMK AO2  T02310195,,,,,,68.17,,N,29.36,27.82,,Clear
KIGQ,08/04/2016 05:35 UTC,30.01,70.88,65.66,83.13,0.0,0.0,,,,,,1.0,,,,10.0,,KIGQ 040535Z AUTO 00000KT 10SM CLR 22/19 A3001 RMK AO2  T02160187,,,,,,65.48,,N,29.36,28.03,,Clear
KIGQ,08/04/2016 05:55 UTC,30.0,70.16,66.56,88.37,0.0,0.0,,,,,,1.0,,,,10.0,,KIGQ 040555Z AUTO 00000KT 10SM CLR 21/19 A3000 RMK AO2 T02120192  10291 20211 403150192,84.38,69.98,,88.7,66.56,66.54,,N,29.35,27.96,,Clear
KIGQ,08/04/2016 06:15 UTC,30.0,70.16,66.92,88.37,0.0,0.0,,,,,,1.0,,,,10.0,,KIGQ 040615Z AUTO 00000KT 10SM CLR 21/19 A3000 RMK AO2  T02120194,,,,,,66.54,,N,29.35,27.96,,Clear
KIGQ,08/04/2016 06:35 UTC,30.0,69.44,66.02,88.37,0.0,0.0,,,,,,1.0,,,,10.0,,KIGQ 040635Z AUTO 00000KT 10SM CLR 21/19 A3000 RMK AO2  T02080189,,,,,,65.83,,N,29.35,28.02,,Clear
KIGQ,08/04/2016 06:55 UTC,30.0,70.7,67.46,88.46,0.0,0.0,,,,,,1.0,,,,10.0,,KIGQ 040655Z AUTO 00000KT 10SM CLR 22/20 A3000 RMK AO2  T02150197,,,,,,67.1,,N,29.35,27.92,,Clear
KIGQ,08/04/2016 07:15 UTC,30.0,69.98,65.66,88.37,0.0,0.0,,,,,,1.0,,,,10.0,,KIGQ 040715Z AUTO 00000KT 10SM CLR 21/19 A3000 RMK AO2  T02110187,,,,,,66.36,,N,29.35,27.98,,Clear
KIGQ,08/04/2016 07:35 UTC,29.99,69.26,65.84,88.37,0.0,0.0,,,,,,1.0,,,,10.0,,KIGQ 040735Z AUTO 00000KT 10SM CLR 21/19 A2999 RMK AO2  T02070188,,,,,,65.65,,N,29.34,28.02,,Clear
KIGQ,08/04/2016 07:55 UTC,29.99,69.08,66.02,88.37,0.0,0.0,,,,,,1.0,,,,7.0,,KIGQ 040755Z AUTO 00000KT 7SM CLR 21/19 A2999 RMK AO2  T02060189,,,,,,65.48,,N,29.34,28.03,,Clear
KIGQ,08/04/2016 08:15 UTC,30.0,68.54,66.02,93.98,0.0,0.0,,,,,,1.0,,,,7.0,,KIGQ 040815Z AUTO 00000KT 7SM CLR 20/19 A3000 RMK AO2  T02030189,,,,,,66.73,,N,29.35,27.97,,Clear
KIGQ,08/04/2016 08:35 UTC,30.0,70.16,66.2,88.37,0.0,0.0,,,,,,1.0,,,,10.0,,KIGQ 040835Z AUTO 00000KT 10SM CLR 21/19 A3000 RMK AO2  T02120190,,,,,,66.54,,N,29.35,27.96,,Clear
KIGQ,08/04/2016 08:55 UTC,30.0,68.18,65.12,88.29,0.0,0.0,,,,,,1.0,,,,7.0,,KIGQ 040855Z AUTO 00000KT 7SM CLR 20/18 A3000 RMK AO2  T02010184,,,,,,64.56,,N,29.35,28.11,,Clear
KIGQ,08/04/2016 09:15 UTC,29.99,66.74,64.22,93.94,0.0,0.0,,31.0,,,,1.0,,,,5.0,,KIGQ 040915Z AUTO 00000KT 5SM BR CLR 19/18 A2999 RMK AO2  T01930179,,,,,,64.93,,N,29.34,28.1,,Mist
KIGQ,08/04/2016 09:35 UTC,29.99,67.28,65.3,93.98,0.0,0.0,,31.0,,,,1.0,,,,4.0,,KIGQ 040935Z AUTO 00000KT 4SM BR CLR 20/19 A2999 RMK AO2  T01960185,,,,,,65.48,,N,29.34,28.06,,Mist
KIGQ,08/04/2016 09:55 UTC,29.99,69.08,66.38,88.37,0.0,0.0,,,,,,1.0,,,,10.0,,KIGQ 040955Z AUTO 00000KT 10SM CLR 21/19 A2999 RMK AO2  T02060191,,,,,,65.48,,N,29.34,28.03,,Clear
KIGQ,08/04/2016 10:15 UTC,29.99,69.62,66.38,88.37,0.0,0.0,,,,,,1.0,,,,10.0,,KIGQ 041015Z AUTO 00000KT 10SM CLR 21/19 A2999 RMK AO2  T02090191,,,,,,66.01,,N,29.34,27.99,,Clear
KIGQ,08/04/2016 10:35 UTC,29.99,67.46,64.94,88.29,0.0,0.0,,,,,,1.0,,,,7.0,,KIGQ 041035Z AUTO 00000KT 7SM CLR 20/18 A2999 RMK AO2  T01970183,,,,,,63.85,,N,29.34,28.16,,Clear
KIGQ,08/04/2016 10:55 UTC,30.0,69.08,64.94,83.01,0.0,0.0,,,,,,1.0,,,,10.0,,KIGQ 041055Z AUTO 00000KT 10SM CLR 21/18 A3000 RMK AO2  T02060183,,,,,,63.67,,N,29.35,28.16,,Clear
KIGQ,08/04/2016 11:15 UTC,30.0,67.1,64.22,88.29,0.0,0.0,,,,,,1.0,,,,10.0,,KIGQ 041115Z AUTO 00000KT 10SM CLR 20/18 A3000 RMK AO2  T01950179,,,,,,63.5,,N,29.35,28.19,,Clear
KIGQ,08/04/2016 11:35 UTC,30.01,67.1,64.22,88.29,0.0,0.0,,,,,,1.0,,,,10.0,,KIGQ 041135Z AUTO 00000KT 10SM CLR 20/18 A3001 RMK AO2  T01950179,,,,,,63.5,,N,29.36,28.2,,Clear
KIGQ,08/04/2016 11:55 UTC,30.01,69.08,65.66,88.37,0.0,0.0,,,,,,1.0,,,,10.0,,KIGQ 041155Z AUTO 00000KT 10SM CLR 21/19 A3001 RMK AO2 T02060187  10222 20193,71.96,66.74,,,,65.48,,N,29.36,28.05,,Clear
KIGQ,08/04/2016 12:15 UTC,30.01,71.6,65.48,83.13,0.0,0.0,,,,,,1.0,,,,10.0,,KIGQ 041215Z AUTO 00000KT 10SM CLR 22/19 A3001 RMK AO2  T02200186,,,,,,66.18,,N,29.36,27.98,,Clear
KIGQ,08/04/2016 12:35 UTC,30.01,73.4,66.56,78.24,0.0,0.0,,,,,,1.0,,,,10.0,,KIGQ 041235Z AUTO 00000KT 10SM CLR 23/19 A3001 RMK AO2  T02300192,,,,,,66.18,,N,29.36,27.95,,Clear
KIGQ,08/04/2016 12:55 UTC,30.01,74.66,66.56,73.67,0.0,0.0,,,,,,1.0,,,,10.0,,KIGQ 041255Z AUTO 00000KT 10SM CLR 24/19 A3001 RMK AO2  T02370192,,,,,,65.67,,N,29.36,27.97,,Clear
KIGQ,08/04/2016 13:15 UTC,30.02,76.46,67.28,73.85,0.0,0.0,,,,,,1.0,,,,10.0,,KIGQ 041315Z AUTO 00000KT 10SM CLR 25/20 A3002 RMK AO2  T02470196,,,,,,67.48,,N,29.37,27.84,,Clear
KIGQ,08/04/2016 13:35 UTC,30.01,78.44,68.54,69.6,0.0,0.0,,,,,,1.0,,,,10.0,,KIGQ 041335Z AUTO 00000KT 10SM CLR 26/20 A3001 RMK AO2  T02580203,,,,,,67.66,,N,29.36,27.79,,Clear
KIGQ,08/04/2016 13:55 UTC,30.01,80.06,68.72,65.62,0.0,0.0,,,,,,1.0,,,,10.0,,KIGQ 041355Z AUTO 00000KT 10SM CLR 27/20 A3001 RMK AO2  T02670204,,,,,,67.5,,N,29.36,27.78,82.52,Clear
KIGQ,08/04/2016 14:15 UTC,30.01,82.22,68.0,61.9,0.0,0.0,,,,,,1.0,,,,10.0,,KIGQ 041415Z AUTO 00000KT 10SM CLR 28/20 A3001 RMK AO2  T02790200,,,,,,67.86,,N,29.36,27.73,85.12,Clear
KIGQ,08/04/2016 14:35 UTC,30.0,83.12,66.38,58.18,4.61,190.0,,,,,,1.0,,,,10.0,,KIGQ 041435Z AUTO 19004KT 10SM CLR 28/19 A3000 RMK AO2  T02840191,,,,,,66.91,,S,29.35,27.78,85.69,Clear
KIGQ,08/04/2016 14:55 UTC,30.0,83.84,67.28,58.42,4.61,220.0,,,,,,1.0,,,,10.0,,KIGQ 041455Z AUTO 22004KT 10SM CLR 29/20 A3000 RMK AO2  T02880196,,,,,,67.71,,SW,29.35,27.71,86.85,Clear
KIGQ,08/04/2016 15:15 UTC,29.99,84.2,64.4,51.58,4.61,190.0,,,,,,1.0,,,,10.0,,KIGQ 041515Z AUTO 19004KT 10SM CLR 29/18 A2999 RMK AO2  T02900180,,,,,,64.46,,S,29.34,27.92,85.74,Clear
KIGQ,08/04/2016 15:35 UTC,29.99,85.1,62.06,46.16,4.61,200.0,,,,,,1.0,,,,10.0,,KIGQ 041535Z AUTO 20004KT 10SM CLR 30/17 A2999 RMK AO2  T02950167,,,,,,62.13,,SSW,29.34,28.07,85.69,Clear
KIGQ,08/04/2016 15:55 UTC,29.99,85.28,64.58,48.69,5.75,200.0,,,,,,1.0,,,,10.0,,KIGQ 041555Z AUTO 20005KT 10SM CLR 30/18 A2999 RMK AO2  T02960181,,,,,,63.81,,SSW,29.34,27.96,86.52,Clear
KIGQ,08/04/2016 16:15 UTC,29.99,86.0,62.78,45.72,8.05,190.0,,,,,,1.0,,,,10.0,,KIGQ 041615Z AUTO 19007KT 10SM CLR 30/17 A2999 RMK AO2  T03000171,,,,,,62.68,,S,29.34,28.02,86.75,Clear
KIGQ,08/04/2016 16:35 UTC,29.99,86.36,64.94,48.69,4.61,180.0,,,,,,1.0,,,,10.0,,KIGQ 041635Z AUTO 18004KT 10SM CLR 30/18 A2999 RMK AO2  T03020183,,,,,,64.81,,S,29.34,27.88,88.05,Clear
KIGQ,08/04/2016 16:55 UTC,29.98,86.36,64.22,48.69,8.05,230.0,,,,,,1.0,,,,10.0,,KIGQ 041655Z AUTO 23007KT 10SM CLR 30/18 A2998 RMK AO2  T03020179,,,,,,64.81,,SW,29.33,27.87,88.05,Clear
KIGQ,08/04/2016 17:15 UTC,29.98,86.9,65.66,48.96,5.75,220.0,,,,,,1.0,,,,10.0,,KIGQ 041715Z AUTO 22005KT 10SM CLR 31/19 A2998 RMK AO2  T03050187,,,,,,65.46,,SW,29.33,27.82,88.93,Clear
KIGQ,08/04/2016 17:35 UTC,29.98,87.08,65.3,48.96,3.44,200.0,,,,,,1.0,,,,10.0,,KIGQ 041735Z AUTO 20003KT 10SM CLR 31/19 A2998 RMK AO2  T03060185,,,,,,65.63,,SSW,29.33,27.81,89.21,Clear
KIGQ,08/04/2016 17:55 UTC,29.97,87.26,66.02,48.96,5.75,200.0,,,,,,1.0,,,,10.0,,KIGQ 041755Z AUTO 20005KT 10SM CLR 31/19 A2997 RMK AO2 T03070189  10308 20208,87.44,69.44,,,,65.8,,SSW,29.32,27.78,89.49,Clear
KIGQ,08/04/2016 18:15 UTC,29.96,87.44,66.02,48.96,6.91,190.0,,,,,,1.0,,,,10.0,,KIGQ 041815Z AUTO 19006KT 10SM CLR 31/19 A2996 RMK AO2  T03080189,,,,,,65.96,,S,29.31,27.76,89.77,Clear
KIGQ,08/04/2016 18:35 UTC,29.96,87.8,66.74,48.96,8.05,220.0,,,,,,1.0,,,,10.0,,KIGQ 041835Z AUTO 22007KT 10SM CLR 31/19 A2996 RMK AO2  T03100193,,,,,,66.29,,SW,29.31,27.73,90.35,Clear
KIGQ,08/04/2016 18:55 UTC,29.96,87.98,67.1,52.09,5.75,190.0,,,,,,1.0,,,,10.0,,KIGQ 041855Z AUTO 19005KT 10SM CLR 31/20 A2996 RMK AO2  T03110195,,,,,,68.25,,S,29.31,27.59,91.79,Clear
KIGQ,08/04/2016 19:15 UTC,29.96,88.52,68.18,52.09,9.22,230.0,,,,,,1.0,,,,10.0,,KIGQ 041915Z AUTO 23008KT 160V240 10SM CLR 31/20 A2996 RMK AO2  T03140201,,,,,,68.75,,SW,29.31,27.54,92.75,Clear
KIGQ,08/04/2016 19:35 UTC,29.95,88.34,67.1,52.09,8.05,210.0,,,,,,472.0,,,,10.0,,KIGQ 041935Z AUTO 21007KT 10SM SCT047 31/20 A2995 RMK AO2  T03130195,,,,,,68.59,,SSW,29.3,27.55,92.43,Partly Cloudy
KIGQ,08/04/2016 19:55 UTC,29.94,88.16,66.38,48.96,8.05,180.0,,,,,,1.0,,,,10.0,,KIGQ 041955Z AUTO 18007KT 10SM CLR 31/19 A2994 RMK AO2  T03120191,,,,,,66.63,,S,29.29,27.69,90.94,Clear
KIGQ,08/04/2016 20:15 UTC,29.94,88.7,67.28,49.23,8.05,170.0,,,,,,1.0,,,,10.0,,KIGQ 042015Z AUTO 17007KT 10SM CLR 32/20 A2994 RMK AO2  T03150196,,,,,,67.28,,S,29.29,27.63,91.94,Clear
KIGQ,08/04/2016 20:35 UTC,29.94,87.8,67.64,52.09,5.75,170.0,9.22,,,,,1.0,,,,10.0,,KIGQ 042035Z AUTO 17005G08KT 10SM CLR 31/20 A2994 RMK AO2  T03100198,,,,,,68.09,,S,29.29,27.58,91.47,Clear
KIGQ,08/04/2016 20:55 UTC,29.94,87.62,68.36,52.09,6.91,200.0,,,,,,482.0,,,,10.0,,KIGQ 042055Z AUTO 20006KT 10SM SCT048 31/20 A2994 RMK AO2  T03090202,,,,,,67.92,,SSW,29.29,27.6,91.16,Partly Cloudy
KIGQ,08/04/2016 21:15 UTC,29.93,88.7,68.18,49.23,6.91,210.0,,,,,,482.0,,,,10.0,,KIGQ 042115Z AUTO 21006KT 10SM SCT048 32/20 A2993 RMK AO2  T03150201,,,,,,67.28,,SSW,29.28,27.62,91.94,Partly Cloudy
KIGQ,08/04/2016 21:35 UTC,29.93,88.52,67.28,52.09,6.91,210.0,,,,,,1.0,,,,10.0,,KIGQ 042135Z AUTO 21006KT 10SM CLR 31/20 A2993 RMK AO2  T03140196,,,,,,68.75,,SSW,29.28,27.51,92.75,Clear
KIGQ,08/04/2016 21:55 UTC,29.93,88.16,66.92,48.96,5.75,180.0,,,,,,1.0,,,,10.0,,KIGQ 042155Z AUTO 18005KT 10SM CLR 31/19 A2993 RMK AO2  T03120194,,,,,,66.63,,S,29.28,27.68,90.94,Clear
KIGQ,08/04/2016 22:15 UTC,29.93,87.8,67.1,52.09,6.91,180.0,,,,,,1.0,,,,10.0,,KIGQ 042215Z AUTO 18006KT 10SM CLR 31/20 A2993 RMK AO2  T03100195,,,,,,68.09,,S,29.28,27.57,91.47,Clear
KIGQ,08/04/2016 22:35 UTC,29.91,87.26,67.82,52.09,9.22,190.0,,,,,,1.0,,,,10.0,,KIGQ 042235Z AUTO 19008KT 10SM CLR 31/20 A2991 RMK AO2  T03070199,,,,,,67.58,,S,29.26,27.59,90.54,Clear
KIGQ,08/04/2016 22:55 UTC,29.91,86.9,67.46,52.09,6.91,200.0,,,,,,1.0,,,,10.0,,KIGQ 042255Z AUTO 20006KT 10SM CLR 31/20 A2991 RMK AO2  T03050197,,,,,,67.25,,SSW,29.26,27.62,89.94,Clear
KIGQ,08/04/2016 23:15 UTC,29.91,86.54,68.0,55.15,5.75,200.0,,,,,,1.0,,,,10.0,,KIGQ 042315Z AUTO 20005KT 10SM CLR 30/20 A2991 RMK AO2  T03030200,,,,,,68.57,,SSW,29.26,27.53,90.37,Clear
KIGQ,08/04/2016 23:35 UTC,29.9,86.0,68.0,55.15,6.91,210.0,,,,,,1.0,,,,10.0,,KIGQ 042335Z AUTO 21006KT 10SM CLR 30/20 A2990 RMK AO2  T03000200,,,,,,68.06,,SSW,29.25,27.56,89.45,Clear
KIGQ,08/04/2016 23:55 UTC,29.9,84.92,69.08,62.13,5.75,200.0,,,,,,1.0,,,,10.0,,KIGQ 042355Z AUTO 20005KT 10SM CLR 29/21 A2990 RMK AO2 T02940206  10316 20294,88.88,84.92,,,,70.53,,SSW,29.25,27.38,89.78,Clear
KIGQ,08/05/2016 00:15 UTC,29.88,82.04,69.44,65.83,4.61,190.0,,,,,,1.0,,,,10.0,,KIGQ 050015Z AUTO 19004KT 10SM CLR 28/21 A2988 RMK AO2  T02780208,,,,,,69.48,,S,29.23,27.48,85.62,Clear
KIGQ,08/05/2016 00:35 UTC,29.88,81.5,70.34,65.83,4.61,200.0,,,,,,1.0,,,,10.0,,KIGQ 050035Z AUTO 20004KT 10SM CLR 28/21 A2988 RMK AO2  T02750213,,,,,,68.97,,SSW,29.23,27.52,84.73,Clear
KIGQ,08/05/2016 00:55 UTC,29.89,80.6,69.98,69.79,5.75,200.0,,,,,,1.0,,,,10.0,,KIGQ 050055Z AUTO 20005KT 10SM CLR 27/21 A2989 RMK AO2  T02700211,,,,,,69.81,,SSW,29.24,27.48,83.91,Clear
KIGQ,08/05/2016 01:15 UTC,29.89,78.26,69.8,74.02,4.61,200.0,,,,,,1.0,,,,10.0,,KIGQ 050115Z AUTO 20004KT 10SM CLR 26/21 A2989 RMK AO2  T02570210,,,,,,69.28,,SSW,29.24,27.55,,Clear
KIGQ,08/05/2016 01:35 UTC,29.9,77.9,69.44,74.02,4.61,200.0,,,,,,1.0,,,,10.0,,KIGQ 050135Z AUTO 20004KT 10SM CLR 26/21 A2990 RMK AO2  T02550208,,,,,,68.94,,SSW,29.25,27.59,,Clear
KIGQ,08/05/2016 01:55 UTC,29.9,76.46,69.44,78.54,4.61,190.0,,,,,,1.0,,,,10.0,,KIGQ 050155Z AUTO 19004KT 10SM CLR 25/21 A2990 RMK AO2  T02470208,,,,,,69.27,,S,29.25,27.58,,Clear
KIGQ,08/05/2016 02:15 UTC,29.9,77.0,69.8,78.54,5.75,180.0,,,,,,1.0,,,,10.0,,KIGQ 050215Z AUTO 18005KT 10SM CLR 25/21 A2990 RMK AO2  T02500210,,,,,,69.8,,S,29.25,27.54,,Clear
KIGQ,08/05/2016 02:35 UTC,29.9,77.18,70.16,78.54,4.61,200.0,,,,,,1.0,,,,10.0,,KIGQ 050235Z AUTO 20004KT 10SM CLR 25/21 A2990 RMK AO2  T02510212,,,,,,69.97,,SSW,29.25,27.52,,Clear
KIGQ,08/05/2016 02:55 UTC,29.9,77.36,70.52,78.54,4.61,210.0,,,,,,1.0,,,,10.0,,KIGQ 050255Z AUTO 21004KT 10SM CLR 25/21 A2990 RMK AO2  T02520214,,,,,,70.15,,SSW,29.25,27.51,,Clear
KIGQ,08/05/2016 03:15 UTC,29.91,75.56,69.62,83.37,4.61,190.0,,,,,,1.0,,,,10.0,,KIGQ 050315Z AUTO 19004KT 10SM CLR 24/21 A2991 RMK AO2 LTG DSNT NW  T02420209,,,,,,70.15,,S,29.26,27.54,,Clear
KIGQ,08/05/2016 03:35 UTC,29.91,74.66,70.16,83.37,4.61,190.0,,,,,,1.0,,,,10.0,,KIGQ 050335Z AUTO 19004KT 10SM CLR 24/21 A2991 RMK AO2  T02370212,,,,,,69.27,,S,29.26,27.62,,Clear
KIGQ,08/05/2016 03:55 UTC,29.91,74.48,70.16,83.37,5.75,190.0,,,,,,1.0,,,,10.0,,KIGQ 050355Z AUTO 19005KT 10SM CLR 24/21 A2991 RMK AO2 LTG DSNT NW  T02360212,,,,,,69.09,,S,29.26,27.64,,Clear
KIGQ,08/05/2016 04:15 UTC,29.91,75.38,70.7,88.62,3.44,210.0,,,,,,1.0,,,,10.0,,KIGQ 050415Z AUTO 21003KT 10SM CLR 24/22 A2991 RMK AO2 LTG DSNT W  AND NW T02410215,,,,,,71.77,,SSW,29.26,27.42,,Clear
KIGQ,08/05/2016 04:35 UTC,29.91,76.1,70.7,83.48,4.61,230.0,,,,,,1.0,,,,10.0,,KIGQ 050435Z AUTO 23004KT 10SM CLR 25/22 A2991 RMK AO2 LTG DSNT NW  T02450215,,,,,,70.71,,SW,29.26,27.49,,Clear
KIGQ,08/05/2016 04:55 UTC,29.94,77.36,70.88,83.48,5.75,300.0,,,,,,1103.0,,,,10.0,,KIGQ 050455Z AUTO 30005KT 10SM BKN110 25/22 A2994 RMK AO2 LTG DSNT  W T02520216,,,11000.0,,,71.95,,WNW,29.29,27.41,,Mostly Cloudy
KIGQ,08/05/2016 05:15 UTC,29.93,77.9,70.7,78.68,6.91,270.0,,,1103.0,,,342.0,462.0,,,10.0,,KIGQ 050515Z AUTO 27006KT 10SM SCT034 SCT046 BKN110 26/22  A2993 RMK AO2 LTG DSNT W T02550215,,,11000.0,,,70.73,,W,29.28,27.49,,Mostly Cloudy
KIGQ,08/05/2016 05:35 UTC,29.92,78.26,70.16,74.02,5.75,280.0,,,,,,342.0,462.0,,,10.0,,KIGQ 050535Z AUTO 28005KT 10SM SCT034 SCT046 26/21 A2992 RMK AO2  LTG DSNT W T02570212,,,,,,69.28,,W,29.27,27.58,,Partly Cloudy
KIGQ,08/05/2016 05:55 UTC,29.91,78.08,69.26,74.02,0.0,0.0,,,,,,342.0,,,,10.0,,KIGQ 050555Z AUTO 00000KT 10SM SCT034 26/21 A2991 RMK AO2  T02560207 10293 20233 403160193,84.74,73.94,,88.88,66.74,69.11,,N,29.26,27.59,,Partly Cloudy
KIGQ,08/05/2016 06:15 UTC,29.91,77.36,68.9,78.54,4.61,230.0,,,,,,1.0,,,,10.0,,KIGQ 050615Z AUTO 23004KT 10SM CLR 25/21 A2991 RMK AO2 LTG DSNT W  T02520205,,,,,,70.15,,SW,29.26,27.52,,Clear
KIGQ,08/05/2016 06:35 UTC,29.9,76.46,68.54,73.85,5.75,240.0,,,,,,1.0,,,,10.0,,KIGQ 050635Z AUTO 24005KT 10SM CLR 25/20 A2990 RMK AO2 LTG DSNT SW  AND W T02470203,,,,,,67.48,,WSW,29.25,27.71,,Clear
KIGQ,08/05/2016 06:55 UTC,29.88,76.82,68.0,73.85,6.91,220.0,,,,,,1.0,,,,10.0,,KIGQ 050655Z AUTO 22006KT 10SM CLR 25/20 A2988 RMK AO2  T02490200,,,,,,67.82,,SW,29.23,27.66,,Clear
KIGQ,08/05/2016 07:15 UTC,29.86,76.28,68.0,73.85,8.05,210.0,,13.0,,,,1.0,,,,10.0,,KIGQ 050715Z AUTO 21007KT 10SM -RA CLR 25/20 A2986 RMK AO2  T02460200,,,,,,67.3,,SSW,29.21,27.69,,Light Rain
KIGQ,08/05/2016 07:35 UTC,29.83,74.84,67.64,78.39,9.22,220.0,,13.0,,,,802.0,952.0,,,10.0,,KIGQ 050735Z AUTO 22008KT 10SM -RA SCT080 SCT095 24/20 A2983 RMK AO2 T02380198,,,,,,67.64,,SW,29.18,27.65,,Light Rain
KIGQ,08/05/2016 07:55 UTC,29.82,73.58,67.82,83.25,10.36,190.0,,17.0,,,,1.0,,,,10.0,,KIGQ 050755Z AUTO 19009KT 10SM -DZ CLR 23/20 A2982 RMK AO2  T02310199,,,,,,68.17,,S,29.17,27.62,,Light Drizzle
KIGQ,08/05/2016 08:15 UTC,29.81,72.86,67.46,83.25,8.05,170.0,,,,,,1.0,,,,10.0,,KIGQ 050815Z AUTO 17007KT 10SM CLR 23/20 A2981 RMK AO2  T02270197,,,,,,67.46,,S,29.16,27.67,,Clear
KIGQ,08/05/2016 08:35 UTC,29.83,73.4,67.46,83.25,0.0,0.0,,,,,,1.0,,,,10.0,,KIGQ 050835Z AUTO 00000KT 10SM CLR 23/20 A2983 RMK AO2  T02300197,,,,,,67.99,,N,29.18,27.65,,Clear
KIGQ,08/05/2016 08:55 UTC,29.83,72.5,67.64,83.25,5.75,190.0,,,,,,1202.0,,,,10.0,,KIGQ 050855Z AUTO 19005KT 10SM SCT120 23/20 A2983 RMK AO2  T02250198,,,,,,67.11,,S,29.18,27.72,,Partly Cloudy
KIGQ,08/05/2016 09:15 UTC,29.85,73.04,67.64,83.25,4.61,250.0,,,,,,1202.0,,,,10.0,,KIGQ 050915Z AUTO 25004KT 10SM SCT120 23/20 A2985 RMK AO2  T02280198,,,,,,67.64,,WSW,29.2,27.7,,Partly Cloudy
KIGQ,08/05/2016 09:35 UTC,29.85,72.86,68.0,83.25,6.91,270.0,,,,,,1.0,,,,10.0,,KIGQ 050935Z AUTO 27006KT 10SM CLR 23/20 A2985 RMK AO2  T02270200,,,,,,67.46,,W,29.2,27.71,,Clear
KIGQ,08/05/2016 09:55 UTC,29.86,72.5,68.0,83.25,3.44,280.0,,,,,,1.0,,,,10.0,,KIGQ 050955Z AUTO 28003KT 10SM CLR 23/20 A2986 RMK AO2  T02250200,,,,,,67.11,,W,29.21,27.75,,Clear
KIGQ,08/05/2016 10:15 UTC,29.87,72.14,68.0,88.46,0.0,0.0,,,,,,1.0,,,,10.0,,KIGQ 051015Z AUTO 00000KT 10SM CLR 22/20 A2987 RMK AO2  T02230200,,,,,,68.52,,N,29.22,27.67,,Clear
KIGQ,08/05/2016 10:35 UTC,29.88,72.68,68.0,83.25,4.61,320.0,,,,,,272.0,1202.0,,,10.0,,KIGQ 051035Z AUTO 32004KT 10SM SCT027 SCT120 23/20 A2988 RMK AO2  T02260200,,,,,,67.28,,NW,29.23,27.76,,Partly Cloudy
KIGQ,08/05/2016 10:55 UTC,29.88,73.76,67.82,83.25,5.75,310.0,,,,,,232.0,1203.0,,,10.0,,KIGQ 051055Z AUTO 31005KT 10SM SCT023 BKN120 23/20 A2988 RMK AO2  T02320199,,,12000.0,,,68.34,,NW,29.23,27.67,,Mostly Cloudy
KIGQ,08/05/2016 11:15 UTC,29.88,74.3,67.82,78.39,6.91,310.0,,,1104.0,,,232.0,292.0,,,10.0,,KIGQ 051115Z AUTO 31006KT 10SM SCT023 SCT029 OVC110 24/20  A2988 RMK AO2 T02350199,,,11000.0,,,67.12,,NW,29.23,27.75,,Overcast
KIGQ,08/05/2016 11:35 UTC,29.89,73.76,68.0,83.25,4.61,280.0,,,,,,292.0,1103.0,,,10.0,,KIGQ 051135Z AUTO 28004KT 10SM SCT029 BKN110 23/20 A2989 RMK AO2  T02320200,,,11000.0,,,68.34,,W,29.24,27.68,,Mostly Cloudy
KIGQ,08/05/2016 11:55 UTC,29.9,74.12,68.0,83.25,5.75,260.0,,,,,,313.0,,,,10.0,,KIGQ 051155Z AUTO 26005KT 10SM BKN031 23/20 A2990 RMK AO2  T02340200 10256 20223,78.08,72.14,3100.0,,,68.69,,W,29.25,27.66,,Mostly Cloudy
KIGQ,08/05/2016 12:15 UTC,29.9,74.66,68.54,78.39,6.91,260.0,,,434.0,,,313.0,373.0,,,10.0,,KIGQ 051215Z AUTO 26006KT 10SM BKN031 BKN037 OVC043 24/20  A2990 RMK AO2 T02370203,,,3100.0,,,67.47,,W,29.25,27.74,,Overcast
KIGQ,08/05/2016 12:55 UTC,29.91,75.2,68.0,78.39,8.05,320.0,,,414.0,,,272.0,332.0,,,10.0,,KIGQ 051255Z AUTO 32007KT 10SM SCT027 SCT033 OVC041 24/20  A2991 RMK AO2 T02400200,,,4100.0,,,67.99,,NW,29.26,27.7,,Overcast
KIGQ,08/05/2016 13:15 UTC,29.9,76.28,68.18,76.1,6.91,340.0,17.27,,,,,412.0,,,,10.0,,KIGQ 051315Z AUTO 34006G15KT 10SM SCT041 25/20 A2990 RMK AO2  T02460201,,,,,,68.18,,NNW,29.25,27.67,,Partly Cloudy
KIGQ,08/05/2016 13:35 UTC,29.9,76.82,68.36,73.85,3.44,350.0,16.11,,,,,1.0,,,,10.0,,KIGQ 051335Z AUTO 35003G14KT 10SM CLR 25/20 A2990 RMK AO2  T02490202,,,,,,67.82,,N,29.25,27.68,,Clear
KIGQ,08/05/2016 13:55 UTC,29.91,76.28,67.82,73.85,3.44,320.0,,,,,,192.0,283.0,,,10.0,,KIGQ 051355Z AUTO 32003KT 10SM SCT019 BKN028 25/20 A2991 RMK AO2  T02460199,,,2800.0,,,67.3,,NW,29.26,27.74,,Mostly Cloudy
KIGQ,08/05/2016 14:35 UTC,29.91,76.46,67.82,74.71,3.44,260.0,,,,,,223.0,314.0,,,10.0,,KIGQ 051435Z AUTO 26003KT 10SM BKN022 OVC031 25/20 A2991 RMK AO2  T02470199,,,2200.0,,,67.81,,W,29.26,27.7,,Overcast
KIGQ,08/05/2016 14:55 UTC,29.91,77.0,68.0,73.85,4.61,270.0,,13.0,,,,244.0,,,,10.0,,KIGQ 051455Z AUTO 27004KT 10SM -RA OVC024 25/20 A2991,,,2400.0,,,68.0,,W,29.26,27.68,,Light Rain
KIGQ,08/05/2016 15:15 UTC,29.91,75.2,68.0,78.39,5.75,290.0,,13.0,,,,214.0,,,,10.0,,KIGQ 051515Z AUTO 29005KT 10SM -RA OVC021 24/20 A2991 RMK AO2  T02400200,,,2100.0,,,67.99,,WNW,29.26,27.7,,Light Rain
KIGQ,08/05/2016 15:35 UTC,29.92,75.56,68.54,78.39,6.91,250.0,,,304.0,,,182.0,232.0,,,10.0,,KIGQ 051535Z AUTO 25006KT 10SM SCT018 SCT023 OVC030 24/20  A2992 RMK AO2 T02420203,,,3000.0,,,68.34,,WSW,29.27,27.68,,Overcast
KIGQ,08/05/2016 15:55 UTC,29.92,76.28,68.72,73.85,6.91,260.0,,,,,,324.0,,,,10.0,,KIGQ 051555Z AUTO 26006KT 10SM OVC032 25/20 A2992 RMK AO2  T02460204,,,3200.0,,,67.3,,W,29.27,27.75,,Overcast
KIGQ,08/05/2016 16:15 UTC,29.93,76.1,68.36,73.85,6.91,240.0,,,,,,362.0,434.0,,,10.0,,KIGQ 051615Z AUTO 24006KT 10SM SCT036 OVC043 25/20 A2993 RMK AO2  T02450202,,,4300.0,,,67.13,,WSW,29.28,27.77,,Overcast
KIGQ,08/05/2016 16:35 UTC,29.93,76.1,68.36,73.85,6.91,240.0,,,,,,434.0,,,,10.0,,KIGQ 051635Z AUTO 24006KT 10SM OVC043 25/20 A2993 RMK AO2  T02450202,,,4300.0,,,67.13,,WSW,29.28,27.77,,Overcast
KIGQ,08/05/2016 16:55 UTC,29.94,75.74,68.54,78.39,6.91,240.0,,,,,,182.0,434.0,,,10.0,,KIGQ 051655Z AUTO 24006KT 10SM SCT018 OVC043 24/20 A2994 RMK AO2  T02430203,,,4300.0,,,68.52,,WSW,29.29,27.69,,Overcast
KIGQ,08/05/2016 17:15 UTC,29.93,76.28,68.36,73.85,6.91,260.0,,,394.0,,,182.0,342.0,,,10.0,,KIGQ 051715Z AUTO 26006KT 10SM SCT018 SCT034 OVC039 25/20  A2993 RMK AO2 T02460202,,,3900.0,,,67.3,,W,29.28,27.76,,Overcast
KIGQ,08/05/2016 17:35 UTC,29.92,76.1,68.72,73.85,6.91,260.0,,,,,,172.0,354.0,,,10.0,,KIGQ 051735Z AUTO 26006KT 10SM SCT017 OVC035 25/20 A2992 RMK AO2  T02450204,,,3500.0,,,67.13,,W,29.27,27.76,,Overcast
KIGQ,08/05/2016 17:55 UTC,29.92,76.64,69.08,78.54,6.91,270.0,,,,,,334.0,,,,10.0,,KIGQ 051755Z AUTO 27006KT 10SM OVC033 25/21 A2992 RMK AO2  T02480206 10250 20235,77.0,74.3,3300.0,,,69.45,,W,29.27,27.59,,Overcast
KIGQ,08/05/2016 18:15 UTC,29.92,76.28,68.36,73.85,5.75,280.0,,,,,,334.0,,,,10.0,,KIGQ 051815Z AUTO 28005KT 10SM OVC033 25/20 A2992 RMK AO2  T02460202,,,3300.0,,,67.3,,W,29.27,27.75,,Overcast
KIGQ,08/05/2016 18:35 UTC,29.91,77.36,69.62,78.54,9.22,230.0,,,,,,152.0,354.0,,,10.0,,KIGQ 051835Z AUTO 23008KT 10SM SCT015 OVC035 25/21 A2991 RMK AO2  T02520209,,,3500.0,,,70.15,,SW,29.26,27.52,,Overcast
KIGQ,08/05/2016 18:55 UTC,29.91,77.72,69.8,78.54,4.61,260.0,,,494.0,,,152.0,352.0,,,10.0,,KIGQ 051855Z AUTO 26004KT 10SM SCT015 SCT035 OVC049 25/21  A2991 RMK AO2 T02540210,,,4900.0,,,70.5,,W,29.26,27.49,,Overcast
KIGQ,08/05/2016 19:15 UTC,29.91,79.7,70.16,69.79,3.44,250.0,,,493.0,,,152.0,453.0,,,10.0,,KIGQ 051915Z AUTO 25003KT 10SM SCT015 BKN045 BKN049 27/21  A2991 RMK AO2 T02650212,,,4500.0,,,68.95,,WSW,29.26,27.58,,Mostly Cloudy
KIGQ,08/05/2016 19:35 UTC,29.9,80.06,69.62,69.79,3.44,300.0,,,453.0,,,242.0,322.0,,,10.0,,KIGQ 051935Z AUTO 30003KT 10SM SCT024 SCT032 BKN045 27/21  A2990 RMK AO2 T02670209,,,4500.0,,,69.3,,WNW,29.25,27.54,83.02,Mostly Cloudy
KIGQ,08/05/2016 19:55 UTC,29.9,80.6,68.9,69.79,3.44,220.0,,,403.0,,,263.0,323.0,,,10.0,,KIGQ 051955Z AUTO 22003KT 10SM BKN026 BKN032 BKN040 27/21  A2990 RMK AO2 T02700205,,,2600.0,,,69.81,,SW,29.25,27.49,83.91,Mostly Cloudy
KIGQ,08/05/2016 20:15 UTC,29.9,82.58,69.08,65.83,5.75,230.0,,,503.0,,,262.0,413.0,,,10.0,,KIGQ 052015Z AUTO 23005KT 10SM SCT026 BKN041 BKN050 28/21  A2990 RMK AO2 T02810206,,,4100.0,,,70.0,,SW,29.25,27.45,86.55,Mostly Cloudy
KIGQ,08/05/2016 20:35 UTC,29.89,81.5,67.64,61.9,0.0,0.0,,,503.0,,,322.0,423.0,,,10.0,,KIGQ 052035Z AUTO 00000KT 10SM SCT032 BKN042 BKN050 28/20  A2989 RMK AO2 T02750198,,,4200.0,,,67.18,,N,29.24,27.66,84.05,Mostly Cloudy
KIGQ,08/05/2016 20:55 UTC,29.88,82.76,67.46,61.9,4.61,260.0,,,,,,322.0,493.0,,,10.0,,KIGQ 052055Z AUTO 26004KT 10SM SCT032 BKN049 28/20 A2988 RMK AO2  T02820197,,,4900.0,,,68.37,,W,29.23,27.55,85.96,Mostly Cloudy
KIGQ,08/05/2016 21:15 UTC,29.88,82.4,66.74,58.18,3.44,270.0,,,502.0,,,322.0,462.0,,,10.0,,KIGQ 052115Z AUTO 27003KT 10SM SCT032 SCT046 SCT050 28/19  A2988 RMK AO2 T02800193,,,,,,66.23,,W,29.23,27.71,84.65,Partly Cloudy
KIGQ,08/05/2016 21:35 UTC,29.88,83.3,66.92,54.9,0.0,0.0,,,,,,432.0,,,,10.0,,KIGQ 052135Z AUTO 00000KT 10SM SCT043 29/19 A2988 RMK AO2  T02850194,,,,,,65.41,,N,29.23,27.76,85.24,Partly Cloudy
KIGQ,08/05/2016 21:55 UTC,29.88,83.84,67.1,58.42,3.44,270.0,,,,,,422.0,503.0,,,10.0,,KIGQ 052155Z AUTO 27003KT 10SM SCT042 BKN050 29/20 A2988 RMK AO2  T02880195,,,5000.0,,,67.71,,W,29.23,27.59,86.85,Mostly Cloudy
KIGQ,08/05/2016 22:15 UTC,29.88,83.3,66.74,54.9,6.91,260.0,,,502.0,,,402.0,482.0,,,10.0,,KIGQ 052215Z AUTO 26006KT 10SM SCT040 SCT048 SCT050 29/19  A2988 RMK AO2 T02850193,,,,,,65.41,,W,29.23,27.76,85.24,Partly Cloudy
KIGQ,08/05/2016 22:35 UTC,29.88,82.58,66.02,58.18,3.44,330.0,,,553.0,,,422.0,482.0,,,10.0,,KIGQ 052235Z AUTO 33003KT 10SM SCT042 SCT048 BKN055 28/19  A2988 RMK AO2 T02810189,,,5500.0,,,66.4,,NNW,29.23,27.7,84.91,Mostly Cloudy
KIGQ,08/05/2016 22:55 UTC,29.88,80.78,65.12,57.94,4.61,30.0,,,,,,403.0,474.0,,,10.0,,KIGQ 052255Z AUTO 03004KT 10SM BKN040 OVC047 27/18 A2988 RMK AO2  T02710184,,,4000.0,,,64.59,,NNE,29.23,27.84,82.5,Overcast
KIGQ,08/05/2016 23:15 UTC,29.88,80.42,64.4,57.94,6.91,70.0,,,,,,404.0,,,,10.0,,KIGQ 052315Z AUTO 07006KT 10SM OVC040 27/18 A2988 RMK AO2  T02690180,,,4000.0,,,64.25,,ENE,29.23,27.86,82.07,Overcast
KIGQ,08/05/2016 23:35 UTC,29.88,80.6,64.04,57.94,4.61,70.0,,,,,,403.0,494.0,,,10.0,,KIGQ 052335Z AUTO 07004KT 10SM BKN040 OVC049 27/18 A2988 RMK AO2  T02700178,,,4000.0,,,64.42,,ENE,29.23,27.85,82.28,Overcast
KIGQ,08/05/2016 23:55 UTC,29.88,80.6,62.96,54.4,8.05,80.0,,,602.0,,,402.0,462.0,,,10.0,,KIGQ 052355Z AUTO 08007KT 10SM SCT040 SCT046 SCT060 27/17  A2988 RMK AO2 T02700172 10289 20246,84.02,76.28,,,,62.62,,E,29.23,27.97,81.85,Partly Cloudy
KIGQ,08/06/2016 00:15 UTC,29.88,78.98,63.5,61.44,5.75,60.0,,,,,,1.0,,,,10.0,,KIGQ 060015Z AUTO 06005KT 10SM CLR 26/18 A2988 RMK AO2  T02610175,,,,,,64.57,,ENE,29.23,27.86,,Clear
KIGQ,08/06/2016 00:35 UTC,29.89,79.16,63.68,61.44,5.75,40.0,,,,,,463.0,,,,10.0,,KIGQ 060035Z AUTO 04005KT 10SM BKN046 26/18 A2989 RMK AO2  T02620176,,,4600.0,,,64.74,,NE,29.24,27.86,,Mostly Cloudy
KIGQ,08/06/2016 00:55 UTC,29.89,78.08,64.4,61.44,4.61,40.0,,,,,,463.0,554.0,,,10.0,,KIGQ 060055Z AUTO 04004KT 10SM BKN046 OVC055 26/18 A2989 RMK AO2  T02560180,,,4600.0,,,63.72,,NE,29.24,27.93,,Overcast
KIGQ,08/06/2016 01:15 UTC,29.9,77.0,66.38,69.4,4.61,50.0,,,,,,464.0,,,,10.0,,KIGQ 060115Z AUTO 05004KT 10SM OVC046 25/19 A2990 RMK AO2  T02500191,,,4600.0,,,66.19,,NE,29.25,27.79,,Overcast
KIGQ,08/06/2016 01:35 UTC,29.91,76.82,67.28,73.85,0.0,0.0,,,,,,362.0,444.0,,,10.0,,KIGQ 060135Z AUTO 00000KT 10SM SCT036 OVC044 25/20 A2991 RMK AO2  T02490196,,,4400.0,,,67.82,,N,29.26,27.69,,Overcast
KIGQ,08/06/2016 01:55 UTC,29.92,76.1,67.64,73.85,4.61,30.0,,,,,,403.0,504.0,,,10.0,,KIGQ 060155Z AUTO 03004KT 10SM BKN040 OVC050 25/20 A2992 RMK AO2  T02450198,,,4000.0,,,67.13,,NNE,29.27,27.76,,Overcast
KIGQ,08/06/2016 02:15 UTC,29.92,75.92,67.46,78.39,0.0,0.0,,,653.0,,,453.0,503.0,,,10.0,,KIGQ 060215Z AUTO 00000KT 10SM BKN045 BKN050 BKN065 24/20  A2992 RMK AO2 T02440197,,,4500.0,,,68.69,,N,29.27,27.65,,Mostly Cloudy
KIGQ,08/06/2016 02:35 UTC,29.92,75.2,67.82,78.39,0.0,0.0,,,,,,472.0,,,,10.0,,KIGQ 060235Z AUTO 00000KT 10SM SCT047 24/20 A2992 RMK AO2  T02400199,,,,,,67.99,,N,29.27,27.71,,Partly Cloudy
KIGQ,08/06/2016 02:55 UTC,29.93,75.38,67.46,78.39,0.0,0.0,,,,,,473.0,,,,10.0,,KIGQ 060255Z AUTO 00000KT 10SM BKN047 24/20 A2993 RMK AO2  T02410197,,,4700.0,,,68.17,,N,29.28,27.71,,Mostly Cloudy
KIGQ,08/06/2016 03:15 UTC,29.93,75.2,67.1,78.39,0.0,0.0,,,,,,474.0,,,,10.0,,KIGQ 060315Z AUTO 00000KT 10SM OVC047 24/20 A2993 RMK AO2  T02400195,,,4700.0,,,67.99,,N,29.28,27.72,,Overcast
KIGQ,08/06/2016 03:35 UTC,29.93,75.2,67.46,78.39,0.0,0.0,,,,,,473.0,554.0,,,10.0,,KIGQ 060335Z AUTO 00000KT 10SM BKN047 OVC055 24/20 A2993 RMK AO2  T02400197,,,4700.0,,,67.99,,N,29.28,27.72,,Overcast
KIGQ,08/06/2016 03:55 UTC,29.94,74.84,68.54,78.39,0.0,0.0,,,,,,452.0,553.0,,,10.0,,KIGQ 060355Z AUTO 00000KT 10SM SCT045 BKN055 24/20 A2994 RMK AO2  T02380203,,,5500.0,,,67.64,,N,29.29,27.76,,Mostly Cloudy
KIGQ,08/06/2016 04:15 UTC,29.94,74.48,68.54,78.39,0.0,0.0,,,,,,473.0,554.0,,,10.0,,KIGQ 060415Z AUTO 00000KT 10SM BKN047 OVC055 24/20 A2994 RMK AO2  T02360203,,,4700.0,,,67.29,,N,29.29,27.79,,Overcast
KIGQ,08/06/2016 04:35 UTC,29.94,73.94,67.82,83.25,0.0,0.0,,,,,,493.0,,,,10.0,,KIGQ 060435Z AUTO 00000KT 10SM BKN049 23/20 A2994 RMK AO2  T02330199,,,4900.0,,,68.52,,N,29.29,27.71,,Mostly Cloudy
KIGQ,08/06/2016 04:55 UTC,29.94,73.58,68.0,83.25,0.0,0.0,,,,,,492.0,,,,10.0,,KIGQ 060455Z AUTO 00000KT 10SM SCT049 23/20 A2994 RMK AO2  T02310200,,,,,,68.17,,N,29.29,27.74,,Partly Cloudy
KIGQ,08/06/2016 05:15 UTC,29.94,73.4,68.9,88.54,0.0,0.0,,,,,,322.0,412.0,,,10.0,,KIGQ 060515Z AUTO 00000KT 10SM SCT032 SCT041 23/21 A2994 RMK AO2  T02300205,,,,,,69.79,,N,29.29,27.63,,Partly Cloudy
KIGQ,08/06/2016 05:35 UTC,29.94,72.86,69.08,88.54,0.0,0.0,,,,,,322.0,412.0,,,10.0,,KIGQ 060535Z AUTO 00000KT 10SM SCT032 SCT041 23/21 A2994 RMK AO2  T02270206,,,,,,69.26,,N,29.29,27.68,,Partly Cloudy
KIGQ,08/06/2016 05:55 UTC,29.94,72.68,68.72,83.25,0.0,0.0,,,,,,1.0,,,,10.0,,KIGQ 060555Z AUTO 00000KT 10SM CLR 23/20 A2994 RMK AO2 T02260204  10270 20225 402890223,80.6,72.5,,84.02,72.14,67.28,,N,29.29,27.82,,Clear
KIGQ,08/06/2016 06:15 UTC,29.95,71.96,68.36,88.46,0.0,0.0,,,,,,1.0,,,,10.0,,KIGQ 060615Z AUTO 00000KT 10SM CLR 22/20 A2995 RMK AO2  T02220202,,,,,,68.35,,N,29.3,27.76,,Clear
KIGQ,08/06/2016 06:35 UTC,29.95,71.96,66.92,83.13,3.44,10.0,,,,,,553.0,,,,10.0,,KIGQ 060635Z AUTO 01003KT 10SM BKN055 22/19 A2995 RMK AO2  T02220194,,,5500.0,,,66.54,,N,29.3,27.89,,Mostly Cloudy
KIGQ,08/06/2016 06:55 UTC,29.96,72.5,65.66,78.24,0.0,0.0,,,,,,552.0,,,,10.0,,KIGQ 060655Z AUTO 00000KT 10SM SCT055 23/19 A2996 RMK AO2  T02250187,,,,,,65.31,,N,29.31,27.97,,Partly Cloudy
KIGQ,08/06/2016 07:15 UTC,29.95,71.6,65.66,83.13,0.0,0.0,,,,,,552.0,,,,10.0,,KIGQ 060715Z AUTO 00000KT 10SM SCT055 22/19 A2995 RMK AO2  T02200187,,,,,,66.18,,N,29.3,27.91,,Partly Cloudy
KIGQ,08/06/2016 07:35 UTC,29.95,70.88,64.4,78.09,0.0,0.0,,,,,,1.0,,,,10.0,,KIGQ 060735Z AUTO 00000KT 10SM CLR 22/18 A2995 RMK AO2  T02160180,,,,,,63.68,,N,29.3,28.08,,Clear
KIGQ,08/06/2016 07:55 UTC,29.95,70.7,62.42,73.32,0.0,0.0,,,,,,1.0,,,,10.0,,KIGQ 060755Z AUTO 00000KT 10SM CLR 22/17 A2995 RMK AO2  T02150169,,,,,,61.7,,N,29.3,28.2,,Clear
KIGQ,08/06/2016 08:15 UTC,29.95,69.8,61.7,77.94,0.0,0.0,,,,,,1.0,,,,10.0,,KIGQ 060815Z AUTO 00000KT 10SM CLR 21/17 A2995 RMK AO2  T02100165,,,,,,62.57,,N,29.3,28.16,,Clear
KIGQ,08/06/2016 08:35 UTC,29.95,67.1,60.98,77.79,0.0,0.0,,,,,,442.0,,,,10.0,,KIGQ 060835Z AUTO 00000KT 10SM SCT044 20/16 A2995 RMK AO2  T01950161,,,,,,59.89,,N,29.3,28.34,,Partly Cloudy
KIGQ,08/06/2016 08:55 UTC,29.95,67.46,61.16,77.79,0.0,0.0,,,,,,463.0,,,,10.0,,KIGQ 060855Z AUTO 00000KT 10SM BKN046 20/16 A2995 RMK AO2  T01970162,,,4600.0,,,60.24,,N,29.3,28.32,,Mostly Cloudy
KIGQ,08/06/2016 09:15 UTC,29.95,64.94,60.62,88.11,0.0,0.0,,,,,,483.0,,,,10.0,,KIGQ 060915Z AUTO 00000KT 10SM BKN048 18/16 A2995 RMK AO2  T01830159,,,4800.0,,,61.31,,N,29.3,28.29,,Mostly Cloudy
KIGQ,08/06/2016 09:35 UTC,29.95,64.76,60.44,88.11,0.0,0.0,,,,,,482.0,,,,10.0,,KIGQ 060935Z AUTO 00000KT 10SM SCT048 18/16 A2995 RMK AO2  T01820158,,,,,,61.13,,N,29.3,28.3,,Partly Cloudy
KIGQ,08/06/2016 09:55 UTC,29.96,64.94,60.26,88.11,0.0,0.0,,,,,,1.0,,,,10.0,,KIGQ 060955Z AUTO 00000KT 10SM CLR 18/16 A2996 RMK AO2  T01830157,,,,,,61.31,,N,29.31,28.3,,Clear
KIGQ,08/06/2016 10:15 UTC,29.96,62.78,59.0,88.02,0.0,0.0,,,,,,1.0,,,,10.0,,KIGQ 061015Z AUTO 00000KT 10SM CLR 17/15 A2996 RMK AO2  T01710150,,,,,,59.15,,N,29.31,28.44,,Clear
KIGQ,08/06/2016 10:35 UTC,29.97,63.68,59.72,82.65,0.0,0.0,,,,,,1.0,,,,10.0,,KIGQ 061035Z AUTO 00000KT 10SM CLR 18/15 A2997 RMK AO2  T01760154,,,,,,58.26,,N,29.32,28.48,,Clear
KIGQ,08/06/2016 10:55 UTC,29.97,64.58,60.08,88.11,0.0,0.0,,,,,,1.0,,,,10.0,,KIGQ 061055Z AUTO 00000KT 10SM CLR 18/16 A2997 RMK AO2  T01810156,,,,,,60.95,,N,29.32,28.34,,Clear
KIGQ,08/06/2016 11:15 UTC,29.97,65.12,59.9,88.11,0.0,0.0,,,,,,1.0,,,,10.0,,KIGQ 061115Z AUTO 00000KT 10SM CLR 18/16 A2997 RMK AO2  T01840155,,,,,,61.49,,N,29.32,28.3,,Clear
KIGQ,08/06/2016 11:35 UTC,29.97,63.86,59.72,82.65,0.0,0.0,,,,,,1.0,,,,10.0,,KIGQ 061135Z AUTO 00000KT 10SM CLR 18/15 A2997 RMK AO2  T01770154,,,,,,58.44,,N,29.32,28.47,,Clear
KIGQ,08/06/2016 11:55 UTC,29.98,66.74,60.98,82.77,0.0,0.0,,,,,,1.0,,,,10.0,,KIGQ 061155Z AUTO 00000KT 10SM CLR 19/16 A2998 RMK AO2 T01930161  10225 20170,72.5,62.6,,,,61.3,,N,29.33,28.3,,Clear
KIGQ,08/06/2016 12:15 UTC,29.98,69.8,61.16,73.15,0.0,0.0,,,,,,1.0,,,,10.0,,KIGQ 061215Z AUTO 00000KT 10SM CLR 21/16 A2998 RMK AO2  T02100162,,,,,,60.77,,N,29.33,28.29,,Clear
KIGQ,08/06/2016 12:35 UTC,29.98,70.88,61.16,68.81,3.44,320.0,,,,,,1.0,,,,10.0,,KIGQ 061235Z AUTO 32003KT 10SM CLR 22/16 A2998 RMK AO2  T02160162,,,,,,60.08,,NW,29.33,28.32,,Clear
KIGQ,08/06/2016 12:55 UTC,29.99,71.6,61.34,68.81,3.44,350.0,,,,,,1.0,,,,10.0,,KIGQ 061255Z AUTO 35003KT 10SM CLR 22/16 A2999 RMK AO2  T02200163,,,,,,60.77,,N,29.34,28.28,,Clear
KIGQ,08/06/2016 13:15 UTC,29.99,72.68,61.52,64.76,5.75,330.0,,,,,,1.0,,,,10.0,,KIGQ 061315Z AUTO 33005KT 10SM CLR 23/16 A2999 RMK AO2  T02260164,,,,,,60.09,,NNW,29.34,28.31,,Clear
KIGQ,08/06/2016 13:35 UTC,29.99,73.58,62.78,69.01,4.61,10.0,,,,,,1.0,,,,10.0,,KIGQ 061335Z AUTO 01004KT 10SM CLR 23/17 A2999 RMK AO2  T02310171,,,,,,62.75,,N,29.34,28.15,,Clear
KIGQ,08/06/2016 13:55 UTC,29.99,74.3,62.96,64.98,0.0,0.0,,,,,,1.0,,,,10.0,,KIGQ 061355Z AUTO 00000KT 10SM CLR 24/17 A2999 RMK AO2  T02350172,,,,,,61.73,,N,29.34,28.2,,Clear
KIGQ,08/06/2016 14:15 UTC,29.99,75.38,64.22,69.21,8.05,330.0,,,,,,1.0,,,,10.0,,KIGQ 061415Z AUTO 33007KT 10SM CLR 24/18 A2999 RMK AO2  T02410179,,,,,,64.56,,NNW,29.34,28.01,,Clear
KIGQ,08/06/2016 14:35 UTC,29.99,75.56,64.58,69.21,5.75,30.0,,,,,,552.0,,,,10.0,,KIGQ 061435Z AUTO 03005KT 10SM SCT055 24/18 A2999 RMK AO2  T02420181,,,,,,64.73,,NNE,29.34,28.0,,Partly Cloudy
KIGQ,08/06/2016 14:55 UTC,29.99,76.1,64.58,65.2,0.0,0.0,,,552.0,,,252.0,352.0,,,10.0,,KIGQ 061455Z AUTO 00000KT 10SM SCT025 SCT035 SCT055 25/18  A2999 RMK AO2 T02450181,,,,,,63.54,,N,29.34,28.07,,Partly Cloudy
KIGQ,08/06/2016 15:15 UTC,29.99,77.36,64.76,65.2,0.0,0.0,,,552.0,,,232.0,312.0,,,10.0,,KIGQ 061515Z AUTO 00000KT 10SM SCT023 SCT031 SCT055 25/18  A2999 RMK AO2 T02520182,,,,,,64.74,,N,29.34,27.98,,Partly Cloudy
KIGQ,08/06/2016 15:35 UTC,29.99,77.72,64.76,65.2,3.44,40.0,,,,,,232.0,552.0,,,10.0,,KIGQ 061535Z AUTO 04003KT 10SM SCT023 SCT055 25/18 A2999 RMK AO2  T02540182,,,,,,65.08,,NE,29.34,27.95,,Partly Cloudy
KIGQ,08/06/2016 15:55 UTC,30.0,78.26,64.4,61.44,4.61,50.0,,,,,,1.0,,,,10.0,,KIGQ 061555Z AUTO 05004KT 10SM CLR 26/18 A3000 RMK AO2  T02570180,,,,,,63.89,,NE,29.35,28.03,,Clear
KIGQ,08/06/2016 16:15 UTC,29.99,78.8,62.42,57.69,6.91,20.0,,,,,,1.0,,,,10.0,,KIGQ 061615Z AUTO 02006KT 10SM CLR 26/17 A2999 RMK AO2  T02600169,,,,,,62.6,,NNE,29.34,28.1,,Clear
KIGQ,08/06/2016 16:35 UTC,30.0,78.98,59.54,50.78,10.36,50.0,,,,,,1.0,,,,10.0,,KIGQ 061635Z AUTO 05009KT 10SM CLR 26/15 A3000 RMK AO2  T02610153,,,,,,59.17,,NE,29.35,28.31,,Clear
KIGQ,08/06/2016 16:55 UTC,30.0,78.98,60.08,54.14,5.75,10.0,,,,,,1.0,,,,10.0,,KIGQ 061655Z AUTO 01005KT 10SM CLR 26/16 A3000 RMK AO2  T02610156,,,,,,60.97,,N,29.35,28.2,,Clear
KIGQ,08/06/2016 17:15 UTC,29.99,79.16,61.16,54.14,5.75,10.0,,,,,,342.0,602.0,,,10.0,,KIGQ 061715Z AUTO 01005KT 10SM SCT034 SCT060 26/16 A2999 RMK AO2  T02620162,,,,,,61.14,,N,29.34,28.18,,Partly Cloudy
KIGQ,08/06/2016 17:35 UTC,29.99,79.34,62.96,57.69,5.75,360.0,,,492.0,,,362.0,412.0,,,10.0,,KIGQ 061735Z AUTO 36005KT 10SM SCT036 SCT041 SCT049 26/17  A2999 RMK AO2 T02630172,,,,,,63.11,,N,29.34,28.06,,Partly Cloudy
KIGQ,08/06/2016 17:55 UTC,29.99,77.72,63.14,61.21,9.22,20.0,,,603.0,,,322.0,423.0,,,10.0,,KIGQ 061755Z AUTO 02008KT 10SM SCT032 BKN042 BKN060 25/17  A2999 RMK AO2 T02540173 10268 20195,80.24,67.1,4200.0,,,63.27,,NNE,29.34,28.07,,Mostly Cloudy
KIGQ,08/06/2016 18:15 UTC,29.99,77.9,63.68,61.44,11.5,60.0,,,503.0,,,323.0,423.0,,,10.0,,KIGQ 061815Z AUTO 06010KT 020V080 10SM BKN032 BKN042 BKN050 26/18  A2999 RMK AO2 T02550176,,,3200.0,,,63.55,,ENE,29.34,28.05,,Mostly Cloudy
KIGQ,08/06/2016 18:35 UTC,30.0,80.06,63.5,57.94,8.05,30.0,,,604.0,,,322.0,443.0,,,10.0,,KIGQ 061835Z AUTO 03007KT 10SM SCT032 BKN044 OVC060 27/18  A3000 RMK AO2 T02670175,,,4400.0,,,63.91,,NNE,29.35,28.01,81.66,Overcast
KIGQ,08/06/2016 18:55 UTC,29.99,77.54,61.52,57.45,8.05,50.0,,,603.0,,,442.0,502.0,,,10.0,,KIGQ 061855Z AUTO 05007KT 10SM SCT044 SCT050 BKN060 25/16  A2999 RMK AO2 T02530164,,,6000.0,,,61.3,,NE,29.34,28.19,,Mostly Cloudy
KIGQ,08/06/2016 19:15 UTC,29.99,79.7,62.78,54.4,8.05,40.0,,,,,,442.0,602.0,,,10.0,,KIGQ 061915Z AUTO 04007KT 10SM SCT044 SCT060 27/17 A2999 RMK AO2  T02650171,,,,,,61.78,,NE,29.34,28.14,,Partly Cloudy
KIGQ,08/06/2016 19:35 UTC,29.98,79.52,61.34,54.14,8.05,30.0,,,,,,602.0,,,,10.0,,KIGQ 061935Z AUTO 03007KT 360V070 10SM SCT060 26/16 A2998 RMK AO2  T02640163,,,,,,61.48,,NNE,29.33,28.15,,Partly Cloudy
KIGQ,08/06/2016 19:55 UTC,29.99,79.88,60.44,51.05,8.05,30.0,,,,,,1.0,,,,10.0,,KIGQ 061955Z AUTO 03007KT 10SM CLR 27/16 A2999 RMK AO2  T02660158,,,,,,60.16,,NNE,29.34,28.23,,Clear
KIGQ,08/06/2016 20:15 UTC,29.98,79.7,60.44,51.05,10.36,50.0,,,,,,1.0,,,,10.0,,KIGQ 062015Z AUTO 05009KT 10SM CLR 27/16 A2998 RMK AO2  T02650158,,,,,,59.99,,NE,29.33,28.23,,Clear
KIGQ,08/06/2016 20:35 UTC,29.98,77.9,60.08,54.14,10.36,60.0,,,,,,422.0,502.0,,,10.0,,KIGQ 062035Z AUTO 06009KT 10SM SCT042 SCT050 26/16 A2998 RMK AO2  T02550156,,,,,,59.97,,ENE,29.33,28.25,,Partly Cloudy
KIGQ,08/06/2016 20:55 UTC,29.98,78.08,60.08,54.14,8.05,60.0,,,,,,392.0,483.0,,,10.0,,KIGQ 062055Z AUTO 06007KT 10SM SCT039 BKN048 26/16 A2998 RMK AO2  T02560156,,,4800.0,,,60.13,,ENE,29.33,28.24,,Mostly Cloudy
KIGQ,08/06/2016 21:15 UTC,29.97,79.16,59.36,50.78,10.36,60.0,16.11,,,,,1.0,,,,10.0,,KIGQ 062115Z AUTO 06009G14KT 10SM CLR 26/15 A2997 RMK AO2  T02620152,,,,,,59.34,,ENE,29.32,28.26,,Clear
KIGQ,08/06/2016 21:35 UTC,29.97,79.16,59.0,50.78,10.36,70.0,,,,,,432.0,,,,10.0,,KIGQ 062135Z AUTO 07009KT 10SM SCT043 26/15 A2997 RMK AO2  T02620150,,,,,,59.34,,ENE,29.32,28.26,,Partly Cloudy
KIGQ,08/06/2016 21:55 UTC,29.97,78.8,58.1,50.78,9.22,60.0,,,,,,1.0,,,,10.0,,KIGQ 062155Z AUTO 06008KT 10SM CLR 26/15 A2997 RMK AO2  T02600145,,,,,,59.01,,ENE,29.32,28.29,,Clear
KIGQ,08/06/2016 22:15 UTC,29.96,78.8,57.56,47.61,9.22,40.0,,,,,,1.0,,,,10.0,,KIGQ 062215Z AUTO 04008KT 10SM CLR 26/14 A2996 RMK AO2  T02600142,,,,,,57.21,,NE,29.31,28.37,,Clear
KIGQ,08/06/2016 22:35 UTC,29.96,78.44,56.3,47.61,8.05,50.0,,,,,,1.0,,,,10.0,,KIGQ 062235Z AUTO 05007KT 10SM CLR 26/14 A2996 RMK AO2  T02580135,,,,,,56.88,,NE,29.31,28.39,,Clear
KIGQ,08/06/2016 22:55 UTC,29.96,78.08,55.94,44.61,8.05,60.0,,,,,,1.0,,,,10.0,,KIGQ 062255Z AUTO 06007KT 10SM CLR 26/13 A2996 RMK AO2  T02560133,,,,,,54.75,,ENE,29.31,28.5,,Clear
KIGQ,08/06/2016 23:15 UTC,29.96,77.9,56.12,44.61,6.91,50.0,,,,,,1.0,,,,10.0,,KIGQ 062315Z AUTO 05006KT 10SM CLR 26/13 A2996 RMK AO2  T02550134,,,,,,54.59,,NE,29.31,28.51,,Clear
KIGQ,08/06/2016 23:35 UTC,29.96,77.18,55.04,47.33,9.22,60.0,,,,,,1.0,,,,10.0,,KIGQ 062335Z AUTO 06008KT 10SM CLR 25/13 A2996 RMK AO2  T02510128,,,,,,55.55,,ENE,29.31,28.47,,Clear
KIGQ,08/06/2016 23:55 UTC,29.96,76.46,55.04,47.33,6.91,50.0,,,,,,1.0,,,,10.0,,KIGQ 062355Z AUTO 05006KT 10SM CLR 25/13 A2996 RMK AO2 T02470128  10268 20247,80.24,76.46,,,,54.89,,NE,29.31,28.51,,Clear
KIGQ,08/07/2016 00:15 UTC,29.97,76.1,56.48,50.52,5.75,60.0,,,,,,1.0,,,,10.0,,KIGQ 070015Z AUTO 06005KT 10SM CLR 25/14 A2997 RMK AO2  T02450136,,,,,,56.36,,ENE,29.32,28.45,,Clear
KIGQ,08/07/2016 00:35 UTC,29.97,74.84,55.94,50.25,5.75,40.0,,,,,,1.0,,,,10.0,,KIGQ 070035Z AUTO 04005KT 10SM CLR 24/13 A2997 RMK AO2  T02380133,,,,,,55.05,,NE,29.32,28.53,,Clear
KIGQ,08/07/2016 00:55 UTC,29.97,73.58,57.2,56.95,4.61,50.0,,,,,,1.0,,,,10.0,,KIGQ 070055Z AUTO 05004KT 10SM CLR 23/14 A2997 RMK AO2  T02310140,,,,,,57.34,,NE,29.32,28.42,,Clear
KIGQ,08/07/2016 01:15 UTC,29.98,73.4,57.92,56.95,0.0,0.0,,,,,,1.0,,,,10.0,,KIGQ 070115Z AUTO 00000KT 10SM CLR 23/14 A2998 RMK AO2  T02300144,,,,,,57.17,,N,29.33,28.44,,Clear
KIGQ,08/07/2016 01:35 UTC,29.99,71.96,58.28,64.54,3.44,90.0,,,,,,1.0,,,,10.0,,KIGQ 070135Z AUTO 09003KT 10SM CLR 22/15 A2999 RMK AO2  T02220146,,,,,,59.31,,E,29.34,28.36,,Clear
KIGQ,08/07/2016 01:55 UTC,30.0,72.5,57.74,56.95,0.0,0.0,,,,,,1.0,,,,10.0,,KIGQ 070155Z AUTO 00000KT 10SM CLR 23/14 A3000 RMK AO2  T02250143,,,,,,56.32,,N,29.35,28.52,,Clear
KIGQ,08/07/2016 02:15 UTC,30.0,71.24,58.64,64.54,3.44,110.0,,,,,,1.0,,,,10.0,,KIGQ 070215Z AUTO 11003KT 10SM CLR 22/15 A3000 RMK AO2  T02180148,,,,,,58.62,,ESE,29.35,28.41,,Clear
KIGQ,08/07/2016 02:35 UTC,30.0,69.26,58.64,68.61,0.0,0.0,,,,,,1.0,,,,10.0,,KIGQ 070235Z AUTO 00000KT 10SM CLR 21/15 A3000 RMK AO2  T02070148,,,,,,58.44,,N,29.35,28.44,,Clear
KIGQ,08/07/2016 02:55 UTC,30.0,69.08,59.0,68.61,0.0,0.0,,,,,,1.0,,,,10.0,,KIGQ 070255Z AUTO 00000KT 10SM CLR 21/15 A3000 RMK AO2  T02060150,,,,,,58.27,,N,29.35,28.45,,Clear
KIGQ,08/07/2016 03:15 UTC,30.01,70.88,59.36,64.54,0.0,0.0,,,,,,1.0,,,,10.0,,KIGQ 070315Z AUTO 00000KT 10SM CLR 22/15 A3001 RMK AO2  T02160152,,,,,,58.28,,N,29.36,28.44,,Clear
KIGQ,08/07/2016 03:35 UTC,30.01,67.46,60.62,77.79,0.0,0.0,,,,,,1.0,,,,10.0,,KIGQ 070335Z AUTO 00000KT 10SM CLR 20/16 A3001 RMK AO2  T01970159,,,,,,60.24,,N,29.36,28.38,,Clear
KIGQ,08/07/2016 03:55 UTC,30.01,64.58,59.18,82.65,0.0,0.0,,,,,,1.0,,,,10.0,,KIGQ 070355Z AUTO 00000KT 10SM CLR 18/15 A3001 RMK AO2  T01810151,,,,,,59.14,,N,29.36,28.47,,Clear
KIGQ,08/07/2016 04:15 UTC,30.01,64.22,59.36,82.65,0.0,0.0,,,,,,1.0,,,,10.0,,KIGQ 070415Z AUTO 00000KT 10SM CLR 18/15 A3001 RMK AO2  T01790152,,,,,,58.79,,N,29.36,28.49,,Clear
KIGQ,08/07/2016 04:35 UTC,30.01,65.12,59.36,82.65,0.0,0.0,,,,,,1.0,,,,10.0,,KIGQ 070435Z AUTO 00000KT 10SM CLR 18/15 A3001 RMK AO2  T01840152,,,,,,59.67,,N,29.36,28.44,,Clear
KIGQ,08/07/2016 04:55 UTC,30.01,64.76,59.72,82.65,0.0,0.0,,,,,,1.0,,,,10.0,,KIGQ 070455Z AUTO 00000KT 10SM CLR 18/15 A3001 RMK AO2  T01820154,,,,,,59.32,,N,29.36,28.46,,Clear
KIGQ,08/07/2016 05:15 UTC,30.02,65.66,60.62,82.77,0.0,0.0,,,,,,1.0,,,,10.0,,KIGQ 070515Z AUTO 00000KT 10SM CLR 19/16 A3002 RMK AO2  T01870159,,,,,,60.24,,N,29.37,28.41,,Clear
KIGQ,08/07/2016 05:35 UTC,30.02,63.86,59.72,82.65,0.0,0.0,,,,,,1.0,,,,10.0,,KIGQ 070535Z AUTO 00000KT 10SM CLR 18/15 A3002 RMK AO2  T01770154,,,,,,58.44,,N,29.37,28.52,,Clear
KIGQ,08/07/2016 05:55 UTC,30.02,63.5,59.9,88.11,0.0,0.0,,,,,,1.0,,,,10.0,,KIGQ 070555Z AUTO 00000KT 10SM CLR 18/16 A3002 RMK AO2 T01750155  10247 20170 402680170,76.46,62.6,,80.24,62.6,59.89,,N,29.37,28.46,,Clear
KIGQ,08/07/2016 06:15 UTC,30.02,61.52,57.74,87.94,0.0,0.0,,,,,,1.0,,,,10.0,,KIGQ 070615Z AUTO 00000KT 10SM CLR 16/14 A3002 RMK AO2  T01640143,,,,,,57.88,,N,29.37,28.58,,Clear
KIGQ,08/07/2016 06:35 UTC,30.02,61.7,58.82,88.02,0.0,0.0,,,,,,1.0,,,,10.0,,KIGQ 070635Z AUTO 00000KT 10SM CLR 17/15 A3002 RMK AO2  T01650149,,,,,,58.09,,N,29.37,28.57,,Clear
KIGQ,08/07/2016 06:55 UTC,30.02,62.24,58.46,88.02,0.0,0.0,,,,,,1.0,,,,10.0,,KIGQ 070655Z AUTO 00000KT 10SM CLR 17/15 A3002 RMK AO2  T01680147,,,,,,58.62,,N,29.37,28.54,,Clear
KIGQ,08/07/2016 07:15 UTC,30.02,60.44,57.56,87.94,0.0,0.0,,,,,,1.0,,,,10.0,,KIGQ 070715Z AUTO 00000KT 10SM CLR 16/14 A3002 RMK AO2  T01580142,,,,,,56.82,,N,29.37,28.64,,Clear
KIGQ,08/07/2016 07:35 UTC,30.01,62.24,59.18,88.02,0.0,0.0,,,,,,1.0,,,,10.0,,KIGQ 070735Z AUTO 00000KT 10SM CLR 17/15 A3001 RMK AO2  T01680151,,,,,,58.62,,N,29.36,28.53,,Clear
KIGQ,08/07/2016 07:55 UTC,30.02,61.16,58.28,93.8,0.0,0.0,,,,,,1.0,,,,10.0,,KIGQ 070755Z AUTO 00000KT 10SM CLR 16/15 A3002 RMK AO2  T01620146,,,,,,59.34,,N,29.37,28.51,,Clear
KIGQ,08/07/2016 08:15 UTC,30.02,60.8,58.1,93.8,0.0,0.0,,,,,,1.0,,,,10.0,,KIGQ 070815Z AUTO 00000KT 10SM CLR 16/15 A3002 RMK AO2  T01600145,,,,,,58.99,,N,29.37,28.54,,Clear
KIGQ,08/07/2016 08:35 UTC,30.02,61.7,59.18,88.02,0.0,0.0,,,,,,1.0,,,,10.0,,KIGQ 070835Z AUTO 00000KT 10SM CLR 17/15 A3002 RMK AO2  T01650151,,,,,,58.09,,N,29.37,28.57,,Clear
KIGQ,08/07/2016 08:55 UTC,30.02,61.16,58.64,93.8,0.0,0.0,,,,,,1.0,,,,10.0,,KIGQ 070855Z AUTO 00000KT 10SM CLR 16/15 A3002 RMK AO2  T01620148,,,,,,59.34,,N,29.37,28.51,,Clear
KIGQ,08/07/2016 09:15 UTC,30.02,60.08,57.38,87.94,0.0,0.0,,,,,,1.0,,,,10.0,,KIGQ 070915Z AUTO 00000KT 10SM CLR 16/14 A3002 RMK AO2  T01560141,,,,,,56.46,,N,29.37,28.66,,Clear
KIGQ,08/07/2016 09:35 UTC,30.02,60.8,58.28,93.8,0.0,0.0,,,,,,1.0,,,,10.0,,KIGQ 070935Z AUTO 00000KT 10SM CLR 16/15 A3002 RMK AO2  T01600146,,,,,,58.99,,N,29.37,28.54,,Clear
KIGQ,08/07/2016 09:55 UTC,30.02,60.26,57.92,87.94,0.0,0.0,,,,,,1.0,,,,10.0,,KIGQ 070955Z AUTO 00000KT 10SM CLR 16/14 A3002 RMK AO2  T01570144,,,,,,56.64,,N,29.37,28.65,,Clear
KIGQ,08/07/2016 10:15 UTC,30.03,59.72,57.02,93.75,0.0,0.0,,,,,,1.0,,,,10.0,,KIGQ 071015Z AUTO 00000KT 10SM CLR 15/14 A3003 RMK AO2  T01540139,,,,,,57.9,,N,29.38,28.61,,Clear
KIGQ,08/07/2016 10:35 UTC,30.04,58.82,56.48,93.75,0.0,0.0,,,,,,1.0,,,,10.0,,KIGQ 071035Z AUTO 00000KT 10SM CLR 15/14 A3004 RMK AO2  T01490136,,,,,,57.01,,N,29.39,28.67,,Clear
KIGQ,08/07/2016 10:55 UTC,30.04,59.0,56.84,93.75,0.0,0.0,,,,,,1.0,,,,10.0,,KIGQ 071055Z AUTO 00000KT 10SM CLR 15/14 A3004 RMK AO2  T01500138,,,,,,57.18,,N,29.39,28.66,,Clear
KIGQ,08/07/2016 11:15 UTC,30.04,59.18,57.2,93.75,0.0,0.0,,,,,,1.0,,,,10.0,,KIGQ 071115Z AUTO 00000KT 10SM CLR 15/14 A3004 RMK AO2  T01510140,,,,,,57.36,,N,29.39,28.65,,Clear
KIGQ,08/07/2016 11:35 UTC,30.04,60.98,59.0,93.8,0.0,0.0,,,,,,1.0,,,,10.0,,KIGQ 071135Z AUTO 00000KT 10SM CLR 16/15 A3004 RMK AO2  T01610150,,,,,,59.17,,N,29.39,28.54,,Clear
KIGQ,08/07/2016 11:55 UTC,30.05,62.6,59.9,93.84,0.0,0.0,,,,,,1.0,,,,10.0,,KIGQ 071155Z AUTO 00000KT 10SM CLR 17/16 A3005 RMK AO2 T01700155  10176 20147,63.68,58.46,,,,60.79,,N,29.4,28.45,,Clear
KIGQ,08/07/2016 12:15 UTC,30.05,64.22,60.62,88.11,0.0,0.0,,,,,,1.0,,,,10.0,,KIGQ 071215Z AUTO 00000KT 10SM CLR 18/16 A3005 RMK AO2  T01790159,,,,,,60.6,,N,29.4,28.44,,Clear
KIGQ,08/07/2016 12:35 UTC,30.05,66.38,61.7,88.2,0.0,0.0,,,,,,1.0,,,,10.0,,KIGQ 071235Z AUTO 00000KT 10SM CLR 19/17 A3005 RMK AO2  T01910165,,,,,,62.76,,N,29.4,28.29,,Clear
KIGQ,08/07/2016 12:55 UTC,30.06,70.16,62.6,77.94,0.0,0.0,,,,,,1.0,,,,10.0,,KIGQ 071255Z AUTO 00000KT 10SM CLR 21/17 A3006 RMK AO2  T02120170,,,,,,62.92,,N,29.41,28.25,,Clear
KIGQ,08/07/2016 13:15 UTC,30.06,72.86,61.88,69.01,0.0,0.0,,,,,,1.0,,,,10.0,,KIGQ 071315Z AUTO 00000KT 10SM CLR 23/17 A3006 RMK AO2  T02270166,,,,,,62.06,,N,29.41,28.27,,Clear
KIGQ,08/07/2016 13:35 UTC,30.06,74.48,62.06,64.98,0.0,0.0,,,,,,1.0,,,,10.0,,KIGQ 071335Z AUTO 00000KT 10SM CLR 24/17 A3006 RMK AO2  T02360167,,,,,,61.9,,N,29.41,28.26,,Clear
KIGQ,08/07/2016 13:55 UTC,30.06,75.38,61.7,64.98,0.0,0.0,,,,,,1.0,,,,10.0,,KIGQ 071355Z AUTO 00000KT 10SM CLR 24/17 A3006 RMK AO2  T02410165,,,,,,62.76,,N,29.41,28.2,,Clear
KIGQ,08/07/2016 14:15 UTC,30.06,74.84,62.78,64.98,3.44,100.0,,,,,,312.0,392.0,,,10.0,,KIGQ 071415Z AUTO 10003KT 10SM SCT031 SCT039 24/17 A3006 RMK AO2  T02380171,,,,,,62.24,,E,29.41,28.23,,Partly Cloudy
KIGQ,08/07/2016 14:35 UTC,30.07,76.1,61.52,57.45,4.61,10.0,,,482.0,,,332.0,392.0,,,10.0,,KIGQ 071435Z AUTO 01004KT 10SM SCT033 SCT039 SCT048 25/16  A3007 RMK AO2 T02450164,,,,,,59.95,,N,29.42,28.36,,Partly Cloudy
KIGQ,08/07/2016 14:55 UTC,30.07,77.54,59.72,53.88,3.44,10.0,,,,,,352.0,,,,10.0,,KIGQ 071455Z AUTO 01003KT 10SM SCT035 25/15 A3007 RMK AO2  T02530154,,,,,,59.49,,N,29.42,28.37,,Partly Cloudy
KIGQ,08/07/2016 15:15 UTC,30.08,77.36,59.36,53.88,8.05,50.0,,,,,,392.0,,,,10.0,,KIGQ 071515Z AUTO 05007KT 10SM SCT039 25/15 A3008 RMK AO2  T02520152,,,,,,59.33,,NE,29.43,28.39,,Partly Cloudy
KIGQ,08/07/2016 15:35 UTC,30.08,78.08,59.0,50.78,6.91,40.0,,,,,,412.0,,,,10.0,,KIGQ 071535Z AUTO 04006KT 10SM SCT041 26/15 A3008 RMK AO2  T02560150,,,,,,58.34,,NE,29.43,28.44,,Partly Cloudy
KIGQ,08/07/2016 15:55 UTC,30.08,77.72,57.56,50.52,6.91,50.0,,,,,,412.0,,,,10.0,,KIGQ 071555Z AUTO 05006KT 10SM SCT041 25/14 A3008 RMK AO2  T02540142,,,,,,57.86,,NE,29.43,28.47,,Partly Cloudy
KIGQ,08/07/2016 16:15 UTC,30.08,77.36,58.1,53.88,6.91,60.0,,,,,,1.0,,,,10.0,,KIGQ 071615Z AUTO 06006KT 10SM CLR 25/15 A3008 RMK AO2  T02520145,,,,,,59.33,,ENE,29.43,28.39,,Clear
KIGQ,08/07/2016 16:35 UTC,30.08,78.98,59.0,50.78,5.75,30.0,,,,,,1.0,,,,10.0,,KIGQ 071635Z AUTO 03005KT 10SM CLR 26/15 A3008 RMK AO2  T02610150,,,,,,59.17,,NNE,29.43,28.39,,Clear
KIGQ,08/07/2016 16:55 UTC,30.07,78.8,57.38,47.61,8.05,50.0,,,,,,1.0,,,,10.0,,KIGQ 071655Z AUTO 05007KT 10SM CLR 26/14 A3007 RMK AO2  T02600141,,,,,,57.21,,NE,29.42,28.48,,Clear
KIGQ,08/07/2016 17:15 UTC,30.07,78.98,56.12,44.61,9.22,50.0,,,,,,1.0,,,,10.0,,KIGQ 071715Z AUTO 05008KT 10SM CLR 26/13 A3007 RMK AO2  T02610134,,,,,,55.57,,NE,29.42,28.57,,Clear
KIGQ,08/07/2016 17:35 UTC,30.06,79.7,55.22,42.06,6.91,50.0,,,,,,1.0,,,,10.0,,KIGQ 071735Z AUTO 05006KT 10SM CLR 27/13 A3006 RMK AO2  T02650129,,,,,,54.61,,NE,29.41,28.6,,Clear
KIGQ,08/07/2016 17:55 UTC,30.06,80.42,54.5,42.06,9.22,70.0,,,,,,1.0,,,,10.0,,KIGQ 071755Z AUTO 07008KT 10SM CLR 27/13 A3006 RMK AO2 T02690125  10269 20171,80.42,62.78,,,,55.26,,ENE,29.41,28.56,80.41,Clear
KIGQ,08/07/2016 18:15 UTC,30.06,80.06,53.6,39.39,8.05,60.0,,,,,,1.0,,,,10.0,,KIGQ 071815Z AUTO 06007KT 10SM CLR 27/12 A3006 RMK AO2  T02670120,,,,,,53.14,,ENE,29.41,28.66,79.62,Clear
KIGQ,08/07/2016 18:35 UTC,30.05,79.88,53.06,39.39,9.22,30.0,,,,,,1.0,,,,10.0,,KIGQ 071835Z AUTO 03008KT 10SM CLR 27/12 A3005 RMK AO2  T02660117,,,,,,52.98,,NNE,29.4,28.66,,Clear
KIGQ,08/07/2016 18:55 UTC,30.05,80.96,56.12,42.06,9.22,20.0,,,,,,1.0,,,,10.0,,KIGQ 071855Z AUTO 02008KT 10SM CLR 27/13 A3005 RMK AO2  T02720134,,,,,,55.75,,NNE,29.4,28.52,80.82,Clear
KIGQ,08/07/2016 19:15 UTC,30.05,80.6,56.48,44.89,9.22,60.0,,,,,,1.0,,,,10.0,,KIGQ 071915Z AUTO 06008KT 10SM CLR 27/14 A3005 RMK AO2  T02700136,,,,,,57.23,,ENE,29.4,28.45,80.82,Clear
KIGQ,08/07/2016 19:35 UTC,30.05,80.6,55.94,42.06,9.22,30.0,,,,,,1.0,,,,10.0,,KIGQ 071935Z AUTO 03008KT 10SM CLR 27/13 A3005 RMK AO2  T02700133,,,,,,55.43,,NNE,29.4,28.54,80.54,Clear
KIGQ,08/07/2016 19:55 UTC,30.04,80.06,55.22,42.06,9.22,50.0,,,,,,1.0,,,,10.0,,KIGQ 071955Z AUTO 05008KT 10SM CLR 27/13 A3004 RMK AO2  T02670129,,,,,,54.94,,NE,29.39,28.56,79.74,Clear
KIGQ,08/07/2016 20:15 UTC,30.04,80.06,54.5,42.06,8.05,40.0,,,,,,1.0,,,,10.0,,KIGQ 072015Z AUTO 04007KT 10SM CLR 27/13 A3004 RMK AO2  T02670125,,,,,,54.94,,NE,29.39,28.56,79.74,Clear
KIGQ,08/07/2016 20:35 UTC,30.04,80.06,56.84,44.89,9.22,30.0,,,,,,1.0,,,,10.0,,KIGQ 072035Z AUTO 03008KT 10SM CLR 27/14 A3004 RMK AO2  T02670138,,,,,,56.73,,NNE,29.39,28.47,79.88,Clear
KIGQ,08/07/2016 20:55 UTC,30.04,79.7,55.94,42.06,10.36,30.0,,,,,,1.0,,,,10.0,,KIGQ 072055Z AUTO 03009KT 10SM CLR 27/13 A3004 RMK AO2  T02650133,,,,,,54.61,,NNE,29.39,28.58,,Clear
KIGQ,08/07/2016 21:15 UTC,30.03,78.26,55.22,44.61,8.05,50.0,,,,,,1.0,,,,10.0,,KIGQ 072115Z AUTO 05007KT 10SM CLR 26/13 A3003 RMK AO2  T02570129,,,,,,54.91,,NE,29.38,28.56,,Clear
KIGQ,08/07/2016 21:35 UTC,30.03,79.16,55.94,44.61,8.05,40.0,,,,,,1.0,,,,10.0,,KIGQ 072135Z AUTO 04007KT 10SM CLR 26/13 A3003 RMK AO2  T02620133,,,,,,55.74,,NE,29.38,28.52,,Clear
KIGQ,08/07/2016 21:55 UTC,30.03,79.7,58.1,47.88,8.05,60.0,,,,,,1.0,,,,10.0,,KIGQ 072155Z AUTO 06007KT 030V090 10SM CLR 27/15 A3003 RMK AO2  T02650145,,,,,,58.19,,ENE,29.38,28.38,,Clear
KIGQ,08/07/2016 22:15 UTC,30.03,77.72,58.28,53.88,10.36,40.0,,,,,,1.0,,,,10.0,,KIGQ 072215Z AUTO 04009KT 10SM CLR 25/15 A3003 RMK AO2  T02540146,,,,,,59.66,,NE,29.38,28.32,,Clear
KIGQ,08/07/2016 22:35 UTC,30.03,77.9,59.54,50.78,4.61,50.0,,,,,,1.0,,,,10.0,,KIGQ 072235Z AUTO 05004KT 10SM CLR 26/15 A3003 RMK AO2  T02550153,,,,,,58.17,,NE,29.38,28.4,,Clear
KIGQ,08/07/2016 22:55 UTC,30.02,76.46,59.54,53.88,9.22,60.0,,,,,,1.0,,,,10.0,,KIGQ 072255Z AUTO 06008KT 10SM CLR 25/15 A3002 RMK AO2  T02470153,,,,,,58.49,,ENE,29.37,28.39,,Clear
KIGQ,08/07/2016 23:15 UTC,30.02,76.1,60.44,57.45,9.22,60.0,,,,,,1.0,,,,10.0,,KIGQ 072315Z AUTO 06008KT 10SM CLR 25/16 A3002 RMK AO2  T02450158,,,,,,59.95,,ENE,29.37,28.31,,Clear
KIGQ,08/07/2016 23:35 UTC,30.02,75.56,60.62,60.98,8.05,40.0,,,,,,1.0,,,,10.0,,KIGQ 072335Z AUTO 04007KT 10SM CLR 24/16 A3002 RMK AO2  T02420159,,,,,,61.12,,NE,29.37,28.25,,Clear
KIGQ,08/07/2016 23:55 UTC,30.03,75.38,60.98,60.98,8.05,40.0,,,,,,1.0,,,,10.0,,KIGQ 072355Z AUTO 04007KT 10SM CLR 24/16 A3003 RMK AO2 T02410161  10273 20241,81.14,75.38,,,,60.95,,NE,29.38,28.27,,Clear
KIGQ,08/08/2016 00:15 UTC,30.03,74.84,60.8,60.98,8.05,40.0,,,,,,1.0,,,,10.0,,KIGQ 080015Z AUTO 04007KT 10SM CLR 24/16 A3003 RMK AO2  T02380160,,,,,,60.44,,NE,29.38,28.31,,Clear
KIGQ,08/08/2016 00:35 UTC,30.02,74.66,61.16,60.98,11.5,30.0,,,,,,1.0,,,,10.0,,KIGQ 080035Z AUTO 03010KT 10SM CLR 24/16 A3002 RMK AO2  T02370162,,,,,,60.27,,NNE,29.37,28.31,,Clear
KIGQ,08/08/2016 00:55 UTC,30.02,74.48,61.16,60.98,8.05,40.0,,,,,,1.0,,,,10.0,,KIGQ 080055Z AUTO 04007KT 10SM CLR 24/16 A3002 RMK AO2  T02360162,,,,,,60.1,,NE,29.37,28.32,,Clear
KIGQ,08/08/2016 01:15 UTC,30.02,74.3,61.7,64.98,6.91,40.0,,,,,,1.0,,,,10.0,,KIGQ 080115Z AUTO 04006KT 10SM CLR 24/17 A3002 RMK AO2  T02350165,,,,,,61.73,,NE,29.37,28.23,,Clear
KIGQ,08/08/2016 01:35 UTC,30.03,74.3,62.6,64.98,9.22,40.0,,,,,,1.0,,,,10.0,,KIGQ 080135Z AUTO 04008KT 10SM CLR 24/17 A3003 RMK AO2  T02350170,,,,,,61.73,,NE,29.38,28.24,,Clear
KIGQ,08/08/2016 01:55 UTC,30.04,73.76,63.5,73.5,11.5,40.0,,,,,,1.0,,,,10.0,,KIGQ 080155Z AUTO 04010KT 10SM CLR 23/18 A3004 RMK AO2  T02320175,,,,,,64.73,,NE,29.39,28.07,,Clear
KIGQ,08/08/2016 02:15 UTC,30.04,73.4,62.42,69.01,8.05,40.0,,,,,,1.0,,,,10.0,,KIGQ 080215Z AUTO 04007KT 10SM CLR 23/17 A3004 RMK AO2  T02300169,,,,,,62.58,,NE,29.39,28.21,,Clear
KIGQ,08/08/2016 02:35 UTC,30.04,73.4,62.6,69.01,8.05,40.0,,,,,,1.0,,,,10.0,,KIGQ 080235Z AUTO 04007KT 10SM CLR 23/17 A3004 RMK AO2  T02300170,,,,,,62.58,,NE,29.39,28.21,,Clear
KIGQ,08/08/2016 02:55 UTC,30.04,73.4,62.06,69.01,5.75,40.0,,,,,,1.0,,,,10.0,,KIGQ 080255Z AUTO 04005KT 10SM CLR 23/17 A3004 RMK AO2  T02300167,,,,,,62.58,,NE,29.39,28.21,,Clear
KIGQ,08/08/2016 03:15 UTC,30.04,73.22,62.06,69.01,8.05,50.0,,,,,,1.0,,,,10.0,,KIGQ 080315Z AUTO 05007KT 10SM CLR 23/17 A3004 RMK AO2  T02290167,,,,,,62.41,,NE,29.39,28.22,,Clear
KIGQ,08/08/2016 03:35 UTC,30.04,73.4,62.6,69.01,8.05,50.0,,,,,,1.0,,,,10.0,,KIGQ 080335Z AUTO 05007KT 10SM CLR 23/17 A3004 RMK AO2  T02300170,,,,,,62.58,,NE,29.39,28.21,,Clear
KIGQ,08/08/2016 03:55 UTC,30.04,72.86,62.6,69.01,6.91,40.0,,,,,,1.0,,,,10.0,,KIGQ 080355Z AUTO 04006KT 10SM CLR 23/17 A3004 RMK AO2  T02270170,,,,,,62.06,,NE,29.39,28.25,,Clear
KIGQ,08/08/2016 04:15 UTC,30.05,72.5,62.6,69.01,5.75,50.0,,,,,,1.0,,,,10.0,,KIGQ 080415Z AUTO 05005KT 10SM CLR 23/17 A3005 RMK AO2  T02250170,,,,,,61.71,,NE,29.4,28.28,,Clear
KIGQ,08/08/2016 04:35 UTC,30.04,72.68,62.78,69.01,9.22,60.0,,,,,,1.0,,,,10.0,,KIGQ 080435Z AUTO 06008KT 10SM CLR 23/17 A3004 RMK AO2  T02260171,,,,,,61.89,,ENE,29.39,28.26,,Clear
KIGQ,08/08/2016 04:55 UTC,30.05,72.68,63.14,69.01,8.05,50.0,,,,,,1.0,,,,10.0,,KIGQ 080455Z AUTO 05007KT 10SM CLR 23/17 A3005 RMK AO2  T02260173,,,,,,61.89,,NE,29.4,28.27,,Clear
KIGQ,08/08/2016 05:15 UTC,30.05,72.5,62.78,69.01,6.91,60.0,,,,,,1.0,,,,10.0,,KIGQ 080515Z AUTO 06006KT 10SM CLR 23/17 A3005 RMK AO2  T02250171,,,,,,61.71,,ENE,29.4,28.28,,Clear
KIGQ,08/08/2016 05:35 UTC,30.04,72.5,62.06,69.01,6.91,50.0,,,,,,1.0,,,,10.0,,KIGQ 080535Z AUTO 05006KT 10SM CLR 23/17 A3004 RMK AO2  T02250167,,,,,,61.71,,NE,29.39,28.27,,Clear
KIGQ,08/08/2016 05:55 UTC,30.04,72.14,61.7,73.32,6.91,50.0,,,,,,1.0,,,,10.0,,KIGQ 080555Z AUTO 05006KT 10SM CLR 22/17 A3004 RMK AO2 T02230165  10241 20223 402730147,75.38,72.14,,81.14,58.46,63.09,,NE,29.39,28.19,,Clear
KIGQ,08/08/2016 06:15 UTC,30.04,72.14,61.7,73.32,6.91,60.0,,,,,,1.0,,,,10.0,,KIGQ 080615Z AUTO 06006KT 10SM CLR 22/17 A3004 RMK AO2  T02230165,,,,,,63.09,,ENE,29.39,28.19,,Clear
KIGQ,08/08/2016 06:35 UTC,30.04,71.96,61.7,73.32,5.75,50.0,,,,,,702.0,,,,10.0,,KIGQ 080635Z AUTO 05005KT 10SM SCT070 22/17 A3004 RMK AO2  T02220165,,,,,,62.92,,NE,29.39,28.21,,Partly Cloudy
KIGQ,08/08/2016 06:55 UTC,30.04,71.6,61.16,68.81,4.61,50.0,,,,,,702.0,,,,10.0,,KIGQ 080655Z AUTO 05004KT 10SM SCT070 22/16 A3004 RMK AO2  T02200162,,,,,,60.77,,NE,29.39,28.33,,Partly Cloudy
KIGQ,08/08/2016 07:15 UTC,30.04,71.6,60.8,68.81,4.61,50.0,,,,,,702.0,,,,10.0,,KIGQ 080715Z AUTO 05004KT 10SM SCT070 22/16 A3004 RMK AO2  T02200160,,,,,,60.77,,NE,29.39,28.33,,Partly Cloudy
KIGQ,08/08/2016 07:35 UTC,30.03,71.24,60.44,68.81,5.75,50.0,,,,,,702.0,,,,10.0,,KIGQ 080735Z AUTO 05005KT 10SM SCT070 22/16 A3003 RMK AO2  T02180158,,,,,,60.42,,NE,29.38,28.35,,Partly Cloudy
KIGQ,08/08/2016 07:55 UTC,30.03,71.42,60.44,68.81,5.75,50.0,,,,,,603.0,703.0,,,10.0,,KIGQ 080755Z AUTO 05005KT 10SM BKN060 BKN070 22/16 A3003 RMK AO2  T02190158,,,6000.0,,,60.6,,NE,29.38,28.33,,Mostly Cloudy
KIGQ,08/08/2016 08:15 UTC,30.03,71.06,60.26,68.81,6.91,60.0,,,,,,602.0,,,,10.0,,KIGQ 080815Z AUTO 06006KT 10SM SCT060 22/16 A3003 RMK AO2  T02170157,,,,,,60.25,,ENE,29.38,28.36,,Partly Cloudy
KIGQ,08/08/2016 08:35 UTC,30.03,70.88,60.8,68.81,5.75,40.0,,,,,,602.0,702.0,,,10.0,,KIGQ 080835Z AUTO 04005KT 10SM SCT060 SCT070 22/16 A3003 RMK AO2  T02160160,,,,,,60.08,,NE,29.38,28.37,,Partly Cloudy
KIGQ,08/08/2016 08:55 UTC,30.03,70.88,60.62,68.81,4.61,50.0,,,,,,603.0,703.0,,,10.0,,KIGQ 080855Z AUTO 05004KT 10SM BKN060 BKN070 22/16 A3003 RMK AO2  T02160159,,,6000.0,,,60.08,,NE,29.38,28.37,,Mostly Cloudy
KIGQ,08/08/2016 09:15 UTC,30.03,71.42,59.0,64.54,6.91,60.0,,,,,,604.0,,,,10.0,,KIGQ 080915Z AUTO 06006KT 10SM OVC060 22/15 A3003 RMK AO2  T02190150,,,6000.0,,,58.79,,ENE,29.38,28.43,,Overcast
KIGQ,08/08/2016 09:35 UTC,30.03,71.6,57.74,60.51,4.61,60.0,,,,,,604.0,,,,10.0,,KIGQ 080935Z AUTO 06004KT 10SM OVC060 22/14 A3003 RMK AO2  T02200143,,,6000.0,,,57.16,,ENE,29.38,28.51,,Overcast
KIGQ,08/08/2016 09:55 UTC,30.04,71.78,56.84,60.51,8.05,60.0,,,,,,603.0,754.0,,,10.0,,KIGQ 080955Z AUTO 06007KT 10SM BKN060 OVC075 22/14 A3004 RMK AO2  T02210138,,,6000.0,,,57.33,,ENE,29.39,28.51,,Overcast
KIGQ,08/08/2016 10:15 UTC,30.04,71.6,57.02,60.51,5.75,70.0,,,,,,604.0,,,,10.0,,KIGQ 081015Z AUTO 07005KT 10SM OVC060 22/14 A3004 RMK AO2  T02200139,,,6000.0,,,57.16,,ENE,29.39,28.52,,Overcast
KIGQ,08/08/2016 10:35 UTC,30.05,71.6,56.66,60.51,6.91,60.0,,,,,,604.0,,,,10.0,,KIGQ 081035Z AUTO 06006KT 10SM OVC060 22/14 A3005 RMK AO2  T02200137,,,6000.0,,,57.16,,ENE,29.4,28.53,,Overcast
KIGQ,08/08/2016 10:55 UTC,30.06,70.88,57.2,60.51,5.75,50.0,,,,,,603.0,,,,10.0,,KIGQ 081055Z AUTO 05005KT 10SM BKN060 22/14 A3006 RMK AO2  T02160140,,,6000.0,,,56.48,,NE,29.41,28.59,,Mostly Cloudy
KIGQ,08/08/2016 11:15 UTC,30.06,70.16,57.56,64.32,5.75,60.0,,,,,,603.0,803.0,,,10.0,,KIGQ 081115Z AUTO 06005KT 10SM BKN060 BKN080 21/14 A3006 RMK AO2  T02120142,,,6000.0,,,57.5,,ENE,29.41,28.54,,Mostly Cloudy
KIGQ,08/08/2016 11:35 UTC,30.07,70.34,57.74,64.32,4.61,70.0,,,,,,602.0,802.0,,,10.0,,KIGQ 081135Z AUTO 07004KT 10SM SCT060 SCT080 21/14 A3007 RMK AO2  T02130143,,,,,,57.67,,ENE,29.42,28.54,,Partly Cloudy
KIGQ,08/08/2016 11:55 UTC,30.06,69.8,58.64,68.61,4.61,80.0,,,,,,1.0,,,,10.0,,KIGQ 081155Z AUTO 08004KT 10SM CLR 21/15 A3006 RMK AO2 T02100148  10225 20210,72.5,69.8,,,,58.96,,E,29.41,28.47,,Clear
KIGQ,08/08/2016 12:15 UTC,30.07,70.7,58.64,64.54,3.44,100.0,,,,,,1.0,,,,10.0,,KIGQ 081215Z AUTO 10003KT 10SM CLR 22/15 A3007 RMK AO2  T02150148,,,,,,58.11,,E,29.42,28.52,,Clear
KIGQ,08/08/2016 12:35 UTC,30.07,71.78,59.0,64.54,4.61,90.0,,,,,,1.0,,,,10.0,,KIGQ 081235Z AUTO 09004KT 10SM CLR 22/15 A3007 RMK AO2  T02210150,,,,,,59.13,,E,29.42,28.45,,Clear
KIGQ,08/08/2016 12:55 UTC,30.08,72.86,59.36,60.75,5.75,90.0,,,,,,1.0,,,,10.0,,KIGQ 081255Z AUTO 09005KT 10SM CLR 23/15 A3008 RMK AO2  T02270152,,,,,,58.46,,E,29.43,28.49,,Clear
KIGQ,08/08/2016 13:15 UTC,30.07,73.76,59.18,60.75,8.05,120.0,,,,,,1.0,,,,10.0,,KIGQ 081315Z AUTO 12007KT 10SM CLR 23/15 A3007 RMK AO2  T02320151,,,,,,59.31,,ESE,29.42,28.42,,Clear
KIGQ,08/08/2016 13:35 UTC,30.07,74.84,59.18,57.2,8.05,130.0,,,,,,1.0,,,,10.0,,KIGQ 081335Z AUTO 13007KT 10SM CLR 24/15 A3007 RMK AO2  T02380151,,,,,,58.64,,SE,29.42,28.45,,Clear
KIGQ,08/08/2016 13:55 UTC,30.07,75.56,59.18,57.2,8.05,130.0,,,,,,1.0,,,,10.0,,KIGQ 081355Z AUTO 13007KT 10SM CLR 24/15 A3007 RMK AO2  T02420151,,,,,,59.32,,SE,29.42,28.4,,Clear
KIGQ,08/08/2016 14:15 UTC,30.07,77.0,58.64,53.88,12.66,120.0,17.27,,,,,653.0,,,,10.0,,KIGQ 081415Z AUTO 12011G15KT 10SM BKN065 25/15 A3007 RMK AO2  T02500148,,,6500.0,,,58.99,,ESE,29.42,28.41,,Mostly Cloudy
KIGQ,08/08/2016 14:35 UTC,30.07,76.28,57.56,50.52,10.36,120.0,17.27,,,,,654.0,,,,10.0,,KIGQ 081435Z AUTO 12009G15KT 10SM OVC065 25/14 A3007 RMK AO2  T02460142,,,6500.0,,,56.53,,ESE,29.42,28.54,,Overcast
KIGQ,08/08/2016 14:55 UTC,30.07,76.28,59.54,56.26,8.05,100.0,,,,,,654.0,,,,10.0,,KIGQ 081455Z AUTO 10007KT 10SM OVC065 25/15 A3007 RMK AO2  T02460153,,,6500.0,,,59.53,,E,29.42,28.38,,Overcast
KIGQ,08/08/2016 15:15 UTC,30.07,78.26,58.46,50.78,10.36,130.0,,,,,,654.0,,,,10.0,,KIGQ 081515Z AUTO 13009KT 10SM OVC065 26/15 A3007 RMK AO2  T02570147,,,6500.0,,,58.5,,SE,29.42,28.42,,Overcast
KIGQ,08/08/2016 15:35 UTC,30.06,77.36,59.54,53.88,9.22,100.0,,,,,,554.0,,,,10.0,,KIGQ 081535Z AUTO 10008KT 10SM OVC055 25/15 A3006 RMK AO2  T02520153,,,5500.0,,,59.33,,E,29.41,28.37,,Overcast
KIGQ,08/08/2016 15:55 UTC,30.06,78.62,59.0,50.78,5.75,110.0,11.5,,,,,553.0,,,,10.0,,KIGQ 081555Z AUTO 11005G10KT 10SM BKN055 26/15 A3006 RMK AO2  T02590150,,,5500.0,,,58.84,,ESE,29.41,28.39,,Mostly Cloudy
KIGQ,08/08/2016 16:15 UTC,30.06,79.7,60.26,51.05,10.36,90.0,,,,,,554.0,,,,10.0,,KIGQ 081615Z AUTO 09009KT 10SM OVC055 27/16 A3006 RMK AO2  T02650157,,,5500.0,,,59.99,,E,29.41,28.31,,Overcast
KIGQ,08/08/2016 16:35 UTC,30.06,80.96,60.26,51.05,8.05,120.0,,,,,,553.0,704.0,,,10.0,,KIGQ 081635Z AUTO 12007KT 10SM BKN055 OVC070 27/16 A3006 RMK AO2  T02720157,,,5500.0,,,61.16,,ESE,29.41,28.23,81.82,Overcast
KIGQ,08/08/2016 16:55 UTC,30.06,80.96,60.8,51.05,9.22,120.0,,,,,,552.0,703.0,,,10.0,,KIGQ 081655Z AUTO 12008KT 10SM SCT055 BKN070 27/16 A3006 RMK AO2  T02720160,,,7000.0,,,61.16,,ESE,29.41,28.23,81.82,Mostly Cloudy
KIGQ,08/08/2016 17:15 UTC,30.05,81.5,60.44,48.15,9.22,120.0,,,,,,702.0,802.0,,,10.0,,KIGQ 081715Z AUTO 12008KT 10SM SCT070 SCT080 28/16 A3005 RMK AO2  T02750158,,,,,,60.01,,ESE,29.4,28.29,82.0,Partly Cloudy
KIGQ,08/08/2016 17:35 UTC,30.05,81.86,61.34,48.15,5.75,130.0,,,,,,702.0,,,,10.0,,KIGQ 081735Z AUTO 13005KT 10SM SCT070 28/16 A3005 RMK AO2  T02770163,,,,,,60.34,,SE,29.4,28.26,82.36,Partly Cloudy
KIGQ,08/08/2016 17:55 UTC,30.05,83.12,60.26,48.15,10.36,120.0,,,,,,703.0,,,,10.0,,KIGQ 081755Z AUTO 12009KT 10SM BKN070 28/16 A3005 RMK AO2  T02840157 10285 20210,83.3,69.8,7000.0,,,61.5,,ESE,29.4,28.18,83.71,Mostly Cloudy
KIGQ,08/08/2016 18:15 UTC,30.04,82.58,61.34,48.15,10.36,100.0,,,703.0,,,462.0,552.0,,,10.0,,KIGQ 081815Z AUTO 10009KT 10SM SCT046 SCT055 BKN070 28/16  A3004 RMK AO2 T02810163,,,7000.0,,,61.0,,E,29.39,28.21,83.11,Mostly Cloudy
KIGQ,08/08/2016 18:35 UTC,30.04,82.04,60.08,48.15,6.91,110.0,,,704.0,,,482.0,553.0,,,10.0,,KIGQ 081835Z AUTO 11006KT 10SM SCT048 BKN055 OVC070 28/16  A3004 RMK AO2 T02780156,,,5500.0,,,60.51,,ESE,29.39,28.24,82.54,Overcast
KIGQ,08/08/2016 18:55 UTC,30.04,83.3,60.8,45.44,4.61,120.0,,,,,,482.0,654.0,,,10.0,,KIGQ 081855Z AUTO 12004KT 10SM SCT048 OVC065 29/16 A3004 RMK AO2  T02850160,,,6500.0,,,60.04,,ESE,29.39,28.26,83.45,Overcast
KIGQ,08/08/2016 19:15 UTC,30.04,82.94,61.52,48.15,5.75,100.0,16.11,,803.0,,,482.0,653.0,,,10.0,,KIGQ 081915Z AUTO 10005G14KT 10SM SCT048 BKN065 BKN080 28/16  A3004 RMK AO2 T02830164,,,6500.0,,,61.34,,E,29.39,28.19,83.51,Mostly Cloudy
KIGQ,08/08/2016 19:35 UTC,30.03,82.94,59.72,45.17,4.61,90.0,,,803.0,,,602.0,652.0,,,10.0,,KIGQ 081935Z AUTO 09004KT 10SM SCT060 SCT065 BKN080 28/15  A3003 RMK AO2 T02830154,,,8000.0,,,59.54,,E,29.38,28.28,83.02,Mostly Cloudy
KIGQ,08/08/2016 19:55 UTC,30.02,82.22,60.44,48.15,5.75,130.0,16.11,,803.0,,,503.0,603.0,,,10.0,,KIGQ 081955Z AUTO 13005G14KT 10SM BKN050 BKN060 BKN080 28/16  A3002 RMK AO2 T02790158,,,5000.0,,,60.67,,SE,29.37,28.21,82.73,Mostly Cloudy
KIGQ,08/08/2016 20:15 UTC,30.02,81.68,60.8,48.15,6.91,140.0,,,703.0,,,502.0,603.0,,,10.0,,KIGQ 082015Z AUTO 14006KT 10SM SCT050 BKN060 BKN070 28/16  A3002 RMK AO2 T02760160,,,6000.0,,,60.18,,SE,29.37,28.24,82.17,Mostly Cloudy
KIGQ,08/08/2016 20:35 UTC,30.02,82.76,60.44,48.15,10.36,100.0,,,,,,502.0,703.0,,,10.0,,KIGQ 082035Z AUTO 10009KT 10SM SCT050 BKN070 28/16 A3002 RMK AO2  T02820158,,,7000.0,,,61.17,,E,29.37,28.18,83.31,Mostly Cloudy
KIGQ,08/08/2016 20:55 UTC,30.01,83.66,61.16,45.44,8.05,130.0,,,,,,503.0,703.0,,,10.0,,KIGQ 082055Z AUTO 13007KT 10SM BKN050 BKN070 29/16 A3001 RMK AO2  T02870162,,,5000.0,,,60.37,,SE,29.36,28.21,83.84,Mostly Cloudy
KIGQ,08/08/2016 21:15 UTC,30.01,84.2,60.8,45.44,9.22,100.0,,,,,,502.0,,,,10.0,,KIGQ 082115Z AUTO 10008KT 10SM SCT050 29/16 A3001 RMK AO2  T02900160,,,,,,60.86,,E,29.36,28.17,84.45,Partly Cloudy
KIGQ,08/08/2016 21:35 UTC,30.01,81.86,60.26,48.15,9.22,120.0,,,,,,602.0,,,,10.0,,KIGQ 082135Z AUTO 12008KT 10SM SCT060 28/16 A3001 RMK AO2  T02770157,,,,,,60.34,,ESE,29.36,28.22,82.36,Partly Cloudy
KIGQ,08/08/2016 21:55 UTC,30.01,82.76,62.6,51.31,10.36,40.0,,,,,,603.0,653.0,,,10.0,,KIGQ 082155Z AUTO 04009KT 10SM BKN060 BKN065 28/17 A3001 RMK AO2  T02820170,,,6000.0,,,62.97,,NE,29.36,28.06,83.85,Mostly Cloudy
KIGQ,08/08/2016 22:15 UTC,30.0,81.32,62.78,54.4,8.05,40.0,,,,,,554.0,,,,10.0,,KIGQ 082215Z AUTO 04007KT 10SM OVC055 27/17 A3000 RMK AO2  T02740171,,,5500.0,,,63.29,,NE,29.35,28.04,82.65,Overcast
KIGQ,08/08/2016 22:35 UTC,30.0,81.32,62.42,54.4,10.36,40.0,,,,,,553.0,,,,10.0,,KIGQ 082235Z AUTO 04009KT 10SM BKN055 27/17 A3000 RMK AO2  T02740169,,,5500.0,,,63.29,,NE,29.35,28.04,82.65,Mostly Cloudy
KIGQ,08/08/2016 22:55 UTC,30.0,80.42,62.42,54.4,9.22,40.0,,,,,,553.0,703.0,,,10.0,,KIGQ 082255Z AUTO 04008KT 10SM BKN055 BKN070 27/17 A3000 RMK AO2  T02690169,,,5500.0,,,62.45,,NE,29.35,28.1,81.66,Mostly Cloudy
KIGQ,08/08/2016 23:15 UTC,29.99,80.24,62.06,54.4,9.22,50.0,,,,,,552.0,702.0,,,10.0,,KIGQ 082315Z AUTO 05008KT 10SM SCT055 SCT070 27/17 A2999 RMK AO2  T02680167,,,,,,62.29,,NE,29.34,28.1,81.47,Partly Cloudy
KIGQ,08/08/2016 23:35 UTC,29.99,79.88,61.16,51.05,9.22,60.0,,,,,,1.0,,,,10.0,,KIGQ 082335Z AUTO 06008KT 10SM CLR 27/16 A2999 RMK AO2  T02660162,,,,,,60.16,,ENE,29.34,28.23,,Clear
KIGQ,08/08/2016 23:55 UTC,29.99,79.52,61.16,54.14,8.05,60.0,,,,,,1.0,,,,10.0,,KIGQ 082355Z AUTO 06007KT 10SM CLR 26/16 A2999 RMK AO2 T02640162  10290 20264,84.2,79.52,,,,61.48,,ENE,29.34,28.16,,Clear
KIGQ,08/09/2016 00:15 UTC,29.99,78.8,60.98,54.14,5.75,50.0,,,,,,1.0,,,,10.0,,KIGQ 090015Z AUTO 05005KT 10SM CLR 26/16 A2999 RMK AO2  T02600161,,,,,,60.81,,NE,29.34,28.2,,Clear
KIGQ,08/09/2016 00:35 UTC,29.99,78.08,60.8,54.14,9.22,70.0,,,,,,1.0,,,,10.0,,KIGQ 090035Z AUTO 07008KT 10SM CLR 26/16 A2999 RMK AO2  T02560160,,,,,,60.13,,ENE,29.34,28.25,,Clear
KIGQ,08/09/2016 00:55 UTC,29.99,77.18,60.8,57.45,6.91,70.0,,,,,,1.0,,,,10.0,,KIGQ 090055Z AUTO 07006KT 10SM CLR 25/16 A2999 RMK AO2  T02510160,,,,,,60.96,,ENE,29.34,28.21,,Clear
KIGQ,08/09/2016 01:15 UTC,29.99,76.28,60.98,57.45,6.91,70.0,,,,,,1.0,,,,10.0,,KIGQ 090115Z AUTO 07006KT 10SM CLR 25/16 A2999 RMK AO2  T02460161,,,,,,60.12,,ENE,29.34,28.27,,Clear
KIGQ,08/09/2016 01:35 UTC,29.99,75.38,61.16,60.98,5.75,50.0,,,,,,1.0,,,,10.0,,KIGQ 090135Z AUTO 05005KT 10SM CLR 24/16 A2999 RMK AO2  T02410162,,,,,,60.95,,NE,29.34,28.23,,Clear
KIGQ,08/09/2016 01:55 UTC,30.0,74.66,61.16,60.98,4.61,80.0,,,,,,1.0,,,,10.0,,KIGQ 090155Z AUTO 08004KT 10SM CLR 24/16 A3000 RMK AO2  T02370162,,,,,,60.27,,E,29.35,28.29,,Clear
KIGQ,08/09/2016 02:15 UTC,30.0,74.48,60.98,60.98,3.44,70.0,,,,,,1.0,,,,10.0,,KIGQ 090215Z AUTO 07003KT 10SM CLR 24/16 A3000 RMK AO2  T02360161,,,,,,60.1,,ENE,29.35,28.3,,Clear
KIGQ,08/09/2016 02:35 UTC,30.0,73.76,60.8,64.76,3.44,80.0,,,,,,1.0,,,,10.0,,KIGQ 090235Z AUTO 08003KT 10SM CLR 23/16 A3000 RMK AO2  T02320160,,,,,,61.12,,E,29.35,28.25,,Clear
KIGQ,08/09/2016 02:55 UTC,30.01,73.4,60.8,64.76,3.44,80.0,,,,,,1.0,,,,10.0,,KIGQ 090255Z AUTO 08003KT 10SM CLR 23/16 A3001 RMK AO2  T02300160,,,,,,60.77,,E,29.36,28.28,,Clear
KIGQ,08/09/2016 03:15 UTC,30.01,72.5,60.98,64.76,0.0,0.0,,,,,,1.0,,,,10.0,,KIGQ 090315Z AUTO 00000KT 10SM CLR 23/16 A3001 RMK AO2  T02250161,,,,,,59.92,,N,29.36,28.34,,Clear
KIGQ,08/09/2016 03:35 UTC,30.01,71.24,61.16,68.81,0.0,0.0,,,,,,1.0,,,,10.0,,KIGQ 090335Z AUTO 00000KT 10SM CLR 22/16 A3001 RMK AO2  T02180162,,,,,,60.42,,N,29.36,28.33,,Clear
KIGQ,08/09/2016 03:55 UTC,30.02,69.98,61.34,73.15,0.0,0.0,,,,,,1.0,,,,10.0,,KIGQ 090355Z AUTO 00000KT 10SM CLR 21/16 A3002 RMK AO2  T02110163,,,,,,60.94,,N,29.37,28.32,,Clear
KIGQ,08/09/2016 04:15 UTC,30.02,70.16,61.34,73.15,0.0,0.0,,,,,,1.0,,,,10.0,,KIGQ 090415Z AUTO 00000KT 10SM CLR 21/16 A3002 RMK AO2  T02120163,,,,,,61.12,,N,29.37,28.31,,Clear
KIGQ,08/09/2016 04:35 UTC,30.02,67.28,61.16,77.79,0.0,0.0,,,,,,1.0,,,,10.0,,KIGQ 090435Z AUTO 00000KT 10SM CLR 20/16 A3002 RMK AO2  T01960162,,,,,,60.07,,N,29.37,28.4,,Clear
KIGQ,08/09/2016 04:55 UTC,30.02,68.36,60.62,77.79,4.61,130.0,,,,,,1.0,,,,10.0,,KIGQ 090455Z AUTO 13004KT 10SM CLR 20/16 A3002 RMK AO2  T02020159,,,,,,61.12,,SE,29.37,28.33,,Clear
KIGQ,08/09/2016 05:15 UTC,30.02,69.8,58.64,68.61,5.75,130.0,,,,,,1.0,,,,10.0,,KIGQ 090515Z AUTO 13005KT 10SM CLR 21/15 A3002 RMK AO2  T02100148,,,,,,58.96,,SE,29.37,28.43,,Clear
KIGQ,08/09/2016 05:35 UTC,30.02,68.9,58.1,68.61,4.61,120.0,,,,,,1.0,,,,10.0,,KIGQ 090535Z AUTO 12004KT 10SM CLR 21/15 A3002 RMK AO2  T02050145,,,,,,58.1,,ESE,29.37,28.48,,Clear
KIGQ,08/09/2016 05:55 UTC,30.02,68.9,57.2,64.32,4.61,120.0,,,,,,1.0,,,,10.0,,KIGQ 090555Z AUTO 12004KT 10SM CLR 21/14 A3002 RMK AO2 T02050140  10263 20192 402900192,79.34,66.56,,84.2,66.56,56.3,,ESE,29.37,28.57,,Clear
KIGQ,08/09/2016 06:15 UTC,30.02,68.9,56.3,64.32,4.61,120.0,,,,,,1.0,,,,10.0,,KIGQ 090615Z AUTO 12004KT 10SM CLR 21/14 A3002 RMK AO2  T02050135,,,,,,56.3,,ESE,29.37,28.57,,Clear
KIGQ,08/09/2016 06:35 UTC,30.01,67.82,56.48,68.41,4.61,110.0,,,,,,1.0,,,,10.0,,KIGQ 090635Z AUTO 11004KT 10SM CLR 20/14 A3001 RMK AO2  T01990136,,,,,,56.98,,ESE,29.36,28.54,,Clear
KIGQ,08/09/2016 06:55 UTC,30.01,68.36,55.4,64.1,4.61,120.0,,,,,,1.0,,,,10.0,,KIGQ 090655Z AUTO 12004KT 10SM CLR 20/13 A3001 RMK AO2  T02020130,,,,,,55.69,,ESE,29.36,28.6,,Clear
KIGQ,08/09/2016 07:15 UTC,30.01,68.18,55.4,64.1,4.61,120.0,,,,,,1.0,,,,10.0,,KIGQ 090715Z AUTO 12004KT 10SM CLR 20/13 A3001 RMK AO2  T02010130,,,,,,55.52,,ESE,29.36,28.61,,Clear
KIGQ,08/09/2016 07:35 UTC,30.01,67.46,55.76,64.1,5.75,120.0,,,,,,1.0,,,,10.0,,KIGQ 090735Z AUTO 12005KT 10SM CLR 20/13 A3001 RMK AO2  T01970132,,,,,,54.83,,ESE,29.36,28.65,,Clear
KIGQ,08/09/2016 07:55 UTC,30.01,67.46,56.12,64.1,5.75,120.0,,,,,,1.0,,,,10.0,,KIGQ 090755Z AUTO 12005KT 10SM CLR 20/13 A3001 RMK AO2  T01970134,,,,,,54.83,,ESE,29.36,28.65,,Clear
KIGQ,08/09/2016 08:15 UTC,30.01,67.64,56.66,68.41,4.61,120.0,,,,,,1.0,,,,10.0,,KIGQ 090815Z AUTO 12004KT 10SM CLR 20/14 A3001 RMK AO2  T01980137,,,,,,56.81,,ESE,29.36,28.55,,Clear
KIGQ,08/09/2016 08:35 UTC,30.01,67.82,57.2,68.41,3.44,130.0,,,,,,1.0,,,,10.0,,KIGQ 090835Z AUTO 13003KT 10SM CLR 20/14 A3001 RMK AO2  T01990140,,,,,,56.98,,SE,29.36,28.54,,Clear
KIGQ,08/09/2016 08:55 UTC,30.01,67.64,57.56,68.41,3.44,130.0,,,,,,1.0,,,,10.0,,KIGQ 090855Z AUTO 13003KT 10SM CLR 20/14 A3001 RMK AO2  T01980142,,,,,,56.81,,SE,29.36,28.55,,Clear
KIGQ,08/09/2016 09:15 UTC,30.01,67.1,57.92,68.41,3.44,130.0,,,,,,1.0,,,,10.0,,KIGQ 090915Z AUTO 13003KT 10SM CLR 20/14 A3001 RMK AO2  T01950144,,,,,,56.29,,SE,29.36,28.58,,Clear
KIGQ,08/09/2016 09:35 UTC,30.01,66.38,58.1,77.64,3.44,130.0,,,,,,1.0,,,,10.0,,KIGQ 090935Z AUTO 13003KT 10SM CLR 19/15 A3001 RMK AO2  T01910145,,,,,,59.14,,SE,29.36,28.45,,Clear
KIGQ,08/09/2016 09:55 UTC,30.01,66.38,58.1,77.64,3.44,140.0,,,,,,1.0,,,,10.0,,KIGQ 090955Z AUTO 14003KT 10SM CLR 19/15 A3001 RMK AO2  T01910145,,,,,,59.14,,SE,29.36,28.45,,Clear
KIGQ,08/09/2016 10:15 UTC,30.01,66.38,58.1,77.64,0.0,0.0,,,,,,1.0,,,,10.0,,KIGQ 091015Z AUTO 00000KT 10SM CLR 19/15 A3001 RMK AO2  T01910145,,,,,,59.14,,N,29.36,28.45,,Clear
KIGQ,08/09/2016 10:35 UTC,30.01,65.3,58.1,77.64,0.0,0.0,,,,,,1.0,,,,10.0,,KIGQ 091035Z AUTO 00000KT 10SM CLR 19/15 A3001 RMK AO2  T01850145,,,,,,58.09,,N,29.36,28.52,,Clear
KIGQ,08/09/2016 10:55 UTC,30.02,65.66,58.1,76.6,0.0,0.0,,,,,,1.0,,,,10.0,,KIGQ 091055Z AUTO 00000KT 10SM CLR 19/15 A3002 RMK AO2  T01870145,,,,,,58.06,,N,29.37,28.52,,Clear
KIGQ,08/09/2016 11:15 UTC,30.02,65.66,58.28,77.64,0.0,0.0,,,,,,1.0,,,,10.0,,KIGQ 091115Z AUTO 00000KT 10SM CLR 19/15 A3002 RMK AO2  T01870146,,,,,,58.44,,N,29.37,28.5,,Clear
KIGQ,08/09/2016 11:35 UTC,30.02,66.56,59.54,77.64,0.0,0.0,,,,,,1.0,,,,10.0,,KIGQ 091135Z AUTO 00000KT 10SM CLR 19/15 A3002 RMK AO2  T01920153,,,,,,59.31,,N,29.37,28.45,,Clear
KIGQ,08/09/2016 11:55 UTC,30.03,67.46,60.62,77.79,0.0,0.0,,,,,,1.0,,,,10.0,,KIGQ 091155Z AUTO 00000KT 10SM CLR 20/16 A3003 RMK AO2 T01970159  10205 20185,68.9,65.3,,,,60.24,,N,29.38,28.4,,Clear
KIGQ,08/09/2016 12:15 UTC,30.03,68.0,60.44,77.79,0.0,0.0,,,,,,1.0,,,,10.0,,KIGQ 091215Z AUTO 00000KT 10SM CLR 20/16 A3003 RMK AO2  T02000158,,,,,,60.77,,N,29.38,28.36,,Clear
KIGQ,08/09/2016 12:35 UTC,30.03,69.62,60.98,73.15,0.0,0.0,,,,,,1.0,,,,10.0,,KIGQ 091235Z AUTO 00000KT 10SM CLR 21/16 A3003 RMK AO2  T02090161,,,,,,60.6,,N,29.38,28.36,,Clear
KIGQ,08/09/2016 12:55 UTC,30.03,71.06,61.88,73.32,3.44,140.0,,,,,,1.0,,,,10.0,,KIGQ 091255Z AUTO 14003KT 10SM CLR 22/17 A3003 RMK AO2  T02170166,,,,,,62.05,,SE,29.38,28.26,,Clear
KIGQ,08/09/2016 13:15 UTC,30.02,72.14,62.42,73.32,5.75,150.0,,,,,,1.0,,,,10.0,,KIGQ 091315Z AUTO 15005KT 10SM CLR 22/17 A3002 RMK AO2  T02230169,,,,,,63.09,,SSE,29.37,28.17,,Clear
KIGQ,08/09/2016 13:35 UTC,30.03,73.94,63.14,69.01,0.0,0.0,,,,,,1.0,,,,10.0,,KIGQ 091335Z AUTO 00000KT 10SM CLR 23/17 A3003 RMK AO2  T02330173,,,,,,63.1,,N,29.38,28.16,,Clear
KIGQ,08/09/2016 13:55 UTC,30.03,75.02,63.14,64.98,4.61,190.0,,,,,,1.0,,,,10.0,,KIGQ 091355Z AUTO 19004KT 10SM CLR 24/17 A3003 RMK AO2  T02390173,,,,,,62.41,,S,29.38,28.19,,Clear
KIGQ,08/09/2016 14:15 UTC,30.03,75.56,63.5,69.21,3.44,170.0,,,,,,1202.0,,,,10.0,,KIGQ 091415Z AUTO 17003KT 10SM SCT120 24/18 A3003 RMK AO2  T02420175,,,,,,64.73,,S,29.38,28.04,,Partly Cloudy
KIGQ,08/09/2016 14:35 UTC,30.04,76.28,63.32,61.21,3.44,170.0,,,,,,1202.0,,,,10.0,,KIGQ 091435Z AUTO 17003KT 10SM SCT120 25/17 A3004 RMK AO2  T02460174,,,,,,61.91,,S,29.39,28.22,,Partly Cloudy
KIGQ,08/09/2016 14:55 UTC,30.03,77.36,64.04,65.2,3.44,210.0,,,,,,1.0,,,,10.0,,KIGQ 091455Z AUTO 21003KT 10SM CLR 25/18 A3003 RMK AO2  T02520178,,,,,,64.74,,SSW,29.38,28.02,,Clear
KIGQ,08/09/2016 15:15 UTC,30.03,77.72,63.32,61.21,4.61,210.0,,,,,,1.0,,,,10.0,,KIGQ 091515Z AUTO 21004KT 10SM CLR 25/17 A3003 RMK AO2  T02540174,,,,,,63.27,,SSW,29.38,28.11,,Clear
KIGQ,08/09/2016 15:35 UTC,30.03,79.52,64.04,61.44,4.61,200.0,,,,,,1.0,,,,10.0,,KIGQ 091535Z AUTO 20004KT 10SM CLR 26/18 A3003 RMK AO2  T02640178,,,,,,65.08,,SSW,29.38,27.97,,Clear
KIGQ,08/09/2016 15:55 UTC,30.03,80.78,63.32,54.4,0.0,0.0,,,,,,1.0,,,,10.0,,KIGQ 091555Z AUTO 00000KT 10SM CLR 27/17 A3003 RMK AO2  T02710174,,,,,,62.79,,N,29.38,28.11,82.05,Clear
KIGQ,08/09/2016 16:15 UTC,30.02,82.04,61.7,51.31,0.0,0.0,,,,,,1.0,,,,10.0,,KIGQ 091615Z AUTO 00000KT 10SM CLR 28/17 A3002 RMK AO2  T02780165,,,,,,62.3,,N,29.37,28.11,83.01,Clear
KIGQ,08/09/2016 16:35 UTC,30.01,82.94,61.7,51.31,3.44,230.0,,,,,,1.0,,,,10.0,,KIGQ 091635Z AUTO 23003KT 10SM CLR 28/17 A3001 RMK AO2  T02830165,,,,,,63.14,,SW,29.36,28.04,84.06,Clear
KIGQ,08/09/2016 16:55 UTC,30.01,82.4,60.98,48.15,0.0,0.0,,,,,,1.0,,,,10.0,,KIGQ 091655Z AUTO 00000KT 10SM CLR 28/16 A3001 RMK AO2  T02800161,,,,,,60.84,,N,29.36,28.19,82.92,Clear
KIGQ,08/09/2016 17:15 UTC,30.01,84.74,61.88,48.42,5.75,220.0,,,,,,1.0,,,,10.0,,KIGQ 091715Z AUTO 22005KT 10SM CLR 29/17 A3001 RMK AO2  T02930166,,,,,,63.15,,SW,29.36,28.02,85.74,Clear
KIGQ,08/09/2016 17:35 UTC,30.01,84.2,59.9,45.44,5.75,190.0,,,,,,1.0,,,,10.0,,KIGQ 091735Z AUTO 19005KT 10SM CLR 29/16 A3001 RMK AO2  T02900155,,,,,,60.86,,S,29.36,28.17,84.45,Clear
KIGQ,08/09/2016 17:55 UTC,30.01,83.84,61.52,45.44,4.61,240.0,,,,,,1.0,,,,10.0,,KIGQ 091755Z AUTO 24004KT 10SM CLR 29/16 A3001 RMK AO2 T02880164  10294 20198,84.92,67.64,,,,60.53,,WSW,29.36,28.19,84.04,Clear
KIGQ,08/09/2016 18:15 UTC,30.01,83.3,62.78,48.42,3.44,220.0,,,,,,1.0,,,,10.0,,KIGQ 091815Z AUTO 22003KT 10SM CLR 29/17 A3001 RMK AO2  T02850171,,,,,,61.83,,SW,29.36,28.12,83.97,Clear
KIGQ,08/09/2016 18:35 UTC,30.01,82.94,61.7,51.31,3.44,220.0,,,,,,1.0,,,,10.0,,KIGQ 091835Z AUTO 22003KT 10SM CLR 28/17 A3001 RMK AO2  T02830165,,,,,,63.14,,SW,29.36,28.04,84.06,Clear
KIGQ,08/09/2016 18:55 UTC,30.01,84.92,60.44,45.44,0.0,0.0,,,,,,1.0,,,,10.0,,KIGQ 091855Z AUTO 00000KT 10SM CLR 29/16 A3001 RMK AO2  T02940158,,,,,,61.52,,N,29.36,28.13,85.31,Clear
KIGQ,08/09/2016 19:15 UTC,30.01,86.0,58.46,40.24,3.44,80.0,,,,,,1.0,,,,10.0,,KIGQ 091915Z AUTO 08003KT 10SM CLR 30/15 A3001 RMK AO2  T03000147,,,,,,59.09,,E,29.36,28.26,85.49,Clear
KIGQ,08/09/2016 19:35 UTC,30.01,84.92,59.72,42.63,0.0,0.0,,,,,,652.0,,,,10.0,,KIGQ 091935Z AUTO 00000KT 10SM SCT065 29/15 A3001 RMK AO2  T02940154,,,,,,59.72,,N,29.36,28.23,84.73,Partly Cloudy
KIGQ,08/09/2016 19:55 UTC,30.01,85.64,59.36,40.24,0.0,0.0,,,,,,652.0,,,,10.0,,KIGQ 091955Z AUTO 00000KT 10SM SCT065 30/15 A3001 RMK AO2  T02980152,,,,,,58.76,,N,29.36,28.28,85.08,Partly Cloudy
KIGQ,08/09/2016 20:15 UTC,30.0,85.64,59.72,41.77,0.0,0.0,,,,,,653.0,,,,10.0,,KIGQ 092015Z AUTO 00000KT 10SM BKN065 30/15 A3000 RMK AO2  T02980154,,,6500.0,,,59.81,,N,29.35,28.21,85.39,Mostly Cloudy
KIGQ,08/09/2016 20:35 UTC,30.0,83.66,61.52,45.44,3.44,240.0,,,803.0,,,652.0,703.0,,,10.0,,KIGQ 092035Z AUTO 24003KT 10SM SCT065 BKN070 BKN080 29/16  A3000 RMK AO2 T02870164,,,7000.0,,,60.37,,WSW,29.35,28.2,83.84,Mostly Cloudy
KIGQ,08/09/2016 20:55 UTC,29.99,83.48,62.06,48.42,3.44,250.0,,,,,,552.0,654.0,,,10.0,,KIGQ 092055Z AUTO 25003KT 10SM SCT055 OVC065 29/17 A2999 RMK AO2  T02860167,,,6500.0,,,61.99,,WSW,29.34,28.09,84.18,Overcast
KIGQ,08/09/2016 21:15 UTC,29.99,84.02,61.88,48.42,0.0,0.0,,,,,,654.0,,,,10.0,,KIGQ 092115Z AUTO 00000KT 10SM OVC065 29/17 A2999 RMK AO2  T02890166,,,6500.0,,,62.49,,N,29.34,28.05,84.83,Overcast
KIGQ,08/09/2016 21:35 UTC,29.99,84.74,62.6,48.42,4.61,200.0,,,,,,654.0,,,,10.0,,KIGQ 092135Z AUTO 20004KT 10SM OVC065 29/17 A2999 RMK AO2  T02930170,,,6500.0,,,63.15,,SSW,29.34,28.0,85.74,Overcast
KIGQ,08/09/2016 21:55 UTC,29.99,85.1,62.6,45.72,0.0,0.0,,,,,,754.0,,,,10.0,,KIGQ 092155Z AUTO 00000KT 10SM OVC075 30/17 A2999 RMK AO2  T02950170,,,7500.0,,,61.86,,N,29.34,28.08,85.59,Overcast
KIGQ,08/09/2016 22:15 UTC,29.99,84.92,62.96,48.42,4.61,190.0,,,,,,752.0,,,,10.0,,KIGQ 092215Z AUTO 19004KT 10SM SCT075 29/17 A2999 RMK AO2  T02940172,,,,,,63.32,,S,29.34,27.99,85.97,Partly Cloudy
KIGQ,08/09/2016 22:35 UTC,29.98,84.92,64.04,51.58,6.91,220.0,,,,,,1.0,,,,10.0,,KIGQ 092235Z AUTO 22006KT 10SM CLR 29/18 A2998 RMK AO2  T02940178,,,,,,65.13,,SW,29.33,27.86,86.74,Clear
KIGQ,08/09/2016 22:55 UTC,29.97,84.56,63.86,51.58,5.75,200.0,,,,,,1.0,,,,10.0,,KIGQ 092255Z AUTO 20005KT 10SM CLR 29/18 A2997 RMK AO2  T02920177,,,,,,64.79,,SSW,29.32,27.88,86.23,Clear
KIGQ,08/09/2016 23:15 UTC,29.97,84.2,64.22,51.58,6.91,190.0,,,,,,1.0,,,,10.0,,KIGQ 092315Z AUTO 19006KT 10SM CLR 29/18 A2997 RMK AO2  T02900179,,,,,,64.46,,S,29.32,27.9,85.74,Clear
KIGQ,08/09/2016 23:35 UTC,29.97,83.84,64.22,51.58,4.61,190.0,,,,,,1.0,,,,10.0,,KIGQ 092335Z AUTO 19004KT 10SM CLR 29/18 A2997 RMK AO2  T02880179,,,,,,64.12,,S,29.32,27.93,85.26,Clear
KIGQ,08/09/2016 23:55 UTC,29.97,83.3,63.5,51.58,4.61,220.0,,,,,,1.0,,,,10.0,,KIGQ 092355Z AUTO 22004KT 10SM CLR 29/18 A2997 RMK AO2 T02850175  10305 20282,86.9,82.76,,,,63.62,,SW,29.32,27.97,84.56,Clear
KIGQ,08/10/2016 00:15 UTC,29.98,82.22,63.5,54.65,4.61,220.0,,,,,,1.0,,,,10.0,,KIGQ 100015Z AUTO 22004KT 10SM CLR 28/18 A2998 RMK AO2  T02790175,,,,,,64.27,,SW,29.33,27.95,83.77,Clear
KIGQ,08/10/2016 00:35 UTC,29.98,81.14,63.68,57.94,0.0,0.0,,,,,,1.0,,,,10.0,,KIGQ 100035Z AUTO 00000KT 10SM CLR 27/18 A2998 RMK AO2  T02730176,,,,,,64.93,,N,29.33,27.91,82.94,Clear
KIGQ,08/10/2016 00:55 UTC,29.99,80.78,63.68,57.94,3.44,240.0,,,,,,1.0,,,,10.0,,KIGQ 100055Z AUTO 24003KT 10SM CLR 27/18 A2999 RMK AO2  T02710176,,,,,,64.59,,WSW,29.34,27.95,82.5,Clear
KIGQ,08/10/2016 01:15 UTC,29.99,78.26,65.3,65.41,0.0,0.0,,,,,,1.0,,,,10.0,,KIGQ 100115Z AUTO 00000KT 10SM CLR 26/19 A2999 RMK AO2  T02570185,,,,,,65.69,,N,29.34,27.91,,Clear
KIGQ,08/10/2016 01:35 UTC,30.0,76.46,64.4,65.2,0.0,0.0,,,,,,1.0,,,,10.0,,KIGQ 100135Z AUTO 00000KT 10SM CLR 25/18 A3000 RMK AO2  T02470180,,,,,,63.88,,N,29.35,28.05,,Clear
KIGQ,08/10/2016 01:55 UTC,30.01,74.48,65.12,69.21,0.0,0.0,,,,,,1.0,,,,10.0,,KIGQ 100155Z AUTO 00000KT 10SM CLR 24/18 A3001 RMK AO2  T02360184,,,,,,63.7,,N,29.36,28.1,,Clear
KIGQ,08/10/2016 02:15 UTC,30.01,73.76,64.76,73.5,0.0,0.0,,,,,,1.0,,,,10.0,,KIGQ 100215Z AUTO 00000KT 10SM CLR 23/18 A3001 RMK AO2  T02320182,,,,,,64.73,,N,29.36,28.04,,Clear
KIGQ,08/10/2016 02:35 UTC,30.02,73.04,66.02,78.24,4.61,180.0,,,,,,1.0,,,,10.0,,KIGQ 100235Z AUTO 18004KT 10SM CLR 23/19 A3002 RMK AO2  T02280189,,,,,,65.83,,S,29.37,27.99,,Clear
KIGQ,08/10/2016 02:55 UTC,30.02,73.76,65.84,78.24,0.0,0.0,,,,,,1.0,,,,10.0,,KIGQ 100255Z AUTO 00000KT 10SM CLR 23/19 A3002 RMK AO2  T02320188,,,,,,66.53,,N,29.37,27.93,,Clear
KIGQ,08/10/2016 03:15 UTC,30.02,73.4,65.3,78.24,0.0,0.0,,,,,,1.0,,,,10.0,,KIGQ 100315Z AUTO 00000KT 10SM CLR 23/19 A3002 RMK AO2  T02300185,,,,,,66.18,,N,29.37,27.96,,Clear
KIGQ,08/10/2016 03:35 UTC,30.03,74.48,65.3,73.67,0.0,0.0,,,,,,1.0,,,,10.0,,KIGQ 100335Z AUTO 00000KT 10SM CLR 24/19 A3003 RMK AO2  T02360185,,,,,,65.49,,N,29.38,28.0,,Clear
KIGQ,08/10/2016 03:55 UTC,30.03,74.66,65.3,73.67,0.0,0.0,,,,,,1.0,,,,10.0,,KIGQ 100355Z AUTO 00000KT 10SM CLR 24/19 A3003 RMK AO2  T02370185,,,,,,65.67,,N,29.38,27.99,,Clear
KIGQ,08/10/2016 04:15 UTC,30.03,71.78,64.58,78.09,0.0,0.0,,,,,,1.0,,,,10.0,,KIGQ 100415Z AUTO 00000KT 10SM CLR 22/18 A3003 RMK AO2  T02210181,,,,,,64.55,,N,29.38,28.1,,Clear
KIGQ,08/10/2016 04:35 UTC,30.04,71.06,65.3,83.13,0.0,0.0,,,,,,1.0,,,,10.0,,KIGQ 100435Z AUTO 00000KT 10SM CLR 22/19 A3004 RMK AO2  T02170185,,,,,,65.65,,N,29.39,28.05,,Clear
KIGQ,08/10/2016 04:55 UTC,30.04,73.4,65.48,78.24,0.0,0.0,,,,,,1.0,,,,10.0,,KIGQ 100455Z AUTO 00000KT 10SM CLR 23/19 A3004 RMK AO2  T02300186,,,,,,66.18,,N,29.39,27.98,,Clear
KIGQ,08/10/2016 05:15 UTC,30.04,71.96,65.3,83.13,0.0,0.0,,,,,,1.0,,,,10.0,,KIGQ 100515Z AUTO 00000KT 10SM CLR 22/19 A3004 RMK AO2  T02220185,,,,,,66.54,,N,29.39,27.98,,Clear
KIGQ,08/10/2016 05:35 UTC,30.03,71.42,64.94,78.09,0.0,0.0,,,,,,1.0,,,,10.0,,KIGQ 100535Z AUTO 00000KT 10SM CLR 22/18 A3003 RMK AO2  T02190183,,,,,,64.2,,N,29.38,28.12,,Clear
KIGQ,08/10/2016 05:55 UTC,30.04,71.6,65.66,83.13,0.0,0.0,,,,,,1.0,,,,10.0,,KIGQ 100555Z AUTO 00000KT 10SM CLR 22/19 A3004 RMK AO2 T02200187  10285 20214 403050185,83.3,70.52,,86.9,65.3,66.18,,N,29.39,28.01,,Clear
KIGQ,08/10/2016 06:15 UTC,30.04,69.98,65.12,83.01,0.0,0.0,,,,,,1.0,,,,10.0,,KIGQ 100615Z AUTO 00000KT 10SM CLR 21/18 A3004 RMK AO2  T02110184,,,,,,64.56,,N,29.39,28.13,,Clear
KIGQ,08/10/2016 06:35 UTC,30.04,70.16,65.12,83.01,0.0,0.0,,,,,,1.0,,,,10.0,,KIGQ 100635Z AUTO 00000KT 10SM CLR 21/18 A3004 RMK AO2  T02120184,,,,,,64.73,,N,29.39,28.12,,Clear
KIGQ,08/10/2016 06:55 UTC,30.03,67.82,63.86,88.29,0.0,0.0,,,,,,1.0,,,,10.0,,KIGQ 100655Z AUTO 00000KT 10SM CLR 20/18 A3003 RMK AO2  T01990177,,,,,,64.21,,N,29.38,28.17,,Clear
KIGQ,08/10/2016 07:15 UTC,30.03,68.9,64.94,83.01,0.0,0.0,,,,,,1.0,,,,10.0,,KIGQ 100715Z AUTO 00000KT 10SM CLR 21/18 A3003 RMK AO2  T02050183,,,,,,63.5,,N,29.38,28.2,,Clear
KIGQ,08/10/2016 07:35 UTC,30.03,69.98,65.3,88.37,0.0,0.0,,,,,,1.0,,,,10.0,,KIGQ 100735Z AUTO 00000KT 10SM CLR 21/19 A3003 RMK AO2  T02110185,,,,,,66.36,,N,29.38,28.01,,Clear
KIGQ,08/10/2016 07:55 UTC,30.04,68.36,64.58,88.29,0.0,0.0,,,,,,1.0,,,,10.0,,KIGQ 100755Z AUTO 00000KT 10SM CLR 20/18 A3004 RMK AO2  T02020181,,,,,,64.74,,N,29.39,28.14,,Clear
KIGQ,08/10/2016 08:15 UTC,30.04,66.92,63.86,93.94,0.0,0.0,,,,,,1.0,,,,10.0,,KIGQ 100815Z AUTO 00000KT 10SM CLR 19/18 A3004 RMK AO2  T01940177,,,,,,65.11,,N,29.39,28.14,,Clear
KIGQ,08/10/2016 08:35 UTC,30.03,66.56,63.68,93.94,0.0,0.0,,,,,,1.0,,,,10.0,,KIGQ 100835Z AUTO 00000KT 10SM CLR 19/18 A3003 RMK AO2  T01920176,,,,,,64.75,,N,29.38,28.15,,Clear
KIGQ,08/10/2016 08:55 UTC,30.04,67.46,64.4,88.29,0.0,0.0,,,,,,1.0,,,,10.0,,KIGQ 100855Z AUTO 00000KT 10SM CLR 20/18 A3004 RMK AO2  T01970180,,,,,,63.85,,N,29.39,28.21,,Clear
KIGQ,08/10/2016 09:15 UTC,30.04,66.92,63.86,93.94,0.0,0.0,,,,,,1.0,,,,10.0,,KIGQ 100915Z AUTO 00000KT 10SM CLR 19/18 A3004 RMK AO2  T01940177,,,,,,65.11,,N,29.39,28.14,,Clear
KIGQ,08/10/2016 09:35 UTC,30.04,66.92,64.4,93.94,0.0,0.0,,,,,,1.0,,,,10.0,,KIGQ 100935Z AUTO 00000KT 10SM CLR 19/18 A3004 RMK AO2  T01940180,,,,,,65.11,,N,29.39,28.14,,Clear
KIGQ,08/10/2016 09:55 UTC,30.05,66.38,63.86,93.94,0.0,0.0,,,,,,1.0,,,,10.0,,KIGQ 100955Z AUTO 00000KT 10SM CLR 19/18 A3005 RMK AO2  T01910177,,,,,,64.57,,N,29.4,28.19,,Clear
KIGQ,08/10/2016 10:15 UTC,30.06,66.56,63.86,93.94,0.0,0.0,,,,,,1.0,,,,10.0,,KIGQ 101015Z AUTO 00000KT 10SM CLR 19/18 A3006 RMK AO2  T01920177,,,,,,64.75,,N,29.41,28.19,,Clear
KIGQ,08/10/2016 10:35 UTC,30.06,65.84,63.32,88.2,0.0,0.0,,,,,,1.0,,,,10.0,,KIGQ 101035Z AUTO 00000KT 10SM CLR 19/17 A3006 RMK AO2  T01880174,,,,,,62.23,,N,29.41,28.34,,Clear
KIGQ,08/10/2016 10:55 UTC,30.06,66.56,64.4,93.94,0.0,0.0,,,,,,1.0,,,,10.0,,KIGQ 101055Z AUTO 00000KT 10SM CLR 19/18 A3006 RMK AO2  T01920180,,,,,,64.75,,N,29.41,28.19,,Clear
KIGQ,08/10/2016 11:15 UTC,30.07,68.36,65.3,93.98,0.0,0.0,,,,,,1.0,,,,10.0,,KIGQ 101115Z AUTO 00000KT 10SM CLR 20/19 A3007 RMK AO2  T02020185,,,,,,66.55,,N,29.42,28.06,,Clear
KIGQ,08/10/2016 11:35 UTC,30.08,67.1,63.5,88.29,0.0,0.0,,,,,,1.0,,,,10.0,,KIGQ 101135Z AUTO 00000KT 10SM CLR 20/18 A3008 RMK AO2  T01950175,,,,,,63.5,,N,29.43,28.27,,Clear
KIGQ,08/10/2016 11:55 UTC,30.08,68.36,65.48,93.98,0.0,0.0,,,,,,1.0,,,,10.0,,KIGQ 101155Z AUTO 00000KT 10SM CLR 20/19 A3008 RMK AO2 T02020186  10220 20187,71.6,65.66,,,,66.55,,N,29.43,28.07,,Clear
KIGQ,08/10/2016 12:15 UTC,30.09,70.88,66.38,83.13,0.0,0.0,,,,,,1.0,,,,10.0,,KIGQ 101215Z AUTO 00000KT 10SM CLR 22/19 A3009 RMK AO2  T02160191,,,,,,65.48,,N,29.44,28.11,,Clear
KIGQ,08/10/2016 12:35 UTC,30.09,72.86,67.1,83.25,0.0,0.0,,,,,,1.0,,,,10.0,,KIGQ 101235Z AUTO 00000KT 10SM CLR 23/20 A3009 RMK AO2  T02270195,,,,,,67.46,,N,29.44,27.95,,Clear
KIGQ,08/10/2016 12:55 UTC,30.1,74.84,67.1,78.39,0.0,0.0,,,,,,1.0,,,,10.0,,KIGQ 101255Z AUTO 00000KT 10SM CLR 24/20 A3010 RMK AO2  T02380195,,,,,,67.64,,N,29.45,27.93,,Clear
KIGQ,08/10/2016 13:15 UTC,30.1,76.82,65.84,69.4,0.0,0.0,,,,,,1.0,,,,10.0,,KIGQ 101315Z AUTO 00000KT 10SM CLR 25/19 A3010 RMK AO2  T02490188,,,,,,66.02,,N,29.45,28.01,,Clear
KIGQ,08/10/2016 13:35 UTC,30.11,78.26,67.1,69.6,0.0,0.0,,,,,,1.0,,,,10.0,,KIGQ 101335Z AUTO 00000KT 10SM CLR 26/20 A3011 RMK AO2  T02570195,,,,,,67.49,,N,29.46,27.9,,Clear
KIGQ,08/10/2016 13:55 UTC,30.11,80.06,66.74,61.67,0.0,0.0,,,,,,1.0,,,,10.0,,KIGQ 101355Z AUTO 00000KT 10SM CLR 27/19 A3011 RMK AO2 LTG DSNT SE  T02670193,,,,,,65.7,,N,29.46,28.01,82.07,Clear
KIGQ,08/10/2016 14:15 UTC,30.11,81.5,65.66,58.18,0.0,0.0,,,,,,1.0,,,,10.0,,KIGQ 101415Z AUTO 00000KT 10SM CLR 28/19 A3011 RMK AO2  T02750187,,,,,,65.39,,N,29.46,28.01,83.44,Clear
KIGQ,08/10/2016 14:35 UTC,30.11,82.4,65.84,58.18,0.0,0.0,,,,,,1.0,,,,10.0,,KIGQ 101435Z AUTO 00000KT 10SM CLR 28/19 A3011 RMK AO2  T02800188,,,,,,66.23,,N,29.46,27.94,84.65,Clear
KIGQ,08/10/2016 14:55 UTC,30.11,82.94,65.84,58.18,0.0,0.0,,,,,,1.0,,,,10.0,,KIGQ 101455Z AUTO 00000KT 10SM CLR 28/19 A3011 RMK AO2  T02830188,,,,,,66.74,,N,29.46,27.9,85.43,Clear
KIGQ,08/10/2016 15:15 UTC,30.11,84.38,65.48,54.9,0.0,0.0,,,,,,1.0,,,,10.0,,KIGQ 101515Z AUTO 00000KT 10SM CLR 29/19 A3011 RMK AO2  T02910186,,,,,,66.42,,N,29.46,27.91,86.8,Clear
KIGQ,08/10/2016 15:35 UTC,30.11,84.2,65.84,54.9,0.0,0.0,,,,,,1.0,,,,10.0,,KIGQ 101535Z AUTO 00000KT 10SM CLR 29/19 A3011 RMK AO2  T02900188,,,,,,66.25,,N,29.46,27.92,86.53,Clear
KIGQ,08/10/2016 15:55 UTC,30.11,85.1,65.3,51.84,4.61,160.0,,,,,,1.0,,,,10.0,,KIGQ 101555Z AUTO 16004KT 10SM CLR 30/19 A3011 RMK AO2  T02950185,,,,,,65.44,,SSE,29.46,27.97,87.07,Clear
KIGQ,08/10/2016 16:15 UTC,30.11,84.38,65.66,54.9,4.61,180.0,,,,,,422.0,,,,10.0,,KIGQ 101615Z AUTO 18004KT 10SM SCT042 29/19 A3011 RMK AO2  T02910187,,,,,,66.42,,S,29.46,27.91,86.8,Partly Cloudy
KIGQ,08/10/2016 16:35 UTC,30.11,86.72,65.66,51.84,4.61,80.0,,,,,,442.0,,,,10.0,,KIGQ 101635Z AUTO 08004KT 10SM SCT044 30/19 A3011 RMK AO2  T03040187,,,,,,66.94,,E,29.46,27.85,89.56,Partly Cloudy
KIGQ,08/10/2016 16:55 UTC,30.11,86.54,65.12,48.69,0.0,0.0,,,,,,443.0,,,,10.0,,KIGQ 101655Z AUTO 00000KT 10SM BKN044 30/18 A3011 RMK AO2  T03030184,,,4400.0,,,64.97,,N,29.46,27.99,88.31,Mostly Cloudy
KIGQ,08/10/2016 17:15 UTC,30.11,86.54,64.04,48.69,3.44,230.0,,,,,,483.0,,,,10.0,,KIGQ 101715Z AUTO 23003KT 10SM BKN048 30/18 A3011 RMK AO2  T03030178,,,4800.0,,,64.97,,SW,29.46,27.99,88.31,Mostly Cloudy
KIGQ,08/10/2016 17:35 UTC,30.1,87.44,63.86,45.99,4.61,140.0,,,,,,503.0,,,,10.0,,KIGQ 101735Z AUTO 14004KT 10SM BKN050 31/18 A3010 RMK AO2  T03080177,,,5000.0,,,64.17,,SE,29.45,28.03,88.83,Mostly Cloudy
KIGQ,08/10/2016 17:55 UTC,30.1,87.44,62.78,43.18,0.0,0.0,,,,,,502.0,,,,10.0,,KIGQ 101755Z AUTO 00000KT 10SM SCT050 31/17 A3010 RMK AO2  T03080171 10308 20204,87.44,68.72,,,,62.38,,N,29.45,28.14,88.02,Partly Cloudy
KIGQ,08/10/2016 18:15 UTC,30.1,88.16,64.58,45.99,4.61,80.0,,,,,,503.0,,,,10.0,,KIGQ 101815Z AUTO 08004KT 10SM BKN050 31/18 A3010 RMK AO2 LTG DSNT  S T03120181,,,5000.0,,,64.83,,E,29.45,27.97,89.91,Mostly Cloudy
KIGQ,08/10/2016 18:35 UTC,30.1,87.98,65.3,48.96,4.61,130.0,,,,,,504.0,,,,10.0,,KIGQ 101835Z AUTO 13004KT 10SM OVC050 31/19 A3010 RMK AO2  T03110185,,,5000.0,,,66.46,,SE,29.45,27.86,90.64,Overcast
KIGQ,08/10/2016 18:55 UTC,30.09,88.52,64.94,45.99,0.0,0.0,,,,,,603.0,,,,10.0,,KIGQ 101855Z AUTO 00000KT 10SM BKN060 31/18 A3009 RMK AO2  T03140183,,,6000.0,,,65.16,,N,29.44,27.94,90.47,Mostly Cloudy
KIGQ,08/10/2016 19:15 UTC,30.08,86.0,65.12,48.69,3.44,150.0,,,,,,602.0,,,,10.0,,KIGQ 101915Z AUTO 15003KT 10SM SCT060 30/18 A3008 RMK AO2  T03000184,,,,,,64.47,,SSE,29.43,28.0,87.52,Partly Cloudy
KIGQ,08/10/2016 19:35 UTC,30.08,86.0,66.02,51.84,5.75,80.0,,,,,,602.0,,,,10.0,,KIGQ 101935Z AUTO 08005KT 10SM SCT060 30/19 A3008 RMK AO2  T03000189,,,,,,66.27,,E,29.43,27.87,88.42,Partly Cloudy
KIGQ,08/10/2016 19:55 UTC,30.08,87.08,66.74,48.96,5.75,70.0,,,,,,1.0,,,,10.0,,KIGQ 101955Z AUTO 07005KT 10SM CLR 31/19 A3008 RMK AO2  T03060193,,,,,,65.63,,ENE,29.43,27.91,89.21,Clear
KIGQ,08/10/2016 20:15 UTC,30.07,88.16,66.74,48.96,5.75,80.0,,,,,,1.0,,,,10.0,,KIGQ 102015Z AUTO 08005KT 10SM CLR 31/19 A3007 RMK AO2  T03120193,,,,,,66.63,,E,29.42,27.82,90.94,Clear
KIGQ,08/10/2016 20:35 UTC,30.06,88.52,66.74,48.96,8.05,110.0,,,,,,1.0,,,,10.0,,KIGQ 102035Z AUTO 11007KT 10SM CLR 31/19 A3006 RMK AO2  T03140193,,,,,,66.96,,ESE,29.41,27.78,91.54,Clear
KIGQ,08/10/2016 20:55 UTC,30.06,88.52,67.46,52.09,9.22,120.0,,,,,,1.0,,,,10.0,,KIGQ 102055Z AUTO 12008KT 10SM CLR 31/20 A3006 RMK AO2  T03140197,,,,,,68.75,,ESE,29.41,27.65,92.75,Clear
KIGQ,08/10/2016 21:15 UTC,30.06,88.7,67.82,49.23,6.91,90.0,,,,,,462.0,,,,10.0,,KIGQ 102115Z AUTO 09006KT 10SM SCT046 32/20 A3006 RMK AO2  T03150199,,,,,,67.28,,E,29.41,27.75,91.94,Partly Cloudy
KIGQ,08/10/2016 21:35 UTC,30.05,88.88,67.82,49.23,8.05,110.0,,,,,,1.0,,,,10.0,,KIGQ 102135Z AUTO 11007KT 10SM CLR 32/20 A3005 RMK AO2  T03160199,,,,,,67.45,,ESE,29.4,27.73,92.25,Clear
KIGQ,08/10/2016 21:55 UTC,30.05,87.8,66.38,48.96,5.75,100.0,,,,,,1.0,,,,10.0,,KIGQ 102155Z AUTO 10005KT 10SM CLR 31/19 A3005 RMK AO2  T03100191,,,,,,66.29,,E,29.4,27.82,90.35,Clear
KIGQ,08/10/2016 22:15 UTC,30.04,87.08,66.38,48.96,0.0,0.0,,,,,,492.0,,,,10.0,,KIGQ 102215Z AUTO 00000KT 10SM SCT049 31/19 A3004 RMK AO2  T03060191,,,,,,65.63,,N,29.39,27.87,89.21,Partly Cloudy
KIGQ,08/10/2016 22:35 UTC,30.04,87.8,65.84,48.96,4.61,130.0,,,,,,1.0,,,,10.0,,KIGQ 102235Z AUTO 13004KT 10SM CLR 31/19 A3004 RMK AO2  T03100188,,,,,,66.29,,SE,29.39,27.81,90.35,Clear
KIGQ,08/10/2016 22:55 UTC,30.04,87.8,65.66,48.96,4.61,100.0,,,,,,1.0,,,,10.0,,KIGQ 102255Z AUTO 10004KT 10SM CLR 31/19 A3004 RMK AO2  T03100187,,,,,,66.29,,E,29.39,27.81,90.35,Clear
KIGQ,08/10/2016 23:15 UTC,30.03,86.9,67.1,52.09,4.61,70.0,,,,,,1.0,,,,10.0,,KIGQ 102315Z AUTO 07004KT 10SM CLR 31/20 A3003 RMK AO2  T03050195,,,,,,67.25,,ENE,29.38,27.74,89.94,Clear
KIGQ,08/10/2016 23:35 UTC,30.02,86.36,66.92,51.84,8.05,70.0,,,,,,1.0,,,,10.0,,KIGQ 102335Z AUTO 07007KT 10SM CLR 30/19 A3002 RMK AO2  T03020194,,,,,,66.61,,ENE,29.37,27.79,88.99,Clear
KIGQ,08/10/2016 23:55 UTC,30.02,85.64,66.56,51.84,4.61,70.0,,,,,,1.0,,,,10.0,,KIGQ 102355Z AUTO 07004KT 10SM CLR 30/19 A3002 RMK AO2 T02980192  10316 20297,88.88,85.46,,,,65.94,,ENE,29.37,27.84,87.87,Clear
KIGQ,08/11/2016 00:15 UTC,30.02,84.2,66.38,54.9,5.75,40.0,,,,,,1.0,,,,7.0,,KIGQ 110015Z AUTO 04005KT 7SM CLR 29/19 A3002 RMK AO2  T02900191,,,,,,66.25,,NE,29.37,27.83,86.53,Clear
KIGQ,08/11/2016 00:35 UTC,30.02,83.48,66.38,54.9,4.61,50.0,,,,,,1.0,,,,10.0,,KIGQ 110035Z AUTO 05004KT 10SM CLR 29/19 A3002 RMK AO2  T02860191,,,,,,65.58,,NE,29.37,27.89,85.49,Clear
KIGQ,08/11/2016 00:55 UTC,30.02,82.4,66.2,58.18,4.61,50.0,,,,,,1.0,,,,10.0,,KIGQ 110055Z AUTO 05004KT 10SM CLR 28/19 A3002 RMK AO2  T02800190,,,,,,66.23,,NE,29.37,27.85,84.65,Clear
KIGQ,08/11/2016 01:15 UTC,30.02,81.32,66.38,61.67,3.44,60.0,,,,,,1.0,,,,10.0,,KIGQ 110115Z AUTO 06003KT 10SM CLR 27/19 A3002 RMK AO2  T02740191,,,,,,66.9,,ENE,29.37,27.82,83.75,Clear
KIGQ,08/11/2016 01:35 UTC,30.02,80.6,66.56,61.67,0.0,0.0,,,,,,1.0,,,,10.0,,KIGQ 110135Z AUTO 00000KT 10SM CLR 27/19 A3002 RMK AO2  T02700192,,,,,,66.22,,N,29.37,27.87,82.77,Clear
KIGQ,08/11/2016 01:55 UTC,30.02,80.96,66.56,61.67,0.0,0.0,,,,,,1.0,,,,10.0,,KIGQ 110155Z AUTO 00000KT 10SM CLR 27/19 A3002 RMK AO2  T02720192,,,,,,66.56,,N,29.37,27.85,83.25,Clear
KIGQ,08/11/2016 02:15 UTC,30.03,78.98,66.38,65.41,3.44,80.0,,,,,,1.0,,,,10.0,,KIGQ 110215Z AUTO 08003KT 10SM CLR 26/19 A3003 RMK AO2  T02610191,,,,,,66.38,,E,29.38,27.89,,Clear
KIGQ,08/11/2016 02:35 UTC,30.03,79.34,66.2,65.41,0.0,0.0,,,,,,1.0,,,,10.0,,KIGQ 110235Z AUTO 00000KT 10SM CLR 26/19 A3003 RMK AO2  T02630190,,,,,,66.72,,N,29.38,27.86,,Clear
KIGQ,08/11/2016 02:55 UTC,30.04,78.8,66.56,65.41,0.0,0.0,,,,,,1.0,,,,10.0,,KIGQ 110255Z AUTO 00000KT 10SM CLR 26/19 A3004 RMK AO2  T02600192,,,,,,66.2,,N,29.39,27.92,,Clear
KIGQ,08/11/2016 03:15 UTC,30.04,78.08,66.92,65.41,0.0,0.0,,,,,,1.0,,,,10.0,,KIGQ 110315Z AUTO 00000KT 10SM CLR 26/19 A3004 RMK AO2  T02560194,,,,,,65.52,,N,29.39,27.97,,Clear
KIGQ,08/11/2016 03:35 UTC,30.04,78.08,66.56,65.41,0.0,0.0,,,,,,1.0,,,,10.0,,KIGQ 110335Z AUTO 00000KT 10SM CLR 26/19 A3004 RMK AO2  T02560192,,,,,,65.52,,N,29.39,27.97,,Clear
KIGQ,08/11/2016 03:55 UTC,30.04,77.0,67.28,73.85,0.0,0.0,,,,,,1.0,,,,10.0,,KIGQ 110355Z AUTO 00000KT 10SM CLR 25/20 A3004 RMK AO2  T02500196,,,,,,68.0,,N,29.39,27.81,,Clear
KIGQ,08/11/2016 04:15 UTC,30.04,75.02,67.1,78.39,0.0,0.0,,,,,,852.0,,,,10.0,,KIGQ 110415Z AUTO 00000KT 10SM SCT085 24/20 A3004 RMK AO2  T02390195,,,,,,67.82,,N,29.39,27.85,,Partly Cloudy
KIGQ,08/11/2016 04:35 UTC,30.05,74.3,67.64,78.39,0.0,0.0,,,,,,854.0,,,,10.0,,KIGQ 110435Z AUTO 00000KT 10SM OVC085 24/20 A3005 RMK AO2  T02350198,,,8500.0,,,67.12,,N,29.4,27.92,,Overcast
KIGQ,08/11/2016 04:55 UTC,30.05,74.3,68.18,78.39,0.0,0.0,,,,,,853.0,,,,10.0,,KIGQ 110455Z AUTO 00000KT 10SM BKN085 24/20 A3005 RMK AO2  T02350201,,,8500.0,,,67.12,,N,29.4,27.92,,Mostly Cloudy
KIGQ,08/11/2016 05:15 UTC,30.05,74.66,68.0,78.39,0.0,0.0,,,,,,752.0,853.0,,,10.0,,KIGQ 110515Z AUTO 00000KT 10SM SCT075 BKN085 24/20 A3005 RMK AO2  T02370200,,,8500.0,,,67.47,,N,29.4,27.89,,Mostly Cloudy
KIGQ,08/11/2016 05:35 UTC,30.05,76.28,68.18,73.85,0.0,0.0,,,,,,854.0,,,,10.0,,KIGQ 110535Z AUTO 00000KT 10SM OVC085 25/20 A3005 RMK AO2  T02460201,,,8500.0,,,67.3,,N,29.4,27.88,,Overcast
KIGQ,08/11/2016 05:55 UTC,30.04,77.36,67.64,73.85,0.0,0.0,,,,,,552.0,854.0,,,10.0,,KIGQ 110555Z AUTO 00000KT 10SM SCT055 OVC085 25/20 A3004 RMK AO2  T02520198 10297 20232 403160187,85.46,73.76,8500.0,88.88,65.66,68.35,,N,29.39,27.78,,Overcast
KIGQ,08/11/2016 06:15 UTC,30.04,77.72,68.0,73.85,0.0,0.0,,,,,,553.0,854.0,,,10.0,,KIGQ 110615Z AUTO 00000KT 10SM BKN055 OVC085 25/20 A3004 RMK AO2  T02540200,,,5500.0,,,68.69,,N,29.39,27.75,,Overcast
KIGQ,08/11/2016 06:35 UTC,30.04,77.9,68.36,69.6,0.0,0.0,,,853.0,,,502.0,703.0,,,10.0,,KIGQ 110635Z AUTO 00000KT 10SM SCT050 BKN070 BKN085 26/20  A3004 RMK AO2 T02550202,,,7000.0,,,67.14,,N,29.39,27.86,,Mostly Cloudy
KIGQ,08/11/2016 06:55 UTC,30.03,75.56,69.98,83.37,0.0,0.0,,,,,,703.0,754.0,,,10.0,,KIGQ 110655Z AUTO 00000KT 10SM BKN070 OVC075 24/21 A3003 RMK AO2  T02420211,,,7000.0,,,70.15,,N,29.38,27.66,,Overcast
KIGQ,08/11/2016 07:15 UTC,30.02,75.2,69.08,83.37,0.0,0.0,,,853.0,,,652.0,753.0,,,10.0,,KIGQ 110715Z AUTO 00000KT 10SM SCT065 BKN075 BKN085 24/21  A3002 RMK AO2 T02400206,,,7500.0,,,69.79,,N,29.37,27.69,,Mostly Cloudy
KIGQ,08/11/2016 07:35 UTC,30.02,74.84,68.9,83.37,3.44,180.0,,,703.0,,,502.0,603.0,,,10.0,,KIGQ 110735Z AUTO 18003KT 10SM SCT050 BKN060 BKN070 24/21  A3002 RMK AO2 T02380205,,,6000.0,,,69.44,,S,29.37,27.72,,Mostly Cloudy
KIGQ,08/11/2016 07:55 UTC,30.01,74.3,68.9,83.37,5.75,170.0,,,,,,502.0,602.0,,,10.0,,KIGQ 110755Z AUTO 17005KT 10SM SCT050 SCT060 24/21 A3001 RMK AO2  T02350205,,,,,,68.91,,S,29.36,27.75,,Partly Cloudy
KIGQ,08/11/2016 08:15 UTC,30.01,73.76,68.9,88.54,5.75,170.0,,,702.0,,,502.0,602.0,,,10.0,,KIGQ 110815Z AUTO 17005KT 10SM SCT050 SCT060 SCT070 23/21  A3001 RMK AO2 T02320205,,,,,,70.15,,S,29.36,27.67,,Partly Cloudy
KIGQ,08/11/2016 08:35 UTC,30.01,73.76,69.62,88.54,0.0,0.0,,,,,,702.0,,,,10.0,,KIGQ 110835Z AUTO 00000KT 10SM SCT070 23/21 A3001 RMK AO2  T02320209,,,,,,70.15,,N,29.36,27.67,,Partly Cloudy
KIGQ,08/11/2016 08:55 UTC,30.01,73.94,70.16,88.54,0.0,0.0,,,,,,1.0,,,,10.0,,KIGQ 110855Z AUTO 00000KT 10SM CLR 23/21 A3001 RMK AO2  T02330212,,,,,,70.33,,N,29.36,27.65,,Clear
KIGQ,08/11/2016 09:15 UTC,30.01,73.94,70.34,88.54,0.0,0.0,,,,,,1.0,,,,10.0,,KIGQ 110915Z AUTO 00000KT 10SM CLR 23/21 A3001 RMK AO2  T02330213,,,,,,70.33,,N,29.36,27.65,,Clear
KIGQ,08/11/2016 09:35 UTC,30.01,73.04,69.8,88.54,4.61,190.0,,,,,,1.0,,,,7.0,,KIGQ 110935Z AUTO 19004KT 7SM CLR 23/21 A3001 RMK AO2  T02280210,,,,,,69.44,,S,29.36,27.73,,Clear
KIGQ,08/11/2016 09:55 UTC,30.01,73.4,70.52,88.54,0.0,0.0,,,,,,1.0,,,,7.0,,KIGQ 110955Z AUTO 00000KT 7SM CLR 23/21 A3001 RMK AO2  T02300214,,,,,,69.79,,N,29.36,27.7,,Clear
KIGQ,08/11/2016 10:15 UTC,30.01,73.4,70.7,94.12,0.0,0.0,,,,,,503.0,,,,7.0,,KIGQ 111015Z AUTO 00000KT 7SM BKN050 23/22 A3001 RMK AO2  T02300215,,,5000.0,,,71.6,,N,29.36,27.57,,Mostly Cloudy
KIGQ,08/11/2016 10:35 UTC,30.01,72.86,70.34,88.54,4.61,170.0,,,,,,503.0,,,,7.0,,KIGQ 111035Z AUTO 17004KT 7SM BKN050 23/21 A3001 RMK AO2  T02270213,,,5000.0,,,69.26,,S,29.36,27.75,,Mostly Cloudy
KIGQ,08/11/2016 10:55 UTC,30.01,73.04,70.7,94.12,5.75,170.0,,31.0,,,,502.0,,,,5.0,,KIGQ 111055Z AUTO 17005KT 5SM BR SCT050 23/22 A3001 RMK AO2  T02280215,,,,,,71.24,,S,29.36,27.6,,Mist
KIGQ,08/11/2016 11:15 UTC,30.02,73.4,71.06,94.12,4.61,190.0,,31.0,,,,53.0,,,,3.0,,KIGQ 111115Z AUTO 19004KT 3SM BR BKN005 23/22 A3002 RMK AO2  T02300217,,,500.0,,,71.6,,S,29.37,27.58,,Mist
KIGQ,08/11/2016 11:35 UTC,30.02,74.3,72.5,94.16,3.44,200.0,,31.0,,,,34.0,,,,1.75,,KIGQ 111135Z AUTO 20003KT 1 3/4SM BR OVC003 24/23 A3002 RMK AO2  T02350225,,,300.0,,,72.5,,SSW,29.37,27.49,,Mist
KIGQ,08/11/2016 11:55 UTC,30.02,74.3,73.4,94.16,4.61,190.0,,31.0,,,,34.0,,,,1.0,,KIGQ 111155Z AUTO 19004KT 1SM BR OVC003 24/23 A3002 RMK AO2  T02350230 10255 20227,77.9,72.86,300.0,,,72.5,,S,29.37,27.49,,Mist
KIGQ,08/11/2016 12:15 UTC,30.03,74.48,73.58,94.16,5.75,200.0,,31.0,,,,34.0,,,,1.0,,KIGQ 111215Z AUTO 20005KT 1SM BR OVC003 24/23 A3003 RMK AO2  T02360231,,,300.0,,,72.68,,SSW,29.38,27.48,,Mist
KIGQ,08/11/2016 12:35 UTC,30.02,74.48,73.58,94.16,5.75,210.0,,31.0,,,,34.0,,,,1.25,,KIGQ 111235Z AUTO 21005KT 1 1/4SM BR OVC003 24/23 A3002 RMK AO2  T02360231,,,300.0,,,72.68,,SSW,29.37,27.47,,Mist
KIGQ,08/11/2016 12:55 UTC,30.02,74.84,73.94,94.16,4.61,280.0,,31.0,,,,34.0,,,,1.75,,KIGQ 111255Z AUTO 28004KT 1 3/4SM BR OVC003 24/23 A3002 RMK AO2  T02380233,,,300.0,,,73.04,,W,29.37,27.44,,Mist
KIGQ,08/11/2016 13:15 UTC,30.02,75.74,73.94,94.16,4.61,230.0,,31.0,,,,34.0,,,,4.0,,KIGQ 111315Z AUTO 23004KT 4SM BR OVC003 24/23 A3002 RMK AO2  T02430233,,,300.0,,,73.93,,SW,29.37,27.35,,Mist
KIGQ,08/11/2016 13:35 UTC,30.01,77.36,73.4,88.7,5.75,180.0,,31.0,,,,53.0,,,,5.0,,KIGQ 111335Z AUTO 18005KT 5SM BR BKN005 25/23 A3001 RMK AO2 LTG  DSNT NW T02520230,,,500.0,,,73.75,,S,29.36,27.33,,Mist
KIGQ,08/11/2016 13:55 UTC,30.01,79.7,73.58,78.82,5.75,190.0,,,,,,52.0,,,,7.0,,KIGQ 111355Z AUTO 19005KT 7SM SCT005 27/23 A3001 RMK AO2  T02650231,,,,,,72.53,,S,29.36,27.4,,Partly Cloudy
KIGQ,08/11/2016 14:15 UTC,30.01,80.78,73.22,78.82,6.91,290.0,,,,,,1.0,,,,10.0,,KIGQ 111415Z AUTO 29006KT 10SM CLR 27/23 A3001 RMK AO2  T02710229,,,,,,73.58,,WNW,29.36,27.3,85.72,Clear
KIGQ,08/11/2016 14:35 UTC,30.01,81.68,73.58,74.36,5.75,190.0,,,,,,1.0,,,,10.0,,KIGQ 111435Z AUTO 19005KT 10SM CLR 28/23 A3001 RMK AO2  T02760231,,,,,,72.73,,S,29.36,27.36,86.75,Clear
KIGQ,08/11/2016 14:55 UTC,30.0,82.94,73.58,74.36,6.91,220.0,,,,,,1.0,,,,10.0,,KIGQ 111455Z AUTO 22006KT 10SM CLR 28/23 A3000 RMK AO2  T02830231,,,,,,73.94,,SW,29.35,27.23,89.47,Clear
KIGQ,08/11/2016 15:15 UTC,30.0,83.48,73.58,70.17,9.22,220.0,,,,,,192.0,,,,10.0,,KIGQ 111515Z AUTO 22008KT 10SM SCT019 29/23 A3000 RMK AO2  T02860231,,,,,,72.74,,SW,29.35,27.32,89.42,Partly Cloudy
KIGQ,08/11/2016 15:35 UTC,30.0,84.92,73.94,70.17,11.5,220.0,,,,,,212.0,,,,10.0,,KIGQ 111535Z AUTO 22010KT 10SM SCT021 29/23 A3000 RMK AO2  T02940233,,,,,,74.12,,SW,29.35,27.18,92.58,Partly Cloudy
KIGQ,08/11/2016 15:55 UTC,30.0,85.1,73.4,66.25,8.05,240.0,,,,,,212.0,,,,10.0,,KIGQ 111555Z AUTO 24007KT 10SM SCT021 30/23 A3000 RMK AO2  T02950230,,,,,,72.59,,WSW,29.35,27.31,91.54,Partly Cloudy
KIGQ,08/11/2016 16:15 UTC,30.0,86.54,74.12,66.25,11.5,200.0,18.41,,,,,233.0,,,,10.0,,KIGQ 111615Z AUTO 20010G16KT 10SM BKN023 30/23 A3000 RMK AO2 LTG  DSNT NW T03030234,,,2300.0,,,73.96,,SSW,29.35,27.18,94.71,Mostly Cloudy
KIGQ,08/11/2016 16:35 UTC,29.99,87.08,73.22,62.58,10.36,200.0,,,,,,253.0,343.0,,,10.0,,KIGQ 111635Z AUTO 20009KT 10SM BKN025 BKN034 31/23 A2999 RMK AO2  T03060229,,,2500.0,,,72.79,,SSW,29.34,27.26,94.32,Mostly Cloudy
KIGQ,08/11/2016 16:55 UTC,29.99,86.0,72.68,66.25,11.5,220.0,,,,,,272.0,342.0,,,10.0,,KIGQ 111655Z AUTO 22010KT 10SM SCT027 SCT034 30/23 A2999 RMK AO2  T03000226,,,,,,73.45,,SW,29.34,27.22,93.49,Partly Cloudy
KIGQ,08/11/2016 17:15 UTC,29.99,88.16,72.68,62.58,13.8,220.0,,,473.0,,,332.0,382.0,,,10.0,,KIGQ 111715Z AUTO 22012KT 10SM SCT033 SCT038 BKN047 31/23  A2999 RMK AO2 T03120226,,,4700.0,,,73.81,,SW,29.34,27.16,96.73,Mostly Cloudy
KIGQ,08/11/2016 17:35 UTC,29.99,88.7,73.22,59.13,12.66,220.0,,,,,,314.0,,,,10.0,,KIGQ 111735Z AUTO 22011KT 10SM OVC031 32/23 A2999 RMK AO2  T03150229,,,3100.0,,,72.64,,SW,29.34,27.26,96.25,Overcast
KIGQ,08/11/2016 17:55 UTC,29.98,88.88,71.96,55.65,12.66,220.0,,,553.0,,,332.0,453.0,,,10.0,,KIGQ 111755Z AUTO 22011KT 10SM SCT033 BKN045 BKN055 32/22  A2998 RMK AO2 T03160222 10316 20235,88.88,74.3,4500.0,,,71.02,,SW,29.33,27.38,94.99,Mostly Cloudy
KIGQ,08/11/2016 18:15 UTC,29.97,88.34,71.96,58.89,11.5,210.0,,,,,,382.0,462.0,,,10.0,,KIGQ 111815Z AUTO 21010KT 10SM SCT038 SCT046 31/22 A2997 RMK AO2  T03130222,,,,,,72.18,,SSW,29.32,27.28,95.36,Partly Cloudy
KIGQ,08/11/2016 18:35 UTC,29.96,89.24,72.14,55.65,13.8,220.0,18.41,,493.0,,,363.0,423.0,,,10.0,,KIGQ 111835Z AUTO 22012G16KT 10SM BKN036 BKN042 BKN049 32/22  A2996 RMK AO2 T03180223,,,3600.0,,,71.36,,SW,29.31,27.33,95.72,Mostly Cloudy
KIGQ,08/11/2016 18:55 UTC,29.95,89.24,71.42,55.65,12.66,200.0,19.57,,653.0,,,383.0,453.0,,,10.0,,KIGQ 111855Z AUTO 20011G17KT 10SM BKN038 BKN045 BKN065 32/22  A2995 RMK AO2 LTG DSNT W T03180219,,,3800.0,,,71.36,,SSW,29.3,27.32,95.72,Mostly Cloudy
KIGQ,08/11/2016 19:15 UTC,29.94,89.6,72.32,55.65,14.97,210.0,19.57,,,,,402.0,482.0,,,10.0,,KIGQ 111915Z AUTO 21013G17KT 10SM SCT040 SCT048 32/22 A2994 RMK AO2 T03200224,,,,,,71.7,,SSW,29.29,27.28,96.47,Partly Cloudy
KIGQ,08/11/2016 19:35 UTC,29.93,89.42,70.7,55.65,18.41,220.0,23.02,,,,,422.0,502.0,,,10.0,,KIGQ 111935Z AUTO 22016G20KT 10SM SCT042 SCT050 32/22 A2993 RMK AO2 T03190215,,,,,,71.53,,SW,29.28,27.28,96.1,Partly Cloudy
KIGQ,08/11/2016 19:55 UTC,29.91,88.7,71.06,55.65,13.8,200.0,23.02,,,,,442.0,,,,10.0,,KIGQ 111955Z AUTO 20012G20KT 10SM SCT044 32/22 A2991 RMK AO2  T03150217,,,,,,70.85,,SSW,29.26,27.33,94.62,Partly Cloudy
KIGQ,08/11/2016 20:15 UTC,29.88,89.24,71.78,55.65,19.57,190.0,25.32,,,,,402.0,452.0,,,10.0,,KIGQ 112015Z AUTO 19017G22KT 10SM SCT040 SCT045 32/22 A2988 RMK AO2 T03180221,,,,,,71.36,,S,29.23,27.25,95.72,Partly Cloudy
KIGQ,08/11/2016 20:35 UTC,29.88,89.6,72.14,55.65,18.41,210.0,24.16,,,,,382.0,,,,10.0,,KIGQ 112035Z AUTO 21016G21KT 10SM SCT038 32/22 A2988 RMK AO2  T03200223,,,,,,71.7,,SSW,29.23,27.22,96.47,Partly Cloudy
KIGQ,08/11/2016 20:55 UTC,29.9,89.96,72.68,59.13,19.57,210.0,25.32,,,,,383.0,453.0,,,10.0,,KIGQ 112055Z AUTO 21017G22KT 10SM BKN038 BKN045 32/23 A2990 RMK AO2 T03220226,,,3800.0,,,73.83,,SSW,29.25,27.05,99.1,Mostly Cloudy
KIGQ,08/11/2016 21:15 UTC,29.9,89.42,72.68,59.13,14.97,200.0,21.85,,504.0,,,383.0,473.0,,,10.0,,KIGQ 112115Z AUTO 20013G19KT 10SM BKN038 BKN047 OVC050 32/23  A2990 RMK AO2 T03190226,,,3800.0,,,73.32,,SSW,29.25,27.1,97.85,Overcast
KIGQ,08/11/2016 21:35 UTC,29.91,88.7,71.78,57.6,14.97,220.0,24.16,,554.0,,,383.0,463.0,,,10.0,,KIGQ 112135Z AUTO 22013G21KT 10SM BKN038 BKN046 OVC055 32/22 A2991 RMK AO2 T03150221,,,3800.0,,,71.87,,SW,29.26,27.24,95.52,Overcast
KIGQ,08/11/2016 21:55 UTC,29.89,88.16,72.14,59.3,14.97,220.0,,,503.0,,,392.0,463.0,,,10.0,,KIGQ 112155Z AUTO 22013KT 10SM SCT039 BKN046 BKN050 31/22 A2989 RMK AO2 T03120223,,,4600.0,,,72.22,,SW,29.24,27.2,95.17,Mostly Cloudy
KIGQ,08/11/2016 22:15 UTC,29.88,89.24,72.5,59.13,14.97,220.0,20.71,,652.0,,,392.0,502.0,,,10.0,,KIGQ 112215Z AUTO 22013G18KT 10SM SCT039 SCT050 SCT065 32/23  A2988 RMK AO2 T03180225,,,,,,73.15,,SW,29.23,27.1,97.45,Partly Cloudy
KIGQ,08/11/2016 22:35 UTC,29.88,87.26,72.68,62.58,11.5,220.0,,,,,,1.0,,,,10.0,,KIGQ 112235Z AUTO 22010KT 10SM CLR 31/23 A2988 RMK AO2  T03070226,,,,,,72.96,,SW,29.23,27.14,94.71,Clear
KIGQ,08/11/2016 22:55 UTC,29.88,87.08,73.58,62.58,10.36,200.0,,,,,,1.0,,,,10.0,,KIGQ 112255Z AUTO 20009KT 10SM CLR 31/23 A2988 RMK AO2  T03060231,,,,,,72.79,,SSW,29.23,27.15,94.32,Clear
KIGQ,08/11/2016 23:15 UTC,29.88,86.9,72.68,62.58,8.05,220.0,,,,,,1.0,,,,10.0,,KIGQ 112315Z AUTO 22007KT 10SM CLR 31/23 A2988 RMK AO2  T03050226,,,,,,72.62,,SW,29.23,27.17,93.93,Clear
KIGQ,08/11/2016 23:35 UTC,29.89,86.9,72.14,58.89,11.5,230.0,,,,,,1002.0,,,,10.0,,KIGQ 112335Z AUTO 23010KT 10SM SCT100 31/22 A2989 RMK AO2  T03050223,,,,,,70.82,,SW,29.24,27.33,92.42,Partly Cloudy
KIGQ,08/11/2016 23:55 UTC,29.89,86.9,71.6,58.89,10.36,220.0,,,,,,1103.0,,,,10.0,,KIGQ 112355Z AUTO 22009KT 10SM BKN110 31/22 A2989 RMK AO2  T03050220 10324 20305,90.32,86.9,11000.0,,,70.82,,SW,29.24,27.33,92.42,Mostly Cloudy
KIGQ,08/12/2016 00:15 UTC,29.88,86.9,71.78,58.89,10.36,230.0,,,,,,1102.0,,,,10.0,,KIGQ 120015Z AUTO 23009KT 10SM SCT110 31/22 A2988 RMK AO2  T03050221,,,,,,70.82,,SW,29.23,27.32,92.42,Partly Cloudy
KIGQ,08/12/2016 00:35 UTC,29.89,86.54,72.14,62.35,10.36,220.0,,,,,,1.0,,,,10.0,,KIGQ 120035Z AUTO 22009KT 10SM CLR 30/22 A2989 RMK AO2  T03030223,,,,,,72.17,,SW,29.24,27.22,93.07,Clear
KIGQ,08/12/2016 00:55 UTC,29.88,86.0,72.32,62.35,6.91,220.0,,,,,,1.0,,,,10.0,,KIGQ 120055Z AUTO 22006KT 10SM CLR 30/22 A2988 RMK AO2  T03000224,,,,,,71.65,,SW,29.23,27.26,91.96,Clear
KIGQ,08/12/2016 01:15 UTC,29.88,85.28,72.5,66.25,5.75,220.0,,,,,,952.0,,,,10.0,,KIGQ 120115Z AUTO 22005KT 10SM SCT095 30/23 A2988 RMK AO2  T02960225,,,,,,72.76,,SW,29.23,27.18,91.92,Partly Cloudy
KIGQ,08/12/2016 01:35 UTC,29.88,83.3,73.04,70.17,4.61,210.0,,,,,,952.0,,,,10.0,,KIGQ 120135Z AUTO 21004KT 10SM SCT095 29/23 A2988 RMK AO2  T02850228,,,,,,72.57,,SSW,29.23,27.22,89.05,Partly Cloudy
KIGQ,08/12/2016 01:55 UTC,29.88,80.6,73.4,78.82,4.61,190.0,,,,,,1.0,,,,10.0,,KIGQ 120155Z AUTO 19004KT 10SM CLR 27/23 A2988 RMK AO2  T02700230,,,,,,73.41,,S,29.23,27.18,85.33,Clear
KIGQ,08/12/2016 02:15 UTC,29.88,80.6,73.58,78.82,5.75,200.0,,,,,,1.0,,,,10.0,,KIGQ 120215Z AUTO 20005KT 10SM CLR 27/23 A2988 RMK AO2  T02700231,,,,,,73.41,,SSW,29.23,27.18,85.33,Clear
KIGQ,08/12/2016 02:35 UTC,29.89,80.42,73.58,78.82,4.61,210.0,,,,,,1.0,,,,10.0,,KIGQ 120235Z AUTO 21004KT 10SM CLR 27/23 A2989 RMK AO2  T02690231,,,,,,73.23,,SSW,29.24,27.21,84.95,Clear
KIGQ,08/12/2016 02:55 UTC,29.89,79.88,73.58,78.82,4.61,190.0,,,,,,1.0,,,,10.0,,KIGQ 120255Z AUTO 19004KT 10SM CLR 27/23 A2989 RMK AO2  T02660231,,,,,,72.71,,S,29.24,27.26,,Clear
KIGQ,08/12/2016 03:15 UTC,29.89,79.7,73.94,78.82,5.75,190.0,,,,,,1.0,,,,10.0,,KIGQ 120315Z AUTO 19005KT 10SM CLR 27/23 A2989 RMK AO2  T02650233,,,,,,72.53,,S,29.24,27.28,,Clear
KIGQ,08/12/2016 03:35 UTC,29.89,80.06,73.94,78.82,5.75,200.0,,,,,,753.0,,,,10.0,,KIGQ 120335Z AUTO 20005KT 10SM BKN075 27/23 A2989 RMK AO2  T02670233,,,7500.0,,,72.88,,SSW,29.24,27.24,84.2,Mostly Cloudy
KIGQ,08/12/2016 03:55 UTC,29.89,79.88,73.76,78.82,6.91,190.0,,,,,,752.0,,,,10.0,,KIGQ 120355Z AUTO 19006KT 10SM SCT075 27/23 A2989 RMK AO2  T02660232,,,,,,72.71,,S,29.24,27.26,,Partly Cloudy
KIGQ,08/12/2016 04:15 UTC,29.89,79.7,73.58,78.82,6.91,200.0,,,,,,752.0,,,,10.0,,KIGQ 120415Z AUTO 20006KT 10SM SCT075 27/23 A2989 RMK AO2  T02650231,,,,,,72.53,,SSW,29.24,27.28,,Partly Cloudy
KIGQ,08/12/2016 04:35 UTC,29.89,78.98,73.4,83.6,6.91,200.0,,,,,,753.0,,,,10.0,,KIGQ 120435Z AUTO 20006KT 10SM BKN075 26/23 A2989 RMK AO2  T02610230,,,7500.0,,,73.58,,SSW,29.24,27.2,,Mostly Cloudy
KIGQ,08/12/2016 04:55 UTC,29.89,79.88,73.4,78.82,10.36,210.0,,,,,,754.0,,,,10.0,,KIGQ 120455Z AUTO 21009KT 10SM OVC075 27/23 A2989 RMK AO2 LTG DSNT  NW T02660230,,,7500.0,,,72.71,,SSW,29.24,27.26,,Overcast
KIGQ,08/12/2016 05:15 UTC,29.89,79.7,73.4,78.82,9.22,200.0,,,,,,752.0,,,,10.0,,KIGQ 120515Z AUTO 20008KT 10SM SCT075 27/23 A2989 RMK AO2  T02650230,,,,,,72.53,,SSW,29.24,27.28,,Partly Cloudy
KIGQ,08/12/2016 05:35 UTC,29.89,78.98,73.4,83.6,6.91,200.0,,,,,,1.0,,,,10.0,,KIGQ 120535Z AUTO 20006KT 10SM CLR 26/23 A2989 RMK AO2  T02610230,,,,,,73.58,,SSW,29.24,27.2,,Clear
KIGQ,08/12/2016 05:55 UTC,29.89,79.16,73.4,83.6,8.05,210.0,,,,,,1.0,,,,10.0,,KIGQ 120555Z AUTO 21007KT 10SM CLR 26/23 A2989 RMK AO2 T02620230  10307 20260 403240227,87.26,78.8,,90.32,72.86,73.76,,SSW,29.24,27.18,,Clear
KIGQ,08/12/2016 06:15 UTC,29.89,78.8,73.4,83.6,8.05,200.0,,,,,,1.0,,,,10.0,,KIGQ 120615Z AUTO 20007KT 10SM CLR 26/23 A2989 RMK AO2 LTG DSNT N  AND NW T02600230,,,,,,73.4,,SSW,29.24,27.22,,Clear
KIGQ,08/12/2016 06:35 UTC,29.89,78.8,73.4,83.6,8.05,210.0,,,,,,1.0,,,,10.0,,KIGQ 120635Z AUTO 21007KT 10SM CLR 26/23 A2989 RMK AO2  T02600230,,,,,,73.4,,SSW,29.24,27.22,,Clear
KIGQ,08/12/2016 06:55 UTC,29.88,78.8,73.4,83.6,9.22,200.0,,,,,,1.0,,,,10.0,,KIGQ 120655Z AUTO 20008KT 10SM CLR 26/23 A2988 RMK AO2 LTG DSNT NW  T02600230,,,,,,73.4,,SSW,29.23,27.21,,Clear
KIGQ,08/12/2016 07:15 UTC,29.88,78.44,73.04,83.6,11.5,210.0,,,,,,1.0,,,,10.0,,KIGQ 120715Z AUTO 21010KT 10SM CLR 26/23 A2988 RMK AO2 LTG DSNT NE  T02580228,,,,,,73.05,,SSW,29.23,27.24,,Clear
KIGQ,08/12/2016 07:35 UTC,29.87,78.26,73.04,83.6,10.36,210.0,,,,,,1.0,,,,10.0,,KIGQ 120735Z AUTO 21009KT 10SM CLR 26/23 A2987 RMK AO2  T02570228,,,,,,72.87,,SSW,29.22,27.25,,Clear
KIGQ,08/12/2016 07:55 UTC,29.87,77.9,73.22,83.6,8.05,220.0,,,,,,1.0,,,,10.0,,KIGQ 120755Z AUTO 22007KT 10SM CLR 26/23 A2987 RMK AO2 LTG DSNT W  THRU NE T02550229,,,,,,72.52,,SW,29.22,27.28,,Clear
KIGQ,08/12/2016 08:15 UTC,29.86,77.54,73.04,88.7,8.05,210.0,,,,,,1.0,,,,10.0,,KIGQ 120815Z AUTO 21007KT 10SM CLR 25/23 A2986 RMK AO2 LTG DSNT N  AND W T02530228,,,,,,73.93,,SSW,29.21,27.16,,Clear
KIGQ,08/12/2016 08:35 UTC,29.87,77.9,73.4,83.6,6.91,260.0,,,,,,333.0,413.0,,,10.0,,KIGQ 120835Z AUTO 26006KT 10SM BKN033 BKN041 26/23 A2987 RMK AO2  LTG DSNT N AND NE T02550230,,,3300.0,,,72.52,,W,29.22,27.28,,Mostly Cloudy
KIGQ,08/12/2016 08:55 UTC,29.87,77.9,73.22,83.6,5.75,220.0,,,,,,192.0,314.0,,,10.0,,KIGQ 120855Z AUTO 22005KT 10SM SCT019 OVC031 26/23 A2987 RMK AO2  LTG DSNT N T02550229,,,3100.0,,,72.52,,SW,29.22,27.28,,Overcast
KIGQ,08/12/2016 09:15 UTC,29.87,77.36,73.22,88.7,4.61,220.0,,,474.0,,,173.0,213.0,,,10.0,,KIGQ 120915Z AUTO 22004KT 10SM BKN017 BKN021 OVC047 25/23  A2987 RMK AO2 LTG DSNT NE T02520229,,,1700.0,,,73.75,,SW,29.22,27.19,,Overcast
KIGQ,08/12/2016 09:35 UTC,29.87,77.54,73.4,88.7,3.44,220.0,,,334.0,,,142.0,233.0,,,10.0,,KIGQ 120935Z AUTO 22003KT 10SM SCT014 BKN023 OVC033 25/23  A2987 RMK AO2 LTG DSNT NE T02530230,,,2300.0,,,73.93,,SW,29.22,27.17,,Overcast
KIGQ,08/12/2016 09:55 UTC,29.88,77.9,73.4,83.6,4.61,210.0,,,,,,233.0,304.0,,,10.0,,KIGQ 120955Z AUTO 21004KT 10SM BKN023 OVC030 26/23 A2988 RMK AO2  T02550230,,,2300.0,,,72.52,,SSW,29.23,27.29,,Overcast
KIGQ,08/12/2016 10:15 UTC,29.88,77.0,73.4,88.7,0.0,0.0,,,444.0,,,242.0,323.0,,,10.0,,KIGQ 121015Z AUTO 00000KT 10SM SCT024 BKN032 OVC044 25/23  A2988 RMK AO2 T02500230,,,3200.0,,,73.4,,N,29.23,27.24,,Overcast
KIGQ,08/12/2016 10:35 UTC,29.88,77.0,73.4,88.7,3.44,190.0,,,604.0,,,262.0,323.0,,,10.0,,KIGQ 121035Z AUTO 19003KT 10SM SCT026 BKN032 OVC060 25/23  A2988 RMK AO2 T02500230,,,3200.0,,,73.4,,S,29.23,27.24,,Overcast
KIGQ,08/12/2016 10:55 UTC,29.88,76.28,73.04,88.7,4.61,170.0,,,,,,282.0,653.0,,,10.0,,KIGQ 121055Z AUTO 17004KT 10SM SCT028 BKN065 25/23 A2988 RMK AO2  T02460228,,,6500.0,,,72.69,,S,29.23,27.3,,Mostly Cloudy
KIGQ,08/12/2016 11:15 UTC,29.88,76.28,73.4,88.7,5.75,190.0,,,,,,303.0,354.0,,,10.0,,KIGQ 121115Z AUTO 19005KT 10SM BKN030 OVC035 25/23 A2988 RMK AO2  T02460230,,,3000.0,,,72.69,,S,29.23,27.3,,Overcast
KIGQ,08/12/2016 11:35 UTC,29.88,76.64,73.4,88.7,6.91,180.0,,,,,,304.0,,,,10.0,,KIGQ 121135Z AUTO 18006KT 10SM OVC030 25/23 A2988 RMK AO2  T02480230,,,3000.0,,,73.04,,S,29.23,27.27,,Overcast
KIGQ,08/12/2016 11:55 UTC,29.87,77.0,73.4,88.7,5.75,190.0,,,,,,323.0,424.0,,,10.0,,KIGQ 121155Z AUTO 19005KT 10SM BKN032 OVC042 25/23 A2987 RMK AO2  T02500230 10261 20246,78.98,76.28,3200.0,,,73.4,,S,29.22,27.23,,Overcast
KIGQ,08/12/2016 12:15 UTC,29.88,77.18,73.4,88.7,3.44,190.0,,,,,,343.0,424.0,,,10.0,,KIGQ 121215Z AUTO 19003KT 10SM BKN034 OVC042 25/23 A2988 RMK AO2  T02510230,,,3400.0,,,73.58,,S,29.23,27.22,,Overcast
KIGQ,08/12/2016 12:35 UTC,29.88,77.36,73.4,88.7,5.75,200.0,,,,,,324.0,,,,10.0,,KIGQ 121235Z AUTO 20005KT 10SM OVC032 25/23 A2988 RMK AO2  T02520230,,,3200.0,,,73.75,,SSW,29.23,27.2,,Overcast
KIGQ,08/12/2016 12:55 UTC,29.87,77.54,73.58,88.7,5.75,200.0,,13.0,904.0,,,232.0,283.0,,,10.0,,KIGQ 121255Z AUTO 20005KT 10SM -RA SCT023 BKN028 OVC090 25/23  A2987 RMK AO2 T02530231,,,2800.0,,,73.93,,SSW,29.22,27.17,,Light Rain
KIGQ,08/12/2016 13:15 UTC,29.87,77.9,73.58,83.6,6.91,210.0,,,504.0,,,222.0,333.0,,,10.0,,KIGQ 121315Z AUTO 21006KT 10SM SCT022 BKN033 OVC050 26/23  A2987 RMK AO2 T02550231,,,3300.0,,,72.52,,SSW,29.22,27.28,,Overcast
KIGQ,08/12/2016 13:35 UTC,29.87,78.44,74.12,83.6,6.91,190.0,,,,,,223.0,314.0,,,10.0,,KIGQ 121335Z AUTO 19006KT 10SM BKN022 OVC031 26/23 A2987 RMK AO2  T02580234,,,2200.0,,,73.05,,S,29.22,27.23,,Overcast
KIGQ,08/12/2016 13:55 UTC,29.87,79.7,74.12,78.82,9.22,190.0,,,,,,253.0,503.0,,,10.0,,KIGQ 121355Z AUTO 19008KT 10SM BKN025 BKN050 27/23 A2987 RMK AO2  LTG DSNT SW T02650234,,,2500.0,,,72.53,,S,29.22,27.26,,Mostly Cloudy
KIGQ,08/12/2016 14:15 UTC,29.86,80.06,74.48,83.71,6.91,190.0,,,,,,102.0,283.0,,,10.0,,KIGQ 121415Z AUTO 19006KT 10SM SCT010 BKN028 27/24 A2986 RMK AO2  T02670236,,,2800.0,,,74.68,,S,29.21,27.06,84.88,Mostly Cloudy
KIGQ,08/12/2016 14:35 UTC,29.86,80.6,74.3,83.71,10.36,200.0,,,603.0,,,123.0,283.0,,,10.0,,KIGQ 121435Z AUTO 20009KT 10SM BKN012 BKN028 BKN060 27/24  A2986 RMK AO2 T02700235,,,1200.0,,,75.21,,SSW,29.21,27.01,86.17,Mostly Cloudy
KIGQ,08/12/2016 14:55 UTC,29.87,81.14,74.48,83.71,9.22,200.0,,,,,,123.0,603.0,,,10.0,,KIGQ 121455Z AUTO 20008KT 10SM BKN012 BKN060 27/24 A2987 RMK AO2  T02730236,,,1200.0,,,75.74,,SSW,29.22,26.96,87.52,Mostly Cloudy
KIGQ,08/12/2016 15:15 UTC,29.86,80.78,74.3,83.71,9.22,200.0,,,553.0,,,123.0,203.0,,,10.0,,KIGQ 121515Z AUTO 20008KT 10SM BKN012 BKN020 BKN055 27/24  A2986 RMK AO2 T02710235,,,1200.0,,,75.38,,SSW,29.21,26.99,86.62,Mostly Cloudy
KIGQ,08/12/2016 15:35 UTC,29.85,81.5,74.48,78.97,9.22,190.0,,,,,,143.0,603.0,,,10.0,,KIGQ 121535Z AUTO 19008KT 10SM BKN014 BKN060 28/24 A2985 RMK AO2  T02750236,,,1400.0,,,74.34,,S,29.2,27.06,87.36,Mostly Cloudy
KIGQ,08/12/2016 15:55 UTC,29.84,83.66,75.2,74.52,12.66,190.0,,5.0,603.0,,,143.0,483.0,,,10.0,,KIGQ 121555Z AUTO 19011KT 10SM VCTS BKN014 BKN048 BKN060 29/24  A2984 RMK AO2 LTG DSNT W AND NW T02870240,,,1400.0,,,74.7,,S,29.19,26.99,91.18,Thunder
KIGQ,08/12/2016 16:15 UTC,29.85,83.12,74.84,78.97,12.66,190.0,,5.0,483.0,,,163.0,213.0,,,10.0,,KIGQ 121615Z AUTO 19011KT 10SM TS BKN016 BKN021 BKN048 28/24  A2985 RMK AO2 LTG DSNT SW THRU N T02840238,,,1600.0,,,75.92,,S,29.2,26.9,91.29,Thunder
KIGQ,08/12/2016 16:35 UTC,29.86,81.86,74.12,74.36,11.5,230.0,18.41,5.0,1204.0,,,183.0,223.0,,,10.0,,KIGQ 121635Z AUTO 23010G16KT 10SM TS BKN018 BKN022 OVC120 28/23  A2986 RMK AO2 LTG DSNT W THRU N T02770234,,,1800.0,,,72.9,,SW,29.21,27.19,87.13,Thunder
KIGQ,08/12/2016 16:55 UTC,29.87,75.56,72.14,88.62,6.91,230.0,20.71,,,0.33,,113.0,204.0,,,1.0,,KIGQ 121655Z AUTO 23006G18KT 1SM +VCTSRA BKN011 OVC020 24/22  A2987 RMK AO2 LTG DSNT N AND NE P0033 T02420223,,,1100.0,,,71.95,,SW,29.22,27.36,,Overcast
KIGQ,08/12/2016 17:15 UTC,29.87,75.38,72.14,88.62,3.44,200.0,,,1004.0,,,112.0,252.0,,,10.0,,KIGQ 121715Z AUTO 20003KT 10SM -VCTSRA SCT011 SCT025 OVC100 24/22  A2987 RMK AO2 LTG DSNT N AND NE T02410223,,,10000.0,,,71.77,,SSW,29.22,27.38,,Overcast
KIGQ,08/12/2016 17:35 UTC,29.86,75.56,71.96,88.62,6.91,210.0,,13.0,,,,1004.0,,,,10.0,,KIGQ 121735Z AUTO 21006KT 10SM -RA OVC100 24/22 A2986 RMK AO2 LTG  DSNT NE AND SE T02420222,,,10000.0,,,71.95,,SSW,29.21,27.35,,Light Rain
KIGQ,08/12/2016 17:55 UTC,29.86,75.2,71.78,88.62,9.22,180.0,,13.0,,,,703.0,1104.0,0.33,,10.0,,KIGQ 121755Z AUTO 18008KT 10SM -RA BKN070 OVC110 24/22 A2986 RMK AO2 LTG DSNT NE 60033 T02400221 10287 20240,83.66,75.2,7000.0,,,71.6,,S,29.21,27.39,,Light Rain
KIGQ,08/12/2016 18:15 UTC,29.86,75.2,71.78,88.62,10.36,180.0,,13.0,,,,704.0,,,,10.0,,KIGQ 121815Z AUTO 18009KT 10SM -RA OVC070 24/22 A2986 RMK AO2 LTG  DSNT NE T02400221,,,7000.0,,,71.6,,S,29.21,27.39,,Light Rain
KIGQ,08/12/2016 18:35 UTC,29.85,75.74,71.96,88.62,6.91,200.0,,13.0,,,,703.0,803.0,,,10.0,,KIGQ 121835Z AUTO 20006KT 10SM -RA BKN070 BKN080 24/22 A2985 RMK AO2 LTG DSNT NE T02430222,,,7000.0,,,72.13,,SSW,29.2,27.33,,Light Rain
KIGQ,08/12/2016 18:55 UTC,29.83,76.28,72.14,83.48,5.75,190.0,,,804.0,,,432.0,702.0,,,10.0,,KIGQ 121855Z AUTO 19005KT 10SM SCT043 SCT070 OVC080 25/22  A2983 RMK AO2 T02460223,,,8000.0,,,70.89,,S,29.18,27.39,,Overcast
KIGQ,08/12/2016 19:15 UTC,29.83,77.18,72.32,83.48,5.75,220.0,,,1103.0,,,752.0,903.0,,,10.0,,KIGQ 121915Z AUTO 22005KT 10SM SCT075 BKN090 BKN110 25/22  A2983 RMK AO2 T02510224,,,9000.0,,,71.77,,SW,29.18,27.31,,Mostly Cloudy
KIGQ,08/12/2016 19:35 UTC,29.84,77.9,72.5,83.6,6.91,270.0,,,,,,753.0,954.0,,,10.0,,KIGQ 121935Z AUTO 27006KT 10SM BKN075 OVC095 26/23 A2984 RMK AO2  LTG DSNT NE T02550225,,,7500.0,,,72.52,,W,29.19,27.25,,Overcast
KIGQ,08/12/2016 19:55 UTC,29.84,78.98,72.68,83.6,6.91,270.0,,,,,,903.0,,,,10.0,,KIGQ 121955Z AUTO 27006KT 10SM BKN090 26/23 A2984 RMK AO2  T02610226,,,9000.0,,,73.58,,W,29.19,27.15,,Mostly Cloudy
KIGQ,08/12/2016 20:15 UTC,29.83,80.06,72.86,78.82,3.44,300.0,,,,,,803.0,,,,10.0,,KIGQ 122015Z AUTO 30003KT 10SM BKN080 27/23 A2983 RMK AO2 LTG DSNT  E T02670227,,,8000.0,,,72.88,,WNW,29.18,27.18,84.2,Mostly Cloudy
KIGQ,08/12/2016 20:35 UTC,29.83,80.6,73.22,78.82,5.75,260.0,,,,,,852.0,953.0,,,10.0,,KIGQ 122035Z AUTO 26005KT 10SM SCT085 BKN095 27/23 A2983 RMK AO2  T02700229,,,9500.0,,,73.41,,W,29.18,27.13,85.33,Mostly Cloudy
KIGQ,08/12/2016 20:55 UTC,29.82,80.78,73.22,78.82,3.44,260.0,,,,,,1103.0,,,,10.0,,KIGQ 122055Z AUTO 26003KT 10SM BKN110 27/23 A2982 RMK AO2 LTG DSNT  E T02710229,,,11000.0,,,73.58,,W,29.17,27.1,85.72,Mostly Cloudy
KIGQ,08/12/2016 21:15 UTC,29.81,81.5,73.22,74.36,0.0,0.0,,,,,,902.0,1103.0,,,10.0,,KIGQ 122115Z AUTO 00000KT 10SM SCT090 BKN110 28/23 A2981 RMK AO2  LTG DSNT S T02750229,,,11000.0,,,72.55,,N,29.16,27.17,86.38,Mostly Cloudy
KIGQ,08/12/2016 21:35 UTC,29.81,82.4,73.58,74.36,0.0,0.0,,,,,,902.0,1202.0,,,10.0,,KIGQ 122135Z AUTO 00000KT 10SM SCT090 SCT120 28/23 A2981 RMK AO2  LTG DSNT SW T02800231,,,,,,73.42,,N,29.16,27.09,88.28,Partly Cloudy
KIGQ,08/12/2016 21:55 UTC,29.8,82.4,73.22,74.36,3.44,170.0,,,,,,1.0,,,,10.0,,KIGQ 122155Z AUTO 17003KT 10SM CLR 28/23 A2980 RMK AO2 LTG DSNT SW  T02800229,,,,,,73.42,,S,29.15,27.08,88.28,Clear
KIGQ,08/12/2016 22:15 UTC,29.79,83.12,73.76,74.36,4.61,180.0,,,,,,1102.0,,,,10.0,,KIGQ 122215Z AUTO 18004KT 10SM SCT110 28/23 A2979 RMK AO2 LTG DSNT  SW AND W T02840232,,,,,,74.12,,S,29.14,27.0,89.88,Partly Cloudy
KIGQ,08/12/2016 22:35 UTC,29.79,83.12,73.76,74.36,3.44,220.0,,,,,,1.0,,,,10.0,,KIGQ 122235Z AUTO 22003KT 10SM CLR 28/23 A2979 RMK AO2 LTG DSNT SW  AND W T02840232,,,,,,74.12,,SW,29.14,27.0,89.88,Clear
KIGQ,08/12/2016 22:55 UTC,29.8,82.22,74.12,74.36,0.0,0.0,,,,,,902.0,,,,10.0,,KIGQ 122255Z AUTO 00000KT 10SM SCT090 28/23 A2980 RMK AO2 LTG DSNT  SW AND W T02790234,,,,,,73.25,,N,29.15,27.09,87.89,Partly Cloudy
KIGQ,08/12/2016 23:15 UTC,29.8,81.86,74.12,74.36,0.0,0.0,,5.0,,,,262.0,902.0,,,10.0,,KIGQ 122315Z AUTO 00000KT 10SM VCTS SCT026 SCT090 28/23 A2980 RMK AO2 LTG DSNT SW AND W T02770234,,,,,,72.9,,N,29.15,27.13,87.13,Thunder
KIGQ,08/12/2016 23:35 UTC,29.8,80.96,74.3,83.71,4.61,200.0,,5.0,1103.0,,,302.0,903.0,,,10.0,,KIGQ 122335Z AUTO 20004KT 10SM VCTS SCT030 BKN090 BKN110 27/24  A2980 RMK AO2 LTG DSNT SW THRU NW T02720235,,,9000.0,,,75.56,,SSW,29.15,26.91,87.06,Thunder
KIGQ,08/12/2016 23:55 UTC,29.8,80.6,74.66,83.71,4.61,200.0,,,804.0,,,283.0,333.0,,,10.0,,KIGQ 122355Z AUTO 20004KT 10SM -VCTSRA BKN028 BKN033 OVC080 27/24  A2980 RMK AO2 LTG DSNT SW THRU NW T02700237 10287 20239,83.66,75.02,2800.0,,,75.21,,SSW,29.15,26.95,86.17,Overcast
KIGQ,08/13/2016 00:15 UTC,29.79,78.98,74.84,88.78,0.0,0.0,,66.0,1104.0,,,302.0,422.0,,,7.0,,KIGQ 130015Z AUTO 00000KT 7SM TSRA SCT030 SCT042 OVC110 26/24  A2979 RMK AO2 LTG DSNT SW THRU N T02610238,,,11000.0,,,75.38,,N,29.14,26.95,,Thunderstorm
KIGQ,08/13/2016 00:35 UTC,29.8,79.34,75.2,88.78,3.44,230.0,,66.0,,,,292.0,1104.0,,,10.0,,KIGQ 130035Z AUTO 23003KT 10SM TSRA SCT029 OVC110 26/24 A2980 RMK AO2 LTG DSNT SW THRU N T02630240,,,11000.0,,,75.73,,SW,29.15,26.92,,Thunderstorm
KIGQ,08/13/2016 00:55 UTC,29.81,76.64,73.22,88.7,11.5,280.0,21.85,78.0,1104.0,0.04,,112.0,273.0,,,7.0,,KIGQ 130055Z AUTO 28010G19KT 7SM +TSRA SCT011 BKN027 OVC110 25/23  A2981 RMK AO2 LTG DSNT ALQS P0004 T02480229,,,2700.0,,,73.04,,W,29.16,27.2,,Heavy Rain/Thunderstorm
KIGQ,08/13/2016 01:15 UTC,29.82,74.66,72.5,94.16,5.75,300.0,,78.0,204.0,0.27,,73.0,103.0,,,3.0,,KIGQ 130115Z AUTO 30005KT 3SM +TSRA BKN007 BKN010 OVC020 24/23  A2982 RMK AO2 LTG DSNT NW THRU SE P0027 T02370225,,,700.0,,,72.86,,WNW,29.17,27.25,,Heavy Rain/Thunderstorm
KIGQ,08/13/2016 01:35 UTC,29.82,74.3,72.5,94.16,3.44,330.0,,,904.0,0.3,,72.0,283.0,,,10.0,,KIGQ 130135Z AUTO 33003KT 10SM VCTSRA SCT007 BKN028 OVC090 24/23  A2982 RMK AO2 LTG DSNT ALQS P0030 T02350225,,,2800.0,,,72.5,,NNW,29.17,27.29,,Overcast
KIGQ,08/13/2016 01:55 UTC,29.83,74.3,73.04,94.16,3.44,320.0,,,904.0,0.33,,72.0,753.0,,,7.0,,KIGQ 130155Z AUTO 32003KT 7SM +VCTSRA SCT007 BKN075 OVC090 24/23  A2983 RMK AO2 LTG DSNT NE AND S P0033 T02350228,,,7500.0,,,72.5,,NW,29.18,27.3,,Overcast
KIGQ,08/13/2016 02:15 UTC,29.82,73.94,73.04,100.0,0.0,0.0,,14.0,,0.03,,803.0,1004.0,,,4.0,,KIGQ 130215Z AUTO 00000KT 4SM +RA BKN080 OVC100 23/23 A2982 RMK AO2 LTG DSNT NE THRU S P0003 T02330228,,,8000.0,,,73.94,,N,29.17,27.18,,Heavy Rain
KIGQ,08/13/2016 02:35 UTC,29.82,74.12,73.4,100.0,0.0,0.0,,1.0,1004.0,0.06,,52.0,423.0,,,7.0,,KIGQ 130235Z AUTO 00000KT 7SM RA SCT005 BKN042 OVC100 23/23  A2982 RMK AO2 LTG DSNT E THRU SW P0006 T02340230,,,4200.0,,,74.12,,N,29.17,27.16,,Rain
KIGQ,08/13/2016 02:55 UTC,29.81,73.4,72.5,100.0,0.0,0.0,,,854.0,0.06,0.45,72.0,343.0,,,10.0,,KIGQ 130255Z AUTO 00000KT 10SM -VCTSRA SCT007 BKN034 OVC085 23/23  A2981 RMK AO2 LTG DSNT E THRU SW P0006 60045 T02300225,,,3400.0,,,73.4,,N,29.16,27.22,,Overcast
KIGQ,08/13/2016 03:15 UTC,29.82,73.4,72.5,100.0,4.61,160.0,,,954.0,,,282.0,803.0,,,10.0,,KIGQ 130315Z AUTO 16004KT 10SM -VCTSRA SCT028 BKN080 OVC095 23/23  A2982 RMK AO2 LTG DSNT E THRU S T02300225,,,8000.0,,,73.4,,SSE,29.17,27.23,,Overcast
KIGQ,08/13/2016 03:35 UTC,29.82,74.12,73.4,100.0,5.75,160.0,,,954.0,,,322.0,653.0,,,10.0,,KIGQ 130335Z AUTO 16005KT 10SM -VCTSRA SCT032 BKN065 OVC095 23/23  A2982 RMK AO2 LTG DSNT E THRU SW T02340230,,,6500.0,,,74.12,,SSE,29.17,27.16,,Overcast
KIGQ,08/13/2016 03:55 UTC,29.81,73.76,73.04,100.0,0.0,0.0,,13.0,,,,603.0,904.0,,,10.0,,KIGQ 130355Z AUTO 00000KT 10SM -RA BKN060 OVC090 23/23 A2981 RMK AO2 LTG DSNT E THRU S T02320228,,,6000.0,,,73.76,,N,29.16,27.19,,Light Rain
KIGQ,08/13/2016 04:15 UTC,29.82,73.4,72.5,100.0,3.44,190.0,,14.0,904.0,0.04,,352.0,653.0,,,4.0,,KIGQ 130415Z AUTO 19003KT 4SM +RA SCT035 BKN065 OVC090 23/23  A2982 RMK AO2 LTG DSNT E AND S P0004 T02300225,,,6500.0,,,73.4,,S,29.17,27.23,,Heavy Rain
KIGQ,08/13/2016 04:35 UTC,29.81,73.4,72.68,100.0,4.61,160.0,,1.0,904.0,0.06,,352.0,553.0,,,10.0,,KIGQ 130435Z AUTO 16004KT 10SM RA SCT035 BKN055 OVC090 23/23  A2981 RMK AO2 LTG DSNT E AND SE P0006 T02300226,,,5500.0,,,73.4,,SSE,29.16,27.22,,Rain
KIGQ,08/13/2016 04:55 UTC,29.81,73.76,73.22,100.0,5.75,190.0,,14.0,754.0,0.09,,282.0,443.0,,,7.0,,KIGQ 130455Z AUTO 19005KT 7SM +RA SCT028 BKN044 OVC075 23/23  A2981 RMK AO2 LTG DSNT E P0009 T02320229,,,4400.0,,,73.76,,S,29.16,27.19,,Heavy Rain
KIGQ,08/13/2016 05:15 UTC,29.8,74.3,73.4,94.16,8.05,180.0,,1.0,904.0,0.04,,232.0,433.0,,,10.0,,KIGQ 130515Z AUTO 18007KT 10SM RA SCT023 BKN043 OVC090 24/23  A2980 RMK AO2 P0004 T02350230,,,4300.0,,,72.5,,S,29.15,27.27,,Rain
KIGQ,08/13/2016 05:35 UTC,29.78,73.94,73.4,100.0,5.75,170.0,,13.0,953.0,0.04,,212.0,412.0,,,10.0,,KIGQ 130535Z AUTO 17005KT 10SM -RA SCT021 SCT041 BKN095 23/23  A2978 RMK AO2 P0004 T02330230,,,9500.0,,,73.94,,S,29.13,27.14,,Light Rain
KIGQ,08/13/2016 05:55 UTC,29.76,73.58,73.04,100.0,5.75,190.0,,,,0.04,,1002.0,,0.59,,10.0,,KIGQ 130555Z AUTO 19005KT 10SM SCT100 23/23 A2976 RMK AO2 P0004  60059 T02310228 10269 20230 402870230,80.42,73.4,,83.66,73.4,73.58,,S,29.11,27.15,,Partly Cloudy
KIGQ,08/13/2016 06:15 UTC,29.76,73.58,72.86,100.0,5.75,200.0,,,,,,1.0,,,,10.0,,KIGQ 130615Z AUTO 20005KT 10SM CLR 23/23 A2976 RMK AO2  T02310227,,,,,,73.58,,SSW,29.11,27.15,,Clear
KIGQ,08/13/2016 06:35 UTC,29.76,73.58,72.86,100.0,8.05,190.0,,,,,,73.0,,,,10.0,,KIGQ 130635Z AUTO 19007KT 10SM BKN007 23/23 A2976 RMK AO2  T02310227,,,700.0,,,73.58,,S,29.11,27.15,,Mostly Cloudy
KIGQ,08/13/2016 06:55 UTC,29.76,73.76,73.4,100.0,10.36,200.0,,,,,,54.0,,,,10.0,,KIGQ 130655Z AUTO 20009KT 10SM OVC005 23/23 A2976 RMK AO2  T02320230,,,500.0,,,73.76,,SSW,29.11,27.13,,Overcast
KIGQ,08/13/2016 07:15 UTC,29.76,73.94,73.4,98.21,11.5,190.0,,,,,,54.0,,,,10.0,,KIGQ 130715Z AUTO 19010KT 10SM OVC005 23/23 A2976 RMK AO2  T02330230,,,500.0,,,73.4,,S,29.11,27.16,,Overcast
KIGQ,08/13/2016 07:35 UTC,29.76,73.76,73.04,100.0,9.22,200.0,,13.0,,,,53.0,134.0,,,10.0,,KIGQ 130735Z AUTO 20008KT 10SM -RA BKN005 OVC013 23/23 A2976 RMK AO2 T02320228,,,500.0,,,73.76,,SSW,29.11,27.13,,Light Rain
KIGQ,08/13/2016 07:55 UTC,29.76,73.76,73.04,100.0,8.05,220.0,,13.0,,,,52.0,134.0,,,7.0,,KIGQ 130755Z AUTO 22007KT 7SM -RA SCT005 OVC013 23/23 A2976 RMK AO2 T02320228,,,1300.0,,,73.76,,SW,29.11,27.13,,Light Rain
KIGQ,08/13/2016 08:15 UTC,29.76,73.94,73.04,100.0,9.22,220.0,,,,,,73.0,134.0,,,10.0,,KIGQ 130815Z AUTO 22008KT 10SM BKN007 OVC013 23/23 A2976 RMK AO2  T02330228,,,700.0,,,73.94,,SW,29.11,27.12,,Overcast
KIGQ,08/13/2016 08:35 UTC,29.76,73.94,73.04,100.0,8.05,220.0,,,,,,74.0,,,,10.0,,KIGQ 130835Z AUTO 22007KT 10SM OVC007 23/23 A2976 RMK AO2  T02330228,,,700.0,,,73.94,,SW,29.11,27.12,,Overcast
KIGQ,08/13/2016 08:55 UTC,29.76,73.76,72.68,100.0,11.5,220.0,,,,,,74.0,,,,10.0,,KIGQ 130855Z AUTO 22010KT 10SM OVC007 23/23 A2976 RMK AO2  T02320226,,,700.0,,,73.76,,SW,29.11,27.13,,Overcast
KIGQ,08/13/2016 09:15 UTC,29.76,73.58,72.5,100.0,10.36,210.0,,1.0,,,,74.0,,,,7.0,,KIGQ 130915Z AUTO 21009KT 7SM RA OVC007 23/23 A2976 RMK AO2  T02310225,,,700.0,,,73.58,,SSW,29.11,27.15,,Rain
KIGQ,08/13/2016 09:35 UTC,29.76,73.4,72.5,100.0,6.91,220.0,,,,,,74.0,,,,10.0,,KIGQ 130935Z AUTO 22006KT 10SM OVC007 23/23 A2976 RMK AO2  T02300225,,,700.0,,,73.4,,SW,29.11,27.17,,Overcast
KIGQ,08/13/2016 09:55 UTC,29.76,73.58,72.68,100.0,6.91,210.0,,13.0,,,,74.0,,,,10.0,,KIGQ 130955Z AUTO 21006KT 10SM -RA OVC007 23/23 A2976 RMK AO2  T02310226,,,700.0,,,73.58,,SSW,29.11,27.15,,Light Rain
KIGQ,08/13/2016 10:15 UTC,29.76,73.76,72.86,100.0,10.36,220.0,,14.0,,0.01,,74.0,,,,5.0,,KIGQ 131015Z AUTO 22009KT 5SM +RA OVC007 23/23 A2976 RMK AO2 P0001  T02320227,,,700.0,,,73.76,,SW,29.11,27.13,,Heavy Rain
KIGQ,08/13/2016 10:35 UTC,29.76,73.76,72.86,100.0,8.05,220.0,,1.0,,0.02,,74.0,,,,7.0,,KIGQ 131035Z AUTO 22007KT 7SM RA OVC007 23/23 A2976 RMK AO2 P0002  T02320227,,,700.0,,,73.76,,SW,29.11,27.13,,Rain
KIGQ,08/13/2016 10:55 UTC,29.77,73.76,72.86,100.0,6.91,230.0,,2.0,,0.02,,74.0,,,,5.0,,KIGQ 131055Z AUTO 23006KT 5SM DZ OVC007 23/23 A2977 RMK AO2 LTG  DSNT SE P0002 T02320227,,,700.0,,,73.76,,SW,29.12,27.14,,Drizzle
KIGQ,08/13/2016 11:15 UTC,29.77,73.76,72.86,100.0,8.05,230.0,,17.0,,,,54.0,,,,4.0,,KIGQ 131115Z AUTO 23007KT 4SM -DZ OVC005 23/23 A2977 RMK AO2 LTG  DSNT NE T02320227,,,500.0,,,73.76,,SW,29.12,27.14,,Light Drizzle
KIGQ,08/13/2016 11:35 UTC,29.78,73.94,72.86,100.0,8.05,230.0,,,,,,54.0,,,,7.0,,KIGQ 131135Z AUTO 23007KT 7SM OVC005 23/23 A2978 RMK AO2  T02330227,,,500.0,,,73.94,,SW,29.13,27.14,,Overcast
KIGQ,08/13/2016 11:55 UTC,29.78,74.3,73.04,94.16,5.75,240.0,,,,,,54.0,,0.02,0.94,10.0,,KIGQ 131155Z AUTO 24005KT 10SM OVC005 24/23 A2978 RMK AO2 LTG DSNT  E 60002 70094 T02350228 10235 20230,74.3,73.4,500.0,,,72.5,,WSW,29.13,27.25,,Overcast
KIGQ,08/13/2016 12:15 UTC,29.79,74.3,73.04,94.16,6.91,240.0,,13.0,,,,54.0,,,,4.0,,KIGQ 131215Z AUTO 24006KT 4SM -RA OVC005 24/23 A2979 RMK AO2  T02350228,,,500.0,,,72.5,,WSW,29.14,27.26,,Light Rain
KIGQ,08/13/2016 12:35 UTC,29.79,74.12,73.22,100.0,5.75,240.0,,2.0,,,,54.0,,,,2.5,,KIGQ 131235Z AUTO 24005KT 2 1/2SM DZ OVC005 23/23 A2979 RMK AO2  T02340229,,,500.0,,,74.12,,WSW,29.14,27.13,,Drizzle
KIGQ,08/13/2016 12:55 UTC,29.79,74.3,73.4,94.16,4.61,240.0,,31.0,,,,54.0,,,,3.0,,KIGQ 131255Z AUTO 24004KT 3SM BR OVC005 24/23 A2979 RMK AO2  T02350230,,,500.0,,,72.5,,WSW,29.14,27.26,,Mist
KIGQ,08/13/2016 13:15 UTC,29.8,74.66,73.58,96.45,6.91,260.0,,31.0,,,,54.0,,,,3.0,,KIGQ 131315Z AUTO 26006KT 3SM BR OVC005 24/23 A2980 RMK AO2 LTG  DSNT E T02370231,,,500.0,,,73.58,,W,29.15,27.18,,Mist
KIGQ,08/13/2016 13:35 UTC,29.8,75.38,73.76,94.16,6.91,240.0,,31.0,,,,74.0,,,,4.0,,KIGQ 131335Z AUTO 24006KT 4SM BR OVC007 24/23 A2980 RMK AO2  T02410232,,,700.0,,,73.58,,WSW,29.15,27.16,,Mist
KIGQ,08/13/2016 13:55 UTC,29.8,76.1,73.22,88.7,6.91,240.0,,31.0,,,,73.0,174.0,,,3.0,,KIGQ 131355Z AUTO 24006KT 3SM BR BKN007 OVC017 25/23 A2980 RMK AO2  T02450229,,,700.0,,,72.51,,WSW,29.15,27.24,,Mist
KIGQ,08/13/2016 14:15 UTC,29.8,77.18,73.94,88.7,6.91,250.0,,31.0,194.0,,,73.0,123.0,,,4.0,,KIGQ 131415Z AUTO 25006KT 4SM BR BKN007 BKN012 OVC019 25/23  A2980 RMK AO2 LTG DSNT SE T02510233,,,700.0,,,73.58,,WSW,29.15,27.14,,Mist
KIGQ,08/13/2016 14:35 UTC,29.8,77.72,73.4,88.7,10.36,220.0,,,,,,113.0,194.0,,,7.0,,KIGQ 131435Z AUTO 22009KT 7SM BKN011 OVC019 25/23 A2980 RMK AO2  LTG DSNT SE T02540230,,,1100.0,,,74.11,,SW,29.15,27.08,,Overcast
KIGQ,08/13/2016 14:55 UTC,29.81,78.08,72.86,83.6,9.22,230.0,,,354.0,,,112.0,163.0,,,7.0,,KIGQ 131455Z AUTO 23008KT 7SM SCT011 BKN016 OVC035 26/23 A2981 RMK AO2 LTG DSNT S T02560227,,,1600.0,,,72.7,,SW,29.16,27.21,,Overcast
KIGQ,08/13/2016 15:15 UTC,29.81,79.7,73.22,78.82,6.91,240.0,,,704.0,,,153.0,283.0,,,10.0,,KIGQ 131515Z AUTO 24006KT 10SM BKN015 BKN028 OVC070 27/23  A2981 RMK AO2 LTG DSNT SE T02650229,,,1500.0,,,72.53,,WSW,29.16,27.2,,Overcast
KIGQ,08/13/2016 15:35 UTC,29.81,79.7,72.5,78.82,9.22,240.0,,,504.0,,,173.0,343.0,,,10.0,,KIGQ 131535Z AUTO 24008KT 10SM BKN017 BKN034 OVC050 27/23  A2981 RMK AO2 T02650225,,,1700.0,,,72.53,,WSW,29.16,27.2,,Overcast
KIGQ,08/13/2016 15:55 UTC,29.81,81.68,72.86,74.36,10.36,250.0,16.11,,494.0,,,173.0,333.0,,,10.0,,KIGQ 131555Z AUTO 25009G14KT 10SM BKN017 BKN033 OVC049 28/23  A2981 RMK AO2 T02760227,,,1700.0,,,72.73,,WSW,29.16,27.15,86.75,Overcast
KIGQ,08/13/2016 16:15 UTC,29.81,81.5,73.04,74.36,10.36,260.0,,,413.0,,,192.0,283.0,,,10.0,,KIGQ 131615Z AUTO 26009KT 10SM SCT019 BKN028 BKN041 28/23  A2981 RMK AO2 LTG DSNT SE T02750228,,,2800.0,,,72.55,,W,29.16,27.17,86.38,Mostly Cloudy
KIGQ,08/13/2016 16:35 UTC,29.82,82.4,71.78,69.98,11.5,230.0,17.27,,343.0,,,192.0,253.0,,,10.0,,KIGQ 131635Z AUTO 23010G15KT 10SM SCT019 BKN025 BKN034 28/22  A2982 RMK AO2 T02800221,,,2500.0,,,71.62,,SW,29.17,27.24,87.19,Mostly Cloudy
KIGQ,08/13/2016 16:55 UTC,29.82,81.5,71.06,69.98,13.8,230.0,18.41,,703.0,,,212.0,272.0,,,10.0,,KIGQ 131655Z AUTO 23012G16KT 10SM SCT021 SCT027 BKN070 28/22  A2982 RMK AO2 T02750217,,,7000.0,,,70.76,,SW,29.17,27.33,85.51,Mostly Cloudy
KIGQ,08/13/2016 17:15 UTC,29.82,82.58,71.78,69.98,14.97,250.0,,,702.0,,,232.0,312.0,,,10.0,,KIGQ 131715Z AUTO 25013KT 10SM SCT023 SCT031 SCT070 28/22  A2982 RMK AO2 T02810221,,,,,,71.8,,WSW,29.17,27.23,87.55,Partly Cloudy
KIGQ,08/13/2016 17:35 UTC,29.82,82.76,71.96,69.98,12.66,260.0,19.57,,,,,232.0,312.0,,,10.0,,KIGQ 131735Z AUTO 26011G17KT 10SM SCT023 SCT031 28/22 A2982 RMK AO2 T02820222,,,,,,71.97,,W,29.17,27.21,87.9,Partly Cloudy
KIGQ,08/13/2016 17:55 UTC,29.82,83.12,71.24,69.98,12.66,250.0,17.27,,,,,252.0,,,,10.0,,KIGQ 131755Z AUTO 25011G15KT 10SM SCT025 28/22 A2982 RMK AO2  T02840218 10285 20234,83.3,74.12,,,,72.31,,WSW,29.17,27.18,88.62,Partly Cloudy
KIGQ,08/13/2016 18:15 UTC,29.82,82.4,70.88,69.98,17.27,230.0,20.71,,413.0,,,253.0,333.0,,,10.0,,KIGQ 131815Z AUTO 23015G18KT 10SM BKN025 BKN033 BKN041 28/22  A2982 RMK AO2 T02800216,,,2500.0,,,71.62,,SW,29.17,27.24,87.19,Mostly Cloudy
KIGQ,08/13/2016 18:35 UTC,29.82,83.48,71.24,66.04,13.8,240.0,,,412.0,,,252.0,332.0,,,10.0,,KIGQ 131835Z AUTO 24012KT 10SM SCT025 SCT033 SCT041 29/22  A2982 RMK AO2 T02860218,,,,,,70.95,,WSW,29.17,27.29,88.24,Partly Cloudy
KIGQ,08/13/2016 18:55 UTC,29.82,83.3,71.42,66.04,12.66,250.0,,,472.0,,,272.0,352.0,,,10.0,,KIGQ 131855Z AUTO 25011KT 10SM SCT027 SCT035 SCT047 29/22  A2982 RMK AO2 T02850219,,,,,,70.78,,WSW,29.17,27.3,87.91,Partly Cloudy
KIGQ,08/13/2016 19:15 UTC,29.82,82.58,70.16,65.83,12.66,280.0,19.57,,453.0,,,252.0,382.0,,,10.0,,KIGQ 131915Z AUTO 28011G17KT 10SM SCT025 SCT038 BKN045 28/21  A2982 RMK AO2 T02810212,,,4500.0,,,70.0,,W,29.17,27.37,86.55,Mostly Cloudy
KIGQ,08/13/2016 19:35 UTC,29.83,80.96,69.44,69.79,9.22,290.0,18.41,,504.0,,,272.0,483.0,,,10.0,,KIGQ 131935Z AUTO 29008G16KT 10SM SCT027 BKN048 OVC050 27/21  A2983 RMK AO2 T02720208,,,4800.0,,,70.16,,WNW,29.18,27.39,84.52,Overcast
KIGQ,08/13/2016 19:55 UTC,29.83,81.86,69.26,65.83,9.22,280.0,18.41,,,,,482.0,604.0,,,10.0,,KIGQ 131955Z AUTO 28008G16KT 10SM SCT048 OVC060 28/21 A2983 RMK AO2 T02770207,,,6000.0,,,69.31,,W,29.18,27.44,85.32,Overcast
KIGQ,08/13/2016 20:15 UTC,29.83,82.4,69.98,65.83,12.66,280.0,17.27,,,,,282.0,604.0,,,10.0,,KIGQ 132015Z AUTO 28011G15KT 10SM SCT028 OVC060 28/21 A2983 RMK AO2 T02800211,,,6000.0,,,69.82,,W,29.18,27.4,86.24,Overcast
KIGQ,08/13/2016 20:35 UTC,29.84,81.5,69.26,65.83,13.8,300.0,20.71,,604.0,,,283.0,403.0,,,10.0,,KIGQ 132035Z AUTO 30012G18KT 10SM BKN028 BKN040 OVC060 28/21  A2984 RMK AO2 T02750207,,,2800.0,,,68.97,,WNW,29.19,27.48,84.73,Overcast
KIGQ,08/13/2016 20:55 UTC,29.84,80.6,68.9,69.79,8.05,290.0,,,484.0,,,282.0,423.0,,,10.0,,KIGQ 132055Z AUTO 29007KT 10SM SCT028 BKN042 OVC048 27/21  A2984 RMK AO2 T02700205,,,4200.0,,,69.81,,WNW,29.19,27.43,83.91,Overcast
KIGQ,08/13/2016 21:15 UTC,29.85,79.34,70.52,74.02,4.61,10.0,,,484.0,,,212.0,293.0,,,10.0,,KIGQ 132115Z AUTO 01004KT 10SM SCT021 BKN029 OVC048 26/21  A2985 RMK AO2 T02630214,,,2900.0,,,70.33,,N,29.2,27.42,,Overcast
KIGQ,08/13/2016 21:35 UTC,29.86,78.26,69.98,74.02,10.36,30.0,,,704.0,,,233.0,333.0,,,10.0,,KIGQ 132135Z AUTO 03009KT 10SM BKN023 BKN033 OVC070 26/21  A2986 RMK AO2 LTG DSNT S T02570211,,,2300.0,,,69.28,,NNE,29.21,27.52,,Overcast
KIGQ,08/13/2016 21:55 UTC,29.86,78.08,70.16,74.02,6.91,30.0,,,433.0,,,252.0,322.0,,,10.0,,KIGQ 132155Z AUTO 03006KT 10SM SCT025 SCT032 BKN043 26/21  A2986 RMK AO2 T02560212,,,4300.0,,,69.11,,NNE,29.21,27.54,,Mostly Cloudy
KIGQ,08/13/2016 22:15 UTC,29.87,78.44,69.98,74.02,5.75,50.0,,,463.0,,,172.0,322.0,,,10.0,,KIGQ 132215Z AUTO 05005KT 10SM SCT017 SCT032 BKN046 26/21  A2987 RMK AO2 T02580211,,,4600.0,,,69.46,,NE,29.22,27.51,,Mostly Cloudy
KIGQ,08/13/2016 22:35 UTC,29.87,77.54,69.98,78.54,6.91,40.0,,,654.0,,,352.0,453.0,,,10.0,,KIGQ 132235Z AUTO 04006KT 10SM SCT035 BKN045 OVC065 25/21  A2987 RMK AO2 T02530211,,,4500.0,,,70.32,,NE,29.22,27.46,,Overcast
KIGQ,08/13/2016 22:55 UTC,29.88,77.54,69.8,78.54,4.61,40.0,,,503.0,,,372.0,452.0,,,10.0,,KIGQ 132255Z AUTO 04004KT 10SM SCT037 SCT045 BKN050 25/21  A2988 RMK AO2 T02530210,,,5000.0,,,70.32,,NE,29.23,27.47,,Mostly Cloudy
KIGQ,08/13/2016 23:15 UTC,29.88,78.44,69.8,74.02,4.61,50.0,,,,,,602.0,,,,10.0,,KIGQ 132315Z AUTO 05004KT 10SM SCT060 26/21 A2988 RMK AO2  T02580210,,,,,,69.46,,NE,29.23,27.52,,Partly Cloudy
KIGQ,08/13/2016 23:35 UTC,29.88,77.9,69.26,74.02,4.61,80.0,,,,,,1.0,,,,10.0,,KIGQ 132335Z AUTO 08004KT 10SM CLR 26/21 A2988 RMK AO2  T02550207,,,,,,68.94,,E,29.23,27.57,,Clear
KIGQ,08/13/2016 23:55 UTC,29.88,77.54,69.62,78.54,4.61,60.0,,,,,,1.0,,,,10.0,,KIGQ 132355Z AUTO 06004KT 10SM CLR 25/21 A2988 RMK AO2 T02530209  10289 20250,84.02,77.0,,,,70.32,,ENE,29.23,27.47,,Clear
KIGQ,08/14/2016 00:15 UTC,29.89,76.82,69.08,78.54,5.75,70.0,,,,,,852.0,,,,10.0,,KIGQ 140015Z AUTO 07005KT 10SM SCT085 25/21 A2989 RMK AO2  T02490206,,,,,,69.62,,ENE,29.24,27.54,,Partly Cloudy
KIGQ,08/14/2016 00:35 UTC,29.89,75.74,69.08,83.37,5.75,110.0,,,,,,1.0,,,,10.0,,KIGQ 140035Z AUTO 11005KT 10SM CLR 24/21 A2989 RMK AO2  T02430206,,,,,,70.32,,ESE,29.24,27.51,,Clear
KIGQ,08/14/2016 00:55 UTC,29.89,75.2,68.9,83.37,3.44,130.0,,,,,,1.0,,,,10.0,,KIGQ 140055Z AUTO 13003KT 10SM CLR 24/21 A2989 RMK AO2  T02400205,,,,,,69.79,,SE,29.24,27.55,,Clear
KIGQ,08/14/2016 01:15 UTC,29.9,74.48,68.9,83.37,4.61,140.0,,,,,,1.0,,,,10.0,,KIGQ 140115Z AUTO 14004KT 10SM CLR 24/21 A2990 RMK AO2  T02360205,,,,,,69.09,,SE,29.25,27.63,,Clear
KIGQ,08/14/2016 01:35 UTC,29.9,74.3,68.9,83.37,3.44,140.0,,,,,,1.0,,,,10.0,,KIGQ 140135Z AUTO 14003KT 10SM CLR 24/21 A2990 RMK AO2  T02350205,,,,,,68.91,,SE,29.25,27.64,,Clear
KIGQ,08/14/2016 01:55 UTC,29.91,73.76,68.9,88.54,4.61,140.0,,,,,,1.0,,,,10.0,,KIGQ 140155Z AUTO 14004KT 10SM CLR 23/21 A2991 RMK AO2  T02320205,,,,,,70.15,,SE,29.26,27.57,,Clear
KIGQ,08/14/2016 02:15 UTC,29.91,73.04,68.9,88.54,0.0,0.0,,,,,,1.0,,,,10.0,,KIGQ 140215Z AUTO 00000KT 10SM CLR 23/21 A2991 RMK AO2  T02280205,,,,,,69.44,,N,29.26,27.63,,Clear
KIGQ,08/14/2016 02:35 UTC,29.92,72.5,68.9,88.54,0.0,0.0,,,,,,422.0,,,,10.0,,KIGQ 140235Z AUTO 00000KT 10SM SCT042 23/21 A2992 RMK AO2  T02250205,,,,,,68.91,,N,29.27,27.69,,Partly Cloudy
KIGQ,08/14/2016 02:55 UTC,29.93,71.6,68.72,88.46,0.0,0.0,,,,,,423.0,,,,10.0,,KIGQ 140255Z AUTO 00000KT 10SM BKN042 22/20 A2993 RMK AO2  T02200204,,,4200.0,,,67.99,,N,29.28,27.77,,Mostly Cloudy
KIGQ,08/14/2016 03:15 UTC,29.93,71.42,68.54,88.46,0.0,0.0,,,,,,402.0,,,,10.0,,KIGQ 140315Z AUTO 00000KT 10SM SCT040 22/20 A2993 RMK AO2  T02190203,,,,,,67.81,,N,29.28,27.79,,Partly Cloudy
KIGQ,08/14/2016 03:35 UTC,29.93,71.78,68.9,94.07,0.0,0.0,,,,,,1.0,,,,10.0,,KIGQ 140335Z AUTO 00000KT 10SM CLR 22/21 A2993 RMK AO2  T02210205,,,,,,69.97,,N,29.28,27.63,,Clear
KIGQ,08/14/2016 03:55 UTC,29.93,72.68,68.9,88.54,0.0,0.0,,,,,,362.0,,,,10.0,,KIGQ 140355Z AUTO 00000KT 10SM SCT036 23/21 A2993 RMK AO2  T02260205,,,,,,69.08,,N,29.28,27.68,,Partly Cloudy
KIGQ,08/14/2016 04:15 UTC,29.94,70.88,68.36,88.46,0.0,0.0,,,,,,362.0,,,,10.0,,KIGQ 140415Z AUTO 00000KT 10SM SCT036 22/20 A2994 RMK AO2  T02160202,,,,,,67.28,,N,29.29,27.84,,Partly Cloudy
KIGQ,08/14/2016 04:35 UTC,29.94,70.88,68.54,88.46,0.0,0.0,,,,,,1.0,,,,10.0,,KIGQ 140435Z AUTO 00000KT 10SM CLR 22/20 A2994 RMK AO2  T02160203,,,,,,67.28,,N,29.29,27.84,,Clear
KIGQ,08/14/2016 04:55 UTC,29.95,69.62,67.28,94.03,3.44,180.0,,,,,,1.0,,,,10.0,,KIGQ 140455Z AUTO 18003KT 10SM CLR 21/20 A2995 RMK AO2  T02090196,,,,,,67.82,,S,29.3,27.83,,Clear
KIGQ,08/14/2016 05:15 UTC,29.96,68.72,66.74,93.98,3.44,170.0,,,,,,1.0,,,,10.0,,KIGQ 140515Z AUTO 17003KT 10SM CLR 20/19 A2996 RMK AO2  T02040193,,,,,,66.91,,S,29.31,27.92,,Clear
KIGQ,08/14/2016 05:35 UTC,29.96,69.98,68.0,94.03,0.0,0.0,,,,,,492.0,,,,10.0,,KIGQ 140535Z AUTO 00000KT 10SM SCT049 21/20 A2996 RMK AO2  T02110200,,,,,,68.17,,N,29.31,27.81,,Partly Cloudy
KIGQ,08/14/2016 05:55 UTC,29.96,70.34,67.46,94.03,4.61,270.0,,,,,,1.0,,,,10.0,,KIGQ 140555Z AUTO 27004KT 10SM CLR 21/20 A2996 RMK AO2 T02130197  10253 20203 402890203,77.54,68.54,,84.02,68.54,68.53,,W,29.31,27.78,,Clear
KIGQ,08/14/2016 06:15 UTC,29.97,70.7,66.92,83.13,5.75,280.0,,,,,,552.0,,,,10.0,,KIGQ 140615Z AUTO 28005KT 10SM SCT055 22/19 A2997 RMK AO2  T02150194,,,,,,65.3,,W,29.32,28.0,,Partly Cloudy
KIGQ,08/14/2016 06:35 UTC,29.96,70.52,66.56,88.37,4.61,280.0,,,,,,552.0,,,,10.0,,KIGQ 140635Z AUTO 28004KT 10SM SCT055 21/19 A2996 RMK AO2  T02140192,,,,,,66.9,,W,29.31,27.89,,Partly Cloudy
KIGQ,08/14/2016 06:55 UTC,29.96,69.8,66.2,88.37,3.44,280.0,,,,,,552.0,,,,10.0,,KIGQ 140655Z AUTO 28003KT 10SM SCT055 21/19 A2996 RMK AO2  T02100190,,,,,,66.19,,W,29.31,27.95,,Partly Cloudy
KIGQ,08/14/2016 07:15 UTC,29.96,69.44,66.2,88.37,0.0,0.0,,,,,,553.0,653.0,,,10.0,,KIGQ 140715Z AUTO 00000KT 10SM BKN055 BKN065 21/19 A2996 RMK AO2  T02080190,,,5500.0,,,65.83,,N,29.31,27.98,,Mostly Cloudy
KIGQ,08/14/2016 07:35 UTC,29.96,68.0,65.3,93.98,0.0,0.0,,,,,,552.0,,,,10.0,,KIGQ 140735Z AUTO 00000KT 10SM SCT055 20/19 A2996 RMK AO2  T02000185,,,,,,66.19,,N,29.31,27.97,,Partly Cloudy
KIGQ,08/14/2016 07:55 UTC,29.96,68.9,65.66,88.37,3.44,300.0,,,,,,1.0,,,,10.0,,KIGQ 140755Z AUTO 30003KT 10SM CLR 21/19 A2996 RMK AO2  T02050187,,,,,,65.3,,WNW,29.31,28.02,,Clear
KIGQ,08/14/2016 08:15 UTC,29.96,68.36,65.48,93.98,4.61,270.0,,,,,,1.0,,,,10.0,,KIGQ 140815Z AUTO 27004KT 10SM CLR 20/19 A2996 RMK AO2  T02020186,,,,,,66.55,,W,29.31,27.95,,Clear
KIGQ,08/14/2016 08:35 UTC,29.96,67.28,64.76,88.29,3.44,260.0,,,,,,1.0,,,,10.0,,KIGQ 140835Z AUTO 26003KT 10SM CLR 20/18 A2996 RMK AO2  T01960182,,,,,,63.68,,W,29.31,28.14,,Clear
KIGQ,08/14/2016 08:55 UTC,29.96,68.0,65.3,93.98,4.61,300.0,,,,,,1.0,,,,10.0,,KIGQ 140855Z AUTO 30004KT 10SM CLR 20/19 A2996 RMK AO2  T02000185,,,,,,66.19,,WNW,29.31,27.97,,Clear
KIGQ,08/14/2016 09:15 UTC,29.96,68.0,65.12,88.29,4.61,300.0,,,,,,1.0,,,,10.0,,KIGQ 140915Z AUTO 30004KT 10SM CLR 20/18 A2996 RMK AO2  T02000184,,,,,,64.39,,WNW,29.31,28.09,,Clear
KIGQ,08/14/2016 09:35 UTC,29.97,68.0,64.76,88.29,0.0,0.0,,,,,,1.0,,,,10.0,,KIGQ 140935Z AUTO 00000KT 10SM CLR 20/18 A2997 RMK AO2  T02000182,,,,,,64.39,,N,29.32,28.1,,Clear
KIGQ,08/14/2016 09:55 UTC,29.98,65.48,62.96,88.2,0.0,0.0,,,,,,1.0,,,,10.0,,KIGQ 140955Z AUTO 00000KT 10SM CLR 19/17 A2998 RMK AO2  T01860172,,,,,,61.87,,N,29.33,28.28,,Clear
KIGQ,08/14/2016 10:15 UTC,29.99,66.38,64.22,93.94,0.0,0.0,,,,,,1.0,,,,10.0,,KIGQ 141015Z AUTO 00000KT 10SM CLR 19/18 A2999 RMK AO2  T01910179,,,,,,64.57,,N,29.34,28.13,,Clear
KIGQ,08/14/2016 10:35 UTC,29.99,64.4,62.6,93.89,3.44,210.0,,,,,,1.0,,,,10.0,,KIGQ 141035Z AUTO 21003KT 10SM CLR 18/17 A2999 RMK AO2  T01800170,,,,,,62.59,,SSW,29.34,28.27,,Clear
KIGQ,08/14/2016 10:55 UTC,30.0,64.04,62.24,93.89,0.0,0.0,,31.0,,,,1.0,,,,5.0,,KIGQ 141055Z AUTO 00000KT 5SM BR CLR 18/17 A3000 RMK AO2  T01780168,,,,,,62.23,,N,29.35,28.3,,Mist
KIGQ,08/14/2016 11:15 UTC,30.0,64.58,63.86,100.0,0.0,0.0,,31.0,,,,75.0,,,,1.0,,KIGQ 141115Z AUTO 00000KT 1SM BR VV007 18/18 A3000 RMK AO2  T01810177,,,700.0,,,64.58,,N,29.35,28.16,,Mist
KIGQ,08/14/2016 11:35 UTC,30.01,66.2,65.12,93.94,0.0,0.0,,,,,,1.0,,,,7.0,,KIGQ 141135Z AUTO 00000KT 7SM CLR 19/18 A3001 RMK AO2  T01900184,,,,,,64.39,,N,29.36,28.16,,Clear
KIGQ,08/14/2016 11:55 UTC,30.01,66.92,64.76,93.94,0.0,0.0,,,,,,1.0,,,,7.0,,KIGQ 141155Z AUTO 00000KT 7SM CLR 19/18 A3001 RMK AO2 T01940182  10216 20176,70.88,63.68,,,,65.11,,N,29.36,28.11,,Clear
KIGQ,08/14/2016 12:15 UTC,30.02,68.9,66.38,88.37,0.0,0.0,,,,,,1.0,,,,7.0,,KIGQ 141215Z AUTO 00000KT 7SM CLR 21/19 A3002 RMK AO2  T02050191,,,,,,65.3,,N,29.37,28.08,,Clear
KIGQ,08/14/2016 12:35 UTC,30.02,71.24,66.02,83.13,3.44,280.0,,,,,,1.0,,,,10.0,,KIGQ 141235Z AUTO 28003KT 10SM CLR 22/19 A3002 RMK AO2  T02180189,,,,,,65.83,,W,29.37,28.01,,Clear
KIGQ,08/14/2016 12:55 UTC,30.03,72.5,66.2,78.24,3.44,280.0,,,,,,1.0,,,,10.0,,KIGQ 141255Z AUTO 28003KT 10SM CLR 23/19 A3003 RMK AO2  T02250190,,,,,,65.31,,W,29.38,28.04,,Clear
KIGQ,08/14/2016 13:15 UTC,30.02,73.4,66.74,78.24,3.44,290.0,,,,,,1.0,,,,10.0,,KIGQ 141315Z AUTO 29003KT 10SM CLR 23/19 A3002 RMK AO2  T02300193,,,,,,66.18,,WNW,29.37,27.96,,Clear
KIGQ,08/14/2016 13:35 UTC,30.02,75.38,66.56,73.67,0.0,0.0,,,,,,1.0,,,,10.0,,KIGQ 141335Z AUTO 00000KT 10SM CLR 24/19 A3002 RMK AO2  T02410192,,,,,,66.36,,N,29.37,27.93,,Clear
KIGQ,08/14/2016 13:55 UTC,30.03,76.46,66.02,69.4,0.0,0.0,,,,,,1.0,,,,10.0,,KIGQ 141355Z AUTO 00000KT 10SM CLR 25/19 A3003 RMK AO2  T02470189,,,,,,65.68,,N,29.38,27.97,,Clear
KIGQ,08/14/2016 14:15 UTC,30.04,76.64,65.84,69.4,0.0,0.0,,,,,,1.0,,,,10.0,,KIGQ 141415Z AUTO 00000KT 10SM CLR 25/19 A3004 RMK AO2  T02480188,,,,,,65.85,,N,29.39,27.96,,Clear
KIGQ,08/14/2016 14:35 UTC,30.04,78.08,66.56,65.41,0.0,0.0,,,,,,1.0,,,,10.0,,KIGQ 141435Z AUTO 00000KT 10SM CLR 26/19 A3004 RMK AO2  T02560192,,,,,,65.52,,N,29.39,27.97,,Clear
KIGQ,08/14/2016 14:55 UTC,30.04,78.62,64.04,61.44,0.0,0.0,,,,,,1.0,,,,10.0,,KIGQ 141455Z AUTO 00000KT 10SM CLR 26/18 A3004 RMK AO2  T02590178,,,,,,64.23,,N,29.39,28.05,,Clear
KIGQ,08/14/2016 15:15 UTC,30.04,78.44,64.4,61.44,0.0,0.0,,,,,,1.0,,,,10.0,,KIGQ 141515Z AUTO 00000KT 10SM CLR 26/18 A3004 RMK AO2  T02580180,,,,,,64.06,,N,29.39,28.06,,Clear
KIGQ,08/14/2016 15:35 UTC,30.05,78.62,63.86,61.44,5.75,300.0,,,,,,1.0,,,,10.0,,KIGQ 141535Z AUTO 30005KT 10SM CLR 26/18 A3005 RMK AO2  T02590177,,,,,,64.23,,WNW,29.4,28.06,,Clear
KIGQ,08/14/2016 15:55 UTC,30.05,79.34,64.76,61.44,4.61,280.0,,,,,,1.0,,,,10.0,,KIGQ 141555Z AUTO 28004KT 10SM CLR 26/18 A3005 RMK AO2  T02630182,,,,,,64.91,,W,29.4,28.01,,Clear
KIGQ,08/14/2016 16:15 UTC,30.06,78.98,64.4,61.44,3.44,310.0,,,,,,1.0,,,,10.0,,KIGQ 141615Z AUTO 31003KT 10SM CLR 26/18 A3006 RMK AO2  T02610180,,,,,,64.57,,NW,29.41,28.04,,Clear
KIGQ,08/14/2016 16:35 UTC,30.06,79.7,64.04,57.94,3.44,250.0,,,,,,352.0,,,,10.0,,KIGQ 141635Z AUTO 25003KT 10SM SCT035 27/18 A3006 RMK AO2  T02650178,,,,,,63.57,,WSW,29.41,28.1,,Partly Cloudy
KIGQ,08/14/2016 16:55 UTC,30.06,80.06,63.86,57.94,4.61,230.0,,,,,,372.0,462.0,,,10.0,,KIGQ 141655Z AUTO 23004KT 10SM SCT037 SCT046 27/18 A3006 RMK AO2  T02670177,,,,,,63.91,,SW,29.41,28.07,81.66,Partly Cloudy
KIGQ,08/14/2016 17:15 UTC,30.06,79.52,63.5,61.44,4.61,240.0,,,,,,422.0,492.0,,,10.0,,KIGQ 141715Z AUTO 24004KT 10SM SCT042 SCT049 26/18 A3006 RMK AO2  T02640175,,,,,,65.08,,WSW,29.41,28.0,,Partly Cloudy
KIGQ,08/14/2016 17:35 UTC,30.05,78.8,67.64,69.6,9.22,220.0,,,,,,403.0,493.0,,,10.0,,KIGQ 141735Z AUTO 22008KT 10SM BKN040 BKN049 26/20 A3005 RMK AO2  T02600198,,,4000.0,,,68.01,,SW,29.4,27.8,,Mostly Cloudy
KIGQ,08/14/2016 17:55 UTC,30.06,80.96,66.92,61.67,9.22,240.0,,,492.0,,,382.0,442.0,,,10.0,,KIGQ 141755Z AUTO 24008KT 10SM SCT038 SCT044 SCT049 27/19  A3006 RMK AO2 T02720194 10272 20195,80.96,67.1,,,,66.56,,WSW,29.41,27.89,83.25,Partly Cloudy
KIGQ,08/14/2016 18:15 UTC,30.05,80.06,63.68,57.94,6.91,230.0,,,,,,1.0,,,,10.0,,KIGQ 141815Z AUTO 23006KT 10SM CLR 27/18 A3005 RMK AO2  T02670176,,,,,,63.91,,SW,29.4,28.06,81.66,Clear
KIGQ,08/14/2016 18:35 UTC,30.05,80.06,62.96,54.4,9.22,240.0,,,,,,1.0,,,,10.0,,KIGQ 141835Z AUTO 24008KT 10SM CLR 27/17 A3005 RMK AO2  T02670172,,,,,,62.12,,WSW,29.4,28.18,81.29,Clear
KIGQ,08/14/2016 18:55 UTC,30.04,80.96,63.86,57.94,6.91,240.0,,,,,,1.0,,,,10.0,,KIGQ 141855Z AUTO 24006KT 10SM CLR 27/18 A3004 RMK AO2  T02720177,,,,,,64.76,,WSW,29.39,27.99,82.72,Clear
KIGQ,08/14/2016 19:15 UTC,30.04,80.24,62.6,54.4,6.91,260.0,,,,,,1.0,,,,10.0,,KIGQ 141915Z AUTO 26006KT 10SM CLR 27/17 A3004 RMK AO2  T02680170,,,,,,62.29,,W,29.39,28.15,81.47,Clear
KIGQ,08/14/2016 19:35 UTC,30.04,80.78,62.78,54.4,6.91,240.0,,,,,,1.0,,,,10.0,,KIGQ 141935Z AUTO 24006KT 10SM CLR 27/17 A3004 RMK AO2  T02710171,,,,,,62.79,,WSW,29.39,28.12,82.05,Clear
KIGQ,08/14/2016 19:55 UTC,30.04,80.6,62.96,54.4,6.91,240.0,,,,,,1.0,,,,10.0,,KIGQ 141955Z AUTO 24006KT 10SM CLR 27/17 A3004 RMK AO2  T02700172,,,,,,62.62,,WSW,29.39,28.13,81.85,Clear
KIGQ,08/14/2016 20:15 UTC,30.04,81.5,62.78,51.31,8.05,230.0,,,,,,1.0,,,,10.0,,KIGQ 142015Z AUTO 23007KT 10SM CLR 28/17 A3004 RMK AO2  T02750171,,,,,,61.8,,SW,29.39,28.17,82.42,Clear
KIGQ,08/14/2016 20:35 UTC,30.04,80.6,64.22,57.94,8.05,200.0,,,,,,502.0,,,,10.0,,KIGQ 142035Z AUTO 20007KT 10SM SCT050 27/18 A3004 RMK AO2  T02700179,,,,,,64.42,,SSW,29.39,28.01,82.28,Partly Cloudy
KIGQ,08/14/2016 20:55 UTC,30.03,80.06,65.48,61.67,8.05,200.0,,,,,,1.0,,,,10.0,,KIGQ 142055Z AUTO 20007KT 10SM CLR 27/19 A3003 RMK AO2  T02670186,,,,,,65.7,,SSW,29.38,27.92,82.07,Clear
KIGQ,08/14/2016 21:15 UTC,30.03,79.7,65.66,61.67,9.22,190.0,,,,,,1.0,,,,10.0,,KIGQ 142115Z AUTO 19008KT 10SM CLR 27/19 A3003 RMK AO2  T02650187,,,,,,65.36,,S,29.38,27.95,,Clear
KIGQ,08/14/2016 21:35 UTC,30.04,80.6,66.92,63.23,9.22,200.0,,,,,,1.0,,,,10.0,,KIGQ 142135Z AUTO 20008KT 10SM CLR 27/19 A3004 RMK AO2  T02700194,,,,,,66.94,,SSW,29.39,27.84,82.97,Clear
KIGQ,08/14/2016 21:55 UTC,30.04,80.06,66.02,61.67,9.22,210.0,,,,,,1.0,,,,10.0,,KIGQ 142155Z AUTO 21008KT 10SM CLR 27/19 A3004 RMK AO2  T02670189,,,,,,65.7,,SSW,29.39,27.93,82.07,Clear
KIGQ,08/14/2016 22:15 UTC,30.04,79.88,66.02,61.67,8.05,200.0,,,,,,1.0,,,,10.0,,KIGQ 142215Z AUTO 20007KT 10SM CLR 27/19 A3004 RMK AO2  T02660189,,,,,,65.53,,SSW,29.39,27.95,,Clear
KIGQ,08/14/2016 22:35 UTC,30.04,80.42,67.28,65.62,9.22,210.0,,,,,,1.0,,,,10.0,,KIGQ 142235Z AUTO 21008KT 10SM CLR 27/20 A3004 RMK AO2  T02690196,,,,,,67.84,,SSW,29.39,27.78,83.04,Clear
KIGQ,08/14/2016 22:55 UTC,30.04,78.8,65.84,65.41,5.75,210.0,,,,,,1.0,,,,10.0,,KIGQ 142255Z AUTO 21005KT 10SM CLR 26/19 A3004 RMK AO2  T02600188,,,,,,66.2,,SSW,29.39,27.92,,Clear
KIGQ,08/14/2016 23:15 UTC,30.04,79.52,66.74,65.41,6.91,210.0,,,,,,1.0,,,,10.0,,KIGQ 142315Z AUTO 21006KT 10SM CLR 26/19 A3004 RMK AO2  T02640193,,,,,,66.89,,SSW,29.39,27.86,,Clear
KIGQ,08/14/2016 23:35 UTC,30.04,78.26,67.28,69.6,6.91,190.0,,,,,,1.0,,,,10.0,,KIGQ 142335Z AUTO 19006KT 10SM CLR 26/20 A3004 RMK AO2  T02570196,,,,,,67.49,,S,29.39,27.83,,Clear
KIGQ,08/14/2016 23:55 UTC,30.05,78.26,67.28,69.6,6.91,190.0,,,,,,1.0,,,,10.0,,KIGQ 142355Z AUTO 19006KT 10SM CLR 26/20 A3005 RMK AO2 T02570196  10276 20257,81.68,78.26,,,,67.49,,S,29.4,27.84,,Clear
KIGQ,08/15/2016 00:15 UTC,30.05,76.28,67.28,73.85,6.91,190.0,,,,,,1.0,,,,10.0,,KIGQ 150015Z AUTO 19006KT 10SM CLR 25/20 A3005 RMK AO2  T02460196,,,,,,67.3,,S,29.4,27.88,,Clear
KIGQ,08/15/2016 00:35 UTC,30.05,75.2,67.46,78.39,5.75,190.0,,,,,,1.0,,,,10.0,,KIGQ 150035Z AUTO 19005KT 10SM CLR 24/20 A3005 RMK AO2  T02400197,,,,,,67.99,,S,29.4,27.85,,Clear
KIGQ,08/15/2016 00:55 UTC,30.05,73.4,67.1,83.25,4.61,190.0,,,,,,1.0,,,,10.0,,KIGQ 150055Z AUTO 19004KT 10SM CLR 23/20 A3005 RMK AO2  T02300195,,,,,,67.99,,S,29.4,27.87,,Clear
KIGQ,08/15/2016 01:15 UTC,30.06,72.86,67.1,83.25,3.44,210.0,,,,,,1.0,,,,10.0,,KIGQ 150115Z AUTO 21003KT 10SM CLR 23/20 A3006 RMK AO2  T02270195,,,,,,67.46,,SSW,29.41,27.92,,Clear
KIGQ,08/15/2016 01:35 UTC,30.07,71.78,66.38,83.13,5.75,190.0,,,,,,1.0,,,,10.0,,KIGQ 150135Z AUTO 19005KT 10SM CLR 22/19 A3007 RMK AO2  T02210191,,,,,,66.36,,S,29.42,28.02,,Clear
KIGQ,08/15/2016 01:55 UTC,30.08,70.16,66.2,88.37,0.0,0.0,,,,,,1.0,,,,10.0,,KIGQ 150155Z AUTO 00000KT 10SM CLR 21/19 A3008 RMK AO2  T02120190,,,,,,66.54,,N,29.43,28.04,,Clear
KIGQ,08/15/2016 02:15 UTC,30.08,70.7,66.2,83.13,4.61,190.0,,,,,,1.0,,,,10.0,,KIGQ 150215Z AUTO 19004KT 10SM CLR 22/19 A3008 RMK AO2  T02150190,,,,,,65.3,,S,29.43,28.12,,Clear
KIGQ,08/15/2016 02:35 UTC,30.08,69.98,65.84,88.37,3.44,180.0,,,,,,1.0,,,,10.0,,KIGQ 150235Z AUTO 18003KT 10SM CLR 21/19 A3008 RMK AO2  T02110188,,,,,,66.36,,S,29.43,28.06,,Clear
KIGQ,08/15/2016 02:55 UTC,30.08,71.24,67.1,88.46,0.0,0.0,,,,,,1.0,,,,10.0,,KIGQ 150255Z AUTO 00000KT 10SM CLR 22/20 A3008 RMK AO2  T02180195,,,,,,67.64,,N,29.43,27.95,,Clear
KIGQ,08/15/2016 03:15 UTC,30.09,70.52,66.74,88.37,3.44,190.0,,,,,,1.0,,,,10.0,,KIGQ 150315Z AUTO 19003KT 10SM CLR 21/19 A3009 RMK AO2  T02140193,,,,,,66.9,,S,29.44,28.02,,Clear
KIGQ,08/15/2016 03:35 UTC,30.09,70.16,66.56,88.37,4.61,200.0,,,,,,1.0,,,,10.0,,KIGQ 150335Z AUTO 20004KT 10SM CLR 21/19 A3009 RMK AO2  T02120192,,,,,,66.54,,SSW,29.44,28.05,,Clear
KIGQ,08/15/2016 03:55 UTC,30.1,68.9,65.66,88.37,3.44,190.0,,,,,,1.0,,,,10.0,,KIGQ 150355Z AUTO 19003KT 10SM CLR 21/19 A3010 RMK AO2  T02050187,,,,,,65.3,,S,29.45,28.16,,Clear
KIGQ,08/15/2016 04:15 UTC,30.11,69.26,66.2,88.37,3.44,190.0,,,,,,1.0,,,,10.0,,KIGQ 150415Z AUTO 19003KT 10SM CLR 21/19 A3011 RMK AO2  T02070190,,,,,,65.65,,S,29.46,28.14,,Clear
KIGQ,08/15/2016 04:35 UTC,30.11,69.8,66.38,88.37,0.0,0.0,,,,,,502.0,,,,10.0,,KIGQ 150435Z AUTO 00000KT 10SM SCT050 21/19 A3011 RMK AO2  T02100191,,,,,,66.19,,N,29.46,28.1,,Partly Cloudy
KIGQ,08/15/2016 04:55 UTC,30.11,69.62,65.84,88.37,0.0,0.0,,,,,,1.0,,,,10.0,,KIGQ 150455Z AUTO 00000KT 10SM CLR 21/19 A3011 RMK AO2  T02090188,,,,,,66.01,,N,29.46,28.12,,Clear
KIGQ,08/15/2016 05:15 UTC,30.11,69.08,65.48,88.37,0.0,0.0,,,,,,1.0,,,,10.0,,KIGQ 150515Z AUTO 00000KT 10SM CLR 21/19 A3011 RMK AO2  T02060186,,,,,,65.48,,N,29.46,28.16,,Clear
KIGQ,08/15/2016 05:35 UTC,30.11,69.08,66.02,88.37,0.0,0.0,,,,,,1.0,,,,10.0,,KIGQ 150535Z AUTO 00000KT 10SM CLR 21/19 A3011 RMK AO2  T02060189,,,,,,65.48,,N,29.46,28.16,,Clear
KIGQ,08/15/2016 05:55 UTC,30.11,67.82,65.12,88.29,3.44,190.0,,,,,,1.0,,,,10.0,,KIGQ 150555Z AUTO 19003KT 10SM CLR 20/18 A3011 RMK AO2 T01990184  10255 20199 402760176,77.9,67.82,,81.68,63.68,64.21,,S,29.46,28.25,,Clear
KIGQ,08/15/2016 06:15 UTC,30.11,68.0,65.84,93.98,0.0,0.0,,,,,,1.0,,,,10.0,,KIGQ 150615Z AUTO 00000KT 10SM CLR 20/19 A3011 RMK AO2  T02000188,,,,,,66.19,,N,29.46,28.13,,Clear
KIGQ,08/15/2016 06:35 UTC,30.11,68.0,65.84,93.98,3.44,180.0,,,,,,1.0,,,,10.0,,KIGQ 150635Z AUTO 18003KT 10SM CLR 20/19 A3011 RMK AO2  T02000188,,,,,,66.19,,S,29.46,28.13,,Clear
KIGQ,08/15/2016 06:55 UTC,30.1,68.0,66.2,93.98,0.0,0.0,,,,,,1.0,,,,10.0,,KIGQ 150655Z AUTO 00000KT 10SM CLR 20/19 A3010 RMK AO2  T02000190,,,,,,66.19,,N,29.45,28.12,,Clear
KIGQ,08/15/2016 07:15 UTC,30.1,68.0,66.2,93.98,0.0,0.0,,31.0,,,,1.0,,,,5.0,,KIGQ 150715Z AUTO 00000KT 5SM BR CLR 20/19 A3010 RMK AO2  T02000190,,,,,,66.19,,N,29.45,28.12,,Mist
KIGQ,08/15/2016 07:35 UTC,30.09,68.36,67.64,100.0,0.0,0.0,,31.0,,,,1.0,,,,4.0,,KIGQ 150735Z AUTO 00000KT 4SM BR CLR 20/20 A3009 RMK AO2  T02020198,,,,,,68.36,,N,29.44,27.96,,Mist
KIGQ,08/15/2016 07:55 UTC,30.1,67.64,66.92,93.98,0.0,0.0,,31.0,,,,75.0,,,,1.0,,KIGQ 150755Z AUTO 00000KT 1SM BR VV007 20/19 A3010 RMK AO2  T01980194,,,700.0,,,65.83,,N,29.45,28.14,,Mist
KIGQ,08/15/2016 08:15 UTC,30.09,66.38,65.84,100.0,0.0,0.0,,31.0,,,,1.0,,,,3.0,,KIGQ 150815Z AUTO 00000KT 3SM BR CLR 19/19 A3009 RMK AO2  T01910188,,,,,,66.38,,N,29.44,28.12,,Mist
KIGQ,08/15/2016 08:35 UTC,30.1,66.56,66.2,100.0,4.61,170.0,,31.0,,,,1.0,,,,5.0,,KIGQ 150835Z AUTO 17004KT 5SM BR CLR 19/19 A3010 RMK AO2  T01920190,,,,,,66.56,,S,29.45,28.11,,Mist
KIGQ,08/15/2016 08:55 UTC,30.09,66.56,66.02,100.0,0.0,0.0,,31.0,,,,32.0,,,,2.5,,KIGQ 150855Z AUTO 00000KT 2 1/2SM BR SCT003 19/19 A3009 RMK AO2  T01920189,,,,,,66.56,,N,29.44,28.1,,Mist
KIGQ,08/15/2016 09:15 UTC,30.09,68.0,67.46,100.0,0.0,0.0,,31.0,,,,32.0,,,,5.0,,KIGQ 150915Z AUTO 00000KT 5SM BR SCT003 20/20 A3009 RMK AO2  T02000197,,,,,,68.0,,N,29.44,27.99,,Mist
KIGQ,08/15/2016 09:35 UTC,30.08,65.48,64.94,93.94,0.0,0.0,,9.0,,,,34.0,,,,0.25,,KIGQ 150935Z AUTO 00000KT 1/4SM FG OVC003 19/18 A3008 RMK AO2  T01860183,,,300.0,,,63.68,,N,29.43,28.28,,Fog
KIGQ,08/15/2016 09:55 UTC,30.09,65.3,64.76,93.94,0.0,0.0,,9.0,,,,34.0,,,,0.5,,KIGQ 150955Z AUTO 00000KT 1/2SM FG OVC003 19/18 A3009 RMK AO2  T01850182,,,300.0,,,63.5,,N,29.44,28.31,,Fog
KIGQ,08/15/2016 10:15 UTC,30.1,66.38,66.2,100.0,0.0,0.0,,9.0,,,,34.0,,,,0.25,,KIGQ 151015Z AUTO 00000KT 1/4SM FG OVC003 19/19 A3010 RMK AO2  T01910190,,,300.0,,,66.38,,N,29.45,28.13,,Fog
KIGQ,08/15/2016 10:35 UTC,30.11,65.66,65.3,100.0,0.0,0.0,,9.0,,,,34.0,,,,0.25,,KIGQ 151035Z AUTO 00000KT 1/4SM FG OVC003 19/19 A3011 RMK AO2  T01870185,,,300.0,,,65.66,,N,29.46,28.19,,Fog
KIGQ,08/15/2016 10:55 UTC,30.11,65.66,65.3,100.0,0.0,0.0,,9.0,,,,34.0,,,,0.25,,KIGQ 151055Z AUTO 00000KT 1/4SM FG OVC003 19/19 A3011 RMK AO2  T01870185,,,300.0,,,65.66,,N,29.46,28.19,,Fog
KIGQ,08/15/2016 11:15 UTC,30.1,66.2,66.02,100.0,0.0,0.0,,9.0,,,,34.0,,,,0.25,,KIGQ 151115Z AUTO 00000KT 1/4SM FG OVC003 19/19 A3010 RMK AO2  T01900189,,,300.0,,,66.2,,N,29.45,28.14,,Fog
KIGQ,08/15/2016 11:35 UTC,30.11,66.38,66.02,100.0,0.0,0.0,,31.0,,,,34.0,,,,3.0,,KIGQ 151135Z AUTO 00000KT 3SM BR OVC003 19/19 A3011 RMK AO2  T01910189,,,300.0,,,66.38,,N,29.46,28.14,,Mist
KIGQ,08/15/2016 11:55 UTC,30.11,66.92,66.56,100.0,0.0,0.0,,31.0,,,,34.0,,,,0.75,,KIGQ 151155Z AUTO 00000KT 3/4SM BR OVC003 19/19 A3011 RMK AO2  T01940192 10202 20184,68.36,65.12,300.0,,,66.92,,N,29.46,28.1,,Mist
KIGQ,08/15/2016 12:15 UTC,30.11,67.1,66.74,93.98,4.61,120.0,,31.0,,,,33.0,,,,3.0,,KIGQ 151215Z AUTO 12004KT 3SM BR BKN003 20/19 A3011 RMK AO2  T01950193,,,300.0,,,65.3,,ESE,29.46,28.2,,Mist
KIGQ,08/15/2016 12:35 UTC,30.11,67.64,67.28,100.0,3.44,130.0,,31.0,,,,33.0,,,,3.0,,KIGQ 151235Z AUTO 13003KT 3SM BR BKN003 20/20 A3011 RMK AO2  T01980196,,,300.0,,,67.64,,SE,29.46,28.04,,Mist
KIGQ,08/15/2016 12:55 UTC,30.11,68.18,68.0,100.0,0.0,0.0,,31.0,,,,34.0,,,,4.0,,KIGQ 151255Z AUTO 00000KT 4SM BR OVC003 20/20 A3011 RMK AO2  T02010200,,,300.0,,,68.18,,N,29.46,27.99,,Mist
KIGQ,08/15/2016 13:15 UTC,30.11,68.54,68.18,100.0,4.61,120.0,,31.0,,,,32.0,,,,4.0,,KIGQ 151315Z AUTO 12004KT 4SM BR SCT003 20/20 A3011 RMK AO2  T02030201,,,,,,68.54,,ESE,29.46,27.96,,Mist
KIGQ,08/15/2016 13:35 UTC,30.11,69.08,68.9,100.0,5.75,120.0,,31.0,,,,32.0,,,,5.0,,KIGQ 151335Z AUTO 12005KT 5SM BR SCT003 21/21 A3011 RMK AO2  T02060205,,,,,,69.08,,ESE,29.46,27.92,,Mist
KIGQ,08/15/2016 13:55 UTC,30.11,69.8,69.44,100.0,5.75,130.0,,31.0,,,,33.0,,,,5.0,,KIGQ 151355Z AUTO 13005KT 5SM BR BKN003 21/21 A3011 RMK AO2  T02100208,,,300.0,,,69.8,,SE,29.46,27.86,,Mist
KIGQ,08/15/2016 14:15 UTC,30.11,69.98,69.8,100.0,5.75,120.0,,31.0,,,,34.0,,,,5.0,,KIGQ 151415Z AUTO 12005KT 5SM BR OVC003 21/21 A3011 RMK AO2  T02110210,,,300.0,,,69.98,,ESE,29.46,27.84,,Mist
KIGQ,08/15/2016 14:35 UTC,30.11,71.24,70.7,100.0,8.05,120.0,,,1104.0,,,53.0,103.0,,,7.0,,KIGQ 151435Z AUTO 12007KT 7SM BKN005 BKN010 OVC110 22/22 A3011 RMK AO2 T02180215,,,500.0,,,71.24,,ESE,29.46,27.73,,Overcast
KIGQ,08/15/2016 14:55 UTC,30.11,71.96,68.36,88.46,6.91,80.0,,,1104.0,,,52.0,112.0,,,10.0,,KIGQ 151455Z AUTO 08006KT 10SM SCT005 SCT011 OVC110 22/20  A3011 RMK AO2 T02220202,,,11000.0,,,68.35,,E,29.46,27.93,,Overcast
KIGQ,08/15/2016 15:15 UTC,30.11,72.14,67.46,88.46,9.22,130.0,,13.0,1004.0,,,122.0,273.0,,,10.0,,KIGQ 151515Z AUTO 13008KT 10SM -RA SCT012 BKN027 OVC100 22/20  A3011 RMK AO2 T02230197,,,2700.0,,,68.52,,SE,29.46,27.91,,Light Rain
KIGQ,08/15/2016 15:35 UTC,30.11,71.6,66.74,83.13,6.91,40.0,,,604.0,,,142.0,272.0,,,10.0,,KIGQ 151535Z AUTO 04006KT 10SM SCT014 SCT027 OVC060 22/19  A3011 RMK AO2 T02200193,,,6000.0,,,66.18,,NE,29.46,28.08,,Overcast
KIGQ,08/15/2016 15:55 UTC,30.11,72.5,66.74,78.24,6.91,120.0,,,604.0,,,142.0,483.0,,,10.0,,KIGQ 151555Z AUTO 12006KT 10SM SCT014 BKN048 OVC060 23/19  A3011 RMK AO2 T02250193,,,4800.0,,,65.31,,ESE,29.46,28.12,,Overcast
KIGQ,08/15/2016 16:15 UTC,30.11,71.96,66.2,83.13,9.22,120.0,,,454.0,,,142.0,373.0,,,10.0,,KIGQ 151615Z AUTO 12008KT 10SM SCT014 BKN037 OVC045 22/19  A3011 RMK AO2 T02220190,,,3700.0,,,66.54,,ESE,29.46,28.05,,Overcast
KIGQ,08/15/2016 16:35 UTC,30.1,69.8,67.1,94.03,6.91,90.0,,1.0,424.0,0.09,,142.0,343.0,,,3.0,,KIGQ 151635Z AUTO 09006KT 3SM RA SCT014 BKN034 OVC042 21/20  A3010 RMK AO2 P0009 T02100195,,,3400.0,,,67.99,,E,29.45,27.97,,Rain
KIGQ,08/15/2016 16:55 UTC,30.1,70.88,67.82,88.46,8.05,110.0,,2.0,504.0,0.09,,82.0,423.0,,,5.0,,KIGQ 151655Z AUTO 11007KT 5SM DZ SCT008 BKN042 OVC050 22/20  A3010 RMK AO2 P0009 T02160199,,,4200.0,,,67.28,,ESE,29.45,28.0,,Drizzle
KIGQ,08/15/2016 17:15 UTC,30.09,71.96,68.72,88.46,8.05,120.0,,,,,,103.0,354.0,,,10.0,,KIGQ 151715Z AUTO 12007KT 10SM BKN010 OVC035 22/20 A3009 RMK AO2  T02220204,,,1000.0,,,68.35,,ESE,29.44,27.91,,Overcast
KIGQ,08/15/2016 17:55 UTC,30.08,72.32,68.9,94.07,6.91,120.0,,,,,,84.0,,0.09,,10.0,,KIGQ 151755Z AUTO 12006KT 10SM OVC008 22/21 A3008 RMK AO2 60009  T02240205 10225 20193,72.5,66.74,800.0,,,70.51,,ESE,29.43,27.74,,Overcast
KIGQ,08/15/2016 18:15 UTC,30.08,72.32,68.72,88.46,11.5,130.0,,,,,,84.0,,,,10.0,,KIGQ 151815Z AUTO 13010KT 10SM OVC008 22/20 A3008 RMK AO2  T02240204,,,800.0,,,68.7,,SE,29.43,27.87,,Overcast
KIGQ,08/15/2016 18:35 UTC,30.07,72.68,68.9,88.54,8.05,100.0,,13.0,,,,84.0,,,,10.0,,KIGQ 151835Z AUTO 10007KT 10SM -RA OVC008 23/21 A3007 RMK AO2  T02260205,,,800.0,,,69.08,,E,29.42,27.82,,Light Rain
KIGQ,08/15/2016 18:55 UTC,30.06,74.12,69.44,88.54,9.22,100.0,,,,,,104.0,,,,10.0,,KIGQ 151855Z AUTO 10008KT 10SM OVC010 23/21 A3006 RMK AO2  T02340208,,,1000.0,,,70.5,,E,29.41,27.69,,Overcast
KIGQ,08/15/2016 19:15 UTC,30.05,73.4,69.8,88.54,8.05,110.0,,,,,,124.0,,,,10.0,,KIGQ 151915Z AUTO 11007KT 10SM OVC012 23/21 A3005,,,1200.0,,,69.79,,ESE,29.4,27.74,,Overcast
KIGQ,08/15/2016 19:35 UTC,30.04,73.4,69.44,88.54,11.5,100.0,,13.0,,,,124.0,,,,10.0,,KIGQ 151935Z AUTO 10010KT 10SM -RA OVC012 23/21 A3004 RMK AO2  T02300208,,,1200.0,,,69.79,,E,29.39,27.73,,Light Rain
KIGQ,08/15/2016 19:55 UTC,30.03,73.4,69.8,88.54,11.5,100.0,18.41,13.0,,,,124.0,,,,10.0,,KIGQ 151955Z AUTO 10010G16KT 10SM -RA OVC012 23/21 A3003,,,1200.0,,,69.79,,E,29.38,27.72,,Light Rain
KIGQ,08/15/2016 20:15 UTC,30.02,72.68,69.62,88.54,13.8,100.0,18.41,13.0,,0.01,,124.0,,,,10.0,,KIGQ 152015Z AUTO 10012G16KT 10SM -RA OVC012 23/21 A3002 RMK AO2  P0001 T02260209,,,1200.0,,,69.08,,E,29.37,27.77,,Light Rain
KIGQ,08/15/2016 20:35 UTC,30.01,72.86,69.8,88.54,12.66,110.0,17.27,13.0,604.0,0.01,,123.0,293.0,,,10.0,,KIGQ 152035Z AUTO 11011G15KT 10SM -RA BKN012 BKN029 OVC060 23/21  A3001 RMK AO2 P0001 T02270210,,,1200.0,,,69.26,,ESE,29.36,27.75,,Light Rain
KIGQ,08/15/2016 20:55 UTC,30.01,72.68,69.8,88.54,10.36,130.0,,14.0,704.0,0.03,0.03,103.0,313.0,,,10.0,,KIGQ 152055Z AUTO 13009KT 10SM +RA BKN010 BKN031 OVC070 23/21  A3001 RMK AO2 P0003 60003 T02260210,,,1000.0,,,69.08,,SE,29.36,27.76,,Heavy Rain
KIGQ,08/15/2016 21:15 UTC,30.0,70.52,67.46,94.03,11.5,100.0,20.71,14.0,454.0,0.12,,103.0,223.0,,,2.5,,KIGQ 152115Z AUTO 10010G18KT 2 1/2SM +RA BKN010 BKN022 OVC045  21/20 A3000 RMK AO2 P0012 T02140197,,,1000.0,,,68.71,,E,29.35,27.81,,Heavy Rain
KIGQ,08/15/2016 21:35 UTC,29.99,70.16,67.46,91.17,5.75,90.0,17.27,14.0,374.0,0.32,,102.0,303.0,,,3.0,,KIGQ 152135Z AUTO 09005G15KT 3SM +RA SCT010 BKN030 OVC037 21/20  A2999 RMK AO2 P0032 T02120197,,,3000.0,,,67.45,,E,29.34,27.89,,Heavy Rain
KIGQ,08/15/2016 21:55 UTC,29.99,70.7,68.18,88.46,9.22,90.0,,14.0,344.0,0.4,,83.0,273.0,,,4.0,,KIGQ 152155Z AUTO 09008KT 4SM +RA BKN008 BKN027 OVC034 22/20  A2999 RMK AO2 P0040 T02150201,,,800.0,,,67.1,,E,29.34,27.91,,Heavy Rain
KIGQ,08/15/2016 22:15 UTC,29.98,70.7,68.36,88.46,5.75,70.0,,1.0,254.0,0.03,,62.0,173.0,,,5.0,,KIGQ 152215Z AUTO 07005KT 5SM RA SCT006 BKN017 OVC025 22/20  A2998 RMK AO2 P0003 T02150202,,,1700.0,,,67.1,,ENE,29.33,27.9,,Rain
KIGQ,08/15/2016 22:35 UTC,29.98,70.7,68.36,88.46,8.05,80.0,,14.0,174.0,0.09,,73.0,123.0,,,5.0,,KIGQ 152235Z AUTO 08007KT 5SM +RA BKN007 BKN012 OVC017 22/20  A2998 RMK AO2 P0009 T02150202,,,700.0,,,67.1,,E,29.33,27.9,,Heavy Rain
KIGQ,08/15/2016 22:55 UTC,29.97,70.7,68.18,88.46,8.05,80.0,,1.0,,0.13,,93.0,144.0,,,7.0,,KIGQ 152255Z AUTO 08007KT 7SM RA BKN009 OVC014 22/20 A2997 RMK AO2  P0013 T02150201,,,900.0,,,67.1,,E,29.32,27.89,,Rain
KIGQ,08/15/2016 23:15 UTC,29.97,70.34,68.0,94.03,9.22,70.0,,1.0,224.0,0.06,,73.0,143.0,,,4.0,,KIGQ 152315Z AUTO 07008KT 4SM RA BKN007 BKN014 OVC022 21/20  A2997 RMK AO2 P0006 T02130200,,,700.0,,,68.53,,ENE,29.32,27.79,,Rain
KIGQ,08/15/2016 23:35 UTC,29.96,70.16,68.0,94.03,9.22,70.0,,1.0,274.0,0.14,,52.0,93.0,,,3.0,,KIGQ 152335Z AUTO 07008KT 3SM RA SCT005 BKN009 OVC027 21/20  A2996 RMK AO2 P0014 T02120200,,,900.0,,,68.35,,ENE,29.31,27.8,,Rain
KIGQ,08/15/2016 23:55 UTC,29.96,69.8,67.64,94.03,8.05,50.0,,14.0,,0.31,,74.0,,0.89,,2.5,,KIGQ 152355Z AUTO 05007KT 2 1/2SM +RA OVC007 21/20 A2996 RMK AO2  P0031 60089 T02100198 10235 20210,74.3,69.8,700.0,,,67.99,,NE,29.31,27.83,,Heavy Rain
KIGQ,08/16/2016 00:15 UTC,29.95,69.8,67.64,94.03,5.75,70.0,,14.0,204.0,0.05,,53.0,143.0,,,5.0,,KIGQ 160015Z AUTO 07005KT 5SM +RA BKN005 BKN014 OVC020 21/20  A2995 RMK AO2 P0005 T02100198,,,500.0,,,67.99,,ENE,29.3,27.82,,Heavy Rain
KIGQ,08/16/2016 00:35 UTC,29.94,69.8,67.46,94.03,6.91,70.0,,14.0,164.0,0.09,,53.0,113.0,,,5.0,,KIGQ 160035Z AUTO 07006KT 5SM +RA BKN005 BKN011 OVC016 21/20  A2994 RMK AO2 P0009 T02100197,,,500.0,,,67.99,,ENE,29.29,27.81,,Heavy Rain
KIGQ,08/16/2016 00:55 UTC,29.94,69.8,67.64,94.03,6.91,60.0,,13.0,184.0,0.09,,53.0,133.0,,,10.0,,KIGQ 160055Z AUTO 06006KT 10SM -RA BKN005 BKN013 OVC018 21/20  A2994 RMK AO2 P0009 T02100198,,,500.0,,,67.99,,ENE,29.29,27.81,,Light Rain
KIGQ,08/16/2016 01:15 UTC,29.94,69.8,68.0,94.03,4.61,70.0,,13.0,204.0,,,53.0,153.0,,,10.0,,KIGQ 160115Z AUTO 07004KT 10SM -RA BKN005 BKN015 OVC020 21/20  A2994 RMK AO2 T02100200,,,500.0,,,67.99,,ENE,29.29,27.81,,Light Rain
KIGQ,08/16/2016 01:35 UTC,29.94,70.16,68.18,94.03,5.75,60.0,,13.0,,,,53.0,154.0,,,10.0,,KIGQ 160135Z AUTO 06005KT 10SM -RA BKN005 OVC015 21/20 A2994 RMK AO2 T02120201,,,500.0,,,68.35,,ENE,29.29,27.78,,Light Rain
KIGQ,08/16/2016 01:55 UTC,29.95,70.34,68.18,94.03,4.61,90.0,,14.0,354.0,0.02,,52.0,153.0,,,7.0,,KIGQ 160155Z AUTO 09004KT 7SM +RA SCT005 BKN015 OVC035 21/20  A2995 RMK AO2 P0002 T02130201,,,1500.0,,,68.53,,E,29.3,27.77,,Heavy Rain
KIGQ,08/16/2016 02:15 UTC,29.95,70.34,68.72,94.03,4.61,60.0,,14.0,354.0,0.03,,52.0,152.0,,,5.0,,KIGQ 160215Z AUTO 06004KT 5SM +RA SCT005 SCT015 OVC035 21/20  A2995 RMK AO2 P0003 T02130204,,,3500.0,,,68.53,,ENE,29.3,27.77,,Heavy Rain
KIGQ,08/16/2016 02:35 UTC,29.95,70.52,69.44,100.0,4.61,70.0,,1.0,284.0,0.06,,33.0,73.0,,,5.0,,KIGQ 160235Z AUTO 07004KT 5SM RA BKN003 BKN007 OVC028 21/21  A2995 RMK AO2 LTG DSNT SE P0006 T02140208,,,300.0,,,70.52,,ENE,29.3,27.63,,Rain
KIGQ,08/16/2016 02:55 UTC,29.95,70.7,69.8,94.07,5.75,60.0,,1.0,234.0,0.07,0.18,33.0,73.0,,,5.0,,KIGQ 160255Z AUTO 06005KT 5SM RA BKN003 BKN007 OVC023 22/21  A2995 RMK AO2 P0007 60018 T02150210,,,300.0,,,68.9,,ENE,29.3,27.74,,Rain
KIGQ,08/16/2016 03:15 UTC,29.94,70.7,69.8,94.07,3.44,50.0,,18.0,,,,32.0,184.0,,,5.0,,KIGQ 160315Z AUTO 05003KT 5SM +DZ SCT003 OVC018 22/21 A2994 RMK AO2 T02150210,,,1800.0,,,68.9,,NE,29.29,27.73,,Heavy Drizzle
KIGQ,08/16/2016 03:35 UTC,29.94,70.7,69.98,94.07,3.44,40.0,,2.0,,,,184.0,,,,7.0,,KIGQ 160335Z AUTO 04003KT 7SM DZ OVC018 22/21 A2994 RMK AO2 LTG  DSNT E T02150211,,,1800.0,,,68.9,,NE,29.29,27.73,,Drizzle
KIGQ,08/16/2016 03:55 UTC,29.93,70.88,70.16,94.07,4.61,20.0,,1.0,,,,164.0,,,,5.0,,KIGQ 160355Z AUTO 02004KT 5SM RA OVC016 22/21 A2993 RMK AO2  T02160212,,,1600.0,,,69.08,,NNE,29.28,27.71,,Rain
KIGQ,08/16/2016 04:15 UTC,29.93,71.06,70.52,94.07,0.0,0.0,,13.0,,,,42.0,164.0,,,7.0,,KIGQ 160415Z AUTO 00000KT 7SM -RA SCT004 OVC016 22/21 A2993 RMK AO2 LTG DSNT E T02170214,,,1600.0,,,69.26,,N,29.28,27.69,,Light Rain
KIGQ,08/16/2016 04:35 UTC,29.93,71.06,70.7,100.0,3.44,10.0,,13.0,164.0,,,42.0,92.0,,,7.0,,KIGQ 160435Z AUTO 01003KT 7SM -RA SCT004 SCT009 OVC016 22/22  A2993 RMK AO2 T02170215,,,1600.0,,,71.06,,N,29.28,27.56,,Light Rain
KIGQ,08/16/2016 04:55 UTC,29.93,71.06,70.7,100.0,0.0,0.0,,1.0,164.0,,,42.0,93.0,,,7.0,,KIGQ 160455Z AUTO 00000KT 7SM RA SCT004 BKN009 OVC016 22/22  A2993 RMK AO2 T02170215,,,900.0,,,71.06,,N,29.28,27.56,,Rain
KIGQ,08/16/2016 05:15 UTC,29.92,71.06,70.34,94.07,0.0,0.0,,2.0,184.0,,,42.0,113.0,,,5.0,,KIGQ 160515Z AUTO 00000KT 5SM DZ SCT004 BKN011 OVC018 22/21  A2992 RMK AO2 T02170213,,,1100.0,,,69.26,,N,29.27,27.68,,Drizzle
KIGQ,08/16/2016 05:35 UTC,29.92,71.06,70.34,94.07,0.0,0.0,,13.0,164.0,,,42.0,92.0,,,7.0,,KIGQ 160535Z AUTO 00000KT 7SM -RA SCT004 SCT009 OVC016 22/21  A2992 RMK AO2 T02170213,,,1600.0,,,69.26,,N,29.27,27.68,,Light Rain
KIGQ,08/16/2016 05:55 UTC,29.92,70.7,69.44,94.07,0.0,0.0,,1.0,,,,162.0,274.0,0.18,,7.0,,KIGQ 160555Z AUTO 00000KT 7SM RA SCT016 OVC027 22/21 A2992 RMK AO2  60018 T02150208 10218 20210 402350184,71.24,69.8,2700.0,74.3,65.12,68.9,,N,29.27,27.71,,Rain
KIGQ,08/16/2016 06:15 UTC,29.92,70.7,69.62,94.07,3.44,250.0,,1.0,274.0,,,42.0,163.0,,,5.0,,KIGQ 160615Z AUTO 25003KT 5SM RA SCT004 BKN016 OVC027 22/21  A2992 RMK AO2 T02150209,,,1600.0,,,68.9,,WSW,29.27,27.71,,Rain
KIGQ,08/16/2016 06:35 UTC,29.91,70.34,69.8,100.0,3.44,290.0,,14.0,344.0,,,42.0,243.0,,,7.0,,KIGQ 160635Z AUTO 29003KT 7SM +RA SCT004 BKN024 OVC034 21/21  A2991 RMK AO2 T02130210,,,2400.0,,,70.34,,WNW,29.26,27.61,,Heavy Rain
KIGQ,08/16/2016 06:55 UTC,29.91,70.34,69.8,100.0,3.44,280.0,,1.0,354.0,,,82.0,263.0,,,7.0,,KIGQ 160655Z AUTO 28003KT 7SM RA SCT008 BKN026 OVC035 21/21  A2991 RMK AO2 T02130210,,,2600.0,,,70.34,,W,29.26,27.61,,Rain
KIGQ,08/16/2016 07:15 UTC,29.91,70.34,69.8,100.0,3.44,280.0,,13.0,,,,84.0,,,,7.0,,KIGQ 160715Z AUTO 28003KT 7SM -RA OVC008 21/21 A2991 RMK AO2  T02130210,,,800.0,,,70.34,,W,29.26,27.61,,Light Rain
KIGQ,08/16/2016 07:35 UTC,29.91,70.7,69.98,94.07,5.75,280.0,,13.0,,,,43.0,84.0,,,7.0,,KIGQ 160735Z AUTO 28005KT 7SM -RA BKN004 OVC008 22/21 A2991 RMK AO2 T02150211,,,400.0,,,68.9,,W,29.26,27.7,,Light Rain
KIGQ,08/16/2016 07:55 UTC,29.91,70.88,70.16,94.07,4.61,300.0,,13.0,,,,44.0,,,,7.0,,KIGQ 160755Z AUTO 30004KT 7SM -RA OVC004 22/21 A2991 RMK AO2  T02160212,,,400.0,,,69.08,,WNW,29.26,27.69,,Light Rain
KIGQ,08/16/2016 08:15 UTC,29.91,70.88,70.34,94.07,5.75,310.0,,17.0,,,,44.0,,,,5.0,,KIGQ 160815Z AUTO 31005KT 5SM -DZ OVC004 22/21 A2991 RMK AO2  T02160213,,,400.0,,,69.08,,NW,29.26,27.69,,Light Drizzle
KIGQ,08/16/2016 08:35 UTC,29.93,71.24,70.7,100.0,6.91,300.0,,17.0,,,,44.0,,,,4.0,,KIGQ 160835Z AUTO 30006KT 4SM -DZ OVC004 22/22 A2993 RMK AO2  T02180215,,,400.0,,,71.24,,WNW,29.28,27.54,,Light Drizzle
KIGQ,08/16/2016 08:55 UTC,29.94,71.06,70.34,94.07,9.22,330.0,,14.0,,,,44.0,,,,4.0,,KIGQ 160855Z AUTO 33008KT 4SM +RA OVC004 22/21 A2994 RMK AO2  T02170213,,,400.0,,,69.26,,NNW,29.29,27.7,,Heavy Rain
KIGQ,08/16/2016 09:15 UTC,29.95,70.7,69.98,94.07,9.22,330.0,,1.0,,,,44.0,,,,5.0,,KIGQ 160915Z AUTO 33008KT 5SM RA OVC004 22/21 A2995 RMK AO2  T02150211,,,400.0,,,68.9,,NNW,29.3,27.74,,Rain
KIGQ,08/16/2016 09:35 UTC,29.95,70.7,69.8,94.07,8.05,340.0,,13.0,,,,64.0,,,,7.0,,KIGQ 160935Z AUTO 34007KT 7SM -RA OVC006 22/21 A2995 RMK AO2  T02150210,,,600.0,,,68.9,,NNW,29.3,27.74,,Light Rain
KIGQ,08/16/2016 09:55 UTC,29.95,70.34,69.26,100.0,4.61,350.0,,17.0,,,,64.0,,,,5.0,,KIGQ 160955Z AUTO 35004KT 5SM -DZ OVC006 21/21 A2995 RMK AO2  T02130207,,,600.0,,,70.34,,N,29.3,27.65,,Light Drizzle
KIGQ,08/16/2016 10:15 UTC,29.95,70.16,69.26,100.0,3.44,320.0,,13.0,,,,44.0,,,,10.0,,KIGQ 161015Z AUTO 32003KT 10SM -RA OVC004 21/21 A2995 RMK AO2  T02120207,,,400.0,,,70.16,,NW,29.3,27.66,,Light Rain
KIGQ,08/16/2016 10:35 UTC,29.96,69.98,69.08,100.0,0.0,0.0,,,,,,43.0,163.0,,,10.0,,KIGQ 161035Z AUTO 00000KT 10SM BKN004 BKN016 21/21 A2996 RMK AO2  T02110206,,,400.0,,,69.98,,N,29.31,27.69,,Mostly Cloudy
KIGQ,08/16/2016 10:55 UTC,29.97,69.8,68.9,100.0,4.61,290.0,,,443.0,,,62.0,112.0,,,10.0,,KIGQ 161055Z AUTO 29004KT 10SM SCT006 SCT011 BKN044 21/21  A2997 RMK AO2 T02100205,,,4400.0,,,69.8,,WNW,29.32,27.71,,Mostly Cloudy
KIGQ,08/16/2016 11:15 UTC,29.99,69.98,69.26,100.0,4.61,280.0,,,273.0,,,62.0,112.0,,,10.0,,KIGQ 161115Z AUTO 28004KT 10SM SCT006 SCT011 BKN027 21/21  A2999 RMK AO2 T02110207,,,2700.0,,,69.98,,W,29.34,27.72,,Mostly Cloudy
KIGQ,08/16/2016 11:35 UTC,30.0,70.34,69.44,100.0,4.61,260.0,,,254.0,,,62.0,203.0,,,10.0,,KIGQ 161135Z AUTO 26004KT 10SM SCT006 BKN020 OVC025 21/21  A3000 RMK AO2 T02130208,,,2000.0,,,70.34,,W,29.35,27.7,,Overcast
KIGQ,08/16/2016 11:55 UTC,30.0,70.7,69.8,94.07,4.61,270.0,,,454.0,,,102.0,153.0,,1.17,10.0,,KIGQ 161155Z AUTO 27004KT 10SM SCT010 BKN015 OVC045 22/21  A3000 RMK AO2 70117 T02150210 10218 20210,71.24,69.8,1500.0,,,68.9,,W,29.35,27.79,,Overcast
KIGQ,08/16/2016 12:15 UTC,30.0,70.7,69.8,94.07,0.0,0.0,,,414.0,,,83.0,153.0,,,10.0,,KIGQ 161215Z AUTO 00000KT 10SM BKN008 BKN015 OVC041 22/21  A3000 RMK AO2 T02150210,,,800.0,,,68.9,,N,29.35,27.79,,Overcast
KIGQ,08/16/2016 12:35 UTC,30.01,71.78,70.7,100.0,4.61,260.0,,,,,,83.0,,,,10.0,,KIGQ 161235Z AUTO 26004KT 10SM BKN008 22/22 A3001 RMK AO2  T02210215,,,800.0,,,71.78,,W,29.36,27.58,,Mostly Cloudy
KIGQ,08/16/2016 12:55 UTC,30.02,72.68,70.16,88.54,5.75,280.0,,,,,,83.0,,,,10.0,,KIGQ 161255Z AUTO 28005KT 10SM BKN008 23/21 A3002 RMK AO2  T02260212,,,800.0,,,69.08,,W,29.37,27.77,,Mostly Cloudy
KIGQ,08/16/2016 13:15 UTC,30.02,72.5,69.8,88.54,5.75,290.0,,,,,,83.0,134.0,,,10.0,,KIGQ 161315Z AUTO 29005KT 10SM BKN008 OVC013 23/21 A3002 RMK AO2  T02250210,,,800.0,,,68.91,,WNW,29.37,27.79,,Overcast
KIGQ,08/16/2016 13:35 UTC,30.02,73.76,70.34,88.54,6.91,290.0,,,,,,113.0,173.0,,,10.0,,KIGQ 161335Z AUTO 29006KT 10SM BKN011 BKN017 23/21 A3002 RMK AO2  T02320213,,,1100.0,,,70.15,,WNW,29.37,27.68,,Mostly Cloudy
KIGQ,08/16/2016 13:55 UTC,30.03,74.66,70.34,83.37,5.75,300.0,,,,,,93.0,133.0,,,10.0,,KIGQ 161355Z AUTO 30005KT 10SM BKN009 BKN013 24/21 A3003 RMK AO2  T02370213,,,900.0,,,69.27,,WNW,29.38,27.74,,Mostly Cloudy
KIGQ,08/16/2016 14:15 UTC,30.03,74.12,69.98,88.54,5.75,280.0,,,,,,114.0,,,,10.0,,KIGQ 161415Z AUTO 28005KT 10SM OVC011 23/21 A3003 RMK AO2  T02340211,,,1100.0,,,70.5,,W,29.38,27.66,,Overcast
KIGQ,08/16/2016 14:35 UTC,30.04,74.66,70.16,83.37,4.61,270.0,,,,,,133.0,183.0,,,10.0,,KIGQ 161435Z AUTO 27004KT 10SM BKN013 BKN018 24/21 A3004 RMK AO2  T02370212,,,1300.0,,,69.27,,W,29.39,27.75,,Mostly Cloudy
KIGQ,08/16/2016 14:55 UTC,30.04,75.2,69.98,83.37,5.75,280.0,,,,,,154.0,,,,10.0,,KIGQ 161455Z AUTO 28005KT 10SM OVC015 24/21 A3004 RMK AO2  T02400211,,,1500.0,,,69.79,,W,29.39,27.71,,Overcast
KIGQ,08/16/2016 15:15 UTC,30.04,75.38,69.44,83.37,6.91,280.0,,,,,,153.0,253.0,,,10.0,,KIGQ 161515Z AUTO 28006KT 10SM BKN015 BKN025 24/21 A3004 RMK AO2  T02410208,,,1500.0,,,69.97,,W,29.39,27.69,,Mostly Cloudy
KIGQ,08/16/2016 15:35 UTC,30.05,76.28,69.26,78.54,5.75,310.0,,,,,,133.0,183.0,,,10.0,,KIGQ 161535Z AUTO 31005KT 10SM BKN013 BKN018 25/21 A3005 RMK AO2  T02460207,,,1300.0,,,69.1,,NW,29.4,27.75,,Mostly Cloudy
KIGQ,08/16/2016 15:55 UTC,30.06,77.72,70.16,78.54,5.75,260.0,,,553.0,,,183.0,313.0,,,10.0,,KIGQ 161555Z AUTO 26005KT 10SM BKN018 BKN031 BKN055 25/21  A3006 RMK AO2 T02540212,,,1800.0,,,70.5,,W,29.41,27.64,,Mostly Cloudy
KIGQ,08/16/2016 16:15 UTC,30.06,77.18,68.9,78.54,4.61,280.0,,,553.0,,,182.0,232.0,,,10.0,,KIGQ 161615Z AUTO 28004KT 10SM SCT018 SCT023 BKN055 25/21  A3006 RMK AO2 T02510205,,,5500.0,,,69.97,,W,29.41,27.69,,Mostly Cloudy
KIGQ,08/16/2016 16:35 UTC,30.06,78.26,68.54,69.6,4.61,330.0,,,553.0,,,212.0,302.0,,,10.0,,KIGQ 161635Z AUTO 33004KT 10SM SCT021 SCT030 BKN055 26/20  A3006 RMK AO2 T02570203,,,5500.0,,,67.49,,NNW,29.41,27.85,,Mostly Cloudy
KIGQ,08/16/2016 16:55 UTC,30.06,78.44,69.44,74.02,3.44,250.0,,,654.0,,,212.0,293.0,,,10.0,,KIGQ 161655Z AUTO 25003KT 10SM SCT021 BKN029 OVC065 26/21  A3006 RMK AO2 T02580208,,,2900.0,,,69.46,,WSW,29.41,27.71,,Overcast
KIGQ,08/16/2016 17:15 UTC,30.06,78.8,68.9,74.02,6.91,300.0,,,653.0,,,233.0,283.0,,,10.0,,KIGQ 161715Z AUTO 30006KT 10SM BKN023 BKN028 BKN065 26/21  A3006 RMK AO2 T02600205,,,2300.0,,,69.81,,WNW,29.41,27.68,,Mostly Cloudy
KIGQ,08/16/2016 17:35 UTC,30.06,79.7,68.72,65.62,3.44,210.0,,,393.0,,,253.0,333.0,,,10.0,,KIGQ 161735Z AUTO 21003KT 10SM BKN025 BKN033 BKN039 27/20  A3006 RMK AO2 T02650204,,,2500.0,,,67.16,,SSW,29.41,27.86,,Mostly Cloudy
KIGQ,08/16/2016 17:55 UTC,30.06,80.6,68.9,69.79,6.91,40.0,,,503.0,,,272.0,403.0,,,10.0,,KIGQ 161755Z AUTO 04006KT 10SM SCT027 BKN040 BKN050 27/21  A3006 RMK AO2 T02700205 10271 20215,80.78,70.7,4000.0,,,69.81,,NE,29.41,27.65,83.91,Mostly Cloudy
KIGQ,08/16/2016 18:15 UTC,30.06,77.9,69.44,74.02,8.05,90.0,,,444.0,,,273.0,323.0,,,10.0,,KIGQ 161815Z AUTO 09007KT 10SM BKN027 BKN032 OVC044 26/21  A3006 RMK AO2 T02550208,,,2700.0,,,68.94,,E,29.41,27.75,,Overcast
KIGQ,08/16/2016 18:35 UTC,30.06,79.34,69.26,74.02,5.75,90.0,,,454.0,,,312.0,393.0,,,10.0,,KIGQ 161835Z AUTO 09005KT 10SM SCT031 BKN039 OVC045 26/21  A3006 RMK AO2 T02630207,,,3900.0,,,70.33,,E,29.41,27.63,,Overcast
KIGQ,08/16/2016 18:55 UTC,30.06,80.78,69.62,69.79,5.75,80.0,,,,,,312.0,413.0,,,10.0,,KIGQ 161855Z AUTO 08005KT 10SM SCT031 BKN041 27/21 A3006 RMK AO2  T02710209,,,4100.0,,,69.99,,E,29.41,27.64,84.21,Mostly Cloudy
KIGQ,08/16/2016 19:15 UTC,30.06,81.32,69.44,69.79,6.91,20.0,,,433.0,,,262.0,332.0,,,10.0,,KIGQ 161915Z AUTO 02006KT 10SM SCT026 SCT033 BKN043 27/21  A3006 RMK AO2 T02740208,,,4300.0,,,70.51,,NNE,29.41,27.59,85.15,Mostly Cloudy
KIGQ,08/16/2016 19:35 UTC,30.05,81.86,68.9,65.83,6.91,40.0,,,552.0,,,312.0,412.0,,,10.0,,KIGQ 161935Z AUTO 04006KT 10SM SCT031 SCT041 SCT055 28/21  A3005 RMK AO2 T02770205,,,,,,69.31,,NE,29.4,27.67,85.32,Partly Cloudy
KIGQ,08/16/2016 19:55 UTC,30.05,81.32,68.54,65.62,6.91,20.0,,,,,,1.0,,,,10.0,,KIGQ 161955Z AUTO 02006KT 10SM CLR 27/20 A3005 RMK AO2  T02740203,,,,,,68.7,,NNE,29.4,27.72,84.41,Clear
KIGQ,08/16/2016 20:15 UTC,30.05,81.32,68.36,65.62,10.36,40.0,,,,,,802.0,,,,10.0,,KIGQ 162015Z AUTO 04009KT 10SM SCT080 27/20 A3005 RMK AO2  T02740202,,,,,,68.7,,NE,29.4,27.72,84.41,Partly Cloudy
KIGQ,08/16/2016 20:35 UTC,30.05,80.96,66.92,61.67,10.36,60.0,,,,,,702.0,,,,10.0,,KIGQ 162035Z AUTO 06009KT 10SM SCT070 27/19 A3005 RMK AO2  T02720194,,,,,,66.56,,ENE,29.4,27.88,83.25,Partly Cloudy
KIGQ,08/16/2016 20:55 UTC,30.05,79.7,64.58,57.94,5.75,20.0,,,,,,602.0,,,,10.0,,KIGQ 162055Z AUTO 02005KT 10SM SCT060 27/18 A3005 RMK AO2  T02650181,,,,,,63.57,,NNE,29.4,28.09,,Partly Cloudy
KIGQ,08/16/2016 21:15 UTC,30.05,81.68,64.58,54.65,5.75,80.0,,,,,,602.0,,,,10.0,,KIGQ 162115Z AUTO 08005KT 10SM SCT060 28/18 A3005 RMK AO2  T02760181,,,,,,63.76,,E,29.4,28.06,83.11,Partly Cloudy
KIGQ,08/16/2016 21:35 UTC,30.05,81.32,64.58,57.94,6.91,100.0,,,,,,1.0,,,,10.0,,KIGQ 162135Z AUTO 10006KT 10SM CLR 27/18 A3005 RMK AO2  T02740181,,,,,,65.1,,E,29.4,27.97,83.17,Clear
KIGQ,08/16/2016 21:55 UTC,30.05,81.14,64.04,57.94,6.91,70.0,,,,,,1.0,,,,10.0,,KIGQ 162155Z AUTO 07006KT 10SM CLR 27/18 A3005 RMK AO2  T02730178,,,,,,64.93,,ENE,29.4,27.99,82.94,Clear
KIGQ,08/16/2016 22:15 UTC,30.05,81.5,63.14,51.31,0.0,0.0,,,,,,1.0,,,,10.0,,KIGQ 162215Z AUTO 00000KT 10SM CLR 28/17 A3005 RMK AO2  T02750173,,,,,,61.8,,N,29.4,28.18,82.42,Clear
KIGQ,08/16/2016 22:35 UTC,30.05,81.14,63.32,54.4,4.61,50.0,,,,,,1.0,,,,10.0,,KIGQ 162235Z AUTO 05004KT 10SM CLR 27/17 A3005 RMK AO2  T02730174,,,,,,63.13,,NE,29.4,28.1,82.45,Clear
KIGQ,08/16/2016 22:55 UTC,30.05,80.78,62.06,54.4,4.61,60.0,,,,,,1.0,,,,10.0,,KIGQ 162255Z AUTO 06004KT 10SM CLR 27/17 A3005 RMK AO2  T02710167,,,,,,62.79,,ENE,29.4,28.13,82.05,Clear
KIGQ,08/16/2016 23:15 UTC,30.04,80.6,63.14,54.4,5.75,100.0,,,,,,1.0,,,,10.0,,KIGQ 162315Z AUTO 10005KT 10SM CLR 27/17 A3004 RMK AO2  T02700173,,,,,,62.62,,E,29.39,28.13,81.85,Clear
KIGQ,08/16/2016 23:35 UTC,30.04,79.7,64.4,57.94,5.75,120.0,,,,,,1.0,,,,10.0,,KIGQ 162335Z AUTO 12005KT 10SM CLR 27/18 A3004 RMK AO2  T02650180,,,,,,63.57,,ESE,29.39,28.08,,Clear
KIGQ,08/16/2016 23:55 UTC,30.05,79.16,64.04,61.44,3.44,130.0,,,,,,1.0,,,,10.0,,KIGQ 162355Z AUTO 13003KT 10SM CLR 26/18 A3005 RMK AO2 T02620178  10278 20253,82.04,77.54,,,,64.74,,SE,29.4,28.02,,Clear
KIGQ,08/17/2016 00:15 UTC,30.05,77.9,64.4,61.44,3.44,120.0,,,,,,1.0,,,,10.0,,KIGQ 170015Z AUTO 12003KT 10SM CLR 26/18 A3005 RMK AO2  T02550180,,,,,,63.55,,ESE,29.4,28.11,,Clear
KIGQ,08/17/2016 00:35 UTC,30.05,77.0,64.22,65.2,3.44,120.0,,,,,,1.0,,,,10.0,,KIGQ 170035Z AUTO 12003KT 10SM CLR 25/18 A3005 RMK AO2  T02500179,,,,,,64.4,,ESE,29.4,28.07,,Clear
KIGQ,08/17/2016 00:55 UTC,30.06,76.46,64.58,65.2,3.44,160.0,,,,,,1.0,,,,10.0,,KIGQ 170055Z AUTO 16003KT 10SM CLR 25/18 A3006 RMK AO2  T02470181,,,,,,63.88,,SSE,29.41,28.11,,Clear
KIGQ,08/17/2016 01:15 UTC,30.06,74.3,65.84,73.67,3.44,170.0,,,,,,1.0,,,,10.0,,KIGQ 170115Z AUTO 17003KT 10SM CLR 24/19 A3006 RMK AO2  T02350188,,,,,,65.32,,S,29.41,28.05,,Clear
KIGQ,08/17/2016 01:35 UTC,30.07,73.76,66.74,78.24,3.44,190.0,,,,,,1.0,,,,10.0,,KIGQ 170135Z AUTO 19003KT 10SM CLR 23/19 A3007 RMK AO2  T02320193,,,,,,66.53,,S,29.42,27.99,,Clear
KIGQ,08/17/2016 01:55 UTC,30.08,73.4,66.56,78.24,3.44,200.0,,,,,,1.0,,,,10.0,,KIGQ 170155Z AUTO 20003KT 10SM CLR 23/19 A3008 RMK AO2  T02300192,,,,,,66.18,,SSW,29.43,28.02,,Clear
KIGQ,08/17/2016 02:15 UTC,30.09,71.6,66.74,83.13,3.44,190.0,,,,,,1.0,,,,10.0,,KIGQ 170215Z AUTO 19003KT 10SM CLR 22/19 A3009 RMK AO2  T02200193,,,,,,66.18,,S,29.44,28.06,,Clear
KIGQ,08/17/2016 02:35 UTC,30.09,72.5,67.46,83.25,0.0,0.0,,,,,,1.0,,,,10.0,,KIGQ 170235Z AUTO 00000KT 10SM CLR 23/20 A3009 RMK AO2  T02250197,,,,,,67.11,,N,29.44,27.98,,Clear
KIGQ,08/17/2016 02:55 UTC,30.09,71.42,67.64,88.46,0.0,0.0,,,,,,1.0,,,,10.0,,KIGQ 170255Z AUTO 00000KT 10SM CLR 22/20 A3009 RMK AO2  T02190198,,,,,,67.81,,N,29.44,27.95,,Clear
KIGQ,08/17/2016 03:15 UTC,30.1,70.7,67.28,88.46,0.0,0.0,,,,,,1.0,,,,10.0,,KIGQ 170315Z AUTO 00000KT 10SM CLR 22/20 A3010 RMK AO2  T02150196,,,,,,67.1,,N,29.45,28.02,,Clear
KIGQ,08/17/2016 03:35 UTC,30.1,71.06,67.64,88.46,4.61,170.0,,,,,,1.0,,,,10.0,,KIGQ 170335Z AUTO 17004KT 10SM CLR 22/20 A3010 RMK AO2  T02170198,,,,,,67.46,,S,29.45,27.99,,Clear
KIGQ,08/17/2016 03:55 UTC,30.1,70.34,67.1,94.03,4.61,190.0,,,,,,1.0,,,,10.0,,KIGQ 170355Z AUTO 19004KT 10SM CLR 21/20 A3010 RMK AO2  T02130195,,,,,,68.53,,S,29.45,27.93,,Clear
KIGQ,08/17/2016 04:15 UTC,30.11,70.7,68.0,88.46,0.0,0.0,,,,,,1.0,,,,10.0,,KIGQ 170415Z AUTO 00000KT 10SM CLR 22/20 A3011 RMK AO2  T02150200,,,,,,67.1,,N,29.46,28.03,,Clear
KIGQ,08/17/2016 04:35 UTC,30.11,70.88,67.82,88.46,0.0,0.0,,,,,,1.0,,,,10.0,,KIGQ 170435Z AUTO 00000KT 10SM CLR 22/20 A3011 RMK AO2  T02160199,,,,,,67.28,,N,29.46,28.01,,Clear
KIGQ,08/17/2016 04:55 UTC,30.11,69.62,67.1,94.03,4.61,200.0,,,,,,1.0,,,,7.0,,KIGQ 170455Z AUTO 20004KT 7SM CLR 21/20 A3011 RMK AO2  T02090195,,,,,,67.82,,SSW,29.46,28.0,,Clear
KIGQ,08/17/2016 05:15 UTC,30.11,69.8,67.28,94.03,0.0,0.0,,,,,,1.0,,,,7.0,,KIGQ 170515Z AUTO 00000KT 7SM CLR 21/20 A3011 RMK AO2  T02100196,,,,,,67.99,,N,29.46,27.98,,Clear
KIGQ,08/17/2016 05:35 UTC,30.11,69.62,67.46,94.03,0.0,0.0,,,,,,1.0,,,,7.0,,KIGQ 170535Z AUTO 00000KT 7SM CLR 21/20 A3011 RMK AO2  T02090197,,,,,,67.82,,N,29.46,28.0,,Clear
KIGQ,08/17/2016 05:55 UTC,30.11,67.46,65.66,93.98,0.0,0.0,,31.0,,,,1.0,,,,4.0,,KIGQ 170555Z AUTO 00000KT 4SM BR CLR 20/19 A3011 RMK AO2 T01970187  10261 20197 402780197,78.98,67.46,,82.04,67.46,65.65,,N,29.46,28.17,,Mist
KIGQ,08/17/2016 06:15 UTC,30.11,68.18,67.46,100.0,0.0,0.0,,31.0,,,,1.0,,,,4.0,,KIGQ 170615Z AUTO 00000KT 4SM BR CLR 20/20 A3011 RMK AO2  T02010197,,,,,,68.18,,N,29.46,27.99,,Mist
KIGQ,08/17/2016 06:35 UTC,30.11,68.0,67.1,100.0,0.0,0.0,,31.0,,,,1.0,,,,5.0,,KIGQ 170635Z AUTO 00000KT 5SM BR CLR 20/20 A3011 RMK AO2  T02000195,,,,,,68.0,,N,29.46,28.01,,Mist
KIGQ,08/17/2016 06:55 UTC,30.11,67.82,66.92,93.98,3.44,180.0,,31.0,,,,1.0,,,,5.0,,KIGQ 170655Z AUTO 18003KT 5SM BR CLR 20/19 A3011 RMK AO2  T01990194,,,,,,66.01,,S,29.46,28.14,,Mist
KIGQ,08/17/2016 07:15 UTC,30.1,67.28,66.56,93.98,4.61,180.0,,,,,,1.0,,,,7.0,,KIGQ 170715Z AUTO 18004KT 7SM CLR 20/19 A3010 RMK AO2  T01960192,,,,,,65.48,,S,29.45,28.17,,Clear
KIGQ,08/17/2016 07:35 UTC,30.09,67.1,66.02,93.98,4.61,170.0,,,,,,1.0,,,,7.0,,KIGQ 170735Z AUTO 17004KT 7SM CLR 20/19 A3009 RMK AO2  T01950189,,,,,,65.3,,S,29.44,28.17,,Clear
KIGQ,08/17/2016 07:55 UTC,30.09,67.1,64.76,88.29,3.44,190.0,,,,,,1.0,,,,10.0,,KIGQ 170755Z AUTO 19003KT 10SM CLR 20/18 A3009 RMK AO2  T01950182,,,,,,63.5,,S,29.44,28.28,,Clear
KIGQ,08/17/2016 08:15 UTC,30.09,66.92,64.94,93.94,3.44,180.0,,,,,,1.0,,,,10.0,,KIGQ 170815Z AUTO 18003KT 10SM CLR 19/18 A3009 RMK AO2  T01940183,,,,,,65.11,,S,29.44,28.19,,Clear
KIGQ,08/17/2016 08:35 UTC,30.08,68.0,65.66,93.98,3.44,190.0,,,,,,1.0,,,,10.0,,KIGQ 170835Z AUTO 19003KT 10SM CLR 20/19 A3008 RMK AO2  T02000187,,,,,,66.19,,S,29.43,28.1,,Clear
KIGQ,08/17/2016 08:55 UTC,30.08,66.56,64.58,93.94,0.0,0.0,,,,,,1.0,,,,7.0,,KIGQ 170855Z AUTO 00000KT 7SM CLR 19/18 A3008 RMK AO2  T01920181,,,,,,64.75,,N,29.43,28.21,,Clear
KIGQ,08/17/2016 09:15 UTC,30.08,66.38,64.94,93.94,4.61,180.0,,,,,,1.0,,,,7.0,,KIGQ 170915Z AUTO 18004KT 7SM CLR 19/18 A3008 RMK AO2  T01910183,,,,,,64.57,,S,29.43,28.22,,Clear
KIGQ,08/17/2016 09:35 UTC,30.08,65.66,64.4,93.94,0.0,0.0,,,,,,1.0,,,,7.0,,KIGQ 170935Z AUTO 00000KT 7SM CLR 19/18 A3008 RMK AO2  T01870180,,,,,,63.85,,N,29.43,28.27,,Clear
KIGQ,08/17/2016 09:55 UTC,30.08,66.38,64.94,93.94,0.0,0.0,,,,,,1.0,,,,7.0,,KIGQ 170955Z AUTO 00000KT 7SM CLR 19/18 A3008 RMK AO2  T01910183,,,,,,64.57,,N,29.43,28.22,,Clear
KIGQ,08/17/2016 10:15 UTC,30.09,67.1,65.3,93.98,3.44,210.0,,,,,,1.0,,,,10.0,,KIGQ 171015Z AUTO 21003KT 10SM CLR 20/19 A3009 RMK AO2  T01950185,,,,,,65.3,,SSW,29.44,28.17,,Clear
KIGQ,08/17/2016 10:35 UTC,30.09,65.66,64.04,93.94,0.0,0.0,,,,,,1.0,,,,7.0,,KIGQ 171035Z AUTO 00000KT 7SM CLR 19/18 A3009 RMK AO2  T01870178,,,,,,63.85,,N,29.44,28.28,,Clear
KIGQ,08/17/2016 10:55 UTC,30.1,66.2,65.48,100.0,0.0,0.0,,31.0,,,,1.0,,,,5.0,,KIGQ 171055Z AUTO 00000KT 5SM BR CLR 19/19 A3010 RMK AO2  T01900186,,,,,,66.2,,N,29.45,28.14,,Mist
KIGQ,08/17/2016 11:15 UTC,30.11,66.2,65.3,100.0,0.0,0.0,,31.0,,,,1.0,,,,2.5,,KIGQ 171115Z AUTO 00000KT 2 1/2SM BR CLR 19/19 A3011 RMK AO2  T01900185,,,,,,66.2,,N,29.46,28.15,,Mist
KIGQ,08/17/2016 11:35 UTC,30.11,65.84,65.3,100.0,0.0,0.0,,31.0,,,,1.0,,,,2.0,,KIGQ 171135Z AUTO 00000KT 2SM BR CLR 19/19 A3011 RMK AO2  T01880185,,,,,,65.84,,N,29.46,28.18,,Mist
KIGQ,08/17/2016 11:55 UTC,30.11,66.38,66.02,100.0,3.44,200.0,,31.0,,,,1.0,,,,4.0,,KIGQ 171155Z AUTO 20003KT 4SM BR CLR 19/19 A3011 RMK AO2 T01910189  10202 20185,68.36,65.3,,,,66.38,,SSW,29.46,28.14,,Mist
KIGQ,08/17/2016 12:15 UTC,30.11,68.18,67.46,100.0,3.44,210.0,,31.0,,,,1.0,,,,5.0,,KIGQ 171215Z AUTO 21003KT 5SM BR CLR 20/20 A3011 RMK AO2  T02010197,,,,,,68.18,,SSW,29.46,27.99,,Mist
KIGQ,08/17/2016 12:35 UTC,30.11,69.98,66.92,88.37,0.0,0.0,,,,,,1.0,,,,7.0,,KIGQ 171235Z AUTO 00000KT 7SM CLR 21/19 A3011 RMK AO2 LTG DSNT NW  T02110194,,,,,,66.36,,N,29.46,28.09,,Clear
KIGQ,08/17/2016 12:55 UTC,30.11,71.78,67.1,88.46,4.61,220.0,,,,,,1.0,,,,10.0,,KIGQ 171255Z AUTO 22004KT 10SM CLR 22/20 A3011 RMK AO2  T02210195,,,,,,68.17,,SW,29.46,27.94,,Clear
KIGQ,08/17/2016 13:15 UTC,30.11,73.76,67.82,83.25,5.75,250.0,,,,,,1.0,,,,10.0,,KIGQ 171315Z AUTO 25005KT 10SM CLR 23/20 A3011 RMK AO2 LTG DSNT N  T02320199,,,,,,68.34,,WSW,29.46,27.9,,Clear
KIGQ,08/17/2016 13:35 UTC,30.11,75.92,68.18,78.39,5.75,240.0,,,,,,452.0,,,,10.0,,KIGQ 171335Z AUTO 24005KT 10SM SCT045 24/20 A3011 RMK AO2  T02440201,,,,,,68.69,,WSW,29.46,27.85,,Partly Cloudy
KIGQ,08/17/2016 13:55 UTC,30.11,77.0,67.64,73.85,6.91,220.0,,,,,,382.0,452.0,,,10.0,,KIGQ 171355Z AUTO 22006KT 10SM SCT038 SCT045 25/20 A3011 RMK AO2  T02500198,,,,,,68.0,,SW,29.46,27.88,,Partly Cloudy
KIGQ,08/17/2016 14:15 UTC,30.11,77.9,68.0,69.6,6.91,210.0,,,,,,1.0,,,,10.0,,KIGQ 171415Z AUTO 21006KT 10SM CLR 26/20 A3011 RMK AO2  T02550200,,,,,,67.14,,SSW,29.46,27.93,,Clear
KIGQ,08/17/2016 14:35 UTC,30.11,78.62,67.82,69.6,6.91,220.0,,,,,,1.0,,,,10.0,,KIGQ 171435Z AUTO 22006KT 10SM CLR 26/20 A3011 RMK AO2  T02590199,,,,,,67.83,,SW,29.46,27.87,,Clear
KIGQ,08/17/2016 14:55 UTC,30.11,79.7,67.64,65.62,9.22,240.0,,,,,,1.0,,,,10.0,,KIGQ 171455Z AUTO 24008KT 10SM CLR 27/20 A3011 RMK AO2  T02650198,,,,,,67.16,,WSW,29.46,27.91,,Clear
KIGQ,08/17/2016 15:15 UTC,30.11,80.78,67.82,65.62,8.05,240.0,,,,,,1.0,,,,10.0,,KIGQ 171515Z AUTO 24007KT 10SM CLR 27/20 A3011 RMK AO2  T02710199,,,,,,68.19,,WSW,29.46,27.82,83.57,Clear
KIGQ,08/17/2016 15:35 UTC,30.11,81.14,67.82,65.62,10.36,260.0,,,,,,382.0,,,,10.0,,KIGQ 171535Z AUTO 26009KT 10SM SCT038 27/20 A3011 RMK AO2  T02730199,,,,,,68.53,,W,29.46,27.79,84.13,Partly Cloudy
KIGQ,08/17/2016 15:55 UTC,30.11,79.88,67.82,65.62,11.5,230.0,17.27,,,,,303.0,383.0,,,10.0,,KIGQ 171555Z AUTO 23010G15KT 10SM BKN030 BKN038 27/20 A3011 RMK AO2 T02660199,,,3000.0,,,67.33,,SW,29.46,27.9,,Mostly Cloudy
KIGQ,08/17/2016 16:15 UTC,30.11,81.5,68.36,61.9,11.5,250.0,,,,,,303.0,383.0,,,10.0,,KIGQ 171615Z AUTO 25010KT 10SM BKN030 BKN038 28/20 A3011 RMK AO2  T02750202,,,3000.0,,,67.18,,WSW,29.46,27.89,84.05,Mostly Cloudy
KIGQ,08/17/2016 16:35 UTC,30.1,80.96,68.0,65.62,10.36,250.0,,,,,,282.0,362.0,,,10.0,,KIGQ 171635Z AUTO 25009KT 10SM SCT028 SCT036 27/20 A3010 RMK AO2  T02720200,,,,,,68.36,,WSW,29.45,27.8,83.85,Partly Cloudy
KIGQ,08/17/2016 16:55 UTC,30.09,82.04,68.0,61.9,5.75,230.0,,,,,,332.0,,,,10.0,,KIGQ 171655Z AUTO 23005KT 10SM SCT033 28/20 A3009 RMK AO2  T02780200,,,,,,67.69,,SW,29.44,27.82,84.84,Partly Cloudy
KIGQ,08/17/2016 17:15 UTC,30.08,82.4,69.08,65.83,9.22,210.0,,,602.0,,,332.0,422.0,,,10.0,,KIGQ 171715Z AUTO 21008KT 10SM SCT033 SCT042 SCT060 28/21  A3008 RMK AO2 T02800206,,,,,,69.82,,SSW,29.43,27.65,86.24,Partly Cloudy
KIGQ,08/17/2016 17:35 UTC,30.08,82.76,68.18,61.9,6.91,210.0,,,,,,332.0,,,,10.0,,KIGQ 171735Z AUTO 21006KT 10SM SCT033 28/20 A3008 RMK AO2  T02820201,,,,,,68.37,,SSW,29.43,27.76,85.96,Partly Cloudy
KIGQ,08/17/2016 17:55 UTC,30.08,83.3,67.82,58.42,12.66,210.0,,,,,,372.0,473.0,,,10.0,,KIGQ 171755Z AUTO 21011KT 10SM SCT037 BKN047 29/20 A3008 RMK AO2  T02850199 10285 20193,83.3,66.74,4700.0,,,67.2,,SSW,29.43,27.84,86.02,Mostly Cloudy
KIGQ,08/17/2016 18:15 UTC,30.07,82.94,68.18,61.9,9.22,210.0,,,554.0,,,373.0,473.0,,,10.0,,KIGQ 171815Z AUTO 21008KT 10SM BKN037 BKN047 OVC055 28/20  A3007 RMK AO2 T02830201,,,3700.0,,,68.54,,SSW,29.42,27.73,86.25,Overcast
KIGQ,08/17/2016 18:35 UTC,30.06,84.38,69.26,62.13,10.36,230.0,,,1203.0,,,372.0,452.0,,,10.0,,KIGQ 171835Z AUTO 23009KT 10SM SCT037 SCT045 BKN120 29/21  A3006 RMK AO2 T02910207,,,12000.0,,,70.01,,SW,29.41,27.59,88.79,Mostly Cloudy
KIGQ,08/17/2016 18:55 UTC,30.06,80.96,66.74,61.67,9.22,250.0,,,,,,372.0,1203.0,,,10.0,,KIGQ 171855Z AUTO 25008KT 10SM SCT037 BKN120 27/19 A3006 RMK AO2  LTG DSNT SW T02720193,,,12000.0,,,66.56,,WSW,29.41,27.89,83.25,Mostly Cloudy
KIGQ,08/17/2016 19:15 UTC,30.08,77.54,62.42,61.21,21.85,240.0,28.77,,1204.0,,,372.0,1003.0,,,10.0,,KIGQ 171915Z AUTO 24019G25KT 10SM SCT037 BKN100 OVC120 25/17  A3008 RMK AO2 LTG DSNT NE S AND SW T02530169,,,10000.0,,,63.1,,WSW,29.43,28.17,,Overcast
KIGQ,08/17/2016 19:35 UTC,30.07,72.86,67.1,83.25,11.5,210.0,,13.0,904.0,0.08,,332.0,502.0,,,10.0,,KIGQ 171935Z AUTO 21010KT 10SM -RA SCT033 SCT050 OVC090 23/20  A3007 RMK AO2 P0008 T02270195,,,9000.0,,,67.46,,SSW,29.42,27.93,,Light Rain
KIGQ,08/17/2016 19:55 UTC,30.06,77.54,69.8,78.54,5.75,220.0,,,,0.08,,902.0,,,,10.0,,KIGQ 171955Z AUTO 22005KT 10SM SCT090 25/21 A3006 RMK AO2 P0008  T02530210,,,,,,70.32,,SW,29.41,27.65,,Partly Cloudy
KIGQ,08/17/2016 20:15 UTC,30.04,80.6,70.52,69.79,9.22,210.0,,,,,,1.0,,,,10.0,,KIGQ 172015Z AUTO 21008KT 10SM CLR 27/21 A3004 RMK AO2  T02700214,,,,,,69.81,,SSW,29.39,27.63,83.91,Clear
KIGQ,08/17/2016 20:35 UTC,30.04,79.88,69.8,69.79,6.91,230.0,,,,,,1.0,,,,10.0,,KIGQ 172035Z AUTO 23006KT 10SM CLR 27/21 A3004 RMK AO2  T02660210,,,,,,69.12,,SW,29.39,27.69,,Clear
KIGQ,08/17/2016 20:55 UTC,30.04,78.8,68.54,69.6,5.75,220.0,,,,,0.08,802.0,,,,10.0,,KIGQ 172055Z AUTO 22005KT 10SM SCT080 26/20 A3004 RMK AO2 60008  T02600203,,,,,,68.01,,SW,29.39,27.79,,Partly Cloudy
KIGQ,08/17/2016 21:20 UTC,,,,,,,,,,,,,,,,,,KIGQ 172120Z AUTO RMK AO2 PWINO,,,,,,,,,,,,
KIGQ,08/17/2016 21:35 UTC,30.04,84.2,68.72,58.42,11.5,250.0,,,,,,,,,,10.0,,KIGQ 172135Z AUTO 25010KT 10SM 29/20 A3004 RMK AO2 T02900204,,,,,,68.05,,WSW,29.39,27.72,87.43,
KIGQ,08/17/2016 21:55 UTC,30.04,83.84,67.1,58.42,11.5,260.0,,,,,,752.0,,,,10.0,,KIGQ 172155Z AUTO 26010KT 10SM SCT075 29/20 A3004 RMK AO2  T02880195,,,,,,67.71,,W,29.39,27.75,86.85,Partly Cloudy
KIGQ,08/17/2016 22:15 UTC,30.04,82.94,66.92,58.18,11.5,250.0,,,,,,1.0,,,,10.0,,KIGQ 172215Z AUTO 25010KT 10SM CLR 28/19 A3004 RMK AO2  T02830194,,,,,,66.74,,WSW,29.39,27.83,85.43,Clear
KIGQ,08/17/2016 22:35 UTC,30.04,83.48,66.74,54.9,10.36,250.0,,,,,,1.0,,,,10.0,,KIGQ 172235Z AUTO 25009KT 10SM CLR 29/19 A3004 RMK AO2  T02860193,,,,,,65.58,,WSW,29.39,27.91,85.49,Clear
KIGQ,08/17/2016 22:55 UTC,30.04,83.3,67.1,58.42,11.5,250.0,,,,,,1.0,,,,10.0,,KIGQ 172255Z AUTO 25010KT 10SM CLR 29/20 A3004 RMK AO2 LTG DSNT N  T02850195,,,,,,67.2,,WSW,29.39,27.79,86.02,Clear
KIGQ,08/17/2016 23:15 UTC,30.04,82.94,67.64,61.9,8.05,250.0,,,,,,1.0,,,,10.0,,KIGQ 172315Z AUTO 25007KT 10SM CLR 28/20 A3004 RMK AO2  T02830198,,,,,,68.54,,WSW,29.39,27.7,86.25,Clear
KIGQ,08/17/2016 23:35 UTC,30.04,82.94,68.0,61.9,6.91,260.0,,,,,,492.0,602.0,,,10.0,,KIGQ 172335Z AUTO 26006KT 10SM SCT049 SCT060 28/20 A3004 RMK AO2  T02830200,,,,,,68.54,,W,29.39,27.7,86.25,Partly Cloudy
KIGQ,08/17/2016 23:55 UTC,30.04,82.04,68.18,61.9,5.75,340.0,,,,,,493.0,754.0,,,10.0,,KIGQ 172355Z AUTO 34005KT 10SM BKN049 OVC075 28/20 A3004 RMK AO2  6//// T02780201,,,4900.0,,,67.69,,NNW,29.39,27.77,84.84,Overcast
KIGQ,08/18/2016 00:15 UTC,30.04,78.8,64.76,61.44,3.44,20.0,,,,,,492.0,753.0,,,10.0,,KIGQ 180015Z AUTO 02003KT 10SM SCT049 BKN075 26/18 A3004 RMK AO2  T02600182,,,7500.0,,,64.4,,NNE,29.39,28.03,,Mostly Cloudy
KIGQ,08/18/2016 00:35 UTC,30.05,78.8,64.76,61.44,0.0,0.0,,,,,,1.0,,,,10.0,,KIGQ 180035Z AUTO 00000KT 10SM CLR 26/18 A3005 RMK AO2 LTG DSNT E  T02600182,,,,,,64.4,,N,29.4,28.04,,Clear
KIGQ,08/18/2016 00:55 UTC,30.05,78.26,64.94,61.44,3.44,350.0,,,,,,462.0,1102.0,,,10.0,,KIGQ 180055Z AUTO 35003KT 10SM SCT046 SCT110 26/18 A3005 RMK AO2  T02570183,,,,,,63.89,,N,29.4,28.08,,Partly Cloudy
KIGQ,08/18/2016 01:15 UTC,30.05,77.72,64.76,65.2,0.0,0.0,,,,,,462.0,,,,10.0,,KIGQ 180115Z AUTO 00000KT 10SM SCT046 25/18 A3005 RMK AO2  T02540182,,,,,,65.08,,N,29.4,28.01,,Partly Cloudy
KIGQ,08/18/2016 01:35 UTC,30.06,76.1,65.84,69.4,0.0,0.0,,,,,,1.0,,,,10.0,,KIGQ 180135Z AUTO 00000KT 10SM CLR 25/19 A3006 RMK AO2  T02450188,,,,,,65.33,,N,29.41,28.03,,Clear
KIGQ,08/18/2016 01:55 UTC,30.07,74.66,65.84,73.67,0.0,0.0,,,,,,1.0,,,,10.0,,KIGQ 180155Z AUTO 00000KT 10SM CLR 24/19 A3007 RMK AO2  T02370188,,,,,,65.67,,N,29.42,28.03,,Clear
KIGQ,08/18/2016 02:15 UTC,30.08,72.14,65.84,83.13,0.0,0.0,,,,,,1.0,,,,10.0,,KIGQ 180215Z AUTO 00000KT 10SM CLR 22/19 A3008 RMK AO2  T02230188,,,,,,66.71,,N,29.43,28.0,,Clear
KIGQ,08/18/2016 02:35 UTC,30.08,72.68,66.74,78.24,0.0,0.0,,,,,,1.0,,,,10.0,,KIGQ 180235Z AUTO 00000KT 10SM CLR 23/19 A3008 RMK AO2  T02260193,,,,,,65.48,,N,29.43,28.08,,Clear
KIGQ,08/18/2016 02:55 UTC,30.08,72.86,66.92,78.24,3.44,190.0,,,,,,1.0,,,,10.0,,KIGQ 180255Z AUTO 19003KT 10SM CLR 23/19 A3008 RMK AO2  T02270194,,,,,,65.66,,S,29.43,28.06,,Clear
KIGQ,08/18/2016 03:15 UTC,30.08,70.88,66.38,83.13,0.0,0.0,,,,,,1.0,,,,10.0,,KIGQ 180315Z AUTO 00000KT 10SM CLR 22/19 A3008 RMK AO2  T02160191,,,,,,65.48,,N,29.43,28.1,,Clear
KIGQ,08/18/2016 03:35 UTC,30.08,72.32,66.38,83.13,0.0,0.0,,,,,,1.0,,,,10.0,,KIGQ 180335Z AUTO 00000KT 10SM CLR 22/19 A3008 RMK AO2  T02240191,,,,,,66.89,,N,29.43,27.99,,Clear
KIGQ,08/18/2016 03:55 UTC,30.09,71.78,66.56,83.13,0.0,0.0,,,,,,1.0,,,,10.0,,KIGQ 180355Z AUTO 00000KT 10SM CLR 22/19 A3009 RMK AO2  T02210192,,,,,,66.36,,N,29.44,28.04,,Clear
KIGQ,08/18/2016 04:15 UTC,30.09,70.7,66.56,83.13,0.0,0.0,,,,,,1.0,,,,10.0,,KIGQ 180415Z AUTO 00000KT 10SM CLR 22/19 A3009 RMK AO2  T02150192,,,,,,65.3,,N,29.44,28.13,,Clear
KIGQ,08/18/2016 04:35 UTC,30.09,69.8,66.38,88.37,0.0,0.0,,,,,,1.0,,,,10.0,,KIGQ 180435Z AUTO 00000KT 10SM CLR 21/19 A3009 RMK AO2  T02100191,,,,,,66.19,,N,29.44,28.08,,Clear
KIGQ,08/18/2016 04:55 UTC,30.1,71.06,67.1,88.46,0.0,0.0,,,,,,603.0,,,,10.0,,KIGQ 180455Z AUTO 00000KT 10SM BKN060 22/20 A3010 RMK AO2  T02170195,,,6000.0,,,67.46,,N,29.45,27.99,,Mostly Cloudy
KIGQ,08/18/2016 05:15 UTC,30.09,71.24,67.1,88.46,0.0,0.0,,,,,,603.0,,,,10.0,,KIGQ 180515Z AUTO 00000KT 10SM BKN060 22/20 A3009 RMK AO2  T02180195,,,6000.0,,,67.64,,N,29.44,27.97,,Mostly Cloudy
KIGQ,08/18/2016 05:35 UTC,30.09,69.62,66.38,88.37,0.0,0.0,,,,,,702.0,,,,10.0,,KIGQ 180535Z AUTO 00000KT 10SM SCT070 21/19 A3009 RMK AO2  T02090191,,,,,,66.01,,N,29.44,28.1,,Partly Cloudy
KIGQ,08/18/2016 05:55 UTC,30.09,69.44,66.56,88.37,0.0,0.0,,,,,,1.0,,,,10.0,,KIGQ 180555Z AUTO 00000KT 10SM CLR 21/19 A3009 RMK AO2 T02080192  10277 20206,81.86,69.08,,,,65.83,,N,29.44,28.11,,Clear
KIGQ,08/18/2016 06:15 UTC,30.09,69.44,67.1,94.03,0.0,0.0,,,,,,1.0,,,,7.0,,KIGQ 180615Z AUTO 00000KT 7SM CLR 21/20 A3009 RMK AO2 LTG DSNT W  T02080195,,,,,,67.64,,N,29.44,27.99,,Clear
KIGQ,08/18/2016 06:35 UTC,30.08,70.7,69.08,94.07,0.0,0.0,,31.0,,,,1.0,,,,5.0,,KIGQ 180635Z AUTO 00000KT 5SM BR CLR 22/21 A3008 RMK AO2  T02150206,,,,,,68.9,,N,29.43,27.88,,Mist
KIGQ,08/18/2016 06:55 UTC,30.08,70.34,68.72,94.03,3.44,200.0,,31.0,,,,1.0,,,,5.0,,KIGQ 180655Z AUTO 20003KT 5SM BR CLR 21/20 A3008 RMK AO2  T02130204,,,,,,68.53,,SSW,29.43,27.91,,Mist
KIGQ,08/18/2016 07:15 UTC,30.08,70.16,68.9,100.0,3.44,210.0,,31.0,,,,432.0,,,,5.0,,KIGQ 180715Z AUTO 21003KT 5SM BR SCT043 21/21 A3008 RMK AO2 LTG  DSNT W T02120205,,,,,,70.16,,SSW,29.43,27.79,,Mist
KIGQ,08/18/2016 07:35 UTC,30.08,70.7,69.08,94.07,3.44,220.0,,,,,,433.0,,,,7.0,,KIGQ 180735Z AUTO 22003KT 7SM BKN043 22/21 A3008 RMK AO2 LTG DSNT  W T02150206,,,4300.0,,,68.9,,SW,29.43,27.88,,Mostly Cloudy
KIGQ,08/18/2016 07:55 UTC,30.08,70.88,68.54,88.46,0.0,0.0,,,,,,433.0,503.0,,,7.0,,KIGQ 180755Z AUTO 00000KT 7SM BKN043 BKN050 22/20 A3008 RMK AO2  LTG DSNT W T02160203,,,4300.0,,,67.28,,N,29.43,27.98,,Mostly Cloudy
KIGQ,08/18/2016 08:15 UTC,30.08,70.16,68.0,94.03,4.61,170.0,,,602.0,,,432.0,502.0,,,7.0,,KIGQ 180815Z AUTO 17004KT 7SM SCT043 SCT050 SCT060 21/20 A3008 RMK AO2 LTG DSNT W T02120200,,,,,,68.35,,S,29.43,27.92,,Partly Cloudy
KIGQ,08/18/2016 08:35 UTC,30.08,70.7,68.54,88.46,4.61,200.0,,,,,,412.0,502.0,,,7.0,,KIGQ 180835Z AUTO 20004KT 7SM SCT041 SCT050 22/20 A3008 RMK AO2  LTG DSNT W T02150203,,,,,,67.1,,SSW,29.43,28.0,,Partly Cloudy
KIGQ,08/18/2016 08:55 UTC,30.08,71.06,68.54,88.46,4.61,220.0,,,753.0,,,372.0,503.0,,,7.0,,KIGQ 180855Z AUTO 22004KT 7SM SCT037 BKN050 BKN075 22/20 A3008 RMK AO2 LTG DSNT W T02170203,,,5000.0,,,67.46,,SW,29.43,27.97,,Mostly Cloudy
KIGQ,08/18/2016 09:15 UTC,30.07,69.98,67.46,94.03,6.91,180.0,,2485.0,802.0,,,362.0,502.0,,,5.0,,KIGQ 180915Z AUTO 18006KT 5SM VCTS BR SCT036 SCT050 SCT080 21/20  A3007 RMK AO2 LTG DSNT W T02110197,,,,,,68.17,,S,29.42,27.93,,Thunder,Mist
KIGQ,08/18/2016 09:35 UTC,30.07,69.8,68.0,94.03,3.44,180.0,,31.0,,,,1.0,,,,5.0,,KIGQ 180935Z AUTO 18003KT 5SM BR CLR 21/20 A3007 RMK AO2 LTG DSNT  W T02100200,,,,,,67.99,,S,29.42,27.94,,Mist
KIGQ,08/18/2016 09:55 UTC,30.07,68.9,67.28,94.03,0.0,0.0,,31.0,,,,1.0,,,,4.0,,KIGQ 180955Z AUTO 00000KT 4SM BR CLR 21/20 A3007 RMK AO2 LTG DSNT  W AND NW T02050196,,,,,,67.1,,N,29.42,28.01,,Mist
KIGQ,08/18/2016 10:15 UTC,30.06,68.9,67.82,94.03,3.44,160.0,,31.0,,,,1.0,,,,4.0,,KIGQ 181015Z AUTO 16003KT 4SM BR CLR 21/20 A3006 RMK AO2 LTG DSNT  W T02050199,,,,,,67.1,,SSE,29.41,28.0,,Mist
KIGQ,08/18/2016 10:35 UTC,30.06,69.8,68.9,100.0,3.44,160.0,,31.0,,,,1.0,,,,5.0,,KIGQ 181035Z AUTO 16003KT 5SM BR CLR 21/21 A3006 RMK AO2 LTG DSNT  W AND NW T02100205,,,,,,69.8,,SSE,29.41,27.8,,Mist
KIGQ,08/18/2016 10:55 UTC,30.06,69.8,68.18,94.03,0.0,0.0,,31.0,,,,1.0,,,,5.0,,KIGQ 181055Z AUTO 00000KT 5SM BR CLR 21/20 A3006 RMK AO2 LTG DSNT  W AND NW T02100201,,,,,,67.99,,N,29.41,27.93,,Mist
KIGQ,08/18/2016 11:15 UTC,30.07,69.8,68.18,94.03,3.44,190.0,,31.0,,,,1.0,,,,4.0,,KIGQ 181115Z AUTO 19003KT 4SM BR CLR 21/20 A3007 RMK AO2 LTG DSNT  W THRU N T02100201,,,,,,67.99,,S,29.42,27.94,,Mist
KIGQ,08/18/2016 11:35 UTC,30.06,70.7,68.9,94.07,4.61,180.0,,2485.0,853.0,,,502.0,603.0,,,4.0,,KIGQ 181135Z AUTO 18004KT 4SM VCTS BR SCT050 BKN060 BKN085 22/21  A3006 RMK AO2 LTG DSNT N AND NW T02150205,,,6000.0,,,68.9,,S,29.41,27.86,,Thunder,Mist
KIGQ,08/18/2016 11:55 UTC,30.07,71.06,69.26,94.07,3.44,190.0,,2485.0,954.0,,,372.0,493.0,,,4.0,,KIGQ 181155Z AUTO 19003KT 4SM VCTS BR SCT037 BKN049 OVC095 22/21  A3007 RMK AO2 LTG DSNT N AND NW 7//// T02170207 10217  20205,71.06,68.9,4900.0,,,69.26,,S,29.42,27.83,,Thunder,Mist
KIGQ,08/18/2016 12:15 UTC,30.06,71.24,69.26,94.07,5.75,200.0,,2485.0,1104.0,,,52.0,363.0,,,4.0,,KIGQ 181215Z AUTO 20005KT 4SM VCTS BR SCT005 BKN036 OVC110 22/21  A3006 RMK AO2 LTG DSNT N AND NW T02180207,,,3600.0,,,69.44,,SSW,29.41,27.81,,Thunder,Mist
KIGQ,08/18/2016 12:35 UTC,30.07,71.6,69.62,94.07,6.91,260.0,,2485.0,1104.0,,,52.0,353.0,,,4.0,,KIGQ 181235Z AUTO 26006KT 4SM VCTS BR SCT005 BKN035 OVC110 22/21  A3007 RMK AO2 LTG DSNT NW THRU NE T02200209,,,3500.0,,,69.79,,W,29.42,27.79,,Thunder,Mist
KIGQ,08/18/2016 12:55 UTC,30.07,71.6,69.62,94.07,5.75,330.0,,2485.0,474.0,,,72.0,353.0,,,4.0,,KIGQ 181255Z AUTO 33005KT 4SM TS BR SCT007 BKN035 OVC047 22/21  A3007 RMK AO2 LTG DSNT W THRU NE T02200209,,,3500.0,,,69.79,,NNW,29.42,27.79,,Thunder,Mist
KIGQ,08/18/2016 13:15 UTC,30.08,72.14,69.8,94.07,12.66,310.0,17.27,78.0,,0.07,,73.0,164.0,,,2.0,,KIGQ 181315Z AUTO 31011G15KT 2SM +TSRA BKN007 OVC016 22/21  A3008 RMK AO2 LTG DSNT ALQS P0007 T02230210,,,700.0,,,70.33,,NW,29.43,27.75,,Heavy Rain/Thunderstorm
KIGQ,08/18/2016 13:35 UTC,30.07,72.68,64.94,73.5,5.75,220.0,,77.0,1004.0,0.46,,102.0,323.0,,,4.0,,KIGQ 181335Z AUTO 22005KT 4SM -TSRA SCT010 BKN032 OVC100 23/18  A3007 RMK AO2 LTG DSNT ALQS P0046 T02260183,,,3200.0,,,63.69,,SW,29.42,28.18,,Light Rain/Thunderstorm
KIGQ,08/18/2016 13:55 UTC,30.07,70.88,67.46,88.46,0.0,0.0,,5.0,1004.0,0.46,,372.0,803.0,,,10.0,,KIGQ 181355Z AUTO 00000KT 10SM TS SCT037 BKN080 OVC100 22/20  A3007 RMK AO2 LTG DSNT NE THRU SE P0046 T02160197,,,8000.0,,,67.28,,N,29.42,27.97,,Thunder
KIGQ,08/18/2016 14:15 UTC,30.08,71.06,68.18,88.46,4.61,50.0,,,1104.0,,,82.0,753.0,,,10.0,,KIGQ 181415Z AUTO 05004KT 10SM SCT008 BKN075 OVC110 22/20  A3008 RMK AO2 LTG DSNT NE THRU SW T02170201,,,7500.0,,,67.46,,NE,29.43,27.97,,Overcast
KIGQ,08/18/2016 14:35 UTC,30.08,71.6,68.18,88.46,0.0,0.0,,1.0,654.0,,,83.0,393.0,,,10.0,,KIGQ 181435Z AUTO 00000KT 10SM RA BKN008 BKN039 OVC065 22/20  A3008 RMK AO2 LTG DSNT E T02200201,,,800.0,,,67.99,,N,29.43,27.93,,Rain
KIGQ,08/18/2016 14:55 UTC,30.08,72.14,69.62,94.07,4.61,130.0,,2485.0,653.0,,0.46,82.0,462.0,,,5.0,,KIGQ 181455Z AUTO 13004KT 5SM TS BR SCT008 SCT046 BKN065 22/21  A3008 RMK AO2 LTG DSNT E THRU SW 60046 T02230209,,,6500.0,,,70.33,,SE,29.43,27.75,,Thunder,Mist
KIGQ,08/18/2016 15:35 UTC,30.08,71.78,68.9,94.07,8.05,200.0,,5.0,1103.0,,,62.0,702.0,,,10.0,,KIGQ 181535Z AUTO 20007KT 10SM TS SCT006 SCT070 BKN110 22/21  A3008 RMK AO2 LTG DSNT E THRU S T02210205,,,11000.0,,,69.97,,SSW,29.43,27.78,,Thunder
KIGQ,08/18/2016 15:55 UTC,30.07,72.14,69.08,94.07,8.05,200.0,,5.0,,,,1102.0,,,,10.0,,KIGQ 181555Z AUTO 20007KT 10SM VCTS SCT110 22/21 A3007 RMK AO2 LTG  DSNT E AND SE T02230206,,,,,,70.33,,SSW,29.42,27.74,,Thunder
KIGQ,08/18/2016 16:15 UTC,30.06,73.4,68.0,83.25,10.36,200.0,,,,,,1203.0,,,,10.0,,KIGQ 181615Z AUTO 20009KT 10SM BKN120 23/20 A3006,,,12000.0,,,67.99,,SSW,29.41,27.88,,Mostly Cloudy
KIGQ,08/18/2016 16:35 UTC,30.05,76.46,69.26,78.54,10.36,230.0,,,,,,1202.0,,,,10.0,,KIGQ 181635Z AUTO 23009KT 10SM SCT120 25/21 A3005 RMK AO2 LTG DSNT  SW T02470207,,,,,,69.27,,SW,29.4,27.74,,Partly Cloudy
KIGQ,08/18/2016 16:55 UTC,30.04,77.72,69.98,78.54,12.66,220.0,,,,,,1.0,,,,10.0,,KIGQ 181655Z AUTO 22011KT 10SM CLR 25/21 A3004 RMK AO2 LTG DSNT SW  T02540211,,,,,,70.5,,SW,29.39,27.62,,Clear
KIGQ,08/18/2016 17:15 UTC,30.04,77.72,70.7,83.48,11.5,230.0,,,,,,1.0,,,,10.0,,KIGQ 181715Z AUTO 23010KT 10SM CLR 25/22 A3004 RMK AO2  T02540215,,,,,,72.3,,SW,29.39,27.48,,Clear
KIGQ,08/18/2016 17:55 UTC,30.04,79.7,69.62,69.79,13.8,210.0,19.57,,,,,1.0,,0.46,,10.0,,KIGQ 181755Z AUTO 21012G17KT 10SM CLR 27/21 A3004 RMK AO2 60046  T02650209 10267 20214,80.06,70.52,,,,68.95,,SSW,29.39,27.71,,Clear
KIGQ,08/18/2016 18:15 UTC,30.03,80.42,71.78,74.19,9.22,210.0,16.11,,,,,1.0,,,,10.0,,KIGQ 181815Z AUTO 21008G14KT 10SM CLR 27/22 A3003 RMK AO2 LTG DSNT  S T02690221,,,,,,71.44,,SSW,29.38,27.5,84.24,Clear
KIGQ,08/18/2016 18:35 UTC,30.02,82.04,71.42,69.98,12.66,220.0,,,,,,1.0,,,,10.0,,KIGQ 181835Z AUTO 22011KT 10SM CLR 28/22 A3002 RMK AO2  T02780219,,,,,,71.28,,SW,29.37,27.48,86.51,Clear
KIGQ,08/18/2016 18:55 UTC,30.01,81.86,69.08,65.83,11.5,230.0,,,,,,1.0,,,,10.0,,KIGQ 181855Z AUTO 23010KT 10SM CLR 28/21 A3001 RMK AO2  T02770206,,,,,,69.31,,SW,29.36,27.63,85.32,Clear
KIGQ,08/18/2016 19:15 UTC,30.02,81.5,69.62,65.83,9.22,220.0,,,,,,1.0,,,,10.0,,KIGQ 181915Z AUTO 22008KT 10SM CLR 28/21 A3002 RMK AO2 LTG DSNT SE  T02750209,,,,,,68.97,,SW,29.37,27.67,84.73,Clear
KIGQ,08/18/2016 19:35 UTC,30.01,81.32,69.62,69.79,9.22,220.0,,,,,,1.0,,,,10.0,,KIGQ 181935Z AUTO 22008KT 10SM CLR 27/21 A3001 RMK AO2  T02740209,,,,,,70.51,,SW,29.36,27.54,85.15,Clear
KIGQ,08/18/2016 19:55 UTC,30.0,81.14,70.7,74.19,9.22,210.0,,5.0,,,,1.0,,,,10.0,,KIGQ 181955Z AUTO 21008KT 10SM VCTS CLR 27/22 A3000 RMK AO2 LTG  DSNT SE T02730215,,,,,,72.14,,SSW,29.35,27.4,85.63,Thunder
KIGQ,08/18/2016 20:15 UTC,30.0,80.78,70.52,69.79,5.75,210.0,,,,,,1.0,,,,10.0,,KIGQ 182015Z AUTO 21005KT 10SM CLR 27/21 A3000 RMK AO2 LTG DSNT SE  AND SW T02710214,,,,,,69.99,,SSW,29.35,27.58,84.21,Clear
KIGQ,08/18/2016 20:35 UTC,30.0,80.78,70.88,74.19,6.91,210.0,,,,,,1.0,,,,10.0,,KIGQ 182035Z AUTO 21006KT 10SM CLR 27/22 A3000 RMK AO2 LTG DSNT SE  T02710216,,,,,,71.79,,SSW,29.35,27.44,84.93,Clear
KIGQ,08/18/2016 21:15 UTC,30.0,80.06,71.6,74.19,6.91,190.0,,,,,,482.0,853.0,,,10.0,,KIGQ 182115Z AUTO 19006KT 10SM SCT048 BKN085 27/22 A3000 RMK AO2  LTG DSNT S T02670220,,,8500.0,,,71.09,,S,29.35,27.5,83.58,Mostly Cloudy
KIGQ,08/18/2016 21:35 UTC,29.99,79.88,72.5,78.82,5.75,200.0,,,903.0,,,482.0,753.0,,,10.0,,KIGQ 182135Z AUTO 20005KT 10SM SCT048 BKN075 BKN090 27/23  A2999 RMK AO2 LTG DSNT S T02660225,,,7500.0,,,72.71,,SSW,29.34,27.36,,Mostly Cloudy
KIGQ,08/18/2016 21:55 UTC,29.99,77.9,70.34,74.02,8.05,220.0,,13.0,603.0,,,442.0,503.0,,,7.0,,KIGQ 182155Z AUTO 22007KT 7SM -RA SCT044 BKN050 BKN060 26/21  A2999 RMK AO2 T02550213,,,5000.0,,,68.94,,SW,29.34,27.68,,Light Rain
KIGQ,08/18/2016 22:15 UTC,29.98,77.0,70.7,83.48,4.61,200.0,,,802.0,,,472.0,502.0,,,10.0,,KIGQ 182215Z AUTO 20004KT 10SM SCT047 SCT050 SCT080 25/22  A2998 RMK AO2 T02500215,,,,,,71.6,,SSW,29.33,27.48,,Partly Cloudy
KIGQ,08/18/2016 22:35 UTC,29.98,76.82,71.6,83.48,4.61,190.0,,,,,,493.0,,,,10.0,,KIGQ 182235Z AUTO 19004KT 10SM BKN049 25/22 A2998 RMK AO2 LTG DSNT  S T02490220,,,4900.0,,,71.42,,S,29.33,27.5,,Mostly Cloudy
KIGQ,08/18/2016 22:55 UTC,29.97,78.44,71.78,78.68,8.05,160.0,11.5,,,,,473.0,,,,10.0,,KIGQ 182255Z AUTO 16007G10KT 10SM BKN047 26/22 A2997 RMK AO2 LTG  DSNT SW T02580221,,,4700.0,,,71.25,,SSE,29.32,27.48,,Mostly Cloudy
KIGQ,08/18/2016 23:15 UTC,29.98,77.0,70.88,83.48,10.36,180.0,,,,,,453.0,,,,10.0,,KIGQ 182315Z AUTO 18009KT 10SM BKN045 25/22 A2998 RMK AO2  T02500216,,,4500.0,,,71.6,,S,29.33,27.48,,Mostly Cloudy
KIGQ,08/18/2016 23:35 UTC,29.96,75.2,70.88,88.62,6.91,190.0,,,,,,1.0,,,,10.0,,KIGQ 182335Z AUTO 19006KT 10SM CLR 24/22 A2996 RMK AO2  T02400216,,,,,,71.6,,S,29.31,27.49,,Clear
KIGQ,08/18/2016 23:55 UTC,29.96,74.3,68.9,83.37,6.91,180.0,,,,,,1.0,,,,10.0,,KIGQ 182355Z AUTO 18006KT 10SM CLR 24/21 A2996 RMK AO2 T02350205  10280 20235,82.4,74.3,,,,68.91,,S,29.31,27.7,,Clear
KIGQ,08/19/2016 00:15 UTC,29.97,73.58,68.0,83.25,8.05,190.0,,,,,,1.0,,,,10.0,,KIGQ 190015Z AUTO 19007KT 10SM CLR 23/20 A2997 RMK AO2 LTG DSNT W  T02310200,,,,,,68.17,,S,29.32,27.77,,Clear
KIGQ,08/19/2016 00:35 UTC,29.95,72.68,68.18,83.25,4.61,190.0,,,,,,1.0,,,,10.0,,KIGQ 190035Z AUTO 19004KT 10SM CLR 23/20 A2995 RMK AO2  T02260201,,,,,,67.28,,S,29.3,27.83,,Clear
KIGQ,08/19/2016 00:55 UTC,29.96,72.14,68.36,88.46,5.75,200.0,,,,,,1.0,,,,10.0,,KIGQ 190055Z AUTO 20005KT 10SM CLR 22/20 A2996 RMK AO2  T02230202,,,,,,68.52,,SSW,29.31,27.76,,Clear
KIGQ,08/19/2016 01:15 UTC,29.98,72.5,68.0,83.25,8.05,200.0,,,,,,323.0,,,,10.0,,KIGQ 190115Z AUTO 20007KT 10SM BKN032 23/20 A2998 RMK AO2 LTG DSNT  SW T02250200,,,3200.0,,,67.11,,SSW,29.33,27.87,,Mostly Cloudy
KIGQ,08/19/2016 01:35 UTC,29.96,71.6,67.28,88.46,5.75,170.0,,,,,,322.0,,,,10.0,,KIGQ 190135Z AUTO 17005KT 10SM SCT032 22/20 A2996 RMK AO2  T02200196,,,,,,67.99,,S,29.31,27.8,,Partly Cloudy
KIGQ,08/19/2016 01:55 UTC,29.98,71.06,66.74,83.13,4.61,190.0,,,,,,1.0,,,,10.0,,KIGQ 190155Z AUTO 19004KT 10SM CLR 22/19 A2998 RMK AO2  T02170193,,,,,,65.65,,S,29.33,27.99,,Clear
KIGQ,08/19/2016 02:15 UTC,29.98,70.7,66.38,83.13,5.75,180.0,,,,,,452.0,602.0,,,10.0,,KIGQ 190215Z AUTO 18005KT 10SM SCT045 SCT060 22/19 A2998 RMK AO2  LTG DSNT W T02150191,,,,,,65.3,,S,29.33,28.01,,Partly Cloudy
KIGQ,08/19/2016 02:35 UTC,29.99,71.24,65.48,83.13,6.91,200.0,,,603.0,,,383.0,443.0,,,10.0,,KIGQ 190235Z AUTO 20006KT 10SM BKN038 BKN044 BKN060 22/19  A2999 RMK AO2 T02180186,,,3800.0,,,65.83,,SSW,29.34,27.98,,Mostly Cloudy
KIGQ,08/19/2016 02:55 UTC,29.99,70.7,65.12,78.09,4.61,220.0,,,603.0,,,363.0,443.0,,,10.0,,KIGQ 190255Z AUTO 22004KT 10SM BKN036 BKN044 BKN060 22/18  A2999 RMK AO2 T02150184,,,3600.0,,,63.5,,SW,29.34,28.13,,Mostly Cloudy
KIGQ,08/19/2016 03:15 UTC,29.98,69.8,64.76,83.01,5.75,210.0,,,,,,362.0,,,,10.0,,KIGQ 190315Z AUTO 21005KT 10SM SCT036 21/18 A2998 RMK AO2  T02100182,,,,,,64.38,,SSW,29.33,28.08,,Partly Cloudy
KIGQ,08/19/2016 03:35 UTC,29.97,68.9,64.58,83.01,4.61,200.0,,,,,,1.0,,,,10.0,,KIGQ 190335Z AUTO 20004KT 10SM CLR 21/18 A2997 RMK AO2 LTG DSNT NW  T02050181,,,,,,63.5,,SSW,29.32,28.14,,Clear
KIGQ,08/19/2016 03:55 UTC,29.97,68.0,64.4,88.29,4.61,240.0,,,,,,1.0,,,,10.0,,KIGQ 190355Z AUTO 24004KT 10SM CLR 20/18 A2997 RMK AO2 LTG DSNT W  T02000180,,,,,,64.39,,WSW,29.32,28.1,,Clear
KIGQ,08/19/2016 04:15 UTC,29.97,68.54,64.58,88.29,0.0,0.0,,,,,,492.0,,,,10.0,,KIGQ 190415Z AUTO 00000KT 10SM SCT049 20/18 A2997 RMK AO2  T02030181,,,,,,64.92,,N,29.32,28.06,,Partly Cloudy
KIGQ,08/19/2016 04:35 UTC,29.98,68.54,64.58,88.29,5.75,210.0,,,603.0,,,422.0,493.0,,,10.0,,KIGQ 190435Z AUTO 21005KT 10SM SCT042 BKN049 BKN060 20/18  A2998 RMK AO2 T02030181,,,4900.0,,,64.92,,SSW,29.33,28.07,,Mostly Cloudy
KIGQ,08/19/2016 04:55 UTC,29.98,68.9,64.76,86.68,5.75,210.0,,,802.0,,,452.0,552.0,,,10.0,,KIGQ 190455Z AUTO 21005KT 10SM SCT045 SCT055 SCT080 21/18 A2998 RMK AO2 LTG DSNT W T02050182,,,,,,64.74,,SSW,29.33,28.07,,Partly Cloudy
KIGQ,08/19/2016 05:15 UTC,29.97,68.54,64.58,87.21,5.75,220.0,,,,,,552.0,,,,10.0,,KIGQ 190515Z AUTO 22005KT 10SM SCT055 20/18 A2997 RMK AO2 LTG DSNT  N T02030181,,,,,,64.56,,SW,29.32,28.08,,Partly Cloudy
KIGQ,08/19/2016 05:35 UTC,29.99,69.08,64.4,83.01,9.22,280.0,,,552.0,,,312.0,402.0,,,10.0,,KIGQ 190535Z AUTO 28008KT 10SM SCT031 SCT040 SCT055 21/18  A2999 RMK AO2 LTG DSNT NE AND W T02060180,,,,,,63.67,,W,29.34,28.15,,Partly Cloudy
KIGQ,08/19/2016 05:55 UTC,29.99,69.8,64.4,83.01,0.0,0.0,,,752.0,,,372.0,552.0,,,10.0,,KIGQ 190555Z AUTO 00000KT 10SM SCT037 SCT055 SCT075 21/18  A2999,,,,,,64.38,,N,29.34,28.09,,Partly Cloudy
KIGQ,08/19/2016 06:15 UTC,29.97,68.9,64.4,83.01,5.75,210.0,,,,,,1.0,,,,10.0,,KIGQ 190615Z AUTO 21005KT 10SM CLR 21/18 A2997 RMK AO2  T02050180,,,,,,63.5,,SSW,29.32,28.14,,Clear
KIGQ,08/19/2016 06:35 UTC,29.96,68.54,64.4,88.29,5.75,220.0,,,,,,1.0,,,,10.0,,KIGQ 190635Z AUTO 22005KT 10SM CLR 20/18 A2996 RMK AO2 LTG DSNT E  T02030180,,,,,,64.92,,SW,29.31,28.05,,Clear
KIGQ,08/19/2016 06:55 UTC,29.96,68.36,64.4,88.29,4.61,210.0,,,,,,1.0,,,,10.0,,KIGQ 190655Z AUTO 21004KT 10SM CLR 20/18 A2996 RMK AO2 LTG DSNT E  T02020180,,,,,,64.74,,SSW,29.31,28.06,,Clear
KIGQ,08/19/2016 07:15 UTC,29.96,68.36,64.58,88.29,6.91,230.0,,,,,,1.0,,,,10.0,,KIGQ 190715Z AUTO 23006KT 10SM CLR 20/18 A2996 RMK AO2  T02020181,,,,,,64.74,,SW,29.31,28.06,,Clear
KIGQ,08/19/2016 07:55 UTC,29.95,67.1,64.4,88.29,5.75,190.0,,,,,,1.0,,,,10.0,,KIGQ 190755Z AUTO 19005KT 10SM CLR 20/18 A2995 RMK AO2  T01950180,,,,,,63.5,,S,29.3,28.14,,Clear
KIGQ,08/19/2016 08:15 UTC,29.95,67.64,64.4,88.29,8.05,200.0,,,,,,1.0,,,,10.0,,KIGQ 190815Z AUTO 20007KT 10SM CLR 20/18 A2995 RMK AO2  T01980180,,,,,,64.03,,SSW,29.3,28.1,,Clear
KIGQ,08/19/2016 08:35 UTC,29.93,67.46,64.4,88.29,9.22,160.0,,,,,,1.0,,,,10.0,,KIGQ 190835Z AUTO 16008KT 10SM CLR 20/18 A2993 RMK AO2  T01970180,,,,,,63.85,,SSE,29.28,28.09,,Clear
KIGQ,08/19/2016 08:55 UTC,29.92,67.64,64.04,88.29,8.05,170.0,,,,,,1.0,,,,10.0,,KIGQ 190855Z AUTO 17007KT 10SM CLR 20/18 A2992 RMK AO2  T01980178,,,,,,64.03,,S,29.27,28.07,,Clear
KIGQ,08/19/2016 09:15 UTC,29.93,67.1,63.86,88.29,8.05,200.0,,,,,,1.0,,,,10.0,,KIGQ 190915Z AUTO 20007KT 10SM CLR 20/18 A2993 RMK AO2  T01950177,,,,,,63.5,,SSW,29.28,28.12,,Clear
KIGQ,08/19/2016 09:35 UTC,29.94,67.1,63.68,88.29,6.91,230.0,,,,,,1202.0,,,,10.0,,KIGQ 190935Z AUTO 23006KT 10SM SCT120 20/18 A2994 RMK AO2  T01950176,,,,,,63.5,,SW,29.29,28.13,,Partly Cloudy
KIGQ,08/19/2016 09:55 UTC,29.92,67.1,63.5,88.29,5.75,190.0,,,,,,1202.0,,,,10.0,,KIGQ 190955Z AUTO 19005KT 10SM SCT120 20/18 A2992 RMK AO2  T01950175,,,,,,63.5,,S,29.27,28.11,,Partly Cloudy
KIGQ,08/19/2016 10:15 UTC,29.92,67.1,63.5,88.29,4.61,190.0,,,,,,1202.0,,,,10.0,,KIGQ 191015Z AUTO 19004KT 10SM SCT120 20/18 A2992 RMK AO2  T01950175,,,,,,63.5,,S,29.27,28.11,,Partly Cloudy
KIGQ,08/19/2016 10:35 UTC,29.93,67.1,63.5,88.29,0.0,0.0,,,,,,1202.0,,,,10.0,,KIGQ 191035Z AUTO 00000KT 10SM SCT120 20/18 A2993 RMK AO2  T01950175,,,,,,63.5,,N,29.28,28.12,,Partly Cloudy
KIGQ,08/19/2016 10:55 UTC,29.93,67.1,63.5,88.29,0.0,0.0,,,,,,1.0,,,,10.0,,KIGQ 191055Z AUTO 00000KT 10SM CLR 20/18 A2993 RMK AO2  T01950175,,,,,,63.5,,N,29.28,28.12,,Clear
KIGQ,08/19/2016 11:15 UTC,29.94,67.46,63.5,88.29,3.44,310.0,,,,,,1.0,,,,10.0,,KIGQ 191115Z AUTO 31003KT 10SM CLR 20/18 A2994 RMK AO2  T01970175,,,,,,63.85,,NW,29.29,28.1,,Clear
KIGQ,08/19/2016 11:35 UTC,29.94,68.0,63.5,88.29,0.0,0.0,,,,,,1.0,,,,10.0,,KIGQ 191135Z AUTO 00000KT 10SM CLR 20/18 A2994 RMK AO2  T02000175,,,,,,64.39,,N,29.29,28.07,,Clear
KIGQ,08/19/2016 11:55 UTC,29.94,68.54,63.86,85.05,0.0,0.0,,,,,,1.0,,,0.46,10.0,,KIGQ 191155Z AUTO 00000KT 10SM CLR 20/18 A2994 RMK AO2 70046  T02030177 10211 20193,69.98,66.74,,,,63.84,,N,29.29,28.09,,Clear
KIGQ,08/19/2016 12:15 UTC,29.94,68.54,64.22,88.29,0.0,0.0,,,,,,1202.0,,,,10.0,,KIGQ 191215Z AUTO 00000KT 10SM SCT120 20/18 A2994 RMK AO2 LTG DSNT  NW T02030179,,,,,,64.92,,N,29.29,28.03,,Partly Cloudy
KIGQ,08/19/2016 12:35 UTC,29.94,68.54,64.04,88.29,3.44,170.0,,,,,,1203.0,,,,10.0,,KIGQ 191235Z AUTO 17003KT 10SM BKN120 20/18 A2994 RMK AO2  T02030178,,,12000.0,,,64.92,,S,29.29,28.03,,Mostly Cloudy
KIGQ,08/19/2016 12:55 UTC,29.95,69.08,64.4,83.01,0.0,0.0,,,,,,1102.0,,,,10.0,,KIGQ 191255Z AUTO 00000KT 10SM SCT110 21/18 A2995 RMK AO2  T02060180,,,,,,63.67,,N,29.3,28.1,,Partly Cloudy
KIGQ,08/19/2016 13:15 UTC,29.95,69.8,64.94,83.01,0.0,0.0,,,,,,1103.0,,,,10.0,,KIGQ 191315Z AUTO 00000KT 10SM BKN110 21/18 A2995 RMK AO2 LTG DSNT  NW T02100183,,,11000.0,,,64.38,,N,29.3,28.05,,Mostly Cloudy
KIGQ,08/19/2016 13:35 UTC,29.95,70.16,64.4,83.01,0.0,0.0,,,,,,1102.0,,,,10.0,,KIGQ 191335Z AUTO 00000KT 10SM SCT110 21/18 A2995 RMK AO2 LTG DSNT  N T02120180,,,,,,64.73,,N,29.3,28.03,,Partly Cloudy
KIGQ,08/19/2016 13:55 UTC,29.95,71.24,64.76,80.05,0.0,0.0,,,,,,1102.0,,,,10.0,,KIGQ 191355Z AUTO 00000KT 10SM SCT110 22/18 A2995 RMK AO2  T02180182,,,,,,64.74,,N,29.3,28.01,,Partly Cloudy
KIGQ,08/19/2016 14:15 UTC,29.94,72.86,66.38,78.24,3.44,190.0,,,,,,1.0,,,,10.0,,KIGQ 191415Z AUTO 19003KT 10SM CLR 23/19 A2994 RMK AO2  T02270191,,,,,,65.66,,S,29.29,27.92,,Clear
KIGQ,08/19/2016 14:35 UTC,29.96,75.92,66.2,73.67,8.05,250.0,,,,,,1002.0,,,,10.0,,KIGQ 191435Z AUTO 25007KT 10SM SCT100 24/19 A2996 RMK AO2 LTG DSNT  N T02440190,,,,,,66.88,,WSW,29.31,27.82,,Partly Cloudy
KIGQ,08/19/2016 14:55 UTC,29.96,77.0,65.66,69.4,9.22,250.0,,,,,,553.0,903.0,,,10.0,,KIGQ 191455Z AUTO 25008KT 10SM BKN055 BKN090 25/19 A2996 RMK AO2  T02500187,,,5500.0,,,66.19,,WSW,29.31,27.86,,Mostly Cloudy
KIGQ,08/19/2016 15:15 UTC,29.96,78.98,66.92,65.41,9.22,250.0,,,1203.0,,,552.0,1002.0,,,10.0,,KIGQ 191515Z AUTO 25008KT 10SM SCT055 SCT100 BKN120 26/19  A2996 RMK AO2 LTG DSNT NW THRU NE T02610194,,,12000.0,,,66.38,,WSW,29.31,27.82,,Mostly Cloudy
KIGQ,08/19/2016 15:55 UTC,29.96,80.24,67.46,65.62,11.5,270.0,17.27,5.0,1004.0,,,443.0,503.0,,,10.0,,KIGQ 191555Z AUTO 27010G15KT 10SM VCTS BKN044 BKN050 OVC100 27/20  A2996 RMK AO2 LTG DSNT NW THRU NE T02680197,,,4400.0,,,67.67,,W,29.31,27.71,82.78,Thunder
KIGQ,08/19/2016 16:35 UTC,29.99,70.16,65.12,83.01,9.22,80.0,,13.0,1204.0,,,252.0,603.0,,,10.0,,KIGQ 191635Z AUTO 08008KT 10SM -RA SCT025 BKN060 OVC120 21/18  A2999 RMK AO2 LTG DSNT NE AND E T02120184,,,6000.0,,,64.73,,E,29.34,28.07,,Light Rain
KIGQ,08/19/2016 16:55 UTC,29.97,69.08,65.3,88.37,8.05,100.0,,,,,,603.0,1204.0,,,10.0,,KIGQ 191655Z AUTO 10007KT 10SM BKN060 OVC120 21/19 A2997 RMK AO2  LTG DSNT E AND S T02060185,,,6000.0,,,65.48,,E,29.32,28.01,,Overcast
KIGQ,08/19/2016 17:15 UTC,29.98,69.8,66.2,88.37,6.91,120.0,,,,,,602.0,752.0,,,10.0,,KIGQ 191715Z AUTO 12006KT 10SM SCT060 SCT075 21/19 A2998,,,,,,66.19,,ESE,29.33,27.97,,Partly Cloudy
KIGQ,08/19/2016 17:35 UTC,29.96,70.7,65.66,83.13,5.75,140.0,,,,,,1.0,,,,10.0,,KIGQ 191735Z AUTO 14005KT 10SM CLR 22/19 A2996 RMK AO2 LTG DSNT SE  T02150187,,,,,,65.3,,SE,29.31,27.99,,Clear
KIGQ,08/19/2016 17:55 UTC,29.94,70.88,66.02,83.13,8.05,150.0,,,,,,1.0,,,,10.0,,KIGQ 191755Z AUTO 15007KT 10SM CLR 22/19 A2994 RMK AO2 T02160189  10274 20201,81.32,68.18,,,,65.48,,SSE,29.29,27.96,,Clear
KIGQ,08/19/2016 18:15 UTC,29.94,72.68,66.92,78.24,9.22,150.0,,,,,,1.0,,,,10.0,,KIGQ 191815Z AUTO 15008KT 10SM CLR 23/19 A2994 RMK AO2 LTG DSNT S  T02260194,,,,,,65.48,,SSE,29.29,27.94,,Clear
KIGQ,08/19/2016 18:55 UTC,29.91,74.84,66.56,73.67,4.61,120.0,,,,,,1.0,,,,10.0,,KIGQ 191855Z AUTO 12004KT 10SM CLR 24/19 A2991 RMK AO2 LTG DSNT S  T02380192,,,,,,65.84,,ESE,29.26,27.85,,Clear
KIGQ,08/19/2016 19:15 UTC,29.91,75.56,67.1,78.39,5.75,150.0,,,,,,1.0,,,,10.0,,KIGQ 191915Z AUTO 15005KT 10SM CLR 24/20 A2991 RMK AO2 LTG DSNT SE  THRU SW T02420195,,,,,,68.34,,SSE,29.26,27.67,,Clear
KIGQ,08/19/2016 19:35 UTC,29.93,74.3,65.66,73.67,5.75,170.0,,,,,,1.0,,,,10.0,,KIGQ 191935Z AUTO 17005KT 10SM CLR 24/19 A2993 RMK AO2 LTG DSNT S  T02350187,,,,,,65.32,,S,29.28,27.92,,Clear
KIGQ,08/19/2016 19:55 UTC,29.92,74.3,65.66,73.67,5.75,170.0,,,,,,1.0,,,,10.0,,KIGQ 191955Z AUTO 17005KT 10SM CLR 24/19 A2992 RMK AO2  T02350187,,,,,,65.32,,S,29.27,27.91,,Clear
KIGQ,08/19/2016 20:15 UTC,29.92,74.48,66.92,73.67,8.05,200.0,,,,,,1.0,,,,10.0,,KIGQ 192015Z AUTO 20007KT 10SM CLR 24/19 A2992 RMK AO2  T02360194,,,,,,65.49,,SSW,29.27,27.89,,Clear
KIGQ,08/19/2016 20:35 UTC,29.91,76.1,67.1,73.85,10.36,190.0,,,,,,1.0,,,,10.0,,KIGQ 192035Z AUTO 19009KT 10SM CLR 25/20 A2991 RMK AO2 LTG DSNT S  AND SW T02450195,,,,,,67.13,,S,29.26,27.75,,Clear
KIGQ,08/19/2016 20:55 UTC,29.9,77.72,66.2,69.4,6.91,190.0,,,,,,1.0,,,,10.0,,KIGQ 192055Z AUTO 19006KT 10SM CLR 25/19 A2990 RMK AO2  T02540190,,,,,,66.89,,S,29.25,27.74,,Clear
KIGQ,08/19/2016 21:15 UTC,29.9,77.72,66.02,69.4,8.05,200.0,,,,,,1.0,,,,10.0,,KIGQ 192115Z AUTO 20007KT 180V330 10SM CLR 25/19 A2990 RMK AO2  T02540189,,,,,,66.89,,SSW,29.25,27.74,,Clear
KIGQ,08/19/2016 21:35 UTC,29.88,79.16,66.74,65.41,8.05,170.0,,,,,,1.0,,,,10.0,,KIGQ 192135Z AUTO 17007KT 010V190 10SM CLR 26/19 A2988 RMK AO2  T02620193,,,,,,66.55,,S,29.23,27.72,,Clear
KIGQ,08/19/2016 21:55 UTC,29.88,79.52,67.28,69.6,9.22,190.0,,,,,,1.0,,,,10.0,,KIGQ 192155Z AUTO 19008KT 10SM CLR 26/20 A2988 RMK AO2  T02640196,,,,,,68.7,,S,29.23,27.57,,Clear
KIGQ,08/19/2016 22:15 UTC,29.87,79.7,68.0,65.62,6.91,190.0,,,,,,1.0,,,,10.0,,KIGQ 192215Z AUTO 19006KT 10SM CLR 27/20 A2987 RMK AO2  T02650200,,,,,,67.16,,S,29.22,27.67,,Clear
KIGQ,08/19/2016 22:35 UTC,29.86,80.06,66.38,61.67,8.05,210.0,,,,,,1.0,,,,10.0,,KIGQ 192235Z AUTO 21007KT 10SM CLR 27/19 A2986 RMK AO2  T02670191,,,,,,65.7,,SSW,29.21,27.75,82.07,Clear
KIGQ,08/19/2016 22:55 UTC,29.85,80.06,67.82,65.62,6.91,210.0,,,,,,1.0,,,,10.0,,KIGQ 192255Z AUTO 21006KT 10SM CLR 27/20 A2985 RMK AO2  T02670199,,,,,,67.5,,SSW,29.2,27.62,82.52,Clear
KIGQ,08/19/2016 23:15 UTC,29.85,79.7,67.46,65.62,6.91,200.0,,,,,,1.0,,,,10.0,,KIGQ 192315Z AUTO 20006KT 10SM CLR 27/20 A2985 RMK AO2  T02650197,,,,,,67.16,,SSW,29.2,27.65,,Clear
KIGQ,08/19/2016 23:35 UTC,29.85,78.8,67.28,69.6,6.91,200.0,,,,,,1.0,,,,10.0,,KIGQ 192335Z AUTO 20006KT 10SM CLR 26/20 A2985 RMK AO2  T02600196,,,,,,68.01,,SSW,29.2,27.6,,Clear
KIGQ,08/20/2016 00:35 UTC,29.86,75.2,68.18,78.39,3.44,220.0,,,,,,1.0,,,,10.0,,KIGQ 200035Z AUTO 22003KT 10SM CLR 24/20 A2986 RMK AO2  T02400201,,,,,,67.99,,SW,29.21,27.65,,Clear
KIGQ,08/20/2016 00:55 UTC,29.85,72.5,67.28,83.25,6.91,190.0,,,,,,1.0,,,,10.0,,KIGQ 200055Z AUTO 19006KT 10SM CLR 23/20 A2985 RMK AO2  T02250196,,,,,,67.11,,S,29.2,27.74,,Clear
KIGQ,08/20/2016 01:15 UTC,29.86,71.6,67.28,88.46,5.75,200.0,,,,,,1.0,,,,10.0,,KIGQ 200115Z AUTO 20005KT 10SM CLR 22/20 A2986 RMK AO2  T02200196,,,,,,67.99,,SSW,29.21,27.7,,Clear
KIGQ,08/20/2016 01:35 UTC,29.86,70.7,66.2,83.13,5.75,180.0,,,,,,1.0,,,,10.0,,KIGQ 200135Z AUTO 18005KT 10SM CLR 22/19 A2986 RMK AO2  T02150190,,,,,,65.3,,S,29.21,27.89,,Clear
KIGQ,08/20/2016 01:55 UTC,29.87,70.7,66.38,83.13,6.91,180.0,,,,,,1.0,,,,10.0,,KIGQ 200155Z AUTO 18006KT 10SM CLR 22/19 A2987 RMK AO2  T02150191,,,,,,65.3,,S,29.22,27.9,,Clear
KIGQ,08/20/2016 02:15 UTC,29.87,70.88,67.1,88.46,6.91,190.0,,,,,,1.0,,,,10.0,,KIGQ 200215Z AUTO 19006KT 10SM CLR 22/20 A2987 RMK AO2  T02160195,,,,,,67.28,,S,29.22,27.77,,Clear
KIGQ,08/20/2016 02:35 UTC,29.87,70.88,66.74,83.13,4.61,190.0,,,,,,1.0,,,,10.0,,KIGQ 200235Z AUTO 19004KT 10SM CLR 22/19 A2987 RMK AO2  T02160193,,,,,,65.48,,S,29.22,27.89,,Clear
KIGQ,08/20/2016 02:55 UTC,29.87,70.52,66.92,88.37,3.44,200.0,,,,,,1.0,,,,10.0,,KIGQ 200255Z AUTO 20003KT 10SM CLR 21/19 A2987 RMK AO2  T02140194,,,,,,66.9,,SSW,29.22,27.8,,Clear
KIGQ,08/20/2016 03:15 UTC,29.87,70.34,67.1,94.03,0.0,0.0,,,,,,1.0,,,,10.0,,KIGQ 200315Z AUTO 00000KT 10SM CLR 21/20 A2987 RMK AO2  T02130195,,,,,,68.53,,N,29.22,27.69,,Clear
KIGQ,08/20/2016 03:35 UTC,29.87,71.6,67.46,88.46,0.0,0.0,,,,,,1.0,,,,10.0,,KIGQ 200335Z AUTO 00000KT 10SM CLR 22/20 A2987 RMK AO2  T02200197,,,,,,67.99,,N,29.22,27.71,,Clear
KIGQ,08/20/2016 03:55 UTC,29.87,71.42,67.64,88.46,0.0,0.0,,,,,,1.0,,,,10.0,,KIGQ 200355Z AUTO 00000KT 10SM CLR 22/20 A2987 RMK AO2  T02190198,,,,,,67.81,,N,29.22,27.73,,Clear
KIGQ,08/20/2016 04:15 UTC,29.86,70.7,67.28,88.46,0.0,0.0,,,,,,1.0,,,,10.0,,KIGQ 200415Z AUTO 00000KT 10SM CLR 22/20 A2986 RMK AO2  T02150196,,,,,,67.1,,N,29.21,27.77,,Clear
KIGQ,08/20/2016 04:35 UTC,29.85,69.08,66.38,88.37,3.44,130.0,,,,,,1.0,,,,10.0,,KIGQ 200435Z AUTO 13003KT 10SM CLR 21/19 A2985 RMK AO2  T02060191,,,,,,65.48,,SE,29.2,27.89,,Clear
KIGQ,08/20/2016 04:55 UTC,29.85,70.16,67.46,94.03,5.75,140.0,,,,,,1.0,,,,10.0,,KIGQ 200455Z AUTO 14005KT 10SM CLR 21/20 A2985 RMK AO2  T02120197,,,,,,68.35,,SE,29.2,27.69,,Clear
KIGQ,08/20/2016 05:15 UTC,29.84,70.88,68.0,88.46,4.61,160.0,,,,,,1.0,,,,10.0,,KIGQ 200515Z AUTO 16004KT 10SM CLR 22/20 A2984 RMK AO2  T02160200,,,,,,67.28,,SSE,29.19,27.74,,Clear
KIGQ,08/20/2016 05:35 UTC,29.85,70.7,67.64,88.46,5.75,180.0,,,,,,1.0,,,,10.0,,KIGQ 200535Z AUTO 18005KT 10SM CLR 22/20 A2985 RMK AO2  T02150198,,,,,,67.1,,S,29.2,27.76,,Clear
KIGQ,08/20/2016 05:55 UTC,29.85,69.08,66.56,88.37,4.61,170.0,,,,,,1.0,,,,10.0,,KIGQ 200555Z AUTO 17004KT 10SM CLR 21/19 A2985 RMK AO2 T02060192  10250 20206 402740193,77.0,69.08,,81.32,66.74,65.48,,S,29.2,27.89,,Clear
KIGQ,08/20/2016 06:15 UTC,29.85,69.08,66.74,88.37,5.75,170.0,,,,,,1.0,,,,7.0,,KIGQ 200615Z AUTO 17005KT 7SM CLR 21/19 A2985 RMK AO2  T02060193,,,,,,65.48,,S,29.2,27.89,,Clear
KIGQ,08/20/2016 06:35 UTC,29.85,69.26,67.1,94.03,4.61,170.0,,,,,,1202.0,,,,10.0,,KIGQ 200635Z AUTO 17004KT 10SM SCT120 21/20 A2985 RMK AO2  T02070195,,,,,,67.46,,S,29.2,27.76,,Partly Cloudy
KIGQ,08/20/2016 06:55 UTC,29.84,70.16,68.0,94.03,4.61,170.0,,,,,,1.0,,,,10.0,,KIGQ 200655Z AUTO 17004KT 10SM CLR 21/20 A2984 RMK AO2  T02120200,,,,,,68.35,,S,29.19,27.68,,Clear
KIGQ,08/20/2016 07:15 UTC,29.83,70.16,67.64,94.03,4.61,140.0,,,,,,1.0,,,,10.0,,KIGQ 200715Z AUTO 14004KT 10SM CLR 21/20 A2983 RMK AO2  T02120198,,,,,,68.35,,SE,29.18,27.67,,Clear
KIGQ,08/20/2016 07:35 UTC,29.83,70.7,68.0,88.46,4.61,160.0,,,,,,1.0,,,,7.0,,KIGQ 200735Z AUTO 16004KT 7SM CLR 22/20 A2983 RMK AO2  T02150200,,,,,,67.1,,SSE,29.18,27.74,,Clear
KIGQ,08/20/2016 07:55 UTC,29.83,70.34,67.82,94.03,4.61,160.0,,,,,,1.0,,,,7.0,,KIGQ 200755Z AUTO 16004KT 7SM CLR 21/20 A2983 RMK AO2  T02130199,,,,,,68.53,,SSE,29.18,27.65,,Clear
KIGQ,08/20/2016 08:15 UTC,29.82,70.7,68.0,88.46,5.75,150.0,,,,,,1.0,,,,7.0,,KIGQ 200815Z AUTO 15005KT 7SM CLR 22/20 A2982 RMK AO2  T02150200,,,,,,67.1,,SSE,29.17,27.73,,Clear
KIGQ,08/20/2016 08:35 UTC,29.81,70.34,67.64,94.03,5.75,160.0,,,,,,1.0,,,,7.0,,KIGQ 200835Z AUTO 16005KT 7SM CLR 21/20 A2981 RMK AO2  T02130198,,,,,,68.53,,SSE,29.16,27.63,,Clear
KIGQ,08/20/2016 08:55 UTC,29.81,70.88,68.0,88.46,5.75,150.0,,,,,,342.0,,,,7.0,,KIGQ 200855Z AUTO 15005KT 7SM SCT034 22/20 A2981 RMK AO2  T02160200,,,,,,67.28,,SSE,29.16,27.71,,Partly Cloudy
KIGQ,08/20/2016 09:15 UTC,29.79,70.7,67.64,88.46,6.91,150.0,,,,,,363.0,,,,7.0,,KIGQ 200915Z AUTO 15006KT 7SM BKN036 22/20 A2979 RMK AO2  T02150198,,,3600.0,,,67.1,,SSE,29.14,27.7,,Mostly Cloudy
KIGQ,08/20/2016 09:35 UTC,29.78,70.34,67.82,94.03,8.05,160.0,,,,,,362.0,,,,7.0,,KIGQ 200935Z AUTO 16007KT 7SM SCT036 21/20 A2978 RMK AO2  T02130199,,,,,,68.53,,SSE,29.13,27.6,,Partly Cloudy
KIGQ,08/20/2016 09:55 UTC,29.77,70.7,68.0,88.46,6.91,160.0,,,333.0,,,92.0,243.0,,,7.0,,KIGQ 200955Z AUTO 16006KT 7SM SCT009 BKN024 BKN033 22/20 A2977 RMK AO2 LTG DSNT W T02150200,,,2400.0,,,67.1,,SSE,29.12,27.68,,Mostly Cloudy
KIGQ,08/20/2016 10:15 UTC,29.76,70.88,68.18,88.46,6.91,160.0,,,704.0,,,92.0,423.0,,,10.0,,KIGQ 201015Z AUTO 16006KT 10SM SCT009 BKN042 OVC070 22/20  A2976 RMK AO2 T02160201,,,4200.0,,,67.28,,SSE,29.11,27.66,,Overcast
KIGQ,08/20/2016 10:35 UTC,29.76,71.42,68.54,88.46,6.91,160.0,,,654.0,,,92.0,403.0,,,10.0,,KIGQ 201035Z AUTO 16006KT 10SM SCT009 BKN040 OVC065 22/20  A2976 RMK AO2 T02190203,,,4000.0,,,67.81,,SSE,29.11,27.62,,Overcast
KIGQ,08/20/2016 10:55 UTC,29.75,71.24,68.36,88.46,6.91,160.0,,,653.0,,,92.0,422.0,,,10.0,,KIGQ 201055Z AUTO 16006KT 10SM SCT009 SCT042 BKN065 22/20  A2975 RMK AO2 T02180202,,,6500.0,,,67.64,,SSE,29.1,27.62,,Mostly Cloudy
KIGQ,08/20/2016 11:15 UTC,29.74,71.24,68.36,88.46,6.91,160.0,,,653.0,,,92.0,553.0,,,10.0,,KIGQ 201115Z AUTO 16006KT 10SM SCT009 BKN055 BKN065 22/20  A2974 RMK AO2 T02180202,,,5500.0,,,67.64,,SSE,29.09,27.61,,Mostly Cloudy
KIGQ,08/20/2016 11:35 UTC,29.74,71.6,68.54,88.46,8.05,160.0,,,503.0,,,93.0,393.0,,,10.0,,KIGQ 201135Z AUTO 16007KT 10SM BKN009 BKN039 BKN050 22/20  A2974 RMK AO2 LTG DSNT W T02200203,,,900.0,,,67.99,,SSE,29.09,27.58,,Mostly Cloudy
KIGQ,08/20/2016 11:55 UTC,29.74,71.6,68.9,94.07,9.22,160.0,,,,,,73.0,404.0,,,10.0,,KIGQ 201155Z AUTO 16008KT 140V200 10SM BKN007 OVC040 22/21  A2974 RMK AO2 T02200205 10220 20205,71.6,68.9,700.0,,,69.79,,SSE,29.09,27.45,,Overcast
KIGQ,08/20/2016 12:15 UTC,29.72,71.78,68.9,94.07,12.66,160.0,18.41,,,,,73.0,404.0,,,10.0,,KIGQ 201215Z AUTO 16011G16KT 10SM BKN007 OVC040 22/21 A2972 RMK AO2 T02210205,,,700.0,,,69.97,,SSE,29.07,27.42,,Overcast
KIGQ,08/20/2016 12:35 UTC,29.71,72.5,69.26,88.54,10.36,170.0,,,,,,74.0,,,,10.0,,KIGQ 201235Z AUTO 17009KT 10SM OVC007 23/21 A2971 RMK AO2 LTG DSNT  W AND NW T02250207,,,700.0,,,68.91,,S,29.06,27.47,,Overcast
KIGQ,08/20/2016 12:55 UTC,29.7,72.5,69.26,88.54,13.8,160.0,,,,,,74.0,,,,7.0,,KIGQ 201255Z AUTO 16012KT 7SM OVC007 23/21 A2970 RMK AO2 LTG DSNT  W T02250207,,,700.0,,,68.91,,SSE,29.05,27.46,,Overcast
KIGQ,08/20/2016 13:15 UTC,29.68,72.68,69.62,88.54,12.66,160.0,18.41,,,,,74.0,,,,5.0,,KIGQ 201315Z AUTO 16011G16KT 5SM -VCTSRA OVC007 23/21 A2968 RMK AO2 LTG DSNT W AND NW T02260209,,,700.0,,,69.08,,SSE,29.03,27.43,,Overcast
KIGQ,08/20/2016 13:35 UTC,29.68,72.5,69.8,88.54,14.97,180.0,,13.0,,,,74.0,,,,5.0,,KIGQ 201335Z AUTO 18013KT 5SM -RA OVC007 23/21 A2968 RMK AO2 LTG  DSNT N T02250210,,,700.0,,,68.91,,S,29.03,27.44,,Light Rain
KIGQ,08/20/2016 13:55 UTC,29.67,72.5,69.98,88.54,11.5,170.0,,5.0,,0.01,,74.0,,,,7.0,,KIGQ 201355Z AUTO 17010KT 7SM VCTS OVC007 23/21 A2967 RMK AO2 LTG  DSNT SW THRU N P0001 T02250211,,,700.0,,,68.91,,S,29.02,27.43,,Thunder
KIGQ,08/20/2016 14:15 UTC,29.67,72.14,69.8,94.07,10.36,190.0,20.71,78.0,,0.4,,74.0,,,,0.75,,KIGQ 201415Z AUTO 19009G18KT 3/4SM +TSRA OVC007 22/21 A2967 RMK AO2 LTG DSNT S P0040 T02230210,,,700.0,,,70.33,,S,29.02,27.33,,Heavy Rain/Thunderstorm
KIGQ,08/20/2016 14:35 UTC,29.67,72.5,70.16,88.54,12.66,190.0,,13.0,,0.41,,54.0,,,,4.0,,KIGQ 201435Z AUTO 19011KT 4SM -RA OVC005 23/21 A2967 RMK AO2 LTG  DSNT N P0041 T02250212,,,500.0,,,68.91,,S,29.02,27.43,,Light Rain
KIGQ,08/20/2016 14:55 UTC,29.67,72.5,70.34,88.54,13.8,190.0,18.41,14.0,,0.49,0.5,54.0,,,,2.0,,KIGQ 201455Z AUTO 19012G16KT 2SM +RA OVC005 23/21 A2967 RMK AO2  P0049 60050 T02250213,,,500.0,,,68.91,,S,29.02,27.43,,Heavy Rain
KIGQ,08/20/2016 15:15 UTC,29.66,72.5,70.34,88.54,6.91,230.0,,14.0,,0.14,,54.0,,,,2.0,,KIGQ 201515Z AUTO 23006KT 2SM +RA OVC005 23/21 A2966 RMK AO2 LTG  DSNT N AND NE P0014 T02250213,,,500.0,,,68.91,,SW,29.02,27.43,,Heavy Rain
KIGQ,08/20/2016 15:35 UTC,29.67,69.44,67.28,94.03,12.66,180.0,17.27,14.0,184.0,0.47,,53.0,113.0,,,1.25,,KIGQ 201535Z AUTO 18011G15KT 1 1/4SM +RA BKN005 BKN011 OVC018  21/20 A2967 RMK AO2 LTG DSNT N AND NE P0047 T02080196,,,500.0,,,67.64,,S,29.02,27.56,,Heavy Rain
KIGQ,08/20/2016 15:55 UTC,29.66,69.44,67.28,94.03,8.05,200.0,,14.0,804.0,0.57,,132.0,703.0,,,4.0,,KIGQ 201555Z AUTO 20007KT 4SM +RA SCT013 BKN070 OVC080 21/20  A2966 RMK AO2 P0057 T02080196,,,7000.0,,,67.64,,SSW,29.02,27.56,,Heavy Rain
KIGQ,08/20/2016 16:15 UTC,29.66,70.34,68.36,94.03,5.75,210.0,,13.0,904.0,0.01,,252.0,553.0,,,10.0,,KIGQ 201615Z AUTO 21005KT 10SM -RA SCT025 BKN055 OVC090 21/20  A2966 RMK AO2 LTG DSNT NE P0001 T02130202,,,5500.0,,,68.53,,SSW,29.02,27.49,,Light Rain
KIGQ,08/20/2016 16:35 UTC,29.66,72.68,69.62,88.54,11.5,210.0,,,1104.0,0.01,,342.0,503.0,,,10.0,,KIGQ 201635Z AUTO 21010KT 10SM SCT034 BKN050 OVC110 23/21  A2966 RMK AO2 LTG DSNT NE AND SE P0001 T02260209,,,5000.0,,,69.08,,SSW,29.02,27.42,,Overcast
KIGQ,08/20/2016 16:55 UTC,29.65,74.84,69.98,83.37,12.66,200.0,,,803.0,0.01,,342.0,603.0,,,10.0,,KIGQ 201655Z AUTO 20011KT 10SM SCT034 BKN060 BKN080 24/21  A2965 RMK AO2 LTG DSNT NE P0001 T02380211,,,6000.0,,,69.44,,SSW,29.01,27.35,,Mostly Cloudy
KIGQ,08/20/2016 17:20 UTC,29.64,76.46,69.8,78.54,11.5,220.0,,,804.0,,,162.0,703.0,,,10.0,,KIGQ 201720Z AUTO 22010KT 10SM SCT016 BKN070 OVC080 25/21  A2964 RMK AO2 T02470210,,,7000.0,,,69.27,,SW,29.0,27.33,,Overcast
KIGQ,08/20/2016 17:35 UTC,29.64,76.28,68.72,73.85,12.66,230.0,19.57,,804.0,,,202.0,703.0,,,10.0,,KIGQ 201735Z AUTO 23011G17KT 10SM SCT020 BKN070 OVC080 25/20  A2964 RMK AO2 T02460204,,,7000.0,,,67.3,,SW,29.0,27.47,,Overcast
KIGQ,08/20/2016 18:00 UTC,29.64,76.1,69.08,78.54,12.66,240.0,,,504.0,,,203.0,263.0,,,10.0,,KIGQ 201800Z AUTO 24011KT 10SM BKN020 BKN026 OVC050 25/21  A2964 RMK AO2 LTG DSNT SE T02450206,,,2000.0,,,68.92,,WSW,29.0,27.36,,Overcast
KIGQ,08/20/2016 18:15 UTC,29.64,76.82,67.46,73.85,12.66,240.0,17.27,,554.0,,,212.0,273.0,,,10.0,,KIGQ 201815Z AUTO 24011G15KT 10SM SCT021 BKN027 OVC055 25/20  A2964 RMK AO2 T02490197,,,2700.0,,,67.82,,WSW,29.0,27.43,,Overcast
KIGQ,08/20/2016 18:35 UTC,29.63,78.8,69.26,74.02,13.8,230.0,18.41,,553.0,,,232.0,273.0,,,10.0,,KIGQ 201835Z AUTO 23012G16KT 10SM SCT023 BKN027 BKN055 26/21  A2963 RMK AO2 LTG DSNT SE T02600207,,,2700.0,,,69.81,,SW,28.99,27.25,,Mostly Cloudy
KIGQ,08/20/2016 18:55 UTC,29.63,77.54,68.9,78.54,16.11,250.0,,,954.0,,,232.0,363.0,,,10.0,,KIGQ 201855Z AUTO 25014KT 10SM SCT023 BKN036 OVC095 25/21  A2963 RMK AO2 LTG DSNT S T02530205,,,3600.0,,,70.32,,WSW,28.99,27.23,,Overcast
KIGQ,08/20/2016 19:15 UTC,29.63,78.08,68.36,69.6,13.8,250.0,19.57,,702.0,,,342.0,402.0,,,10.0,,KIGQ 201915Z AUTO 25012G17KT 10SM SCT034 SCT040 SCT070 26/20  A2963 RMK AO2 T02560202,,,,,,67.31,,WSW,28.99,27.44,,Partly Cloudy
KIGQ,08/20/2016 19:35 UTC,29.62,78.26,67.64,69.6,12.66,270.0,20.71,,703.0,,,242.0,322.0,,,10.0,,KIGQ 201935Z AUTO 27011G18KT 10SM SCT024 SCT032 BKN070 26/20  A2962 RMK AO2 LTG DSNT SE T02570198,,,7000.0,,,67.49,,W,28.98,27.42,,Mostly Cloudy
KIGQ,08/20/2016 19:55 UTC,29.63,77.54,67.1,73.85,12.66,250.0,23.02,,413.0,,,262.0,302.0,,,10.0,,KIGQ 201955Z AUTO 25011G20KT 10SM SCT026 SCT030 BKN041 25/20  A2963 RMK AO2 T02530195,,,4100.0,,,68.52,,WSW,28.99,27.36,,Mostly Cloudy
KIGQ,08/20/2016 20:15 UTC,29.62,75.74,68.18,78.39,12.66,280.0,18.41,,604.0,,,242.0,323.0,,,10.0,,KIGQ 202015Z AUTO 28011G16KT 10SM SCT024 BKN032 OVC060 24/20  A2962 RMK AO2 T02430201,,,3200.0,,,68.52,,W,28.98,27.37,,Overcast
KIGQ,08/20/2016 20:35 UTC,29.62,77.18,66.38,69.4,14.97,250.0,23.02,,,,,652.0,1202.0,,,10.0,,KIGQ 202035Z AUTO 25013G20KT 10SM SCT065 SCT120 25/19 A2962 RMK AO2 T02510191,,,,,,66.37,,WSW,28.98,27.51,,Partly Cloudy
KIGQ,08/20/2016 20:55 UTC,29.62,78.08,67.46,69.6,12.66,260.0,,,1102.0,,,282.0,342.0,,,10.0,,KIGQ 202055Z AUTO 26011KT 10SM SCT028 SCT034 SCT110 26/20  A2962 RMK AO2 T02560197,,,,,,67.31,,W,28.98,27.43,,Partly Cloudy
KIGQ,08/20/2016 21:15 UTC,29.62,78.26,65.66,65.41,14.97,270.0,23.02,,,,,323.0,403.0,,,10.0,,KIGQ 202115Z AUTO 27013G20KT 10SM BKN032 BKN040 26/19 A2962 RMK AO2 T02570187,,,3200.0,,,65.69,,W,28.98,27.54,,Mostly Cloudy
KIGQ,08/20/2016 21:35 UTC,29.63,76.64,65.12,65.2,18.41,270.0,28.77,,414.0,,,283.0,353.0,,,10.0,,KIGQ 202135Z AUTO 27016G25KT 10SM BKN028 BKN035 OVC041 25/18  A2963 RMK AO2 T02480184,,,2800.0,,,64.05,,W,28.99,27.67,,Overcast
KIGQ,08/20/2016 21:55 UTC,29.63,76.46,64.94,65.2,17.27,270.0,23.02,,484.0,,,282.0,352.0,,,10.0,,KIGQ 202155Z AUTO 27015G20KT 10SM SCT028 SCT035 OVC048 25/18  A2963 RMK AO2 T02470183,,,4800.0,,,63.88,,W,28.99,27.69,,Overcast
KIGQ,08/20/2016 22:15 UTC,29.63,77.72,64.58,65.2,16.11,270.0,23.02,,,,,342.0,483.0,,,10.0,,KIGQ 202215Z AUTO 27014G20KT 10SM SCT034 BKN048 25/18 A2963 RMK AO2 T02540181,,,4800.0,,,65.08,,W,28.99,27.6,,Mostly Cloudy
KIGQ,08/20/2016 22:35 UTC,29.64,77.36,64.94,65.2,11.5,280.0,,,603.0,,,342.0,482.0,,,10.0,,KIGQ 202235Z AUTO 28010KT 10SM SCT034 SCT048 BKN060 25/18  A2964 RMK AO2 T02520183,,,6000.0,,,64.74,,W,29.0,27.63,,Mostly Cloudy
KIGQ,08/20/2016 22:55 UTC,29.65,74.3,64.76,69.21,17.27,280.0,26.46,,604.0,,,292.0,493.0,,,10.0,,KIGQ 202255Z AUTO 28015G23KT 10SM SCT029 BKN049 OVC060 24/18  A2965 RMK AO2 T02350182,,,4900.0,,,63.52,,W,29.01,27.75,,Overcast
KIGQ,08/20/2016 23:15 UTC,29.65,74.12,64.22,73.5,17.27,270.0,24.16,,603.0,,,402.0,492.0,,,10.0,,KIGQ 202315Z AUTO 27015G21KT 10SM SCT040 SCT049 BKN060 23/18  A2965 RMK AO2 T02340179,,,6000.0,,,65.08,,W,29.01,27.66,,Mostly Cloudy
KIGQ,08/20/2016 23:35 UTC,29.66,70.88,66.2,83.13,12.66,280.0,28.77,13.0,553.0,0.01,,202.0,332.0,,,4.0,,KIGQ 202335Z AUTO 28011G25KT 4SM -RA SCT020 SCT033 BKN055 22/19  A2966 RMK AO2 P0001 T02160190,,,5500.0,,,65.48,,W,29.02,27.68,,Light Rain
KIGQ,08/20/2016 23:55 UTC,29.67,69.8,64.76,83.01,11.5,290.0,18.41,,754.0,0.01,,482.0,653.0,0.01,,10.0,,KIGQ 202355Z AUTO 29010G16KT 10SM SCT048 BKN065 OVC075 21/18  A2967 RMK AO2 P0001 60001 T02100182 10261 20210,78.98,69.8,6500.0,,,64.38,,WNW,29.02,27.77,,Overcast
KIGQ,08/21/2016 00:15 UTC,29.68,69.8,63.68,83.01,9.22,280.0,17.27,,,,,653.0,954.0,,,10.0,,KIGQ 210015Z AUTO 28008G15KT 10SM BKN065 OVC095 21/18 A2968 RMK AO2 T02100176,,,6500.0,,,64.38,,W,29.03,27.78,,Overcast
KIGQ,08/21/2016 00:35 UTC,29.69,69.08,62.96,77.94,5.75,290.0,,,,,,752.0,952.0,,,10.0,,KIGQ 210035Z AUTO 29005KT 10SM SCT075 SCT095 21/17 A2969 RMK AO2  T02060172,,,,,,61.87,,WNW,29.04,27.94,,Partly Cloudy
KIGQ,08/21/2016 00:55 UTC,29.69,68.36,62.42,82.89,4.61,290.0,,,,,,1.0,,,,10.0,,KIGQ 210055Z AUTO 29004KT 10SM CLR 20/17 A2969 RMK AO2  T02020169,,,,,,62.93,,WNW,29.04,27.89,,Clear
KIGQ,08/21/2016 01:15 UTC,29.7,68.0,62.24,82.89,3.44,280.0,,,,,,1.0,,,,10.0,,KIGQ 210115Z AUTO 28003KT 10SM CLR 20/17 A2970 RMK AO2  T02000168,,,,,,62.57,,W,29.05,27.93,,Clear
KIGQ,08/21/2016 01:35 UTC,29.71,66.74,62.6,88.2,3.44,230.0,,,,,,1.0,,,,10.0,,KIGQ 210135Z AUTO 23003KT 10SM CLR 19/17 A2971 RMK AO2  T01930170,,,,,,63.11,,SW,29.06,27.92,,Clear
KIGQ,08/21/2016 01:55 UTC,29.72,65.66,62.06,88.2,4.61,250.0,,,,,,1.0,,,,10.0,,KIGQ 210155Z AUTO 25004KT 10SM CLR 19/17 A2972 RMK AO2  T01870167,,,,,,62.05,,WSW,29.07,28.01,,Clear
KIGQ,08/21/2016 02:15 UTC,29.73,66.02,60.8,82.77,3.44,230.0,,,,,,1.0,,,,10.0,,KIGQ 210215Z AUTO 23003KT 10SM CLR 19/16 A2973 RMK AO2  T01890160,,,,,,60.6,,SW,29.08,28.09,,Clear
KIGQ,08/21/2016 02:35 UTC,29.73,65.3,61.16,82.77,4.61,240.0,,,,,,1.0,,,,10.0,,KIGQ 210235Z AUTO 24004KT 10SM CLR 19/16 A2973 RMK AO2  T01850162,,,,,,59.89,,WSW,29.08,28.14,,Clear
KIGQ,08/21/2016 02:55 UTC,29.74,65.48,60.98,82.77,0.0,0.0,,,,,,1.0,,,,10.0,,KIGQ 210255Z AUTO 00000KT 10SM CLR 19/16 A2974 RMK AO2  T01860161,,,,,,60.07,,N,29.09,28.14,,Clear
KIGQ,08/21/2016 03:15 UTC,29.75,66.02,60.26,82.77,9.22,270.0,,,,,,1.0,,,,10.0,,KIGQ 210315Z AUTO 27008KT 10SM CLR 19/16 A2975 RMK AO2  T01890157,,,,,,60.6,,W,29.1,28.11,,Clear
KIGQ,08/21/2016 03:35 UTC,29.75,65.48,59.9,82.77,5.75,270.0,,,,,,1.0,,,,10.0,,KIGQ 210335Z AUTO 27005KT 10SM CLR 19/16 A2975 RMK AO2  T01860155,,,,,,60.07,,W,29.1,28.15,,Clear
KIGQ,08/21/2016 03:55 UTC,29.75,64.76,59.72,82.65,5.75,270.0,,,,,,1.0,,,,10.0,,KIGQ 210355Z AUTO 27005KT 10SM CLR 18/15 A2975 RMK AO2  T01820154,,,,,,59.32,,W,29.1,28.19,,Clear
KIGQ,08/21/2016 04:15 UTC,29.76,64.76,58.64,82.65,5.75,280.0,,,,,,1.0,,,,10.0,,KIGQ 210415Z AUTO 28005KT 10SM CLR 18/15 A2976 RMK AO2  T01820148,,,,,,59.32,,W,29.11,28.21,,Clear
KIGQ,08/21/2016 04:35 UTC,29.76,64.4,58.1,82.65,5.75,290.0,,,,,,1.0,,,,10.0,,KIGQ 210435Z AUTO 29005KT 10SM CLR 18/15 A2976 RMK AO2  T01800145,,,,,,58.97,,WNW,29.11,28.23,,Clear
KIGQ,08/21/2016 04:55 UTC,29.76,63.5,57.74,77.48,4.61,260.0,,,,,,1.0,,,,10.0,,KIGQ 210455Z AUTO 26004KT 10SM CLR 18/14 A2976 RMK AO2  T01750143,,,,,,56.28,,W,29.11,28.37,,Clear
KIGQ,08/21/2016 05:15 UTC,29.77,62.96,57.38,82.52,4.61,250.0,,,,,,1.0,,,,10.0,,KIGQ 210515Z AUTO 25004KT 10SM CLR 17/14 A2977 RMK AO2  T01720141,,,,,,57.51,,WSW,29.12,28.33,,Clear
KIGQ,08/21/2016 05:35 UTC,29.77,62.06,57.02,82.52,6.91,280.0,,,,,,1.0,,,,10.0,,KIGQ 210535Z AUTO 28006KT 10SM CLR 17/14 A2977 RMK AO2  T01670139,,,,,,56.63,,W,29.12,28.38,,Clear
KIGQ,08/21/2016 05:55 UTC,29.77,62.96,57.2,82.52,6.91,270.0,,,,,,1.0,,,,10.0,,KIGQ 210555Z AUTO 27006KT 10SM CLR 17/14 A2977 RMK AO2 T01720140  10211 20167 402610167,69.98,62.06,,78.98,62.06,57.51,,W,29.12,28.33,,Clear
KIGQ,08/21/2016 06:15 UTC,29.77,62.24,57.2,82.52,6.91,260.0,,,,,,1.0,,,,10.0,,KIGQ 210615Z AUTO 26006KT 10SM CLR 17/14 A2977 RMK AO2  T01680140,,,,,,56.81,,W,29.12,28.37,,Clear
KIGQ,08/21/2016 06:35 UTC,29.78,61.52,56.84,87.94,6.91,250.0,,,,,,1.0,,,,10.0,,KIGQ 210635Z AUTO 25006KT 10SM CLR 16/14 A2978 RMK AO2  T01640138,,,,,,57.88,,WSW,29.13,28.34,,Clear
KIGQ,08/21/2016 06:55 UTC,29.78,61.34,56.66,87.94,5.75,250.0,,,,,,1.0,,,,10.0,,KIGQ 210655Z AUTO 25005KT 10SM CLR 16/14 A2978 RMK AO2  T01630137,,,,,,57.71,,WSW,29.13,28.35,,Clear
KIGQ,08/21/2016 07:15 UTC,29.78,61.52,57.02,87.94,5.75,260.0,,,,,,1.0,,,,10.0,,KIGQ 210715Z AUTO 26005KT 10SM CLR 16/14 A2978 RMK AO2  T01640139,,,,,,57.88,,W,29.13,28.34,,Clear
KIGQ,08/21/2016 07:35 UTC,29.78,60.8,56.66,87.94,5.75,250.0,,,,,,1.0,,,,10.0,,KIGQ 210735Z AUTO 25005KT 10SM CLR 16/14 A2978 RMK AO2  T01600137,,,,,,57.17,,WSW,29.13,28.38,,Clear
KIGQ,08/21/2016 07:55 UTC,29.79,60.44,56.48,87.94,5.75,240.0,,,,,,1.0,,,,10.0,,KIGQ 210755Z AUTO 24005KT 10SM CLR 16/14 A2979 RMK AO2  T01580136,,,,,,56.82,,WSW,29.14,28.41,,Clear
KIGQ,08/21/2016 08:15 UTC,29.8,60.26,56.3,87.94,4.61,230.0,,,,,,1.0,,,,10.0,,KIGQ 210815Z AUTO 23004KT 10SM CLR 16/14 A2980 RMK AO2  T01570135,,,,,,56.64,,SW,29.15,28.43,,Clear
KIGQ,08/21/2016 08:35 UTC,29.8,59.0,56.12,87.85,5.75,230.0,,,,,,1.0,,,,10.0,,KIGQ 210835Z AUTO 23005KT 10SM CLR 15/13 A2980 RMK AO2  T01500134,,,,,,55.37,,SW,29.15,28.5,,Clear
KIGQ,08/21/2016 08:55 UTC,29.8,59.72,56.48,93.75,5.75,250.0,,,,,,1.0,,,,10.0,,KIGQ 210855Z AUTO 25005KT 10SM CLR 15/14 A2980 RMK AO2  T01540136,,,,,,57.9,,WSW,29.15,28.38,,Clear
KIGQ,08/21/2016 09:15 UTC,29.8,59.72,56.3,93.75,4.61,250.0,,,,,,1.0,,,,10.0,,KIGQ 210915Z AUTO 25004KT 10SM CLR 15/14 A2980 RMK AO2  T01540135,,,,,,57.9,,WSW,29.15,28.38,,Clear
KIGQ,08/21/2016 09:35 UTC,29.81,59.54,56.3,93.75,6.91,250.0,,,,,,1.0,,,,10.0,,KIGQ 210935Z AUTO 25006KT 10SM CLR 15/14 A2981 RMK AO2  T01530135,,,,,,57.72,,WSW,29.16,28.4,,Clear
KIGQ,08/21/2016 09:55 UTC,29.81,59.36,55.94,87.85,6.91,250.0,,,,,,1.0,,,,10.0,,KIGQ 210955Z AUTO 25006KT 10SM CLR 15/13 A2981 RMK AO2  T01520133,,,,,,55.73,,WSW,29.16,28.49,,Clear
KIGQ,08/21/2016 10:15 UTC,29.82,59.0,55.58,87.85,4.61,250.0,,,,,,1.0,,,,10.0,,KIGQ 211015Z AUTO 25004KT 10SM CLR 15/13 A2982 RMK AO2  T01500131,,,,,,55.37,,WSW,29.17,28.52,,Clear
KIGQ,08/21/2016 10:35 UTC,29.82,58.46,55.4,87.85,4.61,240.0,,,,,,1.0,,,,10.0,,KIGQ 211035Z AUTO 24004KT 10SM CLR 15/13 A2982 RMK AO2  T01470130,,,,,,54.84,,WSW,29.17,28.55,,Clear
KIGQ,08/21/2016 10:55 UTC,29.83,58.1,55.22,87.85,4.61,260.0,,,,,,1.0,,,,10.0,,KIGQ 211055Z AUTO 26004KT 10SM CLR 15/13 A2983 RMK AO2  T01450129,,,,,,54.48,,W,29.18,28.58,,Clear
KIGQ,08/21/2016 11:15 UTC,29.84,58.1,55.04,87.85,3.44,240.0,,,,,,1.0,,,,10.0,,KIGQ 211115Z AUTO 24003KT 10SM CLR 15/13 A2984 RMK AO2  T01450128,,,,,,54.48,,WSW,29.19,28.59,,Clear
KIGQ,08/21/2016 11:35 UTC,29.84,58.1,55.4,87.85,4.61,240.0,,,,,,1.0,,,,10.0,,KIGQ 211135Z AUTO 24004KT 10SM CLR 15/13 A2984 RMK AO2  T01450130,,,,,,54.48,,WSW,29.19,28.59,,Clear
KIGQ,08/21/2016 11:55 UTC,29.86,59.0,55.94,87.85,5.75,250.0,,,,,,1.0,,,1.11,10.0,,KIGQ 211155Z AUTO 25005KT 10SM CLR 15/13 A2986 RMK AO2 70111  T01500133 10172 20144,62.96,57.92,,,,55.37,,WSW,29.21,28.56,,Clear
KIGQ,08/21/2016 12:15 UTC,29.86,60.08,56.3,87.94,6.91,260.0,,,,,,1.0,,,,10.0,,KIGQ 211215Z AUTO 26006KT 10SM CLR 16/14 A2986 RMK AO2  T01560135,,,,,,56.46,,W,29.21,28.5,,Clear
KIGQ,08/21/2016 12:35 UTC,29.87,60.98,56.66,87.94,10.36,260.0,,,,,,1.0,,,,10.0,,KIGQ 211235Z AUTO 26009KT 10SM CLR 16/14 A2987 RMK AO2  T01610137,,,,,,57.35,,W,29.22,28.46,,Clear
KIGQ,08/21/2016 12:55 UTC,29.88,61.88,57.02,82.52,10.36,270.0,,,,,,102.0,,,,10.0,,KIGQ 211255Z AUTO 27009KT 10SM SCT010 17/14 A2988 RMK AO2  T01660139,,,,,,56.46,,W,29.23,28.5,,Partly Cloudy
KIGQ,08/21/2016 13:15 UTC,29.88,62.42,57.02,82.52,9.22,290.0,,,,,,123.0,,,,10.0,,KIGQ 211315Z AUTO 29008KT 10SM BKN012 17/14 A2988 RMK AO2  T01690139,,,1200.0,,,56.99,,WNW,29.23,28.47,,Mostly Cloudy
KIGQ,08/21/2016 13:35 UTC,29.89,61.7,57.02,82.52,9.22,280.0,,,,,,124.0,,,,10.0,,KIGQ 211335Z AUTO 28008KT 10SM OVC012 17/14 A2989 RMK AO2  T01650139,,,1200.0,,,56.28,,W,29.24,28.52,,Overcast
KIGQ,08/21/2016 13:55 UTC,29.9,61.88,56.12,77.33,10.36,280.0,,,,,,144.0,,,,10.0,,KIGQ 211355Z AUTO 28009KT 10SM OVC014 17/13 A2990 RMK AO2  T01660134,,,1400.0,,,54.65,,W,29.25,28.6,,Overcast
KIGQ,08/21/2016 14:15 UTC,29.91,62.96,56.3,82.52,12.66,290.0,16.11,,,,,163.0,204.0,,,10.0,,KIGQ 211415Z AUTO 29011G14KT 10SM BKN016 OVC020 17/14 A2991 RMK AO2 T01720135,,,1600.0,,,57.51,,WNW,29.26,28.47,,Overcast
KIGQ,08/21/2016 14:35 UTC,29.91,64.04,56.48,77.48,8.05,300.0,,,,,,184.0,,,,10.0,,KIGQ 211435Z AUTO 30007KT 10SM OVC018 18/14 A2991 RMK AO2  T01780136,,,1800.0,,,56.81,,WNW,29.26,28.49,,Overcast
KIGQ,08/21/2016 14:55 UTC,29.92,64.4,55.94,72.6,11.5,290.0,17.27,,,,,184.0,,,,10.0,,KIGQ 211455Z AUTO 29010G15KT 10SM OVC018 18/13 A2992 RMK AO2  T01800133,,,1800.0,,,55.35,,WNW,29.27,28.56,,Overcast
KIGQ,08/21/2016 15:15 UTC,29.92,65.48,56.3,72.78,6.91,290.0,,,,,,203.0,263.0,,,10.0,,KIGQ 211515Z AUTO 29006KT 10SM BKN020 BKN026 19/14 A2992 RMK AO2  T01860135,,,2000.0,,,56.46,,WNW,29.27,28.5,,Mostly Cloudy
KIGQ,08/21/2016 15:35 UTC,29.93,66.74,56.48,72.78,9.22,270.0,,,,,,222.0,,,,10.0,,KIGQ 211535Z AUTO 27008KT 10SM SCT022 19/14 A2993 RMK AO2  T01930136,,,,,,57.67,,W,29.28,28.44,,Partly Cloudy
KIGQ,08/21/2016 15:55 UTC,29.93,65.84,55.22,68.2,9.22,300.0,,,,,,243.0,,,,10.0,,KIGQ 211555Z AUTO 30008KT 10SM BKN024 19/13 A2993 RMK AO2  T01880129,,,2400.0,,,55.0,,WNW,29.28,28.57,,Mostly Cloudy
KIGQ,08/21/2016 16:15 UTC,29.94,68.0,56.66,68.41,9.22,280.0,,,,,,263.0,,,,10.0,,KIGQ 211615Z AUTO 28008KT 10SM BKN026 20/14 A2994 RMK AO2  T02000137,,,2600.0,,,57.15,,W,29.29,28.46,,Mostly Cloudy
KIGQ,08/21/2016 16:35 UTC,29.94,69.08,56.84,64.32,11.5,270.0,17.27,,,,,283.0,343.0,,,10.0,,KIGQ 211635Z AUTO 27010G15KT 10SM BKN028 BKN034 21/14 A2994 RMK AO2 T02060138,,,2800.0,,,56.47,,W,29.29,28.48,,Mostly Cloudy
KIGQ,08/21/2016 16:55 UTC,29.95,68.54,56.48,68.41,10.36,280.0,16.11,,,,,292.0,353.0,,,10.0,,KIGQ 211655Z AUTO 28009G14KT 10SM SCT029 BKN035 20/14 A2995 RMK AO2 T02030136,,,3500.0,,,57.67,,W,29.3,28.44,,Mostly Cloudy
KIGQ,08/21/2016 17:15 UTC,29.95,69.98,56.3,64.32,10.36,280.0,,,,,,333.0,433.0,,,10.0,,KIGQ 211715Z AUTO 28009KT 10SM BKN033 BKN043 21/14 A2995 RMK AO2  T02110135,,,3300.0,,,57.33,,W,29.3,28.44,,Mostly Cloudy
KIGQ,08/21/2016 17:35 UTC,29.95,71.06,56.12,56.7,5.75,290.0,9.22,,,,,332.0,412.0,,,10.0,,KIGQ 211735Z AUTO 29005G08KT 10SM SCT033 SCT041 22/13 A2995 RMK AO2 T02170134,,,,,,54.85,,WNW,29.3,28.55,,Partly Cloudy
KIGQ,08/21/2016 17:55 UTC,29.96,70.34,54.86,60.27,8.05,310.0,,,,,,372.0,433.0,,,10.0,,KIGQ 211755Z AUTO 31007KT 10SM SCT037 BKN043 21/13 A2996 RMK AO2  T02130127 10220 20151,71.6,59.18,4300.0,,,55.86,,NW,29.31,28.52,,Mostly Cloudy
KIGQ,08/21/2016 18:15 UTC,29.96,72.14,54.86,56.7,13.8,270.0,18.41,,,,,392.0,453.0,,,10.0,,KIGQ 211815Z AUTO 27012G16KT 10SM SCT039 BKN045 22/13 A2996 RMK AO2 T02230127,,,4500.0,,,55.86,,W,29.31,28.5,,Mostly Cloudy
KIGQ,08/21/2016 18:35 UTC,29.96,72.86,56.12,53.36,10.36,290.0,,,,,,412.0,502.0,,,10.0,,KIGQ 211835Z AUTO 29009KT 10SM SCT041 SCT050 23/13 A2996 RMK AO2  T02270134,,,,,,54.86,,WNW,29.31,28.54,,Partly Cloudy
KIGQ,08/21/2016 18:55 UTC,29.96,73.04,55.76,53.36,10.36,290.0,,,,,,412.0,482.0,,,10.0,,KIGQ 211855Z AUTO 29009KT 10SM SCT041 SCT048 23/13 A2996 RMK AO2  T02280132,,,,,,55.03,,WNW,29.31,28.53,,Partly Cloudy
KIGQ,08/21/2016 19:15 UTC,29.96,73.22,54.86,53.36,11.5,270.0,17.27,,,,,433.0,503.0,,,10.0,,KIGQ 211915Z AUTO 27010G15KT 10SM BKN043 BKN050 23/13 A2996 RMK AO2 T02290127,,,4300.0,,,55.2,,W,29.31,28.52,,Mostly Cloudy
KIGQ,08/21/2016 19:35 UTC,29.97,71.42,53.06,53.1,8.05,300.0,,,,,,452.0,502.0,,,10.0,,KIGQ 211935Z AUTO 30007KT 10SM SCT045 SCT050 22/12 A2997 RMK AO2  T02190117,,,,,,53.38,,WNW,29.32,28.63,,Partly Cloudy
KIGQ,08/21/2016 19:55 UTC,29.97,71.96,53.06,53.1,5.75,290.0,,,,,,502.0,702.0,,,10.0,,KIGQ 211955Z AUTO 29005KT 10SM SCT050 SCT070 22/12 A2997 RMK AO2  T02220117,,,,,,53.89,,WNW,29.32,28.61,,Partly Cloudy
KIGQ,08/21/2016 20:15 UTC,29.97,74.3,52.52,44.05,16.11,280.0,25.32,,,,,502.0,702.0,,,10.0,,KIGQ 212015Z AUTO 28014G22KT 10SM SCT050 SCT070 24/11 A2997 RMK AO2 T02350114,,,,,,50.96,,W,29.32,28.71,,Partly Cloudy
KIGQ,08/21/2016 20:35 UTC,29.97,73.4,51.62,46.78,11.5,280.0,17.27,,,,,502.0,702.0,,,10.0,,KIGQ 212035Z AUTO 28010G15KT 10SM SCT050 SCT070 23/11 A2997 RMK AO2 T02300109,,,,,,51.76,,W,29.32,28.69,,Partly Cloudy
KIGQ,08/21/2016 20:55 UTC,29.97,74.66,53.96,47.06,10.36,280.0,,,,,,1.0,,,,10.0,,KIGQ 212055Z AUTO 28009KT 10SM CLR 24/12 A2997 RMK AO2  T02370122,,,,,,53.08,,W,29.32,28.62,,Clear
KIGQ,08/21/2016 21:15 UTC,29.97,74.12,51.44,46.78,12.66,300.0,18.41,,,,,802.0,,,,10.0,,KIGQ 212115Z AUTO 30011G16KT 10SM SCT080 23/11 A2997 RMK AO2  T02340108,,,,,,52.42,,WNW,29.32,28.65,,Partly Cloudy
KIGQ,08/21/2016 21:35 UTC,29.97,74.48,51.44,44.05,6.91,300.0,23.02,,853.0,,,602.0,802.0,,,10.0,,KIGQ 212135Z AUTO 30006G20KT 10SM SCT060 SCT080 BKN085 24/11  A2997 RMK AO2 T02360108,,,8500.0,,,51.12,,WNW,29.32,28.71,,Mostly Cloudy
KIGQ,08/21/2016 21:55 UTC,29.98,73.94,51.44,46.78,6.91,310.0,,,803.0,,,602.0,703.0,,,10.0,,KIGQ 212155Z AUTO 31006KT 10SM SCT060 BKN070 BKN080 23/11  A2998 RMK AO2 T02330108,,,7000.0,,,52.26,,NW,29.33,28.67,,Mostly Cloudy
KIGQ,08/21/2016 22:15 UTC,29.98,71.96,51.08,49.7,5.75,310.0,,,902.0,,,602.0,702.0,,,10.0,,KIGQ 212215Z AUTO 31005KT 10SM SCT060 SCT070 SCT090 22/11  A2998 RMK AO2 T02220106,,,,,,52.08,,NW,29.33,28.7,,Partly Cloudy
KIGQ,08/21/2016 22:35 UTC,29.99,72.14,51.62,49.7,8.05,300.0,,,,,,1.0,,,,10.0,,KIGQ 212235Z AUTO 30007KT 10SM CLR 22/11 A2999 RMK AO2  T02230109,,,,,,52.25,,WNW,29.34,28.7,,Clear
KIGQ,08/21/2016 22:55 UTC,29.99,71.42,51.26,49.7,8.05,300.0,,,,,,902.0,,,,10.0,,KIGQ 212255Z AUTO 30007KT 10SM SCT090 22/11 A2999 RMK AO2  T02190107,,,,,,51.58,,WNW,29.34,28.73,,Partly Cloudy
KIGQ,08/21/2016 23:15 UTC,29.99,71.06,51.8,49.7,4.61,290.0,,,,,,902.0,,,,10.0,,KIGQ 212315Z AUTO 29004KT 10SM SCT090 22/11 A2999 RMK AO2  T02170110,,,,,,51.25,,WNW,29.34,28.75,,Partly Cloudy
KIGQ,08/21/2016 23:35 UTC,29.99,72.32,52.34,49.7,5.75,290.0,,,,,,1.0,,,,10.0,,KIGQ 212335Z AUTO 29005KT 10SM CLR 22/11 A2999 RMK AO2  T02240113,,,,,,52.41,,WNW,29.34,28.69,,Clear
KIGQ,08/21/2016 23:55 UTC,30.0,70.88,51.62,49.7,6.91,290.0,,,,,,1.0,,,,10.0,,KIGQ 212355Z AUTO 29006KT 10SM CLR 22/11 A3000 RMK AO2 T02160109  10238 20214,74.84,70.52,,,,51.08,,WNW,29.35,28.77,,Clear
KIGQ,08/22/2016 00:15 UTC,30.0,69.98,50.54,49.43,6.91,280.0,,,,,,1.0,,,,10.0,,KIGQ 220015Z AUTO 28006KT 10SM CLR 21/10 A3000 RMK AO2  T02110103,,,,,,50.1,,W,29.35,28.81,,Clear
KIGQ,08/22/2016 00:35 UTC,30.01,68.36,51.08,56.19,5.75,290.0,,,,,,1.0,,,,10.0,,KIGQ 220035Z AUTO 29005KT 10SM CLR 20/11 A3001 RMK AO2  T02020106,,,,,,52.07,,WNW,29.36,28.76,,Clear
KIGQ,08/22/2016 00:55 UTC,30.01,67.46,51.26,56.19,3.44,300.0,,,,,,1.0,,,,10.0,,KIGQ 220055Z AUTO 30003KT 10SM CLR 20/11 A3001 RMK AO2  T01970107,,,,,,51.23,,WNW,29.36,28.8,,Clear
KIGQ,08/22/2016 01:15 UTC,30.02,66.2,51.08,59.79,4.61,280.0,,,,,,1.0,,,,10.0,,KIGQ 220115Z AUTO 28004KT 10SM CLR 19/11 A3002 RMK AO2  T01900106,,,,,,51.73,,W,29.37,28.8,,Clear
KIGQ,08/22/2016 01:35 UTC,30.03,66.2,51.08,59.79,3.44,290.0,,,,,,1.0,,,,10.0,,KIGQ 220135Z AUTO 29003KT 10SM CLR 19/11 A3003 RMK AO2  T01900106,,,,,,51.73,,WNW,29.38,28.81,,Clear
KIGQ,08/22/2016 01:55 UTC,30.04,65.66,51.08,59.79,3.44,290.0,,,,,,1.0,,,,10.0,,KIGQ 220155Z AUTO 29003KT 10SM CLR 19/11 A3004 RMK AO2  T01870106,,,,,,51.22,,WNW,29.39,28.85,,Clear
KIGQ,08/22/2016 02:15 UTC,30.04,65.12,51.62,63.64,0.0,0.0,,,,,,1.0,,,,10.0,,KIGQ 220215Z AUTO 00000KT 10SM CLR 18/11 A3004 RMK AO2  T01840109,,,,,,52.41,,N,29.39,28.8,,Clear
KIGQ,08/22/2016 02:35 UTC,30.05,61.16,53.96,77.17,0.0,0.0,,,,,,1.0,,,,10.0,,KIGQ 220235Z AUTO 00000KT 10SM CLR 16/12 A3005 RMK AO2  T01620122,,,,,,53.9,,N,29.4,28.79,,Clear
KIGQ,08/22/2016 02:55 UTC,30.06,61.34,52.88,77.17,0.0,0.0,,,,,,1.0,,,,10.0,,KIGQ 220255Z AUTO 00000KT 10SM CLR 16/12 A3006 RMK AO2  T01630116,,,,,,54.07,,N,29.41,28.79,,Clear
KIGQ,08/22/2016 03:15 UTC,30.06,60.98,53.06,77.17,0.0,0.0,,,,,,1.0,,,,10.0,,KIGQ 220315Z AUTO 00000KT 10SM CLR 16/12 A3006 RMK AO2  T01610117,,,,,,53.72,,N,29.41,28.81,,Clear
KIGQ,08/22/2016 03:35 UTC,30.07,58.46,52.88,82.27,0.0,0.0,,,,,,1.0,,,,10.0,,KIGQ 220335Z AUTO 00000KT 10SM CLR 15/12 A3007 RMK AO2  T01470116,,,,,,53.03,,N,29.42,28.88,,Clear
KIGQ,08/22/2016 03:55 UTC,30.08,58.64,53.78,82.27,0.0,0.0,,,,,,1.0,,,,10.0,,KIGQ 220355Z AUTO 00000KT 10SM CLR 15/12 A3008 RMK AO2  T01480121,,,,,,53.2,,N,29.43,28.88,,Clear
KIGQ,08/22/2016 04:15 UTC,30.08,57.74,53.42,87.75,0.0,0.0,,,,,,1.0,,,,10.0,,KIGQ 220415Z AUTO 00000KT 10SM CLR 14/12 A3008 RMK AO2  T01430119,,,,,,54.1,,N,29.43,28.85,,Clear
KIGQ,08/22/2016 04:35 UTC,30.08,59.0,54.5,87.85,0.0,0.0,,,,,,1.0,,,,10.0,,KIGQ 220435Z AUTO 00000KT 10SM CLR 15/13 A3008 RMK AO2  T01500125,,,,,,55.37,,N,29.43,28.78,,Clear
KIGQ,08/22/2016 04:55 UTC,30.09,58.64,54.5,87.85,0.0,0.0,,,,,,1.0,,,,10.0,,KIGQ 220455Z AUTO 00000KT 10SM CLR 15/13 A3009 RMK AO2  T01480125,,,,,,55.02,,N,29.44,28.81,,Clear
KIGQ,08/22/2016 05:15 UTC,30.1,56.48,53.24,87.75,3.44,230.0,,,,,,1.0,,,,10.0,,KIGQ 220515Z AUTO 23003KT 10SM CLR 14/12 A3010 RMK AO2  T01360118,,,,,,52.86,,SW,29.45,28.94,,Clear
KIGQ,08/22/2016 05:35 UTC,30.1,55.4,52.34,87.66,0.0,0.0,,,,,,1.0,,,,10.0,,KIGQ 220535Z AUTO 00000KT 10SM CLR 13/11 A3010 RMK AO2  T01300113,,,,,,51.76,,N,29.45,28.99,,Clear
KIGQ,08/22/2016 05:55 UTC,30.11,55.76,52.7,93.65,0.0,0.0,,,,,,1.0,,,,10.0,,KIGQ 220555Z AUTO 00000KT 10SM CLR 13/12 A3011 RMK AO2 T01320115  10216 20130 402380130,70.88,55.4,,74.84,55.4,53.94,,N,29.46,28.91,,Clear
KIGQ,08/22/2016 06:15 UTC,30.11,55.4,52.7,93.65,0.0,0.0,,,,,,1.0,,,,10.0,,KIGQ 220615Z AUTO 00000KT 10SM CLR 13/12 A3011 RMK AO2  T01300115,,,,,,53.58,,N,29.46,28.93,,Clear
KIGQ,08/22/2016 06:35 UTC,30.11,55.76,53.06,93.65,0.0,0.0,,,,,,1.0,,,,10.0,,KIGQ 220635Z AUTO 00000KT 10SM CLR 13/12 A3011 RMK AO2  T01320117,,,,,,53.94,,N,29.46,28.91,,Clear
KIGQ,08/22/2016 06:55 UTC,30.11,56.3,53.6,87.75,0.0,0.0,,,,,,1.0,,,,10.0,,KIGQ 220655Z AUTO 00000KT 10SM CLR 14/12 A3011 RMK AO2  T01350120,,,,,,52.68,,N,29.46,28.96,,Clear
KIGQ,08/22/2016 07:15 UTC,30.11,55.4,53.24,93.65,0.0,0.0,,,,,,1.0,,,,10.0,,KIGQ 220715Z AUTO 00000KT 10SM CLR 13/12 A3011 RMK AO2  T01300118,,,,,,53.58,,N,29.46,28.93,,Clear
KIGQ,08/22/2016 07:35 UTC,30.11,54.86,52.52,87.66,0.0,0.0,,,,,,1.0,,,,10.0,,KIGQ 220735Z AUTO 00000KT 10SM CLR 13/11 A3011 RMK AO2  T01270114,,,,,,51.23,,N,29.46,29.03,,Clear
KIGQ,08/22/2016 07:55 UTC,30.11,53.78,51.8,93.6,0.0,0.0,,,,,,1.0,,,,10.0,,KIGQ 220755Z AUTO 00000KT 10SM CLR 12/11 A3011 RMK AO2  T01210110,,,,,,51.96,,N,29.46,29.01,,Clear
KIGQ,08/22/2016 08:15 UTC,30.12,55.04,52.88,93.65,0.0,0.0,,,,,,1.0,,,,10.0,,KIGQ 220815Z AUTO 00000KT 10SM CLR 13/12 A3012 RMK AO2  T01280116,,,,,,53.22,,N,29.47,28.96,,Clear
KIGQ,08/22/2016 08:35 UTC,30.12,55.4,52.88,93.65,0.0,0.0,,,,,,1.0,,,,10.0,,KIGQ 220835Z AUTO 00000KT 10SM CLR 13/12 A3012 RMK AO2  T01300116,,,,,,53.58,,N,29.47,28.94,,Clear
KIGQ,08/22/2016 08:55 UTC,30.12,53.96,51.98,93.6,0.0,0.0,,,,,,1.0,,,,10.0,,KIGQ 220855Z AUTO 00000KT 10SM CLR 12/11 A3012 RMK AO2  T01220111,,,,,,52.14,,N,29.47,29.01,,Clear
KIGQ,08/22/2016 09:15 UTC,30.13,53.24,51.26,93.6,0.0,0.0,,,,,,1.0,,,,10.0,,KIGQ 220915Z AUTO 00000KT 10SM CLR 12/11 A3013 RMK AO2  T01180107,,,,,,51.42,,N,29.47,29.05,,Clear
KIGQ,08/22/2016 09:35 UTC,30.13,52.88,50.9,93.6,0.0,0.0,,,,,,1.0,,,,10.0,,KIGQ 220935Z AUTO 00000KT 10SM CLR 12/11 A3013 RMK AO2  T01160105,,,,,,51.07,,N,29.47,29.06,,Clear
KIGQ,08/22/2016 09:55 UTC,30.13,53.6,51.62,93.6,0.0,0.0,,,,,,1.0,,,,10.0,,KIGQ 220955Z AUTO 00000KT 10SM CLR 12/11 A3013 RMK AO2  T01200109,,,,,,51.78,,N,29.47,29.03,,Clear
KIGQ,08/22/2016 10:15 UTC,30.13,53.78,52.16,93.6,0.0,0.0,,,,,,1.0,,,,10.0,,KIGQ 221015Z AUTO 00000KT 10SM CLR 12/11 A3013 RMK AO2  T01210112,,,,,,51.96,,N,29.47,29.02,,Clear
KIGQ,08/22/2016 10:35 UTC,30.14,52.16,50.36,93.55,0.0,0.0,,,,,,1.0,,,,10.0,,KIGQ 221035Z AUTO 00000KT 10SM CLR 11/10 A3014 RMK AO2  T01120102,,,,,,50.34,,N,29.48,29.11,,Clear
KIGQ,08/22/2016 10:55 UTC,30.14,51.26,49.64,93.55,0.0,0.0,,,,,,1.0,,,,7.0,,KIGQ 221055Z AUTO 00000KT 7SM CLR 11/10 A3014 RMK AO2  T01070098,,,,,,49.44,,N,29.48,29.15,,Clear
KIGQ,08/22/2016 11:15 UTC,30.15,52.7,51.98,93.6,0.0,0.0,,,,,,1.0,,,,7.0,,KIGQ 221115Z AUTO 00000KT 7SM CLR 12/11 A3015 RMK AO2  T01150111,,,,,,50.89,,N,29.49,29.09,,Clear
KIGQ,08/22/2016 11:35 UTC,30.16,52.16,51.44,100.0,0.0,0.0,,,,,,1.0,,,,10.0,,KIGQ 221135Z AUTO 00000KT 10SM CLR 11/11 A3016 RMK AO2  T01120108,,,,,,52.16,,N,29.5,29.06,,Clear
KIGQ,08/22/2016 11:55 UTC,30.16,53.6,52.7,100.0,0.0,0.0,,,,,,1.0,,,,10.0,,KIGQ 221155Z AUTO 00000KT 10SM CLR 12/12 A3016 RMK AO2 T01200115  10135 20107,56.3,51.26,,,,53.6,,N,29.5,28.99,,Clear
KIGQ,08/22/2016 12:15 UTC,30.17,55.76,53.96,93.65,0.0,0.0,,,,,,1.0,,,,10.0,,KIGQ 221215Z AUTO 00000KT 10SM CLR 13/12 A3017 RMK AO2  T01320122,,,,,,53.94,,N,29.51,28.96,,Clear
KIGQ,08/22/2016 12:35 UTC,30.18,58.1,55.4,87.85,0.0,0.0,,,,,,1.0,,,,10.0,,KIGQ 221235Z AUTO 00000KT 10SM CLR 15/13 A3018 RMK AO2  T01450130,,,,,,54.48,,N,29.52,28.92,,Clear
KIGQ,08/22/2016 12:55 UTC,30.18,60.62,56.3,87.94,0.0,0.0,,,,,,1.0,,,,10.0,,KIGQ 221255Z AUTO 00000KT 10SM CLR 16/14 A3018 RMK AO2  T01590135,,,,,,57.0,,N,29.52,28.78,,Clear
KIGQ,08/22/2016 13:15 UTC,30.19,62.6,56.66,82.52,0.0,0.0,,,,,,1.0,,,,10.0,,KIGQ 221315Z AUTO 00000KT 10SM CLR 17/14 A3019 RMK AO2  T01700137,,,,,,57.16,,N,29.53,28.76,,Clear
KIGQ,08/22/2016 13:35 UTC,30.19,64.76,57.02,77.48,0.0,0.0,,,,,,1.0,,,,10.0,,KIGQ 221335Z AUTO 00000KT 10SM CLR 18/14 A3019 RMK AO2  T01820139,,,,,,57.51,,N,29.53,28.72,,Clear
KIGQ,08/22/2016 13:55 UTC,30.19,66.92,56.48,72.78,0.0,0.0,,,,,,1.0,,,,10.0,,KIGQ 221355Z AUTO 00000KT 10SM CLR 19/14 A3019 RMK AO2  T01940136,,,,,,57.85,,N,29.53,28.68,,Clear
KIGQ,08/22/2016 14:15 UTC,30.2,68.54,57.56,68.41,0.0,0.0,,,,,,1.0,,,,10.0,,KIGQ 221415Z AUTO 00000KT 10SM CLR 20/14 A3020 RMK AO2  T02030142,,,,,,57.67,,N,29.54,28.68,,Clear
KIGQ,08/22/2016 14:35 UTC,30.2,70.7,51.08,49.7,0.0,0.0,,,,,,1.0,,,,10.0,,KIGQ 221435Z AUTO 00000KT 10SM CLR 22/11 A3020 RMK AO2  T02150106,,,,,,50.91,,N,29.54,28.97,,Clear
KIGQ,08/22/2016 14:55 UTC,30.21,71.06,52.16,49.7,3.44,200.0,,,,,,1.0,,,,10.0,,KIGQ 221455Z AUTO 20003KT 10SM CLR 22/11 A3021 RMK AO2  T02170112,,,,,,51.25,,SSW,29.55,28.96,,Clear
KIGQ,08/22/2016 15:15 UTC,30.21,71.6,49.1,46.5,0.0,0.0,,,,,,1.0,,,,10.0,,KIGQ 221515Z AUTO 00000KT 10SM CLR 22/10 A3021 RMK AO2  T02200095,,,,,,49.95,,N,29.55,29.01,,Clear
KIGQ,08/22/2016 15:35 UTC,30.21,72.5,51.08,46.78,3.44,230.0,,,,,,1.0,,,,10.0,,KIGQ 221535Z AUTO 23003KT 10SM CLR 23/11 A3021 RMK AO2  T02250106,,,,,,50.93,,SW,29.55,28.96,,Clear
KIGQ,08/22/2016 15:55 UTC,30.21,72.68,50.9,46.78,4.61,210.0,,,,,,1.0,,,,10.0,,KIGQ 221555Z AUTO 21004KT 10SM CLR 23/11 A3021 RMK AO2  T02260105,,,,,,51.1,,SSW,29.55,28.95,,Clear
KIGQ,08/22/2016 16:15 UTC,30.21,73.04,50.72,43.76,3.44,270.0,,,,,,1.0,,,,10.0,,KIGQ 221615Z AUTO 27003KT 10SM CLR 23/10 A3021 RMK AO2  T02280104,,,,,,49.63,,W,29.55,29.01,,Clear
KIGQ,08/22/2016 16:35 UTC,30.21,73.58,52.16,46.78,8.05,180.0,,,,,,502.0,,,,10.0,,KIGQ 221635Z AUTO 18007KT 10SM SCT050 23/11 A3021 RMK AO2  T02310112,,,,,,51.93,,S,29.55,28.91,,Partly Cloudy
KIGQ,08/22/2016 16:55 UTC,30.21,73.22,50.72,43.76,6.91,210.0,,,,,,502.0,,,,10.0,,KIGQ 221655Z AUTO 21006KT 10SM SCT050 23/10 A3021 RMK AO2  T02290104,,,,,,49.79,,SSW,29.55,29.0,,Partly Cloudy
KIGQ,08/22/2016 17:15 UTC,30.21,74.12,53.06,49.97,4.61,170.0,,,,,,502.0,,,,10.0,,KIGQ 221715Z AUTO 17004KT 10SM SCT050 23/12 A3021 RMK AO2  T02340117,,,,,,54.23,,S,29.55,28.8,,Partly Cloudy
KIGQ,08/22/2016 17:35 UTC,30.2,74.3,51.62,44.05,6.91,220.0,,,,,,502.0,,,,10.0,,KIGQ 221735Z AUTO 22006KT 10SM SCT050 24/11 A3020 RMK AO2  T02350109,,,,,,50.96,,SW,29.54,28.94,,Partly Cloudy
KIGQ,08/22/2016 17:55 UTC,30.2,74.66,53.06,47.06,4.61,170.0,,,,,,502.0,,,,10.0,,KIGQ 221755Z AUTO 17004KT 10SM SCT050 24/12 A3020 RMK AO2  T02370117 10237 20121,74.66,53.78,,,,53.08,,S,29.54,28.84,,Partly Cloudy
KIGQ,08/22/2016 18:15 UTC,30.2,75.02,53.06,47.06,8.05,200.0,,,,,,502.0,,,,10.0,,KIGQ 221815Z AUTO 20007KT 10SM SCT050 24/12 A3020 RMK AO2  T02390117,,,,,,53.41,,SSW,29.54,28.82,,Partly Cloudy
KIGQ,08/22/2016 18:35 UTC,30.19,75.38,54.5,50.25,9.22,180.0,,,,,,502.0,,,,10.0,,KIGQ 221835Z AUTO 18008KT 10SM SCT050 24/13 A3019 RMK AO2  T02410125,,,,,,55.55,,S,29.53,28.71,,Partly Cloudy
KIGQ,08/22/2016 18:55 UTC,30.19,75.2,52.7,47.06,8.05,240.0,,,,,,502.0,,,,10.0,,KIGQ 221855Z AUTO 24007KT 160V250 10SM SCT050 24/12 A3019 RMK AO2  T02400115,,,,,,53.58,,WSW,29.53,28.81,,Partly Cloudy
KIGQ,08/22/2016 19:15 UTC,30.19,75.74,53.6,47.06,8.05,200.0,,,,,,1.0,,,,10.0,,KIGQ 221915Z AUTO 20007KT 10SM CLR 24/12 A3019 RMK AO2  T02430120,,,,,,54.07,,SSW,29.53,28.78,,Clear
KIGQ,08/22/2016 19:35 UTC,30.18,75.92,55.4,50.25,6.91,220.0,,,,,,502.0,,,,10.0,,KIGQ 221935Z AUTO 22006KT 10SM SCT050 24/13 A3018 RMK AO2  T02440130,,,,,,56.05,,SW,29.52,28.67,,Partly Cloudy
KIGQ,08/22/2016 19:55 UTC,30.18,75.74,54.32,47.06,9.22,230.0,,,,,,1.0,,,,10.0,,KIGQ 221955Z AUTO 23008KT 110V040 10SM CLR 24/12 A3018 RMK AO2  T02430124,,,,,,54.07,,SW,29.52,28.77,,Clear
KIGQ,08/22/2016 20:15 UTC,30.17,76.1,54.32,44.33,10.36,230.0,16.11,,,,,1.0,,,,10.0,,KIGQ 222015Z AUTO 23009G14KT 10SM CLR 25/12 A3017 RMK AO2  T02450124,,,,,,52.77,,SW,29.51,28.81,,Clear
KIGQ,08/22/2016 20:35 UTC,30.17,76.1,54.32,44.33,9.22,220.0,,,,,,1.0,,,,10.0,,KIGQ 222035Z AUTO 22008KT 10SM CLR 25/12 A3017 RMK AO2  T02450124,,,,,,52.77,,SW,29.51,28.81,,Clear
KIGQ,08/22/2016 20:55 UTC,30.17,76.28,55.4,47.33,9.22,280.0,,,,,,502.0,,,,10.0,,KIGQ 222055Z AUTO 28008KT 220V320 10SM SCT050 25/13 A3017 RMK AO2  T02460130,,,,,,54.73,,W,29.51,28.72,,Partly Cloudy
KIGQ,08/22/2016 21:15 UTC,30.16,76.28,55.4,47.33,5.75,190.0,,,,,,502.0,,,,10.0,,KIGQ 222115Z AUTO 19005KT 10SM SCT050 25/13 A3016 RMK AO2  T02460130,,,,,,54.73,,S,29.5,28.71,,Partly Cloudy
KIGQ,08/22/2016 21:35 UTC,30.16,76.1,55.4,47.33,8.05,210.0,,,,,,1.0,,,,10.0,,KIGQ 222135Z AUTO 21007KT 180V330 10SM CLR 25/13 A3016 RMK AO2  T02450130,,,,,,54.56,,SSW,29.5,28.72,,Clear
KIGQ,08/22/2016 21:55 UTC,30.16,75.74,54.5,50.25,10.36,210.0,,,,,,1.0,,,,10.0,,KIGQ 222155Z AUTO 21009KT 10SM CLR 24/13 A3016 RMK AO2  T02430125,,,,,,55.88,,SSW,29.5,28.66,,Clear
KIGQ,08/22/2016 22:15 UTC,30.16,75.92,54.68,50.25,10.36,200.0,,,,,,1.0,,,,10.0,,KIGQ 222215Z AUTO 20009KT 10SM CLR 24/13 A3016 RMK AO2  T02440126,,,,,,56.05,,SSW,29.5,28.65,,Clear
KIGQ,08/22/2016 22:35 UTC,30.16,75.2,55.22,50.25,6.91,190.0,,,,,,1.0,,,,10.0,,KIGQ 222235Z AUTO 19006KT 10SM CLR 24/13 A3016 RMK AO2  T02400129,,,,,,55.38,,S,29.5,28.69,,Clear
KIGQ,08/22/2016 22:55 UTC,30.16,75.2,55.58,50.25,6.91,220.0,,,,,,1.0,,,,10.0,,KIGQ 222255Z AUTO 22006KT 10SM CLR 24/13 A3016 RMK AO2  T02400131,,,,,,55.38,,SW,29.5,28.69,,Clear
KIGQ,08/22/2016 23:15 UTC,30.16,74.3,55.4,50.25,5.75,200.0,,,,,,1.0,,,,10.0,,KIGQ 222315Z AUTO 20005KT 10SM CLR 24/13 A3016 RMK AO2  T02350130,,,,,,54.55,,SSW,29.5,28.74,,Clear
KIGQ,08/22/2016 23:35 UTC,30.16,73.58,57.38,56.95,9.22,190.0,,,,,,1.0,,,,10.0,,KIGQ 222335Z AUTO 19008KT 10SM CLR 23/14 A3016 RMK AO2  T02310141,,,,,,57.34,,S,29.5,28.61,,Clear
KIGQ,08/22/2016 23:55 UTC,30.16,72.5,57.56,56.95,4.61,180.0,,,,,,1.0,,,,10.0,,KIGQ 222355Z AUTO 18004KT 10SM CLR 23/14 A3016 RMK AO2 T02250142  10247 20225,76.46,72.5,,,,56.32,,S,29.5,28.67,,Clear
KIGQ,08/23/2016 00:15 UTC,30.15,70.34,57.74,64.32,5.75,190.0,,,,,,1.0,,,,10.0,,KIGQ 230015Z AUTO 19005KT 10SM CLR 21/14 A3015 RMK AO2  T02130143,,,,,,57.67,,S,29.49,28.61,,Clear
KIGQ,08/23/2016 00:35 UTC,30.15,68.18,58.1,72.97,5.75,190.0,,,,,,1.0,,,,10.0,,KIGQ 230035Z AUTO 19005KT 10SM CLR 20/15 A3015 RMK AO2  T02010145,,,,,,59.14,,S,29.49,28.56,,Clear
KIGQ,08/23/2016 00:55 UTC,30.16,67.82,58.28,72.97,4.61,190.0,,,,,,1.0,,,,10.0,,KIGQ 230055Z AUTO 19004KT 10SM CLR 20/15 A3016 RMK AO2  T01990146,,,,,,58.79,,S,29.5,28.59,,Clear
KIGQ,08/23/2016 01:15 UTC,30.16,66.38,57.74,72.78,4.61,190.0,,,,,,1.0,,,,10.0,,KIGQ 230115Z AUTO 19004KT 10SM CLR 19/14 A3016 RMK AO2  T01910143,,,,,,57.33,,S,29.5,28.68,,Clear
KIGQ,08/23/2016 01:35 UTC,30.17,65.84,57.38,72.78,4.61,180.0,,,,,,1.0,,,,10.0,,KIGQ 230135Z AUTO 18004KT 10SM CLR 19/14 A3017 RMK AO2  T01880141,,,,,,56.8,,S,29.51,28.72,,Clear
KIGQ,08/23/2016 01:55 UTC,30.17,66.02,57.2,72.78,4.61,180.0,,,,,,1.0,,,,10.0,,KIGQ 230155Z AUTO 18004KT 10SM CLR 19/14 A3017 RMK AO2  T01890140,,,,,,56.98,,S,29.51,28.71,,Clear
KIGQ,08/23/2016 02:15 UTC,30.18,64.94,57.74,77.48,3.44,170.0,,,,,,1.0,,,,10.0,,KIGQ 230215Z AUTO 17003KT 10SM CLR 18/14 A3018 RMK AO2  T01830143,,,,,,57.68,,S,29.52,28.7,,Clear
KIGQ,08/23/2016 02:35 UTC,30.18,63.86,57.38,77.48,4.61,170.0,,,,,,1.0,,,,10.0,,KIGQ 230235Z AUTO 17004KT 10SM CLR 18/14 A3018 RMK AO2  T01770141,,,,,,56.63,,S,29.52,28.76,,Clear
KIGQ,08/23/2016 02:55 UTC,30.18,64.4,58.1,82.65,5.75,190.0,,,,,,1.0,,,,10.0,,KIGQ 230255Z AUTO 19005KT 10SM CLR 18/15 A3018 RMK AO2  T01800145,,,,,,58.97,,S,29.52,28.64,,Clear
KIGQ,08/23/2016 03:15 UTC,30.19,62.24,57.2,82.52,4.61,190.0,,,,,,1.0,,,,10.0,,KIGQ 230315Z AUTO 19004KT 10SM CLR 17/14 A3019 RMK AO2  T01680140,,,,,,56.81,,S,29.53,28.78,,Clear
KIGQ,08/23/2016 03:35 UTC,30.19,60.8,56.3,87.94,5.75,180.0,,,,,,1.0,,,,10.0,,KIGQ 230335Z AUTO 18005KT 10SM CLR 16/14 A3019 RMK AO2  T01600135,,,,,,57.17,,S,29.53,28.78,,Clear
KIGQ,08/23/2016 03:55 UTC,30.19,60.8,56.12,82.4,5.75,180.0,,,,,,1.0,,,,10.0,,KIGQ 230355Z AUTO 18005KT 10SM CLR 16/13 A3019 RMK AO2  T01600134,,,,,,55.36,,S,29.53,28.87,,Clear
KIGQ,08/23/2016 04:15 UTC,30.19,60.98,56.66,87.94,6.91,180.0,,,,,,1.0,,,,10.0,,KIGQ 230415Z AUTO 18006KT 10SM CLR 16/14 A3019 RMK AO2  T01610137,,,,,,57.35,,S,29.53,28.77,,Clear
KIGQ,08/23/2016 04:35 UTC,30.19,60.8,56.3,87.94,4.61,190.0,,,,,,1.0,,,,10.0,,KIGQ 230435Z AUTO 19004KT 10SM CLR 16/14 A3019 RMK AO2  T01600135,,,,,,57.17,,S,29.53,28.78,,Clear
KIGQ,08/23/2016 04:55 UTC,30.19,60.8,56.3,87.94,4.61,190.0,,,,,,1.0,,,,10.0,,KIGQ 230455Z AUTO 19004KT 10SM CLR 16/14 A3019 RMK AO2  T01600135,,,,,,57.17,,S,29.53,28.78,,Clear
KIGQ,08/23/2016 05:15 UTC,30.19,60.08,55.94,82.4,4.61,190.0,,,,,,1.0,,,,10.0,,KIGQ 230515Z AUTO 19004KT 10SM CLR 16/13 A3019 RMK AO2  T01560133,,,,,,54.66,,S,29.53,28.9,,Clear
KIGQ,08/23/2016 05:35 UTC,30.19,59.36,55.76,87.85,4.61,180.0,,,,,,1.0,,,,10.0,,KIGQ 230535Z AUTO 18004KT 10SM CLR 15/13 A3019 RMK AO2  T01520132,,,,,,55.73,,S,29.53,28.87,,Clear
KIGQ,08/23/2016 05:55 UTC,30.2,59.72,55.76,87.85,5.75,180.0,,,,,,1.0,,,,10.0,,KIGQ 230555Z AUTO 18005KT 10SM CLR 15/13 A3020 RMK AO2 T01540132  10223 20152 402470107,72.14,59.36,,76.46,51.26,56.08,,S,29.54,28.86,,Clear
KIGQ,08/23/2016 06:15 UTC,30.2,59.0,55.58,87.85,4.61,180.0,,,,,,1.0,,,,10.0,,KIGQ 230615Z AUTO 18004KT 10SM CLR 15/13 A3020 RMK AO2  T01500131,,,,,,55.37,,S,29.54,28.9,,Clear
KIGQ,08/23/2016 06:35 UTC,30.2,59.36,55.76,87.85,3.44,180.0,,,,,,1.0,,,,10.0,,KIGQ 230635Z AUTO 18003KT 10SM CLR 15/13 A3020 RMK AO2  T01520132,,,,,,55.73,,S,29.54,28.88,,Clear
KIGQ,08/23/2016 06:55 UTC,30.2,59.72,55.94,87.85,3.44,180.0,,,,,,1.0,,,,10.0,,KIGQ 230655Z AUTO 18003KT 10SM CLR 15/13 A3020 RMK AO2  T01540133,,,,,,56.08,,S,29.54,28.86,,Clear
KIGQ,08/23/2016 07:15 UTC,30.2,60.08,55.94,82.4,3.44,180.0,,,,,,1.0,,,,10.0,,KIGQ 230715Z AUTO 18003KT 10SM CLR 16/13 A3020 RMK AO2  T01560133,,,,,,54.66,,S,29.54,28.91,,Clear
KIGQ,08/23/2016 07:35 UTC,30.2,60.08,55.94,82.4,0.0,0.0,,,,,,1.0,,,,10.0,,KIGQ 230735Z AUTO 00000KT 10SM CLR 16/13 A3020 RMK AO2  T01560133,,,,,,54.66,,N,29.54,28.91,,Clear
KIGQ,08/23/2016 07:55 UTC,30.2,59.36,55.76,87.85,0.0,0.0,,,,,,1.0,,,,10.0,,KIGQ 230755Z AUTO 00000KT 10SM CLR 15/13 A3020 RMK AO2  T01520132,,,,,,55.73,,N,29.54,28.88,,Clear
KIGQ,08/23/2016 08:15 UTC,30.2,59.36,55.76,87.85,0.0,0.0,,,,,,1.0,,,,10.0,,KIGQ 230815Z AUTO 00000KT 10SM CLR 15/13 A3020 RMK AO2  T01520132,,,,,,55.73,,N,29.54,28.88,,Clear
KIGQ,08/23/2016 08:35 UTC,30.2,59.72,56.12,87.85,0.0,0.0,,,,,,1.0,,,,10.0,,KIGQ 230835Z AUTO 00000KT 10SM CLR 15/13 A3020 RMK AO2  T01540134,,,,,,56.08,,N,29.54,28.86,,Clear
KIGQ,08/23/2016 08:55 UTC,30.2,59.18,55.4,87.85,0.0,0.0,,,,,,1.0,,,,10.0,,KIGQ 230855Z AUTO 00000KT 10SM CLR 15/13 A3020 RMK AO2  T01510130,,,,,,55.55,,N,29.54,28.89,,Clear
KIGQ,08/23/2016 09:15 UTC,30.2,58.64,55.4,87.85,0.0,0.0,,,,,,1.0,,,,10.0,,KIGQ 230915Z AUTO 00000KT 10SM CLR 15/13 A3020 RMK AO2  T01480130,,,,,,55.02,,N,29.54,28.92,,Clear
KIGQ,08/23/2016 09:35 UTC,30.2,59.0,55.58,87.85,0.0,0.0,,,,,,1.0,,,,10.0,,KIGQ 230935Z AUTO 00000KT 10SM CLR 15/13 A3020 RMK AO2  T01500131,,,,,,55.37,,N,29.54,28.9,,Clear
KIGQ,08/23/2016 09:55 UTC,30.2,59.18,55.4,87.85,0.0,0.0,,,,,,1.0,,,,10.0,,KIGQ 230955Z AUTO 00000KT 10SM CLR 15/13 A3020 RMK AO2  T01510130,,,,,,55.55,,N,29.54,28.89,,Clear
KIGQ,08/23/2016 10:15 UTC,30.2,59.36,55.4,87.85,0.0,0.0,,,,,,1.0,,,,10.0,,KIGQ 231015Z AUTO 00000KT 10SM CLR 15/13 A3020 RMK AO2  T01520130,,,,,,55.73,,N,29.54,28.88,,Clear
KIGQ,08/23/2016 10:35 UTC,30.2,59.36,55.58,87.85,0.0,0.0,,,,,,1.0,,,,10.0,,KIGQ 231035Z AUTO 00000KT 10SM CLR 15/13 A3020 RMK AO2  T01520131,,,,,,55.73,,N,29.54,28.88,,Clear
KIGQ,08/23/2016 10:55 UTC,30.2,59.0,55.58,87.85,0.0,0.0,,,,,,1.0,,,,10.0,,KIGQ 231055Z AUTO 00000KT 10SM CLR 15/13 A3020 RMK AO2  T01500131,,,,,,55.37,,N,29.54,28.9,,Clear
KIGQ,08/23/2016 11:15 UTC,30.21,58.82,55.22,87.85,0.0,0.0,,,,,,1.0,,,,10.0,,KIGQ 231115Z AUTO 00000KT 10SM CLR 15/13 A3021 RMK AO2  T01490129,,,,,,55.19,,N,29.55,28.92,,Clear
KIGQ,08/23/2016 11:35 UTC,30.21,59.0,55.4,87.85,0.0,0.0,,,,,,1.0,,,,10.0,,KIGQ 231135Z AUTO 00000KT 10SM CLR 15/13 A3021 RMK AO2  T01500130,,,,,,55.37,,N,29.55,28.91,,Clear
KIGQ,08/23/2016 11:55 UTC,30.21,59.36,55.58,87.85,0.0,0.0,,,,,,1.0,,,,10.0,,KIGQ 231155Z AUTO 00000KT 10SM CLR 15/13 A3021 RMK AO2 T01520131  10158 20147,60.44,58.46,,,,55.73,,N,29.55,28.89,,Clear
KIGQ,08/23/2016 12:15 UTC,30.22,60.98,57.02,87.94,3.44,180.0,,,,,,1.0,,,,10.0,,KIGQ 231215Z AUTO 18003KT 10SM CLR 16/14 A3022 RMK AO2  T01610139,,,,,,57.35,,S,29.56,28.8,,Clear
KIGQ,08/23/2016 12:35 UTC,30.22,63.32,58.1,88.02,4.61,170.0,,,,,,1.0,,,,10.0,,KIGQ 231235Z AUTO 17004KT 10SM CLR 17/15 A3022 RMK AO2  T01740145,,,,,,59.68,,S,29.56,28.66,,Clear
KIGQ,08/23/2016 12:55 UTC,30.23,65.12,58.64,82.65,4.61,180.0,,,,,,1.0,,,,10.0,,KIGQ 231255Z AUTO 18004KT 10SM CLR 18/15 A3023 RMK AO2  T01840148,,,,,,59.67,,S,29.57,28.65,,Clear
KIGQ,08/23/2016 13:15 UTC,30.23,66.38,58.82,77.64,6.91,180.0,,,,,,1.0,,,,10.0,,KIGQ 231315Z AUTO 18006KT 10SM CLR 19/15 A3023 RMK AO2  T01910149,,,,,,59.14,,S,29.57,28.66,,Clear
KIGQ,08/23/2016 13:35 UTC,30.24,68.0,59.72,72.97,5.75,180.0,,,,,,1.0,,,,10.0,,KIGQ 231335Z AUTO 18005KT 10SM CLR 20/15 A3024 RMK AO2  T02000154,,,,,,58.96,,S,29.58,28.66,,Clear
KIGQ,08/23/2016 13:55 UTC,30.24,69.98,60.62,73.15,6.91,200.0,,,,,,1.0,,,,10.0,,KIGQ 231355Z AUTO 20006KT 10SM CLR 21/16 A3024 RMK AO2  T02110159,,,,,,60.94,,SSW,29.58,28.54,,Clear
KIGQ,08/23/2016 14:15 UTC,30.24,71.24,60.08,68.81,10.36,200.0,,,,,,1.0,,,,10.0,,KIGQ 231415Z AUTO 20009KT 10SM CLR 22/16 A3024 RMK AO2  T02180156,,,,,,60.42,,SSW,29.58,28.55,,Clear
KIGQ,08/23/2016 14:35 UTC,30.24,72.32,60.8,68.81,10.36,210.0,,,,,,1.0,,,,10.0,,KIGQ 231435Z AUTO 21009KT 10SM CLR 22/16 A3024 RMK AO2  T02240160,,,,,,61.46,,SSW,29.58,28.48,,Clear
KIGQ,08/23/2016 14:55 UTC,30.24,73.4,60.8,64.76,10.36,210.0,,,,,,1.0,,,,10.0,,KIGQ 231455Z AUTO 21009KT 200V340 10SM CLR 23/16 A3024 RMK AO2  T02300160,,,,,,60.77,,SSW,29.58,28.51,,Clear
KIGQ,08/23/2016 15:15 UTC,30.24,74.12,61.34,64.76,11.5,220.0,,,,,,1.0,,,,10.0,,KIGQ 231515Z AUTO 22010KT 180V300 10SM CLR 23/16 A3024 RMK AO2  T02340163,,,,,,61.46,,SW,29.58,28.46,,Clear
KIGQ,08/23/2016 15:35 UTC,30.24,75.02,61.34,60.98,12.66,230.0,,,,,,1.0,,,,10.0,,KIGQ 231535Z AUTO 23011KT 190V320 10SM CLR 24/16 A3024 RMK AO2  T02390163,,,,,,60.61,,SW,29.58,28.5,,Clear
KIGQ,08/23/2016 15:55 UTC,30.24,75.38,61.34,60.98,10.36,210.0,16.11,,,,,1.0,,,,10.0,,KIGQ 231555Z AUTO 21009G14KT 10SM CLR 24/16 A3024 RMK AO2  T02410163,,,,,,60.95,,SSW,29.58,28.48,,Clear
KIGQ,08/23/2016 16:15 UTC,30.24,76.28,60.44,57.45,17.27,210.0,20.71,,,,,352.0,,,,10.0,,KIGQ 231615Z AUTO 21015G18KT 10SM SCT035 25/16 A3024 RMK AO2  T02460158,,,,,,60.12,,SSW,29.58,28.51,,Partly Cloudy
KIGQ,08/23/2016 16:35 UTC,30.24,75.02,59.54,57.2,14.97,210.0,20.71,,,,,372.0,453.0,,,10.0,,KIGQ 231635Z AUTO 21013G18KT 10SM SCT037 BKN045 24/15 A3024 RMK AO2 T02390153,,,4500.0,,,58.81,,SSW,29.58,28.6,,Mostly Cloudy
KIGQ,08/23/2016 16:55 UTC,30.23,78.08,62.06,57.69,16.11,190.0,20.71,,,,,393.0,454.0,,,10.0,,KIGQ 231655Z AUTO 19014G18KT 10SM BKN039 OVC045 26/17 A3023 RMK AO2 T02560167,,,3900.0,,,61.93,,S,29.57,28.38,,Overcast
KIGQ,08/23/2016 17:15 UTC,30.22,77.9,61.34,54.14,14.97,190.0,18.41,,,,,413.0,473.0,,,10.0,,KIGQ 231715Z AUTO 19013G16KT 10SM BKN041 BKN047 26/16 A3022 RMK AO2 T02550163,,,4100.0,,,59.97,,S,29.56,28.49,,Mostly Cloudy
KIGQ,08/23/2016 17:35 UTC,30.21,76.28,60.98,57.45,13.8,220.0,17.27,,,,,433.0,,,,10.0,,KIGQ 231735Z AUTO 22012G15KT 10SM BKN043 25/16 A3021 RMK AO2  T02460161,,,4300.0,,,60.12,,SW,29.55,28.48,,Mostly Cloudy
KIGQ,08/23/2016 17:55 UTC,30.21,76.64,60.8,57.45,16.11,200.0,19.57,,,,,434.0,,,,10.0,,KIGQ 231755Z AUTO 20014G17KT 10SM OVC043 25/16 A3021 RMK AO2  T02480160 10257 20153,78.26,59.54,4300.0,,,60.46,,SSW,29.55,28.46,,Overcast
KIGQ,08/23/2016 18:15 UTC,30.2,77.36,60.8,57.45,12.66,210.0,17.27,,,,,433.0,,,,10.0,,KIGQ 231815Z AUTO 21011G15KT 10SM BKN043 25/16 A3020 RMK AO2  T02520160,,,4300.0,,,61.13,,SSW,29.54,28.4,,Mostly Cloudy
KIGQ,08/23/2016 18:35 UTC,30.2,77.54,59.54,53.88,13.8,180.0,20.71,,,,,433.0,,,,10.0,,KIGQ 231835Z AUTO 18012G18KT 10SM BKN043 25/15 A3020 RMK AO2  T02530153,,,4300.0,,,59.49,,S,29.54,28.5,,Mostly Cloudy
KIGQ,08/23/2016 18:55 UTC,30.19,78.26,59.72,50.78,10.36,200.0,18.41,,,,,433.0,,,,10.0,,KIGQ 231855Z AUTO 20009G16KT 10SM BKN043 26/15 A3019 RMK AO2  T02570154,,,4300.0,,,58.5,,SSW,29.53,28.53,,Mostly Cloudy
KIGQ,08/23/2016 19:15 UTC,30.19,78.62,60.44,54.14,12.66,190.0,18.41,,,,,432.0,,,,10.0,,KIGQ 231915Z AUTO 19011G16KT 10SM SCT043 26/16 A3019 RMK AO2  T02590158,,,,,,60.64,,S,29.53,28.41,,Partly Cloudy
KIGQ,08/23/2016 19:35 UTC,30.18,78.8,60.8,54.14,9.22,170.0,20.71,,,,,452.0,,,,10.0,,KIGQ 231935Z AUTO 17008G18KT 10SM SCT045 26/16 A3018 RMK AO2  T02600160,,,,,,60.81,,S,29.52,28.39,,Partly Cloudy
KIGQ,08/23/2016 19:55 UTC,30.17,78.8,60.62,54.14,14.97,180.0,,,,,,453.0,,,,10.0,,KIGQ 231955Z AUTO 18013KT 10SM BKN045 26/16 A3017 RMK AO2  T02600159,,,4500.0,,,60.81,,S,29.51,28.38,,Mostly Cloudy
KIGQ,08/23/2016 20:15 UTC,30.17,78.44,60.62,54.14,16.11,170.0,19.57,,,,,452.0,,,,10.0,,KIGQ 232015Z AUTO 17014G17KT 10SM SCT045 26/16 A3017 RMK AO2  T02580159,,,,,,60.47,,S,29.51,28.4,,Partly Cloudy
KIGQ,08/23/2016 20:35 UTC,30.17,79.16,59.9,54.14,12.66,200.0,,,,,,453.0,,,,10.0,,KIGQ 232035Z AUTO 20011KT 10SM BKN045 26/16 A3017 RMK AO2  T02620155,,,4500.0,,,61.14,,SSW,29.51,28.35,,Mostly Cloudy
KIGQ,08/23/2016 20:55 UTC,30.16,79.16,60.44,54.14,11.5,200.0,,,,,,453.0,,,,10.0,,KIGQ 232055Z AUTO 20010KT 10SM BKN045 26/16 A3016 RMK AO2  T02620158,,,4500.0,,,61.14,,SSW,29.5,28.34,,Mostly Cloudy
KIGQ,08/23/2016 21:15 UTC,30.16,78.8,60.44,54.14,11.5,200.0,,,,,,452.0,,,,10.0,,KIGQ 232115Z AUTO 20010KT 10SM SCT045 26/16 A3016 RMK AO2  T02600158,,,,,,60.81,,SSW,29.5,28.37,,Partly Cloudy
KIGQ,08/23/2016 21:35 UTC,30.16,78.8,61.16,54.14,11.5,170.0,,,,,,452.0,,,,10.0,,KIGQ 232135Z AUTO 17010KT 10SM SCT045 26/16 A3016 RMK AO2  T02600162,,,,,,60.81,,S,29.5,28.37,,Partly Cloudy
KIGQ,08/23/2016 21:55 UTC,30.16,77.18,60.26,57.45,13.8,190.0,17.27,,,,,432.0,,,,10.0,,KIGQ 232155Z AUTO 19012G15KT 10SM SCT043 25/16 A3016 RMK AO2  T02510157,,,,,,60.96,,S,29.5,28.37,,Partly Cloudy
KIGQ,08/23/2016 22:15 UTC,30.16,77.18,60.62,57.45,9.22,200.0,,,,,,1.0,,,,10.0,,KIGQ 232215Z AUTO 20008KT 10SM CLR 25/16 A3016 RMK AO2  T02510159,,,,,,60.96,,SSW,29.5,28.37,,Clear
KIGQ,08/23/2016 22:35 UTC,30.16,77.0,61.16,57.45,12.66,180.0,,,,,,1.0,,,,10.0,,KIGQ 232235Z AUTO 18011KT 10SM CLR 25/16 A3016 RMK AO2  T02500162,,,,,,60.79,,S,29.5,28.39,,Clear
KIGQ,08/23/2016 22:55 UTC,30.16,76.1,61.34,57.45,8.05,190.0,,,,,,442.0,,,,10.0,,KIGQ 232255Z AUTO 19007KT 10SM SCT044 25/16 A3016 RMK AO2  T02450163,,,,,,59.95,,S,29.5,28.44,,Partly Cloudy
KIGQ,08/23/2016 23:15 UTC,30.16,76.64,61.88,61.21,10.36,180.0,,,,,,462.0,,,,10.0,,KIGQ 232315Z AUTO 18009KT 10SM SCT046 25/17 A3016 RMK AO2  T02480166,,,,,,62.25,,S,29.5,28.3,,Partly Cloudy
KIGQ,08/23/2016 23:35 UTC,30.16,75.92,62.06,64.98,8.05,190.0,,,,,,1.0,,,,10.0,,KIGQ 232335Z AUTO 19007KT 10SM CLR 24/17 A3016 RMK AO2  T02440167,,,,,,63.27,,S,29.5,28.25,,Clear
KIGQ,08/23/2016 23:55 UTC,30.15,74.84,62.06,64.98,9.22,180.0,,,,,,1.0,,,,10.0,,KIGQ 232355Z AUTO 18008KT 10SM CLR 24/17 A3015 RMK AO2 T02380167  10263 20238,79.34,74.84,,,,62.24,,S,29.49,28.31,,Clear
KIGQ,08/24/2016 00:15 UTC,30.15,74.3,61.52,60.98,9.22,180.0,,,,,,1.0,,,,10.0,,KIGQ 240015Z AUTO 18008KT 10SM CLR 24/16 A3015 RMK AO2  T02350164,,,,,,59.93,,S,29.49,28.45,,Clear
KIGQ,08/24/2016 00:35 UTC,30.14,72.86,61.52,64.76,5.75,160.0,,,,,,1.0,,,,10.0,,KIGQ 240035Z AUTO 16005KT 10SM CLR 23/16 A3014 RMK AO2  T02270164,,,,,,60.26,,SSE,29.48,28.44,,Clear
KIGQ,08/24/2016 00:55 UTC,30.14,73.04,61.7,69.01,6.91,160.0,,,,,,503.0,,,,10.0,,KIGQ 240055Z AUTO 16006KT 10SM BKN050 23/17 A3014 RMK AO2  T02280165,,,5000.0,,,62.23,,SSE,29.48,28.32,,Mostly Cloudy
KIGQ,08/24/2016 01:15 UTC,30.14,72.86,61.16,64.76,6.91,160.0,,,,,,504.0,,,,10.0,,KIGQ 240115Z AUTO 16006KT 10SM OVC050 23/16 A3014 RMK AO2  T02270162,,,5000.0,,,60.26,,SSE,29.48,28.44,,Overcast
KIGQ,08/24/2016 01:35 UTC,30.14,73.76,60.98,64.76,6.91,150.0,,,,,,504.0,,,,10.0,,KIGQ 240135Z AUTO 15006KT 10SM OVC050 23/16 A3014 RMK AO2  T02320161,,,5000.0,,,61.12,,SSE,29.48,28.38,,Overcast
KIGQ,08/24/2016 01:55 UTC,30.13,73.58,60.98,64.76,6.91,150.0,,,,,,504.0,,,,10.0,,KIGQ 240155Z AUTO 15006KT 10SM OVC050 23/16 A3013 RMK AO2  T02310161,,,5000.0,,,60.94,,SSE,29.47,28.38,,Overcast
KIGQ,08/24/2016 02:15 UTC,30.13,72.5,61.16,64.76,9.22,160.0,,,,,,502.0,603.0,,,10.0,,KIGQ 240215Z AUTO 16008KT 10SM SCT050 BKN060 23/16 A3013 RMK AO2  T02250162,,,6000.0,,,59.92,,SSE,29.47,28.45,,Mostly Cloudy
KIGQ,08/24/2016 02:35 UTC,30.13,71.78,61.34,68.81,6.91,150.0,,,,,,462.0,,,,10.0,,KIGQ 240235Z AUTO 15006KT 10SM SCT046 22/16 A3013 RMK AO2  T02210163,,,,,,60.94,,SSE,29.47,28.4,,Partly Cloudy
KIGQ,08/24/2016 02:55 UTC,30.12,71.42,61.7,73.32,6.91,160.0,,,,,,443.0,,,,10.0,,KIGQ 240255Z AUTO 16006KT 10SM BKN044 22/17 A3012 RMK AO2  T02190165,,,4400.0,,,62.4,,SSE,29.47,28.32,,Mostly Cloudy
KIGQ,08/24/2016 03:15 UTC,30.12,71.6,61.88,73.32,5.75,150.0,,,,,,444.0,,,,10.0,,KIGQ 240315Z AUTO 15005KT 10SM OVC044 22/17 A3012 RMK AO2  T02200166,,,4400.0,,,62.57,,SSE,29.47,28.31,,Overcast
KIGQ,08/24/2016 03:35 UTC,30.12,71.06,61.7,73.32,5.75,150.0,,,,,,424.0,,,,10.0,,KIGQ 240335Z AUTO 15005KT 10SM OVC042 22/17 A3012 RMK AO2  T02170165,,,4200.0,,,62.05,,SSE,29.47,28.35,,Overcast
KIGQ,08/24/2016 03:55 UTC,30.11,71.78,61.88,73.32,5.75,160.0,,,,,,384.0,,,,10.0,,KIGQ 240355Z AUTO 16005KT 10SM OVC038 22/17 A3011 RMK AO2  T02210166,,,3800.0,,,62.75,,SSE,29.46,28.29,,Overcast
KIGQ,08/24/2016 04:15 UTC,30.11,72.14,61.7,73.32,8.05,160.0,,,,,,384.0,,,,10.0,,KIGQ 240415Z AUTO 16007KT 10SM OVC038 22/17 A3011 RMK AO2  T02230165,,,3800.0,,,63.09,,SSE,29.46,28.26,,Overcast
KIGQ,08/24/2016 04:35 UTC,30.11,72.5,61.7,69.01,9.22,170.0,,,,,,404.0,,,,10.0,,KIGQ 240435Z AUTO 17008KT 10SM OVC040 23/17 A3011 RMK AO2  T02250165,,,4000.0,,,61.71,,S,29.46,28.34,,Overcast
KIGQ,08/24/2016 04:55 UTC,30.11,71.6,61.7,73.32,9.22,170.0,,,,,,404.0,,,,10.0,,KIGQ 240455Z AUTO 17008KT 10SM OVC040 22/17 A3011 RMK AO2  T02200165,,,4000.0,,,62.57,,S,29.46,28.3,,Overcast
KIGQ,08/24/2016 05:15 UTC,30.11,71.06,61.52,68.81,10.36,170.0,,,,,,444.0,,,,10.0,,KIGQ 240515Z AUTO 17009KT 10SM OVC044 22/16 A3011 RMK AO2  T02170164,,,4400.0,,,60.25,,S,29.46,28.44,,Overcast
KIGQ,08/24/2016 05:35 UTC,30.11,70.88,61.7,73.32,10.36,180.0,,,754.0,,,372.0,553.0,,,10.0,,KIGQ 240535Z AUTO 18009KT 10SM SCT037 BKN055 OVC075 22/17  A3011 RMK AO2 T02160165,,,5500.0,,,61.88,,S,29.46,28.35,,Overcast
KIGQ,08/24/2016 05:55 UTC,30.1,71.06,61.7,73.32,12.66,180.0,17.27,,754.0,,,353.0,423.0,,,10.0,,KIGQ 240555Z AUTO 18011G15KT 10SM BKN035 BKN042 OVC075 22/17  A3010 RMK AO2 T02170165 10238 20215 402630147,74.84,70.7,3500.0,79.34,58.46,62.05,,S,29.45,28.33,,Overcast
KIGQ,08/24/2016 06:15 UTC,30.1,70.34,61.88,77.94,10.36,180.0,16.11,,424.0,,,302.0,352.0,,,10.0,,KIGQ 240615Z AUTO 18009G14KT 10SM SCT030 SCT035 OVC042 21/17  A3010 RMK AO2 T02130166,,,4200.0,,,63.1,,S,29.45,28.28,,Overcast
KIGQ,08/24/2016 06:35 UTC,30.1,69.98,61.88,77.94,11.5,190.0,,,,,,304.0,,,,10.0,,KIGQ 240635Z AUTO 19010KT 10SM OVC030 21/17 A3010 RMK AO2  T02110166,,,3000.0,,,62.75,,S,29.45,28.3,,Overcast
KIGQ,08/24/2016 06:55 UTC,30.1,70.16,62.06,77.94,10.36,190.0,,,,,,304.0,,,,10.0,,KIGQ 240655Z AUTO 19009KT 10SM OVC030 21/17 A3010 RMK AO2  T02120167,,,3000.0,,,62.92,,S,29.45,28.29,,Overcast
KIGQ,08/24/2016 07:15 UTC,30.1,70.34,62.06,77.94,9.22,190.0,,,,,,284.0,,,,10.0,,KIGQ 240715Z AUTO 19008KT 10SM OVC028 21/17 A3010 RMK AO2 LTG DSNT  NW T02130167,,,2800.0,,,63.1,,S,29.45,28.28,,Overcast
KIGQ,08/24/2016 07:35 UTC,30.09,70.34,62.06,77.94,11.5,170.0,,,,,,244.0,,,,10.0,,KIGQ 240735Z AUTO 17010KT 10SM OVC024 21/17 A3009 RMK AO2  T02130167,,,2400.0,,,63.1,,S,29.44,28.27,,Overcast
KIGQ,08/24/2016 07:55 UTC,30.08,70.16,62.24,77.94,9.22,190.0,,,,,,244.0,,,,10.0,,KIGQ 240755Z AUTO 19008KT 10SM OVC024 21/17 A3008 RMK AO2  T02120168,,,2400.0,,,62.92,,S,29.43,28.27,,Overcast
KIGQ,08/24/2016 08:15 UTC,30.08,69.8,62.06,77.94,9.22,190.0,,,,,,264.0,,,,10.0,,KIGQ 240815Z AUTO 19008KT 10SM OVC026 21/17 A3008 RMK AO2  T02100167,,,2600.0,,,62.57,,S,29.43,28.29,,Overcast
KIGQ,08/24/2016 08:35 UTC,30.08,69.62,61.88,77.94,10.36,190.0,,,,,,242.0,,,,10.0,,KIGQ 240835Z AUTO 19009KT 10SM SCT024 21/17 A3008 RMK AO2  T02090166,,,,,,62.4,,S,29.43,28.3,,Partly Cloudy
KIGQ,08/24/2016 08:55 UTC,30.06,69.8,61.7,77.94,11.5,190.0,,,,,,203.0,253.0,,,10.0,,KIGQ 240855Z AUTO 19010KT 10SM BKN020 BKN025 21/17 A3006 RMK AO2  LTG DSNT W T02100165,,,2000.0,,,62.57,,S,29.41,28.27,,Mostly Cloudy
KIGQ,08/24/2016 09:15 UTC,30.06,69.8,61.88,77.94,10.36,190.0,,,,,,233.0,,,,10.0,,KIGQ 240915Z AUTO 19009KT 10SM BKN023 21/17 A3006 RMK AO2  T02100166,,,2300.0,,,62.57,,S,29.41,28.27,,Mostly Cloudy
KIGQ,08/24/2016 09:35 UTC,30.05,69.8,62.24,77.94,10.36,190.0,,,,,,1.0,,,,10.0,,KIGQ 240935Z AUTO 19009KT 10SM CLR 21/17 A3005 RMK AO2 LTG DSNT W  T02100168,,,,,,62.57,,S,29.4,28.26,,Clear
KIGQ,08/24/2016 09:55 UTC,30.04,69.62,62.42,77.94,11.5,170.0,,,,,,1002.0,,,,10.0,,KIGQ 240955Z AUTO 17010KT 10SM SCT100 21/17 A3004 RMK AO2 LTG DSNT  W T02090169,,,,,,62.4,,S,29.39,28.26,,Partly Cloudy
KIGQ,08/24/2016 10:15 UTC,30.04,69.8,62.6,77.94,12.66,180.0,17.27,,,,,312.0,1002.0,,,10.0,,KIGQ 241015Z AUTO 18011G15KT 10SM SCT031 SCT100 21/17 A3004 RMK AO2 LTG DSNT W T02100170,,,,,,62.57,,S,29.39,28.25,,Partly Cloudy
KIGQ,08/24/2016 10:35 UTC,30.03,69.8,63.14,77.94,13.8,180.0,,,383.0,,,233.0,313.0,,,10.0,,KIGQ 241035Z AUTO 18012KT 10SM BKN023 BKN031 BKN038 21/17  A3003 RMK AO2 LTG DSNT W T02100173,,,2300.0,,,62.57,,S,29.38,28.24,,Mostly Cloudy
KIGQ,08/24/2016 10:55 UTC,30.03,69.26,63.5,83.01,11.5,180.0,,,853.0,,,213.0,343.0,,,10.0,,KIGQ 241055Z AUTO 18010KT 10SM BKN021 BKN034 BKN085 21/18  A3003 RMK AO2 T02070175,,,2100.0,,,63.85,,S,29.38,28.17,,Mostly Cloudy
KIGQ,08/24/2016 11:15 UTC,30.03,69.08,63.68,83.01,9.22,170.0,,,,,,212.0,342.0,,,10.0,,KIGQ 241115Z AUTO 17008KT 10SM SCT021 SCT034 21/18 A3003 RMK AO2  LTG DSNT W T02060176,,,,,,63.67,,S,29.38,28.19,,Partly Cloudy
KIGQ,08/24/2016 11:35 UTC,30.02,69.44,64.4,84.04,10.36,170.0,,,,,,172.0,,,,10.0,,KIGQ 241135Z AUTO 17009KT 10SM SCT017 21/18 A3002 RMK AO2 LTG DSNT  W T02080180,,,,,,64.38,,S,29.37,28.13,,Partly Cloudy
KIGQ,08/24/2016 11:55 UTC,30.02,70.7,65.12,78.09,9.22,160.0,16.11,,,,,153.0,,,,10.0,,KIGQ 241155Z AUTO 16008G14KT 130V190 10SM BKN015 22/18 A3002 RMK AO2 T02150184 10216 20206,70.88,69.08,1500.0,,,63.5,,SSE,29.37,28.17,,Mostly Cloudy
KIGQ,08/24/2016 12:15 UTC,30.01,70.7,65.3,83.13,10.36,170.0,,,,,,153.0,,,,10.0,,KIGQ 241215Z AUTO 17009KT 10SM BKN015 22/19 A3001 RMK AO2 LTG DSNT  W T02150185,,,1500.0,,,65.3,,S,29.36,28.04,,Mostly Cloudy
KIGQ,08/24/2016 12:35 UTC,30.02,71.24,66.2,83.13,10.36,170.0,,,,,,133.0,,,,10.0,,KIGQ 241235Z AUTO 17009KT 10SM BKN013 22/19 A3002 RMK AO2 LTG DSNT  W T02180190,,,1300.0,,,65.83,,S,29.37,28.01,,Mostly Cloudy
KIGQ,08/24/2016 12:55 UTC,30.03,71.6,66.56,83.13,11.5,190.0,,,,,,133.0,1104.0,,,10.0,,KIGQ 241255Z AUTO 19010KT 10SM BKN013 OVC110 22/19 A3003 RMK AO2  LTG DSNT SW T02200192,,,1300.0,,,66.18,,S,29.38,28.0,,Overcast
KIGQ,08/24/2016 13:15 UTC,30.04,71.78,67.1,88.46,13.8,240.0,17.27,,,,,134.0,,,,10.0,,KIGQ 241315Z AUTO 24012G15KT 180V330 10SM OVC013 22/20 A3004 RMK AO2 LTG DSNT NW T02210195,,,1300.0,,,68.17,,WSW,29.39,27.87,,Overcast
KIGQ,08/24/2016 13:35 UTC,30.04,71.78,67.46,88.46,8.05,210.0,17.27,13.0,,,,114.0,,,,10.0,,KIGQ 241335Z AUTO 21007G15KT 10SM -RA OVC011 22/20 A3004 RMK AO2  LTG DSNT SW T02210197,,,1100.0,,,68.17,,SSW,29.39,27.87,,Light Rain
KIGQ,08/24/2016 13:55 UTC,30.03,71.24,67.82,88.46,5.75,200.0,,1.0,,,,114.0,,,,7.0,,KIGQ 241355Z AUTO 20005KT 7SM RA OVC011 22/20 A3003 RMK AO2 LTG  DSNT S T02180199,,,1100.0,,,67.64,,SSW,29.38,27.9,,Rain
KIGQ,08/24/2016 14:15 UTC,30.03,70.88,68.0,88.46,6.91,200.0,,13.0,,,,94.0,,,,7.0,,KIGQ 241415Z AUTO 20006KT 7SM -RA OVC009 22/20 A3003 RMK AO2 LTG  DSNT SW T02160200,,,900.0,,,67.28,,SSW,29.38,27.93,,Light Rain
KIGQ,08/24/2016 14:35 UTC,30.04,71.06,68.36,88.46,5.75,200.0,,13.0,,,,94.0,,,,7.0,,KIGQ 241435Z AUTO 20005KT 7SM -RA OVC009 22/20 A3004 RMK AO2 LTG  DSNT S T02170202,,,900.0,,,67.46,,SSW,29.39,27.93,,Light Rain
KIGQ,08/24/2016 14:55 UTC,30.02,71.6,69.08,94.07,10.36,180.0,,13.0,,,,74.0,,,,7.0,,KIGQ 241455Z AUTO 18009KT 7SM -RA OVC007 22/21 A3002 RMK AO2 LTG  DSNT S AND SW T02200206,,,700.0,,,69.79,,S,29.37,27.74,,Light Rain
KIGQ,08/24/2016 15:15 UTC,30.01,72.32,69.8,94.07,13.8,180.0,18.41,13.0,,0.01,,74.0,,,,7.0,,KIGQ 241515Z AUTO 18012G16KT 7SM -RA OVC007 22/21 A3001 RMK AO2  P0001 T02240210,,,700.0,,,70.51,,S,29.36,27.66,,Light Rain
KIGQ,08/24/2016 15:35 UTC,30.0,73.4,70.16,88.54,9.22,190.0,,13.0,,0.01,,73.0,394.0,,,10.0,,KIGQ 241535Z AUTO 19008KT 10SM -RA BKN007 OVC039 23/21 A3000 RMK AO2 LTG DSNT SW P0001 T02300212,,,700.0,,,69.79,,S,29.35,27.69,,Light Rain
KIGQ,08/24/2016 15:55 UTC,30.01,73.4,70.16,88.54,10.36,210.0,16.11,5.0,,0.01,,74.0,,,,10.0,,KIGQ 241555Z AUTO 21009G14KT 10SM VCTS OVC007 23/21 A3001 RMK AO2  P0001 T02300212,,,700.0,,,69.79,,SSW,29.36,27.7,,Thunder
KIGQ,08/24/2016 16:15 UTC,30.03,72.5,69.8,88.54,9.22,210.0,18.41,1.0,,0.02,,74.0,,,,7.0,,KIGQ 241615Z AUTO 21008G16KT 7SM RA OVC007 23/21 A3003 RMK AO2  P0002 T02250210,,,700.0,,,68.91,,SSW,29.38,27.8,,Rain
KIGQ,08/24/2016 16:35 UTC,30.0,72.5,69.98,88.54,8.05,160.0,,14.0,,0.13,,73.0,154.0,,,3.0,,KIGQ 241635Z AUTO 16007KT 3SM +RA BKN007 OVC015 23/21 A3000 RMK AO2 P0013 T02250211,,,700.0,,,68.91,,SSE,29.35,27.77,,Heavy Rain
KIGQ,08/24/2016 16:55 UTC,29.99,73.76,71.6,94.12,9.22,170.0,,13.0,,0.14,,74.0,,,,10.0,,KIGQ 241655Z AUTO 17008KT 10SM -RA OVC007 23/22 A2999 RMK AO2  P0014 T02320220,,,700.0,,,71.96,,S,29.34,27.51,,Light Rain
KIGQ,08/24/2016 17:15 UTC,29.99,75.2,71.42,88.62,14.97,190.0,18.41,,,,,74.0,,,,10.0,,KIGQ 241715Z AUTO 19013G16KT 10SM OVC007 24/22 A2999 RMK AO2 LTG  DSNT SE T02400219,,,700.0,,,71.6,,S,29.34,27.52,,Overcast
KIGQ,08/24/2016 17:35 UTC,29.97,75.92,71.6,88.62,13.8,190.0,18.41,,,,,94.0,,,,10.0,,KIGQ 241735Z AUTO 19012G16KT 10SM OVC009 24/22 A2997 RMK AO2 LTG  DSNT S T02440220,,,900.0,,,72.31,,S,29.32,27.43,,Overcast
KIGQ,08/24/2016 17:55 UTC,29.96,77.18,72.5,88.7,14.97,180.0,20.71,,,,,94.0,,0.15,,10.0,,KIGQ 241755Z AUTO 18013G18KT 10SM OVC009 25/23 A2996 RMK AO2 60015  T02510225 10251 20213,77.18,70.34,900.0,,,73.58,,S,29.31,27.3,,Overcast
KIGQ,08/24/2016 18:15 UTC,29.96,76.1,71.42,83.48,10.36,200.0,,,,,,114.0,,,,10.0,,KIGQ 241815Z AUTO 20009KT 10SM OVC011 25/22 A2996 RMK AO2  T02450219,,,1100.0,,,70.71,,SSW,29.31,27.54,,Overcast
KIGQ,08/24/2016 18:35 UTC,29.95,77.36,72.14,83.48,10.36,190.0,,,,,,134.0,,,,10.0,,KIGQ 241835Z AUTO 19009KT 10SM OVC013 25/22 A2995 RMK AO2  T02520223,,,1300.0,,,71.95,,S,29.3,27.42,,Overcast
KIGQ,08/24/2016 18:55 UTC,29.94,79.16,73.22,83.6,11.5,200.0,,,334.0,,,133.0,183.0,,,10.0,,KIGQ 241855Z AUTO 20010KT 10SM BKN013 BKN018 OVC033 26/23  A2994 RMK AO2 T02620229,,,1300.0,,,73.76,,SSW,29.29,27.23,,Overcast
KIGQ,08/24/2016 19:15 UTC,29.94,78.26,72.5,83.6,9.22,180.0,,14.0,333.0,0.01,,152.0,202.0,,,7.0,,KIGQ 241915Z AUTO 18008KT 7SM +RA SCT015 SCT020 BKN033 26/23  A2994 RMK AO2 LTG DSNT SE P0001 T02570225,,,3300.0,,,72.87,,S,29.29,27.32,,Heavy Rain
KIGQ,08/24/2016 19:35 UTC,29.93,76.46,73.22,88.7,4.61,160.0,,1.0,,0.13,,163.0,224.0,,,0.75,,KIGQ 241935Z AUTO 16004KT 3/4SM RA BKN016 OVC022 25/23 A2993 RMK AO2 VIS M1/4V5 P0013 T02470229,,,1600.0,,,72.87,,SSE,29.28,27.34,,Rain
KIGQ,08/24/2016 19:55 UTC,29.93,77.18,73.58,88.7,0.0,0.0,,,314.0,0.14,,132.0,213.0,,,7.0,,KIGQ 241955Z AUTO 00000KT 7SM SCT013 BKN021 OVC031 25/23 A2993 RMK AO2 P0014 T02510231,,,2100.0,,,73.58,,N,29.28,27.27,,Overcast
KIGQ,08/24/2016 20:15 UTC,29.94,78.08,72.86,83.6,8.05,210.0,,,1204.0,0.01,,132.0,503.0,,,10.0,,KIGQ 242015Z AUTO 21007KT 10SM SCT013 BKN050 OVC120 26/23  A2994 RMK AO2 P0001 T02560227,,,5000.0,,,72.7,,SSW,29.29,27.34,,Overcast
KIGQ,08/24/2016 20:35 UTC,29.93,79.88,72.68,78.82,11.5,240.0,,,,0.01,,432.0,1202.0,,,10.0,,KIGQ 242035Z AUTO 24010KT 10SM SCT043 SCT120 27/23 A2993 RMK AO2  P0001 T02660226,,,,,,72.71,,WSW,29.28,27.3,,Partly Cloudy
KIGQ,08/24/2016 20:55 UTC,29.93,81.14,72.86,78.82,12.66,260.0,17.27,,,0.01,0.15,1.0,,,,10.0,,KIGQ 242055Z AUTO 26011G15KT 10SM CLR 27/23 A2993 RMK AO2 P0001  60015 T02730227,,,,,,73.93,,W,29.28,27.18,86.52,Clear
KIGQ,08/24/2016 21:15 UTC,29.93,81.68,70.34,65.83,13.8,270.0,24.16,,,,,1.0,,,,10.0,,KIGQ 242115Z AUTO 27012G21KT 10SM CLR 28/21 A2993 RMK AO2  T02760213,,,,,,69.14,,W,29.28,27.56,85.03,Clear
KIGQ,08/24/2016 21:35 UTC,29.94,80.6,69.26,69.79,18.41,260.0,23.02,,,,,1.0,,,,10.0,,KIGQ 242135Z AUTO 26016G20KT 10SM CLR 27/21 A2994 RMK AO2 LTG DSNT  E AND SE T02700207,,,,,,69.81,,W,29.29,27.53,83.91,Clear
KIGQ,08/24/2016 21:55 UTC,29.94,80.96,70.16,69.79,12.66,260.0,,,,,,292.0,,,,10.0,,KIGQ 242155Z AUTO 26011KT 10SM SCT029 27/21 A2994 RMK AO2  T02720212,,,,,,70.16,,W,29.29,27.5,84.52,Partly Cloudy
KIGQ,08/24/2016 22:15 UTC,29.94,81.86,69.62,65.83,17.27,260.0,24.16,,,,,292.0,,,,10.0,,KIGQ 242215Z AUTO 26015G21KT 10SM SCT029 28/21 A2994 RMK AO2  T02770209,,,,,,69.31,,W,29.29,27.55,85.32,Partly Cloudy
KIGQ,08/24/2016 22:35 UTC,29.94,82.04,69.44,65.83,13.8,260.0,23.02,,,,,292.0,,,,10.0,,KIGQ 242235Z AUTO 26012G20KT 10SM SCT029 28/21 A2994 RMK AO2  T02780208,,,,,,69.48,,W,29.29,27.54,85.62,Partly Cloudy
KIGQ,08/24/2016 22:55 UTC,29.95,81.5,70.16,65.83,12.66,260.0,18.41,,,,,312.0,,,,10.0,,KIGQ 242255Z AUTO 26011G16KT 10SM SCT031 28/21 A2995 RMK AO2 LTG  DSNT E T02750212,,,,,,68.97,,W,29.3,27.59,84.73,Partly Cloudy
KIGQ,08/24/2016 23:15 UTC,29.94,81.32,70.16,69.79,10.36,250.0,,,,,,312.0,,,,10.0,,KIGQ 242315Z AUTO 25009KT 10SM SCT031 27/21 A2994 RMK AO2  T02740212,,,,,,70.51,,WSW,29.29,27.47,85.15,Partly Cloudy
KIGQ,08/24/2016 23:35 UTC,29.95,80.96,70.34,69.79,10.36,250.0,,,,,,1.0,,,,10.0,,KIGQ 242335Z AUTO 25009KT 10SM CLR 27/21 A2995 RMK AO2  T02720213,,,,,,70.16,,WSW,29.3,27.51,84.52,Clear
KIGQ,08/24/2016 23:55 UTC,29.96,80.6,70.34,69.79,8.05,250.0,,,,,,1.0,,0.15,,10.0,,KIGQ 242355Z AUTO 25007KT 10SM CLR 27/21 A2996 RMK AO2 60015  T02700213 10278 20245,82.04,76.1,,,,69.81,,WSW,29.31,27.55,83.91,Clear
KIGQ,08/25/2016 00:15 UTC,29.96,79.34,70.34,74.02,8.05,250.0,,,,,,1.0,,,,10.0,,KIGQ 250015Z AUTO 25007KT 10SM CLR 26/21 A2996 RMK AO2  T02630213,,,,,,70.33,,WSW,29.31,27.53,,Clear
KIGQ,08/25/2016 00:35 UTC,29.96,78.44,69.98,74.02,5.75,240.0,,,,,,1.0,,,,10.0,,KIGQ 250035Z AUTO 24005KT 10SM CLR 26/21 A2996 RMK AO2  T02580211,,,,,,69.46,,WSW,29.31,27.61,,Clear
KIGQ,08/25/2016 00:55 UTC,29.97,77.0,70.34,78.54,4.61,220.0,,,,,,282.0,,,,10.0,,KIGQ 250055Z AUTO 22004KT 10SM SCT028 25/21 A2997 RMK AO2  T02500213,,,,,,69.8,,SW,29.32,27.61,,Partly Cloudy
KIGQ,08/25/2016 01:15 UTC,29.98,77.18,70.7,83.48,5.75,220.0,,,,,,282.0,364.0,,,10.0,,KIGQ 250115Z AUTO 22005KT 10SM SCT028 OVC036 25/22 A2998 RMK AO2  T02510215,,,3600.0,,,71.77,,SW,29.33,27.47,,Overcast
KIGQ,08/25/2016 01:35 UTC,29.98,75.56,70.7,88.62,4.61,210.0,,,,,,362.0,423.0,,,10.0,,KIGQ 250135Z AUTO 21004KT 10SM SCT036 BKN042 24/22 A2998 RMK AO2  T02420215,,,4200.0,,,71.95,,SSW,29.33,27.48,,Mostly Cloudy
KIGQ,08/25/2016 01:55 UTC,29.98,74.3,69.98,83.37,5.75,200.0,,,,,,292.0,412.0,,,10.0,,KIGQ 250155Z AUTO 20005KT 10SM SCT029 SCT041 24/21 A2998 RMK AO2  T02350211,,,,,,68.91,,SSW,29.33,27.72,,Partly Cloudy
KIGQ,08/25/2016 02:15 UTC,29.99,73.76,69.8,88.54,4.61,200.0,,,,,,1.0,,,,10.0,,KIGQ 250215Z AUTO 20004KT 10SM CLR 23/21 A2999 RMK AO2  T02320210,,,,,,70.15,,SSW,29.34,27.65,,Clear
KIGQ,08/25/2016 02:35 UTC,29.98,72.14,68.9,94.07,5.75,200.0,,,,,,1.0,,,,10.0,,KIGQ 250235Z AUTO 20005KT 10SM CLR 22/21 A2998 RMK AO2  T02230205,,,,,,70.33,,SSW,29.33,27.65,,Clear
KIGQ,08/25/2016 02:55 UTC,29.99,72.32,68.9,94.07,4.61,220.0,,,,,,1.0,,,,10.0,,KIGQ 250255Z AUTO 22004KT 10SM CLR 22/21 A2999 RMK AO2  T02240205,,,,,,70.51,,SW,29.34,27.64,,Clear
KIGQ,08/25/2016 03:15 UTC,29.98,72.5,68.72,83.25,4.61,200.0,,,,,,1.0,,,,10.0,,KIGQ 250315Z AUTO 20004KT 10SM CLR 23/20 A2998 RMK AO2  T02250204,,,,,,67.11,,SSW,29.33,27.87,,Clear
KIGQ,08/25/2016 03:35 UTC,29.99,71.96,68.54,88.46,5.75,220.0,,,,,,1.0,,,,10.0,,KIGQ 250335Z AUTO 22005KT 10SM CLR 22/20 A2999 RMK AO2  T02220203,,,,,,68.35,,SW,29.34,27.8,,Clear
KIGQ,08/25/2016 03:55 UTC,29.99,72.5,68.54,83.25,4.61,220.0,,,,,,1.0,,,,10.0,,KIGQ 250355Z AUTO 22004KT 10SM CLR 23/20 A2999 RMK AO2  T02250203,,,,,,67.11,,SW,29.34,27.88,,Clear
KIGQ,08/25/2016 04:15 UTC,29.98,71.6,68.18,88.46,4.61,200.0,,,,,,1.0,,,,10.0,,KIGQ 250415Z AUTO 20004KT 10SM CLR 22/20 A2998 RMK AO2  T02200201,,,,,,67.99,,SSW,29.33,27.82,,Clear
KIGQ,08/25/2016 04:35 UTC,29.98,71.06,68.18,88.46,0.0,0.0,,,,,,1102.0,,,,10.0,,KIGQ 250435Z AUTO 00000KT 10SM SCT110 22/20 A2998 RMK AO2  T02170201,,,,,,67.46,,N,29.33,27.87,,Partly Cloudy
KIGQ,08/25/2016 04:55 UTC,29.99,71.42,68.0,88.46,0.0,0.0,,,,,,1102.0,,,,10.0,,KIGQ 250455Z AUTO 00000KT 10SM SCT110 22/20 A2999 RMK AO2 LTG DSNT  W T02190200,,,,,,67.81,,N,29.34,27.85,,Partly Cloudy
KIGQ,08/25/2016 05:15 UTC,29.98,70.7,68.0,88.46,4.61,180.0,,,,,,1003.0,,,,10.0,,KIGQ 250515Z AUTO 18004KT 10SM BKN100 22/20 A2998 RMK AO2  T02150200,,,10000.0,,,67.1,,S,29.33,27.9,,Mostly Cloudy
KIGQ,08/25/2016 05:35 UTC,29.98,70.7,68.0,88.46,4.61,190.0,,,,,,1002.0,,,,10.0,,KIGQ 250535Z AUTO 19004KT 10SM SCT100 22/20 A2998 RMK AO2 LTG DSNT  W T02150200,,,,,,67.1,,S,29.33,27.9,,Partly Cloudy
KIGQ,08/25/2016 05:55 UTC,29.98,70.16,67.46,94.03,4.61,220.0,,,,,,1002.0,,,,10.0,,KIGQ 250555Z AUTO 22004KT 10SM SCT100 21/20 A2998 RMK AO2 LTG DSNT  W AND NW T02120197 10269 20211 402780206,80.42,69.98,,82.04,69.08,68.35,,SW,29.33,27.82,,Partly Cloudy
KIGQ,08/25/2016 06:15 UTC,29.99,72.32,68.36,88.46,4.61,220.0,,5.0,,,,852.0,1203.0,,,10.0,,KIGQ 250615Z AUTO 22004KT 10SM VCTS SCT085 BKN120 22/20 A2999 RMK AO2 LTG DSNT SW AND W T02240202,,,12000.0,,,68.7,,SW,29.34,27.77,,Thunder
KIGQ,08/25/2016 06:35 UTC,30.01,72.68,68.36,83.25,8.05,260.0,,5.0,,,,854.0,,,,10.0,,KIGQ 250635Z AUTO 26007KT 10SM TS OVC085 23/20 A3001 RMK AO2 LTG  DSNT SE SW AND NW T02260202,,,8500.0,,,67.28,,W,29.36,27.89,,Thunder
KIGQ,08/25/2016 06:55 UTC,30.0,73.4,68.9,88.54,12.66,240.0,18.41,66.0,1104.0,,,702.0,853.0,,,10.0,,KIGQ 250655Z AUTO 24011G16KT 10SM TSRA SCT070 BKN085 OVC110 23/21  A3000 RMK AO2 LTG DSNT SE THRU W T02300205,,,8500.0,,,69.79,,WSW,29.35,27.69,,Thunderstorm
KIGQ,08/25/2016 07:15 UTC,29.99,71.78,68.54,88.46,8.05,200.0,,5.0,1103.0,,,702.0,953.0,,,10.0,,KIGQ 250715Z AUTO 20007KT 10SM VCTS SCT070 BKN095 BKN110 22/20  A2999 RMK AO2 LTG DSNT ALQS T02210203,,,9500.0,,,68.17,,SSW,29.34,27.82,,Thunder
KIGQ,08/25/2016 07:35 UTC,29.98,71.6,67.28,88.46,3.44,190.0,,5.0,,,,752.0,1004.0,,,10.0,,KIGQ 250735Z AUTO 19003KT 10SM VCTS SCT075 OVC100 22/20 A2998 RMK AO2 LTG DSNT SE T02200196,,,10000.0,,,67.99,,S,29.33,27.82,,Thunder
KIGQ,08/25/2016 07:55 UTC,29.98,70.16,67.1,94.03,6.91,180.0,,,1103.0,,,752.0,852.0,,,10.0,,KIGQ 250755Z AUTO 18006KT 10SM SCT075 SCT085 BKN110 21/20  A2998 RMK AO2 LTG DSNT E THRU SW T02120195,,,11000.0,,,68.35,,S,29.33,27.82,,Mostly Cloudy
KIGQ,08/25/2016 08:15 UTC,29.99,70.7,67.46,88.46,6.91,210.0,,13.0,804.0,,,452.0,553.0,,,10.0,,KIGQ 250815Z AUTO 21006KT 10SM -RA SCT045 BKN055 OVC080 22/20  A2999 RMK AO2 LTG DSNT E THRU SW T02150197,,,5500.0,,,67.1,,SSW,29.34,27.91,,Light Rain
KIGQ,08/25/2016 08:35 UTC,30.0,70.7,67.64,88.46,9.22,190.0,,5.0,504.0,,,392.0,442.0,,,10.0,,KIGQ 250835Z AUTO 19008KT 10SM TS SCT039 SCT044 OVC050 22/20  A3000 RMK AO2 LTG DSNT E THRU SW T02150198,,,5000.0,,,67.1,,S,29.35,27.92,,Thunder
KIGQ,08/25/2016 08:55 UTC,29.99,70.52,67.1,94.03,5.75,200.0,,,902.0,,,372.0,502.0,,,10.0,,KIGQ 250855Z AUTO 20005KT 10SM -VCTSRA SCT037 SCT050 SCT090 21/20  A2999 RMK AO2 LTG DSNT E AND SE T02140195,,,,,,68.71,,SSW,29.34,27.8,,Partly Cloudy
KIGQ,08/25/2016 09:15 UTC,30.01,70.34,67.28,94.03,10.36,210.0,,13.0,1103.0,,,552.0,902.0,,,10.0,,KIGQ 250915Z AUTO 21009KT 10SM -RA SCT055 SCT090 BKN110 21/20  A3001 RMK AO2 LTG DSNT SE AND S T02130196,,,11000.0,,,68.53,,SSW,29.36,27.84,,Light Rain
KIGQ,08/25/2016 09:35 UTC,30.0,70.7,67.46,88.46,9.22,210.0,,13.0,1104.0,,,222.0,903.0,,,10.0,,KIGQ 250935Z AUTO 21008KT 10SM -RA SCT022 BKN090 OVC110 22/20  A3000 RMK AO2 LTG DSNT SE AND S T02150197,,,9000.0,,,67.1,,SSW,29.35,27.92,,Light Rain
KIGQ,08/25/2016 09:55 UTC,29.99,70.16,67.1,94.03,4.61,220.0,,13.0,432.0,,,202.0,332.0,,,10.0,,KIGQ 250955Z AUTO 22004KT 10SM -RA SCT020 SCT033 SCT043 21/20  A2999 RMK AO2 LTG DSNT SE T02120195,,,,,,68.35,,SW,29.34,27.83,,Light Rain
KIGQ,08/25/2016 10:15 UTC,29.98,69.62,66.92,88.37,4.61,210.0,,13.0,1102.0,,,202.0,332.0,,,10.0,,KIGQ 251015Z AUTO 21004KT 10SM -RA SCT020 SCT033 SCT110 21/19  A2998 RMK AO2 T02090194,,,,,,66.01,,SSW,29.33,27.98,,Light Rain
KIGQ,08/25/2016 10:35 UTC,29.96,68.9,66.38,88.37,4.61,160.0,,13.0,,,,1102.0,,,,10.0,,KIGQ 251035Z AUTO 16004KT 10SM -RA SCT110 21/19 A2996 RMK AO2  T02050191,,,,,,65.3,,SSE,29.31,28.02,,Light Rain
KIGQ,08/25/2016 10:55 UTC,29.96,68.9,66.2,88.37,3.44,150.0,,,,,,1.0,,,,10.0,,KIGQ 251055Z AUTO 15003KT 10SM CLR 21/19 A2996 RMK AO2 LTG DSNT NE  T02050190,,,,,,65.3,,SSE,29.31,28.02,,Clear
KIGQ,08/25/2016 11:15 UTC,29.99,68.9,66.2,88.37,5.75,240.0,,13.0,,,,1.0,,,,10.0,,KIGQ 251115Z AUTO 24005KT 10SM -RA CLR 21/19 A2999 RMK AO2  T02050190,,,,,,65.3,,WSW,29.34,28.05,,Light Rain
KIGQ,08/25/2016 11:35 UTC,30.0,68.9,66.2,88.37,5.75,210.0,,,,,,1.0,,,,10.0,,KIGQ 251135Z AUTO 21005KT 10SM CLR 21/19 A3000 RMK AO2  T02050190,,,,,,65.3,,SSW,29.35,28.06,,Clear
KIGQ,08/25/2016 11:55 UTC,30.0,68.72,66.38,93.98,3.44,200.0,,,,,,1.0,,,0.3,10.0,,KIGQ 251155Z AUTO 20003KT 10SM CLR 20/19 A3000 RMK AO2 70030  T02040191 10230 20202,73.4,68.36,,,,66.91,,SSW,29.35,27.96,,Clear
KIGQ,08/25/2016 12:15 UTC,30.0,69.08,66.92,88.37,5.75,200.0,,,,,,1.0,,,,10.0,,KIGQ 251215Z AUTO 20005KT 10SM CLR 21/19 A3000 RMK AO2  T02060194,,,,,,65.48,,SSW,29.35,28.04,,Clear
KIGQ,08/25/2016 12:35 UTC,30.0,69.98,67.46,94.03,5.75,260.0,,,,,,1.0,,,,10.0,,KIGQ 251235Z AUTO 26005KT 10SM CLR 21/20 A3000 RMK AO2  T02110197,,,,,,68.17,,W,29.35,27.86,,Clear
KIGQ,08/25/2016 12:55 UTC,30.0,70.34,67.82,94.03,5.75,270.0,,,,,,192.0,,,,10.0,,KIGQ 251255Z AUTO 27005KT 10SM SCT019 21/20 A3000 RMK AO2  T02130199,,,,,,68.53,,W,29.35,27.83,,Partly Cloudy
KIGQ,08/25/2016 13:15 UTC,30.0,72.5,68.9,88.54,9.22,220.0,,,,,,192.0,,,,10.0,,KIGQ 251315Z AUTO 22008KT 10SM SCT019 23/21 A3000 RMK AO2  T02250205,,,,,,68.91,,SW,29.35,27.77,,Partly Cloudy
KIGQ,08/25/2016 13:35 UTC,30.01,73.4,69.08,88.54,10.36,230.0,,,232.0,,,82.0,122.0,,,10.0,,KIGQ 251335Z AUTO 23009KT 10SM SCT008 SCT012 SCT023 23/21  A3001 RMK AO2 T02300206,,,,,,69.79,,SW,29.36,27.7,,Partly Cloudy
KIGQ,08/25/2016 13:55 UTC,30.0,73.76,69.44,88.54,11.5,240.0,,,233.0,,,103.0,153.0,,,10.0,,KIGQ 251355Z AUTO 24010KT 10SM BKN010 BKN015 BKN023 23/21  A3000 RMK AO2 T02320208,,,1000.0,,,70.15,,WSW,29.35,27.66,,Mostly Cloudy
KIGQ,08/25/2016 14:15 UTC,30.0,74.3,69.08,83.37,9.22,240.0,,,,,,104.0,,,,10.0,,KIGQ 251415Z AUTO 24008KT 10SM OVC010 24/21 A3000 RMK AO2  T02350206,,,1000.0,,,68.91,,WSW,29.35,27.74,,Overcast
KIGQ,08/25/2016 14:35 UTC,30.01,73.58,68.72,83.25,11.5,310.0,17.27,,,,,104.0,,,,10.0,,KIGQ 251435Z AUTO 31010G15KT 230V340 10SM OVC010 23/20 A3001 RMK AO2 T02310204,,,1000.0,,,68.17,,NW,29.36,27.82,,Overcast
KIGQ,08/25/2016 14:55 UTC,30.01,73.94,69.08,88.54,10.36,250.0,,,,,,104.0,,,,10.0,,KIGQ 251455Z AUTO 25009KT 10SM OVC010 23/21 A3001 RMK AO2  T02330206,,,1000.0,,,70.33,,WSW,29.36,27.65,,Overcast
KIGQ,08/25/2016 15:15 UTC,30.02,74.48,72.32,88.62,11.5,260.0,,,,0.1,,124.0,,,,,,KIGQ 251515Z AUTO 26010KT OVC012 24/22 A3002 RMK AO2 P0010  T02360224 PWINO,,,1200.0,,,70.89,,W,29.37,27.61,,Overcast
KIGQ,08/25/2016 15:35 UTC,30.02,76.46,73.04,88.7,10.36,250.0,,,,0.1,,123.0,213.0,,,10.0,,KIGQ 251535Z AUTO 25009KT 10SM BKN012 BKN021 25/23 A3002 RMK AO2  P0010 T02470228,,,1200.0,,,72.87,,WSW,29.37,27.43,,Mostly Cloudy
KIGQ,08/25/2016 15:55 UTC,30.03,76.64,72.68,88.7,10.36,260.0,,,,0.1,,173.0,244.0,,,10.0,,KIGQ 251555Z AUTO 26009KT 10SM BKN017 OVC024 25/23 A3003 RMK AO2  P0010 T02480226,,,1700.0,,,73.04,,W,29.38,27.42,,Overcast
KIGQ,08/25/2016 16:15 UTC,30.04,76.28,72.86,88.7,9.22,270.0,,,,,,153.0,214.0,,,10.0,,KIGQ 251615Z AUTO 27008KT 10SM BKN015 OVC021 25/23 A3004 RMK AO2  T02460227,,,1500.0,,,72.69,,W,29.39,27.47,,Overcast
KIGQ,08/25/2016 16:35 UTC,30.05,76.82,72.32,83.48,10.36,280.0,,,,,,214.0,,,,10.0,,KIGQ 251635Z AUTO 28009KT 10SM OVC021 25/22 A3005 RMK AO2  T02490224,,,2100.0,,,71.42,,W,29.4,27.57,,Overcast
KIGQ,08/25/2016 16:55 UTC,30.04,77.0,72.68,88.7,8.05,270.0,,,,,,234.0,,,,10.0,,KIGQ 251655Z AUTO 27007KT 10SM OVC023 25/23 A3004 RMK AO2  T02500226,,,2300.0,,,73.4,,W,29.39,27.4,,Overcast
KIGQ,08/25/2016 17:15 UTC,30.04,77.54,72.5,88.7,8.05,270.0,,,,,,214.0,,,,10.0,,KIGQ 251715Z AUTO 27007KT 10SM OVC021 25/23 A3004 RMK AO2  T02530225,,,2100.0,,,73.93,,W,29.39,27.35,,Overcast
KIGQ,08/25/2016 17:35 UTC,30.05,77.9,72.32,78.68,4.61,290.0,,,,,,234.0,,,,10.0,,KIGQ 251735Z AUTO 29004KT 10SM OVC023 26/22 A3005 RMK AO2  T02550224,,,2300.0,,,70.73,,WNW,29.4,27.61,,Overcast
KIGQ,08/25/2016 17:55 UTC,30.05,77.0,72.14,83.48,6.91,300.0,,,,,,234.0,,0.1,,10.0,,KIGQ 251755Z AUTO 30006KT 10SM OVC023 25/22 A3005 RMK AO2 60010  T02500223 10256 20205,78.08,68.9,2300.0,,,71.6,,WNW,29.4,27.55,,Overcast
KIGQ,08/25/2016 18:15 UTC,30.04,77.18,72.32,83.48,4.61,290.0,,,,,,212.0,294.0,,,10.0,,KIGQ 251815Z AUTO 29004KT 10SM SCT021 OVC029 25/22 A3004 RMK AO2  T02510224,,,2900.0,,,71.77,,WNW,29.39,27.53,,Overcast
KIGQ,08/25/2016 18:35 UTC,30.04,78.08,72.68,83.6,4.61,300.0,,,,,,294.0,,,,10.0,,KIGQ 251835Z AUTO 30004KT 10SM OVC029 26/23 A3004 RMK AO2  T02560226,,,2900.0,,,72.7,,WNW,29.39,27.44,,Overcast
KIGQ,08/25/2016 18:55 UTC,30.04,80.42,73.04,78.82,0.0,0.0,,,342.0,,,232.0,292.0,,,10.0,,KIGQ 251855Z AUTO 00000KT 10SM SCT023 SCT029 SCT034 27/23  A3004 RMK AO2 T02690228,,,,,,73.23,,N,29.39,27.36,84.95,Partly Cloudy
KIGQ,08/25/2016 19:15 UTC,30.04,80.6,72.5,78.82,0.0,0.0,,,,,,232.0,362.0,,,10.0,,KIGQ 251915Z AUTO 00000KT 10SM SCT023 SCT036 27/23 A3004 RMK AO2  T02700225,,,,,,73.41,,N,29.39,27.34,85.33,Partly Cloudy
KIGQ,08/25/2016 19:35 UTC,30.03,81.86,71.96,69.98,4.61,310.0,,,,,,292.0,402.0,,,10.0,,KIGQ 251935Z AUTO 31004KT 10SM SCT029 SCT040 28/22 A3003 RMK AO2  T02770222,,,,,,71.1,,NW,29.38,27.51,86.17,Partly Cloudy
KIGQ,08/25/2016 19:55 UTC,30.03,82.58,73.4,74.36,0.0,0.0,,,503.0,,,292.0,332.0,,,10.0,,KIGQ 251955Z AUTO 00000KT 10SM SCT029 SCT033 BKN050 28/23  A3003 RMK AO2 T02810230,,,5000.0,,,73.6,,N,29.38,27.29,88.67,Mostly Cloudy
KIGQ,08/25/2016 20:15 UTC,30.03,81.86,72.14,69.98,0.0,0.0,,,,,,292.0,,,,10.0,,KIGQ 252015Z AUTO 00000KT 10SM SCT029 28/22 A3003 RMK AO2  T02770223,,,,,,71.1,,N,29.38,27.51,86.17,Partly Cloudy
KIGQ,08/25/2016 20:35 UTC,30.03,82.94,71.96,69.98,4.61,330.0,9.22,,,,,362.0,422.0,,,10.0,,KIGQ 252035Z AUTO 33004G08KT 10SM SCT036 SCT042 28/22 A3003 RMK AO2 T02830222,,,,,,72.14,,NNW,29.38,27.41,88.26,Partly Cloudy
KIGQ,08/25/2016 20:55 UTC,30.02,83.3,67.82,58.42,8.05,270.0,,,,,,362.0,,,,10.0,,KIGQ 252055Z AUTO 27007KT 10SM SCT036 29/20 A3002 RMK AO2  T02850199,,,,,,67.2,,W,29.37,27.77,86.02,Partly Cloudy
KIGQ,08/25/2016 21:15 UTC,30.02,83.12,68.0,61.9,9.22,270.0,,,,,,1.0,,,,10.0,,KIGQ 252115Z AUTO 27008KT 10SM CLR 28/20 A3002 RMK AO2  T02840200,,,,,,68.71,,W,29.37,27.67,86.55,Clear
KIGQ,08/25/2016 21:35 UTC,30.02,83.48,67.82,58.42,5.75,270.0,,,,,,1.0,,,,10.0,,KIGQ 252135Z AUTO 27005KT 10SM CLR 29/20 A3002 RMK AO2  T02860199,,,,,,67.37,,W,29.37,27.76,86.29,Clear
KIGQ,08/25/2016 21:55 UTC,30.02,82.4,67.28,61.9,8.05,270.0,,,,,,1.0,,,,10.0,,KIGQ 252155Z AUTO 27007KT 10SM CLR 28/20 A3002 RMK AO2  T02800196,,,,,,68.03,,W,29.37,27.72,85.4,Clear
KIGQ,08/25/2016 22:15 UTC,30.02,80.96,64.76,57.94,6.91,260.0,,,,,,653.0,853.0,,,10.0,,KIGQ 252215Z AUTO 26006KT 10SM BKN065 BKN085 27/18 A3002 RMK AO2  T02720182,,,6500.0,,,64.76,,W,29.37,27.97,82.72,Mostly Cloudy
KIGQ,08/25/2016 22:35 UTC,30.02,80.6,67.1,65.62,4.61,290.0,,,,,,652.0,,,,10.0,,KIGQ 252235Z AUTO 29004KT 10SM SCT065 27/20 A3002 RMK AO2  T02700195,,,,,,68.01,,WNW,29.37,27.75,83.31,Partly Cloudy
KIGQ,08/25/2016 22:55 UTC,30.02,79.88,68.0,65.62,4.61,290.0,,,,,,652.0,1103.0,,,10.0,,KIGQ 252255Z AUTO 29004KT 10SM SCT065 BKN110 27/20 A3002 RMK AO2  T02660200,,,11000.0,,,67.33,,WNW,29.37,27.8,,Mostly Cloudy
KIGQ,08/25/2016 23:15 UTC,30.01,79.88,69.08,69.79,6.91,310.0,,,,,,652.0,1103.0,,,10.0,,KIGQ 252315Z AUTO 31006KT 10SM SCT065 BKN110 27/21 A3001 RMK AO2  T02660206,,,11000.0,,,69.12,,NW,29.36,27.66,,Mostly Cloudy
KIGQ,08/25/2016 23:35 UTC,30.02,79.34,68.72,69.6,4.61,290.0,,,,,,653.0,1103.0,,,10.0,,KIGQ 252335Z AUTO 29004KT 10SM BKN065 BKN110 26/20 A3002 RMK AO2  T02630204,,,6500.0,,,68.52,,WNW,29.37,27.72,,Mostly Cloudy
KIGQ,08/25/2016 23:55 UTC,30.02,78.62,69.08,74.02,4.61,300.0,,,,,,552.0,1104.0,,,10.0,,KIGQ 252355Z AUTO 30004KT 10SM SCT055 OVC110 26/21 A3002 RMK AO2  T02590206 10286 20250,83.48,77.0,11000.0,,,69.63,,WNW,29.37,27.65,,Overcast
KIGQ,08/26/2016 00:15 UTC,30.03,78.08,69.26,74.02,4.61,280.0,,,,,,653.0,1104.0,,,10.0,,KIGQ 260015Z AUTO 28004KT 10SM BKN065 OVC110 26/21 A3003 RMK AO2  T02560207,,,6500.0,,,69.11,,W,29.38,27.71,,Overcast
KIGQ,08/26/2016 00:35 UTC,30.03,77.0,69.26,78.54,0.0,0.0,,,,,,754.0,,,,10.0,,KIGQ 260035Z AUTO 00000KT 10SM OVC075 25/21 A3003 RMK AO2  T02500207,,,7500.0,,,69.8,,N,29.38,27.67,,Overcast
KIGQ,08/26/2016 00:55 UTC,30.04,76.64,70.34,78.54,3.44,340.0,,,,,,753.0,,,,10.0,,KIGQ 260055Z AUTO 34003KT 10SM BKN075 25/21 A3004 RMK AO2  T02480213,,,7500.0,,,69.45,,NNW,29.39,27.71,,Mostly Cloudy
KIGQ,08/26/2016 01:15 UTC,30.05,76.1,70.7,83.48,4.61,330.0,,6.0,,,,502.0,754.0,,,5.0,,KIGQ 260115Z AUTO 33004KT 5SM HZ SCT050 OVC075 25/22 A3005 RMK AO2  T02450215,,,7500.0,,,70.71,,NNW,29.4,27.63,,Haze
KIGQ,08/26/2016 01:35 UTC,30.06,75.2,70.88,88.62,0.0,0.0,,,754.0,,,503.0,553.0,,,10.0,,KIGQ 260135Z AUTO 00000KT 10SM BKN050 BKN055 OVC075 24/22  A3006 RMK AO2 T02400216,,,5000.0,,,71.6,,N,29.41,27.59,,Overcast
KIGQ,08/26/2016 01:55 UTC,30.06,73.94,71.06,94.12,0.0,0.0,,,,,,482.0,552.0,,,10.0,,KIGQ 260155Z AUTO 00000KT 10SM SCT048 SCT055 23/22 A3006 RMK AO2  T02330217,,,,,,72.13,,N,29.41,27.57,,Partly Cloudy
KIGQ,08/26/2016 02:15 UTC,30.07,73.4,71.06,94.12,0.0,0.0,,,,,,482.0,,,,10.0,,KIGQ 260215Z AUTO 00000KT 10SM SCT048 23/22 A3007 RMK AO2  T02300217,,,,,,71.6,,N,29.42,27.63,,Partly Cloudy
KIGQ,08/26/2016 02:35 UTC,30.06,73.4,71.06,94.12,0.0,0.0,,,,,,1.0,,,,10.0,,KIGQ 260235Z AUTO 00000KT 10SM CLR 23/22 A3006 RMK AO2  T02300217,,,,,,71.6,,N,29.41,27.62,,Clear
KIGQ,08/26/2016 02:55 UTC,30.07,73.04,70.7,94.12,0.0,0.0,,,,,,1.0,,,,10.0,,KIGQ 260255Z AUTO 00000KT 10SM CLR 23/22 A3007 RMK AO2  T02280215,,,,,,71.24,,N,29.42,27.66,,Clear
KIGQ,08/26/2016 03:15 UTC,30.08,71.78,70.7,100.0,0.0,0.0,,,,,,1.0,,,,10.0,,KIGQ 260315Z AUTO 00000KT 10SM CLR 22/22 A3008 RMK AO2  T02210215,,,,,,71.78,,N,29.43,27.65,,Clear
KIGQ,08/26/2016 03:35 UTC,30.08,70.34,70.16,100.0,0.0,0.0,,,,,,1.0,,,,7.0,,KIGQ 260335Z AUTO 00000KT 7SM CLR 21/21 A3008 RMK AO2  T02130212,,,,,,70.34,,N,29.43,27.78,,Clear
KIGQ,08/26/2016 03:55 UTC,30.08,70.52,70.34,100.0,0.0,0.0,,,,,,1.0,,,,10.0,,KIGQ 260355Z AUTO 00000KT 10SM CLR 21/21 A3008 RMK AO2  T02140213,,,,,,70.52,,N,29.43,27.76,,Clear
KIGQ,08/26/2016 04:15 UTC,30.09,70.52,70.16,100.0,0.0,0.0,,,,,,1.0,,,,7.0,,KIGQ 260415Z AUTO 00000KT 7SM CLR 21/21 A3009 RMK AO2  T02140212,,,,,,70.52,,N,29.44,27.77,,Clear
KIGQ,08/26/2016 04:35 UTC,30.09,70.16,69.98,100.0,0.0,0.0,,,,,,1.0,,,,10.0,,KIGQ 260435Z AUTO 00000KT 10SM CLR 21/21 A3009 RMK AO2  T02120211,,,,,,70.16,,N,29.44,27.8,,Clear
KIGQ,08/26/2016 04:55 UTC,30.09,69.98,69.98,100.0,0.0,0.0,,,,,,1.0,,,,7.0,,KIGQ 260455Z AUTO 00000KT 7SM CLR 21/21 A3009 RMK AO2  T02110211,,,,,,69.98,,N,29.44,27.82,,Clear
KIGQ,08/26/2016 05:15 UTC,30.1,68.72,68.72,100.0,0.0,0.0,,,,,,1.0,,,,7.0,,KIGQ 260515Z AUTO 00000KT 7SM CLR 20/20 A3010 RMK AO2  T02040204,,,,,,68.72,,N,29.45,27.94,,Clear
KIGQ,08/26/2016 05:35 UTC,30.1,67.64,67.64,100.0,0.0,0.0,,,,,,1.0,,,,10.0,,KIGQ 260535Z AUTO 00000KT 10SM CLR 20/20 A3010 RMK AO2  T01980198,,,,,,67.64,,N,29.45,28.03,,Clear
KIGQ,08/26/2016 05:55 UTC,30.1,66.74,66.74,100.0,0.0,0.0,,,,,,1.0,,,,10.0,,KIGQ 260555Z AUTO 00000KT 10SM CLR 19/19 A3010 RMK AO2 T01930193  10258 20193 402860193,78.44,66.74,,83.48,66.74,66.74,,N,29.45,28.1,,Clear
KIGQ,08/26/2016 06:15 UTC,30.1,66.2,66.2,100.0,0.0,0.0,,,,,,1.0,,,,7.0,,KIGQ 260615Z AUTO 00000KT 7SM CLR 19/19 A3010 RMK AO2  T01900190,,,,,,66.2,,N,29.45,28.14,,Clear
KIGQ,08/26/2016 06:35 UTC,30.1,66.2,66.2,100.0,0.0,0.0,,,,,,1.0,,,,10.0,,KIGQ 260635Z AUTO 00000KT 10SM CLR 19/19 A3010 RMK AO2  T01900190,,,,,,66.2,,N,29.45,28.14,,Clear
KIGQ,08/26/2016 06:55 UTC,30.11,66.74,66.74,100.0,0.0,0.0,,,,,,1.0,,,,10.0,,KIGQ 260655Z AUTO 00000KT 10SM CLR 19/19 A3011 RMK AO2  T01930193,,,,,,66.74,,N,29.46,28.11,,Clear
KIGQ,08/26/2016 07:15 UTC,30.11,65.48,65.3,100.0,0.0,0.0,,,,,,1.0,,,,10.0,,KIGQ 260715Z AUTO 00000KT 10SM CLR 19/19 A3011 RMK AO2  T01860185,,,,,,65.48,,N,29.46,28.21,,Clear
KIGQ,08/26/2016 07:35 UTC,30.11,65.12,65.12,100.0,0.0,0.0,,,,,,1.0,,,,10.0,,KIGQ 260735Z AUTO 00000KT 10SM CLR 18/18 A3011 RMK AO2  T01840184,,,,,,65.12,,N,29.46,28.23,,Clear
KIGQ,08/26/2016 07:55 UTC,30.11,66.02,66.02,100.0,0.0,0.0,,,,,,1.0,,,,10.0,,KIGQ 260755Z AUTO 00000KT 10SM CLR 19/19 A3011 RMK AO2  T01890189,,,,,,66.02,,N,29.46,28.17,,Clear
KIGQ,08/26/2016 08:15 UTC,30.1,66.38,66.38,100.0,0.0,0.0,,,,,,1.0,,,,10.0,,KIGQ 260815Z AUTO 00000KT 10SM CLR 19/19 A3010 RMK AO2  T01910191,,,,,,66.38,,N,29.45,28.13,,Clear
KIGQ,08/26/2016 08:35 UTC,30.1,64.94,64.94,100.0,0.0,0.0,,,,,,1.0,,,,10.0,,KIGQ 260835Z AUTO 00000KT 10SM CLR 18/18 A3010 RMK AO2  T01830183,,,,,,64.94,,N,29.45,28.24,,Clear
KIGQ,08/26/2016 08:55 UTC,30.11,64.58,64.58,100.0,0.0,0.0,,,,,,1.0,,,,10.0,,KIGQ 260855Z AUTO 00000KT 10SM CLR 18/18 A3011 RMK AO2  T01810181,,,,,,64.58,,N,29.46,28.27,,Clear
KIGQ,08/26/2016 09:15 UTC,30.12,64.4,64.4,100.0,0.0,0.0,,,,,,1.0,,,,10.0,,KIGQ 260915Z AUTO 00000KT 10SM CLR 18/18 A3012 RMK AO2  T01800180,,,,,,64.4,,N,29.47,28.3,,Clear
KIGQ,08/26/2016 09:35 UTC,30.11,65.3,65.3,100.0,0.0,0.0,,,,,,1.0,,,,10.0,,KIGQ 260935Z AUTO 00000KT 10SM CLR 19/19 A3011 RMK AO2 LTG DSNT SW  T01850185,,,,,,65.3,,N,29.46,28.22,,Clear
KIGQ,08/26/2016 09:55 UTC,30.12,64.58,64.58,100.0,0.0,0.0,,,,,,1.0,,,,10.0,,KIGQ 260955Z AUTO 00000KT 10SM CLR 18/18 A3012 RMK AO2  T01810181,,,,,,64.58,,N,29.47,28.28,,Clear
KIGQ,08/26/2016 10:15 UTC,30.13,65.48,65.48,100.0,0.0,0.0,,,,,,1.0,,,,10.0,,KIGQ 261015Z AUTO 00000KT 10SM CLR 19/19 A3013 RMK AO2  T01860186,,,,,,65.48,,N,29.47,28.22,,Clear
KIGQ,08/26/2016 10:35 UTC,30.13,65.3,65.3,100.0,0.0,0.0,,,,,,1.0,,,,10.0,,KIGQ 261035Z AUTO 00000KT 10SM CLR 19/19 A3013 RMK AO2  T01850185,,,,,,65.3,,N,29.47,28.23,,Clear
KIGQ,08/26/2016 10:55 UTC,30.13,65.48,65.3,100.0,0.0,0.0,,,,,,1.0,,,,10.0,,KIGQ 261055Z AUTO 00000KT 10SM CLR 19/19 A3013 RMK AO2  T01860185,,,,,,65.48,,N,29.47,28.22,,Clear
KIGQ,08/26/2016 11:15 UTC,30.13,67.64,65.12,88.29,0.0,0.0,,,,,,1.0,,,,10.0,,KIGQ 261115Z AUTO 00000KT 10SM CLR 20/18 A3013 RMK AO2  T01980184,,,,,,64.03,,N,29.47,28.27,,Clear
KIGQ,08/26/2016 11:35 UTC,30.14,68.36,65.12,88.29,0.0,0.0,,,,,,1.0,,,,10.0,,KIGQ 261135Z AUTO 00000KT 10SM CLR 20/18 A3014 RMK AO2  T02020184,,,,,,64.74,,N,29.48,28.23,,Clear
KIGQ,08/26/2016 11:55 UTC,30.16,68.9,64.76,83.01,0.0,0.0,,,,,,1.0,,,0.1,10.0,,KIGQ 261155Z AUTO 00000KT 10SM CLR 21/18 A3016 RMK AO2 70010  T02050182 10205 20180,68.9,64.4,,,,63.5,,N,29.5,28.32,,Clear
KIGQ,08/26/2016 12:15 UTC,30.16,69.08,65.3,88.37,0.0,0.0,,,,,,1.0,,,,10.0,,KIGQ 261215Z AUTO 00000KT 10SM CLR 21/19 A3016 RMK AO2  T02060185,,,,,,65.48,,N,29.5,28.2,,Clear
KIGQ,08/26/2016 12:35 UTC,30.16,69.98,66.2,88.37,0.0,0.0,,,,,,1.0,,,,10.0,,KIGQ 261235Z AUTO 00000KT 10SM CLR 21/19 A3016 RMK AO2  T02110190,,,,,,66.36,,N,29.5,28.13,,Clear
KIGQ,08/26/2016 12:55 UTC,30.16,70.16,66.74,88.37,3.44,10.0,,,,,,1.0,,,,10.0,,KIGQ 261255Z AUTO 01003KT 10SM CLR 21/19 A3016 RMK AO2  T02120193,,,,,,66.54,,N,29.5,28.11,,Clear
KIGQ,08/26/2016 13:15 UTC,30.17,71.24,67.46,88.46,0.0,0.0,,,,,,1.0,,,,10.0,,KIGQ 261315Z AUTO 00000KT 10SM CLR 22/20 A3017 RMK AO2  T02180197,,,,,,67.64,,N,29.51,28.04,,Clear
KIGQ,08/26/2016 13:35 UTC,30.18,72.32,68.18,88.46,0.0,0.0,,,,,,1.0,,,,10.0,,KIGQ 261335Z AUTO 00000KT 10SM CLR 22/20 A3018 RMK AO2  T02240201,,,,,,68.7,,N,29.52,27.96,,Clear
KIGQ,08/26/2016 13:55 UTC,30.17,73.4,68.9,88.54,3.44,20.0,,,,,,1002.0,,,,10.0,,KIGQ 261355Z AUTO 02003KT 10SM SCT100 23/21 A3017 RMK AO2  T02300205,,,,,,69.79,,NNE,29.51,27.85,,Partly Cloudy
KIGQ,08/26/2016 14:15 UTC,30.17,74.84,69.98,83.37,6.91,70.0,,,,,,1.0,,,,10.0,,KIGQ 261415Z AUTO 07006KT 10SM CLR 24/21 A3017 RMK AO2  T02380211,,,,,,69.44,,ENE,29.51,27.86,,Clear
KIGQ,08/26/2016 14:35 UTC,30.18,76.1,70.16,78.54,4.61,40.0,,,,,,1002.0,,,,10.0,,KIGQ 261435Z AUTO 04004KT 10SM SCT100 25/21 A3018 RMK AO2  T02450212,,,,,,68.92,,NE,29.52,27.89,,Partly Cloudy
KIGQ,08/26/2016 14:55 UTC,30.17,76.28,69.08,78.54,5.75,30.0,,,,,,212.0,1103.0,,,10.0,,KIGQ 261455Z AUTO 03005KT 10SM SCT021 BKN110 25/21 A3017 RMK AO2  LTG DSNT SW T02460206,,,11000.0,,,69.1,,NNE,29.51,27.86,,Mostly Cloudy
KIGQ,08/26/2016 15:15 UTC,30.18,75.38,67.82,78.39,4.61,10.0,,,,,,212.0,1202.0,,,10.0,,KIGQ 261515Z AUTO 01004KT 10SM SCT021 SCT120 24/20 A3018 RMK AO2  T02410199,,,,,,68.17,,N,29.52,27.95,,Partly Cloudy
KIGQ,08/26/2016 15:35 UTC,30.17,76.28,69.8,78.54,8.05,40.0,,,,,,232.0,1202.0,,,10.0,,KIGQ 261535Z AUTO 04007KT 10SM SCT023 SCT120 25/21 A3017 RMK AO2  T02460210,,,,,,69.1,,NE,29.51,27.86,,Partly Cloudy
KIGQ,08/26/2016 15:55 UTC,30.18,76.46,69.26,78.54,6.91,50.0,,,,,,232.0,,,,10.0,,KIGQ 261555Z AUTO 05006KT 10SM SCT023 25/21 A3018 RMK AO2  T02470207,,,,,,69.27,,NE,29.52,27.86,,Partly Cloudy
KIGQ,08/26/2016 16:15 UTC,30.17,77.36,70.52,78.54,8.05,30.0,,,,,,1.0,,,,10.0,,KIGQ 261615Z AUTO 03007KT 10SM CLR 25/21 A3017 RMK AO2  T02520214,,,,,,70.15,,NNE,29.51,27.77,,Clear
KIGQ,08/26/2016 16:35 UTC,30.17,77.18,69.26,78.54,4.61,10.0,,,,,,242.0,,,,10.0,,KIGQ 261635Z AUTO 01004KT 10SM SCT024 25/21 A3017 RMK AO2  T02510207,,,,,,69.97,,N,29.51,27.79,,Partly Cloudy
KIGQ,08/26/2016 16:55 UTC,30.16,77.54,68.54,73.85,5.75,30.0,,,,,,1.0,,,,10.0,,KIGQ 261655Z AUTO 03005KT 10SM CLR 25/20 A3016 RMK AO2  T02530203,,,,,,68.52,,NNE,29.5,27.88,,Clear
KIGQ,08/26/2016 17:15 UTC,30.16,77.18,68.9,78.54,5.75,30.0,,,,,,1.0,,,,10.0,,KIGQ 261715Z AUTO 03005KT 10SM CLR 25/21 A3016 RMK AO2  T02510205,,,,,,69.97,,NNE,29.5,27.78,,Clear
KIGQ,08/26/2016 17:35 UTC,30.15,77.36,67.82,73.85,0.0,0.0,,,,,,1.0,,,,10.0,,KIGQ 261735Z AUTO 00000KT 10SM CLR 25/20 A3015 RMK AO2  T02520199,,,,,,68.35,,N,29.49,27.88,,Clear
KIGQ,08/26/2016 17:55 UTC,30.16,77.18,67.28,73.85,4.61,60.0,,,,,,1.0,,,,10.0,,KIGQ 261755Z AUTO 06004KT 10SM CLR 25/20 A3016 RMK AO2 T02510196  10259 20205,78.62,68.9,,,,68.17,,ENE,29.5,27.91,,Clear
KIGQ,08/26/2016 18:15 UTC,30.15,77.0,68.54,73.85,6.91,40.0,,,,,,1.0,,,,10.0,,KIGQ 261815Z AUTO 04006KT 10SM CLR 25/20 A3015 RMK AO2  T02500203,,,,,,68.0,,NE,29.49,27.91,,Clear
KIGQ,08/26/2016 18:35 UTC,30.15,77.9,68.9,74.02,5.75,40.0,,,,,,1.0,,,,10.0,,KIGQ 261835Z AUTO 04005KT 10SM CLR 26/21 A3015 RMK AO2  T02550205,,,,,,68.94,,NE,29.49,27.83,,Clear
KIGQ,08/26/2016 18:55 UTC,30.15,78.08,68.9,74.02,0.0,0.0,,,,,,1.0,,,,10.0,,KIGQ 261855Z AUTO 00000KT 10SM CLR 26/21 A3015 RMK AO2  T02560205,,,,,,69.11,,N,29.49,27.82,,Clear
KIGQ,08/26/2016 19:15 UTC,30.14,78.44,69.08,74.02,0.0,0.0,,,,,,1.0,,,,10.0,,KIGQ 261915Z AUTO 00000KT 10SM CLR 26/21 A3014 RMK AO2  T02580206,,,,,,69.46,,N,29.48,27.78,,Clear
KIGQ,08/26/2016 19:35 UTC,30.13,77.9,69.08,74.02,5.75,30.0,,,,,,1.0,,,,10.0,,KIGQ 261935Z AUTO 03005KT 10SM CLR 26/21 A3013 RMK AO2  T02550206,,,,,,68.94,,NNE,29.47,27.81,,Clear
KIGQ,08/26/2016 19:55 UTC,30.12,78.08,69.62,74.02,8.05,20.0,,,,,,1.0,,,,10.0,,KIGQ 261955Z AUTO 02007KT 10SM CLR 26/21 A3012 RMK AO2  T02560209,,,,,,69.11,,NNE,29.47,27.8,,Clear
KIGQ,08/26/2016 20:15 UTC,30.12,77.54,69.08,78.54,8.05,40.0,,,,,,272.0,,,,10.0,,KIGQ 262015Z AUTO 04007KT 10SM SCT027 25/21 A3012 RMK AO2  T02530206,,,,,,70.32,,NE,29.47,27.72,,Partly Cloudy
KIGQ,08/26/2016 20:35 UTC,30.12,77.0,69.08,78.54,8.05,50.0,,,,,,272.0,,,,10.0,,KIGQ 262035Z AUTO 05007KT 10SM SCT027 25/21 A3012 RMK AO2  T02500206,,,,,,69.8,,NE,29.47,27.76,,Partly Cloudy
KIGQ,08/26/2016 20:55 UTC,30.12,75.56,68.18,78.39,9.22,70.0,,,,,,1.0,,,,10.0,,KIGQ 262055Z AUTO 07008KT 10SM CLR 24/20 A3012 RMK AO2  T02420201,,,,,,68.34,,ENE,29.47,27.89,,Clear
KIGQ,08/26/2016 21:15 UTC,30.12,75.2,68.0,78.39,9.22,60.0,,,,,,1.0,,,,10.0,,KIGQ 262115Z AUTO 06008KT 10SM CLR 24/20 A3012 RMK AO2  T02400200,,,,,,67.99,,ENE,29.47,27.92,,Clear
KIGQ,08/26/2016 21:35 UTC,30.13,75.2,68.18,78.39,3.44,40.0,,,,,,1.0,,,,10.0,,KIGQ 262135Z AUTO 04003KT 10SM CLR 24/20 A3013 RMK AO2  T02400201,,,,,,67.99,,NE,29.47,27.92,,Clear
KIGQ,08/26/2016 21:55 UTC,30.12,74.3,68.0,78.39,9.22,40.0,,,,,,1.0,,,,10.0,,KIGQ 262155Z AUTO 04008KT 10SM CLR 24/20 A3012 RMK AO2  T02350200,,,,,,67.12,,NE,29.47,27.99,,Clear
KIGQ,08/26/2016 22:15 UTC,30.13,73.94,67.64,83.25,9.22,60.0,,,,,,1.0,,,,10.0,,KIGQ 262215Z AUTO 06008KT 10SM CLR 23/20 A3013 RMK AO2  T02330198,,,,,,68.52,,ENE,29.47,27.9,,Clear
KIGQ,08/26/2016 22:35 UTC,30.13,73.76,67.28,83.25,4.61,50.0,,,,,,1.0,,,,10.0,,KIGQ 262235Z AUTO 05004KT 10SM CLR 23/20 A3013 RMK AO2  T02320196,,,,,,68.34,,NE,29.47,27.91,,Clear
KIGQ,08/26/2016 22:55 UTC,30.12,73.58,67.46,83.25,8.05,40.0,,,,,,1202.0,,,,10.0,,KIGQ 262255Z AUTO 04007KT 10SM SCT120 23/20 A3012 RMK AO2  T02310197,,,,,,68.17,,NE,29.47,27.93,,Partly Cloudy
KIGQ,08/26/2016 23:15 UTC,30.11,73.4,68.0,83.25,10.36,40.0,,,,,,1.0,,,,10.0,,KIGQ 262315Z AUTO 04009KT 10SM CLR 23/20 A3011 RMK AO2  T02300200,,,,,,67.99,,NE,29.46,27.93,,Clear
KIGQ,08/26/2016 23:35 UTC,30.11,73.4,67.46,83.25,9.22,30.0,,,,,,1.0,,,,10.0,,KIGQ 262335Z AUTO 03008KT 10SM CLR 23/20 A3011 RMK AO2  T02300197,,,,,,67.99,,NNE,29.46,27.93,,Clear
KIGQ,08/26/2016 23:55 UTC,30.12,73.4,67.1,83.25,8.05,50.0,,,,,,1.0,,,,10.0,,KIGQ 262355Z AUTO 05007KT 10SM CLR 23/20 A3012 RMK AO2 T02300195  10261 20228,78.98,73.04,,,,67.99,,NE,29.47,27.94,,Clear
KIGQ,08/27/2016 00:15 UTC,30.12,72.86,67.64,83.25,6.91,40.0,,,,,,1.0,,,,10.0,,KIGQ 270015Z AUTO 04006KT 10SM CLR 23/20 A3012 RMK AO2  T02270198,,,,,,67.46,,NE,29.47,27.99,,Clear
KIGQ,08/27/2016 00:35 UTC,30.13,72.5,68.0,83.25,6.91,50.0,,,,,,1.0,,,,10.0,,KIGQ 270035Z AUTO 05006KT 10SM CLR 23/20 A3013 RMK AO2  T02250200,,,,,,67.11,,NE,29.47,28.01,,Clear
KIGQ,08/27/2016 00:55 UTC,30.13,72.32,68.0,88.46,6.91,50.0,,,,,,552.0,,,,10.0,,KIGQ 270055Z AUTO 05006KT 10SM SCT055 22/20 A3013 RMK AO2  T02240200,,,,,,68.7,,NE,29.47,27.91,,Partly Cloudy
KIGQ,08/27/2016 01:15 UTC,30.13,72.14,67.82,88.46,6.91,40.0,,,,,,1.0,,,,10.0,,KIGQ 270115Z AUTO 04006KT 10SM CLR 22/20 A3013 RMK AO2  T02230199,,,,,,68.52,,NE,29.47,27.92,,Clear
KIGQ,08/27/2016 01:35 UTC,30.13,72.14,67.28,88.46,4.61,50.0,,,,,,552.0,,,,10.0,,KIGQ 270135Z AUTO 05004KT 10SM SCT055 22/20 A3013 RMK AO2  T02230196,,,,,,68.52,,NE,29.47,27.92,,Partly Cloudy
KIGQ,08/27/2016 01:55 UTC,30.13,72.14,67.28,88.46,4.61,60.0,,,,,,553.0,,,,10.0,,KIGQ 270155Z AUTO 06004KT 10SM BKN055 22/20 A3013 RMK AO2  T02230196,,,5500.0,,,68.52,,ENE,29.47,27.92,,Mostly Cloudy
KIGQ,08/27/2016 02:15 UTC,30.13,72.32,67.28,88.46,5.75,40.0,,,504.0,,,392.0,483.0,,,10.0,,KIGQ 270215Z AUTO 04005KT 10SM SCT039 BKN048 OVC050 22/20  A3013 RMK AO2 T02240196,,,4800.0,,,68.7,,NE,29.47,27.91,,Overcast
KIGQ,08/27/2016 02:35 UTC,30.12,72.32,67.64,88.46,6.91,40.0,,,604.0,,,413.0,483.0,,,10.0,,KIGQ 270235Z AUTO 04006KT 10SM BKN041 BKN048 OVC060 22/20  A3012 RMK AO2 T02240198,,,4100.0,,,68.7,,NE,29.47,27.91,,Overcast
KIGQ,08/27/2016 02:55 UTC,30.12,72.5,67.64,83.25,6.91,60.0,,,,,,414.0,,,,10.0,,KIGQ 270255Z AUTO 06006KT 10SM OVC041 23/20 A3012 RMK AO2  T02250198,,,4100.0,,,67.11,,ENE,29.47,28.01,,Overcast
KIGQ,08/27/2016 03:15 UTC,30.12,72.5,67.46,83.25,5.75,60.0,,,,,,374.0,,,,10.0,,KIGQ 270315Z AUTO 06005KT 10SM OVC037 23/20 A3012 RMK AO2 LTG DSNT  W T02250197,,,3700.0,,,67.11,,ENE,29.47,28.01,,Overcast
KIGQ,08/27/2016 03:35 UTC,30.13,72.5,67.64,83.25,6.91,60.0,,,,,,354.0,,,,10.0,,KIGQ 270335Z AUTO 06006KT 10SM OVC035 23/20 A3013 RMK AO2  T02250198,,,3500.0,,,67.11,,ENE,29.47,28.01,,Overcast
KIGQ,08/27/2016 03:55 UTC,30.12,72.5,67.64,83.25,9.22,40.0,,,1004.0,,,353.0,453.0,,,10.0,,KIGQ 270355Z AUTO 04008KT 10SM BKN035 BKN045 OVC100 23/20  A3012 RMK AO2 T02250198,,,3500.0,,,67.11,,NE,29.47,28.01,,Overcast
KIGQ,08/27/2016 04:15 UTC,30.11,71.96,67.64,88.46,8.05,50.0,,17.0,,,,1103.0,,,,10.0,,KIGQ 270415Z AUTO 05007KT 10SM -DZ BKN110 22/20 A3011 RMK AO2  T02220198,,,11000.0,,,68.35,,NE,29.46,27.93,,Light Drizzle
KIGQ,08/27/2016 04:35 UTC,30.11,72.14,67.64,88.46,6.91,60.0,,,1203.0,,,323.0,1003.0,,,10.0,,KIGQ 270435Z AUTO 06006KT 10SM BKN032 BKN100 BKN120 22/20  A3011 RMK AO2 T02230198,,,3200.0,,,68.52,,ENE,29.46,27.91,,Mostly Cloudy
KIGQ,08/27/2016 04:55 UTC,30.11,71.78,67.82,88.46,3.44,40.0,,17.0,,,,343.0,,,,10.0,,KIGQ 270455Z AUTO 04003KT 10SM -DZ BKN034 22/20 A3011 RMK AO2 LTG  DSNT W T02210199,,,3400.0,,,68.17,,NE,29.46,27.94,,Light Drizzle
KIGQ,08/27/2016 05:15 UTC,30.12,72.32,66.92,83.13,3.44,50.0,,,,,,363.0,,,,10.0,,KIGQ 270515Z AUTO 05003KT 10SM BKN036 22/19 A3012 RMK AO2  T02240194,,,3600.0,,,66.89,,NE,29.47,28.03,,Mostly Cloudy
KIGQ,08/27/2016 05:35 UTC,30.12,72.14,66.02,83.13,5.75,50.0,,,,,,362.0,,,,10.0,,KIGQ 270535Z AUTO 05005KT 10SM SCT036 22/19 A3012 RMK AO2  T02230189,,,,,,66.71,,NE,29.47,28.05,,Partly Cloudy
KIGQ,08/27/2016 05:55 UTC,30.11,71.6,66.2,83.13,3.44,40.0,,,,,,312.0,382.0,,,10.0,,KIGQ 270555Z AUTO 04003KT 10SM SCT031 SCT038 22/19 A3011 RMK AO2  T02200190 10230 20220 402610180,73.4,71.6,,78.98,64.4,66.18,,NE,29.46,28.08,,Partly Cloudy
KIGQ,08/27/2016 06:15 UTC,30.11,71.06,66.92,83.13,4.61,50.0,,13.0,,,,1.0,,,,10.0,,KIGQ 270615Z AUTO 05004KT 10SM -RA CLR 22/19 A3011 RMK AO2 LTG  DSNT W T02170194,,,,,,65.65,,NE,29.46,28.12,,Light Rain
KIGQ,08/27/2016 06:35 UTC,30.11,70.88,66.74,83.13,3.44,60.0,,,,,,1.0,,,,10.0,,KIGQ 270635Z AUTO 06003KT 10SM CLR 22/19 A3011 RMK AO2 LTG DSNT NW  T02160193,,,,,,65.48,,ENE,29.46,28.13,,Clear
KIGQ,08/27/2016 06:55 UTC,30.1,70.7,67.1,88.46,3.44,40.0,,,,,,1.0,,,,10.0,,KIGQ 270655Z AUTO 04003KT 10SM CLR 22/20 A3010 RMK AO2 LTG DSNT NW  T02150195,,,,,,67.1,,NE,29.45,28.02,,Clear
KIGQ,08/27/2016 07:15 UTC,30.09,70.34,67.1,94.03,3.44,50.0,,,,,,1.0,,,,10.0,,KIGQ 270715Z AUTO 05003KT 10SM CLR 21/20 A3009 RMK AO2  T02130195,,,,,,68.53,,NE,29.44,27.92,,Clear
KIGQ,08/27/2016 07:35 UTC,30.09,70.52,67.1,94.03,3.44,50.0,,,,,,1.0,,,,10.0,,KIGQ 270735Z AUTO 05003KT 10SM CLR 21/20 A3009 RMK AO2 LTG DSNT SW  T02140195,,,,,,68.71,,NE,29.44,27.9,,Clear
KIGQ,08/27/2016 07:55 UTC,30.08,70.34,67.1,94.03,3.44,60.0,,1.0,902.0,,,262.0,702.0,,,10.0,,KIGQ 270755Z AUTO 06003KT 10SM RA SCT026 SCT070 SCT090 21/20  A3008 RMK AO2 LTG DSNT S THRU NW T02130195,,,,,,68.53,,ENE,29.43,27.91,,Rain
KIGQ,08/27/2016 08:15 UTC,30.07,69.08,68.0,94.03,9.22,100.0,,,1004.0,0.03,,332.0,853.0,,,7.0,,KIGQ 270815Z AUTO 10008KT 7SM -VCTSRA SCT033 BKN085 OVC100 21/20  A3007 RMK AO2 LTG DSNT SE AND SW P0003 T02060200,,,8500.0,,,67.28,,E,29.42,28.0,,Overcast
KIGQ,08/27/2016 08:35 UTC,30.07,68.9,67.82,94.03,4.61,110.0,,5.0,1004.0,0.03,,292.0,553.0,,,10.0,,KIGQ 270835Z AUTO 11004KT 10SM VCTS SCT029 BKN055 OVC100 21/20  A3007 RMK AO2 LTG DSNT SE THRU W P0003 T02050199,,,5500.0,,,67.1,,ESE,29.42,28.01,,Thunder
KIGQ,08/27/2016 08:55 UTC,30.06,69.08,68.0,94.03,0.0,0.0,,5.0,1104.0,0.03,0.03,502.0,853.0,,,10.0,,KIGQ 270855Z AUTO 00000KT 10SM VCTS SCT050 BKN085 OVC110 21/20  A3006 RMK AO2 LTG DSNT ALQS P0003 60003 T02060200,,,8500.0,,,67.28,,N,29.41,27.99,,Thunder
KIGQ,08/27/2016 09:15 UTC,30.06,68.9,68.36,94.03,3.44,40.0,,14.0,1004.0,,,503.0,603.0,,,10.0,,KIGQ 270915Z AUTO 04003KT 10SM +RA BKN050 BKN060 OVC100 21/20  A3006 RMK AO2 LTG DSNT ALQS T02050202,,,5000.0,,,67.1,,NE,29.41,28.0,,Heavy Rain
KIGQ,08/27/2016 09:35 UTC,30.08,68.9,68.9,100.0,5.75,290.0,,66.0,,0.06,,484.0,,,,5.0,,KIGQ 270935Z AUTO 29005KT 5SM TSRA OVC048 21/21 A3008 RMK AO2 LTG  DSNT ALQS P0006 T02050205,,,4800.0,,,68.9,,WNW,29.43,27.9,,Thunderstorm
KIGQ,08/27/2016 09:55 UTC,30.07,68.72,68.72,100.0,0.0,0.0,,,1104.0,0.11,,332.0,503.0,,,5.0,,KIGQ 270955Z AUTO 00000KT 5SM +VCTSRA SCT033 BKN050 OVC110 20/20  A3007 RMK AO2 LTG DSNT ALQS P0011 T02040204,,,5000.0,,,68.72,,N,29.42,27.91,,Overcast
KIGQ,08/27/2016 10:15 UTC,30.08,68.9,68.9,100.0,0.0,0.0,,78.0,954.0,,,332.0,503.0,,,5.0,,KIGQ 271015Z AUTO 00000KT 5SM +TSRA SCT033 BKN050 OVC095 21/21  A3008 RMK AO2 LTG DSNT ALQS T02050205,,,5000.0,,,68.9,,N,29.43,27.9,,Heavy Rain/Thunderstorm
KIGQ,08/27/2016 10:35 UTC,30.11,68.54,68.54,100.0,5.75,170.0,,78.0,334.0,0.19,,162.0,252.0,,,2.5,,KIGQ 271035Z AUTO 17005KT 2 1/2SM +TSRA SCT016 SCT025 OVC033 20/20  A3011 RMK AO2 LTG DSNT ALQS P0019 T02030203,,,3300.0,,,68.54,,S,29.46,27.96,,Heavy Rain/Thunderstorm
KIGQ,08/27/2016 10:55 UTC,30.08,68.54,68.54,100.0,5.75,90.0,,78.0,604.0,0.31,,172.0,323.0,,,3.0,,KIGQ 271055Z AUTO 09005KT 3SM +TSRA SCT017 BKN032 OVC060 20/20  A3008 RMK AO2 LTG DSNT ALQS P0031 T02030203,,,3200.0,,,68.54,,E,29.43,27.93,,Heavy Rain/Thunderstorm
KIGQ,08/27/2016 11:15 UTC,30.1,68.72,68.72,100.0,0.0,0.0,,,1004.0,0.04,,292.0,653.0,,,3.0,,KIGQ 271115Z AUTO 00000KT 3SM VCTSRA SCT029 BKN065 OVC100 20/20  A3010 RMK AO2 LTG DSNT NE E AND SW P0004 T02040204,,,6500.0,,,68.72,,N,29.45,27.94,,Overcast
KIGQ,08/27/2016 11:35 UTC,30.1,68.54,68.54,100.0,0.0,0.0,,1.0,1104.0,0.07,,502.0,602.0,,,4.0,,KIGQ 271135Z AUTO 00000KT 4SM RA SCT050 SCT060 OVC110 20/20  A3010 RMK AO2 LTG DSNT NE E AND SW P0007 T02030203,,,11000.0,,,68.54,,N,29.45,27.95,,Rain
KIGQ,08/27/2016 11:55 UTC,30.09,68.9,68.9,100.0,0.0,0.0,,1.0,,0.07,,1004.0,,0.52,0.52,4.0,,KIGQ 271155Z AUTO 00000KT 4SM RA OVC100 21/21 A3009 RMK AO2 LTG  DSNT SW P0007 60052 70052 T02050205 10220 20202,71.6,68.36,10000.0,,,68.9,,N,29.44,27.91,,Rain
KIGQ,08/27/2016 12:15 UTC,30.09,69.44,69.44,100.0,0.0,0.0,,1.0,1004.0,,,652.0,752.0,,,4.0,,KIGQ 271215Z AUTO 00000KT 4SM RA SCT065 SCT075 OVC100 21/21  A3009 RMK AO2 LTG DSNT NE AND S T02080208,,,10000.0,,,69.44,,N,29.44,27.87,,Rain
KIGQ,08/27/2016 12:35 UTC,30.09,69.8,69.8,100.0,0.0,0.0,,1.0,904.0,0.01,,22.0,703.0,,,3.0,,KIGQ 271235Z AUTO 00000KT 3SM RA SCT002 BKN070 OVC090 21/21  A3009 RMK AO2 LTG DSNT NE AND E P0001 T02100210,,,7000.0,,,69.8,,N,29.44,27.84,,Rain
KIGQ,08/27/2016 12:55 UTC,30.1,69.8,69.8,100.0,0.0,0.0,,13.0,854.0,0.02,,22.0,163.0,,,4.0,,KIGQ 271255Z AUTO 00000KT 4SM -RA SCT002 BKN016 OVC085 21/21  A3010 RMK AO2 LTG DSNT NE THRU SE P0002 T02100210,,,1600.0,,,69.8,,N,29.45,27.85,,Light Rain
KIGQ,08/27/2016 13:15 UTC,30.1,69.98,69.98,100.0,5.75,120.0,,14.0,484.0,0.01,,23.0,183.0,,,0.75,,KIGQ 271315Z AUTO 12005KT 3/4SM +RA BKN002 BKN018 OVC048 21/21  A3010 RMK AO2 LTG DSNT E AND SE P0001 T02110211,,,200.0,,,69.98,,ESE,29.45,27.83,,Heavy Rain
KIGQ,08/27/2016 13:35 UTC,30.09,70.16,70.16,100.0,3.44,100.0,,31.0,704.0,0.01,,182.0,603.0,,,5.0,,KIGQ 271335Z AUTO 10003KT 5SM BR SCT018 BKN060 OVC070 21/21  A3009 RMK AO2 LTG DSNT E AND SE P0001 T02120212,,,6000.0,,,70.16,,E,29.44,27.8,,Mist
KIGQ,08/27/2016 13:55 UTC,30.09,70.7,70.7,100.0,4.61,130.0,,,1104.0,0.01,,232.0,853.0,,,7.0,,KIGQ 271355Z AUTO 13004KT 7SM SCT023 BKN085 OVC110 22/22 A3009 RMK AO2 LTG DSNT SE P0001 T02150215,,,8500.0,,,70.7,,SE,29.44,27.76,,Overcast
KIGQ,08/27/2016 14:15 UTC,30.09,71.42,71.42,100.0,4.61,120.0,,13.0,753.0,,,32.0,372.0,,,10.0,,KIGQ 271415Z AUTO 12004KT 10SM -RA SCT003 SCT037 BKN075 22/22  A3009 RMK AO2 LTG DSNT SE T02190219,,,7500.0,,,71.42,,ESE,29.44,27.69,,Light Rain
KIGQ,08/27/2016 14:35 UTC,30.07,73.4,73.4,100.0,8.05,120.0,,,372.0,,,32.0,232.0,,,10.0,,KIGQ 271435Z AUTO 12007KT 10SM SCT003 SCT023 SCT037 23/23  A3007 RMK AO2 LTG DSNT E T02300230,,,,,,73.4,,ESE,29.42,27.48,,Partly Cloudy
KIGQ,08/27/2016 14:55 UTC,30.06,74.3,72.68,94.16,6.91,40.0,,,,,0.03,103.0,1203.0,,,10.0,,KIGQ 271455Z AUTO 04006KT 10SM BKN010 BKN120 24/23 A3006 RMK AO2  60003 T02350226,,,1000.0,,,72.5,,NE,29.41,27.53,,Mostly Cloudy
KIGQ,08/27/2016 15:15 UTC,30.06,75.2,73.76,94.16,10.36,140.0,,,1203.0,,,103.0,163.0,,,10.0,,KIGQ 271515Z AUTO 14009KT 030V150 10SM BKN010 BKN016 BKN120 24/23  A3006 RMK AO2 LTG DSNT E T02400232,,,1000.0,,,73.4,,SE,29.41,27.45,,Mostly Cloudy
KIGQ,08/27/2016 15:35 UTC,30.07,75.38,73.04,94.16,11.5,160.0,16.11,,,,,103.0,,,,10.0,,KIGQ 271535Z AUTO 16010G14KT 10SM BKN010 24/23 A3007 RMK AO2  T02410228,,,1000.0,,,73.58,,SSE,29.42,27.44,,Mostly Cloudy
KIGQ,08/27/2016 15:55 UTC,30.08,75.2,72.68,94.16,11.5,170.0,,,,,,124.0,,,,10.0,,KIGQ 271555Z AUTO 17010KT 10SM OVC012 24/23 A3008 RMK AO2  T02400226,,,1200.0,,,73.4,,S,29.43,27.47,,Overcast
KIGQ,08/27/2016 16:15 UTC,30.08,76.64,73.76,88.7,9.22,140.0,,,,,,124.0,,,,10.0,,KIGQ 271615Z AUTO 14008KT 10SM OVC012 25/23 A3008 RMK AO2 LTG DSNT  E T02480232,,,1200.0,,,73.04,,SE,29.43,27.47,,Overcast
KIGQ,08/27/2016 16:35 UTC,30.08,75.56,72.68,94.16,12.66,180.0,,,,,,144.0,,,,10.0,,KIGQ 271635Z AUTO 18011KT 10SM OVC014 24/23 A3008 RMK AO2  T02420226,,,1400.0,,,73.76,,S,29.43,27.43,,Overcast
KIGQ,08/27/2016 16:55 UTC,30.07,77.0,73.22,88.7,9.22,180.0,,,,,,143.0,263.0,,,10.0,,KIGQ 271655Z AUTO 18008KT 10SM BKN014 BKN026 25/23 A3007 RMK AO2  LTG DSNT SE T02500229,,,1400.0,,,73.4,,S,29.42,27.43,,Mostly Cloudy
KIGQ,08/27/2016 17:15 UTC,30.06,78.08,73.76,83.6,6.91,180.0,,,,,,163.0,,,,10.0,,KIGQ 271715Z AUTO 18006KT 10SM BKN016 26/23 A3006 RMK AO2  T02560232,,,1600.0,,,72.7,,S,29.41,27.46,,Mostly Cloudy
KIGQ,08/27/2016 17:35 UTC,30.05,78.8,73.94,85.13,10.36,190.0,,,313.0,,,203.0,263.0,,,10.0,,KIGQ 271735Z AUTO 19009KT 10SM BKN020 BKN026 BKN031 26/23 A3005 RMK AO2 T02600233,,,2000.0,,,73.94,,S,29.4,27.34,,Mostly Cloudy
KIGQ,08/27/2016 17:55 UTC,30.05,80.78,74.84,83.71,10.36,180.0,,,374.0,,,223.0,303.0,0.03,,10.0,,KIGQ 271755Z AUTO 18009KT 10SM BKN022 BKN030 OVC037 27/24  A3005 RMK AO2 60003 T02710238 10271 20205,80.78,68.9,2200.0,,,75.38,,S,29.4,27.18,86.62,Overcast
KIGQ,08/27/2016 18:15 UTC,30.05,80.6,74.3,83.71,9.22,200.0,,,384.0,,,243.0,313.0,,,10.0,,KIGQ 271815Z AUTO 20008KT 10SM BKN024 BKN031 OVC038 27/24  A3005 RMK AO2 T02700235,,,2400.0,,,75.21,,SSW,29.4,27.2,86.17,Overcast
KIGQ,08/27/2016 18:35 UTC,30.04,80.6,74.66,83.71,10.36,170.0,,,393.0,,,243.0,323.0,,,10.0,,KIGQ 271835Z AUTO 17009KT 10SM BKN024 BKN032 BKN039 27/24  A3004 RMK AO2 T02700237,,,2400.0,,,75.21,,S,29.39,27.19,86.17,Mostly Cloudy
KIGQ,08/27/2016 18:55 UTC,30.04,82.58,75.38,78.97,10.36,210.0,,,372.0,,,242.0,302.0,,,10.0,,KIGQ 271855Z AUTO 21009KT 10SM SCT024 SCT030 SCT037 28/24  A3004 RMK AO2 T02810241,,,,,,75.39,,SSW,29.39,27.14,89.94,Partly Cloudy
KIGQ,08/27/2016 19:15 UTC,30.04,83.3,75.2,74.52,9.22,170.0,,,,,,262.0,,,,10.0,,KIGQ 271915Z AUTO 17008KT 10SM SCT026 29/24 A3004 RMK AO2  T02850240,,,,,,74.36,,S,29.39,27.23,90.34,Partly Cloudy
KIGQ,08/27/2016 19:35 UTC,30.03,83.3,74.84,74.52,8.05,190.0,,,,,,402.0,,,,10.0,,KIGQ 271935Z AUTO 19007KT 10SM SCT040 29/24 A3003 RMK AO2  T02850238,,,,,,74.36,,S,29.38,27.22,90.34,Partly Cloudy
KIGQ,08/27/2016 19:55 UTC,30.03,84.02,75.02,74.52,9.22,180.0,,,462.0,,,282.0,382.0,,,10.0,,KIGQ 271955Z AUTO 18008KT 10SM SCT028 SCT038 SCT046 29/24  A3003 RMK AO2 T02890239,,,,,,75.05,,S,29.38,27.14,92.04,Partly Cloudy
KIGQ,08/27/2016 20:15 UTC,30.03,83.48,75.38,74.52,9.22,200.0,18.41,,453.0,,,312.0,382.0,,,10.0,,KIGQ 272015Z AUTO 20008G16KT 10SM SCT031 SCT038 BKN045 29/24  A3003 RMK AO2 T02860241,,,4500.0,,,74.53,,SSW,29.38,27.2,90.76,Mostly Cloudy
KIGQ,08/27/2016 20:35 UTC,30.03,84.02,74.48,74.52,11.5,200.0,,,483.0,,,322.0,413.0,,,10.0,,KIGQ 272035Z AUTO 20010KT 10SM SCT032 BKN041 BKN048 29/24  A3003 RMK AO2 T02890236,,,4100.0,,,75.05,,SSW,29.38,27.14,92.04,Mostly Cloudy
KIGQ,08/27/2016 20:55 UTC,30.02,84.2,75.92,74.52,6.91,210.0,,,603.0,,,322.0,413.0,,,10.0,,KIGQ 272055Z AUTO 21006KT 10SM SCT032 BKN041 BKN060 29/24  A3002 RMK AO2 T02900244,,,4100.0,,,75.23,,SSW,29.37,27.12,92.48,Mostly Cloudy
KIGQ,08/27/2016 21:15 UTC,30.02,82.94,74.66,78.97,9.22,210.0,,,603.0,,,322.0,473.0,,,10.0,,KIGQ 272115Z AUTO 21008KT 10SM SCT032 BKN047 BKN060 28/24  A3002 RMK AO2 T02830237,,,4700.0,,,75.74,,SSW,29.37,27.09,90.83,Mostly Cloudy
KIGQ,08/27/2016 21:35 UTC,30.02,84.02,75.02,74.52,10.36,240.0,,,653.0,,,342.0,473.0,,,10.0,,KIGQ 272135Z AUTO 24009KT 10SM SCT034 BKN047 BKN065 29/24  A3002 RMK AO2 T02890239,,,4700.0,,,75.05,,WSW,29.37,27.13,92.04,Mostly Cloudy
KIGQ,08/27/2016 21:55 UTC,30.02,84.02,74.12,70.17,11.5,210.0,16.11,,552.0,,,362.0,472.0,,,10.0,,KIGQ 272155Z AUTO 21010G14KT 10SM SCT036 SCT047 SCT055 29/23  A3002 RMK AO2 T02890234,,,,,,73.26,,SSW,29.37,27.29,90.57,Partly Cloudy
KIGQ,08/27/2016 22:15 UTC,30.02,84.2,73.4,70.17,11.5,230.0,,,,,,1.0,,,,10.0,,KIGQ 272215Z AUTO 23010KT 10SM CLR 29/23 A3002 RMK AO2  T02900230,,,,,,73.43,,SW,29.37,27.27,90.97,Clear
KIGQ,08/27/2016 22:35 UTC,30.02,83.84,73.22,70.17,11.5,220.0,,,,,,1.0,,,,10.0,,KIGQ 272235Z AUTO 22010KT 10SM CLR 29/23 A3002 RMK AO2  T02880229,,,,,,73.09,,SW,29.37,27.31,90.18,Clear
KIGQ,08/27/2016 22:55 UTC,30.02,83.3,74.3,74.52,6.91,210.0,,,,,,1.0,,,,10.0,,KIGQ 272255Z AUTO 21006KT 10SM CLR 29/24 A3002 RMK AO2  T02850235,,,,,,74.36,,SSW,29.37,27.21,90.34,Clear
KIGQ,08/27/2016 23:15 UTC,30.03,82.76,73.76,74.36,6.91,220.0,,,,,,1.0,,,,10.0,,KIGQ 272315Z AUTO 22006KT 10SM CLR 28/23 A3003 RMK AO2  T02820232,,,,,,73.77,,SW,29.38,27.27,89.07,Clear
KIGQ,08/27/2016 23:35 UTC,30.03,81.5,74.3,78.97,5.75,210.0,,,,,,1.0,,,,10.0,,KIGQ 272335Z AUTO 21005KT 10SM CLR 28/24 A3003 RMK AO2  T02750235,,,,,,74.34,,SSW,29.38,27.24,87.36,Clear
KIGQ,08/27/2016 23:55 UTC,30.04,80.24,73.94,78.82,6.91,220.0,,,,,,1.0,,,,10.0,,KIGQ 272355Z AUTO 22006KT 10SM CLR 27/23 A3004 RMK AO2 T02680233  10296 20266,85.28,79.88,,,,73.06,,SW,29.39,27.38,84.57,Clear
KIGQ,08/28/2016 00:15 UTC,30.04,79.88,73.58,78.82,4.61,230.0,,,,,,1.0,,,,10.0,,KIGQ 280015Z AUTO 23004KT 10SM CLR 27/23 A3004 RMK AO2  T02660231,,,,,,72.71,,SW,29.39,27.41,,Clear
KIGQ,08/28/2016 00:35 UTC,30.04,77.36,73.4,88.7,3.44,200.0,,,,,,1.0,,,,10.0,,KIGQ 280035Z AUTO 20003KT 10SM CLR 25/23 A3004 RMK AO2  T02520230,,,,,,73.75,,SSW,29.39,27.36,,Clear
KIGQ,08/28/2016 00:55 UTC,30.05,75.56,73.04,94.16,4.61,190.0,,,,,,1.0,,,,10.0,,KIGQ 280055Z AUTO 19004KT 10SM CLR 24/23 A3005 RMK AO2  T02420228,,,,,,73.76,,S,29.4,27.4,,Clear
KIGQ,08/28/2016 01:15 UTC,30.06,74.84,72.86,94.16,5.75,200.0,,,,,,1.0,,,,10.0,,KIGQ 280115Z AUTO 20005KT 10SM CLR 24/23 A3006 RMK AO2  T02380227,,,,,,73.04,,SSW,29.41,27.48,,Clear
KIGQ,08/28/2016 01:35 UTC,30.06,73.76,72.5,100.0,4.61,190.0,,,,,,1.0,,,,10.0,,KIGQ 280135Z AUTO 19004KT 10SM CLR 23/23 A3006 RMK AO2  T02320225,,,,,,73.76,,S,29.41,27.44,,Clear
KIGQ,08/28/2016 01:55 UTC,30.07,74.48,72.86,94.16,4.61,200.0,,,,,,1.0,,,,10.0,,KIGQ 280155Z AUTO 20004KT 10SM CLR 24/23 A3007 RMK AO2  T02360227,,,,,,72.68,,SSW,29.42,27.52,,Clear
KIGQ,08/28/2016 02:15 UTC,30.08,74.48,73.4,94.16,0.0,0.0,,,,,,1.0,,,,10.0,,KIGQ 280215Z AUTO 00000KT 10SM CLR 24/23 A3008 RMK AO2  T02360230,,,,,,72.68,,N,29.43,27.54,,Clear
KIGQ,08/28/2016 02:35 UTC,30.09,74.48,73.4,94.16,0.0,0.0,,,,,,1.0,,,,10.0,,KIGQ 280235Z AUTO 00000KT 10SM CLR 24/23 A3009 RMK AO2  T02360230,,,,,,72.68,,N,29.44,27.55,,Clear
KIGQ,08/28/2016 02:55 UTC,30.09,73.94,73.04,100.0,4.61,180.0,,,,,,1.0,,,,10.0,,KIGQ 280255Z AUTO 18004KT 10SM CLR 23/23 A3009 RMK AO2  T02330228,,,,,,73.94,,S,29.44,27.45,,Clear
KIGQ,08/28/2016 03:15 UTC,30.09,73.76,73.4,100.0,0.0,0.0,,,,,,1.0,,,,10.0,,KIGQ 280315Z AUTO 00000KT 10SM CLR 23/23 A3009 RMK AO2  T02320230,,,,,,73.76,,N,29.44,27.47,,Clear
KIGQ,08/28/2016 03:35 UTC,30.09,73.94,73.4,100.0,0.0,0.0,,,,,,1.0,,,,10.0,,KIGQ 280335Z AUTO 00000KT 10SM CLR 23/23 A3009 RMK AO2  T02330230,,,,,,73.94,,N,29.44,27.45,,Clear
KIGQ,08/28/2016 03:55 UTC,30.09,73.4,73.4,100.0,3.44,210.0,,,,,,1.0,,,,10.0,,KIGQ 280355Z AUTO 21003KT 10SM CLR 23/23 A3009 RMK AO2  T02300230,,,,,,73.4,,SSW,29.44,27.5,,Clear
KIGQ,08/28/2016 04:15 UTC,30.09,73.4,73.4,100.0,3.44,220.0,,,,,,1.0,,,,10.0,,KIGQ 280415Z AUTO 22003KT 10SM CLR 23/23 A3009 RMK AO2  T02300230,,,,,,73.4,,SW,29.44,27.5,,Clear
KIGQ,08/28/2016 04:35 UTC,30.1,73.4,73.4,100.0,0.0,0.0,,,,,,1.0,,,,10.0,,KIGQ 280435Z AUTO 00000KT 10SM CLR 23/23 A3010 RMK AO2  T02300230,,,,,,73.4,,N,29.45,27.51,,Clear
KIGQ,08/28/2016 04:55 UTC,30.1,73.94,73.94,100.0,4.61,190.0,,,,,,1.0,,,,10.0,,KIGQ 280455Z AUTO 19004KT 10SM CLR 23/23 A3010 RMK AO2  T02330233,,,,,,73.94,,S,29.45,27.46,,Clear
KIGQ,08/28/2016 05:15 UTC,30.1,74.48,74.48,100.0,6.91,200.0,,,,,,1.0,,,,10.0,,KIGQ 280515Z AUTO 20006KT 10SM CLR 24/24 A3010 RMK AO2  T02360236,,,,,,74.48,,SSW,29.45,27.41,,Clear
KIGQ,08/28/2016 05:35 UTC,30.11,74.84,74.48,100.0,4.61,230.0,,,,,,1.0,,,,10.0,,KIGQ 280535Z AUTO 23004KT 10SM CLR 24/24 A3011 RMK AO2  T02380236,,,,,,74.84,,SW,29.46,27.38,,Clear
KIGQ,08/28/2016 05:55 UTC,30.11,75.38,74.3,100.0,5.75,240.0,,,,,,1.0,,,,10.0,,KIGQ 280555Z AUTO 24005KT 10SM CLR 24/24 A3011 RMK AO2 T02410235  10268 20230 402960202,80.24,73.4,,85.28,68.36,75.38,,WSW,29.46,27.33,,Clear
KIGQ,08/28/2016 06:15 UTC,30.11,75.2,72.86,94.16,5.75,260.0,,,,,,1.0,,,,10.0,,KIGQ 280615Z AUTO 26005KT 10SM CLR 24/23 A3011 RMK AO2  T02400227,,,,,,73.4,,W,29.46,27.5,,Clear
KIGQ,08/28/2016 06:35 UTC,30.1,74.84,72.68,94.16,4.61,290.0,,,,,,1.0,,,,10.0,,KIGQ 280635Z AUTO 29004KT 10SM CLR 24/23 A3010 RMK AO2  T02380226,,,,,,73.04,,WNW,29.45,27.52,,Clear
KIGQ,08/28/2016 06:55 UTC,30.11,74.3,72.5,94.16,4.61,230.0,,,,,,1.0,,,,10.0,,KIGQ 280655Z AUTO 23004KT 10SM CLR 24/23 A3011 RMK AO2  T02350225,,,,,,72.5,,SW,29.46,27.58,,Clear
KIGQ,08/28/2016 07:15 UTC,30.11,74.3,72.5,94.16,0.0,0.0,,,,,,1.0,,,,10.0,,KIGQ 280715Z AUTO 00000KT 10SM CLR 24/23 A3011 RMK AO2  T02350225,,,,,,72.5,,N,29.46,27.58,,Clear
KIGQ,08/28/2016 07:35 UTC,30.12,73.4,71.78,94.69,0.0,0.0,,,,,,1.0,,,,10.0,,KIGQ 280735Z AUTO 00000KT 10SM CLR 23/22 A3012 RMK AO2  T02300221,,,,,,71.78,,N,29.47,27.66,,Clear
KIGQ,08/28/2016 07:55 UTC,30.13,73.76,71.96,94.12,0.0,0.0,,,,,,1.0,,,,10.0,,KIGQ 280755Z AUTO 00000KT 10SM CLR 23/22 A3013 RMK AO2  T02320222,,,,,,71.96,,N,29.47,27.64,,Clear
KIGQ,08/28/2016 08:15 UTC,30.13,71.24,70.88,100.0,0.0,0.0,,,,,,1.0,,,,10.0,,KIGQ 280815Z AUTO 00000KT 10SM CLR 22/22 A3013 RMK AO2  T02180216,,,,,,71.24,,N,29.47,27.74,,Clear
KIGQ,08/28/2016 08:35 UTC,30.13,70.52,70.34,100.0,5.75,170.0,,,,,,1.0,,,,10.0,,KIGQ 280835Z AUTO 17005KT 10SM CLR 21/21 A3013 RMK AO2 LTG DSNT NW  T02140213,,,,,,70.52,,S,29.47,27.8,,Clear
KIGQ,08/28/2016 08:55 UTC,30.14,71.06,71.06,100.0,4.61,180.0,,,,,,443.0,503.0,,,10.0,,KIGQ 280855Z AUTO 18004KT 10SM BKN044 BKN050 22/22 A3014 RMK AO2  LTG DSNT N T02170217,,,4400.0,,,71.06,,S,29.48,27.76,,Mostly Cloudy
KIGQ,08/28/2016 09:15 UTC,30.14,71.42,71.42,100.0,3.44,190.0,,,703.0,,,442.0,603.0,,,10.0,,KIGQ 280915Z AUTO 19003KT 10SM SCT044 BKN060 BKN070 22/22  A3014 RMK AO2 LTG DSNT N T02190219,,,6000.0,,,71.42,,S,29.48,27.73,,Mostly Cloudy
KIGQ,08/28/2016 09:35 UTC,30.14,70.7,70.7,100.0,3.44,180.0,,5.0,702.0,,,422.0,602.0,,,10.0,,KIGQ 280935Z AUTO 18003KT 10SM TS SCT042 SCT060 SCT070 22/22  A3014 RMK AO2 LTG DSNT E AND S T02150215,,,,,,70.7,,S,29.48,27.8,,Thunder
KIGQ,08/28/2016 09:55 UTC,30.14,70.88,70.88,100.0,3.44,270.0,,,1002.0,,,422.0,482.0,,,10.0,,KIGQ 280955Z AUTO 27003KT 10SM SCT042 SCT048 SCT100 22/22  A3014 RMK AO2 T02160216,,,,,,70.88,,W,29.48,27.78,,Partly Cloudy
KIGQ,08/28/2016 10:15 UTC,30.15,70.88,70.88,100.0,0.0,0.0,,,,,,1.0,,,,10.0,,KIGQ 281015Z AUTO 00000KT 10SM CLR 22/22 A3015 RMK AO2 LTG DSNT SE  AND S T02160216,,,,,,70.88,,N,29.49,27.79,,Clear
KIGQ,08/28/2016 10:35 UTC,30.15,69.98,69.98,100.0,0.0,0.0,,,,,,902.0,,,,10.0,,KIGQ 281035Z AUTO 00000KT 10SM SCT090 21/21 A3015 RMK AO2 LTG DSNT  SE T02110211,,,,,,69.98,,N,29.49,27.87,,Partly Cloudy
KIGQ,08/28/2016 10:55 UTC,30.15,70.7,70.7,100.0,0.0,0.0,,5.0,,,,1.0,,,,10.0,,KIGQ 281055Z AUTO 00000KT 10SM VCTS CLR 22/22 A3015 RMK AO2 LTG  DSNT SE T02150215,,,,,,70.7,,N,29.49,27.81,,Thunder
KIGQ,08/28/2016 11:15 UTC,30.16,69.44,69.44,100.0,0.0,0.0,,2485.0,,,,342.0,,,,3.0,,KIGQ 281115Z AUTO 00000KT 3SM VCTS BR SCT034 21/21 A3016 RMK AO2  LTG DSNT E AND SE T02080208,,,,,,69.44,,N,29.5,27.93,,Thunder,Mist
KIGQ,08/28/2016 11:35 UTC,30.17,70.16,70.16,100.0,0.0,0.0,,,503.0,,,342.0,423.0,,,10.0,,KIGQ 281135Z AUTO 00000KT 10SM SCT034 BKN042 BKN050 21/21  A3017 RMK AO2 LTG DSNT E THRU S T02120212,,,4200.0,,,70.16,,N,29.51,27.88,,Mostly Cloudy
KIGQ,08/28/2016 11:55 UTC,30.18,70.52,70.52,100.0,0.0,0.0,,,,,,382.0,442.0,,0.03,10.0,,KIGQ 281155Z AUTO 00000KT 10SM SCT038 SCT044 21/21 A3018 RMK AO2  LTG DSNT SE AND S 70003 T02140214 10241 20206,75.38,69.08,,,,70.52,,N,29.52,27.85,,Partly Cloudy
KIGQ,08/28/2016 12:15 UTC,30.18,71.78,71.78,100.0,0.0,0.0,,,,,,1.0,,,,7.0,,KIGQ 281215Z AUTO 00000KT 7SM CLR 22/22 A3018 RMK AO2  T02210221,,,,,,71.78,,N,29.52,27.74,,Clear
KIGQ,08/28/2016 12:35 UTC,30.19,72.86,72.68,100.0,0.0,0.0,,,,,,1.0,,,,10.0,,KIGQ 281235Z AUTO 00000KT 10SM CLR 23/23 A3019 RMK AO2  T02270226,,,,,,72.86,,N,29.53,27.65,,Clear
KIGQ,08/28/2016 12:55 UTC,30.18,74.12,73.22,100.0,0.0,0.0,,,,,,1.0,,,,10.0,,KIGQ 281255Z AUTO 00000KT 10SM CLR 23/23 A3018 RMK AO2  T02340229,,,,,,74.12,,N,29.52,27.52,,Clear
KIGQ,08/28/2016 13:15 UTC,30.19,75.38,72.86,94.16,0.0,0.0,,,,,,1.0,,,,10.0,,KIGQ 281315Z AUTO 00000KT 10SM CLR 24/23 A3019 RMK AO2  T02410227,,,,,,73.58,,N,29.53,27.55,,Clear
KIGQ,08/28/2016 13:35 UTC,30.19,76.1,73.4,88.7,0.0,0.0,,,,,,1.0,,,,10.0,,KIGQ 281335Z AUTO 00000KT 10SM CLR 25/23 A3019 RMK AO2  T02450230,,,,,,72.51,,N,29.53,27.63,,Clear
KIGQ,08/28/2016 13:55 UTC,30.19,76.28,73.76,88.7,0.0,0.0,,,,,,1.0,,,,10.0,,KIGQ 281355Z AUTO 00000KT 10SM CLR 25/23 A3019 RMK AO2  T02460232,,,,,,72.69,,N,29.53,27.61,,Clear
KIGQ,08/28/2016 14:15 UTC,30.19,78.8,75.38,88.78,3.44,10.0,,,,,,1.0,,,,10.0,,KIGQ 281415Z AUTO 01003KT 10SM CLR 26/24 A3019 RMK AO2  T02600241,,,,,,75.2,,N,29.53,27.36,,Clear
KIGQ,08/28/2016 14:35 UTC,30.19,79.7,75.02,83.71,0.0,0.0,,,,,,1.0,,,,10.0,,KIGQ 281435Z AUTO 00000KT 10SM CLR 27/24 A3019 RMK AO2  T02650239,,,,,,74.32,,N,29.53,27.42,,Clear
KIGQ,08/28/2016 14:55 UTC,30.19,80.24,75.2,83.71,0.0,0.0,,,,,,162.0,,,,10.0,,KIGQ 281455Z AUTO 00000KT 10SM SCT016 27/24 A3019 RMK AO2  T02680240,,,,,,74.85,,N,29.53,27.37,85.31,Partly Cloudy
KIGQ,08/28/2016 15:15 UTC,30.2,80.42,75.2,83.71,4.61,60.0,,,,,,173.0,223.0,,,10.0,,KIGQ 281515Z AUTO 06004KT 10SM BKN017 BKN022 27/24 A3020 RMK AO2  T02690240,,,1700.0,,,75.03,,ENE,29.54,27.36,85.74,Mostly Cloudy
KIGQ,08/28/2016 15:35 UTC,30.2,79.88,75.2,83.71,3.44,20.0,,,,,,193.0,,,,10.0,,KIGQ 281535Z AUTO 02003KT 10SM BKN019 27/24 A3020 RMK AO2  T02660240,,,1900.0,,,74.5,,NNE,29.54,27.41,,Mostly Cloudy
KIGQ,08/28/2016 15:55 UTC,30.21,80.6,75.38,83.71,4.61,40.0,,,,,,172.0,,,,10.0,,KIGQ 281555Z AUTO 04004KT 10SM SCT017 27/24 A3021 RMK AO2  T02700241,,,,,,75.21,,NE,29.55,27.35,86.17,Partly Cloudy
KIGQ,08/28/2016 16:15 UTC,30.21,80.78,75.38,83.71,4.61,40.0,,,,,,203.0,,,,10.0,,KIGQ 281615Z AUTO 04004KT 10SM BKN020 27/24 A3021 RMK AO2  T02710241,,,2000.0,,,75.38,,NE,29.55,27.33,86.62,Mostly Cloudy
KIGQ,08/28/2016 16:35 UTC,30.21,80.6,76.28,88.86,8.05,50.0,,,,,,172.0,232.0,,,10.0,,KIGQ 281635Z AUTO 05007KT 10SM SCT017 SCT023 27/25 A3021 RMK AO2  T02700246,,,,,,77.0,,NE,29.55,27.19,87.6,Partly Cloudy
KIGQ,08/28/2016 16:55 UTC,30.21,80.96,76.1,88.86,5.75,30.0,,,,,,172.0,,,,10.0,,KIGQ 281655Z AUTO 03005KT 10SM SCT017 27/25 A3021 RMK AO2  T02720245,,,,,,77.36,,NNE,29.55,27.15,88.59,Partly Cloudy
KIGQ,08/28/2016 17:15 UTC,30.2,80.42,75.2,83.71,4.61,40.0,,,,,,1.0,,,,10.0,,KIGQ 281715Z AUTO 04004KT 10SM CLR 27/24 A3020 RMK AO2 LTG DSNT E  THRU SW T02690240,,,,,,75.03,,NE,29.54,27.36,85.74,Clear
KIGQ,08/28/2016 17:35 UTC,30.19,81.5,75.38,78.97,0.0,0.0,,5.0,,,,1.0,,,,10.0,,KIGQ 281735Z AUTO 00000KT 10SM VCTS CLR 28/24 A3019 RMK AO2 LTG  DSNT SE THRU SW T02750241,,,,,,74.34,,N,29.53,27.39,87.36,Thunder
KIGQ,08/28/2016 17:55 UTC,30.19,81.68,74.84,78.97,9.22,30.0,,,,,,1.0,,,,10.0,,KIGQ 281755Z AUTO 03008KT 10SM CLR 28/24 A3019 RMK AO2 LTG DSNT SE  THRU SW T02760238 10276 20215,81.68,70.7,,,,74.52,,NNE,29.53,27.38,87.78,Clear
KIGQ,08/28/2016 18:15 UTC,30.19,81.68,74.48,78.97,9.22,30.0,,5.0,,,,1.0,,,,10.0,,KIGQ 281815Z AUTO 03008KT 10SM VCTS CLR 28/24 A3019 RMK AO2 LTG  DSNT E THRU SW T02760236,,,,,,74.52,,NNE,29.53,27.38,87.78,Thunder
KIGQ,08/28/2016 18:35 UTC,30.2,78.8,72.68,83.6,9.22,60.0,,5.0,,,,1.0,,,,10.0,,KIGQ 281835Z AUTO 06008KT 10SM VCTS CLR 26/23 A3020 RMK AO2 LTG  DSNT E THRU SW T02600226,,,,,,73.4,,ENE,29.54,27.52,,Thunder
KIGQ,08/28/2016 18:55 UTC,30.2,78.26,71.6,78.68,9.22,40.0,,5.0,,,,1.0,,,,10.0,,KIGQ 281855Z AUTO 04008KT 10SM VCTS CLR 26/22 A3020 RMK AO2 LTG  DSNT ALQS T02570220,,,,,,71.08,,NE,29.54,27.72,,Thunder
KIGQ,08/28/2016 19:15 UTC,30.2,78.26,71.6,78.68,5.75,70.0,,5.0,,,,1.0,,,,10.0,,KIGQ 281915Z AUTO 07005KT 10SM VCTS CLR 26/22 A3020 RMK AO2 LTG  DSNT ALQS T02570220,,,,,,71.08,,ENE,29.54,27.72,,Thunder
KIGQ,08/28/2016 19:35 UTC,30.21,75.92,69.98,83.37,8.05,160.0,,5.0,,,,222.0,,,,7.0,,KIGQ 281935Z AUTO 16007KT 7SM TS SCT022 24/21 A3021 RMK AO2 LTG  DSNT ALQS T02440211,,,,,,70.5,,SSE,29.55,27.81,,Thunder
KIGQ,08/28/2016 19:55 UTC,30.21,73.76,69.62,88.54,8.05,180.0,,5.0,,,,222.0,1202.0,,,10.0,,KIGQ 281955Z AUTO 18007KT 10SM VCTS SCT022 SCT120 23/21 A3021 RMK AO2 LTG DSNT E THRU W T02320209,,,,,,70.15,,S,29.55,27.86,,Thunder
KIGQ,08/28/2016 20:15 UTC,30.2,72.86,70.16,88.54,5.75,230.0,,,,,,1102.0,,,,10.0,,KIGQ 282015Z AUTO 23005KT 10SM VCTSRA SCT110 23/21 A3020 RMK AO2  LTG DSNT SW AND NW T02270212,,,,,,69.26,,SW,29.54,27.93,,Partly Cloudy
KIGQ,08/28/2016 20:35 UTC,30.19,71.6,70.16,94.07,0.0,0.0,,1.0,,,,1104.0,,,,1.75,,KIGQ 282035Z AUTO 00000KT 1 3/4SM RA OVC110 22/21 A3019 RMK AO2  VIS 1/4V5 LTG DSNT W AND NW T02200212,,,11000.0,,,69.79,,N,29.53,27.9,,Rain
KIGQ,08/28/2016 20:55 UTC,30.17,71.42,70.34,94.07,0.0,0.0,,1.0,,,,1004.0,,,,7.0,,KIGQ 282055Z AUTO 00000KT 7SM RA OVC100 22/21 A3017 RMK AO2  T02190213,,,10000.0,,,69.62,,N,29.51,27.9,,Rain
KIGQ,08/28/2016 21:15 UTC,30.16,71.96,71.24,100.0,3.44,20.0,,13.0,,,,502.0,904.0,,,10.0,,KIGQ 282115Z AUTO 02003KT 10SM -RA SCT050 OVC090 22/22 A3016 RMK AO2 T02220218,,,9000.0,,,71.96,,NNE,29.5,27.7,,Light Rain
KIGQ,08/28/2016 21:35 UTC,30.16,72.86,71.78,94.12,4.61,20.0,,,,,,502.0,902.0,,,10.0,,KIGQ 282135Z AUTO 02004KT 10SM SCT050 SCT090 23/22 A3016 RMK AO2  T02270221,,,,,,71.06,,NNE,29.5,27.76,,Partly Cloudy
KIGQ,08/28/2016 21:55 UTC,30.17,74.3,72.68,94.16,0.0,0.0,,,,,,1.0,,,,10.0,,KIGQ 282155Z AUTO 00000KT 10SM CLR 24/23 A3017 RMK AO2  T02350226,,,,,,72.5,,N,29.51,27.63,,Clear
KIGQ,08/28/2016 22:15 UTC,30.17,74.66,73.4,94.16,6.91,80.0,,,,,,1.0,,,,10.0,,KIGQ 282215Z AUTO 08006KT 10SM CLR 24/23 A3017 RMK AO2 LTG DSNT SW  T02370230,,,,,,72.86,,E,29.51,27.6,,Clear
KIGQ,08/28/2016 22:35 UTC,30.17,74.66,72.86,94.16,5.75,40.0,,,,,,1.0,,,,10.0,,KIGQ 282235Z AUTO 04005KT 10SM CLR 24/23 A3017 RMK AO2 LTG DSNT SW  T02370227,,,,,,72.86,,NE,29.51,27.6,,Clear
KIGQ,08/28/2016 22:55 UTC,30.17,74.48,72.5,94.16,8.05,40.0,,,,,,1.0,,,,10.0,,KIGQ 282255Z AUTO 04007KT 10SM CLR 24/23 A3017 RMK AO2  T02360225,,,,,,72.68,,NE,29.51,27.62,,Clear
KIGQ,08/28/2016 23:15 UTC,30.18,74.48,72.32,88.62,4.61,40.0,,,,,,1.0,,,,10.0,,KIGQ 282315Z AUTO 04004KT 10SM CLR 24/22 A3018 RMK AO2  T02360224,,,,,,70.89,,NE,29.52,27.77,,Clear
KIGQ,08/28/2016 23:35 UTC,30.17,74.3,72.14,88.62,8.05,30.0,,,,,,1.0,,,,10.0,,KIGQ 282335Z AUTO 03007KT 10SM CLR 24/22 A3017 RMK AO2  T02350223,,,,,,70.71,,NNE,29.51,27.77,,Clear
KIGQ,08/28/2016 23:55 UTC,30.17,73.94,72.14,94.12,5.75,30.0,,,,,,1.0,,,,10.0,,KIGQ 282355Z AUTO 03005KT 10SM CLR 23/22 A3017 RMK AO2 T02330223  10276 20218,81.68,71.24,,,,72.13,,NNE,29.51,27.67,,Clear
KIGQ,08/29/2016 00:15 UTC,30.17,73.58,71.96,94.12,3.44,40.0,,,,,,1.0,,,,10.0,,KIGQ 290015Z AUTO 04003KT 10SM CLR 23/22 A3017 RMK AO2  T02310222,,,,,,71.78,,NE,29.51,27.7,,Clear
KIGQ,08/29/2016 00:35 UTC,30.17,73.4,71.96,94.12,4.61,60.0,,,,,,1.0,,,,10.0,,KIGQ 290035Z AUTO 06004KT 10SM CLR 23/22 A3017 RMK AO2  T02300222,,,,,,71.6,,ENE,29.51,27.72,,Clear
KIGQ,08/29/2016 00:55 UTC,30.17,73.4,71.96,94.12,3.44,40.0,,,,,,1.0,,,,10.0,,KIGQ 290055Z AUTO 04003KT 10SM CLR 23/22 A3017 RMK AO2  T02300222,,,,,,71.6,,NE,29.51,27.72,,Clear
KIGQ,08/29/2016 01:15 UTC,30.18,73.22,72.14,94.12,3.44,40.0,,,,,,1.0,,,,10.0,,KIGQ 290115Z AUTO 04003KT 10SM CLR 23/22 A3018 RMK AO2  T02290223,,,,,,71.42,,NE,29.52,27.74,,Clear
KIGQ,08/29/2016 01:35 UTC,30.19,73.04,72.14,94.12,4.61,110.0,,,,,,1.0,,,,10.0,,KIGQ 290135Z AUTO 11004KT 10SM CLR 23/22 A3019 RMK AO2  T02280223,,,,,,71.24,,ESE,29.53,27.77,,Clear
KIGQ,08/29/2016 01:55 UTC,30.19,72.5,72.5,100.0,4.61,90.0,,,,,,1.0,,,,10.0,,KIGQ 290155Z AUTO 09004KT 10SM CLR 23/23 A3019 RMK AO2  T02250225,,,,,,72.5,,E,29.53,27.68,,Clear
KIGQ,08/29/2016 02:15 UTC,30.2,71.96,71.96,100.0,3.44,90.0,,,,,,1.0,,,,10.0,,KIGQ 290215Z AUTO 09003KT 10SM CLR 22/22 A3020 RMK AO2  T02220222,,,,,,71.96,,E,29.54,27.74,,Clear
KIGQ,08/29/2016 02:35 UTC,30.2,71.96,71.96,100.0,3.44,70.0,,,,,,1.0,,,,10.0,,KIGQ 290235Z AUTO 07003KT 10SM CLR 22/22 A3020 RMK AO2  T02220222,,,,,,71.96,,ENE,29.54,27.74,,Clear
KIGQ,08/29/2016 02:55 UTC,30.21,72.14,71.96,100.0,4.61,30.0,,,,,,1.0,,,,10.0,,KIGQ 290255Z AUTO 03004KT 10SM CLR 22/22 A3021 RMK AO2  T02230222,,,,,,72.14,,NNE,29.55,27.74,,Clear
KIGQ,08/29/2016 03:15 UTC,30.22,71.78,71.78,100.0,4.61,50.0,,,,,,1.0,,,,10.0,,KIGQ 290315Z AUTO 05004KT 10SM CLR 22/22 A3022 RMK AO2  T02210221,,,,,,71.78,,NE,29.56,27.78,,Clear
KIGQ,08/29/2016 03:35 UTC,30.22,71.78,71.78,100.0,0.0,0.0,,,,,,1.0,,,,10.0,,KIGQ 290335Z AUTO 00000KT 10SM CLR 22/22 A3022 RMK AO2  T02210221,,,,,,71.78,,N,29.56,27.78,,Clear
KIGQ,08/29/2016 03:55 UTC,30.23,71.6,71.6,100.0,0.0,0.0,,,,,,1.0,,,,7.0,,KIGQ 290355Z AUTO 00000KT 7SM CLR 22/22 A3023 RMK AO2  T02200220,,,,,,71.6,,N,29.57,27.81,,Clear
KIGQ,08/29/2016 04:15 UTC,30.23,71.06,71.06,100.0,3.44,90.0,,31.0,,,,1.0,,,,5.0,,KIGQ 290415Z AUTO 09003KT 5SM BR CLR 22/22 A3023 RMK AO2  T02170217,,,,,,71.06,,E,29.57,27.86,,Mist
KIGQ,08/29/2016 04:35 UTC,30.23,71.06,71.06,100.0,0.0,0.0,,,,,,1.0,,,,10.0,,KIGQ 290435Z AUTO 00000KT 10SM CLR 22/22 A3023 RMK AO2  T02170217,,,,,,71.06,,N,29.57,27.86,,Clear
KIGQ,08/29/2016 04:55 UTC,30.23,71.06,71.06,100.0,0.0,0.0,,,,,,1.0,,,,7.0,,KIGQ 290455Z AUTO 00000KT 7SM CLR 22/22 A3023 RMK AO2  T02170217,,,,,,71.06,,N,29.57,27.86,,Clear
KIGQ,08/29/2016 05:15 UTC,30.23,70.7,70.7,100.0,0.0,0.0,,,,,,1.0,,,,10.0,,KIGQ 290515Z AUTO 00000KT 10SM CLR 22/22 A3023 RMK AO2  T02150215,,,,,,70.7,,N,29.57,27.89,,Clear
KIGQ,08/29/2016 05:35 UTC,30.23,70.34,70.34,100.0,0.0,0.0,,,,,,1.0,,,,10.0,,KIGQ 290535Z AUTO 00000KT 10SM CLR 21/21 A3023 RMK AO2  T02130213,,,,,,70.34,,N,29.57,27.92,,Clear
KIGQ,08/29/2016 05:55 UTC,30.22,70.7,70.16,94.07,3.44,100.0,,,,,,1.0,,,,10.0,,KIGQ 290555Z AUTO 10003KT 10SM CLR 22/21 A3022 RMK AO2 LTG DSNT S  T02150212 10233 20212 402760206,73.94,70.16,,81.68,69.08,68.9,,E,29.56,28.01,,Clear
KIGQ,08/29/2016 06:15 UTC,30.21,70.7,69.98,94.07,3.44,60.0,,,,,,1.0,,,,7.0,,KIGQ 290615Z AUTO 06003KT 7SM CLR 22/21 A3021 RMK AO2  T02150211,,,,,,68.9,,ENE,29.55,28.0,,Clear
KIGQ,08/29/2016 06:35 UTC,30.21,69.8,69.8,100.0,0.0,0.0,,,,,,1.0,,,,7.0,,KIGQ 290635Z AUTO 00000KT 7SM CLR 21/21 A3021 RMK AO2 LTG DSNT S  T02100210,,,,,,69.8,,N,29.55,27.95,,Clear
KIGQ,08/29/2016 06:55 UTC,30.21,69.98,69.98,100.0,0.0,0.0,,,,,,552.0,,,,10.0,,KIGQ 290655Z AUTO 00000KT 10SM SCT055 21/21 A3021 RMK AO2 LTG DSNT  S T02110211,,,,,,69.98,,N,29.55,27.93,,Partly Cloudy
KIGQ,08/29/2016 07:15 UTC,30.2,70.34,70.16,100.0,0.0,0.0,,,,,,502.0,653.0,,,10.0,,KIGQ 290715Z AUTO 00000KT 10SM SCT050 BKN065 21/21 A3020 RMK AO2  T02130212,,,6500.0,,,70.34,,N,29.54,27.89,,Mostly Cloudy
KIGQ,08/29/2016 07:35 UTC,30.2,69.98,69.98,100.0,3.44,90.0,,,652.0,,,462.0,502.0,,,10.0,,KIGQ 290735Z AUTO 09003KT 10SM SCT046 SCT050 SCT065 21/21  A3020 RMK AO2 T02110211,,,,,,69.98,,E,29.54,27.92,,Partly Cloudy
KIGQ,08/29/2016 07:55 UTC,30.21,70.34,70.16,100.0,3.44,80.0,,,753.0,,,413.0,473.0,,,10.0,,KIGQ 290755Z AUTO 08003KT 10SM BKN041 BKN047 BKN075 21/21  A3021 RMK AO2 T02130212,,,4100.0,,,70.34,,E,29.55,27.9,,Mostly Cloudy
KIGQ,08/29/2016 08:15 UTC,30.2,69.98,69.98,100.0,3.44,120.0,,,803.0,,,403.0,553.0,,,10.0,,KIGQ 290815Z AUTO 12003KT 10SM BKN040 BKN055 BKN080 21/21  A3020 RMK AO2 T02110211,,,4000.0,,,69.98,,ESE,29.54,27.92,,Mostly Cloudy
KIGQ,08/29/2016 08:35 UTC,30.2,69.8,69.8,100.0,0.0,0.0,,,953.0,,,402.0,473.0,,,10.0,,KIGQ 290835Z AUTO 00000KT 10SM SCT040 BKN047 BKN095 21/21  A3020 RMK AO2 T02100210,,,4700.0,,,69.8,,N,29.54,27.94,,Mostly Cloudy
KIGQ,08/29/2016 08:55 UTC,30.2,69.98,69.98,100.0,0.0,0.0,,,,,,402.0,,,,10.0,,KIGQ 290855Z AUTO 00000KT 10SM SCT040 21/21 A3020 RMK AO2  T02110211,,,,,,69.98,,N,29.54,27.92,,Partly Cloudy
KIGQ,08/29/2016 09:15 UTC,30.2,69.62,69.62,100.0,3.44,20.0,,,,,,422.0,,,,10.0,,KIGQ 290915Z AUTO 02003KT 10SM SCT042 21/21 A3020 RMK AO2  T02090209,,,,,,69.62,,NNE,29.54,27.95,,Partly Cloudy
KIGQ,08/29/2016 09:35 UTC,30.2,69.8,69.8,100.0,0.0,0.0,,,,,,1.0,,,,10.0,,KIGQ 290935Z AUTO 00000KT 10SM CLR 21/21 A3020 RMK AO2  T02100210,,,,,,69.8,,N,29.54,27.94,,Clear
KIGQ,08/29/2016 09:55 UTC,30.2,69.8,69.8,100.0,0.0,0.0,,,,,,1.0,,,,10.0,,KIGQ 290955Z AUTO 00000KT 10SM CLR 21/21 A3020 RMK AO2  T02100210,,,,,,69.8,,N,29.54,27.94,,Clear
KIGQ,08/29/2016 10:15 UTC,30.2,68.9,68.9,100.0,0.0,0.0,,,,,,1.0,,,,10.0,,KIGQ 291015Z AUTO 00000KT 10SM CLR 21/21 A3020 RMK AO2  T02050205,,,,,,68.9,,N,29.54,28.01,,Clear
KIGQ,08/29/2016 10:35 UTC,30.2,69.08,69.08,100.0,0.0,0.0,,,,,,1.0,,,,7.0,,KIGQ 291035Z AUTO 00000KT 7SM CLR 21/21 A3020 RMK AO2  T02060206,,,,,,69.08,,N,29.54,28.0,,Clear
KIGQ,08/29/2016 10:55 UTC,30.2,68.72,68.72,100.0,0.0,0.0,,,,,,1.0,,,,7.0,,KIGQ 291055Z AUTO 00000KT 7SM CLR 20/20 A3020 RMK AO2 LTG DSNT W  T02040204,,,,,,68.72,,N,29.54,28.03,,Clear
KIGQ,08/29/2016 11:15 UTC,30.21,68.0,68.0,100.0,0.0,0.0,,31.0,,,,1.0,,,,4.0,,KIGQ 291115Z AUTO 00000KT 4SM BR CLR 20/20 A3021 RMK AO2  T02000200,,,,,,68.0,,N,29.55,28.1,,Mist
KIGQ,08/29/2016 11:35 UTC,30.21,68.54,68.54,100.0,0.0,0.0,,31.0,,,,1.0,,,,3.0,,KIGQ 291135Z AUTO 00000KT 3SM BR CLR 20/20 A3021 RMK AO2  T02030203,,,,,,68.54,,N,29.55,28.05,,Mist
KIGQ,08/29/2016 11:55 UTC,30.23,69.08,69.08,100.0,0.0,0.0,,31.0,,,,1.0,,,,4.0,,KIGQ 291155Z AUTO 00000KT 4SM BR CLR 21/21 A3023 RMK AO2 T02060206  10215 20195,70.7,67.1,,,,69.08,,N,29.57,28.03,,Mist
KIGQ,08/29/2016 12:15 UTC,30.23,71.96,71.96,100.0,0.0,0.0,,31.0,,,,1.0,,,,5.0,,KIGQ 291215Z AUTO 00000KT 5SM BR CLR 22/22 A3023 RMK AO2  T02220222,,,,,,71.96,,N,29.57,27.77,,Mist
KIGQ,08/29/2016 12:35 UTC,30.23,73.76,73.4,100.0,0.0,0.0,,,,,,1.0,,,,10.0,,KIGQ 291235Z AUTO 00000KT 10SM CLR 23/23 A3023 RMK AO2  T02320230,,,,,,73.76,,N,29.57,27.6,,Clear
KIGQ,08/29/2016 12:55 UTC,30.24,74.66,73.58,94.16,8.05,90.0,,,,,,82.0,,,,10.0,,KIGQ 291255Z AUTO 09007KT 10SM SCT008 24/23 A3024 RMK AO2  T02370231,,,,,,72.86,,E,29.58,27.67,,Partly Cloudy
KIGQ,08/29/2016 13:15 UTC,30.24,74.48,73.94,94.16,5.75,100.0,,,,,,83.0,,,,10.0,,KIGQ 291315Z AUTO 10005KT 10SM BKN008 24/23 A3024 RMK AO2  T02360233,,,800.0,,,72.68,,E,29.58,27.69,,Mostly Cloudy
KIGQ,08/29/2016 13:35 UTC,30.25,75.92,74.3,100.0,3.44,110.0,,,,,,83.0,,,,10.0,,KIGQ 291335Z AUTO 11003KT 10SM BKN008 24/24 A3025 RMK AO2  T02440235,,,800.0,,,75.92,,ESE,29.59,27.4,,Mostly Cloudy
KIGQ,08/29/2016 13:55 UTC,30.25,77.0,74.48,94.2,4.61,110.0,,,,,,102.0,,,,10.0,,KIGQ 291355Z AUTO 11004KT 10SM SCT010 25/24 A3025 RMK AO2  T02500236,,,,,,75.2,,ESE,29.59,27.45,,Partly Cloudy
KIGQ,08/29/2016 14:15 UTC,30.25,78.26,74.48,88.78,5.75,110.0,,,,,,122.0,,,,10.0,,KIGQ 291415Z AUTO 11005KT 10SM SCT012 26/24 A3025 RMK AO2  T02570236,,,,,,74.67,,ESE,29.59,27.47,,Partly Cloudy
KIGQ,08/29/2016 14:35 UTC,30.25,78.98,73.58,83.6,5.75,100.0,,,,,,1.0,,,,10.0,,KIGQ 291435Z AUTO 10005KT 10SM CLR 26/23 A3025 RMK AO2  T02610231,,,,,,73.58,,E,29.59,27.56,,Clear
KIGQ,08/29/2016 14:55 UTC,30.25,79.88,73.22,78.82,5.75,100.0,,,,,,1.0,,,,10.0,,KIGQ 291455Z AUTO 10005KT 10SM CLR 27/23 A3025 RMK AO2  T02660229,,,,,,72.71,,E,29.59,27.62,,Clear
KIGQ,08/29/2016 15:15 UTC,30.25,80.06,72.86,78.82,6.91,100.0,,,,,,1.0,,,,10.0,,KIGQ 291515Z AUTO 10006KT 10SM CLR 27/23 A3025 RMK AO2  T02670227,,,,,,72.88,,E,29.59,27.6,84.2,Clear
KIGQ,08/29/2016 15:35 UTC,30.25,80.6,72.14,74.19,5.75,160.0,,,,,,1.0,,,,10.0,,KIGQ 291535Z AUTO 16005KT 10SM CLR 27/22 A3025 RMK AO2  T02700223,,,,,,71.61,,SSE,29.59,27.7,84.58,Clear
KIGQ,08/29/2016 15:55 UTC,30.25,81.86,72.68,74.36,4.61,120.0,,,,,,1.0,,,,10.0,,KIGQ 291555Z AUTO 12004KT 10SM CLR 28/23 A3025 RMK AO2  T02770226,,,,,,72.9,,ESE,29.59,27.57,87.13,Clear
KIGQ,08/29/2016 16:15 UTC,30.25,81.86,71.96,69.98,0.0,0.0,,,,,,1.0,,,,10.0,,KIGQ 291615Z AUTO 00000KT 10SM CLR 28/22 A3025 RMK AO2  T02770222,,,,,,71.1,,N,29.59,27.72,86.17,Clear
KIGQ,08/29/2016 16:35 UTC,30.25,82.94,72.5,74.36,4.61,160.0,,,,,,1.0,,,,10.0,,KIGQ 291635Z AUTO 16004KT 10SM CLR 28/23 A3025 RMK AO2  T02830225,,,,,,73.94,,SSE,29.59,27.47,89.47,Clear
KIGQ,08/29/2016 16:55 UTC,30.25,83.66,72.32,66.04,6.91,170.0,,,,,,1.0,,,,10.0,,KIGQ 291655Z AUTO 17006KT 10SM CLR 29/22 A3025 RMK AO2  T02870224,,,,,,71.12,,S,29.59,27.7,88.58,Clear
KIGQ,08/29/2016 17:15 UTC,30.25,83.84,71.96,66.04,4.61,160.0,,,,,,1.0,,,,10.0,,KIGQ 291715Z AUTO 16004KT 10SM CLR 29/22 A3025 RMK AO2  T02880222,,,,,,71.29,,SSE,29.59,27.68,88.93,Clear
KIGQ,08/29/2016 17:35 UTC,30.24,84.2,71.24,66.04,8.05,170.0,,,,,,1.0,,,,10.0,,KIGQ 291735Z AUTO 17007KT 10SM CLR 29/22 A3024 RMK AO2  T02900218,,,,,,71.64,,S,29.58,27.64,89.63,Clear
KIGQ,08/29/2016 17:55 UTC,30.24,84.38,71.96,66.04,8.05,160.0,,,,,,1.0,,,,10.0,,KIGQ 291755Z AUTO 16007KT 10SM CLR 29/22 A3024 RMK AO2 T02910222  10291 20207,84.38,69.26,,,,71.81,,SSE,29.58,27.62,89.99,Clear
KIGQ,08/29/2016 18:15 UTC,30.24,85.1,71.96,62.35,0.0,0.0,,,,,,1.0,,,,10.0,,KIGQ 291815Z AUTO 00000KT 10SM CLR 30/22 A3024 RMK AO2  T02950222,,,,,,70.8,,N,29.58,27.69,90.19,Clear
KIGQ,08/29/2016 18:35 UTC,30.24,85.64,73.04,66.25,4.61,130.0,,,,,,1.0,,,,10.0,,KIGQ 291835Z AUTO 13004KT 10SM CLR 30/23 A3024 RMK AO2  T02980228,,,,,,73.11,,SE,29.58,27.5,92.7,Clear
KIGQ,08/29/2016 18:55 UTC,30.23,85.64,72.32,62.35,4.61,200.0,,,,,,1.0,,,,10.0,,KIGQ 291855Z AUTO 20004KT 10SM CLR 30/22 A3023 RMK AO2  T02980224,,,,,,71.31,,SSW,29.57,27.64,91.24,Clear
KIGQ,08/29/2016 19:15 UTC,30.21,86.0,73.04,66.25,0.0,0.0,,,,,,1.0,,,,10.0,,KIGQ 291915Z AUTO 00000KT 10SM CLR 30/23 A3021 RMK AO2  T03000228,,,,,,73.45,,N,29.55,27.43,93.49,Clear
KIGQ,08/29/2016 19:35 UTC,30.2,86.36,73.4,66.25,5.75,160.0,,,,,,1.0,,,,10.0,,KIGQ 291935Z AUTO 16005KT 10SM CLR 30/23 A3020 RMK AO2  T03020230,,,,,,73.79,,SSE,29.54,27.39,94.3,Clear
KIGQ,08/29/2016 19:55 UTC,30.19,86.36,73.22,66.25,4.61,140.0,,,,,,1.0,,,,10.0,,KIGQ 291955Z AUTO 14004KT 10SM CLR 30/23 A3019 RMK AO2 LTG DSNT NW  T03020229,,,,,,73.79,,SE,29.53,27.38,94.3,Clear
KIGQ,08/29/2016 20:15 UTC,30.19,86.54,73.4,66.25,6.91,200.0,,5.0,,,,1.0,,,,10.0,,KIGQ 292015Z AUTO 20006KT 10SM VCTS CLR 30/23 A3019 RMK AO2 LTG  DSNT NW T03030230,,,,,,73.96,,SSW,29.53,27.36,94.71,Thunder
KIGQ,08/29/2016 20:35 UTC,30.18,86.54,73.04,66.25,6.91,40.0,,,,,,1.0,,,,10.0,,KIGQ 292035Z AUTO 04006KT 10SM CLR 30/23 A3018 RMK AO2 LTG DSNT NW  T03030228,,,,,,73.96,,NE,29.52,27.35,94.71,Clear
KIGQ,08/29/2016 20:55 UTC,30.17,86.18,73.58,66.25,0.0,0.0,,,,,,392.0,752.0,,,10.0,,KIGQ 292055Z AUTO 00000KT 10SM SCT039 SCT075 30/23 A3017 RMK AO2  T03010231,,,,,,73.62,,N,29.51,27.37,93.89,Partly Cloudy
KIGQ,08/29/2016 21:15 UTC,30.17,86.0,72.86,66.25,0.0,0.0,,,752.0,,,392.0,482.0,,,10.0,,KIGQ 292115Z AUTO 00000KT 10SM SCT039 SCT048 SCT075 30/23  A3017 RMK AO2 LTG DSNT W T03000227,,,,,,73.45,,N,29.51,27.39,93.49,Partly Cloudy
KIGQ,08/29/2016 21:35 UTC,30.17,85.1,72.5,66.25,0.0,0.0,,,,,,1.0,,,,10.0,,KIGQ 292135Z AUTO 00000KT 10SM CLR 30/23 A3017 RMK AO2 LTG DSNT W  T02950225,,,,,,72.59,,N,29.51,27.48,91.54,Clear
KIGQ,08/29/2016 21:55 UTC,30.17,81.86,75.02,78.97,4.61,40.0,,,,,,413.0,483.0,,,10.0,,KIGQ 292155Z AUTO 04004KT 10SM BKN041 BKN048 28/24 A3017 RMK AO2  LTG DSNT W AND NW T02770239,,,4100.0,,,74.69,,NE,29.51,27.34,88.2,Mostly Cloudy
KIGQ,08/29/2016 22:15 UTC,30.17,81.86,75.38,78.97,5.75,30.0,,,,,,412.0,483.0,,,10.0,,KIGQ 292215Z AUTO 03005KT 10SM SCT041 BKN048 28/24 A3017 RMK AO2  T02770241,,,4800.0,,,74.69,,NNE,29.51,27.34,88.2,Mostly Cloudy
KIGQ,08/29/2016 22:35 UTC,30.18,80.96,74.84,83.71,4.61,10.0,,,,,,482.0,,,,10.0,,KIGQ 292235Z AUTO 01004KT 10SM SCT048 27/24 A3018 RMK AO2 LTG DSNT  NW T02720238,,,,,,75.56,,N,29.52,27.28,87.06,Partly Cloudy
KIGQ,08/29/2016 22:55 UTC,30.18,80.96,74.48,83.71,5.75,30.0,,,,,,1.0,,,,10.0,,KIGQ 292255Z AUTO 03005KT 10SM CLR 27/24 A3018 RMK AO2  T02720236,,,,,,75.56,,NNE,29.52,27.28,87.06,Clear
KIGQ,08/29/2016 23:15 UTC,30.18,80.6,74.48,83.71,5.75,20.0,,,,,,1.0,,,,10.0,,KIGQ 292315Z AUTO 02005KT 10SM CLR 27/24 A3018 RMK AO2 LTG DSNT NW  T02700236,,,,,,75.21,,NNE,29.52,27.32,86.17,Clear
KIGQ,08/29/2016 23:35 UTC,30.17,78.98,75.2,88.78,4.61,30.0,,13.0,552.0,,,382.0,492.0,,,10.0,,KIGQ 292335Z AUTO 03004KT 10SM -RA SCT038 SCT049 SCT055 26/24  A3017 RMK AO2 T02610240,,,,,,75.38,,NNE,29.51,27.32,,Light Rain
KIGQ,08/29/2016 23:55 UTC,30.18,77.9,75.2,88.78,5.75,10.0,,,,,,1.0,,,,10.0,,KIGQ 292355Z AUTO 01005KT 10SM CLR 26/24 A3018 RMK AO2 LTG DSNT W  T02550240 10304 20255,86.72,77.9,,,,74.31,,N,29.52,27.44,,Clear
KIGQ,08/30/2016 00:15 UTC,30.18,77.0,74.48,94.2,4.61,10.0,,13.0,,,,1002.0,1202.0,,,10.0,,KIGQ 300015Z AUTO 01004KT 10SM -RA SCT100 SCT120 25/24 A3018 RMK AO2 T02500236,,,,,,75.2,,N,29.52,27.38,,Light Rain
KIGQ,08/30/2016 00:35 UTC,30.18,76.46,74.66,94.2,4.61,10.0,,13.0,,,,1002.0,1202.0,,,10.0,,KIGQ 300035Z AUTO 01004KT 10SM -RA SCT100 SCT120 25/24 A3018 RMK AO2 T02470237,,,,,,74.66,,N,29.52,27.43,,Light Rain
KIGQ,08/30/2016 00:55 UTC,30.18,76.46,74.48,94.2,4.61,50.0,,,,,,1.0,,,,10.0,,KIGQ 300055Z AUTO 05004KT 10SM CLR 25/24 A3018 RMK AO2  T02470236,,,,,,74.66,,NE,29.52,27.43,,Clear
KIGQ,08/30/2016 01:15 UTC,30.17,76.1,74.48,94.2,0.0,0.0,,,,,,1.0,,,,10.0,,KIGQ 300115Z AUTO 00000KT 10SM CLR 25/24 A3017 RMK AO2  T02450236,,,,,,74.3,,N,29.51,27.46,,Clear
KIGQ,08/30/2016 01:35 UTC,30.17,76.46,74.12,88.7,3.44,40.0,,,,,,1.0,,,,10.0,,KIGQ 300135Z AUTO 04003KT 10SM CLR 25/23 A3017 RMK AO2  T02470234,,,,,,72.87,,NE,29.51,27.57,,Clear
KIGQ,08/30/2016 01:55 UTC,30.17,76.1,74.3,94.2,4.61,50.0,,,,,,1.0,,,,10.0,,KIGQ 300155Z AUTO 05004KT 10SM CLR 25/24 A3017 RMK AO2  T02450235,,,,,,74.3,,NE,29.51,27.46,,Clear
KIGQ,08/30/2016 02:15 UTC,30.16,76.1,74.3,94.2,5.75,60.0,,,,,,1.0,,,,10.0,,KIGQ 300215Z AUTO 06005KT 10SM CLR 25/24 A3016 RMK AO2  T02450235,,,,,,74.3,,ENE,29.5,27.45,,Clear
KIGQ,08/30/2016 02:35 UTC,30.16,75.74,74.3,100.0,4.61,40.0,,,,,,1.0,,,,10.0,,KIGQ 300235Z AUTO 04004KT 10SM CLR 24/24 A3016 RMK AO2  T02430235,,,,,,75.74,,NE,29.5,27.33,,Clear
KIGQ,08/30/2016 02:55 UTC,30.17,75.38,73.94,94.16,4.61,40.0,,,,,,1.0,,,,10.0,,KIGQ 300255Z AUTO 04004KT 10SM CLR 24/23 A3017 RMK AO2  T02410233,,,,,,73.58,,NE,29.51,27.53,,Clear
KIGQ,08/30/2016 03:15 UTC,30.17,75.2,74.3,100.0,4.61,30.0,,,,,,1.0,,,,10.0,,KIGQ 300315Z AUTO 03004KT 10SM CLR 24/24 A3017 RMK AO2  T02400235,,,,,,75.2,,NNE,29.51,27.4,,Clear
KIGQ,08/30/2016 03:35 UTC,30.17,75.2,74.3,100.0,3.44,40.0,,,,,,1.0,,,,10.0,,KIGQ 300335Z AUTO 04003KT 10SM CLR 24/24 A3017 RMK AO2  T02400235,,,,,,75.2,,NE,29.51,27.4,,Clear
KIGQ,08/30/2016 03:55 UTC,30.18,74.84,74.3,100.0,0.0,0.0,,,,,,1.0,,,,10.0,,KIGQ 300355Z AUTO 00000KT 10SM CLR 24/24 A3018 RMK AO2  T02380235,,,,,,74.84,,N,29.52,27.44,,Clear
KIGQ,08/30/2016 04:15 UTC,30.19,74.84,74.3,100.0,0.0,0.0,,,,,,1.0,,,,10.0,,KIGQ 300415Z AUTO 00000KT 10SM CLR 24/24 A3019 RMK AO2  T02380235,,,,,,74.84,,N,29.53,27.45,,Clear
KIGQ,08/30/2016 04:35 UTC,30.18,74.48,74.3,100.0,0.0,0.0,,,,,,1.0,,,,10.0,,KIGQ 300435Z AUTO 00000KT 10SM CLR 24/24 A3018 RMK AO2  T02360235,,,,,,74.48,,N,29.52,27.48,,Clear
KIGQ,08/30/2016 04:55 UTC,30.18,73.94,73.94,100.0,0.0,0.0,,31.0,,,,1.0,,,,5.0,,KIGQ 300455Z AUTO 00000KT 5SM BR CLR 23/23 A3018 RMK AO2  T02330233,,,,,,73.94,,N,29.52,27.53,,Mist
KIGQ,08/30/2016 05:15 UTC,30.18,73.58,73.58,100.0,0.0,0.0,,31.0,,,,1.0,,,,4.0,,KIGQ 300515Z AUTO 00000KT 4SM BR CLR 23/23 A3018 RMK AO2  T02310231,,,,,,73.58,,N,29.52,27.57,,Mist
KIGQ,08/30/2016 05:35 UTC,30.18,72.14,72.14,100.0,0.0,0.0,,31.0,,,,1.0,,,,2.5,,KIGQ 300535Z AUTO 00000KT 2 1/2SM BR CLR 22/22 A3018 RMK AO2  T02230223,,,,,,72.14,,N,29.52,27.71,,Mist
KIGQ,08/30/2016 05:55 UTC,30.19,71.78,71.78,100.0,0.0,0.0,,31.0,,,,1.0,,,,3.0,,KIGQ 300555Z AUTO 00000KT 3SM BR CLR 22/22 A3019 RMK AO2 T02210221  10255 20220 403040195,77.9,71.6,,86.72,67.1,71.78,,N,29.53,27.75,,Mist
KIGQ,08/30/2016 06:15 UTC,30.18,72.68,72.68,100.0,0.0,0.0,,31.0,,,,1.0,,,,3.0,,KIGQ 300615Z AUTO 00000KT 3SM BR CLR 23/23 A3018 RMK AO2  T02260226,,,,,,72.68,,N,29.52,27.65,,Mist
KIGQ,08/30/2016 06:35 UTC,30.19,71.96,71.96,100.0,0.0,0.0,,31.0,,,,75.0,,,,1.5,,KIGQ 300635Z AUTO 00000KT 1 1/2SM BR VV007 22/22 A3019 RMK AO2  T02220222,,,700.0,,,71.96,,N,29.53,27.73,,Mist
KIGQ,08/30/2016 06:55 UTC,30.18,71.6,71.6,100.0,0.0,0.0,,31.0,,,,1.0,,,,3.0,,KIGQ 300655Z AUTO 00000KT 3SM BR CLR 22/22 A3018 RMK AO2  T02200220,,,,,,71.6,,N,29.52,27.76,,Mist
KIGQ,08/30/2016 07:15 UTC,30.17,70.88,70.88,100.0,0.0,0.0,,9.0,,,,44.0,,,,0.25,,KIGQ 300715Z AUTO 00000KT 1/4SM FG OVC004 22/22 A3017 RMK AO2  T02160216,,,400.0,,,70.88,,N,29.51,27.81,,Fog
KIGQ,08/30/2016 07:35 UTC,30.17,70.7,70.7,100.0,3.44,190.0,,9.0,,,,44.0,,,,0.25,,KIGQ 300735Z AUTO 19003KT 1/4SM FG OVC004 22/22 A3017 RMK AO2  T02150215,,,400.0,,,70.7,,S,29.51,27.83,,Fog
KIGQ,08/30/2016 07:55 UTC,30.16,70.7,70.7,100.0,0.0,0.0,,9.0,,,,24.0,,,,0.25,,KIGQ 300755Z AUTO 00000KT 1/4SM FG OVC002 22/22 A3016 RMK AO2  T02150215,,,200.0,,,70.7,,N,29.5,27.82,,Fog
KIGQ,08/30/2016 08:15 UTC,30.16,70.88,70.88,100.0,0.0,0.0,,31.0,,,,24.0,,,,0.75,,KIGQ 300815Z AUTO 00000KT 3/4SM BR OVC002 22/22 A3016 RMK AO2 LTG  DSNT NE T02160216,,,200.0,,,70.88,,N,29.5,27.8,,Mist
KIGQ,08/30/2016 08:35 UTC,30.15,70.52,70.52,100.0,0.0,0.0,,31.0,,,,1.0,,,,2.5,,KIGQ 300835Z AUTO 00000KT 2 1/2SM BR CLR 21/21 A3015 RMK AO2  T02140214,,,,,,70.52,,N,29.49,27.82,,Mist
KIGQ,08/30/2016 08:55 UTC,30.14,70.7,70.7,100.0,0.0,0.0,,31.0,,,,75.0,,,,1.0,,KIGQ 300855Z AUTO 00000KT 1SM BR VV007 22/22 A3014 RMK AO2 LTG  DSNT NE T02150215,,,700.0,,,70.7,,N,29.48,27.8,,Mist
KIGQ,08/30/2016 09:15 UTC,30.14,70.88,70.88,100.0,0.0,0.0,,31.0,,,,55.0,,,,0.75,,KIGQ 300915Z AUTO 00000KT 3/4SM BR VV005 22/22 A3014 RMK AO2  T02160216,,,500.0,,,70.88,,N,29.48,27.78,,Mist
KIGQ,08/30/2016 09:35 UTC,30.14,71.24,71.24,100.0,0.0,0.0,,31.0,,,,75.0,,,,1.0,,KIGQ 300935Z AUTO 00000KT 1SM BR VV007 22/22 A3014 RMK AO2 LTG  DSNT W T02180218,,,700.0,,,71.24,,N,29.48,27.75,,Mist
KIGQ,08/30/2016 09:55 UTC,30.15,71.06,71.06,100.0,0.0,0.0,,31.0,,,,1.0,,,,4.0,,KIGQ 300955Z AUTO 00000KT 4SM BR CLR 22/22 A3015 RMK AO2 LTG DSNT  W T02170217,,,,,,71.06,,N,29.49,27.77,,Mist
KIGQ,08/30/2016 10:15 UTC,30.15,71.6,71.6,100.0,0.0,0.0,,,,,,1.0,,,,7.0,,KIGQ 301015Z AUTO 00000KT 7SM CLR 22/22 A3015 RMK AO2 LTG DSNT N  AND NW T02200220,,,,,,71.6,,N,29.49,27.73,,Clear
KIGQ,08/30/2016 10:35 UTC,30.15,71.6,71.6,100.0,0.0,0.0,,,,,,1.0,,,,7.0,,KIGQ 301035Z AUTO 00000KT 7SM CLR 22/22 A3015 RMK AO2  T02200220,,,,,,71.6,,N,29.49,27.73,,Clear
KIGQ,08/30/2016 10:55 UTC,30.15,71.96,71.96,100.0,0.0,0.0,,,,,,1.0,,,,7.0,,KIGQ 301055Z AUTO 00000KT 7SM CLR 22/22 A3015 RMK AO2 LTG DSNT W  T02220222,,,,,,71.96,,N,29.49,27.69,,Clear
KIGQ,08/30/2016 11:15 UTC,30.15,70.52,70.52,100.0,0.0,0.0,,31.0,,,,1.0,,,,5.0,,KIGQ 301115Z AUTO 00000KT 5SM BR CLR 21/21 A3015 RMK AO2 LTG DSNT  W AND NW T02140214,,,,,,70.52,,N,29.49,27.82,,Mist
KIGQ,08/30/2016 11:35 UTC,30.15,70.7,70.7,100.0,0.0,0.0,,31.0,,,,1.0,,,,5.0,,KIGQ 301135Z AUTO 00000KT 5SM BR CLR 22/22 A3015 RMK AO2 LTG DSNT  SW THRU NW T02150215,,,,,,70.7,,N,29.49,27.81,,Mist
KIGQ,08/30/2016 11:55 UTC,30.16,71.06,71.06,100.0,0.0,0.0,,2485.0,,,,652.0,,,,5.0,,KIGQ 301155Z AUTO 00000KT 5SM VCTS BR SCT065 22/22 A3016 RMK AO2  LTG DSNT SW THRU N T02170217 10226 20213,72.68,70.34,,,,71.06,,N,29.5,27.78,,Thunder,Mist
KIGQ,08/30/2016 12:15 UTC,30.16,71.6,71.6,100.0,0.0,0.0,,,,,,652.0,,,,7.0,,KIGQ 301215Z AUTO 00000KT 7SM SCT065 22/22 A3016 RMK AO2 LTG DSNT  SW AND W T02200220,,,,,,71.6,,N,29.5,27.74,,Partly Cloudy
KIGQ,08/30/2016 12:35 UTC,30.17,72.5,72.5,100.0,8.05,280.0,,13.0,353.0,,,102.0,222.0,,,3.0,,KIGQ 301235Z AUTO 28007KT 3SM -RA SCT010 SCT022 BKN035 23/23  A3017 RMK AO2 LTG DSNT N T02250225,,,3500.0,,,72.5,,W,29.51,27.66,,Light Rain
KIGQ,08/30/2016 12:55 UTC,30.17,72.86,72.86,100.0,4.61,250.0,,,344.0,,,93.0,163.0,,,4.0,,KIGQ 301255Z AUTO 25004KT 4SM VCTSRA BKN009 BKN016 OVC034 23/23  A3017 RMK AO2 LTG DSNT N AND SW T02270227,,,900.0,,,72.86,,WSW,29.51,27.63,,Overcast
KIGQ,08/30/2016 13:15 UTC,30.17,72.68,72.68,100.0,6.91,240.0,,1.0,,0.01,,74.0,,,,1.25,,KIGQ 301315Z AUTO 24006KT 1 1/4SM RA OVC007 23/23 A3017 RMK AO2  LTG DSNT NE P0001 T02260226,,,700.0,,,72.68,,WSW,29.51,27.64,,Rain
KIGQ,08/30/2016 13:35 UTC,30.15,72.5,72.5,100.0,3.44,280.0,,1.0,904.0,0.02,,72.0,652.0,,,3.0,,KIGQ 301335Z AUTO 28003KT 3SM RA SCT007 SCT065 OVC090 23/23  A3015 RMK AO2 LTG DSNT NE P0002 T02250225,,,9000.0,,,72.5,,W,29.49,27.64,,Rain
KIGQ,08/30/2016 13:55 UTC,30.13,73.04,73.04,100.0,0.0,0.0,,13.0,904.0,0.02,,502.0,753.0,,,4.0,,KIGQ 301355Z AUTO 00000KT 4SM -RA SCT050 BKN075 OVC090 23/23  A3013 RMK AO2 LTG DSNT NE P0002 T02280228,,,7500.0,,,73.04,,N,29.47,27.57,,Light Rain
KIGQ,08/30/2016 14:15 UTC,30.11,73.04,73.04,100.0,4.61,130.0,,13.0,1104.0,,,482.0,853.0,,,4.0,,KIGQ 301415Z AUTO 13004KT 4SM -RA SCT048 BKN085 OVC110 23/23  A3011 RMK AO2 LTG DSNT E T02280228,,,8500.0,,,73.04,,SE,29.46,27.56,,Light Rain
KIGQ,08/30/2016 14:35 UTC,30.13,73.22,73.22,100.0,0.0,0.0,,13.0,,,,852.0,1103.0,,,5.0,,KIGQ 301435Z AUTO 00000KT 5SM -RA SCT085 BKN110 23/23 A3013 RMK AO2 T02290229,,,11000.0,,,73.22,,N,29.47,27.55,,Light Rain
KIGQ,08/30/2016 14:55 UTC,30.14,74.12,74.12,100.0,8.05,350.0,,13.0,503.0,,0.03,72.0,133.0,,,5.0,,KIGQ 301455Z AUTO 35007KT 5SM -RA SCT007 BKN013 BKN050 23/23  A3014 RMK AO2 60003 T02340234,,,1300.0,,,74.12,,N,29.48,27.47,,Light Rain
KIGQ,08/30/2016 15:15 UTC,30.14,75.56,75.56,100.0,4.61,330.0,,31.0,174.0,,,73.0,133.0,,,4.0,,KIGQ 301515Z AUTO 33004KT 4SM BR BKN007 BKN013 OVC017 24/24  A3014 RMK AO2 T02420242,,,700.0,,,75.56,,NNW,29.48,27.33,,Mist
KIGQ,08/30/2016 15:35 UTC,30.15,76.46,76.28,100.0,0.0,0.0,,31.0,,,,93.0,133.0,,,5.0,,KIGQ 301535Z AUTO 00000KT 5SM BR BKN009 BKN013 25/25 A3015 RMK AO2  LTG DSNT E T02470246,,,900.0,,,76.46,,N,29.49,27.24,,Mist
KIGQ,08/30/2016 15:55 UTC,30.14,76.64,75.74,94.2,0.0,0.0,,,,,,123.0,214.0,,,7.0,,KIGQ 301555Z AUTO 00000KT 7SM BKN012 OVC021 25/24 A3014 RMK AO2  T02480243,,,1200.0,,,74.84,,N,29.48,27.37,,Overcast
KIGQ,08/30/2016 16:15 UTC,30.14,77.54,75.02,94.2,5.75,270.0,,,294.0,,,123.0,213.0,,,10.0,,KIGQ 301615Z AUTO 27005KT 10SM BKN012 BKN021 OVC029 25/24  A3014 RMK AO2 T02530239,,,1200.0,,,75.73,,W,29.48,27.28,,Overcast
KIGQ,08/30/2016 16:35 UTC,30.13,78.26,75.2,88.78,3.44,170.0,,,293.0,,,162.0,223.0,,,10.0,,KIGQ 301635Z AUTO 17003KT 10SM SCT016 BKN022 BKN029 26/24  A3013 RMK AO2 T02570240,,,2200.0,,,74.67,,S,29.47,27.35,,Mostly Cloudy
KIGQ,08/30/2016 16:55 UTC,30.13,78.44,73.4,83.6,0.0,0.0,,,,,,162.0,222.0,,,10.0,,KIGQ 301655Z AUTO 00000KT 10SM SCT016 SCT022 26/23 A3013 RMK AO2  T02580230,,,,,,73.05,,N,29.47,27.49,,Partly Cloudy
KIGQ,08/30/2016 17:15 UTC,30.12,78.98,73.4,83.6,0.0,0.0,,,,,,1.0,,,,10.0,,KIGQ 301715Z AUTO 00000KT 10SM CLR 26/23 A3012 RMK AO2  T02610230,,,,,,73.58,,N,29.47,27.43,,Clear
KIGQ,08/30/2016 17:35 UTC,30.11,79.88,73.76,78.82,0.0,0.0,,,,,,1.0,,,,10.0,,KIGQ 301735Z AUTO 00000KT 10SM CLR 27/23 A3011 RMK AO2 LTG DSNT SW  T02660232,,,,,,72.71,,N,29.46,27.48,,Clear
KIGQ,08/30/2016 17:55 UTC,30.11,80.6,72.68,78.82,0.0,0.0,,,,,,1.0,,0.03,,10.0,,KIGQ 301755Z AUTO 00000KT 10SM CLR 27/23 A3011 RMK AO2 60003  T02700226 10270 20217,80.6,71.06,,,,73.41,,N,29.46,27.42,85.33,Clear
KIGQ,08/30/2016 18:15 UTC,30.11,81.32,73.4,78.82,3.44,270.0,,,,,,292.0,,,,10.0,,KIGQ 301815Z AUTO 27003KT 10SM SCT029 27/23 A3011 RMK AO2  T02740230,,,,,,74.11,,W,29.46,27.35,86.92,Partly Cloudy
KIGQ,08/30/2016 18:35 UTC,30.11,81.86,73.58,74.36,5.75,240.0,,,,,,292.0,383.0,,,10.0,,KIGQ 301835Z AUTO 24005KT 10SM SCT029 BKN038 28/23 A3011 RMK AO2  T02770231,,,3800.0,,,72.9,,WSW,29.46,27.44,87.13,Mostly Cloudy
KIGQ,08/30/2016 18:55 UTC,30.1,82.76,73.76,74.36,5.75,260.0,,,392.0,,,272.0,332.0,,,10.0,,KIGQ 301855Z AUTO 26005KT 10SM SCT027 SCT033 SCT039 28/23  A3010 RMK AO2 T02820232,,,,,,73.77,,W,29.45,27.35,89.07,Partly Cloudy
KIGQ,08/30/2016 19:15 UTC,30.09,82.58,72.86,74.36,5.75,270.0,,,483.0,,,313.0,403.0,,,10.0,,KIGQ 301915Z AUTO 27005KT 10SM BKN031 BKN040 BKN048 28/23  A3009 RMK AO2 T02810227,,,3100.0,,,73.6,,W,29.44,27.35,88.67,Mostly Cloudy
KIGQ,08/30/2016 19:35 UTC,30.09,82.04,73.4,75.23,5.75,280.0,,,603.0,,,343.0,483.0,,,10.0,,KIGQ 301935Z AUTO 28005KT 10SM BKN034 BKN048 BKN060 28/23 A3009 RMK AO2 T02780230,,,3400.0,,,73.42,,W,29.44,27.37,87.71,Mostly Cloudy
KIGQ,08/30/2016 19:55 UTC,30.08,81.86,73.22,74.36,6.91,240.0,,,603.0,,,342.0,453.0,,,10.0,,KIGQ 301955Z AUTO 24006KT 10SM SCT034 BKN045 BKN060 28/23  A3008 RMK AO2 T02770229,,,4500.0,,,72.9,,WSW,29.43,27.41,87.13,Mostly Cloudy
KIGQ,08/30/2016 20:15 UTC,30.08,83.12,73.4,74.36,9.22,250.0,,,602.0,,,342.0,452.0,,,10.0,,KIGQ 302015Z AUTO 25008KT 10SM SCT034 SCT045 SCT060 28/23  A3008 RMK AO2 T02840230,,,,,,74.12,,WSW,29.43,27.29,89.88,Partly Cloudy
KIGQ,08/30/2016 20:35 UTC,30.08,82.22,72.14,69.98,6.91,250.0,,,,,,1.0,,,,10.0,,KIGQ 302035Z AUTO 25006KT 10SM CLR 28/22 A3008 RMK AO2  T02790223,,,,,,71.45,,WSW,29.43,27.53,86.85,Clear
KIGQ,08/30/2016 20:55 UTC,30.07,82.58,72.5,74.36,9.22,270.0,,,492.0,,,332.0,402.0,,,10.0,,KIGQ 302055Z AUTO 27008KT 10SM SCT033 SCT040 SCT049 28/23  A3007 RMK AO2 T02810225,,,,,,73.6,,W,29.42,27.33,88.67,Partly Cloudy
KIGQ,08/30/2016 21:15 UTC,30.06,83.3,72.32,66.04,10.36,270.0,,,,,,372.0,,,,10.0,,KIGQ 302115Z AUTO 27009KT 10SM SCT037 29/22 A3006 RMK AO2  T02850224,,,,,,70.78,,W,29.41,27.55,87.91,Partly Cloudy
KIGQ,08/30/2016 21:35 UTC,30.05,82.94,71.78,69.98,12.66,260.0,,,,,,1.0,,,,10.0,,KIGQ 302135Z AUTO 26011KT 10SM CLR 28/22 A3005 RMK AO2  T02830221,,,,,,72.14,,W,29.4,27.43,88.26,Clear
KIGQ,08/30/2016 21:55 UTC,30.05,82.94,71.78,69.98,12.66,250.0,,,,,,1.0,,,,10.0,,KIGQ 302155Z AUTO 25011KT 10SM CLR 28/22 A3005 RMK AO2  T02830221,,,,,,72.14,,WSW,29.4,27.43,88.26,Clear
KIGQ,08/30/2016 22:15 UTC,30.05,81.5,71.78,69.98,6.91,280.0,,,,,,1.0,,,,10.0,,KIGQ 302215Z AUTO 28006KT 10SM CLR 28/22 A3005 RMK AO2  T02750221,,,,,,70.76,,W,29.4,27.56,85.51,Clear
KIGQ,08/30/2016 22:35 UTC,30.05,80.42,71.96,74.19,5.75,290.0,,,,,,352.0,,,,10.0,,KIGQ 302235Z AUTO 29005KT 10SM SCT035 27/22 A3005 RMK AO2 LTG DSNT  SW T02690222,,,,,,71.44,,WNW,29.4,27.52,84.24,Partly Cloudy
KIGQ,08/30/2016 22:55 UTC,30.04,80.6,72.14,74.19,5.75,290.0,,,,,,352.0,,,,10.0,,KIGQ 302255Z AUTO 29005KT 10SM SCT035 27/22 A3004 RMK AO2 LTG DSNT  SE T02700223,,,,,,71.61,,WNW,29.39,27.49,84.58,Partly Cloudy
KIGQ,08/30/2016 23:15 UTC,30.04,80.24,72.14,74.19,6.91,300.0,,,,,,442.0,,,,10.0,,KIGQ 302315Z AUTO 30006KT 10SM SCT044 27/22 A3004 RMK AO2  T02680223,,,,,,71.27,,WNW,29.39,27.52,83.91,Partly Cloudy
KIGQ,08/30/2016 23:35 UTC,30.04,79.7,72.14,74.19,3.44,290.0,,,,,,443.0,,,,10.0,,KIGQ 302335Z AUTO 29003KT 10SM BKN044 27/22 A3004 RMK AO2 LTG DSNT  SE T02650223,,,4400.0,,,70.74,,WNW,29.39,27.57,,Mostly Cloudy
KIGQ,08/30/2016 23:55 UTC,30.04,77.0,70.7,83.48,5.75,20.0,,,493.0,,,362.0,413.0,,,10.0,,KIGQ 302355Z AUTO 02005KT 10SM SCT036 BKN041 BKN049 25/22  A3004 RMK AO2 T02500215 10285 20250,83.3,77.0,4100.0,,,71.6,,NNE,29.39,27.54,,Mostly Cloudy
KIGQ,08/31/2016 00:15 UTC,30.04,76.1,70.7,83.48,0.0,0.0,,,,,,492.0,,,,10.0,,KIGQ 310015Z AUTO 00000KT 10SM SCT049 25/22 A3004 RMK AO2  T02450215,,,,,,70.71,,N,29.39,27.62,,Partly Cloudy
KIGQ,08/31/2016 00:35 UTC,30.04,75.92,70.16,83.37,0.0,0.0,,,,,,1.0,,,,10.0,,KIGQ 310035Z AUTO 00000KT 10SM CLR 24/21 A3004 RMK AO2  T02440212,,,,,,70.5,,N,29.39,27.64,,Clear
KIGQ,08/31/2016 00:55 UTC,30.03,75.56,70.16,83.37,0.0,0.0,,,,,,1.0,,,,10.0,,KIGQ 310055Z AUTO 00000KT 10SM CLR 24/21 A3003 RMK AO2 LTG DSNT S  T02420212,,,,,,70.15,,N,29.38,27.66,,Clear
KIGQ,08/31/2016 01:15 UTC,30.04,75.38,70.34,83.37,0.0,0.0,,,,,,1.0,,,,10.0,,KIGQ 310115Z AUTO 00000KT 10SM CLR 24/21 A3004 RMK AO2 LTG DSNT SE  T02410213,,,,,,69.97,,N,29.39,27.69,,Clear
KIGQ,08/31/2016 01:35 UTC,30.05,75.2,70.16,83.37,0.0,0.0,,,,,,1.0,,,,10.0,,KIGQ 310135Z AUTO 00000KT 10SM CLR 24/21 A3005 RMK AO2  T02400212,,,,,,69.79,,N,29.4,27.72,,Clear
KIGQ,08/31/2016 01:55 UTC,30.05,74.3,70.88,88.62,0.0,0.0,,,,,,1.0,,,,10.0,,KIGQ 310155Z AUTO 00000KT 10SM CLR 24/22 A3005 RMK AO2  T02350216,,,,,,70.71,,N,29.4,27.66,,Clear
KIGQ,08/31/2016 02:15 UTC,30.06,72.86,70.7,94.12,0.0,0.0,,,,,,1.0,,,,10.0,,KIGQ 310215Z AUTO 00000KT 10SM CLR 23/22 A3006 RMK AO2  T02270215,,,,,,71.06,,N,29.41,27.67,,Clear
KIGQ,08/31/2016 02:35 UTC,30.06,73.76,70.7,94.12,0.0,0.0,,,,,,1.0,,,,10.0,,KIGQ 310235Z AUTO 00000KT 10SM CLR 23/22 A3006 RMK AO2  T02320215,,,,,,71.96,,N,29.41,27.58,,Clear
KIGQ,08/31/2016 02:55 UTC,30.06,74.3,70.88,88.62,0.0,0.0,,,,,,1.0,,,,10.0,,KIGQ 310255Z AUTO 00000KT 10SM CLR 24/22 A3006 RMK AO2  T02350216,,,,,,70.71,,N,29.41,27.67,,Clear
KIGQ,08/31/2016 03:15 UTC,30.06,72.32,70.88,100.0,0.0,0.0,,,,,,1.0,,,,10.0,,KIGQ 310315Z AUTO 00000KT 10SM CLR 22/22 A3006 RMK AO2  T02240216,,,,,,72.32,,N,29.41,27.58,,Clear
KIGQ,08/31/2016 03:35 UTC,30.05,71.96,71.6,100.0,0.0,0.0,,,,,,1.0,,,,10.0,,KIGQ 310335Z AUTO 00000KT 10SM CLR 22/22 A3005 RMK AO2  T02220220,,,,,,71.96,,N,29.4,27.6,,Clear
KIGQ,08/31/2016 03:55 UTC,30.06,73.76,71.6,94.12,0.0,0.0,,,,,,1.0,,,,10.0,,KIGQ 310355Z AUTO 00000KT 10SM CLR 23/22 A3006 RMK AO2  T02320220,,,,,,71.96,,N,29.41,27.58,,Clear
KIGQ,08/31/2016 04:15 UTC,30.06,73.4,71.6,94.12,0.0,0.0,,,,,,1.0,,,,10.0,,KIGQ 310415Z AUTO 00000KT 10SM CLR 23/22 A3006 RMK AO2  T02300220,,,,,,71.6,,N,29.41,27.62,,Clear
KIGQ,08/31/2016 04:35 UTC,30.06,72.14,71.6,100.0,0.0,0.0,,,,,,1.0,,,,10.0,,KIGQ 310435Z AUTO 00000KT 10SM CLR 22/22 A3006 RMK AO2  T02230220,,,,,,72.14,,N,29.41,27.59,,Clear
KIGQ,08/31/2016 04:55 UTC,30.05,72.14,71.42,100.0,0.0,0.0,,,,,,1.0,,,,10.0,,KIGQ 310455Z AUTO 00000KT 10SM CLR 22/22 A3005 RMK AO2  T02230219,,,,,,72.14,,N,29.4,27.58,,Clear
KIGQ,08/31/2016 05:15 UTC,30.05,73.4,70.7,94.12,0.0,0.0,,,,,,1.0,,,,10.0,,KIGQ 310515Z AUTO 00000KT 10SM CLR 23/22 A3005 RMK AO2  T02300215,,,,,,71.6,,N,29.4,27.61,,Clear
KIGQ,08/31/2016 05:35 UTC,30.05,73.04,70.7,94.12,0.0,0.0,,,,,,1.0,,,,10.0,,KIGQ 310535Z AUTO 00000KT 10SM CLR 23/22 A3005 RMK AO2  T02280215,,,,,,71.24,,N,29.4,27.64,,Clear
KIGQ,08/31/2016 05:55 UTC,30.05,72.5,70.7,94.12,0.0,0.0,,,,,,1.0,,,,10.0,,KIGQ 310555Z AUTO 00000KT 10SM CLR 23/22 A3005 RMK AO2 T02250215  10249 20221 402850213,76.82,71.78,,83.3,70.34,70.7,,N,29.4,27.69,,Clear
KIGQ,08/31/2016 06:15 UTC,30.05,71.96,70.7,100.0,0.0,0.0,,,,,,1.0,,,,10.0,,KIGQ 310615Z AUTO 00000KT 10SM CLR 22/22 A3005 RMK AO2  T02220215,,,,,,71.96,,N,29.4,27.6,,Clear
KIGQ,08/31/2016 06:35 UTC,30.04,72.5,70.7,94.12,0.0,0.0,,,,,,1.0,,,,10.0,,KIGQ 310635Z AUTO 00000KT 10SM CLR 23/22 A3004 RMK AO2  T02250215,,,,,,70.7,,N,29.39,27.68,,Clear
KIGQ,08/31/2016 06:55 UTC,30.04,70.16,69.98,100.0,0.0,0.0,,,,,,1.0,,,,10.0,,KIGQ 310655Z AUTO 00000KT 10SM CLR 21/21 A3004 RMK AO2  T02120211,,,,,,70.16,,N,29.39,27.75,,Clear
KIGQ,08/31/2016 07:15 UTC,30.04,70.88,70.7,100.0,0.0,0.0,,,,,,1.0,,,,10.0,,KIGQ 310715Z AUTO 00000KT 10SM CLR 22/22 A3004 RMK AO2  T02160215,,,,,,70.88,,N,29.39,27.69,,Clear
KIGQ,08/31/2016 07:35 UTC,30.04,68.9,68.9,100.0,0.0,0.0,,,,,,1.0,,,,10.0,,KIGQ 310735Z AUTO 00000KT 10SM CLR 21/21 A3004 RMK AO2  T02050205,,,,,,68.9,,N,29.39,27.86,,Clear
KIGQ,08/31/2016 07:55 UTC,30.04,69.8,69.8,100.0,3.44,270.0,,,,,,1.0,,,,10.0,,KIGQ 310755Z AUTO 27003KT 10SM CLR 21/21 A3004 RMK AO2  T02100210,,,,,,69.8,,W,29.39,27.78,,Clear
KIGQ,08/31/2016 08:15 UTC,30.03,69.8,69.8,100.0,3.44,270.0,,,,,,1.0,,,,10.0,,KIGQ 310815Z AUTO 27003KT 10SM CLR 21/21 A3003 RMK AO2  T02100210,,,,,,69.8,,W,29.38,27.77,,Clear
KIGQ,08/31/2016 08:35 UTC,30.03,69.44,69.44,100.0,3.44,290.0,,,,,,1.0,,,,10.0,,KIGQ 310835Z AUTO 29003KT 10SM CLR 21/21 A3003 RMK AO2  T02080208,,,,,,69.44,,WNW,29.38,27.81,,Clear
KIGQ,08/31/2016 08:55 UTC,30.03,69.62,69.62,100.0,3.44,320.0,,,,,,272.0,,,,10.0,,KIGQ 310855Z AUTO 32003KT 10SM SCT027 21/21 A3003 RMK AO2  T02090209,,,,,,69.62,,NW,29.38,27.79,,Partly Cloudy
KIGQ,08/31/2016 09:15 UTC,30.02,69.8,69.62,100.0,3.44,310.0,,,,,,272.0,,,,10.0,,KIGQ 310915Z AUTO 31003KT 10SM SCT027 21/21 A3002 RMK AO2  T02100209,,,,,,69.8,,NW,29.37,27.76,,Partly Cloudy
KIGQ,08/31/2016 09:35 UTC,30.02,69.8,69.26,100.0,3.44,320.0,,,,,,1.0,,,,10.0,,KIGQ 310935Z AUTO 32003KT 10SM CLR 21/21 A3002 RMK AO2  T02100207,,,,,,69.8,,NW,29.37,27.76,,Clear
KIGQ,08/31/2016 09:55 UTC,30.02,70.16,69.26,100.0,4.61,340.0,,,,,,1.0,,,,10.0,,KIGQ 310955Z AUTO 34004KT 10SM CLR 21/21 A3002 RMK AO2  T02120207,,,,,,70.16,,NNW,29.37,27.73,,Clear
KIGQ,08/31/2016 10:15 UTC,30.02,70.7,69.44,95.8,0.0,0.0,,,,,,1.0,,,,10.0,,KIGQ 311015Z AUTO 00000KT 10SM CLR 22/21 A3002 RMK AO2  T02150208,,,,,,69.44,,N,29.37,27.78,,Clear
KIGQ,08/31/2016 10:35 UTC,30.03,70.34,69.44,100.0,4.61,340.0,,,,,,1.0,,,,10.0,,KIGQ 311035Z AUTO 34004KT 10SM CLR 21/21 A3003 RMK AO2  T02130208,,,,,,70.34,,NNW,29.38,27.73,,Clear
KIGQ,08/31/2016 10:55 UTC,30.04,71.06,70.16,94.07,8.05,350.0,,,,,,103.0,,,,10.0,,KIGQ 311055Z AUTO 35007KT 10SM BKN010 22/21 A3004 RMK AO2  T02170212,,,1000.0,,,69.26,,N,29.39,27.8,,Mostly Cloudy
KIGQ,08/31/2016 11:15 UTC,30.04,71.06,70.34,94.07,4.61,350.0,,,,,,103.0,,,,10.0,,KIGQ 311115Z AUTO 35004KT 10SM BKN010 22/21 A3004 RMK AO2  T02170213,,,1000.0,,,69.26,,N,29.39,27.8,,Mostly Cloudy
KIGQ,08/31/2016 11:35 UTC,30.04,71.6,70.7,100.0,6.91,360.0,,,,,,84.0,,,,10.0,,KIGQ 311135Z AUTO 36006KT 10SM OVC008 22/22 A3004 RMK AO2  T02200215,,,800.0,,,71.6,,N,29.39,27.62,,Overcast
KIGQ,08/31/2016 11:55 UTC,30.05,71.6,70.52,94.07,5.75,350.0,,,,,,82.0,164.0,,0.03,10.0,,KIGQ 311155Z AUTO 35005KT 10SM SCT008 OVC016 22/21 A3005 RMK AO2  70003 T02200214 10226 20203,72.68,68.54,1600.0,,,69.79,,N,29.4,27.77,,Overcast
KIGQ,08/31/2016 12:15 UTC,30.05,71.78,70.52,94.07,3.44,350.0,,,,,,164.0,,,,10.0,,KIGQ 311215Z AUTO 35003KT 10SM OVC016 22/21 A3005 RMK AO2  T02210214,,,1600.0,,,69.97,,N,29.4,27.75,,Overcast
KIGQ,08/31/2016 12:35 UTC,30.05,71.78,70.16,94.07,8.05,330.0,,,,,,144.0,,,,10.0,,KIGQ 311235Z AUTO 33007KT 10SM OVC014 22/21 A3005 RMK AO2  T02210212,,,1400.0,,,69.97,,NNW,29.4,27.75,,Overcast
KIGQ,08/31/2016 12:55 UTC,30.04,72.14,69.8,94.07,6.91,340.0,,,,,,144.0,,,,10.0,,KIGQ 311255Z AUTO 34006KT 10SM OVC014 22/21 A3004 RMK AO2  T02230210,,,1400.0,,,70.33,,NNW,29.39,27.71,,Overcast
KIGQ,08/31/2016 13:15 UTC,30.04,72.5,69.98,88.54,8.05,10.0,16.11,,,,,144.0,,,,10.0,,KIGQ 311315Z AUTO 01007G14KT 10SM OVC014 23/21 A3004 RMK AO2  T02250211,,,1400.0,,,68.91,,N,29.39,27.81,,Overcast
KIGQ,08/31/2016 13:35 UTC,30.05,72.68,70.34,88.54,5.75,20.0,,,,,,124.0,,,,10.0,,KIGQ 311335Z AUTO 02005KT 10SM OVC012 23/21 A3005 RMK AO2  T02260213,,,1200.0,,,69.08,,NNE,29.4,27.8,,Overcast
KIGQ,08/31/2016 13:55 UTC,30.05,71.96,69.26,94.07,3.44,360.0,16.11,,,,,124.0,,,,10.0,,KIGQ 311355Z AUTO 36003G14KT 10SM OVC012 22/21 A3005 RMK AO2  T02220207,,,1200.0,,,70.15,,N,29.4,27.74,,Overcast
KIGQ,08/31/2016 14:15 UTC,30.05,72.68,69.44,88.54,6.91,350.0,,,,,,144.0,,,,10.0,,KIGQ 311415Z AUTO 35006KT 10SM OVC014 23/21 A3005 RMK AO2  T02260208,,,1400.0,,,69.08,,N,29.4,27.8,,Overcast
KIGQ,08/31/2016 14:35 UTC,30.05,73.22,69.44,88.54,9.22,340.0,,,,,,144.0,,,,10.0,,KIGQ 311435Z AUTO 34008KT 10SM OVC014 23/21 A3005 RMK AO2  T02290208,,,1400.0,,,69.62,,NNW,29.4,27.76,,Overcast
KIGQ,08/31/2016 14:55 UTC,30.06,72.68,69.08,88.54,0.0,0.0,,,,,,144.0,,,,10.0,,KIGQ 311455Z AUTO 00000KT 10SM OVC014 23/21 A3006 RMK AO2  T02260206,,,1400.0,,,69.08,,N,29.41,27.81,,Overcast
KIGQ,08/31/2016 15:15 UTC,30.06,72.68,69.08,88.54,5.75,10.0,,,,,,144.0,,,,10.0,,KIGQ 311515Z AUTO 01005KT 10SM OVC014 23/21 A3006 RMK AO2  T02260206,,,1400.0,,,69.08,,N,29.41,27.81,,Overcast
KIGQ,08/31/2016 15:35 UTC,30.06,73.4,68.18,83.25,8.05,10.0,,,,,,164.0,,,,10.0,,KIGQ 311535Z AUTO 01007KT 330V040 10SM OVC016 23/20 A3006 RMK AO2  T02300201,,,1600.0,,,67.99,,N,29.41,27.88,,Overcast
KIGQ,08/31/2016 15:55 UTC,30.06,73.58,67.28,83.25,9.22,20.0,,,,,,204.0,,,,10.0,,KIGQ 311555Z AUTO 02008KT 10SM OVC020 23/20 A3006 RMK AO2  T02310196,,,2000.0,,,68.17,,NNE,29.41,27.87,,Overcast
KIGQ,08/31/2016 16:15 UTC,30.07,75.2,67.64,78.39,14.97,10.0,,,,,,224.0,,,,10.0,,KIGQ 311615Z AUTO 01013KT 10SM OVC022 24/20 A3007 RMK AO2  T02400198,,,2200.0,,,67.99,,N,29.42,27.87,,Overcast
KIGQ,08/31/2016 16:35 UTC,30.06,75.38,67.46,78.39,12.66,350.0,17.27,,,,,224.0,,,,10.0,,KIGQ 311635Z AUTO 35011G15KT 320V020 10SM OVC022 24/20 A3006 RMK AO2 T02410197,,,2200.0,,,68.17,,N,29.41,27.84,,Overcast
KIGQ,08/31/2016 16:55 UTC,30.06,74.84,67.28,78.39,12.66,360.0,20.71,,,,,223.0,464.0,,,10.0,,KIGQ 311655Z AUTO 36011G18KT 10SM BKN022 OVC046 24/20 A3006 RMK AO2 T02380196,,,2200.0,,,67.64,,N,29.41,27.89,,Overcast
KIGQ,08/31/2016 17:15 UTC,30.07,75.74,67.46,78.39,12.66,30.0,18.41,,,,,243.0,464.0,,,10.0,,KIGQ 311715Z AUTO 03011G16KT 10SM BKN024 OVC046 24/20 A3007 RMK AO2 T02430197,,,2400.0,,,68.52,,NNE,29.42,27.82,,Overcast
KIGQ,08/31/2016 17:35 UTC,30.07,76.1,67.1,73.85,9.22,360.0,16.11,,,,,263.0,483.0,,,10.0,,KIGQ 311735Z AUTO 36008G14KT 10SM BKN026 BKN048 25/20 A3007 RMK AO2 T02450195,,,2600.0,,,67.13,,N,29.42,27.91,,Mostly Cloudy
KIGQ,08/31/2016 17:55 UTC,30.07,73.94,64.76,73.5,14.97,360.0,19.57,,502.0,,,262.0,452.0,,,10.0,,KIGQ 311755Z AUTO 36013G17KT 10SM SCT026 SCT045 SCT050 23/18  A3007 RMK AO2 T02330182 10246 20220,76.28,71.6,,,,64.9,,N,29.42,28.09,,Partly Cloudy
KIGQ,08/31/2016 18:15 UTC,30.07,74.84,64.94,69.21,12.66,360.0,16.11,,,,,1.0,,,,10.0,,KIGQ 311815Z AUTO 36011G14KT 10SM CLR 24/18 A3007 RMK AO2  T02380183,,,,,,64.04,,N,29.42,28.13,,Clear
KIGQ,08/31/2016 18:35 UTC,30.07,74.3,63.5,69.21,13.8,360.0,23.02,,,,,502.0,,,,10.0,,KIGQ 311835Z AUTO 36012G20KT 10SM SCT050 24/18 A3007 RMK AO2  T02350175,,,,,,63.52,,N,29.42,28.17,,Partly Cloudy
KIGQ,08/31/2016 18:55 UTC,30.07,73.58,63.14,69.01,11.5,20.0,19.57,,,,,1.0,,,,10.0,,KIGQ 311855Z AUTO 02010G17KT 10SM CLR 23/17 A3007 RMK AO2  T02310173,,,,,,62.75,,NNE,29.42,28.23,,Clear
KIGQ,08/31/2016 19:15 UTC,30.07,74.48,62.96,64.98,10.36,20.0,20.71,,,,,1.0,,,,10.0,,KIGQ 311915Z AUTO 02009G18KT 10SM CLR 24/17 A3007 RMK AO2  T02360172,,,,,,61.9,,NNE,29.42,28.27,,Clear
KIGQ,08/31/2016 19:35 UTC,30.07,72.86,64.04,73.5,14.97,360.0,19.57,,,,,1.0,,,,10.0,,KIGQ 311935Z AUTO 36013G17KT 10SM CLR 23/18 A3007 RMK AO2  T02270178,,,,,,63.86,,N,29.42,28.17,,Clear
KIGQ,08/31/2016 19:55 UTC,30.07,72.5,64.58,73.5,14.97,350.0,19.57,,,,,272.0,,,,10.0,,KIGQ 311955Z AUTO 35013G17KT 10SM SCT027 23/18 A3007 RMK AO2  T02250181,,,,,,63.51,,N,29.42,28.19,,Partly Cloudy
KIGQ,08/31/2016 20:15 UTC,30.06,72.68,65.12,73.5,16.11,10.0,21.85,,,,,252.0,,,,10.0,,KIGQ 312015Z AUTO 01014G19KT 10SM SCT025 23/18 A3006 RMK AO2  T02260184,,,,,,63.69,,N,29.41,28.17,,Partly Cloudy
KIGQ,08/31/2016 20:35 UTC,30.06,73.76,64.22,73.5,14.97,10.0,18.41,,,,,273.0,,,,10.0,,KIGQ 312035Z AUTO 01013G16KT 10SM BKN027 23/18 A3006 RMK AO2  T02320179,,,2700.0,,,64.73,,N,29.41,28.09,,Mostly Cloudy
KIGQ,08/31/2016 20:55 UTC,30.06,72.14,61.34,68.81,10.36,10.0,21.85,,,,,272.0,,,,10.0,,KIGQ 312055Z AUTO 01009G19KT 10SM SCT027 22/16 A3006 RMK AO2  T02230163,,,,,,61.29,,N,29.41,28.32,,Partly Cloudy
KIGQ,08/31/2016 21:15 UTC,30.07,71.96,62.06,73.32,14.97,20.0,21.85,,,,,322.0,,,,10.0,,KIGQ 312115Z AUTO 02013G19KT 10SM SCT032 22/17 A3007 RMK AO2  T02220167,,,,,,62.92,,NNE,29.42,28.24,,Partly Cloudy
KIGQ,08/31/2016 21:35 UTC,30.07,71.6,63.86,78.09,14.97,20.0,20.71,,,,,272.0,322.0,,,10.0,,KIGQ 312135Z AUTO 02013G18KT 10SM SCT027 SCT032 22/18 A3007 RMK AO2 T02200177,,,,,,64.38,,NNE,29.42,28.15,,Partly Cloudy
KIGQ,08/31/2016 21:55 UTC,30.06,71.42,63.5,78.09,14.97,360.0,19.57,,,,,253.0,,,,10.0,,KIGQ 312155Z AUTO 36013G17KT 10SM BKN025 22/18 A3006 RMK AO2  T02190175,,,2500.0,,,64.2,,N,29.41,28.15,,Mostly Cloudy
KIGQ,08/31/2016 22:15 UTC,30.06,70.88,62.96,73.32,9.22,360.0,21.85,,,,,252.0,,,,10.0,,KIGQ 312215Z AUTO 36008G19KT 10SM SCT025 22/17 A3006 RMK AO2  T02160172,,,,,,61.88,,N,29.41,28.3,,Partly Cloudy
KIGQ,08/31/2016 22:35 UTC,30.07,70.88,62.42,73.32,12.66,10.0,20.71,,,,,292.0,,,,10.0,,KIGQ 312235Z AUTO 01011G18KT 10SM SCT029 22/17 A3007 RMK AO2  T02160169,,,,,,61.88,,N,29.42,28.31,,Partly Cloudy
KIGQ,08/31/2016 22:55 UTC,30.07,70.34,62.06,77.94,11.5,10.0,21.85,,,,,293.0,353.0,,,10.0,,KIGQ 312255Z AUTO 01010G19KT 10SM BKN029 BKN035 21/17 A3007 RMK AO2 T02130167,,,2900.0,,,63.1,,N,29.42,28.24,,Mostly Cloudy
KIGQ,08/31/2016 23:15 UTC,30.07,70.7,61.52,68.81,11.5,10.0,17.27,,,,,293.0,,,,10.0,,KIGQ 312315Z AUTO 01010G15KT 10SM BKN029 22/16 A3007 RMK AO2  T02150164,,,2900.0,,,59.91,,N,29.42,28.42,,Mostly Cloudy
KIGQ,08/31/2016 23:35 UTC,30.07,70.34,60.44,73.15,11.5,10.0,,,,,,312.0,,,,10.0,,KIGQ 312335Z AUTO 01010KT 340V040 10SM SCT031 21/16 A3007 RMK AO2  T02130158,,,,,,61.29,,N,29.42,28.35,,Partly Cloudy
KIGQ,08/31/2016 23:55 UTC,30.07,69.8,59.18,68.61,11.5,10.0,19.57,,,,,1.0,,,,10.0,,KIGQ 312355Z AUTO 01010G17KT 10SM CLR 21/15 A3007 RMK AO2  T02100151 10238 20210,74.84,69.8,,,,58.96,,N,29.42,28.48,,Clear
