# STATION: KIGQ
# STATION NAME: Lansing Municipal Airport
# LATITUDE: 41.54125
# LONGITUDE: -87.52822
# ELEVATION [ft]: 607
# STATE: IL
Station_ID,Date_Time,altimeter_set_1,air_temp_set_1,dew_point_temperature_set_1,relative_humidity_set_1,wind_speed_set_1,wind_direction_set_1,wind_gust_set_1,weather_cond_code_set_1,cloud_layer_3_code_set_1,precip_accum_one_hour_set_1,precip_accum_three_hour_set_1,cloud_layer_1_code_set_1,cloud_layer_2_code_set_1,precip_accum_six_hour_set_1,precip_accum_24_hour_set_1,visibility_set_1,metar_remark_set_1,metar_set_1,air_temp_high_6_hour_set_1,air_temp_low_6_hour_set_1,ceiling_set_1,air_temp_high_24_hour_set_1,air_temp_low_24_hour_set_1,dew_point_temperature_set_1d,wind_chill_set_1d,wind_cardinal_direction_set_1d,pressure_set_1d,sea_level_pressure_set_1d,heat_index_set_1d,weather_condition_set_1d
,,INHG,Fahrenheit,Fahrenheit,%,Miles/hour,Degrees,Miles/hour,code,code,Inches,Inches,code,code,Inches,Inches,Statute miles,text,text,Fahrenheit,Fahrenheit,Feet,Fahrenheit,Fahrenheit,Fahrenheit,Fahrenheit,Code,INHG,INHG,Fahrenheit,Code
KIGQ,09/01/2016 00:15 UTC,30.07,69.26,58.28,68.61,11.5,20.0,,,,,,1.0,,,,10.0,,KIGQ 010015Z AUTO 02010KT 10SM CLR 21/15 A3007 RMK AO2  T02070146,,,,,,58.44,,NNE,29.42,28.51,,Clear
KIGQ,09/01/2016 00:35 UTC,30.07,68.9,57.56,64.32,12.66,20.0,23.02,,,,,1.0,,,,10.0,,KIGQ 010035Z AUTO 02011G20KT 10SM CLR 21/14 A3007 RMK AO2  T02050142,,,,,,56.3,,NNE,29.42,28.62,,Clear
KIGQ,09/01/2016 00:55 UTC,30.07,69.08,57.38,64.32,12.66,20.0,17.27,,,,,1.0,,,,10.0,,KIGQ 010055Z AUTO 02011G15KT 10SM CLR 21/14 A3007 RMK AO2  T02060141,,,,,,56.47,,NNE,29.42,28.61,,Clear
KIGQ,09/01/2016 01:15 UTC,30.08,68.9,57.38,64.32,9.22,10.0,17.27,,,,,1.0,,,,10.0,,KIGQ 010115Z AUTO 01008G15KT 10SM CLR 21/14 A3008 RMK AO2  T02050141,,,,,,56.3,,N,29.43,28.63,,Clear
KIGQ,09/01/2016 01:35 UTC,30.08,68.9,58.1,68.61,6.91,20.0,,,,,,1.0,,,,10.0,,KIGQ 010135Z AUTO 02006KT 10SM CLR 21/15 A3008 RMK AO2  T02050145,,,,,,58.1,,NNE,29.43,28.55,,Clear
KIGQ,09/01/2016 01:55 UTC,30.08,68.9,59.0,68.61,8.05,360.0,,,,,,1.0,,,,10.0,,KIGQ 010155Z AUTO 36007KT 10SM CLR 21/15 A3008 RMK AO2  T02050150,,,,,,58.1,,N,29.43,28.55,,Clear
KIGQ,09/01/2016 02:15 UTC,30.08,68.54,59.36,72.97,8.05,10.0,,,,,,1.0,,,,10.0,,KIGQ 010215Z AUTO 01007KT 10SM CLR 20/15 A3008 RMK AO2  T02030152,,,,,,59.48,,N,29.43,28.48,,Clear
KIGQ,09/01/2016 02:35 UTC,30.08,68.9,60.26,73.15,12.66,20.0,17.27,,,,,1.0,,,,10.0,,KIGQ 010235Z AUTO 02011G15KT 10SM CLR 21/16 A3008 RMK AO2  T02050157,,,,,,59.9,,NNE,29.43,28.45,,Clear
KIGQ,09/01/2016 02:55 UTC,30.08,69.26,60.08,73.15,10.36,20.0,19.57,,,,,1.0,,,,10.0,,KIGQ 010255Z AUTO 02009G17KT 10SM CLR 21/16 A3008 RMK AO2  T02070156,,,,,,60.25,,NNE,29.43,28.43,,Clear
KIGQ,09/01/2016 03:15 UTC,30.08,69.26,60.8,73.15,10.36,20.0,17.27,,,,,1.0,,,,10.0,,KIGQ 010315Z AUTO 02009G15KT 10SM CLR 21/16 A3008 RMK AO2  T02070160,,,,,,60.25,,NNE,29.43,28.43,,Clear
KIGQ,09/01/2016 03:35 UTC,30.08,69.26,61.34,73.15,11.5,30.0,16.11,,,,,1.0,,,,10.0,,KIGQ 010335Z AUTO 03010G14KT 10SM CLR 21/16 A3008 RMK AO2  T02070163,,,,,,60.25,,NNE,29.43,28.43,,Clear
KIGQ,09/01/2016 03:55 UTC,30.08,69.08,61.7,77.94,8.05,30.0,,,,,,1.0,,,,10.0,,KIGQ 010355Z AUTO 03007KT 10SM CLR 21/17 A3008 RMK AO2  T02060165,,,,,,61.87,,NNE,29.43,28.34,,Clear
KIGQ,09/01/2016 04:15 UTC,30.09,69.44,61.7,77.94,9.22,30.0,,,,,,322.0,,,,10.0,,KIGQ 010415Z AUTO 03008KT 10SM SCT032 21/17 A3009 RMK AO2  T02080165,,,,,,62.22,,NNE,29.44,28.33,,Partly Cloudy
KIGQ,09/01/2016 04:35 UTC,30.09,69.62,61.7,77.94,9.22,40.0,16.11,,,,,322.0,,,,10.0,,KIGQ 010435Z AUTO 04008G14KT 10SM SCT032 21/17 A3009 RMK AO2  T02090165,,,,,,62.4,,NE,29.44,28.32,,Partly Cloudy
KIGQ,09/01/2016 04:55 UTC,30.1,69.26,61.34,73.15,8.05,40.0,,,,,,1.0,,,,10.0,,KIGQ 010455Z AUTO 04007KT 10SM CLR 21/16 A3010 RMK AO2  T02070163,,,,,,60.25,,NE,29.45,28.45,,Clear
KIGQ,09/01/2016 05:15 UTC,30.1,69.62,61.34,73.15,6.91,40.0,,,,,,1.0,,,,10.0,,KIGQ 010515Z AUTO 04006KT 10SM CLR 21/16 A3010 RMK AO2  T02090163,,,,,,60.6,,NE,29.45,28.43,,Clear
KIGQ,09/01/2016 05:35 UTC,30.1,69.08,61.16,73.15,8.05,40.0,,,,,,1.0,,,,10.0,,KIGQ 010535Z AUTO 04007KT 10SM CLR 21/16 A3010 RMK AO2  T02060162,,,,,,60.07,,NE,29.45,28.46,,Clear
KIGQ,09/01/2016 05:55 UTC,30.1,68.36,60.98,77.79,6.91,40.0,,,,,,1.0,,,,10.0,,KIGQ 010555Z AUTO 04006KT 10SM CLR 20/16 A3010 RMK AO2 T02020161  10210 20202 402460202,69.8,68.36,,76.28,68.36,61.12,,NE,29.45,28.41,,Clear
KIGQ,09/01/2016 06:15 UTC,30.1,68.18,61.34,77.79,5.75,50.0,,,,,,342.0,392.0,,,10.0,,KIGQ 010615Z AUTO 05005KT 10SM SCT034 SCT039 20/16 A3010 RMK AO2  T02010163,,,,,,60.94,,NE,29.45,28.42,,Partly Cloudy
KIGQ,09/01/2016 06:35 UTC,30.1,68.36,61.34,77.79,4.61,50.0,,,552.0,,,342.0,412.0,,,10.0,,KIGQ 010635Z AUTO 05004KT 10SM SCT034 SCT041 SCT055 20/16  A3010 RMK AO2 T02020163,,,,,,61.12,,NE,29.45,28.41,,Partly Cloudy
KIGQ,09/01/2016 06:55 UTC,30.1,68.18,60.98,77.79,4.61,50.0,,,552.0,,,342.0,412.0,,,10.0,,KIGQ 010655Z AUTO 05004KT 10SM SCT034 SCT041 SCT055 20/16  A3010 RMK AO2 T02010161,,,,,,60.94,,NE,29.45,28.42,,Partly Cloudy
KIGQ,09/01/2016 07:15 UTC,30.11,65.84,61.7,88.2,5.75,90.0,,,552.0,,,342.0,402.0,,,10.0,,KIGQ 010715Z AUTO 09005KT 10SM SCT034 SCT040 SCT055 19/17  A3011 RMK AO2 T01880165,,,,,,62.23,,E,29.46,28.39,,Partly Cloudy
KIGQ,09/01/2016 07:35 UTC,30.11,67.1,62.6,82.89,3.44,80.0,,,553.0,,,343.0,473.0,,,10.0,,KIGQ 010735Z AUTO 08003KT 10SM BKN034 BKN047 BKN055 20/17  A3011 RMK AO2 T01950170,,,3400.0,,,61.69,,E,29.46,28.41,,Mostly Cloudy
KIGQ,09/01/2016 07:55 UTC,30.11,66.38,62.06,88.2,4.61,70.0,,,493.0,,,342.0,413.0,,,10.0,,KIGQ 010755Z AUTO 07004KT 10SM SCT034 BKN041 BKN049 19/17  A3011 RMK AO2 T01910167,,,4100.0,,,62.76,,ENE,29.46,28.36,,Mostly Cloudy
KIGQ,09/01/2016 08:15 UTC,30.11,66.38,61.7,88.2,5.75,70.0,,,483.0,,,342.0,412.0,,,10.0,,KIGQ 010815Z AUTO 07005KT 10SM SCT034 SCT041 BKN048 19/17  A3011 RMK AO2 T01910165,,,4800.0,,,62.76,,ENE,29.46,28.36,,Mostly Cloudy
KIGQ,09/01/2016 08:35 UTC,30.11,66.74,60.44,82.77,5.75,70.0,,,604.0,,,363.0,463.0,,,10.0,,KIGQ 010835Z AUTO 07005KT 10SM BKN036 BKN046 OVC060 19/16  A3011 RMK AO2 T01930158,,,3600.0,,,61.3,,ENE,29.46,28.43,,Overcast
KIGQ,09/01/2016 08:55 UTC,30.11,66.38,59.54,77.64,6.91,70.0,,,604.0,,,302.0,343.0,,,10.0,,KIGQ 010855Z AUTO 07006KT 10SM SCT030 BKN034 OVC060 19/15  A3011 RMK AO2 T01910153,,,3400.0,,,59.14,,ENE,29.46,28.55,,Overcast
KIGQ,09/01/2016 09:15 UTC,30.11,66.2,58.28,77.64,5.75,70.0,,,503.0,,,312.0,413.0,,,10.0,,KIGQ 010915Z AUTO 07005KT 10SM SCT031 BKN041 BKN050 19/15  A3011 RMK AO2 T01900146,,,4100.0,,,58.96,,ENE,29.46,28.56,,Mostly Cloudy
KIGQ,09/01/2016 09:35 UTC,30.11,64.94,57.92,77.48,0.0,0.0,,,602.0,,,342.0,442.0,,,10.0,,KIGQ 010935Z AUTO 00000KT 10SM SCT034 SCT044 SCT060 18/14  A3011 RMK AO2 T01830144,,,,,,57.68,,N,29.46,28.64,,Partly Cloudy
KIGQ,09/01/2016 09:55 UTC,30.12,64.76,57.74,77.48,5.75,80.0,,,,,,1.0,,,,10.0,,KIGQ 010955Z AUTO 08005KT 10SM CLR 18/14 A3012 RMK AO2  T01820143,,,,,,57.51,,E,29.47,28.66,,Clear
KIGQ,09/01/2016 10:15 UTC,30.12,64.4,57.74,77.48,4.61,80.0,,,,,,652.0,,,,10.0,,KIGQ 011015Z AUTO 08004KT 10SM SCT065 18/14 A3012 RMK AO2  T01800143,,,,,,57.16,,E,29.47,28.68,,Partly Cloudy
KIGQ,09/01/2016 10:35 UTC,30.12,63.5,57.92,77.48,3.44,80.0,,,,,,653.0,,,,10.0,,KIGQ 011035Z AUTO 08003KT 10SM BKN065 18/14 A3012 RMK AO2  T01750144,,,6500.0,,,56.28,,E,29.47,28.73,,Mostly Cloudy
KIGQ,09/01/2016 10:55 UTC,30.12,63.5,58.1,82.65,3.44,90.0,,,,,,502.0,653.0,,,10.0,,KIGQ 011055Z AUTO 09003KT 10SM SCT050 BKN065 18/15 A3012 RMK AO2  T01750145,,,6500.0,,,58.09,,E,29.47,28.65,,Mostly Cloudy
KIGQ,09/01/2016 11:15 UTC,30.13,62.78,57.74,82.52,0.0,0.0,,,502.0,,,352.0,432.0,,,10.0,,KIGQ 011115Z AUTO 00000KT 10SM SCT035 SCT043 SCT050 17/14  A3013 RMK AO2 T01710143,,,,,,57.34,,N,29.47,28.69,,Partly Cloudy
KIGQ,09/01/2016 11:35 UTC,30.14,61.88,59.0,88.02,0.0,0.0,,,603.0,,,353.0,413.0,,,10.0,,KIGQ 011135Z AUTO 00000KT 10SM BKN035 BKN041 BKN060 17/15  A3014 RMK AO2 T01660150,,,3500.0,,,58.26,,N,29.48,28.67,,Mostly Cloudy
KIGQ,09/01/2016 11:55 UTC,30.14,63.68,59.18,82.65,0.0,0.0,,,604.0,,,352.0,483.0,,,10.0,,KIGQ 011155Z AUTO 00000KT 10SM SCT035 BKN048 OVC060 18/15  A3014 RMK AO2 T01760151 10205 20160,68.9,60.8,4800.0,,,58.26,,N,29.48,28.65,,Overcast
KIGQ,09/01/2016 12:15 UTC,30.14,64.4,59.9,88.11,0.0,0.0,,,654.0,,,302.0,463.0,,,10.0,,KIGQ 011215Z AUTO 00000KT 10SM SCT030 BKN046 OVC065 18/16  A3014 RMK AO2 T01800155,,,4600.0,,,60.78,,N,29.48,28.51,,Overcast
KIGQ,09/01/2016 12:35 UTC,30.15,64.04,60.62,88.11,0.0,0.0,,,654.0,,,322.0,553.0,,,10.0,,KIGQ 011235Z AUTO 00000KT 10SM SCT032 BKN055 OVC065 18/16  A3015 RMK AO2 T01780159,,,5500.0,,,60.42,,N,29.49,28.54,,Overcast
KIGQ,09/01/2016 12:55 UTC,30.15,64.58,59.9,88.11,4.61,90.0,,,554.0,,,372.0,492.0,,,10.0,,KIGQ 011255Z AUTO 09004KT 10SM SCT037 SCT049 OVC055 18/16  A3015 RMK AO2 T01810155,,,5500.0,,,60.95,,E,29.49,28.51,,Overcast
KIGQ,09/01/2016 13:15 UTC,30.15,65.3,60.08,82.77,0.0,0.0,,,,,,503.0,654.0,,,10.0,,KIGQ 011315Z AUTO 00000KT 10SM BKN050 OVC065 19/16 A3015 RMK AO2  T01850156,,,5000.0,,,59.89,,N,29.49,28.56,,Overcast
KIGQ,09/01/2016 13:35 UTC,30.15,66.74,60.26,82.77,3.44,70.0,,,,,,552.0,704.0,,,10.0,,KIGQ 011335Z AUTO 07003KT 10SM SCT055 OVC070 19/16 A3015 RMK AO2  T01930157,,,7000.0,,,61.3,,ENE,29.49,28.46,,Overcast
KIGQ,09/01/2016 13:55 UTC,30.16,69.08,60.8,73.15,4.61,70.0,,,,,,703.0,,,,10.0,,KIGQ 011355Z AUTO 07004KT 10SM BKN070 21/16 A3016 RMK AO2  T02060160,,,7000.0,,,60.07,,ENE,29.5,28.51,,Mostly Cloudy
KIGQ,09/01/2016 14:15 UTC,30.16,70.16,61.7,77.94,3.44,50.0,,,,,,802.0,,,,10.0,,KIGQ 011415Z AUTO 05003KT 10SM SCT080 21/17 A3016 RMK AO2  T02120165,,,,,,62.92,,NE,29.5,28.34,,Partly Cloudy
KIGQ,09/01/2016 14:35 UTC,30.17,69.8,61.34,73.15,4.61,50.0,,,,,,502.0,653.0,,,10.0,,KIGQ 011435Z AUTO 05004KT 10SM SCT050 BKN065 21/16 A3017 RMK AO2  T02100163,,,6500.0,,,60.77,,NE,29.51,28.48,,Mostly Cloudy
KIGQ,09/01/2016 14:55 UTC,30.18,68.0,61.34,77.79,6.91,40.0,,13.0,654.0,,,482.0,553.0,,,10.0,,KIGQ 011455Z AUTO 04006KT 10SM -RA SCT048 BKN055 OVC065 20/16  A3018 RMK AO2 T02000163,,,5500.0,,,60.77,,NE,29.52,28.51,,Light Rain
KIGQ,09/01/2016 15:15 UTC,30.18,68.36,60.8,77.79,13.8,70.0,19.57,,754.0,,,262.0,553.0,,,10.0,,KIGQ 011515Z AUTO 07012G17KT 10SM SCT026 BKN055 OVC075 20/16  A3018 RMK AO2 T02020160,,,5500.0,,,61.12,,ENE,29.52,28.48,,Overcast
KIGQ,09/01/2016 15:35 UTC,30.18,66.74,61.7,88.2,5.75,50.0,,13.0,754.0,,,262.0,553.0,,,10.0,,KIGQ 011535Z AUTO 05005KT 10SM -RA SCT026 BKN055 OVC075 19/17  A3018 RMK AO2 T01930165,,,5500.0,,,63.11,,NE,29.52,28.39,,Light Rain
KIGQ,09/01/2016 15:55 UTC,30.18,69.62,61.34,73.15,10.36,50.0,,,754.0,,,262.0,552.0,,,10.0,,KIGQ 011555Z AUTO 05009KT 040V100 10SM SCT026 SCT055 OVC075 21/16  A3018 RMK AO2 T02090163,,,7500.0,,,60.6,,NE,29.52,28.5,,Overcast
KIGQ,09/01/2016 16:15 UTC,30.18,71.96,63.14,73.32,13.8,40.0,18.41,,754.0,,,282.0,552.0,,,10.0,,KIGQ 011615Z AUTO 04012G16KT 10SM SCT028 SCT055 OVC075 22/17  A3018 RMK AO2 T02220173,,,7500.0,,,62.92,,NE,29.52,28.34,,Overcast
KIGQ,09/01/2016 16:35 UTC,30.17,71.78,62.06,73.32,14.97,40.0,18.41,,,,,652.0,753.0,,,10.0,,KIGQ 011635Z AUTO 04013G16KT 10SM SCT065 BKN075 22/17 A3017 RMK AO2 T02210167,,,7500.0,,,62.75,,NE,29.51,28.34,,Mostly Cloudy
KIGQ,09/01/2016 16:55 UTC,30.17,72.32,61.16,68.81,13.8,70.0,19.57,,553.0,,,362.0,463.0,,,10.0,,KIGQ 011655Z AUTO 07012G17KT 10SM SCT036 BKN046 BKN055 22/16  A3017 RMK AO2 T02240162,,,4600.0,,,61.46,,ENE,29.51,28.41,,Mostly Cloudy
KIGQ,09/01/2016 17:15 UTC,30.18,69.98,59.54,68.61,13.8,30.0,,,604.0,,,342.0,443.0,,,10.0,,KIGQ 011715Z AUTO 03012KT 10SM SCT034 BKN044 OVC060 21/15  A3018 RMK AO2 T02110153,,,4400.0,,,59.13,,NNE,29.52,28.57,,Overcast
KIGQ,09/01/2016 17:35 UTC,30.19,67.82,59.54,72.97,9.22,360.0,19.57,14.0,604.0,,,363.0,473.0,,,7.0,,KIGQ 011735Z AUTO 36008G17KT 7SM +RA BKN036 BKN047 OVC060 20/15  A3019 RMK AO2 T01990153,,,3600.0,,,58.79,,N,29.53,28.62,,Heavy Rain
KIGQ,09/01/2016 17:55 UTC,30.18,68.36,61.88,82.89,6.91,20.0,,,704.0,,,352.0,423.0,,,10.0,,KIGQ 011755Z AUTO 02006KT 10SM SCT035 BKN042 OVC070 20/17  A3018 RMK AO2 T02020166 10225 20177,72.5,63.86,4200.0,,,62.93,,NNE,29.52,28.38,,Overcast
KIGQ,09/01/2016 18:15 UTC,30.18,68.36,60.8,77.79,10.36,20.0,,,654.0,,,332.0,423.0,,,10.0,,KIGQ 011815Z AUTO 02009KT 10SM SCT033 BKN042 OVC065 20/16  A3018 RMK AO2 T02020160,,,4200.0,,,61.12,,NNE,29.52,28.48,,Overcast
KIGQ,09/01/2016 18:35 UTC,30.19,66.38,61.7,88.2,10.36,10.0,17.27,13.0,494.0,,,262.0,443.0,,,10.0,,KIGQ 011835Z AUTO 01009G15KT 10SM -RA SCT026 BKN044 OVC049 19/17  A3019 RMK AO2 T01910165,,,4400.0,,,62.76,,N,29.53,28.43,,Light Rain
KIGQ,09/01/2016 18:55 UTC,30.19,67.82,61.88,82.89,6.91,360.0,,,504.0,,,342.0,462.0,,,10.0,,KIGQ 011855Z AUTO 36006KT 330V030 10SM SCT034 SCT046 OVC050 20/17  A3019 RMK AO2 T01990166,,,5000.0,,,62.4,,N,29.53,28.43,,Overcast
KIGQ,09/01/2016 19:15 UTC,30.19,67.1,60.98,77.79,11.5,10.0,,,,,,503.0,654.0,,,10.0,,KIGQ 011915Z AUTO 01010KT 10SM BKN050 OVC065 20/16 A3019 RMK AO2  T01950161,,,5000.0,,,59.89,,N,29.53,28.58,,Overcast
KIGQ,09/01/2016 19:35 UTC,30.19,68.9,61.88,77.94,10.36,10.0,17.27,,754.0,,,342.0,653.0,,,10.0,,KIGQ 011935Z AUTO 01009G15KT 10SM SCT034 BKN065 OVC075 21/17  A3019 RMK AO2 T02050166,,,6500.0,,,61.7,,N,29.53,28.46,,Overcast
KIGQ,09/01/2016 19:55 UTC,30.18,67.64,61.88,82.89,9.22,350.0,16.11,,754.0,,,342.0,553.0,,,10.0,,KIGQ 011955Z AUTO 35008G14KT 10SM SCT034 BKN055 OVC075 20/17  A3018 RMK AO2 T01980166,,,5500.0,,,62.22,,N,29.52,28.43,,Overcast
KIGQ,09/01/2016 20:15 UTC,30.17,70.52,63.86,83.01,9.22,350.0,,,753.0,,,392.0,482.0,,,10.0,,KIGQ 012015Z AUTO 35008KT 310V010 10SM SCT039 SCT048 BKN075 21/18  A3017 RMK AO2 T02140177,,,7500.0,,,65.08,,N,29.51,28.21,,Mostly Cloudy
KIGQ,09/01/2016 20:35 UTC,30.17,72.14,60.08,68.81,13.8,20.0,19.57,,754.0,,,322.0,373.0,,,10.0,,KIGQ 012035Z AUTO 02012G17KT 010V070 10SM SCT032 BKN037 OVC075  22/16 A3017 RMK AO2 T02230156,,,3700.0,,,61.29,,NNE,29.51,28.42,,Overcast
KIGQ,09/01/2016 20:55 UTC,30.17,72.32,59.36,64.54,14.97,20.0,20.71,,503.0,,,373.0,453.0,,,10.0,,KIGQ 012055Z AUTO 02013G18KT 10SM BKN037 BKN045 BKN050 22/15  A3017 RMK AO2 T02240152,,,3700.0,,,59.65,,NNE,29.51,28.51,,Mostly Cloudy
KIGQ,09/01/2016 21:15 UTC,30.16,71.78,58.82,64.54,13.8,20.0,21.85,,602.0,,,372.0,452.0,,,10.0,,KIGQ 012115Z AUTO 02012G19KT 10SM SCT037 SCT045 SCT060 22/15  A3016 RMK AO2 T02210149,,,,,,59.13,,NNE,29.5,28.53,,Partly Cloudy
KIGQ,09/01/2016 21:35 UTC,30.17,70.7,59.9,68.81,10.36,360.0,18.41,,603.0,,,332.0,392.0,,,10.0,,KIGQ 012135Z AUTO 36009G16KT 10SM SCT033 SCT039 BKN060 22/16  A3017 RMK AO2 T02150155,,,6000.0,,,59.91,,N,29.51,28.51,,Mostly Cloudy
KIGQ,09/01/2016 21:55 UTC,30.17,71.06,59.54,64.54,8.05,20.0,23.02,,503.0,,,353.0,413.0,,,10.0,,KIGQ 012155Z AUTO 02007G20KT 10SM BKN035 BKN041 BKN050 22/15  A3017 RMK AO2 T02170153,,,3500.0,,,58.45,,NNE,29.51,28.59,,Mostly Cloudy
KIGQ,09/01/2016 22:15 UTC,30.17,71.6,60.08,68.81,10.36,20.0,20.71,,703.0,,,353.0,413.0,,,10.0,,KIGQ 012215Z AUTO 02009G18KT 10SM BKN035 BKN041 BKN070 22/16  A3017 RMK AO2 T02200156,,,3500.0,,,60.77,,NNE,29.51,28.46,,Mostly Cloudy
KIGQ,09/01/2016 22:35 UTC,30.17,69.8,58.82,68.61,13.8,30.0,20.71,,702.0,,,372.0,603.0,,,10.0,,KIGQ 012235Z AUTO 03012G18KT 10SM SCT037 BKN060 SCT070 21/15  A3017 RMK AO2 T02100149,,,6000.0,,,58.96,,NNE,29.51,28.57,,Partly Cloudy
KIGQ,09/01/2016 22:55 UTC,30.17,69.26,59.36,68.61,12.66,20.0,21.85,,,,,552.0,652.0,,,10.0,,KIGQ 012255Z AUTO 02011G19KT 10SM SCT055 SCT065 21/15 A3017 RMK AO2 T02070152,,,,,,58.44,,NNE,29.51,28.61,,Partly Cloudy
KIGQ,09/01/2016 23:15 UTC,30.17,70.16,60.62,73.15,13.8,20.0,19.57,,553.0,,,332.0,412.0,,,10.0,,KIGQ 012315Z AUTO 02012G17KT 350V050 10SM SCT033 SCT041 BKN055  21/16 A3017 RMK AO2 T02120159,,,5500.0,,,61.12,,NNE,29.51,28.45,,Mostly Cloudy
KIGQ,09/01/2016 23:35 UTC,30.18,69.44,59.72,68.61,13.8,30.0,21.85,,554.0,,,332.0,413.0,,,10.0,,KIGQ 012335Z AUTO 03012G19KT 10SM SCT033 BKN041 OVC055 21/15  A3018 RMK AO2 T02080154,,,4100.0,,,58.62,,NNE,29.52,28.61,,Overcast
KIGQ,09/01/2016 23:55 UTC,30.18,69.08,59.36,68.61,12.66,30.0,18.41,,554.0,,,312.0,463.0,,,10.0,,KIGQ 012355Z AUTO 03011G16KT 10SM SCT031 BKN046 OVC055 21/15  A3018 RMK AO2 T02060152 10225 20191,72.5,66.38,4600.0,,,58.27,,NNE,29.52,28.63,,Overcast
KIGQ,09/02/2016 00:15 UTC,30.18,68.54,60.08,77.79,10.36,20.0,,,413.0,,,312.0,352.0,,,10.0,,KIGQ 020015Z AUTO 02009KT 10SM SCT031 SCT035 BKN041 20/16  A3018 RMK AO2 T02030156,,,4100.0,,,61.29,,NNE,29.52,28.47,,Mostly Cloudy
KIGQ,09/02/2016 00:35 UTC,30.19,68.0,60.08,77.79,9.22,10.0,,,,,,313.0,374.0,,,10.0,,KIGQ 020035Z AUTO 01008KT 10SM BKN031 OVC037 20/16 A3019 RMK AO2  T02000156,,,3100.0,,,60.77,,N,29.53,28.52,,Overcast
KIGQ,09/02/2016 00:55 UTC,30.19,68.0,60.44,77.79,6.91,10.0,,,,,,313.0,363.0,,,10.0,,KIGQ 020055Z AUTO 01006KT 10SM BKN031 BKN036 20/16 A3019 RMK AO2  T02000158,,,3100.0,,,60.77,,N,29.53,28.52,,Mostly Cloudy
KIGQ,09/02/2016 01:15 UTC,30.19,68.0,60.62,77.79,8.05,20.0,,,493.0,,,333.0,413.0,,,10.0,,KIGQ 020115Z AUTO 02007KT 10SM BKN033 BKN041 BKN049 20/16  A3019 RMK AO2 T02000159,,,3300.0,,,60.77,,NNE,29.53,28.52,,Mostly Cloudy
KIGQ,09/02/2016 01:35 UTC,30.19,68.36,60.98,77.79,11.5,10.0,,,473.0,,,342.0,413.0,,,10.0,,KIGQ 020135Z AUTO 01010KT 10SM SCT034 BKN041 BKN047 20/16  A3019 RMK AO2 T02020161,,,4100.0,,,61.12,,N,29.53,28.49,,Mostly Cloudy
KIGQ,09/02/2016 01:55 UTC,30.19,68.18,61.16,77.79,8.05,20.0,17.27,,413.0,,,302.0,353.0,,,10.0,,KIGQ 020155Z AUTO 02007G15KT 10SM SCT030 BKN035 BKN041 20/16  A3019 RMK AO2 T02010162,,,3500.0,,,60.94,,NNE,29.53,28.51,,Mostly Cloudy
KIGQ,09/02/2016 02:15 UTC,30.2,68.36,61.52,77.79,6.91,40.0,,,,,,323.0,603.0,,,10.0,,KIGQ 020215Z AUTO 04006KT 10SM BKN032 BKN060 20/16 A3020 RMK AO2  T02020164,,,3200.0,,,61.12,,NE,29.54,28.5,,Mostly Cloudy
KIGQ,09/02/2016 02:35 UTC,30.2,68.0,61.34,77.79,6.91,20.0,,,603.0,,,282.0,362.0,,,10.0,,KIGQ 020235Z AUTO 02006KT 10SM SCT028 SCT036 BKN060 20/16  A3020 RMK AO2 T02000163,,,6000.0,,,60.77,,NNE,29.54,28.53,,Mostly Cloudy
KIGQ,09/02/2016 02:55 UTC,30.2,68.54,61.88,82.89,6.91,20.0,,,603.0,,,292.0,423.0,,,10.0,,KIGQ 020255Z AUTO 02006KT 10SM SCT029 BKN042 BKN060 20/17  A3020 RMK AO2 T02030166,,,4200.0,,,63.1,,NNE,29.54,28.39,,Mostly Cloudy
KIGQ,09/02/2016 03:15 UTC,30.2,68.18,61.7,82.89,9.22,20.0,,,703.0,,,312.0,403.0,,,10.0,,KIGQ 020315Z AUTO 02008KT 10SM SCT031 BKN040 BKN070 20/17  A3020 RMK AO2 T02010165,,,4000.0,,,62.75,,NNE,29.54,28.41,,Mostly Cloudy
KIGQ,09/02/2016 03:35 UTC,30.2,68.36,60.98,77.79,9.22,30.0,,,483.0,,,312.0,423.0,,,10.0,,KIGQ 020335Z AUTO 03008KT 10SM SCT031 BKN042 BKN048 20/16  A3020 RMK AO2 T02020161,,,4200.0,,,61.12,,NNE,29.54,28.5,,Mostly Cloudy
KIGQ,09/02/2016 03:55 UTC,30.2,68.36,61.34,77.79,8.05,30.0,,,452.0,,,302.0,352.0,,,10.0,,KIGQ 020355Z AUTO 03007KT 10SM SCT030 SCT035 SCT045 20/16  A3020 RMK AO2 T02020163,,,,,,61.12,,NNE,29.54,28.5,,Partly Cloudy
KIGQ,09/02/2016 04:15 UTC,30.2,68.54,61.7,82.89,8.05,30.0,,,483.0,,,302.0,373.0,,,10.0,,KIGQ 020415Z AUTO 03007KT 10SM SCT030 BKN037 BKN048 20/17  A3020 RMK AO2 T02030165,,,3700.0,,,63.1,,NNE,29.54,28.39,,Mostly Cloudy
KIGQ,09/02/2016 04:35 UTC,30.2,68.36,61.88,82.89,8.05,40.0,,,502.0,,,282.0,342.0,,,10.0,,KIGQ 020435Z AUTO 04007KT 10SM SCT028 SCT034 SCT050 20/17  A3020 RMK AO2 T02020166,,,,,,62.93,,NE,29.54,28.4,,Partly Cloudy
KIGQ,09/02/2016 04:55 UTC,30.2,68.0,62.24,82.89,6.91,40.0,,,702.0,,,282.0,362.0,,,10.0,,KIGQ 020455Z AUTO 04006KT 10SM SCT028 SCT036 SCT070 20/17  A3020 RMK AO2 T02000168,,,,,,62.57,,NE,29.54,28.43,,Partly Cloudy
KIGQ,09/02/2016 05:15 UTC,30.2,68.0,61.88,82.89,4.61,40.0,,,703.0,,,302.0,392.0,,,10.0,,KIGQ 020515Z AUTO 04004KT 10SM SCT030 SCT039 BKN070 20/17  A3020 RMK AO2 T02000166,,,7000.0,,,62.57,,NE,29.54,28.43,,Mostly Cloudy
KIGQ,09/02/2016 05:35 UTC,30.2,68.0,62.06,82.89,3.44,80.0,,,704.0,,,422.0,603.0,,,10.0,,KIGQ 020535Z AUTO 08003KT 10SM SCT042 BKN060 OVC070 20/17  A3020 RMK AO2 T02000167,,,6000.0,,,62.57,,E,29.54,28.43,,Overcast
KIGQ,09/02/2016 05:55 UTC,30.2,66.74,62.78,88.2,6.91,100.0,,,704.0,,,422.0,602.0,,,10.0,,KIGQ 020555Z AUTO 10006KT 10SM SCT042 SCT060 OVC070 19/17  A3020 RMK AO2 T01930171 10205 20193 402250160,68.9,66.74,7000.0,72.5,60.8,63.11,,E,29.54,28.41,,Overcast
KIGQ,09/02/2016 06:15 UTC,30.2,65.3,62.42,88.2,8.05,100.0,,,,,,703.0,,,,10.0,,KIGQ 020615Z AUTO 10007KT 10SM BKN070 19/17 A3020 RMK AO2  T01850169,,,7000.0,,,61.69,,E,29.54,28.51,,Mostly Cloudy
KIGQ,09/02/2016 06:35 UTC,30.2,64.4,60.44,88.11,5.75,90.0,,,,,,702.0,,,,10.0,,KIGQ 020635Z AUTO 09005KT 10SM SCT070 18/16 A3020 RMK AO2  T01800158,,,,,,60.78,,E,29.54,28.57,,Partly Cloudy
KIGQ,09/02/2016 06:55 UTC,30.2,64.4,59.36,82.65,5.75,80.0,,,,,,1.0,,,,10.0,,KIGQ 020655Z AUTO 08005KT 10SM CLR 18/15 A3020 RMK AO2  T01800152,,,,,,58.97,,E,29.54,28.66,,Clear
KIGQ,09/02/2016 07:15 UTC,30.2,63.32,58.82,88.02,4.61,80.0,,,,,,1.0,,,,10.0,,KIGQ 020715Z AUTO 08004KT 10SM CLR 17/15 A3020 RMK AO2  T01740149,,,,,,59.68,,E,29.54,28.64,,Clear
KIGQ,09/02/2016 07:35 UTC,30.21,62.96,58.46,88.02,4.61,80.0,,,,,,1.0,,,,10.0,,KIGQ 020735Z AUTO 08004KT 10SM CLR 17/15 A3021 RMK AO2  T01720147,,,,,,59.33,,E,29.55,28.67,,Clear
KIGQ,09/02/2016 07:55 UTC,30.21,62.24,58.28,88.02,4.61,80.0,,,,,,1.0,,,,10.0,,KIGQ 020755Z AUTO 08004KT 10SM CLR 17/15 A3021 RMK AO2  T01680146,,,,,,58.62,,E,29.55,28.72,,Clear
KIGQ,09/02/2016 08:15 UTC,30.22,61.88,58.1,88.02,4.61,70.0,,,,,,1.0,,,,10.0,,KIGQ 020815Z AUTO 07004KT 10SM CLR 17/15 A3022 RMK AO2  T01660145,,,,,,58.26,,ENE,29.56,28.75,,Clear
KIGQ,09/02/2016 08:35 UTC,30.23,61.34,57.92,87.94,3.44,80.0,,,,,,1.0,,,,10.0,,KIGQ 020835Z AUTO 08003KT 10SM CLR 16/14 A3023 RMK AO2  T01630144,,,,,,57.71,,E,29.57,28.79,,Clear
KIGQ,09/02/2016 08:55 UTC,30.23,60.8,57.92,87.94,0.0,0.0,,,,,,1.0,,,,10.0,,KIGQ 020855Z AUTO 00000KT 10SM CLR 16/14 A3023 RMK AO2  T01600144,,,,,,57.17,,N,29.57,28.82,,Clear
KIGQ,09/02/2016 09:15 UTC,30.24,59.9,57.38,87.94,3.44,50.0,,,,,,1.0,,,,10.0,,KIGQ 020915Z AUTO 05003KT 10SM CLR 16/14 A3024 RMK AO2  T01550141,,,,,,56.29,,NE,29.58,28.89,,Clear
KIGQ,09/02/2016 09:35 UTC,30.24,59.72,57.38,93.75,4.61,80.0,,,,,,1.0,,,,10.0,,KIGQ 020935Z AUTO 08004KT 10SM CLR 15/14 A3024 RMK AO2  T01540141,,,,,,57.9,,E,29.58,28.81,,Clear
KIGQ,09/02/2016 09:55 UTC,30.25,59.0,57.2,93.75,3.44,70.0,,,,,,1.0,,,,10.0,,KIGQ 020955Z AUTO 07003KT 10SM CLR 15/14 A3025 RMK AO2  T01500140,,,,,,57.18,,ENE,29.59,28.87,,Clear
KIGQ,09/02/2016 10:15 UTC,30.25,59.36,57.2,93.75,4.61,60.0,,,,,,1.0,,,,10.0,,KIGQ 021015Z AUTO 06004KT 10SM CLR 15/14 A3025 RMK AO2  T01520140,,,,,,57.54,,ENE,29.59,28.85,,Clear
KIGQ,09/02/2016 10:35 UTC,30.25,59.36,57.2,93.75,4.61,60.0,,,,,,1.0,,,,10.0,,KIGQ 021035Z AUTO 06004KT 10SM CLR 15/14 A3025 RMK AO2  T01520140,,,,,,57.54,,ENE,29.59,28.85,,Clear
KIGQ,09/02/2016 10:55 UTC,30.25,59.0,57.02,93.75,3.44,60.0,,,,,,1.0,,,,10.0,,KIGQ 021055Z AUTO 06003KT 10SM CLR 15/14 A3025 RMK AO2  T01500139,,,,,,57.18,,ENE,29.59,28.87,,Clear
KIGQ,09/02/2016 11:15 UTC,30.26,58.82,56.48,93.75,4.61,70.0,,,,,,1.0,,,,10.0,,KIGQ 021115Z AUTO 07004KT 10SM CLR 15/14 A3026 RMK AO2  T01490136,,,,,,57.01,,ENE,29.6,28.89,,Clear
KIGQ,09/02/2016 11:35 UTC,30.26,59.0,56.66,93.75,3.44,80.0,,,,,,1.0,,,,10.0,,KIGQ 021135Z AUTO 08003KT 10SM CLR 15/14 A3026 RMK AO2  T01500137,,,,,,57.18,,E,29.6,28.88,,Clear
KIGQ,09/02/2016 11:55 UTC,30.26,59.54,56.66,93.75,4.61,70.0,,,,,,1.0,,,,10.0,,KIGQ 021155Z AUTO 07004KT 10SM CLR 15/14 A3026 RMK AO2 T01530137  10192 20148,66.56,58.64,,,,57.72,,ENE,29.6,28.85,,Clear
KIGQ,09/02/2016 12:15 UTC,30.27,60.62,57.2,87.94,5.75,80.0,,,,,,1.0,,,,10.0,,KIGQ 021215Z AUTO 08005KT 10SM CLR 16/14 A3027 RMK AO2  T01590140,,,,,,57.0,,E,29.61,28.88,,Clear
KIGQ,09/02/2016 12:35 UTC,30.27,61.52,57.38,87.94,5.75,90.0,,,,,,1.0,,,,10.0,,KIGQ 021235Z AUTO 09005KT 10SM CLR 16/14 A3027 RMK AO2  T01640141,,,,,,57.88,,E,29.61,28.82,,Clear
KIGQ,09/02/2016 12:55 UTC,30.27,62.6,57.56,82.52,6.91,90.0,,,,,,1.0,,,,10.0,,KIGQ 021255Z AUTO 09006KT 10SM CLR 17/14 A3027 RMK AO2  T01700142,,,,,,57.16,,E,29.61,28.85,,Clear
KIGQ,09/02/2016 13:15 UTC,30.28,63.68,57.38,77.48,6.91,80.0,,,,,,1.0,,,,10.0,,KIGQ 021315Z AUTO 08006KT 10SM CLR 18/14 A3028 RMK AO2  T01760141,,,,,,56.46,,E,29.62,28.88,,Clear
KIGQ,09/02/2016 13:35 UTC,30.28,64.58,57.38,77.48,6.91,70.0,,,,,,1.0,,,,10.0,,KIGQ 021335Z AUTO 07006KT 10SM CLR 18/14 A3028 RMK AO2  T01810141,,,,,,57.33,,ENE,29.62,28.82,,Clear
KIGQ,09/02/2016 13:55 UTC,30.28,65.66,57.38,72.78,9.22,90.0,,,,,,1.0,,,,10.0,,KIGQ 021355Z AUTO 09008KT 10SM CLR 19/14 A3028 RMK AO2  T01870141,,,,,,56.63,,E,29.62,28.85,,Clear
KIGQ,09/02/2016 14:15 UTC,30.28,66.74,57.74,72.78,9.22,80.0,,,,,,1.0,,,,10.0,,KIGQ 021415Z AUTO 08008KT 10SM CLR 19/14 A3028 RMK AO2  T01930143,,,,,,57.67,,E,29.62,28.78,,Clear
KIGQ,09/02/2016 14:35 UTC,30.29,68.0,58.46,72.97,6.91,100.0,,,,,,1.0,,,,10.0,,KIGQ 021435Z AUTO 10006KT 10SM CLR 20/15 A3029 RMK AO2  T02000147,,,,,,58.96,,E,29.63,28.72,,Clear
KIGQ,09/02/2016 14:55 UTC,30.29,69.08,59.0,68.61,9.22,90.0,,,,,,1.0,,,,10.0,,KIGQ 021455Z AUTO 09008KT 050V110 10SM CLR 21/15 A3029 RMK AO2  T02060150,,,,,,58.27,,E,29.63,28.74,,Clear
KIGQ,09/02/2016 15:15 UTC,30.28,69.44,58.82,68.61,11.5,90.0,,,,,,322.0,,,,10.0,,KIGQ 021515Z AUTO 09010KT 10SM SCT032 21/15 A3028 RMK AO2  T02080149,,,,,,58.62,,E,29.62,28.71,,Partly Cloudy
KIGQ,09/02/2016 15:35 UTC,30.28,69.98,58.28,66.46,9.22,60.0,,,,,,322.0,,,,10.0,,KIGQ 021535Z AUTO 06008KT 10SM SCT032 21/15 A3028 RMK AO2  T02110146,,,,,,58.24,,ENE,29.62,28.72,,Partly Cloudy
KIGQ,09/02/2016 15:55 UTC,30.28,70.34,59.18,68.61,10.36,80.0,,,,,,1.0,,,,10.0,,KIGQ 021555Z AUTO 08009KT 10SM CLR 21/15 A3028 RMK AO2  T02130151,,,,,,59.48,,E,29.62,28.65,,Clear
KIGQ,09/02/2016 16:15 UTC,30.28,70.7,57.74,60.51,10.36,70.0,17.27,,,,,402.0,,,,10.0,,KIGQ 021615Z AUTO 07009G15KT 030V110 10SM SCT040 22/14 A3028 RMK AO2 T02150143,,,,,,56.31,,ENE,29.62,28.81,,Partly Cloudy
KIGQ,09/02/2016 16:35 UTC,30.27,71.24,58.64,64.54,10.36,40.0,16.11,,,,,362.0,,,,10.0,,KIGQ 021635Z AUTO 04009G14KT 10SM SCT036 22/15 A3027 RMK AO2  T02180148,,,,,,58.62,,NE,29.61,28.68,,Partly Cloudy
KIGQ,09/02/2016 16:55 UTC,30.27,71.42,58.64,64.54,9.22,90.0,,,,,,362.0,,,,10.0,,KIGQ 021655Z AUTO 09008KT 10SM SCT036 22/15 A3027 RMK AO2  T02190148,,,,,,58.79,,E,29.61,28.67,,Partly Cloudy
KIGQ,09/02/2016 17:15 UTC,30.26,71.24,58.82,64.54,8.05,40.0,16.11,,,,,1.0,,,,10.0,,KIGQ 021715Z AUTO 04007G14KT 10SM CLR 22/15 A3026 RMK AO2  T02180149,,,,,,58.62,,NE,29.6,28.67,,Clear
KIGQ,09/02/2016 17:35 UTC,30.26,71.96,59.54,64.54,12.66,30.0,18.41,,,,,372.0,,,,10.0,,KIGQ 021735Z AUTO 03011G16KT 10SM SCT037 22/15 A3026 RMK AO2  T02220153,,,,,,59.31,,NNE,29.6,28.62,,Partly Cloudy
KIGQ,09/02/2016 17:55 UTC,30.25,72.32,59.54,64.54,12.66,20.0,,,,,,372.0,,,,10.0,,KIGQ 021755Z AUTO 02011KT 10SM SCT037 22/15 A3025 RMK AO2  T02240153 10225 20153,72.5,59.54,,,,59.65,,NNE,29.59,28.59,,Partly Cloudy
KIGQ,09/02/2016 18:15 UTC,30.25,72.68,59.72,60.75,12.66,40.0,17.27,,,,,1.0,,,,10.0,,KIGQ 021815Z AUTO 04011G15KT 10SM CLR 23/15 A3025 RMK AO2  T02260154,,,,,,58.29,,NE,29.59,28.66,,Clear
KIGQ,09/02/2016 18:35 UTC,30.24,72.14,59.0,64.54,11.5,30.0,,,,,,1.0,,,,10.0,,KIGQ 021835Z AUTO 03010KT 10SM CLR 22/15 A3024 RMK AO2  T02230150,,,,,,59.48,,NNE,29.58,28.59,,Clear
KIGQ,09/02/2016 18:55 UTC,30.25,72.5,59.36,60.75,12.66,20.0,17.27,,,,,1.0,,,,10.0,,KIGQ 021855Z AUTO 02011G15KT 10SM CLR 23/15 A3025 RMK AO2  T02250152,,,,,,58.12,,NNE,29.59,28.67,,Clear
KIGQ,09/02/2016 19:15 UTC,30.25,72.5,60.08,64.76,11.5,30.0,19.57,,,,,1.0,,,,10.0,,KIGQ 021915Z AUTO 03010G17KT 10SM CLR 23/16 A3025 RMK AO2  T02250156,,,,,,59.92,,NNE,29.59,28.57,,Clear
KIGQ,09/02/2016 19:35 UTC,30.24,72.86,60.08,64.76,12.66,30.0,17.27,,,,,1.0,,,,10.0,,KIGQ 021935Z AUTO 03011G15KT 10SM CLR 23/16 A3024 RMK AO2  T02270156,,,,,,60.26,,NNE,29.58,28.54,,Clear
KIGQ,09/02/2016 19:55 UTC,30.24,73.04,60.08,64.76,11.5,50.0,18.41,,,,,1.0,,,,10.0,,KIGQ 021955Z AUTO 05010G16KT 10SM CLR 23/16 A3024 RMK AO2  T02280156,,,,,,60.43,,NE,29.58,28.53,,Clear
KIGQ,09/02/2016 20:15 UTC,30.23,72.5,59.72,60.75,11.5,60.0,16.11,,,,,1.0,,,,10.0,,KIGQ 022015Z AUTO 06010G14KT 10SM CLR 23/15 A3023 RMK AO2  T02250154,,,,,,58.12,,ENE,29.57,28.65,,Clear
KIGQ,09/02/2016 20:35 UTC,30.22,72.5,59.9,64.76,11.5,60.0,17.27,,,,,1.0,,,,10.0,,KIGQ 022035Z AUTO 06010G15KT 10SM CLR 23/16 A3022 RMK AO2  T02250155,,,,,,59.92,,ENE,29.56,28.54,,Clear
KIGQ,09/02/2016 20:55 UTC,30.21,72.5,59.72,60.75,11.5,20.0,,,,,,1.0,,,,10.0,,KIGQ 022055Z AUTO 02010KT 10SM CLR 23/15 A3021 RMK AO2  T02250154,,,,,,58.12,,NNE,29.55,28.63,,Clear
KIGQ,09/02/2016 21:15 UTC,30.21,72.5,60.08,64.76,9.22,50.0,,,,,,1.0,,,,10.0,,KIGQ 022115Z AUTO 05008KT 10SM CLR 23/16 A3021 RMK AO2  T02250156,,,,,,59.92,,NE,29.55,28.53,,Clear
KIGQ,09/02/2016 21:35 UTC,30.21,71.96,59.9,68.81,12.66,30.0,16.11,,,,,1.0,,,,10.0,,KIGQ 022135Z AUTO 03011G14KT 10SM CLR 22/16 A3021 RMK AO2  T02220155,,,,,,61.11,,NNE,29.55,28.47,,Clear
KIGQ,09/02/2016 21:55 UTC,30.21,71.78,60.26,68.81,11.5,30.0,16.11,,,,,1.0,,,,10.0,,KIGQ 022155Z AUTO 03010G14KT 10SM CLR 22/16 A3021 RMK AO2  T02210157,,,,,,60.94,,NNE,29.55,28.48,,Clear
KIGQ,09/02/2016 22:15 UTC,30.21,71.6,59.9,68.81,12.66,60.0,18.41,,,,,1.0,,,,10.0,,KIGQ 022215Z AUTO 06011G16KT 10SM CLR 22/16 A3021 RMK AO2  T02200155,,,,,,60.77,,ENE,29.55,28.5,,Clear
KIGQ,09/02/2016 22:35 UTC,30.2,70.88,60.62,68.81,13.8,40.0,,,,,,1.0,,,,10.0,,KIGQ 022235Z AUTO 04012KT 10SM CLR 22/16 A3020 RMK AO2  T02160159,,,,,,60.08,,NE,29.54,28.53,,Clear
KIGQ,09/02/2016 22:55 UTC,30.2,70.34,60.98,73.15,11.5,30.0,16.11,,,,,1.0,,,,10.0,,KIGQ 022255Z AUTO 03010G14KT 10SM CLR 21/16 A3020 RMK AO2  T02130161,,,,,,61.29,,NNE,29.54,28.47,,Clear
KIGQ,09/02/2016 23:15 UTC,30.2,69.98,60.98,73.15,8.05,30.0,17.27,,,,,1.0,,,,10.0,,KIGQ 022315Z AUTO 03007G15KT 10SM CLR 21/16 A3020 RMK AO2  T02110161,,,,,,60.94,,NNE,29.54,28.49,,Clear
KIGQ,09/02/2016 23:35 UTC,30.2,69.44,61.34,73.15,9.22,40.0,,,,,,1.0,,,,10.0,,KIGQ 022335Z AUTO 04008KT 10SM CLR 21/16 A3020 RMK AO2  T02080163,,,,,,60.42,,NE,29.54,28.53,,Clear
KIGQ,09/02/2016 23:55 UTC,30.2,69.08,60.98,73.15,11.5,40.0,16.11,,,,,1.0,,,,10.0,,KIGQ 022355Z AUTO 04010G14KT 10SM CLR 21/16 A3020 RMK AO2  T02060161 10229 20206,73.22,69.08,,,,60.07,,NE,29.54,28.55,,Clear
KIGQ,09/03/2016 00:15 UTC,30.2,68.54,61.34,77.79,9.22,40.0,,,,,,1.0,,,,10.0,,KIGQ 030015Z AUTO 04008KT 10SM CLR 20/16 A3020 RMK AO2  T02030163,,,,,,61.29,,NE,29.54,28.49,,Clear
KIGQ,09/03/2016 00:35 UTC,30.2,68.36,61.7,82.89,6.91,40.0,,,,,,1.0,,,,10.0,,KIGQ 030035Z AUTO 04006KT 10SM CLR 20/17 A3020 RMK AO2  T02020165,,,,,,62.93,,NE,29.54,28.4,,Clear
KIGQ,09/03/2016 00:55 UTC,30.2,68.0,61.7,82.89,6.91,50.0,,,,,,1.0,,,,10.0,,KIGQ 030055Z AUTO 05006KT 10SM CLR 20/17 A3020 RMK AO2  T02000165,,,,,,62.57,,NE,29.54,28.43,,Clear
KIGQ,09/03/2016 01:15 UTC,30.2,67.64,61.7,82.89,6.91,40.0,,,,,,1.0,,,,10.0,,KIGQ 030115Z AUTO 04006KT 10SM CLR 20/17 A3020 RMK AO2  T01980165,,,,,,62.22,,NE,29.54,28.45,,Clear
KIGQ,09/03/2016 01:35 UTC,30.2,67.82,61.7,82.89,6.91,40.0,,,,,,1.0,,,,10.0,,KIGQ 030135Z AUTO 04006KT 10SM CLR 20/17 A3020 RMK AO2  T01990165,,,,,,62.4,,NE,29.54,28.44,,Clear
KIGQ,09/03/2016 01:55 UTC,30.21,67.28,61.88,82.89,4.61,50.0,,,,,,1.0,,,,10.0,,KIGQ 030155Z AUTO 05004KT 10SM CLR 20/17 A3021 RMK AO2  T01960166,,,,,,61.87,,NE,29.55,28.49,,Clear
KIGQ,09/03/2016 02:15 UTC,30.21,67.28,62.06,82.89,5.75,50.0,,,,,,1.0,,,,10.0,,KIGQ 030215Z AUTO 05005KT 10SM CLR 20/17 A3021 RMK AO2  T01960167,,,,,,61.87,,NE,29.55,28.49,,Clear
KIGQ,09/03/2016 02:35 UTC,30.21,67.46,62.6,82.89,6.91,50.0,,,,,,1.0,,,,10.0,,KIGQ 030235Z AUTO 05006KT 10SM CLR 20/17 A3021 RMK AO2  T01970170,,,,,,62.05,,NE,29.55,28.47,,Clear
KIGQ,09/03/2016 02:55 UTC,30.21,67.1,62.24,82.89,5.75,60.0,,,,,,1.0,,,,10.0,,KIGQ 030255Z AUTO 06005KT 10SM CLR 20/17 A3021 RMK AO2  T01950168,,,,,,61.69,,ENE,29.55,28.5,,Clear
KIGQ,09/03/2016 03:15 UTC,30.21,66.2,62.06,88.2,5.75,70.0,,,,,,1.0,,,,10.0,,KIGQ 030315Z AUTO 07005KT 10SM CLR 19/17 A3021 RMK AO2  T01900167,,,,,,62.58,,ENE,29.55,28.46,,Clear
KIGQ,09/03/2016 03:35 UTC,30.21,66.2,61.88,88.2,6.91,60.0,,,,,,1.0,,,,10.0,,KIGQ 030335Z AUTO 06006KT 10SM CLR 19/17 A3021 RMK AO2  T01900166,,,,,,62.58,,ENE,29.55,28.46,,Clear
KIGQ,09/03/2016 03:55 UTC,30.21,65.84,61.7,88.2,4.61,60.0,,,,,,1.0,,,,10.0,,KIGQ 030355Z AUTO 06004KT 10SM CLR 19/17 A3021 RMK AO2  T01880165,,,,,,62.23,,ENE,29.55,28.48,,Clear
KIGQ,09/03/2016 04:15 UTC,30.21,65.3,61.7,88.2,4.61,70.0,,,,,,1.0,,,,10.0,,KIGQ 030415Z AUTO 07004KT 10SM CLR 19/17 A3021 RMK AO2  T01850165,,,,,,61.69,,ENE,29.55,28.52,,Clear
KIGQ,09/03/2016 04:35 UTC,30.21,64.94,61.7,93.89,4.61,70.0,,,,,,1.0,,,,10.0,,KIGQ 030435Z AUTO 07004KT 10SM CLR 18/17 A3021 RMK AO2  T01830165,,,,,,63.12,,ENE,29.55,28.45,,Clear
KIGQ,09/03/2016 04:55 UTC,30.22,64.58,60.8,88.11,4.61,80.0,,,,,,1.0,,,,10.0,,KIGQ 030455Z AUTO 08004KT 10SM CLR 18/16 A3022 RMK AO2  T01810160,,,,,,60.95,,E,29.56,28.58,,Clear
KIGQ,09/03/2016 05:15 UTC,30.22,63.32,60.62,93.84,0.0,0.0,,,,,,1.0,,,,10.0,,KIGQ 030515Z AUTO 00000KT 10SM CLR 17/16 A3022 RMK AO2  T01740159,,,,,,61.5,,N,29.56,28.57,,Clear
KIGQ,09/03/2016 05:35 UTC,30.22,62.78,59.36,88.02,4.61,80.0,,,,,,1.0,,,,10.0,,KIGQ 030535Z AUTO 08004KT 10SM CLR 17/15 A3022 RMK AO2  T01710152,,,,,,59.15,,E,29.56,28.7,,Clear
KIGQ,09/03/2016 05:55 UTC,30.22,62.78,59.0,88.02,4.61,80.0,,,,,,1.0,,,,10.0,,KIGQ 030555Z AUTO 08004KT 10SM CLR 17/15 A3022 RMK AO2 T01710150  10206 20171 402290148,69.08,62.78,,73.22,58.64,59.15,,E,29.56,28.7,,Clear
KIGQ,09/03/2016 06:15 UTC,30.22,62.6,58.28,88.02,4.61,80.0,,,,,,1.0,,,,10.0,,KIGQ 030615Z AUTO 08004KT 10SM CLR 17/15 A3022 RMK AO2  T01700146,,,,,,58.97,,E,29.56,28.71,,Clear
KIGQ,09/03/2016 06:35 UTC,30.21,61.52,57.74,87.94,4.61,90.0,,,,,,1.0,,,,10.0,,KIGQ 030635Z AUTO 09004KT 10SM CLR 16/14 A3021 RMK AO2  T01640143,,,,,,57.88,,E,29.55,28.76,,Clear
KIGQ,09/03/2016 06:55 UTC,30.21,60.44,57.56,87.94,5.75,90.0,,,,,,1.0,,,,10.0,,KIGQ 030655Z AUTO 09005KT 10SM CLR 16/14 A3021 RMK AO2  T01580142,,,,,,56.82,,E,29.55,28.83,,Clear
KIGQ,09/03/2016 07:15 UTC,30.21,60.44,57.56,87.94,5.75,100.0,,,,,,1.0,,,,10.0,,KIGQ 030715Z AUTO 10005KT 10SM CLR 16/14 A3021 RMK AO2  T01580142,,,,,,56.82,,E,29.55,28.83,,Clear
KIGQ,09/03/2016 07:35 UTC,30.21,59.54,57.2,93.75,5.75,110.0,,,,,,1.0,,,,10.0,,KIGQ 030735Z AUTO 11005KT 10SM CLR 15/14 A3021 RMK AO2  T01530140,,,,,,57.72,,ESE,29.55,28.79,,Clear
KIGQ,09/03/2016 07:55 UTC,30.21,59.36,57.2,93.75,4.61,120.0,,,,,,1.0,,,,10.0,,KIGQ 030755Z AUTO 12004KT 10SM CLR 15/14 A3021 RMK AO2  T01520140,,,,,,57.54,,ESE,29.55,28.8,,Clear
KIGQ,09/03/2016 08:15 UTC,30.21,58.46,56.66,93.75,3.44,120.0,,,,,,1.0,,,,10.0,,KIGQ 030815Z AUTO 12003KT 10SM CLR 15/14 A3021 RMK AO2  T01470137,,,,,,56.65,,ESE,29.55,28.86,,Clear
KIGQ,09/03/2016 08:35 UTC,30.21,58.1,56.48,93.75,3.44,110.0,,,,,,1.0,,,,10.0,,KIGQ 030835Z AUTO 11003KT 10SM CLR 15/14 A3021 RMK AO2  T01450136,,,,,,56.29,,ESE,29.55,28.88,,Clear
KIGQ,09/03/2016 08:55 UTC,30.22,57.92,56.66,100.0,0.0,0.0,,,,,,1.0,,,,10.0,,KIGQ 030855Z AUTO 00000KT 10SM CLR 14/14 A3022 RMK AO2  T01440137,,,,,,57.92,,N,29.56,28.82,,Clear
KIGQ,09/03/2016 09:15 UTC,30.22,57.2,56.3,100.0,0.0,0.0,,,,,,1.0,,,,10.0,,KIGQ 030915Z AUTO 00000KT 10SM CLR 14/14 A3022 RMK AO2  T01400135,,,,,,57.2,,N,29.56,28.86,,Clear
KIGQ,09/03/2016 09:35 UTC,30.22,57.74,56.48,100.0,0.0,0.0,,,,,,1.0,,,,10.0,,KIGQ 030935Z AUTO 00000KT 10SM CLR 14/14 A3022 RMK AO2  T01430136,,,,,,57.74,,N,29.56,28.83,,Clear
KIGQ,09/03/2016 09:55 UTC,30.23,55.22,54.5,100.0,0.0,0.0,,,,,,1.0,,,,10.0,,KIGQ 030955Z AUTO 00000KT 10SM CLR 13/13 A3023 RMK AO2  T01290125,,,,,,55.22,,N,29.57,28.98,,Clear
KIGQ,09/03/2016 10:15 UTC,30.23,54.5,54.5,100.0,0.0,0.0,,,,,,1.0,,,,10.0,,KIGQ 031015Z AUTO 00000KT 10SM CLR 13/13 A3023 RMK AO2  T01250125,,,,,,54.5,,N,29.57,29.02,,Clear
KIGQ,09/03/2016 10:35 UTC,30.23,54.5,54.5,100.0,0.0,0.0,,,,,,1.0,,,,10.0,,KIGQ 031035Z AUTO 00000KT 10SM CLR 13/13 A3023 RMK AO2  T01250125,,,,,,54.5,,N,29.57,29.02,,Clear
KIGQ,09/03/2016 10:55 UTC,30.23,53.96,53.96,100.0,0.0,0.0,,,,,,1.0,,,,10.0,,KIGQ 031055Z AUTO 00000KT 10SM CLR 12/12 A3023 RMK AO2  T01220122,,,,,,53.96,,N,29.57,29.04,,Clear
KIGQ,09/03/2016 11:15 UTC,30.23,52.52,52.52,100.0,0.0,0.0,,,,,,1.0,,,,10.0,,KIGQ 031115Z AUTO 00000KT 10SM CLR 11/11 A3023 RMK AO2  T01140114,,,,,,52.52,,N,29.57,29.12,,Clear
KIGQ,09/03/2016 11:35 UTC,30.24,53.24,53.24,100.0,0.0,0.0,,,,,,1.0,,,,10.0,,KIGQ 031135Z AUTO 00000KT 10SM CLR 12/12 A3024 RMK AO2  T01180118,,,,,,53.24,,N,29.58,29.09,,Clear
KIGQ,09/03/2016 11:55 UTC,30.24,53.42,53.42,100.0,0.0,0.0,,,,,,1.0,,,,10.0,,KIGQ 031155Z AUTO 00000KT 10SM CLR 12/12 A3024 RMK AO2 T01190119  10171 20111,62.78,51.98,,,,53.42,,N,29.58,29.08,,Clear
KIGQ,09/03/2016 12:15 UTC,30.24,55.58,55.58,100.0,0.0,0.0,,,,,,1.0,,,,10.0,,KIGQ 031215Z AUTO 00000KT 10SM CLR 13/13 A3024 RMK AO2  T01310131,,,,,,55.58,,N,29.58,28.97,,Clear
KIGQ,09/03/2016 12:35 UTC,30.24,59.0,57.56,93.75,4.61,130.0,,,,,,1.0,,,,10.0,,KIGQ 031235Z AUTO 13004KT 10SM CLR 15/14 A3024 RMK AO2  T01500142,,,,,,57.18,,SE,29.58,28.86,,Clear
KIGQ,09/03/2016 12:55 UTC,30.24,61.7,58.28,88.02,6.91,130.0,,,,,,1.0,,,,10.0,,KIGQ 031255Z AUTO 13006KT 10SM CLR 17/15 A3024 RMK AO2  T01650146,,,,,,58.09,,SE,29.58,28.78,,Clear
KIGQ,09/03/2016 13:15 UTC,30.24,63.5,58.46,82.65,5.75,130.0,,,,,,1.0,,,,10.0,,KIGQ 031315Z AUTO 13005KT 10SM CLR 18/15 A3024 RMK AO2  T01750147,,,,,,58.09,,SE,29.58,28.76,,Clear
KIGQ,09/03/2016 13:35 UTC,30.25,64.94,58.46,82.65,5.75,130.0,,,,,,1.0,,,,10.0,,KIGQ 031335Z AUTO 13005KT 10SM CLR 18/15 A3025 RMK AO2  T01830147,,,,,,59.5,,SE,29.59,28.68,,Clear
KIGQ,09/03/2016 13:55 UTC,30.25,66.56,58.64,77.64,8.05,120.0,,,,,,1.0,,,,10.0,,KIGQ 031355Z AUTO 12007KT 10SM CLR 19/15 A3025 RMK AO2  T01920148,,,,,,59.31,,ESE,29.59,28.67,,Clear
KIGQ,09/03/2016 14:15 UTC,30.25,67.64,59.0,72.97,5.75,120.0,,,,,,1.0,,,,10.0,,KIGQ 031415Z AUTO 12005KT 10SM CLR 20/15 A3025 RMK AO2  T01980150,,,,,,58.61,,ESE,29.59,28.7,,Clear
KIGQ,09/03/2016 14:35 UTC,30.25,68.72,59.54,72.97,6.91,110.0,,,,,,1.0,,,,10.0,,KIGQ 031435Z AUTO 11006KT 10SM CLR 20/15 A3025 RMK AO2  T02040153,,,,,,59.66,,ESE,29.59,28.63,,Clear
KIGQ,09/03/2016 14:55 UTC,30.25,69.26,60.08,73.15,5.75,120.0,,,,,,1.0,,,,10.0,,KIGQ 031455Z AUTO 12005KT 10SM CLR 21/16 A3025 RMK AO2  T02070156,,,,,,60.25,,ESE,29.59,28.59,,Clear
KIGQ,09/03/2016 15:15 UTC,30.25,70.16,60.8,73.15,5.75,130.0,,,,,,1.0,,,,10.0,,KIGQ 031515Z AUTO 13005KT 10SM CLR 21/16 A3025 RMK AO2  T02120160,,,,,,61.12,,SE,29.59,28.53,,Clear
KIGQ,09/03/2016 15:35 UTC,30.25,70.7,59.72,64.54,4.61,140.0,,,,,,1.0,,,,10.0,,KIGQ 031535Z AUTO 14004KT 10SM CLR 22/15 A3025 RMK AO2  T02150154,,,,,,58.11,,SE,29.59,28.69,,Clear
KIGQ,09/03/2016 15:55 UTC,30.24,71.6,60.08,68.81,5.75,80.0,,,,,,1.0,,,,10.0,,KIGQ 031555Z AUTO 08005KT 10SM CLR 22/16 A3024 RMK AO2  T02200156,,,,,,60.77,,E,29.58,28.53,,Clear
KIGQ,09/03/2016 16:15 UTC,30.24,72.32,59.36,64.54,3.44,150.0,,,,,,1.0,,,,10.0,,KIGQ 031615Z AUTO 15003KT 10SM CLR 22/15 A3024 RMK AO2  T02240152,,,,,,59.65,,SSE,29.58,28.58,,Clear
KIGQ,09/03/2016 16:35 UTC,30.23,72.68,57.02,56.95,4.61,120.0,,,,,,1.0,,,,10.0,,KIGQ 031635Z AUTO 12004KT 10SM CLR 23/14 A3023 RMK AO2  T02260139,,,,,,56.49,,ESE,29.57,28.73,,Clear
KIGQ,09/03/2016 16:55 UTC,30.23,73.22,58.82,60.75,5.75,150.0,,,,,,1.0,,,,10.0,,KIGQ 031655Z AUTO 15005KT 10SM CLR 23/15 A3023 RMK AO2  T02290149,,,,,,58.8,,SSE,29.57,28.61,,Clear
KIGQ,09/03/2016 17:15 UTC,30.22,73.76,58.64,60.75,5.75,120.0,,,,,,1.0,,,,10.0,,KIGQ 031715Z AUTO 12005KT 10SM CLR 23/15 A3022 RMK AO2  T02320148,,,,,,59.31,,ESE,29.56,28.56,,Clear
KIGQ,09/03/2016 17:35 UTC,30.22,74.48,58.82,57.2,6.91,100.0,,,,,,1.0,,,,10.0,,KIGQ 031735Z AUTO 10006KT 10SM CLR 24/15 A3022 RMK AO2  T02360149,,,,,,58.3,,E,29.56,28.61,,Clear
KIGQ,09/03/2016 17:55 UTC,30.21,74.48,57.56,53.62,4.61,150.0,,,,,,1.0,,,,10.0,,KIGQ 031755Z AUTO 15004KT 10SM CLR 24/14 A3021 RMK AO2 T02360142  10240 20120,75.2,53.6,,,,56.5,,SSE,29.55,28.69,,Clear
KIGQ,09/03/2016 18:15 UTC,30.21,75.2,58.82,57.2,5.75,100.0,,,,,,1.0,,,,10.0,,KIGQ 031815Z AUTO 10005KT 10SM CLR 24/15 A3021 RMK AO2  T02400149,,,,,,58.98,,E,29.55,28.56,,Clear
KIGQ,09/03/2016 18:35 UTC,30.2,75.74,59.18,57.2,8.05,90.0,,,,,,1.0,,,,10.0,,KIGQ 031835Z AUTO 09007KT 10SM CLR 24/15 A3020 RMK AO2  T02430151,,,,,,59.49,,E,29.54,28.51,,Clear
KIGQ,09/03/2016 18:55 UTC,30.19,76.28,60.62,57.45,6.91,110.0,,,,,,452.0,,,,10.0,,KIGQ 031855Z AUTO 11006KT 10SM SCT045 25/16 A3019 RMK AO2  T02460159,,,,,,60.12,,ESE,29.53,28.46,,Partly Cloudy
KIGQ,09/03/2016 19:15 UTC,30.19,75.2,60.98,60.98,4.61,90.0,,,,,,432.0,,,,10.0,,KIGQ 031915Z AUTO 09004KT 10SM SCT043 24/16 A3019 RMK AO2  T02400161,,,,,,60.78,,E,29.53,28.44,,Partly Cloudy
KIGQ,09/03/2016 19:35 UTC,30.19,75.2,61.52,60.98,8.05,50.0,,,,,,1.0,,,,10.0,,KIGQ 031935Z AUTO 05007KT 10SM CLR 24/16 A3019 RMK AO2  T02400164,,,,,,60.78,,NE,29.53,28.44,,Clear
KIGQ,09/03/2016 19:55 UTC,30.18,74.84,61.16,60.98,4.61,40.0,,,,,,1.0,,,,10.0,,KIGQ 031955Z AUTO 04004KT 10SM CLR 24/16 A3018 RMK AO2  T02380162,,,,,,60.44,,NE,29.52,28.45,,Clear
KIGQ,09/03/2016 20:15 UTC,30.17,75.74,61.52,60.98,6.91,40.0,,,,,,462.0,,,,10.0,,KIGQ 032015Z AUTO 04006KT 10SM SCT046 24/16 A3017 RMK AO2  T02430164,,,,,,61.29,,NE,29.51,28.38,,Partly Cloudy
KIGQ,09/03/2016 20:35 UTC,30.17,75.38,61.7,64.98,10.36,60.0,,,,,,1.0,,,,10.0,,KIGQ 032035Z AUTO 06009KT 10SM CLR 24/17 A3017 RMK AO2  T02410165,,,,,,62.76,,ENE,29.51,28.3,,Clear
KIGQ,09/03/2016 20:55 UTC,30.16,74.48,60.98,60.98,8.05,50.0,,,,,,1.0,,,,10.0,,KIGQ 032055Z AUTO 05007KT 10SM CLR 24/16 A3016 RMK AO2  T02360161,,,,,,60.1,,NE,29.5,28.45,,Clear
KIGQ,09/03/2016 21:15 UTC,30.16,74.84,61.16,60.98,9.22,70.0,,,,,,1.0,,,,10.0,,KIGQ 032115Z AUTO 07008KT 10SM CLR 24/16 A3016 RMK AO2  T02380162,,,,,,60.44,,ENE,29.5,28.43,,Clear
KIGQ,09/03/2016 21:35 UTC,30.16,74.48,62.06,64.98,6.91,60.0,,,,,,1.0,,,,10.0,,KIGQ 032135Z AUTO 06006KT 10SM CLR 24/17 A3016 RMK AO2  T02360167,,,,,,61.9,,ENE,29.5,28.35,,Clear
KIGQ,09/03/2016 21:55 UTC,30.16,73.76,61.34,64.76,6.91,70.0,,,,,,1.0,,,,10.0,,KIGQ 032155Z AUTO 07006KT 10SM CLR 23/16 A3016 RMK AO2  T02320163,,,,,,61.12,,ENE,29.5,28.4,,Clear
KIGQ,09/03/2016 22:15 UTC,30.16,73.22,60.98,64.76,9.22,40.0,,,,,,1.0,,,,10.0,,KIGQ 032215Z AUTO 04008KT 10SM CLR 23/16 A3016 RMK AO2  T02290161,,,,,,60.6,,NE,29.5,28.44,,Clear
KIGQ,09/03/2016 22:35 UTC,30.16,72.86,61.34,64.76,8.05,50.0,,,,,,1.0,,,,10.0,,KIGQ 032235Z AUTO 05007KT 10SM CLR 23/16 A3016 RMK AO2  T02270163,,,,,,60.26,,NE,29.5,28.46,,Clear
KIGQ,09/03/2016 22:55 UTC,30.16,71.6,60.62,68.81,8.05,50.0,,,,,,1.0,,,,10.0,,KIGQ 032255Z AUTO 05007KT 10SM CLR 22/16 A3016 RMK AO2  T02200159,,,,,,60.77,,NE,29.5,28.45,,Clear
KIGQ,09/03/2016 23:15 UTC,30.16,71.42,60.8,68.81,8.05,60.0,,,,,,1.0,,,,10.0,,KIGQ 032315Z AUTO 06007KT 10SM CLR 22/16 A3016 RMK AO2  T02190160,,,,,,60.6,,ENE,29.5,28.46,,Clear
KIGQ,09/03/2016 23:35 UTC,30.16,70.34,60.98,73.15,8.05,60.0,,,,,,1.0,,,,10.0,,KIGQ 032335Z AUTO 06007KT 10SM CLR 21/16 A3016 RMK AO2  T02130161,,,,,,61.29,,ENE,29.5,28.43,,Clear
KIGQ,09/03/2016 23:55 UTC,30.16,69.44,61.34,73.15,8.05,50.0,,,,,,1.0,,,,10.0,,KIGQ 032355Z AUTO 05007KT 10SM CLR 21/16 A3016 RMK AO2 T02080163  10247 20208,76.46,69.44,,,,60.42,,NE,29.5,28.49,,Clear
KIGQ,09/04/2016 00:15 UTC,30.16,68.54,61.34,77.79,4.61,40.0,,,,,,1.0,,,,10.0,,KIGQ 040015Z AUTO 04004KT 10SM CLR 20/16 A3016 RMK AO2  T02030163,,,,,,61.29,,NE,29.5,28.45,,Clear
KIGQ,09/04/2016 00:35 UTC,30.16,68.0,61.52,77.79,4.61,50.0,,,,,,1.0,,,,10.0,,KIGQ 040035Z AUTO 05004KT 10SM CLR 20/16 A3016 RMK AO2  T02000164,,,,,,60.77,,NE,29.5,28.49,,Clear
KIGQ,09/04/2016 00:55 UTC,30.16,67.1,61.7,82.89,0.0,0.0,,,,,,1.0,,,,10.0,,KIGQ 040055Z AUTO 00000KT 10SM CLR 20/17 A3016 RMK AO2  T01950165,,,,,,61.69,,N,29.5,28.45,,Clear
KIGQ,09/04/2016 01:15 UTC,30.16,67.1,61.7,82.89,3.44,50.0,,,,,,1.0,,,,10.0,,KIGQ 040115Z AUTO 05003KT 10SM CLR 20/17 A3016 RMK AO2  T01950165,,,,,,61.69,,NE,29.5,28.45,,Clear
KIGQ,09/04/2016 01:35 UTC,30.17,66.02,61.52,82.77,0.0,0.0,,,,,,1.0,,,,10.0,,KIGQ 040135Z AUTO 00000KT 10SM CLR 19/16 A3017 RMK AO2  T01890164,,,,,,60.6,,N,29.51,28.53,,Clear
KIGQ,09/04/2016 01:55 UTC,30.17,65.66,61.7,88.2,0.0,0.0,,,,,,1.0,,,,10.0,,KIGQ 040155Z AUTO 00000KT 10SM CLR 19/17 A3017 RMK AO2  T01870165,,,,,,62.05,,N,29.51,28.46,,Clear
KIGQ,09/04/2016 02:15 UTC,30.17,65.12,61.7,93.89,5.75,80.0,,,,,,1.0,,,,10.0,,KIGQ 040215Z AUTO 08005KT 10SM CLR 18/17 A3017 RMK AO2  T01840165,,,,,,63.3,,E,29.51,28.39,,Clear
KIGQ,09/04/2016 02:35 UTC,30.17,65.3,61.7,88.2,5.75,80.0,,,,,,1.0,,,,10.0,,KIGQ 040235Z AUTO 08005KT 10SM CLR 19/17 A3017 RMK AO2  T01850165,,,,,,61.69,,E,29.51,28.48,,Clear
KIGQ,09/04/2016 02:55 UTC,30.16,64.76,61.7,93.89,5.75,80.0,,,,,,1.0,,,,10.0,,KIGQ 040255Z AUTO 08005KT 10SM CLR 18/17 A3016 RMK AO2  T01820165,,,,,,62.95,,E,29.5,28.41,,Clear
KIGQ,09/04/2016 03:15 UTC,30.17,64.94,61.7,93.89,4.61,80.0,,,,,,1.0,,,,10.0,,KIGQ 040315Z AUTO 08004KT 10SM CLR 18/17 A3017 RMK AO2  T01830165,,,,,,63.12,,E,29.51,28.4,,Clear
KIGQ,09/04/2016 03:35 UTC,30.17,64.04,61.16,88.11,0.0,0.0,,,,,,1.0,,,,10.0,,KIGQ 040335Z AUTO 00000KT 10SM CLR 18/16 A3017 RMK AO2  T01780162,,,,,,60.42,,N,29.51,28.56,,Clear
KIGQ,09/04/2016 03:55 UTC,30.18,63.5,60.8,88.11,0.0,0.0,,,,,,1.0,,,,10.0,,KIGQ 040355Z AUTO 00000KT 10SM CLR 18/16 A3018 RMK AO2  T01750160,,,,,,59.89,,N,29.52,28.61,,Clear
KIGQ,09/04/2016 04:15 UTC,30.18,63.86,60.8,88.11,3.44,80.0,,,,,,1.0,,,,10.0,,KIGQ 040415Z AUTO 08003KT 10SM CLR 18/16 A3018 RMK AO2  T01770160,,,,,,60.25,,E,29.52,28.59,,Clear
KIGQ,09/04/2016 04:35 UTC,30.18,62.24,59.9,93.84,4.61,90.0,,,,,,1.0,,,,10.0,,KIGQ 040435Z AUTO 09004KT 10SM CLR 17/16 A3018 RMK AO2  T01680155,,,,,,60.43,,E,29.52,28.6,,Clear
KIGQ,09/04/2016 04:55 UTC,30.17,60.8,59.36,93.8,3.44,90.0,,,,,,1.0,,,,10.0,,KIGQ 040455Z AUTO 09003KT 10SM CLR 16/15 A3017 RMK AO2  T01600152,,,,,,58.99,,E,29.51,28.68,,Clear
KIGQ,09/04/2016 05:15 UTC,30.18,60.98,59.18,93.8,0.0,0.0,,,,,,1.0,,,,10.0,,KIGQ 040515Z AUTO 00000KT 10SM CLR 16/15 A3018 RMK AO2  T01610151,,,,,,59.17,,N,29.52,28.68,,Clear
KIGQ,09/04/2016 05:35 UTC,30.18,60.08,59.18,93.8,0.0,0.0,,,,,,1.0,,,,10.0,,KIGQ 040535Z AUTO 00000KT 10SM CLR 16/15 A3018 RMK AO2  T01560151,,,,,,58.27,,N,29.52,28.73,,Clear
KIGQ,09/04/2016 05:55 UTC,30.18,59.0,59.0,100.0,0.0,0.0,,,,,,1.0,,,,10.0,,KIGQ 040555Z AUTO 00000KT 10SM CLR 15/15 A3018 RMK AO2 T01500150  10208 20150 402470111,69.44,59.0,,76.46,51.98,59.0,,N,29.52,28.71,,Clear
KIGQ,09/04/2016 06:15 UTC,30.18,59.18,59.0,100.0,0.0,0.0,,,,,,1.0,,,,10.0,,KIGQ 040615Z AUTO 00000KT 10SM CLR 15/15 A3018 RMK AO2  T01510150,,,,,,59.18,,N,29.52,28.7,,Clear
KIGQ,09/04/2016 06:35 UTC,30.17,59.36,59.0,100.0,0.0,0.0,,,,,,1.0,,,,10.0,,KIGQ 040635Z AUTO 00000KT 10SM CLR 15/15 A3017 RMK AO2  T01520150,,,,,,59.36,,N,29.51,28.68,,Clear
KIGQ,09/04/2016 06:55 UTC,30.18,59.0,58.46,100.0,0.0,0.0,,,,,,1.0,,,,10.0,,KIGQ 040655Z AUTO 00000KT 10SM CLR 15/15 A3018 RMK AO2  T01500147,,,,,,59.0,,N,29.52,28.71,,Clear
KIGQ,09/04/2016 07:15 UTC,30.18,57.2,57.2,100.0,0.0,0.0,,,,,,1.0,,,,10.0,,KIGQ 040715Z AUTO 00000KT 10SM CLR 14/14 A3018 RMK AO2  T01400140,,,,,,57.2,,N,29.52,28.82,,Clear
KIGQ,09/04/2016 07:35 UTC,30.18,57.38,57.2,100.0,4.61,120.0,,,,,,1.0,,,,10.0,,KIGQ 040735Z AUTO 12004KT 10SM CLR 14/14 A3018 RMK AO2  T01410140,,,,,,57.38,,ESE,29.52,28.81,,Clear
KIGQ,09/04/2016 07:55 UTC,30.18,58.82,57.56,93.75,3.44,130.0,,,,,,1.0,,,,10.0,,KIGQ 040755Z AUTO 13003KT 10SM CLR 15/14 A3018 RMK AO2  T01490142,,,,,,57.01,,SE,29.52,28.81,,Clear
KIGQ,09/04/2016 08:15 UTC,30.18,59.0,57.56,93.75,0.0,0.0,,,,,,1.0,,,,10.0,,KIGQ 040815Z AUTO 00000KT 10SM CLR 15/14 A3018 RMK AO2  T01500142,,,,,,57.18,,N,29.52,28.8,,Clear
KIGQ,09/04/2016 08:35 UTC,30.18,58.46,57.02,93.75,0.0,0.0,,,,,,1.0,,,,10.0,,KIGQ 040835Z AUTO 00000KT 10SM CLR 15/14 A3018 RMK AO2  T01470139,,,,,,56.65,,N,29.52,28.83,,Clear
KIGQ,09/04/2016 08:55 UTC,30.18,58.82,57.2,93.75,4.61,110.0,,,,,,1.0,,,,10.0,,KIGQ 040855Z AUTO 11004KT 10SM CLR 15/14 A3018 RMK AO2  T01490140,,,,,,57.01,,ESE,29.52,28.81,,Clear
KIGQ,09/04/2016 09:15 UTC,30.18,58.64,57.2,93.75,0.0,0.0,,,,,,1.0,,,,10.0,,KIGQ 040915Z AUTO 00000KT 10SM CLR 15/14 A3018 RMK AO2  T01480140,,,,,,56.83,,N,29.52,28.82,,Clear
KIGQ,09/04/2016 09:35 UTC,30.18,59.0,57.56,93.75,3.44,130.0,,,,,,1.0,,,,10.0,,KIGQ 040935Z AUTO 13003KT 10SM CLR 15/14 A3018 RMK AO2  T01500142,,,,,,57.18,,SE,29.52,28.8,,Clear
KIGQ,09/04/2016 09:55 UTC,30.19,58.82,57.38,93.75,3.44,120.0,,,,,,1.0,,,,10.0,,KIGQ 040955Z AUTO 12003KT 10SM CLR 15/14 A3019 RMK AO2  T01490141,,,,,,57.01,,ESE,29.53,28.82,,Clear
KIGQ,09/04/2016 10:15 UTC,30.19,57.74,56.84,100.0,3.44,110.0,,,,,,1.0,,,,10.0,,KIGQ 041015Z AUTO 11003KT 10SM CLR 14/14 A3019 RMK AO2  T01430138,,,,,,57.74,,ESE,29.53,28.8,,Clear
KIGQ,09/04/2016 10:35 UTC,30.19,57.74,57.02,100.0,0.0,0.0,,,,,,1.0,,,,10.0,,KIGQ 041035Z AUTO 00000KT 10SM CLR 14/14 A3019 RMK AO2  T01430139,,,,,,57.74,,N,29.53,28.8,,Clear
KIGQ,09/04/2016 10:55 UTC,30.19,57.56,56.84,100.0,4.61,120.0,,,,,,1.0,,,,10.0,,KIGQ 041055Z AUTO 12004KT 10SM CLR 14/14 A3019 RMK AO2  T01420138,,,,,,57.56,,ESE,29.53,28.81,,Clear
KIGQ,09/04/2016 11:15 UTC,30.19,57.38,57.02,100.0,3.44,120.0,,,,,,1.0,,,,10.0,,KIGQ 041115Z AUTO 12003KT 10SM CLR 14/14 A3019 RMK AO2  T01410139,,,,,,57.38,,ESE,29.53,28.82,,Clear
KIGQ,09/04/2016 11:35 UTC,30.19,57.38,57.02,100.0,3.44,120.0,,,,,,1.0,,,,10.0,,KIGQ 041135Z AUTO 12003KT 10SM CLR 14/14 A3019 RMK AO2  T01410139,,,,,,57.38,,ESE,29.53,28.82,,Clear
KIGQ,09/04/2016 11:55 UTC,30.2,58.28,57.56,93.75,3.44,130.0,,,,,,1.0,,,,10.0,,KIGQ 041155Z AUTO 13003KT 10SM CLR 15/14 A3020 RMK AO2 T01460142  10155 20135,59.9,56.3,,,,56.47,,SE,29.54,28.86,,Clear
KIGQ,09/04/2016 12:15 UTC,30.21,59.72,59.0,100.0,0.0,0.0,,,,,,1.0,,,,10.0,,KIGQ 041215Z AUTO 00000KT 10SM CLR 15/15 A3021 RMK AO2  T01540150,,,,,,59.72,,N,29.55,28.7,,Clear
KIGQ,09/04/2016 12:35 UTC,30.21,60.98,59.18,93.8,3.44,130.0,,,,,,1.0,,,,10.0,,KIGQ 041235Z AUTO 13003KT 10SM CLR 16/15 A3021 RMK AO2  T01610151,,,,,,59.17,,SE,29.55,28.71,,Clear
KIGQ,09/04/2016 12:55 UTC,30.21,62.6,59.9,93.84,3.44,120.0,,,,,,1.0,,,,10.0,,KIGQ 041255Z AUTO 12003KT 10SM CLR 17/16 A3021 RMK AO2  T01700155,,,,,,60.79,,ESE,29.55,28.6,,Clear
KIGQ,09/04/2016 13:15 UTC,30.22,63.86,60.62,88.11,4.61,140.0,,,,,,1.0,,,,10.0,,KIGQ 041315Z AUTO 14004KT 10SM CLR 18/16 A3022 RMK AO2  T01770159,,,,,,60.25,,SE,29.56,28.63,,Clear
KIGQ,09/04/2016 13:35 UTC,30.21,65.84,61.88,88.2,5.75,130.0,,,,,,1.0,,,,10.0,,KIGQ 041335Z AUTO 13005KT 10SM CLR 19/17 A3021 RMK AO2  T01880166,,,,,,62.23,,SE,29.55,28.48,,Clear
KIGQ,09/04/2016 13:55 UTC,30.22,67.28,61.88,82.89,4.61,140.0,,,,,,1.0,,,,10.0,,KIGQ 041355Z AUTO 14004KT 10SM CLR 20/17 A3022 RMK AO2  T01960166,,,,,,61.87,,SE,29.56,28.5,,Clear
KIGQ,09/04/2016 14:15 UTC,30.22,68.72,62.6,82.89,5.75,130.0,,,,,,1.0,,,,10.0,,KIGQ 041415Z AUTO 13005KT 10SM CLR 20/17 A3022 RMK AO2  T02040170,,,,,,63.28,,SE,29.56,28.4,,Clear
KIGQ,09/04/2016 14:35 UTC,30.22,70.52,63.14,77.94,5.75,150.0,,,,,,1.0,,,,10.0,,KIGQ 041435Z AUTO 15005KT 10SM CLR 21/17 A3022 RMK AO2  T02140173,,,,,,63.27,,SSE,29.56,28.37,,Clear
KIGQ,09/04/2016 14:55 UTC,30.23,71.6,63.5,78.09,4.61,150.0,,,,,,1.0,,,,10.0,,KIGQ 041455Z AUTO 15004KT 10SM CLR 22/18 A3023 RMK AO2  T02200175,,,,,,64.38,,SSE,29.57,28.3,,Clear
KIGQ,09/04/2016 15:15 UTC,30.23,73.4,64.22,73.5,5.75,120.0,,,,,,1.0,,,,10.0,,KIGQ 041515Z AUTO 12005KT 10SM CLR 23/18 A3023 RMK AO2  T02300179,,,,,,64.38,,ESE,29.57,28.28,,Clear
KIGQ,09/04/2016 15:35 UTC,30.23,74.3,63.5,69.21,5.75,170.0,,,,,,1.0,,,,10.0,,KIGQ 041535Z AUTO 17005KT 10SM CLR 24/18 A3023 RMK AO2  T02350175,,,,,,63.52,,S,29.57,28.32,,Clear
KIGQ,09/04/2016 15:55 UTC,30.22,75.2,63.86,69.21,8.05,130.0,,,,,,1.0,,,,10.0,,KIGQ 041555Z AUTO 13007KT 10SM CLR 24/18 A3022 RMK AO2  T02400177,,,,,,64.39,,SE,29.56,28.25,,Clear
KIGQ,09/04/2016 16:15 UTC,30.21,76.28,62.06,61.21,11.5,140.0,,,,,,1.0,,,,10.0,,KIGQ 041615Z AUTO 14010KT 10SM CLR 25/17 A3021 RMK AO2  T02460167,,,,,,61.91,,SE,29.55,28.38,,Clear
KIGQ,09/04/2016 16:35 UTC,30.21,76.64,62.06,61.21,10.36,140.0,,,,,,452.0,,,,10.0,,KIGQ 041635Z AUTO 14009KT 040V170 10SM SCT045 25/17 A3021 RMK AO2  T02480167,,,,,,62.25,,SE,29.55,28.36,,Partly Cloudy
KIGQ,09/04/2016 16:55 UTC,30.2,76.64,61.52,57.45,9.22,140.0,17.27,,,,,472.0,,,,10.0,,KIGQ 041655Z AUTO 14008G15KT 10SM SCT047 25/16 A3020 RMK AO2  T02480164,,,,,,60.46,,SE,29.54,28.45,,Partly Cloudy
KIGQ,09/04/2016 17:15 UTC,30.2,76.64,61.52,57.45,10.36,140.0,,,,,,1.0,,,,10.0,,KIGQ 041715Z AUTO 14009KT 10SM CLR 25/16 A3020 RMK AO2  T02480164,,,,,,60.46,,SE,29.54,28.45,,Clear
KIGQ,09/04/2016 17:35 UTC,30.2,76.1,61.7,61.21,8.05,180.0,,,,,,472.0,,,,10.0,,KIGQ 041735Z AUTO 18007KT 10SM SCT047 25/17 A3020 RMK AO2  T02450165,,,,,,61.74,,S,29.54,28.38,,Partly Cloudy
KIGQ,09/04/2016 17:55 UTC,30.19,76.46,61.88,61.21,9.22,160.0,,,,,,472.0,,,,10.0,,KIGQ 041755Z AUTO 16008KT 10SM SCT047 25/17 A3019 RMK AO2  T02470166 10253 20147,77.54,58.46,,,,62.08,,SSE,29.53,28.35,,Partly Cloudy
KIGQ,09/04/2016 18:15 UTC,30.19,76.46,61.7,61.21,8.05,190.0,,,,,,472.0,,,,10.0,,KIGQ 041815Z AUTO 19007KT 10SM SCT047 25/17 A3019 RMK AO2  T02470165,,,,,,62.08,,S,29.53,28.35,,Partly Cloudy
KIGQ,09/04/2016 18:35 UTC,30.18,77.36,63.86,65.2,8.05,190.0,,,,,,482.0,,,,10.0,,KIGQ 041835Z AUTO 19007KT 10SM SCT048 25/18 A3018 RMK AO2  T02520177,,,,,,64.74,,S,29.52,28.16,,Partly Cloudy
KIGQ,09/04/2016 18:55 UTC,30.18,76.82,62.06,61.21,8.05,160.0,,,,,,482.0,,,,10.0,,KIGQ 041855Z AUTO 16007KT 10SM SCT048 25/17 A3018 RMK AO2  T02490167,,,,,,62.42,,SSE,29.52,28.31,,Partly Cloudy
KIGQ,09/04/2016 19:15 UTC,30.17,77.9,60.98,54.14,6.91,140.0,,,,,,1.0,,,,10.0,,KIGQ 041915Z AUTO 14006KT 10SM CLR 26/16 A3017 RMK AO2  T02550161,,,,,,59.97,,SE,29.51,28.43,,Clear
KIGQ,09/04/2016 19:35 UTC,30.17,77.0,61.88,61.21,6.91,160.0,,,,,,1.0,,,,10.0,,KIGQ 041935Z AUTO 16006KT 10SM CLR 25/17 A3017 RMK AO2  T02500166,,,,,,62.59,,SSE,29.51,28.29,,Clear
KIGQ,09/04/2016 19:55 UTC,30.16,77.36,61.88,61.21,5.75,190.0,,,,,,1.0,,,,10.0,,KIGQ 041955Z AUTO 19005KT 10SM CLR 25/17 A3016 RMK AO2  T02520166,,,,,,62.93,,S,29.5,28.26,,Clear
KIGQ,09/04/2016 20:15 UTC,30.16,77.36,61.88,61.21,5.75,160.0,,,,,,1.0,,,,10.0,,KIGQ 042015Z AUTO 16005KT 10SM CLR 25/17 A3016 RMK AO2  T02520166,,,,,,62.93,,SSE,29.5,28.26,,Clear
KIGQ,09/04/2016 20:35 UTC,30.15,77.72,62.6,61.21,5.75,150.0,,,,,,1.0,,,,10.0,,KIGQ 042035Z AUTO 15005KT 10SM CLR 25/17 A3015 RMK AO2  T02540170,,,,,,63.27,,SSE,29.49,28.22,,Clear
KIGQ,09/04/2016 20:55 UTC,30.15,77.0,62.6,61.21,8.05,180.0,,,,,,502.0,,,,10.0,,KIGQ 042055Z AUTO 18007KT 10SM SCT050 25/17 A3015 RMK AO2  T02500170,,,,,,62.59,,S,29.49,28.27,,Partly Cloudy
KIGQ,09/04/2016 21:15 UTC,30.14,77.0,62.24,61.21,9.22,150.0,,,,,,1.0,,,,10.0,,KIGQ 042115Z AUTO 15008KT 10SM CLR 25/17 A3014 RMK AO2  T02500168,,,,,,62.59,,SSE,29.48,28.26,,Clear
KIGQ,09/04/2016 21:35 UTC,30.14,77.54,62.96,61.21,6.91,160.0,,,,,,1.0,,,,10.0,,KIGQ 042135Z AUTO 16006KT 10SM CLR 25/17 A3014 RMK AO2  T02530172,,,,,,63.1,,SSE,29.48,28.22,,Clear
KIGQ,09/04/2016 21:55 UTC,30.14,76.64,64.22,65.2,6.91,180.0,,,,,,1.0,,,,10.0,,KIGQ 042155Z AUTO 18006KT 10SM CLR 25/18 A3014 RMK AO2  T02480179,,,,,,64.05,,S,29.48,28.17,,Clear
KIGQ,09/04/2016 22:15 UTC,30.14,76.1,62.6,61.21,6.91,160.0,,,,,,1.0,,,,10.0,,KIGQ 042215Z AUTO 16006KT 10SM CLR 25/17 A3014 RMK AO2  T02450170,,,,,,61.74,,SSE,29.48,28.32,,Clear
KIGQ,09/04/2016 22:35 UTC,30.14,75.74,62.6,64.98,5.75,150.0,,,,,,1.0,,,,10.0,,KIGQ 042235Z AUTO 15005KT 10SM CLR 24/17 A3014 RMK AO2  T02430170,,,,,,63.1,,SSE,29.48,28.24,,Clear
KIGQ,09/04/2016 22:55 UTC,30.14,75.56,62.78,64.98,4.61,150.0,,,,,,1.0,,,,10.0,,KIGQ 042255Z AUTO 15004KT 10SM CLR 24/17 A3014 RMK AO2  T02420171,,,,,,62.93,,SSE,29.48,28.25,,Clear
KIGQ,09/04/2016 23:15 UTC,30.14,74.66,63.14,64.98,3.44,140.0,,,,,,1.0,,,,10.0,,KIGQ 042315Z AUTO 14003KT 10SM CLR 24/17 A3014 RMK AO2  T02370173,,,,,,62.07,,SE,29.48,28.32,,Clear
KIGQ,09/04/2016 23:35 UTC,30.13,74.12,62.96,69.01,0.0,0.0,,,,,,1.0,,,,10.0,,KIGQ 042335Z AUTO 00000KT 10SM CLR 23/17 A3013 RMK AO2  T02340172,,,,,,63.27,,N,29.47,28.24,,Clear
KIGQ,09/04/2016 23:55 UTC,30.13,73.04,63.5,73.5,3.44,130.0,,,,,,1.0,,,,10.0,,KIGQ 042355Z AUTO 13003KT 10SM CLR 23/18 A3013 RMK AO2 T02280175  10257 20228,78.26,73.04,,,,64.03,,SE,29.47,28.21,,Clear
KIGQ,09/05/2016 00:15 UTC,30.13,71.96,63.14,73.32,4.61,120.0,,,,,,1.0,,,,10.0,,KIGQ 050015Z AUTO 12004KT 10SM CLR 22/17 A3013 RMK AO2  T02220173,,,,,,62.92,,ESE,29.47,28.29,,Clear
KIGQ,09/05/2016 00:35 UTC,30.13,70.88,63.32,73.32,0.0,0.0,,,,,,1.0,,,,10.0,,KIGQ 050035Z AUTO 00000KT 10SM CLR 22/17 A3013 RMK AO2  T02160174,,,,,,61.88,,N,29.47,28.36,,Clear
KIGQ,09/05/2016 00:55 UTC,30.13,69.8,63.32,77.94,3.44,120.0,,,,,,1.0,,,,10.0,,KIGQ 050055Z AUTO 12003KT 10SM CLR 21/17 A3013 RMK AO2  T02100174,,,,,,62.57,,ESE,29.47,28.33,,Clear
KIGQ,09/05/2016 01:15 UTC,30.14,69.62,62.6,77.94,4.61,130.0,,,,,,1.0,,,,10.0,,KIGQ 050115Z AUTO 13004KT 10SM CLR 21/17 A3014 RMK AO2  T02090170,,,,,,62.4,,SE,29.48,28.36,,Clear
KIGQ,09/05/2016 01:35 UTC,30.15,68.0,62.6,82.89,3.44,160.0,,,,,,1.0,,,,10.0,,KIGQ 050135Z AUTO 16003KT 10SM CLR 20/17 A3015 RMK AO2  T02000170,,,,,,62.57,,SSE,29.49,28.38,,Clear
KIGQ,09/05/2016 01:55 UTC,30.15,66.38,62.42,88.2,3.44,140.0,,,,,,1.0,,,,10.0,,KIGQ 050155Z AUTO 14003KT 10SM CLR 19/17 A3015 RMK AO2  T01910169,,,,,,62.76,,SE,29.49,28.39,,Clear
KIGQ,09/05/2016 02:15 UTC,30.15,67.28,61.52,77.79,4.61,150.0,,,,,,1.0,,,,10.0,,KIGQ 050215Z AUTO 15004KT 10SM CLR 20/16 A3015 RMK AO2  T01960164,,,,,,60.07,,SSE,29.49,28.52,,Clear
KIGQ,09/05/2016 02:35 UTC,30.15,67.1,61.7,82.89,5.75,130.0,,,,,,1.0,,,,10.0,,KIGQ 050235Z AUTO 13005KT 10SM CLR 20/17 A3015 RMK AO2  T01950165,,,,,,61.69,,SE,29.49,28.44,,Clear
KIGQ,09/05/2016 02:55 UTC,30.15,66.56,61.34,82.77,5.75,130.0,,,,,,1.0,,,,10.0,,KIGQ 050255Z AUTO 13005KT 10SM CLR 19/16 A3015 RMK AO2  T01920163,,,,,,61.12,,SE,29.49,28.48,,Clear
KIGQ,09/05/2016 03:15 UTC,30.14,66.56,61.16,82.77,5.75,140.0,,,,,,1.0,,,,10.0,,KIGQ 050315Z AUTO 14005KT 10SM CLR 19/16 A3014 RMK AO2  T01920162,,,,,,61.12,,SE,29.48,28.46,,Clear
KIGQ,09/05/2016 03:35 UTC,30.14,66.38,61.16,82.77,4.61,150.0,,,,,,1.0,,,,10.0,,KIGQ 050335Z AUTO 15004KT 10SM CLR 19/16 A3014 RMK AO2  T01910162,,,,,,60.95,,SSE,29.48,28.48,,Clear
KIGQ,09/05/2016 03:55 UTC,30.14,66.2,60.8,82.77,4.61,140.0,,,,,,1.0,,,,10.0,,KIGQ 050355Z AUTO 14004KT 10SM CLR 19/16 A3014 RMK AO2  T01900160,,,,,,60.77,,SE,29.48,28.49,,Clear
KIGQ,09/05/2016 04:15 UTC,30.14,65.66,60.8,82.77,3.44,150.0,,,,,,1.0,,,,10.0,,KIGQ 050415Z AUTO 15003KT 10SM CLR 19/16 A3014 RMK AO2  T01870160,,,,,,60.24,,SSE,29.48,28.52,,Clear
KIGQ,09/05/2016 04:35 UTC,30.14,64.4,60.8,88.11,3.44,150.0,,,,,,1.0,,,,10.0,,KIGQ 050435Z AUTO 15003KT 10SM CLR 18/16 A3014 RMK AO2  T01800160,,,,,,60.78,,SSE,29.48,28.51,,Clear
KIGQ,09/05/2016 04:55 UTC,30.14,64.22,60.44,88.11,0.0,0.0,,,,,,1.0,,,,10.0,,KIGQ 050455Z AUTO 00000KT 10SM CLR 18/16 A3014 RMK AO2  T01790158,,,,,,60.6,,N,29.48,28.52,,Clear
KIGQ,09/05/2016 05:15 UTC,30.14,64.94,60.8,88.11,3.44,140.0,,,,,,1.0,,,,10.0,,KIGQ 050515Z AUTO 14003KT 10SM CLR 18/16 A3014 RMK AO2  T01830160,,,,,,61.31,,SE,29.48,28.48,,Clear
KIGQ,09/05/2016 05:35 UTC,30.14,64.58,60.8,88.11,0.0,0.0,,,,,,1.0,,,,10.0,,KIGQ 050535Z AUTO 00000KT 10SM CLR 18/16 A3014 RMK AO2  T01810160,,,,,,60.95,,N,29.48,28.5,,Clear
KIGQ,09/05/2016 05:55 UTC,30.14,64.4,60.8,88.11,0.0,0.0,,,,,,1.0,,,,10.0,,KIGQ 050555Z AUTO 00000KT 10SM CLR 18/16 A3014 RMK AO2 T01800160  10228 20178 402570135,73.04,64.04,,78.26,56.3,60.78,,N,29.48,28.51,,Clear
KIGQ,09/05/2016 06:15 UTC,30.14,62.42,60.08,93.84,0.0,0.0,,,,,,1.0,,,,10.0,,KIGQ 050615Z AUTO 00000KT 10SM CLR 17/16 A3014 RMK AO2  T01690156,,,,,,60.61,,N,29.48,28.54,,Clear
KIGQ,09/05/2016 06:35 UTC,30.14,60.98,59.9,100.0,3.44,160.0,,,,,,502.0,,,,10.0,,KIGQ 050635Z AUTO 16003KT 10SM SCT050 16/16 A3014 RMK AO2  T01610155,,,,,,60.98,,SSE,29.48,28.54,,Partly Cloudy
KIGQ,09/05/2016 06:55 UTC,30.14,61.7,59.9,93.84,3.44,150.0,,,,,,502.0,,,,10.0,,KIGQ 050655Z AUTO 15003KT 10SM SCT050 17/16 A3014 RMK AO2  T01650155,,,,,,59.89,,SSE,29.48,28.59,,Partly Cloudy
KIGQ,09/05/2016 07:15 UTC,30.14,62.42,60.08,93.84,0.0,0.0,,,,,,502.0,,,,10.0,,KIGQ 050715Z AUTO 00000KT 10SM SCT050 17/16 A3014 RMK AO2  T01690156,,,,,,60.61,,N,29.48,28.54,,Partly Cloudy
KIGQ,09/05/2016 07:35 UTC,30.14,62.6,60.26,93.84,4.61,180.0,,,,,,503.0,,,,10.0,,KIGQ 050735Z AUTO 18004KT 10SM BKN050 17/16 A3014 RMK AO2  T01700157,,,5000.0,,,60.79,,S,29.48,28.53,,Mostly Cloudy
KIGQ,09/05/2016 07:55 UTC,30.15,63.5,60.98,88.11,4.61,180.0,,,,,,503.0,,,,10.0,,KIGQ 050755Z AUTO 18004KT 10SM BKN050 18/16 A3015 RMK AO2  T01750161,,,5000.0,,,59.89,,S,29.49,28.58,,Mostly Cloudy
KIGQ,09/05/2016 08:15 UTC,30.14,62.96,60.8,93.84,3.44,170.0,,,,,,503.0,,,,10.0,,KIGQ 050815Z AUTO 17003KT 10SM BKN050 17/16 A3014 RMK AO2  T01720160,,,5000.0,,,61.14,,S,29.48,28.51,,Mostly Cloudy
KIGQ,09/05/2016 08:35 UTC,30.13,62.78,60.44,93.84,0.0,0.0,,,,,,502.0,,,,10.0,,KIGQ 050835Z AUTO 00000KT 10SM SCT050 17/16 A3013 RMK AO2  T01710158,,,,,,60.96,,N,29.47,28.51,,Partly Cloudy
KIGQ,09/05/2016 08:55 UTC,30.13,62.6,60.08,93.84,3.44,160.0,,,,,,603.0,,,,10.0,,KIGQ 050855Z AUTO 16003KT 10SM BKN060 17/16 A3013 RMK AO2  T01700156,,,6000.0,,,60.79,,SSE,29.47,28.52,,Mostly Cloudy
KIGQ,09/05/2016 09:15 UTC,30.12,64.04,60.62,88.11,0.0,0.0,,,,,,603.0,,,,10.0,,KIGQ 050915Z AUTO 00000KT 10SM BKN060 18/16 A3012 RMK AO2  T01780159,,,6000.0,,,60.42,,N,29.47,28.52,,Mostly Cloudy
KIGQ,09/05/2016 09:35 UTC,30.12,64.58,60.44,88.11,0.0,0.0,,,,,,602.0,,,,10.0,,KIGQ 050935Z AUTO 00000KT 10SM SCT060 18/16 A3012 RMK AO2  T01810158,,,,,,60.95,,N,29.47,28.49,,Partly Cloudy
KIGQ,09/05/2016 09:55 UTC,30.12,63.86,60.8,88.11,3.44,140.0,,,,,,602.0,,,,10.0,,KIGQ 050955Z AUTO 14003KT 10SM SCT060 18/16 A3012 RMK AO2  T01770160,,,,,,60.25,,SE,29.47,28.53,,Partly Cloudy
KIGQ,09/05/2016 10:15 UTC,30.12,64.4,60.8,88.11,0.0,0.0,,,,,,602.0,,,,10.0,,KIGQ 051015Z AUTO 00000KT 10SM SCT060 18/16 A3012 RMK AO2  T01800160,,,,,,60.78,,N,29.47,28.5,,Partly Cloudy
KIGQ,09/05/2016 10:35 UTC,30.13,63.86,60.44,88.11,4.61,170.0,,,,,,502.0,602.0,,,10.0,,KIGQ 051035Z AUTO 17004KT 10SM SCT050 SCT060 18/16 A3013 RMK AO2  T01770158,,,,,,60.25,,S,29.47,28.53,,Partly Cloudy
KIGQ,09/05/2016 10:55 UTC,30.13,64.58,60.98,88.11,4.61,160.0,,,602.0,,,442.0,502.0,,,10.0,,KIGQ 051055Z AUTO 16004KT 10SM SCT044 SCT050 SCT060 18/16  A3013 RMK AO2 T01810161,,,,,,60.95,,SSE,29.47,28.49,,Partly Cloudy
KIGQ,09/05/2016 11:15 UTC,30.13,64.76,61.16,88.11,4.61,160.0,,,,,,652.0,,,,10.0,,KIGQ 051115Z AUTO 16004KT 10SM SCT065 18/16 A3013 RMK AO2  T01820162,,,,,,61.13,,SSE,29.47,28.48,,Partly Cloudy
KIGQ,09/05/2016 11:35 UTC,30.13,64.04,60.98,88.11,5.75,170.0,,,,,,552.0,,,,10.0,,KIGQ 051135Z AUTO 17005KT 10SM SCT055 18/16 A3013 RMK AO2  T01780161,,,,,,60.42,,S,29.47,28.52,,Partly Cloudy
KIGQ,09/05/2016 11:55 UTC,30.13,65.3,61.7,88.2,6.91,170.0,,,,,,652.0,,,,10.0,,KIGQ 051155Z AUTO 17006KT 10SM SCT065 19/17 A3013 RMK AO2  T01850165 10185 20161,65.3,60.98,,,,61.69,,S,29.47,28.44,,Partly Cloudy
KIGQ,09/05/2016 12:15 UTC,30.13,66.56,62.24,88.2,9.22,170.0,,,,,,552.0,,,,10.0,,KIGQ 051215Z AUTO 17008KT 10SM SCT055 19/17 A3013 RMK AO2  T01920168,,,,,,62.94,,S,29.47,28.35,,Partly Cloudy
KIGQ,09/05/2016 12:35 UTC,30.14,67.28,62.96,82.89,11.5,180.0,,,,,,1.0,,,,10.0,,KIGQ 051235Z AUTO 18010KT 10SM CLR 20/17 A3014 RMK AO2  T01960172,,,,,,61.87,,S,29.48,28.41,,Clear
KIGQ,09/05/2016 12:55 UTC,30.14,69.08,64.22,83.01,11.5,180.0,,,,,,1.0,,,,10.0,,KIGQ 051255Z AUTO 18010KT 10SM CLR 21/18 A3014 RMK AO2  T02060179,,,,,,63.67,,S,29.48,28.29,,Clear
KIGQ,09/05/2016 13:15 UTC,30.15,70.52,65.3,88.37,10.36,190.0,18.41,,,,,1.0,,,,10.0,,KIGQ 051315Z AUTO 19009G16KT 10SM CLR 21/19 A3015 RMK AO2  T02140185,,,,,,66.9,,S,29.49,28.08,,Clear
KIGQ,09/05/2016 13:35 UTC,30.15,71.96,66.38,83.13,11.5,200.0,,,,,,1.0,,,,10.0,,KIGQ 051335Z AUTO 20010KT 10SM CLR 22/19 A3015 RMK AO2  T02220191,,,,,,66.54,,SSW,29.49,28.08,,Clear
KIGQ,09/05/2016 13:55 UTC,30.15,72.86,67.46,83.25,9.22,200.0,,,,,,1.0,,,,10.0,,KIGQ 051355Z AUTO 20008KT 10SM CLR 23/20 A3015 RMK AO2  T02270197,,,,,,67.46,,SSW,29.49,28.01,,Clear
KIGQ,09/05/2016 14:15 UTC,30.14,74.3,68.54,78.39,11.5,190.0,,,702.0,,,432.0,492.0,,,10.0,,KIGQ 051415Z AUTO 19010KT 10SM SCT043 SCT049 SCT070 24/20  A3014 RMK AO2 T02350203,,,,,,67.12,,S,29.48,28.0,,Partly Cloudy
KIGQ,09/05/2016 14:35 UTC,30.14,75.2,69.26,83.37,11.5,190.0,16.11,,,,,492.0,702.0,,,10.0,,KIGQ 051435Z AUTO 19010G14KT 10SM SCT049 SCT070 24/21 A3014 RMK AO2 T02400207,,,,,,69.79,,S,29.48,27.8,,Partly Cloudy
KIGQ,09/05/2016 14:55 UTC,30.14,76.64,70.16,78.54,11.5,190.0,,,652.0,,,452.0,492.0,,,10.0,,KIGQ 051455Z AUTO 19010KT 10SM SCT045 SCT049 SCT065 25/21  A3014 RMK AO2 T02480212,,,,,,69.45,,S,29.48,27.8,,Partly Cloudy
KIGQ,09/05/2016 15:15 UTC,30.14,77.36,70.52,78.54,10.36,190.0,,,652.0,,,432.0,502.0,,,10.0,,KIGQ 051515Z AUTO 19009KT 10SM SCT043 SCT050 SCT065 25/21  A3014 RMK AO2 T02520214,,,,,,70.15,,S,29.48,27.74,,Partly Cloudy
KIGQ,09/05/2016 15:35 UTC,30.14,79.7,72.14,74.19,12.66,190.0,,,503.0,,,432.0,483.0,,,10.0,,KIGQ 051535Z AUTO 19011KT 10SM SCT043 BKN048 BKN050 27/22  A3014 RMK AO2 T02650223,,,4800.0,,,70.74,,S,29.48,27.66,,Mostly Cloudy
KIGQ,09/05/2016 15:55 UTC,30.13,80.78,72.68,78.82,11.5,200.0,,,703.0,,,432.0,503.0,,,10.0,,KIGQ 051555Z AUTO 20010KT 10SM SCT043 BKN050 BKN070 27/23  A3013 RMK AO2 T02710226,,,5000.0,,,73.58,,SSW,29.47,27.41,85.72,Mostly Cloudy
KIGQ,09/05/2016 16:15 UTC,30.13,81.5,72.68,74.36,14.97,200.0,,,,,,602.0,,,,10.0,,KIGQ 051615Z AUTO 20013KT 10SM SCT060 28/23 A3013 RMK AO2 LTG DSNT  NW T02750226,,,,,,72.55,,SSW,29.47,27.49,86.38,Partly Cloudy
KIGQ,09/05/2016 16:35 UTC,30.13,82.58,73.22,74.36,11.5,190.0,,,,,,1.0,,,,10.0,,KIGQ 051635Z AUTO 19010KT 10SM CLR 28/23 A3013 RMK AO2  T02810229,,,,,,73.6,,S,29.47,27.38,88.67,Clear
KIGQ,09/05/2016 16:55 UTC,30.12,83.66,73.76,70.17,10.36,200.0,,,603.0,,,412.0,472.0,,,10.0,,KIGQ 051655Z AUTO 20009KT 10SM SCT041 SCT047 BKN060 29/23  A3012 RMK AO2 T02870232,,,6000.0,,,72.91,,SSW,29.47,27.43,89.8,Mostly Cloudy
KIGQ,09/05/2016 17:35 UTC,30.12,83.48,73.58,70.17,12.66,220.0,,,,,,333.0,413.0,,,10.0,,KIGQ 051735Z AUTO 22011KT 10SM BKN033 BKN041 29/23 A3012 RMK AO2  T02860231,,,3300.0,,,72.74,,SW,29.47,27.44,89.42,Mostly Cloudy
KIGQ,09/05/2016 17:55 UTC,30.12,85.1,74.3,70.36,13.8,200.0,20.71,,,,,332.0,443.0,,,10.0,,KIGQ 051755Z AUTO 20012G18KT 10SM SCT033 BKN044 30/24 A3012 RMK AO2 T02950235 10295 20186,85.1,65.48,4400.0,,,74.38,,SSW,29.47,27.28,93.07,Mostly Cloudy
KIGQ,09/05/2016 18:15 UTC,30.11,85.46,74.66,70.36,12.66,210.0,,,482.0,,,352.0,412.0,,,10.0,,KIGQ 051815Z AUTO 21011KT 10SM SCT035 SCT041 SCT048 30/24  A3011 RMK AO2 T02970237,,,,,,74.72,,SSW,29.46,27.24,93.92,Partly Cloudy
KIGQ,09/05/2016 18:35 UTC,30.1,84.74,74.12,70.17,12.66,200.0,17.27,,503.0,,,373.0,453.0,,,10.0,,KIGQ 051835Z AUTO 20011G15KT 10SM BKN037 BKN045 BKN050 29/23  A3010 RMK AO2 T02930234,,,3700.0,,,73.95,,SSW,29.45,27.3,92.17,Mostly Cloudy
KIGQ,09/05/2016 18:55 UTC,30.09,85.64,75.02,70.36,12.66,190.0,17.27,,503.0,,,373.0,453.0,,,10.0,,KIGQ 051855Z AUTO 19011G15KT 10SM BKN037 BKN045 BKN050 30/24  A3009 RMK AO2 T02980239,,,3700.0,,,74.9,,S,29.44,27.2,94.35,Mostly Cloudy
KIGQ,09/05/2016 19:15 UTC,30.08,86.36,73.76,66.25,13.8,210.0,18.41,,,,,372.0,452.0,,,10.0,,KIGQ 051915Z AUTO 21012G16KT 10SM SCT037 SCT045 30/23 A3008 RMK AO2 T03020232,,,,,,73.79,,SSW,29.43,27.28,94.3,Partly Cloudy
KIGQ,09/05/2016 19:35 UTC,30.08,86.72,74.66,70.36,12.66,200.0,,,,,,412.0,602.0,,,10.0,,KIGQ 051935Z AUTO 20011KT 10SM SCT041 SCT060 30/24 A3008 RMK AO2  T03040237,,,,,,75.94,,SSW,29.43,27.08,97.03,Partly Cloudy
KIGQ,09/05/2016 19:55 UTC,30.06,86.9,74.66,66.46,12.66,190.0,,,,,,382.0,442.0,,,10.0,,KIGQ 051955Z AUTO 19011KT 10SM SCT038 SCT044 31/24 A3006 RMK AO2  T03050237,,,,,,74.4,,S,29.41,27.2,95.64,Partly Cloudy
KIGQ,09/05/2016 20:15 UTC,30.06,86.18,74.66,70.36,12.66,190.0,18.41,,,,,403.0,603.0,,,10.0,,KIGQ 052015Z AUTO 19011G16KT 10SM BKN040 BKN060 30/24 A3006 RMK AO2 T03010237,,,4000.0,,,75.42,,S,29.41,27.11,95.67,Mostly Cloudy
KIGQ,09/05/2016 20:35 UTC,30.05,87.08,74.12,62.58,13.8,200.0,21.85,,,,,402.0,502.0,,,10.0,,KIGQ 052035Z AUTO 20012G19KT 10SM SCT040 SCT050 31/23 A3005 RMK AO2 T03060234,,,,,,72.79,,SSW,29.4,27.32,94.32,Partly Cloudy
KIGQ,09/05/2016 20:55 UTC,30.05,85.1,74.12,66.25,11.5,200.0,,,503.0,,,422.0,483.0,,,10.0,,KIGQ 052055Z AUTO 20010KT 10SM SCT042 BKN048 BKN050 30/23  A3005 RMK AO2 T02950234,,,4800.0,,,72.59,,SSW,29.4,27.36,91.54,Mostly Cloudy
KIGQ,09/05/2016 21:15 UTC,30.05,86.36,73.4,66.25,13.8,200.0,18.41,,603.0,,,422.0,503.0,,,10.0,,KIGQ 052115Z AUTO 20012G16KT 10SM SCT042 BKN050 BKN060 30/23  A3005 RMK AO2 T03020230,,,5000.0,,,73.79,,SSW,29.4,27.25,94.3,Mostly Cloudy
KIGQ,09/05/2016 21:35 UTC,30.04,86.72,73.22,66.25,13.8,210.0,19.57,,,,,462.0,502.0,,,10.0,,KIGQ 052135Z AUTO 21012G17KT 10SM SCT046 SCT050 30/23 A3004 RMK AO2 T03040229,,,,,,74.14,,SSW,29.39,27.2,95.13,Partly Cloudy
KIGQ,09/05/2016 21:55 UTC,30.04,86.72,73.04,66.25,14.97,220.0,18.41,,,,,1.0,,,,10.0,,KIGQ 052155Z AUTO 22013G16KT 10SM CLR 30/23 A3004 RMK AO2  T03040228,,,,,,74.14,,SW,29.39,27.2,95.13,Clear
KIGQ,09/05/2016 22:15 UTC,30.04,86.54,73.94,66.25,14.97,200.0,18.41,,,,,462.0,,,,10.0,,KIGQ 052215Z AUTO 20013G16KT 10SM SCT046 30/23 A3004 RMK AO2  T03030233,,,,,,73.96,,SSW,29.39,27.22,94.71,Partly Cloudy
KIGQ,09/05/2016 22:35 UTC,30.04,85.28,74.12,66.25,11.5,200.0,,,,,,1.0,,,,10.0,,KIGQ 052235Z AUTO 20010KT 10SM CLR 30/23 A3004 RMK AO2  T02960234,,,,,,72.76,,SSW,29.39,27.34,91.92,Clear
KIGQ,09/05/2016 22:55 UTC,30.04,84.74,74.3,74.52,9.22,200.0,,,,,,502.0,,,,10.0,,KIGQ 052255Z AUTO 20008KT 10SM SCT050 29/24 A3004 RMK AO2  T02930235,,,,,,75.75,,SSW,29.39,27.08,93.82,Partly Cloudy
KIGQ,09/05/2016 23:15 UTC,30.04,83.84,74.3,74.52,8.05,200.0,,,,,,1.0,,,,10.0,,KIGQ 052315Z AUTO 20007KT 10SM CLR 29/24 A3004 RMK AO2  T02880235,,,,,,74.88,,SSW,29.39,27.17,91.61,Clear
KIGQ,09/05/2016 23:35 UTC,30.04,82.22,74.48,78.97,6.91,190.0,,,,,,1.0,,,,10.0,,KIGQ 052335Z AUTO 19006KT 10SM CLR 28/24 A3004 RMK AO2  T02790236,,,,,,75.04,,S,29.39,27.18,89.06,Clear
KIGQ,09/05/2016 23:55 UTC,30.04,80.78,74.3,83.71,6.91,190.0,,,,,,1.0,,,,10.0,,KIGQ 052355Z AUTO 19006KT 10SM CLR 27/24 A3004 RMK AO2 T02710235  10307 20271,87.26,80.78,,,,75.38,,S,29.39,27.17,86.62,Clear
KIGQ,09/06/2016 00:15 UTC,30.04,79.52,73.76,83.6,6.91,190.0,,,,,,1.0,,,,10.0,,KIGQ 060015Z AUTO 19006KT 10SM CLR 26/23 A3004 RMK AO2  T02640232,,,,,,74.11,,S,29.39,27.3,,Clear
KIGQ,09/06/2016 00:35 UTC,30.04,79.16,73.76,83.6,6.91,190.0,,,,,,1.0,,,,10.0,,KIGQ 060035Z AUTO 19006KT 10SM CLR 26/23 A3004 RMK AO2  T02620232,,,,,,73.76,,S,29.39,27.34,,Clear
KIGQ,09/06/2016 00:55 UTC,30.04,77.54,73.4,88.7,4.61,190.0,,,,,,502.0,,,,10.0,,KIGQ 060055Z AUTO 19004KT 10SM SCT050 25/23 A3004 RMK AO2  T02530230,,,,,,73.93,,S,29.39,27.35,,Partly Cloudy
KIGQ,09/06/2016 01:15 UTC,30.05,76.1,72.86,88.7,5.75,180.0,,,,,,1.0,,,,10.0,,KIGQ 060115Z AUTO 18005KT 10SM CLR 25/23 A3005 RMK AO2  T02450227,,,,,,72.51,,S,29.4,27.49,,Clear
KIGQ,09/06/2016 01:35 UTC,30.06,76.28,73.4,88.7,4.61,190.0,,,,,,552.0,,,,10.0,,KIGQ 060135Z AUTO 19004KT 10SM SCT055 25/23 A3006 RMK AO2  T02460230,,,,,,72.69,,S,29.41,27.49,,Partly Cloudy
KIGQ,09/06/2016 01:55 UTC,30.07,77.36,73.76,88.7,6.91,180.0,,,,,,553.0,,,,10.0,,KIGQ 060155Z AUTO 18006KT 10SM BKN055 25/23 A3007 RMK AO2  T02520232,,,5500.0,,,73.75,,S,29.42,27.39,,Mostly Cloudy
KIGQ,09/06/2016 02:15 UTC,30.07,77.36,74.3,94.2,6.91,180.0,,,,,,552.0,,,,10.0,,KIGQ 060215Z AUTO 18006KT 10SM SCT055 25/24 A3007 RMK AO2  T02520235,,,,,,75.56,,S,29.42,27.24,,Partly Cloudy
KIGQ,09/06/2016 02:35 UTC,30.07,77.54,74.66,94.2,6.91,190.0,,,,,,472.0,552.0,,,10.0,,KIGQ 060235Z AUTO 19006KT 10SM SCT047 SCT055 25/24 A3007 RMK AO2  T02530237,,,,,,75.73,,S,29.42,27.22,,Partly Cloudy
KIGQ,09/06/2016 02:55 UTC,30.07,77.54,74.84,94.2,6.91,190.0,,,,,,472.0,552.0,,,10.0,,KIGQ 060255Z AUTO 19006KT 10SM SCT047 SCT055 25/24 A3007 RMK AO2  T02530238,,,,,,75.73,,S,29.42,27.22,,Partly Cloudy
KIGQ,09/06/2016 03:15 UTC,30.07,76.46,74.66,94.2,6.91,190.0,,,,,,452.0,,,,10.0,,KIGQ 060315Z AUTO 19006KT 10SM SCT045 25/24 A3007 RMK AO2  T02470237,,,,,,74.66,,S,29.42,27.33,,Partly Cloudy
KIGQ,09/06/2016 03:35 UTC,30.08,76.46,74.66,94.2,6.91,200.0,,,,,,1.0,,,,10.0,,KIGQ 060335Z AUTO 20006KT 10SM CLR 25/24 A3008 RMK AO2  T02470237,,,,,,74.66,,SSW,29.43,27.34,,Clear
KIGQ,09/06/2016 03:55 UTC,30.08,77.0,74.84,94.2,9.22,200.0,,,,,,1.0,,,,10.0,,KIGQ 060355Z AUTO 20008KT 10SM CLR 25/24 A3008 RMK AO2  T02500238,,,,,,75.2,,SSW,29.43,27.29,,Clear
KIGQ,09/06/2016 04:15 UTC,30.09,77.0,74.66,94.2,9.22,190.0,,,,,,1.0,,,,10.0,,KIGQ 060415Z AUTO 19008KT 10SM CLR 25/24 A3009 RMK AO2  T02500237,,,,,,75.2,,S,29.44,27.3,,Clear
KIGQ,09/06/2016 04:35 UTC,30.09,76.46,74.48,94.2,9.22,190.0,,,,,,1.0,,,,10.0,,KIGQ 060435Z AUTO 19008KT 10SM CLR 25/24 A3009 RMK AO2  T02470236,,,,,,74.66,,S,29.44,27.35,,Clear
KIGQ,09/06/2016 04:55 UTC,30.09,76.1,74.48,94.2,6.91,190.0,,,,,,1.0,,,,10.0,,KIGQ 060455Z AUTO 19006KT 10SM CLR 25/24 A3009 RMK AO2  T02450236,,,,,,74.3,,S,29.44,27.39,,Clear
KIGQ,09/06/2016 05:15 UTC,30.09,76.1,74.48,94.2,9.22,200.0,,,,,,1.0,,,,10.0,,KIGQ 060515Z AUTO 20008KT 10SM CLR 25/24 A3009 RMK AO2  T02450236,,,,,,74.3,,SSW,29.44,27.39,,Clear
KIGQ,09/06/2016 05:35 UTC,30.09,76.46,74.3,94.2,10.36,210.0,,,,,,1.0,,,,10.0,,KIGQ 060535Z AUTO 21009KT 10SM CLR 25/24 A3009 RMK AO2  T02470235,,,,,,74.66,,SSW,29.44,27.35,,Clear
KIGQ,09/06/2016 05:55 UTC,30.1,76.28,74.3,94.2,10.36,210.0,,,,,,1.0,,,,10.0,,KIGQ 060555Z AUTO 21009KT 10SM CLR 25/24 A3010 RMK AO2 T02460235  10271 20243 403070161,80.78,75.74,,87.26,60.98,74.48,,SSW,29.45,27.38,,Clear
KIGQ,09/06/2016 06:15 UTC,30.09,76.1,73.76,88.7,10.36,220.0,,,,,,1.0,,,,10.0,,KIGQ 060615Z AUTO 22009KT 10SM CLR 25/23 A3009 RMK AO2  T02450232,,,,,,72.51,,SW,29.44,27.53,,Clear
KIGQ,09/06/2016 06:35 UTC,30.09,75.56,73.4,94.16,8.05,200.0,,,,,,1.0,,,,10.0,,KIGQ 060635Z AUTO 20007KT 10SM CLR 24/23 A3009 RMK AO2  T02420230,,,,,,73.76,,SSW,29.44,27.44,,Clear
KIGQ,09/06/2016 06:55 UTC,30.1,75.2,73.4,94.16,5.75,210.0,,,,,,1.0,,,,10.0,,KIGQ 060655Z AUTO 21005KT 10SM CLR 24/23 A3010 RMK AO2  T02400230,,,,,,73.4,,SSW,29.45,27.49,,Clear
KIGQ,09/06/2016 07:15 UTC,30.1,74.48,73.04,94.16,6.91,210.0,,,,,,1.0,,,,10.0,,KIGQ 060715Z AUTO 21006KT 10SM CLR 24/23 A3010 RMK AO2  T02360228,,,,,,72.68,,SSW,29.45,27.56,,Clear
KIGQ,09/06/2016 07:35 UTC,30.09,73.94,72.86,100.0,6.91,220.0,,,,,,1.0,,,,10.0,,KIGQ 060735Z AUTO 22006KT 10SM CLR 23/23 A3009 RMK AO2  T02330227,,,,,,73.94,,SW,29.44,27.45,,Clear
KIGQ,09/06/2016 07:55 UTC,30.09,73.4,72.5,100.0,6.91,200.0,,,,,,1.0,,,,10.0,,KIGQ 060755Z AUTO 20006KT 10SM CLR 23/23 A3009 RMK AO2  T02300225,,,,,,73.4,,SSW,29.44,27.5,,Clear
KIGQ,09/06/2016 08:15 UTC,30.09,73.4,72.5,100.0,5.75,200.0,,,,,,1.0,,,,10.0,,KIGQ 060815Z AUTO 20005KT 10SM CLR 23/23 A3009 RMK AO2  T02300225,,,,,,73.4,,SSW,29.44,27.5,,Clear
KIGQ,09/06/2016 08:35 UTC,30.08,72.68,72.14,94.12,5.75,190.0,,,,,,1.0,,,,10.0,,KIGQ 060835Z AUTO 19005KT 10SM CLR 23/22 A3008 RMK AO2  T02260223,,,,,,70.88,,S,29.43,27.7,,Clear
KIGQ,09/06/2016 08:55 UTC,30.08,72.68,72.14,94.12,4.61,200.0,,,,,,1.0,,,,10.0,,KIGQ 060855Z AUTO 20004KT 10SM CLR 23/22 A3008 RMK AO2  T02260223,,,,,,70.88,,SSW,29.43,27.7,,Clear
KIGQ,09/06/2016 09:15 UTC,30.08,72.86,72.5,100.0,5.75,200.0,,,,,,1.0,,,,10.0,,KIGQ 060915Z AUTO 20005KT 10SM CLR 23/23 A3008 RMK AO2  T02270225,,,,,,72.86,,SSW,29.43,27.55,,Clear
KIGQ,09/06/2016 09:35 UTC,30.08,72.5,72.14,94.12,5.75,210.0,,,,,,1.0,,,,10.0,,KIGQ 060935Z AUTO 21005KT 10SM CLR 23/22 A3008 RMK AO2  T02250223,,,,,,70.7,,SSW,29.43,27.72,,Clear
KIGQ,09/06/2016 09:55 UTC,30.08,72.5,71.96,94.12,5.75,200.0,,,,,,1.0,,,,10.0,,KIGQ 060955Z AUTO 20005KT 10SM CLR 23/22 A3008 RMK AO2  T02250222,,,,,,70.7,,SSW,29.43,27.72,,Clear
KIGQ,09/06/2016 10:15 UTC,30.08,71.78,71.6,100.0,5.75,200.0,,,,,,1.0,,,,10.0,,KIGQ 061015Z AUTO 20005KT 10SM CLR 22/22 A3008 RMK AO2  T02210220,,,,,,71.78,,SSW,29.43,27.65,,Clear
KIGQ,09/06/2016 10:35 UTC,30.08,71.78,71.6,100.0,5.75,210.0,,,,,,1.0,,,,10.0,,KIGQ 061035Z AUTO 21005KT 10SM CLR 22/22 A3008 RMK AO2  T02210220,,,,,,71.78,,SSW,29.43,27.65,,Clear
KIGQ,09/06/2016 10:50 UTC,30.08,71.6,71.6,100.0,4.61,200.0,,,,,,1.0,,,,10.0,,KIGQ 061050Z AUTO 20004KT 10SM CLR 22/22 A3008 RMK AO2  T02200220,,,,,,71.6,,SSW,29.43,27.66,,Clear
KIGQ,09/06/2016 11:15 UTC,30.08,71.6,71.6,100.0,5.75,210.0,,,,,,1.0,,,,10.0,,KIGQ 061115Z AUTO 21005KT 10SM CLR 22/22 A3008 RMK AO2  T02200220,,,,,,71.6,,SSW,29.43,27.66,,Clear
KIGQ,09/06/2016 11:35 UTC,30.08,71.6,71.6,100.0,6.91,200.0,,,,,,1.0,,,,7.0,,KIGQ 061135Z AUTO 20006KT 7SM CLR 22/22 A3008 RMK AO2  T02200220,,,,,,71.6,,SSW,29.43,27.66,,Clear
KIGQ,09/06/2016 11:50 UTC,30.08,71.6,71.6,100.0,5.75,190.0,,,,,,1.0,,,,7.0,,KIGQ 061150Z AUTO 19005KT 7SM CLR 22/22 A3008 RMK AO2 T02200220  10245 20220,76.1,71.6,,,,71.6,,S,29.43,27.66,,Clear
KIGQ,09/06/2016 12:15 UTC,30.08,72.68,72.14,94.12,9.22,200.0,,,,,,1.0,,,,10.0,,KIGQ 061215Z AUTO 20008KT 10SM CLR 23/22 A3008 RMK AO2  T02260223,,,,,,70.88,,SSW,29.43,27.7,,Clear
KIGQ,09/06/2016 12:30 UTC,30.08,73.4,72.5,100.0,10.36,210.0,,,,,,1.0,,,,10.0,,KIGQ 061230Z AUTO 21009KT 10SM CLR 23/23 A3008 RMK AO2  T02300225,,,,,,73.4,,SSW,29.43,27.49,,Clear
KIGQ,09/06/2016 12:55 UTC,30.08,74.66,72.86,94.16,11.5,210.0,,,,,,1.0,,,,10.0,,KIGQ 061255Z AUTO 21010KT 10SM CLR 24/23 A3008 RMK AO2  T02370227,,,,,,72.86,,SSW,29.43,27.52,,Clear
KIGQ,09/06/2016 13:00 UTC,30.08,74.84,72.86,94.16,9.22,210.0,,,,,,1.0,,,,10.0,,KIGQ 061300Z AUTO 21008KT 10SM CLR 24/23 A3008 RMK AO2  T02380227,,,,,,73.04,,SSW,29.43,27.5,,Clear
KIGQ,09/06/2016 13:15 UTC,30.08,75.74,73.58,94.16,10.36,210.0,,,,,,1.0,,,,10.0,,KIGQ 061315Z AUTO 21009KT 10SM CLR 24/23 A3008 RMK AO2  T02430231,,,,,,73.93,,SSW,29.43,27.41,,Clear
KIGQ,09/06/2016 13:35 UTC,30.08,77.0,74.12,88.7,10.36,210.0,,,,,,1.0,,,,10.0,,KIGQ 061335Z AUTO 21009KT 10SM CLR 25/23 A3008 RMK AO2  T02500234,,,,,,73.4,,SSW,29.43,27.44,,Clear
KIGQ,09/06/2016 13:55 UTC,30.08,77.54,74.12,88.7,8.05,220.0,,,,,,1.0,,,,10.0,,KIGQ 061355Z AUTO 22007KT 10SM CLR 25/23 A3008 RMK AO2  T02530234,,,,,,73.93,,SW,29.43,27.39,,Clear
KIGQ,09/06/2016 14:15 UTC,30.09,78.8,75.02,88.78,8.05,230.0,,,,,,1.0,,,,10.0,,KIGQ 061415Z AUTO 23007KT 10SM CLR 26/24 A3009 RMK AO2  T02600239,,,,,,75.2,,SW,29.44,27.27,,Clear
KIGQ,09/06/2016 14:35 UTC,30.09,79.88,75.38,83.71,11.5,220.0,16.11,,,,,1.0,,,,10.0,,KIGQ 061435Z AUTO 22010G14KT 10SM CLR 27/24 A3009 RMK AO2  T02660241,,,,,,74.5,,SW,29.44,27.31,,Clear
KIGQ,09/06/2016 14:55 UTC,30.1,81.32,75.92,83.71,13.8,220.0,19.57,,,,,1.0,,,,10.0,,KIGQ 061455Z AUTO 22012G17KT 10SM CLR 27/24 A3010 RMK AO2  T02740244,,,,,,75.91,,SW,29.45,27.18,87.97,Clear
KIGQ,09/06/2016 15:15 UTC,30.1,82.4,76.46,83.83,11.5,230.0,,,,,,1.0,,,,10.0,,KIGQ 061515Z AUTO 23010KT 10SM CLR 28/25 A3010 RMK AO2  T02800247,,,,,,77.01,,SW,29.45,27.06,90.87,Clear
KIGQ,09/06/2016 15:35 UTC,30.1,83.3,76.82,79.11,12.66,230.0,16.11,,,,,1.0,,,,10.0,,KIGQ 061535Z AUTO 23011G14KT 210V320 10SM CLR 29/25 A3010 RMK AO2  T02850249,,,,,,76.15,,SW,29.45,27.13,91.8,Clear
KIGQ,09/06/2016 15:55 UTC,30.1,84.38,77.18,79.11,13.8,210.0,,,,,,1.0,,,,10.0,,KIGQ 061555Z AUTO 21012KT 10SM CLR 29/25 A3010 RMK AO2  T02910251,,,,,,77.2,,SSW,29.45,27.01,94.68,Clear
KIGQ,09/06/2016 16:15 UTC,30.1,85.46,77.36,74.69,11.5,220.0,,,,,,1.0,,,,10.0,,KIGQ 061615Z AUTO 22010KT 10SM CLR 30/25 A3010 RMK AO2  T02970252,,,,,,76.52,,SW,29.45,27.06,95.75,Clear
KIGQ,09/06/2016 16:35 UTC,30.1,86.18,77.54,74.69,10.36,220.0,18.41,,,,,1.0,,,,10.0,,KIGQ 061635Z AUTO 22009G16KT 10SM CLR 30/25 A3010 RMK AO2  T03010253,,,,,,77.21,,SW,29.45,26.99,97.68,Clear
KIGQ,09/06/2016 16:55 UTC,30.1,86.72,77.18,74.69,13.8,220.0,18.41,,,,,292.0,,,,10.0,,KIGQ 061655Z AUTO 22012G16KT 10SM SCT029 30/25 A3010 RMK AO2  T03040251,,,,,,77.73,,SW,29.45,26.93,99.19,Partly Cloudy
KIGQ,09/06/2016 17:15 UTC,30.09,87.98,77.9,74.85,12.66,220.0,16.11,,,,,312.0,,,,10.0,,KIGQ 061715Z AUTO 22011G14KT 10SM SCT031 31/26 A3009 RMK AO2  T03110255,,,,,,79.02,,SW,29.44,26.77,102.96,Partly Cloudy
KIGQ,09/06/2016 17:35 UTC,30.09,87.8,77.36,70.54,12.66,210.0,,,,,,332.0,,,,10.0,,KIGQ 061735Z AUTO 21011KT 10SM SCT033 31/25 A3009 RMK AO2  T03100252,,,,,,77.05,,SSW,29.44,26.97,99.97,Partly Cloudy
KIGQ,09/06/2016 17:55 UTC,30.08,88.7,77.18,66.66,10.36,210.0,19.57,,802.0,,,352.0,432.0,,,10.0,,KIGQ 061755Z AUTO 21009G17KT 10SM SCT035 SCT043 SCT080 32/25  A3008 RMK AO2 T03150251 10315 20221,88.7,71.78,,,,76.21,,SSW,29.43,27.03,100.21,Partly Cloudy
KIGQ,09/06/2016 18:15 UTC,30.08,89.24,77.36,66.66,14.97,220.0,18.41,,552.0,,,352.0,462.0,,,10.0,,KIGQ 061815Z AUTO 22013G16KT 10SM SCT035 SCT046 SCT055 32/25  A3008 RMK AO2 T03180252,,,,,,76.73,,SW,29.43,26.97,101.63,Partly Cloudy
KIGQ,09/06/2016 18:35 UTC,30.07,89.42,76.28,66.66,14.97,210.0,19.57,,802.0,,,402.0,502.0,,,10.0,,KIGQ 061835Z AUTO 21013G17KT 10SM SCT040 SCT050 SCT080 32/25  A3007 RMK AO2 T03190246,,,,,,76.9,,SSW,29.42,26.94,102.12,Partly Cloudy
KIGQ,09/06/2016 18:55 UTC,30.06,90.5,76.82,63.02,16.11,210.0,20.71,,802.0,,,422.0,552.0,,,10.0,,KIGQ 061855Z AUTO 21014G18KT 10SM SCT042 SCT055 SCT080 33/25  A3006 RMK AO2 T03250249,,,,,,76.24,,SSW,29.41,26.98,102.73,Partly Cloudy
KIGQ,09/06/2016 19:15 UTC,30.05,89.78,76.46,66.66,12.66,250.0,,,752.0,,,422.0,502.0,,,10.0,,KIGQ 061915Z AUTO 25011KT 10SM SCT042 SCT050 SCT075 32/25  A3005 RMK AO2 T03210247,,,,,,77.24,,WSW,29.4,26.88,103.1,Partly Cloudy
KIGQ,09/06/2016 19:35 UTC,30.05,90.5,75.92,59.36,13.8,230.0,20.71,,,,,442.0,552.0,,,10.0,,KIGQ 061935Z AUTO 23012G18KT 10SM SCT044 SCT055 33/24 A3005 RMK AO2 T03250244,,,,,,74.45,,SW,29.4,27.14,100.51,Partly Cloudy
KIGQ,09/06/2016 19:55 UTC,30.04,89.06,76.28,66.66,12.66,210.0,18.41,,,,,442.0,502.0,,,10.0,,KIGQ 061955Z AUTO 21011G16KT 10SM SCT044 SCT050 32/25 A3004 RMK AO2 T03170246,,,,,,76.56,,SSW,29.39,26.95,101.15,Partly Cloudy
KIGQ,09/06/2016 20:15 UTC,30.04,89.24,75.38,62.8,11.5,220.0,,,,,,442.0,503.0,,,10.0,,KIGQ 062015Z AUTO 22010KT 10SM SCT044 BKN050 32/24 A3004 RMK AO2  T03180241,,,5000.0,,,74.94,,SW,29.39,27.1,99.41,Mostly Cloudy
KIGQ,09/06/2016 20:35 UTC,30.03,88.7,75.2,62.8,10.36,220.0,,,802.0,,,442.0,502.0,,,10.0,,KIGQ 062035Z AUTO 22009KT 10SM SCT044 SCT050 SCT080 32/24  A3003 RMK AO2 T03150240,,,,,,74.43,,SW,29.38,27.14,98.11,Partly Cloudy
KIGQ,09/06/2016 20:55 UTC,30.01,90.14,75.56,62.8,12.66,220.0,20.71,,,,,482.0,702.0,,,10.0,,KIGQ 062055Z AUTO 22011G18KT 10SM SCT048 SCT070 32/24 A3001 RMK AO2 T03230242,,,,,,75.79,,SW,29.36,26.98,101.67,Partly Cloudy
KIGQ,09/06/2016 21:15 UTC,30.02,89.6,75.38,62.8,11.5,220.0,14.97,,,,,462.0,,,,10.0,,KIGQ 062115Z AUTO 22010G13KT 10SM SCT046 32/24 A3002 RMK AO2  T03200241,,,,,,75.28,,SW,29.37,27.04,100.3,Partly Cloudy
KIGQ,09/06/2016 21:35 UTC,30.01,89.78,75.2,62.8,14.97,220.0,,,,,,462.0,,,,10.0,,KIGQ 062135Z AUTO 22013KT 10SM SCT046 32/24 A3001 RMK AO2  T03210240,,,,,,75.45,,SW,29.36,27.01,100.75,Partly Cloudy
KIGQ,09/06/2016 21:55 UTC,30.01,89.6,75.2,62.8,16.11,210.0,23.02,,,,,452.0,,,,10.0,,KIGQ 062155Z AUTO 21014G20KT 10SM SCT045 32/24 A3001 RMK AO2  T03200240,,,,,,75.28,,SSW,29.36,27.03,100.3,Partly Cloudy
KIGQ,09/06/2016 22:15 UTC,30.01,88.88,76.28,66.66,12.66,210.0,19.57,,,,,452.0,,,,10.0,,KIGQ 062215Z AUTO 21011G17KT 10SM SCT045 32/25 A3001 RMK AO2  T03160246,,,,,,76.38,,SSW,29.36,26.94,100.68,Partly Cloudy
KIGQ,09/06/2016 22:35 UTC,30.01,88.34,76.1,70.54,11.5,200.0,,,,,,1.0,,,,10.0,,KIGQ 062235Z AUTO 20010KT 10SM CLR 31/25 A3001 RMK AO2  T03130245,,,,,,77.57,,SSW,29.36,26.83,101.46,Clear
KIGQ,09/06/2016 22:55 UTC,30.01,87.8,76.28,70.54,10.36,210.0,,,,,,1.0,,,,10.0,,KIGQ 062255Z AUTO 21009KT 10SM CLR 31/25 A3001 RMK AO2  T03100246,,,,,,77.05,,SSW,29.36,26.89,99.97,Clear
KIGQ,09/06/2016 23:15 UTC,30.01,86.54,76.1,74.69,11.5,200.0,,,,,,1.0,,,,10.0,,KIGQ 062315Z AUTO 20010KT 10SM CLR 30/25 A3001 RMK AO2  T03030245,,,,,,77.56,,SSW,29.36,26.86,98.68,Clear
KIGQ,09/06/2016 23:35 UTC,30.0,85.64,76.1,74.69,8.05,200.0,,,,,,1.0,,,,10.0,,KIGQ 062335Z AUTO 20007KT 10SM CLR 30/25 A3000 RMK AO2  T02980245,,,,,,76.69,,SSW,29.35,26.94,96.22,Clear
KIGQ,09/06/2016 23:55 UTC,30.0,84.92,75.56,74.52,9.22,200.0,,,,,,1.0,,,,10.0,,KIGQ 062355Z AUTO 20008KT 10SM CLR 29/24 A3000 RMK AO2 T02940242  10326 20294,90.68,84.92,,,,75.92,,SSW,29.35,27.02,94.27,Clear
KIGQ,09/07/2016 00:15 UTC,30.0,83.12,75.56,78.97,8.05,190.0,,,,,,1.0,,,,10.0,,KIGQ 070015Z AUTO 19007KT 10SM CLR 28/24 A3000 RMK AO2  T02840242,,,,,,75.92,,S,29.35,27.05,91.29,Clear
KIGQ,09/07/2016 00:35 UTC,30.01,81.32,75.74,83.71,6.91,190.0,,,,,,1.0,,,,10.0,,KIGQ 070035Z AUTO 19006KT 10SM CLR 27/24 A3001 RMK AO2  T02740243,,,,,,75.91,,S,29.36,27.09,87.97,Clear
KIGQ,09/07/2016 00:55 UTC,30.02,80.78,75.74,83.71,5.75,190.0,,,,,,1.0,,,,10.0,,KIGQ 070055Z AUTO 19005KT 10SM CLR 27/24 A3002 RMK AO2 LTG DSNT N  T02710243,,,,,,75.38,,S,29.37,27.15,86.62,Clear
KIGQ,09/07/2016 01:15 UTC,30.03,80.6,75.56,83.71,6.91,190.0,,,,,,1.0,,,,10.0,,KIGQ 070115Z AUTO 19006KT 10SM CLR 27/24 A3003 RMK AO2  T02700242,,,,,,75.21,,S,29.38,27.18,86.17,Clear
KIGQ,09/07/2016 01:35 UTC,30.03,80.06,,85.71,6.91,190.0,,,,,,602.0,,,,10.0,,,,,,,,75.39,,S,29.38,27.17,85.27,Partly Cloudy
KIGQ,09/07/2016 01:55 UTC,30.03,79.7,,86.21,6.91,180.0,,,,,,502.0,602.0,,,10.0,,,,,,,,75.21,,S,29.38,27.19,,Partly Cloudy
KIGQ,09/07/2016 02:15 UTC,30.04,79.16,,87.74,6.91,190.0,,,,,,502.0,,,,10.0,,,,,,,,75.2,,S,29.39,27.21,,Partly Cloudy
KIGQ,09/07/2016 02:35 UTC,30.04,79.16,,87.74,8.05,190.0,,,,,,1.0,,,,10.0,,,,,,,,75.2,,S,29.39,27.21,,Clear
KIGQ,09/07/2016 02:55 UTC,30.04,79.16,,87.74,9.22,200.0,,,,,,1.0,,,,10.0,,,,,,,,75.2,,SSW,29.39,27.21,,Clear
KIGQ,09/07/2016 03:15 UTC,30.05,78.8,,88.78,6.91,190.0,,,,,,1.0,,,,10.0,,,,,,,,75.2,,S,29.4,27.23,,Clear
KIGQ,09/07/2016 03:35 UTC,30.05,78.08,,90.91,6.91,210.0,,,,,,1.0,,,,10.0,,,,,,,,75.2,,SSW,29.4,27.24,,Clear
KIGQ,09/07/2016 03:55 UTC,30.06,78.26,,90.37,6.91,210.0,,,,,,1.0,,,,10.0,,,,,,,,75.2,,SSW,29.41,27.25,,Clear
KIGQ,09/07/2016 04:15 UTC,30.06,77.9,,91.45,5.75,200.0,,,,,,1.0,,,,10.0,,,,,,,,75.2,,SSW,29.41,27.25,,Clear
KIGQ,09/07/2016 04:35 UTC,30.05,77.0,,94.2,5.75,210.0,,,,,,1.0,,,,10.0,,,,,,,,75.2,,SSW,29.4,27.26,,Clear
KIGQ,09/07/2016 04:55 UTC,30.05,77.0,,94.2,6.91,220.0,,,,,,1.0,,,,10.0,,,,,,,,75.2,,SW,29.4,27.26,,Clear
KIGQ,09/07/2016 05:15 UTC,30.04,77.0,,94.2,6.91,210.0,,,,,,1.0,,,,10.0,,,,,,,,75.2,,SSW,29.39,27.25,,Clear
KIGQ,09/07/2016 05:35 UTC,30.04,77.18,,93.65,10.36,220.0,,,,,,1.0,,,,10.0,,,,,,,,75.2,,SW,29.39,27.24,,Clear
KIGQ,09/07/2016 05:55 UTC,30.04,77.72,,91.44,9.22,220.0,,,,,,1.0,,,,10.0,,,84.74,76.64,,90.68,71.6,75.02,,SW,29.39,27.25,,Clear
KIGQ,09/07/2016 06:15 UTC,30.04,77.36,,93.09,8.05,210.0,,,,,,1.0,,,,10.0,,,,,,,,75.2,,SSW,29.39,27.24,,Clear
KIGQ,09/07/2016 06:35 UTC,30.04,77.0,,94.2,8.05,220.0,,,,,,1.0,,,,10.0,,,,,,,,75.2,,SW,29.39,27.25,,Clear
KIGQ,09/07/2016 06:55 UTC,30.04,77.0,,94.2,8.05,220.0,,,,,,1.0,,,,10.0,,,,,,,,75.2,,SW,29.39,27.25,,Clear
KIGQ,09/07/2016 07:15 UTC,30.03,76.46,,93.63,5.75,220.0,,,,,,1.0,,,,10.0,,,,,,,,74.48,,SW,29.38,27.31,,Clear
KIGQ,09/07/2016 07:35 UTC,30.03,76.1,,94.75,6.91,210.0,,,,,,1.0,,,,10.0,,,,,,,,74.48,,SSW,29.38,27.31,,Clear
KIGQ,09/07/2016 07:55 UTC,30.03,75.56,,95.89,5.75,200.0,,,,,,1.0,,,,10.0,,,,,,,,74.3,,SSW,29.38,27.33,,Clear
KIGQ,09/07/2016 08:15 UTC,30.04,75.2,,100.0,8.05,210.0,,,,,,482.0,,,,10.0,,,,,,,,75.2,,SSW,29.39,27.27,,Partly Cloudy
KIGQ,09/07/2016 08:35 UTC,30.04,75.2,,100.0,6.91,210.0,,,,,,482.0,,,,10.0,,,,,,,,75.2,,SSW,29.39,27.27,,Partly Cloudy
KIGQ,09/07/2016 08:55 UTC,30.03,74.84,,97.62,5.75,200.0,,,,,,1.0,,,,10.0,,,,,,,,74.12,,SSW,29.38,27.36,,Clear
KIGQ,09/07/2016 09:15 UTC,30.03,74.66,,97.62,6.91,200.0,,,,,,1.0,,,,10.0,,,,,,,,73.94,,SSW,29.38,27.38,,Clear
KIGQ,09/07/2016 09:35 UTC,30.03,74.3,,98.21,5.75,210.0,,,,,,1.0,,,,10.0,,,,,,,,73.76,,SSW,29.38,27.4,,Clear
KIGQ,09/07/2016 09:55 UTC,30.03,74.3,,97.62,4.61,210.0,,,,,,1.0,,,,10.0,,,,,,,,73.58,,SSW,29.38,27.41,,Clear
KIGQ,09/07/2016 10:15 UTC,30.03,73.94,,98.8,4.61,220.0,,,,,,1.0,,,,10.0,,,,,,,,73.58,,SW,29.38,27.42,,Clear
KIGQ,09/07/2016 10:35 UTC,30.04,73.94,,98.8,4.61,210.0,,,,,,1.0,,,,10.0,,,,,,,,73.58,,SSW,29.39,27.43,,Clear
KIGQ,09/07/2016 10:55 UTC,30.04,73.94,,98.8,5.75,210.0,,,,,,1.0,,,,10.0,,,,,,,,73.58,,SSW,29.39,27.43,,Clear
KIGQ,09/07/2016 11:15 UTC,30.04,73.94,,98.8,6.91,210.0,,,,,,1.0,,,,10.0,,,,,,,,73.58,,SSW,29.39,27.43,,Clear
KIGQ,09/07/2016 11:35 UTC,30.04,73.94,,98.8,5.75,220.0,,,702.0,,,492.0,602.0,,,10.0,,,,,,,,73.58,,SW,29.39,27.43,,Partly Cloudy
KIGQ,09/07/2016 11:55 UTC,30.04,74.3,,98.21,6.91,210.0,,,802.0,,,492.0,702.0,,,10.0,,,77.54,73.58,,,,73.76,,SSW,29.39,27.41,,Partly Cloudy
KIGQ,09/07/2016 12:15 UTC,30.05,74.66,,97.62,4.61,210.0,,,,,,602.0,702.0,,,10.0,,,,,,,,73.94,,SSW,29.4,27.4,,Partly Cloudy
KIGQ,09/07/2016 12:35 UTC,30.05,76.1,,95.32,6.91,210.0,,,,,,1.0,,,,10.0,,,,,,,,74.66,,SSW,29.4,27.32,,Clear
KIGQ,09/07/2016 12:55 UTC,30.05,76.64,,93.63,8.05,220.0,,,852.0,,,652.0,752.0,,,10.0,,,,,,,,74.66,,SW,29.4,27.31,,Partly Cloudy
KIGQ,09/07/2016 13:15 UTC,30.04,77.9,,91.45,10.36,220.0,,,,,,652.0,752.0,,,10.0,,,,,,,,75.2,,SW,29.39,27.23,,Partly Cloudy
KIGQ,09/07/2016 13:35 UTC,30.04,78.44,,90.92,11.5,220.0,,,853.0,,,603.0,703.0,,,10.0,,,,,6000.0,,,75.56,,SW,29.39,27.19,,Mostly Cloudy
KIGQ,09/07/2016 13:55 UTC,30.04,78.8,,88.78,10.36,220.0,,,853.0,,,603.0,753.0,,,10.0,,,,,6000.0,,,75.2,,SW,29.39,27.22,,Mostly Cloudy
KIGQ,09/07/2016 14:15 UTC,30.04,80.06,,89.37,9.22,220.0,,,,,,602.0,,,,10.0,,,,,,,,76.64,,SW,29.39,27.07,86.32,Partly Cloudy
KIGQ,09/07/2016 14:35 UTC,30.04,81.68,,85.29,11.5,230.0,,,803.0,,,602.0,752.0,,,10.0,,,,,8000.0,,,76.83,,SW,29.39,27.03,89.33,Mostly Cloudy
KIGQ,09/07/2016 14:55 UTC,30.04,82.76,,82.37,10.36,220.0,,,,,,602.0,852.0,,,10.0,,,,,,,,76.84,,SW,29.39,27.01,91.41,Partly Cloudy
KIGQ,09/07/2016 15:15 UTC,30.04,82.58,,81.86,9.22,220.0,,,,,,1.0,,,,10.0,,,,,,,,76.47,,SW,29.39,27.05,90.77,Clear
KIGQ,09/07/2016 15:35 UTC,30.03,82.94,,80.92,10.36,220.0,,,,,,1.0,,,,10.0,,,,,,,,76.48,,SW,29.38,27.03,91.44,Clear
KIGQ,09/07/2016 15:55 UTC,30.03,83.66,,79.07,10.36,210.0,,,,,,1.0,,,,10.0,,,,,,,,76.48,,SSW,29.38,27.02,92.72,Clear
KIGQ,09/07/2016 16:15 UTC,30.02,85.46,,75.53,9.22,200.0,,,,,,1.0,,,,10.0,,,,,,,,76.85,,SSW,29.37,26.95,96.12,Clear
KIGQ,09/07/2016 16:35 UTC,30.02,86.72,,71.71,12.66,230.0,17.27,,,,,1.0,,,,10.0,,,,,,,,76.51,,SW,29.37,26.96,97.69,Clear
KIGQ,09/07/2016 16:55 UTC,30.01,87.44,,71.35,13.8,210.0,17.27,,,,,1.0,,,,10.0,,,,,,,,77.05,,SSW,29.36,26.89,99.43,Clear
KIGQ,09/07/2016 17:15 UTC,30.01,88.7,,69.39,13.8,220.0,17.27,,,,,1.0,,,,10.0,,,,,,,,77.42,,SW,29.36,26.84,101.79,Clear
KIGQ,09/07/2016 17:35 UTC,29.99,89.6,76.1,66.66,12.66,210.0,24.16,,,,,392.0,,,,10.0,,KIGQ 071735Z AUTO 21011G21KT 10SM SCT039 32/25 A2999 RMK AO2 LTG  DSNT NW T03200245,,,,,,77.07,,SSW,29.34,26.84,102.61,Partly Cloudy
KIGQ,09/07/2016 17:55 UTC,29.98,89.78,75.74,62.8,13.8,220.0,23.02,,953.0,,,422.0,603.0,,,10.0,,KIGQ 071755Z AUTO 22012G20KT 10SM SCT042 BKN060 BKN095 32/24  A2998 RMK AO2 LTG DSNT N T03210243 10325 20235,90.5,74.3,6000.0,,,75.45,,SW,29.33,26.98,100.75,Mostly Cloudy
KIGQ,09/07/2016 18:15 UTC,29.99,91.22,76.1,63.02,14.97,210.0,25.32,,752.0,,,442.0,552.0,,,10.0,,KIGQ 071815Z AUTO 21013G22KT 10SM SCT044 SCT055 SCT075 33/25  A2999 RMK AO2 LTG DSNT N T03290245,,,,,,76.93,,SSW,29.34,26.84,104.65,Partly Cloudy
KIGQ,09/07/2016 18:35 UTC,29.99,89.06,75.74,62.8,12.66,230.0,,,,,,462.0,,,,10.0,,KIGQ 071835Z AUTO 23011KT 10SM SCT046 32/24 A2999 RMK AO2  T03170243,,,,,,74.77,,SW,29.34,27.07,98.97,Partly Cloudy
KIGQ,09/07/2016 18:55 UTC,29.99,88.7,75.02,62.8,8.05,210.0,18.41,,,,,462.0,552.0,,,10.0,,KIGQ 071855Z AUTO 21007G16KT 10SM SCT046 SCT055 32/24 A2999 RMK AO2 T03150239,,,,,,74.43,,SSW,29.34,27.1,98.11,Partly Cloudy
KIGQ,09/07/2016 19:15 UTC,29.97,89.78,75.2,62.8,16.11,220.0,23.02,,,,,462.0,552.0,,,10.0,,KIGQ 071915Z AUTO 22014G20KT 10SM SCT046 SCT055 32/24 A2997 RMK AO2 T03210240,,,,,,75.45,,SW,29.32,26.97,100.75,Partly Cloudy
KIGQ,09/07/2016 19:35 UTC,29.96,88.88,74.66,62.8,13.8,220.0,24.16,,,,,482.0,,,,10.0,,KIGQ 071935Z AUTO 22012G21KT 10SM SCT048 32/24 A2996 RMK AO2  T03160237,,,,,,74.6,,SW,29.31,27.05,98.54,Partly Cloudy
KIGQ,09/07/2016 19:55 UTC,29.95,90.68,74.48,59.36,18.41,210.0,24.16,,,,,482.0,552.0,,,10.0,,KIGQ 071955Z AUTO 21016G21KT 10SM SCT048 SCT055 33/24 A2995 RMK AO2 T03260236,,,,,,74.62,,SSW,29.3,27.02,100.94,Partly Cloudy
KIGQ,09/07/2016 20:15 UTC,29.94,90.5,74.12,55.9,16.11,200.0,24.16,,,,,482.0,552.0,,,10.0,,KIGQ 072015Z AUTO 20014G21KT 10SM SCT048 SCT055 33/23 A2994 RMK AO2 T03250234,,,,,,72.67,,SSW,29.29,27.18,98.55,Partly Cloudy
KIGQ,09/07/2016 20:35 UTC,29.93,89.78,73.22,59.13,16.11,210.0,23.02,,,,,502.0,,,,10.0,,KIGQ 072035Z AUTO 21014G20KT 10SM SCT050 32/23 A2993 RMK AO2  T03210229,,,,,,73.66,,SSW,29.28,27.1,98.68,Partly Cloudy
KIGQ,09/07/2016 20:55 UTC,29.92,90.14,74.12,59.13,16.11,210.0,21.85,,,,,502.0,,,,10.0,,KIGQ 072055Z AUTO 21014G19KT 10SM SCT050 32/23 A2992 RMK AO2  T03230234,,,,,,74.0,,SSW,29.27,27.05,99.52,Partly Cloudy
KIGQ,09/07/2016 21:15 UTC,29.93,89.78,73.04,59.13,18.41,210.0,21.85,,,,,502.0,,,,10.0,,KIGQ 072115Z AUTO 21016G19KT 10SM SCT050 32/23 A2993 RMK AO2 LTG  DSNT NW T03210228,,,,,,73.66,,SSW,29.28,27.1,98.68,Partly Cloudy
KIGQ,09/07/2016 21:35 UTC,29.92,89.24,73.76,59.13,17.27,210.0,23.02,,,,,502.0,,,,10.0,,KIGQ 072135Z AUTO 21015G20KT 10SM SCT050 32/23 A2992 RMK AO2  T03180232,,,,,,73.15,,SSW,29.27,27.14,97.45,Partly Cloudy
KIGQ,09/07/2016 21:55 UTC,29.93,88.16,72.86,62.58,17.27,220.0,24.16,,,,,502.0,,,,10.0,,KIGQ 072155Z AUTO 22015G21KT 10SM SCT050 31/23 A2993 RMK AO2 LTG  DSNT NW T03120227,,,,,,73.81,,SW,29.28,27.1,96.73,Partly Cloudy
KIGQ,09/07/2016 22:15 UTC,29.93,87.44,71.42,58.89,12.66,220.0,19.57,,,,,652.0,,,,10.0,,KIGQ 072215Z AUTO 22011G17KT 10SM SCT065 31/22 A2993 RMK AO2 LTG  DSNT NW T03080219,,,,,,71.33,,SW,29.28,27.32,93.49,Partly Cloudy
KIGQ,09/07/2016 22:35 UTC,29.93,86.72,71.6,62.35,11.5,220.0,20.71,,,,,1.0,,,,10.0,,KIGQ 072235Z AUTO 22010G18KT 10SM CLR 30/22 A2993 RMK AO2 LTG DSNT  NW T03040220,,,,,,72.34,,SW,29.28,27.25,93.45,Clear
KIGQ,09/07/2016 22:55 UTC,29.93,85.64,72.5,66.25,10.36,210.0,,,,,,1.0,,,,10.0,,KIGQ 072255Z AUTO 21009KT 10SM CLR 30/23 A2993 RMK AO2 LTG DSNT NW  T02980225,,,,,,73.11,,SSW,29.28,27.19,92.7,Clear
KIGQ,09/07/2016 23:15 UTC,29.93,85.1,72.68,66.25,11.5,210.0,,,,,,1.0,,,,10.0,,KIGQ 072315Z AUTO 21010KT 10SM CLR 30/23 A2993 RMK AO2  T02950226,,,,,,72.59,,SSW,29.28,27.24,91.54,Clear
KIGQ,09/07/2016 23:35 UTC,29.92,84.56,72.68,70.17,9.22,190.0,,,,,,1.0,,,,10.0,,KIGQ 072335Z AUTO 19008KT 10SM CLR 29/23 A2992 RMK AO2  T02920226,,,,,,73.78,,S,29.27,27.14,91.77,Clear
KIGQ,09/07/2016 23:55 UTC,29.93,83.84,73.04,70.17,11.5,210.0,,,,,,1.0,,,,10.0,,KIGQ 072355Z AUTO 21010KT 10SM CLR 29/23 A2993 RMK AO2 T02880228  10329 20286,91.22,83.48,,,,73.09,,SSW,29.28,27.22,90.18,Clear
KIGQ,09/08/2016 00:15 UTC,29.93,83.66,72.68,70.17,11.5,210.0,16.11,,,,,1102.0,,,,10.0,,KIGQ 080015Z AUTO 21010G14KT 10SM SCT110 29/23 A2993 RMK AO2  T02870226,,,,,,72.91,,SSW,29.28,27.23,89.8,Partly Cloudy
KIGQ,09/08/2016 00:35 UTC,29.93,83.66,72.5,70.17,10.36,210.0,16.11,,,,,1103.0,,,,10.0,,KIGQ 080035Z AUTO 21009G14KT 10SM BKN110 29/23 A2993 RMK AO2  T02870225,,,11000.0,,,72.91,,SSW,29.28,27.23,89.8,Mostly Cloudy
KIGQ,09/08/2016 00:55 UTC,29.93,81.14,73.76,78.82,9.22,220.0,,13.0,1103.0,,,602.0,802.0,,,10.0,,KIGQ 080055Z AUTO 22008KT 10SM -RA SCT060 SCT080 BKN110 27/23  A2993 RMK AO2 T02730232,,,11000.0,,,73.93,,SW,29.28,27.18,86.52,Light Rain
KIGQ,09/08/2016 01:15 UTC,29.93,80.06,74.12,78.82,16.11,210.0,20.71,13.0,1102.0,,,752.0,802.0,,,10.0,,KIGQ 080115Z AUTO 21014G18KT 10SM -RA SCT075 SCT080 SCT110 27/23  A2993 RMK AO2 T02670234,,,,,,72.88,,SSW,29.28,27.28,84.2,Light Rain
KIGQ,09/08/2016 01:35 UTC,29.93,80.24,72.86,78.82,14.97,220.0,27.63,,,,,1.0,,,,10.0,,KIGQ 080135Z AUTO 22013G24KT 10SM CLR 27/23 A2993 RMK AO2  T02680227,,,,,,73.06,,SW,29.28,27.27,84.57,Clear
KIGQ,09/08/2016 01:55 UTC,29.93,77.18,73.04,88.7,19.57,230.0,24.16,1.0,,,,752.0,1103.0,,,10.0,,KIGQ 080155Z AUTO 23017G21KT 10SM RA SCT075 BKN110 25/23 A2993 RMK AO2 T02510228,,,11000.0,,,73.58,,SW,29.28,27.27,,Rain
KIGQ,09/08/2016 02:15 UTC,29.93,77.0,72.86,88.7,12.66,230.0,17.27,,1203.0,,,702.0,852.0,,,10.0,,KIGQ 080215Z AUTO 23011G15KT 10SM SCT070 SCT085 BKN120 25/23  A2993 RMK AO2 T02500227,,,12000.0,,,73.4,,SW,29.28,27.29,,Mostly Cloudy
KIGQ,09/08/2016 02:35 UTC,29.93,76.82,72.68,88.7,11.5,240.0,16.11,,,,,1202.0,,,,10.0,,KIGQ 080235Z AUTO 24010G14KT 10SM SCT120 25/23 A2993 RMK AO2  T02490226,,,,,,73.22,,WSW,29.28,27.3,,Partly Cloudy
KIGQ,09/08/2016 02:55 UTC,29.93,76.28,72.68,88.7,10.36,220.0,,,,,,1.0,,,,10.0,,KIGQ 080255Z AUTO 22009KT 10SM CLR 25/23 A2993 RMK AO2  T02460226,,,,,,72.69,,SW,29.28,27.36,,Clear
KIGQ,09/08/2016 03:15 UTC,29.93,75.92,72.32,88.62,11.5,230.0,,,,,,1.0,,,,10.0,,KIGQ 080315Z AUTO 23010KT 10SM CLR 24/22 A2993 RMK AO2  T02440224,,,,,,72.31,,SW,29.28,27.39,,Clear
KIGQ,09/08/2016 03:35 UTC,29.91,75.56,71.6,88.62,10.36,220.0,,,,,,1.0,,,,10.0,,KIGQ 080335Z AUTO 22009KT 10SM CLR 24/22 A2991 RMK AO2  T02420220,,,,,,71.95,,SW,29.26,27.4,,Clear
KIGQ,09/08/2016 03:55 UTC,29.91,75.56,71.6,88.62,11.5,220.0,17.27,,,,,1.0,,,,10.0,,KIGQ 080355Z AUTO 22010G15KT 10SM CLR 24/22 A2991 RMK AO2  T02420220,,,,,,71.95,,SW,29.26,27.4,,Clear
KIGQ,09/08/2016 04:15 UTC,29.92,75.56,71.6,88.62,12.66,230.0,,,,,,1002.0,,,,10.0,,KIGQ 080415Z AUTO 23011KT 10SM SCT100 24/22 A2992 RMK AO2  T02420220,,,,,,71.95,,SW,29.27,27.41,,Partly Cloudy
KIGQ,09/08/2016 04:35 UTC,29.91,75.38,72.14,88.62,12.66,230.0,18.41,13.0,1003.0,,,492.0,602.0,,,10.0,,KIGQ 080435Z AUTO 23011G16KT 10SM -RA SCT049 SCT060 BKN100 24/22  A2991 RMK AO2 T02410223,,,10000.0,,,71.77,,SW,29.26,27.42,,Light Rain
KIGQ,09/08/2016 04:55 UTC,29.9,74.84,72.5,94.16,9.22,230.0,,13.0,754.0,,,493.0,603.0,,,10.0,,KIGQ 080455Z AUTO 23008KT 10SM -RA BKN049 BKN060 OVC075 24/23  A2990 RMK AO2 T02380225,,,4900.0,,,73.04,,SW,29.25,27.32,,Light Rain
KIGQ,09/08/2016 05:15 UTC,29.91,74.48,72.86,94.16,9.22,230.0,,13.0,1104.0,,,602.0,752.0,,,10.0,,KIGQ 080515Z AUTO 23008KT 10SM -RA SCT060 SCT075 OVC110 24/23  A2991 RMK AO2 T02360227,,,11000.0,,,72.68,,SW,29.26,27.36,,Light Rain
KIGQ,09/08/2016 05:35 UTC,29.91,74.3,73.04,94.16,10.36,230.0,17.27,13.0,,,,1103.0,,,,10.0,,KIGQ 080535Z AUTO 23009G15KT 10SM -RA BKN110 24/23 A2991 RMK AO2  T02350228,,,11000.0,,,72.5,,SW,29.26,27.38,,Light Rain
KIGQ,09/08/2016 05:55 UTC,29.91,74.3,73.22,94.16,13.8,230.0,17.27,13.0,,,,1103.0,,,,10.0,,KIGQ 080555Z AUTO 23012G15KT 10SM -RA BKN110 24/23 A2991 RMK AO2  T02350229 10288 20235 403290231,83.84,74.3,11000.0,91.22,73.58,72.5,,SW,29.26,27.38,,Light Rain
KIGQ,09/08/2016 06:15 UTC,29.91,74.3,73.4,94.16,10.36,250.0,17.27,1.0,,0.01,,1203.0,,,,10.0,,KIGQ 080615Z AUTO 25009G15KT 10SM RA BKN120 24/23 A2991 RMK AO2  LTG DSNT SW P0001 T02350230,,,12000.0,,,72.5,,WSW,29.26,27.38,,Rain
KIGQ,09/08/2016 06:35 UTC,29.9,73.94,73.4,100.0,6.91,230.0,,1.0,,0.04,,902.0,1203.0,,,7.0,,KIGQ 080635Z AUTO 23006KT 7SM RA SCT090 BKN120 23/23 A2990 RMK AO2  P0004 T02330230,,,12000.0,,,73.94,,SW,29.25,27.26,,Rain
KIGQ,09/08/2016 06:55 UTC,29.89,73.58,73.58,100.0,4.61,230.0,,1.0,,0.06,,1203.0,,,,7.0,,KIGQ 080655Z AUTO 23004KT 7SM RA BKN120 23/23 A2989 RMK AO2 P0006  T02310231,,,12000.0,,,73.58,,SW,29.24,27.28,,Rain
KIGQ,09/08/2016 07:15 UTC,29.89,73.58,73.58,100.0,3.44,290.0,,1.0,1104.0,,,123.0,293.0,,,7.0,,KIGQ 080715Z AUTO 29003KT 7SM RA BKN012 BKN029 OVC110 23/23  A2989 RMK AO2 T02310231,,,1200.0,,,73.58,,WNW,29.24,27.28,,Rain
KIGQ,09/08/2016 07:35 UTC,29.89,73.58,73.58,100.0,8.05,270.0,,13.0,,,,104.0,,,,10.0,,KIGQ 080735Z AUTO 27007KT 10SM -RA OVC010 23/23 A2989 RMK AO2  T02310231,,,1000.0,,,73.58,,W,29.24,27.28,,Light Rain
KIGQ,09/08/2016 07:55 UTC,29.88,74.3,74.12,99.4,11.5,230.0,,,,,,103.0,213.0,,,10.0,,KIGQ 080755Z AUTO 23010KT 10SM BKN010 BKN021 24/23 A2988 RMK AO2  T02350234,,,1000.0,,,74.12,,SW,29.23,27.22,,Mostly Cloudy
KIGQ,09/08/2016 08:15 UTC,29.89,74.3,74.12,99.4,9.22,230.0,,13.0,,,,104.0,,,,10.0,,KIGQ 080815Z AUTO 23008KT 10SM -RA OVC010 24/23 A2989 RMK AO2  T02350234,,,1000.0,,,74.12,,SW,29.24,27.23,,Light Rain
KIGQ,09/08/2016 08:35 UTC,29.88,73.94,73.58,100.0,9.22,230.0,,13.0,,,,104.0,,,,10.0,,KIGQ 080835Z AUTO 23008KT 10SM -RA OVC010 23/23 A2988 RMK AO2  T02330231,,,1000.0,,,73.94,,SW,29.23,27.24,,Light Rain
KIGQ,09/08/2016 08:55 UTC,29.86,73.4,73.04,100.0,10.36,220.0,17.27,,,,0.06,103.0,133.0,,,10.0,,KIGQ 080855Z AUTO 22009G15KT 10SM BKN010 BKN013 23/23 A2986 RMK AO2 60006 T02300228,,,1000.0,,,73.4,,SW,29.21,27.27,,Mostly Cloudy
KIGQ,09/08/2016 09:15 UTC,29.87,73.4,73.04,100.0,6.91,230.0,,,,,,103.0,,,,10.0,,KIGQ 080915Z AUTO 23006KT 10SM BKN010 23/23 A2987 RMK AO2  T02300228,,,1000.0,,,73.4,,SW,29.22,27.28,,Mostly Cloudy
KIGQ,09/08/2016 09:35 UTC,29.89,73.04,72.86,100.0,9.22,230.0,,,,,,103.0,704.0,,,10.0,,KIGQ 080935Z AUTO 23008KT 10SM BKN010 OVC070 23/23 A2989 RMK AO2  T02280227,,,1000.0,,,73.04,,SW,29.24,27.34,,Overcast
KIGQ,09/08/2016 09:55 UTC,29.89,72.86,72.32,94.12,12.66,230.0,,,293.0,,,102.0,232.0,,,10.0,,KIGQ 080955Z AUTO 23011KT 10SM SCT010 SCT023 BKN029 23/22  A2989 RMK AO2 LTG DSNT W T02270224,,,2900.0,,,71.06,,SW,29.24,27.49,,Mostly Cloudy
KIGQ,09/08/2016 10:15 UTC,29.88,72.5,71.96,94.12,8.05,220.0,,,1003.0,,,82.0,262.0,,,10.0,,KIGQ 081015Z AUTO 22007KT 10SM -VCTSRA SCT008 SCT026 BKN100 23/22  A2988 RMK AO2 LTG DSNT SE T02250222,,,10000.0,,,70.7,,SW,29.23,27.51,,Mostly Cloudy
KIGQ,09/08/2016 10:35 UTC,29.87,71.96,71.96,100.0,6.91,210.0,,13.0,903.0,,,83.0,473.0,,,10.0,,KIGQ 081035Z AUTO 21006KT 10SM -RA BKN008 BKN047 BKN090 22/22  A2987 RMK AO2 T02220222,,,800.0,,,71.96,,SSW,29.22,27.42,,Light Rain
KIGQ,09/08/2016 10:55 UTC,29.88,71.78,71.6,100.0,10.36,200.0,,1.0,503.0,,,103.0,293.0,,,10.0,,KIGQ 081055Z AUTO 20009KT 10SM RA BKN010 BKN029 BKN050 22/22  A2988 RMK AO2 LTG DSNT W T02210220,,,1000.0,,,71.78,,SSW,29.23,27.44,,Rain
KIGQ,09/08/2016 11:15 UTC,29.88,71.06,71.06,100.0,10.36,230.0,,13.0,1204.0,,,83.0,263.0,,,10.0,,KIGQ 081115Z AUTO 23009KT 10SM -RA BKN008 BKN026 OVC120 22/22  A2988 RMK AO2 T02170217,,,800.0,,,71.06,,SW,29.23,27.51,,Light Rain
KIGQ,09/08/2016 11:35 UTC,29.88,70.7,70.52,94.07,9.22,200.0,,13.0,1103.0,,,82.0,902.0,,,7.0,,KIGQ 081135Z AUTO 20008KT 7SM -RA SCT008 SCT090 BKN110 22/21  A2988 RMK AO2 T02150214,,,11000.0,,,68.9,,SSW,29.23,27.67,,Light Rain
KIGQ,09/08/2016 11:55 UTC,29.89,70.34,69.98,100.0,6.91,240.0,,13.0,,,,1202.0,,0.06,0.06,10.0,,KIGQ 081155Z AUTO 24006KT 10SM -RA SCT120 21/21 A2989 RMK AO2  60006 70006 T02130211 10236 20213,74.48,70.34,,,,70.34,,WSW,29.24,27.58,,Light Rain
KIGQ,09/08/2016 12:15 UTC,29.87,69.8,69.8,100.0,9.22,190.0,,1.0,,0.01,,1103.0,,,,10.0,,KIGQ 081215Z AUTO 19008KT 10SM RA BKN110 21/21 A2987 RMK AO2 LTG  DSNT SW P0001 T02100210,,,11000.0,,,69.8,,S,29.22,27.61,,Rain
KIGQ,09/08/2016 12:35 UTC,29.85,69.8,69.8,100.0,8.05,190.0,,13.0,953.0,0.01,,502.0,702.0,,,10.0,,KIGQ 081235Z AUTO 19007KT 10SM -RA SCT050 SCT070 BKN095 21/21  A2985 RMK AO2 P0001 T02100210,,,9500.0,,,69.8,,S,29.2,27.59,,Light Rain
KIGQ,09/08/2016 12:55 UTC,29.86,69.8,69.8,100.0,5.75,230.0,,13.0,1103.0,0.01,,482.0,802.0,,,10.0,,KIGQ 081255Z AUTO 23005KT 10SM -RA SCT048 SCT080 BKN110 21/21  A2986 RMK AO2 P0001 T02100210,,,11000.0,,,69.8,,SW,29.21,27.6,,Light Rain
KIGQ,09/08/2016 13:15 UTC,29.86,69.98,69.8,100.0,3.44,250.0,,,,,,852.0,1202.0,,,10.0,,KIGQ 081315Z AUTO 25003KT 10SM SCT085 SCT120 21/21 A2986 RMK AO2  T02110210,,,,,,69.98,,WSW,29.21,27.59,,Partly Cloudy
KIGQ,09/08/2016 13:35 UTC,29.86,70.88,70.16,94.07,0.0,0.0,,,,,,1.0,,,,10.0,,KIGQ 081335Z AUTO 00000KT 10SM CLR 22/21 A2986 RMK AO2  T02160212,,,,,,69.08,,N,29.21,27.64,,Clear
KIGQ,09/08/2016 13:55 UTC,29.88,70.7,70.16,94.07,6.91,240.0,,,,,,1.0,,,,10.0,,KIGQ 081355Z AUTO 24006KT 10SM CLR 22/21 A2988 RMK AO2  T02150212,,,,,,68.9,,WSW,29.23,27.67,,Clear
KIGQ,09/08/2016 14:15 UTC,29.9,70.7,69.98,94.07,6.91,210.0,,,,,,1202.0,,,,10.0,,KIGQ 081415Z AUTO 21006KT 10SM SCT120 22/21 A2990 RMK AO2  T02150211,,,,,,68.9,,SSW,29.25,27.69,,Partly Cloudy
KIGQ,09/08/2016 14:35 UTC,29.89,71.06,70.7,100.0,6.91,220.0,,13.0,1203.0,,,82.0,1002.0,,,10.0,,KIGQ 081435Z AUTO 22006KT 10SM -RA SCT008 SCT100 BKN120 22/22  A2989 RMK AO2 T02170215,,,12000.0,,,71.06,,SW,29.24,27.52,,Light Rain
KIGQ,09/08/2016 14:55 UTC,29.9,71.6,69.98,94.07,9.22,240.0,,,,,0.01,82.0,1102.0,,,10.0,,KIGQ 081455Z AUTO 24008KT 10SM SCT008 SCT110 22/21 A2990 RMK AO2  60001 T02200211,,,,,,69.79,,WSW,29.25,27.62,,Partly Cloudy
KIGQ,09/08/2016 15:15 UTC,29.91,71.6,69.8,94.07,9.22,240.0,,,,,,1.0,,,,10.0,,KIGQ 081515Z AUTO 24008KT 10SM CLR 22/21 A2991 RMK AO2  T02200210,,,,,,69.79,,WSW,29.26,27.63,,Clear
KIGQ,09/08/2016 15:35 UTC,29.91,71.42,70.16,94.07,6.91,210.0,,13.0,,,,1.0,,,,10.0,,KIGQ 081535Z AUTO 21006KT 10SM -RA CLR 22/21 A2991 RMK AO2  T02190212,,,,,,69.62,,SSW,29.26,27.64,,Light Rain
KIGQ,09/08/2016 15:55 UTC,29.88,71.42,70.16,94.07,6.91,160.0,,13.0,552.0,,,332.0,422.0,,,10.0,,KIGQ 081555Z AUTO 16006KT 10SM -RA SCT033 SCT042 SCT055 22/21  A2988 RMK AO2 T02190212,,,,,,69.62,,SSE,29.23,27.61,,Light Rain
KIGQ,09/08/2016 16:15 UTC,29.9,71.78,70.34,94.07,6.91,220.0,,13.0,1203.0,,,332.0,1002.0,,,10.0,,KIGQ 081615Z AUTO 22006KT 10SM -RA SCT033 SCT100 BKN120 22/21  A2990 RMK AO2 T02210213,,,12000.0,,,69.97,,SW,29.25,27.6,,Light Rain
KIGQ,09/08/2016 16:35 UTC,29.91,72.68,70.7,94.12,6.91,270.0,,13.0,1104.0,,,322.0,803.0,,,10.0,,KIGQ 081635Z AUTO 27006KT 10SM -RA SCT032 BKN080 OVC110 23/22  A2991 RMK AO2 T02260215,,,8000.0,,,70.88,,W,29.26,27.53,,Light Rain
KIGQ,09/08/2016 16:55 UTC,29.92,73.4,71.24,94.12,8.05,260.0,,13.0,603.0,,,272.0,352.0,,,10.0,,KIGQ 081655Z AUTO 26007KT 10SM -RA SCT027 SCT035 BKN060 23/22  A2992 RMK AO2 T02300218,,,6000.0,,,71.6,,W,29.27,27.47,,Light Rain
KIGQ,09/08/2016 17:15 UTC,29.93,74.66,71.42,88.62,10.36,270.0,,,,,,602.0,,,,10.0,,KIGQ 081715Z AUTO 27009KT 10SM SCT060 24/22 A2993 RMK AO2  T02370219,,,,,,71.06,,W,29.28,27.51,,Partly Cloudy
KIGQ,09/08/2016 17:35 UTC,29.91,76.1,71.78,83.48,10.36,230.0,,,,,,312.0,,,,10.0,,KIGQ 081735Z AUTO 23009KT 10SM SCT031 25/22 A2991 RMK AO2  T02450221,,,,,,70.71,,SW,29.26,27.49,,Partly Cloudy
KIGQ,09/08/2016 17:55 UTC,29.91,77.36,72.5,88.7,9.22,240.0,,,,,,1.0,,0.01,,10.0,,KIGQ 081755Z AUTO 24008KT 10SM CLR 25/23 A2991 RMK AO2 60001  T02520225 10253 20210,77.54,69.8,,,,73.75,,WSW,29.26,27.23,,Clear
KIGQ,09/08/2016 18:15 UTC,29.9,78.44,72.32,78.68,9.22,250.0,,,,,,1.0,,,,10.0,,KIGQ 081815Z AUTO 25008KT 10SM CLR 26/22 A2990 RMK AO2  T02580224,,,,,,71.25,,WSW,29.25,27.41,,Clear
KIGQ,09/08/2016 18:35 UTC,29.9,79.16,72.5,83.6,9.22,230.0,,,,,,452.0,,,,10.0,,KIGQ 081835Z AUTO 23008KT 10SM SCT045 26/23 A2990 RMK AO2  T02620225,,,,,,73.76,,SW,29.25,27.19,,Partly Cloudy
KIGQ,09/08/2016 18:55 UTC,29.89,78.8,72.14,78.68,11.5,250.0,,,,,,313.0,,,,10.0,,KIGQ 081855Z AUTO 25010KT 10SM BKN031 26/22 A2989 RMK AO2  T02600223,,,3100.0,,,71.6,,WSW,29.24,27.37,,Mostly Cloudy
KIGQ,09/08/2016 19:15 UTC,29.88,79.52,72.14,78.68,11.5,240.0,18.41,,,,,313.0,394.0,,,10.0,,KIGQ 081915Z AUTO 24010G16KT 10SM BKN031 OVC039 26/22 A2988 RMK AO2 T02640223,,,3100.0,,,72.3,,WSW,29.23,27.29,,Overcast
KIGQ,09/08/2016 19:35 UTC,29.88,80.42,73.22,78.82,14.97,250.0,19.57,,,,,262.0,373.0,,,10.0,,KIGQ 081935Z AUTO 25013G17KT 10SM SCT026 BKN037 27/23 A2988 RMK AO2 T02690229,,,3700.0,,,73.23,,WSW,29.23,27.2,84.95,Mostly Cloudy
KIGQ,09/08/2016 19:55 UTC,29.88,79.34,73.22,83.6,12.66,260.0,16.11,,,,,263.0,373.0,,,10.0,,KIGQ 081955Z AUTO 26011G14KT 10SM BKN026 BKN037 26/23 A2988 RMK AO2 T02630229,,,2600.0,,,73.93,,W,29.23,27.16,,Mostly Cloudy
KIGQ,09/08/2016 20:15 UTC,29.88,79.16,73.4,83.6,10.36,230.0,,,,,,234.0,,,,10.0,,KIGQ 082015Z AUTO 23009KT 10SM OVC023 26/23 A2988 RMK AO2  T02620230,,,2300.0,,,73.76,,SW,29.23,27.17,,Overcast
KIGQ,09/08/2016 20:35 UTC,29.88,80.78,73.76,78.82,12.66,230.0,,,,,,233.0,,,,10.0,,KIGQ 082035Z AUTO 23011KT 10SM BKN023 27/23 A2988 RMK AO2  T02710232,,,2300.0,,,73.58,,SW,29.23,27.17,85.72,Mostly Cloudy
KIGQ,09/08/2016 20:55 UTC,29.88,80.06,73.94,78.82,10.36,250.0,,,,,,253.0,,,,10.0,,KIGQ 082055Z AUTO 25009KT 10SM BKN025 27/23 A2988 RMK AO2  T02670233,,,2500.0,,,72.88,,WSW,29.23,27.23,84.2,Mostly Cloudy
KIGQ,09/08/2016 21:15 UTC,29.88,79.88,74.3,83.71,6.91,260.0,,,,,,254.0,,,,10.0,,KIGQ 082115Z AUTO 26006KT 10SM OVC025 27/24 A2988 RMK AO2  T02660235,,,2500.0,,,74.5,,W,29.23,27.1,,Overcast
KIGQ,09/08/2016 21:35 UTC,29.88,79.88,74.3,83.71,8.05,260.0,,,453.0,,,253.0,393.0,,,10.0,,KIGQ 082135Z AUTO 26007KT 10SM BKN025 BKN039 BKN045 27/24  A2988 RMK AO2 T02660235,,,2500.0,,,74.5,,W,29.23,27.1,,Mostly Cloudy
KIGQ,09/08/2016 21:55 UTC,29.87,80.6,74.48,83.71,10.36,270.0,,,373.0,,,242.0,292.0,,,10.0,,KIGQ 082155Z AUTO 27009KT 10SM SCT024 SCT029 BKN037 27/24  A2987 RMK AO2 T02700236,,,3700.0,,,75.21,,W,29.22,27.02,86.17,Mostly Cloudy
KIGQ,09/08/2016 22:15 UTC,29.88,79.34,74.3,88.78,9.22,250.0,,,383.0,,,223.0,293.0,,,10.0,,KIGQ 082215Z AUTO 25008KT 10SM BKN022 BKN029 BKN038 26/24  A2988 RMK AO2 T02630235,,,2200.0,,,75.73,,WSW,29.23,27.0,,Mostly Cloudy
KIGQ,09/08/2016 22:35 UTC,29.87,79.88,74.66,83.71,4.61,290.0,,,382.0,,,222.0,322.0,,,10.0,,KIGQ 082235Z AUTO 29004KT 10SM SCT022 SCT032 SCT038 27/24  A2987 RMK AO2 T02660237,,,,,,74.5,,WNW,29.22,27.09,,Partly Cloudy
KIGQ,09/08/2016 22:55 UTC,29.88,79.7,74.3,83.71,6.91,270.0,,,,,,1.0,,,,10.0,,KIGQ 082255Z AUTO 27006KT 10SM CLR 27/24 A2988 RMK AO2  T02650235,,,,,,74.32,,W,29.23,27.12,,Clear
KIGQ,09/08/2016 23:15 UTC,29.88,79.34,74.3,88.78,5.75,290.0,,,,,,1.0,,,,10.0,,KIGQ 082315Z AUTO 29005KT 10SM CLR 26/24 A2988 RMK AO2  T02630235,,,,,,75.73,,WNW,29.23,27.0,,Clear
KIGQ,09/08/2016 23:35 UTC,29.88,78.26,73.4,83.6,4.61,290.0,,,,,,1.0,,,,10.0,,KIGQ 082335Z AUTO 29004KT 10SM CLR 26/23 A2988 RMK AO2  T02570230,,,,,,72.87,,WNW,29.23,27.26,,Clear
KIGQ,09/08/2016 23:55 UTC,29.88,77.36,73.22,88.7,3.44,290.0,,,,,,1.0,,,,10.0,,KIGQ 082355Z AUTO 29003KT 10SM CLR 25/23 A2988 RMK AO2 T02520229  10271 20250,80.78,77.0,,,,73.75,,WNW,29.23,27.2,,Clear
KIGQ,09/09/2016 00:15 UTC,29.89,76.46,72.86,88.7,0.0,0.0,,,,,,1.0,,,,10.0,,KIGQ 090015Z AUTO 00000KT 10SM CLR 25/23 A2989 RMK AO2  T02470227,,,,,,72.87,,N,29.24,27.3,,Clear
KIGQ,09/09/2016 00:35 UTC,29.89,73.94,72.32,94.12,0.0,0.0,,,,,,1.0,,,,10.0,,KIGQ 090035Z AUTO 00000KT 10SM CLR 23/22 A2989 RMK AO2  T02330224,,,,,,72.13,,N,29.24,27.39,,Clear
KIGQ,09/09/2016 00:55 UTC,29.91,72.14,71.6,100.0,3.44,210.0,,,,,,1.0,,,,10.0,,KIGQ 090055Z AUTO 21003KT 10SM CLR 22/22 A2991 RMK AO2  T02230220,,,,,,72.14,,SSW,29.26,27.44,,Clear
KIGQ,09/09/2016 01:15 UTC,29.91,70.7,70.7,100.0,3.44,190.0,,,,,,1.0,,,,7.0,,KIGQ 090115Z AUTO 19003KT 7SM CLR 22/22 A2991 RMK AO2  T02150215,,,,,,70.7,,S,29.26,27.57,,Clear
KIGQ,09/09/2016 01:35 UTC,29.92,71.42,71.42,100.0,0.0,0.0,,,,,,1.0,,,,7.0,,KIGQ 090135Z AUTO 00000KT 7SM CLR 22/22 A2992 RMK AO2  T02190219,,,,,,71.42,,N,29.27,27.52,,Clear
KIGQ,09/09/2016 01:55 UTC,29.92,71.06,71.06,100.0,0.0,0.0,,31.0,,,,1.0,,,,5.0,,KIGQ 090155Z AUTO 00000KT 5SM BR CLR 22/22 A2992 RMK AO2  T02170217,,,,,,71.06,,N,29.27,27.55,,Mist
KIGQ,09/09/2016 02:15 UTC,29.92,70.88,70.88,100.0,0.0,0.0,,31.0,,,,1.0,,,,5.0,,KIGQ 090215Z AUTO 00000KT 5SM BR CLR 22/22 A2992 RMK AO2  T02160216,,,,,,70.88,,N,29.27,27.57,,Mist
KIGQ,09/09/2016 02:35 UTC,29.93,71.24,71.24,100.0,0.0,0.0,,31.0,,,,1.0,,,,4.0,,KIGQ 090235Z AUTO 00000KT 4SM BR CLR 22/22 A2993 RMK AO2  T02180218,,,,,,71.24,,N,29.28,27.54,,Mist
KIGQ,09/09/2016 02:55 UTC,29.93,69.26,69.26,100.0,0.0,0.0,,9.0,,,,55.0,,,,0.5,,KIGQ 090255Z AUTO 00000KT 1/2SM FG VV005 21/21 A2993 RMK AO2  T02070207,,,500.0,,,69.26,,N,29.28,27.72,,Fog
KIGQ,09/09/2016 03:15 UTC,29.93,69.44,69.44,100.0,3.44,180.0,,31.0,,,,1.0,,,,4.0,,KIGQ 090315Z AUTO 18003KT 4SM BR CLR 21/21 A2993 RMK AO2  T02080208,,,,,,69.44,,S,29.28,27.7,,Mist
KIGQ,09/09/2016 03:35 UTC,29.94,70.34,70.34,100.0,0.0,0.0,,31.0,,,,32.0,,,,1.25,,KIGQ 090335Z AUTO 00000KT 1 1/4SM BR SCT003 21/21 A2994 RMK AO2  T02130213,,,,,,70.34,,N,29.29,27.64,,Mist
KIGQ,09/09/2016 03:55 UTC,29.93,70.52,70.52,100.0,0.0,0.0,,31.0,,,,75.0,,,,1.0,,KIGQ 090355Z AUTO 00000KT 1SM BR VV007 21/21 A2993 RMK AO2  T02140214,,,700.0,,,70.52,,N,29.28,27.61,,Mist
KIGQ,09/09/2016 04:15 UTC,29.93,69.98,69.98,100.0,0.0,0.0,,9.0,,,,33.0,363.0,,,0.5,,KIGQ 090415Z AUTO 00000KT 1/2SM FG BKN003 BKN036 21/21 A2993 RMK AO2 T02110211,,,300.0,,,69.98,,N,29.28,27.66,,Fog
KIGQ,09/09/2016 04:35 UTC,29.94,69.44,69.44,100.0,0.0,0.0,,9.0,453.0,,,33.0,343.0,,,0.5,,KIGQ 090435Z AUTO 00000KT 1/2SM FG BKN003 BKN034 BKN045 21/21  A2994 RMK AO2 T02080208,,,300.0,,,69.44,,N,29.29,27.71,,Fog
KIGQ,09/09/2016 04:55 UTC,29.94,69.62,69.62,100.0,3.44,260.0,,31.0,,,,75.0,,,,1.75,,KIGQ 090455Z AUTO 26003KT 1 3/4SM BR VV007 21/21 A2994 RMK AO2  T02090209,,,700.0,,,69.62,,W,29.29,27.7,,Mist
KIGQ,09/09/2016 05:15 UTC,29.94,69.44,69.44,100.0,4.61,270.0,,31.0,,,,1.0,,,,5.0,,KIGQ 090515Z AUTO 27004KT 5SM BR CLR 21/21 A2994 RMK AO2  T02080208,,,,,,69.44,,W,29.29,27.71,,Mist
KIGQ,09/09/2016 05:35 UTC,29.95,70.7,70.7,100.0,0.0,0.0,,,,,,1.0,,,,7.0,,KIGQ 090535Z AUTO 00000KT 7SM CLR 22/22 A2995 RMK AO2  T02150215,,,,,,70.7,,N,29.3,27.61,,Clear
KIGQ,09/09/2016 05:55 UTC,29.95,70.7,70.7,100.0,3.44,300.0,,,,,,1.0,,,,7.0,,KIGQ 090555Z AUTO 30003KT 7SM CLR 22/22 A2995 RMK AO2 T02150215  10252 20205 402710205,77.36,68.9,,80.78,68.9,70.7,,WNW,29.3,27.61,,Clear
KIGQ,09/09/2016 06:15 UTC,29.95,70.7,70.7,100.0,3.44,310.0,,,,,,1.0,,,,7.0,,KIGQ 090615Z AUTO 31003KT 7SM CLR 22/22 A2995 RMK AO2  T02150215,,,,,,70.7,,NW,29.3,27.61,,Clear
KIGQ,09/09/2016 06:35 UTC,29.95,70.34,70.34,100.0,0.0,0.0,,31.0,,,,1.0,,,,5.0,,KIGQ 090635Z AUTO 00000KT 5SM BR CLR 21/21 A2995 RMK AO2  T02130213,,,,,,70.34,,N,29.3,27.65,,Mist
KIGQ,09/09/2016 06:55 UTC,29.95,68.54,68.54,100.0,0.0,0.0,,9.0,,,,55.0,,,,0.5,,KIGQ 090655Z AUTO 00000KT 1/2SM FG VV005 20/20 A2995 RMK AO2  T02030203,,,500.0,,,68.54,,N,29.3,27.8,,Fog
KIGQ,09/09/2016 07:15 UTC,29.95,66.74,66.74,100.0,0.0,0.0,,9.0,,,,34.0,,,,0.25,,KIGQ 090715Z AUTO 00000KT 1/4SM FG OVC003 19/19 A2995 RMK AO2  T01930193,,,300.0,,,66.74,,N,29.3,27.95,,Fog
KIGQ,09/09/2016 07:35 UTC,29.95,66.2,66.2,100.0,0.0,0.0,,9.0,,,,34.0,,,,0.25,,KIGQ 090735Z AUTO 00000KT 1/4SM FG OVC003 19/19 A2995 RMK AO2  T01900190,,,300.0,,,66.2,,N,29.3,27.99,,Fog
KIGQ,09/09/2016 07:55 UTC,29.95,67.1,67.1,100.0,0.0,0.0,,9.0,,,,34.0,,,,0.25,,KIGQ 090755Z AUTO 00000KT 1/4SM FG OVC003 20/20 A2995 RMK AO2  T01950195,,,300.0,,,67.1,,N,29.3,27.92,,Fog
KIGQ,09/09/2016 08:15 UTC,29.95,67.28,67.28,100.0,0.0,0.0,,9.0,,,,34.0,,,,0.25,,KIGQ 090815Z AUTO 00000KT 1/4SM FG OVC003 20/20 A2995 RMK AO2  T01960196,,,300.0,,,67.28,,N,29.3,27.9,,Fog
KIGQ,09/09/2016 08:35 UTC,29.95,66.38,66.38,100.0,0.0,0.0,,31.0,,,,32.0,62.0,,,4.0,,KIGQ 090835Z AUTO 00000KT 4SM BR SCT003 SCT006 19/19 A2995 RMK AO2  T01910191,,,,,,66.38,,N,29.3,27.97,,Mist
KIGQ,09/09/2016 08:55 UTC,29.95,64.4,64.4,100.0,0.0,0.0,,9.0,,,,34.0,,,,0.25,,KIGQ 090855Z AUTO 00000KT 1/4SM FG OVC003 18/18 A2995 RMK AO2  T01800180,,,300.0,,,64.4,,N,29.3,28.12,,Fog
KIGQ,09/09/2016 09:15 UTC,29.95,63.5,63.5,100.0,0.0,0.0,,9.0,,,,34.0,,,,0.5,,KIGQ 090915Z AUTO 00000KT 1/2SM FG OVC003 18/18 A2995 RMK AO2 VIS  1/4V5 T01750175,,,300.0,,,63.5,,N,29.3,28.19,,Fog
KIGQ,09/09/2016 09:35 UTC,29.96,63.32,63.32,100.0,3.44,190.0,,9.0,,,,34.0,,,,0.5,,KIGQ 090935Z AUTO 19003KT 1/2SM FG OVC003 17/17 A2996 RMK AO2  T01740174,,,300.0,,,63.32,,S,29.31,28.21,,Fog
KIGQ,09/09/2016 09:55 UTC,29.95,63.5,63.5,100.0,0.0,0.0,,9.0,,,,34.0,,,,0.5,,KIGQ 090955Z AUTO 00000KT 1/2SM FG OVC003 18/18 A2995 RMK AO2  T01750175,,,300.0,,,63.5,,N,29.3,28.19,,Fog
KIGQ,09/09/2016 10:15 UTC,29.95,66.02,66.02,100.0,0.0,0.0,,31.0,,,,32.0,,,,1.25,,KIGQ 091015Z AUTO 00000KT 1 1/4SM BR SCT003 19/19 A2995 RMK AO2  VIS 3/4V2 T01890189,,,,,,66.02,,N,29.3,28.0,,Mist
KIGQ,09/09/2016 10:35 UTC,29.95,64.94,64.94,100.0,0.0,0.0,,31.0,,,,23.0,,,,1.0,,KIGQ 091035Z AUTO 00000KT 1SM BR BKN002 18/18 A2995 RMK AO2 VIS  1/2V4 T01830183,,,200.0,,,64.94,,N,29.3,28.08,,Mist
KIGQ,09/09/2016 10:55 UTC,29.96,63.14,63.14,100.0,4.61,180.0,,9.0,,,,24.0,,,,0.5,,KIGQ 091055Z AUTO 18004KT 1/2SM FG OVC002 17/17 A2996 RMK AO2  T01730173,,,200.0,,,63.14,,S,29.31,28.22,,Fog
KIGQ,09/09/2016 11:15 UTC,29.95,63.68,63.68,100.0,3.44,180.0,,9.0,,,,24.0,,,,0.25,,KIGQ 091115Z AUTO 18003KT 1/4SM FG OVC002 18/18 A2995 RMK AO2  T01760176,,,200.0,,,63.68,,S,29.3,28.18,,Fog
KIGQ,09/09/2016 11:35 UTC,29.96,64.58,64.58,100.0,0.0,0.0,,9.0,,,,24.0,,,,-0.25,,KIGQ 091135Z AUTO 00000KT M1/4SM FG OVC002 18/18 A2996 RMK AO2  T01810181,,,200.0,,,64.58,,N,29.31,28.12,,Fog
KIGQ,09/09/2016 11:55 UTC,29.96,65.66,65.66,100.0,0.0,0.0,,9.0,,,,24.0,,,0.01,-0.25,,KIGQ 091155Z AUTO 00000KT M1/4SM FG OVC002 19/19 A2996 RMK AO2  70001 T01870187 10216 20171,70.88,62.78,200.0,,,65.66,,N,29.31,28.04,,Fog
KIGQ,09/09/2016 12:15 UTC,29.96,66.2,66.2,100.0,0.0,0.0,,9.0,,,,24.0,,,,0.25,,KIGQ 091215Z AUTO 00000KT 1/4SM FG OVC002 19/19 A2996 RMK AO2  T01900190,,,200.0,,,66.2,,N,29.31,28.0,,Fog
KIGQ,09/09/2016 12:35 UTC,29.96,66.56,66.56,100.0,0.0,0.0,,9.0,,,,24.0,,,,0.25,,KIGQ 091235Z AUTO 00000KT 1/4SM FG OVC002 19/19 A2996 RMK AO2  T01920192,,,200.0,,,66.56,,N,29.31,27.97,,Fog
KIGQ,09/09/2016 12:55 UTC,29.96,67.1,67.1,100.0,0.0,0.0,,31.0,,,,24.0,,,,1.0,,KIGQ 091255Z AUTO 00000KT 1SM BR OVC002 20/20 A2996 RMK AO2  T01950195,,,200.0,,,67.1,,N,29.31,27.93,,Mist
KIGQ,09/09/2016 13:15 UTC,29.96,67.64,67.64,100.0,0.0,0.0,,31.0,,,,24.0,,,,4.0,,KIGQ 091315Z AUTO 00000KT 4SM BR OVC002 20/20 A2996 RMK AO2  T01980198,,,200.0,,,67.64,,N,29.31,27.88,,Mist
KIGQ,09/09/2016 13:35 UTC,29.96,68.0,68.0,100.0,0.0,0.0,,,,,,22.0,,,,7.0,,KIGQ 091335Z AUTO 00000KT 7SM SCT002 20/20 A2996 RMK AO2  T02000200,,,,,,68.0,,N,29.31,27.86,,Partly Cloudy
KIGQ,09/09/2016 13:55 UTC,29.96,69.08,69.08,100.0,3.44,50.0,,31.0,,,,43.0,,,,5.0,,KIGQ 091355Z AUTO 05003KT 5SM BR BKN004 21/21 A2996 RMK AO2  T02060206,,,400.0,,,69.08,,NE,29.31,27.77,,Mist
KIGQ,09/09/2016 14:15 UTC,29.96,69.8,69.8,100.0,4.61,30.0,,31.0,,,,44.0,,,,3.0,,KIGQ 091415Z AUTO 03004KT 3SM BR OVC004 21/21 A2996 RMK AO2  T02100210,,,400.0,,,69.8,,NNE,29.31,27.7,,Mist
KIGQ,09/09/2016 14:35 UTC,29.95,70.7,70.7,100.0,4.61,20.0,,31.0,,,,42.0,,,,4.0,,KIGQ 091435Z AUTO 02004KT 4SM BR SCT004 22/22 A2995 RMK AO2  T02150215,,,,,,70.7,,NNE,29.3,27.61,,Mist
KIGQ,09/09/2016 14:55 UTC,29.95,71.78,71.78,100.0,5.75,140.0,,31.0,,,,52.0,,,,4.0,,KIGQ 091455Z AUTO 14005KT 4SM BR SCT005 22/22 A2995 RMK AO2  T02210221,,,,,,71.78,,SE,29.3,27.52,,Mist
KIGQ,09/09/2016 15:15 UTC,29.94,72.86,72.86,100.0,4.61,110.0,,31.0,,,,52.0,,,,5.0,,KIGQ 091515Z AUTO 11004KT 5SM BR SCT005 23/23 A2994 RMK AO2  T02270227,,,,,,72.86,,ESE,29.29,27.4,,Mist
KIGQ,09/09/2016 15:35 UTC,29.95,73.94,73.94,100.0,4.61,170.0,,31.0,,,,72.0,,,,5.0,,KIGQ 091535Z AUTO 17004KT 5SM BR SCT007 23/23 A2995 RMK AO2  T02330233,,,,,,73.94,,S,29.3,27.31,,Mist
KIGQ,09/09/2016 15:55 UTC,29.95,74.3,74.3,100.0,8.05,190.0,,,,,,73.0,,,,7.0,,KIGQ 091555Z AUTO 19007KT 160V340 7SM BKN007 24/24 A2995 RMK AO2  T02350235,,,700.0,,,74.3,,S,29.3,27.27,,Mostly Cloudy
KIGQ,09/09/2016 16:15 UTC,29.95,74.3,74.12,94.16,5.75,200.0,,,,,,114.0,,,,10.0,,KIGQ 091615Z AUTO 20005KT 10SM OVC011 24/23 A2995 RMK AO2  T02350234,,,1100.0,,,72.5,,SSW,29.3,27.42,,Overcast
KIGQ,09/09/2016 16:35 UTC,29.96,75.2,73.58,94.16,8.05,200.0,,,,,,134.0,,,,10.0,,KIGQ 091635Z AUTO 20007KT 10SM OVC013 24/23 A2996 RMK AO2  T02400231,,,1300.0,,,73.4,,SSW,29.31,27.34,,Overcast
KIGQ,09/09/2016 16:55 UTC,29.95,75.92,73.4,94.16,11.5,190.0,,,343.0,,,153.0,223.0,,,10.0,,KIGQ 091655Z AUTO 19010KT 10SM BKN015 BKN022 BKN034 24/23  A2995 RMK AO2 T02440230,,,1500.0,,,74.11,,S,29.3,27.26,,Mostly Cloudy
KIGQ,09/09/2016 17:15 UTC,29.95,75.56,72.68,94.16,12.66,180.0,18.41,,253.0,,,133.0,183.0,,,10.0,,KIGQ 091715Z AUTO 18011G16KT 10SM BKN013 BKN018 BKN025 24/23  A2995 RMK AO2 T02420226,,,1300.0,,,73.76,,S,29.3,27.3,,Mostly Cloudy
KIGQ,09/09/2016 17:35 UTC,29.94,75.56,72.5,94.16,10.36,180.0,,,,,,153.0,254.0,,,10.0,,KIGQ 091735Z AUTO 18009KT 10SM BKN015 OVC025 24/23 A2994 RMK AO2  T02420225,,,1500.0,,,73.76,,S,29.29,27.29,,Overcast
KIGQ,09/09/2016 17:55 UTC,29.95,75.92,72.5,94.16,9.22,190.0,,,,,,174.0,,,,10.0,,KIGQ 091755Z AUTO 19008KT 10SM OVC017 24/23 A2995 RMK AO2  T02440225 10245 20188,76.1,65.84,1700.0,,,74.11,,S,29.3,27.26,,Overcast
KIGQ,09/09/2016 18:15 UTC,29.95,76.82,72.86,88.7,9.22,190.0,,,,,,173.0,243.0,,,10.0,,KIGQ 091815Z AUTO 19008KT 10SM BKN017 BKN024 25/23 A2995 RMK AO2  T02490227,,,1700.0,,,73.22,,S,29.3,27.32,,Mostly Cloudy
KIGQ,09/09/2016 18:35 UTC,29.95,77.0,72.68,88.7,6.91,200.0,,,333.0,,,193.0,243.0,,,10.0,,KIGQ 091835Z AUTO 20006KT 10SM BKN019 BKN024 BKN033 25/23  A2995 RMK AO2 T02500226,,,1900.0,,,73.4,,SSW,29.3,27.31,,Mostly Cloudy
KIGQ,09/09/2016 18:55 UTC,29.96,77.18,72.32,83.48,6.91,200.0,,,1204.0,,,193.0,283.0,,,10.0,,KIGQ 091855Z AUTO 20006KT 10SM BKN019 BKN028 OVC120 25/22  A2996 RMK AO2 T02510224,,,1900.0,,,71.77,,SSW,29.31,27.45,,Overcast
KIGQ,09/09/2016 19:15 UTC,29.95,76.28,72.32,83.48,5.75,210.0,,,,,,223.0,294.0,,,10.0,,KIGQ 091915Z AUTO 21005KT 10SM BKN022 OVC029 25/22 A2995 RMK AO2  T02460224,,,2200.0,,,70.89,,SSW,29.3,27.52,,Overcast
KIGQ,09/09/2016 19:35 UTC,29.95,75.92,72.5,94.16,8.05,210.0,,,,,,183.0,244.0,,,10.0,,KIGQ 091935Z AUTO 21007KT 10SM BKN018 OVC024 24/23 A2995 RMK AO2  T02440225,,,1800.0,,,74.11,,SSW,29.3,27.26,,Overcast
KIGQ,09/09/2016 19:55 UTC,29.94,75.92,72.5,94.16,5.75,230.0,,13.0,324.0,,,183.0,243.0,,,10.0,,KIGQ 091955Z AUTO 23005KT 10SM -RA BKN018 BKN024 OVC032 24/23  A2994 RMK AO2 T02440225,,,1800.0,,,74.11,,SW,29.29,27.25,,Light Rain
KIGQ,09/09/2016 20:15 UTC,29.94,75.92,72.86,94.16,4.61,210.0,,13.0,334.0,,,162.0,263.0,,,10.0,,KIGQ 092015Z AUTO 21004KT 10SM -RA SCT016 BKN026 OVC033 24/23  A2994 RMK AO2 T02440227,,,2600.0,,,74.11,,SSW,29.29,27.25,,Light Rain
KIGQ,09/09/2016 20:35 UTC,29.94,75.56,72.68,94.16,8.05,240.0,,13.0,,,,172.0,244.0,,,10.0,,KIGQ 092035Z AUTO 24007KT 10SM -RA SCT017 OVC024 24/23 A2994 RMK AO2 T02420226,,,2400.0,,,73.76,,WSW,29.29,27.29,,Light Rain
KIGQ,09/09/2016 20:55 UTC,29.93,75.56,72.68,94.16,6.91,230.0,,13.0,554.0,,,212.0,303.0,,,10.0,,KIGQ 092055Z AUTO 23006KT 10SM -RA SCT021 BKN030 OVC055 24/23  A2993 RMK AO2 T02420226,,,3000.0,,,73.76,,SW,29.28,27.28,,Light Rain
KIGQ,09/09/2016 21:15 UTC,29.93,75.02,72.14,88.62,5.75,200.0,,13.0,904.0,,,172.0,803.0,,,10.0,,KIGQ 092115Z AUTO 20005KT 10SM -RA SCT017 BKN080 OVC090 24/22  A2993 RMK AO2 T02390223,,,8000.0,,,71.42,,SSW,29.28,27.47,,Light Rain
KIGQ,09/09/2016 21:35 UTC,29.91,73.4,72.32,94.12,0.0,0.0,,13.0,904.0,,,552.0,803.0,,,10.0,,KIGQ 092135Z AUTO 00000KT 10SM -RA SCT055 BKN080 OVC090 23/22  A2991 RMK AO2 T02300224,,,8000.0,,,71.6,,N,29.26,27.46,,Light Rain
KIGQ,09/09/2016 21:55 UTC,29.9,73.4,71.78,94.12,4.61,10.0,,13.0,,,,502.0,804.0,,,10.0,,KIGQ 092155Z AUTO 01004KT 10SM -RA SCT050 OVC080 23/22 A2990 RMK AO2 T02300221,,,8000.0,,,71.6,,N,29.25,27.45,,Light Rain
KIGQ,09/09/2016 22:15 UTC,29.91,73.58,71.78,94.12,3.44,310.0,,,,,,804.0,,,,10.0,,KIGQ 092215Z AUTO 31003KT 10SM OVC080 23/22 A2991 RMK AO2  T02310221,,,8000.0,,,71.78,,NW,29.26,27.45,,Overcast
KIGQ,09/09/2016 22:35 UTC,29.91,73.22,72.5,100.0,0.0,0.0,,13.0,,,,703.0,804.0,,,7.0,,KIGQ 092235Z AUTO 00000KT 7SM -RA BKN070 OVC080 23/23 A2991 RMK AO2 T02290225,,,7000.0,,,73.22,,N,29.26,27.34,,Light Rain
KIGQ,09/09/2016 22:55 UTC,29.91,72.32,64.94,78.09,0.0,0.0,,1.0,,,,552.0,704.0,,,10.0,,KIGQ 092255Z AUTO 00000KT 10SM RA SCT055 OVC070 22/18 A2991 RMK AO2 T02240183,,,7000.0,,,65.08,,N,29.26,27.94,,Rain
KIGQ,09/09/2016 23:15 UTC,29.92,69.8,66.56,88.37,3.44,230.0,,1.0,704.0,0.02,,372.0,603.0,,,10.0,,KIGQ 092315Z AUTO 23003KT 10SM RA SCT037 BKN060 OVC070 21/19  A2992 RMK AO2 P0002 T02100192,,,6000.0,,,66.19,,SW,29.27,27.91,,Rain
KIGQ,09/09/2016 23:35 UTC,29.91,69.8,69.8,100.0,5.75,310.0,,14.0,604.0,0.12,,182.0,483.0,,,2.5,,KIGQ 092335Z AUTO 31005KT 2 1/2SM +RA SCT018 BKN048 OVC060 21/21  A2991 RMK AO2 P0012 T02100210,,,4800.0,,,69.8,,NW,29.26,27.65,,Heavy Rain
KIGQ,09/09/2016 23:55 UTC,29.91,68.0,67.1,96.95,0.0,0.0,,1.0,704.0,0.17,,392.0,603.0,0.17,,5.0,,KIGQ 092355Z AUTO 00000KT 5SM RA SCT039 BKN060 OVC070 20/20 A2991 RMK AO2 P0017 60017 T02000195 10252 20200,77.36,68.0,6000.0,,,67.1,,N,29.26,27.86,,Rain
KIGQ,09/10/2016 00:15 UTC,29.9,67.64,67.64,100.0,0.0,0.0,,13.0,1004.0,,,322.0,703.0,,,10.0,,KIGQ 100015Z AUTO 00000KT 10SM -RA SCT032 BKN070 OVC100 20/20  A2990 RMK AO2 T01980198,,,7000.0,,,67.64,,N,29.25,27.82,,Light Rain
KIGQ,09/10/2016 00:35 UTC,29.9,68.0,68.0,100.0,3.44,90.0,,1.0,1104.0,,,502.0,903.0,,,10.0,,KIGQ 100035Z AUTO 09003KT 10SM RA SCT050 BKN090 OVC110 20/20  A2990 RMK AO2 T02000200,,,9000.0,,,68.0,,E,29.25,27.79,,Rain
KIGQ,09/10/2016 00:55 UTC,29.89,68.0,68.0,100.0,4.61,70.0,,,,,,903.0,1104.0,,,10.0,,KIGQ 100055Z AUTO 07004KT 10SM BKN090 OVC110 20/20 A2989 RMK AO2  T02000200,,,9000.0,,,68.0,,ENE,29.24,27.78,,Overcast
KIGQ,09/10/2016 01:15 UTC,29.89,68.0,68.0,100.0,3.44,10.0,,1.0,1204.0,,,62.0,1003.0,,,7.0,,KIGQ 100115Z AUTO 01003KT 7SM RA SCT006 BKN100 OVC120 20/20  A2989 RMK AO2 T02000200,,,10000.0,,,68.0,,N,29.24,27.78,,Rain
KIGQ,09/10/2016 01:35 UTC,29.89,68.18,68.18,100.0,4.61,30.0,,13.0,754.0,,,132.0,503.0,,,7.0,,KIGQ 100135Z AUTO 03004KT 7SM -RA SCT013 BKN050 OVC075 20/20  A2989 RMK AO2 LTG DSNT E T02010201,,,5000.0,,,68.18,,NNE,29.24,27.77,,Light Rain
KIGQ,09/10/2016 01:55 UTC,29.88,68.18,68.18,100.0,0.0,0.0,,,,,,382.0,504.0,,,7.0,,KIGQ 100155Z AUTO 00000KT 7SM SCT038 OVC050 20/20 A2988 RMK AO2  LTG DSNT S T02010201,,,5000.0,,,68.18,,N,29.23,27.76,,Overcast
KIGQ,09/10/2016 02:15 UTC,29.88,68.54,68.54,100.0,0.0,0.0,,,,,,402.0,484.0,,,10.0,,KIGQ 100215Z AUTO 00000KT 10SM SCT040 OVC048 20/20 A2988 RMK AO2  LTG DSNT E T02030203,,,4800.0,,,68.54,,N,29.23,27.73,,Overcast
KIGQ,09/10/2016 02:35 UTC,29.88,68.9,68.9,100.0,0.0,0.0,,,484.0,,,172.0,353.0,,,10.0,,KIGQ 100235Z AUTO 00000KT 10SM SCT017 BKN035 OVC048 21/21  A2988 RMK AO2 LTG DSNT E T02050205,,,3500.0,,,68.9,,N,29.23,27.7,,Overcast
KIGQ,09/10/2016 02:55 UTC,29.88,68.54,68.54,100.0,4.61,280.0,,,484.0,,,172.0,353.0,,,7.0,,KIGQ 100255Z AUTO 28004KT 7SM SCT017 BKN035 OVC048 20/20 A2988 RMK AO2 T02030203,,,3500.0,,,68.54,,W,29.23,27.73,,Overcast
KIGQ,09/10/2016 03:15 UTC,29.87,68.36,68.36,100.0,4.61,280.0,,,704.0,,,333.0,463.0,,,7.0,,KIGQ 100315Z AUTO 28004KT 7SM BKN033 BKN046 OVC070 20/20 A2987 RMK AO2 T02020202,,,3300.0,,,68.36,,W,29.22,27.73,,Overcast
KIGQ,09/10/2016 03:35 UTC,29.86,68.0,68.0,100.0,0.0,0.0,,,,,,313.0,,,,7.0,,KIGQ 100335Z AUTO 00000KT 7SM BKN031 20/20 A2986 RMK AO2 LTG DSNT  SE T02000200,,,3100.0,,,68.0,,N,29.21,27.75,,Mostly Cloudy
KIGQ,09/10/2016 03:55 UTC,29.87,68.18,68.18,100.0,4.61,320.0,,31.0,,,,103.0,314.0,,,5.0,,KIGQ 100355Z AUTO 32004KT 5SM BR BKN010 OVC031 20/20 A2987 RMK AO2  T02010201,,,1000.0,,,68.18,,NW,29.22,27.75,,Mist
KIGQ,09/10/2016 04:15 UTC,29.87,68.18,68.18,100.0,6.91,320.0,,,,,,104.0,,,,7.0,,KIGQ 100415Z AUTO 32006KT 7SM OVC010 20/20 A2987 RMK AO2 LTG DSNT  E AND SE T02010201,,,1000.0,,,68.18,,NW,29.22,27.75,,Overcast
KIGQ,09/10/2016 04:35 UTC,29.85,68.0,68.0,100.0,4.61,330.0,,,364.0,,,123.0,222.0,,,10.0,,KIGQ 100435Z AUTO 33004KT 10SM BKN012 SCT022 OVC036 20/20  A2985 RMK AO2 LTG DSNT SE AND SW T02000200,,,1200.0,,,68.0,,NNW,29.2,27.74,,Overcast
KIGQ,09/10/2016 04:55 UTC,29.84,68.0,68.0,100.0,0.0,0.0,,1.0,,,,203.0,364.0,,,7.0,,KIGQ 100455Z AUTO 00000KT 7SM RA BKN020 OVC036 20/20 A2984 RMK AO2  T02000200,,,2000.0,,,68.0,,N,29.19,27.73,,Rain
KIGQ,09/10/2016 05:15 UTC,29.85,68.0,68.0,100.0,5.75,270.0,,,,,,112.0,204.0,,,10.0,,KIGQ 100515Z AUTO 27005KT 10SM SCT011 OVC020 20/20 A2985 RMK AO2  T02000200,,,2000.0,,,68.0,,W,29.2,27.74,,Overcast
KIGQ,09/10/2016 05:35 UTC,29.85,68.0,68.0,100.0,4.61,280.0,,,,,,94.0,,,,10.0,,KIGQ 100535Z AUTO 28004KT 10SM OVC009 20/20 A2985 RMK AO2 LTG DSNT  SE T02000200,,,900.0,,,68.0,,W,29.2,27.74,,Overcast
KIGQ,09/10/2016 05:55 UTC,29.85,67.64,67.64,100.0,3.44,290.0,,,,,,94.0,,,,10.0,,KIGQ 100555Z AUTO 29003KT 10SM OVC009 20/20 A2985 RMK AO2  T01980198 10205 20198 402520171,68.9,67.64,900.0,77.36,62.78,67.64,,WNW,29.2,27.77,,Overcast
KIGQ,09/10/2016 06:15 UTC,29.85,68.0,68.0,100.0,3.44,280.0,,,,,,114.0,,,,10.0,,KIGQ 100615Z AUTO 28003KT 10SM OVC011 20/20 A2985 RMK AO2  T02000200,,,1100.0,,,68.0,,W,29.2,27.74,,Overcast
KIGQ,09/10/2016 06:35 UTC,29.85,67.46,67.46,100.0,4.61,270.0,,,,,,114.0,,,,10.0,,KIGQ 100635Z AUTO 27004KT 10SM OVC011 20/20 A2985 RMK AO2  T01970197,,,1100.0,,,67.46,,W,29.2,27.79,,Overcast
KIGQ,09/10/2016 06:55 UTC,29.83,67.28,67.28,100.0,0.0,0.0,,,,,,114.0,,,,10.0,,KIGQ 100655Z AUTO 00000KT 10SM OVC011 20/20 A2983 RMK AO2  T01960196,,,1100.0,,,67.28,,N,29.18,27.78,,Overcast
KIGQ,09/10/2016 07:15 UTC,29.83,67.46,67.28,100.0,0.0,0.0,,,,,,114.0,,,,10.0,,KIGQ 100715Z AUTO 00000KT 10SM OVC011 20/20 A2983 RMK AO2  T01970196,,,1100.0,,,67.46,,N,29.18,27.77,,Overcast
KIGQ,09/10/2016 07:35 UTC,29.83,67.64,67.28,100.0,3.44,280.0,,,,,,114.0,,,,10.0,,KIGQ 100735Z AUTO 28003KT 10SM OVC011 20/20 A2983 RMK AO2  T01980196,,,1100.0,,,67.64,,W,29.18,27.75,,Overcast
KIGQ,09/10/2016 07:55 UTC,29.83,67.28,67.1,100.0,3.44,230.0,,,,,,114.0,,,,10.0,,KIGQ 100755Z AUTO 23003KT 10SM OVC011 20/20 A2983 RMK AO2  T01960195,,,1100.0,,,67.28,,SW,29.18,27.78,,Overcast
KIGQ,09/10/2016 08:15 UTC,29.83,66.92,66.92,100.0,5.75,230.0,,,,,,154.0,,,,10.0,,KIGQ 100815Z AUTO 23005KT 10SM OVC015 19/19 A2983 RMK AO2  T01940194,,,1500.0,,,66.92,,SW,29.18,27.81,,Overcast
KIGQ,09/10/2016 08:35 UTC,29.83,67.1,66.74,93.98,5.75,240.0,,,,,,154.0,,,,10.0,,KIGQ 100835Z AUTO 24005KT 10SM OVC015 20/19 A2983 RMK AO2  T01950193,,,1500.0,,,65.3,,WSW,29.18,27.91,,Overcast
KIGQ,09/10/2016 08:55 UTC,29.83,67.1,66.56,93.98,9.22,260.0,,,,,,134.0,,,,10.0,,KIGQ 100855Z AUTO 26008KT 10SM OVC013 20/19 A2983 RMK AO2  T01950192,,,1300.0,,,65.3,,W,29.18,27.91,,Overcast
KIGQ,09/10/2016 09:15 UTC,29.83,66.74,66.38,100.0,8.05,260.0,,,,,,134.0,,,,10.0,,KIGQ 100915Z AUTO 26007KT 10SM OVC013 19/19 A2983 RMK AO2  T01930191,,,1300.0,,,66.74,,W,29.18,27.82,,Overcast
KIGQ,09/10/2016 09:35 UTC,29.84,66.56,66.56,100.0,8.05,260.0,,,,,,83.0,154.0,,,7.0,,KIGQ 100935Z AUTO 26007KT 7SM BKN008 OVC015 19/19 A2984 RMK AO2  LTG DSNT SW T01920192,,,800.0,,,66.56,,W,29.19,27.85,,Overcast
KIGQ,09/10/2016 09:55 UTC,29.84,66.56,66.56,100.0,8.05,270.0,,31.0,,,,64.0,,,,5.0,,KIGQ 100955Z AUTO 27007KT 5SM BR OVC006 19/19 A2984 RMK AO2  T01920192,,,600.0,,,66.56,,W,29.19,27.85,,Mist
KIGQ,09/10/2016 10:15 UTC,29.84,66.38,66.38,100.0,6.91,270.0,,31.0,,,,44.0,,,,4.0,,KIGQ 101015Z AUTO 27006KT 4SM BR OVC004 19/19 A2984 RMK AO2  T01910191,,,400.0,,,66.38,,W,29.19,27.86,,Mist
KIGQ,09/10/2016 10:35 UTC,29.85,66.38,66.38,100.0,3.44,230.0,,31.0,,,,44.0,,,,4.0,,KIGQ 101035Z AUTO 23003KT 4SM BR OVC004 19/19 A2985 RMK AO2  T01910191,,,400.0,,,66.38,,SW,29.2,27.87,,Mist
KIGQ,09/10/2016 10:55 UTC,29.85,66.56,66.56,100.0,6.91,250.0,,31.0,,,,44.0,,,,5.0,,KIGQ 101055Z AUTO 25006KT 5SM BR OVC004 19/19 A2985 RMK AO2  T01920192,,,400.0,,,66.56,,WSW,29.2,27.86,,Mist
KIGQ,09/10/2016 11:15 UTC,29.86,66.56,66.56,100.0,5.75,250.0,,31.0,,,,44.0,,,,5.0,,KIGQ 101115Z AUTO 25005KT 5SM BR OVC004 19/19 A2986 RMK AO2  T01920192,,,400.0,,,66.56,,WSW,29.21,27.87,,Mist
KIGQ,09/10/2016 11:35 UTC,29.86,66.56,66.56,100.0,4.61,230.0,,31.0,,,,43.0,104.0,,,4.0,,KIGQ 101135Z AUTO 23004KT 4SM BR BKN004 OVC010 19/19 A2986 RMK AO2  T01920192,,,400.0,,,66.56,,SW,29.21,27.87,,Mist
KIGQ,09/10/2016 11:55 UTC,29.86,66.38,66.38,100.0,5.75,210.0,,31.0,,,,74.0,,,0.17,2.5,,KIGQ 101155Z AUTO 21005KT 2 1/2SM BR OVC007 19/19 A2986 RMK AO2  70017 T01910191 10200 20191,68.0,66.38,700.0,,,66.38,,SSW,29.21,27.88,,Mist
KIGQ,09/10/2016 12:15 UTC,29.86,66.38,66.38,100.0,4.61,240.0,,13.0,,,,54.0,,,,3.0,,KIGQ 101215Z AUTO 24004KT 3SM -RA OVC005 19/19 A2986 RMK AO2  T01910191,,,500.0,,,66.38,,WSW,29.21,27.88,,Light Rain
KIGQ,09/10/2016 12:35 UTC,29.85,66.56,66.56,100.0,4.61,230.0,,13.0,,,,54.0,,,,2.5,,KIGQ 101235Z AUTO 23004KT 2 1/2SM -RA OVC005 19/19 A2985 RMK AO2  T01920192,,,500.0,,,66.56,,SW,29.2,27.86,,Light Rain
KIGQ,09/10/2016 12:55 UTC,29.84,66.74,66.74,100.0,4.61,210.0,,13.0,,,,54.0,,,,2.0,,KIGQ 101255Z AUTO 21004KT 2SM -RA OVC005 19/19 A2984 RMK AO2  T01930193,,,500.0,,,66.74,,SSW,29.19,27.83,,Light Rain
KIGQ,09/10/2016 13:15 UTC,29.83,67.46,67.46,100.0,4.61,220.0,,13.0,,,,74.0,,,,3.0,,KIGQ 101315Z AUTO 22004KT 3SM -RA OVC007 20/20 A2983 RMK AO2  T01970197,,,700.0,,,67.46,,SW,29.18,27.77,,Light Rain
KIGQ,09/10/2016 13:35 UTC,29.82,68.18,68.18,100.0,6.91,250.0,,31.0,,,,74.0,,,,4.0,,KIGQ 101335Z AUTO 25006KT 4SM BR OVC007 20/20 A2982 RMK AO2  T02010201,,,700.0,,,68.18,,WSW,29.17,27.7,,Mist
KIGQ,09/10/2016 13:55 UTC,29.82,69.26,69.26,100.0,5.75,260.0,,,,,,94.0,,,,7.0,,KIGQ 101355Z AUTO 26005KT 7SM OVC009 21/21 A2982 RMK AO2  T02070207,,,900.0,,,69.26,,W,29.17,27.61,,Overcast
KIGQ,09/10/2016 14:15 UTC,29.81,70.7,69.62,94.07,9.22,260.0,,,,,,93.0,133.0,,,10.0,,KIGQ 101415Z AUTO 26008KT 10SM BKN009 BKN013 22/21 A2981 RMK AO2  T02150209,,,900.0,,,68.9,,W,29.16,27.6,,Mostly Cloudy
KIGQ,09/10/2016 14:35 UTC,29.82,69.98,68.54,94.03,10.36,260.0,,,,,,113.0,1003.0,,,10.0,,KIGQ 101435Z AUTO 26009KT 10SM BKN011 BKN100 21/20 A2982 RMK AO2  T02110203,,,1100.0,,,68.17,,W,29.17,27.67,,Mostly Cloudy
KIGQ,09/10/2016 14:55 UTC,29.83,69.8,68.18,94.03,9.22,250.0,,,,,,113.0,904.0,,,10.0,,KIGQ 101455Z AUTO 25008KT 10SM BKN011 OVC090 21/20 A2983 RMK AO2  T02100201,,,1100.0,,,67.99,,WSW,29.18,27.7,,Overcast
KIGQ,09/10/2016 15:15 UTC,29.84,69.8,67.46,94.03,9.22,260.0,,,,,,132.0,904.0,,,10.0,,KIGQ 101515Z AUTO 26008KT 10SM SCT013 OVC090 21/20 A2984 RMK AO2  T02100197,,,9000.0,,,67.99,,W,29.19,27.71,,Overcast
KIGQ,09/10/2016 15:35 UTC,29.85,69.26,66.92,88.37,14.97,260.0,20.71,,804.0,,,132.0,602.0,,,10.0,,KIGQ 101535Z AUTO 26013G18KT 10SM SCT013 SCT060 OVC080 21/19  A2985 RMK AO2 T02070194,,,8000.0,,,65.65,,W,29.2,27.88,,Overcast
KIGQ,09/10/2016 15:55 UTC,29.86,68.9,66.74,88.37,12.66,260.0,19.57,13.0,804.0,,,153.0,203.0,,,10.0,,KIGQ 101555Z AUTO 26011G17KT 10SM -RA BKN015 BKN020 OVC080 21/19  A2986 RMK AO2 T02050193,,,1500.0,,,65.3,,W,29.21,27.92,,Light Rain
KIGQ,09/10/2016 16:15 UTC,29.86,68.0,66.2,93.98,12.66,250.0,20.71,13.0,,,,153.0,244.0,,,10.0,,KIGQ 101615Z AUTO 25011G18KT 10SM -RA BKN015 OVC024 20/19  A2986 RMK AO2 T02000190,,,1500.0,,,66.19,,WSW,29.21,27.87,,Light Rain
KIGQ,09/10/2016 16:35 UTC,29.87,68.18,66.2,93.98,16.11,270.0,23.02,,284.0,,,152.0,213.0,,,10.0,,KIGQ 101635Z AUTO 27014G20KT 10SM SCT015 BKN021 OVC028 20/19  A2987 RMK AO2 T02010190,,,2100.0,,,66.37,,W,29.22,27.87,,Overcast
KIGQ,09/10/2016 16:55 UTC,29.87,68.72,66.74,93.98,10.36,270.0,16.11,,,,,153.0,204.0,,,10.0,,KIGQ 101655Z AUTO 27009G14KT 10SM BKN015 OVC020 20/19 A2987 RMK AO2 T02040193,,,1500.0,,,66.91,,W,29.22,27.83,,Overcast
KIGQ,09/10/2016 17:15 UTC,29.87,68.72,66.56,93.98,11.5,280.0,25.32,,,,,133.0,234.0,,,10.0,,KIGQ 101715Z AUTO 28010G22KT 10SM BKN013 OVC023 20/19 A2987 RMK AO2 T02040192,,,1300.0,,,66.91,,W,29.22,27.83,,Overcast
KIGQ,09/10/2016 17:35 UTC,29.87,69.8,65.66,88.37,10.36,320.0,16.11,,324.0,,,153.0,223.0,,,10.0,,KIGQ 101735Z AUTO 32009G14KT 10SM BKN015 BKN022 OVC032 21/19  A2987 RMK AO2 T02100187,,,1500.0,,,66.19,,NW,29.22,27.86,,Overcast
KIGQ,09/10/2016 17:55 UTC,29.89,70.7,64.4,78.09,14.97,310.0,23.02,,854.0,,,152.0,233.0,,,10.0,,KIGQ 101755Z AUTO 31013G20KT 10SM SCT015 BKN023 OVC085 22/18  A2989 RMK AO2 T02150180 10215 20191,70.7,66.38,2300.0,,,63.5,,NW,29.24,28.03,,Overcast
KIGQ,09/10/2016 18:15 UTC,29.9,71.06,63.32,73.32,14.97,280.0,25.32,,803.0,,,253.0,323.0,,,10.0,,KIGQ 101815Z AUTO 28013G22KT 10SM BKN025 BKN032 BKN080 22/17  A2990 RMK AO2 T02170174,,,2500.0,,,62.05,,W,29.25,28.12,,Mostly Cloudy
KIGQ,09/10/2016 18:35 UTC,29.91,71.42,62.78,73.32,23.02,280.0,28.77,,,,,313.0,1103.0,,,10.0,,KIGQ 101835Z AUTO 28020G25KT 10SM BKN031 BKN110 22/17 A2991 RMK AO2 T02190171,,,3100.0,,,62.4,,W,29.26,28.11,,Mostly Cloudy
KIGQ,09/10/2016 18:55 UTC,29.92,71.24,61.7,73.32,12.66,310.0,18.41,,1203.0,,,343.0,463.0,,,10.0,,KIGQ 101855Z AUTO 31011G16KT 10SM BKN034 BKN046 BKN120 22/17  A2992 RMK AO2 T02180165,,,3400.0,,,62.23,,NW,29.27,28.13,,Mostly Cloudy
KIGQ,09/10/2016 19:15 UTC,29.93,71.24,60.26,68.81,12.66,300.0,23.02,,503.0,,,362.0,462.0,,,10.0,,KIGQ 101915Z AUTO 30011G20KT 10SM SCT036 SCT046 BKN050 22/16  A2993 RMK AO2 T02180157,,,5000.0,,,60.42,,WNW,29.28,28.24,,Mostly Cloudy
KIGQ,09/10/2016 19:35 UTC,29.93,71.6,58.46,64.54,11.5,300.0,20.71,,502.0,,,382.0,432.0,,,10.0,,KIGQ 101935Z AUTO 30010G18KT 10SM SCT038 SCT043 SCT050 22/15  A2993 RMK AO2 T02200147,,,,,,58.96,,WNW,29.28,28.32,,Partly Cloudy
KIGQ,09/10/2016 19:55 UTC,29.92,71.96,58.82,64.54,13.8,290.0,23.02,,,,,422.0,,,,10.0,,KIGQ 101955Z AUTO 29012G20KT 10SM SCT042 22/15 A2992 RMK AO2  T02220149,,,,,,59.31,,WNW,29.27,28.29,,Partly Cloudy
KIGQ,09/10/2016 20:15 UTC,29.92,72.68,58.46,60.75,9.22,300.0,23.02,,,,,443.0,503.0,,,10.0,,KIGQ 102015Z AUTO 30008G20KT 10SM BKN044 BKN050 23/15 A2992 RMK AO2 T02260147,,,4400.0,,,58.29,,WNW,29.27,28.33,,Mostly Cloudy
KIGQ,09/10/2016 20:35 UTC,29.92,72.68,57.92,56.95,18.41,290.0,27.63,,,,,442.0,502.0,,,10.0,,KIGQ 102035Z AUTO 29016G24KT 10SM SCT044 SCT050 23/14 A2992 RMK AO2 T02260144,,,,,,56.49,,WNW,29.27,28.42,,Partly Cloudy
KIGQ,09/10/2016 20:55 UTC,29.93,71.78,57.38,60.51,10.36,300.0,,,,,,462.0,,,,10.0,,KIGQ 102055Z AUTO 30009KT 10SM SCT046 22/14 A2993 RMK AO2  T02210141,,,,,,57.33,,WNW,29.28,28.4,,Partly Cloudy
KIGQ,09/10/2016 21:15 UTC,29.92,72.5,57.56,56.95,12.66,310.0,,,,,,462.0,,,,10.0,,KIGQ 102115Z AUTO 31011KT 10SM SCT046 23/14 A2992 RMK AO2  T02250142,,,,,,56.32,,NW,29.27,28.43,,Partly Cloudy
KIGQ,09/10/2016 21:35 UTC,29.92,71.78,56.66,60.51,11.5,290.0,20.71,,,,,1.0,,,,10.0,,KIGQ 102135Z AUTO 29010G18KT 10SM CLR 22/14 A2992 RMK AO2  T02210137,,,,,,57.33,,WNW,29.27,28.39,,Clear
KIGQ,09/10/2016 21:55 UTC,29.92,71.6,56.66,60.51,10.36,290.0,,,,,,1.0,,,,10.0,,KIGQ 102155Z AUTO 29009KT 10SM CLR 22/14 A2992 RMK AO2  T02200137,,,,,,57.16,,WNW,29.27,28.4,,Clear
KIGQ,09/10/2016 22:15 UTC,29.92,69.98,57.2,64.32,10.36,300.0,16.11,,,,,852.0,,,,10.0,,KIGQ 102215Z AUTO 30009G14KT 10SM SCT085 21/14 A2992 RMK AO2  T02110140,,,,,,57.33,,WNW,29.27,28.41,,Partly Cloudy
KIGQ,09/10/2016 22:35 UTC,29.93,71.06,57.92,60.51,6.91,290.0,,,854.0,,,502.0,553.0,,,10.0,,KIGQ 102235Z AUTO 29006KT 10SM SCT050 BKN055 OVC085 22/14  A2993 RMK AO2 T02170144,,,5500.0,,,56.65,,WNW,29.28,28.44,,Overcast
KIGQ,09/10/2016 22:55 UTC,29.94,69.8,58.1,68.61,6.91,290.0,,,,,,502.0,902.0,,,10.0,,KIGQ 102255Z AUTO 29006KT 10SM SCT050 SCT090 21/15 A2994 RMK AO2  T02100145,,,,,,58.96,,WNW,29.29,28.35,,Partly Cloudy
KIGQ,09/10/2016 23:15 UTC,29.96,70.34,57.56,64.32,6.91,290.0,20.71,,,,,902.0,,,,10.0,,KIGQ 102315Z AUTO 29006G18KT 10SM SCT090 21/14 A2996 RMK AO2  T02130142,,,,,,57.67,,WNW,29.31,28.43,,Partly Cloudy
KIGQ,09/10/2016 23:35 UTC,29.98,69.62,56.48,64.32,12.66,290.0,21.85,,,,,1.0,,,,10.0,,KIGQ 102335Z AUTO 29011G19KT 10SM CLR 21/14 A2998 RMK AO2  T02090136,,,,,,56.98,,WNW,29.33,28.49,,Clear
KIGQ,09/10/2016 23:55 UTC,29.99,68.36,56.3,68.41,11.5,290.0,16.11,,,,,1.0,,,,10.0,,KIGQ 102355Z AUTO 29010G14KT 10SM CLR 20/14 A2999 RMK AO2 LTG DSNT  NE T02020135 10229 20202,73.22,68.36,,,,57.5,,WNW,29.34,28.49,,Clear
KIGQ,09/11/2016 00:15 UTC,30.0,67.46,56.48,68.41,10.36,290.0,,,,,,902.0,,,,10.0,,KIGQ 110015Z AUTO 29009KT 10SM SCT090 20/14 A3000 RMK AO2  T01970136,,,,,,56.64,,WNW,29.35,28.55,,Partly Cloudy
KIGQ,09/11/2016 00:35 UTC,30.01,66.38,56.66,72.78,6.91,290.0,,,,,,1.0,,,,10.0,,KIGQ 110035Z AUTO 29006KT 10SM CLR 19/14 A3001 RMK AO2  T01910137,,,,,,57.33,,WNW,29.36,28.54,,Clear
KIGQ,09/11/2016 00:55 UTC,30.02,65.66,56.84,72.78,6.91,290.0,,,,,,502.0,,,,10.0,,KIGQ 110055Z AUTO 29006KT 10SM SCT050 19/14 A3002 RMK AO2  T01870138,,,,,,56.63,,WNW,29.37,28.59,,Partly Cloudy
KIGQ,09/11/2016 01:15 UTC,30.03,64.76,56.84,77.48,5.75,290.0,,,,,,502.0,,,,10.0,,KIGQ 110115Z AUTO 29005KT 10SM SCT050 18/14 A3003 RMK AO2  T01820138,,,,,,57.51,,WNW,29.38,28.57,,Partly Cloudy
KIGQ,09/11/2016 01:35 UTC,30.04,64.58,57.2,77.48,6.91,280.0,,,,,,1.0,,,,10.0,,KIGQ 110135Z AUTO 28006KT 10SM CLR 18/14 A3004 RMK AO2  T01810140,,,,,,57.33,,W,29.39,28.59,,Clear
KIGQ,09/11/2016 01:55 UTC,30.05,64.22,57.2,77.48,5.75,290.0,,,,,,1.0,,,,10.0,,KIGQ 110155Z AUTO 29005KT 10SM CLR 18/14 A3005 RMK AO2  T01790140,,,,,,56.98,,WNW,29.4,28.62,,Clear
KIGQ,09/11/2016 02:15 UTC,30.06,63.86,57.2,77.48,5.75,290.0,,,,,,1.0,,,,10.0,,KIGQ 110215Z AUTO 29005KT 10SM CLR 18/14 A3006 RMK AO2  T01770140,,,,,,56.63,,WNW,29.41,28.65,,Clear
KIGQ,09/11/2016 02:35 UTC,30.08,64.4,57.2,77.48,5.75,300.0,,,,,,1.0,,,,10.0,,KIGQ 110235Z AUTO 30005KT 10SM CLR 18/14 A3008 RMK AO2  T01800140,,,,,,57.16,,WNW,29.43,28.64,,Clear
KIGQ,09/11/2016 02:55 UTC,30.08,63.86,57.2,77.48,4.61,310.0,,,,,,1.0,,,,10.0,,KIGQ 110255Z AUTO 31004KT 10SM CLR 18/14 A3008 RMK AO2  T01770140,,,,,,56.63,,NW,29.43,28.67,,Clear
KIGQ,09/11/2016 03:15 UTC,30.09,63.32,57.2,82.52,5.75,310.0,,,,,,1.0,,,,10.0,,KIGQ 110315Z AUTO 31005KT 10SM CLR 17/14 A3009 RMK AO2  T01740140,,,,,,57.87,,NW,29.44,28.63,,Clear
KIGQ,09/11/2016 03:35 UTC,30.09,62.6,56.66,80.93,3.44,300.0,,,,,,1.0,,,,10.0,,KIGQ 110335Z AUTO 30003KT 10SM CLR 17/14 A3009 RMK AO2  T01700137,,,,,,56.62,,WNW,29.44,28.7,,Clear
KIGQ,09/11/2016 03:55 UTC,30.1,62.06,56.66,82.49,0.0,0.0,,,,,,1.0,,,,10.0,,KIGQ 110355Z AUTO 00000KT 10SM CLR 17/14 A3010 RMK AO2  T01670137,,,,,,56.62,,N,29.45,28.71,,Clear
KIGQ,09/11/2016 04:15 UTC,30.1,61.16,55.58,82.4,0.0,0.0,,,,,,1.0,,,,10.0,,KIGQ 110415Z AUTO 00000KT 10SM CLR 16/13 A3010 RMK AO2  T01620131,,,,,,55.71,,N,29.45,28.76,,Clear
KIGQ,09/11/2016 04:35 UTC,30.1,60.98,55.04,82.4,3.44,310.0,,,,,,1.0,,,,10.0,,KIGQ 110435Z AUTO 31003KT 10SM CLR 16/13 A3010 RMK AO2  T01610128,,,,,,55.54,,NW,29.45,28.77,,Clear
KIGQ,09/11/2016 04:55 UTC,30.1,60.8,54.68,82.4,3.44,300.0,,,,,,1.0,,,,10.0,,KIGQ 110455Z AUTO 30003KT 10SM CLR 16/13 A3010 RMK AO2  T01600126,,,,,,55.36,,WNW,29.45,28.78,,Clear
KIGQ,09/11/2016 05:15 UTC,30.1,59.0,54.5,87.85,4.61,290.0,,,,,,1.0,,,,10.0,,KIGQ 110515Z AUTO 29004KT 10SM CLR 15/13 A3010 RMK AO2  T01500125,,,,,,55.37,,WNW,29.45,28.8,,Clear
KIGQ,09/11/2016 05:35 UTC,30.11,59.36,54.5,87.85,4.61,290.0,,,,,,1.0,,,,10.0,,KIGQ 110535Z AUTO 29004KT 10SM CLR 15/13 A3011 RMK AO2  T01520125,,,,,,55.73,,WNW,29.46,28.79,,Clear
KIGQ,09/11/2016 05:55 UTC,30.11,58.46,54.5,87.85,0.0,0.0,,,,,,1.0,,,,10.0,,KIGQ 110555Z AUTO 00000KT 10SM CLR 15/13 A3011 RMK AO2 T01470125  10202 20147 402290147,68.36,58.46,,73.22,58.46,54.84,,N,29.46,28.84,,Clear
KIGQ,09/11/2016 06:15 UTC,30.12,56.66,54.32,87.75,0.0,0.0,,,,,,1.0,,,,10.0,,KIGQ 110615Z AUTO 00000KT 10SM CLR 14/12 A3012 RMK AO2  T01370124,,,,,,53.03,,N,29.47,28.95,,Clear
KIGQ,09/11/2016 06:35 UTC,30.12,54.86,53.78,93.65,0.0,0.0,,,,,,1.0,,,,10.0,,KIGQ 110635Z AUTO 00000KT 10SM CLR 13/12 A3012 RMK AO2  T01270121,,,,,,53.05,,N,29.47,28.97,,Clear
KIGQ,09/11/2016 06:55 UTC,30.13,55.4,54.32,93.65,0.0,0.0,,,,,,1.0,,,,10.0,,KIGQ 110655Z AUTO 00000KT 10SM CLR 13/12 A3013 RMK AO2  T01300124,,,,,,53.58,,N,29.47,28.94,,Clear
KIGQ,09/11/2016 07:15 UTC,30.14,55.94,54.5,100.0,3.44,280.0,,,,,,1.0,,,,10.0,,KIGQ 110715Z AUTO 28003KT 10SM CLR 13/13 A3014 RMK AO2  T01330125,,,,,,55.94,,W,29.48,28.85,,Clear
KIGQ,09/11/2016 07:35 UTC,30.14,55.76,54.68,100.0,0.0,0.0,,,,,,1.0,,,,10.0,,KIGQ 110735Z AUTO 00000KT 10SM CLR 13/13 A3014 RMK AO2  T01320126,,,,,,55.76,,N,29.48,28.86,,Clear
KIGQ,09/11/2016 07:55 UTC,30.14,54.86,53.96,93.65,0.0,0.0,,,,,,1.0,,,,10.0,,KIGQ 110755Z AUTO 00000KT 10SM CLR 13/12 A3014 RMK AO2  T01270122,,,,,,53.05,,N,29.48,28.98,,Clear
KIGQ,09/11/2016 08:15 UTC,30.15,53.6,53.6,100.0,0.0,0.0,,,,,,1.0,,,,10.0,,KIGQ 110815Z AUTO 00000KT 10SM CLR 12/12 A3015 RMK AO2  T01200120,,,,,,53.6,,N,29.49,28.98,,Clear
KIGQ,09/11/2016 08:35 UTC,30.15,52.88,52.88,100.0,0.0,0.0,,,,,,1.0,,,,10.0,,KIGQ 110835Z AUTO 00000KT 10SM CLR 12/12 A3015 RMK AO2  T01160116,,,,,,52.88,,N,29.49,29.02,,Clear
KIGQ,09/11/2016 08:55 UTC,30.16,54.14,54.14,100.0,3.44,270.0,,,,,,1.0,,,,10.0,,KIGQ 110855Z AUTO 27003KT 10SM CLR 12/12 A3016 RMK AO2  T01230123,,,,,,54.14,,W,29.5,28.96,,Clear
KIGQ,09/11/2016 09:15 UTC,30.16,54.32,54.32,100.0,3.44,280.0,,,,,,1.0,,,,10.0,,KIGQ 110915Z AUTO 28003KT 10SM CLR 12/12 A3016 RMK AO2  T01240124,,,,,,54.32,,W,29.5,28.95,,Clear
KIGQ,09/11/2016 09:35 UTC,30.16,53.6,53.6,100.0,3.44,270.0,,,,,,1.0,,,,10.0,,KIGQ 110935Z AUTO 27003KT 10SM CLR 12/12 A3016 RMK AO2  T01200120,,,,,,53.6,,W,29.5,28.99,,Clear
KIGQ,09/11/2016 09:55 UTC,30.17,54.14,54.14,100.0,0.0,0.0,,,,,,1.0,,,,10.0,,KIGQ 110955Z AUTO 00000KT 10SM CLR 12/12 A3017 RMK AO2  T01230123,,,,,,54.14,,N,29.51,28.97,,Clear
KIGQ,09/11/2016 10:15 UTC,30.18,52.7,52.7,100.0,3.44,230.0,,,,,,1.0,,,,10.0,,KIGQ 111015Z AUTO 23003KT 10SM CLR 12/12 A3018 RMK AO2  T01150115,,,,,,52.7,,SW,29.52,29.06,,Clear
KIGQ,09/11/2016 10:35 UTC,30.18,51.8,51.8,100.0,0.0,0.0,,,,,,1.0,,,,10.0,,KIGQ 111035Z AUTO 00000KT 10SM CLR 11/11 A3018 RMK AO2  T01100110,,,,,,51.8,,N,29.52,29.1,,Clear
KIGQ,09/11/2016 10:55 UTC,30.19,51.44,51.44,100.0,0.0,0.0,,,,,,1.0,,,,10.0,,KIGQ 111055Z AUTO 00000KT 10SM CLR 11/11 A3019 RMK AO2  T01080108,,,,,,51.44,,N,29.53,29.13,,Clear
KIGQ,09/11/2016 11:15 UTC,30.19,52.7,52.7,100.0,0.0,0.0,,,,,,1.0,,,,10.0,,KIGQ 111115Z AUTO 00000KT 10SM CLR 12/12 A3019 RMK AO2  T01150115,,,,,,52.7,,N,29.53,29.07,,Clear
KIGQ,09/11/2016 11:35 UTC,30.2,52.34,52.34,100.0,0.0,0.0,,,,,,1.0,,,,10.0,,KIGQ 111135Z AUTO 00000KT 10SM CLR 11/11 A3020 RMK AO2  T01130113,,,,,,52.34,,N,29.54,29.09,,Clear
KIGQ,09/11/2016 11:55 UTC,30.21,52.16,52.16,100.0,0.0,0.0,,,,,,1.0,,,,10.0,,KIGQ 111155Z AUTO 00000KT 10SM CLR 11/11 A3021 RMK AO2 T01120112  10147 20107,58.46,51.26,,,,52.16,,N,29.55,29.11,,Clear
KIGQ,09/11/2016 12:15 UTC,30.21,51.98,51.98,100.0,0.0,0.0,,,,,,1.0,,,,10.0,,KIGQ 111215Z AUTO 00000KT 10SM CLR 11/11 A3021 RMK AO2  T01110111,,,,,,51.98,,N,29.55,29.12,,Clear
KIGQ,09/11/2016 12:35 UTC,30.21,55.04,55.04,100.0,0.0,0.0,,,,,,1.0,,,,10.0,,KIGQ 111235Z AUTO 00000KT 10SM CLR 13/13 A3021 RMK AO2  T01280128,,,,,,55.04,,N,29.55,28.97,,Clear
KIGQ,09/11/2016 12:55 UTC,30.21,58.64,57.02,93.75,3.44,270.0,,,,,,1.0,,,,10.0,,KIGQ 111255Z AUTO 27003KT 10SM CLR 15/14 A3021 RMK AO2  T01480139,,,,,,56.83,,W,29.55,28.85,,Clear
KIGQ,09/11/2016 13:15 UTC,30.21,60.26,57.38,87.94,0.0,0.0,,,,,,1.0,,,,10.0,,KIGQ 111315Z AUTO 00000KT 10SM CLR 16/14 A3021 RMK AO2  T01570141,,,,,,56.64,,N,29.55,28.84,,Clear
KIGQ,09/11/2016 13:35 UTC,30.22,61.7,57.92,82.52,0.0,0.0,,,,,,1.0,,,,10.0,,KIGQ 111335Z AUTO 00000KT 10SM CLR 17/14 A3022 RMK AO2  T01650144,,,,,,56.28,,N,29.56,28.85,,Clear
KIGQ,09/11/2016 13:55 UTC,30.22,63.86,58.64,82.65,0.0,0.0,,,,,,1.0,,,,10.0,,KIGQ 111355Z AUTO 00000KT 10SM CLR 18/15 A3022 RMK AO2  T01770148,,,,,,58.44,,N,29.56,28.72,,Clear
KIGQ,09/11/2016 14:15 UTC,30.23,65.48,59.0,77.64,0.0,0.0,,,,,,1.0,,,,10.0,,KIGQ 111415Z AUTO 00000KT 10SM CLR 19/15 A3023 RMK AO2  T01860150,,,,,,58.26,,N,29.57,28.72,,Clear
KIGQ,09/11/2016 14:35 UTC,30.23,66.92,58.1,77.64,0.0,0.0,,,,,,1.0,,,,10.0,,KIGQ 111435Z AUTO 00000KT 10SM CLR 19/15 A3023 RMK AO2  T01940145,,,,,,59.66,,N,29.57,28.63,,Clear
KIGQ,09/11/2016 14:55 UTC,30.23,67.82,58.46,72.97,4.61,190.0,,,,,,1.0,,,,10.0,,KIGQ 111455Z AUTO 19004KT 10SM CLR 20/15 A3023 RMK AO2  T01990147,,,,,,58.79,,S,29.57,28.67,,Clear
KIGQ,09/11/2016 15:15 UTC,30.23,68.9,57.92,64.32,0.0,0.0,,,,,,1.0,,,,10.0,,KIGQ 111515Z AUTO 00000KT 10SM CLR 21/14 A3023 RMK AO2  T02050144,,,,,,56.3,,N,29.57,28.78,,Clear
KIGQ,09/11/2016 15:35 UTC,30.24,69.08,56.12,60.27,4.61,230.0,,,,,,1.0,,,,10.0,,KIGQ 111535Z AUTO 23004KT 10SM CLR 21/13 A3024 RMK AO2  T02060134,,,,,,54.67,,SW,29.58,28.86,,Clear
KIGQ,09/11/2016 15:55 UTC,30.23,70.16,55.94,60.27,6.91,200.0,,,,,,432.0,,,,10.0,,KIGQ 111555Z AUTO 20006KT 10SM SCT043 21/13 A3023 RMK AO2  T02120133,,,,,,55.69,,SSW,29.57,28.79,,Partly Cloudy
KIGQ,09/11/2016 16:15 UTC,30.23,70.88,56.3,60.51,5.75,210.0,,,,,,472.0,,,,10.0,,KIGQ 111615Z AUTO 21005KT 10SM SCT047 22/14 A3023 RMK AO2  T02160135,,,,,,56.48,,SSW,29.57,28.75,,Partly Cloudy
KIGQ,09/11/2016 16:35 UTC,30.22,71.24,55.76,56.7,5.75,180.0,,,,,,472.0,,,,10.0,,KIGQ 111635Z AUTO 18005KT 10SM SCT047 22/13 A3022 RMK AO2  T02180132,,,,,,55.02,,S,29.56,28.8,,Partly Cloudy
KIGQ,09/11/2016 16:55 UTC,30.22,71.42,55.4,56.7,3.44,240.0,,,,,,492.0,,,,10.0,,KIGQ 111655Z AUTO 24003KT 10SM SCT049 22/13 A3022 RMK AO2  T02190130,,,,,,55.19,,WSW,29.56,28.79,,Partly Cloudy
KIGQ,09/11/2016 17:15 UTC,30.22,71.78,55.94,56.7,5.75,230.0,,,,,,492.0,,,,10.0,,KIGQ 111715Z AUTO 23005KT 10SM SCT049 22/13 A3022 RMK AO2  T02210133,,,,,,55.53,,SW,29.56,28.78,,Partly Cloudy
KIGQ,09/11/2016 17:35 UTC,30.21,70.7,52.88,53.1,0.0,0.0,,,,,,1.0,,,,10.0,,KIGQ 111735Z AUTO 00000KT 10SM CLR 22/12 A3021 RMK AO2  T02150116,,,,,,52.71,,N,29.55,28.9,,Clear
KIGQ,09/11/2016 17:55 UTC,30.21,72.32,54.32,53.1,0.0,0.0,,,,,,1.0,,,,10.0,,KIGQ 111755Z AUTO 00000KT 10SM CLR 22/12 A3021 RMK AO2 T02240124  10225 20107,72.5,51.26,,,,54.22,,N,29.55,28.82,,Clear
KIGQ,09/11/2016 18:15 UTC,30.2,73.4,54.68,53.36,6.91,250.0,,,,,,552.0,,,,10.0,,KIGQ 111815Z AUTO 25006KT 10SM SCT055 23/13 A3020 RMK AO2  T02300126,,,,,,55.36,,WSW,29.54,28.75,,Partly Cloudy
KIGQ,09/11/2016 18:35 UTC,30.2,73.4,54.32,49.97,6.91,300.0,,,,,,552.0,,,,10.0,,KIGQ 111835Z AUTO 30006KT 10SM SCT055 23/12 A3020 RMK AO2  T02300124,,,,,,53.56,,WNW,29.54,28.83,,Partly Cloudy
KIGQ,09/11/2016 18:55 UTC,30.19,71.96,54.68,56.7,4.61,250.0,,,,,,553.0,,,,10.0,,KIGQ 111855Z AUTO 25004KT 10SM BKN055 22/13 A3019 RMK AO2  T02220126,,,5500.0,,,55.69,,WSW,29.53,28.73,,Mostly Cloudy
KIGQ,09/11/2016 19:15 UTC,30.19,72.86,53.06,49.97,4.61,160.0,,,,,,552.0,,,,10.0,,KIGQ 111915Z AUTO 16004KT 10SM SCT055 23/12 A3019 RMK AO2  T02270117,,,,,,53.06,,SSE,29.53,28.85,,Partly Cloudy
KIGQ,09/11/2016 19:35 UTC,30.18,73.94,54.5,53.36,3.44,250.0,,,,,,1.0,,,,10.0,,KIGQ 111935Z AUTO 25003KT 10SM CLR 23/13 A3018 RMK AO2  T02330125,,,,,,55.87,,WSW,29.52,28.7,,Clear
KIGQ,09/11/2016 19:55 UTC,30.18,73.76,54.86,53.36,5.75,250.0,,,,,,603.0,,,,10.0,,KIGQ 111955Z AUTO 25005KT 10SM BKN060 23/13 A3018 RMK AO2  T02320127,,,6000.0,,,55.7,,WSW,29.52,28.71,,Mostly Cloudy
KIGQ,09/11/2016 20:15 UTC,30.17,75.02,54.86,50.25,5.75,230.0,,,,,,602.0,,,,10.0,,KIGQ 112015Z AUTO 23005KT 10SM SCT060 24/13 A3017 RMK AO2  T02390127,,,,,,55.21,,SW,29.51,28.71,,Partly Cloudy
KIGQ,09/11/2016 20:35 UTC,30.16,72.32,53.78,53.1,6.91,270.0,,,,,,602.0,,,,10.0,,KIGQ 112035Z AUTO 27006KT 10SM SCT060 22/12 A3016 RMK AO2  T02240121,,,,,,54.22,,W,29.5,28.77,,Partly Cloudy
KIGQ,09/11/2016 20:55 UTC,30.16,74.48,54.5,50.25,3.44,170.0,,,,,,602.0,,,,10.0,,KIGQ 112055Z AUTO 17003KT 10SM SCT060 24/13 A3016 RMK AO2  T02360125,,,,,,54.71,,S,29.5,28.73,,Partly Cloudy
KIGQ,09/11/2016 21:15 UTC,30.16,72.14,54.5,56.7,6.91,210.0,,,,,,603.0,,,,10.0,,KIGQ 112115Z AUTO 21006KT 10SM BKN060 22/13 A3016 RMK AO2  T02230125,,,6000.0,,,55.86,,SSW,29.5,28.69,,Mostly Cloudy
KIGQ,09/11/2016 21:35 UTC,30.15,73.94,53.6,49.97,4.61,220.0,,,,,,602.0,,,,10.0,,KIGQ 112135Z AUTO 22004KT 10SM SCT060 23/12 A3015 RMK AO2  T02330120,,,,,,54.06,,SW,29.49,28.75,,Partly Cloudy
KIGQ,09/11/2016 21:55 UTC,30.15,73.4,53.96,49.97,3.44,190.0,,,,,,602.0,,,,10.0,,KIGQ 112155Z AUTO 19003KT 10SM SCT060 23/12 A3015 RMK AO2  T02300122,,,,,,53.56,,S,29.49,28.78,,Partly Cloudy
KIGQ,09/11/2016 22:15 UTC,30.14,72.14,55.04,56.7,4.61,200.0,,,,,,1.0,,,,10.0,,KIGQ 112215Z AUTO 20004KT 10SM CLR 22/13 A3014 RMK AO2  T02230128,,,,,,55.86,,SSW,29.48,28.67,,Clear
KIGQ,09/11/2016 22:35 UTC,30.14,72.32,53.24,53.1,3.44,220.0,,,,,,1.0,,,,10.0,,KIGQ 112235Z AUTO 22003KT 10SM CLR 22/12 A3014 RMK AO2  T02240118,,,,,,54.22,,SW,29.48,28.75,,Clear
KIGQ,09/11/2016 22:55 UTC,30.14,72.5,53.96,49.97,0.0,0.0,,,,,,1.0,,,,10.0,,KIGQ 112255Z AUTO 00000KT 10SM CLR 23/12 A3014 RMK AO2  T02250122,,,,,,52.73,,N,29.48,28.82,,Clear
KIGQ,09/11/2016 23:15 UTC,30.14,71.78,56.3,60.51,3.44,190.0,,,,,,1.0,,,,10.0,,KIGQ 112315Z AUTO 19003KT 10SM CLR 22/14 A3014 RMK AO2  T02210135,,,,,,57.33,,S,29.48,28.61,,Clear
KIGQ,09/11/2016 23:35 UTC,30.13,69.08,57.74,64.32,4.61,180.0,,,,,,1.0,,,,10.0,,KIGQ 112335Z AUTO 18004KT 10SM CLR 21/14 A3013 RMK AO2  T02060143,,,,,,56.47,,S,29.47,28.66,,Clear
KIGQ,09/11/2016 23:55 UTC,30.13,66.38,56.3,72.78,4.61,20.0,,,,,,1.0,,,,10.0,,KIGQ 112355Z AUTO 02004KT 10SM CLR 19/14 A3013 RMK AO2 T01910135  10240 20191,75.2,66.38,,,,57.33,,NNE,29.47,28.65,,Clear
KIGQ,09/12/2016 00:15 UTC,30.13,65.66,55.58,68.2,0.0,0.0,,,,,,1.0,,,,10.0,,KIGQ 120015Z AUTO 00000KT 10SM CLR 19/13 A3013 RMK AO2  T01870131,,,,,,54.83,,N,29.47,28.78,,Clear
KIGQ,09/12/2016 00:35 UTC,30.14,64.94,56.48,77.48,0.0,0.0,,,,,,1.0,,,,10.0,,KIGQ 120035Z AUTO 00000KT 10SM CLR 18/14 A3014 RMK AO2  T01830136,,,,,,57.68,,N,29.48,28.66,,Clear
KIGQ,09/12/2016 00:55 UTC,30.14,64.76,56.3,77.48,3.44,130.0,,,,,,1.0,,,,10.0,,KIGQ 120055Z AUTO 13003KT 10SM CLR 18/14 A3014 RMK AO2  T01820135,,,,,,57.51,,SE,29.48,28.67,,Clear
KIGQ,09/12/2016 01:15 UTC,30.14,65.3,55.58,68.2,0.0,0.0,,,,,,1.0,,,,10.0,,KIGQ 120115Z AUTO 00000KT 10SM CLR 19/13 A3014 RMK AO2  T01850131,,,,,,54.48,,N,29.48,28.81,,Clear
KIGQ,09/12/2016 01:35 UTC,30.14,63.5,56.48,77.48,0.0,0.0,,,,,,1.0,,,,10.0,,KIGQ 120135Z AUTO 00000KT 10SM CLR 18/14 A3014 RMK AO2  T01750136,,,,,,56.28,,N,29.48,28.74,,Clear
KIGQ,09/12/2016 01:55 UTC,30.14,61.7,56.48,82.52,0.0,0.0,,,,,,1.0,,,,10.0,,KIGQ 120155Z AUTO 00000KT 10SM CLR 17/14 A3014 RMK AO2  T01650136,,,,,,56.28,,N,29.48,28.76,,Clear
KIGQ,09/12/2016 02:15 UTC,30.14,60.98,56.48,87.94,0.0,0.0,,,,,,1.0,,,,10.0,,KIGQ 120215Z AUTO 00000KT 10SM CLR 16/14 A3014 RMK AO2  T01610136,,,,,,57.35,,N,29.48,28.72,,Clear
KIGQ,09/12/2016 02:35 UTC,30.14,60.8,56.3,87.94,3.44,150.0,,,,,,1.0,,,,10.0,,KIGQ 120235Z AUTO 15003KT 10SM CLR 16/14 A3014 RMK AO2  T01600135,,,,,,57.17,,SSE,29.48,28.73,,Clear
KIGQ,09/12/2016 02:55 UTC,30.14,59.9,55.58,82.4,0.0,0.0,,,,,,1.0,,,,10.0,,KIGQ 120255Z AUTO 00000KT 10SM CLR 16/13 A3014 RMK AO2  T01550131,,,,,,54.48,,N,29.48,28.86,,Clear
KIGQ,09/12/2016 03:15 UTC,30.14,60.98,55.4,82.4,0.0,0.0,,,,,,1.0,,,,10.0,,KIGQ 120315Z AUTO 00000KT 10SM CLR 16/13 A3014 RMK AO2  T01610130,,,,,,55.54,,N,29.48,28.81,,Clear
KIGQ,09/12/2016 03:35 UTC,30.15,60.8,55.4,82.4,0.0,0.0,,,,,,1.0,,,,10.0,,KIGQ 120335Z AUTO 00000KT 10SM CLR 16/13 A3015 RMK AO2  T01600130,,,,,,55.36,,N,29.49,28.83,,Clear
KIGQ,09/12/2016 03:55 UTC,30.14,60.26,55.4,82.4,0.0,0.0,,,,,,1.0,,,,10.0,,KIGQ 120355Z AUTO 00000KT 10SM CLR 16/13 A3014 RMK AO2  T01570130,,,,,,54.83,,N,29.48,28.84,,Clear
KIGQ,09/12/2016 04:15 UTC,30.14,58.82,54.5,87.85,3.44,150.0,,,,,,1.0,,,,10.0,,KIGQ 120415Z AUTO 15003KT 10SM CLR 15/13 A3014 RMK AO2  T01490125,,,,,,55.19,,SSE,29.48,28.84,,Clear
KIGQ,09/12/2016 04:35 UTC,30.14,58.64,53.6,82.27,4.61,150.0,,,,,,1.0,,,,10.0,,KIGQ 120435Z AUTO 15004KT 10SM CLR 15/12 A3014 RMK AO2  T01480120,,,,,,53.2,,SSE,29.48,28.93,,Clear
KIGQ,09/12/2016 04:55 UTC,30.14,58.1,53.06,82.27,3.44,160.0,,,,,,1.0,,,,10.0,,KIGQ 120455Z AUTO 16003KT 10SM CLR 15/12 A3014 RMK AO2  T01450117,,,,,,52.68,,SSE,29.48,28.96,,Clear
KIGQ,09/12/2016 05:15 UTC,30.14,58.1,53.24,82.27,4.61,170.0,,,,,,1.0,,,,10.0,,KIGQ 120515Z AUTO 17004KT 10SM CLR 15/12 A3014 RMK AO2  T01450118,,,,,,52.68,,S,29.48,28.96,,Clear
KIGQ,09/12/2016 05:35 UTC,30.14,58.46,53.6,82.27,4.61,170.0,,,,,,1.0,,,,10.0,,KIGQ 120535Z AUTO 17004KT 10SM CLR 15/12 A3014 RMK AO2  T01470120,,,,,,53.03,,S,29.48,28.94,,Clear
KIGQ,09/12/2016 05:55 UTC,30.14,58.1,53.6,82.27,4.61,170.0,,,,,,1.0,,,,10.0,,KIGQ 120555Z AUTO 17004KT 10SM CLR 15/12 A3014 RMK AO2 T01450120  10192 20142 402400107,66.56,57.56,,75.2,51.26,52.68,,S,29.48,28.96,,Clear
KIGQ,09/12/2016 06:15 UTC,30.14,57.38,53.78,87.75,3.44,170.0,,,,,,1.0,,,,10.0,,KIGQ 120615Z AUTO 17003KT 10SM CLR 14/12 A3014 RMK AO2  T01410121,,,,,,53.74,,S,29.48,28.92,,Clear
KIGQ,09/12/2016 06:35 UTC,30.14,55.76,53.24,93.65,0.0,0.0,,,,,,1.0,,,,10.0,,KIGQ 120635Z AUTO 00000KT 10SM CLR 13/12 A3014 RMK AO2  T01320118,,,,,,53.94,,N,29.48,28.93,,Clear
KIGQ,09/12/2016 06:55 UTC,30.14,57.2,54.14,87.75,0.0,0.0,,,,,,1.0,,,,10.0,,KIGQ 120655Z AUTO 00000KT 10SM CLR 14/12 A3014 RMK AO2  T01400123,,,,,,53.57,,N,29.48,28.93,,Clear
KIGQ,09/12/2016 07:15 UTC,30.14,55.94,53.6,93.65,3.44,190.0,,,,,,1.0,,,,10.0,,KIGQ 120715Z AUTO 19003KT 10SM CLR 13/12 A3014 RMK AO2  T01330120,,,,,,54.12,,S,29.48,28.92,,Clear
KIGQ,09/12/2016 07:35 UTC,30.13,56.3,53.96,87.75,0.0,0.0,,,,,,1.0,,,,10.0,,KIGQ 120735Z AUTO 00000KT 10SM CLR 14/12 A3013 RMK AO2  T01350122,,,,,,52.68,,N,29.47,28.97,,Clear
KIGQ,09/12/2016 07:55 UTC,30.13,55.76,53.96,93.65,0.0,0.0,,,,,,1.0,,,,10.0,,KIGQ 120755Z AUTO 00000KT 10SM CLR 13/12 A3013 RMK AO2  T01320122,,,,,,53.94,,N,29.47,28.92,,Clear
KIGQ,09/12/2016 08:15 UTC,30.14,55.94,54.14,93.65,0.0,0.0,,,,,,1.0,,,,10.0,,KIGQ 120815Z AUTO 00000KT 10SM CLR 13/12 A3014 RMK AO2  T01330123,,,,,,54.12,,N,29.48,28.92,,Clear
KIGQ,09/12/2016 08:35 UTC,30.14,56.3,53.78,87.75,0.0,0.0,,,,,,1.0,,,,10.0,,KIGQ 120835Z AUTO 00000KT 10SM CLR 14/12 A3014 RMK AO2  T01350121,,,,,,52.68,,N,29.48,28.98,,Clear
KIGQ,09/12/2016 08:55 UTC,30.14,56.48,53.96,87.75,0.0,0.0,,,,,,1.0,,,,10.0,,KIGQ 120855Z AUTO 00000KT 10SM CLR 14/12 A3014 RMK AO2  T01360122,,,,,,52.86,,N,29.48,28.97,,Clear
KIGQ,09/12/2016 09:15 UTC,30.14,55.94,53.78,93.65,0.0,0.0,,,,,,1.0,,,,10.0,,KIGQ 120915Z AUTO 00000KT 10SM CLR 13/12 A3014 RMK AO2  T01330121,,,,,,54.12,,N,29.48,28.92,,Clear
KIGQ,09/12/2016 09:35 UTC,30.14,55.4,53.78,93.65,0.0,0.0,,,,,,1.0,,,,10.0,,KIGQ 120935Z AUTO 00000KT 10SM CLR 13/12 A3014 RMK AO2  T01300121,,,,,,53.58,,N,29.48,28.95,,Clear
KIGQ,09/12/2016 09:55 UTC,30.14,55.58,53.6,93.65,0.0,0.0,,,,,,1.0,,,,10.0,,KIGQ 120955Z AUTO 00000KT 10SM CLR 13/12 A3014 RMK AO2  T01310120,,,,,,53.76,,N,29.48,28.94,,Clear
KIGQ,09/12/2016 10:15 UTC,30.14,54.5,53.06,93.65,0.0,0.0,,31.0,,,,1.0,,,,2.5,,KIGQ 121015Z AUTO 00000KT 2 1/2SM BR CLR 13/12 A3014 RMK AO2  T01250117,,,,,,52.69,,N,29.48,28.99,,Mist
KIGQ,09/12/2016 10:35 UTC,30.14,55.22,53.6,93.65,0.0,0.0,,,,,,1.0,,,,10.0,,KIGQ 121035Z AUTO 00000KT 10SM CLR 13/12 A3014 RMK AO2  T01290120,,,,,,53.4,,N,29.48,28.96,,Clear
KIGQ,09/12/2016 10:55 UTC,30.14,54.68,53.78,93.65,0.0,0.0,,,,,,1.0,,,,10.0,,KIGQ 121055Z AUTO 00000KT 10SM CLR 13/12 A3014 RMK AO2  T01260121,,,,,,52.87,,N,29.48,28.99,,Clear
KIGQ,09/12/2016 11:15 UTC,30.15,55.4,54.5,100.0,0.0,0.0,,,,,,1.0,,,,10.0,,KIGQ 121115Z AUTO 00000KT 10SM CLR 13/13 A3015 RMK AO2  T01300125,,,,,,55.4,,N,29.49,28.89,,Clear
KIGQ,09/12/2016 11:35 UTC,30.15,53.96,53.6,100.0,0.0,0.0,,,,,,1.0,,,,10.0,,KIGQ 121135Z AUTO 00000KT 10SM CLR 12/12 A3015 RMK AO2  T01220120,,,,,,53.96,,N,29.49,28.96,,Clear
KIGQ,09/12/2016 11:55 UTC,30.15,55.4,54.32,93.65,0.0,0.0,,,,,,1.0,,,,10.0,,KIGQ 121155Z AUTO 00000KT 10SM CLR 13/12 A3015 RMK AO2 T01300124  10147 20122,58.46,53.96,,,,53.58,,N,29.49,28.96,,Clear
KIGQ,09/12/2016 12:15 UTC,30.16,55.4,54.5,100.0,0.0,0.0,,,,,,1.0,,,,10.0,,KIGQ 121215Z AUTO 00000KT 10SM CLR 13/13 A3016 RMK AO2  T01300125,,,,,,55.4,,N,29.5,28.9,,Clear
KIGQ,09/12/2016 12:35 UTC,30.16,57.2,55.94,93.7,0.0,0.0,,,,,,1.0,,,,10.0,,KIGQ 121235Z AUTO 00000KT 10SM CLR 14/13 A3016 RMK AO2  T01400133,,,,,,55.38,,N,29.5,28.88,,Clear
KIGQ,09/12/2016 12:55 UTC,30.16,59.9,57.38,87.94,3.44,170.0,,,,,,1.0,,,,10.0,,KIGQ 121255Z AUTO 17003KT 10SM CLR 16/14 A3016 RMK AO2  T01550141,,,,,,56.29,,S,29.5,28.8,,Clear
KIGQ,09/12/2016 13:15 UTC,30.16,62.06,57.56,82.52,3.44,160.0,,,,,,1.0,,,,10.0,,KIGQ 121315Z AUTO 16003KT 10SM CLR 17/14 A3016 RMK AO2  T01670142,,,,,,56.63,,SSE,29.5,28.76,,Clear
KIGQ,09/12/2016 13:35 UTC,30.16,63.86,58.64,82.65,6.91,180.0,,,,,,1.0,,,,10.0,,KIGQ 121335Z AUTO 18006KT 10SM CLR 18/15 A3016 RMK AO2  T01770148,,,,,,58.44,,S,29.5,28.66,,Clear
KIGQ,09/12/2016 13:55 UTC,30.16,65.48,58.64,77.64,5.75,170.0,,,,,,1.0,,,,10.0,,KIGQ 121355Z AUTO 17005KT 10SM CLR 19/15 A3016 RMK AO2  T01860148,,,,,,58.26,,S,29.5,28.65,,Clear
KIGQ,09/12/2016 14:15 UTC,30.16,66.92,59.0,77.64,6.91,180.0,,,,,,1.0,,,,10.0,,KIGQ 121415Z AUTO 18006KT 10SM CLR 19/15 A3016 RMK AO2  T01940150,,,,,,59.66,,S,29.5,28.56,,Clear
KIGQ,09/12/2016 14:35 UTC,30.16,68.36,60.26,77.79,6.91,190.0,,,,,,1.0,,,,10.0,,KIGQ 121435Z AUTO 19006KT 10SM CLR 20/16 A3016 RMK AO2  T02020157,,,,,,61.12,,S,29.5,28.46,,Clear
KIGQ,09/12/2016 14:55 UTC,30.16,69.8,60.08,73.15,8.05,180.0,,,,,,1.0,,,,10.0,,KIGQ 121455Z AUTO 18007KT 10SM CLR 21/16 A3016 RMK AO2  T02100156,,,,,,60.77,,S,29.5,28.47,,Clear
KIGQ,09/12/2016 15:15 UTC,30.16,70.52,60.26,73.15,8.05,200.0,,,,,,1.0,,,,10.0,,KIGQ 121515Z AUTO 20007KT 10SM CLR 21/16 A3016 RMK AO2  T02140157,,,,,,61.46,,SSW,29.5,28.42,,Clear
KIGQ,09/12/2016 15:35 UTC,30.16,71.06,59.72,67.44,10.36,200.0,,,,,,1.0,,,,10.0,,KIGQ 121535Z AUTO 20009KT 10SM CLR 22/15 A3016 RMK AO2  T02170154,,,,,,59.68,,SSW,29.5,28.51,,Clear
KIGQ,09/12/2016 15:55 UTC,30.16,72.14,59.9,68.81,8.05,210.0,,,,,,1.0,,,,10.0,,KIGQ 121555Z AUTO 21007KT 10SM CLR 22/16 A3016 RMK AO2  T02230155,,,,,,61.29,,SSW,29.5,28.41,,Clear
KIGQ,09/12/2016 16:15 UTC,30.15,72.86,60.62,64.76,10.36,190.0,16.11,,,,,1.0,,,,10.0,,KIGQ 121615Z AUTO 19009G14KT 10SM CLR 23/16 A3015 RMK AO2  T02270159,,,,,,60.26,,S,29.49,28.45,,Clear
KIGQ,09/12/2016 16:35 UTC,30.14,73.58,60.44,64.76,12.66,180.0,16.11,,,,,402.0,,,,10.0,,KIGQ 121635Z AUTO 18011G14KT 10SM SCT040 23/16 A3014 RMK AO2  T02310158,,,,,,60.94,,S,29.48,28.39,,Partly Cloudy
KIGQ,09/12/2016 16:55 UTC,30.14,74.48,61.16,60.98,11.5,170.0,,,,,,1.0,,,,10.0,,KIGQ 121655Z AUTO 17010KT 10SM CLR 24/16 A3014 RMK AO2  T02360162,,,,,,60.1,,S,29.48,28.43,,Clear
KIGQ,09/12/2016 17:15 UTC,30.13,74.84,60.08,60.98,11.5,190.0,17.27,,,,,1.0,,,,10.0,,KIGQ 121715Z AUTO 19010G15KT 10SM CLR 24/16 A3013 RMK AO2  T02380156,,,,,,60.44,,S,29.47,28.4,,Clear
KIGQ,09/12/2016 17:35 UTC,30.13,75.2,60.08,60.98,8.05,190.0,16.11,,,,,472.0,,,,10.0,,KIGQ 121735Z AUTO 19007G14KT 140V200 10SM SCT047 24/16 A3013 RMK AO2 T02400156,,,,,,60.78,,S,29.47,28.37,,Partly Cloudy
KIGQ,09/12/2016 17:55 UTC,30.12,75.56,60.08,60.98,9.22,170.0,17.27,,,,,1.0,,,,10.0,,KIGQ 121755Z AUTO 17008G15KT 10SM CLR 24/16 A3012 RMK AO2  T02420156 10242 20130,75.56,55.4,,,,61.12,,S,29.47,28.35,,Clear
KIGQ,09/12/2016 18:15 UTC,30.11,76.1,59.0,53.88,11.5,170.0,17.27,,,,,502.0,,,,10.0,,KIGQ 121815Z AUTO 17010G15KT 10SM SCT050 25/15 A3011 RMK AO2  T02450150,,,,,,58.15,,S,29.46,28.5,,Partly Cloudy
KIGQ,09/12/2016 18:35 UTC,30.11,76.28,59.36,53.88,12.66,170.0,18.41,,,,,1.0,,,,10.0,,KIGQ 121835Z AUTO 17011G16KT 10SM CLR 25/15 A3011 RMK AO2  T02460152,,,,,,58.32,,S,29.46,28.49,,Clear
KIGQ,09/12/2016 18:55 UTC,30.1,76.82,59.18,53.88,9.22,180.0,,,,,,1.0,,,,10.0,,KIGQ 121855Z AUTO 18008KT 10SM CLR 25/15 A3010 RMK AO2  T02490151,,,,,,58.82,,S,29.45,28.45,,Clear
KIGQ,09/12/2016 19:15 UTC,30.09,77.18,58.82,53.88,13.8,210.0,18.41,,,,,502.0,,,,10.0,,KIGQ 121915Z AUTO 21012G16KT 10SM SCT050 25/15 A3009 RMK AO2  T02510149,,,,,,59.16,,SSW,29.44,28.42,,Partly Cloudy
KIGQ,09/12/2016 19:35 UTC,30.08,77.36,59.0,53.88,12.66,210.0,16.11,,,,,502.0,,,,10.0,,KIGQ 121935Z AUTO 21011G14KT 10SM SCT050 25/15 A3008 RMK AO2  T02520150,,,,,,59.33,,SSW,29.43,28.39,,Partly Cloudy
KIGQ,09/12/2016 19:55 UTC,30.08,77.54,58.82,53.88,10.36,170.0,17.27,,,,,1.0,,,,10.0,,KIGQ 121955Z AUTO 17009G15KT 10SM CLR 25/15 A3008 RMK AO2  T02530149,,,,,,59.49,,S,29.43,28.38,,Clear
KIGQ,09/12/2016 20:15 UTC,30.07,78.08,59.72,50.78,9.22,170.0,,,,,,1.0,,,,10.0,,KIGQ 122015Z AUTO 17008KT 10SM CLR 26/15 A3007 RMK AO2  T02560154,,,,,,58.34,,S,29.42,28.43,,Clear
KIGQ,09/12/2016 20:35 UTC,30.06,77.9,58.82,50.78,13.8,180.0,17.27,,,,,1.0,,,,10.0,,KIGQ 122035Z AUTO 18012G15KT 10SM CLR 26/15 A3006 RMK AO2  T02550149,,,,,,58.17,,S,29.41,28.43,,Clear
KIGQ,09/12/2016 20:55 UTC,30.06,77.9,58.64,50.78,16.11,190.0,20.71,,,,,1.0,,,,10.0,,KIGQ 122055Z AUTO 19014G18KT 10SM CLR 26/15 A3006 RMK AO2  T02550148,,,,,,58.17,,S,29.41,28.43,,Clear
KIGQ,09/12/2016 21:15 UTC,30.05,77.72,58.82,53.88,13.8,180.0,18.41,,,,,1.0,,,,10.0,,KIGQ 122115Z AUTO 18012G16KT 10SM CLR 25/15 A3005 RMK AO2  T02540149,,,,,,59.66,,S,29.4,28.34,,Clear
KIGQ,09/12/2016 21:35 UTC,30.05,77.54,58.28,53.88,12.66,200.0,17.27,,,,,1.0,,,,10.0,,KIGQ 122135Z AUTO 20011G15KT 10SM CLR 25/15 A3005 RMK AO2  T02530146,,,,,,59.49,,SSW,29.4,28.35,,Clear
KIGQ,09/12/2016 21:55 UTC,30.04,75.92,58.46,57.2,12.66,180.0,,,,,,1.0,,,,10.0,,KIGQ 122155Z AUTO 18011KT 10SM CLR 24/15 A3004 RMK AO2  T02440147,,,,,,59.66,,S,29.39,28.35,,Clear
KIGQ,09/12/2016 22:15 UTC,30.04,74.84,59.36,57.2,8.05,190.0,,,,,,1.0,,,,10.0,,KIGQ 122215Z AUTO 19007KT 10SM CLR 24/15 A3004 RMK AO2  T02380152,,,,,,58.64,,S,29.39,28.42,,Clear
KIGQ,09/12/2016 22:35 UTC,30.04,72.86,60.08,64.76,6.91,180.0,,,,,,1.0,,,,10.0,,KIGQ 122235Z AUTO 18006KT 10SM CLR 23/16 A3004 RMK AO2  T02270156,,,,,,60.26,,S,29.39,28.35,,Clear
KIGQ,09/12/2016 22:55 UTC,30.04,72.5,60.8,64.76,6.91,190.0,,,,,,1.0,,,,10.0,,KIGQ 122255Z AUTO 19006KT 10SM CLR 23/16 A3004 RMK AO2  T02250160,,,,,,59.92,,S,29.39,28.37,,Clear
KIGQ,09/12/2016 23:15 UTC,30.04,73.58,59.72,60.75,8.05,180.0,,,,,,1.0,,,,10.0,,KIGQ 122315Z AUTO 18007KT 10SM CLR 23/15 A3004 RMK AO2  T02310154,,,,,,59.14,,S,29.39,28.4,,Clear
KIGQ,09/12/2016 23:35 UTC,30.04,72.5,59.9,64.76,8.05,180.0,,,,,,1.0,,,,10.0,,KIGQ 122335Z AUTO 18007KT 10SM CLR 23/16 A3004 RMK AO2  T02250155,,,,,,59.92,,S,29.39,28.37,,Clear
KIGQ,09/12/2016 23:55 UTC,30.04,69.62,59.72,68.61,6.91,180.0,,,,,,1.0,,,,10.0,,KIGQ 122355Z AUTO 18006KT 10SM CLR 21/15 A3004 RMK AO2 T02090154  10257 20209,78.26,69.62,,,,58.79,,S,29.39,28.46,,Clear
KIGQ,09/13/2016 00:15 UTC,30.04,68.0,59.0,72.97,6.91,180.0,,,,,,1.0,,,,10.0,,KIGQ 130015Z AUTO 18006KT 10SM CLR 20/15 A3004 RMK AO2 LTG DSNT N  T02000150,,,,,,58.96,,S,29.39,28.47,,Clear
KIGQ,09/13/2016 00:35 UTC,30.04,67.28,58.46,72.97,5.75,170.0,,,,,,1.0,,,,10.0,,KIGQ 130035Z AUTO 17005KT 10SM CLR 20/15 A3004 RMK AO2  T01960147,,,,,,58.27,,S,29.39,28.51,,Clear
KIGQ,09/13/2016 00:55 UTC,30.05,65.84,58.64,77.64,4.61,170.0,,,,,,1.0,,,,10.0,,KIGQ 130055Z AUTO 17004KT 10SM CLR 19/15 A3005 RMK AO2  T01880148,,,,,,58.61,,S,29.4,28.52,,Clear
KIGQ,09/13/2016 01:15 UTC,30.05,65.3,58.46,77.64,4.61,170.0,,,,,,1.0,,,,10.0,,KIGQ 130115Z AUTO 17004KT 10SM CLR 19/15 A3005 RMK AO2 LTG DSNT N  T01850147,,,,,,58.09,,S,29.4,28.56,,Clear
KIGQ,09/13/2016 01:35 UTC,30.06,65.48,59.0,77.64,5.75,190.0,,,,,,1.0,,,,10.0,,KIGQ 130135Z AUTO 19005KT 10SM CLR 19/15 A3006 RMK AO2  T01860150,,,,,,58.26,,S,29.41,28.56,,Clear
KIGQ,09/13/2016 01:55 UTC,30.06,63.86,58.46,82.65,5.75,180.0,,,,,,1.0,,,,10.0,,KIGQ 130155Z AUTO 18005KT 10SM CLR 18/15 A3006 RMK AO2  T01770147,,,,,,58.44,,S,29.41,28.57,,Clear
KIGQ,09/13/2016 02:15 UTC,30.06,64.4,59.0,82.65,5.75,190.0,,,,,,1.0,,,,10.0,,KIGQ 130215Z AUTO 19005KT 10SM CLR 18/15 A3006 RMK AO2  T01800150,,,,,,58.97,,S,29.41,28.53,,Clear
KIGQ,09/13/2016 02:35 UTC,30.06,63.86,58.82,82.65,6.91,190.0,,,,,,1.0,,,,10.0,,KIGQ 130235Z AUTO 19006KT 10SM CLR 18/15 A3006 RMK AO2  T01770149,,,,,,58.44,,S,29.41,28.57,,Clear
KIGQ,09/13/2016 02:55 UTC,30.06,61.7,57.92,82.52,6.91,190.0,,,,,,1.0,,,,10.0,,KIGQ 130255Z AUTO 19006KT 10SM CLR 17/14 A3006 RMK AO2  T01650144,,,,,,56.28,,S,29.41,28.69,,Clear
KIGQ,09/13/2016 03:15 UTC,30.06,61.88,58.1,88.02,6.91,180.0,,,,,,1.0,,,,10.0,,KIGQ 130315Z AUTO 18006KT 10SM CLR 17/15 A3006 RMK AO2  T01660145,,,,,,58.26,,S,29.41,28.6,,Clear
KIGQ,09/13/2016 03:35 UTC,30.06,61.7,57.74,82.52,6.91,180.0,,,,,,1.0,,,,10.0,,KIGQ 130335Z AUTO 18006KT 10SM CLR 17/14 A3006 RMK AO2  T01650143,,,,,,56.28,,S,29.41,28.69,,Clear
KIGQ,09/13/2016 03:55 UTC,30.06,62.6,58.1,88.02,6.91,190.0,,,,,,1.0,,,,10.0,,KIGQ 130355Z AUTO 19006KT 10SM CLR 17/15 A3006 RMK AO2  T01700145,,,,,,58.97,,S,29.41,28.55,,Clear
KIGQ,09/13/2016 04:15 UTC,30.06,61.7,57.74,82.52,5.75,190.0,,,,,,1.0,,,,10.0,,KIGQ 130415Z AUTO 19005KT 10SM CLR 17/14 A3006 RMK AO2  T01650143,,,,,,56.28,,S,29.41,28.69,,Clear
KIGQ,09/13/2016 04:35 UTC,30.05,61.52,57.74,87.94,5.75,200.0,,,,,,1.0,,,,10.0,,KIGQ 130435Z AUTO 20005KT 10SM CLR 16/14 A3005 RMK AO2  T01640143,,,,,,57.88,,SSW,29.4,28.61,,Clear
KIGQ,09/13/2016 04:55 UTC,30.05,59.0,56.66,93.75,4.61,190.0,,,,,,1.0,,,,10.0,,KIGQ 130455Z AUTO 19004KT 10SM CLR 15/14 A3005 RMK AO2  T01500137,,,,,,57.18,,S,29.4,28.67,,Clear
KIGQ,09/13/2016 05:15 UTC,30.05,60.26,57.2,87.94,6.91,190.0,,,,,,1.0,,,,10.0,,KIGQ 130515Z AUTO 19006KT 10SM CLR 16/14 A3005 RMK AO2  T01570140,,,,,,56.64,,S,29.4,28.68,,Clear
KIGQ,09/13/2016 05:35 UTC,30.05,60.08,57.2,87.94,5.75,200.0,,,,,,1.0,,,,10.0,,KIGQ 130535Z AUTO 20005KT 10SM CLR 16/14 A3005 RMK AO2  T01560140,,,,,,56.46,,SSW,29.4,28.69,,Clear
KIGQ,09/13/2016 05:55 UTC,30.04,62.6,58.46,88.02,5.75,200.0,,,,,,1.0,,,,10.0,,KIGQ 130555Z AUTO 20005KT 10SM CLR 17/15 A3004 RMK AO2 T01700147  10207 20150 402570122,69.26,59.0,,78.26,53.96,58.97,,SSW,29.39,28.53,,Clear
KIGQ,09/13/2016 06:15 UTC,30.04,61.7,58.28,88.02,5.75,200.0,,,,,,1.0,,,,10.0,,KIGQ 130615Z AUTO 20005KT 10SM CLR 17/15 A3004 RMK AO2  T01650146,,,,,,58.09,,SSW,29.39,28.59,,Clear
KIGQ,09/13/2016 06:35 UTC,30.04,61.7,58.28,88.02,4.61,210.0,,,,,,1.0,,,,10.0,,KIGQ 130635Z AUTO 21004KT 10SM CLR 17/15 A3004 RMK AO2  T01650146,,,,,,58.09,,SSW,29.39,28.59,,Clear
KIGQ,09/13/2016 06:55 UTC,30.05,62.42,58.46,88.02,6.91,210.0,,,,,,1.0,,,,10.0,,KIGQ 130655Z AUTO 21006KT 10SM CLR 17/15 A3005 RMK AO2  T01690147,,,,,,58.8,,SSW,29.4,28.55,,Clear
KIGQ,09/13/2016 07:15 UTC,30.05,62.6,58.64,88.02,5.75,210.0,,,,,,1.0,,,,10.0,,KIGQ 130715Z AUTO 21005KT 10SM CLR 17/15 A3005 RMK AO2  T01700148,,,,,,58.97,,SSW,29.4,28.54,,Clear
KIGQ,09/13/2016 07:35 UTC,30.05,62.6,59.0,88.02,5.75,210.0,,,,,,702.0,802.0,,,10.0,,KIGQ 130735Z AUTO 21005KT 10SM SCT070 SCT080 17/15 A3005 RMK AO2  T01700150,,,,,,58.97,,SSW,29.4,28.54,,Partly Cloudy
KIGQ,09/13/2016 07:55 UTC,30.05,61.88,58.46,88.02,6.91,200.0,,,,,,802.0,,,,10.0,,KIGQ 130755Z AUTO 20006KT 10SM SCT080 17/15 A3005 RMK AO2  T01660147,,,,,,58.26,,SSW,29.4,28.59,,Partly Cloudy
KIGQ,09/13/2016 08:15 UTC,30.04,61.34,58.46,93.8,5.75,200.0,,,,,,802.0,,,,10.0,,KIGQ 130815Z AUTO 20005KT 10SM SCT080 16/15 A3004 RMK AO2  T01630147,,,,,,59.52,,SSW,29.39,28.52,,Partly Cloudy
KIGQ,09/13/2016 08:35 UTC,30.04,60.44,58.1,93.8,3.44,200.0,,,,,,902.0,,,,10.0,,KIGQ 130835Z AUTO 20003KT 10SM SCT090 16/15 A3004 RMK AO2  T01580145,,,,,,58.63,,SSW,29.39,28.58,,Partly Cloudy
KIGQ,09/13/2016 08:55 UTC,30.04,60.44,58.28,93.8,3.44,200.0,,,,,,903.0,,,,10.0,,KIGQ 130855Z AUTO 20003KT 10SM BKN090 16/15 A3004 RMK AO2  T01580146,,,9000.0,,,58.63,,SSW,29.39,28.58,,Mostly Cloudy
KIGQ,09/13/2016 09:15 UTC,30.04,60.98,58.46,93.8,5.75,210.0,,,,,,902.0,,,,10.0,,KIGQ 130915Z AUTO 21005KT 10SM SCT090 16/15 A3004 RMK AO2  T01610147,,,,,,59.17,,SSW,29.39,28.54,,Partly Cloudy
KIGQ,09/13/2016 09:35 UTC,30.04,59.54,58.1,100.0,4.61,190.0,,,,,,902.0,,,,10.0,,KIGQ 130935Z AUTO 19004KT 10SM SCT090 15/15 A3004 RMK AO2  T01530145,,,,,,59.54,,S,29.39,28.54,,Partly Cloudy
KIGQ,09/13/2016 09:55 UTC,30.05,60.08,58.28,93.8,3.44,220.0,,,,,,1.0,,,,10.0,,KIGQ 130955Z AUTO 22003KT 10SM CLR 16/15 A3005 RMK AO2  T01560146,,,,,,58.27,,SW,29.4,28.61,,Clear
KIGQ,09/13/2016 10:15 UTC,30.05,58.82,57.38,93.75,3.44,190.0,,,,,,1.0,,,,10.0,,KIGQ 131015Z AUTO 19003KT 10SM CLR 15/14 A3005 RMK AO2  T01490141,,,,,,57.01,,S,29.4,28.68,,Clear
KIGQ,09/13/2016 10:35 UTC,30.05,58.1,57.2,93.75,4.61,180.0,,,,,,1.0,,,,10.0,,KIGQ 131035Z AUTO 18004KT 10SM CLR 15/14 A3005 RMK AO2 LTG DSNT NW  T01450140,,,,,,56.29,,S,29.4,28.72,,Clear
KIGQ,09/13/2016 10:55 UTC,30.05,57.38,56.66,100.0,5.75,180.0,,,,,,1.0,,,,10.0,,KIGQ 131055Z AUTO 18005KT 10SM CLR 14/14 A3005 RMK AO2  T01410137,,,,,,57.38,,S,29.4,28.68,,Clear
KIGQ,09/13/2016 11:15 UTC,30.06,57.2,56.66,100.0,5.75,190.0,,,,,,1.0,,,,10.0,,KIGQ 131115Z AUTO 19005KT 10SM CLR 14/14 A3006 RMK AO2 LTG DSNT NW  T01400137,,,,,,57.2,,S,29.41,28.7,,Clear
KIGQ,09/13/2016 11:35 UTC,30.06,57.74,57.38,100.0,3.44,200.0,,,,,,1.0,,,,10.0,,KIGQ 131135Z AUTO 20003KT 10SM CLR 14/14 A3006 RMK AO2 LTG DSNT N  T01430141,,,,,,57.74,,SSW,29.41,28.67,,Clear
KIGQ,09/13/2016 11:55 UTC,30.06,57.74,57.38,100.0,4.61,230.0,,,,,,1.0,,,,10.0,,KIGQ 131155Z AUTO 23004KT 10SM CLR 14/14 A3006 RMK AO2 T01430141  10170 20140,62.6,57.2,,,,57.74,,SW,29.41,28.67,,Clear
KIGQ,09/13/2016 12:15 UTC,30.06,59.36,58.46,100.0,4.61,230.0,,,,,,1.0,,,,10.0,,KIGQ 131215Z AUTO 23004KT 10SM CLR 15/15 A3006 RMK AO2  T01520147,,,,,,59.36,,SW,29.41,28.58,,Clear
KIGQ,09/13/2016 12:35 UTC,30.07,61.52,59.36,93.8,4.61,260.0,,,,,,1.0,,,,10.0,,KIGQ 131235Z AUTO 26004KT 10SM CLR 16/15 A3007 RMK AO2 LTG DSNT N  T01640152,,,,,,59.7,,W,29.42,28.54,,Clear
KIGQ,09/13/2016 12:55 UTC,30.08,63.5,60.08,88.11,4.61,210.0,,,,,,1.0,,,,10.0,,KIGQ 131255Z AUTO 21004KT 10SM CLR 18/16 A3008 RMK AO2  T01750156,,,,,,59.89,,SSW,29.43,28.52,,Clear
KIGQ,09/13/2016 13:15 UTC,30.08,65.66,60.8,82.77,5.75,220.0,,,,,,1.0,,,,10.0,,KIGQ 131315Z AUTO 22005KT 10SM CLR 19/16 A3008 RMK AO2  T01870160,,,,,,60.24,,SW,29.43,28.47,,Clear
KIGQ,09/13/2016 13:35 UTC,30.08,68.0,61.52,77.79,6.91,230.0,,,,,,1.0,,,,10.0,,KIGQ 131335Z AUTO 23006KT 10SM CLR 20/16 A3008 RMK AO2 LTG DSNT N  AND NE T02000164,,,,,,60.77,,SW,29.43,28.42,,Clear
KIGQ,09/13/2016 13:55 UTC,30.08,69.62,61.52,73.15,6.91,230.0,,,,,,1.0,,,,10.0,,KIGQ 131355Z AUTO 23006KT 10SM CLR 21/16 A3008 RMK AO2 LTG DSNT NE  T02090164,,,,,,60.6,,SW,29.43,28.41,,Clear
KIGQ,09/13/2016 14:15 UTC,30.09,71.6,62.96,73.32,8.05,230.0,,,,,,1.0,,,,10.0,,KIGQ 131415Z AUTO 23007KT 10SM CLR 22/17 A3009 RMK AO2  T02200172,,,,,,62.57,,SW,29.44,28.28,,Clear
KIGQ,09/13/2016 14:35 UTC,30.09,72.5,63.32,69.01,8.05,220.0,,,,,,1.0,,,,10.0,,KIGQ 131435Z AUTO 22007KT 10SM CLR 23/17 A3009 RMK AO2  T02250174,,,,,,61.71,,SW,29.44,28.32,,Clear
KIGQ,09/13/2016 14:55 UTC,30.09,72.68,63.68,73.5,9.22,240.0,,,,,,1.0,,,,10.0,,KIGQ 131455Z AUTO 24008KT 10SM CLR 23/18 A3009 RMK AO2  T02260176,,,,,,63.69,,WSW,29.44,28.2,,Clear
KIGQ,09/13/2016 15:15 UTC,30.08,74.48,64.4,69.21,5.75,230.0,,,,,,1.0,,,,10.0,,KIGQ 131515Z AUTO 23005KT 10SM CLR 24/18 A3008 RMK AO2  T02360180,,,,,,63.7,,SW,29.43,28.17,,Clear
KIGQ,09/13/2016 15:35 UTC,30.08,76.28,65.66,69.4,9.22,250.0,,,,,,1.0,,,,10.0,,KIGQ 131535Z AUTO 25008KT 10SM CLR 25/19 A3008 RMK AO2  T02460187,,,,,,65.5,,WSW,29.43,28.03,,Clear
KIGQ,09/13/2016 15:55 UTC,30.08,77.0,65.66,69.4,8.05,260.0,,,,,,1.0,,,,10.0,,KIGQ 131555Z AUTO 26007KT 10SM CLR 25/19 A3008 RMK AO2  T02500187,,,,,,66.19,,W,29.43,27.98,,Clear
KIGQ,09/13/2016 16:15 UTC,30.08,77.18,65.66,69.4,5.75,230.0,,,,,,1.0,,,,10.0,,KIGQ 131615Z AUTO 23005KT 10SM CLR 25/19 A3008 RMK AO2  T02510187,,,,,,66.37,,SW,29.43,27.96,,Clear
KIGQ,09/13/2016 16:35 UTC,30.07,78.62,66.74,65.41,5.75,240.0,,,,,,1.0,,,,10.0,,KIGQ 131635Z AUTO 24005KT 10SM CLR 26/19 A3007 RMK AO2  T02590193,,,,,,66.03,,WSW,29.42,27.96,,Clear
KIGQ,09/13/2016 16:55 UTC,30.07,79.34,67.82,69.6,8.05,200.0,,,,,,1.0,,,,10.0,,KIGQ 131655Z AUTO 20007KT 10SM CLR 26/20 A3007 RMK AO2  T02630199,,,,,,68.52,,SSW,29.42,27.78,,Clear
KIGQ,09/13/2016 17:15 UTC,30.07,79.7,67.28,65.62,6.91,210.0,,,,,,1.0,,,,10.0,,KIGQ 131715Z AUTO 21006KT 10SM CLR 27/20 A3007 RMK AO2  T02650196,,,,,,67.16,,SSW,29.42,27.87,,Clear
KIGQ,09/13/2016 17:35 UTC,30.06,81.5,68.9,65.83,8.05,200.0,,,,,,1.0,,,,10.0,,KIGQ 131735Z AUTO 20007KT 10SM CLR 28/21 A3006 RMK AO2  T02750205,,,,,,68.97,,SSW,29.41,27.71,84.73,Clear
KIGQ,09/13/2016 17:55 UTC,30.07,80.24,67.82,65.62,9.22,190.0,,,,,,1.0,,,,10.0,,KIGQ 131755Z AUTO 19008KT 10SM CLR 27/20 A3007 RMK AO2 T02680199  10275 20144,81.5,57.92,,,,67.67,,S,29.42,27.83,82.78,Clear
KIGQ,09/13/2016 18:15 UTC,30.06,82.22,68.9,65.83,9.22,230.0,,,,,,1.0,,,,10.0,,KIGQ 131815Z AUTO 23008KT 10SM CLR 28/21 A3006 RMK AO2  T02790205,,,,,,69.65,,SW,29.41,27.65,85.93,Clear
KIGQ,09/13/2016 18:35 UTC,30.06,82.58,69.08,65.83,6.91,220.0,,,,,,1.0,,,,10.0,,KIGQ 131835Z AUTO 22006KT 10SM CLR 28/21 A3006 RMK AO2  T02810206,,,,,,70.0,,SW,29.41,27.62,86.55,Clear
KIGQ,09/13/2016 18:55 UTC,30.05,82.94,68.36,61.9,8.05,220.0,,,,,,1.0,,,,10.0,,KIGQ 131855Z AUTO 22007KT 10SM CLR 28/20 A3005 RMK AO2  T02830202,,,,,,68.54,,SW,29.4,27.71,86.25,Clear
KIGQ,09/13/2016 19:15 UTC,30.05,83.48,69.44,62.13,11.5,190.0,,,,,,902.0,,,,10.0,,KIGQ 131915Z AUTO 19010KT 10SM SCT090 29/21 A3005 RMK AO2  T02860208,,,,,,69.16,,S,29.4,27.66,87.21,Partly Cloudy
KIGQ,09/13/2016 19:35 UTC,30.05,83.66,68.72,58.42,9.22,220.0,16.11,,,,,902.0,,,,10.0,,KIGQ 131935Z AUTO 22008G14KT 10SM SCT090 29/20 A3005 RMK AO2  T02870204,,,,,,67.54,,SW,29.4,27.78,86.57,Partly Cloudy
KIGQ,09/13/2016 19:55 UTC,30.04,83.84,68.54,58.42,11.5,210.0,,,,,,1.0,,,,10.0,,KIGQ 131955Z AUTO 21010KT 10SM CLR 29/20 A3004 RMK AO2  T02880203,,,,,,67.71,,SSW,29.39,27.75,86.85,Clear
KIGQ,09/13/2016 20:15 UTC,30.04,83.48,68.72,58.42,13.8,210.0,,,,,,432.0,,,,10.0,,KIGQ 132015Z AUTO 21012KT 10SM SCT043 29/20 A3004 RMK AO2  T02860204,,,,,,67.37,,SSW,29.39,27.78,86.29,Partly Cloudy
KIGQ,09/13/2016 20:35 UTC,30.04,82.4,68.72,61.9,11.5,220.0,,,,,,452.0,,,,10.0,,KIGQ 132035Z AUTO 22010KT 10SM SCT045 28/20 A3004 RMK AO2  T02800204,,,,,,68.03,,SW,29.39,27.74,85.4,Partly Cloudy
KIGQ,09/13/2016 20:55 UTC,30.04,84.02,69.44,62.13,11.5,220.0,,,,,,483.0,,,,10.0,,KIGQ 132055Z AUTO 22010KT 10SM BKN048 29/21 A3004 RMK AO2  T02890208,,,4800.0,,,69.67,,SW,29.39,27.6,88.14,Mostly Cloudy
KIGQ,09/13/2016 21:15 UTC,30.04,84.02,68.36,58.42,10.36,240.0,,,,,,482.0,502.0,,,10.0,,KIGQ 132115Z AUTO 24009KT 10SM SCT048 SCT050 29/20 A3004 RMK AO2  T02890202,,,,,,67.88,,WSW,29.39,27.74,87.14,Partly Cloudy
KIGQ,09/13/2016 21:35 UTC,30.04,83.3,67.46,58.42,10.36,230.0,,,,,,502.0,,,,10.0,,KIGQ 132135Z AUTO 23009KT 10SM SCT050 29/20 A3004 RMK AO2  T02850197,,,,,,67.2,,SW,29.39,27.79,86.02,Partly Cloudy
KIGQ,09/13/2016 21:55 UTC,30.04,83.48,69.08,62.13,5.75,240.0,,,,,,502.0,602.0,,,10.0,,KIGQ 132155Z AUTO 24005KT 10SM SCT050 SCT060 29/21 A3004 RMK AO2  T02860206,,,,,,69.16,,WSW,29.39,27.65,87.21,Partly Cloudy
KIGQ,09/13/2016 22:15 UTC,30.04,83.48,68.72,58.42,8.05,250.0,,,,,,482.0,752.0,,,10.0,,KIGQ 132215Z AUTO 25007KT 10SM SCT048 SCT075 29/20 A3004 RMK AO2  T02860204,,,,,,67.37,,WSW,29.39,27.78,86.29,Partly Cloudy
KIGQ,09/13/2016 22:35 UTC,30.04,80.96,67.64,65.62,5.75,250.0,,,,,,1.0,,,,10.0,,KIGQ 132235Z AUTO 25005KT 10SM CLR 27/20 A3004 RMK AO2  T02720198,,,,,,68.36,,WSW,29.39,27.74,83.85,Clear
KIGQ,09/13/2016 22:55 UTC,30.04,81.14,68.54,65.62,3.44,230.0,,,,,,1.0,,,,10.0,,KIGQ 132255Z AUTO 23003KT 10SM CLR 27/20 A3004 RMK AO2  T02730203,,,,,,68.53,,SW,29.39,27.72,84.13,Clear
KIGQ,09/13/2016 23:15 UTC,30.04,80.78,68.54,65.62,5.75,250.0,,,,,,1.0,,,,10.0,,KIGQ 132315Z AUTO 25005KT 10SM CLR 27/20 A3004 RMK AO2  T02710203,,,,,,68.19,,WSW,29.39,27.75,83.57,Clear
KIGQ,09/13/2016 23:35 UTC,30.04,79.88,68.18,65.62,5.75,250.0,,,,,,1.0,,,,10.0,,KIGQ 132335Z AUTO 25005KT 10SM CLR 27/20 A3004 RMK AO2  T02660201,,,,,,67.33,,WSW,29.39,27.82,,Clear
KIGQ,09/13/2016 23:55 UTC,30.04,78.44,68.18,69.6,4.61,250.0,,,,,,1.0,,,,10.0,,KIGQ 132355Z AUTO 25004KT 10SM CLR 26/20 A3004 RMK AO2 T02580201  10290 20258,84.2,78.44,,,,67.66,,WSW,29.39,27.82,,Clear
KIGQ,09/14/2016 00:15 UTC,30.04,78.08,67.64,69.6,3.44,290.0,,,,,,852.0,,,,10.0,,KIGQ 140015Z AUTO 29003KT 10SM SCT085 26/20 A3004 RMK AO2 LTG DSNT  W T02560198,,,,,,67.31,,WNW,29.39,27.85,,Partly Cloudy
KIGQ,09/14/2016 00:35 UTC,30.06,75.56,67.64,78.39,13.8,10.0,,,,,,552.0,852.0,,,10.0,,KIGQ 140035Z AUTO 01012KT 10SM SCT055 SCT085 24/20 A3006 RMK AO2  T02420198,,,,,,68.34,,N,29.41,27.83,,Partly Cloudy
KIGQ,09/14/2016 00:55 UTC,30.07,73.04,68.54,83.25,5.75,30.0,,,,,,552.0,,,,10.0,,KIGQ 140055Z AUTO 03005KT 10SM SCT055 23/20 A3007 RMK AO2  T02280203,,,,,,67.64,,NNE,29.42,27.92,,Partly Cloudy
KIGQ,09/14/2016 01:15 UTC,30.08,72.86,67.28,83.25,8.05,30.0,,,,,,1.0,,,,10.0,,KIGQ 140115Z AUTO 03007KT 10SM CLR 23/20 A3008 RMK AO2  T02270196,,,,,,67.46,,NNE,29.43,27.94,,Clear
KIGQ,09/14/2016 01:35 UTC,30.09,72.68,67.46,83.25,6.91,20.0,,,,,,1.0,,,,10.0,,KIGQ 140135Z AUTO 02006KT 10SM CLR 23/20 A3009 RMK AO2 LTG DSNT W  T02260197,,,,,,67.28,,NNE,29.44,27.97,,Clear
KIGQ,09/14/2016 01:55 UTC,30.1,72.5,67.28,83.25,5.75,10.0,,,,,,1.0,,,,10.0,,KIGQ 140155Z AUTO 01005KT 10SM CLR 23/20 A3010 RMK AO2  T02250196,,,,,,67.11,,N,29.45,27.99,,Clear
KIGQ,09/14/2016 02:15 UTC,30.1,72.32,67.46,88.46,3.44,360.0,,,,,,1.0,,,,10.0,,KIGQ 140215Z AUTO 36003KT 10SM CLR 22/20 A3010 RMK AO2  T02240197,,,,,,68.7,,N,29.45,27.89,,Clear
KIGQ,09/14/2016 02:35 UTC,30.11,72.5,67.1,83.25,5.75,10.0,,,,,,1.0,,,,10.0,,KIGQ 140235Z AUTO 01005KT 10SM CLR 23/20 A3011 RMK AO2  T02250195,,,,,,67.11,,N,29.46,28.0,,Clear
KIGQ,09/14/2016 02:55 UTC,30.12,72.14,66.56,83.13,6.91,10.0,,,,,,1202.0,,,,10.0,,KIGQ 140255Z AUTO 01006KT 10SM SCT120 22/19 A3012 RMK AO2  T02230192,,,,,,66.71,,N,29.47,28.05,,Partly Cloudy
KIGQ,09/14/2016 03:15 UTC,30.12,71.78,67.1,88.46,8.05,10.0,,,,,,1202.0,,,,10.0,,KIGQ 140315Z AUTO 01007KT 10SM SCT120 22/20 A3012 RMK AO2  T02210195,,,,,,68.17,,N,29.47,27.95,,Partly Cloudy
KIGQ,09/14/2016 03:35 UTC,30.13,71.24,67.28,88.46,6.91,10.0,,13.0,,,,1103.0,,,,10.0,,KIGQ 140335Z AUTO 01006KT 10SM -RA BKN110 22/20 A3013 RMK AO2  T02180196,,,11000.0,,,67.64,,N,29.47,28.0,,Light Rain
KIGQ,09/14/2016 03:55 UTC,30.13,71.06,67.46,88.46,8.05,20.0,,,,,,1004.0,,,,10.0,,KIGQ 140355Z AUTO 02007KT 10SM OVC100 22/20 A3013 RMK AO2  T02170197,,,10000.0,,,67.46,,NNE,29.47,28.01,,Overcast
KIGQ,09/14/2016 04:15 UTC,30.13,70.7,68.0,88.46,8.05,360.0,,,,,,904.0,,,,10.0,,KIGQ 140415Z AUTO 36007KT 10SM OVC090 22/20 A3013 RMK AO2  T02150200,,,9000.0,,,67.1,,N,29.47,28.04,,Overcast
KIGQ,09/14/2016 04:35 UTC,30.13,69.98,67.64,94.03,6.91,10.0,,,,,,132.0,1004.0,,,10.0,,KIGQ 140435Z AUTO 01006KT 10SM SCT013 OVC100 21/20 A3013 RMK AO2  T02110198,,,10000.0,,,68.17,,N,29.47,27.98,,Overcast
KIGQ,09/14/2016 04:55 UTC,30.13,69.98,68.18,94.03,9.22,10.0,,,,,,133.0,1104.0,,,10.0,,KIGQ 140455Z AUTO 01008KT 10SM BKN013 OVC110 21/20 A3013 RMK AO2  T02110201,,,1300.0,,,68.17,,N,29.47,27.98,,Overcast
KIGQ,09/14/2016 05:15 UTC,30.13,70.16,68.0,94.03,8.05,10.0,,,,,,134.0,,,,10.0,,KIGQ 140515Z AUTO 01007KT 10SM OVC013 21/20 A3013 RMK AO2  T02120200,,,1300.0,,,68.35,,N,29.47,27.96,,Overcast
KIGQ,09/14/2016 05:35 UTC,30.14,70.16,67.46,94.03,9.22,20.0,,,,,,154.0,,,,10.0,,KIGQ 140535Z AUTO 02008KT 10SM OVC015 21/20 A3014 RMK AO2  T02120197,,,1500.0,,,68.35,,NNE,29.48,27.97,,Overcast
KIGQ,09/14/2016 05:55 UTC,30.14,69.8,66.74,88.37,8.05,10.0,,,,,,134.0,,,,10.0,,KIGQ 140555Z AUTO 01007KT 10SM OVC013 21/19 A3014 RMK AO2  T02100193 10257 20210 402900140,78.26,69.8,1300.0,84.2,57.2,66.19,,N,29.48,28.12,,Overcast
KIGQ,09/14/2016 06:15 UTC,30.14,69.44,66.2,88.37,9.22,20.0,,,1104.0,,,132.0,803.0,,,10.0,,KIGQ 140615Z AUTO 02008KT 10SM SCT013 BKN080 OVC110 21/19  A3014 RMK AO2 T02080190,,,8000.0,,,65.83,,NNE,29.48,28.15,,Overcast
KIGQ,09/14/2016 06:35 UTC,30.15,69.8,66.56,88.37,9.22,10.0,,,1104.0,,,183.0,753.0,,,10.0,,KIGQ 140635Z AUTO 01008KT 10SM BKN018 BKN075 OVC110 21/19  A3015 RMK AO2 T02100192,,,1800.0,,,66.19,,N,29.49,28.13,,Overcast
KIGQ,09/14/2016 06:55 UTC,30.15,69.8,66.74,88.37,9.22,20.0,,,,,,184.0,,,,10.0,,KIGQ 140655Z AUTO 02008KT 10SM OVC018 21/19 A3015 RMK AO2  T02100193,,,1800.0,,,66.19,,NNE,29.49,28.13,,Overcast
KIGQ,09/14/2016 07:15 UTC,30.15,69.8,65.66,88.37,9.22,20.0,,,,,,204.0,,,,10.0,,KIGQ 140715Z AUTO 02008KT 10SM OVC020 21/19 A3015 RMK AO2  T02100187,,,2000.0,,,66.19,,NNE,29.49,28.13,,Overcast
KIGQ,09/14/2016 07:35 UTC,30.15,69.44,65.66,88.37,4.61,40.0,,,,,,,,,,10.0,,KIGQ 140735Z AUTO 04004KT 10SM 21/19 A3015 RMK AO2 T02080187,,,,,,65.83,,NE,29.49,28.16,,
KIGQ,09/14/2016 07:55 UTC,30.16,69.44,65.48,88.37,4.61,10.0,,,,,,172.0,234.0,,,10.0,,KIGQ 140755Z AUTO 01004KT 10SM SCT017 OVC023 21/19 A3016 RMK AO2  T02080186,,,2300.0,,,65.83,,N,29.5,28.17,,Overcast
KIGQ,09/14/2016 08:15 UTC,30.16,68.9,66.56,88.37,5.75,10.0,,,,,,132.0,204.0,,,10.0,,KIGQ 140815Z AUTO 01005KT 10SM SCT013 OVC020 21/19 A3016 RMK AO2  T02050192,,,2000.0,,,65.3,,N,29.5,28.21,,Overcast
KIGQ,09/14/2016 08:35 UTC,30.17,68.72,66.38,93.98,6.91,10.0,,,,,,132.0,234.0,,,10.0,,KIGQ 140835Z AUTO 01006KT 10SM SCT013 OVC023 20/19 A3017 RMK AO2  T02040191,,,2300.0,,,66.91,,N,29.51,28.12,,Overcast
KIGQ,09/14/2016 08:55 UTC,30.17,68.54,66.2,93.98,5.75,10.0,,,,,,234.0,,,,10.0,,KIGQ 140855Z AUTO 01005KT 10SM OVC023 20/19 A3017 RMK AO2 LTG DSNT  SW 6//// T02030190,,,2300.0,,,66.73,,N,29.51,28.13,,Overcast
KIGQ,09/14/2016 09:15 UTC,30.17,68.72,65.66,93.98,4.61,10.0,,,374.0,,,233.0,303.0,,,10.0,,KIGQ 140915Z AUTO 01004KT 10SM BKN023 BKN030 OVC037 20/19  A3017 RMK AO2 T02040187,,,2300.0,,,66.91,,N,29.51,28.12,,Overcast
KIGQ,09/14/2016 09:35 UTC,30.18,68.9,65.66,88.37,3.44,10.0,,,,,,183.0,234.0,,,10.0,,KIGQ 140935Z AUTO 01003KT 10SM BKN018 OVC023 21/19 A3018 RMK AO2  T02050187,,,1800.0,,,65.3,,N,29.52,28.23,,Overcast
KIGQ,09/14/2016 09:55 UTC,30.18,68.9,65.12,83.01,6.91,10.0,,,,,,163.0,214.0,,,10.0,,KIGQ 140955Z AUTO 01006KT 10SM BKN016 OVC021 21/18 A3018 RMK AO2  T02050184,,,1600.0,,,63.5,,N,29.52,28.34,,Overcast
KIGQ,09/14/2016 10:15 UTC,30.18,68.9,64.4,83.01,6.91,10.0,,,,,,204.0,,,,10.0,,KIGQ 141015Z AUTO 01006KT 10SM OVC020 21/18 A3018 RMK AO2  T02050180,,,2000.0,,,63.5,,N,29.52,28.34,,Overcast
KIGQ,09/14/2016 10:35 UTC,30.19,68.18,64.58,88.29,4.61,20.0,,13.0,,,,243.0,284.0,,,10.0,,KIGQ 141035Z AUTO 02004KT 10SM -RA BKN024 OVC028 20/18 A3019 RMK AO2 T02010181,,,2400.0,,,64.56,,NNE,29.53,28.3,,Light Rain
KIGQ,09/14/2016 10:55 UTC,30.19,68.0,63.32,82.89,5.75,20.0,,,,,,212.0,284.0,,,10.0,,KIGQ 141055Z AUTO 02005KT 10SM SCT021 OVC028 20/17 A3019 RMK AO2  T02000174,,,2800.0,,,62.57,,NNE,29.53,28.42,,Overcast
KIGQ,09/14/2016 11:15 UTC,30.19,68.18,,81.86,9.22,20.0,,,,,,304.0,,,,10.0,,,,,3000.0,,,62.39,,NNE,29.53,28.42,,Overcast
KIGQ,09/14/2016 11:35 UTC,30.19,66.38,,88.21,8.05,30.0,,13.0,704.0,,,322.0,443.0,,,10.0,,,,,4400.0,,,62.76,,NNE,29.53,28.43,,Light Rain
KIGQ,09/14/2016 11:55 UTC,30.19,66.56,,84.39,4.61,20.0,,,1103.0,,,442.0,702.0,,,10.0,,,,,11000.0,,,61.68,,NNE,29.53,28.49,,Mostly Cloudy
KIGQ,09/14/2016 12:15 UTC,30.2,66.2,,82.77,0.0,0.0,,,,,,702.0,1203.0,,,10.0,,,,,12000.0,,,60.77,,N,29.54,28.55,,Mostly Cloudy
KIGQ,09/14/2016 12:35 UTC,30.21,66.2,,88.2,0.0,0.0,,,1204.0,,,602.0,802.0,,,10.0,,,,,12000.0,,,62.58,,N,29.55,28.46,,Overcast
KIGQ,09/14/2016 12:55 UTC,30.21,66.56,,86.01,0.0,0.0,,13.0,1104.0,,,473.0,553.0,,,10.0,,,,,4700.0,,,62.22,,N,29.55,28.48,,Light Rain
KIGQ,09/14/2016 13:15 UTC,30.21,67.1,,85.5,3.44,40.0,,13.0,,,,473.0,704.0,,,10.0,,,,,4700.0,,,62.58,,NE,29.55,28.45,,Light Rain
KIGQ,09/14/2016 13:35 UTC,30.23,67.1,,87.69,4.61,20.0,,,,,,472.0,704.0,,,10.0,,,,,7000.0,,,63.3,,NNE,29.57,28.43,,Overcast
KIGQ,09/14/2016 13:55 UTC,30.23,68.0,,88.29,4.61,20.0,,,,,,493.0,704.0,,,10.0,,,,,4900.0,,,64.39,,NNE,29.57,28.35,,Overcast
KIGQ,09/14/2016 14:15 UTC,30.23,68.36,,88.3,5.75,30.0,,13.0,1204.0,,,162.0,493.0,,,10.0,,,,,4900.0,,,64.74,,NNE,29.57,28.32,,Light Rain
KIGQ,09/14/2016 14:35 UTC,30.24,68.54,,86.67,6.91,30.0,,,703.0,,,163.0,493.0,,,10.0,,,,,1600.0,,,64.38,,NNE,29.58,28.35,,Mostly Cloudy
KIGQ,09/14/2016 14:55 UTC,30.24,69.8,,83.01,9.22,40.0,,,1203.0,,,162.0,502.0,,,10.0,,,,,12000.0,,,64.38,,NE,29.58,28.34,,Mostly Cloudy
KIGQ,09/14/2016 15:15 UTC,30.24,71.06,,78.05,6.91,10.0,,,1202.0,,,192.0,752.0,,,10.0,,,,,,,,63.84,,N,29.58,28.35,,Partly Cloudy
KIGQ,09/14/2016 15:35 UTC,30.24,71.24,,76.12,9.22,40.0,,,,,,232.0,,,,10.0,,,,,,,,63.3,,NE,29.58,28.38,,Partly Cloudy
KIGQ,09/14/2016 15:55 UTC,30.25,70.16,,80.47,8.05,50.0,,,,,,232.0,1202.0,,,10.0,,,,,,,,63.84,,NE,29.59,28.38,,Partly Cloudy
KIGQ,09/14/2016 16:15 UTC,30.25,71.42,,76.14,6.91,60.0,,,,,,1202.0,,,,10.0,,,,,,,,63.48,,ENE,29.59,28.38,,Partly Cloudy
KIGQ,09/14/2016 16:35 UTC,30.25,71.6,,73.32,6.91,30.0,,,,,,702.0,,,,10.0,,,,,,,,62.57,,NNE,29.59,28.43,,Partly Cloudy
KIGQ,09/14/2016 16:55 UTC,30.25,71.06,,75.63,10.36,30.0,,,,,,1.0,,,,10.0,,,,,,,,62.94,,NNE,29.59,28.42,,Clear
KIGQ,09/14/2016 17:15 UTC,30.25,71.78,,73.34,9.22,40.0,,,,,,1202.0,,,,10.0,,,,,,,,62.75,,NE,29.59,28.42,,Partly Cloudy
KIGQ,09/14/2016 17:35 UTC,30.25,71.6,,68.81,9.22,50.0,,,,,,1202.0,,,,10.0,,,,,,,,60.77,,NE,29.59,28.54,,Partly Cloudy
KIGQ,09/14/2016 17:55 UTC,30.24,73.76,,64.39,11.5,60.0,,,,,,1.0,,,,10.0,,,73.76,66.2,,,,60.95,,ENE,29.58,28.49,,Clear
KIGQ,09/14/2016 18:15 UTC,30.24,72.5,,57.94,11.5,40.0,,,,,,1.0,,,,10.0,,,,,,,,56.8,,NE,29.58,28.73,,Clear
KIGQ,09/14/2016 18:35 UTC,30.24,71.96,,60.17,6.91,50.0,,,,,,1.0,,,,10.0,,,,,,,,57.34,,NE,29.58,28.7,,Clear
KIGQ,09/14/2016 18:55 UTC,30.23,71.6,,60.51,5.75,40.0,,,,,,1.0,,,,10.0,,,,,,,,57.16,,NE,29.57,28.71,,Clear
KIGQ,09/14/2016 19:15 UTC,30.23,71.06,,63.65,8.05,40.0,,,,,,1.0,,,,10.0,,,,,,,,58.06,,NE,29.57,28.67,,Clear
KIGQ,09/14/2016 19:35 UTC,30.22,71.42,,63.69,10.36,50.0,,,,,,1.0,,,,10.0,,,,,,,,58.42,,NE,29.56,28.63,,Clear
KIGQ,09/14/2016 19:55 UTC,30.22,71.6,,60.51,9.22,40.0,17.27,,,,,1.0,,,,10.0,,,,,,,,57.16,,NE,29.56,28.7,,Clear
KIGQ,09/14/2016 20:15 UTC,30.21,72.5,57.02,56.95,12.66,20.0,18.41,,,,,1.0,,,,10.0,,KIGQ 142015Z AUTO 02011G16KT 10SM CLR 23/14 A3021 RMK AO2  T02250139,,,,,,56.32,,NNE,29.55,28.72,,Clear
KIGQ,09/14/2016 20:35 UTC,30.21,72.5,57.74,56.95,10.36,30.0,18.41,,,,,1.0,,,,10.0,,KIGQ 142035Z AUTO 03009G16KT 10SM CLR 23/14 A3021 RMK AO2  T02250143,,,,,,56.32,,NNE,29.55,28.72,,Clear
KIGQ,09/14/2016 20:55 UTC,30.21,72.5,59.18,60.75,10.36,40.0,16.11,,,,,1.0,,,,10.0,,KIGQ 142055Z AUTO 04009G14KT 10SM CLR 23/15 A3021 RMK AO2  T02250151,,,,,,58.12,,NE,29.55,28.63,,Clear
KIGQ,09/14/2016 21:15 UTC,30.21,70.88,59.54,64.54,9.22,50.0,16.11,,,,,1.0,,,,10.0,,KIGQ 142115Z AUTO 05008G14KT 10SM CLR 22/15 A3021 RMK AO2  T02160153,,,,,,58.28,,NE,29.55,28.64,,Clear
KIGQ,09/14/2016 21:35 UTC,30.21,71.06,60.44,68.81,10.36,30.0,16.11,,,,,1.0,,,,10.0,,KIGQ 142135Z AUTO 03009G14KT 10SM CLR 22/16 A3021 RMK AO2  T02170158,,,,,,60.25,,NNE,29.55,28.53,,Clear
KIGQ,09/14/2016 21:55 UTC,30.21,71.6,60.26,68.81,11.5,60.0,,,,,,1.0,,,,10.0,,KIGQ 142155Z AUTO 06010KT 10SM CLR 22/16 A3021 RMK AO2  T02200157,,,,,,60.77,,ENE,29.55,28.5,,Clear
KIGQ,09/14/2016 22:15 UTC,30.21,70.34,59.54,68.61,10.36,40.0,,,,,,1.0,,,,10.0,,KIGQ 142215Z AUTO 04009KT 10SM CLR 21/15 A3021 RMK AO2  T02130153,,,,,,59.48,,NE,29.55,28.58,,Clear
KIGQ,09/14/2016 22:35 UTC,30.21,70.16,59.54,68.61,10.36,60.0,,,,,,1.0,,,,10.0,,KIGQ 142235Z AUTO 06009KT 10SM CLR 21/15 A3021 RMK AO2  T02120153,,,,,,59.31,,ENE,29.55,28.59,,Clear
KIGQ,09/14/2016 22:55 UTC,30.21,69.98,58.82,68.61,10.36,40.0,,,,,,1.0,,,,10.0,,KIGQ 142255Z AUTO 04009KT 10SM CLR 21/15 A3021 RMK AO2  T02110149,,,,,,59.13,,NE,29.55,28.6,,Clear
KIGQ,09/14/2016 23:15 UTC,30.21,69.26,58.28,68.61,12.66,40.0,,,,,,1.0,,,,10.0,,KIGQ 142315Z AUTO 04011KT 10SM CLR 21/15 A3021 RMK AO2  T02070146,,,,,,58.44,,NE,29.55,28.65,,Clear
KIGQ,09/14/2016 23:35 UTC,30.21,68.54,58.64,72.97,9.22,50.0,,,,,,1.0,,,,10.0,,KIGQ 142335Z AUTO 05008KT 10SM CLR 20/15 A3021 RMK AO2  T02030148,,,,,,59.48,,NE,29.55,28.6,,Clear
KIGQ,09/14/2016 23:55 UTC,30.21,68.0,59.18,72.97,5.75,50.0,,,,,,1.0,,,,10.0,,KIGQ 142355Z AUTO 05005KT 10SM CLR 20/15 A3021 RMK AO2 T02000151  10232 20200,73.76,68.0,,,,58.96,,NE,29.55,28.63,,Clear
KIGQ,09/15/2016 00:15 UTC,30.21,67.28,59.9,77.79,5.75,40.0,,,,,,1.0,,,,10.0,,KIGQ 150015Z AUTO 04005KT 10SM CLR 20/16 A3021 RMK AO2  T01960155,,,,,,60.07,,NE,29.55,28.58,,Clear
KIGQ,09/15/2016 00:35 UTC,30.21,67.28,59.9,77.79,3.44,50.0,,,,,,1.0,,,,10.0,,KIGQ 150035Z AUTO 05003KT 10SM CLR 20/16 A3021 RMK AO2  T01960155,,,,,,60.07,,NE,29.55,28.58,,Clear
KIGQ,09/15/2016 00:55 UTC,30.22,66.74,60.08,82.77,4.61,40.0,,,,,,1.0,,,,10.0,,KIGQ 150055Z AUTO 04004KT 10SM CLR 19/16 A3022 RMK AO2  T01930156,,,,,,61.3,,NE,29.56,28.53,,Clear
KIGQ,09/15/2016 01:15 UTC,30.22,66.56,60.8,82.77,4.61,50.0,,,,,,1.0,,,,10.0,,KIGQ 150115Z AUTO 05004KT 10SM CLR 19/16 A3022 RMK AO2  T01920160,,,,,,61.12,,NE,29.56,28.55,,Clear
KIGQ,09/15/2016 01:35 UTC,30.22,66.56,60.8,82.77,4.61,50.0,,,,,,1.0,,,,10.0,,KIGQ 150135Z AUTO 05004KT 10SM CLR 19/16 A3022 RMK AO2  T01920160,,,,,,61.12,,NE,29.56,28.55,,Clear
KIGQ,09/15/2016 01:55 UTC,30.23,66.38,60.98,82.77,4.61,50.0,,,,,,1.0,,,,10.0,,KIGQ 150155Z AUTO 05004KT 10SM CLR 19/16 A3023 RMK AO2  T01910161,,,,,,60.95,,NE,29.57,28.57,,Clear
KIGQ,09/15/2016 02:15 UTC,30.23,66.2,60.98,82.77,3.44,40.0,,,,,,1.0,,,,10.0,,KIGQ 150215Z AUTO 04003KT 10SM CLR 19/16 A3023 RMK AO2  T01900161,,,,,,60.77,,NE,29.57,28.58,,Clear
KIGQ,09/15/2016 02:35 UTC,30.23,66.2,60.98,82.77,3.44,40.0,,,,,,1.0,,,,10.0,,KIGQ 150235Z AUTO 04003KT 10SM CLR 19/16 A3023 RMK AO2  T01900161,,,,,,60.77,,NE,29.57,28.58,,Clear
KIGQ,09/15/2016 02:55 UTC,30.24,66.02,60.98,82.77,3.44,60.0,,,,,,1.0,,,,10.0,,KIGQ 150255Z AUTO 06003KT 10SM CLR 19/16 A3024 RMK AO2  T01890161,,,,,,60.6,,ENE,29.58,28.6,,Clear
KIGQ,09/15/2016 03:15 UTC,30.24,65.48,60.98,82.77,0.0,0.0,,,,,,1.0,,,,10.0,,KIGQ 150315Z AUTO 00000KT 10SM CLR 19/16 A3024 RMK AO2  T01860161,,,,,,60.07,,N,29.58,28.64,,Clear
KIGQ,09/15/2016 03:35 UTC,30.24,65.12,61.16,88.11,3.44,50.0,,,,,,1.0,,,,10.0,,KIGQ 150335Z AUTO 05003KT 10SM CLR 18/16 A3024 RMK AO2  T01840162,,,,,,61.49,,NE,29.58,28.56,,Clear
KIGQ,09/15/2016 03:55 UTC,30.24,65.3,61.34,82.77,3.44,60.0,,,,,,1.0,,,,10.0,,KIGQ 150355Z AUTO 06003KT 10SM CLR 19/16 A3024 RMK AO2  T01850163,,,,,,59.89,,ENE,29.58,28.65,,Clear
KIGQ,09/15/2016 04:15 UTC,30.24,64.94,61.7,93.89,0.0,0.0,,,,,,1.0,,,,10.0,,KIGQ 150415Z AUTO 00000KT 10SM CLR 18/17 A3024 RMK AO2  T01830165,,,,,,63.12,,N,29.58,28.48,,Clear
KIGQ,09/15/2016 04:35 UTC,30.24,64.76,61.16,88.11,3.44,60.0,,,,,,1.0,,,,10.0,,KIGQ 150435Z AUTO 06003KT 10SM CLR 18/16 A3024 RMK AO2  T01820162,,,,,,61.13,,ENE,29.58,28.59,,Clear
KIGQ,09/15/2016 04:55 UTC,30.24,64.04,60.8,88.11,0.0,0.0,,,,,,422.0,,,,10.0,,KIGQ 150455Z AUTO 00000KT 10SM SCT042 18/16 A3024 RMK AO2  T01780160,,,,,,60.42,,N,29.58,28.64,,Partly Cloudy
KIGQ,09/15/2016 05:15 UTC,30.24,64.4,60.08,88.11,0.0,0.0,,,,,,423.0,,,,10.0,,KIGQ 150515Z AUTO 00000KT 10SM BKN042 18/16 A3024 RMK AO2  T01800156,,,4200.0,,,60.78,,N,29.58,28.61,,Mostly Cloudy
KIGQ,09/15/2016 05:35 UTC,30.24,63.68,59.54,82.65,3.44,80.0,,,,,,312.0,424.0,,,10.0,,KIGQ 150535Z AUTO 08003KT 10SM SCT031 OVC042 18/15 A3024 RMK AO2  T01760153,,,4200.0,,,58.26,,E,29.58,28.75,,Overcast
KIGQ,09/15/2016 05:55 UTC,30.24,63.68,59.36,82.65,3.44,90.0,,,,,,314.0,,,,10.0,,KIGQ 150555Z AUTO 09003KT 10SM OVC031 18/15 A3024 RMK AO2  T01760152 10200 20175,68.0,63.5,3100.0,,,58.26,,E,29.58,28.75,,Overcast
KIGQ,09/15/2016 06:15 UTC,30.25,63.5,59.9,88.11,3.44,110.0,,,,,,334.0,,,,10.0,,KIGQ 150615Z AUTO 11003KT 10SM OVC033 18/16 A3025 RMK AO2  T01750155,,,3300.0,,,59.89,,ESE,29.59,28.68,,Overcast
KIGQ,09/15/2016 06:35 UTC,30.25,63.5,60.08,88.11,4.61,100.0,,,,,,384.0,,,,10.0,,KIGQ 150635Z AUTO 10004KT 10SM OVC038 18/16 A3025 RMK AO2  T01750156,,,3800.0,,,59.89,,E,29.59,28.68,,Overcast
KIGQ,09/15/2016 06:55 UTC,30.24,63.32,60.08,93.84,3.44,80.0,,,,,,372.0,434.0,,,10.0,,KIGQ 150655Z AUTO 08003KT 10SM SCT037 OVC043 17/16 A3024 RMK AO2  T01740156,,,4300.0,,,61.5,,E,29.58,28.59,,Overcast
KIGQ,09/15/2016 07:15 UTC,30.24,63.32,59.18,88.02,5.75,90.0,,,,,,434.0,,,,10.0,,KIGQ 150715Z AUTO 09005KT 10SM OVC043 17/15 A3024 RMK AO2  T01740151,,,4300.0,,,59.68,,E,29.58,28.68,,Overcast
KIGQ,09/15/2016 07:35 UTC,30.23,62.06,58.82,88.02,5.75,100.0,,,,,,432.0,,,,10.0,,KIGQ 150735Z AUTO 10005KT 10SM SCT043 17/15 A3023 RMK AO2  T01670149,,,,,,58.44,,E,29.57,28.75,,Partly Cloudy
KIGQ,09/15/2016 07:55 UTC,30.24,60.98,58.28,93.8,4.61,110.0,,,,,,1.0,,,,10.0,,KIGQ 150755Z AUTO 11004KT 10SM CLR 16/15 A3024 RMK AO2  T01610146,,,,,,59.17,,ESE,29.58,28.74,,Clear
KIGQ,09/15/2016 08:15 UTC,30.23,60.8,58.46,93.8,4.61,100.0,,,,,,1.0,,,,10.0,,KIGQ 150815Z AUTO 10004KT 10SM CLR 16/15 A3023 RMK AO2  T01600147,,,,,,58.99,,E,29.57,28.74,,Clear
KIGQ,09/15/2016 08:35 UTC,30.24,60.44,58.46,93.8,3.44,100.0,,,,,,1.0,,,,10.0,,KIGQ 150835Z AUTO 10003KT 10SM CLR 16/15 A3024 RMK AO2  T01580147,,,,,,58.63,,E,29.58,28.77,,Clear
KIGQ,09/15/2016 08:55 UTC,30.23,60.44,58.46,93.8,4.61,120.0,,,,,,1.0,,,,10.0,,KIGQ 150855Z AUTO 12004KT 10SM CLR 16/15 A3023 RMK AO2  T01580147,,,,,,58.63,,ESE,29.57,28.76,,Clear
KIGQ,09/15/2016 09:15 UTC,30.24,59.54,58.1,100.0,4.61,110.0,,,,,,1.0,,,,10.0,,KIGQ 150915Z AUTO 11004KT 10SM CLR 15/15 A3024 RMK AO2  T01530145,,,,,,59.54,,ESE,29.58,28.74,,Clear
KIGQ,09/15/2016 09:35 UTC,30.24,59.54,58.28,100.0,4.61,110.0,,,,,,1.0,,,,10.0,,KIGQ 150935Z AUTO 11004KT 10SM CLR 15/15 A3024 RMK AO2  T01530146,,,,,,59.54,,ESE,29.58,28.74,,Clear
KIGQ,09/15/2016 09:55 UTC,30.23,59.54,58.46,100.0,4.61,100.0,,,,,,1.0,,,,10.0,,KIGQ 150955Z AUTO 10004KT 10SM CLR 15/15 A3023 RMK AO2  T01530147,,,,,,59.54,,E,29.57,28.73,,Clear
KIGQ,09/15/2016 10:15 UTC,30.24,59.18,58.28,100.0,4.61,110.0,,,,,,1.0,,,,10.0,,KIGQ 151015Z AUTO 11004KT 10SM CLR 15/15 A3024 RMK AO2  T01510146,,,,,,59.18,,ESE,29.58,28.76,,Clear
KIGQ,09/15/2016 10:35 UTC,30.24,59.0,58.28,100.0,3.44,110.0,,,,,,1.0,,,,10.0,,KIGQ 151035Z AUTO 11003KT 10SM CLR 15/15 A3024 RMK AO2  T01500146,,,,,,59.0,,ESE,29.58,28.77,,Clear
KIGQ,09/15/2016 10:55 UTC,30.24,59.0,58.28,100.0,4.61,100.0,,,,,,1.0,,,,10.0,,KIGQ 151055Z AUTO 10004KT 10SM CLR 15/15 A3024 RMK AO2  T01500146,,,,,,59.0,,E,29.58,28.77,,Clear
KIGQ,09/15/2016 11:15 UTC,30.24,59.0,58.28,100.0,3.44,90.0,,,,,,1.0,,,,10.0,,KIGQ 151115Z AUTO 09003KT 10SM CLR 15/15 A3024 RMK AO2  T01500146,,,,,,59.0,,E,29.58,28.77,,Clear
KIGQ,09/15/2016 11:35 UTC,30.25,59.18,58.46,100.0,3.44,110.0,,,,,,1.0,,,,10.0,,KIGQ 151135Z AUTO 11003KT 10SM CLR 15/15 A3025 RMK AO2  T01510147,,,,,,59.18,,ESE,29.59,28.77,,Clear
KIGQ,09/15/2016 11:55 UTC,30.25,59.54,59.0,100.0,5.75,110.0,,,,,,1.0,,,,10.0,,KIGQ 151155Z AUTO 11005KT 10SM CLR 15/15 A3025 RMK AO2 T01530150  10177 20150,63.86,59.0,,,,59.54,,ESE,29.59,28.75,,Clear
KIGQ,09/15/2016 12:15 UTC,30.26,59.9,59.18,93.8,5.75,110.0,,,,,,1.0,,,,10.0,,KIGQ 151215Z AUTO 11005KT 10SM CLR 16/15 A3026 RMK AO2  T01550151,,,,,,58.09,,ESE,29.6,28.82,,Clear
KIGQ,09/15/2016 12:35 UTC,30.26,60.98,59.9,100.0,8.05,110.0,,,,,,1.0,,,,10.0,,KIGQ 151235Z AUTO 11007KT 10SM CLR 16/16 A3026 RMK AO2  T01610155,,,,,,60.98,,ESE,29.6,28.67,,Clear
KIGQ,09/15/2016 12:55 UTC,30.26,61.88,60.08,93.84,8.05,120.0,,,,,,1.0,,,,10.0,,KIGQ 151255Z AUTO 12007KT 10SM CLR 17/16 A3026 RMK AO2  T01660156,,,,,,60.07,,ESE,29.6,28.7,,Clear
KIGQ,09/15/2016 13:15 UTC,30.26,62.96,60.62,93.84,5.75,110.0,,,,,,1.0,,,,10.0,,KIGQ 151315Z AUTO 11005KT 10SM CLR 17/16 A3026 RMK AO2  T01720159,,,,,,61.14,,ESE,29.6,28.63,,Clear
KIGQ,09/15/2016 13:35 UTC,30.26,64.04,60.44,88.11,8.05,110.0,,,,,,1.0,,,,10.0,,KIGQ 151335Z AUTO 11007KT 10SM CLR 18/16 A3026 RMK AO2  T01780158,,,,,,60.42,,ESE,29.6,28.66,,Clear
KIGQ,09/15/2016 13:55 UTC,30.26,65.12,60.26,88.11,6.91,120.0,,,,,,1.0,,,,10.0,,KIGQ 151355Z AUTO 12006KT 10SM CLR 18/16 A3026 RMK AO2  T01840157,,,,,,61.49,,ESE,29.6,28.59,,Clear
KIGQ,09/15/2016 14:15 UTC,30.26,66.92,60.44,82.77,11.5,120.0,,,,,,1.0,,,,10.0,,KIGQ 151415Z AUTO 12010KT 10SM CLR 19/16 A3026 RMK AO2  T01940158,,,,,,61.48,,ESE,29.6,28.56,,Clear
KIGQ,09/15/2016 14:35 UTC,30.26,67.46,59.9,77.79,11.5,120.0,,,,,,1.0,,,,10.0,,KIGQ 151435Z AUTO 12010KT 10SM CLR 20/16 A3026 RMK AO2  T01970155,,,,,,60.24,,ESE,29.6,28.62,,Clear
KIGQ,09/15/2016 14:55 UTC,30.26,68.36,59.9,77.79,12.66,130.0,,,,,,1.0,,,,10.0,,KIGQ 151455Z AUTO 13011KT 10SM CLR 20/16 A3026 RMK AO2  T02020155,,,,,,61.12,,SE,29.6,28.57,,Clear
KIGQ,09/15/2016 15:15 UTC,30.26,69.26,60.26,73.15,10.36,110.0,,,,,,1.0,,,,10.0,,KIGQ 151515Z AUTO 11009KT 10SM CLR 21/16 A3026 RMK AO2  T02070157,,,,,,60.25,,ESE,29.6,28.6,,Clear
KIGQ,09/15/2016 15:35 UTC,30.26,70.88,60.98,68.81,11.5,150.0,17.27,,,,,1.0,,,,10.0,,KIGQ 151535Z AUTO 15010G15KT 10SM CLR 22/16 A3026 RMK AO2  T02160161,,,,,,60.08,,SSE,29.6,28.59,,Clear
KIGQ,09/15/2016 15:55 UTC,30.25,70.88,60.8,68.81,9.22,150.0,,,,,,1.0,,,,10.0,,KIGQ 151555Z AUTO 15008KT 10SM CLR 22/16 A3025 RMK AO2  T02160160,,,,,,60.08,,SSE,29.59,28.58,,Clear
KIGQ,09/15/2016 16:15 UTC,30.25,71.6,60.8,68.81,8.05,130.0,,,,,,1.0,,,,10.0,,KIGQ 151615Z AUTO 13007KT 10SM CLR 22/16 A3025 RMK AO2  T02200160,,,,,,60.77,,SE,29.59,28.54,,Clear
KIGQ,09/15/2016 16:35 UTC,30.24,72.68,61.88,69.01,6.91,100.0,,,,,,1.0,,,,10.0,,KIGQ 151635Z AUTO 10006KT 10SM CLR 23/17 A3024 RMK AO2  T02260166,,,,,,61.89,,E,29.58,28.45,,Clear
KIGQ,09/15/2016 16:55 UTC,30.24,73.4,60.98,64.76,3.44,130.0,,,,,,1.0,,,,10.0,,KIGQ 151655Z AUTO 13003KT 10SM CLR 23/16 A3024 RMK AO2  T02300161,,,,,,60.77,,SE,29.58,28.51,,Clear
KIGQ,09/15/2016 17:15 UTC,30.23,74.3,59.54,57.2,6.91,120.0,,,,,,1.0,,,,10.0,,KIGQ 151715Z AUTO 12006KT 10SM CLR 24/15 A3023 RMK AO2  T02350153,,,,,,58.14,,ESE,29.57,28.63,,Clear
KIGQ,09/15/2016 17:35 UTC,30.22,74.66,60.44,60.98,9.22,120.0,,,,,,1.0,,,,10.0,,KIGQ 151735Z AUTO 12008KT 10SM CLR 24/16 A3022 RMK AO2  T02370158,,,,,,60.27,,ESE,29.56,28.5,,Clear
KIGQ,09/15/2016 17:55 UTC,30.21,76.28,60.62,57.45,11.5,100.0,,,,,,1.0,,,,10.0,,KIGQ 151755Z AUTO 10010KT 10SM CLR 25/16 A3021 RMK AO2 T02460159  10246 20154,76.28,59.72,,,,60.12,,E,29.55,28.48,,Clear
KIGQ,09/15/2016 18:15 UTC,30.21,76.46,60.44,57.45,9.22,120.0,,,,,,1.0,,,,10.0,,KIGQ 151815Z AUTO 12008KT 10SM CLR 25/16 A3021 RMK AO2  T02470158,,,,,,60.29,,ESE,29.55,28.47,,Clear
KIGQ,09/15/2016 18:35 UTC,30.2,76.46,60.08,57.45,13.8,110.0,,,,,,1.0,,,,10.0,,KIGQ 151835Z AUTO 11012KT 10SM CLR 25/16 A3020 RMK AO2  T02470156,,,,,,60.29,,ESE,29.54,28.46,,Clear
KIGQ,09/15/2016 18:55 UTC,30.19,76.46,60.08,57.45,11.5,100.0,,,,,,1.0,,,,10.0,,KIGQ 151855Z AUTO 10010KT 10SM CLR 25/16 A3019 RMK AO2  T02470156,,,,,,60.29,,E,29.53,28.45,,Clear
KIGQ,09/15/2016 19:15 UTC,30.18,77.0,59.72,53.88,9.22,120.0,,,,,,1.0,,,,10.0,,KIGQ 151915Z AUTO 12008KT 10SM CLR 25/15 A3018 RMK AO2  T02500154,,,,,,58.99,,ESE,29.52,28.51,,Clear
KIGQ,09/15/2016 19:35 UTC,30.17,77.72,59.36,53.88,9.22,120.0,16.11,,,,,1.0,,,,10.0,,KIGQ 151935Z AUTO 12008G14KT 10SM CLR 25/15 A3017 RMK AO2  T02540152,,,,,,59.66,,ESE,29.51,28.45,,Clear
KIGQ,09/15/2016 19:55 UTC,30.16,78.26,59.54,50.78,8.05,120.0,,,,,,1.0,,,,10.0,,KIGQ 151955Z AUTO 12007KT 10SM CLR 26/15 A3016 RMK AO2  T02570153,,,,,,58.5,,ESE,29.5,28.5,,Clear
KIGQ,09/15/2016 20:15 UTC,30.16,77.72,60.26,57.45,8.05,90.0,,,,,,1.0,,,,10.0,,KIGQ 152015Z AUTO 09007KT 10SM CLR 25/16 A3016 RMK AO2  T02540157,,,,,,61.47,,E,29.5,28.34,,Clear
KIGQ,09/15/2016 20:35 UTC,30.16,77.54,59.54,53.88,5.75,110.0,9.22,,,,,1.0,,,,10.0,,KIGQ 152035Z AUTO 11005G08KT 10SM CLR 25/15 A3016 RMK AO2  T02530153,,,,,,59.49,,ESE,29.5,28.45,,Clear
KIGQ,09/15/2016 20:55 UTC,30.15,77.9,58.82,50.78,4.61,120.0,,,,,,1.0,,,,10.0,,KIGQ 152055Z AUTO 12004KT 10SM CLR 26/15 A3015 RMK AO2  T02550149,,,,,,58.17,,ESE,29.49,28.51,,Clear
KIGQ,09/15/2016 21:15 UTC,30.15,77.54,59.54,53.88,4.61,140.0,,,,,,1.0,,,,10.0,,KIGQ 152115Z AUTO 14004KT 10SM CLR 25/15 A3015 RMK AO2  T02530153,,,,,,59.49,,SE,29.49,28.44,,Clear
KIGQ,09/15/2016 21:35 UTC,30.14,77.54,59.54,53.88,6.91,90.0,,,,,,1.0,,,,10.0,,KIGQ 152135Z AUTO 09006KT 10SM CLR 25/15 A3014 RMK AO2  T02530153,,,,,,59.49,,E,29.48,28.43,,Clear
KIGQ,09/15/2016 21:55 UTC,30.14,77.0,59.72,53.88,0.0,0.0,,,,,,1.0,,,,10.0,,KIGQ 152155Z AUTO 00000KT 10SM CLR 25/15 A3014 RMK AO2  T02500154,,,,,,58.99,,N,29.48,28.47,,Clear
KIGQ,09/15/2016 22:15 UTC,30.13,77.0,60.26,57.45,9.22,90.0,,,,,,1.0,,,,10.0,,KIGQ 152215Z AUTO 09008KT 10SM CLR 25/16 A3013 RMK AO2  T02500157,,,,,,60.79,,E,29.47,28.36,,Clear
KIGQ,09/15/2016 22:35 UTC,30.13,76.46,60.8,57.45,8.05,100.0,,,,,,1.0,,,,10.0,,KIGQ 152235Z AUTO 10007KT 10SM CLR 25/16 A3013 RMK AO2  T02470160,,,,,,60.29,,E,29.47,28.39,,Clear
KIGQ,09/15/2016 22:55 UTC,30.13,76.1,60.26,57.45,9.22,110.0,,,,,,1.0,,,,10.0,,KIGQ 152255Z AUTO 11008KT 10SM CLR 25/16 A3013 RMK AO2  T02450157,,,,,,59.95,,ESE,29.47,28.41,,Clear
KIGQ,09/15/2016 23:15 UTC,30.12,75.02,60.26,60.98,8.05,110.0,,,,,,1.0,,,,10.0,,KIGQ 152315Z AUTO 11007KT 10SM CLR 24/16 A3012 RMK AO2  T02390157,,,,,,60.61,,ESE,29.47,28.39,,Clear
KIGQ,09/15/2016 23:35 UTC,30.13,73.76,60.8,64.76,5.75,120.0,,,,,,1.0,,,,10.0,,KIGQ 152335Z AUTO 12005KT 10SM CLR 23/16 A3013 RMK AO2  T02320160,,,,,,61.12,,ESE,29.47,28.37,,Clear
KIGQ,09/15/2016 23:55 UTC,30.12,72.32,60.26,68.81,5.75,130.0,,,,,,1.0,,,,10.0,,KIGQ 152355Z AUTO 13005KT 10SM CLR 22/16 A3012 RMK AO2 T02240157  10257 20224,78.26,72.32,,,,61.46,,SE,29.47,28.37,,Clear
KIGQ,09/16/2016 00:15 UTC,30.12,71.42,59.9,68.81,5.75,120.0,,,,,,1.0,,,,10.0,,KIGQ 160015Z AUTO 12005KT 10SM CLR 22/16 A3012 RMK AO2  T02190155,,,,,,60.6,,ESE,29.47,28.43,,Clear
KIGQ,09/16/2016 00:35 UTC,30.12,69.98,59.9,73.15,5.75,120.0,,,,,,1.0,,,,10.0,,KIGQ 160035Z AUTO 12005KT 10SM CLR 21/16 A3012 RMK AO2  T02110155,,,,,,60.94,,ESE,29.47,28.42,,Clear
KIGQ,09/16/2016 00:55 UTC,30.13,68.9,60.08,73.15,5.75,120.0,,,,,,1.0,,,,10.0,,KIGQ 160055Z AUTO 12005KT 10SM CLR 21/16 A3013 RMK AO2  T02050156,,,,,,59.9,,ESE,29.47,28.49,,Clear
KIGQ,09/16/2016 01:15 UTC,30.13,68.9,60.08,73.15,6.91,120.0,,,,,,1.0,,,,10.0,,KIGQ 160115Z AUTO 12006KT 10SM CLR 21/16 A3013 RMK AO2  T02050156,,,,,,59.9,,ESE,29.47,28.49,,Clear
KIGQ,09/16/2016 01:35 UTC,30.13,68.36,59.9,77.79,6.91,110.0,,,,,,1.0,,,,10.0,,KIGQ 160135Z AUTO 11006KT 10SM CLR 20/16 A3013 RMK AO2  T02020155,,,,,,61.12,,ESE,29.47,28.43,,Clear
KIGQ,09/16/2016 01:55 UTC,30.13,68.18,59.72,72.97,6.91,110.0,,,,,,1.0,,,,10.0,,KIGQ 160155Z AUTO 11006KT 10SM CLR 20/15 A3013 RMK AO2  T02010154,,,,,,59.14,,ESE,29.47,28.54,,Clear
KIGQ,09/16/2016 02:15 UTC,30.13,68.0,59.54,72.97,6.91,130.0,,,,,,1.0,,,,10.0,,KIGQ 160215Z AUTO 13006KT 10SM CLR 20/15 A3013 RMK AO2  T02000153,,,,,,58.96,,SE,29.47,28.55,,Clear
KIGQ,09/16/2016 02:35 UTC,30.13,67.28,59.54,72.97,5.75,120.0,,,,,,1.0,,,,10.0,,KIGQ 160235Z AUTO 12005KT 10SM CLR 20/15 A3013 RMK AO2  T01960153,,,,,,58.27,,ESE,29.47,28.6,,Clear
KIGQ,09/16/2016 02:55 UTC,30.13,66.74,59.36,77.64,4.61,130.0,,,,,,1.0,,,,10.0,,KIGQ 160255Z AUTO 13004KT 10SM CLR 19/15 A3013 RMK AO2  T01930152,,,,,,59.49,,SE,29.47,28.54,,Clear
KIGQ,09/16/2016 03:15 UTC,30.13,66.02,59.54,77.64,5.75,120.0,,,,,,1.0,,,,10.0,,KIGQ 160315Z AUTO 12005KT 10SM CLR 19/15 A3013 RMK AO2  T01890153,,,,,,58.79,,ESE,29.47,28.58,,Clear
KIGQ,09/16/2016 03:35 UTC,30.13,66.38,59.72,77.64,6.91,120.0,,,,,,1.0,,,,10.0,,KIGQ 160335Z AUTO 12006KT 10SM CLR 19/15 A3013 RMK AO2  T01910154,,,,,,59.14,,ESE,29.47,28.56,,Clear
KIGQ,09/16/2016 03:55 UTC,30.11,66.2,59.9,82.77,6.91,110.0,,,,,,1.0,,,,10.0,,KIGQ 160355Z AUTO 11006KT 10SM CLR 19/16 A3011 RMK AO2  T01900155,,,,,,60.77,,ESE,29.46,28.47,,Clear
KIGQ,09/16/2016 04:15 UTC,30.11,65.48,59.9,82.77,6.91,110.0,,,,,,1.0,,,,10.0,,KIGQ 160415Z AUTO 11006KT 10SM CLR 19/16 A3011 RMK AO2  T01860155,,,,,,60.07,,ESE,29.46,28.51,,Clear
KIGQ,09/16/2016 04:35 UTC,30.12,65.84,59.72,77.64,6.91,140.0,,,,,,1.0,,,,10.0,,KIGQ 160435Z AUTO 14006KT 10SM CLR 19/15 A3012 RMK AO2  T01880154,,,,,,58.61,,SE,29.47,28.59,,Clear
KIGQ,09/16/2016 04:55 UTC,30.11,66.02,59.54,77.64,6.91,140.0,,,,,,1.0,,,,10.0,,KIGQ 160455Z AUTO 14006KT 10SM CLR 19/15 A3011 RMK AO2  T01890153,,,,,,58.79,,SE,29.46,28.57,,Clear
KIGQ,09/16/2016 05:15 UTC,30.11,66.2,59.36,77.64,8.05,130.0,,,,,,1.0,,,,10.0,,KIGQ 160515Z AUTO 13007KT 10SM CLR 19/15 A3011 RMK AO2  T01900152,,,,,,58.96,,SE,29.46,28.56,,Clear
KIGQ,09/16/2016 05:35 UTC,30.11,65.66,59.18,77.64,8.05,140.0,,,,,,1.0,,,,10.0,,KIGQ 160535Z AUTO 14007KT 10SM CLR 19/15 A3011 RMK AO2  T01870151,,,,,,58.44,,SE,29.46,28.6,,Clear
KIGQ,09/16/2016 05:55 UTC,30.1,65.48,59.0,77.64,8.05,140.0,,,,,,422.0,,,,10.0,,KIGQ 160555Z AUTO 14007KT 10SM SCT042 19/15 A3010 RMK AO2  T01860150 10224 20185 402570150,72.32,65.3,,78.26,59.0,58.26,,SE,29.45,28.6,,Partly Cloudy
KIGQ,09/16/2016 06:15 UTC,30.1,66.2,59.0,77.64,9.22,120.0,,,,,,423.0,,,,10.0,,KIGQ 160615Z AUTO 12008KT 10SM BKN042 19/15 A3010 RMK AO2  T01900150,,,4200.0,,,58.96,,ESE,29.45,28.55,,Mostly Cloudy
KIGQ,09/16/2016 06:35 UTC,30.1,65.3,58.46,77.64,8.05,130.0,,,,,,442.0,502.0,,,10.0,,KIGQ 160635Z AUTO 13007KT 10SM SCT044 SCT050 19/15 A3010 RMK AO2  T01850147,,,,,,58.09,,SE,29.45,28.61,,Partly Cloudy
KIGQ,09/16/2016 06:55 UTC,30.1,65.12,58.28,82.65,8.05,130.0,,,,,,502.0,,,,10.0,,KIGQ 160655Z AUTO 13007KT 10SM SCT050 18/15 A3010 RMK AO2  T01840146,,,,,,59.67,,SE,29.45,28.53,,Partly Cloudy
KIGQ,09/16/2016 07:15 UTC,30.09,64.4,58.1,82.65,8.05,130.0,,,,,,502.0,,,,10.0,,KIGQ 160715Z AUTO 13007KT 10SM SCT050 18/15 A3009 RMK AO2  T01800145,,,,,,58.97,,SE,29.44,28.56,,Partly Cloudy
KIGQ,09/16/2016 07:35 UTC,30.08,63.86,58.1,82.65,9.22,130.0,,,,,,1.0,,,,10.0,,KIGQ 160735Z AUTO 13008KT 10SM CLR 18/15 A3008 RMK AO2  T01770145,,,,,,58.44,,SE,29.43,28.59,,Clear
KIGQ,09/16/2016 07:55 UTC,30.08,63.14,57.92,82.52,8.05,130.0,,,,,,1.0,,,,10.0,,KIGQ 160755Z AUTO 13007KT 10SM CLR 17/14 A3008 RMK AO2  T01730144,,,,,,57.69,,SE,29.43,28.63,,Clear
KIGQ,09/16/2016 08:15 UTC,30.08,62.96,57.74,82.52,8.05,140.0,,,,,,1.0,,,,10.0,,KIGQ 160815Z AUTO 14007KT 10SM CLR 17/14 A3008 RMK AO2  T01720143,,,,,,57.51,,SE,29.43,28.64,,Clear
KIGQ,09/16/2016 08:35 UTC,30.07,62.78,57.74,82.52,6.91,140.0,,,,,,1.0,,,,10.0,,KIGQ 160835Z AUTO 14006KT 10SM CLR 17/14 A3007 RMK AO2  T01710143,,,,,,57.34,,SE,29.42,28.64,,Clear
KIGQ,09/16/2016 08:55 UTC,30.08,62.6,57.56,82.52,8.05,150.0,,,,,,1.0,,,,10.0,,KIGQ 160855Z AUTO 15007KT 10SM CLR 17/14 A3008 RMK AO2  T01700142,,,,,,57.16,,SSE,29.43,28.66,,Clear
KIGQ,09/16/2016 09:15 UTC,30.06,62.6,57.56,82.52,6.91,140.0,,,,,,382.0,,,,10.0,,KIGQ 160915Z AUTO 14006KT 10SM SCT038 17/14 A3006 RMK AO2  T01700142,,,,,,57.16,,SE,29.41,28.64,,Partly Cloudy
KIGQ,09/16/2016 09:35 UTC,30.06,62.42,57.38,82.52,5.75,140.0,,,,,,382.0,,,,10.0,,KIGQ 160935Z AUTO 14005KT 10SM SCT038 17/14 A3006 RMK AO2  T01690141,,,,,,56.99,,SE,29.41,28.65,,Partly Cloudy
KIGQ,09/16/2016 09:55 UTC,30.06,61.88,57.38,82.52,6.91,140.0,,,,,,1.0,,,,10.0,,KIGQ 160955Z AUTO 14006KT 10SM CLR 17/14 A3006 RMK AO2  T01660141,,,,,,56.46,,SE,29.41,28.68,,Clear
KIGQ,09/16/2016 10:15 UTC,30.06,62.06,57.38,82.52,6.91,140.0,,,,,,392.0,1202.0,,,10.0,,KIGQ 161015Z AUTO 14006KT 10SM SCT039 SCT120 17/14 A3006 RMK AO2  T01670141,,,,,,56.63,,SE,29.41,28.67,,Partly Cloudy
KIGQ,09/16/2016 10:35 UTC,30.05,61.88,57.38,82.52,5.75,140.0,,,,,,1.0,,,,10.0,,KIGQ 161035Z AUTO 14005KT 10SM CLR 17/14 A3005 RMK AO2  T01660141,,,,,,56.46,,SE,29.4,28.67,,Clear
KIGQ,09/16/2016 10:55 UTC,30.06,61.7,57.2,82.52,6.91,140.0,,,,,,1.0,,,,10.0,,KIGQ 161055Z AUTO 14006KT 10SM CLR 17/14 A3006 RMK AO2  T01650140,,,,,,56.28,,SE,29.41,28.69,,Clear
KIGQ,09/16/2016 11:15 UTC,30.06,61.7,57.2,82.52,6.91,140.0,,,,,,1.0,,,,10.0,,KIGQ 161115Z AUTO 14006KT 10SM CLR 17/14 A3006 RMK AO2  T01650140,,,,,,56.28,,SE,29.41,28.69,,Clear
KIGQ,09/16/2016 11:35 UTC,30.06,62.24,57.56,82.52,6.91,140.0,,,,,,1.0,,,,10.0,,KIGQ 161135Z AUTO 14006KT 10SM CLR 17/14 A3006 RMK AO2 LTG DSNT W  T01680142,,,,,,56.81,,SE,29.41,28.66,,Clear
KIGQ,09/16/2016 11:55 UTC,30.06,62.6,57.92,82.52,6.91,160.0,,,,,,1.0,,,,10.0,,KIGQ 161155Z AUTO 16006KT 10SM CLR 17/14 A3006 RMK AO2 LTG DSNT SW  T01700144 10190 20165,66.2,61.7,,,,57.16,,SSE,29.41,28.64,,Clear
KIGQ,09/16/2016 12:15 UTC,30.07,63.32,58.28,88.02,8.05,160.0,,,,,,1202.0,,,,10.0,,KIGQ 161215Z AUTO 16007KT 10SM SCT120 17/15 A3007 RMK AO2  T01740146,,,,,,59.68,,SSE,29.42,28.52,,Partly Cloudy
KIGQ,09/16/2016 12:35 UTC,30.07,63.5,58.64,82.65,6.91,160.0,,,,,,1.0,,,,10.0,,KIGQ 161235Z AUTO 16006KT 10SM CLR 18/15 A3007 RMK AO2  T01750148,,,,,,58.09,,SSE,29.42,28.6,,Clear
KIGQ,09/16/2016 12:55 UTC,30.06,64.4,59.18,82.65,6.91,160.0,,,,,,1103.0,,,,10.0,,KIGQ 161255Z AUTO 16006KT 10SM BKN110 18/15 A3006 RMK AO2  T01800151,,,11000.0,,,58.97,,SSE,29.41,28.53,,Mostly Cloudy
KIGQ,09/16/2016 13:15 UTC,30.06,66.02,60.44,82.77,5.75,160.0,,,,,,442.0,1103.0,,,10.0,,KIGQ 161315Z AUTO 16005KT 10SM SCT044 BKN110 19/16 A3006 RMK AO2  T01890158,,,11000.0,,,60.6,,SSE,29.41,28.43,,Mostly Cloudy
KIGQ,09/16/2016 13:35 UTC,30.06,66.2,60.26,82.77,6.91,150.0,,,,,,382.0,464.0,,,10.0,,KIGQ 161335Z AUTO 15006KT 10SM SCT038 OVC046 19/16 A3006 RMK AO2  T01900157,,,4600.0,,,60.77,,SSE,29.41,28.42,,Overcast
KIGQ,09/16/2016 13:55 UTC,30.05,66.74,60.98,82.77,6.91,170.0,,,,,,362.0,484.0,,,10.0,,KIGQ 161355Z AUTO 17006KT 10SM SCT036 OVC048 19/16 A3005 RMK AO2  T01930161,,,4800.0,,,61.3,,S,29.4,28.37,,Overcast
KIGQ,09/16/2016 14:15 UTC,30.05,68.54,62.24,82.89,8.05,150.0,,,,,,482.0,604.0,,,10.0,,KIGQ 161415Z AUTO 15007KT 10SM SCT048 OVC060 20/17 A3005 RMK AO2  LTG DSNT SW T02030168,,,6000.0,,,63.1,,SSE,29.4,28.25,,Overcast
KIGQ,09/16/2016 14:35 UTC,30.05,70.88,63.68,78.09,11.5,160.0,,,953.0,,,452.0,603.0,,,10.0,,KIGQ 161435Z AUTO 16010KT 10SM SCT045 BKN060 BKN095 22/18  A3005 RMK AO2 T02160176,,,6000.0,,,63.68,,SSE,29.4,28.18,,Mostly Cloudy
KIGQ,09/16/2016 14:55 UTC,30.05,71.42,64.04,78.09,11.5,170.0,,,,,,452.0,602.0,,,10.0,,KIGQ 161455Z AUTO 17010KT 10SM SCT045 SCT060 22/18 A3005 RMK AO2  LTG DSNT SW T02190178,,,,,,64.2,,S,29.4,28.14,,Partly Cloudy
KIGQ,09/16/2016 15:15 UTC,30.04,73.58,64.94,73.5,9.22,170.0,,,,,,1.0,,,,10.0,,KIGQ 161515Z AUTO 17008KT 10SM CLR 23/18 A3004 RMK AO2 LTG DSNT SW  T02310183,,,,,,64.56,,S,29.39,28.09,,Clear
KIGQ,09/16/2016 15:35 UTC,30.03,75.2,66.02,73.67,11.5,170.0,,,,,,1.0,,,,10.0,,KIGQ 161535Z AUTO 17010KT 10SM CLR 24/19 A3003 RMK AO2 LTG DSNT SW  T02400189,,,,,,66.19,,S,29.38,27.95,,Clear
KIGQ,09/16/2016 15:55 UTC,30.03,76.82,67.1,73.85,10.36,180.0,,,,,,502.0,,,,10.0,,KIGQ 161555Z AUTO 18009KT 10SM SCT050 25/20 A3003 RMK AO2  T02490195,,,,,,67.82,,S,29.38,27.82,,Partly Cloudy
KIGQ,09/16/2016 16:15 UTC,30.02,77.72,67.82,73.85,10.36,170.0,17.27,,,,,1.0,,,,10.0,,KIGQ 161615Z AUTO 17009G15KT 10SM CLR 25/20 A3002 RMK AO2  T02540199,,,,,,68.69,,S,29.37,27.73,,Clear
KIGQ,09/16/2016 16:35 UTC,30.01,78.62,68.36,69.6,13.8,190.0,,,,,,502.0,,,,10.0,,KIGQ 161635Z AUTO 19012KT 10SM SCT050 26/20 A3001 RMK AO2 LTG DSNT  SW T02590202,,,,,,67.83,,S,29.36,27.77,,Partly Cloudy
KIGQ,09/16/2016 16:55 UTC,30.01,80.06,69.26,69.79,13.8,190.0,,,,,,502.0,,,,10.0,,KIGQ 161655Z AUTO 19012KT 10SM SCT050 27/21 A3001 RMK AO2  T02670207,,,,,,69.3,,S,29.36,27.65,83.02,Partly Cloudy
KIGQ,09/16/2016 17:15 UTC,29.99,81.32,69.62,69.79,12.66,180.0,18.41,,,,,1.0,,,,10.0,,KIGQ 161715Z AUTO 18011G16KT 10SM CLR 27/21 A2999 RMK AO2 LTG DSNT  SW T02740209,,,,,,70.51,,S,29.34,27.52,85.15,Clear
KIGQ,09/16/2016 17:35 UTC,29.99,81.32,69.62,69.79,16.11,200.0,21.85,,,,,362.0,452.0,,,10.0,,KIGQ 161735Z AUTO 20014G19KT 10SM SCT036 SCT045 27/21 A2999 RMK AO2 T02740209,,,,,,70.51,,SSW,29.34,27.52,85.15,Partly Cloudy
KIGQ,09/16/2016 17:55 UTC,29.98,80.6,69.98,69.79,11.5,200.0,20.71,,,,,403.0,503.0,,,10.0,,KIGQ 161755Z AUTO 20010G18KT 10SM BKN040 BKN050 27/21 A2998 RMK AO2 T02700211 10275 20170,81.5,62.6,4000.0,,,69.81,,SSW,29.33,27.57,83.91,Mostly Cloudy
KIGQ,09/16/2016 18:15 UTC,29.96,79.52,69.98,74.02,11.5,200.0,19.57,13.0,,,,403.0,483.0,,,10.0,,KIGQ 161815Z AUTO 20010G17KT 10SM -RA BKN040 BKN048 26/21  A2996 RMK AO2 LTG DSNT S T02640211,,,4000.0,,,70.5,,SSW,29.31,27.51,,Light Rain
KIGQ,09/16/2016 18:35 UTC,29.96,75.74,70.16,83.37,17.27,190.0,21.85,13.0,804.0,,,402.0,483.0,,,10.0,,KIGQ 161835Z AUTO 19015G19KT 10SM -RA SCT040 BKN048 OVC080 24/21  A2996 RMK AO2 T02430212,,,4800.0,,,70.32,,S,29.31,27.58,,Light Rain
KIGQ,09/16/2016 18:55 UTC,29.95,74.66,71.96,88.62,12.66,190.0,,13.0,653.0,,,302.0,442.0,,,10.0,,KIGQ 161855Z AUTO 19011KT 10SM -RA SCT030 SCT044 BKN065 24/22  A2995 RMK AO2 LTG DSNT S T02370222,,,6500.0,,,71.06,,S,29.3,27.53,,Light Rain
KIGQ,09/16/2016 19:15 UTC,29.94,76.28,71.96,83.48,11.5,190.0,,,,,,332.0,432.0,,,10.0,,KIGQ 161915Z AUTO 19010KT 10SM SCT033 SCT043 25/22 A2994 RMK AO2  T02460222,,,,,,70.89,,S,29.29,27.51,,Partly Cloudy
KIGQ,09/16/2016 19:35 UTC,29.93,77.72,71.6,83.48,9.22,190.0,,,,,,1.0,,,,10.0,,KIGQ 161935Z AUTO 19008KT 10SM CLR 25/22 A2993 RMK AO2  T02540220,,,,,,72.3,,S,29.28,27.37,,Clear
KIGQ,09/16/2016 19:55 UTC,29.92,79.34,72.14,78.68,10.36,190.0,,,,,,1.0,,,,10.0,,KIGQ 161955Z AUTO 19009KT 10SM CLR 26/22 A2992 RMK AO2  T02630223,,,,,,72.13,,S,29.27,27.35,,Clear
KIGQ,09/16/2016 20:15 UTC,29.91,81.5,71.42,69.98,20.71,210.0,,,,,,322.0,,,,10.0,,KIGQ 162015Z AUTO 21018KT 10SM SCT032 28/22 A2991 RMK AO2  T02750219,,,,,,70.76,,SSW,29.26,27.42,85.51,Partly Cloudy
KIGQ,09/16/2016 20:35 UTC,29.91,81.14,70.52,69.79,18.41,190.0,23.02,,,,,302.0,352.0,,,10.0,,KIGQ 162035Z AUTO 19016G20KT 10SM SCT030 SCT035 27/21 A2991 RMK AO2 T02730214,,,,,,70.33,,S,29.26,27.45,84.83,Partly Cloudy
KIGQ,09/16/2016 20:55 UTC,29.9,80.96,70.7,74.19,12.66,200.0,21.85,,,,,1.0,,,,10.0,,KIGQ 162055Z AUTO 20011G19KT 10SM CLR 27/22 A2990 RMK AO2  T02720215,,,,,,71.96,,SSW,29.25,27.32,85.27,Clear
KIGQ,09/16/2016 21:15 UTC,29.9,81.5,69.26,65.83,13.8,200.0,25.32,,,,,352.0,,,,10.0,,KIGQ 162115Z AUTO 20012G22KT 10SM SCT035 28/21 A2990 RMK AO2  T02750207,,,,,,68.97,,SSW,29.25,27.54,84.73,Partly Cloudy
KIGQ,09/16/2016 21:35 UTC,29.91,80.6,69.26,69.79,13.8,210.0,21.85,,,,,1.0,,,,10.0,,KIGQ 162135Z AUTO 21012G19KT 10SM CLR 27/21 A2991 RMK AO2  T02700207,,,,,,69.81,,SSW,29.26,27.5,83.91,Clear
KIGQ,09/16/2016 21:55 UTC,29.92,80.42,70.16,69.79,16.11,190.0,,,,,,332.0,,,,10.0,,KIGQ 162155Z AUTO 19014KT 10SM SCT033 27/21 A2992 RMK AO2  T02690212,,,,,,69.64,,S,29.27,27.53,83.61,Partly Cloudy
KIGQ,09/16/2016 22:15 UTC,29.93,79.52,69.08,74.02,13.8,210.0,,,,,,332.0,,,,10.0,,KIGQ 162215Z AUTO 21012KT 10SM SCT033 26/21 A2993 RMK AO2  T02640206,,,,,,70.5,,SSW,29.28,27.48,,Partly Cloudy
KIGQ,09/16/2016 22:35 UTC,29.92,78.8,69.26,74.02,10.36,200.0,,,,,,1.0,,,,10.0,,KIGQ 162235Z AUTO 20009KT 10SM CLR 26/21 A2992 RMK AO2  T02600207,,,,,,69.81,,SSW,29.27,27.53,,Clear
KIGQ,09/16/2016 22:55 UTC,29.93,78.08,69.8,74.02,10.36,190.0,,,,,,1.0,,,,10.0,,KIGQ 162255Z AUTO 19009KT 10SM CLR 26/21 A2993 RMK AO2  T02560210,,,,,,69.11,,S,29.28,27.61,,Clear
KIGQ,09/16/2016 23:15 UTC,29.92,77.0,69.44,78.54,9.22,190.0,,,,,,1.0,,,,10.0,,KIGQ 162315Z AUTO 19008KT 10SM CLR 25/21 A2992 RMK AO2  T02500208,,,,,,69.8,,S,29.27,27.56,,Clear
KIGQ,09/16/2016 23:35 UTC,29.91,75.2,69.26,83.37,8.05,190.0,,,,,,1.0,,,,10.0,,KIGQ 162335Z AUTO 19007KT 10SM CLR 24/21 A2991 RMK AO2  T02400207,,,,,,69.79,,S,29.26,27.57,,Clear
KIGQ,09/16/2016 23:55 UTC,29.92,74.12,69.26,88.54,6.91,190.0,,,,,,1.0,,,,10.0,,KIGQ 162355Z AUTO 19006KT 10SM CLR 23/21 A2992 RMK AO2 T02340207  10280 20234,82.4,74.12,,,,70.5,,S,29.27,27.55,,Clear
KIGQ,09/17/2016 00:15 UTC,29.92,73.04,69.26,88.54,6.91,190.0,,,,,,1.0,,,,10.0,,KIGQ 170015Z AUTO 19006KT 10SM CLR 23/21 A2992 RMK AO2  T02280207,,,,,,69.44,,S,29.27,27.64,,Clear
KIGQ,09/17/2016 00:35 UTC,29.93,72.5,69.26,88.54,6.91,190.0,,,,,,1.0,,,,10.0,,KIGQ 170035Z AUTO 19006KT 10SM CLR 23/21 A2993 RMK AO2  T02250207,,,,,,68.91,,S,29.28,27.7,,Clear
KIGQ,09/17/2016 00:55 UTC,29.94,72.32,69.26,94.07,6.91,190.0,,,,,,1.0,,,,10.0,,KIGQ 170055Z AUTO 19006KT 10SM CLR 22/21 A2994 RMK AO2  T02240207,,,,,,70.51,,S,29.29,27.59,,Clear
KIGQ,09/17/2016 01:15 UTC,29.94,71.96,69.26,94.07,9.22,190.0,,,,,,1.0,,,,10.0,,KIGQ 170115Z AUTO 19008KT 10SM CLR 22/21 A2994 RMK AO2  T02220207,,,,,,70.15,,S,29.29,27.62,,Clear
KIGQ,09/17/2016 01:35 UTC,29.95,72.68,69.8,88.54,10.36,200.0,,,,,,1.0,,,,10.0,,KIGQ 170135Z AUTO 20009KT 10SM CLR 23/21 A2995 RMK AO2  T02260210,,,,,,69.08,,SSW,29.3,27.7,,Clear
KIGQ,09/17/2016 01:55 UTC,29.95,72.5,69.44,88.54,10.36,190.0,,,,,,1.0,,,,10.0,,KIGQ 170155Z AUTO 19009KT 10SM CLR 23/21 A2995 RMK AO2  T02250208,,,,,,68.91,,S,29.3,27.72,,Clear
KIGQ,09/17/2016 02:15 UTC,29.94,72.14,69.26,94.07,8.05,200.0,,,,,,1.0,,,,10.0,,KIGQ 170215Z AUTO 20007KT 10SM CLR 22/21 A2994 RMK AO2  T02230207,,,,,,70.33,,SSW,29.29,27.61,,Clear
KIGQ,09/17/2016 02:35 UTC,29.94,71.96,69.08,94.07,9.22,200.0,,,,,,1.0,,,,10.0,,KIGQ 170235Z AUTO 20008KT 10SM CLR 22/21 A2994 RMK AO2  T02220206,,,,,,70.15,,SSW,29.29,27.62,,Clear
KIGQ,09/17/2016 02:55 UTC,29.94,71.78,69.26,94.07,8.05,200.0,,,,,,1.0,,,,10.0,,KIGQ 170255Z AUTO 20007KT 10SM CLR 22/21 A2994 RMK AO2  T02210207,,,,,,69.97,,SSW,29.29,27.64,,Clear
KIGQ,09/17/2016 03:15 UTC,29.94,71.6,69.08,94.07,9.22,190.0,,,,,,1.0,,,,10.0,,KIGQ 170315Z AUTO 19008KT 10SM CLR 22/21 A2994 RMK AO2  T02200206,,,,,,69.79,,S,29.29,27.66,,Clear
KIGQ,09/17/2016 03:35 UTC,29.94,71.42,69.26,94.07,8.05,200.0,,,,,,1.0,,,,10.0,,KIGQ 170335Z AUTO 20007KT 10SM CLR 22/21 A2994 RMK AO2  T02190207,,,,,,69.62,,SSW,29.29,27.67,,Clear
KIGQ,09/17/2016 03:55 UTC,29.94,71.6,69.26,94.07,9.22,200.0,,,,,,342.0,,,,10.0,,KIGQ 170355Z AUTO 20008KT 10SM SCT034 22/21 A2994 RMK AO2  T02200207,,,,,,69.79,,SSW,29.29,27.66,,Partly Cloudy
KIGQ,09/17/2016 04:15 UTC,29.95,71.6,69.8,94.07,10.36,200.0,,13.0,,,,273.0,343.0,,,10.0,,KIGQ 170415Z AUTO 20009KT 10SM -RA BKN027 BKN034 22/21 A2995 RMK AO2 T02200210,,,2700.0,,,69.79,,SSW,29.3,27.67,,Light Rain
KIGQ,09/17/2016 04:35 UTC,29.95,71.6,69.8,94.07,10.36,210.0,,13.0,1203.0,,,272.0,1003.0,,,10.0,,KIGQ 170435Z AUTO 21009KT 10SM -RA SCT027 BKN100 BKN120 22/21  A2995 RMK AO2 T02200210,,,10000.0,,,69.79,,SSW,29.3,27.67,,Light Rain
KIGQ,09/17/2016 04:55 UTC,29.95,71.42,69.98,94.07,9.22,230.0,,13.0,954.0,,,153.0,213.0,,,10.0,,KIGQ 170455Z AUTO 23008KT 10SM -RA BKN015 BKN021 OVC095 22/21  A2995 RMK AO2 T02190211,,,1500.0,,,69.62,,SW,29.3,27.68,,Light Rain
KIGQ,09/17/2016 05:15 UTC,29.95,71.24,69.8,94.07,8.05,250.0,,13.0,,,,153.0,954.0,,,7.0,,KIGQ 170515Z AUTO 25007KT 7SM -RA BKN015 OVC095 22/21 A2995 RMK AO2 T02180210,,,1500.0,,,69.44,,WSW,29.3,27.7,,Light Rain
KIGQ,09/17/2016 05:35 UTC,29.95,69.8,68.18,94.03,6.91,230.0,,13.0,1202.0,,,802.0,902.0,,,10.0,,KIGQ 170535Z AUTO 23006KT 10SM -RA SCT080 SCT090 SCT120 21/20  A2995 RMK AO2 T02100201,,,,,,67.99,,SW,29.3,27.82,,Light Rain
KIGQ,09/17/2016 05:55 UTC,29.95,69.08,67.46,94.03,5.75,230.0,,13.0,,,,1103.0,,,,10.0,,KIGQ 170555Z AUTO 23005KT 10SM -RA BKN110 21/20 A2995 RMK AO2  T02060197 10233 20206 402800165,73.94,69.08,11000.0,82.4,61.7,67.28,,SW,29.3,27.88,,Light Rain
KIGQ,09/17/2016 06:15 UTC,29.95,68.72,68.0,100.0,5.75,240.0,,13.0,,,,902.0,1104.0,,,10.0,,KIGQ 170615Z AUTO 24005KT 10SM -RA SCT090 OVC110 20/20 A2995 RMK AO2 T02040200,,,11000.0,,,68.72,,WSW,29.3,27.79,,Light Rain
KIGQ,09/17/2016 06:35 UTC,29.95,68.72,68.0,100.0,4.61,230.0,,13.0,,,,802.0,1104.0,,,10.0,,KIGQ 170635Z AUTO 23004KT 10SM -RA SCT080 OVC110 20/20 A2995 RMK AO2 T02040200,,,11000.0,,,68.72,,SW,29.3,27.79,,Light Rain
KIGQ,09/17/2016 06:55 UTC,29.95,68.18,68.18,100.0,4.61,200.0,,13.0,1203.0,,,652.0,902.0,,,10.0,,KIGQ 170655Z AUTO 20004KT 10SM -RA SCT065 SCT090 BKN120 20/20  A2995 RMK AO2 T02010201,,,12000.0,,,68.18,,SSW,29.3,27.83,,Light Rain
KIGQ,09/17/2016 07:15 UTC,29.95,68.36,67.82,100.0,4.61,220.0,,13.0,1203.0,,,652.0,903.0,,,10.0,,KIGQ 170715Z AUTO 22004KT 10SM -RA SCT065 BKN090 BKN120 20/20  A2995 RMK AO2 T02020199,,,9000.0,,,68.36,,SW,29.3,27.82,,Light Rain
KIGQ,09/17/2016 07:35 UTC,29.95,68.0,68.0,100.0,3.44,200.0,,13.0,,,,502.0,904.0,,,10.0,,KIGQ 170735Z AUTO 20003KT 10SM -RA SCT050 OVC090 20/20 A2995 RMK AO2 T02000200,,,9000.0,,,68.0,,SSW,29.3,27.85,,Light Rain
KIGQ,09/17/2016 07:55 UTC,29.94,68.18,68.18,100.0,4.61,220.0,,13.0,804.0,,,462.0,603.0,,,10.0,,KIGQ 170755Z AUTO 22004KT 10SM -RA SCT046 BKN060 OVC080 20/20  A2994 RMK AO2 T02010201,,,6000.0,,,68.18,,SW,29.29,27.82,,Light Rain
KIGQ,09/17/2016 08:15 UTC,29.94,67.46,67.46,100.0,6.91,220.0,,1.0,704.0,,,372.0,553.0,,,7.0,,KIGQ 170815Z AUTO 22006KT 7SM RA SCT037 BKN055 OVC070 20/20  A2994 RMK AO2 LTG DSNT E T01970197,,,5500.0,,,67.46,,SW,29.29,27.88,,Rain
KIGQ,09/17/2016 08:35 UTC,29.93,66.92,66.92,100.0,4.61,190.0,,,904.0,,,372.0,602.0,,,10.0,,KIGQ 170835Z AUTO 19004KT 10SM SCT037 SCT060 OVC090 19/19  A2993 RMK AO2 T01940194,,,9000.0,,,66.92,,S,29.28,27.91,,Overcast
KIGQ,09/17/2016 08:55 UTC,29.92,66.56,66.56,100.0,8.05,170.0,,,904.0,,,283.0,463.0,,,10.0,,KIGQ 170855Z AUTO 17007KT 10SM BKN028 BKN046 OVC090 19/19  A2992 RMK AO2 T01920192,,,2800.0,,,66.56,,S,29.27,27.93,,Overcast
KIGQ,09/17/2016 09:15 UTC,29.93,66.2,66.2,100.0,4.61,210.0,,,1004.0,,,283.0,703.0,,,10.0,,KIGQ 170915Z AUTO 21004KT 10SM BKN028 BKN070 OVC100 19/19  A2993 RMK AO2 T01900190,,,2800.0,,,66.2,,SSW,29.28,27.97,,Overcast
KIGQ,09/17/2016 09:35 UTC,29.92,66.2,66.2,100.0,3.44,200.0,,,1004.0,,,282.0,702.0,,,10.0,,KIGQ 170935Z AUTO 20003KT 10SM SCT028 SCT070 OVC100 19/19  A2992 RMK AO2 T01900190,,,10000.0,,,66.2,,SSW,29.27,27.96,,Overcast
KIGQ,09/17/2016 09:55 UTC,29.93,66.2,66.2,100.0,4.61,220.0,,13.0,,,,1004.0,,,,10.0,,KIGQ 170955Z AUTO 22004KT 10SM -RA OVC100 19/19 A2993 RMK AO2  T01900190,,,10000.0,,,66.2,,SW,29.28,27.97,,Light Rain
KIGQ,09/17/2016 10:15 UTC,29.92,65.84,65.84,100.0,6.91,210.0,,13.0,1103.0,,,82.0,352.0,,,10.0,,KIGQ 171015Z AUTO 21006KT 10SM -RA SCT008 SCT035 BKN110 19/19  A2992 RMK AO2 T01880188,,,11000.0,,,65.84,,SSW,29.27,27.99,,Light Rain
KIGQ,09/17/2016 10:35 UTC,29.92,65.84,65.84,100.0,6.91,220.0,,13.0,1003.0,,,82.0,352.0,,,10.0,,KIGQ 171035Z AUTO 22006KT 10SM -RA SCT008 SCT035 BKN100 19/19  A2992 RMK AO2 T01880188,,,10000.0,,,65.84,,SW,29.27,27.99,,Light Rain
KIGQ,09/17/2016 10:55 UTC,29.91,65.84,65.84,100.0,4.61,220.0,,13.0,,,,1103.0,,,,10.0,,KIGQ 171055Z AUTO 22004KT 10SM -RA BKN110 19/19 A2991 RMK AO2  T01880188,,,11000.0,,,65.84,,SW,29.26,27.98,,Light Rain
KIGQ,09/17/2016 11:15 UTC,29.92,65.84,65.84,100.0,5.75,220.0,,1.0,,,,1002.0,1103.0,,,10.0,,KIGQ 171115Z AUTO 22005KT 10SM RA SCT100 BKN110 19/19 A2992 RMK AO2 T01880188,,,11000.0,,,65.84,,SW,29.27,27.99,,Rain
KIGQ,09/17/2016 11:35 UTC,29.92,65.66,65.66,100.0,3.44,210.0,,13.0,,,,902.0,1203.0,,,10.0,,KIGQ 171135Z AUTO 21003KT 10SM -RA SCT090 BKN120 19/19 A2992 RMK AO2 T01870187,,,12000.0,,,65.66,,SSW,29.27,28.0,,Light Rain
KIGQ,09/17/2016 11:55 UTC,29.92,65.66,65.66,100.0,4.61,210.0,,13.0,,,,902.0,1203.0,,,10.0,,KIGQ 171155Z AUTO 21004KT 10SM -RA SCT090 BKN120 19/19 A2992 RMK AO2 T01870187 10206 20187,69.08,65.66,12000.0,,,65.66,,SSW,29.27,28.0,,Light Rain
KIGQ,09/17/2016 12:15 UTC,29.93,65.84,65.84,100.0,3.44,230.0,,13.0,,,,1204.0,,,,10.0,,KIGQ 171215Z AUTO 23003KT 10SM -RA OVC120 19/19 A2993 RMK AO2  T01880188,,,12000.0,,,65.84,,SW,29.28,28.0,,Light Rain
KIGQ,09/17/2016 12:35 UTC,29.94,66.02,66.02,100.0,3.44,200.0,,,,,,1104.0,,,,10.0,,KIGQ 171235Z AUTO 20003KT 10SM OVC110 19/19 A2994 RMK AO2  T01890189,,,11000.0,,,66.02,,SSW,29.29,27.99,,Overcast
KIGQ,09/17/2016 12:55 UTC,29.93,66.2,66.2,100.0,4.61,210.0,,,,,,1104.0,,,,10.0,,KIGQ 171255Z AUTO 21004KT 10SM OVC110 19/19 A2993 RMK AO2  T01900190,,,11000.0,,,66.2,,SSW,29.28,27.97,,Overcast
KIGQ,09/17/2016 13:15 UTC,29.94,66.56,66.56,100.0,5.75,220.0,,,,,,1103.0,,,,10.0,,KIGQ 171315Z AUTO 22005KT 10SM BKN110 19/19 A2994 RMK AO2  T01920192,,,11000.0,,,66.56,,SW,29.29,27.95,,Mostly Cloudy
KIGQ,09/17/2016 13:35 UTC,29.93,67.46,67.28,100.0,5.75,230.0,,,,,,482.0,,,,10.0,,KIGQ 171335Z AUTO 23005KT 10SM SCT048 20/20 A2993 RMK AO2  T01970196,,,,,,67.46,,SW,29.28,27.87,,Partly Cloudy
KIGQ,09/17/2016 13:55 UTC,29.93,68.72,67.46,100.0,6.91,260.0,,,853.0,,,72.0,482.0,,,10.0,,KIGQ 171355Z AUTO 26006KT 10SM SCT007 SCT048 BKN085 20/20  A2993 RMK AO2 T02040197,,,8500.0,,,68.72,,W,29.28,27.77,,Mostly Cloudy
KIGQ,09/17/2016 14:15 UTC,29.94,68.9,67.64,94.03,8.05,270.0,,,,,,72.0,852.0,,,10.0,,KIGQ 171415Z AUTO 27007KT 10SM SCT007 SCT085 21/20 A2994 RMK AO2  T02050198,,,,,,67.1,,W,29.29,27.88,,Partly Cloudy
KIGQ,09/17/2016 14:35 UTC,29.94,69.26,67.46,94.03,8.05,250.0,,,,,,93.0,,,,10.0,,KIGQ 171435Z AUTO 25007KT 10SM BKN009 21/20 A2994 RMK AO2  T02070197,,,900.0,,,67.46,,WSW,29.29,27.85,,Mostly Cloudy
KIGQ,09/17/2016 14:55 UTC,29.95,69.62,67.82,94.03,8.05,270.0,,,,,,94.0,,,,10.0,,KIGQ 171455Z AUTO 27007KT 10SM OVC009 21/20 A2995 RMK AO2  T02090199,,,900.0,,,67.82,,W,29.3,27.83,,Overcast
KIGQ,09/17/2016 15:15 UTC,29.94,70.7,67.82,88.46,10.36,260.0,,,,,,114.0,,,,10.0,,KIGQ 171515Z AUTO 26009KT 10SM OVC011 22/20 A2994 RMK AO2  T02150199,,,1100.0,,,67.1,,W,29.29,27.86,,Overcast
KIGQ,09/17/2016 15:35 UTC,29.95,71.42,67.82,88.46,12.66,250.0,,,,,,134.0,,,,10.0,,KIGQ 171535Z AUTO 25011KT 10SM OVC013 22/20 A2995 RMK AO2  T02190199,,,1300.0,,,67.81,,WSW,29.3,27.81,,Overcast
KIGQ,09/17/2016 15:55 UTC,29.94,72.86,68.18,83.25,8.05,230.0,,,,,,163.0,223.0,,,10.0,,KIGQ 171555Z AUTO 23007KT 10SM BKN016 BKN022 23/20 A2994 RMK AO2  T02270201,,,1600.0,,,67.46,,SW,29.29,27.8,,Mostly Cloudy
KIGQ,09/17/2016 16:15 UTC,29.94,74.12,68.36,83.25,8.05,240.0,,,,,,182.0,403.0,,,10.0,,KIGQ 171615Z AUTO 24007KT 10SM SCT018 BKN040 23/20 A2994 RMK AO2  T02340202,,,4000.0,,,68.69,,WSW,29.29,27.7,,Mostly Cloudy
KIGQ,09/17/2016 16:35 UTC,29.94,75.02,68.0,78.39,6.91,290.0,,,403.0,,,203.0,283.0,,,10.0,,KIGQ 171635Z AUTO 29006KT 10SM BKN020 BKN028 BKN040 24/20  A2994 RMK AO2 T02390200,,,2000.0,,,67.82,,WNW,29.29,27.75,,Mostly Cloudy
KIGQ,09/17/2016 16:55 UTC,29.94,75.56,66.2,73.67,11.5,270.0,,,342.0,,,222.0,282.0,,,10.0,,KIGQ 171655Z AUTO 27010KT 10SM SCT022 SCT028 SCT034 24/19  A2994 RMK AO2 T02420190,,,,,,66.54,,W,29.29,27.83,,Partly Cloudy
KIGQ,09/17/2016 17:15 UTC,29.94,76.64,67.1,73.85,12.66,280.0,17.27,,433.0,,,282.0,382.0,,,10.0,,KIGQ 171715Z AUTO 28011G15KT 10SM SCT028 SCT038 BKN043 25/20  A2994 RMK AO2 T02480195,,,4300.0,,,67.65,,W,29.29,27.74,,Mostly Cloudy
KIGQ,09/17/2016 17:35 UTC,29.94,76.82,65.48,69.4,11.5,260.0,19.57,,433.0,,,282.0,342.0,,,10.0,,KIGQ 171735Z AUTO 26010G17KT 10SM SCT028 SCT034 BKN043 25/19  A2994 RMK AO2 T02490186,,,4300.0,,,66.02,,W,29.29,27.85,,Mostly Cloudy
KIGQ,09/17/2016 17:55 UTC,29.93,76.28,65.84,69.4,10.36,260.0,,,,,,332.0,453.0,,,10.0,,KIGQ 171755Z AUTO 26009KT 10SM SCT033 BKN045 25/19 A2993 RMK AO2  T02460188 10254 20187,77.72,65.66,4500.0,,,65.5,,W,29.28,27.88,,Mostly Cloudy
KIGQ,09/17/2016 18:15 UTC,29.93,78.62,66.02,65.41,10.36,250.0,,,,,,352.0,452.0,,,10.0,,KIGQ 171815Z AUTO 25009KT 10SM SCT035 SCT045 26/19 A2993 RMK AO2  T02590189,,,,,,66.03,,WSW,29.28,27.82,,Partly Cloudy
KIGQ,09/17/2016 18:35 UTC,29.93,78.98,65.48,63.42,12.66,250.0,20.71,,,,,373.0,443.0,,,10.0,,KIGQ 171835Z AUTO 25011G18KT 10SM BKN037 BKN044 26/19 A2993 RMK AO2 T02610186,,,3700.0,,,65.49,,WSW,29.28,27.85,,Mostly Cloudy
KIGQ,09/17/2016 18:55 UTC,29.92,78.44,65.84,65.41,9.22,260.0,,,,,,372.0,442.0,,,10.0,,KIGQ 171855Z AUTO 26008KT 10SM SCT037 SCT044 26/19 A2992 RMK AO2  T02580188,,,,,,65.86,,W,29.27,27.82,,Partly Cloudy
KIGQ,09/17/2016 19:15 UTC,29.91,79.88,64.58,57.94,11.5,270.0,18.41,,,,,412.0,,,,10.0,,KIGQ 171915Z AUTO 27010G16KT 10SM SCT041 27/18 A2991 RMK AO2  T02660181,,,,,,63.74,,W,29.26,27.93,,Partly Cloudy
KIGQ,09/17/2016 19:35 UTC,29.91,79.7,63.14,54.4,9.22,250.0,18.41,,,,,432.0,502.0,,,10.0,,KIGQ 171935Z AUTO 25008G16KT 10SM SCT043 SCT050 27/17 A2991 RMK AO2 T02650173,,,,,,61.78,,WSW,29.26,28.06,,Partly Cloudy
KIGQ,09/17/2016 19:55 UTC,29.91,78.98,63.68,61.44,10.36,270.0,,,,,,452.0,502.0,,,10.0,,KIGQ 171955Z AUTO 27009KT 10SM SCT045 SCT050 26/18 A2991 RMK AO2  T02610176,,,,,,64.57,,W,29.26,27.89,,Partly Cloudy
KIGQ,09/17/2016 20:15 UTC,29.91,78.98,64.04,61.44,9.22,270.0,,,652.0,,,452.0,502.0,,,10.0,,KIGQ 172015Z AUTO 27008KT 10SM SCT045 SCT050 SCT065 26/18  A2991 RMK AO2 T02610178,,,,,,64.57,,W,29.26,27.89,,Partly Cloudy
KIGQ,09/17/2016 20:35 UTC,29.9,80.06,63.86,57.94,8.05,260.0,,,,,,482.0,652.0,,,10.0,,KIGQ 172035Z AUTO 26007KT 10SM SCT048 SCT065 27/18 A2990 RMK AO2  T02670177,,,,,,63.91,,W,29.25,27.91,81.66,Partly Cloudy
KIGQ,09/17/2016 20:55 UTC,29.9,80.42,63.86,57.94,11.5,240.0,16.11,,,,,502.0,652.0,,,10.0,,KIGQ 172055Z AUTO 24010G14KT 10SM SCT050 SCT065 27/18 A2990 RMK AO2 T02690177,,,,,,64.25,,WSW,29.25,27.88,82.07,Partly Cloudy
KIGQ,09/17/2016 21:15 UTC,29.9,80.78,62.96,54.4,10.36,240.0,18.41,,,,,502.0,652.0,,,10.0,,KIGQ 172115Z AUTO 24009G16KT 10SM SCT050 SCT065 27/17 A2990 RMK AO2 T02710172,,,,,,62.79,,WSW,29.25,27.97,82.05,Partly Cloudy
KIGQ,09/17/2016 21:35 UTC,29.9,79.88,63.14,54.4,9.22,250.0,,,,,,1.0,,,,10.0,,KIGQ 172135Z AUTO 25008KT 10SM CLR 27/17 A2990 RMK AO2  T02660173,,,,,,61.95,,WSW,29.25,28.03,,Clear
KIGQ,09/17/2016 21:55 UTC,29.91,79.34,62.6,57.69,9.22,260.0,,,,,,652.0,,,,10.0,,KIGQ 172155Z AUTO 26008KT 10SM SCT065 26/17 A2991 RMK AO2  T02630170,,,,,,63.11,,W,29.26,27.98,,Partly Cloudy
KIGQ,09/17/2016 22:15 UTC,29.91,79.34,62.96,57.69,6.91,260.0,,,,,,653.0,703.0,,,10.0,,KIGQ 172215Z AUTO 26006KT 10SM BKN065 BKN070 26/17 A2991 RMK AO2  T02630172,,,6500.0,,,63.11,,W,29.26,27.98,,Mostly Cloudy
KIGQ,09/17/2016 22:35 UTC,29.91,78.98,60.98,54.14,9.22,240.0,,,,,,552.0,652.0,,,10.0,,KIGQ 172235Z AUTO 24008KT 10SM SCT055 SCT065 26/16 A2991 RMK AO2  T02610161,,,,,,60.97,,WSW,29.26,28.11,,Partly Cloudy
KIGQ,09/17/2016 22:55 UTC,29.91,78.26,60.44,54.14,9.22,250.0,,,,,,652.0,,,,10.0,,KIGQ 172255Z AUTO 25008KT 10SM SCT065 26/16 A2991 RMK AO2  T02570158,,,,,,60.3,,WSW,29.26,28.16,,Partly Cloudy
KIGQ,09/17/2016 23:15 UTC,29.91,77.0,60.98,57.45,8.05,230.0,,,,,,1.0,,,,10.0,,KIGQ 172315Z AUTO 23007KT 10SM CLR 25/16 A2991 RMK AO2  T02500161,,,,,,60.79,,SW,29.26,28.14,,Clear
KIGQ,09/17/2016 23:35 UTC,29.91,76.46,59.9,57.45,6.91,240.0,,,,,,1.0,,,,10.0,,KIGQ 172335Z AUTO 24006KT 10SM CLR 25/16 A2991 RMK AO2  T02470155,,,,,,60.29,,WSW,29.26,28.18,,Clear
KIGQ,09/17/2016 23:55 UTC,29.92,74.48,59.18,57.2,8.05,240.0,,,,,,702.0,,,,10.0,,KIGQ 172355Z AUTO 24007KT 10SM SCT070 24/15 A2992 RMK AO2  T02360151 10273 20236,81.14,74.48,,,,58.3,,WSW,29.27,28.31,,Partly Cloudy
KIGQ,09/18/2016 00:15 UTC,29.92,73.04,59.0,60.75,6.91,250.0,,,,,,1.0,,,,10.0,,KIGQ 180015Z AUTO 25006KT 10SM CLR 23/15 A2992 RMK AO2  T02280150,,,,,,58.63,,WSW,29.27,28.31,,Clear
KIGQ,09/18/2016 00:35 UTC,29.92,71.96,58.64,64.54,4.61,250.0,,,,,,1.0,,,,10.0,,KIGQ 180035Z AUTO 25004KT 10SM CLR 22/15 A2992 RMK AO2  T02220148,,,,,,59.31,,WSW,29.27,28.29,,Clear
KIGQ,09/18/2016 00:55 UTC,29.93,71.96,58.28,64.54,4.61,260.0,,,,,,1.0,,,,10.0,,KIGQ 180055Z AUTO 26004KT 10SM CLR 22/15 A2993 RMK AO2  T02220146,,,,,,59.31,,W,29.28,28.3,,Clear
KIGQ,09/18/2016 01:15 UTC,29.94,70.16,58.1,68.61,3.44,240.0,,,,,,1.0,,,,10.0,,KIGQ 180115Z AUTO 24003KT 10SM CLR 21/15 A2994 RMK AO2  T02120145,,,,,,59.31,,WSW,29.29,28.33,,Clear
KIGQ,09/18/2016 01:35 UTC,29.94,66.38,58.46,77.64,3.44,230.0,,,,,,1.0,,,,10.0,,KIGQ 180135Z AUTO 23003KT 10SM CLR 19/15 A2994 RMK AO2  T01910147,,,,,,59.14,,SW,29.29,28.38,,Clear
KIGQ,09/18/2016 01:55 UTC,29.94,64.58,58.1,82.65,3.44,230.0,,,,,,1.0,,,,10.0,,KIGQ 180155Z AUTO 23003KT 10SM CLR 18/15 A2994 RMK AO2  T01810145,,,,,,59.14,,SW,29.29,28.4,,Clear
KIGQ,09/18/2016 02:15 UTC,29.94,63.5,58.28,82.65,0.0,0.0,,,,,,1.0,,,,10.0,,KIGQ 180215Z AUTO 00000KT 10SM CLR 18/15 A2994 RMK AO2  T01750146,,,,,,58.09,,N,29.29,28.46,,Clear
KIGQ,09/18/2016 02:35 UTC,29.94,62.6,58.64,88.02,0.0,0.0,,,,,,1.0,,,,10.0,,KIGQ 180235Z AUTO 00000KT 10SM CLR 17/15 A2994 RMK AO2  T01700148,,,,,,58.97,,N,29.29,28.43,,Clear
KIGQ,09/18/2016 02:55 UTC,29.95,62.6,58.82,88.02,0.0,0.0,,,,,,1.0,,,,10.0,,KIGQ 180255Z AUTO 00000KT 10SM CLR 17/15 A2995 RMK AO2  T01700149,,,,,,58.97,,N,29.3,28.44,,Clear
KIGQ,09/18/2016 03:15 UTC,29.95,61.88,58.46,88.02,0.0,0.0,,,,,,1.0,,,,10.0,,KIGQ 180315Z AUTO 00000KT 10SM CLR 17/15 A2995 RMK AO2  T01660147,,,,,,58.26,,N,29.3,28.49,,Clear
KIGQ,09/18/2016 03:35 UTC,29.96,61.7,58.1,87.98,4.61,180.0,,,,,,702.0,,,,10.0,,KIGQ 180335Z AUTO 18004KT 10SM SCT070 17/15 A2996 RMK AO2  T01650145,,,,,,58.07,,S,29.31,28.51,,Partly Cloudy
KIGQ,09/18/2016 03:55 UTC,29.96,61.16,58.1,93.8,0.0,0.0,,,,,,1.0,,,,10.0,,KIGQ 180355Z AUTO 00000KT 10SM CLR 16/15 A2996 RMK AO2  T01620145,,,,,,59.34,,N,29.31,28.45,,Clear
KIGQ,09/18/2016 04:15 UTC,29.96,60.98,58.1,93.8,0.0,0.0,,,,,,1.0,,,,10.0,,KIGQ 180415Z AUTO 00000KT 10SM CLR 16/15 A2996 RMK AO2  T01610145,,,,,,59.17,,N,29.31,28.46,,Clear
KIGQ,09/18/2016 04:35 UTC,29.97,61.34,58.1,93.8,0.0,0.0,,,,,,1.0,,,,10.0,,KIGQ 180435Z AUTO 00000KT 10SM CLR 16/15 A2997 RMK AO2  T01630145,,,,,,59.52,,N,29.32,28.45,,Clear
KIGQ,09/18/2016 04:55 UTC,29.96,60.62,57.92,87.94,0.0,0.0,,,,,,1.0,,,,10.0,,KIGQ 180455Z AUTO 00000KT 10SM CLR 16/14 A2996 RMK AO2  T01590144,,,,,,57.0,,N,29.31,28.57,,Clear
KIGQ,09/18/2016 05:15 UTC,29.97,60.8,58.1,93.8,0.0,0.0,,,,,,1.0,,,,10.0,,KIGQ 180515Z AUTO 00000KT 10SM CLR 16/15 A2997 RMK AO2  T01600145,,,,,,58.99,,N,29.32,28.48,,Clear
KIGQ,09/18/2016 05:35 UTC,29.96,59.9,57.92,87.94,0.0,0.0,,,,,,702.0,,,,10.0,,KIGQ 180535Z AUTO 00000KT 10SM SCT070 16/14 A2996 RMK AO2  T01550144,,,,,,56.29,,N,29.31,28.61,,Partly Cloudy
KIGQ,09/18/2016 05:55 UTC,29.96,60.8,58.1,93.8,0.0,0.0,,,,,,703.0,,,,10.0,,KIGQ 180555Z AUTO 00000KT 10SM BKN070 16/15 A2996 RMK AO2  T01600145 10237 20155 402730155,74.66,59.9,7000.0,81.14,59.9,58.99,,N,29.31,28.47,,Mostly Cloudy
KIGQ,09/18/2016 06:15 UTC,29.96,60.26,58.64,93.8,0.0,0.0,,,,,,704.0,,,,10.0,,KIGQ 180615Z AUTO 00000KT 10SM OVC070 16/15 A2996 RMK AO2  T01570148,,,7000.0,,,58.45,,N,29.31,28.51,,Overcast
KIGQ,09/18/2016 06:35 UTC,29.96,59.72,58.28,100.0,0.0,0.0,,,,,,703.0,,,,10.0,,KIGQ 180635Z AUTO 00000KT 10SM BKN070 15/15 A2996 RMK AO2  T01540146,,,7000.0,,,59.72,,N,29.31,28.45,,Mostly Cloudy
KIGQ,09/18/2016 06:55 UTC,29.96,59.18,58.46,100.0,0.0,0.0,,,,,,702.0,753.0,,,10.0,,KIGQ 180655Z AUTO 00000KT 10SM SCT070 BKN075 15/15 A2996 RMK AO2  T01510147,,,7500.0,,,59.18,,N,29.31,28.49,,Mostly Cloudy
KIGQ,09/18/2016 07:15 UTC,29.96,59.0,58.64,100.0,0.0,0.0,,,,,,703.0,,,,10.0,,KIGQ 180715Z AUTO 00000KT 10SM BKN070 15/15 A2996 RMK AO2 LTG DSNT  S T01500148,,,7000.0,,,59.0,,N,29.31,28.5,,Mostly Cloudy
KIGQ,09/18/2016 07:35 UTC,29.96,59.36,58.64,100.0,0.0,0.0,,,,,,703.0,,,,10.0,,KIGQ 180735Z AUTO 00000KT 10SM BKN070 15/15 A2996 RMK AO2  T01520148,,,7000.0,,,59.36,,N,29.31,28.47,,Mostly Cloudy
KIGQ,09/18/2016 07:55 UTC,29.96,58.46,58.28,100.0,0.0,0.0,,,,,,702.0,,,,10.0,,KIGQ 180755Z AUTO 00000KT 10SM SCT070 15/15 A2996 RMK AO2  T01470146,,,,,,58.46,,N,29.31,28.53,,Partly Cloudy
KIGQ,09/18/2016 08:15 UTC,29.96,59.36,58.82,100.0,0.0,0.0,,,,,,1.0,,,,10.0,,KIGQ 180815Z AUTO 00000KT 10SM CLR 15/15 A2996 RMK AO2  T01520149,,,,,,59.36,,N,29.31,28.47,,Clear
KIGQ,09/18/2016 08:35 UTC,29.96,58.1,58.1,100.0,0.0,0.0,,,,,,703.0,,,,10.0,,KIGQ 180835Z AUTO 00000KT 10SM BKN070 15/15 A2996 RMK AO2  T01450145,,,7000.0,,,58.1,,N,29.31,28.55,,Mostly Cloudy
KIGQ,09/18/2016 08:55 UTC,29.96,59.18,58.64,100.0,0.0,0.0,,,,,,603.0,704.0,,,10.0,,KIGQ 180855Z AUTO 00000KT 10SM BKN060 OVC070 15/15 A2996 RMK AO2  T01510148,,,6000.0,,,59.18,,N,29.31,28.49,,Overcast
KIGQ,09/18/2016 09:15 UTC,29.96,59.0,58.82,100.0,0.0,0.0,,,,,,603.0,854.0,,,10.0,,KIGQ 180915Z AUTO 00000KT 10SM BKN060 OVC085 15/15 A2996 RMK AO2  T01500149,,,6000.0,,,59.0,,N,29.31,28.5,,Overcast
KIGQ,09/18/2016 09:35 UTC,29.96,59.54,59.18,100.0,0.0,0.0,,,,,,553.0,653.0,,,10.0,,KIGQ 180935Z AUTO 00000KT 10SM BKN055 BKN065 15/15 A2996 RMK AO2  T01530151,,,5500.0,,,59.54,,N,29.31,28.46,,Mostly Cloudy
KIGQ,09/18/2016 09:55 UTC,29.96,58.82,58.64,100.0,0.0,0.0,,,,,,553.0,753.0,,,10.0,,KIGQ 180955Z AUTO 00000KT 10SM BKN055 BKN075 15/15 A2996 RMK AO2  T01490148,,,5500.0,,,58.82,,N,29.31,28.51,,Mostly Cloudy
KIGQ,09/18/2016 10:15 UTC,29.96,58.46,58.1,100.0,0.0,0.0,,,,,,552.0,753.0,,,10.0,,KIGQ 181015Z AUTO 00000KT 10SM SCT055 BKN075 15/15 A2996 RMK AO2  T01470145,,,7500.0,,,58.46,,N,29.31,28.53,,Mostly Cloudy
KIGQ,09/18/2016 10:35 UTC,29.96,58.64,58.28,100.0,0.0,0.0,,,,,,552.0,753.0,,,10.0,,KIGQ 181035Z AUTO 00000KT 10SM SCT055 BKN075 15/15 A2996 RMK AO2  T01480146,,,7500.0,,,58.64,,N,29.31,28.52,,Mostly Cloudy
KIGQ,09/18/2016 10:55 UTC,29.97,59.0,58.64,100.0,0.0,0.0,,,,,,552.0,753.0,,,10.0,,KIGQ 181055Z AUTO 00000KT 10SM SCT055 BKN075 15/15 A2997 RMK AO2  T01500148,,,7500.0,,,59.0,,N,29.32,28.51,,Mostly Cloudy
KIGQ,09/18/2016 11:15 UTC,29.97,58.46,57.74,93.75,0.0,0.0,,,,,,1.0,,,,10.0,,KIGQ 181115Z AUTO 00000KT 10SM CLR 15/14 A2997 RMK AO2  T01470143,,,,,,56.65,,N,29.32,28.62,,Clear
KIGQ,09/18/2016 11:35 UTC,29.97,58.28,57.92,93.75,0.0,0.0,,,,,,1.0,,,,10.0,,KIGQ 181135Z AUTO 00000KT 10SM CLR 15/14 A2997 RMK AO2  T01460144,,,,,,56.47,,N,29.32,28.63,,Clear
KIGQ,09/18/2016 11:55 UTC,29.98,58.1,58.1,100.0,0.0,0.0,,,,,,1.0,,,,10.0,,KIGQ 181155Z AUTO 00000KT 10SM CLR 15/15 A2998 RMK AO2 T01450145  10160 20141,60.8,57.38,,,,58.1,,N,29.33,28.57,,Clear
KIGQ,09/18/2016 12:15 UTC,29.98,56.84,56.84,100.0,0.0,0.0,,,,,,1.0,,,,10.0,,KIGQ 181215Z AUTO 00000KT 10SM CLR 14/14 A2998 RMK AO2  T01380138,,,,,,56.84,,N,29.33,28.64,,Clear
KIGQ,09/18/2016 12:35 UTC,29.99,58.82,58.82,100.0,0.0,0.0,,,,,,1.0,,,,10.0,,KIGQ 181235Z AUTO 00000KT 10SM CLR 15/15 A2999 RMK AO2  T01490149,,,,,,58.82,,N,29.34,28.54,,Clear
KIGQ,09/18/2016 12:55 UTC,29.99,62.06,60.8,93.84,0.0,0.0,,,,,,1.0,,,,10.0,,KIGQ 181255Z AUTO 00000KT 10SM CLR 17/16 A2999 RMK AO2  T01670160,,,,,,60.25,,N,29.34,28.43,,Clear
KIGQ,09/18/2016 13:15 UTC,29.99,64.58,61.34,88.11,0.0,0.0,,,,,,1.0,,,,10.0,,KIGQ 181315Z AUTO 00000KT 10SM CLR 18/16 A2999 RMK AO2  T01810163,,,,,,60.95,,N,29.34,28.36,,Clear
KIGQ,09/18/2016 13:35 UTC,29.99,67.1,60.8,77.79,4.61,360.0,,,,,,1.0,,,,10.0,,KIGQ 181335Z AUTO 36004KT 10SM CLR 20/16 A2999 RMK AO2  T01950160,,,,,,59.89,,N,29.34,28.38,,Clear
KIGQ,09/18/2016 13:55 UTC,29.99,68.36,61.52,77.79,4.61,10.0,,,,,,1.0,,,,10.0,,KIGQ 181355Z AUTO 01004KT 10SM CLR 20/16 A2999 RMK AO2  T02020164,,,,,,61.12,,N,29.34,28.3,,Clear
KIGQ,09/18/2016 14:15 UTC,30.0,69.8,61.34,73.15,0.0,0.0,,,,,,1.0,,,,10.0,,KIGQ 181415Z AUTO 00000KT 10SM CLR 21/16 A3000 RMK AO2  T02100163,,,,,,60.77,,N,29.35,28.31,,Clear
KIGQ,09/18/2016 14:35 UTC,30.01,70.88,61.16,68.81,5.75,360.0,,,,,,1.0,,,,10.0,,KIGQ 181435Z AUTO 36005KT 10SM CLR 22/16 A3001 RMK AO2  T02160162,,,,,,60.08,,N,29.36,28.35,,Clear
KIGQ,09/18/2016 14:55 UTC,30.01,71.96,60.8,68.81,3.44,310.0,,,,,,1.0,,,,10.0,,KIGQ 181455Z AUTO 31003KT 10SM CLR 22/16 A3001 RMK AO2  T02220160,,,,,,61.11,,NW,29.36,28.28,,Clear
KIGQ,09/18/2016 15:15 UTC,30.01,72.86,60.26,64.76,4.61,340.0,,,,,,1.0,,,,10.0,,KIGQ 181515Z AUTO 34004KT 10SM CLR 23/16 A3001 RMK AO2  T02270157,,,,,,60.26,,NNW,29.36,28.32,,Clear
KIGQ,09/18/2016 15:35 UTC,30.01,73.04,60.44,64.72,0.0,0.0,,,,,,1.0,,,,10.0,,KIGQ 181535Z AUTO 00000KT 10SM CLR 23/16 A3001 RMK AO2  T02280158,,,,,,60.41,,N,29.36,28.31,,Clear
KIGQ,09/18/2016 15:55 UTC,30.01,73.58,59.72,60.75,3.44,250.0,,,,,,1.0,,,,10.0,,KIGQ 181555Z AUTO 25003KT 10SM CLR 23/15 A3001 RMK AO2  T02310154,,,,,,59.14,,WSW,29.36,28.37,,Clear
KIGQ,09/18/2016 16:15 UTC,30.01,75.02,60.08,60.98,6.91,260.0,,,,,,1.0,,,,10.0,,KIGQ 181615Z AUTO 26006KT 10SM CLR 24/16 A3001 RMK AO2  T02390156,,,,,,60.61,,W,29.36,28.27,,Clear
KIGQ,09/18/2016 16:35 UTC,30.01,75.02,60.08,60.98,6.91,310.0,,,,,,1.0,,,,10.0,,KIGQ 181635Z AUTO 31006KT 10SM CLR 24/16 A3001 RMK AO2  T02390156,,,,,,60.61,,NW,29.36,28.27,,Clear
KIGQ,09/18/2016 16:55 UTC,30.01,75.38,59.9,60.98,4.61,280.0,,,,,,1.0,,,,10.0,,KIGQ 181655Z AUTO 28004KT 10SM CLR 24/16 A3001 RMK AO2  T02410155,,,,,,60.95,,W,29.36,28.25,,Clear
KIGQ,09/18/2016 17:15 UTC,30.0,75.56,59.72,57.2,0.0,0.0,,,,,,1.0,,,,10.0,,KIGQ 181715Z AUTO 00000KT 10SM CLR 24/15 A3000 RMK AO2  T02420154,,,,,,59.32,,N,29.35,28.33,,Clear
KIGQ,09/18/2016 17:35 UTC,30.0,76.46,60.26,57.45,3.44,230.0,,,,,,462.0,,,,10.0,,KIGQ 181735Z AUTO 23003KT 10SM SCT046 25/16 A3000 RMK AO2  T02470157,,,,,,60.29,,SW,29.35,28.27,,Partly Cloudy
KIGQ,09/18/2016 17:55 UTC,30.0,76.28,59.0,53.88,4.61,330.0,,,,,,1.0,,,,10.0,,KIGQ 181755Z AUTO 33004KT 10SM CLR 25/15 A3000 RMK AO2 T02460150  10253 20136,77.54,56.48,,,,58.32,,NNW,29.35,28.38,,Clear
KIGQ,09/18/2016 18:15 UTC,29.99,77.0,58.46,53.88,4.61,330.0,,,,,,1.0,,,,10.0,,KIGQ 181815Z AUTO 33004KT 10SM CLR 25/15 A2999 RMK AO2  T02500147,,,,,,58.99,,NNW,29.34,28.32,,Clear
KIGQ,09/18/2016 18:35 UTC,29.98,77.9,58.82,50.78,3.44,350.0,,,,,,1.0,,,,10.0,,KIGQ 181835Z AUTO 35003KT 10SM CLR 26/15 A2998 RMK AO2  T02550149,,,,,,58.17,,N,29.33,28.35,,Clear
KIGQ,09/18/2016 18:55 UTC,29.98,78.8,56.84,47.61,4.61,250.0,,,,,,1.0,,,,10.0,,KIGQ 181855Z AUTO 25004KT 10SM CLR 26/14 A2998 RMK AO2  T02600138,,,,,,57.21,,WSW,29.33,28.39,,Clear
KIGQ,09/18/2016 19:15 UTC,29.97,78.62,56.12,44.61,0.0,0.0,,,,,,1.0,,,,10.0,,KIGQ 181915Z AUTO 00000KT 10SM CLR 26/13 A2997 RMK AO2  T02590134,,,,,,55.24,,N,29.32,28.48,,Clear
KIGQ,09/18/2016 19:35 UTC,29.96,79.16,55.94,44.61,0.0,0.0,,,,,,1.0,,,,10.0,,KIGQ 181935Z AUTO 00000KT 10SM CLR 26/13 A2996 RMK AO2  T02620133,,,,,,55.74,,N,29.31,28.44,,Clear
KIGQ,09/18/2016 19:55 UTC,29.96,78.98,56.48,47.61,0.0,0.0,,,,,,1.0,,,,10.0,,KIGQ 181955Z AUTO 00000KT 10SM CLR 26/14 A2996 RMK AO2  T02610136,,,,,,57.37,,N,29.31,28.36,,Clear
KIGQ,09/18/2016 20:15 UTC,29.96,79.7,57.74,44.89,3.44,260.0,,,,,,1.0,,,,10.0,,KIGQ 182015Z AUTO 26003KT 10SM CLR 27/14 A2996 RMK AO2  T02650143,,,,,,56.4,,W,29.31,28.41,,Clear
KIGQ,09/18/2016 20:35 UTC,29.96,79.52,56.66,47.61,4.61,260.0,,,,,,1.0,,,,10.0,,KIGQ 182035Z AUTO 26004KT 10SM CLR 26/14 A2996 RMK AO2  T02640137,,,,,,57.87,,W,29.31,28.33,,Clear
KIGQ,09/18/2016 20:55 UTC,29.95,79.34,56.84,47.61,0.0,0.0,,,,,,1.0,,,,10.0,,KIGQ 182055Z AUTO 00000KT 10SM CLR 26/14 A2995 RMK AO2  T02630138,,,,,,57.71,,N,29.3,28.33,,Clear
KIGQ,09/18/2016 21:15 UTC,29.95,79.16,60.62,54.14,0.0,0.0,,,,,,1.0,,,,10.0,,KIGQ 182115Z AUTO 00000KT 10SM CLR 26/16 A2995 RMK AO2  T02620159,,,,,,61.14,,N,29.3,28.14,,Clear
KIGQ,09/18/2016 21:35 UTC,29.95,78.8,60.62,54.14,0.0,0.0,,,,,,1.0,,,,10.0,,KIGQ 182135Z AUTO 00000KT 10SM CLR 26/16 A2995 RMK AO2  T02600159,,,,,,60.81,,N,29.3,28.16,,Clear
KIGQ,09/18/2016 21:55 UTC,29.95,77.36,62.6,61.21,3.44,90.0,,,,,,1.0,,,,10.0,,KIGQ 182155Z AUTO 09003KT 10SM CLR 25/17 A2995 RMK AO2  T02520170,,,,,,62.93,,E,29.3,28.05,,Clear
KIGQ,09/18/2016 22:15 UTC,29.95,77.18,62.96,61.21,0.0,0.0,,,,,,1.0,,,,10.0,,KIGQ 182215Z AUTO 00000KT 10SM CLR 25/17 A2995 RMK AO2  T02510172,,,,,,62.76,,N,29.3,28.06,,Clear
KIGQ,09/18/2016 22:35 UTC,29.95,76.28,63.14,61.21,4.61,30.0,,,,,,1.0,,,,10.0,,KIGQ 182235Z AUTO 03004KT 10SM CLR 25/17 A2995 RMK AO2  T02460173,,,,,,61.91,,NNE,29.3,28.12,,Clear
KIGQ,09/18/2016 22:55 UTC,29.96,75.38,63.68,69.21,4.61,50.0,,,,,,1.0,,,,10.0,,KIGQ 182255Z AUTO 05004KT 10SM CLR 24/18 A2996 RMK AO2  T02410176,,,,,,64.56,,NE,29.31,27.98,,Clear
KIGQ,09/18/2016 23:15 UTC,29.96,74.12,63.14,69.01,3.44,50.0,,,,,,1.0,,,,10.0,,KIGQ 182315Z AUTO 05003KT 10SM CLR 23/17 A2996 RMK AO2  T02340173,,,,,,63.27,,NE,29.31,28.08,,Clear
KIGQ,09/18/2016 23:35 UTC,29.96,73.04,63.14,69.01,4.61,40.0,,,,,,1.0,,,,10.0,,KIGQ 182335Z AUTO 04004KT 10SM CLR 23/17 A2996 RMK AO2  T02280173,,,,,,62.23,,NE,29.31,28.15,,Clear
KIGQ,09/18/2016 23:55 UTC,29.96,71.78,62.78,73.32,0.0,0.0,,,,,,1.0,,,,10.0,,KIGQ 182355Z AUTO 00000KT 10SM CLR 22/17 A2996 RMK AO2 T02210171  10266 20221,79.88,71.78,,,,62.75,,N,29.31,28.14,,Clear
KIGQ,09/19/2016 00:15 UTC,29.96,70.7,62.6,73.32,4.61,80.0,,,,,,1.0,,,,10.0,,KIGQ 190015Z AUTO 08004KT 10SM CLR 22/17 A2996 RMK AO2  T02150170,,,,,,61.7,,E,29.31,28.21,,Clear
KIGQ,09/19/2016 00:35 UTC,29.97,69.62,63.14,77.94,3.44,100.0,,,,,,1.0,,,,7.0,,KIGQ 190035Z AUTO 10003KT 7SM CLR 21/17 A2997 RMK AO2  T02090173,,,,,,62.4,,E,29.32,28.19,,Clear
KIGQ,09/19/2016 00:55 UTC,29.98,69.8,63.32,77.94,0.0,0.0,,,,,,1.0,,,,10.0,,KIGQ 190055Z AUTO 00000KT 10SM CLR 21/17 A2998 RMK AO2  T02100174,,,,,,62.57,,N,29.33,28.19,,Clear
KIGQ,09/19/2016 01:15 UTC,29.99,66.02,62.96,88.2,0.0,0.0,,,,,,1.0,,,,7.0,,KIGQ 190115Z AUTO 00000KT 7SM CLR 19/17 A2999 RMK AO2  T01890172,,,,,,62.4,,N,29.34,28.26,,Clear
KIGQ,09/19/2016 01:35 UTC,29.99,62.96,61.16,93.84,0.0,0.0,,,,,,1.0,,,,7.0,,KIGQ 190135Z AUTO 00000KT 7SM CLR 17/16 A2999 RMK AO2  T01720162,,,,,,61.14,,N,29.34,28.37,,Clear
KIGQ,09/19/2016 01:55 UTC,29.99,62.78,61.34,93.84,0.0,0.0,,,,,,1.0,,,,7.0,,KIGQ 190155Z AUTO 00000KT 7SM CLR 17/16 A2999 RMK AO2  T01710163,,,,,,60.96,,N,29.34,28.38,,Clear
KIGQ,09/19/2016 02:15 UTC,29.99,62.6,61.16,93.84,3.44,150.0,,,,,,1.0,,,,7.0,,KIGQ 190215Z AUTO 15003KT 7SM CLR 17/16 A2999 RMK AO2  T01700162,,,,,,60.79,,SSE,29.34,28.39,,Clear
KIGQ,09/19/2016 02:35 UTC,29.99,62.6,61.34,93.84,0.0,0.0,,,,,,1.0,,,,7.0,,KIGQ 190235Z AUTO 00000KT 7SM CLR 17/16 A2999 RMK AO2  T01700163,,,,,,60.79,,N,29.34,28.39,,Clear
KIGQ,09/19/2016 02:55 UTC,29.99,62.78,61.7,100.0,0.0,0.0,,,,,,1.0,,,,7.0,,KIGQ 190255Z AUTO 00000KT 7SM CLR 17/17 A2999 RMK AO2  T01710165,,,,,,62.78,,N,29.34,28.28,,Clear
KIGQ,09/19/2016 03:15 UTC,29.99,62.96,62.24,100.0,0.0,0.0,,,,,,1.0,,,,10.0,,KIGQ 190315Z AUTO 00000KT 10SM CLR 17/17 A2999 RMK AO2  T01720168,,,,,,62.96,,N,29.34,28.27,,Clear
KIGQ,09/19/2016 03:35 UTC,30.0,62.24,61.7,100.0,0.0,0.0,,,,,,1.0,,,,10.0,,KIGQ 190335Z AUTO 00000KT 10SM CLR 17/17 A3000 RMK AO2  T01680165,,,,,,62.24,,N,29.35,28.33,,Clear
KIGQ,09/19/2016 03:55 UTC,30.0,62.42,61.7,100.0,0.0,0.0,,,,,,1.0,,,,10.0,,KIGQ 190355Z AUTO 00000KT 10SM CLR 17/17 A3000 RMK AO2  T01690165,,,,,,62.42,,N,29.35,28.32,,Clear
KIGQ,09/19/2016 04:15 UTC,30.01,60.8,60.62,100.0,0.0,0.0,,,,,,1.0,,,,10.0,,KIGQ 190415Z AUTO 00000KT 10SM CLR 16/16 A3001 RMK AO2  T01600159,,,,,,60.8,,N,29.36,28.43,,Clear
KIGQ,09/19/2016 04:35 UTC,30.0,61.88,61.88,100.0,0.0,0.0,,,,,,1.0,,,,10.0,,KIGQ 190435Z AUTO 00000KT 10SM CLR 17/17 A3000 RMK AO2  T01660166,,,,,,61.88,,N,29.35,28.35,,Clear
KIGQ,09/19/2016 04:55 UTC,30.01,61.16,61.16,100.0,0.0,0.0,,,,,,1.0,,,,7.0,,KIGQ 190455Z AUTO 00000KT 7SM CLR 16/16 A3001 RMK AO2  T01620162,,,,,,61.16,,N,29.36,28.41,,Clear
KIGQ,09/19/2016 05:15 UTC,30.01,59.9,59.9,100.0,0.0,0.0,,31.0,,,,1.0,,,,5.0,,KIGQ 190515Z AUTO 00000KT 5SM BR CLR 16/16 A3001 RMK AO2  T01550155,,,,,,59.9,,N,29.36,28.49,,Mist
KIGQ,09/19/2016 05:35 UTC,30.0,60.8,60.8,100.0,0.0,0.0,,,,,,1.0,,,,10.0,,KIGQ 190535Z AUTO 00000KT 10SM CLR 16/16 A3000 RMK AO2  T01600160,,,,,,60.8,,N,29.35,28.42,,Clear
KIGQ,09/19/2016 05:55 UTC,30.0,60.44,60.44,100.0,0.0,0.0,,,,,,1.0,,,,7.0,,KIGQ 190555Z AUTO 00000KT 7SM CLR 16/16 A3000 RMK AO2 T01580158  10223 20154 402660136,72.14,59.72,,79.88,56.48,60.44,,N,29.35,28.45,,Clear
KIGQ,09/19/2016 06:15 UTC,30.0,60.44,60.44,100.0,0.0,0.0,,,,,,1.0,,,,7.0,,KIGQ 190615Z AUTO 00000KT 7SM CLR 16/16 A3000 RMK AO2  T01580158,,,,,,60.44,,N,29.35,28.45,,Clear
KIGQ,09/19/2016 06:35 UTC,30.01,58.82,58.82,100.0,0.0,0.0,,31.0,,,,1.0,,,,3.0,,KIGQ 190635Z AUTO 00000KT 3SM BR CLR 15/15 A3001 RMK AO2  T01490149,,,,,,58.82,,N,29.36,28.56,,Mist
KIGQ,09/19/2016 06:55 UTC,30.01,59.18,59.18,100.0,0.0,0.0,,,,,,1.0,,,,7.0,,KIGQ 190655Z AUTO 00000KT 7SM CLR 15/15 A3001 RMK AO2  T01510151,,,,,,59.18,,N,29.36,28.54,,Clear
KIGQ,09/19/2016 07:15 UTC,30.01,59.36,59.36,100.0,0.0,0.0,,31.0,,,,1.0,,,,5.0,,KIGQ 190715Z AUTO 00000KT 5SM BR CLR 15/15 A3001 RMK AO2  T01520152,,,,,,59.36,,N,29.36,28.52,,Mist
KIGQ,09/19/2016 07:35 UTC,30.01,60.08,60.08,100.0,0.0,0.0,,,,,,1.0,,,,7.0,,KIGQ 190735Z AUTO 00000KT 7SM CLR 16/16 A3001 RMK AO2  T01560156,,,,,,60.08,,N,29.36,28.48,,Clear
KIGQ,09/19/2016 07:55 UTC,30.01,56.48,56.48,100.0,0.0,0.0,,31.0,,,,55.0,,,,0.75,,KIGQ 190755Z AUTO 00000KT 3/4SM BR VV005 14/14 A3001 RMK AO2  T01360136,,,500.0,,,56.48,,N,29.36,28.69,,Mist
KIGQ,09/19/2016 08:15 UTC,30.01,55.22,55.22,100.0,0.0,0.0,,9.0,,,,24.0,,,,0.25,,KIGQ 190815Z AUTO 00000KT 1/4SM FG OVC002 13/13 A3001 RMK AO2  T01290129,,,200.0,,,55.22,,N,29.36,28.76,,Fog
KIGQ,09/19/2016 08:35 UTC,30.01,57.74,57.74,100.0,3.44,180.0,,31.0,,,,23.0,,,,1.5,,KIGQ 190835Z AUTO 18003KT 1 1/2SM BR BKN002 14/14 A3001 RMK AO2  VIS 1/2V5 T01430143,,,200.0,,,57.74,,S,29.36,28.62,,Mist
KIGQ,09/19/2016 08:55 UTC,30.01,58.1,58.1,100.0,0.0,0.0,,,,,,1.0,,,,10.0,,KIGQ 190855Z AUTO 00000KT 10SM CLR 15/15 A3001 RMK AO2  T01450145,,,,,,58.1,,N,29.36,28.6,,Clear
KIGQ,09/19/2016 09:15 UTC,30.02,57.92,57.92,100.0,0.0,0.0,,,,,,1.0,,,,10.0,,KIGQ 190915Z AUTO 00000KT 10SM CLR 14/14 A3002 RMK AO2  T01440144,,,,,,57.92,,N,29.37,28.62,,Clear
KIGQ,09/19/2016 09:35 UTC,30.02,57.38,57.38,100.0,3.44,210.0,,,,,,1.0,,,,10.0,,KIGQ 190935Z AUTO 21003KT 10SM CLR 14/14 A3002 RMK AO2  T01410141,,,,,,57.38,,SSW,29.37,28.65,,Clear
KIGQ,09/19/2016 09:55 UTC,30.02,56.12,56.12,100.0,3.44,190.0,,,,,,1.0,,,,10.0,,KIGQ 190955Z AUTO 19003KT 10SM CLR 13/13 A3002 RMK AO2  T01340134,,,,,,56.12,,S,29.37,28.72,,Clear
KIGQ,09/19/2016 10:15 UTC,30.03,55.58,55.58,100.0,0.0,0.0,,,,,,1.0,,,,10.0,,KIGQ 191015Z AUTO 00000KT 10SM CLR 13/13 A3003 RMK AO2  T01310131,,,,,,55.58,,N,29.38,28.76,,Clear
KIGQ,09/19/2016 10:35 UTC,30.03,56.84,56.3,100.0,3.44,180.0,,,,,,1.0,,,,10.0,,KIGQ 191035Z AUTO 18003KT 10SM CLR 14/14 A3003 RMK AO2  T01380135,,,,,,56.84,,S,29.38,28.69,,Clear
KIGQ,09/19/2016 10:55 UTC,30.03,56.48,55.58,93.7,0.0,0.0,,,,,,1.0,,,,10.0,,KIGQ 191055Z AUTO 00000KT 10SM CLR 14/13 A3003 RMK AO2  T01360131,,,,,,54.67,,N,29.38,28.79,,Clear
KIGQ,09/19/2016 11:15 UTC,30.04,56.66,56.12,93.7,0.0,0.0,,,,,,1.0,,,,10.0,,KIGQ 191115Z AUTO 00000KT 10SM CLR 14/13 A3004 RMK AO2  T01370134,,,,,,54.85,,N,29.39,28.79,,Clear
KIGQ,09/19/2016 11:35 UTC,30.04,55.76,55.76,100.0,0.0,0.0,,,,,,1.0,,,,10.0,,KIGQ 191135Z AUTO 00000KT 10SM CLR 13/13 A3004 RMK AO2  T01320132,,,,,,55.76,,N,29.39,28.76,,Clear
KIGQ,09/19/2016 11:55 UTC,30.05,56.3,55.94,93.7,0.0,0.0,,,,,,1.0,,,,10.0,,KIGQ 191155Z AUTO 00000KT 10SM CLR 14/13 A3005 RMK AO2 T01350133  10161 20128,60.98,55.04,,,,54.49,,N,29.4,28.82,,Clear
KIGQ,09/19/2016 12:15 UTC,30.05,57.2,56.66,100.0,0.0,0.0,,,,,,1.0,,,,10.0,,KIGQ 191215Z AUTO 00000KT 10SM CLR 14/14 A3005 RMK AO2  T01400137,,,,,,57.2,,N,29.4,28.69,,Clear
KIGQ,09/19/2016 12:35 UTC,30.05,59.72,57.74,93.75,3.44,180.0,,,,,,1.0,,,,10.0,,KIGQ 191235Z AUTO 18003KT 10SM CLR 15/14 A3005 RMK AO2  T01540143,,,,,,57.9,,S,29.4,28.63,,Clear
KIGQ,09/19/2016 12:55 UTC,30.05,62.78,59.9,93.84,3.44,190.0,,,,,,1.0,,,,10.0,,KIGQ 191255Z AUTO 19003KT 10SM CLR 17/16 A3005 RMK AO2  T01710155,,,,,,60.96,,S,29.4,28.44,,Clear
KIGQ,09/19/2016 13:15 UTC,30.05,65.12,60.98,88.11,3.44,180.0,,,,,,1.0,,,,10.0,,KIGQ 191315Z AUTO 18003KT 10SM CLR 18/16 A3005 RMK AO2  T01840161,,,,,,61.49,,S,29.4,28.38,,Clear
KIGQ,09/19/2016 13:35 UTC,30.05,66.92,61.52,82.77,4.61,190.0,,,,,,1.0,,,,10.0,,KIGQ 191335Z AUTO 19004KT 10SM CLR 19/16 A3005 RMK AO2  T01940164,,,,,,61.48,,S,29.4,28.36,,Clear
KIGQ,09/19/2016 13:55 UTC,30.05,68.9,62.6,77.94,5.75,180.0,,,,,,1.0,,,,10.0,,KIGQ 191355Z AUTO 18005KT 10SM CLR 21/17 A3005 RMK AO2  T02050170,,,,,,61.7,,S,29.4,28.32,,Clear
KIGQ,09/19/2016 14:15 UTC,30.06,70.88,62.6,73.32,5.75,190.0,,,,,,1.0,,,,10.0,,KIGQ 191415Z AUTO 19005KT 10SM CLR 22/17 A3006 RMK AO2  T02160170,,,,,,61.88,,S,29.41,28.3,,Clear
KIGQ,09/19/2016 14:35 UTC,30.06,72.32,62.78,73.32,6.91,190.0,,,,,,1.0,,,,10.0,,KIGQ 191435Z AUTO 19006KT 10SM CLR 22/17 A3006 RMK AO2  T02240171,,,,,,63.27,,S,29.41,28.2,,Clear
KIGQ,09/19/2016 14:55 UTC,30.07,73.58,62.24,69.01,8.05,190.0,,,,,,1.0,,,,10.0,,KIGQ 191455Z AUTO 19007KT 10SM CLR 23/17 A3007 RMK AO2  T02310168,,,,,,62.75,,S,29.42,28.23,,Clear
KIGQ,09/19/2016 15:15 UTC,30.07,74.66,62.6,64.98,8.05,190.0,,,,,,1.0,,,,10.0,,KIGQ 191515Z AUTO 19007KT 10SM CLR 24/17 A3007 RMK AO2  T02370170,,,,,,62.07,,S,29.42,28.26,,Clear
KIGQ,09/19/2016 15:35 UTC,30.07,76.1,62.24,62.27,6.91,190.0,,,,,,1.0,,,,10.0,,KIGQ 191535Z AUTO 19006KT 10SM CLR 25/17 A3007 RMK AO2  T02450168,,,,,,62.23,,S,29.42,28.23,,Clear
KIGQ,09/19/2016 15:55 UTC,30.06,77.18,62.06,61.21,8.05,190.0,,,,,,1.0,,,,10.0,,KIGQ 191555Z AUTO 19007KT 10SM CLR 25/17 A3006 RMK AO2  T02510167,,,,,,62.76,,S,29.41,28.18,,Clear
KIGQ,09/19/2016 16:15 UTC,30.06,78.44,62.06,57.69,10.36,190.0,,,,,,1.0,,,,10.0,,KIGQ 191615Z AUTO 19009KT 10SM CLR 26/17 A3006 RMK AO2  T02580167,,,,,,62.27,,S,29.41,28.19,,Clear
KIGQ,09/19/2016 16:35 UTC,30.06,79.7,62.42,54.4,6.91,190.0,,,,,,1.0,,,,10.0,,KIGQ 191635Z AUTO 19006KT 10SM CLR 27/17 A3006 RMK AO2  T02650169,,,,,,61.78,,S,29.41,28.21,,Clear
KIGQ,09/19/2016 16:55 UTC,30.06,81.68,60.8,48.15,10.36,210.0,,,,,,1.0,,,,10.0,,KIGQ 191655Z AUTO 21009KT 10SM CLR 28/16 A3006 RMK AO2  T02760160,,,,,,60.18,,SSW,29.41,28.29,82.17,Clear
KIGQ,09/19/2016 17:15 UTC,30.06,82.4,59.9,48.15,10.36,240.0,,,,,,1.0,,,,10.0,,KIGQ 191715Z AUTO 24009KT 10SM CLR 28/16 A3006 RMK AO2  T02800155,,,,,,60.84,,WSW,29.41,28.24,82.92,Clear
KIGQ,09/19/2016 17:35 UTC,30.05,83.3,58.64,42.63,11.5,240.0,,,,,,1.0,,,,10.0,,KIGQ 191735Z AUTO 24010KT 10SM CLR 29/15 A3005 RMK AO2  T02850148,,,,,,58.25,,WSW,29.4,28.37,83.0,Clear
KIGQ,09/19/2016 17:55 UTC,30.05,85.1,59.54,40.24,10.36,240.0,16.11,,,,,1.0,,,,10.0,,KIGQ 191755Z AUTO 24009G14KT 10SM CLR 30/15 A3005 RMK AO2  T02950153 10295 20135,85.1,56.3,,,,58.28,,WSW,29.4,28.35,84.48,Clear
KIGQ,09/19/2016 18:15 UTC,30.04,84.92,58.64,42.63,14.97,210.0,,,,,,1.0,,,,10.0,,KIGQ 191815Z AUTO 21013KT 10SM CLR 29/15 A3004 RMK AO2  T02940148,,,,,,59.72,,SSW,29.39,28.26,84.73,Clear
KIGQ,09/19/2016 18:35 UTC,30.04,85.1,59.0,40.24,13.8,200.0,18.41,,,,,1.0,,,,10.0,,KIGQ 191835Z AUTO 20012G16KT 10SM CLR 30/15 A3004 RMK AO2  T02950150,,,,,,58.28,,SSW,29.39,28.34,84.48,Clear
KIGQ,09/19/2016 18:55 UTC,30.03,85.46,58.82,40.24,13.8,230.0,17.27,,,,,1.0,,,,10.0,,KIGQ 191855Z AUTO 23012G15KT 10SM CLR 30/15 A3003 RMK AO2  T02970149,,,,,,58.6,,SW,29.38,28.31,84.88,Clear
KIGQ,09/19/2016 19:15 UTC,30.02,86.18,57.74,37.73,14.97,210.0,20.71,,,,,1.0,,,,10.0,,KIGQ 191915Z AUTO 21013G18KT 10SM CLR 30/14 A3002 RMK AO2  T03010143,,,,,,57.46,,SSW,29.37,28.36,85.19,Clear
KIGQ,09/19/2016 19:35 UTC,30.01,86.72,58.46,40.24,12.66,220.0,18.41,,,,,1.0,,,,10.0,,KIGQ 191935Z AUTO 22011G16KT 10SM CLR 30/15 A3001 RMK AO2  T03040147,,,,,,59.74,,SW,29.36,28.22,86.35,Clear
KIGQ,09/19/2016 19:55 UTC,30.0,86.9,58.46,38.01,14.97,210.0,,,,,,1.0,,,,10.0,,KIGQ 191955Z AUTO 21013KT 10SM CLR 31/15 A3000 RMK AO2  T03050147,,,,,,58.31,,SSW,29.35,28.29,86.06,Clear
KIGQ,09/19/2016 20:15 UTC,29.99,86.54,57.56,37.73,13.8,200.0,20.71,,,,,1.0,,,,10.0,,KIGQ 192015Z AUTO 20012G18KT 10SM CLR 30/14 A2999 RMK AO2  T03030142,,,,,,57.78,,SSW,29.34,28.31,85.59,Clear
KIGQ,09/19/2016 20:35 UTC,29.99,86.9,58.1,38.01,16.11,200.0,21.85,,,,,1.0,,,,10.0,,KIGQ 192035Z AUTO 20014G19KT 10SM CLR 31/15 A2999 RMK AO2  T03050145,,,,,,58.31,,SSW,29.34,28.28,86.06,Clear
KIGQ,09/19/2016 20:55 UTC,29.99,87.08,56.84,35.64,12.66,210.0,20.71,,,,,1.0,,,,10.0,,KIGQ 192055Z AUTO 21011G18KT 10SM CLR 31/14 A2999 RMK AO2  T03060138,,,,,,56.69,,SSW,29.34,28.37,85.78,Clear
KIGQ,09/19/2016 21:15 UTC,29.98,86.9,56.66,35.64,12.66,230.0,18.41,,,,,1.0,,,,10.0,,KIGQ 192115Z AUTO 23011G16KT 10SM CLR 31/14 A2998 RMK AO2  T03050137,,,,,,56.53,,SW,29.33,28.36,85.58,Clear
KIGQ,09/19/2016 21:35 UTC,29.99,86.54,55.94,35.35,11.5,210.0,,,,,,1.0,,,,10.0,,KIGQ 192135Z AUTO 21010KT 10SM CLR 30/13 A2999 RMK AO2  T03030133,,,,,,55.98,,SSW,29.34,28.41,85.13,Clear
KIGQ,09/19/2016 21:55 UTC,29.99,86.0,56.12,35.35,12.66,220.0,,,,,,1.0,,,,10.0,,KIGQ 192155Z AUTO 22011KT 10SM CLR 30/13 A2999 RMK AO2  T03000134,,,,,,55.5,,SW,29.34,28.43,84.56,Clear
KIGQ,09/19/2016 22:15 UTC,29.99,85.46,55.58,35.35,10.36,220.0,,,,,,1.0,,,,10.0,,KIGQ 192215Z AUTO 22009KT 10SM CLR 30/13 A2999 RMK AO2  T02970131,,,,,,55.02,,SW,29.34,28.46,84.01,Clear
KIGQ,09/19/2016 22:35 UTC,29.98,84.38,55.94,37.44,10.36,200.0,,,,,,1.0,,,,10.0,,KIGQ 192235Z AUTO 20009KT 10SM CLR 29/13 A2998 RMK AO2 LTG DSNT N  T02910133,,,,,,55.63,,SSW,29.33,28.43,83.27,Clear
KIGQ,09/19/2016 22:55 UTC,29.98,82.22,58.64,45.17,8.05,190.0,,,,,,1.0,,,,10.0,,KIGQ 192255Z AUTO 19007KT 10SM CLR 28/15 A2998 RMK AO2  T02790148,,,,,,58.88,,S,29.33,28.27,82.3,Clear
KIGQ,09/19/2016 23:15 UTC,29.99,80.78,59.0,47.88,5.75,190.0,,,,,,1.0,,,,10.0,,KIGQ 192315Z AUTO 19005KT 10SM CLR 27/15 A2999 RMK AO2  T02710150,,,,,,59.19,,S,29.34,28.28,81.28,Clear
KIGQ,09/19/2016 23:35 UTC,29.99,76.46,60.26,57.45,5.75,190.0,,,,,,1.0,,,,10.0,,KIGQ 192335Z AUTO 19005KT 10SM CLR 25/16 A2999 RMK AO2  T02470157,,,,,,60.29,,S,29.34,28.26,,Clear
KIGQ,09/19/2016 23:55 UTC,30.0,75.92,59.0,57.2,4.61,170.0,,,,,,1.0,,,,10.0,,KIGQ 192355Z AUTO 17004KT 10SM CLR 24/15 A3000 RMK AO2 T02440150  10306 20244,87.08,75.92,,,,59.66,,S,29.35,28.31,,Clear
KIGQ,09/20/2016 00:15 UTC,30.01,74.66,,55.67,0.0,0.0,,,,,,1.0,,,,10.0,,,,,,,,57.72,,N,29.36,28.44,,Clear
KIGQ,09/20/2016 00:35 UTC,30.01,73.4,,60.75,8.05,190.0,,,,,,1.0,,,,10.0,,,,,,,,58.97,,S,29.36,28.38,,Clear
KIGQ,09/20/2016 00:55 UTC,30.01,69.08,,67.21,6.91,180.0,,,,,,1.0,,,,10.0,,,,,,,,57.69,,S,29.36,28.49,,Clear
KIGQ,09/20/2016 01:15 UTC,30.01,68.18,,69.77,5.75,170.0,,,,,,1.0,,,,10.0,,,,,,,,57.88,,S,29.36,28.49,,Clear
KIGQ,09/20/2016 01:35 UTC,30.03,67.46,,70.14,3.44,160.0,,,,,,1.0,,,,10.0,,,,,,,,57.33,,SSE,29.38,28.55,,Clear
KIGQ,09/20/2016 01:55 UTC,30.05,67.28,,70.58,0.0,0.0,,,,,,1.0,,,,10.0,,,,,,,,57.33,,N,29.4,28.57,,Clear
KIGQ,09/20/2016 02:15 UTC,30.06,69.98,,64.34,0.0,0.0,,,,,,1.0,,,,10.0,,,,,,,,57.33,,N,29.41,28.55,,Clear
KIGQ,09/20/2016 02:35 UTC,30.03,65.12,,76.05,9.22,180.0,,,,,,1.0,,,,10.0,,,,,,,,57.33,,S,29.38,28.57,,Clear
KIGQ,09/20/2016 02:55 UTC,30.04,66.38,,74.71,5.75,190.0,,,,,,1.0,,,,10.0,,,,,,,,58.06,,S,29.39,28.53,,Clear
KIGQ,09/20/2016 03:15 UTC,30.05,63.5,57.38,77.48,5.75,190.0,,,,,,1.0,,,,10.0,,KIGQ 200315Z AUTO 19005KT 10SM CLR 18/14 A3005 RMK AO2  T01750141,,,,,,56.28,,S,29.4,28.66,,Clear
KIGQ,09/20/2016 03:35 UTC,30.07,66.92,58.28,77.64,6.91,200.0,,,,,,1.0,,,,10.0,,KIGQ 200335Z AUTO 20006KT 10SM CLR 19/15 A3007 RMK AO2  T01940146,,,,,,59.66,,SSW,29.42,28.48,,Clear
KIGQ,09/20/2016 03:55 UTC,30.07,66.38,58.28,77.64,5.75,200.0,,,,,,1.0,,,,10.0,,KIGQ 200355Z AUTO 20005KT 10SM CLR 19/15 A3007 RMK AO2  T01910146,,,,,,59.14,,SSW,29.42,28.51,,Clear
KIGQ,09/20/2016 04:15 UTC,30.06,65.66,58.64,77.64,6.91,200.0,,,,,,1.0,,,,10.0,,KIGQ 200415Z AUTO 20006KT 10SM CLR 19/15 A3006 RMK AO2  T01870148,,,,,,58.44,,SSW,29.41,28.54,,Clear
KIGQ,09/20/2016 04:35 UTC,30.06,67.1,59.0,72.97,6.91,210.0,,,,,,1.0,,,,10.0,,KIGQ 200435Z AUTO 21006KT 10SM CLR 20/15 A3006 RMK AO2  T01950150,,,,,,58.09,,SSW,29.41,28.55,,Clear
KIGQ,09/20/2016 04:55 UTC,30.07,68.18,59.36,72.97,6.91,210.0,,,,,,1003.0,,,,10.0,,KIGQ 200455Z AUTO 21006KT 10SM BKN100 20/15 A3007 RMK AO2  T02010152,,,10000.0,,,59.14,,SSW,29.42,28.49,,Mostly Cloudy
KIGQ,09/20/2016 05:15 UTC,30.07,68.0,59.54,72.97,8.05,210.0,,,,,,1003.0,,,,10.0,,KIGQ 200515Z AUTO 21007KT 10SM BKN100 20/15 A3007 RMK AO2  T02000153,,,10000.0,,,58.96,,SSW,29.42,28.5,,Mostly Cloudy
KIGQ,09/20/2016 05:35 UTC,30.08,68.18,59.9,77.79,4.61,200.0,,,,,,1003.0,,,,10.0,,KIGQ 200535Z AUTO 20004KT 10SM BKN100 20/16 A3008 RMK AO2  T02010155,,,10000.0,,,60.94,,SSW,29.43,28.4,,Mostly Cloudy
KIGQ,09/20/2016 05:55 UTC,30.08,68.18,60.08,77.79,8.05,210.0,,,,,,1003.0,,,,10.0,,KIGQ 200555Z AUTO 21007KT 10SM BKN100 20/16 A3008 RMK AO2  T02010156 10242 20175 403060128,75.56,63.5,10000.0,87.08,55.04,60.94,,SSW,29.43,28.4,,Mostly Cloudy
KIGQ,09/20/2016 06:15 UTC,30.08,68.0,60.26,77.79,5.75,220.0,,,,,,1103.0,,,,10.0,,KIGQ 200615Z AUTO 22005KT 10SM BKN110 20/16 A3008 RMK AO2 LTG DSNT  NW T02000157,,,11000.0,,,60.77,,SW,29.43,28.42,,Mostly Cloudy
KIGQ,09/20/2016 06:35 UTC,30.08,67.28,60.26,77.79,0.0,0.0,,,,,,1103.0,,,,10.0,,KIGQ 200635Z AUTO 00000KT 10SM BKN110 20/16 A3008 RMK AO2 LTG DSNT  W T01960157,,,11000.0,,,60.07,,N,29.43,28.46,,Mostly Cloudy
KIGQ,09/20/2016 06:55 UTC,30.09,67.64,60.26,77.79,0.0,0.0,,,,,,1102.0,,,,10.0,,KIGQ 200655Z AUTO 00000KT 10SM SCT110 20/16 A3009 RMK AO2 LTG DSNT  W T01980157,,,,,,60.42,,N,29.44,28.45,,Partly Cloudy
KIGQ,09/20/2016 07:15 UTC,30.1,67.82,60.8,77.79,0.0,0.0,,,,,,1.0,,,,10.0,,KIGQ 200715Z AUTO 00000KT 10SM CLR 20/16 A3010 RMK AO2  T01990160,,,,,,60.59,,N,29.45,28.45,,Clear
KIGQ,09/20/2016 07:35 UTC,30.1,68.0,60.8,77.79,3.44,240.0,,,,,,1.0,,,,10.0,,KIGQ 200735Z AUTO 24003KT 10SM CLR 20/16 A3010 RMK AO2  T02000160,,,,,,60.77,,WSW,29.45,28.44,,Clear
KIGQ,09/20/2016 07:55 UTC,30.1,66.38,61.16,82.77,0.0,0.0,,,,,,1.0,,,,10.0,,KIGQ 200755Z AUTO 00000KT 10SM CLR 19/16 A3010 RMK AO2  T01910162,,,,,,60.95,,N,29.45,28.45,,Clear
KIGQ,09/20/2016 08:15 UTC,30.09,64.58,60.98,88.11,0.0,0.0,,,,,,1.0,,,,10.0,,KIGQ 200815Z AUTO 00000KT 10SM CLR 18/16 A3009 RMK AO2  T01810161,,,,,,60.95,,N,29.44,28.46,,Clear
KIGQ,09/20/2016 08:35 UTC,30.1,66.56,61.34,82.77,0.0,0.0,,,,,,1.0,,,,10.0,,KIGQ 200835Z AUTO 00000KT 10SM CLR 19/16 A3010 RMK AO2  T01920163,,,,,,61.12,,N,29.45,28.43,,Clear
KIGQ,09/20/2016 08:55 UTC,30.09,63.86,60.98,88.11,3.44,180.0,,,,,,1002.0,,,,10.0,,KIGQ 200855Z AUTO 18003KT 10SM SCT100 18/16 A3009 RMK AO2  T01770161,,,,,,60.25,,S,29.44,28.5,,Partly Cloudy
KIGQ,09/20/2016 09:15 UTC,30.1,64.4,62.06,93.89,4.61,170.0,,,,,,1003.0,,,,10.0,,KIGQ 200915Z AUTO 17004KT 10SM BKN100 18/17 A3010 RMK AO2  T01800167,,,10000.0,,,62.59,,S,29.45,28.38,,Mostly Cloudy
KIGQ,09/20/2016 09:35 UTC,30.1,65.66,62.6,88.2,6.91,180.0,,,,,,1004.0,,,,10.0,,KIGQ 200935Z AUTO 18006KT 10SM OVC100 19/17 A3010 RMK AO2  T01870170,,,10000.0,,,62.05,,S,29.45,28.39,,Overcast
KIGQ,09/20/2016 09:55 UTC,30.1,65.84,62.6,88.2,0.0,0.0,,,,,,1004.0,,,,10.0,,KIGQ 200955Z AUTO 00000KT 10SM OVC100 19/17 A3010 RMK AO2  T01880170,,,10000.0,,,62.23,,N,29.45,28.38,,Overcast
KIGQ,09/20/2016 10:15 UTC,30.11,65.48,62.6,88.2,0.0,0.0,,,,,,1004.0,,,,10.0,,KIGQ 201015Z AUTO 00000KT 10SM OVC100 19/17 A3011 RMK AO2  T01860170,,,10000.0,,,61.87,,N,29.46,28.42,,Overcast
KIGQ,09/20/2016 10:35 UTC,30.11,65.3,62.24,88.2,0.0,0.0,,,,,,432.0,1002.0,,,10.0,,KIGQ 201035Z AUTO 00000KT 10SM SCT043 SCT100 19/17 A3011 RMK AO2  T01850168,,,,,,61.69,,N,29.46,28.43,,Partly Cloudy
KIGQ,09/20/2016 10:55 UTC,30.12,66.2,62.6,88.2,0.0,0.0,,,,,,432.0,503.0,,,10.0,,KIGQ 201055Z AUTO 00000KT 10SM SCT043 BKN050 19/17 A3012 RMK AO2  T01900170,,,5000.0,,,62.58,,N,29.47,28.38,,Mostly Cloudy
KIGQ,09/20/2016 11:15 UTC,30.13,65.84,62.78,88.2,0.0,0.0,,,,,,433.0,504.0,,,10.0,,KIGQ 201115Z AUTO 00000KT 10SM BKN043 OVC050 19/17 A3013 RMK AO2  T01880171,,,4300.0,,,62.23,,N,29.47,28.4,,Overcast
KIGQ,09/20/2016 11:35 UTC,30.14,65.84,62.78,88.2,3.44,190.0,,,,,,432.0,504.0,,,10.0,,KIGQ 201135Z AUTO 19003KT 10SM SCT043 OVC050 19/17 A3014 RMK AO2  T01880171,,,5000.0,,,62.23,,S,29.48,28.41,,Overcast
KIGQ,09/20/2016 11:55 UTC,30.15,65.84,62.96,88.2,0.0,0.0,,,,,,463.0,504.0,,,10.0,,KIGQ 201155Z AUTO 00000KT 10SM BKN046 OVC050 19/17 A3015 RMK AO2  T01880172 10202 20175,68.36,63.5,4600.0,,,62.23,,N,29.49,28.42,,Overcast
KIGQ,09/20/2016 12:15 UTC,30.16,66.2,63.5,93.94,0.0,0.0,,,,,,83.0,464.0,,,10.0,,KIGQ 201215Z AUTO 00000KT 10SM BKN008 OVC046 19/18 A3016 RMK AO2  T01900175,,,800.0,,,64.39,,N,29.5,28.3,,Overcast
KIGQ,09/20/2016 12:35 UTC,30.16,67.46,63.68,88.29,3.44,300.0,,,,,,83.0,464.0,,,10.0,,KIGQ 201235Z AUTO 30003KT 10SM BKN008 OVC046 20/18 A3016 RMK AO2  T01970176,,,800.0,,,63.85,,WNW,29.5,28.32,,Overcast
KIGQ,09/20/2016 12:55 UTC,30.16,69.8,66.38,88.37,6.91,40.0,,,,,,102.0,1003.0,,,10.0,,KIGQ 201255Z AUTO 04006KT 10SM SCT010 BKN100 21/19 A3016 RMK AO2  T02100191,,,10000.0,,,66.19,,NE,29.5,28.14,,Mostly Cloudy
KIGQ,09/20/2016 13:15 UTC,30.16,72.32,68.0,88.46,10.36,40.0,,,,,,903.0,,,,10.0,,KIGQ 201315Z AUTO 04009KT 10SM BKN090 22/20 A3016 RMK AO2  T02240200,,,9000.0,,,68.7,,NE,29.5,27.94,,Mostly Cloudy
KIGQ,09/20/2016 13:35 UTC,30.16,71.6,67.1,88.46,8.05,40.0,16.11,,,,,903.0,,,,10.0,,KIGQ 201335Z AUTO 04007G14KT 10SM BKN090 22/20 A3016 RMK AO2  T02200195,,,9000.0,,,67.99,,NE,29.5,28.0,,Mostly Cloudy
KIGQ,09/20/2016 13:55 UTC,30.16,72.32,67.64,88.46,10.36,50.0,,,,,,903.0,,,,10.0,,KIGQ 201355Z AUTO 05009KT 10SM BKN090 22/20 A3016 RMK AO2  T02240198,,,9000.0,,,68.7,,NE,29.5,27.94,,Mostly Cloudy
KIGQ,09/20/2016 14:15 UTC,30.17,74.12,68.36,83.25,11.5,40.0,,,,,,903.0,,,,10.0,,KIGQ 201415Z AUTO 04010KT 10SM BKN090 23/20 A3017 RMK AO2  T02340202,,,9000.0,,,68.69,,NE,29.51,27.92,,Mostly Cloudy
KIGQ,09/20/2016 14:35 UTC,30.17,74.48,67.1,78.39,10.36,50.0,,,,,,902.0,,,,10.0,,KIGQ 201435Z AUTO 05009KT 10SM SCT090 24/20 A3017 RMK AO2  T02360195,,,,,,67.29,,NE,29.51,28.02,,Partly Cloudy
KIGQ,09/20/2016 14:55 UTC,30.17,75.2,68.0,78.39,12.66,40.0,,,,,,902.0,,,,10.0,,KIGQ 201455Z AUTO 04011KT 10SM SCT090 24/20 A3017 RMK AO2  T02400200,,,,,,67.99,,NE,29.51,27.96,,Partly Cloudy
KIGQ,09/20/2016 15:15 UTC,30.17,76.46,66.38,69.4,11.5,50.0,17.27,,,,,1.0,,,,10.0,,KIGQ 201515Z AUTO 05010G15KT 10SM CLR 25/19 A3017 RMK AO2  T02470191,,,,,,65.68,,NE,29.51,28.1,,Clear
KIGQ,09/20/2016 15:35 UTC,30.18,76.46,67.1,73.85,9.22,50.0,,,,,,1.0,,,,10.0,,KIGQ 201535Z AUTO 05008KT 10SM CLR 25/20 A3018 RMK AO2  T02470195,,,,,,67.48,,NE,29.52,27.99,,Clear
KIGQ,09/20/2016 15:55 UTC,30.18,76.82,67.46,73.85,10.36,70.0,,,,,,222.0,,,,10.0,,KIGQ 201555Z AUTO 07009KT 10SM SCT022 25/20 A3018 RMK AO2  T02490197,,,,,,67.82,,ENE,29.52,27.96,,Partly Cloudy
KIGQ,09/20/2016 16:15 UTC,30.19,77.36,66.92,69.4,6.91,60.0,,,,,,222.0,,,,10.0,,KIGQ 201615Z AUTO 06006KT 10SM SCT022 25/19 A3019 RMK AO2  T02520194,,,,,,66.54,,ENE,29.53,28.05,,Partly Cloudy
KIGQ,09/20/2016 16:35 UTC,30.18,77.36,66.02,69.4,8.05,40.0,,,,,,1.0,,,,10.0,,KIGQ 201635Z AUTO 04007KT 10SM CLR 25/19 A3018 RMK AO2  T02520189,,,,,,66.54,,NE,29.52,28.04,,Clear
KIGQ,09/20/2016 16:55 UTC,30.18,78.08,64.94,61.44,9.22,40.0,,,,,,1.0,,,,10.0,,KIGQ 201655Z AUTO 04008KT 10SM CLR 26/18 A3018 RMK AO2  T02560183,,,,,,63.72,,NE,29.52,28.22,,Clear
KIGQ,09/20/2016 17:15 UTC,30.18,79.7,64.94,57.94,9.22,40.0,,,,,,1.0,,,,10.0,,KIGQ 201715Z AUTO 04008KT 10SM CLR 27/18 A3018 RMK AO2  T02650183,,,,,,63.57,,NE,29.52,28.21,,Clear
KIGQ,09/20/2016 17:35 UTC,30.17,80.06,63.32,54.4,6.91,50.0,,,,,,1.0,,,,10.0,,KIGQ 201735Z AUTO 05006KT 10SM CLR 27/17 A3017 RMK AO2  T02670174,,,,,,62.12,,NE,29.51,28.29,81.29,Clear
KIGQ,09/20/2016 17:55 UTC,30.17,80.24,62.78,54.4,8.05,50.0,,,,,,1.0,,,,10.0,,KIGQ 201755Z AUTO 05007KT 10SM CLR 27/17 A3017 RMK AO2 T02680171  10271 20187,80.78,65.66,,,,62.29,,NE,29.51,28.28,81.47,Clear
KIGQ,09/20/2016 18:15 UTC,30.16,81.14,61.52,51.05,5.75,70.0,,,,,,1.0,,,,10.0,,KIGQ 201815Z AUTO 07005KT 10SM CLR 27/16 A3016 RMK AO2  T02730164,,,,,,61.32,,ENE,29.5,28.31,82.01,Clear
KIGQ,09/20/2016 18:35 UTC,30.16,81.32,57.38,44.89,11.5,40.0,,,,,,1.0,,,,10.0,,KIGQ 201835Z AUTO 04010KT 10SM CLR 27/14 A3016 RMK AO2  T02740141,,,,,,57.88,,NE,29.5,28.51,81.43,Clear
KIGQ,09/20/2016 18:55 UTC,30.16,81.5,56.48,42.34,10.36,40.0,,,,,,1.0,,,,10.0,,KIGQ 201855Z AUTO 04009KT 10SM CLR 28/14 A3016 RMK AO2  T02750136,,,,,,56.43,,NE,29.5,28.58,81.3,Clear
KIGQ,09/20/2016 19:15 UTC,30.15,81.68,55.4,39.68,9.22,70.0,,,,,,1.0,,,,10.0,,KIGQ 201915Z AUTO 07008KT 10SM CLR 28/13 A3015 RMK AO2  T02760130,,,,,,54.8,,ENE,29.49,28.65,81.15,Clear
KIGQ,09/20/2016 19:35 UTC,30.15,82.22,56.66,42.34,10.36,40.0,,,,,,1.0,,,,10.0,,KIGQ 201935Z AUTO 04009KT 10SM CLR 28/14 A3015 RMK AO2  T02790137,,,,,,57.08,,NE,29.49,28.53,81.93,Clear
KIGQ,09/20/2016 19:55 UTC,30.15,81.5,55.76,39.68,9.22,40.0,16.11,,,,,1.0,,,,10.0,,KIGQ 201955Z AUTO 04008G14KT 10SM CLR 28/13 A3015 RMK AO2  T02750132,,,,,,54.64,,NE,29.49,28.66,81.01,Clear
KIGQ,09/20/2016 20:15 UTC,30.14,82.04,55.94,39.68,9.22,50.0,,,,,,1.0,,,,10.0,,KIGQ 202015Z AUTO 05008KT 10SM CLR 28/13 A3014 RMK AO2  T02780133,,,,,,55.13,,NE,29.48,28.63,81.45,Clear
KIGQ,09/20/2016 20:35 UTC,30.14,81.68,56.12,39.68,9.22,40.0,,,,,,1.0,,,,10.0,,KIGQ 202035Z AUTO 04008KT 10SM CLR 28/13 A3014 RMK AO2  T02760134,,,,,,54.8,,NE,29.48,28.64,81.15,Clear
KIGQ,09/20/2016 20:55 UTC,30.14,81.5,57.02,42.34,8.05,40.0,,,,,,1.0,,,,10.0,,KIGQ 202055Z AUTO 04007KT 10SM CLR 28/14 A3014 RMK AO2  T02750139,,,,,,56.43,,NE,29.48,28.56,81.3,Clear
KIGQ,09/20/2016 21:15 UTC,30.14,80.96,57.02,44.89,9.22,40.0,,,,,,1.0,,,,10.0,,KIGQ 202115Z AUTO 04008KT 10SM CLR 27/14 A3014 RMK AO2  T02720139,,,,,,57.56,,NE,29.48,28.51,81.12,Clear
KIGQ,09/20/2016 21:35 UTC,30.14,80.6,57.02,44.89,9.22,50.0,,,,,,1.0,,,,10.0,,KIGQ 202135Z AUTO 05008KT 10SM CLR 27/14 A3014 RMK AO2  T02700139,,,,,,57.23,,NE,29.48,28.53,80.82,Clear
KIGQ,09/20/2016 21:55 UTC,30.15,79.7,55.76,42.06,9.22,50.0,,,,,,1.0,,,,10.0,,KIGQ 202155Z AUTO 05008KT 10SM CLR 27/13 A3015 RMK AO2  T02650132,,,,,,54.61,,NE,29.49,28.68,,Clear
KIGQ,09/20/2016 22:15 UTC,30.14,78.8,54.5,44.61,8.05,50.0,,,,,,1.0,,,,10.0,,KIGQ 202215Z AUTO 05007KT 10SM CLR 26/13 A3014 RMK AO2  T02600125,,,,,,55.41,,NE,29.48,28.64,,Clear
KIGQ,09/20/2016 22:35 UTC,30.15,77.9,55.22,44.61,5.75,50.0,,,,,,1.0,,,,10.0,,KIGQ 202235Z AUTO 05005KT 10SM CLR 26/13 A3015 RMK AO2  T02550129,,,,,,54.59,,NE,29.49,28.69,,Clear
KIGQ,09/20/2016 22:55 UTC,30.15,77.0,57.2,50.52,8.05,50.0,,,,,,1.0,,,,10.0,,KIGQ 202255Z AUTO 05007KT 10SM CLR 25/14 A3015 RMK AO2  T02500140,,,,,,57.19,,NE,29.49,28.57,,Clear
KIGQ,09/20/2016 23:15 UTC,30.15,75.56,57.2,53.62,6.91,30.0,,,,,,1.0,,,,10.0,,KIGQ 202315Z AUTO 03006KT 10SM CLR 24/14 A3015 RMK AO2  T02420140,,,,,,57.51,,NNE,29.49,28.57,,Clear
KIGQ,09/20/2016 23:35 UTC,30.15,74.66,56.3,53.62,8.05,40.0,,,,,,1.0,,,,10.0,,KIGQ 202335Z AUTO 04007KT 10SM CLR 24/14 A3015 RMK AO2  T02370135,,,,,,56.67,,NE,29.49,28.62,,Clear
KIGQ,09/20/2016 23:55 UTC,30.15,73.04,59.18,60.75,6.91,40.0,,,,,,1.0,,,,10.0,,KIGQ 202355Z AUTO 04006KT 10SM CLR 23/15 A3015 RMK AO2 T02280151  10281 20228,82.58,73.04,,,,58.63,,NE,29.49,28.54,,Clear
KIGQ,09/21/2016 00:15 UTC,30.15,72.5,60.08,64.76,4.61,50.0,,,,,,1.0,,,,10.0,,KIGQ 210015Z AUTO 05004KT 10SM CLR 23/16 A3015 RMK AO2  T02250156,,,,,,59.92,,NE,29.49,28.47,,Clear
KIGQ,09/21/2016 00:35 UTC,30.15,71.6,60.98,68.81,4.61,70.0,,,,,,1.0,,,,10.0,,KIGQ 210035Z AUTO 07004KT 10SM CLR 22/16 A3015 RMK AO2  T02200161,,,,,,60.77,,ENE,29.49,28.44,,Clear
KIGQ,09/21/2016 00:55 UTC,30.14,70.16,61.88,77.94,3.44,70.0,,,,,,1.0,,,,10.0,,KIGQ 210055Z AUTO 07003KT 10SM CLR 21/17 A3014 RMK AO2  T02120166,,,,,,62.92,,ENE,29.48,28.32,,Clear
KIGQ,09/21/2016 01:15 UTC,30.13,69.44,62.06,77.94,3.44,100.0,,,,,,1.0,,,,10.0,,KIGQ 210115Z AUTO 10003KT 10SM CLR 21/17 A3013 RMK AO2  T02080167,,,,,,62.22,,E,29.47,28.36,,Clear
KIGQ,09/21/2016 01:35 UTC,30.13,69.62,60.98,73.15,4.61,100.0,,,,,,1.0,,,,10.0,,KIGQ 210135Z AUTO 10004KT 10SM CLR 21/16 A3013 RMK AO2  T02090161,,,,,,60.6,,E,29.47,28.45,,Clear
KIGQ,09/21/2016 01:55 UTC,30.14,69.26,60.98,73.15,0.0,0.0,,,,,,1.0,,,,10.0,,KIGQ 210155Z AUTO 00000KT 10SM CLR 21/16 A3014 RMK AO2  T02070161,,,,,,60.25,,N,29.48,28.48,,Clear
KIGQ,09/21/2016 02:15 UTC,30.14,69.26,61.34,73.15,0.0,0.0,,,,,,1.0,,,,10.0,,KIGQ 210215Z AUTO 00000KT 10SM CLR 21/16 A3014 RMK AO2  T02070163,,,,,,60.25,,N,29.48,28.48,,Clear
KIGQ,09/21/2016 02:35 UTC,30.14,68.36,61.7,82.89,0.0,0.0,,,,,,1.0,,,,10.0,,KIGQ 210235Z AUTO 00000KT 10SM CLR 20/17 A3014 RMK AO2  T02020165,,,,,,62.93,,N,29.48,28.34,,Clear
KIGQ,09/21/2016 02:55 UTC,30.14,69.08,61.16,73.15,0.0,0.0,,,,,,1.0,,,,10.0,,KIGQ 210255Z AUTO 00000KT 10SM CLR 21/16 A3014 RMK AO2  T02060162,,,,,,60.07,,N,29.48,28.49,,Clear
KIGQ,09/21/2016 03:15 UTC,30.15,68.18,61.16,77.79,0.0,0.0,,,,,,1.0,,,,10.0,,KIGQ 210315Z AUTO 00000KT 10SM CLR 20/16 A3015 RMK AO2  T02010162,,,,,,60.94,,N,29.49,28.47,,Clear
KIGQ,09/21/2016 03:35 UTC,30.14,69.08,61.34,73.15,3.44,100.0,,,,,,1.0,,,,10.0,,KIGQ 210335Z AUTO 10003KT 10SM CLR 21/16 A3014 RMK AO2  T02060163,,,,,,60.07,,E,29.48,28.49,,Clear
KIGQ,09/21/2016 03:55 UTC,30.14,68.18,61.52,77.79,3.44,110.0,,,,,,1.0,,,,10.0,,KIGQ 210355Z AUTO 11003KT 10SM CLR 20/16 A3014 RMK AO2  T02010164,,,,,,60.94,,ESE,29.48,28.46,,Clear
KIGQ,09/21/2016 04:15 UTC,30.14,67.46,61.7,82.89,3.44,110.0,,,,,,1.0,,,,10.0,,KIGQ 210415Z AUTO 11003KT 10SM CLR 20/17 A3014 RMK AO2  T01970165,,,,,,62.05,,ESE,29.48,28.4,,Clear
KIGQ,09/21/2016 04:35 UTC,30.14,66.74,61.88,88.2,4.61,110.0,,,,,,1.0,,,,10.0,,KIGQ 210435Z AUTO 11004KT 10SM CLR 19/17 A3014 RMK AO2  T01930166,,,,,,63.11,,ESE,29.48,28.35,,Clear
KIGQ,09/21/2016 04:55 UTC,30.14,66.2,62.06,88.2,0.0,0.0,,,,,,1.0,,,,10.0,,KIGQ 210455Z AUTO 00000KT 10SM CLR 19/17 A3014 RMK AO2  T01900167,,,,,,62.58,,N,29.48,28.39,,Clear
KIGQ,09/21/2016 05:15 UTC,30.14,66.02,61.88,88.2,0.0,0.0,,,,,,1.0,,,,10.0,,KIGQ 210515Z AUTO 00000KT 10SM CLR 19/17 A3014 RMK AO2  T01890166,,,,,,62.4,,N,29.48,28.4,,Clear
KIGQ,09/21/2016 05:35 UTC,30.14,66.2,62.24,88.2,0.0,0.0,,,,,,1.0,,,,10.0,,KIGQ 210535Z AUTO 00000KT 10SM CLR 19/17 A3014 RMK AO2  T01900168,,,,,,62.58,,N,29.48,28.39,,Clear
KIGQ,09/21/2016 05:55 UTC,30.13,65.3,62.42,88.2,3.44,130.0,,,,,,1.0,,,,10.0,,KIGQ 210555Z AUTO 13003KT 10SM CLR 19/17 A3013 RMK AO2 T01850169  10228 20184 402810175,73.04,65.12,,82.58,63.5,61.69,,SE,29.47,28.44,,Clear
KIGQ,09/21/2016 06:15 UTC,30.13,64.76,62.42,93.89,0.0,0.0,,,,,,1.0,,,,10.0,,KIGQ 210615Z AUTO 00000KT 10SM CLR 18/17 A3013 RMK AO2  T01820169,,,,,,62.95,,N,29.47,28.38,,Clear
KIGQ,09/21/2016 06:35 UTC,30.13,65.3,63.5,93.94,0.0,0.0,,,,,,1.0,,,,10.0,,KIGQ 210635Z AUTO 00000KT 10SM CLR 19/18 A3013 RMK AO2  T01850175,,,,,,63.5,,N,29.47,28.34,,Clear
KIGQ,09/21/2016 06:55 UTC,30.12,65.66,63.68,93.94,0.0,0.0,,,,,,1.0,,,,10.0,,KIGQ 210655Z AUTO 00000KT 10SM CLR 19/18 A3012 RMK AO2  T01870176,,,,,,63.85,,N,29.47,28.31,,Clear
KIGQ,09/21/2016 07:15 UTC,30.12,66.56,64.58,93.94,3.44,150.0,,,,,,1.0,,,,10.0,,KIGQ 210715Z AUTO 15003KT 10SM CLR 19/18 A3012 RMK AO2  T01920181,,,,,,64.75,,SSE,29.47,28.25,,Clear
KIGQ,09/21/2016 07:35 UTC,30.12,68.0,65.3,93.98,3.44,160.0,,,,,,1.0,,,,10.0,,KIGQ 210735Z AUTO 16003KT 10SM CLR 20/19 A3012 RMK AO2  T02000185,,,,,,66.19,,SSE,29.47,28.14,,Clear
KIGQ,09/21/2016 07:55 UTC,30.12,67.28,65.3,93.98,0.0,0.0,,,,,,1.0,,,,10.0,,KIGQ 210755Z AUTO 00000KT 10SM CLR 20/19 A3012 RMK AO2  T01960185,,,,,,65.48,,N,29.47,28.19,,Clear
KIGQ,09/21/2016 08:15 UTC,30.12,67.1,65.3,93.98,0.0,0.0,,,,,,1.0,,,,10.0,,KIGQ 210815Z AUTO 00000KT 10SM CLR 20/19 A3012 RMK AO2  T01950185,,,,,,65.3,,N,29.47,28.21,,Clear
KIGQ,09/21/2016 08:35 UTC,30.13,67.64,65.66,93.98,3.44,140.0,,,,,,1.0,,,,10.0,,KIGQ 210835Z AUTO 14003KT 10SM CLR 20/19 A3013 RMK AO2  T01980187,,,,,,65.83,,SE,29.47,28.16,,Clear
KIGQ,09/21/2016 08:55 UTC,30.13,66.74,65.12,93.94,0.0,0.0,,,,,,1.0,,,,10.0,,KIGQ 210855Z AUTO 00000KT 10SM CLR 19/18 A3013 RMK AO2  T01930184,,,,,,64.93,,N,29.47,28.23,,Clear
KIGQ,09/21/2016 09:15 UTC,30.13,66.2,65.3,100.0,0.0,0.0,,,,,,1.0,,,,10.0,,KIGQ 210915Z AUTO 00000KT 10SM CLR 19/19 A3013 RMK AO2  T01900185,,,,,,66.2,,N,29.47,28.16,,Clear
KIGQ,09/21/2016 09:35 UTC,30.14,66.02,64.76,93.94,0.0,0.0,,,,,,1.0,,,,10.0,,KIGQ 210935Z AUTO 00000KT 10SM CLR 19/18 A3014 RMK AO2  T01890182,,,,,,64.21,,N,29.48,28.3,,Clear
KIGQ,09/21/2016 09:55 UTC,30.15,65.84,64.94,93.94,0.0,0.0,,,,,,1.0,,,,10.0,,KIGQ 210955Z AUTO 00000KT 10SM CLR 19/18 A3015 RMK AO2  T01880183,,,,,,64.03,,N,29.49,28.32,,Clear
KIGQ,09/21/2016 10:15 UTC,30.14,66.56,64.94,93.94,3.44,140.0,,,,,,1.0,,,,10.0,,KIGQ 211015Z AUTO 14003KT 10SM CLR 19/18 A3014 RMK AO2  T01920183,,,,,,64.75,,SE,29.48,28.26,,Clear
KIGQ,09/21/2016 10:35 UTC,30.14,65.48,64.4,93.94,3.44,150.0,,,,,,1.0,,,,10.0,,KIGQ 211035Z AUTO 15003KT 10SM CLR 19/18 A3014 RMK AO2 LTG DSNT NW  T01860180,,,,,,63.68,,SSE,29.48,28.33,,Clear
KIGQ,09/21/2016 10:55 UTC,30.14,65.3,64.04,93.94,0.0,0.0,,,,,,1.0,,,,10.0,,KIGQ 211055Z AUTO 00000KT 10SM CLR 19/18 A3014 RMK AO2  T01850178,,,,,,63.5,,N,29.48,28.35,,Clear
KIGQ,09/21/2016 11:15 UTC,30.14,66.2,64.94,93.94,4.61,160.0,,,,,,1.0,,,,10.0,,KIGQ 211115Z AUTO 16004KT 10SM CLR 19/18 A3014 RMK AO2  T01900183,,,,,,64.39,,SSE,29.48,28.28,,Clear
KIGQ,09/21/2016 11:35 UTC,30.14,66.02,64.58,93.94,0.0,0.0,,,,,,1.0,,,,10.0,,KIGQ 211135Z AUTO 00000KT 10SM CLR 19/18 A3014 RMK AO2  T01890181,,,,,,64.21,,N,29.48,28.3,,Clear
KIGQ,09/21/2016 11:55 UTC,30.16,66.38,64.58,93.94,0.0,0.0,,,,,,1.0,,,,10.0,,KIGQ 211155Z AUTO 00000KT 10SM CLR 19/18 A3016 RMK AO2 LTG DSNT NW  T01910181 10200 20180,68.0,64.4,,,,64.57,,N,29.5,28.29,,Clear
KIGQ,09/21/2016 12:15 UTC,30.17,65.3,64.04,93.94,0.0,0.0,,,,,,1.0,,,,10.0,,KIGQ 211215Z AUTO 00000KT 10SM CLR 19/18 A3017 RMK AO2 LTG DSNT N  T01850178,,,,,,63.5,,N,29.51,28.38,,Clear
KIGQ,09/21/2016 12:35 UTC,30.19,66.2,64.4,93.94,0.0,0.0,,,,,,1.0,,,,10.0,,KIGQ 211235Z AUTO 00000KT 10SM CLR 19/18 A3019 RMK AO2 LTG DSNT NW  THRU NE T01900180,,,,,,64.39,,N,29.53,28.33,,Clear
KIGQ,09/21/2016 12:55 UTC,30.2,66.92,64.94,93.94,0.0,0.0,,5.0,,,,1.0,,,,10.0,,KIGQ 211255Z AUTO 00000KT 10SM VCTS CLR 19/18 A3020 RMK AO2 LTG  DSNT N AND NW T01940183,,,,,,65.11,,N,29.54,28.29,,Thunder
KIGQ,09/21/2016 13:15 UTC,30.25,68.36,65.3,93.98,8.05,350.0,23.02,,803.0,,,202.0,292.0,,,10.0,,KIGQ 211315Z AUTO 35007G20KT 10SM SCT020 SCT029 BKN080 20/19  A3025 RMK AO2 LTG DSNT NW THRU NE T02020185,,,8000.0,,,66.55,,N,29.59,28.23,,Mostly Cloudy
KIGQ,09/21/2016 13:35 UTC,30.26,70.88,65.3,83.13,11.5,360.0,19.57,5.0,604.0,,,312.0,453.0,,,10.0,,KIGQ 211335Z AUTO 36010G17KT 10SM TS SCT031 BKN045 OVC060 22/19  A3026 RMK AO2 LTG DSNT NW T02160185,,,4500.0,,,65.48,,N,29.6,28.27,,Thunder
KIGQ,09/21/2016 13:55 UTC,30.26,70.34,65.3,88.37,8.05,10.0,17.27,,,,,473.0,604.0,,,10.0,,KIGQ 211355Z AUTO 01007G15KT 10SM BKN047 OVC060 21/19 A3026 RMK AO2 LTG DSNT W THRU N T02130185,,,4700.0,,,66.72,,N,29.6,28.2,,Overcast
KIGQ,09/21/2016 14:15 UTC,30.26,70.16,64.94,83.01,6.91,30.0,,,1102.0,,,492.0,702.0,,,10.0,,KIGQ 211415Z AUTO 03006KT 10SM SCT049 SCT070 SCT110 21/18  A3026 RMK AO2 T02120183,,,,,,64.73,,NNE,29.6,28.33,,Partly Cloudy
KIGQ,09/21/2016 14:35 UTC,30.25,70.88,65.12,78.09,10.36,40.0,,,,,,702.0,,,,10.0,,KIGQ 211435Z AUTO 04009KT 10SM SCT070 22/18 A3025 RMK AO2 LTG DSNT  NW T02160184,,,,,,63.68,,NE,29.59,28.38,,Partly Cloudy
KIGQ,09/21/2016 14:55 UTC,30.21,71.6,65.3,83.13,12.66,70.0,,,,,,1.0,,,,10.0,,KIGQ 211455Z AUTO 07011KT 10SM CLR 22/19 A3021 RMK AO2 LTG DSNT NW  T02200185,,,,,,66.18,,ENE,29.55,28.17,,Clear
KIGQ,09/21/2016 15:15 UTC,30.19,72.14,65.48,83.13,11.5,100.0,,,,,,1.0,,,,10.0,,KIGQ 211515Z AUTO 10010KT 10SM CLR 22/19 A3019 RMK AO2 LTG DSNT N  AND NW T02230186,,,,,,66.71,,E,29.53,28.11,,Clear
KIGQ,09/21/2016 15:35 UTC,30.16,73.04,65.66,78.24,14.97,110.0,20.71,,,,,1.0,,,,10.0,,KIGQ 211535Z AUTO 11013G18KT 10SM CLR 23/19 A3016 RMK AO2 LTG DSNT  NW T02280187,,,,,,65.83,,ESE,29.5,28.12,,Clear
KIGQ,09/21/2016 15:55 UTC,30.18,76.28,66.38,69.4,10.36,110.0,16.11,,,,,1.0,,,,10.0,,KIGQ 211555Z AUTO 11009G14KT 10SM CLR 25/19 A3018 RMK AO2 LTG DSNT  NW T02460191,,,,,,65.5,,ESE,29.52,28.12,,Clear
KIGQ,09/21/2016 16:15 UTC,30.18,78.44,66.56,65.41,9.22,130.0,,,,,,1.0,,,,10.0,,KIGQ 211615Z AUTO 13008KT 10SM CLR 26/19 A3018 RMK AO2  T02580192,,,,,,65.86,,SE,29.52,28.07,,Clear
KIGQ,09/21/2016 16:35 UTC,30.2,80.06,66.38,61.67,3.44,50.0,,,,,,1.0,,,,10.0,,KIGQ 211635Z AUTO 05003KT 10SM CLR 27/19 A3020 RMK AO2  T02670191,,,,,,65.7,,NE,29.54,28.09,82.07,Clear
KIGQ,09/21/2016 16:55 UTC,30.21,80.06,66.38,61.67,6.91,10.0,,,,,,1.0,,,,10.0,,KIGQ 211655Z AUTO 01006KT 10SM CLR 27/19 A3021 RMK AO2  T02670191,,,,,,65.7,,N,29.55,28.1,82.07,Clear
KIGQ,09/21/2016 17:15 UTC,30.23,79.88,67.64,65.62,9.22,350.0,,,,,,702.0,,,,10.0,,KIGQ 211715Z AUTO 35008KT 310V010 10SM SCT070 27/20 A3023 RMK AO2  T02660198,,,,,,67.33,,N,29.57,28.01,,Partly Cloudy
KIGQ,09/21/2016 17:35 UTC,30.23,76.46,67.1,73.85,9.22,10.0,,,,,,704.0,,,,10.0,,KIGQ 211735Z AUTO 01008KT 10SM OVC070 25/20 A3023 RMK AO2 LTG DSNT  NW T02470195,,,7000.0,,,67.48,,N,29.57,28.04,,Overcast
KIGQ,09/21/2016 17:55 UTC,30.23,77.0,66.92,69.4,6.91,10.0,,,,,,704.0,,,,10.0,,KIGQ 211755Z AUTO 01006KT 10SM OVC070 25/19 A3023 RMK AO2  T02500194 10270 20184,80.6,65.12,7000.0,,,66.19,,N,29.57,28.12,,Overcast
KIGQ,09/21/2016 18:15 UTC,30.22,78.62,66.02,65.41,6.91,10.0,,,,,,603.0,704.0,,,10.0,,KIGQ 211815Z AUTO 01006KT 10SM BKN060 OVC070 26/19 A3022 RMK AO2  T02590189,,,6000.0,,,66.03,,N,29.56,28.1,,Overcast
KIGQ,09/21/2016 18:35 UTC,30.23,78.08,65.66,65.41,5.75,350.0,,,,,,604.0,,,,10.0,,KIGQ 211835Z AUTO 35005KT 10SM OVC060 26/19 A3023 RMK AO2 LTG DSNT  W AND NW T02560187,,,6000.0,,,65.52,,N,29.57,28.15,,Overcast
KIGQ,09/21/2016 18:55 UTC,30.22,77.9,64.76,61.44,5.75,360.0,,,,,,602.0,902.0,,,10.0,,KIGQ 211855Z AUTO 36005KT 10SM SCT060 SCT090 26/18 A3022 RMK AO2  T02550182,,,,,,63.55,,N,29.56,28.27,,Partly Cloudy
KIGQ,09/21/2016 19:15 UTC,30.21,77.0,64.04,65.2,0.0,0.0,,,,,,1.0,,,,10.0,,KIGQ 211915Z AUTO 00000KT 10SM CLR 25/18 A3021 RMK AO2 LTG DSNT NW  T02500178,,,,,,64.4,,N,29.55,28.22,,Clear
KIGQ,09/21/2016 19:35 UTC,30.22,76.28,63.68,65.2,4.61,310.0,,5.0,,,,1102.0,,,,10.0,,KIGQ 211935Z AUTO 31004KT 10SM VCTS SCT110 25/18 A3022 RMK AO2 LTG  DSNT W T02460176,,,,,,63.71,,NW,29.56,28.28,,Thunder
KIGQ,09/21/2016 19:55 UTC,30.21,75.56,64.76,69.21,8.05,260.0,,,,,,1002.0,,,,10.0,,KIGQ 211955Z AUTO 26007KT 10SM SCT100 24/18 A3021 RMK AO2 LTG DSNT  W T02420182,,,,,,64.73,,W,29.55,28.21,,Partly Cloudy
KIGQ,09/21/2016 20:15 UTC,30.21,75.56,66.2,73.67,11.5,260.0,,,,,,902.0,,,,10.0,,KIGQ 212015Z AUTO 26010KT 10SM SCT090 24/19 A3021 RMK AO2  T02420190,,,,,,66.54,,W,29.55,28.09,,Partly Cloudy
KIGQ,09/21/2016 20:35 UTC,30.2,74.3,65.84,73.67,9.22,260.0,,,,,,802.0,903.0,,,10.0,,KIGQ 212035Z AUTO 26008KT 10SM SCT080 BKN090 24/19 A3020 RMK AO2  T02350188,,,9000.0,,,65.32,,W,29.54,28.18,,Mostly Cloudy
KIGQ,09/21/2016 20:55 UTC,30.17,73.76,65.66,78.24,6.91,230.0,,,,,,902.0,,,,10.0,,KIGQ 212055Z AUTO 23006KT 10SM SCT090 23/19 A3017 RMK AO2  T02320187,,,,,,66.53,,SW,29.51,28.08,,Partly Cloudy
KIGQ,09/21/2016 21:15 UTC,30.13,73.58,66.38,78.24,5.75,190.0,,,,,,1.0,,,,10.0,,KIGQ 212115Z AUTO 19005KT 10SM CLR 23/19 A3013 RMK AO2  T02310191,,,,,,66.36,,S,29.47,28.05,,Clear
KIGQ,09/21/2016 21:35 UTC,30.09,74.84,67.1,78.39,10.36,170.0,,,,,,1.0,,,,10.0,,KIGQ 212135Z AUTO 17009KT 10SM CLR 24/20 A3009 RMK AO2  T02380195,,,,,,67.64,,S,29.44,27.92,,Clear
KIGQ,09/21/2016 21:55 UTC,30.08,75.2,66.56,73.67,8.05,200.0,,,,,,1.0,,,,10.0,,KIGQ 212155Z AUTO 20007KT 10SM CLR 24/19 A3008 RMK AO2  T02400192,,,,,,66.19,,SSW,29.43,28.0,,Clear
KIGQ,09/21/2016 22:15 UTC,30.06,74.84,66.38,73.67,9.22,170.0,,,,,,1.0,,,,10.0,,KIGQ 212215Z AUTO 17008KT 10SM CLR 24/19 A3006 RMK AO2  T02380191,,,,,,65.84,,S,29.41,28.01,,Clear
KIGQ,09/21/2016 22:35 UTC,30.04,75.92,65.48,73.67,12.66,220.0,,,,,,1.0,,,,10.0,,KIGQ 212235Z AUTO 22011KT 10SM CLR 24/19 A3004 RMK AO2  T02440186,,,,,,66.88,,SW,29.39,27.9,,Clear
KIGQ,09/21/2016 22:55 UTC,30.04,76.28,65.12,65.2,13.8,210.0,,,,,,1.0,,,,10.0,,KIGQ 212255Z AUTO 21012KT 10SM CLR 25/18 A3004 RMK AO2  T02460184,,,,,,63.71,,SSW,29.39,28.11,,Clear
KIGQ,09/21/2016 23:15 UTC,30.06,76.1,65.3,69.4,4.61,230.0,,,,,,1.0,,,,10.0,,KIGQ 212315Z AUTO 23004KT 10SM CLR 25/19 A3006 RMK AO2  T02450185,,,,,,65.33,,SW,29.41,28.03,,Clear
KIGQ,09/21/2016 23:35 UTC,30.11,75.56,65.3,70.56,11.5,40.0,19.57,,,,,1.0,,,,10.0,,KIGQ 212335Z AUTO 04010G17KT 10SM CLR 24/19 A3011 RMK AO2  T02420185,,,,,,65.29,,NE,29.46,28.09,,Clear
KIGQ,09/21/2016 23:55 UTC,30.12,75.92,65.3,73.67,6.91,20.0,,,,,,1.0,,,,10.0,,KIGQ 212355Z AUTO 02006KT 10SM CLR 24/19 A3012 RMK AO2 T02440185  10259 20231,78.62,73.58,,,,66.88,,NNE,29.47,27.98,,Clear
KIGQ,09/22/2016 00:15 UTC,30.12,75.02,64.76,69.21,11.5,10.0,,,,,,1.0,,,,10.0,,KIGQ 220015Z AUTO 01010KT 10SM CLR 24/18 A3012 RMK AO2  T02390182,,,,,,64.22,,N,29.47,28.17,,Clear
KIGQ,09/22/2016 00:35 UTC,30.12,74.12,64.4,73.5,5.75,360.0,,,,,,1.0,,,,10.0,,KIGQ 220035Z AUTO 36005KT 10SM CLR 23/18 A3012 RMK AO2  T02340180,,,,,,65.08,,N,29.47,28.13,,Clear
KIGQ,09/22/2016 00:55 UTC,30.12,73.04,65.3,78.24,5.75,20.0,,,,,,1.0,,,,10.0,,KIGQ 220055Z AUTO 02005KT 10SM CLR 23/19 A3012 RMK AO2  T02280185,,,,,,65.83,,NNE,29.47,28.09,,Clear
KIGQ,09/22/2016 01:15 UTC,30.12,72.5,64.22,73.5,5.75,10.0,,,,,,1.0,,,,10.0,,KIGQ 220115Z AUTO 01005KT 10SM CLR 23/18 A3012 RMK AO2  T02250179,,,,,,63.51,,N,29.47,28.24,,Clear
KIGQ,09/22/2016 01:35 UTC,30.12,72.5,63.5,73.5,0.0,0.0,,,,,,1.0,,,,10.0,,KIGQ 220135Z AUTO 00000KT 10SM CLR 23/18 A3012 RMK AO2  T02250175,,,,,,63.51,,N,29.47,28.24,,Clear
KIGQ,09/22/2016 01:55 UTC,30.11,71.78,63.32,73.32,0.0,0.0,,,,,,1.0,,,,10.0,,KIGQ 220155Z AUTO 00000KT 10SM CLR 22/17 A3011 RMK AO2  T02210174,,,,,,62.75,,N,29.46,28.29,,Clear
KIGQ,09/22/2016 02:15 UTC,30.11,68.18,63.68,88.29,0.0,0.0,,,,,,1.0,,,,10.0,,KIGQ 220215Z AUTO 00000KT 10SM CLR 20/18 A3011 RMK AO2  T02010176,,,,,,64.56,,N,29.46,28.23,,Clear
KIGQ,09/22/2016 02:35 UTC,30.1,66.56,63.68,93.94,0.0,0.0,,,,,,1.0,,,,10.0,,KIGQ 220235Z AUTO 00000KT 10SM CLR 19/18 A3010 RMK AO2  T01920176,,,,,,64.75,,N,29.45,28.23,,Clear
KIGQ,09/22/2016 02:55 UTC,30.11,66.92,63.68,93.94,0.0,0.0,,,,,,1.0,,,,10.0,,KIGQ 220255Z AUTO 00000KT 10SM CLR 19/18 A3011 RMK AO2  T01940176,,,,,,65.11,,N,29.46,28.21,,Clear
KIGQ,09/22/2016 03:15 UTC,30.11,66.2,63.68,93.94,0.0,0.0,,,,,,1.0,,,,10.0,,KIGQ 220315Z AUTO 00000KT 10SM CLR 19/18 A3011 RMK AO2 LTG DSNT N  T01900176,,,,,,64.39,,N,29.46,28.26,,Clear
KIGQ,09/22/2016 03:35 UTC,30.11,66.2,64.04,93.94,0.0,0.0,,,,,,1.0,,,,10.0,,KIGQ 220335Z AUTO 00000KT 10SM CLR 19/18 A3011 RMK AO2  T01900178,,,,,,64.39,,N,29.46,28.26,,Clear
KIGQ,09/22/2016 03:55 UTC,30.11,67.1,64.4,88.29,0.0,0.0,,,,,,1.0,,,,10.0,,KIGQ 220355Z AUTO 00000KT 10SM CLR 20/18 A3011 RMK AO2  T01950180,,,,,,63.5,,N,29.46,28.3,,Clear
KIGQ,09/22/2016 04:15 UTC,30.11,66.56,64.4,93.94,0.0,0.0,,,,,,1.0,,,,10.0,,KIGQ 220415Z AUTO 00000KT 10SM CLR 19/18 A3011 RMK AO2  T01920180,,,,,,64.75,,N,29.46,28.24,,Clear
KIGQ,09/22/2016 04:35 UTC,30.11,66.92,64.04,93.94,0.0,0.0,,,,,,1.0,,,,10.0,,KIGQ 220435Z AUTO 00000KT 10SM CLR 19/18 A3011 RMK AO2  T01940178,,,,,,65.11,,N,29.46,28.21,,Clear
KIGQ,09/22/2016 04:55 UTC,30.11,65.48,63.86,93.94,0.0,0.0,,,,,,1.0,,,,10.0,,KIGQ 220455Z AUTO 00000KT 10SM CLR 19/18 A3011 RMK AO2  T01860177,,,,,,63.68,,N,29.46,28.31,,Clear
KIGQ,09/22/2016 05:15 UTC,30.11,65.66,64.22,93.94,0.0,0.0,,,,,,1.0,,,,10.0,,KIGQ 220515Z AUTO 00000KT 10SM CLR 19/18 A3011 RMK AO2  T01870179,,,,,,63.85,,N,29.46,28.3,,Clear
KIGQ,09/22/2016 05:35 UTC,30.11,66.38,64.4,93.94,0.0,0.0,,,,,,1.0,,,,10.0,,KIGQ 220535Z AUTO 00000KT 10SM CLR 19/18 A3011 RMK AO2  T01910180,,,,,,64.57,,N,29.46,28.25,,Clear
KIGQ,09/22/2016 05:55 UTC,30.11,66.2,64.4,93.94,0.0,0.0,,,,,,1.0,,,,10.0,,KIGQ 220555Z AUTO 00000KT 10SM CLR 19/18 A3011 RMK AO2 T01900180  10242 20185 402700180,75.56,65.3,,80.6,64.4,64.39,,N,29.46,28.26,,Clear
KIGQ,09/22/2016 06:15 UTC,30.11,66.74,64.76,93.94,0.0,0.0,,,,,,1.0,,,,10.0,,KIGQ 220615Z AUTO 00000KT 10SM CLR 19/18 A3011 RMK AO2  T01930182,,,,,,64.93,,N,29.46,28.22,,Clear
KIGQ,09/22/2016 06:35 UTC,30.1,65.48,63.68,93.94,0.0,0.0,,,,,,1.0,,,,10.0,,KIGQ 220635Z AUTO 00000KT 10SM CLR 19/18 A3010 RMK AO2  T01860176,,,,,,63.68,,N,29.45,28.3,,Clear
KIGQ,09/22/2016 06:55 UTC,30.1,63.86,63.5,100.0,0.0,0.0,,,,,,1.0,,,,10.0,,KIGQ 220655Z AUTO 00000KT 10SM CLR 18/18 A3010 RMK AO2  T01770175,,,,,,63.86,,N,29.45,28.32,,Clear
KIGQ,09/22/2016 07:15 UTC,30.1,64.4,63.86,100.0,0.0,0.0,,,,,,1.0,,,,10.0,,KIGQ 220715Z AUTO 00000KT 10SM CLR 18/18 A3010 RMK AO2  T01800177,,,,,,64.4,,N,29.45,28.28,,Clear
KIGQ,09/22/2016 07:35 UTC,30.1,64.76,64.22,100.0,0.0,0.0,,,,,,1.0,,,,10.0,,KIGQ 220735Z AUTO 00000KT 10SM CLR 18/18 A3010 RMK AO2  T01820179,,,,,,64.76,,N,29.45,28.25,,Clear
KIGQ,09/22/2016 07:55 UTC,30.09,62.42,62.24,100.0,0.0,0.0,,,,,,1.0,,,,10.0,,KIGQ 220755Z AUTO 00000KT 10SM CLR 17/17 A3009 RMK AO2  T01690168,,,,,,62.42,,N,29.44,28.41,,Clear
KIGQ,09/22/2016 08:15 UTC,30.1,61.88,61.88,100.0,0.0,0.0,,,,,,1.0,,,,10.0,,KIGQ 220815Z AUTO 00000KT 10SM CLR 17/17 A3010 RMK AO2  T01660166,,,,,,61.88,,N,29.45,28.45,,Clear
KIGQ,09/22/2016 08:35 UTC,30.1,61.7,61.7,100.0,0.0,0.0,,,,,,1.0,,,,10.0,,KIGQ 220835Z AUTO 00000KT 10SM CLR 17/17 A3010 RMK AO2  T01650165,,,,,,61.7,,N,29.45,28.47,,Clear
KIGQ,09/22/2016 08:55 UTC,30.1,62.24,62.24,100.0,0.0,0.0,,,,,,1.0,,,,7.0,,KIGQ 220855Z AUTO 00000KT 7SM CLR 17/17 A3010 RMK AO2  T01680168,,,,,,62.24,,N,29.45,28.43,,Clear
KIGQ,09/22/2016 09:15 UTC,30.09,62.6,62.6,100.0,0.0,0.0,,,,,,1.0,,,,7.0,,KIGQ 220915Z AUTO 00000KT 7SM CLR 17/17 A3009 RMK AO2  T01700170,,,,,,62.6,,N,29.44,28.39,,Clear
KIGQ,09/22/2016 09:35 UTC,30.08,64.94,64.4,100.0,3.44,130.0,,,,,,1.0,,,,10.0,,KIGQ 220935Z AUTO 13003KT 10SM CLR 18/18 A3008 RMK AO2  T01830180,,,,,,64.94,,SE,29.43,28.22,,Clear
KIGQ,09/22/2016 09:55 UTC,30.08,64.94,63.5,100.0,0.0,0.0,,,,,,1.0,,,,10.0,,KIGQ 220955Z AUTO 00000KT 10SM CLR 18/18 A3008 RMK AO2  T01830175,,,,,,64.94,,N,29.43,28.22,,Clear
KIGQ,09/22/2016 10:15 UTC,30.08,64.4,63.14,93.89,0.0,0.0,,,,,,1.0,,,,10.0,,KIGQ 221015Z AUTO 00000KT 10SM CLR 18/17 A3008 RMK AO2  T01800173,,,,,,62.59,,N,29.43,28.36,,Clear
KIGQ,09/22/2016 10:35 UTC,30.07,63.68,62.42,93.89,3.44,170.0,,,,,,1.0,,,,10.0,,KIGQ 221035Z AUTO 17003KT 10SM CLR 18/17 A3007 RMK AO2  T01760169,,,,,,61.87,,S,29.42,28.4,,Clear
KIGQ,09/22/2016 10:55 UTC,30.07,62.24,61.16,93.84,5.75,160.0,,,,,,1.0,,,,10.0,,KIGQ 221055Z AUTO 16005KT 10SM CLR 17/16 A3007 RMK AO2  T01680162,,,,,,60.43,,SSE,29.42,28.5,,Clear
KIGQ,09/22/2016 11:15 UTC,30.07,61.88,60.8,93.84,5.75,170.0,,,,,,1.0,,,,10.0,,KIGQ 221115Z AUTO 17005KT 10SM CLR 17/16 A3007 RMK AO2  T01660160,,,,,,60.07,,S,29.42,28.52,,Clear
KIGQ,09/22/2016 11:35 UTC,30.07,63.14,61.7,100.0,3.44,160.0,,,,,,1.0,,,,10.0,,KIGQ 221135Z AUTO 16003KT 10SM CLR 17/17 A3007 RMK AO2  T01730165,,,,,,63.14,,SSE,29.42,28.34,,Clear
KIGQ,09/22/2016 11:55 UTC,30.08,62.6,61.16,93.84,3.44,170.0,,,,,,1.0,,,,10.0,,KIGQ 221155Z AUTO 17003KT 10SM CLR 17/16 A3008 RMK AO2 T01700162  10193 20163,66.74,61.34,,,,60.79,,S,29.43,28.48,,Clear
KIGQ,09/22/2016 12:15 UTC,30.09,62.96,61.7,100.0,0.0,0.0,,,,,,1.0,,,,10.0,,KIGQ 221215Z AUTO 00000KT 10SM CLR 17/17 A3009 RMK AO2  T01720165,,,,,,62.96,,N,29.44,28.37,,Clear
KIGQ,09/22/2016 12:35 UTC,30.1,64.58,62.6,93.89,0.0,0.0,,,,,,1.0,,,,10.0,,KIGQ 221235Z AUTO 00000KT 10SM CLR 18/17 A3010 RMK AO2  T01810170,,,,,,62.77,,N,29.45,28.37,,Clear
KIGQ,09/22/2016 12:55 UTC,30.1,66.2,63.5,93.94,0.0,0.0,,,,,,1.0,,,,10.0,,KIGQ 221255Z AUTO 00000KT 10SM CLR 19/18 A3010 RMK AO2  T01900175,,,,,,64.39,,N,29.45,28.25,,Clear
KIGQ,09/22/2016 13:15 UTC,30.11,68.18,63.86,88.29,0.0,0.0,,,,,,1.0,,,,10.0,,KIGQ 221315Z AUTO 00000KT 10SM CLR 20/18 A3011 RMK AO2  T02010177,,,,,,64.56,,N,29.46,28.23,,Clear
KIGQ,09/22/2016 13:35 UTC,30.11,70.16,64.58,83.01,3.44,180.0,,,,,,1.0,,,,10.0,,KIGQ 221335Z AUTO 18003KT 10SM CLR 21/18 A3011 RMK AO2  T02120181,,,,,,64.73,,S,29.46,28.19,,Clear
KIGQ,09/22/2016 13:55 UTC,30.11,71.96,65.12,78.09,4.61,210.0,,,,,,1.0,,,,10.0,,KIGQ 221355Z AUTO 21004KT 10SM CLR 22/18 A3011 RMK AO2  T02220184,,,,,,64.73,,SSW,29.46,28.17,,Clear
KIGQ,09/22/2016 14:15 UTC,30.11,72.68,64.76,73.5,5.75,210.0,,,,,,1.0,,,,10.0,,KIGQ 221415Z AUTO 21005KT 10SM CLR 23/18 A3011 RMK AO2  T02260182,,,,,,63.69,,SSW,29.46,28.22,,Clear
KIGQ,09/22/2016 14:35 UTC,30.11,74.12,65.48,78.24,5.75,200.0,,,,,,1.0,,,,10.0,,KIGQ 221435Z AUTO 20005KT 10SM CLR 23/19 A3011 RMK AO2  T02340186,,,,,,66.88,,SSW,29.46,28.0,,Clear
KIGQ,09/22/2016 14:55 UTC,30.11,75.38,65.84,73.67,5.75,240.0,,,,,,1.0,,,,10.0,,KIGQ 221455Z AUTO 24005KT 10SM CLR 24/19 A3011 RMK AO2  T02410188,,,,,,66.36,,WSW,29.46,28.02,,Clear
KIGQ,09/22/2016 15:15 UTC,30.11,76.46,65.84,69.4,6.91,230.0,,,,,,1.0,,,,10.0,,KIGQ 221515Z AUTO 23006KT 10SM CLR 25/19 A3011 RMK AO2  T02470188,,,,,,65.68,,SW,29.46,28.05,,Clear
KIGQ,09/22/2016 15:35 UTC,30.11,77.0,65.66,69.4,5.75,210.0,,,,,,1.0,,,,10.0,,KIGQ 221535Z AUTO 21005KT 10SM CLR 25/19 A3011 RMK AO2  T02500187,,,,,,66.19,,SSW,29.46,28.01,,Clear
KIGQ,09/22/2016 15:55 UTC,30.1,77.72,65.48,69.4,5.75,220.0,,,,,,1.0,,,,10.0,,KIGQ 221555Z AUTO 22005KT 10SM CLR 25/19 A3010 RMK AO2  T02540186,,,,,,66.89,,SW,29.45,27.94,,Clear
KIGQ,09/22/2016 16:15 UTC,30.09,78.8,66.02,65.41,5.75,200.0,,,,,,1.0,,,,10.0,,KIGQ 221615Z AUTO 20005KT 10SM CLR 26/19 A3009 RMK AO2  T02600189,,,,,,66.2,,SSW,29.44,27.97,,Clear
KIGQ,09/22/2016 16:35 UTC,30.08,79.52,66.02,65.41,6.91,220.0,,,,,,1.0,,,,10.0,,KIGQ 221635Z AUTO 22006KT 10SM CLR 26/19 A3008 RMK AO2  T02640189,,,,,,66.89,,SW,29.43,27.9,,Clear
KIGQ,09/22/2016 16:55 UTC,30.08,78.8,66.02,65.41,8.05,170.0,,,,,,1.0,,,,10.0,,KIGQ 221655Z AUTO 17007KT 10SM CLR 26/19 A3008 RMK AO2  T02600189,,,,,,66.2,,S,29.43,27.96,,Clear
KIGQ,09/22/2016 17:15 UTC,30.07,78.98,66.56,65.41,6.91,170.0,,,,,,1.0,,,,10.0,,KIGQ 221715Z AUTO 17006KT 10SM CLR 26/19 A3007 RMK AO2  T02610192,,,,,,66.38,,S,29.42,27.93,,Clear
KIGQ,09/22/2016 17:35 UTC,30.06,79.7,66.2,61.67,8.05,180.0,,,,,,1.0,,,,10.0,,KIGQ 221735Z AUTO 18007KT 10SM CLR 27/19 A3006 RMK AO2  T02650190,,,,,,65.36,,S,29.41,27.98,,Clear
KIGQ,09/22/2016 17:55 UTC,30.05,79.88,66.02,61.67,5.75,180.0,,,,,,1.0,,,,10.0,,KIGQ 221755Z AUTO 18005KT 10SM CLR 27/19 A3005 RMK AO2 T02660189  10266 20167,79.88,62.06,,,,65.53,,S,29.4,27.96,,Clear
KIGQ,09/22/2016 18:15 UTC,30.05,79.7,66.02,61.67,5.75,170.0,,,,,,1.0,,,,10.0,,KIGQ 221815Z AUTO 17005KT 10SM CLR 27/19 A3005 RMK AO2  T02650189,,,,,,65.36,,S,29.4,27.97,,Clear
KIGQ,09/22/2016 18:35 UTC,30.04,80.24,66.56,61.67,5.75,140.0,,,,,,1.0,,,,10.0,,KIGQ 221835Z AUTO 14005KT 10SM CLR 27/19 A3004 RMK AO2  T02680192,,,,,,65.87,,SE,29.39,27.92,82.3,Clear
KIGQ,09/22/2016 18:55 UTC,30.03,80.6,65.84,61.67,4.61,160.0,,,,,,1.0,,,,10.0,,KIGQ 221855Z AUTO 16004KT 10SM CLR 27/19 A3003 RMK AO2  T02700188,,,,,,66.22,,SSE,29.38,27.88,82.77,Clear
KIGQ,09/22/2016 19:15 UTC,30.03,80.96,66.02,61.67,3.44,180.0,,,,,,1.0,,,,10.0,,KIGQ 221915Z AUTO 18003KT 10SM CLR 27/19 A3003 RMK AO2  T02720189,,,,,,66.56,,S,29.38,27.86,83.25,Clear
KIGQ,09/22/2016 19:35 UTC,30.02,81.68,65.66,58.18,0.0,0.0,,,,,,1.0,,,,10.0,,KIGQ 221935Z AUTO 00000KT 10SM CLR 28/19 A3002 RMK AO2  T02760187,,,,,,65.56,,N,29.37,27.91,83.67,Clear
KIGQ,09/22/2016 19:55 UTC,30.02,81.86,66.02,58.18,3.44,140.0,,,,,,1.0,,,,10.0,,KIGQ 221955Z AUTO 14003KT 10SM CLR 28/19 A3002 RMK AO2  T02770189,,,,,,65.73,,SE,29.37,27.89,83.91,Clear
KIGQ,09/22/2016 20:15 UTC,30.01,82.58,66.2,58.18,5.75,120.0,,,,,,1.0,,,,10.0,,KIGQ 222015Z AUTO 12005KT 10SM CLR 28/19 A3001 RMK AO2  T02810190,,,,,,66.4,,ESE,29.36,27.83,84.91,Clear
KIGQ,09/22/2016 20:35 UTC,30.01,81.86,65.48,58.18,4.61,140.0,,,,,,1.0,,,,10.0,,KIGQ 222035Z AUTO 14004KT 10SM CLR 28/19 A3001 RMK AO2  T02770186,,,,,,65.73,,SE,29.36,27.88,83.91,Clear
KIGQ,09/22/2016 20:55 UTC,30.0,82.4,65.3,58.18,4.61,140.0,,,,,,1.0,,,,10.0,,KIGQ 222055Z AUTO 14004KT 10SM CLR 28/19 A3000 RMK AO2  T02800185,,,,,,66.23,,SE,29.35,27.83,84.65,Clear
KIGQ,09/22/2016 21:15 UTC,29.99,82.58,66.2,58.18,4.61,150.0,,,,,,1.0,,,,10.0,,KIGQ 222115Z AUTO 15004KT 10SM CLR 28/19 A2999 RMK AO2  T02810190,,,,,,66.4,,SSE,29.34,27.81,84.91,Clear
KIGQ,09/22/2016 21:35 UTC,29.99,82.4,66.74,58.18,5.75,130.0,,,,,,1.0,,,,10.0,,KIGQ 222135Z AUTO 13005KT 10SM CLR 28/19 A2999 RMK AO2  T02800193,,,,,,66.23,,SE,29.34,27.82,84.65,Clear
KIGQ,09/22/2016 21:55 UTC,29.99,82.4,67.28,61.9,4.61,140.0,,,,,,1.0,,,,10.0,,KIGQ 222155Z AUTO 14004KT 10SM CLR 28/20 A2999 RMK AO2  T02800196,,,,,,68.03,,SE,29.34,27.69,85.4,Clear
KIGQ,09/22/2016 22:15 UTC,29.99,82.58,66.38,58.18,4.61,150.0,,,,,,1.0,,,,10.0,,KIGQ 222215Z AUTO 15004KT 10SM CLR 28/19 A2999 RMK AO2  T02810191,,,,,,66.4,,SSE,29.34,27.81,84.91,Clear
KIGQ,09/22/2016 22:35 UTC,29.99,81.68,66.56,58.18,4.61,150.0,,,,,,1.0,,,,10.0,,KIGQ 222235Z AUTO 15004KT 10SM CLR 28/19 A2999 RMK AO2  T02760192,,,,,,65.56,,SSE,29.34,27.88,83.67,Clear
KIGQ,09/22/2016 22:55 UTC,29.99,81.32,67.1,65.62,3.44,140.0,,,,,,1.0,,,,10.0,,KIGQ 222255Z AUTO 14003KT 10SM CLR 27/20 A2999 RMK AO2  T02740195,,,,,,68.7,,SE,29.34,27.66,84.41,Clear
KIGQ,09/22/2016 23:15 UTC,29.99,80.6,66.92,61.67,3.44,150.0,,,,,,1.0,,,,10.0,,KIGQ 222315Z AUTO 15003KT 10SM CLR 27/19 A2999 RMK AO2  T02700194,,,,,,66.22,,SSE,29.34,27.84,82.77,Clear
KIGQ,09/22/2016 23:35 UTC,30.0,78.98,67.28,67.5,0.0,0.0,,,,,,1.0,,,,10.0,,KIGQ 222335Z AUTO 00000KT 10SM CLR 26/20 A3000 RMK AO2  T02610196,,,,,,67.29,,N,29.35,27.8,,Clear
KIGQ,09/22/2016 23:55 UTC,30.0,78.98,67.1,69.6,0.0,0.0,,,,,,1.0,,,,10.0,,KIGQ 222355Z AUTO 00000KT 10SM CLR 26/20 A3000 RMK AO2 T02610195  10284 20258,83.12,78.44,,,,68.18,,N,29.35,27.73,,Clear
KIGQ,09/23/2016 00:15 UTC,30.0,77.36,67.28,73.85,0.0,0.0,,,,,,1.0,,,,10.0,,KIGQ 230015Z AUTO 00000KT 10SM CLR 25/20 A3000 RMK AO2  T02520196,,,,,,68.35,,N,29.35,27.74,,Clear
KIGQ,09/23/2016 00:35 UTC,30.0,75.2,68.0,78.39,0.0,0.0,,,,,,1.0,,,,10.0,,KIGQ 230035Z AUTO 00000KT 10SM CLR 24/20 A3000 RMK AO2  T02400200,,,,,,67.99,,N,29.35,27.8,,Clear
KIGQ,09/23/2016 00:55 UTC,30.0,72.86,68.18,83.25,0.0,0.0,,,,,,1.0,,,,10.0,,KIGQ 230055Z AUTO 00000KT 10SM CLR 23/20 A3000 RMK AO2  T02270201,,,,,,67.46,,N,29.35,27.86,,Clear
KIGQ,09/23/2016 01:15 UTC,30.01,75.56,68.0,78.39,0.0,0.0,,,,,,1.0,,,,10.0,,KIGQ 230115Z AUTO 00000KT 10SM CLR 24/20 A3001 RMK AO2 LTG DSNT W  T02420200,,,,,,68.34,,N,29.36,27.78,,Clear
KIGQ,09/23/2016 01:35 UTC,30.01,75.74,68.0,78.39,0.0,0.0,,,,,,1.0,,,,10.0,,KIGQ 230135Z AUTO 00000KT 10SM CLR 24/20 A3001 RMK AO2  T02430200,,,,,,68.52,,N,29.36,27.76,,Clear
KIGQ,09/23/2016 01:55 UTC,30.01,74.66,68.54,78.39,0.0,0.0,,,,,,1.0,,,,10.0,,KIGQ 230155Z AUTO 00000KT 10SM CLR 24/20 A3001 RMK AO2  T02370203,,,,,,67.47,,N,29.36,27.85,,Clear
KIGQ,09/23/2016 02:15 UTC,30.01,73.94,68.36,83.25,0.0,0.0,,,,,,1.0,,,,10.0,,KIGQ 230215Z AUTO 00000KT 10SM CLR 23/20 A3001 RMK AO2  T02330202,,,,,,68.52,,N,29.36,27.79,,Clear
KIGQ,09/23/2016 02:35 UTC,30.01,73.22,68.18,83.25,0.0,0.0,,,,,,1.0,,,,10.0,,KIGQ 230235Z AUTO 00000KT 10SM CLR 23/20 A3001 RMK AO2  T02290201,,,,,,67.81,,N,29.36,27.84,,Clear
KIGQ,09/23/2016 02:55 UTC,30.01,73.22,68.18,83.25,0.0,0.0,,,,,,1.0,,,,10.0,,KIGQ 230255Z AUTO 00000KT 10SM CLR 23/20 A3001 RMK AO2  T02290201,,,,,,67.81,,N,29.36,27.84,,Clear
KIGQ,09/23/2016 03:15 UTC,30.02,72.32,68.36,88.46,0.0,0.0,,,,,,652.0,1102.0,,,10.0,,KIGQ 230315Z AUTO 00000KT 10SM SCT065 SCT110 22/20 A3002 RMK AO2  T02240202,,,,,,68.7,,N,29.37,27.81,,Partly Cloudy
KIGQ,09/23/2016 03:35 UTC,30.02,71.96,68.9,94.07,0.0,0.0,,13.0,902.0,,,372.0,502.0,,,10.0,,KIGQ 230335Z AUTO 00000KT 10SM -RA SCT037 SCT050 SCT090 22/21  A3002 RMK AO2 T02220205,,,,,,70.15,,N,29.37,27.71,,Light Rain
KIGQ,09/23/2016 03:55 UTC,30.02,74.12,68.18,83.25,0.0,0.0,,,,,,1203.0,,,,10.0,,KIGQ 230355Z AUTO 00000KT 10SM BKN120 23/20 A3002 RMK AO2  T02340201,,,12000.0,,,68.69,,N,29.37,27.78,,Mostly Cloudy
KIGQ,09/23/2016 04:15 UTC,30.02,72.68,68.9,88.54,0.0,0.0,,,,,,1104.0,,,,10.0,,KIGQ 230415Z AUTO 00000KT 10SM OVC110 23/21 A3002 RMK AO2 LTG DSNT  W T02260205,,,11000.0,,,69.08,,N,29.37,27.77,,Overcast
KIGQ,09/23/2016 04:35 UTC,30.02,72.32,68.9,94.07,0.0,0.0,,,,,,1104.0,,,,10.0,,KIGQ 230435Z AUTO 00000KT 10SM OVC110 22/21 A3002 RMK AO2  T02240205,,,11000.0,,,70.51,,N,29.37,27.67,,Overcast
KIGQ,09/23/2016 04:55 UTC,30.01,73.22,67.46,83.25,0.0,0.0,,,,,,1102.0,,,,10.0,,KIGQ 230455Z AUTO 00000KT 10SM SCT110 23/20 A3001 RMK AO2  T02290197,,,,,,67.81,,N,29.36,27.84,,Partly Cloudy
KIGQ,09/23/2016 05:15 UTC,30.02,72.5,66.56,78.24,0.0,0.0,,,,,,1003.0,,,,10.0,,KIGQ 230515Z AUTO 00000KT 10SM BKN100 23/19 A3002 RMK AO2  T02250192,,,10000.0,,,65.31,,N,29.37,28.03,,Mostly Cloudy
KIGQ,09/23/2016 05:35 UTC,30.01,69.08,66.92,88.37,3.44,170.0,,,,,,1002.0,,,,10.0,,KIGQ 230535Z AUTO 17003KT 10SM SCT100 21/19 A3001 RMK AO2  T02060194,,,,,,65.48,,S,29.36,28.05,,Partly Cloudy
KIGQ,09/23/2016 05:55 UTC,30.01,69.44,66.2,88.37,0.0,0.0,,,,,,1.0,,,,10.0,,KIGQ 230555Z AUTO 00000KT 10SM CLR 21/19 A3001 RMK AO2 T02080190  10262 20204 402840163,79.16,68.72,,83.12,61.34,65.83,,N,29.36,28.03,,Clear
KIGQ,09/23/2016 06:15 UTC,30.01,69.62,64.76,83.01,0.0,0.0,,,,,,1.0,,,,10.0,,KIGQ 230615Z AUTO 00000KT 10SM CLR 21/18 A3001 RMK AO2  T02090182,,,,,,64.2,,N,29.36,28.13,,Clear
KIGQ,09/23/2016 06:35 UTC,30.01,68.36,64.04,88.29,0.0,0.0,,,,,,1.0,,,,10.0,,KIGQ 230635Z AUTO 00000KT 10SM CLR 20/18 A3001 RMK AO2  T02020178,,,,,,64.74,,N,29.36,28.11,,Clear
KIGQ,09/23/2016 06:55 UTC,30.01,69.8,63.68,83.01,0.0,0.0,,,,,,1.0,,,,10.0,,KIGQ 230655Z AUTO 00000KT 10SM CLR 21/18 A3001 RMK AO2  T02100176,,,,,,64.38,,N,29.36,28.11,,Clear
KIGQ,09/23/2016 07:15 UTC,30.01,68.9,63.5,83.01,0.0,0.0,,,,,,1.0,,,,10.0,,KIGQ 230715Z AUTO 00000KT 10SM CLR 21/18 A3001 RMK AO2  T02050175,,,,,,63.5,,N,29.36,28.18,,Clear
KIGQ,09/23/2016 07:35 UTC,30.02,68.0,63.5,88.29,0.0,0.0,,,,,,1.0,,,,10.0,,KIGQ 230735Z AUTO 00000KT 10SM CLR 20/18 A3002 RMK AO2  T02000175,,,,,,64.39,,N,29.37,28.15,,Clear
KIGQ,09/23/2016 07:55 UTC,30.03,68.36,63.5,88.29,0.0,0.0,,,,,,1.0,,,,10.0,,KIGQ 230755Z AUTO 00000KT 10SM CLR 20/18 A3003 RMK AO2  T02020175,,,,,,64.74,,N,29.38,28.13,,Clear
KIGQ,09/23/2016 08:15 UTC,30.02,67.82,63.68,88.29,0.0,0.0,,,,,,1.0,,,,10.0,,KIGQ 230815Z AUTO 00000KT 10SM CLR 20/18 A3002 RMK AO2  T01990176,,,,,,64.21,,N,29.37,28.16,,Clear
KIGQ,09/23/2016 08:35 UTC,30.02,68.72,63.86,88.29,0.0,0.0,,,,,,1.0,,,,10.0,,KIGQ 230835Z AUTO 00000KT 10SM CLR 20/18 A3002 RMK AO2  T02040177,,,,,,65.1,,N,29.37,28.09,,Clear
KIGQ,09/23/2016 08:55 UTC,30.03,68.0,63.68,88.29,0.0,0.0,,,,,,1.0,,,,10.0,,KIGQ 230855Z AUTO 00000KT 10SM CLR 20/18 A3003 RMK AO2  T02000176,,,,,,64.39,,N,29.38,28.16,,Clear
KIGQ,09/23/2016 09:15 UTC,30.03,69.62,63.68,83.01,0.0,0.0,,,,,,1.0,,,,10.0,,KIGQ 230915Z AUTO 00000KT 10SM CLR 21/18 A3003 RMK AO2  T02090176,,,,,,64.2,,N,29.38,28.15,,Clear
KIGQ,09/23/2016 09:35 UTC,30.04,69.62,64.22,83.01,0.0,0.0,,,,,,1.0,,,,10.0,,KIGQ 230935Z AUTO 00000KT 10SM CLR 21/18 A3004 RMK AO2  T02090179,,,,,,64.2,,N,29.39,28.16,,Clear
KIGQ,09/23/2016 09:55 UTC,30.04,69.8,67.28,94.03,0.0,0.0,,,,,,1102.0,,,,10.0,,KIGQ 230955Z AUTO 00000KT 10SM SCT110 21/20 A3004 RMK AO2  T02100196,,,,,,67.99,,N,29.39,27.91,,Partly Cloudy
KIGQ,09/23/2016 10:15 UTC,30.04,69.44,68.18,94.03,0.0,0.0,,13.0,,,,1.0,,,,7.0,,KIGQ 231015Z AUTO 00000KT 7SM -RA CLR 21/20 A3004 RMK AO2  T02080201,,,,,,67.64,,N,29.39,27.94,,Light Rain
KIGQ,09/23/2016 10:35 UTC,30.04,69.44,68.54,94.03,3.44,320.0,,13.0,,,,1.0,,,,7.0,,KIGQ 231035Z AUTO 32003KT 7SM -RA CLR 21/20 A3004 RMK AO2  T02080203,,,,,,67.64,,NW,29.39,27.94,,Light Rain
KIGQ,09/23/2016 10:55 UTC,30.04,69.8,69.26,100.0,0.0,0.0,,31.0,,,,1.0,,,,5.0,,KIGQ 231055Z AUTO 00000KT 5SM BR CLR 21/21 A3004 RMK AO2  T02100207,,,,,,69.8,,N,29.39,27.78,,Mist
KIGQ,09/23/2016 11:15 UTC,30.05,69.98,69.8,100.0,5.75,10.0,,31.0,,,,1202.0,,,,4.0,,KIGQ 231115Z AUTO 01005KT 4SM BR SCT120 21/21 A3005 RMK AO2  T02110210,,,,,,69.98,,N,29.4,27.78,,Mist
KIGQ,09/23/2016 11:35 UTC,30.06,69.98,69.8,100.0,3.44,350.0,,31.0,,,,1203.0,,,,4.0,,KIGQ 231135Z AUTO 35003KT 4SM BR BKN120 21/21 A3006 RMK AO2  T02110210,,,12000.0,,,69.98,,N,29.41,27.79,,Mist
KIGQ,09/23/2016 11:55 UTC,30.07,70.34,70.16,100.0,6.91,330.0,,31.0,,,,63.0,1104.0,,,2.0,,KIGQ 231155Z AUTO 33006KT 2SM BR BKN006 OVC110 21/21 A3007 RMK AO2  T02130212 10213 20195,70.34,67.1,600.0,,,70.34,,NNW,29.42,27.77,,Mist
KIGQ,09/23/2016 12:15 UTC,30.08,70.7,70.7,100.0,4.61,350.0,,31.0,,,,64.0,,,,1.75,,KIGQ 231215Z AUTO 35004KT 1 3/4SM BR OVC006 22/22 A3008 RMK AO2  T02150215,,,600.0,,,70.7,,N,29.43,27.75,,Mist
KIGQ,09/23/2016 12:35 UTC,30.09,70.7,70.34,94.07,5.75,350.0,,31.0,,,,64.0,,,,2.0,,KIGQ 231235Z AUTO 35005KT 2SM BR OVC006 22/21 A3009 RMK AO2  T02150213,,,600.0,,,68.9,,N,29.44,27.89,,Mist
KIGQ,09/23/2016 12:55 UTC,30.09,70.7,69.98,94.07,3.44,360.0,,31.0,,,,64.0,,,,2.5,,KIGQ 231255Z AUTO 36003KT 2 1/2SM BR OVC006 22/21 A3009 RMK AO2  T02150211,,,600.0,,,68.9,,N,29.44,27.89,,Mist
KIGQ,09/23/2016 13:15 UTC,30.09,70.88,70.16,94.07,3.44,20.0,,31.0,,,,64.0,,,,4.0,,KIGQ 231315Z AUTO 02003KT 4SM BR OVC006 22/21 A3009 RMK AO2  T02160212,,,600.0,,,69.08,,NNE,29.44,27.87,,Mist
KIGQ,09/23/2016 13:35 UTC,30.09,71.06,70.16,94.07,3.44,10.0,,31.0,,,,64.0,,,,5.0,,KIGQ 231335Z AUTO 01003KT 5SM BR OVC006 22/21 A3009 RMK AO2  T02170212,,,600.0,,,69.26,,N,29.44,27.86,,Mist
KIGQ,09/23/2016 13:55 UTC,30.09,71.6,69.98,94.07,0.0,0.0,,31.0,,,,63.0,,,,5.0,,KIGQ 231355Z AUTO 00000KT 5SM BR BKN006 22/21 A3009 RMK AO2  T02200211,,,600.0,,,69.79,,N,29.44,27.81,,Mist
KIGQ,09/23/2016 14:15 UTC,30.09,72.32,70.16,94.07,8.05,40.0,,31.0,,,,83.0,,,,5.0,,KIGQ 231415Z AUTO 04007KT 5SM BR BKN008 22/21 A3009 RMK AO2  T02240212,,,800.0,,,70.51,,NE,29.44,27.75,,Mist
KIGQ,09/23/2016 14:35 UTC,30.1,73.04,70.34,88.54,0.0,0.0,,,,,,84.0,,,,7.0,,KIGQ 231435Z AUTO 00000KT 7SM OVC008 23/21 A3010 RMK AO2  T02280213,,,800.0,,,69.44,,N,29.45,27.82,,Overcast
KIGQ,09/23/2016 14:55 UTC,30.09,73.58,70.34,88.54,9.22,50.0,,,,,,104.0,,,,7.0,,KIGQ 231455Z AUTO 05008KT 7SM OVC010 23/21 A3009 RMK AO2  T02310213,,,1000.0,,,69.97,,NE,29.44,27.77,,Overcast
KIGQ,09/23/2016 15:15 UTC,30.1,72.86,69.98,88.54,5.75,50.0,,,,,,104.0,,,,7.0,,KIGQ 231515Z AUTO 05005KT 7SM OVC010 23/21 A3010 RMK AO2  T02270211,,,1000.0,,,69.26,,NE,29.45,27.84,,Overcast
KIGQ,09/23/2016 15:35 UTC,30.1,73.4,70.16,88.54,9.22,40.0,,,,,,124.0,,,,7.0,,KIGQ 231535Z AUTO 04008KT 7SM OVC012 23/21 A3010 RMK AO2  T02300212,,,1200.0,,,69.79,,NE,29.45,27.79,,Overcast
KIGQ,09/23/2016 15:55 UTC,30.11,73.4,69.98,88.54,5.75,30.0,,,,,,144.0,,,,7.0,,KIGQ 231555Z AUTO 03005KT 7SM OVC014 23/21 A3011 RMK AO2  T02300211,,,1400.0,,,69.79,,NNE,29.46,27.8,,Overcast
KIGQ,09/23/2016 16:15 UTC,30.13,72.86,69.8,88.54,6.91,20.0,,,,,,164.0,,,,7.0,,KIGQ 231615Z AUTO 02006KT 7SM OVC016 23/21 A3013 RMK AO2  T02270210,,,1600.0,,,69.26,,NNE,29.47,27.86,,Overcast
KIGQ,09/23/2016 16:35 UTC,30.12,72.5,69.62,88.54,3.44,30.0,,,,,,132.0,214.0,,,7.0,,KIGQ 231635Z AUTO 03003KT 7SM SCT013 OVC021 23/21 A3012 RMK AO2  T02250209,,,2100.0,,,68.91,,NNE,29.47,27.89,,Overcast
KIGQ,09/23/2016 16:55 UTC,30.12,72.86,69.8,88.54,3.44,10.0,,,,,,133.0,214.0,,,7.0,,KIGQ 231655Z AUTO 01003KT 7SM BKN013 OVC021 23/21 A3012 RMK AO2  T02270210,,,1300.0,,,69.26,,N,29.47,27.86,,Overcast
KIGQ,09/23/2016 17:15 UTC,30.12,72.68,69.26,88.54,8.05,10.0,,,,,,132.0,194.0,,,7.0,,KIGQ 231715Z AUTO 01007KT 7SM SCT013 OVC019 23/21 A3012 RMK AO2  T02260207,,,1900.0,,,69.08,,N,29.47,27.87,,Overcast
KIGQ,09/23/2016 17:35 UTC,30.12,73.04,69.44,88.54,6.91,20.0,,,,,,194.0,,,,7.0,,KIGQ 231735Z AUTO 02006KT 7SM OVC019 23/21 A3012 RMK AO2  T02280208,,,1900.0,,,69.44,,NNE,29.47,27.84,,Overcast
KIGQ,09/23/2016 17:55 UTC,30.11,72.68,69.44,88.54,3.44,20.0,,,,,,163.0,214.0,,,7.0,,KIGQ 231755Z AUTO 02003KT 7SM BKN016 OVC021 23/21 A3011 RMK AO2  T02260208 10234 20213,74.12,70.34,1600.0,,,69.08,,NNE,29.46,27.86,,Overcast
KIGQ,09/23/2016 18:15 UTC,30.11,73.4,69.26,88.54,9.22,40.0,,,,,,164.0,,,,7.0,,KIGQ 231815Z AUTO 04008KT 7SM OVC016 23/21 A3011 RMK AO2  T02300207,,,1600.0,,,69.79,,NE,29.46,27.8,,Overcast
KIGQ,09/23/2016 18:35 UTC,30.11,73.4,69.44,88.54,8.05,20.0,,,,,,144.0,,,,7.0,,KIGQ 231835Z AUTO 02007KT 7SM OVC014 23/21 A3011 RMK AO2  T02300208,,,1400.0,,,69.79,,NNE,29.46,27.8,,Overcast
KIGQ,09/23/2016 18:55 UTC,30.1,73.94,69.98,88.54,8.05,40.0,,,,,,144.0,,,,7.0,,KIGQ 231855Z AUTO 04007KT 7SM OVC014 23/21 A3010 RMK AO2  T02330211,,,1400.0,,,70.33,,NE,29.45,27.75,,Overcast
KIGQ,09/23/2016 19:15 UTC,30.09,73.4,69.44,88.54,8.05,40.0,,,,,,144.0,,,,7.0,,KIGQ 231915Z AUTO 04007KT 7SM OVC014 23/21 A3009 RMK AO2  T02300208,,,1400.0,,,69.79,,NE,29.44,27.78,,Overcast
KIGQ,09/23/2016 19:35 UTC,30.09,72.86,69.26,88.54,6.91,50.0,,,,,,143.0,184.0,,,7.0,,KIGQ 231935Z AUTO 05006KT 7SM BKN014 OVC018 23/21 A3009 RMK AO2  T02270207,,,1400.0,,,69.26,,NE,29.44,27.83,,Overcast
KIGQ,09/23/2016 19:55 UTC,30.08,73.4,69.26,88.54,8.05,60.0,,,,,,144.0,,,,7.0,,KIGQ 231955Z AUTO 06007KT 7SM OVC014 23/21 A3008 RMK AO2  T02300207,,,1400.0,,,69.79,,ENE,29.43,27.77,,Overcast
KIGQ,09/23/2016 20:15 UTC,30.08,73.58,69.62,88.54,9.22,30.0,,,,,,163.0,,,,7.0,,KIGQ 232015Z AUTO 03008KT 7SM BKN016 23/21 A3008 RMK AO2  T02310209,,,1600.0,,,69.97,,NNE,29.43,27.76,,Mostly Cloudy
KIGQ,09/23/2016 20:35 UTC,30.08,73.58,69.26,88.54,8.05,20.0,,,,,,143.0,,,,7.0,,KIGQ 232035Z AUTO 02007KT 7SM BKN014 23/21 A3008 RMK AO2  T02310207,,,1400.0,,,69.97,,NNE,29.43,27.76,,Mostly Cloudy
KIGQ,09/23/2016 20:55 UTC,30.08,73.4,69.44,88.54,8.05,30.0,,,,,,144.0,,,,7.0,,KIGQ 232055Z AUTO 03007KT 7SM OVC014 23/21 A3008 RMK AO2  T02300208,,,1400.0,,,69.79,,NNE,29.43,27.77,,Overcast
KIGQ,09/23/2016 21:15 UTC,30.08,72.86,68.9,88.54,5.75,360.0,,,,,,144.0,,,,7.0,,KIGQ 232115Z AUTO 36005KT 7SM OVC014 23/21 A3008 RMK AO2  T02270205,,,1400.0,,,69.26,,N,29.43,27.82,,Overcast
KIGQ,09/23/2016 21:35 UTC,30.08,72.86,69.08,88.54,9.22,360.0,,,,,,144.0,,,,7.0,,KIGQ 232135Z AUTO 36008KT 7SM OVC014 23/21 A3008 RMK AO2  T02270206,,,1400.0,,,69.26,,N,29.43,27.82,,Overcast
KIGQ,09/23/2016 21:55 UTC,30.09,72.5,68.72,83.25,8.05,20.0,,,,,,144.0,,,,7.0,,KIGQ 232155Z AUTO 02007KT 7SM OVC014 23/20 A3009 RMK AO2  T02250204,,,1400.0,,,67.11,,NNE,29.44,27.98,,Overcast
KIGQ,09/23/2016 22:15 UTC,30.1,71.96,68.54,88.46,6.91,10.0,,,,,,144.0,,,,7.0,,KIGQ 232215Z AUTO 01006KT 7SM OVC014 22/20 A3010 RMK AO2  T02220203,,,1400.0,,,68.35,,N,29.45,27.92,,Overcast
KIGQ,09/23/2016 22:35 UTC,30.1,71.78,68.18,88.46,5.75,20.0,,,,,,144.0,,,,10.0,,KIGQ 232235Z AUTO 02005KT 10SM OVC014 22/20 A3010 RMK AO2  T02210201,,,1400.0,,,68.17,,NNE,29.45,27.93,,Overcast
KIGQ,09/23/2016 22:55 UTC,30.1,71.6,68.0,88.46,6.91,10.0,,,,,,164.0,,,,7.0,,KIGQ 232255Z AUTO 01006KT 7SM OVC016 22/20 A3010 RMK AO2  T02200200,,,1600.0,,,67.99,,N,29.45,27.95,,Overcast
KIGQ,09/23/2016 23:15 UTC,30.1,71.06,68.0,88.46,8.05,20.0,,,,,,164.0,,,,7.0,,KIGQ 232315Z AUTO 02007KT 7SM OVC016 22/20 A3010 RMK AO2  T02170200,,,1600.0,,,67.46,,NNE,29.45,27.99,,Overcast
KIGQ,09/23/2016 23:35 UTC,30.09,70.88,67.1,88.46,9.22,30.0,,,,,,164.0,,,,10.0,,KIGQ 232335Z AUTO 03008KT 10SM OVC016 22/20 A3009 RMK AO2  T02160195,,,1600.0,,,67.28,,NNE,29.44,27.99,,Overcast
KIGQ,09/23/2016 23:55 UTC,30.1,70.88,67.46,88.46,9.22,20.0,,,,,,144.0,,,,10.0,,KIGQ 232355Z AUTO 02008KT 10SM OVC014 22/20 A3010 RMK AO2  T02160197 10235 20215,74.3,70.7,1400.0,,,67.28,,NNE,29.45,28.0,,Overcast
KIGQ,09/24/2016 00:15 UTC,30.1,70.7,68.18,88.46,5.75,20.0,,,,,,124.0,,,,7.0,,KIGQ 240015Z AUTO 02005KT 7SM OVC012 22/20 A3010 RMK AO2  T02150201,,,1200.0,,,67.1,,NNE,29.45,28.02,,Overcast
KIGQ,09/24/2016 00:35 UTC,30.1,70.7,68.36,88.46,6.91,40.0,,,,,,124.0,,,,7.0,,KIGQ 240035Z AUTO 04006KT 7SM OVC012 22/20 A3010 RMK AO2  T02150202,,,1200.0,,,67.1,,NE,29.45,28.02,,Overcast
KIGQ,09/24/2016 00:55 UTC,30.11,70.52,68.18,94.03,9.22,40.0,,,,,,144.0,,,,7.0,,KIGQ 240055Z AUTO 04008KT 7SM OVC014 21/20 A3011 RMK AO2  T02140201,,,1400.0,,,68.71,,NE,29.46,27.92,,Overcast
KIGQ,09/24/2016 01:15 UTC,30.1,70.16,68.36,94.03,9.22,40.0,,,,,,134.0,,,,7.0,,KIGQ 240115Z AUTO 04008KT 7SM OVC013 21/20 A3010 RMK AO2  T02120202,,,1300.0,,,68.35,,NE,29.45,27.94,,Overcast
KIGQ,09/24/2016 01:35 UTC,30.11,70.16,68.54,94.03,8.05,50.0,,,,,,112.0,174.0,,,7.0,,KIGQ 240135Z AUTO 05007KT 7SM SCT011 OVC017 21/20 A3011 RMK AO2  T02120203,,,1700.0,,,68.35,,NE,29.46,27.95,,Overcast
KIGQ,09/24/2016 01:55 UTC,30.11,69.62,68.18,94.03,8.05,40.0,,,,,,102.0,173.0,,,7.0,,KIGQ 240155Z AUTO 04007KT 7SM SCT010 BKN017 21/20 A3011 RMK AO2  T02090201,,,1700.0,,,67.82,,NE,29.46,28.0,,Mostly Cloudy
KIGQ,09/24/2016 02:15 UTC,30.12,69.08,68.0,94.03,8.05,40.0,,,902.0,,,102.0,172.0,,,10.0,,KIGQ 240215Z AUTO 04007KT 10SM SCT010 SCT017 SCT090 21/20  A3012 RMK AO2 T02060200,,,,,,67.28,,NE,29.47,28.05,,Partly Cloudy
KIGQ,09/24/2016 02:35 UTC,30.12,69.08,68.0,94.03,6.91,40.0,,,903.0,,,102.0,152.0,,,10.0,,KIGQ 240235Z AUTO 04006KT 10SM SCT010 SCT015 BKN090 21/20  A3012 RMK AO2 T02060200,,,9000.0,,,67.28,,NE,29.47,28.05,,Mostly Cloudy
KIGQ,09/24/2016 02:55 UTC,30.12,69.08,67.64,94.03,9.22,40.0,,,,,,153.0,903.0,,,10.0,,KIGQ 240255Z AUTO 04008KT 10SM BKN015 BKN090 21/20 A3012 RMK AO2  T02060198,,,1500.0,,,67.28,,NE,29.47,28.05,,Mostly Cloudy
KIGQ,09/24/2016 03:15 UTC,30.12,69.44,68.0,94.03,6.91,30.0,,,,,,154.0,,,,10.0,,KIGQ 240315Z AUTO 03006KT 10SM OVC015 21/20 A3012 RMK AO2  T02080200,,,1500.0,,,67.64,,NNE,29.47,28.02,,Overcast
KIGQ,09/24/2016 03:35 UTC,30.13,69.8,68.0,94.03,6.91,50.0,,,,,,102.0,174.0,,,10.0,,KIGQ 240335Z AUTO 05006KT 10SM SCT010 OVC017 21/20 A3013 RMK AO2  T02100200,,,1700.0,,,67.99,,NE,29.47,27.99,,Overcast
KIGQ,09/24/2016 03:55 UTC,30.13,69.44,67.46,94.03,6.91,40.0,,,,,,122.0,174.0,,,10.0,,KIGQ 240355Z AUTO 04006KT 10SM SCT012 OVC017 21/20 A3013 RMK AO2  T02080197,,,1700.0,,,67.64,,NE,29.47,28.02,,Overcast
KIGQ,09/24/2016 04:15 UTC,30.13,68.9,67.28,94.03,8.05,40.0,,,,,,133.0,194.0,,,10.0,,KIGQ 240415Z AUTO 04007KT 10SM BKN013 OVC019 21/20 A3013 RMK AO2  T02050196,,,1300.0,,,67.1,,NE,29.47,28.06,,Overcast
KIGQ,09/24/2016 04:35 UTC,30.13,68.9,67.1,94.03,8.05,40.0,,,,,,114.0,,,,10.0,,KIGQ 240435Z AUTO 04007KT 10SM OVC011 21/20 A3013 RMK AO2  T02050195,,,1100.0,,,67.1,,NE,29.47,28.06,,Overcast
KIGQ,09/24/2016 04:55 UTC,30.13,68.36,67.1,100.0,6.91,40.0,,,,,,114.0,,,,10.0,,KIGQ 240455Z AUTO 04006KT 10SM OVC011 20/20 A3013 RMK AO2  T02020195,,,1100.0,,,68.36,,NE,29.47,27.99,,Overcast
KIGQ,09/24/2016 05:15 UTC,30.13,68.36,67.1,100.0,6.91,40.0,,,,,,94.0,,,,10.0,,KIGQ 240515Z AUTO 04006KT 10SM OVC009 20/20 A3013 RMK AO2  T02020195,,,900.0,,,68.36,,NE,29.47,27.99,,Overcast
KIGQ,09/24/2016 05:35 UTC,30.13,68.36,67.1,100.0,8.05,40.0,,,,,,94.0,,,,10.0,,KIGQ 240535Z AUTO 04007KT 10SM OVC009 20/20 A3013 RMK AO2  T02020195,,,900.0,,,68.36,,NE,29.47,27.99,,Overcast
KIGQ,09/24/2016 05:55 UTC,30.13,68.36,67.1,100.0,6.91,40.0,,,,,,94.0,,,,10.0,,KIGQ 240555Z AUTO 04006KT 10SM OVC009 20/20 A3013 RMK AO2  T02020195 10216 20201 402350195,70.88,68.18,900.0,74.3,67.1,68.36,,NE,29.47,27.99,,Overcast
KIGQ,09/24/2016 06:15 UTC,30.13,68.18,66.74,93.98,5.75,50.0,,,,,,114.0,,,,10.0,,KIGQ 240615Z AUTO 05005KT 10SM OVC011 20/19 A3013 RMK AO2  T02010193,,,1100.0,,,66.37,,NE,29.47,28.12,,Overcast
KIGQ,09/24/2016 06:35 UTC,30.13,68.36,66.56,93.98,9.22,60.0,,,,,,114.0,,,,10.0,,KIGQ 240635Z AUTO 06008KT 10SM OVC011 20/19 A3013 RMK AO2  T02020192,,,1100.0,,,66.55,,ENE,29.47,28.11,,Overcast
KIGQ,09/24/2016 06:55 UTC,30.14,68.0,66.2,93.98,5.75,50.0,,,,,,114.0,,,,10.0,,KIGQ 240655Z AUTO 05005KT 10SM OVC011 20/19 A3014 RMK AO2  T02000190,,,1100.0,,,66.19,,NE,29.48,28.15,,Overcast
KIGQ,09/24/2016 07:15 UTC,30.13,68.0,66.2,93.98,5.75,60.0,,,,,,114.0,,,,10.0,,KIGQ 240715Z AUTO 06005KT 10SM OVC011 20/19 A3013 RMK AO2  T02000190,,,1100.0,,,66.19,,ENE,29.47,28.14,,Overcast
KIGQ,09/24/2016 07:35 UTC,30.13,68.0,66.2,93.98,6.91,60.0,,,,,,94.0,,,,7.0,,KIGQ 240735Z AUTO 06006KT 7SM OVC009 20/19 A3013 RMK AO2  T02000190,,,900.0,,,66.19,,ENE,29.47,28.14,,Overcast
KIGQ,09/24/2016 07:55 UTC,30.14,67.82,66.2,93.98,4.61,70.0,,,,,,94.0,,,,7.0,,KIGQ 240755Z AUTO 07004KT 7SM OVC009 20/19 A3014 RMK AO2  T01990190,,,900.0,,,66.01,,ENE,29.48,28.16,,Overcast
KIGQ,09/24/2016 08:15 UTC,30.13,67.28,65.66,93.98,6.91,90.0,,,,,,94.0,,,,7.0,,KIGQ 240815Z AUTO 09006KT 7SM OVC009 20/19 A3013 RMK AO2  T01960187,,,900.0,,,65.48,,E,29.47,28.19,,Overcast
KIGQ,09/24/2016 08:35 UTC,30.14,67.1,65.48,93.98,6.91,90.0,,,,,,94.0,,,,7.0,,KIGQ 240835Z AUTO 09006KT 7SM OVC009 20/19 A3014 RMK AO2  T01950186,,,900.0,,,65.3,,E,29.48,28.22,,Overcast
KIGQ,09/24/2016 08:55 UTC,30.14,67.1,65.3,93.98,5.75,80.0,,,,,,94.0,,,,7.0,,KIGQ 240855Z AUTO 08005KT 7SM OVC009 20/19 A3014 RMK AO2  T01950185,,,900.0,,,65.3,,E,29.48,28.22,,Overcast
KIGQ,09/24/2016 09:15 UTC,30.14,66.92,65.3,100.0,5.75,70.0,,,,,,94.0,,,,7.0,,KIGQ 240915Z AUTO 07005KT 7SM OVC009 19/19 A3014 RMK AO2  T01940185,,,900.0,,,66.92,,ENE,29.48,28.12,,Overcast
KIGQ,09/24/2016 09:35 UTC,30.14,66.2,64.4,93.94,5.75,90.0,,,,,,114.0,,,,10.0,,KIGQ 240935Z AUTO 09005KT 10SM OVC011 19/18 A3014 RMK AO2  T01900180,,,1100.0,,,64.39,,E,29.48,28.28,,Overcast
KIGQ,09/24/2016 09:55 UTC,30.15,65.84,64.4,93.94,3.44,80.0,,,,,,112.0,224.0,,,10.0,,KIGQ 240955Z AUTO 08003KT 10SM SCT011 OVC022 19/18 A3015 RMK AO2  T01880180,,,2200.0,,,64.03,,E,29.49,28.32,,Overcast
KIGQ,09/24/2016 10:15 UTC,30.15,65.84,64.4,93.94,3.44,70.0,,,,,,113.0,224.0,,,10.0,,KIGQ 241015Z AUTO 07003KT 10SM BKN011 OVC022 19/18 A3015 RMK AO2  T01880180,,,1100.0,,,64.03,,ENE,29.49,28.32,,Overcast
KIGQ,09/24/2016 10:35 UTC,30.16,65.84,64.4,93.94,0.0,0.0,,,,,,94.0,,,,10.0,,KIGQ 241035Z AUTO 00000KT 10SM OVC009 19/18 A3016 RMK AO2  T01880180,,,900.0,,,64.03,,N,29.5,28.33,,Overcast
KIGQ,09/24/2016 10:55 UTC,30.16,65.84,64.22,93.94,5.75,50.0,,,,,,94.0,,,,10.0,,KIGQ 241055Z AUTO 05005KT 10SM OVC009 19/18 A3016 RMK AO2  T01880179,,,900.0,,,64.03,,NE,29.5,28.33,,Overcast
KIGQ,09/24/2016 11:15 UTC,30.17,65.84,64.04,93.94,3.44,60.0,,,,,,114.0,,,,10.0,,KIGQ 241115Z AUTO 06003KT 10SM OVC011 19/18 A3017 RMK AO2  T01880178,,,1100.0,,,64.03,,ENE,29.51,28.34,,Overcast
KIGQ,09/24/2016 11:35 UTC,30.17,66.2,63.86,93.94,4.61,70.0,,,,,,114.0,,,,10.0,,KIGQ 241135Z AUTO 07004KT 10SM OVC011 19/18 A3017 RMK AO2  T01900177,,,1100.0,,,64.39,,ENE,29.51,28.31,,Overcast
KIGQ,09/24/2016 11:55 UTC,30.17,66.2,63.86,93.94,5.75,80.0,,,,,,114.0,,,,10.0,,KIGQ 241155Z AUTO 08005KT 10SM OVC011 19/18 A3017 RMK AO2  T01900177 10202 20188,68.36,65.84,1100.0,,,64.39,,E,29.51,28.31,,Overcast
KIGQ,09/24/2016 12:15 UTC,30.17,66.2,63.86,93.94,4.61,80.0,,,,,,114.0,,,,10.0,,KIGQ 241215Z AUTO 08004KT 10SM OVC011 19/18 A3017 RMK AO2  T01900177,,,1100.0,,,64.39,,E,29.51,28.31,,Overcast
KIGQ,09/24/2016 12:35 UTC,30.18,66.02,63.5,93.94,5.75,90.0,,,,,,114.0,,,,10.0,,KIGQ 241235Z AUTO 09005KT 10SM OVC011 19/18 A3018 RMK AO2  T01890175,,,1100.0,,,64.21,,E,29.52,28.34,,Overcast
KIGQ,09/24/2016 12:55 UTC,30.19,65.84,63.5,93.94,5.75,100.0,,,,,,114.0,,,,10.0,,KIGQ 241255Z AUTO 10005KT 10SM OVC011 19/18 A3019 RMK AO2  T01880175,,,1100.0,,,64.03,,E,29.53,28.36,,Overcast
KIGQ,09/24/2016 13:15 UTC,30.19,65.84,63.5,93.94,6.91,80.0,,,,,,114.0,,,,7.0,,KIGQ 241315Z AUTO 08006KT 7SM OVC011 19/18 A3019 RMK AO2  T01880175,,,1100.0,,,64.03,,E,29.53,28.36,,Overcast
KIGQ,09/24/2016 13:35 UTC,30.19,66.02,63.68,93.94,5.75,60.0,,,,,,114.0,,,,7.0,,KIGQ 241335Z AUTO 06005KT 7SM OVC011 19/18 A3019 RMK AO2  T01890176,,,1100.0,,,64.21,,ENE,29.53,28.35,,Overcast
KIGQ,09/24/2016 13:55 UTC,30.2,66.2,64.22,93.94,6.91,80.0,,,,,,94.0,,,,7.0,,KIGQ 241355Z AUTO 08006KT 7SM OVC009 19/18 A3020 RMK AO2  T01900179,,,900.0,,,64.39,,E,29.54,28.34,,Overcast
KIGQ,09/24/2016 14:15 UTC,30.19,66.2,64.22,93.94,5.75,80.0,,,,,,94.0,,,,7.0,,KIGQ 241415Z AUTO 08005KT 7SM OVC009 19/18 A3019 RMK AO2  T01900179,,,900.0,,,64.39,,E,29.53,28.33,,Overcast
KIGQ,09/24/2016 14:35 UTC,30.19,66.74,64.58,93.94,3.44,60.0,,,,,,94.0,,,,7.0,,KIGQ 241435Z AUTO 06003KT 7SM OVC009 19/18 A3019 RMK AO2  T01930181,,,900.0,,,64.93,,ENE,29.53,28.29,,Overcast
KIGQ,09/24/2016 14:55 UTC,30.2,67.82,64.58,88.29,0.0,0.0,,,,,,94.0,,,,7.0,,KIGQ 241455Z AUTO 00000KT 7SM OVC009 20/18 A3020 RMK AO2  T01990181,,,900.0,,,64.21,,N,29.54,28.33,,Overcast
KIGQ,09/24/2016 15:15 UTC,30.19,68.54,65.12,88.29,6.91,80.0,,,,,,114.0,,,,7.0,,KIGQ 241515Z AUTO 08006KT 7SM OVC011 20/18 A3019 RMK AO2  T02030184,,,1100.0,,,64.92,,E,29.53,28.27,,Overcast
KIGQ,09/24/2016 15:35 UTC,30.2,69.8,65.3,88.37,4.61,50.0,,,,,,113.0,553.0,,,10.0,,KIGQ 241535Z AUTO 05004KT 10SM BKN011 BKN055 21/19 A3020 RMK AO2  T02100185,,,1100.0,,,66.19,,NE,29.54,28.18,,Mostly Cloudy
KIGQ,09/24/2016 15:55 UTC,30.19,70.7,65.48,83.13,6.91,90.0,,,,,,134.0,,,,10.0,,KIGQ 241555Z AUTO 09006KT 10SM OVC013 22/19 A3019 RMK AO2  T02150186,,,1300.0,,,65.3,,E,29.53,28.22,,Overcast
KIGQ,09/24/2016 16:15 UTC,30.19,71.78,66.02,83.13,4.61,80.0,,,,,,133.0,,,,10.0,,KIGQ 241615Z AUTO 08004KT 10SM BKN013 22/19 A3019 RMK AO2  T02210189,,,1300.0,,,66.36,,E,29.53,28.13,,Mostly Cloudy
KIGQ,09/24/2016 16:35 UTC,30.19,73.76,66.56,78.24,4.61,70.0,,,,,,173.0,,,,10.0,,KIGQ 241635Z AUTO 07004KT 10SM BKN017 23/19 A3019 RMK AO2  T02320192,,,1700.0,,,66.53,,ENE,29.53,28.1,,Mostly Cloudy
KIGQ,09/24/2016 16:55 UTC,30.19,75.2,67.1,78.39,0.0,0.0,,,,,,193.0,,,,10.0,,KIGQ 241655Z AUTO 00000KT 10SM BKN019 24/20 A3019 RMK AO2  T02400195,,,1900.0,,,67.99,,N,29.53,27.98,,Mostly Cloudy
KIGQ,09/24/2016 17:15 UTC,30.18,75.74,66.92,73.67,6.91,80.0,,,,,,213.0,,,,10.0,,KIGQ 241715Z AUTO 08006KT 10SM BKN021 24/19 A3018 RMK AO2  T02430194,,,2100.0,,,66.71,,E,29.52,28.05,,Mostly Cloudy
KIGQ,09/24/2016 17:35 UTC,30.18,76.1,66.92,69.4,0.0,0.0,,,,,,233.0,,,,10.0,,KIGQ 241735Z AUTO 00000KT 10SM BKN023 25/19 A3018 RMK AO2  T02450194,,,2300.0,,,65.33,,N,29.52,28.14,,Mostly Cloudy
KIGQ,09/24/2016 17:55 UTC,30.18,76.1,67.1,73.85,4.61,30.0,,,,,,233.0,293.0,,,10.0,,KIGQ 241755Z AUTO 03004KT 10SM BKN023 BKN029 25/20 A3018 RMK AO2  T02450195 10248 20188,76.64,65.84,2300.0,,,67.13,,NNE,29.52,28.02,,Mostly Cloudy
KIGQ,09/24/2016 18:15 UTC,30.17,76.28,67.28,73.85,3.44,60.0,,,,,,233.0,293.0,,,10.0,,KIGQ 241815Z AUTO 06003KT 10SM BKN023 BKN029 25/20 A3017 RMK AO2  T02460196,,,2300.0,,,67.3,,ENE,29.51,27.99,,Mostly Cloudy
KIGQ,09/24/2016 18:35 UTC,30.16,75.74,67.1,78.39,9.22,30.0,,,,,,252.0,,,,10.0,,KIGQ 241835Z AUTO 03008KT 10SM SCT025 24/20 A3016 RMK AO2  T02430195,,,,,,68.52,,NNE,29.5,27.9,,Partly Cloudy
KIGQ,09/24/2016 18:55 UTC,30.16,76.28,67.1,73.85,4.61,50.0,,,,,,1.0,,,,10.0,,KIGQ 241855Z AUTO 05004KT 10SM CLR 25/20 A3016 RMK AO2  T02460195,,,,,,67.3,,NE,29.5,27.98,,Clear
KIGQ,09/24/2016 19:15 UTC,30.15,76.64,67.28,73.85,9.22,40.0,,,,,,1.0,,,,10.0,,KIGQ 241915Z AUTO 04008KT 10SM CLR 25/20 A3015 RMK AO2  T02480196,,,,,,67.65,,NE,29.49,27.94,,Clear
KIGQ,09/24/2016 19:35 UTC,30.15,76.64,67.1,73.85,9.22,30.0,,,,,,1.0,,,,10.0,,KIGQ 241935Z AUTO 03008KT 10SM CLR 25/20 A3015 RMK AO2  T02480195,,,,,,67.65,,NNE,29.49,27.94,,Clear
KIGQ,09/24/2016 19:55 UTC,30.15,75.56,66.38,73.67,10.36,50.0,,,,,,502.0,,,,10.0,,KIGQ 241955Z AUTO 05009KT 10SM SCT050 24/19 A3015 RMK AO2  T02420191,,,,,,66.54,,NE,29.49,28.03,,Partly Cloudy
KIGQ,09/24/2016 20:15 UTC,30.14,75.02,66.2,73.67,5.75,30.0,,,,,,502.0,,,,10.0,,KIGQ 242015Z AUTO 03005KT 10SM SCT050 24/19 A3014 RMK AO2  T02390190,,,,,,66.01,,NNE,29.48,28.06,,Partly Cloudy
KIGQ,09/24/2016 20:35 UTC,30.14,74.48,66.02,73.67,9.22,60.0,,,,,,1.0,,,,10.0,,KIGQ 242035Z AUTO 06008KT 10SM CLR 24/19 A3014 RMK AO2  T02360189,,,,,,65.49,,ENE,29.48,28.11,,Clear
KIGQ,09/24/2016 20:55 UTC,30.14,74.3,66.2,73.67,9.22,60.0,,,,,,1.0,,,,10.0,,KIGQ 242055Z AUTO 06008KT 10SM CLR 24/19 A3014 RMK AO2  T02350190,,,,,,65.32,,ENE,29.48,28.12,,Clear
KIGQ,09/24/2016 21:15 UTC,30.13,73.94,66.2,78.24,5.75,50.0,,,,,,1.0,,,,10.0,,KIGQ 242115Z AUTO 05005KT 10SM CLR 23/19 A3013 RMK AO2  T02330190,,,,,,66.71,,NE,29.47,28.02,,Clear
KIGQ,09/24/2016 21:35 UTC,30.13,73.94,66.02,78.24,5.75,60.0,,,,,,1.0,,,,10.0,,KIGQ 242135Z AUTO 06005KT 10SM CLR 23/19 A3013 RMK AO2  T02330189,,,,,,66.71,,ENE,29.47,28.02,,Clear
KIGQ,09/24/2016 21:55 UTC,30.13,73.04,65.66,78.24,5.75,30.0,,,,,,1.0,,,,10.0,,KIGQ 242155Z AUTO 03005KT 10SM CLR 23/19 A3013 RMK AO2  T02280187,,,,,,65.83,,NNE,29.47,28.09,,Clear
KIGQ,09/24/2016 22:15 UTC,30.13,72.5,65.84,78.24,6.91,40.0,,,,,,753.0,,,,10.0,,KIGQ 242215Z AUTO 04006KT 10SM BKN075 23/19 A3013 RMK AO2  T02250188,,,7500.0,,,65.31,,NE,29.47,28.13,,Mostly Cloudy
KIGQ,09/24/2016 22:35 UTC,30.13,72.68,66.2,78.24,6.91,30.0,,,,,,754.0,,,,10.0,,KIGQ 242235Z AUTO 03006KT 10SM OVC075 23/19 A3013 RMK AO2  T02260190,,,7500.0,,,65.48,,NNE,29.47,28.12,,Overcast
KIGQ,09/24/2016 22:55 UTC,30.12,72.14,66.2,83.13,5.75,50.0,,,,,,754.0,,,,10.0,,KIGQ 242255Z AUTO 05005KT 10SM OVC075 22/19 A3012 RMK AO2  T02230190,,,7500.0,,,66.71,,NE,29.47,28.05,,Overcast
KIGQ,09/24/2016 23:15 UTC,30.12,71.78,65.84,83.13,5.75,50.0,,,,,,753.0,,,,10.0,,KIGQ 242315Z AUTO 05005KT 10SM BKN075 22/19 A3012 RMK AO2  T02210188,,,7500.0,,,66.36,,NE,29.47,28.07,,Mostly Cloudy
KIGQ,09/24/2016 23:35 UTC,30.11,71.06,65.84,83.13,5.75,40.0,,,,,,752.0,,,,10.0,,KIGQ 242335Z AUTO 04005KT 10SM SCT075 22/19 A3011 RMK AO2  T02170188,,,,,,65.65,,NE,29.46,28.12,,Partly Cloudy
KIGQ,09/24/2016 23:55 UTC,30.11,70.52,66.2,88.37,5.75,40.0,,,,,,1.0,,,,10.0,,KIGQ 242355Z AUTO 04005KT 10SM CLR 21/19 A3011 RMK AO2 T02140190  10250 20214,77.0,70.52,,,,66.9,,NE,29.46,28.05,,Clear
KIGQ,09/25/2016 00:15 UTC,30.11,70.16,66.38,88.37,4.61,40.0,,,,,,1.0,,,,10.0,,KIGQ 250015Z AUTO 04004KT 10SM CLR 21/19 A3011 RMK AO2  T02120191,,,,,,66.54,,NE,29.46,28.07,,Clear
KIGQ,09/25/2016 00:35 UTC,30.11,69.44,66.56,88.37,4.61,50.0,,,,,,1.0,,,,10.0,,KIGQ 250035Z AUTO 05004KT 10SM CLR 21/19 A3011 RMK AO2  T02080192,,,,,,65.83,,NE,29.46,28.13,,Clear
KIGQ,09/25/2016 00:55 UTC,30.11,69.44,66.74,88.37,4.61,50.0,,,,,,1.0,,,,10.0,,KIGQ 250055Z AUTO 05004KT 10SM CLR 21/19 A3011 RMK AO2  T02080193,,,,,,65.83,,NE,29.46,28.13,,Clear
KIGQ,09/25/2016 01:15 UTC,30.11,69.44,66.74,88.37,5.75,50.0,,,,,,1.0,,,,10.0,,KIGQ 250115Z AUTO 05005KT 10SM CLR 21/19 A3011 RMK AO2  T02080193,,,,,,65.83,,NE,29.46,28.13,,Clear
KIGQ,09/25/2016 01:35 UTC,30.12,69.8,66.74,88.37,4.61,70.0,,,,,,1.0,,,,10.0,,KIGQ 250135Z AUTO 07004KT 10SM CLR 21/19 A3012 RMK AO2  T02100193,,,,,,66.19,,ENE,29.47,28.11,,Clear
KIGQ,09/25/2016 01:55 UTC,30.12,69.62,66.56,88.37,3.44,100.0,,,,,,1.0,,,,10.0,,KIGQ 250155Z AUTO 10003KT 10SM CLR 21/19 A3012 RMK AO2  T02090192,,,,,,66.01,,E,29.47,28.13,,Clear
KIGQ,09/25/2016 02:15 UTC,30.13,69.08,66.38,88.37,3.44,80.0,,,,,,1.0,,,,10.0,,KIGQ 250215Z AUTO 08003KT 10SM CLR 21/19 A3013 RMK AO2  T02060191,,,,,,65.48,,E,29.47,28.17,,Clear
KIGQ,09/25/2016 02:35 UTC,30.13,68.9,66.38,88.37,0.0,0.0,,,,,,1.0,,,,10.0,,KIGQ 250235Z AUTO 00000KT 10SM CLR 21/19 A3013 RMK AO2  T02050191,,,,,,65.3,,N,29.47,28.18,,Clear
KIGQ,09/25/2016 02:55 UTC,30.13,68.36,66.02,93.98,3.44,90.0,,,,,,1.0,,,,10.0,,KIGQ 250255Z AUTO 09003KT 10SM CLR 20/19 A3013 RMK AO2  T02020189,,,,,,66.55,,E,29.47,28.11,,Clear
KIGQ,09/25/2016 03:15 UTC,30.13,68.18,66.02,93.98,3.44,90.0,,,,,,1.0,,,,10.0,,KIGQ 250315Z AUTO 09003KT 10SM CLR 20/19 A3013 RMK AO2  T02010189,,,,,,66.37,,E,29.47,28.12,,Clear
KIGQ,09/25/2016 03:35 UTC,30.14,67.64,65.66,93.98,3.44,110.0,,,,,,1.0,,,,10.0,,KIGQ 250335Z AUTO 11003KT 10SM CLR 20/19 A3014 RMK AO2  T01980187,,,,,,65.83,,ESE,29.48,28.17,,Clear
KIGQ,09/25/2016 03:55 UTC,30.14,67.28,65.3,93.98,4.61,100.0,,,,,,1.0,,,,10.0,,KIGQ 250355Z AUTO 10004KT 10SM CLR 20/19 A3014 RMK AO2  T01960185,,,,,,65.48,,E,29.48,28.2,,Clear
KIGQ,09/25/2016 04:15 UTC,30.14,67.1,64.94,88.29,4.61,110.0,,,,,,1.0,,,,10.0,,KIGQ 250415Z AUTO 11004KT 10SM CLR 20/18 A3014 RMK AO2  T01950183,,,,,,63.5,,ESE,29.48,28.32,,Clear
KIGQ,09/25/2016 04:35 UTC,30.14,66.56,64.4,93.94,4.61,110.0,,,,,,1.0,,,,10.0,,KIGQ 250435Z AUTO 11004KT 10SM CLR 19/18 A3014 RMK AO2  T01920180,,,,,,64.75,,ESE,29.48,28.26,,Clear
KIGQ,09/25/2016 04:55 UTC,30.14,66.74,64.4,93.94,3.44,110.0,,,,,,1.0,,,,10.0,,KIGQ 250455Z AUTO 11003KT 10SM CLR 19/18 A3014 RMK AO2  T01930180,,,,,,64.93,,ESE,29.48,28.24,,Clear
KIGQ,09/25/2016 05:15 UTC,30.14,67.1,63.86,88.29,6.91,130.0,,,,,,1.0,,,,10.0,,KIGQ 250515Z AUTO 13006KT 10SM CLR 20/18 A3014 RMK AO2  T01950177,,,,,,63.5,,SE,29.48,28.32,,Clear
KIGQ,09/25/2016 05:35 UTC,30.13,67.1,63.5,88.29,6.91,130.0,,,,,,1.0,,,,10.0,,KIGQ 250535Z AUTO 13006KT 10SM CLR 20/18 A3013 RMK AO2  T01950175,,,,,,63.5,,SE,29.47,28.31,,Clear
KIGQ,09/25/2016 05:55 UTC,30.13,67.1,62.96,82.89,6.91,130.0,,,,,,1.0,,,,10.0,,KIGQ 250555Z AUTO 13006KT 10SM CLR 20/17 A3013 RMK AO2 T01950172  10214 20191 402500188,70.52,66.38,,77.0,65.84,61.69,,SE,29.47,28.42,,Clear
KIGQ,09/25/2016 06:15 UTC,30.13,66.56,62.6,88.2,8.05,130.0,,,,,,1.0,,,,10.0,,KIGQ 250615Z AUTO 13007KT 10SM CLR 19/17 A3013 RMK AO2  T01920170,,,,,,62.94,,SE,29.47,28.35,,Clear
KIGQ,09/25/2016 06:35 UTC,30.13,66.2,62.24,88.2,6.91,130.0,,,,,,1.0,,,,10.0,,KIGQ 250635Z AUTO 13006KT 10SM CLR 19/17 A3013 RMK AO2  T01900168,,,,,,62.58,,SE,29.47,28.38,,Clear
KIGQ,09/25/2016 06:55 UTC,30.13,65.66,61.88,88.2,6.91,130.0,,,,,,1.0,,,,10.0,,KIGQ 250655Z AUTO 13006KT 10SM CLR 19/17 A3013 RMK AO2  T01870166,,,,,,62.05,,SE,29.47,28.42,,Clear
KIGQ,09/25/2016 07:15 UTC,30.14,65.66,61.7,88.2,5.75,140.0,,,,,,1.0,,,,10.0,,KIGQ 250715Z AUTO 14005KT 10SM CLR 19/17 A3014 RMK AO2  T01870165,,,,,,62.05,,SE,29.48,28.43,,Clear
KIGQ,09/25/2016 07:35 UTC,30.13,65.12,61.16,88.11,5.75,130.0,,,,,,1.0,,,,10.0,,KIGQ 250735Z AUTO 13005KT 10SM CLR 18/16 A3013 RMK AO2  T01840162,,,,,,61.49,,SE,29.47,28.45,,Clear
KIGQ,09/25/2016 07:55 UTC,30.13,64.58,60.98,88.11,5.75,140.0,,,,,,1.0,,,,10.0,,KIGQ 250755Z AUTO 14005KT 10SM CLR 18/16 A3013 RMK AO2  T01810161,,,,,,60.95,,SE,29.47,28.49,,Clear
KIGQ,09/25/2016 08:15 UTC,30.12,64.4,60.8,88.11,5.75,140.0,,,,,,1.0,,,,10.0,,KIGQ 250815Z AUTO 14005KT 10SM CLR 18/16 A3012 RMK AO2  T01800160,,,,,,60.78,,SE,29.47,28.5,,Clear
KIGQ,09/25/2016 08:35 UTC,30.12,63.86,60.8,88.11,6.91,130.0,,,,,,1.0,,,,10.0,,KIGQ 250835Z AUTO 13006KT 10SM CLR 18/16 A3012 RMK AO2  T01770160,,,,,,60.25,,SE,29.47,28.53,,Clear
KIGQ,09/25/2016 08:55 UTC,30.12,63.68,60.62,88.11,6.91,140.0,,,,,,1.0,,,,10.0,,KIGQ 250855Z AUTO 14006KT 10SM CLR 18/16 A3012 RMK AO2  T01760159,,,,,,60.07,,SE,29.47,28.55,,Clear
KIGQ,09/25/2016 09:15 UTC,30.12,63.5,60.26,88.11,4.61,140.0,,,,,,1.0,,,,10.0,,KIGQ 250915Z AUTO 14004KT 10SM CLR 18/16 A3012 RMK AO2  T01750157,,,,,,59.89,,SE,29.47,28.56,,Clear
KIGQ,09/25/2016 09:35 UTC,30.12,63.14,59.9,93.84,6.91,140.0,,,,,,552.0,,,,10.0,,KIGQ 250935Z AUTO 14006KT 10SM SCT055 17/16 A3012 RMK AO2  T01730155,,,,,,61.32,,SE,29.47,28.49,,Partly Cloudy
KIGQ,09/25/2016 09:55 UTC,30.11,62.78,59.54,88.02,9.22,140.0,,,,,,552.0,,,,10.0,,KIGQ 250955Z AUTO 14008KT 10SM SCT055 17/15 A3011 RMK AO2  T01710153,,,,,,59.15,,SE,29.46,28.59,,Partly Cloudy
KIGQ,09/25/2016 10:15 UTC,30.12,62.78,59.18,88.02,8.05,140.0,,,,,,602.0,,,,10.0,,KIGQ 251015Z AUTO 14007KT 10SM SCT060 17/15 A3012 RMK AO2  T01710151,,,,,,59.15,,SE,29.47,28.6,,Partly Cloudy
KIGQ,09/25/2016 10:35 UTC,30.12,62.6,58.64,88.02,8.05,140.0,,,,,,602.0,,,,10.0,,KIGQ 251035Z AUTO 14007KT 10SM SCT060 17/15 A3012 RMK AO2  T01700148,,,,,,58.97,,SE,29.47,28.62,,Partly Cloudy
KIGQ,09/25/2016 10:55 UTC,30.11,62.24,58.28,88.02,6.91,140.0,,,,,,1.0,,,,10.0,,KIGQ 251055Z AUTO 14006KT 10SM CLR 17/15 A3011 RMK AO2  T01680146,,,,,,58.62,,SE,29.46,28.63,,Clear
KIGQ,09/25/2016 11:15 UTC,30.12,61.88,58.1,88.02,6.91,150.0,,,,,,1.0,,,,10.0,,KIGQ 251115Z AUTO 15006KT 10SM CLR 17/15 A3012 RMK AO2  T01660145,,,,,,58.26,,SSE,29.47,28.66,,Clear
KIGQ,09/25/2016 11:35 UTC,30.11,61.7,57.56,82.52,5.75,80.0,,,,,,1.0,,,,10.0,,KIGQ 251135Z AUTO 08005KT 10SM CLR 17/14 A3011 RMK AO2  T01650142,,,,,,56.28,,E,29.46,28.74,,Clear
KIGQ,09/25/2016 11:55 UTC,30.11,61.34,57.2,87.94,9.22,140.0,,,,,,1.0,,,,10.0,,KIGQ 251155Z AUTO 14008KT 10SM CLR 16/14 A3011 RMK AO2 T01630140  10195 20163,67.1,61.34,,,,57.71,,SE,29.46,28.68,,Clear
KIGQ,09/25/2016 12:15 UTC,30.11,61.7,56.84,82.52,6.91,140.0,,,,,,802.0,,,,10.0,,KIGQ 251215Z AUTO 14006KT 10SM SCT080 17/14 A3011 RMK AO2  T01650138,,,,,,56.28,,SE,29.46,28.74,,Partly Cloudy
KIGQ,09/25/2016 12:35 UTC,30.11,61.88,56.48,82.52,5.75,140.0,,,,,,802.0,,,,10.0,,KIGQ 251235Z AUTO 14005KT 10SM SCT080 17/14 A3011 RMK AO2  T01660136,,,,,,56.46,,SE,29.46,28.73,,Partly Cloudy
KIGQ,09/25/2016 12:55 UTC,30.11,62.6,56.48,82.52,6.91,120.0,,,,,,1.0,,,,10.0,,KIGQ 251255Z AUTO 12006KT 10SM CLR 17/14 A3011 RMK AO2  T01700136,,,,,,57.16,,ESE,29.46,28.69,,Clear
KIGQ,09/25/2016 13:15 UTC,30.11,63.14,56.66,82.52,8.05,160.0,,,,,,1.0,,,,10.0,,KIGQ 251315Z AUTO 16007KT 10SM CLR 17/14 A3011 RMK AO2  T01730137,,,,,,57.69,,SSE,29.46,28.66,,Clear
KIGQ,09/25/2016 13:35 UTC,30.11,64.4,57.38,77.48,8.05,150.0,,,,,,1.0,,,,10.0,,KIGQ 251335Z AUTO 15007KT 10SM CLR 18/14 A3011 RMK AO2  T01800141,,,,,,57.16,,SSE,29.46,28.67,,Clear
KIGQ,09/25/2016 13:55 UTC,30.1,65.48,58.28,77.64,8.05,150.0,,,,,,602.0,702.0,,,10.0,,KIGQ 251355Z AUTO 15007KT 10SM SCT060 SCT070 19/15 A3010 RMK AO2  T01860146,,,,,,58.26,,SSE,29.45,28.6,,Partly Cloudy
KIGQ,09/25/2016 14:15 UTC,30.09,66.74,59.0,77.64,8.05,140.0,,,,,,702.0,,,,10.0,,KIGQ 251415Z AUTO 14007KT 10SM SCT070 19/15 A3009 RMK AO2  T01930150,,,,,,59.49,,SE,29.44,28.51,,Partly Cloudy
KIGQ,09/25/2016 14:35 UTC,30.09,68.0,60.08,77.79,8.05,160.0,,,,,,702.0,,,,10.0,,KIGQ 251435Z AUTO 16007KT 10SM SCT070 20/16 A3009 RMK AO2  T02000156,,,,,,60.77,,SSE,29.44,28.43,,Partly Cloudy
KIGQ,09/25/2016 14:55 UTC,30.09,69.62,61.52,73.15,9.22,140.0,,,,,,702.0,,,,10.0,,KIGQ 251455Z AUTO 14008KT 10SM SCT070 21/16 A3009 RMK AO2  T02090164,,,,,,60.6,,SE,29.44,28.42,,Partly Cloudy
KIGQ,09/25/2016 15:15 UTC,30.09,71.06,62.24,73.32,8.05,160.0,,,,,,1.0,,,,10.0,,KIGQ 251515Z AUTO 16007KT 10SM CLR 22/17 A3009 RMK AO2  T02170168,,,,,,62.05,,SSE,29.44,28.32,,Clear
KIGQ,09/25/2016 15:35 UTC,30.09,72.86,63.68,73.5,9.22,150.0,,,,,,1.0,,,,10.0,,KIGQ 251535Z AUTO 15008KT 10SM CLR 23/18 A3009 RMK AO2  T02270176,,,,,,63.86,,SSE,29.44,28.19,,Clear
KIGQ,09/25/2016 15:55 UTC,30.08,74.66,64.76,69.21,8.05,170.0,,,,,,1.0,,,,10.0,,KIGQ 251555Z AUTO 17007KT 10SM CLR 24/18 A3008 RMK AO2  T02370182,,,,,,63.87,,S,29.43,28.16,,Clear
KIGQ,09/25/2016 16:15 UTC,30.08,76.46,65.84,69.4,6.91,160.0,,,,,,1.0,,,,10.0,,KIGQ 251615Z AUTO 16006KT 10SM CLR 25/19 A3008 RMK AO2  T02470188,,,,,,65.68,,SSE,29.43,28.02,,Clear
KIGQ,09/25/2016 16:35 UTC,30.07,77.9,66.2,65.41,8.05,170.0,,,,,,1.0,,,,10.0,,KIGQ 251635Z AUTO 17007KT 10SM CLR 26/19 A3007 RMK AO2  T02550190,,,,,,65.35,,S,29.42,28.01,,Clear
KIGQ,09/25/2016 16:55 UTC,30.06,79.52,66.74,65.41,6.91,160.0,,,,,,1.0,,,,10.0,,KIGQ 251655Z AUTO 16006KT 10SM CLR 26/19 A3006 RMK AO2  T02640193,,,,,,66.89,,SSE,29.41,27.88,,Clear
KIGQ,09/25/2016 17:15 UTC,30.04,80.42,67.46,65.62,8.05,140.0,,,,,,1.0,,,,10.0,,KIGQ 251715Z AUTO 14007KT 010V160 10SM CLR 27/20 A3004 RMK AO2  T02690197,,,,,,67.84,,SE,29.39,27.78,83.04,Clear
KIGQ,09/25/2016 17:35 UTC,30.04,81.86,67.82,61.9,8.05,140.0,,,,,,1.0,,,,10.0,,KIGQ 251735Z AUTO 14007KT 10SM CLR 28/20 A3004 RMK AO2  T02770199,,,,,,67.52,,SE,29.39,27.79,84.57,Clear
KIGQ,09/25/2016 17:55 UTC,30.03,81.5,68.18,61.9,8.05,160.0,,,,,,1.0,,,,10.0,,KIGQ 251755Z AUTO 16007KT 10SM CLR 28/20 A3003 RMK AO2 T02750201  10278 20164,82.04,61.52,,,,67.18,,SSE,29.38,27.81,84.05,Clear
KIGQ,09/25/2016 18:15 UTC,30.02,83.3,68.54,58.42,8.05,150.0,,,,,,1.0,,,,10.0,,KIGQ 251815Z AUTO 15007KT 10SM CLR 29/20 A3002 RMK AO2  T02850203,,,,,,67.2,,SSE,29.37,27.77,86.02,Clear
KIGQ,09/25/2016 18:35 UTC,30.01,83.3,68.72,58.42,10.36,200.0,,,,,,1.0,,,,10.0,,KIGQ 251835Z AUTO 20009KT 10SM CLR 29/20 A3001 RMK AO2  T02850204,,,,,,67.2,,SSW,29.36,27.76,86.02,Clear
KIGQ,09/25/2016 18:55 UTC,30.0,84.2,69.08,62.13,10.36,180.0,,,,,,1.0,,,,10.0,,KIGQ 251855Z AUTO 18009KT 10SM CLR 29/21 A3000 RMK AO2  T02900206,,,,,,69.84,,S,29.35,27.55,88.46,Clear
KIGQ,09/25/2016 19:15 UTC,29.98,84.56,68.9,62.13,8.05,180.0,,,,,,1.0,,,,10.0,,KIGQ 251915Z AUTO 18007KT 10SM CLR 29/21 A2998 RMK AO2  T02920205,,,,,,70.18,,S,29.33,27.5,89.11,Clear
KIGQ,09/25/2016 19:35 UTC,29.97,85.46,68.9,58.66,9.22,140.0,,,,,,1.0,,,,10.0,,KIGQ 251935Z AUTO 14008KT 10SM CLR 30/21 A2997 RMK AO2  T02970205,,,,,,69.35,,SE,29.32,27.54,89.65,Clear
KIGQ,09/25/2016 19:55 UTC,29.96,85.28,68.9,58.66,9.22,170.0,,,,,,552.0,,,,10.0,,KIGQ 251955Z AUTO 17008KT 10SM SCT055 30/21 A2996 RMK AO2  T02960205,,,,,,69.18,,S,29.31,27.55,89.33,Partly Cloudy
KIGQ,09/25/2016 20:15 UTC,29.95,83.84,68.36,58.42,5.75,170.0,,,803.0,,,553.0,703.0,,,10.0,,KIGQ 252015Z AUTO 17005KT 10SM BKN055 BKN070 BKN080 29/20  A2995 RMK AO2 T02880202,,,5500.0,,,67.71,,S,29.3,27.66,86.85,Mostly Cloudy
KIGQ,09/25/2016 20:35 UTC,29.94,83.66,68.54,58.42,8.05,180.0,,,1104.0,,,553.0,803.0,,,10.0,,KIGQ 252035Z AUTO 18007KT 10SM BKN055 BKN080 OVC110 29/20  A2994 RMK AO2 T02870203,,,5500.0,,,67.54,,S,29.29,27.67,86.57,Overcast
KIGQ,09/25/2016 20:55 UTC,29.94,84.02,69.26,62.13,13.8,200.0,,,1203.0,,,552.0,802.0,,,10.0,,KIGQ 252055Z AUTO 20012KT 10SM SCT055 SCT080 BKN120 29/21  A2994 RMK AO2 LTG DSNT SE T02890207,,,12000.0,,,69.67,,SSW,29.29,27.5,88.14,Mostly Cloudy
KIGQ,09/25/2016 21:15 UTC,29.93,83.12,69.44,65.83,12.66,190.0,,,,,,1.0,,,,10.0,,KIGQ 252115Z AUTO 19011KT 10SM CLR 28/21 A2993 RMK AO2  T02840208,,,,,,70.51,,S,29.28,27.44,87.52,Clear
KIGQ,09/25/2016 21:35 UTC,29.92,80.96,68.72,65.62,9.22,190.0,,,,,,1.0,,,,10.0,,KIGQ 252135Z AUTO 19008KT 10SM CLR 27/20 A2992 RMK AO2  T02720204,,,,,,68.36,,S,29.27,27.62,83.85,Clear
KIGQ,09/25/2016 21:55 UTC,29.92,80.6,69.62,69.79,6.91,160.0,,,,,,1.0,,,,10.0,,KIGQ 252155Z AUTO 16006KT 10SM CLR 27/21 A2992 RMK AO2  T02700209,,,,,,69.81,,SSE,29.27,27.51,83.91,Clear
KIGQ,09/25/2016 22:15 UTC,29.91,81.14,70.52,69.79,6.91,160.0,,,,,,1203.0,,,,10.0,,KIGQ 252215Z AUTO 16006KT 10SM BKN120 27/21 A2991 RMK AO2  T02730214,,,12000.0,,,70.33,,SSE,29.26,27.45,84.83,Mostly Cloudy
KIGQ,09/25/2016 22:35 UTC,29.91,80.06,69.98,69.79,10.36,190.0,,,,,,1202.0,,,,10.0,,KIGQ 252235Z AUTO 19009KT 10SM SCT120 27/21 A2991 RMK AO2  T02670211,,,,,,69.3,,S,29.26,27.55,83.02,Partly Cloudy
KIGQ,09/25/2016 22:55 UTC,29.91,79.52,69.98,74.02,11.5,180.0,,,,,,1002.0,1203.0,,,10.0,,KIGQ 252255Z AUTO 18010KT 10SM SCT100 BKN120 26/21 A2991 RMK AO2  LTG DSNT N T02640211,,,12000.0,,,70.5,,S,29.26,27.46,,Mostly Cloudy
KIGQ,09/25/2016 23:15 UTC,29.91,78.98,70.52,74.02,8.05,190.0,,,,,,1202.0,,,,10.0,,KIGQ 252315Z AUTO 19007KT 10SM SCT120 26/21 A2991 RMK AO2  T02610214,,,,,,69.98,,S,29.26,27.51,,Partly Cloudy
KIGQ,09/25/2016 23:35 UTC,29.91,77.0,69.8,78.54,6.91,180.0,,,,,,1.0,,,,10.0,,KIGQ 252335Z AUTO 18006KT 10SM CLR 25/21 A2991 RMK AO2 LTG DSNT N  AND SE T02500210,,,,,,69.8,,S,29.26,27.55,,Clear
KIGQ,09/25/2016 23:55 UTC,29.92,74.66,69.62,83.37,6.91,180.0,,,,,,1.0,,,,10.0,,KIGQ 252355Z AUTO 18006KT 10SM CLR 24/21 A2992 RMK AO2 T02370209  10298 20237,85.64,74.66,,,,69.27,,S,29.27,27.63,,Clear
KIGQ,09/26/2016 00:15 UTC,29.93,73.94,69.8,88.54,8.05,170.0,,,,,,1.0,,,,10.0,,KIGQ 260015Z AUTO 17007KT 10SM CLR 23/21 A2993 RMK AO2  T02330210,,,,,,70.33,,S,29.28,27.57,,Clear
KIGQ,09/26/2016 00:35 UTC,29.92,74.48,69.8,83.37,8.05,160.0,,,,,,1.0,,,,10.0,,KIGQ 260035Z AUTO 16007KT 10SM CLR 24/21 A2992 RMK AO2  T02360210,,,,,,69.09,,SSE,29.27,27.65,,Clear
KIGQ,09/26/2016 00:55 UTC,29.92,74.48,69.98,83.37,8.05,170.0,,,,,,1.0,,,,10.0,,KIGQ 260055Z AUTO 17007KT 10SM CLR 24/21 A2992 RMK AO2  T02360211,,,,,,69.09,,S,29.27,27.65,,Clear
KIGQ,09/26/2016 01:15 UTC,29.92,73.94,69.8,88.54,8.05,190.0,,,,,,1.0,,,,10.0,,KIGQ 260115Z AUTO 19007KT 10SM CLR 23/21 A2992 RMK AO2  T02330210,,,,,,70.33,,S,29.27,27.56,,Clear
KIGQ,09/26/2016 01:35 UTC,29.92,74.3,69.98,83.37,8.05,190.0,,,,,,503.0,,,,10.0,,KIGQ 260135Z AUTO 19007KT 10SM BKN050 24/21 A2992 RMK AO2  T02350211,,,5000.0,,,68.91,,S,29.27,27.66,,Mostly Cloudy
KIGQ,09/26/2016 01:55 UTC,29.93,74.48,69.44,83.37,8.05,210.0,,,,,,503.0,653.0,,,10.0,,KIGQ 260155Z AUTO 21007KT 10SM BKN050 BKN065 24/21 A2993 RMK AO2  T02360208,,,5000.0,,,69.09,,SSW,29.28,27.66,,Mostly Cloudy
KIGQ,09/26/2016 02:15 UTC,29.94,74.3,69.44,83.37,9.22,220.0,,13.0,654.0,,,252.0,503.0,,,10.0,,KIGQ 260215Z AUTO 22008KT 10SM -RA SCT025 BKN050 OVC065 24/21  A2994 RMK AO2 T02350208,,,5000.0,,,68.91,,SW,29.29,27.68,,Light Rain
KIGQ,09/26/2016 02:35 UTC,29.94,74.48,69.26,83.37,9.22,230.0,,,703.0,,,252.0,502.0,,,10.0,,KIGQ 260235Z AUTO 23008KT 10SM SCT025 SCT050 BKN070 24/21  A2994 RMK AO2 T02360207,,,7000.0,,,69.09,,SW,29.29,27.67,,Mostly Cloudy
KIGQ,09/26/2016 02:55 UTC,29.94,74.3,69.26,83.37,14.97,270.0,,13.0,1103.0,,,502.0,702.0,,,10.0,,KIGQ 260255Z AUTO 27013KT 10SM -RA SCT050 SCT070 BKN110 24/21  A2994 RMK AO2 T02350207,,,11000.0,,,68.91,,W,29.29,27.68,,Light Rain
KIGQ,09/26/2016 03:15 UTC,29.94,73.04,68.18,83.25,11.5,260.0,16.11,,1102.0,,,502.0,702.0,,,10.0,,KIGQ 260315Z AUTO 26010G14KT 10SM SCT050 SCT070 SCT110 23/20  A2994 RMK AO2 T02280201,,,,,,67.64,,W,29.29,27.79,,Partly Cloudy
KIGQ,09/26/2016 03:35 UTC,29.94,72.68,68.18,83.25,8.05,270.0,,,653.0,,,242.0,502.0,,,10.0,,KIGQ 260335Z AUTO 27007KT 10SM SCT024 SCT050 BKN065 23/20  A2994 RMK AO2 T02260201,,,6500.0,,,67.28,,W,29.29,27.82,,Mostly Cloudy
KIGQ,09/26/2016 03:55 UTC,29.95,70.88,62.24,73.32,12.66,280.0,19.57,,653.0,,,263.0,553.0,,,10.0,,KIGQ 260355Z AUTO 28011G17KT 10SM BKN026 BKN055 BKN065 22/17  A2995 RMK AO2 T02160168,,,2600.0,,,61.88,,W,29.3,28.19,,Mostly Cloudy
KIGQ,09/26/2016 04:15 UTC,29.95,69.98,60.98,73.15,9.22,290.0,,,553.0,,,282.0,493.0,,,10.0,,KIGQ 260415Z AUTO 29008KT 10SM SCT028 BKN049 BKN055 21/16  A2995 RMK AO2 T02110161,,,4900.0,,,60.94,,WNW,29.3,28.25,,Mostly Cloudy
KIGQ,09/26/2016 04:35 UTC,29.96,68.9,59.36,68.61,10.36,290.0,,,,,,302.0,492.0,,,10.0,,KIGQ 260435Z AUTO 29009KT 10SM SCT030 SCT049 21/15 A2996 RMK AO2  T02050152,,,,,,58.1,,WNW,29.31,28.42,,Partly Cloudy
KIGQ,09/26/2016 04:55 UTC,29.96,68.0,57.74,68.41,10.36,280.0,,,553.0,,,322.0,472.0,,,10.0,,KIGQ 260455Z AUTO 28009KT 10SM SCT032 SCT047 BKN055 20/14  A2996 RMK AO2 T02000143,,,5500.0,,,57.15,,W,29.31,28.48,,Mostly Cloudy
KIGQ,09/26/2016 05:15 UTC,29.96,67.46,56.84,68.41,8.05,290.0,16.11,,,,,552.0,704.0,,,10.0,,KIGQ 260515Z AUTO 29007G14KT 10SM SCT055 OVC070 20/14 A2996 RMK AO2 T01970138,,,7000.0,,,56.64,,WNW,29.31,28.51,,Overcast
KIGQ,09/26/2016 05:35 UTC,29.96,67.1,55.4,64.1,9.22,300.0,,,,,,704.0,,,,10.0,,KIGQ 260535Z AUTO 30008KT 10SM OVC070 20/13 A2996 RMK AO2  T01950130,,,7000.0,,,54.49,,WNW,29.31,28.61,,Overcast
KIGQ,09/26/2016 05:55 UTC,29.97,66.92,55.4,68.2,11.5,290.0,18.41,,,,,553.0,704.0,,,10.0,,KIGQ 260555Z AUTO 29010G16KT 250V310 10SM BKN055 OVC070 19/13  A2997 RMK AO2 T01940130 10240 20194 402980163,75.2,66.92,5500.0,85.64,61.34,56.03,,WNW,29.32,28.56,,Overcast
KIGQ,09/26/2016 06:15 UTC,29.96,66.38,54.5,68.2,6.91,290.0,16.11,,,,,554.0,,,,10.0,,KIGQ 260615Z AUTO 29006G14KT 10SM OVC055 19/13 A2996 RMK AO2  T01910125,,,5500.0,,,55.52,,WNW,29.31,28.57,,Overcast
KIGQ,09/26/2016 06:35 UTC,29.97,66.2,54.68,68.2,10.36,290.0,,,,,,554.0,,,,10.0,,KIGQ 260635Z AUTO 29009KT 10SM OVC055 19/13 A2997 RMK AO2  T01900126,,,5500.0,,,55.34,,WNW,29.32,28.59,,Overcast
KIGQ,09/26/2016 06:55 UTC,29.98,65.84,54.86,68.2,14.97,280.0,19.57,13.0,,,,654.0,,,,10.0,,KIGQ 260655Z AUTO 28013G17KT 10SM -RA OVC065 19/13 A2998 RMK AO2  T01880127,,,6500.0,,,55.0,,W,29.33,28.62,,Light Rain
KIGQ,09/26/2016 07:15 UTC,29.99,64.04,55.4,72.6,9.22,290.0,12.66,13.0,,,,552.0,654.0,,,10.0,,KIGQ 260715Z AUTO 29008G11KT 10SM -RA SCT055 OVC065 18/13  A2999 RMK AO2 T01780130,,,6500.0,,,55.0,,WNW,29.34,28.65,,Light Rain
KIGQ,09/26/2016 07:35 UTC,29.98,61.34,56.48,87.94,6.91,290.0,18.41,1.0,854.0,,,552.0,803.0,,,7.0,,KIGQ 260735Z AUTO 29006G16KT 7SM RA SCT055 BKN080 OVC085 16/14  A2998 RMK AO2 T01630136,,,8000.0,,,57.71,,WNW,29.33,28.55,,Rain
KIGQ,09/26/2016 07:55 UTC,29.98,59.9,57.56,91.97,6.91,260.0,,13.0,1104.0,0.01,,602.0,802.0,,,10.0,,KIGQ 260755Z AUTO 26006KT 10SM -RA SCT060 SCT080 OVC110 16/14  A2998 RMK AO2 P0001 T01550142,,,11000.0,,,57.54,,W,29.33,28.57,,Light Rain
KIGQ,09/26/2016 08:15 UTC,29.98,59.54,57.74,93.75,5.75,250.0,,13.0,,,,1204.0,,,,10.0,,KIGQ 260815Z AUTO 25005KT 10SM -RA OVC120 15/14 A2998 RMK AO2  T01530143,,,12000.0,,,57.72,,WSW,29.33,28.57,,Light Rain
KIGQ,09/26/2016 08:35 UTC,29.98,59.54,57.92,93.75,8.05,250.0,,13.0,,,,1104.0,,,,10.0,,KIGQ 260835Z AUTO 25007KT 10SM -RA OVC110 15/14 A2998 RMK AO2  T01530144,,,11000.0,,,57.72,,WSW,29.33,28.57,,Light Rain
KIGQ,09/26/2016 08:55 UTC,29.98,59.54,58.1,100.0,9.22,250.0,,13.0,,,0.01,1104.0,,,,10.0,,KIGQ 260855Z AUTO 25008KT 10SM -RA OVC110 15/15 A2998 RMK AO2  60001 T01530145,,,11000.0,,,59.54,,WSW,29.33,28.48,,Light Rain
KIGQ,09/26/2016 09:15 UTC,29.98,59.36,58.1,100.0,9.22,270.0,,13.0,,,,1203.0,,,,10.0,,KIGQ 260915Z AUTO 27008KT 10SM -RA BKN120 15/15 A2998 RMK AO2  T01520145,,,12000.0,,,59.36,,W,29.33,28.49,,Light Rain
KIGQ,09/26/2016 09:35 UTC,29.97,59.18,57.38,93.75,4.61,280.0,,,,,,1202.0,,,,10.0,,KIGQ 260935Z AUTO 28004KT 10SM SCT120 15/14 A2997 RMK AO2  T01510141,,,,,,57.36,,W,29.32,28.58,,Partly Cloudy
KIGQ,09/26/2016 09:55 UTC,29.99,59.0,57.2,93.75,10.36,280.0,,,,,,1103.0,,,,10.0,,KIGQ 260955Z AUTO 28009KT 10SM BKN110 15/14 A2999 RMK AO2  T01500140,,,11000.0,,,57.18,,W,29.34,28.61,,Mostly Cloudy
KIGQ,09/26/2016 10:15 UTC,29.98,59.0,55.76,87.85,6.91,300.0,,,,,,1202.0,,,,10.0,,KIGQ 261015Z AUTO 30006KT 10SM SCT120 15/13 A2998 RMK AO2  T01500132,,,,,,55.37,,WNW,29.33,28.68,,Partly Cloudy
KIGQ,09/26/2016 10:35 UTC,29.99,59.0,54.86,87.85,5.75,290.0,,,,,,1202.0,,,,10.0,,KIGQ 261035Z AUTO 29005KT 10SM SCT120 15/13 A2999 RMK AO2  T01500127,,,,,,55.37,,WNW,29.34,28.69,,Partly Cloudy
KIGQ,09/26/2016 10:55 UTC,30.0,58.82,54.5,87.85,5.75,280.0,,,,,,1.0,,,,10.0,,KIGQ 261055Z AUTO 28005KT 10SM CLR 15/13 A3000 RMK AO2  T01490125,,,,,,55.19,,W,29.35,28.71,,Clear
KIGQ,09/26/2016 11:15 UTC,30.0,58.46,53.96,82.27,6.91,280.0,,,,,,1.0,,,,10.0,,KIGQ 261115Z AUTO 28006KT 10SM CLR 15/12 A3000 RMK AO2  T01470122,,,,,,53.03,,W,29.35,28.81,,Clear
KIGQ,09/26/2016 11:35 UTC,30.01,58.28,53.42,82.27,6.91,270.0,,,,,,1.0,,,,10.0,,KIGQ 261135Z AUTO 27006KT 10SM CLR 15/12 A3001 RMK AO2  T01460119,,,,,,52.85,,W,29.36,28.83,,Clear
KIGQ,09/26/2016 11:55 UTC,30.01,57.74,53.6,87.75,5.75,260.0,,,,,,1.0,,0.01,0.01,10.0,,KIGQ 261155Z AUTO 26005KT 10SM CLR 14/12 A3001 RMK AO2 60001 70001  T01430120 10195 20142,67.1,57.56,,,,54.1,,W,29.36,28.78,,Clear
KIGQ,09/26/2016 12:15 UTC,30.01,57.92,53.6,87.75,6.91,250.0,,,,,,1.0,,,,10.0,,KIGQ 261215Z AUTO 25006KT 10SM CLR 14/12 A3001 RMK AO2  T01440120,,,,,,54.28,,WSW,29.36,28.77,,Clear
KIGQ,09/26/2016 12:35 UTC,30.02,58.1,53.6,82.27,8.05,260.0,,,,,,1.0,,,,10.0,,KIGQ 261235Z AUTO 26007KT 10SM CLR 15/12 A3002 RMK AO2  T01450120,,,,,,52.68,,W,29.37,28.84,,Clear
KIGQ,09/26/2016 12:55 UTC,30.02,,,,,,,,,,,,,,,,,KIGQ 261255Z AUTO A3002 RMK AO2 PWINO,,,,,,,,,29.37,,,
KIGQ,09/26/2016 13:15 UTC,30.02,58.46,53.78,82.27,10.36,270.0,,,,,,1.0,,,,10.0,,KIGQ 261315Z AUTO 27009KT 10SM CLR 15/12 A3002 RMK AO2  T01470121,,,,,,53.03,,W,29.37,28.83,,Clear
KIGQ,09/26/2016 13:35 UTC,30.02,59.0,53.42,82.27,10.36,270.0,18.41,,,,,1.0,,,,10.0,,KIGQ 261335Z AUTO 27009G16KT 10SM CLR 15/12 A3002 RMK AO2  T01500119,,,,,,53.56,,W,29.37,28.8,,Clear
KIGQ,09/26/2016 13:55 UTC,30.02,59.36,52.7,82.27,11.5,260.0,,,,,,1.0,,,,10.0,,KIGQ 261355Z AUTO 26010KT 10SM CLR 15/12 A3002 RMK AO2  T01520115,,,,,,53.91,,W,29.37,28.78,,Clear
KIGQ,09/26/2016 14:15 UTC,30.02,60.26,51.98,72.23,12.66,270.0,17.27,,,,,1.0,,,,10.0,,KIGQ 261415Z AUTO 27011G15KT 10SM CLR 16/11 A3002 RMK AO2  T01570111,,,,,,51.21,,W,29.37,28.88,,Clear
KIGQ,09/26/2016 14:35 UTC,30.02,62.6,51.08,67.79,14.97,270.0,20.71,,,,,1.0,,,,10.0,,KIGQ 261435Z AUTO 27013G18KT 10SM CLR 17/11 A3002 RMK AO2  T01700106,,,,,,51.73,,W,29.37,28.84,,Clear
KIGQ,09/26/2016 14:55 UTC,30.01,63.68,50.0,59.54,12.66,260.0,18.41,,,,,1.0,,,,10.0,,KIGQ 261455Z AUTO 26011G16KT 10SM CLR 18/10 A3001 RMK AO2  T01760100,,,,,,49.24,,W,29.36,28.91,,Clear
KIGQ,09/26/2016 15:15 UTC,30.01,64.58,48.56,55.67,14.97,260.0,20.71,,,,,1.0,,,,10.0,,KIGQ 261515Z AUTO 26013G18KT 10SM CLR 18/09 A3001 RMK AO2  T01810092,,,,,,48.28,,W,29.36,28.94,,Clear
KIGQ,09/26/2016 15:35 UTC,30.01,65.48,46.4,48.87,14.97,260.0,21.85,,,,,1.0,,,,10.0,,KIGQ 261535Z AUTO 26013G19KT 10SM CLR 19/08 A3001 RMK AO2  T01860080,,,,,,45.64,,W,29.36,29.02,,Clear
KIGQ,09/26/2016 15:55 UTC,30.01,66.2,45.86,48.87,18.41,260.0,26.46,,,,,1.0,,,,10.0,,KIGQ 261555Z AUTO 26016G23KT 10SM CLR 19/08 A3001 RMK AO2  T01900077,,,,,,46.31,,W,29.36,28.99,,Clear
KIGQ,09/26/2016 16:15 UTC,30.01,67.46,44.42,42.9,20.71,260.0,26.46,,,,,1.0,,,,10.0,,KIGQ 261615Z AUTO 26018G23KT 10SM CLR 20/07 A3001 RMK AO2  T01970069,,,,,,44.02,,W,29.36,29.06,,Clear
KIGQ,09/26/2016 16:35 UTC,30.0,67.28,42.26,40.05,17.27,280.0,31.07,,,,,1.0,,,,10.0,,KIGQ 261635Z AUTO 28015G27KT 10SM CLR 20/06 A3000 RMK AO2  T01960057,,,,,,42.06,,W,29.35,29.11,,Clear
KIGQ,09/26/2016 16:55 UTC,29.99,67.46,43.34,40.05,18.41,270.0,28.77,,,,,1.0,,,,10.0,,KIGQ 261655Z AUTO 27016G25KT 10SM CLR 20/06 A2999 RMK AO2  T01970063,,,,,,42.22,,W,29.34,29.1,,Clear
KIGQ,09/26/2016 17:15 UTC,30.0,68.36,42.62,40.05,20.71,270.0,29.93,,,,,1.0,,,,10.0,,KIGQ 261715Z AUTO 27018G26KT 10SM CLR 20/06 A3000 RMK AO2  T02020059,,,,,,43.03,,W,29.35,29.08,,Clear
KIGQ,09/26/2016 17:35 UTC,29.99,68.0,42.62,40.05,16.11,290.0,27.63,,,,,1.0,,,,10.0,,KIGQ 261735Z AUTO 29014G24KT 10SM CLR 20/06 A2999 RMK AO2  T02000059,,,,,,42.71,,WNW,29.34,29.08,,Clear
KIGQ,09/26/2016 17:55 UTC,29.99,68.9,42.44,37.66,21.85,280.0,28.77,,,,,1.0,,,,10.0,,KIGQ 261755Z AUTO 28019G25KT 10SM CLR 21/06 A2999 RMK AO2  T02050058 10205 20145,68.9,58.1,,,,41.92,,W,29.34,29.1,,Clear
KIGQ,09/26/2016 18:15 UTC,29.98,68.72,41.72,37.36,23.02,270.0,29.93,,,,,1.0,,,,10.0,,KIGQ 261815Z AUTO 27020G26KT 10SM CLR 20/05 A2998 RMK AO2  T02040054,,,,,,41.55,,W,29.33,29.1,,Clear
KIGQ,09/26/2016 18:35 UTC,29.97,69.62,41.9,37.66,18.41,290.0,25.32,,,,,1.0,,,,10.0,,KIGQ 261835Z AUTO 29016G22KT 10SM CLR 21/06 A2997 RMK AO2  T02090055,,,,,,42.56,,WNW,29.32,29.05,,Clear
KIGQ,09/26/2016 18:55 UTC,29.96,69.62,41.18,35.13,21.85,270.0,32.21,,,,,1.0,,,,10.0,,KIGQ 261855Z AUTO 27019G28KT 10SM CLR 21/05 A2996 RMK AO2  T02090051,,,,,,40.76,,W,29.31,29.1,,Clear
KIGQ,09/26/2016 19:15 UTC,29.96,69.98,42.08,37.66,19.57,260.0,27.63,,,,,1.0,,,,10.0,,KIGQ 261915Z AUTO 26017G24KT 10SM CLR 21/06 A2996 RMK AO2  T02110056,,,,,,42.89,,W,29.31,29.03,,Clear
KIGQ,09/26/2016 19:35 UTC,29.96,69.98,41.0,35.13,19.57,260.0,29.93,,,,,1.0,,,,10.0,,KIGQ 261935Z AUTO 26017G26KT 10SM CLR 21/05 A2996 RMK AO2  T02110050,,,,,,41.08,,W,29.31,29.08,,Clear
KIGQ,09/26/2016 19:55 UTC,29.95,70.34,41.72,35.13,19.57,260.0,29.93,,,,,1.0,,,,10.0,,KIGQ 261955Z AUTO 26017G26KT 10SM CLR 21/05 A2995 RMK AO2  T02130054,,,,,,41.4,,W,29.3,29.06,,Clear
KIGQ,09/26/2016 20:15 UTC,29.95,70.16,39.74,32.76,23.02,280.0,32.21,,,,,1.0,,,,10.0,,KIGQ 262015Z AUTO 28020G28KT 10SM CLR 21/04 A2995 RMK AO2  T02120043,,,,,,39.44,,W,29.3,29.12,,Clear
KIGQ,09/26/2016 20:35 UTC,29.95,70.52,40.64,35.13,20.71,250.0,29.93,,,,,1.0,,,,10.0,,KIGQ 262035Z AUTO 25018G26KT 10SM CLR 21/05 A2995 RMK AO2  T02140048,,,,,,41.56,,WSW,29.3,29.06,,Clear
KIGQ,09/26/2016 20:55 UTC,29.94,70.34,39.92,32.76,18.41,250.0,31.07,,,,,1.0,,,,10.0,,KIGQ 262055Z AUTO 25016G27KT 10SM CLR 21/04 A2994 RMK AO2  T02130044,,,,,,39.6,,WSW,29.29,29.1,,Clear
KIGQ,09/26/2016 21:15 UTC,29.94,70.34,38.48,32.76,20.71,260.0,32.21,,,,,1.0,,,,10.0,,KIGQ 262115Z AUTO 26018G28KT 10SM CLR 21/04 A2994 RMK AO2  T02130036,,,,,,39.6,,W,29.29,29.1,,Clear
KIGQ,09/26/2016 21:35 UTC,29.94,69.8,38.3,32.76,18.41,270.0,29.93,,,,,1.0,,,,10.0,,KIGQ 262135Z AUTO 27016G26KT 10SM CLR 21/04 A2994 RMK AO2  T02100035,,,,,,39.12,,W,29.29,29.12,,Clear
KIGQ,09/26/2016 21:55 UTC,29.94,69.8,38.48,32.76,21.85,260.0,27.63,,,,,1.0,,,,10.0,,KIGQ 262155Z AUTO 26019G24KT 10SM CLR 21/04 A2994 RMK AO2  T02100036,,,,,,39.12,,W,29.29,29.12,,Clear
KIGQ,09/26/2016 22:15 UTC,29.94,69.08,38.12,30.53,19.57,280.0,25.32,,,,,1.0,,,,10.0,,KIGQ 262215Z AUTO 28017G22KT 10SM CLR 21/03 A2994 RMK AO2  T02060034,,,,,,36.69,,W,29.29,29.19,,Clear
KIGQ,09/26/2016 22:35 UTC,29.94,68.72,38.84,34.84,10.36,280.0,18.41,,,,,1.0,,,,10.0,,KIGQ 262235Z AUTO 28009G16KT 10SM CLR 20/04 A2994 RMK AO2  T02040038,,,,,,39.74,,W,29.29,29.11,,Clear
KIGQ,09/26/2016 22:55 UTC,29.94,68.0,37.58,32.46,13.8,280.0,29.93,,,,,1.0,,,,10.0,,KIGQ 262255Z AUTO 28012G26KT 10SM CLR 20/03 A2994 RMK AO2  T02000031,,,,,,37.3,,W,29.29,29.18,,Clear
KIGQ,09/26/2016 23:15 UTC,29.94,67.1,37.76,32.46,11.5,280.0,19.57,,,,,1.0,,,,10.0,,KIGQ 262315Z AUTO 28010G17KT 10SM CLR 20/03 A2994 RMK AO2  T01950032,,,,,,36.5,,W,29.29,29.21,,Clear
KIGQ,09/26/2016 23:35 UTC,29.95,65.66,37.76,34.54,11.5,280.0,18.41,,,,,1.0,,,,10.0,,KIGQ 262335Z AUTO 28010G16KT 10SM CLR 19/03 A2995 RMK AO2  T01870032,,,,,,36.81,,W,29.3,29.22,,Clear
KIGQ,09/26/2016 23:55 UTC,29.95,65.3,37.4,34.54,11.5,280.0,20.71,,,,,1.0,,,,10.0,,KIGQ 262355Z AUTO 28010G18KT 10SM CLR 19/03 A2995 RMK AO2  T01850030 10216 20185,70.88,65.3,,,,36.49,,W,29.3,29.23,,Clear
KIGQ,09/27/2016 00:15 UTC,29.95,64.04,37.76,36.77,10.36,270.0,,,,,,1.0,,,,10.0,,KIGQ 270015Z AUTO 27009KT 10SM CLR 18/03 A2995 RMK AO2  T01780032,,,,,,36.95,,W,29.3,29.22,,Clear
KIGQ,09/27/2016 00:35 UTC,29.96,62.6,38.12,39.16,9.22,270.0,,,,,,1.0,,,,10.0,,KIGQ 270035Z AUTO 27008KT 10SM CLR 17/03 A2996 RMK AO2  T01700034,,,,,,37.26,,W,29.31,29.23,,Clear
KIGQ,09/27/2016 00:55 UTC,29.96,60.98,38.3,44.78,6.91,260.0,,,,,,1.0,,,,10.0,,KIGQ 270055Z AUTO 26006KT 10SM CLR 16/04 A2996 RMK AO2  T01610035,,,,,,39.23,,W,29.31,29.19,,Clear
KIGQ,09/27/2016 01:15 UTC,29.96,59.36,38.3,47.75,4.61,250.0,,,,,,1.0,,,,10.0,,KIGQ 270115Z AUTO 25004KT 10SM CLR 15/04 A2996 RMK AO2  T01520035,,,,,,39.39,,WSW,29.31,29.2,,Clear
KIGQ,09/27/2016 01:35 UTC,29.97,58.82,38.48,47.75,3.44,240.0,,,,,,1.0,,,,10.0,,KIGQ 270135Z AUTO 24003KT 10SM CLR 15/04 A2997 RMK AO2  T01490036,,,,,,38.9,,WSW,29.32,29.23,,Clear
KIGQ,09/27/2016 01:55 UTC,29.97,53.96,40.1,62.24,5.75,210.0,,,,,,1.0,,,,10.0,,KIGQ 270155Z AUTO 21005KT 10SM CLR 12/05 A2997 RMK AO2  T01220045,,,,,,41.22,,SSW,29.32,29.2,,Clear
KIGQ,09/27/2016 02:15 UTC,29.96,50.36,41.0,71.08,4.61,220.0,,,,,,1.0,,,,10.0,,KIGQ 270215Z AUTO 22004KT 10SM CLR 10/05 A2996 RMK AO2  T01020050,,,,,,41.25,,SW,29.31,29.22,,Clear
KIGQ,09/27/2016 02:35 UTC,29.96,54.68,40.64,58.29,5.75,230.0,,,,,,1.0,,,,10.0,,KIGQ 270235Z AUTO 23005KT 10SM CLR 13/05 A2996 RMK AO2  T01260048,,,,,,40.2,,SW,29.31,29.21,,Clear
KIGQ,09/27/2016 02:55 UTC,29.96,54.5,40.46,58.29,5.75,230.0,,,,,,1.0,,,,10.0,,KIGQ 270255Z AUTO 23005KT 10SM CLR 13/05 A2996 RMK AO2  T01250047,,,,,,40.03,,SW,29.31,29.22,,Clear
KIGQ,09/27/2016 03:15 UTC,29.96,54.5,40.46,58.29,5.75,230.0,,,,,,1.0,,,,10.0,,KIGQ 270315Z AUTO 23005KT 10SM CLR 13/05 A2996 RMK AO2  T01250047,,,,,,40.03,,SW,29.31,29.22,,Clear
KIGQ,09/27/2016 03:35 UTC,29.96,54.14,40.46,62.24,6.91,230.0,,,,,,1.0,,,,10.0,,KIGQ 270335Z AUTO 23006KT 10SM CLR 12/05 A2996 RMK AO2  T01230047,,,,,,41.39,,SW,29.31,29.19,,Clear
KIGQ,09/27/2016 03:55 UTC,29.95,53.96,40.64,62.24,5.75,230.0,,,,,,1.0,,,,10.0,,KIGQ 270355Z AUTO 23005KT 10SM CLR 12/05 A2995 RMK AO2  T01220048,,,,,,41.22,,SW,29.3,29.18,,Clear
KIGQ,09/27/2016 04:15 UTC,29.95,52.7,41.18,62.24,6.91,220.0,,,,,,1.0,,,,10.0,,KIGQ 270415Z AUTO 22006KT 10SM CLR 12/05 A2995 RMK AO2  T01150051,,,,,,40.03,,SW,29.3,29.22,,Clear
KIGQ,09/27/2016 04:35 UTC,29.95,52.7,41.36,62.24,6.91,220.0,,,,,,1.0,,,,10.0,,KIGQ 270435Z AUTO 22006KT 10SM CLR 12/05 A2995 RMK AO2  T01150052,,,,,,40.03,,SW,29.3,29.22,,Clear
KIGQ,09/27/2016 04:55 UTC,29.94,52.16,41.36,66.49,5.75,230.0,,,,,,1.0,,,,10.0,,KIGQ 270455Z AUTO 23005KT 10SM CLR 11/05 A2994 RMK AO2  T01120052,,,,,,41.23,,SW,29.29,29.19,,Clear
KIGQ,09/27/2016 05:15 UTC,29.94,51.62,41.36,66.49,5.75,220.0,,,,,,1.0,,,,10.0,,KIGQ 270515Z AUTO 22005KT 10SM CLR 11/05 A2994 RMK AO2  T01090052,,,,,,40.72,,SW,29.29,29.2,,Clear
KIGQ,09/27/2016 05:35 UTC,29.93,51.62,41.54,66.49,5.75,240.0,,,,,,1.0,,,,10.0,,KIGQ 270535Z AUTO 24005KT 10SM CLR 11/05 A2993 RMK AO2  T01090053,,,,,,40.72,,WSW,29.28,29.19,,Clear
KIGQ,09/27/2016 05:55 UTC,29.92,51.98,41.18,66.49,5.75,230.0,,,,,,1.0,,,,10.0,,KIGQ 270555Z AUTO 23005KT 10SM CLR 11/05 A2992 RMK AO2 T01110051  10185 20099,65.3,49.82,,,,41.06,,SW,29.27,29.17,,Clear
KIGQ,09/27/2016 06:15 UTC,29.92,52.7,41.36,62.24,6.91,240.0,,,,,,1.0,,,,10.0,,KIGQ 270615Z AUTO 24006KT 10SM CLR 12/05 A2992 RMK AO2  T01150052,,,,,,40.03,,WSW,29.27,29.19,,Clear
KIGQ,09/27/2016 06:35 UTC,29.92,47.48,41.0,76.02,4.61,220.0,,,,,,1.0,,,,10.0,,KIGQ 270635Z AUTO 22004KT 10SM CLR 09/05 A2992 RMK AO2  T00860050,,,,,,40.22,,SW,29.27,29.23,,Clear
KIGQ,09/27/2016 06:55 UTC,29.92,51.26,42.26,71.27,6.91,220.0,,,,,,1.0,,,,10.0,,KIGQ 270655Z AUTO 22006KT 10SM CLR 11/06 A2992 RMK AO2  T01070057,,,,,,42.18,,SW,29.27,29.15,,Clear
KIGQ,09/27/2016 07:15 UTC,29.91,51.44,42.44,71.27,5.75,230.0,,,,,,1.0,,,,10.0,,KIGQ 270715Z AUTO 23005KT 10SM CLR 11/06 A2991 RMK AO2  T01080058,,,,,,42.36,,SW,29.26,29.13,,Clear
KIGQ,09/27/2016 07:35 UTC,29.91,47.84,41.9,81.48,5.75,200.0,,,,,,1.0,,,,10.0,,KIGQ 270735Z AUTO 20005KT 10SM CLR 09/06 A2991 RMK AO2  T00880055,,,,,,42.38,,SSW,29.26,29.16,,Clear
KIGQ,09/27/2016 07:55 UTC,29.9,47.84,42.98,81.48,6.91,220.0,,,,,,1.0,,,,10.0,,KIGQ 270755Z AUTO 22006KT 10SM CLR 09/06 A2990 RMK AO2  T00880061,,,,,,42.38,,SW,29.25,29.15,,Clear
KIGQ,09/27/2016 08:15 UTC,29.89,50.18,43.34,76.18,6.91,220.0,,,,,,1.0,,,,10.0,,KIGQ 270815Z AUTO 22006KT 10SM CLR 10/06 A2989 RMK AO2  T01010063,,,,,,42.89,,SW,29.24,29.11,,Clear
KIGQ,09/27/2016 08:35 UTC,29.89,50.0,43.52,76.18,8.05,220.0,,,,,,1.0,,,,10.0,,KIGQ 270835Z AUTO 22007KT 10SM CLR 10/06 A2989 RMK AO2  T01000064,,,,,,42.72,,SW,29.24,29.11,,Clear
KIGQ,09/27/2016 08:55 UTC,29.88,49.64,43.52,76.18,6.91,230.0,,,,,,1.0,,,,10.0,,KIGQ 270855Z AUTO 23006KT 10SM CLR 10/06 A2988 RMK AO2  T00980064,,,,,,42.37,,SW,29.23,29.12,,Clear
KIGQ,09/27/2016 09:15 UTC,29.88,51.44,44.06,76.35,6.91,240.0,,,,,,1.0,,,,10.0,,KIGQ 270915Z AUTO 24006KT 10SM CLR 11/07 A2988 RMK AO2  T01080067,,,,,,44.17,,WSW,29.23,29.05,,Clear
KIGQ,09/27/2016 09:35 UTC,29.88,52.7,44.6,71.47,10.36,250.0,,,,,,1.0,,,,10.0,,KIGQ 270935Z AUTO 25009KT 10SM CLR 12/07 A2988 RMK AO2  T01150070,,,,,,43.64,,WSW,29.23,29.06,,Clear
KIGQ,09/27/2016 09:55 UTC,29.87,53.24,44.78,71.47,10.36,250.0,,,,,,1.0,,,,10.0,,KIGQ 270955Z AUTO 25009KT 10SM CLR 12/07 A2987 RMK AO2  T01180071,,,,,,44.16,,WSW,29.22,29.03,,Clear
KIGQ,09/27/2016 10:15 UTC,29.87,53.06,44.78,71.47,11.5,250.0,,,,,,1.0,,,,10.0,,KIGQ 271015Z AUTO 25010KT 10SM CLR 12/07 A2987 RMK AO2  T01170071,,,,,,43.99,,WSW,29.22,29.03,,Clear
KIGQ,09/27/2016 10:35 UTC,29.87,52.7,44.6,71.47,10.36,260.0,,,,,,1.0,,,,10.0,,KIGQ 271035Z AUTO 26009KT 10SM CLR 12/07 A2987 RMK AO2  T01150070,,,,,,43.64,,W,29.22,29.05,,Clear
KIGQ,09/27/2016 10:55 UTC,29.87,51.8,44.6,76.35,9.22,260.0,,,,,,1.0,,,,10.0,,KIGQ 271055Z AUTO 26008KT 10SM CLR 11/07 A2987 RMK AO2  T01100070,,,,,,44.52,,W,29.22,29.03,,Clear
KIGQ,09/27/2016 11:15 UTC,29.87,50.9,44.6,76.35,10.36,260.0,,,,,,1.0,,,,10.0,,KIGQ 271115Z AUTO 26009KT 10SM CLR 11/07 A2987 RMK AO2  T01050070,,,,,,43.65,,W,29.22,29.06,,Clear
KIGQ,09/27/2016 11:35 UTC,29.87,50.72,44.42,81.61,8.05,260.0,,,,,,1.0,,,,10.0,,KIGQ 271135Z AUTO 26007KT 10SM CLR 10/07 A2987 RMK AO2  T01040069,,,,,,45.24,,W,29.22,29.02,,Clear
KIGQ,09/27/2016 11:55 UTC,29.87,50.0,44.06,81.61,8.05,260.0,,,,,,1.0,,,,10.0,,KIGQ 271155Z AUTO 26007KT 10SM CLR 10/07 A2987 RMK AO2 T01000067  10118 20077,53.24,45.86,,,,44.54,,W,29.22,29.04,,Clear
KIGQ,09/27/2016 12:15 UTC,29.87,50.36,44.6,81.61,6.91,250.0,,,,,,1.0,,,,10.0,,KIGQ 271215Z AUTO 25006KT 10SM CLR 10/07 A2987 RMK AO2  T01020070,,,,,,44.89,,WSW,29.22,29.03,,Clear
KIGQ,09/27/2016 12:35 UTC,29.87,51.44,44.96,76.35,5.75,240.0,,,,,,1.0,,,,10.0,,KIGQ 271235Z AUTO 24005KT 10SM CLR 11/07 A2987 RMK AO2  T01080072,,,,,,44.17,,WSW,29.22,29.04,,Clear
KIGQ,09/27/2016 12:55 UTC,29.86,52.88,45.32,71.47,8.05,240.0,,,,,,1.0,,,,10.0,,KIGQ 271255Z AUTO 24007KT 10SM CLR 12/07 A2986 RMK AO2  T01160074,,,,,,43.82,,WSW,29.21,29.03,,Clear
KIGQ,09/27/2016 13:15 UTC,29.86,54.5,45.14,66.93,10.36,250.0,,,,,,1.0,,,,10.0,,KIGQ 271315Z AUTO 25009KT 10SM CLR 13/07 A2986 RMK AO2  T01250073,,,,,,43.64,,WSW,29.21,29.02,,Clear
KIGQ,09/27/2016 13:35 UTC,29.86,55.76,45.14,66.93,10.36,230.0,,,,,,1.0,,,,10.0,,KIGQ 271335Z AUTO 23009KT 10SM CLR 13/07 A2986 RMK AO2  T01320073,,,,,,44.84,,SW,29.21,28.97,,Clear
KIGQ,09/27/2016 13:55 UTC,29.86,57.2,44.6,62.72,10.36,250.0,,,,,,1.0,,,,10.0,,KIGQ 271355Z AUTO 25009KT 10SM CLR 14/07 A2986 RMK AO2  T01400070,,,,,,44.5,,WSW,29.21,28.97,,Clear
KIGQ,09/27/2016 14:15 UTC,29.86,59.36,45.5,62.95,9.22,250.0,,,,,,1.0,,,,10.0,,KIGQ 271415Z AUTO 25008KT 10SM CLR 15/08 A2986 RMK AO2  T01520075,,,,,,46.64,,WSW,29.21,28.89,,Clear
KIGQ,09/27/2016 14:35 UTC,29.86,60.08,43.88,55.15,13.8,250.0,18.41,,,,,1.0,,,,10.0,,KIGQ 271435Z AUTO 25012G16KT 10SM CLR 16/07 A2986 RMK AO2  T01560066,,,,,,43.82,,WSW,29.21,28.97,,Clear
KIGQ,09/27/2016 14:55 UTC,29.86,61.7,44.42,51.76,16.11,250.0,19.57,,,,,1.0,,,,10.0,,KIGQ 271455Z AUTO 25014G17KT 10SM CLR 17/07 A2986 RMK AO2  T01650069,,,,,,43.66,,WSW,29.21,28.96,,Clear
KIGQ,09/27/2016 15:15 UTC,29.86,62.6,44.06,51.76,14.97,240.0,24.16,,,,,1.0,,,,10.0,,KIGQ 271515Z AUTO 24013G21KT 10SM CLR 17/07 A2986 RMK AO2  T01700067,,,,,,44.49,,WSW,29.21,28.93,,Clear
KIGQ,09/27/2016 15:35 UTC,29.85,64.22,42.44,45.36,16.11,270.0,23.02,,,,,1.0,,,,10.0,,KIGQ 271535Z AUTO 27014G20KT 10SM CLR 18/06 A2985 RMK AO2  T01790058,,,,,,42.52,,W,29.2,28.97,,Clear
KIGQ,09/27/2016 15:55 UTC,29.84,64.94,39.74,39.46,20.71,260.0,29.93,,,,,1.0,,,,10.0,,KIGQ 271555Z AUTO 26018G26KT 10SM CLR 18/04 A2984 RMK AO2  T01830043,,,,,,39.56,,W,29.19,29.04,,Clear
KIGQ,09/27/2016 16:15 UTC,29.83,66.2,39.92,37.07,18.41,270.0,28.77,,,,,1.0,,,,10.0,,KIGQ 271615Z AUTO 27016G25KT 10SM CLR 19/04 A2983 RMK AO2  T01900044,,,,,,39.09,,W,29.18,29.03,,Clear
KIGQ,09/27/2016 16:35 UTC,29.83,67.28,39.74,34.84,20.71,270.0,28.77,,,,,1.0,,,,10.0,,KIGQ 271635Z AUTO 27018G25KT 10SM CLR 20/04 A2983 RMK AO2  T01960043,,,,,,38.46,,W,29.18,29.04,,Clear
KIGQ,09/27/2016 16:55 UTC,29.81,68.36,39.02,34.84,23.02,270.0,28.77,,,,,1.0,,,,10.0,,KIGQ 271655Z AUTO 27020G25KT 10SM CLR 20/04 A2981 RMK AO2  T02020039,,,,,,39.42,,W,29.16,28.99,,Clear
KIGQ,09/27/2016 17:15 UTC,29.81,68.18,38.84,34.84,23.02,270.0,29.93,,,,,1.0,,,,10.0,,KIGQ 271715Z AUTO 27020G26KT 10SM CLR 20/04 A2981 RMK AO2  T02010038,,,,,,39.26,,W,29.16,28.99,,Clear
KIGQ,09/27/2016 17:35 UTC,29.8,68.54,39.2,34.84,21.85,260.0,28.77,,,,,1.0,,,,10.0,,KIGQ 271735Z AUTO 26019G25KT 10SM CLR 20/04 A2980 RMK AO2  T02030040,,,,,,39.58,,W,29.15,28.97,,Clear
KIGQ,09/27/2016 17:55 UTC,29.79,69.08,38.84,32.76,23.02,260.0,28.77,,,,,1.0,,,,10.0,,KIGQ 271755Z AUTO 26020G25KT 10SM CLR 21/04 A2979 RMK AO2  T02060038 10210 20100,69.8,50.0,,,,38.49,,W,29.14,28.99,,Clear
KIGQ,09/27/2016 18:15 UTC,29.78,69.8,38.48,32.76,20.71,260.0,31.07,,,,,1.0,,,,10.0,,KIGQ 271815Z AUTO 26018G27KT 10SM CLR 21/04 A2978 RMK AO2  T02100036,,,,,,39.12,,W,29.13,28.96,,Clear
KIGQ,09/27/2016 18:35 UTC,29.77,70.34,38.48,32.76,18.41,260.0,32.21,,,,,1.0,,,,10.0,,KIGQ 271835Z AUTO 26016G28KT 10SM CLR 21/04 A2977 RMK AO2  T02130036,,,,,,39.6,,W,29.12,28.93,,Clear
KIGQ,09/27/2016 18:55 UTC,29.76,70.7,36.68,28.72,21.85,260.0,31.07,,,,,1.0,,,,10.0,,KIGQ 271855Z AUTO 26019G27KT 10SM CLR 22/03 A2976 RMK AO2  T02150026,,,,,,36.56,,W,29.11,29.0,,Clear
KIGQ,09/27/2016 19:15 UTC,29.76,71.24,36.86,28.72,26.46,270.0,29.93,,,,,1.0,,,,10.0,,KIGQ 271915Z AUTO 27023G26KT 10SM CLR 22/03 A2976 RMK AO2  T02180027,,,,,,37.03,,W,29.11,28.99,,Clear
KIGQ,09/27/2016 19:35 UTC,29.76,71.6,38.12,29.54,17.27,270.0,26.46,,,,,1.0,,,,10.0,,KIGQ 271935Z AUTO 27015G23KT 10SM CLR 22/03 A2976 RMK AO2  T02200034,,,,,,38.06,,W,29.11,28.96,,Clear
KIGQ,09/27/2016 19:55 UTC,29.76,72.32,37.94,28.72,20.71,270.0,27.63,,,,,1.0,,,,10.0,,KIGQ 271955Z AUTO 27018G24KT 10SM CLR 22/03 A2976 RMK AO2  T02240033,,,,,,37.97,,W,29.11,28.96,,Clear
KIGQ,09/27/2016 20:15 UTC,29.76,68.9,36.32,28.43,16.11,270.0,25.32,,,,,1.0,,,,10.0,,KIGQ 272015Z AUTO 27014G22KT 10SM CLR 21/02 A2976 RMK AO2  T02050024,,,,,,34.74,,W,29.11,29.06,,Clear
KIGQ,09/27/2016 20:35 UTC,29.75,70.7,36.5,28.72,20.71,270.0,27.63,,,,,1.0,,,,10.0,,KIGQ 272035Z AUTO 27018G24KT 10SM CLR 22/03 A2975 RMK AO2  T02150025,,,,,,36.56,,W,29.1,28.99,,Clear
KIGQ,09/27/2016 20:55 UTC,29.75,70.16,36.68,30.53,17.27,280.0,24.16,,,,,1.0,,,,10.0,,KIGQ 272055Z AUTO 28015G21KT 10SM CLR 21/03 A2975 RMK AO2  T02120026,,,,,,37.64,,W,29.1,28.97,,Clear
KIGQ,09/27/2016 21:15 UTC,29.75,70.16,37.04,30.53,13.8,260.0,27.63,,,,,1.0,,,,10.0,,KIGQ 272115Z AUTO 26012G24KT 10SM CLR 21/03 A2975 RMK AO2  T02120028,,,,,,37.64,,W,29.1,28.97,,Clear
KIGQ,09/27/2016 21:35 UTC,29.75,68.72,36.68,32.46,19.57,260.0,25.32,,,,,1.0,,,,10.0,,KIGQ 272135Z AUTO 26017G22KT 10SM CLR 20/03 A2975 RMK AO2  T02040026,,,,,,37.93,,W,29.1,28.97,,Clear
KIGQ,09/27/2016 21:55 UTC,29.75,69.08,37.4,30.53,17.27,270.0,20.71,,,,,1.0,,,,10.0,,KIGQ 272155Z AUTO 27015G18KT 10SM CLR 21/03 A2975 RMK AO2  T02060030,,,,,,36.69,,W,29.1,29.0,,Clear
KIGQ,09/27/2016 22:15 UTC,29.76,68.18,37.4,32.46,10.36,280.0,19.57,,,,,1.0,,,,10.0,,KIGQ 272215Z AUTO 28009G17KT 10SM CLR 20/03 A2976 RMK AO2  T02010030,,,,,,37.46,,W,29.11,28.99,,Clear
KIGQ,09/27/2016 22:35 UTC,29.76,68.0,37.58,32.46,12.66,280.0,19.57,,,,,1.0,,,,10.0,,KIGQ 272235Z AUTO 28011G17KT 10SM CLR 20/03 A2976 RMK AO2  T02000031,,,,,,37.3,,W,29.11,29.0,,Clear
KIGQ,09/27/2016 22:55 UTC,29.76,66.2,37.22,34.54,11.5,280.0,17.27,,,,,1.0,,,,10.0,,KIGQ 272255Z AUTO 28010G15KT 10SM CLR 19/03 A2976 RMK AO2  T01900029,,,,,,37.28,,W,29.11,29.01,,Clear
KIGQ,09/27/2016 23:15 UTC,29.76,65.3,37.58,34.54,5.75,290.0,,,,,,1.0,,,,10.0,,KIGQ 272315Z AUTO 29005KT 10SM CLR 19/03 A2976 RMK AO2  T01850031,,,,,,36.49,,WNW,29.11,29.03,,Clear
KIGQ,09/27/2016 23:35 UTC,29.77,64.22,37.4,36.77,8.05,290.0,,,,,,1.0,,,,10.0,,KIGQ 272335Z AUTO 29007KT 10SM CLR 18/03 A2977 RMK AO2  T01790030,,,,,,37.11,,WNW,29.12,29.03,,Clear
KIGQ,09/27/2016 23:55 UTC,29.78,62.78,37.76,39.16,4.61,280.0,,,,,,1.0,,,,10.0,,KIGQ 272355Z AUTO 28004KT 10SM CLR 17/03 A2978 RMK AO2 T01710032  10224 20171,72.32,62.78,,,,37.42,,W,29.13,29.05,,Clear
KIGQ,09/28/2016 00:15 UTC,29.78,61.88,37.94,39.16,3.44,280.0,,,,,,1.0,,,,10.0,,KIGQ 280015Z AUTO 28003KT 10SM CLR 17/03 A2978 RMK AO2  T01660033,,,,,,36.61,,W,29.13,29.07,,Clear
KIGQ,09/28/2016 00:35 UTC,29.78,60.44,38.66,44.78,0.0,0.0,,,,,,1.0,,,,10.0,,KIGQ 280035Z AUTO 00000KT 10SM CLR 16/04 A2978 RMK AO2  T01580037,,,,,,38.73,,N,29.13,29.03,,Clear
KIGQ,09/28/2016 00:55 UTC,29.78,56.3,38.48,50.93,0.0,0.0,,,,,,1.0,,,,10.0,,KIGQ 280055Z AUTO 00000KT 10SM CLR 14/04 A2978 RMK AO2  T01350036,,,,,,38.23,,N,29.13,29.07,,Clear
KIGQ,09/28/2016 01:15 UTC,29.78,54.32,41.54,62.24,3.44,180.0,,,,,,1.0,,,,10.0,,KIGQ 280115Z AUTO 18003KT 10SM CLR 12/05 A2978 RMK AO2  T01240053,,,,,,41.56,,S,29.13,29.0,,Clear
KIGQ,09/28/2016 01:35 UTC,29.78,52.34,41.72,66.49,0.0,0.0,,,,,,1.0,,,,10.0,,KIGQ 280135Z AUTO 00000KT 10SM CLR 11/05 A2978 RMK AO2  T01130054,,,,,,41.4,,N,29.13,29.02,,Clear
KIGQ,09/28/2016 01:55 UTC,29.78,50.9,42.62,71.27,0.0,0.0,,,,,,1.0,,,,10.0,,KIGQ 280155Z AUTO 00000KT 10SM CLR 11/06 A2978 RMK AO2  T01050059,,,,,,41.84,,N,29.13,29.02,,Clear
KIGQ,09/28/2016 02:15 UTC,29.78,53.96,42.98,66.71,0.0,0.0,,,,,,1.0,,,,10.0,,KIGQ 280215Z AUTO 00000KT 10SM CLR 12/06 A2978 RMK AO2  T01220061,,,,,,43.04,,N,29.13,28.96,,Clear
KIGQ,09/28/2016 02:35 UTC,29.78,53.6,42.98,66.71,0.0,0.0,,,,,,1.0,,,,10.0,,KIGQ 280235Z AUTO 00000KT 10SM CLR 12/06 A2978 RMK AO2  T01200061,,,,,,42.69,,N,29.13,28.97,,Clear
KIGQ,09/28/2016 02:55 UTC,29.78,51.08,44.96,76.35,3.44,190.0,,,,,,1.0,,,,10.0,,KIGQ 280255Z AUTO 19003KT 10SM CLR 11/07 A2978 RMK AO2  T01060072,,,,,,43.82,,S,29.13,28.96,,Clear
KIGQ,09/28/2016 03:15 UTC,29.78,51.26,45.68,81.75,3.44,180.0,,,,,,1.0,,,,10.0,,KIGQ 280315Z AUTO 18003KT 10SM CLR 11/08 A2978 RMK AO2  T01070076,,,,,,45.81,,S,29.13,28.9,,Clear
KIGQ,09/28/2016 03:35 UTC,29.78,50.72,44.96,81.61,0.0,0.0,,,,,,1.0,,,,10.0,,KIGQ 280335Z AUTO 00000KT 10SM CLR 10/07 A2978 RMK AO2  T01040072,,,,,,45.24,,N,29.13,28.93,,Clear
KIGQ,09/28/2016 03:55 UTC,29.78,52.88,44.42,71.47,0.0,0.0,,,,,,1.0,,,,10.0,,KIGQ 280355Z AUTO 00000KT 10SM CLR 12/07 A2978 RMK AO2  T01160069,,,,,,43.82,,N,29.13,28.95,,Clear
KIGQ,09/28/2016 04:15 UTC,29.77,52.52,44.06,76.35,0.0,0.0,,,,,,1.0,,,,10.0,,KIGQ 280415Z AUTO 00000KT 10SM CLR 11/07 A2977 RMK AO2  T01140067,,,,,,45.22,,N,29.12,28.9,,Clear
KIGQ,09/28/2016 04:35 UTC,29.77,55.4,43.34,62.48,0.0,0.0,,,,,,1.0,,,,10.0,,KIGQ 280435Z AUTO 00000KT 10SM CLR 13/06 A2977 RMK AO2  T01300063,,,,,,42.69,,N,29.12,28.95,,Clear
KIGQ,09/28/2016 04:55 UTC,29.77,51.98,45.5,81.75,0.0,0.0,,,,,,1.0,,,,10.0,,KIGQ 280455Z AUTO 00000KT 10SM CLR 11/08 A2977 RMK AO2  T01110075,,,,,,46.52,,N,29.12,28.87,,Clear
KIGQ,09/28/2016 05:15 UTC,29.76,54.32,44.78,71.47,3.44,310.0,,,,,,1.0,,,,10.0,,KIGQ 280515Z AUTO 31003KT 10SM CLR 12/07 A2976 RMK AO2  T01240071,,,,,,45.2,,NW,29.11,28.87,,Clear
KIGQ,09/28/2016 05:35 UTC,29.76,53.6,45.32,71.47,0.0,0.0,,,,,,1.0,,,,10.0,,KIGQ 280535Z AUTO 00000KT 10SM CLR 12/07 A2976 RMK AO2  T01200074,,,,,,44.51,,N,29.11,28.9,,Clear
KIGQ,09/28/2016 05:55 UTC,29.76,54.86,48.74,76.68,4.61,340.0,,,,,,1.0,,,,10.0,,KIGQ 280555Z AUTO 34004KT 10SM CLR 13/09 A2976 RMK AO2 T01270093  10172 20100 402240077,62.96,50.0,,72.32,45.86,47.61,,NNW,29.11,28.79,,Clear
KIGQ,09/28/2016 06:15 UTC,29.76,57.56,50.9,82.14,4.61,350.0,,,,,,1.0,,,,10.0,,KIGQ 280615Z AUTO 35004KT 10SM CLR 14/11 A2976 RMK AO2  T01420105,,,,,,52.1,,N,29.11,28.61,,Clear
KIGQ,09/28/2016 06:35 UTC,29.76,58.1,53.6,82.27,5.75,350.0,,,,,,952.0,,,,10.0,,KIGQ 280635Z AUTO 35005KT 10SM SCT095 15/12 A2976 RMK AO2  T01450120,,,,,,52.68,,N,29.11,28.58,,Partly Cloudy
KIGQ,09/28/2016 06:55 UTC,29.76,57.38,52.88,87.75,4.61,30.0,,,,,,952.0,1202.0,,,10.0,,KIGQ 280655Z AUTO 03004KT 10SM SCT095 SCT120 14/12 A2976 RMK AO2  T01410116,,,,,,53.74,,NNE,29.11,28.54,,Partly Cloudy
KIGQ,09/28/2016 07:15 UTC,29.75,57.2,46.94,67.15,6.91,70.0,,,,,,1203.0,,,,10.0,,KIGQ 280715Z AUTO 07006KT 10SM BKN120 14/08 A2975 RMK AO2 LTG DSNT  NE T01400083,,,12000.0,,,46.31,,ENE,29.1,28.8,,Mostly Cloudy
KIGQ,09/28/2016 07:35 UTC,29.76,56.3,46.76,67.15,5.75,20.0,,,,,,1202.0,,,,10.0,,KIGQ 280735Z AUTO 02005KT 10SM SCT120 14/08 A2976 RMK AO2 LTG DSNT  NE T01350082,,,,,,45.45,,NNE,29.11,28.85,,Partly Cloudy
KIGQ,09/28/2016 07:55 UTC,29.76,56.66,52.16,82.14,5.75,20.0,,,,,,1103.0,,,,10.0,,KIGQ 280755Z AUTO 02005KT 10SM BKN110 14/11 A2976 RMK AO2  T01370112,,,11000.0,,,51.22,,NNE,29.11,28.65,,Mostly Cloudy
KIGQ,09/28/2016 08:15 UTC,29.76,56.48,52.16,82.14,0.0,0.0,,,,,,1104.0,,,,10.0,,KIGQ 280815Z AUTO 00000KT 10SM OVC110 14/11 A2976 RMK AO2  T01360112,,,11000.0,,,51.05,,N,29.11,28.66,,Overcast
KIGQ,09/28/2016 08:35 UTC,29.76,57.38,51.62,82.14,6.91,40.0,,,,,,1104.0,,,,10.0,,KIGQ 280835Z AUTO 04006KT 10SM OVC110 14/11 A2976 RMK AO2  T01410109,,,11000.0,,,51.93,,NE,29.11,28.62,,Overcast
KIGQ,09/28/2016 08:55 UTC,29.78,57.38,52.7,87.75,10.36,320.0,,,1104.0,,,232.0,903.0,,,10.0,,KIGQ 280855Z AUTO 32009KT 10SM SCT023 BKN090 OVC110 14/12  A2978 RMK AO2 T01410115,,,9000.0,,,53.74,,NW,29.13,28.56,,Overcast
KIGQ,09/28/2016 09:15 UTC,29.77,55.94,50.0,82.01,3.44,360.0,,13.0,904.0,,,233.0,493.0,,,10.0,,KIGQ 280915Z AUTO 36003KT 10SM -RA BKN023 BKN049 OVC090 13/10  A2977 RMK AO2 T01330100,,,2300.0,,,50.48,,N,29.12,28.69,,Light Rain
KIGQ,09/28/2016 09:35 UTC,29.77,55.04,49.1,82.01,3.44,340.0,,17.0,1104.0,,,212.0,903.0,,,10.0,,KIGQ 280935Z AUTO 34003KT 10SM -DZ SCT021 BKN090 OVC110 13/10  A2977 RMK AO2 LTG DSNT NE T01280095,,,9000.0,,,49.6,,NNW,29.12,28.74,,Light Drizzle
KIGQ,09/28/2016 09:55 UTC,29.76,54.5,49.1,82.01,5.75,30.0,,,,,,802.0,1004.0,,,10.0,,KIGQ 280955Z AUTO 03005KT 10SM SCT080 OVC100 13/10 A2976 RMK AO2  LTG DSNT NE T01250095,,,10000.0,,,49.07,,NNE,29.11,28.75,,Overcast
KIGQ,09/28/2016 10:15 UTC,29.76,54.68,49.28,82.01,6.91,20.0,,,,,,1004.0,,,,10.0,,KIGQ 281015Z AUTO 02006KT 10SM OVC100 13/10 A2976 RMK AO2 LTG DSNT  NE T01260096,,,10000.0,,,49.24,,NNE,29.11,28.74,,Overcast
KIGQ,09/28/2016 10:35 UTC,29.77,54.86,48.38,76.68,4.61,340.0,,,,,,904.0,,,,10.0,,KIGQ 281035Z AUTO 34004KT 10SM OVC090 13/09 A2977 RMK AO2  T01270091,,,9000.0,,,47.61,,NNW,29.12,28.8,,Overcast
KIGQ,09/28/2016 10:55 UTC,29.78,54.5,47.3,76.68,6.91,330.0,,,,,,652.0,804.0,,,10.0,,KIGQ 281055Z AUTO 33006KT 10SM SCT065 OVC080 13/09 A2978 RMK AO2  T01250085,,,8000.0,,,47.26,,NNW,29.13,28.83,,Overcast
KIGQ,09/28/2016 11:15 UTC,29.79,53.24,48.38,81.88,9.22,340.0,,1.0,,,,652.0,804.0,,,10.0,,KIGQ 281115Z AUTO 34008KT 10SM RA SCT065 OVC080 12/09 A2979 RMK AO2 T01180091,,,8000.0,,,47.79,,NNW,29.14,28.83,,Rain
KIGQ,09/28/2016 11:35 UTC,29.79,53.06,48.38,81.88,5.75,10.0,,13.0,,,,654.0,,,,10.0,,KIGQ 281135Z AUTO 01005KT 10SM -RA OVC065 12/09 A2979 RMK AO2 LTG  DSNT S T01170091,,,6500.0,,,47.62,,N,29.14,28.84,,Light Rain
KIGQ,09/28/2016 11:55 UTC,29.81,52.52,49.28,93.55,8.05,270.0,,13.0,,,,704.0,,,,10.0,,KIGQ 281155Z AUTO 27007KT 10SM -RA OVC070 11/10 A2981 RMK AO2  T01140096 10145 20114,58.1,52.52,7000.0,,,50.69,,W,29.16,28.76,,Light Rain
KIGQ,09/28/2016 12:15 UTC,29.82,51.26,49.82,93.55,5.75,260.0,,13.0,604.0,,,233.0,483.0,,,10.0,,KIGQ 281215Z AUTO 26005KT 10SM -RA BKN023 BKN048 OVC060 11/10  A2982 RMK AO2 T01070099,,,2300.0,,,49.44,,W,29.17,28.83,,Light Rain
KIGQ,09/28/2016 12:35 UTC,29.83,51.44,50.18,93.55,3.44,280.0,,13.0,,,,234.0,,,,10.0,,KIGQ 281235Z AUTO 28003KT 10SM -RA OVC023 11/10 A2983 RMK AO2  T01080101,,,2300.0,,,49.62,,W,29.18,28.83,,Light Rain
KIGQ,09/28/2016 12:55 UTC,29.83,51.62,50.72,93.55,4.61,330.0,,13.0,504.0,,,232.0,342.0,,,10.0,,KIGQ 281255Z AUTO 33004KT 10SM -RA SCT023 SCT034 OVC050 11/10  A2983 RMK AO2 T01090104,,,5000.0,,,49.8,,NNW,29.18,28.82,,Light Rain
KIGQ,09/28/2016 13:15 UTC,29.83,51.98,51.08,100.0,8.05,340.0,,13.0,,,,604.0,,,,10.0,,KIGQ 281315Z AUTO 34007KT 10SM -RA OVC060 11/11 A2983 RMK AO2 LTG  DSNT NE T01110106,,,6000.0,,,51.98,,NNW,29.18,28.74,,Light Rain
KIGQ,09/28/2016 13:35 UTC,29.83,52.7,51.26,93.6,9.22,330.0,16.11,13.0,,,,704.0,,,,10.0,,KIGQ 281335Z AUTO 33008G14KT 10SM -RA OVC070 12/11 A2983 RMK AO2  T01150107,,,7000.0,,,50.89,,NNW,29.18,28.78,,Light Rain
KIGQ,09/28/2016 13:55 UTC,29.84,52.7,51.62,93.6,6.91,340.0,,13.0,,,,704.0,,,,10.0,,KIGQ 281355Z AUTO 34006KT 10SM -RA OVC070 12/11 A2984 RMK AO2  T01150109,,,7000.0,,,50.89,,NNW,29.19,28.79,,Light Rain
KIGQ,09/28/2016 14:15 UTC,29.85,52.7,50.9,93.6,9.22,320.0,,13.0,,,,704.0,,,,10.0,,KIGQ 281415Z AUTO 32008KT 10SM -RA OVC070 12/11 A2985 RMK AO2  T01150105,,,7000.0,,,50.89,,NW,29.2,28.8,,Light Rain
KIGQ,09/28/2016 14:35 UTC,29.86,53.6,51.8,93.6,8.05,320.0,,,854.0,,,142.0,703.0,,,10.0,,KIGQ 281435Z AUTO 32007KT 10SM SCT014 BKN070 OVC085 12/11  A2986 RMK AO2 T01200110,,,7000.0,,,51.78,,NW,29.21,28.76,,Overcast
KIGQ,09/28/2016 14:55 UTC,29.86,53.96,51.8,93.6,10.36,330.0,,,,,,122.0,754.0,,,10.0,,KIGQ 281455Z AUTO 33009KT 10SM SCT012 OVC075 12/11 A2986 RMK AO2  T01220110,,,7500.0,,,52.14,,NNW,29.21,28.75,,Overcast
KIGQ,09/28/2016 15:15 UTC,29.87,54.5,51.62,87.66,8.05,320.0,,,,,,143.0,754.0,,,10.0,,KIGQ 281515Z AUTO 32007KT 10SM BKN014 OVC075 13/11 A2987 RMK AO2  T01250109,,,1400.0,,,50.88,,NW,29.22,28.8,,Overcast
KIGQ,09/28/2016 15:35 UTC,29.88,54.5,50.9,87.66,9.22,360.0,,,,,,164.0,,,,10.0,,KIGQ 281535Z AUTO 36008KT 10SM OVC016 13/11 A2988 RMK AO2  T01250105,,,1600.0,,,50.88,,N,29.23,28.81,,Overcast
KIGQ,09/28/2016 15:55 UTC,29.89,54.5,51.26,87.66,8.05,360.0,,1.0,,,,164.0,,,,10.0,,KIGQ 281555Z AUTO 36007KT 330V030 10SM RA OVC016 13/11 A2989 RMK AO2 T01250107,,,1600.0,,,50.88,,N,29.24,28.82,,Rain
KIGQ,09/28/2016 16:15 UTC,29.88,53.6,52.34,93.6,10.36,330.0,17.27,1.0,604.0,,,162.0,452.0,,,10.0,,KIGQ 281615Z AUTO 33009G15KT 10SM RA SCT016 SCT045 OVC060 12/11  A2988 RMK AO2 T01200113,,,6000.0,,,51.78,,NNW,29.23,28.78,,Rain
KIGQ,09/28/2016 16:35 UTC,29.88,54.32,53.06,100.0,9.22,330.0,16.11,13.0,,,,493.0,654.0,,,10.0,,KIGQ 281635Z AUTO 33008G14KT 10SM -RA BKN049 OVC065 12/12  A2988 RMK AO2 T01240117,,,4900.0,,,54.32,,NNW,29.23,28.68,,Light Rain
KIGQ,09/28/2016 16:55 UTC,29.88,53.6,51.8,93.6,11.5,330.0,24.16,,,,,494.0,,,,10.0,,KIGQ 281655Z AUTO 33010G21KT 10SM OVC049 12/11 A2988 RMK AO2  T01200110,,,4900.0,,,51.78,,NNW,29.23,28.78,,Overcast
KIGQ,09/28/2016 17:15 UTC,29.9,53.96,51.8,93.6,9.22,330.0,,13.0,,,,474.0,,,,10.0,,KIGQ 281715Z AUTO 33008KT 10SM -RA OVC047 12/11 A2990 RMK AO2  T01220110,,,4700.0,,,52.14,,NNW,29.25,28.79,,Light Rain
KIGQ,09/28/2016 17:35 UTC,29.9,53.06,52.7,100.0,6.91,310.0,,1.0,,0.03,,473.0,504.0,,,5.0,,KIGQ 281735Z AUTO 31006KT 5SM RA BKN047 OVC050 12/12 A2990 RMK AO2  P0003 T01170115,,,4700.0,,,53.06,,NW,29.25,28.76,,Rain
KIGQ,09/28/2016 17:55 UTC,29.91,53.78,53.42,100.0,5.75,320.0,,1.0,464.0,0.05,,182.0,383.0,0.05,,7.0,,KIGQ 281755Z AUTO 32005KT 7SM RA SCT018 BKN038 OVC046 12/12  A2991 RMK AO2 LTG DSNT NE P0005 60005 T01210119 10126 20106,54.68,51.08,3800.0,,,53.78,,NW,29.26,28.74,,Rain
KIGQ,09/28/2016 18:15 UTC,29.9,54.86,54.32,93.65,9.22,320.0,,,654.0,,,182.0,493.0,,,10.0,,KIGQ 281815Z AUTO 32008KT 10SM SCT018 BKN049 OVC065 13/12  A2990 RMK AO2 LTG DSNT SE T01270124,,,4900.0,,,53.05,,NW,29.25,28.74,,Overcast
KIGQ,09/28/2016 18:35 UTC,29.9,55.4,54.14,93.65,12.66,340.0,20.71,13.0,654.0,,,202.0,493.0,,,10.0,,KIGQ 281835Z AUTO 34011G18KT 10SM -RA SCT020 BKN049 OVC065 13/12  A2990 RMK AO2 T01300123,,,4900.0,,,53.58,,NNW,29.25,28.72,,Light Rain
KIGQ,09/28/2016 18:55 UTC,29.91,55.22,53.96,93.65,10.36,350.0,17.27,14.0,324.0,0.03,,112.0,193.0,,,5.0,,KIGQ 281855Z AUTO 35009G15KT 5SM +RA SCT011 BKN019 OVC032 13/12  A2991 RMK AO2 P0003 T01290122,,,1900.0,,,53.4,,N,29.26,28.73,,Heavy Rain
KIGQ,09/28/2016 19:15 UTC,29.92,53.96,53.6,100.0,10.36,340.0,17.27,13.0,284.0,0.01,,112.0,193.0,,,7.0,,KIGQ 281915Z AUTO 34009G15KT 7SM -RA SCT011 BKN019 OVC028 12/12  A2992 RMK AO2 P0001 T01220120,,,1900.0,,,53.96,,NNW,29.27,28.74,,Light Rain
KIGQ,09/28/2016 19:35 UTC,29.93,53.6,53.24,100.0,11.5,320.0,16.11,,,0.01,,92.0,234.0,,,10.0,,KIGQ 281935Z AUTO 32010G14KT 10SM SCT009 OVC023 12/12 A2993 RMK AO2 P0001 T01200118,,,2300.0,,,53.6,,NW,29.28,28.77,,Overcast
KIGQ,09/28/2016 19:55 UTC,29.94,53.6,52.7,100.0,9.22,310.0,,13.0,,0.03,,172.0,254.0,,,10.0,,KIGQ 281955Z AUTO 31008KT 10SM -RA SCT017 OVC025 12/12 A2994 RMK AO2 P0003 T01200115,,,2500.0,,,53.6,,NW,29.29,28.78,,Light Rain
KIGQ,09/28/2016 20:15 UTC,29.94,53.78,53.06,100.0,11.5,330.0,,13.0,364.0,,,172.0,253.0,,,10.0,,KIGQ 282015Z AUTO 33010KT 10SM -RA SCT017 BKN025 OVC036 12/12  A2994 RMK AO2 T01210117,,,2500.0,,,53.78,,NNW,29.29,28.77,,Light Rain
KIGQ,09/28/2016 20:35 UTC,29.95,54.5,53.78,93.65,9.22,330.0,16.11,,344.0,,,233.0,293.0,,,10.0,,KIGQ 282035Z AUTO 33008G14KT 10SM BKN023 BKN029 OVC034 13/12  A2995 RMK AO2 T01250121,,,2300.0,,,52.69,,NNW,29.3,28.81,,Overcast
KIGQ,09/28/2016 20:55 UTC,29.96,55.22,53.96,93.65,11.5,330.0,17.27,,354.0,,0.06,253.0,293.0,,,10.0,,KIGQ 282055Z AUTO 33010G15KT 10SM BKN025 BKN029 OVC035 13/12  A2996 RMK AO2 60006 T01290122,,,2500.0,,,53.4,,NNW,29.31,28.79,,Overcast
KIGQ,09/28/2016 21:15 UTC,29.97,55.4,53.6,93.65,10.36,330.0,,,474.0,,,283.0,363.0,,,10.0,,KIGQ 282115Z AUTO 33009KT 10SM BKN028 BKN036 OVC047 13/12  A2997 RMK AO2 T01300120,,,2800.0,,,53.58,,NNW,29.32,28.79,,Overcast
KIGQ,09/28/2016 21:35 UTC,29.98,55.58,53.6,93.65,10.36,330.0,,,474.0,,,243.0,303.0,,,10.0,,KIGQ 282135Z AUTO 33009KT 10SM BKN024 BKN030 OVC047 13/12  A2998 RMK AO2 T01310120,,,2400.0,,,53.76,,NNW,29.33,28.79,,Overcast
KIGQ,09/28/2016 21:55 UTC,29.98,56.3,54.14,87.75,10.36,320.0,,,904.0,,,242.0,353.0,,,10.0,,KIGQ 282155Z AUTO 32009KT 10SM SCT024 BKN035 OVC090 14/12  A2998 RMK AO2 LTG DSNT NE T01350123,,,3500.0,,,52.68,,NW,29.33,28.82,,Overcast
KIGQ,09/28/2016 22:15 UTC,29.99,56.3,53.96,87.75,5.75,320.0,,,904.0,,,292.0,352.0,,,10.0,,KIGQ 282215Z AUTO 32005KT 10SM SCT029 SCT035 OVC090 14/12  A2999 RMK AO2 LTG DSNT NE T01350122,,,9000.0,,,52.68,,NW,29.34,28.83,,Overcast
KIGQ,09/28/2016 22:35 UTC,29.99,56.12,53.6,93.65,5.75,320.0,,,,,,903.0,,,,10.0,,KIGQ 282235Z AUTO 32005KT 10SM BKN090 13/12 A2999 RMK AO2 LTG DSNT  NE T01340120,,,9000.0,,,54.3,,NW,29.34,28.77,,Mostly Cloudy
KIGQ,09/28/2016 22:55 UTC,30.0,56.66,53.96,87.75,6.91,320.0,,,903.0,,,292.0,392.0,,,10.0,,KIGQ 282255Z AUTO 32006KT 10SM SCT029 SCT039 BKN090 14/12  A3000 RMK AO2 T01370122,,,9000.0,,,53.03,,NW,29.35,28.83,,Mostly Cloudy
KIGQ,09/28/2016 23:15 UTC,30.0,57.2,54.14,87.75,3.44,310.0,,,954.0,,,292.0,353.0,,,10.0,,KIGQ 282315Z AUTO 31003KT 10SM SCT029 BKN035 OVC095 14/12  A3000 RMK AO2 LTG DSNT N T01400123,,,3500.0,,,53.57,,NW,29.35,28.8,,Overcast
KIGQ,09/28/2016 23:35 UTC,30.0,57.2,54.5,93.7,4.61,340.0,,14.0,954.0,0.01,,292.0,333.0,,,7.0,,KIGQ 282335Z AUTO 34004KT 7SM +RA SCT029 BKN033 OVC095 14/13  A3000 RMK AO2 LTG DSNT N P0001 T01400125,,,3300.0,,,55.38,,NNW,29.35,28.72,,Heavy Rain
KIGQ,09/28/2016 23:55 UTC,30.01,57.2,51.08,82.14,14.97,30.0,27.63,1.0,704.0,0.02,,312.0,653.0,0.08,,10.0,,KIGQ 282355Z AUTO 03013G24KT 10SM RA SCT031 BKN065 OVC070 14/11  A3001 RMK AO2 P0002 60008 T01400106 10145 20120,58.1,53.6,6500.0,,,51.75,,NNE,29.36,28.88,,Rain
KIGQ,09/29/2016 00:15 UTC,30.02,56.3,50.9,82.14,6.91,10.0,,13.0,,,,654.0,,,,10.0,,KIGQ 290015Z AUTO 01006KT 10SM -RA OVC065 14/11 A3002 RMK AO2 LTG  DSNT NE T01350105,,,6500.0,,,50.87,,N,29.37,28.93,,Light Rain
KIGQ,09/29/2016 00:35 UTC,30.03,56.66,52.16,82.14,4.61,340.0,,,,,,602.0,754.0,,,10.0,,KIGQ 290035Z AUTO 34004KT 10SM SCT060 OVC075 14/11 A3003 RMK AO2  T01370112,,,7500.0,,,51.22,,NNW,29.38,28.93,,Overcast
KIGQ,09/29/2016 00:55 UTC,30.04,55.76,53.96,93.65,6.91,70.0,,14.0,804.0,0.02,,132.0,273.0,,,10.0,,KIGQ 290055Z AUTO 07006KT 10SM +RA SCT013 BKN027 OVC080 13/12  A3004 RMK AO2 P0002 T01320122,,,2700.0,,,53.94,,ENE,29.39,28.84,,Heavy Rain
KIGQ,09/29/2016 01:15 UTC,30.03,56.48,55.4,93.7,8.05,350.0,,13.0,364.0,0.02,,152.0,273.0,,,10.0,,KIGQ 290115Z AUTO 35007KT 10SM -RA SCT015 BKN027 OVC036 14/13  A3003 RMK AO2 P0002 T01360130,,,2700.0,,,54.67,,N,29.38,28.79,,Light Rain
KIGQ,09/29/2016 01:35 UTC,30.03,55.58,55.04,100.0,11.5,330.0,17.27,14.0,374.0,0.11,,72.0,223.0,,,3.0,,KIGQ 290135Z AUTO 33010G15KT 3SM +RA SCT007 BKN022 OVC037 13/13  A3003 RMK AO2 P0011 T01310128,,,2200.0,,,55.58,,NNW,29.38,28.76,,Heavy Rain
KIGQ,09/29/2016 01:55 UTC,30.03,54.86,54.86,100.0,8.05,30.0,,14.0,294.0,0.27,,92.0,163.0,,,3.0,,KIGQ 290155Z AUTO 03007KT 3SM +RA SCT009 BKN016 OVC029 13/13  A3003 RMK AO2 P0027 T01270127,,,1600.0,,,54.86,,NNE,29.38,28.8,,Heavy Rain
KIGQ,09/29/2016 02:15 UTC,30.03,55.4,55.4,100.0,3.44,350.0,,,224.0,,,92.0,162.0,,,10.0,,KIGQ 290215Z AUTO 35003KT 10SM SCT009 SCT016 OVC022 13/13  A3003 RMK AO2 T01300130,,,2200.0,,,55.4,,N,29.38,28.77,,Overcast
KIGQ,09/29/2016 02:35 UTC,30.04,58.1,56.3,93.75,10.36,50.0,,13.0,554.0,,,223.0,343.0,,,10.0,,KIGQ 290235Z AUTO 05009KT 10SM -RA BKN022 BKN034 OVC055 15/14  A3004 RMK AO2 T01450135,,,2200.0,,,56.29,,NE,29.39,28.71,,Light Rain
KIGQ,09/29/2016 02:55 UTC,30.04,58.1,56.48,93.75,8.05,40.0,,,504.0,,0.29,222.0,313.0,,,10.0,,KIGQ 290255Z AUTO 04007KT 10SM SCT022 BKN031 OVC050 15/14  A3004 RMK AO2 60029 T01450136,,,3100.0,,,56.29,,NE,29.39,28.71,,Overcast
KIGQ,09/29/2016 03:15 UTC,30.04,58.46,56.84,93.75,10.36,40.0,16.11,,704.0,,,223.0,313.0,,,10.0,,KIGQ 290315Z AUTO 04009G14KT 10SM BKN022 BKN031 OVC070 15/14  A3004 RMK AO2 T01470138,,,2200.0,,,56.65,,NE,29.39,28.69,,Overcast
KIGQ,09/29/2016 03:35 UTC,30.04,59.18,56.3,93.75,10.36,50.0,19.57,,704.0,,,202.0,322.0,,,10.0,,KIGQ 290335Z AUTO 05009G17KT 10SM SCT020 SCT032 OVC070 15/14  A3004 RMK AO2 T01510135,,,7000.0,,,57.36,,NE,29.39,28.65,,Overcast
KIGQ,09/29/2016 03:55 UTC,30.04,59.0,56.3,93.75,8.05,50.0,,,704.0,,,262.0,442.0,,,10.0,,KIGQ 290355Z AUTO 05007KT 10SM SCT026 SCT044 OVC070 15/14  A3004 RMK AO2 T01500135,,,7000.0,,,57.18,,NE,29.39,28.66,,Overcast
KIGQ,09/29/2016 04:15 UTC,30.04,59.54,56.48,93.75,4.61,30.0,,,604.0,,,263.0,343.0,,,10.0,,KIGQ 290415Z AUTO 03004KT 10SM BKN026 BKN034 OVC060 15/14  A3004 RMK AO2 T01530136,,,2600.0,,,57.72,,NNE,29.39,28.63,,Overcast
KIGQ,09/29/2016 04:35 UTC,30.04,60.26,56.48,87.94,11.5,20.0,17.27,13.0,704.0,,,252.0,343.0,,,10.0,,KIGQ 290435Z AUTO 02010G15KT 10SM -RA SCT025 BKN034 OVC070 16/14  A3004 RMK AO2 T01570136,,,3400.0,,,56.64,,NNE,29.39,28.67,,Light Rain
KIGQ,09/29/2016 04:55 UTC,30.04,60.98,57.38,87.94,13.8,30.0,,,504.0,,,233.0,313.0,,,10.0,,KIGQ 290455Z AUTO 03012KT 10SM BKN023 BKN031 OVC050 16/14  A3004 RMK AO2 T01610141,,,2300.0,,,57.35,,NNE,29.39,28.63,,Overcast
KIGQ,09/29/2016 05:15 UTC,30.04,60.62,57.02,87.94,11.5,40.0,20.71,13.0,704.0,,,232.0,483.0,,,10.0,,KIGQ 290515Z AUTO 04010G18KT 10SM -RA SCT023 BKN048 OVC070 16/14  A3004 RMK AO2 T01590139,,,4800.0,,,57.0,,NE,29.39,28.65,,Light Rain
KIGQ,09/29/2016 05:35 UTC,30.04,59.9,56.3,87.94,9.22,50.0,17.27,,704.0,,,432.0,503.0,,,10.0,,KIGQ 290535Z AUTO 05008G15KT 10SM SCT043 BKN050 OVC070 16/14  A3004 RMK AO2 T01550135,,,5000.0,,,56.29,,NE,29.39,28.69,,Overcast
KIGQ,09/29/2016 05:55 UTC,30.03,59.9,56.3,87.94,6.91,40.0,,,904.0,,,492.0,703.0,0.29,,10.0,,KIGQ 290555Z AUTO 04006KT 10SM SCT049 BKN070 OVC090 16/14  A3003 RMK AO2 60029 T01550135 10165 20126 401650106,61.7,54.68,7000.0,61.7,51.08,56.29,,NE,29.38,28.68,,Overcast
KIGQ,09/29/2016 06:15 UTC,30.03,60.08,56.3,87.94,5.75,20.0,,,804.0,,,262.0,753.0,,,10.0,,KIGQ 290615Z AUTO 02005KT 10SM SCT026 BKN075 OVC080 16/14  A3003 RMK AO2 T01560135,,,7500.0,,,56.46,,NNE,29.38,28.67,,Overcast
KIGQ,09/29/2016 06:35 UTC,30.03,61.34,56.48,87.94,9.22,40.0,,,904.0,,,282.0,703.0,,,10.0,,KIGQ 290635Z AUTO 04008KT 10SM SCT028 BKN070 OVC090 16/14  A3003 RMK AO2 T01630136,,,7000.0,,,57.71,,NE,29.38,28.6,,Overcast
KIGQ,09/29/2016 06:55 UTC,30.03,61.88,57.56,82.52,14.97,40.0,20.71,,804.0,,,262.0,393.0,,,10.0,,KIGQ 290655Z AUTO 04013G18KT 10SM SCT026 BKN039 OVC080 17/14  A3003 RMK AO2 T01660142,,,3900.0,,,56.46,,NE,29.38,28.65,,Overcast
KIGQ,09/29/2016 07:15 UTC,30.03,61.52,58.1,93.8,13.8,50.0,18.41,13.0,414.0,,,203.0,273.0,,,10.0,,KIGQ 290715Z AUTO 05012G16KT 10SM -RA BKN020 BKN027 OVC041 16/15  A3003 RMK AO2 T01640145,,,2000.0,,,59.7,,NE,29.38,28.5,,Light Rain
KIGQ,09/29/2016 07:35 UTC,30.03,60.8,58.28,93.8,12.66,40.0,21.85,13.0,804.0,,,202.0,272.0,,,10.0,,KIGQ 290735Z AUTO 04011G19KT 10SM -RA SCT020 SCT027 OVC080 16/15  A3003 RMK AO2 T01600146,,,8000.0,,,58.99,,NE,29.38,28.55,,Light Rain
KIGQ,09/29/2016 07:55 UTC,30.04,60.44,58.46,93.8,10.36,40.0,17.27,13.0,804.0,,,212.0,602.0,,,10.0,,KIGQ 290755Z AUTO 04009G15KT 10SM -RA SCT021 SCT060 OVC080 16/15  A3004 RMK AO2 T01580147,,,8000.0,,,58.63,,NE,29.39,28.58,,Light Rain
KIGQ,09/29/2016 08:15 UTC,30.04,60.26,58.64,93.8,10.36,40.0,,13.0,754.0,,,212.0,353.0,,,10.0,,KIGQ 290815Z AUTO 04009KT 10SM -RA SCT021 BKN035 OVC075 16/15  A3004 RMK AO2 T01570148,,,3500.0,,,58.45,,NE,29.39,28.59,,Light Rain
KIGQ,09/29/2016 08:35 UTC,30.04,60.8,58.46,93.8,11.5,40.0,,,904.0,,,192.0,273.0,,,10.0,,KIGQ 290835Z AUTO 04010KT 10SM SCT019 BKN027 OVC090 16/15  A3004 RMK AO2 T01600147,,,2700.0,,,58.99,,NE,29.39,28.56,,Overcast
KIGQ,09/29/2016 08:55 UTC,30.04,60.98,58.1,93.8,9.22,50.0,,,904.0,,,222.0,343.0,,,10.0,,KIGQ 290855Z AUTO 05008KT 10SM SCT022 BKN034 OVC090 16/15  A3004 RMK AO2 T01610145,,,3400.0,,,59.17,,NE,29.39,28.54,,Overcast
KIGQ,09/29/2016 09:15 UTC,30.05,61.16,58.46,93.8,5.75,60.0,,1.0,,,,183.0,284.0,,,10.0,,KIGQ 290915Z AUTO 06005KT 10SM RA BKN018 OVC028 16/15 A3005 RMK AO2 T01620147,,,1800.0,,,59.34,,ENE,29.4,28.54,,Rain
KIGQ,09/29/2016 09:35 UTC,30.06,60.26,58.1,93.8,14.97,60.0,21.85,13.0,604.0,,,183.0,433.0,,,10.0,,KIGQ 290935Z AUTO 06013G19KT 10SM -RA BKN018 BKN043 OVC060 16/15  A3006 RMK AO2 T01570145,,,1800.0,,,58.45,,ENE,29.41,28.61,,Light Rain
KIGQ,09/29/2016 09:55 UTC,30.07,59.72,57.56,93.75,11.5,70.0,21.85,17.0,604.0,,,202.0,462.0,,,10.0,,KIGQ 290955Z AUTO 07010G19KT 10SM -DZ SCT020 SCT046 OVC060 15/14  A3007 RMK AO2 T01540142,,,6000.0,,,57.9,,ENE,29.42,28.65,,Light Drizzle
KIGQ,09/29/2016 10:15 UTC,30.08,59.54,57.2,93.75,8.05,60.0,18.41,1.0,754.0,,,482.0,603.0,,,10.0,,KIGQ 291015Z AUTO 06007G16KT 10SM RA SCT048 BKN060 OVC075 15/14  A3008 RMK AO2 T01530140,,,6000.0,,,57.72,,ENE,29.43,28.67,,Rain
KIGQ,09/29/2016 10:35 UTC,30.08,59.54,57.92,93.75,8.05,60.0,,13.0,754.0,,,232.0,603.0,,,10.0,,KIGQ 291035Z AUTO 06007KT 10SM -RA SCT023 BKN060 OVC075 15/14  A3008 RMK AO2 T01530144,,,6000.0,,,57.72,,ENE,29.43,28.67,,Light Rain
KIGQ,09/29/2016 10:55 UTC,30.08,59.9,58.46,93.8,9.22,50.0,,13.0,954.0,,,162.0,803.0,,,10.0,,KIGQ 291055Z AUTO 05008KT 10SM -RA SCT016 BKN080 OVC095 16/15  A3008 RMK AO2 T01550147,,,8000.0,,,58.09,,NE,29.43,28.65,,Light Rain
KIGQ,09/29/2016 11:15 UTC,30.09,60.26,59.0,93.8,10.36,50.0,,13.0,804.0,,,163.0,343.0,,,10.0,,KIGQ 291115Z AUTO 05009KT 10SM -RA BKN016 BKN034 OVC080 16/15  A3009 RMK AO2 T01570150,,,1600.0,,,58.45,,NE,29.44,28.64,,Light Rain
KIGQ,09/29/2016 11:35 UTC,30.09,60.26,58.64,93.8,9.22,30.0,16.11,13.0,1004.0,,,142.0,753.0,,,10.0,,KIGQ 291135Z AUTO 03008G14KT 10SM -RA SCT014 BKN075 OVC100 16/15  A3009 RMK AO2 T01570148,,,7500.0,,,58.45,,NNE,29.44,28.64,,Light Rain
KIGQ,09/29/2016 11:55 UTC,30.09,59.9,58.1,93.8,5.75,40.0,,13.0,1104.0,,,152.0,753.0,,0.42,10.0,,KIGQ 291155Z AUTO 04005KT 10SM -RA SCT015 BKN075 OVC110 16/15  A3009 RMK AO2 70042 T01550145 10167 20152,62.06,59.36,7500.0,,,58.09,,NE,29.44,28.66,,Light Rain
KIGQ,09/29/2016 12:15 UTC,30.1,60.26,59.18,93.8,5.75,40.0,,13.0,854.0,,,172.0,553.0,,,10.0,,KIGQ 291215Z AUTO 04005KT 10SM -RA SCT017 BKN055 OVC085 16/15  A3010 RMK AO2 T01570151,,,5500.0,,,58.45,,NE,29.45,28.65,,Light Rain
KIGQ,09/29/2016 12:35 UTC,30.1,60.44,59.9,100.0,0.0,0.0,,1.0,,0.01,,174.0,,,,7.0,,KIGQ 291235Z AUTO 00000KT 7SM RA OVC017 16/16 A3010 RMK AO2 P0001  T01580155,,,1700.0,,,60.44,,N,29.45,28.55,,Rain
KIGQ,09/29/2016 12:55 UTC,30.09,60.8,59.9,100.0,8.05,10.0,,1.0,604.0,0.01,,152.0,213.0,,,7.0,,KIGQ 291255Z AUTO 01007KT 7SM RA SCT015 BKN021 OVC060 16/16  A3009 RMK AO2 P0001 T01600155,,,2100.0,,,60.8,,N,29.44,28.52,,Rain
KIGQ,09/29/2016 13:15 UTC,30.11,60.8,60.26,100.0,11.5,30.0,18.41,1.0,244.0,0.04,,113.0,153.0,,,7.0,,KIGQ 291315Z AUTO 03010G16KT 7SM RA BKN011 BKN015 OVC024 16/16  A3011 RMK AO2 P0004 T01600157,,,1100.0,,,60.8,,NNE,29.46,28.54,,Rain
KIGQ,09/29/2016 13:35 UTC,30.11,60.8,60.26,100.0,10.36,30.0,18.41,13.0,,0.05,,113.0,184.0,,,10.0,,KIGQ 291335Z AUTO 03009G16KT 10SM -RA BKN011 OVC018 16/16  A3011 RMK AO2 P0005 T01600157,,,1100.0,,,60.8,,NNE,29.46,28.54,,Light Rain
KIGQ,09/29/2016 13:55 UTC,30.11,60.8,60.26,100.0,10.36,50.0,27.63,13.0,,0.07,,113.0,184.0,,,10.0,,KIGQ 291355Z AUTO 05009G24KT 10SM -RA BKN011 OVC018 16/16  A3011 RMK AO2 P0007 T01600157,,,1100.0,,,60.8,,NE,29.46,28.54,,Light Rain
KIGQ,09/29/2016 14:15 UTC,30.12,60.44,60.26,100.0,12.66,40.0,21.85,13.0,,0.03,,93.0,184.0,,,5.0,,KIGQ 291415Z AUTO 04011G19KT 5SM -RA BKN009 OVC018 16/16 A3012 RMK AO2 P0003 T01580157,,,900.0,,,60.44,,NE,29.47,28.57,,Light Rain
KIGQ,09/29/2016 14:35 UTC,30.13,60.62,59.9,100.0,11.5,60.0,20.71,13.0,204.0,0.04,,92.0,133.0,,,10.0,,KIGQ 291435Z AUTO 06010G18KT 10SM -RA SCT009 BKN013 OVC020 16/16  A3013 RMK AO2 P0004 T01590155,,,1300.0,,,60.62,,ENE,29.47,28.56,,Light Rain
KIGQ,09/29/2016 14:55 UTC,30.14,60.8,60.08,100.0,16.11,50.0,21.85,13.0,,0.04,0.12,113.0,194.0,,,10.0,,KIGQ 291455Z AUTO 05014G19KT 10SM -RA BKN011 OVC019 16/16  A3014 RMK AO2 P0004 60012 T01600156,,,1100.0,,,60.8,,NE,29.48,28.56,,Light Rain
KIGQ,09/29/2016 15:15 UTC,30.14,61.16,60.26,100.0,11.5,50.0,23.02,13.0,,,,113.0,194.0,,,10.0,,KIGQ 291515Z AUTO 05010G20KT 10SM -RA BKN011 OVC019 16/16  A3014 RMK AO2 T01620157,,,1100.0,,,61.16,,NE,29.48,28.53,,Light Rain
KIGQ,09/29/2016 15:35 UTC,30.15,61.7,60.8,93.84,8.05,40.0,18.41,13.0,,,,113.0,194.0,,,10.0,,KIGQ 291535Z AUTO 04007G16KT 10SM -RA BKN011 OVC019 17/16  A3015 RMK AO2 T01650160,,,1100.0,,,59.89,,NE,29.49,28.6,,Light Rain
KIGQ,09/29/2016 15:55 UTC,30.15,61.7,60.26,93.84,8.05,40.0,,,,,,133.0,214.0,,,10.0,,KIGQ 291555Z AUTO 04007KT 10SM BKN013 OVC021 17/16 A3015 RMK AO2  T01650157,,,1300.0,,,59.89,,NE,29.49,28.6,,Overcast
KIGQ,09/29/2016 16:15 UTC,30.16,61.88,61.16,93.84,12.66,40.0,17.27,13.0,,0.01,,113.0,194.0,,,10.0,,KIGQ 291615Z AUTO 04011G15KT 10SM -RA BKN011 OVC019 17/16  A3016 RMK AO2 P0001 T01660162,,,1100.0,,,60.07,,NE,29.5,28.6,,Light Rain
KIGQ,09/29/2016 16:35 UTC,30.16,62.96,61.52,93.84,10.36,40.0,21.85,13.0,424.0,0.01,,113.0,243.0,,,10.0,,KIGQ 291635Z AUTO 04009G19KT 10SM -RA BKN011 BKN024 OVC042 17/16  A3016 RMK AO2 P0001 T01720164,,,1100.0,,,61.14,,NE,29.5,28.53,,Light Rain
KIGQ,09/29/2016 16:55 UTC,30.16,63.14,61.34,93.84,11.5,40.0,,13.0,414.0,0.01,,132.0,223.0,,,10.0,,KIGQ 291655Z AUTO 04010KT 10SM -RA SCT013 BKN022 OVC041 17/16  A3016 RMK AO2 LTG DSNT E P0001 T01730163,,,2200.0,,,61.32,,NE,29.5,28.52,,Light Rain
KIGQ,09/29/2016 17:15 UTC,30.16,60.44,60.26,100.0,11.5,40.0,,14.0,274.0,0.11,,83.0,143.0,,,2.5,,KIGQ 291715Z AUTO 04010KT 2 1/2SM +RA BKN008 BKN014 OVC027 16/16  A3016 RMK AO2 P0011 T01580157,,,800.0,,,60.44,,NE,29.5,28.6,,Heavy Rain
KIGQ,09/29/2016 17:35 UTC,30.16,61.7,61.34,93.84,12.66,50.0,18.41,,,0.11,,83.0,134.0,,,10.0,,KIGQ 291735Z AUTO 05011G16KT 10SM BKN008 OVC013 17/16 A3016 RMK AO2 P0011 T01650163,,,800.0,,,59.89,,NE,29.5,28.61,,Overcast
KIGQ,09/29/2016 17:55 UTC,30.15,63.68,61.88,93.89,10.36,50.0,17.27,,,0.11,,123.0,224.0,0.24,,10.0,,KIGQ 291755Z AUTO 05009G15KT 10SM BKN012 OVC022 18/17 A3015 RMK AO2 P0011 60024 T01760166 10176 20155,63.68,59.9,1200.0,,,61.87,,NE,29.49,28.47,,Overcast
KIGQ,09/29/2016 18:15 UTC,30.15,63.68,61.88,93.89,14.97,40.0,21.85,,,,,124.0,,,,10.0,,KIGQ 291815Z AUTO 04013G19KT 10SM OVC012 18/17 A3015 RMK AO2  T01760166,,,1200.0,,,61.87,,NE,29.49,28.47,,Overcast
KIGQ,09/29/2016 18:35 UTC,30.15,64.4,60.98,88.11,17.27,40.0,23.02,,,,,124.0,,,,10.0,,KIGQ 291835Z AUTO 04015G20KT 10SM OVC012 18/16 A3015 RMK AO2  T01800161,,,1200.0,,,60.78,,NE,29.49,28.52,,Overcast
KIGQ,09/29/2016 18:55 UTC,30.15,64.76,61.16,88.11,14.97,50.0,19.57,,484.0,,,143.0,213.0,,,10.0,,KIGQ 291855Z AUTO 05013G17KT 10SM BKN014 BKN021 OVC048 18/16  A3015 RMK AO2 T01820162,,,1400.0,,,61.13,,NE,29.49,28.5,,Overcast
KIGQ,09/29/2016 19:15 UTC,30.15,64.4,60.98,88.11,14.97,30.0,23.02,,,,,144.0,,,,10.0,,KIGQ 291915Z AUTO 03013G20KT 10SM OVC014 18/16 A3015 RMK AO2  T01800161,,,1400.0,,,60.78,,NNE,29.49,28.52,,Overcast
KIGQ,09/29/2016 19:35 UTC,30.16,64.4,60.8,88.11,14.97,40.0,20.71,,,,,164.0,,,,10.0,,KIGQ 291935Z AUTO 04013G18KT 10SM OVC016 18/16 A3016 RMK AO2  T01800160,,,1600.0,,,60.78,,NE,29.5,28.53,,Overcast
KIGQ,09/29/2016 19:55 UTC,30.16,64.94,60.98,88.11,16.11,40.0,23.02,,,,,163.0,274.0,,,10.0,,KIGQ 291955Z AUTO 04014G20KT 10SM BKN016 OVC027 18/16 A3016 RMK AO2 T01830161,,,1600.0,,,61.31,,NE,29.5,28.5,,Overcast
KIGQ,09/29/2016 20:15 UTC,30.15,64.76,60.98,88.11,13.8,40.0,23.02,,454.0,,,162.0,243.0,,,10.0,,KIGQ 292015Z AUTO 04012G20KT 10SM SCT016 BKN024 OVC045 18/16  A3015 RMK AO2 T01820161,,,2400.0,,,61.13,,NE,29.49,28.5,,Overcast
KIGQ,09/29/2016 20:35 UTC,30.15,65.66,60.26,82.77,20.71,30.0,26.46,,303.0,,,182.0,233.0,,,10.0,,KIGQ 292035Z AUTO 03018G23KT 10SM SCT018 BKN023 BKN030 19/16  A3015 RMK AO2 T01870157,,,2300.0,,,60.24,,NNE,29.49,28.53,,Mostly Cloudy
KIGQ,09/29/2016 20:55 UTC,30.15,64.94,59.9,88.11,19.57,40.0,26.46,,603.0,,,182.0,422.0,,,10.0,,KIGQ 292055Z AUTO 04017G23KT 10SM SCT018 SCT042 BKN060 18/16  A3015 RMK AO2 T01830155,,,6000.0,,,61.31,,NE,29.49,28.49,,Mostly Cloudy
KIGQ,09/29/2016 21:15 UTC,30.16,64.58,60.08,88.11,17.27,30.0,28.77,,504.0,,,183.0,353.0,,,10.0,,KIGQ 292115Z AUTO 03015G25KT 10SM BKN018 BKN035 OVC050 18/16  A3016 RMK AO2 T01810156,,,1800.0,,,60.95,,NNE,29.5,28.52,,Overcast
KIGQ,09/29/2016 21:35 UTC,30.16,64.4,60.08,88.11,18.41,40.0,27.63,,854.0,,,183.0,373.0,,,10.0,,KIGQ 292135Z AUTO 04016G24KT 10SM BKN018 BKN037 OVC085 18/16  A3016 RMK AO2 T01800156,,,1800.0,,,60.78,,NE,29.5,28.53,,Overcast
KIGQ,09/29/2016 21:55 UTC,30.17,64.4,60.08,88.11,17.27,40.0,26.46,,853.0,,,182.0,423.0,,,10.0,,KIGQ 292155Z AUTO 04015G23KT 10SM SCT018 BKN042 BKN085 18/16  A3017 RMK AO2 T01800156,,,4200.0,,,60.78,,NE,29.51,28.54,,Mostly Cloudy
KIGQ,09/29/2016 22:15 UTC,30.17,64.4,60.08,88.11,16.11,40.0,26.46,,,,,182.0,423.0,,,10.0,,KIGQ 292215Z AUTO 04014G23KT 10SM SCT018 BKN042 18/16 A3017 RMK AO2 T01800156,,,4200.0,,,60.78,,NE,29.51,28.54,,Mostly Cloudy
KIGQ,09/29/2016 22:35 UTC,30.17,63.86,59.9,88.11,16.11,40.0,23.02,,,,,163.0,314.0,,,10.0,,KIGQ 292235Z AUTO 04014G20KT 10SM BKN016 OVC031 18/16 A3017 RMK AO2 T01770155,,,1600.0,,,60.25,,NE,29.51,28.58,,Overcast
KIGQ,09/29/2016 22:55 UTC,30.18,63.5,60.08,88.11,16.11,30.0,23.02,,,,,163.0,1004.0,,,10.0,,KIGQ 292255Z AUTO 03014G20KT 10SM BKN016 OVC100 18/16 A3018 RMK AO2 T01750156,,,1600.0,,,59.89,,NNE,29.52,28.61,,Overcast
KIGQ,09/29/2016 23:15 UTC,30.19,63.5,60.08,88.11,17.27,40.0,25.32,,,,,164.0,,,,10.0,,KIGQ 292315Z AUTO 04015G22KT 10SM OVC016 18/16 A3019 RMK AO2  T01750156,,,1600.0,,,59.89,,NE,29.53,28.62,,Overcast
KIGQ,09/29/2016 23:35 UTC,30.19,62.78,59.9,93.84,13.8,40.0,17.27,,,,,144.0,,,,10.0,,KIGQ 292335Z AUTO 04012G15KT 10SM OVC014 17/16 A3019 RMK AO2  T01710155,,,1400.0,,,60.96,,NE,29.53,28.57,,Overcast
KIGQ,09/29/2016 23:55 UTC,30.19,62.6,59.9,93.84,16.11,40.0,23.02,,,,,144.0,,,,10.0,,KIGQ 292355Z AUTO 04014G20KT 10SM OVC014 17/16 A3019 RMK AO2  T01700155 10190 20170,66.2,62.6,1400.0,,,60.79,,NE,29.53,28.58,,Overcast
KIGQ,09/30/2016 00:15 UTC,30.2,62.24,59.54,88.02,14.97,40.0,20.71,,,,,144.0,,,,10.0,,KIGQ 300015Z AUTO 04013G18KT 10SM OVC014 17/15 A3020 RMK AO2  T01680153,,,1400.0,,,58.62,,NE,29.54,28.71,,Overcast
KIGQ,09/30/2016 00:35 UTC,30.2,62.24,59.36,88.02,12.66,30.0,20.71,,,,,164.0,,,,10.0,,KIGQ 300035Z AUTO 03011G18KT 10SM OVC016 17/15 A3020 RMK AO2  T01680152,,,1600.0,,,58.62,,NNE,29.54,28.71,,Overcast
KIGQ,09/30/2016 00:55 UTC,30.21,62.06,59.18,88.02,14.97,40.0,19.57,,,,,184.0,,,,10.0,,KIGQ 300055Z AUTO 04013G17KT 10SM OVC018 17/15 A3021 RMK AO2  T01670151,,,1800.0,,,58.44,,NE,29.55,28.73,,Overcast
KIGQ,09/30/2016 01:15 UTC,30.21,62.06,59.18,88.02,13.8,30.0,19.57,,,,,163.0,214.0,,,10.0,,KIGQ 300115Z AUTO 03012G17KT 10SM BKN016 OVC021 17/15 A3021 RMK AO2 T01670151,,,1600.0,,,58.44,,NNE,29.55,28.73,,Overcast
KIGQ,09/30/2016 01:35 UTC,30.21,62.06,59.18,88.02,8.05,50.0,,,264.0,,,142.0,213.0,,,10.0,,KIGQ 300135Z AUTO 05007KT 10SM SCT014 BKN021 OVC026 17/15  A3021 RMK AO2 T01670151,,,2100.0,,,58.44,,NE,29.55,28.73,,Overcast
KIGQ,09/30/2016 01:55 UTC,30.21,62.24,59.18,88.02,10.36,40.0,17.27,,,,,183.0,254.0,,,10.0,,KIGQ 300155Z AUTO 04009G15KT 10SM BKN018 OVC025 17/15 A3021 RMK AO2 T01680151,,,1800.0,,,58.62,,NE,29.55,28.72,,Overcast
KIGQ,09/30/2016 02:15 UTC,30.21,62.06,59.18,88.02,10.36,40.0,17.27,,,,,163.0,224.0,,,10.0,,KIGQ 300215Z AUTO 04009G15KT 10SM BKN016 OVC022 17/15 A3021 RMK AO2 T01670151,,,1600.0,,,58.44,,NE,29.55,28.73,,Overcast
KIGQ,09/30/2016 02:35 UTC,30.21,60.98,59.54,93.8,8.05,40.0,,1.0,,,,164.0,,,,10.0,,KIGQ 300235Z AUTO 04007KT 10SM RA OVC016 16/15 A3021 RMK AO2  T01610153,,,1600.0,,,59.17,,NE,29.55,28.71,,Rain
KIGQ,09/30/2016 02:55 UTC,30.2,60.44,59.9,100.0,8.05,50.0,,13.0,,,,133.0,194.0,,,7.0,,KIGQ 300255Z AUTO 05007KT 7SM -RA BKN013 OVC019 16/16 A3020 RMK AO2 T01580155,,,1300.0,,,60.44,,NE,29.54,28.64,,Light Rain
KIGQ,09/30/2016 03:15 UTC,30.2,60.44,59.9,100.0,9.22,50.0,16.11,1.0,,,,113.0,174.0,,,10.0,,KIGQ 300315Z AUTO 05008G14KT 10SM RA BKN011 OVC017 16/16 A3020 RMK AO2 T01580155,,,1100.0,,,60.44,,NE,29.54,28.64,,Rain
KIGQ,09/30/2016 03:35 UTC,30.19,60.08,59.9,100.0,5.75,40.0,,1.0,,0.01,,113.0,174.0,,,10.0,,KIGQ 300335Z AUTO 04005KT 10SM RA BKN011 OVC017 16/16 A3019 RMK AO2 P0001 T01560155,,,1100.0,,,60.08,,NE,29.53,28.65,,Rain
KIGQ,09/30/2016 03:55 UTC,30.19,60.08,60.08,100.0,8.05,30.0,,1.0,,0.01,,93.0,154.0,,,10.0,,KIGQ 300355Z AUTO 03007KT 10SM RA BKN009 OVC015 16/16 A3019 RMK AO2 P0001 T01560156,,,900.0,,,60.08,,NNE,29.53,28.65,,Rain
KIGQ,09/30/2016 04:15 UTC,30.19,60.08,59.9,100.0,8.05,30.0,,1.0,,,,94.0,,,,10.0,,KIGQ 300415Z AUTO 03007KT 10SM RA OVC009 16/16 A3019 RMK AO2  T01560155,,,900.0,,,60.08,,NNE,29.53,28.65,,Rain
KIGQ,09/30/2016 04:35 UTC,30.18,60.26,59.9,100.0,8.05,40.0,,13.0,,,,93.0,174.0,,,10.0,,KIGQ 300435Z AUTO 04007KT 10SM -RA BKN009 OVC017 16/16 A3018 RMK AO2 T01570155,,,900.0,,,60.26,,NE,29.52,28.63,,Light Rain
KIGQ,09/30/2016 04:55 UTC,30.18,60.44,59.36,93.8,9.22,40.0,,13.0,,,,173.0,234.0,,,10.0,,KIGQ 300455Z AUTO 04008KT 10SM -RA BKN017 OVC023 16/15 A3018 RMK AO2 T01580152,,,1700.0,,,58.63,,NE,29.52,28.71,,Light Rain
KIGQ,09/30/2016 05:15 UTC,30.17,60.44,59.54,93.8,10.36,50.0,,13.0,,,,174.0,,,,10.0,,KIGQ 300515Z AUTO 05009KT 10SM -RA OVC017 16/15 A3017 RMK AO2  T01580153,,,1700.0,,,58.63,,NE,29.51,28.7,,Light Rain
KIGQ,09/30/2016 05:35 UTC,30.16,60.08,59.36,93.8,9.22,40.0,17.27,13.0,,,,143.0,214.0,,,10.0,,KIGQ 300535Z AUTO 04008G15KT 10SM -RA BKN014 OVC021 16/15  A3016 RMK AO2 T01560152,,,1400.0,,,58.27,,NE,29.5,28.71,,Light Rain
KIGQ,09/30/2016 05:55 UTC,30.14,59.9,59.54,93.8,8.05,30.0,,13.0,,,,133.0,224.0,0.01,,10.0,,KIGQ 300555Z AUTO 03007KT 10SM -RA BKN013 OVC022 16/15 A3014 RMK AO2 60001 T01550153 10170 20155 401900152,62.6,59.9,1300.0,66.2,59.36,58.09,,NNE,29.48,28.7,,Light Rain
KIGQ,09/30/2016 06:15 UTC,30.15,59.9,59.18,93.8,10.36,50.0,18.41,1.0,,,,153.0,224.0,,,10.0,,KIGQ 300615Z AUTO 05009G16KT 10SM RA BKN015 OVC022 16/15 A3015 RMK AO2 T01550151,,,1500.0,,,58.09,,NE,29.49,28.71,,Rain
KIGQ,09/30/2016 06:35 UTC,30.14,59.36,59.36,100.0,12.66,30.0,23.02,1.0,,0.01,,63.0,124.0,,,5.0,,KIGQ 300635Z AUTO 03011G20KT 5SM RA BKN006 OVC012 15/15 A3014 RMK AO2 P0001 T01520152,,,600.0,,,59.36,,NNE,29.48,28.65,,Rain
KIGQ,09/30/2016 06:55 UTC,30.14,59.36,59.36,100.0,12.66,40.0,17.27,1.0,,0.02,,64.0,,,,5.0,,KIGQ 300655Z AUTO 04011G15KT 5SM RA OVC006 15/15 A3014 RMK AO2  P0002 T01520152,,,600.0,,,59.36,,NE,29.48,28.65,,Rain
KIGQ,09/30/2016 07:15 UTC,30.14,59.54,59.54,100.0,8.05,40.0,,2.0,,,,63.0,114.0,,,7.0,,KIGQ 300715Z AUTO 04007KT 7SM DZ BKN006 OVC011 15/15 A3014 RMK AO2  T01530153,,,600.0,,,59.54,,NE,29.48,28.64,,Drizzle
KIGQ,09/30/2016 07:35 UTC,30.14,60.08,59.9,100.0,10.36,40.0,,,,,,82.0,144.0,,,10.0,,KIGQ 300735Z AUTO 04009KT 10SM SCT008 OVC014 16/16 A3014 RMK AO2  T01560155,,,1400.0,,,60.08,,NE,29.48,28.6,,Overcast
KIGQ,09/30/2016 07:55 UTC,30.14,60.26,59.54,93.8,9.22,60.0,,13.0,,,,144.0,,,,10.0,,KIGQ 300755Z AUTO 06008KT 10SM -RA OVC014 16/15 A3014 RMK AO2  T01570153,,,1400.0,,,58.45,,ENE,29.48,28.68,,Light Rain
KIGQ,09/30/2016 08:15 UTC,30.13,60.26,59.36,93.8,11.5,60.0,,,,,,144.0,,,,10.0,,KIGQ 300815Z AUTO 06010KT 10SM OVC014 16/15 A3013 RMK AO2  T01570152,,,1400.0,,,58.45,,ENE,29.47,28.67,,Overcast
KIGQ,09/30/2016 08:35 UTC,30.13,60.26,59.18,93.8,10.36,40.0,18.41,,,,,124.0,,,,10.0,,KIGQ 300835Z AUTO 04009G16KT 10SM OVC012 16/15 A3013 RMK AO2  T01570151,,,1200.0,,,58.45,,NE,29.47,28.67,,Overcast
KIGQ,09/30/2016 08:55 UTC,30.13,60.08,59.36,93.8,8.05,50.0,17.27,,,,0.02,124.0,,,,10.0,,KIGQ 300855Z AUTO 05007G15KT 10SM OVC012 16/15 A3013 RMK AO2 60002  T01560152,,,1200.0,,,58.27,,NE,29.47,28.68,,Overcast
KIGQ,09/30/2016 09:15 UTC,30.13,60.08,59.36,93.8,10.36,50.0,16.11,,,,,124.0,,,,10.0,,KIGQ 300915Z AUTO 05009G14KT 10SM OVC012 16/15 A3013 RMK AO2  T01560152,,,1200.0,,,58.27,,NE,29.47,28.68,,Overcast
KIGQ,09/30/2016 09:35 UTC,30.13,60.44,59.54,93.8,11.5,50.0,16.11,,,,,124.0,,,,10.0,,KIGQ 300935Z AUTO 05010G14KT 10SM OVC012 16/15 A3013 RMK AO2  T01580153,,,1200.0,,,58.63,,NE,29.47,28.66,,Overcast
KIGQ,09/30/2016 09:55 UTC,30.13,60.08,59.9,100.0,8.05,50.0,,13.0,,,,124.0,,,,7.0,,KIGQ 300955Z AUTO 05007KT 7SM -RA OVC012 16/16 A3013 RMK AO2  T01560155,,,1200.0,,,60.08,,NE,29.47,28.59,,Light Rain
KIGQ,09/30/2016 10:15 UTC,30.13,60.44,59.9,100.0,9.22,50.0,,13.0,,,,124.0,,,,10.0,,KIGQ 301015Z AUTO 05008KT 10SM -RA OVC012 16/16 A3013 RMK AO2  T01580155,,,1200.0,,,60.44,,NE,29.47,28.57,,Light Rain
KIGQ,09/30/2016 10:35 UTC,30.13,60.08,60.08,100.0,8.05,50.0,,1.0,,,,94.0,,,,7.0,,KIGQ 301035Z AUTO 05007KT 7SM RA OVC009 16/16 A3013 RMK AO2  T01560156,,,900.0,,,60.08,,NE,29.47,28.59,,Rain
KIGQ,09/30/2016 10:55 UTC,30.13,60.26,60.26,100.0,10.36,40.0,,1.0,,,,93.0,144.0,,,7.0,,KIGQ 301055Z AUTO 04009KT 7SM RA BKN009 OVC014 16/16 A3013 RMK AO2  T01570157,,,900.0,,,60.26,,NE,29.47,28.58,,Rain
KIGQ,09/30/2016 11:15 UTC,30.13,59.9,59.9,100.0,6.91,30.0,,13.0,,,,93.0,144.0,,,7.0,,KIGQ 301115Z AUTO 03006KT 7SM -RA BKN009 OVC014 16/16 A3013 RMK AO2 T01550155,,,900.0,,,59.9,,NNE,29.47,28.6,,Light Rain
KIGQ,09/30/2016 11:35 UTC,30.13,60.44,60.26,100.0,8.05,40.0,,,,,,93.0,134.0,,,10.0,,KIGQ 301135Z AUTO 04007KT 10SM BKN009 OVC013 16/16 A3013 RMK AO2  LTG DSNT SE T01580157,,,900.0,,,60.44,,NE,29.47,28.57,,Overcast
KIGQ,09/30/2016 11:55 UTC,30.12,60.8,60.08,100.0,6.91,40.0,,,,,,114.0,,0.02,0.27,10.0,,KIGQ 301155Z AUTO 04006KT 10SM OVC011 16/16 A3012 RMK AO2 60002  70027 T01600156 10160 20151,60.8,59.18,1100.0,,,60.8,,NE,29.47,28.55,,Overcast
KIGQ,09/30/2016 12:15 UTC,30.13,60.8,60.08,100.0,9.22,40.0,,,,,,114.0,,,,10.0,,KIGQ 301215Z AUTO 04008KT 10SM OVC011 16/16 A3013 RMK AO2  T01600156,,,1100.0,,,60.8,,NE,29.47,28.55,,Overcast
KIGQ,09/30/2016 12:35 UTC,30.13,60.98,60.26,100.0,12.66,40.0,18.41,13.0,,,,114.0,,,,10.0,,KIGQ 301235Z AUTO 04011G16KT 10SM -RA OVC011 16/16 A3013 RMK AO2  T01610157,,,1100.0,,,60.98,,NE,29.47,28.53,,Light Rain
KIGQ,09/30/2016 12:55 UTC,30.11,60.8,60.44,100.0,8.05,20.0,,13.0,,,,113.0,144.0,,,10.0,,KIGQ 301255Z AUTO 02007KT 10SM -RA BKN011 OVC014 16/16 A3011 RMK AO2 T01600158,,,1100.0,,,60.8,,NNE,29.46,28.54,,Light Rain
KIGQ,09/30/2016 13:15 UTC,30.12,60.98,60.8,100.0,6.91,40.0,,17.0,334.0,,,113.0,143.0,,,10.0,,KIGQ 301315Z AUTO 04006KT 10SM -DZ BKN011 BKN014 OVC033 16/16  A3012 RMK AO2 T01610160,,,1100.0,,,60.98,,NE,29.47,28.53,,Light Drizzle
KIGQ,09/30/2016 13:35 UTC,30.12,61.7,60.8,93.84,13.8,40.0,18.41,,,,,114.0,,,,10.0,,KIGQ 301335Z AUTO 04012G16KT 10SM OVC011 17/16 A3012 RMK AO2  T01650160,,,1100.0,,,59.89,,NE,29.47,28.58,,Overcast
KIGQ,09/30/2016 13:55 UTC,30.12,61.7,60.62,93.84,13.8,50.0,18.41,,,,,114.0,,,,10.0,,KIGQ 301355Z AUTO 05012G16KT 10SM OVC011 17/16 A3012 RMK AO2  T01650159,,,1100.0,,,59.89,,NE,29.47,28.58,,Overcast
KIGQ,09/30/2016 14:15 UTC,30.13,61.7,60.44,93.84,14.97,60.0,20.71,,,,,114.0,,,,10.0,,KIGQ 301415Z AUTO 06013G18KT 10SM OVC011 17/16 A3013 RMK AO2  T01650158,,,1100.0,,,59.89,,ENE,29.47,28.58,,Overcast
KIGQ,09/30/2016 14:35 UTC,30.13,60.98,60.44,100.0,12.66,40.0,,13.0,,,,114.0,,,,7.0,,KIGQ 301435Z AUTO 04011KT 7SM -RA OVC011 16/16 A3013 RMK AO2  T01610158,,,1100.0,,,60.98,,NE,29.47,28.53,,Light Rain
KIGQ,09/30/2016 14:55 UTC,30.13,60.98,60.8,100.0,10.36,40.0,16.11,13.0,,,,94.0,,,,10.0,,KIGQ 301455Z AUTO 04009G14KT 10SM -RA OVC009 16/16 A3013 RMK AO2  T01610160,,,900.0,,,60.98,,NE,29.47,28.53,,Light Rain
KIGQ,09/30/2016 15:15 UTC,30.13,60.98,60.8,100.0,11.5,40.0,,1.0,,0.01,,74.0,,,,4.0,,KIGQ 301515Z AUTO 04010KT 4SM RA OVC007 16/16 A3013 RMK AO2 P0001  T01610160,,,700.0,,,60.98,,NE,29.47,28.53,,Rain
KIGQ,09/30/2016 15:35 UTC,30.13,60.98,60.8,100.0,12.66,40.0,18.41,13.0,,0.02,,94.0,,,,7.0,,KIGQ 301535Z AUTO 04011G16KT 7SM -RA OVC009 16/16 A3013 RMK AO2  P0002 T01610160,,,900.0,,,60.98,,NE,29.47,28.53,,Light Rain
KIGQ,09/30/2016 15:55 UTC,30.12,61.34,60.8,100.0,10.36,30.0,,,,0.02,,94.0,,,,10.0,,KIGQ 301555Z AUTO 03009KT 10SM OVC009 16/16 A3012 RMK AO2 P0002  T01630160,,,900.0,,,61.34,,NNE,29.47,28.51,,Overcast
KIGQ,09/30/2016 16:15 UTC,30.12,62.06,60.98,93.84,6.91,40.0,,,,,,114.0,,,,10.0,,KIGQ 301615Z AUTO 04006KT 10SM OVC011 17/16 A3012 RMK AO2  T01670161,,,1100.0,,,60.25,,NE,29.47,28.56,,Overcast
KIGQ,09/30/2016 16:35 UTC,30.12,62.24,60.8,93.84,11.5,50.0,16.11,,,,,114.0,,,,10.0,,KIGQ 301635Z AUTO 05010G14KT 10SM OVC011 17/16 A3012 RMK AO2  T01680160,,,1100.0,,,60.43,,NE,29.47,28.55,,Overcast
KIGQ,09/30/2016 16:55 UTC,30.12,62.6,60.8,93.84,14.97,50.0,,,,,,114.0,,,,10.0,,KIGQ 301655Z AUTO 05013KT 10SM OVC011 17/16 A3012 RMK AO2  T01700160,,,1100.0,,,60.79,,NE,29.47,28.52,,Overcast
KIGQ,09/30/2016 17:15 UTC,30.11,62.6,60.8,93.84,6.91,50.0,18.41,,,,,114.0,,,,10.0,,KIGQ 301715Z AUTO 05006G16KT 10SM OVC011 17/16 A3011 RMK AO2  T01700160,,,1100.0,,,60.79,,NE,29.46,28.51,,Overcast
KIGQ,09/30/2016 17:35 UTC,30.1,62.6,60.98,93.84,10.36,50.0,,,,,,114.0,,,,10.0,,KIGQ 301735Z AUTO 05009KT 10SM OVC011 17/16 A3010 RMK AO2  T01700161,,,1100.0,,,60.79,,NE,29.45,28.5,,Overcast
KIGQ,09/30/2016 17:55 UTC,30.1,62.96,60.8,93.84,12.66,40.0,16.11,,,,,114.0,,0.02,,10.0,,KIGQ 301755Z AUTO 04011G14KT 10SM OVC011 17/16 A3010 RMK AO2 60002  T01720160 10172 20160,62.96,60.8,1100.0,,,61.14,,NE,29.45,28.48,,Overcast
KIGQ,09/30/2016 18:15 UTC,30.09,63.5,61.16,88.11,9.22,30.0,18.41,,,,,114.0,,,,10.0,,KIGQ 301815Z AUTO 03008G16KT 10SM OVC011 18/16 A3009 RMK AO2  T01750162,,,1100.0,,,59.89,,NNE,29.44,28.53,,Overcast
KIGQ,09/30/2016 18:35 UTC,30.08,63.5,61.16,88.11,8.05,30.0,,,,,,114.0,,,,10.0,,KIGQ 301835Z AUTO 03007KT 10SM OVC011 18/16 A3008 RMK AO2 LTG DSNT  SE T01750162,,,1100.0,,,59.89,,NNE,29.43,28.52,,Overcast
KIGQ,09/30/2016 18:55 UTC,30.07,63.86,61.34,88.11,11.5,30.0,,,,,,114.0,,,,10.0,,KIGQ 301855Z AUTO 03010KT 10SM OVC011 18/16 A3007 RMK AO2  T01770163,,,1100.0,,,60.25,,NNE,29.42,28.48,,Overcast
KIGQ,09/30/2016 19:15 UTC,30.07,64.04,61.16,88.11,11.5,40.0,17.27,,,,,134.0,,,,10.0,,KIGQ 301915Z AUTO 04010G15KT 10SM OVC013 18/16 A3007 RMK AO2  T01780162,,,1300.0,,,60.42,,NE,29.42,28.47,,Overcast
KIGQ,09/30/2016 19:35 UTC,30.07,64.04,61.34,88.11,9.22,30.0,17.27,,,,,134.0,,,,10.0,,KIGQ 301935Z AUTO 03008G15KT 10SM OVC013 18/16 A3007 RMK AO2  T01780163,,,1300.0,,,60.42,,NNE,29.42,28.47,,Overcast
KIGQ,09/30/2016 19:55 UTC,30.06,64.4,61.52,88.11,8.05,30.0,,,,,,134.0,,,,10.0,,KIGQ 301955Z AUTO 03007KT 10SM OVC013 18/16 A3006 RMK AO2  T01800164,,,1300.0,,,60.78,,NNE,29.41,28.44,,Overcast
KIGQ,09/30/2016 20:15 UTC,30.06,64.04,61.7,93.89,4.61,30.0,18.41,,,,,134.0,,,,10.0,,KIGQ 302015Z AUTO 03004G16KT 10SM OVC013 18/17 A3006 RMK AO2  T01780165,,,1300.0,,,62.23,,NNE,29.41,28.37,,Overcast
KIGQ,09/30/2016 20:35 UTC,30.05,63.86,61.34,88.11,11.5,30.0,,,,,,134.0,,,,10.0,,KIGQ 302035Z AUTO 03010KT 10SM OVC013 18/16 A3005 RMK AO2  T01770163,,,1300.0,,,60.25,,NNE,29.4,28.46,,Overcast
KIGQ,09/30/2016 20:55 UTC,30.05,64.4,61.7,93.89,3.44,30.0,,,,,,153.0,224.0,,,10.0,,KIGQ 302055Z AUTO 03003KT 10SM BKN015 OVC022 18/17 A3005 RMK AO2  T01800165,,,1500.0,,,62.59,,NNE,29.4,28.33,,Overcast
KIGQ,09/30/2016 21:15 UTC,30.05,64.4,61.34,88.11,16.11,50.0,21.85,,,,,133.0,224.0,,,10.0,,KIGQ 302115Z AUTO 05014G19KT 10SM BKN013 OVC022 18/16 A3005 RMK AO2 T01800163,,,1300.0,,,60.78,,NE,29.4,28.43,,Overcast
KIGQ,09/30/2016 21:35 UTC,30.05,63.86,61.7,93.89,8.05,20.0,,,224.0,,,133.0,183.0,,,10.0,,KIGQ 302135Z AUTO 02007KT 10SM BKN013 BKN018 OVC022 18/17  A3005 RMK AO2 T01770165,,,1300.0,,,62.05,,NNE,29.4,28.37,,Overcast
KIGQ,09/30/2016 21:55 UTC,30.05,63.5,61.7,93.89,3.44,20.0,,,,,,114.0,,,,10.0,,KIGQ 302155Z AUTO 02003KT 10SM OVC011 18/17 A3005 RMK AO2  T01750165,,,1100.0,,,61.69,,NNE,29.4,28.39,,Overcast
KIGQ,09/30/2016 22:15 UTC,30.06,63.14,61.34,93.84,9.22,30.0,,,,,,114.0,,,,10.0,,KIGQ 302215Z AUTO 03008KT 10SM OVC011 17/16 A3006 RMK AO2 LTG DSNT  SE T01730163,,,1100.0,,,61.32,,NNE,29.41,28.43,,Overcast
KIGQ,09/30/2016 22:35 UTC,30.05,62.6,60.8,93.84,12.66,40.0,24.16,13.0,,,,134.0,,,,10.0,,KIGQ 302235Z AUTO 04011G21KT 10SM -RA OVC013 17/16 A3005 RMK AO2  T01700160,,,1300.0,,,60.79,,NE,29.4,28.45,,Light Rain
KIGQ,09/30/2016 22:55 UTC,30.06,62.06,60.8,93.84,13.8,40.0,23.02,,,,,113.0,154.0,,,10.0,,KIGQ 302255Z AUTO 04012G20KT 10SM -VCTSRA BKN011 OVC015 17/16  A3006 RMK AO2 LTG DSNT SE T01670160,,,1100.0,,,60.25,,NE,29.41,28.5,,Overcast
KIGQ,09/30/2016 23:15 UTC,30.06,61.7,60.98,93.84,12.66,40.0,19.57,1.0,,,,94.0,,,,7.0,,KIGQ 302315Z AUTO 04011G17KT 7SM RA OVC009 17/16 A3006 RMK AO2  T01650161,,,900.0,,,59.89,,NE,29.41,28.52,,Rain
KIGQ,09/30/2016 23:35 UTC,30.06,60.44,60.44,100.0,11.5,50.0,,14.0,,0.09,,74.0,,,,5.0,,KIGQ 302335Z AUTO 05010KT 5SM +RA OVC007 16/16 A3006 RMK AO2 P0009  T01580158,,,700.0,,,60.44,,NE,29.41,28.51,,Heavy Rain
