# STATION: KIGQ
# STATION NAME: Lansing Municipal Airport
# LATITUDE: 41.54125
# LONGITUDE: -87.52822
# ELEVATION [ft]: 607
# STATE: IL
Station_ID,Date_Time,altimeter_set_1,air_temp_set_1,dew_point_temperature_set_1,relative_humidity_set_1,wind_speed_set_1,wind_direction_set_1,wind_gust_set_1,weather_cond_code_set_1,cloud_layer_3_code_set_1,precip_accum_one_hour_set_1,precip_accum_three_hour_set_1,cloud_layer_1_code_set_1,cloud_layer_2_code_set_1,precip_accum_six_hour_set_1,precip_accum_24_hour_set_1,visibility_set_1,metar_remark_set_1,metar_set_1,air_temp_high_6_hour_set_1,air_temp_low_6_hour_set_1,ceiling_set_1,air_temp_high_24_hour_set_1,air_temp_low_24_hour_set_1,dew_point_temperature_set_1d,wind_chill_set_1d,wind_cardinal_direction_set_1d,pressure_set_1d,sea_level_pressure_set_1d,heat_index_set_1d,weather_condition_set_1d
,,INHG,Fahrenheit,Fahrenheit,%,Miles/hour,Degrees,Miles/hour,code,code,Inches,Inches,code,code,Inches,Inches,Statute miles,text,text,Fahrenheit,Fahrenheit,Feet,Fahrenheit,Fahrenheit,Fahrenheit,Fahrenheit,Code,INHG,INHG,Fahrenheit,Code
KIGQ,02/01/2018 00:15 UTC,29.81,39.2,31.1,72.46,8.05,270.0,,,,,,1.0,,,,10.0,,KIGQ 010015Z AUTO 27007KT 10SM CLR 04/00 A2981 RMK AO2  T00401005,,,,,,30.99,35.53,W,29.16,29.36,,Clear
KIGQ,02/01/2018 00:35 UTC,29.81,39.2,31.1,72.46,10.36,280.0,,,,,,1.0,,,,10.0,,KIGQ 010035Z AUTO 28009KT 10SM CLR 04/00 A2981 RMK AO2  T00401005,,,,,,30.99,34.52,W,29.16,29.36,,Clear
KIGQ,02/01/2018 00:55 UTC,29.81,38.84,31.46,74.56,11.5,280.0,17.27,,,,,1202.0,,,,10.0,,KIGQ 010055Z AUTO 28010G15KT 10SM SCT120 04/00 A2981 RMK AO2  T00381003,,,,,,31.35,33.66,W,29.16,29.35,,Partly Cloudy
KIGQ,02/01/2018 01:15 UTC,29.81,38.66,31.64,75.64,9.22,290.0,,,,,,1203.0,,,,10.0,,KIGQ 010115Z AUTO 29008KT 10SM BKN120 04/00 A2981 RMK AO2  T00371002,,,12000.0,,,31.54,34.35,WNW,29.16,29.35,,Mostly Cloudy
KIGQ,02/01/2018 01:35 UTC,29.8,38.48,31.64,76.17,10.36,280.0,,,,,,1104.0,,,,10.0,,KIGQ 010135Z AUTO 28009KT 10SM OVC110 04/00 A2980 RMK AO2  T00361002,,,11000.0,,,31.54,33.66,W,29.15,29.34,,Overcast
KIGQ,02/01/2018 01:55 UTC,29.81,38.3,31.64,76.71,8.05,280.0,,,,,,1104.0,,,,10.0,,KIGQ 010155Z AUTO 28007KT 10SM OVC110 04/00 A2981 RMK AO2  T00351002,,,11000.0,,,31.54,34.48,W,29.16,29.36,,Overcast
KIGQ,02/01/2018 02:15 UTC,29.81,37.76,31.46,77.79,6.91,290.0,,,,,,1104.0,,,,10.0,,KIGQ 010215Z AUTO 29006KT 10SM OVC110 03/00 A2981 RMK AO2  T00321003,,,11000.0,,,31.37,,WNW,29.16,29.36,,Overcast
KIGQ,02/01/2018 02:35 UTC,29.82,37.4,31.1,77.75,5.75,270.0,,,,,,1204.0,,,,10.0,,KIGQ 010235Z AUTO 27005KT 10SM OVC120 03/00 A2982 RMK AO2  T00301005,,,12000.0,,,31.01,,W,29.17,29.38,,Overcast
KIGQ,02/01/2018 02:55 UTC,29.82,36.5,30.92,79.98,3.44,250.0,,,,,,1203.0,,,,10.0,,KIGQ 010255Z AUTO 25003KT 10SM BKN120 03/M01 A2982 RMK AO2  T00251006,,,12000.0,,,30.84,,WSW,29.17,29.39,,Mostly Cloudy
KIGQ,02/01/2018 03:15 UTC,29.81,35.6,30.2,80.49,4.61,250.0,,,,,,1203.0,,,,10.0,,KIGQ 010315Z AUTO 25004KT 10SM BKN120 02/M01 A2981 RMK AO2  T00201010,,,12000.0,,,30.12,,WSW,29.16,29.4,,Mostly Cloudy
KIGQ,02/01/2018 03:35 UTC,29.83,35.06,30.38,82.84,5.75,250.0,,,,,,1203.0,,,,10.0,,KIGQ 010335Z AUTO 25005KT 10SM BKN120 02/M01 A2983 RMK AO2  T00171009,,,12000.0,,,30.31,,WSW,29.18,29.42,,Mostly Cloudy
KIGQ,02/01/2018 03:55 UTC,29.83,35.78,30.56,81.09,5.75,230.0,,,,,,1104.0,,,,10.0,,KIGQ 010355Z AUTO 23005KT 10SM OVC110 02/M01 A2983 RMK AO2  T00211008,,,11000.0,,,30.48,,SW,29.18,29.41,,Overcast
KIGQ,02/01/2018 04:15 UTC,29.82,34.52,30.38,84.64,4.61,230.0,,,,,,1104.0,,,,10.0,,KIGQ 010415Z AUTO 23004KT 10SM OVC110 01/M01 A2982 RMK AO2  T00141009,,,11000.0,,,30.31,,SW,29.17,29.41,,Overcast
KIGQ,02/01/2018 04:35 UTC,29.82,34.88,30.56,84.05,3.44,250.0,,,,,,1203.0,,,,10.0,,KIGQ 010435Z AUTO 25003KT 10SM BKN120 02/M01 A2982 RMK AO2  T00161008,,,12000.0,,,30.49,,WSW,29.17,29.4,,Mostly Cloudy
KIGQ,02/01/2018 04:55 UTC,29.83,35.06,30.2,82.23,6.91,260.0,,,,,,1104.0,,,,10.0,,KIGQ 010455Z AUTO 26006KT 10SM OVC110 02/M01 A2983 RMK AO2  T00171010,,,11000.0,,,30.12,,W,29.18,29.42,,Overcast
KIGQ,02/01/2018 05:15 UTC,29.83,34.88,30.02,82.22,6.91,250.0,,,,,,1104.0,,,,10.0,,KIGQ 010515Z AUTO 25006KT 10SM OVC110 02/M01 A2983 RMK AO2  T00161011,,,11000.0,,,29.94,,WSW,29.18,29.42,,Overcast
KIGQ,02/01/2018 05:35 UTC,29.82,34.52,29.48,81.59,5.75,250.0,,,,,,1104.0,,,,10.0,,KIGQ 010535Z AUTO 25005KT 10SM OVC110 01/M01 A2982 RMK AO2  T00141014,,,11000.0,,,29.4,,WSW,29.17,29.42,,Overcast
KIGQ,02/01/2018 05:55 UTC,29.83,33.8,29.12,82.75,5.75,260.0,,,,,,1004.0,,,,10.0,,KIGQ 010555Z AUTO 26005KT 10SM OVC100 01/M02 A2983 RMK AO2  T00101016 10040 20010 400571011,39.2,33.8,10000.0,42.26,30.02,29.05,,W,29.18,29.44,,Overcast
KIGQ,02/01/2018 06:15 UTC,29.82,33.8,28.76,81.54,5.75,250.0,,,,,,1003.0,,,,10.0,,KIGQ 010615Z AUTO 25005KT 10SM BKN100 01/M02 A2982 RMK AO2  T00101018,,,10000.0,,,28.68,,WSW,29.17,29.44,,Mostly Cloudy
KIGQ,02/01/2018 06:35 UTC,29.82,33.44,28.22,80.91,6.91,240.0,,,,,,1102.0,,,,10.0,,KIGQ 010635Z AUTO 24006KT 10SM SCT110 01/M02 A2982 RMK AO2  T00081021,,,,,,28.14,,WSW,29.17,29.45,,Partly Cloudy
KIGQ,02/01/2018 06:55 UTC,29.82,33.26,28.04,80.89,8.05,270.0,,,,,,1102.0,,,,10.0,,KIGQ 010655Z AUTO 27007KT 10SM SCT110 01/M02 A2982 RMK AO2  T00071022,,,,,,27.96,28.56,W,29.17,29.45,,Partly Cloudy
KIGQ,02/01/2018 07:15 UTC,29.82,33.08,27.5,79.69,8.05,270.0,,,,,,1.0,,,,10.0,,KIGQ 010715Z AUTO 27007KT 10SM CLR 01/M02 A2982 RMK AO2  T00061025,,,,,,27.41,28.34,W,29.17,29.46,,Clear
KIGQ,02/01/2018 07:35 UTC,29.81,32.0,26.6,80.19,5.75,260.0,,,,,,1002.0,,,,10.0,,KIGQ 010735Z AUTO 26005KT 10SM SCT100 00/M03 A2981 RMK AO2  T00001030,,,,,,26.51,,W,29.16,29.47,,Partly Cloudy
KIGQ,02/01/2018 07:55 UTC,29.81,31.1,25.7,80.12,5.75,240.0,,,,,,1002.0,,,,10.0,,KIGQ 010755Z AUTO 24005KT 10SM SCT100 00/M03 A2981 RMK AO2  T10051035,,,,,,25.61,,WSW,29.16,29.48,,Partly Cloudy
KIGQ,02/01/2018 08:15 UTC,29.83,30.92,25.7,80.7,5.75,260.0,,,,,,1.0,,,,10.0,,KIGQ 010815Z AUTO 26005KT 10SM CLR M01/M03 A2983 RMK AO2  T10061035,,,,,,25.61,,W,29.18,29.5,,Clear
KIGQ,02/01/2018 08:35 UTC,29.83,31.1,25.52,79.52,6.91,270.0,,,,,,1.0,,,,10.0,,KIGQ 010835Z AUTO 27006KT 10SM CLR 00/M04 A2983 RMK AO2  T10051036,,,,,,25.43,,W,29.18,29.51,,Clear
KIGQ,02/01/2018 08:55 UTC,29.82,30.74,25.16,79.49,6.91,250.0,,,,,,1.0,,,,10.0,,KIGQ 010855Z AUTO 25006KT 10SM CLR M01/M04 A2982 RMK AO2  T10071038,,,,,,25.07,,WSW,29.17,29.5,,Clear
KIGQ,02/01/2018 09:15 UTC,29.81,30.92,25.52,80.1,6.91,260.0,,,,,,953.0,,,,10.0,,KIGQ 010915Z AUTO 26006KT 10SM BKN095 M01/M04 A2981 RMK AO2  T10061036,,,9500.0,,,25.43,,W,29.16,29.49,,Mostly Cloudy
KIGQ,02/01/2018 09:35 UTC,29.82,32.0,26.24,79.01,8.05,260.0,,,,,,954.0,,,,10.0,,KIGQ 010935Z AUTO 26007KT 10SM OVC095 00/M03 A2982 RMK AO2  T00001032,,,9500.0,,,26.15,27.08,W,29.17,29.48,,Overcast
KIGQ,02/01/2018 09:55 UTC,29.82,32.18,26.42,79.02,10.36,260.0,,,,,,954.0,,,,10.0,,KIGQ 010955Z AUTO 26009KT 10SM OVC095 00/M03 A2982 RMK AO2  T00011031,,,9500.0,,,26.33,26.12,W,29.17,29.48,,Overcast
KIGQ,02/01/2018 10:15 UTC,29.83,32.0,26.6,80.19,10.36,260.0,,,,,,953.0,,,,10.0,,KIGQ 011015Z AUTO 26009KT 10SM BKN095 00/M03 A2983 RMK AO2  T00001030,,,9500.0,,,26.51,25.9,W,29.18,29.49,,Mostly Cloudy
KIGQ,02/01/2018 10:35 UTC,29.84,32.0,26.96,81.4,9.22,260.0,,,,,,1.0,,,,10.0,,KIGQ 011035Z AUTO 26008KT 10SM CLR 00/M03 A2984 RMK AO2  T00001028,,,,,,26.88,26.45,W,29.19,29.49,,Clear
KIGQ,02/01/2018 10:55 UTC,29.85,32.0,27.32,82.61,10.36,260.0,,,,,,1.0,,,,10.0,,KIGQ 011055Z AUTO 26009KT 10SM CLR 00/M03 A2985 RMK AO2  T00001026,,,,,,27.24,25.9,W,29.2,29.5,,Clear
KIGQ,02/01/2018 11:15 UTC,29.86,31.82,27.32,83.22,9.22,270.0,,,,,,1.0,,,,10.0,,KIGQ 011115Z AUTO 27008KT 10SM CLR 00/M03 A2986 RMK AO2  T10011026,,,,,,27.25,26.24,W,29.21,29.51,,Clear
KIGQ,02/01/2018 11:35 UTC,29.86,31.64,27.5,84.45,11.5,260.0,,,,,,1.0,,,,10.0,,KIGQ 011135Z AUTO 26010KT 10SM CLR 00/M02 A2986 RMK AO2  T10021025,,,,,,27.43,24.96,W,29.21,29.51,,Clear
KIGQ,02/01/2018 11:55 UTC,29.86,31.82,27.5,83.84,11.5,260.0,,,,,,1.0,,,,10.0,,KIGQ 011155Z AUTO 26010KT 10SM CLR 00/M02 A2986 RMK AO2 T10011025  10012 21010,34.16,30.2,,,,27.43,25.18,W,29.21,29.51,,Clear
KIGQ,02/01/2018 12:15 UTC,29.87,31.46,27.5,85.07,12.66,270.0,,,,,,1.0,,,,10.0,,KIGQ 011215Z AUTO 27011KT 10SM CLR 00/M02 A2987 RMK AO2  T10031025,,,,,,27.44,24.27,W,29.22,29.52,,Clear
KIGQ,02/01/2018 12:35 UTC,29.88,31.64,27.14,83.2,13.8,280.0,21.85,,,,,1.0,,,,10.0,,KIGQ 011235Z AUTO 28012G19KT 10SM CLR 00/M03 A2988 RMK AO2  T10021027,,,,,,27.07,24.06,W,29.23,29.53,,Clear
KIGQ,02/01/2018 12:55 UTC,29.89,31.1,26.24,81.93,14.97,290.0,19.57,,,,,192.0,,,,10.0,,KIGQ 011255Z AUTO 29013G17KT 10SM SCT019 00/M03 A2989 RMK AO2  T10051032,,,,,,26.16,22.99,WNW,29.24,29.56,,Partly Cloudy
KIGQ,02/01/2018 13:15 UTC,29.9,30.2,24.62,79.44,12.66,300.0,21.85,,,,,192.0,,,,10.0,,KIGQ 011315Z AUTO 30011G19KT 10SM SCT019 M01/M04 A2990 RMK AO2  T10101041,,,,,,24.53,22.74,WNW,29.25,29.59,,Partly Cloudy
KIGQ,02/01/2018 13:35 UTC,29.92,29.66,23.54,77.62,9.22,290.0,19.57,,,,,1.0,,,,10.0,,KIGQ 011335Z AUTO 29008G17KT 10SM CLR M01/M05 A2992 RMK AO2  T10131047,,,,,,23.44,23.67,WNW,29.27,29.63,,Clear
KIGQ,02/01/2018 13:55 UTC,29.94,29.3,23.0,77.0,9.22,290.0,25.32,,,,,1.0,,,,10.0,,KIGQ 011355Z AUTO 29008G22KT 10SM CLR M01/M05 A2994 RMK AO2  T10151050,,,,,,22.9,23.25,WNW,29.29,29.66,,Clear
KIGQ,02/01/2018 14:15 UTC,29.96,29.3,22.82,76.42,12.66,290.0,,,,,,253.0,,,,10.0,,KIGQ 011415Z AUTO 29011KT 10SM BKN025 M01/M05 A2996 RMK AO2  T10151051,,,2500.0,,,22.72,21.65,WNW,29.31,29.68,,Mostly Cloudy
KIGQ,02/01/2018 14:35 UTC,29.97,28.58,21.92,75.77,10.36,290.0,,,,,,254.0,,,,10.0,,KIGQ 011435Z AUTO 29009KT 10SM OVC025 M02/M06 A2997 RMK AO2  T10191056,,,2500.0,,,21.81,21.8,WNW,29.32,29.7,,Overcast
KIGQ,02/01/2018 14:55 UTC,29.99,28.4,19.22,68.03,12.66,320.0,18.41,,,,,254.0,,,,10.0,,KIGQ 011455Z AUTO 32011G16KT 10SM OVC025 M02/M07 A2999 RMK AO2  T10201071,,,2500.0,,,19.07,20.55,NW,29.34,29.75,,Overcast
KIGQ,02/01/2018 15:15 UTC,30.01,27.5,12.92,53.66,6.91,340.0,17.27,,,,,293.0,344.0,,,10.0,,KIGQ 011515Z AUTO 34006G15KT 10SM BKN029 OVC034 M02/M11 A3001 RMK AO2 T10251106,,,2900.0,,,12.71,,NNW,29.36,29.82,,Overcast
KIGQ,02/01/2018 15:35 UTC,30.03,26.42,13.1,56.56,14.97,330.0,19.57,,,,,312.0,,,,10.0,,KIGQ 011535Z AUTO 33013G17KT 10SM SCT031 M03/M10 A3003 RMK AO2  T10311105,,,,,,12.9,17.22,NNW,29.38,29.85,,Partly Cloudy
KIGQ,02/01/2018 15:55 UTC,30.05,25.7,13.1,58.27,11.5,340.0,,,,,,1.0,,,,10.0,,KIGQ 011555Z AUTO 34010KT 10SM CLR M03/M10 A3005 RMK AO2  T10351105,,,,,,12.91,17.79,NNW,29.4,29.87,,Clear
KIGQ,02/01/2018 16:15 UTC,30.07,26.6,12.74,55.25,12.66,330.0,16.11,,,,,1.0,,,,10.0,,KIGQ 011615Z AUTO 33011G14KT 10SM CLR M03/M11 A3007 RMK AO2  T10301107,,,,,,12.54,18.36,NNW,29.42,29.89,,Clear
KIGQ,02/01/2018 16:35 UTC,30.08,25.52,10.4,52.07,11.5,320.0,19.57,,,,,1.0,,,,10.0,,KIGQ 011635Z AUTO 32010G17KT 10SM CLR M04/M12 A3008 RMK AO2  T10361120,,,,,,10.18,17.58,NW,29.43,29.92,,Clear
KIGQ,02/01/2018 16:55 UTC,30.09,25.88,10.76,52.13,8.05,310.0,,,,,,1.0,,,,10.0,,KIGQ 011655Z AUTO 31007KT 10SM CLR M03/M12 A3009 RMK AO2  T10341118,,,,,,10.55,19.89,NW,29.44,29.93,,Clear
KIGQ,02/01/2018 17:15 UTC,30.09,25.16,9.14,49.95,11.5,330.0,,,,,,1.0,,,,10.0,,KIGQ 011715Z AUTO 33010KT 10SM CLR M04/M13 A3009 RMK AO2  T10381127,,,,,,8.92,17.14,NNW,29.44,29.94,,Clear
KIGQ,02/01/2018 17:35 UTC,30.1,23.72,8.24,50.94,9.22,330.0,17.27,,,,,1.0,,,,10.0,,KIGQ 011735Z AUTO 33008G15KT 10SM CLR M05/M13 A3010 RMK AO2  T10461132,,,,,,8.02,16.62,NNW,29.45,29.96,,Clear
KIGQ,02/01/2018 17:55 UTC,30.11,23.18,7.52,50.43,9.22,340.0,,,,,,1.0,,,,10.0,,KIGQ 011755Z AUTO 34008KT 10SM CLR M05/M14 A3011 RMK AO2 T10491136  11001 21049,31.82,23.18,,,,7.3,15.98,NNW,29.46,29.98,,Clear
KIGQ,02/01/2018 18:15 UTC,30.11,22.64,5.9,47.92,10.36,350.0,16.11,,,,,1.0,,,,10.0,,KIGQ 011815Z AUTO 35009G14KT 10SM CLR M05/M14 A3011 RMK AO2  T10521145,,,,,,5.67,14.69,N,29.46,29.99,,Clear
KIGQ,02/01/2018 18:35 UTC,30.11,21.38,4.1,46.53,11.5,330.0,20.71,,,,,1.0,,,,10.0,,KIGQ 011835Z AUTO 33010G18KT 10SM CLR M06/M15 A3011 RMK AO2  T10591155,,,,,,3.87,12.58,NNW,29.46,30.0,,Clear
KIGQ,02/01/2018 18:55 UTC,30.12,21.92,4.1,45.48,12.66,310.0,,,,,,1.0,,,,10.0,,KIGQ 011855Z AUTO 31011KT 10SM CLR M06/M15 A3012 RMK AO2  T10561155,,,,,,3.86,12.67,NW,29.47,30.01,,Clear
KIGQ,02/01/2018 19:15 UTC,30.12,22.1,3.2,43.29,10.36,310.0,19.57,,,,,1.0,,,,10.0,,KIGQ 011915Z AUTO 31009G17KT 10SM CLR M05/M16 A3012 RMK AO2  T10551160,,,,,,2.95,14.05,NW,29.47,30.01,,Clear
KIGQ,02/01/2018 19:35 UTC,30.13,22.28,3.2,42.96,11.5,310.0,18.41,,,,,1.0,,,,10.0,,KIGQ 011935Z AUTO 31010G16KT 10SM CLR M05/M16 A3013 RMK AO2  T10541160,,,,,,2.95,13.67,NW,29.47,30.01,,Clear
KIGQ,02/01/2018 19:55 UTC,30.13,22.64,2.3,40.58,11.5,310.0,18.41,,,,,1.0,,,,10.0,,KIGQ 011955Z AUTO 31010G16KT 10SM CLR M05/M16 A3013 RMK AO2  T10521165,,,,,,2.04,14.1,NW,29.47,30.01,,Clear
KIGQ,02/01/2018 20:15 UTC,30.14,22.46,2.12,40.55,13.8,280.0,,,,,,1.0,,,,10.0,,KIGQ 012015Z AUTO 28012KT 10SM CLR M05/M17 A3014 RMK AO2  T10531166,,,,,,1.87,12.82,W,29.48,30.03,,Clear
KIGQ,02/01/2018 20:35 UTC,30.15,21.2,1.4,41.35,9.22,290.0,20.71,,,,,1.0,,,,10.0,,KIGQ 012035Z AUTO 29008G18KT 10SM CLR M06/M17 A3015 RMK AO2  T10601170,,,,,,1.15,13.63,WNW,29.49,30.04,,Clear
KIGQ,02/01/2018 20:55 UTC,30.16,21.2,1.4,41.35,13.8,310.0,19.57,,,,,1.0,,,,10.0,,KIGQ 012055Z AUTO 31012G17KT 10SM CLR M06/M17 A3016 RMK AO2  T10601170,,,,,,1.15,11.28,NW,29.5,30.05,,Clear
KIGQ,02/01/2018 21:15 UTC,30.17,20.3,1.22,42.61,9.22,310.0,21.85,,,,,1.0,,,,10.0,,KIGQ 012115Z AUTO 31008G19KT 10SM CLR M06/M17 A3017 RMK AO2  T10651171,,,,,,0.97,12.56,NW,29.51,30.07,,Clear
KIGQ,02/01/2018 21:35 UTC,30.19,19.4,0.32,42.45,13.8,330.0,18.41,,,,,1.0,,,,10.0,,KIGQ 012135Z AUTO 33012G16KT 10SM CLR M07/M18 A3019 RMK AO2  T10701176,,,,,,0.08,9.08,NNW,29.53,30.09,,Clear
KIGQ,02/01/2018 21:55 UTC,30.19,18.5,0.5,44.49,12.66,310.0,,,,,,1.0,,,,10.0,,KIGQ 012155Z AUTO 31011KT 10SM CLR M07/M17 A3019 RMK AO2  T10751175,,,,,,0.26,8.51,NW,29.53,30.1,,Clear
KIGQ,02/01/2018 22:15 UTC,30.21,17.78,0.32,45.51,10.36,330.0,19.57,,,,,1.0,,,,10.0,,KIGQ 012215Z AUTO 33009G17KT 10SM CLR M08/M18 A3021 RMK AO2  T10791176,,,,,,0.09,8.87,NNW,29.55,30.12,,Clear
KIGQ,02/01/2018 22:35 UTC,30.22,17.06,0.32,46.95,10.36,320.0,17.27,,,,,1.0,,,,10.0,,KIGQ 012235Z AUTO 32009G15KT 10SM CLR M08/M18 A3022 RMK AO2  T10831176,,,,,,0.09,8.01,NW,29.56,30.13,,Clear
KIGQ,02/01/2018 22:55 UTC,30.23,16.52,0.14,47.66,10.36,310.0,,,,,,1.0,,,,10.0,,KIGQ 012255Z AUTO 31009KT 10SM CLR M09/M18 A3023 RMK AO2  T10861177,,,,,,-0.08,7.37,NW,29.57,30.15,,Clear
KIGQ,02/01/2018 23:15 UTC,30.24,15.8,-0.22,48.35,13.8,310.0,17.27,,,,,1.0,,,,10.0,,KIGQ 012315Z AUTO 31012G15KT 10SM CLR M09/M18 A3024 RMK AO2  T10901179,,,,,,-0.44,4.67,NW,29.58,30.16,,Clear
KIGQ,02/01/2018 23:35 UTC,30.24,15.26,-0.58,48.66,10.36,300.0,18.41,,,,,1.0,,,,10.0,,KIGQ 012335Z AUTO 30009G16KT 10SM CLR M09/M18 A3024 RMK AO2  T10931181,,,,,,-0.8,5.86,WNW,29.58,30.16,,Clear
KIGQ,02/01/2018 23:55 UTC,30.26,14.72,-0.94,48.99,11.5,310.0,,,,,,1.0,,,,10.0,,KIGQ 012355Z AUTO 31010KT 10SM CLR M10/M18 A3026 RMK AO2 T10961183  11048 21096,23.36,14.72,,,,-1.16,4.54,NW,29.6,30.19,,Clear
KIGQ,02/02/2018 00:15 UTC,30.27,14.18,-1.3,49.31,10.36,300.0,16.11,,,,,1.0,,,,10.0,,KIGQ 020015Z AUTO 30009G14KT 10SM CLR M10/M18 A3027 RMK AO2  T10991185,,,,,,-1.52,4.56,WNW,29.61,30.2,,Clear
KIGQ,02/02/2018 00:35 UTC,30.29,14.0,-1.48,49.28,12.66,300.0,19.57,,,,,1.0,,,,10.0,,KIGQ 020035Z AUTO 30011G17KT 10SM CLR M10/M19 A3029 RMK AO2  T11001186,,,,,,-1.7,3.04,WNW,29.63,30.22,,Clear
KIGQ,02/02/2018 00:55 UTC,30.3,13.64,-1.84,49.22,10.36,330.0,19.57,,,,,1.0,,,,10.0,,KIGQ 020055Z AUTO 33009G17KT 10SM CLR M10/M19 A3030 RMK AO2  T11021188,,,,,,-2.05,3.92,NNW,29.64,30.23,,Clear
KIGQ,02/02/2018 01:15 UTC,30.32,13.28,-2.56,48.32,12.66,310.0,18.41,,,,,1.0,,,,10.0,,KIGQ 020115Z AUTO 31011G16KT 10SM CLR M10/M19 A3032 RMK AO2  T11041192,,,,,,-2.78,2.17,NW,29.66,30.26,,Clear
KIGQ,02/02/2018 01:35 UTC,30.32,12.92,-3.1,47.84,12.66,310.0,17.27,,,,,1.0,,,,10.0,,KIGQ 020135Z AUTO 31011G15KT 10SM CLR M11/M19 A3032 RMK AO2  T11061195,,,,,,-3.32,1.73,NW,29.66,30.26,,Clear
KIGQ,02/02/2018 01:55 UTC,30.33,12.92,-3.1,47.84,12.66,320.0,,,,,,1.0,,,,10.0,,KIGQ 020155Z AUTO 32011KT 10SM CLR M11/M19 A3033 RMK AO2  T11061195,,,,,,-3.32,1.73,NW,29.67,30.27,,Clear
KIGQ,02/02/2018 02:15 UTC,30.34,12.38,-2.38,50.72,5.75,330.0,9.22,,,,,1.0,,,,10.0,,KIGQ 020215Z AUTO 33005G08KT 10SM CLR M11/M19 A3034 RMK AO2  T11091191,,,,,,-2.58,,NNW,29.68,30.28,,Clear
KIGQ,02/02/2018 02:35 UTC,30.36,12.38,-2.38,50.72,8.05,340.0,,,,,,1.0,,,,10.0,,KIGQ 020235Z AUTO 34007KT 10SM CLR M11/M19 A3036 RMK AO2  T11091191,,,,,,-2.58,4.03,NNW,29.7,30.3,,Clear
KIGQ,02/02/2018 02:55 UTC,30.36,12.2,-2.74,50.25,11.5,310.0,,,,,,1.0,,,,10.0,,KIGQ 020255Z AUTO 31010KT 10SM CLR M11/M19 A3036 RMK AO2  T11101193,,,,,,-2.95,1.5,NW,29.7,30.3,,Clear
KIGQ,02/02/2018 03:15 UTC,30.37,12.02,-3.28,49.36,9.22,330.0,,,,,,1.0,,,,10.0,,KIGQ 020315Z AUTO 33008KT 10SM CLR M11/M20 A3037 RMK AO2  T11111196,,,,,,-3.49,2.74,NNW,29.71,30.32,,Clear
KIGQ,02/02/2018 03:35 UTC,30.38,12.02,-4.0,47.68,11.5,330.0,16.11,,,,,1.0,,,,10.0,,KIGQ 020335Z AUTO 33010G14KT 10SM CLR M11/M20 A3038 RMK AO2  T11111200,,,,,,-4.22,1.28,NNW,29.72,30.33,,Clear
KIGQ,02/02/2018 03:55 UTC,30.39,11.66,-3.46,49.73,6.91,320.0,,,,,,1.0,,,,10.0,,KIGQ 020355Z AUTO 32006KT 10SM CLR M11/M20 A3039 RMK AO2  T11131197,,,,,,-3.67,,NW,29.73,30.34,,Clear
KIGQ,02/02/2018 04:15 UTC,30.39,11.3,-2.92,51.85,9.22,320.0,,,,,,1.0,,,,10.0,,KIGQ 020415Z AUTO 32008KT 10SM CLR M11/M19 A3039 RMK AO2  T11151194,,,,,,-3.12,1.88,NW,29.73,30.34,,Clear
KIGQ,02/02/2018 04:35 UTC,30.4,11.3,-3.46,50.53,10.36,330.0,,,,,,1.0,,,,10.0,,KIGQ 020435Z AUTO 33009KT 10SM CLR M11/M20 A3040 RMK AO2  T11151197,,,,,,-3.66,1.11,NNW,29.74,30.35,,Clear
KIGQ,02/02/2018 04:55 UTC,30.4,10.76,-3.64,51.32,6.91,330.0,,,,,,1.0,,,,10.0,,KIGQ 020455Z AUTO 33006KT 10SM CLR M12/M20 A3040 RMK AO2  T11181198,,,,,,-3.84,,NNW,29.74,30.35,,Clear
KIGQ,02/02/2018 05:15 UTC,30.41,10.4,-3.46,52.6,6.91,310.0,10.36,,,,,1.0,,,,10.0,,KIGQ 020515Z AUTO 31006G09KT 10SM CLR M12/M20 A3041 RMK AO2  T11201197,,,,,,-3.66,,NW,29.75,30.36,,Clear
KIGQ,02/02/2018 05:35 UTC,30.41,10.22,-3.46,53.03,8.05,320.0,,,,,,1.0,,,,10.0,,KIGQ 020535Z AUTO 32007KT 10SM CLR M12/M20 A3041 RMK AO2  T11211197,,,,,,-3.65,1.49,NW,29.75,30.36,,Clear
KIGQ,02/02/2018 05:55 UTC,30.41,10.04,-3.82,52.54,8.05,340.0,,,,,,1.0,,,,10.0,,KIGQ 020555Z AUTO 34007KT 320V020 10SM CLR M12/M20 A3041 RMK AO2  T11221199 11096 21123 400121123,14.72,9.86,,34.16,9.86,-4.02,1.28,NNW,29.75,30.36,,Clear
KIGQ,02/02/2018 06:15 UTC,30.42,9.5,-3.82,53.83,9.22,330.0,,,,,,1.0,,,,10.0,,KIGQ 020615Z AUTO 33008KT 10SM CLR M12/M20 A3042 RMK AO2  T11251199,,,,,,-4.01,-0.25,NNW,29.76,30.38,,Clear
KIGQ,02/02/2018 06:35 UTC,30.43,9.14,-4.0,54.24,6.91,340.0,,,,,,1.0,,,,10.0,,KIGQ 020635Z AUTO 34006KT 10SM CLR M13/M20 A3043 RMK AO2  T11271200,,,,,,-4.19,,NNW,29.77,30.39,,Clear
KIGQ,02/02/2018 06:55 UTC,30.44,8.6,-4.18,55.1,10.36,330.0,16.11,,,,,1.0,,,,10.0,,KIGQ 020655Z AUTO 33009G14KT 10SM CLR M13/M20 A3044 RMK AO2  T11301201,,,,,,-4.36,-2.12,NNW,29.78,30.4,,Clear
KIGQ,02/02/2018 07:15 UTC,30.44,8.24,-4.72,54.56,10.36,340.0,,,,,,1.0,,,,10.0,,KIGQ 020715Z AUTO 34009KT 10SM CLR M13/M20 A3044 RMK AO2  T11321204,,,,,,-4.9,-2.55,NNW,29.78,30.4,,Clear
KIGQ,02/02/2018 07:35 UTC,30.45,7.7,-5.08,54.95,9.22,310.0,,,,,,1.0,,,,10.0,,KIGQ 020735Z AUTO 31008KT 10SM CLR M13/M21 A3045 RMK AO2  T11351206,,,,,,-5.26,-2.39,NW,29.79,30.42,,Clear
KIGQ,02/02/2018 07:55 UTC,30.45,7.34,-5.08,55.85,6.91,320.0,,,,,,1.0,,,,10.0,,KIGQ 020755Z AUTO 32006KT 10SM CLR M14/M21 A3045 RMK AO2  T11371206,,,,,,-5.26,,NW,29.79,30.42,,Clear
KIGQ,02/02/2018 08:15 UTC,30.46,6.8,-5.08,57.24,6.91,320.0,,,,,,1.0,,,,10.0,,KIGQ 020815Z AUTO 32006KT 10SM CLR M14/M21 A3046 RMK AO2  T11401206,,,,,,-5.25,,NW,29.8,30.43,,Clear
KIGQ,02/02/2018 08:35 UTC,30.47,6.8,-4.9,57.74,9.22,310.0,,,,,,1.0,,,,10.0,,KIGQ 020835Z AUTO 31008KT 10SM CLR M14/M20 A3047 RMK AO2  T11401205,,,,,,-5.07,-3.46,NW,29.81,30.44,,Clear
KIGQ,02/02/2018 08:55 UTC,30.47,6.26,-5.08,58.67,6.91,310.0,,,,,,1.0,,,,10.0,,KIGQ 020855Z AUTO 31006KT 10SM CLR M14/M21 A3047 RMK AO2  T11431206,,,,,,-5.25,,NW,29.81,30.44,,Clear
KIGQ,02/02/2018 09:15 UTC,30.48,6.26,-5.08,58.67,9.22,310.0,,,,,,1.0,,,,10.0,,KIGQ 020915Z AUTO 31008KT 10SM CLR M14/M21 A3048 RMK AO2  T11431206,,,,,,-5.25,-4.1,NW,29.82,30.45,,Clear
KIGQ,02/02/2018 09:35 UTC,30.48,5.9,-5.26,59.13,5.75,310.0,,,,,,1.0,,,,10.0,,KIGQ 020935Z AUTO 31005KT 10SM CLR M14/M21 A3048 RMK AO2  T11451207,,,,,,-5.42,,NW,29.82,30.45,,Clear
KIGQ,02/02/2018 09:55 UTC,30.48,5.72,-5.44,59.1,0.0,0.0,,,,,,1.0,,,,10.0,,KIGQ 020955Z AUTO 00000KT 10SM CLR M15/M21 A3048 RMK AO2  T11461208,,,,,,-5.6,,N,29.82,30.45,,Clear
KIGQ,02/02/2018 10:15 UTC,30.48,5.0,-5.08,62.16,4.61,290.0,,,,,,1.0,,,,10.0,,KIGQ 021015Z AUTO 29004KT 10SM CLR M15/M21 A3048 RMK AO2  T11501206,,,,,,-5.23,,WNW,29.82,30.46,,Clear
KIGQ,02/02/2018 10:35 UTC,30.48,5.0,-4.9,62.7,4.61,290.0,,,,,,1.0,,,,10.0,,KIGQ 021035Z AUTO 29004KT 10SM CLR M15/M20 A3048 RMK AO2  T11501205,,,,,,-5.05,,WNW,29.82,30.46,,Clear
KIGQ,02/02/2018 10:55 UTC,30.49,5.0,-4.9,62.7,6.91,270.0,,,,,,1.0,,,,10.0,,KIGQ 021055Z AUTO 27006KT 10SM CLR M15/M20 A3049 RMK AO2  T11501205,,,,,,-5.05,,W,29.83,30.47,,Clear
KIGQ,02/02/2018 11:15 UTC,30.49,4.64,-5.08,63.2,5.75,280.0,,,,,,1.0,,,,10.0,,KIGQ 021115Z AUTO 28005KT 10SM CLR M15/M21 A3049 RMK AO2  T11521206,,,,,,-5.23,,W,29.83,30.47,,Clear
KIGQ,02/02/2018 11:35 UTC,30.5,4.82,-4.9,63.22,8.05,270.0,,,,,,1.0,,,,10.0,,KIGQ 021135Z AUTO 27007KT 10SM CLR M15/M20 A3050 RMK AO2  T11511205,,,,,,-5.05,-4.85,W,29.84,30.48,,Clear
KIGQ,02/02/2018 11:55 UTC,30.51,4.46,-5.08,63.72,6.91,280.0,,,,,,1.0,,,,10.0,,KIGQ 021155Z AUTO 28006KT 10SM CLR M15/M21 A3051 RMK AO2 T11531206  11122 21153,10.04,4.46,,,,-5.23,,W,29.85,30.49,,Clear
KIGQ,02/02/2018 12:15 UTC,30.51,4.1,-4.9,65.36,6.91,290.0,,,,,,1.0,,,,10.0,,KIGQ 021215Z AUTO 29006KT 10SM CLR M15/M20 A3051 RMK AO2  T11551205,,,,,,-5.04,,WNW,29.85,30.49,,Clear
KIGQ,02/02/2018 12:35 UTC,30.52,4.46,-4.9,64.28,3.44,290.0,,,,,,1.0,,,,10.0,,KIGQ 021235Z AUTO 29003KT 10SM CLR M15/M20 A3052 RMK AO2  T11531205,,,,,,-5.04,,WNW,29.86,30.5,,Clear
KIGQ,02/02/2018 12:55 UTC,30.52,4.1,-4.9,65.36,4.61,300.0,,,,,,1.0,,,,10.0,,KIGQ 021255Z AUTO 30004KT 10SM CLR M15/M20 A3052 RMK AO2  T11551205,,,,,,-5.04,,WNW,29.86,30.5,,Clear
KIGQ,02/02/2018 13:15 UTC,30.52,4.1,-4.72,65.93,5.75,290.0,,,,,,1.0,,,,10.0,,KIGQ 021315Z AUTO 29005KT 10SM CLR M15/M20 A3052 RMK AO2  T11551204,,,,,,-4.86,,WNW,29.86,30.5,,Clear
KIGQ,02/02/2018 13:35 UTC,30.52,5.0,-4.54,63.8,4.61,280.0,,,,,,1.0,,,,10.0,,KIGQ 021335Z AUTO 28004KT 10SM CLR M15/M20 A3052 RMK AO2  T11501203,,,,,,-4.69,,W,29.86,30.5,,Clear
KIGQ,02/02/2018 13:55 UTC,30.53,5.9,-3.82,63.38,6.91,280.0,,,,,,1.0,,,,10.0,,KIGQ 021355Z AUTO 28006KT 10SM CLR M14/M20 A3053 RMK AO2  T11451199,,,,,,-3.97,,W,29.87,30.5,,Clear
KIGQ,02/02/2018 14:15 UTC,30.54,6.62,-3.64,61.86,9.22,290.0,16.11,,,,,1.0,,,,10.0,,KIGQ 021415Z AUTO 29008G14KT 10SM CLR M14/M20 A3054 RMK AO2  T11411198,,,,,,-3.8,-3.67,WNW,29.88,30.51,,Clear
KIGQ,02/02/2018 14:35 UTC,30.54,7.16,-4.0,59.33,9.22,280.0,,,,,,1.0,,,,10.0,,KIGQ 021435Z AUTO 28008KT 10SM CLR M14/M20 A3054 RMK AO2  T11381200,,,,,,-4.16,-3.03,W,29.88,30.51,,Clear
KIGQ,02/02/2018 14:55 UTC,30.55,7.88,-3.64,58.42,6.91,300.0,,,,,,1.0,,,,10.0,,KIGQ 021455Z AUTO 30006KT 10SM CLR M13/M20 A3055 RMK AO2  T11341198,,,,,,-3.81,,WNW,29.89,30.51,,Clear
KIGQ,02/02/2018 15:15 UTC,30.56,9.14,-2.92,57.12,4.61,260.0,,,,,,1.0,,,,10.0,,KIGQ 021515Z AUTO 26004KT 10SM CLR M13/M19 A3056 RMK AO2  T11271194,,,,,,-3.1,,W,29.9,30.52,,Clear
KIGQ,02/02/2018 15:35 UTC,30.56,10.4,-1.66,57.33,6.91,260.0,,,,,,1.0,,,,10.0,,KIGQ 021535Z AUTO 26006KT 10SM CLR M12/M19 A3056 RMK AO2  T11201187,,,,,,-1.84,,W,29.9,30.51,,Clear
KIGQ,02/02/2018 15:55 UTC,30.56,11.48,-1.66,54.63,11.5,270.0,,,,,,1.0,,,,10.0,,KIGQ 021555Z AUTO 27010KT 10SM CLR M11/M19 A3056 RMK AO2  T11141187,,,,,,-1.85,0.63,W,29.9,30.51,,Clear
KIGQ,02/02/2018 16:15 UTC,30.56,11.66,-2.74,51.47,3.44,270.0,,,,,,1.0,,,,10.0,,KIGQ 021615Z AUTO 27003KT 10SM CLR M11/M19 A3056 RMK AO2  T11131193,,,,,,-2.94,,W,29.9,30.51,,Clear
KIGQ,02/02/2018 16:35 UTC,30.56,12.2,-2.74,50.25,9.22,260.0,,,,,,1.0,,,,10.0,,KIGQ 021635Z AUTO 26008KT 10SM CLR M11/M19 A3056 RMK AO2  T11101193,,,,,,-2.95,2.95,W,29.9,30.51,,Clear
KIGQ,02/02/2018 16:55 UTC,30.56,13.46,-2.38,48.35,8.05,310.0,,,,,,1.0,,,,10.0,,KIGQ 021655Z AUTO 31007KT 10SM CLR M10/M19 A3056 RMK AO2  T11031191,,,,,,-2.6,5.3,NW,29.9,30.5,,Clear
KIGQ,02/02/2018 17:15 UTC,30.55,13.82,-2.38,47.59,5.75,260.0,,,,,,1.0,,,,10.0,,KIGQ 021715Z AUTO 26005KT 10SM CLR M10/M19 A3055 RMK AO2  T11011191,,,,,,-2.6,,W,29.89,30.49,,Clear
KIGQ,02/02/2018 17:35 UTC,30.54,14.54,-2.2,46.51,4.61,250.0,,,,,,1.0,,,,10.0,,KIGQ 021735Z AUTO 25004KT 10SM CLR M10/M19 A3054 RMK AO2  T10971190,,,,,,-2.42,,WSW,29.88,30.48,,Clear
KIGQ,02/02/2018 17:55 UTC,30.52,15.62,-1.48,45.91,8.05,250.0,,,,,,1.0,,,,10.0,,KIGQ 021755Z AUTO 25007KT 10SM CLR M09/M19 A3052 RMK AO2 T10911186  11091 21155,15.62,4.1,,,,-1.71,7.84,WSW,29.86,30.45,,Clear
KIGQ,02/02/2018 18:15 UTC,30.51,15.26,-1.84,45.84,3.44,260.0,,,,,,1.0,,,,10.0,,KIGQ 021815Z AUTO 26003KT 10SM CLR M09/M19 A3051 RMK AO2  T10931188,,,,,,-2.07,,W,29.85,30.44,,Clear
KIGQ,02/02/2018 18:35 UTC,30.49,16.7,-1.3,44.17,5.75,230.0,,,,,,1.0,,,,10.0,,KIGQ 021835Z AUTO 23005KT 10SM CLR M08/M18 A3049 RMK AO2  T10851185,,,,,,-1.54,,SW,29.83,30.42,,Clear
KIGQ,02/02/2018 18:55 UTC,30.48,16.52,-1.66,43.76,8.05,250.0,,,,,,1.0,,,,10.0,,KIGQ 021855Z AUTO 25007KT 10SM CLR M09/M19 A3048 RMK AO2  T10861187,,,,,,-1.9,8.89,WSW,29.82,30.41,,Clear
KIGQ,02/02/2018 19:15 UTC,30.47,17.78,-1.12,42.52,6.91,240.0,,,,,,1.0,,,,10.0,,KIGQ 021915Z AUTO 24006KT 10SM CLR M08/M18 A3047 RMK AO2  T10791184,,,,,,-1.36,,WSW,29.81,30.39,,Clear
KIGQ,02/02/2018 19:35 UTC,30.47,17.42,-1.48,42.45,9.22,260.0,,,,,,1.0,,,,10.0,,KIGQ 021935Z AUTO 26008KT 10SM CLR M08/M19 A3047 RMK AO2  T10811186,,,,,,-1.72,9.15,W,29.81,30.39,,Clear
KIGQ,02/02/2018 19:55 UTC,30.47,19.22,-0.76,40.65,10.36,260.0,,,,,,1.0,,,,10.0,,KIGQ 021955Z AUTO 26009KT 10SM CLR M07/M18 A3047 RMK AO2  T10711182,,,,,,-1.01,10.6,W,29.81,30.38,,Clear
KIGQ,02/02/2018 20:15 UTC,30.45,18.68,-0.94,41.25,4.61,270.0,19.57,,,,,1.0,,,,10.0,,KIGQ 022015Z AUTO 27004G17KT 10SM CLR M07/M18 A3045 RMK AO2  T10741183,,,,,,-1.19,,W,29.79,30.37,,Clear
KIGQ,02/02/2018 20:35 UTC,30.46,19.58,-0.4,40.71,10.36,270.0,,,,,,1.0,,,,10.0,,KIGQ 022035Z AUTO 27009KT 10SM CLR M07/M18 A3046 RMK AO2  T10691180,,,,,,-0.65,11.03,W,29.8,30.37,,Clear
KIGQ,02/02/2018 20:55 UTC,30.45,19.94,0.32,41.48,9.22,250.0,,,,,,1.0,,,,10.0,,KIGQ 022055Z AUTO 25008KT 10SM CLR M07/M18 A3045 RMK AO2  T10671176,,,,,,0.07,12.14,WSW,29.79,30.36,,Clear
KIGQ,02/02/2018 21:15 UTC,30.45,19.4,-0.22,41.38,8.05,260.0,,,,,,1.0,,,,10.0,,KIGQ 022115Z AUTO 26007KT 10SM CLR M07/M18 A3045 RMK AO2  T10701179,,,,,,-0.47,12.28,W,29.79,30.36,,Clear
KIGQ,02/02/2018 21:35 UTC,30.44,19.4,-0.04,41.73,9.22,250.0,,,,,,1.0,,,,10.0,,KIGQ 022135Z AUTO 25008KT 10SM CLR M07/M18 A3044 RMK AO2  T10701178,,,,,,-0.29,11.5,WSW,29.78,30.35,,Clear
KIGQ,02/02/2018 22:15 UTC,30.43,18.86,0.68,44.18,10.36,220.0,,,,,,1.0,,,,10.0,,KIGQ 022215Z AUTO 22009KT 10SM CLR M07/M17 A3043 RMK AO2  T10731174,,,,,,0.44,10.17,SW,29.77,30.34,,Clear
KIGQ,02/02/2018 22:35 UTC,30.43,18.5,1.04,45.64,6.91,230.0,,,,,,1.0,,,,10.0,,KIGQ 022235Z AUTO 23006KT 10SM CLR M07/M17 A3043 RMK AO2  T10751172,,,,,,0.81,,SW,29.77,30.34,,Clear
KIGQ,02/02/2018 22:55 UTC,30.42,17.24,0.5,46.98,8.05,260.0,,,,,,1.0,,,,10.0,,KIGQ 022255Z AUTO 26007KT 10SM CLR M08/M17 A3042 RMK AO2  T10821175,,,,,,0.27,9.74,W,29.76,30.34,,Clear
KIGQ,02/02/2018 23:15 UTC,30.43,16.7,1.22,49.75,4.61,250.0,,,,,,1.0,,,,10.0,,KIGQ 022315Z AUTO 25004KT 10SM CLR M08/M17 A3043 RMK AO2  T10851171,,,,,,1.0,,WSW,29.77,30.35,,Clear
KIGQ,02/02/2018 23:35 UTC,30.42,17.42,1.58,49.04,4.61,230.0,,,,,,1.0,,,,10.0,,KIGQ 022335Z AUTO 23004KT 10SM CLR M08/M17 A3042 RMK AO2  T10811169,,,,,,1.36,,SW,29.76,30.33,,Clear
KIGQ,02/02/2018 23:55 UTC,30.4,17.6,2.3,50.32,4.61,220.0,,,,,,1.0,,,,10.0,,KIGQ 022355Z AUTO 22004KT 10SM CLR M08/M16 A3040 RMK AO2 T10801165  11066 21094,20.12,15.08,,,,2.08,,SW,29.74,30.31,,Clear
KIGQ,02/03/2018 00:15 UTC,30.41,17.6,2.66,51.17,5.75,230.0,,,,,,1102.0,,,,10.0,,KIGQ 030015Z AUTO 23005KT 10SM SCT110 M08/M16 A3041 RMK AO2  T10801163,,,,,,2.44,,SW,29.75,30.32,,Partly Cloudy
KIGQ,02/03/2018 00:35 UTC,30.41,17.6,3.02,52.04,6.91,230.0,,,,,,1.0,,,,10.0,,KIGQ 030035Z AUTO 23006KT 10SM CLR M08/M16 A3041 RMK AO2  T10801161,,,,,,2.81,,SW,29.75,30.32,,Clear
KIGQ,02/03/2018 00:55 UTC,30.4,17.96,3.02,51.23,6.91,220.0,,,,,,1102.0,,,,10.0,,KIGQ 030055Z AUTO 22006KT 10SM SCT110 M08/M16 A3040 RMK AO2  T10781161,,,,,,2.8,,SW,29.74,30.3,,Partly Cloudy
KIGQ,02/03/2018 01:15 UTC,30.4,18.14,3.56,52.13,5.75,220.0,,,,,,1102.0,,,,10.0,,KIGQ 030115Z AUTO 22005KT 10SM SCT110 M08/M16 A3040 RMK AO2  T10771158,,,,,,3.35,,SW,29.74,30.3,,Partly Cloudy
KIGQ,02/03/2018 01:35 UTC,30.4,18.14,3.92,53.0,6.91,220.0,,,,,,1203.0,,,,10.0,,KIGQ 030135Z AUTO 22006KT 10SM BKN120 M08/M16 A3040 RMK AO2  T10771156,,,12000.0,,,3.71,,SW,29.74,30.3,,Mostly Cloudy
KIGQ,02/03/2018 01:55 UTC,30.39,18.5,4.46,53.5,6.91,220.0,,,,,,1104.0,,,,10.0,,KIGQ 030155Z AUTO 22006KT 10SM OVC110 M07/M15 A3039 RMK AO2  T10751153,,,11000.0,,,4.25,,SW,29.73,30.29,,Overcast
KIGQ,02/03/2018 02:15 UTC,30.39,18.5,4.82,54.4,5.75,220.0,,,,,,1004.0,,,,10.0,,KIGQ 030215Z AUTO 22005KT 10SM OVC100 M07/M15 A3039 RMK AO2  T10751151,,,10000.0,,,4.62,,SW,29.73,30.28,,Overcast
KIGQ,02/03/2018 02:35 UTC,30.38,19.04,5.0,53.59,5.75,220.0,,,,,,1004.0,,,,10.0,,KIGQ 030235Z AUTO 22005KT 10SM OVC100 M07/M15 A3038 RMK AO2  T10721150,,,10000.0,,,4.79,,SW,29.72,30.27,,Overcast
KIGQ,02/03/2018 02:55 UTC,30.38,19.4,4.64,51.9,6.91,230.0,,,,,,804.0,,,,10.0,,KIGQ 030255Z AUTO 23006KT 10SM OVC080 M07/M15 A3038 RMK AO2  T10701152,,,8000.0,,,4.42,,SW,29.72,30.27,,Overcast
KIGQ,02/03/2018 03:15 UTC,30.37,19.76,4.46,50.69,9.22,220.0,,,854.0,,,652.0,753.0,,,10.0,,KIGQ 030315Z AUTO 22008KT 10SM SCT065 BKN075 OVC085 M07/M15 A3037 RMK AO2 T10681153,,,7500.0,,,4.24,11.92,SW,29.71,30.26,,Overcast
KIGQ,02/03/2018 03:35 UTC,30.36,20.12,4.64,50.33,10.36,220.0,,,854.0,,,652.0,803.0,,,10.0,,KIGQ 030335Z AUTO 22009KT 10SM SCT065 BKN080 OVC085 M07/M15 A3036 RMK AO2 T10661152,,,8000.0,,,4.42,11.68,SW,29.7,30.25,,Overcast
KIGQ,02/03/2018 03:55 UTC,30.36,20.3,4.82,50.36,10.36,220.0,,,,,,652.0,754.0,,,10.0,,KIGQ 030355Z AUTO 22009KT 10SM SCT065 OVC075 M06/M15 A3036 RMK AO2  T10651151,,,7500.0,,,4.6,11.89,SW,29.7,30.25,,Overcast
KIGQ,02/03/2018 04:15 UTC,30.34,20.66,5.0,50.01,10.36,220.0,16.11,,,,,654.0,,,,10.0,,KIGQ 030415Z AUTO 22009G14KT 10SM OVC065 M06/M15 A3034 RMK AO2  T10631150,,,6500.0,,,4.78,12.32,SW,29.68,30.22,,Overcast
KIGQ,02/03/2018 04:35 UTC,30.34,20.66,5.18,50.42,14.97,230.0,,,,,,654.0,,,,10.0,,KIGQ 030435Z AUTO 23013KT 10SM OVC065 M06/M15 A3034 RMK AO2  T10631149,,,6500.0,,,4.96,10.12,SW,29.68,30.22,,Overcast
KIGQ,02/03/2018 04:55 UTC,30.33,20.84,5.54,50.87,12.66,230.0,18.41,,,,,654.0,,,,10.0,,KIGQ 030455Z AUTO 23011G16KT 10SM OVC065 M06/M15 A3033 RMK AO2  T10621147,,,6500.0,,,5.32,11.36,SW,29.67,30.21,,Overcast
KIGQ,02/03/2018 05:15 UTC,30.33,21.02,5.9,51.32,12.66,220.0,,,,,,654.0,,,,10.0,,KIGQ 030515Z AUTO 22011KT 10SM OVC065 M06/M14 A3033 RMK AO2  T10611145,,,6500.0,,,5.68,11.58,SW,29.67,30.21,,Overcast
KIGQ,02/03/2018 05:35 UTC,30.31,21.2,6.26,51.78,10.36,230.0,,,,,,654.0,,,,10.0,,KIGQ 030535Z AUTO 23009KT 10SM OVC065 M06/M14 A3031 RMK AO2  T10601143,,,6500.0,,,6.05,12.97,SW,29.65,30.18,,Overcast
KIGQ,02/03/2018 05:55 UTC,30.31,21.2,6.26,51.78,12.66,230.0,18.41,,,,,654.0,,,,10.0,,KIGQ 030555Z AUTO 23011G16KT 10SM OVC065 M06/M14 A3031 RMK AO2  T10601143 11060 21080 410601155,21.2,17.6,6500.0,21.2,4.1,6.05,11.8,SW,29.65,30.18,,Overcast
KIGQ,02/03/2018 06:20 UTC,30.3,21.38,7.52,54.42,10.36,230.0,16.11,,,,,502.0,654.0,,,10.0,,KIGQ 030620Z AUTO 23009G14KT 10SM SCT050 OVC065 M06/M14 A3030 RMK AO2 T10591136,,,6500.0,,,7.32,13.18,SW,29.64,30.17,,Overcast
KIGQ,02/03/2018 06:35 UTC,30.3,21.56,8.24,55.8,10.36,230.0,,,,,,502.0,654.0,,,10.0,,KIGQ 030635Z AUTO 23009KT 10SM SCT050 OVC065 M06/M13 A3030 RMK AO2  T10581132,,,6500.0,,,8.04,13.4,SW,29.64,30.16,,Overcast
KIGQ,02/03/2018 06:55 UTC,30.29,21.74,9.32,58.14,12.66,230.0,,,,,,504.0,,,,10.0,,KIGQ 030655Z AUTO 23011KT 10SM OVC050 M06/M13 A3029 RMK AO2  T10571126,,,5000.0,,,9.13,12.45,SW,29.63,30.15,,Overcast
KIGQ,02/03/2018 07:15 UTC,30.29,21.92,11.3,63.05,8.05,230.0,,,,,,422.0,504.0,,,10.0,,KIGQ 030715Z AUTO 23007KT 10SM SCT042 OVC050 M06/M11 A3029 RMK AO2  T10561115,,,5000.0,,,11.13,15.24,SW,29.63,30.13,,Overcast
KIGQ,02/03/2018 07:35 UTC,30.28,21.92,12.2,65.62,9.22,230.0,,,,,,343.0,414.0,,,10.0,,KIGQ 030735Z AUTO 23008KT 10SM BKN034 OVC041 M06/M11 A3028 RMK AO2  T10561110,,,3400.0,,,12.04,14.49,SW,29.62,30.12,,Overcast
KIGQ,02/03/2018 07:55 UTC,30.27,21.74,13.1,68.81,8.05,220.0,,,,,,343.0,704.0,,,10.0,,KIGQ 030755Z AUTO 22007KT 10SM BKN034 OVC070 M06/M10 A3027 RMK AO2  T10571105,,,3400.0,,,12.96,15.02,SW,29.61,30.1,,Overcast
KIGQ,02/03/2018 08:15 UTC,30.27,21.74,13.28,69.36,9.22,230.0,,,,,,342.0,704.0,,,10.0,,KIGQ 030815Z AUTO 23008KT 10SM SCT034 OVC070 M06/M10 A3027 RMK AO2  T10571104,,,7000.0,,,13.14,14.27,SW,29.61,30.1,,Overcast
KIGQ,02/03/2018 08:35 UTC,30.26,20.84,13.1,71.49,9.22,220.0,,,,,,702.0,1204.0,,,10.0,,KIGQ 030835Z AUTO 22008KT 10SM SCT070 OVC120 M06/M10 A3026 RMK AO2  T10621105,,,12000.0,,,12.97,13.21,SW,29.6,30.1,,Overcast
KIGQ,02/03/2018 08:55 UTC,30.26,21.02,13.46,72.08,8.05,210.0,,,,,,1104.0,,,,10.0,,KIGQ 030855Z AUTO 21007KT 10SM OVC110 M06/M10 A3026 RMK AO2  T10611103,,,11000.0,,,13.33,14.18,SSW,29.6,30.09,,Overcast
KIGQ,02/03/2018 09:15 UTC,30.26,21.02,13.46,72.08,6.91,200.0,,,,,,1104.0,,,,10.0,,KIGQ 030915Z AUTO 20006KT 10SM OVC110 M06/M10 A3026 RMK AO2  T10611103,,,11000.0,,,13.33,,SSW,29.6,30.09,,Overcast
KIGQ,02/03/2018 09:35 UTC,30.25,20.66,13.82,74.37,6.91,200.0,,,,,,1104.0,,,,10.0,,KIGQ 030935Z AUTO 20006KT 10SM OVC110 M06/M10 A3025 RMK AO2  T10631101,,,11000.0,,,13.71,,SSW,29.59,30.08,,Overcast
KIGQ,02/03/2018 09:55 UTC,30.24,20.84,13.28,72.06,8.05,210.0,,,,,,1104.0,,,,10.0,,KIGQ 030955Z AUTO 21007KT 10SM OVC110 M06/M10 A3024 RMK AO2  T10621104,,,11000.0,,,13.15,13.97,SSW,29.58,30.08,,Overcast
KIGQ,02/03/2018 10:15 UTC,30.24,21.02,13.46,72.08,8.05,200.0,,,,,,1104.0,,,,10.0,,KIGQ 031015Z AUTO 20007KT 10SM OVC110 M06/M10 A3024 RMK AO2  T10611103,,,11000.0,,,13.33,14.18,SSW,29.58,30.07,,Overcast
KIGQ,02/03/2018 10:35 UTC,30.23,21.02,13.28,71.51,8.05,200.0,,,,,,1104.0,,,,10.0,,KIGQ 031035Z AUTO 20007KT 10SM OVC110 M06/M10 A3023 RMK AO2  T10611104,,,11000.0,,,13.15,14.18,SSW,29.57,30.06,,Overcast
KIGQ,02/03/2018 10:55 UTC,30.22,21.2,13.28,70.97,8.05,200.0,,,,,,1104.0,,,,10.0,,KIGQ 031055Z AUTO 20007KT 10SM OVC110 M06/M10 A3022 RMK AO2  T10601104,,,11000.0,,,13.15,14.39,SSW,29.56,30.05,,Overcast
KIGQ,02/03/2018 11:15 UTC,30.22,21.74,13.1,68.81,9.22,200.0,,,,,,1104.0,,,,10.0,,KIGQ 031115Z AUTO 20008KT 10SM OVC110 M06/M10 A3022 RMK AO2  T10571105,,,11000.0,,,12.96,14.27,SSW,29.56,30.05,,Overcast
KIGQ,02/03/2018 11:35 UTC,30.21,22.1,13.1,67.77,10.36,200.0,,,,,,1004.0,,,,10.0,,KIGQ 031135Z AUTO 20009KT 10SM OVC100 M05/M10 A3021 RMK AO2  T10551105,,,10000.0,,,12.95,14.05,SSW,29.55,30.04,,Overcast
KIGQ,02/03/2018 11:55 UTC,30.2,22.46,13.1,66.75,11.5,210.0,,,,,,1004.0,,,,10.0,,KIGQ 031155Z AUTO 21010KT 10SM OVC100 M05/M10 A3020 RMK AO2  T10531105 11053 21063,22.46,20.66,10000.0,,,12.95,13.88,SSW,29.54,30.03,,Overcast
KIGQ,02/03/2018 12:15 UTC,30.19,22.64,13.46,67.3,10.36,200.0,,,,,,1004.0,,,,10.0,,KIGQ 031215Z AUTO 20009KT 10SM OVC100 M05/M10 A3019 RMK AO2  T10521103,,,10000.0,,,13.31,14.69,SSW,29.53,30.01,,Overcast
KIGQ,02/03/2018 12:35 UTC,30.19,22.64,13.64,67.84,9.22,190.0,,,,,,1004.0,,,,10.0,,KIGQ 031235Z AUTO 19008KT 10SM OVC100 M05/M10 A3019 RMK AO2  T10521102,,,10000.0,,,13.49,15.34,S,29.53,30.01,,Overcast
KIGQ,02/03/2018 12:55 UTC,30.18,22.82,14.0,68.4,8.05,190.0,,,,,,1104.0,,,,10.0,,KIGQ 031255Z AUTO 19007KT 10SM OVC110 M05/M10 A3018 RMK AO2  T10511100,,,11000.0,,,13.86,16.29,S,29.52,30.0,,Overcast
KIGQ,02/03/2018 13:15 UTC,30.16,23.36,14.72,69.01,11.5,190.0,,,,,,1004.0,,,,10.0,,KIGQ 031315Z AUTO 19010KT 10SM OVC100 M05/M10 A3016 RMK AO2  T10481096,,,10000.0,,,14.58,14.97,S,29.5,29.97,,Overcast
KIGQ,02/03/2018 13:35 UTC,30.16,23.9,14.9,68.0,12.66,190.0,16.11,,,,,1004.0,,,,10.0,,KIGQ 031335Z AUTO 19011G14KT 10SM OVC100 M04/M09 A3016 RMK AO2  T10451095,,,10000.0,,,14.75,15.08,S,29.5,29.97,,Overcast
KIGQ,02/03/2018 13:55 UTC,30.16,24.62,15.44,67.56,11.5,200.0,16.11,,,,,904.0,,,,10.0,,KIGQ 031355Z AUTO 20010G14KT 10SM OVC090 M04/M09 A3016 RMK AO2  T10411092,,,9000.0,,,15.29,16.49,SSW,29.5,29.96,,Overcast
KIGQ,02/03/2018 14:15 UTC,30.15,25.34,15.62,66.07,11.5,190.0,16.11,,,,,904.0,,,,10.0,,KIGQ 031415Z AUTO 19010G14KT 10SM OVC090 M04/M09 A3015 RMK AO2  T10371091,,,9000.0,,,15.46,17.36,S,29.49,29.95,,Overcast
KIGQ,02/03/2018 14:35 UTC,30.15,25.88,15.62,64.61,14.97,190.0,20.71,,,,,904.0,,,,10.0,,KIGQ 031435Z AUTO 19013G18KT 10SM OVC090 M03/M09 A3015 RMK AO2  T10341091,,,9000.0,,,15.46,16.55,S,29.49,29.94,,Overcast
KIGQ,02/03/2018 14:55 UTC,30.14,26.6,15.8,63.2,14.97,190.0,18.41,,,,,904.0,,,,10.0,,KIGQ 031455Z AUTO 19013G16KT 10SM OVC090 M03/M09 A3014 RMK AO2  T10301090,,,9000.0,,,15.63,17.44,S,29.48,29.93,,Overcast
KIGQ,02/03/2018 15:15 UTC,30.14,27.32,15.98,61.83,13.8,200.0,19.57,,,,,803.0,904.0,,,10.0,,KIGQ 031515Z AUTO 20012G17KT 10SM BKN080 OVC090 M03/M09 A3014 RMK AO2 T10261089,,,8000.0,,,15.81,18.77,SSW,29.48,29.92,,Overcast
KIGQ,02/03/2018 15:35 UTC,30.13,28.22,16.16,60.05,11.5,200.0,20.71,,,,,703.0,804.0,,,10.0,,KIGQ 031535Z AUTO 20010G18KT 10SM BKN070 OVC080 M02/M09 A3013 RMK AO2 T10211088,,,7000.0,,,15.98,20.84,SSW,29.47,29.91,,Overcast
KIGQ,02/03/2018 15:55 UTC,30.11,28.94,16.34,58.76,13.8,200.0,,,,,,604.0,,,,10.0,,KIGQ 031555Z AUTO 20012KT 10SM OVC060 M02/M09 A3011 RMK AO2  T10171087,,,6000.0,,,16.15,20.76,SSW,29.46,29.89,,Overcast
KIGQ,02/03/2018 16:15 UTC,30.1,30.02,16.52,56.67,13.8,190.0,18.41,,,,,604.0,,,,10.0,,KIGQ 031615Z AUTO 19012G16KT 10SM OVC060 M01/M09 A3010 RMK AO2  T10111086,,,6000.0,,,16.33,22.08,S,29.45,29.88,,Overcast
KIGQ,02/03/2018 16:35 UTC,30.09,30.2,15.8,54.52,16.11,190.0,,,,,,704.0,,,,10.0,,KIGQ 031635Z AUTO 19014KT 10SM OVC070 M01/M09 A3009 RMK AO2  T10101090,,,7000.0,,,15.6,21.49,S,29.44,29.87,,Overcast
KIGQ,02/03/2018 16:55 UTC,30.08,31.1,15.8,52.56,17.27,200.0,21.85,,,,,704.0,,,,10.0,,KIGQ 031655Z AUTO 20015G19KT 10SM OVC070 00/M09 A3008 RMK AO2  T10051090,,,7000.0,,,15.59,22.25,SSW,29.43,29.86,,Overcast
KIGQ,02/03/2018 17:15 UTC,30.06,32.0,15.98,51.08,19.57,200.0,,,,,,803.0,,,,10.0,,KIGQ 031715Z AUTO 20017KT 10SM BKN080 00/M09 A3006 RMK AO2  T00001089,,,8000.0,,,15.76,22.72,SSW,29.41,29.83,,Mostly Cloudy
KIGQ,02/03/2018 17:35 UTC,30.04,32.0,16.16,51.48,19.57,190.0,23.02,,,,,753.0,853.0,,,10.0,,KIGQ 031735Z AUTO 19017G20KT 10SM BKN075 BKN085 00/M09 A3004 RMK AO2 T00001088,,,7500.0,,,15.94,22.72,S,29.39,29.81,,Mostly Cloudy
KIGQ,02/03/2018 17:55 UTC,30.02,32.18,15.8,50.32,16.11,190.0,23.02,,,,,754.0,,,,10.0,,KIGQ 031755Z AUTO 19014G20KT 10SM OVC075 00/M09 A3002 RMK AO2  T00011090 10002 21053,32.36,22.46,7500.0,,,15.58,23.95,S,29.37,29.79,,Overcast
KIGQ,02/03/2018 18:15 UTC,30.01,32.9,16.52,50.43,16.11,190.0,21.85,,,,,754.0,,,,10.0,,KIGQ 031815Z AUTO 19014G19KT 10SM OVC075 01/M09 A3001 RMK AO2  T00051086,,,7500.0,,,16.3,24.84,S,29.36,29.77,,Overcast
KIGQ,02/03/2018 18:35 UTC,29.98,34.16,16.88,48.71,16.11,200.0,23.02,,,,,754.0,,,,10.0,,KIGQ 031835Z AUTO 20014G20KT 10SM OVC075 01/M08 A2998 RMK AO2  T00121084,,,7500.0,,,16.66,26.4,SSW,29.33,29.73,,Overcast
KIGQ,02/03/2018 18:55 UTC,29.96,35.6,17.78,47.82,14.97,190.0,,,,,,702.0,904.0,,,10.0,,KIGQ 031855Z AUTO 19013KT 10SM SCT070 OVC090 02/M08 A2996 RMK AO2  T00201079,,,9000.0,,,17.56,28.53,S,29.31,29.7,,Overcast
KIGQ,02/03/2018 19:15 UTC,29.95,36.5,18.14,46.87,12.66,200.0,24.16,,,,,803.0,,,,10.0,,KIGQ 031915Z AUTO 20011G21KT 10SM BKN080 03/M08 A2995 RMK AO2  T00251077,,,8000.0,,,17.91,30.4,SSW,29.3,29.68,,Mostly Cloudy
KIGQ,02/03/2018 19:35 UTC,29.93,36.86,18.32,46.56,18.41,200.0,23.02,,,,,803.0,,,,10.0,,KIGQ 031935Z AUTO 20016G20KT 10SM BKN080 03/M08 A2993 RMK AO2  T00271076,,,8000.0,,,18.09,29.12,SSW,29.28,29.66,,Mostly Cloudy
KIGQ,02/03/2018 19:55 UTC,29.91,37.4,18.32,45.58,16.11,200.0,23.02,,,,,752.0,,,,10.0,,KIGQ 031955Z AUTO 20014G20KT 10SM SCT075 03/M08 A2991 RMK AO2  T00301076,,,,,,18.09,30.42,SSW,29.26,29.63,,Partly Cloudy
KIGQ,02/03/2018 20:15 UTC,29.89,38.3,18.86,45.03,18.41,200.0,24.16,,,,,753.0,,,,10.0,,KIGQ 032015Z AUTO 20016G21KT 10SM BKN075 04/M07 A2989 RMK AO2  T00351073,,,7500.0,,,18.63,30.93,SSW,29.24,29.6,,Mostly Cloudy
KIGQ,02/03/2018 20:35 UTC,29.88,38.3,18.32,44.0,18.41,210.0,,,,,,754.0,,,,10.0,,KIGQ 032035Z AUTO 21016KT 10SM OVC075 04/M08 A2988 RMK AO2  T00351076,,,7500.0,,,18.08,30.93,SSW,29.23,29.6,,Overcast
KIGQ,02/03/2018 20:55 UTC,29.86,38.3,18.5,44.34,17.27,200.0,,,,,,754.0,,,,10.0,,KIGQ 032055Z AUTO 20015KT 10SM OVC075 04/M07 A2986 RMK AO2  T00351075,,,7500.0,,,18.26,31.22,SSW,29.21,29.58,,Overcast
KIGQ,02/03/2018 21:15 UTC,29.85,39.02,18.86,43.78,12.66,200.0,20.71,,,,,702.0,804.0,,,10.0,,KIGQ 032115Z AUTO 20011G18KT 10SM SCT070 OVC080 04/M07 A2985 RMK AO2 T00391073,,,8000.0,,,18.62,33.47,SSW,29.2,29.56,,Overcast
KIGQ,02/03/2018 21:35 UTC,29.83,40.1,19.22,42.63,16.11,200.0,,,903.0,,,702.0,803.0,,,10.0,,KIGQ 032135Z AUTO 20014KT 10SM SCT070 BKN080 BKN090 05/M07 A2983 RMK AO2 T00451071,,,8000.0,,,18.98,33.76,SSW,29.18,29.53,,Mostly Cloudy
KIGQ,02/03/2018 21:55 UTC,29.83,39.92,18.32,41.3,19.57,210.0,28.77,,,,,804.0,,,,10.0,,KIGQ 032155Z AUTO 21017G25KT 10SM OVC080 04/M08 A2983 RMK AO2  T00441076,,,8000.0,,,18.08,32.69,SSW,29.18,29.54,,Overcast
KIGQ,02/03/2018 22:15 UTC,29.82,39.2,17.78,41.5,19.57,210.0,29.93,,,,,904.0,,,,10.0,,KIGQ 032215Z AUTO 21017G26KT 10SM OVC090 04/M08 A2982 RMK AO2  T00401079,,,9000.0,,,17.54,31.78,SSW,29.17,29.54,,Overcast
KIGQ,02/03/2018 22:35 UTC,29.81,38.3,17.78,42.99,14.97,200.0,27.63,,,,,902.0,,,,10.0,,KIGQ 032235Z AUTO 20013G24KT 10SM SCT090 04/M08 A2981 RMK AO2  T00351079,,,,,,17.54,31.86,SSW,29.16,29.53,,Partly Cloudy
KIGQ,02/03/2018 22:55 UTC,29.81,37.04,18.32,46.23,17.27,190.0,23.02,,,,,1.0,,,,10.0,,KIGQ 032255Z AUTO 19015G20KT 10SM CLR 03/M08 A2981 RMK AO2  T00281076,,,,,,18.09,29.65,S,29.16,29.53,,Clear
KIGQ,02/03/2018 23:15 UTC,29.8,36.32,18.32,47.57,18.41,200.0,25.32,,,,,1.0,,,,10.0,,KIGQ 032315Z AUTO 20016G22KT 10SM CLR 02/M08 A2980 RMK AO2  T00241076,,,,,,18.1,28.45,SSW,29.15,29.53,,Clear
KIGQ,02/03/2018 23:35 UTC,29.79,35.78,18.14,48.22,20.71,200.0,26.46,,,,,953.0,,,,10.0,,KIGQ 032335Z AUTO 20018G23KT 10SM BKN095 02/M08 A2979 RMK AO2  T00211077,,,9500.0,,,17.92,27.2,SSW,29.14,29.52,,Mostly Cloudy
KIGQ,02/03/2018 23:55 UTC,29.79,35.6,18.14,48.57,18.41,200.0,26.46,,,,,953.0,,,,10.0,,KIGQ 032355Z AUTO 20016G23KT 10SM BKN095 02/M08 A2979 RMK AO2  T00201077 10045 20001,40.1,32.18,9500.0,,,17.92,27.55,SSW,29.14,29.52,,Mostly Cloudy
KIGQ,02/04/2018 00:15 UTC,29.78,35.24,17.6,48.13,20.71,200.0,32.21,,,,,953.0,1203.0,,,10.0,,KIGQ 040015Z AUTO 20018G28KT 10SM BKN095 BKN120 02/M08 A2978 RMK AO2 T00181080,,,9500.0,,,17.37,26.51,SSW,29.13,29.52,,Mostly Cloudy
KIGQ,02/04/2018 00:35 UTC,29.78,34.88,17.6,48.83,18.41,200.0,27.63,,,,,1103.0,,,,10.0,,KIGQ 040035Z AUTO 20016G24KT 10SM BKN110 02/M08 A2978 RMK AO2  T00161080,,,11000.0,,,17.38,26.64,SSW,29.13,29.52,,Mostly Cloudy
KIGQ,02/04/2018 00:55 UTC,29.78,34.7,18.14,50.34,19.57,200.0,25.32,,,,,1004.0,,,,10.0,,KIGQ 040055Z AUTO 20017G22KT 10SM OVC100 02/M08 A2978 RMK AO2  T00151077,,,10000.0,,,17.92,26.11,SSW,29.13,29.51,,Overcast
KIGQ,02/04/2018 01:15 UTC,29.78,34.52,18.5,51.49,18.41,210.0,25.32,,,,,904.0,,,,10.0,,KIGQ 040115Z AUTO 21016G22KT 10SM OVC090 01/M07 A2978 RMK AO2  T00141075,,,9000.0,,,18.29,26.19,SSW,29.13,29.51,,Overcast
KIGQ,02/04/2018 01:35 UTC,29.78,34.52,18.5,51.49,17.27,210.0,25.32,,,,,903.0,,,,10.0,,KIGQ 040135Z AUTO 21015G22KT 10SM BKN090 01/M07 A2978 RMK AO2  T00141075,,,9000.0,,,18.29,26.51,SSW,29.13,29.51,,Mostly Cloudy
KIGQ,02/04/2018 01:55 UTC,29.81,34.34,19.04,53.08,14.97,210.0,24.16,,1003.0,,,702.0,803.0,,,10.0,,KIGQ 040155Z AUTO 21013G21KT 10SM SCT070 BKN080 BKN100 01/M07  A2981 RMK AO2 T00131072,,,8000.0,,,18.83,26.98,SSW,29.16,29.54,,Mostly Cloudy
KIGQ,02/04/2018 02:15 UTC,29.8,33.8,19.58,55.51,14.97,210.0,25.32,,804.0,,,603.0,703.0,,,10.0,,KIGQ 040215Z AUTO 21013G22KT 10SM BKN060 BKN070 OVC080 01/M07  A2980 RMK AO2 T00101069,,,6000.0,,,19.38,26.31,SSW,29.15,29.52,,Overcast
KIGQ,02/04/2018 02:35 UTC,29.83,34.16,19.4,54.29,14.97,240.0,,,604.0,,,322.0,373.0,,,10.0,,KIGQ 040235Z AUTO 24013KT 10SM SCT032 BKN037 OVC060 01/M07 A2983 RMK AO2 T00121070,,,3700.0,,,19.2,26.76,WSW,29.18,29.56,,Overcast
KIGQ,02/04/2018 02:55 UTC,29.83,33.98,20.3,56.83,12.66,220.0,20.71,,504.0,,,332.0,402.0,,,10.0,,KIGQ 040255Z AUTO 22011G18KT 10SM SCT033 SCT040 OVC050 01/M06  A2983 RMK AO2 T00111065,,,5000.0,,,20.11,27.34,SW,29.18,29.55,,Overcast
KIGQ,02/04/2018 03:15 UTC,29.84,33.8,20.66,58.13,10.36,240.0,,,,,,502.0,704.0,,,10.0,,KIGQ 040315Z AUTO 24009KT 10SM SCT050 OVC070 01/M06 A2984 RMK AO2  T00101063,,,7000.0,,,20.48,28.06,WSW,29.19,29.55,,Overcast
KIGQ,02/04/2018 03:35 UTC,29.83,34.16,20.12,55.99,9.22,220.0,,,604.0,,,262.0,333.0,,,10.0,,KIGQ 040335Z AUTO 22008KT 10SM SCT026 BKN033 OVC060 01/M07 A2983 RMK AO2 T00121066,,,3300.0,,,19.93,29.01,SW,29.18,29.55,,Overcast
KIGQ,02/04/2018 03:55 UTC,29.84,32.18,26.6,79.61,17.27,230.0,26.46,20.0,444.0,,,202.0,293.0,,,4.0,,KIGQ 040355Z AUTO 23015G23KT 4SM -SN SCT020 BKN029 OVC044 00/M03  A2984 RMK AO2 T00011030,,,2900.0,,,26.51,23.59,SW,29.19,29.5,,Light Snow
KIGQ,02/04/2018 04:15 UTC,29.83,30.56,28.94,93.61,12.66,210.0,23.02,20.0,214.0,,,102.0,163.0,,,1.5,,KIGQ 040415Z AUTO 21011G20KT 1 1/2SM -SN SCT010 BKN016 OVC021  M01/M02 A2983 RMK AO2 T10081017,,,1600.0,,,28.91,23.18,SSW,29.18,29.47,,Light Snow
KIGQ,02/04/2018 04:35 UTC,29.81,30.2,29.3,96.4,14.97,200.0,,20.0,504.0,,,83.0,223.0,,,2.5,,KIGQ 040435Z AUTO 20013KT 2 1/2SM -SN BKN008 BKN022 OVC050 M01/M01  A2981 RMK AO2 T10101015,,,800.0,,,29.29,21.88,SSW,29.16,29.44,,Light Snow
KIGQ,02/04/2018 04:55 UTC,29.81,30.74,29.3,94.3,12.66,200.0,19.57,20.0,704.0,,,82.0,263.0,,,10.0,,KIGQ 040455Z AUTO 20011G17KT 10SM -SN SCT008 BKN026 OVC070 M01/M01  A2981 RMK AO2 T10071015,,,2600.0,,,29.27,23.4,SSW,29.16,29.44,,Light Snow
KIGQ,02/04/2018 05:15 UTC,29.8,30.92,28.94,92.25,17.27,190.0,23.02,,804.0,,,122.0,603.0,,,10.0,,KIGQ 040515Z AUTO 19015G20KT 10SM SCT012 BKN060 OVC080 M01/M02  A2980 RMK AO2 T10061017,,,6000.0,,,28.91,22.02,S,29.15,29.43,,Overcast
KIGQ,02/04/2018 05:35 UTC,29.78,31.1,29.12,92.25,14.97,190.0,25.32,,,,,122.0,604.0,,,10.0,,KIGQ 040535Z AUTO 19013G22KT 10SM SCT012 OVC060 00/M02 A2978 RMK AO2 T10051016,,,6000.0,,,29.09,22.99,S,29.13,29.41,,Overcast
KIGQ,02/04/2018 05:55 UTC,29.78,31.1,28.76,90.9,12.66,190.0,24.16,,,,,604.0,,,,10.0,,KIGQ 040555Z AUTO 19011G21KT 10SM OVC060 00/M02 A2978 RMK AO2  T10051018 10020 21010 400451063,35.6,30.2,6000.0,40.1,20.66,28.72,23.84,S,29.13,29.41,,Overcast
KIGQ,02/04/2018 06:15 UTC,29.76,31.82,27.86,85.09,11.5,190.0,,,804.0,,,603.0,703.0,,,10.0,,KIGQ 040615Z AUTO 19010KT 10SM BKN060 BKN070 OVC080 00/M02 A2976 RMK AO2 T10011023,,,6000.0,,,27.8,25.18,S,29.11,29.4,,Overcast
KIGQ,02/04/2018 06:35 UTC,29.75,32.0,27.14,82.0,16.11,200.0,20.71,,,,,602.0,704.0,,,10.0,,KIGQ 040635Z AUTO 20014G18KT 10SM SCT060 OVC070 00/M03 A2975 RMK AO2 T00001027,,,7000.0,,,27.06,23.72,SSW,29.1,29.4,,Overcast
KIGQ,02/04/2018 06:55 UTC,29.76,32.36,26.6,79.04,12.66,200.0,,,,,,603.0,704.0,,,10.0,,KIGQ 040655Z AUTO 20011KT 10SM BKN060 OVC070 00/M03 A2976 RMK AO2  T00021030,,,6000.0,,,26.51,25.37,SSW,29.11,29.41,,Overcast
KIGQ,02/04/2018 07:15 UTC,29.74,32.9,26.42,76.76,13.8,190.0,20.71,,,,,432.0,604.0,,,10.0,,KIGQ 040715Z AUTO 19012G18KT 10SM SCT043 OVC060 01/M03 A2974 RMK AO2 T00051031,,,6000.0,,,26.32,25.61,S,29.09,29.39,,Overcast
KIGQ,02/04/2018 07:35 UTC,29.76,33.26,26.06,74.54,16.11,210.0,19.57,,704.0,,,432.0,503.0,,,10.0,,KIGQ 040735Z AUTO 21014G17KT 10SM SCT043 BKN050 OVC070 01/M03  A2976 RMK AO2 T00071033,,,5000.0,,,25.95,25.29,SSW,29.11,29.41,,Overcast
KIGQ,02/04/2018 07:55 UTC,29.76,32.9,28.4,83.29,19.57,220.0,25.32,,704.0,,,222.0,603.0,,,10.0,,KIGQ 040755Z AUTO 22017G22KT 10SM SCT022 BKN060 OVC070 01/M02  A2976 RMK AO2 T00051020,,,6000.0,,,28.33,23.85,SW,29.11,29.39,,Overcast
KIGQ,02/04/2018 08:15 UTC,29.76,32.0,29.84,91.61,11.5,220.0,17.27,20.0,604.0,,,142.0,443.0,,,7.0,,KIGQ 040815Z AUTO 22010G15KT 7SM -SN SCT014 BKN044 OVC060 00/M01  A2976 RMK AO2 T00001012,,,4400.0,,,29.8,25.4,SW,29.11,29.37,,Light Snow
KIGQ,02/04/2018 08:35 UTC,29.76,32.0,30.38,93.65,10.36,230.0,17.27,20.0,604.0,,,103.0,263.0,,,3.0,,KIGQ 040835Z AUTO 23009G15KT 3SM -SN BKN010 BKN026 OVC060 00/M01  A2976 RMK AO2 T00001009,,,1000.0,,,30.35,25.9,SW,29.11,29.36,,Light Snow
KIGQ,02/04/2018 08:55 UTC,29.76,31.82,31.1,97.13,6.91,210.0,,20.0,,,,103.0,204.0,,,2.5,,KIGQ 040855Z AUTO 21006KT 2 1/2SM -SN BKN010 OVC020 00/00 A2976 RMK AO2 T10011005,,,1000.0,,,31.09,,SSW,29.11,29.36,,Light Snow
KIGQ,02/04/2018 09:15 UTC,29.76,32.0,31.46,97.84,11.5,220.0,,20.0,,,,84.0,,,,1.25,,KIGQ 040915Z AUTO 22010KT 1 1/4SM -SN OVC008 00/00 A2976 RMK AO2  T00001003,,,800.0,,,31.45,25.4,SW,29.11,29.35,,Light Snow
KIGQ,02/04/2018 09:35 UTC,29.74,31.82,31.64,99.28,12.66,200.0,,20.0,,,,64.0,,,,1.75,,KIGQ 040935Z AUTO 20011KT 1 3/4SM -SN OVC006 00/00 A2974 RMK AO2  T10011002,,,600.0,,,31.64,24.71,SSW,29.09,29.33,,Light Snow
KIGQ,02/04/2018 09:55 UTC,29.75,31.82,31.64,99.28,6.91,230.0,,20.0,,0.01,,64.0,,,,1.25,,KIGQ 040955Z AUTO 23006KT 1 1/4SM -SN OVC006 00/00 A2975 RMK AO2  P0001 T10011002,,,600.0,,,31.64,,SW,29.1,29.34,,Light Snow
KIGQ,02/04/2018 10:15 UTC,29.75,31.64,31.64,100.0,6.91,220.0,,20.0,,,,64.0,,,,5.0,,KIGQ 041015Z AUTO 22006KT 5SM -SN OVC006 00/00 A2975 RMK AO2  T10021002,,,600.0,,,31.64,,SW,29.1,29.34,,Light Snow
KIGQ,02/04/2018 10:35 UTC,29.76,31.64,31.64,100.0,6.91,230.0,,20.0,,,,64.0,,,,5.0,,KIGQ 041035Z AUTO 23006KT 5SM -SN OVC006 00/00 A2976 RMK AO2  T10021002,,,600.0,,,31.64,,SW,29.11,29.35,,Light Snow
KIGQ,02/04/2018 10:55 UTC,29.76,32.0,31.82,99.28,6.91,230.0,,,,,,64.0,,,,10.0,,KIGQ 041055Z AUTO 23006KT 10SM OVC006 00/00 A2976 RMK AO2  T00001001,,,600.0,,,31.82,,SW,29.11,29.34,,Overcast
KIGQ,02/04/2018 11:15 UTC,29.76,32.0,31.46,97.84,5.75,240.0,,,,,,84.0,,,,10.0,,KIGQ 041115Z AUTO 24005KT 10SM OVC008 00/00 A2976 RMK AO2  T00001003,,,800.0,,,31.45,,WSW,29.11,29.35,,Overcast
KIGQ,02/04/2018 11:35 UTC,29.77,32.0,31.46,97.84,4.61,240.0,,20.0,,,,84.0,,,,4.0,,KIGQ 041135Z AUTO 24004KT 4SM -SN OVC008 00/00 A2977 RMK AO2  T00001003,,,800.0,,,31.45,,WSW,29.12,29.36,,Light Snow
KIGQ,02/04/2018 11:55 UTC,29.77,31.82,31.46,98.56,0.0,0.0,,20.0,,,,84.0,,0.01,0.01,5.0,,KIGQ 041155Z AUTO 00000KT 5SM -SN OVC008 00/00 A2977 RMK AO2 60001  70001 T10011003 10007 21005,33.26,31.1,800.0,,,31.46,,N,29.12,29.36,,Light Snow
KIGQ,02/04/2018 12:15 UTC,29.78,31.82,31.46,98.56,3.44,280.0,,20.0,,,,84.0,,,,5.0,,KIGQ 041215Z AUTO 28003KT 5SM -SN OVC008 00/00 A2978 RMK AO2  T10011003,,,800.0,,,31.46,,W,29.13,29.37,,Light Snow
KIGQ,02/04/2018 12:35 UTC,29.8,32.0,31.46,97.84,4.61,310.0,,20.0,,,,84.0,,,,10.0,,KIGQ 041235Z AUTO 31004KT 10SM -SN OVC008 00/00 A2980 RMK AO2  T00001003,,,800.0,,,31.45,,NW,29.15,29.39,,Light Snow
KIGQ,02/04/2018 12:55 UTC,29.8,30.38,29.48,96.4,10.36,360.0,,13.0,,,,84.0,,,,10.0,,KIGQ 041255Z AUTO 36009KT 10SM -RA OVC008 M01/M01 A2980 RMK AO2  T10091014,,,800.0,,,29.46,23.96,N,29.15,29.43,,Light Rain
KIGQ,02/04/2018 13:15 UTC,29.82,29.3,27.68,93.57,10.36,10.0,18.41,,,,,82.0,124.0,,,10.0,,KIGQ 041315Z AUTO 01009G16KT 10SM SCT008 OVC012 M01/M02 A2982 RMK AO2 T10151024,,,1200.0,,,27.65,22.67,N,29.17,29.48,,Overcast
KIGQ,02/04/2018 13:35 UTC,29.83,29.12,26.96,91.5,9.22,10.0,,41.0,,,,124.0,,,,10.0,,KIGQ 041335Z AUTO 01008KT 10SM UP OVC012 M02/M03 A2983 RMK AO2  T10161028,,,1200.0,,,26.92,23.03,N,29.18,29.5,,Unknown Precip
KIGQ,02/04/2018 13:55 UTC,29.83,28.76,25.88,88.8,13.8,360.0,20.71,41.0,,,,123.0,194.0,,,10.0,,KIGQ 041355Z AUTO 36012G18KT 10SM UP BKN012 OVC019 M02/M03 A2983 RMK AO2 T10181034,,,1200.0,,,25.83,20.54,N,29.18,29.51,,Unknown Precip
KIGQ,02/04/2018 14:15 UTC,29.85,27.86,25.34,90.09,11.5,10.0,23.02,41.0,,,,153.0,214.0,,,5.0,,KIGQ 041415Z AUTO 01010G20KT 5SM UP BKN015 OVC021 M02/M04 A2985 RMK AO2 T10231037,,,1500.0,,,25.3,20.4,N,29.2,29.55,,Unknown Precip
KIGQ,02/04/2018 14:35 UTC,29.86,27.32,24.62,89.39,16.11,20.0,23.02,41.0,304.0,,,153.0,223.0,,,7.0,,KIGQ 041435Z AUTO 02014G20KT 7SM UP BKN015 BKN022 OVC030 M03/M04  A2986 RMK AO2 T10261041,,,1500.0,,,24.57,17.92,NNE,29.21,29.57,,Unknown Precip
KIGQ,02/04/2018 14:55 UTC,29.86,27.32,24.44,88.72,14.97,20.0,25.32,41.0,304.0,,,153.0,223.0,,,7.0,,KIGQ 041455Z AUTO 02013G22KT 7SM UP BKN015 BKN022 OVC030 M03/M04  A2986 RMK AO2 T10261042,,,1500.0,,,24.39,18.33,NNE,29.21,29.57,,Unknown Precip
KIGQ,02/04/2018 15:15 UTC,29.86,27.14,23.54,86.08,11.5,10.0,21.85,20.0,,,,183.0,244.0,,,10.0,,KIGQ 041515Z AUTO 01010G19KT 10SM -SN BKN018 OVC024 M03/M05 A2986 RMK AO2 T10271047,,,1800.0,,,23.48,19.53,N,29.21,29.58,,Light Snow
KIGQ,02/04/2018 15:35 UTC,29.9,26.78,23.0,85.4,19.57,350.0,29.93,20.0,,,,112.0,204.0,,,5.0,,KIGQ 041535Z AUTO 35017G26KT 5SM -SN SCT011 OVC020 M03/M05 A2990 RMK AO2 T10291050,,,2000.0,,,22.93,16.14,N,29.25,29.63,,Light Snow
KIGQ,02/04/2018 15:55 UTC,29.89,24.62,22.82,92.72,12.66,340.0,18.41,20.0,244.0,,,113.0,193.0,,,5.0,,KIGQ 041555Z AUTO 34011G16KT 5SM -SN BKN011 BKN019 OVC024 M04/M05  A2989 RMK AO2 T10411051,,,1100.0,,,22.79,15.96,NNW,29.24,29.63,,Light Snow
KIGQ,02/04/2018 16:15 UTC,29.88,24.8,23.72,95.58,9.22,360.0,18.41,20.0,,,,94.0,,,,5.0,,KIGQ 041615Z AUTO 36008G16KT 5SM -SN OVC009 M04/M05 A2988 RMK AO2  T10401046,,,900.0,,,23.7,17.9,N,29.23,29.61,,Light Snow
KIGQ,02/04/2018 16:35 UTC,29.9,26.42,23.72,89.35,16.11,20.0,20.71,20.0,224.0,,,92.0,163.0,,,5.0,,KIGQ 041635Z AUTO 02014G18KT 5SM -SN SCT009 BKN016 OVC022 M03/M05  A2990 RMK AO2 T10311046,,,1600.0,,,23.67,16.81,NNE,29.25,29.62,,Light Snow
KIGQ,02/04/2018 16:55 UTC,29.95,25.52,23.72,92.75,13.8,340.0,21.85,20.0,,,,72.0,144.0,,,1.25,,KIGQ 041655Z AUTO 34012G19KT 1 1/4SM -SN SCT007 OVC014 M04/M05  A2995 RMK AO2 T10361046,,,1400.0,,,23.69,16.57,NNW,29.3,29.68,,Light Snow
KIGQ,02/04/2018 17:15 UTC,29.94,22.28,20.66,93.36,16.11,340.0,25.32,20.0,,,,73.0,124.0,,,1.0,,KIGQ 041715Z AUTO 34014G22KT 1SM -SN BKN007 OVC012 M05/M06 A2994 RMK AO2 T10541063,,,700.0,,,20.63,11.68,NNW,29.29,29.72,,Light Snow
KIGQ,02/04/2018 17:35 UTC,29.92,22.1,20.3,92.64,9.22,360.0,18.41,20.0,,,,114.0,,,,0.75,,KIGQ 041735Z AUTO 36008G16KT 3/4SM -SN OVC011 M05/M06 A2992 RMK AO2 T10551065,,,1100.0,,,20.27,14.7,N,29.27,29.7,,Light Snow
KIGQ,02/04/2018 17:55 UTC,29.93,22.1,20.3,92.64,14.97,350.0,20.71,20.0,,,,114.0,,,,1.0,,KIGQ 041755Z AUTO 35013G18KT 1SM -SN OVC011 M05/M06 A2993 RMK AO2  T10551065 10000 21056,32.0,21.92,1100.0,,,20.27,11.9,N,29.28,29.71,,Light Snow
KIGQ,02/04/2018 18:15 UTC,29.93,21.56,19.22,90.5,17.27,350.0,25.32,20.0,,,,114.0,,,,1.5,,KIGQ 041815Z AUTO 35015G22KT 1 1/2SM -SN OVC011 M06/M07 A2993 RMK AO2 T10581071,,,1100.0,,,19.18,10.35,N,29.28,29.72,,Light Snow
KIGQ,02/04/2018 18:35 UTC,29.94,20.84,17.78,87.71,16.11,350.0,24.16,20.0,,,,134.0,,,,2.5,,KIGQ 041835Z AUTO 35014G21KT 2 1/2SM -SN OVC013 M06/M08 A2994 RMK AO2 T10621079,,,1300.0,,,17.73,9.89,N,29.29,29.75,,Light Snow
KIGQ,02/04/2018 18:55 UTC,29.94,19.94,15.8,83.63,13.8,350.0,28.77,20.0,,,,154.0,,,,7.0,,KIGQ 041855Z AUTO 35012G25KT 7SM -SN OVC015 M07/M09 A2994 RMK AO2  T10671090,,,1500.0,,,15.72,9.74,N,29.29,29.77,,Light Snow
KIGQ,02/04/2018 19:15 UTC,29.96,19.58,15.8,84.93,12.66,350.0,27.63,20.0,,,,174.0,,,,2.5,,KIGQ 041915Z AUTO 35011G24KT 2 1/2SM -SN OVC017 M07/M09 A2996 RMK AO2 T10691090,,,1700.0,,,15.73,9.83,N,29.31,29.79,,Light Snow
KIGQ,02/04/2018 19:35 UTC,29.97,18.5,15.8,88.96,17.27,320.0,21.85,20.0,,,,154.0,,,,0.75,,KIGQ 041935Z AUTO 32015G19KT 3/4SM -SN OVC015 M07/M09 A2997 RMK AO2 T10751090,,,1500.0,,,15.75,6.54,NW,29.32,29.8,,Light Snow
KIGQ,02/04/2018 19:55 UTC,29.99,17.6,14.72,88.22,16.11,330.0,24.16,20.0,,,,154.0,,,,1.25,,KIGQ 041955Z AUTO 33014G21KT 1 1/4SM -SN OVC015 M08/M10 A2999 RMK AO2 T10801096,,,1500.0,,,14.67,5.88,NNW,29.34,29.84,,Light Snow
KIGQ,02/04/2018 20:15 UTC,30.0,16.7,14.0,88.87,16.11,330.0,26.46,20.0,,,,154.0,,,,1.0,,KIGQ 042015Z AUTO 33014G23KT 1SM -SN OVC015 M08/M10 A3000 RMK AO2  T10851100,,,1500.0,,,13.95,4.76,NNW,29.35,29.85,,Light Snow
KIGQ,02/04/2018 20:35 UTC,30.0,16.52,14.0,89.57,10.36,330.0,20.71,20.0,,,,154.0,,,,1.25,,KIGQ 042035Z AUTO 33009G18KT 1 1/4SM -SN OVC015 M09/M10 A3000 RMK AO2 T10861100,,,1500.0,,,13.95,7.37,NNW,29.35,29.86,,Light Snow
KIGQ,02/04/2018 20:55 UTC,30.02,16.16,13.1,87.44,12.66,320.0,23.02,20.0,284.0,,,122.0,193.0,,,1.5,,KIGQ 042055Z AUTO 32011G20KT 1 1/2SM -SN SCT012 BKN019 OVC028  M09/M10 A3002 RMK AO2 T10881105,,,1900.0,,,13.04,5.67,NW,29.37,29.88,,Light Snow
KIGQ,02/04/2018 21:15 UTC,30.04,15.8,13.28,89.53,13.8,320.0,18.41,20.0,304.0,,,132.0,202.0,,,1.5,,KIGQ 042115Z AUTO 32012G16KT 1 1/2SM -SN SCT013 SCT020 OVC030  M09/M10 A3004 RMK AO2 T10901104,,,3000.0,,,13.23,4.67,NW,29.39,29.9,,Light Snow
KIGQ,02/04/2018 21:35 UTC,30.06,14.9,12.02,88.07,14.97,320.0,24.16,20.0,374.0,,,112.0,323.0,,,2.5,,KIGQ 042135Z AUTO 32013G21KT 2 1/2SM -SN SCT011 BKN032 OVC037  M09/M11 A3006 RMK AO2 T10951111,,,3200.0,,,11.97,3.02,NW,29.41,29.94,,Light Snow
KIGQ,02/04/2018 21:55 UTC,30.07,15.44,11.48,83.98,12.66,320.0,18.41,20.0,,,,332.0,464.0,,,7.0,,KIGQ 042155Z AUTO 32011G16KT 7SM -SN SCT033 OVC046 M09/M11 A3007 RMK AO2 T10921114,,,4600.0,,,11.41,4.79,NW,29.42,29.95,,Light Snow
KIGQ,02/04/2018 22:15 UTC,30.08,15.62,11.66,83.99,14.97,320.0,18.41,,464.0,,,172.0,383.0,,,10.0,,KIGQ 042215Z AUTO 32013G16KT 10SM SCT017 BKN038 OVC046 M09/M11  A3008 RMK AO2 T10911113,,,3800.0,,,11.59,3.91,NW,29.43,29.95,,Overcast
KIGQ,02/04/2018 22:35 UTC,30.1,15.62,11.12,81.99,13.8,340.0,23.02,20.0,,,,173.0,364.0,,,5.0,,KIGQ 042235Z AUTO 34012G20KT 5SM -SN BKN017 OVC036 M09/M12 A3010 RMK AO2 T10911116,,,1700.0,,,11.04,4.45,NNW,29.45,29.98,,Light Snow
KIGQ,02/04/2018 22:55 UTC,30.12,14.9,11.12,84.61,11.5,310.0,20.71,,,,,173.0,1004.0,,,7.0,,KIGQ 042255Z AUTO 31010G18KT 7SM BKN017 OVC100 M09/M12 A3012 RMK AO2 T10951116,,,1700.0,,,11.05,4.76,NW,29.47,30.0,,Overcast
KIGQ,02/04/2018 23:15 UTC,30.13,14.54,9.86,81.25,12.66,320.0,,,452.0,,,152.0,202.0,,,10.0,,KIGQ 042315Z AUTO 32011KT 10SM SCT015 SCT020 SCT045 M10/M12 A3013 RMK AO2 T10971123,,,,,,9.78,3.7,NW,29.47,30.01,,Partly Cloudy
KIGQ,02/04/2018 23:35 UTC,30.14,14.36,9.5,80.58,8.05,330.0,18.41,,,,,472.0,,,,10.0,,KIGQ 042335Z AUTO 33007G16KT 10SM SCT047 M10/M12 A3014 RMK AO2  T10981125,,,,,,9.41,6.36,NNW,29.48,30.02,,Partly Cloudy
KIGQ,02/04/2018 23:55 UTC,30.15,13.64,8.78,80.52,5.75,330.0,,,,,,472.0,,,,10.0,,KIGQ 042355Z AUTO 33005KT 10SM SCT047 M10/M13 A3015 RMK AO2  T11021129 11055 21102,22.1,13.64,,,,8.69,,NNW,29.49,30.04,,Partly Cloudy
KIGQ,02/05/2018 00:15 UTC,30.17,13.46,8.06,78.56,8.05,310.0,,,,,,1.0,,,,10.0,,KIGQ 050015Z AUTO 31007KT 10SM CLR M10/M13 A3017 RMK AO2  T11031133,,,,,,7.97,5.3,NW,29.51,30.06,,Clear
KIGQ,02/05/2018 00:35 UTC,30.18,13.1,7.16,76.62,10.36,320.0,19.57,,,,,1.0,,,,10.0,,KIGQ 050035Z AUTO 32009G17KT 10SM CLR M10/M14 A3018 RMK AO2  T11051138,,,,,,7.06,3.27,NW,29.52,30.08,,Clear
KIGQ,02/05/2018 00:55 UTC,30.19,12.92,6.26,74.13,10.36,320.0,17.27,,,,,432.0,,,,10.0,,KIGQ 050055Z AUTO 32009G15KT 10SM SCT043 M11/M14 A3019 RMK AO2  T11061143,,,,,,6.15,3.05,NW,29.53,30.09,,Partly Cloudy
KIGQ,02/05/2018 01:15 UTC,30.2,12.2,5.36,73.44,10.36,320.0,,,,,,1.0,,,,10.0,,KIGQ 050115Z AUTO 32009KT 10SM CLR M11/M15 A3020 RMK AO2  T11101148,,,,,,5.24,2.19,NW,29.54,30.11,,Clear
KIGQ,02/05/2018 01:35 UTC,30.21,11.84,5.54,75.24,11.5,330.0,17.27,,,,,1.0,,,,10.0,,KIGQ 050135Z AUTO 33010G15KT 10SM CLR M11/M15 A3021 RMK AO2  T11121147,,,,,,5.43,1.07,NNW,29.55,30.12,,Clear
KIGQ,02/05/2018 01:55 UTC,30.21,11.3,5.0,75.19,13.8,320.0,,,,,,1.0,,,,10.0,,KIGQ 050155Z AUTO 32012KT 10SM CLR M11/M15 A3021 RMK AO2  T11151150,,,,,,4.89,-0.84,NW,29.55,30.13,,Clear
KIGQ,02/05/2018 02:15 UTC,30.22,10.76,3.92,73.28,9.22,320.0,16.11,,,,,1.0,,,,10.0,,KIGQ 050215Z AUTO 32008G14KT 10SM CLR M12/M16 A3022 RMK AO2  T11181156,,,,,,3.8,1.24,NW,29.56,30.14,,Clear
KIGQ,02/05/2018 02:35 UTC,30.22,10.4,2.66,70.24,6.91,320.0,,,,,,1.0,,,,10.0,,KIGQ 050235Z AUTO 32006KT 10SM CLR M12/M16 A3022 RMK AO2  T11201163,,,,,,2.53,,NW,29.56,30.15,,Clear
KIGQ,02/05/2018 02:55 UTC,30.23,10.22,2.3,69.63,10.36,310.0,,,,,,1.0,,,,10.0,,KIGQ 050255Z AUTO 31009KT 10SM CLR M12/M16 A3023 RMK AO2  T11211165,,,,,,2.17,-0.18,NW,29.57,30.16,,Clear
KIGQ,02/05/2018 03:15 UTC,30.24,9.5,2.3,71.92,6.91,310.0,,,,,,1.0,,,,10.0,,KIGQ 050315Z AUTO 31006KT 10SM CLR M12/M16 A3024 RMK AO2  T11251165,,,,,,2.18,,NW,29.58,30.17,,Clear
KIGQ,02/05/2018 03:35 UTC,30.24,9.14,2.48,73.71,5.75,310.0,,,,,,1.0,,,,10.0,,KIGQ 050335Z AUTO 31005KT 10SM CLR M13/M16 A3024 RMK AO2  T11271164,,,,,,2.37,,NW,29.58,30.17,,Clear
KIGQ,02/05/2018 03:55 UTC,30.25,8.6,2.3,74.9,3.44,300.0,,,,,,1.0,,,,10.0,,KIGQ 050355Z AUTO 30003KT 10SM CLR M13/M16 A3025 RMK AO2  T11301165,,,,,,2.19,,WNW,29.59,30.19,,Clear
KIGQ,02/05/2018 04:15 UTC,30.25,7.7,1.94,76.71,0.0,0.0,,,,,,1.0,,,,10.0,,KIGQ 050415Z AUTO 00000KT 10SM CLR M13/M17 A3025 RMK AO2  T11351167,,,,,,1.84,,N,29.59,30.19,,Clear
KIGQ,02/05/2018 04:35 UTC,30.25,7.16,1.04,75.37,3.44,280.0,,,,,,1.0,,,,10.0,,KIGQ 050435Z AUTO 28003KT 10SM CLR M14/M17 A3025 RMK AO2  T11381172,,,,,,0.94,,W,29.59,30.2,,Clear
KIGQ,02/05/2018 04:55 UTC,30.26,7.34,0.5,72.89,0.0,0.0,,,,,,1.0,,,,10.0,,KIGQ 050455Z AUTO 00000KT 10SM CLR M14/M17 A3026 RMK AO2  T11371175,,,,,,0.39,,N,29.6,30.21,,Clear
KIGQ,02/05/2018 05:15 UTC,30.26,5.0,-0.22,78.41,3.44,260.0,,,,,,1.0,,,,10.0,,KIGQ 050515Z AUTO 26003KT 10SM CLR M15/M18 A3026 RMK AO2  T11501179,,,,,,-0.31,,W,29.6,30.22,,Clear
KIGQ,02/05/2018 05:35 UTC,30.25,4.46,-0.04,81.07,0.0,0.0,,,,,,1.0,,,,10.0,,KIGQ 050535Z AUTO 00000KT 10SM CLR M15/M18 A3025 RMK AO2  T11531178,,,,,,-0.12,,N,29.59,30.21,,Clear
KIGQ,02/05/2018 05:55 UTC,30.25,3.2,-0.76,83.06,0.0,0.0,,,,,,1.0,,,,10.0,,KIGQ 050555Z AUTO 00000KT 10SM CLR M16/M18 A3025 RMK AO2 T11601182  11102 21160 400071160,13.64,3.2,,33.26,3.2,-0.83,,N,29.59,30.22,,Clear
KIGQ,02/05/2018 06:15 UTC,30.26,0.86,-2.2,86.52,3.44,250.0,,,,,,1.0,,,,10.0,,KIGQ 050615Z AUTO 25003KT 10SM CLR M17/M19 A3026 RMK AO2  T11731190,,,,,,-2.25,,WSW,29.6,30.24,,Clear
KIGQ,02/05/2018 06:35 UTC,30.26,1.04,-2.02,86.53,4.61,240.0,,,,,,1.0,,,,10.0,,KIGQ 050635Z AUTO 24004KT 10SM CLR M17/M19 A3026 RMK AO2  T11721189,,,,,,-2.07,,WSW,29.6,30.24,,Clear
KIGQ,02/05/2018 06:55 UTC,30.26,1.04,-3.1,82.18,6.91,260.0,,,,,,1.0,,,,10.0,,KIGQ 050655Z AUTO 26006KT 10SM CLR M17/M19 A3026 RMK AO2  T11721195,,,,,,-3.17,,W,29.6,30.24,,Clear
KIGQ,02/05/2018 07:15 UTC,30.27,1.4,-3.28,80.11,5.75,260.0,,,,,,1.0,,,,10.0,,KIGQ 050715Z AUTO 26005KT 10SM CLR M17/M20 A3027 RMK AO2  T11701196,,,,,,-3.36,,W,29.61,30.25,,Clear
KIGQ,02/05/2018 07:35 UTC,30.28,1.04,-4.0,78.71,5.75,270.0,,,,,,1.0,,,,10.0,,KIGQ 050735Z AUTO 27005KT 10SM CLR M17/M20 A3028 RMK AO2  T11721200,,,,,,-4.08,,W,29.62,30.26,,Clear
KIGQ,02/05/2018 07:55 UTC,30.27,0.5,-4.36,79.34,5.75,270.0,,,,,,1.0,,,,10.0,,KIGQ 050755Z AUTO 27005KT 10SM CLR M17/M20 A3027 RMK AO2  T11751202,,,,,,-4.44,,W,29.61,30.26,,Clear
KIGQ,02/05/2018 08:15 UTC,30.28,-0.04,-4.9,79.29,5.75,260.0,,,,,,1.0,,,,10.0,,KIGQ 050815Z AUTO 26005KT 10SM CLR M18/M20 A3028 RMK AO2  T11781205,,,,,,-4.98,,W,29.62,30.27,,Clear
KIGQ,02/05/2018 08:35 UTC,30.28,-0.04,-5.08,78.6,4.61,270.0,,,,,,1.0,,,,10.0,,KIGQ 050835Z AUTO 27004KT 10SM CLR M18/M21 A3028 RMK AO2  T11781206,,,,,,-5.16,,W,29.62,30.27,,Clear
KIGQ,02/05/2018 08:55 UTC,30.26,-0.76,-5.08,81.32,3.44,260.0,,,,,,1.0,,,,10.0,,KIGQ 050855Z AUTO 26003KT 10SM CLR M18/M21 A3026 RMK AO2  T11821206,,,,,,-5.15,,W,29.6,30.25,,Clear
KIGQ,02/05/2018 09:15 UTC,30.26,-1.12,-5.8,79.88,0.0,0.0,,,,,,1.0,,,,10.0,,KIGQ 050915Z AUTO 00000KT 10SM CLR M18/M21 A3026 RMK AO2  T11841210,,,,,,-5.88,,N,29.6,30.25,,Clear
KIGQ,02/05/2018 09:35 UTC,30.26,-1.3,-5.8,80.57,3.44,260.0,,,,,,1.0,,,,10.0,,KIGQ 050935Z AUTO 26003KT 10SM CLR M18/M21 A3026 RMK AO2  T11851210,,,,,,-5.87,,W,29.6,30.25,,Clear
KIGQ,02/05/2018 09:55 UTC,30.27,-2.74,-6.52,83.32,4.61,250.0,,,,,,1.0,,,,10.0,,KIGQ 050955Z AUTO 25004KT 10SM CLR M19/M21 A3027 RMK AO2  T11931214,,,,,,-6.58,,WSW,29.61,30.27,,Clear
KIGQ,02/05/2018 10:15 UTC,30.26,-2.74,-6.88,81.87,3.44,250.0,,,,,,1.0,,,,10.0,,KIGQ 051015Z AUTO 25003KT 10SM CLR M19/M22 A3026 RMK AO2  T11931216,,,,,,-6.95,,WSW,29.6,30.26,,Clear
KIGQ,02/05/2018 10:35 UTC,30.26,-3.82,-8.14,81.06,0.0,0.0,,,,,,1.0,,,,10.0,,KIGQ 051035Z AUTO 00000KT 10SM CLR M20/M22 A3026 RMK AO2  T11991223,,,,,,-8.21,,N,29.6,30.27,,Clear
KIGQ,02/05/2018 10:55 UTC,30.26,-3.46,-7.6,81.81,3.44,240.0,,,,,,1.0,,,,10.0,,KIGQ 051055Z AUTO 24003KT 10SM CLR M20/M22 A3026 RMK AO2  T11971220,,,,,,-7.67,,WSW,29.6,30.27,,Clear
KIGQ,02/05/2018 11:15 UTC,30.27,-4.0,-7.96,82.49,4.61,250.0,,,,,,1.0,,,,10.0,,KIGQ 051115Z AUTO 25004KT 10SM CLR M20/M22 A3027 RMK AO2  T12001222,,,,,,-8.02,,WSW,29.61,30.28,,Clear
KIGQ,02/05/2018 11:35 UTC,30.29,-4.0,-8.14,81.76,3.44,240.0,,,,,,1.0,,,,10.0,,KIGQ 051135Z AUTO 24003KT 10SM CLR M20/M22 A3029 RMK AO2  T12001223,,,,,,-8.21,,WSW,29.63,30.3,,Clear
KIGQ,02/05/2018 11:55 UTC,30.3,-3.28,-7.6,81.11,6.91,250.0,,,,,,1.0,,,,10.0,,KIGQ 051155Z AUTO 25006KT 10SM CLR M20/M22 A3030 RMK AO2 T11961220  11159 21201,3.38,-4.18,,,,-7.67,,WSW,29.64,30.31,,Clear
KIGQ,02/05/2018 12:15 UTC,30.32,-3.1,-7.42,81.12,5.75,250.0,,,,,,1.0,,,,10.0,,KIGQ 051215Z AUTO 25005KT 10SM CLR M19/M22 A3032 RMK AO2  T11951219,,,,,,-7.49,,WSW,29.66,30.33,,Clear
KIGQ,02/05/2018 12:35 UTC,30.3,-4.0,-8.14,81.76,4.61,250.0,,,,,,1.0,,,,10.0,,KIGQ 051235Z AUTO 25004KT 10SM CLR M20/M22 A3030 RMK AO2  T12001223,,,,,,-8.21,,WSW,29.64,30.31,,Clear
KIGQ,02/05/2018 12:55 UTC,30.32,-2.92,-7.06,81.85,6.91,270.0,,,,,,1.0,,,,10.0,,KIGQ 051255Z AUTO 27006KT 10SM CLR M19/M22 A3032 RMK AO2  T11941217,,,,,,-7.13,,W,29.66,30.32,,Clear
KIGQ,02/05/2018 13:15 UTC,30.32,-2.92,-7.06,81.85,3.44,260.0,,,,,,1.0,,,,10.0,,KIGQ 051315Z AUTO 26003KT 10SM CLR M19/M22 A3032 RMK AO2  T11941217,,,,,,-7.13,,W,29.66,30.32,,Clear
KIGQ,02/05/2018 13:35 UTC,30.31,-2.38,-6.7,81.18,0.0,0.0,,,,,,1.0,,,,10.0,,KIGQ 051335Z AUTO 00000KT 10SM CLR M19/M21 A3031 RMK AO2  T11911215,,,,,,-6.77,,N,29.65,30.31,,Clear
KIGQ,02/05/2018 13:55 UTC,30.31,-3.28,-7.24,82.55,0.0,0.0,,,,,,1.0,,,,10.0,,KIGQ 051355Z AUTO 00000KT 10SM CLR M20/M22 A3031 RMK AO2  T11961218,,,,,,-7.3,,N,29.65,30.32,,Clear
KIGQ,02/05/2018 14:15 UTC,30.31,-1.3,-5.8,80.57,3.44,240.0,,,,,,1.0,,,,10.0,,KIGQ 051415Z AUTO 24003KT 10SM CLR M18/M21 A3031 RMK AO2  T11851210,,,,,,-5.87,,WSW,29.65,30.31,,Clear
KIGQ,02/05/2018 14:35 UTC,30.31,0.5,-4.54,78.66,0.0,0.0,,,,,,1.0,,,,10.0,,KIGQ 051435Z AUTO 00000KT 10SM CLR M17/M20 A3031 RMK AO2  T11751203,,,,,,-4.62,,N,29.65,30.3,,Clear
KIGQ,02/05/2018 14:55 UTC,30.31,2.3,-4.0,74.2,4.61,240.0,,,,,,1.0,,,,10.0,,KIGQ 051455Z AUTO 24004KT 10SM CLR M16/M20 A3031 RMK AO2  T11651200,,,,,,-4.1,,WSW,29.65,30.29,,Clear
KIGQ,02/05/2018 15:15 UTC,30.3,3.2,-3.82,71.78,4.61,220.0,,,,,,1.0,,,,10.0,,KIGQ 051515Z AUTO 22004KT 10SM CLR M16/M20 A3030 RMK AO2  T11601199,,,,,,-3.93,,SW,29.64,30.28,,Clear
KIGQ,02/05/2018 15:35 UTC,30.31,4.46,-2.74,71.32,4.61,210.0,,,,,,1.0,,,,10.0,,KIGQ 051535Z AUTO 21004KT 10SM CLR M15/M19 A3031 RMK AO2  T11531193,,,,,,-2.85,,SSW,29.65,30.28,,Clear
KIGQ,02/05/2018 15:55 UTC,30.3,5.0,-2.02,72.0,5.75,180.0,,,,,,1.0,,,,10.0,,KIGQ 051555Z AUTO 18005KT 10SM CLR M15/M19 A3030 RMK AO2  T11501189,,,,,,-2.13,,S,29.64,30.26,,Clear
KIGQ,02/05/2018 16:15 UTC,30.3,5.72,-1.66,70.86,6.91,190.0,,,,,,1.0,,,,10.0,,KIGQ 051615Z AUTO 19006KT 10SM CLR M15/M19 A3030 RMK AO2  T11461187,,,,,,-1.78,,S,29.64,30.26,,Clear
KIGQ,02/05/2018 16:35 UTC,30.29,6.44,-2.02,67.4,5.75,190.0,,,,,,1.0,,,,10.0,,KIGQ 051635Z AUTO 19005KT 10SM CLR M14/M19 A3029 RMK AO2  T11421189,,,,,,-2.15,,S,29.63,30.25,,Clear
KIGQ,02/05/2018 16:55 UTC,30.29,7.7,-2.74,61.49,5.75,320.0,,,,,,1.0,,,,10.0,,KIGQ 051655Z AUTO 32005KT 10SM CLR M13/M19 A3029 RMK AO2  T11351193,,,,,,-2.9,,NW,29.63,30.25,,Clear
KIGQ,02/05/2018 17:15 UTC,30.3,7.88,-2.38,62.05,9.22,210.0,,,,,,1.0,,,,10.0,,KIGQ 051715Z AUTO 21008KT 10SM CLR M13/M19 A3030 RMK AO2  T11341191,,,,,,-2.54,-2.17,SSW,29.64,30.26,,Clear
KIGQ,02/05/2018 17:35 UTC,30.3,8.6,-0.94,64.32,8.05,210.0,,,,,,1.0,,,,10.0,,KIGQ 051735Z AUTO 21007KT 10SM CLR M13/M18 A3030 RMK AO2  T11301183,,,,,,-1.09,-0.41,SSW,29.64,30.25,,Clear
KIGQ,02/05/2018 17:55 UTC,30.3,9.68,-0.22,63.39,9.22,200.0,,,,,,1.0,,,,10.0,,KIGQ 051755Z AUTO 20008KT 10SM CLR M12/M18 A3030 RMK AO2 T11241179  11124 21202,9.68,-4.36,,,,-0.37,-0.04,SSW,29.64,30.24,,Clear
KIGQ,02/05/2018 18:15 UTC,30.28,9.5,-0.04,64.45,11.5,200.0,,,,,,1.0,,,,10.0,,KIGQ 051815Z AUTO 20010KT 10SM CLR M12/M18 A3028 RMK AO2  T11251178,,,,,,-0.19,-1.76,SSW,29.62,30.22,,Clear
KIGQ,02/05/2018 18:35 UTC,30.27,9.5,0.14,65.0,9.22,210.0,,,,,,1202.0,,,,10.0,,KIGQ 051835Z AUTO 21008KT 10SM SCT120 M12/M18 A3027 RMK AO2  T11251177,,,,,,-0.01,-0.25,SSW,29.61,30.21,,Partly Cloudy
KIGQ,02/05/2018 18:55 UTC,30.26,8.96,-0.22,65.47,8.05,220.0,,,,,,1003.0,1203.0,,,10.0,,KIGQ 051855Z AUTO 22007KT 10SM BKN100 BKN120 M13/M18 A3026 RMK AO2  T11281179,,,10000.0,,,-0.37,0.01,SW,29.6,30.2,,Mostly Cloudy
KIGQ,02/05/2018 19:15 UTC,30.22,8.6,-0.4,65.98,9.22,180.0,,,,,,702.0,904.0,,,10.0,,KIGQ 051915Z AUTO 18008KT 10SM SCT070 OVC090 M13/M18 A3022 RMK AO2  T11301180,,,9000.0,,,-0.54,-1.32,S,29.56,30.17,,Overcast
KIGQ,02/05/2018 19:35 UTC,30.2,8.78,-1.48,62.19,6.91,190.0,,,,,,502.0,654.0,,,10.0,,KIGQ 051935Z AUTO 19006KT 10SM SCT050 OVC065 M13/M19 A3020 RMK AO2  T11291186,,,6500.0,,,-1.64,,S,29.54,30.15,,Overcast
KIGQ,02/05/2018 19:55 UTC,30.19,9.14,-1.48,61.18,9.22,170.0,,,,,,554.0,,,,10.0,,KIGQ 051955Z AUTO 17008KT 10SM OVC055 M13/M19 A3019 RMK AO2  T11271186,,,5500.0,,,-1.64,-0.68,S,29.53,30.14,,Overcast
KIGQ,02/05/2018 20:15 UTC,30.19,9.5,-0.94,61.76,8.05,200.0,,,,,,502.0,604.0,,,10.0,,KIGQ 052015Z AUTO 20007KT 10SM SCT050 OVC060 M12/M18 A3019 RMK AO2  T11251183,,,6000.0,,,-1.1,0.65,SSW,29.53,30.13,,Overcast
KIGQ,02/05/2018 20:35 UTC,30.2,10.04,-1.3,59.26,8.05,220.0,,,,,,604.0,,,,10.0,,KIGQ 052035Z AUTO 22007KT 10SM OVC060 M12/M18 A3020 RMK AO2  T11221185,,,6000.0,,,-1.47,1.28,SW,29.54,30.14,,Overcast
KIGQ,02/05/2018 20:55 UTC,30.21,10.22,-1.48,58.29,8.05,210.0,,,,,,453.0,504.0,,,10.0,,KIGQ 052055Z AUTO 21007KT 10SM BKN045 OVC050 M12/M19 A3021 RMK AO2  T11211186,,,4500.0,,,-1.65,1.49,SSW,29.55,30.15,,Overcast
KIGQ,02/05/2018 21:15 UTC,30.22,10.76,-1.3,57.38,5.75,260.0,,,,,,392.0,464.0,,,10.0,,KIGQ 052115Z AUTO 26005KT 10SM SCT039 OVC046 M12/M18 A3022 RMK AO2  T11181185,,,4600.0,,,-1.48,,W,29.56,30.16,,Overcast
KIGQ,02/05/2018 21:35 UTC,30.22,10.4,-1.3,58.31,3.44,240.0,,20.0,384.0,,,212.0,323.0,,,7.0,,KIGQ 052135Z AUTO 24003KT 7SM -SN SCT021 BKN032 OVC038 M12/M18  A3022 RMK AO2 T11201185,,,3200.0,,,-1.48,,WSW,29.56,30.16,,Light Snow
KIGQ,02/05/2018 21:55 UTC,30.23,9.5,4.28,78.84,4.61,240.0,,20.0,,,,93.0,134.0,,,0.5,,KIGQ 052155Z AUTO 24004KT 1/2SM -SN BKN009 OVC013 M12/M15 A3023 RMK AO2 T11251154,,,900.0,,,4.19,,WSW,29.57,30.16,,Light Snow
KIGQ,02/05/2018 22:15 UTC,30.23,9.14,6.08,87.03,4.61,210.0,,3.0,,,,114.0,,,,0.25,,KIGQ 052215Z AUTO 21004KT 1/4SM SN OVC011 M13/M14 A3023 RMK AO2  T11271144,,,1100.0,,,6.02,,SSW,29.57,30.15,,Snow
KIGQ,02/05/2018 22:35 UTC,30.21,8.96,6.62,89.93,0.0,0.0,,3.0,,,,94.0,,,,0.5,,KIGQ 052235Z AUTO 00000KT 1/2SM SN OVC009 M13/M14 A3021 RMK AO2  T11281141,,,900.0,,,6.58,,N,29.55,30.13,,Snow
KIGQ,02/05/2018 22:55 UTC,30.21,8.6,6.8,92.16,4.61,170.0,,3.0,,0.01,,94.0,,,,0.5,,KIGQ 052255Z AUTO 17004KT 1/2SM SN OVC009 M13/M14 A3021 RMK AO2  P0001 T11301140,,,900.0,,,6.77,,S,29.55,30.13,,Snow
KIGQ,02/05/2018 23:15 UTC,30.2,8.78,6.62,90.67,4.61,180.0,,20.0,,0.01,,94.0,,,,0.5,,KIGQ 052315Z AUTO 18004KT 1/2SM -SN OVC009 M13/M14 A3020 RMK AO2  P0001 T11291141,,,900.0,,,6.58,,S,29.54,30.12,,Light Snow
KIGQ,02/05/2018 23:35 UTC,30.2,8.96,6.8,90.67,5.75,160.0,,3.0,,0.02,,114.0,,,,1.25,,KIGQ 052335Z AUTO 16005KT 1 1/4SM SN OVC011 M13/M14 A3020 RMK AO2  P0002 T11281140,,,1100.0,,,6.76,,SSE,29.54,30.12,,Snow
KIGQ,02/05/2018 23:55 UTC,30.2,8.78,6.8,91.41,4.61,180.0,,20.0,,0.02,,94.0,,0.03,,1.25,,KIGQ 052355Z AUTO 18004KT 1 1/4SM -SN OVC009 M13/M14 A3020 RMK AO2  P0002 60003 T11291140 11118 21130,10.76,8.6,900.0,,,6.76,,S,29.54,30.12,,Light Snow
KIGQ,02/06/2018 00:15 UTC,30.21,8.96,6.8,90.67,5.75,190.0,,20.0,,,,114.0,,,,2.5,,KIGQ 060015Z AUTO 19005KT 2 1/2SM -SN OVC011 M13/M14 A3021 RMK AO2  T11281140,,,1100.0,,,6.76,,S,29.55,30.13,,Light Snow
KIGQ,02/06/2018 00:35 UTC,30.21,9.14,7.34,92.18,4.61,180.0,,20.0,,,,114.0,,,,2.0,,KIGQ 060035Z AUTO 18004KT 2SM -SN OVC011 M13/M14 A3021 RMK AO2 VIS  1V4 T11271137,,,1100.0,,,7.31,,S,29.55,30.13,,Light Snow
KIGQ,02/06/2018 00:55 UTC,30.2,9.32,7.52,92.18,3.44,190.0,,20.0,,,,114.0,,,,1.75,,KIGQ 060055Z AUTO 19003KT 1 3/4SM -SN OVC011 M13/M14 A3020 RMK AO2  T11261136,,,1100.0,,,7.49,,S,29.54,30.11,,Light Snow
KIGQ,02/06/2018 01:15 UTC,30.2,9.5,7.7,92.19,3.44,180.0,,20.0,,0.01,,103.0,154.0,,,1.5,,KIGQ 060115Z AUTO 18003KT 1 1/2SM -SN BKN010 OVC015 M12/M13 A3020 RMK AO2 P0001 T11251135,,,1000.0,,,7.67,,S,29.54,30.11,,Light Snow
KIGQ,02/06/2018 01:35 UTC,30.2,9.86,7.7,90.71,4.61,180.0,,20.0,,0.01,,82.0,134.0,,,1.75,,KIGQ 060135Z AUTO 18004KT 1 3/4SM -SN SCT008 OVC013 M12/M13 A3020 RMK AO2 P0001 T11231135,,,1300.0,,,7.66,,S,29.54,30.11,,Light Snow
KIGQ,02/06/2018 01:55 UTC,30.2,10.04,8.24,92.21,4.61,180.0,,3.0,,0.02,,94.0,,,,1.0,,KIGQ 060155Z AUTO 18004KT 1SM SN OVC009 M12/M13 A3020 RMK AO2  P0002 T11221132,,,900.0,,,8.21,,S,29.54,30.11,,Snow
KIGQ,02/06/2018 02:15 UTC,30.2,10.04,8.24,92.21,8.05,180.0,,20.0,,0.01,,94.0,,,,1.75,,KIGQ 060215Z AUTO 18007KT 1 3/4SM -SN OVC009 M12/M13 A3020 RMK AO2  P0001 T11221132,,,900.0,,,8.21,1.28,S,29.54,30.11,,Light Snow
KIGQ,02/06/2018 02:35 UTC,30.21,10.4,8.6,92.22,5.75,200.0,,20.0,,0.01,,134.0,,,,2.0,,KIGQ 060235Z AUTO 20005KT 2SM -SN OVC013 M12/M13 A3021 RMK AO2  P0001 T11201130,,,1300.0,,,8.57,,SSW,29.55,30.11,,Light Snow
KIGQ,02/06/2018 02:55 UTC,30.22,10.22,8.42,92.22,3.44,230.0,,3.0,,0.02,0.04,83.0,134.0,,,1.0,,KIGQ 060255Z AUTO 23003KT 1SM SN BKN008 OVC013 M12/M13 A3022 RMK AO2 P0002 60004 T11211131,,,800.0,,,8.39,,SW,29.56,30.13,,Snow
KIGQ,02/06/2018 03:15 UTC,30.23,10.4,8.6,92.22,3.44,250.0,,3.0,,,,93.0,164.0,,,0.75,,KIGQ 060315Z AUTO 25003KT 3/4SM SN BKN009 OVC016 M12/M13 A3023 RMK AO2 T11201130,,,900.0,,,8.57,,WSW,29.57,30.14,,Snow
KIGQ,02/06/2018 03:35 UTC,30.22,10.76,8.6,90.75,0.0,0.0,,3.0,,,,144.0,,,,1.0,,KIGQ 060335Z AUTO 00000KT 1SM SN OVC014 M12/M13 A3022 RMK AO2  T11181130,,,1400.0,,,8.56,,N,29.56,30.12,,Snow
KIGQ,02/06/2018 03:55 UTC,30.23,10.94,9.14,92.24,0.0,0.0,,20.0,,,,123.0,204.0,,,1.5,,KIGQ 060355Z AUTO 00000KT 1 1/2SM -SN BKN012 OVC020 M12/M13 A3023 RMK AO2 T11171127,,,1200.0,,,9.11,,N,29.57,30.13,,Light Snow
KIGQ,02/06/2018 04:15 UTC,30.23,11.12,9.32,92.25,0.0,0.0,,20.0,424.0,,,222.0,333.0,,,2.5,,KIGQ 060415Z AUTO 00000KT 2 1/2SM -SN SCT022 BKN033 OVC042 M12/M13  A3023 RMK AO2 T11161126,,,3300.0,,,9.29,,N,29.57,30.13,,Light Snow
KIGQ,02/06/2018 04:35 UTC,30.22,10.94,9.14,92.24,0.0,0.0,,20.0,604.0,,,423.0,483.0,,,7.0,,KIGQ 060435Z AUTO 00000KT 7SM -SN BKN042 BKN048 OVC060 M12/M13  A3022 RMK AO2 T11171127,,,4200.0,,,9.11,,N,29.56,30.12,,Light Snow
KIGQ,02/06/2018 04:55 UTC,30.22,10.4,8.6,92.22,0.0,0.0,,20.0,904.0,,,383.0,463.0,,,7.0,,KIGQ 060455Z AUTO 00000KT 7SM -SN BKN038 BKN046 OVC090 M12/M13  A3022 RMK AO2 T11201130,,,3800.0,,,8.57,,N,29.56,30.13,,Light Snow
KIGQ,02/06/2018 05:15 UTC,30.23,10.4,8.6,92.22,0.0,0.0,,20.0,,,,362.0,1004.0,,,10.0,,KIGQ 060515Z AUTO 00000KT 10SM -SN SCT036 OVC100 M12/M13 A3023 RMK AO2 T11201130,,,10000.0,,,8.57,,N,29.57,30.14,,Light Snow
KIGQ,02/06/2018 05:35 UTC,30.23,10.58,8.6,91.48,0.0,0.0,,20.0,,,,1004.0,,,,10.0,,KIGQ 060535Z AUTO 00000KT 10SM -SN OVC100 M12/M13 A3023 RMK AO2  T11191130,,,10000.0,,,8.56,,N,29.57,30.13,,Light Snow
KIGQ,02/06/2018 05:55 UTC,30.23,10.04,7.88,90.72,0.0,0.0,,20.0,,,,1004.0,,0.04,,10.0,,KIGQ 060555Z AUTO 00000KT 10SM -SN OVC100 M12/M13 A3023 RMK AO2  60004 T11221134 11116 21129 411161202,11.12,8.78,10000.0,11.12,-4.36,7.84,,N,29.57,30.14,,Light Snow
KIGQ,02/06/2018 06:15 UTC,30.24,10.4,8.42,91.48,0.0,0.0,,20.0,,,,904.0,,,,10.0,,KIGQ 060615Z AUTO 00000KT 10SM -SN OVC090 M12/M13 A3024 RMK AO2  T11201131,,,9000.0,,,8.38,,N,29.58,30.15,,Light Snow
KIGQ,02/06/2018 06:35 UTC,30.24,10.4,8.6,92.22,0.0,0.0,,20.0,,,,904.0,,,,10.0,,KIGQ 060635Z AUTO 00000KT 10SM -SN OVC090 M12/M13 A3024 RMK AO2  T11201130,,,9000.0,,,8.57,,N,29.58,30.15,,Light Snow
KIGQ,02/06/2018 06:55 UTC,30.24,10.4,8.42,91.48,0.0,0.0,,,,,,804.0,,,,10.0,,KIGQ 060655Z AUTO 00000KT 10SM OVC080 M12/M13 A3024 RMK AO2  T11201131,,,8000.0,,,8.38,,N,29.58,30.15,,Overcast
KIGQ,02/06/2018 07:15 UTC,30.25,11.12,9.14,91.51,0.0,0.0,,,,,,804.0,,,,10.0,,KIGQ 060715Z AUTO 00000KT 10SM OVC080 M12/M13 A3025 RMK AO2  T11161127,,,8000.0,,,9.1,,N,29.59,30.15,,Overcast
KIGQ,02/06/2018 07:35 UTC,30.25,11.3,8.96,90.04,0.0,0.0,,,,,,804.0,,,,10.0,,KIGQ 060735Z AUTO 00000KT 10SM OVC080 M11/M13 A3025 RMK AO2  T11151128,,,8000.0,,,8.92,,N,29.59,30.15,,Overcast
KIGQ,02/06/2018 07:55 UTC,30.25,10.4,8.24,90.74,0.0,0.0,,,,,,803.0,,,,10.0,,KIGQ 060755Z AUTO 00000KT 10SM BKN080 M12/M13 A3025 RMK AO2  T11201132,,,8000.0,,,8.2,,N,29.59,30.16,,Mostly Cloudy
KIGQ,02/06/2018 08:15 UTC,30.26,9.86,7.7,90.71,0.0,0.0,,,,,,802.0,,,,10.0,,KIGQ 060815Z AUTO 00000KT 10SM SCT080 M12/M13 A3026 RMK AO2  T11231135,,,,,,7.66,,N,29.6,30.17,,Partly Cloudy
KIGQ,02/06/2018 08:35 UTC,30.26,9.32,7.52,92.18,3.44,300.0,,,,,,1.0,,,,10.0,,KIGQ 060835Z AUTO 30003KT 10SM CLR M13/M14 A3026 RMK AO2  T11261136,,,,,,7.49,,WNW,29.6,30.18,,Clear
KIGQ,02/06/2018 08:55 UTC,30.27,8.42,6.62,92.15,0.0,0.0,,,,,,1.0,,,,10.0,,KIGQ 060855Z AUTO 00000KT 10SM CLR M13/M14 A3027 RMK AO2  T11311141,,,,,,6.59,,N,29.61,30.19,,Clear
KIGQ,02/06/2018 09:15 UTC,30.27,7.16,5.72,93.64,0.0,0.0,,,,,,1.0,,,,10.0,,KIGQ 060915Z AUTO 00000KT 10SM CLR M14/M15 A3027 RMK AO2  T11381146,,,,,,5.69,,N,29.61,30.2,,Clear
KIGQ,02/06/2018 09:35 UTC,30.27,4.82,3.02,92.02,0.0,0.0,,,,,,1.0,,,,10.0,,KIGQ 060935Z AUTO 00000KT 10SM CLR M15/M16 A3027 RMK AO2  T11511161,,,,,,2.99,,N,29.61,30.22,,Clear
KIGQ,02/06/2018 09:55 UTC,30.28,6.44,4.64,92.08,0.0,0.0,,,,,,1.0,,,,10.0,,KIGQ 060955Z AUTO 00000KT 10SM CLR M14/M15 A3028 RMK AO2  T11421152,,,,,,4.61,,N,29.62,30.22,,Clear
KIGQ,02/06/2018 10:15 UTC,30.29,6.44,4.82,92.84,3.44,290.0,,,,,,1.0,,,,10.0,,KIGQ 061015Z AUTO 29003KT 10SM CLR M14/M15 A3029 RMK AO2  T11421151,,,,,,4.79,,WNW,29.63,30.23,,Clear
KIGQ,02/06/2018 10:35 UTC,30.3,2.48,-0.22,88.11,0.0,0.0,,,,,,1.0,,,,10.0,,KIGQ 061035Z AUTO 00000KT 10SM CLR M16/M18 A3030 RMK AO2  T11641179,,,,,,-0.27,,N,29.64,30.27,,Clear
KIGQ,02/06/2018 10:55 UTC,30.31,0.86,-1.48,89.54,0.0,0.0,,31.0,,,,1.0,,,,4.0,,KIGQ 061055Z AUTO 00000KT 4SM BR CLR M17/M19 A3031 RMK AO2  T11731186,,,,,,-1.52,,N,29.65,30.29,,Mist
KIGQ,02/06/2018 11:15 UTC,30.31,-3.46,-5.8,89.32,0.0,0.0,,31.0,,,,1.0,,,,2.0,,KIGQ 061115Z AUTO 00000KT 2SM BR CLR M20/M21 A3031 RMK AO2  T11971210,,,,,,-5.84,,N,29.65,30.31,,Mist
KIGQ,02/06/2018 11:35 UTC,30.32,-5.98,-8.86,86.85,0.0,0.0,,30.0,,,,55.0,,,,0.5,,KIGQ 061135Z AUTO 00000KT 1/2SM FZFG VV005 M21/M23 A3032 RMK AO2  T12111227,,,500.0,,,-8.9,,N,29.66,30.34,,Ice Fog
KIGQ,02/06/2018 11:55 UTC,30.34,-6.16,-9.22,86.07,3.44,250.0,,31.0,,,,1.0,,,0.07,4.0,,KIGQ 061155Z AUTO 25003KT 4SM BR CLR M21/M23 A3034 RMK AO2 70007  T12121229 11115 21215,11.3,-6.7,,,,-9.27,,WSW,29.68,30.36,,Mist
KIGQ,02/06/2018 12:15 UTC,30.36,-2.74,-5.26,88.58,0.0,0.0,,31.0,,,,1.0,,,,4.0,,KIGQ 061215Z AUTO 00000KT 4SM BR CLR M19/M21 A3036 RMK AO2  T11931207,,,,,,-5.3,,N,29.7,30.36,,Mist
KIGQ,02/06/2018 12:35 UTC,30.39,-1.48,-3.28,91.77,3.44,270.0,,31.0,,,,1.0,,,,5.0,,KIGQ 061235Z AUTO 27003KT 5SM BR CLR M19/M20 A3039 RMK AO2  T11861196,,,,,,-3.31,,W,29.73,30.38,,Mist
KIGQ,02/06/2018 12:55 UTC,30.41,2.48,0.32,90.38,4.61,280.0,,20.0,,,,1.0,,,,3.0,,KIGQ 061255Z AUTO 28004KT 3SM -SN CLR M16/M18 A3041 RMK AO2  T11641176,,,,,,0.28,,W,29.75,30.38,,Light Snow
KIGQ,02/06/2018 13:15 UTC,30.4,2.66,0.5,90.39,0.0,0.0,,20.0,,,,1.0,,,,2.5,,KIGQ 061315Z AUTO 00000KT 2 1/2SM -SN CLR M16/M17 A3040 RMK AO2  T11631175,,,,,,0.46,,N,29.74,30.37,,Light Snow
KIGQ,02/06/2018 13:35 UTC,30.41,4.1,2.12,91.22,0.0,0.0,,,,,,1.0,,,,10.0,,KIGQ 061335Z AUTO 00000KT 10SM CLR M15/M17 A3041 RMK AO2  T11551166,,,,,,2.08,,N,29.75,30.37,,Clear
KIGQ,02/06/2018 13:55 UTC,30.41,1.94,-0.58,88.83,0.0,0.0,,20.0,,,,1.0,,,,2.0,,KIGQ 061355Z AUTO 00000KT 2SM -SN CLR M17/M18 A3041 RMK AO2  T11671181,,,,,,-0.63,,N,29.75,30.38,,Light Snow
KIGQ,02/06/2018 14:15 UTC,30.42,1.22,-1.3,88.79,0.0,0.0,,20.0,,,,1.0,,,,2.5,,KIGQ 061415Z AUTO 00000KT 2 1/2SM -SN CLR M17/M18 A3042 RMK AO2  VIS 1V5 T11711185,,,,,,-1.35,,N,29.76,30.4,,Light Snow
KIGQ,02/06/2018 14:35 UTC,30.41,4.46,2.48,91.23,0.0,0.0,,,,,,1.0,,,,7.0,,KIGQ 061435Z AUTO 00000KT 7SM CLR M15/M16 A3041 RMK AO2  T11531164,,,,,,2.44,,N,29.75,30.37,,Clear
KIGQ,02/06/2018 14:55 UTC,30.41,10.22,8.78,93.73,0.0,0.0,,,,,,1.0,,,,10.0,,KIGQ 061455Z AUTO 00000KT 10SM CLR M12/M13 A3041 RMK AO2  T11211129,,,,,,8.75,,N,29.75,30.32,,Clear
KIGQ,02/06/2018 15:15 UTC,30.43,11.3,9.86,93.76,0.0,0.0,,,,,,132.0,,,,10.0,,KIGQ 061515Z AUTO 00000KT 10SM SCT013 M11/M12 A3043 RMK AO2  T11151123,,,,,,9.83,,N,29.77,30.33,,Partly Cloudy
KIGQ,02/06/2018 15:35 UTC,30.44,12.02,10.58,93.78,0.0,0.0,,,,,,132.0,,,,10.0,,KIGQ 061535Z AUTO 00000KT 10SM SCT013 M11/M12 A3044 RMK AO2  T11111119,,,,,,10.55,,N,29.78,30.33,,Partly Cloudy
KIGQ,02/06/2018 15:55 UTC,30.46,11.12,9.86,94.52,3.44,200.0,,,,,,1.0,,,,10.0,,KIGQ 061555Z AUTO 20003KT 10SM CLR M12/M12 A3046 RMK AO2  T11161123,,,,,,9.84,,SSW,29.8,30.36,,Clear
KIGQ,02/06/2018 16:15 UTC,30.47,12.2,10.94,94.55,0.0,0.0,,,,,,1.0,,,,10.0,,KIGQ 061615Z AUTO 00000KT 10SM CLR M11/M12 A3047 RMK AO2  T11101117,,,,,,10.92,,N,29.81,30.36,,Clear
KIGQ,02/06/2018 16:35 UTC,30.46,13.28,11.12,90.86,0.0,0.0,,,,,,1.0,,,,10.0,,KIGQ 061635Z AUTO 00000KT 10SM CLR M10/M12 A3046 RMK AO2  T11041116,,,,,,11.08,,N,29.8,30.35,,Clear
KIGQ,02/06/2018 16:55 UTC,30.47,14.18,9.5,81.22,0.0,0.0,,,,,,1.0,,,,10.0,,KIGQ 061655Z AUTO 00000KT 10SM CLR M10/M12 A3047 RMK AO2  T10991125,,,,,,9.42,,N,29.81,30.36,,Clear
KIGQ,02/06/2018 17:15 UTC,30.45,15.26,10.04,79.36,0.0,0.0,,,,,,1.0,,,,10.0,,KIGQ 061715Z AUTO 00000KT 10SM CLR M09/M12 A3045 RMK AO2  T10931122,,,,,,9.95,,N,29.79,30.33,,Clear
KIGQ,02/06/2018 17:35 UTC,30.45,16.16,10.22,76.93,0.0,0.0,,,,,,1.0,,,,10.0,,KIGQ 061735Z AUTO 00000KT 10SM CLR M09/M12 A3045 RMK AO2  T10881121,,,,,,10.12,,N,29.79,30.33,,Clear
KIGQ,02/06/2018 17:55 UTC,30.45,17.06,10.22,73.98,3.44,170.0,,,,,,1.0,,,,10.0,,KIGQ 061755Z AUTO 17003KT 10SM CLR M08/M12 A3045 RMK AO2 T10831121  11083 21211,17.06,-5.98,,,,10.1,,S,29.79,30.32,,Clear
KIGQ,02/06/2018 18:15 UTC,30.45,17.6,9.5,69.97,0.0,0.0,,,,,,1.0,,,,10.0,,KIGQ 061815Z AUTO 00000KT 10SM CLR M08/M12 A3045 RMK AO2  T10801125,,,,,,9.36,,N,29.79,30.33,,Clear
KIGQ,02/06/2018 18:35 UTC,30.44,18.14,9.32,67.81,0.0,0.0,,,,,,1.0,,,,10.0,,KIGQ 061835Z AUTO 00000KT 10SM CLR M08/M13 A3044 RMK AO2  T10771126,,,,,,9.18,,N,29.78,30.31,,Clear
KIGQ,02/06/2018 18:55 UTC,30.43,18.5,9.5,67.31,0.0,0.0,,,,,,1.0,,,,10.0,,KIGQ 061855Z AUTO 00000KT 10SM CLR M07/M12 A3043 RMK AO2  T10751125,,,,,,9.35,,N,29.77,30.3,,Clear
KIGQ,02/06/2018 19:15 UTC,30.42,18.5,9.5,67.31,0.0,0.0,,,,,,1.0,,,,10.0,,KIGQ 061915Z AUTO 00000KT 10SM CLR M07/M12 A3042 RMK AO2  T10751125,,,,,,9.35,,N,29.76,30.29,,Clear
KIGQ,02/06/2018 19:35 UTC,30.42,18.5,9.32,66.76,0.0,0.0,,,,,,1.0,,,,10.0,,KIGQ 061935Z AUTO 00000KT 10SM CLR M07/M13 A3042 RMK AO2  T10751126,,,,,,9.17,,N,29.76,30.29,,Clear
KIGQ,02/06/2018 19:55 UTC,30.41,18.68,10.04,68.43,0.0,0.0,,,,,,1.0,,,,10.0,,KIGQ 061955Z AUTO 00000KT 10SM CLR M07/M12 A3041 RMK AO2  T10741122,,,,,,9.9,,N,29.75,30.28,,Clear
KIGQ,02/06/2018 20:15 UTC,30.4,19.22,9.68,65.79,0.0,0.0,,,,,,1.0,,,,10.0,,KIGQ 062015Z AUTO 00000KT 10SM CLR M07/M12 A3040 RMK AO2  T10711124,,,,,,9.53,,N,29.74,30.27,,Clear
KIGQ,02/06/2018 20:35 UTC,30.41,19.76,9.68,64.28,0.0,0.0,,,,,,1.0,,,,10.0,,KIGQ 062035Z AUTO 00000KT 10SM CLR M07/M12 A3041 RMK AO2  T10681124,,,,,,9.52,,N,29.75,30.27,,Clear
KIGQ,02/06/2018 20:55 UTC,30.41,19.04,10.94,70.15,0.0,0.0,,,,,,1.0,,,,10.0,,KIGQ 062055Z AUTO 00000KT 10SM CLR M07/M12 A3041 RMK AO2  T10721117,,,,,,10.81,,N,29.75,30.27,,Clear
KIGQ,02/06/2018 21:15 UTC,30.39,19.4,10.94,69.07,0.0,0.0,,,,,,1.0,,,,10.0,,KIGQ 062115Z AUTO 00000KT 10SM CLR M07/M12 A3039 RMK AO2  T10701117,,,,,,10.8,,N,29.73,30.25,,Clear
KIGQ,02/06/2018 21:35 UTC,30.39,19.4,12.92,75.42,5.75,60.0,,,,,,262.0,,,,10.0,,KIGQ 062135Z AUTO 06005KT 10SM SCT026 M07/M11 A3039 RMK AO2  T10701106,,,,,,12.81,,ENE,29.73,30.24,,Partly Cloudy
KIGQ,02/06/2018 21:55 UTC,30.39,19.22,12.56,74.81,4.61,80.0,,,,,,262.0,1102.0,,,10.0,,KIGQ 062155Z AUTO 08004KT 10SM SCT026 SCT110 M07/M11 A3039 RMK AO2  T10711108,,,,,,12.45,,E,29.73,30.24,,Partly Cloudy
KIGQ,02/06/2018 22:15 UTC,30.39,19.04,13.1,77.21,4.61,40.0,,,,,,1.0,,,,10.0,,KIGQ 062215Z AUTO 04004KT 10SM CLR M07/M10 A3039 RMK AO2  T10721105,,,,,,13.0,,NE,29.73,30.24,,Clear
KIGQ,02/06/2018 22:35 UTC,30.4,18.86,13.1,77.81,0.0,0.0,,,,,,1103.0,,,,10.0,,KIGQ 062235Z AUTO 00000KT 10SM BKN110 M07/M10 A3040 RMK AO2  T10731105,,,11000.0,,,13.0,,N,29.74,30.25,,Mostly Cloudy
KIGQ,02/06/2018 22:55 UTC,30.41,19.04,13.46,78.44,0.0,0.0,,,,,,1004.0,,,,10.0,,KIGQ 062255Z AUTO 00000KT 10SM OVC100 M07/M10 A3041 RMK AO2  T10721103,,,10000.0,,,13.36,,N,29.75,30.26,,Overcast
KIGQ,02/06/2018 23:15 UTC,30.41,18.86,13.28,78.43,0.0,0.0,,,,,,1104.0,,,,10.0,,KIGQ 062315Z AUTO 00000KT 10SM OVC110 M07/M10 A3041 RMK AO2  T10731104,,,11000.0,,,13.18,,N,29.75,30.26,,Overcast
KIGQ,02/06/2018 23:35 UTC,30.41,18.86,13.28,78.43,0.0,0.0,,,,,,1004.0,,,,10.0,,KIGQ 062335Z AUTO 00000KT 10SM OVC100 M07/M10 A3041 RMK AO2  T10731104,,,10000.0,,,13.18,,N,29.75,30.26,,Overcast
KIGQ,02/06/2018 23:55 UTC,30.41,18.86,13.46,79.05,0.0,0.0,,,,,,1004.0,,,,10.0,,KIGQ 062355Z AUTO 00000KT 10SM OVC100 M07/M10 A3041 RMK AO2  T10731103 11068 21083,19.76,17.06,10000.0,,,13.36,,N,29.75,30.26,,Overcast
KIGQ,02/07/2018 00:15 UTC,30.4,18.68,13.64,80.3,3.44,90.0,,,,,,904.0,,,,10.0,,KIGQ 070015Z AUTO 09003KT 10SM OVC090 M07/M10 A3040 RMK AO2  T10741102,,,9000.0,,,13.55,,E,29.74,30.25,,Overcast
KIGQ,02/07/2018 00:35 UTC,30.39,18.86,14.0,80.96,3.44,100.0,,,,,,904.0,,,,10.0,,KIGQ 070035Z AUTO 10003KT 10SM OVC090 M07/M10 A3039 RMK AO2  T10731100,,,9000.0,,,13.92,,E,29.73,30.23,,Overcast
KIGQ,02/07/2018 00:55 UTC,30.38,18.86,13.82,80.32,5.75,120.0,,,,,,904.0,,,,10.0,,KIGQ 070055Z AUTO 12005KT 10SM OVC090 M07/M10 A3038 RMK AO2  T10731101,,,9000.0,,,13.73,,ESE,29.72,30.22,,Overcast
KIGQ,02/07/2018 01:15 UTC,30.38,18.5,12.92,78.39,3.44,160.0,,,,,,904.0,,,,10.0,,KIGQ 070115Z AUTO 16003KT 10SM OVC090 M07/M11 A3038 RMK AO2  T10751106,,,9000.0,,,12.82,,SSE,29.72,30.23,,Overcast
KIGQ,02/07/2018 01:35 UTC,30.38,17.96,12.2,77.72,0.0,0.0,,,,,,904.0,,,,10.0,,KIGQ 070135Z AUTO 00000KT 10SM OVC090 M08/M11 A3038 RMK AO2  T10781110,,,9000.0,,,12.1,,N,29.72,30.24,,Overcast
KIGQ,02/07/2018 01:55 UTC,30.38,17.96,11.48,75.27,0.0,0.0,,,,,,904.0,,,,10.0,,KIGQ 070155Z AUTO 00000KT 10SM OVC090 M08/M11 A3038 RMK AO2  T10781114,,,9000.0,,,11.37,,N,29.72,30.24,,Overcast
KIGQ,02/07/2018 02:15 UTC,30.38,18.14,12.02,76.51,0.0,0.0,,,,,,804.0,,,,10.0,,KIGQ 070215Z AUTO 00000KT 10SM OVC080 M08/M11 A3038 RMK AO2  T10771111,,,8000.0,,,11.91,,N,29.72,30.24,,Overcast
KIGQ,02/07/2018 02:35 UTC,30.37,18.14,12.2,77.12,0.0,0.0,,,,,,804.0,,,,10.0,,KIGQ 070235Z AUTO 00000KT 10SM OVC080 M08/M11 A3037 RMK AO2  T10771110,,,8000.0,,,12.1,,N,29.71,30.23,,Overcast
KIGQ,02/07/2018 02:55 UTC,30.37,17.96,11.66,75.88,0.0,0.0,,,,,,704.0,,,,10.0,,KIGQ 070255Z AUTO 00000KT 10SM OVC070 M08/M11 A3037 RMK AO2  T10781113,,,7000.0,,,11.55,,N,29.71,30.23,,Overcast
KIGQ,02/07/2018 03:15 UTC,30.37,18.14,11.84,75.9,0.0,0.0,,,,,,704.0,,,,10.0,,KIGQ 070315Z AUTO 00000KT 10SM OVC070 M08/M11 A3037 RMK AO2  T10771112,,,7000.0,,,11.73,,N,29.71,30.23,,Overcast
KIGQ,02/07/2018 03:35 UTC,30.36,18.32,12.2,76.52,0.0,0.0,,,,,,653.0,754.0,,,10.0,,KIGQ 070335Z AUTO 00000KT 10SM BKN065 OVC075 M08/M11 A3036 RMK AO2  T10761110,,,6500.0,,,12.09,,N,29.7,30.22,,Overcast
KIGQ,02/07/2018 03:55 UTC,30.36,18.5,12.56,77.16,0.0,0.0,,,,,,443.0,604.0,,,10.0,,KIGQ 070355Z AUTO 00000KT 10SM BKN044 OVC060 M07/M11 A3036 RMK AO2  T10751108,,,4400.0,,,12.46,,N,29.7,30.21,,Overcast
KIGQ,02/07/2018 04:15 UTC,30.36,18.32,13.28,80.27,0.0,0.0,,20.0,,,,394.0,,,,7.0,,KIGQ 070415Z AUTO 00000KT 7SM -SN OVC039 M08/M10 A3036 RMK AO2  T10761104,,,3900.0,,,13.19,,N,29.7,30.21,,Light Snow
KIGQ,02/07/2018 04:35 UTC,30.36,18.14,14.54,85.51,0.0,0.0,,20.0,,,,223.0,274.0,,,2.0,,KIGQ 070435Z AUTO 00000KT 2SM -SN BKN022 OVC027 M08/M10 A3036 RMK AO2 T10771097,,,2200.0,,,14.48,,N,29.7,30.2,,Light Snow
KIGQ,02/07/2018 04:55 UTC,30.35,17.6,15.44,91.04,0.0,0.0,,20.0,,,,204.0,,,,1.5,,KIGQ 070455Z AUTO 00000KT 1 1/2SM -SN OVC020 M08/M09 A3035 RMK AO2  T10801092,,,2000.0,,,15.4,,N,29.69,30.19,,Light Snow
KIGQ,02/07/2018 05:15 UTC,30.34,17.6,16.16,93.95,0.0,0.0,,20.0,,,,194.0,,,,1.75,,KIGQ 070515Z AUTO 00000KT 1 3/4SM -SN OVC019 M08/M09 A3034 RMK AO2  T10801088,,,1900.0,,,16.13,,N,29.68,30.17,,Light Snow
KIGQ,02/07/2018 05:35 UTC,30.34,17.96,16.7,94.69,0.0,0.0,,20.0,,,,214.0,,,,1.5,,KIGQ 070535Z AUTO 00000KT 1 1/2SM -SN OVC021 M08/M08 A3034 RMK AO2  T10781085,,,2100.0,,,16.68,,N,29.68,30.17,,Light Snow
KIGQ,02/07/2018 05:55 UTC,30.34,18.14,17.06,95.44,0.0,0.0,,3.0,,,,144.0,,,,1.0,,KIGQ 070555Z AUTO 00000KT 1SM SN OVC014 M08/M08 A3034 RMK AO2  T10771083 11072 21080 410681215,19.04,17.6,1400.0,19.76,-6.7,17.04,,N,29.68,30.16,,Snow
KIGQ,02/07/2018 06:15 UTC,30.34,18.5,17.42,95.45,0.0,0.0,,20.0,,,,144.0,,,,1.25,,KIGQ 070615Z AUTO 00000KT 1 1/4SM -SN OVC014 M07/M08 A3034 RMK AO2  T10751081,,,1400.0,,,17.4,,N,29.68,30.16,,Light Snow
KIGQ,02/07/2018 06:35 UTC,30.33,18.14,17.24,96.19,0.0,0.0,,20.0,,,,144.0,,,,1.5,,KIGQ 070635Z AUTO 00000KT 1 1/2SM -SN OVC014 M08/M08 A3033 RMK AO2  T10771082,,,1400.0,,,17.22,,N,29.67,30.15,,Light Snow
KIGQ,02/07/2018 06:55 UTC,30.32,18.5,17.6,96.19,0.0,0.0,,20.0,,,,143.0,244.0,,,1.5,,KIGQ 070655Z AUTO 00000KT 1 1/2SM -SN BKN014 OVC024 M07/M08 A3032 RMK AO2 T10751080,,,1400.0,,,17.58,,N,29.66,30.14,,Light Snow
KIGQ,02/07/2018 07:15 UTC,30.3,18.5,17.6,96.19,3.44,10.0,,20.0,,,,244.0,,,,1.75,,KIGQ 070715Z AUTO 01003KT 1 3/4SM -SN OVC024 M07/M08 A3030 RMK AO2  T10751080,,,2400.0,,,17.58,,N,29.64,30.12,,Light Snow
KIGQ,02/07/2018 07:35 UTC,30.29,18.5,17.6,96.19,3.44,40.0,,20.0,,,,154.0,,,,1.0,,KIGQ 070735Z AUTO 04003KT 1SM -SN OVC015 M07/M08 A3029 RMK AO2  T10751080,,,1500.0,,,17.58,,NE,29.63,30.11,,Light Snow
KIGQ,02/07/2018 07:55 UTC,30.28,18.86,18.14,96.95,3.44,360.0,,20.0,,,,154.0,,,,1.5,,KIGQ 070755Z AUTO 36003KT 1 1/2SM -SN OVC015 M07/M08 A3028 RMK AO2  T10731077,,,1500.0,,,18.13,,N,29.62,30.09,,Light Snow
KIGQ,02/07/2018 08:15 UTC,30.26,19.22,18.32,96.21,3.44,20.0,,20.0,,,,134.0,,,,1.5,,KIGQ 070815Z AUTO 02003KT 1 1/2SM -SN OVC013 M07/M08 A3026 RMK AO2  T10711076,,,1300.0,,,18.3,,NNE,29.6,30.07,,Light Snow
KIGQ,02/07/2018 08:35 UTC,30.26,19.4,18.5,96.21,0.0,0.0,,20.0,,,,134.0,,,,1.75,,KIGQ 070835Z AUTO 00000KT 1 3/4SM -SN OVC013 M07/M07 A3026 RMK AO2  T10701075,,,1300.0,,,18.48,,N,29.6,30.07,,Light Snow
KIGQ,02/07/2018 08:55 UTC,30.26,19.4,18.5,96.21,3.44,40.0,,20.0,,,,144.0,,,,1.5,,KIGQ 070855Z AUTO 04003KT 1 1/2SM -SN OVC014 M07/M07 A3026 RMK AO2  T10701075,,,1400.0,,,18.48,,NE,29.6,30.07,,Light Snow
KIGQ,02/07/2018 09:15 UTC,30.26,19.76,18.68,95.47,0.0,0.0,,20.0,,,,124.0,,,,2.0,,KIGQ 070915Z AUTO 00000KT 2SM -SN OVC012 M07/M07 A3026 RMK AO2  T10681074,,,1200.0,,,18.66,,N,29.6,30.06,,Light Snow
KIGQ,02/07/2018 09:35 UTC,30.26,19.4,18.32,95.47,0.0,0.0,,20.0,,,,103.0,164.0,,,1.5,,KIGQ 070935Z AUTO 00000KT 1 1/2SM -SN BKN010 OVC016 M07/M08 A3026 RMK AO2 T10701076,,,1000.0,,,18.3,,N,29.6,30.07,,Light Snow
KIGQ,02/07/2018 09:55 UTC,30.24,19.4,18.5,96.21,0.0,0.0,,3.0,,,,124.0,,,,1.0,,KIGQ 070955Z AUTO 00000KT 1SM SN OVC012 M07/M07 A3024 RMK AO2  T10701075,,,1200.0,,,18.48,,N,29.58,30.04,,Snow
KIGQ,02/07/2018 10:15 UTC,30.25,19.4,18.5,96.21,0.0,0.0,,3.0,,,,124.0,,,,1.0,,KIGQ 071015Z AUTO 00000KT 1SM SN OVC012 M07/M07 A3025 RMK AO2  T10701075,,,1200.0,,,18.48,,N,29.59,30.06,,Snow
KIGQ,02/07/2018 10:35 UTC,30.24,19.4,18.5,96.21,6.91,350.0,,20.0,,,,144.0,,,,1.75,,KIGQ 071035Z AUTO 35006KT 1 3/4SM -SN OVC014 M07/M07 A3024 RMK AO2  T10701075,,,1400.0,,,18.48,,N,29.58,30.04,,Light Snow
KIGQ,02/07/2018 10:55 UTC,30.25,19.4,18.14,94.73,5.75,330.0,,20.0,,,,112.0,164.0,,,5.0,,KIGQ 071055Z AUTO 33005KT 5SM -SN SCT011 OVC016 M07/M08 A3025 RMK AO2 T10701077,,,1600.0,,,18.12,,NNW,29.59,30.06,,Light Snow
KIGQ,02/07/2018 11:15 UTC,30.24,18.5,17.24,94.71,6.91,310.0,,20.0,284.0,,,113.0,183.0,,,7.0,,KIGQ 071115Z AUTO 31006KT 7SM -SN BKN011 BKN018 OVC028 M07/M08  A3024 RMK AO2 T10751082,,,1100.0,,,17.22,,NW,29.58,30.06,,Light Snow
KIGQ,02/07/2018 11:35 UTC,30.25,17.96,16.16,92.5,4.61,310.0,,20.0,274.0,,,92.0,142.0,,,7.0,,KIGQ 071135Z AUTO 31004KT 7SM -SN SCT009 SCT014 OVC027 M08/M09  A3025 RMK AO2 T10781088,,,2700.0,,,16.13,,NW,29.59,30.08,,Light Snow
KIGQ,02/07/2018 11:55 UTC,30.25,17.42,15.62,92.48,5.75,300.0,,20.0,294.0,,,132.0,233.0,,,5.0,,KIGQ 071155Z AUTO 30005KT 5SM -SN SCT013 BKN023 OVC029 M08/M09  A3025 RMK AO2 T10811091 11068 21081,19.76,17.42,2300.0,,,15.59,,WNW,29.59,30.09,,Light Snow
KIGQ,02/07/2018 12:15 UTC,30.25,17.06,15.26,92.46,4.61,300.0,,20.0,,,,174.0,,,,7.0,,KIGQ 071215Z AUTO 30004KT 7SM -SN OVC017 M08/M09 A3025 RMK AO2  T10831093,,,1700.0,,,15.23,,WNW,29.59,30.09,,Light Snow
KIGQ,02/07/2018 12:35 UTC,30.26,16.7,14.9,92.45,4.61,300.0,,20.0,,,,154.0,,,,7.0,,KIGQ 071235Z AUTO 30004KT 7SM -SN OVC015 M08/M09 A3026 RMK AO2  T10851095,,,1500.0,,,14.87,,WNW,29.6,30.1,,Light Snow
KIGQ,02/07/2018 12:55 UTC,30.26,17.06,14.9,91.02,5.75,310.0,,20.0,,,,154.0,,,,5.0,,KIGQ 071255Z AUTO 31005KT 5SM -SN OVC015 M08/M09 A3026 RMK AO2  T10831095,,,1500.0,,,14.86,,NW,29.6,30.1,,Light Snow
KIGQ,02/07/2018 13:15 UTC,30.28,16.7,14.72,91.73,6.91,310.0,,20.0,,,,174.0,,,,2.5,,KIGQ 071315Z AUTO 31006KT 2 1/2SM -SN OVC017 M08/M10 A3028 RMK AO2  VIS 2V5 T10851096,,,1700.0,,,14.68,,NW,29.62,30.13,,Light Snow
KIGQ,02/07/2018 13:35 UTC,30.28,16.7,14.54,91.0,5.75,320.0,,20.0,,,,194.0,,,,3.0,,KIGQ 071335Z AUTO 32005KT 3SM -SN OVC019 M08/M10 A3028 RMK AO2  T10851097,,,1900.0,,,14.5,,NW,29.62,30.13,,Light Snow
KIGQ,02/07/2018 13:55 UTC,30.29,16.7,14.54,91.0,8.05,310.0,,20.0,,,,214.0,,,,5.0,,KIGQ 071355Z AUTO 31007KT 5SM -SN OVC021 M08/M10 A3029 RMK AO2  T10851097,,,2100.0,,,14.5,9.11,NW,29.63,30.14,,Light Snow
KIGQ,02/07/2018 14:15 UTC,30.29,17.24,14.9,90.31,4.61,310.0,,20.0,,,,214.0,,,,1.25,,KIGQ 071415Z AUTO 31004KT 1 1/4SM -SN OVC021 M08/M09 A3029 RMK AO2  VIS 1/4V4 T10821095,,,2100.0,,,14.86,,NW,29.63,30.13,,Light Snow
KIGQ,02/07/2018 14:35 UTC,30.29,17.42,14.54,88.21,5.75,310.0,,20.0,,,,233.0,354.0,,,5.0,,KIGQ 071435Z AUTO 31005KT 5SM -SN BKN023 OVC035 M08/M10 A3029 RMK AO2 T10811097,,,2300.0,,,14.49,,NW,29.63,30.13,,Light Snow
KIGQ,02/07/2018 14:55 UTC,30.29,18.14,14.9,86.87,3.44,290.0,,20.0,,,,252.0,334.0,,,3.0,,KIGQ 071455Z AUTO 29003KT 3SM -SN SCT025 OVC033 M08/M09 A3029 RMK AO2 T10771095,,,3300.0,,,14.84,,WNW,29.63,30.13,,Light Snow
KIGQ,02/07/2018 15:15 UTC,30.29,18.14,14.54,85.51,3.44,320.0,,20.0,,,,282.0,353.0,,,7.0,,KIGQ 071515Z AUTO 32003KT 7SM -SN SCT028 BKN035 M08/M10 A3029 RMK AO2 T10771097,,,3500.0,,,14.48,,NW,29.63,30.13,,Light Snow
KIGQ,02/07/2018 15:35 UTC,30.29,18.68,14.72,84.21,4.61,290.0,,,653.0,,,292.0,353.0,,,10.0,,KIGQ 071535Z AUTO 29004KT 10SM SCT029 BKN035 BKN065 M07/M10 A3029 RMK AO2 T10741096,,,3500.0,,,14.65,,WNW,29.63,30.13,,Mostly Cloudy
KIGQ,02/07/2018 15:55 UTC,30.29,19.76,14.9,81.03,5.75,290.0,,,,,,293.0,354.0,,,10.0,,KIGQ 071555Z AUTO 29005KT 10SM BKN029 OVC035 M07/M09 A3029 RMK AO2  T10681095,,,2900.0,,,14.81,,WNW,29.63,30.12,,Overcast
KIGQ,02/07/2018 16:15 UTC,30.29,20.66,15.26,79.21,5.75,300.0,,,,,,294.0,,,,10.0,,KIGQ 071615Z AUTO 30005KT 10SM OVC029 M06/M09 A3029 RMK AO2  T10631093,,,2900.0,,,15.16,,WNW,29.63,30.11,,Overcast
KIGQ,02/07/2018 16:35 UTC,30.3,21.02,15.44,78.63,8.05,290.0,,,,,,294.0,,,,10.0,,KIGQ 071635Z AUTO 29007KT 10SM OVC029 M06/M09 A3030 RMK AO2  T10611092,,,2900.0,,,15.34,14.18,WNW,29.64,30.12,,Overcast
KIGQ,02/07/2018 16:55 UTC,30.29,21.02,14.72,76.19,8.05,300.0,11.5,,604.0,,,202.0,292.0,,,10.0,,KIGQ 071655Z AUTO 30007G10KT 10SM SCT020 SCT029 OVC060 M06/M10  A3029 RMK AO2 T10611096,,,6000.0,,,14.61,14.18,WNW,29.63,30.12,,Overcast
KIGQ,02/07/2018 17:15 UTC,30.29,21.38,15.08,76.22,9.22,280.0,,,,,,604.0,,,,10.0,,KIGQ 071715Z AUTO 28008KT 10SM OVC060 M06/M09 A3029 RMK AO2  T10591094,,,6000.0,,,14.97,13.85,W,29.63,30.11,,Overcast
KIGQ,02/07/2018 17:35 UTC,30.29,21.74,14.9,74.48,8.05,290.0,17.27,,,,,213.0,604.0,,,10.0,,KIGQ 071735Z AUTO 29007G15KT 10SM BKN021 OVC060 M06/M09 A3029 RMK AO2 T10571095,,,2100.0,,,14.78,15.02,WNW,29.63,30.11,,Overcast
KIGQ,02/07/2018 17:55 UTC,30.29,21.38,14.54,74.44,9.22,280.0,17.27,,,,,213.0,604.0,,,10.0,,KIGQ 071755Z AUTO 28008G15KT 10SM BKN021 OVC060 M06/M10 A3029 RMK AO2 T10591097 11055 21085,22.1,16.7,2100.0,,,14.42,13.85,W,29.63,30.12,,Overcast
KIGQ,02/07/2018 18:15 UTC,30.29,21.38,14.72,75.03,8.05,290.0,,,,,,232.0,604.0,,,10.0,,KIGQ 071815Z AUTO 29007KT 10SM SCT023 OVC060 M06/M10 A3029 RMK AO2  T10591096,,,6000.0,,,14.61,14.6,WNW,29.63,30.11,,Overcast
KIGQ,02/07/2018 18:35 UTC,30.29,21.02,14.54,75.59,10.36,270.0,,,604.0,,,233.0,303.0,,,10.0,,KIGQ 071835Z AUTO 27009KT 10SM BKN023 BKN030 OVC060 M06/M10 A3029 RMK AO2 T10611097,,,2300.0,,,14.43,12.75,W,29.63,30.12,,Overcast
KIGQ,02/07/2018 18:55 UTC,30.3,20.84,14.54,76.17,10.36,280.0,16.11,20.0,554.0,,,233.0,293.0,,,10.0,,KIGQ 071855Z AUTO 28009G14KT 10SM -SN BKN023 BKN029 OVC055 M06/M10  A3030 RMK AO2 T10621097,,,2300.0,,,14.43,12.54,W,29.64,30.13,,Light Snow
KIGQ,02/07/2018 19:15 UTC,30.3,20.84,13.82,73.8,9.22,290.0,,,554.0,,,232.0,292.0,,,10.0,,KIGQ 071915Z AUTO 29008KT 10SM SCT023 SCT029 OVC055 M06/M10 A3030 RMK AO2 T10621101,,,5500.0,,,13.7,13.21,WNW,29.64,30.13,,Overcast
KIGQ,02/07/2018 19:35 UTC,30.29,20.3,13.28,73.74,13.8,280.0,,,,,,232.0,554.0,,,10.0,,KIGQ 071935Z AUTO 28012KT 10SM SCT023 OVC055 M06/M10 A3029 RMK AO2  T10651104,,,5500.0,,,13.16,10.18,W,29.63,30.13,,Overcast
KIGQ,02/07/2018 19:55 UTC,30.3,20.12,12.2,70.84,10.36,300.0,17.27,,,,,232.0,554.0,,,10.0,,KIGQ 071955Z AUTO 30009G15KT 10SM SCT023 OVC055 M07/M11 A3030 RMK AO2 T10661110,,,5500.0,,,12.07,11.68,WNW,29.64,30.15,,Overcast
KIGQ,02/07/2018 20:15 UTC,30.3,21.02,13.1,70.95,5.75,280.0,,,,,,242.0,553.0,,,10.0,,KIGQ 072015Z AUTO 28005KT 10SM SCT024 BKN055 M06/M10 A3030 RMK AO2  T10611105,,,5500.0,,,12.97,,W,29.64,30.14,,Mostly Cloudy
KIGQ,02/07/2018 20:35 UTC,30.31,20.3,12.02,69.74,9.22,280.0,,,,,,242.0,552.0,,,10.0,,KIGQ 072035Z AUTO 28008KT 10SM SCT024 SCT055 M06/M11 A3031 RMK AO2  T10651111,,,,,,11.88,12.56,W,29.65,30.16,,Partly Cloudy
KIGQ,02/07/2018 20:55 UTC,30.31,20.84,12.2,68.7,12.66,260.0,,,,,,1.0,,,,10.0,,KIGQ 072055Z AUTO 26011KT 10SM CLR M06/M11 A3031 RMK AO2  T10621110,,,,,,12.06,11.36,W,29.65,30.15,,Clear
KIGQ,02/07/2018 21:15 UTC,30.32,20.3,12.74,72.0,12.66,260.0,,,,,,263.0,,,,10.0,,KIGQ 072115Z AUTO 26011KT 10SM BKN026 M06/M11 A3032 RMK AO2  T10651107,,,2600.0,,,12.61,10.7,W,29.66,30.16,,Mostly Cloudy
KIGQ,02/07/2018 21:35 UTC,30.33,19.58,12.2,72.49,13.8,260.0,,,,,,264.0,,,,10.0,,KIGQ 072135Z AUTO 26012KT 10SM OVC026 M07/M11 A3033 RMK AO2  T10691110,,,2600.0,,,12.07,9.3,W,29.67,30.18,,Overcast
KIGQ,02/07/2018 21:55 UTC,30.34,18.5,12.2,75.93,11.5,260.0,,,,,,264.0,,,,10.0,,KIGQ 072155Z AUTO 26010KT 10SM OVC026 M07/M11 A3034 RMK AO2  T10751110,,,2600.0,,,12.09,9.1,W,29.68,30.19,,Overcast
KIGQ,02/07/2018 22:15 UTC,30.34,17.96,11.66,75.88,12.66,270.0,19.57,20.0,,,,264.0,,,,7.0,,KIGQ 072215Z AUTO 27011G17KT 7SM -SN OVC026 M08/M11 A3034 RMK AO2  T10781113,,,2600.0,,,11.55,7.86,W,29.68,30.2,,Light Snow
KIGQ,02/07/2018 22:35 UTC,30.36,17.06,11.3,77.64,13.8,270.0,,20.0,,,,264.0,,,,10.0,,KIGQ 072235Z AUTO 27012KT 10SM -SN OVC026 M08/M11 A3036 RMK AO2  T10831115,,,2600.0,,,11.2,6.21,W,29.7,30.23,,Light Snow
KIGQ,02/07/2018 22:55 UTC,30.37,16.7,11.3,78.86,9.22,280.0,,20.0,,,,244.0,,,,10.0,,KIGQ 072255Z AUTO 28008KT 10SM -SN OVC024 M08/M11 A3037 RMK AO2  T10851115,,,2400.0,,,11.21,8.29,W,29.71,30.24,,Light Snow
KIGQ,02/07/2018 23:15 UTC,30.39,16.52,10.94,78.21,10.36,270.0,,20.0,,,,234.0,,,,7.0,,KIGQ 072315Z AUTO 27009KT 7SM -SN OVC023 M09/M12 A3039 RMK AO2  T10861117,,,2300.0,,,10.84,7.37,W,29.73,30.26,,Light Snow
KIGQ,02/07/2018 23:35 UTC,30.4,16.34,10.76,78.19,10.36,260.0,,20.0,,,,234.0,,,,7.0,,KIGQ 072335Z AUTO 26009KT 7SM -SN OVC023 M09/M12 A3040 RMK AO2  T10871118,,,2300.0,,,10.66,7.15,W,29.74,30.27,,Light Snow
KIGQ,02/07/2018 23:55 UTC,30.4,15.98,11.3,81.37,8.05,260.0,,20.0,,,,254.0,,,,7.0,,KIGQ 072355Z AUTO 26007KT 7SM -SN OVC025 M09/M11 A3040 RMK AO2  T10891115 11057 21089,21.74,15.98,2500.0,,,11.22,8.26,W,29.74,30.27,,Light Snow
KIGQ,02/08/2018 00:15 UTC,30.41,15.8,11.48,82.67,9.22,290.0,,20.0,,,,192.0,264.0,,,3.0,,KIGQ 080015Z AUTO 29008KT 3SM -SN SCT019 OVC026 M09/M11 A3041 RMK AO2 T10901114,,,2600.0,,,11.4,7.22,WNW,29.75,30.28,,Light Snow
KIGQ,02/08/2018 00:35 UTC,30.41,15.44,9.68,77.48,8.05,310.0,,20.0,,,,244.0,,,,7.0,,KIGQ 080035Z AUTO 31007KT 7SM -SN OVC024 M09/M12 A3041 RMK AO2  T10921124,,,2400.0,,,9.58,7.63,NW,29.75,30.29,,Light Snow
KIGQ,02/08/2018 00:55 UTC,30.41,14.72,7.88,73.72,8.05,290.0,,,,,,244.0,,,,10.0,,KIGQ 080055Z AUTO 29007KT 10SM OVC024 M10/M13 A3041 RMK AO2  T10961134,,,2400.0,,,7.76,6.78,WNW,29.75,30.3,,Overcast
KIGQ,02/08/2018 01:15 UTC,30.42,14.72,7.88,73.72,8.05,280.0,,20.0,,,,244.0,,,,10.0,,KIGQ 080115Z AUTO 28007KT 10SM -SN OVC024 M10/M13 A3042 RMK AO2  T10961134,,,2400.0,,,7.76,6.78,W,29.76,30.32,,Light Snow
KIGQ,02/08/2018 01:35 UTC,30.42,14.36,7.88,74.89,6.91,270.0,,20.0,,,,244.0,,,,10.0,,KIGQ 080135Z AUTO 27006KT 10SM -SN OVC024 M10/M13 A3042 RMK AO2  T10981134,,,2400.0,,,7.77,,W,29.76,30.32,,Light Snow
KIGQ,02/08/2018 01:55 UTC,30.43,14.36,7.7,74.29,4.61,290.0,,,,,,244.0,,,,10.0,,KIGQ 080155Z AUTO 29004KT 10SM OVC024 M10/M13 A3043 RMK AO2  T10981135,,,2400.0,,,7.59,,WNW,29.77,30.33,,Overcast
KIGQ,02/08/2018 02:15 UTC,30.43,14.0,7.34,74.25,5.75,290.0,,,,,,244.0,,,,10.0,,KIGQ 080215Z AUTO 29005KT 10SM OVC024 M10/M14 A3043 RMK AO2  T11001137,,,2400.0,,,7.23,,WNW,29.77,30.33,,Overcast
KIGQ,02/08/2018 02:35 UTC,30.44,14.0,7.7,75.47,4.61,280.0,,,,,,244.0,,,,10.0,,KIGQ 080235Z AUTO 28004KT 10SM OVC024 M10/M13 A3044 RMK AO2  T11001135,,,2400.0,,,7.59,,W,29.78,30.34,,Overcast
KIGQ,02/08/2018 02:55 UTC,30.43,13.82,7.52,75.45,8.05,320.0,,,,,,244.0,,,,10.0,,KIGQ 080255Z AUTO 32007KT 10SM OVC024 M10/M14 A3043 RMK AO2  T11011136,,,2400.0,,,7.41,5.72,NW,29.77,30.33,,Overcast
KIGQ,02/08/2018 03:15 UTC,30.43,13.82,6.8,73.02,4.61,330.0,,,,,,244.0,,,,10.0,,KIGQ 080315Z AUTO 33004KT 10SM OVC024 M10/M14 A3043 RMK AO2  T11011140,,,2400.0,,,6.68,,NNW,29.77,30.33,,Overcast
KIGQ,02/08/2018 03:35 UTC,30.44,13.46,6.8,74.19,4.61,280.0,,,,,,244.0,,,,10.0,,KIGQ 080335Z AUTO 28004KT 10SM OVC024 M10/M14 A3044 RMK AO2  T11031140,,,2400.0,,,6.69,,W,29.78,30.35,,Overcast
KIGQ,02/08/2018 03:55 UTC,30.44,13.46,6.98,74.8,4.61,260.0,,20.0,,,,244.0,,,,10.0,,KIGQ 080355Z AUTO 26004KT 10SM -SN OVC024 M10/M14 A3044 RMK AO2  T11031139,,,2400.0,,,6.87,,W,29.78,30.34,,Light Snow
KIGQ,02/08/2018 04:15 UTC,30.45,13.28,7.34,76.64,5.75,240.0,,,,,,244.0,,,,10.0,,KIGQ 080415Z AUTO 24005KT 10SM OVC024 M10/M14 A3045 RMK AO2  T11041137,,,2400.0,,,7.24,,WSW,29.79,30.35,,Overcast
KIGQ,02/08/2018 04:35 UTC,30.44,13.1,6.98,76.0,4.61,260.0,,,,,,244.0,,,,10.0,,KIGQ 080435Z AUTO 26004KT 10SM OVC024 M10/M14 A3044 RMK AO2  T11051139,,,2400.0,,,6.88,,W,29.78,30.35,,Overcast
KIGQ,02/08/2018 05:00 UTC,30.44,12.56,6.8,77.2,4.61,250.0,,,,,,244.0,,,,10.0,,KIGQ 080500Z AUTO 25004KT 10SM OVC024 M11/M14 A3044 RMK AO2  T11081140,,,2400.0,,,6.7,,WSW,29.78,30.35,,Overcast
KIGQ,02/08/2018 05:15 UTC,30.44,12.2,6.62,77.8,3.44,240.0,,,,,,244.0,,,,10.0,,KIGQ 080515Z AUTO 24003KT 10SM OVC024 M11/M14 A3044 RMK AO2  T11101141,,,2400.0,,,6.52,,WSW,29.78,30.35,,Overcast
KIGQ,02/08/2018 05:35 UTC,30.44,11.66,6.26,78.39,4.61,260.0,,,,,,244.0,,,,10.0,,KIGQ 080535Z AUTO 26004KT 10SM OVC024 M11/M14 A3044 RMK AO2  T11131143,,,2400.0,,,6.17,,W,29.78,30.36,,Overcast
KIGQ,02/08/2018 05:55 UTC,30.44,11.66,6.44,79.04,4.61,230.0,,,,,,244.0,,,,10.0,,KIGQ 080555Z AUTO 23004KT 10SM OVC024 M11/M14 A3044 RMK AO2  T11131142 11089 21113 410551113,15.98,11.66,2400.0,22.1,11.66,6.35,,SW,29.78,30.35,,Overcast
KIGQ,02/08/2018 06:15 UTC,30.44,10.76,5.9,80.27,0.0,0.0,,,,,,244.0,,,,10.0,,KIGQ 080615Z AUTO 00000KT 10SM OVC024 M12/M14 A3044 RMK AO2  T11181145,,,2400.0,,,5.82,,N,29.78,30.36,,Overcast
KIGQ,02/08/2018 06:35 UTC,30.44,10.22,6.26,83.59,0.0,0.0,,,,,,224.0,,,,10.0,,KIGQ 080635Z AUTO 00000KT 10SM OVC022 M12/M14 A3044 RMK AO2  T11211143,,,2200.0,,,6.19,,N,29.78,30.36,,Overcast
KIGQ,02/08/2018 06:55 UTC,30.44,9.86,5.36,81.53,6.91,250.0,,,,,,223.0,,,,10.0,,KIGQ 080655Z AUTO 25006KT 10SM BKN022 M12/M15 A3044 RMK AO2  T11231148,,,2200.0,,,5.28,,WSW,29.78,30.37,,Mostly Cloudy
KIGQ,02/08/2018 07:15 UTC,30.45,7.7,4.1,84.81,6.91,260.0,,,,,,1.0,,,,10.0,,KIGQ 080715Z AUTO 26006KT 10SM CLR M13/M15 A3045 RMK AO2  T11351155,,,,,,4.04,,W,29.79,30.39,,Clear
KIGQ,02/08/2018 07:35 UTC,30.44,6.62,3.2,85.44,6.91,250.0,,,,,,1.0,,,,10.0,,KIGQ 080735Z AUTO 25006KT 10SM CLR M14/M16 A3044 RMK AO2  T11411160,,,,,,3.14,,WSW,29.78,30.39,,Clear
KIGQ,02/08/2018 07:55 UTC,30.45,6.62,3.2,85.44,5.75,260.0,,,,,,1.0,,,,10.0,,KIGQ 080755Z AUTO 26005KT 10SM CLR M14/M16 A3045 RMK AO2  T11411160,,,,,,3.14,,W,29.79,30.4,,Clear
KIGQ,02/08/2018 08:15 UTC,30.45,6.26,3.2,86.86,3.44,270.0,,,,,,1.0,,,,10.0,,KIGQ 080815Z AUTO 27003KT 10SM CLR M14/M16 A3045 RMK AO2  T11431160,,,,,,3.15,,W,29.79,30.4,,Clear
KIGQ,02/08/2018 08:35 UTC,30.45,5.54,2.48,86.81,4.61,260.0,,,,,,1.0,,,,10.0,,KIGQ 080835Z AUTO 26004KT 10SM CLR M15/M16 A3045 RMK AO2  T11471164,,,,,,2.42,,W,29.79,30.4,,Clear
KIGQ,02/08/2018 08:55 UTC,30.44,5.0,2.3,88.25,0.0,0.0,,,,,,1.0,,,,10.0,,KIGQ 080855Z AUTO 00000KT 10SM CLR M15/M16 A3044 RMK AO2  T11501165,,,,,,2.25,,N,29.78,30.4,,Clear
KIGQ,02/08/2018 09:15 UTC,30.44,4.1,1.22,87.46,0.0,0.0,,,,,,1202.0,,,,10.0,,KIGQ 080915Z AUTO 00000KT 10SM SCT120 M15/M17 A3044 RMK AO2  T11551171,,,,,,1.17,,N,29.78,30.4,,Partly Cloudy
KIGQ,02/08/2018 09:35 UTC,30.44,3.92,1.94,91.21,0.0,0.0,,,,,,1104.0,,,,10.0,,KIGQ 080935Z AUTO 00000KT 10SM OVC110 M16/M17 A3044 RMK AO2  T11561167,,,11000.0,,,1.9,,N,29.78,30.4,,Overcast
KIGQ,02/08/2018 09:55 UTC,30.44,3.74,1.94,91.97,0.0,0.0,,,,,,1104.0,,,,10.0,,KIGQ 080955Z AUTO 00000KT 10SM OVC110 M16/M17 A3044 RMK AO2  T11571167,,,11000.0,,,1.91,,N,29.78,30.4,,Overcast
KIGQ,02/08/2018 10:15 UTC,30.43,5.72,3.92,92.05,0.0,0.0,,,,,,904.0,,,,10.0,,KIGQ 081015Z AUTO 00000KT 10SM OVC090 M15/M16 A3043 RMK AO2  T11461156,,,9000.0,,,3.89,,N,29.77,30.38,,Overcast
KIGQ,02/08/2018 10:35 UTC,30.44,6.44,4.28,90.56,0.0,0.0,,,,,,702.0,804.0,,,10.0,,KIGQ 081035Z AUTO 00000KT 10SM SCT070 OVC080 M14/M15 A3044 RMK AO2  T11421154,,,8000.0,,,4.24,,N,29.78,30.38,,Overcast
KIGQ,02/08/2018 10:55 UTC,30.44,6.8,4.64,90.58,0.0,0.0,,,704.0,,,502.0,602.0,,,10.0,,KIGQ 081055Z AUTO 00000KT 10SM SCT050 SCT060 OVC070 M14/M15 A3044 RMK AO2 T11401152,,,7000.0,,,4.6,,N,29.78,30.38,,Overcast
KIGQ,02/08/2018 11:15 UTC,30.45,7.7,5.0,88.4,0.0,0.0,,,1004.0,,,502.0,803.0,,,7.0,,KIGQ 081115Z AUTO 00000KT 7SM SCT050 BKN080 OVC100 M13/M15 A3045 RMK AO2 T11351150,,,8000.0,,,4.95,,N,29.79,30.39,,Overcast
KIGQ,02/08/2018 11:35 UTC,30.44,8.96,5.54,85.6,3.44,250.0,,,,,,653.0,904.0,,,10.0,,KIGQ 081135Z AUTO 25003KT 10SM BKN065 OVC090 M13/M15 A3044 RMK AO2  T11281147,,,6500.0,,,5.48,,WSW,29.78,30.37,,Overcast
KIGQ,02/08/2018 11:55 UTC,30.45,9.32,5.72,84.92,0.0,0.0,,,,,,652.0,904.0,,,10.0,,KIGQ 081155Z AUTO 00000KT 10SM SCT065 OVC090 M13/M15 A3045 RMK AO2  T11261146 11113 21162,11.66,2.84,9000.0,,,5.66,,N,29.79,30.38,,Overcast
KIGQ,02/08/2018 12:15 UTC,30.44,9.5,5.9,84.93,3.44,230.0,,,,,,804.0,,,,10.0,,KIGQ 081215Z AUTO 23003KT 10SM OVC080 M12/M14 A3044 RMK AO2  T11251145,,,8000.0,,,5.83,,SW,29.78,30.37,,Overcast
KIGQ,02/08/2018 12:35 UTC,30.44,9.32,5.72,84.92,4.61,230.0,,,,,,804.0,,,,10.0,,KIGQ 081235Z AUTO 23004KT 10SM OVC080 M13/M15 A3044 RMK AO2  T11261146,,,8000.0,,,5.66,,SW,29.78,30.37,,Overcast
KIGQ,02/08/2018 12:55 UTC,30.44,9.14,5.18,83.51,4.61,220.0,,,,,,804.0,,,,10.0,,KIGQ 081255Z AUTO 22004KT 10SM OVC080 M13/M15 A3044 RMK AO2  T11271149,,,8000.0,,,5.11,,SW,29.78,30.37,,Overcast
KIGQ,02/08/2018 13:15 UTC,30.45,9.32,5.0,82.16,6.91,230.0,,,804.0,,,602.0,702.0,,,10.0,,KIGQ 081315Z AUTO 23006KT 10SM SCT060 SCT070 OVC080 M13/M15 A3045 RMK AO2 T11261150,,,8000.0,,,4.92,,SW,29.79,30.38,,Overcast
KIGQ,02/08/2018 13:35 UTC,30.45,9.32,4.82,81.48,4.61,230.0,,,804.0,,,602.0,703.0,,,10.0,,KIGQ 081335Z AUTO 23004KT 10SM SCT060 BKN070 OVC080 M13/M15 A3045 RMK AO2 T11261151,,,7000.0,,,4.74,,SW,29.79,30.38,,Overcast
KIGQ,02/08/2018 13:55 UTC,30.46,9.5,5.54,83.54,4.61,230.0,,,804.0,,,472.0,703.0,,,10.0,,KIGQ 081355Z AUTO 23004KT 10SM SCT047 BKN070 OVC080 M12/M15 A3046 RMK AO2 T11251147,,,7000.0,,,5.47,,SW,29.8,30.39,,Overcast
KIGQ,02/08/2018 14:15 UTC,30.46,9.5,5.54,83.54,0.0,0.0,,,,,,473.0,704.0,,,10.0,,KIGQ 081415Z AUTO 00000KT 10SM BKN047 OVC070 M12/M15 A3046 RMK AO2  T11251147,,,4700.0,,,5.47,,N,29.8,30.39,,Overcast
KIGQ,02/08/2018 14:35 UTC,30.46,10.04,5.72,82.22,3.44,230.0,,,,,,412.0,474.0,,,10.0,,KIGQ 081435Z AUTO 23003KT 10SM SCT041 OVC047 M12/M15 A3046 RMK AO2  T11221146,,,4700.0,,,5.64,,SW,29.8,30.38,,Overcast
KIGQ,02/08/2018 14:55 UTC,30.46,10.76,5.9,80.27,5.75,230.0,,,653.0,,,412.0,493.0,,,10.0,,KIGQ 081455Z AUTO 23005KT 10SM SCT041 BKN049 BKN065 M12/M14 A3046 RMK AO2 T11181145,,,4900.0,,,5.82,,SW,29.8,30.38,,Mostly Cloudy
KIGQ,02/08/2018 15:15 UTC,30.47,11.84,5.9,76.49,6.91,240.0,,,,,,434.0,,,,10.0,,KIGQ 081515Z AUTO 24006KT 10SM OVC043 M11/M14 A3047 RMK AO2  T11121145,,,4300.0,,,5.8,,WSW,29.81,30.39,,Overcast
KIGQ,02/08/2018 15:35 UTC,30.48,12.2,6.08,75.9,8.05,240.0,,,,,,394.0,,,,10.0,,KIGQ 081535Z AUTO 24007KT 10SM OVC039 M11/M14 A3048 RMK AO2  T11101144,,,3900.0,,,5.97,3.82,WSW,29.82,30.39,,Overcast
KIGQ,02/08/2018 15:55 UTC,30.48,13.1,6.8,75.38,9.22,250.0,,,,,,394.0,,,,10.0,,KIGQ 081555Z AUTO 25008KT 10SM OVC039 M10/M14 A3048 RMK AO2  T11051140,,,3900.0,,,6.69,4.02,WSW,29.82,30.39,,Overcast
KIGQ,02/08/2018 16:15 UTC,30.47,13.46,7.34,76.03,10.36,230.0,,,554.0,,,363.0,463.0,,,10.0,,KIGQ 081615Z AUTO 23009KT 10SM BKN036 BKN046 OVC055 M10/M14 A3047 RMK AO2 T11031137,,,3600.0,,,7.23,3.7,SW,29.81,30.37,,Overcast
KIGQ,02/08/2018 16:35 UTC,30.48,14.72,8.6,76.16,10.36,250.0,,,803.0,,,362.0,452.0,,,10.0,,KIGQ 081635Z AUTO 25009KT 10SM SCT036 SCT045 BKN080 M10/M13 A3048 RMK AO2 T10961130,,,8000.0,,,8.49,5.21,WSW,29.82,30.37,,Mostly Cloudy
KIGQ,02/08/2018 16:55 UTC,30.48,15.62,8.6,73.22,11.5,250.0,,,,,,803.0,853.0,,,10.0,,KIGQ 081655Z AUTO 25010KT 10SM BKN080 BKN085 M09/M13 A3048 RMK AO2  T10911130,,,8000.0,,,8.48,5.63,WSW,29.82,30.37,,Mostly Cloudy
KIGQ,02/08/2018 17:15 UTC,30.48,16.16,9.32,73.88,10.36,250.0,,,,,,754.0,,,,10.0,,KIGQ 081715Z AUTO 25009KT 10SM OVC075 M09/M13 A3048 RMK AO2  T10881126,,,7500.0,,,9.2,6.93,WSW,29.82,30.36,,Overcast
KIGQ,02/08/2018 17:35 UTC,30.47,16.34,9.5,73.9,9.22,250.0,,,,,,754.0,,,,10.0,,KIGQ 081735Z AUTO 25008KT 10SM OVC075 M09/M12 A3047 RMK AO2  T10871125,,,7500.0,,,9.38,7.87,WSW,29.81,30.35,,Overcast
KIGQ,02/08/2018 17:55 UTC,30.46,17.06,9.32,71.05,6.91,250.0,,,,,,754.0,,,,10.0,,KIGQ 081755Z AUTO 25006KT 10SM OVC075 M08/M13 A3046 RMK AO2  T10831126 11083 21128,17.06,8.96,7500.0,,,9.19,,WSW,29.8,30.34,,Overcast
KIGQ,02/08/2018 18:15 UTC,30.45,17.96,10.04,70.58,10.36,250.0,,,,,,754.0,,,,10.0,,KIGQ 081815Z AUTO 25009KT 10SM OVC075 M08/M12 A3045 RMK AO2  T10781122,,,7500.0,,,9.91,9.09,WSW,29.79,30.32,,Overcast
KIGQ,02/08/2018 18:35 UTC,30.44,17.78,10.22,71.71,8.05,240.0,,,,,,654.0,,,,10.0,,KIGQ 081835Z AUTO 24007KT 10SM OVC065 M08/M12 A3044 RMK AO2  T10791121,,,6500.0,,,10.09,10.37,WSW,29.78,30.31,,Overcast
KIGQ,02/08/2018 18:55 UTC,30.43,17.96,10.4,71.73,8.05,250.0,,,,,,654.0,,,,10.0,,KIGQ 081855Z AUTO 25007KT 10SM OVC065 M08/M12 A3043 RMK AO2  T10781120,,,6500.0,,,10.27,10.59,WSW,29.77,30.3,,Overcast
KIGQ,02/08/2018 19:15 UTC,30.43,18.5,11.12,72.37,10.36,260.0,,,,,,654.0,,,,10.0,,KIGQ 081915Z AUTO 26009KT 10SM OVC065 M07/M12 A3043 RMK AO2  T10751116,,,6500.0,,,10.99,9.74,W,29.77,30.29,,Overcast
KIGQ,02/08/2018 19:35 UTC,30.41,18.14,11.3,74.09,8.05,250.0,,,,,,654.0,,,,10.0,,KIGQ 081935Z AUTO 25007KT 10SM OVC065 M08/M11 A3041 RMK AO2  T10771115,,,6500.0,,,11.18,10.8,WSW,29.75,30.27,,Overcast
KIGQ,02/08/2018 19:55 UTC,30.4,18.68,11.66,73.56,6.91,230.0,,,,,,652.0,,,,10.0,,KIGQ 081955Z AUTO 23006KT 10SM SCT065 M07/M11 A3040 RMK AO2  T10741113,,,,,,11.54,,SW,29.74,30.26,,Partly Cloudy
KIGQ,02/08/2018 20:15 UTC,30.4,18.5,12.56,77.16,6.91,200.0,,,,,,1.0,,,,10.0,,KIGQ 082015Z AUTO 20006KT 10SM CLR M07/M11 A3040 RMK AO2  T10751108,,,,,,12.46,,SSW,29.74,30.25,,Clear
KIGQ,02/08/2018 20:35 UTC,30.4,18.5,12.74,77.77,8.05,220.0,,,,,,1.0,,,,10.0,,KIGQ 082035Z AUTO 22007KT 10SM CLR M07/M11 A3040 RMK AO2  T10751107,,,,,,12.64,11.22,SW,29.74,30.25,,Clear
KIGQ,02/08/2018 20:55 UTC,30.4,18.5,12.92,78.39,9.22,190.0,,,,,,402.0,,,,10.0,,KIGQ 082055Z AUTO 19008KT 10SM SCT040 M07/M11 A3040 RMK AO2  T10751106,,,,,,12.82,10.43,S,29.74,30.25,,Partly Cloudy
KIGQ,02/08/2018 21:15 UTC,30.41,18.5,13.1,79.02,8.05,200.0,,,,,,403.0,,,,10.0,,KIGQ 082115Z AUTO 20007KT 10SM BKN040 M07/M10 A3041 RMK AO2  T10751105,,,4000.0,,,13.01,11.22,SSW,29.75,30.26,,Mostly Cloudy
KIGQ,02/08/2018 21:35 UTC,30.4,18.5,13.1,79.02,5.75,210.0,,,,,,384.0,,,,10.0,,KIGQ 082135Z AUTO 21005KT 10SM OVC038 M07/M10 A3040 RMK AO2  T10751105,,,3800.0,,,13.01,,SSW,29.74,30.25,,Overcast
KIGQ,02/08/2018 21:55 UTC,30.4,19.04,13.46,78.44,9.22,210.0,,,,,,364.0,,,,10.0,,KIGQ 082155Z AUTO 21008KT 10SM OVC036 M07/M10 A3040 RMK AO2  T10721103,,,3600.0,,,13.36,11.07,SSW,29.74,30.25,,Overcast
KIGQ,02/08/2018 22:15 UTC,30.4,19.04,13.64,79.07,8.05,210.0,,,,,,364.0,,,,10.0,,KIGQ 082215Z AUTO 21007KT 10SM OVC036 M07/M10 A3040 RMK AO2  T10721102,,,3600.0,,,13.55,11.85,SSW,29.74,30.24,,Overcast
KIGQ,02/08/2018 22:35 UTC,30.39,18.86,13.1,77.81,5.75,200.0,,,,,,364.0,,,,10.0,,KIGQ 082235Z AUTO 20005KT 10SM OVC036 M07/M10 A3039 RMK AO2  T10731105,,,3600.0,,,13.0,,SSW,29.73,30.24,,Overcast
KIGQ,02/08/2018 22:55 UTC,30.39,19.04,13.46,78.44,6.91,210.0,,,,,,344.0,,,,10.0,,KIGQ 082255Z AUTO 21006KT 10SM OVC034 M07/M10 A3039 RMK AO2  T10721103,,,3400.0,,,13.36,,SSW,29.73,30.24,,Overcast
KIGQ,02/08/2018 23:15 UTC,30.4,19.04,13.82,79.7,6.91,200.0,,,,,,324.0,,,,10.0,,KIGQ 082315Z AUTO 20006KT 10SM OVC032 M07/M10 A3040 RMK AO2  T10721101,,,3200.0,,,13.73,,SSW,29.74,30.24,,Overcast
KIGQ,02/08/2018 23:35 UTC,30.39,19.04,14.0,80.33,5.75,200.0,,,,,,324.0,,,,10.0,,KIGQ 082335Z AUTO 20005KT 10SM OVC032 M07/M10 A3039 RMK AO2  T10721100,,,3200.0,,,13.91,,SSW,29.73,30.23,,Overcast
KIGQ,02/08/2018 23:55 UTC,30.38,19.04,14.0,80.33,6.91,180.0,,,,,,324.0,,,,10.0,,KIGQ 082355Z AUTO 18006KT 10SM OVC032 M07/M10 A3038 RMK AO2  T10721100 11072 21082,19.04,17.24,3200.0,,,13.91,,S,29.72,30.22,,Overcast
KIGQ,02/09/2018 00:15 UTC,30.39,19.04,14.18,80.97,4.61,180.0,,,604.0,,,352.0,413.0,,,10.0,,KIGQ 090015Z AUTO 18004KT 10SM SCT035 BKN041 OVC060 M07/M10 A3039 RMK AO2 T10721099,,,4100.0,,,14.09,,S,29.73,30.23,,Overcast
KIGQ,02/09/2018 00:35 UTC,30.38,19.04,14.72,82.91,3.44,150.0,,20.0,,,,243.0,314.0,,,3.0,,KIGQ 090035Z AUTO 15003KT 3SM -SN BKN024 OVC031 M07/M10 A3038 RMK AO2 T10721096,,,2400.0,,,14.64,,SSE,29.72,30.22,,Light Snow
KIGQ,02/09/2018 00:55 UTC,30.38,18.5,15.8,88.96,0.0,0.0,,20.0,,,,162.0,224.0,,,2.5,,KIGQ 090055Z AUTO 00000KT 2 1/2SM -SN SCT016 OVC022 M07/M09 A3038 RMK AO2 T10751090,,,2200.0,,,15.75,,N,29.72,30.21,,Light Snow
KIGQ,02/09/2018 01:15 UTC,30.38,18.5,16.52,91.79,0.0,0.0,,20.0,,,,193.0,254.0,,,2.0,,KIGQ 090115Z AUTO 00000KT 2SM -SN BKN019 OVC025 M07/M09 A3038 RMK AO2 T10751086,,,1900.0,,,16.48,,N,29.72,30.21,,Light Snow
KIGQ,02/09/2018 01:35 UTC,30.38,18.5,16.7,92.51,0.0,0.0,,20.0,304.0,,,182.0,263.0,,,2.0,,KIGQ 090135Z AUTO 00000KT 2SM -SN SCT018 BKN026 OVC030 M07/M08  A3038 RMK AO2 T10751085,,,2600.0,,,16.67,,N,29.72,30.21,,Light Snow
KIGQ,02/09/2018 01:55 UTC,30.37,18.5,16.7,92.51,3.44,130.0,,20.0,474.0,,,282.0,403.0,,,4.0,,KIGQ 090155Z AUTO 13003KT 4SM -SN SCT028 BKN040 OVC047 M07/M08  A3037 RMK AO2 T10751085,,,4000.0,,,16.67,,SE,29.71,30.2,,Light Snow
KIGQ,02/09/2018 02:15 UTC,30.36,18.5,16.88,93.24,4.61,110.0,,20.0,,,,323.0,434.0,,,3.0,,KIGQ 090215Z AUTO 11004KT 3SM -SN BKN032 OVC043 M07/M08 A3036 RMK AO2 T10751084,,,3200.0,,,16.85,,ESE,29.7,30.18,,Light Snow
KIGQ,02/09/2018 02:35 UTC,30.36,18.86,17.06,92.53,3.44,120.0,,20.0,,,,212.0,304.0,,,2.5,,KIGQ 090235Z AUTO 12003KT 2 1/2SM -SN SCT021 OVC030 M07/M08 A3036 RMK AO2 T10731083,,,3000.0,,,17.03,,ESE,29.7,30.18,,Light Snow
KIGQ,02/09/2018 02:55 UTC,30.36,18.68,17.24,93.98,3.44,110.0,,20.0,,,,234.0,,,,2.0,,KIGQ 090255Z AUTO 11003KT 2SM -SN OVC023 M07/M08 A3036 RMK AO2  T10741082,,,2300.0,,,17.21,,ESE,29.7,30.18,,Light Snow
KIGQ,02/09/2018 03:15 UTC,30.36,19.04,17.6,93.99,3.44,130.0,,20.0,,,,163.0,224.0,,,2.0,,KIGQ 090315Z AUTO 13003KT 2SM -SN BKN016 OVC022 M07/M08 A3036 RMK AO2 T10721080,,,1600.0,,,17.57,,SE,29.7,30.18,,Light Snow
KIGQ,02/09/2018 03:35 UTC,30.35,19.22,17.96,94.72,3.44,110.0,,20.0,,,,144.0,,,,2.0,,KIGQ 090335Z AUTO 11003KT 2SM -SN OVC014 M07/M08 A3035 RMK AO2  T10711078,,,1400.0,,,17.94,,ESE,29.69,30.16,,Light Snow
KIGQ,02/09/2018 03:55 UTC,30.34,19.22,18.14,95.46,4.61,120.0,,20.0,,,,164.0,,,,1.5,,KIGQ 090355Z AUTO 12004KT 1 1/2SM -SN OVC016 M07/M08 A3034 RMK AO2  T10711077,,,1600.0,,,18.12,,ESE,29.68,30.15,,Light Snow
KIGQ,02/09/2018 04:15 UTC,30.33,19.22,18.32,96.21,4.61,120.0,,20.0,,0.01,,144.0,,,,1.5,,KIGQ 090415Z AUTO 12004KT 1 1/2SM -SN OVC014 M07/M08 A3033 RMK AO2  P0001 T10711076,,,1400.0,,,18.3,,ESE,29.67,30.14,,Light Snow
KIGQ,02/09/2018 04:35 UTC,30.32,19.4,18.5,96.21,3.44,110.0,,20.0,,0.01,,164.0,,,,1.75,,KIGQ 090435Z AUTO 11003KT 1 3/4SM -SN OVC016 M07/M07 A3032 RMK AO2  P0001 T10701075,,,1600.0,,,18.48,,ESE,29.66,30.13,,Light Snow
KIGQ,02/09/2018 04:55 UTC,30.32,19.76,18.86,96.22,4.61,100.0,,20.0,,0.01,,144.0,,,,1.5,,KIGQ 090455Z AUTO 10004KT 1 1/2SM -SN OVC014 M07/M07 A3032 RMK AO2  P0001 T10681073,,,1400.0,,,18.84,,E,29.66,30.12,,Light Snow
KIGQ,02/09/2018 05:15 UTC,30.3,19.94,19.04,96.22,6.91,110.0,,20.0,274.0,,,143.0,213.0,,,1.5,,KIGQ 090515Z AUTO 11006KT 1 1/2SM -SN BKN014 BKN021 OVC027 M07/M07  A3030 RMK AO2 T10671072,,,1400.0,,,19.02,,ESE,29.64,30.1,,Light Snow
KIGQ,02/09/2018 05:35 UTC,30.29,20.3,19.4,96.23,5.75,120.0,,20.0,,,,204.0,,,,1.25,,KIGQ 090535Z AUTO 12005KT 1 1/4SM -SN OVC020 M06/M07 A3029 RMK AO2  T10651070,,,2000.0,,,19.38,,ESE,29.63,30.08,,Light Snow
KIGQ,02/09/2018 05:55 UTC,30.28,20.66,19.76,96.23,5.75,130.0,,20.0,,,,174.0,,0.01,,1.0,,KIGQ 090555Z AUTO 13005KT 1SM -SN OVC017 M06/M07 A3028 RMK AO2  60001 T10631068 11063 21075 410631162,20.66,18.5,1700.0,20.66,2.84,19.74,,SE,29.62,30.07,,Light Snow
KIGQ,02/09/2018 06:15 UTC,30.27,21.2,20.3,96.24,6.91,130.0,,20.0,,0.01,,154.0,,,,1.25,,KIGQ 090615Z AUTO 13006KT 1 1/4SM -SN OVC015 M06/M06 A3027 RMK AO2  P0001 T10601065,,,1500.0,,,20.28,,SE,29.61,30.05,,Light Snow
KIGQ,02/09/2018 06:35 UTC,30.26,21.74,20.84,96.25,5.75,130.0,,20.0,,0.01,,174.0,,,,1.75,,KIGQ 090635Z AUTO 13005KT 1 3/4SM -SN OVC017 M06/M06 A3026 RMK AO2  P0001 T10571062,,,1700.0,,,20.82,,SE,29.6,30.03,,Light Snow
KIGQ,02/09/2018 07:15 UTC,30.25,22.46,21.74,97.0,6.91,130.0,,20.0,,,,144.0,,,,1.5,,KIGQ 090715Z AUTO 13006KT 1 1/2SM -SN OVC014 M05/M06 A3025 RMK AO2  T10531057,,,1400.0,,,21.73,,SE,29.59,30.01,,Light Snow
KIGQ,02/09/2018 07:35 UTC,30.24,22.64,21.74,96.27,5.75,120.0,,20.0,,,,143.0,204.0,,,1.75,,KIGQ 090735Z AUTO 12005KT 1 3/4SM -SN BKN014 OVC020 M05/M06 A3024 RMK AO2 T10521057,,,1400.0,,,21.72,,ESE,29.58,30.0,,Light Snow
KIGQ,02/09/2018 07:55 UTC,30.23,23.0,22.1,96.27,5.75,120.0,,20.0,654.0,,,222.0,312.0,,,5.0,,KIGQ 090755Z AUTO 12005KT 5SM -SN SCT022 SCT031 OVC065 M05/M05  A3023 RMK AO2 T10501055,,,6500.0,,,22.08,,ESE,29.57,29.99,,Light Snow
KIGQ,02/09/2018 08:15 UTC,30.22,23.0,22.1,96.27,8.05,110.0,,20.0,654.0,,,362.0,503.0,,,7.0,,KIGQ 090815Z AUTO 11007KT 7SM -SN SCT036 BKN050 OVC065 M05/M05  A3022 RMK AO2 T10501055,,,5000.0,,,22.08,16.5,ESE,29.56,29.97,,Light Snow
KIGQ,02/09/2018 08:35 UTC,30.21,23.72,22.82,96.29,6.91,110.0,,20.0,,,,163.0,224.0,,,1.5,,KIGQ 090835Z AUTO 11006KT 1 1/2SM -SN BKN016 OVC022 M05/M05 A3021 RMK AO2 T10461051,,,1600.0,,,22.8,,ESE,29.55,29.95,,Light Snow
KIGQ,02/09/2018 08:55 UTC,30.2,23.72,23.0,97.02,5.75,130.0,,20.0,,,0.01,144.0,,,,1.5,,KIGQ 090855Z AUTO 13005KT 1 1/2SM -SN OVC014 M05/M05 A3020 RMK AO2  60001 T10461050,,,1400.0,,,22.99,,SE,29.54,29.94,,Light Snow
KIGQ,02/09/2018 09:15 UTC,30.18,23.9,23.54,98.5,5.75,130.0,,3.0,,0.01,,104.0,,,,0.5,,KIGQ 090915Z AUTO 13005KT 1/2SM SN OVC010 M04/M05 A3018 RMK AO2  P0001 T10451047,,,1000.0,,,23.53,,SE,29.52,29.92,,Snow
KIGQ,02/09/2018 09:35 UTC,30.16,24.08,23.72,98.5,6.91,130.0,,3.0,,0.03,,104.0,,,,0.75,,KIGQ 090935Z AUTO 13006KT 3/4SM SN OVC010 M04/M05 A3016 RMK AO2  P0003 T10441046,,,1000.0,,,23.71,,SE,29.5,29.89,,Snow
KIGQ,02/09/2018 09:55 UTC,30.15,24.62,24.08,97.77,3.44,140.0,,20.0,,0.04,,104.0,,,,1.25,,KIGQ 090955Z AUTO 14003KT 1 1/4SM -SN OVC010 M04/M04 A3015 RMK AO2  P0004 T10411044,,,1000.0,,,24.07,,SE,29.49,29.87,,Light Snow
KIGQ,02/09/2018 10:15 UTC,30.15,25.16,24.8,98.51,4.61,160.0,,20.0,,,,144.0,,,,1.75,,KIGQ 091015Z AUTO 16004KT 1 3/4SM -SN OVC014 M04/M04 A3015 RMK AO2  T10381040,,,1400.0,,,24.79,,SSE,29.49,29.86,,Light Snow
KIGQ,02/09/2018 10:35 UTC,30.13,25.52,25.16,98.51,3.44,140.0,,20.0,,,,142.0,244.0,,,2.5,,KIGQ 091035Z AUTO 14003KT 2 1/2SM -SN SCT014 OVC024 M04/M04 A3013 RMK AO2 T10361038,,,2400.0,,,25.15,,SE,29.47,29.84,,Light Snow
KIGQ,02/09/2018 10:55 UTC,30.13,26.24,25.34,96.33,6.91,140.0,,20.0,,,,273.0,324.0,,,5.0,,KIGQ 091055Z AUTO 14006KT 5SM -SN BKN027 OVC032 M03/M04 A3013 RMK AO2 T10321037,,,2700.0,,,25.32,,SE,29.47,29.83,,Light Snow
KIGQ,02/09/2018 11:15 UTC,30.13,26.6,25.34,94.9,6.91,150.0,,20.0,,,,262.0,314.0,,,5.0,,KIGQ 091115Z AUTO 15006KT 5SM -SN SCT026 OVC031 M03/M04 A3013 RMK AO2 T10301037,,,3100.0,,,25.32,,SSE,29.47,29.83,,Light Snow
KIGQ,02/09/2018 11:35 UTC,30.12,26.6,25.52,95.62,5.75,160.0,,20.0,,,,183.0,264.0,,,2.5,,KIGQ 091135Z AUTO 16005KT 2 1/2SM -SN BKN018 OVC026 M03/M04 A3012 RMK AO2 T10301036,,,1800.0,,,25.5,,SSE,29.47,29.83,,Light Snow
KIGQ,02/09/2018 11:55 UTC,30.11,27.14,26.24,96.34,5.75,160.0,,20.0,,,,164.0,,0.05,0.06,2.0,,KIGQ 091155Z AUTO 16005KT 2SM -SN OVC016 M03/M03 A3011 RMK AO2  60005 70006 T10271032 11027 21063,27.14,20.66,1600.0,,,26.22,,SSE,29.46,29.81,,Light Snow
KIGQ,02/09/2018 12:15 UTC,30.12,27.5,26.96,97.8,6.91,170.0,,20.0,,0.01,,124.0,,,,1.5,,KIGQ 091215Z AUTO 17006KT 1 1/2SM -SN OVC012 M02/M03 A3012 RMK AO2  P0001 T10251028,,,1200.0,,,26.95,,S,29.47,29.81,,Light Snow
KIGQ,02/09/2018 12:35 UTC,30.11,28.22,27.86,98.53,5.75,170.0,,20.0,,0.02,,94.0,,,,1.0,,KIGQ 091235Z AUTO 17005KT 1SM -SN OVC009 M02/M02 A3011 RMK AO2  P0002 T10211023,,,900.0,,,27.85,,S,29.46,29.78,,Light Snow
KIGQ,02/09/2018 12:55 UTC,30.12,28.4,28.22,99.26,0.0,0.0,,20.0,,0.03,,63.0,124.0,,,1.0,,KIGQ 091255Z AUTO 00000KT 1SM -SN BKN006 OVC012 M02/M02 A3012 RMK AO2 P0003 T10201021,,,600.0,,,28.22,,N,29.47,29.78,,Light Snow
KIGQ,02/09/2018 13:15 UTC,30.13,28.22,28.22,100.0,0.0,0.0,,3.0,,0.01,,44.0,,,,0.5,,KIGQ 091315Z AUTO 00000KT 1/2SM SN OVC004 M02/M02 A3013 RMK AO2  P0001 T10211021,,,400.0,,,28.22,,N,29.47,29.79,,Snow
KIGQ,02/09/2018 13:35 UTC,30.13,28.22,28.22,100.0,5.75,350.0,,20.0,,0.01,,64.0,,,,0.75,,KIGQ 091335Z AUTO 35005KT 3/4SM -SN OVC006 M02/M02 A3013 RMK AO2  P0001 T10211021,,,600.0,,,28.22,,N,29.47,29.79,,Light Snow
KIGQ,02/09/2018 13:55 UTC,30.14,27.32,27.32,100.0,3.44,350.0,,20.0,,0.02,,64.0,,,,0.5,,KIGQ 091355Z AUTO 35003KT 1/2SM -SN OVC006 M03/M03 A3014 RMK AO2  P0002 T10261026,,,600.0,,,27.32,,N,29.48,29.81,,Light Snow
KIGQ,02/09/2018 14:15 UTC,30.14,26.96,26.96,100.0,3.44,360.0,,3.0,,,,84.0,,,,0.5,,KIGQ 091415Z AUTO 36003KT 1/2SM SN OVC008 M03/M03 A3014 RMK AO2  T10281028,,,800.0,,,26.96,,N,29.48,29.82,,Snow
KIGQ,02/09/2018 14:35 UTC,30.13,27.32,27.32,100.0,4.61,360.0,,3.0,,0.01,,104.0,,,,0.5,,KIGQ 091435Z AUTO 36004KT 1/2SM SN OVC010 M03/M03 A3013 RMK AO2  P0001 T10261026,,,1000.0,,,27.32,,N,29.47,29.8,,Snow
KIGQ,02/09/2018 14:55 UTC,30.14,27.32,27.14,99.26,4.61,360.0,,20.0,,0.01,0.07,124.0,,,,0.75,,KIGQ 091455Z AUTO 36004KT 3/4SM -SN OVC012 M03/M03 A3014 RMK AO2  P0001 60007 T10261027,,,1200.0,,,27.14,,N,29.48,29.81,,Light Snow
KIGQ,02/09/2018 15:15 UTC,30.13,27.32,27.14,99.26,0.0,0.0,,20.0,,0.01,,42.0,104.0,,,0.5,,KIGQ 091515Z AUTO 00000KT 1/2SM -SN SCT004 OVC010 M03/M03 A3013 RMK AO2 P0001 T10261027,,,1000.0,,,27.14,,N,29.47,29.8,,Light Snow
KIGQ,02/09/2018 15:35 UTC,30.13,27.32,26.96,98.52,4.61,360.0,,20.0,,0.01,,104.0,,,,0.75,,KIGQ 091535Z AUTO 36004KT 3/4SM -SN OVC010 M03/M03 A3013 RMK AO2  P0001 T10261028,,,1000.0,,,26.95,,N,29.47,29.81,,Light Snow
KIGQ,02/09/2018 15:55 UTC,30.14,27.5,27.14,98.53,3.44,10.0,,3.0,,0.02,,94.0,,,,0.5,,KIGQ 091555Z AUTO 01003KT 1/2SM SN OVC009 M02/M03 A3014 RMK AO2  P0002 T10251027,,,900.0,,,27.13,,N,29.48,29.81,,Snow
KIGQ,02/09/2018 16:15 UTC,30.13,27.86,27.32,97.8,4.61,20.0,,20.0,,,,53.0,114.0,,,0.75,,KIGQ 091615Z AUTO 02004KT 3/4SM -SN BKN005 OVC011 M02/M03 A3013 RMK AO2 T10231026,,,500.0,,,27.31,,NNE,29.47,29.8,,Light Snow
KIGQ,02/09/2018 16:35 UTC,30.14,28.04,27.14,96.36,5.75,20.0,,20.0,204.0,,,63.0,143.0,,,2.0,,KIGQ 091635Z AUTO 02005KT 2SM -SN BKN006 BKN014 OVC020 M02/M03  A3014 RMK AO2 VIS 1 1/2V2 1/2 T10221027,,,600.0,,,27.12,,NNE,29.48,29.81,,Light Snow
KIGQ,02/09/2018 16:55 UTC,30.14,28.22,26.6,93.54,8.05,360.0,,20.0,,,,73.0,204.0,,,2.0,,KIGQ 091655Z AUTO 36007KT 2SM -SN BKN007 OVC020 M02/M03 A3014 RMK AO2 VIS 1 1/2V3 T10211030,,,700.0,,,26.57,22.64,N,29.48,29.82,,Light Snow
KIGQ,02/09/2018 17:15 UTC,30.13,28.04,26.6,94.23,8.05,360.0,,20.0,214.0,,,42.0,73.0,,,1.25,,KIGQ 091715Z AUTO 36007KT 1 1/4SM -SN SCT004 BKN007 OVC021 M02/M03  A3013 RMK AO2 T10221030,,,700.0,,,26.57,22.42,N,29.47,29.81,,Light Snow
KIGQ,02/09/2018 17:35 UTC,30.14,28.04,26.96,95.65,8.05,10.0,,20.0,,,,93.0,124.0,,,1.0,,KIGQ 091735Z AUTO 01007KT 1SM -SN BKN009 OVC012 M02/M03 A3014 RMK AO2 T10221028,,,900.0,,,26.94,22.42,N,29.48,29.81,,Light Snow
KIGQ,02/09/2018 17:55 UTC,30.14,28.22,27.32,96.36,12.66,10.0,,20.0,,,,74.0,,0.09,,0.75,,KIGQ 091755Z AUTO 01011KT 3/4SM -SN OVC007 M02/M03 A3014 RMK AO2  60009 T10211026 11020 21028,28.4,26.96,700.0,,,27.3,20.33,N,29.48,29.81,,Light Snow
KIGQ,02/09/2018 18:15 UTC,30.14,27.5,26.06,94.22,6.91,10.0,17.27,20.0,,,,74.0,,,,1.5,,KIGQ 091815Z AUTO 01006G15KT 1 1/2SM -SN OVC007 M02/M03 A3014 RMK AO2 T10251033,,,700.0,,,26.04,,N,29.48,29.83,,Light Snow
KIGQ,02/09/2018 18:35 UTC,30.13,27.14,25.7,94.21,10.36,10.0,,20.0,,,,73.0,164.0,,,1.25,,KIGQ 091835Z AUTO 01009KT 1 1/4SM -SN BKN007 OVC016 M03/M03 A3013 RMK AO2 T10271035,,,700.0,,,25.68,20.08,N,29.47,29.82,,Light Snow
KIGQ,02/09/2018 18:55 UTC,30.13,26.96,25.7,94.91,9.22,20.0,,3.0,,,,74.0,,,,0.5,,KIGQ 091855Z AUTO 02008KT 1/2SM SN OVC007 M03/M03 A3013 RMK AO2  T10281035,,,700.0,,,25.68,20.47,NNE,29.47,29.82,,Snow
KIGQ,02/09/2018 19:15 UTC,30.13,26.96,26.06,96.34,6.91,20.0,,3.0,,,,74.0,,,,0.5,,KIGQ 091915Z AUTO 02006KT 1/2SM SN OVC007 M03/M03 A3013 RMK AO2  T10281033,,,700.0,,,26.04,,NNE,29.47,29.82,,Snow
KIGQ,02/09/2018 19:35 UTC,30.12,26.96,26.24,97.06,8.05,20.0,,20.0,,0.01,,74.0,,,,0.75,,KIGQ 091935Z AUTO 02007KT 3/4SM -SN OVC007 M03/M03 A3012 RMK AO2  P0001 T10281032,,,700.0,,,26.23,21.16,NNE,29.47,29.82,,Light Snow
KIGQ,02/09/2018 19:55 UTC,30.11,26.6,25.52,95.62,13.8,20.0,17.27,3.0,,0.01,,74.0,,,,0.5,,KIGQ 091955Z AUTO 02012G15KT 1/2SM SN OVC007 M03/M04 A3011 RMK AO2  P0001 T10301036,,,700.0,,,25.5,17.89,NNE,29.46,29.82,,Snow
KIGQ,02/09/2018 20:15 UTC,30.12,26.6,25.52,95.62,12.66,30.0,16.11,20.0,,,,103.0,204.0,,,1.25,,KIGQ 092015Z AUTO 03011G14KT 1 1/4SM -SN BKN010 OVC020 M03/M04  A3012 RMK AO2 T10301036,,,1000.0,,,25.5,18.36,NNE,29.47,29.83,,Light Snow
KIGQ,02/09/2018 20:35 UTC,30.13,26.6,25.16,94.19,6.91,30.0,,20.0,244.0,,,83.0,173.0,,,2.0,,KIGQ 092035Z AUTO 03006KT 2SM -SN BKN008 BKN017 OVC024 M03/M04  A3013 RMK AO2 T10301038,,,800.0,,,25.13,,NNE,29.47,29.83,,Light Snow
KIGQ,02/09/2018 20:55 UTC,30.15,26.6,24.8,92.79,6.91,10.0,18.41,20.0,274.0,,0.01,103.0,173.0,,,1.5,,KIGQ 092055Z AUTO 01006G16KT 1 1/2SM -SN BKN010 BKN017 OVC027  M03/M04 A3015 RMK AO2 60001 T10301040,,,1000.0,,,24.77,,N,29.49,29.86,,Light Snow
KIGQ,02/09/2018 21:15 UTC,30.16,26.6,25.16,94.19,10.36,20.0,,20.0,,,,83.0,144.0,,,2.0,,KIGQ 092115Z AUTO 02009KT 2SM -SN BKN008 OVC014 M03/M04 A3016 RMK AO2 T10301038,,,800.0,,,25.13,19.43,NNE,29.5,29.86,,Light Snow
KIGQ,02/09/2018 21:35 UTC,30.16,26.6,25.34,94.9,6.91,30.0,,20.0,,,,84.0,,,,1.0,,KIGQ 092135Z AUTO 03006KT 1SM -SN OVC008 M03/M04 A3016 RMK AO2  T10301037,,,800.0,,,25.32,,NNE,29.5,29.86,,Light Snow
KIGQ,02/09/2018 21:55 UTC,30.16,26.42,25.34,95.61,9.22,30.0,,20.0,,,,94.0,,,,0.75,,KIGQ 092155Z AUTO 03008KT 3/4SM -SN OVC009 M03/M04 A3016 RMK AO2  T10311037,,,900.0,,,25.32,19.83,NNE,29.5,29.86,,Light Snow
KIGQ,02/09/2018 22:15 UTC,30.15,26.24,25.52,97.05,10.36,30.0,,20.0,,,,94.0,,,,0.75,,KIGQ 092215Z AUTO 03009KT 3/4SM -SN OVC009 M03/M04 A3015 RMK AO2  T10321036,,,900.0,,,25.51,19.0,NNE,29.49,29.85,,Light Snow
KIGQ,02/09/2018 22:35 UTC,30.16,26.24,25.52,97.05,8.05,20.0,,20.0,,,,74.0,,,,1.0,,KIGQ 092235Z AUTO 02007KT 1SM -SN OVC007 M03/M04 A3016 RMK AO2  T10321036,,,700.0,,,25.51,20.31,NNE,29.5,29.86,,Light Snow
KIGQ,02/09/2018 22:55 UTC,30.17,26.42,25.7,97.06,6.91,20.0,,20.0,,,,74.0,,,,2.0,,KIGQ 092255Z AUTO 02006KT 2SM -SN OVC007 M03/M03 A3017 RMK AO2  T10311035,,,700.0,,,25.69,,NNE,29.51,29.87,,Light Snow
KIGQ,02/09/2018 23:15 UTC,30.17,26.42,25.52,96.33,9.22,20.0,,20.0,,,,74.0,,,,1.75,,KIGQ 092315Z AUTO 02008KT 1 3/4SM -SN OVC007 M03/M04 A3017 RMK AO2  T10311036,,,700.0,,,25.5,19.83,NNE,29.51,29.87,,Light Snow
KIGQ,02/09/2018 23:35 UTC,30.17,26.42,25.34,95.61,6.91,10.0,,20.0,,,,93.0,154.0,,,4.0,,KIGQ 092335Z AUTO 01006KT 4SM -SN BKN009 OVC015 M03/M04 A3017 RMK AO2 T10311037,,,900.0,,,25.32,,N,29.51,29.87,,Light Snow
KIGQ,02/09/2018 23:55 UTC,30.18,26.42,25.34,95.61,4.61,10.0,,20.0,,,,94.0,,0.01,,4.0,,KIGQ 092355Z AUTO 01004KT 4SM -SN OVC009 M03/M04 A3018 RMK AO2  60001 T10311037 11022 21033,28.04,26.06,900.0,,,25.32,,N,29.52,29.88,,Light Snow
KIGQ,02/10/2018 00:15 UTC,30.19,26.6,25.34,94.9,6.91,10.0,,20.0,,,,94.0,,,,7.0,,KIGQ 100015Z AUTO 01006KT 7SM -SN OVC009 M03/M04 A3019 RMK AO2  T10301037,,,900.0,,,25.32,,N,29.53,29.89,,Light Snow
KIGQ,02/10/2018 00:35 UTC,30.18,26.6,24.8,92.79,6.91,20.0,,41.0,,,,113.0,224.0,,,10.0,,KIGQ 100035Z AUTO 02006KT 10SM UP BKN011 OVC022 M03/M04 A3018 RMK AO2 T10301040,,,1100.0,,,24.77,,NNE,29.52,29.89,,Unknown Precip
KIGQ,02/10/2018 00:55 UTC,30.19,26.6,24.08,90.04,6.91,360.0,,20.0,,,,142.0,204.0,,,10.0,,KIGQ 100055Z AUTO 36006KT 10SM -SN SCT014 OVC020 M03/M04 A3019 RMK AO2 T10301044,,,2000.0,,,24.04,,N,29.53,29.9,,Light Snow
KIGQ,02/10/2018 01:15 UTC,30.18,26.78,23.36,86.71,5.75,10.0,,41.0,,,,204.0,,,,10.0,,KIGQ 100115Z AUTO 01005KT 10SM UP OVC020 M03/M05 A3018 RMK AO2  T10291048,,,2000.0,,,23.3,,N,29.52,29.9,,Unknown Precip
KIGQ,02/10/2018 01:35 UTC,30.19,26.96,23.0,84.77,5.75,10.0,,,,,,204.0,,,,10.0,,KIGQ 100135Z AUTO 01005KT 10SM OVC020 M03/M05 A3019 RMK AO2  T10281050,,,2000.0,,,22.93,,N,29.53,29.91,,Overcast
KIGQ,02/10/2018 01:55 UTC,30.19,26.96,22.82,84.13,5.75,10.0,,,,,,204.0,,,,10.0,,KIGQ 100155Z AUTO 01005KT 10SM OVC020 M03/M05 A3019 RMK AO2  T10281051,,,2000.0,,,22.75,,N,29.53,29.92,,Overcast
KIGQ,02/10/2018 02:15 UTC,30.19,26.96,22.82,84.13,6.91,10.0,,,,,,224.0,,,,10.0,,KIGQ 100215Z AUTO 01006KT 10SM OVC022 M03/M05 A3019 RMK AO2  T10281051,,,2200.0,,,22.75,,N,29.53,29.92,,Overcast
KIGQ,02/10/2018 02:35 UTC,30.19,26.96,22.64,83.49,5.75,10.0,,,,,,224.0,,,,10.0,,KIGQ 100235Z AUTO 01005KT 10SM OVC022 M03/M05 A3019 RMK AO2  T10281052,,,2200.0,,,22.56,,N,29.53,29.92,,Overcast
KIGQ,02/10/2018 02:55 UTC,30.19,26.96,22.1,81.61,6.91,10.0,,,,,,224.0,,,,10.0,,KIGQ 100255Z AUTO 01006KT 10SM OVC022 M03/M05 A3019 RMK AO2  T10281055,,,2200.0,,,22.02,,N,29.53,29.92,,Overcast
KIGQ,02/10/2018 03:15 UTC,30.19,26.96,22.46,82.86,5.75,20.0,,20.0,,,,224.0,,,,7.0,,KIGQ 100315Z AUTO 02005KT 7SM -SN OVC022 M03/M05 A3019 RMK AO2  T10281053,,,2200.0,,,22.38,,NNE,29.53,29.92,,Light Snow
KIGQ,02/10/2018 03:40 UTC,30.2,26.6,23.0,86.04,6.91,360.0,,20.0,,,,202.0,244.0,,,10.0,,KIGQ 100340Z AUTO 36006KT 10SM -SN SCT020 OVC024 M03/M05 A3020 RMK AO2 T10301050,,,2400.0,,,22.94,,N,29.54,29.93,,Light Snow
KIGQ,02/10/2018 03:55 UTC,30.19,25.88,23.72,91.38,9.22,360.0,,20.0,264.0,,,132.0,193.0,,,7.0,,KIGQ 100355Z AUTO 36008KT 7SM -SN SCT013 BKN019 OVC026 M03/M05  A3019 RMK AO2 T10341046,,,1900.0,,,23.68,19.19,N,29.53,29.91,,Light Snow
KIGQ,02/10/2018 04:15 UTC,30.19,25.52,23.72,92.75,8.05,360.0,,20.0,464.0,,,102.0,193.0,,,5.0,,KIGQ 100415Z AUTO 36007KT 5SM -SN SCT010 BKN019 OVC046 M04/M05  A3019 RMK AO2 T10361046,,,1900.0,,,23.69,19.46,N,29.53,29.91,,Light Snow
KIGQ,02/10/2018 04:35 UTC,30.19,25.16,23.54,93.45,10.36,10.0,16.11,20.0,234.0,,,102.0,153.0,,,4.0,,KIGQ 100435Z AUTO 01009G14KT 4SM -SN SCT010 BKN015 OVC023 M04/M05  A3019 RMK AO2 T10381047,,,1500.0,,,23.51,17.71,N,29.53,29.92,,Light Snow
KIGQ,02/10/2018 04:55 UTC,30.18,24.8,23.36,94.14,6.91,10.0,,20.0,,,,103.0,134.0,,,4.0,,KIGQ 100455Z AUTO 01006KT 4SM -SN BKN010 OVC013 M04/M05 A3018 RMK AO2 T10401048,,,1000.0,,,23.33,,N,29.52,29.91,,Light Snow
KIGQ,02/10/2018 05:15 UTC,30.17,24.44,23.0,94.14,9.22,360.0,,20.0,,,,103.0,244.0,,,5.0,,KIGQ 100515Z AUTO 36008KT 5SM -SN BKN010 OVC024 M04/M05 A3017 RMK AO2 T10421050,,,1000.0,,,22.98,17.48,N,29.51,29.91,,Light Snow
KIGQ,02/10/2018 05:35 UTC,30.19,24.44,22.82,93.42,10.36,360.0,,20.0,,,,104.0,,,,10.0,,KIGQ 100535Z AUTO 36009KT 340V040 10SM -SN OVC010 M04/M05 A3019 RMK AO2 T10421051,,,1000.0,,,22.79,16.85,N,29.53,29.93,,Light Snow
KIGQ,02/10/2018 05:55 UTC,30.19,24.62,22.82,92.72,8.05,10.0,,,,,,123.0,184.0,,,10.0,,KIGQ 100555Z AUTO 01007KT 10SM BKN012 OVC018 M04/M05 A3019 RMK AO2  T10411051 11028 21042 410201063,26.96,24.44,1200.0,28.4,20.66,22.79,18.41,N,29.53,29.93,,Overcast
KIGQ,02/10/2018 06:15 UTC,30.19,24.44,22.46,92.02,9.22,360.0,,20.0,,,,124.0,,,,10.0,,KIGQ 100615Z AUTO 36008KT 10SM -SN OVC012 M04/M05 A3019 RMK AO2  T10421053,,,1200.0,,,22.43,17.48,N,29.53,29.93,,Light Snow
KIGQ,02/10/2018 06:35 UTC,30.2,23.9,22.1,92.7,8.05,360.0,,20.0,,,,124.0,,,,7.0,,KIGQ 100635Z AUTO 36007KT 7SM -SN OVC012 M04/M05 A3020 RMK AO2  T10451055,,,1200.0,,,22.07,17.56,N,29.54,29.95,,Light Snow
KIGQ,02/10/2018 06:55 UTC,30.21,23.9,22.1,92.7,6.91,360.0,,20.0,,,,103.0,154.0,,,10.0,,KIGQ 100655Z AUTO 36006KT 10SM -SN BKN010 OVC015 M04/M05 A3021 RMK AO2 T10451055,,,1000.0,,,22.07,,N,29.55,29.96,,Light Snow
KIGQ,02/10/2018 07:15 UTC,30.2,23.54,21.74,92.69,5.75,360.0,,,,,,104.0,,,,10.0,,KIGQ 100715Z AUTO 36005KT 10SM OVC010 M05/M06 A3020 RMK AO2  T10471057,,,1000.0,,,21.71,,N,29.54,29.95,,Overcast
KIGQ,02/10/2018 07:35 UTC,30.19,23.36,21.56,92.68,9.22,10.0,,,,,,104.0,,,,10.0,,KIGQ 100735Z AUTO 01008KT 10SM OVC010 M05/M06 A3019 RMK AO2  T10481058,,,1000.0,,,21.53,16.2,N,29.53,29.95,,Overcast
KIGQ,02/10/2018 07:55 UTC,30.19,23.54,22.1,94.11,8.05,10.0,,20.0,,,,104.0,,,,7.0,,KIGQ 100755Z AUTO 01007KT 7SM -SN OVC010 M05/M05 A3019 RMK AO2  T10471055,,,1000.0,,,22.07,17.14,N,29.53,29.94,,Light Snow
KIGQ,02/10/2018 08:15 UTC,30.19,23.36,21.92,94.11,8.05,10.0,16.11,20.0,,,,84.0,,,,7.0,,KIGQ 100815Z AUTO 01007G14KT 7SM -SN OVC008 M05/M06 A3019 RMK AO2  T10481056,,,800.0,,,21.89,16.93,N,29.53,29.94,,Light Snow
KIGQ,02/10/2018 08:35 UTC,30.18,23.0,21.56,94.1,6.91,360.0,,20.0,,,,84.0,,,,10.0,,KIGQ 100835Z AUTO 36006KT 10SM -SN OVC008 M05/M06 A3018 RMK AO2  T10501058,,,800.0,,,21.53,,N,29.52,29.94,,Light Snow
KIGQ,02/10/2018 08:55 UTC,30.17,23.36,21.92,94.11,4.61,360.0,,,,,,84.0,,,,10.0,,KIGQ 100855Z AUTO 36004KT 10SM OVC008 M05/M06 A3017 RMK AO2  T10481056,,,800.0,,,21.89,,N,29.51,29.92,,Overcast
KIGQ,02/10/2018 09:15 UTC,30.18,23.54,22.1,94.11,5.75,350.0,,,,,,84.0,,,,10.0,,KIGQ 100915Z AUTO 35005KT 10SM OVC008 M05/M05 A3018 RMK AO2  T10471055,,,800.0,,,22.07,,N,29.52,29.93,,Overcast
KIGQ,02/10/2018 09:35 UTC,30.19,23.72,22.1,93.4,8.05,360.0,,20.0,,,,104.0,,,,10.0,,KIGQ 100935Z AUTO 36007KT 10SM -SN OVC010 M05/M05 A3019 RMK AO2  T10461055,,,1000.0,,,22.07,17.35,N,29.53,29.94,,Light Snow
KIGQ,02/10/2018 09:55 UTC,30.2,23.54,21.2,90.59,6.91,10.0,,,,,,104.0,,,,10.0,,KIGQ 100955Z AUTO 01006KT 10SM OVC010 M05/M06 A3020 RMK AO2  T10471060,,,1000.0,,,21.16,,N,29.54,29.96,,Overcast
KIGQ,02/10/2018 10:15 UTC,30.19,23.0,20.84,91.26,5.75,360.0,,20.0,,,,124.0,,,,10.0,,KIGQ 101015Z AUTO 36005KT 10SM -SN OVC012 M05/M06 A3019 RMK AO2  T10501062,,,1200.0,,,20.8,,N,29.53,29.96,,Light Snow
KIGQ,02/10/2018 10:35 UTC,30.19,23.0,20.84,91.26,4.61,10.0,,,,,,124.0,,,,10.0,,KIGQ 101035Z AUTO 01004KT 10SM OVC012 M05/M06 A3019 RMK AO2  T10501062,,,1200.0,,,20.8,,N,29.53,29.96,,Overcast
KIGQ,02/10/2018 10:55 UTC,30.18,23.0,20.84,91.26,4.61,30.0,,,,,,124.0,,,,10.0,,KIGQ 101055Z AUTO 03004KT 10SM OVC012 M05/M06 A3018 RMK AO2  T10501062,,,1200.0,,,20.8,,NNE,29.52,29.95,,Overcast
KIGQ,02/10/2018 11:15 UTC,30.17,23.72,22.28,94.12,5.75,30.0,,20.0,,,,124.0,,,,7.0,,KIGQ 101115Z AUTO 03005KT 7SM -SN OVC012 M05/M05 A3017 RMK AO2  T10461054,,,1200.0,,,22.25,,NNE,29.51,29.92,,Light Snow
KIGQ,02/10/2018 11:35 UTC,30.18,22.28,20.12,91.23,4.61,350.0,,20.0,,,,124.0,,,,7.0,,KIGQ 101135Z AUTO 35004KT 7SM -SN OVC012 M05/M07 A3018 RMK AO2  T10541066,,,1200.0,,,20.08,,N,29.52,29.96,,Light Snow
KIGQ,02/10/2018 11:55 UTC,30.18,23.0,21.2,92.67,10.36,350.0,,20.0,,,,104.0,,,0.1,7.0,,KIGQ 101155Z AUTO 35009KT 7SM -SN OVC010 M05/M06 A3018 RMK AO2  70010 T10501060 11041 21055,24.62,22.1,1000.0,,,21.17,15.12,N,29.52,29.94,,Light Snow
KIGQ,02/10/2018 12:15 UTC,30.17,21.56,19.76,92.62,6.91,10.0,,20.0,,,,104.0,,,,5.0,,KIGQ 101215Z AUTO 01006KT 5SM -SN OVC010 M06/M07 A3017 RMK AO2  T10581068,,,1000.0,,,19.73,,N,29.51,29.95,,Light Snow
KIGQ,02/10/2018 12:35 UTC,30.18,20.84,19.4,94.04,8.05,10.0,,20.0,,,,104.0,,,,4.0,,KIGQ 101235Z AUTO 01007KT 4SM -SN OVC010 M06/M07 A3018 RMK AO2  T10621070,,,1000.0,,,19.37,13.97,N,29.52,29.97,,Light Snow
KIGQ,02/10/2018 12:55 UTC,30.17,20.66,19.22,94.03,8.05,10.0,,20.0,,,,104.0,,,,10.0,,KIGQ 101255Z AUTO 01007KT 10SM -SN OVC010 M06/M07 A3017 RMK AO2  T10631071,,,1000.0,,,19.19,13.76,N,29.51,29.96,,Light Snow
KIGQ,02/10/2018 13:15 UTC,30.17,21.2,19.58,93.32,4.61,360.0,,20.0,,,,104.0,,,,10.0,,KIGQ 101315Z AUTO 36004KT 10SM -SN OVC010 M06/M07 A3017 RMK AO2  T10601069,,,1000.0,,,19.55,,N,29.51,29.96,,Light Snow
KIGQ,02/10/2018 13:35 UTC,30.19,21.2,19.76,94.05,10.36,360.0,,20.0,,,,104.0,,,,7.0,,KIGQ 101335Z AUTO 36009KT 7SM -SN OVC010 M06/M07 A3019 RMK AO2  T10601068,,,1000.0,,,19.73,12.97,N,29.53,29.97,,Light Snow
KIGQ,02/10/2018 13:55 UTC,30.21,19.58,17.6,91.84,6.91,320.0,,20.0,,,,104.0,,,,5.0,,KIGQ 101355Z AUTO 32006KT 5SM -SN OVC010 M07/M08 A3021 RMK AO2  T10691080,,,1000.0,,,17.56,,NW,29.55,30.02,,Light Snow
KIGQ,02/10/2018 14:15 UTC,30.21,19.22,17.42,92.54,8.05,320.0,,20.0,,,,104.0,,,,2.5,,KIGQ 101415Z AUTO 32007KT 2 1/2SM -SN OVC010 M07/M08 A3021 RMK AO2  T10711081,,,1000.0,,,17.39,12.07,NW,29.55,30.02,,Light Snow
KIGQ,02/10/2018 14:35 UTC,30.22,18.32,16.34,91.79,9.22,310.0,,20.0,,,,104.0,,,,4.0,,KIGQ 101435Z AUTO 31008KT 4SM -SN OVC010 M08/M09 A3022 RMK AO2  T10761087,,,1000.0,,,16.3,10.22,NW,29.56,30.05,,Light Snow
KIGQ,02/10/2018 14:55 UTC,30.22,17.96,15.98,91.77,4.61,320.0,,20.0,,,,104.0,,,,1.25,,KIGQ 101455Z AUTO 32004KT 1 1/4SM -SN OVC010 M08/M09 A3022 RMK AO2  T10781089,,,1000.0,,,15.94,,NW,29.56,30.05,,Light Snow
KIGQ,02/10/2018 15:15 UTC,30.21,18.14,15.8,90.35,6.91,330.0,,20.0,,,,104.0,,,,3.0,,KIGQ 101515Z AUTO 33006KT 3SM -SN OVC010 M08/M09 A3021 RMK AO2  T10771090,,,1000.0,,,15.76,,NNW,29.55,30.04,,Light Snow
KIGQ,02/10/2018 15:35 UTC,30.2,18.5,16.34,91.08,4.61,340.0,,20.0,,,,104.0,,,,2.5,,KIGQ 101535Z AUTO 34004KT 2 1/2SM -SN OVC010 M07/M09 A3020 RMK AO2  VIS 1 3/4V4 T10751087,,,1000.0,,,16.3,,NNW,29.54,30.02,,Light Snow
KIGQ,02/10/2018 15:55 UTC,30.19,19.22,16.88,90.4,5.75,340.0,,20.0,,,,124.0,,,,3.0,,KIGQ 101555Z AUTO 34005KT 3SM -SN OVC012 M07/M08 A3019 RMK AO2  T10711084,,,1200.0,,,16.84,,NNW,29.53,30.01,,Light Snow
KIGQ,02/10/2018 16:15 UTC,30.19,20.12,17.42,89.04,4.61,340.0,,,,,,124.0,,,,10.0,,KIGQ 101615Z AUTO 34004KT 10SM OVC012 M07/M08 A3019 RMK AO2  T10661081,,,1200.0,,,17.37,,NNW,29.53,30.0,,Overcast
KIGQ,02/10/2018 16:35 UTC,30.19,21.74,19.22,89.81,3.44,350.0,,20.0,,,,124.0,,,,2.0,,KIGQ 101635Z AUTO 35003KT 2SM -SN OVC012 M06/M07 A3019 RMK AO2  T10571071,,,1200.0,,,19.17,,N,29.53,29.98,,Light Snow
KIGQ,02/10/2018 16:55 UTC,30.19,22.64,20.12,89.86,6.91,360.0,,,,,,124.0,,,,7.0,,KIGQ 101655Z AUTO 36006KT 7SM OVC012 M05/M07 A3019 RMK AO2  T10521066,,,1200.0,,,20.08,,N,29.53,29.96,,Overcast
KIGQ,02/10/2018 17:15 UTC,30.19,23.0,21.02,91.96,9.22,360.0,,20.0,,,,104.0,,,,4.0,,KIGQ 101715Z AUTO 36008KT 4SM -SN OVC010 M05/M06 A3019 RMK AO2  T10501061,,,1000.0,,,20.98,15.77,N,29.53,29.95,,Light Snow
KIGQ,02/10/2018 17:35 UTC,30.17,22.64,20.3,90.55,10.36,360.0,,20.0,,,,104.0,,,,2.5,,KIGQ 101735Z AUTO 36009KT 2 1/2SM -SN OVC010 M05/M06 A3017 RMK AO2  T10521065,,,1000.0,,,20.26,14.69,N,29.51,29.94,,Light Snow
KIGQ,02/10/2018 17:55 UTC,30.18,22.64,20.66,91.95,5.75,360.0,,20.0,,,,124.0,,,,1.75,,KIGQ 101755Z AUTO 36005KT 1 3/4SM -SN OVC012 M05/M06 A3018 RMK AO2  T10521063 11049 21078,23.18,17.96,1200.0,,,20.62,,N,29.52,29.95,,Light Snow
KIGQ,02/10/2018 18:15 UTC,30.17,22.46,20.3,91.24,9.22,350.0,,20.0,,,,103.0,164.0,,,3.0,,KIGQ 101815Z AUTO 35008KT 3SM -SN BKN010 OVC016 M05/M06 A3017 RMK AO2 T10531065,,,1000.0,,,20.26,15.13,N,29.51,29.94,,Light Snow
KIGQ,02/10/2018 18:35 UTC,30.16,21.92,19.94,91.92,6.91,330.0,,20.0,,,,104.0,,,,2.5,,KIGQ 101835Z AUTO 33006KT 2 1/2SM -SN OVC010 M06/M07 A3016 RMK AO2  T10561067,,,1000.0,,,19.9,,NNW,29.5,29.94,,Light Snow
KIGQ,02/10/2018 18:55 UTC,30.16,22.64,20.84,92.66,5.75,340.0,,20.0,,,,103.0,174.0,,,1.5,,KIGQ 101855Z AUTO 34005KT 1 1/2SM -SN BKN010 OVC017 M05/M06 A3016 RMK AO2 T10521062,,,1000.0,,,20.81,,NNW,29.5,29.93,,Light Snow
KIGQ,02/10/2018 19:15 UTC,30.15,22.64,20.84,92.66,4.61,350.0,,20.0,,,,104.0,,,,2.0,,KIGQ 101915Z AUTO 35004KT 2SM -SN OVC010 M05/M06 A3015 RMK AO2  T10521062,,,1000.0,,,20.81,,N,29.49,29.92,,Light Snow
KIGQ,02/10/2018 19:35 UTC,30.14,23.0,21.2,92.67,6.91,340.0,,20.0,,,,104.0,,,,3.0,,KIGQ 101935Z AUTO 34006KT 3SM -SN OVC010 M05/M06 A3014 RMK AO2  T10501060,,,1000.0,,,21.17,,NNW,29.48,29.9,,Light Snow
KIGQ,02/10/2018 19:55 UTC,30.13,23.54,21.74,92.69,6.91,360.0,,41.0,,,,104.0,,,,5.0,,KIGQ 101955Z AUTO 36006KT 5SM UP OVC010 M05/M06 A3013 RMK AO2  T10471057,,,1000.0,,,21.71,,N,29.47,29.88,,Unknown Precip
KIGQ,02/10/2018 20:15 UTC,30.13,23.72,21.74,91.99,8.05,10.0,,,,,,104.0,,,,10.0,,KIGQ 102015Z AUTO 01007KT 10SM OVC010 M05/M06 A3013 RMK AO2  T10461057,,,1000.0,,,21.7,17.35,N,29.47,29.88,,Overcast
KIGQ,02/10/2018 20:35 UTC,30.13,23.0,21.2,92.67,10.36,360.0,,,,,,84.0,,,,10.0,,KIGQ 102035Z AUTO 36009KT 10SM OVC008 M05/M06 A3013 RMK AO2  T10501060,,,800.0,,,21.17,15.12,N,29.47,29.89,,Overcast
KIGQ,02/10/2018 20:55 UTC,30.13,23.36,21.56,92.68,5.75,10.0,,20.0,,,,84.0,,,,7.0,,KIGQ 102055Z AUTO 01005KT 7SM -SN OVC008 M05/M06 A3013 RMK AO2  T10481058,,,800.0,,,21.53,,N,29.47,29.89,,Light Snow
KIGQ,02/10/2018 21:15 UTC,30.14,23.36,21.56,92.68,9.22,360.0,,,,,,84.0,,,,7.0,,KIGQ 102115Z AUTO 36008KT 7SM OVC008 M05/M06 A3014 RMK AO2  T10481058,,,800.0,,,21.53,16.2,N,29.48,29.9,,Overcast
KIGQ,02/10/2018 21:35 UTC,30.15,23.36,21.74,93.39,6.91,10.0,,,,,,84.0,,,,10.0,,KIGQ 102135Z AUTO 01006KT 10SM OVC008 M05/M06 A3015 RMK AO2  T10481057,,,800.0,,,21.71,,N,29.49,29.9,,Overcast
KIGQ,02/10/2018 21:55 UTC,30.14,23.54,21.92,93.4,6.91,10.0,,,,,,84.0,,,,10.0,,KIGQ 102155Z AUTO 01006KT 10SM OVC008 M05/M06 A3014 RMK AO2  T10471056,,,800.0,,,21.89,,N,29.48,29.89,,Overcast
KIGQ,02/10/2018 22:20 UTC,30.14,23.54,21.92,93.4,5.75,20.0,,20.0,,,,84.0,,,,10.0,,KIGQ 102220Z AUTO 02005KT 10SM -SN OVC008 M05/M06 A3014 RMK AO2  T10471056,,,800.0,,,21.89,,NNE,29.48,29.89,,Light Snow
KIGQ,02/10/2018 22:35 UTC,30.14,23.72,22.1,93.4,3.44,360.0,,20.0,,,,104.0,,,,7.0,,KIGQ 102235Z AUTO 36003KT 7SM -SN OVC010 M05/M05 A3014 RMK AO2  T10461055,,,1000.0,,,22.07,,N,29.48,29.89,,Light Snow
KIGQ,02/10/2018 23:20 UTC,30.13,24.44,21.92,89.94,10.36,40.0,,,,,,124.0,,,,7.0,,KIGQ 102320Z AUTO 04009KT 7SM OVC012 M04/M06 A3013 RMK AO2  T10421056,,,1200.0,,,21.88,16.85,NE,29.47,29.88,,Overcast
KIGQ,02/10/2018 23:35 UTC,30.13,24.26,21.74,89.93,6.91,60.0,,,,,,124.0,,,,10.0,,KIGQ 102335Z AUTO 06006KT 10SM OVC012 M04/M06 A3013 RMK AO2  T10431057,,,1200.0,,,21.69,,ENE,29.47,29.88,,Overcast
KIGQ,02/11/2018 00:20 UTC,30.13,23.9,21.2,89.23,3.44,80.0,,,,,,144.0,,,,10.0,,KIGQ 110020Z AUTO 08003KT 10SM OVC014 M04/M06 A3013 RMK AO2  T10451060,,,1400.0,,,21.15,,E,29.47,29.89,,Overcast
KIGQ,02/11/2018 00:35 UTC,30.13,23.72,21.02,89.22,6.91,80.0,,,,,,144.0,,,,10.0,,KIGQ 110035Z AUTO 08006KT 10SM OVC014 M05/M06 A3013 RMK AO2  T10461061,,,1400.0,,,20.97,,E,29.47,29.89,,Overcast
KIGQ,02/11/2018 01:20 UTC,30.12,23.72,20.66,87.86,6.91,80.0,,,,,,144.0,,,,10.0,,KIGQ 110120Z AUTO 08006KT 10SM OVC014 M05/M06 A3012 RMK AO2  T10461063,,,1400.0,,,20.6,,E,29.47,29.89,,Overcast
KIGQ,02/11/2018 01:35 UTC,30.12,23.72,20.48,87.19,5.75,80.0,,,,,,144.0,,,,10.0,,KIGQ 110135Z AUTO 08005KT 10SM OVC014 M05/M06 A3012 RMK AO2  T10461064,,,1400.0,,,20.42,,E,29.47,29.89,,Overcast
KIGQ,02/11/2018 02:20 UTC,30.12,23.72,20.48,87.19,6.91,80.0,,,,,,164.0,,,,10.0,,KIGQ 110220Z AUTO 08006KT 10SM OVC016 M05/M06 A3012 RMK AO2  T10461064,,,1600.0,,,20.42,,E,29.47,29.89,,Overcast
KIGQ,02/11/2018 02:35 UTC,30.12,23.9,20.48,86.54,6.91,70.0,,,,,,164.0,,,,10.0,,KIGQ 110235Z AUTO 07006KT 10SM OVC016 M04/M06 A3012 RMK AO2  T10451064,,,1600.0,,,20.42,,ENE,29.47,29.89,,Overcast
KIGQ,02/11/2018 03:20 UTC,30.1,23.9,20.3,85.88,8.05,70.0,,,,,,164.0,,,,10.0,,KIGQ 110320Z AUTO 07007KT 10SM OVC016 M04/M06 A3010 RMK AO2  T10451065,,,1600.0,,,20.24,17.56,ENE,29.45,29.87,,Overcast
KIGQ,02/11/2018 03:55 UTC,30.09,23.9,20.48,86.54,4.61,60.0,,,,,,163.0,754.0,,,10.0,,KIGQ 110355Z AUTO 06004KT 10SM BKN016 OVC075 M04/M06 A3009 RMK AO2  T10451064,,,1600.0,,,20.42,,ENE,29.44,29.86,,Overcast
KIGQ,02/11/2018 04:15 UTC,30.09,23.9,19.76,83.92,5.75,60.0,,,,,,603.0,754.0,,,10.0,,KIGQ 110415Z AUTO 06005KT 10SM BKN060 OVC075 M04/M07 A3009 RMK AO2  T10451068,,,6000.0,,,19.69,,ENE,29.44,29.87,,Overcast
KIGQ,02/11/2018 04:35 UTC,30.08,23.72,19.04,81.98,6.91,60.0,,20.0,554.0,,,363.0,483.0,,,7.0,,KIGQ 110435Z AUTO 06006KT 7SM -SN BKN036 BKN048 OVC055 M05/M07  A3008 RMK AO2 T10461072,,,3600.0,,,18.96,,ENE,29.43,29.87,,Light Snow
KIGQ,02/11/2018 04:55 UTC,30.07,23.0,19.94,87.83,6.91,50.0,,20.0,,,,313.0,374.0,,,3.0,,KIGQ 110455Z AUTO 05006KT 3SM -SN BKN031 OVC037 M05/M07 A3007 RMK AO2 T10501067,,,3100.0,,,19.89,,NE,29.42,29.85,,Light Snow
KIGQ,02/11/2018 05:15 UTC,30.08,22.64,20.48,91.25,3.44,50.0,,20.0,,,,274.0,,,,2.5,,KIGQ 110515Z AUTO 05003KT 2 1/2SM -SN OVC027 M05/M06 A3008 RMK AO2  T10521064,,,2700.0,,,20.44,,NE,29.43,29.86,,Light Snow
KIGQ,02/11/2018 05:35 UTC,30.05,22.64,21.2,94.09,3.44,70.0,,20.0,,,,164.0,,,,1.25,,KIGQ 110535Z AUTO 07003KT 1 1/4SM -SN OVC016 M05/M06 A3005 RMK AO2  T10521060,,,1600.0,,,21.17,,ENE,29.4,29.82,,Light Snow
KIGQ,02/11/2018 05:55 UTC,30.04,22.1,21.2,96.26,3.44,40.0,,20.0,,0.01,,104.0,,0.01,,1.0,,KIGQ 110555Z AUTO 04003KT 1SM -SN OVC010 M05/M06 A3004 RMK AO2  P0001 60001 T10551060 11044 21055 410411078,24.08,22.1,1000.0,24.62,17.96,21.18,,NE,29.39,29.81,,Light Snow
KIGQ,02/11/2018 06:15 UTC,30.02,21.74,21.02,96.99,8.05,40.0,,20.0,,0.01,,104.0,,,,1.75,,KIGQ 110615Z AUTO 04007KT 1 3/4SM -SN OVC010 M06/M06 A3002 RMK AO2  P0001 T10571061,,,1000.0,,,21.01,15.02,NE,29.37,29.8,,Light Snow
KIGQ,02/11/2018 06:35 UTC,30.02,21.92,21.2,96.99,0.0,0.0,,20.0,,0.02,,104.0,,,,1.25,,KIGQ 110635Z AUTO 00000KT 1 1/4SM -SN OVC010 M06/M06 A3002 RMK AO2  P0002 T10561060,,,1000.0,,,21.19,,N,29.37,29.79,,Light Snow
KIGQ,02/11/2018 06:55 UTC,30.01,21.74,21.2,97.74,4.61,20.0,,20.0,,0.04,,124.0,,,,1.5,,KIGQ 110655Z AUTO 02004KT 1 1/2SM -SN OVC012 M06/M06 A3001 RMK AO2  P0004 T10571060,,,1200.0,,,21.19,,NNE,29.36,29.79,,Light Snow
KIGQ,02/11/2018 07:15 UTC,30.01,21.92,21.2,96.99,5.75,30.0,,3.0,,0.02,,103.0,164.0,,,1.25,,KIGQ 110715Z AUTO 03005KT 1 1/4SM SN BKN010 OVC016 M06/M06 A3001 RMK AO2 P0002 T10561060,,,1000.0,,,21.19,,NNE,29.36,29.78,,Snow
KIGQ,02/11/2018 07:35 UTC,29.99,21.74,21.02,96.99,6.91,50.0,,20.0,,0.05,,104.0,,,,1.75,,KIGQ 110735Z AUTO 05006KT 1 3/4SM -SN OVC010 M06/M06 A2999 RMK AO2  P0005 T10571061,,,1000.0,,,21.01,,NE,29.34,29.77,,Light Snow
KIGQ,02/11/2018 07:55 UTC,29.99,21.92,21.2,96.99,5.75,50.0,,20.0,,0.08,,103.0,184.0,,,1.5,,KIGQ 110755Z AUTO 05005KT 1 1/2SM -SN BKN010 OVC018 M06/M06 A2999 RMK AO2 P0008 T10561060,,,1000.0,,,21.19,,NE,29.34,29.76,,Light Snow
KIGQ,02/11/2018 08:15 UTC,29.99,21.74,21.02,96.99,4.61,20.0,,3.0,,0.02,,93.0,134.0,,,1.0,,KIGQ 110815Z AUTO 02004KT 1SM SN BKN009 OVC013 M06/M06 A2999 RMK AO2 P0002 T10571061,,,900.0,,,21.01,,NNE,29.34,29.77,,Snow
KIGQ,02/11/2018 08:35 UTC,29.97,21.74,21.2,97.74,6.91,10.0,,3.0,,0.04,,94.0,,,,1.25,,KIGQ 110835Z AUTO 01006KT 1 1/4SM SN OVC009 M06/M06 A2997 RMK AO2  P0004 T10571060,,,900.0,,,21.19,,N,29.32,29.74,,Snow
KIGQ,02/11/2018 08:55 UTC,29.96,21.74,21.2,97.74,6.91,20.0,,3.0,,0.06,0.18,74.0,,,,0.75,,KIGQ 110855Z AUTO 02006KT 3/4SM SN OVC007 M06/M06 A2996 RMK AO2  P0006 60018 T10571060,,,700.0,,,21.19,,NNE,29.31,29.73,,Snow
KIGQ,02/11/2018 09:15 UTC,29.97,21.92,21.2,96.99,0.0,0.0,,3.0,,0.01,,74.0,,,,1.0,,KIGQ 110915Z AUTO 00000KT 1SM SN OVC007 M06/M06 A2997 RMK AO2  P0001 T10561060,,,700.0,,,21.19,,N,29.32,29.74,,Snow
KIGQ,02/11/2018 09:35 UTC,29.95,22.1,21.74,98.49,0.0,0.0,,20.0,184.0,0.02,,72.0,143.0,,,1.5,,KIGQ 110935Z AUTO 00000KT 1 1/2SM -SN SCT007 BKN014 OVC018 M05/M06  A2995 RMK AO2 P0002 T10551057,,,1400.0,,,21.73,,N,29.3,29.72,,Light Snow
KIGQ,02/11/2018 09:55 UTC,29.94,22.1,21.92,99.24,0.0,0.0,,20.0,,0.02,,194.0,,,,1.5,,KIGQ 110955Z AUTO 00000KT 1 1/2SM -SN OVC019 M05/M06 A2994 RMK AO2  P0002 T10551056,,,1900.0,,,21.92,,N,29.29,29.71,,Light Snow
KIGQ,02/11/2018 10:15 UTC,29.94,22.28,21.92,98.49,4.61,40.0,,20.0,,,,194.0,,,,2.0,,KIGQ 111015Z AUTO 04004KT 2SM -SN OVC019 M05/M06 A2994 RMK AO2  T10541056,,,1900.0,,,21.91,,NE,29.29,29.7,,Light Snow
KIGQ,02/11/2018 10:35 UTC,29.94,22.64,22.1,97.74,4.61,30.0,,20.0,304.0,,,172.0,243.0,,,2.5,,KIGQ 111035Z AUTO 03004KT 2 1/2SM -SN SCT017 BKN024 OVC030 M05/M05  A2994 RMK AO2 T10521055,,,2400.0,,,22.09,,NNE,29.29,29.7,,Light Snow
KIGQ,02/11/2018 10:55 UTC,29.93,23.0,22.46,97.75,3.44,360.0,,20.0,,,,173.0,234.0,,,2.0,,KIGQ 111055Z AUTO 36003KT 2SM -SN BKN017 OVC023 M05/M05 A2993 RMK AO2 T10501053,,,1700.0,,,22.45,,N,29.28,29.69,,Light Snow
KIGQ,02/11/2018 11:15 UTC,29.92,23.0,22.64,98.49,3.44,20.0,,20.0,444.0,,,72.0,193.0,,,2.5,,KIGQ 111115Z AUTO 02003KT 2 1/2SM -SN SCT007 BKN019 OVC044 M05/M05  A2992 RMK AO2 T10501052,,,1900.0,,,22.63,,NNE,29.27,29.67,,Light Snow
KIGQ,02/11/2018 11:35 UTC,29.91,23.18,22.82,98.5,0.0,0.0,,20.0,444.0,,,73.0,123.0,,,3.0,,KIGQ 111135Z AUTO 00000KT 3SM -SN BKN007 BKN012 OVC044 M05/M05  A2991 RMK AO2 T10491051,,,700.0,,,22.81,,N,29.26,29.66,,Light Snow
KIGQ,02/11/2018 11:55 UTC,29.91,23.72,23.36,98.5,4.61,10.0,,20.0,,,,74.0,,0.2,0.21,2.5,,KIGQ 111155Z AUTO 01004KT 2 1/2SM -SN OVC007 M05/M05 A2991 RMK AO2  60020 70021 T10461048 11046 21057,23.72,21.74,700.0,,,23.35,,N,29.26,29.65,,Light Snow
KIGQ,02/11/2018 12:15 UTC,29.9,23.9,23.36,97.76,8.05,10.0,,20.0,,,,74.0,,,,2.5,,KIGQ 111215Z AUTO 01007KT 2 1/2SM -SN OVC007 M04/M05 A2990 RMK AO2  T10451048,,,700.0,,,23.35,17.56,N,29.25,29.64,,Light Snow
KIGQ,02/11/2018 12:35 UTC,29.9,23.0,22.1,96.27,6.91,350.0,,20.0,,,,104.0,,,,4.0,,KIGQ 111235Z AUTO 35006KT 4SM -SN OVC010 M05/M05 A2990 RMK AO2  T10501055,,,1000.0,,,22.08,,N,29.25,29.66,,Light Snow
KIGQ,02/11/2018 12:55 UTC,29.91,22.82,21.92,96.27,6.91,350.0,,20.0,,,,104.0,,,,5.0,,KIGQ 111255Z AUTO 35006KT 5SM -SN OVC010 M05/M06 A2991 RMK AO2  T10511056,,,1000.0,,,21.9,,N,29.26,29.67,,Light Snow
KIGQ,02/11/2018 13:15 UTC,29.92,22.82,21.74,95.54,6.91,330.0,,,,,,84.0,,,,10.0,,KIGQ 111315Z AUTO 33006KT 10SM OVC008 M05/M06 A2992 RMK AO2  T10511057,,,800.0,,,21.72,,NNW,29.27,29.68,,Overcast
KIGQ,02/11/2018 13:35 UTC,29.93,22.1,20.66,94.07,9.22,330.0,,,,,,84.0,,,,10.0,,KIGQ 111335Z AUTO 33008KT 10SM OVC008 M05/M06 A2993 RMK AO2  T10551063,,,800.0,,,20.63,14.7,NNW,29.28,29.71,,Overcast
KIGQ,02/11/2018 13:55 UTC,29.94,21.2,19.58,93.32,10.36,320.0,,,,,,114.0,,,,10.0,,KIGQ 111355Z AUTO 32009KT 10SM OVC011 M06/M07 A2994 RMK AO2  T10601069,,,1100.0,,,19.55,12.97,NW,29.29,29.73,,Overcast
KIGQ,02/11/2018 14:15 UTC,29.94,21.02,19.4,93.32,6.91,320.0,,20.0,,,,133.0,214.0,,,2.5,,KIGQ 111415Z AUTO 32006KT 2 1/2SM -SN BKN013 OVC021 M06/M07 A2994 RMK AO2 T10611070,,,1300.0,,,19.37,,NW,29.29,29.73,,Light Snow
KIGQ,02/11/2018 14:35 UTC,29.94,21.2,19.22,91.9,9.22,330.0,,,,,,133.0,214.0,,,10.0,,KIGQ 111435Z AUTO 33008KT 10SM BKN013 OVC021 M06/M07 A2994 RMK AO2  T10601071,,,1300.0,,,19.18,13.63,NNW,29.29,29.73,,Overcast
KIGQ,02/11/2018 14:55 UTC,29.94,21.2,19.04,91.19,8.05,320.0,,,,,,134.0,,,,10.0,,KIGQ 111455Z AUTO 32007KT 10SM OVC013 M06/M07 A2994 RMK AO2  T10601072,,,1300.0,,,19.0,14.39,NW,29.29,29.74,,Overcast
KIGQ,02/11/2018 15:15 UTC,29.94,21.38,19.04,90.49,8.05,320.0,,,,,,154.0,,,,10.0,,KIGQ 111515Z AUTO 32007KT 10SM OVC015 M06/M07 A2994 RMK AO2  T10591072,,,1500.0,,,19.0,14.6,NW,29.29,29.73,,Overcast
KIGQ,02/11/2018 15:35 UTC,29.95,21.74,19.4,90.51,6.91,320.0,,,,,,134.0,,,,10.0,,KIGQ 111535Z AUTO 32006KT 10SM OVC013 M06/M07 A2995 RMK AO2  T10571070,,,1300.0,,,19.36,,NW,29.3,29.74,,Overcast
KIGQ,02/11/2018 15:55 UTC,29.95,22.46,19.76,89.16,8.05,320.0,,,,,,154.0,,,,10.0,,KIGQ 111555Z AUTO 32007KT 10SM OVC015 M05/M07 A2995 RMK AO2  T10531068,,,1500.0,,,19.71,15.87,NW,29.3,29.73,,Overcast
KIGQ,02/11/2018 16:15 UTC,29.95,23.0,20.12,88.5,6.91,320.0,,,,,,194.0,,,,10.0,,KIGQ 111615Z AUTO 32006KT 10SM OVC019 M05/M07 A2995 RMK AO2  T10501066,,,1900.0,,,20.07,,NW,29.3,29.73,,Overcast
KIGQ,02/11/2018 16:35 UTC,29.96,23.36,20.3,87.84,5.75,320.0,,20.0,,,,174.0,,,,7.0,,KIGQ 111635Z AUTO 32005KT 7SM -SN OVC017 M05/M06 A2996 RMK AO2  T10481065,,,1700.0,,,20.24,,NW,29.31,29.73,,Light Snow
KIGQ,02/11/2018 16:55 UTC,29.97,23.54,20.3,87.18,10.36,320.0,,20.0,,,,174.0,,,,7.0,,KIGQ 111655Z AUTO 32009KT 7SM -SN OVC017 M05/M06 A2997 RMK AO2  T10471065,,,1700.0,,,20.24,15.77,NW,29.32,29.74,,Light Snow
KIGQ,02/11/2018 17:15 UTC,29.96,23.9,20.48,86.54,9.22,330.0,16.11,31.0,,,,173.0,264.0,,,5.0,,KIGQ 111715Z AUTO 33008G14KT 5SM BR BKN017 OVC026 M04/M06 A2996 RMK AO2 T10451064,,,1700.0,,,20.42,16.84,NNW,29.31,29.73,,Mist
KIGQ,02/11/2018 17:35 UTC,29.97,24.26,20.84,86.56,8.05,320.0,,,262.0,,,132.0,172.0,,,10.0,,KIGQ 111735Z AUTO 32007KT 10SM SCT013 SCT017 SCT026 M04/M06 A2997 RMK AO2 T10431062,,,,,,20.78,17.98,NW,29.32,29.73,,Partly Cloudy
KIGQ,02/11/2018 17:55 UTC,29.97,24.62,21.02,85.92,11.5,310.0,,,1202.0,,,132.0,252.0,,,10.0,,KIGQ 111755Z AUTO 31010KT 10SM SCT013 SCT025 SCT120 M04/M06 A2997 RMK AO2 T10411061 11041 21061,24.62,21.02,,,,20.96,16.49,NW,29.32,29.73,,Partly Cloudy
KIGQ,02/11/2018 18:15 UTC,29.96,24.26,20.3,84.59,11.5,310.0,,,853.0,,,132.0,462.0,,,10.0,,KIGQ 111815Z AUTO 31010KT 10SM SCT013 SCT046 BKN085 M04/M06 A2996 RMK AO2 T10431065,,,8500.0,,,20.23,16.06,NW,29.31,29.73,,Mostly Cloudy
KIGQ,02/11/2018 18:35 UTC,29.98,23.9,20.66,87.2,6.91,300.0,,20.0,654.0,,,132.0,423.0,,,5.0,,KIGQ 111835Z AUTO 30006KT 5SM -SN SCT013 BKN042 OVC065 M04/M06  A2998 RMK AO2 T10451063,,,4200.0,,,20.6,,WNW,29.33,29.75,,Light Snow
KIGQ,02/11/2018 18:55 UTC,29.98,23.9,20.48,86.54,8.05,310.0,,20.0,394.0,,,132.0,313.0,,,7.0,,KIGQ 111855Z AUTO 31007KT 7SM -SN SCT013 BKN031 OVC039 M04/M06  A2998 RMK AO2 T10451064,,,3100.0,,,20.42,17.56,NW,29.33,29.75,,Light Snow
KIGQ,02/11/2018 19:15 UTC,29.99,23.9,20.3,85.88,8.05,310.0,,20.0,394.0,,,132.0,273.0,,,3.0,,KIGQ 111915Z AUTO 31007KT 3SM -SN SCT013 BKN027 OVC039 M04/M06  A2999 RMK AO2 T10451065,,,2700.0,,,20.24,17.56,NW,29.34,29.76,,Light Snow
KIGQ,02/11/2018 19:35 UTC,29.99,24.26,19.94,83.3,9.22,330.0,,,313.0,,,133.0,253.0,,,10.0,,KIGQ 111935Z AUTO 33008KT 10SM BKN013 BKN025 BKN031 M04/M07 A2999 RMK AO2 T10431067,,,1300.0,,,19.86,17.26,NNW,29.34,29.76,,Mostly Cloudy
KIGQ,02/11/2018 19:55 UTC,30.0,24.44,20.12,83.31,4.61,290.0,,,,,,153.0,853.0,,,10.0,,KIGQ 111955Z AUTO 29004KT 10SM BKN015 BKN085 M04/M07 A3000 RMK AO2  T10421066,,,1500.0,,,20.04,,WNW,29.35,29.77,,Mostly Cloudy
KIGQ,02/11/2018 20:15 UTC,30.0,24.8,19.94,81.44,4.61,290.0,,,,,,172.0,852.0,,,10.0,,KIGQ 112015Z AUTO 29004KT 10SM SCT017 SCT085 M04/M07 A3000 RMK AO2  T10401067,,,,,,19.86,,WNW,29.35,29.77,,Partly Cloudy
KIGQ,02/11/2018 20:35 UTC,30.01,24.8,18.86,77.76,8.05,300.0,,,,,,1.0,,,,10.0,,KIGQ 112035Z AUTO 30007KT 10SM CLR M04/M07 A3001 RMK AO2  T10401073,,,,,,18.76,18.62,WNW,29.36,29.79,,Clear
KIGQ,02/11/2018 20:55 UTC,30.02,24.8,18.32,75.97,6.91,280.0,,,,,,1.0,,,,10.0,,KIGQ 112055Z AUTO 28006KT 10SM CLR M04/M08 A3002 RMK AO2  T10401076,,,,,,18.21,,W,29.37,29.8,,Clear
KIGQ,02/11/2018 21:15 UTC,30.04,24.44,17.78,75.35,10.36,270.0,,,,,,1.0,,,,10.0,,KIGQ 112115Z AUTO 27009KT 10SM CLR M04/M08 A3004 RMK AO2  T10421079,,,,,,17.67,16.85,W,29.39,29.83,,Clear
KIGQ,02/11/2018 21:35 UTC,30.05,23.72,17.06,75.27,8.05,250.0,,,,,,1.0,,,,10.0,,KIGQ 112135Z AUTO 25007KT 10SM CLR M05/M08 A3005 RMK AO2  T10461083,,,,,,16.95,17.35,WSW,29.4,29.85,,Clear
KIGQ,02/11/2018 21:55 UTC,30.07,22.46,16.7,78.14,10.36,250.0,,,,,,1.0,,,,10.0,,KIGQ 112155Z AUTO 25009KT 10SM CLR M05/M08 A3007 RMK AO2  T10531085,,,,,,16.6,14.48,WSW,29.42,29.88,,Clear
KIGQ,02/11/2018 22:15 UTC,30.09,21.74,16.7,80.56,10.36,260.0,,,,,,1.0,,,,10.0,,KIGQ 112215Z AUTO 26009KT 10SM CLR M06/M08 A3009 RMK AO2  T10571085,,,,,,16.61,13.62,W,29.44,29.9,,Clear
KIGQ,02/11/2018 22:35 UTC,30.11,21.02,15.8,79.87,11.5,260.0,,,,,,1.0,,,,10.0,,KIGQ 112235Z AUTO 26010KT 10SM CLR M06/M09 A3011 RMK AO2  T10611090,,,,,,15.71,12.15,W,29.46,29.93,,Clear
KIGQ,02/11/2018 22:55 UTC,30.13,20.3,14.9,79.18,10.36,270.0,19.57,,,,,1.0,,,,10.0,,KIGQ 112255Z AUTO 27009G17KT 10SM CLR M06/M09 A3013 RMK AO2  T10651095,,,,,,14.8,11.89,W,29.47,29.95,,Clear
KIGQ,02/11/2018 23:15 UTC,30.14,19.76,13.46,76.06,12.66,270.0,17.27,,,,,1.0,,,,10.0,,KIGQ 112315Z AUTO 27011G15KT 10SM CLR M07/M10 A3014 RMK AO2  T10681103,,,,,,13.35,10.05,W,29.48,29.98,,Clear
KIGQ,02/11/2018 23:35 UTC,30.16,18.86,14.0,80.96,10.36,260.0,,,,,,1.0,,,,10.0,,KIGQ 112335Z AUTO 26009KT 10SM CLR M07/M10 A3016 RMK AO2  T10731100,,,,,,13.92,10.17,W,29.5,30.0,,Clear
KIGQ,02/11/2018 23:55 UTC,30.18,18.14,13.46,81.54,8.05,260.0,,,,,,1.0,,,,10.0,,KIGQ 112355Z AUTO 26007KT 10SM CLR M08/M10 A3018 RMK AO2 T10771103  11040 21077,24.8,18.14,,,,13.38,10.8,W,29.52,30.02,,Clear
KIGQ,02/12/2018 00:15 UTC,30.19,17.6,12.92,81.5,6.91,270.0,,,,,,1.0,,,,10.0,,KIGQ 120015Z AUTO 27006KT 10SM CLR M08/M11 A3019 RMK AO2  T10801106,,,,,,12.84,,W,29.53,30.04,,Clear
KIGQ,02/12/2018 00:35 UTC,30.2,16.7,12.02,81.42,5.75,260.0,,,,,,1.0,,,,10.0,,KIGQ 120035Z AUTO 26005KT 10SM CLR M08/M11 A3020 RMK AO2  T10851111,,,,,,11.94,,W,29.54,30.06,,Clear
KIGQ,02/12/2018 00:55 UTC,30.21,16.52,12.2,82.72,5.75,250.0,,,,,,1.0,,,,10.0,,KIGQ 120055Z AUTO 25005KT 10SM CLR M09/M11 A3021 RMK AO2  T10861110,,,,,,12.12,,WSW,29.55,30.07,,Clear
KIGQ,02/12/2018 01:15 UTC,30.22,15.44,12.02,86.02,4.61,250.0,,,,,,1.0,,,,10.0,,KIGQ 120115Z AUTO 25004KT 10SM CLR M09/M11 A3022 RMK AO2  T10921111,,,,,,11.96,,WSW,29.56,30.09,,Clear
KIGQ,02/12/2018 01:35 UTC,30.23,14.36,10.76,85.26,5.75,270.0,,,,,,1.0,,,,10.0,,KIGQ 120135Z AUTO 27005KT 10SM CLR M10/M12 A3023 RMK AO2  T10981118,,,,,,10.69,,W,29.57,30.11,,Clear
KIGQ,02/12/2018 01:55 UTC,30.25,14.9,10.4,81.93,9.22,270.0,,,,,,1.0,,,,10.0,,KIGQ 120155Z AUTO 27008KT 10SM CLR M09/M12 A3025 RMK AO2  T10951120,,,,,,10.32,6.16,W,29.59,30.13,,Clear
KIGQ,02/12/2018 02:15 UTC,30.25,14.72,9.32,78.68,8.05,280.0,,,,,,1.0,,,,10.0,,KIGQ 120215Z AUTO 28007KT 10SM CLR M10/M13 A3025 RMK AO2  T10961126,,,,,,9.23,6.78,W,29.59,30.13,,Clear
KIGQ,02/12/2018 02:35 UTC,30.26,14.0,8.6,78.61,8.05,280.0,,,,,,1.0,,,,10.0,,KIGQ 120235Z AUTO 28007KT 10SM CLR M10/M13 A3026 RMK AO2  T11001130,,,,,,8.51,5.93,W,29.6,30.15,,Clear
KIGQ,02/12/2018 02:55 UTC,30.28,12.74,7.34,78.49,5.75,260.0,,,,,,1.0,,,,10.0,,KIGQ 120255Z AUTO 26005KT 10SM CLR M11/M14 A3028 RMK AO2  T11071137,,,,,,7.24,,W,29.62,30.18,,Clear
KIGQ,02/12/2018 03:15 UTC,30.28,12.74,7.34,78.49,5.75,280.0,,,,,,1.0,,,,10.0,,KIGQ 120315Z AUTO 28005KT 10SM CLR M11/M14 A3028 RMK AO2  T11071137,,,,,,7.24,,W,29.62,30.18,,Clear
KIGQ,02/12/2018 03:35 UTC,30.29,12.74,6.8,76.59,6.91,280.0,,,,,,1.0,,,,10.0,,KIGQ 120335Z AUTO 28006KT 10SM CLR M11/M14 A3029 RMK AO2  T11071140,,,,,,6.7,,W,29.63,30.2,,Clear
KIGQ,02/12/2018 03:55 UTC,30.3,12.2,6.08,75.9,5.75,280.0,,,,,,1.0,,,,10.0,,KIGQ 120355Z AUTO 28005KT 10SM CLR M11/M14 A3030 RMK AO2  T11101144,,,,,,5.97,,W,29.64,30.21,,Clear
KIGQ,02/12/2018 04:15 UTC,30.32,12.02,5.9,75.89,5.75,280.0,,,,,,1.0,,,,10.0,,KIGQ 120415Z AUTO 28005KT 10SM CLR M11/M14 A3032 RMK AO2  T11111145,,,,,,5.8,,W,29.66,30.23,,Clear
KIGQ,02/12/2018 04:35 UTC,30.33,10.58,4.82,77.0,6.91,270.0,,,,,,1.0,,,,10.0,,KIGQ 120435Z AUTO 27006KT 10SM CLR M12/M15 A3033 RMK AO2  T11191151,,,,,,4.72,,W,29.67,30.25,,Clear
KIGQ,02/12/2018 04:55 UTC,30.34,10.4,5.0,78.27,5.75,270.0,,,,,,1.0,,,,10.0,,KIGQ 120455Z AUTO 27005KT 10SM CLR M12/M15 A3034 RMK AO2  T11201150,,,,,,4.91,,W,29.68,30.26,,Clear
KIGQ,02/12/2018 05:15 UTC,30.36,10.58,4.82,77.0,5.75,290.0,,,,,,1.0,,,,10.0,,KIGQ 120515Z AUTO 29005KT 10SM CLR M12/M15 A3036 RMK AO2  T11191151,,,,,,4.72,,WNW,29.7,30.28,,Clear
KIGQ,02/12/2018 05:35 UTC,30.37,10.94,4.82,75.77,3.44,280.0,,,,,,1.0,,,,10.0,,KIGQ 120535Z AUTO 28003KT 10SM CLR M12/M15 A3037 RMK AO2  T11171151,,,,,,4.71,,W,29.71,30.29,,Clear
KIGQ,02/12/2018 05:55 UTC,30.38,9.86,4.28,77.57,5.75,270.0,,,,,,1.0,,,,10.0,,KIGQ 120555Z AUTO 27005KT 10SM CLR M12/M15 A3038 RMK AO2 T11231154  11078 21123 410401123,17.96,9.86,,24.8,9.86,4.18,,W,29.72,30.31,,Clear
KIGQ,02/12/2018 06:15 UTC,30.39,10.04,4.28,76.95,3.44,280.0,,,,,,1.0,,,,10.0,,KIGQ 120615Z AUTO 28003KT 10SM CLR M12/M15 A3039 RMK AO2  T11221154,,,,,,4.18,,W,29.73,30.32,,Clear
KIGQ,02/12/2018 06:35 UTC,30.41,6.26,1.58,80.54,3.44,270.0,,,,,,1.0,,,,10.0,,KIGQ 120635Z AUTO 27003KT 10SM CLR M14/M17 A3041 RMK AO2  T11431169,,,,,,1.5,,W,29.75,30.36,,Clear
KIGQ,02/12/2018 06:55 UTC,30.42,6.08,2.48,84.69,0.0,0.0,,,,,,1.0,,,,10.0,,KIGQ 120655Z AUTO 00000KT 10SM CLR M14/M16 A3042 RMK AO2  T11441164,,,,,,2.42,,N,29.76,30.37,,Clear
KIGQ,02/12/2018 07:15 UTC,30.43,7.34,3.38,83.38,3.44,270.0,,,,,,1.0,,,,10.0,,KIGQ 120715Z AUTO 27003KT 10SM CLR M14/M16 A3043 RMK AO2  T11371159,,,,,,3.31,,W,29.77,30.37,,Clear
KIGQ,02/12/2018 07:35 UTC,30.45,8.42,3.92,81.41,3.44,290.0,,,,,,1.0,,,,10.0,,KIGQ 120735Z AUTO 29003KT 10SM CLR M13/M16 A3045 RMK AO2  T11311156,,,,,,3.84,,WNW,29.79,30.39,,Clear
KIGQ,02/12/2018 07:55 UTC,30.46,8.42,3.74,80.73,0.0,0.0,,,,,,1.0,,,,10.0,,KIGQ 120755Z AUTO 00000KT 10SM CLR M13/M16 A3046 RMK AO2  T11311157,,,,,,3.66,,N,29.8,30.4,,Clear
KIGQ,02/12/2018 08:15 UTC,30.46,8.24,3.38,80.04,0.0,0.0,,,,,,1.0,,,,10.0,,KIGQ 120815Z AUTO 00000KT 10SM CLR M13/M16 A3046 RMK AO2  T11321159,,,,,,3.29,,N,29.8,30.4,,Clear
KIGQ,02/12/2018 08:35 UTC,30.47,8.24,3.74,81.39,4.61,310.0,,,,,,1.0,,,,10.0,,KIGQ 120835Z AUTO 31004KT 10SM CLR M13/M16 A3047 RMK AO2  T11321157,,,,,,3.66,,NW,29.81,30.41,,Clear
KIGQ,02/12/2018 08:55 UTC,30.48,8.24,3.74,81.39,0.0,0.0,,,,,,1.0,,,,10.0,,KIGQ 120855Z AUTO 00000KT 10SM CLR M13/M16 A3048 RMK AO2  T11321157,,,,,,3.66,,N,29.82,30.42,,Clear
KIGQ,02/12/2018 09:15 UTC,30.48,7.7,3.38,82.03,4.61,300.0,,,,,,1.0,,,,10.0,,KIGQ 120915Z AUTO 30004KT 10SM CLR M13/M16 A3048 RMK AO2  T11351159,,,,,,3.3,,WNW,29.82,30.42,,Clear
KIGQ,02/12/2018 09:35 UTC,30.49,7.7,3.38,82.03,4.61,310.0,,,,,,1.0,,,,10.0,,KIGQ 120935Z AUTO 31004KT 10SM CLR M13/M16 A3049 RMK AO2  T11351159,,,,,,3.3,,NW,29.83,30.43,,Clear
KIGQ,02/12/2018 09:55 UTC,30.5,7.88,3.74,82.73,0.0,0.0,,,,,,1.0,,,,10.0,,KIGQ 120955Z AUTO 00000KT 10SM CLR M13/M16 A3050 RMK AO2  T11341157,,,,,,3.67,,N,29.84,30.44,,Clear
KIGQ,02/12/2018 10:15 UTC,30.51,7.88,3.74,82.73,0.0,0.0,,,,,,1.0,,,,10.0,,KIGQ 121015Z AUTO 00000KT 10SM CLR M13/M16 A3051 RMK AO2  T11341157,,,,,,3.67,,N,29.85,30.45,,Clear
KIGQ,02/12/2018 10:35 UTC,30.53,7.16,3.56,84.77,0.0,0.0,,,,,,1.0,,,,10.0,,KIGQ 121035Z AUTO 00000KT 10SM CLR M14/M16 A3053 RMK AO2  T11381158,,,,,,3.5,,N,29.87,30.48,,Clear
KIGQ,02/12/2018 10:55 UTC,30.53,7.52,3.74,84.09,3.44,320.0,,,,,,1.0,,,,10.0,,KIGQ 121055Z AUTO 32003KT 10SM CLR M14/M16 A3053 RMK AO2  T11361157,,,,,,3.67,,NW,29.87,30.47,,Clear
KIGQ,02/12/2018 11:15 UTC,30.54,7.7,3.74,83.41,0.0,0.0,,,,,,1.0,,,,10.0,,KIGQ 121115Z AUTO 00000KT 10SM CLR M13/M16 A3054 RMK AO2  T11351157,,,,,,3.67,,N,29.88,30.48,,Clear
KIGQ,02/12/2018 11:35 UTC,30.55,6.98,3.74,86.18,0.0,0.0,,,,,,1.0,,,,10.0,,KIGQ 121135Z AUTO 00000KT 10SM CLR M14/M16 A3055 RMK AO2  T11391157,,,,,,3.68,,N,29.89,30.5,,Clear
KIGQ,02/12/2018 11:55 UTC,30.57,6.62,3.2,85.44,0.0,0.0,,,,,,1.0,,,,10.0,,KIGQ 121155Z AUTO 00000KT 10SM CLR M14/M16 A3057 RMK AO2 T11411160  11121 21145,10.22,5.9,,,,3.14,,N,29.91,30.52,,Clear
KIGQ,02/12/2018 12:15 UTC,30.57,6.44,3.38,86.87,0.0,0.0,,,,,,1.0,,,,10.0,,KIGQ 121215Z AUTO 00000KT 10SM CLR M14/M16 A3057 RMK AO2  T11421159,,,,,,3.33,,N,29.91,30.52,,Clear
KIGQ,02/12/2018 12:35 UTC,30.59,6.8,3.92,87.62,3.44,320.0,,,,,,1.0,,,,10.0,,KIGQ 121235Z AUTO 32003KT 10SM CLR M14/M16 A3059 RMK AO2  T11401156,,,,,,3.87,,NW,29.92,30.53,,Clear
KIGQ,02/12/2018 12:55 UTC,30.6,6.98,3.92,86.9,3.44,320.0,,,,,,1.0,,,,10.0,,KIGQ 121255Z AUTO 32003KT 10SM CLR M14/M16 A3060 RMK AO2  T11391156,,,,,,3.86,,NW,29.93,30.54,,Clear
KIGQ,02/12/2018 13:15 UTC,30.61,7.7,4.28,85.51,0.0,0.0,,,,,,1.0,,,,10.0,,KIGQ 121315Z AUTO 00000KT 10SM CLR M13/M15 A3061 RMK AO2  T11351154,,,,,,4.22,,N,29.94,30.54,,Clear
KIGQ,02/12/2018 13:35 UTC,30.62,8.78,5.0,84.18,3.44,330.0,,,,,,1.0,,,,10.0,,KIGQ 121335Z AUTO 33003KT 10SM CLR M13/M15 A3062 RMK AO2  T11291150,,,,,,4.93,,NNW,29.95,30.55,,Clear
KIGQ,02/12/2018 13:55 UTC,30.64,10.22,5.72,81.55,3.44,330.0,,,,,,1.0,,,,10.0,,KIGQ 121355Z AUTO 33003KT 10SM CLR M12/M15 A3064 RMK AO2  T11211146,,,,,,5.64,,NNW,29.97,30.56,,Clear
KIGQ,02/12/2018 14:15 UTC,30.65,12.02,6.8,79.07,0.0,0.0,,,,,,1.0,,,,10.0,,KIGQ 121415Z AUTO 00000KT 10SM CLR M11/M14 A3065 RMK AO2  T11111140,,,,,,6.71,,N,29.98,30.56,,Clear
KIGQ,02/12/2018 14:35 UTC,30.66,13.46,7.52,76.66,0.0,0.0,,,,,,1.0,,,,10.0,,KIGQ 121435Z AUTO 00000KT 10SM CLR M10/M14 A3066 RMK AO2  T11031136,,,,,,7.42,,N,29.99,30.56,,Clear
KIGQ,02/12/2018 14:55 UTC,30.66,15.08,8.96,76.2,0.0,0.0,,,,,,1.0,,,,10.0,,KIGQ 121455Z AUTO 00000KT 10SM CLR M09/M13 A3066 RMK AO2  T10941128,,,,,,8.85,,N,29.99,30.54,,Clear
KIGQ,02/12/2018 15:15 UTC,30.67,17.06,10.22,73.98,0.0,0.0,,,,,,1.0,,,,10.0,,KIGQ 121515Z AUTO 00000KT 10SM CLR M08/M12 A3067 RMK AO2  T10831121,,,,,,10.1,,N,30.0,30.54,,Clear
KIGQ,02/12/2018 15:35 UTC,30.68,19.04,11.84,73.02,5.75,350.0,,,,,,1.0,,,,10.0,,KIGQ 121535Z AUTO 35005KT 10SM CLR M07/M11 A3068 RMK AO2  T10721112,,,,,,11.72,,N,30.01,30.53,,Clear
KIGQ,02/12/2018 15:55 UTC,30.69,19.94,12.38,71.96,4.61,340.0,,,,,,1.0,,,,10.0,,KIGQ 121555Z AUTO 34004KT 10SM CLR M07/M11 A3069 RMK AO2  T10671109,,,,,,12.25,,NNW,30.02,30.53,,Clear
KIGQ,02/12/2018 16:15 UTC,30.7,20.84,13.1,71.49,5.75,320.0,,,,,,1.0,,,,10.0,,KIGQ 121615Z AUTO 32005KT 10SM CLR M06/M10 A3070 RMK AO2  T10621105,,,,,,12.97,,NW,30.03,30.54,,Clear
KIGQ,02/12/2018 16:35 UTC,30.7,22.1,14.0,70.51,5.75,360.0,,,,,,1.0,,,,10.0,,KIGQ 121635Z AUTO 36005KT 10SM CLR M05/M10 A3070 RMK AO2  T10551100,,,,,,13.87,,N,30.03,30.52,,Clear
KIGQ,02/12/2018 16:55 UTC,30.7,23.0,15.26,71.74,4.61,350.0,,,,,,1.0,,,,10.0,,KIGQ 121655Z AUTO 35004KT 10SM CLR M05/M09 A3070 RMK AO2  T10501093,,,,,,15.13,,N,30.03,30.51,,Clear
KIGQ,02/12/2018 17:15 UTC,30.7,23.9,15.98,71.28,4.61,30.0,,,,,,1.0,,,,10.0,,KIGQ 121715Z AUTO 03004KT 10SM CLR M04/M09 A3070 RMK AO2  T10451089,,,,,,15.85,,NNE,30.03,30.5,,Clear
KIGQ,02/12/2018 17:35 UTC,30.7,24.44,17.06,73.04,8.05,20.0,,,,,,1.0,,,,10.0,,KIGQ 121735Z AUTO 02007KT 10SM CLR M04/M08 A3070 RMK AO2  T10421083,,,,,,16.94,18.2,NNE,30.03,30.49,,Clear
KIGQ,02/12/2018 17:55 UTC,30.71,24.62,17.24,73.06,6.91,30.0,,,,,,1.0,,,,10.0,,KIGQ 121755Z AUTO 03006KT 340V040 10SM CLR M04/M08 A3071 RMK AO2  T10411082 11041 21142,24.62,6.44,,,,17.12,,NNE,30.04,30.5,,Clear
KIGQ,02/12/2018 18:15 UTC,30.71,24.8,17.24,72.51,6.91,20.0,,,,,,1.0,,,,10.0,,KIGQ 121815Z AUTO 02006KT 10SM CLR M04/M08 A3071 RMK AO2  T10401082,,,,,,17.12,,NNE,30.04,30.5,,Clear
KIGQ,02/12/2018 18:35 UTC,30.7,24.8,16.88,71.39,6.91,30.0,,,,,,1.0,,,,10.0,,KIGQ 121835Z AUTO 03006KT 10SM CLR M04/M08 A3070 RMK AO2  T10401084,,,,,,16.75,,NNE,30.03,30.49,,Clear
KIGQ,02/12/2018 18:55 UTC,30.7,24.8,17.24,72.51,6.91,20.0,,,,,,1.0,,,,10.0,,KIGQ 121855Z AUTO 02006KT 10SM CLR M04/M08 A3070 RMK AO2  T10401082,,,,,,17.12,,NNE,30.03,30.49,,Clear
KIGQ,02/12/2018 19:15 UTC,30.71,25.16,17.06,70.87,6.91,40.0,,,,,,1.0,,,,10.0,,KIGQ 121915Z AUTO 04006KT 10SM CLR M04/M08 A3071 RMK AO2  T10381083,,,,,,16.93,,NE,30.04,30.5,,Clear
KIGQ,02/12/2018 19:35 UTC,30.71,24.98,17.06,71.41,5.75,20.0,,,,,,1.0,,,,10.0,,KIGQ 121935Z AUTO 02005KT 10SM CLR M04/M08 A3071 RMK AO2  T10391083,,,,,,16.93,,NNE,30.04,30.5,,Clear
KIGQ,02/12/2018 19:55 UTC,30.71,24.62,17.24,73.06,8.05,20.0,,,,,,1.0,,,,10.0,,KIGQ 121955Z AUTO 02007KT 10SM CLR M04/M08 A3071 RMK AO2  T10411082,,,,,,17.12,18.41,NNE,30.04,30.5,,Clear
KIGQ,02/12/2018 20:15 UTC,30.71,24.8,15.8,68.11,8.05,40.0,,,,,,1.0,,,,10.0,,KIGQ 122015Z AUTO 04007KT 10SM CLR M04/M09 A3071 RMK AO2  T10401090,,,,,,15.65,18.62,NE,30.04,30.51,,Clear
KIGQ,02/12/2018 20:35 UTC,30.72,24.62,15.8,68.63,5.75,40.0,,,,,,1.0,,,,10.0,,KIGQ 122035Z AUTO 04005KT 10SM CLR M04/M09 A3072 RMK AO2  T10411090,,,,,,15.66,,NE,30.05,30.52,,Clear
KIGQ,02/12/2018 20:55 UTC,30.72,24.62,14.9,65.98,8.05,40.0,,,,,,1.0,,,,10.0,,KIGQ 122055Z AUTO 04007KT 10SM CLR M04/M09 A3072 RMK AO2  T10411095,,,,,,14.75,18.41,NE,30.05,30.53,,Clear
KIGQ,02/12/2018 21:15 UTC,30.72,24.44,14.72,65.96,6.91,10.0,,,,,,1.0,,,,10.0,,KIGQ 122115Z AUTO 01006KT 10SM CLR M04/M10 A3072 RMK AO2  T10421096,,,,,,14.57,,N,30.05,30.53,,Clear
KIGQ,02/12/2018 21:35 UTC,30.72,24.08,15.62,69.65,9.22,40.0,,,,,,1.0,,,,10.0,,KIGQ 122135Z AUTO 04008KT 10SM CLR M04/M09 A3072 RMK AO2  T10441091,,,,,,15.48,17.05,NE,30.05,30.52,,Clear
KIGQ,02/12/2018 21:55 UTC,30.73,23.72,15.26,69.6,9.22,40.0,,,,,,1.0,,,,10.0,,KIGQ 122155Z AUTO 04008KT 10SM CLR M05/M09 A3073 RMK AO2  T10461093,,,,,,15.12,16.62,NE,30.06,30.54,,Clear
KIGQ,02/12/2018 22:15 UTC,30.74,23.0,14.36,68.97,6.91,30.0,,,,,,1.0,,,,10.0,,KIGQ 122215Z AUTO 03006KT 10SM CLR M05/M10 A3074 RMK AO2  T10501098,,,,,,14.22,,NNE,30.07,30.56,,Clear
KIGQ,02/12/2018 22:35 UTC,30.74,22.64,15.08,72.27,6.91,40.0,,,,,,1.0,,,,10.0,,KIGQ 122235Z AUTO 04006KT 10SM CLR M05/M09 A3074 RMK AO2  T10521094,,,,,,14.96,,NE,30.07,30.56,,Clear
KIGQ,02/12/2018 22:55 UTC,30.74,22.1,15.8,76.3,3.44,30.0,,,,,,1.0,,,,10.0,,KIGQ 122255Z AUTO 03003KT 10SM CLR M05/M09 A3074 RMK AO2  T10551090,,,,,,15.69,,NNE,30.07,30.55,,Clear
KIGQ,02/12/2018 23:15 UTC,30.74,21.92,15.8,76.88,0.0,0.0,,,,,,1.0,,,,10.0,,KIGQ 122315Z AUTO 00000KT 10SM CLR M06/M09 A3074 RMK AO2  T10561090,,,,,,15.7,,N,30.07,30.55,,Clear
KIGQ,02/12/2018 23:35 UTC,30.75,21.2,15.62,78.64,0.0,0.0,,,,,,1.0,,,,10.0,,KIGQ 122335Z AUTO 00000KT 10SM CLR M06/M09 A3075 RMK AO2  T10601091,,,,,,15.52,,N,30.08,30.57,,Clear
KIGQ,02/12/2018 23:55 UTC,30.74,20.66,15.44,79.84,0.0,0.0,,,,,,1.0,,,,10.0,,KIGQ 122355Z AUTO 00000KT 10SM CLR M06/M09 A3074 RMK AO2 T10631092  11038 21063,25.16,20.66,,,,15.35,,N,30.07,30.56,,Clear
KIGQ,02/13/2018 00:15 UTC,30.75,20.3,15.44,81.08,0.0,0.0,,,,,,1.0,,,,10.0,,KIGQ 130015Z AUTO 00000KT 10SM CLR M06/M09 A3075 RMK AO2  T10651092,,,,,,15.36,,N,30.08,30.57,,Clear
KIGQ,02/13/2018 00:35 UTC,30.75,19.94,14.9,80.41,0.0,0.0,,,,,,1.0,,,,10.0,,KIGQ 130035Z AUTO 00000KT 10SM CLR M07/M09 A3075 RMK AO2  T10671095,,,,,,14.81,,N,30.08,30.58,,Clear
KIGQ,02/13/2018 00:55 UTC,30.76,19.76,14.9,81.03,0.0,0.0,,,,,,1.0,,,,10.0,,KIGQ 130055Z AUTO 00000KT 10SM CLR M07/M09 A3076 RMK AO2  T10681095,,,,,,14.81,,N,30.09,30.59,,Clear
KIGQ,02/13/2018 01:15 UTC,30.77,15.26,10.4,80.65,0.0,0.0,,,,,,1.0,,,,10.0,,KIGQ 130115Z AUTO 00000KT 10SM CLR M09/M12 A3077 RMK AO2  T10931120,,,,,,10.31,,N,30.1,30.65,,Clear
KIGQ,02/13/2018 01:35 UTC,30.77,10.04,7.88,90.72,0.0,0.0,,,,,,1.0,,,,10.0,,KIGQ 130135Z AUTO 00000KT 10SM CLR M12/M13 A3077 RMK AO2  T11221134,,,,,,7.84,,N,30.1,30.68,,Clear
KIGQ,02/13/2018 01:55 UTC,30.76,14.18,12.74,93.85,0.0,0.0,,,,,,1.0,,,,10.0,,KIGQ 130155Z AUTO 00000KT 10SM CLR M10/M11 A3076 RMK AO2  T10991107,,,,,,12.71,,N,30.09,30.63,,Clear
KIGQ,02/13/2018 02:15 UTC,30.77,9.86,8.6,94.48,0.0,0.0,,,,,,1.0,,,,10.0,,KIGQ 130215Z AUTO 00000KT 10SM CLR M12/M13 A3077 RMK AO2  T11231130,,,,,,8.58,,N,30.1,30.68,,Clear
KIGQ,02/13/2018 02:35 UTC,30.76,13.1,12.2,96.09,0.0,0.0,,,,,,1.0,,,,10.0,,KIGQ 130235Z AUTO 00000KT 10SM CLR M10/M11 A3076 RMK AO2  T11051110,,,,,,12.18,,N,30.09,30.64,,Clear
KIGQ,02/13/2018 02:55 UTC,30.77,10.4,8.96,93.74,0.0,0.0,,,,,,1.0,,,,7.0,,KIGQ 130255Z AUTO 00000KT 7SM CLR M12/M13 A3077 RMK AO2  T11201128,,,,,,8.93,,N,30.1,30.68,,Clear
KIGQ,02/13/2018 03:15 UTC,30.76,5.0,3.02,91.26,0.0,0.0,,31.0,,,,1.0,,,,4.0,,KIGQ 130315Z AUTO 00000KT 4SM BR CLR M15/M16 A3076 RMK AO2  T11501161,,,,,,2.98,,N,30.09,30.71,,Mist
KIGQ,02/13/2018 03:35 UTC,30.75,8.78,7.7,95.23,0.0,0.0,,31.0,,,,1.0,,,,2.0,,KIGQ 130335Z AUTO 00000KT 2SM BR CLR M13/M13 A3075 RMK AO2  T11291135,,,,,,7.68,,N,30.08,30.67,,Mist
KIGQ,02/13/2018 03:55 UTC,30.77,8.42,6.98,93.68,0.0,0.0,,31.0,,,,75.0,,,,1.0,,KIGQ 130355Z AUTO 00000KT 1SM BR VV007 M13/M14 A3077 RMK AO2 VIS  1/2V5 T11311139,,,700.0,,,6.95,,N,30.1,30.69,,Mist
KIGQ,02/13/2018 04:15 UTC,30.77,9.32,8.06,94.47,0.0,0.0,,31.0,,,,1.0,,,,5.0,,KIGQ 130415Z AUTO 00000KT 5SM BR CLR M13/M13 A3077 RMK AO2  T11261133,,,,,,8.04,,N,30.1,30.68,,Mist
KIGQ,02/13/2018 04:35 UTC,30.75,6.08,4.1,91.3,0.0,0.0,,30.0,,,,23.0,,,,0.5,,KIGQ 130435Z AUTO 00000KT 1/2SM FZFG BKN002 M14/M15 A3075 RMK AO2  T11441155,,,200.0,,,4.06,,N,30.08,30.69,,Ice Fog
KIGQ,02/13/2018 04:55 UTC,30.75,4.1,1.94,90.46,0.0,0.0,,31.0,,,,75.0,,,,1.0,,KIGQ 130455Z AUTO 00000KT 1SM BR VV007 M15/M17 A3075 RMK AO2  T11551167,,,700.0,,,1.9,,N,30.08,30.71,,Mist
KIGQ,02/13/2018 05:15 UTC,30.75,6.44,4.46,91.32,0.0,0.0,,31.0,,,,75.0,,,,1.0,,KIGQ 130515Z AUTO 00000KT 1SM BR VV007 M14/M15 A3075 RMK AO2  T11421153,,,700.0,,,4.42,,N,30.08,30.69,,Mist
KIGQ,02/13/2018 05:35 UTC,30.75,7.52,5.54,91.36,0.0,0.0,,31.0,,,,1.0,,,,5.0,,KIGQ 130535Z AUTO 00000KT 5SM BR CLR M14/M15 A3075 RMK AO2  T11361147,,,,,,5.5,,N,30.08,30.68,,Mist
KIGQ,02/13/2018 05:55 UTC,30.74,4.1,1.76,89.7,0.0,0.0,,30.0,,,,24.0,,,,0.25,,KIGQ 130555Z AUTO 00000KT 1/4SM FZFG OVC002 M15/M17 A3074 RMK AO2  T11551168 11063 21161 410381161,20.66,3.02,200.0,25.16,3.02,1.72,,N,30.07,30.7,,Ice Fog
KIGQ,02/13/2018 06:15 UTC,30.74,1.76,-0.4,90.35,0.0,0.0,,31.0,,,,22.0,,,,2.5,,KIGQ 130615Z AUTO 00000KT 2 1/2SM BR SCT002 M17/M18 A3074 RMK AO2  T11681180,,,,,,-0.44,,N,30.07,30.71,,Mist
KIGQ,02/13/2018 06:35 UTC,30.74,5.72,4.1,92.82,0.0,0.0,,31.0,,,,23.0,,,,0.75,,KIGQ 130635Z AUTO 00000KT 3/4SM BR BKN002 M15/M15 A3074 RMK AO2  T11461155,,,200.0,,,4.07,,N,30.07,30.68,,Mist
KIGQ,02/13/2018 06:55 UTC,30.73,4.64,2.66,91.24,0.0,0.0,,30.0,,,,55.0,,,,0.5,,KIGQ 130655Z AUTO 00000KT 1/2SM FZFG VV005 M15/M16 A3073 RMK AO2  T11521163,,,500.0,,,2.62,,N,30.06,30.68,,Ice Fog
KIGQ,02/13/2018 07:15 UTC,30.73,6.98,5.36,92.86,0.0,0.0,,,,,,1.0,,,,10.0,,KIGQ 130715Z AUTO 00000KT 10SM CLR M14/M15 A3073 RMK AO2  T11391148,,,,,,5.33,,N,30.06,30.66,,Clear
KIGQ,02/13/2018 07:35 UTC,30.72,1.22,-1.3,88.79,0.0,0.0,,31.0,,,,55.0,,,,0.75,,KIGQ 130735Z AUTO 00000KT 3/4SM BR VV005 M17/M18 A3072 RMK AO2  T11711185,,,500.0,,,-1.35,,N,30.05,30.7,,Mist
KIGQ,02/13/2018 07:55 UTC,30.72,2.84,0.86,91.17,0.0,0.0,,,,,,1.0,,,,7.0,,KIGQ 130755Z AUTO 00000KT 7SM CLR M16/M17 A3072 RMK AO2  T11621173,,,,,,0.83,,N,30.05,30.68,,Clear
KIGQ,02/13/2018 08:15 UTC,30.71,7.16,5.36,92.1,0.0,0.0,,,,,,1.0,,,,10.0,,KIGQ 130815Z AUTO 00000KT 10SM CLR M14/M15 A3071 RMK AO2  T11381148,,,,,,5.33,,N,30.04,30.64,,Clear
KIGQ,02/13/2018 08:35 UTC,30.7,3.92,1.4,88.94,4.61,110.0,,,,,,1.0,,,,10.0,,KIGQ 130835Z AUTO 11004KT 10SM CLR M16/M17 A3070 RMK AO2  T11561170,,,,,,1.36,,ESE,30.03,30.66,,Clear
KIGQ,02/13/2018 08:55 UTC,30.68,11.12,10.22,96.06,6.91,100.0,,,,,,1.0,,,,10.0,,KIGQ 130855Z AUTO 10006KT 10SM CLR M12/M12 A3068 RMK AO2  T11161121,,,,,,10.2,,E,30.01,30.57,,Clear
KIGQ,02/13/2018 09:15 UTC,30.68,12.74,11.66,95.32,0.0,0.0,,,,,,1.0,,,,10.0,,KIGQ 130915Z AUTO 00000KT 10SM CLR M11/M11 A3068 RMK AO2  T11071113,,,,,,11.64,,N,30.01,30.56,,Clear
KIGQ,02/13/2018 09:35 UTC,30.69,10.58,9.32,94.5,0.0,0.0,,,,,,1.0,,,,10.0,,KIGQ 130935Z AUTO 00000KT 10SM CLR M12/M13 A3069 RMK AO2  T11191126,,,,,,9.3,,N,30.02,30.59,,Clear
KIGQ,02/13/2018 09:55 UTC,30.69,9.86,8.06,92.2,0.0,0.0,,,,,,1.0,,,,10.0,,KIGQ 130955Z AUTO 00000KT 10SM CLR M12/M13 A3069 RMK AO2  T11231133,,,,,,8.03,,N,30.02,30.6,,Clear
KIGQ,02/13/2018 10:15 UTC,30.7,8.78,7.16,92.92,0.0,0.0,,,,,,1.0,,,,10.0,,KIGQ 131015Z AUTO 00000KT 10SM CLR M13/M14 A3070 RMK AO2  T11291138,,,,,,7.13,,N,30.03,30.62,,Clear
KIGQ,02/13/2018 10:35 UTC,30.69,4.1,2.12,91.22,0.0,0.0,,,,,,1.0,,,,10.0,,KIGQ 131035Z AUTO 00000KT 10SM CLR M15/M17 A3069 RMK AO2  T11551166,,,,,,2.08,,N,30.02,30.65,,Clear
KIGQ,02/13/2018 10:55 UTC,30.69,8.42,6.98,93.68,0.0,0.0,,,,,,1.0,,,,10.0,,KIGQ 131055Z AUTO 00000KT 10SM CLR M13/M14 A3069 RMK AO2  T11311139,,,,,,6.95,,N,30.02,30.61,,Clear
KIGQ,02/13/2018 11:15 UTC,30.68,3.56,1.76,91.97,0.0,0.0,,31.0,,,,1.0,,,,5.0,,KIGQ 131115Z AUTO 00000KT 5SM BR CLR M16/M17 A3068 RMK AO2  T11581168,,,,,,1.73,,N,30.01,30.64,,Mist
KIGQ,02/13/2018 11:35 UTC,30.68,4.82,3.02,92.02,0.0,0.0,,,,,,1.0,,,,7.0,,KIGQ 131135Z AUTO 00000KT 7SM CLR M15/M16 A3068 RMK AO2  T11511161,,,,,,2.99,,N,30.01,30.63,,Clear
KIGQ,02/13/2018 11:55 UTC,30.68,6.08,4.46,92.83,0.0,0.0,,31.0,,,,1.0,,,,5.0,,KIGQ 131155Z AUTO 00000KT 5SM BR CLR M14/M15 A3068 RMK AO2  T11441153 11107 21171,12.74,1.22,,,,4.43,,N,30.01,30.62,,Mist
KIGQ,02/13/2018 12:15 UTC,30.69,6.44,4.46,91.32,0.0,0.0,,,,,,1.0,,,,10.0,,KIGQ 131215Z AUTO 00000KT 10SM CLR M14/M15 A3069 RMK AO2  T11421153,,,,,,4.42,,N,30.02,30.63,,Clear
KIGQ,02/13/2018 12:35 UTC,30.7,8.6,6.98,92.92,0.0,0.0,,,,,,1.0,,,,10.0,,KIGQ 131235Z AUTO 00000KT 10SM CLR M13/M14 A3070 RMK AO2  T11301139,,,,,,6.95,,N,30.03,30.62,,Clear
KIGQ,02/13/2018 12:55 UTC,30.68,7.7,5.72,91.37,0.0,0.0,,,,,,1.0,,,,10.0,,KIGQ 131255Z AUTO 00000KT 10SM CLR M13/M15 A3068 RMK AO2  T11351146,,,,,,5.68,,N,30.01,30.61,,Clear
KIGQ,02/13/2018 13:15 UTC,30.68,5.72,3.2,89.03,0.0,0.0,,,,,,1.0,,,,10.0,,KIGQ 131315Z AUTO 00000KT 10SM CLR M15/M16 A3068 RMK AO2  T11461160,,,,,,3.15,,N,30.01,30.63,,Clear
KIGQ,02/13/2018 13:35 UTC,30.7,7.7,6.62,95.21,0.0,0.0,,,,,,1.0,,,,10.0,,KIGQ 131335Z AUTO 00000KT 10SM CLR M13/M14 A3070 RMK AO2  T11351141,,,,,,6.6,,N,30.03,30.63,,Clear
KIGQ,02/13/2018 13:55 UTC,30.69,10.22,8.6,92.97,0.0,0.0,,,,,,1.0,,,,10.0,,KIGQ 131355Z AUTO 00000KT 10SM CLR M12/M13 A3069 RMK AO2  T11211130,,,,,,8.57,,N,30.02,30.6,,Clear
KIGQ,02/13/2018 14:15 UTC,30.68,11.48,10.22,94.53,0.0,0.0,,,,,,1203.0,,,,10.0,,KIGQ 131415Z AUTO 00000KT 10SM BKN120 M11/M12 A3068 RMK AO2  T11141121,,,12000.0,,,10.2,,N,30.01,30.57,,Mostly Cloudy
KIGQ,02/13/2018 14:35 UTC,30.66,15.62,14.9,96.9,4.61,110.0,,,,,,1104.0,,,,10.0,,KIGQ 131435Z AUTO 11004KT 10SM OVC110 M09/M09 A3066 RMK AO2  T10911095,,,11000.0,,,14.89,,ESE,29.99,30.51,,Overcast
KIGQ,02/13/2018 14:55 UTC,30.64,16.52,15.8,96.91,5.75,120.0,,,,,,1104.0,,,,10.0,,KIGQ 131455Z AUTO 12005KT 10SM OVC110 M09/M09 A3064 RMK AO2  T10861090,,,11000.0,,,15.79,,ESE,29.97,30.48,,Overcast
KIGQ,02/13/2018 15:15 UTC,30.61,17.24,16.7,97.69,8.05,130.0,,,,,,1104.0,,,,10.0,,KIGQ 131515Z AUTO 13007KT 10SM OVC110 M08/M08 A3061 RMK AO2  T10821085,,,11000.0,,,16.69,9.74,SE,29.94,30.44,,Overcast
KIGQ,02/13/2018 15:35 UTC,30.61,19.22,18.86,98.47,4.61,140.0,,,,,,1004.0,,,,10.0,,KIGQ 131535Z AUTO 14004KT 10SM OVC100 M07/M07 A3061 RMK AO2  T10711073,,,10000.0,,,18.85,,SE,29.94,30.41,,Overcast
KIGQ,02/13/2018 15:55 UTC,30.6,20.48,20.12,98.48,8.05,140.0,,,,,,1004.0,,,,10.0,,KIGQ 131555Z AUTO 14007KT 10SM OVC100 M06/M07 A3060 RMK AO2  T10641066,,,10000.0,,,20.11,13.55,SE,29.93,30.38,,Overcast
KIGQ,02/13/2018 16:15 UTC,30.58,22.1,18.68,86.43,8.05,140.0,,,,,,1003.0,,,,10.0,,KIGQ 131615Z AUTO 14007KT 10SM BKN100 M05/M07 A3058 RMK AO2  T10551074,,,10000.0,,,18.62,15.45,SE,29.92,30.38,,Mostly Cloudy
KIGQ,02/13/2018 16:35 UTC,30.58,25.52,14.36,62.06,8.05,130.0,,,,,,1003.0,,,,10.0,,KIGQ 131635Z AUTO 13007KT 10SM BKN100 M04/M10 A3058 RMK AO2  T10361098,,,10000.0,,,14.19,19.46,SE,29.92,30.39,,Mostly Cloudy
KIGQ,02/13/2018 16:55 UTC,30.58,26.6,14.72,60.29,5.75,160.0,,,,,,1003.0,,,,10.0,,KIGQ 131655Z AUTO 16005KT 10SM BKN100 M03/M10 A3058 RMK AO2  T10301096,,,10000.0,,,14.54,,SSE,29.92,30.39,,Mostly Cloudy
KIGQ,02/13/2018 17:15 UTC,30.56,27.32,13.28,54.93,6.91,150.0,,,,,,1002.0,,,,10.0,,KIGQ 131715Z AUTO 15006KT 10SM SCT100 M03/M10 A3056 RMK AO2  T10261104,,,,,,13.08,,SSE,29.9,30.37,,Partly Cloudy
KIGQ,02/13/2018 17:35 UTC,30.55,27.14,13.64,56.22,3.44,170.0,,,,,,1.0,,,,10.0,,KIGQ 131735Z AUTO 17003KT 10SM CLR M03/M10 A3055 RMK AO2  T10271102,,,,,,13.44,,S,29.89,30.36,,Clear
KIGQ,02/13/2018 17:55 UTC,30.54,28.76,14.0,53.44,3.44,150.0,,,,,,1102.0,,,,10.0,,KIGQ 131755Z AUTO 15003KT 10SM SCT110 M02/M10 A3054 RMK AO2  T10181100 11018 21151,28.76,4.82,,,,13.79,,SSE,29.88,30.34,,Partly Cloudy
KIGQ,02/13/2018 18:15 UTC,30.52,29.12,13.46,51.42,0.0,0.0,,,,,,1102.0,,,,10.0,,KIGQ 131815Z AUTO 00000KT 10SM SCT110 M02/M10 A3052 RMK AO2  T10161103,,,,,,13.24,,N,29.86,30.32,,Partly Cloudy
KIGQ,02/13/2018 18:35 UTC,30.5,31.1,15.8,52.56,3.44,180.0,,,,,,1.0,,,,10.0,,KIGQ 131835Z AUTO 18003KT 10SM CLR 00/M09 A3050 RMK AO2  T10051090,,,,,,15.59,,S,29.84,30.28,,Clear
KIGQ,02/13/2018 18:55 UTC,30.49,32.0,16.52,52.3,0.0,0.0,,,,,,1202.0,,,,10.0,,KIGQ 131855Z AUTO 00000KT 10SM SCT120 00/M09 A3049 RMK AO2  T00001086,,,,,,16.31,,N,29.83,30.26,,Partly Cloudy
KIGQ,02/13/2018 19:15 UTC,30.46,32.0,17.24,53.95,4.61,190.0,,,,,,1103.0,,,,10.0,,KIGQ 131915Z AUTO 19004KT 10SM BKN110 00/M08 A3046 RMK AO2  T00001082,,,11000.0,,,17.03,,S,29.8,30.22,,Mostly Cloudy
KIGQ,02/13/2018 19:35 UTC,30.46,31.64,17.06,54.32,6.91,200.0,,,,,,1002.0,1202.0,,,10.0,,KIGQ 131935Z AUTO 20006KT 10SM SCT100 SCT120 00/M08 A3046 RMK AO2  T10021083,,,,,,16.86,,SSW,29.8,30.22,,Partly Cloudy
KIGQ,02/13/2018 19:55 UTC,30.43,31.1,17.96,57.72,6.91,190.0,,,,,,1102.0,,,,10.0,,KIGQ 131955Z AUTO 19006KT 10SM SCT110 00/M08 A3043 RMK AO2  T10051078,,,,,,17.77,,S,29.77,30.19,,Partly Cloudy
KIGQ,02/13/2018 20:15 UTC,30.41,31.1,19.76,62.36,5.75,150.0,,,,,,1004.0,,,,10.0,,KIGQ 132015Z AUTO 15005KT 10SM OVC100 00/M07 A3041 RMK AO2  T10051068,,,10000.0,,,19.59,,SSE,29.75,30.15,,Overcast
KIGQ,02/13/2018 20:35 UTC,30.41,31.82,18.32,56.94,4.61,150.0,,,,,,1004.0,,,,10.0,,KIGQ 132035Z AUTO 15004KT 10SM OVC100 00/M08 A3041 RMK AO2  T10011076,,,10000.0,,,18.13,,SSE,29.75,30.16,,Overcast
KIGQ,02/13/2018 20:55 UTC,30.41,31.82,18.86,58.28,5.75,130.0,,,,,,1004.0,,,,10.0,,KIGQ 132055Z AUTO 13005KT 10SM OVC100 00/M07 A3041 RMK AO2  T10011073,,,10000.0,,,18.67,,SE,29.75,30.15,,Overcast
KIGQ,02/13/2018 21:15 UTC,30.4,31.82,19.22,59.19,8.05,150.0,,,,,,1004.0,,,,10.0,,KIGQ 132115Z AUTO 15007KT 10SM OVC100 00/M07 A3040 RMK AO2  T10011071,,,10000.0,,,19.04,26.86,SSE,29.74,30.14,,Overcast
KIGQ,02/13/2018 21:35 UTC,30.39,31.82,20.12,61.51,5.75,140.0,,,,,,1003.0,,,,10.0,,KIGQ 132135Z AUTO 14005KT 10SM BKN100 00/M07 A3039 RMK AO2  T10011066,,,10000.0,,,19.95,,SE,29.73,30.12,,Mostly Cloudy
KIGQ,02/13/2018 21:55 UTC,30.38,31.46,20.12,62.41,4.61,140.0,,,,,,1102.0,,,,10.0,,KIGQ 132155Z AUTO 14004KT 10SM SCT110 00/M07 A3038 RMK AO2  T10031066,,,,,,19.95,,SE,29.72,30.11,,Partly Cloudy
KIGQ,02/13/2018 22:15 UTC,30.37,31.28,20.3,63.36,4.61,140.0,,,,,,1.0,,,,10.0,,KIGQ 132215Z AUTO 14004KT 10SM CLR 00/M06 A3037 RMK AO2  T10041065,,,,,,20.14,,SE,29.71,30.1,,Clear
KIGQ,02/13/2018 22:35 UTC,30.36,30.92,20.84,65.78,4.61,140.0,,,,,,1.0,,,,10.0,,KIGQ 132235Z AUTO 14004KT 10SM CLR M01/M06 A3036 RMK AO2  T10061062,,,,,,20.69,,SE,29.7,30.09,,Clear
KIGQ,02/13/2018 22:55 UTC,30.36,30.92,21.2,66.8,4.61,150.0,,,,,,1.0,,,,10.0,,KIGQ 132255Z AUTO 15004KT 10SM CLR M01/M06 A3036 RMK AO2  T10061060,,,,,,21.05,,SSE,29.7,30.08,,Clear
KIGQ,02/13/2018 23:15 UTC,30.34,29.84,21.02,69.27,0.0,0.0,,,,,,1.0,,,,10.0,,KIGQ 132315Z AUTO 00000KT 10SM CLR M01/M06 A3034 RMK AO2  T10121061,,,,,,20.88,,N,29.68,30.07,,Clear
KIGQ,02/13/2018 23:35 UTC,30.34,27.68,20.3,73.39,3.44,160.0,,,,,,1.0,,,,10.0,,KIGQ 132335Z AUTO 16003KT 10SM CLR M02/M06 A3034 RMK AO2  T10241065,,,,,,20.18,,SSE,29.68,30.09,,Clear
KIGQ,02/13/2018 23:55 UTC,30.34,26.06,19.94,77.28,0.0,0.0,,,,,,1.0,,,,10.0,,KIGQ 132355Z AUTO 00000KT 10SM CLR M03/M07 A3034 RMK AO2 T10331067  10000 21033,32.0,26.06,,,,19.84,,N,29.68,30.1,,Clear
KIGQ,02/14/2018 00:15 UTC,30.34,23.36,19.58,85.18,0.0,0.0,,,,,,1.0,,,,10.0,,KIGQ 140015Z AUTO 00000KT 10SM CLR M05/M07 A3034 RMK AO2  T10481069,,,,,,19.51,,N,29.68,30.12,,Clear
KIGQ,02/14/2018 00:35 UTC,30.34,21.92,17.78,83.78,4.61,190.0,,,,,,1.0,,,,10.0,,KIGQ 140035Z AUTO 19004KT 10SM CLR M06/M08 A3034 RMK AO2  T10561079,,,,,,17.71,,S,29.68,30.14,,Clear
KIGQ,02/14/2018 00:55 UTC,30.33,23.36,19.58,85.18,3.44,180.0,,,,,,1.0,,,,10.0,,KIGQ 140055Z AUTO 18003KT 10SM CLR M05/M07 A3033 RMK AO2  T10481069,,,,,,19.51,,S,29.67,30.11,,Clear
KIGQ,02/14/2018 01:15 UTC,30.33,23.54,19.94,85.85,0.0,0.0,,,,,,1.0,,,,10.0,,KIGQ 140115Z AUTO 00000KT 10SM CLR M05/M07 A3033 RMK AO2  T10471067,,,,,,19.88,,N,29.67,30.1,,Clear
KIGQ,02/14/2018 01:35 UTC,30.32,23.36,19.76,85.84,3.44,160.0,,,,,,1.0,,,,10.0,,KIGQ 140135Z AUTO 16003KT 10SM CLR M05/M07 A3032 RMK AO2  T10481068,,,,,,19.7,,SSE,29.66,30.1,,Clear
KIGQ,02/14/2018 01:55 UTC,30.31,21.2,17.42,85.04,4.61,160.0,,,,,,1.0,,,,10.0,,KIGQ 140155Z AUTO 16004KT 10SM CLR M06/M08 A3031 RMK AO2  T10601081,,,,,,17.35,,SSE,29.65,30.12,,Clear
KIGQ,02/14/2018 02:15 UTC,30.3,22.82,18.32,82.55,4.61,170.0,,,,,,1.0,,,,10.0,,KIGQ 140215Z AUTO 17004KT 10SM CLR M05/M08 A3030 RMK AO2  T10511076,,,,,,18.24,,S,29.64,30.09,,Clear
KIGQ,02/14/2018 02:35 UTC,30.3,23.0,18.5,82.57,4.61,170.0,,,,,,1.0,,,,10.0,,KIGQ 140235Z AUTO 17004KT 10SM CLR M05/M07 A3030 RMK AO2  T10501075,,,,,,18.42,,S,29.64,30.09,,Clear
KIGQ,02/14/2018 02:55 UTC,30.3,22.82,19.04,85.15,3.44,180.0,,,,,,1.0,,,,10.0,,KIGQ 140255Z AUTO 18003KT 10SM CLR M05/M07 A3030 RMK AO2  T10511072,,,,,,18.97,,S,29.64,30.08,,Clear
KIGQ,02/14/2018 03:15 UTC,30.29,20.84,17.6,87.03,3.44,180.0,,,,,,1.0,,,,10.0,,KIGQ 140315Z AUTO 18003KT 10SM CLR M06/M08 A3029 RMK AO2  T10621080,,,,,,17.54,,S,29.63,30.1,,Clear
KIGQ,02/14/2018 03:35 UTC,30.29,22.82,19.4,86.47,3.44,190.0,,,,,,1.0,,,,10.0,,KIGQ 140335Z AUTO 19003KT 10SM CLR M05/M07 A3029 RMK AO2  T10511070,,,,,,19.34,,S,29.63,30.07,,Clear
KIGQ,02/14/2018 03:55 UTC,30.28,23.36,20.48,88.52,4.61,200.0,,,,,,1.0,,,,10.0,,KIGQ 140355Z AUTO 20004KT 10SM CLR M05/M06 A3028 RMK AO2  T10481064,,,,,,20.43,,SSW,29.62,30.05,,Clear
KIGQ,02/14/2018 04:15 UTC,30.26,20.3,18.32,91.86,8.05,200.0,,,,,,1.0,,,,10.0,,KIGQ 140415Z AUTO 20007KT 10SM CLR M06/M08 A3026 RMK AO2  T10651076,,,,,,18.28,13.33,SSW,29.6,30.06,,Clear
KIGQ,02/14/2018 04:35 UTC,30.26,25.52,23.18,90.67,9.22,200.0,,,,,,1.0,,,,10.0,,KIGQ 140435Z AUTO 20008KT 10SM CLR M04/M05 A3026 RMK AO2  T10361049,,,,,,23.14,18.76,SSW,29.6,29.99,,Clear
KIGQ,02/14/2018 04:55 UTC,30.26,28.04,25.34,89.43,10.36,200.0,,,,,,1.0,,,,10.0,,KIGQ 140455Z AUTO 20009KT 10SM CLR M02/M04 A3026 RMK AO2  T10221037,,,,,,25.29,21.16,SSW,29.6,29.95,,Clear
KIGQ,02/14/2018 05:15 UTC,30.26,28.76,25.7,88.13,9.22,210.0,,,,,,1.0,,,,10.0,,KIGQ 140515Z AUTO 21008KT 10SM CLR M02/M03 A3026 RMK AO2  T10181035,,,,,,25.65,22.6,SSW,29.6,29.95,,Clear
KIGQ,02/14/2018 05:35 UTC,30.24,29.12,26.42,89.48,10.36,200.0,,,,,,1.0,,,,10.0,,KIGQ 140535Z AUTO 20009KT 10SM CLR M02/M03 A3024 RMK AO2  T10161031,,,,,,26.37,22.45,SSW,29.58,29.91,,Clear
KIGQ,02/14/2018 05:55 UTC,30.24,29.12,26.78,90.82,10.36,210.0,,,,,,1.0,,,,10.0,,KIGQ 140555Z AUTO 21009KT 10SM CLR M02/M03 A3024 RMK AO2 T10161029  11016 21069 400001171,29.12,19.58,,32.0,1.22,26.74,22.45,SSW,29.58,29.91,,Clear
KIGQ,02/14/2018 06:15 UTC,30.25,28.58,26.6,92.16,6.91,220.0,,,,,,1.0,,,,7.0,,KIGQ 140615Z AUTO 22006KT 7SM CLR M02/M03 A3025 RMK AO2  T10191030,,,,,,26.56,,SW,29.59,29.93,,Clear
KIGQ,02/14/2018 06:35 UTC,30.24,27.68,26.24,94.22,5.75,220.0,,,,,,1.0,,,,7.0,,KIGQ 140635Z AUTO 22005KT 7SM CLR M02/M03 A3024 RMK AO2  T10241032,,,,,,26.21,,SW,29.58,29.93,,Clear
KIGQ,02/14/2018 06:55 UTC,30.24,28.76,27.32,94.25,9.22,210.0,,,,,,1.0,,,,7.0,,KIGQ 140655Z AUTO 21008KT 7SM CLR M02/M03 A3024 RMK AO2  T10181026,,,,,,27.29,22.6,SSW,29.58,29.91,,Clear
KIGQ,02/14/2018 07:15 UTC,30.23,28.22,26.6,93.54,6.91,210.0,,,,,,1.0,,,,7.0,,KIGQ 140715Z AUTO 21006KT 7SM CLR M02/M03 A3023 RMK AO2  T10211030,,,,,,26.57,,SSW,29.57,29.91,,Clear
KIGQ,02/14/2018 07:35 UTC,30.23,27.32,26.06,94.92,5.75,230.0,,,,,,1.0,,,,7.0,,KIGQ 140735Z AUTO 23005KT 7SM CLR M03/M03 A3023 RMK AO2  T10261033,,,,,,26.04,,SW,29.57,29.92,,Clear
KIGQ,02/14/2018 07:55 UTC,30.22,27.5,26.6,96.35,4.61,230.0,,,,,,1.0,,,,7.0,,KIGQ 140755Z AUTO 23004KT 7SM CLR M02/M03 A3022 RMK AO2  T10251030,,,,,,26.58,,SW,29.56,29.9,,Clear
KIGQ,02/14/2018 08:15 UTC,30.22,25.88,24.98,96.32,4.61,220.0,,31.0,,,,1.0,,,,5.0,,KIGQ 140815Z AUTO 22004KT 5SM BR CLR M03/M04 A3022 RMK AO2  T10341039,,,,,,24.96,,SW,29.56,29.93,,Mist
KIGQ,02/14/2018 08:35 UTC,30.22,25.34,25.16,99.25,4.61,220.0,,31.0,,,,1.0,,,,5.0,,KIGQ 140835Z AUTO 22004KT 5SM BR CLR M04/M04 A3022 RMK AO2  T10371038,,,,,,25.16,,SW,29.56,29.93,,Mist
KIGQ,02/14/2018 08:55 UTC,30.22,25.52,25.16,98.51,4.61,210.0,,31.0,,,,1.0,,,,5.0,,KIGQ 140855Z AUTO 21004KT 5SM BR CLR M04/M04 A3022 RMK AO2  T10361038,,,,,,25.15,,SSW,29.56,29.93,,Mist
KIGQ,02/14/2018 09:15 UTC,30.21,24.8,24.8,100.0,5.75,210.0,,31.0,,,,1.0,,,,5.0,,KIGQ 140915Z AUTO 21005KT 5SM BR CLR M04/M04 A3021 RMK AO2  T10401040,,,,,,24.8,,SSW,29.55,29.93,,Mist
KIGQ,02/14/2018 09:35 UTC,30.2,25.34,25.16,99.25,6.91,210.0,,31.0,,,,1.0,,,,5.0,,KIGQ 140935Z AUTO 21006KT 5SM BR CLR M04/M04 A3020 RMK AO2  T10371038,,,,,,25.16,,SSW,29.54,29.91,,Mist
KIGQ,02/14/2018 09:55 UTC,30.19,25.7,25.52,99.25,8.05,200.0,,31.0,,,,1.0,,,,5.0,,KIGQ 140955Z AUTO 20007KT 5SM BR CLR M03/M04 A3019 RMK AO2  T10351036,,,,,,25.52,19.68,SSW,29.53,29.89,,Mist
KIGQ,02/14/2018 10:15 UTC,30.19,25.52,25.52,100.0,3.44,200.0,,31.0,,,,1.0,,,,3.0,,KIGQ 141015Z AUTO 20003KT 3SM BR CLR M04/M04 A3019 RMK AO2  T10361036,,,,,,25.52,,SSW,29.53,29.9,,Mist
KIGQ,02/14/2018 10:35 UTC,30.18,25.16,25.16,100.0,3.44,220.0,,31.0,,,,1.0,,,,3.0,,KIGQ 141035Z AUTO 22003KT 3SM BR CLR M04/M04 A3018 RMK AO2  T10381038,,,,,,25.16,,SW,29.52,29.89,,Mist
KIGQ,02/14/2018 10:55 UTC,30.17,24.62,24.62,100.0,3.44,200.0,,31.0,,,,1.0,,,,3.0,,KIGQ 141055Z AUTO 20003KT 3SM BR CLR M04/M04 A3017 RMK AO2  T10411041,,,,,,24.62,,SSW,29.51,29.89,,Mist
KIGQ,02/14/2018 11:15 UTC,30.17,21.92,21.92,100.0,4.61,200.0,,31.0,,,,1.0,,,,2.0,,KIGQ 141115Z AUTO 20004KT 2SM BR CLR M06/M06 A3017 RMK AO2  T10561056,,,,,,21.92,,SSW,29.51,29.93,,Mist
KIGQ,02/14/2018 11:35 UTC,30.17,23.54,23.54,100.0,5.75,200.0,,31.0,,,,1.0,,,,2.5,,KIGQ 141135Z AUTO 20005KT 2 1/2SM BR CLR M05/M05 A3017 RMK AO2  T10471047,,,,,,23.54,,SSW,29.51,29.91,,Mist
KIGQ,02/14/2018 11:55 UTC,30.17,25.34,25.34,100.0,5.75,200.0,,31.0,,,,1.0,,,,3.0,,KIGQ 141155Z AUTO 20005KT 3SM BR CLR M04/M04 A3017 RMK AO2  T10371037 11015 21057,29.3,21.74,,,,25.34,,SSW,29.51,29.88,,Mist
KIGQ,02/14/2018 12:15 UTC,30.16,24.98,24.98,100.0,4.61,200.0,,31.0,,,,1.0,,,,3.0,,KIGQ 141215Z AUTO 20004KT 3SM BR CLR M04/M04 A3016 RMK AO2  T10391039,,,,,,24.98,,SSW,29.5,29.87,,Mist
KIGQ,02/14/2018 12:35 UTC,30.16,24.44,24.44,100.0,6.91,200.0,,31.0,,,,1.0,,,,3.0,,KIGQ 141235Z AUTO 20006KT 3SM BR CLR M04/M04 A3016 RMK AO2  T10421042,,,,,,24.44,,SSW,29.5,29.88,,Mist
KIGQ,02/14/2018 12:55 UTC,30.17,24.8,24.8,100.0,5.75,200.0,,31.0,,,,1.0,,,,2.5,,KIGQ 141255Z AUTO 20005KT 2 1/2SM BR CLR M04/M04 A3017 RMK AO2  T10401040,,,,,,24.8,,SSW,29.51,29.89,,Mist
KIGQ,02/14/2018 13:15 UTC,30.17,26.06,26.06,100.0,6.91,200.0,,31.0,,,,1.0,,,,3.0,,KIGQ 141315Z AUTO 20006KT 3SM BR CLR M03/M03 A3017 RMK AO2  T10331033,,,,,,26.06,,SSW,29.51,29.87,,Mist
KIGQ,02/14/2018 13:35 UTC,30.16,27.14,27.14,100.0,6.91,200.0,,31.0,,,,1.0,,,,4.0,,KIGQ 141335Z AUTO 20006KT 4SM BR CLR M03/M03 A3016 RMK AO2  T10271027,,,,,,27.14,,SSW,29.5,29.84,,Mist
KIGQ,02/14/2018 13:55 UTC,30.16,28.04,28.04,100.0,6.91,210.0,,31.0,,,,1.0,,,,4.0,,KIGQ 141355Z AUTO 21006KT 4SM BR CLR M02/M02 A3016 RMK AO2  T10221022,,,,,,28.04,,SSW,29.5,29.82,,Mist
KIGQ,02/14/2018 14:15 UTC,30.15,29.84,29.12,97.1,8.05,210.0,,31.0,,,,1.0,,,,5.0,,KIGQ 141415Z AUTO 21007KT 5SM BR CLR M01/M02 A3015 RMK AO2  T10121016,,,,,,29.11,24.54,SSW,29.49,29.78,,Mist
KIGQ,02/14/2018 14:35 UTC,30.15,31.1,29.3,92.94,6.91,200.0,,31.0,,,,1.0,,,,5.0,,KIGQ 141435Z AUTO 20006KT 5SM BR CLR 00/M01 A3015 RMK AO2  T10051015,,,,,,29.27,,SSW,29.49,29.77,,Mist
KIGQ,02/14/2018 14:55 UTC,30.14,31.46,29.12,90.92,4.61,190.0,,,,,,1.0,,,,7.0,,KIGQ 141455Z AUTO 19004KT 7SM CLR 00/M02 A3014 RMK AO2  T10031016,,,,,,29.08,,S,29.48,29.76,,Clear
KIGQ,02/14/2018 15:15 UTC,30.14,32.0,29.84,91.61,5.75,190.0,,31.0,,,,1.0,,,,5.0,,KIGQ 141515Z AUTO 19005KT 5SM BR CLR 00/M01 A3014 RMK AO2  T00001012,,,,,,29.8,,S,29.48,29.75,,Mist
KIGQ,02/14/2018 15:35 UTC,30.14,33.8,31.1,89.7,6.91,200.0,,,,,,1.0,,,,7.0,,KIGQ 141535Z AUTO 20006KT 7SM CLR 01/00 A3014 RMK AO2  T00101005,,,,,,31.06,,SSW,29.48,29.72,,Clear
KIGQ,02/14/2018 15:55 UTC,30.13,36.32,32.0,84.15,10.36,200.0,,,,,,1.0,,,,7.0,,KIGQ 141555Z AUTO 20009KT 7SM CLR 02/00 A3013 RMK AO2  T00240000,,,,,,31.93,31.07,SSW,29.47,29.68,,Clear
KIGQ,02/14/2018 16:15 UTC,30.12,36.68,32.9,86.02,8.05,200.0,,,,,,1.0,,,,7.0,,KIGQ 141615Z AUTO 20007KT 7SM CLR 03/01 A3012 RMK AO2  T00260005,,,,,,32.84,32.57,SSW,29.47,29.66,,Clear
KIGQ,02/14/2018 16:35 UTC,30.12,37.4,33.26,84.83,8.05,200.0,,,,,,1.0,,,,7.0,,KIGQ 141635Z AUTO 20007KT 7SM CLR 03/01 A3012 RMK AO2  T00300007,,,,,,33.2,33.42,SSW,29.47,29.65,,Clear
KIGQ,02/14/2018 16:55 UTC,30.1,38.48,33.98,83.69,6.91,220.0,,,,,,1.0,,,,7.0,,KIGQ 141655Z AUTO 22006KT 7SM CLR 04/01 A3010 RMK AO2  T00360011,,,,,,33.91,,SW,29.45,29.61,,Clear
KIGQ,02/14/2018 17:15 UTC,30.1,39.2,34.7,83.74,8.05,210.0,,,,,,1.0,,,,7.0,,KIGQ 141715Z AUTO 21007KT 7SM CLR 04/02 A3010 RMK AO2  T00400015,,,,,,34.64,35.53,SSW,29.45,29.59,,Clear
KIGQ,02/14/2018 17:35 UTC,30.09,39.74,35.06,83.18,9.22,210.0,,,,,,1.0,,,,7.0,,KIGQ 141735Z AUTO 21008KT 7SM CLR 04/02 A3009 RMK AO2  T00430017,,,,,,34.99,35.63,SSW,29.44,29.57,,Clear
KIGQ,02/14/2018 17:55 UTC,30.07,40.28,35.42,82.62,9.22,210.0,,,,,,1.0,,,,7.0,,KIGQ 141755Z AUTO 21008KT 7SM CLR 05/02 A3007 RMK AO2 T00460019  10046 21045,40.28,23.9,,,,35.35,36.28,SSW,29.42,29.54,,Clear
KIGQ,02/14/2018 18:15 UTC,30.06,39.2,35.24,85.56,10.36,200.0,,,,,,1.0,,,,7.0,,KIGQ 141815Z AUTO 20009KT 7SM CLR 04/02 A3006 RMK AO2  T00400018,,,,,,35.18,34.52,SSW,29.41,29.54,,Clear
KIGQ,02/14/2018 18:35 UTC,30.05,39.56,35.78,86.19,12.66,200.0,,,,,,1.0,,,,7.0,,KIGQ 141835Z AUTO 20011KT 7SM CLR 04/02 A3005 RMK AO2  T00420021,,,,,,35.72,34.12,SSW,29.4,29.52,,Clear
KIGQ,02/14/2018 18:55 UTC,30.04,39.56,36.5,88.68,13.8,200.0,,31.0,,,,1.0,,,,5.0,,KIGQ 141855Z AUTO 20012KT 5SM BR CLR 04/03 A3004 RMK AO2  T00420025,,,,,,36.45,33.76,SSW,29.39,29.49,,Mist
KIGQ,02/14/2018 19:15 UTC,30.03,39.2,36.5,89.94,11.5,210.0,,31.0,,,,323.0,,,,5.0,,KIGQ 141915Z AUTO 21010KT 5SM BR BKN032 04/03 A3003 RMK AO2  T00400025,,,3200.0,,,36.46,34.09,SSW,29.38,29.49,,Mist
KIGQ,02/14/2018 19:35 UTC,30.01,39.38,37.04,91.23,12.66,210.0,,31.0,,,,102.0,324.0,,,5.0,,KIGQ 141935Z AUTO 21011KT 5SM BR SCT010 OVC032 04/03 A3001 RMK AO2  T00410028,,,3200.0,,,37.0,33.91,SSW,29.36,29.45,,Mist
KIGQ,02/14/2018 19:55 UTC,30.0,39.02,36.86,91.87,9.22,210.0,,31.0,,,,102.0,274.0,,,5.0,,KIGQ 141955Z AUTO 21008KT 5SM BR SCT010 OVC027 04/03 A3000 RMK AO2  T00390027,,,2700.0,,,36.83,34.78,SSW,29.35,29.45,,Mist
KIGQ,02/14/2018 20:15 UTC,29.99,38.84,37.22,93.84,10.36,200.0,,31.0,,,,83.0,274.0,,,4.0,,KIGQ 142015Z AUTO 20009KT 4SM BR BKN008 OVC027 04/03 A2999 RMK AO2  T00380029,,,800.0,,,37.2,34.09,SSW,29.34,29.44,,Mist
KIGQ,02/14/2018 20:35 UTC,29.98,37.58,36.5,95.83,8.05,190.0,,31.0,,,,64.0,,,,3.0,,KIGQ 142035Z AUTO 19007KT 3SM BR OVC006 03/03 A2998 RMK AO2  T00310025,,,600.0,,,36.48,33.63,S,29.33,29.45,,Mist
KIGQ,02/14/2018 20:55 UTC,29.97,37.04,36.5,97.89,8.05,200.0,,31.0,,,,64.0,,,,2.5,,KIGQ 142055Z AUTO 20007KT 2 1/2SM BR OVC006 03/03 A2997 RMK AO2  T00280025,,,600.0,,,36.49,33.0,SSW,29.32,29.44,,Mist
KIGQ,02/14/2018 21:15 UTC,29.97,36.68,36.5,99.29,8.05,190.0,,31.0,,,,44.0,,,,1.75,,KIGQ 142115Z AUTO 19007KT 1 3/4SM BR OVC004 03/03 A2997 RMK AO2  T00260025,,,400.0,,,36.5,32.57,S,29.32,29.44,,Mist
KIGQ,02/14/2018 21:35 UTC,29.96,36.68,36.68,100.0,6.91,190.0,,31.0,,,,44.0,,,,1.5,,KIGQ 142135Z AUTO 19006KT 1 1/2SM BR OVC004 03/03 A2996 RMK AO2  T00260026,,,400.0,,,36.68,,S,29.31,29.43,,Mist
KIGQ,02/14/2018 21:55 UTC,29.96,36.5,36.5,100.0,8.05,200.0,,31.0,,,,44.0,,,,1.25,,KIGQ 142155Z AUTO 20007KT 1 1/4SM BR OVC004 03/03 A2996 RMK AO2  T00250025,,,400.0,,,36.5,32.36,SSW,29.31,29.44,,Mist
KIGQ,02/14/2018 22:15 UTC,29.95,36.86,36.86,100.0,6.91,190.0,,31.0,,,,44.0,,,,1.5,,KIGQ 142215Z AUTO 19006KT 1 1/2SM BR OVC004 03/03 A2995 RMK AO2  T00270027,,,400.0,,,36.86,,S,29.3,29.42,,Mist
KIGQ,02/14/2018 22:35 UTC,29.94,37.04,37.04,100.0,9.22,200.0,,31.0,,,,44.0,,,,1.5,,KIGQ 142235Z AUTO 20008KT 1 1/2SM BR OVC004 03/03 A2994 RMK AO2  T00280028,,,400.0,,,37.04,32.43,SSW,29.29,29.4,,Mist
KIGQ,02/14/2018 22:55 UTC,29.94,36.68,36.68,100.0,8.05,190.0,,31.0,,,,44.0,,,,1.0,,KIGQ 142255Z AUTO 19007KT 1SM BR OVC004 03/03 A2994 RMK AO2  T00260026,,,400.0,,,36.68,32.57,S,29.29,29.41,,Mist
KIGQ,02/14/2018 23:15 UTC,29.93,36.68,36.68,100.0,8.05,190.0,,9.0,,,,24.0,,,,0.25,,KIGQ 142315Z AUTO 19007KT 1/4SM FG OVC002 03/03 A2993 RMK AO2  T00260026,,,200.0,,,36.68,32.57,S,29.28,29.4,,Fog
KIGQ,02/14/2018 23:35 UTC,29.92,37.04,37.04,100.0,6.91,180.0,,9.0,,,,24.0,,,,0.5,,KIGQ 142335Z AUTO 18006KT 1/2SM FG OVC002 03/03 A2992 RMK AO2  T00280028,,,200.0,,,37.04,,S,29.27,29.38,,Fog
KIGQ,02/14/2018 23:55 UTC,29.91,36.5,36.5,100.0,8.05,180.0,,9.0,,,,24.0,,,,0.25,,KIGQ 142355Z AUTO 18007KT 1/4SM FG OVC002 03/03 A2991 RMK AO2  T00250025 10046 20025,40.28,36.5,200.0,,,36.5,32.36,S,29.26,29.39,,Fog
KIGQ,02/15/2018 00:15 UTC,29.91,37.04,37.04,100.0,6.91,180.0,,9.0,,,,24.0,,,,0.25,,KIGQ 150015Z AUTO 18006KT 1/4SM FG OVC002 03/03 A2991 RMK AO2  T00280028,,,200.0,,,37.04,,S,29.26,29.37,,Fog
KIGQ,02/15/2018 00:35 UTC,29.91,37.4,37.4,100.0,6.91,200.0,,17.0,,,,24.0,,,,0.25,,KIGQ 150035Z AUTO 20006KT 1/4SM -DZ OVC002 03/03 A2991 RMK AO2  T00300030,,,200.0,,,37.4,,SSW,29.26,29.36,,Light Drizzle
KIGQ,02/15/2018 00:55 UTC,29.9,38.3,38.3,100.0,6.91,210.0,,17.0,,,,24.0,,,,0.5,,KIGQ 150055Z AUTO 21006KT 1/2SM -DZ OVC002 04/04 A2990 RMK AO2  T00350035,,,200.0,,,38.3,,SSW,29.25,29.33,,Light Drizzle
KIGQ,02/15/2018 01:15 UTC,29.9,37.58,37.58,100.0,5.75,220.0,,9.0,,,,24.0,,,,0.25,,KIGQ 150115Z AUTO 22005KT 1/4SM FG OVC002 03/03 A2990 RMK AO2  T00310031,,,200.0,,,37.58,,SW,29.25,29.35,,Fog
KIGQ,02/15/2018 01:35 UTC,29.9,38.3,38.3,100.0,10.36,210.0,,9.0,,,,24.0,,,,0.25,,KIGQ 150135Z AUTO 21009KT 1/4SM FG OVC002 04/04 A2990 RMK AO2  T00350035,,,200.0,,,38.3,33.44,SSW,29.25,29.33,,Fog
KIGQ,02/15/2018 01:55 UTC,29.89,39.02,39.02,100.0,10.36,210.0,,9.0,,,,24.0,,,,0.5,,KIGQ 150155Z AUTO 21009KT 1/2SM FG OVC002 04/04 A2989 RMK AO2  T00390039,,,200.0,,,39.02,34.31,SSW,29.24,29.29,,Fog
KIGQ,02/15/2018 02:15 UTC,29.88,39.02,39.02,100.0,11.5,210.0,,31.0,,,,24.0,,,,2.0,,KIGQ 150215Z AUTO 21010KT 2SM BR OVC002 04/04 A2988 RMK AO2  T00390039,,,200.0,,,39.02,33.87,SSW,29.23,29.28,,Mist
KIGQ,02/15/2018 02:35 UTC,29.88,38.84,38.84,100.0,9.22,210.0,,9.0,,,,24.0,,,,0.5,,KIGQ 150235Z AUTO 21008KT 1/2SM FG OVC002 04/04 A2988 RMK AO2  T00380038,,,200.0,,,38.84,34.57,SSW,29.23,29.29,,Fog
KIGQ,02/15/2018 02:55 UTC,29.87,38.3,38.3,100.0,8.05,220.0,,9.0,,,,24.0,,,,0.25,,KIGQ 150255Z AUTO 22007KT 1/4SM FG OVC002 04/04 A2987 RMK AO2  T00350035,,,200.0,,,38.3,34.48,SW,29.22,29.3,,Fog
KIGQ,02/15/2018 03:15 UTC,29.87,38.12,38.12,100.0,8.05,200.0,,9.0,,,,24.0,,,,0.25,,KIGQ 150315Z AUTO 20007KT 1/4SM FG OVC002 03/03 A2987 RMK AO2  T00340034,,,200.0,,,38.12,34.26,SSW,29.22,29.3,,Fog
KIGQ,02/15/2018 03:35 UTC,29.86,37.76,37.76,100.0,8.05,200.0,,9.0,,,,24.0,,,,0.25,,KIGQ 150335Z AUTO 20007KT 1/4SM FG OVC002 03/03 A2986 RMK AO2  T00320032,,,200.0,,,37.76,33.84,SSW,29.21,29.3,,Fog
KIGQ,02/15/2018 03:55 UTC,29.87,37.94,37.94,100.0,5.75,230.0,,9.0,,,,24.0,,,,0.5,,KIGQ 150355Z AUTO 23005KT 1/2SM FG OVC002 03/03 A2987 RMK AO2  T00330033,,,200.0,,,37.94,,SW,29.22,29.31,,Fog
KIGQ,02/15/2018 04:15 UTC,29.86,37.4,37.4,100.0,5.75,210.0,,9.0,,,,24.0,,,,0.25,,KIGQ 150415Z AUTO 21005KT 1/4SM FG OVC002 03/03 A2986 RMK AO2  T00300030,,,200.0,,,37.4,,SSW,29.21,29.31,,Fog
KIGQ,02/15/2018 04:35 UTC,29.86,38.66,38.66,100.0,5.75,220.0,,9.0,,,,24.0,,,,0.25,,KIGQ 150435Z AUTO 22005KT 1/4SM FG OVC002 04/04 A2986 RMK AO2  T00370037,,,200.0,,,38.66,,SW,29.21,29.27,,Fog
KIGQ,02/15/2018 04:55 UTC,29.85,37.22,37.22,100.0,4.61,200.0,,13.0,,,,24.0,,,,0.25,,KIGQ 150455Z AUTO 20004KT 1/4SM -RA OVC002 03/03 A2985 RMK AO2  T00290029,,,200.0,,,37.22,,SSW,29.2,29.3,,Light Rain
KIGQ,02/15/2018 05:15 UTC,29.86,37.58,37.58,100.0,4.61,200.0,,13.0,,,,24.0,,,,0.25,,KIGQ 150515Z AUTO 20004KT 1/4SM -RA OVC002 03/03 A2986 RMK AO2  T00310031,,,200.0,,,37.58,,SSW,29.21,29.3,,Light Rain
KIGQ,02/15/2018 05:35 UTC,29.85,37.58,37.58,100.0,4.61,210.0,,13.0,,,,24.0,,,,0.25,,KIGQ 150535Z AUTO 21004KT 1/4SM -RA OVC002 03/03 A2985 RMK AO2  T00310031,,,200.0,,,37.58,,SSW,29.2,29.29,,Light Rain
KIGQ,02/15/2018 05:55 UTC,29.85,38.48,38.48,100.0,9.22,210.0,,13.0,,,,24.0,,,,0.25,,KIGQ 150555Z AUTO 21008KT 1/4SM -RA OVC002 04/04 A2985 RMK AO2  T00360036 10040 20025 400461057,39.2,36.5,200.0,40.28,21.74,38.48,34.14,SSW,29.2,29.27,,Light Rain
KIGQ,02/15/2018 06:15 UTC,29.86,39.2,39.2,100.0,6.91,220.0,,13.0,,,,24.0,,,,0.25,,KIGQ 150615Z AUTO 22006KT 1/4SM -RA OVC002 04/04 A2986 RMK AO2  T00400040,,,200.0,,,39.2,,SW,29.21,29.26,,Light Rain
KIGQ,02/15/2018 06:35 UTC,29.84,40.1,40.1,100.0,11.5,220.0,,1.0,,,,24.0,,,,0.25,,KIGQ 150635Z AUTO 22010KT 1/4SM RA OVC002 05/05 A2984 RMK AO2  T00450045,,,200.0,,,40.1,35.18,SW,29.19,29.21,,Rain
KIGQ,02/15/2018 06:55 UTC,29.85,40.46,40.46,100.0,11.5,220.0,,2.0,,,,24.0,,,,0.25,,KIGQ 150655Z AUTO 22010KT 1/4SM DZ OVC002 05/05 A2985 RMK AO2  T00470047,,,200.0,,,40.46,35.61,SW,29.2,29.21,,Drizzle
KIGQ,02/15/2018 07:15 UTC,29.84,41.36,41.36,100.0,12.66,230.0,,2.0,,,,24.0,,,,0.25,,KIGQ 150715Z AUTO 23011KT 1/4SM DZ OVC002 05/05 A2984 RMK AO2  T00520052,,,200.0,,,41.36,36.31,SW,29.19,29.17,,Drizzle
KIGQ,02/15/2018 07:35 UTC,29.84,41.0,41.0,100.0,13.8,220.0,,2.0,,,,24.0,,,,0.25,,KIGQ 150735Z AUTO 22012KT 1/4SM DZ OVC002 05/05 A2984 RMK AO2  T00500050,,,200.0,,,41.0,35.52,SW,29.19,29.18,,Drizzle
KIGQ,02/15/2018 07:55 UTC,29.83,39.2,39.2,100.0,10.36,220.0,,17.0,,,,24.0,,,,0.25,,KIGQ 150755Z AUTO 22009KT 1/4SM -DZ OVC002 04/04 A2983 RMK AO2  T00400040,,,200.0,,,39.2,34.52,SW,29.18,29.23,,Light Drizzle
KIGQ,02/15/2018 08:15 UTC,29.83,39.2,39.2,100.0,10.36,210.0,,17.0,,,,24.0,,,,0.25,,KIGQ 150815Z AUTO 21009KT 1/4SM -DZ OVC002 04/04 A2983 RMK AO2  T00400040,,,200.0,,,39.2,34.52,SSW,29.18,29.23,,Light Drizzle
KIGQ,02/15/2018 08:35 UTC,29.83,38.48,38.48,100.0,9.22,220.0,,13.0,,,,24.0,,,,0.25,,KIGQ 150835Z AUTO 22008KT 1/4SM -RA OVC002 04/04 A2983 RMK AO2  T00360036,,,200.0,,,38.48,34.14,SW,29.18,29.25,,Light Rain
KIGQ,02/15/2018 08:55 UTC,29.82,39.02,39.02,100.0,6.91,220.0,,17.0,,,,24.0,,,,0.25,,KIGQ 150855Z AUTO 22006KT 1/4SM -DZ OVC002 04/04 A2982 RMK AO2  T00390039,,,200.0,,,39.02,,SW,29.17,29.22,,Light Drizzle
KIGQ,02/15/2018 09:15 UTC,29.81,37.76,37.76,100.0,6.91,200.0,,13.0,,,,24.0,,,,0.25,,KIGQ 150915Z AUTO 20006KT 1/4SM -RA OVC002 03/03 A2981 RMK AO2  T00320032,,,200.0,,,37.76,,SSW,29.16,29.25,,Light Rain
KIGQ,02/15/2018 09:35 UTC,29.81,37.04,37.04,100.0,6.91,220.0,,13.0,,,,24.0,,,,0.25,,KIGQ 150935Z AUTO 22006KT 1/4SM -RA OVC002 03/03 A2981 RMK AO2  T00280028,,,200.0,,,37.04,,SW,29.16,29.27,,Light Rain
KIGQ,02/15/2018 09:55 UTC,29.81,38.66,38.66,100.0,9.22,230.0,,31.0,,,,24.0,,,,0.75,,KIGQ 150955Z AUTO 23008KT 3/4SM BR OVC002 04/04 A2981 RMK AO2  T00370037,,,200.0,,,38.66,34.35,SW,29.16,29.22,,Mist
KIGQ,02/15/2018 10:15 UTC,29.81,37.04,37.04,100.0,3.44,210.0,,9.0,,,,24.0,,,,0.25,,KIGQ 151015Z AUTO 21003KT 1/4SM FG OVC002 03/03 A2981 RMK AO2  T00280028,,,200.0,,,37.04,,SSW,29.16,29.27,,Fog
KIGQ,02/15/2018 10:35 UTC,29.81,36.32,36.32,100.0,6.91,200.0,,9.0,,,,24.0,,,,0.25,,KIGQ 151035Z AUTO 20006KT 1/4SM FG OVC002 02/02 A2981 RMK AO2  T00240024,,,200.0,,,36.32,,SSW,29.16,29.29,,Fog
KIGQ,02/15/2018 10:55 UTC,29.81,36.5,36.5,100.0,6.91,210.0,,9.0,,,,24.0,,,,0.5,,KIGQ 151055Z AUTO 21006KT 1/2SM FG OVC002 03/03 A2981 RMK AO2  T00250025,,,200.0,,,36.5,,SSW,29.16,29.28,,Fog
KIGQ,02/15/2018 11:15 UTC,29.81,36.5,36.5,100.0,4.61,220.0,,9.0,,,,24.0,,,,0.5,,KIGQ 151115Z AUTO 22004KT 1/2SM FG OVC002 03/03 A2981 RMK AO2  T00250025,,,200.0,,,36.5,,SW,29.16,29.28,,Fog
KIGQ,02/15/2018 11:35 UTC,29.79,36.32,36.32,100.0,4.61,200.0,,9.0,,,,24.0,,,,0.5,,KIGQ 151135Z AUTO 20004KT 1/2SM FG OVC002 02/02 A2979 RMK AO2  T00240024,,,200.0,,,36.32,,SSW,29.14,29.27,,Fog
KIGQ,02/15/2018 11:55 UTC,29.78,36.32,36.32,100.0,4.61,190.0,,9.0,,,,24.0,,,,0.25,,KIGQ 151155Z AUTO 19004KT 1/4SM FG OVC002 02/02 A2978 RMK AO2  T00240024 10053 20022,41.54,35.96,200.0,,,36.32,,S,29.13,29.26,,Fog
KIGQ,02/15/2018 12:15 UTC,29.78,36.68,36.68,100.0,6.91,200.0,,9.0,,,,24.0,,,,0.5,,KIGQ 151215Z AUTO 20006KT 1/2SM FG OVC002 03/03 A2978 RMK AO2  T00260026,,,200.0,,,36.68,,SSW,29.13,29.25,,Fog
KIGQ,02/15/2018 12:35 UTC,29.78,38.3,38.3,100.0,8.05,220.0,,9.0,,,,24.0,,,,0.25,,KIGQ 151235Z AUTO 22007KT 1/4SM FG OVC002 04/04 A2978 RMK AO2  T00350035,,,200.0,,,38.3,34.48,SW,29.13,29.2,,Fog
KIGQ,02/15/2018 12:55 UTC,29.77,39.2,39.2,100.0,8.05,220.0,,17.0,,,,24.0,,,,0.25,,KIGQ 151255Z AUTO 22007KT 1/4SM -DZ OVC002 04/04 A2977 RMK AO2  T00400040,,,200.0,,,39.2,35.53,SW,29.12,29.17,,Light Drizzle
KIGQ,02/15/2018 13:15 UTC,29.76,38.3,38.3,100.0,5.75,220.0,,13.0,,,,24.0,,,,-0.25,,KIGQ 151315Z AUTO 22005KT M1/4SM -RA OVC002 04/04 A2976 RMK AO2  T00350035,,,200.0,,,38.3,,SW,29.11,29.18,,Light Rain
KIGQ,02/15/2018 13:35 UTC,29.75,39.2,39.2,100.0,3.44,220.0,,13.0,,,,24.0,,,,-0.25,,KIGQ 151335Z AUTO 22003KT M1/4SM -RA OVC002 04/04 A2975 RMK AO2  T00400040,,,200.0,,,39.2,,SW,29.1,29.15,,Light Rain
KIGQ,02/15/2018 13:55 UTC,29.75,37.76,37.76,100.0,0.0,0.0,,20.0,,,,24.0,,,,-0.25,,KIGQ 151355Z AUTO 00000KT M1/4SM -SN OVC002 03/03 A2975 RMK AO2  T00320032,,,200.0,,,37.76,,N,29.1,29.19,,Light Snow
KIGQ,02/15/2018 14:15 UTC,29.75,38.84,38.84,100.0,3.44,210.0,,9.0,,,,24.0,,,,-0.25,,KIGQ 151415Z AUTO 21003KT M1/4SM FG OVC002 04/04 A2975 RMK AO2  T00380038,,,200.0,,,38.84,,SSW,29.1,29.16,,Fog
KIGQ,02/15/2018 14:35 UTC,29.75,40.28,40.28,100.0,9.22,200.0,,1.0,,,,24.0,,,,-0.25,,KIGQ 151435Z AUTO 20008KT M1/4SM RA OVC002 05/05 A2975 RMK AO2  T00460046,,,200.0,,,40.28,36.28,SSW,29.1,29.11,,Rain
KIGQ,02/15/2018 14:55 UTC,29.76,40.46,40.46,100.0,12.66,200.0,,17.0,,,,24.0,,,,-0.25,,KIGQ 151455Z AUTO 20011KT M1/4SM -DZ OVC002 05/05 A2976 RMK AO2  T00470047,,,200.0,,,40.46,35.22,SSW,29.11,29.12,,Light Drizzle
KIGQ,02/15/2018 15:15 UTC,29.76,41.18,41.18,100.0,8.05,220.0,,17.0,,,,24.0,,,,-0.25,,KIGQ 151515Z AUTO 22007KT M1/4SM -DZ OVC002 05/05 A2976 RMK AO2  T00510051,,,200.0,,,41.18,37.86,SW,29.11,29.1,,Light Drizzle
KIGQ,02/15/2018 15:35 UTC,29.75,41.9,41.9,100.0,3.44,240.0,,17.0,,,,24.0,,,,-0.25,,KIGQ 151535Z AUTO 24003KT M1/4SM -DZ OVC002 06/06 A2975 RMK AO2  T00550055,,,200.0,,,41.9,,WSW,29.1,29.06,,Light Drizzle
KIGQ,02/15/2018 15:55 UTC,29.75,39.2,39.2,100.0,3.44,200.0,,9.0,,,,24.0,,,,-0.25,,KIGQ 151555Z AUTO 20003KT M1/4SM FG OVC002 04/04 A2975 RMK AO2  T00400040,,,200.0,,,39.2,,SSW,29.1,29.15,,Fog
KIGQ,02/15/2018 16:15 UTC,29.73,40.28,40.28,100.0,0.0,0.0,,9.0,,,,24.0,,,,-0.25,,KIGQ 151615Z AUTO 00000KT M1/4SM FG OVC002 05/05 A2973 RMK AO2  T00460046,,,200.0,,,40.28,,N,29.08,29.09,,Fog
KIGQ,02/15/2018 16:35 UTC,29.73,41.18,41.18,100.0,0.0,0.0,,9.0,,,,24.0,,,,-0.25,,KIGQ 151635Z AUTO 00000KT M1/4SM FG OVC002 05/05 A2973 RMK AO2  T00510051,,,200.0,,,41.18,,N,29.08,29.07,,Fog
KIGQ,02/15/2018 16:55 UTC,29.73,40.82,40.82,100.0,0.0,0.0,,1.0,,,,24.0,,,,-0.25,,KIGQ 151655Z AUTO 00000KT M1/4SM RA OVC002 05/05 A2973 RMK AO2  T00490049,,,200.0,,,40.82,,N,29.08,29.08,,Rain
KIGQ,02/15/2018 17:15 UTC,29.73,40.64,40.64,100.0,0.0,0.0,,18.0,,,,24.0,,,,-0.25,,KIGQ 151715Z AUTO 00000KT M1/4SM +DZ OVC002 05/05 A2973 RMK AO2  T00480048,,,200.0,,,40.64,,N,29.08,29.08,,Heavy Drizzle
KIGQ,02/15/2018 17:35 UTC,29.74,39.2,39.2,100.0,0.0,0.0,,1.0,,,,24.0,,,,-0.25,,KIGQ 151735Z AUTO 00000KT M1/4SM RA OVC002 04/04 A2974 RMK AO2  T00400040,,,200.0,,,39.2,,N,29.09,29.14,,Rain
KIGQ,02/15/2018 17:55 UTC,29.73,40.28,40.28,100.0,0.0,0.0,,2.0,,,,64.0,,,,0.25,,KIGQ 151755Z AUTO 00000KT 1/4SM DZ OVC006 05/05 A2973 RMK AO2  T00460046 10055 20023,41.9,36.14,600.0,,,40.28,,N,29.08,29.09,,Drizzle
KIGQ,02/15/2018 18:15 UTC,29.72,41.0,41.0,100.0,0.0,0.0,,1.0,,,,114.0,,,,-0.25,,KIGQ 151815Z AUTO 00000KT M1/4SM RA OVC011 05/05 A2972 RMK AO2  T00500050,,,1100.0,,,41.0,,N,29.07,29.06,,Rain
KIGQ,02/15/2018 18:35 UTC,29.71,39.38,39.38,100.0,0.0,0.0,,2.0,,,,44.0,,,,-0.25,,KIGQ 151835Z AUTO 00000KT M1/4SM DZ OVC004 04/04 A2971 RMK AO2  T00410041,,,400.0,,,39.38,,N,29.06,29.1,,Drizzle
KIGQ,02/15/2018 18:55 UTC,29.69,41.9,41.9,100.0,0.0,0.0,,9.0,,,,24.0,,,,-0.25,,KIGQ 151855Z AUTO 00000KT M1/4SM FG OVC002 06/06 A2969 RMK AO2  T00550055,,,200.0,,,41.9,,N,29.04,29.0,,Fog
KIGQ,02/15/2018 19:15 UTC,29.69,41.18,41.18,100.0,0.0,0.0,,9.0,,,,24.0,,,,-0.25,,KIGQ 151915Z AUTO 00000KT M1/4SM FG OVC002 05/05 A2969 RMK AO2  T00510051,,,200.0,,,41.18,,N,29.04,29.02,,Fog
KIGQ,02/15/2018 19:35 UTC,29.69,40.82,40.82,100.0,0.0,0.0,,13.0,,,,24.0,,,,-0.25,,KIGQ 151935Z AUTO 00000KT M1/4SM -RA OVC002 05/05 A2969 RMK AO2  T00490049,,,200.0,,,40.82,,N,29.04,29.04,,Light Rain
KIGQ,02/15/2018 19:55 UTC,29.69,39.56,39.56,100.0,0.0,0.0,,1.0,,,,24.0,,,,-0.25,,KIGQ 151955Z AUTO 00000KT M1/4SM RA OVC002 04/04 A2969 RMK AO2  T00420042,,,200.0,,,39.56,,N,29.04,29.07,,Rain
KIGQ,02/15/2018 20:15 UTC,29.68,42.44,42.44,100.0,0.0,0.0,,17.0,,,,24.0,,,,-0.25,,KIGQ 152015Z AUTO 00000KT M1/4SM -DZ OVC002 06/06 A2968 RMK AO2  T00580058,,,200.0,,,42.44,,N,29.03,28.97,,Light Drizzle
KIGQ,02/15/2018 20:35 UTC,29.67,41.0,41.0,100.0,0.0,0.0,,13.0,,,,24.0,,,,-0.25,,KIGQ 152035Z AUTO 00000KT M1/4SM -RA OVC002 05/05 A2967 RMK AO2  T00500050,,,200.0,,,41.0,,N,29.02,29.01,,Light Rain
KIGQ,02/15/2018 20:55 UTC,29.67,37.58,37.58,100.0,0.0,0.0,,1.0,,,,24.0,,,,-0.25,,KIGQ 152055Z AUTO 00000KT M1/4SM RA OVC002 03/03 A2967 RMK AO2  T00310031,,,200.0,,,37.58,,N,29.02,29.11,,Rain
KIGQ,02/15/2018 21:15 UTC,29.66,39.38,39.38,100.0,8.05,170.0,,13.0,,,,24.0,,,,-0.25,,KIGQ 152115Z AUTO 17007KT M1/4SM -RA OVC002 04/04 A2966 RMK AO2  T00410041,,,200.0,,,39.38,35.74,S,29.02,29.06,,Light Rain
KIGQ,02/15/2018 21:35 UTC,29.68,38.48,38.48,100.0,0.0,0.0,,9.0,444.0,,,23.0,343.0,,,-0.25,,KIGQ 152135Z AUTO 00000KT M1/4SM FG BKN002 BKN034 OVC044 04/04  A2968 RMK AO2 T00360036,,,200.0,,,38.48,,N,29.03,29.1,,Fog
KIGQ,02/15/2018 21:55 UTC,29.68,41.36,41.36,100.0,0.0,0.0,,9.0,,,,24.0,,,,-0.25,,KIGQ 152155Z AUTO 00000KT M1/4SM FG OVC002 05/05 A2968 RMK AO2  T00520052,,,200.0,,,41.36,,N,29.03,29.01,,Fog
KIGQ,02/15/2018 22:15 UTC,29.69,43.16,43.16,100.0,0.0,0.0,,13.0,,,,24.0,,,,0.5,,KIGQ 152215Z AUTO 00000KT 1/2SM -RA OVC002 06/06 A2969 RMK AO2  T00620062,,,200.0,,,43.16,,N,29.04,28.96,,Light Rain
KIGQ,02/15/2018 22:35 UTC,29.69,42.98,42.98,100.0,0.0,0.0,,13.0,,,,24.0,,,,-0.25,,KIGQ 152235Z AUTO 00000KT M1/4SM -RA OVC002 06/06 A2969 RMK AO2  T00610061,,,200.0,,,42.98,,N,29.04,28.97,,Light Rain
KIGQ,02/15/2018 22:55 UTC,29.7,42.8,42.8,100.0,0.0,0.0,,9.0,,,,24.0,,,,-0.25,,KIGQ 152255Z AUTO 00000KT M1/4SM FG OVC002 06/06 A2970 RMK AO2  T00600060,,,200.0,,,42.8,,N,29.05,28.98,,Fog
KIGQ,02/15/2018 23:15 UTC,29.72,40.28,40.28,100.0,0.0,0.0,,9.0,,,,54.0,,,,-0.25,,KIGQ 152315Z AUTO 00000KT M1/4SM FG OVC005 05/05 A2972 RMK AO2  T00460046,,,500.0,,,40.28,,N,29.07,29.08,,Fog
KIGQ,02/15/2018 23:40 UTC,29.74,41.9,41.9,100.0,0.0,0.0,,31.0,,,,62.0,804.0,,,3.0,,KIGQ 152340Z AUTO 00000KT 3SM BR SCT006 OVC080 06/06 A2974 RMK AO2  T00550055,,,8000.0,,,41.9,,N,29.09,29.05,,Mist
KIGQ,02/15/2018 23:55 UTC,29.75,40.64,40.64,100.0,0.0,0.0,,31.0,,,,803.0,,,,3.0,,KIGQ 152355Z AUTO 00000KT 3SM BR BKN080 05/05 A2975 RMK AO2  T00480048 10063 20030,43.34,37.4,8000.0,,,40.64,,N,29.1,29.1,,Mist
KIGQ,02/16/2018 00:15 UTC,29.75,38.12,38.12,100.0,0.0,0.0,,9.0,,,,54.0,,,,0.25,,KIGQ 160015Z AUTO 00000KT 1/4SM FG OVC005 03/03 A2975 RMK AO2  T00340034,,,500.0,,,38.12,,N,29.1,29.18,,Fog
KIGQ,02/16/2018 00:35 UTC,29.77,38.84,38.84,100.0,0.0,0.0,,9.0,,,,54.0,,,,0.5,,KIGQ 160035Z AUTO 00000KT 1/2SM FG OVC005 04/04 A2977 RMK AO2  T00380038,,,500.0,,,38.84,,N,29.12,29.18,,Fog
KIGQ,02/16/2018 00:55 UTC,29.75,39.74,39.74,100.0,0.0,0.0,,31.0,,,,53.0,904.0,,,1.0,,KIGQ 160055Z AUTO 00000KT 1SM BR BKN005 OVC090 04/04 A2975 RMK AO2  T00430043,,,500.0,,,39.74,,N,29.1,29.13,,Mist
KIGQ,02/16/2018 01:15 UTC,29.76,39.2,39.2,100.0,0.0,0.0,,31.0,,,,1.0,,,,3.0,,KIGQ 160115Z AUTO 00000KT 3SM BR CLR 04/04 A2976 RMK AO2  T00400040,,,,,,39.2,,N,29.11,29.16,,Mist
KIGQ,02/16/2018 01:35 UTC,29.77,39.38,39.38,100.0,0.0,0.0,,31.0,,,,1.0,,,,3.0,,KIGQ 160135Z AUTO 00000KT 3SM BR CLR 04/04 A2977 RMK AO2  T00410041,,,,,,39.38,,N,29.12,29.16,,Mist
KIGQ,02/16/2018 01:55 UTC,29.77,36.86,36.86,100.0,0.0,0.0,,31.0,,,,75.0,,,,1.0,,KIGQ 160155Z AUTO 00000KT 1SM BR VV007 03/03 A2977 RMK AO2  T00270027,,,700.0,,,36.86,,N,29.12,29.23,,Mist
KIGQ,02/16/2018 02:15 UTC,29.77,37.04,37.04,100.0,0.0,0.0,,31.0,,,,55.0,,,,0.75,,KIGQ 160215Z AUTO 00000KT 3/4SM BR VV005 03/03 A2977 RMK AO2  T00280028,,,500.0,,,37.04,,N,29.12,29.23,,Mist
KIGQ,02/16/2018 02:35 UTC,29.77,39.02,39.02,100.0,0.0,0.0,,31.0,,,,1.0,,,,3.0,,KIGQ 160235Z AUTO 00000KT 3SM BR CLR 04/04 A2977 RMK AO2  T00390039,,,,,,39.02,,N,29.12,29.17,,Mist
KIGQ,02/16/2018 02:55 UTC,29.78,38.48,38.48,100.0,0.0,0.0,,31.0,,,,1.0,,,,4.0,,KIGQ 160255Z AUTO 00000KT 4SM BR CLR 04/04 A2978 RMK AO2  T00360036,,,,,,38.48,,N,29.13,29.2,,Mist
KIGQ,02/16/2018 03:15 UTC,29.79,38.3,38.3,100.0,4.61,360.0,,,,,,1.0,,,,10.0,,KIGQ 160315Z AUTO 36004KT 10SM CLR 04/04 A2979 RMK AO2  T00350035,,,,,,38.3,,N,29.14,29.21,,Clear
KIGQ,02/16/2018 03:35 UTC,29.79,38.3,38.3,100.0,3.44,10.0,,,,,,1.0,,,,10.0,,KIGQ 160335Z AUTO 01003KT 10SM CLR 04/04 A2979 RMK AO2  T00350035,,,,,,38.3,,N,29.14,29.21,,Clear
KIGQ,02/16/2018 03:55 UTC,29.79,37.94,37.94,100.0,0.0,0.0,,,,,,1.0,,,,10.0,,KIGQ 160355Z AUTO 00000KT 10SM CLR 03/03 A2979 RMK AO2  T00330033,,,,,,37.94,,N,29.14,29.22,,Clear
KIGQ,02/16/2018 04:15 UTC,29.79,38.66,38.66,100.0,6.91,10.0,,,,,,1.0,,,,10.0,,KIGQ 160415Z AUTO 01006KT 10SM CLR 04/04 A2979 RMK AO2  T00370037,,,,,,38.66,,N,29.14,29.2,,Clear
KIGQ,02/16/2018 04:35 UTC,29.79,39.74,36.14,86.82,4.61,10.0,,,,,,1.0,,,,10.0,,KIGQ 160435Z AUTO 01004KT 10SM CLR 04/02 A2979 RMK AO2  T00430023,,,,,,36.09,,N,29.14,29.25,,Clear
KIGQ,02/16/2018 04:55 UTC,29.81,40.1,35.6,83.8,4.61,350.0,,,,,,1.0,,,,10.0,,KIGQ 160455Z AUTO 35004KT 10SM CLR 05/02 A2981 RMK AO2  T00450020,,,,,,35.54,,N,29.16,29.27,,Clear
KIGQ,02/16/2018 05:15 UTC,29.82,40.1,35.06,82.02,6.91,350.0,,,,,,1202.0,,,,10.0,,KIGQ 160515Z AUTO 35006KT 10SM SCT120 05/02 A2982 RMK AO2  T00450017,,,,,,34.99,,N,29.17,29.29,,Partly Cloudy
KIGQ,02/16/2018 05:35 UTC,29.83,40.64,34.7,79.17,6.91,350.0,,,,,,1203.0,,,,10.0,,KIGQ 160535Z AUTO 35006KT 10SM BKN120 05/02 A2983 RMK AO2  T00480015,,,12000.0,,,34.62,,N,29.18,29.31,,Mostly Cloudy
KIGQ,02/16/2018 05:55 UTC,29.85,40.46,33.8,76.91,10.36,360.0,,,,,,1202.0,,,,10.0,,KIGQ 160555Z AUTO 36009KT 10SM SCT120 05/01 A2985 RMK AO2  T00470010 10048 20020 400630020,40.64,35.6,,43.34,35.6,33.71,36.03,N,29.2,29.35,,Partly Cloudy
KIGQ,02/16/2018 06:15 UTC,29.86,39.56,33.26,77.95,8.05,360.0,,,,,,1.0,,,,10.0,,KIGQ 160615Z AUTO 36007KT 10SM CLR 04/01 A2986 RMK AO2  T00420007,,,,,,33.17,35.96,N,29.21,29.37,,Clear
KIGQ,02/16/2018 06:35 UTC,29.88,37.58,33.26,84.23,10.36,10.0,,,,,,1.0,,,,10.0,,KIGQ 160635Z AUTO 01009KT 10SM CLR 03/01 A2988 RMK AO2  T00310007,,,,,,33.19,32.58,N,29.23,29.4,,Clear
KIGQ,02/16/2018 06:55 UTC,29.9,35.6,34.52,95.79,12.66,350.0,19.57,,,,,72.0,,,,7.0,,KIGQ 160655Z AUTO 35011G17KT 7SM SCT007 02/01 A2990 RMK AO2  T00200014,,,,,,34.5,29.31,N,29.25,29.42,,Partly Cloudy
KIGQ,02/16/2018 07:15 UTC,29.91,34.88,33.8,95.78,10.36,360.0,18.41,,,,,74.0,,,,10.0,,KIGQ 160715Z AUTO 36009G16KT 10SM OVC007 02/01 A2991 RMK AO2  T00160010,,,700.0,,,33.78,29.35,N,29.26,29.45,,Overcast
KIGQ,02/16/2018 07:35 UTC,29.9,34.7,33.08,93.72,9.22,360.0,,,,,,94.0,,,,10.0,,KIGQ 160735Z AUTO 36008KT 10SM OVC009 02/01 A2990 RMK AO2  T00150006,,,900.0,,,33.05,29.65,N,29.25,29.45,,Overcast
KIGQ,02/16/2018 07:55 UTC,29.91,34.34,32.72,93.71,11.5,350.0,19.57,,,,,94.0,,,,10.0,,KIGQ 160755Z AUTO 35010G17KT 10SM OVC009 01/00 A2991 RMK AO2  T00130004,,,900.0,,,32.69,28.22,N,29.26,29.47,,Overcast
KIGQ,02/16/2018 08:15 UTC,29.94,34.34,32.18,91.7,11.5,360.0,18.41,,,,,114.0,,,,10.0,,KIGQ 160815Z AUTO 36010G16KT 10SM OVC011 01/00 A2994 RMK AO2  T00130001,,,1100.0,,,32.15,28.22,N,29.29,29.51,,Overcast
KIGQ,02/16/2018 08:35 UTC,29.96,34.16,32.0,91.69,9.22,360.0,20.71,,,,,134.0,,,,10.0,,KIGQ 160835Z AUTO 36008G18KT 10SM OVC013 01/00 A2996 RMK AO2  T00120000,,,1300.0,,,31.96,29.01,N,29.31,29.53,,Overcast
KIGQ,02/16/2018 08:55 UTC,29.97,34.16,32.0,91.69,13.8,10.0,20.71,,,,,133.0,244.0,,,10.0,,KIGQ 160855Z AUTO 01012G18KT 10SM BKN013 OVC024 01/00 A2997 RMK AO2 T00120000,,,1300.0,,,31.96,27.15,N,29.32,29.54,,Overcast
KIGQ,02/16/2018 09:15 UTC,29.98,33.98,31.64,91.02,10.36,10.0,,,,,,152.0,264.0,,,10.0,,KIGQ 160915Z AUTO 01009KT 10SM SCT015 OVC026 01/00 A2998 RMK AO2  T00111002,,,2600.0,,,31.6,28.27,N,29.33,29.56,,Overcast
KIGQ,02/16/2018 09:35 UTC,29.97,33.8,31.46,91.01,10.36,360.0,,,264.0,,,142.0,223.0,,,10.0,,KIGQ 160935Z AUTO 36009KT 10SM SCT014 BKN022 OVC026 01/00 A2997 RMK AO2 T00101003,,,2200.0,,,31.42,28.06,N,29.32,29.55,,Overcast
KIGQ,02/16/2018 09:55 UTC,29.98,33.44,31.64,93.01,6.91,360.0,,,1104.0,,,142.0,223.0,,,10.0,,KIGQ 160955Z AUTO 36006KT 10SM SCT014 BKN022 OVC110 01/00 A2998 RMK AO2 T00081002,,,2200.0,,,31.61,,N,29.33,29.56,,Overcast
KIGQ,02/16/2018 10:15 UTC,29.99,33.26,31.28,92.33,8.05,360.0,,,1104.0,,,152.0,243.0,,,10.0,,KIGQ 161015Z AUTO 36007KT 10SM SCT015 BKN024 OVC110 01/00 A2999 RMK AO2 T00071004,,,2400.0,,,31.25,28.56,N,29.34,29.58,,Overcast
KIGQ,02/16/2018 10:35 UTC,30.01,33.26,31.1,91.66,8.05,350.0,,,244.0,,,122.0,182.0,,,10.0,,KIGQ 161035Z AUTO 35007KT 10SM SCT012 SCT018 OVC024 01/00 A3001 RMK AO2 T00071005,,,2400.0,,,31.07,28.56,N,29.36,29.6,,Overcast
KIGQ,02/16/2018 10:55 UTC,30.04,33.26,30.56,89.67,6.91,360.0,,,284.0,,,172.0,223.0,,,10.0,,KIGQ 161055Z AUTO 36006KT 10SM SCT017 BKN022 OVC028 01/M01 A3004 RMK AO2 T00071008,,,2200.0,,,30.52,,N,29.39,29.64,,Overcast
KIGQ,02/16/2018 11:15 UTC,30.04,33.26,30.2,88.37,8.05,360.0,,,,,,172.0,254.0,,,10.0,,KIGQ 161115Z AUTO 36007KT 10SM SCT017 OVC025 01/M01 A3004 RMK AO2  T00071010,,,2500.0,,,30.15,28.56,N,29.39,29.64,,Overcast
KIGQ,02/16/2018 11:35 UTC,30.04,33.08,30.02,88.36,9.22,360.0,,,,,,234.0,,,,10.0,,KIGQ 161135Z AUTO 36008KT 10SM OVC023 01/M01 A3004 RMK AO2  T00061011,,,2300.0,,,29.97,27.73,N,29.39,29.65,,Overcast
KIGQ,02/16/2018 11:55 UTC,30.07,32.54,30.02,90.3,8.05,360.0,17.27,,,,,152.0,234.0,,,10.0,,KIGQ 161155Z AUTO 36007G15KT 10SM SCT015 OVC023 00/M01 A3007 RMK AO2 T00031011 10047 20003,40.46,32.54,2300.0,,,29.98,27.71,N,29.42,29.68,,Overcast
KIGQ,02/16/2018 12:15 UTC,30.07,32.18,30.2,92.29,9.22,10.0,,,,,,132.0,214.0,,,10.0,,KIGQ 161215Z AUTO 01008KT 10SM SCT013 OVC021 00/M01 A3007 RMK AO2  T00011010,,,2100.0,,,30.17,26.66,N,29.42,29.68,,Overcast
KIGQ,02/16/2018 12:35 UTC,30.1,32.0,29.3,89.61,9.22,10.0,,,,,,184.0,,,,10.0,,KIGQ 161235Z AUTO 01008KT 10SM OVC018 00/M01 A3010 RMK AO2  T00001015,,,1800.0,,,29.25,26.45,N,29.45,29.73,,Overcast
KIGQ,02/16/2018 12:55 UTC,30.11,32.0,28.04,85.1,13.8,10.0,17.27,,,,,194.0,,,,10.0,,KIGQ 161255Z AUTO 01012G15KT 10SM OVC019 00/M02 A3011 RMK AO2  T00001022,,,1900.0,,,27.97,24.5,N,29.46,29.75,,Overcast
KIGQ,02/16/2018 13:15 UTC,30.12,32.0,25.88,77.83,8.05,10.0,,,314.0,,,192.0,252.0,,,10.0,,KIGQ 161315Z AUTO 01007KT 10SM SCT019 SCT025 OVC031 00/M03 A3012 RMK AO2 T00001034,,,3100.0,,,25.78,27.08,N,29.47,29.79,,Overcast
KIGQ,02/16/2018 13:35 UTC,30.13,32.0,26.6,80.19,6.91,10.0,,,,,,334.0,,,,10.0,,KIGQ 161335Z AUTO 01006KT 10SM OVC033 00/M03 A3013 RMK AO2  T00001030,,,3300.0,,,26.51,,N,29.47,29.78,,Overcast
KIGQ,02/16/2018 13:55 UTC,30.15,32.0,27.32,82.61,8.05,360.0,,,393.0,,,272.0,333.0,,,10.0,,KIGQ 161355Z AUTO 36007KT 10SM SCT027 BKN033 BKN039 00/M03 A3015 RMK AO2 T00001026,,,3300.0,,,27.24,27.08,N,29.49,29.79,,Mostly Cloudy
KIGQ,02/16/2018 14:15 UTC,30.16,32.36,25.7,76.14,6.91,350.0,10.36,,,,,293.0,444.0,,,10.0,,KIGQ 161415Z AUTO 35006G09KT 10SM BKN029 OVC044 00/M03 A3016 RMK AO2 T00021035,,,2900.0,,,25.6,,N,29.5,29.82,,Overcast
KIGQ,02/16/2018 14:35 UTC,30.17,32.0,26.06,78.42,6.91,10.0,,,,,,293.0,344.0,,,10.0,,KIGQ 161435Z AUTO 01006KT 10SM BKN029 OVC034 00/M03 A3017 RMK AO2  T00001033,,,2900.0,,,25.97,,N,29.51,29.83,,Overcast
KIGQ,02/16/2018 14:55 UTC,30.18,32.54,24.08,70.65,9.22,340.0,,,,,,272.0,342.0,,,10.0,,KIGQ 161455Z AUTO 34008KT 10SM SCT027 SCT034 00/M04 A3018 RMK AO2  T00031044,,,,,,23.95,27.09,NNW,29.52,29.86,,Partly Cloudy
KIGQ,02/16/2018 15:15 UTC,30.19,32.0,23.72,71.12,10.36,350.0,17.27,,,,,1.0,,,,10.0,,KIGQ 161515Z AUTO 35009G15KT 10SM CLR 00/M05 A3019 RMK AO2  T00001046,,,,,,23.59,25.9,N,29.53,29.88,,Clear
KIGQ,02/16/2018 15:35 UTC,30.2,32.0,23.18,69.52,11.5,10.0,16.11,,,,,1.0,,,,10.0,,KIGQ 161535Z AUTO 01010G14KT 10SM CLR 00/M05 A3020 RMK AO2  T00001049,,,,,,23.04,25.4,N,29.54,29.89,,Clear
KIGQ,02/16/2018 15:55 UTC,30.21,32.0,24.62,73.85,8.05,10.0,,,,,,313.0,,,,10.0,,KIGQ 161555Z AUTO 01007KT 10SM BKN031 00/M04 A3021 RMK AO2  T00001041,,,3100.0,,,24.5,27.08,N,29.55,29.89,,Mostly Cloudy
KIGQ,02/16/2018 16:15 UTC,30.21,32.18,25.16,74.99,6.91,350.0,,,,,,314.0,,,,10.0,,KIGQ 161615Z AUTO 35006KT 10SM OVC031 00/M04 A3021 RMK AO2  T00011038,,,3100.0,,,25.05,,N,29.55,29.88,,Overcast
KIGQ,02/16/2018 16:35 UTC,30.22,32.36,23.72,70.1,5.75,350.0,,,,,,314.0,,,,10.0,,KIGQ 161635Z AUTO 35005KT 10SM OVC031 00/M05 A3022 RMK AO2  T00021046,,,3100.0,,,23.59,,N,29.56,29.91,,Overcast
KIGQ,02/16/2018 16:55 UTC,30.23,32.18,24.44,72.77,8.05,310.0,,,,,,314.0,,,,10.0,,KIGQ 161655Z AUTO 31007KT 10SM OVC031 00/M04 A3023 RMK AO2  T00011042,,,3100.0,,,24.32,27.29,NW,29.57,29.91,,Overcast
KIGQ,02/16/2018 17:15 UTC,30.24,32.36,24.8,73.34,8.05,320.0,,,,,,294.0,,,,10.0,,KIGQ 161715Z AUTO 32007KT 10SM OVC029 00/M04 A3024 RMK AO2  T00021040,,,2900.0,,,24.68,27.5,NW,29.58,29.92,,Overcast
KIGQ,02/16/2018 17:35 UTC,30.24,32.9,24.26,70.16,8.05,300.0,,,,,,294.0,,,,10.0,,KIGQ 161735Z AUTO 30007KT 10SM OVC029 01/M04 A3024 RMK AO2  T00051043,,,2900.0,,,24.13,28.13,WNW,29.58,29.92,,Overcast
KIGQ,02/16/2018 17:55 UTC,30.24,33.08,24.44,70.18,4.61,300.0,,,,,,294.0,,,,10.0,,KIGQ 161755Z AUTO 30004KT 10SM OVC029 01/M04 A3024 RMK AO2  T00061042 10006 20000,33.08,32.0,2900.0,,,24.31,,WNW,29.58,29.92,,Overcast
KIGQ,02/16/2018 18:15 UTC,30.24,33.98,22.82,63.24,8.05,320.0,,,,,,312.0,374.0,,,10.0,,KIGQ 161815Z AUTO 32007KT 10SM SCT031 OVC037 01/M05 A3024 RMK AO2  T00111051,,,3700.0,,,22.66,29.4,NW,29.58,29.93,,Overcast
KIGQ,02/16/2018 18:35 UTC,30.24,34.16,23.18,63.75,9.22,320.0,,,,,,374.0,,,,10.0,,KIGQ 161835Z AUTO 32008KT 10SM OVC037 01/M05 A3024 RMK AO2  T00121049,,,3700.0,,,23.02,29.01,NW,29.58,29.92,,Overcast
KIGQ,02/16/2018 18:55 UTC,30.24,34.7,23.9,64.3,10.36,280.0,,,,,,394.0,,,,10.0,,KIGQ 161855Z AUTO 28009KT 10SM OVC039 02/M04 A3024 RMK AO2  T00151045,,,3900.0,,,23.74,29.13,W,29.58,29.91,,Overcast
KIGQ,02/16/2018 19:15 UTC,30.24,35.6,23.18,60.2,12.66,280.0,,,,,,394.0,,,,10.0,,KIGQ 161915Z AUTO 28011KT 10SM OVC039 02/M05 A3024 RMK AO2  T00201049,,,3900.0,,,23.01,29.31,W,29.58,29.92,,Overcast
KIGQ,02/16/2018 19:35 UTC,30.25,35.6,21.74,56.64,10.36,280.0,,,,,,392.0,,,,10.0,,KIGQ 161935Z AUTO 28009KT 10SM SCT039 02/M06 A3025 RMK AO2  T00201057,,,,,,21.55,30.21,W,29.59,29.94,,Partly Cloudy
KIGQ,02/16/2018 19:55 UTC,30.24,35.24,22.28,58.79,8.05,310.0,18.41,,,,,433.0,,,,10.0,,KIGQ 161955Z AUTO 31007G16KT 10SM BKN043 02/M05 A3024 RMK AO2  T00181054,,,4300.0,,,22.1,30.88,NW,29.58,29.93,,Mostly Cloudy
KIGQ,02/16/2018 20:15 UTC,30.25,35.6,23.18,60.2,4.61,330.0,16.11,,,,,414.0,,,,10.0,,KIGQ 162015Z AUTO 33004G14KT 10SM OVC041 02/M05 A3025 RMK AO2  T00201049,,,4100.0,,,23.01,,NNW,29.59,29.93,,Overcast
KIGQ,02/16/2018 20:35 UTC,30.25,35.78,21.38,55.39,9.22,330.0,,,,,,413.0,,,,10.0,,KIGQ 162035Z AUTO 33008KT 10SM BKN041 02/M06 A3025 RMK AO2  T00211059,,,4100.0,,,21.19,30.93,NNW,29.59,29.95,,Mostly Cloudy
KIGQ,02/16/2018 20:55 UTC,30.26,35.24,22.1,58.34,6.91,270.0,,,,,,432.0,,,,10.0,,KIGQ 162055Z AUTO 27006KT 10SM SCT043 02/M05 A3026 RMK AO2  T00181055,,,,,,21.92,,W,29.6,29.95,,Partly Cloudy
KIGQ,02/16/2018 21:15 UTC,30.26,35.24,22.28,58.79,6.91,310.0,,,,,,433.0,,,,10.0,,KIGQ 162115Z AUTO 31006KT 10SM BKN043 02/M05 A3026 RMK AO2  T00181054,,,4300.0,,,22.1,,NW,29.6,29.95,,Mostly Cloudy
KIGQ,02/16/2018 21:35 UTC,30.26,34.52,21.38,58.24,10.36,280.0,,,,,,432.0,,,,10.0,,KIGQ 162135Z AUTO 28009KT 10SM SCT043 01/M06 A3026 RMK AO2  T00141059,,,,,,21.2,28.92,W,29.6,29.96,,Partly Cloudy
KIGQ,02/16/2018 21:55 UTC,30.26,34.34,20.48,56.45,5.75,280.0,,,,,,1.0,,,,10.0,,KIGQ 162155Z AUTO 28005KT 10SM CLR 01/M06 A3026 RMK AO2  T00131064,,,,,,20.29,,W,29.6,29.97,,Clear
KIGQ,02/16/2018 22:15 UTC,30.26,33.44,21.56,61.27,9.22,270.0,,,,,,1.0,,,,10.0,,KIGQ 162215Z AUTO 27008KT 10SM CLR 01/M06 A3026 RMK AO2  T00081058,,,,,,21.39,28.16,W,29.6,29.97,,Clear
KIGQ,02/16/2018 22:35 UTC,30.26,32.72,22.28,65.02,10.36,260.0,,,,,,1.0,,,,10.0,,KIGQ 162235Z AUTO 26009KT 10SM CLR 00/M05 A3026 RMK AO2  T00041054,,,,,,22.12,26.76,W,29.6,29.96,,Clear
KIGQ,02/16/2018 22:55 UTC,30.27,32.0,22.28,66.94,9.22,260.0,,,,,,1.0,,,,10.0,,KIGQ 162255Z AUTO 26008KT 10SM CLR 00/M05 A3027 RMK AO2  T00001054,,,,,,22.13,26.45,W,29.61,29.98,,Clear
KIGQ,02/16/2018 23:15 UTC,30.26,30.92,21.38,67.31,10.36,250.0,,,,,,1.0,,,,10.0,,KIGQ 162315Z AUTO 25009KT 10SM CLR M01/M06 A3026 RMK AO2  T10061059,,,,,,21.23,24.61,WSW,29.6,29.98,,Clear
KIGQ,02/16/2018 23:35 UTC,30.27,29.84,19.94,66.15,10.36,270.0,,,,,,1.0,,,,10.0,,KIGQ 162335Z AUTO 27009KT 10SM CLR M01/M07 A3027 RMK AO2  T10121067,,,,,,19.79,23.31,W,29.61,30.01,,Clear
KIGQ,02/16/2018 23:55 UTC,30.28,28.58,19.22,67.53,6.91,260.0,,,,,,1.0,,,,10.0,,KIGQ 162355Z AUTO 26006KT 10SM CLR M02/M07 A3028 RMK AO2 T10191071  10023 21019,36.14,28.58,,,,19.07,,W,29.62,30.03,,Clear
KIGQ,02/17/2018 00:15 UTC,30.28,27.68,18.32,67.42,10.36,270.0,,,,,,1.0,,,,10.0,,KIGQ 170015Z AUTO 27009KT 10SM CLR M02/M08 A3028 RMK AO2  T10241076,,,,,,18.17,20.73,W,29.62,30.05,,Clear
KIGQ,02/17/2018 00:35 UTC,30.29,26.6,17.96,69.41,4.61,260.0,,,,,,1.0,,,,10.0,,KIGQ 170035Z AUTO 26004KT 10SM CLR M03/M08 A3029 RMK AO2  T10301078,,,,,,17.82,,W,29.63,30.06,,Clear
KIGQ,02/17/2018 00:55 UTC,30.29,26.6,16.88,66.24,6.91,280.0,,,,,,1.0,,,,10.0,,KIGQ 170055Z AUTO 28006KT 10SM CLR M03/M08 A3029 RMK AO2  T10301084,,,,,,16.73,,W,29.63,30.07,,Clear
KIGQ,02/17/2018 01:15 UTC,30.3,25.88,16.52,67.19,5.75,270.0,,,,,,1.0,,,,10.0,,KIGQ 170115Z AUTO 27005KT 10SM CLR M03/M09 A3030 RMK AO2  T10341086,,,,,,16.37,,W,29.64,30.09,,Clear
KIGQ,02/17/2018 01:35 UTC,30.31,25.34,15.62,66.07,6.91,280.0,,,,,,1.0,,,,10.0,,KIGQ 170135Z AUTO 28006KT 10SM CLR M04/M09 A3031 RMK AO2  T10371091,,,,,,15.46,,W,29.65,30.11,,Clear
KIGQ,02/17/2018 01:55 UTC,30.31,24.44,15.44,68.07,3.44,260.0,,,,,,1.0,,,,10.0,,KIGQ 170155Z AUTO 26003KT 10SM CLR M04/M09 A3031 RMK AO2  T10421092,,,,,,15.3,,W,29.65,30.12,,Clear
KIGQ,02/17/2018 02:15 UTC,30.29,23.72,14.72,67.98,4.61,270.0,,,,,,1.0,,,,10.0,,KIGQ 170215Z AUTO 27004KT 10SM CLR M05/M10 A3029 RMK AO2  T10461096,,,,,,14.58,,W,29.63,30.1,,Clear
KIGQ,02/17/2018 02:35 UTC,30.3,23.0,14.72,70.06,3.44,250.0,,,,,,1.0,,,,10.0,,KIGQ 170235Z AUTO 25003KT 10SM CLR M05/M10 A3030 RMK AO2  T10501096,,,,,,14.58,,WSW,29.64,30.12,,Clear
KIGQ,02/17/2018 02:55 UTC,30.29,22.1,14.36,71.64,0.0,0.0,,,,,,1.0,,,,10.0,,KIGQ 170255Z AUTO 00000KT 10SM CLR M05/M10 A3029 RMK AO2  T10551098,,,,,,14.23,,N,29.63,30.11,,Clear
KIGQ,02/17/2018 03:15 UTC,30.27,19.22,13.46,77.84,0.0,0.0,,,,,,1.0,,,,10.0,,KIGQ 170315Z AUTO 00000KT 10SM CLR M07/M10 A3027 RMK AO2  T10711103,,,,,,13.36,,N,29.61,30.11,,Clear
KIGQ,02/17/2018 03:35 UTC,30.28,17.96,12.92,80.24,0.0,0.0,,,,,,1.0,,,,10.0,,KIGQ 170335Z AUTO 00000KT 10SM CLR M08/M11 A3028 RMK AO2  T10781106,,,,,,12.83,,N,29.62,30.13,,Clear
KIGQ,02/17/2018 03:55 UTC,30.28,15.8,12.74,87.42,0.0,0.0,,,,,,1.0,,,,10.0,,KIGQ 170355Z AUTO 00000KT 10SM CLR M09/M11 A3028 RMK AO2  T10901107,,,,,,12.68,,N,29.62,30.14,,Clear
KIGQ,02/17/2018 04:15 UTC,30.28,17.06,13.1,84.09,0.0,0.0,,,,,,1.0,,,,10.0,,KIGQ 170415Z AUTO 00000KT 10SM CLR M08/M10 A3028 RMK AO2  T10831105,,,,,,13.03,,N,29.62,30.13,,Clear
KIGQ,02/17/2018 04:35 UTC,30.29,16.52,13.46,87.46,3.44,240.0,,,,,,1.0,,,,10.0,,KIGQ 170435Z AUTO 24003KT 10SM CLR M09/M10 A3029 RMK AO2  T10861103,,,,,,13.4,,WSW,29.63,30.14,,Clear
KIGQ,02/17/2018 04:55 UTC,30.27,17.42,12.2,79.56,0.0,0.0,,,,,,1.0,,,,10.0,,KIGQ 170455Z AUTO 00000KT 10SM CLR M08/M11 A3027 RMK AO2  T10811110,,,,,,12.11,,N,29.61,30.13,,Clear
KIGQ,02/17/2018 05:15 UTC,30.27,13.82,10.94,88.01,5.75,180.0,,,,,,1.0,,,,10.0,,KIGQ 170515Z AUTO 18005KT 10SM CLR M10/M12 A3027 RMK AO2  T11011117,,,,,,10.89,,S,29.61,30.15,,Clear
KIGQ,02/17/2018 05:35 UTC,30.26,13.1,9.86,86.56,5.75,190.0,,,,,,1.0,,,,10.0,,KIGQ 170535Z AUTO 19005KT 10SM CLR M10/M12 A3026 RMK AO2  T11051123,,,,,,9.8,,S,29.6,30.15,,Clear
KIGQ,02/17/2018 05:55 UTC,30.26,12.38,9.5,87.93,3.44,190.0,,,,,,1.0,,,,10.0,,KIGQ 170555Z AUTO 19003KT 10SM CLR M11/M12 A3026 RMK AO2 T11091125  11020 21109 400471109,28.4,12.38,,40.46,12.38,9.45,,S,29.6,30.15,,Clear
KIGQ,02/17/2018 06:15 UTC,30.26,13.1,10.94,90.85,0.0,0.0,,,,,,1.0,,,,10.0,,KIGQ 170615Z AUTO 00000KT 10SM CLR M10/M12 A3026 RMK AO2  T11051117,,,,,,10.9,,N,29.6,30.14,,Clear
KIGQ,02/17/2018 06:35 UTC,30.25,13.64,11.84,92.34,0.0,0.0,,,,,,1.0,,,,10.0,,KIGQ 170635Z AUTO 00000KT 10SM CLR M10/M11 A3025 RMK AO2  T11021112,,,,,,11.81,,N,29.59,30.13,,Clear
KIGQ,02/17/2018 06:55 UTC,30.26,13.28,11.3,91.59,0.0,0.0,,,,,,1.0,,,,10.0,,KIGQ 170655Z AUTO 00000KT 10SM CLR M10/M11 A3026 RMK AO2  T11041115,,,,,,11.26,,N,29.6,30.14,,Clear
KIGQ,02/17/2018 07:15 UTC,30.26,12.02,10.4,93.03,0.0,0.0,,,,,,1.0,,,,10.0,,KIGQ 170715Z AUTO 00000KT 10SM CLR M11/M12 A3026 RMK AO2  T11111120,,,,,,10.37,,N,29.6,30.15,,Clear
KIGQ,02/17/2018 07:35 UTC,30.26,11.48,10.58,96.06,0.0,0.0,,,,,,1.0,,,,10.0,,KIGQ 170735Z AUTO 00000KT 10SM CLR M11/M12 A3026 RMK AO2  T11141119,,,,,,10.56,,N,29.6,30.15,,Clear
KIGQ,02/17/2018 07:55 UTC,30.25,12.02,10.94,95.3,0.0,0.0,,,,,,1.0,,,,10.0,,KIGQ 170755Z AUTO 00000KT 10SM CLR M11/M12 A3025 RMK AO2  T11111117,,,,,,10.92,,N,29.59,30.14,,Clear
KIGQ,02/17/2018 08:15 UTC,30.24,10.58,9.5,95.27,0.0,0.0,,,,,,1.0,,,,10.0,,KIGQ 170815Z AUTO 00000KT 10SM CLR M12/M12 A3024 RMK AO2  T11191125,,,,,,9.48,,N,29.58,30.14,,Clear
KIGQ,02/17/2018 08:35 UTC,30.23,11.3,10.4,96.06,0.0,0.0,,,,,,1.0,,,,7.0,,KIGQ 170835Z AUTO 00000KT 7SM CLR M11/M12 A3023 RMK AO2  T11151120,,,,,,10.38,,N,29.57,30.12,,Clear
KIGQ,02/17/2018 08:55 UTC,30.21,12.02,10.94,95.3,0.0,0.0,,,,,,1.0,,,,10.0,,KIGQ 170855Z AUTO 00000KT 10SM CLR M11/M12 A3021 RMK AO2  T11111117,,,,,,10.92,,N,29.55,30.1,,Clear
KIGQ,02/17/2018 09:15 UTC,30.2,11.12,10.04,95.28,3.44,180.0,,,,,,1.0,,,,10.0,,KIGQ 170915Z AUTO 18003KT 10SM CLR M12/M12 A3020 RMK AO2  T11161122,,,,,,10.02,,S,29.54,30.09,,Clear
KIGQ,02/17/2018 09:35 UTC,30.2,10.4,9.14,94.5,3.44,180.0,,,,,,1.0,,,,10.0,,KIGQ 170935Z AUTO 18003KT 10SM CLR M12/M13 A3020 RMK AO2  T11201127,,,,,,9.12,,S,29.54,30.1,,Clear
KIGQ,02/17/2018 09:55 UTC,30.19,11.12,9.68,93.76,0.0,0.0,,,,,,1.0,,,,10.0,,KIGQ 170955Z AUTO 00000KT 10SM CLR M12/M12 A3019 RMK AO2  T11161124,,,,,,9.65,,N,29.53,30.09,,Clear
KIGQ,02/17/2018 10:15 UTC,30.19,10.94,9.32,93.0,3.44,170.0,,,,,,1.0,,,,10.0,,KIGQ 171015Z AUTO 17003KT 10SM CLR M12/M13 A3019 RMK AO2  T11171126,,,,,,9.29,,S,29.53,30.09,,Clear
KIGQ,02/17/2018 10:35 UTC,30.18,10.76,8.6,90.75,0.0,0.0,,,,,,1.0,,,,10.0,,KIGQ 171035Z AUTO 00000KT 10SM CLR M12/M13 A3018 RMK AO2  T11181130,,,,,,8.56,,N,29.52,30.08,,Clear
KIGQ,02/17/2018 10:55 UTC,30.18,12.2,10.22,91.55,4.61,160.0,,,,,,1.0,,,,10.0,,KIGQ 171055Z AUTO 16004KT 10SM CLR M11/M12 A3018 RMK AO2  T11101121,,,,,,10.18,,SSE,29.52,30.07,,Clear
KIGQ,02/17/2018 11:15 UTC,30.18,12.38,10.04,90.09,3.44,170.0,,,,,,1.0,,,,10.0,,KIGQ 171115Z AUTO 17003KT 10SM CLR M11/M12 A3018 RMK AO2  T11091122,,,,,,10.0,,S,29.52,30.07,,Clear
KIGQ,02/17/2018 11:35 UTC,30.19,13.1,10.76,90.12,3.44,190.0,,,,,,1.0,,,,10.0,,KIGQ 171135Z AUTO 19003KT 10SM CLR M10/M12 A3019 RMK AO2  T11051118,,,,,,10.72,,S,29.53,30.07,,Clear
KIGQ,02/17/2018 11:55 UTC,30.17,13.82,11.3,89.44,3.44,170.0,,,,,,1.0,,,,10.0,,KIGQ 171155Z AUTO 17003KT 10SM CLR M10/M11 A3017 RMK AO2 T11011115  11101 21124,13.82,9.68,,,,11.25,,S,29.51,30.05,,Clear
KIGQ,02/17/2018 12:15 UTC,30.17,14.9,12.2,88.78,0.0,0.0,,,,,,1.0,,,,10.0,,KIGQ 171215Z AUTO 00000KT 10SM CLR M09/M11 A3017 RMK AO2  T10951110,,,,,,12.15,,N,29.51,30.04,,Clear
KIGQ,02/17/2018 12:35 UTC,30.16,15.8,13.28,89.53,3.44,140.0,,,,,,1.0,,,,10.0,,KIGQ 171235Z AUTO 14003KT 10SM CLR M09/M10 A3016 RMK AO2  T10901104,,,,,,13.23,,SE,29.5,30.02,,Clear
KIGQ,02/17/2018 12:55 UTC,30.14,17.24,14.36,88.2,4.61,160.0,,,,,,1.0,,,,10.0,,KIGQ 171255Z AUTO 16004KT 10SM CLR M08/M10 A3014 RMK AO2  T10821098,,,,,,14.31,,SSE,29.48,29.98,,Clear
KIGQ,02/17/2018 13:15 UTC,30.13,18.68,15.62,87.59,3.44,160.0,,,,,,1.0,,,,10.0,,KIGQ 171315Z AUTO 16003KT 10SM CLR M07/M09 A3013 RMK AO2  T10741091,,,,,,15.57,,SSE,29.47,29.96,,Clear
KIGQ,02/17/2018 13:35 UTC,30.13,19.76,16.7,87.65,3.44,170.0,,,,,,1.0,,,,10.0,,KIGQ 171335Z AUTO 17003KT 10SM CLR M07/M08 A3013 RMK AO2  T10681085,,,,,,16.65,,S,29.47,29.94,,Clear
KIGQ,02/17/2018 13:55 UTC,30.12,20.3,17.96,90.45,0.0,0.0,,,,,,1.0,,,,10.0,,KIGQ 171355Z AUTO 00000KT 10SM CLR M06/M08 A3012 RMK AO2  T10651078,,,,,,17.92,,N,29.47,29.93,,Clear
KIGQ,02/17/2018 14:15 UTC,30.1,21.92,19.4,89.82,3.44,140.0,,,,,,1.0,,,,10.0,,KIGQ 171415Z AUTO 14003KT 10SM CLR M06/M07 A3010 RMK AO2  T10561070,,,,,,19.35,,SE,29.45,29.89,,Clear
KIGQ,02/17/2018 14:35 UTC,30.1,23.0,20.66,90.56,3.44,160.0,,,,,,1.0,,,,10.0,,KIGQ 171435Z AUTO 16003KT 10SM CLR M05/M06 A3010 RMK AO2  T10501063,,,,,,20.62,,SSE,29.45,29.88,,Clear
KIGQ,02/17/2018 14:55 UTC,30.1,23.9,21.74,91.3,4.61,190.0,,,,,,1.0,,,,10.0,,KIGQ 171455Z AUTO 19004KT 10SM CLR M04/M06 A3010 RMK AO2  T10451057,,,,,,21.7,,S,29.45,29.86,,Clear
KIGQ,02/17/2018 15:15 UTC,30.09,25.34,22.64,89.3,6.91,180.0,,,,,,1.0,,,,10.0,,KIGQ 171515Z AUTO 18006KT 10SM CLR M04/M05 A3009 RMK AO2  T10371052,,,,,,22.59,,S,29.44,29.83,,Clear
KIGQ,02/17/2018 15:35 UTC,30.09,26.06,23.36,89.33,6.91,200.0,,,,,,1.0,,,,10.0,,KIGQ 171535Z AUTO 20006KT 10SM CLR M03/M05 A3009 RMK AO2  T10331048,,,,,,23.31,,SSW,29.44,29.82,,Clear
KIGQ,02/17/2018 15:55 UTC,30.09,27.14,24.26,88.71,6.91,200.0,,,,,,1.0,,,,10.0,,KIGQ 171555Z AUTO 20006KT 10SM CLR M03/M04 A3009 RMK AO2  T10271043,,,,,,24.21,,SSW,29.44,29.81,,Clear
KIGQ,02/17/2018 16:15 UTC,30.08,28.22,25.16,88.11,5.75,190.0,,,,,,1.0,,,,10.0,,KIGQ 171615Z AUTO 19005KT 10SM CLR M02/M04 A3008 RMK AO2  T10211038,,,,,,25.11,,S,29.43,29.78,,Clear
KIGQ,02/17/2018 16:35 UTC,30.08,29.3,25.52,85.56,5.75,190.0,,,,,,1.0,,,,10.0,,KIGQ 171635Z AUTO 19005KT 10SM CLR M01/M04 A3008 RMK AO2  T10151036,,,,,,25.45,,S,29.43,29.77,,Clear
KIGQ,02/17/2018 16:55 UTC,30.06,30.38,26.42,85.0,6.91,190.0,,,,,,1.0,,,,10.0,,KIGQ 171655Z AUTO 19006KT 10SM CLR M01/M03 A3006 RMK AO2  T10091031,,,,,,26.36,,S,29.41,29.73,,Clear
KIGQ,02/17/2018 17:15 UTC,30.06,31.46,26.96,83.19,8.05,210.0,,,,,,1.0,,,,10.0,,KIGQ 171715Z AUTO 21007KT 10SM CLR 00/M03 A3006 RMK AO2  T10031028,,,,,,26.89,26.44,SSW,29.41,29.72,,Clear
KIGQ,02/17/2018 17:35 UTC,30.05,32.0,27.32,82.61,6.91,190.0,,,,,,1003.0,,,,10.0,,KIGQ 171735Z AUTO 19006KT 10SM BKN100 00/M03 A3005 RMK AO2  T00001026,,,10000.0,,,27.24,,S,29.4,29.7,,Mostly Cloudy
KIGQ,02/17/2018 17:55 UTC,30.03,32.36,27.86,83.26,6.91,200.0,,,,,,1002.0,,,,10.0,,KIGQ 171755Z AUTO 20006KT 10SM SCT100 00/M02 A3003 RMK AO2  T00021023 10002 21100,32.36,14.0,,,,27.79,,SSW,29.38,29.67,,Partly Cloudy
KIGQ,02/17/2018 18:15 UTC,30.01,32.9,28.22,82.68,10.36,210.0,,,,,,902.0,1102.0,,,10.0,,KIGQ 171815Z AUTO 21009KT 10SM SCT090 SCT110 01/M02 A3001 RMK AO2  T00051021,,,,,,28.14,26.98,SSW,29.36,29.64,,Partly Cloudy
KIGQ,02/17/2018 18:35 UTC,29.99,32.9,28.4,83.29,11.5,200.0,,,,,,902.0,1003.0,,,10.0,,KIGQ 171835Z AUTO 20010KT 10SM SCT090 BKN100 01/M02 A2999 RMK AO2  T00051020,,,10000.0,,,28.33,26.49,SSW,29.34,29.62,,Mostly Cloudy
KIGQ,02/17/2018 18:55 UTC,29.98,33.08,28.4,82.69,10.36,200.0,,,,,,903.0,,,,10.0,,KIGQ 171855Z AUTO 20009KT 10SM BKN090 01/M02 A2998 RMK AO2  T00061020,,,9000.0,,,28.32,27.19,SSW,29.33,29.61,,Mostly Cloudy
KIGQ,02/17/2018 19:15 UTC,29.97,33.26,29.12,84.56,5.75,220.0,,,,,,223.0,903.0,,,10.0,,KIGQ 171915Z AUTO 22005KT 10SM BKN022 BKN090 01/M02 A2997 RMK AO2  T00071016,,,2200.0,,,29.05,,SW,29.32,29.59,,Mostly Cloudy
KIGQ,02/17/2018 19:35 UTC,29.96,33.44,29.12,83.95,6.91,200.0,,,,,,222.0,754.0,,,10.0,,KIGQ 171935Z AUTO 20006KT 10SM SCT022 OVC075 01/M02 A2996 RMK AO2  T00081016,,,7500.0,,,29.05,,SSW,29.31,29.58,,Overcast
KIGQ,02/17/2018 19:55 UTC,29.96,33.8,29.3,83.36,8.05,210.0,,,654.0,,,202.0,502.0,,,10.0,,KIGQ 171955Z AUTO 21007KT 10SM SCT020 SCT050 OVC065 01/M01 A2996 RMK AO2 T00101015,,,6500.0,,,29.23,29.19,SSW,29.31,29.57,,Overcast
KIGQ,02/17/2018 20:15 UTC,29.96,33.8,29.3,83.36,10.36,200.0,,,604.0,,,202.0,502.0,,,10.0,,KIGQ 172015Z AUTO 20009KT 10SM SCT020 SCT050 OVC060 01/M01 A2996 RMK AO2 T00101015,,,6000.0,,,29.23,28.06,SSW,29.31,29.57,,Overcast
KIGQ,02/17/2018 20:35 UTC,29.94,33.8,29.66,84.59,9.22,190.0,,,,,,203.0,504.0,,,10.0,,KIGQ 172035Z AUTO 19008KT 10SM BKN020 OVC050 01/M01 A2994 RMK AO2  T00101013,,,2000.0,,,29.59,28.59,S,29.29,29.55,,Overcast
KIGQ,02/17/2018 20:55 UTC,29.94,33.8,30.02,85.84,12.66,200.0,18.41,41.0,,,,204.0,,,,10.0,,KIGQ 172055Z AUTO 20011G16KT 10SM UP OVC020 01/M01 A2994 RMK AO2  T00101011,,,2000.0,,,29.96,27.12,SSW,29.29,29.54,,Unknown Precip
KIGQ,02/17/2018 21:15 UTC,29.95,32.72,31.1,93.67,10.36,200.0,,20.0,,,,164.0,,,,1.25,,KIGQ 172115Z AUTO 20009KT 1 1/4SM -SN OVC016 00/00 A2995 RMK AO2  T00041005,,,1600.0,,,31.07,26.76,SSW,29.3,29.54,,Light Snow
KIGQ,02/17/2018 21:35 UTC,29.94,32.0,32.0,100.0,6.91,190.0,,20.0,,,,83.0,144.0,,,0.5,,KIGQ 172135Z AUTO 19006KT 1/2SM -SN BKN008 OVC014 00/00 A2994 RMK AO2 T00000000,,,800.0,,,32.0,,S,29.29,29.52,,Light Snow
KIGQ,02/17/2018 21:55 UTC,29.95,32.0,32.0,100.0,5.75,200.0,,3.0,,0.02,,44.0,,,,0.25,,KIGQ 172155Z AUTO 20005KT 1/4SM SN OVC004 00/00 A2995 RMK AO2  P0002 T00000000,,,400.0,,,32.0,,SSW,29.3,29.53,,Snow
KIGQ,02/17/2018 22:15 UTC,29.95,32.0,32.0,100.0,6.91,190.0,,20.0,,0.01,,44.0,,,,0.5,,KIGQ 172215Z AUTO 19006KT 1/2SM -SN OVC004 00/00 A2995 RMK AO2  P0001 T00000000,,,400.0,,,32.0,,S,29.3,29.53,,Light Snow
KIGQ,02/17/2018 22:35 UTC,29.96,32.0,32.0,100.0,4.61,200.0,,20.0,,0.02,,64.0,,,,0.75,,KIGQ 172235Z AUTO 20004KT 3/4SM -SN OVC006 00/00 A2996 RMK AO2  P0002 T00000000,,,600.0,,,32.0,,SSW,29.31,29.54,,Light Snow
KIGQ,02/17/2018 22:55 UTC,29.96,32.0,32.0,100.0,4.61,190.0,,20.0,,0.02,,64.0,,,,1.25,,KIGQ 172255Z AUTO 19004KT 1 1/4SM -SN OVC006 00/00 A2996 RMK AO2  P0002 T00000000,,,600.0,,,32.0,,S,29.31,29.54,,Light Snow
KIGQ,02/17/2018 23:15 UTC,29.96,32.0,32.0,100.0,5.75,200.0,,20.0,,,,64.0,,,,1.5,,KIGQ 172315Z AUTO 20005KT 1 1/2SM -SN OVC006 00/00 A2996 RMK AO2  T00000000,,,600.0,,,32.0,,SSW,29.31,29.54,,Light Snow
KIGQ,02/17/2018 23:35 UTC,29.96,32.0,32.0,100.0,6.91,220.0,,20.0,,,,84.0,,,,3.0,,KIGQ 172335Z AUTO 22006KT 3SM -SN OVC008 00/00 A2996 RMK AO2  T00000000,,,800.0,,,32.0,,SW,29.31,29.54,,Light Snow
KIGQ,02/17/2018 23:55 UTC,29.97,32.18,32.18,100.0,8.05,250.0,,20.0,,,,84.0,,0.04,,7.0,,KIGQ 172355Z AUTO 25007KT 7SM -SN OVC008 00/00 A2997 RMK AO2 60004  T00010001 10011 20000,33.98,32.0,800.0,,,32.18,27.29,WSW,29.32,29.55,,Light Snow
KIGQ,02/18/2018 00:15 UTC,29.99,32.36,32.0,98.56,10.36,260.0,,20.0,,,,124.0,,,,7.0,,KIGQ 180015Z AUTO 26009KT 7SM -SN OVC012 00/00 A2999 RMK AO2  T00020000,,,1200.0,,,31.99,26.33,W,29.34,29.57,,Light Snow
KIGQ,02/18/2018 00:35 UTC,30.0,32.36,31.82,97.84,11.5,270.0,,20.0,,,,123.0,184.0,,,10.0,,KIGQ 180035Z AUTO 27010KT 10SM -SN BKN012 OVC018 00/00 A3000 RMK AO2 T00021001,,,1200.0,,,31.81,25.83,W,29.35,29.59,,Light Snow
KIGQ,02/18/2018 00:55 UTC,30.02,32.36,31.1,95.04,13.8,270.0,,,,,,143.0,234.0,,,10.0,,KIGQ 180055Z AUTO 27012KT 10SM BKN014 OVC023 00/00 A3002 RMK AO2  T00021005,,,1400.0,,,31.08,24.95,W,29.37,29.62,,Overcast
KIGQ,02/18/2018 01:15 UTC,30.03,32.0,30.74,95.03,14.97,280.0,21.85,,294.0,,,142.0,233.0,,,10.0,,KIGQ 180115Z AUTO 28013G19KT 10SM SCT014 BKN023 OVC029 00/M01  A3003 RMK AO2 T00001007,,,2300.0,,,30.72,24.1,W,29.38,29.64,,Overcast
KIGQ,02/18/2018 01:35 UTC,30.04,32.0,30.2,92.96,9.22,290.0,,,294.0,,,142.0,192.0,,,10.0,,KIGQ 180135Z AUTO 29008KT 10SM SCT014 SCT019 OVC029 00/M01 A3004 RMK AO2 T00001010,,,2900.0,,,30.17,26.45,WNW,29.39,29.65,,Overcast
KIGQ,02/18/2018 01:55 UTC,30.05,31.64,29.66,92.27,9.22,280.0,,,274.0,,,142.0,212.0,,,10.0,,KIGQ 180155Z AUTO 28008KT 10SM SCT014 SCT021 OVC027 00/M01 A3005 RMK AO2 T10021013,,,2700.0,,,29.63,26.02,W,29.4,29.67,,Overcast
KIGQ,02/18/2018 02:15 UTC,30.07,31.46,29.3,91.59,11.5,280.0,17.27,,,,,163.0,254.0,,,10.0,,KIGQ 180215Z AUTO 28010G15KT 10SM BKN016 OVC025 00/M01 A3007 RMK AO2 T10031015,,,1600.0,,,29.26,24.75,W,29.42,29.7,,Overcast
KIGQ,02/18/2018 02:35 UTC,30.08,30.38,27.32,88.22,14.97,300.0,18.41,,,,,164.0,,,,10.0,,KIGQ 180235Z AUTO 30013G16KT 10SM OVC016 M01/M03 A3008 RMK AO2  T10091026,,,1600.0,,,27.27,22.1,WNW,29.43,29.74,,Overcast
KIGQ,02/18/2018 02:55 UTC,30.09,30.2,27.14,88.21,9.22,300.0,16.11,,,,,164.0,,,,10.0,,KIGQ 180255Z AUTO 30008G14KT 10SM OVC016 M01/M03 A3009 RMK AO2  T10101027,,,1600.0,,,27.09,24.31,WNW,29.44,29.76,,Overcast
KIGQ,02/18/2018 03:15 UTC,30.1,29.84,26.78,88.19,12.66,300.0,19.57,,,,,164.0,,,,10.0,,KIGQ 180315Z AUTO 30011G17KT 10SM OVC016 M01/M03 A3010 RMK AO2  T10121029,,,1600.0,,,26.73,22.3,WNW,29.45,29.77,,Overcast
KIGQ,02/18/2018 03:35 UTC,30.11,29.66,26.6,88.18,10.36,300.0,,,,,,164.0,,,,10.0,,KIGQ 180335Z AUTO 30009KT 10SM OVC016 M01/M03 A3011 RMK AO2  T10131030,,,1600.0,,,26.55,23.1,WNW,29.46,29.79,,Overcast
KIGQ,02/18/2018 03:55 UTC,30.13,29.84,26.78,88.19,12.66,280.0,19.57,,,,,164.0,,,,10.0,,KIGQ 180355Z AUTO 28011G17KT 10SM OVC016 M01/M03 A3013 RMK AO2  T10121029,,,1600.0,,,26.73,22.3,W,29.47,29.79,,Overcast
KIGQ,02/18/2018 04:15 UTC,30.13,29.84,26.96,88.85,8.05,290.0,,,,,,164.0,,,,10.0,,KIGQ 180415Z AUTO 29007KT 10SM OVC016 M01/M03 A3013 RMK AO2  T10121028,,,1600.0,,,26.91,24.54,WNW,29.47,29.79,,Overcast
KIGQ,02/18/2018 04:35 UTC,30.13,29.84,26.96,88.85,4.61,280.0,,,,,,164.0,,,,10.0,,KIGQ 180435Z AUTO 28004KT 10SM OVC016 M01/M03 A3013 RMK AO2  T10121028,,,1600.0,,,26.91,,W,29.47,29.79,,Overcast
KIGQ,02/18/2018 04:55 UTC,30.13,29.12,26.42,89.48,3.44,290.0,,,,,,164.0,,,,10.0,,KIGQ 180455Z AUTO 29003KT 10SM OVC016 M02/M03 A3013 RMK AO2  T10161031,,,1600.0,,,26.37,,WNW,29.47,29.8,,Overcast
KIGQ,02/18/2018 05:15 UTC,30.13,28.22,25.7,90.11,4.61,270.0,,,,,,164.0,,,,10.0,,KIGQ 180515Z AUTO 27004KT 10SM OVC016 M02/M03 A3013 RMK AO2  T10211035,,,1600.0,,,25.66,,W,29.47,29.82,,Overcast
KIGQ,02/18/2018 05:35 UTC,30.14,26.78,24.62,91.41,4.61,270.0,,,,,,143.0,,,,10.0,,KIGQ 180535Z AUTO 27004KT 10SM BKN014 M03/M04 A3014 RMK AO2  T10291041,,,1400.0,,,24.58,,W,29.48,29.85,,Mostly Cloudy
KIGQ,02/18/2018 05:55 UTC,30.17,24.8,23.36,94.14,4.61,260.0,,,,,,142.0,,,,10.0,,KIGQ 180555Z AUTO 26004KT 10SM SCT014 M04/M05 A3017 RMK AO2  T10401048 10003 21040 400111124,32.54,24.8,,33.98,9.68,23.33,,W,29.51,29.9,,Partly Cloudy
KIGQ,02/18/2018 06:15 UTC,30.19,23.9,22.28,93.41,6.91,230.0,,,,,,144.0,,,,10.0,,KIGQ 180615Z AUTO 23006KT 10SM OVC014 M04/M05 A3019 RMK AO2  T10451054,,,1400.0,,,22.25,,SW,29.53,29.94,,Overcast
KIGQ,02/18/2018 06:35 UTC,30.2,24.26,22.28,92.01,5.75,230.0,,,,,,142.0,,,,10.0,,KIGQ 180635Z AUTO 23005KT 10SM SCT014 M04/M05 A3020 RMK AO2  T10431054,,,,,,22.24,,SW,29.54,29.95,,Partly Cloudy
KIGQ,02/18/2018 06:55 UTC,30.22,24.08,22.82,94.84,5.75,240.0,,,,,,163.0,,,,10.0,,KIGQ 180655Z AUTO 24005KT 10SM BKN016 M04/M05 A3022 RMK AO2  T10441051,,,1600.0,,,22.8,,WSW,29.56,29.96,,Mostly Cloudy
KIGQ,02/18/2018 07:15 UTC,30.22,26.06,23.9,91.38,6.91,250.0,,,,,,164.0,,,,10.0,,KIGQ 180715Z AUTO 25006KT 10SM OVC016 M03/M04 A3022 RMK AO2  T10331045,,,1600.0,,,23.86,,WSW,29.56,29.94,,Overcast
KIGQ,02/18/2018 07:35 UTC,30.24,26.24,24.08,91.39,6.91,270.0,,,,,,124.0,,,,10.0,,KIGQ 180735Z AUTO 27006KT 10SM OVC012 M03/M04 A3024 RMK AO2  T10321044,,,1200.0,,,24.04,,W,29.58,29.96,,Overcast
KIGQ,02/18/2018 07:55 UTC,30.25,25.7,23.9,92.76,6.91,270.0,,,,,,124.0,,,,10.0,,KIGQ 180755Z AUTO 27006KT 10SM OVC012 M03/M04 A3025 RMK AO2  T10351045,,,1200.0,,,23.87,,W,29.59,29.97,,Overcast
KIGQ,02/18/2018 08:15 UTC,30.26,24.26,23.0,94.85,3.44,280.0,,,,,,122.0,,,,10.0,,KIGQ 180815Z AUTO 28003KT 10SM SCT012 M04/M05 A3026 RMK AO2  T10431050,,,,,,22.98,,W,29.6,30.0,,Partly Cloudy
KIGQ,02/18/2018 08:35 UTC,30.26,22.46,21.2,94.8,3.44,240.0,,,,,,1.0,,,,10.0,,KIGQ 180835Z AUTO 24003KT 10SM CLR M05/M06 A3026 RMK AO2  T10531060,,,,,,21.18,,WSW,29.6,30.03,,Clear
KIGQ,02/18/2018 08:55 UTC,30.26,19.22,19.04,99.23,0.0,0.0,,,,,,1.0,,,,7.0,,KIGQ 180855Z AUTO 00000KT 7SM CLR M07/M07 A3026 RMK AO2  T10711072,,,,,,19.04,,N,29.6,30.06,,Clear
KIGQ,02/18/2018 09:15 UTC,30.25,15.98,15.08,96.15,0.0,0.0,,31.0,,,,75.0,,,,1.5,,KIGQ 180915Z AUTO 00000KT 1 1/2SM BR VV007 M09/M09 A3025 RMK AO2  VIS 1/2V5 T10891094,,,700.0,,,15.06,,N,29.59,30.1,,Mist
KIGQ,02/18/2018 09:35 UTC,30.26,17.96,17.78,99.23,3.44,200.0,,31.0,,,,75.0,,,,1.0,,KIGQ 180935Z AUTO 20003KT 1SM BR VV007 M08/M08 A3026 RMK AO2  T10781079,,,700.0,,,17.78,,SSW,29.6,30.08,,Mist
KIGQ,02/18/2018 09:55 UTC,30.26,13.1,12.02,95.33,3.44,200.0,,30.0,,,,34.0,,,,0.25,,KIGQ 180955Z AUTO 20003KT 1/4SM FZFG OVC003 M10/M11 A3026 RMK AO2  T11051111,,,300.0,,,12.0,,SSW,29.6,30.14,,Ice Fog
KIGQ,02/18/2018 10:15 UTC,30.26,15.62,15.26,98.44,3.44,180.0,,30.0,,,,34.0,,,,0.25,,KIGQ 181015Z AUTO 18003KT 1/4SM FZFG OVC003 M09/M09 A3026 RMK AO2  T10911093,,,300.0,,,15.25,,S,29.6,30.11,,Ice Fog
KIGQ,02/18/2018 10:35 UTC,30.26,14.72,14.0,96.89,3.44,170.0,,30.0,,,,55.0,,,,0.5,,KIGQ 181035Z AUTO 17003KT 1/2SM FZFG VV005 M10/M10 A3026 RMK AO2  T10961100,,,500.0,,,13.99,,S,29.6,30.12,,Ice Fog
KIGQ,02/18/2018 10:55 UTC,30.26,14.36,13.82,97.65,0.0,0.0,,30.0,,,,53.0,,,,0.25,,KIGQ 181055Z AUTO 00000KT 1/4SM FZFG BKN005 M10/M10 A3026 RMK AO2  T10981101,,,500.0,,,13.81,,N,29.6,30.12,,Ice Fog
KIGQ,02/18/2018 11:15 UTC,30.26,16.88,16.7,99.22,3.44,140.0,,30.0,,,,55.0,,,,0.5,,KIGQ 181115Z AUTO 14003KT 1/2SM FZFG VV005 M08/M08 A3026 RMK AO2  T10841085,,,500.0,,,16.7,,SE,29.6,30.09,,Ice Fog
KIGQ,02/18/2018 11:35 UTC,30.27,12.74,11.48,94.56,0.0,0.0,,30.0,,,,54.0,,,,0.25,,KIGQ 181135Z AUTO 00000KT 1/4SM FZFG OVC005 M11/M11 A3027 RMK AO2  T11071114,,,500.0,,,11.46,,N,29.61,30.15,,Ice Fog
KIGQ,02/18/2018 11:55 UTC,30.27,11.48,10.4,95.29,0.0,0.0,,30.0,,,,54.0,,,0.04,0.25,,KIGQ 181155Z AUTO 00000KT 1/4SM FZFG OVC005 M11/M12 A3027 RMK AO2  70004 T11141120 11032 21117,26.24,10.94,500.0,,,10.38,,N,29.61,30.16,,Ice Fog
KIGQ,02/18/2018 12:15 UTC,30.26,12.38,11.48,96.08,0.0,0.0,,30.0,,,,54.0,,,,0.25,,KIGQ 181215Z AUTO 00000KT 1/4SM FZFG OVC005 M11/M11 A3026 RMK AO2  T11091114,,,500.0,,,11.46,,N,29.6,30.14,,Ice Fog
KIGQ,02/18/2018 12:35 UTC,30.26,15.26,14.9,98.44,0.0,0.0,,31.0,,,,53.0,,,,1.0,,KIGQ 181235Z AUTO 00000KT 1SM BR BKN005 M09/M09 A3026 RMK AO2  T10931095,,,500.0,,,14.89,,N,29.6,30.11,,Mist
KIGQ,02/18/2018 12:55 UTC,30.27,13.82,12.92,96.11,0.0,0.0,,30.0,,,,34.0,,,,-0.25,,KIGQ 181255Z AUTO 00000KT M1/4SM FZFG OVC003 M10/M11 A3027 RMK AO2  T11011106,,,300.0,,,12.9,,N,29.61,30.14,,Ice Fog
KIGQ,02/18/2018 13:15 UTC,30.28,8.6,7.34,94.45,0.0,0.0,,30.0,,,,34.0,,,,-0.25,,KIGQ 181315Z AUTO 00000KT M1/4SM FZFG OVC003 M13/M14 A3028 RMK AO2  T11301137,,,300.0,,,7.32,,N,29.62,30.2,,Ice Fog
KIGQ,02/18/2018 13:35 UTC,30.28,11.66,10.94,96.84,0.0,0.0,,30.0,,,,33.0,,,,0.25,,KIGQ 181335Z AUTO 00000KT 1/4SM FZFG BKN003 M11/M12 A3028 RMK AO2  T11131117,,,300.0,,,10.93,,N,29.62,30.17,,Ice Fog
KIGQ,02/18/2018 13:55 UTC,30.27,20.48,20.48,100.0,6.91,150.0,,31.0,,,,1.0,,,,5.0,,KIGQ 181355Z AUTO 15006KT 5SM BR CLR M06/M06 A3027 RMK AO2  T10641064,,,,,,20.48,,SSE,29.61,30.05,,Mist
KIGQ,02/18/2018 14:15 UTC,30.26,22.82,22.82,100.0,9.22,160.0,,,,,,1.0,,,,10.0,,KIGQ 181415Z AUTO 16008KT 10SM CLR M05/M05 A3026 RMK AO2  T10511051,,,,,,22.82,15.56,SSE,29.6,30.01,,Clear
KIGQ,02/18/2018 14:35 UTC,30.26,24.08,24.08,100.0,6.91,150.0,,,,,,1.0,,,,10.0,,KIGQ 181435Z AUTO 15006KT 10SM CLR M04/M04 A3026 RMK AO2  T10441044,,,,,,24.08,,SSE,29.6,29.99,,Clear
KIGQ,02/18/2018 14:55 UTC,30.27,24.8,24.8,100.0,8.05,160.0,,,,,,1.0,,,,10.0,,KIGQ 181455Z AUTO 16007KT 10SM CLR M04/M04 A3027 RMK AO2  T10401040,,,,,,24.8,18.62,SSE,29.61,29.99,,Clear
KIGQ,02/18/2018 15:15 UTC,30.28,24.98,24.98,100.0,11.5,170.0,,,,,,83.0,,,,10.0,,KIGQ 181515Z AUTO 17010KT 10SM BKN008 M04/M04 A3028 RMK AO2  T10391039,,,800.0,,,24.98,16.93,S,29.62,30.0,,Mostly Cloudy
KIGQ,02/18/2018 15:35 UTC,30.3,24.8,24.8,100.0,14.97,190.0,,,,,,84.0,,,,7.0,,KIGQ 181535Z AUTO 19013KT 7SM OVC008 M04/M04 A3030 RMK AO2  T10401040,,,800.0,,,24.8,15.22,S,29.64,30.02,,Overcast
KIGQ,02/18/2018 15:55 UTC,30.31,24.26,24.26,100.0,11.5,180.0,,,,,,64.0,,,,7.0,,KIGQ 181555Z AUTO 18010KT 7SM OVC006 M04/M04 A3031 RMK AO2  T10431043,,,600.0,,,24.26,16.06,S,29.65,30.04,,Overcast
KIGQ,02/18/2018 16:15 UTC,30.3,24.8,24.8,100.0,10.36,180.0,,,,,,64.0,,,,7.0,,KIGQ 181615Z AUTO 18009KT 7SM OVC006 M04/M04 A3030 RMK AO2  T10401040,,,600.0,,,24.8,17.28,S,29.64,30.02,,Overcast
KIGQ,02/18/2018 16:35 UTC,30.3,25.16,25.16,100.0,10.36,180.0,,,,,,64.0,,,,7.0,,KIGQ 181635Z AUTO 18009KT 7SM OVC006 M04/M04 A3030 RMK AO2  T10381038,,,600.0,,,25.16,17.71,S,29.64,30.01,,Overcast
KIGQ,02/18/2018 16:55 UTC,30.3,25.7,25.7,100.0,10.36,190.0,,,,,,84.0,,,,10.0,,KIGQ 181655Z AUTO 19009KT 10SM OVC008 M03/M03 A3030 RMK AO2  T10351035,,,800.0,,,25.7,18.36,S,29.64,30.0,,Overcast
KIGQ,02/18/2018 17:15 UTC,30.3,26.6,26.6,100.0,11.5,170.0,,,,,,84.0,,,,10.0,,KIGQ 181715Z AUTO 17010KT 10SM OVC008 M03/M03 A3030 RMK AO2  T10301030,,,800.0,,,26.6,18.88,S,29.64,29.99,,Overcast
KIGQ,02/18/2018 17:35 UTC,30.28,27.32,27.32,100.0,10.36,170.0,,,,,,83.0,,,,10.0,,KIGQ 181735Z AUTO 17009KT 10SM BKN008 M03/M03 A3028 RMK AO2  T10261026,,,800.0,,,27.32,20.3,S,29.62,29.96,,Mostly Cloudy
KIGQ,02/18/2018 17:55 UTC,30.26,29.12,27.5,93.56,13.8,170.0,,,,,,102.0,,,,10.0,,KIGQ 181755Z AUTO 17012KT 10SM SCT010 M02/M02 A3026 RMK AO2  T10161025 11016 21131,29.12,8.42,,,,27.47,20.98,S,29.6,29.92,,Partly Cloudy
KIGQ,02/18/2018 18:15 UTC,30.25,30.92,27.5,86.95,10.36,170.0,,,,,,1.0,,,,10.0,,KIGQ 181815Z AUTO 17009KT 10SM CLR M01/M02 A3025 RMK AO2  T10061025,,,,,,27.44,24.61,S,29.59,29.9,,Clear
KIGQ,02/18/2018 18:35 UTC,30.23,31.64,27.86,85.71,11.5,160.0,,,,,,1.0,,,,10.0,,KIGQ 181835Z AUTO 16010KT 10SM CLR 00/M02 A3023 RMK AO2  T10021023,,,,,,27.8,24.96,SSE,29.57,29.87,,Clear
KIGQ,02/18/2018 18:55 UTC,30.21,32.18,28.22,85.11,12.66,180.0,,,,,,1.0,,,,10.0,,KIGQ 181855Z AUTO 18011KT 10SM CLR 00/M02 A3021 RMK AO2  T00011021,,,,,,28.15,25.15,S,29.55,29.84,,Clear
KIGQ,02/18/2018 19:15 UTC,30.18,33.08,28.76,83.92,10.36,160.0,,,,,,1.0,,,,10.0,,KIGQ 181915Z AUTO 16009KT 10SM CLR 01/M02 A3018 RMK AO2  T00061018,,,,,,28.69,27.19,SSE,29.52,29.8,,Clear
KIGQ,02/18/2018 19:35 UTC,30.16,33.8,28.94,82.14,12.66,170.0,16.11,,,,,1.0,,,,10.0,,KIGQ 181935Z AUTO 17011G14KT 10SM CLR 01/M02 A3016 RMK AO2  T00101017,,,,,,28.86,27.12,S,29.5,29.77,,Clear
KIGQ,02/18/2018 19:55 UTC,30.16,34.7,29.3,80.42,9.22,140.0,18.41,,,,,1.0,,,,10.0,,KIGQ 181955Z AUTO 14008G16KT 10SM CLR 02/M01 A3016 RMK AO2  T00151015,,,,,,29.22,29.65,SE,29.5,29.76,,Clear
KIGQ,02/18/2018 20:15 UTC,30.14,35.24,29.3,78.71,11.5,150.0,,,,,,1.0,,,,10.0,,KIGQ 182015Z AUTO 15010KT 10SM CLR 02/M01 A3014 RMK AO2  T00181015,,,,,,29.21,29.31,SSE,29.48,29.74,,Clear
KIGQ,02/18/2018 20:35 UTC,30.14,35.6,29.48,78.16,10.36,150.0,,,,,,1.0,,,,10.0,,KIGQ 182035Z AUTO 15009KT 10SM CLR 02/M01 A3014 RMK AO2  T00201014,,,,,,29.39,30.21,SSE,29.48,29.73,,Clear
KIGQ,02/18/2018 20:55 UTC,30.13,35.78,29.48,77.6,9.22,150.0,,,,,,1.0,,,,10.0,,KIGQ 182055Z AUTO 15008KT 10SM CLR 02/M01 A3013 RMK AO2  T00211014,,,,,,29.38,30.93,SSE,29.47,29.72,,Clear
KIGQ,02/18/2018 21:15 UTC,30.12,35.6,29.84,79.32,11.5,140.0,18.41,,,,,1.0,,,,10.0,,KIGQ 182115Z AUTO 14010G16KT 10SM CLR 02/M01 A3012 RMK AO2  T00201012,,,,,,29.75,29.74,SE,29.47,29.72,,Clear
KIGQ,02/18/2018 21:35 UTC,30.1,35.6,30.2,80.49,14.97,160.0,19.57,,,,,1.0,,,,10.0,,KIGQ 182135Z AUTO 16013G17KT 10SM CLR 02/M01 A3010 RMK AO2  T00201010,,,,,,30.12,28.53,SSE,29.45,29.69,,Clear
KIGQ,02/18/2018 21:55 UTC,30.1,35.6,30.56,81.68,16.11,150.0,,,,,,1.0,,,,10.0,,KIGQ 182155Z AUTO 15014KT 10SM CLR 02/M01 A3010 RMK AO2  T00201008,,,,,,30.48,28.19,SSE,29.45,29.69,,Clear
KIGQ,02/18/2018 22:15 UTC,30.09,35.6,30.92,82.88,11.5,150.0,,,,,,1.0,,,,10.0,,KIGQ 182215Z AUTO 15010KT 10SM CLR 02/M01 A3009 RMK AO2  T00201006,,,,,,30.85,29.74,SSE,29.44,29.67,,Clear
KIGQ,02/18/2018 22:35 UTC,30.08,35.6,31.1,83.49,8.05,150.0,,,,,,1.0,,,,10.0,,KIGQ 182235Z AUTO 15007KT 10SM CLR 02/00 A3008 RMK AO2  T00201005,,,,,,31.03,31.3,SSE,29.43,29.66,,Clear
KIGQ,02/18/2018 22:55 UTC,30.08,35.96,31.64,84.12,9.22,160.0,,,,,,1.0,,,,10.0,,KIGQ 182255Z AUTO 16008KT 10SM CLR 02/00 A3008 RMK AO2  T00221002,,,,,,31.57,31.15,SSE,29.43,29.65,,Clear
KIGQ,02/18/2018 23:15 UTC,30.06,36.32,31.82,83.54,10.36,150.0,17.27,,,,,1.0,,,,10.0,,KIGQ 182315Z AUTO 15009G15KT 10SM CLR 02/00 A3006 RMK AO2  T00241001,,,,,,31.75,31.07,SSE,29.41,29.62,,Clear
KIGQ,02/18/2018 23:35 UTC,30.04,36.14,31.82,84.13,11.5,140.0,17.27,,,,,1.0,,,,10.0,,KIGQ 182335Z AUTO 14010G15KT 10SM CLR 02/00 A3004 RMK AO2  T00231001,,,,,,31.75,30.4,SE,29.39,29.6,,Clear
KIGQ,02/18/2018 23:55 UTC,30.03,36.14,32.0,84.75,11.5,140.0,16.11,,,,,1.0,,,,10.0,,KIGQ 182355Z AUTO 14010G14KT 10SM CLR 02/00 A3003 RMK AO2  T00230000 10025 21015,36.5,29.3,,,,31.94,30.4,SE,29.38,29.59,,Clear
KIGQ,02/19/2018 00:15 UTC,30.02,36.68,32.0,82.96,14.97,150.0,,,,,,1.0,,,,10.0,,KIGQ 190015Z AUTO 15013KT 10SM CLR 03/00 A3002 RMK AO2  T00260000,,,,,,31.93,29.86,SSE,29.37,29.57,,Clear
KIGQ,02/19/2018 00:35 UTC,30.01,36.68,32.18,83.56,12.66,150.0,,,,,,1.0,,,,10.0,,KIGQ 190035Z AUTO 15011KT 10SM CLR 03/00 A3001 RMK AO2  T00260001,,,,,,32.11,30.62,SSE,29.36,29.56,,Clear
KIGQ,02/19/2018 00:55 UTC,29.99,37.4,32.18,81.22,14.97,140.0,,,,,,1.0,,,,10.0,,KIGQ 190055Z AUTO 14013KT 10SM CLR 03/00 A2999 RMK AO2  T00300001,,,,,,32.1,30.75,SE,29.34,29.54,,Clear
KIGQ,02/19/2018 01:15 UTC,29.98,36.5,32.18,84.16,13.8,140.0,,,,,,1.0,,,,10.0,,KIGQ 190115Z AUTO 14012KT 10SM CLR 03/00 A2998 RMK AO2  T00250001,,,,,,32.11,30.01,SE,29.33,29.53,,Clear
KIGQ,02/19/2018 01:35 UTC,29.98,37.22,32.18,81.8,14.97,150.0,,,,,,1.0,,,,10.0,,KIGQ 190135Z AUTO 15013KT 10SM CLR 03/00 A2998 RMK AO2  T00290001,,,,,,32.1,30.53,SSE,29.33,29.53,,Clear
KIGQ,02/19/2018 01:55 UTC,29.96,37.94,32.18,79.52,16.11,150.0,23.02,,,,,1.0,,,,10.0,,KIGQ 190155Z AUTO 15014G20KT 10SM CLR 03/00 A2996 RMK AO2  T00330001,,,,,,32.1,31.09,SSE,29.31,29.5,,Clear
KIGQ,02/19/2018 02:15 UTC,29.96,38.3,32.36,78.97,17.27,150.0,24.16,,,,,1.0,,,,10.0,,KIGQ 190215Z AUTO 15015G21KT 10SM CLR 04/00 A2996 RMK AO2  T00350002,,,,,,32.27,31.22,SSE,29.31,29.5,,Clear
KIGQ,02/19/2018 02:35 UTC,29.97,38.3,32.18,78.4,14.97,160.0,20.71,,,,,1.0,,,,10.0,,KIGQ 190235Z AUTO 16013G18KT 10SM CLR 04/00 A2997 RMK AO2  T00350001,,,,,,32.09,31.86,SSE,29.32,29.51,,Clear
KIGQ,02/19/2018 02:55 UTC,29.96,38.12,32.0,78.39,13.8,160.0,,,,,,1.0,,,,10.0,,KIGQ 190255Z AUTO 16012KT 10SM CLR 03/00 A2996 RMK AO2  T00340000,,,,,,31.91,32.0,SSE,29.31,29.5,,Clear
KIGQ,02/19/2018 03:15 UTC,29.95,37.94,32.0,78.94,12.66,150.0,,,,,,1.0,,,,10.0,,KIGQ 190315Z AUTO 15011KT 10SM CLR 03/00 A2995 RMK AO2  T00330000,,,,,,31.91,32.15,SSE,29.3,29.49,,Clear
KIGQ,02/19/2018 03:35 UTC,29.94,38.12,32.0,78.39,14.97,160.0,19.57,,,,,1.0,,,,10.0,,KIGQ 190335Z AUTO 16013G17KT 10SM CLR 03/00 A2994 RMK AO2  T00340000,,,,,,31.91,31.64,SSE,29.29,29.48,,Clear
KIGQ,02/19/2018 03:55 UTC,29.94,38.12,32.0,78.39,16.11,170.0,21.85,,,,,1.0,,,,10.0,,KIGQ 190355Z AUTO 17014G19KT 10SM CLR 03/00 A2994 RMK AO2  T00340000,,,,,,31.91,31.31,S,29.29,29.48,,Clear
KIGQ,02/19/2018 04:15 UTC,29.93,38.3,32.0,77.83,18.41,170.0,24.16,,,,,1.0,,,,10.0,,KIGQ 190415Z AUTO 17016G21KT 10SM CLR 04/00 A2993 RMK AO2  T00350000,,,,,,31.91,30.93,S,29.28,29.47,,Clear
KIGQ,02/19/2018 04:35 UTC,29.92,39.2,32.0,75.14,14.97,170.0,23.02,,,,,412.0,,,,10.0,,KIGQ 190435Z AUTO 17013G20KT 10SM SCT041 04/00 A2992 RMK AO2  T00400000,,,,,,31.9,32.97,S,29.27,29.46,,Partly Cloudy
KIGQ,02/19/2018 04:55 UTC,29.92,39.56,32.18,74.63,20.71,180.0,25.32,,,,,412.0,952.0,,,10.0,,KIGQ 190455Z AUTO 18018G22KT 10SM SCT041 SCT095 04/00 A2992 RMK AO2 T00420001,,,,,,32.07,31.98,S,29.27,29.45,,Partly Cloudy
KIGQ,02/19/2018 05:15 UTC,29.9,39.2,32.18,75.69,17.27,170.0,,,,,,953.0,,,,10.0,,KIGQ 190515Z AUTO 17015KT 10SM BKN095 04/00 A2990 RMK AO2  T00400001,,,9500.0,,,32.08,32.34,S,29.25,29.43,,Mostly Cloudy
KIGQ,02/19/2018 05:35 UTC,29.87,39.38,32.36,75.71,11.5,160.0,18.41,,,,,902.0,1103.0,,,10.0,,KIGQ 190535Z AUTO 16010G16KT 10SM SCT090 BKN110 04/00 A2987 RMK AO2 T00410002,,,11000.0,,,32.26,34.31,SSE,29.22,29.4,,Mostly Cloudy
KIGQ,02/19/2018 05:55 UTC,29.88,39.56,32.36,75.18,13.8,170.0,24.16,,,,,902.0,1102.0,,,10.0,,KIGQ 190555Z AUTO 17012G21KT 10SM SCT090 SCT110 04/00 A2988 RMK AO2 LTG DSNT SW T00420002 10042 20024 400421131,39.56,36.32,,39.56,8.42,32.26,33.76,S,29.23,29.41,,Partly Cloudy
KIGQ,02/19/2018 06:15 UTC,29.9,39.2,32.72,77.35,13.8,200.0,18.41,,,,,703.0,903.0,,,10.0,,KIGQ 190615Z AUTO 20012G16KT 10SM BKN070 BKN090 04/00 A2990 RMK AO2 T00400004,,,7000.0,,,32.63,33.32,SSW,29.25,29.42,,Mostly Cloudy
KIGQ,02/19/2018 06:35 UTC,29.91,39.38,32.9,77.37,5.75,190.0,,,,,,604.0,,,,10.0,,KIGQ 190635Z AUTO 19005KT 10SM OVC060 04/01 A2991 RMK AO2 LTG DSNT  SW T00410005,,,6000.0,,,32.81,,S,29.26,29.43,,Overcast
KIGQ,02/19/2018 06:55 UTC,29.91,38.48,32.9,80.14,9.22,160.0,,1.0,,,,604.0,,,,10.0,,KIGQ 190655Z AUTO 16008KT 10SM RA OVC060 04/01 A2991 RMK AO2  T00360005,,,6000.0,,,32.82,34.14,SSE,29.26,29.44,,Rain
KIGQ,02/19/2018 07:15 UTC,29.9,37.76,33.8,85.47,6.91,180.0,,1.0,854.0,0.02,,602.0,753.0,,,7.0,,KIGQ 190715Z AUTO 18006KT 7SM RA SCT060 BKN075 OVC085 03/01 A2990 RMK AO2 P0002 T00320010,,,7500.0,,,33.74,,S,29.25,29.41,,Rain
KIGQ,02/19/2018 07:35 UTC,29.89,37.4,34.52,89.21,6.91,170.0,,1.0,854.0,0.02,,333.0,503.0,,,10.0,,KIGQ 190735Z AUTO 17006KT 10SM RA BKN033 BKN050 OVC085 03/01 A2989 RMK AO2 P0002 T00300014,,,3300.0,,,34.47,,S,29.24,29.39,,Rain
KIGQ,02/19/2018 07:55 UTC,29.9,36.86,34.52,91.13,6.91,190.0,,1.0,,0.02,,293.0,334.0,,,7.0,,KIGQ 190755Z AUTO 19006KT 7SM RA BKN029 OVC033 03/01 A2990 RMK AO2  P0002 T00270014,,,2900.0,,,34.48,,S,29.25,29.41,,Rain
KIGQ,02/19/2018 08:15 UTC,29.9,36.14,34.7,94.44,8.05,180.0,,,,,,224.0,,,,10.0,,KIGQ 190815Z AUTO 18007KT 10SM OVC022 02/02 A2990 RMK AO2  T00230015,,,2200.0,,,34.68,31.94,S,29.25,29.41,,Overcast
KIGQ,02/19/2018 08:35 UTC,29.89,36.68,35.6,95.81,8.05,190.0,,,,,,204.0,,,,10.0,,KIGQ 190835Z AUTO 19007KT 10SM OVC020 03/02 A2989 RMK AO2 LTG DSNT  SE T00260020,,,2000.0,,,35.58,32.57,S,29.24,29.38,,Overcast
KIGQ,02/19/2018 08:55 UTC,29.88,36.86,35.96,96.5,9.22,180.0,,,,,0.02,184.0,,,,10.0,,KIGQ 190855Z AUTO 18008KT 10SM OVC018 03/02 A2988 RMK AO2 LTG DSNT  E 60002 T00270022,,,1800.0,,,35.94,32.22,S,29.23,29.36,,Overcast
KIGQ,02/19/2018 09:15 UTC,29.89,37.4,36.86,97.89,9.22,190.0,,,,,,124.0,,,,10.0,,KIGQ 190915Z AUTO 19008KT 10SM OVC012 03/03 A2989 RMK AO2  T00300027,,,1200.0,,,36.85,32.86,S,29.24,29.35,,Overcast
KIGQ,02/19/2018 09:35 UTC,29.89,37.04,37.04,100.0,6.91,200.0,,17.0,,,,63.0,114.0,,,3.0,,KIGQ 190935Z AUTO 20006KT 3SM -DZ BKN006 OVC011 03/03 A2989 RMK AO2 T00280028,,,600.0,,,37.04,,SSW,29.24,29.35,,Light Drizzle
KIGQ,02/19/2018 09:55 UTC,29.9,36.68,36.68,100.0,6.91,190.0,,17.0,,,,64.0,,,,3.0,,KIGQ 190955Z AUTO 19006KT 3SM -DZ OVC006 03/03 A2990 RMK AO2 LTG  DSNT S T00260026,,,600.0,,,36.68,,S,29.25,29.37,,Light Drizzle
KIGQ,02/19/2018 10:15 UTC,29.88,36.5,36.5,100.0,4.61,180.0,,17.0,,,,44.0,,,,3.0,,KIGQ 191015Z AUTO 18004KT 3SM -DZ OVC004 03/03 A2988 RMK AO2  T00250025,,,400.0,,,36.5,,S,29.23,29.35,,Light Drizzle
KIGQ,02/19/2018 10:35 UTC,29.9,36.5,36.5,100.0,3.44,200.0,,31.0,,,,44.0,,,,4.0,,KIGQ 191035Z AUTO 20003KT 4SM BR OVC004 03/03 A2990 RMK AO2  T00250025,,,400.0,,,36.5,,SSW,29.25,29.37,,Mist
KIGQ,02/19/2018 10:55 UTC,29.89,36.5,36.5,100.0,3.44,180.0,,31.0,,,,44.0,,,,4.0,,KIGQ 191055Z AUTO 18003KT 4SM BR OVC004 03/03 A2989 RMK AO2  T00250025,,,400.0,,,36.5,,S,29.24,29.36,,Mist
KIGQ,02/19/2018 11:15 UTC,29.9,35.96,35.96,100.0,5.75,180.0,,31.0,,,,44.0,,,,5.0,,KIGQ 191115Z AUTO 18005KT 5SM BR OVC004 02/02 A2990 RMK AO2  T00220022,,,400.0,,,35.96,,S,29.25,29.39,,Mist
KIGQ,02/19/2018 11:35 UTC,29.91,36.32,36.32,100.0,5.75,170.0,,31.0,,,,43.0,134.0,,,5.0,,KIGQ 191135Z AUTO 17005KT 5SM BR BKN004 OVC013 02/02 A2991 RMK AO2  T00240024,,,400.0,,,36.32,,S,29.26,29.39,,Mist
KIGQ,02/19/2018 11:55 UTC,29.92,36.86,36.86,100.0,4.61,190.0,,31.0,,,,134.0,,0.02,0.02,5.0,,KIGQ 191155Z AUTO 19004KT 5SM BR OVC013 03/03 A2992 RMK AO2 60002  70002 T00270027 10042 20021,39.56,35.78,1300.0,,,36.86,,S,29.27,29.39,,Mist
KIGQ,02/19/2018 12:15 UTC,29.89,37.22,37.22,100.0,5.75,160.0,,,,,,114.0,,,,7.0,,KIGQ 191215Z AUTO 16005KT 7SM OVC011 03/03 A2989 RMK AO2 LTG DSNT  SE T00290029,,,1100.0,,,37.22,,SSE,29.24,29.35,,Overcast
KIGQ,02/19/2018 12:35 UTC,29.91,37.4,37.4,100.0,0.0,0.0,,,,,,84.0,,,,7.0,,KIGQ 191235Z AUTO 00000KT 7SM OVC008 03/03 A2991 RMK AO2  T00300030,,,800.0,,,37.4,,N,29.26,29.36,,Overcast
KIGQ,02/19/2018 12:55 UTC,29.89,37.94,37.94,100.0,3.44,140.0,,1.0,854.0,,,83.0,123.0,,,5.0,,KIGQ 191255Z AUTO 14003KT 5SM RA BKN008 BKN012 OVC085 03/03 A2989 RMK AO2 LTG DSNT SW T00330033,,,800.0,,,37.94,,SE,29.24,29.33,,Rain
KIGQ,02/19/2018 13:15 UTC,29.9,38.48,38.48,100.0,5.75,180.0,,13.0,854.0,0.02,,43.0,123.0,,,2.5,,KIGQ 191315Z AUTO 18005KT 2 1/2SM -RA BKN004 BKN012 OVC085 04/04  A2990 RMK AO2 P0002 T00360036,,,400.0,,,38.48,,S,29.25,29.32,,Light Rain
KIGQ,02/19/2018 13:35 UTC,29.88,39.2,39.2,100.0,9.22,160.0,,13.0,,0.02,,44.0,,,,4.0,,KIGQ 191335Z AUTO 16008KT 4SM -RA OVC004 04/04 A2988 RMK AO2 LTG  DSNT S P0002 T00400040,,,400.0,,,39.2,34.99,SSE,29.23,29.28,,Light Rain
KIGQ,02/19/2018 13:55 UTC,29.88,40.28,40.28,100.0,5.75,170.0,,31.0,,0.02,,44.0,,,,3.0,,KIGQ 191355Z AUTO 17005KT 3SM BR OVC004 05/05 A2988 RMK AO2 LTG  DSNT S P0002 T00460046,,,400.0,,,40.28,,S,29.23,29.25,,Mist
KIGQ,02/19/2018 14:15 UTC,29.88,39.38,39.38,100.0,3.44,160.0,,31.0,,,,44.0,,,,0.75,,KIGQ 191415Z AUTO 16003KT 3/4SM BR OVC004 04/04 A2988 RMK AO2 LTG  DSNT SW T00410041,,,400.0,,,39.38,,SSE,29.23,29.27,,Mist
KIGQ,02/19/2018 14:35 UTC,29.88,40.28,40.28,100.0,3.44,170.0,,2.0,,,,44.0,,,,0.5,,KIGQ 191435Z AUTO 17003KT 1/2SM DZ OVC004 05/05 A2988 RMK AO2  T00460046,,,400.0,,,40.28,,S,29.23,29.25,,Drizzle
KIGQ,02/19/2018 14:55 UTC,29.88,40.64,40.64,100.0,4.61,160.0,,1.0,,,0.02,44.0,,,,0.25,,KIGQ 191455Z AUTO 16004KT 1/4SM RA OVC004 05/05 A2988 RMK AO2  60002 T00480048,,,400.0,,,40.64,,SSE,29.23,29.24,,Rain
KIGQ,02/19/2018 15:15 UTC,29.87,41.9,41.9,100.0,4.61,150.0,,14.0,,,,44.0,,,,0.75,,KIGQ 191515Z AUTO 15004KT 3/4SM +RA OVC004 06/06 A2987 RMK AO2  T00550055,,,400.0,,,41.9,,SSE,29.22,29.19,,Heavy Rain
KIGQ,02/19/2018 15:35 UTC,29.87,41.72,41.72,100.0,5.75,150.0,,1.0,,,,44.0,,,,0.25,,KIGQ 191535Z AUTO 15005KT 1/4SM RA OVC004 05/05 A2987 RMK AO2  T00540054,,,400.0,,,41.72,,SSE,29.22,29.19,,Rain
KIGQ,02/19/2018 15:55 UTC,29.86,42.8,42.8,100.0,4.61,140.0,,13.0,,0.01,,44.0,,,,0.75,,KIGQ 191555Z AUTO 14004KT 3/4SM -RA OVC004 06/06 A2986 RMK AO2  P0001 T00600060,,,400.0,,,42.8,,SE,29.21,29.15,,Light Rain
KIGQ,02/19/2018 16:15 UTC,29.86,43.16,43.16,100.0,3.44,160.0,,1.0,,0.02,,44.0,,,,1.0,,KIGQ 191615Z AUTO 16003KT 1SM RA OVC004 06/06 A2986 RMK AO2 P0002  T00620062,,,400.0,,,43.16,,SSE,29.21,29.13,,Rain
KIGQ,02/19/2018 16:35 UTC,29.84,43.7,43.7,100.0,5.75,150.0,,1.0,,0.05,,44.0,,,,1.0,,KIGQ 191635Z AUTO 15005KT 1SM RA OVC004 07/07 A2984 RMK AO2 P0005  T00650065,,,400.0,,,43.7,,SSE,29.19,29.09,,Rain
KIGQ,02/19/2018 16:55 UTC,29.84,43.88,43.88,100.0,5.75,140.0,,13.0,,0.05,,44.0,,,,1.0,,KIGQ 191655Z AUTO 14005KT 1SM -RA OVC004 07/07 A2984 RMK AO2 P0005  T00660066,,,400.0,,,43.88,,SE,29.19,29.09,,Light Rain
KIGQ,02/19/2018 17:15 UTC,29.83,44.6,44.6,100.0,6.91,150.0,,13.0,,0.01,,43.0,94.0,,,0.5,,KIGQ 191715Z AUTO 15006KT 1/2SM -RA BKN004 OVC009 07/07 A2983 RMK AO2 P0001 T00700070,,,400.0,,,44.6,,SSE,29.18,29.05,,Light Rain
KIGQ,02/19/2018 17:35 UTC,29.83,45.5,45.5,100.0,6.91,170.0,,1.0,,0.02,,64.0,,,,1.0,,KIGQ 191735Z AUTO 17006KT 1SM RA OVC006 08/08 A2983 RMK AO2 P0002  T00750075,,,600.0,,,45.5,,S,29.18,29.02,,Rain
KIGQ,02/19/2018 17:55 UTC,29.82,44.96,44.96,100.0,11.5,180.0,,14.0,,0.02,,64.0,,0.1,,0.5,,KIGQ 191755Z AUTO 18010KT 1/2SM +RA OVC006 07/07 A2982 RMK AO2  P0002 60010 T00720072 10075 20027,45.5,36.86,600.0,,,44.96,41.04,S,29.17,29.03,,Heavy Rain
KIGQ,02/19/2018 18:15 UTC,29.81,46.58,46.58,100.0,13.8,200.0,,1.0,,,,44.0,,,,0.75,,KIGQ 191815Z AUTO 20012KT 3/4SM RA OVC004 08/08 A2981 RMK AO2  T00810081,,,400.0,,,46.58,,SSW,29.16,28.96,,Rain
KIGQ,02/19/2018 18:35 UTC,29.81,47.48,47.48,100.0,14.97,200.0,,1.0,,,,44.0,,,,0.75,,KIGQ 191835Z AUTO 20013KT 3/4SM RA OVC004 09/09 A2981 RMK AO2  T00860086,,,400.0,,,47.48,,SSW,29.16,28.92,,Rain
KIGQ,02/19/2018 18:55 UTC,29.81,48.74,48.74,100.0,17.27,210.0,,2.0,,,,44.0,,,,1.5,,KIGQ 191855Z AUTO 21015KT 1 1/2SM DZ OVC004 09/09 A2981 RMK AO2  T00930093,,,400.0,,,48.74,,SSW,29.16,28.87,,Drizzle
KIGQ,02/19/2018 19:15 UTC,29.81,49.64,49.64,100.0,18.41,210.0,23.02,17.0,,,,64.0,,,,2.5,,KIGQ 191915Z AUTO 21016G20KT 2 1/2SM -DZ OVC006 10/10 A2981 RMK AO2 T00980098,,,600.0,,,49.64,,SSW,29.16,28.83,,Light Drizzle
KIGQ,02/19/2018 19:35 UTC,29.79,49.64,49.64,100.0,13.8,210.0,19.57,17.0,,,,83.0,134.0,,,3.0,,KIGQ 191935Z AUTO 21012G17KT 3SM -DZ BKN008 OVC013 10/10 A2979 RMK AO2 T00980098,,,800.0,,,49.64,,SSW,29.14,28.81,,Light Drizzle
KIGQ,02/19/2018 19:55 UTC,29.79,50.36,50.36,100.0,17.27,200.0,,,,,,82.0,154.0,,,10.0,,KIGQ 191955Z AUTO 20015KT 10SM SCT008 OVC015 10/10 A2979 RMK AO2  LTG DSNT SW T01020102,,,1500.0,,,50.36,,SSW,29.14,28.78,,Overcast
KIGQ,02/19/2018 20:15 UTC,29.79,51.08,51.08,100.0,17.27,210.0,,,,,,154.0,,,,10.0,,KIGQ 192015Z AUTO 21015KT 10SM OVC015 11/11 A2979 RMK AO2  T01060106,,,1500.0,,,51.08,,SSW,29.14,28.75,,Overcast
KIGQ,02/19/2018 20:35 UTC,29.81,51.98,51.98,100.0,18.41,210.0,23.02,,,,,154.0,,,,10.0,,KIGQ 192035Z AUTO 21016G20KT 10SM OVC015 11/11 A2981 RMK AO2  T01110111,,,1500.0,,,51.98,,SSW,29.16,28.72,,Overcast
KIGQ,02/19/2018 20:55 UTC,29.82,52.34,52.34,100.0,18.41,210.0,,,,,,154.0,,,,10.0,,KIGQ 192055Z AUTO 21016KT 10SM OVC015 11/11 A2982 RMK AO2  T01130113,,,1500.0,,,52.34,,SSW,29.17,28.72,,Overcast
KIGQ,02/19/2018 21:15 UTC,29.83,53.06,53.06,100.0,18.41,210.0,24.16,,,,,154.0,,,,10.0,,KIGQ 192115Z AUTO 21016G21KT 10SM OVC015 12/12 A2983 RMK AO2  T01170117,,,1500.0,,,53.06,,SSW,29.18,28.69,,Overcast
KIGQ,02/19/2018 21:35 UTC,29.84,53.6,53.6,100.0,17.27,210.0,26.46,,,,,154.0,,,,10.0,,KIGQ 192135Z AUTO 21015G23KT 10SM OVC015 12/12 A2984 RMK AO2  T01200120,,,1500.0,,,53.6,,SSW,29.19,28.67,,Overcast
KIGQ,02/19/2018 21:55 UTC,29.84,53.78,53.78,100.0,16.11,210.0,21.85,1.0,,,,154.0,,,,10.0,,KIGQ 192155Z AUTO 21014G19KT 10SM RA OVC015 12/12 A2984 RMK AO2  T01210121,,,1500.0,,,53.78,,SSW,29.19,28.67,,Rain
KIGQ,02/19/2018 22:15 UTC,29.84,52.88,52.88,100.0,16.11,200.0,21.85,13.0,,,,154.0,,,,7.0,,KIGQ 192215Z AUTO 20014G19KT 7SM -RA OVC015 12/12 A2984 RMK AO2  T01160116,,,1500.0,,,52.88,,SSW,29.19,28.71,,Light Rain
KIGQ,02/19/2018 22:35 UTC,29.84,53.24,53.24,100.0,18.41,200.0,24.16,13.0,,,,114.0,,,,5.0,,KIGQ 192235Z AUTO 20016G21KT 5SM -RA OVC011 12/12 A2984 RMK AO2  T01180118,,,1100.0,,,53.24,,SSW,29.19,28.69,,Light Rain
KIGQ,02/19/2018 22:55 UTC,29.84,53.6,53.6,100.0,17.27,200.0,23.02,13.0,,0.01,,73.0,134.0,,,7.0,,KIGQ 192255Z AUTO 20015G20KT 7SM -RA BKN007 OVC013 12/12 A2984 RMK AO2 P0001 T01200120,,,700.0,,,53.6,,SSW,29.19,28.67,,Light Rain
KIGQ,02/19/2018 23:15 UTC,29.84,53.96,53.96,100.0,17.27,200.0,26.46,13.0,,,,74.0,,,,10.0,,KIGQ 192315Z AUTO 20015G23KT 10SM -RA OVC007 12/12 A2984 RMK AO2  LTG DSNT SW T01220122,,,700.0,,,53.96,,SSW,29.19,28.66,,Light Rain
KIGQ,02/19/2018 23:35 UTC,29.86,54.68,54.68,100.0,21.85,200.0,28.77,13.0,,,,74.0,,,,10.0,,KIGQ 192335Z AUTO 20019G25KT 10SM -RA OVC007 13/13 A2986 RMK AO2  T01260126,,,700.0,,,54.68,,SSW,29.21,28.64,,Light Rain
KIGQ,02/19/2018 23:55 UTC,29.85,54.68,54.68,100.0,19.57,190.0,26.46,13.0,,0.01,,74.0,,0.02,,10.0,,KIGQ 192355Z AUTO 19017G23KT 10SM -RA OVC007 13/13 A2985 RMK AO2  P0001 60002 T01260126 10127 20070,54.86,44.6,700.0,,,54.68,,S,29.2,28.63,,Light Rain
KIGQ,02/20/2018 00:15 UTC,29.86,54.86,54.86,100.0,17.27,200.0,25.32,13.0,,,,74.0,,,,10.0,,KIGQ 200015Z AUTO 20015G22KT 10SM -RA OVC007 13/13 A2986 RMK AO2  T01270127,,,700.0,,,54.86,,SSW,29.21,28.63,,Light Rain
KIGQ,02/20/2018 00:35 UTC,29.86,54.86,54.86,100.0,18.41,200.0,24.16,13.0,,,,94.0,,,,10.0,,KIGQ 200035Z AUTO 20016G21KT 10SM -RA OVC009 13/13 A2986 RMK AO2  T01270127,,,900.0,,,54.86,,SSW,29.21,28.63,,Light Rain
KIGQ,02/20/2018 00:55 UTC,29.87,55.4,55.4,100.0,16.11,200.0,25.32,13.0,,,,93.0,134.0,,,10.0,,KIGQ 200055Z AUTO 20014G22KT 10SM -RA BKN009 OVC013 13/13 A2987 RMK AO2 T01300130,,,900.0,,,55.4,,SSW,29.22,28.61,,Light Rain
KIGQ,02/20/2018 01:15 UTC,29.87,55.58,55.58,100.0,18.41,190.0,24.16,13.0,304.0,,,123.0,193.0,,,10.0,,KIGQ 200115Z AUTO 19016G21KT 10SM -RA BKN012 BKN019 OVC030 13/13  A2987 RMK AO2 T01310131,,,1200.0,,,55.58,,S,29.22,28.6,,Light Rain
KIGQ,02/20/2018 01:35 UTC,29.86,56.12,56.12,100.0,19.57,190.0,25.32,13.0,954.0,,,142.0,303.0,,,10.0,,KIGQ 200135Z AUTO 19017G22KT 10SM -RA SCT014 BKN030 OVC095 13/13  A2986 RMK AO2 LTG DSNT SW T01340134,,,3000.0,,,56.12,,S,29.21,28.56,,Light Rain
KIGQ,02/20/2018 01:55 UTC,29.86,55.76,55.76,100.0,11.5,190.0,,13.0,,,,342.0,1104.0,,,10.0,,KIGQ 200155Z AUTO 19010KT 10SM -RA SCT034 OVC110 13/13 A2986 RMK AO2 LTG DSNT SW T01320132,,,11000.0,,,55.76,,S,29.21,28.58,,Light Rain
KIGQ,02/20/2018 02:15 UTC,29.85,56.48,56.48,100.0,14.97,190.0,,13.0,1104.0,0.02,,402.0,703.0,,,7.0,,KIGQ 200215Z AUTO 19013KT 7SM -RA SCT040 BKN070 OVC110 14/14 A2985 RMK AO2 LTG DSNT SW P0002 T01360136,,,7000.0,,,56.48,,S,29.2,28.53,,Light Rain
KIGQ,02/20/2018 02:35 UTC,29.86,55.76,55.76,100.0,11.5,190.0,,,1004.0,0.05,,402.0,603.0,,,7.0,,KIGQ 200235Z AUTO 19010KT 7SM VCTSRA SCT040 BKN060 OVC100 13/13  A2986 RMK AO2 LTG DSNT SW AND W P0005 T01320132,,,6000.0,,,55.76,,S,29.21,28.58,,Overcast
KIGQ,02/20/2018 02:55 UTC,29.86,55.94,55.94,100.0,12.66,190.0,,1.0,1004.0,0.08,0.08,382.0,503.0,,,7.0,,KIGQ 200255Z AUTO 19011KT 7SM RA SCT038 BKN050 OVC100 13/13 A2986 RMK AO2 LTG DSNT S THRU W P0008 60008 T01330133,,,5000.0,,,55.94,,S,29.21,28.57,,Rain
KIGQ,02/20/2018 03:15 UTC,29.87,56.12,56.12,100.0,14.97,200.0,20.71,77.0,954.0,,,202.0,353.0,,,10.0,,KIGQ 200315Z AUTO 20013G18KT 10SM -TSRA SCT020 BKN035 OVC095 13/13  A2987 RMK AO2 LTG DSNT SE AND SW T01340134,,,3500.0,,,56.12,,SSW,29.22,28.57,,Light Rain/Thunderstorm
KIGQ,02/20/2018 03:35 UTC,29.87,57.38,57.38,100.0,14.97,210.0,21.85,,954.0,0.02,,182.0,363.0,,,7.0,,KIGQ 200335Z AUTO 21013G19KT 7SM VCTSRA SCT018 BKN036 OVC095 14/14  A2987 RMK AO2 LTG DSNT SE AND SW P0002 T01410141,,,3600.0,,,57.38,,SSW,29.22,28.5,,Overcast
KIGQ,02/20/2018 03:55 UTC,29.87,57.2,57.2,100.0,16.11,200.0,21.85,78.0,604.0,0.13,,132.0,353.0,,,3.0,,KIGQ 200355Z AUTO 20014G19KT 3SM +TSRA SCT013 BKN035 OVC060 14/14  A2987 RMK AO2 LTG DSNT ALQS P0013 T01400140,,,3500.0,,,57.2,,SSW,29.22,28.51,,Heavy Rain/Thunderstorm
KIGQ,02/20/2018 04:15 UTC,29.87,57.38,57.38,100.0,12.66,200.0,20.71,78.0,604.0,0.11,,312.0,443.0,,,4.0,,KIGQ 200415Z AUTO 20011G18KT 4SM +TSRA SCT031 BKN044 OVC060 14/14  A2987 RMK AO2 LTG DSNT ALQS P0011 T01410141,,,4400.0,,,57.38,,SSW,29.22,28.5,,Heavy Rain/Thunderstorm
KIGQ,02/20/2018 04:35 UTC,29.87,58.1,58.1,100.0,14.97,210.0,,14.0,454.0,0.28,,232.0,333.0,,,4.0,,KIGQ 200435Z AUTO 21013KT 4SM +RA SCT023 BKN033 OVC045 15/15 A2987 RMK AO2 LTG DSNT ALQS P0028 T01450145,,,3300.0,,,58.1,,SSW,29.22,28.46,,Heavy Rain
KIGQ,02/20/2018 04:55 UTC,29.86,58.28,58.28,100.0,12.66,200.0,17.27,14.0,954.0,0.33,,182.0,483.0,,,7.0,,KIGQ 200455Z AUTO 20011G15KT 7SM +RA SCT018 BKN048 OVC095 15/15  A2986 RMK AO2 LTG DSNT E THRU W P0033 T01460146,,,4800.0,,,58.28,,SSW,29.21,28.44,,Heavy Rain
KIGQ,02/20/2018 05:15 UTC,29.86,57.2,57.2,100.0,9.22,210.0,,14.0,754.0,0.08,,212.0,313.0,,,4.0,,KIGQ 200515Z AUTO 21008KT 4SM +RA SCT021 BKN031 OVC075 14/14 A2986 RMK AO2 LTG DSNT E P0008 T01400140,,,3100.0,,,57.2,,SSW,29.21,28.5,,Heavy Rain
KIGQ,02/20/2018 05:35 UTC,29.87,57.2,57.2,100.0,5.75,270.0,,14.0,,0.19,,133.0,234.0,,,3.0,,KIGQ 200535Z AUTO 27005KT 3SM +RA BKN013 OVC023 14/14 A2987 RMK AO2 LTG DSNT W P0019 T01400140,,,1300.0,,,57.2,,W,29.22,28.51,,Heavy Rain
KIGQ,02/20/2018 05:55 UTC,29.88,57.74,57.74,100.0,5.75,240.0,,14.0,,0.39,,82.0,134.0,0.96,,2.5,,KIGQ 200555Z AUTO 24005KT 2 1/2SM +RA SCT008 OVC013 14/14 A2988 RMK AO2 VIS 1 3/4V4 P0039 60096 T01430143 10147 20125  401470021,58.46,54.5,1300.0,58.46,35.78,57.74,,WSW,29.23,28.49,,Heavy Rain
KIGQ,02/20/2018 06:15 UTC,29.87,56.66,56.66,100.0,6.91,210.0,,1.0,294.0,0.08,,72.0,213.0,,,3.0,,KIGQ 200615Z AUTO 21006KT 3SM RA SCT007 BKN021 OVC029 14/14 A2987 RMK AO2 P0008 T01370137,,,2100.0,,,56.66,,SSW,29.22,28.54,,Rain
KIGQ,02/20/2018 06:35 UTC,29.87,57.2,57.2,100.0,12.66,210.0,,1.0,,0.13,,163.0,244.0,,,7.0,,KIGQ 200635Z AUTO 21011KT 7SM RA BKN016 OVC024 14/14 A2987 RMK AO2  P0013 T01400140,,,1600.0,,,57.2,,SSW,29.22,28.51,,Rain
KIGQ,02/20/2018 06:55 UTC,29.87,57.74,57.74,100.0,12.66,200.0,18.41,1.0,,0.19,,102.0,164.0,,,7.0,,KIGQ 200655Z AUTO 20011G16KT 7SM RA SCT010 OVC016 14/14 A2987 RMK AO2 P0019 T01430143,,,1600.0,,,57.74,,SSW,29.22,28.48,,Rain
KIGQ,02/20/2018 07:15 UTC,29.86,57.74,57.74,100.0,12.66,210.0,17.27,1.0,554.0,,,102.0,163.0,,,10.0,,KIGQ 200715Z AUTO 21011G15KT 10SM RA SCT010 BKN016 OVC055 14/14  A2986 RMK AO2 T01430143,,,1600.0,,,57.74,,SSW,29.21,28.47,,Rain
KIGQ,02/20/2018 07:35 UTC,29.86,57.92,57.92,100.0,10.36,210.0,18.41,1.0,904.0,,,162.0,443.0,,,10.0,,KIGQ 200735Z AUTO 21009G16KT 10SM RA SCT016 BKN044 OVC090 14/14  A2986 RMK AO2 T01440144,,,4400.0,,,57.92,,SSW,29.21,28.46,,Rain
KIGQ,02/20/2018 07:55 UTC,29.86,57.56,57.56,100.0,14.97,210.0,,1.0,354.0,0.01,,163.0,223.0,,,7.0,,KIGQ 200755Z AUTO 21013KT 7SM RA BKN016 BKN022 OVC035 14/14 A2986 RMK AO2 P0001 T01420142,,,1600.0,,,57.56,,SSW,29.21,28.48,,Rain
KIGQ,02/20/2018 08:15 UTC,29.86,58.1,58.1,100.0,16.11,210.0,23.02,13.0,,,,163.0,224.0,,,10.0,,KIGQ 200815Z AUTO 21014G20KT 10SM -RA BKN016 OVC022 15/15 A2986 RMK AO2 T01450145,,,1600.0,,,58.1,,SSW,29.21,28.45,,Light Rain
KIGQ,02/20/2018 08:35 UTC,29.85,58.82,58.82,100.0,17.27,210.0,23.02,13.0,,,,133.0,204.0,,,10.0,,KIGQ 200835Z AUTO 21015G20KT 10SM -RA BKN013 OVC020 15/15 A2985 RMK AO2 T01490149,,,1300.0,,,58.82,,SSW,29.2,28.4,,Light Rain
KIGQ,02/20/2018 08:55 UTC,29.85,58.64,58.64,100.0,18.41,210.0,24.16,1.0,,,0.21,153.0,204.0,,,10.0,,KIGQ 200855Z AUTO 21016G21KT 10SM RA BKN015 OVC020 15/15 A2985 RMK AO2 60021 T01480148,,,1500.0,,,58.64,,SSW,29.2,28.41,,Rain
KIGQ,02/20/2018 09:15 UTC,29.86,58.46,58.46,100.0,18.41,200.0,21.85,14.0,704.0,0.09,,152.0,503.0,,,4.0,,KIGQ 200915Z AUTO 20016G19KT 4SM +RA SCT015 BKN050 OVC070 15/15  A2986 RMK AO2 P0009 T01470147,,,5000.0,,,58.46,,SSW,29.21,28.43,,Heavy Rain
KIGQ,02/20/2018 09:35 UTC,29.84,58.1,58.1,100.0,12.66,200.0,,13.0,654.0,0.18,,252.0,403.0,,,7.0,,KIGQ 200935Z AUTO 20011KT 7SM -RA SCT025 BKN040 OVC065 15/15 A2984 RMK AO2 LTG DSNT S P0018 T01450145,,,4000.0,,,58.1,,SSW,29.19,28.43,,Light Rain
KIGQ,02/20/2018 09:55 UTC,29.85,58.1,58.1,100.0,11.5,210.0,,13.0,504.0,0.26,,82.0,223.0,,,7.0,,KIGQ 200955Z AUTO 21010KT 7SM -RA SCT008 BKN022 OVC050 15/15 A2985 RMK AO2 LTG DSNT SW P0026 T01450145,,,2200.0,,,58.1,,SSW,29.2,28.44,,Light Rain
KIGQ,02/20/2018 10:15 UTC,29.86,58.46,58.46,100.0,11.5,240.0,24.16,14.0,224.0,0.05,,93.0,143.0,,,7.0,,KIGQ 201015Z AUTO 24010G21KT 7SM +RA BKN009 BKN014 OVC022 15/15  A2986 RMK AO2 P0005 T01470147,,,900.0,,,58.46,,WSW,29.21,28.43,,Heavy Rain
KIGQ,02/20/2018 10:35 UTC,29.86,59.0,59.0,100.0,11.5,230.0,,13.0,,0.05,,114.0,,,,10.0,,KIGQ 201035Z AUTO 23010KT 10SM -RA OVC011 15/15 A2986 RMK AO2  P0005 T01500150,,,1100.0,,,59.0,,SW,29.21,28.39,,Light Rain
KIGQ,02/20/2018 10:55 UTC,29.86,57.38,57.38,100.0,8.05,200.0,,13.0,,0.06,,144.0,,,,10.0,,KIGQ 201055Z AUTO 20007KT 10SM -RA OVC014 14/14 A2986 RMK AO2  P0006 T01410141,,,1400.0,,,57.38,,SSW,29.21,28.49,,Light Rain
KIGQ,02/20/2018 11:15 UTC,29.85,57.38,57.38,100.0,10.36,200.0,,13.0,494.0,0.01,,162.0,233.0,,,10.0,,KIGQ 201115Z AUTO 20009KT 10SM -RA SCT016 BKN023 OVC049 14/14  A2985 RMK AO2 LTG DSNT SW P0001 T01410141,,,2300.0,,,57.38,,SSW,29.2,28.48,,Light Rain
KIGQ,02/20/2018 11:35 UTC,29.86,58.28,58.28,100.0,21.85,200.0,26.46,14.0,504.0,0.02,,143.0,223.0,,,7.0,,KIGQ 201135Z AUTO 20019G23KT 7SM +RA BKN014 BKN022 OVC050 15/15  A2986 RMK AO2 P0002 T01460146,,,1400.0,,,58.28,,SSW,29.21,28.44,,Heavy Rain
KIGQ,02/20/2018 11:55 UTC,29.85,59.0,59.0,100.0,20.71,210.0,27.63,1.0,904.0,0.11,,142.0,353.0,0.64,1.73,7.0,,KIGQ 201155Z AUTO 21018G24KT 7SM RA SCT014 BKN035 OVC090 15/15  A2985 RMK AO2 P0011 60064 70173 T01500150 10151 20136,59.18,56.48,3500.0,,,59.0,,SSW,29.2,28.38,,Rain
KIGQ,02/20/2018 12:15 UTC,29.85,59.0,59.0,100.0,20.71,200.0,29.93,13.0,494.0,0.02,,122.0,423.0,,,7.0,,KIGQ 201215Z AUTO 20018G26KT 7SM -RA SCT012 BKN042 OVC049 15/15  A2985 RMK AO2 LTG DSNT SE P0002 T01500150,,,4200.0,,,59.0,,SSW,29.2,28.38,,Light Rain
KIGQ,02/20/2018 12:35 UTC,29.85,59.72,59.54,99.36,23.02,200.0,29.93,,394.0,0.02,,122.0,222.0,,,10.0,,KIGQ 201235Z AUTO 20020G26KT 10SM SCT012 SCT022 OVC039 15/15 A2985 RMK AO2 P0002 T01540153,,,3900.0,,,59.54,,SSW,29.2,28.35,,Overcast
KIGQ,02/20/2018 12:55 UTC,29.86,59.9,59.54,98.73,20.71,210.0,33.38,,394.0,0.02,,122.0,173.0,,,10.0,,KIGQ 201255Z AUTO 21018G29KT 10SM SCT012 BKN017 OVC039 16/15 A2986 RMK AO2 LTG DSNT SW P0002 T01550153,,,1700.0,,,59.54,,SSW,29.21,28.36,,Overcast
KIGQ,02/20/2018 13:15 UTC,29.88,59.36,59.36,100.0,16.11,220.0,25.32,13.0,324.0,,,123.0,193.0,,,5.0,,KIGQ 201315Z AUTO 22014G22KT 5SM -RA BKN012 BKN019 OVC032 15/15  A2988 RMK AO2 T01520152,,,1200.0,,,59.36,,SW,29.23,28.39,,Light Rain
KIGQ,02/20/2018 13:35 UTC,29.88,59.36,59.36,100.0,14.97,230.0,21.85,1.0,,,,104.0,,,,7.0,,KIGQ 201335Z AUTO 23013G19KT 7SM RA OVC010 15/15 A2988 RMK AO2 LTG  DSNT SE AND S T01520152,,,1000.0,,,59.36,,SW,29.23,28.39,,Rain
KIGQ,02/20/2018 13:55 UTC,29.9,59.9,59.72,99.36,16.11,220.0,20.71,,,,,104.0,,,,10.0,,KIGQ 201355Z AUTO 22014G18KT 10SM OVC010 16/15 A2990 RMK AO2  T01550154,,,1000.0,,,59.72,,SW,29.25,28.39,,Overcast
KIGQ,02/20/2018 14:15 UTC,29.9,59.9,59.36,98.1,16.11,210.0,24.16,13.0,,,,124.0,,,,10.0,,KIGQ 201415Z AUTO 21014G21KT 10SM -RA OVC012 16/15 A2990 RMK AO2  T01550152,,,1200.0,,,59.36,,SSW,29.25,28.41,,Light Rain
KIGQ,02/20/2018 14:35 UTC,29.89,59.72,59.72,100.0,16.11,210.0,21.85,13.0,604.0,0.01,,143.0,503.0,,,10.0,,KIGQ 201435Z AUTO 21014G19KT 10SM -RA BKN014 BKN050 OVC060 15/15  A2989 RMK AO2 P0001 T01540154,,,1400.0,,,59.72,,SSW,29.24,28.38,,Light Rain
KIGQ,02/20/2018 14:55 UTC,29.89,60.26,59.9,98.73,16.11,210.0,24.16,,464.0,0.01,0.03,122.0,202.0,,,10.0,,KIGQ 201455Z AUTO 21014G21KT 10SM SCT012 SCT020 OVC046 16/16 A2989 RMK AO2 P0001 60003 T01570155,,,4600.0,,,59.9,,SSW,29.24,28.36,,Overcast
KIGQ,02/20/2018 15:15 UTC,29.89,60.8,60.08,97.48,16.11,210.0,21.85,,604.0,,,162.0,443.0,,,10.0,,KIGQ 201515Z AUTO 21014G19KT 10SM SCT016 BKN044 OVC060 16/16 A2989 RMK AO2 T01600156,,,4400.0,,,60.08,,SSW,29.24,28.35,,Overcast
KIGQ,02/20/2018 15:35 UTC,29.89,60.8,60.08,97.48,16.11,200.0,23.02,,,,,404.0,,,,10.0,,KIGQ 201535Z AUTO 20014G20KT 10SM OVC040 16/16 A2989 RMK AO2  T01600156,,,4000.0,,,60.08,,SSW,29.24,28.35,,Overcast
KIGQ,02/20/2018 15:55 UTC,29.89,61.34,60.44,96.86,18.41,190.0,23.02,,,,,132.0,404.0,,,10.0,,KIGQ 201555Z AUTO 19016G20KT 10SM SCT013 OVC040 16/16 A2989 RMK AO2 T01630158,,,4000.0,,,60.43,,S,29.24,28.32,,Overcast
KIGQ,02/20/2018 16:15 UTC,29.88,62.06,60.8,95.65,20.71,200.0,28.77,,,,,132.0,444.0,,,10.0,,KIGQ 201615Z AUTO 20018G25KT 10SM SCT013 OVC044 17/16 A2988 RMK AO2 T01670160,,,4400.0,,,60.79,,SSW,29.23,28.29,,Overcast
KIGQ,02/20/2018 16:35 UTC,29.89,62.6,61.16,95.05,21.85,200.0,28.77,,474.0,,,153.0,413.0,,,10.0,,KIGQ 201635Z AUTO 20019G25KT 10SM BKN015 BKN041 OVC047 17/16 A2989 RMK AO2 T01700162,,,1500.0,,,61.15,,SSW,29.24,28.27,,Overcast
KIGQ,02/20/2018 16:55 UTC,29.89,62.78,61.34,95.05,19.57,200.0,27.63,,,,,153.0,414.0,,,10.0,,KIGQ 201655Z AUTO 20017G24KT 10SM BKN015 OVC041 17/16 A2989 RMK AO2 T01710163,,,1500.0,,,61.33,,SSW,29.24,28.26,,Overcast
KIGQ,02/20/2018 17:15 UTC,29.89,62.96,61.7,95.66,21.85,200.0,27.63,,,,,154.0,,,,10.0,,KIGQ 201715Z AUTO 20019G24KT 10SM OVC015 17/17 A2989 RMK AO2  T01720165,,,1500.0,,,61.69,,SSW,29.24,28.24,,Overcast
KIGQ,02/20/2018 17:35 UTC,29.88,63.5,61.7,93.87,20.71,200.0,27.63,,,,,154.0,,,,10.0,,KIGQ 201735Z AUTO 20018G24KT 10SM OVC015 18/17 A2988 RMK AO2  T01750165,,,1500.0,,,61.69,,SSW,29.23,28.22,,Overcast
KIGQ,02/20/2018 17:55 UTC,29.88,63.5,61.7,93.87,24.16,210.0,35.68,,,,,154.0,,0.03,,10.0,,KIGQ 201755Z AUTO 21021G31KT 10SM OVC015 18/17 A2988 RMK AO2 60003  T01750165 10176 20150,63.68,59.0,1500.0,,,61.69,,SSW,29.23,28.22,,Overcast
KIGQ,02/20/2018 18:15 UTC,29.87,63.5,61.7,93.87,24.16,210.0,32.21,,,,,154.0,,,,10.0,,KIGQ 201815Z AUTO 21021G28KT 10SM OVC015 18/17 A2987 RMK AO2  T01750165,,,1500.0,,,61.69,,SSW,29.22,28.21,,Overcast
KIGQ,02/20/2018 18:35 UTC,29.87,63.86,61.7,92.69,24.16,210.0,34.52,,,,,154.0,,,,10.0,,KIGQ 201835Z AUTO 21021G30KT 10SM OVC015 18/17 A2987 RMK AO2  T01770165,,,1500.0,,,61.69,,SSW,29.22,28.2,,Overcast
KIGQ,02/20/2018 18:55 UTC,29.86,62.96,61.7,95.66,21.85,210.0,34.52,13.0,,,,154.0,,,,10.0,,KIGQ 201855Z AUTO 21019G30KT 10SM -RA OVC015 17/17 A2986 RMK AO2  T01720165,,,1500.0,,,61.69,,SSW,29.21,28.21,,Light Rain
KIGQ,02/20/2018 19:15 UTC,29.86,63.32,61.7,94.46,23.02,200.0,34.52,1.0,,,,154.0,,,,10.0,,KIGQ 201915Z AUTO 20020G30KT 10SM RA OVC015 17/17 A2986 RMK AO2  T01740165,,,1500.0,,,61.69,,SSW,29.21,28.2,,Rain
KIGQ,02/20/2018 19:35 UTC,29.84,63.68,62.24,95.07,24.16,200.0,32.21,13.0,,,,154.0,,,,10.0,,KIGQ 201935Z AUTO 20021G28KT 10SM -RA OVC015 18/17 A2984 RMK AO2  T01760168,,,1500.0,,,62.23,,SSW,29.19,28.15,,Light Rain
KIGQ,02/20/2018 19:55 UTC,29.84,63.14,62.24,96.89,19.57,200.0,31.07,1.0,,,,154.0,,,,10.0,,KIGQ 201955Z AUTO 20017G27KT 10SM RA OVC015 17/17 A2984 RMK AO2  T01730168,,,1500.0,,,62.23,,SSW,29.19,28.15,,Rain
KIGQ,02/20/2018 20:15 UTC,29.86,62.78,62.42,98.74,26.46,220.0,34.52,14.0,,0.06,,134.0,,,,3.0,,KIGQ 202015Z AUTO 22023G30KT 3SM +RA OVC013 17/17 A2986 RMK AO2  P0006 T01710169,,,1300.0,,,62.42,,SW,29.21,28.17,,Heavy Rain
KIGQ,02/20/2018 20:35 UTC,29.9,56.66,56.66,100.0,16.11,270.0,27.63,14.0,,0.29,,73.0,134.0,,,4.0,,KIGQ 202035Z AUTO 27014G24KT 4SM +RA BKN007 OVC013 14/14 A2990 RMK AO2 P0029 T01370137,,,700.0,,,56.66,,W,29.25,28.57,,Heavy Rain
KIGQ,02/20/2018 20:55 UTC,29.91,55.4,55.4,100.0,14.97,280.0,19.57,1.0,414.0,0.37,0.37,93.0,333.0,,,5.0,,KIGQ 202055Z AUTO 28013G17KT 5SM RA BKN009 BKN033 OVC041 13/13  A2991 RMK AO2 P0037 60037 T01300130,,,900.0,,,55.4,,W,29.26,28.65,,Rain
KIGQ,02/20/2018 21:15 UTC,29.92,54.86,54.86,100.0,6.91,260.0,,1.0,504.0,0.03,,92.0,413.0,,,7.0,,KIGQ 202115Z AUTO 26006KT 7SM RA SCT009 BKN041 OVC050 13/13 A2992 RMK AO2 P0003 T01270127,,,4100.0,,,54.86,,W,29.27,28.69,,Rain
KIGQ,02/20/2018 21:35 UTC,29.93,54.68,54.68,100.0,4.61,230.0,,1.0,,0.07,,503.0,704.0,,,5.0,,KIGQ 202135Z AUTO 23004KT 5SM RA BKN050 OVC070 13/13 A2993 RMK AO2  P0007 T01260126,,,5000.0,,,54.68,,SW,29.28,28.71,,Rain
KIGQ,02/20/2018 21:55 UTC,29.95,54.68,54.68,100.0,6.91,210.0,,1.0,854.0,0.09,,552.0,653.0,,,5.0,,KIGQ 202155Z AUTO 21006KT 5SM RA SCT055 BKN065 OVC085 13/13 A2995 RMK AO2 P0009 T01260126,,,6500.0,,,54.68,,SSW,29.3,28.73,,Rain
KIGQ,02/20/2018 22:15 UTC,29.95,54.5,54.5,100.0,8.05,200.0,,1.0,804.0,0.01,,552.0,653.0,,,7.0,,KIGQ 202215Z AUTO 20007KT 7SM RA SCT055 BKN065 OVC080 13/13 A2995 RMK AO2 P0001 T01250125,,,6500.0,,,54.5,,SSW,29.3,28.74,,Rain
KIGQ,02/20/2018 22:35 UTC,29.93,53.96,53.96,100.0,4.61,200.0,,13.0,,0.02,,752.0,854.0,,,10.0,,KIGQ 202235Z AUTO 20004KT 10SM -RA SCT075 OVC085 12/12 A2993 RMK AO2 P0002 T01220122,,,8500.0,,,53.96,,SSW,29.28,28.75,,Light Rain
KIGQ,02/20/2018 22:55 UTC,29.95,53.78,53.78,100.0,5.75,200.0,,13.0,,0.02,,754.0,,,,10.0,,KIGQ 202255Z AUTO 20005KT 10SM -RA OVC075 12/12 A2995 RMK AO2  P0002 T01210121,,,7500.0,,,53.78,,SSW,29.3,28.78,,Light Rain
KIGQ,02/20/2018 23:15 UTC,29.96,53.78,53.78,100.0,5.75,220.0,,13.0,,,,802.0,904.0,,,10.0,,KIGQ 202315Z AUTO 22005KT 10SM -RA SCT080 OVC090 12/12 A2996 RMK AO2 T01210121,,,9000.0,,,53.78,,SW,29.31,28.79,,Light Rain
KIGQ,02/20/2018 23:35 UTC,29.98,53.78,53.78,100.0,8.05,240.0,,2.0,904.0,,,73.0,253.0,,,10.0,,KIGQ 202335Z AUTO 24007KT 10SM DZ BKN007 BKN025 OVC090 12/12 A2998 RMK AO2 T01210121,,,700.0,,,53.78,,WSW,29.33,28.81,,Drizzle
KIGQ,02/20/2018 23:55 UTC,29.97,52.7,52.7,100.0,11.5,280.0,,17.0,,,,74.0,,0.48,,10.0,,KIGQ 202355Z AUTO 28010KT 10SM -DZ OVC007 12/12 A2997 RMK AO2  60048 T01150115 10178 20115,64.04,52.7,700.0,,,52.7,,W,29.32,28.85,,Light Drizzle
KIGQ,02/21/2018 00:15 UTC,29.99,49.82,49.82,100.0,12.66,280.0,18.41,13.0,,,,74.0,,,,10.0,,KIGQ 210015Z AUTO 28011G16KT 10SM -RA OVC007 10/10 A2999 RMK AO2  T00990099,,,700.0,,,49.82,,W,29.34,29.01,,Light Rain
KIGQ,02/21/2018 00:35 UTC,30.04,46.04,46.04,100.0,14.97,270.0,21.85,13.0,,0.02,,73.0,104.0,,,10.0,,KIGQ 210035Z AUTO 27013G19KT 10SM -RA BKN007 OVC010 08/08 A3004 RMK AO2 P0002 T00780078,,,700.0,,,46.04,,W,29.39,29.21,,Light Rain
KIGQ,02/21/2018 00:55 UTC,30.04,43.7,43.34,98.63,11.5,290.0,23.02,13.0,,0.03,,73.0,174.0,,,10.0,,KIGQ 210055Z AUTO 29010G20KT 10SM -RA BKN007 OVC017 07/06 A3004 RMK AO2 P0003 T00650063,,,700.0,,,43.33,39.52,WNW,29.39,29.31,,Light Rain
KIGQ,02/21/2018 01:15 UTC,30.05,41.54,41.54,100.0,8.05,280.0,,13.0,,,,73.0,134.0,,,10.0,,KIGQ 210115Z AUTO 28007KT 10SM -RA BKN007 OVC013 05/05 A3005 RMK AO2 T00530053,,,700.0,,,41.54,38.28,W,29.4,29.38,,Light Rain
KIGQ,02/21/2018 01:35 UTC,30.05,40.82,40.28,97.93,8.05,300.0,,13.0,954.0,,,93.0,283.0,,,10.0,,KIGQ 210135Z AUTO 30007KT 10SM -RA BKN009 BKN028 OVC095 05/05  A3005 RMK AO2 T00490046,,,900.0,,,40.27,37.44,WNW,29.4,29.42,,Light Rain
KIGQ,02/21/2018 01:55 UTC,30.07,40.28,40.28,100.0,5.75,290.0,,13.0,954.0,,,72.0,443.0,,,10.0,,KIGQ 210155Z AUTO 29005KT 10SM -RA SCT007 BKN044 OVC095 05/05  A3007 RMK AO2 T00460046,,,4400.0,,,40.28,,WNW,29.42,29.44,,Light Rain
KIGQ,02/21/2018 02:15 UTC,30.09,39.56,39.2,98.61,9.22,310.0,,13.0,,,,73.0,114.0,,,10.0,,KIGQ 210215Z AUTO 31008KT 10SM -RA BKN007 OVC011 04/04 A3009 RMK AO2 T00420040,,,700.0,,,39.2,35.42,NW,29.44,29.49,,Light Rain
KIGQ,02/21/2018 02:35 UTC,30.1,38.84,38.12,97.22,8.05,310.0,,13.0,,0.01,,112.0,214.0,,,10.0,,KIGQ 210235Z AUTO 31007KT 10SM -RA SCT011 OVC021 04/03 A3010 RMK AO2 P0001 T00380034,,,2100.0,,,38.11,35.11,NW,29.45,29.53,,Light Rain
KIGQ,02/21/2018 02:55 UTC,30.1,38.66,38.3,98.6,6.91,320.0,,1.0,904.0,0.02,0.05,212.0,283.0,,,7.0,,KIGQ 210255Z AUTO 32006KT 7SM RA SCT021 BKN028 OVC090 04/04 A3010 RMK AO2 P0002 60005 T00370035,,,2800.0,,,38.29,,NW,29.45,29.53,,Rain
KIGQ,02/21/2018 03:15 UTC,30.13,38.3,38.3,100.0,5.75,280.0,,1.0,904.0,0.01,,83.0,223.0,,,7.0,,KIGQ 210315Z AUTO 28005KT 7SM RA BKN008 BKN022 OVC090 04/04 A3013 RMK AO2 P0001 T00350035,,,800.0,,,38.3,,W,29.47,29.55,,Rain
KIGQ,02/21/2018 03:35 UTC,30.13,37.4,37.22,99.29,6.91,310.0,,1.0,,0.02,,114.0,,,,7.0,,KIGQ 210335Z AUTO 31006KT 7SM RA OVC011 03/03 A3013 RMK AO2 P0002  T00300029,,,1100.0,,,37.22,,NW,29.47,29.58,,Rain
KIGQ,02/21/2018 03:55 UTC,30.14,37.4,36.86,97.89,5.75,310.0,,13.0,,0.03,,114.0,,,,10.0,,KIGQ 210355Z AUTO 31005KT 10SM -RA OVC011 03/03 A3014 RMK AO2  P0003 T00300027,,,1100.0,,,36.85,,NW,29.48,29.6,,Light Rain
KIGQ,02/21/2018 04:15 UTC,30.14,36.86,36.68,99.29,10.36,330.0,,1.0,,0.02,,114.0,,,,5.0,,KIGQ 210415Z AUTO 33009KT 5SM RA OVC011 03/03 A3014 RMK AO2 P0002  T00270026,,,1100.0,,,36.68,31.72,NNW,29.48,29.6,,Rain
KIGQ,02/21/2018 04:35 UTC,30.14,36.32,35.96,98.58,8.05,330.0,,1.0,804.0,0.05,,82.0,313.0,,,5.0,,KIGQ 210435Z AUTO 33007KT 5SM RA SCT008 BKN031 OVC080 02/02 A3014 RMK AO2 P0005 T00240022,,,3100.0,,,35.95,32.15,NNW,29.48,29.62,,Rain
KIGQ,02/21/2018 04:55 UTC,30.14,35.78,35.6,99.29,8.05,320.0,,1.0,804.0,0.08,,132.0,282.0,,,4.0,,KIGQ 210455Z AUTO 32007KT 4SM RA SCT013 SCT028 OVC080 02/02 A3014 RMK AO2 P0008 T00210020,,,8000.0,,,35.6,31.52,NW,29.48,29.63,,Rain
KIGQ,02/21/2018 05:15 UTC,30.15,35.42,35.06,98.58,9.22,320.0,,1.0,804.0,0.02,,92.0,293.0,,,5.0,,KIGQ 210515Z AUTO 32008KT 5SM RA SCT009 BKN029 OVC080 02/02 A3015 RMK AO2 P0002 T00190017,,,2900.0,,,35.05,30.51,NW,29.49,29.65,,Rain
KIGQ,02/21/2018 05:35 UTC,30.16,35.06,34.7,98.58,9.22,320.0,,1.0,274.0,0.06,,92.0,182.0,,,4.0,,KIGQ 210535Z AUTO 32008KT 4SM RA SCT009 SCT018 OVC027 02/02 A3016 RMK AO2 P0006 T00170015,,,2700.0,,,34.69,30.08,NW,29.5,29.67,,Rain
KIGQ,02/21/2018 05:55 UTC,30.17,34.88,34.88,100.0,6.91,330.0,,1.0,274.0,0.1,,93.0,163.0,0.26,,4.0,,KIGQ 210555Z AUTO 33006KT 4SM RA BKN009 BKN016 OVC027 02/02 A3017 RMK AO2 P0010 60026 T00160016 10114 20015 401780015,52.52,34.7,900.0,64.04,34.7,34.88,,NNW,29.51,29.68,,Rain
KIGQ,02/21/2018 06:15 UTC,30.19,34.7,34.7,100.0,8.05,300.0,,13.0,,0.04,,93.0,134.0,,,3.0,,KIGQ 210615Z AUTO 30007KT 3SM -RA BKN009 OVC013 02/02 A3019 RMK AO2 P0004 T00150015,,,900.0,,,34.7,30.25,WNW,29.53,29.71,,Light Rain
KIGQ,02/21/2018 06:35 UTC,30.18,34.52,34.52,100.0,5.75,340.0,,1.0,,0.09,,73.0,134.0,,,3.0,,KIGQ 210635Z AUTO 34005KT 3SM RA BKN007 OVC013 01/01 A3018 RMK AO2  P0009 T00140014,,,700.0,,,34.52,,NNW,29.52,29.7,,Rain
KIGQ,02/21/2018 06:55 UTC,30.19,33.98,33.98,100.0,10.36,330.0,,13.0,,0.12,,73.0,124.0,,,4.0,,KIGQ 210655Z AUTO 33009KT 4SM -RA BKN007 OVC012 01/01 A3019 RMK AO2 P0012 T00110011,,,700.0,,,33.98,28.27,NNW,29.53,29.72,,Light Rain
KIGQ,02/21/2018 07:15 UTC,30.19,33.8,33.8,100.0,8.05,330.0,,1.0,,0.02,,92.0,144.0,,,4.0,,KIGQ 210715Z AUTO 33007KT 4SM RA SCT009 OVC014 01/01 A3019 RMK AO2  P0002 T00100010,,,1400.0,,,33.8,29.19,NNW,29.53,29.73,,Rain
KIGQ,02/21/2018 07:35 UTC,30.2,33.8,33.8,100.0,8.05,330.0,,1.0,,0.03,,92.0,134.0,,,4.0,,KIGQ 210735Z AUTO 33007KT 4SM RA SCT009 OVC013 01/01 A3020 RMK AO2  P0003 T00100010,,,1300.0,,,33.8,29.19,NNW,29.54,29.74,,Rain
KIGQ,02/21/2018 07:55 UTC,30.23,33.8,33.8,100.0,8.05,330.0,,1.0,,0.05,,93.0,144.0,,,4.0,,KIGQ 210755Z AUTO 33007KT 4SM RA BKN009 OVC014 01/01 A3023 RMK AO2  P0005 T00100010,,,900.0,,,33.8,29.19,NNW,29.57,29.77,,Rain
KIGQ,02/21/2018 08:15 UTC,30.26,33.8,33.8,100.0,12.66,310.0,17.27,1.0,,0.02,,74.0,,,,4.0,,KIGQ 210815Z AUTO 31011G15KT 4SM RA OVC007 01/01 A3026 RMK AO2  P0002 T00100010,,,700.0,,,33.8,27.12,NW,29.6,29.8,,Rain
KIGQ,02/21/2018 08:35 UTC,30.26,33.62,33.26,98.57,8.05,330.0,,1.0,434.0,0.04,,93.0,173.0,,,4.0,,KIGQ 210835Z AUTO 33007KT 4SM RA BKN009 BKN017 OVC043 01/01 A3026 RMK AO2 P0004 T00090007,,,900.0,,,33.25,28.98,NNW,29.6,29.81,,Rain
KIGQ,02/21/2018 08:55 UTC,30.27,33.26,33.26,100.0,8.05,330.0,,1.0,454.0,0.06,0.24,92.0,223.0,,,5.0,,KIGQ 210855Z AUTO 33007KT 5SM RA SCT009 BKN022 OVC045 01/01 A3027 RMK AO2 P0006 60024 T00070007,,,2200.0,,,33.26,28.56,NNW,29.61,29.82,,Rain
KIGQ,02/21/2018 09:15 UTC,30.27,33.08,33.08,100.0,6.91,350.0,,1.0,194.0,0.02,,93.0,123.0,,,4.0,,KIGQ 210915Z AUTO 35006KT 4SM RA BKN009 BKN012 OVC019 01/01 A3027 RMK AO2 P0002 T00060006,,,900.0,,,33.08,,N,29.61,29.83,,Rain
KIGQ,02/21/2018 09:35 UTC,30.29,33.08,33.08,100.0,6.91,340.0,,1.0,,0.03,,73.0,174.0,,,4.0,,KIGQ 210935Z AUTO 34006KT 4SM RA BKN007 OVC017 01/01 A3029 RMK AO2  P0003 T00060006,,,700.0,,,33.08,,NNW,29.63,29.85,,Rain
KIGQ,02/21/2018 09:55 UTC,30.29,32.36,32.36,100.0,0.0,0.0,,20.0,,0.05,,73.0,194.0,,,5.0,,KIGQ 210955Z AUTO 00000KT 5SM -SN BKN007 OVC019 00/00 A3029 RMK AO2 P0005 T00020002,,,700.0,,,32.36,,N,29.63,29.86,,Light Snow
KIGQ,02/21/2018 10:15 UTC,30.33,32.54,32.36,99.28,10.36,330.0,,20.0,194.0,,,93.0,123.0,,,7.0,,KIGQ 211015Z AUTO 33009KT 7SM -SN BKN009 BKN012 OVC019 00/00 A3033 RMK AO2 T00030002,,,900.0,,,32.36,26.55,NNW,29.67,29.9,,Light Snow
KIGQ,02/21/2018 10:35 UTC,30.31,32.0,31.1,96.43,6.91,10.0,,,,,,92.0,184.0,,,10.0,,KIGQ 211035Z AUTO 01006KT 10SM SCT009 OVC018 00/00 A3031 RMK AO2  T00001005,,,1800.0,,,31.09,,N,29.65,29.91,,Overcast
KIGQ,02/21/2018 10:55 UTC,30.36,32.0,31.1,96.43,9.22,330.0,,,,,,164.0,,,,10.0,,KIGQ 211055Z AUTO 33008KT 10SM OVC016 00/00 A3036 RMK AO2  T00001005,,,1600.0,,,31.09,26.45,NNW,29.7,29.96,,Overcast
KIGQ,02/21/2018 11:15 UTC,30.36,32.0,30.56,94.34,8.05,350.0,,,,,,164.0,,,,10.0,,KIGQ 211115Z AUTO 35007KT 10SM OVC016 00/M01 A3036 RMK AO2  T00001008,,,1600.0,,,30.54,27.08,N,29.7,29.96,,Overcast
KIGQ,02/21/2018 11:35 UTC,30.37,32.0,29.3,89.61,9.22,360.0,,,,,,144.0,,,,10.0,,KIGQ 211135Z AUTO 36008KT 10SM OVC014 00/M01 A3037 RMK AO2  T00001015,,,1400.0,,,29.25,26.45,N,29.71,29.99,,Overcast
KIGQ,02/21/2018 11:55 UTC,30.39,32.0,28.58,87.01,9.22,350.0,,,,,,184.0,,0.29,1.06,10.0,,KIGQ 211155Z AUTO 35008KT 10SM OVC018 00/M02 A3039 RMK AO2 60029  70106 T00001019 10016 20000,34.88,32.0,1800.0,,,28.52,26.45,N,29.73,30.02,,Overcast
KIGQ,02/21/2018 12:15 UTC,30.39,31.82,28.76,88.29,9.22,360.0,,,,,,203.0,,,,10.0,,KIGQ 211215Z AUTO 36008KT 10SM BKN020 00/M02 A3039 RMK AO2  T10011018,,,2000.0,,,28.71,26.24,N,29.73,30.02,,Mostly Cloudy
KIGQ,02/21/2018 12:35 UTC,30.41,31.82,28.94,88.95,4.61,10.0,,,,,,204.0,,,,10.0,,KIGQ 211235Z AUTO 01004KT 10SM OVC020 00/M02 A3041 RMK AO2  T10011017,,,2000.0,,,28.89,,N,29.75,30.04,,Overcast
KIGQ,02/21/2018 12:55 UTC,30.43,31.46,28.76,89.59,8.05,340.0,,,,,,154.0,,,,10.0,,KIGQ 211255Z AUTO 34007KT 10SM OVC015 00/M02 A3043 RMK AO2  T10031018,,,1500.0,,,28.72,26.44,NNW,29.77,30.06,,Overcast
KIGQ,02/21/2018 13:15 UTC,30.43,31.1,27.68,86.96,6.91,360.0,,,,,,154.0,,,,10.0,,KIGQ 211315Z AUTO 36006KT 10SM OVC015 00/M02 A3043 RMK AO2  T10051024,,,1500.0,,,27.62,,N,29.77,30.08,,Overcast
KIGQ,02/21/2018 13:35 UTC,30.45,31.1,27.5,86.32,9.22,10.0,,,,,,154.0,,,,10.0,,KIGQ 211335Z AUTO 01008KT 10SM OVC015 00/M02 A3045 RMK AO2  T10051025,,,1500.0,,,27.44,25.38,N,29.79,30.1,,Overcast
KIGQ,02/21/2018 13:55 UTC,30.45,30.74,26.24,83.14,10.36,30.0,,,,,,152.0,,,,10.0,,KIGQ 211355Z AUTO 03009KT 10SM SCT015 M01/M03 A3045 RMK AO2  T10071032,,,,,,26.17,24.39,NNE,29.79,30.12,,Partly Cloudy
KIGQ,02/21/2018 14:15 UTC,30.47,30.2,26.06,84.35,9.22,20.0,,,,,,192.0,,,,10.0,,KIGQ 211415Z AUTO 02008KT 10SM SCT019 M01/M03 A3047 RMK AO2  T10101033,,,,,,25.99,24.31,NNE,29.81,30.15,,Partly Cloudy
KIGQ,02/21/2018 14:35 UTC,30.49,30.2,26.06,84.35,11.5,20.0,16.11,,,,,193.0,,,,10.0,,KIGQ 211435Z AUTO 02010G14KT 10SM BKN019 M01/M03 A3049 RMK AO2  T10101033,,,1900.0,,,25.99,23.23,NNE,29.83,30.17,,Mostly Cloudy
KIGQ,02/21/2018 14:55 UTC,30.49,30.02,25.52,83.09,10.36,10.0,19.57,,,,,192.0,,,,10.0,,KIGQ 211455Z AUTO 01009G17KT 10SM SCT019 M01/M04 A3049 RMK AO2  T10111036,,,,,,25.45,23.53,N,29.83,30.18,,Partly Cloudy
KIGQ,02/21/2018 15:15 UTC,30.52,29.66,24.98,82.44,11.5,20.0,,,,,,212.0,,,,10.0,,KIGQ 211515Z AUTO 02010KT 10SM SCT021 M01/M04 A3052 RMK AO2  T10131039,,,,,,24.9,22.57,NNE,29.86,30.21,,Partly Cloudy
KIGQ,02/21/2018 15:35 UTC,30.52,29.48,25.16,83.67,11.5,30.0,,,,,,212.0,,,,10.0,,KIGQ 211535Z AUTO 03010KT 10SM SCT021 M01/M04 A3052 RMK AO2  T10141038,,,,,,25.09,22.36,NNE,29.86,30.21,,Partly Cloudy
KIGQ,02/21/2018 15:55 UTC,30.53,29.3,24.98,83.66,10.36,360.0,,,,,,192.0,,,,10.0,,KIGQ 211555Z AUTO 36009KT 10SM SCT019 M01/M04 A3053 RMK AO2  T10151039,,,,,,24.91,22.67,N,29.87,30.23,,Partly Cloudy
KIGQ,02/21/2018 16:15 UTC,30.55,29.48,25.16,83.67,9.22,10.0,,,,,,194.0,,,,10.0,,KIGQ 211615Z AUTO 01008KT 10SM OVC019 M01/M04 A3055 RMK AO2  T10141038,,,1900.0,,,25.09,23.46,N,29.89,30.24,,Overcast
KIGQ,02/21/2018 16:35 UTC,30.56,30.02,25.16,81.85,10.36,360.0,,,,,,193.0,,,,10.0,,KIGQ 211635Z AUTO 36009KT 10SM BKN019 M01/M04 A3056 RMK AO2  T10111038,,,1900.0,,,25.08,23.53,N,29.9,30.25,,Mostly Cloudy
KIGQ,02/21/2018 16:55 UTC,30.56,30.2,25.7,83.1,9.22,10.0,,,,,,193.0,,,,10.0,,KIGQ 211655Z AUTO 01008KT 10SM BKN019 M01/M03 A3056 RMK AO2  T10101035,,,1900.0,,,25.63,24.31,N,29.9,30.24,,Mostly Cloudy
KIGQ,02/21/2018 17:15 UTC,30.56,30.2,25.16,81.25,11.5,30.0,16.11,,,,,193.0,,,,10.0,,KIGQ 211715Z AUTO 03010G14KT 10SM BKN019 M01/M04 A3056 RMK AO2  T10101038,,,1900.0,,,25.08,23.23,NNE,29.9,30.25,,Mostly Cloudy
KIGQ,02/21/2018 17:35 UTC,30.57,30.02,24.44,79.43,12.66,360.0,17.27,,,,,213.0,,,,10.0,,KIGQ 211735Z AUTO 36011G15KT 10SM BKN021 M01/M04 A3057 RMK AO2  T10111042,,,2100.0,,,24.35,22.52,N,29.91,30.27,,Mostly Cloudy
KIGQ,02/21/2018 17:55 UTC,30.56,30.02,24.44,79.43,14.97,10.0,18.41,,,,,214.0,,,,10.0,,KIGQ 211755Z AUTO 01013G16KT 10SM OVC021 M01/M04 A3056 RMK AO2  T10111042 10000 21015,32.0,29.3,2100.0,,,24.35,21.66,N,29.9,30.26,,Overcast
KIGQ,02/21/2018 18:15 UTC,30.56,30.2,24.26,78.25,9.22,360.0,19.57,,,,,213.0,,,,10.0,,KIGQ 211815Z AUTO 36008G17KT 10SM BKN021 M01/M04 A3056 RMK AO2  T10101043,,,2100.0,,,24.16,24.31,N,29.9,30.26,,Mostly Cloudy
KIGQ,02/21/2018 18:35 UTC,30.56,30.92,24.8,77.73,11.5,20.0,,,,,,214.0,,,,10.0,,KIGQ 211835Z AUTO 02010KT 10SM OVC021 M01/M04 A3056 RMK AO2  T10061040,,,2100.0,,,24.7,24.1,NNE,29.9,30.25,,Overcast
KIGQ,02/21/2018 19:15 UTC,30.58,30.38,24.98,80.06,10.36,10.0,16.11,,,,,214.0,,,,10.0,,KIGQ 211915Z AUTO 01009G14KT 10SM OVC021 M01/M04 A3058 RMK AO2  T10091039,,,2100.0,,,24.89,23.96,N,29.92,30.27,,Overcast
KIGQ,02/21/2018 19:35 UTC,30.57,30.74,25.7,81.3,10.36,30.0,,,,,,214.0,,,,10.0,,KIGQ 211935Z AUTO 03009KT 10SM OVC021 M01/M03 A3057 RMK AO2  T10071035,,,2100.0,,,25.62,24.39,NNE,29.91,30.25,,Overcast
KIGQ,02/21/2018 19:55 UTC,30.58,30.02,24.98,81.24,12.66,20.0,19.57,,,,,214.0,,,,10.0,,KIGQ 211955Z AUTO 02011G17KT 10SM OVC021 M01/M04 A3058 RMK AO2  T10111039,,,2100.0,,,24.9,22.52,NNE,29.92,30.27,,Overcast
KIGQ,02/21/2018 20:15 UTC,30.57,30.02,25.34,82.47,12.66,20.0,17.27,,,,,214.0,,,,10.0,,KIGQ 212015Z AUTO 02011G15KT 10SM OVC021 M01/M04 A3057 RMK AO2  T10111037,,,2100.0,,,25.26,22.52,NNE,29.91,30.26,,Overcast
KIGQ,02/21/2018 20:35 UTC,30.57,30.02,25.34,82.47,13.8,30.0,,,,,,194.0,,,,10.0,,KIGQ 212035Z AUTO 03012KT 10SM OVC019 M01/M04 A3057 RMK AO2  T10111037,,,1900.0,,,25.26,22.08,NNE,29.91,30.26,,Overcast
KIGQ,02/21/2018 20:55 UTC,30.57,29.84,25.16,82.45,14.97,20.0,23.02,,,,,194.0,,,,10.0,,KIGQ 212055Z AUTO 02013G20KT 10SM OVC019 M01/M04 A3057 RMK AO2  T10121038,,,1900.0,,,25.08,21.43,NNE,29.91,30.26,,Overcast
KIGQ,02/21/2018 21:15 UTC,30.58,29.66,25.34,83.69,13.8,20.0,21.85,,,,,194.0,,,,10.0,,KIGQ 212115Z AUTO 02012G19KT 10SM OVC019 M01/M04 A3058 RMK AO2  T10131037,,,1900.0,,,25.27,21.64,NNE,29.92,30.27,,Overcast
KIGQ,02/21/2018 21:35 UTC,30.59,30.02,25.7,83.71,9.22,10.0,17.27,,,,,194.0,,,,10.0,,KIGQ 212135Z AUTO 01008G15KT 10SM OVC019 M01/M03 A3059 RMK AO2  T10111035,,,1900.0,,,25.63,24.1,N,29.92,30.26,,Overcast
KIGQ,02/21/2018 21:55 UTC,30.58,29.84,25.34,83.07,11.5,20.0,17.27,,,,,194.0,,,,10.0,,KIGQ 212155Z AUTO 02010G15KT 10SM OVC019 M01/M04 A3058 RMK AO2  T10121037,,,1900.0,,,25.26,22.79,NNE,29.92,30.27,,Overcast
KIGQ,02/21/2018 22:15 UTC,30.58,29.84,25.34,83.07,11.5,20.0,17.27,,,,,194.0,,,,10.0,,KIGQ 212215Z AUTO 02010G15KT 10SM OVC019 M01/M04 A3058 RMK AO2  T10121037,,,1900.0,,,25.26,22.79,NNE,29.92,30.27,,Overcast
KIGQ,02/21/2018 22:35 UTC,30.59,29.66,25.34,83.69,13.8,20.0,,,,,,194.0,,,,10.0,,KIGQ 212235Z AUTO 02012KT 10SM OVC019 M01/M04 A3059 RMK AO2  T10131037,,,1900.0,,,25.27,21.64,NNE,29.92,30.27,,Overcast
KIGQ,02/21/2018 22:55 UTC,30.6,29.66,25.52,84.32,10.36,40.0,16.11,,,,,194.0,,,,10.0,,KIGQ 212255Z AUTO 04009G14KT 10SM OVC019 M01/M04 A3060 RMK AO2  T10131036,,,1900.0,,,25.45,23.1,NE,29.93,30.28,,Overcast
KIGQ,02/21/2018 23:15 UTC,30.6,30.02,26.06,84.97,9.22,20.0,,,,,,194.0,,,,10.0,,KIGQ 212315Z AUTO 02008KT 10SM OVC019 M01/M03 A3060 RMK AO2  T10111033,,,1900.0,,,25.99,24.1,NNE,29.93,30.27,,Overcast
KIGQ,02/21/2018 23:35 UTC,30.6,29.84,25.88,84.96,9.22,30.0,,,,,,174.0,,,,10.0,,KIGQ 212335Z AUTO 03008KT 10SM OVC017 M01/M03 A3060 RMK AO2  T10121034,,,1700.0,,,25.81,23.89,NNE,29.93,30.27,,Overcast
KIGQ,02/21/2018 23:55 UTC,30.61,29.84,26.06,85.6,9.22,30.0,16.11,,,,,174.0,,,,10.0,,KIGQ 212355Z AUTO 03008G14KT 10SM OVC017 M01/M03 A3061 RMK AO2  T10121033 11006 21013,30.92,29.66,1700.0,,,26.0,23.89,NNE,29.94,30.28,,Overcast
KIGQ,02/22/2018 00:15 UTC,30.61,29.84,25.88,84.96,11.5,30.0,16.11,,,,,173.0,,,,10.0,,KIGQ 220015Z AUTO 03010G14KT 10SM BKN017 M01/M03 A3061 RMK AO2  T10121034,,,1700.0,,,25.81,22.79,NNE,29.94,30.28,,Mostly Cloudy
KIGQ,02/22/2018 00:35 UTC,30.61,29.84,25.7,84.33,9.22,30.0,16.11,,,,,173.0,,,,10.0,,KIGQ 220035Z AUTO 03008G14KT 10SM BKN017 M01/M03 A3061 RMK AO2  T10121035,,,1700.0,,,25.63,23.89,NNE,29.94,30.29,,Mostly Cloudy
KIGQ,02/22/2018 00:55 UTC,30.62,29.84,25.7,84.33,9.22,30.0,16.11,,,,,172.0,,,,10.0,,KIGQ 220055Z AUTO 03008G14KT 10SM SCT017 M01/M03 A3062 RMK AO2  T10121035,,,,,,25.63,23.89,NNE,29.95,30.3,,Partly Cloudy
KIGQ,02/22/2018 01:15 UTC,30.62,29.84,25.52,83.7,11.5,30.0,,,,,,1.0,,,,10.0,,KIGQ 220115Z AUTO 03010KT 10SM CLR M01/M04 A3062 RMK AO2  T10121036,,,,,,25.45,22.79,NNE,29.95,30.3,,Clear
KIGQ,02/22/2018 01:35 UTC,30.62,30.02,25.7,83.71,8.05,40.0,,,,,,1.0,,,,10.0,,KIGQ 220135Z AUTO 04007KT 10SM CLR M01/M03 A3062 RMK AO2  T10111035,,,,,,25.63,24.75,NE,29.95,30.3,,Clear
KIGQ,02/22/2018 01:55 UTC,30.62,30.2,25.88,83.72,9.22,30.0,,,,,,1.0,,,,10.0,,KIGQ 220155Z AUTO 03008KT 10SM CLR M01/M03 A3062 RMK AO2  T10101034,,,,,,25.81,24.31,NNE,29.95,30.29,,Clear
KIGQ,02/22/2018 02:15 UTC,30.62,30.2,25.88,83.72,11.5,30.0,16.11,,,,,1.0,,,,10.0,,KIGQ 220215Z AUTO 03010G14KT 10SM CLR M01/M03 A3062 RMK AO2  T10101034,,,,,,25.81,23.23,NNE,29.95,30.29,,Clear
KIGQ,02/22/2018 02:35 UTC,30.63,30.2,25.7,83.1,11.5,30.0,16.11,,,,,1.0,,,,10.0,,KIGQ 220235Z AUTO 03010G14KT 10SM CLR M01/M03 A3063 RMK AO2  T10101035,,,,,,25.63,23.23,NNE,29.96,30.3,,Clear
KIGQ,02/22/2018 02:55 UTC,30.64,30.2,26.24,84.98,8.05,30.0,,,,,,1.0,,,,10.0,,KIGQ 220255Z AUTO 03007KT 10SM CLR M01/M03 A3064 RMK AO2  T10101032,,,,,,26.17,24.96,NNE,29.97,30.31,,Clear
KIGQ,02/22/2018 03:15 UTC,30.62,30.2,26.24,84.98,5.75,40.0,,,,,,1.0,,,,10.0,,KIGQ 220315Z AUTO 04005KT 10SM CLR M01/M03 A3062 RMK AO2  T10101032,,,,,,26.17,,NE,29.95,30.29,,Clear
KIGQ,02/22/2018 03:35 UTC,30.62,30.2,25.52,82.48,12.66,50.0,16.11,,,,,1.0,,,,10.0,,KIGQ 220335Z AUTO 05011G14KT 10SM CLR M01/M04 A3062 RMK AO2  T10101036,,,,,,25.44,22.74,NE,29.95,30.3,,Clear
KIGQ,02/22/2018 03:55 UTC,30.62,30.2,26.06,84.35,10.36,50.0,,,,,,1.0,,,,10.0,,KIGQ 220355Z AUTO 05009KT 10SM CLR M01/M03 A3062 RMK AO2  T10101033,,,,,,25.99,23.74,NE,29.95,30.29,,Clear
KIGQ,02/22/2018 04:15 UTC,30.62,30.56,26.24,83.75,9.22,50.0,,,,,,1.0,,,,10.0,,KIGQ 220415Z AUTO 05008KT 10SM CLR M01/M03 A3062 RMK AO2  T10081032,,,,,,26.17,24.74,NE,29.95,30.29,,Clear
KIGQ,02/22/2018 04:35 UTC,30.61,30.74,26.42,83.76,11.5,40.0,,,,,,182.0,,,,10.0,,KIGQ 220435Z AUTO 04010KT 10SM SCT018 M01/M03 A3061 RMK AO2  T10071031,,,,,,26.35,23.88,NE,29.94,30.27,,Partly Cloudy
KIGQ,02/22/2018 04:55 UTC,30.6,30.92,26.6,83.77,11.5,50.0,17.27,,,,,182.0,,,,10.0,,KIGQ 220455Z AUTO 05010G15KT 10SM SCT018 M01/M03 A3060 RMK AO2  T10061030,,,,,,26.53,24.1,NE,29.93,30.26,,Partly Cloudy
KIGQ,02/22/2018 05:15 UTC,30.59,30.92,26.42,83.15,11.5,40.0,17.27,,,,,1.0,,,,10.0,,KIGQ 220515Z AUTO 04010G15KT 10SM CLR M01/M03 A3059 RMK AO2  T10061031,,,,,,26.35,24.1,NE,29.92,30.25,,Clear
KIGQ,02/22/2018 05:35 UTC,30.57,30.92,26.78,84.4,11.5,50.0,,,,,,1.0,,,,10.0,,KIGQ 220535Z AUTO 05010KT 10SM CLR M01/M03 A3057 RMK AO2  T10061029,,,,,,26.71,24.1,NE,29.91,30.24,,Clear
KIGQ,02/22/2018 05:55 UTC,30.56,30.92,27.32,86.3,11.5,50.0,17.27,,,,,1.0,,,,10.0,,KIGQ 220555Z AUTO 05010G15KT 10SM CLR M01/M03 A3056 RMK AO2  T10061026 11006 21012 400161015,30.92,29.84,,34.88,29.3,27.26,24.1,NE,29.9,30.22,,Clear
KIGQ,02/22/2018 06:15 UTC,30.56,30.92,27.5,86.95,10.36,40.0,,,,,,142.0,,,,10.0,,KIGQ 220615Z AUTO 04009KT 10SM SCT014 M01/M02 A3056 RMK AO2  T10061025,,,,,,27.44,24.61,NE,29.9,30.22,,Partly Cloudy
KIGQ,02/22/2018 06:35 UTC,30.55,31.1,28.04,88.26,11.5,50.0,17.27,,,,,142.0,,,,10.0,,KIGQ 220635Z AUTO 05010G15KT 10SM SCT014 00/M02 A3055 RMK AO2  T10051022,,,,,,27.99,24.31,NE,29.89,30.2,,Partly Cloudy
KIGQ,02/22/2018 06:55 UTC,30.55,31.1,28.22,88.91,11.5,40.0,18.41,,,,,1.0,,,,10.0,,KIGQ 220655Z AUTO 04010G16KT 10SM CLR 00/M02 A3055 RMK AO2  T10051021,,,,,,28.17,24.31,NE,29.89,30.2,,Clear
KIGQ,02/22/2018 07:15 UTC,30.57,31.1,28.4,89.57,10.36,30.0,16.11,,,,,1.0,,,,10.0,,KIGQ 220715Z AUTO 03009G14KT 10SM CLR 00/M02 A3057 RMK AO2  T10051020,,,,,,28.35,24.82,NNE,29.91,30.21,,Clear
KIGQ,02/22/2018 07:35 UTC,30.55,31.1,28.4,89.57,12.66,40.0,17.27,,,,,1.0,,,,10.0,,KIGQ 220735Z AUTO 04011G15KT 10SM CLR 00/M02 A3055 RMK AO2  T10051020,,,,,,28.35,23.84,NE,29.89,30.19,,Clear
KIGQ,02/22/2018 07:55 UTC,30.55,31.28,28.4,88.92,12.66,30.0,,,,,,702.0,,,,10.0,,KIGQ 220755Z AUTO 03011KT 10SM SCT070 00/M02 A3055 RMK AO2  T10041020,,,,,,28.35,24.06,NNE,29.89,30.19,,Partly Cloudy
KIGQ,02/22/2018 08:15 UTC,30.55,31.46,28.76,89.59,11.5,30.0,,,,,,703.0,,,,10.0,,KIGQ 220815Z AUTO 03010KT 10SM BKN070 00/M02 A3055 RMK AO2  T10031018,,,7000.0,,,28.72,24.75,NNE,29.89,30.19,,Mostly Cloudy
KIGQ,02/22/2018 08:35 UTC,30.54,31.64,28.4,87.63,14.97,40.0,,,,,,242.0,704.0,,,10.0,,KIGQ 220835Z AUTO 04013KT 10SM SCT024 OVC070 00/M02 A3054 RMK AO2  T10021020,,,7000.0,,,28.35,23.65,NE,29.88,30.18,,Overcast
KIGQ,02/22/2018 08:55 UTC,30.53,31.64,28.58,88.28,11.5,40.0,,,,,,242.0,703.0,,,10.0,,KIGQ 220855Z AUTO 04010KT 10SM SCT024 BKN070 00/M02 A3053 RMK AO2  T10021019,,,7000.0,,,28.53,24.96,NE,29.87,30.17,,Mostly Cloudy
KIGQ,02/22/2018 09:15 UTC,30.52,31.64,28.94,89.6,12.66,40.0,17.27,,,,,702.0,,,,10.0,,KIGQ 220915Z AUTO 04011G15KT 10SM SCT070 00/M02 A3052 RMK AO2  T10021017,,,,,,28.9,24.49,NE,29.86,30.15,,Partly Cloudy
KIGQ,02/22/2018 09:35 UTC,30.51,31.46,28.76,89.59,11.5,60.0,18.41,,,,,703.0,,,,10.0,,KIGQ 220935Z AUTO 06010G16KT 10SM BKN070 00/M02 A3051 RMK AO2  T10031018,,,7000.0,,,28.72,24.75,ENE,29.85,30.15,,Mostly Cloudy
KIGQ,02/22/2018 09:55 UTC,30.51,31.64,28.94,89.6,8.05,50.0,,,,,,703.0,1203.0,,,10.0,,KIGQ 220955Z AUTO 05007KT 10SM BKN070 BKN120 00/M02 A3051 RMK AO2  T10021017,,,7000.0,,,28.9,26.65,NE,29.85,30.14,,Mostly Cloudy
KIGQ,02/22/2018 10:15 UTC,30.52,31.82,29.12,89.6,11.5,30.0,16.11,,,,,702.0,1203.0,,,10.0,,KIGQ 221015Z AUTO 03010G14KT 10SM SCT070 BKN120 00/M02 A3052 RMK AO2 T10011016,,,12000.0,,,29.07,25.18,NNE,29.86,30.15,,Mostly Cloudy
KIGQ,02/22/2018 10:35 UTC,30.51,31.82,29.12,89.6,11.5,40.0,,,,,,702.0,1203.0,,,10.0,,KIGQ 221035Z AUTO 04010KT 10SM SCT070 BKN120 00/M02 A3051 RMK AO2  T10011016,,,12000.0,,,29.07,25.18,NE,29.85,30.14,,Mostly Cloudy
KIGQ,02/22/2018 10:55 UTC,30.51,31.82,29.12,89.6,11.5,50.0,18.41,,1203.0,,,152.0,702.0,,,10.0,,KIGQ 221055Z AUTO 05010G16KT 10SM SCT015 SCT070 BKN120 00/M02  A3051 RMK AO2 T10011016,,,12000.0,,,29.07,25.18,NE,29.85,30.14,,Mostly Cloudy
KIGQ,02/22/2018 11:15 UTC,30.53,32.0,29.3,89.61,11.5,30.0,,,,,,153.0,1204.0,,,10.0,,KIGQ 221115Z AUTO 03010KT 10SM BKN015 OVC120 00/M01 A3053 RMK AO2  T00001015,,,1500.0,,,29.25,25.4,NNE,29.87,30.16,,Overcast
KIGQ,02/22/2018 11:35 UTC,30.52,32.0,29.3,89.61,10.36,40.0,,,,,,154.0,,,,10.0,,KIGQ 221135Z AUTO 04009KT 10SM OVC015 00/M01 A3052 RMK AO2  T00001015,,,1500.0,,,29.25,25.9,NE,29.86,30.15,,Overcast
KIGQ,02/22/2018 11:55 UTC,30.53,32.0,29.48,90.27,12.66,50.0,17.27,,,,,154.0,,,,10.0,,KIGQ 221155Z AUTO 05011G15KT 10SM OVC015 00/M01 A3053 RMK AO2 LTG  DSNT S T00001014 10000 21006,32.0,30.92,1500.0,,,29.44,24.93,NE,29.87,30.15,,Overcast
KIGQ,02/22/2018 12:15 UTC,30.53,32.0,29.66,90.94,11.5,50.0,,,,,,154.0,,,,10.0,,KIGQ 221215Z AUTO 05010KT 10SM OVC015 00/M01 A3053 RMK AO2  T00001013,,,1500.0,,,29.62,25.4,NE,29.87,30.15,,Overcast
KIGQ,02/22/2018 12:35 UTC,30.53,32.0,29.84,91.61,10.36,40.0,,,,,,152.0,1204.0,,,10.0,,KIGQ 221235Z AUTO 04009KT 10SM SCT015 OVC120 00/M01 A3053 RMK AO2  T00001012,,,12000.0,,,29.8,25.9,NE,29.87,30.15,,Overcast
KIGQ,02/22/2018 12:55 UTC,30.54,32.0,30.02,92.28,10.36,40.0,,,,,,752.0,1104.0,,,10.0,,KIGQ 221255Z AUTO 04009KT 10SM SCT075 OVC110 00/M01 A3054 RMK AO2  T00001011,,,11000.0,,,29.99,25.9,NE,29.88,30.16,,Overcast
KIGQ,02/22/2018 13:15 UTC,30.54,32.0,30.02,92.28,9.22,50.0,,,,,,133.0,754.0,,,10.0,,KIGQ 221315Z AUTO 05008KT 10SM BKN013 OVC075 00/M01 A3054 RMK AO2  T00001011,,,1300.0,,,29.99,26.45,NE,29.88,30.16,,Overcast
KIGQ,02/22/2018 13:35 UTC,30.54,32.0,30.02,92.28,12.66,50.0,,,,,,133.0,754.0,,,10.0,,KIGQ 221335Z AUTO 05011KT 10SM BKN013 OVC075 00/M01 A3054 RMK AO2  T00001011,,,1300.0,,,29.99,24.93,NE,29.88,30.16,,Overcast
KIGQ,02/22/2018 13:55 UTC,30.54,32.18,30.2,92.29,10.36,60.0,,,,,,133.0,754.0,,,10.0,,KIGQ 221355Z AUTO 06009KT 10SM BKN013 OVC075 00/M01 A3054 RMK AO2  T00011010,,,1300.0,,,30.17,26.12,ENE,29.88,30.15,,Overcast
KIGQ,02/22/2018 14:15 UTC,30.53,32.36,30.2,91.62,11.5,50.0,18.41,,,,,132.0,754.0,,,10.0,,KIGQ 221415Z AUTO 05010G16KT 10SM SCT013 OVC075 00/M01 A3053 RMK AO2 T00021010,,,7500.0,,,30.16,25.83,NE,29.87,30.14,,Overcast
KIGQ,02/22/2018 14:35 UTC,30.54,32.54,30.56,92.3,10.36,40.0,16.11,,854.0,,,132.0,753.0,,,10.0,,KIGQ 221435Z AUTO 04009G14KT 10SM SCT013 BKN075 OVC085 00/M01  A3054 RMK AO2 T00031008,,,7500.0,,,30.53,26.55,NE,29.88,30.14,,Overcast
KIGQ,02/22/2018 14:55 UTC,30.55,32.9,30.92,92.32,8.05,50.0,,,954.0,,,132.0,653.0,,,10.0,,KIGQ 221455Z AUTO 05007KT 10SM SCT013 BKN065 OVC095 01/M01 A3055 RMK AO2 T00051006,,,6500.0,,,30.89,28.13,NE,29.89,30.15,,Overcast
KIGQ,02/22/2018 15:15 UTC,30.55,33.08,31.1,92.32,10.36,50.0,,,,,,132.0,654.0,,,10.0,,KIGQ 221515Z AUTO 05009KT 10SM SCT013 OVC065 01/00 A3055 RMK AO2  T00061005,,,6500.0,,,31.07,27.19,NE,29.89,30.14,,Overcast
KIGQ,02/22/2018 15:35 UTC,30.56,33.08,31.1,92.32,6.91,40.0,,,1003.0,,,112.0,702.0,,,10.0,,KIGQ 221535Z AUTO 04006KT 10SM SCT011 SCT070 BKN100 01/00 A3056 RMK AO2 T00061005,,,10000.0,,,31.07,,NE,29.9,30.15,,Mostly Cloudy
KIGQ,02/22/2018 16:00 UTC,30.54,34.16,32.0,91.69,9.22,40.0,,,703.0,,,132.0,402.0,,,10.0,,KIGQ 221600Z AUTO 04008KT 10SM SCT013 SCT040 BKN070 01/00 A3054 RMK AO2 T00120000,,,7000.0,,,31.96,29.01,NE,29.88,30.11,,Mostly Cloudy
KIGQ,02/22/2018 16:15 UTC,30.54,34.52,32.0,90.38,9.22,40.0,,,753.0,,,422.0,603.0,,,10.0,,KIGQ 221615Z AUTO 04008KT 10SM SCT042 BKN060 BKN075 01/00 A3054 RMK AO2 T00140000,,,6000.0,,,31.96,29.44,NE,29.88,30.11,,Mostly Cloudy
KIGQ,02/22/2018 16:35 UTC,30.52,35.24,32.0,87.83,10.36,30.0,,,,,,553.0,,,,10.0,,KIGQ 221635Z AUTO 03009KT 10SM BKN055 02/00 A3052 RMK AO2  T00180000,,,5500.0,,,31.95,29.78,NNE,29.86,30.08,,Mostly Cloudy
KIGQ,02/22/2018 16:55 UTC,30.51,36.32,32.72,86.62,9.22,30.0,,,,,,152.0,554.0,,,10.0,,KIGQ 221655Z AUTO 03008KT 10SM SCT015 OVC055 02/00 A3051 RMK AO2  T00240004,,,5500.0,,,32.66,31.58,NNE,29.85,30.06,,Overcast
KIGQ,02/22/2018 17:15 UTC,30.52,37.4,32.9,83.61,10.36,40.0,,,,,,504.0,,,,10.0,,KIGQ 221715Z AUTO 04009KT 10SM OVC050 03/01 A3052 RMK AO2  T00300005,,,5000.0,,,32.83,32.37,NE,29.86,30.05,,Overcast
KIGQ,02/22/2018 17:35 UTC,30.51,37.94,33.62,84.25,9.22,40.0,,,,,,504.0,,,,10.0,,KIGQ 221735Z AUTO 04008KT 020V080 10SM OVC050 03/01 A3051 RMK AO2  T00330009,,,5000.0,,,33.55,33.5,NE,29.85,30.03,,Overcast
KIGQ,02/22/2018 17:55 UTC,30.5,38.66,33.98,83.1,9.22,30.0,,,,,,504.0,,,,10.0,,KIGQ 221755Z AUTO 03008KT 010V070 10SM OVC050 04/01 A3050 RMK AO2  T00370011 10037 20000,38.66,32.0,5000.0,,,33.91,34.35,NNE,29.84,30.01,,Overcast
KIGQ,02/22/2018 18:15 UTC,30.49,39.2,33.98,81.36,9.22,30.0,,,,,,502.0,,,,10.0,,KIGQ 221815Z AUTO 03008KT 10SM SCT050 04/01 A3049 RMK AO2  T00400011,,,,,,33.9,34.99,NNE,29.83,29.99,,Partly Cloudy
KIGQ,02/22/2018 18:35 UTC,30.49,39.02,33.8,81.35,10.36,40.0,,,503.0,,,252.0,363.0,,,10.0,,KIGQ 221835Z AUTO 04009KT 10SM SCT025 BKN036 BKN050 04/01 A3049 RMK AO2 T00390010,,,3600.0,,,33.72,34.31,NE,29.83,30.0,,Mostly Cloudy
KIGQ,02/22/2018 18:55 UTC,30.47,39.02,33.44,80.18,11.5,40.0,,,,,,403.0,504.0,,,10.0,,KIGQ 221855Z AUTO 04010KT 10SM BKN040 OVC050 04/01 A3047 RMK AO2  T00390008,,,4000.0,,,33.36,33.87,NE,29.81,29.98,,Overcast
KIGQ,02/22/2018 19:15 UTC,30.45,38.66,33.26,80.74,13.8,40.0,,,,,,384.0,,,,10.0,,KIGQ 221915Z AUTO 04012KT 10SM OVC038 04/01 A3045 RMK AO2  T00370007,,,3800.0,,,33.18,32.66,NE,29.79,29.97,,Overcast
KIGQ,02/22/2018 19:35 UTC,30.45,38.84,33.08,79.59,10.36,40.0,,,,,,404.0,,,,10.0,,KIGQ 221935Z AUTO 04009KT 10SM OVC040 04/01 A3045 RMK AO2  T00380006,,,4000.0,,,33.0,34.09,NE,29.79,29.97,,Overcast
KIGQ,02/22/2018 19:55 UTC,30.44,39.74,33.8,79.1,10.36,30.0,,,,,,282.0,404.0,,,10.0,,KIGQ 221955Z AUTO 03009KT 10SM SCT028 OVC040 04/01 A3044 RMK AO2  T00430010,,,4000.0,,,33.72,35.17,NNE,29.78,29.94,,Overcast
KIGQ,02/22/2018 20:15 UTC,30.43,40.1,33.8,78.0,10.36,40.0,,,,,,283.0,404.0,,,10.0,,KIGQ 222015Z AUTO 04009KT 10SM BKN028 OVC040 05/01 A3043 RMK AO2  T00450010,,,2800.0,,,33.71,35.6,NE,29.77,29.93,,Overcast
KIGQ,02/22/2018 20:35 UTC,30.42,39.2,33.62,80.2,8.05,40.0,,,,,,284.0,,,,10.0,,KIGQ 222035Z AUTO 04007KT 10SM OVC028 04/01 A3042 RMK AO2  T00400009,,,2800.0,,,33.54,35.53,NE,29.76,29.93,,Overcast
KIGQ,02/22/2018 20:55 UTC,30.42,39.2,33.8,80.78,9.22,40.0,,,,,,244.0,,,,10.0,,KIGQ 222055Z AUTO 04008KT 10SM OVC024 04/01 A3042 RMK AO2  T00400010,,,2400.0,,,33.72,34.99,NE,29.76,29.93,,Overcast
KIGQ,02/22/2018 21:15 UTC,30.42,39.2,34.16,81.95,8.05,30.0,,,,,,244.0,,,,10.0,,KIGQ 222115Z AUTO 03007KT 10SM OVC024 04/01 A3042 RMK AO2  T00400012,,,2400.0,,,34.09,35.53,NNE,29.76,29.92,,Overcast
KIGQ,02/22/2018 21:35 UTC,30.42,39.2,34.7,83.74,5.75,30.0,,,,,,244.0,,,,10.0,,KIGQ 222135Z AUTO 03005KT 10SM OVC024 04/02 A3042 RMK AO2  T00400015,,,2400.0,,,34.64,,NNE,29.76,29.91,,Overcast
KIGQ,02/22/2018 21:55 UTC,30.41,39.38,34.88,83.75,8.05,40.0,,,,,,224.0,,,,10.0,,KIGQ 222155Z AUTO 04007KT 10SM OVC022 04/02 A3041 RMK AO2  T00410016,,,2200.0,,,34.81,35.74,NE,29.75,29.89,,Overcast
KIGQ,02/22/2018 22:15 UTC,30.39,40.82,35.96,82.66,8.05,70.0,,,,,,224.0,,,,10.0,,KIGQ 222215Z AUTO 07007KT 10SM OVC022 05/02 A3039 RMK AO2  T00490022,,,2200.0,,,35.89,37.44,ENE,29.73,29.84,,Overcast
KIGQ,02/22/2018 22:35 UTC,30.37,41.9,37.04,82.74,14.97,110.0,18.41,,,,,223.0,294.0,,,10.0,,KIGQ 222235Z AUTO 11013G16KT 10SM BKN022 OVC029 06/03 A3037 RMK AO2 T00550028,,,2200.0,,,36.97,36.3,ESE,29.71,29.79,,Overcast
KIGQ,02/22/2018 22:55 UTC,30.38,42.08,37.22,82.75,8.05,90.0,,,,,,213.0,284.0,,,10.0,,KIGQ 222255Z AUTO 09007KT 10SM BKN021 OVC028 06/03 A3038 RMK AO2  T00560029,,,2100.0,,,37.15,38.92,E,29.72,29.8,,Overcast
KIGQ,02/22/2018 23:15 UTC,30.4,42.08,37.4,83.34,8.05,90.0,,,,,,214.0,,,,10.0,,KIGQ 222315Z AUTO 09007KT 10SM OVC021 06/03 A3040 RMK AO2  T00560030,,,2100.0,,,37.34,38.92,E,29.74,29.81,,Overcast
KIGQ,02/22/2018 23:35 UTC,30.41,42.08,37.22,82.75,8.05,70.0,,,,,,214.0,,,,10.0,,KIGQ 222335Z AUTO 07007KT 10SM OVC021 06/03 A3041 RMK AO2  T00560029,,,2100.0,,,37.15,38.92,ENE,29.75,29.83,,Overcast
KIGQ,02/22/2018 23:55 UTC,30.41,42.08,37.4,83.34,5.75,90.0,,,,,,214.0,,,,10.0,,KIGQ 222355Z AUTO 09005KT 10SM OVC021 06/03 A3041 RMK AO2  T00560030 10057 20036,42.26,38.48,2100.0,,,37.34,,E,29.75,29.83,,Overcast
KIGQ,02/23/2018 00:15 UTC,30.41,42.08,37.4,83.34,5.75,90.0,,,,,,214.0,,,,10.0,,KIGQ 230015Z AUTO 09005KT 10SM OVC021 06/03 A3041 RMK AO2  T00560030,,,2100.0,,,37.34,,E,29.75,29.83,,Overcast
KIGQ,02/23/2018 00:35 UTC,30.41,41.54,37.22,84.49,9.22,100.0,,,,,,214.0,,,,10.0,,KIGQ 230035Z AUTO 10008KT 10SM OVC021 05/03 A3041 RMK AO2  T00530029,,,2100.0,,,37.16,37.77,E,29.75,29.83,,Overcast
KIGQ,02/23/2018 00:55 UTC,30.41,41.36,37.4,85.69,8.05,100.0,,,,,,214.0,,,,10.0,,KIGQ 230055Z AUTO 10007KT 10SM OVC021 05/03 A3041 RMK AO2  T00520030,,,2100.0,,,37.34,38.07,E,29.75,29.83,,Overcast
KIGQ,02/23/2018 01:15 UTC,30.4,41.0,37.22,86.28,11.5,100.0,,,,,,214.0,,,,10.0,,KIGQ 230115Z AUTO 10010KT 10SM OVC021 05/03 A3040 RMK AO2  T00500029,,,2100.0,,,37.17,36.26,E,29.74,29.83,,Overcast
KIGQ,02/23/2018 01:35 UTC,30.39,40.46,37.04,87.48,12.66,110.0,,,,,,194.0,,,,10.0,,KIGQ 230135Z AUTO 11011KT 10SM OVC019 05/03 A3039 RMK AO2  T00470028,,,1900.0,,,36.99,35.22,ESE,29.73,29.82,,Overcast
KIGQ,02/23/2018 01:55 UTC,30.38,40.1,37.04,88.71,11.5,100.0,17.27,,,,,174.0,,,,10.0,,KIGQ 230155Z AUTO 10010G15KT 10SM OVC017 05/03 A3038 RMK AO2  T00450028,,,1700.0,,,37.0,35.18,E,29.72,29.82,,Overcast
KIGQ,02/23/2018 02:15 UTC,30.36,39.74,36.86,89.32,10.36,100.0,16.11,,,,,174.0,,,,10.0,,KIGQ 230215Z AUTO 10009G14KT 10SM OVC017 04/03 A3036 RMK AO2  T00430027,,,1700.0,,,36.82,35.17,E,29.7,29.8,,Overcast
KIGQ,02/23/2018 02:35 UTC,30.33,39.38,36.86,90.59,12.66,100.0,19.57,,,,,134.0,,,,10.0,,KIGQ 230235Z AUTO 10011G17KT 10SM OVC013 04/03 A3033 RMK AO2  T00410027,,,1300.0,,,36.82,33.91,E,29.67,29.77,,Overcast
KIGQ,02/23/2018 02:55 UTC,30.32,39.2,37.04,91.87,17.27,110.0,21.85,,,,,134.0,,,,10.0,,KIGQ 230255Z AUTO 11015G19KT 10SM OVC013 04/03 A3032 RMK AO2  T00400028,,,1300.0,,,37.01,32.34,ESE,29.66,29.76,,Overcast
KIGQ,02/23/2018 03:15 UTC,30.32,39.2,37.4,93.19,11.5,110.0,18.41,,,,,114.0,,,,10.0,,KIGQ 230315Z AUTO 11010G16KT 10SM OVC011 04/03 A3032 RMK AO2  T00400030,,,1100.0,,,37.37,34.09,ESE,29.66,29.76,,Overcast
KIGQ,02/23/2018 03:35 UTC,30.33,39.2,37.58,93.85,5.75,90.0,,,,,,114.0,,,,10.0,,KIGQ 230335Z AUTO 09005KT 10SM OVC011 04/03 A3033 RMK AO2  T00400031,,,1100.0,,,37.56,,E,29.67,29.76,,Overcast
KIGQ,02/23/2018 03:55 UTC,30.34,39.2,37.76,94.52,9.22,110.0,,,,,,114.0,,,,10.0,,KIGQ 230355Z AUTO 11008KT 10SM OVC011 04/03 A3034 RMK AO2  T00400032,,,1100.0,,,37.74,34.99,ESE,29.68,29.77,,Overcast
KIGQ,02/23/2018 04:15 UTC,30.33,39.2,37.76,94.52,9.22,100.0,,,,,,114.0,,,,10.0,,KIGQ 230415Z AUTO 10008KT 10SM OVC011 04/03 A3033 RMK AO2  T00400032,,,1100.0,,,37.74,34.99,E,29.67,29.76,,Overcast
KIGQ,02/23/2018 04:35 UTC,30.33,39.2,37.94,95.19,9.22,130.0,,,,,,94.0,,,,10.0,,KIGQ 230435Z AUTO 13008KT 10SM OVC009 04/03 A3033 RMK AO2  T00400033,,,900.0,,,37.92,34.99,SE,29.67,29.75,,Overcast
KIGQ,02/23/2018 04:55 UTC,30.31,39.2,38.3,96.54,13.8,130.0,18.41,,,,,94.0,,,,7.0,,KIGQ 230455Z AUTO 13012G16KT 7SM OVC009 04/04 A3031 RMK AO2  T00400035,,,900.0,,,38.29,33.32,SE,29.65,29.73,,Overcast
KIGQ,02/23/2018 05:15 UTC,30.31,38.84,38.3,97.91,11.5,130.0,,31.0,,,,94.0,,,,3.0,,KIGQ 230515Z AUTO 13010KT 3SM BR OVC009 04/04 A3031 RMK AO2  T00380035,,,900.0,,,38.29,33.66,SE,29.65,29.73,,Mist
KIGQ,02/23/2018 05:35 UTC,30.3,38.48,38.48,100.0,9.22,130.0,,31.0,,,,74.0,,,,3.0,,KIGQ 230535Z AUTO 13008KT 3SM BR OVC007 04/04 A3030 RMK AO2  T00360036,,,700.0,,,38.48,34.14,SE,29.64,29.72,,Mist
KIGQ,02/23/2018 05:55 UTC,30.3,38.48,38.48,100.0,9.22,130.0,,31.0,,,,54.0,,,,2.5,,KIGQ 230555Z AUTO 13008KT 2 1/2SM BR OVC005 04/04 A3030 RMK AO2  T00360036 10056 20036 400571006,42.08,38.48,500.0,42.26,30.92,38.48,34.14,SE,29.64,29.72,,Mist
KIGQ,02/23/2018 06:15 UTC,30.28,38.3,38.3,100.0,9.22,130.0,,31.0,,,,54.0,,,,3.0,,KIGQ 230615Z AUTO 13008KT 3SM BR OVC005 04/04 A3028 RMK AO2  T00350035,,,500.0,,,38.3,33.93,SE,29.62,29.7,,Mist
KIGQ,02/23/2018 06:35 UTC,30.27,38.3,38.3,100.0,8.05,140.0,,31.0,,,,54.0,,,,5.0,,KIGQ 230635Z AUTO 14007KT 5SM BR OVC005 04/04 A3027 RMK AO2  T00350035,,,500.0,,,38.3,34.48,SE,29.61,29.69,,Mist
KIGQ,02/23/2018 06:55 UTC,30.25,38.12,38.12,100.0,8.05,130.0,,31.0,,,,54.0,,,,4.0,,KIGQ 230655Z AUTO 13007KT 4SM BR OVC005 03/03 A3025 RMK AO2  T00340034,,,500.0,,,38.12,34.26,SE,29.59,29.68,,Mist
KIGQ,02/23/2018 07:15 UTC,30.23,37.76,37.76,100.0,9.22,120.0,17.27,31.0,,,,54.0,,,,5.0,,KIGQ 230715Z AUTO 12008G15KT 5SM BR OVC005 03/03 A3023 RMK AO2  T00320032,,,500.0,,,37.76,33.28,ESE,29.57,29.67,,Mist
KIGQ,02/23/2018 07:35 UTC,30.23,37.58,37.58,100.0,11.5,150.0,,31.0,,,,54.0,,,,5.0,,KIGQ 230735Z AUTO 15010KT 5SM BR OVC005 03/03 A3023 RMK AO2  T00310031,,,500.0,,,37.58,32.13,SSE,29.57,29.67,,Mist
KIGQ,02/23/2018 07:55 UTC,30.22,37.58,37.58,100.0,9.22,140.0,,31.0,,,,54.0,,,,5.0,,KIGQ 230755Z AUTO 14008KT 5SM BR OVC005 03/03 A3022 RMK AO2  T00310031,,,500.0,,,37.58,33.07,SE,29.56,29.66,,Mist
KIGQ,02/23/2018 08:15 UTC,30.2,37.4,37.4,100.0,9.22,140.0,,31.0,,,,34.0,,,,4.0,,KIGQ 230815Z AUTO 14008KT 4SM BR OVC003 03/03 A3020 RMK AO2  T00300030,,,300.0,,,37.4,32.86,SE,29.54,29.65,,Mist
KIGQ,02/23/2018 08:35 UTC,30.19,37.58,37.58,100.0,9.22,130.0,,31.0,,,,34.0,,,,3.0,,KIGQ 230835Z AUTO 13008KT 3SM BR OVC003 03/03 A3019 RMK AO2  T00310031,,,300.0,,,37.58,33.07,SE,29.53,29.63,,Mist
KIGQ,02/23/2018 08:55 UTC,30.17,37.58,37.58,100.0,8.05,130.0,,31.0,,,,34.0,,,,3.0,,KIGQ 230855Z AUTO 13007KT 3SM BR OVC003 03/03 A3017 RMK AO2  T00310031,,,300.0,,,37.58,33.63,SE,29.51,29.61,,Mist
KIGQ,02/23/2018 09:15 UTC,30.17,37.58,37.58,100.0,9.22,140.0,,31.0,,,,34.0,,,,2.5,,KIGQ 230915Z AUTO 14008KT 2 1/2SM BR OVC003 03/03 A3017 RMK AO2  T00310031,,,300.0,,,37.58,33.07,SE,29.51,29.61,,Mist
KIGQ,02/23/2018 09:35 UTC,30.15,37.58,37.58,100.0,8.05,140.0,,17.0,,,,34.0,,,,3.0,,KIGQ 230935Z AUTO 14007KT 3SM -DZ OVC003 03/03 A3015 RMK AO2  T00310031,,,300.0,,,37.58,33.63,SE,29.49,29.59,,Light Drizzle
KIGQ,02/23/2018 09:55 UTC,30.14,37.58,37.58,100.0,6.91,140.0,,31.0,,,,34.0,,,,4.0,,KIGQ 230955Z AUTO 14006KT 4SM BR OVC003 03/03 A3014 RMK AO2  T00310031,,,300.0,,,37.58,,SE,29.48,29.58,,Mist
KIGQ,02/23/2018 10:15 UTC,30.15,37.94,37.94,100.0,5.75,160.0,,31.0,,,,34.0,,,,4.0,,KIGQ 231015Z AUTO 16005KT 4SM BR OVC003 03/03 A3015 RMK AO2  T00330033,,,300.0,,,37.94,,SSE,29.49,29.58,,Mist
KIGQ,02/23/2018 10:35 UTC,30.14,38.3,38.3,100.0,5.75,150.0,,13.0,,,,34.0,,,,3.0,,KIGQ 231035Z AUTO 15005KT 3SM -RA OVC003 04/04 A3014 RMK AO2  T00350035,,,300.0,,,38.3,,SSE,29.48,29.56,,Light Rain
KIGQ,02/23/2018 10:55 UTC,30.12,38.3,38.3,100.0,4.61,150.0,,13.0,,,,34.0,,,,3.0,,KIGQ 231055Z AUTO 15004KT 3SM -RA OVC003 04/04 A3012 RMK AO2  T00350035,,,300.0,,,38.3,,SSE,29.47,29.55,,Light Rain
KIGQ,02/23/2018 11:15 UTC,30.14,38.48,38.48,100.0,5.75,180.0,,1.0,,,,34.0,,,,3.0,,KIGQ 231115Z AUTO 18005KT 3SM RA OVC003 04/04 A3014 RMK AO2  T00360036,,,300.0,,,38.48,,S,29.48,29.56,,Rain
KIGQ,02/23/2018 11:35 UTC,30.12,38.66,38.66,100.0,6.91,150.0,,13.0,,0.03,,34.0,,,,3.0,,KIGQ 231135Z AUTO 15006KT 3SM -RA OVC003 04/04 A3012 RMK AO2 P0003  T00370037,,,300.0,,,38.66,,SSE,29.47,29.54,,Light Rain
KIGQ,02/23/2018 11:55 UTC,30.11,38.84,38.84,100.0,6.91,160.0,,17.0,,0.03,,34.0,,0.03,0.03,4.0,,KIGQ 231155Z AUTO 16006KT 4SM -DZ OVC003 04/04 A3011 RMK AO2 P0003  60003 70003 T00380038 10038 20030,38.84,37.4,300.0,,,38.84,,SSE,29.46,29.52,,Light Drizzle
KIGQ,02/23/2018 12:15 UTC,30.11,39.2,39.2,100.0,8.05,170.0,,31.0,,,,34.0,,,,5.0,,KIGQ 231215Z AUTO 17007KT 5SM BR OVC003 04/04 A3011 RMK AO2  T00400040,,,300.0,,,39.2,35.53,S,29.46,29.51,,Mist
KIGQ,02/23/2018 12:35 UTC,30.11,39.2,39.2,100.0,6.91,180.0,,,,,,53.0,134.0,,,7.0,,KIGQ 231235Z AUTO 18006KT 7SM BKN005 OVC013 04/04 A3011 RMK AO2  T00400040,,,500.0,,,39.2,,S,29.46,29.51,,Overcast
KIGQ,02/23/2018 12:55 UTC,30.11,39.38,39.38,100.0,6.91,180.0,,31.0,,,,54.0,,,,5.0,,KIGQ 231255Z AUTO 18006KT 5SM BR OVC005 04/04 A3011 RMK AO2  T00410041,,,500.0,,,39.38,,S,29.46,29.51,,Mist
KIGQ,02/23/2018 13:15 UTC,30.11,39.74,39.74,100.0,9.22,170.0,,,,,,73.0,124.0,,,7.0,,KIGQ 231315Z AUTO 17008KT 7SM BKN007 OVC012 04/04 A3011 RMK AO2  T00430043,,,700.0,,,39.74,35.63,S,29.46,29.5,,Overcast
KIGQ,02/23/2018 13:35 UTC,30.11,40.28,40.28,100.0,8.05,190.0,,,,,,104.0,,,,7.0,,KIGQ 231335Z AUTO 19007KT 7SM OVC010 05/05 A3011 RMK AO2  T00460046,,,1000.0,,,40.28,36.8,S,29.46,29.48,,Overcast
KIGQ,02/23/2018 13:55 UTC,30.11,41.18,41.18,100.0,9.22,190.0,,,,,,83.0,114.0,,,10.0,,KIGQ 231355Z AUTO 19008KT 10SM BKN008 OVC011 05/05 A3011 RMK AO2  T00510051,,,800.0,,,41.18,37.34,S,29.46,29.45,,Overcast
KIGQ,02/23/2018 14:15 UTC,30.11,41.36,41.36,100.0,9.22,210.0,,,,,,64.0,,,,7.0,,KIGQ 231415Z AUTO 21008KT 7SM OVC006 05/05 A3011 RMK AO2  T00520052,,,600.0,,,41.36,37.56,SSW,29.46,29.45,,Overcast
KIGQ,02/23/2018 14:35 UTC,30.11,42.08,42.08,100.0,8.05,210.0,,,,,,64.0,,,,7.0,,KIGQ 231435Z AUTO 21007KT 7SM OVC006 06/06 A3011 RMK AO2  T00560056,,,600.0,,,42.08,38.92,SSW,29.46,29.42,,Overcast
KIGQ,02/23/2018 14:55 UTC,30.12,42.8,42.8,100.0,11.5,220.0,,,,,,64.0,,,,7.0,,KIGQ 231455Z AUTO 22010KT 7SM OVC006 06/06 A3012 RMK AO2  T00600060,,,600.0,,,42.8,38.44,SW,29.47,29.41,,Overcast
KIGQ,02/23/2018 15:15 UTC,30.12,43.34,43.34,100.0,11.5,230.0,,,,,,64.0,,,,10.0,,KIGQ 231515Z AUTO 23010KT 10SM OVC006 06/06 A3012 RMK AO2  T00630063,,,600.0,,,43.34,39.09,SW,29.47,29.39,,Overcast
KIGQ,02/23/2018 15:35 UTC,30.13,44.06,44.06,100.0,13.8,240.0,,,,,,64.0,,,,10.0,,KIGQ 231535Z AUTO 24012KT 10SM OVC006 07/07 A3013 RMK AO2  T00670067,,,600.0,,,44.06,39.27,WSW,29.47,29.37,,Overcast
KIGQ,02/23/2018 15:55 UTC,30.13,44.6,44.6,100.0,14.97,250.0,20.71,,,,,64.0,,,,10.0,,KIGQ 231555Z AUTO 25013G18KT 10SM OVC006 07/07 A3013 RMK AO2  T00700070,,,600.0,,,44.6,39.62,WSW,29.47,29.35,,Overcast
KIGQ,02/23/2018 16:15 UTC,30.14,44.24,43.88,98.63,23.02,260.0,26.46,,,,,64.0,,,,10.0,,KIGQ 231615Z AUTO 26020G23KT 10SM OVC006 07/07 A3014 RMK AO2  T00680066,,,600.0,,,43.87,37.46,W,29.48,29.38,,Overcast
KIGQ,02/23/2018 16:35 UTC,30.16,44.06,43.16,96.62,18.41,260.0,26.46,,,,,84.0,,,,10.0,,KIGQ 231635Z AUTO 26016G23KT 10SM OVC008 07/06 A3016 RMK AO2  T00670062,,,800.0,,,43.15,38.14,W,29.5,29.42,,Overcast
KIGQ,02/23/2018 16:55 UTC,30.16,43.52,42.44,95.94,16.11,250.0,24.16,,,,,84.0,,,,10.0,,KIGQ 231655Z AUTO 25014G21KT 10SM OVC008 06/06 A3016 RMK AO2  T00640058,,,800.0,,,42.42,38.0,WSW,29.5,29.44,,Overcast
KIGQ,02/23/2018 17:15 UTC,30.17,42.44,41.18,95.26,12.66,260.0,23.02,,,,,84.0,,,,10.0,,KIGQ 231715Z AUTO 26011G20KT 10SM OVC008 06/05 A3017 RMK AO2  T00580051,,,800.0,,,41.16,37.63,W,29.51,29.49,,Overcast
KIGQ,02/23/2018 17:35 UTC,30.18,42.08,41.0,95.91,13.8,250.0,,,,,,104.0,,,,10.0,,KIGQ 231735Z AUTO 25012KT 10SM OVC010 06/05 A3018 RMK AO2  T00560050,,,1000.0,,,40.98,36.85,WSW,29.52,29.51,,Overcast
KIGQ,02/23/2018 17:55 UTC,30.18,41.9,40.28,93.92,14.97,270.0,20.71,,,,,104.0,,,,10.0,,KIGQ 231755Z AUTO 27013G18KT 10SM OVC010 06/05 A3018 RMK AO2  T00550046 10070 20038,44.6,38.84,1000.0,,,40.26,36.3,W,29.52,29.53,,Overcast
KIGQ,02/23/2018 18:15 UTC,30.19,41.9,40.64,95.24,13.8,260.0,20.71,,,,,104.0,,,,10.0,,KIGQ 231815Z AUTO 26012G18KT 10SM OVC010 06/05 A3019 RMK AO2  T00550048,,,1000.0,,,40.62,36.63,W,29.53,29.53,,Overcast
KIGQ,02/23/2018 18:35 UTC,30.19,41.18,40.1,95.9,13.8,270.0,,,,,,104.0,,,,10.0,,KIGQ 231835Z AUTO 27012KT 10SM OVC010 05/05 A3019 RMK AO2  T00510045,,,1000.0,,,40.08,35.74,W,29.53,29.55,,Overcast
KIGQ,02/23/2018 18:55 UTC,30.2,40.28,39.2,95.88,17.27,260.0,23.02,,,,,84.0,,,,10.0,,KIGQ 231855Z AUTO 26015G20KT 10SM OVC008 05/04 A3020 RMK AO2  T00460040,,,800.0,,,39.18,33.69,W,29.54,29.59,,Overcast
KIGQ,02/23/2018 19:15 UTC,30.2,40.46,38.84,93.88,13.8,250.0,18.41,,,,,104.0,,,,10.0,,KIGQ 231915Z AUTO 25012G16KT 10SM OVC010 05/04 A3020 RMK AO2  T00470038,,,1000.0,,,38.81,34.86,WSW,29.54,29.59,,Overcast
KIGQ,02/23/2018 19:35 UTC,30.2,40.28,38.48,93.22,16.11,260.0,,,,,,104.0,,,,10.0,,KIGQ 231935Z AUTO 26014KT 10SM OVC010 05/04 A3020 RMK AO2  T00460036,,,1000.0,,,38.45,33.99,W,29.54,29.6,,Overcast
KIGQ,02/23/2018 19:55 UTC,30.2,40.64,38.48,91.93,14.97,270.0,18.41,,,,,104.0,,,,10.0,,KIGQ 231955Z AUTO 27013G16KT 10SM OVC010 05/04 A3020 RMK AO2  T00480036,,,1000.0,,,38.45,34.74,W,29.54,29.6,,Overcast
KIGQ,02/23/2018 20:15 UTC,30.2,40.64,38.48,91.93,11.5,250.0,,,,,,104.0,,,,10.0,,KIGQ 232015Z AUTO 25010KT 10SM OVC010 05/04 A3020 RMK AO2  T00480036,,,1000.0,,,38.45,35.83,WSW,29.54,29.6,,Overcast
KIGQ,02/23/2018 20:35 UTC,30.2,40.28,38.12,91.91,14.97,250.0,,,,,,104.0,,,,10.0,,KIGQ 232035Z AUTO 25013KT 10SM OVC010 05/03 A3020 RMK AO2  T00460034,,,1000.0,,,38.09,34.3,WSW,29.54,29.61,,Overcast
KIGQ,02/23/2018 20:55 UTC,30.21,39.56,37.58,92.54,13.8,270.0,,,,,,104.0,,,,10.0,,KIGQ 232055Z AUTO 27012KT 10SM OVC010 04/03 A3021 RMK AO2  T00420031,,,1000.0,,,37.55,33.76,W,29.55,29.64,,Overcast
KIGQ,02/23/2018 21:15 UTC,30.23,39.38,37.58,93.19,10.36,260.0,,,,,,104.0,,,,10.0,,KIGQ 232115Z AUTO 26009KT 10SM OVC010 04/03 A3023 RMK AO2  T00410031,,,1000.0,,,37.55,34.74,W,29.57,29.66,,Overcast
KIGQ,02/23/2018 21:35 UTC,30.23,39.2,37.58,93.85,13.8,260.0,,,,,,104.0,,,,10.0,,KIGQ 232135Z AUTO 26012KT 10SM OVC010 04/03 A3023 RMK AO2  T00400031,,,1000.0,,,37.56,33.32,W,29.57,29.66,,Overcast
KIGQ,02/23/2018 21:55 UTC,30.22,38.84,37.04,93.18,8.05,260.0,,,,,,104.0,,,,10.0,,KIGQ 232155Z AUTO 26007KT 10SM OVC010 04/03 A3022 RMK AO2  T00380028,,,1000.0,,,37.01,35.11,W,29.56,29.66,,Overcast
KIGQ,02/23/2018 22:15 UTC,30.23,38.48,36.68,93.17,10.36,280.0,17.27,,,,,104.0,,,,10.0,,KIGQ 232215Z AUTO 28009G15KT 10SM OVC010 04/03 A3023 RMK AO2  T00360026,,,1000.0,,,36.65,33.66,W,29.57,29.68,,Overcast
KIGQ,02/23/2018 22:35 UTC,30.23,38.12,36.68,94.49,8.05,270.0,,,,,,104.0,,,,10.0,,KIGQ 232235Z AUTO 27007KT 10SM OVC010 03/03 A3023 RMK AO2  T00340026,,,1000.0,,,36.66,34.26,W,29.57,29.69,,Overcast
KIGQ,02/23/2018 22:55 UTC,30.24,37.76,36.5,95.16,9.22,280.0,,,,,,104.0,,,,10.0,,KIGQ 232255Z AUTO 28008KT 10SM OVC010 03/03 A3024 RMK AO2  T00320025,,,1000.0,,,36.48,33.28,W,29.58,29.7,,Overcast
KIGQ,02/23/2018 23:15 UTC,30.25,37.58,35.78,93.14,11.5,260.0,,,,,,104.0,,,,10.0,,KIGQ 232315Z AUTO 26010KT 10SM OVC010 03/02 A3025 RMK AO2  T00310021,,,1000.0,,,35.75,32.13,W,29.59,29.73,,Overcast
KIGQ,02/23/2018 23:35 UTC,30.26,37.4,35.6,93.13,9.22,260.0,,,,,,104.0,,,,10.0,,KIGQ 232335Z AUTO 26008KT 10SM OVC010 03/02 A3026 RMK AO2  T00300020,,,1000.0,,,35.57,32.86,W,29.6,29.74,,Overcast
KIGQ,02/23/2018 23:55 UTC,30.26,36.86,34.88,92.45,10.36,270.0,,,,,,104.0,,,,10.0,,KIGQ 232355Z AUTO 27009KT 10SM OVC010 03/02 A3026 RMK AO2  T00270016 10055 20027,41.9,36.86,1000.0,,,34.85,31.72,W,29.6,29.76,,Overcast
KIGQ,02/24/2018 00:15 UTC,30.26,37.04,34.88,91.8,9.22,270.0,,,,,,124.0,,,,10.0,,KIGQ 240015Z AUTO 27008KT 10SM OVC012 03/02 A3026 RMK AO2  T00280016,,,1200.0,,,34.85,32.43,W,29.6,29.76,,Overcast
KIGQ,02/24/2018 00:35 UTC,30.26,37.04,34.7,91.14,4.61,280.0,,,,,,124.0,,,,10.0,,KIGQ 240035Z AUTO 28004KT 10SM OVC012 03/02 A3026 RMK AO2  T00280015,,,1200.0,,,34.66,,W,29.6,29.76,,Overcast
KIGQ,02/24/2018 00:55 UTC,30.27,37.04,34.7,91.14,6.91,270.0,,,,,,144.0,,,,10.0,,KIGQ 240055Z AUTO 27006KT 10SM OVC014 03/02 A3027 RMK AO2  T00280015,,,1400.0,,,34.66,,W,29.61,29.77,,Overcast
KIGQ,02/24/2018 01:15 UTC,30.26,37.4,34.34,88.58,0.0,0.0,,,,,,164.0,,,,10.0,,KIGQ 240115Z AUTO 00000KT 10SM OVC016 03/01 A3026 RMK AO2  T00300013,,,1600.0,,,34.29,,N,29.6,29.76,,Overcast
KIGQ,02/24/2018 01:35 UTC,30.26,37.22,34.7,90.5,0.0,0.0,,,,,,164.0,,,,10.0,,KIGQ 240135Z AUTO 00000KT 10SM OVC016 03/02 A3026 RMK AO2  T00290015,,,1600.0,,,34.66,,N,29.6,29.76,,Overcast
KIGQ,02/24/2018 01:55 UTC,30.26,37.22,34.7,90.5,3.44,250.0,,,,,,164.0,,,,10.0,,KIGQ 240155Z AUTO 25003KT 10SM OVC016 03/02 A3026 RMK AO2  T00290015,,,1600.0,,,34.66,,WSW,29.6,29.76,,Overcast
KIGQ,02/24/2018 02:15 UTC,30.26,37.04,34.7,91.14,0.0,0.0,,,,,,184.0,,,,10.0,,KIGQ 240215Z AUTO 00000KT 10SM OVC018 03/02 A3026 RMK AO2  T00280015,,,1800.0,,,34.66,,N,29.6,29.76,,Overcast
KIGQ,02/24/2018 02:35 UTC,30.26,36.5,34.16,91.12,0.0,0.0,,,,,,184.0,,,,10.0,,KIGQ 240235Z AUTO 00000KT 10SM OVC018 03/01 A3026 RMK AO2  T00250012,,,1800.0,,,34.12,,N,29.6,29.77,,Overcast
KIGQ,02/24/2018 02:55 UTC,30.27,36.5,34.7,93.1,0.0,0.0,,,,,,184.0,,,,10.0,,KIGQ 240255Z AUTO 00000KT 10SM OVC018 03/02 A3027 RMK AO2  T00250015,,,1800.0,,,34.67,,N,29.61,29.78,,Overcast
KIGQ,02/24/2018 03:15 UTC,30.27,36.5,34.7,93.1,0.0,0.0,,,,,,184.0,,,,10.0,,KIGQ 240315Z AUTO 00000KT 10SM OVC018 03/02 A3027 RMK AO2  T00250015,,,1800.0,,,34.67,,N,29.61,29.78,,Overcast
KIGQ,02/24/2018 03:35 UTC,30.27,36.5,34.7,93.1,0.0,0.0,,,,,,184.0,,,,10.0,,KIGQ 240335Z AUTO 00000KT 10SM OVC018 03/02 A3027 RMK AO2  T00250015,,,1800.0,,,34.67,,N,29.61,29.78,,Overcast
KIGQ,02/24/2018 03:55 UTC,30.27,35.6,34.34,95.11,0.0,0.0,,,,,,204.0,,,,10.0,,KIGQ 240355Z AUTO 00000KT 10SM OVC020 02/01 A3027 RMK AO2  T00200013,,,2000.0,,,34.32,,N,29.61,29.79,,Overcast
KIGQ,02/24/2018 04:15 UTC,30.27,35.24,34.7,97.87,0.0,0.0,,,,,,204.0,,,,10.0,,KIGQ 240415Z AUTO 00000KT 10SM OVC020 02/02 A3027 RMK AO2  T00180015,,,2000.0,,,34.69,,N,29.61,29.78,,Overcast
KIGQ,02/24/2018 04:35 UTC,30.27,35.6,34.7,96.48,0.0,0.0,,,,,,204.0,,,,10.0,,KIGQ 240435Z AUTO 00000KT 10SM OVC020 02/02 A3027 RMK AO2  T00200015,,,2000.0,,,34.68,,N,29.61,29.78,,Overcast
KIGQ,02/24/2018 04:55 UTC,30.26,35.78,34.7,95.8,0.0,0.0,,,,,,204.0,,,,10.0,,KIGQ 240455Z AUTO 00000KT 10SM OVC020 02/02 A3026 RMK AO2  T00210015,,,2000.0,,,34.68,,N,29.6,29.77,,Overcast
KIGQ,02/24/2018 05:15 UTC,30.26,35.78,34.7,95.8,4.61,310.0,,,,,,204.0,,,,10.0,,KIGQ 240515Z AUTO 31004KT 10SM OVC020 02/02 A3026 RMK AO2  T00210015,,,2000.0,,,34.68,,NW,29.6,29.77,,Overcast
KIGQ,02/24/2018 05:35 UTC,30.26,35.96,33.44,90.44,4.61,320.0,,,,,,204.0,,,,10.0,,KIGQ 240535Z AUTO 32004KT 10SM OVC020 02/01 A3026 RMK AO2  T00220008,,,2000.0,,,33.4,,NW,29.6,29.79,,Overcast
KIGQ,02/24/2018 05:55 UTC,30.25,35.6,33.08,90.43,0.0,0.0,,,,,,184.0,,,,10.0,,KIGQ 240555Z AUTO 00000KT 10SM OVC018 02/01 A3025 RMK AO2  T00200006 10030 20017 400700017,37.4,35.06,1800.0,44.6,35.06,33.04,,N,29.59,29.79,,Overcast
KIGQ,02/24/2018 06:15 UTC,30.25,35.6,33.26,91.08,0.0,0.0,,,,,,184.0,,,,10.0,,KIGQ 240615Z AUTO 00000KT 10SM OVC018 02/01 A3025 RMK AO2  T00200007,,,1800.0,,,33.22,,N,29.59,29.79,,Overcast
KIGQ,02/24/2018 06:35 UTC,30.24,35.78,33.8,92.41,0.0,0.0,,,,,,184.0,,,,10.0,,KIGQ 240635Z AUTO 00000KT 10SM OVC018 02/01 A3024 RMK AO2  T00210010,,,1800.0,,,33.77,,N,29.58,29.77,,Overcast
KIGQ,02/24/2018 06:55 UTC,30.22,36.32,33.8,90.46,5.75,20.0,,,,,,184.0,,,,10.0,,KIGQ 240655Z AUTO 02005KT 10SM OVC018 02/01 A3022 RMK AO2  T00240010,,,1800.0,,,33.76,,NNE,29.56,29.74,,Overcast
KIGQ,02/24/2018 07:15 UTC,30.23,35.6,32.9,89.78,6.91,30.0,,,,,,184.0,,,,10.0,,KIGQ 240715Z AUTO 03006KT 10SM OVC018 02/01 A3023 RMK AO2  T00200005,,,1800.0,,,32.86,,NNE,29.57,29.77,,Overcast
KIGQ,02/24/2018 07:35 UTC,30.24,35.6,32.0,86.58,5.75,20.0,,,,,,184.0,,,,10.0,,KIGQ 240735Z AUTO 02005KT 10SM OVC018 02/00 A3024 RMK AO2  T00200000,,,1800.0,,,31.94,,NNE,29.58,29.8,,Overcast
KIGQ,02/24/2018 07:55 UTC,30.23,35.06,32.18,89.1,4.61,20.0,,,,,,184.0,,,,10.0,,KIGQ 240755Z AUTO 02004KT 10SM OVC018 02/00 A3023 RMK AO2  T00170001,,,1800.0,,,32.13,,NNE,29.57,29.79,,Overcast
KIGQ,02/24/2018 08:15 UTC,30.23,35.06,32.0,88.46,3.44,20.0,,,,,,184.0,,,,10.0,,KIGQ 240815Z AUTO 02003KT 10SM OVC018 02/00 A3023 RMK AO2  T00170000,,,1800.0,,,31.95,,NNE,29.57,29.79,,Overcast
KIGQ,02/24/2018 08:35 UTC,30.23,35.06,32.0,88.46,5.75,40.0,,,,,,184.0,,,,10.0,,KIGQ 240835Z AUTO 04005KT 10SM OVC018 02/00 A3023 RMK AO2  T00170000,,,1800.0,,,31.95,,NE,29.57,29.79,,Overcast
KIGQ,02/24/2018 08:55 UTC,30.23,34.7,32.0,89.74,6.91,40.0,,,,,,184.0,,,,10.0,,KIGQ 240855Z AUTO 04006KT 10SM OVC018 02/00 A3023 RMK AO2  T00150000,,,1800.0,,,31.96,,NE,29.57,29.79,,Overcast
KIGQ,02/24/2018 09:15 UTC,30.23,34.7,32.0,89.74,3.44,50.0,,,,,,184.0,,,,7.0,,KIGQ 240915Z AUTO 05003KT 7SM OVC018 02/00 A3023 RMK AO2  T00150000,,,1800.0,,,31.96,,NE,29.57,29.79,,Overcast
KIGQ,02/24/2018 09:35 UTC,30.22,34.7,32.0,89.74,6.91,50.0,,,,,,204.0,,,,10.0,,KIGQ 240935Z AUTO 05006KT 10SM OVC020 02/00 A3022 RMK AO2  T00150000,,,2000.0,,,31.96,,NE,29.56,29.78,,Overcast
KIGQ,02/24/2018 09:55 UTC,30.21,33.98,32.0,92.35,8.05,40.0,,,,,,204.0,,,,10.0,,KIGQ 240955Z AUTO 04007KT 10SM OVC020 01/00 A3021 RMK AO2  T00110000,,,2000.0,,,31.97,29.4,NE,29.55,29.78,,Overcast
KIGQ,02/24/2018 10:15 UTC,30.2,33.8,32.18,93.7,11.5,40.0,,,,,,204.0,,,,7.0,,KIGQ 241015Z AUTO 04010KT 7SM OVC020 01/00 A3020 RMK AO2  T00100001,,,2000.0,,,32.15,27.57,NE,29.54,29.76,,Overcast
KIGQ,02/24/2018 10:35 UTC,30.19,33.8,32.54,95.07,6.91,50.0,,,,,,204.0,,,,7.0,,KIGQ 241035Z AUTO 05006KT 7SM OVC020 01/00 A3019 RMK AO2  T00100003,,,2000.0,,,32.52,,NE,29.53,29.75,,Overcast
KIGQ,02/24/2018 10:55 UTC,30.19,34.16,32.9,95.08,8.05,60.0,,,,,,92.0,204.0,,,7.0,,KIGQ 241055Z AUTO 06007KT 7SM SCT009 OVC020 01/01 A3019 RMK AO2  T00120005,,,2000.0,,,32.88,29.61,ENE,29.53,29.74,,Overcast
KIGQ,02/24/2018 11:15 UTC,30.2,34.34,33.44,96.46,10.36,40.0,,,,,,93.0,204.0,,,7.0,,KIGQ 241115Z AUTO 04009KT 7SM BKN009 OVC020 01/01 A3020 RMK AO2  T00130008,,,900.0,,,33.42,28.7,NE,29.54,29.74,,Overcast
KIGQ,02/24/2018 11:35 UTC,30.18,33.98,32.36,93.7,14.97,60.0,,,,,,93.0,164.0,,,10.0,,KIGQ 241135Z AUTO 06013KT 10SM BKN009 OVC016 01/00 A3018 RMK AO2  T00110002,,,900.0,,,32.33,26.54,ENE,29.52,29.74,,Overcast
KIGQ,02/24/2018 11:55 UTC,30.18,33.8,31.82,92.35,8.05,60.0,17.27,,954.0,,,122.0,192.0,,,10.0,,KIGQ 241155Z AUTO 06007G15KT 10SM SCT012 SCT019 OVC095 01/00 A3018 RMK AO2 T00101001 10025 20010,36.5,33.8,9500.0,,,31.79,29.19,ENE,29.52,29.75,,Overcast
KIGQ,02/24/2018 12:15 UTC,30.17,33.8,31.82,92.35,6.91,50.0,,,,,,954.0,,,,10.0,,KIGQ 241215Z AUTO 05006KT 10SM OVC095 01/00 A3017 RMK AO2  T00101001,,,9500.0,,,31.79,,NE,29.51,29.74,,Overcast
KIGQ,02/24/2018 12:35 UTC,30.17,33.8,32.0,93.02,4.61,40.0,,,,,,954.0,,,,10.0,,KIGQ 241235Z AUTO 04004KT 10SM OVC095 01/00 A3017 RMK AO2  T00100000,,,9500.0,,,31.97,,NE,29.51,29.74,,Overcast
KIGQ,02/24/2018 12:55 UTC,30.18,34.16,32.0,91.69,6.91,60.0,,,,,,954.0,,,,10.0,,KIGQ 241255Z AUTO 06006KT 10SM OVC095 01/00 A3018 RMK AO2  T00120000,,,9500.0,,,31.96,,ENE,29.52,29.74,,Overcast
KIGQ,02/24/2018 13:15 UTC,30.16,34.7,32.36,91.05,10.36,60.0,,,,,,954.0,,,,10.0,,KIGQ 241315Z AUTO 06009KT 10SM OVC095 02/00 A3016 RMK AO2  T00150002,,,9500.0,,,32.32,29.13,ENE,29.5,29.71,,Overcast
KIGQ,02/24/2018 13:35 UTC,30.17,34.7,32.54,91.71,8.05,60.0,,,,,,954.0,,,,10.0,,KIGQ 241335Z AUTO 06007KT 10SM OVC095 02/00 A3017 RMK AO2  T00150003,,,9500.0,,,32.5,30.25,ENE,29.51,29.72,,Overcast
KIGQ,02/24/2018 13:55 UTC,30.17,34.88,32.72,91.72,5.75,70.0,,,,,,954.0,,,,10.0,,KIGQ 241355Z AUTO 07005KT 10SM OVC095 02/00 A3017 RMK AO2  T00160004,,,9500.0,,,32.69,,ENE,29.51,29.72,,Overcast
KIGQ,02/24/2018 14:15 UTC,30.16,35.24,32.36,89.11,9.22,70.0,,,,,,954.0,,,,10.0,,KIGQ 241415Z AUTO 07008KT 10SM OVC095 02/00 A3016 RMK AO2  T00180002,,,9500.0,,,32.31,30.29,ENE,29.5,29.71,,Overcast
KIGQ,02/24/2018 14:35 UTC,30.17,35.6,32.9,89.78,6.91,60.0,,,,,,854.0,,,,10.0,,KIGQ 241435Z AUTO 06006KT 10SM OVC085 02/01 A3017 RMK AO2  T00200005,,,8500.0,,,32.86,,ENE,29.51,29.71,,Overcast
KIGQ,02/24/2018 14:55 UTC,30.16,36.14,33.44,89.8,6.91,90.0,,,,,,132.0,954.0,,,10.0,,KIGQ 241455Z AUTO 09006KT 10SM SCT013 OVC095 02/01 A3016 RMK AO2  T00230008,,,9500.0,,,33.4,,E,29.5,29.69,,Overcast
KIGQ,02/24/2018 15:15 UTC,30.15,35.96,33.26,89.79,6.91,70.0,,,,,,153.0,854.0,,,10.0,,KIGQ 241515Z AUTO 07006KT 10SM BKN015 OVC085 02/01 A3015 RMK AO2  T00220007,,,1500.0,,,33.22,,ENE,29.49,29.68,,Overcast
KIGQ,02/24/2018 15:35 UTC,30.14,36.86,34.16,89.83,6.91,90.0,,,,,,153.0,804.0,,,10.0,,KIGQ 241535Z AUTO 09006KT 10SM BKN015 OVC080 03/01 A3014 RMK AO2  T00270012,,,1500.0,,,34.12,,E,29.48,29.65,,Overcast
KIGQ,02/24/2018 15:55 UTC,30.13,38.3,34.7,86.74,10.36,90.0,,,,,,154.0,,,,10.0,,KIGQ 241555Z AUTO 09009KT 10SM OVC015 04/02 A3013 RMK AO2  T00350015,,,1500.0,,,34.65,33.44,E,29.47,29.62,,Overcast
KIGQ,02/24/2018 16:15 UTC,30.12,39.2,35.24,85.56,11.5,90.0,,,,,,174.0,,,,10.0,,KIGQ 241615Z AUTO 09010KT 10SM OVC017 04/02 A3012 RMK AO2  T00400018,,,1700.0,,,35.18,34.09,E,29.47,29.6,,Overcast
KIGQ,02/24/2018 16:35 UTC,30.11,39.74,35.78,85.59,9.22,100.0,,,,,,174.0,,,,10.0,,KIGQ 241635Z AUTO 10008KT 10SM OVC017 04/02 A3011 RMK AO2  T00430021,,,1700.0,,,35.72,35.63,E,29.46,29.58,,Overcast
KIGQ,02/24/2018 16:55 UTC,30.09,40.46,36.68,86.24,8.05,110.0,17.27,,,,,174.0,,,,10.0,,KIGQ 241655Z AUTO 11007G15KT 10SM OVC017 05/03 A3009 RMK AO2  T00470026,,,1700.0,,,36.62,37.01,ESE,29.44,29.54,,Overcast
KIGQ,02/24/2018 17:15 UTC,30.07,41.36,37.58,86.3,8.05,100.0,,,,,,174.0,,,,10.0,,KIGQ 241715Z AUTO 10007KT 10SM OVC017 05/03 A3007 RMK AO2  T00520031,,,1700.0,,,37.53,38.07,E,29.42,29.49,,Overcast
KIGQ,02/24/2018 17:35 UTC,30.05,42.08,38.12,85.73,11.5,90.0,,,,,,174.0,,,,10.0,,KIGQ 241735Z AUTO 09010KT 10SM OVC017 06/03 A3005 RMK AO2  T00560034,,,1700.0,,,38.06,37.57,E,29.4,29.45,,Overcast
KIGQ,02/24/2018 17:55 UTC,30.02,43.16,38.84,84.6,11.5,110.0,,,,,,174.0,,,,10.0,,KIGQ 241755Z AUTO 11010KT 10SM OVC017 06/04 A3002 RMK AO2  T00620038 10062 20010,43.16,33.8,1700.0,,,38.78,38.87,ESE,29.37,29.4,,Overcast
KIGQ,02/24/2018 18:15 UTC,30.01,43.52,39.38,85.22,8.05,100.0,,,,,,174.0,,,,10.0,,KIGQ 241815Z AUTO 10007KT 10SM OVC017 06/04 A3001 RMK AO2  T00640041,,,1700.0,,,39.32,40.61,E,29.36,29.37,,Overcast
KIGQ,02/24/2018 18:35 UTC,30.01,42.44,38.84,86.97,9.22,100.0,,,,,,174.0,,,,10.0,,KIGQ 241835Z AUTO 10008KT 10SM OVC017 06/04 A3001 RMK AO2  T00580038,,,1700.0,,,38.79,38.84,E,29.36,29.39,,Overcast
KIGQ,02/24/2018 18:55 UTC,29.99,42.98,39.74,88.23,8.05,100.0,,,,,,154.0,,,,10.0,,KIGQ 241855Z AUTO 10007KT 10SM OVC015 06/04 A2999 RMK AO2  T00610043,,,1500.0,,,39.7,39.97,E,29.34,29.35,,Overcast
KIGQ,02/24/2018 19:15 UTC,29.98,42.08,39.02,88.81,10.36,110.0,,,,,,154.0,,,,10.0,,KIGQ 241915Z AUTO 11009KT 10SM OVC015 06/04 A2998 RMK AO2  T00560039,,,1500.0,,,38.98,37.97,ESE,29.33,29.36,,Overcast
KIGQ,02/24/2018 19:35 UTC,29.98,42.08,39.2,89.43,6.91,90.0,,,,,,154.0,,,,10.0,,KIGQ 241935Z AUTO 09006KT 10SM OVC015 06/04 A2998 RMK AO2  T00560040,,,1500.0,,,39.16,,E,29.33,29.36,,Overcast
KIGQ,02/24/2018 19:55 UTC,29.96,41.54,38.84,90.04,8.05,90.0,,,,,,134.0,,,,10.0,,KIGQ 241955Z AUTO 09007KT 10SM OVC013 05/04 A2996 RMK AO2  T00530038,,,1300.0,,,38.8,38.28,E,29.31,29.35,,Overcast
KIGQ,02/24/2018 20:15 UTC,29.94,41.9,39.56,91.33,8.05,100.0,,,,,,134.0,,,,10.0,,KIGQ 242015Z AUTO 10007KT 10SM OVC013 06/04 A2994 RMK AO2  T00550042,,,1300.0,,,39.53,38.7,E,29.29,29.31,,Overcast
KIGQ,02/24/2018 20:35 UTC,29.91,42.44,39.56,89.45,10.36,100.0,,,,,,134.0,,,,10.0,,KIGQ 242035Z AUTO 10009KT 10SM OVC013 06/04 A2991 RMK AO2  T00580042,,,1300.0,,,39.52,38.4,E,29.26,29.28,,Overcast
KIGQ,02/24/2018 20:55 UTC,29.91,42.98,40.1,89.47,10.36,80.0,,,,,,134.0,,,,10.0,,KIGQ 242055Z AUTO 08009KT 10SM OVC013 06/05 A2991 RMK AO2  T00610045,,,1300.0,,,40.06,39.05,E,29.26,29.26,,Overcast
KIGQ,02/24/2018 21:15 UTC,29.91,42.8,40.28,90.73,10.36,100.0,,,,,,134.0,,,,10.0,,KIGQ 242115Z AUTO 10009KT 10SM OVC013 06/05 A2991 RMK AO2  T00600046,,,1300.0,,,40.25,38.83,E,29.26,29.26,,Overcast
KIGQ,02/24/2018 21:35 UTC,29.89,42.98,40.64,91.37,9.22,110.0,,,,,,134.0,,,,10.0,,KIGQ 242135Z AUTO 11008KT 10SM OVC013 06/05 A2989 RMK AO2  T00610048,,,1300.0,,,40.61,39.48,ESE,29.24,29.23,,Overcast
KIGQ,02/24/2018 21:55 UTC,29.88,43.16,41.0,92.02,10.36,110.0,,,,,,134.0,,,,10.0,,KIGQ 242155Z AUTO 11009KT 10SM OVC013 06/05 A2988 RMK AO2  T00620050,,,1300.0,,,40.97,39.26,ESE,29.23,29.21,,Overcast
KIGQ,02/24/2018 22:15 UTC,29.88,43.34,41.72,93.96,10.36,120.0,,1.0,,,,134.0,,,,7.0,,KIGQ 242215Z AUTO 12009KT 7SM RA OVC013 06/05 A2988 RMK AO2  T00630054,,,1300.0,,,41.7,39.48,ESE,29.23,29.19,,Rain
KIGQ,02/24/2018 22:35 UTC,29.86,43.16,42.44,97.27,9.22,110.0,,2.0,,,,114.0,,,,5.0,,KIGQ 242235Z AUTO 11008KT 5SM DZ OVC011 06/06 A2986 RMK AO2  T00620058,,,1100.0,,,42.43,39.69,ESE,29.21,29.15,,Drizzle
KIGQ,02/24/2018 22:55 UTC,29.84,43.16,43.16,100.0,10.36,110.0,,13.0,,,,94.0,,,,4.0,,KIGQ 242255Z AUTO 11009KT 4SM -RA OVC009 06/06 A2984 RMK AO2  T00620062,,,900.0,,,43.16,39.26,ESE,29.19,29.11,,Light Rain
KIGQ,02/24/2018 23:15 UTC,29.83,43.34,43.16,99.31,10.36,120.0,16.11,,,,,94.0,,,,7.0,,KIGQ 242315Z AUTO 12009G14KT 7SM OVC009 06/06 A2983 RMK AO2  T00630062,,,900.0,,,43.16,39.48,ESE,29.18,29.1,,Overcast
KIGQ,02/24/2018 23:35 UTC,29.8,43.7,43.52,99.31,13.8,120.0,18.41,,,,,94.0,,,,7.0,,KIGQ 242335Z AUTO 12012G16KT 7SM OVC009 07/06 A2980 RMK AO2  T00650064,,,900.0,,,43.52,38.83,ESE,29.15,29.06,,Overcast
KIGQ,02/24/2018 23:55 UTC,29.79,43.7,43.7,100.0,12.66,120.0,19.57,31.0,,,,94.0,,,,4.0,,KIGQ 242355Z AUTO 12011G17KT 4SM BR OVC009 07/07 A2979 RMK AO2  T00650065 10065 20053,43.7,41.54,900.0,,,43.7,39.16,ESE,29.14,29.04,,Mist
KIGQ,02/25/2018 00:15 UTC,29.78,43.88,43.88,100.0,14.97,130.0,19.57,31.0,,,,74.0,,,,4.0,,KIGQ 250015Z AUTO 13013G17KT 4SM BR OVC007 07/07 A2978 RMK AO2  T00660066,,,700.0,,,43.88,38.74,SE,29.13,29.03,,Mist
KIGQ,02/25/2018 00:35 UTC,29.75,44.06,44.06,100.0,12.66,130.0,18.41,,,,,74.0,,,,10.0,,KIGQ 250035Z AUTO 13011G16KT 10SM OVC007 07/07 A2975 RMK AO2  T00670067,,,700.0,,,44.06,39.6,SE,29.1,28.99,,Overcast
KIGQ,02/25/2018 00:55 UTC,29.72,44.06,44.06,100.0,18.41,130.0,26.46,17.0,,,,74.0,,,,10.0,,KIGQ 250055Z AUTO 13016G23KT 10SM -DZ OVC007 07/07 A2972 RMK AO2  T00670067,,,700.0,,,44.06,38.14,SE,29.07,28.96,,Light Drizzle
KIGQ,02/25/2018 01:15 UTC,29.71,44.24,44.24,100.0,16.11,130.0,23.02,,,,,74.0,,,,10.0,,KIGQ 250115Z AUTO 13014G20KT 10SM OVC007 07/07 A2971 RMK AO2  T00680068,,,700.0,,,44.24,38.9,SE,29.06,28.94,,Overcast
KIGQ,02/25/2018 01:35 UTC,29.68,44.6,44.6,100.0,16.11,130.0,23.02,,,,,74.0,,,,10.0,,KIGQ 250135Z AUTO 13014G20KT 10SM OVC007 07/07 A2968 RMK AO2  T00700070,,,700.0,,,44.6,39.34,SE,29.03,28.9,,Overcast
KIGQ,02/25/2018 01:55 UTC,29.66,44.6,44.6,100.0,13.8,130.0,24.16,17.0,,,,74.0,,,,7.0,,KIGQ 250155Z AUTO 13012G21KT 7SM -DZ OVC007 07/07 A2966 RMK AO2  T00700070,,,700.0,,,44.6,39.93,SE,29.02,28.89,,Light Drizzle
KIGQ,02/25/2018 02:15 UTC,29.63,44.6,44.6,100.0,16.11,130.0,23.02,,,,,74.0,,,,7.0,,KIGQ 250215Z AUTO 13014G20KT 7SM OVC007 07/07 A2963 RMK AO2  T00700070,,,700.0,,,44.6,39.34,SE,28.99,28.86,,Overcast
KIGQ,02/25/2018 02:35 UTC,29.61,44.6,44.6,100.0,17.27,130.0,23.02,,,,,74.0,,,,10.0,,KIGQ 250235Z AUTO 13015G20KT 10SM OVC007 07/07 A2961 RMK AO2  T00700070,,,700.0,,,44.6,39.07,SE,28.97,28.84,,Overcast
KIGQ,02/25/2018 02:55 UTC,29.59,44.96,44.96,100.0,19.57,130.0,27.63,,,,,74.0,,,,10.0,,KIGQ 250255Z AUTO 13017G24KT 10SM OVC007 07/07 A2959 RMK AO2  T00720072,,,700.0,,,44.96,39.03,SE,28.95,28.8,,Overcast
KIGQ,02/25/2018 03:15 UTC,29.58,45.5,45.5,100.0,14.97,130.0,23.02,,,,,74.0,,,,10.0,,KIGQ 250315Z AUTO 13013G20KT 10SM OVC007 08/08 A2958 RMK AO2  T00750075,,,700.0,,,45.5,,SE,28.94,28.77,,Overcast
KIGQ,02/25/2018 03:35 UTC,29.55,45.5,45.5,100.0,17.27,140.0,24.16,,,,,74.0,,,,10.0,,KIGQ 250335Z AUTO 14015G21KT 10SM OVC007 08/08 A2955 RMK AO2  T00750075,,,700.0,,,45.5,,SE,28.91,28.74,,Overcast
KIGQ,02/25/2018 03:55 UTC,29.54,45.86,45.86,100.0,17.27,140.0,24.16,,,,,74.0,,,,10.0,,KIGQ 250355Z AUTO 14015G21KT 10SM OVC007 08/08 A2954 RMK AO2  T00770077,,,700.0,,,45.86,,SE,28.9,28.72,,Overcast
KIGQ,02/25/2018 04:15 UTC,29.53,46.22,46.22,100.0,13.8,140.0,25.32,,,,,54.0,,,,10.0,,KIGQ 250415Z AUTO 14012G22KT 10SM OVC005 08/08 A2953 RMK AO2  T00790079,,,500.0,,,46.22,,SE,28.89,28.7,,Overcast
KIGQ,02/25/2018 04:35 UTC,29.51,46.4,46.4,100.0,13.8,150.0,26.46,17.0,,,,54.0,,,,7.0,,KIGQ 250435Z AUTO 15012G23KT 7SM -DZ OVC005 08/08 A2951 RMK AO2  T00800080,,,500.0,,,46.4,,SSE,28.87,28.67,,Light Drizzle
KIGQ,02/25/2018 04:55 UTC,29.49,47.3,47.3,100.0,16.11,150.0,25.32,13.0,,,,54.0,,,,7.0,,KIGQ 250455Z AUTO 15014G22KT 7SM -RA OVC005 09/09 A2949 RMK AO2  T00850085,,,500.0,,,47.3,,SSE,28.85,28.61,,Light Rain
KIGQ,02/25/2018 05:15 UTC,29.47,47.48,47.48,100.0,14.97,140.0,20.71,1.0,,,,54.0,,,,5.0,,KIGQ 250515Z AUTO 14013G18KT 5SM RA OVC005 09/09 A2947 RMK AO2  T00860086,,,500.0,,,47.48,,SE,28.83,28.58,,Rain
KIGQ,02/25/2018 05:35 UTC,29.44,47.84,47.84,100.0,18.41,140.0,23.02,13.0,,0.01,,54.0,,,,4.0,,KIGQ 250535Z AUTO 14016G20KT 4SM -RA OVC005 09/09 A2944 RMK AO2  P0001 T00880088,,,500.0,,,47.84,,SE,28.8,28.54,,Light Rain
KIGQ,02/25/2018 05:55 UTC,29.45,48.02,48.02,100.0,13.8,160.0,20.71,1.0,,0.04,,54.0,,0.04,,5.0,,KIGQ 250555Z AUTO 16012G18KT 5SM RA OVC005 09/09 A2945 RMK AO2  P0004 60004 T00890089 10089 20065 400890010,48.02,43.7,500.0,48.02,33.8,48.02,,SSE,28.81,28.54,,Rain
KIGQ,02/25/2018 06:15 UTC,29.47,48.74,48.74,100.0,13.8,190.0,20.71,1.0,,0.02,,54.0,,,,4.0,,KIGQ 250615Z AUTO 19012G18KT 4SM RA OVC005 09/09 A2947 RMK AO2  P0002 T00930093,,,500.0,,,48.74,,S,28.83,28.53,,Rain
KIGQ,02/25/2018 06:35 UTC,29.49,50.18,50.18,100.0,26.46,260.0,,,,,,,,,,,,KIGQ 250635Z AUTO 26023KT 10/10 A2949 RMK AO2 T01010101 PWINO,,,,,,50.18,,W,28.85,28.49,,
KIGQ,02/25/2018 06:55 UTC,29.52,48.2,47.3,96.68,20.71,270.0,34.52,,,,,114.0,,,,10.0,,KIGQ 250655Z AUTO 27018G30KT 10SM OVC011 09/09 A2952 RMK AO2  T00900085,,,1100.0,,,47.29,,W,28.88,28.63,,Overcast
KIGQ,02/25/2018 07:15 UTC,29.54,45.86,44.6,95.33,31.07,260.0,39.12,,,,,114.0,,,,10.0,,KIGQ 250715Z AUTO 26027G34KT 10SM OVC011 08/07 A2954 RMK AO2  T00770070,,,1100.0,,,44.58,,W,28.9,28.75,,Overcast
KIGQ,02/25/2018 07:35 UTC,29.57,43.16,42.08,95.93,31.07,260.0,40.29,,,,,114.0,,,,7.0,,KIGQ 250735Z AUTO 26027G35KT 7SM OVC011 06/06 A2957 RMK AO2  T00620056,,,1100.0,,,42.06,34.79,W,28.93,28.87,,Overcast
KIGQ,02/25/2018 07:55 UTC,29.6,40.46,39.02,94.55,33.38,270.0,44.87,,,,,114.0,,,,10.0,,KIGQ 250755Z AUTO 27029G39KT 10SM OVC011 05/04 A2960 RMK AO2  T00470039,,,1100.0,,,39.0,30.91,W,28.96,29.0,,Overcast
KIGQ,02/25/2018 08:15 UTC,29.63,39.02,37.04,92.52,27.63,260.0,41.43,,,,,134.0,,,,10.0,,KIGQ 250815Z AUTO 26024G36KT 10SM OVC013 04/03 A2963 RMK AO2  T00390028,,,1300.0,,,37.01,29.94,W,28.99,29.08,,Overcast
KIGQ,02/25/2018 08:35 UTC,29.65,36.86,34.88,92.45,26.46,260.0,40.29,,,,,134.0,,,,10.0,,KIGQ 250835Z AUTO 26023G35KT 10SM OVC013 03/02 A2965 RMK AO2  T00270016,,,1300.0,,,34.85,27.36,W,29.01,29.16,,Overcast
KIGQ,02/25/2018 08:55 UTC,29.67,36.5,32.36,84.77,21.85,270.0,43.73,,,,,132.0,214.0,,,10.0,,KIGQ 250855Z AUTO 27019G38KT 10SM SCT013 OVC021 03/00 A2967 RMK AO2 T00250002,,,2100.0,,,32.3,27.85,W,29.02,29.21,,Overcast
KIGQ,02/25/2018 09:15 UTC,29.68,36.14,32.72,87.24,25.32,260.0,34.52,,,,,193.0,254.0,,,10.0,,KIGQ 250915Z AUTO 26022G30KT 10SM BKN019 OVC025 02/00 A2968 RMK AO2 T00230004,,,1900.0,,,32.67,26.65,W,29.03,29.22,,Overcast
KIGQ,02/25/2018 09:35 UTC,29.7,35.6,32.0,86.58,25.32,250.0,34.52,,,,,174.0,,,,10.0,,KIGQ 250935Z AUTO 25022G30KT 10SM OVC017 02/00 A2970 RMK AO2  T00200000,,,1700.0,,,31.94,25.96,WSW,29.05,29.26,,Overcast
KIGQ,02/25/2018 09:55 UTC,29.71,34.88,31.46,87.17,25.32,260.0,33.38,,,,,194.0,,,,10.0,,KIGQ 250955Z AUTO 26022G29KT 10SM OVC019 02/00 A2971 RMK AO2  T00161003,,,1900.0,,,31.41,25.03,W,29.06,29.28,,Overcast
KIGQ,02/25/2018 10:15 UTC,29.73,34.52,30.38,84.64,27.63,270.0,42.57,,,,,194.0,,,,10.0,,KIGQ 251015Z AUTO 27024G37KT 10SM OVC019 01/M01 A2973 RMK AO2  T00141009,,,1900.0,,,30.31,24.11,W,29.08,29.32,,Overcast
KIGQ,02/25/2018 10:35 UTC,29.75,34.34,30.02,84.01,31.07,260.0,41.43,,,,,214.0,,,,10.0,,KIGQ 251035Z AUTO 26027G36KT 10SM OVC021 01/M01 A2975 RMK AO2  T00131011,,,2100.0,,,29.95,23.25,W,29.1,29.34,,Overcast
KIGQ,02/25/2018 10:55 UTC,29.76,33.98,29.48,83.37,20.71,270.0,37.98,,,,,234.0,,,,10.0,,KIGQ 251055Z AUTO 27018G33KT 10SM OVC023 01/M01 A2976 RMK AO2  T00111014,,,2300.0,,,29.41,24.92,W,29.11,29.36,,Overcast
KIGQ,02/25/2018 11:15 UTC,29.78,33.98,29.84,84.61,21.85,260.0,39.12,,,,,214.0,,,,10.0,,KIGQ 251115Z AUTO 26019G34KT 10SM OVC021 01/M01 A2978 RMK AO2  T00111012,,,2100.0,,,29.78,24.65,W,29.13,29.38,,Overcast
KIGQ,02/25/2018 11:35 UTC,29.79,33.8,29.3,83.36,26.46,260.0,35.68,,,,,214.0,,,,10.0,,KIGQ 251135Z AUTO 26023G31KT 10SM OVC021 01/M01 A2979 RMK AO2  T00101015,,,2100.0,,,29.23,23.41,W,29.14,29.4,,Overcast
KIGQ,02/25/2018 11:55 UTC,29.8,33.8,29.66,84.59,18.41,260.0,27.63,,,,,214.0,,,,10.0,,KIGQ 251155Z AUTO 26016G24KT 10SM OVC021 01/M01 A2980 RMK AO2  7//// T00101013 10101 20010,50.18,33.8,2100.0,,,29.59,25.29,W,29.15,29.4,,Overcast
KIGQ,02/25/2018 12:15 UTC,29.81,33.8,29.3,83.36,19.57,260.0,26.46,,,,,214.0,,,,10.0,,KIGQ 251215Z AUTO 26017G23KT 10SM OVC021 01/M01 A2981 RMK AO2  T00101015,,,2100.0,,,29.23,24.98,W,29.16,29.42,,Overcast
KIGQ,02/25/2018 12:35 UTC,29.82,33.8,29.12,82.75,18.41,250.0,31.07,,,,,234.0,,,,10.0,,KIGQ 251235Z AUTO 25016G27KT 10SM OVC023 01/M02 A2982 RMK AO2  T00101016,,,2300.0,,,29.05,25.29,WSW,29.17,29.43,,Overcast
KIGQ,02/25/2018 12:55 UTC,29.83,33.8,28.94,82.14,18.41,260.0,34.52,,,,,254.0,,,,10.0,,KIGQ 251255Z AUTO 26016G30KT 10SM OVC025 01/M02 A2983 RMK AO2  T00101017,,,2500.0,,,28.86,25.29,W,29.18,29.45,,Overcast
KIGQ,02/25/2018 13:15 UTC,29.84,33.98,29.66,83.99,16.11,250.0,,,,,,254.0,,,,10.0,,KIGQ 251315Z AUTO 25014KT 10SM OVC025 01/M01 A2984 RMK AO2  T00111013,,,2500.0,,,29.59,26.18,WSW,29.19,29.44,,Overcast
KIGQ,02/25/2018 13:35 UTC,29.86,34.16,30.2,85.24,11.5,250.0,21.85,,,,,233.0,304.0,,,10.0,,KIGQ 251335Z AUTO 25010G19KT 10SM BKN023 OVC030 01/M01 A2986 RMK AO2 T00121010,,,2300.0,,,30.14,28.01,WSW,29.21,29.46,,Overcast
KIGQ,02/25/2018 13:55 UTC,29.86,34.34,30.2,84.63,16.11,240.0,21.85,,,,,233.0,304.0,,,10.0,,KIGQ 251355Z AUTO 24014G19KT 10SM BKN023 OVC030 01/M01 A2986 RMK AO2 T00131010,,,2300.0,,,30.13,26.62,WSW,29.21,29.45,,Overcast
KIGQ,02/25/2018 14:15 UTC,29.87,34.7,30.2,83.42,16.11,260.0,23.02,,344.0,,,233.0,283.0,,,10.0,,KIGQ 251415Z AUTO 26014G20KT 240V340 10SM BKN023 BKN028 OVC034  02/M01 A2987 RMK AO2 T00151010,,,2300.0,,,30.13,27.07,W,29.22,29.46,,Overcast
KIGQ,02/25/2018 14:35 UTC,29.88,35.06,30.92,84.68,17.27,250.0,23.02,,,,,233.0,344.0,,,10.0,,KIGQ 251435Z AUTO 25015G20KT 10SM BKN023 OVC034 02/M01 A2988 RMK AO2 T00171006,,,2300.0,,,30.86,27.18,WSW,29.23,29.46,,Overcast
KIGQ,02/25/2018 14:55 UTC,29.89,35.42,30.38,81.66,20.71,240.0,25.32,,,,,234.0,,,,10.0,,KIGQ 251455Z AUTO 24018G22KT 10SM OVC023 02/M01 A2989 RMK AO2  T00191009,,,2300.0,,,30.3,26.74,WSW,29.24,29.48,,Overcast
KIGQ,02/25/2018 15:15 UTC,29.89,35.96,30.02,78.77,17.27,250.0,26.46,,,,,254.0,,,,10.0,,KIGQ 251515Z AUTO 25015G23KT 10SM OVC025 02/M01 A2989 RMK AO2  T00221011,,,2500.0,,,29.93,28.3,WSW,29.24,29.48,,Overcast
KIGQ,02/25/2018 15:35 UTC,29.9,36.14,29.66,77.07,23.02,240.0,28.77,,,,,274.0,,,,10.0,,KIGQ 251535Z AUTO 24020G25KT 10SM OVC027 02/M01 A2990 RMK AO2  T00231013,,,2700.0,,,29.56,27.13,WSW,29.25,29.49,,Overcast
KIGQ,02/25/2018 15:55 UTC,29.91,36.86,30.02,76.01,19.57,250.0,28.77,,,,,273.0,353.0,,,10.0,,KIGQ 251555Z AUTO 25017G25KT 10SM BKN027 BKN035 03/M01 A2991 RMK AO2 T00271011,,,2700.0,,,29.92,28.83,WSW,29.26,29.49,,Mostly Cloudy
KIGQ,02/25/2018 16:15 UTC,29.92,38.48,30.92,73.98,25.32,250.0,32.21,,,,,293.0,,,,10.0,,KIGQ 251615Z AUTO 25022G28KT 10SM BKN029 04/M01 A2992 RMK AO2  T00361006,,,2900.0,,,30.81,29.66,WSW,29.27,29.48,,Mostly Cloudy
KIGQ,02/25/2018 16:35 UTC,29.93,38.48,30.38,72.38,21.85,240.0,27.63,,,,,292.0,362.0,,,10.0,,KIGQ 251635Z AUTO 24019G24KT 10SM SCT029 SCT036 04/M01 A2993 RMK AO2 T00361009,,,,,,30.27,30.36,WSW,29.28,29.5,,Partly Cloudy
KIGQ,02/25/2018 16:55 UTC,29.94,39.2,30.02,69.34,23.02,230.0,28.77,,,,,312.0,382.0,,,10.0,,KIGQ 251655Z AUTO 23020G25KT 10SM SCT031 SCT038 04/M01 A2994 RMK AO2 T00401011,,,,,,29.89,31.03,SW,29.29,29.51,,Partly Cloudy
KIGQ,02/25/2018 17:15 UTC,29.95,39.56,28.04,63.05,23.02,240.0,34.52,,,,,312.0,,,,10.0,,KIGQ 251715Z AUTO 24020G30KT 10SM SCT031 04/M02 A2995 RMK AO2  T00421022,,,,,,27.88,31.49,WSW,29.3,29.55,,Partly Cloudy
KIGQ,02/25/2018 17:35 UTC,29.96,39.92,26.42,58.16,23.02,260.0,31.07,,,,,1.0,,,,10.0,,KIGQ 251735Z AUTO 26020G27KT 10SM CLR 04/M03 A2996 RMK AO2  T00441031,,,,,,26.25,31.95,W,29.31,29.58,,Clear
KIGQ,02/25/2018 17:55 UTC,29.96,40.64,27.86,60.02,17.27,240.0,28.77,,,,,1.0,,,,10.0,,KIGQ 251755Z AUTO 24015G25KT 10SM CLR 05/M02 A2996 RMK AO2  T00481023 10048 20010,40.64,33.8,,,,27.7,34.14,WSW,29.31,29.55,,Clear
KIGQ,02/25/2018 18:15 UTC,29.96,41.54,29.3,61.49,16.11,230.0,24.16,,,,,1.0,,,,10.0,,KIGQ 251815Z AUTO 23014G21KT 10SM CLR 05/M01 A2996 RMK AO2  T00531015,,,,,,29.14,35.55,SW,29.31,29.53,,Clear
KIGQ,02/25/2018 18:35 UTC,29.97,42.08,31.1,64.8,18.41,240.0,24.16,,,,,382.0,,,,10.0,,KIGQ 251835Z AUTO 24016G21KT 10SM SCT038 06/00 A2997 RMK AO2  T00561005,,,,,,30.96,35.66,WSW,29.32,29.5,,Partly Cloudy
KIGQ,02/25/2018 18:55 UTC,29.97,41.9,29.66,61.54,16.11,240.0,25.32,,,,,402.0,,,,10.0,,KIGQ 251855Z AUTO 24014G22KT 10SM SCT040 06/M01 A2997 RMK AO2  T00551013,,,,,,29.51,35.99,WSW,29.32,29.53,,Partly Cloudy
KIGQ,02/25/2018 19:15 UTC,29.97,42.08,29.84,61.56,19.57,230.0,23.02,,,,,402.0,,,,10.0,,KIGQ 251915Z AUTO 23017G20KT 10SM SCT040 06/M01 A2997 RMK AO2  T00561012,,,,,,29.68,35.41,SW,29.32,29.52,,Partly Cloudy
KIGQ,02/25/2018 19:35 UTC,29.97,42.8,29.12,58.15,21.85,230.0,27.63,,,,,422.0,,,,10.0,,KIGQ 251935Z AUTO 23019G24KT 10SM SCT042 06/M02 A2997 RMK AO2  T00601016,,,,,,28.95,35.85,SW,29.32,29.53,,Partly Cloudy
KIGQ,02/25/2018 19:55 UTC,29.97,43.52,28.58,55.33,17.27,250.0,28.77,,,,,482.0,,,,10.0,,KIGQ 251955Z AUTO 25015G25KT 10SM SCT048 06/M02 A2997 RMK AO2  T00641019,,,,,,28.4,37.73,WSW,29.32,29.53,,Partly Cloudy
KIGQ,02/25/2018 20:15 UTC,29.97,44.42,28.76,53.85,17.27,240.0,21.85,,,,,482.0,,,,10.0,,KIGQ 252015Z AUTO 24015G19KT 10SM SCT048 07/M02 A2997 RMK AO2  T00691018,,,,,,28.58,38.85,WSW,29.32,29.53,,Partly Cloudy
KIGQ,02/25/2018 20:35 UTC,29.99,44.06,29.84,57.06,20.71,240.0,25.32,,,,,492.0,,,,10.0,,KIGQ 252035Z AUTO 24018G22KT 10SM SCT049 07/M01 A2999 RMK AO2  T00671012,,,,,,29.67,37.67,WSW,29.34,29.53,,Partly Cloudy
KIGQ,02/25/2018 20:55 UTC,29.99,43.88,26.42,49.92,19.57,250.0,28.77,,,,,1.0,,,,10.0,,KIGQ 252055Z AUTO 25017G25KT 10SM CLR 07/M03 A2999 RMK AO2  T00661031,,,,,,26.22,37.67,WSW,29.34,29.59,,Clear
KIGQ,02/25/2018 21:15 UTC,29.99,44.42,28.22,52.67,16.11,250.0,28.77,,,,,502.0,,,,10.0,,KIGQ 252115Z AUTO 25014G25KT 10SM SCT050 07/M02 A2999 RMK AO2  T00691021,,,,,,28.03,39.12,WSW,29.34,29.56,,Partly Cloudy
KIGQ,02/25/2018 21:35 UTC,30.0,44.06,25.52,47.76,20.71,250.0,28.77,,,,,1.0,,,,10.0,,KIGQ 252135Z AUTO 25018G25KT 10SM CLR 07/M04 A3000 RMK AO2  T00671036,,,,,,25.31,37.67,WSW,29.35,29.61,,Clear
KIGQ,02/25/2018 21:55 UTC,30.0,43.7,27.68,52.95,17.27,240.0,26.46,,,,,1.0,,,,10.0,,KIGQ 252155Z AUTO 24015G23KT 10SM CLR 07/M02 A3000 RMK AO2  T00651024,,,,,,27.49,37.95,WSW,29.35,29.58,,Clear
KIGQ,02/25/2018 22:15 UTC,30.01,43.34,27.32,52.89,17.27,250.0,24.16,,,,,1.0,,,,10.0,,KIGQ 252215Z AUTO 25015G21KT 10SM CLR 06/M03 A3001 RMK AO2  T00631026,,,,,,27.13,37.5,WSW,29.36,29.6,,Clear
KIGQ,02/25/2018 22:35 UTC,30.02,43.34,26.78,51.73,12.66,260.0,25.32,,,,,1.0,,,,10.0,,KIGQ 252235Z AUTO 26011G22KT 10SM CLR 06/M03 A3002 RMK AO2  T00631029,,,,,,26.59,38.72,W,29.37,29.61,,Clear
KIGQ,02/25/2018 22:55 UTC,30.03,42.8,26.96,53.2,13.8,250.0,25.32,,,,,1.0,,,,10.0,,KIGQ 252255Z AUTO 25012G22KT 10SM CLR 06/M03 A3003 RMK AO2  T00601028,,,,,,26.77,37.73,WSW,29.38,29.62,,Clear
KIGQ,02/25/2018 23:15 UTC,30.05,42.26,27.5,55.54,13.8,240.0,21.85,,,,,1.0,,,,10.0,,KIGQ 252315Z AUTO 24012G19KT 10SM CLR 06/M02 A3005 RMK AO2  T00571025,,,,,,27.32,37.07,WSW,29.4,29.64,,Clear
KIGQ,02/25/2018 23:35 UTC,30.06,41.54,26.42,54.62,11.5,250.0,18.41,,,,,1.0,,,,10.0,,KIGQ 252335Z AUTO 25010G16KT 10SM CLR 05/M03 A3006 RMK AO2  T00531031,,,,,,26.24,36.91,WSW,29.41,29.67,,Clear
KIGQ,02/25/2018 23:55 UTC,30.07,41.0,26.6,56.19,10.36,240.0,,,,,,1.0,,,,10.0,,KIGQ 252355Z AUTO 24009KT 10SM CLR 05/M03 A3007 RMK AO2 T00501030  10070 20050,44.6,41.0,,,,26.42,36.68,WSW,29.42,29.68,,Clear
KIGQ,02/26/2018 00:15 UTC,30.08,39.92,26.78,59.03,10.36,250.0,,,,,,1.0,,,,10.0,,KIGQ 260015Z AUTO 25009KT 10SM CLR 04/M03 A3008 RMK AO2  T00441029,,,,,,26.61,35.38,WSW,29.43,29.69,,Clear
KIGQ,02/26/2018 00:35 UTC,30.08,39.92,26.96,59.47,8.05,230.0,,,,,,1.0,,,,10.0,,KIGQ 260035Z AUTO 23007KT 10SM CLR 04/M03 A3008 RMK AO2  T00441028,,,,,,26.79,36.38,SW,29.43,29.69,,Clear
KIGQ,02/26/2018 00:55 UTC,30.08,39.2,27.32,62.08,9.22,230.0,,,,,,1.0,,,,10.0,,KIGQ 260055Z AUTO 23008KT 10SM CLR 04/M03 A3008 RMK AO2  T00401026,,,,,,27.16,34.99,SW,29.43,29.69,,Clear
KIGQ,02/26/2018 01:15 UTC,30.08,38.48,27.5,64.33,8.05,230.0,,,,,,1.0,,,,10.0,,KIGQ 260115Z AUTO 23007KT 10SM CLR 04/M02 A3008 RMK AO2  T00361025,,,,,,27.35,34.69,SW,29.43,29.69,,Clear
KIGQ,02/26/2018 01:35 UTC,30.08,38.12,27.5,65.24,6.91,240.0,,,,,,1.0,,,,10.0,,KIGQ 260135Z AUTO 24006KT 10SM CLR 03/M02 A3008 RMK AO2  T00341025,,,,,,27.35,,WSW,29.43,29.69,,Clear
KIGQ,02/26/2018 01:55 UTC,30.08,37.4,27.5,67.11,5.75,230.0,,,,,,1.0,,,,10.0,,KIGQ 260155Z AUTO 23005KT 10SM CLR 03/M02 A3008 RMK AO2  T00301025,,,,,,27.36,,SW,29.43,29.7,,Clear
KIGQ,02/26/2018 02:15 UTC,30.08,34.88,28.4,76.95,4.61,220.0,,,,,,1.0,,,,10.0,,KIGQ 260215Z AUTO 22004KT 10SM CLR 02/M02 A3008 RMK AO2  T00161020,,,,,,28.3,,SW,29.43,29.7,,Clear
KIGQ,02/26/2018 02:35 UTC,30.09,33.44,28.4,81.51,5.75,200.0,,,,,,1.0,,,,10.0,,KIGQ 260235Z AUTO 20005KT 10SM CLR 01/M02 A3009 RMK AO2  T00081020,,,,,,28.32,,SSW,29.44,29.72,,Clear
KIGQ,02/26/2018 02:55 UTC,30.09,33.44,28.4,81.51,6.91,220.0,,,,,,1.0,,,,10.0,,KIGQ 260255Z AUTO 22006KT 10SM CLR 01/M02 A3009 RMK AO2  T00081020,,,,,,28.32,,SW,29.44,29.72,,Clear
KIGQ,02/26/2018 03:15 UTC,30.1,33.8,28.76,81.54,8.05,220.0,,,,,,1.0,,,,10.0,,KIGQ 260315Z AUTO 22007KT 10SM CLR 01/M02 A3010 RMK AO2  T00101018,,,,,,28.68,29.19,SW,29.45,29.72,,Clear
KIGQ,02/26/2018 03:35 UTC,30.11,33.98,28.4,79.76,8.05,220.0,,,,,,1.0,,,,10.0,,KIGQ 260335Z AUTO 22007KT 10SM CLR 01/M02 A3011 RMK AO2  T00111020,,,,,,28.31,29.4,SW,29.46,29.74,,Clear
KIGQ,02/26/2018 03:55 UTC,30.12,32.9,28.76,84.53,6.91,210.0,,,,,,1.0,,,,10.0,,KIGQ 260355Z AUTO 21006KT 10SM CLR 01/M02 A3012 RMK AO2  T00051018,,,,,,28.69,,SSW,29.47,29.75,,Clear
KIGQ,02/26/2018 04:15 UTC,30.12,32.36,29.3,88.32,6.91,220.0,,,,,,1.0,,,,10.0,,KIGQ 260415Z AUTO 22006KT 10SM CLR 00/M01 A3012 RMK AO2  T00021015,,,,,,29.25,,SW,29.47,29.75,,Clear
KIGQ,02/26/2018 04:35 UTC,30.12,32.9,28.76,84.53,5.75,240.0,,,,,,1.0,,,,10.0,,KIGQ 260435Z AUTO 24005KT 10SM CLR 01/M02 A3012 RMK AO2  T00051018,,,,,,28.69,,WSW,29.47,29.75,,Clear
KIGQ,02/26/2018 04:55 UTC,30.12,32.0,28.58,87.01,5.75,220.0,,,,,,1.0,,,,10.0,,KIGQ 260455Z AUTO 22005KT 10SM CLR 00/M02 A3012 RMK AO2  T00001019,,,,,,28.52,,SW,29.47,29.76,,Clear
KIGQ,02/26/2018 05:15 UTC,30.13,32.54,28.4,84.51,4.61,220.0,,,,,,1.0,,,,10.0,,KIGQ 260515Z AUTO 22004KT 10SM CLR 00/M02 A3013 RMK AO2  T00031020,,,,,,28.33,,SW,29.47,29.76,,Clear
KIGQ,02/26/2018 05:35 UTC,30.13,32.0,27.32,82.61,4.61,230.0,,,,,,1.0,,,,10.0,,KIGQ 260535Z AUTO 23004KT 10SM CLR 00/M03 A3013 RMK AO2  T00001026,,,,,,27.24,,SW,29.47,29.77,,Clear
KIGQ,02/26/2018 05:55 UTC,30.13,32.36,27.5,82.03,4.61,230.0,,,,,,1.0,,,,10.0,,KIGQ 260555Z AUTO 23004KT 10SM CLR 00/M02 A3013 RMK AO2 T00021025  10050 20000 401010000,41.0,32.0,,50.18,32.0,27.42,,SW,29.47,29.77,,Clear
KIGQ,02/26/2018 06:15 UTC,30.13,30.56,27.14,86.93,4.61,230.0,,,,,,1.0,,,,10.0,,KIGQ 260615Z AUTO 23004KT 10SM CLR M01/M03 A3013 RMK AO2  T10081027,,,,,,27.08,,SW,29.47,29.78,,Clear
KIGQ,02/26/2018 06:35 UTC,30.14,29.3,26.96,90.83,4.61,230.0,,,,,,1.0,,,,10.0,,KIGQ 260635Z AUTO 23004KT 10SM CLR M01/M03 A3014 RMK AO2  T10151028,,,,,,26.92,,SW,29.48,29.8,,Clear
KIGQ,02/26/2018 06:55 UTC,30.15,32.72,27.5,80.85,4.61,240.0,,,,,,1.0,,,,10.0,,KIGQ 260655Z AUTO 24004KT 10SM CLR 00/M02 A3015 RMK AO2  T00041025,,,,,,27.42,,WSW,29.49,29.79,,Clear
KIGQ,02/26/2018 07:15 UTC,30.15,32.0,27.32,82.61,4.61,250.0,,,,,,1.0,,,,10.0,,KIGQ 260715Z AUTO 25004KT 10SM CLR 00/M03 A3015 RMK AO2  T00001026,,,,,,27.24,,WSW,29.49,29.79,,Clear
KIGQ,02/26/2018 07:35 UTC,30.15,30.92,26.96,85.03,4.61,260.0,,,,,,1.0,,,,10.0,,KIGQ 260735Z AUTO 26004KT 10SM CLR M01/M03 A3015 RMK AO2  T10061028,,,,,,26.89,,W,29.49,29.81,,Clear
KIGQ,02/26/2018 07:55 UTC,30.16,31.1,26.96,84.41,5.75,250.0,,,,,,1.0,,,,10.0,,KIGQ 260755Z AUTO 25005KT 10SM CLR 00/M03 A3016 RMK AO2  T10051028,,,,,,26.89,,WSW,29.5,29.81,,Clear
KIGQ,02/26/2018 08:15 UTC,30.16,31.46,26.96,83.19,3.44,250.0,,,,,,1.0,,,,10.0,,KIGQ 260815Z AUTO 25003KT 10SM CLR 00/M03 A3016 RMK AO2  T10031028,,,,,,26.89,,WSW,29.5,29.81,,Clear
KIGQ,02/26/2018 08:35 UTC,30.15,31.46,26.78,82.57,3.44,230.0,,,,,,1.0,,,,10.0,,KIGQ 260835Z AUTO 23003KT 10SM CLR 00/M03 A3015 RMK AO2  T10031029,,,,,,26.7,,SW,29.49,29.8,,Clear
KIGQ,02/26/2018 08:55 UTC,30.16,27.32,25.7,93.51,0.0,0.0,,,,,,1.0,,,,10.0,,KIGQ 260855Z AUTO 00000KT 10SM CLR M03/M03 A3016 RMK AO2  T10261035,,,,,,25.67,,N,29.5,29.85,,Clear
KIGQ,02/26/2018 09:15 UTC,30.16,30.74,27.68,88.24,0.0,0.0,,,,,,1.0,,,,10.0,,KIGQ 260915Z AUTO 00000KT 10SM CLR M01/M02 A3016 RMK AO2  T10071024,,,,,,27.63,,N,29.5,29.81,,Clear
KIGQ,02/26/2018 09:35 UTC,30.16,29.84,27.5,90.85,0.0,0.0,,,,,,1.0,,,,10.0,,KIGQ 260935Z AUTO 00000KT 10SM CLR M01/M02 A3016 RMK AO2  T10121025,,,,,,27.46,,N,29.5,29.82,,Clear
KIGQ,02/26/2018 09:55 UTC,30.16,28.22,27.32,96.36,0.0,0.0,,,,,,1.0,,,,10.0,,KIGQ 260955Z AUTO 00000KT 10SM CLR M02/M03 A3016 RMK AO2  T10211026,,,,,,27.3,,N,29.5,29.83,,Clear
KIGQ,02/26/2018 10:15 UTC,30.16,24.8,23.54,94.86,3.44,170.0,,,,,,1.0,,,,10.0,,KIGQ 261015Z AUTO 17003KT 10SM CLR M04/M05 A3016 RMK AO2  T10401047,,,,,,23.52,,S,29.5,29.89,,Clear
KIGQ,02/26/2018 10:35 UTC,30.17,27.5,26.42,95.63,0.0,0.0,,,,,,1.0,,,,10.0,,KIGQ 261035Z AUTO 00000KT 10SM CLR M02/M03 A3017 RMK AO2  T10251031,,,,,,26.4,,N,29.51,29.85,,Clear
KIGQ,02/26/2018 10:55 UTC,30.17,27.5,26.42,95.63,0.0,0.0,,,,,,1.0,,,,10.0,,KIGQ 261055Z AUTO 00000KT 10SM CLR M02/M03 A3017 RMK AO2  T10251031,,,,,,26.4,,N,29.51,29.85,,Clear
KIGQ,02/26/2018 11:15 UTC,30.18,27.32,26.42,96.35,0.0,0.0,,,,,,1.0,,,,10.0,,KIGQ 261115Z AUTO 00000KT 10SM CLR M03/M03 A3018 RMK AO2  T10261031,,,,,,26.4,,N,29.52,29.86,,Clear
KIGQ,02/26/2018 11:35 UTC,30.19,27.14,26.78,98.52,0.0,0.0,,,,,,1.0,,,,10.0,,KIGQ 261135Z AUTO 00000KT 10SM CLR M03/M03 A3019 RMK AO2  T10271029,,,,,,26.77,,N,29.53,29.87,,Clear
KIGQ,02/26/2018 11:55 UTC,30.19,25.34,24.98,98.51,0.0,0.0,,,,,,1.0,,,,10.0,,KIGQ 261155Z AUTO 00000KT 10SM CLR M04/M04 A3019 RMK AO2 T10371039  10004 21041,32.72,24.62,,,,24.97,,N,29.53,29.9,,Clear
KIGQ,02/26/2018 12:15 UTC,30.21,25.34,24.26,95.59,3.44,180.0,,,,,,1.0,,,,10.0,,KIGQ 261215Z AUTO 18003KT 10SM CLR M04/M04 A3021 RMK AO2  T10371043,,,,,,24.24,,S,29.55,29.93,,Clear
KIGQ,02/26/2018 12:35 UTC,30.21,25.52,24.44,95.59,3.44,180.0,,,,,,1.0,,,,10.0,,KIGQ 261235Z AUTO 18003KT 10SM CLR M04/M04 A3021 RMK AO2  T10361042,,,,,,24.42,,S,29.55,29.93,,Clear
KIGQ,02/26/2018 12:55 UTC,30.22,26.6,25.34,94.9,0.0,0.0,,,,,,1.0,,,,10.0,,KIGQ 261255Z AUTO 00000KT 10SM CLR M03/M04 A3022 RMK AO2  T10301037,,,,,,25.32,,N,29.56,29.92,,Clear
KIGQ,02/26/2018 13:15 UTC,30.23,29.12,27.14,92.18,0.0,0.0,,,,,,1.0,,,,10.0,,KIGQ 261315Z AUTO 00000KT 10SM CLR M02/M03 A3023 RMK AO2  T10161027,,,,,,27.1,,N,29.57,29.9,,Clear
KIGQ,02/26/2018 13:35 UTC,30.24,30.2,28.58,93.6,3.44,180.0,,,,,,1.0,,,,10.0,,KIGQ 261335Z AUTO 18003KT 10SM CLR M01/M02 A3024 RMK AO2  T10101019,,,,,,28.55,,S,29.58,29.88,,Clear
KIGQ,02/26/2018 13:55 UTC,30.24,32.36,30.02,90.95,0.0,0.0,,,,,,1.0,,,,10.0,,KIGQ 261355Z AUTO 00000KT 10SM CLR 00/M01 A3024 RMK AO2  T00021011,,,,,,29.98,,N,29.58,29.85,,Clear
KIGQ,02/26/2018 14:15 UTC,30.25,34.7,31.1,86.53,4.61,200.0,,,,,,1.0,,,,10.0,,KIGQ 261415Z AUTO 20004KT 10SM CLR 02/00 A3025 RMK AO2  T00151005,,,,,,31.04,,SSW,29.59,29.83,,Clear
KIGQ,02/26/2018 14:35 UTC,30.25,36.5,31.82,82.94,5.75,200.0,,,,,,1.0,,,,10.0,,KIGQ 261435Z AUTO 20005KT 10SM CLR 03/00 A3025 RMK AO2  T00251001,,,,,,31.75,,SSW,29.59,29.8,,Clear
KIGQ,02/26/2018 14:55 UTC,30.25,37.76,32.0,79.5,5.75,200.0,,,,,,1.0,,,,10.0,,KIGQ 261455Z AUTO 20005KT 10SM CLR 03/00 A3025 RMK AO2  T00320000,,,,,,31.91,,SSW,29.59,29.79,,Clear
KIGQ,02/26/2018 15:15 UTC,30.26,39.02,32.0,75.67,6.91,200.0,,,,,,1.0,,,,10.0,,KIGQ 261515Z AUTO 20006KT 10SM CLR 04/00 A3026 RMK AO2  T00390000,,,,,,31.9,,SSW,29.6,29.79,,Clear
KIGQ,02/26/2018 15:35 UTC,30.26,41.18,32.36,70.59,5.75,200.0,,,,,,1.0,,,,10.0,,KIGQ 261535Z AUTO 20005KT 10SM CLR 05/00 A3026 RMK AO2  T00510002,,,,,,32.24,,SSW,29.6,29.77,,Clear
KIGQ,02/26/2018 15:55 UTC,30.26,42.44,32.36,67.25,8.05,210.0,,,,,,1.0,,,,10.0,,KIGQ 261555Z AUTO 21007KT 10SM CLR 06/00 A3026 RMK AO2  T00580002,,,,,,32.23,39.34,SSW,29.6,29.77,,Clear
KIGQ,02/26/2018 16:15 UTC,30.27,43.88,33.08,65.5,9.22,190.0,,,,,,1.0,,,,10.0,,KIGQ 261615Z AUTO 19008KT 10SM CLR 07/01 A3027 RMK AO2  T00660006,,,,,,32.94,40.55,S,29.61,29.75,,Clear
KIGQ,02/26/2018 16:35 UTC,30.27,45.32,32.54,60.68,9.22,190.0,,,,,,1.0,,,,10.0,,KIGQ 261635Z AUTO 19008KT 10SM CLR 07/00 A3027 RMK AO2  T00740003,,,,,,32.39,,S,29.61,29.75,,Clear
KIGQ,02/26/2018 16:55 UTC,30.27,46.94,32.72,57.48,11.5,200.0,,,,,,1.0,,,,10.0,,KIGQ 261655Z AUTO 20010KT 10SM CLR 08/00 A3027 RMK AO2  T00830004,,,,,,32.56,,SSW,29.61,29.74,,Clear
KIGQ,02/26/2018 17:15 UTC,30.27,47.66,33.62,58.01,12.66,210.0,,,,,,1.0,,,,10.0,,KIGQ 261715Z AUTO 21011KT 10SM CLR 09/01 A3027 RMK AO2  T00870009,,,,,,33.47,,SSW,29.61,29.72,,Clear
KIGQ,02/26/2018 17:35 UTC,30.27,48.74,33.8,56.11,14.97,230.0,18.41,,,,,1.0,,,,10.0,,KIGQ 261735Z AUTO 23013G16KT 10SM CLR 09/01 A3027 RMK AO2  T00930010,,,,,,33.64,,SW,29.61,29.71,,Clear
KIGQ,02/26/2018 17:55 UTC,30.27,49.28,33.44,54.2,13.8,240.0,17.27,,,,,1.0,,,,10.0,,KIGQ 261755Z AUTO 24012G15KT 10SM CLR 10/01 A3027 RMK AO2  T00960008 10097 21040,49.46,24.8,,,,33.28,,WSW,29.61,29.71,,Clear
KIGQ,02/26/2018 18:15 UTC,30.26,49.64,32.36,51.21,11.5,230.0,,,,,,1.0,,,,10.0,,KIGQ 261815Z AUTO 23010KT 10SM CLR 10/00 A3026 RMK AO2  T00980002,,,,,,32.19,,SW,29.6,29.72,,Clear
KIGQ,02/26/2018 18:35 UTC,30.25,50.36,33.08,51.32,12.66,220.0,,,,,,1.0,,,,10.0,,KIGQ 261835Z AUTO 22011KT 10SM CLR 10/01 A3025 RMK AO2  T01020006,,,,,,32.91,,SW,29.59,29.69,,Clear
KIGQ,02/26/2018 18:55 UTC,30.25,50.72,32.36,49.19,17.27,230.0,21.85,,,,,1.0,,,,10.0,,KIGQ 261855Z AUTO 23015G19KT 10SM CLR 10/00 A3025 RMK AO2  T01040002,,,,,,32.18,,SW,29.59,29.7,,Clear
KIGQ,02/26/2018 19:15 UTC,30.24,51.26,33.62,50.73,17.27,230.0,23.02,,,,,1.0,,,,10.0,,KIGQ 261915Z AUTO 23015G20KT 10SM CLR 11/01 A3024 RMK AO2  T01070009,,,,,,33.45,,SW,29.58,29.66,,Clear
KIGQ,02/26/2018 19:35 UTC,30.24,51.8,32.54,47.61,19.57,220.0,24.16,,,,,1.0,,,,10.0,,KIGQ 261935Z AUTO 22017G21KT 10SM CLR 11/00 A3024 RMK AO2  T01100003,,,,,,32.36,,SW,29.58,29.68,,Clear
KIGQ,02/26/2018 19:55 UTC,30.24,51.98,32.18,46.62,17.27,210.0,,,,,,1.0,,,,10.0,,KIGQ 261955Z AUTO 21015KT 10SM CLR 11/00 A3024 RMK AO2  T01110001,,,,,,32.0,,SSW,29.58,29.69,,Clear
KIGQ,02/26/2018 20:15 UTC,30.23,52.7,32.9,46.73,17.27,220.0,20.71,,,,,1.0,,,,10.0,,KIGQ 262015Z AUTO 22015G18KT 10SM CLR 12/01 A3023 RMK AO2  T01150005,,,,,,32.72,,SW,29.57,29.66,,Clear
KIGQ,02/26/2018 20:35 UTC,30.24,52.7,33.62,48.1,16.11,220.0,23.02,,,,,1.0,,,,10.0,,KIGQ 262035Z AUTO 22014G20KT 10SM CLR 12/01 A3024 RMK AO2  T01150009,,,,,,33.45,,SW,29.58,29.66,,Clear
KIGQ,02/26/2018 20:55 UTC,30.24,52.7,32.72,46.4,17.27,230.0,23.02,,,,,1.0,,,,10.0,,KIGQ 262055Z AUTO 23015G20KT 10SM CLR 12/00 A3024 RMK AO2  T01150004,,,,,,32.54,,SW,29.58,29.67,,Clear
KIGQ,02/26/2018 21:15 UTC,30.23,52.52,34.16,49.48,13.8,220.0,19.57,,,,,1.0,,,,10.0,,KIGQ 262115Z AUTO 22012G17KT 10SM CLR 11/01 A3023 RMK AO2  T01140012,,,,,,33.99,,SW,29.57,29.64,,Clear
KIGQ,02/26/2018 21:35 UTC,30.23,52.16,33.62,49.07,18.41,220.0,23.02,,,,,552.0,,,,10.0,,KIGQ 262135Z AUTO 22016G20KT 10SM SCT055 11/01 A3023 RMK AO2  T01120009,,,,,,33.45,,SW,29.57,29.65,,Partly Cloudy
KIGQ,02/26/2018 21:55 UTC,30.23,52.16,33.44,48.72,14.97,230.0,21.85,,,,,552.0,,,,10.0,,KIGQ 262155Z AUTO 23013G19KT 10SM SCT055 11/01 A3023 RMK AO2  T01120008,,,,,,33.27,,SW,29.57,29.65,,Partly Cloudy
KIGQ,02/26/2018 22:15 UTC,30.23,51.98,34.34,50.84,16.11,220.0,19.57,,,,,552.0,,,,10.0,,KIGQ 262215Z AUTO 22014G17KT 220V350 10SM SCT055 11/01 A3023 RMK AO2 T01110013,,,,,,34.18,,SW,29.57,29.64,,Partly Cloudy
KIGQ,02/26/2018 22:35 UTC,30.23,51.8,33.98,50.45,11.5,240.0,20.71,,,,,1.0,,,,10.0,,KIGQ 262235Z AUTO 24010G18KT 10SM CLR 11/01 A3023 RMK AO2  T01100011,,,,,,33.81,,WSW,29.57,29.64,,Clear
KIGQ,02/26/2018 22:55 UTC,30.24,51.08,33.8,51.43,13.8,240.0,,,,,,1.0,,,,10.0,,KIGQ 262255Z AUTO 24012KT 220V350 10SM CLR 11/01 A3024 RMK AO2  T01060010,,,,,,33.63,,WSW,29.58,29.66,,Clear
KIGQ,02/26/2018 23:15 UTC,30.24,50.0,34.88,55.89,6.91,220.0,,,,,,1.0,,,,10.0,,KIGQ 262315Z AUTO 22006KT 10SM CLR 10/02 A3024 RMK AO2  T01000016,,,,,,34.72,,SW,29.58,29.65,,Clear
KIGQ,02/26/2018 23:35 UTC,30.24,47.84,34.7,60.16,6.91,210.0,,,,,,1.0,,,,10.0,,KIGQ 262335Z AUTO 21006KT 10SM CLR 09/02 A3024 RMK AO2  T00880015,,,,,,34.56,,SSW,29.58,29.67,,Clear
KIGQ,02/26/2018 23:55 UTC,30.24,46.04,34.7,64.38,6.91,200.0,,,,,,1.0,,,,10.0,,KIGQ 262355Z AUTO 20006KT 10SM CLR 08/02 A3024 RMK AO2 T00780015  10115 20078,52.7,46.04,,,,34.57,,SSW,29.58,29.68,,Clear
KIGQ,02/27/2018 00:15 UTC,30.24,43.34,34.52,70.84,5.75,200.0,,,,,,1.0,,,,10.0,,KIGQ 270015Z AUTO 20005KT 10SM CLR 06/01 A3024 RMK AO2  T00630014,,,,,,34.41,,SSW,29.58,29.7,,Clear
KIGQ,02/27/2018 00:35 UTC,30.24,41.9,34.52,74.87,5.75,200.0,,,,,,1.0,,,,10.0,,KIGQ 270035Z AUTO 20005KT 10SM CLR 06/01 A3024 RMK AO2  T00550014,,,,,,34.42,,SSW,29.58,29.71,,Clear
KIGQ,02/27/2018 00:55 UTC,30.25,39.2,32.72,77.35,3.44,190.0,,,,,,1.0,,,,10.0,,KIGQ 270055Z AUTO 19003KT 10SM CLR 04/00 A3025 RMK AO2  T00400004,,,,,,32.63,,S,29.59,29.77,,Clear
KIGQ,02/27/2018 01:15 UTC,30.25,38.48,32.54,78.99,6.91,190.0,,,,,,1.0,,,,10.0,,KIGQ 270115Z AUTO 19006KT 10SM CLR 04/00 A3025 RMK AO2  T00360003,,,,,,32.45,,S,29.59,29.78,,Clear
KIGQ,02/27/2018 01:35 UTC,30.25,40.28,34.16,78.58,5.75,190.0,,,,,,1.0,,,,10.0,,KIGQ 270135Z AUTO 19005KT 10SM CLR 05/01 A3025 RMK AO2  T00460012,,,,,,34.07,,S,29.59,29.74,,Clear
KIGQ,02/27/2018 01:55 UTC,30.25,39.2,33.98,81.36,5.75,190.0,,,,,,1.0,,,,10.0,,KIGQ 270155Z AUTO 19005KT 10SM CLR 04/01 A3025 RMK AO2  T00400011,,,,,,33.9,,S,29.59,29.75,,Clear
KIGQ,02/27/2018 02:15 UTC,30.25,40.1,34.7,80.85,6.91,190.0,,,,,,1.0,,,,10.0,,KIGQ 270215Z AUTO 19006KT 10SM CLR 05/02 A3025 RMK AO2  T00450015,,,,,,34.62,,S,29.59,29.73,,Clear
KIGQ,02/27/2018 02:35 UTC,30.26,40.1,34.7,80.85,6.91,200.0,,,,,,1.0,,,,10.0,,KIGQ 270235Z AUTO 20006KT 10SM CLR 05/02 A3026 RMK AO2  T00450015,,,,,,34.62,,SSW,29.6,29.74,,Clear
KIGQ,02/27/2018 02:55 UTC,30.26,39.38,34.34,81.96,6.91,200.0,,,,,,1.0,,,,10.0,,KIGQ 270255Z AUTO 20006KT 10SM CLR 04/01 A3026 RMK AO2  T00410013,,,,,,34.27,,SSW,29.6,29.75,,Clear
KIGQ,02/27/2018 03:15 UTC,30.26,40.1,34.7,80.85,8.05,190.0,,,,,,1.0,,,,10.0,,KIGQ 270315Z AUTO 19007KT 10SM CLR 05/02 A3026 RMK AO2  T00450015,,,,,,34.62,36.59,S,29.6,29.74,,Clear
KIGQ,02/27/2018 03:35 UTC,30.26,40.82,34.52,78.06,8.05,200.0,,,,,,1.0,,,,10.0,,KIGQ 270335Z AUTO 20007KT 10SM CLR 05/01 A3026 RMK AO2  T00490014,,,,,,34.43,37.44,SSW,29.6,29.74,,Clear
KIGQ,02/27/2018 03:55 UTC,30.26,40.46,34.16,78.03,8.05,200.0,,,,,,1.0,,,,10.0,,KIGQ 270355Z AUTO 20007KT 10SM CLR 05/01 A3026 RMK AO2  T00470012,,,,,,34.07,37.01,SSW,29.6,29.75,,Clear
KIGQ,02/27/2018 04:15 UTC,30.26,40.1,33.8,78.0,8.05,200.0,,,,,,1.0,,,,10.0,,KIGQ 270415Z AUTO 20007KT 10SM CLR 05/01 A3026 RMK AO2  T00450010,,,,,,33.71,36.59,SSW,29.6,29.76,,Clear
KIGQ,02/27/2018 04:40 UTC,30.26,40.1,33.44,76.88,9.22,200.0,,,,,,1.0,,,,10.0,,KIGQ 270440Z AUTO 20008KT 10SM CLR 05/01 A3026 RMK AO2  T00450008,,,,,,33.35,36.06,SSW,29.6,29.76,,Clear
KIGQ,02/27/2018 04:55 UTC,30.26,39.92,33.08,76.31,8.05,200.0,,,,,,1.0,,,,10.0,,KIGQ 270455Z AUTO 20007KT 10SM CLR 04/01 A3026 RMK AO2  T00440006,,,,,,32.98,36.38,SSW,29.6,29.77,,Clear
KIGQ,02/27/2018 05:15 UTC,30.26,39.56,32.9,76.83,8.05,200.0,,,,,,1.0,,,,10.0,,KIGQ 270515Z AUTO 20007KT 10SM CLR 04/01 A3026 RMK AO2  T00420005,,,,,,32.81,35.96,SSW,29.6,29.77,,Clear
KIGQ,02/27/2018 05:35 UTC,30.26,40.1,32.54,74.15,9.22,200.0,,,,,,1.0,,,,10.0,,KIGQ 270535Z AUTO 20008KT 10SM CLR 05/00 A3026 RMK AO2  T00450003,,,,,,32.43,36.06,SSW,29.6,29.78,,Clear
KIGQ,02/27/2018 05:55 UTC,30.26,40.46,32.36,72.59,9.22,200.0,,,,,,1.0,,,,10.0,,KIGQ 270555Z AUTO 20008KT 10SM CLR 05/00 A3026 RMK AO2 T00470002  10076 20035 401151041,45.68,38.3,,52.7,24.62,32.25,36.49,SSW,29.6,29.78,,Clear
KIGQ,02/27/2018 06:15 UTC,30.26,40.1,32.18,73.08,9.22,200.0,,,,,,1.0,,,,10.0,,KIGQ 270615Z AUTO 20008KT 10SM CLR 05/00 A3026 RMK AO2  T00450001,,,,,,32.07,36.06,SSW,29.6,29.78,,Clear
KIGQ,02/27/2018 06:35 UTC,30.27,40.1,32.0,72.55,10.36,210.0,,,,,,1.0,,,,10.0,,KIGQ 270635Z AUTO 21009KT 10SM CLR 05/00 A3027 RMK AO2  T00450000,,,,,,31.89,35.6,SSW,29.61,29.8,,Clear
KIGQ,02/27/2018 06:55 UTC,30.27,39.92,32.0,73.06,9.22,210.0,,,,,,1.0,,,,10.0,,KIGQ 270655Z AUTO 21008KT 10SM CLR 04/00 A3027 RMK AO2  T00440000,,,,,,31.89,35.85,SSW,29.61,29.8,,Clear
KIGQ,02/27/2018 07:15 UTC,30.27,38.3,31.82,77.27,5.75,200.0,,,,,,1.0,,,,10.0,,KIGQ 270715Z AUTO 20005KT 10SM CLR 04/00 A3027 RMK AO2  T00351001,,,,,,31.73,,SSW,29.61,29.81,,Clear
KIGQ,02/27/2018 07:35 UTC,30.26,37.4,31.1,77.75,5.75,190.0,,,,,,1.0,,,,10.0,,KIGQ 270735Z AUTO 19005KT 10SM CLR 03/00 A3026 RMK AO2  T00301005,,,,,,31.01,,S,29.6,29.82,,Clear
KIGQ,02/27/2018 07:55 UTC,30.26,36.86,31.28,80.01,4.61,200.0,,,,,,1.0,,,,10.0,,KIGQ 270755Z AUTO 20004KT 10SM CLR 03/00 A3026 RMK AO2  T00271004,,,,,,31.2,,SSW,29.6,29.82,,Clear
KIGQ,02/27/2018 08:15 UTC,30.26,36.5,30.92,79.98,4.61,200.0,,,,,,1.0,,,,10.0,,KIGQ 270815Z AUTO 20004KT 10SM CLR 03/M01 A3026 RMK AO2  T00251006,,,,,,30.84,,SSW,29.6,29.83,,Clear
KIGQ,02/27/2018 08:35 UTC,30.26,36.14,30.74,80.53,5.75,200.0,,,,,,1.0,,,,10.0,,KIGQ 270835Z AUTO 20005KT 10SM CLR 02/M01 A3026 RMK AO2  T00231007,,,,,,30.66,,SSW,29.6,29.83,,Clear
KIGQ,02/27/2018 08:55 UTC,30.26,36.5,30.92,79.98,5.75,200.0,,,,,,1.0,,,,10.0,,KIGQ 270855Z AUTO 20005KT 10SM CLR 03/M01 A3026 RMK AO2  T00251006,,,,,,30.84,,SSW,29.6,29.83,,Clear
KIGQ,02/27/2018 09:15 UTC,30.26,35.06,30.02,81.63,4.61,190.0,,,,,,1.0,,,,10.0,,KIGQ 270915Z AUTO 19004KT 10SM CLR 02/M01 A3026 RMK AO2  T00171011,,,,,,29.94,,S,29.6,29.85,,Clear
KIGQ,02/27/2018 09:35 UTC,30.25,34.7,29.48,81.01,3.44,200.0,,,,,,1.0,,,,10.0,,KIGQ 270935Z AUTO 20003KT 10SM CLR 02/M01 A3025 RMK AO2  T00151014,,,,,,29.4,,SSW,29.59,29.85,,Clear
KIGQ,02/27/2018 09:55 UTC,30.25,36.5,30.56,78.82,6.91,200.0,,,,,,1.0,,,,10.0,,KIGQ 270955Z AUTO 20006KT 10SM CLR 03/M01 A3025 RMK AO2  T00251008,,,,,,30.47,,SSW,29.59,29.82,,Clear
KIGQ,02/27/2018 10:15 UTC,30.24,36.68,30.92,79.41,6.91,200.0,,,,,,1.0,,,,10.0,,KIGQ 271015Z AUTO 20006KT 10SM CLR 03/M01 A3024 RMK AO2  T00261006,,,,,,30.83,,SSW,29.58,29.81,,Clear
KIGQ,02/27/2018 10:35 UTC,30.24,37.22,30.92,77.74,6.91,200.0,,,,,,1.0,,,,10.0,,KIGQ 271035Z AUTO 20006KT 10SM CLR 03/M01 A3024 RMK AO2  T00291006,,,,,,30.83,,SSW,29.58,29.8,,Clear
KIGQ,02/27/2018 10:55 UTC,30.24,37.4,30.92,77.19,8.05,200.0,,,,,,1.0,,,,10.0,,KIGQ 271055Z AUTO 20007KT 10SM CLR 03/M01 A3024 RMK AO2  T00301006,,,,,,30.83,33.42,SSW,29.58,29.8,,Clear
KIGQ,02/27/2018 11:15 UTC,30.24,37.94,30.92,75.57,9.22,200.0,,,,,,1.0,,,,10.0,,KIGQ 271115Z AUTO 20008KT 10SM CLR 03/M01 A3024 RMK AO2  T00331006,,,,,,30.82,33.5,SSW,29.58,29.8,,Clear
KIGQ,02/27/2018 11:35 UTC,30.23,38.12,30.74,74.49,10.36,200.0,,,,,,1.0,,,,10.0,,KIGQ 271135Z AUTO 20009KT 10SM CLR 03/M01 A3023 RMK AO2  T00341007,,,,,,30.63,33.23,SSW,29.57,29.79,,Clear
KIGQ,02/27/2018 11:55 UTC,30.23,38.66,30.74,72.93,12.66,200.0,,,,,,1.0,,,,10.0,,KIGQ 271155Z AUTO 20011KT 10SM CLR 04/M01 A3023 RMK AO2 T00371007  10046 20014,40.28,34.52,,,,30.63,33.03,SSW,29.57,29.79,,Clear
KIGQ,02/27/2018 12:15 UTC,30.23,38.84,30.74,72.42,11.5,200.0,,,,,,1.0,,,,10.0,,KIGQ 271215Z AUTO 20010KT 10SM CLR 04/M01 A3023 RMK AO2  T00381007,,,,,,30.63,33.66,SSW,29.57,29.78,,Clear
KIGQ,02/27/2018 12:35 UTC,30.24,38.3,31.1,75.05,10.36,200.0,,,,,,1.0,,,,10.0,,KIGQ 271235Z AUTO 20009KT 10SM CLR 04/00 A3024 RMK AO2  T00351005,,,,,,31.0,33.44,SSW,29.58,29.79,,Clear
KIGQ,02/27/2018 12:55 UTC,30.24,38.48,31.1,74.52,11.5,200.0,,,,,,1.0,,,,10.0,,KIGQ 271255Z AUTO 20010KT 10SM CLR 04/00 A3024 RMK AO2  T00361005,,,,,,30.99,33.22,SSW,29.58,29.79,,Clear
KIGQ,02/27/2018 13:15 UTC,30.24,39.38,31.46,73.0,10.36,200.0,,,,,,1.0,,,,10.0,,KIGQ 271315Z AUTO 20009KT 10SM CLR 04/00 A3024 RMK AO2  T00411003,,,,,,31.35,34.74,SSW,29.58,29.78,,Clear
KIGQ,02/27/2018 13:35 UTC,30.24,40.28,32.0,72.05,11.5,200.0,,,,,,1.0,,,,10.0,,KIGQ 271335Z AUTO 20010KT 10SM CLR 05/00 A3024 RMK AO2  T00460000,,,,,,31.89,35.39,SSW,29.58,29.77,,Clear
KIGQ,02/27/2018 13:55 UTC,30.24,42.08,32.0,67.2,11.5,200.0,,,,,,1.0,,,,10.0,,KIGQ 271355Z AUTO 20010KT 10SM CLR 06/00 A3024 RMK AO2  T00560000,,,,,,31.87,37.57,SSW,29.58,29.75,,Clear
KIGQ,02/27/2018 14:15 UTC,30.23,43.34,32.36,64.96,12.66,200.0,,,,,,702.0,,,,10.0,,KIGQ 271415Z AUTO 20011KT 10SM SCT070 06/00 A3023 RMK AO2  T00630002,,,,,,32.22,38.72,SSW,29.57,29.73,,Partly Cloudy
KIGQ,02/27/2018 14:35 UTC,30.23,44.6,32.9,63.27,14.97,200.0,20.71,,,,,704.0,,,,10.0,,KIGQ 271435Z AUTO 20013G18KT 10SM OVC070 07/01 A3023 RMK AO2  T00700005,,,7000.0,,,32.76,39.62,SSW,29.57,29.71,,Overcast
KIGQ,02/27/2018 14:55 UTC,30.22,46.04,33.8,62.11,13.8,200.0,,,,,,704.0,,,,10.0,,KIGQ 271455Z AUTO 20012KT 10SM OVC070 08/01 A3022 RMK AO2  T00780010,,,7000.0,,,33.66,,SSW,29.56,29.67,,Overcast
KIGQ,02/27/2018 15:15 UTC,30.22,48.2,34.7,59.35,16.11,210.0,23.02,,,,,704.0,,,,10.0,,KIGQ 271515Z AUTO 21014G20KT 10SM OVC070 09/02 A3022 RMK AO2  T00900015,,,7000.0,,,34.55,,SSW,29.56,29.64,,Overcast
KIGQ,02/27/2018 15:35 UTC,30.21,49.1,35.06,58.21,16.11,210.0,20.71,,,,,704.0,,,,10.0,,KIGQ 271535Z AUTO 21014G18KT 10SM OVC070 10/02 A3021 RMK AO2  T00950017,,,7000.0,,,34.91,,SSW,29.55,29.62,,Overcast
KIGQ,02/27/2018 15:55 UTC,30.21,49.46,35.96,59.53,12.66,200.0,,,,,,704.0,,,,10.0,,KIGQ 271555Z AUTO 20011KT 10SM OVC070 10/02 A3021 RMK AO2  T00970022,,,7000.0,,,35.82,,SSW,29.55,29.6,,Overcast
KIGQ,02/27/2018 16:15 UTC,30.21,51.98,37.22,56.99,18.41,200.0,26.46,,,,,702.0,,,,10.0,,KIGQ 271615Z AUTO 20016G23KT 10SM SCT070 11/03 A3021 RMK AO2  T01110029,,,,,,37.08,,SSW,29.55,29.55,,Partly Cloudy
KIGQ,02/27/2018 16:35 UTC,30.2,53.42,37.76,55.21,16.11,200.0,23.02,,,,,1.0,,,,10.0,,KIGQ 271635Z AUTO 20014G20KT 10SM CLR 12/03 A3020 RMK AO2  T01190032,,,,,,37.61,,SSW,29.54,29.52,,Clear
KIGQ,02/27/2018 16:55 UTC,30.19,54.5,38.84,55.37,14.97,210.0,,,,,,1.0,,,,10.0,,KIGQ 271655Z AUTO 21013KT 10SM CLR 13/04 A3019 RMK AO2  T01250038,,,,,,38.7,,SSW,29.53,29.48,,Clear
KIGQ,02/27/2018 17:15 UTC,30.18,55.94,39.2,53.3,20.71,210.0,27.63,,,,,1.0,,,,10.0,,KIGQ 271715Z AUTO 21018G24KT 10SM CLR 13/04 A3018 RMK AO2  T01330040,,,,,,39.06,,SSW,29.52,29.45,,Clear
KIGQ,02/27/2018 17:35 UTC,30.17,57.2,39.56,51.65,19.57,200.0,26.46,,,,,1.0,,,,10.0,,KIGQ 271735Z AUTO 20017G23KT 10SM CLR 14/04 A3017 RMK AO2  T01400042,,,,,,39.42,,SSW,29.51,29.42,,Clear
KIGQ,02/27/2018 17:55 UTC,30.16,58.1,40.1,51.07,20.71,200.0,24.16,,,,,1.0,,,,10.0,,KIGQ 271755Z AUTO 20018G21KT 10SM CLR 15/05 A3016 RMK AO2  T01450045 10147 20035,58.46,38.3,,,,39.97,,SSW,29.5,29.39,,Clear
KIGQ,02/27/2018 18:15 UTC,30.16,57.92,40.28,51.76,20.71,220.0,28.77,,,,,1.0,,,,10.0,,KIGQ 271815Z AUTO 22018G25KT 10SM CLR 14/05 A3016 RMK AO2  T01440046,,,,,,40.15,,SW,29.5,29.39,,Clear
KIGQ,02/27/2018 18:35 UTC,30.14,56.48,40.46,54.89,23.02,210.0,,,,,,752.0,,,,10.0,,KIGQ 271835Z AUTO 21020KT 10SM SCT075 14/05 A3014 RMK AO2  T01360047,,,,,,40.33,,SSW,29.48,29.37,,Partly Cloudy
KIGQ,02/27/2018 18:55 UTC,30.13,57.92,41.9,55.11,20.71,220.0,24.16,,,,,754.0,,,,10.0,,KIGQ 271855Z AUTO 22018G21KT 10SM OVC075 14/06 A3013 RMK AO2  T01440055,,,7500.0,,,41.78,,SW,29.47,29.31,,Overcast
KIGQ,02/27/2018 19:15 UTC,30.11,59.0,42.08,53.39,19.57,210.0,26.46,,,,,753.0,,,,10.0,,KIGQ 271915Z AUTO 21017G23KT 10SM BKN075 15/06 A3011 RMK AO2  T01500056,,,7500.0,,,41.96,,SSW,29.46,29.29,,Mostly Cloudy
KIGQ,02/27/2018 19:35 UTC,30.1,58.82,42.08,53.73,14.97,200.0,24.16,,,,,753.0,,,,10.0,,KIGQ 271935Z AUTO 20013G21KT 10SM BKN075 15/06 A3010 RMK AO2  T01490056,,,7500.0,,,41.95,,SSW,29.45,29.28,,Mostly Cloudy
KIGQ,02/27/2018 19:55 UTC,30.09,59.36,42.62,53.81,14.97,220.0,26.46,,,,,753.0,,,,10.0,,KIGQ 271955Z AUTO 22013G23KT 10SM BKN075 15/06 A3009 RMK AO2  T01520059,,,7500.0,,,42.5,,SW,29.44,29.25,,Mostly Cloudy
KIGQ,02/27/2018 20:15 UTC,30.08,59.9,41.9,51.34,17.27,210.0,27.63,,,,,752.0,,,,10.0,,KIGQ 272015Z AUTO 21015G24KT 10SM SCT075 16/06 A3008 RMK AO2  T01550055,,,,,,41.77,,SSW,29.43,29.26,,Partly Cloudy
KIGQ,02/27/2018 20:35 UTC,30.08,60.62,43.34,52.9,18.41,200.0,21.85,,,,,752.0,,,,10.0,,KIGQ 272035Z AUTO 20016G19KT 10SM SCT075 16/06 A3008 RMK AO2  T01590063,,,,,,43.22,,SSW,29.43,29.21,,Partly Cloudy
KIGQ,02/27/2018 20:55 UTC,30.06,59.18,41.18,51.23,18.41,200.0,27.63,,,,,752.0,,,,10.0,,KIGQ 272055Z AUTO 20016G24KT 10SM SCT075 15/05 A3006 RMK AO2  T01510051,,,,,,41.05,,SSW,29.41,29.26,,Partly Cloudy
KIGQ,02/27/2018 21:35 UTC,30.04,59.36,40.28,49.16,17.27,210.0,23.02,,,,,1.0,,,,10.0,,KIGQ 272135Z AUTO 21015G20KT 10SM CLR 15/05 A3004 RMK AO2  T01520046,,,,,,40.15,,SSW,29.39,29.26,,Clear
KIGQ,02/27/2018 21:55 UTC,30.03,58.1,40.28,51.43,16.11,200.0,25.32,,,,,1.0,,,,10.0,,KIGQ 272155Z AUTO 20014G22KT 10SM CLR 15/05 A3003 RMK AO2  T01450046,,,,,,40.15,,SSW,29.38,29.26,,Clear
KIGQ,02/27/2018 22:15 UTC,30.02,58.1,40.28,51.43,16.11,200.0,21.85,,,,,1.0,,,,10.0,,KIGQ 272215Z AUTO 20014G19KT 10SM CLR 15/05 A3002 RMK AO2  T01450046,,,,,,40.15,,SSW,29.37,29.25,,Clear
KIGQ,02/27/2018 22:35 UTC,30.01,58.1,39.74,50.36,14.97,190.0,20.71,,,,,1.0,,,,10.0,,KIGQ 272235Z AUTO 19013G18KT 10SM CLR 15/04 A3001 RMK AO2  T01450043,,,,,,39.6,,S,29.36,29.26,,Clear
KIGQ,02/27/2018 22:55 UTC,30.0,57.56,40.82,53.54,14.97,200.0,20.71,,,,,1.0,,,,10.0,,KIGQ 272255Z AUTO 20013G18KT 10SM CLR 14/05 A3000 RMK AO2  T01420049,,,,,,40.69,,SSW,29.35,29.22,,Clear
KIGQ,02/27/2018 23:15 UTC,29.99,56.3,40.46,55.25,17.27,190.0,21.85,,,,,1.0,,,,10.0,,KIGQ 272315Z AUTO 19015G19KT 10SM CLR 14/05 A2999 RMK AO2  T01350047,,,,,,40.33,,S,29.34,29.23,,Clear
KIGQ,02/27/2018 23:35 UTC,29.98,55.4,39.92,55.9,14.97,190.0,19.57,,,,,1.0,,,,10.0,,KIGQ 272335Z AUTO 19013G17KT 10SM CLR 13/04 A2998 RMK AO2  T01300044,,,,,,39.79,,S,29.33,29.24,,Clear
KIGQ,02/28/2018 00:00 UTC,29.96,52.88,39.2,59.59,12.66,180.0,20.71,,,,,1.0,,,,10.0,,KIGQ 280000Z AUTO 18011G18KT 10SM CLR 12/04 A2996 RMK AO2  T01160040,,,,,,39.07,,S,29.31,29.26,,Clear
KIGQ,02/28/2018 00:15 UTC,29.97,51.98,39.2,61.59,13.8,180.0,19.57,,,,,1.0,,,,10.0,,KIGQ 280015Z AUTO 18012G17KT 10SM CLR 11/04 A2997 RMK AO2  T01110040,,,,,,39.07,,S,29.32,29.27,,Clear
KIGQ,02/28/2018 00:35 UTC,29.96,51.8,39.2,62.0,12.66,170.0,,,,,,1.0,,,,10.0,,KIGQ 280035Z AUTO 17011KT 10SM CLR 11/04 A2996 RMK AO2  T01100040,,,,,,39.07,,S,29.31,29.26,,Clear
KIGQ,02/28/2018 00:55 UTC,29.96,51.08,39.56,64.57,11.5,180.0,,,,,,1.0,,,,10.0,,KIGQ 280055Z AUTO 18010KT 10SM CLR 11/04 A2996 RMK AO2  T01060042,,,,,,39.44,,S,29.31,29.26,,Clear
KIGQ,02/28/2018 01:15 UTC,29.94,51.08,39.2,63.67,11.5,170.0,,,,,,1.0,,,,10.0,,KIGQ 280115Z AUTO 17010KT 10SM CLR 11/04 A2994 RMK AO2  T01060040,,,,,,39.08,,S,29.29,29.25,,Clear
KIGQ,02/28/2018 01:35 UTC,29.94,50.36,39.02,64.93,10.36,170.0,,,,,,1.0,,,,10.0,,KIGQ 280135Z AUTO 17009KT 10SM CLR 10/04 A2994 RMK AO2  T01020039,,,,,,38.9,,S,29.29,29.26,,Clear
KIGQ,02/28/2018 01:55 UTC,29.94,49.46,38.66,66.21,11.5,180.0,,,,,,1.0,,,,10.0,,KIGQ 280155Z AUTO 18010KT 10SM CLR 10/04 A2994 RMK AO2  T00970037,,,,,,38.54,,S,29.29,29.27,,Clear
KIGQ,02/28/2018 02:15 UTC,29.94,49.1,38.48,66.63,8.05,180.0,,,,,,902.0,1102.0,,,10.0,,KIGQ 280215Z AUTO 18007KT 10SM SCT090 SCT110 10/04 A2994 RMK AO2  T00950036,,,,,,38.36,,S,29.29,29.28,,Partly Cloudy
KIGQ,02/28/2018 02:35 UTC,29.94,48.56,38.3,67.51,6.91,180.0,,,,,,902.0,1103.0,,,10.0,,KIGQ 280235Z AUTO 18006KT 10SM SCT090 BKN110 09/04 A2994 RMK AO2  T00920035,,,11000.0,,,38.18,,S,29.29,29.29,,Mostly Cloudy
KIGQ,02/28/2018 02:55 UTC,29.94,48.2,38.12,67.94,5.75,170.0,,,,,,903.0,,,,10.0,,KIGQ 280255Z AUTO 17005KT 10SM BKN090 09/03 A2994 RMK AO2  T00900034,,,9000.0,,,38.0,,S,29.29,29.29,,Mostly Cloudy
KIGQ,02/28/2018 03:15 UTC,29.94,48.38,38.12,67.49,8.05,180.0,,,,,,903.0,,,,10.0,,KIGQ 280315Z AUTO 18007KT 10SM BKN090 09/03 A2994 RMK AO2  T00910034,,,9000.0,,,38.0,,S,29.29,29.29,,Mostly Cloudy
KIGQ,02/28/2018 03:35 UTC,29.94,47.48,37.94,69.31,8.05,180.0,,,,,,902.0,,,,10.0,,KIGQ 280335Z AUTO 18007KT 10SM SCT090 09/03 A2994 RMK AO2  T00860033,,,,,,37.83,,S,29.29,29.3,,Partly Cloudy
KIGQ,02/28/2018 03:55 UTC,29.94,48.02,38.48,69.38,8.05,190.0,,,,,,902.0,,,,10.0,,KIGQ 280355Z AUTO 19007KT 10SM SCT090 09/04 A2994 RMK AO2  T00890036,,,,,,38.37,,S,29.29,29.29,,Partly Cloudy
KIGQ,02/28/2018 04:15 UTC,29.93,48.38,38.66,68.93,8.05,190.0,,,,,,902.0,,,,10.0,,KIGQ 280415Z AUTO 19007KT 10SM SCT090 09/04 A2993 RMK AO2  T00910037,,,,,,38.55,,S,29.28,29.27,,Partly Cloudy
KIGQ,02/28/2018 04:35 UTC,29.92,48.2,38.3,68.43,8.05,190.0,,,,,,902.0,1102.0,,,10.0,,KIGQ 280435Z AUTO 19007KT 10SM SCT090 SCT110 09/04 A2992 RMK AO2  T00900035,,,,,,38.19,,S,29.27,29.27,,Partly Cloudy
KIGQ,02/28/2018 04:55 UTC,29.92,48.38,38.48,68.45,10.36,190.0,,,,,,1002.0,1102.0,,,10.0,,KIGQ 280455Z AUTO 19009KT 10SM SCT100 SCT110 09/04 A2992 RMK AO2  T00910036,,,,,,38.37,,S,29.27,29.26,,Partly Cloudy
KIGQ,02/28/2018 05:15 UTC,29.91,49.46,38.66,66.21,11.5,200.0,,,,,,1003.0,1203.0,,,10.0,,KIGQ 280515Z AUTO 20010KT 10SM BKN100 BKN120 10/04 A2991 RMK AO2  T00970037,,,10000.0,,,38.54,,SSW,29.26,29.24,,Mostly Cloudy
KIGQ,02/28/2018 05:35 UTC,29.91,50.36,38.66,64.03,11.5,210.0,16.11,,,,,802.0,904.0,,,10.0,,KIGQ 280535Z AUTO 21010G14KT 10SM SCT080 OVC090 10/04 A2991 RMK AO2 T01020037,,,9000.0,,,38.54,,SSW,29.26,29.24,,Overcast
KIGQ,02/28/2018 05:55 UTC,29.9,50.36,38.3,63.13,12.66,200.0,17.27,,,,,903.0,1104.0,,,10.0,,KIGQ 280555Z AUTO 20011G15KT 10SM BKN090 OVC110 10/04 A2990 RMK AO2 T01020035 10118 20080 401600014,53.24,46.4,9000.0,60.8,34.52,38.17,,SSW,29.25,29.23,,Overcast
KIGQ,02/28/2018 06:15 UTC,29.89,51.08,38.66,62.34,12.66,210.0,18.41,,,,,904.0,,,,10.0,,KIGQ 280615Z AUTO 21011G16KT 10SM OVC090 11/04 A2989 RMK AO2  T01060037,,,9000.0,,,38.53,,SSW,29.24,29.21,,Overcast
KIGQ,02/28/2018 06:35 UTC,29.89,51.08,39.02,63.23,13.8,200.0,,,,,,1004.0,,,,10.0,,KIGQ 280635Z AUTO 20012KT 10SM OVC100 11/04 A2989 RMK AO2  T01060039,,,10000.0,,,38.9,,SSW,29.24,29.2,,Overcast
KIGQ,02/28/2018 06:55 UTC,29.89,51.08,38.66,62.34,16.11,210.0,20.71,,,,,1004.0,,,,10.0,,KIGQ 280655Z AUTO 21014G18KT 10SM OVC100 11/04 A2989 RMK AO2  T01060037,,,10000.0,,,38.53,,SSW,29.24,29.21,,Overcast
KIGQ,02/28/2018 07:15 UTC,29.89,50.54,38.66,63.6,16.11,200.0,20.71,,,,,802.0,1103.0,,,10.0,,KIGQ 280715Z AUTO 20014G18KT 10SM SCT080 BKN110 10/04 A2989 RMK AO2 T01030037,,,11000.0,,,38.53,,SSW,29.24,29.21,,Mostly Cloudy
KIGQ,02/28/2018 07:35 UTC,29.88,49.46,40.82,72.02,12.66,210.0,20.71,1.0,1104.0,,,652.0,803.0,,,10.0,,KIGQ 280735Z AUTO 21011G18KT 10SM RA SCT065 BKN080 OVC110 10/05  A2988 RMK AO2 T00970049,,,8000.0,,,40.72,,SSW,29.23,29.16,,Rain
KIGQ,02/28/2018 07:55 UTC,29.87,48.38,41.0,75.5,9.22,190.0,,14.0,,0.01,,804.0,,,,7.0,,KIGQ 280755Z AUTO 19008KT 7SM +RA OVC080 09/05 A2987 RMK AO2 P0001  T00910050,,,8000.0,,,40.91,,S,29.22,29.15,,Heavy Rain
KIGQ,02/28/2018 08:15 UTC,29.88,47.12,41.18,79.72,9.22,210.0,,,,,,752.0,854.0,,,10.0,,KIGQ 280815Z AUTO 21008KT 10SM SCT075 OVC085 08/05 A2988 RMK AO2  T00840051,,,8500.0,,,41.11,,SSW,29.23,29.17,,Overcast
KIGQ,02/28/2018 08:35 UTC,29.87,47.48,40.82,77.55,10.36,220.0,,,,,,653.0,854.0,,,10.0,,KIGQ 280835Z AUTO 22009KT 10SM BKN065 OVC085 09/05 A2987 RMK AO2  T00860049,,,6500.0,,,40.74,,SW,29.22,29.17,,Overcast
KIGQ,02/28/2018 08:55 UTC,29.87,47.48,41.0,78.1,6.91,220.0,,,,,0.01,654.0,,,,10.0,,KIGQ 280855Z AUTO 22006KT 10SM OVC065 09/05 A2987 RMK AO2 60001  T00860050,,,6500.0,,,40.92,,SW,29.22,29.16,,Overcast
KIGQ,02/28/2018 09:15 UTC,29.86,47.84,41.18,77.59,5.75,220.0,,,,,,654.0,,,,10.0,,KIGQ 280915Z AUTO 22005KT 10SM OVC065 09/05 A2986 RMK AO2  T00880051,,,6500.0,,,41.1,,SW,29.21,29.14,,Overcast
KIGQ,02/28/2018 09:35 UTC,29.86,47.48,41.9,80.86,4.61,210.0,,,,,,413.0,654.0,,,10.0,,KIGQ 280935Z AUTO 21004KT 10SM BKN041 OVC065 09/06 A2986 RMK AO2  T00860055,,,4100.0,,,41.83,,SSW,29.21,29.13,,Overcast
KIGQ,02/28/2018 09:55 UTC,29.85,48.02,42.08,79.79,5.75,210.0,,,,,,434.0,,,,10.0,,KIGQ 280955Z AUTO 21005KT 10SM OVC043 09/06 A2985 RMK AO2  T00890056,,,4300.0,,,42.01,,SSW,29.2,29.11,,Overcast
KIGQ,02/28/2018 10:15 UTC,29.85,47.48,42.8,83.71,5.75,200.0,,,,,,434.0,,,,10.0,,KIGQ 281015Z AUTO 20005KT 10SM OVC043 09/06 A2985 RMK AO2  T00860060,,,4300.0,,,42.74,,SSW,29.2,29.09,,Overcast
KIGQ,02/28/2018 10:35 UTC,29.86,47.48,43.16,84.87,8.05,210.0,,,,,,414.0,,,,10.0,,KIGQ 281035Z AUTO 21007KT 10SM OVC041 09/06 A2986 RMK AO2  T00860062,,,4100.0,,,43.11,,SSW,29.21,29.1,,Overcast
KIGQ,02/28/2018 10:55 UTC,29.86,47.66,43.7,86.06,10.36,210.0,,,,,,363.0,414.0,,,10.0,,KIGQ 281055Z AUTO 21009KT 10SM BKN036 OVC041 09/07 A2986 RMK AO2  T00870065,,,3600.0,,,43.65,,SSW,29.21,29.08,,Overcast
KIGQ,02/28/2018 11:15 UTC,29.86,47.84,43.88,86.07,9.22,210.0,,,,,,364.0,,,,10.0,,KIGQ 281115Z AUTO 21008KT 10SM OVC036 09/07 A2986 RMK AO2  T00880066,,,3600.0,,,43.83,,SSW,29.21,29.07,,Overcast
KIGQ,02/28/2018 11:35 UTC,29.86,48.2,43.88,84.92,9.22,220.0,,,,,,364.0,,,,10.0,,KIGQ 281135Z AUTO 22008KT 10SM OVC036 09/07 A2986 RMK AO2  T00900066,,,3600.0,,,43.83,,SW,29.21,29.07,,Overcast
KIGQ,02/28/2018 11:55 UTC,29.85,48.2,44.24,86.09,6.91,210.0,,,,,,384.0,,0.01,0.01,10.0,,KIGQ 281155Z AUTO 21006KT 10SM OVC038 09/07 A2985 RMK AO2 60001  70001 T00900068 10107 20083,51.26,46.94,3800.0,,,44.19,,SSW,29.2,29.05,,Overcast
KIGQ,02/28/2018 12:15 UTC,29.84,48.2,44.6,87.28,9.22,210.0,,,904.0,,,383.0,603.0,,,10.0,,KIGQ 281215Z AUTO 21008KT 10SM BKN038 BKN060 OVC090 09/07 A2984 RMK AO2 T00900070,,,3800.0,,,44.55,,SSW,29.19,29.03,,Overcast
KIGQ,02/28/2018 12:35 UTC,29.85,48.2,44.6,87.28,10.36,210.0,,,904.0,,,382.0,803.0,,,10.0,,KIGQ 281235Z AUTO 21009KT 10SM SCT038 BKN080 OVC090 09/07 A2985 RMK AO2 T00900070,,,8000.0,,,44.55,,SSW,29.2,29.04,,Overcast
KIGQ,02/28/2018 12:55 UTC,29.85,48.38,44.78,87.29,9.22,210.0,,,,,,753.0,904.0,,,10.0,,KIGQ 281255Z AUTO 21008KT 10SM BKN075 OVC090 09/07 A2985 RMK AO2  T00910071,,,7500.0,,,44.74,,SSW,29.2,29.03,,Overcast
KIGQ,02/28/2018 13:15 UTC,29.86,48.74,45.5,88.51,8.05,220.0,,,,,,754.0,,,,10.0,,KIGQ 281315Z AUTO 22007KT 10SM OVC075 09/08 A2986 RMK AO2  T00930075,,,7500.0,,,45.46,,SW,29.21,29.02,,Overcast
KIGQ,02/28/2018 13:35 UTC,29.86,48.74,45.68,89.12,8.05,210.0,,,,,,752.0,,,,10.0,,KIGQ 281335Z AUTO 21007KT 10SM SCT075 09/08 A2986 RMK AO2  T00930076,,,,,,45.64,,SSW,29.21,29.01,,Partly Cloudy
KIGQ,02/28/2018 13:55 UTC,29.86,49.64,46.4,88.56,9.22,210.0,,,,,,1.0,,,,10.0,,KIGQ 281355Z AUTO 21008KT 10SM CLR 10/08 A2986 RMK AO2  T00980080,,,,,,46.36,,SSW,29.21,28.98,,Clear
KIGQ,02/28/2018 14:15 UTC,29.86,50.36,46.58,86.81,10.36,210.0,17.27,,,,,1.0,,,,10.0,,KIGQ 281415Z AUTO 21009G15KT 10SM CLR 10/08 A2986 RMK AO2  T01020081,,,,,,46.54,,SSW,29.21,28.97,,Clear
KIGQ,02/28/2018 14:35 UTC,29.86,51.08,46.94,85.68,10.36,220.0,,,,,,1.0,,,,10.0,,KIGQ 281435Z AUTO 22009KT 10SM CLR 11/08 A2986 RMK AO2  T01060083,,,,,,46.89,,SW,29.21,28.95,,Clear
KIGQ,02/28/2018 14:55 UTC,29.86,51.08,47.12,86.26,9.22,220.0,,,,,,292.0,,,,10.0,,KIGQ 281455Z AUTO 22008KT 10SM SCT029 11/08 A2986 RMK AO2  T01060084,,,,,,47.08,,SW,29.21,28.95,,Partly Cloudy
KIGQ,02/28/2018 15:15 UTC,29.86,52.16,47.3,83.45,8.05,220.0,,,,,,294.0,,,,10.0,,KIGQ 281515Z AUTO 22007KT 10SM OVC029 11/09 A2986 RMK AO2  T01120085,,,2900.0,,,47.25,,SW,29.21,28.93,,Overcast
KIGQ,02/28/2018 15:35 UTC,29.86,52.88,47.66,82.38,11.5,230.0,,,,,,274.0,,,,10.0,,KIGQ 281535Z AUTO 23010KT 10SM OVC027 12/09 A2986 RMK AO2  T01160087,,,2700.0,,,47.6,,SW,29.21,28.91,,Overcast
KIGQ,02/28/2018 15:55 UTC,29.85,53.06,47.84,82.4,10.36,230.0,,,,,,254.0,,,,10.0,,KIGQ 281555Z AUTO 23009KT 10SM OVC025 12/09 A2985 RMK AO2  T01170088,,,2500.0,,,47.79,,SW,29.2,28.9,,Overcast
KIGQ,02/28/2018 16:15 UTC,29.85,53.06,48.2,83.52,10.36,220.0,,,,,,254.0,,,,10.0,,KIGQ 281615Z AUTO 22009KT 10SM OVC025 12/09 A2985 RMK AO2  T01170090,,,2500.0,,,48.15,,SW,29.2,28.89,,Overcast
KIGQ,02/28/2018 16:35 UTC,29.85,53.96,48.74,82.46,9.22,230.0,,,,,,254.0,,,,10.0,,KIGQ 281635Z AUTO 23008KT 10SM OVC025 12/09 A2985 RMK AO2  T01220093,,,2500.0,,,48.69,,SW,29.2,28.86,,Overcast
KIGQ,02/28/2018 16:55 UTC,29.85,54.68,49.1,81.41,9.22,240.0,,,,,,274.0,,,,10.0,,KIGQ 281655Z AUTO 24008KT 10SM OVC027 13/10 A2985 RMK AO2  T01260095,,,2700.0,,,49.05,,WSW,29.2,28.84,,Overcast
KIGQ,02/28/2018 17:15 UTC,29.85,55.4,49.46,80.38,5.75,230.0,,,,,,294.0,,,,10.0,,KIGQ 281715Z AUTO 23005KT 10SM OVC029 13/10 A2985 RMK AO2  T01300097,,,2900.0,,,49.4,,SW,29.2,28.82,,Overcast
KIGQ,02/28/2018 17:35 UTC,29.85,55.76,50.0,80.95,6.91,220.0,,,,,,232.0,294.0,,,10.0,,KIGQ 281735Z AUTO 22006KT 10SM SCT023 OVC029 13/10 A2985 RMK AO2  T01320100,,,2900.0,,,49.95,,SW,29.2,28.8,,Overcast
KIGQ,02/28/2018 17:55 UTC,29.84,55.76,50.0,80.95,9.22,210.0,,,,,,294.0,,,,10.0,,KIGQ 281755Z AUTO 21008KT 10SM OVC029 13/10 A2984 RMK AO2  T01320100 10132 20089,55.76,48.02,2900.0,,,49.95,,SSW,29.19,28.79,,Overcast
KIGQ,02/28/2018 18:15 UTC,29.84,55.94,49.82,79.89,6.91,210.0,,,,,,294.0,,,,10.0,,KIGQ 281815Z AUTO 21006KT 10SM OVC029 13/10 A2984 RMK AO2  T01330099,,,2900.0,,,49.76,,SSW,29.19,28.79,,Overcast
KIGQ,02/28/2018 18:35 UTC,29.83,56.12,50.0,79.9,5.75,220.0,,,,,,294.0,,,,10.0,,KIGQ 281835Z AUTO 22005KT 10SM OVC029 13/10 A2983 RMK AO2  T01340100,,,2900.0,,,49.94,,SW,29.18,28.77,,Overcast
KIGQ,02/28/2018 18:55 UTC,29.83,56.84,50.72,79.96,4.61,220.0,,,,,,294.0,,,,10.0,,KIGQ 281855Z AUTO 22004KT 10SM OVC029 14/10 A2983 RMK AO2  T01380104,,,2900.0,,,50.67,,SW,29.18,28.74,,Overcast
KIGQ,02/28/2018 19:15 UTC,29.83,56.66,50.9,81.02,5.75,200.0,,,,,,222.0,294.0,,,10.0,,KIGQ 281915Z AUTO 20005KT 10SM SCT022 OVC029 14/11 A2983 RMK AO2  T01370105,,,2900.0,,,50.85,,SSW,29.18,28.74,,Overcast
KIGQ,02/28/2018 19:35 UTC,29.82,57.92,50.9,77.43,5.75,230.0,,,,,,242.0,334.0,,,10.0,,KIGQ 281935Z AUTO 23005KT 10SM SCT024 OVC033 14/11 A2982 RMK AO2  T01440105,,,3300.0,,,50.84,,SW,29.17,28.71,,Overcast
KIGQ,02/28/2018 19:55 UTC,29.82,58.1,50.9,76.93,3.44,230.0,,,,,,242.0,334.0,,,10.0,,KIGQ 281955Z AUTO 23003KT 10SM SCT024 OVC033 15/11 A2982 RMK AO2  T01450105,,,3300.0,,,50.84,,SW,29.17,28.71,,Overcast
KIGQ,02/28/2018 20:15 UTC,29.81,58.46,50.9,75.94,0.0,0.0,,,,,,263.0,344.0,,,10.0,,KIGQ 282015Z AUTO 00000KT 10SM BKN026 OVC034 15/11 A2981 RMK AO2  T01470105,,,2600.0,,,50.84,,N,29.16,28.7,,Overcast
KIGQ,02/28/2018 20:35 UTC,29.8,59.18,51.08,74.51,0.0,0.0,,,,,,263.0,344.0,,,10.0,,KIGQ 282035Z AUTO 00000KT 10SM BKN026 OVC034 15/11 A2980 RMK AO2  T01510106,,,2600.0,,,51.02,,N,29.15,28.67,,Overcast
KIGQ,02/28/2018 20:55 UTC,29.8,58.64,49.64,72.01,12.66,20.0,,,384.0,,,283.0,333.0,,,10.0,,KIGQ 282055Z AUTO 02011KT 10SM BKN028 BKN033 OVC038 15/10 A2980 RMK AO2 T01480098,,,2800.0,,,49.57,,NNE,29.15,28.73,,Overcast
KIGQ,02/28/2018 21:15 UTC,29.81,46.04,40.28,80.19,12.66,20.0,,,,,,303.0,384.0,,,10.0,,KIGQ 282115Z AUTO 02011KT 10SM BKN030 OVC038 08/05 A2981 RMK AO2  T00780046,,,3000.0,,,40.21,,NNE,29.16,29.13,,Overcast
KIGQ,02/28/2018 21:35 UTC,29.83,41.18,37.76,87.52,12.66,20.0,,,,,,313.0,384.0,,,10.0,,KIGQ 282135Z AUTO 02011KT 10SM BKN031 OVC038 05/03 A2983 RMK AO2  T00510032,,,3100.0,,,37.71,36.09,NNE,29.18,29.24,,Overcast
KIGQ,02/28/2018 21:55 UTC,29.84,39.38,37.04,91.23,8.05,30.0,16.11,,,,,334.0,,,,10.0,,KIGQ 282155Z AUTO 03007G14KT 10SM OVC033 04/03 A2984 RMK AO2  T00410028,,,3300.0,,,37.0,35.74,NNE,29.19,29.28,,Overcast
KIGQ,02/28/2018 22:15 UTC,29.84,38.84,36.86,92.52,5.75,30.0,,,,,,314.0,,,,7.0,,KIGQ 282215Z AUTO 03005KT 7SM OVC031 04/03 A2984 RMK AO2  T00380027,,,3100.0,,,36.83,,NNE,29.19,29.29,,Overcast
KIGQ,02/28/2018 22:35 UTC,29.84,39.2,37.4,93.19,10.36,40.0,17.27,,,,,334.0,,,,7.0,,KIGQ 282235Z AUTO 04009G15KT 7SM OVC033 04/03 A2984 RMK AO2  T00400030,,,3300.0,,,37.37,34.52,NE,29.19,29.28,,Overcast
KIGQ,02/28/2018 22:55 UTC,29.85,38.66,37.4,95.18,3.44,20.0,,31.0,,,,83.0,354.0,,,5.0,,KIGQ 282255Z AUTO 02003KT 5SM BR BKN008 OVC035 04/03 A2985 RMK AO2  T00370030,,,800.0,,,37.38,,NNE,29.2,29.29,,Mist
KIGQ,02/28/2018 23:15 UTC,29.85,38.3,37.4,96.53,6.91,20.0,,31.0,,,,83.0,354.0,,,5.0,,KIGQ 282315Z AUTO 02006KT 5SM BR BKN008 OVC035 04/03 A2985 RMK AO2  T00350030,,,800.0,,,37.39,,NNE,29.2,29.29,,Mist
KIGQ,02/28/2018 23:35 UTC,29.85,38.66,37.58,95.85,8.05,20.0,,31.0,364.0,,,83.0,273.0,,,4.0,,KIGQ 282335Z AUTO 02007KT 4SM BR BKN008 BKN027 OVC036 04/03 A2985 RMK AO2 T00370031,,,800.0,,,37.56,34.9,NNE,29.2,29.29,,Mist
KIGQ,02/28/2018 23:55 UTC,29.86,38.48,37.58,96.53,9.22,30.0,,31.0,,,,84.0,,,,5.0,,KIGQ 282355Z AUTO 03008KT 5SM BR OVC008 04/03 A2986 RMK AO2  T00360031 10155 20035,59.9,38.3,800.0,,,37.57,34.14,NNE,29.21,29.3,,Mist
