# STATION: KIGQ
# STATION NAME: Lansing Municipal Airport
# LATITUDE: 41.54125
# LONGITUDE: -87.52822
# ELEVATION [ft]: 607
# STATE: IL
Station_ID,Date_Time,altimeter_set_1,air_temp_set_1,dew_point_temperature_set_1,relative_humidity_set_1,wind_speed_set_1,wind_direction_set_1,wind_gust_set_1,weather_cond_code_set_1,cloud_layer_3_code_set_1,precip_accum_one_hour_set_1,precip_accum_three_hour_set_1,cloud_layer_1_code_set_1,cloud_layer_2_code_set_1,precip_accum_six_hour_set_1,precip_accum_24_hour_set_1,visibility_set_1,metar_remark_set_1,metar_set_1,air_temp_high_6_hour_set_1,air_temp_low_6_hour_set_1,ceiling_set_1,air_temp_high_24_hour_set_1,air_temp_low_24_hour_set_1,dew_point_temperature_set_1d,wind_chill_set_1d,wind_cardinal_direction_set_1d,pressure_set_1d,sea_level_pressure_set_1d,heat_index_set_1d,weather_condition_set_1d
,,INHG,Fahrenheit,Fahrenheit,%,Miles/hour,Degrees,Miles/hour,code,code,Inches,Inches,code,code,Inches,Inches,Statute miles,text,text,Fahrenheit,Fahrenheit,Feet,Fahrenheit,Fahrenheit,Fahrenheit,Fahrenheit,Code,INHG,INHG,Fahrenheit,Code
KIGQ,03/01/2018 00:15 UTC,29.85,38.12,37.4,97.21,10.36,40.0,,31.0,,,,64.0,,,,5.0,,KIGQ 010015Z AUTO 04009KT 5SM BR OVC006 03/03 A2985 RMK AO2  T00340030,,,600.0,,,37.39,33.23,NE,29.2,29.29,,Mist
KIGQ,03/01/2018 00:35 UTC,29.86,37.58,37.4,99.29,8.05,20.0,,31.0,,,,64.0,,,,4.0,,KIGQ 010035Z AUTO 02007KT 4SM BR OVC006 03/03 A2986 RMK AO2  T00310030,,,600.0,,,37.4,33.63,NNE,29.21,29.31,,Mist
KIGQ,03/01/2018 00:55 UTC,29.85,37.4,36.86,97.89,11.5,30.0,18.41,31.0,,,,64.0,,,,5.0,,KIGQ 010055Z AUTO 03010G16KT 5SM BR OVC006 03/03 A2985 RMK AO2  T00300027,,,600.0,,,36.85,31.92,NNE,29.2,29.31,,Mist
KIGQ,03/01/2018 01:15 UTC,29.85,36.86,36.68,99.29,11.5,20.0,,31.0,,,,44.0,,,,5.0,,KIGQ 010115Z AUTO 02010KT 5SM BR OVC004 03/03 A2985 RMK AO2  T00270026,,,400.0,,,36.68,31.27,NNE,29.2,29.32,,Mist
KIGQ,03/01/2018 01:35 UTC,29.85,36.68,36.5,99.29,10.36,20.0,,31.0,,,,44.0,,,,5.0,,KIGQ 010135Z AUTO 02009KT 5SM BR OVC004 03/03 A2985 RMK AO2  T00260025,,,400.0,,,36.5,31.5,NNE,29.2,29.32,,Mist
KIGQ,03/01/2018 01:55 UTC,29.86,36.68,36.68,100.0,8.05,30.0,,14.0,,,,44.0,,,,4.0,,KIGQ 010155Z AUTO 03007KT 4SM +RA OVC004 03/03 A2986 RMK AO2  T00260026,,,400.0,,,36.68,32.57,NNE,29.21,29.33,,Heavy Rain
KIGQ,03/01/2018 02:15 UTC,29.85,36.68,36.68,100.0,9.22,20.0,,13.0,,0.02,,44.0,,,,4.0,,KIGQ 010215Z AUTO 02008KT 4SM -RA OVC004 03/03 A2985 RMK AO2 P0002  T00260026,,,400.0,,,36.68,32.0,NNE,29.2,29.32,,Light Rain
KIGQ,03/01/2018 02:35 UTC,29.85,36.5,36.5,100.0,6.91,10.0,,13.0,,0.03,,44.0,,,,3.0,,KIGQ 010235Z AUTO 01006KT 3SM -RA OVC004 03/03 A2985 RMK AO2 P0003  T00250025,,,400.0,,,36.5,,N,29.2,29.32,,Light Rain
KIGQ,03/01/2018 02:55 UTC,29.85,36.32,36.32,100.0,8.05,10.0,,17.0,,0.03,0.04,44.0,,,,4.0,,KIGQ 010255Z AUTO 01007KT 4SM -DZ OVC004 02/02 A2985 RMK AO2 P0003  60004 T00240024,,,400.0,,,36.32,32.15,N,29.2,29.33,,Light Drizzle
KIGQ,03/01/2018 03:15 UTC,29.86,35.96,35.96,100.0,0.0,0.0,,2.0,,,,44.0,,,,3.0,,KIGQ 010315Z AUTO 00000KT 3SM DZ OVC004 02/02 A2986 RMK AO2  T00220022,,,400.0,,,35.96,,N,29.21,29.35,,Drizzle
KIGQ,03/01/2018 03:35 UTC,29.85,36.14,36.14,100.0,6.91,20.0,,1.0,,0.03,,44.0,,,,2.0,,KIGQ 010335Z AUTO 02006KT 2SM RA OVC004 02/02 A2985 RMK AO2 P0003  T00230023,,,400.0,,,36.14,,NNE,29.2,29.33,,Rain
KIGQ,03/01/2018 03:55 UTC,29.85,36.68,36.68,100.0,6.91,20.0,,17.0,,0.03,,44.0,,,,4.0,,KIGQ 010355Z AUTO 02006KT 4SM -DZ OVC004 03/03 A2985 RMK AO2 P0003  T00260026,,,400.0,,,36.68,,NNE,29.2,29.32,,Light Drizzle
KIGQ,03/01/2018 04:15 UTC,29.83,36.86,36.86,100.0,9.22,20.0,,31.0,,,,44.0,,,,4.0,,KIGQ 010415Z AUTO 02008KT 4SM BR OVC004 03/03 A2983 RMK AO2  T00270027,,,400.0,,,36.86,32.22,NNE,29.18,29.29,,Mist
KIGQ,03/01/2018 04:35 UTC,29.82,37.04,37.04,100.0,5.75,50.0,,17.0,504.0,,,43.0,123.0,,,4.0,,KIGQ 010435Z AUTO 05005KT 4SM -DZ BKN004 BKN012 OVC050 03/03 A2982 RMK AO2 T00280028,,,400.0,,,37.04,,NE,29.17,29.28,,Light Drizzle
KIGQ,03/01/2018 04:55 UTC,29.82,37.04,37.04,100.0,9.22,40.0,,31.0,504.0,,,43.0,123.0,,,4.0,,KIGQ 010455Z AUTO 04008KT 4SM BR BKN004 BKN012 OVC050 03/03 A2982 RMK AO2 LTG DSNT SW T00280028,,,400.0,,,37.04,32.43,NE,29.17,29.28,,Mist
KIGQ,03/01/2018 05:15 UTC,29.82,37.4,37.4,100.0,4.61,360.0,,,,,,62.0,124.0,,,7.0,,KIGQ 010515Z AUTO 36004KT 7SM SCT006 OVC012 03/03 A2982 RMK AO2  T00300030,,,1200.0,,,37.4,,N,29.17,29.27,,Overcast
KIGQ,03/01/2018 05:35 UTC,29.82,37.76,37.76,100.0,4.61,10.0,,31.0,,,,62.0,144.0,,,4.0,,KIGQ 010535Z AUTO 01004KT 4SM BR SCT006 OVC014 03/03 A2982 RMK AO2  T00320032,,,1400.0,,,37.76,,N,29.17,29.26,,Mist
KIGQ,03/01/2018 05:55 UTC,29.81,37.04,37.04,100.0,6.91,10.0,,31.0,,,,43.0,144.0,0.07,,5.0,,KIGQ 010555Z AUTO 01006KT 5SM BR BKN004 OVC014 03/03 A2981 RMK AO2  60007 T00280028 10036 20022 401550022,38.48,35.96,400.0,59.9,35.96,37.04,,N,29.16,29.27,,Mist
KIGQ,03/01/2018 06:15 UTC,29.81,36.86,36.86,100.0,4.61,30.0,,31.0,,,,43.0,144.0,,,5.0,,KIGQ 010615Z AUTO 03004KT 5SM BR BKN004 OVC014 03/03 A2981 RMK AO2  T00270027,,,400.0,,,36.86,,NNE,29.16,29.27,,Mist
KIGQ,03/01/2018 06:35 UTC,29.81,37.04,37.04,100.0,4.61,360.0,,,,,,42.0,124.0,,,7.0,,KIGQ 010635Z AUTO 36004KT 7SM SCT004 OVC012 03/03 A2981 RMK AO2  T00280028,,,1200.0,,,37.04,,N,29.16,29.27,,Overcast
KIGQ,03/01/2018 06:55 UTC,29.82,37.4,37.4,100.0,5.75,10.0,,,,,,124.0,,,,7.0,,KIGQ 010655Z AUTO 01005KT 7SM OVC012 03/03 A2982 RMK AO2  T00300030,,,1200.0,,,37.4,,N,29.17,29.27,,Overcast
KIGQ,03/01/2018 07:15 UTC,29.81,37.58,37.58,100.0,6.91,20.0,,17.0,,,,62.0,124.0,,,10.0,,KIGQ 010715Z AUTO 02006KT 10SM -DZ SCT006 OVC012 03/03 A2981 RMK AO2 T00310031,,,1200.0,,,37.58,,NNE,29.16,29.25,,Light Drizzle
KIGQ,03/01/2018 07:35 UTC,29.78,37.58,37.58,100.0,3.44,20.0,,,,,,62.0,104.0,,,7.0,,KIGQ 010735Z AUTO 02003KT 7SM SCT006 OVC010 03/03 A2978 RMK AO2  T00310031,,,1000.0,,,37.58,,NNE,29.13,29.22,,Overcast
KIGQ,03/01/2018 07:55 UTC,29.8,37.94,37.94,100.0,0.0,0.0,,,,,,104.0,,,,10.0,,KIGQ 010755Z AUTO 00000KT 10SM OVC010 03/03 A2980 RMK AO2  T00330033,,,1000.0,,,37.94,,N,29.15,29.23,,Overcast
KIGQ,03/01/2018 08:15 UTC,29.76,37.94,37.94,100.0,6.91,30.0,,14.0,,,,104.0,,,,7.0,,KIGQ 010815Z AUTO 03006KT 7SM +RA OVC010 03/03 A2976 RMK AO2  T00330033,,,1000.0,,,37.94,,NNE,29.11,29.19,,Heavy Rain
KIGQ,03/01/2018 08:35 UTC,29.76,37.4,37.4,100.0,6.91,20.0,,1.0,,0.04,,84.0,,,,4.0,,KIGQ 010835Z AUTO 02006KT 4SM RA OVC008 03/03 A2976 RMK AO2 P0004  T00300030,,,800.0,,,37.4,,NNE,29.11,29.21,,Rain
KIGQ,03/01/2018 08:55 UTC,29.73,37.4,37.4,100.0,10.36,30.0,,17.0,,0.04,0.04,64.0,,,,4.0,,KIGQ 010855Z AUTO 03009KT 4SM -DZ OVC006 03/03 A2973 RMK AO2 P0004  60004 T00300030,,,600.0,,,37.4,32.37,NNE,29.08,29.18,,Light Drizzle
KIGQ,03/01/2018 09:15 UTC,29.73,37.4,37.4,100.0,11.5,40.0,,31.0,,,,64.0,,,,4.0,,KIGQ 010915Z AUTO 04010KT 4SM BR OVC006 03/03 A2973 RMK AO2  T00300030,,,600.0,,,37.4,31.92,NE,29.08,29.18,,Mist
KIGQ,03/01/2018 09:35 UTC,29.72,37.76,37.76,100.0,11.5,40.0,18.41,31.0,,,,64.0,,,,5.0,,KIGQ 010935Z AUTO 04010G16KT 5SM BR OVC006 03/03 A2972 RMK AO2  T00320032,,,600.0,,,37.76,32.35,NE,29.07,29.16,,Mist
KIGQ,03/01/2018 09:55 UTC,29.72,37.94,37.94,100.0,9.22,30.0,,,,,,84.0,,,,7.0,,KIGQ 010955Z AUTO 03008KT 7SM OVC008 03/03 A2972 RMK AO2  T00330033,,,800.0,,,37.94,33.5,NNE,29.07,29.15,,Overcast
KIGQ,03/01/2018 10:15 UTC,29.71,38.12,38.12,100.0,8.05,20.0,,1.0,,,,64.0,,,,5.0,,KIGQ 011015Z AUTO 02007KT 5SM RA OVC006 03/03 A2971 RMK AO2  T00340034,,,600.0,,,38.12,34.26,NNE,29.06,29.14,,Rain
KIGQ,03/01/2018 10:35 UTC,29.73,38.84,38.84,100.0,6.91,20.0,,13.0,,,,44.0,,,,3.0,,KIGQ 011035Z AUTO 02006KT 3SM -RA OVC004 04/04 A2973 RMK AO2  T00380038,,,400.0,,,38.84,,NNE,29.08,29.14,,Light Rain
KIGQ,03/01/2018 10:55 UTC,29.72,39.2,39.2,100.0,6.91,20.0,,18.0,,,,44.0,,,,2.0,,KIGQ 011055Z AUTO 02006KT 2SM +DZ OVC004 04/04 A2972 RMK AO2  T00400040,,,400.0,,,39.2,,NNE,29.07,29.12,,Heavy Drizzle
KIGQ,03/01/2018 11:15 UTC,29.73,38.66,38.66,100.0,6.91,10.0,,1.0,,0.01,,44.0,,,,1.75,,KIGQ 011115Z AUTO 01006KT 1 3/4SM RA OVC004 04/04 A2973 RMK AO2  P0001 T00370037,,,400.0,,,38.66,,N,29.08,29.14,,Rain
KIGQ,03/01/2018 11:35 UTC,29.72,39.02,39.02,100.0,8.05,360.0,,1.0,,0.04,,44.0,,,,1.75,,KIGQ 011135Z AUTO 36007KT 1 3/4SM RA OVC004 04/04 A2972 RMK AO2  P0004 T00390039,,,400.0,,,39.02,35.32,N,29.07,29.12,,Rain
KIGQ,03/01/2018 11:55 UTC,29.73,37.4,37.4,100.0,13.8,360.0,19.57,41.0,,0.11,,44.0,,0.15,0.22,1.5,,KIGQ 011155Z AUTO 36012G17KT 1 1/2SM UP OVC004 03/03 A2973 RMK AO2  P0011 60015 70022 T00300030 10040 20027,39.2,36.86,400.0,,,37.4,31.12,N,29.08,29.18,,Unknown Precip
KIGQ,03/01/2018 12:15 UTC,29.74,37.04,37.04,100.0,14.97,10.0,23.02,1.0,,0.03,,44.0,,,,4.0,,KIGQ 011215Z AUTO 01013G20KT 4SM RA OVC004 03/03 A2974 RMK AO2  P0003 T00280028,,,400.0,,,37.04,30.31,N,29.09,29.2,,Rain
KIGQ,03/01/2018 12:35 UTC,29.72,36.86,36.86,100.0,13.8,10.0,21.85,1.0,,0.07,,44.0,,,,3.0,,KIGQ 011235Z AUTO 01012G19KT 3SM RA OVC004 03/03 A2972 RMK AO2  P0007 T00270027,,,400.0,,,36.86,30.45,N,29.07,29.18,,Rain
KIGQ,03/01/2018 12:55 UTC,29.73,37.04,37.04,100.0,13.8,20.0,27.63,13.0,,0.09,,44.0,,,,5.0,,KIGQ 011255Z AUTO 02012G24KT 5SM -RA OVC004 03/03 A2973 RMK AO2  P0009 T00280028,,,400.0,,,37.04,30.68,NNE,29.08,29.19,,Light Rain
KIGQ,03/01/2018 13:15 UTC,29.73,37.4,37.4,100.0,14.97,20.0,21.85,13.0,,0.02,,44.0,,,,2.0,,KIGQ 011315Z AUTO 02013G19KT 2SM -RA OVC004 03/03 A2973 RMK AO2  P0002 T00300030,,,400.0,,,37.4,30.75,NNE,29.08,29.18,,Light Rain
KIGQ,03/01/2018 13:35 UTC,29.75,37.4,37.4,100.0,13.8,360.0,20.71,1.0,,0.05,,44.0,,,,2.5,,KIGQ 011335Z AUTO 36012G18KT 2 1/2SM RA OVC004 03/03 A2975 RMK AO2  P0005 T00300030,,,400.0,,,37.4,31.12,N,29.1,29.2,,Rain
KIGQ,03/01/2018 13:55 UTC,29.76,36.68,36.68,100.0,20.71,10.0,28.77,1.0,,0.07,,44.0,,,,3.0,,KIGQ 011355Z AUTO 01018G25KT 3SM RA OVC004 03/03 A2976 RMK AO2  P0007 T00260026,,,400.0,,,36.68,28.34,N,29.11,29.23,,Rain
KIGQ,03/01/2018 14:15 UTC,29.78,36.5,36.5,100.0,13.8,10.0,25.32,1.0,,0.01,,44.0,,,,4.0,,KIGQ 011415Z AUTO 01012G22KT 4SM RA OVC004 03/03 A2978 RMK AO2  P0001 T00250025,,,400.0,,,36.5,30.01,N,29.13,29.25,,Rain
KIGQ,03/01/2018 14:35 UTC,29.78,36.5,36.5,100.0,16.11,10.0,24.16,1.0,,0.03,,44.0,,,,3.0,,KIGQ 011435Z AUTO 01014G21KT 3SM RA OVC004 03/03 A2978 RMK AO2  P0003 T00250025,,,400.0,,,36.5,29.3,N,29.13,29.25,,Rain
KIGQ,03/01/2018 14:55 UTC,29.79,36.14,36.14,100.0,12.66,20.0,26.46,3.0,,0.06,0.23,44.0,,,,2.5,,KIGQ 011455Z AUTO 02011G23KT 2 1/2SM SN OVC004 02/02 A2979 RMK AO2  P0006 60023 T00230023,,,400.0,,,36.14,29.97,NNE,29.14,29.27,,Snow
KIGQ,03/01/2018 15:15 UTC,29.8,36.5,36.5,100.0,14.97,10.0,25.32,13.0,,0.02,,64.0,,,,3.0,,KIGQ 011515Z AUTO 01013G22KT 3SM -RA OVC006 03/03 A2980 RMK AO2  P0002 T00250025,,,600.0,,,36.5,29.64,N,29.15,29.27,,Light Rain
KIGQ,03/01/2018 15:35 UTC,29.8,36.5,36.5,100.0,12.66,30.0,17.27,1.0,,0.06,,64.0,,,,3.0,,KIGQ 011535Z AUTO 03011G15KT 3SM RA OVC006 03/03 A2980 RMK AO2  P0006 T00250025,,,600.0,,,36.5,30.4,NNE,29.15,29.27,,Rain
KIGQ,03/01/2018 15:55 UTC,29.81,36.68,36.68,100.0,13.8,30.0,,13.0,,0.08,,64.0,,,,5.0,,KIGQ 011555Z AUTO 03012KT 5SM -RA OVC006 03/03 A2981 RMK AO2 P0008  T00260026,,,600.0,,,36.68,30.23,NNE,29.16,29.28,,Light Rain
KIGQ,03/01/2018 16:15 UTC,29.82,36.5,36.5,100.0,10.36,360.0,20.71,13.0,,,,64.0,,,,5.0,,KIGQ 011615Z AUTO 36009G18KT 5SM -RA OVC006 03/03 A2982 RMK AO2  T00250025,,,600.0,,,36.5,31.29,N,29.17,29.29,,Light Rain
KIGQ,03/01/2018 16:35 UTC,29.83,36.5,36.5,100.0,12.66,360.0,16.11,13.0,,,,64.0,,,,7.0,,KIGQ 011635Z AUTO 36011G14KT 7SM -RA OVC006 03/03 A2983 RMK AO2  T00250025,,,600.0,,,36.5,30.4,N,29.18,29.3,,Light Rain
KIGQ,03/01/2018 16:55 UTC,29.84,36.5,36.5,100.0,12.66,360.0,16.11,,,,,64.0,,,,7.0,,KIGQ 011655Z AUTO 36011G14KT 7SM OVC006 03/03 A2984 RMK AO2  T00250025,,,600.0,,,36.5,30.4,N,29.19,29.31,,Overcast
KIGQ,03/01/2018 17:15 UTC,29.86,36.5,36.14,98.59,12.66,360.0,24.16,,,,,64.0,,,,10.0,,KIGQ 011715Z AUTO 36011G21KT 10SM OVC006 03/02 A2986 RMK AO2  T00250023,,,600.0,,,36.14,30.4,N,29.21,29.34,,Overcast
KIGQ,03/01/2018 17:35 UTC,29.87,36.86,35.96,96.5,14.97,350.0,23.02,,,,,104.0,,,,10.0,,KIGQ 011735Z AUTO 35013G20KT 10SM OVC010 03/02 A2987 RMK AO2  T00270022,,,1000.0,,,35.94,30.09,N,29.22,29.35,,Overcast
KIGQ,03/01/2018 17:55 UTC,29.87,36.5,35.24,95.13,12.66,350.0,21.85,,,,,104.0,,0.31,,10.0,,KIGQ 011755Z AUTO 35011G19KT 10SM OVC010 03/02 A2987 RMK AO2 60031  T00250018 10030 20023,37.4,36.14,1000.0,,,35.22,30.4,N,29.22,29.37,,Overcast
KIGQ,03/01/2018 18:15 UTC,29.87,36.5,34.88,93.77,14.97,350.0,20.71,,,,,124.0,,,,10.0,,KIGQ 011815Z AUTO 35013G18KT 10SM OVC012 03/02 A2987 RMK AO2  T00250016,,,1200.0,,,34.85,29.64,N,29.22,29.37,,Overcast
KIGQ,03/01/2018 18:35 UTC,29.88,36.68,35.06,93.78,12.66,360.0,24.16,,,,,124.0,,,,10.0,,KIGQ 011835Z AUTO 36011G21KT 10SM OVC012 03/02 A2988 RMK AO2  T00260017,,,1200.0,,,35.03,30.62,N,29.23,29.38,,Overcast
KIGQ,03/01/2018 18:55 UTC,29.89,37.76,35.96,93.14,11.5,350.0,21.85,,,,,124.0,,,,10.0,,KIGQ 011855Z AUTO 35010G19KT 10SM OVC012 03/02 A2989 RMK AO2  T00320022,,,1200.0,,,35.93,32.35,N,29.24,29.37,,Overcast
KIGQ,03/01/2018 19:15 UTC,29.9,37.58,35.24,91.16,13.8,360.0,21.85,,,,,144.0,,,,10.0,,KIGQ 011915Z AUTO 36012G19KT 10SM OVC014 03/02 A2990 RMK AO2  T00310018,,,1400.0,,,35.2,31.34,N,29.25,29.39,,Overcast
KIGQ,03/01/2018 19:35 UTC,29.92,36.86,34.7,91.79,11.5,350.0,26.46,,,,,124.0,,,,10.0,,KIGQ 011935Z AUTO 35010G23KT 10SM OVC012 03/02 A2992 RMK AO2  T00270015,,,1200.0,,,34.67,31.27,N,29.27,29.43,,Overcast
KIGQ,03/01/2018 19:55 UTC,29.94,35.96,33.8,91.76,16.11,360.0,25.32,,,,,123.0,194.0,,,10.0,,KIGQ 011955Z AUTO 36014G22KT 10SM BKN012 OVC019 02/01 A2994 RMK AO2 T00220010,,,1200.0,,,33.77,28.63,N,29.29,29.47,,Overcast
KIGQ,03/01/2018 20:15 UTC,29.95,36.32,33.62,89.81,14.97,10.0,21.85,,,,,123.0,194.0,,,10.0,,KIGQ 012015Z AUTO 01013G19KT 10SM BKN012 OVC019 02/01 A2995 RMK AO2 T00240009,,,1200.0,,,33.58,29.42,N,29.3,29.48,,Overcast
KIGQ,03/01/2018 20:35 UTC,29.96,36.32,33.26,88.52,14.97,360.0,26.46,,,,,123.0,214.0,,,10.0,,KIGQ 012035Z AUTO 36013G23KT 10SM BKN012 OVC021 02/01 A2996 RMK AO2 T00240007,,,1200.0,,,33.21,29.42,N,29.31,29.5,,Overcast
KIGQ,03/01/2018 20:55 UTC,29.98,36.14,33.26,89.16,14.97,360.0,25.32,,,,,123.0,214.0,,,10.0,,KIGQ 012055Z AUTO 36013G22KT 10SM BKN012 OVC021 02/01 A2998 RMK AO2 T00230007,,,1200.0,,,33.22,29.2,N,29.33,29.52,,Overcast
KIGQ,03/01/2018 21:15 UTC,30.01,36.14,32.72,87.24,18.41,350.0,26.46,,,,,123.0,264.0,,,10.0,,KIGQ 012115Z AUTO 35016G23KT 10SM BKN012 OVC026 02/00 A3001 RMK AO2 T00230004,,,1200.0,,,32.67,28.22,N,29.36,29.56,,Overcast
KIGQ,03/01/2018 21:35 UTC,30.02,35.96,32.0,85.35,11.5,360.0,21.85,,904.0,,,122.0,303.0,,,10.0,,KIGQ 012135Z AUTO 36010G19KT 10SM SCT012 BKN030 OVC090 02/00 A3002 RMK AO2 T00220000,,,3000.0,,,31.94,30.18,N,29.37,29.58,,Overcast
KIGQ,03/01/2018 21:55 UTC,30.03,35.6,31.1,83.49,16.11,10.0,20.71,,,,,322.0,904.0,,,10.0,,KIGQ 012155Z AUTO 01014G18KT 10SM SCT032 OVC090 02/00 A3003 RMK AO2 T00201005,,,9000.0,,,31.03,28.19,N,29.38,29.61,,Overcast
KIGQ,03/01/2018 22:15 UTC,30.04,36.5,30.92,79.98,14.97,20.0,20.71,,,,,1002.0,,,,10.0,,KIGQ 012215Z AUTO 02013G18KT 10SM SCT100 03/M01 A3004 RMK AO2  T00251006,,,,,,30.84,29.64,NNE,29.39,29.61,,Partly Cloudy
KIGQ,03/01/2018 22:35 UTC,30.05,36.86,30.56,77.7,9.22,20.0,,,,,,802.0,903.0,,,10.0,,KIGQ 012235Z AUTO 02008KT 10SM SCT080 BKN090 03/M01 A3005 RMK AO2  T00271008,,,9000.0,,,30.47,32.22,NNE,29.4,29.63,,Mostly Cloudy
KIGQ,03/01/2018 22:55 UTC,30.06,36.14,30.02,78.21,6.91,20.0,,,,,,802.0,903.0,,,10.0,,KIGQ 012255Z AUTO 02006KT 10SM SCT080 BKN090 02/M01 A3006 RMK AO2  T00231011,,,9000.0,,,29.93,,NNE,29.41,29.65,,Mostly Cloudy
KIGQ,03/01/2018 23:15 UTC,30.07,36.32,30.74,79.96,4.61,10.0,,,,,,903.0,,,,10.0,,KIGQ 012315Z AUTO 01004KT 10SM BKN090 02/M01 A3007 RMK AO2  T00241007,,,9000.0,,,30.66,,N,29.42,29.65,,Mostly Cloudy
KIGQ,03/01/2018 23:35 UTC,30.08,35.78,31.1,82.89,10.36,20.0,16.11,,,,,903.0,,,,10.0,,KIGQ 012335Z AUTO 02009G14KT 10SM BKN090 02/00 A3008 RMK AO2  T00211005,,,9000.0,,,31.03,30.43,NNE,29.43,29.66,,Mostly Cloudy
KIGQ,03/01/2018 23:55 UTC,30.09,35.24,31.28,85.31,9.22,20.0,,,,,,803.0,,,,10.0,,KIGQ 012355Z AUTO 02008KT 10SM BKN080 02/00 A3009 RMK AO2  T00181004 10032 20018,37.76,35.24,8000.0,,,31.22,30.29,NNE,29.44,29.67,,Mostly Cloudy
KIGQ,03/02/2018 00:15 UTC,30.1,34.52,31.28,87.79,8.05,30.0,,,,,,802.0,,,,10.0,,KIGQ 020015Z AUTO 03007KT 10SM SCT080 01/00 A3010 RMK AO2  T00141004,,,,,,31.23,30.04,NNE,29.45,29.68,,Partly Cloudy
KIGQ,03/02/2018 00:35 UTC,30.11,34.7,31.1,86.53,5.75,10.0,,,,,,702.0,,,,10.0,,KIGQ 020035Z AUTO 01005KT 10SM SCT070 02/00 A3011 RMK AO2  T00151005,,,,,,31.04,,N,29.46,29.69,,Partly Cloudy
KIGQ,03/02/2018 00:55 UTC,30.13,34.52,30.92,86.52,4.61,10.0,,,,,,702.0,,,,10.0,,KIGQ 020055Z AUTO 01004KT 10SM SCT070 01/M01 A3013 RMK AO2  T00141006,,,,,,30.86,,N,29.47,29.71,,Partly Cloudy
KIGQ,03/02/2018 01:15 UTC,30.13,34.34,31.1,87.78,4.61,360.0,,,,,,703.0,,,,10.0,,KIGQ 020115Z AUTO 36004KT 10SM BKN070 01/00 A3013 RMK AO2  T00131005,,,7000.0,,,31.05,,N,29.47,29.71,,Mostly Cloudy
KIGQ,03/02/2018 01:35 UTC,30.14,34.16,30.92,87.77,5.75,360.0,,,,,,702.0,,,,10.0,,KIGQ 020135Z AUTO 36005KT 10SM SCT070 01/M01 A3014 RMK AO2  T00121006,,,,,,30.87,,N,29.48,29.72,,Partly Cloudy
KIGQ,03/02/2018 01:55 UTC,30.15,33.8,30.92,89.04,0.0,0.0,,,,,,1.0,,,,10.0,,KIGQ 020155Z AUTO 00000KT 10SM CLR 01/M01 A3015 RMK AO2  T00101006,,,,,,30.87,,N,29.49,29.73,,Clear
KIGQ,03/02/2018 02:15 UTC,30.15,33.8,30.92,89.04,0.0,0.0,,,,,,1.0,,,,10.0,,KIGQ 020215Z AUTO 00000KT 10SM CLR 01/M01 A3015 RMK AO2  T00101006,,,,,,30.87,,N,29.49,29.73,,Clear
KIGQ,03/02/2018 02:35 UTC,30.16,33.08,30.92,91.65,0.0,0.0,,,,,,1.0,,,,10.0,,KIGQ 020235Z AUTO 00000KT 10SM CLR 01/M01 A3016 RMK AO2  T00061006,,,,,,30.88,,N,29.5,29.75,,Clear
KIGQ,03/02/2018 02:55 UTC,30.17,32.9,30.92,92.32,0.0,0.0,,,,,,1.0,,,,10.0,,KIGQ 020255Z AUTO 00000KT 10SM CLR 01/M01 A3017 RMK AO2  T00051006,,,,,,30.89,,N,29.51,29.76,,Clear
KIGQ,03/02/2018 03:15 UTC,30.18,32.0,30.74,95.03,0.0,0.0,,,,,,1.0,,,,10.0,,KIGQ 020315Z AUTO 00000KT 10SM CLR 00/M01 A3018 RMK AO2  T00001007,,,,,,30.72,,N,29.52,29.78,,Clear
KIGQ,03/02/2018 03:35 UTC,30.18,32.0,30.92,95.72,0.0,0.0,,,,,,602.0,,,,10.0,,KIGQ 020335Z AUTO 00000KT 10SM SCT060 00/M01 A3018 RMK AO2  T00001006,,,,,,30.9,,N,29.52,29.78,,Partly Cloudy
KIGQ,03/02/2018 03:55 UTC,30.19,32.0,31.1,96.43,0.0,0.0,,,,,,602.0,752.0,,,10.0,,KIGQ 020355Z AUTO 00000KT 10SM SCT060 SCT075 00/00 A3019 RMK AO2  T00001005,,,,,,31.09,,N,29.53,29.78,,Partly Cloudy
KIGQ,03/02/2018 04:15 UTC,30.2,32.36,31.64,97.14,0.0,0.0,,,,,,602.0,752.0,,,10.0,,KIGQ 020415Z AUTO 00000KT 10SM SCT060 SCT075 00/00 A3020 RMK AO2  T00021002,,,,,,31.63,,N,29.54,29.78,,Partly Cloudy
KIGQ,03/02/2018 04:35 UTC,30.21,32.36,31.82,97.84,3.44,10.0,,,,,,602.0,752.0,,,10.0,,KIGQ 020435Z AUTO 01003KT 10SM SCT060 SCT075 00/00 A3021 RMK AO2  T00021001,,,,,,31.81,,N,29.55,29.79,,Partly Cloudy
KIGQ,03/02/2018 04:55 UTC,30.22,33.26,32.18,95.75,5.75,360.0,,,,,,1.0,,,,10.0,,KIGQ 020455Z AUTO 36005KT 10SM CLR 01/00 A3022 RMK AO2  T00070001,,,,,,32.16,,N,29.56,29.79,,Clear
KIGQ,03/02/2018 05:15 UTC,30.24,33.62,32.54,95.76,3.44,360.0,,,,,,102.0,,,,10.0,,KIGQ 020515Z AUTO 36003KT 10SM SCT010 01/00 A3024 RMK AO2  T00090003,,,,,,32.52,,N,29.58,29.8,,Partly Cloudy
KIGQ,03/02/2018 05:35 UTC,30.25,33.98,32.9,95.76,6.91,360.0,,,,,,103.0,,,,10.0,,KIGQ 020535Z AUTO 36006KT 10SM BKN010 01/01 A3025 RMK AO2  T00110005,,,1000.0,,,32.88,,N,29.59,29.8,,Mostly Cloudy
KIGQ,03/02/2018 05:55 UTC,30.25,34.16,32.54,93.71,4.61,350.0,,,,,,124.0,,,,10.0,,KIGQ 020555Z AUTO 35004KT 10SM OVC012 01/00 A3025 RMK AO2  T00120003 10018 21002 400401002,35.24,31.64,1200.0,39.2,31.64,32.51,,N,29.59,29.81,,Overcast
KIGQ,03/02/2018 06:15 UTC,30.26,33.62,32.0,93.69,4.61,360.0,,,,,,122.0,,,,10.0,,KIGQ 020615Z AUTO 36004KT 10SM SCT012 01/00 A3026 RMK AO2  T00090000,,,,,,31.97,,N,29.6,29.83,,Partly Cloudy
KIGQ,03/02/2018 06:35 UTC,30.27,33.44,32.0,94.37,3.44,350.0,,,,,,183.0,,,,10.0,,KIGQ 020635Z AUTO 35003KT 10SM BKN018 01/00 A3027 RMK AO2  T00080000,,,1800.0,,,31.98,,N,29.61,29.84,,Mostly Cloudy
KIGQ,03/02/2018 06:55 UTC,30.28,33.8,31.64,91.68,5.75,360.0,,,,,,184.0,,,,10.0,,KIGQ 020655Z AUTO 36005KT 10SM OVC018 01/00 A3028 RMK AO2  T00101002,,,1800.0,,,31.61,,N,29.62,29.85,,Overcast
KIGQ,03/02/2018 07:15 UTC,30.29,33.62,30.92,89.69,3.44,360.0,,,,,,184.0,,,,10.0,,KIGQ 020715Z AUTO 36003KT 10SM OVC018 01/M01 A3029 RMK AO2  T00091006,,,1800.0,,,30.88,,N,29.63,29.88,,Overcast
KIGQ,03/02/2018 07:35 UTC,30.29,33.8,30.74,88.4,6.91,350.0,,,,,,204.0,,,,10.0,,KIGQ 020735Z AUTO 35006KT 10SM OVC020 01/M01 A3029 RMK AO2  T00101007,,,2000.0,,,30.69,,N,29.63,29.88,,Overcast
KIGQ,03/02/2018 07:55 UTC,30.3,33.62,30.56,88.39,3.44,350.0,,,,,,204.0,,,,10.0,,KIGQ 020755Z AUTO 35003KT 10SM OVC020 01/M01 A3030 RMK AO2  T00091008,,,2000.0,,,30.51,,N,29.64,29.89,,Overcast
KIGQ,03/02/2018 08:15 UTC,30.29,32.72,30.2,90.31,0.0,0.0,,,,,,203.0,,,,10.0,,KIGQ 020815Z AUTO 00000KT 10SM BKN020 00/M01 A3029 RMK AO2  T00041010,,,2000.0,,,30.16,,N,29.63,29.89,,Mostly Cloudy
KIGQ,03/02/2018 08:35 UTC,30.3,32.0,30.2,92.96,3.44,320.0,,,,,,202.0,,,,10.0,,KIGQ 020835Z AUTO 32003KT 10SM SCT020 00/M01 A3030 RMK AO2  T00001010,,,,,,30.17,,NW,29.64,29.91,,Partly Cloudy
KIGQ,03/02/2018 08:55 UTC,30.3,32.0,29.84,91.61,4.61,330.0,,,,,,1.0,,,,10.0,,KIGQ 020855Z AUTO 33004KT 10SM CLR 00/M01 A3030 RMK AO2  T00001012,,,,,,29.8,,NNW,29.64,29.91,,Clear
KIGQ,03/02/2018 09:15 UTC,30.31,32.0,29.48,90.27,6.91,330.0,,,,,,1.0,,,,10.0,,KIGQ 020915Z AUTO 33006KT 10SM CLR 00/M01 A3031 RMK AO2  T00001014,,,,,,29.44,,NNW,29.65,29.93,,Clear
KIGQ,03/02/2018 09:35 UTC,30.32,32.0,29.3,89.61,4.61,340.0,,,,,,1.0,,,,10.0,,KIGQ 020935Z AUTO 34004KT 10SM CLR 00/M01 A3032 RMK AO2  T00001015,,,,,,29.25,,NNW,29.66,29.94,,Clear
KIGQ,03/02/2018 09:55 UTC,30.32,31.1,29.3,92.94,0.0,0.0,,,,,,1.0,,,,10.0,,KIGQ 020955Z AUTO 00000KT 10SM CLR 00/M01 A3032 RMK AO2  T10051015,,,,,,29.27,,N,29.66,29.95,,Clear
KIGQ,03/02/2018 10:15 UTC,30.33,31.1,29.12,92.25,0.0,0.0,,,,,,1.0,,,,10.0,,KIGQ 021015Z AUTO 00000KT 10SM CLR 00/M02 A3033 RMK AO2  T10051016,,,,,,29.09,,N,29.67,29.96,,Clear
KIGQ,03/02/2018 10:35 UTC,30.34,30.74,29.12,93.61,0.0,0.0,,,,,,1.0,,,,10.0,,KIGQ 021035Z AUTO 00000KT 10SM CLR M01/M02 A3034 RMK AO2  T10071016,,,,,,29.09,,N,29.68,29.97,,Clear
KIGQ,03/02/2018 10:55 UTC,30.34,30.2,28.58,93.6,0.0,0.0,,,,,,1.0,,,,10.0,,KIGQ 021055Z AUTO 00000KT 10SM CLR M01/M02 A3034 RMK AO2  T10101019,,,,,,28.55,,N,29.68,29.98,,Clear
KIGQ,03/02/2018 11:15 UTC,30.36,30.2,28.76,94.29,0.0,0.0,,,,,,1.0,,,,10.0,,KIGQ 021115Z AUTO 00000KT 10SM CLR M01/M02 A3036 RMK AO2  T10101018,,,,,,28.74,,N,29.7,30.0,,Clear
KIGQ,03/02/2018 11:35 UTC,30.37,29.84,28.4,94.28,0.0,0.0,,,,,,1.0,,,,10.0,,KIGQ 021135Z AUTO 00000KT 10SM CLR M01/M02 A3037 RMK AO2  T10121020,,,,,,28.38,,N,29.71,30.02,,Clear
KIGQ,03/02/2018 11:55 UTC,30.38,29.3,28.22,95.67,0.0,0.0,,,,,,1.0,,,0.31,10.0,,KIGQ 021155Z AUTO 00000KT 10SM CLR M01/M02 A3038 RMK AO2 70031  T10151021 10012 21015,34.16,29.3,,,,28.2,,N,29.72,30.03,,Clear
KIGQ,03/02/2018 12:15 UTC,30.38,29.3,28.4,96.38,0.0,0.0,,,,,,1.0,,,,10.0,,KIGQ 021215Z AUTO 00000KT 10SM CLR M01/M02 A3038 RMK AO2  T10151020,,,,,,28.38,,N,29.72,30.03,,Clear
KIGQ,03/02/2018 12:35 UTC,30.38,29.3,28.4,96.38,0.0,0.0,,,,,,1.0,,,,10.0,,KIGQ 021235Z AUTO 00000KT 10SM CLR M01/M02 A3038 RMK AO2  T10151020,,,,,,28.38,,N,29.72,30.03,,Clear
KIGQ,03/02/2018 12:55 UTC,30.39,29.66,28.76,96.39,0.0,0.0,,,,,,1.0,,,,10.0,,KIGQ 021255Z AUTO 00000KT 10SM CLR M01/M02 A3039 RMK AO2  T10131018,,,,,,28.75,,N,29.73,30.03,,Clear
KIGQ,03/02/2018 13:15 UTC,30.39,30.56,29.3,94.99,3.44,340.0,,,,,,1.0,,,,10.0,,KIGQ 021315Z AUTO 34003KT 10SM CLR M01/M01 A3039 RMK AO2  T10081015,,,,,,29.28,,NNW,29.73,30.02,,Clear
KIGQ,03/02/2018 13:35 UTC,30.4,31.82,29.84,92.28,3.44,310.0,,,,,,1.0,,,,10.0,,KIGQ 021335Z AUTO 31003KT 10SM CLR 00/M01 A3040 RMK AO2  T10011012,,,,,,29.81,,NW,29.74,30.02,,Clear
KIGQ,03/02/2018 13:55 UTC,30.41,32.36,30.56,92.98,0.0,0.0,,,,,,1.0,,,,10.0,,KIGQ 021355Z AUTO 00000KT 10SM CLR 00/M01 A3041 RMK AO2  T00021008,,,,,,30.53,,N,29.75,30.01,,Clear
KIGQ,03/02/2018 14:15 UTC,30.41,33.26,30.74,90.33,0.0,0.0,,,,,,1.0,,,,10.0,,KIGQ 021415Z AUTO 00000KT 10SM CLR 01/M01 A3041 RMK AO2  T00071007,,,,,,30.7,,N,29.75,30.0,,Clear
KIGQ,03/02/2018 14:35 UTC,30.42,34.7,31.1,86.53,3.44,10.0,,,,,,1.0,,,,10.0,,KIGQ 021435Z AUTO 01003KT 10SM CLR 02/00 A3042 RMK AO2  T00151005,,,,,,31.04,,N,29.76,30.0,,Clear
KIGQ,03/02/2018 14:55 UTC,30.44,35.78,31.1,82.89,5.75,10.0,,,,,,1.0,,,,10.0,,KIGQ 021455Z AUTO 01005KT 10SM CLR 02/00 A3044 RMK AO2  T00211005,,,,,,31.03,,N,29.78,30.01,,Clear
KIGQ,03/02/2018 15:15 UTC,30.44,36.5,31.46,81.75,10.36,10.0,,,,,,1.0,,,,10.0,,KIGQ 021515Z AUTO 01009KT 10SM CLR 03/00 A3044 RMK AO2  T00251003,,,,,,31.38,31.29,N,29.78,30.0,,Clear
KIGQ,03/02/2018 15:35 UTC,30.44,36.5,31.1,80.56,5.75,40.0,,,,,,1.0,,,,10.0,,KIGQ 021535Z AUTO 04005KT 10SM CLR 03/00 A3044 RMK AO2  T00251005,,,,,,31.02,,NE,29.78,30.01,,Clear
KIGQ,03/02/2018 15:55 UTC,30.44,37.4,31.46,78.89,5.75,40.0,,,,,,1.0,,,,10.0,,KIGQ 021555Z AUTO 04005KT 10SM CLR 03/00 A3044 RMK AO2  T00301003,,,,,,31.37,,NE,29.78,30.0,,Clear
KIGQ,03/02/2018 16:15 UTC,30.45,38.3,32.0,77.83,5.75,70.0,,,,,,1.0,,,,10.0,,KIGQ 021615Z AUTO 07005KT 10SM CLR 04/00 A3045 RMK AO2  T00350000,,,,,,31.91,,ENE,29.79,29.99,,Clear
KIGQ,03/02/2018 16:35 UTC,30.46,38.3,30.38,72.89,6.91,40.0,,,,,,1.0,,,,10.0,,KIGQ 021635Z AUTO 04006KT 10SM CLR 04/M01 A3046 RMK AO2  T00351009,,,,,,30.27,,NE,29.8,30.03,,Clear
KIGQ,03/02/2018 16:55 UTC,30.46,39.38,29.84,68.36,6.91,20.0,,,,,,1.0,,,,10.0,,KIGQ 021655Z AUTO 02006KT 10SM CLR 04/M01 A3046 RMK AO2  T00411012,,,,,,29.71,,NNE,29.8,30.03,,Clear
KIGQ,03/02/2018 17:15 UTC,30.47,39.92,26.96,59.47,3.44,10.0,,,,,,1.0,,,,10.0,,KIGQ 021715Z AUTO 01003KT 10SM CLR 04/M03 A3047 RMK AO2  T00441028,,,,,,26.79,,N,29.81,30.08,,Clear
KIGQ,03/02/2018 17:35 UTC,30.46,39.92,26.6,58.59,4.61,360.0,,,,,,1.0,,,,10.0,,KIGQ 021735Z AUTO 36004KT 10SM CLR 04/M03 A3046 RMK AO2  T00441030,,,,,,26.43,,N,29.8,30.07,,Clear
KIGQ,03/02/2018 17:55 UTC,30.47,40.28,26.24,56.92,8.05,30.0,,,,,,1.0,,,,10.0,,KIGQ 021755Z AUTO 03007KT 10SM CLR 05/M03 A3047 RMK AO2 T00461032  10051 21016,41.18,29.12,,,,26.06,36.8,NNE,29.81,30.09,,Clear
KIGQ,03/02/2018 18:15 UTC,30.46,40.28,22.28,48.22,6.91,360.0,,,,,,1.0,,,,10.0,,KIGQ 021815Z AUTO 36006KT 10SM CLR 05/M05 A3046 RMK AO2  T00461054,,,,,,22.06,,N,29.8,30.13,,Clear
KIGQ,03/02/2018 18:35 UTC,30.46,40.46,20.66,44.71,8.05,40.0,,,,,,1.0,,,,10.0,,KIGQ 021835Z AUTO 04007KT 10SM CLR 05/M06 A3046 RMK AO2  T00471063,,,,,,20.43,37.01,NE,29.8,30.14,,Clear
KIGQ,03/02/2018 18:55 UTC,30.46,41.0,19.4,41.49,8.05,20.0,,,,,,1.0,,,,10.0,,KIGQ 021855Z AUTO 02007KT 10SM CLR 05/M07 A3046 RMK AO2  T00501070,,,,,,19.16,37.65,NNE,29.8,30.16,,Clear
KIGQ,03/02/2018 19:15 UTC,30.46,41.36,18.5,39.36,6.91,10.0,,,,,,1.0,,,,10.0,,KIGQ 021915Z AUTO 01006KT 10SM CLR 05/M07 A3046 RMK AO2  T00521075,,,,,,18.25,,N,29.8,30.16,,Clear
KIGQ,03/02/2018 19:35 UTC,30.46,42.44,17.42,36.04,10.36,40.0,,,,,,1.0,,,,10.0,,KIGQ 021935Z AUTO 04009KT 10SM CLR 06/M08 A3046 RMK AO2  T00581081,,,,,,17.17,38.4,NE,29.8,30.17,,Clear
KIGQ,03/02/2018 19:55 UTC,30.45,42.08,19.76,40.41,10.36,10.0,,,,,,1.0,,,,10.0,,KIGQ 021955Z AUTO 01009KT 10SM CLR 06/M07 A3045 RMK AO2  T00561068,,,,,,19.52,37.97,N,29.79,30.14,,Clear
KIGQ,03/02/2018 20:15 UTC,30.45,41.72,22.1,45.26,9.22,50.0,,,,,,1.0,,,,10.0,,KIGQ 022015Z AUTO 05008KT 10SM CLR 05/M05 A3045 RMK AO2  T00541055,,,,,,21.88,37.98,NE,29.79,30.11,,Clear
KIGQ,03/02/2018 20:35 UTC,30.44,41.0,20.3,43.12,8.05,50.0,,,,,,1.0,,,,10.0,,KIGQ 022035Z AUTO 05007KT 10SM CLR 05/M06 A3044 RMK AO2  T00501065,,,,,,20.07,37.65,NE,29.78,30.13,,Clear
KIGQ,03/02/2018 20:55 UTC,30.45,42.08,20.84,42.32,6.91,50.0,,,,,,1.0,,,,10.0,,KIGQ 022055Z AUTO 05006KT 10SM CLR 06/M06 A3045 RMK AO2  T00561062,,,,,,20.61,,NE,29.79,30.12,,Clear
KIGQ,03/02/2018 21:15 UTC,30.46,42.26,21.02,42.35,5.75,20.0,,,,,,1.0,,,,10.0,,KIGQ 022115Z AUTO 02005KT 10SM CLR 06/M06 A3046 RMK AO2  T00571061,,,,,,20.79,,NNE,29.8,30.13,,Clear
KIGQ,03/02/2018 21:35 UTC,30.46,42.26,20.3,41.07,4.61,10.0,,,,,,1.0,,,,10.0,,KIGQ 022135Z AUTO 01004KT 10SM CLR 06/M06 A3046 RMK AO2  T00571065,,,,,,20.06,,N,29.8,30.14,,Clear
KIGQ,03/02/2018 21:55 UTC,30.46,41.9,22.28,45.29,8.05,60.0,,,,,,1.0,,,,10.0,,KIGQ 022155Z AUTO 06007KT 10SM CLR 06/M05 A3046 RMK AO2  T00551054,,,,,,22.06,38.7,ENE,29.8,30.12,,Clear
KIGQ,03/02/2018 22:15 UTC,30.46,40.64,20.12,43.39,9.22,50.0,,,,,,1.0,,,,10.0,,KIGQ 022215Z AUTO 05008KT 10SM CLR 05/M07 A3046 RMK AO2  T00481066,,,,,,19.89,36.7,NE,29.8,30.15,,Clear
KIGQ,03/02/2018 22:35 UTC,30.45,40.1,19.22,42.63,8.05,70.0,,,,,,1.0,,,,10.0,,KIGQ 022235Z AUTO 07007KT 10SM CLR 05/M07 A3045 RMK AO2  T00451071,,,,,,18.98,36.59,ENE,29.79,30.15,,Clear
KIGQ,03/02/2018 22:55 UTC,30.45,39.74,21.2,47.05,6.91,60.0,,,,,,1.0,,,,10.0,,KIGQ 022255Z AUTO 06006KT 10SM CLR 04/M06 A3045 RMK AO2  T00431060,,,,,,20.98,,ENE,29.79,30.13,,Clear
KIGQ,03/02/2018 23:15 UTC,30.45,38.84,21.56,49.48,8.05,60.0,,,,,,1.0,,,,10.0,,KIGQ 022315Z AUTO 06007KT 10SM CLR 04/M06 A3045 RMK AO2  T00381058,,,,,,21.35,35.11,ENE,29.79,30.13,,Clear
KIGQ,03/02/2018 23:35 UTC,30.44,37.76,21.38,51.22,6.91,70.0,,,,,,1.0,,,,10.0,,KIGQ 022335Z AUTO 07006KT 10SM CLR 03/M06 A3044 RMK AO2  T00321059,,,,,,21.17,,ENE,29.78,30.13,,Clear
KIGQ,03/02/2018 23:55 UTC,30.44,37.58,21.2,51.2,5.75,70.0,,,,,,1.0,,,,10.0,,KIGQ 022355Z AUTO 07005KT 10SM CLR 03/M06 A3044 RMK AO2 T00311060  10060 20030,42.8,37.4,,,,20.99,,ENE,29.78,30.13,,Clear
KIGQ,03/03/2018 00:15 UTC,30.43,36.86,22.82,56.41,6.91,80.0,,,,,,1.0,,,,10.0,,KIGQ 030015Z AUTO 08006KT 10SM CLR 03/M05 A3043 RMK AO2  T00271051,,,,,,22.63,,E,29.77,30.11,,Clear
KIGQ,03/03/2018 00:35 UTC,30.44,35.6,21.02,54.94,4.61,80.0,,,,,,1.0,,,,10.0,,KIGQ 030035Z AUTO 08004KT 10SM CLR 02/M06 A3044 RMK AO2  T00201061,,,,,,20.82,,E,29.78,30.14,,Clear
KIGQ,03/03/2018 00:55 UTC,30.44,34.88,22.46,60.09,3.44,90.0,,,,,,1.0,,,,10.0,,KIGQ 030055Z AUTO 09003KT 10SM CLR 02/M05 A3044 RMK AO2  T00161053,,,,,,22.29,,E,29.78,30.13,,Clear
KIGQ,03/03/2018 01:15 UTC,30.45,35.24,19.4,52.01,0.0,0.0,,,,,,1.0,,,,10.0,,KIGQ 030115Z AUTO 00000KT 10SM CLR 02/M07 A3045 RMK AO2  T00181070,,,,,,19.19,,N,29.79,30.17,,Clear
KIGQ,03/03/2018 01:35 UTC,30.46,34.16,20.66,57.3,0.0,0.0,,,,,,1.0,,,,10.0,,KIGQ 030135Z AUTO 00000KT 10SM CLR 01/M06 A3046 RMK AO2  T00121063,,,,,,20.47,,N,29.8,30.18,,Clear
KIGQ,03/03/2018 01:55 UTC,30.47,33.98,20.48,57.27,0.0,0.0,,,,,,1.0,,,,10.0,,KIGQ 030155Z AUTO 00000KT 10SM CLR 01/M06 A3047 RMK AO2  T00111064,,,,,,20.29,,N,29.81,30.19,,Clear
KIGQ,03/03/2018 02:15 UTC,30.47,33.26,20.84,59.86,0.0,0.0,,,,,,1.0,,,,10.0,,KIGQ 030215Z AUTO 00000KT 10SM CLR 01/M06 A3047 RMK AO2  T00071062,,,,,,20.66,,N,29.81,30.19,,Clear
KIGQ,03/03/2018 02:35 UTC,30.47,32.54,21.92,64.5,0.0,0.0,,,,,,1.0,,,,10.0,,KIGQ 030235Z AUTO 00000KT 10SM CLR 00/M06 A3047 RMK AO2  T00031056,,,,,,21.76,,N,29.81,30.18,,Clear
KIGQ,03/03/2018 02:55 UTC,30.47,32.0,25.16,75.54,0.0,0.0,,,,,,1.0,,,,10.0,,KIGQ 030255Z AUTO 00000KT 10SM CLR 00/M04 A3047 RMK AO2  T00001038,,,,,,25.05,,N,29.81,30.15,,Clear
KIGQ,03/03/2018 03:15 UTC,30.47,31.1,23.9,74.32,0.0,0.0,,,,,,1.0,,,,10.0,,KIGQ 030315Z AUTO 00000KT 10SM CLR 00/M04 A3047 RMK AO2  T10051045,,,,,,23.79,,N,29.81,30.17,,Clear
KIGQ,03/03/2018 03:35 UTC,30.47,30.38,24.26,77.68,0.0,0.0,,,,,,1.0,,,,10.0,,KIGQ 030335Z AUTO 00000KT 10SM CLR M01/M04 A3047 RMK AO2  T10091043,,,,,,24.16,,N,29.81,30.17,,Clear
KIGQ,03/03/2018 03:55 UTC,30.47,30.2,25.16,81.25,0.0,0.0,,,,,,1.0,,,,10.0,,KIGQ 030355Z AUTO 00000KT 10SM CLR M01/M04 A3047 RMK AO2  T10101038,,,,,,25.08,,N,29.81,30.16,,Clear
KIGQ,03/03/2018 04:15 UTC,30.47,29.84,24.26,79.41,0.0,0.0,,,,,,1.0,,,,10.0,,KIGQ 030415Z AUTO 00000KT 10SM CLR M01/M04 A3047 RMK AO2  T10121043,,,,,,24.17,,N,29.81,30.17,,Clear
KIGQ,03/03/2018 04:35 UTC,30.48,29.84,25.52,83.7,0.0,0.0,,,,,,1.0,,,,10.0,,KIGQ 030435Z AUTO 00000KT 10SM CLR M01/M04 A3048 RMK AO2  T10121036,,,,,,25.45,,N,29.82,30.17,,Clear
KIGQ,03/03/2018 05:00 UTC,30.48,27.86,26.6,94.93,0.0,0.0,,,,,,1.0,,,,10.0,,KIGQ 030500Z AUTO 00000KT 10SM CLR M02/M03 A3048 RMK AO2  T10231030,,,,,,26.58,,N,29.82,30.17,,Clear
KIGQ,03/03/2018 05:15 UTC,30.47,27.32,26.06,94.92,0.0,0.0,,,,,,1.0,,,,10.0,,KIGQ 030515Z AUTO 00000KT 10SM CLR M03/M03 A3047 RMK AO2  T10261033,,,,,,26.04,,N,29.81,30.16,,Clear
KIGQ,03/03/2018 05:35 UTC,30.46,28.22,27.32,96.36,0.0,0.0,,,,,,1.0,,,,10.0,,KIGQ 030535Z AUTO 00000KT 10SM CLR M02/M03 A3046 RMK AO2  T10211026,,,,,,27.3,,N,29.8,30.13,,Clear
KIGQ,03/03/2018 05:55 UTC,30.47,28.4,26.24,91.47,0.0,0.0,,,,,,1.0,,,,10.0,,KIGQ 030555Z AUTO 00000KT 10SM CLR M02/M03 A3047 RMK AO2 T10201032  10031 21028 400601028,37.58,26.96,,42.8,26.96,26.2,,N,29.81,30.16,,Clear
KIGQ,03/03/2018 06:15 UTC,30.48,28.22,25.7,90.11,0.0,0.0,,,,,,1.0,,,,10.0,,KIGQ 030615Z AUTO 00000KT 10SM CLR M02/M03 A3048 RMK AO2  T10211035,,,,,,25.66,,N,29.82,30.17,,Clear
KIGQ,03/03/2018 06:35 UTC,30.49,28.22,24.44,85.5,0.0,0.0,,,,,,1.0,,,,10.0,,KIGQ 030635Z AUTO 00000KT 10SM CLR M02/M04 A3049 RMK AO2  T10211042,,,,,,24.38,,N,29.83,30.2,,Clear
KIGQ,03/03/2018 06:55 UTC,30.49,28.58,24.8,85.52,0.0,0.0,,,,,,1.0,,,,10.0,,KIGQ 030655Z AUTO 00000KT 10SM CLR M02/M04 A3049 RMK AO2  T10191040,,,,,,24.74,,N,29.83,30.19,,Clear
KIGQ,03/03/2018 07:15 UTC,30.5,29.12,24.98,84.28,0.0,0.0,,,,,,1.0,,,,10.0,,KIGQ 030715Z AUTO 00000KT 10SM CLR M02/M04 A3050 RMK AO2  T10161039,,,,,,24.91,,N,29.84,30.2,,Clear
KIGQ,03/03/2018 07:35 UTC,30.49,29.66,25.34,83.69,0.0,0.0,,,,,,1.0,,,,10.0,,KIGQ 030735Z AUTO 00000KT 10SM CLR M01/M04 A3049 RMK AO2  T10131037,,,,,,25.27,,N,29.83,30.18,,Clear
KIGQ,03/03/2018 07:55 UTC,30.49,30.02,25.52,83.09,0.0,0.0,,,,,,1.0,,,,10.0,,KIGQ 030755Z AUTO 00000KT 10SM CLR M01/M04 A3049 RMK AO2  T10111036,,,,,,25.45,,N,29.83,30.18,,Clear
KIGQ,03/03/2018 08:15 UTC,30.49,29.48,27.5,92.2,0.0,0.0,,,,,,1.0,,,,10.0,,KIGQ 030815Z AUTO 00000KT 10SM CLR M01/M02 A3049 RMK AO2  T10141025,,,,,,27.47,,N,29.83,30.15,,Clear
KIGQ,03/03/2018 08:35 UTC,30.5,29.66,28.94,97.1,0.0,0.0,,,,,,1.0,,,,10.0,,KIGQ 030835Z AUTO 00000KT 10SM CLR M01/M02 A3050 RMK AO2  T10131017,,,,,,28.93,,N,29.84,30.14,,Clear
KIGQ,03/03/2018 08:55 UTC,30.5,29.66,28.4,94.97,0.0,0.0,,,,,,1.0,,,,10.0,,KIGQ 030855Z AUTO 00000KT 10SM CLR M01/M02 A3050 RMK AO2  T10131020,,,,,,28.38,,N,29.84,30.15,,Clear
KIGQ,03/03/2018 09:15 UTC,30.5,29.12,27.5,93.56,0.0,0.0,,,,,,1.0,,,,10.0,,KIGQ 030915Z AUTO 00000KT 10SM CLR M02/M02 A3050 RMK AO2  T10161025,,,,,,27.47,,N,29.84,30.17,,Clear
KIGQ,03/03/2018 09:35 UTC,30.5,30.02,27.68,90.86,0.0,0.0,,,,,,1.0,,,,10.0,,KIGQ 030935Z AUTO 00000KT 10SM CLR M01/M02 A3050 RMK AO2  T10111024,,,,,,27.64,,N,29.84,30.16,,Clear
KIGQ,03/03/2018 09:55 UTC,30.51,32.0,28.04,85.1,0.0,0.0,,,,,,1.0,,,,10.0,,KIGQ 030955Z AUTO 00000KT 10SM CLR 00/M02 A3051 RMK AO2  T00001022,,,,,,27.97,,N,29.85,30.15,,Clear
KIGQ,03/03/2018 10:15 UTC,30.5,32.72,28.22,83.28,0.0,0.0,,,,,,1.0,,,,10.0,,KIGQ 031015Z AUTO 00000KT 10SM CLR 00/M02 A3050 RMK AO2  T00041021,,,,,,28.15,,N,29.84,30.14,,Clear
KIGQ,03/03/2018 10:35 UTC,30.51,32.54,28.94,86.4,4.61,40.0,,,,,,1.0,,,,10.0,,KIGQ 031035Z AUTO 04004KT 10SM CLR 00/M02 A3051 RMK AO2  T00031017,,,,,,28.88,,NE,29.85,30.14,,Clear
KIGQ,03/03/2018 10:55 UTC,30.52,32.9,29.66,87.7,4.61,40.0,,,,,,1.0,,,,10.0,,KIGQ 031055Z AUTO 04004KT 10SM CLR 01/M01 A3052 RMK AO2  T00051013,,,,,,29.61,,NE,29.86,30.13,,Clear
KIGQ,03/03/2018 11:15 UTC,30.52,32.9,29.84,88.35,4.61,40.0,,,,,,1.0,,,,10.0,,KIGQ 031115Z AUTO 04004KT 10SM CLR 01/M01 A3052 RMK AO2  T00051012,,,,,,29.79,,NE,29.86,30.13,,Clear
KIGQ,03/03/2018 11:35 UTC,30.52,32.9,30.02,89.0,4.61,50.0,,,,,,1.0,,,,10.0,,KIGQ 031135Z AUTO 05004KT 10SM CLR 01/M01 A3052 RMK AO2  T00051011,,,,,,29.97,,NE,29.86,30.13,,Clear
KIGQ,03/03/2018 11:55 UTC,30.52,32.9,30.2,89.65,4.61,60.0,,,,,,1202.0,,,,10.0,,KIGQ 031155Z AUTO 06004KT 10SM SCT120 01/M01 A3052 RMK AO2  T00051010 10005 21025,32.9,27.5,,,,30.15,,ENE,29.86,30.13,,Partly Cloudy
KIGQ,03/03/2018 12:15 UTC,30.52,32.36,30.02,90.95,5.75,40.0,,,,,,1203.0,,,,10.0,,KIGQ 031215Z AUTO 04005KT 10SM BKN120 00/M01 A3052 RMK AO2  T00021011,,,12000.0,,,29.98,,NE,29.86,30.13,,Mostly Cloudy
KIGQ,03/03/2018 12:35 UTC,30.53,32.18,29.66,90.28,4.61,50.0,,,,,,1203.0,,,,10.0,,KIGQ 031235Z AUTO 05004KT 10SM BKN120 00/M01 A3053 RMK AO2  T00011013,,,12000.0,,,29.62,,NE,29.87,30.15,,Mostly Cloudy
KIGQ,03/03/2018 12:55 UTC,30.53,32.0,28.76,87.65,5.75,70.0,,,,,,1202.0,,,,10.0,,KIGQ 031255Z AUTO 07005KT 10SM SCT120 00/M02 A3053 RMK AO2  T00001018,,,,,,28.71,,ENE,29.87,30.16,,Partly Cloudy
KIGQ,03/03/2018 13:15 UTC,30.54,32.9,29.3,86.42,3.44,70.0,,,,,,1.0,,,,10.0,,KIGQ 031315Z AUTO 07003KT 10SM CLR 01/M01 A3054 RMK AO2  T00051015,,,,,,29.24,,ENE,29.88,30.16,,Clear
KIGQ,03/03/2018 13:35 UTC,30.54,33.8,29.84,85.22,6.91,60.0,,,,,,1.0,,,,10.0,,KIGQ 031335Z AUTO 06006KT 10SM CLR 01/M01 A3054 RMK AO2  T00101012,,,,,,29.78,,ENE,29.88,30.15,,Clear
KIGQ,03/03/2018 13:55 UTC,30.54,34.7,29.12,79.83,5.75,60.0,,,,,,1.0,,,,10.0,,KIGQ 031355Z AUTO 06005KT 10SM CLR 02/M02 A3054 RMK AO2  T00151016,,,,,,29.03,,ENE,29.88,30.15,,Clear
KIGQ,03/03/2018 14:15 UTC,30.54,35.6,27.32,71.53,8.05,90.0,,,,,,1.0,,,,10.0,,KIGQ 031415Z AUTO 09007KT 10SM CLR 02/M03 A3054 RMK AO2  T00201026,,,,,,27.2,31.3,E,29.88,30.17,,Clear
KIGQ,03/03/2018 14:35 UTC,30.54,36.68,27.32,68.53,5.75,80.0,,,,,,1.0,,,,10.0,,KIGQ 031435Z AUTO 08005KT 10SM CLR 03/M03 A3054 RMK AO2  T00261026,,,,,,27.18,,E,29.88,30.16,,Clear
KIGQ,03/03/2018 14:55 UTC,30.54,37.94,26.24,62.37,5.75,70.0,,,,,,1.0,,,,10.0,,KIGQ 031455Z AUTO 07005KT 10SM CLR 03/M03 A3054 RMK AO2  T00331032,,,,,,26.08,,ENE,29.88,30.17,,Clear
KIGQ,03/03/2018 15:15 UTC,30.55,38.48,24.98,57.94,5.75,80.0,,,,,,1.0,,,,10.0,,KIGQ 031515Z AUTO 08005KT 10SM CLR 04/M04 A3055 RMK AO2  T00361039,,,,,,24.8,,E,29.89,30.2,,Clear
KIGQ,03/03/2018 15:35 UTC,30.55,39.56,25.34,56.39,5.75,40.0,,,,,,1.0,,,,10.0,,KIGQ 031535Z AUTO 04005KT 10SM CLR 04/M04 A3055 RMK AO2  T00421037,,,,,,25.16,,NE,29.89,30.18,,Clear
KIGQ,03/03/2018 15:55 UTC,30.55,39.92,26.42,58.16,6.91,70.0,,,,,,1.0,,,,10.0,,KIGQ 031555Z AUTO 07006KT 10SM CLR 04/M03 A3055 RMK AO2  T00441031,,,,,,26.25,,ENE,29.89,30.17,,Clear
KIGQ,03/03/2018 16:15 UTC,30.55,40.46,25.88,55.69,6.91,50.0,,,,,,1.0,,,,10.0,,KIGQ 031615Z AUTO 05006KT 10SM CLR 05/M03 A3055 RMK AO2  T00471034,,,,,,25.7,,NE,29.89,30.17,,Clear
KIGQ,03/03/2018 16:35 UTC,30.55,41.18,25.34,52.95,8.05,40.0,,,,,,1.0,,,,10.0,,KIGQ 031635Z AUTO 04007KT 10SM CLR 05/M04 A3055 RMK AO2  T00511037,,,,,,25.15,37.86,NE,29.89,30.18,,Clear
KIGQ,03/03/2018 16:55 UTC,30.55,41.54,25.34,52.22,6.91,50.0,,,,,,1.0,,,,10.0,,KIGQ 031655Z AUTO 05006KT 10SM CLR 05/M04 A3055 RMK AO2  T00531037,,,,,,25.14,,NE,29.89,30.17,,Clear
KIGQ,03/03/2018 17:15 UTC,30.54,42.08,25.16,50.76,0.0,0.0,,,,,,1.0,,,,10.0,,KIGQ 031715Z AUTO 00000KT 10SM CLR 06/M04 A3054 RMK AO2  T00561038,,,,,,24.96,,N,29.88,30.16,,Clear
KIGQ,03/03/2018 17:35 UTC,30.54,42.8,24.98,49.0,8.05,20.0,,,,,,1.0,,,,10.0,,KIGQ 031735Z AUTO 02007KT 10SM CLR 06/M04 A3054 RMK AO2  T00601039,,,,,,24.77,39.76,NNE,29.88,30.16,,Clear
KIGQ,03/03/2018 17:55 UTC,30.53,42.98,24.62,47.94,8.05,40.0,,,,,,1.0,,,,10.0,,KIGQ 031755Z AUTO 04007KT 360V060 10SM CLR 06/M04 A3053 RMK AO2  T00611041 10062 20000,43.16,32.0,,,,24.41,39.97,NE,29.87,30.16,,Clear
KIGQ,03/03/2018 18:15 UTC,30.53,42.8,25.16,49.37,9.22,20.0,,,,,,1.0,,,,10.0,,KIGQ 031815Z AUTO 02008KT 10SM CLR 06/M04 A3053 RMK AO2  T00601038,,,,,,24.95,39.27,NNE,29.87,30.15,,Clear
KIGQ,03/03/2018 18:35 UTC,30.52,42.62,23.9,47.17,9.22,10.0,,,,,,1.0,,,,10.0,,KIGQ 031835Z AUTO 01008KT 10SM CLR 06/M04 A3052 RMK AO2  T00591045,,,,,,23.69,39.05,N,29.86,30.16,,Clear
KIGQ,03/03/2018 18:55 UTC,30.51,42.26,23.0,46.05,8.05,50.0,,,,,,1.0,,,,10.0,,KIGQ 031855Z AUTO 05007KT 10SM CLR 06/M05 A3051 RMK AO2  T00571050,,,,,,22.78,39.13,NE,29.85,30.16,,Clear
KIGQ,03/03/2018 19:15 UTC,30.51,42.44,23.0,45.73,9.22,40.0,,,,,,1.0,,,,10.0,,KIGQ 031915Z AUTO 04008KT 10SM CLR 06/M05 A3051 RMK AO2  T00581050,,,,,,22.78,38.84,NE,29.85,30.16,,Clear
KIGQ,03/03/2018 19:35 UTC,30.5,42.26,22.64,45.35,8.05,30.0,,,,,,1.0,,,,10.0,,KIGQ 031935Z AUTO 03007KT 10SM CLR 06/M05 A3050 RMK AO2  T00571052,,,,,,22.42,39.13,NNE,29.84,30.15,,Clear
KIGQ,03/03/2018 19:55 UTC,30.49,41.9,23.72,48.13,10.36,40.0,,,,,,1.0,,,,10.0,,KIGQ 031955Z AUTO 04009KT 10SM CLR 06/M05 A3049 RMK AO2  T00551046,,,,,,23.51,37.75,NE,29.83,30.13,,Clear
KIGQ,03/03/2018 20:15 UTC,30.49,41.18,24.8,51.77,8.05,40.0,,,,,,1.0,,,,10.0,,KIGQ 032015Z AUTO 04007KT 10SM CLR 05/M04 A3049 RMK AO2  T00511040,,,,,,24.6,37.86,NE,29.83,30.12,,Clear
KIGQ,03/03/2018 20:35 UTC,30.49,40.82,25.52,54.1,10.36,40.0,,,,,,1.0,,,,10.0,,KIGQ 032035Z AUTO 04009KT 10SM CLR 05/M04 A3049 RMK AO2  T00491036,,,,,,25.33,36.46,NE,29.83,30.11,,Clear
KIGQ,03/03/2018 20:55 UTC,30.49,40.1,25.52,55.63,6.91,20.0,,,,,,1.0,,,,10.0,,KIGQ 032055Z AUTO 02006KT 10SM CLR 05/M04 A3049 RMK AO2  T00451036,,,,,,25.33,,NNE,29.83,30.12,,Clear
KIGQ,03/03/2018 21:15 UTC,30.48,40.64,26.42,56.55,3.44,40.0,,,,,,1.0,,,,10.0,,KIGQ 032115Z AUTO 04003KT 10SM CLR 05/M03 A3048 RMK AO2  T00481031,,,,,,26.24,,NE,29.82,30.09,,Clear
KIGQ,03/03/2018 21:35 UTC,30.48,40.1,25.88,56.47,11.5,50.0,,,,,,1.0,,,,10.0,,KIGQ 032135Z AUTO 05010KT 10SM CLR 05/M03 A3048 RMK AO2  T00451034,,,,,,25.7,35.18,NE,29.82,30.1,,Clear
KIGQ,03/03/2018 21:55 UTC,30.47,39.56,25.52,56.81,11.5,50.0,,,,,,1.0,,,,10.0,,KIGQ 032155Z AUTO 05010KT 10SM CLR 04/M04 A3047 RMK AO2  T00421036,,,,,,25.34,34.52,NE,29.81,30.1,,Clear
KIGQ,03/03/2018 22:15 UTC,30.47,38.84,27.14,62.49,8.05,50.0,,,,,,1.0,,,,10.0,,KIGQ 032215Z AUTO 05007KT 10SM CLR 04/M03 A3047 RMK AO2  T00381027,,,,,,26.98,35.11,NE,29.81,30.08,,Clear
KIGQ,03/03/2018 22:35 UTC,30.47,38.66,26.96,62.47,10.36,50.0,,,,,,1.0,,,,10.0,,KIGQ 032235Z AUTO 05009KT 10SM CLR 04/M03 A3047 RMK AO2  T00371028,,,,,,26.8,33.87,NE,29.81,30.09,,Clear
KIGQ,03/03/2018 22:55 UTC,30.46,36.86,27.68,69.07,10.36,40.0,,,,,,1.0,,,,10.0,,KIGQ 032255Z AUTO 04009KT 10SM CLR 03/M02 A3046 RMK AO2  T00271024,,,,,,27.55,31.72,NE,29.8,30.08,,Clear
KIGQ,03/03/2018 23:15 UTC,30.46,36.5,26.96,68.0,9.22,60.0,,,,,,1.0,,,,10.0,,KIGQ 032315Z AUTO 06008KT 10SM CLR 03/M03 A3046 RMK AO2  T00251028,,,,,,26.82,31.79,ENE,29.8,30.09,,Clear
KIGQ,03/03/2018 23:35 UTC,30.46,35.6,26.6,69.43,6.91,50.0,,,,,,1.0,,,,10.0,,KIGQ 032335Z AUTO 05006KT 10SM CLR 02/M03 A3046 RMK AO2  T00201030,,,,,,26.47,,NE,29.8,30.1,,Clear
KIGQ,03/03/2018 23:55 UTC,30.47,35.06,26.24,69.89,8.05,50.0,,,,,,1.0,,,,10.0,,KIGQ 032355Z AUTO 05007KT 10SM CLR 02/M03 A3047 RMK AO2 T00171032  10062 20017,43.16,35.06,,,,26.11,30.67,NE,29.81,30.12,,Clear
KIGQ,03/04/2018 00:15 UTC,30.47,34.7,26.42,71.43,5.75,50.0,,,,,,1.0,,,,10.0,,KIGQ 040015Z AUTO 05005KT 10SM CLR 02/M03 A3047 RMK AO2  T00151031,,,,,,26.3,,NE,29.81,30.12,,Clear
KIGQ,03/04/2018 00:35 UTC,30.47,33.98,27.14,75.73,5.75,50.0,,,,,,1.0,,,,10.0,,KIGQ 040035Z AUTO 05005KT 10SM CLR 01/M03 A3047 RMK AO2  T00111027,,,,,,27.03,,NE,29.81,30.11,,Clear
KIGQ,03/04/2018 00:55 UTC,30.47,33.62,27.5,77.98,4.61,50.0,,,,,,1.0,,,,10.0,,KIGQ 040055Z AUTO 05004KT 10SM CLR 01/M02 A3047 RMK AO2  T00091025,,,,,,27.4,,NE,29.81,30.11,,Clear
KIGQ,03/04/2018 01:15 UTC,30.46,33.8,26.78,75.15,4.61,60.0,,,,,,1.0,,,,10.0,,KIGQ 040115Z AUTO 06004KT 10SM CLR 01/M03 A3046 RMK AO2  T00101029,,,,,,26.67,,ENE,29.8,30.11,,Clear
KIGQ,03/04/2018 01:35 UTC,30.46,33.62,26.42,74.58,4.61,50.0,,,,,,1.0,,,,10.0,,KIGQ 040135Z AUTO 05004KT 10SM CLR 01/M03 A3046 RMK AO2  T00091031,,,,,,26.31,,NE,29.8,30.11,,Clear
KIGQ,03/04/2018 01:55 UTC,30.47,33.44,26.96,76.81,0.0,0.0,,,,,,1.0,,,,10.0,,KIGQ 040155Z AUTO 00000KT 10SM CLR 01/M03 A3047 RMK AO2  T00081028,,,,,,26.86,,N,29.81,30.12,,Clear
KIGQ,03/04/2018 02:15 UTC,30.46,33.26,27.32,78.53,0.0,0.0,,,,,,1.0,,,,10.0,,KIGQ 040215Z AUTO 00000KT 10SM CLR 01/M03 A3046 RMK AO2  T00071026,,,,,,27.23,,N,29.8,30.1,,Clear
KIGQ,03/04/2018 02:35 UTC,30.46,33.26,27.32,78.53,0.0,0.0,,,,,,1.0,,,,10.0,,KIGQ 040235Z AUTO 00000KT 10SM CLR 01/M03 A3046 RMK AO2  T00071026,,,,,,27.23,,N,29.8,30.1,,Clear
KIGQ,03/04/2018 02:55 UTC,30.45,32.36,28.04,83.87,0.0,0.0,,,,,,1.0,,,,10.0,,KIGQ 040255Z AUTO 00000KT 10SM CLR 00/M02 A3045 RMK AO2  T00021022,,,,,,27.97,,N,29.79,30.09,,Clear
KIGQ,03/04/2018 03:15 UTC,30.45,32.36,28.76,86.39,4.61,80.0,,,,,,1.0,,,,10.0,,KIGQ 040315Z AUTO 08004KT 10SM CLR 00/M02 A3045 RMK AO2  T00021018,,,,,,28.7,,E,29.79,30.08,,Clear
KIGQ,03/04/2018 03:35 UTC,30.44,32.36,28.94,87.03,4.61,70.0,,,,,,1.0,,,,10.0,,KIGQ 040335Z AUTO 07004KT 10SM CLR 00/M02 A3044 RMK AO2  T00021017,,,,,,28.88,,ENE,29.78,30.07,,Clear
KIGQ,03/04/2018 03:55 UTC,30.45,32.18,28.94,87.66,3.44,90.0,,,,,,1.0,,,,10.0,,KIGQ 040355Z AUTO 09003KT 10SM CLR 00/M02 A3045 RMK AO2  T00011017,,,,,,28.89,,E,29.79,30.08,,Clear
KIGQ,03/04/2018 04:15 UTC,30.44,32.0,28.22,85.73,4.61,90.0,,,,,,1.0,,,,10.0,,KIGQ 040415Z AUTO 09004KT 10SM CLR 00/M02 A3044 RMK AO2  T00001021,,,,,,28.16,,E,29.78,30.08,,Clear
KIGQ,03/04/2018 04:35 UTC,30.45,32.18,26.96,80.81,3.44,80.0,,,,,,1.0,,,,10.0,,KIGQ 040435Z AUTO 08003KT 10SM CLR 00/M03 A3045 RMK AO2  T00011028,,,,,,26.88,,E,29.79,30.1,,Clear
KIGQ,03/04/2018 04:55 UTC,30.45,32.0,26.42,79.6,4.61,100.0,,,,,,1.0,,,,10.0,,KIGQ 040455Z AUTO 10004KT 10SM CLR 00/M03 A3045 RMK AO2  T00001031,,,,,,26.33,,E,29.79,30.11,,Clear
KIGQ,03/04/2018 05:15 UTC,30.46,31.82,26.06,78.99,0.0,0.0,,,,,,1.0,,,,10.0,,KIGQ 040515Z AUTO 00000KT 10SM CLR 00/M03 A3046 RMK AO2  T10011033,,,,,,25.97,,N,29.8,30.13,,Clear
KIGQ,03/04/2018 05:35 UTC,30.46,32.0,25.7,77.25,4.61,100.0,,,,,,1.0,,,,10.0,,KIGQ 040535Z AUTO 10004KT 10SM CLR 00/M03 A3046 RMK AO2  T00001035,,,,,,25.6,,E,29.8,30.13,,Clear
KIGQ,03/04/2018 05:55 UTC,30.47,32.0,24.98,74.97,4.61,90.0,,,,,,1.0,,,,10.0,,KIGQ 040555Z AUTO 09004KT 10SM CLR 00/M04 A3047 RMK AO2 T00001039  10017 21001 400621025,35.06,31.82,,43.16,27.5,24.87,,E,29.81,30.15,,Clear
KIGQ,03/04/2018 06:15 UTC,30.47,32.18,23.9,71.14,5.75,90.0,,,,,,1.0,,,,10.0,,KIGQ 040615Z AUTO 09005KT 10SM CLR 00/M04 A3047 RMK AO2  T00011045,,,,,,23.77,,E,29.81,30.16,,Clear
KIGQ,03/04/2018 06:35 UTC,30.48,32.18,23.72,70.61,4.61,90.0,,,,,,1.0,,,,10.0,,KIGQ 040635Z AUTO 09004KT 10SM CLR 00/M05 A3048 RMK AO2  T00011046,,,,,,23.59,,E,29.82,30.17,,Clear
KIGQ,03/04/2018 06:55 UTC,30.48,32.0,23.36,70.05,4.61,80.0,,,,,,1.0,,,,10.0,,KIGQ 040655Z AUTO 08004KT 10SM CLR 00/M05 A3048 RMK AO2  T00001048,,,,,,23.23,,E,29.82,30.18,,Clear
KIGQ,03/04/2018 07:15 UTC,30.48,32.0,23.0,69.0,5.75,80.0,,,,,,1.0,,,,10.0,,KIGQ 040715Z AUTO 08005KT 10SM CLR 00/M05 A3048 RMK AO2  T00001050,,,,,,22.86,,E,29.82,30.18,,Clear
KIGQ,03/04/2018 07:35 UTC,30.48,32.0,22.82,68.48,4.61,80.0,,,,,,1.0,,,,10.0,,KIGQ 040735Z AUTO 08004KT 10SM CLR 00/M05 A3048 RMK AO2  T00001051,,,,,,22.68,,E,29.82,30.18,,Clear
KIGQ,03/04/2018 07:55 UTC,30.47,31.82,22.82,68.98,6.91,90.0,,,,,,1.0,,,,10.0,,KIGQ 040755Z AUTO 09006KT 10SM CLR 00/M05 A3047 RMK AO2  T10011051,,,,,,22.68,,E,29.81,30.18,,Clear
KIGQ,03/04/2018 08:15 UTC,30.46,32.0,23.0,69.0,6.91,90.0,,,,,,1.0,,,,10.0,,KIGQ 040815Z AUTO 09006KT 10SM CLR 00/M05 A3046 RMK AO2  T00001050,,,,,,22.86,,E,29.8,30.16,,Clear
KIGQ,03/04/2018 08:35 UTC,30.47,32.0,22.46,67.45,3.44,90.0,,,,,,1.0,,,,10.0,,KIGQ 040835Z AUTO 09003KT 10SM CLR 00/M05 A3047 RMK AO2  T00001053,,,,,,22.32,,E,29.81,30.18,,Clear
KIGQ,03/04/2018 08:55 UTC,30.47,31.1,22.82,71.02,4.61,90.0,,,,,,1.0,,,,10.0,,KIGQ 040855Z AUTO 09004KT 10SM CLR 00/M05 A3047 RMK AO2  T10051051,,,,,,22.69,,E,29.81,30.18,,Clear
KIGQ,03/04/2018 09:15 UTC,30.47,30.56,23.36,74.26,0.0,0.0,,,,,,1.0,,,,10.0,,KIGQ 040915Z AUTO 00000KT 10SM CLR M01/M05 A3047 RMK AO2  T10081048,,,,,,23.25,,N,29.81,30.18,,Clear
KIGQ,03/04/2018 09:35 UTC,30.47,30.02,22.28,72.53,0.0,0.0,,,,,,1.0,,,,10.0,,KIGQ 040935Z AUTO 00000KT 10SM CLR M01/M05 A3047 RMK AO2  T10111054,,,,,,22.16,,N,29.81,30.19,,Clear
KIGQ,03/04/2018 09:55 UTC,30.48,30.02,23.0,74.77,3.44,100.0,,,,,,1.0,,,,10.0,,KIGQ 040955Z AUTO 10003KT 10SM CLR M01/M05 A3048 RMK AO2  T10111050,,,,,,22.89,,E,29.82,30.19,,Clear
KIGQ,03/04/2018 10:15 UTC,30.48,30.2,22.1,71.46,4.61,80.0,,,,,,1.0,,,,10.0,,KIGQ 041015Z AUTO 08004KT 10SM CLR M01/M05 A3048 RMK AO2  T10101055,,,,,,21.97,,E,29.82,30.2,,Clear
KIGQ,03/04/2018 10:35 UTC,30.48,30.2,22.1,71.46,3.44,80.0,,,,,,1.0,,,,10.0,,KIGQ 041035Z AUTO 08003KT 10SM CLR M01/M05 A3048 RMK AO2  T10101055,,,,,,21.97,,E,29.82,30.2,,Clear
KIGQ,03/04/2018 10:55 UTC,30.47,29.84,21.92,71.96,4.61,90.0,,,,,,1.0,,,,10.0,,KIGQ 041055Z AUTO 09004KT 10SM CLR M01/M06 A3047 RMK AO2  T10121056,,,,,,21.79,,E,29.81,30.2,,Clear
KIGQ,03/04/2018 11:15 UTC,30.46,29.66,22.64,74.73,5.75,90.0,,,,,,1.0,,,,10.0,,KIGQ 041115Z AUTO 09005KT 10SM CLR M01/M05 A3046 RMK AO2  T10131052,,,,,,22.53,,E,29.8,30.18,,Clear
KIGQ,03/04/2018 11:35 UTC,30.46,29.12,22.64,76.4,5.75,100.0,,,,,,1.0,,,,10.0,,KIGQ 041135Z AUTO 10005KT 10SM CLR M02/M05 A3046 RMK AO2  T10161052,,,,,,22.54,,E,29.8,30.18,,Clear
KIGQ,03/04/2018 11:55 UTC,30.46,28.76,22.64,77.53,6.91,100.0,,,,,,1.0,,,,10.0,,KIGQ 041155Z AUTO 10006KT 10SM CLR M02/M05 A3046 RMK AO2 T10181052  10002 21018,32.36,28.76,,,,22.54,,E,29.8,30.18,,Clear
KIGQ,03/04/2018 12:15 UTC,30.46,29.3,23.0,77.0,6.91,110.0,,,,,,1.0,,,,10.0,,KIGQ 041215Z AUTO 11006KT 10SM CLR M01/M05 A3046 RMK AO2  T10151050,,,,,,22.9,,ESE,29.8,30.18,,Clear
KIGQ,03/04/2018 12:35 UTC,30.46,29.12,22.82,76.98,5.75,100.0,,,,,,1.0,,,,10.0,,KIGQ 041235Z AUTO 10005KT 10SM CLR M02/M05 A3046 RMK AO2  T10161051,,,,,,22.72,,E,29.8,30.18,,Clear
KIGQ,03/04/2018 12:55 UTC,30.46,29.48,23.54,78.19,6.91,90.0,,,,,,1.0,,,,10.0,,KIGQ 041255Z AUTO 09006KT 10SM CLR M01/M05 A3046 RMK AO2  T10141047,,,,,,23.44,,E,29.8,30.17,,Clear
KIGQ,03/04/2018 13:15 UTC,30.46,30.92,23.9,74.86,5.75,100.0,,,,,,1.0,,,,10.0,,KIGQ 041315Z AUTO 10005KT 10SM CLR M01/M04 A3046 RMK AO2  T10061045,,,,,,23.79,,E,29.8,30.16,,Clear
KIGQ,03/04/2018 13:35 UTC,30.46,32.0,23.72,71.12,6.91,110.0,,,,,,1.0,,,,10.0,,KIGQ 041335Z AUTO 11006KT 10SM CLR 00/M05 A3046 RMK AO2  T00001046,,,,,,23.59,,ESE,29.8,30.15,,Clear
KIGQ,03/04/2018 13:55 UTC,30.46,32.9,23.18,67.05,10.36,110.0,,,,,,1.0,,,,10.0,,KIGQ 041355Z AUTO 11009KT 10SM CLR 01/M05 A3046 RMK AO2  T00051049,,,,,,23.03,26.98,ESE,29.8,30.16,,Clear
KIGQ,03/04/2018 14:15 UTC,30.45,34.16,20.84,57.74,12.66,120.0,,,,,,1.0,,,,10.0,,KIGQ 041415Z AUTO 12011KT 10SM CLR 01/M06 A3045 RMK AO2  T00121062,,,,,,20.66,27.56,ESE,29.79,30.16,,Clear
KIGQ,03/04/2018 14:35 UTC,30.45,35.42,20.48,54.08,11.5,130.0,,,,,,1.0,,,,10.0,,KIGQ 041435Z AUTO 13010KT 10SM CLR 02/M06 A3045 RMK AO2  T00191064,,,,,,20.28,29.53,SE,29.79,30.16,,Clear
KIGQ,03/04/2018 14:55 UTC,30.45,36.5,20.84,52.61,10.36,120.0,,,,,,1.0,,,,10.0,,KIGQ 041455Z AUTO 12009KT 10SM CLR 03/M06 A3045 RMK AO2  T00251062,,,,,,20.64,31.29,ESE,29.79,30.15,,Clear
KIGQ,03/04/2018 15:15 UTC,30.45,37.04,21.02,51.9,11.5,110.0,17.27,,,,,1.0,,,,10.0,,KIGQ 041515Z AUTO 11010G15KT 10SM CLR 03/M06 A3045 RMK AO2  T00281061,,,,,,20.81,31.48,ESE,29.79,30.15,,Clear
KIGQ,03/04/2018 15:35 UTC,30.44,39.02,22.46,51.04,10.36,110.0,,,,,,1.0,,,,10.0,,KIGQ 041535Z AUTO 11009KT 10SM CLR 04/M05 A3044 RMK AO2  T00391053,,,,,,22.25,34.31,ESE,29.78,30.11,,Clear
KIGQ,03/04/2018 15:55 UTC,30.44,40.1,21.2,46.39,10.36,140.0,,,,,,1.0,,,,10.0,,KIGQ 041555Z AUTO 14009KT 10SM CLR 05/M06 A3044 RMK AO2  T00451060,,,,,,20.98,35.6,SE,29.78,30.12,,Clear
KIGQ,03/04/2018 16:15 UTC,30.43,40.82,21.38,45.46,11.5,130.0,,,,,,1.0,,,,10.0,,KIGQ 041615Z AUTO 13010KT 10SM CLR 05/M06 A3043 RMK AO2  T00491059,,,,,,21.16,36.05,SE,29.77,30.1,,Clear
KIGQ,03/04/2018 16:35 UTC,30.43,41.36,22.46,46.6,11.5,100.0,,,,,,1.0,,,,10.0,,KIGQ 041635Z AUTO 10010KT 10SM CLR 05/M05 A3043 RMK AO2  T00521053,,,,,,22.24,36.7,E,29.77,30.09,,Clear
KIGQ,03/04/2018 16:55 UTC,30.44,42.44,23.36,46.43,12.66,130.0,,,,,,1.0,,,,10.0,,KIGQ 041655Z AUTO 13011KT 10SM CLR 06/M05 A3044 RMK AO2  T00581048,,,,,,23.14,37.63,SE,29.78,30.08,,Clear
KIGQ,03/04/2018 17:15 UTC,30.43,42.44,23.36,46.43,12.66,100.0,,,,,,1.0,,,,10.0,,KIGQ 041715Z AUTO 10011KT 10SM CLR 06/M05 A3043 RMK AO2  T00581048,,,,,,23.14,37.63,E,29.77,30.07,,Clear
KIGQ,03/04/2018 17:35 UTC,30.43,43.16,23.72,45.85,11.5,100.0,,,,,,1.0,,,,10.0,,KIGQ 041735Z AUTO 10010KT 10SM CLR 06/M05 A3043 RMK AO2  T00621046,,,,,,23.5,38.87,E,29.77,30.06,,Clear
KIGQ,03/04/2018 17:55 UTC,30.42,43.88,23.18,43.6,10.36,120.0,17.27,,,,,1.0,,,,10.0,,KIGQ 041755Z AUTO 12009G15KT 10SM CLR 07/M05 A3042 RMK AO2  T00661049 10066 21017,43.88,28.94,,,,22.96,40.12,ESE,29.76,30.06,,Clear
KIGQ,03/04/2018 18:15 UTC,30.41,44.42,22.82,42.07,8.05,130.0,,,,,,1.0,,,,10.0,,KIGQ 041815Z AUTO 13007KT 10SM CLR 07/M05 A3041 RMK AO2  T00691051,,,,,,22.59,41.66,SE,29.75,30.05,,Clear
KIGQ,03/04/2018 18:35 UTC,30.4,45.14,25.34,45.49,9.22,130.0,,,,,,1.0,,,,10.0,,KIGQ 041835Z AUTO 13008KT 10SM CLR 07/M04 A3040 RMK AO2  T00731037,,,,,,25.13,,SE,29.74,30.0,,Clear
KIGQ,03/04/2018 18:55 UTC,30.39,45.86,25.34,44.27,8.05,130.0,,,,,,1.0,,,,10.0,,KIGQ 041855Z AUTO 13007KT 10SM CLR 08/M04 A3039 RMK AO2  T00771037,,,,,,25.13,,SE,29.73,29.99,,Clear
KIGQ,03/04/2018 19:15 UTC,30.38,46.04,24.8,42.99,8.05,130.0,,,,,,1.0,,,,10.0,,KIGQ 041915Z AUTO 13007KT 10SM CLR 08/M04 A3038 RMK AO2  T00781040,,,,,,24.58,,SE,29.72,29.98,,Clear
KIGQ,03/04/2018 19:35 UTC,30.37,46.58,26.06,44.39,9.22,120.0,,,,,,1.0,,,,10.0,,KIGQ 041935Z AUTO 12008KT 10SM CLR 08/M03 A3037 RMK AO2  T00811033,,,,,,25.85,,ESE,29.71,29.95,,Clear
KIGQ,03/04/2018 19:55 UTC,30.36,46.76,26.6,45.08,10.36,110.0,,,,,,1.0,,,,10.0,,KIGQ 041955Z AUTO 11009KT 10SM CLR 08/M03 A3036 RMK AO2  T00821030,,,,,,26.39,,ESE,29.7,29.93,,Clear
KIGQ,03/04/2018 20:15 UTC,30.36,47.3,27.32,45.51,14.97,120.0,,,,,,1.0,,,,10.0,,KIGQ 042015Z AUTO 12013KT 10SM CLR 09/M03 A3036 RMK AO2  T00851026,,,,,,27.12,,ESE,29.7,29.92,,Clear
KIGQ,03/04/2018 20:35 UTC,30.34,47.12,27.32,45.82,12.66,100.0,17.27,,,,,1.0,,,,10.0,,KIGQ 042035Z AUTO 10011G15KT 10SM CLR 08/M03 A3034 RMK AO2  T00841026,,,,,,27.12,,E,29.68,29.9,,Clear
KIGQ,03/04/2018 20:55 UTC,30.34,47.48,28.4,47.26,9.22,100.0,,,,,,1.0,,,,10.0,,KIGQ 042055Z AUTO 10008KT 10SM CLR 09/M02 A3034 RMK AO2  T00861020,,,,,,28.2,,E,29.68,29.88,,Clear
KIGQ,03/04/2018 21:15 UTC,30.33,47.48,27.5,45.54,9.22,100.0,,,,,,1.0,,,,10.0,,KIGQ 042115Z AUTO 10008KT 10SM CLR 09/M02 A3033 RMK AO2  T00861025,,,,,,27.3,,E,29.67,29.89,,Clear
KIGQ,03/04/2018 21:35 UTC,30.32,46.94,28.04,47.52,10.36,100.0,,,,,,1.0,,,,10.0,,KIGQ 042135Z AUTO 10009KT 10SM CLR 08/M02 A3032 RMK AO2  T00831022,,,,,,27.84,,E,29.66,29.87,,Clear
KIGQ,03/04/2018 21:55 UTC,30.32,46.4,26.6,45.7,12.66,100.0,,,,,,1.0,,,,10.0,,KIGQ 042155Z AUTO 10011KT 10SM CLR 08/M03 A3032 RMK AO2  T00801030,,,,,,26.39,,E,29.66,29.9,,Clear
KIGQ,03/04/2018 22:15 UTC,30.32,45.86,27.32,48.05,9.22,120.0,,,,,,1.0,,,,10.0,,KIGQ 042215Z AUTO 12008KT 10SM CLR 08/M03 A3032 RMK AO2  T00771026,,,,,,27.12,,ESE,29.66,29.89,,Clear
KIGQ,03/04/2018 22:35 UTC,30.32,45.5,26.78,47.64,12.66,100.0,17.27,,,,,1.0,,,,10.0,,KIGQ 042235Z AUTO 10011G15KT 10SM CLR 08/M03 A3032 RMK AO2  T00751029,,,,,,26.58,,E,29.66,29.9,,Clear
KIGQ,03/04/2018 22:55 UTC,30.31,44.96,26.24,47.55,13.8,120.0,,,,,,1.0,,,,10.0,,KIGQ 042255Z AUTO 12012KT 10SM CLR 07/M03 A3031 RMK AO2  T00721032,,,,,,26.04,40.37,ESE,29.65,29.9,,Clear
KIGQ,03/04/2018 23:15 UTC,30.3,44.06,25.88,48.48,13.8,110.0,,,,,,1.0,,,,10.0,,KIGQ 042315Z AUTO 11012KT 10SM CLR 07/M03 A3030 RMK AO2  T00671034,,,,,,25.68,39.27,ESE,29.64,29.9,,Clear
KIGQ,03/04/2018 23:35 UTC,30.3,42.98,25.7,50.15,13.8,110.0,,,,,,1.0,,,,10.0,,KIGQ 042335Z AUTO 11012KT 10SM CLR 06/M03 A3030 RMK AO2  T00611035,,,,,,25.5,37.95,ESE,29.64,29.91,,Clear
KIGQ,03/04/2018 23:55 UTC,30.3,42.44,24.98,49.69,11.5,110.0,,,,,,1.0,,,,10.0,,KIGQ 042355Z AUTO 11010KT 10SM CLR 06/M04 A3030 RMK AO2 T00581039  10087 20058,47.66,42.44,,,,24.78,38.0,ESE,29.64,29.92,,Clear
KIGQ,03/05/2018 00:15 UTC,30.3,41.18,25.7,53.75,10.36,100.0,,,,,,1.0,,,,10.0,,KIGQ 050015Z AUTO 10009KT 10SM CLR 05/M03 A3030 RMK AO2  T00511035,,,,,,25.51,36.89,E,29.64,29.92,,Clear
KIGQ,03/05/2018 00:35 UTC,30.3,40.64,25.88,55.3,10.36,110.0,,,,,,1.0,,,,10.0,,KIGQ 050035Z AUTO 11009KT 10SM CLR 05/M03 A3030 RMK AO2  T00481034,,,,,,25.7,36.24,ESE,29.64,29.92,,Clear
KIGQ,03/05/2018 00:55 UTC,30.31,40.28,25.34,54.83,8.05,110.0,,,,,,1.0,,,,10.0,,KIGQ 050055Z AUTO 11007KT 10SM CLR 05/M04 A3031 RMK AO2  T00461037,,,,,,25.15,36.8,ESE,29.65,29.94,,Clear
KIGQ,03/05/2018 01:15 UTC,30.3,39.56,25.88,57.67,9.22,110.0,,,,,,1.0,,,,10.0,,KIGQ 050115Z AUTO 11008KT 10SM CLR 04/M03 A3030 RMK AO2  T00421034,,,,,,25.7,35.42,ESE,29.64,29.92,,Clear
KIGQ,03/05/2018 01:35 UTC,30.3,38.84,26.6,61.11,9.22,110.0,,,,,,1.0,,,,10.0,,KIGQ 050135Z AUTO 11008KT 10SM CLR 04/M03 A3030 RMK AO2  T00381030,,,,,,26.44,34.57,ESE,29.64,29.92,,Clear
KIGQ,03/05/2018 01:55 UTC,30.3,38.48,26.78,62.44,10.36,110.0,,,,,,1.0,,,,10.0,,KIGQ 050155Z AUTO 11009KT 10SM CLR 04/M03 A3030 RMK AO2  T00361029,,,,,,26.62,33.66,ESE,29.64,29.92,,Clear
KIGQ,03/05/2018 02:15 UTC,30.31,37.94,26.42,62.83,9.22,110.0,,,,,,1.0,,,,10.0,,KIGQ 050215Z AUTO 11008KT 10SM CLR 03/M03 A3031 RMK AO2  T00331031,,,,,,26.26,33.5,ESE,29.65,29.93,,Clear
KIGQ,03/05/2018 02:35 UTC,30.3,38.12,25.52,60.1,13.8,110.0,,,,,,1.0,,,,10.0,,KIGQ 050235Z AUTO 11012KT 10SM CLR 03/M04 A3030 RMK AO2  T00341036,,,,,,25.35,32.0,ESE,29.64,29.94,,Clear
KIGQ,03/05/2018 02:55 UTC,30.31,37.4,26.24,63.71,9.22,100.0,,,,,,1.0,,,,10.0,,KIGQ 050255Z AUTO 10008KT 10SM CLR 03/M03 A3031 RMK AO2  T00301032,,,,,,26.09,32.86,E,29.65,29.94,,Clear
KIGQ,03/05/2018 03:15 UTC,30.31,36.86,26.06,64.59,11.5,110.0,,,,,,1.0,,,,10.0,,KIGQ 050315Z AUTO 11010KT 10SM CLR 03/M03 A3031 RMK AO2  T00271033,,,,,,25.91,31.27,ESE,29.65,29.95,,Clear
KIGQ,03/05/2018 03:35 UTC,30.31,36.68,25.7,64.09,12.66,110.0,,,,,,1.0,,,,10.0,,KIGQ 050335Z AUTO 11011KT 10SM CLR 03/M03 A3031 RMK AO2  T00261035,,,,,,25.55,30.62,ESE,29.65,29.95,,Clear
KIGQ,03/05/2018 03:55 UTC,30.3,36.68,25.34,63.13,12.66,110.0,20.71,,,,,1.0,,,,10.0,,KIGQ 050355Z AUTO 11011G18KT 10SM CLR 03/M04 A3030 RMK AO2  T00261037,,,,,,25.18,30.62,ESE,29.64,29.95,,Clear
KIGQ,03/05/2018 04:15 UTC,30.29,35.96,25.34,64.96,12.66,110.0,18.41,,,,,1.0,,,,10.0,,KIGQ 050415Z AUTO 11011G16KT 10SM CLR 02/M04 A3029 RMK AO2  T00221037,,,,,,25.19,29.75,ESE,29.63,29.94,,Clear
KIGQ,03/05/2018 04:35 UTC,30.29,35.78,24.98,64.45,10.36,110.0,,,,,,1.0,,,,10.0,,KIGQ 050435Z AUTO 11009KT 10SM CLR 02/M04 A3029 RMK AO2  T00211039,,,,,,24.83,30.43,ESE,29.63,29.94,,Clear
KIGQ,03/05/2018 04:55 UTC,30.28,35.06,24.62,65.33,16.11,110.0,,,,,,1.0,,,,10.0,,KIGQ 050455Z AUTO 11014KT 10SM CLR 02/M04 A3028 RMK AO2  T00171041,,,,,,24.47,27.52,ESE,29.62,29.94,,Clear
KIGQ,03/05/2018 05:15 UTC,30.29,34.88,23.9,63.85,12.66,110.0,19.57,,,,,1.0,,,,10.0,,KIGQ 050515Z AUTO 11011G17KT 10SM CLR 02/M04 A3029 RMK AO2 LTG  DSNT SW AND W T00161045,,,,,,23.74,28.43,ESE,29.63,29.96,,Clear
KIGQ,03/05/2018 05:35 UTC,30.29,34.7,22.1,59.61,17.27,120.0,21.85,,,,,1.0,,,,10.0,,KIGQ 050535Z AUTO 12015G19KT 10SM CLR 02/M05 A3029 RMK AO2 LTG  DSNT SW AND W T00151055,,,,,,21.92,26.73,ESE,29.63,29.98,,Clear
KIGQ,03/05/2018 05:55 UTC,30.28,34.7,21.2,57.38,14.97,110.0,,,,,,1.0,,,,10.0,,KIGQ 050555Z AUTO 11013KT 10SM CLR 02/M06 A3028 RMK AO2 T00151060  10056 20015 400871018,42.08,34.7,,47.66,28.76,21.01,27.42,ESE,29.62,29.98,,Clear
KIGQ,03/05/2018 06:15 UTC,30.28,34.52,20.12,55.19,12.66,120.0,17.27,,,,,1.0,,,,10.0,,KIGQ 050615Z AUTO 12011G15KT 10SM CLR 01/M07 A3028 RMK AO2 LTG  DSNT SW AND W T00141066,,,,,,19.92,28.0,ESE,29.62,30.0,,Clear
KIGQ,03/05/2018 06:35 UTC,30.27,34.16,20.84,57.74,11.5,110.0,19.57,,,,,1.0,,,,10.0,,KIGQ 050635Z AUTO 11010G17KT 10SM CLR 01/M06 A3027 RMK AO2 LTG  DSNT SW T00121062,,,,,,20.66,28.01,ESE,29.61,29.98,,Clear
KIGQ,03/05/2018 06:55 UTC,30.27,33.98,21.74,60.42,12.66,110.0,16.11,,,,,1.0,,,,10.0,,KIGQ 050655Z AUTO 11011G14KT 10SM CLR 01/M06 A3027 RMK AO2  T00111057,,,,,,21.57,27.34,ESE,29.61,29.97,,Clear
KIGQ,03/05/2018 07:15 UTC,30.26,33.8,21.92,61.32,12.66,110.0,17.27,,,,,1.0,,,,10.0,,KIGQ 050715Z AUTO 11011G15KT 10SM CLR 01/M06 A3026 RMK AO2  T00101056,,,,,,21.75,27.12,ESE,29.6,29.96,,Clear
KIGQ,03/05/2018 07:35 UTC,30.25,33.26,21.38,61.25,10.36,100.0,,,,,,1.0,,,,10.0,,KIGQ 050735Z AUTO 10009KT 10SM CLR 01/M06 A3025 RMK AO2  T00071059,,,,,,21.21,27.41,E,29.59,29.96,,Clear
KIGQ,03/05/2018 07:55 UTC,30.24,33.08,21.2,61.22,10.36,110.0,17.27,,,,,1.0,,,,10.0,,KIGQ 050755Z AUTO 11009G15KT 10SM CLR 01/M06 A3024 RMK AO2  T00061060,,,,,,21.03,27.19,ESE,29.58,29.95,,Clear
KIGQ,03/05/2018 08:15 UTC,30.21,32.36,21.38,63.5,12.66,100.0,,,,,,1.0,,,,10.0,,KIGQ 050815Z AUTO 10011KT 10SM CLR 00/M06 A3021 RMK AO2  T00021059,,,,,,21.22,25.37,E,29.55,29.92,,Clear
KIGQ,03/05/2018 08:35 UTC,30.2,32.54,21.2,62.56,12.66,110.0,,,,,,1.0,,,,10.0,,KIGQ 050835Z AUTO 11011KT 10SM CLR 00/M06 A3020 RMK AO2  T00031060,,,,,,21.03,25.59,ESE,29.54,29.91,,Clear
KIGQ,03/05/2018 08:55 UTC,30.19,32.36,21.2,63.02,13.8,100.0,18.41,,,,,1.0,,,,10.0,,KIGQ 050855Z AUTO 10012G16KT 10SM CLR 00/M06 A3019 RMK AO2  T00021060,,,,,,21.04,24.95,E,29.53,29.9,,Clear
KIGQ,03/05/2018 09:15 UTC,30.19,32.18,21.2,63.48,10.36,110.0,18.41,,,,,1.0,,,,10.0,,KIGQ 050915Z AUTO 11009G16KT 10SM CLR 00/M06 A3019 RMK AO2  T00011060,,,,,,21.04,26.12,ESE,29.53,29.9,,Clear
KIGQ,03/05/2018 09:35 UTC,30.19,32.0,21.02,63.45,12.66,110.0,,,,,,1.0,,,,10.0,,KIGQ 050935Z AUTO 11011KT 10SM CLR 00/M06 A3019 RMK AO2  T00001061,,,,,,20.86,24.93,ESE,29.53,29.91,,Clear
KIGQ,03/05/2018 09:55 UTC,30.2,32.0,21.02,63.45,13.8,110.0,,,,,,1.0,,,,10.0,,KIGQ 050955Z AUTO 11012KT 10SM CLR 00/M06 A3020 RMK AO2  T00001061,,,,,,20.86,24.5,ESE,29.54,29.92,,Clear
KIGQ,03/05/2018 10:15 UTC,30.2,32.0,21.2,63.94,12.66,100.0,17.27,,,,,1.0,,,,10.0,,KIGQ 051015Z AUTO 10011G15KT 10SM CLR 00/M06 A3020 RMK AO2 LTG  DSNT W T00001060,,,,,,21.04,24.93,E,29.54,29.92,,Clear
KIGQ,03/05/2018 10:35 UTC,30.2,32.0,21.02,63.45,10.36,100.0,,,,,,1202.0,,,,10.0,,KIGQ 051035Z AUTO 10009KT 10SM SCT120 00/M06 A3020 RMK AO2 LTG  DSNT W T00001061,,,,,,20.86,25.9,E,29.54,29.92,,Partly Cloudy
KIGQ,03/05/2018 10:55 UTC,30.21,32.0,20.84,62.97,9.22,120.0,,,,,,1204.0,,,,10.0,,KIGQ 051055Z AUTO 12008KT 10SM OVC120 00/M06 A3021 RMK AO2  T00001062,,,12000.0,,,20.68,26.45,ESE,29.55,29.93,,Overcast
KIGQ,03/05/2018 11:15 UTC,30.22,32.0,20.84,62.97,10.36,110.0,,,,,,1204.0,,,,10.0,,KIGQ 051115Z AUTO 11009KT 10SM OVC120 00/M06 A3022 RMK AO2  T00001062,,,12000.0,,,20.68,25.9,ESE,29.56,29.94,,Overcast
KIGQ,03/05/2018 11:35 UTC,30.22,32.0,20.66,62.49,10.36,110.0,17.27,,,,,1204.0,,,,10.0,,KIGQ 051135Z AUTO 11009G15KT 10SM OVC120 00/M06 A3022 RMK AO2  T00001063,,,12000.0,,,20.49,25.9,ESE,29.56,29.94,,Overcast
KIGQ,03/05/2018 11:55 UTC,30.23,32.0,20.66,62.49,10.36,120.0,,,,,,1204.0,,,,10.0,,KIGQ 051155Z AUTO 12009KT 10SM OVC120 00/M06 A3023 RMK AO2  T00001063 10015 20000,34.7,32.0,12000.0,,,20.49,25.9,ESE,29.57,29.95,,Overcast
KIGQ,03/05/2018 12:15 UTC,30.23,32.0,21.02,63.45,9.22,100.0,,,,,,1204.0,,,,10.0,,KIGQ 051215Z AUTO 10008KT 10SM OVC120 00/M06 A3023 RMK AO2  T00001061,,,12000.0,,,20.86,26.45,E,29.57,29.95,,Overcast
KIGQ,03/05/2018 12:35 UTC,30.24,32.0,21.2,63.94,9.22,110.0,,,,,,1203.0,,,,10.0,,KIGQ 051235Z AUTO 11008KT 10SM BKN120 00/M06 A3024 RMK AO2 LTG  DSNT W T00001060,,,12000.0,,,21.04,26.45,ESE,29.58,29.96,,Mostly Cloudy
KIGQ,03/05/2018 12:55 UTC,30.23,32.0,20.84,62.97,10.36,110.0,,,,,,1202.0,,,,10.0,,KIGQ 051255Z AUTO 11009KT 10SM SCT120 00/M06 A3023 RMK AO2  T00001062,,,,,,20.68,25.9,ESE,29.57,29.95,,Partly Cloudy
KIGQ,03/05/2018 13:15 UTC,30.22,32.0,20.66,62.49,12.66,110.0,,,,,,1203.0,,,,10.0,,KIGQ 051315Z AUTO 11011KT 10SM BKN120 00/M06 A3022 RMK AO2  T00001063,,,12000.0,,,20.49,24.93,ESE,29.56,29.94,,Mostly Cloudy
KIGQ,03/05/2018 13:35 UTC,30.21,32.0,20.3,61.54,11.5,110.0,18.41,,,,,1203.0,,,,10.0,,KIGQ 051335Z AUTO 11010G16KT 10SM BKN120 00/M06 A3021 RMK AO2  T00001065,,,12000.0,,,20.13,25.4,ESE,29.55,29.94,,Mostly Cloudy
KIGQ,03/05/2018 13:55 UTC,30.19,32.0,20.84,62.97,13.8,110.0,20.71,,,,,1203.0,,,,10.0,,KIGQ 051355Z AUTO 11012G18KT 10SM BKN120 00/M06 A3019 RMK AO2  T00001062,,,12000.0,,,20.68,24.5,ESE,29.53,29.91,,Mostly Cloudy
KIGQ,03/05/2018 14:15 UTC,30.18,32.0,21.2,63.94,14.97,100.0,20.71,,,,,1204.0,,,,10.0,,KIGQ 051415Z AUTO 10013G18KT 10SM OVC120 00/M06 A3018 RMK AO2  T00001060,,,12000.0,,,21.04,24.1,E,29.52,29.9,,Overcast
KIGQ,03/05/2018 14:35 UTC,30.17,32.18,21.2,63.48,14.97,110.0,20.71,,,,,1204.0,,,,10.0,,KIGQ 051435Z AUTO 11013G18KT 10SM OVC120 00/M06 A3017 RMK AO2  T00011060,,,12000.0,,,21.04,24.32,ESE,29.51,29.88,,Overcast
KIGQ,03/05/2018 14:55 UTC,30.16,32.54,21.74,64.01,13.8,110.0,19.57,,,,,1202.0,,,,10.0,,KIGQ 051455Z AUTO 11012G17KT 10SM SCT120 00/M06 A3016 RMK AO2  T00031057,,,,,,21.58,25.17,ESE,29.5,29.87,,Partly Cloudy
KIGQ,03/05/2018 15:15 UTC,30.16,32.9,21.2,61.67,17.27,120.0,24.16,,,,,1.0,,,,10.0,,KIGQ 051515Z AUTO 12015G21KT 10SM CLR 01/M06 A3016 RMK AO2  T00051060,,,,,,21.03,24.49,ESE,29.5,29.87,,Clear
KIGQ,03/05/2018 15:35 UTC,30.15,32.9,21.74,63.09,12.66,110.0,25.32,,,,,1.0,,,,10.0,,KIGQ 051535Z AUTO 11011G22KT 10SM CLR 01/M06 A3015 RMK AO2  T00051057,,,,,,21.58,26.03,ESE,29.49,29.85,,Clear
KIGQ,03/05/2018 15:55 UTC,30.13,33.08,21.74,62.64,17.27,110.0,21.85,,,,,1.0,,,,10.0,,KIGQ 051555Z AUTO 11015G19KT 10SM CLR 01/M06 A3013 RMK AO2  T00061057,,,,,,21.58,24.71,ESE,29.47,29.83,,Clear
KIGQ,03/05/2018 16:15 UTC,30.12,33.98,22.82,63.24,17.27,120.0,27.63,,,,,1.0,,,,10.0,,KIGQ 051615Z AUTO 12015G24KT 10SM CLR 01/M05 A3012 RMK AO2  T00111051,,,,,,22.66,25.83,ESE,29.47,29.82,,Clear
KIGQ,03/05/2018 16:35 UTC,30.1,34.88,23.0,61.48,18.41,100.0,25.32,,,,,1.0,,,,10.0,,KIGQ 051635Z AUTO 10016G22KT 10SM CLR 02/M05 A3010 RMK AO2  T00161050,,,,,,22.83,26.64,E,29.45,29.79,,Clear
KIGQ,03/05/2018 16:55 UTC,30.09,35.24,23.0,60.6,20.71,120.0,24.16,,,,,1.0,,,,10.0,,KIGQ 051655Z AUTO 12018G21KT 10SM CLR 02/M05 A3009 RMK AO2  T00181050,,,,,,22.83,26.51,ESE,29.44,29.78,,Clear
KIGQ,03/05/2018 17:15 UTC,30.11,35.6,22.1,57.51,17.27,120.0,24.16,,,,,1.0,,,,10.0,,KIGQ 051715Z AUTO 12015G21KT 10SM CLR 02/M05 A3011 RMK AO2  T00201055,,,,,,21.91,27.85,ESE,29.46,29.81,,Clear
KIGQ,03/05/2018 17:35 UTC,30.11,35.6,22.64,58.84,17.27,120.0,25.32,,,,,1.0,,,,10.0,,KIGQ 051735Z AUTO 12015G22KT 10SM CLR 02/M05 A3011 RMK AO2 LTG  DSNT NW T00201052,,,,,,22.46,27.85,ESE,29.46,29.8,,Clear
KIGQ,03/05/2018 17:55 UTC,30.09,35.96,23.18,59.34,14.97,110.0,25.32,,,,,1.0,,,,10.0,,KIGQ 051755Z AUTO 11013G22KT 10SM CLR 02/M05 A3009 RMK AO2  T00221049 10022 20000,35.96,32.0,,,,23.0,28.98,ESE,29.44,29.77,,Clear
KIGQ,03/05/2018 18:15 UTC,30.07,36.14,22.82,58.03,21.85,120.0,27.63,,,,,1002.0,,,,10.0,,KIGQ 051815Z AUTO 12019G24KT 10SM SCT100 02/M05 A3007 RMK AO2  T00231051,,,,,,22.64,27.39,ESE,29.42,29.75,,Partly Cloudy
KIGQ,03/05/2018 18:35 UTC,30.06,36.68,23.0,57.24,21.85,110.0,25.32,,,,,1003.0,,,,10.0,,KIGQ 051835Z AUTO 11019G22KT 10SM BKN100 03/M05 A3006 RMK AO2  T00261050,,,10000.0,,,22.82,28.08,ESE,29.41,29.74,,Mostly Cloudy
KIGQ,03/05/2018 18:55 UTC,30.04,37.4,23.36,56.49,20.71,120.0,27.63,,,,,1004.0,,,,10.0,,KIGQ 051855Z AUTO 12018G24KT 10SM OVC100 03/M05 A3004 RMK AO2  T00301048,,,10000.0,,,23.17,29.25,ESE,29.39,29.71,,Overcast
KIGQ,03/05/2018 19:15 UTC,30.03,38.3,23.36,54.53,18.41,110.0,23.02,,,,,904.0,,,,10.0,,KIGQ 051915Z AUTO 11016G20KT 10SM OVC090 04/M05 A3003 RMK AO2  T00351048,,,9000.0,,,23.17,30.93,ESE,29.38,29.7,,Overcast
KIGQ,03/05/2018 19:35 UTC,30.01,38.48,23.36,54.14,18.41,120.0,24.16,,,,,904.0,,,,10.0,,KIGQ 051935Z AUTO 12016G21KT 10SM OVC090 04/M05 A3001 RMK AO2  T00361048,,,9000.0,,,23.16,31.15,ESE,29.36,29.67,,Overcast
KIGQ,03/05/2018 19:55 UTC,29.99,39.38,25.16,56.36,20.71,110.0,26.46,,,,,904.0,,,,10.0,,KIGQ 051955Z AUTO 11018G23KT 10SM OVC090 04/M04 A2999 RMK AO2  T00411038,,,9000.0,,,24.98,31.75,ESE,29.34,29.63,,Overcast
KIGQ,03/05/2018 20:15 UTC,29.97,39.2,23.9,53.85,18.41,110.0,27.63,,,,,904.0,,,,10.0,,KIGQ 052015Z AUTO 11016G24KT 10SM OVC090 04/M04 A2997 RMK AO2  T00401045,,,9000.0,,,23.71,32.06,ESE,29.32,29.62,,Overcast
KIGQ,03/05/2018 20:35 UTC,29.96,39.56,24.26,53.9,21.85,110.0,27.63,,,,,904.0,,,,10.0,,KIGQ 052035Z AUTO 11019G24KT 10SM OVC090 04/M04 A2996 RMK AO2 LTG  DSNT W T00421043,,,9000.0,,,24.07,31.73,ESE,29.31,29.61,,Overcast
KIGQ,03/05/2018 20:55 UTC,29.94,39.92,24.44,53.55,19.57,120.0,27.63,,,,,904.0,,,,10.0,,KIGQ 052055Z AUTO 12017G24KT 10SM OVC090 04/M04 A2994 RMK AO2  T00441042,,,9000.0,,,24.24,32.69,ESE,29.29,29.58,,Overcast
KIGQ,03/05/2018 21:15 UTC,29.94,39.74,24.08,53.12,18.41,110.0,27.63,,,,,804.0,,,,10.0,,KIGQ 052115Z AUTO 11016G24KT 10SM OVC080 04/M04 A2994 RMK AO2  T00431044,,,8000.0,,,23.88,32.73,ESE,29.29,29.59,,Overcast
KIGQ,03/05/2018 21:35 UTC,29.92,39.56,24.26,53.9,13.8,110.0,28.77,,804.0,,,482.0,503.0,,,10.0,,KIGQ 052135Z AUTO 11012G25KT 10SM SCT048 BKN050 OVC080 04/M04  A2992 RMK AO2 T00421043,,,5000.0,,,24.07,33.76,ESE,29.27,29.57,,Overcast
KIGQ,03/05/2018 21:55 UTC,29.9,39.38,24.98,55.94,20.71,110.0,27.63,,804.0,,,382.0,473.0,,,10.0,,KIGQ 052155Z AUTO 11018G24KT 10SM SCT038 BKN047 OVC080 04/M04  A2990 RMK AO2 T00411039,,,4700.0,,,24.8,31.75,ESE,29.25,29.54,,Overcast
KIGQ,03/05/2018 22:15 UTC,29.89,39.2,24.08,54.25,14.97,120.0,23.02,,854.0,,,482.0,803.0,,,10.0,,KIGQ 052215Z AUTO 12013G20KT 10SM SCT048 BKN080 OVC085 04/M04  A2989 RMK AO2 T00401044,,,8000.0,,,23.89,32.97,ESE,29.24,29.54,,Overcast
KIGQ,03/05/2018 22:35 UTC,29.87,38.48,25.34,58.82,20.71,110.0,27.63,,,,,654.0,,,,10.0,,KIGQ 052235Z AUTO 11018G24KT 10SM OVC065 04/M04 A2987 RMK AO2  T00361037,,,6500.0,,,25.17,30.61,ESE,29.22,29.51,,Overcast
KIGQ,03/05/2018 22:55 UTC,29.85,38.3,25.34,59.24,25.32,110.0,31.07,,,,,654.0,,,,10.0,,KIGQ 052255Z AUTO 11022G27KT 10SM OVC065 04/M04 A2985 RMK AO2  T00351037,,,6500.0,,,25.17,29.43,ESE,29.2,29.49,,Overcast
KIGQ,03/05/2018 23:15 UTC,29.85,38.12,25.16,59.21,19.57,110.0,29.93,,,,,652.0,704.0,,,10.0,,KIGQ 052315Z AUTO 11017G26KT 10SM SCT065 OVC070 03/M04 A2985 RMK AO2 T00341038,,,7000.0,,,24.99,30.42,ESE,29.2,29.49,,Overcast
KIGQ,03/05/2018 23:35 UTC,29.88,37.94,24.62,58.3,17.27,120.0,25.32,,,,,704.0,,,,10.0,,KIGQ 052335Z AUTO 12015G22KT 10SM OVC070 03/M04 A2988 RMK AO2  T00331041,,,7000.0,,,24.44,30.77,ESE,29.23,29.53,,Overcast
KIGQ,03/05/2018 23:55 UTC,29.87,37.76,25.52,60.96,16.11,120.0,,,,,,552.0,704.0,,,10.0,,KIGQ 052355Z AUTO 12014KT 10SM SCT055 OVC070 03/M04 A2987 RMK AO2  T00321036 10045 20022,40.1,35.96,7000.0,,,25.35,30.86,ESE,29.22,29.51,,Overcast
KIGQ,03/06/2018 00:15 UTC,29.86,36.32,27.68,70.56,14.97,110.0,29.93,13.0,704.0,,,462.0,503.0,,,5.0,,KIGQ 060015Z AUTO 11013G26KT 5SM -RA SCT046 BKN050 OVC070 02/M02  A2986 RMK AO2 T00241024,,,5000.0,,,27.56,29.42,ESE,29.21,29.48,,Light Rain
KIGQ,03/06/2018 00:35 UTC,29.86,35.06,28.94,78.11,14.97,110.0,24.16,1.0,,0.01,,454.0,,,,5.0,,KIGQ 060035Z AUTO 11013G21KT 5SM RA OVC045 02/M02 A2986 RMK AO2  P0001 T00171017,,,4500.0,,,28.85,27.87,ESE,29.21,29.47,,Rain
KIGQ,03/06/2018 00:55 UTC,29.85,34.34,29.84,83.4,18.41,110.0,26.46,3.0,,0.04,,453.0,504.0,,,5.0,,KIGQ 060055Z AUTO 11016G23KT 5SM SN BKN045 OVC050 01/M01 A2985 RMK AO2 P0004 T00131012,,,4500.0,,,29.77,25.97,ESE,29.2,29.45,,Snow
KIGQ,03/06/2018 01:15 UTC,29.87,33.98,30.56,87.12,10.36,130.0,,13.0,,0.04,,363.0,474.0,,,4.0,,KIGQ 060115Z AUTO 13009KT 4SM -RA BKN036 OVC047 01/M01 A2987 RMK AO2 P0004 T00111008,,,3600.0,,,30.5,28.27,SE,29.22,29.46,,Light Rain
KIGQ,03/06/2018 01:35 UTC,29.88,34.16,30.92,87.77,11.5,130.0,,13.0,,0.04,,364.0,,,,10.0,,KIGQ 060135Z AUTO 13010KT 10SM -RA OVC036 01/M01 A2988 RMK AO2  P0004 T00121006,,,3600.0,,,30.87,28.01,SE,29.23,29.47,,Light Rain
KIGQ,03/06/2018 01:55 UTC,29.89,33.98,31.1,89.05,8.05,150.0,,20.0,,0.04,,364.0,,,,10.0,,KIGQ 060155Z AUTO 15007KT 10SM -SN OVC036 01/00 A2989 RMK AO2  P0004 T00111005,,,3600.0,,,31.05,29.4,SSE,29.24,29.47,,Light Snow
KIGQ,03/06/2018 02:15 UTC,29.88,33.26,31.82,94.37,10.36,130.0,,20.0,,,,344.0,,,,4.0,,KIGQ 060215Z AUTO 13009KT 4SM -SN OVC034 01/00 A2988 RMK AO2  T00071001,,,3400.0,,,31.8,27.41,SE,29.23,29.46,,Light Snow
KIGQ,03/06/2018 02:35 UTC,29.88,33.44,32.0,94.37,12.66,130.0,16.11,20.0,,,,344.0,,,,7.0,,KIGQ 060235Z AUTO 13011G14KT 7SM -SN OVC034 01/00 A2988 RMK AO2  T00080000,,,3400.0,,,31.98,26.68,SE,29.23,29.45,,Light Snow
KIGQ,03/06/2018 02:55 UTC,29.87,33.44,32.0,94.37,12.66,130.0,,20.0,,,0.09,364.0,,,,5.0,,KIGQ 060255Z AUTO 13011KT 5SM -SN OVC036 01/00 A2987 RMK AO2 60009  T00080000,,,3600.0,,,31.98,26.68,SE,29.22,29.44,,Light Snow
KIGQ,03/06/2018 03:15 UTC,29.87,33.26,32.0,95.06,12.66,130.0,18.41,41.0,344.0,,,142.0,283.0,,,10.0,,KIGQ 060315Z AUTO 13011G16KT 10SM UP SCT014 BKN028 OVC034 01/00  A2987 RMK AO2 T00070000,,,2800.0,,,31.98,26.46,SE,29.22,29.44,,Unknown Precip
KIGQ,03/06/2018 03:35 UTC,29.86,33.44,32.18,95.06,11.5,130.0,,41.0,,,,142.0,284.0,,,10.0,,KIGQ 060335Z AUTO 13010KT 10SM UP SCT014 OVC028 01/00 A2986 RMK AO2 T00080001,,,2800.0,,,32.16,27.14,SE,29.21,29.43,,Unknown Precip
KIGQ,03/06/2018 03:55 UTC,29.85,33.44,32.36,95.75,14.97,130.0,18.41,,264.0,,,123.0,173.0,,,7.0,,KIGQ 060355Z AUTO 13013G16KT 7SM BKN012 BKN017 OVC026 01/00 A2985 RMK AO2 T00080002,,,1200.0,,,32.34,25.87,SE,29.2,29.42,,Overcast
KIGQ,03/06/2018 04:15 UTC,29.86,33.44,32.9,97.86,12.66,140.0,18.41,41.0,,,,104.0,,,,4.0,,KIGQ 060415Z AUTO 14011G16KT 4SM UP OVC010 01/01 A2986 RMK AO2  T00080005,,,1000.0,,,32.89,26.68,SE,29.21,29.42,,Unknown Precip
KIGQ,03/06/2018 04:35 UTC,29.86,33.08,32.9,99.28,5.75,180.0,,20.0,,,,84.0,,,,4.0,,KIGQ 060435Z AUTO 18005KT 4SM -SN OVC008 01/01 A2986 RMK AO2  T00060005,,,800.0,,,32.9,,S,29.21,29.42,,Light Snow
KIGQ,03/06/2018 04:55 UTC,29.85,33.08,33.08,100.0,11.5,150.0,,1.0,,,,84.0,,,,4.0,,KIGQ 060455Z AUTO 15010KT 4SM RA OVC008 01/01 A2985 RMK AO2  T00060006,,,800.0,,,33.08,26.7,SSE,29.2,29.41,,Rain
KIGQ,03/06/2018 05:15 UTC,29.85,33.08,33.08,100.0,10.36,150.0,16.11,20.0,,,,84.0,,,,4.0,,KIGQ 060515Z AUTO 15009G14KT 4SM -SN OVC008 01/01 A2985 RMK AO2  T00060006,,,800.0,,,33.08,27.19,SSE,29.2,29.41,,Light Snow
KIGQ,03/06/2018 05:35 UTC,29.84,33.08,33.08,100.0,9.22,150.0,,20.0,,,,84.0,,,,5.0,,KIGQ 060535Z AUTO 15008KT 5SM -SN OVC008 01/01 A2984 RMK AO2  T00060006,,,800.0,,,33.08,27.73,SSE,29.19,29.4,,Light Snow
KIGQ,03/06/2018 05:55 UTC,29.84,33.08,33.08,100.0,9.22,160.0,,13.0,,,,64.0,,0.09,,4.0,,KIGQ 060555Z AUTO 16008KT 4SM -RA OVC006 01/01 A2984 RMK AO2 60009  T00060006 10032 20005 400450000,37.76,32.9,600.0,40.1,32.0,33.08,27.73,SSE,29.19,29.4,,Light Rain
KIGQ,03/06/2018 06:15 UTC,29.83,33.62,33.62,100.0,10.36,140.0,,,,,,64.0,,,,7.0,,KIGQ 060615Z AUTO 14009KT 7SM OVC006 01/01 A2983 RMK AO2  T00090009,,,600.0,,,33.62,27.84,SE,29.18,29.38,,Overcast
KIGQ,03/06/2018 06:35 UTC,29.81,33.8,33.8,100.0,9.22,140.0,,,,,,63.0,144.0,,,10.0,,KIGQ 060635Z AUTO 14008KT 10SM BKN006 OVC014 01/01 A2981 RMK AO2  T00100010,,,600.0,,,33.8,28.59,SE,29.16,29.35,,Overcast
KIGQ,03/06/2018 06:55 UTC,29.81,33.8,33.8,100.0,10.36,140.0,,,,,,64.0,,,,10.0,,KIGQ 060655Z AUTO 14009KT 10SM OVC006 01/01 A2981 RMK AO2  T00100010,,,600.0,,,33.8,28.06,SE,29.16,29.35,,Overcast
KIGQ,03/06/2018 07:15 UTC,29.8,33.8,33.8,100.0,10.36,140.0,16.11,,,,,64.0,,,,10.0,,KIGQ 060715Z AUTO 14009G14KT 10SM OVC006 01/01 A2980 RMK AO2  T00100010,,,600.0,,,33.8,28.06,SE,29.15,29.34,,Overcast
KIGQ,03/06/2018 07:35 UTC,29.79,33.8,33.8,100.0,9.22,160.0,,,,,,44.0,,,,7.0,,KIGQ 060735Z AUTO 16008KT 7SM OVC004 01/01 A2979 RMK AO2  T00100010,,,400.0,,,33.8,28.59,SSE,29.14,29.33,,Overcast
KIGQ,03/06/2018 07:55 UTC,29.79,33.8,33.8,100.0,10.36,170.0,,,,,,44.0,,,,7.0,,KIGQ 060755Z AUTO 17009KT 7SM OVC004 01/01 A2979 RMK AO2  T00100010,,,400.0,,,33.8,28.06,S,29.14,29.33,,Overcast
KIGQ,03/06/2018 08:15 UTC,29.79,33.8,33.8,100.0,6.91,210.0,,,,,,44.0,,,,7.0,,KIGQ 060815Z AUTO 21006KT 7SM OVC004 01/01 A2979 RMK AO2  T00100010,,,400.0,,,33.8,,SSW,29.14,29.33,,Overcast
KIGQ,03/06/2018 08:35 UTC,29.78,33.98,33.98,100.0,5.75,190.0,,31.0,,,,44.0,,,,5.0,,KIGQ 060835Z AUTO 19005KT 5SM BR OVC004 01/01 A2978 RMK AO2  T00110011,,,400.0,,,33.98,,S,29.13,29.32,,Mist
KIGQ,03/06/2018 08:55 UTC,29.78,33.8,33.8,100.0,6.91,190.0,,31.0,,,,44.0,,,,5.0,,KIGQ 060855Z AUTO 19006KT 5SM BR OVC004 01/01 A2978 RMK AO2  T00100010,,,400.0,,,33.8,,S,29.13,29.32,,Mist
KIGQ,03/06/2018 09:15 UTC,29.78,33.26,33.26,100.0,8.05,200.0,,31.0,,,,44.0,,,,4.0,,KIGQ 060915Z AUTO 20007KT 4SM BR OVC004 01/01 A2978 RMK AO2  T00070007,,,400.0,,,33.26,28.56,SSW,29.13,29.33,,Mist
KIGQ,03/06/2018 09:35 UTC,29.77,33.08,33.08,100.0,8.05,190.0,,31.0,,,,24.0,,,,2.0,,KIGQ 060935Z AUTO 19007KT 2SM BR OVC002 01/01 A2977 RMK AO2  T00060006,,,200.0,,,33.08,28.34,S,29.12,29.33,,Mist
KIGQ,03/06/2018 09:55 UTC,29.76,33.08,33.08,100.0,6.91,170.0,,31.0,,,,24.0,,,,3.0,,KIGQ 060955Z AUTO 17006KT 3SM BR OVC002 01/01 A2976 RMK AO2  T00060006,,,200.0,,,33.08,,S,29.11,29.32,,Mist
KIGQ,03/06/2018 10:15 UTC,29.76,33.08,33.08,100.0,6.91,180.0,,31.0,,,,24.0,,,,4.0,,KIGQ 061015Z AUTO 18006KT 4SM BR OVC002 01/01 A2976 RMK AO2  T00060006,,,200.0,,,33.08,,S,29.11,29.32,,Mist
KIGQ,03/06/2018 10:35 UTC,29.75,33.08,33.08,100.0,5.75,170.0,,31.0,,,,24.0,,,,3.0,,KIGQ 061035Z AUTO 17005KT 3SM BR OVC002 01/01 A2975 RMK AO2  T00060006,,,200.0,,,33.08,,S,29.1,29.31,,Mist
KIGQ,03/06/2018 10:55 UTC,29.74,32.9,32.9,100.0,4.61,200.0,,31.0,,,,24.0,,,,3.0,,KIGQ 061055Z AUTO 20004KT 3SM BR OVC002 01/01 A2974 RMK AO2  T00050005,,,200.0,,,32.9,,SSW,29.09,29.3,,Mist
KIGQ,03/06/2018 11:15 UTC,29.74,32.9,32.9,100.0,4.61,180.0,,31.0,,,,24.0,,,,3.0,,KIGQ 061115Z AUTO 18004KT 3SM BR OVC002 01/01 A2974 RMK AO2  T00050005,,,200.0,,,32.9,,S,29.09,29.3,,Mist
KIGQ,03/06/2018 11:35 UTC,29.73,32.54,32.54,100.0,4.61,160.0,,31.0,,,,24.0,,,,2.5,,KIGQ 061135Z AUTO 16004KT 2 1/2SM BR OVC002 00/00 A2973 RMK AO2  T00030003,,,200.0,,,32.54,,SSE,29.08,29.3,,Mist
KIGQ,03/06/2018 11:55 UTC,29.72,32.36,32.36,100.0,4.61,170.0,,31.0,,,,24.0,,,0.09,0.75,,KIGQ 061155Z AUTO 17004KT 3/4SM BR OVC002 00/00 A2972 RMK AO2  70009 T00020002 10011 20001,33.98,32.18,200.0,,,32.36,,S,29.07,29.29,,Mist
KIGQ,03/06/2018 12:15 UTC,29.72,32.36,32.36,100.0,6.91,170.0,,31.0,,,,24.0,,,,0.75,,KIGQ 061215Z AUTO 17006KT 3/4SM BR OVC002 00/00 A2972 RMK AO2  T00020002,,,200.0,,,32.36,,S,29.07,29.29,,Mist
KIGQ,03/06/2018 12:35 UTC,29.72,32.54,32.54,100.0,3.44,160.0,,31.0,,,,24.0,,,,1.75,,KIGQ 061235Z AUTO 16003KT 1 3/4SM BR OVC002 00/00 A2972 RMK AO2  T00030003,,,200.0,,,32.54,,SSE,29.07,29.29,,Mist
KIGQ,03/06/2018 12:55 UTC,29.71,32.9,32.9,100.0,3.44,130.0,,31.0,,,,24.0,,,,4.0,,KIGQ 061255Z AUTO 13003KT 4SM BR OVC002 01/01 A2971 RMK AO2  T00050005,,,200.0,,,32.9,,SE,29.06,29.27,,Mist
KIGQ,03/06/2018 13:15 UTC,29.71,32.9,32.9,100.0,3.44,150.0,,31.0,,,,44.0,,,,5.0,,KIGQ 061315Z AUTO 15003KT 5SM BR OVC004 01/01 A2971 RMK AO2  T00050005,,,400.0,,,32.9,,SSE,29.06,29.27,,Mist
KIGQ,03/06/2018 13:35 UTC,29.71,33.44,33.44,100.0,3.44,160.0,,31.0,704.0,,,43.0,393.0,,,5.0,,KIGQ 061335Z AUTO 16003KT 5SM BR BKN004 BKN039 OVC070 01/01 A2971 RMK AO2 T00080008,,,400.0,,,33.44,,SSE,29.06,29.26,,Mist
KIGQ,03/06/2018 13:55 UTC,29.7,33.8,33.8,100.0,4.61,140.0,,,804.0,,,62.0,753.0,,,7.0,,KIGQ 061355Z AUTO 14004KT 7SM SCT006 BKN075 OVC080 01/01 A2970 RMK AO2 T00100010,,,7500.0,,,33.8,,SE,29.05,29.24,,Overcast
KIGQ,03/06/2018 14:15 UTC,29.7,34.16,34.16,100.0,6.91,130.0,,,704.0,,,82.0,653.0,,,10.0,,KIGQ 061415Z AUTO 13006KT 10SM SCT008 BKN065 OVC070 01/01 A2970 RMK AO2 T00120012,,,6500.0,,,34.16,,SE,29.05,29.23,,Overcast
KIGQ,03/06/2018 14:35 UTC,29.7,34.7,34.34,98.57,5.75,150.0,,,804.0,,,472.0,603.0,,,10.0,,KIGQ 061435Z AUTO 15005KT 10SM SCT047 BKN060 OVC080 02/01 A2970 RMK AO2 T00150013,,,6000.0,,,34.33,,SSE,29.05,29.22,,Overcast
KIGQ,03/06/2018 14:55 UTC,29.7,35.06,34.16,96.47,8.05,180.0,,,504.0,,,142.0,243.0,,,10.0,,KIGQ 061455Z AUTO 18007KT 10SM SCT014 BKN024 OVC050 02/01 A2970 RMK AO2 T00170012,,,2400.0,,,34.14,30.67,S,29.05,29.22,,Overcast
KIGQ,03/06/2018 15:15 UTC,29.7,34.7,33.98,97.17,9.22,150.0,,13.0,464.0,,,122.0,203.0,,,10.0,,KIGQ 061515Z AUTO 15008KT 10SM -RA SCT012 BKN020 OVC046 02/01  A2970 RMK AO2 T00150011,,,2000.0,,,33.97,29.65,SSE,29.05,29.23,,Light Rain
KIGQ,03/06/2018 15:35 UTC,29.68,34.88,34.7,99.29,6.91,120.0,,,704.0,,,82.0,413.0,,,10.0,,KIGQ 061535Z AUTO 12006KT 10SM SCT008 BKN041 OVC070 02/02 A2968 RMK AO2 T00160015,,,4100.0,,,34.7,,ESE,29.03,29.19,,Overcast
KIGQ,03/06/2018 15:55 UTC,29.68,37.22,36.14,95.82,8.05,130.0,,,904.0,,,82.0,433.0,,,10.0,,KIGQ 061555Z AUTO 13007KT 10SM SCT008 BKN043 OVC090 03/02 A2968 RMK AO2 T00290023,,,4300.0,,,36.12,33.21,SE,29.03,29.15,,Overcast
KIGQ,03/06/2018 16:15 UTC,29.67,37.76,35.24,90.52,11.5,160.0,,,,,,82.0,144.0,,,10.0,,KIGQ 061615Z AUTO 16010KT 10SM SCT008 OVC014 03/02 A2967 RMK AO2  T00320018,,,1400.0,,,35.2,32.35,SSE,29.02,29.15,,Overcast
KIGQ,03/06/2018 16:35 UTC,29.66,39.2,35.78,87.41,9.22,190.0,,,504.0,,,163.0,263.0,,,10.0,,KIGQ 061635Z AUTO 19008KT 10SM BKN016 BKN026 OVC050 04/02 A2966 RMK AO2 T00400021,,,1600.0,,,35.73,34.99,S,29.02,29.13,,Overcast
KIGQ,03/06/2018 16:55 UTC,29.66,39.92,35.78,84.99,8.05,210.0,,,504.0,,,183.0,233.0,,,10.0,,KIGQ 061655Z AUTO 21007KT 10SM BKN018 BKN023 OVC050 04/02 A2966 RMK AO2 T00440021,,,1800.0,,,35.72,36.38,SSW,29.02,29.13,,Overcast
KIGQ,03/06/2018 17:15 UTC,29.65,40.64,34.52,78.61,8.05,190.0,16.11,,504.0,,,202.0,303.0,,,10.0,,KIGQ 061715Z AUTO 19007G14KT 10SM SCT020 BKN030 OVC050 05/01 A2965 RMK AO2 T00480014,,,3000.0,,,34.43,37.22,S,29.01,29.14,,Overcast
KIGQ,03/06/2018 17:35 UTC,29.65,41.36,33.26,72.69,9.22,210.0,,,654.0,,,282.0,553.0,,,10.0,,KIGQ 061735Z AUTO 21008KT 10SM SCT028 BKN055 OVC065 05/01 A2965 RMK AO2 T00520007,,,5500.0,,,33.15,37.56,SSW,29.01,29.15,,Overcast
KIGQ,03/06/2018 17:55 UTC,29.64,42.08,33.62,71.72,8.05,210.0,,,804.0,,,282.0,653.0,,,10.0,,KIGQ 061755Z AUTO 21007KT 10SM SCT028 BKN065 OVC080 06/01 A2964 RMK AO2 T00560009 10056 20001,42.08,32.18,6500.0,,,33.51,38.92,SSW,29.0,29.13,,Overcast
KIGQ,03/06/2018 18:15 UTC,29.63,41.9,32.54,69.16,9.22,230.0,,,804.0,,,312.0,372.0,,,10.0,,KIGQ 061815Z AUTO 23008KT 10SM SCT031 SCT037 OVC080 06/00 A2963 RMK AO2 T00550003,,,8000.0,,,32.42,38.2,SW,28.99,29.14,,Overcast
KIGQ,03/06/2018 18:35 UTC,29.63,41.0,30.92,67.07,12.66,230.0,,,804.0,,,392.0,653.0,,,10.0,,KIGQ 061835Z AUTO 23011KT 10SM SCT039 BKN065 OVC080 05/M01 A2963 RMK AO2 T00501006,,,6500.0,,,30.79,35.88,SW,28.99,29.18,,Overcast
KIGQ,03/06/2018 18:55 UTC,29.64,38.12,33.26,82.46,13.8,270.0,,13.0,654.0,,,332.0,393.0,,,10.0,,KIGQ 061855Z AUTO 27012KT 10SM -RA SCT033 BKN039 OVC065 03/01  A2964 RMK AO2 T00340007,,,3900.0,,,33.19,32.0,W,29.0,29.17,,Light Rain
KIGQ,03/06/2018 19:15 UTC,29.64,38.66,33.98,83.1,5.75,250.0,,,854.0,,,342.0,443.0,,,10.0,,KIGQ 061915Z AUTO 25005KT 10SM SCT034 BKN044 OVC085 04/01 A2964 RMK AO2 T00370011,,,4400.0,,,33.91,,WSW,29.0,29.15,,Overcast
KIGQ,03/06/2018 19:35 UTC,29.63,40.1,33.08,75.78,12.66,260.0,,,494.0,,,372.0,433.0,,,10.0,,KIGQ 061935Z AUTO 26011KT 10SM SCT037 BKN043 OVC049 05/01 A2963 RMK AO2 T00450006,,,4300.0,,,32.98,34.78,W,28.99,29.15,,Overcast
KIGQ,03/06/2018 19:55 UTC,29.64,40.46,30.38,67.0,14.97,250.0,,,474.0,,,352.0,423.0,,,10.0,,KIGQ 061955Z AUTO 25013KT 10SM SCT035 BKN042 OVC047 05/M01 A2964 RMK AO2 T00471009,,,4200.0,,,30.24,34.52,WSW,29.0,29.2,,Overcast
KIGQ,03/06/2018 20:15 UTC,29.65,40.28,30.92,68.97,13.8,250.0,21.85,,504.0,,,362.0,453.0,,,10.0,,KIGQ 062015Z AUTO 25012G19KT 10SM SCT036 BKN045 OVC050 05/M01  A2965 RMK AO2 T00461006,,,4500.0,,,30.79,34.64,WSW,29.01,29.2,,Overcast
KIGQ,03/06/2018 20:35 UTC,29.65,40.1,30.92,69.45,12.66,260.0,18.41,,603.0,,,342.0,473.0,,,10.0,,KIGQ 062035Z AUTO 26011G16KT 10SM SCT034 BKN047 BKN060 05/M01  A2965 RMK AO2 T00451006,,,4700.0,,,30.79,34.78,W,29.01,29.2,,Mostly Cloudy
KIGQ,03/06/2018 20:55 UTC,29.65,40.28,30.56,67.97,12.66,260.0,,,,,,343.0,1004.0,,,10.0,,KIGQ 062055Z AUTO 26011KT 10SM BKN034 OVC100 05/M01 A2965 RMK AO2  T00461008,,,3400.0,,,30.43,35.0,W,29.01,29.21,,Overcast
KIGQ,03/06/2018 21:15 UTC,29.65,39.38,31.46,73.0,13.8,240.0,18.41,,,,,323.0,424.0,,,10.0,,KIGQ 062115Z AUTO 24012G16KT 10SM BKN032 OVC042 04/00 A2965 RMK AO2 T00411003,,,3200.0,,,31.35,33.54,WSW,29.01,29.2,,Overcast
KIGQ,03/06/2018 21:35 UTC,29.66,36.14,34.16,92.43,9.22,280.0,,13.0,294.0,,,152.0,212.0,,,7.0,,KIGQ 062135Z AUTO 28008KT 7SM -RA SCT015 SCT021 OVC029 02/01 A2966 RMK AO2 T00230012,,,2900.0,,,34.13,31.36,W,29.02,29.19,,Light Rain
KIGQ,03/06/2018 21:55 UTC,29.66,36.86,33.8,88.55,9.22,270.0,,13.0,484.0,,,142.0,292.0,,,10.0,,KIGQ 062155Z AUTO 27008KT 10SM -RA SCT014 SCT029 OVC048 03/01  A2966 RMK AO2 T00270010,,,4800.0,,,33.75,32.22,W,29.02,29.19,,Light Rain
KIGQ,03/06/2018 22:15 UTC,29.67,37.04,34.7,91.14,4.61,290.0,,,504.0,,,152.0,393.0,,,10.0,,KIGQ 062215Z AUTO 29004KT 10SM SCT015 BKN039 OVC050 03/02 A2967 RMK AO2 T00280015,,,3900.0,,,34.66,,WNW,29.02,29.17,,Overcast
KIGQ,03/06/2018 22:35 UTC,29.67,35.96,34.52,94.44,4.61,220.0,,,504.0,,,152.0,413.0,,,10.0,,KIGQ 062235Z AUTO 22004KT 10SM SCT015 BKN041 OVC050 02/01 A2967 RMK AO2 T00220014,,,4100.0,,,34.5,,SW,29.02,29.18,,Overcast
KIGQ,03/06/2018 22:55 UTC,29.67,36.68,33.98,89.83,3.44,240.0,,,,,,502.0,654.0,,,10.0,,KIGQ 062255Z AUTO 24003KT 10SM SCT050 OVC065 03/01 A2967 RMK AO2  T00260011,,,6500.0,,,33.94,,WSW,29.02,29.18,,Overcast
KIGQ,03/06/2018 23:15 UTC,29.68,36.68,33.26,87.27,5.75,300.0,,41.0,,,,203.0,654.0,,,10.0,,KIGQ 062315Z AUTO 30005KT 10SM UP BKN020 OVC065 03/01 A2968 RMK AO2 T00260007,,,2000.0,,,33.21,,WNW,29.03,29.21,,Unknown Precip
KIGQ,03/06/2018 23:35 UTC,29.69,34.16,33.44,97.16,6.91,280.0,,13.0,,0.01,,112.0,204.0,,,7.0,,KIGQ 062335Z AUTO 28006KT 7SM -RA SCT011 OVC020 01/01 A2969 RMK AO2 P0001 T00120008,,,2000.0,,,33.43,,W,29.04,29.23,,Light Rain
KIGQ,03/06/2018 23:55 UTC,29.7,32.9,32.9,100.0,5.75,270.0,,20.0,,0.02,,133.0,204.0,0.02,,2.5,,KIGQ 062355Z AUTO 27005KT 2 1/2SM -SN BKN013 OVC020 01/01 A2970 RMK AO2 P0002 60002 T00050005 10055 20005,41.9,32.9,1300.0,,,32.9,,W,29.05,29.26,,Light Snow
KIGQ,03/07/2018 00:15 UTC,29.7,32.36,32.36,100.0,3.44,250.0,,20.0,,0.01,,92.0,154.0,,,3.0,,KIGQ 070015Z AUTO 25003KT 3SM -SN SCT009 OVC015 00/00 A2970 RMK AO2 P0001 T00020002,,,1500.0,,,32.36,,WSW,29.05,29.27,,Light Snow
KIGQ,03/07/2018 00:35 UTC,29.7,32.9,32.9,100.0,5.75,250.0,,,904.0,0.01,,112.0,443.0,,,10.0,,KIGQ 070035Z AUTO 25005KT 10SM SCT011 BKN044 OVC090 01/01 A2970 RMK AO2 P0001 T00050005,,,4400.0,,,32.9,,WSW,29.05,29.26,,Overcast
KIGQ,03/07/2018 00:55 UTC,29.71,32.9,32.9,100.0,6.91,250.0,,,904.0,0.01,,232.0,393.0,,,10.0,,KIGQ 070055Z AUTO 25006KT 10SM SCT023 BKN039 OVC090 01/01 A2971 RMK AO2 P0001 T00050005,,,3900.0,,,32.9,,WSW,29.06,29.27,,Overcast
KIGQ,03/07/2018 01:15 UTC,29.71,33.08,33.08,100.0,6.91,260.0,,,364.0,,,62.0,143.0,,,10.0,,KIGQ 070115Z AUTO 26006KT 10SM SCT006 BKN014 OVC036 01/01 A2971 RMK AO2 T00060006,,,1400.0,,,33.08,,W,29.06,29.27,,Overcast
KIGQ,03/07/2018 01:35 UTC,29.71,33.08,33.08,100.0,6.91,270.0,,,654.0,,,112.0,283.0,,,10.0,,KIGQ 070135Z AUTO 27006KT 10SM SCT011 BKN028 OVC065 01/01 A2971 RMK AO2 T00060006,,,2800.0,,,33.08,,W,29.06,29.27,,Overcast
KIGQ,03/07/2018 01:55 UTC,29.72,33.26,33.26,100.0,6.91,280.0,,20.0,484.0,,,93.0,343.0,,,7.0,,KIGQ 070155Z AUTO 28006KT 7SM -SN BKN009 BKN034 OVC048 01/01 A2972 RMK AO2 T00070007,,,900.0,,,33.26,,W,29.07,29.27,,Light Snow
KIGQ,03/07/2018 02:15 UTC,29.71,32.9,32.9,100.0,4.61,270.0,,20.0,294.0,,,92.0,123.0,,,5.0,,KIGQ 070215Z AUTO 27004KT 5SM -SN SCT009 BKN012 OVC029 01/01 A2971 RMK AO2 T00050005,,,1200.0,,,32.9,,W,29.06,29.27,,Light Snow
KIGQ,03/07/2018 02:35 UTC,29.72,33.08,33.08,100.0,0.0,0.0,,17.0,,,,124.0,,,,10.0,,KIGQ 070235Z AUTO 00000KT 10SM -DZ OVC012 01/01 A2972 RMK AO2  T00060006,,,1200.0,,,33.08,,N,29.07,29.28,,Light Drizzle
KIGQ,03/07/2018 02:55 UTC,29.72,33.08,33.08,100.0,3.44,280.0,,,,,0.01,103.0,174.0,,,7.0,,KIGQ 070255Z AUTO 28003KT 7SM BKN010 OVC017 01/01 A2972 RMK AO2  60001 T00060006,,,1000.0,,,33.08,,W,29.07,29.28,,Overcast
KIGQ,03/07/2018 03:15 UTC,29.72,32.72,32.72,100.0,0.0,0.0,,20.0,,,,83.0,154.0,,,3.0,,KIGQ 070315Z AUTO 00000KT 3SM -SN BKN008 OVC015 00/00 A2972 RMK AO2 T00040004,,,800.0,,,32.72,,N,29.07,29.28,,Light Snow
KIGQ,03/07/2018 03:35 UTC,29.73,32.54,32.54,100.0,4.61,330.0,,20.0,,,,64.0,,,,2.5,,KIGQ 070335Z AUTO 33004KT 2 1/2SM -SN OVC006 00/00 A2973 RMK AO2  T00030003,,,600.0,,,32.54,,NNW,29.08,29.3,,Light Snow
KIGQ,03/07/2018 03:55 UTC,29.73,32.36,32.36,100.0,4.61,310.0,,20.0,144.0,,,63.0,93.0,,,5.0,,KIGQ 070355Z AUTO 31004KT 5SM -SN BKN006 BKN009 OVC014 00/00 A2973 RMK AO2 T00020002,,,600.0,,,32.36,,NW,29.08,29.3,,Light Snow
KIGQ,03/07/2018 04:15 UTC,29.74,32.72,32.72,100.0,3.44,320.0,,13.0,504.0,,,63.0,93.0,,,5.0,,KIGQ 070415Z AUTO 32003KT 5SM -RA BKN006 BKN009 OVC050 00/00 A2974 RMK AO2 T00040004,,,600.0,,,32.72,,NW,29.09,29.3,,Light Rain
KIGQ,03/07/2018 04:35 UTC,29.74,32.9,32.9,100.0,5.75,320.0,,20.0,504.0,,,62.0,223.0,,,5.0,,KIGQ 070435Z AUTO 32005KT 5SM -SN SCT006 BKN022 OVC050 01/01 A2974 RMK AO2 T00050005,,,2200.0,,,32.9,,NW,29.09,29.3,,Light Snow
KIGQ,03/07/2018 04:55 UTC,29.74,33.08,32.9,99.28,4.61,340.0,,20.0,,,,124.0,,,,7.0,,KIGQ 070455Z AUTO 34004KT 7SM -SN OVC012 01/01 A2974 RMK AO2  T00060005,,,1200.0,,,32.9,,NNW,29.09,29.3,,Light Snow
KIGQ,03/07/2018 05:15 UTC,29.74,33.26,32.9,98.56,5.75,350.0,,,,,,104.0,,,,10.0,,KIGQ 070515Z AUTO 35005KT 10SM OVC010 01/01 A2974 RMK AO2  T00070005,,,1000.0,,,32.89,,N,29.09,29.3,,Overcast
KIGQ,03/07/2018 05:35 UTC,29.75,33.26,32.18,95.75,9.22,350.0,,,,,,124.0,,,,10.0,,KIGQ 070535Z AUTO 35008KT 10SM OVC012 01/00 A2975 RMK AO2  T00070001,,,1200.0,,,32.16,27.94,N,29.1,29.32,,Overcast
KIGQ,03/07/2018 05:55 UTC,29.75,32.9,32.0,96.44,8.05,340.0,,20.0,,,,124.0,,0.01,,10.0,,KIGQ 070555Z AUTO 34007KT 10SM -SN OVC012 01/00 A2975 RMK AO2  60001 T00050000 10008 20002 400560001,33.44,32.36,1200.0,42.08,32.18,31.98,28.13,NNW,29.1,29.32,,Light Snow
KIGQ,03/07/2018 06:15 UTC,29.76,32.54,32.0,97.85,9.22,330.0,,20.0,,,,123.0,184.0,,,7.0,,KIGQ 070615Z AUTO 33008KT 7SM -SN BKN012 OVC018 00/00 A2976 RMK AO2 T00030000,,,1200.0,,,31.99,27.09,NNW,29.11,29.34,,Light Snow
KIGQ,03/07/2018 06:35 UTC,29.77,32.54,32.0,97.85,9.22,330.0,,20.0,,,,133.0,194.0,,,5.0,,KIGQ 070635Z AUTO 33008KT 5SM -SN BKN013 OVC019 00/00 A2977 RMK AO2 T00030000,,,1300.0,,,31.99,27.09,NNW,29.12,29.35,,Light Snow
KIGQ,03/07/2018 06:55 UTC,29.77,32.18,31.82,98.56,5.75,330.0,,20.0,,,,123.0,214.0,,,5.0,,KIGQ 070655Z AUTO 33005KT 5SM -SN BKN012 OVC021 00/00 A2977 RMK AO2 T00011001,,,1200.0,,,31.81,,NNW,29.12,29.35,,Light Snow
KIGQ,03/07/2018 07:15 UTC,29.78,32.0,30.92,95.72,10.36,330.0,20.71,20.0,,,,123.0,214.0,,,5.0,,KIGQ 070715Z AUTO 33009G18KT 5SM -SN BKN012 OVC021 00/M01 A2978 RMK AO2 T00001006,,,1200.0,,,30.9,25.9,NNW,29.13,29.38,,Light Snow
KIGQ,03/07/2018 07:35 UTC,29.79,31.1,30.56,97.83,11.5,330.0,17.27,20.0,284.0,,,93.0,143.0,,,3.0,,KIGQ 070735Z AUTO 33010G15KT 3SM -SN BKN009 BKN014 OVC028 00/M01  A2979 RMK AO2 T10051008,,,900.0,,,30.55,24.31,NNW,29.14,29.4,,Light Snow
KIGQ,03/07/2018 07:55 UTC,29.8,31.1,29.84,95.01,9.22,320.0,16.11,20.0,224.0,,,102.0,143.0,,,5.0,,KIGQ 070755Z AUTO 32008G14KT 5SM -SN SCT010 BKN014 OVC022 00/M01  A2980 RMK AO2 T10051012,,,1400.0,,,29.82,25.38,NW,29.15,29.42,,Light Snow
KIGQ,03/07/2018 08:15 UTC,29.8,30.92,29.3,93.62,9.22,330.0,13.8,20.0,,,,123.0,184.0,,,7.0,,KIGQ 070815Z AUTO 33008G12KT 7SM -SN BKN012 OVC018 M01/M01 A2980 RMK AO2 T10061015,,,1200.0,,,29.27,25.17,NNW,29.15,29.43,,Light Snow
KIGQ,03/07/2018 08:35 UTC,29.81,30.56,28.4,91.56,16.11,320.0,25.32,20.0,,,,144.0,,,,5.0,,KIGQ 070835Z AUTO 32014G22KT 5SM -SN OVC014 M01/M02 A2981 RMK AO2  T10081020,,,1400.0,,,28.36,21.94,NW,29.16,29.45,,Light Snow
KIGQ,03/07/2018 08:55 UTC,29.82,30.2,27.14,88.21,14.97,330.0,23.02,,,,,164.0,,,,10.0,,KIGQ 070855Z AUTO 33013G20KT 10SM OVC016 M01/M03 A2982 RMK AO2  T10101027,,,1600.0,,,27.09,21.88,NNW,29.17,29.48,,Overcast
KIGQ,03/07/2018 09:15 UTC,29.83,30.2,26.6,86.26,11.5,320.0,19.57,,,,,184.0,,,,10.0,,KIGQ 070915Z AUTO 32010G17KT 10SM OVC018 M01/M03 A2983 RMK AO2  T10101030,,,1800.0,,,26.54,23.23,NW,29.18,29.5,,Overcast
KIGQ,03/07/2018 09:35 UTC,29.83,29.66,25.7,84.95,8.05,330.0,16.11,,,,,203.0,,,,10.0,,KIGQ 070935Z AUTO 33007G14KT 10SM BKN020 M01/M03 A2983 RMK AO2  T10131035,,,2000.0,,,25.63,24.33,NNW,29.18,29.51,,Mostly Cloudy
KIGQ,03/07/2018 09:55 UTC,29.84,29.12,25.34,85.55,10.36,310.0,17.27,,,,,203.0,453.0,,,10.0,,KIGQ 070955Z AUTO 31009G15KT 10SM BKN020 BKN045 M02/M04 A2984 RMK AO2 T10161037,,,2000.0,,,25.28,22.45,NW,29.19,29.53,,Mostly Cloudy
KIGQ,03/07/2018 10:15 UTC,29.85,28.4,24.62,85.51,8.05,320.0,,,,,,202.0,,,,10.0,,KIGQ 071015Z AUTO 32007KT 10SM SCT020 M02/M04 A2985 RMK AO2  T10201041,,,,,,24.56,22.85,NW,29.2,29.55,,Partly Cloudy
KIGQ,03/07/2018 10:35 UTC,29.86,27.68,23.9,85.46,14.97,320.0,21.85,,,,,182.0,,,,10.0,,KIGQ 071035Z AUTO 32013G19KT 10SM SCT018 M02/M04 A2986 RMK AO2  T10241045,,,,,,23.83,18.77,NW,29.21,29.57,,Partly Cloudy
KIGQ,03/07/2018 11:00 UTC,29.88,27.5,24.26,87.41,9.22,310.0,,,,,,202.0,,,,10.0,,KIGQ 071100Z AUTO 31008KT 10SM SCT020 M02/M04 A2988 RMK AO2  T10251043,,,,,,24.2,21.11,NW,29.23,29.59,,Partly Cloudy
KIGQ,03/07/2018 11:15 UTC,29.88,27.5,23.9,86.1,9.22,310.0,18.41,,,,,202.0,,,,10.0,,KIGQ 071115Z AUTO 31008G16KT 10SM SCT020 M02/M04 A2988 RMK AO2  T10251045,,,,,,23.84,21.11,NW,29.23,29.6,,Partly Cloudy
KIGQ,03/07/2018 11:35 UTC,29.89,27.14,23.54,86.08,9.22,310.0,,,,,,1.0,,,,10.0,,KIGQ 071135Z AUTO 31008KT 10SM CLR M03/M05 A2989 RMK AO2  T10271047,,,,,,23.48,20.68,NW,29.24,29.61,,Clear
KIGQ,03/07/2018 11:55 UTC,29.9,26.78,23.0,85.4,10.36,310.0,18.41,,,,,1.0,,,0.03,10.0,,KIGQ 071155Z AUTO 31009G16KT 10SM CLR M03/M05 A2990 RMK AO2 70003  T10291050 10005 21030,32.9,26.6,,,,22.93,19.65,NW,29.25,29.63,,Clear
KIGQ,03/07/2018 12:15 UTC,29.9,26.6,22.82,85.39,9.22,310.0,16.11,,,,,1.0,,,,10.0,,KIGQ 071215Z AUTO 31008G14KT 10SM CLR M03/M05 A2990 RMK AO2  T10301051,,,,,,22.75,20.04,NW,29.25,29.63,,Clear
KIGQ,03/07/2018 12:35 UTC,29.91,26.24,22.1,84.08,10.36,310.0,,,,,,1.0,,,,10.0,,KIGQ 071235Z AUTO 31009KT 10SM CLR M03/M05 A2991 RMK AO2  T10321055,,,,,,22.03,19.0,NW,29.26,29.65,,Clear
KIGQ,03/07/2018 12:55 UTC,29.92,26.6,22.28,83.47,9.22,310.0,,,,,,1.0,,,,10.0,,KIGQ 071255Z AUTO 31008KT 10SM CLR M03/M05 A2992 RMK AO2  T10301054,,,,,,22.21,20.04,NW,29.27,29.66,,Clear
KIGQ,03/07/2018 13:15 UTC,29.93,27.14,22.1,81.01,8.05,320.0,,,,,,1.0,,,,10.0,,KIGQ 071315Z AUTO 32007KT 10SM CLR M03/M05 A2993 RMK AO2  T10271055,,,,,,22.02,21.37,NW,29.28,29.67,,Clear
KIGQ,03/07/2018 13:35 UTC,29.93,27.5,22.28,80.42,9.22,320.0,19.57,,,,,472.0,,,,10.0,,KIGQ 071335Z AUTO 32008G17KT 10SM SCT047 M02/M05 A2993 RMK AO2  T10251054,,,,,,22.19,21.11,NW,29.28,29.66,,Partly Cloudy
KIGQ,03/07/2018 13:55 UTC,29.93,28.22,22.46,78.67,10.36,310.0,16.11,,,,,452.0,,,,10.0,,KIGQ 071355Z AUTO 31009G14KT 10SM SCT045 M02/M05 A2993 RMK AO2  T10211053,,,,,,22.36,21.37,NW,29.28,29.66,,Partly Cloudy
KIGQ,03/07/2018 14:15 UTC,29.94,28.58,22.82,78.7,11.5,320.0,17.27,,,,,1.0,,,,10.0,,KIGQ 071415Z AUTO 32010G15KT 10SM CLR M02/M05 A2994 RMK AO2  T10191051,,,,,,22.72,21.27,NW,29.29,29.66,,Clear
KIGQ,03/07/2018 14:35 UTC,29.94,29.48,23.72,78.78,12.66,300.0,16.11,,483.0,,,222.0,272.0,,,10.0,,KIGQ 071435Z AUTO 30011G14KT 10SM SCT022 SCT027 BKN048 M01/M05  A2994 RMK AO2 T10141046,,,4800.0,,,23.62,21.87,WNW,29.29,29.65,,Mostly Cloudy
KIGQ,03/07/2018 14:55 UTC,29.94,29.84,22.46,73.62,6.91,340.0,10.36,,,,,242.0,482.0,,,10.0,,KIGQ 071455Z AUTO 34006G09KT 10SM SCT024 SCT048 M01/M05 A2994 RMK AO2 T10121053,,,,,,22.34,,NNW,29.29,29.66,,Partly Cloudy
KIGQ,03/07/2018 15:15 UTC,29.95,30.2,22.28,72.0,11.5,320.0,19.57,,,,,282.0,,,,10.0,,KIGQ 071515Z AUTO 32010G17KT 10SM SCT028 M01/M05 A2995 RMK AO2  T10101054,,,,,,22.15,23.23,NW,29.3,29.67,,Partly Cloudy
KIGQ,03/07/2018 15:35 UTC,29.95,29.66,21.92,72.49,11.5,310.0,17.27,,,,,283.0,373.0,,,10.0,,KIGQ 071535Z AUTO 31010G15KT 10SM BKN028 BKN037 M01/M06 A2995 RMK AO2 T10131056,,,2800.0,,,21.8,22.57,NW,29.3,29.68,,Mostly Cloudy
KIGQ,03/07/2018 15:55 UTC,29.95,30.2,20.84,67.74,10.36,310.0,18.41,,,,,302.0,374.0,,,10.0,,KIGQ 071555Z AUTO 31009G16KT 10SM SCT030 OVC037 M01/M06 A2995 RMK AO2 T10101062,,,3700.0,,,20.7,23.74,NW,29.3,29.68,,Overcast
KIGQ,03/07/2018 16:15 UTC,29.96,30.2,21.02,68.26,9.22,300.0,16.11,,,,,343.0,414.0,,,10.0,,KIGQ 071615Z AUTO 30008G14KT 10SM BKN034 OVC041 M01/M06 A2996 RMK AO2 T10101061,,,3400.0,,,20.88,24.31,WNW,29.31,29.69,,Overcast
KIGQ,03/07/2018 16:35 UTC,29.96,30.74,21.56,68.32,10.36,320.0,18.41,,,,,353.0,423.0,,,10.0,,KIGQ 071635Z AUTO 32009G16KT 10SM BKN035 BKN042 M01/M06 A2996 RMK AO2 T10071058,,,3500.0,,,21.42,24.39,NW,29.31,29.68,,Mostly Cloudy
KIGQ,03/07/2018 16:55 UTC,29.96,32.0,21.2,63.94,9.22,300.0,19.57,,,,,373.0,453.0,,,10.0,,KIGQ 071655Z AUTO 30008G17KT 10SM BKN037 BKN045 00/M06 A2996 RMK AO2 T00001060,,,3700.0,,,21.04,26.45,WNW,29.31,29.68,,Mostly Cloudy
KIGQ,03/07/2018 17:15 UTC,29.96,32.54,21.38,63.04,10.36,320.0,18.41,,,,,403.0,,,,10.0,,KIGQ 071715Z AUTO 32009G16KT 10SM BKN040 00/M06 A2996 RMK AO2  T00031059,,,4000.0,,,21.21,26.55,NW,29.31,29.68,,Mostly Cloudy
KIGQ,03/07/2018 17:35 UTC,29.96,32.54,20.84,61.61,6.91,310.0,16.11,,,,,423.0,503.0,,,10.0,,KIGQ 071735Z AUTO 31006G14KT 10SM BKN042 BKN050 00/M06 A2996 RMK AO2 T00031062,,,4200.0,,,20.67,,NW,29.31,29.68,,Mostly Cloudy
KIGQ,03/07/2018 17:55 UTC,29.96,32.18,20.66,62.04,9.22,320.0,16.11,,,,,454.0,,,,10.0,,KIGQ 071755Z AUTO 32008G14KT 290V350 10SM OVC045 00/M06 A2996 RMK AO2 T00011063 10011 21032,33.98,26.24,4500.0,,,20.49,26.66,NW,29.31,29.69,,Overcast
KIGQ,03/07/2018 18:15 UTC,29.96,33.62,19.94,56.78,9.22,260.0,16.11,,,,,463.0,,,,10.0,,KIGQ 071815Z AUTO 26008G14KT 10SM BKN046 01/M07 A2996 RMK AO2  T00091067,,,4600.0,,,19.75,28.37,W,29.31,29.69,,Mostly Cloudy
KIGQ,03/07/2018 18:35 UTC,29.96,33.98,19.76,55.54,10.36,290.0,,,,,,494.0,,,,10.0,,KIGQ 071835Z AUTO 29009KT 10SM OVC049 01/M07 A2996 RMK AO2  T00111068,,,4900.0,,,19.57,28.27,WNW,29.31,29.69,,Overcast
KIGQ,03/07/2018 18:55 UTC,29.96,32.72,19.22,57.08,9.22,290.0,18.41,,,,,473.0,554.0,,,10.0,,KIGQ 071855Z AUTO 29008G16KT 10SM BKN047 OVC055 00/M07 A2996 RMK AO2 T00041071,,,4700.0,,,19.03,27.3,WNW,29.31,29.7,,Overcast
KIGQ,03/07/2018 19:15 UTC,29.95,34.52,19.4,53.52,11.5,290.0,20.71,,,,,474.0,,,,10.0,,KIGQ 071915Z AUTO 29010G18KT 10SM OVC047 01/M07 A2995 RMK AO2  T00141070,,,4700.0,,,19.2,28.44,WNW,29.3,29.68,,Overcast
KIGQ,03/07/2018 19:35 UTC,29.95,33.08,19.76,57.58,12.66,280.0,21.85,,,,,474.0,,,,10.0,,KIGQ 071935Z AUTO 28011G19KT 10SM OVC047 01/M07 A2995 RMK AO2  T00061068,,,4700.0,,,19.57,26.24,W,29.3,29.68,,Overcast
KIGQ,03/07/2018 19:55 UTC,29.95,32.36,18.86,57.02,10.36,320.0,18.41,,,,,453.0,,,,10.0,,KIGQ 071955Z AUTO 32009G16KT 280V340 10SM BKN045 00/M07 A2995 RMK AO2 T00021073,,,4500.0,,,18.67,26.33,NW,29.3,29.69,,Mostly Cloudy
KIGQ,03/07/2018 20:15 UTC,29.96,32.0,19.22,58.76,10.36,310.0,,,,,,454.0,,,,10.0,,KIGQ 072015Z AUTO 31009KT 10SM OVC045 00/M07 A2996 RMK AO2  T00001071,,,4500.0,,,19.04,25.9,NW,29.31,29.7,,Overcast
KIGQ,03/07/2018 20:35 UTC,29.96,32.18,18.68,57.0,8.05,300.0,11.5,,,,,464.0,,,,10.0,,KIGQ 072035Z AUTO 30007G10KT 10SM OVC046 00/M07 A2996 RMK AO2  T00011074,,,4600.0,,,18.49,27.29,WNW,29.31,29.7,,Overcast
KIGQ,03/07/2018 20:55 UTC,29.96,32.0,18.68,57.41,8.05,290.0,,,,,,504.0,,,,10.0,,KIGQ 072055Z AUTO 29007KT 10SM OVC050 00/M07 A2996 RMK AO2  T00001074,,,5000.0,,,18.49,27.08,WNW,29.31,29.71,,Overcast
KIGQ,03/07/2018 21:15 UTC,29.96,32.0,18.5,56.97,8.05,290.0,17.27,,,,,503.0,,,,10.0,,KIGQ 072115Z AUTO 29007G15KT 10SM BKN050 00/M07 A2996 RMK AO2  T00001075,,,5000.0,,,18.31,27.08,WNW,29.31,29.71,,Mostly Cloudy
KIGQ,03/07/2018 21:35 UTC,29.97,32.0,18.32,56.53,9.22,310.0,16.11,,,,,503.0,,,,10.0,,KIGQ 072135Z AUTO 31008G14KT 10SM BKN050 00/M08 A2997 RMK AO2  T00001076,,,5000.0,,,18.13,26.45,NW,29.32,29.72,,Mostly Cloudy
KIGQ,03/07/2018 21:55 UTC,29.97,32.0,17.6,54.8,10.36,290.0,16.11,,,,,504.0,,,,10.0,,KIGQ 072155Z AUTO 29009G14KT 10SM OVC050 00/M08 A2997 RMK AO2  T00001080,,,5000.0,,,17.4,25.9,WNW,29.32,29.73,,Overcast
KIGQ,03/07/2018 22:15 UTC,29.97,32.0,17.96,55.66,9.22,290.0,17.27,,,,,483.0,504.0,,,10.0,,KIGQ 072215Z AUTO 29008G15KT 10SM BKN048 OVC050 00/M08 A2997 RMK AO2 T00001078,,,4800.0,,,17.76,26.45,WNW,29.32,29.72,,Overcast
KIGQ,03/07/2018 22:35 UTC,29.97,32.0,17.6,54.8,13.8,280.0,20.71,,,,,483.0,504.0,,,10.0,,KIGQ 072235Z AUTO 28012G18KT 10SM BKN048 OVC050 00/M08 A2997 RMK AO2 T00001080,,,4800.0,,,17.4,24.5,W,29.32,29.73,,Overcast
KIGQ,03/07/2018 22:55 UTC,29.98,31.82,18.32,56.94,10.36,290.0,20.71,,,,,504.0,,,,10.0,,KIGQ 072255Z AUTO 29009G18KT 10SM OVC050 00/M08 A2998 RMK AO2  T10011076,,,5000.0,,,18.13,25.68,WNW,29.33,29.73,,Overcast
KIGQ,03/07/2018 23:15 UTC,29.99,31.46,17.78,56.45,9.22,280.0,17.27,,,,,504.0,,,,10.0,,KIGQ 072315Z AUTO 28008G15KT 10SM OVC050 00/M08 A2999 RMK AO2  T10031079,,,5000.0,,,17.59,25.81,W,29.34,29.75,,Overcast
KIGQ,03/07/2018 23:35 UTC,29.99,30.56,18.5,60.39,13.8,270.0,,,,,,484.0,,,,10.0,,KIGQ 072335Z AUTO 27012KT 10SM OVC048 M01/M07 A2999 RMK AO2  T10081075,,,4800.0,,,18.32,22.74,W,29.34,29.74,,Overcast
KIGQ,03/07/2018 23:55 UTC,29.99,30.2,18.5,61.28,6.91,290.0,,,,,,442.0,504.0,,,10.0,,KIGQ 072355Z AUTO 29006KT 10SM SCT044 OVC050 M01/M07 A2999 RMK AO2  T10101075 10019 21010,35.42,30.2,5000.0,,,18.33,,WNW,29.34,29.75,,Overcast
KIGQ,03/08/2018 00:15 UTC,29.99,30.02,17.6,59.38,8.05,280.0,,,,,,484.0,,,,10.0,,KIGQ 080015Z AUTO 28007KT 10SM OVC048 M01/M08 A2999 RMK AO2  T10111080,,,4800.0,,,17.42,24.75,W,29.34,29.76,,Overcast
KIGQ,03/08/2018 00:35 UTC,30.0,29.84,17.24,58.9,10.36,280.0,,,,,,504.0,,,,10.0,,KIGQ 080035Z AUTO 28009KT 10SM OVC050 M01/M08 A3000 RMK AO2  T10121082,,,5000.0,,,17.06,23.31,W,29.35,29.77,,Overcast
KIGQ,03/08/2018 00:55 UTC,30.0,29.66,16.88,58.41,5.75,290.0,,,,,,504.0,,,,10.0,,KIGQ 080055Z AUTO 29005KT 10SM OVC050 M01/M08 A3000 RMK AO2  T10131084,,,5000.0,,,16.69,,WNW,29.35,29.77,,Overcast
KIGQ,03/08/2018 01:15 UTC,30.0,29.48,17.24,59.77,6.91,280.0,,,,,,504.0,,,,10.0,,KIGQ 080115Z AUTO 28006KT 10SM OVC050 M01/M08 A3000 RMK AO2  T10141082,,,5000.0,,,17.06,,W,29.35,29.77,,Overcast
KIGQ,03/08/2018 01:35 UTC,30.01,29.84,17.42,59.36,4.61,300.0,,,,,,504.0,,,,10.0,,KIGQ 080135Z AUTO 30004KT 10SM OVC050 M01/M08 A3001 RMK AO2  T10121081,,,5000.0,,,17.24,,WNW,29.36,29.78,,Overcast
KIGQ,03/08/2018 01:55 UTC,30.01,29.48,17.24,59.77,4.61,310.0,,,,,,504.0,,,,10.0,,KIGQ 080155Z AUTO 31004KT 10SM OVC050 M01/M08 A3001 RMK AO2  T10141082,,,5000.0,,,17.06,,NW,29.36,29.78,,Overcast
KIGQ,03/08/2018 02:15 UTC,30.01,29.3,17.06,59.74,6.91,310.0,,,,,,504.0,,,,10.0,,KIGQ 080215Z AUTO 31006KT 10SM OVC050 M01/M08 A3001 RMK AO2  T10151083,,,5000.0,,,16.88,,NW,29.36,29.78,,Overcast
KIGQ,03/08/2018 02:35 UTC,30.01,29.12,17.42,61.13,9.22,310.0,,,,,,504.0,,,,10.0,,KIGQ 080235Z AUTO 31008KT 10SM OVC050 M02/M08 A3001 RMK AO2  T10161081,,,5000.0,,,17.25,23.03,NW,29.36,29.78,,Overcast
KIGQ,03/08/2018 02:55 UTC,30.01,28.76,16.88,60.6,6.91,310.0,,,,,,504.0,,,,10.0,,KIGQ 080255Z AUTO 31006KT 10SM OVC050 M02/M08 A3001 RMK AO2  T10181084,,,5000.0,,,16.7,,NW,29.36,29.79,,Overcast
KIGQ,03/08/2018 03:15 UTC,30.01,28.4,16.7,61.02,8.05,290.0,,,,,,504.0,,,,10.0,,KIGQ 080315Z AUTO 29007KT 10SM OVC050 M02/M08 A3001 RMK AO2  T10201085,,,5000.0,,,16.52,22.85,WNW,29.36,29.79,,Overcast
KIGQ,03/08/2018 03:35 UTC,30.01,28.4,17.96,64.44,9.22,320.0,,,,,,504.0,,,,10.0,,KIGQ 080335Z AUTO 32008KT 10SM OVC050 M02/M08 A3001 RMK AO2  T10201078,,,5000.0,,,17.8,22.18,NW,29.36,29.78,,Overcast
KIGQ,03/08/2018 03:55 UTC,30.01,27.5,20.3,73.94,0.0,0.0,,20.0,504.0,,,382.0,452.0,,,10.0,,KIGQ 080355Z AUTO 00000KT 10SM -SN SCT038 SCT045 OVC050 M02/M06  A3001 RMK AO2 T10251065,,,5000.0,,,20.18,,N,29.36,29.76,,Light Snow
KIGQ,03/08/2018 04:15 UTC,30.01,27.5,19.76,72.25,6.91,330.0,,,504.0,,,382.0,483.0,,,10.0,,KIGQ 080415Z AUTO 33006KT 10SM SCT038 BKN048 OVC050 M02/M07 A3001 RMK AO2 T10251068,,,4800.0,,,19.63,,NNW,29.36,29.77,,Overcast
KIGQ,03/08/2018 04:35 UTC,30.01,27.32,20.12,73.92,4.61,320.0,,,,,,504.0,,,,10.0,,KIGQ 080435Z AUTO 32004KT 10SM OVC050 M03/M07 A3001 RMK AO2  T10261066,,,5000.0,,,20.0,,NW,29.36,29.77,,Overcast
KIGQ,03/08/2018 04:55 UTC,30.01,27.5,18.32,67.92,6.91,310.0,,,,,,312.0,504.0,,,10.0,,KIGQ 080455Z AUTO 31006KT 10SM SCT031 OVC050 M02/M08 A3001 RMK AO2  T10251076,,,5000.0,,,18.17,,NW,29.36,29.78,,Overcast
KIGQ,03/08/2018 05:15 UTC,30.01,27.14,17.42,66.31,0.0,0.0,,,,,,504.0,,,,10.0,,KIGQ 080515Z AUTO 00000KT 10SM OVC050 M03/M08 A3001 RMK AO2  T10271081,,,5000.0,,,17.27,,N,29.36,29.79,,Overcast
KIGQ,03/08/2018 05:35 UTC,30.01,27.14,15.8,61.81,6.91,300.0,,,,,,504.0,,,,10.0,,KIGQ 080535Z AUTO 30006KT 10SM OVC050 M03/M09 A3001 RMK AO2  T10271090,,,5000.0,,,15.63,,WNW,29.36,29.8,,Overcast
KIGQ,03/08/2018 05:55 UTC,30.0,27.14,15.62,61.32,4.61,310.0,,,,,,504.0,,,,10.0,,KIGQ 080555Z AUTO 31004KT 10SM OVC050 M03/M09 A3000 RMK AO2  T10271091 11010 21027 400191032,30.2,27.14,5000.0,35.42,26.24,15.44,,NW,29.35,29.8,,Overcast
KIGQ,03/08/2018 06:15 UTC,30.0,27.14,15.08,59.89,6.91,320.0,,,,,,474.0,,,,10.0,,KIGQ 080615Z AUTO 32006KT 10SM OVC047 M03/M09 A3000 RMK AO2  T10271094,,,4700.0,,,14.9,,NW,29.35,29.8,,Overcast
KIGQ,03/08/2018 06:35 UTC,30.0,26.6,13.64,57.49,11.5,330.0,,,,,,433.0,494.0,,,10.0,,KIGQ 080635Z AUTO 33010KT 10SM BKN043 OVC049 M03/M10 A3000 RMK AO2  T10301102,,,4300.0,,,13.45,18.88,NNW,29.35,29.81,,Overcast
KIGQ,03/08/2018 06:55 UTC,30.0,26.06,13.46,58.33,9.22,330.0,,,,,,474.0,,,,10.0,,KIGQ 080655Z AUTO 33008KT 10SM OVC047 M03/M10 A3000 RMK AO2  T10331103,,,4700.0,,,13.27,19.4,NNW,29.35,29.82,,Overcast
KIGQ,03/08/2018 07:15 UTC,29.99,25.34,14.0,61.55,9.22,330.0,,,,,,422.0,502.0,,,10.0,,KIGQ 080715Z AUTO 33008KT 10SM SCT042 SCT050 M04/M10 A2999 RMK AO2  T10371100,,,,,,13.83,18.55,NNW,29.34,29.81,,Partly Cloudy
KIGQ,03/08/2018 07:35 UTC,29.99,24.8,14.0,62.95,5.75,300.0,,,,,,1.0,,,,10.0,,KIGQ 080735Z AUTO 30005KT 10SM CLR M04/M10 A2999 RMK AO2  T10401100,,,,,,13.83,,WNW,29.34,29.81,,Clear
KIGQ,03/08/2018 07:55 UTC,29.99,24.62,13.82,62.92,4.61,300.0,,,,,,1.0,,,,10.0,,KIGQ 080755Z AUTO 30004KT 10SM CLR M04/M10 A2999 RMK AO2  T10411101,,,,,,13.65,,WNW,29.34,29.81,,Clear
KIGQ,03/08/2018 08:15 UTC,29.98,24.08,14.36,65.91,3.44,290.0,,,,,,1.0,,,,10.0,,KIGQ 080815Z AUTO 29003KT 10SM CLR M04/M10 A2998 RMK AO2  T10441098,,,,,,14.21,,WNW,29.33,29.8,,Clear
KIGQ,03/08/2018 08:35 UTC,29.98,24.44,14.9,66.48,5.75,290.0,,,,,,493.0,,,,10.0,,KIGQ 080835Z AUTO 29005KT 10SM BKN049 M04/M09 A2998 RMK AO2  T10421095,,,4900.0,,,14.75,,WNW,29.33,29.79,,Mostly Cloudy
KIGQ,03/08/2018 08:55 UTC,29.98,24.98,14.9,65.0,5.75,300.0,,,,,,494.0,,,,10.0,,KIGQ 080855Z AUTO 30005KT 10SM OVC049 M04/M09 A2998 RMK AO2  T10391095,,,4900.0,,,14.74,,WNW,29.33,29.79,,Overcast
KIGQ,03/08/2018 09:15 UTC,29.98,24.8,14.9,65.49,8.05,310.0,,,,,,494.0,,,,10.0,,KIGQ 080915Z AUTO 31007KT 10SM OVC049 M04/M09 A2998 RMK AO2  T10401095,,,4900.0,,,14.74,18.62,NW,29.33,29.79,,Overcast
KIGQ,03/08/2018 09:35 UTC,29.98,24.44,14.9,66.48,5.75,300.0,,,,,,492.0,,,,10.0,,KIGQ 080935Z AUTO 30005KT 10SM SCT049 M04/M09 A2998 RMK AO2  T10421095,,,,,,14.75,,WNW,29.33,29.79,,Partly Cloudy
KIGQ,03/08/2018 09:55 UTC,29.98,23.9,14.9,68.0,6.91,290.0,,,,,,1.0,,,,10.0,,KIGQ 080955Z AUTO 29006KT 10SM CLR M04/M09 A2998 RMK AO2  T10451095,,,,,,14.75,,WNW,29.33,29.79,,Clear
KIGQ,03/08/2018 10:15 UTC,29.99,23.9,15.08,68.54,5.75,290.0,,,,,,1.0,,,,10.0,,KIGQ 081015Z AUTO 29005KT 10SM CLR M04/M09 A2999 RMK AO2  T10451094,,,,,,14.94,,WNW,29.34,29.8,,Clear
KIGQ,03/08/2018 10:35 UTC,29.99,23.72,15.44,70.15,6.91,290.0,,,,,,1.0,,,,10.0,,KIGQ 081035Z AUTO 29006KT 10SM CLR M05/M09 A2999 RMK AO2  T10461092,,,,,,15.3,,WNW,29.34,29.8,,Clear
KIGQ,03/08/2018 10:55 UTC,29.99,23.54,15.8,71.8,8.05,300.0,,,,,,1.0,,,,10.0,,KIGQ 081055Z AUTO 30007KT 10SM CLR M05/M09 A2999 RMK AO2  T10471090,,,,,,15.67,17.14,WNW,29.34,29.8,,Clear
KIGQ,03/08/2018 11:15 UTC,30.0,23.36,16.16,73.49,5.75,290.0,,,,,,1.0,,,,10.0,,KIGQ 081115Z AUTO 29005KT 10SM CLR M05/M09 A3000 RMK AO2  T10481088,,,,,,16.04,,WNW,29.35,29.81,,Clear
KIGQ,03/08/2018 11:35 UTC,30.0,23.0,16.34,75.2,5.75,310.0,,,,,,1.0,,,,10.0,,KIGQ 081135Z AUTO 31005KT 10SM CLR M05/M09 A3000 RMK AO2  T10501087,,,,,,16.23,,NW,29.35,29.81,,Clear
KIGQ,03/08/2018 11:55 UTC,30.01,22.82,16.34,75.77,4.61,300.0,,,,,,1.0,,,,10.0,,KIGQ 081155Z AUTO 30004KT 10SM CLR M05/M09 A3001 RMK AO2 T10511087  11027 21051,27.14,22.82,,,,16.23,,WNW,29.36,29.82,,Clear
KIGQ,03/08/2018 12:15 UTC,30.01,23.0,16.7,76.39,4.61,300.0,,,,,,1.0,,,,10.0,,KIGQ 081215Z AUTO 30004KT 10SM CLR M05/M08 A3001 RMK AO2  T10501085,,,,,,16.59,,WNW,29.36,29.82,,Clear
KIGQ,03/08/2018 12:35 UTC,30.01,23.0,16.7,76.39,5.75,290.0,,,,,,1.0,,,,10.0,,KIGQ 081235Z AUTO 29005KT 10SM CLR M05/M08 A3001 RMK AO2  T10501085,,,,,,16.59,,WNW,29.36,29.82,,Clear
KIGQ,03/08/2018 12:55 UTC,30.02,23.72,16.7,74.11,8.05,300.0,,,,,,1.0,,,,10.0,,KIGQ 081255Z AUTO 30007KT 10SM CLR M05/M08 A3002 RMK AO2  T10461085,,,,,,16.58,17.35,WNW,29.37,29.82,,Clear
KIGQ,03/08/2018 13:15 UTC,30.02,24.44,17.24,73.61,8.05,280.0,,,,,,1.0,,,,10.0,,KIGQ 081315Z AUTO 28007KT 10SM CLR M04/M08 A3002 RMK AO2  T10421082,,,,,,17.12,18.2,W,29.37,29.82,,Clear
KIGQ,03/08/2018 13:35 UTC,30.02,25.34,17.24,70.9,8.05,300.0,,,,,,1.0,,,,10.0,,KIGQ 081335Z AUTO 30007KT 10SM CLR M04/M08 A3002 RMK AO2  T10371082,,,,,,17.11,19.25,WNW,29.37,29.81,,Clear
KIGQ,03/08/2018 13:55 UTC,30.02,25.7,17.06,69.3,10.36,300.0,,,,,,1.0,,,,10.0,,KIGQ 081355Z AUTO 30009KT 10SM CLR M03/M08 A3002 RMK AO2  T10351083,,,,,,16.92,18.36,WNW,29.37,29.81,,Clear
KIGQ,03/08/2018 14:15 UTC,30.02,26.42,16.88,66.74,13.8,310.0,18.41,,,,,272.0,,,,10.0,,KIGQ 081415Z AUTO 31012G16KT 10SM SCT027 M03/M08 A3002 RMK AO2  T10311084,,,,,,16.73,17.67,NW,29.37,29.81,,Partly Cloudy
KIGQ,03/08/2018 14:35 UTC,30.03,27.32,16.88,64.3,10.36,320.0,17.27,,,,,1.0,,,,10.0,,KIGQ 081435Z AUTO 32009G15KT 10SM CLR M03/M08 A3003 RMK AO2  T10261084,,,,,,16.72,20.3,NW,29.38,29.81,,Clear
KIGQ,03/08/2018 15:00 UTC,30.03,27.32,16.16,62.32,14.97,320.0,19.57,,,,,322.0,,,,10.0,,KIGQ 081500Z AUTO 32013G17KT 10SM SCT032 M03/M09 A3003 RMK AO2  T10261088,,,,,,15.99,18.33,NW,29.38,29.82,,Partly Cloudy
KIGQ,03/08/2018 15:15 UTC,30.03,28.04,16.7,61.93,11.5,320.0,17.27,,,,,322.0,,,,10.0,,KIGQ 081515Z AUTO 32010G15KT 10SM SCT032 M02/M08 A3003 RMK AO2  T10221085,,,,,,16.53,20.62,NW,29.38,29.81,,Partly Cloudy
KIGQ,03/08/2018 15:35 UTC,30.03,28.76,16.7,60.13,10.36,300.0,,,,,,1.0,,,,10.0,,KIGQ 081535Z AUTO 30009KT 10SM CLR M02/M08 A3003 RMK AO2  T10181085,,,,,,16.52,22.02,WNW,29.38,29.81,,Clear
KIGQ,03/08/2018 15:55 UTC,30.03,28.76,16.7,60.13,11.5,320.0,18.41,,,,,342.0,,,,10.0,,KIGQ 081555Z AUTO 32010G16KT 10SM SCT034 M02/M08 A3003 RMK AO2  T10181085,,,,,,16.52,21.49,NW,29.38,29.81,,Partly Cloudy
KIGQ,03/08/2018 16:15 UTC,30.03,29.48,17.24,59.77,12.66,330.0,19.57,,,,,1.0,,,,10.0,,KIGQ 081615Z AUTO 33011G17KT 10SM CLR M01/M08 A3003 RMK AO2  T10141082,,,,,,17.06,21.87,NNW,29.38,29.8,,Clear
KIGQ,03/08/2018 16:35 UTC,30.03,29.48,17.06,59.3,11.5,310.0,16.11,,,,,1.0,,,,10.0,,KIGQ 081635Z AUTO 31010G14KT 10SM CLR M01/M08 A3003 RMK AO2  T10141083,,,,,,16.88,22.36,NW,29.38,29.8,,Clear
KIGQ,03/08/2018 16:55 UTC,30.03,30.92,18.14,58.6,12.66,310.0,16.11,,,,,352.0,,,,10.0,,KIGQ 081655Z AUTO 31011G14KT 10SM SCT035 M01/M08 A3003 RMK AO2  T10061077,,,,,,17.96,23.62,NW,29.38,29.79,,Partly Cloudy
KIGQ,03/08/2018 17:15 UTC,30.03,31.28,18.14,57.75,13.8,310.0,17.27,,,,,372.0,,,,10.0,,KIGQ 081715Z AUTO 31012G15KT 10SM SCT037 00/M08 A3003 RMK AO2  T10041077,,,,,,17.95,23.62,NW,29.38,29.79,,Partly Cloudy
KIGQ,03/08/2018 17:35 UTC,30.03,31.64,18.14,56.92,13.8,270.0,,,,,,392.0,,,,10.0,,KIGQ 081735Z AUTO 27012KT 10SM SCT039 00/M08 A3003 RMK AO2  T10021077,,,,,,17.95,24.06,W,29.38,29.78,,Partly Cloudy
KIGQ,03/08/2018 17:55 UTC,30.02,31.82,17.6,55.2,6.91,320.0,17.27,,,,,393.0,,,,10.0,,KIGQ 081755Z AUTO 32006G15KT 10SM BKN039 00/M08 A3002 RMK AO2  T10011080 10002 21052,32.36,22.64,3900.0,,,17.4,,NW,29.37,29.78,,Mostly Cloudy
KIGQ,03/08/2018 18:15 UTC,30.01,32.36,17.96,54.86,9.22,320.0,16.11,,,,,413.0,,,,10.0,,KIGQ 081815Z AUTO 32008G14KT 10SM BKN041 00/M08 A3001 RMK AO2  T00021078,,,4100.0,,,17.76,26.88,NW,29.36,29.76,,Mostly Cloudy
KIGQ,03/08/2018 18:35 UTC,30.01,33.26,17.96,52.91,12.66,310.0,19.57,,,,,412.0,,,,10.0,,KIGQ 081835Z AUTO 31011G17KT 10SM SCT041 01/M08 A3001 RMK AO2  T00071078,,,,,,17.75,26.46,NW,29.36,29.76,,Partly Cloudy
KIGQ,03/08/2018 18:55 UTC,30.01,32.9,17.96,53.68,13.8,300.0,18.41,,,,,452.0,,,,10.0,,KIGQ 081855Z AUTO 30012G16KT 10SM SCT045 01/M08 A3001 RMK AO2  T00051078,,,,,,17.76,25.61,WNW,29.36,29.76,,Partly Cloudy
KIGQ,03/08/2018 19:15 UTC,30.0,32.36,17.6,54.01,9.22,270.0,,,,,,453.0,,,,10.0,,KIGQ 081915Z AUTO 27008KT 10SM BKN045 00/M08 A3000 RMK AO2  T00021080,,,4500.0,,,17.4,26.88,W,29.35,29.75,,Mostly Cloudy
KIGQ,03/08/2018 19:35 UTC,30.0,33.98,18.14,51.8,13.8,290.0,20.71,,,,,453.0,,,,10.0,,KIGQ 081935Z AUTO 29012G18KT 10SM BKN045 01/M08 A3000 RMK AO2  T00111077,,,4500.0,,,17.93,26.93,WNW,29.35,29.74,,Mostly Cloudy
KIGQ,03/08/2018 19:55 UTC,30.0,32.9,17.78,53.26,8.05,300.0,,,,,,453.0,,,,10.0,,KIGQ 081955Z AUTO 30007KT 10SM BKN045 01/M08 A3000 RMK AO2  T00051079,,,4500.0,,,17.57,28.13,WNW,29.35,29.75,,Mostly Cloudy
KIGQ,03/08/2018 20:15 UTC,30.0,32.54,17.42,53.21,6.91,300.0,19.57,,,,,452.0,502.0,,,10.0,,KIGQ 082015Z AUTO 30006G17KT 10SM SCT045 SCT050 00/M08 A3000 RMK AO2 T00031081,,,,,,17.21,,WNW,29.35,29.76,,Partly Cloudy
KIGQ,03/08/2018 20:35 UTC,30.0,34.52,19.58,53.93,14.97,280.0,20.71,,,,,453.0,,,,10.0,,KIGQ 082035Z AUTO 28013G18KT 10SM BKN045 01/M07 A3000 RMK AO2  T00141069,,,4500.0,,,19.38,27.2,W,29.35,29.73,,Mostly Cloudy
KIGQ,03/08/2018 20:55 UTC,30.0,33.98,18.86,53.43,16.11,280.0,21.85,,,,,454.0,,,,10.0,,KIGQ 082055Z AUTO 28014G19KT 10SM OVC045 01/M07 A3000 RMK AO2  T00111073,,,4500.0,,,18.65,26.18,W,29.35,29.74,,Overcast
KIGQ,03/08/2018 21:15 UTC,30.0,32.0,18.5,56.97,16.11,260.0,23.02,,,,,474.0,,,,10.0,,KIGQ 082115Z AUTO 26014G20KT 10SM OVC047 00/M07 A3000 RMK AO2  T00001075,,,4700.0,,,18.31,23.72,W,29.35,29.75,,Overcast
KIGQ,03/08/2018 21:35 UTC,30.01,32.0,19.4,59.21,17.27,270.0,24.16,,,,,474.0,,,,10.0,,KIGQ 082135Z AUTO 27015G21KT 10SM OVC047 00/M07 A3001 RMK AO2  T00001070,,,4700.0,,,19.22,23.37,W,29.36,29.75,,Overcast
KIGQ,03/08/2018 21:55 UTC,30.01,31.64,18.32,57.36,16.11,270.0,21.85,,,,,474.0,,,,10.0,,KIGQ 082155Z AUTO 27014G19KT 10SM OVC047 00/M08 A3001 RMK AO2  T10021076,,,4700.0,,,18.13,23.28,W,29.36,29.76,,Overcast
KIGQ,03/08/2018 22:15 UTC,30.01,31.28,18.5,58.65,16.11,270.0,19.57,,,,,474.0,,,,10.0,,KIGQ 082215Z AUTO 27014G17KT 10SM OVC047 00/M07 A3001 RMK AO2  T10041075,,,4700.0,,,18.31,22.83,W,29.36,29.76,,Overcast
KIGQ,03/08/2018 22:35 UTC,30.02,30.74,18.32,59.49,14.97,280.0,21.85,,,,,453.0,,,,10.0,,KIGQ 082235Z AUTO 28013G19KT 10SM BKN045 M01/M08 A3002 RMK AO2  T10071076,,,4500.0,,,18.14,22.54,W,29.37,29.78,,Mostly Cloudy
KIGQ,03/08/2018 22:55 UTC,30.01,31.1,18.32,58.63,14.97,260.0,19.57,,,,,432.0,,,,10.0,,KIGQ 082255Z AUTO 26013G17KT 10SM SCT043 00/M08 A3001 RMK AO2  T10051076,,,,,,18.14,22.99,W,29.36,29.76,,Partly Cloudy
KIGQ,03/08/2018 23:15 UTC,30.02,30.2,18.5,61.28,13.8,280.0,,,,,,1.0,,,,10.0,,KIGQ 082315Z AUTO 28012KT 10SM CLR M01/M07 A3002 RMK AO2  T10101075,,,,,,18.33,22.3,W,29.37,29.78,,Clear
KIGQ,03/08/2018 23:35 UTC,30.02,30.2,18.5,61.28,11.5,270.0,18.41,,,,,422.0,,,,10.0,,KIGQ 082335Z AUTO 27010G16KT 10SM SCT042 M01/M07 A3002 RMK AO2  T10101075,,,,,,18.33,23.23,W,29.37,29.78,,Partly Cloudy
KIGQ,03/08/2018 23:55 UTC,30.03,29.48,18.5,63.11,9.22,280.0,,,,,,403.0,,,,10.0,,KIGQ 082355Z AUTO 28008KT 10SM BKN040 M01/M07 A3003 RMK AO2  T10141075 10014 21014,34.52,29.48,4000.0,,,18.33,23.46,W,29.38,29.79,,Mostly Cloudy
KIGQ,03/09/2018 00:15 UTC,30.03,28.94,18.14,63.52,5.75,280.0,,,,,,382.0,,,,10.0,,KIGQ 090015Z AUTO 28005KT 10SM SCT038 M02/M08 A3003 RMK AO2  T10171077,,,,,,17.97,,W,29.38,29.8,,Partly Cloudy
KIGQ,03/09/2018 00:35 UTC,30.03,28.76,18.14,63.99,5.75,270.0,,,,,,1.0,,,,10.0,,KIGQ 090035Z AUTO 27005KT 10SM CLR M02/M08 A3003 RMK AO2  T10181077,,,,,,17.98,,W,29.38,29.8,,Clear
KIGQ,03/09/2018 00:55 UTC,30.04,28.04,18.32,66.43,4.61,280.0,,,,,,1.0,,,,10.0,,KIGQ 090055Z AUTO 28004KT 10SM CLR M02/M08 A3004 RMK AO2  T10221076,,,,,,18.17,,W,29.39,29.81,,Clear
KIGQ,03/09/2018 01:15 UTC,30.04,26.96,18.5,69.99,3.44,270.0,,,,,,402.0,,,,10.0,,KIGQ 090115Z AUTO 27003KT 10SM SCT040 M03/M07 A3004 RMK AO2  T10281075,,,,,,18.36,,W,29.39,29.81,,Partly Cloudy
KIGQ,03/09/2018 01:35 UTC,30.04,26.6,19.04,72.71,3.44,260.0,,,,,,382.0,,,,10.0,,KIGQ 090135Z AUTO 26003KT 10SM SCT038 M03/M07 A3004 RMK AO2  T10301072,,,,,,18.92,,W,29.39,29.81,,Partly Cloudy
KIGQ,03/09/2018 01:55 UTC,30.04,26.6,19.4,73.84,4.61,260.0,,,,,,383.0,,,,10.0,,KIGQ 090155Z AUTO 26004KT 10SM BKN038 M03/M07 A3004 RMK AO2  T10301070,,,3800.0,,,19.28,,W,29.39,29.81,,Mostly Cloudy
KIGQ,03/09/2018 02:15 UTC,30.04,27.14,19.76,73.33,4.61,270.0,,,,,,362.0,,,,10.0,,KIGQ 090215Z AUTO 27004KT 10SM SCT036 M03/M07 A3004 RMK AO2  T10271068,,,,,,19.64,,W,29.39,29.8,,Partly Cloudy
KIGQ,03/09/2018 02:35 UTC,30.04,27.32,19.94,73.35,3.44,270.0,,,,,,363.0,,,,10.0,,KIGQ 090235Z AUTO 27003KT 10SM BKN036 M03/M07 A3004 RMK AO2  T10261067,,,3600.0,,,19.82,,W,29.39,29.8,,Mostly Cloudy
KIGQ,03/09/2018 02:55 UTC,30.04,26.6,19.58,74.41,0.0,0.0,,,,,,363.0,,,,10.0,,KIGQ 090255Z AUTO 00000KT 10SM BKN036 M03/M07 A3004 RMK AO2  T10301069,,,3600.0,,,19.46,,N,29.39,29.81,,Mostly Cloudy
KIGQ,03/09/2018 03:15 UTC,30.04,26.78,19.58,73.86,4.61,270.0,,,,,,362.0,,,,10.0,,KIGQ 090315Z AUTO 27004KT 10SM SCT036 M03/M07 A3004 RMK AO2  T10291069,,,,,,19.46,,W,29.39,29.8,,Partly Cloudy
KIGQ,03/09/2018 03:35 UTC,30.04,26.06,19.4,75.51,4.61,270.0,,,,,,352.0,,,,10.0,,KIGQ 090335Z AUTO 27004KT 10SM SCT035 M03/M07 A3004 RMK AO2  T10331070,,,,,,19.29,,W,29.39,29.81,,Partly Cloudy
KIGQ,03/09/2018 03:55 UTC,30.04,24.8,19.22,78.97,4.61,260.0,,,,,,1.0,,,,10.0,,KIGQ 090355Z AUTO 26004KT 10SM CLR M04/M07 A3004 RMK AO2  T10401071,,,,,,19.13,,W,29.39,29.82,,Clear
KIGQ,03/09/2018 04:15 UTC,30.03,25.88,19.4,76.08,0.0,0.0,,,,,,392.0,,,,10.0,,KIGQ 090415Z AUTO 00000KT 10SM SCT039 M03/M07 A3003 RMK AO2  T10341070,,,,,,19.29,,N,29.38,29.8,,Partly Cloudy
KIGQ,03/09/2018 04:35 UTC,30.03,25.16,19.4,78.39,4.61,270.0,,,,,,1.0,,,,10.0,,KIGQ 090435Z AUTO 27004KT 10SM CLR M04/M07 A3003 RMK AO2  T10381070,,,,,,19.3,,W,29.38,29.8,,Clear
KIGQ,03/09/2018 04:55 UTC,30.03,24.8,19.22,78.97,4.61,270.0,,,,,,1.0,,,,10.0,,KIGQ 090455Z AUTO 27004KT 10SM CLR M04/M07 A3003 RMK AO2  T10401071,,,,,,19.13,,W,29.38,29.81,,Clear
KIGQ,03/09/2018 05:15 UTC,30.02,24.8,19.4,79.58,3.44,270.0,,,,,,382.0,,,,10.0,,KIGQ 090515Z AUTO 27003KT 10SM SCT038 M04/M07 A3002 RMK AO2  T10401070,,,,,,19.31,,W,29.37,29.8,,Partly Cloudy
KIGQ,03/09/2018 05:35 UTC,30.02,23.72,19.04,81.98,4.61,270.0,,,,,,382.0,,,,10.0,,KIGQ 090535Z AUTO 27004KT 10SM SCT038 M05/M07 A3002 RMK AO2  T10461072,,,,,,18.96,,W,29.37,29.8,,Partly Cloudy
KIGQ,03/09/2018 05:55 UTC,30.02,23.72,19.22,82.62,0.0,0.0,,,,,,382.0,,,,10.0,,KIGQ 090555Z AUTO 00000KT 10SM SCT038 M05/M07 A3002 RMK AO2  T10461071 11015 21049 400141052,29.3,23.18,,34.52,22.64,19.14,,N,29.37,29.8,,Partly Cloudy
KIGQ,03/09/2018 06:15 UTC,30.02,23.9,19.04,81.37,0.0,0.0,,,,,,1.0,,,,10.0,,KIGQ 090615Z AUTO 00000KT 10SM CLR M04/M07 A3002 RMK AO2  T10451072,,,,,,18.96,,N,29.37,29.8,,Clear
KIGQ,03/09/2018 06:35 UTC,30.02,23.0,18.68,83.21,3.44,270.0,,,,,,402.0,,,,10.0,,KIGQ 090635Z AUTO 27003KT 10SM SCT040 M05/M07 A3002 RMK AO2  T10501074,,,,,,18.6,,W,29.37,29.81,,Partly Cloudy
KIGQ,03/09/2018 06:55 UTC,30.02,23.18,18.86,83.22,3.44,260.0,,,,,,403.0,,,,10.0,,KIGQ 090655Z AUTO 26003KT 10SM BKN040 M05/M07 A3002 RMK AO2  T10491073,,,4000.0,,,18.78,,W,29.37,29.81,,Mostly Cloudy
KIGQ,03/09/2018 07:15 UTC,30.01,22.64,19.04,85.8,3.44,260.0,,,,,,404.0,,,,10.0,,KIGQ 090715Z AUTO 26003KT 10SM OVC040 M05/M07 A3001 RMK AO2  T10521072,,,4000.0,,,18.98,,W,29.36,29.8,,Overcast
KIGQ,03/09/2018 07:35 UTC,30.01,23.18,19.4,85.17,3.44,270.0,,,,,,404.0,,,,10.0,,KIGQ 090735Z AUTO 27003KT 10SM OVC040 M05/M07 A3001 RMK AO2  T10491070,,,4000.0,,,19.33,,W,29.36,29.79,,Overcast
KIGQ,03/09/2018 07:55 UTC,30.02,24.44,19.4,80.79,4.61,280.0,,,,,,404.0,,,,10.0,,KIGQ 090755Z AUTO 28004KT 10SM OVC040 M04/M07 A3002 RMK AO2  T10421070,,,4000.0,,,19.31,,W,29.37,29.8,,Overcast
KIGQ,03/09/2018 08:15 UTC,30.02,24.44,19.4,80.79,3.44,280.0,,,,,,404.0,,,,10.0,,KIGQ 090815Z AUTO 28003KT 10SM OVC040 M04/M07 A3002 RMK AO2  T10421070,,,4000.0,,,19.31,,W,29.37,29.8,,Overcast
KIGQ,03/09/2018 08:35 UTC,30.01,24.44,19.4,80.79,0.0,0.0,,,,,,424.0,,,,10.0,,KIGQ 090835Z AUTO 00000KT 10SM OVC042 M04/M07 A3001 RMK AO2  T10421070,,,4200.0,,,19.31,,N,29.36,29.79,,Overcast
KIGQ,03/09/2018 08:55 UTC,30.02,24.44,19.4,80.79,0.0,0.0,,,,,,424.0,,,,10.0,,KIGQ 090855Z AUTO 00000KT 10SM OVC042 M04/M07 A3002 RMK AO2  T10421070,,,4200.0,,,19.31,,N,29.37,29.8,,Overcast
KIGQ,03/09/2018 09:15 UTC,30.02,24.44,19.22,80.16,0.0,0.0,,,,,,424.0,,,,10.0,,KIGQ 090915Z AUTO 00000KT 10SM OVC042 M04/M07 A3002 RMK AO2  T10421071,,,4200.0,,,19.13,,N,29.37,29.8,,Overcast
KIGQ,03/09/2018 09:35 UTC,30.02,24.44,19.22,80.16,0.0,0.0,,,,,,444.0,,,,10.0,,KIGQ 090935Z AUTO 00000KT 10SM OVC044 M04/M07 A3002 RMK AO2  T10421071,,,4400.0,,,19.13,,N,29.37,29.8,,Overcast
KIGQ,03/09/2018 09:55 UTC,30.02,23.9,18.86,80.74,0.0,0.0,,,,,,444.0,,,,10.0,,KIGQ 090955Z AUTO 00000KT 10SM OVC044 M04/M07 A3002 RMK AO2  T10451073,,,4400.0,,,18.77,,N,29.37,29.8,,Overcast
KIGQ,03/09/2018 10:15 UTC,30.01,23.0,18.5,82.57,0.0,0.0,,,,,,442.0,,,,10.0,,KIGQ 091015Z AUTO 00000KT 10SM SCT044 M05/M07 A3001 RMK AO2  T10501075,,,,,,18.42,,N,29.36,29.8,,Partly Cloudy
KIGQ,03/09/2018 10:35 UTC,30.01,22.28,18.14,83.8,0.0,0.0,,,,,,1.0,,,,10.0,,KIGQ 091035Z AUTO 00000KT 10SM CLR M05/M08 A3001 RMK AO2  T10541077,,,,,,18.07,,N,29.36,29.81,,Clear
KIGQ,03/09/2018 10:55 UTC,30.01,21.74,18.32,86.41,0.0,0.0,,,,,,1.0,,,,10.0,,KIGQ 091055Z AUTO 00000KT 10SM CLR M06/M08 A3001 RMK AO2  T10571076,,,,,,18.26,,N,29.36,29.81,,Clear
KIGQ,03/09/2018 11:15 UTC,30.02,21.2,17.78,86.37,0.0,0.0,,,,,,1.0,,,,10.0,,KIGQ 091115Z AUTO 00000KT 10SM CLR M06/M08 A3002 RMK AO2  T10601079,,,,,,17.72,,N,29.37,29.83,,Clear
KIGQ,03/09/2018 11:35 UTC,30.02,20.3,17.24,87.68,0.0,0.0,,,,,,1.0,,,,10.0,,KIGQ 091135Z AUTO 00000KT 10SM CLR M06/M08 A3002 RMK AO2  T10651082,,,,,,17.19,,N,29.37,29.84,,Clear
KIGQ,03/09/2018 11:55 UTC,30.02,20.12,17.42,89.04,0.0,0.0,,,,,,1.0,,,,10.0,,KIGQ 091155Z AUTO 00000KT 10SM CLR M07/M08 A3002 RMK AO2 T10661081  11041 21066,24.62,20.12,,,,17.37,,N,29.37,29.84,,Clear
KIGQ,03/09/2018 12:15 UTC,30.02,20.12,17.6,89.74,0.0,0.0,,,,,,1.0,,,,10.0,,KIGQ 091215Z AUTO 00000KT 10SM CLR M07/M08 A3002 RMK AO2  T10661080,,,,,,17.55,,N,29.37,29.83,,Clear
KIGQ,03/09/2018 12:35 UTC,30.02,20.48,17.6,88.37,0.0,0.0,,,,,,1.0,,,,10.0,,KIGQ 091235Z AUTO 00000KT 10SM CLR M06/M08 A3002 RMK AO2  T10641080,,,,,,17.55,,N,29.37,29.83,,Clear
KIGQ,03/09/2018 12:55 UTC,30.03,21.2,18.32,88.41,0.0,0.0,,,,,,1.0,,,,10.0,,KIGQ 091255Z AUTO 00000KT 10SM CLR M06/M08 A3003 RMK AO2  T10601076,,,,,,18.27,,N,29.38,29.83,,Clear
KIGQ,03/09/2018 13:15 UTC,30.03,22.82,19.22,85.81,0.0,0.0,,,,,,1.0,,,,10.0,,KIGQ 091315Z AUTO 00000KT 10SM CLR M05/M07 A3003 RMK AO2  T10511071,,,,,,19.16,,N,29.38,29.82,,Clear
KIGQ,03/09/2018 13:35 UTC,30.03,23.9,19.4,82.63,0.0,0.0,,,,,,1.0,,,,10.0,,KIGQ 091335Z AUTO 00000KT 10SM CLR M04/M07 A3003 RMK AO2  T10451070,,,,,,19.32,,N,29.38,29.81,,Clear
KIGQ,03/09/2018 13:55 UTC,30.03,25.34,19.4,77.81,0.0,0.0,,,,,,1.0,,,,10.0,,KIGQ 091355Z AUTO 00000KT 10SM CLR M04/M07 A3003 RMK AO2  T10371070,,,,,,19.3,,N,29.38,29.8,,Clear
KIGQ,03/09/2018 14:15 UTC,30.03,26.6,20.12,76.15,0.0,0.0,,,,,,1.0,,,,10.0,,KIGQ 091415Z AUTO 00000KT 10SM CLR M03/M07 A3003 RMK AO2  T10301066,,,,,,20.01,,N,29.38,29.79,,Clear
KIGQ,03/09/2018 14:35 UTC,30.03,28.22,19.76,70.14,0.0,0.0,,,,,,1.0,,,,10.0,,KIGQ 091435Z AUTO 00000KT 10SM CLR M02/M07 A3003 RMK AO2  T10211068,,,,,,19.62,,N,29.38,29.79,,Clear
KIGQ,03/09/2018 14:55 UTC,30.03,29.48,19.4,65.59,0.0,0.0,,,,,,1.0,,,,10.0,,KIGQ 091455Z AUTO 00000KT 10SM CLR M01/M07 A3003 RMK AO2  T10141070,,,,,,19.24,,N,29.38,29.78,,Clear
KIGQ,03/09/2018 15:15 UTC,30.03,31.28,18.14,57.75,0.0,0.0,,,,,,1.0,,,,10.0,,KIGQ 091515Z AUTO 00000KT 10SM CLR 00/M08 A3003 RMK AO2  T10041077,,,,,,17.95,,N,29.38,29.79,,Clear
KIGQ,03/09/2018 15:35 UTC,30.03,32.0,17.06,53.54,3.44,310.0,,,,,,852.0,,,,10.0,,KIGQ 091535Z AUTO 31003KT 10SM SCT085 00/M08 A3003 RMK AO2  T00001083,,,,,,16.86,,NW,29.38,29.79,,Partly Cloudy
KIGQ,03/09/2018 15:55 UTC,30.03,32.0,15.98,51.08,0.0,0.0,,,,,,852.0,,,,10.0,,KIGQ 091555Z AUTO 00000KT 10SM SCT085 00/M09 A3003 RMK AO2  T00001089,,,,,,15.76,,N,29.38,29.8,,Partly Cloudy
KIGQ,03/09/2018 16:15 UTC,30.03,33.08,17.24,51.66,0.0,0.0,,,,,,1.0,,,,10.0,,KIGQ 091615Z AUTO 00000KT 10SM CLR 01/M08 A3003 RMK AO2  T00061082,,,,,,17.03,,N,29.38,29.79,,Clear
KIGQ,03/09/2018 16:35 UTC,30.03,32.9,17.06,51.63,0.0,0.0,,,,,,1.0,,,,10.0,,KIGQ 091635Z AUTO 00000KT 10SM CLR 01/M08 A3003 RMK AO2  T00051083,,,,,,16.85,,N,29.38,29.79,,Clear
KIGQ,03/09/2018 16:55 UTC,30.03,32.9,16.52,50.43,0.0,0.0,,,,,,1.0,,,,10.0,,KIGQ 091655Z AUTO 00000KT 10SM CLR 01/M09 A3003 RMK AO2  T00051086,,,,,,16.3,,N,29.38,29.79,,Clear
KIGQ,03/09/2018 17:15 UTC,30.02,33.98,17.78,51.01,4.61,340.0,,,,,,1.0,,,,10.0,,KIGQ 091715Z AUTO 34004KT 10SM CLR 01/M08 A3002 RMK AO2  T00111079,,,,,,17.57,,NNW,29.37,29.77,,Clear
KIGQ,03/09/2018 17:35 UTC,30.02,34.7,17.6,49.18,4.61,340.0,,,,,,1.0,,,,10.0,,KIGQ 091735Z AUTO 34004KT 10SM CLR 02/M08 A3002 RMK AO2  T00151080,,,,,,17.38,,NNW,29.37,29.76,,Clear
KIGQ,03/09/2018 17:55 UTC,30.01,34.7,17.6,49.18,0.0,0.0,,,,,,1.0,,,,10.0,,KIGQ 091755Z AUTO 00000KT 10SM CLR 02/M08 A3001 RMK AO2 T00151080  10017 21067,35.06,19.94,,,,17.38,,N,29.36,29.75,,Clear
KIGQ,03/09/2018 18:15 UTC,30.01,35.24,17.96,48.88,3.44,300.0,,,,,,1.0,,,,10.0,,KIGQ 091815Z AUTO 30003KT 10SM CLR 02/M08 A3001 RMK AO2  T00181078,,,,,,17.74,,WNW,29.36,29.75,,Clear
KIGQ,03/09/2018 18:35 UTC,30.0,36.14,18.5,48.28,5.75,350.0,,,,,,1.0,,,,10.0,,KIGQ 091835Z AUTO 35005KT 10SM CLR 02/M07 A3000 RMK AO2  T00231075,,,,,,18.28,,N,29.35,29.73,,Clear
KIGQ,03/09/2018 18:55 UTC,30.0,36.5,18.14,46.87,0.0,0.0,,,,,,1.0,,,,10.0,,KIGQ 091855Z AUTO 00000KT 10SM CLR 03/M08 A3000 RMK AO2  T00251077,,,,,,17.91,,N,29.35,29.73,,Clear
KIGQ,03/09/2018 19:15 UTC,29.99,36.68,18.14,46.53,0.0,0.0,,,,,,1.0,,,,10.0,,KIGQ 091915Z AUTO 00000KT 10SM CLR 03/M08 A2999 RMK AO2  T00261077,,,,,,17.91,,N,29.34,29.72,,Clear
KIGQ,03/09/2018 19:35 UTC,29.98,38.12,19.76,47.14,6.91,330.0,,,,,,1.0,,,,10.0,,KIGQ 091935Z AUTO 33006KT 10SM CLR 03/M07 A2998 RMK AO2  T00341068,,,,,,19.54,,NNW,29.33,29.69,,Clear
KIGQ,03/09/2018 19:55 UTC,29.98,38.12,19.22,46.06,0.0,0.0,,,,,,1.0,,,,10.0,,KIGQ 091955Z AUTO 00000KT 10SM CLR 03/M07 A2998 RMK AO2  T00341071,,,,,,18.99,,N,29.33,29.69,,Clear
KIGQ,03/09/2018 20:15 UTC,29.97,38.48,19.4,45.77,4.61,350.0,,,,,,552.0,,,,10.0,,KIGQ 092015Z AUTO 35004KT 10SM SCT055 04/M07 A2997 RMK AO2  T00361070,,,,,,19.17,,N,29.32,29.68,,Partly Cloudy
KIGQ,03/09/2018 20:35 UTC,29.97,38.3,20.66,48.64,8.05,30.0,,,,,,1.0,,,,10.0,,KIGQ 092035Z AUTO 03007KT 10SM CLR 04/M06 A2997 RMK AO2  T00351063,,,,,,20.44,34.48,NNE,29.32,29.67,,Clear
KIGQ,03/09/2018 20:55 UTC,29.97,37.58,21.02,50.81,8.05,50.0,,,,,,1.0,,,,10.0,,KIGQ 092055Z AUTO 05007KT 10SM CLR 03/M06 A2997 RMK AO2  T00311061,,,,,,20.81,33.63,NE,29.32,29.67,,Clear
KIGQ,03/09/2018 21:15 UTC,29.97,37.4,21.2,51.56,9.22,40.0,,,,,,1.0,,,,10.0,,KIGQ 092115Z AUTO 04008KT 10SM CLR 03/M06 A2997 RMK AO2  T00301060,,,,,,20.99,32.86,NE,29.32,29.66,,Clear
KIGQ,03/09/2018 21:35 UTC,29.98,37.4,21.02,51.17,9.22,70.0,,,,,,1.0,,,,10.0,,KIGQ 092135Z AUTO 07008KT 10SM CLR 03/M06 A2998 RMK AO2  T00301061,,,,,,20.81,32.86,ENE,29.33,29.68,,Clear
KIGQ,03/09/2018 21:55 UTC,29.98,36.5,20.84,52.61,6.91,30.0,,,,,,1.0,,,,10.0,,KIGQ 092155Z AUTO 03006KT 10SM CLR 03/M06 A2998 RMK AO2  T00251062,,,,,,20.64,,NNE,29.33,29.68,,Clear
KIGQ,03/09/2018 22:15 UTC,29.98,36.14,20.3,52.15,5.75,50.0,,,,,,1.0,,,,10.0,,KIGQ 092215Z AUTO 05005KT 10SM CLR 02/M06 A2998 RMK AO2  T00231065,,,,,,20.09,,NE,29.33,29.69,,Clear
KIGQ,03/09/2018 22:35 UTC,29.98,35.42,20.66,54.49,8.05,60.0,,,,,,1.0,,,,10.0,,KIGQ 092235Z AUTO 06007KT 10SM CLR 02/M06 A2998 RMK AO2  T00191063,,,,,,20.46,31.09,ENE,29.33,29.69,,Clear
KIGQ,03/09/2018 22:55 UTC,29.98,34.7,20.84,56.51,4.61,50.0,,,,,,1.0,,,,10.0,,KIGQ 092255Z AUTO 05004KT 10SM CLR 02/M06 A2998 RMK AO2  T00151062,,,,,,20.65,,NE,29.33,29.69,,Clear
KIGQ,03/09/2018 23:15 UTC,29.99,33.8,21.02,59.03,10.36,40.0,,,,,,1.0,,,,10.0,,KIGQ 092315Z AUTO 04009KT 10SM CLR 01/M06 A2999 RMK AO2  T00101061,,,,,,20.84,28.06,NE,29.34,29.7,,Clear
KIGQ,03/09/2018 23:35 UTC,29.99,32.18,20.66,62.04,8.05,50.0,,,,,,1.0,,,,10.0,,KIGQ 092335Z AUTO 05007KT 10SM CLR 00/M06 A2999 RMK AO2  T00011063,,,,,,20.49,27.29,NE,29.34,29.72,,Clear
KIGQ,03/09/2018 23:55 UTC,30.0,32.0,19.94,60.6,8.05,50.0,,,,,,1.0,,,,10.0,,KIGQ 092355Z AUTO 05007KT 10SM CLR 00/M07 A3000 RMK AO2 T00001067  10036 20000,38.48,32.0,,,,19.76,27.08,NE,29.35,29.73,,Clear
KIGQ,03/10/2018 00:15 UTC,30.0,31.46,20.3,62.9,6.91,40.0,,,,,,1.0,,,,10.0,,KIGQ 100015Z AUTO 04006KT 10SM CLR 00/M06 A3000 RMK AO2  T10031065,,,,,,20.14,,NE,29.35,29.73,,Clear
KIGQ,03/10/2018 00:35 UTC,30.0,31.1,19.94,62.85,8.05,60.0,,,,,,1.0,,,,10.0,,KIGQ 100035Z AUTO 06007KT 10SM CLR 00/M07 A3000 RMK AO2  T10051067,,,,,,19.78,26.02,ENE,29.35,29.74,,Clear
KIGQ,03/10/2018 00:55 UTC,30.01,31.1,20.3,63.82,6.91,50.0,,,,,,1.0,,,,10.0,,KIGQ 100055Z AUTO 05006KT 10SM CLR 00/M06 A3001 RMK AO2  T10051065,,,,,,20.14,,NE,29.36,29.75,,Clear
KIGQ,03/10/2018 01:15 UTC,30.01,30.92,21.02,66.29,3.44,70.0,,,,,,1.0,,,,10.0,,KIGQ 100115Z AUTO 07003KT 10SM CLR M01/M06 A3001 RMK AO2  T10061061,,,,,,20.87,,ENE,29.36,29.74,,Clear
KIGQ,03/10/2018 01:35 UTC,30.02,31.1,20.84,65.3,4.61,80.0,,,,,,1.0,,,,10.0,,KIGQ 100135Z AUTO 08004KT 10SM CLR 00/M06 A3002 RMK AO2  T10051062,,,,,,20.68,,E,29.37,29.75,,Clear
KIGQ,03/10/2018 01:55 UTC,30.02,30.2,21.02,68.26,0.0,0.0,,,,,,1.0,,,,10.0,,KIGQ 100155Z AUTO 00000KT 10SM CLR M01/M06 A3002 RMK AO2  T10101061,,,,,,20.88,,N,29.37,29.75,,Clear
KIGQ,03/10/2018 02:15 UTC,30.03,30.38,21.2,68.28,3.44,90.0,,,,,,1.0,,,,10.0,,KIGQ 100215Z AUTO 09003KT 10SM CLR M01/M06 A3003 RMK AO2  T10091060,,,,,,21.06,,E,29.38,29.76,,Clear
KIGQ,03/10/2018 02:35 UTC,30.04,30.2,21.56,69.84,0.0,0.0,,,,,,1.0,,,,10.0,,KIGQ 100235Z AUTO 00000KT 10SM CLR M01/M06 A3004 RMK AO2  T10101058,,,,,,21.43,,N,29.39,29.77,,Clear
KIGQ,03/10/2018 02:55 UTC,30.04,29.66,21.92,72.49,0.0,0.0,,,,,,1.0,,,,10.0,,KIGQ 100255Z AUTO 00000KT 10SM CLR M01/M06 A3004 RMK AO2  T10131056,,,,,,21.8,,N,29.39,29.77,,Clear
KIGQ,03/10/2018 03:15 UTC,30.04,29.3,21.56,72.45,0.0,0.0,,,,,,1.0,,,,10.0,,KIGQ 100315Z AUTO 00000KT 10SM CLR M01/M06 A3004 RMK AO2  T10151058,,,,,,21.44,,N,29.39,29.77,,Clear
KIGQ,03/10/2018 03:35 UTC,30.04,29.12,21.2,71.88,0.0,0.0,,,,,,1.0,,,,10.0,,KIGQ 100335Z AUTO 00000KT 10SM CLR M02/M06 A3004 RMK AO2  T10161060,,,,,,21.07,,N,29.39,29.78,,Clear
KIGQ,03/10/2018 03:55 UTC,30.04,28.58,20.84,72.37,0.0,0.0,,,,,,1.0,,,,10.0,,KIGQ 100355Z AUTO 00000KT 10SM CLR M02/M06 A3004 RMK AO2  T10191062,,,,,,20.72,,N,29.39,29.78,,Clear
KIGQ,03/10/2018 04:15 UTC,30.04,28.4,20.84,72.91,0.0,0.0,,,,,,1.0,,,,10.0,,KIGQ 100415Z AUTO 00000KT 10SM CLR M02/M06 A3004 RMK AO2  T10201062,,,,,,20.72,,N,29.39,29.78,,Clear
KIGQ,03/10/2018 04:35 UTC,30.04,28.22,19.4,69.07,0.0,0.0,,,,,,1.0,,,,10.0,,KIGQ 100435Z AUTO 00000KT 10SM CLR M02/M07 A3004 RMK AO2  T10211070,,,,,,19.26,,N,29.39,29.8,,Clear
KIGQ,03/10/2018 04:55 UTC,30.05,28.4,20.66,72.35,0.0,0.0,,,,,,1.0,,,,10.0,,KIGQ 100455Z AUTO 00000KT 10SM CLR M02/M06 A3005 RMK AO2  T10201063,,,,,,20.54,,N,29.4,29.8,,Clear
KIGQ,03/10/2018 05:15 UTC,30.05,28.4,19.04,67.51,0.0,0.0,,,,,,1.0,,,,10.0,,KIGQ 100515Z AUTO 00000KT 10SM CLR M02/M07 A3005 RMK AO2  T10201072,,,,,,18.89,,N,29.4,29.81,,Clear
KIGQ,03/10/2018 05:40 UTC,30.04,27.86,18.86,68.49,0.0,0.0,,,,,,1.0,,,,10.0,,KIGQ 100540Z AUTO 00000KT 10SM CLR M02/M07 A3004 RMK AO2  T10231073,,,,,,18.72,,N,29.39,29.81,,Clear
KIGQ,03/10/2018 05:55 UTC,30.04,27.5,18.86,69.52,0.0,0.0,,,,,,1.0,,,,10.0,,KIGQ 100555Z AUTO 00000KT 10SM CLR M02/M07 A3004 RMK AO2 T10251073  10000 21025 400361067,32.0,27.5,,38.48,19.94,18.72,,N,29.39,29.81,,Clear
KIGQ,03/10/2018 06:15 UTC,30.04,27.32,19.04,70.58,0.0,0.0,,,,,,1.0,,,,10.0,,KIGQ 100615Z AUTO 00000KT 10SM CLR M03/M07 A3004 RMK AO2  T10261072,,,,,,18.91,,N,29.39,29.81,,Clear
KIGQ,03/10/2018 06:35 UTC,30.04,27.14,19.22,71.66,3.44,80.0,,,,,,1.0,,,,10.0,,KIGQ 100635Z AUTO 08003KT 10SM CLR M03/M07 A3004 RMK AO2  T10271071,,,,,,19.09,,E,29.39,29.81,,Clear
KIGQ,03/10/2018 06:55 UTC,30.04,26.6,19.04,72.71,0.0,0.0,,,,,,1.0,,,,10.0,,KIGQ 100655Z AUTO 00000KT 10SM CLR M03/M07 A3004 RMK AO2  T10301072,,,,,,18.92,,N,29.39,29.81,,Clear
KIGQ,03/10/2018 07:15 UTC,30.04,26.6,19.4,73.84,0.0,0.0,,,,,,1.0,,,,10.0,,KIGQ 100715Z AUTO 00000KT 10SM CLR M03/M07 A3004 RMK AO2  T10301070,,,,,,19.28,,N,29.39,29.81,,Clear
KIGQ,03/10/2018 07:35 UTC,30.04,25.34,19.76,79.02,0.0,0.0,,,,,,1.0,,,,10.0,,KIGQ 100735Z AUTO 00000KT 10SM CLR M04/M07 A3004 RMK AO2  T10371068,,,,,,19.67,,N,29.39,29.81,,Clear
KIGQ,03/10/2018 07:55 UTC,30.04,26.42,18.5,71.57,0.0,0.0,,,,,,1.0,,,,10.0,,KIGQ 100755Z AUTO 00000KT 10SM CLR M03/M07 A3004 RMK AO2  T10311075,,,,,,18.37,,N,29.39,29.82,,Clear
KIGQ,03/10/2018 08:15 UTC,30.04,26.06,19.04,74.36,0.0,0.0,,,,,,1.0,,,,10.0,,KIGQ 100815Z AUTO 00000KT 10SM CLR M03/M07 A3004 RMK AO2  T10331072,,,,,,18.93,,N,29.39,29.81,,Clear
KIGQ,03/10/2018 08:35 UTC,30.04,25.7,18.86,74.9,0.0,0.0,,,,,,1.0,,,,10.0,,KIGQ 100835Z AUTO 00000KT 10SM CLR M03/M07 A3004 RMK AO2  T10351073,,,,,,18.75,,N,29.39,29.82,,Clear
KIGQ,03/10/2018 08:55 UTC,30.04,25.7,19.04,75.48,0.0,0.0,,,,,,1.0,,,,10.0,,KIGQ 100855Z AUTO 00000KT 10SM CLR M03/M07 A3004 RMK AO2  T10351072,,,,,,18.93,,N,29.39,29.81,,Clear
KIGQ,03/10/2018 09:15 UTC,30.04,25.7,18.86,74.9,0.0,0.0,,,,,,1.0,,,,10.0,,KIGQ 100915Z AUTO 00000KT 10SM CLR M03/M07 A3004 RMK AO2  T10351073,,,,,,18.75,,N,29.39,29.82,,Clear
KIGQ,03/10/2018 09:35 UTC,30.04,23.9,18.32,78.89,0.0,0.0,,,,,,1.0,,,,10.0,,KIGQ 100935Z AUTO 00000KT 10SM CLR M04/M08 A3004 RMK AO2  T10451076,,,,,,18.23,,N,29.39,29.83,,Clear
KIGQ,03/10/2018 09:55 UTC,30.04,24.8,19.04,78.36,0.0,0.0,,,,,,1.0,,,,10.0,,KIGQ 100955Z AUTO 00000KT 10SM CLR M04/M07 A3004 RMK AO2  T10401072,,,,,,18.94,,N,29.39,29.82,,Clear
KIGQ,03/10/2018 10:15 UTC,30.04,22.82,19.04,85.15,0.0,0.0,,,,,,1.0,,,,10.0,,KIGQ 101015Z AUTO 00000KT 10SM CLR M05/M07 A3004 RMK AO2  T10511072,,,,,,18.97,,N,29.39,29.83,,Clear
KIGQ,03/10/2018 10:35 UTC,30.05,20.3,17.96,90.45,0.0,0.0,,,,,,1.0,,,,10.0,,KIGQ 101035Z AUTO 00000KT 10SM CLR M06/M08 A3005 RMK AO2  T10651078,,,,,,17.92,,N,29.4,29.86,,Clear
KIGQ,03/10/2018 10:55 UTC,30.05,19.94,18.5,94.01,0.0,0.0,,,,,,1.0,,,,10.0,,KIGQ 101055Z AUTO 00000KT 10SM CLR M07/M07 A3005 RMK AO2  T10671075,,,,,,18.47,,N,29.4,29.86,,Clear
KIGQ,03/10/2018 11:15 UTC,30.05,18.5,17.42,95.45,0.0,0.0,,,,,,1.0,,,,10.0,,KIGQ 101115Z AUTO 00000KT 10SM CLR M07/M08 A3005 RMK AO2  T10751081,,,,,,17.4,,N,29.4,29.87,,Clear
KIGQ,03/10/2018 11:35 UTC,30.05,21.02,19.94,95.5,0.0,0.0,,,,,,1.0,,,,10.0,,KIGQ 101135Z AUTO 00000KT 10SM CLR M06/M07 A3005 RMK AO2  T10611067,,,,,,19.92,,N,29.4,29.84,,Clear
KIGQ,03/10/2018 11:55 UTC,30.06,21.92,20.3,93.35,0.0,0.0,,,,,,1.0,,,,10.0,,KIGQ 101155Z AUTO 00000KT 10SM CLR M06/M06 A3006 RMK AO2 T10561065  11025 21075,27.5,18.5,,,,20.27,,N,29.41,29.84,,Clear
KIGQ,03/10/2018 12:15 UTC,30.06,20.66,19.4,94.76,0.0,0.0,,,,,,1.0,,,,10.0,,KIGQ 101215Z AUTO 00000KT 10SM CLR M06/M07 A3006 RMK AO2  T10631070,,,,,,19.38,,N,29.41,29.86,,Clear
KIGQ,03/10/2018 12:35 UTC,30.07,19.4,18.32,95.47,0.0,0.0,,,,,,1.0,,,,10.0,,KIGQ 101235Z AUTO 00000KT 10SM CLR M07/M08 A3007 RMK AO2  T10701076,,,,,,18.3,,N,29.42,29.88,,Clear
KIGQ,03/10/2018 12:55 UTC,30.08,20.12,18.68,94.02,0.0,0.0,,,,,,1.0,,,,10.0,,KIGQ 101255Z AUTO 00000KT 10SM CLR M07/M07 A3008 RMK AO2  T10661074,,,,,,18.65,,N,29.43,29.89,,Clear
KIGQ,03/10/2018 13:15 UTC,30.09,24.26,22.1,91.31,0.0,0.0,,,,,,1.0,,,,10.0,,KIGQ 101315Z AUTO 00000KT 10SM CLR M04/M05 A3009 RMK AO2  T10431055,,,,,,22.06,,N,29.44,29.85,,Clear
KIGQ,03/10/2018 13:40 UTC,30.1,26.6,22.82,85.39,0.0,0.0,,,,,,1.0,,,,10.0,,KIGQ 101340Z AUTO 00000KT 10SM CLR M03/M05 A3010 RMK AO2  T10301051,,,,,,22.75,,N,29.45,29.84,,Clear
KIGQ,03/10/2018 13:55 UTC,30.11,27.86,22.82,81.07,0.0,0.0,,,,,,1.0,,,,10.0,,KIGQ 101355Z AUTO 00000KT 10SM CLR M02/M05 A3011 RMK AO2  T10231051,,,,,,22.74,,N,29.46,29.84,,Clear
KIGQ,03/10/2018 14:15 UTC,30.11,30.38,23.0,73.68,3.44,100.0,,,,,,1.0,,,,10.0,,KIGQ 101415Z AUTO 10003KT 10SM CLR M01/M05 A3011 RMK AO2  T10091050,,,,,,22.88,,E,29.46,29.82,,Clear
KIGQ,03/10/2018 14:35 UTC,30.11,32.0,22.46,67.45,5.75,110.0,,,,,,1.0,,,,10.0,,KIGQ 101435Z AUTO 11005KT 10SM CLR 00/M05 A3011 RMK AO2  T00001053,,,,,,22.32,,ESE,29.46,29.82,,Clear
KIGQ,03/10/2018 14:55 UTC,30.11,32.72,20.48,60.24,8.05,100.0,,,,,,1.0,,,,10.0,,KIGQ 101455Z AUTO 10007KT 10SM CLR 00/M06 A3011 RMK AO2  T00041064,,,,,,20.3,27.92,E,29.46,29.84,,Clear
KIGQ,03/10/2018 15:15 UTC,30.11,33.98,20.3,56.83,8.05,100.0,,,,,,1.0,,,,10.0,,KIGQ 101515Z AUTO 10007KT 10SM CLR 01/M06 A3011 RMK AO2  T00111065,,,,,,20.11,29.4,E,29.46,29.83,,Clear
KIGQ,03/10/2018 15:35 UTC,30.12,34.88,19.4,52.76,10.36,110.0,,,,,,1.0,,,,10.0,,KIGQ 101535Z AUTO 11009KT 10SM CLR 02/M07 A3012 RMK AO2  T00161070,,,,,,19.19,29.35,ESE,29.47,29.85,,Clear
KIGQ,03/10/2018 15:55 UTC,30.12,35.06,19.4,52.38,10.36,120.0,,,,,,1.0,,,,10.0,,KIGQ 101555Z AUTO 12009KT 10SM CLR 02/M07 A3012 RMK AO2  T00171070,,,,,,19.19,29.56,ESE,29.47,29.85,,Clear
KIGQ,03/10/2018 16:15 UTC,30.12,35.78,19.76,51.69,5.75,110.0,,,,,,1.0,,,,10.0,,KIGQ 101615Z AUTO 11005KT 10SM CLR 02/M07 A3012 RMK AO2  T00211068,,,,,,19.55,,ESE,29.47,29.84,,Clear
KIGQ,03/10/2018 16:35 UTC,30.11,36.5,20.3,51.41,6.91,110.0,,,,,,1.0,,,,10.0,,KIGQ 101635Z AUTO 11006KT 10SM CLR 03/M06 A3011 RMK AO2  T00251065,,,,,,20.09,,ESE,29.46,29.82,,Clear
KIGQ,03/10/2018 16:55 UTC,30.11,37.22,20.48,50.36,8.05,120.0,,,,,,1.0,,,,10.0,,KIGQ 101655Z AUTO 12007KT 10SM CLR 03/M06 A3011 RMK AO2  T00291064,,,,,,20.27,33.21,ESE,29.46,29.82,,Clear
KIGQ,03/10/2018 17:15 UTC,30.11,37.4,20.3,49.62,8.05,120.0,,,,,,1.0,,,,10.0,,KIGQ 101715Z AUTO 12007KT 10SM CLR 03/M06 A3011 RMK AO2  T00301065,,,,,,20.08,33.42,ESE,29.46,29.82,,Clear
KIGQ,03/10/2018 17:35 UTC,30.12,38.12,20.66,48.98,8.05,100.0,,,,,,1.0,,,,10.0,,KIGQ 101735Z AUTO 10007KT 10SM CLR 03/M06 A3012 RMK AO2  T00341063,,,,,,20.44,34.26,E,29.47,29.82,,Clear
KIGQ,03/10/2018 17:55 UTC,30.12,38.12,19.94,47.5,0.0,0.0,,,,,,1.0,,,,10.0,,KIGQ 101755Z AUTO 00000KT 10SM CLR 03/M07 A3012 RMK AO2 T00341067  10035 21072,38.3,19.04,,,,19.72,,N,29.47,29.83,,Clear
KIGQ,03/10/2018 18:15 UTC,30.11,38.3,19.76,46.81,0.0,0.0,,,,,,1.0,,,,10.0,,KIGQ 101815Z AUTO 00000KT 10SM CLR 04/M07 A3011 RMK AO2  T00351068,,,,,,19.54,,N,29.46,29.82,,Clear
KIGQ,03/10/2018 18:35 UTC,30.09,38.84,20.84,47.99,9.22,70.0,,,,,,1.0,,,,10.0,,KIGQ 101835Z AUTO 07008KT 10SM CLR 04/M06 A3009 RMK AO2  T00381062,,,,,,20.62,34.57,ENE,29.44,29.78,,Clear
KIGQ,03/10/2018 18:55 UTC,30.08,39.38,22.28,49.94,6.91,30.0,,,,,,1.0,,,,10.0,,KIGQ 101855Z AUTO 03006KT 10SM CLR 04/M05 A3008 RMK AO2  T00411054,,,,,,22.07,,NNE,29.43,29.75,,Clear
KIGQ,03/10/2018 19:15 UTC,30.08,39.56,22.28,49.59,5.75,80.0,,,,,,1.0,,,,10.0,,KIGQ 101915Z AUTO 08005KT 10SM CLR 04/M05 A3008 RMK AO2  T00421054,,,,,,22.07,,E,29.43,29.75,,Clear
KIGQ,03/10/2018 19:35 UTC,30.07,39.56,22.46,49.97,6.91,30.0,,,,,,1.0,,,,10.0,,KIGQ 101935Z AUTO 03006KT 10SM CLR 04/M05 A3007 RMK AO2  T00421053,,,,,,22.25,,NNE,29.42,29.74,,Clear
KIGQ,03/10/2018 19:55 UTC,30.07,38.84,21.74,49.86,9.22,70.0,,,,,,1.0,,,,10.0,,KIGQ 101955Z AUTO 07008KT 10SM CLR 04/M06 A3007 RMK AO2  T00381057,,,,,,21.53,34.57,ENE,29.42,29.75,,Clear
KIGQ,03/10/2018 20:15 UTC,30.08,38.66,22.46,51.76,4.61,20.0,,,,,,1.0,,,,10.0,,KIGQ 102015Z AUTO 02004KT 10SM CLR 04/M05 A3008 RMK AO2  T00371053,,,,,,22.26,,NNE,29.43,29.76,,Clear
KIGQ,03/10/2018 20:35 UTC,30.08,39.02,21.74,49.51,0.0,0.0,,,,,,1.0,,,,10.0,,KIGQ 102035Z AUTO 00000KT 10SM CLR 04/M06 A3008 RMK AO2  T00391057,,,,,,21.53,,N,29.43,29.76,,Clear
KIGQ,03/10/2018 20:55 UTC,30.08,37.94,22.46,53.24,5.75,40.0,,,,,,1.0,,,,10.0,,KIGQ 102055Z AUTO 04005KT 10SM CLR 03/M05 A3008 RMK AO2  T00331053,,,,,,22.26,,NE,29.43,29.76,,Clear
KIGQ,03/10/2018 21:15 UTC,30.08,37.04,21.02,51.9,6.91,50.0,,,,,,1.0,,,,10.0,,KIGQ 102115Z AUTO 05006KT 020V080 10SM CLR 03/M06 A3008 RMK AO2  T00281061,,,,,,20.81,,NE,29.43,29.78,,Clear
KIGQ,03/10/2018 21:35 UTC,30.08,37.04,20.3,50.33,9.22,40.0,,,,,,1.0,,,,10.0,,KIGQ 102135Z AUTO 04008KT 10SM CLR 03/M06 A3008 RMK AO2  T00281065,,,,,,20.09,32.43,NE,29.43,29.79,,Clear
KIGQ,03/10/2018 21:55 UTC,30.08,37.58,20.12,48.89,10.36,60.0,,,,,,1.0,,,,10.0,,KIGQ 102155Z AUTO 06009KT 10SM CLR 03/M07 A3008 RMK AO2  T00311066,,,,,,19.9,32.58,ENE,29.43,29.79,,Clear
KIGQ,03/10/2018 22:15 UTC,30.09,36.86,19.76,49.53,6.91,30.0,,,,,,1.0,,,,10.0,,KIGQ 102215Z AUTO 03006KT 10SM CLR 03/M07 A3009 RMK AO2  T00271068,,,,,,19.54,,NNE,29.44,29.8,,Clear
KIGQ,03/10/2018 22:35 UTC,30.09,35.06,20.48,54.86,9.22,50.0,,,,,,1.0,,,,10.0,,KIGQ 102235Z AUTO 05008KT 10SM CLR 02/M06 A3009 RMK AO2  T00171064,,,,,,20.28,30.08,NE,29.44,29.81,,Clear
KIGQ,03/10/2018 22:55 UTC,30.1,33.98,19.94,55.97,8.05,30.0,,,,,,1.0,,,,10.0,,KIGQ 102255Z AUTO 03007KT 10SM CLR 01/M07 A3010 RMK AO2  T00111067,,,,,,19.75,29.4,NNE,29.45,29.83,,Clear
KIGQ,03/10/2018 23:15 UTC,30.1,33.62,20.84,59.0,8.05,50.0,,,,,,1.0,,,,10.0,,KIGQ 102315Z AUTO 05007KT 10SM CLR 01/M06 A3010 RMK AO2  T00091062,,,,,,20.66,28.98,NE,29.45,29.82,,Clear
KIGQ,03/10/2018 23:35 UTC,30.11,32.9,20.66,60.26,6.91,50.0,,,,,,1.0,,,,10.0,,KIGQ 102335Z AUTO 05006KT 10SM CLR 01/M06 A3011 RMK AO2  T00051063,,,,,,20.48,,NE,29.46,29.84,,Clear
KIGQ,03/10/2018 23:55 UTC,30.11,32.0,21.92,65.92,8.05,40.0,,,,,,1.0,,,,10.0,,KIGQ 102355Z AUTO 04007KT 10SM CLR 00/M06 A3011 RMK AO2 T00001056  10047 20000,40.46,32.0,,,,21.77,27.08,NE,29.46,29.83,,Clear
KIGQ,03/11/2018 00:15 UTC,30.12,32.0,23.0,69.0,4.61,50.0,,,,,,1.0,,,,10.0,,KIGQ 110015Z AUTO 05004KT 10SM CLR 00/M05 A3012 RMK AO2  T00001050,,,,,,22.86,,NE,29.47,29.83,,Clear
KIGQ,03/11/2018 00:35 UTC,30.12,31.64,23.0,70.01,3.44,50.0,,,,,,1.0,,,,10.0,,KIGQ 110035Z AUTO 05003KT 10SM CLR 00/M05 A3012 RMK AO2  T10021050,,,,,,22.87,,NE,29.47,29.83,,Clear
KIGQ,03/11/2018 01:15 UTC,30.11,31.82,23.54,71.1,9.22,70.0,,,,,,1.0,,,,10.0,,KIGQ 110115Z AUTO 07008KT 10SM CLR 00/M05 A3011 RMK AO2  T10011047,,,,,,23.41,26.24,ENE,29.46,29.81,,Clear
KIGQ,03/11/2018 01:35 UTC,30.12,31.82,23.0,69.5,5.75,70.0,,,,,,1.0,,,,10.0,,KIGQ 110135Z AUTO 07005KT 10SM CLR 00/M05 A3012 RMK AO2  T10011050,,,,,,22.86,,ENE,29.47,29.83,,Clear
KIGQ,03/11/2018 02:20 UTC,30.13,30.56,23.36,74.26,0.0,0.0,,,,,,1.0,,,,10.0,,KIGQ 110220Z AUTO 00000KT 10SM CLR M01/M05 A3013 RMK AO2  T10081048,,,,,,23.25,,N,29.47,29.83,,Clear
KIGQ,03/11/2018 02:35 UTC,30.14,31.1,23.72,73.76,0.0,0.0,,,,,,1.0,,,,10.0,,KIGQ 110235Z AUTO 00000KT 10SM CLR 00/M05 A3014 RMK AO2  T10051046,,,,,,23.6,,N,29.48,29.83,,Clear
KIGQ,03/11/2018 03:20 UTC,30.14,30.02,24.08,78.24,0.0,0.0,,,,,,1.0,,,,10.0,,KIGQ 110320Z AUTO 00000KT 10SM CLR M01/M04 A3014 RMK AO2  T10111044,,,,,,23.98,,N,29.48,29.83,,Clear
KIGQ,03/11/2018 03:35 UTC,30.14,29.84,24.44,80.01,0.0,0.0,,,,,,1.0,,,,10.0,,KIGQ 110335Z AUTO 00000KT 10SM CLR M01/M04 A3014 RMK AO2  T10121042,,,,,,24.35,,N,29.48,29.83,,Clear
KIGQ,03/11/2018 04:15 UTC,30.15,28.4,23.54,81.72,0.0,0.0,,,,,,1.0,,,,10.0,,KIGQ 110415Z AUTO 00000KT 10SM CLR M02/M05 A3015 RMK AO2  T10201047,,,,,,23.46,,N,29.49,29.86,,Clear
KIGQ,03/11/2018 04:35 UTC,30.15,28.58,23.72,81.74,0.0,0.0,,,,,,1.0,,,,10.0,,KIGQ 110435Z AUTO 00000KT 10SM CLR M02/M05 A3015 RMK AO2  T10191046,,,,,,23.64,,N,29.49,29.86,,Clear
KIGQ,03/11/2018 05:15 UTC,30.15,29.66,23.0,75.87,0.0,0.0,,,,,,1.0,,,,10.0,,KIGQ 110515Z AUTO 00000KT 10SM CLR M01/M05 A3015 RMK AO2  T10131050,,,,,,22.89,,N,29.49,29.86,,Clear
KIGQ,03/11/2018 05:35 UTC,30.16,28.94,22.82,77.55,0.0,0.0,,,,,,1.0,,,,10.0,,KIGQ 110535Z AUTO 00000KT 10SM CLR M02/M05 A3016 RMK AO2  T10171051,,,,,,22.72,,N,29.5,29.87,,Clear
KIGQ,03/11/2018 06:20 UTC,30.16,28.94,23.0,78.14,0.0,0.0,,,,,,1.0,,,,10.0,,KIGQ 110620Z AUTO 00000KT 10SM CLR M02/M05 A3016 RMK AO2  T10171050,,,,,,22.9,,N,29.5,29.87,,Clear
KIGQ,03/11/2018 06:35 UTC,30.16,28.58,22.46,77.52,0.0,0.0,,,,,,1.0,,,,10.0,,KIGQ 110635Z AUTO 00000KT 10SM CLR M02/M05 A3016 RMK AO2  T10191053,,,,,,22.36,,N,29.5,29.88,,Clear
KIGQ,03/11/2018 07:15 UTC,30.16,29.12,21.74,73.55,0.0,0.0,,,,,,1.0,,,,10.0,,KIGQ 110715Z AUTO 00000KT 10SM CLR M02/M06 A3016 RMK AO2  T10161057,,,,,,21.62,,N,29.5,29.88,,Clear
KIGQ,03/11/2018 07:35 UTC,30.16,29.12,21.74,73.55,0.0,0.0,,,,,,1.0,,,,10.0,,KIGQ 110735Z AUTO 00000KT 10SM CLR M02/M06 A3016 RMK AO2  T10161057,,,,,,21.62,,N,29.5,29.88,,Clear
KIGQ,03/11/2018 08:15 UTC,30.15,29.3,21.92,73.57,4.61,70.0,,,,,,1.0,,,,10.0,,KIGQ 110815Z AUTO 07004KT 10SM CLR M01/M06 A3015 RMK AO2  T10151056,,,,,,21.8,,ENE,29.49,29.87,,Clear
KIGQ,03/11/2018 08:35 UTC,30.15,29.12,21.92,74.11,4.61,70.0,,,,,,1.0,,,,10.0,,KIGQ 110835Z AUTO 07004KT 10SM CLR M02/M06 A3015 RMK AO2  T10161056,,,,,,21.8,,ENE,29.49,29.87,,Clear
KIGQ,03/11/2018 09:20 UTC,30.15,29.3,22.1,74.13,4.61,50.0,,,,,,1.0,,,,10.0,,KIGQ 110920Z AUTO 05004KT 10SM CLR M01/M05 A3015 RMK AO2  T10151055,,,,,,21.99,,NE,29.49,29.87,,Clear
KIGQ,03/11/2018 09:35 UTC,30.15,29.12,22.46,75.82,4.61,40.0,,,,,,1.0,,,,10.0,,KIGQ 110935Z AUTO 04004KT 10SM CLR M02/M05 A3015 RMK AO2  T10161053,,,,,,22.35,,NE,29.49,29.87,,Clear
KIGQ,03/11/2018 10:15 UTC,30.16,29.12,22.64,76.4,0.0,0.0,,,,,,1.0,,,,10.0,,KIGQ 111015Z AUTO 00000KT 10SM CLR M02/M05 A3016 RMK AO2  T10161052,,,,,,22.54,,N,29.5,29.88,,Clear
KIGQ,03/11/2018 10:35 UTC,30.16,28.76,23.0,78.72,0.0,0.0,,,,,,1.0,,,,10.0,,KIGQ 111035Z AUTO 00000KT 10SM CLR M02/M05 A3016 RMK AO2  T10181050,,,,,,22.91,,N,29.5,29.87,,Clear
KIGQ,03/11/2018 11:15 UTC,30.17,28.94,23.9,81.15,0.0,0.0,,,,,,1.0,,,,10.0,,KIGQ 111115Z AUTO 00000KT 10SM CLR M02/M04 A3017 RMK AO2  T10171045,,,,,,23.82,,N,29.51,29.87,,Clear
KIGQ,03/11/2018 11:35 UTC,30.17,29.12,23.9,80.56,0.0,0.0,,,,,,1.0,,,,10.0,,KIGQ 111135Z AUTO 00000KT 10SM CLR M02/M04 A3017 RMK AO2  T10161045,,,,,,23.81,,N,29.51,29.87,,Clear
KIGQ,03/11/2018 12:20 UTC,30.17,28.22,23.54,82.33,0.0,0.0,,,,,,1.0,,,,10.0,,KIGQ 111220Z AUTO 00000KT 10SM CLR M02/M05 A3017 RMK AO2  T10211047,,,,,,23.46,,N,29.51,29.88,,Clear
KIGQ,03/11/2018 12:35 UTC,30.18,28.4,23.72,82.34,0.0,0.0,,,,,,1.0,,,,10.0,,KIGQ 111235Z AUTO 00000KT 10SM CLR M02/M05 A3018 RMK AO2  T10201046,,,,,,23.64,,N,29.52,29.89,,Clear
KIGQ,03/11/2018 13:15 UTC,30.19,29.3,23.72,79.36,0.0,0.0,,,,,,1.0,,,,10.0,,KIGQ 111315Z AUTO 00000KT 10SM CLR M01/M05 A3019 RMK AO2  T10151046,,,,,,23.63,,N,29.53,29.89,,Clear
KIGQ,03/11/2018 13:35 UTC,30.2,30.74,24.8,78.3,0.0,0.0,,,,,,1.0,,,,10.0,,KIGQ 111335Z AUTO 00000KT 10SM CLR M01/M04 A3020 RMK AO2  T10071040,,,,,,24.7,,N,29.54,29.88,,Clear
KIGQ,03/11/2018 14:20 UTC,30.21,33.8,23.54,65.66,0.0,0.0,,,,,,1.0,,,,10.0,,KIGQ 111420Z AUTO 00000KT 10SM CLR 01/M05 A3021 RMK AO2  T00101047,,,,,,23.39,,N,29.55,29.89,,Clear
KIGQ,03/11/2018 14:35 UTC,30.21,33.98,22.82,63.24,0.0,0.0,,,,,,1.0,,,,10.0,,KIGQ 111435Z AUTO 00000KT 10SM CLR 01/M05 A3021 RMK AO2  T00111051,,,,,,22.66,,N,29.55,29.9,,Clear
KIGQ,03/11/2018 15:20 UTC,30.21,36.5,26.06,65.52,6.91,100.0,,,,,,293.0,,,,10.0,,KIGQ 111520Z AUTO 10006KT 10SM BKN029 03/M03 A3021 RMK AO2  T00251033,,,2900.0,,,25.91,,E,29.55,29.85,,Mostly Cloudy
KIGQ,03/11/2018 15:35 UTC,30.21,35.06,25.7,68.34,8.05,30.0,,,,,,293.0,,,,10.0,,KIGQ 111535Z AUTO 03007KT 10SM BKN029 02/M03 A3021 RMK AO2  T00171035,,,2900.0,,,25.56,30.67,NNE,29.55,29.86,,Mostly Cloudy
KIGQ,03/11/2018 16:20 UTC,30.22,35.6,25.16,65.4,8.05,20.0,,,,,,292.0,,,,10.0,,KIGQ 111620Z AUTO 02007KT 10SM SCT029 02/M04 A3022 RMK AO2  T00201038,,,,,,25.01,31.3,NNE,29.56,29.87,,Partly Cloudy
KIGQ,03/11/2018 16:35 UTC,30.21,36.5,24.44,61.24,4.61,40.0,,,,,,312.0,,,,10.0,,KIGQ 111635Z AUTO 04004KT 10SM SCT031 03/M04 A3021 RMK AO2  T00251042,,,,,,24.27,,NE,29.55,29.87,,Partly Cloudy
KIGQ,03/11/2018 17:15 UTC,30.21,37.94,24.98,59.18,8.05,70.0,,,,,,1.0,,,,10.0,,KIGQ 111715Z AUTO 07007KT 030V090 10SM CLR 03/M04 A3021 RMK AO2  T00331039,,,,,,24.81,34.05,ENE,29.55,29.85,,Clear
KIGQ,03/11/2018 17:35 UTC,30.21,37.76,24.08,57.4,8.05,30.0,17.27,,,,,1.0,,,,10.0,,KIGQ 111735Z AUTO 03007G15KT 10SM CLR 03/M04 A3021 RMK AO2  T00321044,,,,,,23.9,33.84,NNE,29.55,29.86,,Clear
KIGQ,03/11/2018 18:20 UTC,30.2,37.76,23.9,56.97,10.36,30.0,17.27,,,,,1.0,,,,10.0,,KIGQ 111820Z AUTO 03009G15KT 10SM CLR 03/M04 A3020 RMK AO2  T00321045,,,,,,23.72,32.8,NNE,29.54,29.86,,Clear
KIGQ,03/11/2018 18:35 UTC,30.19,37.76,24.62,58.71,11.5,40.0,17.27,,,,,1.0,,,,10.0,,KIGQ 111835Z AUTO 04010G15KT 10SM CLR 03/M04 A3019 RMK AO2  T00321041,,,,,,24.44,32.35,NE,29.53,29.84,,Clear
KIGQ,03/11/2018 19:15 UTC,30.18,37.94,24.98,59.18,11.5,40.0,16.11,,,,,1.0,,,,10.0,,KIGQ 111915Z AUTO 04010G14KT 10SM CLR 03/M04 A3018 RMK AO2  T00331039,,,,,,24.81,32.57,NE,29.52,29.82,,Clear
KIGQ,03/11/2018 19:35 UTC,30.18,37.76,24.8,59.16,11.5,60.0,18.41,,,,,1.0,,,,10.0,,KIGQ 111935Z AUTO 06010G16KT 10SM CLR 03/M04 A3018 RMK AO2  T00321040,,,,,,24.63,32.35,ENE,29.52,29.82,,Clear
KIGQ,03/11/2018 19:55 UTC,30.18,36.5,22.64,56.78,11.5,50.0,18.41,,,,,1.0,,,,10.0,,KIGQ 111955Z AUTO 05010G16KT 10SM CLR 03/M05 A3018 RMK AO2  T00251052,,,,,,22.45,30.83,NE,29.52,29.86,,Clear
KIGQ,03/11/2018 20:15 UTC,30.18,36.5,24.98,62.64,10.36,20.0,16.11,,,,,1.0,,,,10.0,,KIGQ 112015Z AUTO 02009G14KT 10SM CLR 03/M04 A3018 RMK AO2  T00251039,,,,,,24.82,31.29,NNE,29.52,29.83,,Clear
KIGQ,03/11/2018 20:35 UTC,30.18,36.14,23.9,60.73,12.66,20.0,18.41,,,,,1.0,,,,10.0,,KIGQ 112035Z AUTO 02011G16KT 10SM CLR 02/M04 A3018 RMK AO2  T00231045,,,,,,23.73,29.97,NNE,29.52,29.84,,Clear
KIGQ,03/11/2018 20:55 UTC,30.18,35.78,23.18,59.77,11.5,20.0,17.27,,,,,1.0,,,,10.0,,KIGQ 112055Z AUTO 02010G15KT 10SM CLR 02/M05 A3018 RMK AO2  T00211049,,,,,,23.01,29.96,NNE,29.52,29.85,,Clear
KIGQ,03/11/2018 21:15 UTC,30.18,35.24,23.0,60.6,13.8,30.0,17.27,,,,,1.0,,,,10.0,,KIGQ 112115Z AUTO 03012G15KT 10SM CLR 02/M05 A3018 RMK AO2  T00181050,,,,,,22.83,28.47,NNE,29.52,29.86,,Clear
KIGQ,03/11/2018 21:35 UTC,30.18,35.06,23.0,61.04,12.66,20.0,17.27,,,,,1.0,,,,10.0,,KIGQ 112135Z AUTO 02011G15KT 10SM CLR 02/M05 A3018 RMK AO2  T00171050,,,,,,22.83,28.65,NNE,29.52,29.86,,Clear
KIGQ,03/11/2018 21:55 UTC,30.18,35.06,22.28,59.21,12.66,30.0,19.57,,,,,1.0,,,,10.0,,KIGQ 112155Z AUTO 03011G17KT 10SM CLR 02/M05 A3018 RMK AO2  T00171054,,,,,,22.1,28.65,NNE,29.52,29.87,,Clear
KIGQ,03/11/2018 22:15 UTC,30.17,35.06,22.82,60.58,10.36,20.0,16.11,,,,,1.0,,,,10.0,,KIGQ 112215Z AUTO 02009G14KT 10SM CLR 02/M05 A3017 RMK AO2  T00171051,,,,,,22.65,29.56,NNE,29.51,29.85,,Clear
KIGQ,03/11/2018 22:35 UTC,30.17,34.34,22.82,62.34,12.66,30.0,16.11,,,,,1.0,,,,10.0,,KIGQ 112235Z AUTO 03011G14KT 10SM CLR 01/M05 A3017 RMK AO2  T00131051,,,,,,22.66,27.78,NNE,29.51,29.86,,Clear
KIGQ,03/11/2018 22:55 UTC,30.18,34.16,23.36,64.23,9.22,360.0,,,,,,1.0,,,,10.0,,KIGQ 112255Z AUTO 36008KT 10SM CLR 01/M05 A3018 RMK AO2  T00121048,,,,,,23.2,29.01,N,29.52,29.86,,Clear
KIGQ,03/11/2018 23:15 UTC,30.18,33.8,23.0,64.18,12.66,30.0,17.27,,,,,1.0,,,,10.0,,KIGQ 112315Z AUTO 03011G15KT 10SM CLR 01/M05 A3018 RMK AO2  T00101050,,,,,,22.84,27.12,NNE,29.52,29.87,,Clear
KIGQ,03/11/2018 23:35 UTC,30.18,33.08,23.9,68.61,9.22,360.0,,,,,,1.0,,,,10.0,,KIGQ 112335Z AUTO 36008KT 10SM CLR 01/M04 A3018 RMK AO2  T00061045,,,,,,23.76,27.73,N,29.52,29.86,,Clear
KIGQ,03/11/2018 23:55 UTC,30.19,32.36,23.9,70.63,6.91,10.0,,,,,,1.0,,,,10.0,,KIGQ 112355Z AUTO 01006KT 10SM CLR 00/M04 A3019 RMK AO2 T00021045  10037 20002,38.66,32.36,,,,23.77,,N,29.53,29.87,,Clear
KIGQ,03/12/2018 00:15 UTC,30.19,32.0,23.72,71.12,6.91,360.0,,,,,,1.0,,,,10.0,,KIGQ 120015Z AUTO 36006KT 10SM CLR 00/M05 A3019 RMK AO2  T00001046,,,,,,23.59,,N,29.53,29.88,,Clear
KIGQ,03/12/2018 00:35 UTC,30.19,32.0,23.9,71.66,4.61,10.0,,,,,,1.0,,,,10.0,,KIGQ 120035Z AUTO 01004KT 10SM CLR 00/M04 A3019 RMK AO2  T00001045,,,,,,23.77,,N,29.53,29.88,,Clear
KIGQ,03/12/2018 00:55 UTC,30.19,32.0,23.9,71.66,3.44,360.0,,,,,,1.0,,,,10.0,,KIGQ 120055Z AUTO 36003KT 10SM CLR 00/M04 A3019 RMK AO2  T00001045,,,,,,23.77,,N,29.53,29.88,,Clear
KIGQ,03/12/2018 01:15 UTC,30.19,32.0,23.9,71.66,3.44,360.0,,,,,,1.0,,,,10.0,,KIGQ 120115Z AUTO 36003KT 10SM CLR 00/M04 A3019 RMK AO2  T00001045,,,,,,23.77,,N,29.53,29.88,,Clear
KIGQ,03/12/2018 01:35 UTC,30.19,31.82,24.26,73.28,0.0,0.0,,,,,,1.0,,,,10.0,,KIGQ 120135Z AUTO 00000KT 10SM CLR 00/M04 A3019 RMK AO2  T10011043,,,,,,24.14,,N,29.53,29.87,,Clear
KIGQ,03/12/2018 01:55 UTC,30.19,31.64,24.44,74.37,0.0,0.0,,,,,,1.0,,,,10.0,,KIGQ 120155Z AUTO 00000KT 10SM CLR 00/M04 A3019 RMK AO2  T10021042,,,,,,24.33,,N,29.53,29.87,,Clear
KIGQ,03/12/2018 02:15 UTC,30.19,31.28,24.44,75.46,0.0,0.0,,,,,,1.0,,,,10.0,,KIGQ 120215Z AUTO 00000KT 10SM CLR 00/M04 A3019 RMK AO2  T10041042,,,,,,24.33,,N,29.53,29.87,,Clear
KIGQ,03/12/2018 02:40 UTC,30.19,31.1,24.8,77.17,0.0,0.0,,,,,,1.0,,,,10.0,,KIGQ 120240Z AUTO 00000KT 10SM CLR 00/M04 A3019 RMK AO2  T10051040,,,,,,24.7,,N,29.53,29.87,,Clear
KIGQ,03/12/2018 02:55 UTC,30.19,30.56,24.8,78.88,0.0,0.0,,,,,,1.0,,,,10.0,,KIGQ 120255Z AUTO 00000KT 10SM CLR M01/M04 A3019 RMK AO2  T10081040,,,,,,24.71,,N,29.53,29.87,,Clear
KIGQ,03/12/2018 03:15 UTC,30.19,27.5,23.36,84.17,0.0,0.0,,,,,,1.0,,,,10.0,,KIGQ 120315Z AUTO 00000KT 10SM CLR M02/M05 A3019 RMK AO2  T10251048,,,,,,23.29,,N,29.53,29.91,,Clear
KIGQ,03/12/2018 03:40 UTC,30.19,26.24,24.26,92.08,0.0,0.0,,,,,,1.0,,,,10.0,,KIGQ 120340Z AUTO 00000KT 10SM CLR M03/M04 A3019 RMK AO2  T10321043,,,,,,24.22,,N,29.53,29.9,,Clear
KIGQ,03/12/2018 03:55 UTC,30.18,27.32,25.16,91.43,0.0,0.0,,,,,,1.0,,,,10.0,,KIGQ 120355Z AUTO 00000KT 10SM CLR M03/M04 A3018 RMK AO2  T10261038,,,,,,25.12,,N,29.52,29.88,,Clear
KIGQ,03/12/2018 04:15 UTC,30.18,26.24,24.44,92.78,0.0,0.0,,,,,,1.0,,,,10.0,,KIGQ 120415Z AUTO 00000KT 10SM CLR M03/M04 A3018 RMK AO2  T10321042,,,,,,24.41,,N,29.52,29.89,,Clear
KIGQ,03/12/2018 04:35 UTC,30.18,23.72,21.92,92.69,0.0,0.0,,,,,,1.0,,,,10.0,,KIGQ 120435Z AUTO 00000KT 10SM CLR M05/M06 A3018 RMK AO2  T10461056,,,,,,21.89,,N,29.52,29.93,,Clear
KIGQ,03/12/2018 04:55 UTC,30.17,22.82,21.38,94.09,0.0,0.0,,,,,,1.0,,,,10.0,,KIGQ 120455Z AUTO 00000KT 10SM CLR M05/M06 A3017 RMK AO2  T10511059,,,,,,21.35,,N,29.51,29.93,,Clear
KIGQ,03/12/2018 05:15 UTC,30.17,24.8,23.54,94.86,0.0,0.0,,,,,,1.0,,,,10.0,,KIGQ 120515Z AUTO 00000KT 10SM CLR M04/M05 A3017 RMK AO2  T10401047,,,,,,23.52,,N,29.51,29.9,,Clear
KIGQ,03/12/2018 05:35 UTC,30.16,24.62,23.72,96.3,0.0,0.0,,,,,,1.0,,,,10.0,,KIGQ 120535Z AUTO 00000KT 10SM CLR M04/M05 A3016 RMK AO2  T10411046,,,,,,23.7,,N,29.5,29.89,,Clear
KIGQ,03/12/2018 05:55 UTC,30.16,23.18,21.92,94.82,0.0,0.0,,,,,,1.0,,,,10.0,,KIGQ 120555Z AUTO 00000KT 10SM CLR M05/M06 A3016 RMK AO2 T10491056  10001 21051 400371051,32.18,22.82,,38.66,22.82,21.9,,N,29.5,29.91,,Clear
KIGQ,03/12/2018 06:15 UTC,30.16,24.8,24.08,97.03,0.0,0.0,,,,,,1.0,,,,10.0,,KIGQ 120615Z AUTO 00000KT 10SM CLR M04/M04 A3016 RMK AO2  T10401044,,,,,,24.07,,N,29.5,29.88,,Clear
KIGQ,03/12/2018 06:35 UTC,30.16,26.24,23.72,90.02,0.0,0.0,,,,,,1.0,,,,10.0,,KIGQ 120635Z AUTO 00000KT 10SM CLR M03/M05 A3016 RMK AO2  T10321046,,,,,,23.68,,N,29.5,29.88,,Clear
KIGQ,03/12/2018 06:55 UTC,30.16,25.34,22.64,89.3,0.0,0.0,,,,,,552.0,,,,10.0,,KIGQ 120655Z AUTO 00000KT 10SM SCT055 M04/M05 A3016 RMK AO2  T10371052,,,,,,22.59,,N,29.5,29.9,,Partly Cloudy
KIGQ,03/12/2018 07:15 UTC,30.15,26.78,23.36,86.71,0.0,0.0,,,,,,504.0,,,,10.0,,KIGQ 120715Z AUTO 00000KT 10SM OVC050 M03/M05 A3015 RMK AO2  T10291048,,,5000.0,,,23.3,,N,29.49,29.87,,Overcast
KIGQ,03/12/2018 07:35 UTC,30.15,28.04,23.9,84.21,0.0,0.0,,,,,,504.0,,,,10.0,,KIGQ 120735Z AUTO 00000KT 10SM OVC050 M02/M04 A3015 RMK AO2  T10221045,,,5000.0,,,23.83,,N,29.49,29.86,,Overcast
KIGQ,03/12/2018 07:55 UTC,30.14,28.76,23.9,81.75,0.0,0.0,,,,,,504.0,,,,10.0,,KIGQ 120755Z AUTO 00000KT 10SM OVC050 M02/M04 A3014 RMK AO2  T10181045,,,5000.0,,,23.82,,N,29.48,29.84,,Overcast
KIGQ,03/12/2018 08:15 UTC,30.13,29.12,24.44,82.4,3.44,260.0,,,,,,504.0,,,,10.0,,KIGQ 120815Z AUTO 26003KT 10SM OVC050 M02/M04 A3013 RMK AO2  T10161042,,,5000.0,,,24.36,,W,29.47,29.83,,Overcast
KIGQ,03/12/2018 08:35 UTC,30.12,29.48,24.44,81.2,0.0,0.0,,,,,,484.0,,,,10.0,,KIGQ 120835Z AUTO 00000KT 10SM OVC048 M01/M04 A3012 RMK AO2  T10141042,,,4800.0,,,24.36,,N,29.47,29.82,,Overcast
KIGQ,03/12/2018 08:55 UTC,30.12,30.02,23.72,77.07,0.0,0.0,,,,,,484.0,,,,10.0,,KIGQ 120855Z AUTO 00000KT 10SM OVC048 M01/M05 A3012 RMK AO2  T10111046,,,4800.0,,,23.62,,N,29.47,29.83,,Overcast
KIGQ,03/12/2018 09:15 UTC,30.11,30.2,23.9,77.08,3.44,270.0,,,,,,464.0,,,,10.0,,KIGQ 120915Z AUTO 27003KT 10SM OVC046 M01/M04 A3011 RMK AO2  T10101045,,,4600.0,,,23.8,,W,29.46,29.81,,Overcast
KIGQ,03/12/2018 09:35 UTC,30.11,31.1,23.18,72.1,0.0,0.0,,,,,,444.0,,,,10.0,,KIGQ 120935Z AUTO 00000KT 10SM OVC044 00/M05 A3011 RMK AO2  T10051049,,,4400.0,,,23.06,,N,29.46,29.82,,Overcast
KIGQ,03/12/2018 09:55 UTC,30.1,31.1,23.36,72.65,0.0,0.0,,,,,,444.0,,,,10.0,,KIGQ 120955Z AUTO 00000KT 10SM OVC044 00/M05 A3010 RMK AO2  T10051048,,,4400.0,,,23.24,,N,29.45,29.81,,Overcast
KIGQ,03/12/2018 10:15 UTC,30.1,31.82,22.82,68.98,0.0,0.0,,,,,,424.0,,,,10.0,,KIGQ 121015Z AUTO 00000KT 10SM OVC042 00/M05 A3010 RMK AO2  T10011051,,,4200.0,,,22.68,,N,29.45,29.81,,Overcast
KIGQ,03/12/2018 10:35 UTC,30.09,32.0,22.64,67.96,3.44,240.0,,,,,,424.0,,,,10.0,,KIGQ 121035Z AUTO 24003KT 10SM OVC042 00/M05 A3009 RMK AO2  T00001052,,,4200.0,,,22.5,,WSW,29.44,29.8,,Overcast
KIGQ,03/12/2018 10:55 UTC,30.08,32.18,23.54,70.07,4.61,270.0,,,,,,444.0,,,,10.0,,KIGQ 121055Z AUTO 27004KT 10SM OVC044 00/M05 A3008 RMK AO2  T00011047,,,4400.0,,,23.41,,W,29.43,29.78,,Overcast
KIGQ,03/12/2018 11:15 UTC,30.08,32.54,23.9,70.12,4.61,270.0,,,,,,464.0,,,,10.0,,KIGQ 121115Z AUTO 27004KT 10SM OVC046 00/M04 A3008 RMK AO2  T00031045,,,4600.0,,,23.77,,W,29.43,29.77,,Overcast
KIGQ,03/12/2018 11:35 UTC,30.08,32.9,24.8,71.76,5.75,280.0,,,,,,464.0,,,,10.0,,KIGQ 121135Z AUTO 28005KT 10SM OVC046 01/M04 A3008 RMK AO2  T00051040,,,4600.0,,,24.68,,W,29.43,29.76,,Overcast
KIGQ,03/12/2018 11:55 UTC,30.08,33.08,26.24,75.64,4.61,290.0,,,,,,352.0,464.0,,,10.0,,KIGQ 121155Z AUTO 29004KT 10SM SCT035 OVC046 01/M03 A3008 RMK AO2  T00061032 10006 21050,33.08,23.0,4600.0,,,26.13,,WNW,29.43,29.74,,Overcast
KIGQ,03/12/2018 12:15 UTC,30.09,33.44,27.14,77.39,4.61,300.0,,,,,,303.0,374.0,,,10.0,,KIGQ 121215Z AUTO 30004KT 10SM BKN030 OVC037 01/M03 A3009 RMK AO2  T00081027,,,3000.0,,,27.04,,WNW,29.44,29.74,,Overcast
KIGQ,03/12/2018 12:35 UTC,30.09,33.26,30.02,87.72,6.91,300.0,,13.0,,,,263.0,324.0,,,5.0,,KIGQ 121235Z AUTO 30006KT 5SM -RA BKN026 OVC032 01/M01 A3009 RMK AO2 T00071011,,,2600.0,,,29.97,,WNW,29.44,29.7,,Light Rain
KIGQ,03/12/2018 12:55 UTC,30.09,32.9,31.1,92.99,4.61,300.0,,41.0,,,,263.0,324.0,,,4.0,,KIGQ 121255Z AUTO 30004KT 4SM UP BKN026 OVC032 01/00 A3009 RMK AO2  T00051005,,,2600.0,,,31.07,,WNW,29.44,29.69,,Unknown Precip
KIGQ,03/12/2018 13:15 UTC,30.09,33.08,31.64,94.36,6.91,290.0,,13.0,,,,243.0,304.0,,,5.0,,KIGQ 121315Z AUTO 29006KT 5SM -RA BKN024 OVC030 01/00 A3009 RMK AO2 T00061002,,,2400.0,,,31.62,,WNW,29.44,29.68,,Light Rain
KIGQ,03/12/2018 13:35 UTC,30.09,33.8,31.82,92.35,0.0,0.0,,13.0,,,,224.0,,,,10.0,,KIGQ 121335Z AUTO 00000KT 10SM -RA OVC022 01/00 A3009 RMK AO2  T00101001,,,2200.0,,,31.79,,N,29.44,29.67,,Light Rain
KIGQ,03/12/2018 13:55 UTC,30.09,34.52,32.0,90.38,0.0,0.0,,,,,,253.0,334.0,,,10.0,,KIGQ 121355Z AUTO 00000KT 10SM BKN025 OVC033 01/00 A3009 RMK AO2  T00140000,,,2500.0,,,31.96,,N,29.44,29.66,,Overcast
KIGQ,03/12/2018 14:15 UTC,30.08,35.6,32.0,86.58,5.75,300.0,,,354.0,,,232.0,293.0,,,10.0,,KIGQ 121415Z AUTO 30005KT 10SM SCT023 BKN029 OVC035 02/00 A3008 RMK AO2 T00200000,,,2900.0,,,31.94,,WNW,29.43,29.64,,Overcast
KIGQ,03/12/2018 14:35 UTC,30.09,36.14,32.18,85.36,3.44,320.0,,,,,,233.0,304.0,,,10.0,,KIGQ 121435Z AUTO 32003KT 10SM BKN023 OVC030 02/00 A3009 RMK AO2  T00230001,,,2300.0,,,32.12,,NW,29.44,29.65,,Overcast
KIGQ,03/12/2018 14:55 UTC,30.08,36.68,31.28,80.58,8.05,330.0,,,,,,232.0,304.0,,,10.0,,KIGQ 121455Z AUTO 33007KT 10SM SCT023 OVC030 03/00 A3008 RMK AO2  T00261004,,,3000.0,,,31.2,32.57,NNW,29.43,29.65,,Overcast
KIGQ,03/12/2018 15:15 UTC,30.08,36.86,29.12,73.27,8.05,330.0,17.27,,,,,302.0,384.0,,,10.0,,KIGQ 121515Z AUTO 33007G15KT 10SM SCT030 OVC038 03/M02 A3008 RMK AO2 T00271016,,,3800.0,,,29.01,32.78,NNW,29.43,29.68,,Overcast
KIGQ,03/12/2018 15:35 UTC,30.09,37.04,28.94,72.22,4.61,330.0,,,,,,384.0,,,,10.0,,KIGQ 121535Z AUTO 33004KT 10SM OVC038 03/M02 A3009 RMK AO2  T00281017,,,3800.0,,,28.82,,NNW,29.44,29.69,,Overcast
KIGQ,03/12/2018 15:55 UTC,30.09,37.22,28.76,71.18,9.22,310.0,16.11,,,,,364.0,,,,10.0,,KIGQ 121555Z AUTO 31008G14KT 10SM OVC036 03/M02 A3009 RMK AO2  T00291018,,,3600.0,,,28.64,32.64,NW,29.44,29.69,,Overcast
KIGQ,03/12/2018 16:15 UTC,30.09,38.48,29.3,69.26,9.22,310.0,,,,,,352.0,474.0,,,10.0,,KIGQ 121615Z AUTO 31008KT 10SM SCT035 OVC047 04/M01 A3009 RMK AO2  T00361015,,,4700.0,,,29.17,34.14,NW,29.44,29.68,,Overcast
KIGQ,03/12/2018 16:35 UTC,30.08,38.66,28.4,66.28,10.36,320.0,,,484.0,,,362.0,423.0,,,10.0,,KIGQ 121635Z AUTO 32009KT 10SM SCT036 BKN042 OVC048 04/M02 A3008 RMK AO2 T00371020,,,4200.0,,,28.26,33.87,NW,29.43,29.68,,Overcast
KIGQ,03/12/2018 16:55 UTC,30.08,39.2,28.22,64.42,10.36,330.0,16.11,,,,,383.0,484.0,,,10.0,,KIGQ 121655Z AUTO 33009G14KT 10SM BKN038 OVC048 04/M02 A3008 RMK AO2 T00401021,,,3800.0,,,28.07,34.52,NNW,29.43,29.68,,Overcast
KIGQ,03/12/2018 17:15 UTC,30.08,39.2,27.68,63.01,6.91,320.0,,,504.0,,,383.0,433.0,,,10.0,,KIGQ 121715Z AUTO 32006KT 10SM BKN038 BKN043 OVC050 04/M02 A3008 RMK AO2 T00401024,,,3800.0,,,27.53,,NW,29.43,29.69,,Overcast
KIGQ,03/12/2018 17:35 UTC,30.08,39.92,26.6,58.59,10.36,330.0,16.11,,,,,403.0,504.0,,,10.0,,KIGQ 121735Z AUTO 33009G14KT 10SM BKN040 OVC050 04/M03 A3008 RMK AO2 T00441030,,,4000.0,,,26.43,35.38,NNW,29.43,29.7,,Overcast
KIGQ,03/12/2018 17:55 UTC,30.08,39.92,25.52,56.02,9.22,360.0,,,604.0,,,422.0,503.0,,,10.0,,KIGQ 121755Z AUTO 36008KT 10SM SCT042 BKN050 OVC060 04/M04 A3008 RMK AO2 T00441036 10044 20005,39.92,32.9,5000.0,,,25.34,35.85,N,29.43,29.71,,Overcast
KIGQ,03/12/2018 18:15 UTC,30.09,39.56,28.04,63.05,6.91,360.0,,,,,,473.0,604.0,,,10.0,,KIGQ 121815Z AUTO 36006KT 330V030 10SM BKN047 OVC060 04/M02 A3009 RMK AO2 T00421022,,,4700.0,,,27.88,,N,29.44,29.69,,Overcast
KIGQ,03/12/2018 18:35 UTC,30.08,39.2,27.32,62.08,6.91,360.0,16.11,,,,,473.0,604.0,,,10.0,,KIGQ 121835Z AUTO 36006G14KT 10SM BKN047 OVC060 04/M03 A3008 RMK AO2 T00401026,,,4700.0,,,27.16,,N,29.43,29.69,,Overcast
KIGQ,03/12/2018 18:55 UTC,30.08,41.72,27.32,56.29,9.22,40.0,,,,,,503.0,603.0,,,10.0,,KIGQ 121855Z AUTO 04008KT 10SM BKN050 BKN060 05/M03 A3008 RMK AO2  T00541026,,,5000.0,,,27.14,37.98,NE,29.43,29.68,,Mostly Cloudy
KIGQ,03/12/2018 19:15 UTC,30.07,41.0,25.34,53.32,9.22,30.0,,,,,,502.0,,,,10.0,,KIGQ 121915Z AUTO 03008KT 10SM SCT050 05/M04 A3007 RMK AO2  T00501037,,,,,,25.15,37.13,NNE,29.42,29.7,,Partly Cloudy
KIGQ,03/12/2018 19:35 UTC,30.07,41.18,26.96,56.63,8.05,10.0,,,,,,502.0,,,,10.0,,KIGQ 121935Z AUTO 01007KT 10SM SCT050 05/M03 A3007 RMK AO2  T00511028,,,,,,26.78,37.86,N,29.42,29.67,,Partly Cloudy
KIGQ,03/12/2018 19:55 UTC,30.07,42.8,27.14,53.6,11.5,10.0,17.27,,,,,1.0,,,,10.0,,KIGQ 121955Z AUTO 01010G15KT 360V060 10SM CLR 06/M03 A3007 RMK AO2  T00601027,,,,,,26.95,38.44,N,29.42,29.66,,Clear
KIGQ,03/12/2018 20:15 UTC,30.08,40.46,26.78,57.8,8.05,10.0,,,,,,602.0,,,,10.0,,KIGQ 122015Z AUTO 01007KT 10SM SCT060 05/M03 A3008 RMK AO2  T00471029,,,,,,26.6,37.01,N,29.43,29.69,,Partly Cloudy
KIGQ,03/12/2018 20:35 UTC,30.08,42.08,28.58,58.47,8.05,60.0,,,,,,602.0,,,,10.0,,KIGQ 122035Z AUTO 06007KT 10SM SCT060 06/M02 A3008 RMK AO2  T00561019,,,,,,28.41,38.92,ENE,29.43,29.66,,Partly Cloudy
KIGQ,03/12/2018 20:55 UTC,30.08,41.72,27.86,57.56,4.61,30.0,,,,,,702.0,,,,10.0,,KIGQ 122055Z AUTO 03004KT 10SM SCT070 05/M02 A3008 RMK AO2  T00541023,,,,,,27.69,,NNE,29.43,29.67,,Partly Cloudy
KIGQ,03/12/2018 21:15 UTC,30.08,41.0,27.32,57.88,8.05,30.0,,,,,,653.0,,,,10.0,,KIGQ 122115Z AUTO 03007KT 10SM BKN065 05/M03 A3008 RMK AO2  T00501026,,,6500.0,,,27.15,37.65,NNE,29.43,29.68,,Mostly Cloudy
KIGQ,03/12/2018 21:35 UTC,30.08,40.1,28.22,62.2,6.91,40.0,,,,,,552.0,654.0,,,10.0,,KIGQ 122135Z AUTO 04006KT 10SM SCT055 OVC065 05/M02 A3008 RMK AO2  T00451021,,,6500.0,,,28.06,,NE,29.43,29.67,,Overcast
KIGQ,03/12/2018 21:55 UTC,30.09,39.2,28.22,64.42,5.75,30.0,,,704.0,,,502.0,653.0,,,10.0,,KIGQ 122155Z AUTO 03005KT 10SM SCT050 BKN065 OVC070 04/M02 A3009 RMK AO2 T00401021,,,6500.0,,,28.07,,NNE,29.44,29.69,,Overcast
KIGQ,03/12/2018 22:15 UTC,30.09,38.66,28.94,67.77,4.61,70.0,,,654.0,,,412.0,603.0,,,10.0,,KIGQ 122215Z AUTO 07004KT 10SM SCT041 BKN060 OVC065 04/M02 A3009 RMK AO2 T00371017,,,6000.0,,,28.81,,ENE,29.44,29.68,,Overcast
KIGQ,03/12/2018 22:35 UTC,30.1,38.12,28.4,67.7,3.44,60.0,,,653.0,,,482.0,502.0,,,10.0,,KIGQ 122235Z AUTO 06003KT 10SM SCT048 SCT050 BKN065 03/M02 A3010 RMK AO2 T00341020,,,6500.0,,,28.26,,ENE,29.45,29.7,,Mostly Cloudy
KIGQ,03/12/2018 22:55 UTC,30.1,37.58,28.4,69.15,0.0,0.0,,,854.0,,,392.0,553.0,,,10.0,,KIGQ 122255Z AUTO 00000KT 10SM SCT039 BKN055 OVC085 03/M02 A3010 RMK AO2 T00311020,,,5500.0,,,28.27,,N,29.45,29.71,,Overcast
KIGQ,03/12/2018 23:15 UTC,30.11,36.86,28.4,71.14,3.44,40.0,,,704.0,,,392.0,553.0,,,10.0,,KIGQ 122315Z AUTO 04003KT 10SM SCT039 BKN055 OVC070 03/M02 A3011 RMK AO2 T00271020,,,5500.0,,,28.28,,NE,29.46,29.72,,Overcast
KIGQ,03/12/2018 23:35 UTC,30.12,37.04,28.94,72.22,0.0,0.0,,,554.0,,,302.0,423.0,,,10.0,,KIGQ 122335Z AUTO 00000KT 10SM SCT030 BKN042 OVC055 03/M02 A3012 RMK AO2 T00281017,,,4200.0,,,28.82,,N,29.47,29.72,,Overcast
KIGQ,03/12/2018 23:55 UTC,30.13,36.68,28.04,70.6,0.0,0.0,,,554.0,,,322.0,392.0,,,10.0,,KIGQ 122355Z AUTO 00000KT 10SM SCT032 SCT039 OVC055 03/M02 A3013 RMK AO2 T00261022 10061 20026,42.98,36.68,5500.0,,,27.92,,N,29.47,29.74,,Overcast
KIGQ,03/13/2018 00:15 UTC,30.13,36.5,27.5,69.54,0.0,0.0,,,953.0,,,502.0,702.0,,,10.0,,KIGQ 130015Z AUTO 00000KT 10SM SCT050 SCT070 BKN095 03/M02 A3013 RMK AO2 T00251025,,,9500.0,,,27.37,,N,29.47,29.74,,Mostly Cloudy
KIGQ,03/13/2018 00:35 UTC,30.13,36.14,27.5,70.54,0.0,0.0,,,804.0,,,502.0,603.0,,,10.0,,KIGQ 130035Z AUTO 00000KT 10SM SCT050 BKN060 OVC080 02/M02 A3013 RMK AO2 T00231025,,,6000.0,,,27.38,,N,29.47,29.75,,Overcast
KIGQ,03/13/2018 00:55 UTC,30.13,36.14,26.6,67.96,0.0,0.0,,,,,,653.0,753.0,,,10.0,,KIGQ 130055Z AUTO 00000KT 10SM BKN065 BKN075 02/M03 A3013 RMK AO2  T00231030,,,6500.0,,,26.46,,N,29.47,29.76,,Mostly Cloudy
KIGQ,03/13/2018 01:15 UTC,30.13,35.24,26.6,70.43,0.0,0.0,,,,,,752.0,,,,10.0,,KIGQ 130115Z AUTO 00000KT 10SM SCT075 02/M03 A3013 RMK AO2  T00181030,,,,,,26.47,,N,29.47,29.76,,Partly Cloudy
KIGQ,03/13/2018 01:35 UTC,30.13,34.88,26.6,71.45,0.0,0.0,,,,,,1.0,,,,10.0,,KIGQ 130135Z AUTO 00000KT 10SM CLR 02/M03 A3013 RMK AO2  T00161030,,,,,,26.48,,N,29.47,29.77,,Clear
KIGQ,03/13/2018 01:55 UTC,30.13,34.16,26.78,74.08,0.0,0.0,,,,,,1.0,,,,10.0,,KIGQ 130155Z AUTO 00000KT 10SM CLR 01/M03 A3013 RMK AO2  T00121029,,,,,,26.67,,N,29.47,29.77,,Clear
KIGQ,03/13/2018 02:15 UTC,30.14,33.98,27.14,75.73,0.0,0.0,,,,,,602.0,,,,10.0,,KIGQ 130215Z AUTO 00000KT 10SM SCT060 01/M03 A3014 RMK AO2  T00111027,,,,,,27.03,,N,29.48,29.77,,Partly Cloudy
KIGQ,03/13/2018 02:35 UTC,30.14,33.98,27.5,76.87,0.0,0.0,,,,,,602.0,,,,10.0,,KIGQ 130235Z AUTO 00000KT 10SM SCT060 01/M02 A3014 RMK AO2  T00111025,,,,,,27.4,,N,29.48,29.77,,Partly Cloudy
KIGQ,03/13/2018 02:55 UTC,30.14,33.8,27.14,76.28,0.0,0.0,,,,,,1.0,,,,10.0,,KIGQ 130255Z AUTO 00000KT 10SM CLR 01/M03 A3014 RMK AO2  T00101027,,,,,,27.04,,N,29.48,29.78,,Clear
KIGQ,03/13/2018 03:15 UTC,30.14,33.08,27.14,78.51,0.0,0.0,,,,,,1.0,,,,10.0,,KIGQ 130315Z AUTO 00000KT 10SM CLR 01/M03 A3014 RMK AO2  T00061027,,,,,,27.05,,N,29.48,29.78,,Clear
KIGQ,03/13/2018 03:35 UTC,30.15,32.54,26.96,79.64,0.0,0.0,,,,,,502.0,,,,10.0,,KIGQ 130335Z AUTO 00000KT 10SM SCT050 00/M03 A3015 RMK AO2  T00031028,,,,,,26.87,,N,29.49,29.8,,Partly Cloudy
KIGQ,03/13/2018 03:55 UTC,30.15,32.9,27.5,80.27,0.0,0.0,,,,,,503.0,,,,10.0,,KIGQ 130355Z AUTO 00000KT 10SM BKN050 01/M02 A3015 RMK AO2  T00051025,,,5000.0,,,27.42,,N,29.49,29.79,,Mostly Cloudy
KIGQ,03/13/2018 04:15 UTC,30.15,33.08,27.86,80.88,0.0,0.0,,,,,,503.0,,,,10.0,,KIGQ 130415Z AUTO 00000KT 10SM BKN050 01/M02 A3015 RMK AO2  T00061023,,,5000.0,,,27.78,,N,29.49,29.78,,Mostly Cloudy
KIGQ,03/13/2018 04:35 UTC,30.15,33.62,28.4,80.92,0.0,0.0,,,,,,442.0,502.0,,,10.0,,KIGQ 130435Z AUTO 00000KT 10SM SCT044 SCT050 01/M02 A3015 RMK AO2  T00091020,,,,,,28.32,,N,29.49,29.77,,Partly Cloudy
KIGQ,03/13/2018 04:55 UTC,30.15,33.26,28.4,82.1,0.0,0.0,,,,,,392.0,502.0,,,10.0,,KIGQ 130455Z AUTO 00000KT 10SM SCT039 SCT050 01/M02 A3015 RMK AO2  T00071020,,,,,,28.32,,N,29.49,29.77,,Partly Cloudy
KIGQ,03/13/2018 05:15 UTC,30.14,32.9,28.4,83.29,0.0,0.0,,,,,,1.0,,,,10.0,,KIGQ 130515Z AUTO 00000KT 10SM CLR 01/M02 A3014 RMK AO2  T00051020,,,,,,28.33,,N,29.48,29.76,,Clear
KIGQ,03/13/2018 05:35 UTC,30.14,32.0,28.22,85.73,0.0,0.0,,,,,,1.0,,,,10.0,,KIGQ 130535Z AUTO 00000KT 10SM CLR 00/M02 A3014 RMK AO2  T00001021,,,,,,28.16,,N,29.48,29.77,,Clear
KIGQ,03/13/2018 05:55 UTC,30.14,30.74,27.32,86.94,0.0,0.0,,,,,,1.0,,,,10.0,,KIGQ 130555Z AUTO 00000KT 10SM CLR M01/M03 A3014 RMK AO2 T10071026  10026 21007 400611050,36.68,30.74,,42.98,23.0,27.26,,N,29.48,29.79,,Clear
KIGQ,03/13/2018 06:15 UTC,30.14,27.5,25.7,92.82,0.0,0.0,,,,,,1.0,,,,10.0,,KIGQ 130615Z AUTO 00000KT 10SM CLR M02/M03 A3014 RMK AO2  T10251035,,,,,,25.67,,N,29.48,29.83,,Clear
KIGQ,03/13/2018 06:35 UTC,30.14,27.5,25.88,93.52,3.44,280.0,,,,,,1.0,,,,10.0,,KIGQ 130635Z AUTO 28003KT 10SM CLR M02/M03 A3014 RMK AO2  T10251034,,,,,,25.85,,W,29.48,29.83,,Clear
KIGQ,03/13/2018 06:55 UTC,30.14,26.96,24.98,92.11,0.0,0.0,,,,,,1.0,,,,10.0,,KIGQ 130655Z AUTO 00000KT 10SM CLR M03/M04 A3014 RMK AO2  T10281039,,,,,,24.95,,N,29.48,29.84,,Clear
KIGQ,03/13/2018 07:15 UTC,30.13,27.5,24.8,89.4,0.0,0.0,,,,,,1.0,,,,10.0,,KIGQ 130715Z AUTO 00000KT 10SM CLR M02/M04 A3013 RMK AO2  T10251040,,,,,,24.75,,N,29.47,29.83,,Clear
KIGQ,03/13/2018 07:35 UTC,30.13,27.5,24.8,89.4,0.0,0.0,,,,,,1.0,,,,10.0,,KIGQ 130735Z AUTO 00000KT 10SM CLR M02/M04 A3013 RMK AO2  T10251040,,,,,,24.75,,N,29.47,29.83,,Clear
KIGQ,03/13/2018 07:55 UTC,30.13,27.5,23.54,84.81,3.44,280.0,,,,,,1.0,,,,10.0,,KIGQ 130755Z AUTO 28003KT 10SM CLR M02/M05 A3013 RMK AO2  T10251047,,,,,,23.47,,W,29.47,29.84,,Clear
KIGQ,03/13/2018 08:15 UTC,30.12,28.4,22.64,78.69,5.75,300.0,,,,,,1.0,,,,10.0,,KIGQ 130815Z AUTO 30005KT 10SM CLR M02/M05 A3012 RMK AO2  T10201052,,,,,,22.55,,WNW,29.47,29.85,,Clear
KIGQ,03/13/2018 08:35 UTC,30.12,28.94,22.1,75.23,5.75,310.0,,,,,,1.0,,,,10.0,,KIGQ 130835Z AUTO 31005KT 10SM CLR M02/M05 A3012 RMK AO2  T10171055,,,,,,21.99,,NW,29.47,29.85,,Clear
KIGQ,03/13/2018 08:55 UTC,30.12,28.76,21.74,74.64,5.75,310.0,,,,,,1.0,,,,10.0,,KIGQ 130855Z AUTO 31005KT 10SM CLR M02/M06 A3012 RMK AO2  T10181057,,,,,,21.63,,NW,29.47,29.86,,Clear
KIGQ,03/13/2018 09:15 UTC,30.13,28.94,21.74,74.09,6.91,310.0,,,,,,1.0,,,,10.0,,KIGQ 130915Z AUTO 31006KT 10SM CLR M02/M06 A3013 RMK AO2  T10171057,,,,,,21.62,,NW,29.47,29.85,,Clear
KIGQ,03/13/2018 09:35 UTC,30.13,28.76,21.74,74.64,6.91,310.0,,,,,,702.0,,,,10.0,,KIGQ 130935Z AUTO 31006KT 10SM SCT070 M02/M06 A3013 RMK AO2  T10181057,,,,,,21.63,,NW,29.47,29.86,,Partly Cloudy
KIGQ,03/13/2018 09:55 UTC,30.13,28.76,21.56,74.07,8.05,310.0,,,,,,702.0,,,,10.0,,KIGQ 130955Z AUTO 31007KT 10SM SCT070 M02/M06 A3013 RMK AO2  T10181058,,,,,,21.44,23.27,NW,29.47,29.86,,Partly Cloudy
KIGQ,03/13/2018 10:15 UTC,30.13,28.94,21.74,74.09,5.75,320.0,,,,,,212.0,1202.0,,,10.0,,KIGQ 131015Z AUTO 32005KT 10SM SCT021 SCT120 M02/M06 A3013 RMK AO2  T10171057,,,,,,21.62,,NW,29.47,29.85,,Partly Cloudy
KIGQ,03/13/2018 10:35 UTC,30.13,28.76,21.38,73.51,4.61,320.0,,,,,,1.0,,,,10.0,,KIGQ 131035Z AUTO 32004KT 10SM CLR M02/M06 A3013 RMK AO2  T10181059,,,,,,21.26,,NW,29.47,29.86,,Clear
KIGQ,03/13/2018 10:55 UTC,30.13,28.04,21.2,75.14,3.44,310.0,,,,,,1.0,,,,10.0,,KIGQ 131055Z AUTO 31003KT 10SM CLR M02/M06 A3013 RMK AO2  T10221060,,,,,,21.09,,NW,29.47,29.86,,Clear
KIGQ,03/13/2018 11:15 UTC,30.13,28.22,21.2,74.58,4.61,310.0,,,,,,1.0,,,,10.0,,KIGQ 131115Z AUTO 31004KT 10SM CLR M02/M06 A3013 RMK AO2  T10211060,,,,,,21.09,,NW,29.47,29.86,,Clear
KIGQ,03/13/2018 11:35 UTC,30.13,27.5,20.66,75.08,4.61,310.0,,,,,,1.0,,,,10.0,,KIGQ 131135Z AUTO 31004KT 10SM CLR M02/M06 A3013 RMK AO2  T10251063,,,,,,20.55,,NW,29.47,29.87,,Clear
KIGQ,03/13/2018 11:55 UTC,30.13,27.32,20.3,74.49,3.44,310.0,,,,,,1.0,,,,10.0,,KIGQ 131155Z AUTO 31003KT 10SM CLR M03/M06 A3013 RMK AO2 T10261065  11012 21028,29.84,26.96,,,,20.19,,NW,29.47,29.88,,Clear
KIGQ,03/13/2018 12:15 UTC,30.14,27.32,20.3,74.49,5.75,310.0,,,,,,1.0,,,,10.0,,KIGQ 131215Z AUTO 31005KT 10SM CLR M03/M06 A3014 RMK AO2  T10261065,,,,,,20.19,,NW,29.48,29.89,,Clear
KIGQ,03/13/2018 12:35 UTC,30.15,27.14,20.3,75.04,4.61,320.0,,,,,,1.0,,,,10.0,,KIGQ 131235Z AUTO 32004KT 10SM CLR M03/M06 A3015 RMK AO2  T10271065,,,,,,20.19,,NW,29.49,29.9,,Clear
KIGQ,03/13/2018 12:55 UTC,30.15,28.22,20.3,71.78,5.75,320.0,,,,,,1.0,,,,10.0,,KIGQ 131255Z AUTO 32005KT 10SM CLR M02/M06 A3015 RMK AO2  T10211065,,,,,,20.17,,NW,29.49,29.89,,Clear
KIGQ,03/13/2018 13:15 UTC,30.15,29.66,20.66,68.72,3.44,320.0,,,,,,1.0,,,,10.0,,KIGQ 131315Z AUTO 32003KT 10SM CLR M01/M06 A3015 RMK AO2  T10131063,,,,,,20.52,,NW,29.49,29.88,,Clear
KIGQ,03/13/2018 13:35 UTC,30.15,30.92,20.84,65.78,6.91,330.0,,,,,,1.0,,,,10.0,,KIGQ 131335Z AUTO 33006KT 10SM CLR M01/M06 A3015 RMK AO2  T10061062,,,,,,20.69,,NNW,29.49,29.87,,Clear
KIGQ,03/13/2018 13:55 UTC,30.16,31.64,20.12,61.96,9.22,340.0,17.27,,,,,1.0,,,,10.0,,KIGQ 131355Z AUTO 34008G15KT 10SM CLR 00/M07 A3016 RMK AO2  T10021066,,,,,,19.95,26.02,NNW,29.5,29.89,,Clear
KIGQ,03/13/2018 14:15 UTC,30.16,32.0,19.76,60.13,10.36,340.0,,,,,,802.0,,,,10.0,,KIGQ 131415Z AUTO 34009KT 10SM SCT080 00/M07 A3016 RMK AO2  T00001068,,,,,,19.58,25.9,NNW,29.5,29.89,,Partly Cloudy
KIGQ,03/13/2018 14:35 UTC,30.16,32.9,19.4,57.11,10.36,340.0,,,,,,1.0,,,,10.0,,KIGQ 131435Z AUTO 34009KT 10SM CLR 01/M07 A3016 RMK AO2  T00051070,,,,,,19.21,26.98,NNW,29.5,29.89,,Clear
KIGQ,03/13/2018 14:55 UTC,30.16,33.62,19.04,54.63,9.22,350.0,17.27,,,,,602.0,703.0,,,10.0,,KIGQ 131455Z AUTO 35008G15KT 10SM SCT060 BKN070 01/M07 A3016 RMK AO2 T00091072,,,7000.0,,,18.84,28.37,N,29.5,29.89,,Mostly Cloudy
KIGQ,03/13/2018 15:15 UTC,30.17,32.72,18.68,55.77,11.5,340.0,16.11,,604.0,,,442.0,503.0,,,10.0,,KIGQ 131515Z AUTO 34010G14KT 10SM SCT044 BKN050 OVC060 00/M07  A3017 RMK AO2 T00041074,,,5000.0,,,18.48,26.27,NNW,29.51,29.91,,Overcast
KIGQ,03/13/2018 15:35 UTC,30.16,33.62,19.94,56.78,9.22,330.0,18.41,,802.0,,,502.0,652.0,,,10.0,,KIGQ 131535Z AUTO 33008G16KT 10SM SCT050 SCT065 SCT080 01/M07  A3016 RMK AO2 T00091067,,,,,,19.75,28.37,NNW,29.5,29.88,,Partly Cloudy
KIGQ,03/13/2018 15:55 UTC,30.16,33.8,19.76,55.94,10.36,350.0,17.27,,803.0,,,452.0,602.0,,,10.0,,KIGQ 131555Z AUTO 35009G15KT 10SM SCT045 SCT060 BKN080 01/M07  A3016 RMK AO2 T00101068,,,8000.0,,,19.57,28.06,N,29.5,29.88,,Mostly Cloudy
KIGQ,03/13/2018 16:15 UTC,30.16,34.34,20.66,56.89,13.8,340.0,,,804.0,,,453.0,503.0,,,10.0,,KIGQ 131615Z AUTO 34012KT 10SM BKN045 BKN050 OVC080 01/M06 A3016 RMK AO2 T00131063,,,4500.0,,,20.47,27.37,NNW,29.5,29.87,,Overcast
KIGQ,03/13/2018 16:35 UTC,30.16,33.08,21.2,61.22,6.91,10.0,,,,,,422.0,504.0,,,10.0,,KIGQ 131635Z AUTO 01006KT 10SM SCT042 OVC050 01/M06 A3016 RMK AO2  T00061060,,,5000.0,,,21.03,,N,29.5,29.87,,Overcast
KIGQ,03/13/2018 16:55 UTC,30.17,32.36,21.92,64.97,11.5,20.0,17.27,20.0,504.0,,,272.0,423.0,,,7.0,,KIGQ 131655Z AUTO 02010G15KT 7SM -SN SCT027 BKN042 OVC050 00/M06  A3017 RMK AO2 T00021056,,,4200.0,,,21.76,25.83,NNE,29.51,29.88,,Light Snow
KIGQ,03/13/2018 17:15 UTC,30.17,31.82,25.52,77.24,11.5,10.0,18.41,20.0,434.0,,,162.0,323.0,,,4.0,,KIGQ 131715Z AUTO 01010G16KT 4SM -SN SCT016 BKN032 OVC043 00/M04  A3017 RMK AO2 T10011036,,,3200.0,,,25.42,25.18,N,29.51,29.84,,Light Snow
KIGQ,03/13/2018 17:35 UTC,30.16,34.16,25.34,69.78,14.97,20.0,18.41,,703.0,,,282.0,342.0,,,10.0,,KIGQ 131735Z AUTO 02013G16KT 340V040 10SM SCT028 SCT034 BKN070  01/M04 A3016 RMK AO2 T00121037,,,7000.0,,,25.21,26.76,NNE,29.5,29.82,,Mostly Cloudy
KIGQ,03/13/2018 17:55 UTC,30.16,33.44,25.16,71.28,13.8,30.0,20.71,,353.0,,,252.0,292.0,,,10.0,,KIGQ 131755Z AUTO 03012G18KT 10SM SCT025 SCT029 BKN035 01/M04  A3016 RMK AO2 T00081038 10014 21028,34.52,26.96,3500.0,,,25.03,26.27,NNE,29.5,29.82,,Mostly Cloudy
KIGQ,03/13/2018 18:15 UTC,30.16,31.46,24.62,75.48,12.66,360.0,19.57,20.0,484.0,,,92.0,303.0,,,3.0,,KIGQ 131815Z AUTO 36011G17KT 3SM -SN SCT009 BKN030 OVC048 00/M04  A3016 RMK AO2 T10031041,,,3000.0,,,24.51,24.27,N,29.5,29.84,,Light Snow
KIGQ,03/13/2018 18:35 UTC,30.15,32.36,26.06,77.29,12.66,20.0,18.41,20.0,284.0,,,82.0,213.0,,,5.0,,KIGQ 131835Z AUTO 02011G16KT 5SM -SN SCT008 BKN021 OVC028 00/M03  A3015 RMK AO2 T00021033,,,2100.0,,,25.96,25.37,NNE,29.49,29.81,,Light Snow
KIGQ,03/13/2018 18:55 UTC,30.15,31.82,25.52,77.24,8.05,20.0,,20.0,,,,172.0,244.0,,,3.0,,KIGQ 131855Z AUTO 02007KT 3SM -SN SCT017 OVC024 00/M04 A3015 RMK AO2 T10011036,,,2400.0,,,25.42,26.86,NNE,29.49,29.82,,Light Snow
KIGQ,03/13/2018 19:15 UTC,30.15,28.94,26.78,91.49,12.66,10.0,18.41,3.0,,,,74.0,,,,0.25,,KIGQ 131915Z AUTO 01011G16KT 1/4SM SN OVC007 M02/M03 A3015 RMK AO2  T10171029,,,700.0,,,26.74,21.21,N,29.49,29.82,,Snow
KIGQ,03/13/2018 19:35 UTC,30.14,30.2,25.34,81.86,10.36,20.0,16.11,20.0,464.0,,,72.0,213.0,,,7.0,,KIGQ 131935Z AUTO 02009G14KT 7SM -SN SCT007 BKN021 OVC046 M01/M04  A3014 RMK AO2 T10101037,,,2100.0,,,25.26,23.74,NNE,29.48,29.82,,Light Snow
KIGQ,03/13/2018 19:55 UTC,30.15,30.2,24.44,78.85,6.91,360.0,18.41,20.0,354.0,,,112.0,253.0,,,4.0,,KIGQ 131955Z AUTO 36006G16KT 4SM -SN SCT011 BKN025 OVC035 M01/M04  A3015 RMK AO2 T10101042,,,2500.0,,,24.35,,N,29.49,29.84,,Light Snow
KIGQ,03/13/2018 20:15 UTC,30.15,28.76,23.9,81.75,12.66,10.0,19.57,20.0,254.0,,,102.0,143.0,,,1.5,,KIGQ 132015Z AUTO 01011G17KT 1 1/2SM -SN SCT010 BKN014 OVC025  M02/M04 A3015 RMK AO2 T10181045,,,1400.0,,,23.82,20.99,N,29.49,29.85,,Light Snow
KIGQ,03/13/2018 20:35 UTC,30.16,30.02,23.9,77.65,12.66,360.0,16.11,20.0,274.0,,,122.0,172.0,,,10.0,,KIGQ 132035Z AUTO 36011G14KT 10SM -SN SCT012 SCT017 OVC027 M01/M04  A3016 RMK AO2 T10111045,,,2700.0,,,23.8,22.52,N,29.5,29.86,,Light Snow
KIGQ,03/13/2018 20:55 UTC,30.16,29.12,25.88,87.5,13.8,10.0,19.57,20.0,264.0,,,122.0,173.0,,,3.0,,KIGQ 132055Z AUTO 01012G17KT 3SM -SN SCT012 BKN017 OVC026 M02/M03  A3016 RMK AO2 T10161034,,,1700.0,,,25.83,20.98,N,29.5,29.84,,Light Snow
KIGQ,03/13/2018 21:20 UTC,30.16,28.76,26.6,91.49,12.66,20.0,17.27,20.0,,,,103.0,154.0,,,1.5,,KIGQ 132120Z AUTO 02011G15KT 1 1/2SM -SN BKN010 OVC015 M02/M03  A3016 RMK AO2 T10181030,,,1000.0,,,26.56,20.99,NNE,29.5,29.83,,Light Snow
KIGQ,03/13/2018 21:35 UTC,30.16,28.04,25.7,90.78,16.11,10.0,20.71,20.0,,,,124.0,,,,1.0,,KIGQ 132135Z AUTO 01014G18KT 1SM -SN OVC012 M02/M03 A3016 RMK AO2  T10221035,,,1200.0,,,25.66,18.82,N,29.5,29.85,,Light Snow
KIGQ,03/13/2018 21:55 UTC,30.17,28.4,24.62,85.51,16.11,10.0,19.57,20.0,414.0,,,132.0,213.0,,,7.0,,KIGQ 132155Z AUTO 01014G17KT 7SM -SN SCT013 BKN021 OVC041 M02/M04  A3017 RMK AO2 T10201041,,,2100.0,,,24.56,19.26,N,29.51,29.87,,Light Snow
KIGQ,03/13/2018 22:15 UTC,30.17,28.94,23.54,79.94,16.11,10.0,26.46,20.0,,,,233.0,294.0,,,10.0,,KIGQ 132215Z AUTO 01014G23KT 10SM -SN BKN023 OVC029 M02/M05 A3017 RMK AO2 T10171047,,,2300.0,,,23.45,19.93,N,29.51,29.88,,Light Snow
KIGQ,03/13/2018 22:35 UTC,30.18,28.76,21.56,74.07,11.5,360.0,24.16,20.0,434.0,,,232.0,313.0,,,10.0,,KIGQ 132235Z AUTO 36010G21KT 10SM -SN SCT023 BKN031 OVC043 M02/M06  A3018 RMK AO2 T10181058,,,3100.0,,,21.44,21.49,N,29.52,29.91,,Light Snow
KIGQ,03/13/2018 22:55 UTC,30.18,28.4,20.3,71.25,18.41,10.0,25.32,,444.0,,,302.0,383.0,,,10.0,,KIGQ 132255Z AUTO 01016G22KT 10SM SCT030 BKN038 OVC044 M02/M06  A3018 RMK AO2 T10201065,,,3800.0,,,20.17,18.53,N,29.52,29.92,,Overcast
KIGQ,03/13/2018 23:15 UTC,30.18,28.4,19.94,70.16,12.66,360.0,21.85,,,,,333.0,404.0,,,10.0,,KIGQ 132315Z AUTO 36011G19KT 10SM BKN033 OVC040 M02/M07 A3018 RMK AO2 T10201067,,,3300.0,,,19.8,20.55,N,29.52,29.93,,Overcast
KIGQ,03/13/2018 23:35 UTC,30.19,28.22,19.04,68.01,13.8,360.0,20.71,,,,,393.0,454.0,,,10.0,,KIGQ 132335Z AUTO 36012G18KT 10SM BKN039 OVC045 M02/M07 A3019 RMK AO2 T10211072,,,3900.0,,,18.9,19.88,N,29.53,29.95,,Overcast
KIGQ,03/13/2018 23:55 UTC,30.19,28.22,18.32,65.94,14.97,10.0,20.71,,,,,394.0,,,,10.0,,KIGQ 132355Z AUTO 01013G18KT 10SM OVC039 M02/M08 A3019 RMK AO2  T10211076 10009 21022,33.62,28.04,3900.0,,,18.17,19.44,N,29.53,29.95,,Overcast
KIGQ,03/14/2018 00:15 UTC,30.19,28.04,17.96,65.4,12.66,360.0,18.41,,,,,394.0,,,,10.0,,KIGQ 140015Z AUTO 36011G16KT 10SM OVC039 M02/M08 A3019 RMK AO2  T10221078,,,3900.0,,,17.8,20.11,N,29.53,29.96,,Overcast
KIGQ,03/14/2018 00:35 UTC,30.19,27.5,16.7,63.33,12.66,360.0,21.85,,,,,412.0,552.0,,,10.0,,KIGQ 140035Z AUTO 36011G19KT 10SM SCT041 SCT055 M02/M08 A3019 RMK AO2 T10251085,,,,,,16.54,19.46,N,29.53,29.97,,Partly Cloudy
KIGQ,03/14/2018 00:55 UTC,30.19,27.32,16.7,63.8,9.22,350.0,18.41,,,,,392.0,,,,10.0,,KIGQ 140055Z AUTO 35008G16KT 10SM SCT039 M03/M08 A3019 RMK AO2  T10261085,,,,,,16.54,20.9,N,29.53,29.97,,Partly Cloudy
KIGQ,03/14/2018 01:15 UTC,30.2,27.5,15.8,60.89,10.36,350.0,19.57,,,,,432.0,,,,10.0,,KIGQ 140115Z AUTO 35009G17KT 10SM SCT043 M02/M09 A3020 RMK AO2  T10251090,,,,,,15.62,20.51,N,29.54,29.99,,Partly Cloudy
KIGQ,03/14/2018 01:35 UTC,30.2,27.14,14.0,57.12,8.05,360.0,,,,,,432.0,502.0,,,10.0,,KIGQ 140135Z AUTO 36007KT 10SM SCT043 SCT050 M03/M10 A3020 RMK AO2  T10271100,,,,,,13.81,21.37,N,29.54,30.0,,Partly Cloudy
KIGQ,03/14/2018 01:55 UTC,30.2,27.32,14.54,58.06,6.91,360.0,,,,,,483.0,,,,10.0,,KIGQ 140155Z AUTO 36006KT 10SM BKN048 M03/M10 A3020 RMK AO2  T10261097,,,4800.0,,,14.35,,N,29.54,30.0,,Mostly Cloudy
KIGQ,03/14/2018 02:15 UTC,30.2,27.5,16.7,63.33,6.91,330.0,18.41,,,,,413.0,484.0,,,10.0,,KIGQ 140215Z AUTO 33006G16KT 10SM BKN041 OVC048 M02/M08 A3020 RMK AO2 T10251085,,,4100.0,,,16.54,,NNW,29.54,29.98,,Overcast
KIGQ,03/14/2018 02:35 UTC,30.2,27.5,17.06,64.32,9.22,340.0,,,,,,412.0,504.0,,,10.0,,KIGQ 140235Z AUTO 34008KT 10SM SCT041 OVC050 M02/M08 A3020 RMK AO2  T10251083,,,5000.0,,,16.9,21.11,NNW,29.54,29.98,,Overcast
KIGQ,03/14/2018 02:55 UTC,30.2,28.22,15.98,59.58,8.05,320.0,,,,,,433.0,484.0,,,10.0,,KIGQ 140255Z AUTO 32007KT 10SM BKN043 OVC048 M02/M09 A3020 RMK AO2  T10211089,,,4300.0,,,15.8,22.64,NW,29.54,29.98,,Overcast
KIGQ,03/14/2018 03:15 UTC,30.2,27.5,16.16,61.86,11.5,330.0,,,,,,454.0,,,,10.0,,KIGQ 140315Z AUTO 33010KT 10SM OVC045 M02/M09 A3020 RMK AO2  T10251088,,,4500.0,,,15.99,19.97,NNW,29.54,29.98,,Overcast
KIGQ,03/14/2018 03:35 UTC,30.2,27.5,15.8,60.89,8.05,340.0,,,,,,454.0,,,,10.0,,KIGQ 140335Z AUTO 34007KT 10SM OVC045 M02/M09 A3020 RMK AO2  T10251090,,,4500.0,,,15.62,21.79,NNW,29.54,29.99,,Overcast
KIGQ,03/14/2018 03:55 UTC,30.2,27.14,15.8,61.81,8.05,320.0,,,,,,474.0,,,,10.0,,KIGQ 140355Z AUTO 32007KT 10SM OVC047 M03/M09 A3020 RMK AO2  T10271090,,,4700.0,,,15.63,21.37,NW,29.54,29.99,,Overcast
KIGQ,03/14/2018 04:15 UTC,30.2,27.14,15.8,61.81,8.05,330.0,,,,,,454.0,,,,10.0,,KIGQ 140415Z AUTO 33007KT 10SM OVC045 M03/M09 A3020 RMK AO2  T10271090,,,4500.0,,,15.63,21.37,NNW,29.54,29.99,,Overcast
KIGQ,03/14/2018 04:35 UTC,30.2,26.78,15.08,60.79,10.36,320.0,,,,,,434.0,,,,10.0,,KIGQ 140435Z AUTO 32009KT 10SM OVC043 M03/M09 A3020 RMK AO2  T10291094,,,4300.0,,,14.9,19.65,NW,29.54,29.99,,Overcast
KIGQ,03/14/2018 04:55 UTC,30.19,26.6,14.54,59.81,10.36,330.0,16.11,,,,,434.0,,,,10.0,,KIGQ 140455Z AUTO 33009G14KT 10SM OVC043 M03/M10 A3019 RMK AO2  T10301097,,,4300.0,,,14.36,19.43,NNW,29.53,29.99,,Overcast
KIGQ,03/14/2018 05:15 UTC,30.19,26.06,14.36,60.68,6.91,310.0,,,,,,434.0,,,,10.0,,KIGQ 140515Z AUTO 31006KT 10SM OVC043 M03/M10 A3019 RMK AO2  T10331098,,,4300.0,,,14.18,,NW,29.53,29.99,,Overcast
KIGQ,03/14/2018 05:35 UTC,30.19,24.98,13.64,61.5,6.91,310.0,,,,,,432.0,,,,10.0,,KIGQ 140535Z AUTO 31006KT 10SM SCT043 M04/M10 A3019 RMK AO2  T10391102,,,,,,13.47,,NW,29.53,30.0,,Partly Cloudy
KIGQ,03/14/2018 05:55 UTC,30.19,24.44,13.64,62.9,6.91,310.0,,,,,,1.0,,,,10.0,,KIGQ 140555Z AUTO 31006KT 10SM CLR M04/M10 A3019 RMK AO2 T10421102  11021 21042 400141042,28.22,24.44,,34.52,24.44,13.47,,NW,29.53,30.01,,Clear
KIGQ,03/14/2018 06:15 UTC,30.19,23.9,13.64,64.34,4.61,310.0,,,,,,1.0,,,,10.0,,KIGQ 140615Z AUTO 31004KT 10SM CLR M04/M10 A3019 RMK AO2  T10451102,,,,,,13.48,,NW,29.53,30.01,,Clear
KIGQ,03/14/2018 06:35 UTC,30.19,23.36,14.0,66.86,3.44,300.0,,,,,,1.0,,,,10.0,,KIGQ 140635Z AUTO 30003KT 10SM CLR M05/M10 A3019 RMK AO2  T10481100,,,,,,13.85,,WNW,29.53,30.01,,Clear
KIGQ,03/14/2018 06:55 UTC,30.19,22.64,14.0,68.92,4.61,290.0,,,,,,1.0,,,,10.0,,KIGQ 140655Z AUTO 29004KT 10SM CLR M05/M10 A3019 RMK AO2  T10521100,,,,,,13.86,,WNW,29.53,30.01,,Clear
KIGQ,03/14/2018 07:15 UTC,30.19,22.1,13.82,69.96,4.61,280.0,,,,,,1.0,,,,10.0,,KIGQ 140715Z AUTO 28004KT 10SM CLR M05/M10 A3019 RMK AO2  T10551101,,,,,,13.68,,W,29.53,30.01,,Clear
KIGQ,03/14/2018 07:35 UTC,30.19,21.2,13.46,71.53,3.44,280.0,,,,,,1.0,,,,10.0,,KIGQ 140735Z AUTO 28003KT 10SM CLR M06/M10 A3019 RMK AO2  T10601103,,,,,,13.33,,W,29.53,30.02,,Clear
KIGQ,03/14/2018 07:55 UTC,30.17,21.2,13.64,72.1,4.61,280.0,,,,,,1.0,,,,10.0,,KIGQ 140755Z AUTO 28004KT 10SM CLR M06/M10 A3017 RMK AO2  T10601102,,,,,,13.51,,W,29.51,30.0,,Clear
KIGQ,03/14/2018 08:15 UTC,30.17,21.02,13.64,72.66,3.44,270.0,,,,,,1.0,,,,10.0,,KIGQ 140815Z AUTO 27003KT 10SM CLR M06/M10 A3017 RMK AO2  T10611102,,,,,,13.52,,W,29.51,30.0,,Clear
KIGQ,03/14/2018 08:35 UTC,30.16,20.3,13.64,74.92,5.75,280.0,,,,,,1.0,,,,10.0,,KIGQ 140835Z AUTO 28005KT 10SM CLR M06/M10 A3016 RMK AO2  T10651102,,,,,,13.53,,W,29.5,29.99,,Clear
KIGQ,03/14/2018 08:55 UTC,30.16,20.48,13.64,74.35,4.61,280.0,,,,,,1.0,,,,10.0,,KIGQ 140855Z AUTO 28004KT 10SM CLR M06/M10 A3016 RMK AO2  T10641102,,,,,,13.52,,W,29.5,29.99,,Clear
KIGQ,03/14/2018 09:15 UTC,30.15,20.3,14.0,76.12,3.44,270.0,,,,,,1.0,,,,10.0,,KIGQ 140915Z AUTO 27003KT 10SM CLR M06/M10 A3015 RMK AO2  T10651100,,,,,,13.89,,W,29.49,29.98,,Clear
KIGQ,03/14/2018 09:35 UTC,30.16,20.3,14.54,77.94,5.75,270.0,,,,,,1.0,,,,10.0,,KIGQ 140935Z AUTO 27005KT 10SM CLR M06/M10 A3016 RMK AO2  T10651097,,,,,,14.44,,W,29.5,29.99,,Clear
KIGQ,03/14/2018 09:55 UTC,30.16,20.66,14.36,76.15,4.61,280.0,,,,,,1.0,,,,10.0,,KIGQ 140955Z AUTO 28004KT 10SM CLR M06/M10 A3016 RMK AO2  T10631098,,,,,,14.25,,W,29.5,29.99,,Clear
KIGQ,03/14/2018 10:15 UTC,30.16,20.3,14.72,78.56,3.44,280.0,,,,,,1.0,,,,10.0,,KIGQ 141015Z AUTO 28003KT 10SM CLR M06/M10 A3016 RMK AO2  T10651096,,,,,,14.62,,W,29.5,29.99,,Clear
KIGQ,03/14/2018 10:35 UTC,30.16,19.4,14.54,81.0,3.44,260.0,,,,,,1.0,,,,10.0,,KIGQ 141035Z AUTO 26003KT 10SM CLR M07/M10 A3016 RMK AO2  T10701097,,,,,,14.45,,W,29.5,29.99,,Clear
KIGQ,03/14/2018 10:55 UTC,30.16,18.68,14.54,83.54,4.61,260.0,,,,,,1.0,,,,10.0,,KIGQ 141055Z AUTO 26004KT 10SM CLR M07/M10 A3016 RMK AO2  T10741097,,,,,,14.46,,W,29.5,29.99,,Clear
KIGQ,03/14/2018 11:15 UTC,30.15,19.22,15.26,84.24,4.61,260.0,,,,,,1.0,,,,10.0,,KIGQ 141115Z AUTO 26004KT 10SM CLR M07/M09 A3015 RMK AO2  T10711093,,,,,,15.19,,W,29.49,29.98,,Clear
KIGQ,03/14/2018 11:35 UTC,30.15,19.4,15.08,82.94,4.61,270.0,,,,,,1.0,,,,10.0,,KIGQ 141135Z AUTO 27004KT 10SM CLR M07/M09 A3015 RMK AO2  T10701094,,,,,,15.0,,W,29.49,29.98,,Clear
KIGQ,03/14/2018 11:55 UTC,30.14,18.5,14.72,84.86,3.44,260.0,,,,,,1.0,,,,10.0,,KIGQ 141155Z AUTO 26003KT 10SM CLR M07/M10 A3014 RMK AO2 T10751096  11042 21075,24.44,18.5,,,,14.65,,W,29.48,29.97,,Clear
KIGQ,03/14/2018 12:15 UTC,30.14,20.3,16.52,84.98,5.75,270.0,,,,,,1.0,,,,10.0,,KIGQ 141215Z AUTO 27005KT 10SM CLR M06/M09 A3014 RMK AO2  T10651086,,,,,,16.45,,W,29.48,29.95,,Clear
KIGQ,03/14/2018 12:35 UTC,30.14,21.2,17.06,83.73,3.44,260.0,,,,,,1.0,,,,10.0,,KIGQ 141235Z AUTO 26003KT 10SM CLR M06/M08 A3014 RMK AO2  T10601083,,,,,,16.99,,W,29.48,29.94,,Clear
KIGQ,03/14/2018 12:55 UTC,30.14,21.74,17.42,83.11,0.0,0.0,,,,,,1.0,,,,10.0,,KIGQ 141255Z AUTO 00000KT 10SM CLR M06/M08 A3014 RMK AO2  T10571081,,,,,,17.34,,N,29.48,29.94,,Clear
KIGQ,03/14/2018 13:15 UTC,30.14,22.1,17.42,81.86,4.61,260.0,,,,,,1.0,,,,10.0,,KIGQ 141315Z AUTO 26004KT 10SM CLR M05/M08 A3014 RMK AO2  T10551081,,,,,,17.34,,W,29.48,29.94,,Clear
KIGQ,03/14/2018 13:35 UTC,30.14,23.9,18.5,79.5,5.75,260.0,,,,,,1.0,,,,10.0,,KIGQ 141335Z AUTO 26005KT 10SM CLR M04/M07 A3014 RMK AO2  T10451075,,,,,,18.41,,W,29.48,29.92,,Clear
KIGQ,03/14/2018 13:55 UTC,30.13,25.34,19.4,77.81,8.05,260.0,,,,,,1.0,,,,10.0,,KIGQ 141355Z AUTO 26007KT 10SM CLR M04/M07 A3013 RMK AO2  T10371070,,,,,,19.3,19.25,W,29.47,29.9,,Clear
KIGQ,03/14/2018 14:15 UTC,30.13,27.14,19.4,72.21,9.22,260.0,,,,,,1.0,,,,10.0,,KIGQ 141415Z AUTO 26008KT 10SM CLR M03/M07 A3013 RMK AO2  T10271070,,,,,,19.27,20.68,W,29.47,29.89,,Clear
KIGQ,03/14/2018 14:35 UTC,30.13,28.76,20.12,69.67,6.91,250.0,,,,,,1.0,,,,10.0,,KIGQ 141435Z AUTO 25006KT 10SM CLR M02/M07 A3013 RMK AO2  T10181066,,,,,,19.98,,WSW,29.47,29.87,,Clear
KIGQ,03/14/2018 14:55 UTC,30.13,30.74,20.66,65.76,8.05,250.0,,,,,,1.0,,,,10.0,,KIGQ 141455Z AUTO 25007KT 10SM CLR M01/M06 A3013 RMK AO2  T10071063,,,,,,20.51,25.6,WSW,29.47,29.86,,Clear
KIGQ,03/14/2018 15:15 UTC,30.13,31.82,19.76,60.57,9.22,260.0,,,,,,1.0,,,,10.0,,KIGQ 141515Z AUTO 26008KT 10SM CLR 00/M07 A3013 RMK AO2  T10011068,,,,,,19.58,26.24,W,29.47,29.86,,Clear
KIGQ,03/14/2018 15:35 UTC,30.11,32.72,19.58,57.97,12.66,270.0,,,,,,1.0,,,,10.0,,KIGQ 141535Z AUTO 27011KT 10SM CLR 00/M07 A3011 RMK AO2  T00041069,,,,,,19.39,25.81,W,29.46,29.85,,Clear
KIGQ,03/14/2018 15:55 UTC,30.11,33.26,19.04,55.42,12.66,270.0,18.41,,,,,1.0,,,,10.0,,KIGQ 141555Z AUTO 27011G16KT 10SM CLR 01/M07 A3011 RMK AO2  T00071072,,,,,,18.84,26.46,W,29.46,29.85,,Clear
KIGQ,03/14/2018 16:15 UTC,30.1,34.34,19.04,53.08,14.97,270.0,19.57,,,,,1.0,,,,10.0,,KIGQ 141615Z AUTO 27013G17KT 10SM CLR 01/M07 A3010 RMK AO2  T00131072,,,,,,18.83,26.98,W,29.45,29.83,,Clear
KIGQ,03/14/2018 16:35 UTC,30.09,35.06,21.02,56.13,12.66,240.0,,,,,,1.0,,,,10.0,,KIGQ 141635Z AUTO 24011KT 10SM CLR 02/M06 A3009 RMK AO2  T00171061,,,,,,20.83,28.65,WSW,29.44,29.8,,Clear
KIGQ,03/14/2018 16:55 UTC,30.08,35.42,21.2,55.76,12.66,260.0,17.27,,,,,1.0,,,,10.0,,KIGQ 141655Z AUTO 26011G15KT 10SM CLR 02/M06 A3008 RMK AO2  T00191060,,,,,,21.01,29.09,W,29.43,29.79,,Clear
KIGQ,03/14/2018 17:15 UTC,30.08,36.5,20.3,51.41,13.8,240.0,17.27,,,,,1.0,,,,10.0,,KIGQ 141715Z AUTO 24012G15KT 10SM CLR 03/M06 A3008 RMK AO2  T00251065,,,,,,20.09,30.01,WSW,29.43,29.79,,Clear
KIGQ,03/14/2018 17:35 UTC,30.06,37.22,20.66,50.75,13.8,240.0,18.41,,,,,1.0,,,,10.0,,KIGQ 141735Z AUTO 24012G16KT 10SM CLR 03/M06 A3006 RMK AO2  T00291063,,,,,,20.45,30.9,WSW,29.41,29.76,,Clear
KIGQ,03/14/2018 17:55 UTC,30.05,36.32,19.76,50.6,13.8,250.0,19.57,,,,,1.0,,,,10.0,,KIGQ 141755Z AUTO 25012G17KT 10SM CLR 02/M07 A3005 RMK AO2  T00241068 10030 21075,37.4,18.5,,,,19.55,29.79,WSW,29.4,29.77,,Clear
KIGQ,03/14/2018 18:15 UTC,30.03,38.3,20.3,47.9,12.66,270.0,20.71,,,,,1.0,,,,10.0,,KIGQ 141815Z AUTO 27011G18KT 10SM CLR 04/M06 A3003 RMK AO2  T00351065,,,,,,20.08,32.59,W,29.38,29.73,,Clear
KIGQ,03/14/2018 18:35 UTC,30.02,39.56,21.2,47.38,9.22,240.0,21.85,,,,,1.0,,,,10.0,,KIGQ 141835Z AUTO 24008G19KT 10SM CLR 04/M06 A3002 RMK AO2  T00421060,,,,,,20.98,35.42,WSW,29.37,29.7,,Clear
KIGQ,03/14/2018 18:55 UTC,30.0,40.1,21.74,47.47,12.66,240.0,18.41,,,,,1.0,,,,10.0,,KIGQ 141855Z AUTO 24011G16KT 10SM CLR 05/M06 A3000 RMK AO2  T00451057,,,,,,21.52,34.78,WSW,29.35,29.68,,Clear
KIGQ,03/14/2018 19:15 UTC,29.98,40.82,21.56,45.81,14.97,240.0,19.57,,,,,1.0,,,,10.0,,KIGQ 141915Z AUTO 24013G17KT 10SM CLR 05/M06 A2998 RMK AO2  T00491058,,,,,,21.34,34.97,WSW,29.33,29.65,,Clear
KIGQ,03/14/2018 19:35 UTC,29.96,41.18,21.02,44.15,11.5,280.0,20.71,,,,,1.0,,,,10.0,,KIGQ 141935Z AUTO 28010G18KT 10SM CLR 05/M06 A2996 RMK AO2  T00511061,,,,,,20.79,36.48,W,29.31,29.64,,Clear
KIGQ,03/14/2018 19:55 UTC,29.95,42.44,23.0,45.73,11.5,250.0,20.71,,,,,1.0,,,,10.0,,KIGQ 141955Z AUTO 25010G18KT 10SM CLR 06/M05 A2995 RMK AO2  T00581050,,,,,,22.78,38.0,WSW,29.3,29.6,,Clear
KIGQ,03/14/2018 20:15 UTC,29.93,42.98,22.64,44.12,14.97,260.0,19.57,,,,,1.0,,,,10.0,,KIGQ 142015Z AUTO 26013G17KT 10SM CLR 06/M05 A2993 RMK AO2  T00611052,,,,,,22.42,37.63,W,29.28,29.58,,Clear
KIGQ,03/14/2018 20:35 UTC,29.92,43.52,23.0,43.87,14.97,220.0,18.41,,,,,1.0,,,,10.0,,KIGQ 142035Z AUTO 22013G16KT 10SM CLR 06/M05 A2992 RMK AO2  T00641050,,,,,,22.78,38.29,SW,29.27,29.56,,Clear
KIGQ,03/14/2018 20:55 UTC,29.9,44.24,23.72,44.0,12.66,230.0,,,,,,,,,,10.0,,KIGQ 142055Z AUTO 23011KT 10SM 07/M05 A2990 RMK AO2 T00681046,,,,,,23.5,39.82,SW,29.25,29.53,,
KIGQ,03/14/2018 21:15 UTC,29.89,44.96,23.54,42.48,17.27,240.0,24.16,,,,,1.0,,,,10.0,,KIGQ 142115Z AUTO 24015G21KT 10SM CLR 07/M05 A2989 RMK AO2  T00721047,,,,,,23.32,39.52,WSW,29.24,29.52,,Clear
KIGQ,03/14/2018 21:35 UTC,29.88,45.32,23.9,42.54,17.27,260.0,24.16,,,,,1.0,,,,10.0,,KIGQ 142135Z AUTO 26015G21KT 10SM CLR 07/M04 A2988 RMK AO2  T00741045,,,,,,23.68,,W,29.23,29.5,,Clear
KIGQ,03/14/2018 21:55 UTC,29.88,45.5,23.72,41.94,20.71,260.0,25.32,,,,,1.0,,,,10.0,,KIGQ 142155Z AUTO 26018G22KT 10SM CLR 08/M05 A2988 RMK AO2  T00751046,,,,,,23.5,,W,29.23,29.5,,Clear
KIGQ,03/14/2018 22:15 UTC,29.87,45.68,23.9,41.97,17.27,250.0,24.16,,,,,1.0,,,,10.0,,KIGQ 142215Z AUTO 25015G21KT 10SM CLR 08/M04 A2987 RMK AO2  T00761045,,,,,,23.68,,WSW,29.22,29.49,,Clear
KIGQ,03/14/2018 22:35 UTC,29.86,45.86,23.36,40.75,12.66,250.0,21.85,,,,,1.0,,,,10.0,,KIGQ 142235Z AUTO 25011G19KT 10SM CLR 08/M05 A2986 RMK AO2  T00771048,,,,,,23.14,,WSW,29.21,29.48,,Clear
KIGQ,03/14/2018 22:55 UTC,29.85,45.5,23.72,41.94,12.66,250.0,25.32,,,,,1.0,,,,10.0,,KIGQ 142255Z AUTO 25011G22KT 10SM CLR 08/M05 A2985 RMK AO2  T00751046,,,,,,23.5,,WSW,29.2,29.47,,Clear
KIGQ,03/14/2018 23:15 UTC,29.84,44.96,24.08,43.46,11.5,240.0,,,,,,1.0,,,,10.0,,KIGQ 142315Z AUTO 24010KT 10SM CLR 07/M04 A2984 RMK AO2  T00721044,,,,,,23.86,41.04,WSW,29.19,29.46,,Clear
KIGQ,03/14/2018 23:35 UTC,29.83,44.6,24.08,44.06,12.66,240.0,17.27,,,,,1.0,,,,10.0,,KIGQ 142335Z AUTO 24011G15KT 10SM CLR 07/M04 A2983 RMK AO2  T00701044,,,,,,23.86,40.25,WSW,29.18,29.45,,Clear
KIGQ,03/14/2018 23:55 UTC,29.83,42.98,24.08,46.87,10.36,230.0,,,,,,1.0,,,,10.0,,KIGQ 142355Z AUTO 23009KT 10SM CLR 06/M04 A2983 RMK AO2 T00611044  10077 20026,45.86,36.68,,,,23.87,39.05,SW,29.18,29.46,,Clear
KIGQ,03/15/2018 00:15 UTC,29.83,41.72,24.26,49.57,9.22,220.0,,,,,,1.0,,,,10.0,,KIGQ 150015Z AUTO 22008KT 10SM CLR 05/M04 A2983 RMK AO2  T00541043,,,,,,24.05,37.98,SW,29.18,29.46,,Clear
KIGQ,03/15/2018 00:35 UTC,29.83,39.2,25.16,56.76,5.75,220.0,,,,,,1.0,,,,10.0,,KIGQ 150035Z AUTO 22005KT 10SM CLR 04/M04 A2983 RMK AO2  T00401038,,,,,,24.98,,SW,29.18,29.46,,Clear
KIGQ,03/15/2018 00:55 UTC,29.82,37.94,25.7,60.98,5.75,210.0,,,,,,1.0,,,,10.0,,KIGQ 150055Z AUTO 21005KT 10SM CLR 03/M03 A2982 RMK AO2  T00331035,,,,,,25.53,,SSW,29.17,29.45,,Clear
KIGQ,03/15/2018 01:15 UTC,29.81,37.58,26.06,62.79,6.91,220.0,,,,,,1.0,,,,10.0,,KIGQ 150115Z AUTO 22006KT 10SM CLR 03/M03 A2981 RMK AO2  T00311033,,,,,,25.9,,SW,29.16,29.44,,Clear
KIGQ,03/15/2018 01:35 UTC,29.81,33.8,24.08,67.16,6.91,200.0,,,,,,1.0,,,,10.0,,KIGQ 150135Z AUTO 20006KT 10SM CLR 01/M04 A2981 RMK AO2  T00101044,,,,,,23.93,,SSW,29.16,29.49,,Clear
KIGQ,03/15/2018 01:55 UTC,29.8,34.7,25.7,69.32,6.91,200.0,,,,,,1.0,,,,10.0,,KIGQ 150155Z AUTO 20006KT 10SM CLR 02/M03 A2980 RMK AO2  T00151035,,,,,,25.57,,SSW,29.15,29.45,,Clear
KIGQ,03/15/2018 02:15 UTC,29.8,33.26,24.8,70.73,5.75,200.0,,,,,,1.0,,,,10.0,,KIGQ 150215Z AUTO 20005KT 10SM CLR 01/M04 A2980 RMK AO2  T00071040,,,,,,24.67,,SSW,29.15,29.47,,Clear
KIGQ,03/15/2018 02:35 UTC,29.79,33.26,25.7,73.43,3.44,210.0,,,,,,1.0,,,,10.0,,KIGQ 150235Z AUTO 21003KT 10SM CLR 01/M03 A2979 RMK AO2  T00071035,,,,,,25.58,,SSW,29.14,29.45,,Clear
KIGQ,03/15/2018 02:55 UTC,29.79,37.94,27.5,65.7,8.05,230.0,,,,,,1.0,,,,10.0,,KIGQ 150255Z AUTO 23007KT 10SM CLR 03/M02 A2979 RMK AO2  T00331025,,,,,,27.35,34.05,SW,29.14,29.4,,Clear
KIGQ,03/15/2018 03:15 UTC,29.79,39.02,27.32,62.52,5.75,240.0,,,,,,1.0,,,,10.0,,KIGQ 150315Z AUTO 24005KT 10SM CLR 04/M03 A2979 RMK AO2  T00391026,,,,,,27.16,,WSW,29.14,29.4,,Clear
KIGQ,03/15/2018 03:35 UTC,29.79,37.76,26.6,63.75,3.44,230.0,,,,,,1.0,,,,10.0,,KIGQ 150335Z AUTO 23003KT 10SM CLR 03/M03 A2979 RMK AO2  T00321030,,,,,,26.44,,SW,29.14,29.41,,Clear
KIGQ,03/15/2018 03:55 UTC,29.79,36.5,26.78,67.5,0.0,0.0,,,,,,1.0,,,,10.0,,KIGQ 150355Z AUTO 00000KT 10SM CLR 03/M03 A2979 RMK AO2  T00251029,,,,,,26.64,,N,29.14,29.42,,Clear
KIGQ,03/15/2018 04:15 UTC,29.79,35.78,26.6,68.94,4.61,250.0,,,,,,1.0,,,,10.0,,KIGQ 150415Z AUTO 25004KT 10SM CLR 02/M03 A2979 RMK AO2  T00211030,,,,,,26.47,,WSW,29.14,29.42,,Clear
KIGQ,03/15/2018 04:35 UTC,29.78,34.7,26.6,71.96,3.44,250.0,,,,,,1.0,,,,10.0,,KIGQ 150435Z AUTO 25003KT 10SM CLR 02/M03 A2978 RMK AO2  T00151030,,,,,,26.48,,WSW,29.13,29.42,,Clear
KIGQ,03/15/2018 04:55 UTC,29.78,33.98,26.6,74.06,0.0,0.0,,,,,,1.0,,,,10.0,,KIGQ 150455Z AUTO 00000KT 10SM CLR 01/M03 A2978 RMK AO2  T00111030,,,,,,26.49,,N,29.13,29.42,,Clear
KIGQ,03/15/2018 05:15 UTC,29.78,33.26,26.6,76.23,0.0,0.0,,,,,,1.0,,,,10.0,,KIGQ 150515Z AUTO 00000KT 10SM CLR 01/M03 A2978 RMK AO2  T00071030,,,,,,26.5,,N,29.13,29.43,,Clear
KIGQ,03/15/2018 05:35 UTC,29.78,31.64,26.06,79.57,0.0,0.0,,,,,,1.0,,,,10.0,,KIGQ 150535Z AUTO 00000KT 10SM CLR 00/M03 A2978 RMK AO2  T10021033,,,,,,25.97,,N,29.13,29.44,,Clear
KIGQ,03/15/2018 05:55 UTC,29.78,32.0,26.42,79.6,0.0,0.0,,,,,,1.0,,,,10.0,,KIGQ 150555Z AUTO 00000KT 10SM CLR 00/M03 A2978 RMK AO2 T00001031  10061 21002 400771075,42.98,31.64,,45.86,18.5,26.33,,N,29.13,29.44,,Clear
KIGQ,03/15/2018 06:15 UTC,29.78,34.52,27.86,76.35,0.0,0.0,,,,,,1.0,,,,10.0,,KIGQ 150615Z AUTO 00000KT 10SM CLR 01/M02 A2978 RMK AO2  T00141023,,,,,,27.76,,N,29.13,29.4,,Clear
KIGQ,03/15/2018 06:35 UTC,29.78,35.78,28.76,75.35,3.44,320.0,,,,,,1.0,,,,10.0,,KIGQ 150635Z AUTO 32003KT 10SM CLR 02/M02 A2978 RMK AO2  T00211018,,,,,,28.65,,NW,29.13,29.38,,Clear
KIGQ,03/15/2018 06:55 UTC,29.78,35.6,28.4,74.78,0.0,0.0,,,,,,1.0,,,,10.0,,KIGQ 150655Z AUTO 00000KT 10SM CLR 02/M02 A2978 RMK AO2  T00201020,,,,,,28.29,,N,29.13,29.39,,Clear
KIGQ,03/15/2018 07:15 UTC,29.79,35.6,28.4,74.78,0.0,0.0,,,,,,1.0,,,,10.0,,KIGQ 150715Z AUTO 00000KT 10SM CLR 02/M02 A2979 RMK AO2  T00201020,,,,,,28.29,,N,29.14,29.4,,Clear
KIGQ,03/15/2018 07:35 UTC,29.79,35.06,28.22,75.84,3.44,330.0,,,,,,1.0,,,,10.0,,KIGQ 150735Z AUTO 33003KT 10SM CLR 02/M02 A2979 RMK AO2  T00171021,,,,,,28.12,,NNW,29.14,29.41,,Clear
KIGQ,03/15/2018 07:55 UTC,29.78,36.5,27.5,69.54,6.91,360.0,,,,,,1.0,,,,10.0,,KIGQ 150755Z AUTO 36006KT 10SM CLR 03/M02 A2978 RMK AO2  T00251025,,,,,,27.37,,N,29.13,29.4,,Clear
KIGQ,03/15/2018 08:15 UTC,29.79,36.86,26.24,65.08,12.66,360.0,18.41,,,,,1.0,,,,10.0,,KIGQ 150815Z AUTO 36011G16KT 10SM CLR 03/M03 A2979 RMK AO2  T00271032,,,,,,26.09,30.84,N,29.14,29.42,,Clear
KIGQ,03/15/2018 08:35 UTC,29.79,36.86,25.52,63.16,9.22,360.0,,,,,,1.0,,,,10.0,,KIGQ 150835Z AUTO 36008KT 10SM CLR 03/M04 A2979 RMK AO2  T00271036,,,,,,25.36,32.22,N,29.14,29.43,,Clear
KIGQ,03/15/2018 08:55 UTC,29.8,36.14,25.7,65.47,8.05,360.0,,,,,,1.0,,,,10.0,,KIGQ 150855Z AUTO 36007KT 10SM CLR 02/M03 A2980 RMK AO2  T00231035,,,,,,25.55,31.94,N,29.15,29.44,,Clear
KIGQ,03/15/2018 09:15 UTC,29.81,35.24,25.7,67.85,4.61,360.0,,,,,,1.0,,,,10.0,,KIGQ 150915Z AUTO 36004KT 10SM CLR 02/M03 A2981 RMK AO2  T00181035,,,,,,25.56,,N,29.16,29.46,,Clear
KIGQ,03/15/2018 09:35 UTC,29.81,34.7,26.96,73.04,6.91,360.0,,,,,,1.0,,,,10.0,,KIGQ 150935Z AUTO 36006KT 10SM CLR 02/M03 A2981 RMK AO2  T00151028,,,,,,26.84,,N,29.16,29.45,,Clear
KIGQ,03/15/2018 09:55 UTC,29.81,34.16,27.5,76.31,3.44,360.0,,,,,,1.0,,,,10.0,,KIGQ 150955Z AUTO 36003KT 10SM CLR 01/M02 A2981 RMK AO2  T00121025,,,,,,27.4,,N,29.16,29.44,,Clear
KIGQ,03/15/2018 10:15 UTC,29.81,33.8,28.04,79.16,4.61,360.0,,,,,,1.0,,,,10.0,,KIGQ 151015Z AUTO 36004KT 10SM CLR 01/M02 A2981 RMK AO2  T00101022,,,,,,27.95,,N,29.16,29.44,,Clear
KIGQ,03/15/2018 10:35 UTC,29.82,33.08,28.4,82.69,0.0,0.0,,,,,,1.0,,,,10.0,,KIGQ 151035Z AUTO 00000KT 10SM CLR 01/M02 A2982 RMK AO2  T00061020,,,,,,28.32,,N,29.17,29.45,,Clear
KIGQ,03/15/2018 10:55 UTC,29.83,32.9,28.58,83.91,0.0,0.0,,,,,,1.0,,,,10.0,,KIGQ 151055Z AUTO 00000KT 10SM CLR 01/M02 A2983 RMK AO2  T00051019,,,,,,28.51,,N,29.18,29.46,,Clear
KIGQ,03/15/2018 11:15 UTC,29.83,32.0,28.22,85.73,0.0,0.0,,,,,,1.0,,,,10.0,,KIGQ 151115Z AUTO 00000KT 10SM CLR 00/M02 A2983 RMK AO2  T00001021,,,,,,28.16,,N,29.18,29.47,,Clear
KIGQ,03/15/2018 11:35 UTC,29.84,29.48,26.24,87.52,0.0,0.0,,,,,,1.0,,,,10.0,,KIGQ 151135Z AUTO 00000KT 10SM CLR M01/M03 A2984 RMK AO2  T10141032,,,,,,26.19,,N,29.19,29.52,,Clear
KIGQ,03/15/2018 11:55 UTC,29.84,30.74,27.86,88.89,0.0,0.0,,,,,,1.0,,,,10.0,,KIGQ 151155Z AUTO 00000KT 10SM CLR M01/M02 A2984 RMK AO2 T10071023  10028 21016,37.04,29.12,,,,27.81,,N,29.19,29.49,,Clear
KIGQ,03/15/2018 12:15 UTC,29.85,31.1,27.5,86.32,0.0,0.0,,,,,,1.0,,,,10.0,,KIGQ 151215Z AUTO 00000KT 10SM CLR 00/M02 A2985 RMK AO2  T10051025,,,,,,27.44,,N,29.2,29.5,,Clear
KIGQ,03/15/2018 12:35 UTC,29.86,29.84,26.6,87.54,0.0,0.0,,,,,,1.0,,,,10.0,,KIGQ 151235Z AUTO 00000KT 10SM CLR M01/M03 A2986 RMK AO2  T10121030,,,,,,26.55,,N,29.21,29.53,,Clear
KIGQ,03/15/2018 12:55 UTC,29.86,26.96,25.88,95.62,0.0,0.0,,,,,,1.0,,,,10.0,,KIGQ 151255Z AUTO 00000KT 10SM CLR M03/M03 A2986 RMK AO2  T10281034,,,,,,25.86,,N,29.21,29.56,,Clear
KIGQ,03/15/2018 13:15 UTC,29.87,31.46,29.12,90.92,0.0,0.0,,,,,,1.0,,,,10.0,,KIGQ 151315Z AUTO 00000KT 10SM CLR 00/M02 A2987 RMK AO2  T10031016,,,,,,29.08,,N,29.22,29.5,,Clear
KIGQ,03/15/2018 13:35 UTC,29.87,33.44,27.86,79.72,3.44,270.0,,,,,,1.0,,,,10.0,,KIGQ 151335Z AUTO 27003KT 10SM CLR 01/M02 A2987 RMK AO2  T00081023,,,,,,27.77,,W,29.22,29.5,,Clear
KIGQ,03/15/2018 13:55 UTC,29.87,35.06,27.86,74.72,4.61,260.0,,,,,,1.0,,,,10.0,,KIGQ 151355Z AUTO 26004KT 10SM CLR 02/M02 A2987 RMK AO2  T00171023,,,,,,27.75,,W,29.22,29.49,,Clear
KIGQ,03/15/2018 14:15 UTC,29.88,35.96,28.04,72.64,3.44,260.0,,,,,,,,,,,,KIGQ 151415Z AUTO 26003KT 02/M02 A2988 RMK AO2 T00221022 PWINO,,,,,,27.92,,W,29.23,29.5,,
KIGQ,03/15/2018 14:35 UTC,29.88,37.22,28.94,71.71,0.0,0.0,,,,,,1.0,,,,10.0,,KIGQ 151435Z AUTO 00000KT 10SM CLR 03/M02 A2988 RMK AO2  T00291017,,,,,,28.82,,N,29.23,29.48,,Clear
KIGQ,03/15/2018 14:55 UTC,29.89,38.3,29.66,70.78,0.0,0.0,,,,,,1.0,,,,10.0,,KIGQ 151455Z AUTO 00000KT 10SM CLR 04/M01 A2989 RMK AO2  T00351013,,,,,,29.54,,N,29.24,29.47,,Clear
KIGQ,03/15/2018 15:15 UTC,29.89,38.84,29.12,67.79,0.0,0.0,,,,,,1.0,,,,10.0,,KIGQ 151515Z AUTO 00000KT 10SM CLR 04/M02 A2989 RMK AO2  T00381016,,,,,,28.99,,N,29.24,29.47,,Clear
KIGQ,03/15/2018 15:35 UTC,29.89,39.74,28.76,64.49,0.0,0.0,,,,,,1.0,,,,10.0,,KIGQ 151535Z AUTO 00000KT 10SM CLR 04/M02 A2989 RMK AO2  T00431018,,,,,,28.61,,N,29.24,29.47,,Clear
KIGQ,03/15/2018 15:55 UTC,29.89,41.18,29.48,62.81,4.61,340.0,,,,,,1.0,,,,10.0,,KIGQ 151555Z AUTO 34004KT 10SM CLR 05/M01 A2989 RMK AO2  T00511014,,,,,,29.33,,NNW,29.24,29.45,,Clear
KIGQ,03/15/2018 16:20 UTC,29.89,41.54,28.4,59.26,0.0,0.0,,,,,,1.0,,,,10.0,,KIGQ 151620Z AUTO 00000KT 10SM CLR 05/M02 A2989 RMK AO2  T00531020,,,,,,28.23,,N,29.24,29.47,,Clear
KIGQ,03/15/2018 16:35 UTC,29.88,42.98,27.86,54.84,0.0,0.0,,,,,,1.0,,,,10.0,,KIGQ 151635Z AUTO 00000KT 10SM CLR 06/M02 A2988 RMK AO2  T00611023,,,,,,27.68,,N,29.23,29.46,,Clear
KIGQ,03/15/2018 16:55 UTC,29.88,43.7,28.94,55.76,9.22,330.0,,,,,,1.0,,,,10.0,,KIGQ 151655Z AUTO 33008KT 10SM CLR 07/M02 A2988 RMK AO2  T00651017,,,,,,28.76,40.33,NNW,29.23,29.44,,Clear
KIGQ,03/15/2018 17:15 UTC,29.88,44.24,28.22,53.03,5.75,320.0,,,,,,1.0,,,,10.0,,KIGQ 151715Z AUTO 32005KT 10SM CLR 07/M02 A2988 RMK AO2  T00681021,,,,,,28.03,,NW,29.23,29.44,,Clear
KIGQ,03/15/2018 17:35 UTC,29.88,44.96,27.32,49.72,4.61,290.0,,,,,,1.0,,,,10.0,,KIGQ 151735Z AUTO 29004KT 10SM CLR 07/M03 A2988 RMK AO2  T00721026,,,,,,27.12,,WNW,29.23,29.45,,Clear
KIGQ,03/15/2018 17:55 UTC,29.88,47.3,28.58,47.93,8.05,310.0,,,,,,1.0,,,,10.0,,KIGQ 151755Z AUTO 31007KT 10SM CLR 09/M02 A2988 RMK AO2 T00851019  10085 21028,47.3,26.96,,,,28.38,,NW,29.23,29.42,,Clear
KIGQ,03/15/2018 18:15 UTC,29.87,46.94,28.04,47.52,10.36,330.0,19.57,,,,,1.0,,,,10.0,,KIGQ 151815Z AUTO 33009G17KT 10SM CLR 08/M02 A2987 RMK AO2  T00831022,,,,,,27.84,,NNW,29.22,29.42,,Clear
KIGQ,03/15/2018 18:35 UTC,29.87,47.12,29.66,50.44,5.75,30.0,,,,,,1.0,,,,10.0,,KIGQ 151835Z AUTO 03005KT 10SM CLR 08/M01 A2987 RMK AO2  T00841013,,,,,,29.47,,NNE,29.22,29.39,,Clear
KIGQ,03/15/2018 18:55 UTC,29.86,45.5,31.82,58.54,10.36,50.0,,,,,,1.0,,,,10.0,,KIGQ 151855Z AUTO 05009KT 10SM CLR 08/00 A2986 RMK AO2  T00751001,,,,,,31.66,,NE,29.21,29.36,,Clear
KIGQ,03/15/2018 19:15 UTC,29.86,45.32,31.64,58.51,9.22,50.0,,,,,,1.0,,,,10.0,,KIGQ 151915Z AUTO 05008KT 10SM CLR 07/00 A2986 RMK AO2  T00741002,,,,,,31.48,,NE,29.21,29.36,,Clear
KIGQ,03/15/2018 19:35 UTC,29.86,44.78,31.82,60.16,10.36,40.0,,,,,,1.0,,,,10.0,,KIGQ 151935Z AUTO 04009KT 10SM CLR 07/00 A2986 RMK AO2  T00711001,,,,,,31.66,41.2,NE,29.21,29.36,,Clear
KIGQ,03/15/2018 19:55 UTC,29.87,43.88,31.82,62.26,9.22,70.0,,,,,,1.0,,,,10.0,,KIGQ 151955Z AUTO 07008KT 10SM CLR 07/00 A2987 RMK AO2  T00661001,,,,,,31.67,40.55,ENE,29.22,29.38,,Clear
KIGQ,03/15/2018 20:15 UTC,29.87,42.08,30.56,63.39,12.66,40.0,,,,,,1.0,,,,10.0,,KIGQ 152015Z AUTO 04011KT 10SM CLR 06/M01 A2987 RMK AO2  T00561008,,,,,,30.41,37.19,NE,29.22,29.41,,Clear
KIGQ,03/15/2018 20:35 UTC,29.87,41.9,30.92,64.77,9.22,30.0,,,,,,1.0,,,,10.0,,KIGQ 152035Z AUTO 03008KT 10SM CLR 06/M01 A2987 RMK AO2  T00551006,,,,,,30.78,38.2,NNE,29.22,29.41,,Clear
KIGQ,03/15/2018 20:55 UTC,29.87,41.54,30.74,65.2,11.5,40.0,,,,,,1.0,,,,10.0,,KIGQ 152055Z AUTO 04010KT 10SM CLR 05/M01 A2987 RMK AO2  T00531007,,,,,,30.6,36.91,NE,29.22,29.41,,Clear
KIGQ,03/15/2018 21:15 UTC,29.87,40.82,30.92,67.54,12.66,40.0,,,,,,1.0,,,,10.0,,KIGQ 152115Z AUTO 04011KT 10SM CLR 05/M01 A2987 RMK AO2  T00491006,,,,,,30.79,35.66,NE,29.22,29.41,,Clear
KIGQ,03/15/2018 21:35 UTC,29.88,39.56,30.74,70.41,11.5,60.0,,,,,,1.0,,,,10.0,,KIGQ 152135Z AUTO 06010KT 10SM CLR 04/M01 A2988 RMK AO2  T00421007,,,,,,30.62,34.52,ENE,29.23,29.43,,Clear
KIGQ,03/15/2018 21:55 UTC,29.88,38.66,30.02,70.82,10.36,50.0,16.11,,,,,1.0,,,,10.0,,KIGQ 152155Z AUTO 05009G14KT 10SM CLR 04/M01 A2988 RMK AO2  T00371011,,,,,,29.9,33.87,NE,29.23,29.45,,Clear
KIGQ,03/15/2018 22:15 UTC,29.89,37.76,29.84,72.83,9.22,50.0,18.41,,,,,1.0,,,,10.0,,KIGQ 152215Z AUTO 05008G16KT 10SM CLR 03/M01 A2989 RMK AO2  T00321012,,,,,,29.73,33.28,NE,29.24,29.47,,Clear
KIGQ,03/15/2018 22:35 UTC,29.9,37.22,29.3,72.77,9.22,50.0,,,,,,1.0,,,,10.0,,KIGQ 152235Z AUTO 05008KT 10SM CLR 03/M01 A2990 RMK AO2  T00291015,,,,,,29.18,32.64,NE,29.25,29.49,,Clear
KIGQ,03/15/2018 22:55 UTC,29.91,36.14,28.04,72.12,11.5,50.0,,,,,,1.0,,,,10.0,,KIGQ 152255Z AUTO 05010KT 10SM CLR 02/M02 A2991 RMK AO2  T00231022,,,,,,27.92,30.4,NE,29.26,29.53,,Clear
KIGQ,03/15/2018 23:15 UTC,29.92,35.24,27.32,72.56,12.66,50.0,,,,,,1.0,,,,10.0,,KIGQ 152315Z AUTO 05011KT 10SM CLR 02/M03 A2992 RMK AO2  T00181026,,,,,,27.2,28.87,NE,29.27,29.55,,Clear
KIGQ,03/15/2018 23:35 UTC,29.93,35.06,27.14,72.54,10.36,40.0,,,,,,1.0,,,,10.0,,KIGQ 152335Z AUTO 04009KT 10SM CLR 02/M03 A2993 RMK AO2  T00171027,,,,,,27.02,29.56,NE,29.28,29.56,,Clear
KIGQ,03/15/2018 23:55 UTC,29.93,33.62,29.48,84.58,13.8,40.0,20.71,,,,,1.0,,,,10.0,,KIGQ 152355Z AUTO 04012G18KT 10SM CLR 01/M01 A2993 RMK AO2  T00091014 10086 20009,47.48,33.62,,,,29.41,26.49,NE,29.28,29.54,,Clear
KIGQ,03/16/2018 00:15 UTC,29.94,32.54,29.84,89.64,9.22,30.0,,,,,,132.0,,,,10.0,,KIGQ 160015Z AUTO 03008KT 10SM SCT013 00/M01 A2994 RMK AO2  T00031012,,,,,,29.8,27.09,NNE,29.29,29.55,,Partly Cloudy
KIGQ,03/16/2018 00:35 UTC,29.95,32.0,29.3,89.61,9.22,40.0,,,,,,132.0,,,,10.0,,KIGQ 160035Z AUTO 04008KT 10SM SCT013 00/M01 A2995 RMK AO2  T00001015,,,,,,29.25,26.45,NE,29.3,29.57,,Partly Cloudy
KIGQ,03/16/2018 00:55 UTC,29.96,32.0,28.94,88.3,11.5,40.0,,,,,,132.0,,,,10.0,,KIGQ 160055Z AUTO 04010KT 10SM SCT013 00/M02 A2996 RMK AO2  T00001017,,,,,,28.89,25.4,NE,29.31,29.59,,Partly Cloudy
KIGQ,03/16/2018 01:15 UTC,29.97,32.0,28.76,87.65,9.22,40.0,,,,,,1.0,,,,10.0,,KIGQ 160115Z AUTO 04008KT 10SM CLR 00/M02 A2997 RMK AO2  T00001018,,,,,,28.71,26.45,NE,29.32,29.6,,Clear
KIGQ,03/16/2018 01:40 UTC,29.98,31.64,28.4,87.63,8.05,40.0,,,,,,163.0,,,,10.0,,KIGQ 160140Z AUTO 04007KT 10SM BKN016 00/M02 A2998 RMK AO2  T10021020,,,1600.0,,,28.35,26.65,NE,29.33,29.62,,Mostly Cloudy
KIGQ,03/16/2018 01:55 UTC,29.99,31.64,28.22,86.99,5.75,30.0,,,,,,163.0,,,,10.0,,KIGQ 160155Z AUTO 03005KT 10SM BKN016 00/M02 A2999 RMK AO2  T10021021,,,1600.0,,,28.16,,NNE,29.34,29.63,,Mostly Cloudy
KIGQ,03/16/2018 02:15 UTC,29.99,31.64,28.22,86.99,6.91,40.0,,,,,,163.0,,,,10.0,,KIGQ 160215Z AUTO 04006KT 10SM BKN016 00/M02 A2999 RMK AO2  T10021021,,,1600.0,,,28.16,,NE,29.34,29.63,,Mostly Cloudy
KIGQ,03/16/2018 02:35 UTC,30.0,31.64,27.86,85.71,4.61,40.0,,,,,,163.0,,,,10.0,,KIGQ 160235Z AUTO 04004KT 10SM BKN016 00/M02 A3000 RMK AO2  T10021023,,,1600.0,,,27.8,,NE,29.35,29.65,,Mostly Cloudy
KIGQ,03/16/2018 02:55 UTC,30.0,31.46,27.68,85.7,5.75,40.0,,,,,,163.0,,,,10.0,,KIGQ 160255Z AUTO 04005KT 10SM BKN016 00/M02 A3000 RMK AO2  T10031024,,,1600.0,,,27.62,,NE,29.35,29.65,,Mostly Cloudy
KIGQ,03/16/2018 03:15 UTC,30.01,31.82,27.5,83.84,8.05,40.0,,,,,,183.0,,,,10.0,,KIGQ 160315Z AUTO 04007KT 10SM BKN018 00/M02 A3001 RMK AO2  T10011025,,,1800.0,,,27.43,26.86,NE,29.36,29.66,,Mostly Cloudy
KIGQ,03/16/2018 03:35 UTC,30.02,32.0,27.32,82.61,9.22,30.0,,,,,,184.0,,,,10.0,,KIGQ 160335Z AUTO 03008KT 10SM OVC018 00/M03 A3002 RMK AO2  T00001026,,,1800.0,,,27.24,26.45,NNE,29.37,29.67,,Overcast
KIGQ,03/16/2018 03:55 UTC,30.03,31.64,26.78,81.98,11.5,40.0,,,,,,184.0,,,,10.0,,KIGQ 160355Z AUTO 04010KT 10SM OVC018 00/M03 A3003 RMK AO2  T10021029,,,1800.0,,,26.7,24.96,NE,29.38,29.69,,Overcast
KIGQ,03/16/2018 04:15 UTC,30.03,31.1,26.06,81.32,11.5,30.0,,,,,,183.0,,,,10.0,,KIGQ 160415Z AUTO 03010KT 10SM BKN018 00/M03 A3003 RMK AO2  T10051033,,,1800.0,,,25.98,24.31,NNE,29.38,29.7,,Mostly Cloudy
KIGQ,03/16/2018 04:35 UTC,30.04,30.74,25.7,81.3,10.36,30.0,16.11,,,,,202.0,,,,10.0,,KIGQ 160435Z AUTO 03009G14KT 10SM SCT020 M01/M03 A3004 RMK AO2  T10071035,,,,,,25.62,24.39,NNE,29.39,29.72,,Partly Cloudy
KIGQ,03/16/2018 04:55 UTC,30.05,30.56,25.34,80.67,10.36,40.0,,,,,,203.0,,,,10.0,,KIGQ 160455Z AUTO 04009KT 10SM BKN020 M01/M04 A3005 RMK AO2  T10081037,,,2000.0,,,25.25,24.18,NE,29.4,29.74,,Mostly Cloudy
KIGQ,03/16/2018 05:15 UTC,30.05,30.02,24.8,80.63,9.22,40.0,,,,,,203.0,,,,10.0,,KIGQ 160515Z AUTO 04008KT 10SM BKN020 M01/M04 A3005 RMK AO2  T10111040,,,2000.0,,,24.71,24.1,NE,29.4,29.74,,Mostly Cloudy
KIGQ,03/16/2018 05:35 UTC,30.06,29.66,24.8,81.82,10.36,40.0,,,,,,1.0,,,,10.0,,KIGQ 160535Z AUTO 04009KT 10SM CLR M01/M04 A3006 RMK AO2  T10131040,,,,,,24.72,23.1,NE,29.41,29.76,,Clear
KIGQ,03/16/2018 05:55 UTC,30.06,29.84,24.26,79.41,8.05,40.0,,,,,,1.0,,,,10.0,,KIGQ 160555Z AUTO 04007KT 10SM CLR M01/M04 A3006 RMK AO2 T10121043  10007 21014 400861028,33.26,29.48,,47.48,26.96,24.17,24.54,NE,29.41,29.76,,Clear
KIGQ,03/16/2018 06:15 UTC,30.07,29.84,24.26,79.41,5.75,40.0,,,,,,1.0,,,,10.0,,KIGQ 160615Z AUTO 04005KT 10SM CLR M01/M04 A3007 RMK AO2  T10121043,,,,,,24.17,,NE,29.42,29.77,,Clear
KIGQ,03/16/2018 06:35 UTC,30.08,29.66,23.9,78.8,8.05,40.0,,,,,,222.0,,,,10.0,,KIGQ 160635Z AUTO 04007KT 10SM SCT022 M01/M04 A3008 RMK AO2  T10131045,,,,,,23.81,24.33,NE,29.43,29.79,,Partly Cloudy
KIGQ,03/16/2018 06:55 UTC,30.08,29.84,23.18,75.89,9.22,30.0,,,,,,1.0,,,,10.0,,KIGQ 160655Z AUTO 03008KT 10SM CLR M01/M05 A3008 RMK AO2  T10121049,,,,,,23.07,23.89,NNE,29.43,29.79,,Clear
KIGQ,03/16/2018 07:15 UTC,30.09,29.66,22.82,75.3,8.05,40.0,,,,,,262.0,,,,10.0,,KIGQ 160715Z AUTO 04007KT 10SM SCT026 M01/M05 A3009 RMK AO2  T10131051,,,,,,22.71,24.33,NE,29.44,29.81,,Partly Cloudy
KIGQ,03/16/2018 07:35 UTC,30.1,29.12,22.64,76.4,6.91,40.0,,,,,,1.0,,,,10.0,,KIGQ 160735Z AUTO 04006KT 10SM CLR M02/M05 A3010 RMK AO2  T10161052,,,,,,22.54,,NE,29.45,29.82,,Clear
KIGQ,03/16/2018 07:55 UTC,30.1,29.12,22.1,74.68,8.05,40.0,,,,,,272.0,,,,10.0,,KIGQ 160755Z AUTO 04007KT 10SM SCT027 M02/M05 A3010 RMK AO2  T10161055,,,,,,21.99,23.69,NE,29.45,29.83,,Partly Cloudy
KIGQ,03/16/2018 08:15 UTC,30.11,29.84,22.46,73.62,8.05,30.0,,,,,,272.0,,,,10.0,,KIGQ 160815Z AUTO 03007KT 10SM SCT027 M01/M05 A3011 RMK AO2  T10121053,,,,,,22.34,24.54,NNE,29.46,29.83,,Partly Cloudy
KIGQ,03/16/2018 08:35 UTC,30.11,30.2,22.1,71.46,10.36,20.0,16.11,,,,,273.0,,,,10.0,,KIGQ 160835Z AUTO 02009G14KT 10SM BKN027 M01/M05 A3011 RMK AO2  T10101055,,,2700.0,,,21.97,23.74,NNE,29.46,29.83,,Mostly Cloudy
KIGQ,03/16/2018 08:55 UTC,30.11,30.02,22.1,71.98,10.36,40.0,,,,,,273.0,,,,10.0,,KIGQ 160855Z AUTO 04009KT 10SM BKN027 M01/M05 A3011 RMK AO2  T10111055,,,2700.0,,,21.97,23.53,NE,29.46,29.84,,Mostly Cloudy
KIGQ,03/16/2018 09:15 UTC,30.11,30.02,22.64,73.64,12.66,30.0,19.57,,,,,274.0,,,,10.0,,KIGQ 160915Z AUTO 03011G17KT 10SM OVC027 M01/M05 A3011 RMK AO2  T10111052,,,2700.0,,,22.52,22.52,NNE,29.46,29.83,,Overcast
KIGQ,03/16/2018 09:35 UTC,30.11,29.84,22.1,72.51,11.5,40.0,21.85,,,,,274.0,,,,10.0,,KIGQ 160935Z AUTO 04010G19KT 10SM OVC027 M01/M05 A3011 RMK AO2  T10121055,,,2700.0,,,21.98,22.79,NE,29.46,29.84,,Overcast
KIGQ,03/16/2018 09:55 UTC,30.12,29.84,21.92,71.96,13.8,30.0,18.41,,,,,274.0,,,,10.0,,KIGQ 160955Z AUTO 03012G16KT 10SM OVC027 M01/M06 A3012 RMK AO2  T10121056,,,2700.0,,,21.79,21.86,NNE,29.47,29.85,,Overcast
KIGQ,03/16/2018 10:15 UTC,30.13,29.66,21.92,72.49,11.5,50.0,,,,,,274.0,,,,10.0,,KIGQ 161015Z AUTO 05010KT 10SM OVC027 M01/M06 A3013 RMK AO2  T10131056,,,2700.0,,,21.8,22.57,NE,29.47,29.85,,Overcast
KIGQ,03/16/2018 10:35 UTC,30.13,29.84,22.1,72.51,11.5,50.0,,,,,,274.0,,,,10.0,,KIGQ 161035Z AUTO 05010KT 10SM OVC027 M01/M05 A3013 RMK AO2  T10121055,,,2700.0,,,21.98,22.79,NE,29.47,29.85,,Overcast
KIGQ,03/16/2018 10:55 UTC,30.14,29.3,21.38,71.9,8.05,40.0,19.57,,,,,274.0,,,,10.0,,KIGQ 161055Z AUTO 04007G17KT 10SM OVC027 M01/M06 A3014 RMK AO2  T10151059,,,2700.0,,,21.25,23.9,NE,29.48,29.87,,Overcast
KIGQ,03/16/2018 11:15 UTC,30.15,29.48,21.92,73.03,9.22,40.0,,,,,,274.0,,,,10.0,,KIGQ 161115Z AUTO 04008KT 10SM OVC027 M01/M06 A3015 RMK AO2  T10141056,,,2700.0,,,21.8,23.46,NE,29.49,29.87,,Overcast
KIGQ,03/16/2018 11:35 UTC,30.16,29.48,21.74,72.47,11.5,50.0,,,,,,274.0,,,,10.0,,KIGQ 161135Z AUTO 05010KT 10SM OVC027 M01/M06 A3016 RMK AO2  T10141057,,,2700.0,,,21.62,22.36,NE,29.5,29.88,,Overcast
KIGQ,03/16/2018 11:55 UTC,30.16,29.3,21.56,72.45,9.22,30.0,16.11,,,,,274.0,,,,10.0,,KIGQ 161155Z AUTO 03008G14KT 10SM OVC027 M01/M06 A3016 RMK AO2  T10151058 11010 21016,30.2,29.12,2700.0,,,21.44,23.25,NNE,29.5,29.89,,Overcast
KIGQ,03/16/2018 12:15 UTC,30.17,29.3,21.92,73.57,10.36,50.0,,,,,,254.0,,,,10.0,,KIGQ 161215Z AUTO 05009KT 10SM OVC025 M01/M06 A3017 RMK AO2  T10151056,,,2500.0,,,21.8,22.67,NE,29.51,29.89,,Overcast
KIGQ,03/16/2018 12:35 UTC,30.16,29.12,21.2,71.88,11.5,40.0,18.41,,,,,254.0,,,,10.0,,KIGQ 161235Z AUTO 04010G16KT 10SM OVC025 M02/M06 A3016 RMK AO2  T10161060,,,2500.0,,,21.07,21.92,NE,29.5,29.89,,Overcast
KIGQ,03/16/2018 12:55 UTC,30.17,30.2,22.46,72.55,12.66,50.0,,,,,,254.0,,,,10.0,,KIGQ 161255Z AUTO 05011KT 10SM OVC025 M01/M05 A3017 RMK AO2  T10101053,,,2500.0,,,22.34,22.74,NE,29.51,29.88,,Overcast
KIGQ,03/16/2018 13:15 UTC,30.17,29.84,21.92,71.96,10.36,30.0,,,,,,233.0,,,,10.0,,KIGQ 161315Z AUTO 03009KT 10SM BKN023 M01/M06 A3017 RMK AO2  T10121056,,,2300.0,,,21.79,23.31,NNE,29.51,29.89,,Mostly Cloudy
KIGQ,03/16/2018 13:35 UTC,30.18,30.56,22.28,70.96,11.5,60.0,,,,,,253.0,,,,10.0,,KIGQ 161335Z AUTO 06010KT 10SM BKN025 M01/M05 A3018 RMK AO2  T10081054,,,2500.0,,,22.15,23.66,ENE,29.52,29.89,,Mostly Cloudy
KIGQ,03/16/2018 13:55 UTC,30.19,30.56,22.1,70.42,10.36,30.0,,,,,,254.0,,,,10.0,,KIGQ 161355Z AUTO 03009KT 10SM OVC025 M01/M05 A3019 RMK AO2  T10081055,,,2500.0,,,21.97,24.18,NNE,29.53,29.9,,Overcast
KIGQ,03/16/2018 14:15 UTC,30.2,31.1,22.82,71.02,11.5,40.0,,,,,,254.0,,,,10.0,,KIGQ 161415Z AUTO 04010KT 10SM OVC025 00/M05 A3020 RMK AO2  T10051051,,,2500.0,,,22.69,24.31,NE,29.54,29.9,,Overcast
KIGQ,03/16/2018 14:35 UTC,30.19,31.64,23.72,72.16,12.66,40.0,16.11,,,,,234.0,,,,10.0,,KIGQ 161435Z AUTO 04011G14KT 10SM OVC023 00/M05 A3019 RMK AO2  T10021046,,,2300.0,,,23.6,24.49,NE,29.53,29.88,,Overcast
KIGQ,03/16/2018 14:55 UTC,30.19,32.0,23.72,71.12,12.66,70.0,17.27,,,,,234.0,,,,10.0,,KIGQ 161455Z AUTO 07011G15KT 10SM OVC023 00/M05 A3019 RMK AO2  T00001046,,,2300.0,,,23.59,24.93,ENE,29.53,29.88,,Overcast
KIGQ,03/16/2018 15:15 UTC,30.2,32.0,23.54,70.59,6.91,60.0,,,,,,234.0,,,,10.0,,KIGQ 161515Z AUTO 06006KT 10SM OVC023 00/M05 A3020 RMK AO2  T00001047,,,2300.0,,,23.41,,ENE,29.54,29.89,,Overcast
KIGQ,03/16/2018 15:35 UTC,30.21,32.36,24.08,71.16,10.36,40.0,,,,,,234.0,,,,10.0,,KIGQ 161535Z AUTO 04009KT 10SM OVC023 00/M04 A3021 RMK AO2  T00021044,,,2300.0,,,23.95,26.33,NE,29.55,29.89,,Overcast
KIGQ,03/16/2018 15:55 UTC,30.21,32.9,24.62,71.22,9.22,60.0,,,,,,233.0,,,,10.0,,KIGQ 161555Z AUTO 06008KT 10SM BKN023 01/M04 A3021 RMK AO2  T00051041,,,2300.0,,,24.49,27.52,ENE,29.55,29.88,,Mostly Cloudy
KIGQ,03/16/2018 16:15 UTC,30.21,32.9,24.08,69.63,8.05,40.0,,,,,,232.0,,,,10.0,,KIGQ 161615Z AUTO 04007KT 10SM SCT023 01/M04 A3021 RMK AO2  T00051044,,,,,,23.95,28.13,NE,29.55,29.89,,Partly Cloudy
KIGQ,03/16/2018 16:35 UTC,30.22,33.26,24.08,68.63,6.91,40.0,,,,,,262.0,,,,10.0,,KIGQ 161635Z AUTO 04006KT 10SM SCT026 01/M04 A3022 RMK AO2  T00071044,,,,,,23.94,,NE,29.56,29.9,,Partly Cloudy
KIGQ,03/16/2018 16:55 UTC,30.21,34.16,24.44,67.21,8.05,60.0,,,,,,262.0,,,,10.0,,KIGQ 161655Z AUTO 06007KT 10SM SCT026 01/M04 A3021 RMK AO2  T00121042,,,,,,24.3,29.61,ENE,29.55,29.88,,Partly Cloudy
KIGQ,03/16/2018 17:15 UTC,30.21,34.34,23.72,64.74,8.05,40.0,,,,,,1.0,,,,10.0,,KIGQ 161715Z AUTO 04007KT 10SM CLR 01/M05 A3021 RMK AO2  T00131046,,,,,,23.56,29.82,NE,29.55,29.89,,Clear
KIGQ,03/16/2018 17:35 UTC,30.21,34.16,23.9,65.71,5.75,20.0,,,,,,1.0,,,,10.0,,KIGQ 161735Z AUTO 02005KT 10SM CLR 01/M04 A3021 RMK AO2  T00121045,,,,,,23.75,,NNE,29.55,29.89,,Clear
KIGQ,03/16/2018 17:55 UTC,30.2,34.88,24.62,65.8,9.22,20.0,,,,,,1.0,,,,10.0,,KIGQ 161755Z AUTO 02008KT 10SM CLR 02/M04 A3020 RMK AO2 T00161041  10017 21016,35.06,29.12,,,,24.47,29.87,NNE,29.54,29.86,,Clear
KIGQ,03/16/2018 18:15 UTC,30.2,34.88,23.9,63.85,5.75,30.0,,,,,,1.0,,,,10.0,,KIGQ 161815Z AUTO 03005KT 10SM CLR 02/M04 A3020 RMK AO2  T00161045,,,,,,23.74,,NNE,29.54,29.87,,Clear
KIGQ,03/16/2018 18:35 UTC,30.19,34.88,24.98,66.8,9.22,30.0,,,,,,1.0,,,,10.0,,KIGQ 161835Z AUTO 03008KT 10SM CLR 02/M04 A3019 RMK AO2  T00161039,,,,,,24.84,29.87,NNE,29.53,29.85,,Clear
KIGQ,03/16/2018 18:55 UTC,30.18,35.42,25.16,65.87,9.22,40.0,,,,,,1.0,,,,10.0,,KIGQ 161855Z AUTO 04008KT 10SM CLR 02/M04 A3018 RMK AO2  T00191038,,,,,,25.01,30.51,NE,29.52,29.83,,Clear
KIGQ,03/16/2018 19:15 UTC,30.17,35.6,24.98,64.91,8.05,40.0,,,,,,1.0,,,,10.0,,KIGQ 161915Z AUTO 04007KT 10SM CLR 02/M04 A3017 RMK AO2  T00201039,,,,,,24.83,31.3,NE,29.51,29.82,,Clear
KIGQ,03/16/2018 19:35 UTC,30.16,36.32,25.16,63.56,8.05,70.0,,,,,,1.0,,,,10.0,,KIGQ 161935Z AUTO 07007KT 020V090 10SM CLR 02/M04 A3016 RMK AO2  T00241038,,,,,,25.0,32.15,ENE,29.5,29.81,,Clear
KIGQ,03/16/2018 19:55 UTC,30.14,34.16,24.26,66.7,6.91,40.0,,,,,,1.0,,,,10.0,,KIGQ 161955Z AUTO 04006KT 10SM CLR 01/M04 A3014 RMK AO2  T00121043,,,,,,24.11,,NE,29.48,29.81,,Clear
KIGQ,03/16/2018 20:15 UTC,30.13,34.52,24.98,67.76,9.22,50.0,,,,,,1.0,,,,10.0,,KIGQ 162015Z AUTO 05008KT 10SM CLR 01/M04 A3013 RMK AO2  T00141039,,,,,,24.84,29.44,NE,29.47,29.79,,Clear
KIGQ,03/16/2018 20:35 UTC,30.13,34.52,24.8,67.25,9.22,40.0,,,,,,1.0,,,,10.0,,KIGQ 162035Z AUTO 04008KT 10SM CLR 01/M04 A3013 RMK AO2  T00141040,,,,,,24.66,29.44,NE,29.47,29.79,,Clear
KIGQ,03/16/2018 20:55 UTC,30.11,34.7,24.98,67.28,10.36,50.0,,,,,,1.0,,,,10.0,,KIGQ 162055Z AUTO 05009KT 10SM CLR 02/M04 A3011 RMK AO2  T00151039,,,,,,24.84,29.13,NE,29.46,29.78,,Clear
KIGQ,03/16/2018 21:15 UTC,30.11,33.98,24.8,68.72,10.36,50.0,,,,,,1.0,,,,10.0,,KIGQ 162115Z AUTO 05009KT 10SM CLR 01/M04 A3011 RMK AO2  T00111040,,,,,,24.66,28.27,NE,29.46,29.78,,Clear
KIGQ,03/16/2018 21:35 UTC,30.1,33.8,25.34,70.79,10.36,40.0,,,,,,1.0,,,,10.0,,KIGQ 162135Z AUTO 04009KT 10SM CLR 01/M04 A3010 RMK AO2  T00101037,,,,,,25.21,28.06,NE,29.45,29.77,,Clear
KIGQ,03/16/2018 21:55 UTC,30.1,33.8,25.16,70.26,9.22,50.0,,,,,,1.0,,,,10.0,,KIGQ 162155Z AUTO 05008KT 10SM CLR 01/M04 A3010 RMK AO2  T00101038,,,,,,25.03,28.59,NE,29.45,29.77,,Clear
KIGQ,03/16/2018 22:15 UTC,30.1,33.08,25.16,72.32,6.91,30.0,,,,,,1.0,,,,10.0,,KIGQ 162215Z AUTO 03006KT 10SM CLR 01/M04 A3010 RMK AO2  T00061038,,,,,,25.04,,NNE,29.45,29.77,,Clear
KIGQ,03/16/2018 22:35 UTC,30.09,32.54,25.34,74.47,10.36,50.0,,,,,,1.0,,,,10.0,,KIGQ 162235Z AUTO 05009KT 10SM CLR 00/M04 A3009 RMK AO2  T00031037,,,,,,25.23,26.55,NE,29.44,29.76,,Clear
KIGQ,03/16/2018 22:55 UTC,30.09,32.0,25.16,75.54,9.22,40.0,,,,,,1.0,,,,10.0,,KIGQ 162255Z AUTO 04008KT 10SM CLR 00/M04 A3009 RMK AO2  T00001038,,,,,,25.05,26.45,NE,29.44,29.77,,Clear
KIGQ,03/16/2018 23:15 UTC,30.09,32.0,25.16,75.54,9.22,40.0,,,,,,1.0,,,,10.0,,KIGQ 162315Z AUTO 04008KT 10SM CLR 00/M04 A3009 RMK AO2  T00001038,,,,,,25.05,26.45,NE,29.44,29.77,,Clear
KIGQ,03/16/2018 23:35 UTC,30.09,31.64,25.7,78.38,10.36,40.0,,,,,,1.0,,,,10.0,,KIGQ 162335Z AUTO 04009KT 10SM CLR 00/M03 A3009 RMK AO2  T10021035,,,,,,25.6,25.47,NE,29.44,29.77,,Clear
KIGQ,03/16/2018 23:55 UTC,30.08,31.64,25.7,78.38,10.36,50.0,,,,,,1.0,,,,10.0,,KIGQ 162355Z AUTO 05009KT 10SM CLR 00/M03 A3008 RMK AO2 T10021035  10025 21002,36.5,31.64,,,,25.6,25.47,NE,29.43,29.76,,Clear
KIGQ,03/17/2018 00:15 UTC,30.07,31.64,26.24,80.16,11.5,60.0,,,,,,1.0,,,,10.0,,KIGQ 170015Z AUTO 06010KT 10SM CLR 00/M03 A3007 RMK AO2  T10021032,,,,,,26.15,24.96,ENE,29.42,29.74,,Clear
KIGQ,03/17/2018 00:35 UTC,30.08,31.46,26.42,81.35,4.61,50.0,,,,,,1.0,,,,10.0,,KIGQ 170035Z AUTO 05004KT 10SM CLR 00/M03 A3008 RMK AO2  T10031031,,,,,,26.34,,NE,29.43,29.75,,Clear
KIGQ,03/17/2018 00:55 UTC,30.08,31.64,26.6,81.37,8.05,50.0,,,,,,1.0,,,,10.0,,KIGQ 170055Z AUTO 05007KT 10SM CLR 00/M03 A3008 RMK AO2  T10021030,,,,,,26.52,26.65,NE,29.43,29.74,,Clear
KIGQ,03/17/2018 01:15 UTC,30.08,31.64,26.96,82.59,6.91,60.0,,,,,,1.0,,,,10.0,,KIGQ 170115Z AUTO 06006KT 10SM CLR 00/M03 A3008 RMK AO2 LTG DSNT  SW T10021028,,,,,,26.88,,ENE,29.43,29.74,,Clear
KIGQ,03/17/2018 01:35 UTC,30.07,31.82,27.14,82.6,6.91,50.0,,,,,,1.0,,,,10.0,,KIGQ 170135Z AUTO 05006KT 10SM CLR 00/M03 A3007 RMK AO2  T10011027,,,,,,27.06,,NE,29.42,29.73,,Clear
KIGQ,03/17/2018 02:00 UTC,30.06,32.0,27.5,83.23,9.22,60.0,,,,,,1.0,,,,10.0,,KIGQ 170200Z AUTO 06008KT 10SM CLR 00/M02 A3006 RMK AO2  T00001025,,,,,,27.43,26.45,ENE,29.41,29.71,,Clear
KIGQ,03/17/2018 02:15 UTC,30.06,32.0,27.68,83.85,4.61,60.0,,,,,,1.0,,,,10.0,,KIGQ 170215Z AUTO 06004KT 10SM CLR 00/M02 A3006 RMK AO2  T00001024,,,,,,27.61,,ENE,29.41,29.71,,Clear
KIGQ,03/17/2018 02:35 UTC,30.06,32.0,27.5,83.23,6.91,60.0,,,,,,1.0,,,,10.0,,KIGQ 170235Z AUTO 06006KT 10SM CLR 00/M02 A3006 RMK AO2  T00001025,,,,,,27.43,,ENE,29.41,29.71,,Clear
KIGQ,03/17/2018 02:55 UTC,30.05,32.18,27.5,82.63,9.22,60.0,,,,,,1.0,,,,10.0,,KIGQ 170255Z AUTO 06008KT 10SM CLR 00/M02 A3005 RMK AO2  T00011025,,,,,,27.42,26.66,ENE,29.4,29.7,,Clear
KIGQ,03/17/2018 03:15 UTC,30.06,32.36,27.5,82.03,4.61,60.0,,,,,,1.0,,,,10.0,,KIGQ 170315Z AUTO 06004KT 10SM CLR 00/M02 A3006 RMK AO2  T00021025,,,,,,27.42,,ENE,29.41,29.71,,Clear
KIGQ,03/17/2018 03:35 UTC,30.07,32.0,27.5,83.23,4.61,40.0,,,,,,952.0,,,,10.0,,KIGQ 170335Z AUTO 04004KT 10SM SCT095 00/M02 A3007 RMK AO2  T00001025,,,,,,27.43,,NE,29.42,29.72,,Partly Cloudy
KIGQ,03/17/2018 03:55 UTC,30.06,32.9,27.86,81.47,3.44,50.0,,,,,,953.0,,,,10.0,,KIGQ 170355Z AUTO 05003KT 10SM BKN095 01/M02 A3006 RMK AO2  T00051023,,,9500.0,,,27.78,,NE,29.41,29.7,,Mostly Cloudy
KIGQ,03/17/2018 04:15 UTC,30.06,32.72,28.58,84.52,0.0,0.0,,,,,,953.0,,,,10.0,,KIGQ 170415Z AUTO 00000KT 10SM BKN095 00/M02 A3006 RMK AO2  T00041019,,,9500.0,,,28.51,,N,29.41,29.69,,Mostly Cloudy
KIGQ,03/17/2018 04:35 UTC,30.04,32.18,28.94,87.66,6.91,40.0,,,,,,953.0,,,,10.0,,KIGQ 170435Z AUTO 04006KT 10SM BKN095 00/M02 A3004 RMK AO2  T00011017,,,9500.0,,,28.89,,NE,29.39,29.67,,Mostly Cloudy
KIGQ,03/17/2018 04:55 UTC,30.04,32.54,28.4,84.51,0.0,0.0,,,,,,954.0,,,,10.0,,KIGQ 170455Z AUTO 00000KT 10SM OVC095 00/M02 A3004 RMK AO2  T00031020,,,9500.0,,,28.33,,N,29.39,29.67,,Overcast
KIGQ,03/17/2018 05:15 UTC,30.01,32.9,28.76,84.53,9.22,50.0,,,,,,954.0,,,,10.0,,KIGQ 170515Z AUTO 05008KT 10SM OVC095 01/M02 A3001 RMK AO2  T00051018,,,9500.0,,,28.69,27.52,NE,29.36,29.64,,Overcast
KIGQ,03/17/2018 05:35 UTC,30.02,33.08,28.04,81.48,4.61,60.0,,,,,,954.0,,,,10.0,,KIGQ 170535Z AUTO 06004KT 10SM OVC095 01/M02 A3002 RMK AO2  T00061022,,,9500.0,,,27.96,,ENE,29.37,29.66,,Overcast
KIGQ,03/17/2018 05:55 UTC,30.03,33.8,27.32,76.85,0.0,0.0,,,,,,802.0,954.0,,,10.0,,KIGQ 170555Z AUTO 00000KT 10SM SCT080 OVC095 01/M03 A3003 RMK AO2  T00101026 10010 21003 400251016,33.8,31.46,9500.0,36.5,29.12,27.22,,N,29.38,29.67,,Overcast
KIGQ,03/17/2018 06:15 UTC,30.02,33.8,26.24,73.49,0.0,0.0,,,,,,802.0,954.0,,,10.0,,KIGQ 170615Z AUTO 00000KT 10SM SCT080 OVC095 01/M03 A3002 RMK AO2  T00101032,,,9500.0,,,26.12,,N,29.37,29.67,,Overcast
KIGQ,03/17/2018 06:35 UTC,30.0,33.8,24.98,69.74,4.61,60.0,,,704.0,,,482.0,603.0,,,10.0,,KIGQ 170635Z AUTO 06004KT 10SM SCT048 BKN060 OVC070 01/M04 A3000 RMK AO2 T00101039,,,6000.0,,,24.85,,ENE,29.35,29.67,,Overcast
KIGQ,03/17/2018 06:55 UTC,29.99,33.08,25.52,73.41,6.91,80.0,,20.0,,,,604.0,,,,7.0,,KIGQ 170655Z AUTO 08006KT 7SM -SN OVC060 01/M04 A2999 RMK AO2  T00061036,,,6000.0,,,25.4,,E,29.34,29.66,,Light Snow
KIGQ,03/17/2018 07:15 UTC,29.97,32.0,27.32,82.61,10.36,60.0,,20.0,504.0,0.04,,292.0,382.0,,,2.0,,KIGQ 170715Z AUTO 06009KT 2SM -SN SCT029 SCT038 OVC050 00/M03  A2997 RMK AO2 P0004 T00001026,,,5000.0,,,27.24,25.9,ENE,29.32,29.62,,Light Snow
KIGQ,03/17/2018 07:35 UTC,29.98,32.0,27.14,82.0,3.44,80.0,,20.0,,0.05,,432.0,504.0,,,7.0,,KIGQ 170735Z AUTO 08003KT 7SM -SN SCT043 OVC050 00/M03 A2998 RMK AO2 P0005 T00001027,,,5000.0,,,27.06,,E,29.33,29.63,,Light Snow
KIGQ,03/17/2018 07:55 UTC,29.98,31.64,27.5,84.45,0.0,0.0,,20.0,,0.06,,494.0,,,,7.0,,KIGQ 170755Z AUTO 00000KT 7SM -SN OVC049 00/M02 A2998 RMK AO2  P0006 T10021025,,,4900.0,,,27.43,,N,29.33,29.63,,Light Snow
KIGQ,03/17/2018 08:15 UTC,29.96,31.28,27.68,86.33,0.0,0.0,,20.0,,,,474.0,,,,5.0,,KIGQ 170815Z AUTO 00000KT 5SM -SN OVC047 00/M02 A2996 RMK AO2  T10041024,,,4700.0,,,27.62,,N,29.31,29.61,,Light Snow
KIGQ,03/17/2018 08:35 UTC,29.96,31.28,27.68,86.33,3.44,60.0,,20.0,,0.02,,454.0,,,,4.0,,KIGQ 170835Z AUTO 06003KT 4SM -SN OVC045 00/M02 A2996 RMK AO2  P0002 T10041024,,,4500.0,,,27.62,,ENE,29.31,29.61,,Light Snow
KIGQ,03/17/2018 08:55 UTC,29.94,31.1,28.04,88.26,6.91,80.0,,20.0,,0.05,0.11,474.0,,,,4.0,,KIGQ 170855Z AUTO 08006KT 4SM -SN OVC047 00/M02 A2994 RMK AO2  P0005 60011 T10051022,,,4700.0,,,27.99,,E,29.29,29.59,,Light Snow
KIGQ,03/17/2018 09:15 UTC,29.93,31.1,28.94,91.58,6.91,80.0,,20.0,554.0,0.02,,412.0,473.0,,,5.0,,KIGQ 170915Z AUTO 08006KT 5SM -SN SCT041 BKN047 OVC055 00/M02  A2993 RMK AO2 P0002 T10051017,,,4700.0,,,28.9,,E,29.28,29.56,,Light Snow
KIGQ,03/17/2018 09:35 UTC,29.92,31.1,29.66,94.31,9.22,90.0,,20.0,,0.04,,402.0,504.0,,,5.0,,KIGQ 170935Z AUTO 09008KT 5SM -SN SCT040 OVC050 00/M01 A2992 RMK AO2 P0004 T10051013,,,5000.0,,,29.64,25.38,E,29.27,29.54,,Light Snow
KIGQ,03/17/2018 09:55 UTC,29.91,31.1,30.02,95.71,8.05,90.0,,41.0,,0.04,,484.0,,,,7.0,,KIGQ 170955Z AUTO 09007KT 7SM UP OVC048 00/M01 A2991 RMK AO2 P0004  T10051011,,,4800.0,,,30.0,26.02,E,29.26,29.53,,Unknown Precip
KIGQ,03/17/2018 10:15 UTC,29.91,31.1,29.84,95.01,8.05,90.0,,41.0,704.0,0.01,,503.0,653.0,,,10.0,,KIGQ 171015Z AUTO 09007KT 10SM UP BKN050 BKN065 OVC070 00/M01  A2991 RMK AO2 P0001 T10051012,,,5000.0,,,29.82,26.02,E,29.26,29.53,,Unknown Precip
KIGQ,03/17/2018 10:35 UTC,29.91,31.46,29.84,93.63,5.75,110.0,,41.0,,0.01,,413.0,484.0,,,10.0,,KIGQ 171035Z AUTO 11005KT 10SM UP BKN041 OVC048 00/M01 A2991 RMK AO2 P0001 T10031012,,,4100.0,,,29.81,,ESE,29.26,29.53,,Unknown Precip
KIGQ,03/17/2018 10:55 UTC,29.92,31.64,30.2,94.33,9.22,100.0,,41.0,,0.01,,412.0,484.0,,,10.0,,KIGQ 171055Z AUTO 10008KT 10SM UP SCT041 OVC048 00/M01 A2992 RMK AO2 P0001 T10021010,,,4800.0,,,30.18,26.02,E,29.27,29.53,,Unknown Precip
KIGQ,03/17/2018 11:15 UTC,29.92,31.64,30.2,94.33,8.05,100.0,,20.0,,,,393.0,464.0,,,7.0,,KIGQ 171115Z AUTO 10007KT 7SM -SN BKN039 OVC046 00/M01 A2992 RMK AO2 T10021010,,,3900.0,,,30.18,26.65,E,29.27,29.53,,Light Snow
KIGQ,03/17/2018 11:35 UTC,29.92,31.46,30.2,95.01,8.05,90.0,,20.0,434.0,0.01,,272.0,383.0,,,10.0,,KIGQ 171135Z AUTO 09007KT 10SM -SN SCT027 BKN038 OVC043 00/M01  A2992 RMK AO2 P0001 T10031010,,,3800.0,,,30.18,26.44,E,29.27,29.53,,Light Snow
KIGQ,03/17/2018 11:55 UTC,29.92,31.46,30.2,95.01,6.91,70.0,,20.0,,0.01,,362.0,454.0,0.17,0.17,7.0,,KIGQ 171155Z AUTO 07006KT 7SM -SN SCT036 OVC045 00/M01 A2992 RMK AO2 P0001 60017 70017 T10031010 10010 21005,33.8,31.1,4500.0,,,30.18,,ENE,29.27,29.53,,Light Snow
KIGQ,03/17/2018 12:15 UTC,29.92,31.28,30.2,95.71,8.05,80.0,,20.0,,0.01,,473.0,554.0,,,10.0,,KIGQ 171215Z AUTO 08007KT 10SM -SN BKN047 OVC055 00/M01 A2992 RMK AO2 P0001 T10041010,,,4700.0,,,30.18,26.23,E,29.27,29.54,,Light Snow
KIGQ,03/17/2018 12:35 UTC,29.92,31.46,30.2,95.01,9.22,80.0,,20.0,,0.01,,502.0,654.0,,,7.0,,KIGQ 171235Z AUTO 08008KT 7SM -SN SCT050 OVC065 00/M01 A2992 RMK AO2 P0001 T10031010,,,6500.0,,,30.18,25.81,E,29.27,29.53,,Light Snow
KIGQ,03/17/2018 12:55 UTC,29.92,31.64,30.38,95.02,8.05,70.0,,20.0,704.0,0.01,,452.0,553.0,,,7.0,,KIGQ 171255Z AUTO 07007KT 7SM -SN SCT045 BKN055 OVC070 00/M01  A2992 RMK AO2 P0001 T10021009,,,5500.0,,,30.36,26.65,ENE,29.27,29.53,,Light Snow
KIGQ,03/17/2018 13:15 UTC,29.92,31.64,30.74,96.42,8.05,60.0,,20.0,554.0,,,433.0,493.0,,,7.0,,KIGQ 171315Z AUTO 06007KT 7SM -SN BKN043 BKN049 OVC055 00/M01  A2992 RMK AO2 T10021007,,,4300.0,,,30.72,26.65,ENE,29.27,29.53,,Light Snow
KIGQ,03/17/2018 13:35 UTC,29.92,31.82,31.1,97.13,5.75,60.0,,20.0,494.0,,,383.0,433.0,,,7.0,,KIGQ 171335Z AUTO 06005KT 7SM -SN BKN038 BKN043 OVC049 00/00 A2992 RMK AO2 T10011005,,,3800.0,,,31.09,,ENE,29.27,29.52,,Light Snow
KIGQ,03/17/2018 13:55 UTC,29.93,32.0,31.1,96.43,4.61,70.0,,41.0,,,,92.0,384.0,,,7.0,,KIGQ 171355Z AUTO 07004KT 7SM UP SCT009 OVC038 00/00 A2993 RMK AO2  T00001005,,,3800.0,,,31.09,,ENE,29.28,29.53,,Unknown Precip
KIGQ,03/17/2018 14:15 UTC,29.93,32.0,31.1,96.43,5.75,60.0,,20.0,,,,103.0,384.0,,,10.0,,KIGQ 171415Z AUTO 06005KT 10SM -SN BKN010 OVC038 00/00 A2993 RMK AO2 T00001005,,,1000.0,,,31.09,,ENE,29.28,29.53,,Light Snow
KIGQ,03/17/2018 14:35 UTC,29.93,32.0,31.64,98.56,5.75,70.0,,,,,,104.0,,,,10.0,,KIGQ 171435Z AUTO 07005KT 10SM OVC010 00/00 A2993 RMK AO2  T00001002,,,1000.0,,,31.63,,ENE,29.28,29.52,,Overcast
KIGQ,03/17/2018 14:55 UTC,29.92,32.0,31.64,98.56,6.91,50.0,,,,,0.01,104.0,,,,10.0,,KIGQ 171455Z AUTO 05006KT 10SM OVC010 00/00 A2992 RMK AO2 60001  T00001002,,,1000.0,,,31.63,,NE,29.27,29.51,,Overcast
KIGQ,03/17/2018 15:15 UTC,29.92,32.54,31.64,96.43,8.05,70.0,,,,,,104.0,,,,10.0,,KIGQ 171515Z AUTO 07007KT 10SM OVC010 00/00 A2992 RMK AO2  T00031002,,,1000.0,,,31.62,27.71,ENE,29.27,29.51,,Overcast
KIGQ,03/17/2018 15:35 UTC,29.92,33.08,31.82,95.05,9.22,60.0,,,,,,103.0,344.0,,,10.0,,KIGQ 171535Z AUTO 06008KT 10SM BKN010 OVC034 01/00 A2992 RMK AO2  T00061001,,,1000.0,,,31.8,27.73,ENE,29.27,29.5,,Overcast
KIGQ,03/17/2018 15:55 UTC,29.92,33.8,31.28,90.35,9.22,60.0,,,704.0,,,122.0,343.0,,,10.0,,KIGQ 171555Z AUTO 06008KT 10SM SCT012 BKN034 OVC070 01/00 A2992 RMK AO2 T00101004,,,3400.0,,,31.24,28.59,ENE,29.27,29.5,,Overcast
KIGQ,03/17/2018 16:15 UTC,29.93,34.7,31.64,88.44,6.91,80.0,,,1203.0,,,342.0,703.0,,,10.0,,KIGQ 171615Z AUTO 08006KT 10SM SCT034 BKN070 BKN120 02/00 A2993 RMK AO2 T00151002,,,7000.0,,,31.59,,E,29.28,29.5,,Mostly Cloudy
KIGQ,03/17/2018 16:35 UTC,29.93,35.6,31.1,83.49,8.05,80.0,,,,,,703.0,1203.0,,,10.0,,KIGQ 171635Z AUTO 08007KT 10SM BKN070 BKN120 02/00 A2993 RMK AO2  T00201005,,,7000.0,,,31.03,31.3,E,29.28,29.5,,Mostly Cloudy
KIGQ,03/17/2018 16:55 UTC,29.94,35.6,30.38,81.08,9.22,70.0,,,,,,703.0,1204.0,,,10.0,,KIGQ 171655Z AUTO 07008KT 10SM BKN070 OVC120 02/M01 A2994 RMK AO2  T00201009,,,7000.0,,,30.3,30.72,ENE,29.29,29.53,,Overcast
KIGQ,03/17/2018 17:15 UTC,29.95,35.6,29.84,79.32,8.05,50.0,,,,,,704.0,,,,10.0,,KIGQ 171715Z AUTO 05007KT 10SM OVC070 02/M01 A2995 RMK AO2  T00201012,,,7000.0,,,29.75,31.3,NE,29.3,29.54,,Overcast
KIGQ,03/17/2018 17:35 UTC,29.95,35.6,28.22,74.23,8.05,60.0,,,,,,292.0,704.0,,,10.0,,KIGQ 171735Z AUTO 06007KT 10SM SCT029 OVC070 02/M02 A2995 RMK AO2  T00201021,,,7000.0,,,28.11,31.3,ENE,29.3,29.57,,Overcast
KIGQ,03/17/2018 17:55 UTC,29.95,34.88,28.04,75.82,9.22,20.0,,,,,,312.0,554.0,0.01,,10.0,,KIGQ 171755Z AUTO 02008KT 10SM SCT031 OVC055 02/M02 A2995 RMK AO2  60001 T00161022 10021 21005,35.78,31.1,5500.0,,,27.94,29.87,NNE,29.3,29.57,,Overcast
KIGQ,03/17/2018 18:15 UTC,29.95,35.06,28.04,75.28,9.22,30.0,,,,,,333.0,554.0,,,10.0,,KIGQ 171815Z AUTO 03008KT 10SM BKN033 OVC055 02/M02 A2995 RMK AO2  T00171022,,,3300.0,,,27.93,30.08,NNE,29.3,29.57,,Overcast
KIGQ,03/17/2018 18:35 UTC,29.95,36.5,28.4,72.16,6.91,30.0,,,804.0,,,332.0,653.0,,,10.0,,KIGQ 171835Z AUTO 03006KT 10SM SCT033 BKN065 OVC080 03/M02 A2995 RMK AO2 T00251020,,,6500.0,,,28.28,,NNE,29.3,29.56,,Overcast
KIGQ,03/17/2018 18:55 UTC,29.95,37.4,28.58,70.16,6.91,60.0,,,,,,653.0,754.0,,,10.0,,KIGQ 171855Z AUTO 06006KT 10SM BKN065 OVC075 03/M02 A2995 RMK AO2  T00301019,,,6500.0,,,28.45,,ENE,29.3,29.55,,Overcast
KIGQ,03/17/2018 19:15 UTC,29.95,37.58,27.32,66.15,5.75,40.0,,,,,,654.0,,,,10.0,,KIGQ 171915Z AUTO 04005KT 10SM OVC065 03/M03 A2995 RMK AO2  T00311026,,,6500.0,,,27.18,,NE,29.3,29.57,,Overcast
KIGQ,03/17/2018 19:35 UTC,29.95,38.48,26.96,62.91,6.91,50.0,,,,,,652.0,854.0,,,10.0,,KIGQ 171935Z AUTO 05006KT 10SM SCT065 OVC085 04/M03 A2995 RMK AO2  T00361028,,,8500.0,,,26.8,,NE,29.3,29.57,,Overcast
KIGQ,03/17/2018 19:55 UTC,29.94,38.66,26.24,60.63,9.22,40.0,,,,,,854.0,,,,10.0,,KIGQ 171955Z AUTO 04008KT 10SM OVC085 04/M03 A2994 RMK AO2  T00371032,,,8500.0,,,26.07,34.35,NE,29.29,29.57,,Overcast
KIGQ,03/17/2018 20:15 UTC,29.94,39.56,25.88,57.67,8.05,30.0,,,,,,954.0,,,,10.0,,KIGQ 172015Z AUTO 03007KT 360V070 10SM OVC095 04/M03 A2994 RMK AO2  T00421034,,,9500.0,,,25.7,35.96,NNE,29.29,29.57,,Overcast
KIGQ,03/17/2018 20:35 UTC,29.94,39.56,27.5,61.67,6.91,10.0,,,,,,954.0,,,,10.0,,KIGQ 172035Z AUTO 01006KT 10SM OVC095 04/M02 A2994 RMK AO2  T00421025,,,9500.0,,,27.34,,N,29.29,29.54,,Overcast
KIGQ,03/17/2018 20:55 UTC,29.94,41.54,27.32,56.69,3.44,10.0,,,,,,952.0,,,,10.0,,KIGQ 172055Z AUTO 01003KT 10SM SCT095 05/M03 A2994 RMK AO2  T00531026,,,,,,27.14,,N,29.29,29.53,,Partly Cloudy
KIGQ,03/17/2018 21:15 UTC,29.95,41.54,27.68,57.53,8.05,40.0,,,,,,1.0,,,,10.0,,KIGQ 172115Z AUTO 04007KT 10SM CLR 05/M02 A2995 RMK AO2  T00531024,,,,,,27.51,38.28,NE,29.3,29.54,,Clear
KIGQ,03/17/2018 21:35 UTC,29.95,40.64,28.58,61.82,9.22,20.0,,,,,,1.0,,,,10.0,,KIGQ 172135Z AUTO 02008KT 10SM CLR 05/M02 A2995 RMK AO2  T00481019,,,,,,28.42,36.7,NNE,29.3,29.53,,Clear
KIGQ,03/17/2018 21:55 UTC,29.95,40.46,29.12,63.64,8.05,20.0,,,,,,1.0,,,,10.0,,KIGQ 172155Z AUTO 02007KT 10SM CLR 05/M02 A2995 RMK AO2  T00471016,,,,,,28.97,37.01,NNE,29.3,29.52,,Clear
KIGQ,03/17/2018 22:15 UTC,29.95,39.56,27.5,61.67,9.22,10.0,,,,,,1.0,,,,10.0,,KIGQ 172215Z AUTO 01008KT 10SM CLR 04/M02 A2995 RMK AO2  T00421025,,,,,,27.34,35.42,N,29.3,29.55,,Clear
KIGQ,03/17/2018 22:35 UTC,29.96,39.56,27.32,61.21,5.75,360.0,,,,,,1.0,,,,10.0,,KIGQ 172235Z AUTO 36005KT 10SM CLR 04/M03 A2996 RMK AO2  T00421026,,,,,,27.16,,N,29.31,29.57,,Clear
KIGQ,03/17/2018 22:55 UTC,29.96,39.38,27.14,61.19,8.05,10.0,,,,,,1.0,,,,10.0,,KIGQ 172255Z AUTO 01007KT 10SM CLR 04/M03 A2996 RMK AO2  T00411027,,,,,,26.98,35.74,N,29.31,29.57,,Clear
KIGQ,03/17/2018 23:15 UTC,29.97,38.3,28.04,66.24,5.75,30.0,,,,,,1.0,,,,10.0,,KIGQ 172315Z AUTO 03005KT 10SM CLR 04/M02 A2997 RMK AO2  T00351022,,,,,,27.9,,NNE,29.32,29.57,,Clear
KIGQ,03/17/2018 23:35 UTC,29.97,37.4,28.22,69.13,6.91,30.0,,,,,,1.0,,,,10.0,,KIGQ 172335Z AUTO 03006KT 10SM CLR 03/M02 A2997 RMK AO2  T00301021,,,,,,28.09,,NNE,29.32,29.58,,Clear
KIGQ,03/17/2018 23:55 UTC,29.99,36.14,28.4,73.2,6.91,30.0,,,,,,1.0,,,,10.0,,KIGQ 172355Z AUTO 03006KT 10SM CLR 02/M02 A2999 RMK AO2 T00231020  10055 20015,41.9,34.7,,,,28.29,,NNE,29.34,29.6,,Clear
KIGQ,03/18/2018 00:15 UTC,30.0,35.06,28.04,75.28,6.91,10.0,,,,,,1.0,,,,10.0,,KIGQ 180015Z AUTO 01006KT 10SM CLR 02/M02 A3000 RMK AO2  T00171022,,,,,,27.93,,N,29.35,29.62,,Clear
KIGQ,03/18/2018 00:35 UTC,30.0,34.16,28.4,79.19,0.0,0.0,,,,,,1.0,,,,10.0,,KIGQ 180035Z AUTO 00000KT 10SM CLR 01/M02 A3000 RMK AO2  T00121020,,,,,,28.31,,N,29.35,29.62,,Clear
KIGQ,03/18/2018 00:55 UTC,30.01,33.8,28.4,80.34,0.0,0.0,,,,,,1.0,,,,10.0,,KIGQ 180055Z AUTO 00000KT 10SM CLR 01/M02 A3001 RMK AO2  T00101020,,,,,,28.31,,N,29.36,29.64,,Clear
KIGQ,03/18/2018 01:15 UTC,30.01,33.44,28.22,80.91,0.0,0.0,,,,,,1.0,,,,10.0,,KIGQ 180115Z AUTO 00000KT 10SM CLR 01/M02 A3001 RMK AO2  T00081021,,,,,,28.14,,N,29.36,29.64,,Clear
KIGQ,03/18/2018 01:35 UTC,30.02,33.08,28.22,82.09,0.0,0.0,,,,,,1.0,,,,10.0,,KIGQ 180135Z AUTO 00000KT 10SM CLR 01/M02 A3002 RMK AO2  T00061021,,,,,,28.14,,N,29.37,29.65,,Clear
KIGQ,03/18/2018 01:55 UTC,30.03,33.08,28.22,82.09,0.0,0.0,,,,,,1.0,,,,10.0,,KIGQ 180155Z AUTO 00000KT 10SM CLR 01/M02 A3003 RMK AO2  T00061021,,,,,,28.14,,N,29.38,29.66,,Clear
KIGQ,03/18/2018 02:15 UTC,30.03,33.08,28.22,82.09,0.0,0.0,,,,,,1.0,,,,10.0,,KIGQ 180215Z AUTO 00000KT 10SM CLR 01/M02 A3003 RMK AO2  T00061021,,,,,,28.14,,N,29.38,29.66,,Clear
KIGQ,03/18/2018 02:35 UTC,30.03,29.48,26.6,88.83,0.0,0.0,,,,,,1.0,,,,10.0,,KIGQ 180235Z AUTO 00000KT 10SM CLR M01/M03 A3003 RMK AO2  T10141030,,,,,,26.55,,N,29.38,29.71,,Clear
KIGQ,03/18/2018 02:55 UTC,30.04,28.4,25.52,88.78,0.0,0.0,,,,,,1.0,,,,10.0,,KIGQ 180255Z AUTO 00000KT 10SM CLR M02/M04 A3004 RMK AO2  T10201036,,,,,,25.47,,N,29.39,29.74,,Clear
KIGQ,03/18/2018 03:15 UTC,30.04,25.88,25.34,97.78,0.0,0.0,,,,,,1.0,,,,10.0,,KIGQ 180315Z AUTO 00000KT 10SM CLR M03/M04 A3004 RMK AO2  T10341037,,,,,,25.33,,N,29.39,29.75,,Clear
KIGQ,03/18/2018 03:35 UTC,30.04,27.14,26.42,97.07,0.0,0.0,,,,,,1.0,,,,10.0,,KIGQ 180335Z AUTO 00000KT 10SM CLR M03/M03 A3004 RMK AO2  T10271031,,,,,,26.41,,N,29.39,29.73,,Clear
KIGQ,03/18/2018 03:55 UTC,30.04,25.7,25.16,97.78,0.0,0.0,,,,,,1.0,,,,10.0,,KIGQ 180355Z AUTO 00000KT 10SM CLR M03/M04 A3004 RMK AO2  T10351038,,,,,,25.15,,N,29.39,29.76,,Clear
KIGQ,03/18/2018 04:15 UTC,30.04,25.34,24.8,97.77,0.0,0.0,,,,,,1.0,,,,10.0,,KIGQ 180415Z AUTO 00000KT 10SM CLR M04/M04 A3004 RMK AO2  T10371040,,,,,,24.79,,N,29.39,29.76,,Clear
KIGQ,03/18/2018 04:35 UTC,30.04,25.7,25.7,100.0,0.0,0.0,,,,,,1.0,,,,10.0,,KIGQ 180435Z AUTO 00000KT 10SM CLR M03/M03 A3004 RMK AO2  T10351035,,,,,,25.7,,N,29.39,29.75,,Clear
KIGQ,03/18/2018 04:55 UTC,30.04,25.7,25.7,100.0,0.0,0.0,,,,,,1.0,,,,10.0,,KIGQ 180455Z AUTO 00000KT 10SM CLR M03/M03 A3004 RMK AO2  T10351035,,,,,,25.7,,N,29.39,29.75,,Clear
KIGQ,03/18/2018 05:15 UTC,30.04,25.7,25.52,99.25,0.0,0.0,,,,,,1.0,,,,10.0,,KIGQ 180515Z AUTO 00000KT 10SM CLR M03/M04 A3004 RMK AO2  T10351036,,,,,,25.52,,N,29.39,29.75,,Clear
KIGQ,03/18/2018 05:35 UTC,30.04,26.42,25.34,95.61,0.0,0.0,,,,,,1.0,,,,10.0,,KIGQ 180535Z AUTO 00000KT 10SM CLR M03/M04 A3004 RMK AO2  T10311037,,,,,,25.32,,N,29.39,29.75,,Clear
KIGQ,03/18/2018 05:55 UTC,30.05,25.7,24.98,97.05,0.0,0.0,,,,,,1.0,,,,10.0,,KIGQ 180555Z AUTO 00000KT 10SM CLR M03/M04 A3005 RMK AO2 T10351039  10022 21039 400551039,35.96,24.98,,41.9,24.98,24.97,,N,29.4,29.77,,Clear
KIGQ,03/18/2018 06:15 UTC,30.05,23.18,23.18,100.0,0.0,0.0,,,,,,1.0,,,,10.0,,KIGQ 180615Z AUTO 00000KT 10SM CLR M05/M05 A3005 RMK AO2  T10491049,,,,,,23.18,,N,29.4,29.8,,Clear
KIGQ,03/18/2018 06:35 UTC,30.05,24.08,24.08,100.0,0.0,0.0,,,,,,1.0,,,,10.0,,KIGQ 180635Z AUTO 00000KT 10SM CLR M04/M04 A3005 RMK AO2  T10441044,,,,,,24.08,,N,29.4,29.79,,Clear
KIGQ,03/18/2018 06:55 UTC,30.06,23.72,23.72,100.0,0.0,0.0,,,,,,1.0,,,,10.0,,KIGQ 180655Z AUTO 00000KT 10SM CLR M05/M05 A3006 RMK AO2  T10461046,,,,,,23.72,,N,29.41,29.8,,Clear
KIGQ,03/18/2018 07:15 UTC,30.05,23.0,23.0,100.0,0.0,0.0,,,,,,1.0,,,,10.0,,KIGQ 180715Z AUTO 00000KT 10SM CLR M05/M05 A3005 RMK AO2  T10501050,,,,,,23.0,,N,29.4,29.8,,Clear
KIGQ,03/18/2018 07:35 UTC,30.05,22.82,22.82,100.0,0.0,0.0,,,,,,1.0,,,,10.0,,KIGQ 180735Z AUTO 00000KT 10SM CLR M05/M05 A3005 RMK AO2  T10511051,,,,,,22.82,,N,29.4,29.81,,Clear
KIGQ,03/18/2018 07:55 UTC,30.05,23.9,23.9,100.0,0.0,0.0,,,,,,1.0,,,,10.0,,KIGQ 180755Z AUTO 00000KT 10SM CLR M04/M04 A3005 RMK AO2  T10451045,,,,,,23.9,,N,29.4,29.79,,Clear
KIGQ,03/18/2018 08:15 UTC,30.05,22.64,22.64,100.0,0.0,0.0,,,,,,1.0,,,,10.0,,KIGQ 180815Z AUTO 00000KT 10SM CLR M05/M05 A3005 RMK AO2  T10521052,,,,,,22.64,,N,29.4,29.81,,Clear
KIGQ,03/18/2018 08:35 UTC,30.05,22.28,22.28,100.0,0.0,0.0,,,,,,1.0,,,,10.0,,KIGQ 180835Z AUTO 00000KT 10SM CLR M05/M05 A3005 RMK AO2  T10541054,,,,,,22.28,,N,29.4,29.81,,Clear
KIGQ,03/18/2018 08:55 UTC,30.05,23.72,23.72,100.0,0.0,0.0,,,,,,1.0,,,,10.0,,KIGQ 180855Z AUTO 00000KT 10SM CLR M05/M05 A3005 RMK AO2  T10461046,,,,,,23.72,,N,29.4,29.79,,Clear
KIGQ,03/18/2018 09:15 UTC,30.06,23.0,23.0,100.0,0.0,0.0,,,,,,1.0,,,,10.0,,KIGQ 180915Z AUTO 00000KT 10SM CLR M05/M05 A3006 RMK AO2  T10501050,,,,,,23.0,,N,29.41,29.81,,Clear
KIGQ,03/18/2018 09:35 UTC,30.06,22.28,22.28,100.0,0.0,0.0,,,,,,1.0,,,,10.0,,KIGQ 180935Z AUTO 00000KT 10SM CLR M05/M05 A3006 RMK AO2  T10541054,,,,,,22.28,,N,29.41,29.82,,Clear
KIGQ,03/18/2018 09:55 UTC,30.06,22.1,22.1,100.0,0.0,0.0,,,,,,1.0,,,,7.0,,KIGQ 180955Z AUTO 00000KT 7SM CLR M05/M05 A3006 RMK AO2  T10551055,,,,,,22.1,,N,29.41,29.83,,Clear
KIGQ,03/18/2018 10:15 UTC,30.07,23.0,23.0,100.0,0.0,0.0,,,,,,1.0,,,,10.0,,KIGQ 181015Z AUTO 00000KT 10SM CLR M05/M05 A3007 RMK AO2  T10501050,,,,,,23.0,,N,29.42,29.82,,Clear
KIGQ,03/18/2018 10:35 UTC,30.08,23.0,23.0,100.0,0.0,0.0,,,,,,1.0,,,,10.0,,KIGQ 181035Z AUTO 00000KT 10SM CLR M05/M05 A3008 RMK AO2  T10501050,,,,,,23.0,,N,29.43,29.83,,Clear
KIGQ,03/18/2018 10:55 UTC,30.08,21.56,21.56,100.0,0.0,0.0,,,,,,1.0,,,,10.0,,KIGQ 181055Z AUTO 00000KT 10SM CLR M06/M06 A3008 RMK AO2  T10581058,,,,,,21.56,,N,29.43,29.85,,Clear
KIGQ,03/18/2018 11:15 UTC,30.08,21.74,21.74,100.0,0.0,0.0,,,,,,1.0,,,,10.0,,KIGQ 181115Z AUTO 00000KT 10SM CLR M06/M06 A3008 RMK AO2  T10571057,,,,,,21.74,,N,29.43,29.85,,Clear
KIGQ,03/18/2018 11:35 UTC,30.08,22.1,22.1,100.0,0.0,0.0,,,,,,1.0,,,,10.0,,KIGQ 181135Z AUTO 00000KT 10SM CLR M05/M05 A3008 RMK AO2  T10551055,,,,,,22.1,,N,29.43,29.85,,Clear
KIGQ,03/18/2018 11:55 UTC,30.08,23.0,23.0,100.0,0.0,0.0,,,,,,1.0,,,0.01,10.0,,KIGQ 181155Z AUTO 00000KT 10SM CLR M05/M05 A3008 RMK AO2 70001  T10501050 11036 21066,25.52,20.12,,,,23.0,,N,29.43,29.83,,Clear
KIGQ,03/18/2018 12:15 UTC,30.09,22.82,22.28,97.75,0.0,0.0,,,,,,1.0,,,,10.0,,KIGQ 181215Z AUTO 00000KT 10SM CLR M05/M05 A3009 RMK AO2  T10511054,,,,,,22.27,,N,29.44,29.85,,Clear
KIGQ,03/18/2018 12:35 UTC,30.1,23.0,22.64,98.49,0.0,0.0,,,,,,1.0,,,,10.0,,KIGQ 181235Z AUTO 00000KT 10SM CLR M05/M05 A3010 RMK AO2  T10501052,,,,,,22.63,,N,29.45,29.86,,Clear
KIGQ,03/18/2018 12:55 UTC,30.1,25.16,24.44,97.04,0.0,0.0,,,,,,1.0,,,,10.0,,KIGQ 181255Z AUTO 00000KT 10SM CLR M04/M04 A3010 RMK AO2  T10381042,,,,,,24.43,,N,29.45,29.83,,Clear
KIGQ,03/18/2018 13:15 UTC,30.1,27.32,26.96,98.52,0.0,0.0,,,,,,1.0,,,,10.0,,KIGQ 181315Z AUTO 00000KT 10SM CLR M03/M03 A3010 RMK AO2  T10261028,,,,,,26.95,,N,29.45,29.79,,Clear
KIGQ,03/18/2018 13:35 UTC,30.09,30.02,28.58,94.28,0.0,0.0,,,,,,1.0,,,,10.0,,KIGQ 181335Z AUTO 00000KT 10SM CLR M01/M02 A3009 RMK AO2  T10111019,,,,,,28.55,,N,29.44,29.74,,Clear
KIGQ,03/18/2018 13:55 UTC,30.09,33.26,30.74,90.33,0.0,0.0,,,,,,1.0,,,,10.0,,KIGQ 181355Z AUTO 00000KT 10SM CLR 01/M01 A3009 RMK AO2  T00071007,,,,,,30.7,,N,29.44,29.69,,Clear
KIGQ,03/18/2018 14:15 UTC,30.09,36.68,32.0,82.96,0.0,0.0,,,,,,1.0,,,,7.0,,KIGQ 181415Z AUTO 00000KT 7SM CLR 03/00 A3009 RMK AO2  T00260000,,,,,,31.93,,N,29.44,29.65,,Clear
KIGQ,03/18/2018 14:35 UTC,30.09,39.38,32.72,76.81,4.61,260.0,,,,,,1.0,,,,10.0,,KIGQ 181435Z AUTO 26004KT 10SM CLR 04/00 A3009 RMK AO2  T00410004,,,,,,32.62,,W,29.44,29.62,,Clear
KIGQ,03/18/2018 14:55 UTC,30.09,41.0,32.72,72.13,5.75,260.0,,,,,,1.0,,,,10.0,,KIGQ 181455Z AUTO 26005KT 10SM CLR 05/00 A3009 RMK AO2  T00500004,,,,,,32.61,,W,29.44,29.61,,Clear
KIGQ,03/18/2018 15:15 UTC,30.08,42.44,31.64,65.32,4.61,270.0,,,,,,1.0,,,,10.0,,KIGQ 181515Z AUTO 27004KT 10SM CLR 06/00 A3008 RMK AO2  T00581002,,,,,,31.5,,W,29.43,29.6,,Clear
KIGQ,03/18/2018 15:35 UTC,30.08,44.06,30.56,58.76,0.0,0.0,,,,,,1.0,,,,10.0,,KIGQ 181535Z AUTO 00000KT 10SM CLR 07/M01 A3008 RMK AO2  T00671008,,,,,,30.4,,N,29.43,29.61,,Clear
KIGQ,03/18/2018 15:55 UTC,30.08,45.5,30.56,55.62,0.0,0.0,,,,,,1.0,,,,10.0,,KIGQ 181555Z AUTO 00000KT 10SM CLR 08/M01 A3008 RMK AO2  T00751008,,,,,,30.39,,N,29.43,29.6,,Clear
KIGQ,03/18/2018 16:15 UTC,30.08,46.58,28.94,49.98,0.0,0.0,,,,,,1.0,,,,10.0,,KIGQ 181615Z AUTO 00000KT 10SM CLR 08/M02 A3008 RMK AO2  T00811017,,,,,,28.75,,N,29.43,29.62,,Clear
KIGQ,03/18/2018 16:35 UTC,30.07,47.48,30.56,51.62,0.0,0.0,,,,,,1.0,,,,10.0,,KIGQ 181635Z AUTO 00000KT 10SM CLR 09/M01 A3007 RMK AO2  T00861008,,,,,,30.38,,N,29.42,29.58,,Clear
KIGQ,03/18/2018 16:55 UTC,30.06,48.2,30.92,50.98,0.0,0.0,,,,,,1.0,,,,10.0,,KIGQ 181655Z AUTO 00000KT 10SM CLR 09/M01 A3006 RMK AO2  T00901006,,,,,,30.74,,N,29.41,29.56,,Clear
KIGQ,03/18/2018 17:15 UTC,30.05,48.74,28.58,45.41,0.0,0.0,,,,,,1.0,,,,10.0,,KIGQ 181715Z AUTO 00000KT 10SM CLR 09/M02 A3005 RMK AO2  T00931019,,,,,,28.38,,N,29.4,29.59,,Clear
KIGQ,03/18/2018 17:35 UTC,30.05,49.46,29.12,45.2,0.0,0.0,,,,,,1.0,,,,10.0,,KIGQ 181735Z AUTO 00000KT 10SM CLR 10/M02 A3005 RMK AO2  T00971016,,,,,,28.93,,N,29.4,29.57,,Clear
KIGQ,03/18/2018 17:55 UTC,30.04,50.36,30.38,46.02,0.0,0.0,,,,,,1.0,,,,10.0,,KIGQ 181755Z AUTO 00000KT 10SM CLR 10/M01 A3004 RMK AO2 T01021009  10103 21055,50.54,22.1,,,,30.19,,N,29.39,29.54,,Clear
KIGQ,03/18/2018 18:15 UTC,30.04,51.44,30.2,43.89,0.0,0.0,,,,,,1.0,,,,10.0,,KIGQ 181815Z AUTO 00000KT 10SM CLR 11/M01 A3004 RMK AO2  T01081010,,,,,,30.01,,N,29.39,29.53,,Clear
KIGQ,03/18/2018 18:35 UTC,30.03,51.44,28.76,41.38,0.0,0.0,,,,,,1.0,,,,10.0,,KIGQ 181835Z AUTO 00000KT 10SM CLR 11/M02 A3003 RMK AO2  T01081018,,,,,,28.56,,N,29.38,29.55,,Clear
KIGQ,03/18/2018 18:55 UTC,30.01,51.44,28.94,41.69,0.0,0.0,,,,,,1.0,,,,10.0,,KIGQ 181855Z AUTO 00000KT 10SM CLR 11/M02 A3001 RMK AO2  T01081017,,,,,,28.74,,N,29.36,29.53,,Clear
KIGQ,03/18/2018 19:15 UTC,30.0,52.52,29.12,40.36,0.0,0.0,,,,,,1.0,,,,10.0,,KIGQ 181915Z AUTO 00000KT 10SM CLR 11/M02 A3000 RMK AO2  T01141016,,,,,,28.92,,N,29.35,29.51,,Clear
KIGQ,03/18/2018 19:35 UTC,29.99,52.7,28.58,39.22,0.0,0.0,,,,,,1.0,,,,10.0,,KIGQ 181935Z AUTO 00000KT 10SM CLR 12/M02 A2999 RMK AO2  T01151019,,,,,,28.38,,N,29.34,29.5,,Clear
KIGQ,03/18/2018 19:55 UTC,29.98,52.52,29.12,40.36,0.0,0.0,,,,,,1.0,,,,10.0,,KIGQ 181955Z AUTO 00000KT 10SM CLR 11/M02 A2998 RMK AO2  T01141016,,,,,,28.92,,N,29.33,29.49,,Clear
KIGQ,03/18/2018 20:15 UTC,29.98,53.6,30.38,40.84,0.0,0.0,,,,,,1.0,,,,10.0,,KIGQ 182015Z AUTO 00000KT 10SM CLR 12/M01 A2998 RMK AO2  T01201009,,,,,,30.19,,N,29.33,29.46,,Clear
KIGQ,03/18/2018 20:35 UTC,29.97,53.6,29.66,39.66,0.0,0.0,,,,,,1.0,,,,10.0,,KIGQ 182035Z AUTO 00000KT 10SM CLR 12/M01 A2997 RMK AO2  T01201013,,,,,,29.47,,N,29.32,29.46,,Clear
KIGQ,03/18/2018 20:55 UTC,29.97,53.6,28.94,38.51,0.0,0.0,,,,,,1.0,,,,10.0,,KIGQ 182055Z AUTO 00000KT 10SM CLR 12/M02 A2997 RMK AO2  T01201017,,,,,,28.75,,N,29.32,29.47,,Clear
KIGQ,03/18/2018 21:15 UTC,29.96,52.88,28.76,39.25,0.0,0.0,,,,,,1.0,,,,10.0,,KIGQ 182115Z AUTO 00000KT 10SM CLR 12/M02 A2996 RMK AO2  T01161018,,,,,,28.56,,N,29.31,29.47,,Clear
KIGQ,03/18/2018 21:35 UTC,29.96,53.96,30.38,40.3,0.0,0.0,,,,,,1.0,,,,10.0,,KIGQ 182135Z AUTO 00000KT 10SM CLR 12/M01 A2996 RMK AO2  T01221009,,,,,,30.19,,N,29.31,29.44,,Clear
KIGQ,03/18/2018 21:55 UTC,29.95,53.78,28.58,37.69,0.0,0.0,,,,,,1.0,,,,10.0,,KIGQ 182155Z AUTO 00000KT 10SM CLR 12/M02 A2995 RMK AO2  T01211019,,,,,,28.38,,N,29.3,29.46,,Clear
KIGQ,03/18/2018 22:15 UTC,29.95,53.06,28.94,39.28,0.0,0.0,,,,,,1.0,,,,10.0,,KIGQ 182215Z AUTO 00000KT 10SM CLR 12/M02 A2995 RMK AO2  T01171017,,,,,,28.75,,N,29.3,29.46,,Clear
KIGQ,03/18/2018 22:35 UTC,29.95,52.34,29.3,40.93,0.0,0.0,,,,,,1.0,,,,10.0,,KIGQ 182235Z AUTO 00000KT 10SM CLR 11/M01 A2995 RMK AO2  T01131015,,,,,,29.11,,N,29.3,29.45,,Clear
KIGQ,03/18/2018 22:55 UTC,29.93,50.18,30.74,47.01,0.0,0.0,,,,,,1.0,,,,10.0,,KIGQ 182255Z AUTO 00000KT 10SM CLR 10/M01 A2993 RMK AO2  T01011007,,,,,,30.56,,N,29.28,29.42,,Clear
KIGQ,03/18/2018 23:15 UTC,29.94,50.54,31.46,47.76,0.0,0.0,,,,,,1.0,,,,10.0,,KIGQ 182315Z AUTO 00000KT 10SM CLR 10/00 A2994 RMK AO2  T01031003,,,,,,31.28,,N,29.29,29.41,,Clear
KIGQ,03/18/2018 23:35 UTC,29.94,48.56,31.28,51.04,0.0,0.0,,,,,,1.0,,,,10.0,,KIGQ 182335Z AUTO 00000KT 10SM CLR 09/00 A2994 RMK AO2  T00921004,,,,,,31.1,,N,29.29,29.43,,Clear
KIGQ,03/18/2018 23:55 UTC,29.93,47.66,29.12,48.35,0.0,0.0,,,,,,1.0,,,,10.0,,KIGQ 182355Z AUTO 00000KT 10SM CLR 09/M02 A2993 RMK AO2 T00871016  10123 20087,54.14,47.66,,,,28.93,,N,29.28,29.46,,Clear
KIGQ,03/19/2018 00:15 UTC,29.94,43.88,28.4,54.17,0.0,0.0,,,,,,1.0,,,,10.0,,KIGQ 190015Z AUTO 00000KT 10SM CLR 07/M02 A2994 RMK AO2  T00661020,,,,,,28.22,,N,29.29,29.5,,Clear
KIGQ,03/19/2018 00:35 UTC,29.94,46.58,28.94,49.98,0.0,0.0,,,,,,1.0,,,,10.0,,KIGQ 190035Z AUTO 00000KT 10SM CLR 08/M02 A2994 RMK AO2  T00811017,,,,,,28.75,,N,29.29,29.48,,Clear
KIGQ,03/19/2018 00:55 UTC,29.94,46.04,28.04,49.16,0.0,0.0,,,,,,1.0,,,,10.0,,KIGQ 190055Z AUTO 00000KT 10SM CLR 08/M02 A2994 RMK AO2  T00781022,,,,,,27.84,,N,29.29,29.5,,Clear
KIGQ,03/19/2018 01:15 UTC,29.94,45.14,27.14,49.02,0.0,0.0,,,,,,1.0,,,,10.0,,KIGQ 190115Z AUTO 00000KT 10SM CLR 07/M03 A2994 RMK AO2  T00731027,,,,,,26.94,,N,29.29,29.52,,Clear
KIGQ,03/19/2018 01:35 UTC,29.95,44.06,27.14,51.08,0.0,0.0,,,,,,1.0,,,,10.0,,KIGQ 190135Z AUTO 00000KT 10SM CLR 07/M03 A2995 RMK AO2  T00671027,,,,,,26.95,,N,29.3,29.53,,Clear
KIGQ,03/19/2018 01:55 UTC,29.94,42.44,27.32,54.75,0.0,0.0,,,,,,1.0,,,,10.0,,KIGQ 190155Z AUTO 00000KT 10SM CLR 06/M03 A2994 RMK AO2  T00581026,,,,,,27.14,,N,29.29,29.53,,Clear
KIGQ,03/19/2018 02:15 UTC,29.95,41.36,28.4,59.68,0.0,0.0,,,,,,1.0,,,,10.0,,KIGQ 190215Z AUTO 00000KT 10SM CLR 05/M02 A2995 RMK AO2  T00521020,,,,,,28.24,,N,29.3,29.53,,Clear
KIGQ,03/19/2018 02:35 UTC,29.94,41.18,28.4,60.09,0.0,0.0,,,,,,1.0,,,,10.0,,KIGQ 190235Z AUTO 00000KT 10SM CLR 05/M02 A2994 RMK AO2  T00511020,,,,,,28.24,,N,29.29,29.52,,Clear
KIGQ,03/19/2018 02:55 UTC,29.93,38.3,28.58,67.72,0.0,0.0,,,,,,1.0,,,,10.0,,KIGQ 190255Z AUTO 00000KT 10SM CLR 04/M02 A2993 RMK AO2  T00351019,,,,,,28.44,,N,29.28,29.52,,Clear
KIGQ,03/19/2018 03:15 UTC,29.94,36.68,29.66,75.44,0.0,0.0,,,,,,1.0,,,,10.0,,KIGQ 190315Z AUTO 00000KT 10SM CLR 03/M01 A2994 RMK AO2  T00261013,,,,,,29.56,,N,29.29,29.53,,Clear
KIGQ,03/19/2018 03:35 UTC,29.92,35.96,30.56,80.52,0.0,0.0,,,,,,1.0,,,,10.0,,KIGQ 190335Z AUTO 00000KT 10SM CLR 02/M01 A2992 RMK AO2  T00221008,,,,,,30.48,,N,29.27,29.5,,Clear
KIGQ,03/19/2018 03:55 UTC,29.92,35.24,29.84,80.46,0.0,0.0,,,,,,1.0,,,,10.0,,KIGQ 190355Z AUTO 00000KT 10SM CLR 02/M01 A2992 RMK AO2  T00181012,,,,,,29.76,,N,29.27,29.52,,Clear
KIGQ,03/19/2018 04:15 UTC,29.92,33.62,29.48,84.58,0.0,0.0,,,,,,1.0,,,,10.0,,KIGQ 190415Z AUTO 00000KT 10SM CLR 01/M01 A2992 RMK AO2  T00091014,,,,,,29.41,,N,29.27,29.53,,Clear
KIGQ,03/19/2018 04:35 UTC,29.91,34.34,29.84,83.4,0.0,0.0,,,,,,1.0,,,,10.0,,KIGQ 190435Z AUTO 00000KT 10SM CLR 01/M01 A2991 RMK AO2  T00131012,,,,,,29.77,,N,29.26,29.51,,Clear
KIGQ,03/19/2018 04:55 UTC,29.92,34.52,29.12,80.4,0.0,0.0,,,,,,1.0,,,,10.0,,KIGQ 190455Z AUTO 00000KT 10SM CLR 01/M02 A2992 RMK AO2  T00141016,,,,,,29.04,,N,29.27,29.53,,Clear
KIGQ,03/19/2018 05:15 UTC,29.92,33.8,28.58,80.94,0.0,0.0,,,,,,1.0,,,,10.0,,KIGQ 190515Z AUTO 00000KT 10SM CLR 01/M02 A2992 RMK AO2  T00101019,,,,,,28.5,,N,29.27,29.54,,Clear
KIGQ,03/19/2018 05:35 UTC,29.92,36.5,27.14,68.51,0.0,0.0,,6.0,,,,1.0,,,,5.0,,KIGQ 190535Z AUTO 00000KT 5SM HZ CLR 03/M03 A2992 RMK AO2  T00251027,,,,,,27.0,,N,29.27,29.55,,Haze
KIGQ,03/19/2018 05:55 UTC,29.91,35.6,26.96,70.47,0.0,0.0,,,,,,1.0,,,,10.0,,KIGQ 190555Z AUTO 00000KT 10SM CLR 02/M03 A2991 RMK AO2 T00201028  10085 20005 401231066,47.3,32.9,,54.14,20.12,26.83,,N,29.26,29.54,,Clear
KIGQ,03/19/2018 06:15 UTC,29.92,34.7,26.96,73.04,0.0,0.0,,,,,,1.0,,,,10.0,,KIGQ 190615Z AUTO 00000KT 10SM CLR 02/M03 A2992 RMK AO2  T00151028,,,,,,26.84,,N,29.27,29.56,,Clear
KIGQ,03/19/2018 06:35 UTC,29.92,31.82,27.14,82.6,0.0,0.0,,,,,,1.0,,,,10.0,,KIGQ 190635Z AUTO 00000KT 10SM CLR 00/M03 A2992 RMK AO2  T10011027,,,,,,27.06,,N,29.27,29.57,,Clear
KIGQ,03/19/2018 06:55 UTC,29.92,31.1,27.86,87.61,0.0,0.0,,,,,,1.0,,,,10.0,,KIGQ 190655Z AUTO 00000KT 10SM CLR 00/M02 A2992 RMK AO2  T10051023,,,,,,27.81,,N,29.27,29.57,,Clear
KIGQ,03/19/2018 07:15 UTC,29.92,31.46,27.68,85.7,0.0,0.0,,,,,,1.0,,,,10.0,,KIGQ 190715Z AUTO 00000KT 10SM CLR 00/M02 A2992 RMK AO2  T10031024,,,,,,27.62,,N,29.27,29.57,,Clear
KIGQ,03/19/2018 07:35 UTC,29.93,29.3,26.6,89.49,0.0,0.0,,,,,,1.0,,,,10.0,,KIGQ 190735Z AUTO 00000KT 10SM CLR M01/M03 A2993 RMK AO2  T10151030,,,,,,26.55,,N,29.28,29.6,,Clear
KIGQ,03/19/2018 07:55 UTC,29.92,29.3,28.76,97.81,0.0,0.0,,,,,,1.0,,,,10.0,,KIGQ 190755Z AUTO 00000KT 10SM CLR M01/M02 A2992 RMK AO2  T10151018,,,,,,28.75,,N,29.27,29.57,,Clear
KIGQ,03/19/2018 08:15 UTC,29.92,31.46,27.14,83.81,0.0,0.0,,,,,,1.0,,,,10.0,,KIGQ 190815Z AUTO 00000KT 10SM CLR 00/M03 A2992 RMK AO2  T10031027,,,,,,27.07,,N,29.27,29.58,,Clear
KIGQ,03/19/2018 08:35 UTC,29.9,30.38,27.68,89.54,0.0,0.0,,,,,,1.0,,,,10.0,,KIGQ 190835Z AUTO 00000KT 10SM CLR M01/M02 A2990 RMK AO2  T10091024,,,,,,27.63,,N,29.25,29.55,,Clear
KIGQ,03/19/2018 08:55 UTC,29.9,31.1,28.58,90.24,0.0,0.0,,,,,,1.0,,,,10.0,,KIGQ 190855Z AUTO 00000KT 10SM CLR 00/M02 A2990 RMK AO2  T10051019,,,,,,28.54,,N,29.25,29.54,,Clear
KIGQ,03/19/2018 09:15 UTC,29.9,32.0,27.86,84.47,0.0,0.0,,,,,,1.0,,,,10.0,,KIGQ 190915Z AUTO 00000KT 10SM CLR 00/M02 A2990 RMK AO2  T00001023,,,,,,27.79,,N,29.25,29.54,,Clear
KIGQ,03/19/2018 09:35 UTC,29.91,31.28,27.86,86.97,0.0,0.0,,,,,,1.0,,,,10.0,,KIGQ 190935Z AUTO 00000KT 10SM CLR 00/M02 A2991 RMK AO2  T10041023,,,,,,27.8,,N,29.26,29.56,,Clear
KIGQ,03/19/2018 09:55 UTC,29.91,31.82,27.5,83.84,0.0,0.0,,,,,,1.0,,,,10.0,,KIGQ 190955Z AUTO 00000KT 10SM CLR 00/M02 A2991 RMK AO2  T10011025,,,,,,27.43,,N,29.26,29.56,,Clear
KIGQ,03/19/2018 10:15 UTC,29.91,31.28,27.32,85.05,0.0,0.0,,,,,,1.0,,,,10.0,,KIGQ 191015Z AUTO 00000KT 10SM CLR 00/M03 A2991 RMK AO2  T10041026,,,,,,27.25,,N,29.26,29.56,,Clear
KIGQ,03/19/2018 10:35 UTC,29.91,30.2,27.32,88.87,0.0,0.0,,,,,,1.0,,,,10.0,,KIGQ 191035Z AUTO 00000KT 10SM CLR M01/M03 A2991 RMK AO2  T10101026,,,,,,27.27,,N,29.26,29.57,,Clear
KIGQ,03/19/2018 10:55 UTC,29.91,30.92,28.04,88.9,0.0,0.0,,,,,,1.0,,,,10.0,,KIGQ 191055Z AUTO 00000KT 10SM CLR M01/M02 A2991 RMK AO2  T10061022,,,,,,27.99,,N,29.26,29.56,,Clear
KIGQ,03/19/2018 11:15 UTC,29.91,33.8,29.3,83.36,0.0,0.0,,,,,,1.0,,,,10.0,,KIGQ 191115Z AUTO 00000KT 10SM CLR 01/M01 A2991 RMK AO2  T00101015,,,,,,29.23,,N,29.26,29.52,,Clear
KIGQ,03/19/2018 11:35 UTC,29.91,33.8,29.66,84.59,3.44,30.0,,,,,,1.0,,,,10.0,,KIGQ 191135Z AUTO 03003KT 10SM CLR 01/M01 A2991 RMK AO2  T00101013,,,,,,29.59,,NNE,29.26,29.52,,Clear
KIGQ,03/19/2018 11:55 UTC,29.91,33.98,30.02,85.23,0.0,0.0,,,,,,1.0,,,,10.0,,KIGQ 191155Z AUTO 00000KT 10SM CLR 01/M01 A2991 RMK AO2 T00111011  10017 21023,35.06,27.86,,,,29.96,,N,29.26,29.51,,Clear
KIGQ,03/19/2018 12:15 UTC,29.91,33.8,29.84,85.22,5.75,40.0,,,,,,1.0,,,,10.0,,KIGQ 191215Z AUTO 04005KT 10SM CLR 01/M01 A2991 RMK AO2  T00101012,,,,,,29.78,,NE,29.26,29.51,,Clear
KIGQ,03/19/2018 12:35 UTC,29.92,34.52,28.76,79.22,0.0,0.0,,,,,,1.0,,,,10.0,,KIGQ 191235Z AUTO 00000KT 10SM CLR 01/M02 A2992 RMK AO2  T00141018,,,,,,28.67,,N,29.27,29.54,,Clear
KIGQ,03/19/2018 12:55 UTC,29.93,35.06,27.32,73.08,3.44,40.0,,,,,,1.0,,,,10.0,,KIGQ 191255Z AUTO 04003KT 10SM CLR 02/M03 A2993 RMK AO2  T00171026,,,,,,27.2,,NE,29.28,29.56,,Clear
KIGQ,03/19/2018 13:15 UTC,29.92,35.78,26.78,69.45,5.75,60.0,,,,,,1.0,,,,10.0,,KIGQ 191315Z AUTO 06005KT 10SM CLR 02/M03 A2992 RMK AO2  T00211029,,,,,,26.65,,ENE,29.27,29.55,,Clear
KIGQ,03/19/2018 13:35 UTC,29.92,35.96,26.96,69.47,6.91,70.0,,,,,,1.0,,,,10.0,,KIGQ 191335Z AUTO 07006KT 10SM CLR 02/M03 A2992 RMK AO2  T00221028,,,,,,26.83,,ENE,29.27,29.55,,Clear
KIGQ,03/19/2018 13:55 UTC,29.92,37.58,27.86,67.63,9.22,80.0,,,,,,1.0,,,,10.0,,KIGQ 191355Z AUTO 08008KT 10SM CLR 03/M02 A2992 RMK AO2  T00311023,,,,,,27.72,33.07,E,29.27,29.53,,Clear
KIGQ,03/19/2018 14:15 UTC,29.93,39.2,27.5,62.54,11.5,90.0,,,,,,1.0,,,,10.0,,KIGQ 191415Z AUTO 09010KT 10SM CLR 04/M02 A2993 RMK AO2  T00401025,,,,,,27.34,34.09,E,29.28,29.54,,Clear
KIGQ,03/19/2018 14:35 UTC,29.93,40.46,27.14,58.67,9.22,80.0,,,,,,1.0,,,,10.0,,KIGQ 191435Z AUTO 08008KT 10SM CLR 05/M03 A2993 RMK AO2  T00471027,,,,,,26.97,36.49,E,29.28,29.53,,Clear
KIGQ,03/19/2018 14:55 UTC,29.92,42.08,28.22,57.61,11.5,90.0,,,,,,1.0,,,,10.0,,KIGQ 191455Z AUTO 09010KT 10SM CLR 06/M02 A2992 RMK AO2  T00561021,,,,,,28.05,37.57,E,29.27,29.5,,Clear
KIGQ,03/19/2018 15:15 UTC,29.93,42.08,27.5,55.93,8.05,80.0,,,,,,1.0,,,,10.0,,KIGQ 191515Z AUTO 08007KT 10SM CLR 06/M02 A2993 RMK AO2  T00561025,,,,,,27.32,38.92,E,29.28,29.52,,Clear
KIGQ,03/19/2018 15:35 UTC,29.93,43.7,28.4,54.54,8.05,80.0,,,,,,1.0,,,,10.0,,KIGQ 191535Z AUTO 08007KT 10SM CLR 07/M02 A2993 RMK AO2  T00651020,,,,,,28.22,40.82,E,29.28,29.5,,Clear
KIGQ,03/19/2018 15:55 UTC,29.92,44.96,28.22,51.6,11.5,80.0,16.11,,,,,1.0,,,,10.0,,KIGQ 191555Z AUTO 08010G14KT 10SM CLR 07/M02 A2992 RMK AO2  T00721021,,,,,,28.03,41.04,E,29.27,29.48,,Clear
KIGQ,03/19/2018 16:15 UTC,29.91,45.86,28.4,50.24,12.66,70.0,,,,,,1.0,,,,10.0,,KIGQ 191615Z AUTO 07011KT 10SM CLR 08/M02 A2991 RMK AO2  T00771020,,,,,,28.21,,ENE,29.26,29.46,,Clear
KIGQ,03/19/2018 16:35 UTC,29.9,45.68,31.46,57.3,10.36,40.0,,,,,,1.0,,,,10.0,,KIGQ 191635Z AUTO 04009KT 10SM CLR 08/00 A2990 RMK AO2  T00761003,,,,,,31.3,,NE,29.25,29.4,,Clear
KIGQ,03/19/2018 16:55 UTC,29.9,44.6,31.46,59.7,11.5,30.0,18.41,,,,,1.0,,,,10.0,,KIGQ 191655Z AUTO 03010G16KT 10SM CLR 07/00 A2990 RMK AO2  T00701003,,,,,,31.3,40.61,NNE,29.25,29.41,,Clear
KIGQ,03/19/2018 17:15 UTC,29.9,45.14,30.56,56.39,9.22,50.0,,,,,,1.0,,,,10.0,,KIGQ 191715Z AUTO 05008KT 10SM CLR 07/M01 A2990 RMK AO2  T00731008,,,,,,30.39,,NE,29.25,29.42,,Clear
KIGQ,03/19/2018 17:35 UTC,29.88,45.32,30.2,55.19,16.11,30.0,,,,,,1.0,,,,10.0,,KIGQ 191735Z AUTO 03014KT 10SM CLR 07/M01 A2988 RMK AO2  T00741010,,,,,,30.03,,NNE,29.23,29.41,,Clear
KIGQ,03/19/2018 17:55 UTC,29.88,45.5,29.12,52.45,13.8,40.0,21.85,,,,,1.0,,,,10.0,,KIGQ 191755Z AUTO 04012G19KT 10SM CLR 08/M02 A2988 RMK AO2  T00751016 10079 20010,46.22,33.8,,,,28.94,,NE,29.23,29.42,,Clear
KIGQ,03/19/2018 18:15 UTC,29.88,46.22,30.2,53.34,14.97,50.0,19.57,,,,,1.0,,,,10.0,,KIGQ 191815Z AUTO 05013G17KT 10SM CLR 08/M01 A2988 RMK AO2  T00791010,,,,,,30.02,,NE,29.23,29.4,,Clear
KIGQ,03/19/2018 18:35 UTC,29.88,46.22,29.84,52.57,13.8,50.0,19.57,,,,,1.0,,,,10.0,,KIGQ 191835Z AUTO 05012G17KT 10SM CLR 08/M01 A2988 RMK AO2  T00791012,,,,,,29.66,,NE,29.23,29.41,,Clear
KIGQ,03/19/2018 18:55 UTC,29.88,44.78,28.22,51.95,17.27,40.0,,,,,,1.0,,,,10.0,,KIGQ 191855Z AUTO 04015KT 10SM CLR 07/M02 A2988 RMK AO2  T00711021,,,,,,28.03,39.3,NE,29.23,29.44,,Clear
KIGQ,03/19/2018 19:15 UTC,29.87,44.24,27.86,52.26,16.11,40.0,25.32,,,,,1.0,,,,10.0,,KIGQ 191915Z AUTO 04014G22KT 10SM CLR 07/M02 A2987 RMK AO2  T00681023,,,,,,27.67,38.9,NE,29.22,29.44,,Clear
KIGQ,03/19/2018 19:35 UTC,29.87,44.42,29.3,55.06,18.41,10.0,21.85,,,,,1.0,,,,10.0,,KIGQ 191935Z AUTO 01016G19KT 10SM CLR 07/M01 A2987 RMK AO2  T00691015,,,,,,29.13,38.6,N,29.22,29.42,,Clear
KIGQ,03/19/2018 19:55 UTC,29.88,44.06,29.12,55.41,17.27,30.0,21.85,,,,,1.0,,,,10.0,,KIGQ 191955Z AUTO 03015G19KT 10SM CLR 07/M02 A2988 RMK AO2  T00671016,,,,,,28.95,38.4,NNE,29.23,29.43,,Clear
KIGQ,03/19/2018 20:15 UTC,29.87,43.88,29.12,55.79,14.97,30.0,20.71,,,,,1.0,,,,10.0,,KIGQ 192015Z AUTO 03013G18KT 10SM CLR 07/M02 A2987 RMK AO2  T00661016,,,,,,28.95,38.74,NNE,29.22,29.42,,Clear
KIGQ,03/19/2018 20:35 UTC,29.86,42.98,28.58,56.48,17.27,30.0,21.85,,,,,1.0,,,,10.0,,KIGQ 192035Z AUTO 03015G19KT 10SM CLR 06/M02 A2986 RMK AO2  T00611019,,,,,,28.4,37.05,NNE,29.21,29.43,,Clear
KIGQ,03/19/2018 20:55 UTC,29.85,43.34,29.84,58.65,17.27,30.0,25.32,,,,,1.0,,,,10.0,,KIGQ 192055Z AUTO 03015G22KT 10SM CLR 06/M01 A2985 RMK AO2  T00631012,,,,,,29.67,37.5,NNE,29.2,29.39,,Clear
KIGQ,03/19/2018 21:15 UTC,29.84,43.7,29.66,57.43,21.85,30.0,29.93,,,,,1.0,,,,10.0,,KIGQ 192115Z AUTO 03019G26KT 10SM CLR 07/M01 A2984 RMK AO2  T00651013,,,,,,29.49,36.99,NNE,29.19,29.38,,Clear
KIGQ,03/19/2018 21:35 UTC,29.84,42.8,29.48,59.01,23.02,30.0,29.93,,,,,1.0,,,,10.0,,KIGQ 192135Z AUTO 03020G26KT 10SM CLR 06/M01 A2984 RMK AO2  T00601014,,,,,,29.32,35.63,NNE,29.19,29.39,,Clear
KIGQ,03/19/2018 21:55 UTC,29.84,42.26,29.84,61.14,20.71,30.0,29.93,,,,,1.0,,,,10.0,,KIGQ 192155Z AUTO 03018G26KT 10SM CLR 06/M01 A2984 RMK AO2  T00571012,,,,,,29.68,35.39,NNE,29.19,29.39,,Clear
KIGQ,03/19/2018 22:15 UTC,29.84,41.18,31.46,68.07,14.97,30.0,24.16,,,,,1.0,,,,10.0,,KIGQ 192215Z AUTO 03013G21KT 10SM CLR 05/00 A2984 RMK AO2  T00511003,,,,,,31.33,35.41,NNE,29.19,29.37,,Clear
KIGQ,03/19/2018 22:35 UTC,29.84,39.74,31.82,73.04,18.41,10.0,24.16,,,,,1.0,,,,10.0,,KIGQ 192235Z AUTO 01016G21KT 10SM CLR 04/00 A2984 RMK AO2  T00431001,,,,,,31.71,32.73,N,29.19,29.37,,Clear
KIGQ,03/19/2018 22:55 UTC,29.85,39.2,31.64,74.06,20.71,20.0,27.63,,,,,1.0,,,,10.0,,KIGQ 192255Z AUTO 02018G24KT 10SM CLR 04/00 A2985 RMK AO2  T00401002,,,,,,31.53,31.52,NNE,29.2,29.39,,Clear
KIGQ,03/19/2018 23:15 UTC,29.85,38.3,32.0,77.83,20.71,30.0,26.46,,,,,1.0,,,,10.0,,KIGQ 192315Z AUTO 03018G23KT 10SM CLR 04/00 A2985 RMK AO2  T00350000,,,,,,31.91,30.38,NNE,29.2,29.39,,Clear
KIGQ,03/19/2018 23:35 UTC,29.85,37.58,31.82,79.49,18.41,20.0,27.63,,,,,1.0,,,,10.0,,KIGQ 192335Z AUTO 02016G24KT 10SM CLR 03/00 A2985 RMK AO2  T00311001,,,,,,31.74,30.03,NNE,29.2,29.4,,Clear
KIGQ,03/19/2018 23:55 UTC,29.85,36.86,32.0,82.37,14.97,30.0,25.32,,,,,1.0,,,,10.0,,KIGQ 192355Z AUTO 03013G22KT 10SM CLR 03/00 A2985 RMK AO2  T00270000 10082 20027,46.76,36.86,,,,31.93,30.09,NNE,29.2,29.4,,Clear
KIGQ,03/20/2018 00:15 UTC,29.85,36.5,31.82,82.94,12.66,20.0,23.02,,,,,1.0,,,,10.0,,KIGQ 200015Z AUTO 02011G20KT 10SM CLR 03/00 A2985 RMK AO2  T00251001,,,,,,31.75,30.4,NNE,29.2,29.41,,Clear
KIGQ,03/20/2018 00:35 UTC,29.85,36.68,31.82,82.36,17.27,20.0,24.16,,,,,1.0,,,,10.0,,KIGQ 200035Z AUTO 02015G21KT 10SM CLR 03/00 A2985 RMK AO2  T00261001,,,,,,31.75,29.2,NNE,29.2,29.4,,Clear
KIGQ,03/20/2018 00:55 UTC,29.85,36.68,31.46,81.17,16.11,20.0,21.85,,,,,1.0,,,,10.0,,KIGQ 200055Z AUTO 02014G19KT 10SM CLR 03/00 A2985 RMK AO2  T00261003,,,,,,31.38,29.52,NNE,29.2,29.41,,Clear
KIGQ,03/20/2018 01:15 UTC,29.84,36.86,31.46,80.59,16.11,10.0,24.16,,,,,1.0,,,,10.0,,KIGQ 200115Z AUTO 01014G21KT 10SM CLR 03/00 A2984 RMK AO2  T00271003,,,,,,31.38,29.75,N,29.19,29.4,,Clear
KIGQ,03/20/2018 01:35 UTC,29.84,37.04,31.1,78.86,13.8,20.0,18.41,,,,,1.0,,,,10.0,,KIGQ 200135Z AUTO 02012G16KT 10SM CLR 03/00 A2984 RMK AO2  T00281005,,,,,,31.01,30.68,NNE,29.19,29.4,,Clear
KIGQ,03/20/2018 01:55 UTC,29.84,37.4,31.1,77.75,14.97,20.0,26.46,,,,,1.0,,,,10.0,,KIGQ 200155Z AUTO 02013G23KT 10SM CLR 03/00 A2984 RMK AO2  T00301005,,,,,,31.01,30.75,NNE,29.19,29.4,,Clear
KIGQ,03/20/2018 02:15 UTC,29.84,37.76,30.2,73.91,10.36,30.0,19.57,,,,,1.0,,,,10.0,,KIGQ 200215Z AUTO 03009G17KT 10SM CLR 03/M01 A2984 RMK AO2  T00321010,,,,,,30.09,32.8,NNE,29.19,29.41,,Clear
KIGQ,03/20/2018 02:35 UTC,29.84,37.94,29.12,70.22,18.41,40.0,26.46,,,,,1.0,,,,10.0,,KIGQ 200235Z AUTO 04016G23KT 10SM CLR 03/M02 A2984 RMK AO2  T00331016,,,,,,28.99,30.48,NE,29.19,29.43,,Clear
KIGQ,03/20/2018 02:55 UTC,29.85,37.4,29.3,72.26,17.27,40.0,24.16,,,,,1.0,,,,10.0,,KIGQ 200255Z AUTO 04015G21KT 10SM CLR 03/M01 A2985 RMK AO2  T00301015,,,,,,29.18,30.1,NE,29.2,29.44,,Clear
KIGQ,03/20/2018 03:15 UTC,29.85,36.86,29.12,73.27,20.71,40.0,27.63,,,,,1.0,,,,10.0,,KIGQ 200315Z AUTO 04018G24KT 10SM CLR 03/M02 A2985 RMK AO2  T00271016,,,,,,29.01,28.56,NE,29.2,29.44,,Clear
KIGQ,03/20/2018 03:35 UTC,29.85,35.96,28.58,74.27,16.11,40.0,25.32,,,,,1.0,,,,10.0,,KIGQ 200335Z AUTO 04014G22KT 10SM CLR 02/M02 A2985 RMK AO2  T00221019,,,,,,28.47,28.63,NE,29.2,29.46,,Clear
KIGQ,03/20/2018 03:55 UTC,29.86,35.6,28.22,74.23,17.27,50.0,24.16,,,,,1.0,,,,10.0,,KIGQ 200355Z AUTO 05015G21KT 10SM CLR 02/M02 A2986 RMK AO2  T00201021,,,,,,28.11,27.85,NE,29.21,29.47,,Clear
KIGQ,03/20/2018 04:15 UTC,29.86,34.88,27.86,75.26,17.27,40.0,25.32,,,,,1.0,,,,10.0,,KIGQ 200415Z AUTO 04015G22KT 10SM CLR 02/M02 A2986 RMK AO2  T00161023,,,,,,27.75,26.96,NE,29.21,29.48,,Clear
KIGQ,03/20/2018 04:35 UTC,29.86,34.52,27.86,76.35,12.66,50.0,21.85,,,,,1.0,,,,10.0,,KIGQ 200435Z AUTO 05011G19KT 10SM CLR 01/M02 A2986 RMK AO2  T00141023,,,,,,27.76,28.0,NE,29.21,29.49,,Clear
KIGQ,03/20/2018 04:55 UTC,29.86,33.98,28.04,78.59,14.97,40.0,20.71,,,,,1.0,,,,10.0,,KIGQ 200455Z AUTO 04013G18KT 10SM CLR 01/M02 A2986 RMK AO2  T00111022,,,,,,27.95,26.54,NE,29.21,29.49,,Clear
KIGQ,03/20/2018 05:15 UTC,29.87,33.8,27.5,77.42,14.97,40.0,20.71,,,,,1.0,,,,10.0,,KIGQ 200515Z AUTO 04013G18KT 10SM CLR 01/M02 A2987 RMK AO2  T00101025,,,,,,27.4,26.31,NE,29.22,29.51,,Clear
KIGQ,03/20/2018 05:35 UTC,29.87,33.44,27.5,78.55,14.97,40.0,19.57,,,,,1.0,,,,10.0,,KIGQ 200535Z AUTO 04013G17KT 10SM CLR 01/M02 A2987 RMK AO2  T00081025,,,,,,27.41,25.87,NE,29.22,29.51,,Clear
KIGQ,03/20/2018 05:55 UTC,29.88,33.08,26.96,77.93,14.97,40.0,20.71,,,,,1.0,,,,10.0,,KIGQ 200555Z AUTO 04013G18KT 10SM CLR 01/M03 A2988 RMK AO2  T00061028 10035 20006 400821023,38.3,33.08,,46.76,27.86,26.86,25.43,NE,29.23,29.53,,Clear
KIGQ,03/20/2018 06:15 UTC,29.88,32.9,25.7,74.5,16.11,40.0,23.02,,,,,1.0,,,,10.0,,KIGQ 200615Z AUTO 04014G20KT 10SM CLR 01/M03 A2988 RMK AO2  T00051035,,,,,,25.59,24.84,NE,29.23,29.54,,Clear
KIGQ,03/20/2018 06:35 UTC,29.88,32.18,25.7,76.69,11.5,50.0,,,,,,1.0,,,,10.0,,KIGQ 200635Z AUTO 05010KT 10SM CLR 00/M03 A2988 RMK AO2  T00011035,,,,,,25.6,25.62,NE,29.23,29.55,,Clear
KIGQ,03/20/2018 06:55 UTC,29.88,32.0,24.98,74.97,17.27,40.0,,,,,,1.0,,,,10.0,,KIGQ 200655Z AUTO 04015KT 10SM CLR 00/M04 A2988 RMK AO2  T00001039,,,,,,24.87,23.37,NE,29.23,29.56,,Clear
KIGQ,03/20/2018 07:15 UTC,29.88,32.0,24.62,73.85,13.8,50.0,20.71,,,,,1.0,,,,10.0,,KIGQ 200715Z AUTO 05012G18KT 10SM CLR 00/M04 A2988 RMK AO2  T00001041,,,,,,24.5,24.5,NE,29.23,29.56,,Clear
KIGQ,03/20/2018 07:35 UTC,29.88,31.64,22.64,68.96,16.11,40.0,23.02,,,,,1.0,,,,10.0,,KIGQ 200735Z AUTO 04014G20KT 10SM CLR 00/M05 A2988 RMK AO2  T10021052,,,,,,22.5,23.28,NE,29.23,29.59,,Clear
KIGQ,03/20/2018 07:55 UTC,29.88,31.1,21.92,68.37,14.97,40.0,20.71,,,,,1.0,,,,10.0,,KIGQ 200755Z AUTO 04013G18KT 10SM CLR 00/M06 A2988 RMK AO2  T10051056,,,,,,21.78,22.99,NE,29.23,29.6,,Clear
KIGQ,03/20/2018 08:15 UTC,29.86,31.1,22.1,68.89,16.11,40.0,20.71,,,,,1.0,,,,10.0,,KIGQ 200815Z AUTO 04014G18KT 10SM CLR 00/M05 A2986 RMK AO2  T10051055,,,,,,21.96,22.61,NE,29.21,29.57,,Clear
KIGQ,03/20/2018 08:35 UTC,29.86,30.2,21.2,68.78,16.11,40.0,21.85,,,,,1.0,,,,10.0,,KIGQ 200835Z AUTO 04014G19KT 10SM CLR M01/M06 A2986 RMK AO2  T10101060,,,,,,21.06,21.49,NE,29.21,29.59,,Clear
KIGQ,03/20/2018 08:55 UTC,29.86,30.02,20.3,66.68,16.11,40.0,24.16,,,,,1.0,,,,10.0,,KIGQ 200855Z AUTO 04014G21KT 10SM CLR M01/M06 A2986 RMK AO2  T10111065,,,,,,20.15,21.27,NE,29.21,29.6,,Clear
KIGQ,03/20/2018 09:15 UTC,29.86,29.48,20.12,67.65,12.66,30.0,20.71,,,,,1.0,,,,10.0,,KIGQ 200915Z AUTO 03011G18KT 10SM CLR M01/M07 A2986 RMK AO2  T10141066,,,,,,19.98,21.87,NNE,29.21,29.6,,Clear
KIGQ,03/20/2018 09:35 UTC,29.87,29.3,20.3,68.67,14.97,40.0,,,,,,1.0,,,,10.0,,KIGQ 200935Z AUTO 04013KT 10SM CLR M01/M06 A2987 RMK AO2  T10151065,,,,,,20.16,20.77,NE,29.22,29.61,,Clear
KIGQ,03/20/2018 09:55 UTC,29.88,28.94,21.02,71.86,14.97,50.0,23.02,,,,,1.0,,,,10.0,,KIGQ 200955Z AUTO 05013G20KT 10SM CLR M02/M06 A2988 RMK AO2  T10171061,,,,,,20.89,20.33,NE,29.23,29.62,,Clear
KIGQ,03/20/2018 10:15 UTC,29.88,28.4,21.56,75.17,11.5,40.0,19.57,,,,,1.0,,,,10.0,,KIGQ 201015Z AUTO 04010G17KT 10SM CLR M02/M06 A2988 RMK AO2  T10201058,,,,,,21.45,21.05,NE,29.23,29.61,,Clear
KIGQ,03/20/2018 10:35 UTC,29.88,28.04,21.56,76.29,14.97,40.0,20.71,,,,,1.0,,,,10.0,,KIGQ 201035Z AUTO 04013G18KT 10SM CLR M02/M06 A2988 RMK AO2  T10221058,,,,,,21.45,19.22,NE,29.23,29.62,,Clear
KIGQ,03/20/2018 10:55 UTC,29.88,27.5,21.2,76.83,16.11,40.0,23.02,,,,,1.0,,,,10.0,,KIGQ 201055Z AUTO 04014G20KT 10SM CLR M02/M06 A2988 RMK AO2  T10251060,,,,,,21.1,18.15,NE,29.23,29.62,,Clear
KIGQ,03/20/2018 11:15 UTC,29.88,27.5,21.02,76.24,13.8,40.0,21.85,,,,,1.0,,,,10.0,,KIGQ 201115Z AUTO 04012G19KT 10SM CLR M02/M06 A2988 RMK AO2  T10251061,,,,,,20.91,18.99,NE,29.23,29.62,,Clear
KIGQ,03/20/2018 11:35 UTC,29.88,27.5,21.02,76.24,16.11,40.0,21.85,,,,,1.0,,,,10.0,,KIGQ 201135Z AUTO 04014G19KT 10SM CLR M02/M06 A2988 RMK AO2  T10251061,,,,,,20.91,18.15,NE,29.23,29.62,,Clear
KIGQ,03/20/2018 11:55 UTC,29.88,27.32,20.84,76.22,14.97,40.0,20.71,,,,,1.0,,,,10.0,,KIGQ 201155Z AUTO 04013G18KT 10SM CLR M03/M06 A2988 RMK AO2  T10261062 10006 21027,33.08,27.14,,,,20.73,18.33,NE,29.23,29.63,,Clear
KIGQ,03/20/2018 12:15 UTC,29.89,27.5,21.38,77.41,12.66,40.0,21.85,,,,,1.0,,,,10.0,,KIGQ 201215Z AUTO 04011G19KT 10SM CLR M02/M06 A2989 RMK AO2  T10251059,,,,,,21.28,19.46,NE,29.24,29.63,,Clear
KIGQ,03/20/2018 12:35 UTC,29.89,28.22,21.92,76.89,14.97,40.0,19.57,,,,,1.0,,,,10.0,,KIGQ 201235Z AUTO 04013G17KT 10SM CLR M02/M06 A2989 RMK AO2  T10211056,,,,,,21.82,19.44,NE,29.24,29.62,,Clear
KIGQ,03/20/2018 12:55 UTC,29.89,29.12,22.1,74.68,17.27,40.0,23.02,,,,,1.0,,,,10.0,,KIGQ 201255Z AUTO 04015G20KT 10SM CLR M02/M05 A2989 RMK AO2  T10161055,,,,,,21.99,19.78,NE,29.24,29.62,,Clear
KIGQ,03/20/2018 13:15 UTC,29.9,29.12,22.82,76.98,16.11,30.0,20.71,,,,,1.0,,,,10.0,,KIGQ 201315Z AUTO 03014G18KT 10SM CLR M02/M05 A2990 RMK AO2  T10161051,,,,,,22.72,20.15,NNE,29.25,29.62,,Clear
KIGQ,03/20/2018 13:35 UTC,29.89,29.84,23.18,75.89,18.41,50.0,26.46,,,,,1.0,,,,10.0,,KIGQ 201335Z AUTO 05016G23KT 10SM CLR M01/M05 A2989 RMK AO2  T10121049,,,,,,23.07,20.33,NE,29.24,29.6,,Clear
KIGQ,03/20/2018 13:55 UTC,29.89,30.74,23.36,73.72,17.27,40.0,24.16,,,,,1.0,,,,10.0,,KIGQ 201355Z AUTO 04015G21KT 10SM CLR M01/M05 A2989 RMK AO2  T10071048,,,,,,23.24,21.8,NE,29.24,29.59,,Clear
KIGQ,03/20/2018 14:15 UTC,29.89,30.56,22.82,72.59,20.71,40.0,26.46,,,,,1.0,,,,10.0,,KIGQ 201415Z AUTO 04018G23KT 10SM CLR M01/M05 A2989 RMK AO2  T10081051,,,,,,22.7,20.59,NE,29.24,29.6,,Clear
KIGQ,03/20/2018 14:35 UTC,29.89,30.74,22.64,71.52,16.11,40.0,24.16,,,,,1.0,,,,10.0,,KIGQ 201435Z AUTO 04014G21KT 10SM CLR M01/M05 A2989 RMK AO2  T10071052,,,,,,22.51,22.16,NE,29.24,29.6,,Clear
KIGQ,03/20/2018 14:55 UTC,29.9,30.92,22.64,71.0,11.5,30.0,21.85,,,,,232.0,,,,10.0,,KIGQ 201455Z AUTO 03010G19KT 10SM SCT023 M01/M05 A2990 RMK AO2  T10061052,,,,,,22.51,24.1,NNE,29.25,29.61,,Partly Cloudy
KIGQ,03/20/2018 15:15 UTC,29.91,31.28,22.1,68.39,13.8,50.0,21.85,,,,,232.0,,,,10.0,,KIGQ 201515Z AUTO 05012G19KT 10SM SCT023 00/M05 A2991 RMK AO2  T10041055,,,,,,21.96,23.62,NE,29.26,29.62,,Partly Cloudy
KIGQ,03/20/2018 15:35 UTC,29.9,31.64,22.46,68.43,18.41,30.0,23.02,,,,,1.0,,,,10.0,,KIGQ 201535Z AUTO 03016G20KT 10SM CLR 00/M05 A2990 RMK AO2  T10021053,,,,,,22.32,22.58,NNE,29.25,29.61,,Clear
KIGQ,03/20/2018 15:55 UTC,29.9,31.46,22.28,68.41,16.11,20.0,23.02,,,,,1.0,,,,10.0,,KIGQ 201555Z AUTO 02014G20KT 10SM CLR 00/M05 A2990 RMK AO2  T10031054,,,,,,22.14,23.05,NNE,29.25,29.61,,Clear
KIGQ,03/20/2018 16:15 UTC,29.9,32.0,22.28,66.94,19.57,40.0,24.16,,,,,1.0,,,,10.0,,KIGQ 201615Z AUTO 04017G21KT 10SM CLR 00/M05 A2990 RMK AO2  T00001054,,,,,,22.13,22.72,NE,29.25,29.61,,Clear
KIGQ,03/20/2018 16:35 UTC,29.9,32.54,21.74,64.01,16.11,40.0,24.16,,,,,1.0,,,,10.0,,KIGQ 201635Z AUTO 04014G21KT 10SM CLR 00/M06 A2990 RMK AO2  T00031057,,,,,,21.58,24.39,NE,29.25,29.61,,Clear
KIGQ,03/20/2018 16:55 UTC,29.89,32.36,21.92,64.97,17.27,50.0,23.02,,,,,1.0,,,,10.0,,KIGQ 201655Z AUTO 05015G20KT 10SM CLR 00/M06 A2989 RMK AO2  T00021056,,,,,,21.76,23.82,NE,29.24,29.6,,Clear
KIGQ,03/20/2018 17:15 UTC,29.88,33.8,23.36,65.16,14.97,30.0,23.02,,,,,1.0,,,,10.0,,KIGQ 201715Z AUTO 03013G20KT 10SM CLR 01/M05 A2988 RMK AO2  T00101048,,,,,,23.21,26.31,NNE,29.23,29.57,,Clear
KIGQ,03/20/2018 17:35 UTC,29.89,33.26,23.0,65.59,17.27,10.0,24.16,,,,,1.0,,,,10.0,,KIGQ 201735Z AUTO 01015G21KT 10SM CLR 01/M05 A2989 RMK AO2  T00071050,,,,,,22.85,24.94,N,29.24,29.58,,Clear
KIGQ,03/20/2018 17:55 UTC,29.88,34.34,23.0,62.81,17.27,30.0,26.46,,,,,1.0,,,,10.0,,KIGQ 201755Z AUTO 03015G23KT 10SM CLR 01/M05 A2988 RMK AO2  T00131050 10013 21026,34.34,27.32,,,,22.84,26.28,NNE,29.23,29.57,,Clear
KIGQ,03/20/2018 18:15 UTC,29.88,33.08,22.46,64.58,17.27,20.0,27.63,,,,,1.0,,,,10.0,,KIGQ 201815Z AUTO 02015G24KT 10SM CLR 01/M05 A2988 RMK AO2  T00061053,,,,,,22.3,24.71,NNE,29.23,29.58,,Clear
KIGQ,03/20/2018 18:35 UTC,29.87,33.62,24.26,68.16,16.11,30.0,25.32,,,,,1.0,,,,10.0,,KIGQ 201835Z AUTO 03014G22KT 10SM CLR 01/M04 A2987 RMK AO2  T00091043,,,,,,24.12,25.73,NNE,29.22,29.55,,Clear
KIGQ,03/20/2018 18:55 UTC,29.87,33.98,24.8,68.72,20.71,20.0,26.46,,,,,1.0,,,,10.0,,KIGQ 201855Z AUTO 02018G23KT 10SM CLR 01/M04 A2987 RMK AO2  T00111040,,,,,,24.66,24.92,NNE,29.22,29.54,,Clear
KIGQ,03/20/2018 19:15 UTC,29.86,34.16,24.62,67.72,19.57,360.0,25.32,,,,,262.0,,,,10.0,,KIGQ 201915Z AUTO 36017G22KT 10SM SCT026 01/M04 A2986 RMK AO2  T00121041,,,,,,24.48,25.43,N,29.21,29.53,,Partly Cloudy
KIGQ,03/20/2018 19:35 UTC,29.86,34.88,24.8,66.3,13.8,10.0,25.32,,,,,262.0,,,,10.0,,KIGQ 201935Z AUTO 01012G22KT 10SM SCT026 02/M04 A2986 RMK AO2  T00161040,,,,,,24.66,28.03,N,29.21,29.52,,Partly Cloudy
KIGQ,03/20/2018 19:55 UTC,29.86,35.6,25.52,66.39,18.41,20.0,24.16,,,,,262.0,,,,10.0,,KIGQ 201955Z AUTO 02016G21KT 10SM SCT026 02/M04 A2986 RMK AO2  T00201036,,,,,,25.38,27.55,NNE,29.21,29.51,,Partly Cloudy
KIGQ,03/20/2018 20:15 UTC,29.86,34.34,25.34,69.28,14.97,10.0,26.46,,,,,262.0,,,,10.0,,KIGQ 202015Z AUTO 01013G23KT 10SM SCT026 01/M04 A2986 RMK AO2  T00131037,,,,,,25.21,26.98,N,29.21,29.52,,Partly Cloudy
KIGQ,03/20/2018 20:35 UTC,29.86,33.98,25.52,70.81,16.11,10.0,28.77,,,,,242.0,,,,10.0,,KIGQ 202035Z AUTO 01014G25KT 10SM SCT024 01/M04 A2986 RMK AO2  T00111036,,,,,,25.39,26.18,N,29.21,29.52,,Partly Cloudy
KIGQ,03/20/2018 20:55 UTC,29.86,33.8,25.34,70.79,13.8,20.0,27.63,,,,,242.0,,,,10.0,,KIGQ 202055Z AUTO 02012G24KT 10SM SCT024 01/M04 A2986 RMK AO2  T00101037,,,,,,25.21,26.71,NNE,29.21,29.52,,Partly Cloudy
KIGQ,03/20/2018 21:15 UTC,29.86,33.26,25.52,72.89,19.57,10.0,26.46,,,,,242.0,,,,10.0,,KIGQ 202115Z AUTO 01017G23KT 10SM SCT024 01/M04 A2986 RMK AO2  T00071036,,,,,,25.4,24.3,N,29.21,29.52,,Partly Cloudy
KIGQ,03/20/2018 21:35 UTC,29.86,32.9,25.7,74.5,18.41,360.0,28.77,,,,,232.0,,,,10.0,,KIGQ 202135Z AUTO 36016G25KT 10SM SCT023 01/M03 A2986 RMK AO2  T00051035,,,,,,25.59,24.16,N,29.21,29.52,,Partly Cloudy
KIGQ,03/20/2018 21:55 UTC,29.86,33.08,25.7,73.97,16.11,360.0,24.16,,,,,232.0,,,,10.0,,KIGQ 202155Z AUTO 36014G21KT 10SM SCT023 01/M03 A2986 RMK AO2  T00061035,,,,,,25.59,25.06,N,29.21,29.52,,Partly Cloudy
KIGQ,03/20/2018 22:15 UTC,29.86,33.08,25.7,73.97,18.41,20.0,25.32,,,,,232.0,,,,10.0,,KIGQ 202215Z AUTO 02016G22KT 10SM SCT023 01/M03 A2986 RMK AO2  T00061035,,,,,,25.59,24.39,NNE,29.21,29.52,,Partly Cloudy
KIGQ,03/20/2018 22:35 UTC,29.87,32.54,25.7,75.59,17.27,360.0,26.46,,,,,1.0,,,,10.0,,KIGQ 202235Z AUTO 36015G23KT 10SM CLR 00/M03 A2987 RMK AO2  T00031035,,,,,,25.59,24.04,N,29.22,29.54,,Clear
KIGQ,03/20/2018 22:55 UTC,29.87,32.54,25.88,76.16,17.27,360.0,27.63,,,,,242.0,,,,10.0,,KIGQ 202255Z AUTO 36015G24KT 10SM SCT024 00/M03 A2987 RMK AO2  T00031034,,,,,,25.78,24.04,N,29.22,29.53,,Partly Cloudy
KIGQ,03/20/2018 23:15 UTC,29.88,32.18,25.7,76.69,20.71,360.0,26.46,,,,,222.0,,,,10.0,,KIGQ 202315Z AUTO 36018G23KT 10SM SCT022 00/M03 A2988 RMK AO2  T00011035,,,,,,25.6,22.64,N,29.23,29.55,,Partly Cloudy
KIGQ,03/20/2018 23:35 UTC,29.88,32.0,25.7,77.25,18.41,360.0,25.32,,,,,1.0,,,,10.0,,KIGQ 202335Z AUTO 36016G22KT 10SM CLR 00/M03 A2988 RMK AO2  T00001035,,,,,,25.6,23.04,N,29.23,29.55,,Clear
KIGQ,03/20/2018 23:55 UTC,29.88,32.0,25.7,77.25,11.5,10.0,27.63,,,,,1.0,,,,10.0,,KIGQ 202355Z AUTO 01010G24KT 10SM CLR 00/M03 A2988 RMK AO2  T00001035 10020 20000,35.6,32.0,,,,25.6,25.4,N,29.23,29.55,,Clear
KIGQ,03/21/2018 00:15 UTC,29.88,32.0,25.7,77.25,11.5,10.0,23.02,,,,,1.0,,,,10.0,,KIGQ 210015Z AUTO 01010G20KT 10SM CLR 00/M03 A2988 RMK AO2  T00001035,,,,,,25.6,25.4,N,29.23,29.55,,Clear
KIGQ,03/21/2018 00:35 UTC,29.88,32.0,26.06,78.42,17.27,360.0,24.16,,,,,1.0,,,,10.0,,KIGQ 210035Z AUTO 36015G21KT 10SM CLR 00/M03 A2988 RMK AO2  T00001033,,,,,,25.97,23.37,N,29.23,29.54,,Clear
KIGQ,03/21/2018 00:55 UTC,29.89,32.0,26.6,80.19,13.8,360.0,20.71,,,,,202.0,,,,10.0,,KIGQ 210055Z AUTO 36012G18KT 10SM SCT020 00/M03 A2989 RMK AO2  T00001030,,,,,,26.51,24.5,N,29.24,29.55,,Partly Cloudy
KIGQ,03/21/2018 01:15 UTC,29.9,32.0,26.96,81.4,13.8,360.0,23.02,,,,,203.0,,,,10.0,,KIGQ 210115Z AUTO 36012G20KT 10SM BKN020 00/M03 A2990 RMK AO2  T00001028,,,2000.0,,,26.88,24.5,N,29.25,29.55,,Mostly Cloudy
KIGQ,03/21/2018 01:35 UTC,29.9,32.0,26.96,81.4,16.11,10.0,23.02,,,,,202.0,,,,10.0,,KIGQ 210135Z AUTO 01014G20KT 10SM SCT020 00/M03 A2990 RMK AO2  T00001028,,,,,,26.88,23.72,N,29.25,29.55,,Partly Cloudy
KIGQ,03/21/2018 01:55 UTC,29.9,32.0,27.14,82.0,13.8,360.0,19.57,,,,,202.0,,,,10.0,,KIGQ 210155Z AUTO 36012G17KT 10SM SCT020 00/M03 A2990 RMK AO2  T00001027,,,,,,27.06,24.5,N,29.25,29.55,,Partly Cloudy
KIGQ,03/21/2018 02:15 UTC,29.89,32.0,27.5,83.23,14.97,10.0,24.16,,,,,183.0,,,,10.0,,KIGQ 210215Z AUTO 01013G21KT 10SM BKN018 00/M02 A2989 RMK AO2  T00001025,,,1800.0,,,27.43,24.1,N,29.24,29.54,,Mostly Cloudy
KIGQ,03/21/2018 02:35 UTC,29.89,32.0,27.5,83.23,13.8,10.0,26.46,,,,,183.0,,,,10.0,,KIGQ 210235Z AUTO 01012G23KT 10SM BKN018 00/M02 A2989 RMK AO2  T00001025,,,1800.0,,,27.43,24.5,N,29.24,29.54,,Mostly Cloudy
KIGQ,03/21/2018 02:55 UTC,29.89,32.0,27.86,84.47,13.8,360.0,25.32,,,,,183.0,,,,10.0,,KIGQ 210255Z AUTO 36012G22KT 10SM BKN018 00/M02 A2989 RMK AO2  T00001023,,,1800.0,,,27.79,24.5,N,29.24,29.53,,Mostly Cloudy
KIGQ,03/21/2018 03:15 UTC,29.89,32.18,28.22,85.11,16.11,360.0,26.46,,,,,162.0,,,,10.0,,KIGQ 210315Z AUTO 36014G23KT 10SM SCT016 00/M02 A2989 RMK AO2  T00011021,,,,,,28.15,23.95,N,29.24,29.53,,Partly Cloudy
KIGQ,03/21/2018 03:35 UTC,29.89,32.36,28.4,85.12,13.8,10.0,26.46,,,,,182.0,,,,10.0,,KIGQ 210335Z AUTO 01012G23KT 10SM SCT018 00/M02 A2989 RMK AO2  T00021020,,,,,,28.33,24.95,N,29.24,29.52,,Partly Cloudy
KIGQ,03/21/2018 03:55 UTC,29.88,32.72,29.12,86.41,16.11,360.0,26.46,,,,,183.0,253.0,,,10.0,,KIGQ 210355Z AUTO 36014G23KT 10SM BKN018 BKN025 00/M02 A2988 RMK AO2 T00041016,,,1800.0,,,29.06,24.62,N,29.23,29.5,,Mostly Cloudy
KIGQ,03/21/2018 04:15 UTC,29.89,33.08,29.3,85.8,13.8,360.0,19.57,,,,,203.0,294.0,,,10.0,,KIGQ 210415Z AUTO 36012G17KT 10SM BKN020 OVC029 01/M01 A2989 RMK AO2 T00061015,,,2000.0,,,29.24,25.83,N,29.24,29.51,,Overcast
KIGQ,03/21/2018 04:35 UTC,29.89,32.9,23.0,66.54,16.11,40.0,20.71,,,,,222.0,292.0,,,10.0,,KIGQ 210435Z AUTO 04014G18KT 10SM SCT022 SCT029 01/M05 A2989 RMK AO2 T00051050,,,,,,22.85,24.84,NE,29.24,29.59,,Partly Cloudy
KIGQ,03/21/2018 04:55 UTC,29.89,32.18,19.04,57.89,12.66,20.0,16.11,,,,,1.0,,,,10.0,,KIGQ 210455Z AUTO 02011G14KT 10SM CLR 00/M07 A2989 RMK AO2  T00011072,,,,,,18.85,25.15,NNE,29.24,29.63,,Clear
KIGQ,03/21/2018 05:15 UTC,29.89,32.0,20.84,62.97,13.8,40.0,19.57,,,,,1.0,,,,10.0,,KIGQ 210515Z AUTO 04012G17KT 10SM CLR 00/M06 A2989 RMK AO2  T00001062,,,,,,20.68,24.5,NE,29.24,29.61,,Clear
KIGQ,03/21/2018 05:35 UTC,29.9,32.0,22.46,67.45,16.11,40.0,23.02,,,,,1.0,,,,10.0,,KIGQ 210535Z AUTO 04014G20KT 10SM CLR 00/M05 A2990 RMK AO2  T00001053,,,,,,22.32,23.72,NE,29.25,29.61,,Clear
KIGQ,03/21/2018 05:55 UTC,29.91,31.46,21.74,66.87,12.66,40.0,21.85,,,,,1.0,,,,10.0,,KIGQ 210555Z AUTO 04011G19KT 10SM CLR 00/M06 A2991 RMK AO2  T10031057 10007 21003 400201027,33.26,31.46,,35.6,27.14,21.59,24.27,NE,29.26,29.63,,Clear
KIGQ,03/21/2018 06:15 UTC,29.91,30.92,21.92,68.87,13.8,40.0,18.41,,,,,1.0,,,,10.0,,KIGQ 210615Z AUTO 04012G16KT 10SM CLR M01/M06 A2991 RMK AO2  T10061056,,,,,,21.78,23.18,NE,29.26,29.63,,Clear
KIGQ,03/21/2018 06:35 UTC,29.91,30.38,22.1,70.93,13.8,40.0,19.57,,,,,1.0,,,,10.0,,KIGQ 210635Z AUTO 04012G17KT 10SM CLR M01/M05 A2991 RMK AO2  T10091055,,,,,,21.97,22.52,NE,29.26,29.63,,Clear
KIGQ,03/21/2018 06:55 UTC,29.91,30.2,22.1,71.46,14.97,40.0,19.57,,,,,1.0,,,,10.0,,KIGQ 210655Z AUTO 04013G17KT 10SM CLR M01/M05 A2991 RMK AO2  T10101055,,,,,,21.97,21.88,NE,29.26,29.63,,Clear
KIGQ,03/21/2018 07:15 UTC,29.91,30.02,22.1,71.98,14.97,30.0,19.57,,,,,1.0,,,,10.0,,KIGQ 210715Z AUTO 03013G17KT 10SM CLR M01/M05 A2991 RMK AO2  T10111055,,,,,,21.97,21.66,NNE,29.26,29.63,,Clear
KIGQ,03/21/2018 07:35 UTC,29.91,29.84,22.1,72.51,10.36,30.0,,,,,,1.0,,,,10.0,,KIGQ 210735Z AUTO 03009KT 10SM CLR M01/M05 A2991 RMK AO2  T10121055,,,,,,21.98,23.31,NNE,29.26,29.63,,Clear
KIGQ,03/21/2018 07:55 UTC,29.91,29.66,22.46,74.17,13.8,40.0,19.57,,,,,1.0,,,,10.0,,KIGQ 210755Z AUTO 04012G17KT 10SM CLR M01/M05 A2991 RMK AO2  T10131053,,,,,,22.35,21.64,NE,29.26,29.63,,Clear
KIGQ,03/21/2018 08:15 UTC,29.92,29.66,22.64,74.73,12.66,40.0,16.11,,,,,1.0,,,,10.0,,KIGQ 210815Z AUTO 04011G14KT 10SM CLR M01/M05 A2992 RMK AO2  T10131052,,,,,,22.53,22.09,NE,29.27,29.64,,Clear
KIGQ,03/21/2018 08:35 UTC,29.92,29.66,22.46,74.17,12.66,40.0,17.27,,,,,1.0,,,,10.0,,KIGQ 210835Z AUTO 04011G15KT 10SM CLR M01/M05 A2992 RMK AO2  T10131053,,,,,,22.35,22.09,NE,29.27,29.64,,Clear
KIGQ,03/21/2018 08:55 UTC,29.92,29.3,21.92,73.57,13.8,40.0,18.41,,,,,1.0,,,,10.0,,KIGQ 210855Z AUTO 04012G16KT 10SM CLR M01/M06 A2992 RMK AO2  T10151056,,,,,,21.8,21.2,NE,29.27,29.65,,Clear
KIGQ,03/21/2018 09:15 UTC,29.92,29.12,21.74,73.55,13.8,40.0,18.41,,,,,1.0,,,,10.0,,KIGQ 210915Z AUTO 04012G16KT 10SM CLR M02/M06 A2992 RMK AO2  T10161057,,,,,,21.62,20.98,NE,29.27,29.65,,Clear
KIGQ,03/21/2018 09:35 UTC,29.93,28.94,21.56,73.53,11.5,30.0,17.27,,,,,1.0,,,,10.0,,KIGQ 210935Z AUTO 03010G15KT 10SM CLR M02/M06 A2993 RMK AO2  T10171058,,,,,,21.44,21.71,NNE,29.28,29.66,,Clear
KIGQ,03/21/2018 09:55 UTC,29.94,28.94,21.92,74.66,9.22,30.0,,,,,,1.0,,,,10.0,,KIGQ 210955Z AUTO 03008KT 10SM CLR M02/M06 A2994 RMK AO2  T10171056,,,,,,21.81,22.82,NNE,29.29,29.67,,Clear
KIGQ,03/21/2018 10:15 UTC,29.94,29.3,21.92,73.57,9.22,40.0,,,,,,1.0,,,,10.0,,KIGQ 211015Z AUTO 04008KT 10SM CLR M01/M06 A2994 RMK AO2  T10151056,,,,,,21.8,23.25,NE,29.29,29.67,,Clear
KIGQ,03/21/2018 10:35 UTC,29.95,29.84,22.1,72.51,9.22,30.0,,,,,,1202.0,,,,10.0,,KIGQ 211035Z AUTO 03008KT 350V050 10SM SCT120 M01/M05 A2995 RMK AO2 T10121055,,,,,,21.98,23.89,NNE,29.3,29.67,,Partly Cloudy
KIGQ,03/21/2018 10:55 UTC,29.96,29.84,23.0,75.32,9.22,360.0,,,,,,232.0,1202.0,,,10.0,,KIGQ 211055Z AUTO 36008KT 10SM SCT023 SCT120 M01/M05 A2996 RMK AO2  T10121050,,,,,,22.89,23.89,N,29.31,29.67,,Partly Cloudy
KIGQ,03/21/2018 11:15 UTC,29.96,29.3,22.1,74.13,8.05,20.0,,,,,,1.0,,,,10.0,,KIGQ 211115Z AUTO 02007KT 10SM CLR M01/M05 A2996 RMK AO2  T10151055,,,,,,21.99,23.9,NNE,29.31,29.69,,Clear
KIGQ,03/21/2018 11:35 UTC,29.97,29.3,22.64,75.84,6.91,10.0,,,,,,233.0,,,,10.0,,KIGQ 211135Z AUTO 01006KT 10SM BKN023 M01/M05 A2997 RMK AO2  T10151052,,,2300.0,,,22.53,,N,29.32,29.69,,Mostly Cloudy
KIGQ,03/21/2018 11:55 UTC,29.98,29.3,23.0,77.0,8.05,10.0,,,,,,233.0,,,,10.0,,KIGQ 211155Z AUTO 01007KT 10SM BKN023 M01/M05 A2998 RMK AO2  T10151050 11004 21017,31.28,28.94,2300.0,,,22.9,23.9,N,29.33,29.7,,Mostly Cloudy
KIGQ,03/21/2018 12:15 UTC,29.99,29.84,23.54,77.05,11.5,360.0,17.27,,,,,233.0,,,,10.0,,KIGQ 211215Z AUTO 36010G15KT 10SM BKN023 M01/M05 A2999 RMK AO2  T10121047,,,2300.0,,,23.44,22.79,N,29.34,29.7,,Mostly Cloudy
KIGQ,03/21/2018 12:35 UTC,30.0,30.56,24.26,77.12,13.8,10.0,18.41,,,,,234.0,,,,10.0,,KIGQ 211235Z AUTO 01012G16KT 10SM OVC023 M01/M04 A3000 RMK AO2  T10081043,,,2300.0,,,24.16,22.74,N,29.35,29.7,,Overcast
KIGQ,03/21/2018 12:55 UTC,30.01,30.92,24.62,77.15,9.22,10.0,19.57,,,,,234.0,,,,10.0,,KIGQ 211255Z AUTO 01008G17KT 10SM OVC023 M01/M04 A3001 RMK AO2  T10061041,,,2300.0,,,24.52,25.17,N,29.36,29.7,,Overcast
KIGQ,03/21/2018 13:15 UTC,30.01,31.1,24.8,77.17,11.5,10.0,21.85,,,,,214.0,,,,10.0,,KIGQ 211315Z AUTO 01010G19KT 10SM OVC021 00/M04 A3001 RMK AO2  T10051040,,,2100.0,,,24.7,24.31,N,29.36,29.7,,Overcast
KIGQ,03/21/2018 13:35 UTC,30.02,31.1,24.44,76.02,13.8,10.0,21.85,,,,,214.0,,,,10.0,,KIGQ 211335Z AUTO 01012G19KT 10SM OVC021 00/M04 A3002 RMK AO2  T10051042,,,2100.0,,,24.34,23.4,N,29.37,29.71,,Overcast
KIGQ,03/21/2018 13:55 UTC,30.03,31.64,24.62,74.93,11.5,10.0,18.41,,,,,214.0,,,,10.0,,KIGQ 211355Z AUTO 01010G16KT 10SM OVC021 00/M04 A3003 RMK AO2  T10021041,,,2100.0,,,24.51,24.96,N,29.38,29.72,,Overcast
KIGQ,03/21/2018 14:15 UTC,30.03,32.0,24.8,74.41,12.66,20.0,18.41,,,,,234.0,,,,10.0,,KIGQ 211415Z AUTO 02011G16KT 10SM OVC023 00/M04 A3003 RMK AO2  T00001040,,,2300.0,,,24.69,24.93,NNE,29.38,29.71,,Overcast
KIGQ,03/21/2018 14:35 UTC,30.04,32.0,24.44,73.3,14.97,360.0,21.85,,,,,234.0,,,,10.0,,KIGQ 211435Z AUTO 36013G19KT 10SM OVC023 00/M04 A3004 RMK AO2  T00001042,,,2300.0,,,24.32,24.1,N,29.39,29.73,,Overcast
KIGQ,03/21/2018 14:55 UTC,30.04,32.0,24.44,73.3,13.8,360.0,23.02,,,,,234.0,,,,10.0,,KIGQ 211455Z AUTO 36012G20KT 10SM OVC023 00/M04 A3004 RMK AO2  T00001042,,,2300.0,,,24.32,24.5,N,29.39,29.73,,Overcast
KIGQ,03/21/2018 15:15 UTC,30.05,32.0,24.62,73.85,14.97,20.0,21.85,,,,,234.0,,,,10.0,,KIGQ 211515Z AUTO 02013G19KT 10SM OVC023 00/M04 A3005 RMK AO2  T00001041,,,2300.0,,,24.5,24.1,NNE,29.4,29.74,,Overcast
KIGQ,03/21/2018 15:35 UTC,30.06,32.54,24.08,70.65,13.8,360.0,21.85,,,,,234.0,,,,10.0,,KIGQ 211535Z AUTO 36012G19KT 10SM OVC023 00/M04 A3006 RMK AO2  T00031044,,,2300.0,,,23.95,25.17,N,29.41,29.75,,Overcast
KIGQ,03/21/2018 15:55 UTC,30.07,33.44,24.62,69.7,12.66,10.0,23.02,,,,,253.0,,,,10.0,,KIGQ 211555Z AUTO 01011G20KT 10SM BKN025 01/M04 A3007 RMK AO2  T00081041,,,2500.0,,,24.49,26.68,N,29.42,29.75,,Mostly Cloudy
KIGQ,03/21/2018 16:15 UTC,30.07,35.06,25.52,67.83,12.66,360.0,27.63,,,,,254.0,,,,10.0,,KIGQ 211615Z AUTO 36011G24KT 10SM OVC025 02/M04 A3007 RMK AO2  T00171036,,,2500.0,,,25.38,28.65,N,29.42,29.73,,Overcast
KIGQ,03/21/2018 16:35 UTC,30.08,35.06,24.98,66.32,12.66,350.0,21.85,,,,,254.0,,,,10.0,,KIGQ 211635Z AUTO 35011G19KT 10SM OVC025 02/M04 A3008 RMK AO2  T00171039,,,2500.0,,,24.83,28.65,N,29.43,29.74,,Overcast
KIGQ,03/21/2018 16:55 UTC,30.08,34.88,25.16,67.3,13.8,360.0,21.85,,,,,273.0,,,,10.0,,KIGQ 211655Z AUTO 36012G19KT 10SM BKN027 02/M04 A3008 RMK AO2  T00161038,,,2700.0,,,25.02,28.03,N,29.43,29.74,,Mostly Cloudy
KIGQ,03/21/2018 17:15 UTC,30.08,34.7,24.8,66.77,11.5,10.0,21.85,,,,,272.0,,,,10.0,,KIGQ 211715Z AUTO 01010G19KT 340V040 10SM SCT027 02/M04 A3008 RMK AO2 T00151040,,,,,,24.65,28.66,N,29.43,29.75,,Partly Cloudy
KIGQ,03/21/2018 17:35 UTC,30.09,36.68,25.7,64.09,16.11,340.0,21.85,,,,,272.0,,,,10.0,,KIGQ 211735Z AUTO 34014G19KT 10SM SCT027 03/M03 A3009 RMK AO2  T00261035,,,,,,25.55,29.52,NNW,29.44,29.74,,Partly Cloudy
KIGQ,03/21/2018 17:55 UTC,30.1,35.24,24.44,64.38,17.27,10.0,24.16,,,,,272.0,,,,10.0,,KIGQ 211755Z AUTO 01015G21KT 10SM SCT027 02/M04 A3010 RMK AO2  T00181042 10027 21015,36.86,29.3,,,,24.29,27.41,N,29.45,29.77,,Partly Cloudy
KIGQ,03/21/2018 18:15 UTC,30.1,35.78,24.8,63.97,16.11,10.0,21.85,,,,,272.0,,,,10.0,,KIGQ 211815Z AUTO 01014G19KT 10SM SCT027 02/M04 A3010 RMK AO2  T00211040,,,,,,24.65,28.41,N,29.45,29.76,,Partly Cloudy
KIGQ,03/21/2018 18:35 UTC,30.1,36.14,24.8,63.06,14.97,10.0,23.02,,,,,1.0,,,,10.0,,KIGQ 211835Z AUTO 01013G20KT 10SM CLR 02/M04 A3010 RMK AO2  T00231040,,,,,,24.64,29.2,N,29.45,29.76,,Clear
KIGQ,03/21/2018 18:55 UTC,30.1,35.78,24.8,63.97,16.11,20.0,21.85,,,,,1.0,,,,10.0,,KIGQ 211855Z AUTO 02014G19KT 10SM CLR 02/M04 A3010 RMK AO2  T00211040,,,,,,24.65,28.41,NNE,29.45,29.76,,Clear
KIGQ,03/21/2018 19:15 UTC,30.1,36.5,24.62,61.7,17.27,350.0,23.02,,,,,1.0,,,,10.0,,KIGQ 211915Z AUTO 35015G20KT 10SM CLR 03/M04 A3010 RMK AO2  T00251041,,,,,,24.45,28.98,N,29.45,29.76,,Clear
KIGQ,03/21/2018 19:35 UTC,30.11,36.14,23.54,59.82,14.97,10.0,21.85,,,,,1.0,,,,10.0,,KIGQ 211935Z AUTO 01013G19KT 10SM CLR 02/M05 A3011 RMK AO2  T00231047,,,,,,23.37,29.2,N,29.46,29.79,,Clear
KIGQ,03/21/2018 19:55 UTC,30.11,36.5,23.18,58.09,13.8,20.0,19.57,,,,,1.0,,,,10.0,,KIGQ 211955Z AUTO 02012G17KT 10SM CLR 03/M05 A3011 RMK AO2  T00251049,,,,,,23.0,30.01,NNE,29.46,29.79,,Clear
KIGQ,03/21/2018 20:15 UTC,30.12,36.32,23.18,58.5,13.8,10.0,19.57,,,,,1.0,,,,10.0,,KIGQ 212015Z AUTO 01012G17KT 10SM CLR 02/M05 A3012 RMK AO2  T00241049,,,,,,23.0,29.79,N,29.47,29.8,,Clear
KIGQ,03/21/2018 20:35 UTC,30.13,35.96,22.46,57.57,12.66,360.0,19.57,,,,,1.0,,,,10.0,,KIGQ 212035Z AUTO 36011G17KT 10SM CLR 02/M05 A3013 RMK AO2  T00221053,,,,,,22.28,29.75,N,29.47,29.81,,Clear
KIGQ,03/21/2018 20:55 UTC,30.13,36.68,23.18,57.68,13.8,20.0,20.71,,,,,1.0,,,,10.0,,KIGQ 212055Z AUTO 02012G18KT 10SM CLR 03/M05 A3013 RMK AO2  T00261049,,,,,,23.0,30.23,NNE,29.47,29.8,,Clear
KIGQ,03/21/2018 21:15 UTC,30.14,36.14,22.82,58.03,8.05,10.0,18.41,,,,,1.0,,,,10.0,,KIGQ 212115Z AUTO 01007G16KT 10SM CLR 02/M05 A3014 RMK AO2  T00231051,,,,,,22.64,31.94,N,29.48,29.82,,Clear
KIGQ,03/21/2018 21:35 UTC,30.15,35.78,21.92,56.67,12.66,350.0,,,,,,1.0,,,,10.0,,KIGQ 212135Z AUTO 35011KT 10SM CLR 02/M06 A3015 RMK AO2  T00211056,,,,,,21.73,29.53,N,29.49,29.84,,Clear
KIGQ,03/21/2018 21:55 UTC,30.16,35.24,21.74,57.46,10.36,10.0,18.41,,,,,1.0,,,,10.0,,KIGQ 212155Z AUTO 01009G16KT 10SM CLR 02/M06 A3016 RMK AO2  T00181057,,,,,,21.55,29.78,N,29.5,29.85,,Clear
KIGQ,03/21/2018 22:15 UTC,30.16,34.34,21.74,59.56,11.5,350.0,16.11,,,,,1.0,,,,10.0,,KIGQ 212215Z AUTO 35010G14KT 320V030 10SM CLR 01/M06 A3016 RMK AO2  T00131057,,,,,,21.56,28.22,N,29.5,29.86,,Clear
KIGQ,03/21/2018 22:35 UTC,30.17,34.16,21.92,60.45,10.36,20.0,17.27,,,,,1.0,,,,10.0,,KIGQ 212235Z AUTO 02009G15KT 330V050 10SM CLR 01/M06 A3017 RMK AO2  T00121056,,,,,,21.75,28.49,NNE,29.51,29.87,,Clear
KIGQ,03/21/2018 22:55 UTC,30.18,33.98,21.74,60.42,11.5,20.0,,,,,,1.0,,,,10.0,,KIGQ 212255Z AUTO 02010KT 10SM CLR 01/M06 A3018 RMK AO2  T00111057,,,,,,21.57,27.79,NNE,29.52,29.88,,Clear
KIGQ,03/21/2018 23:15 UTC,30.18,33.26,20.84,59.86,6.91,360.0,,,,,,1.0,,,,10.0,,KIGQ 212315Z AUTO 36006KT 10SM CLR 01/M06 A3018 RMK AO2  T00071062,,,,,,20.66,,N,29.52,29.89,,Clear
KIGQ,03/21/2018 23:35 UTC,30.19,32.9,21.92,63.58,10.36,40.0,,,,,,1.0,,,,10.0,,KIGQ 212335Z AUTO 04009KT 10SM CLR 01/M06 A3019 RMK AO2  T00051056,,,,,,21.76,26.98,NE,29.53,29.89,,Clear
KIGQ,03/21/2018 23:55 UTC,30.19,32.18,22.82,67.98,9.22,30.0,,,,,,1.0,,,,10.0,,KIGQ 212355Z AUTO 03008KT 10SM CLR 00/M05 A3019 RMK AO2 T00011051  10028 20001,37.04,32.18,,,,22.68,26.66,NNE,29.53,29.89,,Clear
KIGQ,03/22/2018 00:15 UTC,30.19,32.0,22.46,67.45,8.05,30.0,,,,,,1.0,,,,10.0,,KIGQ 220015Z AUTO 03007KT 10SM CLR 00/M05 A3019 RMK AO2  T00001053,,,,,,22.32,27.08,NNE,29.53,29.89,,Clear
KIGQ,03/22/2018 00:35 UTC,30.19,31.28,22.64,69.97,4.61,10.0,,,,,,1.0,,,,10.0,,KIGQ 220035Z AUTO 01004KT 10SM CLR 00/M05 A3019 RMK AO2  T10041052,,,,,,22.51,,N,29.53,29.89,,Clear
KIGQ,03/22/2018 00:55 UTC,30.2,31.1,23.0,71.56,4.61,20.0,,,,,,1.0,,,,10.0,,KIGQ 220055Z AUTO 02004KT 10SM CLR 00/M05 A3020 RMK AO2  T10051050,,,,,,22.87,,NNE,29.54,29.9,,Clear
KIGQ,03/22/2018 01:15 UTC,30.2,31.1,23.36,72.65,0.0,0.0,,,,,,1.0,,,,10.0,,KIGQ 220115Z AUTO 00000KT 10SM CLR 00/M05 A3020 RMK AO2  T10051048,,,,,,23.24,,N,29.54,29.9,,Clear
KIGQ,03/22/2018 01:35 UTC,30.21,30.92,23.54,73.74,0.0,0.0,,,,,,1.0,,,,10.0,,KIGQ 220135Z AUTO 00000KT 10SM CLR M01/M05 A3021 RMK AO2  T10061047,,,,,,23.42,,N,29.55,29.91,,Clear
KIGQ,03/22/2018 01:55 UTC,30.21,30.92,23.54,73.74,0.0,0.0,,,,,,1.0,,,,10.0,,KIGQ 220155Z AUTO 00000KT 10SM CLR M01/M05 A3021 RMK AO2  T10061047,,,,,,23.42,,N,29.55,29.91,,Clear
KIGQ,03/22/2018 02:15 UTC,30.22,30.92,23.9,74.86,0.0,0.0,,,,,,1.0,,,,10.0,,KIGQ 220215Z AUTO 00000KT 10SM CLR M01/M04 A3022 RMK AO2  T10061045,,,,,,23.79,,N,29.56,29.91,,Clear
KIGQ,03/22/2018 02:35 UTC,30.22,30.92,24.26,76.0,0.0,0.0,,,,,,1.0,,,,10.0,,KIGQ 220235Z AUTO 00000KT 10SM CLR M01/M04 A3022 RMK AO2  T10061043,,,,,,24.15,,N,29.56,29.91,,Clear
KIGQ,03/22/2018 02:55 UTC,30.23,30.92,24.8,77.73,0.0,0.0,,,,,,1.0,,,,10.0,,KIGQ 220255Z AUTO 00000KT 10SM CLR M01/M04 A3023 RMK AO2  T10061040,,,,,,24.7,,N,29.57,29.91,,Clear
KIGQ,03/22/2018 03:15 UTC,30.23,30.56,24.8,78.88,0.0,0.0,,,,,,1.0,,,,10.0,,KIGQ 220315Z AUTO 00000KT 10SM CLR M01/M04 A3023 RMK AO2  T10081040,,,,,,24.71,,N,29.57,29.91,,Clear
KIGQ,03/22/2018 03:35 UTC,30.24,30.92,25.34,79.5,0.0,0.0,,,,,,1.0,,,,10.0,,KIGQ 220335Z AUTO 00000KT 10SM CLR M01/M04 A3024 RMK AO2  T10061037,,,,,,25.25,,N,29.58,29.92,,Clear
KIGQ,03/22/2018 03:55 UTC,30.24,30.56,25.34,80.67,0.0,0.0,,,,,,1.0,,,,10.0,,KIGQ 220355Z AUTO 00000KT 10SM CLR M01/M04 A3024 RMK AO2  T10081037,,,,,,25.25,,N,29.58,29.92,,Clear
KIGQ,03/22/2018 04:15 UTC,30.24,30.2,25.34,81.86,0.0,0.0,,,,,,1.0,,,,10.0,,KIGQ 220415Z AUTO 00000KT 10SM CLR M01/M04 A3024 RMK AO2  T10101037,,,,,,25.26,,N,29.58,29.92,,Clear
KIGQ,03/22/2018 04:35 UTC,30.24,30.38,25.52,81.88,0.0,0.0,,,,,,1.0,,,,10.0,,KIGQ 220435Z AUTO 00000KT 10SM CLR M01/M04 A3024 RMK AO2  T10091036,,,,,,25.44,,N,29.58,29.92,,Clear
KIGQ,03/22/2018 04:55 UTC,30.24,30.2,25.52,82.48,0.0,0.0,,,,,,1.0,,,,10.0,,KIGQ 220455Z AUTO 00000KT 10SM CLR M01/M04 A3024 RMK AO2  T10101036,,,,,,25.44,,N,29.58,29.92,,Clear
KIGQ,03/22/2018 05:15 UTC,30.24,29.84,25.52,83.7,0.0,0.0,,,,,,1.0,,,,10.0,,KIGQ 220515Z AUTO 00000KT 10SM CLR M01/M04 A3024 RMK AO2  T10121036,,,,,,25.45,,N,29.58,29.92,,Clear
KIGQ,03/22/2018 05:35 UTC,30.24,30.02,25.34,82.47,0.0,0.0,,,,,,1.0,,,,10.0,,KIGQ 220535Z AUTO 00000KT 10SM CLR M01/M04 A3024 RMK AO2  T10111037,,,,,,25.26,,N,29.58,29.92,,Clear
KIGQ,03/22/2018 05:55 UTC,30.24,29.3,24.8,83.03,0.0,0.0,,,,,,1.0,,,,10.0,,KIGQ 220555Z AUTO 00000KT 10SM CLR M01/M04 A3024 RMK AO2 T10151040  10001 21015 400281017,32.18,29.3,,37.04,28.94,24.72,,N,29.58,29.93,,Clear
KIGQ,03/22/2018 06:15 UTC,30.25,29.3,24.8,83.03,0.0,0.0,,,,,,1.0,,,,10.0,,KIGQ 220615Z AUTO 00000KT 10SM CLR M01/M04 A3025 RMK AO2  T10151040,,,,,,24.72,,N,29.59,29.94,,Clear
KIGQ,03/22/2018 06:35 UTC,30.25,28.94,24.8,84.27,0.0,0.0,,,,,,1.0,,,,10.0,,KIGQ 220635Z AUTO 00000KT 10SM CLR M02/M04 A3025 RMK AO2  T10171040,,,,,,24.73,,N,29.59,29.94,,Clear
KIGQ,03/22/2018 06:55 UTC,30.26,27.5,24.44,88.07,0.0,0.0,,,,,,1.0,,,,10.0,,KIGQ 220655Z AUTO 00000KT 10SM CLR M02/M04 A3026 RMK AO2  T10251042,,,,,,24.39,,N,29.6,29.97,,Clear
KIGQ,03/22/2018 07:15 UTC,30.26,26.6,23.9,89.36,4.61,280.0,,,,,,1.0,,,,10.0,,KIGQ 220715Z AUTO 28004KT 10SM CLR M03/M04 A3026 RMK AO2  T10301045,,,,,,23.85,,W,29.6,29.98,,Clear
KIGQ,03/22/2018 07:35 UTC,30.26,25.52,23.54,92.06,0.0,0.0,,,,,,1.0,,,,10.0,,KIGQ 220735Z AUTO 00000KT 10SM CLR M04/M05 A3026 RMK AO2  T10361047,,,,,,23.51,,N,29.6,29.99,,Clear
KIGQ,03/22/2018 07:55 UTC,30.26,25.7,23.72,92.06,0.0,0.0,,,,,,1.0,,,,10.0,,KIGQ 220755Z AUTO 00000KT 10SM CLR M03/M05 A3026 RMK AO2  T10351046,,,,,,23.68,,N,29.6,29.98,,Clear
KIGQ,03/22/2018 08:15 UTC,30.26,25.7,23.54,91.37,3.44,290.0,,,,,,1.0,,,,10.0,,KIGQ 220815Z AUTO 29003KT 10SM CLR M03/M05 A3026 RMK AO2  T10351047,,,,,,23.5,,WNW,29.6,29.99,,Clear
KIGQ,03/22/2018 08:35 UTC,30.27,26.42,23.9,90.03,0.0,0.0,,,,,,1.0,,,,10.0,,KIGQ 220835Z AUTO 00000KT 10SM CLR M03/M04 A3027 RMK AO2  T10311045,,,,,,23.86,,N,29.61,29.99,,Clear
KIGQ,03/22/2018 08:55 UTC,30.27,26.24,23.54,89.34,3.44,290.0,,,,,,1.0,,,,10.0,,KIGQ 220855Z AUTO 29003KT 10SM CLR M03/M05 A3027 RMK AO2  T10321047,,,,,,23.49,,WNW,29.61,29.99,,Clear
KIGQ,03/22/2018 09:15 UTC,30.27,25.88,23.18,89.33,0.0,0.0,,,,,,1.0,,,,10.0,,KIGQ 220915Z AUTO 00000KT 10SM CLR M03/M05 A3027 RMK AO2  T10341049,,,,,,23.13,,N,29.61,30.0,,Clear
KIGQ,03/22/2018 09:35 UTC,30.27,26.06,23.0,87.99,0.0,0.0,,,,,,1.0,,,,10.0,,KIGQ 220935Z AUTO 00000KT 10SM CLR M03/M05 A3027 RMK AO2  T10331050,,,,,,22.95,,N,29.61,30.0,,Clear
KIGQ,03/22/2018 09:55 UTC,30.28,26.24,23.0,87.34,3.44,310.0,,,,,,1.0,,,,10.0,,KIGQ 220955Z AUTO 31003KT 10SM CLR M03/M05 A3028 RMK AO2  T10321050,,,,,,22.94,,NW,29.62,30.01,,Clear
KIGQ,03/22/2018 10:15 UTC,30.28,26.06,23.0,87.99,3.44,320.0,,,,,,1.0,,,,10.0,,KIGQ 221015Z AUTO 32003KT 10SM CLR M03/M05 A3028 RMK AO2  T10331050,,,,,,22.95,,NW,29.62,30.01,,Clear
KIGQ,03/22/2018 10:35 UTC,30.29,26.24,22.82,86.68,3.44,320.0,,,,,,1.0,,,,10.0,,KIGQ 221035Z AUTO 32003KT 10SM CLR M03/M05 A3029 RMK AO2  T10321051,,,,,,22.76,,NW,29.63,30.02,,Clear
KIGQ,03/22/2018 10:55 UTC,30.29,25.7,22.46,87.31,3.44,320.0,,,,,,1.0,,,,10.0,,KIGQ 221055Z AUTO 32003KT 10SM CLR M03/M05 A3029 RMK AO2  T10351053,,,,,,22.4,,NW,29.63,30.03,,Clear
KIGQ,03/22/2018 11:15 UTC,30.29,25.34,22.1,87.29,3.44,330.0,,,,,,1.0,,,,10.0,,KIGQ 221115Z AUTO 33003KT 10SM CLR M04/M05 A3029 RMK AO2  T10371055,,,,,,22.04,,NNW,29.63,30.03,,Clear
KIGQ,03/22/2018 11:35 UTC,30.3,25.52,22.46,87.96,3.44,320.0,,,,,,1.0,,,,10.0,,KIGQ 221135Z AUTO 32003KT 10SM CLR M04/M05 A3030 RMK AO2  T10361053,,,,,,22.41,,NW,29.64,30.04,,Clear
KIGQ,03/22/2018 11:55 UTC,30.31,24.8,21.92,88.6,3.44,300.0,,,,,,1.0,,,,10.0,,KIGQ 221155Z AUTO 30003KT 10SM CLR M04/M06 A3031 RMK AO2 T10401056  11013 21040,29.66,24.8,,,,21.87,,WNW,29.65,30.06,,Clear
KIGQ,03/22/2018 12:15 UTC,30.32,25.88,22.64,87.32,4.61,310.0,,,,,,1.0,,,,10.0,,KIGQ 221215Z AUTO 31004KT 10SM CLR M03/M05 A3032 RMK AO2  T10341052,,,,,,22.58,,NW,29.66,30.06,,Clear
KIGQ,03/22/2018 12:35 UTC,30.32,26.96,23.18,85.42,4.61,320.0,,,,,,1.0,,,,10.0,,KIGQ 221235Z AUTO 32004KT 10SM CLR M03/M05 A3032 RMK AO2  T10281049,,,,,,23.12,,NW,29.66,30.04,,Clear
KIGQ,03/22/2018 12:55 UTC,30.33,28.4,24.26,84.23,3.44,320.0,,,,,,1.0,,,,10.0,,KIGQ 221255Z AUTO 32003KT 10SM CLR M02/M04 A3033 RMK AO2  T10201043,,,,,,24.19,,NW,29.67,30.04,,Clear
KIGQ,03/22/2018 13:15 UTC,30.34,29.84,24.98,81.84,3.44,330.0,,,,,,1.0,,,,10.0,,KIGQ 221315Z AUTO 33003KT 10SM CLR M01/M04 A3034 RMK AO2  T10121039,,,,,,24.9,,NNW,29.68,30.03,,Clear
KIGQ,03/22/2018 13:35 UTC,30.34,31.46,25.7,78.96,4.61,320.0,,,,,,1.0,,,,10.0,,KIGQ 221335Z AUTO 32004KT 10SM CLR 00/M03 A3034 RMK AO2  T10031035,,,,,,25.61,,NW,29.68,30.01,,Clear
KIGQ,03/22/2018 13:55 UTC,30.34,32.36,26.24,77.87,4.61,340.0,,,,,,1.0,,,,10.0,,KIGQ 221355Z AUTO 34004KT 10SM CLR 00/M03 A3034 RMK AO2  T00021032,,,,,,26.14,,NNW,29.68,30.0,,Clear
KIGQ,03/22/2018 14:15 UTC,30.35,33.98,26.78,74.61,8.05,350.0,,,,,,1.0,,,,10.0,,KIGQ 221415Z AUTO 35007KT 10SM CLR 01/M03 A3035 RMK AO2  T00111029,,,,,,26.67,29.4,N,29.69,29.99,,Clear
KIGQ,03/22/2018 14:35 UTC,30.36,35.6,27.14,71.0,5.75,350.0,,,,,,1.0,,,,10.0,,KIGQ 221435Z AUTO 35005KT 10SM CLR 02/M03 A3036 RMK AO2  T00201027,,,,,,27.02,,N,29.7,29.99,,Clear
KIGQ,03/22/2018 14:55 UTC,30.36,36.86,25.7,63.63,8.05,30.0,,,,,,1.0,,,,10.0,,KIGQ 221455Z AUTO 03007KT 10SM CLR 03/M03 A3036 RMK AO2  T00271035,,,,,,25.54,32.78,NNE,29.7,30.0,,Clear
KIGQ,03/22/2018 15:15 UTC,30.36,37.4,24.08,58.22,5.75,360.0,,,,,,1.0,,,,10.0,,KIGQ 221515Z AUTO 36005KT 10SM CLR 03/M04 A3036 RMK AO2  T00301044,,,,,,23.9,,N,29.7,30.02,,Clear
KIGQ,03/22/2018 15:35 UTC,30.36,38.3,23.0,53.71,6.91,360.0,,,,,,1.0,,,,10.0,,KIGQ 221535Z AUTO 36006KT 10SM CLR 04/M05 A3036 RMK AO2  T00351050,,,,,,22.81,,N,29.7,30.03,,Clear
KIGQ,03/22/2018 15:55 UTC,30.37,39.02,22.82,51.82,8.05,20.0,,,,,,1.0,,,,10.0,,KIGQ 221555Z AUTO 02007KT 10SM CLR 04/M05 A3037 RMK AO2  T00391051,,,,,,22.62,35.32,NNE,29.71,30.04,,Clear
KIGQ,03/22/2018 16:15 UTC,30.37,39.74,22.82,50.38,6.91,40.0,,,,,,1.0,,,,10.0,,KIGQ 221615Z AUTO 04006KT 10SM CLR 04/M05 A3037 RMK AO2  T00431051,,,,,,22.61,,NE,29.71,30.03,,Clear
KIGQ,03/22/2018 16:35 UTC,30.37,40.1,22.82,49.68,3.44,350.0,,,,,,1.0,,,,10.0,,KIGQ 221635Z AUTO 35003KT 10SM CLR 05/M05 A3037 RMK AO2  T00451051,,,,,,22.61,,N,29.71,30.03,,Clear
KIGQ,03/22/2018 16:55 UTC,30.36,40.28,22.1,47.86,0.0,0.0,,,,,,1.0,,,,10.0,,KIGQ 221655Z AUTO 00000KT 10SM CLR 05/M05 A3036 RMK AO2  T00461055,,,,,,21.88,,N,29.7,30.03,,Clear
KIGQ,03/22/2018 17:15 UTC,30.36,41.72,23.18,47.37,6.91,20.0,,,,,,1.0,,,,10.0,,KIGQ 221715Z AUTO 02006KT 10SM CLR 05/M05 A3036 RMK AO2  T00541049,,,,,,22.96,,NNE,29.7,30.01,,Clear
KIGQ,03/22/2018 17:35 UTC,30.36,43.16,22.64,43.81,3.44,20.0,,,,,,1.0,,,,10.0,,KIGQ 221735Z AUTO 02003KT 10SM CLR 06/M05 A3036 RMK AO2  T00621052,,,,,,22.41,,NNE,29.7,30.01,,Clear
KIGQ,03/22/2018 17:55 UTC,30.35,43.16,20.66,40.29,8.05,360.0,,,,,,1.0,,,,10.0,,KIGQ 221755Z AUTO 36007KT 340V060 10SM CLR 06/M06 A3035 RMK AO2  T00621063 10063 21040,43.34,24.8,,,,20.43,40.18,N,29.69,30.02,,Clear
KIGQ,03/22/2018 18:15 UTC,30.34,42.8,17.24,35.27,5.75,10.0,,,,,,1.0,,,,10.0,,KIGQ 221815Z AUTO 01005KT 10SM CLR 06/M08 A3034 RMK AO2  T00601082,,,,,,16.99,,N,29.68,30.05,,Clear
KIGQ,03/22/2018 18:35 UTC,30.33,43.7,19.4,37.39,4.61,10.0,9.22,,,,,1.0,,,,10.0,,KIGQ 221835Z AUTO 01004G08KT 10SM CLR 07/M07 A3033 RMK AO2  T00651070,,,,,,19.15,,N,29.67,30.01,,Clear
KIGQ,03/22/2018 18:55 UTC,30.32,44.42,21.92,40.5,5.75,40.0,,,,0.03,,1.0,,,,,,KIGQ 221855Z AUTO 04005KT CLR 07/M06 A3032 RMK AO2 P0003 T00691056  PWINO,,,,,,21.69,,NE,29.66,29.97,,Clear
KIGQ,03/22/2018 19:15 UTC,30.32,43.52,22.46,42.89,3.44,40.0,,,,,,1.0,,,,10.0,,KIGQ 221915Z AUTO 04003KT 10SM CLR 06/M05 A3032 RMK AO2  T00641053,,,,,,22.24,,NE,29.66,29.97,,Clear
KIGQ,03/22/2018 19:35 UTC,30.32,44.06,22.82,42.65,3.44,50.0,,,,,,1.0,,,,10.0,,KIGQ 221935Z AUTO 05003KT 10SM CLR 07/M05 A3032 RMK AO2  T00671051,,,,,,22.59,,NE,29.66,29.96,,Clear
KIGQ,03/22/2018 19:55 UTC,30.31,43.34,22.28,42.86,10.36,70.0,,,,,,1.0,,,,10.0,,KIGQ 221955Z AUTO 07009KT 040V120 10SM CLR 06/M05 A3031 RMK AO2  T00631054,,,,,,22.06,39.48,ENE,29.65,29.96,,Clear
KIGQ,03/22/2018 20:15 UTC,30.31,42.98,21.74,42.47,5.75,40.0,,,,,,1.0,,,,10.0,,KIGQ 222015Z AUTO 04005KT 10SM CLR 06/M06 A3031 RMK AO2  T00611057,,,,,,21.51,,NE,29.65,29.97,,Clear
KIGQ,03/22/2018 20:35 UTC,30.3,43.52,21.74,41.6,8.05,30.0,,,,,,1.0,,,,10.0,,KIGQ 222035Z AUTO 03007KT 10SM CLR 06/M06 A3030 RMK AO2  T00641057,,,,,,21.51,40.61,NNE,29.64,29.95,,Clear
KIGQ,03/22/2018 20:55 UTC,30.3,43.7,21.56,41.0,6.91,30.0,,,,,0.03,1.0,,,,10.0,,KIGQ 222055Z AUTO 03006KT 10SM CLR 07/M06 A3030 RMK AO2 60003  T00651058,,,,,,21.33,,NNE,29.64,29.96,,Clear
KIGQ,03/22/2018 21:15 UTC,30.29,43.7,20.3,38.86,8.05,60.0,,,,,,1.0,,,,10.0,,KIGQ 222115Z AUTO 06007KT 10SM CLR 07/M06 A3029 RMK AO2  T00651065,,,,,,20.06,40.82,ENE,29.63,29.96,,Clear
KIGQ,03/22/2018 21:35 UTC,30.29,43.34,19.58,38.21,6.91,40.0,,,,,,1.0,,,,10.0,,KIGQ 222135Z AUTO 04006KT 10SM CLR 06/M07 A3029 RMK AO2  T00631069,,,,,,19.34,,NE,29.63,29.97,,Clear
KIGQ,03/22/2018 21:55 UTC,30.29,43.16,19.4,38.18,6.91,50.0,,,,,,1.0,,,,10.0,,KIGQ 222155Z AUTO 05006KT 10SM CLR 06/M07 A3029 RMK AO2  T00621070,,,,,,19.16,,NE,29.63,29.97,,Clear
KIGQ,03/22/2018 22:15 UTC,30.28,43.16,18.86,37.3,5.75,60.0,,,,,,1.0,,,,10.0,,KIGQ 222215Z AUTO 06005KT 10SM CLR 06/M07 A3028 RMK AO2  T00621073,,,,,,18.61,,ENE,29.62,29.97,,Clear
KIGQ,03/22/2018 22:35 UTC,30.29,42.8,17.96,36.38,6.91,50.0,,,,,,1.0,,,,10.0,,KIGQ 222235Z AUTO 05006KT 10SM CLR 06/M08 A3029 RMK AO2  T00601078,,,,,,17.71,,NE,29.63,29.99,,Clear
KIGQ,03/22/2018 22:55 UTC,30.29,42.62,18.32,37.21,8.05,50.0,,,,,,1.0,,,,10.0,,KIGQ 222255Z AUTO 05007KT 10SM CLR 06/M08 A3029 RMK AO2  T00591076,,,,,,18.07,39.55,NE,29.63,29.99,,Clear
KIGQ,03/22/2018 23:15 UTC,30.29,41.72,17.96,37.93,5.75,80.0,,,,,,1.0,,,,10.0,,KIGQ 222315Z AUTO 08005KT 10SM CLR 05/M08 A3029 RMK AO2  T00541078,,,,,,17.71,,E,29.63,29.99,,Clear
KIGQ,03/22/2018 23:35 UTC,30.29,40.28,17.78,39.79,5.75,80.0,,,,,,1.0,,,,10.0,,KIGQ 222335Z AUTO 08005KT 10SM CLR 05/M08 A3029 RMK AO2  T00461079,,,,,,17.53,,E,29.63,30.0,,Clear
KIGQ,03/22/2018 23:55 UTC,30.29,39.2,16.52,39.3,4.61,70.0,,,,,,1.0,,0.03,,10.0,,KIGQ 222355Z AUTO 07004KT 10SM CLR 04/M09 A3029 RMK AO2 60003  T00401086 10074 20040,45.32,39.2,,,,16.27,,ENE,29.63,30.02,,Clear
KIGQ,03/23/2018 00:15 UTC,30.29,38.12,15.8,39.73,3.44,70.0,,,,,,1.0,,,,10.0,,KIGQ 230015Z AUTO 07003KT 10SM CLR 03/M09 A3029 RMK AO2  T00341090,,,,,,15.55,,ENE,29.63,30.03,,Clear
KIGQ,03/23/2018 00:35 UTC,30.29,37.94,15.26,39.08,3.44,70.0,,,,,,1.0,,,,10.0,,KIGQ 230035Z AUTO 07003KT 10SM CLR 03/M09 A3029 RMK AO2  T00331093,,,,,,15.01,,ENE,29.63,30.04,,Clear
KIGQ,03/23/2018 00:55 UTC,30.3,37.04,15.44,40.8,0.0,0.0,,,,,,1.0,,,,10.0,,KIGQ 230055Z AUTO 00000KT 10SM CLR 03/M09 A3030 RMK AO2  T00281092,,,,,,15.19,,N,29.64,30.05,,Clear
KIGQ,03/23/2018 01:15 UTC,30.3,36.32,15.44,41.98,4.61,40.0,,,,,,1.0,,,,10.0,,KIGQ 230115Z AUTO 04004KT 10SM CLR 02/M09 A3030 RMK AO2  T00241092,,,,,,15.19,,NE,29.64,30.05,,Clear
KIGQ,03/23/2018 01:35 UTC,30.31,36.5,15.8,42.34,3.44,40.0,,,,,,1.0,,,,10.0,,KIGQ 230135Z AUTO 04003KT 10SM CLR 03/M09 A3031 RMK AO2  T00251090,,,,,,15.55,,NE,29.65,30.06,,Clear
KIGQ,03/23/2018 01:55 UTC,30.32,35.42,18.14,48.91,4.61,40.0,,,,,,752.0,,,,10.0,,KIGQ 230155Z AUTO 04004KT 10SM SCT075 02/M08 A3032 RMK AO2  T00191077,,,,,,17.92,,NE,29.66,30.05,,Partly Cloudy
KIGQ,03/23/2018 02:15 UTC,30.31,35.6,21.02,54.94,4.61,40.0,,,,,,754.0,,,,10.0,,KIGQ 230215Z AUTO 04004KT 10SM OVC075 02/M06 A3031 RMK AO2  T00201061,,,7500.0,,,20.82,,NE,29.65,30.01,,Overcast
KIGQ,03/23/2018 02:35 UTC,30.32,35.6,24.62,63.94,8.05,40.0,,,,,,754.0,,,,10.0,,KIGQ 230235Z AUTO 04007KT 10SM OVC075 02/M04 A3032 RMK AO2  T00201041,,,7500.0,,,24.46,31.3,NE,29.66,29.98,,Overcast
KIGQ,03/23/2018 02:55 UTC,30.32,35.24,26.42,69.91,10.36,40.0,,,,,,754.0,,,,10.0,,KIGQ 230255Z AUTO 04009KT 10SM OVC075 02/M03 A3032 RMK AO2  T00181031,,,7500.0,,,26.29,29.78,NE,29.66,29.96,,Overcast
KIGQ,03/23/2018 03:15 UTC,30.32,34.52,28.58,78.64,9.22,40.0,,,,,,754.0,,,,10.0,,KIGQ 230315Z AUTO 04008KT 10SM OVC075 01/M02 A3032 RMK AO2  T00141019,,,7500.0,,,28.49,29.44,NE,29.66,29.94,,Overcast
KIGQ,03/23/2018 03:35 UTC,30.32,33.8,28.94,82.14,10.36,50.0,,,,,,754.0,,,,10.0,,KIGQ 230335Z AUTO 05009KT 10SM OVC075 01/M02 A3032 RMK AO2  T00101017,,,7500.0,,,28.86,28.06,NE,29.66,29.94,,Overcast
KIGQ,03/23/2018 03:55 UTC,30.33,33.62,28.58,81.52,8.05,40.0,,,,,,754.0,,,,10.0,,KIGQ 230355Z AUTO 04007KT 10SM OVC075 01/M02 A3033 RMK AO2  T00091019,,,7500.0,,,28.5,28.98,NE,29.67,29.95,,Overcast
KIGQ,03/23/2018 04:15 UTC,30.34,33.44,26.6,75.68,6.91,40.0,,,,,,754.0,,,,10.0,,KIGQ 230415Z AUTO 04006KT 10SM OVC075 01/M03 A3034 RMK AO2  T00081030,,,7500.0,,,26.49,,NE,29.68,29.99,,Overcast
KIGQ,03/23/2018 04:35 UTC,30.34,33.8,25.7,71.86,6.91,50.0,,,,,,754.0,,,,10.0,,KIGQ 230435Z AUTO 05006KT 10SM OVC075 01/M03 A3034 RMK AO2  T00101035,,,7500.0,,,25.58,,NE,29.68,30.0,,Overcast
KIGQ,03/23/2018 04:55 UTC,30.34,33.8,24.8,69.22,5.75,40.0,,,,,,754.0,,,,10.0,,KIGQ 230455Z AUTO 04005KT 10SM OVC075 01/M04 A3034 RMK AO2  T00101040,,,7500.0,,,24.67,,NE,29.68,30.01,,Overcast
KIGQ,03/23/2018 05:15 UTC,30.34,33.8,24.44,68.18,4.61,40.0,,,,,,754.0,,,,10.0,,KIGQ 230515Z AUTO 04004KT 10SM OVC075 01/M04 A3034 RMK AO2  T00101042,,,7500.0,,,24.3,,NE,29.68,30.01,,Overcast
KIGQ,03/23/2018 05:35 UTC,30.34,33.8,23.9,66.66,4.61,50.0,,,,,,754.0,,,,10.0,,KIGQ 230535Z AUTO 05004KT 10SM OVC075 01/M04 A3034 RMK AO2  T00101045,,,7500.0,,,23.75,,NE,29.68,30.02,,Overcast
KIGQ,03/23/2018 05:55 UTC,30.34,33.62,23.9,67.14,5.75,50.0,,,,,,754.0,,,,10.0,,KIGQ 230555Z AUTO 05005KT 10SM OVC075 01/M04 A3034 RMK AO2  T00091045 10040 20008 400741040,39.2,33.44,7500.0,45.32,24.8,23.76,,NE,29.68,30.02,,Overcast
KIGQ,03/23/2018 06:15 UTC,30.34,33.44,23.9,67.63,0.0,0.0,,,,,,754.0,,,,10.0,,KIGQ 230615Z AUTO 00000KT 10SM OVC075 01/M04 A3034 RMK AO2  T00081045,,,7500.0,,,23.76,,N,29.68,30.02,,Overcast
KIGQ,03/23/2018 06:35 UTC,30.34,33.26,24.08,68.63,4.61,40.0,,,,,,754.0,,,,10.0,,KIGQ 230635Z AUTO 04004KT 10SM OVC075 01/M04 A3034 RMK AO2  T00071044,,,7500.0,,,23.94,,NE,29.68,30.02,,Overcast
KIGQ,03/23/2018 06:55 UTC,30.34,33.08,23.9,68.61,0.0,0.0,,,,,,753.0,,,,10.0,,KIGQ 230655Z AUTO 00000KT 10SM BKN075 01/M04 A3034 RMK AO2  T00061045,,,7500.0,,,23.76,,N,29.68,30.02,,Mostly Cloudy
KIGQ,03/23/2018 07:15 UTC,30.34,32.36,23.72,70.1,0.0,0.0,,,,,,652.0,,,,10.0,,KIGQ 230715Z AUTO 00000KT 10SM SCT065 00/M05 A3034 RMK AO2  T00021046,,,,,,23.59,,N,29.68,30.03,,Partly Cloudy
KIGQ,03/23/2018 07:35 UTC,30.34,32.0,24.26,72.75,0.0,0.0,,,,,,1.0,,,,10.0,,KIGQ 230735Z AUTO 00000KT 10SM CLR 00/M04 A3034 RMK AO2  T00001043,,,,,,24.14,,N,29.68,30.03,,Clear
KIGQ,03/23/2018 07:55 UTC,30.35,31.46,24.26,74.35,0.0,0.0,,,,,,1.0,,,,10.0,,KIGQ 230755Z AUTO 00000KT 10SM CLR 00/M04 A3035 RMK AO2  T10031043,,,,,,24.15,,N,29.69,30.04,,Clear
KIGQ,03/23/2018 08:15 UTC,30.34,30.02,24.44,79.43,0.0,0.0,,,,,,1.0,,,,10.0,,KIGQ 230815Z AUTO 00000KT 10SM CLR M01/M04 A3034 RMK AO2  T10111042,,,,,,24.35,,N,29.68,30.03,,Clear
KIGQ,03/23/2018 08:35 UTC,30.34,30.74,24.26,76.56,0.0,0.0,,,,,,1.0,,,,10.0,,KIGQ 230835Z AUTO 00000KT 10SM CLR M01/M04 A3034 RMK AO2  T10071043,,,,,,24.16,,N,29.68,30.03,,Clear
KIGQ,03/23/2018 08:55 UTC,30.35,30.92,23.72,74.3,0.0,0.0,,,,,,1.0,,,,10.0,,KIGQ 230855Z AUTO 00000KT 10SM CLR M01/M05 A3035 RMK AO2  T10061046,,,,,,23.61,,N,29.69,30.05,,Clear
KIGQ,03/23/2018 09:15 UTC,30.35,30.2,23.9,77.08,0.0,0.0,,,,,,1.0,,,,10.0,,KIGQ 230915Z AUTO 00000KT 10SM CLR M01/M04 A3035 RMK AO2  T10101045,,,,,,23.8,,N,29.69,30.05,,Clear
KIGQ,03/23/2018 09:35 UTC,30.34,30.2,23.9,77.08,0.0,0.0,,,,,,1.0,,,,10.0,,KIGQ 230935Z AUTO 00000KT 10SM CLR M01/M04 A3034 RMK AO2  T10101045,,,,,,23.8,,N,29.68,30.04,,Clear
KIGQ,03/23/2018 09:55 UTC,30.34,30.74,22.82,72.06,3.44,40.0,,,,,,1.0,,,,10.0,,KIGQ 230955Z AUTO 04003KT 10SM CLR M01/M05 A3034 RMK AO2  T10071051,,,,,,22.7,,NE,29.68,30.05,,Clear
KIGQ,03/23/2018 10:15 UTC,30.35,30.92,22.46,70.46,3.44,40.0,,,,,,1.0,,,,10.0,,KIGQ 231015Z AUTO 04003KT 10SM CLR M01/M05 A3035 RMK AO2  T10061053,,,,,,22.33,,NE,29.69,30.06,,Clear
KIGQ,03/23/2018 10:35 UTC,30.34,31.1,22.46,69.95,0.0,0.0,,,,,,1.0,,,,10.0,,KIGQ 231035Z AUTO 00000KT 10SM CLR 00/M05 A3034 RMK AO2  T10051053,,,,,,22.33,,N,29.68,30.05,,Clear
KIGQ,03/23/2018 10:55 UTC,30.34,30.2,22.82,73.66,0.0,0.0,,,,,,1.0,,,,10.0,,KIGQ 231055Z AUTO 00000KT 10SM CLR M01/M05 A3034 RMK AO2  T10101051,,,,,,22.7,,N,29.68,30.05,,Clear
KIGQ,03/23/2018 11:15 UTC,30.35,30.38,22.82,73.12,0.0,0.0,,,,,,1.0,,,,10.0,,KIGQ 231115Z AUTO 00000KT 10SM CLR M01/M05 A3035 RMK AO2  T10091051,,,,,,22.7,,N,29.69,30.06,,Clear
KIGQ,03/23/2018 11:35 UTC,30.36,30.92,21.56,67.83,3.44,50.0,,,,,,1.0,,,,10.0,,KIGQ 231135Z AUTO 05003KT 10SM CLR M01/M06 A3036 RMK AO2  T10061058,,,,,,21.42,,NE,29.7,30.08,,Clear
KIGQ,03/23/2018 11:55 UTC,30.36,30.92,20.3,64.29,3.44,50.0,,,,,,1.0,,,0.03,10.0,,KIGQ 231155Z AUTO 05003KT 10SM CLR M01/M06 A3036 RMK AO2 70003  T10061065 10010 21012,33.8,29.84,,,,20.14,,NE,29.7,30.09,,Clear
KIGQ,03/23/2018 12:15 UTC,30.37,31.1,20.3,63.82,0.0,0.0,,,,,,1.0,,,,10.0,,KIGQ 231215Z AUTO 00000KT 10SM CLR 00/M06 A3037 RMK AO2  T10051065,,,,,,20.14,,N,29.71,30.1,,Clear
KIGQ,03/23/2018 12:35 UTC,30.37,32.0,21.74,65.42,3.44,50.0,,,,,,1.0,,,,10.0,,KIGQ 231235Z AUTO 05003KT 10SM CLR 00/M06 A3037 RMK AO2  T00001057,,,,,,21.59,,NE,29.71,30.08,,Clear
KIGQ,03/23/2018 12:55 UTC,30.37,33.44,22.82,64.62,3.44,50.0,,,,,,1.0,,,,10.0,,KIGQ 231255Z AUTO 05003KT 10SM CLR 01/M05 A3037 RMK AO2  T00081051,,,,,,22.66,,NE,29.71,30.06,,Clear
KIGQ,03/23/2018 13:15 UTC,30.37,34.88,22.28,59.64,6.91,60.0,,,,,,1.0,,,,10.0,,KIGQ 231315Z AUTO 06006KT 10SM CLR 02/M05 A3037 RMK AO2  T00161054,,,,,,22.11,,ENE,29.71,30.06,,Clear
KIGQ,03/23/2018 13:35 UTC,30.36,35.6,22.1,57.51,11.5,60.0,,,,,,1.0,,,,10.0,,KIGQ 231335Z AUTO 06010KT 10SM CLR 02/M05 A3036 RMK AO2  T00201055,,,,,,21.91,29.74,ENE,29.7,30.05,,Clear
KIGQ,03/23/2018 13:55 UTC,30.36,36.32,23.54,59.39,8.05,50.0,,,,,,1.0,,,,10.0,,KIGQ 231355Z AUTO 05007KT 10SM CLR 02/M05 A3036 RMK AO2  T00241047,,,,,,23.36,32.15,NE,29.7,30.03,,Clear
KIGQ,03/23/2018 14:15 UTC,30.36,37.04,24.62,60.4,8.05,50.0,,,,,,1.0,,,,10.0,,KIGQ 231415Z AUTO 05007KT 030V090 10SM CLR 03/M04 A3036 RMK AO2  T00281041,,,,,,24.45,33.0,NE,29.7,30.01,,Clear
KIGQ,03/23/2018 14:35 UTC,30.37,37.22,24.8,60.43,8.05,70.0,,,,,,1.0,,,,10.0,,KIGQ 231435Z AUTO 07007KT 10SM CLR 03/M04 A3037 RMK AO2  T00291040,,,,,,24.63,33.21,ENE,29.71,30.02,,Clear
KIGQ,03/23/2018 14:55 UTC,30.37,37.94,25.34,60.08,8.05,50.0,,,,,,1.0,,,,10.0,,KIGQ 231455Z AUTO 05007KT 10SM CLR 03/M04 A3037 RMK AO2  T00331037,,,,,,25.17,34.05,NE,29.71,30.01,,Clear
KIGQ,03/23/2018 15:15 UTC,30.37,38.48,26.24,61.06,6.91,50.0,,,,,,1.0,,,,10.0,,KIGQ 231515Z AUTO 05006KT 10SM CLR 04/M03 A3037 RMK AO2  T00361032,,,,,,26.08,,NE,29.71,30.0,,Clear
KIGQ,03/23/2018 15:35 UTC,30.37,39.2,25.34,57.19,11.5,60.0,,,,,,1.0,,,,10.0,,KIGQ 231535Z AUTO 06010KT 10SM CLR 04/M04 A3037 RMK AO2  T00401037,,,,,,25.16,34.09,ENE,29.71,30.0,,Clear
KIGQ,03/23/2018 15:55 UTC,30.38,39.2,26.6,60.26,8.05,20.0,,,,,,1.0,,,,10.0,,KIGQ 231555Z AUTO 02007KT 10SM CLR 04/M03 A3038 RMK AO2  T00401030,,,,,,26.43,35.53,NNE,29.72,30.0,,Clear
KIGQ,03/23/2018 16:15 UTC,30.38,39.56,24.98,55.55,10.36,60.0,17.27,,,,,1.0,,,,10.0,,KIGQ 231615Z AUTO 06009G15KT 10SM CLR 04/M04 A3038 RMK AO2  T00421039,,,,,,24.79,34.95,ENE,29.72,30.02,,Clear
KIGQ,03/23/2018 16:35 UTC,30.37,40.1,23.54,51.21,11.5,70.0,,,,,,1.0,,,,10.0,,KIGQ 231635Z AUTO 07010KT 10SM CLR 05/M05 A3037 RMK AO2  T00451047,,,,,,23.34,35.18,ENE,29.71,30.02,,Clear
KIGQ,03/23/2018 16:55 UTC,30.37,39.92,23.18,50.8,11.5,30.0,16.11,,,,,1.0,,,,10.0,,KIGQ 231655Z AUTO 03010G14KT 10SM CLR 04/M05 A3037 RMK AO2  T00441049,,,,,,22.98,34.96,NNE,29.71,30.03,,Clear
KIGQ,03/23/2018 17:15 UTC,30.36,39.74,21.74,48.14,11.5,20.0,,,,,,1.0,,,,10.0,,KIGQ 231715Z AUTO 02010KT 10SM CLR 04/M06 A3036 RMK AO2  T00431057,,,,,,21.53,34.74,NNE,29.7,30.03,,Clear
KIGQ,03/23/2018 17:35 UTC,30.36,40.28,22.64,48.96,11.5,40.0,16.11,,,,,1.0,,,,10.0,,KIGQ 231735Z AUTO 04010G14KT 10SM CLR 05/M05 A3036 RMK AO2  T00461052,,,,,,22.43,35.39,NE,29.7,30.02,,Clear
KIGQ,03/23/2018 17:55 UTC,30.36,39.92,21.38,47.08,14.97,40.0,,,,,,1.0,,,,10.0,,KIGQ 231755Z AUTO 04013KT 10SM CLR 04/M06 A3036 RMK AO2 T00441059  10048 21009,40.64,30.38,,,,21.16,33.86,NE,29.7,30.04,,Clear
KIGQ,03/23/2018 18:15 UTC,30.36,39.92,20.3,44.96,12.66,30.0,18.41,,,,,1.0,,,,10.0,,KIGQ 231815Z AUTO 03011G16KT 10SM CLR 04/M06 A3036 RMK AO2  T00441065,,,,,,20.07,34.56,NNE,29.7,30.05,,Clear
KIGQ,03/23/2018 18:35 UTC,30.36,40.82,20.48,43.75,10.36,20.0,20.71,,,,,1.0,,,,10.0,,KIGQ 231835Z AUTO 02009G18KT 10SM CLR 05/M06 A3036 RMK AO2  T00491064,,,,,,20.25,36.46,NNE,29.7,30.04,,Clear
KIGQ,03/23/2018 18:55 UTC,30.34,39.92,19.94,44.28,12.66,20.0,,,,,,1.0,,,,10.0,,KIGQ 231855Z AUTO 02011KT 10SM CLR 04/M07 A3034 RMK AO2  T00441067,,,,,,19.71,34.56,NNE,29.68,30.03,,Clear
KIGQ,03/23/2018 19:15 UTC,30.34,40.1,20.3,44.65,12.66,40.0,,,,,,1.0,,,,10.0,,KIGQ 231915Z AUTO 04011KT 10SM CLR 05/M06 A3034 RMK AO2  T00451065,,,,,,20.07,34.78,NE,29.68,30.03,,Clear
KIGQ,03/23/2018 19:35 UTC,30.34,39.74,19.4,43.57,12.66,50.0,17.27,,,,,1.0,,,,10.0,,KIGQ 231935Z AUTO 05011G15KT 10SM CLR 04/M07 A3034 RMK AO2  T00431070,,,,,,19.17,34.34,NE,29.68,30.04,,Clear
KIGQ,03/23/2018 19:55 UTC,30.33,39.92,21.56,47.44,12.66,50.0,17.27,,,,,1.0,,,,10.0,,KIGQ 231955Z AUTO 05011G15KT 10SM CLR 04/M06 A3033 RMK AO2  T00441058,,,,,,21.34,34.56,NE,29.67,30.0,,Clear
KIGQ,03/23/2018 20:15 UTC,30.33,39.02,20.66,47.29,12.66,80.0,,,,,,1.0,,,,10.0,,KIGQ 232015Z AUTO 08011KT 10SM CLR 04/M06 A3033 RMK AO2  T00391063,,,,,,20.44,33.47,E,29.67,30.02,,Clear
KIGQ,03/23/2018 20:35 UTC,30.33,38.48,19.58,46.12,12.66,60.0,17.27,,,,,1.0,,,,10.0,,KIGQ 232035Z AUTO 06011G15KT 10SM CLR 04/M07 A3033 RMK AO2  T00361069,,,,,,19.35,32.81,ENE,29.67,30.03,,Clear
KIGQ,03/23/2018 20:55 UTC,30.32,38.84,21.38,49.1,14.97,60.0,,,,,,1.0,,,,10.0,,KIGQ 232055Z AUTO 06013KT 10SM CLR 04/M06 A3032 RMK AO2  T00381059,,,,,,21.17,32.53,ENE,29.66,30.0,,Clear
KIGQ,03/23/2018 21:15 UTC,30.32,38.12,23.36,54.91,11.5,40.0,16.11,,,,,1.0,,,,10.0,,KIGQ 232115Z AUTO 04010G14KT 10SM CLR 03/M05 A3032 RMK AO2  T00341048,,,,,,23.17,32.79,NE,29.66,29.98,,Clear
KIGQ,03/23/2018 21:35 UTC,30.31,37.76,23.9,56.97,12.66,60.0,,,,,,1.0,,,,10.0,,KIGQ 232135Z AUTO 06011KT 10SM CLR 03/M04 A3031 RMK AO2  T00321045,,,,,,23.72,31.94,ENE,29.65,29.97,,Clear
KIGQ,03/23/2018 21:55 UTC,30.31,37.22,26.24,64.16,9.22,50.0,,,,,,1.0,,,,10.0,,KIGQ 232155Z AUTO 05008KT 10SM CLR 03/M03 A3031 RMK AO2  T00291032,,,,,,26.09,32.64,NE,29.65,29.94,,Clear
KIGQ,03/23/2018 22:15 UTC,30.32,36.5,26.06,65.52,8.05,30.0,,,,,,1.0,,,,10.0,,KIGQ 232215Z AUTO 03007KT 10SM CLR 03/M03 A3032 RMK AO2  T00251033,,,,,,25.91,32.36,NNE,29.66,29.96,,Clear
KIGQ,03/23/2018 22:35 UTC,30.31,35.78,25.88,66.91,9.22,30.0,,,,,,1.0,,,,10.0,,KIGQ 232235Z AUTO 03008KT 10SM CLR 02/M03 A3031 RMK AO2  T00211034,,,,,,25.74,30.93,NNE,29.65,29.95,,Clear
KIGQ,03/23/2018 22:55 UTC,30.3,35.42,26.6,69.93,12.66,40.0,,,,,,1.0,,,,10.0,,KIGQ 232255Z AUTO 04011KT 10SM CLR 02/M03 A3030 RMK AO2  T00191030,,,,,,26.47,29.09,NE,29.64,29.94,,Clear
KIGQ,03/23/2018 23:15 UTC,30.29,34.7,26.24,70.9,11.5,40.0,,,,,,1.0,,,,10.0,,KIGQ 232315Z AUTO 04010KT 10SM CLR 02/M03 A3029 RMK AO2  T00151032,,,,,,26.12,28.66,NE,29.63,29.94,,Clear
KIGQ,03/23/2018 23:35 UTC,30.29,34.16,25.34,69.78,16.11,40.0,,,,,,1.0,,,,10.0,,KIGQ 232335Z AUTO 04014KT 10SM CLR 01/M04 A3029 RMK AO2  T00121037,,,,,,25.21,26.4,NE,29.63,29.95,,Clear
KIGQ,03/23/2018 23:55 UTC,30.29,33.44,24.26,68.65,11.5,50.0,,,,,,1.0,,,,10.0,,KIGQ 232355Z AUTO 05010KT 10SM CLR 01/M04 A3029 RMK AO2 LTG DSNT W  T00081043 10053 20008,41.54,33.44,,,,24.12,27.14,NE,29.63,29.97,,Clear
KIGQ,03/24/2018 00:15 UTC,30.29,33.08,25.34,72.87,10.36,40.0,,,,,,1.0,,,,10.0,,KIGQ 240015Z AUTO 04009KT 10SM CLR 01/M04 A3029 RMK AO2 LTG DSNT W  T00061037,,,,,,25.22,27.19,NE,29.63,29.96,,Clear
KIGQ,03/24/2018 00:35 UTC,30.28,32.9,25.7,74.5,11.5,30.0,18.41,,,,,1.0,,,,10.0,,KIGQ 240035Z AUTO 03010G16KT 10SM CLR 01/M03 A3028 RMK AO2  T00051035,,,,,,25.59,26.49,NNE,29.62,29.94,,Clear
KIGQ,03/24/2018 00:55 UTC,30.29,32.72,25.52,74.48,8.05,40.0,,,,,,1.0,,,,10.0,,KIGQ 240055Z AUTO 04007KT 10SM CLR 00/M04 A3029 RMK AO2 LTG DSNT W  T00041036,,,,,,25.41,27.92,NE,29.63,29.96,,Clear
KIGQ,03/24/2018 01:15 UTC,30.28,32.54,25.16,73.91,10.36,40.0,,,,,,1.0,,,,10.0,,KIGQ 240115Z AUTO 04009KT 10SM CLR 00/M04 A3028 RMK AO2 LTG DSNT W  T00031038,,,,,,25.05,26.55,NE,29.62,29.95,,Clear
KIGQ,03/24/2018 01:35 UTC,30.27,32.36,25.7,76.14,10.36,50.0,,,,,,1.0,,,,10.0,,KIGQ 240135Z AUTO 05009KT 10SM CLR 00/M03 A3027 RMK AO2  T00021035,,,,,,25.6,26.33,NE,29.61,29.93,,Clear
KIGQ,03/24/2018 01:55 UTC,30.27,32.18,26.24,78.43,6.91,50.0,,,,,,1.0,,,,10.0,,KIGQ 240155Z AUTO 05006KT 10SM CLR 00/M03 A3027 RMK AO2  T00011032,,,,,,26.14,,NE,29.61,29.93,,Clear
KIGQ,03/24/2018 02:15 UTC,30.27,32.18,26.24,78.43,9.22,50.0,,,,,,1.0,,,,10.0,,KIGQ 240215Z AUTO 05008KT 10SM CLR 00/M03 A3027 RMK AO2  T00011032,,,,,,26.14,26.66,NE,29.61,29.93,,Clear
KIGQ,03/24/2018 02:35 UTC,30.27,32.0,26.78,80.79,10.36,50.0,,,,,,1.0,,,,10.0,,KIGQ 240235Z AUTO 05009KT 10SM CLR 00/M03 A3027 RMK AO2  T00001029,,,,,,26.7,25.9,NE,29.61,29.92,,Clear
KIGQ,03/24/2018 02:55 UTC,30.27,32.0,26.96,81.4,4.61,50.0,,,,,,1.0,,,,10.0,,KIGQ 240255Z AUTO 05004KT 10SM CLR 00/M03 A3027 RMK AO2  T00001028,,,,,,26.88,,NE,29.61,29.92,,Clear
KIGQ,03/24/2018 03:15 UTC,30.26,32.36,27.32,81.42,8.05,60.0,,,,,,1.0,,,,10.0,,KIGQ 240315Z AUTO 06007KT 10SM CLR 00/M03 A3026 RMK AO2 LTG DSNT W  T00021026,,,,,,27.24,27.5,ENE,29.6,29.9,,Clear
KIGQ,03/24/2018 03:35 UTC,30.26,32.9,27.86,81.47,9.22,60.0,,,,,,1.0,,,,10.0,,KIGQ 240335Z AUTO 06008KT 10SM CLR 01/M02 A3026 RMK AO2 LTG DSNT W  T00051023,,,,,,27.78,27.52,ENE,29.6,29.89,,Clear
KIGQ,03/24/2018 03:55 UTC,30.26,33.08,28.4,82.69,8.05,60.0,,,,,,1.0,,,,10.0,,KIGQ 240355Z AUTO 06007KT 10SM CLR 01/M02 A3026 RMK AO2  T00061020,,,,,,28.32,28.34,ENE,29.6,29.89,,Clear
KIGQ,03/24/2018 04:15 UTC,30.26,33.26,29.12,84.56,5.75,60.0,,,,,,1.0,,,,10.0,,KIGQ 240415Z AUTO 06005KT 10SM CLR 01/M02 A3026 RMK AO2 LTG DSNT W  T00071016,,,,,,29.05,,ENE,29.6,29.87,,Clear
KIGQ,03/24/2018 04:35 UTC,30.26,33.08,29.3,85.8,4.61,50.0,,,,,,1.0,,,,10.0,,KIGQ 240435Z AUTO 05004KT 10SM CLR 01/M01 A3026 RMK AO2  T00061015,,,,,,29.24,,NE,29.6,29.87,,Clear
KIGQ,03/24/2018 04:55 UTC,30.26,33.44,29.3,84.57,4.61,80.0,,,,,,1.0,,,,10.0,,KIGQ 240455Z AUTO 08004KT 10SM CLR 01/M01 A3026 RMK AO2  T00081015,,,,,,29.23,,E,29.6,29.87,,Clear
KIGQ,03/24/2018 05:15 UTC,30.26,33.26,29.12,84.56,8.05,70.0,,,,,,1.0,,,,10.0,,KIGQ 240515Z AUTO 07007KT 10SM CLR 01/M02 A3026 RMK AO2  T00071016,,,,,,29.05,28.56,ENE,29.6,29.87,,Clear
KIGQ,03/24/2018 05:35 UTC,30.26,32.36,28.94,87.03,3.44,80.0,,,,,,1.0,,,,10.0,,KIGQ 240535Z AUTO 08003KT 10SM CLR 00/M02 A3026 RMK AO2  T00021017,,,,,,28.88,,E,29.6,29.88,,Clear
KIGQ,03/24/2018 05:55 UTC,30.26,32.9,27.14,79.08,6.91,70.0,,,,,,1.0,,,,10.0,,KIGQ 240555Z AUTO 07006KT 10SM CLR 01/M03 A3026 RMK AO2 T00051027  10008 20000 400531012,33.44,32.0,,41.54,29.84,27.05,,ENE,29.6,29.9,,Clear
KIGQ,03/24/2018 06:15 UTC,30.25,32.9,24.26,70.16,8.05,70.0,,,,,,1.0,,,,10.0,,KIGQ 240615Z AUTO 07007KT 10SM CLR 01/M04 A3025 RMK AO2  T00051043,,,,,,24.13,28.13,ENE,29.59,29.93,,Clear
KIGQ,03/24/2018 06:35 UTC,30.26,32.9,23.0,66.54,6.91,80.0,,,,,,1.0,,,,10.0,,KIGQ 240635Z AUTO 08006KT 10SM CLR 01/M05 A3026 RMK AO2  T00051050,,,,,,22.85,,E,29.6,29.95,,Clear
KIGQ,03/24/2018 06:55 UTC,30.26,32.72,23.0,67.03,5.75,90.0,,,,,,1.0,,,,10.0,,KIGQ 240655Z AUTO 09005KT 10SM CLR 00/M05 A3026 RMK AO2  T00041050,,,,,,22.86,,E,29.6,29.95,,Clear
KIGQ,03/24/2018 07:15 UTC,30.24,32.54,22.64,66.5,6.91,90.0,,,,,,1.0,,,,10.0,,KIGQ 240715Z AUTO 09006KT 10SM CLR 00/M05 A3024 RMK AO2  T00031052,,,,,,22.49,,E,29.58,29.94,,Clear
KIGQ,03/24/2018 07:35 UTC,30.23,33.08,22.1,63.6,9.22,90.0,,,,,,1.0,,,,10.0,,KIGQ 240735Z AUTO 09008KT 10SM CLR 01/M05 A3023 RMK AO2  T00061055,,,,,,21.94,27.73,E,29.57,29.93,,Clear
KIGQ,03/24/2018 07:55 UTC,30.22,33.8,21.02,59.03,12.66,100.0,,,,,,1.0,,,,10.0,,KIGQ 240755Z AUTO 10011KT 10SM CLR 01/M06 A3022 RMK AO2  T00101061,,,,,,20.84,27.12,E,29.56,29.93,,Clear
KIGQ,03/24/2018 08:15 UTC,30.22,34.7,20.84,56.51,10.36,100.0,,,,,,1.0,,,,10.0,,KIGQ 240815Z AUTO 10009KT 10SM CLR 02/M06 A3022 RMK AO2  T00151062,,,,,,20.65,29.13,E,29.56,29.93,,Clear
KIGQ,03/24/2018 08:35 UTC,30.22,34.7,20.3,55.22,10.36,110.0,,,,,,1.0,,,,10.0,,KIGQ 240835Z AUTO 11009KT 10SM CLR 02/M06 A3022 RMK AO2  T00151065,,,,,,20.1,29.13,ESE,29.56,29.93,,Clear
KIGQ,03/24/2018 08:55 UTC,30.21,34.7,20.48,55.65,11.5,100.0,,,,,,1202.0,,,,10.0,,KIGQ 240855Z AUTO 10010KT 10SM SCT120 02/M06 A3021 RMK AO2  T00151064,,,,,,20.29,28.66,E,29.55,29.92,,Partly Cloudy
KIGQ,03/24/2018 09:15 UTC,30.21,34.7,20.84,56.51,13.8,100.0,,,,,,1202.0,,,,10.0,,KIGQ 240915Z AUTO 10012KT 10SM SCT120 02/M06 A3021 RMK AO2  T00151062,,,,,,20.65,27.81,E,29.55,29.92,,Partly Cloudy
KIGQ,03/24/2018 09:35 UTC,30.21,34.34,21.2,58.21,12.66,100.0,,,,,,1202.0,,,,10.0,,KIGQ 240935Z AUTO 10011KT 10SM SCT120 01/M06 A3021 RMK AO2  T00131060,,,,,,21.02,27.78,E,29.55,29.91,,Partly Cloudy
KIGQ,03/24/2018 09:55 UTC,30.21,34.16,21.74,59.99,13.8,100.0,19.57,,,,,1.0,,,,10.0,,KIGQ 240955Z AUTO 10012G17KT 10SM CLR 01/M06 A3021 RMK AO2  T00121057,,,,,,21.57,27.15,E,29.55,29.91,,Clear
KIGQ,03/24/2018 10:15 UTC,30.2,34.34,21.2,58.21,13.8,110.0,20.71,,,,,1202.0,,,,10.0,,KIGQ 241015Z AUTO 11012G18KT 10SM SCT120 01/M06 A3020 RMK AO2  T00131060,,,,,,21.02,27.37,ESE,29.54,29.9,,Partly Cloudy
KIGQ,03/24/2018 10:35 UTC,30.19,34.7,20.84,56.51,12.66,110.0,,,,,,1203.0,,,,10.0,,KIGQ 241035Z AUTO 11011KT 10SM BKN120 02/M06 A3019 RMK AO2  T00151062,,,12000.0,,,20.65,28.21,ESE,29.53,29.9,,Mostly Cloudy
KIGQ,03/24/2018 10:55 UTC,30.18,34.34,21.02,57.77,14.97,110.0,,,,,,1204.0,,,,10.0,,KIGQ 241055Z AUTO 11013KT 10SM OVC120 01/M06 A3018 RMK AO2  T00131061,,,12000.0,,,20.84,26.98,ESE,29.52,29.89,,Overcast
KIGQ,03/24/2018 11:15 UTC,30.17,34.34,21.2,58.21,17.27,110.0,24.16,,,,,1204.0,,,,10.0,,KIGQ 241115Z AUTO 11015G21KT 10SM OVC120 01/M06 A3017 RMK AO2  T00131060,,,12000.0,,,21.02,26.28,ESE,29.51,29.87,,Overcast
KIGQ,03/24/2018 11:35 UTC,30.16,34.16,21.2,58.63,14.97,100.0,21.85,,,,,1202.0,,,,10.0,,KIGQ 241135Z AUTO 10013G19KT 10SM SCT120 01/M06 A3016 RMK AO2  T00121060,,,,,,21.02,26.76,E,29.5,29.86,,Partly Cloudy
KIGQ,03/24/2018 11:55 UTC,30.17,33.8,21.74,60.86,14.97,100.0,20.71,,,,,1202.0,,,,10.0,,KIGQ 241155Z AUTO 10013G18KT 10SM SCT120 01/M06 A3017 RMK AO2  T00101057 10015 20003,34.7,32.54,,,,21.57,26.31,E,29.51,29.87,,Partly Cloudy
KIGQ,03/24/2018 12:15 UTC,30.17,33.8,22.1,61.79,16.11,100.0,23.02,,,,,1204.0,,,,10.0,,KIGQ 241215Z AUTO 10014G20KT 10SM OVC120 01/M05 A3017 RMK AO2  T00101055,,,12000.0,,,21.93,25.96,E,29.51,29.87,,Overcast
KIGQ,03/24/2018 12:35 UTC,30.17,33.8,22.1,61.79,16.11,100.0,21.85,,,,,1104.0,,,,10.0,,KIGQ 241235Z AUTO 10014G19KT 10SM OVC110 01/M05 A3017 RMK AO2  T00101055,,,11000.0,,,21.93,25.96,E,29.51,29.87,,Overcast
KIGQ,03/24/2018 12:55 UTC,30.17,33.8,21.74,60.86,16.11,100.0,24.16,,,,,1004.0,,,,10.0,,KIGQ 241255Z AUTO 10014G21KT 10SM OVC100 01/M06 A3017 RMK AO2  T00101057,,,10000.0,,,21.57,25.96,E,29.51,29.87,,Overcast
KIGQ,03/24/2018 13:15 UTC,30.16,33.8,21.02,59.03,14.97,100.0,26.46,,,,,1004.0,,,,10.0,,KIGQ 241315Z AUTO 10013G23KT 10SM OVC100 01/M06 A3016 RMK AO2  T00101061,,,10000.0,,,20.84,26.31,E,29.5,29.87,,Overcast
KIGQ,03/24/2018 13:35 UTC,30.16,33.8,21.02,59.03,18.41,100.0,24.16,,,,,1004.0,,,,10.0,,KIGQ 241335Z AUTO 10016G21KT 10SM OVC100 01/M06 A3016 RMK AO2  T00101061,,,10000.0,,,20.84,25.29,E,29.5,29.87,,Overcast
KIGQ,03/24/2018 13:55 UTC,30.16,33.98,21.2,59.05,16.11,90.0,24.16,,,,,1004.0,,,,10.0,,KIGQ 241355Z AUTO 09014G21KT 10SM OVC100 01/M06 A3016 RMK AO2  T00111060,,,10000.0,,,21.02,26.18,E,29.5,29.86,,Overcast
KIGQ,03/24/2018 14:15 UTC,30.17,33.8,21.2,59.48,16.11,100.0,24.16,,,,,1004.0,,,,10.0,,KIGQ 241415Z AUTO 10014G21KT 10SM OVC100 01/M06 A3017 RMK AO2  T00101060,,,10000.0,,,21.02,25.96,E,29.51,29.88,,Overcast
KIGQ,03/24/2018 14:35 UTC,30.18,33.8,21.2,59.48,18.41,90.0,24.16,,,,,1004.0,,,,10.0,,KIGQ 241435Z AUTO 09016G21KT 10SM OVC100 01/M06 A3018 RMK AO2  T00101060,,,10000.0,,,21.02,25.29,E,29.52,29.89,,Overcast
KIGQ,03/24/2018 14:55 UTC,30.18,34.34,22.1,60.47,10.36,100.0,20.71,,,,,1004.0,,,,10.0,,KIGQ 241455Z AUTO 10009G18KT 10SM OVC100 01/M05 A3018 RMK AO2  T00131055,,,10000.0,,,21.93,28.7,E,29.52,29.87,,Overcast
KIGQ,03/24/2018 15:15 UTC,30.17,33.98,21.92,60.88,16.11,90.0,25.32,,,,,1004.0,,,,10.0,,KIGQ 241515Z AUTO 09014G22KT 10SM OVC100 01/M06 A3017 RMK AO2  T00111056,,,10000.0,,,21.75,26.18,E,29.51,29.87,,Overcast
KIGQ,03/24/2018 15:35 UTC,30.16,34.52,22.82,61.89,11.5,90.0,20.71,,,,,1004.0,,,,10.0,,KIGQ 241535Z AUTO 09010G18KT 10SM OVC100 01/M05 A3016 RMK AO2  T00141051,,,10000.0,,,22.65,28.44,E,29.5,29.84,,Overcast
KIGQ,03/24/2018 15:55 UTC,30.16,33.98,22.64,62.76,13.8,90.0,18.41,,,,,1004.0,,,,10.0,,KIGQ 241555Z AUTO 09012G16KT 10SM OVC100 01/M05 A3016 RMK AO2  T00111052,,,10000.0,,,22.47,26.93,E,29.5,29.85,,Overcast
KIGQ,03/24/2018 16:15 UTC,30.16,34.52,22.64,61.42,16.11,90.0,19.57,,,,,1004.0,,,,10.0,,KIGQ 241615Z AUTO 09014G17KT 10SM OVC100 01/M05 A3016 RMK AO2  T00141052,,,10000.0,,,22.47,26.85,E,29.5,29.85,,Overcast
KIGQ,03/24/2018 16:35 UTC,30.16,34.7,22.46,60.52,11.5,90.0,17.27,,,,,1004.0,,,,10.0,,KIGQ 241635Z AUTO 09010G15KT 10SM OVC100 02/M05 A3016 RMK AO2  T00151053,,,10000.0,,,22.29,28.66,E,29.5,29.85,,Overcast
KIGQ,03/24/2018 16:55 UTC,30.17,35.24,22.64,59.69,12.66,110.0,19.57,,,,,1004.0,,,,10.0,,KIGQ 241655Z AUTO 11011G17KT 10SM OVC100 02/M05 A3017 RMK AO2  T00181052,,,10000.0,,,22.46,28.87,ESE,29.51,29.85,,Overcast
KIGQ,03/24/2018 17:15 UTC,30.16,35.6,21.2,55.36,14.97,100.0,,,,,,1004.0,,,,10.0,,KIGQ 241715Z AUTO 10013KT 10SM OVC100 02/M06 A3016 RMK AO2  T00201060,,,10000.0,,,21.01,28.53,E,29.5,29.86,,Overcast
KIGQ,03/24/2018 17:35 UTC,30.15,35.78,21.74,56.24,16.11,100.0,25.32,,,,,1103.0,,,,10.0,,KIGQ 241735Z AUTO 10014G22KT 10SM BKN110 02/M06 A3015 RMK AO2  T00211057,,,11000.0,,,21.55,28.41,E,29.49,29.84,,Mostly Cloudy
KIGQ,03/24/2018 17:55 UTC,30.16,37.04,22.28,54.74,12.66,100.0,18.41,,,,,1203.0,,,,10.0,,KIGQ 241755Z AUTO 10011G16KT 10SM BKN120 03/M05 A3016 RMK AO2  T00281054 10028 20010,37.04,33.8,12000.0,,,22.08,31.06,E,29.5,29.84,,Mostly Cloudy
KIGQ,03/24/2018 18:15 UTC,30.16,37.76,21.74,52.01,13.8,80.0,18.41,,,,,1204.0,,,,10.0,,KIGQ 241815Z AUTO 08012G16KT 10SM OVC120 03/M06 A3016 RMK AO2  T00321057,,,12000.0,,,21.53,31.56,E,29.5,29.84,,Overcast
KIGQ,03/24/2018 18:35 UTC,30.13,37.76,21.2,50.83,14.97,90.0,21.85,,,,,1203.0,,,,10.0,,KIGQ 241835Z AUTO 09013G19KT 10SM BKN120 03/M06 A3013 RMK AO2  T00321060,,,12000.0,,,20.99,31.19,E,29.47,29.82,,Mostly Cloudy
KIGQ,03/24/2018 18:55 UTC,30.12,38.48,21.2,49.42,14.97,80.0,24.16,,,,,1202.0,,,,10.0,,KIGQ 241855Z AUTO 08013G21KT 10SM SCT120 04/M06 A3012 RMK AO2  T00361060,,,,,,20.99,32.08,E,29.47,29.81,,Partly Cloudy
KIGQ,03/24/2018 19:15 UTC,30.12,39.02,21.92,49.89,16.11,70.0,21.85,,,,,1203.0,,,,10.0,,KIGQ 241915Z AUTO 07014G19KT 10SM BKN120 04/M06 A3012 RMK AO2  T00391056,,,12000.0,,,21.71,32.43,ENE,29.47,29.8,,Mostly Cloudy
KIGQ,03/24/2018 19:35 UTC,30.12,39.2,21.38,48.42,13.8,80.0,21.85,,,,,1203.0,,,,10.0,,KIGQ 241935Z AUTO 08012G19KT 10SM BKN120 04/M06 A3012 RMK AO2  T00401059,,,12000.0,,,21.17,33.32,E,29.47,29.81,,Mostly Cloudy
KIGQ,03/24/2018 19:55 UTC,30.13,40.1,21.92,47.83,12.66,90.0,24.16,,,,,1202.0,,,,10.0,,KIGQ 241955Z AUTO 09011G21KT 10SM SCT120 05/M06 A3013 RMK AO2  T00451056,,,,,,21.7,34.78,E,29.47,29.8,,Partly Cloudy
KIGQ,03/24/2018 20:15 UTC,30.13,40.64,22.28,47.56,13.8,60.0,18.41,,,,,1202.0,,,,10.0,,KIGQ 242015Z AUTO 06012G16KT 10SM SCT120 05/M05 A3013 RMK AO2  T00481054,,,,,,22.07,35.08,ENE,29.47,29.79,,Partly Cloudy
KIGQ,03/24/2018 20:35 UTC,30.14,40.46,21.74,46.81,13.8,90.0,18.41,,,,,1.0,,,,10.0,,KIGQ 242035Z AUTO 09012G16KT 10SM CLR 05/M06 A3014 RMK AO2  T00471057,,,,,,21.52,34.86,E,29.48,29.81,,Clear
KIGQ,03/24/2018 20:55 UTC,30.15,40.1,20.66,45.34,11.5,80.0,19.57,,,,,1203.0,,,,10.0,,KIGQ 242055Z AUTO 08010G17KT 10SM BKN120 05/M06 A3015 RMK AO2  T00451063,,,12000.0,,,20.43,35.18,E,29.49,29.83,,Mostly Cloudy
KIGQ,03/24/2018 21:15 UTC,30.15,40.1,20.48,44.99,10.36,70.0,,,,,,1202.0,,,,10.0,,KIGQ 242115Z AUTO 07009KT 10SM SCT120 05/M06 A3015 RMK AO2  T00451064,,,,,,20.25,35.6,ENE,29.49,29.83,,Partly Cloudy
KIGQ,03/24/2018 21:35 UTC,30.14,40.28,20.66,45.02,12.66,70.0,,,,,,1.0,,,,10.0,,KIGQ 242135Z AUTO 07011KT 10SM CLR 05/M06 A3014 RMK AO2  T00461063,,,,,,20.43,35.0,ENE,29.48,29.82,,Clear
KIGQ,03/24/2018 21:55 UTC,30.15,40.64,20.84,44.74,6.91,60.0,,,,,,1.0,,,,10.0,,KIGQ 242155Z AUTO 06006KT 10SM CLR 05/M06 A3015 RMK AO2  T00481062,,,,,,20.61,,ENE,29.49,29.83,,Clear
KIGQ,03/24/2018 22:15 UTC,30.16,39.56,26.96,60.31,6.91,40.0,,,,,,1.0,,,,10.0,,KIGQ 242215Z AUTO 04006KT 10SM CLR 04/M03 A3016 RMK AO2  T00421028,,,,,,26.79,,NE,29.5,29.76,,Clear
KIGQ,03/24/2018 22:35 UTC,30.16,39.2,29.12,66.84,9.22,30.0,,,,,,1.0,,,,10.0,,KIGQ 242235Z AUTO 03008KT 10SM CLR 04/M02 A3016 RMK AO2  T00401016,,,,,,28.98,34.99,NNE,29.5,29.74,,Clear
KIGQ,03/24/2018 22:55 UTC,30.16,39.74,27.32,60.78,5.75,60.0,,,,,,1.0,,,,10.0,,KIGQ 242255Z AUTO 06005KT 10SM CLR 04/M03 A3016 RMK AO2  T00431026,,,,,,27.15,,ENE,29.5,29.76,,Clear
KIGQ,03/24/2018 23:15 UTC,30.16,39.56,27.86,62.59,8.05,50.0,,,,,,1.0,,,,10.0,,KIGQ 242315Z AUTO 05007KT 10SM CLR 04/M02 A3016 RMK AO2  T00421023,,,,,,27.7,35.96,NE,29.5,29.75,,Clear
KIGQ,03/24/2018 23:35 UTC,30.16,39.74,26.96,59.89,6.91,50.0,,,,,,1.0,,,,10.0,,KIGQ 242335Z AUTO 05006KT 10SM CLR 04/M03 A3016 RMK AO2  T00431028,,,,,,26.79,,NE,29.5,29.76,,Clear
KIGQ,03/24/2018 23:55 UTC,30.16,39.92,24.44,53.55,10.36,70.0,,,,,,1.0,,,,10.0,,KIGQ 242355Z AUTO 07009KT 10SM CLR 04/M04 A3016 RMK AO2 T00441042  10048 20030,40.64,37.4,,,,24.24,35.38,ENE,29.5,29.8,,Clear
KIGQ,03/25/2018 00:15 UTC,30.17,40.46,21.2,45.75,8.05,60.0,,,,,,1.0,,,,10.0,,KIGQ 250015Z AUTO 06007KT 10SM CLR 05/M06 A3017 RMK AO2  T00471060,,,,,,20.98,37.01,ENE,29.51,29.84,,Clear
KIGQ,03/25/2018 00:35 UTC,30.18,38.48,27.5,64.33,8.05,50.0,,,,,,1.0,,,,10.0,,KIGQ 250035Z AUTO 05007KT 10SM CLR 04/M02 A3018 RMK AO2  T00361025,,,,,,27.35,34.69,NE,29.52,29.78,,Clear
KIGQ,03/25/2018 00:55 UTC,30.19,37.58,28.94,70.7,6.91,30.0,,,,,,1.0,,,,10.0,,KIGQ 250055Z AUTO 03006KT 10SM CLR 03/M02 A3019 RMK AO2  T00311017,,,,,,28.82,,NNE,29.53,29.78,,Clear
KIGQ,03/25/2018 01:15 UTC,30.19,37.4,29.84,73.87,5.75,30.0,,,,,,1.0,,,,10.0,,KIGQ 250115Z AUTO 03005KT 10SM CLR 03/M01 A3019 RMK AO2  T00301012,,,,,,29.73,,NNE,29.53,29.77,,Clear
KIGQ,03/25/2018 01:35 UTC,30.2,37.4,29.48,72.79,8.05,40.0,,,,,,1.0,,,,10.0,,KIGQ 250135Z AUTO 04007KT 10SM CLR 03/M01 A3020 RMK AO2  T00301014,,,,,,29.36,33.42,NE,29.54,29.78,,Clear
KIGQ,03/25/2018 01:55 UTC,30.21,37.22,28.22,69.62,5.75,50.0,,,,,,1.0,,,,10.0,,KIGQ 250155Z AUTO 05005KT 10SM CLR 03/M02 A3021 RMK AO2  T00291021,,,,,,28.09,,NE,29.55,29.81,,Clear
KIGQ,03/25/2018 02:15 UTC,30.21,37.22,26.42,64.64,8.05,50.0,,,,,,1.0,,,,10.0,,KIGQ 250215Z AUTO 05007KT 10SM CLR 03/M03 A3021 RMK AO2  T00291031,,,,,,26.27,33.21,NE,29.55,29.84,,Clear
KIGQ,03/25/2018 02:35 UTC,30.21,37.76,26.6,63.75,10.36,50.0,,,,,,1.0,,,,10.0,,KIGQ 250235Z AUTO 05009KT 10SM CLR 03/M03 A3021 RMK AO2  T00321030,,,,,,26.44,32.8,NE,29.55,29.83,,Clear
KIGQ,03/25/2018 02:55 UTC,30.21,37.22,26.42,64.64,10.36,50.0,16.11,,,,,1.0,,,,10.0,,KIGQ 250255Z AUTO 05009G14KT 10SM CLR 03/M03 A3021 RMK AO2  T00291031,,,,,,26.27,32.15,NE,29.55,29.84,,Clear
KIGQ,03/25/2018 03:15 UTC,30.22,35.78,27.5,71.55,11.5,50.0,,,,,,1.0,,,,10.0,,KIGQ 250315Z AUTO 05010KT 10SM CLR 02/M02 A3022 RMK AO2  T00211025,,,,,,27.38,29.96,NE,29.56,29.84,,Clear
KIGQ,03/25/2018 03:35 UTC,30.22,35.06,27.14,72.54,10.36,50.0,,,,,,1.0,,,,10.0,,KIGQ 250335Z AUTO 05009KT 10SM CLR 02/M03 A3022 RMK AO2  T00171027,,,,,,27.02,29.56,NE,29.56,29.85,,Clear
KIGQ,03/25/2018 03:55 UTC,30.23,34.88,25.52,68.32,11.5,50.0,,,,,,1.0,,,,10.0,,KIGQ 250355Z AUTO 05010KT 10SM CLR 02/M04 A3023 RMK AO2  T00161036,,,,,,25.38,28.88,NE,29.57,29.88,,Clear
KIGQ,03/25/2018 04:15 UTC,30.24,33.98,23.9,66.18,9.22,60.0,,,,,,1.0,,,,10.0,,KIGQ 250415Z AUTO 06008KT 10SM CLR 01/M04 A3024 RMK AO2  T00111045,,,,,,23.75,28.8,ENE,29.58,29.92,,Clear
KIGQ,03/25/2018 04:35 UTC,30.24,33.8,24.44,68.18,9.22,50.0,16.11,,,,,1.0,,,,10.0,,KIGQ 250435Z AUTO 05008G14KT 10SM CLR 01/M04 A3024 RMK AO2  T00101042,,,,,,24.3,28.59,NE,29.58,29.91,,Clear
KIGQ,03/25/2018 04:55 UTC,30.24,32.9,23.9,69.11,8.05,60.0,,,,,,1.0,,,,10.0,,KIGQ 250455Z AUTO 06007KT 10SM CLR 01/M04 A3024 RMK AO2  T00051045,,,,,,23.76,28.13,ENE,29.58,29.92,,Clear
KIGQ,03/25/2018 05:15 UTC,30.25,32.54,22.64,66.5,6.91,60.0,,,,,,1.0,,,,10.0,,KIGQ 250515Z AUTO 06006KT 10SM CLR 00/M05 A3025 RMK AO2  T00031052,,,,,,22.49,,ENE,29.59,29.95,,Clear
KIGQ,03/25/2018 05:35 UTC,30.26,32.18,21.74,64.95,6.91,50.0,,,,,,1.0,,,,10.0,,KIGQ 250535Z AUTO 05006KT 10SM CLR 00/M06 A3026 RMK AO2  T00011057,,,,,,21.58,,NE,29.6,29.97,,Clear
KIGQ,03/25/2018 05:55 UTC,30.26,32.0,21.2,63.94,6.91,60.0,,,,,,1.0,,,,10.0,,KIGQ 250555Z AUTO 06006KT 10SM CLR 00/M06 A3026 RMK AO2 T00001060  10047 20000 400480000,40.46,32.0,,40.64,32.0,21.04,,ENE,29.6,29.98,,Clear
KIGQ,03/25/2018 06:15 UTC,30.27,32.0,16.88,53.12,10.36,50.0,17.27,,,,,1.0,,,,10.0,,KIGQ 250615Z AUTO 05009G15KT 10SM CLR 00/M08 A3027 RMK AO2  T00001084,,,,,,16.67,25.9,NE,29.61,30.03,,Clear
KIGQ,03/25/2018 06:35 UTC,30.28,31.64,13.1,45.68,6.91,60.0,,,,,,1.0,,,,10.0,,KIGQ 250635Z AUTO 06006KT 10SM CLR 00/M10 A3028 RMK AO2  T10021105,,,,,,12.86,,ENE,29.62,30.07,,Clear
KIGQ,03/25/2018 06:55 UTC,30.29,31.1,12.74,45.95,9.22,80.0,,,,,,1.0,,,,10.0,,KIGQ 250655Z AUTO 08008KT 10SM CLR 00/M11 A3029 RMK AO2  T10051107,,,,,,12.5,25.38,E,29.63,30.09,,Clear
KIGQ,03/25/2018 07:15 UTC,30.3,30.74,11.12,43.39,9.22,70.0,17.27,,,,,1.0,,,,10.0,,KIGQ 250715Z AUTO 07008G15KT 10SM CLR M01/M12 A3030 RMK AO2  T10071116,,,,,,10.87,24.95,ENE,29.64,30.11,,Clear
KIGQ,03/25/2018 07:35 UTC,30.3,29.66,11.84,46.81,8.05,50.0,,,,,,1.0,,,,10.0,,KIGQ 250735Z AUTO 05007KT 10SM CLR M01/M11 A3030 RMK AO2  T10131112,,,,,,11.6,24.33,NE,29.64,30.11,,Clear
KIGQ,03/25/2018 07:55 UTC,30.31,29.66,10.94,44.97,6.91,60.0,,,,,,1.0,,,,10.0,,KIGQ 250755Z AUTO 06006KT 10SM CLR M01/M12 A3031 RMK AO2  T10131117,,,,,,10.69,,ENE,29.65,30.12,,Clear
KIGQ,03/25/2018 08:15 UTC,30.31,29.3,10.04,43.84,8.05,60.0,,,,,,1.0,,,,10.0,,KIGQ 250815Z AUTO 06007KT 10SM CLR M01/M12 A3031 RMK AO2  T10151122,,,,,,9.79,23.9,ENE,29.65,30.13,,Clear
KIGQ,03/25/2018 08:35 UTC,30.31,28.94,9.5,43.42,8.05,60.0,,,,,,1.0,,,,10.0,,KIGQ 250835Z AUTO 06007KT 10SM CLR M02/M12 A3031 RMK AO2  T10171125,,,,,,9.25,23.48,ENE,29.65,30.14,,Clear
KIGQ,03/25/2018 08:55 UTC,30.32,28.58,10.04,45.15,8.05,60.0,,,,,,1.0,,,,10.0,,KIGQ 250855Z AUTO 06007KT 10SM CLR M02/M12 A3032 RMK AO2  T10191122,,,,,,9.8,23.06,ENE,29.66,30.14,,Clear
KIGQ,03/25/2018 09:15 UTC,30.32,28.22,10.76,47.32,8.05,60.0,,,,,,1.0,,,,10.0,,KIGQ 250915Z AUTO 06007KT 10SM CLR M02/M12 A3032 RMK AO2  T10211118,,,,,,10.52,22.64,ENE,29.66,30.14,,Clear
KIGQ,03/25/2018 09:35 UTC,30.32,28.76,10.76,46.29,10.36,70.0,,,,,,1.0,,,,10.0,,KIGQ 250935Z AUTO 07009KT 10SM CLR M02/M12 A3032 RMK AO2  T10181118,,,,,,10.52,22.02,ENE,29.66,30.14,,Clear
KIGQ,03/25/2018 09:55 UTC,30.32,28.4,9.68,44.76,11.5,70.0,17.27,,,,,1.0,,,,10.0,,KIGQ 250955Z AUTO 07010G15KT 10SM CLR M02/M12 A3032 RMK AO2  T10201124,,,,,,9.44,21.05,ENE,29.66,30.15,,Clear
KIGQ,03/25/2018 10:15 UTC,30.33,28.04,10.22,46.54,12.66,70.0,18.41,,,,,1.0,,,,10.0,,KIGQ 251015Z AUTO 07011G16KT 10SM CLR M02/M12 A3033 RMK AO2  T10221121,,,,,,9.98,20.11,ENE,29.67,30.16,,Clear
KIGQ,03/25/2018 10:35 UTC,30.33,27.32,8.42,44.21,12.66,70.0,21.85,,,,,1.0,,,,10.0,,KIGQ 251035Z AUTO 07011G19KT 10SM CLR M03/M13 A3033 RMK AO2  T10261131,,,,,,8.17,19.24,ENE,29.67,30.17,,Clear
KIGQ,03/25/2018 10:55 UTC,30.34,26.6,8.6,45.92,12.66,70.0,,,,,,1.0,,,,10.0,,KIGQ 251055Z AUTO 07011KT 10SM CLR M03/M13 A3034 RMK AO2  T10301130,,,,,,8.36,18.36,ENE,29.68,30.18,,Clear
KIGQ,03/25/2018 11:15 UTC,30.34,26.06,8.78,47.34,10.36,70.0,,,,,,1.0,,,,10.0,,KIGQ 251115Z AUTO 07009KT 10SM CLR M03/M13 A3034 RMK AO2  T10331129,,,,,,8.55,18.79,ENE,29.68,30.18,,Clear
KIGQ,03/25/2018 11:35 UTC,30.34,25.34,9.5,50.38,12.66,80.0,18.41,,,,,1.0,,,,10.0,,KIGQ 251135Z AUTO 08011G16KT 10SM CLR M04/M12 A3034 RMK AO2  T10371125,,,,,,9.28,16.83,E,29.68,30.18,,Clear
KIGQ,03/25/2018 11:55 UTC,30.34,24.8,10.22,53.22,11.5,70.0,,,,,,1.0,,,,10.0,,KIGQ 251155Z AUTO 07010KT 10SM CLR M04/M12 A3034 RMK AO2 T10401121  10000 21040,32.0,24.8,,,,10.01,16.71,ENE,29.68,30.18,,Clear
KIGQ,03/25/2018 12:15 UTC,30.34,24.8,11.3,55.86,11.5,80.0,,,,,,1.0,,,,10.0,,KIGQ 251215Z AUTO 08010KT 10SM CLR M04/M11 A3034 RMK AO2  T10401115,,,,,,11.1,16.71,E,29.68,30.17,,Clear
KIGQ,03/25/2018 12:35 UTC,30.36,25.52,11.66,55.08,8.05,80.0,,,,,,1.0,,,,10.0,,KIGQ 251235Z AUTO 08007KT 10SM CLR M04/M11 A3036 RMK AO2  T10361113,,,,,,11.46,19.46,E,29.7,30.19,,Clear
KIGQ,03/25/2018 12:55 UTC,30.37,26.06,12.74,56.5,11.5,70.0,,,,,,1.0,,,,10.0,,KIGQ 251255Z AUTO 07010KT 10SM CLR M03/M11 A3037 RMK AO2  T10331107,,,,,,12.54,18.23,ENE,29.71,30.19,,Clear
KIGQ,03/25/2018 13:15 UTC,30.37,27.32,14.0,56.7,12.66,80.0,,,,,,1.0,,,,10.0,,KIGQ 251315Z AUTO 08011KT 10SM CLR M03/M10 A3037 RMK AO2  T10261100,,,,,,13.81,19.24,E,29.71,30.17,,Clear
KIGQ,03/25/2018 13:35 UTC,30.36,28.04,14.9,57.26,10.36,90.0,,,,,,1.0,,,,10.0,,KIGQ 251335Z AUTO 09009KT 10SM CLR M02/M09 A3036 RMK AO2  T10221095,,,,,,14.71,21.16,E,29.7,30.15,,Clear
KIGQ,03/25/2018 13:55 UTC,30.36,29.12,15.98,57.42,11.5,100.0,17.27,,,,,1.0,,,,10.0,,KIGQ 251355Z AUTO 10010G15KT 10SM CLR M02/M09 A3036 RMK AO2  T10161089,,,,,,15.79,21.92,E,29.7,30.14,,Clear
KIGQ,03/25/2018 14:15 UTC,30.35,30.2,17.42,58.49,13.8,100.0,,,,,,1.0,,,,10.0,,KIGQ 251415Z AUTO 10012KT 10SM CLR M01/M08 A3035 RMK AO2  T10101081,,,,,,17.23,22.3,E,29.69,30.11,,Clear
KIGQ,03/25/2018 14:35 UTC,30.36,31.28,17.6,56.42,11.5,110.0,,,,,,1.0,,,,10.0,,KIGQ 251435Z AUTO 11010KT 10SM CLR 00/M08 A3036 RMK AO2  T10041080,,,,,,17.41,24.53,ESE,29.7,30.12,,Clear
KIGQ,03/25/2018 14:55 UTC,30.37,32.0,16.88,53.12,9.22,80.0,,,,,,1.0,,,,10.0,,KIGQ 251455Z AUTO 08008KT 10SM CLR 00/M08 A3037 RMK AO2  T00001084,,,,,,16.67,26.45,E,29.71,30.13,,Clear
KIGQ,03/25/2018 15:15 UTC,30.37,32.9,17.06,51.63,9.22,100.0,,,,,,1.0,,,,10.0,,KIGQ 251515Z AUTO 10008KT 10SM CLR 01/M08 A3037 RMK AO2  T00051083,,,,,,16.85,27.52,E,29.71,30.12,,Clear
KIGQ,03/25/2018 15:35 UTC,30.36,34.52,17.06,48.39,9.22,70.0,,,,,,1.0,,,,10.0,,KIGQ 251535Z AUTO 07008KT 10SM CLR 01/M08 A3036 RMK AO2  T00141083,,,,,,16.84,29.44,ENE,29.7,30.11,,Clear
KIGQ,03/25/2018 15:55 UTC,30.36,35.42,16.88,46.32,12.66,110.0,,,,,,1.0,,,,10.0,,KIGQ 251555Z AUTO 11011KT 10SM CLR 02/M08 A3036 RMK AO2  T00191084,,,,,,16.65,29.09,ESE,29.7,30.1,,Clear
KIGQ,03/25/2018 16:15 UTC,30.36,35.96,16.88,45.34,12.66,100.0,18.41,,,,,1.0,,,,10.0,,KIGQ 251615Z AUTO 10011G16KT 10SM CLR 02/M08 A3036 RMK AO2  T00221084,,,,,,16.65,29.75,E,29.7,30.1,,Clear
KIGQ,03/25/2018 16:35 UTC,30.35,37.94,17.42,42.93,14.97,90.0,20.71,,,,,1.0,,,,10.0,,KIGQ 251635Z AUTO 09013G18KT 10SM CLR 03/M08 A3035 RMK AO2  T00331081,,,,,,17.18,31.42,E,29.69,30.08,,Clear
KIGQ,03/25/2018 16:55 UTC,30.34,39.38,18.32,42.18,12.66,90.0,18.41,,,,,1.0,,,,10.0,,KIGQ 251655Z AUTO 09011G16KT 10SM CLR 04/M08 A3034 RMK AO2  T00411076,,,,,,18.08,33.91,E,29.68,30.05,,Clear
KIGQ,03/25/2018 17:15 UTC,30.34,38.48,17.06,41.38,17.27,70.0,23.02,,,,,1.0,,,,10.0,,KIGQ 251715Z AUTO 07015G20KT 10SM CLR 04/M08 A3034 RMK AO2  T00361083,,,,,,16.82,31.44,ENE,29.68,30.07,,Clear
KIGQ,03/25/2018 17:35 UTC,30.34,40.46,18.86,41.4,9.22,70.0,17.27,,,,,1.0,,,,10.0,,KIGQ 251735Z AUTO 07008G15KT 040V130 10SM CLR 05/M07 A3034 RMK AO2  T00471073,,,,,,18.62,36.49,ENE,29.68,30.04,,Clear
KIGQ,03/25/2018 17:55 UTC,30.34,39.38,22.28,49.94,12.66,40.0,,,,,,1.0,,,,10.0,,KIGQ 251755Z AUTO 04011KT 10SM CLR 04/M05 A3034 RMK AO2 T00411054  10049 21040,40.82,24.8,,,,22.07,33.91,NE,29.68,30.01,,Clear
KIGQ,03/25/2018 18:15 UTC,30.34,39.02,22.28,50.65,10.36,30.0,,,,,,1.0,,,,10.0,,KIGQ 251815Z AUTO 03009KT 10SM CLR 04/M05 A3034 RMK AO2  T00391054,,,,,,22.07,34.31,NNE,29.68,30.01,,Clear
KIGQ,03/25/2018 18:35 UTC,30.34,38.66,22.1,50.98,13.8,40.0,,,,,,1.0,,,,10.0,,KIGQ 251835Z AUTO 04012KT 10SM CLR 04/M05 A3034 RMK AO2  T00371055,,,,,,21.89,32.66,NE,29.68,30.01,,Clear
KIGQ,03/25/2018 18:55 UTC,30.33,40.28,22.64,48.96,12.66,40.0,,,,,,1.0,,,,10.0,,KIGQ 251855Z AUTO 04011KT 10SM CLR 05/M05 A3033 RMK AO2  T00461052,,,,,,22.43,35.0,NE,29.67,29.99,,Clear
KIGQ,03/25/2018 19:15 UTC,30.33,40.64,22.1,47.2,10.36,50.0,,,,,,1.0,,,,10.0,,KIGQ 251915Z AUTO 05009KT 10SM CLR 05/M05 A3033 RMK AO2  T00481055,,,,,,21.88,36.24,NE,29.67,29.99,,Clear
KIGQ,03/25/2018 19:35 UTC,30.32,41.36,21.92,45.55,9.22,40.0,16.11,,,,,1.0,,,,10.0,,KIGQ 251935Z AUTO 04008G14KT 10SM CLR 05/M06 A3032 RMK AO2  T00521056,,,,,,21.7,37.56,NE,29.66,29.98,,Clear
KIGQ,03/25/2018 19:55 UTC,30.32,41.18,21.92,45.87,12.66,40.0,,,,,,1.0,,,,10.0,,KIGQ 251955Z AUTO 04011KT 10SM CLR 05/M06 A3032 RMK AO2  T00511056,,,,,,21.7,36.09,NE,29.66,29.98,,Clear
KIGQ,03/25/2018 20:15 UTC,30.31,41.9,21.92,44.61,12.66,30.0,16.11,,,,,1.0,,,,10.0,,KIGQ 252015Z AUTO 03011G14KT 10SM CLR 06/M06 A3031 RMK AO2  T00551056,,,,,,21.7,36.97,NNE,29.65,29.97,,Clear
KIGQ,03/25/2018 20:35 UTC,30.31,41.36,21.38,44.52,11.5,60.0,17.27,,,,,1.0,,,,10.0,,KIGQ 252035Z AUTO 06010G15KT 10SM CLR 05/M06 A3031 RMK AO2  T00521059,,,,,,21.15,36.7,ENE,29.65,29.98,,Clear
KIGQ,03/25/2018 20:55 UTC,30.3,41.36,21.56,44.86,9.22,40.0,18.41,,,,,1.0,,,,10.0,,KIGQ 252055Z AUTO 04008G16KT 10SM CLR 05/M06 A3030 RMK AO2  T00521058,,,,,,21.34,37.56,NE,29.64,29.97,,Clear
KIGQ,03/25/2018 21:15 UTC,30.3,41.36,21.74,45.2,13.8,40.0,,,,,,1.0,,,,10.0,,KIGQ 252115Z AUTO 04012KT 10SM CLR 05/M06 A3030 RMK AO2  T00521057,,,,,,21.51,35.96,NE,29.64,29.96,,Clear
KIGQ,03/25/2018 21:35 UTC,30.29,41.54,22.64,46.63,13.8,40.0,17.27,,,,,1.0,,,,10.0,,KIGQ 252135Z AUTO 04012G15KT 10SM CLR 05/M05 A3029 RMK AO2  T00531052,,,,,,22.42,36.18,NE,29.63,29.94,,Clear
KIGQ,03/25/2018 21:55 UTC,30.29,39.74,22.64,50.0,12.66,40.0,,,,,,1.0,,,,10.0,,KIGQ 252155Z AUTO 04011KT 10SM CLR 04/M05 A3029 RMK AO2  T00431052,,,,,,22.43,34.34,NE,29.63,29.95,,Clear
KIGQ,03/25/2018 22:15 UTC,30.29,40.64,22.64,48.28,13.8,40.0,,,,,,1.0,,,,10.0,,KIGQ 252215Z AUTO 04012KT 10SM CLR 05/M05 A3029 RMK AO2  T00481052,,,,,,22.42,35.08,NE,29.63,29.95,,Clear
KIGQ,03/25/2018 22:35 UTC,30.29,38.3,23.18,54.11,10.36,40.0,,,,,,1.0,,,,10.0,,KIGQ 252235Z AUTO 04009KT 10SM CLR 04/M05 A3029 RMK AO2  T00351049,,,,,,22.98,33.44,NE,29.63,29.95,,Clear
KIGQ,03/25/2018 22:55 UTC,30.29,39.2,24.26,54.66,12.66,30.0,,,,,,1.0,,,,10.0,,KIGQ 252255Z AUTO 03011KT 10SM CLR 04/M04 A3029 RMK AO2  T00401043,,,,,,24.07,33.69,NNE,29.63,29.94,,Clear
KIGQ,03/25/2018 23:15 UTC,30.29,37.94,23.9,56.57,12.66,40.0,17.27,,,,,1.0,,,,10.0,,KIGQ 252315Z AUTO 04011G15KT 10SM CLR 03/M04 A3029 RMK AO2  T00331045,,,,,,23.72,32.15,NE,29.63,29.95,,Clear
KIGQ,03/25/2018 23:35 UTC,30.29,37.76,25.88,61.88,9.22,40.0,,,,,,1.0,,,,10.0,,KIGQ 252335Z AUTO 04008KT 10SM CLR 03/M03 A3029 RMK AO2  T00321034,,,,,,25.72,33.28,NE,29.63,29.92,,Clear
KIGQ,03/25/2018 23:55 UTC,30.29,37.22,26.6,65.12,11.5,40.0,,,,,,1.0,,,,10.0,,KIGQ 252355Z AUTO 04010KT 10SM CLR 03/M03 A3029 RMK AO2 T00291030  10056 20029,42.08,37.22,,,,26.45,31.7,NE,29.63,29.92,,Clear
KIGQ,03/26/2018 00:15 UTC,30.29,36.5,27.5,69.54,8.05,40.0,,,,,,1.0,,,,10.0,,KIGQ 260015Z AUTO 04007KT 10SM CLR 03/M02 A3029 RMK AO2  T00251025,,,,,,27.37,32.36,NE,29.63,29.91,,Clear
KIGQ,03/26/2018 00:35 UTC,30.28,35.96,28.04,72.64,8.05,40.0,,,,,,1.0,,,,10.0,,KIGQ 260035Z AUTO 04007KT 10SM CLR 02/M02 A3028 RMK AO2  T00221022,,,,,,27.92,31.73,NE,29.62,29.89,,Clear
KIGQ,03/26/2018 00:55 UTC,30.29,35.96,27.14,69.99,6.91,70.0,,,,,,1.0,,,,10.0,,KIGQ 260055Z AUTO 07006KT 10SM CLR 02/M03 A3029 RMK AO2  T00221027,,,,,,27.01,,ENE,29.63,29.92,,Clear
KIGQ,03/26/2018 01:15 UTC,30.29,37.94,19.4,46.74,11.5,90.0,,,,,,1.0,,,,10.0,,KIGQ 260115Z AUTO 09010KT 10SM CLR 03/M07 A3029 RMK AO2  T00331070,,,,,,19.17,32.57,E,29.63,30.0,,Clear
KIGQ,03/26/2018 01:35 UTC,30.3,38.3,18.68,44.69,12.66,90.0,,,,,,1.0,,,,10.0,,KIGQ 260135Z AUTO 09011KT 10SM CLR 04/M07 A3030 RMK AO2  T00351074,,,,,,18.45,32.59,E,29.64,30.01,,Clear
KIGQ,03/26/2018 01:55 UTC,30.31,37.58,18.68,45.97,13.8,90.0,18.41,,,,,1.0,,,,10.0,,KIGQ 260155Z AUTO 09012G16KT 10SM CLR 03/M07 A3031 RMK AO2  T00311074,,,,,,18.45,31.34,E,29.65,30.03,,Clear
KIGQ,03/26/2018 02:15 UTC,30.3,36.32,18.5,47.94,16.11,100.0,20.71,,,,,1.0,,,,10.0,,KIGQ 260215Z AUTO 10014G18KT 10SM CLR 02/M07 A3030 RMK AO2  T00241075,,,,,,18.28,29.08,E,29.64,30.02,,Clear
KIGQ,03/26/2018 02:35 UTC,30.31,35.78,18.5,48.97,13.8,90.0,21.85,,,,,1.0,,,,10.0,,KIGQ 260235Z AUTO 09012G19KT 10SM CLR 02/M07 A3031 RMK AO2  T00211075,,,,,,18.28,29.13,E,29.65,30.04,,Clear
KIGQ,03/26/2018 02:55 UTC,30.31,35.6,18.32,48.94,13.8,100.0,23.02,,,,,1.0,,,,10.0,,KIGQ 260255Z AUTO 10012G20KT 10SM CLR 02/M08 A3031 RMK AO2  T00201076,,,,,,18.1,28.91,E,29.65,30.04,,Clear
KIGQ,03/26/2018 03:15 UTC,30.31,34.7,18.5,51.12,14.97,90.0,23.02,,,,,1.0,,,,10.0,,KIGQ 260315Z AUTO 09013G20KT 10SM CLR 02/M07 A3031 RMK AO2  T00151075,,,,,,18.29,27.42,E,29.65,30.04,,Clear
KIGQ,03/26/2018 03:35 UTC,30.32,33.8,18.86,53.82,12.66,100.0,20.71,,,,,1.0,,,,10.0,,KIGQ 260335Z AUTO 10011G18KT 10SM CLR 01/M07 A3032 RMK AO2  T00101073,,,,,,18.66,27.12,E,29.66,30.05,,Clear
KIGQ,03/26/2018 03:55 UTC,30.33,32.9,19.4,57.11,11.5,100.0,,,,,,1.0,,,,10.0,,KIGQ 260355Z AUTO 10010KT 10SM CLR 01/M07 A3033 RMK AO2  T00051070,,,,,,19.21,26.49,E,29.67,30.06,,Clear
KIGQ,03/26/2018 04:15 UTC,30.32,32.18,19.58,59.24,13.8,100.0,,,,,,1.0,,,,10.0,,KIGQ 260415Z AUTO 10012KT 10SM CLR 00/M07 A3032 RMK AO2  T00011069,,,,,,19.4,24.72,E,29.66,30.05,,Clear
KIGQ,03/26/2018 04:35 UTC,30.32,31.64,20.12,61.96,10.36,110.0,,,,,,1.0,,,,10.0,,KIGQ 260435Z AUTO 11009KT 10SM CLR 00/M07 A3032 RMK AO2  T10021066,,,,,,19.95,25.47,ESE,29.66,30.05,,Clear
KIGQ,03/26/2018 04:55 UTC,30.32,31.28,20.12,62.87,8.05,100.0,,,,,,1.0,,,,10.0,,KIGQ 260455Z AUTO 10007KT 10SM CLR 00/M07 A3032 RMK AO2  T10041066,,,,,,19.95,26.23,E,29.66,30.05,,Clear
KIGQ,03/26/2018 05:15 UTC,30.32,30.74,19.76,63.28,8.05,100.0,,,,,,1.0,,,,10.0,,KIGQ 260515Z AUTO 10007KT 10SM CLR M01/M07 A3032 RMK AO2  T10071068,,,,,,19.6,25.6,E,29.66,30.06,,Clear
KIGQ,03/26/2018 05:35 UTC,30.31,30.2,19.58,64.19,9.22,100.0,,,,,,1.0,,,,10.0,,KIGQ 260535Z AUTO 10008KT 10SM CLR M01/M07 A3031 RMK AO2  T10101069,,,,,,19.42,24.31,E,29.65,30.05,,Clear
KIGQ,03/26/2018 05:55 UTC,30.3,29.84,19.58,65.14,10.36,100.0,,,,,,1.0,,,,10.0,,KIGQ 260555Z AUTO 10009KT 10SM CLR M01/M07 A3030 RMK AO2 T10121069  10035 21012 400561040,38.3,29.84,,42.08,24.8,19.42,23.31,E,29.64,30.04,,Clear
KIGQ,03/26/2018 06:15 UTC,30.31,29.3,19.4,66.08,8.05,90.0,,,,,,1.0,,,,10.0,,KIGQ 260615Z AUTO 09007KT 10SM CLR M01/M07 A3031 RMK AO2  T10151070,,,,,,19.25,23.9,E,29.65,30.06,,Clear
KIGQ,03/26/2018 06:35 UTC,30.31,29.12,19.22,66.06,8.05,100.0,,,,,,1.0,,,,10.0,,KIGQ 260635Z AUTO 10007KT 10SM CLR M02/M07 A3031 RMK AO2  T10161071,,,,,,19.07,23.69,E,29.65,30.06,,Clear
KIGQ,03/26/2018 06:55 UTC,30.31,28.94,19.4,67.06,5.75,100.0,,,,,,1.0,,,,10.0,,KIGQ 260655Z AUTO 10005KT 10SM CLR M02/M07 A3031 RMK AO2  T10171070,,,,,,19.25,,E,29.65,30.06,,Clear
KIGQ,03/26/2018 08:35 UTC,30.28,27.32,19.94,73.35,4.61,90.0,,,,,,1.0,,,,10.0,,KIGQ 260835Z AUTO 09004KT 10SM CLR M03/M07 A3028 RMK AO2  T10261067,,,,,,19.82,,E,29.62,30.03,,Clear
KIGQ,03/26/2018 08:55 UTC,30.28,26.78,19.94,75.01,5.75,90.0,,,,,,1.0,,,,10.0,,KIGQ 260855Z AUTO 09005KT 10SM CLR M03/M07 A3028 RMK AO2  T10291067,,,,,,19.83,,E,29.62,30.04,,Clear
KIGQ,03/26/2018 09:15 UTC,30.28,27.14,20.3,75.04,5.75,90.0,,,,,,1.0,,,,10.0,,KIGQ 260915Z AUTO 09005KT 10SM CLR M03/M06 A3028 RMK AO2  T10271065,,,,,,20.19,,E,29.62,30.03,,Clear
KIGQ,03/26/2018 09:35 UTC,30.28,26.96,20.3,75.6,4.61,100.0,,,,,,1.0,,,,10.0,,KIGQ 260935Z AUTO 10004KT 10SM CLR M03/M06 A3028 RMK AO2  T10281065,,,,,,20.19,,E,29.62,30.03,,Clear
KIGQ,03/26/2018 09:55 UTC,30.27,27.32,20.12,73.92,3.44,90.0,,,,,,1.0,,,,10.0,,KIGQ 260955Z AUTO 09003KT 10SM CLR M03/M07 A3027 RMK AO2  T10261066,,,,,,20.0,,E,29.61,30.02,,Clear
KIGQ,03/26/2018 10:15 UTC,30.28,27.5,19.94,72.81,0.0,0.0,,,,,,1.0,,,,10.0,,KIGQ 261015Z AUTO 00000KT 10SM CLR M02/M07 A3028 RMK AO2  T10251067,,,,,,19.82,,N,29.62,30.03,,Clear
KIGQ,03/26/2018 10:35 UTC,30.27,27.32,19.94,73.35,4.61,80.0,,,,,,1.0,,,,10.0,,KIGQ 261035Z AUTO 08004KT 10SM CLR M03/M07 A3027 RMK AO2  T10261067,,,,,,19.82,,E,29.61,30.02,,Clear
KIGQ,03/26/2018 10:55 UTC,30.27,27.32,19.76,72.79,0.0,0.0,,,,,,1.0,,,,10.0,,KIGQ 261055Z AUTO 00000KT 10SM CLR M03/M07 A3027 RMK AO2  T10261068,,,,,,19.64,,N,29.61,30.02,,Clear
KIGQ,03/26/2018 11:15 UTC,30.27,26.96,19.58,73.31,4.61,90.0,,,,,,1.0,,,,10.0,,KIGQ 261115Z AUTO 09004KT 10SM CLR M03/M07 A3027 RMK AO2  T10281069,,,,,,19.46,,E,29.61,30.03,,Clear
KIGQ,03/26/2018 11:35 UTC,30.27,26.6,19.76,74.99,0.0,0.0,,,,,,1.0,,,,10.0,,KIGQ 261135Z AUTO 00000KT 10SM CLR M03/M07 A3027 RMK AO2  T10301068,,,,,,19.65,,N,29.61,30.03,,Clear
KIGQ,03/26/2018 11:55 UTC,30.27,26.78,19.4,73.29,4.61,100.0,,,,,,1.0,,,,10.0,,KIGQ 261155Z AUTO 10004KT 10SM CLR M03/M07 A3027 RMK AO2 T10291070  11011 21030,30.02,26.6,,,,19.28,,E,29.61,30.03,,Clear
KIGQ,03/26/2018 12:15 UTC,30.28,28.76,20.48,70.75,3.44,120.0,,,,,,1.0,,,,10.0,,KIGQ 261215Z AUTO 12003KT 10SM CLR M02/M06 A3028 RMK AO2  T10181064,,,,,,20.35,,ESE,29.62,30.02,,Clear
KIGQ,03/26/2018 12:35 UTC,30.29,30.74,21.38,67.8,0.0,0.0,,,,,,1.0,,,,10.0,,KIGQ 261235Z AUTO 00000KT 10SM CLR M01/M06 A3029 RMK AO2  T10071059,,,,,,21.23,,N,29.63,30.01,,Clear
KIGQ,03/26/2018 12:55 UTC,30.28,32.0,21.38,64.43,8.05,120.0,,,,,,1.0,,,,10.0,,KIGQ 261255Z AUTO 12007KT 10SM CLR 00/M06 A3028 RMK AO2  T00001059,,,,,,21.22,27.08,ESE,29.62,30.0,,Clear
KIGQ,03/26/2018 13:15 UTC,30.27,33.62,21.74,61.3,9.22,120.0,,,,,,1.0,,,,10.0,,KIGQ 261315Z AUTO 12008KT 10SM CLR 01/M06 A3027 RMK AO2  T00091057,,,,,,21.57,28.37,ESE,29.61,29.97,,Clear
KIGQ,03/26/2018 13:35 UTC,30.26,35.06,21.92,58.32,9.22,130.0,,,,,,1.0,,,,10.0,,KIGQ 261335Z AUTO 13008KT 10SM CLR 02/M06 A3026 RMK AO2  T00171056,,,,,,21.74,30.08,SE,29.6,29.95,,Clear
KIGQ,03/26/2018 13:55 UTC,30.26,36.86,22.46,55.56,11.5,140.0,,,,,,1.0,,,,10.0,,KIGQ 261355Z AUTO 14010KT 10SM CLR 03/M05 A3026 RMK AO2  T00271053,,,,,,22.27,31.27,SE,29.6,29.94,,Clear
KIGQ,03/26/2018 14:15 UTC,30.25,38.84,23.0,52.58,9.22,140.0,,,,,,1.0,,,,10.0,,KIGQ 261415Z AUTO 14008KT 10SM CLR 04/M05 A3025 RMK AO2  T00381050,,,,,,22.8,34.57,SE,29.59,29.91,,Clear
KIGQ,03/26/2018 14:35 UTC,30.27,39.74,23.36,51.54,12.66,150.0,,,,,,1.0,,,,10.0,,KIGQ 261435Z AUTO 15011KT 10SM CLR 04/M05 A3027 RMK AO2  T00431048,,,,,,23.16,34.34,SSE,29.61,29.92,,Clear
KIGQ,03/26/2018 14:55 UTC,30.26,41.36,24.62,51.03,11.5,130.0,,,,,,1.0,,,,10.0,,KIGQ 261455Z AUTO 13010KT 10SM CLR 05/M04 A3026 RMK AO2  T00521041,,,,,,24.42,36.7,SE,29.6,29.89,,Clear
KIGQ,03/26/2018 15:15 UTC,30.25,42.62,25.34,50.09,11.5,130.0,,,,,,1.0,,,,10.0,,KIGQ 261515Z AUTO 13010KT 10SM CLR 06/M04 A3025 RMK AO2 LTG DSNT W  T00591037,,,,,,25.14,38.22,SE,29.59,29.86,,Clear
KIGQ,03/26/2018 15:35 UTC,30.26,44.24,26.06,48.51,10.36,140.0,,,,,,1.0,,,,10.0,,KIGQ 261535Z AUTO 14009KT 10SM CLR 07/M03 A3026 RMK AO2  T00681033,,,,,,25.86,40.56,SE,29.6,29.85,,Clear
KIGQ,03/26/2018 15:55 UTC,30.26,46.04,27.32,47.73,10.36,160.0,,,,,,1.0,,,,10.0,,KIGQ 261555Z AUTO 16009KT 10SM CLR 08/M03 A3026 RMK AO2  T00781026,,,,,,27.12,,SSE,29.6,29.83,,Clear
KIGQ,03/26/2018 16:15 UTC,30.26,46.04,27.32,47.73,10.36,120.0,,,,,,1.0,,,,10.0,,KIGQ 261615Z AUTO 12009KT 030V290 10SM CLR 08/M03 A3026 RMK AO2  T00781026,,,,,,27.12,,ESE,29.6,29.83,,Clear
KIGQ,03/26/2018 16:35 UTC,30.24,46.76,27.86,47.49,10.36,160.0,,,,,,1.0,,,,10.0,,KIGQ 261635Z AUTO 16009KT 10SM CLR 08/M02 A3024 RMK AO2  T00821023,,,,,,27.66,,SSE,29.58,29.79,,Clear
KIGQ,03/26/2018 16:55 UTC,30.23,47.48,28.76,47.96,8.05,140.0,,,,,,1.0,,,,10.0,,KIGQ 261655Z AUTO 14007KT 10SM CLR 09/M02 A3023 RMK AO2  T00861018,,,,,,28.57,,SE,29.57,29.76,,Clear
KIGQ,03/26/2018 17:15 UTC,30.23,47.48,28.76,47.96,9.22,110.0,,,,,,1.0,,,,10.0,,KIGQ 261715Z AUTO 11008KT 10SM CLR 09/M02 A3023 RMK AO2  T00861018,,,,,,28.57,,ESE,29.57,29.76,,Clear
KIGQ,03/26/2018 17:35 UTC,30.21,48.38,29.66,48.11,10.36,120.0,,,,,,1.0,,,,10.0,,KIGQ 261735Z AUTO 12009KT 10SM CLR 09/M01 A3021 RMK AO2  T00911013,,,,,,29.47,,ESE,29.55,29.72,,Clear
KIGQ,03/26/2018 17:55 UTC,30.21,49.82,30.38,46.95,10.36,150.0,,,,,,1.0,,,,10.0,,KIGQ 261755Z AUTO 15009KT 10SM CLR 10/M01 A3021 RMK AO2 T00991009  10099 21031,49.82,26.42,,,,30.19,,SSE,29.55,29.7,,Clear
KIGQ,03/26/2018 18:15 UTC,30.21,51.62,31.82,46.56,12.66,110.0,,,,,,1.0,,,,10.0,,KIGQ 261815Z AUTO 11011KT 10SM CLR 11/00 A3021 RMK AO2  T01091001,,,,,,31.64,,ESE,29.55,29.67,,Clear
KIGQ,03/26/2018 18:35 UTC,30.19,51.8,31.82,46.25,11.5,110.0,,,,,,1.0,,,,10.0,,KIGQ 261835Z AUTO 11010KT 10SM CLR 11/00 A3019 RMK AO2  T01101001,,,,,,31.64,,ESE,29.53,29.65,,Clear
KIGQ,03/26/2018 18:55 UTC,30.17,53.24,32.72,45.49,12.66,110.0,18.41,,,,,1.0,,,,10.0,,KIGQ 261855Z AUTO 11011G16KT 10SM CLR 12/00 A3017 RMK AO2  T01180004,,,,,,32.54,,ESE,29.51,29.6,,Clear
KIGQ,03/26/2018 19:15 UTC,30.17,53.78,33.62,46.24,13.8,130.0,,,,,,342.0,,,,10.0,,KIGQ 261915Z AUTO 13012KT 10SM SCT034 12/01 A3017 RMK AO2  T01210009,,,,,,33.45,,SE,29.51,29.58,,Partly Cloudy
KIGQ,03/26/2018 19:35 UTC,30.16,52.7,33.08,47.07,11.5,140.0,,,,,,323.0,,,,10.0,,KIGQ 261935Z AUTO 14010KT 10SM BKN032 12/01 A3016 RMK AO2  T01150006,,,3200.0,,,32.9,,SE,29.5,29.59,,Mostly Cloudy
KIGQ,03/26/2018 19:55 UTC,30.16,52.88,33.98,48.48,10.36,70.0,16.11,,,,,324.0,,,,10.0,,KIGQ 261955Z AUTO 07009G14KT 030V120 10SM OVC032 12/01 A3016 RMK AO2 T01160011,,,3200.0,,,33.81,,ENE,29.5,29.57,,Overcast
KIGQ,03/26/2018 20:15 UTC,30.16,52.7,34.88,50.59,13.8,150.0,18.41,,,,,324.0,,,,10.0,,KIGQ 262015Z AUTO 15012G16KT 10SM OVC032 12/02 A3016 RMK AO2  T01150016,,,3200.0,,,34.72,,SSE,29.5,29.55,,Overcast
KIGQ,03/26/2018 20:35 UTC,30.15,53.24,36.5,52.89,12.66,130.0,17.27,,,,,343.0,,,,10.0,,KIGQ 262035Z AUTO 13011G15KT 10SM BKN034 12/03 A3015 RMK AO2  T01180025,,,3400.0,,,36.35,,SE,29.49,29.5,,Mostly Cloudy
KIGQ,03/26/2018 20:55 UTC,30.14,53.78,37.76,54.49,9.22,140.0,,,,,,343.0,,,,10.0,,KIGQ 262055Z AUTO 14008KT 10SM BKN034 12/03 A3014 RMK AO2  T01210032,,,3400.0,,,37.61,,SE,29.48,29.46,,Mostly Cloudy
KIGQ,03/26/2018 21:15 UTC,30.14,54.14,39.38,57.3,12.66,150.0,19.57,,,,,344.0,,,,10.0,,KIGQ 262115Z AUTO 15011G17KT 10SM OVC034 12/04 A3014 RMK AO2  T01230041,,,3400.0,,,39.24,,SSE,29.48,29.42,,Overcast
KIGQ,03/26/2018 21:35 UTC,30.14,53.96,40.1,59.32,14.97,160.0,21.85,,,,,343.0,,,,10.0,,KIGQ 262135Z AUTO 16013G19KT 10SM BKN034 12/05 A3014 RMK AO2  T01220045,,,3400.0,,,39.97,,SSE,29.48,29.4,,Mostly Cloudy
KIGQ,03/26/2018 21:55 UTC,30.12,53.78,40.64,60.98,18.41,140.0,23.02,,,,,343.0,903.0,,,10.0,,KIGQ 262155Z AUTO 14016G20KT 10SM BKN034 BKN090 12/05 A3012 RMK AO2 T01210048,,,3400.0,,,40.52,,SE,29.47,29.38,,Mostly Cloudy
KIGQ,03/26/2018 22:15 UTC,30.11,53.06,40.64,62.61,18.41,140.0,26.46,,1202.0,,,342.0,902.0,,,10.0,,KIGQ 262215Z AUTO 14016G23KT 10SM SCT034 SCT090 SCT120 12/05 A3011 RMK AO2 T01170048,,,,,,40.52,,SE,29.46,29.37,,Partly Cloudy
KIGQ,03/26/2018 22:35 UTC,30.12,52.7,41.36,65.23,12.66,150.0,23.02,,1203.0,,,323.0,1003.0,,,10.0,,KIGQ 262235Z AUTO 15011G20KT 10SM BKN032 BKN100 BKN120 12/05 A3012 RMK AO2 T01150052,,,3200.0,,,41.25,,SSE,29.47,29.37,,Mostly Cloudy
KIGQ,03/26/2018 22:55 UTC,30.13,51.8,42.26,69.81,10.36,160.0,20.71,17.0,,,,324.0,,,,10.0,,KIGQ 262255Z AUTO 16009G18KT 10SM -DZ OVC032 11/06 A3013 RMK AO2  T01100057,,,3200.0,,,42.16,,SSE,29.47,29.35,,Light Drizzle
KIGQ,03/26/2018 23:15 UTC,30.12,50.9,42.44,72.67,16.11,140.0,20.71,,,,,304.0,,,,10.0,,KIGQ 262315Z AUTO 14014G18KT 10SM OVC030 11/06 A3012 RMK AO2  T01050058,,,3000.0,,,42.35,,SE,29.47,29.35,,Overcast
KIGQ,03/26/2018 23:35 UTC,30.12,50.18,42.8,75.68,11.5,150.0,,17.0,,,,264.0,,,,10.0,,KIGQ 262335Z AUTO 15010KT 10SM -DZ OVC026 10/06 A3012 RMK AO2  T01010060,,,2600.0,,,42.72,,SSE,29.47,29.35,,Light Drizzle
KIGQ,03/26/2018 23:55 UTC,30.11,49.1,44.06,82.68,12.66,150.0,17.27,13.0,,,,264.0,,,,10.0,,KIGQ 262355Z AUTO 15011G15KT 10SM -RA OVC026 10/07 A3011 RMK AO2  T00950067 10124 20095,54.32,49.1,2600.0,,,44.0,,SSE,29.46,29.31,,Light Rain
KIGQ,03/27/2018 00:15 UTC,30.11,48.56,44.6,86.12,16.11,140.0,20.71,13.0,,,,244.0,,,,10.0,,KIGQ 270015Z AUTO 14014G18KT 10SM -RA OVC024 09/07 A3011 RMK AO2  T00920070,,,2400.0,,,44.55,,SE,29.46,29.3,,Light Rain
KIGQ,03/27/2018 00:35 UTC,30.1,48.2,44.42,86.69,12.66,140.0,,,,,,244.0,,,,10.0,,KIGQ 270035Z AUTO 14011KT 10SM OVC024 09/07 A3010 RMK AO2  T00900069,,,2400.0,,,44.37,,SE,29.45,29.3,,Overcast
KIGQ,03/27/2018 00:55 UTC,30.09,48.02,44.42,87.27,14.97,140.0,21.85,,,,,244.0,,,,10.0,,KIGQ 270055Z AUTO 14013G19KT 10SM OVC024 09/07 A3009 RMK AO2  T00890069,,,2400.0,,,44.37,,SE,29.44,29.29,,Overcast
KIGQ,03/27/2018 01:15 UTC,30.08,47.66,44.06,87.26,13.8,140.0,18.41,,,,,244.0,,,,10.0,,KIGQ 270115Z AUTO 14012G16KT 10SM OVC024 09/07 A3008 RMK AO2  T00870067,,,2400.0,,,44.02,,SE,29.43,29.29,,Overcast
KIGQ,03/27/2018 01:35 UTC,30.08,47.84,43.7,85.48,16.11,150.0,20.71,,,,,244.0,,,,10.0,,KIGQ 270135Z AUTO 15014G18KT 10SM OVC024 09/07 A3008 RMK AO2  T00880065,,,2400.0,,,43.65,,SSE,29.43,29.3,,Overcast
KIGQ,03/27/2018 01:55 UTC,30.09,48.2,43.34,83.18,11.5,150.0,23.02,,,,,263.0,324.0,,,10.0,,KIGQ 270155Z AUTO 15010G20KT 10SM BKN026 OVC032 09/06 A3009 RMK AO2 T00900063,,,2600.0,,,43.28,,SSE,29.44,29.32,,Overcast
KIGQ,03/27/2018 02:15 UTC,30.08,48.2,42.98,82.04,16.11,150.0,19.57,,374.0,,,213.0,263.0,,,10.0,,KIGQ 270215Z AUTO 15014G17KT 10SM BKN021 BKN026 OVC037 09/06 A3008 RMK AO2 T00900061,,,2100.0,,,42.92,,SSE,29.43,29.32,,Overcast
KIGQ,03/27/2018 02:35 UTC,30.07,48.2,42.8,81.48,12.66,150.0,18.41,,,,,212.0,304.0,,,10.0,,KIGQ 270235Z AUTO 15011G16KT 10SM SCT021 OVC030 09/06 A3007 RMK AO2 T00900060,,,3000.0,,,42.74,,SSE,29.42,29.31,,Overcast
KIGQ,03/27/2018 02:55 UTC,30.06,47.84,42.98,83.16,11.5,150.0,,17.0,,,,213.0,304.0,,,10.0,,KIGQ 270255Z AUTO 15010KT 10SM -DZ BKN021 OVC030 09/06 A3006 RMK AO2 T00880061,,,2100.0,,,42.92,,SSE,29.41,29.3,,Light Drizzle
KIGQ,03/27/2018 03:15 UTC,30.04,46.94,43.52,87.82,13.8,150.0,20.71,2.0,,,,214.0,,,,10.0,,KIGQ 270315Z AUTO 15012G18KT 10SM DZ OVC021 08/06 A3004 RMK AO2  T00830064,,,2100.0,,,43.48,,SSE,29.39,29.27,,Drizzle
KIGQ,03/27/2018 03:35 UTC,30.04,46.94,43.7,88.43,13.8,160.0,19.57,17.0,,,,194.0,,,,10.0,,KIGQ 270335Z AUTO 16012G17KT 10SM -DZ OVC019 08/07 A3004 RMK AO2  T00830065,,,1900.0,,,43.66,,SSE,29.39,29.27,,Light Drizzle
KIGQ,03/27/2018 03:55 UTC,30.04,46.58,44.6,92.77,11.5,160.0,18.41,13.0,,,,154.0,,,,10.0,,KIGQ 270355Z AUTO 16010G16KT 10SM -RA OVC015 08/07 A3004 RMK AO2  T00810070,,,1500.0,,,44.58,,SSE,29.39,29.25,,Light Rain
KIGQ,03/27/2018 04:15 UTC,30.03,46.58,45.5,96.0,11.5,160.0,20.71,13.0,,,,154.0,,,,10.0,,KIGQ 270415Z AUTO 16010G18KT 10SM -RA OVC015 08/08 A3003 RMK AO2  T00810075,,,1500.0,,,45.49,,SSE,29.38,29.21,,Light Rain
KIGQ,03/27/2018 04:30 UTC,30.02,47.12,46.4,97.32,11.5,160.0,18.41,13.0,,,,153.0,194.0,,,10.0,,KIGQ 270430Z AUTO 16010G16KT 10SM -RA BKN015 OVC019 08/08 A3002 RMK AO2 T00840080,,,1500.0,,,46.39,,SSE,29.37,29.17,,Light Rain
KIGQ,03/27/2018 04:55 UTC,30.01,47.66,47.3,98.66,14.97,170.0,21.85,13.0,,,,114.0,,,,10.0,,KIGQ 270455Z AUTO 17013G19KT 10SM -RA OVC011 09/09 A3001 RMK AO2  T00870085,,,1100.0,,,47.3,,S,29.36,29.13,,Light Rain
KIGQ,03/27/2018 05:15 UTC,30.0,47.84,47.48,98.66,10.36,170.0,18.41,1.0,,,,94.0,,,,7.0,,KIGQ 270515Z AUTO 17009G16KT 7SM RA OVC009 09/09 A3000 RMK AO2  T00880086,,,900.0,,,47.48,,S,29.35,29.11,,Rain
KIGQ,03/27/2018 05:35 UTC,29.99,48.2,48.2,100.0,13.8,170.0,18.41,13.0,,0.01,,94.0,,,,7.0,,KIGQ 270535Z AUTO 17012G16KT 7SM -RA OVC009 09/09 A2999 RMK AO2  P0001 T00900090,,,900.0,,,48.2,,S,29.34,29.08,,Light Rain
KIGQ,03/27/2018 05:55 UTC,29.99,48.2,48.2,100.0,12.66,170.0,19.57,13.0,,0.02,,94.0,,0.02,,7.0,,KIGQ 270555Z AUTO 17011G17KT 7SM -RA OVC009 09/09 A2999 RMK AO2  P0002 60002 T00900090 10095 20081 401241031,49.1,46.58,900.0,54.32,26.42,48.2,,S,29.34,29.08,,Light Rain
KIGQ,03/27/2018 06:15 UTC,29.98,48.56,48.56,100.0,13.8,170.0,17.27,13.0,,0.01,,94.0,,,,7.0,,KIGQ 270615Z AUTO 17012G15KT 7SM -RA OVC009 09/09 A2998 RMK AO2  P0001 T00920092,,,900.0,,,48.56,,S,29.33,29.05,,Light Rain
KIGQ,03/27/2018 06:35 UTC,29.97,48.92,48.92,100.0,16.11,190.0,,1.0,,0.01,,94.0,,,,7.0,,KIGQ 270635Z AUTO 19014KT 7SM RA OVC009 09/09 A2997 RMK AO2 P0001  T00940094,,,900.0,,,48.92,,S,29.32,29.02,,Rain
KIGQ,03/27/2018 06:55 UTC,29.97,49.28,49.28,100.0,16.11,190.0,19.57,1.0,,0.02,,94.0,,,,7.0,,KIGQ 270655Z AUTO 19014G17KT 7SM RA OVC009 10/10 A2997 RMK AO2  P0002 T00960096,,,900.0,,,49.28,,S,29.32,29.01,,Rain
KIGQ,03/27/2018 07:15 UTC,29.96,49.28,49.28,100.0,13.8,190.0,,13.0,,,,94.0,,,,7.0,,KIGQ 270715Z AUTO 19012KT 7SM -RA OVC009 10/10 A2996 RMK AO2  T00960096,,,900.0,,,49.28,,S,29.31,29.0,,Light Rain
KIGQ,03/27/2018 07:35 UTC,29.95,49.1,49.1,100.0,9.22,190.0,18.41,13.0,,0.02,,94.0,,,,7.0,,KIGQ 270735Z AUTO 19008G16KT 7SM -RA OVC009 10/10 A2995 RMK AO2  P0002 T00950095,,,900.0,,,49.1,,S,29.3,29.0,,Light Rain
KIGQ,03/27/2018 07:55 UTC,29.95,49.1,49.1,100.0,10.36,200.0,18.41,13.0,,0.02,,94.0,,,,7.0,,KIGQ 270755Z AUTO 20009G16KT 7SM -RA OVC009 10/10 A2995 RMK AO2  P0002 T00950095,,,900.0,,,49.1,,SSW,29.3,29.0,,Light Rain
KIGQ,03/27/2018 08:15 UTC,29.94,49.46,49.46,100.0,14.97,200.0,20.71,13.0,,0.01,,74.0,,,,5.0,,KIGQ 270815Z AUTO 20013G18KT 5SM -RA OVC007 10/10 A2994 RMK AO2  P0001 T00970097,,,700.0,,,49.46,,SSW,29.29,28.97,,Light Rain
KIGQ,03/27/2018 08:35 UTC,29.94,49.46,49.46,100.0,13.8,200.0,21.85,1.0,,0.01,,74.0,,,,4.0,,KIGQ 270835Z AUTO 20012G19KT 4SM RA OVC007 10/10 A2994 RMK AO2  P0001 T00970097,,,700.0,,,49.46,,SSW,29.29,28.97,,Rain
KIGQ,03/27/2018 08:55 UTC,29.94,49.1,49.1,100.0,10.36,210.0,19.57,13.0,,0.01,0.05,74.0,,,,3.0,,KIGQ 270855Z AUTO 21009G17KT 3SM -RA OVC007 10/10 A2994 RMK AO2  P0001 60005 T00950095,,,700.0,,,49.1,,SSW,29.29,28.99,,Light Rain
KIGQ,03/27/2018 09:15 UTC,29.93,49.1,49.1,100.0,13.8,210.0,,13.0,,0.01,,74.0,,,,5.0,,KIGQ 270915Z AUTO 21012KT 5SM -RA OVC007 10/10 A2993 RMK AO2 P0001  T00950095,,,700.0,,,49.1,,SSW,29.28,28.98,,Light Rain
KIGQ,03/27/2018 09:35 UTC,29.93,49.1,49.1,100.0,16.11,200.0,23.02,,,0.01,,74.0,,,,10.0,,KIGQ 270935Z AUTO 20014G20KT 10SM OVC007 10/10 A2993 RMK AO2 P0001  T00950095,,,700.0,,,49.1,,SSW,29.28,28.98,,Overcast
KIGQ,03/27/2018 09:55 UTC,29.93,49.28,49.28,100.0,12.66,210.0,,,,0.01,,74.0,,,,7.0,,KIGQ 270955Z AUTO 21011KT 7SM OVC007 10/10 A2993 RMK AO2 P0001  T00960096,,,700.0,,,49.28,,SSW,29.28,28.97,,Overcast
KIGQ,03/27/2018 10:15 UTC,29.93,49.1,49.1,100.0,12.66,210.0,18.41,,,,,74.0,,,,7.0,,KIGQ 271015Z AUTO 21011G16KT 7SM OVC007 10/10 A2993 RMK AO2  T00950095,,,700.0,,,49.1,,SSW,29.28,28.98,,Overcast
KIGQ,03/27/2018 10:35 UTC,29.93,49.28,49.28,100.0,13.8,210.0,19.57,13.0,,,,74.0,,,,7.0,,KIGQ 271035Z AUTO 21012G17KT 7SM -RA OVC007 10/10 A2993 RMK AO2  T00960096,,,700.0,,,49.28,,SSW,29.28,28.97,,Light Rain
KIGQ,03/27/2018 10:55 UTC,29.93,49.28,49.28,100.0,11.5,210.0,17.27,13.0,,,,54.0,,,,5.0,,KIGQ 271055Z AUTO 21010G15KT 5SM -RA OVC005 10/10 A2993 RMK AO2  T00960096,,,500.0,,,49.28,,SSW,29.28,28.97,,Light Rain
KIGQ,03/27/2018 11:15 UTC,29.94,49.28,49.28,100.0,9.22,220.0,,1.0,,,,54.0,,,,5.0,,KIGQ 271115Z AUTO 22008KT 5SM RA OVC005 10/10 A2994 RMK AO2  T00960096,,,500.0,,,49.28,,SW,29.29,28.98,,Rain
KIGQ,03/27/2018 11:35 UTC,29.94,49.28,49.28,100.0,11.5,210.0,17.27,13.0,,0.01,,54.0,,,,5.0,,KIGQ 271135Z AUTO 21010G15KT 5SM -RA OVC005 10/10 A2994 RMK AO2  P0001 T00960096,,,500.0,,,49.28,,SSW,29.29,28.98,,Light Rain
KIGQ,03/27/2018 11:55 UTC,29.95,49.46,49.46,100.0,10.36,250.0,16.11,13.0,,0.02,,54.0,,0.08,0.1,5.0,,KIGQ 271155Z AUTO 25009G14KT 210V330 5SM -RA OVC005 10/10 A2995 RMK AO2 P0002 60008 70010 T00970097 10097 20090,49.46,48.2,500.0,,,49.46,,WSW,29.3,28.98,,Light Rain
KIGQ,03/27/2018 12:15 UTC,29.95,49.64,49.64,100.0,13.8,210.0,20.71,13.0,,,,54.0,,,,7.0,,KIGQ 271215Z AUTO 21012G18KT 7SM -RA OVC005 10/10 A2995 RMK AO2  T00980098,,,500.0,,,49.64,,SSW,29.3,28.97,,Light Rain
KIGQ,03/27/2018 12:35 UTC,29.96,49.64,49.64,100.0,14.97,210.0,20.71,13.0,,,,54.0,,,,7.0,,KIGQ 271235Z AUTO 21013G18KT 7SM -RA OVC005 10/10 A2996 RMK AO2  T00980098,,,500.0,,,49.64,,SSW,29.31,28.98,,Light Rain
KIGQ,03/27/2018 12:55 UTC,29.95,50.0,50.0,100.0,11.5,240.0,19.57,13.0,,,,54.0,,,,5.0,,KIGQ 271255Z AUTO 24010G17KT 200V300 5SM -RA OVC005 10/10 A2995 RMK AO2 T01000100,,,500.0,,,50.0,,WSW,29.3,28.96,,Light Rain
KIGQ,03/27/2018 13:15 UTC,29.95,50.0,50.0,100.0,12.66,210.0,,2.0,,,,54.0,,,,5.0,,KIGQ 271315Z AUTO 21011KT 5SM DZ OVC005 10/10 A2995 RMK AO2  T01000100,,,500.0,,,50.0,,SSW,29.3,28.96,,Drizzle
KIGQ,03/27/2018 13:35 UTC,29.95,50.18,50.18,100.0,11.5,220.0,,31.0,,,,54.0,,,,4.0,,KIGQ 271335Z AUTO 22010KT 4SM BR OVC005 10/10 A2995 RMK AO2  T01010101,,,500.0,,,50.18,,SW,29.3,28.95,,Mist
KIGQ,03/27/2018 13:55 UTC,29.95,50.18,50.18,100.0,12.66,220.0,20.71,31.0,,,,54.0,,,,4.0,,KIGQ 271355Z AUTO 22011G18KT 4SM BR OVC005 10/10 A2995 RMK AO2  T01010101,,,500.0,,,50.18,,SW,29.3,28.95,,Mist
KIGQ,03/27/2018 14:15 UTC,29.95,50.54,50.54,100.0,14.97,220.0,19.57,31.0,,,,54.0,,,,1.5,,KIGQ 271415Z AUTO 22013G17KT 1 1/2SM BR OVC005 10/10 A2995 RMK AO2  T01030103,,,500.0,,,50.54,,SW,29.3,28.93,,Mist
KIGQ,03/27/2018 14:35 UTC,29.95,50.9,50.9,100.0,12.66,220.0,,17.0,,,,54.0,,,,3.0,,KIGQ 271435Z AUTO 22011KT 3SM -DZ OVC005 11/11 A2995 RMK AO2  T01050105,,,500.0,,,50.9,,SW,29.3,28.92,,Light Drizzle
KIGQ,03/27/2018 14:55 UTC,29.96,51.26,51.26,100.0,13.8,230.0,18.41,13.0,,,,54.0,,,,7.0,,KIGQ 271455Z AUTO 23012G16KT 7SM -RA OVC005 11/11 A2996 RMK AO2  T01070107,,,500.0,,,51.26,,SW,29.31,28.91,,Light Rain
KIGQ,03/27/2018 15:15 UTC,29.95,51.8,51.8,100.0,11.5,230.0,,,,,,54.0,,,,10.0,,KIGQ 271515Z AUTO 23010KT 10SM OVC005 11/11 A2995 RMK AO2  T01100110,,,500.0,,,51.8,,SW,29.3,28.87,,Overcast
KIGQ,03/27/2018 15:35 UTC,29.96,51.8,51.8,100.0,10.36,240.0,,,,,,54.0,,,,10.0,,KIGQ 271535Z AUTO 24009KT 10SM OVC005 11/11 A2996 RMK AO2  T01100110,,,500.0,,,51.8,,WSW,29.31,28.88,,Overcast
KIGQ,03/27/2018 15:55 UTC,29.98,51.62,51.62,100.0,12.66,250.0,,31.0,,,,54.0,,,,2.5,,KIGQ 271555Z AUTO 25011KT 2 1/2SM BR OVC005 11/11 A2998 RMK AO2  T01090109,,,500.0,,,51.62,,WSW,29.33,28.91,,Mist
KIGQ,03/27/2018 16:15 UTC,29.99,51.08,51.08,100.0,10.36,250.0,,31.0,,,,54.0,,,,2.5,,KIGQ 271615Z AUTO 25009KT 2 1/2SM BR OVC005 11/11 A2999 RMK AO2  T01060106,,,500.0,,,51.08,,WSW,29.34,28.95,,Mist
KIGQ,03/27/2018 16:35 UTC,29.98,50.18,50.18,100.0,12.66,270.0,,31.0,,,,54.0,,,,3.0,,KIGQ 271635Z AUTO 27011KT 3SM BR OVC005 10/10 A2998 RMK AO2  T01010101,,,500.0,,,50.18,,W,29.33,28.98,,Mist
KIGQ,03/27/2018 16:55 UTC,29.99,49.82,49.82,100.0,11.5,270.0,,,,,,73.0,134.0,,,10.0,,KIGQ 271655Z AUTO 27010KT 10SM BKN007 OVC013 10/10 A2999 RMK AO2  T00990099,,,700.0,,,49.82,,W,29.34,29.01,,Overcast
KIGQ,03/27/2018 17:15 UTC,29.99,48.92,48.92,100.0,11.5,260.0,,31.0,,,,74.0,,,,5.0,,KIGQ 271715Z AUTO 26010KT 5SM BR OVC007 09/09 A2999 RMK AO2  T00940094,,,700.0,,,48.92,,W,29.34,29.04,,Mist
KIGQ,03/27/2018 17:35 UTC,29.98,48.38,48.38,100.0,8.05,250.0,,31.0,,,,73.0,154.0,,,2.5,,KIGQ 271735Z AUTO 25007KT 2 1/2SM BR BKN007 OVC015 09/09 A2998 RMK AO2 T00910091,,,700.0,,,48.38,,WSW,29.33,29.06,,Mist
KIGQ,03/27/2018 17:55 UTC,29.98,48.38,48.38,100.0,9.22,250.0,,17.0,234.0,,,72.0,133.0,,,4.0,,KIGQ 271755Z AUTO 25008KT 4SM -DZ SCT007 BKN013 OVC023 09/09 A2998 RMK AO2 T00910091 10110 20090,51.8,48.2,1300.0,,,48.38,,WSW,29.33,29.06,,Light Drizzle
KIGQ,03/27/2018 18:15 UTC,29.98,49.1,48.92,99.33,8.05,260.0,,,,,,103.0,234.0,,,10.0,,KIGQ 271815Z AUTO 26007KT 10SM BKN010 OVC023 10/09 A2998 RMK AO2  T00950094,,,1000.0,,,48.92,,W,29.33,29.03,,Overcast
KIGQ,03/27/2018 18:35 UTC,29.98,49.46,48.02,94.76,6.91,280.0,,,,,,104.0,,,,10.0,,KIGQ 271835Z AUTO 28006KT 10SM OVC010 10/09 A2998 RMK AO2  T00970089,,,1000.0,,,48.0,,W,29.33,29.06,,Overcast
KIGQ,03/27/2018 18:55 UTC,29.98,49.28,47.84,94.76,8.05,270.0,,,,,,124.0,,,,10.0,,KIGQ 271855Z AUTO 27007KT 10SM OVC012 10/09 A2998 RMK AO2  T00960088,,,1200.0,,,47.82,,W,29.33,29.07,,Overcast
KIGQ,03/27/2018 19:15 UTC,29.98,49.28,47.48,93.48,8.05,280.0,,,,,,124.0,,,,10.0,,KIGQ 271915Z AUTO 28007KT 10SM OVC012 10/09 A2998 RMK AO2  T00960086,,,1200.0,,,47.46,,W,29.33,29.08,,Overcast
KIGQ,03/27/2018 19:35 UTC,29.99,49.1,46.76,91.6,11.5,250.0,18.41,,,,,124.0,,,,10.0,,KIGQ 271935Z AUTO 25010G16KT 10SM OVC012 10/08 A2999 RMK AO2  T00950082,,,1200.0,,,46.73,,WSW,29.34,29.11,,Overcast
KIGQ,03/27/2018 19:55 UTC,29.99,49.1,46.4,90.36,11.5,290.0,,,,,,144.0,,,,10.0,,KIGQ 271955Z AUTO 29010KT 10SM OVC014 10/08 A2999 RMK AO2  T00950080,,,1400.0,,,46.37,,WNW,29.34,29.12,,Overcast
KIGQ,03/27/2018 20:15 UTC,29.99,48.56,45.86,90.34,6.91,280.0,,,,,,144.0,,,,10.0,,KIGQ 272015Z AUTO 28006KT 10SM OVC014 09/08 A2999 RMK AO2  T00920077,,,1400.0,,,45.83,,W,29.34,29.14,,Overcast
KIGQ,03/27/2018 20:35 UTC,29.98,48.2,45.5,90.32,5.75,280.0,,,,,,144.0,,,,10.0,,KIGQ 272035Z AUTO 28005KT 10SM OVC014 09/08 A2998 RMK AO2  T00900075,,,1400.0,,,45.47,,W,29.33,29.15,,Overcast
KIGQ,03/27/2018 20:55 UTC,29.99,48.02,45.32,90.31,8.05,290.0,,,,,,144.0,,,,10.0,,KIGQ 272055Z AUTO 29007KT 10SM OVC014 09/07 A2999 RMK AO2  T00890074,,,1400.0,,,45.29,,WNW,29.34,29.16,,Overcast
KIGQ,03/27/2018 21:15 UTC,29.98,48.02,44.6,87.88,6.91,290.0,,,,,,164.0,,,,10.0,,KIGQ 272115Z AUTO 29006KT 10SM OVC016 09/07 A2998 RMK AO2  T00890070,,,1600.0,,,44.56,,WNW,29.33,29.17,,Overcast
KIGQ,03/27/2018 21:35 UTC,29.99,47.66,44.06,87.26,5.75,270.0,,,,,,164.0,,,,10.0,,KIGQ 272135Z AUTO 27005KT 10SM OVC016 09/07 A2999 RMK AO2  T00870067,,,1600.0,,,44.02,,W,29.34,29.2,,Overcast
KIGQ,03/27/2018 21:55 UTC,29.99,47.48,43.88,87.25,5.75,280.0,,,,,,164.0,,,,10.0,,KIGQ 272155Z AUTO 28005KT 10SM OVC016 09/07 A2999 RMK AO2  T00860066,,,1600.0,,,43.84,,W,29.34,29.21,,Overcast
KIGQ,03/27/2018 22:15 UTC,30.0,47.3,43.88,87.84,6.91,270.0,,,,,,164.0,,,,10.0,,KIGQ 272215Z AUTO 27006KT 10SM OVC016 09/07 A3000 RMK AO2  T00850066,,,1600.0,,,43.84,,W,29.35,29.22,,Overcast
KIGQ,03/27/2018 22:35 UTC,30.01,47.3,43.88,87.84,6.91,270.0,,,,,,164.0,,,,10.0,,KIGQ 272235Z AUTO 27006KT 10SM OVC016 09/07 A3001 RMK AO2  T00850066,,,1600.0,,,43.84,,W,29.36,29.23,,Overcast
KIGQ,03/27/2018 22:55 UTC,30.02,46.94,43.7,88.43,4.61,270.0,,,,,,164.0,,,,10.0,,KIGQ 272255Z AUTO 27004KT 10SM OVC016 08/07 A3002 RMK AO2  T00830065,,,1600.0,,,43.66,,W,29.37,29.25,,Overcast
KIGQ,03/27/2018 23:15 UTC,30.03,46.58,42.98,87.2,4.61,310.0,,,,,,164.0,,,,10.0,,KIGQ 272315Z AUTO 31004KT 10SM OVC016 08/06 A3003 RMK AO2  T00810061,,,1600.0,,,42.94,,NW,29.38,29.28,,Overcast
KIGQ,03/27/2018 23:35 UTC,30.03,46.4,42.8,87.19,5.75,320.0,,,,,,184.0,,,,10.0,,KIGQ 272335Z AUTO 32005KT 10SM OVC018 08/06 A3003 RMK AO2  T00800060,,,1800.0,,,42.75,,NW,29.38,29.29,,Overcast
KIGQ,03/27/2018 23:55 UTC,30.04,46.04,42.26,86.57,5.75,310.0,,,,,,184.0,,,,10.0,,KIGQ 272355Z AUTO 31005KT 10SM OVC018 08/06 A3004 RMK AO2  T00780057 10099 20078,49.82,46.04,1800.0,,,42.21,,NW,29.39,29.31,,Overcast
KIGQ,03/28/2018 00:15 UTC,30.05,45.86,42.26,87.16,5.75,310.0,,,,,,184.0,,,,10.0,,KIGQ 280015Z AUTO 31005KT 10SM OVC018 08/06 A3005 RMK AO2  T00770057,,,1800.0,,,42.21,,NW,29.4,29.33,,Overcast
KIGQ,03/28/2018 00:35 UTC,30.05,45.68,42.08,87.15,3.44,310.0,,,,,,184.0,,,,10.0,,KIGQ 280035Z AUTO 31003KT 10SM OVC018 08/06 A3005 RMK AO2  T00760056,,,1800.0,,,42.03,,NW,29.4,29.33,,Overcast
KIGQ,03/28/2018 00:55 UTC,30.06,45.68,41.9,86.55,3.44,310.0,,,,,,184.0,,,,10.0,,KIGQ 280055Z AUTO 31003KT 10SM OVC018 08/06 A3006 RMK AO2  T00760055,,,1800.0,,,41.85,,NW,29.41,29.35,,Overcast
KIGQ,03/28/2018 01:15 UTC,30.06,45.5,41.9,87.14,3.44,320.0,,,,,,184.0,,,,10.0,,KIGQ 280115Z AUTO 32003KT 10SM OVC018 08/06 A3006 RMK AO2  T00750055,,,1800.0,,,41.85,,NW,29.41,29.35,,Overcast
KIGQ,03/28/2018 01:35 UTC,30.06,45.5,41.9,87.14,0.0,0.0,,,,,,184.0,,,,10.0,,KIGQ 280135Z AUTO 00000KT 10SM OVC018 08/06 A3006 RMK AO2  T00750055,,,1800.0,,,41.85,,N,29.41,29.35,,Overcast
KIGQ,03/28/2018 01:55 UTC,30.06,45.5,41.36,85.34,0.0,0.0,,,,,,204.0,,,,10.0,,KIGQ 280155Z AUTO 00000KT 10SM OVC020 08/05 A3006 RMK AO2  T00750052,,,2000.0,,,41.31,,N,29.41,29.36,,Overcast
KIGQ,03/28/2018 02:15 UTC,30.05,45.32,40.46,82.98,0.0,0.0,,,,,,264.0,,,,10.0,,KIGQ 280215Z AUTO 00000KT 10SM OVC026 07/05 A3005 RMK AO2  T00740047,,,2600.0,,,40.4,,N,29.4,29.37,,Overcast
KIGQ,03/28/2018 02:35 UTC,30.06,44.96,40.82,85.31,0.0,0.0,,,,,,283.0,,,,10.0,,KIGQ 280235Z AUTO 00000KT 10SM BKN028 07/05 A3006 RMK AO2  T00720049,,,2800.0,,,40.77,,N,29.41,29.38,,Mostly Cloudy
KIGQ,03/28/2018 02:55 UTC,30.07,44.6,41.0,87.09,0.0,0.0,,,,,,283.0,,,,10.0,,KIGQ 280255Z AUTO 00000KT 10SM BKN028 07/05 A3007 RMK AO2  T00700050,,,2800.0,,,40.95,,N,29.42,29.39,,Mostly Cloudy
KIGQ,03/28/2018 03:15 UTC,30.07,44.06,41.0,88.9,0.0,0.0,,,,,,284.0,,,,10.0,,KIGQ 280315Z AUTO 00000KT 10SM OVC028 07/05 A3007 RMK AO2  T00670050,,,2800.0,,,40.96,,N,29.42,29.39,,Overcast
KIGQ,03/28/2018 03:35 UTC,30.06,43.88,41.0,89.51,0.0,0.0,,,,,,284.0,,,,10.0,,KIGQ 280335Z AUTO 00000KT 10SM OVC028 07/05 A3006 RMK AO2  T00660050,,,2800.0,,,40.96,,N,29.41,29.38,,Overcast
KIGQ,03/28/2018 03:55 UTC,30.06,42.98,41.18,93.3,0.0,0.0,,,,,,264.0,,,,10.0,,KIGQ 280355Z AUTO 00000KT 10SM OVC026 06/05 A3006 RMK AO2  T00610051,,,2600.0,,,41.15,,N,29.41,29.39,,Overcast
KIGQ,03/28/2018 04:15 UTC,30.06,42.44,41.36,95.92,0.0,0.0,,,,,,264.0,,,,10.0,,KIGQ 280415Z AUTO 00000KT 10SM OVC026 06/05 A3006 RMK AO2  T00580052,,,2600.0,,,41.34,,N,29.41,29.39,,Overcast
KIGQ,03/28/2018 04:35 UTC,30.06,43.7,39.92,86.43,6.91,50.0,,,,,,264.0,,,,10.0,,KIGQ 280435Z AUTO 05006KT 10SM OVC026 07/04 A3006 RMK AO2  T00650044,,,2600.0,,,39.87,,NE,29.41,29.41,,Overcast
KIGQ,03/28/2018 04:55 UTC,30.06,42.8,39.56,88.22,5.75,40.0,,,,,,264.0,,,,10.0,,KIGQ 280455Z AUTO 04005KT 10SM OVC026 06/04 A3006 RMK AO2  T00600042,,,2600.0,,,39.52,,NE,29.41,29.43,,Overcast
KIGQ,03/28/2018 05:15 UTC,30.06,42.8,39.56,88.22,3.44,50.0,,,,,,264.0,,,,10.0,,KIGQ 280515Z AUTO 05003KT 10SM OVC026 06/04 A3006 RMK AO2  T00600042,,,2600.0,,,39.52,,NE,29.41,29.43,,Overcast
KIGQ,03/28/2018 05:35 UTC,30.06,42.8,39.2,86.99,4.61,60.0,,,,,,264.0,,,,10.0,,KIGQ 280535Z AUTO 06004KT 10SM OVC026 06/04 A3006 RMK AO2  T00600040,,,2600.0,,,39.15,,ENE,29.41,29.43,,Overcast
KIGQ,03/28/2018 05:55 UTC,30.05,42.8,38.66,85.17,5.75,60.0,,,,,,264.0,,,,10.0,,KIGQ 280555Z AUTO 06005KT 10SM OVC026 06/04 A3005 RMK AO2  T00600037 10078 20055 401100055,46.04,41.9,2600.0,51.8,41.9,38.6,,ENE,29.4,29.44,,Overcast
KIGQ,03/28/2018 06:15 UTC,30.05,42.26,38.66,86.96,3.44,50.0,,,,,,264.0,,,,10.0,,KIGQ 280615Z AUTO 05003KT 10SM OVC026 06/04 A3005 RMK AO2  T00570037,,,2600.0,,,38.61,,NE,29.4,29.44,,Overcast
KIGQ,03/28/2018 06:35 UTC,30.04,41.9,38.48,87.55,3.44,40.0,,,,,,264.0,,,,10.0,,KIGQ 280635Z AUTO 04003KT 10SM OVC026 06/04 A3004 RMK AO2  T00550036,,,2600.0,,,38.43,,NE,29.39,29.44,,Overcast
KIGQ,03/28/2018 06:55 UTC,30.04,41.9,37.94,85.72,0.0,0.0,,,,,,264.0,,,,10.0,,KIGQ 280655Z AUTO 00000KT 10SM OVC026 06/03 A3004 RMK AO2  T00550033,,,2600.0,,,37.88,,N,29.39,29.45,,Overcast
KIGQ,03/28/2018 07:15 UTC,30.04,41.72,37.94,86.32,3.44,50.0,,,,,,284.0,,,,10.0,,KIGQ 280715Z AUTO 05003KT 10SM OVC028 05/03 A3004 RMK AO2  T00540033,,,2800.0,,,37.89,,NE,29.39,29.45,,Overcast
KIGQ,03/28/2018 07:35 UTC,30.05,41.54,37.58,85.7,4.61,50.0,,,,,,284.0,,,,10.0,,KIGQ 280735Z AUTO 05004KT 10SM OVC028 05/03 A3005 RMK AO2  T00530031,,,2800.0,,,37.52,,NE,29.4,29.47,,Overcast
KIGQ,03/28/2018 07:55 UTC,30.04,41.54,37.76,86.31,0.0,0.0,,,,,,264.0,,,,10.0,,KIGQ 280755Z AUTO 00000KT 10SM OVC026 05/03 A3004 RMK AO2  T00530032,,,2600.0,,,37.71,,N,29.39,29.45,,Overcast
KIGQ,03/28/2018 08:15 UTC,30.03,41.36,37.4,85.69,4.61,70.0,,,,,,264.0,,,,10.0,,KIGQ 280815Z AUTO 07004KT 10SM OVC026 05/03 A3003 RMK AO2  T00520030,,,2600.0,,,37.34,,ENE,29.38,29.45,,Overcast
KIGQ,03/28/2018 08:35 UTC,30.03,41.36,37.58,86.3,3.44,80.0,,,,,,264.0,,,,10.0,,KIGQ 280835Z AUTO 08003KT 10SM OVC026 05/03 A3003 RMK AO2  T00520031,,,2600.0,,,37.53,,E,29.38,29.45,,Overcast
KIGQ,03/28/2018 08:55 UTC,30.03,41.0,37.76,88.13,0.0,0.0,,,,,,284.0,,,,10.0,,KIGQ 280855Z AUTO 00000KT 10SM OVC028 05/03 A3003 RMK AO2  T00500032,,,2800.0,,,37.71,,N,29.38,29.45,,Overcast
KIGQ,03/28/2018 09:15 UTC,30.02,41.18,37.4,86.29,4.61,50.0,,,,,,284.0,,,,10.0,,KIGQ 280915Z AUTO 05004KT 10SM OVC028 05/03 A3002 RMK AO2  T00510030,,,2800.0,,,37.35,,NE,29.37,29.44,,Overcast
KIGQ,03/28/2018 09:35 UTC,30.02,41.0,37.4,86.89,4.61,70.0,,,,,,284.0,,,,10.0,,KIGQ 280935Z AUTO 07004KT 10SM OVC028 05/03 A3002 RMK AO2  T00500030,,,2800.0,,,37.35,,ENE,29.37,29.45,,Overcast
KIGQ,03/28/2018 09:55 UTC,30.02,40.64,37.4,88.11,0.0,0.0,,,,,,284.0,,,,10.0,,KIGQ 280955Z AUTO 00000KT 10SM OVC028 05/03 A3002 RMK AO2  T00480030,,,2800.0,,,37.35,,N,29.37,29.45,,Overcast
KIGQ,03/28/2018 10:15 UTC,30.03,40.46,37.4,88.73,0.0,0.0,,,,,,284.0,,,,10.0,,KIGQ 281015Z AUTO 00000KT 10SM OVC028 05/03 A3003 RMK AO2  T00470030,,,2800.0,,,37.36,,N,29.38,29.46,,Overcast
KIGQ,03/28/2018 10:35 UTC,30.02,40.1,37.4,89.98,0.0,0.0,,,,,,284.0,,,,10.0,,KIGQ 281035Z AUTO 00000KT 10SM OVC028 05/03 A3002 RMK AO2  T00450030,,,2800.0,,,37.36,,N,29.37,29.45,,Overcast
KIGQ,03/28/2018 10:55 UTC,30.02,39.74,36.86,89.32,3.44,80.0,,,,,,284.0,,,,10.0,,KIGQ 281055Z AUTO 08003KT 10SM OVC028 04/03 A3002 RMK AO2  T00430027,,,2800.0,,,36.82,,E,29.37,29.47,,Overcast
KIGQ,03/28/2018 11:15 UTC,30.01,39.56,37.04,90.59,0.0,0.0,,,,,,282.0,,,,10.0,,KIGQ 281115Z AUTO 00000KT 10SM SCT028 04/03 A3001 RMK AO2  T00420028,,,,,,37.0,,N,29.36,29.45,,Partly Cloudy
KIGQ,03/28/2018 11:35 UTC,30.01,39.2,36.68,90.58,0.0,0.0,,,,,,1.0,,,,10.0,,KIGQ 281135Z AUTO 00000KT 10SM CLR 04/03 A3001 RMK AO2  T00400026,,,,,,36.64,,N,29.36,29.46,,Clear
KIGQ,03/28/2018 11:55 UTC,30.02,39.2,36.68,90.58,0.0,0.0,,,,,,1.0,,,,10.0,,KIGQ 281155Z AUTO 00000KT 10SM CLR 04/03 A3002 RMK AO2 T00400026  10059 20040,42.62,39.2,,,,36.64,,N,29.37,29.47,,Clear
KIGQ,03/28/2018 12:15 UTC,30.02,39.2,36.5,89.94,0.0,0.0,,,,,,1.0,,,,10.0,,KIGQ 281215Z AUTO 00000KT 10SM CLR 04/03 A3002 RMK AO2  T00400025,,,,,,36.46,,N,29.37,29.48,,Clear
KIGQ,03/28/2018 12:35 UTC,30.02,39.56,36.86,89.95,0.0,0.0,,,,,,1.0,,,,10.0,,KIGQ 281235Z AUTO 00000KT 10SM CLR 04/03 A3002 RMK AO2  T00420027,,,,,,36.82,,N,29.37,29.47,,Clear
KIGQ,03/28/2018 12:55 UTC,30.02,40.1,37.4,89.98,0.0,0.0,,,,,,1202.0,,,,10.0,,KIGQ 281255Z AUTO 00000KT 10SM SCT120 05/03 A3002 RMK AO2  T00450030,,,,,,37.36,,N,29.37,29.45,,Partly Cloudy
KIGQ,03/28/2018 13:15 UTC,30.02,40.64,37.76,89.37,4.61,40.0,,,,,,1203.0,,,,10.0,,KIGQ 281315Z AUTO 04004KT 10SM BKN120 05/03 A3002 RMK AO2  T00480032,,,12000.0,,,37.72,,NE,29.37,29.44,,Mostly Cloudy
KIGQ,03/28/2018 13:35 UTC,30.02,41.18,37.76,87.52,3.44,40.0,,,,,,,,,,10.0,,KIGQ 281335Z AUTO 04003KT 10SM 05/03 A3002 RMK AO2 T00510032,,,,,,37.71,,NE,29.37,29.44,,
KIGQ,03/28/2018 13:55 UTC,30.03,41.9,38.12,86.33,3.44,60.0,,,,,,1.0,,,,10.0,,KIGQ 281355Z AUTO 06003KT 10SM CLR 06/03 A3003 RMK AO2  T00550034,,,,,,38.07,,ENE,29.38,29.43,,Clear
KIGQ,03/28/2018 14:15 UTC,30.02,42.08,38.12,85.73,3.44,60.0,,,,,,1.0,,,,10.0,,KIGQ 281415Z AUTO 06003KT 10SM CLR 06/03 A3002 RMK AO2  T00560034,,,,,,38.06,,ENE,29.37,29.42,,Clear
KIGQ,03/28/2018 14:35 UTC,30.01,42.44,38.48,85.75,3.44,110.0,,,,,,1.0,,,,10.0,,KIGQ 281435Z AUTO 11003KT 10SM CLR 06/04 A3001 RMK AO2  T00580036,,,,,,38.42,,ESE,29.36,29.4,,Clear
KIGQ,03/28/2018 14:55 UTC,30.01,43.7,39.2,84.04,0.0,0.0,,,,,,1.0,,,,10.0,,KIGQ 281455Z AUTO 00000KT 10SM CLR 07/04 A3001 RMK AO2  T00650040,,,,,,39.14,,N,29.36,29.38,,Clear
KIGQ,03/28/2018 15:15 UTC,30.02,44.42,38.84,80.62,0.0,0.0,,,,,,1.0,,,,10.0,,KIGQ 281515Z AUTO 00000KT 10SM CLR 07/04 A3002 RMK AO2  T00690038,,,,,,38.77,,N,29.37,29.39,,Clear
KIGQ,03/28/2018 15:35 UTC,30.03,45.5,39.02,77.92,0.0,0.0,,,,,,1.0,,,,10.0,,KIGQ 281535Z AUTO 00000KT 10SM CLR 08/04 A3003 RMK AO2  T00750039,,,,,,38.94,,N,29.38,29.39,,Clear
KIGQ,03/28/2018 15:55 UTC,30.03,46.4,39.38,76.38,4.61,200.0,,,,,,222.0,1202.0,,,10.0,,KIGQ 281555Z AUTO 20004KT 10SM SCT022 SCT120 08/04 A3003 RMK AO2  T00800041,,,,,,39.29,,SSW,29.38,29.37,,Partly Cloudy
KIGQ,03/28/2018 16:15 UTC,30.01,46.94,39.56,75.37,4.61,180.0,,,,,,222.0,1202.0,,,10.0,,KIGQ 281615Z AUTO 18004KT 10SM SCT022 SCT120 08/04 A3001 RMK AO2  T00830042,,,,,,39.47,,S,29.36,29.34,,Partly Cloudy
KIGQ,03/28/2018 16:35 UTC,29.99,47.66,39.92,74.39,4.61,100.0,,,,,,222.0,,,,10.0,,KIGQ 281635Z AUTO 10004KT 10SM SCT022 09/04 A2999 RMK AO2  T00870044,,,,,,39.83,,E,29.34,29.31,,Partly Cloudy
KIGQ,03/28/2018 16:55 UTC,29.98,47.84,39.38,72.35,0.0,0.0,,,,,,1.0,,,,10.0,,KIGQ 281655Z AUTO 00000KT 10SM CLR 09/04 A2998 RMK AO2  T00880041,,,,,,39.28,,N,29.33,29.31,,Clear
KIGQ,03/28/2018 17:15 UTC,29.97,48.56,40.28,72.93,0.0,0.0,,,,,,1.0,,,,10.0,,KIGQ 281715Z AUTO 00000KT 10SM CLR 09/05 A2997 RMK AO2  T00920046,,,,,,40.18,,N,29.32,29.27,,Clear
KIGQ,03/28/2018 17:35 UTC,29.97,48.74,39.92,71.44,0.0,0.0,,,,,,1.0,,,,10.0,,KIGQ 281735Z AUTO 00000KT 10SM CLR 09/04 A2997 RMK AO2  T00930044,,,,,,39.82,,N,29.32,29.28,,Clear
KIGQ,03/28/2018 17:55 UTC,29.96,49.28,39.92,70.01,0.0,0.0,,,,,,1.0,,,,10.0,,KIGQ 281755Z AUTO 00000KT 10SM CLR 10/04 A2996 RMK AO2 T00960044  10097 20039,49.46,39.02,,,,39.81,,N,29.31,29.26,,Clear
KIGQ,03/28/2018 18:15 UTC,29.95,49.46,39.56,68.57,0.0,0.0,,,,,,1.0,,,,10.0,,KIGQ 281815Z AUTO 00000KT 10SM CLR 10/04 A2995 RMK AO2  T00970042,,,,,,39.45,,N,29.3,29.26,,Clear
KIGQ,03/28/2018 18:35 UTC,29.95,50.72,40.28,67.3,0.0,0.0,,,,,,1.0,,,,10.0,,KIGQ 281835Z AUTO 00000KT 10SM CLR 10/05 A2995 RMK AO2  T01040046,,,,,,40.17,,N,29.3,29.23,,Clear
KIGQ,03/28/2018 18:55 UTC,29.95,51.26,40.82,67.36,0.0,0.0,,,,,,1.0,,,,10.0,,KIGQ 281855Z AUTO 00000KT 10SM CLR 11/05 A2995 RMK AO2  T01070049,,,,,,40.71,,N,29.3,29.22,,Clear
KIGQ,03/28/2018 19:15 UTC,29.95,51.8,41.9,68.85,6.91,20.0,,,,,,1.0,,,,10.0,,KIGQ 281915Z AUTO 02006KT 10SM CLR 11/06 A2995 RMK AO2  T01100055,,,,,,41.8,,NNE,29.3,29.18,,Clear
KIGQ,03/28/2018 19:35 UTC,29.94,50.18,41.9,73.1,6.91,60.0,,,,,,1.0,,,,10.0,,KIGQ 281935Z AUTO 06006KT 10SM CLR 10/06 A2994 RMK AO2  T01010055,,,,,,41.81,,ENE,29.29,29.19,,Clear
KIGQ,03/28/2018 19:55 UTC,29.93,50.72,42.08,72.15,4.61,70.0,,,,,,1202.0,,,,10.0,,KIGQ 281955Z AUTO 07004KT 10SM SCT120 10/06 A2993 RMK AO2  T01040056,,,,,,41.99,,ENE,29.28,29.17,,Partly Cloudy
KIGQ,03/28/2018 20:15 UTC,29.93,50.72,41.9,71.65,4.61,80.0,,,,,,1202.0,,,,10.0,,KIGQ 282015Z AUTO 08004KT 10SM SCT120 10/06 A2993 RMK AO2  T01040055,,,,,,41.8,,E,29.28,29.17,,Partly Cloudy
KIGQ,03/28/2018 20:35 UTC,29.93,50.18,41.72,72.6,6.91,80.0,,,,,,1102.0,,,,10.0,,KIGQ 282035Z AUTO 08006KT 10SM SCT110 10/05 A2993 RMK AO2  T01010054,,,,,,41.63,,E,29.28,29.18,,Partly Cloudy
KIGQ,03/28/2018 20:55 UTC,29.93,50.18,41.9,73.1,5.75,70.0,,,,,,1102.0,,,,10.0,,KIGQ 282055Z AUTO 07005KT 10SM SCT110 10/06 A2993 RMK AO2  T01010055,,,,,,41.81,,ENE,29.28,29.18,,Partly Cloudy
KIGQ,03/28/2018 21:15 UTC,29.92,49.64,41.54,73.55,8.05,40.0,,,,,,1.0,,,,10.0,,KIGQ 282115Z AUTO 04007KT 10SM CLR 10/05 A2992 RMK AO2  T00980053,,,,,,41.45,,NE,29.27,29.18,,Clear
KIGQ,03/28/2018 21:35 UTC,29.92,49.64,41.9,74.58,8.05,40.0,,,,,,1.0,,,,10.0,,KIGQ 282135Z AUTO 04007KT 10SM CLR 10/06 A2992 RMK AO2  T00980055,,,,,,41.81,,NE,29.27,29.17,,Clear
KIGQ,03/28/2018 21:55 UTC,29.91,48.92,41.54,75.56,9.22,70.0,,,,,,902.0,,,,10.0,,KIGQ 282155Z AUTO 07008KT 10SM SCT090 09/05 A2991 RMK AO2  T00940053,,,,,,41.46,,ENE,29.26,29.18,,Partly Cloudy
KIGQ,03/28/2018 22:15 UTC,29.92,48.74,41.54,76.07,8.05,70.0,,,,,,902.0,1102.0,,,10.0,,KIGQ 282215Z AUTO 07007KT 10SM SCT090 SCT110 09/05 A2992 RMK AO2  T00930053,,,,,,41.46,,ENE,29.27,29.19,,Partly Cloudy
KIGQ,03/28/2018 22:35 UTC,29.92,48.38,41.36,76.56,6.91,50.0,,,,,,903.0,1103.0,,,10.0,,KIGQ 282235Z AUTO 05006KT 10SM BKN090 BKN110 09/05 A2992 RMK AO2  T00910052,,,9000.0,,,41.28,,NE,29.27,29.2,,Mostly Cloudy
KIGQ,03/28/2018 22:55 UTC,29.91,48.38,41.72,77.64,6.91,80.0,,,,,,904.0,,,,10.0,,KIGQ 282255Z AUTO 08006KT 10SM OVC090 09/05 A2991 RMK AO2  T00910054,,,9000.0,,,41.64,,E,29.26,29.18,,Overcast
KIGQ,03/28/2018 23:15 UTC,29.92,48.2,41.36,77.08,5.75,90.0,,,1204.0,,,802.0,903.0,,,10.0,,KIGQ 282315Z AUTO 09005KT 10SM SCT080 BKN090 OVC120 09/05 A2992 RMK AO2 T00900052,,,9000.0,,,41.28,,E,29.27,29.2,,Overcast
KIGQ,03/28/2018 23:35 UTC,29.92,47.66,41.54,79.21,5.75,80.0,,13.0,1204.0,,,802.0,1003.0,,,10.0,,KIGQ 282335Z AUTO 08005KT 10SM -RA SCT080 BKN100 OVC120 09/05  A2992 RMK AO2 T00870053,,,10000.0,,,41.47,,E,29.27,29.2,,Light Rain
KIGQ,03/28/2018 23:55 UTC,29.91,47.3,41.54,80.29,5.75,70.0,,13.0,,,,903.0,1204.0,,,10.0,,KIGQ 282355Z AUTO 07005KT 10SM -RA BKN090 OVC120 09/05 A2991 RMK AO2 T00850053 10111 20085,51.98,47.3,9000.0,,,41.47,,ENE,29.26,29.19,,Light Rain
KIGQ,03/29/2018 00:15 UTC,29.91,47.12,41.72,81.4,4.61,50.0,,13.0,1204.0,,,653.0,903.0,,,10.0,,KIGQ 290015Z AUTO 05004KT 10SM -RA BKN065 BKN090 OVC120 08/05  A2991 RMK AO2 T00840054,,,6500.0,,,41.65,,NE,29.26,29.19,,Light Rain
KIGQ,03/29/2018 00:35 UTC,29.91,47.12,41.9,81.96,4.61,90.0,,13.0,,,,653.0,854.0,,,10.0,,KIGQ 290035Z AUTO 09004KT 10SM -RA BKN065 OVC085 08/06 A2991 RMK AO2 T00840055,,,6500.0,,,41.83,,E,29.26,29.18,,Light Rain
KIGQ,03/29/2018 00:55 UTC,29.9,46.04,42.26,86.57,4.61,100.0,,13.0,1104.0,,,652.0,853.0,,,10.0,,KIGQ 290055Z AUTO 10004KT 10SM -RA SCT065 BKN085 OVC110 08/06  A2990 RMK AO2 T00780057,,,8500.0,,,42.21,,E,29.25,29.17,,Light Rain
KIGQ,03/29/2018 01:15 UTC,29.91,45.86,42.8,88.99,0.0,0.0,,,,,,904.0,,,,10.0,,KIGQ 290115Z AUTO 00000KT 10SM OVC090 08/06 A2991 RMK AO2  T00770060,,,9000.0,,,42.76,,N,29.26,29.17,,Overcast
KIGQ,03/29/2018 01:35 UTC,29.91,46.04,42.98,88.99,0.0,0.0,,,904.0,,,272.0,702.0,,,10.0,,KIGQ 290135Z AUTO 00000KT 10SM SCT027 SCT070 OVC090 08/06 A2991 RMK AO2 T00780061,,,9000.0,,,42.94,,N,29.26,29.16,,Overcast
KIGQ,03/29/2018 01:55 UTC,29.91,46.04,42.98,88.99,0.0,0.0,,,904.0,,,232.0,703.0,,,10.0,,KIGQ 290155Z AUTO 00000KT 10SM SCT023 BKN070 OVC090 08/06 A2991 RMK AO2 T00780061,,,7000.0,,,42.94,,N,29.26,29.16,,Overcast
KIGQ,03/29/2018 02:15 UTC,29.92,46.4,43.34,89.01,0.0,0.0,,,554.0,,,233.0,443.0,,,10.0,,KIGQ 290215Z AUTO 00000KT 10SM BKN023 BKN044 OVC055 08/06 A2992 RMK AO2 T00800063,,,2300.0,,,43.3,,N,29.27,29.16,,Overcast
KIGQ,03/29/2018 02:35 UTC,29.91,46.4,43.34,89.01,0.0,0.0,,,,,,234.0,,,,10.0,,KIGQ 290235Z AUTO 00000KT 10SM OVC023 08/06 A2991 RMK AO2  T00800063,,,2300.0,,,43.3,,N,29.26,29.15,,Overcast
KIGQ,03/29/2018 02:55 UTC,29.91,46.4,43.52,89.63,0.0,0.0,,2.0,,,,142.0,234.0,,,10.0,,KIGQ 290255Z AUTO 00000KT 10SM DZ SCT014 OVC023 08/06 A2991 RMK AO2 T00800064,,,2300.0,,,43.48,,N,29.26,29.15,,Drizzle
KIGQ,03/29/2018 03:15 UTC,29.91,46.04,44.06,92.75,0.0,0.0,,17.0,424.0,,,142.0,232.0,,,7.0,,KIGQ 290315Z AUTO 00000KT 7SM -DZ SCT014 SCT023 OVC042 08/07 A2991 RMK AO2 T00780067,,,4200.0,,,44.03,,N,29.26,29.13,,Light Drizzle
KIGQ,03/29/2018 03:35 UTC,29.92,45.86,43.88,92.74,0.0,0.0,,13.0,,,,404.0,,,,7.0,,KIGQ 290335Z AUTO 00000KT 7SM -RA OVC040 08/07 A2992 RMK AO2  T00770066,,,4000.0,,,43.85,,N,29.27,29.15,,Light Rain
KIGQ,03/29/2018 03:55 UTC,29.91,45.5,44.06,94.67,3.44,20.0,,17.0,424.0,,,192.0,312.0,,,7.0,,KIGQ 290355Z AUTO 02003KT 7SM -DZ SCT019 SCT031 OVC042 08/07 A2991 RMK AO2 T00750067,,,4200.0,,,44.04,,NNE,29.26,29.14,,Light Drizzle
KIGQ,03/29/2018 04:15 UTC,29.92,45.5,44.6,96.64,0.0,0.0,,,,,,444.0,,,,7.0,,KIGQ 290415Z AUTO 00000KT 7SM OVC044 08/07 A2992 RMK AO2  T00750070,,,4400.0,,,44.59,,N,29.27,29.14,,Overcast
KIGQ,03/29/2018 04:35 UTC,29.92,45.5,44.78,97.3,0.0,0.0,,31.0,,,,152.0,424.0,,,5.0,,KIGQ 290435Z AUTO 00000KT 5SM BR SCT015 OVC042 08/07 A2992 RMK AO2  T00750071,,,4200.0,,,44.77,,N,29.27,29.13,,Mist
KIGQ,03/29/2018 04:55 UTC,29.91,45.14,44.78,98.64,0.0,0.0,,31.0,,,,172.0,424.0,,,5.0,,KIGQ 290455Z AUTO 00000KT 5SM BR SCT017 OVC042 07/07 A2991 RMK AO2  T00730071,,,4200.0,,,44.77,,N,29.26,29.12,,Mist
KIGQ,03/29/2018 05:15 UTC,29.91,44.96,44.24,97.3,0.0,0.0,,31.0,404.0,,,202.0,283.0,,,5.0,,KIGQ 290515Z AUTO 00000KT 5SM BR SCT020 BKN028 OVC040 07/07 A2991 RMK AO2 T00720068,,,2800.0,,,44.23,,N,29.26,29.14,,Mist
KIGQ,03/29/2018 05:35 UTC,29.9,44.6,43.88,97.29,0.0,0.0,,2.0,334.0,,,202.0,263.0,,,5.0,,KIGQ 290535Z AUTO 00000KT 5SM DZ SCT020 BKN026 OVC033 07/07 A2990 RMK AO2 T00700066,,,2600.0,,,43.87,,N,29.25,29.14,,Drizzle
KIGQ,03/29/2018 05:55 UTC,29.91,44.78,44.42,98.64,0.0,0.0,,2.0,,,,123.0,244.0,,,4.0,,KIGQ 290555Z AUTO 00000KT 4SM DZ BKN012 OVC024 07/07 A2991 RMK AO2  T00710069 10085 20070 401110039,47.3,44.6,1200.0,51.98,39.02,44.42,,N,29.26,29.14,,Drizzle
KIGQ,03/29/2018 06:15 UTC,29.89,44.6,44.42,99.32,0.0,0.0,,17.0,,,,154.0,,,,4.0,,KIGQ 290615Z AUTO 00000KT 4SM -DZ OVC015 07/07 A2989 RMK AO2  T00700069,,,1500.0,,,44.42,,N,29.24,29.12,,Light Drizzle
KIGQ,03/29/2018 06:35 UTC,29.88,44.6,44.6,100.0,4.61,90.0,,31.0,364.0,,,132.0,193.0,,,4.0,,KIGQ 290635Z AUTO 09004KT 4SM BR SCT013 BKN019 OVC036 07/07 A2988 RMK AO2 T00700070,,,1900.0,,,44.6,,E,29.23,29.1,,Mist
KIGQ,03/29/2018 06:55 UTC,29.88,44.96,44.96,100.0,0.0,0.0,,31.0,,,,232.0,324.0,,,3.0,,KIGQ 290655Z AUTO 00000KT 3SM BR SCT023 OVC032 07/07 A2988 RMK AO2  T00720072,,,3200.0,,,44.96,,N,29.23,29.09,,Mist
KIGQ,03/29/2018 07:15 UTC,29.88,44.96,44.96,100.0,0.0,0.0,,31.0,,,,304.0,,,,3.0,,KIGQ 290715Z AUTO 00000KT 3SM BR OVC030 07/07 A2988 RMK AO2  T00720072,,,3000.0,,,44.96,,N,29.23,29.09,,Mist
KIGQ,03/29/2018 07:35 UTC,29.88,44.96,44.96,100.0,0.0,0.0,,31.0,,,,242.0,304.0,,,3.0,,KIGQ 290735Z AUTO 00000KT 3SM BR SCT024 OVC030 07/07 A2988 RMK AO2  T00720072,,,3000.0,,,44.96,,N,29.23,29.09,,Mist
KIGQ,03/29/2018 07:55 UTC,29.88,45.14,45.14,100.0,0.0,0.0,,31.0,,,,304.0,,,,3.0,,KIGQ 290755Z AUTO 00000KT 3SM BR OVC030 07/07 A2988 RMK AO2  T00730073,,,3000.0,,,45.14,,N,29.23,29.08,,Mist
KIGQ,03/29/2018 08:15 UTC,29.88,45.14,45.14,100.0,4.61,320.0,,31.0,,,,42.0,324.0,,,3.0,,KIGQ 290815Z AUTO 32004KT 3SM BR SCT004 OVC032 07/07 A2988 RMK AO2  T00730073,,,3200.0,,,45.14,,NW,29.23,29.08,,Mist
KIGQ,03/29/2018 08:35 UTC,29.88,44.24,44.24,100.0,3.44,340.0,,31.0,,,,43.0,324.0,,,4.0,,KIGQ 290835Z AUTO 34003KT 4SM BR BKN004 OVC032 07/07 A2988 RMK AO2  T00680068,,,400.0,,,44.24,,NNW,29.23,29.12,,Mist
KIGQ,03/29/2018 08:55 UTC,29.89,43.88,43.88,100.0,0.0,0.0,,31.0,,,,42.0,334.0,,,4.0,,KIGQ 290855Z AUTO 00000KT 4SM BR SCT004 OVC033 07/07 A2989 RMK AO2  T00660066,,,3300.0,,,43.88,,N,29.24,29.14,,Mist
KIGQ,03/29/2018 09:15 UTC,29.88,43.88,43.88,100.0,3.44,350.0,,13.0,,,,314.0,,,,4.0,,KIGQ 290915Z AUTO 35003KT 4SM -RA OVC031 07/07 A2988 RMK AO2  T00660066,,,3100.0,,,43.88,,N,29.23,29.13,,Light Rain
KIGQ,03/29/2018 09:35 UTC,29.86,43.16,43.16,100.0,0.0,0.0,,13.0,,,,43.0,334.0,,,3.0,,KIGQ 290935Z AUTO 00000KT 3SM -RA BKN004 OVC033 06/06 A2986 RMK AO2 T00620062,,,400.0,,,43.16,,N,29.21,29.13,,Light Rain
KIGQ,03/29/2018 09:55 UTC,29.86,42.98,42.98,100.0,0.0,0.0,,1.0,,,,42.0,234.0,,,3.0,,KIGQ 290955Z AUTO 00000KT 3SM RA SCT004 OVC023 06/06 A2986 RMK AO2  T00610061,,,2300.0,,,42.98,,N,29.21,29.14,,Rain
KIGQ,03/29/2018 10:15 UTC,29.87,42.98,42.98,100.0,0.0,0.0,,1.0,,0.01,,253.0,314.0,,,3.0,,KIGQ 291015Z AUTO 00000KT 3SM RA BKN025 OVC031 06/06 A2987 RMK AO2  P0001 T00610061,,,2500.0,,,42.98,,N,29.22,29.15,,Rain
KIGQ,03/29/2018 10:35 UTC,29.84,42.8,42.8,100.0,6.91,50.0,,13.0,504.0,0.02,,272.0,333.0,,,3.0,,KIGQ 291035Z AUTO 05006KT 3SM -RA SCT027 BKN033 OVC050 06/06 A2984 RMK AO2 P0002 T00600060,,,3300.0,,,42.8,,NE,29.19,29.12,,Light Rain
KIGQ,03/29/2018 10:55 UTC,29.85,42.8,42.8,100.0,4.61,30.0,,1.0,,0.03,,503.0,704.0,,,4.0,,KIGQ 291055Z AUTO 03004KT 4SM RA BKN050 OVC070 06/06 A2985 RMK AO2  P0003 T00600060,,,5000.0,,,42.8,,NNE,29.2,29.14,,Rain
KIGQ,03/29/2018 11:15 UTC,29.86,42.08,42.08,100.0,3.44,350.0,,13.0,704.0,0.01,,72.0,182.0,,,3.0,,KIGQ 291115Z AUTO 35003KT 3SM -RA SCT007 SCT018 OVC070 06/06 A2986 RMK AO2 P0001 T00560056,,,7000.0,,,42.08,,N,29.21,29.17,,Light Rain
KIGQ,03/29/2018 11:35 UTC,29.86,40.46,40.46,100.0,5.75,360.0,,13.0,704.0,0.01,,53.0,143.0,,,3.0,,KIGQ 291135Z AUTO 36005KT 3SM -RA BKN005 BKN014 OVC070 05/05 A2986 RMK AO2 P0001 T00470047,,,500.0,,,40.46,,N,29.21,29.22,,Light Rain
KIGQ,03/29/2018 11:55 UTC,29.88,40.1,40.1,100.0,4.61,10.0,,13.0,,0.01,,54.0,,0.04,0.04,2.5,,KIGQ 291155Z AUTO 01004KT 2 1/2SM -RA OVC005 05/05 A2988 RMK AO2  P0001 60004 70004 T00450045 10073 20045,45.14,40.1,500.0,,,40.1,,N,29.23,29.25,,Light Rain
KIGQ,03/29/2018 12:15 UTC,29.87,40.46,40.46,100.0,4.61,10.0,,13.0,,,,53.0,94.0,,,2.0,,KIGQ 291215Z AUTO 01004KT 2SM -RA BKN005 OVC009 05/05 A2987 RMK AO2 T00470047,,,500.0,,,40.46,,N,29.22,29.23,,Light Rain
KIGQ,03/29/2018 12:35 UTC,29.88,40.82,40.82,100.0,3.44,10.0,,17.0,,,,93.0,344.0,,,2.5,,KIGQ 291235Z AUTO 01003KT 2 1/2SM -DZ BKN009 OVC034 05/05 A2988 RMK AO2 T00490049,,,900.0,,,40.82,,N,29.23,29.23,,Light Drizzle
KIGQ,03/29/2018 12:55 UTC,29.91,41.18,41.18,100.0,5.75,360.0,,31.0,704.0,,,92.0,342.0,,,2.5,,KIGQ 291255Z AUTO 36005KT 2 1/2SM BR SCT009 SCT034 OVC070 05/05  A2991 RMK AO2 T00510051,,,7000.0,,,41.18,,N,29.26,29.25,,Mist
KIGQ,03/29/2018 13:15 UTC,29.91,41.36,41.36,100.0,0.0,0.0,,31.0,,,,312.0,704.0,,,2.5,,KIGQ 291315Z AUTO 00000KT 2 1/2SM BR SCT031 OVC070 05/05 A2991 RMK AO2 T00520052,,,7000.0,,,41.36,,N,29.26,29.24,,Mist
KIGQ,03/29/2018 13:35 UTC,29.91,41.9,41.9,100.0,0.0,0.0,,13.0,,,,313.0,554.0,,,3.0,,KIGQ 291335Z AUTO 00000KT 3SM -RA BKN031 OVC055 06/06 A2991 RMK AO2 T00550055,,,3100.0,,,41.9,,N,29.26,29.23,,Light Rain
KIGQ,03/29/2018 13:55 UTC,29.91,42.08,42.08,100.0,0.0,0.0,,31.0,704.0,,,312.0,553.0,,,4.0,,KIGQ 291355Z AUTO 00000KT 4SM BR SCT031 BKN055 OVC070 06/06 A2991 RMK AO2 T00560056,,,5500.0,,,42.08,,N,29.26,29.22,,Mist
KIGQ,03/29/2018 14:15 UTC,29.91,42.62,42.26,98.62,0.0,0.0,,13.0,,,,654.0,,,,4.0,,KIGQ 291415Z AUTO 00000KT 4SM -RA OVC065 06/06 A2991 RMK AO2  T00590057,,,6500.0,,,42.25,,N,29.26,29.21,,Light Rain
KIGQ,03/29/2018 14:35 UTC,29.92,43.34,42.8,97.95,6.91,40.0,,31.0,753.0,,,302.0,652.0,,,4.0,,KIGQ 291435Z AUTO 04006KT 4SM BR SCT030 SCT065 BKN075 06/06 A2992 RMK AO2 T00630060,,,7500.0,,,42.79,,NE,29.27,29.2,,Mist
KIGQ,03/29/2018 14:55 UTC,29.93,43.7,42.8,96.61,6.91,20.0,,31.0,,,,1.0,,,,5.0,,KIGQ 291455Z AUTO 02006KT 5SM BR CLR 07/06 A2993 RMK AO2  T00650060,,,,,,42.79,,NNE,29.28,29.21,,Mist
KIGQ,03/29/2018 15:15 UTC,29.93,43.7,42.44,95.28,6.91,30.0,,31.0,,,,1.0,,,,5.0,,KIGQ 291515Z AUTO 03006KT 5SM BR CLR 07/06 A2993 RMK AO2  T00650058,,,,,,42.42,,NNE,29.28,29.22,,Mist
KIGQ,03/29/2018 15:35 UTC,29.92,44.06,42.98,95.95,6.91,40.0,,31.0,,,,1.0,,,,5.0,,KIGQ 291535Z AUTO 04006KT 5SM BR CLR 07/06 A2992 RMK AO2  T00670061,,,,,,42.96,,NE,29.27,29.19,,Mist
KIGQ,03/29/2018 15:55 UTC,29.91,44.06,42.26,93.33,6.91,40.0,,,,,,1.0,,,,7.0,,KIGQ 291555Z AUTO 04006KT 7SM CLR 07/06 A2991 RMK AO2  T00670057,,,,,,42.23,,NE,29.26,29.2,,Clear
KIGQ,03/29/2018 16:15 UTC,29.91,44.6,42.44,92.07,5.75,40.0,,,,,,1.0,,,,7.0,,KIGQ 291615Z AUTO 04005KT 7SM CLR 07/06 A2991 RMK AO2  T00700058,,,,,,42.41,,NE,29.26,29.19,,Clear
KIGQ,03/29/2018 16:35 UTC,29.89,45.14,42.8,91.45,8.05,30.0,,,,,,1.0,,,,7.0,,KIGQ 291635Z AUTO 03007KT 7SM CLR 07/06 A2989 RMK AO2  T00730060,,,,,,42.77,,NNE,29.24,29.16,,Clear
KIGQ,03/29/2018 16:55 UTC,29.88,44.6,41.36,88.31,9.22,40.0,,,,,,1.0,,,,10.0,,KIGQ 291655Z AUTO 04008KT 10SM CLR 07/05 A2988 RMK AO2  T00700052,,,,,,41.32,41.4,NE,29.23,29.19,,Clear
KIGQ,03/29/2018 17:15 UTC,29.88,44.6,41.72,89.55,5.75,50.0,,,,,,1.0,,,,7.0,,KIGQ 291715Z AUTO 05005KT 7SM CLR 07/05 A2988 RMK AO2  T00700054,,,,,,41.68,,NE,29.23,29.18,,Clear
KIGQ,03/29/2018 17:35 UTC,29.87,44.6,41.72,89.55,5.75,30.0,,,,,,1.0,,,,10.0,,KIGQ 291735Z AUTO 03005KT 10SM CLR 07/05 A2987 RMK AO2  T00700054,,,,,,41.68,,NNE,29.22,29.17,,Clear
KIGQ,03/29/2018 17:55 UTC,29.88,44.96,41.72,88.33,4.61,50.0,,,,,,1.0,,,,10.0,,KIGQ 291755Z AUTO 05004KT 10SM CLR 07/05 A2988 RMK AO2 T00720054  10073 20046,45.14,40.28,,,,41.68,,NE,29.23,29.17,,Clear
KIGQ,03/29/2018 18:15 UTC,29.88,45.5,41.9,87.14,9.22,20.0,,,,,,1.0,,,,7.0,,KIGQ 291815Z AUTO 02008KT 7SM CLR 08/06 A2988 RMK AO2  T00750055,,,,,,41.85,,NNE,29.23,29.16,,Clear
KIGQ,03/29/2018 18:35 UTC,29.88,45.32,42.26,88.96,9.22,30.0,,,,,,142.0,,,,7.0,,KIGQ 291835Z AUTO 03008KT 7SM SCT014 07/06 A2988 RMK AO2  T00740057,,,,,,42.22,,NNE,29.23,29.16,,Partly Cloudy
KIGQ,03/29/2018 18:55 UTC,29.88,44.24,40.64,87.07,10.36,10.0,17.27,,,,,144.0,,,,7.0,,KIGQ 291855Z AUTO 01009G15KT 7SM OVC014 07/05 A2988 RMK AO2  T00680048,,,1400.0,,,40.59,40.56,N,29.23,29.21,,Overcast
KIGQ,03/29/2018 19:15 UTC,29.89,41.9,38.12,86.33,14.97,10.0,19.57,,,,,143.0,,,,7.0,,KIGQ 291915Z AUTO 01013G17KT 7SM BKN014 06/03 A2989 RMK AO2  T00550034,,,1400.0,,,38.07,36.3,N,29.24,29.29,,Mostly Cloudy
KIGQ,03/29/2018 19:35 UTC,29.9,41.9,37.94,85.72,12.66,10.0,16.11,,,,,122.0,,,,10.0,,KIGQ 291935Z AUTO 01011G14KT 10SM SCT012 06/03 A2990 RMK AO2  T00550033,,,,,,37.88,36.97,N,29.25,29.31,,Partly Cloudy
KIGQ,03/29/2018 19:55 UTC,29.9,40.82,37.76,88.74,14.97,20.0,19.57,,,,,1.0,,,,7.0,,KIGQ 291955Z AUTO 02013G17KT 7SM CLR 05/03 A2990 RMK AO2  T00490032,,,,,,37.71,34.97,NNE,29.25,29.32,,Clear
KIGQ,03/29/2018 20:15 UTC,29.91,40.28,37.58,89.98,13.8,10.0,21.85,,,,,113.0,1203.0,,,7.0,,KIGQ 292015Z AUTO 01012G19KT 7SM BKN011 BKN120 05/03 A2991 RMK AO2  T00460031,,,1100.0,,,37.54,34.64,N,29.26,29.34,,Mostly Cloudy
KIGQ,03/29/2018 20:35 UTC,29.91,39.56,37.58,92.54,10.36,10.0,21.85,,,,,114.0,,,,7.0,,KIGQ 292035Z AUTO 01009G19KT 7SM OVC011 04/03 A2991 RMK AO2  T00420031,,,1100.0,,,37.55,34.95,N,29.26,29.34,,Overcast
KIGQ,03/29/2018 20:55 UTC,29.91,39.2,37.58,93.85,13.8,10.0,19.57,31.0,,,,94.0,,,,5.0,,KIGQ 292055Z AUTO 01012G17KT 5SM BR OVC009 04/03 A2991 RMK AO2  T00400031,,,900.0,,,37.56,33.32,N,29.26,29.34,,Mist
KIGQ,03/29/2018 21:15 UTC,29.91,38.48,37.4,95.85,12.66,10.0,19.57,,,,,74.0,,,,7.0,,KIGQ 292115Z AUTO 01011G17KT 7SM OVC007 04/03 A2991 RMK AO2  T00360030,,,700.0,,,37.38,32.81,N,29.26,29.35,,Overcast
KIGQ,03/29/2018 21:35 UTC,29.91,38.3,36.86,94.49,12.66,360.0,18.41,,,,,74.0,,,,10.0,,KIGQ 292135Z AUTO 36011G16KT 10SM OVC007 04/03 A2991 RMK AO2  T00350027,,,700.0,,,36.84,32.59,N,29.26,29.36,,Overcast
KIGQ,03/29/2018 21:55 UTC,29.92,38.12,36.5,93.82,10.36,360.0,20.71,,,,,94.0,,,,10.0,,KIGQ 292155Z AUTO 36009G18KT 10SM OVC009 03/03 A2992 RMK AO2  T00340025,,,900.0,,,36.48,33.23,N,29.27,29.38,,Overcast
KIGQ,03/29/2018 22:15 UTC,29.94,37.94,35.78,91.83,12.66,10.0,,,,,,94.0,,,,10.0,,KIGQ 292215Z AUTO 01011KT 10SM OVC009 03/02 A2994 RMK AO2  T00330021,,,900.0,,,35.75,32.15,N,29.29,29.42,,Overcast
KIGQ,03/29/2018 22:35 UTC,29.94,37.76,35.42,91.17,9.22,10.0,17.27,,,,,113.0,1104.0,,,10.0,,KIGQ 292235Z AUTO 01008G15KT 10SM BKN011 OVC110 03/02 A2994 RMK AO2 T00320019,,,1100.0,,,35.38,33.28,N,29.29,29.43,,Overcast
KIGQ,03/29/2018 22:55 UTC,29.94,37.76,35.42,91.17,10.36,10.0,16.11,,,,,113.0,1104.0,,,10.0,,KIGQ 292255Z AUTO 01009G14KT 10SM BKN011 OVC110 03/02 A2994 RMK AO2 T00320019,,,1100.0,,,35.38,32.8,N,29.29,29.43,,Overcast
KIGQ,03/29/2018 23:15 UTC,29.96,37.76,35.06,89.87,10.36,20.0,17.27,,,,,113.0,1104.0,,,10.0,,KIGQ 292315Z AUTO 02009G15KT 10SM BKN011 OVC110 03/02 A2996 RMK AO2 T00320017,,,1100.0,,,35.02,32.8,NNE,29.31,29.45,,Overcast
KIGQ,03/29/2018 23:35 UTC,29.97,37.94,34.52,87.34,10.36,10.0,16.11,,,,,1104.0,,,,10.0,,KIGQ 292335Z AUTO 01009G14KT 10SM OVC110 03/01 A2997 RMK AO2  T00330014,,,11000.0,,,34.47,33.01,N,29.32,29.47,,Overcast
KIGQ,03/29/2018 23:55 UTC,29.98,38.12,33.8,84.27,9.22,10.0,17.27,,,,,1104.0,,,,10.0,,KIGQ 292355Z AUTO 01008G15KT 10SM OVC110 03/01 A2998 RMK AO2  T00340010 10075 20031,45.5,37.58,11000.0,,,33.74,33.71,N,29.33,29.49,,Overcast
KIGQ,03/30/2018 00:15 UTC,29.98,37.76,33.26,83.64,12.66,10.0,17.27,,,,,1103.0,,,,10.0,,KIGQ 300015Z AUTO 01011G15KT 10SM BKN110 03/01 A2998 RMK AO2  T00320007,,,11000.0,,,33.19,31.94,N,29.33,29.51,,Mostly Cloudy
KIGQ,03/30/2018 00:35 UTC,29.99,37.4,33.8,86.68,6.91,360.0,,,,,,1.0,,,,10.0,,KIGQ 300035Z AUTO 36006KT 10SM CLR 03/01 A2999 RMK AO2  T00300010,,,,,,33.74,,N,29.34,29.51,,Clear
KIGQ,03/30/2018 00:55 UTC,29.99,37.4,33.98,87.31,8.05,360.0,,,,,,1.0,,,,10.0,,KIGQ 300055Z AUTO 36007KT 10SM CLR 03/01 A2999 RMK AO2  T00300011,,,,,,33.93,33.42,N,29.34,29.51,,Clear
KIGQ,03/30/2018 01:15 UTC,30.0,37.4,34.16,87.94,9.22,360.0,,,,,,1.0,,,,10.0,,KIGQ 300115Z AUTO 36008KT 10SM CLR 03/01 A3000 RMK AO2  T00300012,,,,,,34.11,32.86,N,29.35,29.51,,Clear
KIGQ,03/30/2018 01:35 UTC,30.01,37.22,34.34,89.21,6.91,10.0,,,,,,1.0,,,,10.0,,KIGQ 300135Z AUTO 01006KT 10SM CLR 03/01 A3001 RMK AO2  T00290013,,,,,,34.3,,N,29.36,29.52,,Clear
KIGQ,03/30/2018 01:55 UTC,30.02,37.4,33.98,87.31,11.5,10.0,20.71,,,,,1.0,,,,10.0,,KIGQ 300155Z AUTO 01010G18KT 10SM CLR 03/01 A3002 RMK AO2  T00300011,,,,,,33.93,31.92,N,29.37,29.54,,Clear
KIGQ,03/30/2018 02:15 UTC,30.03,37.04,33.8,87.92,11.5,10.0,,,,,,1.0,,,,10.0,,KIGQ 300215Z AUTO 01010KT 10SM CLR 03/01 A3003 RMK AO2  T00280010,,,,,,33.75,31.48,N,29.38,29.55,,Clear
KIGQ,03/30/2018 02:35 UTC,30.04,37.04,33.62,87.29,11.5,20.0,,,,,,1.0,,,,10.0,,KIGQ 300235Z AUTO 02010KT 10SM CLR 03/01 A3004 RMK AO2  T00280009,,,,,,33.57,31.48,NNE,29.39,29.57,,Clear
KIGQ,03/30/2018 02:55 UTC,30.04,36.68,33.44,87.9,9.22,20.0,,,,,,1.0,,,,10.0,,KIGQ 300255Z AUTO 02008KT 350V050 10SM CLR 03/01 A3004 RMK AO2  T00260008,,,,,,33.39,32.0,NNE,29.39,29.57,,Clear
KIGQ,03/30/2018 03:15 UTC,30.04,36.68,33.44,87.9,9.22,10.0,,,,,,1.0,,,,10.0,,KIGQ 300315Z AUTO 01008KT 10SM CLR 03/01 A3004 RMK AO2  T00260008,,,,,,33.39,32.0,N,29.39,29.57,,Clear
KIGQ,03/30/2018 03:35 UTC,30.04,36.5,33.26,87.89,10.36,360.0,,,,,,1.0,,,,10.0,,KIGQ 300335Z AUTO 36009KT 10SM CLR 03/01 A3004 RMK AO2  T00250007,,,,,,33.21,31.29,N,29.39,29.58,,Clear
KIGQ,03/30/2018 03:55 UTC,30.05,36.14,33.08,88.51,8.05,10.0,,,,,,1.0,,,,10.0,,KIGQ 300355Z AUTO 01007KT 10SM CLR 02/01 A3005 RMK AO2  T00230006,,,,,,33.03,31.94,N,29.4,29.59,,Clear
KIGQ,03/30/2018 04:15 UTC,30.04,36.14,32.9,87.88,8.05,10.0,,,,,,1.0,,,,10.0,,KIGQ 300415Z AUTO 01007KT 10SM CLR 02/01 A3004 RMK AO2  T00230005,,,,,,32.85,31.94,N,29.39,29.58,,Clear
KIGQ,03/30/2018 04:35 UTC,30.05,35.6,32.72,89.13,8.05,10.0,,,,,,1.0,,,,10.0,,KIGQ 300435Z AUTO 01007KT 10SM CLR 02/00 A3005 RMK AO2  T00200004,,,,,,32.67,31.3,N,29.4,29.6,,Clear
KIGQ,03/30/2018 04:55 UTC,30.06,35.24,32.54,89.76,8.05,10.0,,,,,,1.0,,,,10.0,,KIGQ 300455Z AUTO 01007KT 10SM CLR 02/00 A3006 RMK AO2  T00180003,,,,,,32.5,30.88,N,29.41,29.62,,Clear
KIGQ,03/30/2018 05:15 UTC,30.06,35.42,32.36,88.48,8.05,10.0,,,,,,1.0,,,,10.0,,KIGQ 300515Z AUTO 01007KT 10SM CLR 02/00 A3006 RMK AO2  T00190002,,,,,,32.31,31.09,N,29.41,29.62,,Clear
KIGQ,03/30/2018 05:35 UTC,30.07,35.6,32.0,86.58,8.05,10.0,17.27,,,,,1.0,,,,10.0,,KIGQ 300535Z AUTO 01007G15KT 10SM CLR 02/00 A3007 RMK AO2  T00200000,,,,,,31.94,31.3,N,29.42,29.63,,Clear
KIGQ,03/30/2018 05:55 UTC,30.08,35.6,32.0,86.58,6.91,360.0,,,,,,1.0,,,,10.0,,KIGQ 300555Z AUTO 36006KT 10SM CLR 02/00 A3008 RMK AO2 T00200000  10034 20017 400750017,38.12,35.06,,45.5,35.06,31.94,,N,29.43,29.64,,Clear
KIGQ,03/30/2018 06:15 UTC,30.08,35.42,32.0,87.2,6.91,360.0,,,,,,1.0,,,,10.0,,KIGQ 300615Z AUTO 36006KT 10SM CLR 02/00 A3008 RMK AO2  T00190000,,,,,,31.95,,N,29.43,29.64,,Clear
KIGQ,03/30/2018 06:35 UTC,30.08,35.24,32.0,87.83,9.22,350.0,,,,,,1.0,,,,10.0,,KIGQ 300635Z AUTO 35008KT 10SM CLR 02/00 A3008 RMK AO2  T00180000,,,,,,31.95,30.29,N,29.43,29.65,,Clear
KIGQ,03/30/2018 06:55 UTC,30.08,35.06,32.0,88.46,8.05,360.0,17.27,,,,,1.0,,,,10.0,,KIGQ 300655Z AUTO 36007G15KT 10SM CLR 02/00 A3008 RMK AO2  T00170000,,,,,,31.95,30.67,N,29.43,29.65,,Clear
KIGQ,03/30/2018 07:15 UTC,30.08,34.88,32.0,89.1,11.5,350.0,,,,,,1.0,,,,10.0,,KIGQ 300715Z AUTO 35010KT 10SM CLR 02/00 A3008 RMK AO2  T00160000,,,,,,31.96,28.88,N,29.43,29.65,,Clear
KIGQ,03/30/2018 07:35 UTC,30.08,34.7,32.0,89.74,10.36,360.0,16.11,,,,,1.0,,,,10.0,,KIGQ 300735Z AUTO 36009G14KT 10SM CLR 02/00 A3008 RMK AO2  T00150000,,,,,,31.96,29.13,N,29.43,29.65,,Clear
KIGQ,03/30/2018 07:55 UTC,30.08,34.88,32.0,89.1,9.22,360.0,,,,,,1.0,,,,10.0,,KIGQ 300755Z AUTO 36008KT 10SM CLR 02/00 A3008 RMK AO2  T00160000,,,,,,31.96,29.87,N,29.43,29.65,,Clear
KIGQ,03/30/2018 08:15 UTC,30.09,34.88,31.82,88.45,8.05,360.0,,,,,,1.0,,,,10.0,,KIGQ 300815Z AUTO 36007KT 10SM CLR 02/00 A3009 RMK AO2  T00161001,,,,,,31.77,30.46,N,29.44,29.66,,Clear
KIGQ,03/30/2018 08:35 UTC,30.1,35.06,31.46,86.55,8.05,360.0,,,,,,1.0,,,,10.0,,KIGQ 300835Z AUTO 36007KT 10SM CLR 02/00 A3010 RMK AO2  T00171003,,,,,,31.4,30.67,N,29.45,29.68,,Clear
KIGQ,03/30/2018 08:55 UTC,30.1,34.88,31.46,87.17,9.22,10.0,,,,,,1.0,,,,10.0,,KIGQ 300855Z AUTO 01008KT 10SM CLR 02/00 A3010 RMK AO2  T00161003,,,,,,31.41,29.87,N,29.45,29.68,,Clear
KIGQ,03/30/2018 09:15 UTC,30.11,34.88,31.64,87.81,8.05,360.0,,,,,,1.0,,,,10.0,,KIGQ 300915Z AUTO 36007KT 10SM CLR 02/00 A3011 RMK AO2  T00161002,,,,,,31.59,30.46,N,29.46,29.68,,Clear
KIGQ,03/30/2018 09:35 UTC,30.11,34.7,31.82,89.09,9.22,360.0,,,,,,1.0,,,,10.0,,KIGQ 300935Z AUTO 36008KT 10SM CLR 02/00 A3011 RMK AO2  T00151001,,,,,,31.77,29.65,N,29.46,29.68,,Clear
KIGQ,03/30/2018 09:55 UTC,30.12,34.7,31.82,89.09,9.22,360.0,,,,,,1.0,,,,10.0,,KIGQ 300955Z AUTO 36008KT 10SM CLR 02/00 A3012 RMK AO2  T00151001,,,,,,31.77,29.65,N,29.47,29.69,,Clear
KIGQ,03/30/2018 10:15 UTC,30.13,34.7,31.64,88.44,10.36,10.0,,,,,,1.0,,,,10.0,,KIGQ 301015Z AUTO 01009KT 10SM CLR 02/00 A3013 RMK AO2  T00151002,,,,,,31.59,29.13,N,29.47,29.7,,Clear
KIGQ,03/30/2018 10:35 UTC,30.14,34.7,31.46,87.8,8.05,10.0,,,,,,202.0,,,,10.0,,KIGQ 301035Z AUTO 01007KT 10SM SCT020 02/00 A3014 RMK AO2  T00151003,,,,,,31.41,30.25,N,29.48,29.71,,Partly Cloudy
KIGQ,03/30/2018 10:55 UTC,30.15,34.7,30.92,85.9,8.05,20.0,,,,,,202.0,,,,10.0,,KIGQ 301055Z AUTO 02007KT 10SM SCT020 02/M01 A3015 RMK AO2  T00151006,,,,,,30.86,30.25,NNE,29.49,29.73,,Partly Cloudy
KIGQ,03/30/2018 11:15 UTC,30.16,34.88,29.12,79.26,9.22,20.0,,,,,,1.0,,,,10.0,,KIGQ 301115Z AUTO 02008KT 10SM CLR 02/M02 A3016 RMK AO2  T00161016,,,,,,29.03,29.87,NNE,29.5,29.76,,Clear
KIGQ,03/30/2018 11:35 UTC,30.18,34.7,28.58,78.08,9.22,20.0,,,,,,1.0,,,,10.0,,KIGQ 301135Z AUTO 02008KT 10SM CLR 02/M02 A3018 RMK AO2  T00151019,,,,,,28.49,29.65,NNE,29.52,29.79,,Clear
KIGQ,03/30/2018 11:55 UTC,30.18,34.52,28.4,78.06,10.36,40.0,,,,,,1202.0,,,,10.0,,KIGQ 301155Z AUTO 04009KT 10SM SCT120 01/M02 A3018 RMK AO2  T00141020 10020 20014,35.6,34.52,,,,28.3,28.92,NE,29.52,29.8,,Partly Cloudy
KIGQ,03/30/2018 12:15 UTC,30.19,34.34,28.58,79.21,9.22,40.0,,,,,,232.0,1203.0,,,10.0,,KIGQ 301215Z AUTO 04008KT 10SM SCT023 BKN120 01/M02 A3019 RMK AO2  T00131019,,,12000.0,,,28.49,29.23,NE,29.53,29.8,,Mostly Cloudy
KIGQ,03/30/2018 12:35 UTC,30.2,34.16,28.22,78.61,10.36,50.0,,,,,,232.0,1104.0,,,10.0,,KIGQ 301235Z AUTO 05009KT 10SM SCT023 OVC110 01/M02 A3020 RMK AO2  T00121021,,,11000.0,,,28.13,28.49,NE,29.54,29.82,,Overcast
KIGQ,03/30/2018 12:55 UTC,30.21,34.16,27.86,77.45,9.22,40.0,,,,,,1004.0,,,,10.0,,KIGQ 301255Z AUTO 04008KT 10SM OVC100 01/M02 A3021 RMK AO2  T00121023,,,10000.0,,,27.76,29.01,NE,29.55,29.84,,Overcast
KIGQ,03/30/2018 13:15 UTC,30.22,34.7,28.58,78.08,8.05,40.0,,,,,,222.0,1004.0,,,10.0,,KIGQ 301315Z AUTO 04007KT 10SM SCT022 OVC100 02/M02 A3022 RMK AO2  T00151019,,,10000.0,,,28.49,30.25,NE,29.56,29.83,,Overcast
KIGQ,03/30/2018 13:35 UTC,30.23,35.24,29.66,79.87,6.91,40.0,,,,,,223.0,904.0,,,10.0,,KIGQ 301335Z AUTO 04006KT 10SM BKN022 OVC090 02/M01 A3023 RMK AO2  T00181013,,,2200.0,,,29.57,,NE,29.57,29.82,,Overcast
KIGQ,03/30/2018 13:55 UTC,30.24,34.88,29.84,81.62,5.75,40.0,,,,,,204.0,,,,10.0,,KIGQ 301355Z AUTO 04005KT 10SM OVC020 02/M01 A3024 RMK AO2  T00161012,,,2000.0,,,29.76,,NE,29.58,29.83,,Overcast
KIGQ,03/30/2018 14:15 UTC,30.24,35.06,29.12,78.69,8.05,60.0,,,,,,224.0,,,,10.0,,KIGQ 301415Z AUTO 06007KT 10SM OVC022 02/M02 A3024 RMK AO2  T00171016,,,2200.0,,,29.03,30.67,ENE,29.58,29.84,,Overcast
KIGQ,03/30/2018 14:35 UTC,30.24,36.5,28.76,73.23,9.22,40.0,,,,,,243.0,854.0,,,10.0,,KIGQ 301435Z AUTO 04008KT 020V090 10SM BKN024 OVC085 03/M02 A3024 RMK AO2 T00251018,,,2400.0,,,28.64,31.79,NE,29.58,29.84,,Overcast
KIGQ,03/30/2018 14:55 UTC,30.24,37.04,28.4,70.64,11.5,50.0,,,853.0,,,242.0,752.0,,,10.0,,KIGQ 301455Z AUTO 05010KT 10SM SCT024 SCT075 BKN085 03/M02 A3024 RMK AO2 T00281020,,,8500.0,,,28.28,31.48,NE,29.58,29.84,,Mostly Cloudy
KIGQ,03/30/2018 15:15 UTC,30.25,37.22,28.22,69.62,6.91,60.0,,,,,,853.0,,,,10.0,,KIGQ 301515Z AUTO 06006KT 10SM BKN085 03/M02 A3025 RMK AO2  T00291021,,,8500.0,,,28.09,,ENE,29.59,29.85,,Mostly Cloudy
KIGQ,03/30/2018 15:35 UTC,30.25,37.4,27.68,67.61,10.36,60.0,,,,,,853.0,,,,10.0,,KIGQ 301535Z AUTO 06009KT 10SM BKN085 03/M02 A3025 RMK AO2  T00301024,,,8500.0,,,27.54,32.37,ENE,29.59,29.86,,Mostly Cloudy
KIGQ,03/30/2018 15:55 UTC,30.26,38.48,27.86,65.29,8.05,50.0,,,,,,952.0,,,,10.0,,KIGQ 301555Z AUTO 05007KT 10SM SCT095 04/M02 A3026 RMK AO2  T00361023,,,,,,27.72,34.69,NE,29.6,29.86,,Partly Cloudy
KIGQ,03/30/2018 16:15 UTC,30.26,38.48,27.68,64.8,9.22,40.0,18.41,,,,,1.0,,,,10.0,,KIGQ 301615Z AUTO 04008G16KT 10SM CLR 04/M02 A3026 RMK AO2  T00361024,,,,,,27.53,34.14,NE,29.6,29.86,,Clear
KIGQ,03/30/2018 16:35 UTC,30.26,38.48,26.96,62.91,3.44,30.0,,,,,,1002.0,,,,10.0,,KIGQ 301635Z AUTO 03003KT 10SM SCT100 04/M03 A3026 RMK AO2  T00361028,,,,,,26.8,,NNE,29.6,29.87,,Partly Cloudy
KIGQ,03/30/2018 16:55 UTC,30.26,39.74,28.04,62.61,8.05,70.0,,,,,,1002.0,,,,10.0,,KIGQ 301655Z AUTO 07007KT 10SM SCT100 04/M02 A3026 RMK AO2  T00431022,,,,,,27.88,36.17,ENE,29.6,29.85,,Partly Cloudy
KIGQ,03/30/2018 17:15 UTC,30.25,39.74,27.68,61.69,9.22,40.0,,,,,,1202.0,,,,10.0,,KIGQ 301715Z AUTO 04008KT 10SM SCT120 04/M02 A3025 RMK AO2  T00431024,,,,,,27.52,35.63,NE,29.59,29.85,,Partly Cloudy
KIGQ,03/30/2018 17:35 UTC,30.26,39.2,27.14,61.62,0.0,0.0,,,,,,1202.0,,,,10.0,,KIGQ 301735Z AUTO 00000KT 10SM SCT120 04/M03 A3026 RMK AO2  T00401027,,,,,,26.98,,N,29.6,29.87,,Partly Cloudy
KIGQ,03/30/2018 17:55 UTC,30.25,39.74,27.32,60.78,4.61,50.0,,,,,,1.0,,,,10.0,,KIGQ 301755Z AUTO 05004KT 10SM CLR 04/M03 A3025 RMK AO2 T00431026  10049 20011,40.82,33.98,,,,27.15,,NE,29.59,29.85,,Clear
KIGQ,03/30/2018 18:15 UTC,30.25,40.64,28.22,60.91,4.61,10.0,,,,,,1002.0,1202.0,,,10.0,,KIGQ 301815Z AUTO 01004KT 10SM SCT100 SCT120 05/M02 A3025 RMK AO2  T00481021,,,,,,28.06,,N,29.59,29.83,,Partly Cloudy
KIGQ,03/30/2018 18:35 UTC,30.25,41.18,28.04,59.21,3.44,70.0,,,,,,902.0,1203.0,,,10.0,,KIGQ 301835Z AUTO 07003KT 10SM SCT090 BKN120 05/M02 A3025 RMK AO2  T00511022,,,12000.0,,,27.87,,ENE,29.59,29.83,,Mostly Cloudy
KIGQ,03/30/2018 18:55 UTC,30.24,41.72,27.86,57.56,0.0,0.0,,,,,,1202.0,,,,10.0,,KIGQ 301855Z AUTO 00000KT 10SM SCT120 05/M02 A3024 RMK AO2  T00541023,,,,,,27.69,,N,29.58,29.82,,Partly Cloudy
KIGQ,03/30/2018 19:15 UTC,30.24,42.8,28.58,56.87,4.61,40.0,,,,,,1.0,,,,10.0,,KIGQ 301915Z AUTO 04004KT 10SM CLR 06/M02 A3024 RMK AO2  T00601019,,,,,,28.41,,NE,29.58,29.8,,Clear
KIGQ,03/30/2018 19:35 UTC,30.23,42.08,27.68,56.35,0.0,0.0,,,,,,1.0,,,,10.0,,KIGQ 301935Z AUTO 00000KT 10SM CLR 06/M02 A3023 RMK AO2  T00561024,,,,,,27.5,,N,29.57,29.81,,Clear
KIGQ,03/30/2018 19:55 UTC,30.22,43.34,29.12,56.95,4.61,130.0,,,,,,1.0,,,,10.0,,KIGQ 301955Z AUTO 13004KT 10SM CLR 06/M02 A3022 RMK AO2  T00631016,,,,,,28.95,,SE,29.56,29.77,,Clear
KIGQ,03/30/2018 20:15 UTC,30.21,44.78,29.48,54.71,5.75,80.0,,,,,,1.0,,,,10.0,,KIGQ 302015Z AUTO 08005KT 10SM CLR 07/M01 A3021 RMK AO2  T00711014,,,,,,29.3,,E,29.55,29.75,,Clear
KIGQ,03/30/2018 20:35 UTC,30.21,45.86,29.66,52.9,4.61,170.0,,,,,,1.0,,,,10.0,,KIGQ 302035Z AUTO 17004KT 10SM CLR 08/M01 A3021 RMK AO2  T00771013,,,,,,29.48,,S,29.55,29.74,,Clear
KIGQ,03/30/2018 20:55 UTC,30.2,46.76,29.84,51.5,4.61,240.0,,,,,,1.0,,,,10.0,,KIGQ 302055Z AUTO 24004KT 10SM CLR 08/M01 A3020 RMK AO2  T00821012,,,,,,29.65,,WSW,29.54,29.72,,Clear
KIGQ,03/30/2018 21:15 UTC,30.19,46.4,28.94,50.32,3.44,110.0,,,,,,492.0,,,,10.0,,KIGQ 302115Z AUTO 11003KT 10SM SCT049 08/M02 A3019 RMK AO2  T00801017,,,,,,28.75,,ESE,29.53,29.73,,Partly Cloudy
KIGQ,03/30/2018 21:35 UTC,30.19,48.02,30.02,49.48,8.05,240.0,,,,,,493.0,,,,10.0,,KIGQ 302135Z AUTO 24007KT 10SM BKN049 09/M01 A3019 RMK AO2  T00891011,,,4900.0,,,29.83,,WSW,29.53,29.7,,Mostly Cloudy
KIGQ,03/30/2018 21:55 UTC,30.19,46.94,31.46,54.64,8.05,220.0,,,,,,503.0,,,,10.0,,KIGQ 302155Z AUTO 22007KT 10SM BKN050 08/00 A3019 RMK AO2  T00831003,,,5000.0,,,31.29,,SW,29.53,29.68,,Mostly Cloudy
KIGQ,03/30/2018 22:15 UTC,30.19,46.4,31.28,55.36,8.05,240.0,,,,,,503.0,,,,10.0,,KIGQ 302215Z AUTO 24007KT 10SM BKN050 08/00 A3019 RMK AO2  T00801004,,,5000.0,,,31.11,,WSW,29.53,29.69,,Mostly Cloudy
KIGQ,03/30/2018 22:35 UTC,30.19,47.66,32.18,54.74,11.5,220.0,,,,,,502.0,602.0,,,10.0,,KIGQ 302235Z AUTO 22010KT 10SM SCT050 SCT060 09/00 A3019 RMK AO2  T00870001,,,,,,32.01,,SW,29.53,29.66,,Partly Cloudy
KIGQ,03/30/2018 22:55 UTC,30.18,47.66,31.28,52.79,6.91,240.0,,,,,,502.0,,,,10.0,,KIGQ 302255Z AUTO 24006KT 10SM SCT050 09/00 A3018 RMK AO2  T00871004,,,,,,31.11,,WSW,29.52,29.67,,Partly Cloudy
KIGQ,03/30/2018 23:15 UTC,30.18,46.4,31.82,56.58,8.05,220.0,,,,,,502.0,602.0,,,10.0,,KIGQ 302315Z AUTO 22007KT 10SM SCT050 SCT060 08/00 A3018 RMK AO2  T00801001,,,,,,31.66,,SW,29.52,29.67,,Partly Cloudy
KIGQ,03/30/2018 23:35 UTC,30.19,45.14,31.46,58.49,9.22,220.0,,,,,,602.0,,,,10.0,,KIGQ 302335Z AUTO 22008KT 10SM SCT060 07/00 A3019 RMK AO2  T00731003,,,,,,31.3,,SW,29.53,29.69,,Partly Cloudy
KIGQ,03/30/2018 23:55 UTC,30.19,45.14,32.0,59.78,8.05,220.0,,,,,,603.0,804.0,,,10.0,,KIGQ 302355Z AUTO 22007KT 10SM BKN060 OVC080 07/00 A3019 RMK AO2  T00730000 10094 20044,48.92,39.92,6000.0,,,31.85,,SW,29.53,29.68,,Overcast
KIGQ,03/31/2018 00:15 UTC,30.19,44.96,32.18,60.63,6.91,220.0,,,,,,602.0,804.0,,,10.0,,KIGQ 310015Z AUTO 22006KT 10SM SCT060 OVC080 07/00 A3019 RMK AO2  T00720001,,,8000.0,,,32.03,,SW,29.53,29.68,,Overcast
KIGQ,03/31/2018 00:35 UTC,30.18,44.42,32.9,63.7,3.44,210.0,,13.0,,,,552.0,804.0,,,10.0,,KIGQ 310035Z AUTO 21003KT 10SM -RA SCT055 OVC080 07/01 A3018 RMK AO2 T00690005,,,8000.0,,,32.76,,SSW,29.52,29.66,,Light Rain
KIGQ,03/31/2018 00:55 UTC,30.18,41.72,32.0,68.14,5.75,200.0,,,,,,802.0,904.0,,,10.0,,KIGQ 310055Z AUTO 20005KT 10SM SCT080 OVC090 05/00 A3018 RMK AO2  T00540000,,,9000.0,,,31.87,,SSW,29.52,29.69,,Overcast
KIGQ,03/31/2018 01:15 UTC,30.19,39.2,31.28,72.99,5.75,200.0,,,,,,903.0,,,,10.0,,KIGQ 310115Z AUTO 20005KT 10SM BKN090 04/00 A3019 RMK AO2  T00401004,,,9000.0,,,31.17,,SSW,29.53,29.73,,Mostly Cloudy
KIGQ,03/31/2018 01:35 UTC,30.19,38.3,31.1,75.05,4.61,190.0,,,,,,903.0,,,,10.0,,KIGQ 310135Z AUTO 19004KT 10SM BKN090 04/00 A3019 RMK AO2  T00351005,,,9000.0,,,31.0,,S,29.53,29.74,,Mostly Cloudy
KIGQ,03/31/2018 01:55 UTC,30.19,40.82,32.36,71.58,0.0,0.0,,,904.0,,,603.0,803.0,,,10.0,,KIGQ 310155Z AUTO 00000KT 10SM BKN060 BKN080 OVC090 05/00 A3019 RMK AO2 T00490002,,,6000.0,,,32.24,,N,29.53,29.7,,Overcast
KIGQ,03/31/2018 02:15 UTC,30.2,42.8,32.36,66.32,0.0,0.0,,,,,,603.0,904.0,,,10.0,,KIGQ 310215Z AUTO 00000KT 10SM BKN060 OVC090 06/00 A3020 RMK AO2  T00600002,,,6000.0,,,32.23,,N,29.54,29.7,,Overcast
KIGQ,03/31/2018 02:35 UTC,30.2,41.72,32.36,69.14,0.0,0.0,,,,,,602.0,904.0,,,10.0,,KIGQ 310235Z AUTO 00000KT 10SM SCT060 OVC090 05/00 A3020 RMK AO2  T00540002,,,9000.0,,,32.24,,N,29.54,29.71,,Overcast
KIGQ,03/31/2018 02:55 UTC,30.2,41.54,32.36,69.62,0.0,0.0,,,,,,552.0,753.0,,,10.0,,KIGQ 310255Z AUTO 00000KT 10SM SCT055 BKN075 05/00 A3020 RMK AO2  T00530002,,,7500.0,,,32.24,,N,29.54,29.71,,Mostly Cloudy
KIGQ,03/31/2018 03:15 UTC,30.2,40.28,32.0,72.05,0.0,0.0,,,,,,552.0,,,,10.0,,KIGQ 310315Z AUTO 00000KT 10SM SCT055 05/00 A3020 RMK AO2  T00460000,,,,,,31.89,,N,29.54,29.72,,Partly Cloudy
KIGQ,03/31/2018 03:35 UTC,30.2,41.72,32.72,70.15,0.0,0.0,,,,,,554.0,,,,10.0,,KIGQ 310335Z AUTO 00000KT 10SM OVC055 05/00 A3020 RMK AO2  T00540004,,,5500.0,,,32.6,,N,29.54,29.7,,Overcast
KIGQ,03/31/2018 03:55 UTC,30.2,39.38,32.54,76.26,3.44,210.0,,,,,,653.0,803.0,,,10.0,,KIGQ 310355Z AUTO 21003KT 10SM BKN065 BKN080 04/00 A3020 RMK AO2  T00410003,,,6500.0,,,32.44,,SSW,29.54,29.72,,Mostly Cloudy
KIGQ,03/31/2018 04:15 UTC,30.2,36.68,32.18,83.56,3.44,220.0,,,,,,653.0,753.0,,,10.0,,KIGQ 310415Z AUTO 22003KT 10SM BKN065 BKN075 03/00 A3020 RMK AO2  T00260001,,,6500.0,,,32.11,,SW,29.54,29.75,,Mostly Cloudy
KIGQ,03/31/2018 04:35 UTC,30.2,34.7,31.64,88.44,3.44,200.0,,,,,,1.0,,,,10.0,,KIGQ 310435Z AUTO 20003KT 10SM CLR 02/00 A3020 RMK AO2  T00151002,,,,,,31.59,,SSW,29.54,29.77,,Clear
KIGQ,03/31/2018 04:55 UTC,30.19,34.7,31.28,87.16,5.75,180.0,,,,,,1.0,,,,10.0,,KIGQ 310455Z AUTO 18005KT 10SM CLR 02/00 A3019 RMK AO2  T00151004,,,,,,31.23,,S,29.53,29.76,,Clear
KIGQ,03/31/2018 05:15 UTC,30.19,33.8,30.92,89.04,5.75,190.0,,,,,,1.0,,,,10.0,,KIGQ 310515Z AUTO 19005KT 10SM CLR 01/M01 A3019 RMK AO2  T00101006,,,,,,30.87,,S,29.53,29.77,,Clear
KIGQ,03/31/2018 05:35 UTC,30.19,32.9,30.56,90.98,5.75,200.0,,,,,,1.0,,,,10.0,,KIGQ 310535Z AUTO 20005KT 10SM CLR 01/M01 A3019 RMK AO2  T00051008,,,,,,30.52,,SSW,29.53,29.78,,Clear
KIGQ,03/31/2018 05:55 UTC,30.18,32.72,30.74,92.31,6.91,190.0,,,,,,1.0,,,,10.0,,KIGQ 310555Z AUTO 19006KT 10SM CLR 00/M01 A3018 RMK AO2 T00041007  10075 20002 400940002,45.5,32.36,,48.92,32.36,30.71,,S,29.52,29.77,,Clear
KIGQ,03/31/2018 06:15 UTC,30.18,32.54,31.1,94.35,5.75,190.0,,,,,,1.0,,,,10.0,,KIGQ 310615Z AUTO 19005KT 10SM CLR 00/00 A3018 RMK AO2  T00031005,,,,,,31.08,,S,29.52,29.77,,Clear
KIGQ,03/31/2018 06:35 UTC,30.17,32.0,31.1,96.43,4.61,200.0,,,,,,1.0,,,,10.0,,KIGQ 310635Z AUTO 20004KT 10SM CLR 00/00 A3017 RMK AO2  T00001005,,,,,,31.09,,SSW,29.51,29.76,,Clear
KIGQ,03/31/2018 06:55 UTC,30.17,32.18,31.82,98.56,4.61,190.0,,,,,,1.0,,,,10.0,,KIGQ 310655Z AUTO 19004KT 10SM CLR 00/00 A3017 RMK AO2  T00011001,,,,,,31.81,,S,29.51,29.75,,Clear
KIGQ,03/31/2018 07:15 UTC,30.16,32.36,32.36,100.0,5.75,200.0,,,,,,1.0,,,,7.0,,KIGQ 310715Z AUTO 20005KT 7SM CLR 00/00 A3016 RMK AO2  T00020002,,,,,,32.36,,SSW,29.5,29.73,,Clear
KIGQ,03/31/2018 07:35 UTC,30.14,33.62,33.62,100.0,6.91,190.0,,,,,,1.0,,,,7.0,,KIGQ 310735Z AUTO 19006KT 7SM CLR 01/01 A3014 RMK AO2  T00090009,,,,,,33.62,,S,29.48,29.68,,Clear
KIGQ,03/31/2018 07:55 UTC,30.13,33.8,33.62,99.28,8.05,190.0,,,,,,1.0,,,,7.0,,KIGQ 310755Z AUTO 19007KT 7SM CLR 01/01 A3013 RMK AO2  T00100009,,,,,,33.62,29.19,S,29.47,29.67,,Clear
KIGQ,03/31/2018 08:15 UTC,30.13,33.98,33.8,99.28,9.22,190.0,,,,,,1.0,,,,7.0,,KIGQ 310815Z AUTO 19008KT 7SM CLR 01/01 A3013 RMK AO2 LTG DSNT W  T00110010,,,,,,33.8,28.8,S,29.47,29.67,,Clear
KIGQ,03/31/2018 08:35 UTC,30.12,34.7,33.98,97.17,6.91,200.0,,,,,,1.0,,,,10.0,,KIGQ 310835Z AUTO 20006KT 10SM CLR 02/01 A3012 RMK AO2 LTG DSNT W  T00150011,,,,,,33.97,,SSW,29.47,29.66,,Clear
KIGQ,03/31/2018 08:55 UTC,30.1,34.7,33.8,96.47,6.91,190.0,,,,,,1.0,,,,10.0,,KIGQ 310855Z AUTO 19006KT 10SM CLR 02/01 A3010 RMK AO2 LTG DSNT W  T00150010,,,,,,33.79,,S,29.45,29.64,,Clear
KIGQ,03/31/2018 09:15 UTC,30.1,34.52,33.8,97.16,8.05,200.0,,,,,,1.0,,,,10.0,,KIGQ 310915Z AUTO 20007KT 10SM CLR 01/01 A3010 RMK AO2 LTG DSNT W  T00140010,,,,,,33.79,30.04,SSW,29.45,29.64,,Clear
KIGQ,03/31/2018 09:35 UTC,30.11,35.06,33.8,95.1,9.22,190.0,,,,,,1.0,,,,10.0,,KIGQ 310935Z AUTO 19008KT 10SM CLR 02/01 A3011 RMK AO2  T00170010,,,,,,33.78,30.08,S,29.46,29.65,,Clear
KIGQ,03/31/2018 09:55 UTC,30.09,34.7,33.44,95.09,10.36,180.0,,,,,,1.0,,,,10.0,,KIGQ 310955Z AUTO 18009KT 10SM CLR 02/01 A3009 RMK AO2  T00150008,,,,,,33.42,29.13,S,29.44,29.64,,Clear
KIGQ,03/31/2018 10:15 UTC,30.08,34.7,33.8,96.47,9.22,180.0,,,,,,1.0,,,,10.0,,KIGQ 311015Z AUTO 18008KT 10SM CLR 02/01 A3008 RMK AO2  T00150010,,,,,,33.79,29.65,S,29.43,29.62,,Clear
KIGQ,03/31/2018 10:35 UTC,30.07,35.24,33.98,95.1,6.91,180.0,,,,,,1202.0,,,,10.0,,KIGQ 311035Z AUTO 18006KT 10SM SCT120 02/01 A3007 RMK AO2  T00180011,,,,,,33.96,,S,29.42,29.6,,Partly Cloudy
KIGQ,03/31/2018 10:55 UTC,30.06,34.7,33.44,95.09,6.91,180.0,,,,,,1.0,,,,10.0,,KIGQ 311055Z AUTO 18006KT 10SM CLR 02/01 A3006 RMK AO2  T00150008,,,,,,33.42,,S,29.41,29.61,,Clear
KIGQ,03/31/2018 11:15 UTC,30.06,35.06,33.8,95.1,8.05,180.0,,,,,,1.0,,,,10.0,,KIGQ 311115Z AUTO 18007KT 10SM CLR 02/01 A3006 RMK AO2  T00170010,,,,,,33.78,30.67,S,29.41,29.6,,Clear
KIGQ,03/31/2018 11:35 UTC,30.06,36.5,34.88,93.77,8.05,200.0,,,,,,1202.0,,,,10.0,,KIGQ 311135Z AUTO 20007KT 10SM SCT120 03/02 A3006 RMK AO2  T00250016,,,,,,34.85,32.36,SSW,29.41,29.57,,Partly Cloudy
KIGQ,03/31/2018 11:55 UTC,30.06,37.58,35.24,91.16,10.36,200.0,,,,,,1202.0,,,,10.0,,KIGQ 311155Z AUTO 20009KT 10SM SCT120 03/02 A3006 RMK AO2  T00310018 10031 21002,37.58,31.64,,,,35.2,32.58,SSW,29.41,29.55,,Partly Cloudy
KIGQ,03/31/2018 12:15 UTC,30.06,37.94,35.42,90.53,11.5,200.0,,,,,,1103.0,,,,10.0,,KIGQ 311215Z AUTO 20010KT 10SM BKN110 03/02 A3006 RMK AO2  T00330019,,,11000.0,,,35.38,32.57,SSW,29.41,29.55,,Mostly Cloudy
KIGQ,03/31/2018 12:35 UTC,30.05,38.48,35.6,89.27,12.66,190.0,,,,,,1104.0,,,,10.0,,KIGQ 311235Z AUTO 19011KT 10SM OVC110 04/02 A3005 RMK AO2  T00360020,,,11000.0,,,35.56,32.81,S,29.4,29.53,,Overcast
KIGQ,03/31/2018 12:55 UTC,30.04,39.74,35.6,84.98,13.8,200.0,18.41,,,,,1104.0,,,,10.0,,KIGQ 311255Z AUTO 20012G16KT 10SM OVC110 04/02 A3004 RMK AO2  T00430020,,,11000.0,,,35.54,33.98,SSW,29.39,29.51,,Overcast
KIGQ,03/31/2018 13:15 UTC,30.04,40.46,35.24,81.46,13.8,210.0,19.57,,1104.0,,,602.0,703.0,,,10.0,,KIGQ 311315Z AUTO 21012G17KT 10SM SCT060 BKN070 OVC110 05/02 A3004 RMK AO2 T00470018,,,7000.0,,,35.17,34.86,SSW,29.39,29.51,,Overcast
KIGQ,03/31/2018 13:35 UTC,30.04,40.46,35.42,82.05,18.41,210.0,25.32,13.0,704.0,,,332.0,463.0,,,10.0,,KIGQ 311335Z AUTO 21016G22KT 10SM -RA SCT033 BKN046 OVC070 05/02  A3004 RMK AO2 T00470019,,,4600.0,,,35.35,33.63,SSW,29.39,29.51,,Light Rain
KIGQ,03/31/2018 13:55 UTC,30.04,40.1,37.22,89.34,19.57,220.0,25.32,1.0,,0.04,,243.0,344.0,,,3.0,,KIGQ 311355Z AUTO 22017G22KT 3SM RA BKN024 OVC034 05/03 A3004 RMK AO2 P0004 T00450029,,,2400.0,,,37.18,32.91,SW,29.39,29.48,,Rain
KIGQ,03/31/2018 14:15 UTC,30.01,41.18,38.3,89.39,13.8,210.0,18.41,1.0,504.0,,,242.0,373.0,,,10.0,,KIGQ 311415Z AUTO 21012G16KT 10SM RA SCT024 BKN037 OVC050 05/04  A3001 RMK AO2 T00510035,,,3700.0,,,38.26,35.74,SSW,29.36,29.42,,Rain
KIGQ,03/31/2018 14:35 UTC,29.98,41.54,38.48,88.78,16.11,200.0,,1.0,654.0,,,382.0,443.0,,,10.0,,KIGQ 311435Z AUTO 20014KT 10SM RA SCT038 BKN044 OVC065 05/04 A2998 RMK AO2 T00530036,,,4400.0,,,38.44,35.55,SSW,29.33,29.38,,Rain
KIGQ,03/31/2018 14:55 UTC,29.97,42.08,38.3,86.34,20.71,210.0,28.77,13.0,,,0.04,442.0,654.0,,,10.0,,KIGQ 311455Z AUTO 21018G25KT 10SM -RA SCT044 OVC065 06/04 A2997 RMK AO2 60004 T00560035,,,6500.0,,,38.25,35.17,SSW,29.32,29.37,,Light Rain
KIGQ,03/31/2018 15:15 UTC,29.94,42.98,39.56,87.61,20.71,190.0,27.63,,,,,553.0,754.0,,,10.0,,KIGQ 311515Z AUTO 19018G24KT 10SM BKN055 OVC075 06/04 A2994 RMK AO2 T00610042,,,5500.0,,,39.51,36.3,S,29.29,29.3,,Overcast
KIGQ,03/31/2018 15:35 UTC,29.91,43.16,39.56,87.01,23.02,190.0,28.77,,,,,754.0,,,,10.0,,KIGQ 311535Z AUTO 19020G25KT 10SM OVC075 06/04 A2991 RMK AO2  T00620042,,,7500.0,,,39.51,36.09,S,29.26,29.27,,Overcast
KIGQ,03/31/2018 15:55 UTC,29.88,43.88,40.28,87.05,20.71,190.0,27.63,,,,,754.0,,,,10.0,,KIGQ 311555Z AUTO 19018G24KT 10SM OVC075 07/05 A2988 RMK AO2  T00660046,,,7500.0,,,40.23,37.44,S,29.23,29.22,,Overcast
KIGQ,03/31/2018 16:15 UTC,29.87,44.96,40.82,85.31,20.71,200.0,27.63,,,,,654.0,,,,10.0,,KIGQ 311615Z AUTO 20018G24KT 10SM OVC065 07/05 A2987 RMK AO2  T00720049,,,6500.0,,,40.77,38.81,SSW,29.22,29.19,,Overcast
KIGQ,03/31/2018 16:35 UTC,29.87,45.86,40.82,82.44,21.85,210.0,34.52,,,,,654.0,,,,10.0,,KIGQ 311635Z AUTO 21019G30KT 10SM OVC065 08/05 A2987 RMK AO2  T00770049,,,6500.0,,,40.75,,SSW,29.22,29.18,,Overcast
KIGQ,03/31/2018 16:55 UTC,29.86,46.76,41.72,82.51,23.02,210.0,29.93,,,,,654.0,,,,10.0,,KIGQ 311655Z AUTO 21020G26KT 10SM OVC065 08/05 A2986 RMK AO2  T00820054,,,6500.0,,,41.66,,SSW,29.21,29.14,,Overcast
KIGQ,03/31/2018 17:15 UTC,29.86,48.02,42.44,80.9,21.85,210.0,33.38,,,,,554.0,,,,10.0,,KIGQ 311715Z AUTO 21019G29KT 10SM OVC055 09/06 A2986 RMK AO2  T00890058,,,5500.0,,,42.37,,SSW,29.21,29.11,,Overcast
KIGQ,03/31/2018 17:35 UTC,29.86,49.1,42.98,79.33,25.32,220.0,32.21,,,,,504.0,,,,10.0,,KIGQ 311735Z AUTO 22022G28KT 10SM OVC050 10/06 A2986 RMK AO2  T00950061,,,5000.0,,,42.91,,SW,29.21,29.09,,Overcast
KIGQ,03/31/2018 17:55 UTC,29.85,50.9,44.6,78.93,21.85,220.0,32.21,,,,,503.0,604.0,0.04,,10.0,,KIGQ 311755Z AUTO 22019G28KT 10SM BKN050 OVC060 11/07 A2985 RMK AO2 60004 T01050070 10105 20031,50.9,37.58,5000.0,,,44.53,,SW,29.2,29.02,,Overcast
KIGQ,03/31/2018 18:15 UTC,29.83,54.5,46.4,74.05,24.16,220.0,32.21,,,,,502.0,602.0,,,10.0,,KIGQ 311815Z AUTO 22021G28KT 10SM SCT050 SCT060 13/08 A2983 RMK AO2 T01250080,,,,,,46.32,,SW,29.18,28.91,,Partly Cloudy
KIGQ,03/31/2018 18:35 UTC,29.84,55.58,44.6,66.5,25.32,230.0,37.98,,,,,362.0,413.0,,,10.0,,KIGQ 311835Z AUTO 23022G33KT 10SM SCT036 BKN041 13/07 A2984 RMK AO2 T01310070,,,4100.0,,,44.5,,SW,29.19,28.97,,Mostly Cloudy
KIGQ,03/31/2018 18:55 UTC,29.84,55.58,43.88,64.7,29.93,240.0,36.82,,,,,404.0,,,,10.0,,KIGQ 311855Z AUTO 24026G32KT 10SM OVC040 13/07 A2984 RMK AO2  T01310066,,,4000.0,,,43.78,,WSW,29.19,28.99,,Overcast
KIGQ,03/31/2018 19:15 UTC,29.84,55.58,43.16,62.94,28.77,240.0,35.68,,,,,434.0,,,,10.0,,KIGQ 311915Z AUTO 24025G31KT 10SM OVC043 13/06 A2984 RMK AO2  T01310062,,,4300.0,,,43.05,,WSW,29.19,29.01,,Overcast
KIGQ,03/31/2018 19:35 UTC,29.84,55.4,43.34,63.79,20.71,250.0,33.38,,,,,454.0,,,,10.0,,KIGQ 311935Z AUTO 25018G29KT 10SM OVC045 13/06 A2984 RMK AO2  T01300063,,,4500.0,,,43.23,,WSW,29.19,29.0,,Overcast
KIGQ,03/31/2018 19:55 UTC,29.84,57.38,44.24,61.46,18.41,250.0,27.63,,,,,473.0,604.0,,,10.0,,KIGQ 311955Z AUTO 25016G24KT 10SM BKN047 OVC060 14/07 A2984 RMK AO2 T01410068,,,4700.0,,,44.13,,WSW,29.19,28.96,,Overcast
KIGQ,03/31/2018 20:15 UTC,29.84,59.18,44.06,57.23,18.41,260.0,31.07,,,,,473.0,604.0,,,10.0,,KIGQ 312015Z AUTO 26016G27KT 10SM BKN047 OVC060 15/07 A2984 RMK AO2 T01510067,,,4700.0,,,43.95,,W,29.19,28.95,,Overcast
KIGQ,03/31/2018 20:35 UTC,29.84,59.36,43.52,55.7,24.16,270.0,35.68,,,,,473.0,604.0,,,10.0,,KIGQ 312035Z AUTO 27021G31KT 10SM BKN047 OVC060 15/06 A2984 RMK AO2 T01520064,,,4700.0,,,43.4,,W,29.19,28.97,,Overcast
KIGQ,03/31/2018 20:55 UTC,29.85,59.36,43.7,56.09,23.02,280.0,35.68,,,,,492.0,603.0,,,10.0,,KIGQ 312055Z AUTO 28020G31KT 10SM SCT049 BKN060 15/07 A2985 RMK AO2 T01520065,,,6000.0,,,43.59,,W,29.2,28.97,,Mostly Cloudy
KIGQ,03/31/2018 21:15 UTC,29.85,59.54,42.08,52.37,28.77,270.0,39.12,,,,,502.0,602.0,,,10.0,,KIGQ 312115Z AUTO 27025G34KT 10SM SCT050 SCT060 15/06 A2985 RMK AO2 T01530056,,,,,,41.96,,W,29.2,29.02,,Partly Cloudy
KIGQ,03/31/2018 21:35 UTC,29.86,57.92,42.44,56.27,26.46,270.0,35.68,,,,,482.0,602.0,,,10.0,,KIGQ 312135Z AUTO 27023G31KT 10SM SCT048 SCT060 14/06 A2986 RMK AO2 T01440058,,,,,,42.32,,W,29.21,29.03,,Partly Cloudy
KIGQ,03/31/2018 21:55 UTC,29.88,56.48,42.98,60.5,17.27,290.0,27.63,,,,,482.0,602.0,,,10.0,,KIGQ 312155Z AUTO 29015G24KT 10SM SCT048 SCT060 14/06 A2988 RMK AO2 T01360061,,,,,,42.86,,WNW,29.23,29.05,,Partly Cloudy
KIGQ,03/31/2018 22:15 UTC,29.89,53.6,40.64,61.38,21.85,290.0,29.93,,,,,1.0,,,,10.0,,KIGQ 312215Z AUTO 29019G26KT 10SM CLR 12/05 A2989 RMK AO2  T01200048,,,,,,40.52,,WNW,29.24,29.14,,Clear
KIGQ,03/31/2018 22:35 UTC,29.9,52.88,39.92,61.28,13.8,300.0,23.02,,,,,1.0,,,,10.0,,KIGQ 312235Z AUTO 30012G20KT 10SM CLR 12/04 A2990 RMK AO2  T01160044,,,,,,39.79,,WNW,29.25,29.18,,Clear
KIGQ,03/31/2018 22:55 UTC,29.93,50.9,39.38,64.55,18.41,280.0,26.46,,,,,1.0,,,,10.0,,KIGQ 312255Z AUTO 28016G23KT 10SM CLR 11/04 A2993 RMK AO2  T01050041,,,,,,39.26,,W,29.28,29.24,,Clear
KIGQ,03/31/2018 23:15 UTC,29.94,49.64,37.4,62.59,13.8,310.0,19.57,,,,,1.0,,,,10.0,,KIGQ 312315Z AUTO 31012G17KT 10SM CLR 10/03 A2994 RMK AO2  T00980030,,,,,,37.27,,NW,29.29,29.3,,Clear
KIGQ,03/31/2018 23:35 UTC,29.95,48.74,36.5,62.47,14.97,320.0,,,,,,403.0,,,,10.0,,KIGQ 312335Z AUTO 32013KT 10SM BKN040 09/03 A2995 RMK AO2  T00930025,,,4000.0,,,36.37,,NW,29.3,29.34,,Mostly Cloudy
KIGQ,03/31/2018 23:55 UTC,29.96,48.02,35.6,61.93,11.5,320.0,18.41,,,,,402.0,,,,10.0,,KIGQ 312355Z AUTO 32010G16KT 10SM SCT040 09/02 A2996 RMK AO2  T00890020 10159 20089,60.62,48.02,,,,35.46,,NW,29.31,29.37,,Partly Cloudy
