# STATION: KIGQ
# STATION NAME: Lansing Municipal Airport
# LATITUDE: 41.54125
# LONGITUDE: -87.52822
# ELEVATION [ft]: 607
# STATE: IL
Station_ID,Date_Time,altimeter_set_1,air_temp_set_1,dew_point_temperature_set_1,relative_humidity_set_1,wind_speed_set_1,wind_direction_set_1,wind_gust_set_1,weather_cond_code_set_1,cloud_layer_3_code_set_1,precip_accum_one_hour_set_1,precip_accum_three_hour_set_1,cloud_layer_1_code_set_1,cloud_layer_2_code_set_1,precip_accum_six_hour_set_1,precip_accum_24_hour_set_1,visibility_set_1,metar_remark_set_1,metar_set_1,air_temp_high_6_hour_set_1,air_temp_low_6_hour_set_1,ceiling_set_1,air_temp_high_24_hour_set_1,air_temp_low_24_hour_set_1,dew_point_temperature_set_1d,wind_chill_set_1d,wind_cardinal_direction_set_1d,pressure_set_1d,sea_level_pressure_set_1d,heat_index_set_1d,weather_condition_set_1d
,,INHG,Fahrenheit,Fahrenheit,%,Miles/hour,Degrees,Miles/hour,code,code,Inches,Inches,code,code,Inches,Inches,Statute miles,text,text,Fahrenheit,Fahrenheit,Feet,Fahrenheit,Fahrenheit,Fahrenheit,Fahrenheit,Code,INHG,INHG,Fahrenheit,Code
KIGQ,04/01/2018 00:15 UTC,29.98,47.3,33.98,59.65,17.27,330.0,21.85,,,,,443.0,,,,10.0,,KIGQ 010015Z AUTO 33015G19KT 10SM BKN044 09/01 A2998 RMK AO2  T00850011,,,4400.0,,,33.83,,NNW,29.33,29.43,,Mostly Cloudy
KIGQ,04/01/2018 00:35 UTC,29.99,46.04,32.18,58.19,12.66,330.0,,,,,,444.0,,,,10.0,,KIGQ 010035Z AUTO 33011KT 10SM OVC044 08/00 A2999 RMK AO2  T00780001,,,4400.0,,,32.02,,NNW,29.34,29.48,,Overcast
KIGQ,04/01/2018 00:55 UTC,30.01,45.14,32.0,59.78,11.5,330.0,17.27,,,,,464.0,,,,10.0,,KIGQ 010055Z AUTO 33010G15KT 300V360 10SM OVC046 07/00 A3001 RMK AO2 T00730000,,,4600.0,,,31.85,,NNW,29.36,29.51,,Overcast
KIGQ,04/01/2018 01:15 UTC,30.03,44.24,31.82,61.41,6.91,340.0,17.27,,,,,464.0,,,,10.0,,KIGQ 010115Z AUTO 34006G15KT 10SM OVC046 07/00 A3003 RMK AO2  T00681001,,,4600.0,,,31.67,,NNW,29.38,29.54,,Overcast
KIGQ,04/01/2018 01:35 UTC,30.05,41.54,32.9,71.15,8.05,10.0,,,,,,444.0,,,,10.0,,KIGQ 010135Z AUTO 01007KT 10SM OVC044 05/01 A3005 RMK AO2  T00530005,,,4400.0,,,32.78,38.28,N,29.4,29.56,,Overcast
KIGQ,04/01/2018 01:55 UTC,30.07,40.46,32.0,71.54,9.22,10.0,,,,,,424.0,,,,10.0,,KIGQ 010155Z AUTO 01008KT 10SM OVC042 05/00 A3007 RMK AO2  T00470000,,,4200.0,,,31.88,36.49,N,29.42,29.6,,Overcast
KIGQ,04/01/2018 02:15 UTC,30.08,39.56,32.54,75.72,8.05,20.0,,,,,,424.0,,,,10.0,,KIGQ 010215Z AUTO 02007KT 10SM OVC042 04/00 A3008 RMK AO2  T00420003,,,4200.0,,,32.44,35.96,NNE,29.43,29.61,,Overcast
KIGQ,04/01/2018 02:35 UTC,30.09,39.2,32.18,75.69,9.22,10.0,,,,,,424.0,,,,10.0,,KIGQ 010235Z AUTO 01008KT 10SM OVC042 04/00 A3009 RMK AO2  T00400001,,,4200.0,,,32.08,34.99,N,29.44,29.63,,Overcast
KIGQ,04/01/2018 02:55 UTC,30.1,39.2,31.82,74.6,5.75,360.0,,,,,,404.0,,,,10.0,,KIGQ 010255Z AUTO 36005KT 10SM OVC040 04/00 A3010 RMK AO2  T00401001,,,4000.0,,,31.72,,N,29.45,29.64,,Overcast
KIGQ,04/01/2018 03:15 UTC,30.11,38.66,31.46,75.09,3.44,350.0,,,,,,403.0,,,,10.0,,KIGQ 010315Z AUTO 35003KT 10SM BKN040 04/00 A3011 RMK AO2  T00371003,,,4000.0,,,31.36,,N,29.46,29.66,,Mostly Cloudy
KIGQ,04/01/2018 03:35 UTC,30.11,39.56,29.48,66.89,8.05,340.0,,,,,,383.0,,,,10.0,,KIGQ 010335Z AUTO 34007KT 10SM BKN038 04/M01 A3011 RMK AO2  T00421014,,,3800.0,,,29.34,35.96,NNW,29.46,29.69,,Mostly Cloudy
KIGQ,04/01/2018 03:55 UTC,30.13,39.02,28.58,65.84,8.05,330.0,,,,,,364.0,,,,10.0,,KIGQ 010355Z AUTO 33007KT 10SM OVC036 04/M02 A3013 RMK AO2  T00391019,,,3600.0,,,28.44,35.32,NNW,29.47,29.71,,Overcast
KIGQ,04/01/2018 04:15 UTC,30.14,37.58,27.86,67.63,16.11,320.0,20.71,,,,,364.0,,,,10.0,,KIGQ 010415Z AUTO 32014G18KT 10SM OVC036 03/M02 A3014 RMK AO2  T00311023,,,3600.0,,,27.72,30.64,NW,29.48,29.74,,Overcast
KIGQ,04/01/2018 04:35 UTC,30.15,36.5,27.32,69.02,9.22,340.0,,,,,,403.0,,,,10.0,,KIGQ 010435Z AUTO 34008KT 10SM BKN040 03/M03 A3015 RMK AO2  T00251026,,,4000.0,,,27.19,31.79,NNW,29.49,29.77,,Mostly Cloudy
KIGQ,04/01/2018 04:55 UTC,30.16,35.42,25.7,67.37,6.91,340.0,16.11,,,,,402.0,,,,10.0,,KIGQ 010455Z AUTO 34006G14KT 10SM SCT040 02/M03 A3016 RMK AO2  T00191035,,,,,,25.56,,NNW,29.5,29.81,,Partly Cloudy
KIGQ,04/01/2018 05:15 UTC,30.16,34.88,24.98,66.8,12.66,330.0,,,,,,1.0,,,,10.0,,KIGQ 010515Z AUTO 33011KT 10SM CLR 02/M04 A3016 RMK AO2  T00161039,,,,,,24.84,28.43,NNW,29.5,29.82,,Clear
KIGQ,04/01/2018 05:35 UTC,30.17,34.16,23.9,65.71,9.22,320.0,18.41,,,,,1.0,,,,10.0,,KIGQ 010535Z AUTO 32008G16KT 10SM CLR 01/M04 A3017 RMK AO2  T00121045,,,,,,23.75,29.01,NW,29.51,29.84,,Clear
KIGQ,04/01/2018 05:55 UTC,30.17,33.98,23.72,65.68,6.91,330.0,,,,,,1.0,,,,10.0,,KIGQ 010555Z AUTO 33006KT 10SM CLR 01/M05 A3017 RMK AO2 T00111046  10088 20011 401591002,47.84,33.98,,60.62,31.64,23.57,,NNW,29.51,29.85,,Clear
KIGQ,04/01/2018 06:15 UTC,30.18,33.62,23.36,65.64,5.75,320.0,,,,,,1.0,,,,10.0,,KIGQ 010615Z AUTO 32005KT 10SM CLR 01/M05 A3018 RMK AO2  T00091048,,,,,,23.21,,NW,29.52,29.86,,Clear
KIGQ,04/01/2018 06:35 UTC,30.18,33.08,23.0,66.06,10.36,330.0,,,,,,1.0,,,,10.0,,KIGQ 010635Z AUTO 33009KT 10SM CLR 01/M05 A3018 RMK AO2  T00061050,,,,,,22.85,27.19,NNW,29.52,29.87,,Clear
KIGQ,04/01/2018 06:55 UTC,30.18,32.54,22.64,66.5,9.22,320.0,,,,,,1.0,,,,10.0,,KIGQ 010655Z AUTO 32008KT 10SM CLR 00/M05 A3018 RMK AO2  T00031052,,,,,,22.49,27.09,NW,29.52,29.88,,Clear
KIGQ,04/01/2018 07:15 UTC,30.18,32.0,21.74,65.42,6.91,310.0,,,,,,1.0,,,,10.0,,KIGQ 010715Z AUTO 31006KT 10SM CLR 00/M06 A3018 RMK AO2  T00001057,,,,,,21.59,,NW,29.52,29.89,,Clear
KIGQ,04/01/2018 07:35 UTC,30.19,32.0,21.02,63.45,11.5,320.0,,,,,,1.0,,,,10.0,,KIGQ 010735Z AUTO 32010KT 10SM CLR 00/M06 A3019 RMK AO2  T00001061,,,,,,20.86,25.4,NW,29.53,29.91,,Clear
KIGQ,04/01/2018 07:55 UTC,30.19,31.46,20.66,63.87,4.61,320.0,,,,,,1.0,,,,10.0,,KIGQ 010755Z AUTO 32004KT 10SM CLR 00/M06 A3019 RMK AO2  T10031063,,,,,,20.5,,NW,29.53,29.91,,Clear
KIGQ,04/01/2018 08:15 UTC,30.19,31.28,20.3,63.36,10.36,320.0,,,,,,1.0,,,,10.0,,KIGQ 010815Z AUTO 32009KT 10SM CLR 00/M06 A3019 RMK AO2  T10041065,,,,,,20.14,25.04,NW,29.53,29.92,,Clear
KIGQ,04/01/2018 08:35 UTC,30.19,30.56,20.3,65.23,9.22,320.0,,,,,,1.0,,,,10.0,,KIGQ 010835Z AUTO 32008KT 10SM CLR M01/M06 A3019 RMK AO2  T10081065,,,,,,20.14,24.74,NW,29.53,29.92,,Clear
KIGQ,04/01/2018 08:55 UTC,30.2,30.56,19.94,64.24,8.05,320.0,,,,,,1.0,,,,10.0,,KIGQ 010855Z AUTO 32007KT 10SM CLR M01/M07 A3020 RMK AO2  T10081067,,,,,,19.78,25.38,NW,29.54,29.94,,Clear
KIGQ,04/01/2018 09:15 UTC,30.2,30.02,19.58,64.66,5.75,320.0,,,,,,1.0,,,,10.0,,KIGQ 010915Z AUTO 32005KT 10SM CLR M01/M07 A3020 RMK AO2  T10111069,,,,,,19.42,,NW,29.54,29.94,,Clear
KIGQ,04/01/2018 09:35 UTC,30.21,29.48,19.4,65.59,4.61,320.0,,,,,,1.0,,,,10.0,,KIGQ 010935Z AUTO 32004KT 10SM CLR M01/M07 A3021 RMK AO2  T10141070,,,,,,19.24,,NW,29.55,29.96,,Clear
KIGQ,04/01/2018 09:55 UTC,30.21,29.12,19.4,66.57,3.44,320.0,,,,,,1.0,,,,10.0,,KIGQ 010955Z AUTO 32003KT 10SM CLR M02/M07 A3021 RMK AO2  T10161070,,,,,,19.25,,NW,29.55,29.96,,Clear
KIGQ,04/01/2018 10:15 UTC,30.22,28.4,19.4,68.56,5.75,320.0,,,,,,1.0,,,,10.0,,KIGQ 011015Z AUTO 32005KT 10SM CLR M02/M07 A3022 RMK AO2  T10201070,,,,,,19.26,,NW,29.56,29.97,,Clear
KIGQ,04/01/2018 10:35 UTC,30.22,28.4,18.5,65.96,5.75,340.0,,,,,,1.0,,,,10.0,,KIGQ 011035Z AUTO 34005KT 10SM CLR M02/M07 A3022 RMK AO2  T10201075,,,,,,18.35,,NNW,29.56,29.98,,Clear
KIGQ,04/01/2018 10:55 UTC,30.23,28.04,16.88,62.42,5.75,340.0,,,,,,1.0,,,,10.0,,KIGQ 011055Z AUTO 34005KT 10SM CLR M02/M08 A3023 RMK AO2  T10221084,,,,,,16.71,,NNW,29.57,30.01,,Clear
KIGQ,04/01/2018 11:15 UTC,30.24,27.5,16.34,62.34,4.61,340.0,,,,,,1.0,,,,10.0,,KIGQ 011115Z AUTO 34004KT 10SM CLR M02/M09 A3024 RMK AO2  T10251087,,,,,,16.17,,NNW,29.58,30.02,,Clear
KIGQ,04/01/2018 11:35 UTC,30.24,27.14,16.34,63.28,4.61,330.0,,,,,,1.0,,,,10.0,,KIGQ 011135Z AUTO 33004KT 10SM CLR M03/M09 A3024 RMK AO2  T10271087,,,,,,16.18,,NNW,29.58,30.02,,Clear
KIGQ,04/01/2018 11:55 UTC,30.24,27.14,15.8,61.81,4.61,360.0,,,,,,1.0,,,0.04,10.0,,KIGQ 011155Z AUTO 36004KT 10SM CLR M03/M09 A3024 RMK AO2 70004  T10271090 10011 21030,33.98,26.6,,,,15.63,,N,29.58,30.03,,Clear
KIGQ,04/01/2018 12:15 UTC,30.25,27.32,14.36,57.6,3.44,360.0,,,,,,1.0,,,,10.0,,KIGQ 011215Z AUTO 36003KT 10SM CLR M03/M10 A3025 RMK AO2  T10261098,,,,,,14.17,,N,29.59,30.05,,Clear
KIGQ,04/01/2018 12:35 UTC,30.26,27.5,13.46,54.96,8.05,360.0,,,,,,1.0,,,,10.0,,KIGQ 011235Z AUTO 36007KT 10SM CLR M02/M10 A3026 RMK AO2  T10251103,,,,,,13.26,21.79,N,29.6,30.06,,Clear
KIGQ,04/01/2018 12:55 UTC,30.27,28.04,13.82,54.61,6.91,350.0,,,,,,1.0,,,,10.0,,KIGQ 011255Z AUTO 35006KT 10SM CLR M02/M10 A3027 RMK AO2  T10221101,,,,,,13.62,,N,29.61,30.07,,Clear
KIGQ,04/01/2018 13:15 UTC,30.26,28.58,13.46,52.57,6.91,10.0,,,,,,1.0,,,,10.0,,KIGQ 011315Z AUTO 01006KT 10SM CLR M02/M10 A3026 RMK AO2  T10191103,,,,,,13.25,,N,29.6,30.06,,Clear
KIGQ,04/01/2018 13:35 UTC,30.27,29.12,13.82,52.24,5.75,320.0,,,,,,1.0,,,,10.0,,KIGQ 011335Z AUTO 32005KT 10SM CLR M02/M10 A3027 RMK AO2  T10161101,,,,,,13.61,,NW,29.61,30.07,,Clear
KIGQ,04/01/2018 13:55 UTC,30.27,29.84,13.64,50.33,6.91,330.0,,,,,,1.0,,,,10.0,,KIGQ 011355Z AUTO 33006KT 10SM CLR M01/M10 A3027 RMK AO2  T10121102,,,,,,13.42,,NNW,29.61,30.06,,Clear
KIGQ,04/01/2018 14:15 UTC,30.27,30.2,13.82,49.99,3.44,20.0,,,,,,1.0,,,,10.0,,KIGQ 011415Z AUTO 02003KT 10SM CLR M01/M10 A3027 RMK AO2  T10101101,,,,,,13.6,,NNE,29.61,30.06,,Clear
KIGQ,04/01/2018 14:35 UTC,30.26,30.2,13.46,49.2,0.0,0.0,,,,,,1.0,,,,10.0,,KIGQ 011435Z AUTO 00000KT 10SM CLR M01/M10 A3026 RMK AO2  T10101103,,,,,,13.23,,N,29.6,30.05,,Clear
KIGQ,04/01/2018 14:55 UTC,30.26,31.64,15.44,50.62,3.44,350.0,,,,,,1.0,,,,10.0,,KIGQ 011455Z AUTO 35003KT 10SM CLR 00/M09 A3026 RMK AO2  T10021092,,,,,,15.22,,N,29.6,30.03,,Clear
KIGQ,04/01/2018 15:15 UTC,30.27,31.64,14.36,48.28,4.61,320.0,,,,,,1.0,,,,10.0,,KIGQ 011515Z AUTO 32004KT 10SM CLR 00/M10 A3027 RMK AO2  T10021098,,,,,,14.13,,NW,29.61,30.05,,Clear
KIGQ,04/01/2018 15:35 UTC,30.28,32.18,14.18,46.87,0.0,0.0,,,,,,1.0,,,,10.0,,KIGQ 011535Z AUTO 00000KT 10SM CLR 00/M10 A3028 RMK AO2  T00011099,,,,,,13.95,,N,29.62,30.06,,Clear
KIGQ,04/01/2018 15:55 UTC,30.28,32.0,14.9,48.73,3.44,10.0,,,,,,1002.0,,,,10.0,,KIGQ 011555Z AUTO 01003KT 10SM SCT100 00/M09 A3028 RMK AO2  T00001095,,,,,,14.67,,N,29.62,30.05,,Partly Cloudy
KIGQ,04/01/2018 16:15 UTC,30.27,33.62,15.44,46.75,4.61,260.0,,,,,,1002.0,,,,10.0,,KIGQ 011615Z AUTO 26004KT 10SM SCT100 01/M09 A3027 RMK AO2  T00091092,,,,,,15.21,,W,29.61,30.03,,Partly Cloudy
KIGQ,04/01/2018 16:35 UTC,30.27,33.08,14.72,46.29,0.0,0.0,,,,,,1102.0,,,,10.0,,KIGQ 011635Z AUTO 00000KT 10SM SCT110 01/M10 A3027 RMK AO2  T00061096,,,,,,14.49,,N,29.61,30.04,,Partly Cloudy
KIGQ,04/01/2018 16:55 UTC,30.27,33.44,14.36,44.91,0.0,0.0,,,,,,1002.0,,,,10.0,,KIGQ 011655Z AUTO 00000KT 10SM SCT100 01/M10 A3027 RMK AO2  T00081098,,,,,,14.12,,N,29.61,30.04,,Partly Cloudy
KIGQ,04/01/2018 17:15 UTC,30.27,34.34,15.26,45.06,0.0,0.0,,,,,,1002.0,,,,10.0,,KIGQ 011715Z AUTO 00000KT 10SM SCT100 01/M09 A3027 RMK AO2  T00131093,,,,,,15.02,,N,29.61,30.03,,Partly Cloudy
KIGQ,04/01/2018 17:35 UTC,30.27,35.24,16.52,45.93,0.0,0.0,,,,,,1102.0,,,,10.0,,KIGQ 011735Z AUTO 00000KT 10SM SCT110 02/M09 A3027 RMK AO2  T00181086,,,,,,16.29,,N,29.61,30.02,,Partly Cloudy
KIGQ,04/01/2018 17:55 UTC,30.26,35.78,16.52,44.96,0.0,0.0,,,,,,1.0,,,,10.0,,KIGQ 011755Z AUTO 00000KT 10SM CLR 02/M09 A3026 RMK AO2 T00211086  10022 21027,35.96,27.14,,,,16.29,,N,29.6,30.0,,Clear
KIGQ,04/01/2018 18:15 UTC,30.25,35.42,16.52,45.6,11.5,260.0,,,,,,1.0,,,,10.0,,KIGQ 011815Z AUTO 26010KT 10SM CLR 02/M09 A3025 RMK AO2  T00191086,,,,,,16.28,29.53,W,29.59,30.0,,Clear
KIGQ,04/01/2018 18:35 UTC,30.25,36.5,17.78,46.14,4.61,300.0,,,,,,1002.0,,,,10.0,,KIGQ 011835Z AUTO 30004KT 10SM SCT100 03/M08 A3025 RMK AO2  T00251079,,,,,,17.55,,WNW,29.59,29.98,,Partly Cloudy
KIGQ,04/01/2018 18:55 UTC,30.24,35.96,17.24,46.05,4.61,250.0,,,,,,1002.0,,,,10.0,,KIGQ 011855Z AUTO 25004KT 10SM SCT100 02/M08 A3024 RMK AO2  T00221082,,,,,,17.01,,WSW,29.58,29.98,,Partly Cloudy
KIGQ,04/01/2018 19:15 UTC,30.24,35.6,15.8,43.88,11.5,270.0,,,,,,1003.0,,,,10.0,,KIGQ 011915Z AUTO 27010KT 10SM BKN100 02/M09 A3024 RMK AO2  T00201090,,,10000.0,,,15.56,29.74,W,29.58,29.99,,Mostly Cloudy
KIGQ,04/01/2018 19:35 UTC,30.22,35.42,17.6,47.79,10.36,270.0,,,,,,1004.0,,,,10.0,,KIGQ 011935Z AUTO 27009KT 10SM OVC100 02/M08 A3022 RMK AO2  T00191080,,,10000.0,,,17.37,29.99,W,29.56,29.95,,Overcast
KIGQ,04/01/2018 19:55 UTC,30.22,34.88,15.62,44.8,11.5,270.0,,,,,,1003.0,,,,10.0,,KIGQ 011955Z AUTO 27010KT 10SM BKN100 02/M09 A3022 RMK AO2  T00161091,,,10000.0,,,15.38,28.88,W,29.56,29.97,,Mostly Cloudy
KIGQ,04/01/2018 20:15 UTC,30.21,35.24,15.44,43.82,8.05,250.0,21.85,,,,,1002.0,,,,10.0,,KIGQ 012015Z AUTO 25007G19KT 10SM SCT100 02/M09 A3021 RMK AO2  T00181092,,,,,,15.2,30.88,WSW,29.55,29.96,,Partly Cloudy
KIGQ,04/01/2018 20:35 UTC,30.19,35.06,17.06,47.36,4.61,310.0,,,,,,1002.0,,,,10.0,,KIGQ 012035Z AUTO 31004KT 10SM SCT100 02/M08 A3019 RMK AO2  T00171083,,,,,,16.83,,NW,29.53,29.93,,Partly Cloudy
KIGQ,04/01/2018 20:55 UTC,30.19,34.88,16.52,46.59,6.91,260.0,,,,,,1.0,,,,10.0,,KIGQ 012055Z AUTO 26006KT 10SM CLR 02/M09 A3019 RMK AO2  T00161086,,,,,,16.29,,W,29.53,29.94,,Clear
KIGQ,04/01/2018 21:15 UTC,30.17,34.7,16.52,46.93,5.75,300.0,,,,,,1102.0,,,,10.0,,KIGQ 012115Z AUTO 30005KT 10SM SCT110 02/M09 A3017 RMK AO2  T00151086,,,,,,16.29,,WNW,29.51,29.92,,Partly Cloudy
KIGQ,04/01/2018 21:35 UTC,30.16,34.7,15.8,45.48,3.44,270.0,,,,,,1003.0,1203.0,,,10.0,,KIGQ 012135Z AUTO 27003KT 10SM BKN100 BKN120 02/M09 A3016 RMK AO2  T00151090,,,10000.0,,,15.56,,W,29.5,29.91,,Mostly Cloudy
KIGQ,04/01/2018 21:55 UTC,30.16,34.34,15.08,44.71,3.44,230.0,,,,,,1003.0,,,,10.0,,KIGQ 012155Z AUTO 23003KT 10SM BKN100 01/M09 A3016 RMK AO2  T00131094,,,10000.0,,,14.84,,SW,29.5,29.92,,Mostly Cloudy
KIGQ,04/01/2018 22:15 UTC,30.15,34.16,14.36,43.63,3.44,270.0,,,,,,1004.0,,,,10.0,,KIGQ 012215Z AUTO 27003KT 10SM OVC100 01/M10 A3015 RMK AO2  T00121098,,,10000.0,,,14.11,,W,29.49,29.92,,Overcast
KIGQ,04/01/2018 22:35 UTC,30.15,33.8,14.54,44.62,3.44,270.0,,,,,,1004.0,,,,10.0,,KIGQ 012235Z AUTO 27003KT 10SM OVC100 01/M10 A3015 RMK AO2  T00101097,,,10000.0,,,14.3,,W,29.49,29.92,,Overcast
KIGQ,04/01/2018 22:55 UTC,30.16,33.8,14.72,44.97,6.91,270.0,,,,,,1004.0,,,,10.0,,KIGQ 012255Z AUTO 27006KT 10SM OVC100 01/M10 A3016 RMK AO2  T00101096,,,10000.0,,,14.48,,W,29.5,29.93,,Overcast
KIGQ,04/01/2018 23:15 UTC,30.15,33.62,14.36,44.59,4.61,280.0,,,,,,1004.0,,,,10.0,,KIGQ 012315Z AUTO 28004KT 10SM OVC100 01/M10 A3015 RMK AO2  T00091098,,,10000.0,,,14.12,,W,29.49,29.92,,Overcast
KIGQ,04/01/2018 23:35 UTC,30.15,33.44,14.54,45.27,5.75,260.0,,,,,,1104.0,,,,10.0,,KIGQ 012335Z AUTO 26005KT 10SM OVC110 01/M10 A3015 RMK AO2  T00081097,,,11000.0,,,14.3,,W,29.49,29.92,,Overcast
KIGQ,04/01/2018 23:55 UTC,30.15,33.08,14.54,45.92,6.91,270.0,,,,,,1204.0,,,,10.0,,KIGQ 012355Z AUTO 27006KT 10SM OVC120 01/M10 A3015 RMK AO2  T00061097 10026 20006,36.68,33.08,12000.0,,,14.3,,W,29.49,29.92,,Overcast
KIGQ,04/02/2018 00:15 UTC,30.16,32.72,14.72,46.96,6.91,280.0,,,,,,1202.0,,,,10.0,,KIGQ 020015Z AUTO 28006KT 10SM SCT120 00/M10 A3016 RMK AO2  T00041096,,,,,,14.49,,W,29.5,29.93,,Partly Cloudy
KIGQ,04/02/2018 00:35 UTC,30.15,32.36,15.08,48.41,8.05,270.0,,,,,,1.0,,,,10.0,,KIGQ 020035Z AUTO 27007KT 10SM CLR 00/M09 A3015 RMK AO2  T00021094,,,,,,14.85,27.5,W,29.49,29.92,,Clear
KIGQ,04/02/2018 00:55 UTC,30.16,32.0,15.62,50.29,8.05,260.0,,,,,,1202.0,,,,10.0,,KIGQ 020055Z AUTO 26007KT 10SM SCT120 00/M09 A3016 RMK AO2  T00001091,,,,,,15.4,27.08,W,29.5,29.93,,Partly Cloudy
KIGQ,04/02/2018 01:15 UTC,30.16,32.0,14.54,47.96,8.05,270.0,,,,,,1103.0,,,,10.0,,KIGQ 020115Z AUTO 27007KT 10SM BKN110 00/M10 A3016 RMK AO2  T00001097,,,11000.0,,,14.31,27.08,W,29.5,29.94,,Mostly Cloudy
KIGQ,04/02/2018 01:35 UTC,30.16,32.0,15.62,50.29,8.05,270.0,,,,,,1202.0,,,,10.0,,KIGQ 020135Z AUTO 27007KT 10SM SCT120 00/M09 A3016 RMK AO2  T00001091,,,,,,15.4,27.08,W,29.5,29.93,,Partly Cloudy
KIGQ,04/02/2018 01:55 UTC,30.16,30.56,15.26,52.47,4.61,290.0,,,,,,1.0,,,,10.0,,KIGQ 020155Z AUTO 29004KT 10SM CLR M01/M09 A3016 RMK AO2  T10081093,,,,,,15.05,,WNW,29.5,29.94,,Clear
KIGQ,04/02/2018 02:15 UTC,30.16,30.02,14.18,51.16,5.75,280.0,,,,,,1.0,,,,10.0,,KIGQ 020215Z AUTO 28005KT 10SM CLR M01/M10 A3016 RMK AO2  T10111099,,,,,,13.96,,W,29.5,29.95,,Clear
KIGQ,04/02/2018 02:35 UTC,30.16,29.66,14.0,51.51,4.61,280.0,,,,,,1.0,,,,10.0,,KIGQ 020235Z AUTO 28004KT 10SM CLR M01/M10 A3016 RMK AO2  T10131100,,,,,,13.78,,W,29.5,29.95,,Clear
KIGQ,04/02/2018 02:55 UTC,30.16,29.12,14.54,53.92,3.44,280.0,,,,,,1.0,,,,10.0,,KIGQ 020255Z AUTO 28003KT 10SM CLR M02/M10 A3016 RMK AO2  T10161097,,,,,,14.33,,W,29.5,29.95,,Clear
KIGQ,04/02/2018 03:15 UTC,30.16,27.68,14.9,58.11,5.75,280.0,,,,,,1.0,,,,10.0,,KIGQ 020315Z AUTO 28005KT 10SM CLR M02/M09 A3016 RMK AO2  T10241095,,,,,,14.71,,W,29.5,29.95,,Clear
KIGQ,04/02/2018 03:35 UTC,30.16,28.22,15.08,57.29,4.61,270.0,,,,,,1.0,,,,10.0,,KIGQ 020335Z AUTO 27004KT 10SM CLR M02/M09 A3016 RMK AO2  T10211094,,,,,,14.89,,W,29.5,29.95,,Clear
KIGQ,04/02/2018 03:55 UTC,30.16,26.42,15.8,63.67,5.75,260.0,,,,,,1.0,,,,10.0,,KIGQ 020355Z AUTO 26005KT 10SM CLR M03/M09 A3016 RMK AO2  T10311090,,,,,,15.63,,W,29.5,29.95,,Clear
KIGQ,04/02/2018 04:15 UTC,30.16,25.7,16.34,67.17,4.61,250.0,,,,,,1.0,,,,10.0,,KIGQ 020415Z AUTO 25004KT 10SM CLR M03/M09 A3016 RMK AO2  T10351087,,,,,,16.19,,WSW,29.5,29.95,,Clear
KIGQ,04/02/2018 04:35 UTC,30.16,24.8,16.52,70.28,5.75,260.0,,,,,,1.0,,,,10.0,,KIGQ 020435Z AUTO 26005KT 10SM CLR M04/M09 A3016 RMK AO2  T10401086,,,,,,16.38,,W,29.5,29.95,,Clear
KIGQ,04/02/2018 04:55 UTC,30.15,24.8,16.88,71.39,4.61,260.0,,,,,,1.0,,,,10.0,,KIGQ 020455Z AUTO 26004KT 10SM CLR M04/M08 A3015 RMK AO2  T10401084,,,,,,16.75,,W,29.49,29.94,,Clear
KIGQ,04/02/2018 05:15 UTC,30.15,24.8,16.88,71.39,5.75,280.0,,,,,,1.0,,,,10.0,,KIGQ 020515Z AUTO 28005KT 10SM CLR M04/M08 A3015 RMK AO2  T10401084,,,,,,16.75,,W,29.49,29.94,,Clear
KIGQ,04/02/2018 05:35 UTC,30.15,24.8,16.7,70.83,5.75,270.0,,,,,,1.0,,,,10.0,,KIGQ 020535Z AUTO 27005KT 10SM CLR M04/M08 A3015 RMK AO2  T10401085,,,,,,16.57,,W,29.49,29.94,,Clear
KIGQ,04/02/2018 05:55 UTC,30.15,24.44,17.24,73.61,4.61,260.0,,,,,,1.0,,,,10.0,,KIGQ 020555Z AUTO 26004KT 10SM CLR M04/M08 A3015 RMK AO2 T10421082  10006 21044 400261044,33.08,24.08,,36.68,24.08,17.12,,W,29.49,29.94,,Clear
KIGQ,04/02/2018 06:15 UTC,30.15,23.9,16.88,74.13,3.44,250.0,,,,,,1.0,,,,10.0,,KIGQ 020615Z AUTO 25003KT 10SM CLR M04/M08 A3015 RMK AO2  T10451084,,,,,,16.76,,WSW,29.49,29.94,,Clear
KIGQ,04/02/2018 06:35 UTC,30.15,23.54,16.88,75.26,3.44,250.0,,,,,,1.0,,,,10.0,,KIGQ 020635Z AUTO 25003KT 10SM CLR M05/M08 A3015 RMK AO2  T10471084,,,,,,16.77,,WSW,29.49,29.95,,Clear
KIGQ,04/02/2018 06:55 UTC,30.15,23.0,16.88,76.98,0.0,0.0,,,,,,1.0,,,,10.0,,KIGQ 020655Z AUTO 00000KT 10SM CLR M05/M08 A3015 RMK AO2  T10501084,,,,,,16.77,,N,29.49,29.95,,Clear
KIGQ,04/02/2018 07:15 UTC,30.15,23.9,17.06,74.71,0.0,0.0,,,,,,1.0,,,,10.0,,KIGQ 020715Z AUTO 00000KT 10SM CLR M04/M08 A3015 RMK AO2  T10451083,,,,,,16.95,,N,29.49,29.94,,Clear
KIGQ,04/02/2018 07:35 UTC,30.15,22.82,16.7,76.97,3.44,270.0,,,,,,1.0,,,,10.0,,KIGQ 020735Z AUTO 27003KT 10SM CLR M05/M08 A3015 RMK AO2  T10511085,,,,,,16.6,,W,29.49,29.95,,Clear
KIGQ,04/02/2018 07:55 UTC,30.15,22.82,17.06,78.18,3.44,280.0,,,,,,1.0,,,,10.0,,KIGQ 020755Z AUTO 28003KT 10SM CLR M05/M08 A3015 RMK AO2  T10511083,,,,,,16.96,,W,29.49,29.95,,Clear
KIGQ,04/02/2018 08:15 UTC,30.14,23.0,16.7,76.39,0.0,0.0,,,,,,1.0,,,,10.0,,KIGQ 020815Z AUTO 00000KT 10SM CLR M05/M08 A3014 RMK AO2  T10501085,,,,,,16.59,,N,29.48,29.94,,Clear
KIGQ,04/02/2018 08:35 UTC,30.14,22.46,16.7,78.14,3.44,270.0,,,,,,1.0,,,,10.0,,KIGQ 020835Z AUTO 27003KT 10SM CLR M05/M08 A3014 RMK AO2  T10531085,,,,,,16.6,,W,29.48,29.94,,Clear
KIGQ,04/02/2018 08:55 UTC,30.14,22.64,16.7,77.55,0.0,0.0,,,,,,1.0,,,,10.0,,KIGQ 020855Z AUTO 00000KT 10SM CLR M05/M08 A3014 RMK AO2  T10521085,,,,,,16.6,,N,29.48,29.94,,Clear
KIGQ,04/02/2018 09:15 UTC,30.14,22.28,16.52,78.13,0.0,0.0,,,,,,1.0,,,,10.0,,KIGQ 020915Z AUTO 00000KT 10SM CLR M05/M09 A3014 RMK AO2  T10541086,,,,,,16.42,,N,29.48,29.94,,Clear
KIGQ,04/02/2018 09:35 UTC,30.14,19.22,15.44,84.91,0.0,0.0,,,,,,1.0,,,,10.0,,KIGQ 020935Z AUTO 00000KT 10SM CLR M07/M09 A3014 RMK AO2  T10711092,,,,,,15.37,,N,29.48,29.97,,Clear
KIGQ,04/02/2018 09:55 UTC,30.14,19.4,15.26,83.6,3.44,220.0,,,,,,1.0,,,,10.0,,KIGQ 020955Z AUTO 22003KT 10SM CLR M07/M09 A3014 RMK AO2  T10701093,,,,,,15.19,,SW,29.48,29.97,,Clear
KIGQ,04/02/2018 10:15 UTC,30.15,17.42,14.18,86.83,0.0,0.0,,,,,,1.0,,,,10.0,,KIGQ 021015Z AUTO 00000KT 10SM CLR M08/M10 A3015 RMK AO2  T10811099,,,,,,14.12,,N,29.49,29.99,,Clear
KIGQ,04/02/2018 10:35 UTC,30.15,18.86,16.16,88.98,0.0,0.0,,,,,,1.0,,,,10.0,,KIGQ 021035Z AUTO 00000KT 10SM CLR M07/M09 A3015 RMK AO2  T10731088,,,,,,16.11,,N,29.49,29.97,,Clear
KIGQ,04/02/2018 10:55 UTC,30.15,18.5,15.08,86.21,0.0,0.0,,,,,,1.0,,,,10.0,,KIGQ 021055Z AUTO 00000KT 10SM CLR M07/M09 A3015 RMK AO2  T10751094,,,,,,15.02,,N,29.49,29.98,,Clear
KIGQ,04/02/2018 11:15 UTC,30.14,18.68,15.8,88.28,0.0,0.0,,,,,,1.0,,,,10.0,,KIGQ 021115Z AUTO 00000KT 10SM CLR M07/M09 A3014 RMK AO2  T10741090,,,,,,15.75,,N,29.48,29.97,,Clear
KIGQ,04/02/2018 11:35 UTC,30.13,18.68,15.8,88.28,3.44,180.0,,,,,,1.0,,,,10.0,,KIGQ 021135Z AUTO 18003KT 10SM CLR M07/M09 A3013 RMK AO2  T10741090,,,,,,15.75,,S,29.47,29.96,,Clear
KIGQ,04/02/2018 11:55 UTC,30.13,19.58,16.88,89.02,0.0,0.0,,,,,,1.0,,,,10.0,,KIGQ 021155Z AUTO 00000KT 10SM CLR M07/M08 A3013 RMK AO2 T10691084  11041 21085,24.62,16.7,,,,16.83,,N,29.47,29.94,,Clear
KIGQ,04/02/2018 12:15 UTC,30.13,19.94,17.24,89.03,0.0,0.0,,,,,,1.0,,,,10.0,,KIGQ 021215Z AUTO 00000KT 10SM CLR M07/M08 A3013 RMK AO2  T10671082,,,,,,17.19,,N,29.47,29.94,,Clear
KIGQ,04/02/2018 12:35 UTC,30.14,22.1,18.68,86.43,0.0,0.0,,,,,,1.0,,,,10.0,,KIGQ 021235Z AUTO 00000KT 10SM CLR M05/M07 A3014 RMK AO2  T10551074,,,,,,18.62,,N,29.48,29.93,,Clear
KIGQ,04/02/2018 12:55 UTC,30.15,23.9,20.48,86.54,0.0,0.0,,,,,,1.0,,,,10.0,,KIGQ 021255Z AUTO 00000KT 10SM CLR M04/M06 A3015 RMK AO2  T10451064,,,,,,20.42,,N,29.49,29.91,,Clear
KIGQ,04/02/2018 13:15 UTC,30.15,26.06,20.48,79.08,0.0,0.0,,,,,,1.0,,,,10.0,,KIGQ 021315Z AUTO 00000KT 10SM CLR M03/M06 A3015 RMK AO2  T10331064,,,,,,20.39,,N,29.49,29.9,,Clear
KIGQ,04/02/2018 13:35 UTC,30.14,27.5,20.84,75.66,0.0,0.0,,,,,,1.0,,,,10.0,,KIGQ 021335Z AUTO 00000KT 10SM CLR M02/M06 A3014 RMK AO2  T10251062,,,,,,20.73,,N,29.48,29.88,,Clear
KIGQ,04/02/2018 13:55 UTC,30.15,29.12,21.02,71.33,0.0,0.0,,,,,,1.0,,,,10.0,,KIGQ 021355Z AUTO 00000KT 10SM CLR M02/M06 A3015 RMK AO2  T10161061,,,,,,20.89,,N,29.49,29.88,,Clear
KIGQ,04/02/2018 14:15 UTC,30.14,31.28,21.92,67.87,4.61,120.0,,,,,,1.0,,,,10.0,,KIGQ 021415Z AUTO 12004KT 10SM CLR 00/M06 A3014 RMK AO2  T10041056,,,,,,21.78,,ESE,29.48,29.85,,Clear
KIGQ,04/02/2018 14:35 UTC,30.15,32.54,21.56,63.53,5.75,130.0,,,,,,1.0,,,,10.0,,KIGQ 021435Z AUTO 13005KT 10SM CLR 00/M06 A3015 RMK AO2  T00031058,,,,,,21.4,,SE,29.49,29.86,,Clear
KIGQ,04/02/2018 14:55 UTC,30.15,33.98,19.58,55.11,5.75,120.0,,,,,,1.0,,,,10.0,,KIGQ 021455Z AUTO 12005KT 10SM CLR 01/M07 A3015 RMK AO2  T00111069,,,,,,19.38,,ESE,29.49,29.87,,Clear
KIGQ,04/02/2018 15:15 UTC,30.14,34.16,19.4,54.29,6.91,140.0,,,,,,1.0,,,,10.0,,KIGQ 021515Z AUTO 14006KT 10SM CLR 01/M07 A3014 RMK AO2  T00121070,,,,,,19.2,,SE,29.48,29.86,,Clear
KIGQ,04/02/2018 15:35 UTC,30.14,34.88,19.22,52.35,0.0,0.0,,,,,,1.0,,,,10.0,,KIGQ 021535Z AUTO 00000KT 10SM CLR 02/M07 A3014 RMK AO2  T00161071,,,,,,19.01,,N,29.48,29.86,,Clear
KIGQ,04/02/2018 15:55 UTC,30.14,37.04,19.76,49.18,6.91,150.0,,,,,,1.0,,,,10.0,,KIGQ 021555Z AUTO 15006KT 10SM CLR 03/M07 A3014 RMK AO2  T00281068,,,,,,19.54,,SSE,29.48,29.84,,Clear
KIGQ,04/02/2018 16:15 UTC,30.13,37.22,18.5,46.26,4.61,170.0,,,,,,1.0,,,,10.0,,KIGQ 021615Z AUTO 17004KT 10SM CLR 03/M07 A3013 RMK AO2  T00291075,,,,,,18.27,,S,29.47,29.85,,Clear
KIGQ,04/02/2018 16:35 UTC,30.11,39.38,19.4,44.18,10.36,170.0,,,,,,1.0,,,,10.0,,KIGQ 021635Z AUTO 17009KT 10SM CLR 04/M07 A3011 RMK AO2  T00411070,,,,,,19.17,34.74,S,29.46,29.82,,Clear
KIGQ,04/02/2018 16:55 UTC,30.1,39.56,20.84,46.66,11.5,130.0,,,,,,1.0,,,,10.0,,KIGQ 021655Z AUTO 13010KT 10SM CLR 04/M06 A3010 RMK AO2  T00421062,,,,,,20.62,34.52,SE,29.45,29.79,,Clear
KIGQ,04/02/2018 17:15 UTC,30.1,39.92,19.94,44.28,10.36,180.0,16.11,,,,,1.0,,,,10.0,,KIGQ 021715Z AUTO 18009G14KT 10SM CLR 04/M07 A3010 RMK AO2  T00441067,,,,,,19.71,35.38,S,29.45,29.8,,Clear
KIGQ,04/02/2018 17:35 UTC,30.08,40.82,21.38,45.46,8.05,170.0,16.11,,,,,1.0,,,,10.0,,KIGQ 021735Z AUTO 17007G14KT 10SM CLR 05/M06 A3008 RMK AO2  T00491059,,,,,,21.16,37.44,S,29.43,29.76,,Clear
KIGQ,04/02/2018 17:55 UTC,30.08,41.72,22.28,45.61,8.05,170.0,,,,,,1.0,,,,10.0,,KIGQ 021755Z AUTO 17007KT 10SM CLR 05/M05 A3008 RMK AO2 T00541054  10054 21075,41.72,18.5,,,,22.06,38.49,S,29.43,29.74,,Clear
KIGQ,04/02/2018 18:15 UTC,30.07,41.72,23.54,48.1,8.05,200.0,,,,,,1.0,,,,10.0,,KIGQ 021815Z AUTO 20007KT 10SM CLR 05/M05 A3007 RMK AO2  T00541047,,,,,,23.33,38.49,SSW,29.42,29.72,,Clear
KIGQ,04/02/2018 18:35 UTC,30.07,42.44,23.72,47.14,9.22,130.0,,,,,,1.0,,,,10.0,,KIGQ 021835Z AUTO 13008KT 10SM CLR 06/M05 A3007 RMK AO2  T00581046,,,,,,23.51,38.84,SE,29.42,29.71,,Clear
KIGQ,04/02/2018 18:55 UTC,30.06,42.26,24.08,48.19,9.22,170.0,16.11,,,,,1.0,,,,10.0,,KIGQ 021855Z AUTO 17008G14KT 10SM CLR 06/M04 A3006 RMK AO2  T00571044,,,,,,23.87,38.62,S,29.41,29.7,,Clear
KIGQ,04/02/2018 19:15 UTC,30.05,41.9,23.54,47.76,9.22,190.0,,,,,,1.0,,,,10.0,,KIGQ 021915Z AUTO 19008KT 10SM CLR 06/M05 A3005 RMK AO2  T00551047,,,,,,23.33,38.2,S,29.4,29.7,,Clear
KIGQ,04/02/2018 19:35 UTC,30.03,42.26,24.44,48.92,6.91,160.0,,,,,,1.0,,,,10.0,,KIGQ 021935Z AUTO 16006KT 10SM CLR 06/M04 A3003 RMK AO2  T00571042,,,,,,24.23,,SSE,29.38,29.66,,Clear
KIGQ,04/02/2018 19:55 UTC,30.01,42.62,24.8,48.98,8.05,160.0,,,,,,1.0,,,,10.0,,KIGQ 021955Z AUTO 16007KT 10SM CLR 06/M04 A3001 RMK AO2  T00591040,,,,,,24.6,39.55,SSE,29.36,29.63,,Clear
KIGQ,04/02/2018 20:15 UTC,29.99,42.8,24.8,48.64,6.91,150.0,,,,,,1.0,,,,10.0,,KIGQ 022015Z AUTO 15006KT 10SM CLR 06/M04 A2999 RMK AO2  T00601040,,,,,,24.59,,SSE,29.34,29.61,,Clear
KIGQ,04/02/2018 20:35 UTC,29.98,42.98,24.98,48.67,9.22,140.0,,,,,,1.0,,,,10.0,,KIGQ 022035Z AUTO 14008KT 10SM CLR 06/M04 A2998 RMK AO2  T00611039,,,,,,24.78,39.48,SE,29.33,29.6,,Clear
KIGQ,04/02/2018 20:55 UTC,29.96,42.98,25.34,49.4,9.22,140.0,,,,,,1.0,,,,10.0,,KIGQ 022055Z AUTO 14008KT 10SM CLR 06/M04 A2996 RMK AO2  T00611037,,,,,,25.14,39.48,SE,29.31,29.57,,Clear
KIGQ,04/02/2018 21:15 UTC,29.95,42.62,25.7,50.85,10.36,100.0,,,,,,1.0,,,,10.0,,KIGQ 022115Z AUTO 10009KT 10SM CLR 06/M03 A2995 RMK AO2  T00591035,,,,,,25.5,38.62,E,29.3,29.56,,Clear
KIGQ,04/02/2018 21:35 UTC,29.95,42.8,24.98,49.0,9.22,130.0,17.27,,,,,1.0,,,,10.0,,KIGQ 022135Z AUTO 13008G15KT 10SM CLR 06/M04 A2995 RMK AO2  T00601039,,,,,,24.77,39.27,SE,29.3,29.57,,Clear
KIGQ,04/02/2018 21:55 UTC,29.94,43.7,26.24,49.89,9.22,150.0,,,,,,1.0,,,,10.0,,KIGQ 022155Z AUTO 15008KT 10SM CLR 07/M03 A2994 RMK AO2  T00651032,,,,,,26.04,40.33,SSE,29.29,29.54,,Clear
KIGQ,04/02/2018 22:15 UTC,29.95,43.7,26.42,50.26,13.8,160.0,,,,,,1.0,,,,10.0,,KIGQ 022215Z AUTO 16012KT 10SM CLR 07/M03 A2995 RMK AO2  T00651031,,,,,,26.22,38.83,SSE,29.3,29.55,,Clear
KIGQ,04/02/2018 22:35 UTC,29.95,43.16,26.42,51.31,11.5,160.0,,,,,,1.0,,,,10.0,,KIGQ 022235Z AUTO 16010KT 10SM CLR 06/M03 A2995 RMK AO2  T00621031,,,,,,26.22,38.87,SSE,29.3,29.55,,Clear
KIGQ,04/02/2018 22:55 UTC,29.94,42.98,26.6,52.06,9.22,150.0,,,,,,1.0,,,,10.0,,KIGQ 022255Z AUTO 15008KT 10SM CLR 06/M03 A2994 RMK AO2  T00611030,,,,,,26.41,39.48,SSE,29.29,29.54,,Clear
KIGQ,04/02/2018 23:15 UTC,29.94,42.62,27.5,54.78,8.05,160.0,,,,,,1.0,,,,10.0,,KIGQ 022315Z AUTO 16007KT 10SM CLR 06/M02 A2994 RMK AO2  T00591025,,,,,,27.32,39.55,SSE,29.29,29.53,,Clear
KIGQ,04/02/2018 23:35 UTC,29.94,41.36,28.58,60.12,9.22,160.0,,,,,,652.0,,,,10.0,,KIGQ 022335Z AUTO 16008KT 10SM SCT065 05/M02 A2994 RMK AO2  T00521019,,,,,,28.42,37.56,SSE,29.29,29.52,,Partly Cloudy
KIGQ,04/02/2018 23:55 UTC,29.92,41.9,29.3,60.64,10.36,140.0,,,,,,654.0,,,,10.0,,KIGQ 022355Z AUTO 14009KT 10SM OVC065 06/M01 A2992 RMK AO2  T00551015 10065 20050,43.7,41.0,6500.0,,,29.14,37.75,SE,29.27,29.48,,Overcast
KIGQ,04/03/2018 00:15 UTC,29.92,41.54,30.2,63.79,6.91,160.0,,,,,,654.0,,,,10.0,,KIGQ 030015Z AUTO 16006KT 10SM OVC065 05/M01 A2992 RMK AO2 LTG  DSNT S T00531010,,,6500.0,,,30.05,,SSE,29.27,29.47,,Overcast
KIGQ,04/03/2018 00:35 UTC,29.92,41.18,30.74,66.12,9.22,150.0,,,,,,554.0,,,,10.0,,KIGQ 030035Z AUTO 15008KT 10SM OVC055 05/M01 A2992 RMK AO2 LTG  DSNT S T00511007,,,5500.0,,,30.6,37.34,SSE,29.27,29.46,,Overcast
KIGQ,04/03/2018 00:55 UTC,29.91,41.0,31.1,67.56,9.22,150.0,,,,,,554.0,,,,10.0,,KIGQ 030055Z AUTO 15008KT 10SM OVC055 05/00 A2991 RMK AO2 LTG DSNT  SW T00501005,,,5500.0,,,30.97,37.13,SSE,29.26,29.45,,Overcast
KIGQ,04/03/2018 01:15 UTC,29.92,41.0,31.46,68.55,8.05,140.0,,,,,,504.0,,,,10.0,,KIGQ 030115Z AUTO 14007KT 10SM OVC050 05/00 A2992 RMK AO2  T00501003,,,5000.0,,,31.33,37.65,SE,29.27,29.45,,Overcast
KIGQ,04/03/2018 01:35 UTC,29.92,41.0,32.0,70.06,6.91,140.0,,,,,,484.0,,,,10.0,,KIGQ 030135Z AUTO 14006KT 10SM OVC048 05/00 A2992 RMK AO2  T00500000,,,4800.0,,,31.88,,SE,29.27,29.44,,Overcast
KIGQ,04/03/2018 01:55 UTC,29.91,40.82,32.0,70.55,5.75,120.0,,,,,,464.0,,,,10.0,,KIGQ 030155Z AUTO 12005KT 10SM OVC046 05/00 A2991 RMK AO2  T00490000,,,4600.0,,,31.88,,ESE,29.26,29.44,,Overcast
KIGQ,04/03/2018 02:15 UTC,29.91,41.0,32.0,70.06,5.75,120.0,,,,,,434.0,,,,10.0,,KIGQ 030215Z AUTO 12005KT 10SM OVC043 05/00 A2991 RMK AO2 LTG DSNT  S T00500000,,,4300.0,,,31.88,,ESE,29.26,29.43,,Overcast
KIGQ,04/03/2018 02:35 UTC,29.9,40.64,32.0,71.05,9.22,110.0,,,,,,384.0,,,,10.0,,KIGQ 030235Z AUTO 11008KT 10SM OVC038 05/00 A2990 RMK AO2  T00480000,,,3800.0,,,31.88,36.7,ESE,29.25,29.43,,Overcast
KIGQ,04/03/2018 02:55 UTC,29.88,40.46,32.0,71.54,9.22,120.0,,,,,,384.0,,,,10.0,,KIGQ 030255Z AUTO 12008KT 10SM OVC038 05/00 A2988 RMK AO2 LTG DSNT  S T00470000,,,3800.0,,,31.88,36.49,ESE,29.23,29.41,,Overcast
KIGQ,04/03/2018 03:15 UTC,29.88,40.28,32.0,72.05,8.05,120.0,,,,,,303.0,384.0,,,10.0,,KIGQ 030315Z AUTO 12007KT 10SM BKN030 OVC038 05/00 A2988 RMK AO2  T00460000,,,3000.0,,,31.89,36.8,ESE,29.23,29.41,,Overcast
KIGQ,04/03/2018 03:35 UTC,29.88,40.46,32.0,71.54,6.91,120.0,,,,,,253.0,304.0,,,10.0,,KIGQ 030335Z AUTO 12006KT 10SM BKN025 OVC030 05/00 A2988 RMK AO2  LTG DSNT SW T00470000,,,2500.0,,,31.88,,ESE,29.23,29.41,,Overcast
KIGQ,04/03/2018 03:55 UTC,29.88,40.46,32.0,71.54,5.75,110.0,,,,,,234.0,,,,10.0,,KIGQ 030355Z AUTO 11005KT 10SM OVC023 05/00 A2988 RMK AO2 LTG DSNT  S AND SW T00470000,,,2300.0,,,31.88,,ESE,29.23,29.41,,Overcast
KIGQ,04/03/2018 04:15 UTC,29.87,40.46,32.0,71.54,10.36,120.0,,,,,,234.0,,,,10.0,,KIGQ 030415Z AUTO 12009KT 10SM OVC023 05/00 A2987 RMK AO2  T00470000,,,2300.0,,,31.88,36.03,ESE,29.22,29.4,,Overcast
KIGQ,04/03/2018 04:35 UTC,29.86,40.28,32.0,72.05,6.91,110.0,,,,,,234.0,,,,10.0,,KIGQ 030435Z AUTO 11006KT 10SM OVC023 05/00 A2986 RMK AO2 LTG DSNT  S AND SW T00460000,,,2300.0,,,31.89,,ESE,29.21,29.39,,Overcast
KIGQ,04/03/2018 04:55 UTC,29.85,40.46,32.0,71.54,5.75,110.0,,,,,,234.0,,,,10.0,,KIGQ 030455Z AUTO 11005KT 10SM OVC023 05/00 A2985 RMK AO2 LTG DSNT  S T00470000,,,2300.0,,,31.88,,ESE,29.2,29.38,,Overcast
KIGQ,04/03/2018 05:15 UTC,29.86,40.64,32.18,71.56,5.75,110.0,,,,,,214.0,,,,10.0,,KIGQ 030515Z AUTO 11005KT 10SM OVC021 05/00 A2986 RMK AO2 LTG DSNT  S AND SW T00480001,,,2100.0,,,32.06,,ESE,29.21,29.38,,Overcast
KIGQ,04/03/2018 05:35 UTC,29.84,40.46,32.9,74.19,8.05,130.0,,,,,,194.0,,,,10.0,,KIGQ 030535Z AUTO 13007KT 10SM OVC019 05/01 A2984 RMK AO2  T00470005,,,1900.0,,,32.8,37.01,SE,29.19,29.35,,Overcast
KIGQ,04/03/2018 05:55 UTC,29.84,40.28,32.9,74.71,6.91,110.0,,,,,,174.0,,,,10.0,,KIGQ 030555Z AUTO 11006KT 10SM OVC017 05/01 A2984 RMK AO2 LTG DSNT  SE AND SW T00460005 10055 20046 400651085,41.9,40.28,1700.0,43.7,16.7,32.8,,ESE,29.19,29.35,,Overcast
KIGQ,04/03/2018 06:15 UTC,29.83,40.28,33.44,76.34,6.91,90.0,,,,,,154.0,,,,10.0,,KIGQ 030615Z AUTO 09006KT 10SM OVC015 05/01 A2983 RMK AO2 LTG DSNT  S T00460008,,,1500.0,,,33.34,,E,29.18,29.33,,Overcast
KIGQ,04/03/2018 06:35 UTC,29.82,40.28,33.98,78.01,5.75,110.0,,,,,,134.0,,,,10.0,,KIGQ 030635Z AUTO 11005KT 10SM OVC013 05/01 A2982 RMK AO2 LTG DSNT  S T00460011,,,1300.0,,,33.89,,ESE,29.17,29.31,,Overcast
KIGQ,04/03/2018 06:55 UTC,29.81,40.1,34.7,80.85,6.91,100.0,,,,,,134.0,,,,10.0,,KIGQ 030655Z AUTO 10006KT 10SM OVC013 05/02 A2981 RMK AO2 LTG DSNT  SE THRU SW T00450015,,,1300.0,,,34.62,,E,29.16,29.29,,Overcast
KIGQ,04/03/2018 07:15 UTC,29.78,40.1,35.96,85.0,6.91,110.0,,13.0,,,,134.0,,,,10.0,,KIGQ 030715Z AUTO 11006KT 10SM -RA OVC013 05/02 A2978 RMK AO2 LTG  DSNT S T00450022,,,1300.0,,,35.9,,ESE,29.13,29.24,,Light Rain
KIGQ,04/03/2018 07:35 UTC,29.78,39.38,37.22,91.88,6.91,110.0,,17.0,,,,114.0,,,,10.0,,KIGQ 030735Z AUTO 11006KT 10SM -DZ OVC011 04/03 A2978 RMK AO2  T00410029,,,1100.0,,,37.19,,ESE,29.13,29.22,,Light Drizzle
KIGQ,04/03/2018 07:55 UTC,29.77,39.56,38.12,94.52,6.91,110.0,,,,,,94.0,,,,10.0,,KIGQ 030755Z AUTO 11006KT 10SM OVC009 04/03 A2977 RMK AO2  T00420034,,,900.0,,,38.1,,ESE,29.12,29.19,,Overcast
KIGQ,04/03/2018 08:15 UTC,29.77,39.56,38.66,96.55,5.75,120.0,,13.0,,,,94.0,,,,7.0,,KIGQ 030815Z AUTO 12005KT 7SM -RA OVC009 04/04 A2977 RMK AO2  T00420037,,,900.0,,,38.65,,ESE,29.12,29.18,,Light Rain
KIGQ,04/03/2018 08:35 UTC,29.78,39.56,39.38,99.3,3.44,130.0,,17.0,,,,74.0,,,,5.0,,KIGQ 030835Z AUTO 13003KT 5SM -DZ OVC007 04/04 A2978 RMK AO2 LTG  DSNT S AND SW T00420041,,,700.0,,,39.38,,SE,29.13,29.17,,Light Drizzle
KIGQ,04/03/2018 08:55 UTC,29.78,39.74,39.74,100.0,3.44,150.0,,31.0,,,,74.0,,,,4.0,,KIGQ 030855Z AUTO 15003KT 4SM BR OVC007 04/04 A2978 RMK AO2 LTG  DSNT SE THRU SW T00430043,,,700.0,,,39.74,,SSE,29.13,29.16,,Mist
KIGQ,04/03/2018 09:15 UTC,29.76,39.74,39.74,100.0,4.61,120.0,,13.0,,,,74.0,,,,3.0,,KIGQ 030915Z AUTO 12004KT 3SM -RA OVC007 04/04 A2976 RMK AO2 LTG  DSNT S AND SW T00430043,,,700.0,,,39.74,,ESE,29.11,29.14,,Light Rain
KIGQ,04/03/2018 09:35 UTC,29.76,39.74,39.74,100.0,3.44,110.0,,2.0,,,,54.0,,,,3.0,,KIGQ 030935Z AUTO 11003KT 3SM DZ OVC005 04/04 A2976 RMK AO2 LTG  DSNT SE THRU SW T00430043,,,500.0,,,39.74,,ESE,29.11,29.14,,Drizzle
KIGQ,04/03/2018 09:55 UTC,29.75,39.74,39.74,100.0,6.91,110.0,,31.0,,,,54.0,,,,4.0,,KIGQ 030955Z AUTO 11006KT 4SM BR OVC005 04/04 A2975 RMK AO2  T00430043,,,500.0,,,39.74,,ESE,29.1,29.13,,Mist
KIGQ,04/03/2018 10:15 UTC,29.74,39.74,39.74,100.0,6.91,90.0,,31.0,,,,54.0,,,,5.0,,KIGQ 031015Z AUTO 09006KT 5SM BR OVC005 04/04 A2974 RMK AO2 LTG  DSNT S T00430043,,,500.0,,,39.74,,E,29.09,29.12,,Mist
KIGQ,04/03/2018 10:35 UTC,29.72,39.74,39.74,100.0,6.91,80.0,,,,,,54.0,,,,7.0,,KIGQ 031035Z AUTO 08006KT 7SM OVC005 04/04 A2972 RMK AO2 LTG DSNT  S T00430043,,,500.0,,,39.74,,E,29.07,29.1,,Overcast
KIGQ,04/03/2018 10:55 UTC,29.72,39.56,39.56,100.0,6.91,90.0,,31.0,,,,54.0,,,,5.0,,KIGQ 031055Z AUTO 09006KT 5SM BR OVC005 04/04 A2972 RMK AO2 LTG  DSNT S T00420042,,,500.0,,,39.56,,E,29.07,29.11,,Mist
KIGQ,04/03/2018 11:15 UTC,29.73,39.74,39.74,100.0,5.75,110.0,,,,,,54.0,,,,7.0,,KIGQ 031115Z AUTO 11005KT 7SM OVC005 04/04 A2973 RMK AO2 LTG DSNT  SE THRU SW T00430043,,,500.0,,,39.74,,ESE,29.08,29.11,,Overcast
KIGQ,04/03/2018 11:35 UTC,29.72,39.74,39.74,100.0,4.61,80.0,,17.0,,,,54.0,,,,7.0,,KIGQ 031135Z AUTO 08004KT 7SM -DZ OVC005 04/04 A2972 RMK AO2 LTG  DSNT S T00430043,,,500.0,,,39.74,,E,29.07,29.1,,Light Drizzle
KIGQ,04/03/2018 11:55 UTC,29.71,39.74,39.74,100.0,6.91,80.0,,,,,,54.0,,,,7.0,,KIGQ 031155Z AUTO 08006KT 7SM OVC005 04/04 A2971 RMK AO2 T00430043  10046 20041,40.28,39.38,500.0,,,39.74,,E,29.06,29.09,,Overcast
KIGQ,04/03/2018 12:15 UTC,29.72,40.1,40.1,100.0,4.61,80.0,,2485.0,,,,54.0,,,,5.0,,KIGQ 031215Z AUTO 08004KT 5SM VCTS BR OVC005 05/05 A2972 RMK AO2  LTG DSNT S T00450045,,,500.0,,,40.1,,E,29.07,29.09,,Thunder,Mist
KIGQ,04/03/2018 12:35 UTC,29.72,40.1,40.1,100.0,6.91,80.0,,13.0,,,,54.0,,,,5.0,,KIGQ 031235Z AUTO 08006KT 5SM -RA OVC005 05/05 A2972 RMK AO2 LTG  DSNT SE AND S T00450045,,,500.0,,,40.1,,E,29.07,29.09,,Light Rain
KIGQ,04/03/2018 12:55 UTC,29.71,40.28,40.28,100.0,4.61,80.0,,17.0,,,,54.0,,,,5.0,,KIGQ 031255Z AUTO 08004KT 5SM -DZ OVC005 05/05 A2971 RMK AO2 LTG  DSNT E AND S T00460046,,,500.0,,,40.28,,E,29.06,29.07,,Light Drizzle
KIGQ,04/03/2018 13:15 UTC,29.71,40.46,40.46,100.0,5.75,80.0,,31.0,,,,54.0,,,,5.0,,KIGQ 031315Z AUTO 08005KT 5SM BR OVC005 05/05 A2971 RMK AO2 LTG  DSNT SE AND S T00470047,,,500.0,,,40.46,,E,29.06,29.07,,Mist
KIGQ,04/03/2018 13:35 UTC,29.69,40.64,40.64,100.0,8.05,90.0,,31.0,,,,54.0,,,,5.0,,KIGQ 031335Z AUTO 09007KT 5SM BR OVC005 05/05 A2969 RMK AO2 LTG  DSNT SE AND S T00480048,,,500.0,,,40.64,37.22,E,29.04,29.04,,Mist
KIGQ,04/03/2018 13:55 UTC,29.68,41.0,41.0,100.0,6.91,80.0,,41.0,,,,54.0,,,,5.0,,KIGQ 031355Z AUTO 08006KT 5SM UP OVC005 05/05 A2968 RMK AO2 LTG  DSNT S T00500050,,,500.0,,,41.0,,E,29.03,29.02,,Unknown Precip
KIGQ,04/03/2018 14:15 UTC,29.68,41.0,41.0,100.0,5.75,80.0,,17.0,,,,54.0,,,,5.0,,KIGQ 031415Z AUTO 08005KT 5SM -DZ OVC005 05/05 A2968 RMK AO2 LTG  DSNT SE AND S T00500050,,,500.0,,,41.0,,E,29.03,29.02,,Light Drizzle
KIGQ,04/03/2018 14:35 UTC,29.66,41.54,41.54,100.0,8.05,80.0,,31.0,,,,54.0,,,,5.0,,KIGQ 031435Z AUTO 08007KT 5SM BR OVC005 05/05 A2966 RMK AO2 LTG  DSNT SE AND S T00530053,,,500.0,,,41.54,38.28,E,29.02,28.99,,Mist
KIGQ,04/03/2018 14:55 UTC,29.66,41.9,41.9,100.0,8.05,80.0,,,,,,54.0,,,,7.0,,KIGQ 031455Z AUTO 08007KT 7SM OVC005 06/06 A2966 RMK AO2 LTG DSNT  SE AND S T00550055,,,500.0,,,41.9,38.7,E,29.02,28.98,,Overcast
KIGQ,04/03/2018 15:15 UTC,29.66,41.9,41.72,99.31,5.75,90.0,,31.0,,,,54.0,,,,5.0,,KIGQ 031515Z AUTO 09005KT 5SM BR OVC005 06/05 A2966 RMK AO2 LTG  DSNT SE AND S T00550054,,,500.0,,,41.72,,E,29.02,28.99,,Mist
KIGQ,04/03/2018 15:35 UTC,29.65,41.9,41.9,100.0,5.75,80.0,,2.0,,,,54.0,,,,2.5,,KIGQ 031535Z AUTO 08005KT 2 1/2SM DZ OVC005 06/06 A2965 RMK AO2  LTG DSNT E THRU S T00550055,,,500.0,,,41.9,,E,29.01,28.97,,Drizzle
KIGQ,04/03/2018 15:55 UTC,29.63,41.9,41.9,100.0,5.75,90.0,,,,,,54.0,,,,1.5,,KIGQ 031555Z AUTO 09005KT 1 1/2SM VCTSDZ OVC005 06/06 A2963 RMK AO2 LTG DSNT SE AND S T00550055,,,500.0,,,41.9,,E,28.99,28.95,,Overcast
KIGQ,04/03/2018 16:15 UTC,29.64,42.08,42.08,100.0,8.05,100.0,,1.0,,,,54.0,,,,1.75,,KIGQ 031615Z AUTO 10007KT 1 3/4SM RA OVC005 06/06 A2964 RMK AO2  LTG DSNT SE T00560056,,,500.0,,,42.08,38.92,E,29.0,28.96,,Rain
KIGQ,04/03/2018 16:35 UTC,29.62,42.08,42.08,100.0,8.05,100.0,,18.0,,,,54.0,,,,1.5,,KIGQ 031635Z AUTO 10007KT 1 1/2SM +DZ OVC005 06/06 A2962 RMK AO2  LTG DSNT SE T00560056,,,500.0,,,42.08,38.92,E,28.98,28.93,,Heavy Drizzle
KIGQ,04/03/2018 16:55 UTC,29.6,42.26,42.26,100.0,8.05,80.0,,1.0,,,,54.0,,,,1.75,,KIGQ 031655Z AUTO 08007KT 1 3/4SM RA OVC005 06/06 A2960 RMK AO2  LTG DSNT SE T00570057,,,500.0,,,42.26,39.13,E,28.96,28.91,,Rain
KIGQ,04/03/2018 17:15 UTC,29.59,42.44,42.44,100.0,5.75,50.0,,13.0,,0.01,,54.0,,,,3.0,,KIGQ 031715Z AUTO 05005KT 3SM -RA OVC005 06/06 A2959 RMK AO2 LTG  DSNT SE AND S P0001 T00580058,,,500.0,,,42.44,,NE,28.95,28.89,,Light Rain
KIGQ,04/03/2018 17:35 UTC,29.57,42.26,42.26,100.0,5.75,70.0,,1.0,,0.01,,54.0,,,,2.0,,KIGQ 031735Z AUTO 07005KT 2SM RA OVC005 06/06 A2957 RMK AO2 LTG  DSNT E P0001 T00570057,,,500.0,,,42.26,,ENE,28.93,28.88,,Rain
KIGQ,04/03/2018 17:55 UTC,29.57,42.62,42.62,100.0,4.61,70.0,,2.0,,0.01,,54.0,,0.01,,2.5,,KIGQ 031755Z AUTO 07004KT 2 1/2SM DZ OVC005 06/06 A2957 RMK AO2  LTG DSNT E P0001 60001 T00590059 10060 20044,42.8,39.92,500.0,,,42.62,,ENE,28.93,28.87,,Drizzle
KIGQ,04/03/2018 18:15 UTC,29.56,43.16,43.16,100.0,5.75,50.0,,1.0,,,,54.0,,,,2.5,,KIGQ 031815Z AUTO 05005KT 2 1/2SM RA OVC005 06/06 A2956 RMK AO2  LTG DSNT E THRU S T00620062,,,500.0,,,43.16,,NE,28.92,28.84,,Rain
KIGQ,04/03/2018 18:35 UTC,29.54,42.62,42.62,100.0,5.75,40.0,,17.0,,,,54.0,,,,3.0,,KIGQ 031835Z AUTO 04005KT 3SM -DZ OVC005 06/06 A2954 RMK AO2 LTG  DSNT SE T00590059,,,500.0,,,42.62,,NE,28.9,28.84,,Light Drizzle
KIGQ,04/03/2018 18:55 UTC,29.53,42.26,42.26,100.0,8.05,30.0,,17.0,,,,34.0,,,,2.0,,KIGQ 031855Z AUTO 03007KT 2SM -DZ OVC003 06/06 A2953 RMK AO2 LTG  DSNT NE AND E T00570057,,,300.0,,,42.26,39.13,NNE,28.89,28.84,,Light Drizzle
KIGQ,04/03/2018 19:15 UTC,29.52,41.54,41.54,100.0,8.05,40.0,,13.0,,,,34.0,,,,2.5,,KIGQ 031915Z AUTO 04007KT 2 1/2SM -RA OVC003 05/05 A2952 RMK AO2  LTG DSNT NE AND S T00530053,,,300.0,,,41.54,38.28,NE,28.88,28.85,,Light Rain
KIGQ,04/03/2018 19:35 UTC,29.49,40.64,40.64,100.0,8.05,30.0,,1.0,,,,34.0,,,,1.5,,KIGQ 031935Z AUTO 03007KT 1 1/2SM RA OVC003 05/05 A2949 RMK AO2  LTG DSNT NE THRU S T00480048,,,300.0,,,40.64,37.22,NNE,28.85,28.85,,Rain
KIGQ,04/03/2018 19:55 UTC,29.49,40.1,40.1,100.0,6.91,40.0,,14.0,,,,34.0,,,,1.5,,KIGQ 031955Z AUTO 04006KT 1 1/2SM +RA OVC003 05/05 A2949 RMK AO2  LTG DSNT E AND SE T00450045,,,300.0,,,40.1,,NE,28.85,28.86,,Heavy Rain
KIGQ,04/03/2018 20:15 UTC,29.48,40.28,40.28,100.0,5.75,20.0,,1.0,,0.01,,34.0,,,,1.5,,KIGQ 032015Z AUTO 02005KT 1 1/2SM RA OVC003 05/05 A2948 RMK AO2  LTG DSNT E P0001 T00460046,,,300.0,,,40.28,,NNE,28.84,28.85,,Rain
KIGQ,04/03/2018 20:35 UTC,29.47,40.1,40.1,100.0,8.05,10.0,,13.0,,0.02,,34.0,,,,3.0,,KIGQ 032035Z AUTO 01007KT 3SM -RA OVC003 05/05 A2947 RMK AO2 LTG  DSNT E P0002 T00450045,,,300.0,,,40.1,36.59,N,28.83,28.84,,Light Rain
KIGQ,04/03/2018 20:55 UTC,29.48,40.1,40.1,100.0,6.91,360.0,,,,0.02,0.04,34.0,,,,2.0,,KIGQ 032055Z AUTO 36006KT 2SM VCTSDZ OVC003 05/05 A2948 RMK AO2  LTG DSNT NE AND E P0002 60004 T00450045,,,300.0,,,40.1,,N,28.84,28.85,,Overcast
KIGQ,04/03/2018 21:15 UTC,29.48,39.2,39.2,100.0,10.36,350.0,,,,,,34.0,,,,1.75,,KIGQ 032115Z AUTO 35009KT 1 3/4SM -VCTSRA OVC003 04/04 A2948 RMK AO2 LTG DSNT NE AND E T00400040,,,300.0,,,39.2,34.52,N,28.84,28.88,,Overcast
KIGQ,04/03/2018 21:35 UTC,29.46,38.66,38.66,100.0,11.5,10.0,18.41,,,,,34.0,,,,4.0,,KIGQ 032135Z AUTO 01010G16KT 4SM -VCTSRA OVC003 04/04 A2946 RMK AO2 LTG DSNT NE AND S T00370037,,,300.0,,,38.66,33.44,N,28.82,28.88,,Overcast
KIGQ,04/03/2018 21:55 UTC,29.47,38.66,38.66,100.0,6.91,10.0,,2485.0,,,,34.0,,,,3.0,,KIGQ 032155Z AUTO 01006KT 3SM VCTS BR OVC003 04/04 A2947 RMK AO2  LTG DSNT E THRU S T00370037,,,300.0,,,38.66,,N,28.83,28.89,,Thunder,Mist
KIGQ,04/03/2018 22:15 UTC,29.46,38.48,38.48,100.0,8.05,360.0,,31.0,,,,34.0,,,,2.5,,KIGQ 032215Z AUTO 36007KT 2 1/2SM BR OVC003 04/04 A2946 RMK AO2  LTG DSNT NE THRU S T00360036,,,300.0,,,38.48,34.69,N,28.82,28.88,,Mist
KIGQ,04/03/2018 22:35 UTC,29.47,38.3,38.3,100.0,9.22,360.0,18.41,2485.0,,,,34.0,,,,3.0,,KIGQ 032235Z AUTO 36008G16KT 3SM VCTS BR OVC003 04/04 A2947 RMK AO2 LTG DSNT E THRU S T00350035,,,300.0,,,38.3,33.93,N,28.83,28.9,,Thunder,Mist
KIGQ,04/03/2018 22:55 UTC,29.49,37.58,37.58,100.0,8.05,360.0,17.27,31.0,,,,34.0,,,,2.5,,KIGQ 032255Z AUTO 36007G15KT 2 1/2SM BR OVC003 03/03 A2949 RMK AO2  LTG DSNT NE THRU S T00310031,,,300.0,,,37.58,33.63,N,28.85,28.94,,Mist
KIGQ,04/03/2018 23:15 UTC,29.49,37.22,37.22,100.0,12.66,350.0,18.41,2485.0,,,,34.0,,,,2.5,,KIGQ 032315Z AUTO 35011G16KT 2 1/2SM VCTS BR OVC003 03/03 A2949 RMK AO2 LTG DSNT NE THRU SE T00290029,,,300.0,,,37.22,31.28,N,28.85,28.95,,Thunder,Mist
KIGQ,04/03/2018 23:35 UTC,29.51,36.68,36.68,100.0,10.36,350.0,,13.0,,,,34.0,,,,2.0,,KIGQ 032335Z AUTO 35009KT 2SM -RA OVC003 03/03 A2951 RMK AO2 LTG  DSNT NE THRU SE T00260026,,,300.0,,,36.68,31.5,N,28.87,28.98,,Light Rain
KIGQ,04/03/2018 23:55 UTC,29.53,36.5,36.5,100.0,11.5,340.0,,13.0,,,,34.0,,0.04,,1.5,,KIGQ 032355Z AUTO 34010KT 1 1/2SM -RA OVC003 03/03 A2953 RMK AO2  LTG DSNT E AND SE 60004 T00250025 10063 20025,43.34,36.5,300.0,,,36.5,30.83,NNW,28.89,29.01,,Light Rain
KIGQ,04/04/2018 00:15 UTC,29.55,35.96,35.96,100.0,9.22,340.0,,13.0,,,,34.0,,,,2.5,,KIGQ 040015Z AUTO 34008KT 2 1/2SM -RA OVC003 02/02 A2955 RMK AO2  LTG DSNT E AND SE T00220022,,,300.0,,,35.96,31.15,NNW,28.91,29.04,,Light Rain
KIGQ,04/04/2018 00:35 UTC,29.56,35.96,35.96,100.0,9.22,350.0,,13.0,,,,54.0,,,,2.5,,KIGQ 040035Z AUTO 35008KT 2 1/2SM -RA OVC005 02/02 A2956 RMK AO2  T00220022,,,500.0,,,35.96,31.15,N,28.92,29.05,,Light Rain
KIGQ,04/04/2018 00:55 UTC,29.58,36.14,36.14,100.0,10.36,330.0,,41.0,,,,54.0,,,,4.0,,KIGQ 040055Z AUTO 33009KT 4SM UP OVC005 02/02 A2958 RMK AO2  T00230023,,,500.0,,,36.14,30.86,NNW,28.94,29.07,,Unknown Precip
KIGQ,04/04/2018 01:15 UTC,29.59,36.14,36.14,100.0,5.75,320.0,,2.0,,,,54.0,,,,3.0,,KIGQ 040115Z AUTO 32005KT 3SM DZ OVC005 02/02 A2959 RMK AO2 LTG  DSNT E T00230023,,,500.0,,,36.14,,NW,28.95,29.08,,Drizzle
KIGQ,04/04/2018 01:35 UTC,29.6,36.14,36.14,100.0,8.05,310.0,,2.0,,,,54.0,,,,3.0,,KIGQ 040135Z AUTO 31007KT 3SM DZ OVC005 02/02 A2960 RMK AO2  T00230023,,,500.0,,,36.14,31.94,NW,28.96,29.09,,Drizzle
KIGQ,04/04/2018 01:55 UTC,29.61,36.14,36.14,100.0,10.36,300.0,,17.0,,,,53.0,114.0,,,5.0,,KIGQ 040155Z AUTO 30009KT 5SM -DZ BKN005 OVC011 02/02 A2961 RMK AO2 T00230023,,,500.0,,,36.14,30.86,WNW,28.97,29.1,,Light Drizzle
KIGQ,04/04/2018 02:15 UTC,29.63,35.96,35.96,100.0,6.91,300.0,,,,,,74.0,,,,7.0,,KIGQ 040215Z AUTO 30006KT 7SM OVC007 02/02 A2963 RMK AO2  T00220022,,,700.0,,,35.96,,WNW,28.99,29.12,,Overcast
KIGQ,04/04/2018 02:35 UTC,29.63,35.78,35.78,100.0,8.05,290.0,,,,,,73.0,134.0,,,7.0,,KIGQ 040235Z AUTO 29007KT 7SM BKN007 OVC013 02/02 A2963 RMK AO2  T00210021,,,700.0,,,35.78,31.52,WNW,28.99,29.13,,Overcast
KIGQ,04/04/2018 02:55 UTC,29.63,35.78,35.78,100.0,6.91,290.0,,,,,,93.0,174.0,,,10.0,,KIGQ 040255Z AUTO 29006KT 10SM BKN009 OVC017 02/02 A2963 RMK AO2  T00210021,,,900.0,,,35.78,,WNW,28.99,29.13,,Overcast
KIGQ,04/04/2018 03:15 UTC,29.64,35.6,35.6,100.0,6.91,290.0,,,,,,93.0,164.0,,,10.0,,KIGQ 040315Z AUTO 29006KT 10SM BKN009 OVC016 02/02 A2964 RMK AO2  T00200020,,,900.0,,,35.6,,WNW,29.0,29.14,,Overcast
KIGQ,04/04/2018 03:35 UTC,29.64,35.6,35.6,100.0,9.22,290.0,,17.0,,,,93.0,144.0,,,5.0,,KIGQ 040335Z AUTO 29008KT 5SM -DZ BKN009 OVC014 02/02 A2964 RMK AO2 T00200020,,,900.0,,,35.6,30.72,WNW,29.0,29.14,,Light Drizzle
KIGQ,04/04/2018 03:55 UTC,29.65,35.6,35.24,98.58,13.8,270.0,18.41,1.0,,,,113.0,184.0,,,5.0,,KIGQ 040355Z AUTO 27012G16KT 5SM RA BKN011 OVC018 02/02 A2965 RMK AO2 T00200018,,,1100.0,,,35.23,28.91,W,29.01,29.16,,Rain
KIGQ,04/04/2018 04:15 UTC,29.64,35.24,35.24,100.0,13.8,270.0,18.41,17.0,,,,93.0,134.0,,,10.0,,KIGQ 040415Z AUTO 27012G16KT 10SM -DZ BKN009 OVC013 02/02 A2964 RMK AO2 T00180018,,,900.0,,,35.24,28.47,W,29.0,29.15,,Light Drizzle
KIGQ,04/04/2018 04:35 UTC,29.65,35.24,34.7,97.87,14.97,270.0,21.85,,,,,114.0,,,,10.0,,KIGQ 040435Z AUTO 27013G19KT 10SM OVC011 02/02 A2965 RMK AO2  T00180015,,,1100.0,,,34.69,28.09,W,29.01,29.17,,Overcast
KIGQ,04/04/2018 04:55 UTC,29.66,35.06,34.34,97.17,14.97,270.0,21.85,,,,,114.0,,,,10.0,,KIGQ 040455Z AUTO 27013G19KT 10SM OVC011 02/01 A2966 RMK AO2  T00170013,,,1100.0,,,34.33,27.87,W,29.02,29.19,,Overcast
KIGQ,04/04/2018 05:15 UTC,29.67,34.88,33.98,96.47,17.27,270.0,25.32,,,,,113.0,174.0,,,10.0,,KIGQ 040515Z AUTO 27015G22KT 10SM BKN011 OVC017 02/01 A2967 RMK AO2 T00160011,,,1100.0,,,33.96,26.96,W,29.02,29.2,,Overcast
KIGQ,04/04/2018 05:35 UTC,29.67,34.7,33.8,96.47,16.11,280.0,24.16,13.0,,,,113.0,184.0,,,7.0,,KIGQ 040535Z AUTO 28014G21KT 7SM -RA BKN011 OVC018 02/01 A2967 RMK AO2 T00150010,,,1100.0,,,33.79,27.07,W,29.02,29.2,,Light Rain
KIGQ,04/04/2018 05:55 UTC,29.67,34.52,32.9,93.72,21.85,270.0,31.07,,,,,133.0,234.0,,,10.0,,KIGQ 040555Z AUTO 27019G27KT 10SM BKN013 OVC023 01/01 A2967 RMK AO2 T00140005 10025 20013 400630013,36.5,34.34,1300.0,43.34,34.34,32.87,25.33,W,29.02,29.22,,Overcast
KIGQ,04/04/2018 06:10 UTC,29.68,34.34,32.9,94.39,14.97,280.0,25.32,,,,,153.0,234.0,,,10.0,,KIGQ 040610Z AUTO 28013G22KT 10SM BKN015 OVC023 01/01 A2968 RMK AO2 T00130005,,,1500.0,,,32.88,26.98,W,29.03,29.23,,Overcast
KIGQ,04/04/2018 06:35 UTC,29.68,34.16,32.54,93.71,17.27,280.0,24.16,,,,,134.0,,,,10.0,,KIGQ 040635Z AUTO 28015G21KT 10SM OVC013 01/00 A2968 RMK AO2  T00120003,,,1300.0,,,32.51,26.06,W,29.03,29.24,,Overcast
KIGQ,04/04/2018 06:50 UTC,29.68,33.98,32.36,93.7,14.97,280.0,21.85,,,,,134.0,,,,10.0,,KIGQ 040650Z AUTO 28013G19KT 10SM OVC013 01/00 A2968 RMK AO2  T00110002,,,1300.0,,,32.33,26.54,W,29.03,29.24,,Overcast
KIGQ,04/04/2018 07:15 UTC,29.69,33.62,31.82,93.02,21.85,270.0,29.93,,,,,153.0,234.0,,,10.0,,KIGQ 040715Z AUTO 27019G26KT 10SM BKN015 OVC023 01/00 A2969 RMK AO2 T00091001,,,1500.0,,,31.79,24.19,W,29.04,29.26,,Overcast
KIGQ,04/04/2018 07:35 UTC,29.71,32.9,31.1,92.99,18.41,290.0,26.46,,,,,154.0,,,,10.0,,KIGQ 040735Z AUTO 29016G23KT 10SM OVC015 01/00 A2971 RMK AO2  T00051005,,,1500.0,,,31.07,24.16,WNW,29.06,29.3,,Overcast
KIGQ,04/04/2018 07:55 UTC,29.73,32.54,29.84,89.64,19.57,300.0,36.82,,,,,173.0,224.0,,,10.0,,KIGQ 040755Z AUTO 30017G32KT 10SM BKN017 OVC022 00/M01 A2973 RMK AO2 T00031012,,,1700.0,,,29.8,23.4,WNW,29.08,29.34,,Overcast
KIGQ,04/04/2018 08:15 UTC,29.75,31.82,28.76,88.29,17.27,310.0,31.07,20.0,,,,173.0,224.0,,,7.0,,KIGQ 040815Z AUTO 31015G27KT 7SM -SN BKN017 OVC022 00/M02 A2975 RMK AO2 T10011018,,,1700.0,,,28.71,23.14,NW,29.1,29.38,,Light Snow
KIGQ,04/04/2018 08:35 UTC,29.77,31.1,28.4,89.57,12.66,310.0,23.02,20.0,494.0,,,173.0,263.0,,,10.0,,KIGQ 040835Z AUTO 31011G20KT 10SM -SN BKN017 BKN026 OVC049 00/M02  A2977 RMK AO2 T10051020,,,1700.0,,,28.35,23.84,NW,29.12,29.41,,Light Snow
KIGQ,04/04/2018 08:55 UTC,29.79,30.74,28.76,92.24,18.41,320.0,24.16,20.0,254.0,,,143.0,193.0,,,7.0,,KIGQ 040855Z AUTO 32016G21KT 7SM -SN BKN014 BKN019 OVC025 M01/M02  A2979 RMK AO2 T10071018,,,1400.0,,,28.73,21.46,NW,29.14,29.43,,Light Snow
KIGQ,04/04/2018 09:15 UTC,29.81,29.48,25.34,84.3,13.8,310.0,,,554.0,,,142.0,213.0,,,10.0,,KIGQ 040915Z AUTO 31012KT 10SM SCT014 BKN021 OVC055 M01/M04 A2981 RMK AO2 T10141037,,,2100.0,,,25.27,21.42,NW,29.16,29.5,,Overcast
KIGQ,04/04/2018 09:35 UTC,29.83,28.4,23.9,82.97,16.11,310.0,25.32,,,,,214.0,,,,10.0,,KIGQ 040935Z AUTO 31014G22KT 10SM OVC021 M02/M04 A2983 RMK AO2  T10201045,,,2100.0,,,23.82,19.26,NW,29.18,29.54,,Overcast
KIGQ,04/04/2018 09:55 UTC,29.86,28.4,23.9,82.97,14.97,300.0,26.46,,,,,214.0,,,,10.0,,KIGQ 040955Z AUTO 30013G23KT 10SM OVC021 M02/M04 A2986 RMK AO2  T10201045,,,2100.0,,,23.82,19.66,WNW,29.21,29.57,,Overcast
KIGQ,04/04/2018 10:15 UTC,29.87,28.04,23.18,81.7,14.97,300.0,26.46,,,,,194.0,,,,10.0,,KIGQ 041015Z AUTO 30013G23KT 10SM OVC019 M02/M05 A2987 RMK AO2  T10221049,,,1900.0,,,23.1,19.22,WNW,29.22,29.59,,Overcast
KIGQ,04/04/2018 10:35 UTC,29.89,27.5,22.46,81.04,14.97,310.0,25.32,,343.0,,,213.0,273.0,,,10.0,,KIGQ 041035Z AUTO 31013G22KT 10SM BKN021 BKN027 BKN034 M02/M05  A2989 RMK AO2 T10251053,,,2100.0,,,22.38,18.55,NW,29.24,29.62,,Mostly Cloudy
KIGQ,04/04/2018 10:55 UTC,29.9,27.14,21.74,79.78,20.71,310.0,26.46,,343.0,,,233.0,283.0,,,10.0,,KIGQ 041055Z AUTO 31018G23KT 10SM BKN023 BKN028 BKN034 M03/M06  A2990 RMK AO2 T10271057,,,2300.0,,,21.65,16.27,NW,29.25,29.64,,Mostly Cloudy
KIGQ,04/04/2018 11:15 UTC,29.92,27.5,21.92,79.21,13.8,300.0,19.57,,,,,233.0,313.0,,,10.0,,KIGQ 041115Z AUTO 30012G17KT 10SM BKN023 BKN031 M02/M06 A2992 RMK AO2 T10251056,,,2300.0,,,21.83,18.99,WNW,29.27,29.66,,Mostly Cloudy
KIGQ,04/04/2018 11:35 UTC,29.94,27.5,21.92,79.21,17.27,310.0,27.63,,,,,234.0,,,,10.0,,KIGQ 041135Z AUTO 31015G24KT 10SM OVC023 M02/M06 A2994 RMK AO2  T10251056,,,2300.0,,,21.83,17.76,NW,29.29,29.68,,Overcast
KIGQ,04/04/2018 11:55 UTC,29.96,27.5,21.74,78.61,17.27,300.0,26.46,,,,,234.0,,,0.05,10.0,,KIGQ 041155Z AUTO 30015G23KT 10SM OVC023 M02/M06 A2996 RMK AO2  70005 T10251057 10015 21028,34.7,26.96,2300.0,,,21.65,17.76,WNW,29.31,29.7,,Overcast
KIGQ,04/04/2018 12:15 UTC,29.97,27.14,21.2,77.97,16.11,310.0,27.63,,,,,234.0,,,,10.0,,KIGQ 041215Z AUTO 31014G24KT 10SM OVC023 M03/M06 A2997 RMK AO2  T10271060,,,2300.0,,,21.1,17.7,NW,29.32,29.72,,Overcast
KIGQ,04/04/2018 12:35 UTC,29.99,27.32,21.56,78.59,16.11,300.0,25.32,,,,,234.0,,,,10.0,,KIGQ 041235Z AUTO 30014G22KT 10SM OVC023 M03/M06 A2999 RMK AO2  T10261058,,,2300.0,,,21.46,17.92,WNW,29.34,29.73,,Overcast
KIGQ,04/04/2018 12:55 UTC,29.99,27.5,21.38,77.41,14.97,320.0,26.46,,,,,233.0,,,,10.0,,KIGQ 041255Z AUTO 32013G23KT 10SM BKN023 M02/M06 A2999 RMK AO2  T10251059,,,2300.0,,,21.28,18.55,NW,29.34,29.73,,Mostly Cloudy
KIGQ,04/04/2018 13:15 UTC,30.01,28.22,21.56,75.73,19.57,310.0,27.63,,,,,253.0,,,,10.0,,KIGQ 041315Z AUTO 31017G24KT 10SM BKN025 M02/M06 A3001 RMK AO2  T10211058,,,2500.0,,,21.45,17.96,NW,29.36,29.75,,Mostly Cloudy
KIGQ,04/04/2018 13:35 UTC,30.01,28.22,20.66,72.89,23.02,300.0,32.21,,,,,253.0,324.0,,,10.0,,KIGQ 041335Z AUTO 30020G28KT 10SM BKN025 OVC032 M02/M06 A3001 RMK AO2 T10211063,,,2500.0,,,20.54,17.03,WNW,29.36,29.76,,Overcast
KIGQ,04/04/2018 13:55 UTC,30.02,28.94,20.48,70.23,16.11,320.0,25.32,,,,,303.0,,,,10.0,,KIGQ 041355Z AUTO 32014G22KT 10SM BKN030 M02/M06 A3002 RMK AO2  T10171064,,,3000.0,,,20.35,19.93,NW,29.37,29.76,,Mostly Cloudy
KIGQ,04/04/2018 14:15 UTC,30.03,30.38,20.84,67.24,18.41,320.0,27.63,,,,,323.0,383.0,,,10.0,,KIGQ 041415Z AUTO 32016G24KT 10SM BKN032 BKN038 M01/M06 A3003 RMK AO2 T10091062,,,3200.0,,,20.69,21.01,NW,29.38,29.76,,Mostly Cloudy
KIGQ,04/04/2018 14:35 UTC,30.05,30.02,19.04,63.18,17.27,320.0,32.21,,,,,332.0,423.0,,,10.0,,KIGQ 041435Z AUTO 32015G28KT 10SM SCT033 BKN042 M01/M07 A3005 RMK AO2 T10111072,,,4200.0,,,18.87,20.9,NW,29.4,29.8,,Mostly Cloudy
KIGQ,04/04/2018 14:55 UTC,30.06,31.64,19.4,60.08,20.71,330.0,31.07,,,,,402.0,,,,10.0,,KIGQ 041455Z AUTO 33018G27KT 10SM SCT040 00/M07 A3006 RMK AO2  T10021070,,,,,,19.22,21.96,NNW,29.41,29.8,,Partly Cloudy
KIGQ,04/04/2018 15:15 UTC,30.07,31.64,18.5,57.8,16.11,320.0,32.21,,,,,422.0,473.0,,,10.0,,KIGQ 041515Z AUTO 32014G28KT 10SM SCT042 BKN047 00/M07 A3007 RMK AO2 T10021075,,,4700.0,,,18.31,23.28,NW,29.42,29.82,,Mostly Cloudy
KIGQ,04/04/2018 15:35 UTC,30.08,32.0,18.32,56.53,20.71,310.0,28.77,,,,,423.0,,,,10.0,,KIGQ 041535Z AUTO 31018G25KT 10SM BKN042 00/M08 A3008 RMK AO2  T00001076,,,4200.0,,,18.13,22.42,NW,29.43,29.83,,Mostly Cloudy
KIGQ,04/04/2018 15:55 UTC,30.1,32.18,19.04,57.89,17.27,320.0,24.16,,,,,443.0,503.0,,,10.0,,KIGQ 041555Z AUTO 32015G21KT 10SM BKN044 BKN050 00/M07 A3010 RMK AO2 T00011072,,,4400.0,,,18.85,23.59,NW,29.45,29.84,,Mostly Cloudy
KIGQ,04/04/2018 16:15 UTC,30.11,31.82,18.5,57.39,16.11,310.0,24.16,,,,,423.0,483.0,,,10.0,,KIGQ 041615Z AUTO 31014G21KT 10SM BKN042 BKN048 00/M07 A3011 RMK AO2 T10011075,,,4200.0,,,18.31,23.5,NW,29.46,29.86,,Mostly Cloudy
KIGQ,04/04/2018 16:35 UTC,30.12,32.0,19.22,58.76,16.11,300.0,20.71,,,,,423.0,504.0,,,10.0,,KIGQ 041635Z AUTO 30014G18KT 10SM BKN042 OVC050 00/M07 A3012 RMK AO2 T00001071,,,4200.0,,,19.04,23.72,WNW,29.47,29.86,,Overcast
KIGQ,04/04/2018 16:55 UTC,30.13,32.72,19.94,58.87,12.66,300.0,17.27,,,,,403.0,483.0,,,10.0,,KIGQ 041655Z AUTO 30011G15KT 10SM BKN040 BKN048 00/M07 A3013 RMK AO2 T00041067,,,4000.0,,,19.76,25.81,WNW,29.47,29.85,,Mostly Cloudy
KIGQ,04/04/2018 17:15 UTC,30.13,33.44,19.58,56.31,13.8,320.0,24.16,,,,,423.0,484.0,,,10.0,,KIGQ 041715Z AUTO 32012G21KT 10SM BKN042 OVC048 01/M07 A3013 RMK AO2 T00081069,,,4200.0,,,19.39,26.27,NW,29.47,29.85,,Overcast
KIGQ,04/04/2018 17:35 UTC,30.14,33.08,19.4,56.7,17.27,280.0,20.71,,,,,434.0,,,,10.0,,KIGQ 041735Z AUTO 28015G18KT 10SM OVC043 01/M07 A3014 RMK AO2  T00061070,,,4300.0,,,19.21,24.71,W,29.48,29.87,,Overcast
KIGQ,04/04/2018 17:55 UTC,30.14,33.26,20.12,58.05,16.11,320.0,23.02,,,,,433.0,494.0,,,10.0,,KIGQ 041755Z AUTO 32014G20KT 10SM BKN043 OVC049 01/M07 A3014 RMK AO2 T00071066 10017 21028,35.06,26.96,4300.0,,,19.94,25.29,NW,29.48,29.86,,Overcast
KIGQ,04/04/2018 18:15 UTC,30.15,33.98,20.84,58.16,12.66,300.0,20.71,,,,,434.0,,,,10.0,,KIGQ 041815Z AUTO 30011G18KT 10SM OVC043 01/M06 A3015 RMK AO2  T00111062,,,4300.0,,,20.66,27.34,WNW,29.49,29.86,,Overcast
KIGQ,04/04/2018 18:35 UTC,30.15,34.34,21.02,57.77,13.8,310.0,17.27,,,,,433.0,504.0,,,10.0,,KIGQ 041835Z AUTO 31012G15KT 10SM BKN043 OVC050 01/M06 A3015 RMK AO2 T00131061,,,4300.0,,,20.84,27.37,NW,29.49,29.85,,Overcast
KIGQ,04/04/2018 18:55 UTC,30.16,33.98,22.28,61.82,18.41,280.0,26.46,,,,,403.0,464.0,,,10.0,,KIGQ 041855Z AUTO 28016G23KT 10SM BKN040 OVC046 01/M05 A3016 RMK AO2 T00111054,,,4000.0,,,22.11,25.52,W,29.5,29.85,,Overcast
KIGQ,04/04/2018 19:15 UTC,30.16,33.8,23.0,64.18,10.36,290.0,18.41,,,,,372.0,464.0,,,10.0,,KIGQ 041915Z AUTO 29009G16KT 10SM SCT037 OVC046 01/M05 A3016 RMK AO2 T00101050,,,4600.0,,,22.84,28.06,WNW,29.5,29.85,,Overcast
KIGQ,04/04/2018 19:35 UTC,30.17,33.8,21.92,61.32,16.11,290.0,24.16,,,,,363.0,464.0,,,10.0,,KIGQ 041935Z AUTO 29014G21KT 10SM BKN036 OVC046 01/M06 A3017 RMK AO2 T00101056,,,3600.0,,,21.75,25.96,WNW,29.51,29.87,,Overcast
KIGQ,04/04/2018 19:55 UTC,30.17,33.98,21.74,60.42,14.97,280.0,20.71,,484.0,,,342.0,423.0,,,10.0,,KIGQ 041955Z AUTO 28013G18KT 10SM SCT034 BKN042 OVC048 01/M06  A3017 RMK AO2 T00111057,,,4200.0,,,21.57,26.54,W,29.51,29.87,,Overcast
KIGQ,04/04/2018 20:15 UTC,30.17,33.26,23.72,67.6,21.85,270.0,25.32,,484.0,,,343.0,413.0,,,10.0,,KIGQ 042015Z AUTO 27019G22KT 10SM BKN034 BKN041 OVC048 01/M05  A3017 RMK AO2 T00071046,,,3400.0,,,23.58,23.73,W,29.51,29.85,,Overcast
KIGQ,04/04/2018 20:35 UTC,30.18,32.9,23.36,67.56,18.41,270.0,27.63,,,,,323.0,414.0,,,10.0,,KIGQ 042035Z AUTO 27016G24KT 10SM BKN032 OVC041 01/M05 A3018 RMK AO2 T00051048,,,3200.0,,,23.22,24.16,W,29.52,29.87,,Overcast
KIGQ,04/04/2018 20:55 UTC,30.18,33.26,23.18,66.09,16.11,270.0,24.16,,,,,343.0,414.0,,,10.0,,KIGQ 042055Z AUTO 27014G21KT 10SM BKN034 OVC041 01/M05 A3018 RMK AO2 T00071049,,,3400.0,,,23.03,25.29,W,29.52,29.87,,Overcast
KIGQ,04/04/2018 21:15 UTC,30.18,33.62,22.1,62.24,20.71,270.0,27.63,,,,,373.0,454.0,,,10.0,,KIGQ 042115Z AUTO 27018G24KT 10SM BKN037 OVC045 01/M05 A3018 RMK AO2 T00091055,,,3700.0,,,21.93,24.46,W,29.52,29.88,,Overcast
KIGQ,04/04/2018 21:35 UTC,30.18,34.52,21.92,59.58,14.97,280.0,29.93,,,,,393.0,453.0,,,10.0,,KIGQ 042135Z AUTO 28013G26KT 10SM BKN039 BKN045 01/M06 A3018 RMK AO2 T00141056,,,3900.0,,,21.74,27.2,W,29.52,29.87,,Mostly Cloudy
KIGQ,04/04/2018 21:55 UTC,30.19,32.72,21.2,62.11,18.41,290.0,25.32,,,,,393.0,,,,10.0,,KIGQ 042155Z AUTO 29016G22KT 10SM BKN039 00/M06 A3019 RMK AO2  T00041060,,,3900.0,,,21.03,23.94,WNW,29.53,29.9,,Mostly Cloudy
KIGQ,04/04/2018 22:15 UTC,30.19,33.26,21.2,60.78,16.11,270.0,26.46,,,,,393.0,,,,10.0,,KIGQ 042215Z AUTO 27014G23KT 10SM BKN039 01/M06 A3019 RMK AO2  T00071060,,,3900.0,,,21.03,25.29,W,29.53,29.9,,Mostly Cloudy
KIGQ,04/04/2018 22:35 UTC,30.19,33.08,20.12,58.47,19.57,270.0,26.46,,,,,394.0,,,,10.0,,KIGQ 042235Z AUTO 27017G23KT 10SM OVC039 01/M07 A3019 RMK AO2  T00061066,,,3900.0,,,19.94,24.07,W,29.53,29.91,,Overcast
KIGQ,04/04/2018 22:55 UTC,30.2,33.08,21.56,62.16,14.97,270.0,21.85,,,,,414.0,,,,10.0,,KIGQ 042255Z AUTO 27013G19KT 10SM OVC041 01/M06 A3020 RMK AO2  T00061058,,,4100.0,,,21.39,25.43,W,29.54,29.91,,Overcast
KIGQ,04/04/2018 23:15 UTC,30.2,32.72,20.84,61.17,17.27,280.0,23.02,,,,,394.0,,,,10.0,,KIGQ 042315Z AUTO 28015G20KT 10SM OVC039 00/M06 A3020 RMK AO2  T00041062,,,3900.0,,,20.67,24.26,W,29.54,29.92,,Overcast
KIGQ,04/04/2018 23:35 UTC,30.2,32.36,20.84,62.06,14.97,270.0,19.57,,,,,374.0,,,,10.0,,KIGQ 042335Z AUTO 27013G17KT 10SM OVC037 00/M06 A3020 RMK AO2  T00021062,,,3700.0,,,20.67,24.54,W,29.54,29.92,,Overcast
KIGQ,04/04/2018 23:55 UTC,30.2,32.0,20.3,61.54,10.36,260.0,,,,,,413.0,,,,10.0,,KIGQ 042355Z AUTO 26009KT 10SM BKN041 00/M06 A3020 RMK AO2  T00001065 10015 20000,34.7,32.0,4100.0,,,20.13,25.9,W,29.54,29.92,,Mostly Cloudy
KIGQ,04/05/2018 00:15 UTC,30.2,31.64,20.48,62.92,10.36,270.0,,,,,,412.0,,,,10.0,,KIGQ 050015Z AUTO 27009KT 10SM SCT041 00/M06 A3020 RMK AO2  T10021064,,,,,,20.31,25.47,W,29.54,29.92,,Partly Cloudy
KIGQ,04/05/2018 00:35 UTC,30.2,30.74,20.48,65.26,8.05,270.0,,,,,,402.0,,,,10.0,,KIGQ 050035Z AUTO 27007KT 10SM SCT040 M01/M06 A3020 RMK AO2  T10071064,,,,,,20.33,25.6,W,29.54,29.93,,Partly Cloudy
KIGQ,04/05/2018 00:55 UTC,30.21,30.38,20.48,66.22,8.05,270.0,,,,,,402.0,,,,10.0,,KIGQ 050055Z AUTO 27007KT 10SM SCT040 M01/M06 A3021 RMK AO2  T10091064,,,,,,20.33,25.17,W,29.55,29.94,,Partly Cloudy
KIGQ,04/05/2018 01:15 UTC,30.21,30.02,20.3,66.68,8.05,250.0,,,,,,1.0,,,,10.0,,KIGQ 050115Z AUTO 25007KT 10SM CLR M01/M06 A3021 RMK AO2  T10111065,,,,,,20.15,24.75,WSW,29.55,29.94,,Clear
KIGQ,04/05/2018 01:35 UTC,30.21,30.02,19.4,64.17,9.22,260.0,,,,,,1.0,,,,10.0,,KIGQ 050135Z AUTO 26008KT 10SM CLR M01/M07 A3021 RMK AO2  T10111070,,,,,,19.24,24.1,W,29.55,29.95,,Clear
KIGQ,04/05/2018 01:55 UTC,30.21,29.12,19.4,66.57,8.05,260.0,,,,,,1.0,,,,10.0,,KIGQ 050155Z AUTO 26007KT 10SM CLR M02/M07 A3021 RMK AO2  T10161070,,,,,,19.25,23.69,W,29.55,29.96,,Clear
KIGQ,04/05/2018 02:15 UTC,30.21,28.76,19.04,66.52,5.75,260.0,,,,,,1.0,,,,10.0,,KIGQ 050215Z AUTO 26005KT 10SM CLR M02/M07 A3021 RMK AO2  T10181072,,,,,,18.89,,W,29.55,29.96,,Clear
KIGQ,04/05/2018 02:35 UTC,30.21,28.76,19.4,67.56,8.05,270.0,,,,,,1.0,,,,10.0,,KIGQ 050235Z AUTO 27007KT 10SM CLR M02/M07 A3021 RMK AO2  T10181070,,,,,,19.26,23.27,W,29.55,29.96,,Clear
KIGQ,04/05/2018 02:55 UTC,30.21,28.94,19.04,66.03,5.75,270.0,,,,,,1.0,,,,10.0,,KIGQ 050255Z AUTO 27005KT 10SM CLR M02/M07 A3021 RMK AO2  T10171072,,,,,,18.89,,W,29.55,29.96,,Clear
KIGQ,04/05/2018 03:15 UTC,30.22,27.5,19.04,70.06,4.61,260.0,,,,,,1.0,,,,10.0,,KIGQ 050315Z AUTO 26004KT 10SM CLR M02/M07 A3022 RMK AO2  T10251072,,,,,,18.91,,W,29.56,29.98,,Clear
KIGQ,04/05/2018 03:35 UTC,30.23,26.96,19.04,71.64,6.91,270.0,,,,,,1.0,,,,10.0,,KIGQ 050335Z AUTO 27006KT 10SM CLR M03/M07 A3023 RMK AO2  T10281072,,,,,,18.91,,W,29.57,29.99,,Clear
KIGQ,04/05/2018 03:55 UTC,30.23,28.22,19.04,68.01,6.91,270.0,,,,,,1.0,,,,10.0,,KIGQ 050355Z AUTO 27006KT 10SM CLR M02/M07 A3023 RMK AO2  T10211072,,,,,,18.9,,W,29.57,29.99,,Clear
KIGQ,04/05/2018 04:15 UTC,30.23,28.04,18.5,66.94,5.75,280.0,,,,,,1.0,,,,10.0,,KIGQ 050415Z AUTO 28005KT 10SM CLR M02/M07 A3023 RMK AO2  T10221075,,,,,,18.35,,W,29.57,29.99,,Clear
KIGQ,04/05/2018 04:35 UTC,30.23,27.14,18.32,68.94,5.75,270.0,,,,,,1.0,,,,10.0,,KIGQ 050435Z AUTO 27005KT 10SM CLR M03/M08 A3023 RMK AO2  T10271076,,,,,,18.18,,W,29.57,30.0,,Clear
KIGQ,04/05/2018 04:55 UTC,30.23,27.32,18.68,69.49,5.75,260.0,,,,,,1.0,,,,10.0,,KIGQ 050455Z AUTO 26005KT 10SM CLR M03/M07 A3023 RMK AO2  T10261074,,,,,,18.54,,W,29.57,29.99,,Clear
KIGQ,04/05/2018 05:15 UTC,30.24,26.6,19.22,73.27,5.75,260.0,,,,,,1.0,,,,10.0,,KIGQ 050515Z AUTO 26005KT 10SM CLR M03/M07 A3024 RMK AO2  T10301071,,,,,,19.1,,W,29.58,30.0,,Clear
KIGQ,04/05/2018 05:35 UTC,30.24,26.78,19.4,73.29,5.75,270.0,,,,,,1102.0,,,,10.0,,KIGQ 050535Z AUTO 27005KT 10SM SCT110 M03/M07 A3024 RMK AO2  T10291070,,,,,,19.28,,W,29.58,30.0,,Partly Cloudy
KIGQ,04/05/2018 05:55 UTC,30.24,26.06,19.4,75.51,4.61,270.0,,,,,,1002.0,1203.0,,,10.0,,KIGQ 050555Z AUTO 27004KT 10SM SCT100 BKN120 M03/M07 A3024 RMK AO2  T10331070 10000 21033 400171033,32.0,26.06,12000.0,35.06,26.06,19.29,,W,29.58,30.0,,Mostly Cloudy
KIGQ,04/05/2018 06:15 UTC,30.24,26.06,19.4,75.51,4.61,270.0,,,,,,1002.0,1202.0,,,10.0,,KIGQ 050615Z AUTO 27004KT 10SM SCT100 SCT120 M03/M07 A3024 RMK AO2  T10331070,,,,,,19.29,,W,29.58,30.0,,Partly Cloudy
KIGQ,04/05/2018 06:35 UTC,30.24,26.24,19.94,76.7,4.61,260.0,,,,,,902.0,1202.0,,,10.0,,KIGQ 050635Z AUTO 26004KT 10SM SCT090 SCT120 M03/M07 A3024 RMK AO2  T10321067,,,,,,19.83,,W,29.58,30.0,,Partly Cloudy
KIGQ,04/05/2018 06:55 UTC,30.23,26.78,20.3,76.17,3.44,260.0,,,,,,1003.0,1204.0,,,10.0,,KIGQ 050655Z AUTO 26003KT 10SM BKN100 OVC120 M03/M06 A3023 RMK AO2  T10291065,,,10000.0,,,20.19,,W,29.57,29.98,,Overcast
KIGQ,04/05/2018 07:15 UTC,30.23,26.42,20.12,76.72,3.44,260.0,,,,,,1004.0,,,,10.0,,KIGQ 050715Z AUTO 26003KT 10SM OVC100 M03/M07 A3023 RMK AO2  T10311066,,,10000.0,,,20.01,,W,29.57,29.99,,Overcast
KIGQ,04/05/2018 07:35 UTC,30.23,27.32,19.22,71.13,4.61,280.0,,,,,,1104.0,,,,10.0,,KIGQ 050735Z AUTO 28004KT 10SM OVC110 M03/M07 A3023 RMK AO2  T10261071,,,11000.0,,,19.09,,W,29.57,29.99,,Overcast
KIGQ,04/05/2018 07:55 UTC,30.23,27.32,18.32,68.43,4.61,300.0,,,,,,852.0,1004.0,,,10.0,,KIGQ 050755Z AUTO 30004KT 10SM SCT085 OVC100 M03/M08 A3023 RMK AO2  T10261076,,,10000.0,,,18.18,,WNW,29.57,30.0,,Overcast
KIGQ,04/05/2018 08:15 UTC,30.23,26.96,17.78,67.85,3.44,290.0,,,,,,852.0,1004.0,,,10.0,,KIGQ 050815Z AUTO 29003KT 10SM SCT085 OVC100 M03/M08 A3023 RMK AO2  T10281079,,,10000.0,,,17.63,,WNW,29.57,30.0,,Overcast
KIGQ,04/05/2018 08:35 UTC,30.23,26.06,17.42,69.34,0.0,0.0,,,,,,952.0,1102.0,,,10.0,,KIGQ 050835Z AUTO 00000KT 10SM SCT095 SCT110 M03/M08 A3023 RMK AO2  T10331081,,,,,,17.28,,N,29.57,30.01,,Partly Cloudy
KIGQ,04/05/2018 08:55 UTC,30.23,26.24,17.6,69.36,3.44,280.0,,,,,,852.0,903.0,,,10.0,,KIGQ 050855Z AUTO 28003KT 10SM SCT085 BKN090 M03/M08 A3023 RMK AO2  T10321080,,,9000.0,,,17.46,,W,29.57,30.01,,Mostly Cloudy
KIGQ,04/05/2018 09:15 UTC,30.23,25.7,17.42,70.39,0.0,0.0,,,,,,802.0,1203.0,,,10.0,,KIGQ 050915Z AUTO 00000KT 10SM SCT080 BKN120 M03/M08 A3023 RMK AO2  T10351081,,,12000.0,,,17.29,,N,29.57,30.01,,Mostly Cloudy
KIGQ,04/05/2018 09:35 UTC,30.24,25.88,17.42,69.86,0.0,0.0,,,,,,1202.0,,,,10.0,,KIGQ 050935Z AUTO 00000KT 10SM SCT120 M03/M08 A3024 RMK AO2  T10341081,,,,,,17.28,,N,29.58,30.02,,Partly Cloudy
KIGQ,04/05/2018 09:55 UTC,30.24,24.44,17.96,75.94,3.44,260.0,,,,,,1.0,,,,10.0,,KIGQ 050955Z AUTO 26003KT 10SM CLR M04/M08 A3024 RMK AO2  T10421078,,,,,,17.85,,W,29.58,30.02,,Clear
KIGQ,04/05/2018 10:15 UTC,30.24,23.9,17.78,77.07,3.44,260.0,,,,,,1.0,,,,10.0,,KIGQ 051015Z AUTO 26003KT 10SM CLR M04/M08 A3024 RMK AO2  T10451079,,,,,,17.68,,W,29.58,30.03,,Clear
KIGQ,04/05/2018 10:35 UTC,30.24,23.54,16.7,74.67,3.44,280.0,,,,,,1.0,,,,10.0,,KIGQ 051035Z AUTO 28003KT 10SM CLR M05/M08 A3024 RMK AO2  T10471085,,,,,,16.59,,W,29.58,30.04,,Clear
KIGQ,04/05/2018 10:55 UTC,30.24,23.36,16.7,75.24,0.0,0.0,,,,,,1.0,,,,10.0,,KIGQ 051055Z AUTO 00000KT 10SM CLR M05/M08 A3024 RMK AO2  T10481085,,,,,,16.59,,N,29.58,30.04,,Clear
KIGQ,04/05/2018 11:15 UTC,30.24,21.92,16.16,78.09,0.0,0.0,,,,,,463.0,,,,10.0,,KIGQ 051115Z AUTO 00000KT 10SM BKN046 M06/M09 A3024 RMK AO2  T10561088,,,4600.0,,,16.06,,N,29.58,30.05,,Mostly Cloudy
KIGQ,04/05/2018 11:35 UTC,30.24,22.28,16.7,78.74,0.0,0.0,,,,,,443.0,,,,10.0,,KIGQ 051135Z AUTO 00000KT 10SM BKN044 M05/M08 A3024 RMK AO2  T10541085,,,4400.0,,,16.6,,N,29.58,30.04,,Mostly Cloudy
KIGQ,04/05/2018 11:55 UTC,30.24,23.72,16.7,74.11,0.0,0.0,,,,,,412.0,,,,10.0,,KIGQ 051155Z AUTO 00000KT 10SM SCT041 M05/M08 A3024 RMK AO2  T10461085 11025 21060,27.5,21.2,,,,16.58,,N,29.58,30.04,,Partly Cloudy
KIGQ,04/05/2018 12:15 UTC,30.24,24.98,18.32,75.4,3.44,270.0,,,,,,702.0,,,,10.0,,KIGQ 051215Z AUTO 27003KT 10SM SCT070 M04/M08 A3024 RMK AO2  T10391076,,,,,,18.21,,W,29.58,30.02,,Partly Cloudy
KIGQ,04/05/2018 12:35 UTC,30.24,26.6,17.6,68.34,4.61,270.0,,,,,,702.0,,,,10.0,,KIGQ 051235Z AUTO 27004KT 10SM SCT070 M03/M08 A3024 RMK AO2  T10301080,,,,,,17.46,,W,29.58,30.02,,Partly Cloudy
KIGQ,04/05/2018 12:55 UTC,30.24,27.5,16.88,63.82,5.75,270.0,,,,,,1.0,,,,10.0,,KIGQ 051255Z AUTO 27005KT 10SM CLR M02/M08 A3024 RMK AO2  T10251084,,,,,,16.72,,W,29.58,30.02,,Clear
KIGQ,04/05/2018 13:15 UTC,30.25,28.4,16.16,59.61,4.61,270.0,,,,,,1.0,,,,10.0,,KIGQ 051315Z AUTO 27004KT 10SM CLR M02/M09 A3025 RMK AO2  T10201088,,,,,,15.98,,W,29.59,30.03,,Clear
KIGQ,04/05/2018 13:35 UTC,30.25,29.48,17.78,61.18,3.44,210.0,,,,,,1.0,,,,10.0,,KIGQ 051335Z AUTO 21003KT 10SM CLR M01/M08 A3025 RMK AO2  T10141079,,,,,,17.61,,SSW,29.59,30.01,,Clear
KIGQ,04/05/2018 13:55 UTC,30.25,30.92,16.52,54.63,4.61,240.0,,,,,,1.0,,,,10.0,,KIGQ 051355Z AUTO 24004KT 10SM CLR M01/M09 A3025 RMK AO2  T10061086,,,,,,16.32,,WSW,29.59,30.02,,Clear
KIGQ,04/05/2018 14:15 UTC,30.26,31.64,14.9,49.44,3.44,250.0,,,,,,462.0,,,,10.0,,KIGQ 051415Z AUTO 25003KT 10SM SCT046 00/M09 A3026 RMK AO2  T10021095,,,,,,14.68,,WSW,29.6,30.04,,Partly Cloudy
KIGQ,04/05/2018 14:35 UTC,30.25,32.0,15.08,49.11,3.44,230.0,,,,,,1.0,,,,10.0,,KIGQ 051435Z AUTO 23003KT 10SM CLR 00/M09 A3025 RMK AO2  T00001094,,,,,,14.85,,SW,29.59,30.02,,Clear
KIGQ,04/05/2018 14:55 UTC,30.24,32.36,14.9,48.03,0.0,0.0,,,,,,1.0,,,,10.0,,KIGQ 051455Z AUTO 00000KT 10SM CLR 00/M09 A3024 RMK AO2  T00021095,,,,,,14.67,,N,29.58,30.01,,Clear
KIGQ,04/05/2018 15:15 UTC,30.24,33.98,15.08,45.36,3.44,210.0,,,,,,1.0,,,,10.0,,KIGQ 051515Z AUTO 21003KT 10SM CLR 01/M09 A3024 RMK AO2  T00111094,,,,,,14.84,,SSW,29.58,30.0,,Clear
KIGQ,04/05/2018 15:35 UTC,30.23,35.42,15.62,43.85,5.75,250.0,,,,,,1.0,,,,10.0,,KIGQ 051535Z AUTO 25005KT 10SM CLR 02/M09 A3023 RMK AO2  T00191091,,,,,,15.38,,WSW,29.57,29.98,,Clear
KIGQ,04/05/2018 15:55 UTC,30.23,36.68,16.7,43.72,3.44,180.0,,,,,,1.0,,,,10.0,,KIGQ 051555Z AUTO 18003KT 10SM CLR 03/M08 A3023 RMK AO2  T00261085,,,,,,16.46,,S,29.57,29.97,,Clear
KIGQ,04/05/2018 16:15 UTC,30.22,37.4,19.4,47.75,4.61,220.0,,,,,,1.0,,,,10.0,,KIGQ 051615Z AUTO 22004KT 10SM CLR 03/M07 A3022 RMK AO2  T00301070,,,,,,19.18,,SW,29.56,29.93,,Clear
KIGQ,04/05/2018 16:35 UTC,30.22,37.4,19.58,48.12,8.05,240.0,,,,,,1202.0,,,,10.0,,KIGQ 051635Z AUTO 24007KT 10SM SCT120 03/M07 A3022 RMK AO2  T00301069,,,,,,19.36,33.42,WSW,29.56,29.93,,Partly Cloudy
KIGQ,04/05/2018 16:55 UTC,30.21,37.94,20.12,48.21,9.22,220.0,,,,,,1202.0,,,,10.0,,KIGQ 051655Z AUTO 22008KT 10SM SCT120 03/M07 A3021 RMK AO2  T00331066,,,,,,19.9,33.5,SW,29.55,29.91,,Partly Cloudy
KIGQ,04/05/2018 17:15 UTC,30.2,39.92,21.56,47.44,8.05,210.0,,,,,,1202.0,,,,10.0,,KIGQ 051715Z AUTO 21007KT 10SM SCT120 04/M06 A3020 RMK AO2  T00441058,,,,,,21.34,36.38,SSW,29.54,29.87,,Partly Cloudy
KIGQ,04/05/2018 17:35 UTC,30.19,39.2,20.66,46.96,9.22,200.0,,,,,,1102.0,,,,10.0,,KIGQ 051735Z AUTO 20008KT 10SM SCT110 04/M06 A3019 RMK AO2  T00401063,,,,,,20.44,34.99,SSW,29.53,29.88,,Partly Cloudy
KIGQ,04/05/2018 17:55 UTC,30.19,38.3,21.38,50.15,9.22,210.0,,,,,,1003.0,,,,10.0,,KIGQ 051755Z AUTO 21008KT 10SM BKN100 04/M06 A3019 RMK AO2  T00351059 10044 21046,39.92,23.72,10000.0,,,21.17,33.93,SSW,29.53,29.87,,Mostly Cloudy
KIGQ,04/05/2018 18:15 UTC,30.18,38.84,23.0,52.58,11.5,210.0,,,,,,1003.0,,,,10.0,,KIGQ 051815Z AUTO 21010KT 10SM BKN100 04/M05 A3018 RMK AO2  T00381050,,,10000.0,,,22.8,33.66,SSW,29.52,29.84,,Mostly Cloudy
KIGQ,04/05/2018 18:35 UTC,30.17,39.56,23.54,52.3,10.36,190.0,,,,,,1003.0,,,,10.0,,KIGQ 051835Z AUTO 19009KT 10SM BKN100 04/M05 A3017 RMK AO2  T00421047,,,10000.0,,,23.34,34.95,S,29.51,29.82,,Mostly Cloudy
KIGQ,04/05/2018 18:55 UTC,30.16,39.74,24.8,54.75,12.66,220.0,16.11,,,,,904.0,,,,10.0,,KIGQ 051855Z AUTO 22011G14KT 10SM OVC090 04/M04 A3016 RMK AO2  T00431040,,,9000.0,,,24.61,34.34,SW,29.5,29.79,,Overcast
KIGQ,04/05/2018 19:15 UTC,30.15,39.92,24.98,54.78,11.5,210.0,17.27,,,,,602.0,704.0,,,10.0,,KIGQ 051915Z AUTO 21010G15KT 10SM SCT060 OVC070 04/M04 A3015 RMK AO2 T00441039,,,7000.0,,,24.79,34.96,SSW,29.49,29.78,,Overcast
KIGQ,04/05/2018 19:35 UTC,30.14,39.02,24.98,56.73,12.66,190.0,,,,,,603.0,704.0,,,10.0,,KIGQ 051935Z AUTO 19011KT 10SM BKN060 OVC070 04/M04 A3014 RMK AO2  T00391039,,,6000.0,,,24.8,33.47,S,29.48,29.77,,Overcast
KIGQ,04/05/2018 19:55 UTC,30.14,39.02,23.72,53.82,10.36,180.0,18.41,,504.0,,,342.0,433.0,,,10.0,,KIGQ 051955Z AUTO 18009G16KT 10SM SCT034 BKN043 OVC050 04/M05  A3014 RMK AO2 T00391046,,,4300.0,,,23.53,34.31,S,29.48,29.79,,Overcast
KIGQ,04/05/2018 20:15 UTC,30.13,38.84,26.6,61.11,13.8,230.0,,,484.0,,,342.0,433.0,,,10.0,,KIGQ 052015Z AUTO 23012KT 10SM SCT034 BKN043 OVC048 04/M03 A3013 RMK AO2 T00381030,,,4300.0,,,26.44,32.88,SW,29.47,29.74,,Overcast
KIGQ,04/05/2018 20:35 UTC,30.12,39.02,28.22,64.88,12.66,230.0,,,,,,412.0,484.0,,,10.0,,KIGQ 052035Z AUTO 23011KT 10SM SCT041 OVC048 04/M02 A3012 RMK AO2  T00391021,,,4800.0,,,28.07,33.47,SW,29.47,29.72,,Overcast
KIGQ,04/05/2018 20:55 UTC,30.11,38.48,28.94,68.25,9.22,170.0,19.57,,,,,343.0,464.0,,,10.0,,KIGQ 052055Z AUTO 17008G17KT 10SM BKN034 OVC046 04/M02 A3011 RMK AO2 T00361017,,,3400.0,,,28.81,34.14,S,29.46,29.7,,Overcast
KIGQ,04/05/2018 21:15 UTC,30.1,36.86,30.74,78.27,11.5,210.0,,,434.0,,,232.0,343.0,,,10.0,,KIGQ 052115Z AUTO 21010KT 10SM SCT023 BKN034 OVC043 03/M01 A3010 RMK AO2 T00271007,,,3400.0,,,30.65,31.27,SSW,29.45,29.67,,Overcast
KIGQ,04/05/2018 21:35 UTC,30.1,35.42,32.0,87.2,8.05,180.0,,20.0,554.0,,,142.0,393.0,,,10.0,,KIGQ 052135Z AUTO 18007KT 10SM -SN SCT014 BKN039 OVC055 02/00  A3010 RMK AO2 T00190000,,,3900.0,,,31.95,31.09,S,29.45,29.66,,Light Snow
KIGQ,04/05/2018 21:55 UTC,30.09,34.52,33.08,94.4,6.91,180.0,,20.0,354.0,,,103.0,293.0,,,7.0,,KIGQ 052155Z AUTO 18006KT 7SM -SN BKN010 BKN029 OVC035 01/01 A3009 RMK AO2 T00140006,,,1000.0,,,33.06,,S,29.44,29.64,,Light Snow
KIGQ,04/05/2018 22:15 UTC,30.09,33.98,33.62,98.57,8.05,190.0,,20.0,,,,104.0,,,,4.0,,KIGQ 052215Z AUTO 19007KT 4SM -SN OVC010 01/01 A3009 RMK AO2  T00110009,,,1000.0,,,33.61,29.4,S,29.44,29.64,,Light Snow
KIGQ,04/05/2018 22:35 UTC,30.08,33.8,33.8,100.0,6.91,180.0,,13.0,,,,84.0,,,,7.0,,KIGQ 052235Z AUTO 18006KT 7SM -RA OVC008 01/01 A3008 RMK AO2  T00100010,,,800.0,,,33.8,,S,29.43,29.63,,Light Rain
KIGQ,04/05/2018 22:55 UTC,30.07,33.8,33.44,98.57,9.22,170.0,,,,,,83.0,144.0,,,10.0,,KIGQ 052255Z AUTO 17008KT 10SM BKN008 OVC014 01/01 A3007 RMK AO2  T00100008,,,800.0,,,33.43,28.59,S,29.42,29.62,,Overcast
KIGQ,04/05/2018 23:15 UTC,30.07,33.8,33.26,97.86,8.05,160.0,,,604.0,,,83.0,143.0,,,10.0,,KIGQ 052315Z AUTO 16007KT 10SM BKN008 BKN014 OVC060 01/01 A3007 RMK AO2 T00100007,,,800.0,,,33.25,29.19,SSE,29.42,29.62,,Overcast
KIGQ,04/05/2018 23:35 UTC,30.05,33.8,33.08,97.15,9.22,130.0,,,604.0,,,82.0,402.0,,,10.0,,KIGQ 052335Z AUTO 13008KT 10SM SCT008 SCT040 OVC060 01/01 A3005 RMK AO2 T00100006,,,6000.0,,,33.07,28.59,SE,29.4,29.61,,Overcast
KIGQ,04/05/2018 23:55 UTC,30.05,33.8,32.9,96.45,6.91,100.0,,,554.0,,,82.0,502.0,,,10.0,,KIGQ 052355Z AUTO 10006KT 10SM SCT008 SCT050 OVC055 01/01 A3005 RMK AO2 T00100005 10047 20010,40.46,33.8,5500.0,,,32.88,,E,29.4,29.61,,Overcast
KIGQ,04/06/2018 00:15 UTC,30.04,33.8,33.08,97.15,8.05,120.0,,,,,,463.0,504.0,,,10.0,,KIGQ 060015Z AUTO 12007KT 10SM BKN046 OVC050 01/01 A3004 RMK AO2  T00100006,,,4600.0,,,33.07,29.19,ESE,29.39,29.6,,Overcast
KIGQ,04/06/2018 00:35 UTC,30.02,33.62,32.9,97.15,9.22,130.0,,,,,,443.0,504.0,,,10.0,,KIGQ 060035Z AUTO 13008KT 10SM BKN044 OVC050 01/01 A3002 RMK AO2  T00090005,,,4400.0,,,32.89,28.37,SE,29.37,29.58,,Overcast
KIGQ,04/06/2018 00:55 UTC,30.03,33.44,32.9,97.86,6.91,140.0,,,504.0,,,72.0,363.0,,,10.0,,KIGQ 060055Z AUTO 14006KT 10SM SCT007 BKN036 OVC050 01/01 A3003 RMK AO2 T00080005,,,3600.0,,,32.89,,SE,29.38,29.59,,Overcast
KIGQ,04/06/2018 01:15 UTC,30.02,33.44,33.08,98.57,8.05,140.0,,13.0,364.0,,,72.0,133.0,,,7.0,,KIGQ 060115Z AUTO 14007KT 7SM -RA SCT007 BKN013 OVC036 01/01 A3002 RMK AO2 T00080006,,,1300.0,,,33.08,28.77,SE,29.37,29.58,,Light Rain
KIGQ,04/06/2018 01:35 UTC,30.01,32.9,32.9,100.0,4.61,110.0,,20.0,334.0,,,72.0,243.0,,,4.0,,KIGQ 060135Z AUTO 11004KT 4SM -SN SCT007 BKN024 OVC033 01/01 A3001 RMK AO2 T00050005,,,2400.0,,,32.9,,ESE,29.36,29.58,,Light Snow
KIGQ,04/06/2018 01:55 UTC,30.0,32.54,32.54,100.0,5.75,100.0,,20.0,204.0,,,53.0,93.0,,,4.0,,KIGQ 060155Z AUTO 10005KT 4SM -SN BKN005 BKN009 OVC020 00/00 A3000 RMK AO2 T00030003,,,500.0,,,32.54,,E,29.35,29.57,,Light Snow
KIGQ,04/06/2018 02:15 UTC,30.0,32.54,32.54,100.0,4.61,100.0,,20.0,,,,54.0,,,,4.0,,KIGQ 060215Z AUTO 10004KT 4SM -SN OVC005 00/00 A3000 RMK AO2  T00030003,,,500.0,,,32.54,,E,29.35,29.57,,Light Snow
KIGQ,04/06/2018 02:35 UTC,29.99,32.54,32.54,100.0,6.91,110.0,,20.0,,,,54.0,,,,2.0,,KIGQ 060235Z AUTO 11006KT 2SM -SN OVC005 00/00 A2999 RMK AO2  T00030003,,,500.0,,,32.54,,ESE,29.34,29.56,,Light Snow
KIGQ,04/06/2018 02:55 UTC,29.99,32.36,32.36,100.0,3.44,90.0,,20.0,194.0,0.01,0.01,52.0,143.0,,,2.5,,KIGQ 060255Z AUTO 09003KT 2 1/2SM -SN SCT005 BKN014 OVC019 00/00  A2999 RMK AO2 P0001 60001 T00020002,,,1400.0,,,32.36,,E,29.34,29.57,,Light Snow
KIGQ,04/06/2018 03:15 UTC,29.99,32.36,32.36,100.0,4.61,120.0,,20.0,,,,53.0,194.0,,,4.0,,KIGQ 060315Z AUTO 12004KT 4SM -SN BKN005 OVC019 00/00 A2999 RMK AO2 T00020002,,,500.0,,,32.36,,ESE,29.34,29.57,,Light Snow
KIGQ,04/06/2018 03:35 UTC,29.98,32.36,32.36,100.0,0.0,0.0,,17.0,244.0,,,52.0,193.0,,,5.0,,KIGQ 060335Z AUTO 00000KT 5SM -DZ SCT005 BKN019 OVC024 00/00 A2998 RMK AO2 T00020002,,,1900.0,,,32.36,,N,29.33,29.56,,Light Drizzle
KIGQ,04/06/2018 03:55 UTC,29.97,32.54,32.54,100.0,6.91,140.0,,41.0,304.0,,,52.0,223.0,,,5.0,,KIGQ 060355Z AUTO 14006KT 5SM UP SCT005 BKN022 OVC030 00/00 A2997 RMK AO2 T00030003,,,2200.0,,,32.54,,SE,29.32,29.54,,Unknown Precip
KIGQ,04/06/2018 04:15 UTC,29.95,32.54,32.54,100.0,10.36,150.0,,41.0,,,,303.0,394.0,,,5.0,,KIGQ 060415Z AUTO 15009KT 5SM UP BKN030 OVC039 00/00 A2995 RMK AO2  T00030003,,,3000.0,,,32.54,26.55,SSE,29.3,29.52,,Unknown Precip
KIGQ,04/06/2018 04:35 UTC,29.94,32.9,32.9,100.0,5.75,150.0,,,394.0,,,52.0,283.0,,,7.0,,KIGQ 060435Z AUTO 15005KT 7SM SCT005 BKN028 OVC039 01/01 A2994 RMK AO2 T00050005,,,2800.0,,,32.9,,SSE,29.29,29.5,,Overcast
KIGQ,04/06/2018 04:55 UTC,29.92,33.08,33.08,100.0,5.75,160.0,,,653.0,,,283.0,333.0,,,10.0,,KIGQ 060455Z AUTO 16005KT 10SM BKN028 BKN033 BKN065 01/01 A2992 RMK AO2 T00060006,,,2800.0,,,33.08,,SSE,29.27,29.48,,Mostly Cloudy
KIGQ,04/06/2018 05:15 UTC,29.91,33.26,33.26,100.0,6.91,170.0,,,653.0,,,303.0,343.0,,,10.0,,KIGQ 060515Z AUTO 17006KT 10SM BKN030 BKN034 BKN065 01/01 A2991 RMK AO2 T00070007,,,3000.0,,,33.26,,S,29.26,29.47,,Mostly Cloudy
KIGQ,04/06/2018 05:35 UTC,29.91,33.26,33.26,100.0,5.75,180.0,,,653.0,,,302.0,342.0,,,10.0,,KIGQ 060535Z AUTO 18005KT 10SM SCT030 SCT034 BKN065 01/01 A2991 RMK AO2 T00070007,,,6500.0,,,33.26,,S,29.26,29.47,,Mostly Cloudy
KIGQ,04/06/2018 05:55 UTC,29.89,33.26,33.26,100.0,5.75,180.0,,,653.0,,,272.0,343.0,0.01,,7.0,,KIGQ 060555Z AUTO 18005KT 7SM SCT027 BKN034 BKN065 01/01 A2989 RMK AO2 60001 T00070007 10010 20001 400471060,33.8,32.18,3400.0,40.46,21.2,33.26,,S,29.24,29.44,,Mostly Cloudy
KIGQ,04/06/2018 06:15 UTC,29.88,33.08,33.08,100.0,5.75,180.0,,,,,,272.0,342.0,,,7.0,,KIGQ 060615Z AUTO 18005KT 7SM SCT027 SCT034 01/01 A2988 RMK AO2  T00060006,,,,,,33.08,,S,29.23,29.44,,Partly Cloudy
KIGQ,04/06/2018 06:35 UTC,29.87,32.9,32.9,100.0,3.44,190.0,,,,,,1.0,,,,7.0,,KIGQ 060635Z AUTO 19003KT 7SM CLR 01/01 A2987 RMK AO2  T00050005,,,,,,32.9,,S,29.22,29.43,,Clear
KIGQ,04/06/2018 06:55 UTC,29.86,32.9,32.9,100.0,5.75,180.0,,,,,,1.0,,,,7.0,,KIGQ 060655Z AUTO 18005KT 7SM CLR 01/01 A2986 RMK AO2  T00050005,,,,,,32.9,,S,29.21,29.42,,Clear
KIGQ,04/06/2018 07:15 UTC,29.85,32.9,32.9,100.0,3.44,210.0,,,,,,1.0,,,,7.0,,KIGQ 060715Z AUTO 21003KT 7SM CLR 01/01 A2985 RMK AO2  T00050005,,,,,,32.9,,SSW,29.2,29.41,,Clear
KIGQ,04/06/2018 07:35 UTC,29.85,33.26,33.26,100.0,5.75,210.0,,,,,,1.0,,,,7.0,,KIGQ 060735Z AUTO 21005KT 7SM CLR 01/01 A2985 RMK AO2  T00070007,,,,,,33.26,,SSW,29.2,29.4,,Clear
KIGQ,04/06/2018 07:55 UTC,29.85,33.8,33.8,100.0,8.05,220.0,,,,,,1.0,,,,7.0,,KIGQ 060755Z AUTO 22007KT 7SM CLR 01/01 A2985 RMK AO2  T00100010,,,,,,33.8,29.19,SW,29.2,29.39,,Clear
KIGQ,04/06/2018 08:15 UTC,29.85,35.06,35.06,100.0,9.22,240.0,,,,,,1.0,,,,10.0,,KIGQ 060815Z AUTO 24008KT 10SM CLR 02/02 A2985 RMK AO2  T00170017,,,,,,35.06,30.08,WSW,29.2,29.36,,Clear
KIGQ,04/06/2018 08:35 UTC,29.84,36.5,36.32,99.29,9.22,260.0,,,,,,1.0,,,,10.0,,KIGQ 060835Z AUTO 26008KT 10SM CLR 03/02 A2984 RMK AO2  T00250024,,,,,,36.32,31.79,W,29.19,29.32,,Clear
KIGQ,04/06/2018 08:55 UTC,29.85,36.68,36.32,98.59,10.36,270.0,,,,,,1.0,,,,10.0,,KIGQ 060855Z AUTO 27009KT 10SM CLR 03/02 A2985 RMK AO2  T00260024,,,,,,36.31,31.5,W,29.2,29.33,,Clear
KIGQ,04/06/2018 09:15 UTC,29.85,37.04,36.5,97.89,9.22,280.0,,,,,,1.0,,,,10.0,,KIGQ 060915Z AUTO 28008KT 10SM CLR 03/03 A2985 RMK AO2  T00280025,,,,,,36.49,32.43,W,29.2,29.32,,Clear
KIGQ,04/06/2018 09:35 UTC,29.85,37.4,35.42,92.47,10.36,280.0,,,,,,1.0,,,,10.0,,KIGQ 060935Z AUTO 28009KT 10SM CLR 03/02 A2985 RMK AO2  T00300019,,,,,,35.39,32.37,W,29.2,29.34,,Clear
KIGQ,04/06/2018 09:55 UTC,29.85,36.5,35.6,96.5,10.36,280.0,16.11,,,,,1.0,,,,10.0,,KIGQ 060955Z AUTO 28009G14KT 10SM CLR 03/02 A2985 RMK AO2  T00250020,,,,,,35.59,31.29,W,29.2,29.34,,Clear
KIGQ,04/06/2018 10:15 UTC,29.86,36.14,35.06,95.8,9.22,280.0,,,,,,1.0,,,,10.0,,KIGQ 061015Z AUTO 28008KT 10SM CLR 02/02 A2986 RMK AO2  T00230017,,,,,,35.04,31.36,W,29.21,29.36,,Clear
KIGQ,04/06/2018 10:35 UTC,29.86,35.6,34.16,94.43,10.36,280.0,19.57,,,,,1.0,,,,10.0,,KIGQ 061035Z AUTO 28009G17KT 10SM CLR 02/01 A2986 RMK AO2  T00200012,,,,,,34.14,30.21,W,29.21,29.38,,Clear
KIGQ,04/06/2018 10:55 UTC,29.86,35.06,33.8,95.1,9.22,280.0,,,,,,1.0,,,,10.0,,KIGQ 061055Z AUTO 28008KT 10SM CLR 02/01 A2986 RMK AO2  T00170010,,,,,,33.78,30.08,W,29.21,29.39,,Clear
KIGQ,04/06/2018 11:15 UTC,29.87,35.06,33.26,93.06,9.22,270.0,,,,,,1.0,,,,10.0,,KIGQ 061115Z AUTO 27008KT 10SM CLR 02/01 A2987 RMK AO2  T00170007,,,,,,33.23,30.08,W,29.22,29.41,,Clear
KIGQ,04/06/2018 11:35 UTC,29.88,34.7,33.08,93.72,8.05,270.0,,,,,,1.0,,,,10.0,,KIGQ 061135Z AUTO 27007KT 10SM CLR 02/01 A2988 RMK AO2  T00150006,,,,,,33.05,30.25,W,29.23,29.43,,Clear
KIGQ,04/06/2018 11:55 UTC,29.9,34.88,33.08,93.05,10.36,280.0,,,,,,1.0,,,0.01,10.0,,KIGQ 061155Z AUTO 28009KT 10SM CLR 02/01 A2990 RMK AO2 70001  T00160006 10030 20003,37.4,32.54,,,,33.05,29.35,W,29.25,29.45,,Clear
KIGQ,04/06/2018 12:15 UTC,29.91,34.88,33.08,93.05,10.36,270.0,,,,,,1.0,,,,10.0,,KIGQ 061215Z AUTO 27009KT 10SM CLR 02/01 A2991 RMK AO2  T00160006,,,,,,33.05,29.35,W,29.26,29.46,,Clear
KIGQ,04/06/2018 12:35 UTC,29.91,35.06,32.9,91.72,8.05,280.0,,,,,,1.0,,,,10.0,,KIGQ 061235Z AUTO 28007KT 10SM CLR 02/01 A2991 RMK AO2  T00170005,,,,,,32.86,30.67,W,29.26,29.46,,Clear
KIGQ,04/06/2018 12:55 UTC,29.91,35.6,32.36,87.85,6.91,290.0,,,,,,1.0,,,,10.0,,KIGQ 061255Z AUTO 29006KT 10SM CLR 02/00 A2991 RMK AO2  T00200002,,,,,,32.31,,WNW,29.26,29.46,,Clear
KIGQ,04/06/2018 13:15 UTC,29.91,35.78,32.0,85.96,9.22,270.0,,,,,,1.0,,,,10.0,,KIGQ 061315Z AUTO 27008KT 10SM CLR 02/00 A2991 RMK AO2  T00210000,,,,,,31.94,30.93,W,29.26,29.47,,Clear
KIGQ,04/06/2018 13:35 UTC,29.91,35.96,32.0,85.35,10.36,280.0,,,,,,222.0,,,,10.0,,KIGQ 061335Z AUTO 28009KT 10SM SCT022 02/00 A2991 RMK AO2  T00220000,,,,,,31.94,30.64,W,29.26,29.47,,Partly Cloudy
KIGQ,04/06/2018 13:55 UTC,29.91,36.14,31.82,84.13,12.66,300.0,17.27,,,,,243.0,,,,10.0,,KIGQ 061355Z AUTO 30011G15KT 10SM BKN024 02/00 A2991 RMK AO2  T00231001,,,2400.0,,,31.75,29.97,WNW,29.26,29.47,,Mostly Cloudy
KIGQ,04/06/2018 14:15 UTC,29.92,36.32,32.0,84.15,14.97,280.0,18.41,,,,,223.0,294.0,,,10.0,,KIGQ 061415Z AUTO 28013G16KT 10SM BKN022 OVC029 02/00 A2992 RMK AO2 T00240000,,,2200.0,,,31.93,29.42,W,29.27,29.47,,Overcast
KIGQ,04/06/2018 14:35 UTC,29.92,36.5,31.28,81.15,19.57,270.0,28.77,,,,,224.0,,,,10.0,,KIGQ 061435Z AUTO 27017G25KT 10SM OVC022 03/00 A2992 RMK AO2  T00251004,,,2200.0,,,31.2,28.38,W,29.27,29.49,,Overcast
KIGQ,04/06/2018 14:55 UTC,29.92,36.14,30.02,78.21,20.71,270.0,26.46,,,,,263.0,,,,10.0,,KIGQ 061455Z AUTO 27018G23KT 10SM BKN026 02/M01 A2992 RMK AO2  T00231011,,,2600.0,,,29.93,27.65,W,29.27,29.51,,Mostly Cloudy
KIGQ,04/06/2018 15:15 UTC,29.92,36.32,29.48,75.96,16.11,270.0,23.02,,1003.0,,,263.0,353.0,,,10.0,,KIGQ 061515Z AUTO 27014G20KT 10SM BKN026 BKN035 BKN100 02/M01  A2992 RMK AO2 T00241014,,,2600.0,,,29.38,29.08,W,29.27,29.51,,Mostly Cloudy
KIGQ,04/06/2018 15:35 UTC,29.92,35.78,26.24,67.92,18.41,270.0,23.02,,,,,262.0,1004.0,,,10.0,,KIGQ 061535Z AUTO 27016G20KT 10SM SCT026 OVC100 02/M03 A2992 RMK AO2 T00211032,,,10000.0,,,26.1,27.77,W,29.27,29.56,,Overcast
KIGQ,04/06/2018 15:55 UTC,29.93,35.6,25.16,65.4,17.27,280.0,25.32,,,,,1004.0,,,,10.0,,KIGQ 061555Z AUTO 28015G22KT 10SM OVC100 02/M04 A2993 RMK AO2  T00201038,,,10000.0,,,25.01,27.85,W,29.28,29.59,,Overcast
KIGQ,04/06/2018 16:15 UTC,29.93,36.14,24.44,62.12,17.27,280.0,26.46,,,,,1004.0,,,,10.0,,KIGQ 061615Z AUTO 28015G23KT 10SM OVC100 02/M04 A2993 RMK AO2  T00231042,,,10000.0,,,24.28,28.53,W,29.28,29.59,,Overcast
KIGQ,04/06/2018 16:35 UTC,29.92,37.04,25.7,63.18,16.11,280.0,28.77,,,,,1003.0,,,,10.0,,KIGQ 061635Z AUTO 28014G25KT 10SM BKN100 03/M03 A2992 RMK AO2  T00281035,,,10000.0,,,25.54,29.97,W,29.27,29.56,,Mostly Cloudy
KIGQ,04/06/2018 16:55 UTC,29.92,36.68,24.62,61.27,18.41,280.0,27.63,,,,,1002.0,,,,10.0,,KIGQ 061655Z AUTO 28016G24KT 10SM SCT100 03/M04 A2992 RMK AO2  T00261041,,,,,,24.46,28.9,W,29.27,29.58,,Partly Cloudy
KIGQ,04/06/2018 17:15 UTC,29.92,36.68,22.82,56.81,13.8,290.0,25.32,,,,,1003.0,,,,10.0,,KIGQ 061715Z AUTO 29012G22KT 10SM BKN100 03/M05 A2992 RMK AO2  T00261051,,,10000.0,,,22.63,30.23,WNW,29.27,29.6,,Mostly Cloudy
KIGQ,04/06/2018 17:35 UTC,29.92,35.96,21.74,55.84,16.11,280.0,26.46,,,,,904.0,,,,10.0,,KIGQ 061735Z AUTO 28014G23KT 10SM OVC090 02/M06 A2992 RMK AO2  T00221057,,,9000.0,,,21.55,28.63,W,29.27,29.61,,Overcast
KIGQ,04/06/2018 17:55 UTC,29.93,35.78,20.84,54.13,13.8,300.0,24.16,,,,,1004.0,,,,10.0,,KIGQ 061755Z AUTO 30012G21KT 10SM OVC100 02/M06 A2993 RMK AO2  T00211062 10030 20016,37.4,34.88,10000.0,,,20.64,29.13,WNW,29.28,29.64,,Overcast
KIGQ,04/06/2018 18:15 UTC,29.94,35.06,20.3,54.44,14.97,300.0,31.07,,,,,1004.0,,,,10.0,,KIGQ 061815Z AUTO 30013G27KT 10SM OVC100 02/M06 A2994 RMK AO2  T00171065,,,10000.0,,,20.1,27.87,WNW,29.29,29.65,,Overcast
KIGQ,04/06/2018 18:35 UTC,29.96,34.88,19.4,52.76,16.11,280.0,24.16,,,,,1004.0,,,,10.0,,KIGQ 061835Z AUTO 28014G21KT 10SM OVC100 02/M07 A2996 RMK AO2  T00161070,,,10000.0,,,19.19,27.29,W,29.31,29.68,,Overcast
KIGQ,04/06/2018 18:55 UTC,29.96,34.88,19.04,51.95,21.85,270.0,28.77,,,,,904.0,,,,10.0,,KIGQ 061855Z AUTO 27019G25KT 10SM OVC090 02/M07 A2996 RMK AO2  T00161072,,,9000.0,,,18.83,25.79,W,29.31,29.69,,Overcast
KIGQ,04/06/2018 19:15 UTC,29.97,34.7,19.76,53.96,17.27,310.0,25.32,,,,,452.0,902.0,,,10.0,,KIGQ 061915Z AUTO 31015G22KT 10SM SCT045 SCT090 02/M07 A2997 RMK AO2 T00151068,,,,,,19.56,26.73,NW,29.32,29.69,,Partly Cloudy
KIGQ,04/06/2018 19:35 UTC,29.96,35.06,19.94,53.61,16.11,300.0,25.32,,,,,453.0,,,,10.0,,KIGQ 061935Z AUTO 30014G22KT 10SM BKN045 02/M07 A2996 RMK AO2  T00171067,,,4500.0,,,19.74,27.52,WNW,29.31,29.68,,Mostly Cloudy
KIGQ,04/06/2018 19:55 UTC,29.97,35.06,18.5,50.4,18.41,310.0,27.63,,,,,474.0,,,,10.0,,KIGQ 061955Z AUTO 31016G24KT 10SM OVC047 02/M07 A2997 RMK AO2  T00171075,,,4700.0,,,18.29,26.87,NW,29.32,29.7,,Overcast
KIGQ,04/06/2018 20:15 UTC,29.98,33.98,16.7,48.68,14.97,300.0,27.63,,,,,473.0,953.0,,,10.0,,KIGQ 062015Z AUTO 30013G24KT 10SM BKN047 BKN095 01/M08 A2998 RMK AO2 T00111085,,,4700.0,,,16.48,26.54,WNW,29.33,29.73,,Mostly Cloudy
KIGQ,04/06/2018 20:35 UTC,29.97,33.98,16.52,48.3,14.97,290.0,23.02,,,,,492.0,953.0,,,10.0,,KIGQ 062035Z AUTO 29013G20KT 10SM SCT049 BKN095 01/M09 A2997 RMK AO2 T00111086,,,9500.0,,,16.3,26.54,WNW,29.32,29.73,,Mostly Cloudy
KIGQ,04/06/2018 20:55 UTC,29.97,33.26,18.14,53.32,16.11,280.0,24.16,,953.0,,,462.0,493.0,,,10.0,,KIGQ 062055Z AUTO 28014G21KT 10SM SCT046 BKN049 BKN095 01/M08  A2997 RMK AO2 T00071077,,,4900.0,,,17.93,25.29,W,29.32,29.71,,Mostly Cloudy
KIGQ,04/06/2018 21:15 UTC,29.98,33.98,16.52,48.3,13.8,280.0,24.16,,1103.0,,,472.0,553.0,,,10.0,,KIGQ 062115Z AUTO 28012G21KT 10SM SCT047 BKN055 BKN110 01/M09  A2998 RMK AO2 T00111086,,,5500.0,,,16.3,26.93,W,29.33,29.74,,Mostly Cloudy
KIGQ,04/06/2018 21:35 UTC,29.98,33.8,15.8,47.14,10.36,290.0,20.71,,,,,502.0,1102.0,,,10.0,,KIGQ 062135Z AUTO 29009G18KT 10SM SCT050 SCT110 01/M09 A2998 RMK AO2 T00101090,,,,,,15.57,28.06,WNW,29.33,29.74,,Partly Cloudy
KIGQ,04/06/2018 21:55 UTC,29.99,33.8,15.62,46.78,12.66,290.0,20.71,,,,,502.0,,,,10.0,,KIGQ 062155Z AUTO 29011G18KT 10SM SCT050 01/M09 A2999 RMK AO2  T00101091,,,,,,15.39,27.12,WNW,29.34,29.76,,Partly Cloudy
KIGQ,04/06/2018 22:15 UTC,29.99,33.8,14.72,44.97,12.66,290.0,21.85,,,,,602.0,1203.0,,,10.0,,KIGQ 062215Z AUTO 29011G19KT 10SM SCT060 BKN120 01/M10 A2999 RMK AO2 T00101096,,,12000.0,,,14.48,27.12,WNW,29.34,29.76,,Mostly Cloudy
KIGQ,04/06/2018 22:35 UTC,30.01,33.98,14.36,43.95,11.5,310.0,19.57,,,,,602.0,1202.0,,,10.0,,KIGQ 062235Z AUTO 31010G17KT 10SM SCT060 SCT120 01/M10 A3001 RMK AO2 T00111098,,,,,,14.12,27.79,NW,29.36,29.79,,Partly Cloudy
KIGQ,04/06/2018 22:55 UTC,30.01,32.36,15.44,49.17,13.8,340.0,18.41,,,,,603.0,,,,10.0,,KIGQ 062255Z AUTO 34012G16KT 10SM BKN060 00/M09 A3001 RMK AO2  T00021092,,,6000.0,,,15.21,24.95,NNW,29.36,29.78,,Mostly Cloudy
KIGQ,04/06/2018 23:15 UTC,30.02,32.0,14.18,47.21,10.36,320.0,19.57,,,,,603.0,,,,10.0,,KIGQ 062315Z AUTO 32009G17KT 10SM BKN060 00/M10 A3002 RMK AO2  T00001099,,,6000.0,,,13.95,25.9,NW,29.37,29.81,,Mostly Cloudy
KIGQ,04/06/2018 23:35 UTC,30.03,31.82,11.66,42.54,12.66,350.0,17.27,,,,,602.0,1202.0,,,10.0,,KIGQ 062335Z AUTO 35011G15KT 10SM SCT060 SCT120 00/M11 A3003 RMK AO2 T10011113,,,,,,11.41,24.71,N,29.38,29.84,,Partly Cloudy
KIGQ,04/06/2018 23:55 UTC,30.04,31.64,10.76,41.17,12.66,340.0,,,,,,1202.0,,,,10.0,,KIGQ 062355Z AUTO 34011KT 10SM SCT120 00/M12 A3004 RMK AO2  T10021118 10023 21002,36.14,31.64,,,,10.51,24.49,NNW,29.39,29.85,,Partly Cloudy
KIGQ,04/07/2018 00:15 UTC,30.04,31.1,10.94,42.42,10.36,340.0,17.27,,,,,1.0,,,,10.0,,KIGQ 070015Z AUTO 34009G15KT 10SM CLR 00/M12 A3004 RMK AO2  T10051117,,,,,,10.69,24.82,NNW,29.39,29.85,,Clear
KIGQ,04/07/2018 00:35 UTC,30.05,30.74,10.4,42.01,10.36,340.0,,,,,,1.0,,,,10.0,,KIGQ 070035Z AUTO 34009KT 10SM CLR M01/M12 A3005 RMK AO2  T10071120,,,,,,10.14,24.39,NNW,29.4,29.87,,Clear
KIGQ,04/07/2018 00:55 UTC,30.06,30.02,11.12,44.68,11.5,340.0,,,,,,1.0,,,,10.0,,KIGQ 070055Z AUTO 34010KT 10SM CLR M01/M12 A3006 RMK AO2  T10111116,,,,,,10.88,23.01,NNW,29.41,29.88,,Clear
KIGQ,04/07/2018 01:15 UTC,30.07,30.2,10.58,43.29,8.05,340.0,,,,,,1.0,,,,10.0,,KIGQ 070115Z AUTO 34007KT 10SM CLR M01/M12 A3007 RMK AO2  T10101119,,,,,,10.33,24.96,NNW,29.42,29.89,,Clear
KIGQ,04/07/2018 01:35 UTC,30.08,29.66,10.76,44.61,10.36,330.0,,,,,,1.0,,,,10.0,,KIGQ 070135Z AUTO 33009KT 10SM CLR M01/M12 A3008 RMK AO2  T10131118,,,,,,10.51,23.1,NNW,29.43,29.9,,Clear
KIGQ,04/07/2018 01:55 UTC,30.09,29.12,11.12,46.35,6.91,320.0,,,,,,1.0,,,,10.0,,KIGQ 070155Z AUTO 32006KT 10SM CLR M02/M12 A3009 RMK AO2  T10161116,,,,,,10.88,,NW,29.44,29.91,,Clear
KIGQ,04/07/2018 02:15 UTC,30.09,28.76,11.48,47.8,6.91,320.0,,,,,,1.0,,,,10.0,,KIGQ 070215Z AUTO 32006KT 10SM CLR M02/M11 A3009 RMK AO2  T10181114,,,,,,11.25,,NW,29.44,29.91,,Clear
KIGQ,04/07/2018 02:35 UTC,30.1,28.4,11.3,48.12,6.91,320.0,,,,,,1.0,,,,10.0,,KIGQ 070235Z AUTO 32006KT 10SM CLR M02/M11 A3010 RMK AO2  T10201115,,,,,,11.07,,NW,29.45,29.92,,Clear
KIGQ,04/07/2018 02:55 UTC,30.1,28.04,11.48,49.23,4.61,320.0,,,,,,1.0,,,,10.0,,KIGQ 070255Z AUTO 32004KT 10SM CLR M02/M11 A3010 RMK AO2  T10221114,,,,,,11.25,,NW,29.45,29.92,,Clear
KIGQ,04/07/2018 03:15 UTC,30.1,27.5,12.2,51.98,5.75,320.0,,,,,,1.0,,,,10.0,,KIGQ 070315Z AUTO 32005KT 10SM CLR M02/M11 A3010 RMK AO2  T10251110,,,,,,11.99,,NW,29.45,29.92,,Clear
KIGQ,04/07/2018 03:35 UTC,30.11,27.5,12.38,52.39,5.75,310.0,,,,,,1.0,,,,10.0,,KIGQ 070335Z AUTO 31005KT 10SM CLR M02/M11 A3011 RMK AO2  T10251109,,,,,,12.16,,NW,29.46,29.93,,Clear
KIGQ,04/07/2018 03:55 UTC,30.11,27.32,12.38,52.78,3.44,330.0,,,,,,1.0,,,,10.0,,KIGQ 070355Z AUTO 33003KT 10SM CLR M03/M11 A3011 RMK AO2  T10261109,,,,,,12.17,,NNW,29.46,29.93,,Clear
KIGQ,04/07/2018 04:15 UTC,30.11,26.78,12.2,53.54,3.44,330.0,,,,,,1.0,,,,10.0,,KIGQ 070415Z AUTO 33003KT 10SM CLR M03/M11 A3011 RMK AO2  T10291110,,,,,,11.99,,NNW,29.46,29.93,,Clear
KIGQ,04/07/2018 04:35 UTC,30.11,26.42,12.92,56.11,0.0,0.0,,,,,,1.0,,,,10.0,,KIGQ 070435Z AUTO 00000KT 10SM CLR M03/M11 A3011 RMK AO2  T10311106,,,,,,12.72,,N,29.46,29.93,,Clear
KIGQ,04/07/2018 04:55 UTC,30.12,26.6,13.28,56.59,4.61,310.0,,,,,,1.0,,,,10.0,,KIGQ 070455Z AUTO 31004KT 10SM CLR M03/M10 A3012 RMK AO2  T10301104,,,,,,13.09,,NW,29.47,29.94,,Clear
KIGQ,04/07/2018 05:15 UTC,30.12,26.96,13.1,55.31,9.22,320.0,,,,,,1.0,,,,10.0,,KIGQ 070515Z AUTO 32008KT 10SM CLR M03/M10 A3012 RMK AO2  T10281105,,,,,,12.9,20.47,NW,29.47,29.94,,Clear
KIGQ,04/07/2018 05:35 UTC,30.13,26.24,12.74,56.08,3.44,330.0,,,,,,1.0,,,,10.0,,KIGQ 070535Z AUTO 33003KT 10SM CLR M03/M11 A3013 RMK AO2  T10321107,,,,,,12.54,,NNW,29.47,29.94,,Clear
KIGQ,04/07/2018 05:55 UTC,30.12,26.6,12.2,53.94,5.75,330.0,,,,,,1.0,,,,10.0,,KIGQ 070555Z AUTO 33005KT 10SM CLR M03/M11 A3012 RMK AO2 T10301110  11003 21034 400301034,31.46,25.88,,37.4,25.88,11.99,,NNW,29.47,29.94,,Clear
KIGQ,04/07/2018 06:15 UTC,30.13,25.52,12.74,57.78,4.61,320.0,,,,,,1.0,,,,10.0,,KIGQ 070615Z AUTO 32004KT 10SM CLR M04/M11 A3013 RMK AO2  T10361107,,,,,,12.55,,NW,29.47,29.95,,Clear
KIGQ,04/07/2018 06:35 UTC,30.13,25.7,12.74,57.35,9.22,330.0,,,,,,1.0,,,,10.0,,KIGQ 070635Z AUTO 33008KT 10SM CLR M03/M11 A3013 RMK AO2  T10351107,,,,,,12.55,18.97,NNW,29.47,29.95,,Clear
KIGQ,04/07/2018 06:55 UTC,30.13,25.16,12.38,57.73,3.44,310.0,,,,,,1.0,,,,10.0,,KIGQ 070655Z AUTO 31003KT 10SM CLR M04/M11 A3013 RMK AO2  T10381109,,,,,,12.19,,NW,29.47,29.95,,Clear
KIGQ,04/07/2018 07:15 UTC,30.13,24.62,12.2,58.58,3.44,310.0,,,,,,1.0,,,,10.0,,KIGQ 070715Z AUTO 31003KT 10SM CLR M04/M11 A3013 RMK AO2  T10411110,,,,,,12.01,,NW,29.47,29.95,,Clear
KIGQ,04/07/2018 07:35 UTC,30.13,24.26,11.66,58.05,4.61,310.0,,,,,,1.0,,,,10.0,,KIGQ 070735Z AUTO 31004KT 10SM CLR M04/M11 A3013 RMK AO2  T10431113,,,,,,11.47,,NW,29.47,29.96,,Clear
KIGQ,04/07/2018 07:55 UTC,30.13,24.62,11.12,55.83,6.91,320.0,,,,,,1.0,,,,10.0,,KIGQ 070755Z AUTO 32006KT 10SM CLR M04/M12 A3013 RMK AO2  T10411116,,,,,,10.92,,NW,29.47,29.96,,Clear
KIGQ,04/07/2018 08:15 UTC,30.13,24.08,10.22,54.85,5.75,330.0,,,,,,1.0,,,,10.0,,KIGQ 070815Z AUTO 33005KT 10SM CLR M04/M12 A3013 RMK AO2  T10441121,,,,,,10.02,,NNW,29.47,29.97,,Clear
KIGQ,04/07/2018 08:35 UTC,30.14,22.82,11.84,62.17,3.44,310.0,,,,,,1.0,,,,10.0,,KIGQ 070835Z AUTO 31003KT 10SM CLR M05/M11 A3014 RMK AO2  T10511112,,,,,,11.67,,NW,29.48,29.97,,Clear
KIGQ,04/07/2018 08:55 UTC,30.14,23.72,9.5,53.91,6.91,330.0,,,,,,1.0,,,,10.0,,KIGQ 070855Z AUTO 33006KT 10SM CLR M05/M12 A3014 RMK AO2  T10461125,,,,,,9.29,,NNW,29.48,29.98,,Clear
KIGQ,04/07/2018 09:15 UTC,30.14,23.54,9.68,54.77,8.05,320.0,,,,,,1.0,,,,10.0,,KIGQ 070915Z AUTO 32007KT 10SM CLR M05/M12 A3014 RMK AO2  T10471124,,,,,,9.48,17.14,NW,29.48,29.98,,Clear
KIGQ,04/07/2018 09:35 UTC,30.15,22.82,10.04,57.37,4.61,310.0,,,,,,1.0,,,,10.0,,KIGQ 070935Z AUTO 31004KT 10SM CLR M05/M12 A3015 RMK AO2  T10511122,,,,,,9.85,,NW,29.49,29.99,,Clear
KIGQ,04/07/2018 09:55 UTC,30.15,22.28,8.96,55.91,4.61,320.0,,,,,,1.0,,,,10.0,,KIGQ 070955Z AUTO 32004KT 10SM CLR M05/M13 A3015 RMK AO2  T10541128,,,,,,8.76,,NW,29.49,30.0,,Clear
KIGQ,04/07/2018 10:15 UTC,30.16,21.74,8.6,56.28,4.61,340.0,,,,,,1.0,,,,10.0,,KIGQ 071015Z AUTO 34004KT 10SM CLR M06/M13 A3016 RMK AO2  T10571130,,,,,,8.4,,NNW,29.5,30.02,,Clear
KIGQ,04/07/2018 10:35 UTC,30.16,21.92,6.62,51.05,6.91,330.0,,,,,,1.0,,,,10.0,,KIGQ 071035Z AUTO 33006KT 10SM CLR M06/M14 A3016 RMK AO2  T10561141,,,,,,6.4,,NNW,29.5,30.03,,Clear
KIGQ,04/07/2018 10:55 UTC,30.16,21.74,6.62,51.44,5.75,310.0,,,,,,1.0,,,,10.0,,KIGQ 071055Z AUTO 31005KT 10SM CLR M06/M14 A3016 RMK AO2  T10571141,,,,,,6.4,,NW,29.5,30.03,,Clear
KIGQ,04/07/2018 11:15 UTC,30.16,21.02,7.16,54.36,5.75,310.0,,,,,,1.0,,,,10.0,,KIGQ 071115Z AUTO 31005KT 10SM CLR M06/M14 A3016 RMK AO2  T10611138,,,,,,6.96,,NW,29.5,30.03,,Clear
KIGQ,04/07/2018 11:35 UTC,30.17,20.3,7.52,56.98,3.44,290.0,,,,,,1.0,,,,10.0,,KIGQ 071135Z AUTO 29003KT 10SM CLR M06/M14 A3017 RMK AO2  T10651136,,,,,,7.33,,WNW,29.51,30.04,,Clear
KIGQ,04/07/2018 11:55 UTC,30.17,20.84,7.88,56.6,5.75,310.0,,,,,,1.0,,,,10.0,,KIGQ 071155Z AUTO 31005KT 10SM CLR M06/M13 A3017 RMK AO2 T10621134  11030 21065,26.6,20.3,,,,7.69,,NW,29.51,30.03,,Clear
KIGQ,04/07/2018 12:15 UTC,30.18,21.74,7.88,54.48,6.91,310.0,,,,,,1.0,,,,10.0,,KIGQ 071215Z AUTO 31006KT 10SM CLR M06/M13 A3018 RMK AO2  T10571134,,,,,,7.68,,NW,29.52,30.04,,Clear
KIGQ,04/07/2018 12:35 UTC,30.18,22.82,7.88,52.05,8.05,320.0,,,,,,1.0,,,,10.0,,KIGQ 071235Z AUTO 32007KT 10SM CLR M05/M13 A3018 RMK AO2  T10511134,,,,,,7.67,16.29,NW,29.52,30.04,,Clear
KIGQ,04/07/2018 12:55 UTC,30.18,23.18,7.52,50.43,9.22,310.0,,,,,,1.0,,,,10.0,,KIGQ 071255Z AUTO 31008KT 10SM CLR M05/M14 A3018 RMK AO2  T10491136,,,,,,7.3,15.98,NW,29.52,30.04,,Clear
KIGQ,04/07/2018 13:15 UTC,30.18,23.9,7.34,48.53,6.91,320.0,,,,,,1.0,,,,10.0,,KIGQ 071315Z AUTO 32006KT 10SM CLR M04/M14 A3018 RMK AO2  T10451137,,,,,,7.11,,NW,29.52,30.04,,Clear
KIGQ,04/07/2018 13:35 UTC,30.18,24.98,7.88,47.54,5.75,310.0,,,,,,1.0,,,,10.0,,KIGQ 071335Z AUTO 31005KT 10SM CLR M04/M13 A3018 RMK AO2  T10391134,,,,,,7.65,,NW,29.52,30.03,,Clear
KIGQ,04/07/2018 13:55 UTC,30.18,25.16,7.88,47.18,4.61,310.0,,,,,,1.0,,,,10.0,,KIGQ 071355Z AUTO 31004KT 10SM CLR M04/M13 A3018 RMK AO2  T10381134,,,,,,7.64,,NW,29.52,30.03,,Clear
KIGQ,04/07/2018 14:15 UTC,30.17,26.06,8.24,46.2,3.44,340.0,,,,,,1.0,,,,10.0,,KIGQ 071415Z AUTO 34003KT 10SM CLR M03/M13 A3017 RMK AO2  T10331132,,,,,,8.0,,NNW,29.51,30.01,,Clear
KIGQ,04/07/2018 14:35 UTC,30.17,26.42,7.88,44.78,3.44,260.0,,,,,,1.0,,,,10.0,,KIGQ 071435Z AUTO 26003KT 10SM CLR M03/M13 A3017 RMK AO2  T10311134,,,,,,7.64,,W,29.51,30.01,,Clear
KIGQ,04/07/2018 14:55 UTC,30.16,27.14,8.06,43.82,0.0,0.0,,,,,,1.0,,,,10.0,,KIGQ 071455Z AUTO 00000KT 10SM CLR M03/M13 A3016 RMK AO2  T10271133,,,,,,7.81,,N,29.5,30.0,,Clear
KIGQ,04/07/2018 15:15 UTC,30.16,27.68,9.14,45.0,3.44,330.0,,,,,,1.0,,,,10.0,,KIGQ 071515Z AUTO 33003KT 10SM CLR M02/M13 A3016 RMK AO2  T10241127,,,,,,8.9,,NNW,29.5,29.99,,Clear
KIGQ,04/07/2018 15:35 UTC,30.16,28.76,10.04,44.82,3.44,320.0,,,,,,1.0,,,,10.0,,KIGQ 071535Z AUTO 32003KT 10SM CLR M02/M12 A3016 RMK AO2  T10181122,,,,,,9.8,,NW,29.5,29.98,,Clear
KIGQ,04/07/2018 15:55 UTC,30.16,29.3,10.04,43.84,4.61,280.0,,,,,,1.0,,,,10.0,,KIGQ 071555Z AUTO 28004KT 10SM CLR M01/M12 A3016 RMK AO2  T10151122,,,,,,9.79,,W,29.5,29.98,,Clear
KIGQ,04/07/2018 16:15 UTC,30.15,30.02,10.76,43.96,6.91,320.0,,,,,,1.0,,,,10.0,,KIGQ 071615Z AUTO 32006KT 280V340 10SM CLR M01/M12 A3015 RMK AO2  T10111118,,,,,,10.51,,NW,29.49,29.96,,Clear
KIGQ,04/07/2018 16:35 UTC,30.15,31.1,11.66,43.8,8.05,290.0,,,,,,1.0,,,,10.0,,KIGQ 071635Z AUTO 29007KT 10SM CLR 00/M11 A3015 RMK AO2  T10051113,,,,,,11.41,26.02,WNW,29.49,29.95,,Clear
KIGQ,04/07/2018 16:55 UTC,30.14,31.64,12.02,43.54,6.91,320.0,,,,,,1.0,,,,10.0,,KIGQ 071655Z AUTO 32006KT 10SM CLR 00/M11 A3014 RMK AO2  T10021111,,,,,,11.77,,NW,29.48,29.94,,Clear
KIGQ,04/07/2018 17:15 UTC,30.14,32.0,12.92,44.66,4.61,330.0,,,,,,1.0,,,,10.0,,KIGQ 071715Z AUTO 33004KT 10SM CLR 00/M11 A3014 RMK AO2  T00001106,,,,,,12.68,,NNW,29.48,29.93,,Clear
KIGQ,04/07/2018 17:35 UTC,30.13,32.0,13.46,45.74,4.61,300.0,,,,,,1.0,,,,10.0,,KIGQ 071735Z AUTO 30004KT 10SM CLR 00/M10 A3013 RMK AO2  T00001103,,,,,,13.22,,WNW,29.47,29.91,,Clear
KIGQ,04/07/2018 17:55 UTC,30.13,33.62,14.0,43.89,8.05,290.0,20.71,,,,,1.0,,,,10.0,,KIGQ 071755Z AUTO 29007G18KT 10SM CLR 01/M10 A3013 RMK AO2  T00091100 10009 21061,33.62,21.02,,,,13.76,28.98,WNW,29.47,29.9,,Clear
KIGQ,04/07/2018 18:15 UTC,30.12,34.16,14.72,44.33,8.05,300.0,,,,,,1.0,,,,10.0,,KIGQ 071815Z AUTO 30007KT 10SM CLR 01/M10 A3012 RMK AO2  T00121096,,,,,,14.48,29.61,WNW,29.47,29.89,,Clear
KIGQ,04/07/2018 18:35 UTC,30.11,34.34,14.72,44.01,10.36,320.0,16.11,,,,,1.0,,,,10.0,,KIGQ 071835Z AUTO 32009G14KT 10SM CLR 01/M10 A3011 RMK AO2  T00131096,,,,,,14.48,28.7,NW,29.46,29.88,,Clear
KIGQ,04/07/2018 18:55 UTC,30.11,35.42,15.26,43.17,8.05,300.0,18.41,,,,,1.0,,,,10.0,,KIGQ 071855Z AUTO 30007G16KT 10SM CLR 02/M09 A3011 RMK AO2  T00191093,,,,,,15.02,31.09,WNW,29.46,29.87,,Clear
KIGQ,04/07/2018 19:15 UTC,30.1,35.24,15.26,43.48,9.22,280.0,,,,,,1.0,,,,10.0,,KIGQ 071915Z AUTO 28008KT 240V300 10SM CLR 02/M09 A3010 RMK AO2  T00181093,,,,,,15.02,30.29,W,29.45,29.86,,Clear
KIGQ,04/07/2018 19:35 UTC,30.09,35.78,15.44,42.89,6.91,320.0,17.27,,,,,1.0,,,,10.0,,KIGQ 071935Z AUTO 32006G15KT 270V330 10SM CLR 02/M09 A3009 RMK AO2  T00211092,,,,,,15.2,,NW,29.44,29.85,,Clear
KIGQ,04/07/2018 19:55 UTC,30.08,36.86,16.52,43.08,14.97,270.0,18.41,,,,,1.0,,,,10.0,,KIGQ 071955Z AUTO 27013G16KT 10SM CLR 03/M09 A3008 RMK AO2  T00271086,,,,,,16.28,30.09,W,29.43,29.83,,Clear
KIGQ,04/07/2018 20:15 UTC,30.08,36.68,16.34,43.04,11.5,290.0,17.27,,,,,1.0,,,,10.0,,KIGQ 072015Z AUTO 29010G15KT 10SM CLR 03/M09 A3008 RMK AO2  T00261087,,,,,,16.1,31.05,WNW,29.43,29.83,,Clear
KIGQ,04/07/2018 20:35 UTC,30.08,36.5,16.16,43.01,10.36,300.0,17.27,,,,,1.0,,,,10.0,,KIGQ 072035Z AUTO 30009G15KT 10SM CLR 03/M09 A3008 RMK AO2  T00251088,,,,,,15.92,31.29,WNW,29.43,29.83,,Clear
KIGQ,04/07/2018 20:55 UTC,30.08,37.22,15.98,41.48,8.05,330.0,16.11,,,,,1.0,,,,10.0,,KIGQ 072055Z AUTO 33007G14KT 10SM CLR 03/M09 A3008 RMK AO2  T00291089,,,,,,15.73,33.21,NNW,29.43,29.83,,Clear
KIGQ,04/07/2018 21:15 UTC,30.06,37.76,16.88,42.23,9.22,300.0,17.27,,,,,1.0,,,,10.0,,KIGQ 072115Z AUTO 30008G15KT 10SM CLR 03/M08 A3006 RMK AO2  T00321084,,,,,,16.64,33.28,WNW,29.41,29.8,,Clear
KIGQ,04/07/2018 21:35 UTC,30.06,36.86,15.98,42.08,6.91,280.0,17.27,,,,,1.0,,,,10.0,,KIGQ 072135Z AUTO 28006G15KT 10SM CLR 03/M09 A3006 RMK AO2  T00271089,,,,,,15.74,,W,29.41,29.81,,Clear
KIGQ,04/07/2018 21:55 UTC,30.05,37.58,15.26,39.63,9.22,340.0,,,,,,1.0,,,,10.0,,KIGQ 072155Z AUTO 34008KT 10SM CLR 03/M09 A3005 RMK AO2  T00311093,,,,,,15.01,33.07,NNW,29.4,29.8,,Clear
KIGQ,04/07/2018 22:15 UTC,30.05,36.86,15.26,40.77,6.91,290.0,18.41,,,,,1.0,,,,10.0,,KIGQ 072215Z AUTO 29006G16KT 260V330 10SM CLR 03/M09 A3005 RMK AO2  T00271093,,,,,,15.01,,WNW,29.4,29.81,,Clear
KIGQ,04/07/2018 22:35 UTC,30.05,37.22,15.26,40.2,9.22,280.0,,,,,,1.0,,,,10.0,,KIGQ 072235Z AUTO 28008KT 10SM CLR 03/M09 A3005 RMK AO2  T00291093,,,,,,15.01,32.64,W,29.4,29.8,,Clear
KIGQ,04/07/2018 22:55 UTC,30.05,35.24,18.14,49.27,0.0,0.0,,,,,,1.0,,,,10.0,,KIGQ 072255Z AUTO 00000KT 10SM CLR 02/M08 A3005 RMK AO2  T00181077,,,,,,17.92,,N,29.4,29.79,,Clear
KIGQ,04/07/2018 23:15 UTC,30.06,34.7,18.68,51.52,6.91,30.0,,,,,,1.0,,,,10.0,,KIGQ 072315Z AUTO 03006KT 10SM CLR 02/M07 A3006 RMK AO2  T00151074,,,,,,18.47,,NNE,29.41,29.79,,Clear
KIGQ,04/07/2018 23:35 UTC,30.06,33.62,17.6,51.35,5.75,60.0,,,,,,1.0,,,,10.0,,KIGQ 072335Z AUTO 06005KT 10SM CLR 01/M08 A3006 RMK AO2  T00091080,,,,,,17.39,,ENE,29.41,29.81,,Clear
KIGQ,04/07/2018 23:55 UTC,30.06,32.9,18.14,54.1,5.75,50.0,,,,,,1.0,,,,10.0,,KIGQ 072355Z AUTO 05005KT 10SM CLR 01/M08 A3006 RMK AO2 T00051077  10033 20005,37.94,32.9,,,,17.94,,NE,29.41,29.81,,Clear
KIGQ,04/08/2018 00:15 UTC,30.06,31.28,18.5,58.65,4.61,60.0,,,,,,1.0,,,,10.0,,KIGQ 080015Z AUTO 06004KT 10SM CLR 00/M07 A3006 RMK AO2  T10041075,,,,,,18.31,,ENE,29.41,29.81,,Clear
KIGQ,04/08/2018 00:35 UTC,30.06,30.2,18.5,61.28,3.44,50.0,,,,,,1.0,,,,10.0,,KIGQ 080035Z AUTO 05003KT 10SM CLR M01/M07 A3006 RMK AO2  T10101075,,,,,,18.33,,NE,29.41,29.82,,Clear
KIGQ,04/08/2018 00:55 UTC,30.06,30.02,18.5,61.73,3.44,40.0,,,,,,1.0,,,,10.0,,KIGQ 080055Z AUTO 04003KT 10SM CLR M01/M07 A3006 RMK AO2  T10111075,,,,,,18.33,,NE,29.41,29.82,,Clear
KIGQ,04/08/2018 01:15 UTC,30.07,29.3,18.14,62.6,0.0,0.0,,,,,,1.0,,,,10.0,,KIGQ 080115Z AUTO 00000KT 10SM CLR M01/M08 A3007 RMK AO2  T10151077,,,,,,17.97,,N,29.42,29.84,,Clear
KIGQ,04/08/2018 01:35 UTC,30.08,29.84,18.68,62.67,3.44,100.0,,,,,,1.0,,,,10.0,,KIGQ 080135Z AUTO 10003KT 10SM CLR M01/M07 A3008 RMK AO2  T10121074,,,,,,18.51,,E,29.43,29.84,,Clear
KIGQ,04/08/2018 01:55 UTC,30.09,28.94,18.5,64.52,3.44,90.0,,,,,,1.0,,,,10.0,,KIGQ 080155Z AUTO 09003KT 10SM CLR M02/M07 A3009 RMK AO2  T10171075,,,,,,18.34,,E,29.44,29.85,,Clear
KIGQ,04/08/2018 02:15 UTC,30.09,28.94,18.68,65.02,3.44,90.0,,,,,,1.0,,,,10.0,,KIGQ 080215Z AUTO 09003KT 10SM CLR M02/M07 A3009 RMK AO2  T10171074,,,,,,18.52,,E,29.44,29.85,,Clear
KIGQ,04/08/2018 02:35 UTC,30.09,28.94,18.32,64.02,3.44,90.0,,,,,,1.0,,,,10.0,,KIGQ 080235Z AUTO 09003KT 10SM CLR M02/M08 A3009 RMK AO2  T10171076,,,,,,18.16,,E,29.44,29.86,,Clear
KIGQ,04/08/2018 02:55 UTC,30.09,28.4,18.5,65.96,0.0,0.0,,,,,,1.0,,,,10.0,,KIGQ 080255Z AUTO 00000KT 10SM CLR M02/M07 A3009 RMK AO2  T10201075,,,,,,18.35,,N,29.44,29.86,,Clear
KIGQ,04/08/2018 03:15 UTC,30.09,27.5,18.5,68.45,3.44,90.0,,,,,,1.0,,,,10.0,,KIGQ 080315Z AUTO 09003KT 10SM CLR M02/M07 A3009 RMK AO2  T10251075,,,,,,18.36,,E,29.44,29.86,,Clear
KIGQ,04/08/2018 03:35 UTC,30.09,27.14,17.96,67.88,0.0,0.0,,,,,,1.0,,,,10.0,,KIGQ 080335Z AUTO 00000KT 10SM CLR M03/M08 A3009 RMK AO2  T10271078,,,,,,17.82,,N,29.44,29.87,,Clear
KIGQ,04/08/2018 03:55 UTC,30.09,26.06,18.5,72.65,0.0,0.0,,,,,,1.0,,,,10.0,,KIGQ 080355Z AUTO 00000KT 10SM CLR M03/M07 A3009 RMK AO2  T10331075,,,,,,18.38,,N,29.44,29.87,,Clear
KIGQ,04/08/2018 04:15 UTC,30.09,26.06,18.14,71.53,0.0,0.0,,,,,,1.0,,,,10.0,,KIGQ 080415Z AUTO 00000KT 10SM CLR M03/M08 A3009 RMK AO2  T10331077,,,,,,18.01,,N,29.44,29.87,,Clear
KIGQ,04/08/2018 04:35 UTC,30.09,24.62,17.6,74.2,0.0,0.0,,,,,,1.0,,,,10.0,,KIGQ 080435Z AUTO 00000KT 10SM CLR M04/M08 A3009 RMK AO2  T10411080,,,,,,17.48,,N,29.44,29.88,,Clear
KIGQ,04/08/2018 04:55 UTC,30.09,22.46,18.32,83.82,0.0,0.0,,,,,,1.0,,,,10.0,,KIGQ 080455Z AUTO 00000KT 10SM CLR M05/M08 A3009 RMK AO2  T10531076,,,,,,18.25,,N,29.44,29.89,,Clear
KIGQ,04/08/2018 05:15 UTC,30.09,23.18,18.32,81.31,0.0,0.0,,,,,,1.0,,,,10.0,,KIGQ 080515Z AUTO 00000KT 10SM CLR M05/M08 A3009 RMK AO2  T10491076,,,,,,18.24,,N,29.44,29.88,,Clear
KIGQ,04/08/2018 05:35 UTC,30.09,23.18,18.32,81.31,0.0,0.0,,,,,,1.0,,,,10.0,,KIGQ 080535Z AUTO 00000KT 10SM CLR M05/M08 A3009 RMK AO2  T10491076,,,,,,18.24,,N,29.44,29.88,,Clear
KIGQ,04/08/2018 05:55 UTC,30.08,19.4,16.16,86.94,0.0,0.0,,,,,,1.0,,,,10.0,,KIGQ 080555Z AUTO 00000KT 10SM CLR M07/M09 A3008 RMK AO2 T10701088  10004 21070 400331070,32.72,19.4,,37.94,19.4,16.1,,N,29.43,29.91,,Clear
KIGQ,04/08/2018 06:15 UTC,30.08,23.18,18.86,83.22,0.0,0.0,,,,,,1.0,,,,10.0,,KIGQ 080615Z AUTO 00000KT 10SM CLR M05/M07 A3008 RMK AO2  T10491073,,,,,,18.78,,N,29.43,29.87,,Clear
KIGQ,04/08/2018 06:35 UTC,30.08,23.72,18.86,81.35,0.0,0.0,,,,,,1.0,,,,10.0,,KIGQ 080635Z AUTO 00000KT 10SM CLR M05/M07 A3008 RMK AO2  T10461073,,,,,,18.77,,N,29.43,29.87,,Clear
KIGQ,04/08/2018 06:55 UTC,30.08,22.46,18.68,85.12,0.0,0.0,,,,,,1.0,,,,10.0,,KIGQ 080655Z AUTO 00000KT 10SM CLR M05/M07 A3008 RMK AO2  T10531074,,,,,,18.61,,N,29.43,29.87,,Clear
KIGQ,04/08/2018 07:15 UTC,30.08,20.3,17.6,89.05,0.0,0.0,,,,,,1.0,,,,10.0,,KIGQ 080715Z AUTO 00000KT 10SM CLR M06/M08 A3008 RMK AO2  T10651080,,,,,,17.55,,N,29.43,29.89,,Clear
KIGQ,04/08/2018 07:35 UTC,30.08,19.04,17.06,91.81,0.0,0.0,,,,,,1.0,,,,10.0,,KIGQ 080735Z AUTO 00000KT 10SM CLR M07/M08 A3008 RMK AO2  T10721083,,,,,,17.02,,N,29.43,29.9,,Clear
KIGQ,04/08/2018 07:55 UTC,30.08,19.04,17.06,91.81,0.0,0.0,,,,,,1.0,,,,10.0,,KIGQ 080755Z AUTO 00000KT 10SM CLR M07/M08 A3008 RMK AO2  T10721083,,,,,,17.02,,N,29.43,29.9,,Clear
KIGQ,04/08/2018 08:15 UTC,30.08,18.68,17.42,94.71,0.0,0.0,,,,,,1.0,,,,10.0,,KIGQ 080815Z AUTO 00000KT 10SM CLR M07/M08 A3008 RMK AO2  T10741081,,,,,,17.4,,N,29.43,29.9,,Clear
KIGQ,04/08/2018 08:35 UTC,30.08,17.96,17.24,96.94,0.0,0.0,,,,,,1.0,,,,10.0,,KIGQ 080835Z AUTO 00000KT 10SM CLR M08/M08 A3008 RMK AO2  T10781082,,,,,,17.23,,N,29.43,29.91,,Clear
KIGQ,04/08/2018 08:55 UTC,30.09,18.32,16.7,93.23,0.0,0.0,,,,,,1.0,,,,10.0,,KIGQ 080855Z AUTO 00000KT 10SM CLR M08/M08 A3009 RMK AO2  T10761085,,,,,,16.67,,N,29.44,29.92,,Clear
KIGQ,04/08/2018 09:15 UTC,30.1,19.4,17.6,92.55,0.0,0.0,,,,,,1.0,,,,10.0,,KIGQ 080915Z AUTO 00000KT 10SM CLR M07/M08 A3010 RMK AO2  T10701080,,,,,,17.57,,N,29.45,29.92,,Clear
KIGQ,04/08/2018 09:35 UTC,30.09,18.14,16.52,93.23,0.0,0.0,,,,,,1.0,,,,10.0,,KIGQ 080935Z AUTO 00000KT 10SM CLR M08/M09 A3009 RMK AO2  T10771086,,,,,,16.49,,N,29.44,29.92,,Clear
KIGQ,04/08/2018 09:55 UTC,30.09,17.78,16.88,96.18,0.0,0.0,,,,,,1.0,,,,10.0,,KIGQ 080955Z AUTO 00000KT 10SM CLR M08/M08 A3009 RMK AO2  T10791084,,,,,,16.86,,N,29.44,29.92,,Clear
KIGQ,04/08/2018 10:15 UTC,30.09,16.7,15.8,96.16,0.0,0.0,,,,,,1.0,,,,10.0,,KIGQ 081015Z AUTO 00000KT 10SM CLR M08/M09 A3009 RMK AO2  T10851090,,,,,,15.78,,N,29.44,29.93,,Clear
KIGQ,04/08/2018 10:35 UTC,30.1,17.42,16.7,96.93,0.0,0.0,,,,,,1.0,,,,10.0,,KIGQ 081035Z AUTO 00000KT 10SM CLR M08/M08 A3010 RMK AO2  T10811085,,,,,,16.69,,N,29.45,29.94,,Clear
KIGQ,04/08/2018 10:55 UTC,30.11,17.96,17.24,96.94,3.44,210.0,,,,,,1.0,,,,10.0,,KIGQ 081055Z AUTO 21003KT 10SM CLR M08/M08 A3011 RMK AO2  T10781082,,,,,,17.23,,SSW,29.46,29.94,,Clear
KIGQ,04/08/2018 11:15 UTC,30.11,16.16,15.62,97.67,3.44,210.0,,,,,,1.0,,,,10.0,,KIGQ 081115Z AUTO 21003KT 10SM CLR M09/M09 A3011 RMK AO2  T10881091,,,,,,15.61,,SSW,29.46,29.96,,Clear
KIGQ,04/08/2018 11:35 UTC,30.11,15.62,14.9,96.9,0.0,0.0,,,,,,1.0,,,,10.0,,KIGQ 081135Z AUTO 00000KT 10SM CLR M09/M09 A3011 RMK AO2  T10911095,,,,,,14.89,,N,29.46,29.97,,Clear
KIGQ,04/08/2018 11:55 UTC,30.12,17.42,16.52,96.17,0.0,0.0,,,,,,1.0,,,,10.0,,KIGQ 081155Z AUTO 00000KT 10SM CLR M08/M09 A3012 RMK AO2 T10811086  11046 21091,23.72,15.62,,,,16.5,,N,29.47,29.96,,Clear
KIGQ,04/08/2018 12:15 UTC,30.12,19.4,18.5,96.21,0.0,0.0,,,,,,1.0,,,,10.0,,KIGQ 081215Z AUTO 00000KT 10SM CLR M07/M07 A3012 RMK AO2  T10701075,,,,,,18.48,,N,29.47,29.93,,Clear
KIGQ,04/08/2018 12:35 UTC,30.12,23.18,20.3,88.51,0.0,0.0,,,,,,1.0,,,,10.0,,KIGQ 081235Z AUTO 00000KT 10SM CLR M05/M06 A3012 RMK AO2  T10491065,,,,,,20.25,,N,29.47,29.9,,Clear
KIGQ,04/08/2018 12:55 UTC,30.12,25.52,20.84,82.12,0.0,0.0,,,,,,1.0,,,,10.0,,KIGQ 081255Z AUTO 00000KT 10SM CLR M04/M06 A3012 RMK AO2  T10361062,,,,,,20.76,,N,29.47,29.88,,Clear
KIGQ,04/08/2018 13:15 UTC,30.13,27.68,20.48,73.96,0.0,0.0,,,,,,1.0,,,,10.0,,KIGQ 081315Z AUTO 00000KT 10SM CLR M02/M06 A3013 RMK AO2  T10241064,,,,,,20.36,,N,29.47,29.87,,Clear
KIGQ,04/08/2018 13:35 UTC,30.13,30.02,19.04,63.18,0.0,0.0,,,,,,1.0,,,,10.0,,KIGQ 081335Z AUTO 00000KT 10SM CLR M01/M07 A3013 RMK AO2  T10111072,,,,,,18.87,,N,29.47,29.88,,Clear
KIGQ,04/08/2018 13:55 UTC,30.13,31.46,19.04,59.59,0.0,0.0,,,,,,1.0,,,,10.0,,KIGQ 081355Z AUTO 00000KT 10SM CLR 00/M07 A3013 RMK AO2  T10031072,,,,,,18.86,,N,29.47,29.87,,Clear
KIGQ,04/08/2018 14:15 UTC,30.12,32.0,18.86,57.86,0.0,0.0,,,,,,1.0,,,,10.0,,KIGQ 081415Z AUTO 00000KT 10SM CLR 00/M07 A3012 RMK AO2  T00001073,,,,,,18.67,,N,29.47,29.87,,Clear
KIGQ,04/08/2018 14:35 UTC,30.12,33.26,19.04,55.42,3.44,110.0,,,,,,1.0,,,,10.0,,KIGQ 081435Z AUTO 11003KT 10SM CLR 01/M07 A3012 RMK AO2  T00071072,,,,,,18.84,,ESE,29.47,29.86,,Clear
KIGQ,04/08/2018 14:55 UTC,30.13,33.62,17.6,51.35,3.44,120.0,,,,,,1.0,,,,10.0,,KIGQ 081455Z AUTO 12003KT 10SM CLR 01/M08 A3013 RMK AO2  T00091080,,,,,,17.39,,ESE,29.47,29.87,,Clear
KIGQ,04/08/2018 15:15 UTC,30.12,33.62,17.06,50.16,4.61,110.0,,,,,,1.0,,,,10.0,,KIGQ 081515Z AUTO 11004KT 10SM CLR 01/M08 A3012 RMK AO2  T00091083,,,,,,16.84,,ESE,29.47,29.88,,Clear
KIGQ,04/08/2018 15:35 UTC,30.12,34.16,17.24,49.47,4.61,150.0,,,,,,1.0,,,,10.0,,KIGQ 081535Z AUTO 15004KT 10SM CLR 01/M08 A3012 RMK AO2  T00121082,,,,,,17.02,,SSE,29.47,29.87,,Clear
KIGQ,04/08/2018 15:55 UTC,30.11,35.42,17.78,48.16,5.75,210.0,,,,,,1.0,,,,10.0,,KIGQ 081555Z AUTO 21005KT 10SM CLR 02/M08 A3011 RMK AO2  T00191079,,,,,,17.55,,SSW,29.46,29.85,,Clear
KIGQ,04/08/2018 16:15 UTC,30.11,35.96,17.06,45.69,0.0,0.0,,,,,,1.0,,,,10.0,,KIGQ 081615Z AUTO 00000KT 10SM CLR 02/M08 A3011 RMK AO2  T00221083,,,,,,16.82,,N,29.46,29.86,,Clear
KIGQ,04/08/2018 16:35 UTC,30.1,36.32,14.54,40.36,0.0,0.0,,,,,,1.0,,,,10.0,,KIGQ 081635Z AUTO 00000KT 10SM CLR 02/M10 A3010 RMK AO2  T00241097,,,,,,14.29,,N,29.45,29.87,,Clear
KIGQ,04/08/2018 16:55 UTC,30.1,36.86,16.34,42.74,4.61,200.0,,,,,,1.0,,,,10.0,,KIGQ 081655Z AUTO 20004KT 10SM CLR 03/M09 A3010 RMK AO2  T00271087,,,,,,16.1,,SSW,29.45,29.85,,Clear
KIGQ,04/08/2018 17:15 UTC,30.1,37.94,16.7,41.61,0.0,0.0,,,,,,1.0,,,,10.0,,KIGQ 081715Z AUTO 00000KT 10SM CLR 03/M08 A3010 RMK AO2  T00331085,,,,,,16.46,,N,29.45,29.84,,Clear
KIGQ,04/08/2018 17:35 UTC,30.08,37.4,15.62,40.55,0.0,0.0,,,,,,1.0,,,,10.0,,KIGQ 081735Z AUTO 00000KT 10SM CLR 03/M09 A3008 RMK AO2  T00301091,,,,,,15.37,,N,29.43,29.83,,Clear
KIGQ,04/08/2018 17:55 UTC,30.08,38.48,16.7,40.73,0.0,0.0,,,,,,1.0,,,,10.0,,KIGQ 081755Z AUTO 00000KT 10SM CLR 04/M08 A3008 RMK AO2 T00361085  10036 21081,38.48,17.42,,,,16.45,,N,29.43,29.82,,Clear
KIGQ,04/08/2018 18:15 UTC,30.07,37.94,15.62,39.7,0.0,0.0,,,,,,1.0,,,,10.0,,KIGQ 081815Z AUTO 00000KT 10SM CLR 03/M09 A3007 RMK AO2  T00331091,,,,,,15.37,,N,29.42,29.82,,Clear
KIGQ,04/08/2018 18:35 UTC,30.06,38.66,20.66,47.96,4.61,20.0,,,,,,1.0,,,,10.0,,KIGQ 081835Z AUTO 02004KT 10SM CLR 04/M06 A3006 RMK AO2  T00371063,,,,,,20.44,,NNE,29.41,29.76,,Clear
KIGQ,04/08/2018 18:55 UTC,30.06,37.94,21.02,50.09,9.22,60.0,,,,,,1.0,,,,10.0,,KIGQ 081855Z AUTO 06008KT 10SM CLR 03/M06 A3006 RMK AO2  T00331061,,,,,,20.81,33.5,ENE,29.41,29.76,,Clear
KIGQ,04/08/2018 19:15 UTC,30.06,38.12,21.56,50.89,9.22,40.0,,,,,,1.0,,,,10.0,,KIGQ 081915Z AUTO 04008KT 10SM CLR 03/M06 A3006 RMK AO2  T00341058,,,,,,21.35,33.71,NE,29.41,29.75,,Clear
KIGQ,04/08/2018 19:35 UTC,30.06,39.2,22.1,49.91,8.05,70.0,,,,,,1.0,,,,10.0,,KIGQ 081935Z AUTO 07007KT 10SM CLR 04/M05 A3006 RMK AO2  T00401055,,,,,,21.89,35.53,ENE,29.41,29.74,,Clear
KIGQ,04/08/2018 19:55 UTC,30.06,39.02,21.92,49.89,9.22,40.0,,,,,,1.0,,,,10.0,,KIGQ 081955Z AUTO 04008KT 10SM CLR 04/M06 A3006 RMK AO2  T00391056,,,,,,21.71,34.78,NE,29.41,29.74,,Clear
KIGQ,04/08/2018 20:15 UTC,30.05,37.76,20.66,49.68,8.05,70.0,,,,,,1.0,,,,10.0,,KIGQ 082015Z AUTO 07007KT 10SM CLR 03/M06 A3005 RMK AO2  T00321063,,,,,,20.45,33.84,ENE,29.4,29.75,,Clear
KIGQ,04/08/2018 20:35 UTC,30.05,38.84,21.74,49.86,9.22,50.0,,,,,,1.0,,,,10.0,,KIGQ 082035Z AUTO 05008KT 10SM CLR 04/M06 A3005 RMK AO2  T00381057,,,,,,21.53,34.57,NE,29.4,29.73,,Clear
KIGQ,04/08/2018 20:55 UTC,30.04,37.58,21.2,51.2,10.36,40.0,,,,,,1.0,,,,10.0,,KIGQ 082055Z AUTO 04009KT 10SM CLR 03/M06 A3004 RMK AO2  T00311060,,,,,,20.99,32.58,NE,29.39,29.73,,Clear
KIGQ,04/08/2018 21:15 UTC,30.05,37.58,21.02,50.81,9.22,60.0,,,,,,1.0,,,,10.0,,KIGQ 082115Z AUTO 06008KT 10SM CLR 03/M06 A3005 RMK AO2  T00311061,,,,,,20.81,33.07,ENE,29.4,29.75,,Clear
KIGQ,04/08/2018 21:35 UTC,30.05,37.22,20.12,49.59,9.22,60.0,,,,,,1.0,,,,10.0,,KIGQ 082135Z AUTO 06008KT 10SM CLR 03/M07 A3005 RMK AO2  T00291066,,,,,,19.9,32.64,ENE,29.4,29.76,,Clear
KIGQ,04/08/2018 21:55 UTC,30.05,36.14,19.94,51.36,10.36,40.0,,,,,,1.0,,,,10.0,,KIGQ 082155Z AUTO 04009KT 10SM CLR 02/M07 A3005 RMK AO2  T00231067,,,,,,19.73,30.86,NE,29.4,29.77,,Clear
KIGQ,04/08/2018 22:15 UTC,30.04,36.5,19.94,50.63,10.36,40.0,,,,,,1.0,,,,10.0,,KIGQ 082215Z AUTO 04009KT 10SM CLR 03/M07 A3004 RMK AO2  T00251067,,,,,,19.73,31.29,NE,29.39,29.75,,Clear
KIGQ,04/08/2018 22:35 UTC,30.04,37.04,20.48,50.72,9.22,70.0,,,,,,1.0,,,,10.0,,KIGQ 082235Z AUTO 07008KT 10SM CLR 03/M06 A3004 RMK AO2  T00281064,,,,,,20.27,32.43,ENE,29.39,29.74,,Clear
KIGQ,04/08/2018 22:55 UTC,30.04,36.5,20.48,51.81,9.22,40.0,,,,,,1.0,,,,10.0,,KIGQ 082255Z AUTO 04008KT 10SM CLR 03/M06 A3004 RMK AO2  T00251064,,,,,,20.27,31.79,NE,29.39,29.75,,Clear
KIGQ,04/08/2018 23:15 UTC,30.05,35.6,20.3,53.28,9.22,40.0,,,,,,1.0,,,,10.0,,KIGQ 082315Z AUTO 04008KT 10SM CLR 02/M06 A3005 RMK AO2  T00201065,,,,,,20.1,30.72,NE,29.4,29.76,,Clear
KIGQ,04/08/2018 23:35 UTC,30.04,34.88,20.84,56.1,10.36,50.0,,,,,,1202.0,,,,10.0,,KIGQ 082335Z AUTO 05009KT 10SM SCT120 02/M06 A3004 RMK AO2  T00161062,,,,,,20.65,29.35,NE,29.39,29.75,,Partly Cloudy
KIGQ,04/08/2018 23:55 UTC,30.04,34.34,21.74,59.56,6.91,40.0,,,,,,1203.0,,,,10.0,,KIGQ 082355Z AUTO 04006KT 10SM BKN120 01/M06 A3004 RMK AO2  T00131057 10043 20013,39.74,34.34,12000.0,,,21.56,,NE,29.39,29.74,,Mostly Cloudy
KIGQ,04/09/2018 00:15 UTC,30.03,33.8,21.92,61.32,10.36,60.0,,,,,,1104.0,,,,10.0,,KIGQ 090015Z AUTO 06009KT 10SM OVC110 01/M06 A3003 RMK AO2  T00101056,,,11000.0,,,21.75,28.06,ENE,29.38,29.74,,Overcast
KIGQ,04/09/2018 00:35 UTC,30.02,33.8,22.1,61.79,9.22,50.0,,,,,,1104.0,,,,10.0,,KIGQ 090035Z AUTO 05008KT 10SM OVC110 01/M05 A3002 RMK AO2  T00101055,,,11000.0,,,21.93,28.59,NE,29.37,29.72,,Overcast
KIGQ,04/09/2018 00:55 UTC,30.03,33.8,22.1,61.79,9.22,60.0,,,,,,1004.0,,,,10.0,,KIGQ 090055Z AUTO 06008KT 10SM OVC100 01/M05 A3003 RMK AO2  T00101055,,,10000.0,,,21.93,28.59,ENE,29.38,29.73,,Overcast
KIGQ,04/09/2018 01:15 UTC,30.03,33.8,23.18,64.67,5.75,60.0,,,,,,1004.0,,,,10.0,,KIGQ 090115Z AUTO 06005KT 10SM OVC100 01/M05 A3003 RMK AO2  T00101049,,,10000.0,,,23.02,,ENE,29.38,29.72,,Overcast
KIGQ,04/09/2018 01:35 UTC,30.04,33.8,23.36,65.16,5.75,50.0,,,,,,804.0,,,,10.0,,KIGQ 090135Z AUTO 05005KT 10SM OVC080 01/M05 A3004 RMK AO2  T00101048,,,8000.0,,,23.21,,NE,29.39,29.73,,Overcast
KIGQ,04/09/2018 01:55 UTC,30.05,33.8,23.72,66.16,4.61,40.0,,,,,,804.0,,,,10.0,,KIGQ 090155Z AUTO 04004KT 10SM OVC080 01/M05 A3005 RMK AO2  T00101046,,,8000.0,,,23.57,,NE,29.4,29.74,,Overcast
KIGQ,04/09/2018 02:15 UTC,30.05,33.8,23.9,66.66,5.75,50.0,,,,,,704.0,,,,10.0,,KIGQ 090215Z AUTO 05005KT 10SM OVC070 01/M04 A3005 RMK AO2  T00101045,,,7000.0,,,23.75,,NE,29.4,29.73,,Overcast
KIGQ,04/09/2018 02:35 UTC,30.06,33.8,24.26,67.67,5.75,50.0,,,,,,704.0,,,,10.0,,KIGQ 090235Z AUTO 05005KT 10SM OVC070 01/M04 A3006 RMK AO2  T00101043,,,7000.0,,,24.12,,NE,29.41,29.74,,Overcast
KIGQ,04/09/2018 02:55 UTC,30.07,33.8,24.44,68.18,0.0,0.0,,,,,,704.0,,,,10.0,,KIGQ 090255Z AUTO 00000KT 10SM OVC070 01/M04 A3007 RMK AO2  T00101042,,,7000.0,,,24.3,,N,29.42,29.75,,Overcast
KIGQ,04/09/2018 03:15 UTC,30.08,33.8,24.8,69.22,0.0,0.0,,,604.0,,,392.0,473.0,,,10.0,,KIGQ 090315Z AUTO 00000KT 10SM SCT039 BKN047 OVC060 01/M04 A3008 RMK AO2 T00101040,,,4700.0,,,24.67,,N,29.43,29.75,,Overcast
KIGQ,04/09/2018 03:35 UTC,30.08,33.98,25.34,70.28,0.0,0.0,,,434.0,,,273.0,353.0,,,10.0,,KIGQ 090335Z AUTO 00000KT 10SM BKN027 BKN035 OVC043 01/M04 A3008 RMK AO2 T00111037,,,2700.0,,,25.21,,N,29.43,29.75,,Overcast
KIGQ,04/09/2018 03:55 UTC,30.09,32.9,26.6,77.34,0.0,0.0,,20.0,,,,294.0,,,,7.0,,KIGQ 090355Z AUTO 00000KT 7SM -SN OVC029 01/M03 A3009 RMK AO2  T00051030,,,2900.0,,,26.5,,N,29.44,29.75,,Light Snow
KIGQ,04/09/2018 04:15 UTC,30.09,32.0,28.22,85.73,0.0,0.0,,20.0,,,,294.0,,,,5.0,,KIGQ 090415Z AUTO 00000KT 5SM -SN OVC029 00/M02 A3009 RMK AO2  T00001021,,,2900.0,,,28.16,,N,29.44,29.73,,Light Snow
KIGQ,04/09/2018 04:35 UTC,30.1,31.64,29.66,92.27,0.0,0.0,,20.0,,,,203.0,294.0,,,3.0,,KIGQ 090435Z AUTO 00000KT 3SM -SN BKN020 OVC029 00/M01 A3010 RMK AO2 T10021013,,,2000.0,,,29.63,,N,29.45,29.72,,Light Snow
KIGQ,04/09/2018 04:55 UTC,30.09,30.92,30.2,97.12,0.0,0.0,,20.0,,,,184.0,,,,2.0,,KIGQ 090455Z AUTO 00000KT 2SM -SN OVC018 M01/M01 A3009 RMK AO2  T10061010,,,1800.0,,,30.19,,N,29.44,29.71,,Light Snow
KIGQ,04/09/2018 05:15 UTC,30.09,30.56,30.38,99.27,0.0,0.0,,20.0,,,,164.0,,,,1.75,,KIGQ 090515Z AUTO 00000KT 1 3/4SM -SN OVC016 M01/M01 A3009 RMK AO2  T10081009,,,1600.0,,,30.38,,N,29.44,29.71,,Light Snow
KIGQ,04/09/2018 05:35 UTC,30.1,30.74,30.74,100.0,0.0,0.0,,20.0,,,,53.0,144.0,,,2.0,,KIGQ 090535Z AUTO 00000KT 2SM -SN BKN005 OVC014 M01/M01 A3010 RMK AO2 T10071007,,,500.0,,,30.74,,N,29.45,29.71,,Light Snow
KIGQ,04/09/2018 05:55 UTC,30.1,30.74,30.74,100.0,0.0,0.0,,20.0,,,,53.0,184.0,,,2.5,,KIGQ 090555Z AUTO 00000KT 2 1/2SM -SN BKN005 OVC018 M01/M01 A3010 RMK AO2 T10071007 10013 21008 400431091,34.34,30.56,500.0,39.74,15.62,30.74,,N,29.45,29.71,,Light Snow
KIGQ,04/09/2018 06:15 UTC,30.1,30.74,30.74,100.0,0.0,0.0,,20.0,404.0,,,53.0,83.0,,,4.0,,KIGQ 090615Z AUTO 00000KT 4SM -SN BKN005 BKN008 OVC040 M01/M01  A3010 RMK AO2 T10071007,,,500.0,,,30.74,,N,29.45,29.71,,Light Snow
KIGQ,04/09/2018 06:35 UTC,30.09,30.2,30.2,100.0,0.0,0.0,,20.0,324.0,,,53.0,103.0,,,4.0,,KIGQ 090635Z AUTO 00000KT 4SM -SN BKN005 BKN010 OVC032 M01/M01  A3009 RMK AO2 T10101010,,,500.0,,,30.2,,N,29.44,29.72,,Light Snow
KIGQ,04/09/2018 06:55 UTC,30.09,30.56,30.56,100.0,0.0,0.0,,20.0,,,,54.0,,,,4.0,,KIGQ 090655Z AUTO 00000KT 4SM -SN OVC005 M01/M01 A3009 RMK AO2  T10081008,,,500.0,,,30.56,,N,29.44,29.71,,Light Snow
KIGQ,04/09/2018 07:15 UTC,30.09,30.56,30.56,100.0,3.44,90.0,,20.0,,,,53.0,434.0,,,4.0,,KIGQ 090715Z AUTO 09003KT 4SM -SN BKN005 OVC043 M01/M01 A3009 RMK AO2 T10081008,,,500.0,,,30.56,,E,29.44,29.71,,Light Snow
KIGQ,04/09/2018 07:35 UTC,30.08,30.74,30.74,100.0,3.44,80.0,,20.0,,,,53.0,444.0,,,4.0,,KIGQ 090735Z AUTO 08003KT 4SM -SN BKN005 OVC044 M01/M01 A3008 RMK AO2 T10071007,,,500.0,,,30.74,,E,29.43,29.69,,Light Snow
KIGQ,04/09/2018 07:55 UTC,30.08,30.92,30.92,100.0,3.44,80.0,,20.0,,,,74.0,,,,3.0,,KIGQ 090755Z AUTO 08003KT 3SM -SN OVC007 M01/M01 A3008 RMK AO2  T10061006,,,700.0,,,30.92,,E,29.43,29.69,,Light Snow
KIGQ,04/09/2018 08:15 UTC,30.07,30.92,30.92,100.0,3.44,90.0,,20.0,,,,74.0,,,,2.5,,KIGQ 090815Z AUTO 09003KT 2 1/2SM -SN OVC007 M01/M01 A3007 RMK AO2  T10061006,,,700.0,,,30.92,,E,29.42,29.68,,Light Snow
KIGQ,04/09/2018 08:35 UTC,30.07,30.92,30.92,100.0,3.44,80.0,,20.0,,,,74.0,,,,2.5,,KIGQ 090835Z AUTO 08003KT 2 1/2SM -SN OVC007 M01/M01 A3007 RMK AO2  VIS 2V3 T10061006,,,700.0,,,30.92,,E,29.42,29.68,,Light Snow
KIGQ,04/09/2018 08:55 UTC,30.08,30.92,30.92,100.0,0.0,0.0,,20.0,474.0,,,73.0,243.0,,,3.0,,KIGQ 090855Z AUTO 00000KT 3SM -SN BKN007 BKN024 OVC047 M01/M01  A3008 RMK AO2 T10061006,,,700.0,,,30.92,,N,29.43,29.69,,Light Snow
KIGQ,04/09/2018 09:15 UTC,30.08,30.92,30.92,100.0,3.44,100.0,,20.0,474.0,,,93.0,373.0,,,3.0,,KIGQ 090915Z AUTO 10003KT 3SM -SN BKN009 BKN037 OVC047 M01/M01  A3008 RMK AO2 T10061006,,,900.0,,,30.92,,E,29.43,29.69,,Light Snow
KIGQ,04/09/2018 09:35 UTC,30.07,30.92,30.92,100.0,0.0,0.0,,20.0,,,,93.0,364.0,,,3.0,,KIGQ 090935Z AUTO 00000KT 3SM -SN BKN009 OVC036 M01/M01 A3007 RMK AO2 T10061006,,,900.0,,,30.92,,N,29.42,29.68,,Light Snow
KIGQ,04/09/2018 09:55 UTC,30.07,30.92,30.92,100.0,3.44,90.0,,20.0,,,,73.0,344.0,,,3.0,,KIGQ 090955Z AUTO 09003KT 3SM -SN BKN007 OVC034 M01/M01 A3007 RMK AO2 T10061006,,,700.0,,,30.92,,E,29.42,29.68,,Light Snow
KIGQ,04/09/2018 10:15 UTC,30.08,30.92,30.92,100.0,0.0,0.0,,20.0,,,,54.0,,,,3.0,,KIGQ 091015Z AUTO 00000KT 3SM -SN OVC005 M01/M01 A3008 RMK AO2  T10061006,,,500.0,,,30.92,,N,29.43,29.69,,Light Snow
KIGQ,04/09/2018 10:35 UTC,30.08,31.1,31.1,100.0,0.0,0.0,,20.0,,,,54.0,,,,2.5,,KIGQ 091035Z AUTO 00000KT 2 1/2SM -SN OVC005 00/00 A3008 RMK AO2  T10051005,,,500.0,,,31.1,,N,29.43,29.69,,Light Snow
KIGQ,04/09/2018 10:55 UTC,30.09,30.92,30.92,100.0,0.0,0.0,,20.0,,,,54.0,,,,3.0,,KIGQ 091055Z AUTO 00000KT 3SM -SN OVC005 M01/M01 A3009 RMK AO2  T10061006,,,500.0,,,30.92,,N,29.44,29.7,,Light Snow
KIGQ,04/09/2018 11:15 UTC,30.1,30.92,30.92,100.0,0.0,0.0,,20.0,,,,53.0,304.0,,,2.5,,KIGQ 091115Z AUTO 00000KT 2 1/2SM -SN BKN005 OVC030 M01/M01 A3010 RMK AO2 T10061006,,,500.0,,,30.92,,N,29.45,29.71,,Light Snow
KIGQ,04/09/2018 11:35 UTC,30.1,30.92,30.92,100.0,0.0,0.0,,20.0,,,,53.0,264.0,,,1.75,,KIGQ 091135Z AUTO 00000KT 1 3/4SM -SN BKN005 OVC026 M01/M01 A3010 RMK AO2 T10061006,,,500.0,,,30.92,,N,29.45,29.71,,Light Snow
KIGQ,04/09/2018 11:55 UTC,30.11,30.92,30.92,100.0,0.0,0.0,,20.0,,,,54.0,,,,1.75,,KIGQ 091155Z AUTO 00000KT 1 3/4SM -SN OVC005 M01/M01 A3011 RMK AO2  T10061006 11005 21010,31.1,30.2,500.0,,,30.92,,N,29.46,29.72,,Light Snow
KIGQ,04/09/2018 12:15 UTC,30.11,31.1,31.1,100.0,0.0,0.0,,20.0,,,,54.0,,,,2.0,,KIGQ 091215Z AUTO 00000KT 2SM -SN OVC005 00/00 A3011 RMK AO2  T10051005,,,500.0,,,31.1,,N,29.46,29.72,,Light Snow
KIGQ,04/09/2018 12:35 UTC,30.12,31.1,31.1,100.0,0.0,0.0,,20.0,,,,54.0,,,,2.0,,KIGQ 091235Z AUTO 00000KT 2SM -SN OVC005 00/00 A3012 RMK AO2  T10051005,,,500.0,,,31.1,,N,29.47,29.73,,Light Snow
KIGQ,04/09/2018 12:55 UTC,30.13,31.28,31.28,100.0,0.0,0.0,,20.0,,,,53.0,104.0,,,2.5,,KIGQ 091255Z AUTO 00000KT 2 1/2SM -SN BKN005 OVC010 00/00 A3013 RMK AO2 T10041004,,,500.0,,,31.28,,N,29.47,29.72,,Light Snow
KIGQ,04/09/2018 13:15 UTC,30.14,31.64,31.46,99.27,3.44,120.0,,20.0,,,,53.0,344.0,,,2.5,,KIGQ 091315Z AUTO 12003KT 2 1/2SM -SN BKN005 OVC034 00/00 A3014 RMK AO2 T10021003,,,500.0,,,31.46,,ESE,29.48,29.73,,Light Snow
KIGQ,04/09/2018 13:35 UTC,30.14,31.82,31.46,98.56,4.61,120.0,,20.0,,,,73.0,324.0,,,2.5,,KIGQ 091335Z AUTO 12004KT 2 1/2SM -SN BKN007 OVC032 00/00 A3014 RMK AO2 T10011003,,,700.0,,,31.46,,ESE,29.48,29.73,,Light Snow
KIGQ,04/09/2018 13:55 UTC,30.14,32.0,31.46,97.84,3.44,120.0,,20.0,324.0,,,73.0,133.0,,,2.5,,KIGQ 091355Z AUTO 12003KT 2 1/2SM -SN BKN007 BKN013 OVC032 00/00  A3014 RMK AO2 T00001003,,,700.0,,,31.45,,ESE,29.48,29.73,,Light Snow
KIGQ,04/09/2018 14:15 UTC,30.15,32.0,31.1,96.43,3.44,150.0,,20.0,,,,73.0,134.0,,,2.0,,KIGQ 091415Z AUTO 15003KT 2SM -SN BKN007 OVC013 00/00 A3015 RMK AO2 T00001005,,,700.0,,,31.09,,SSE,29.49,29.74,,Light Snow
KIGQ,04/09/2018 14:35 UTC,30.16,32.18,31.28,96.43,0.0,0.0,,20.0,,,,83.0,144.0,,,2.0,,KIGQ 091435Z AUTO 00000KT 2SM -SN BKN008 OVC014 00/00 A3016 RMK AO2 T00011004,,,800.0,,,31.27,,N,29.5,29.75,,Light Snow
KIGQ,04/09/2018 14:55 UTC,30.16,32.72,31.64,95.74,0.0,0.0,,20.0,344.0,,,102.0,163.0,,,3.0,,KIGQ 091455Z AUTO 00000KT 3SM -SN SCT010 BKN016 OVC034 00/00 A3016 RMK AO2 T00041002,,,1600.0,,,31.62,,N,29.5,29.74,,Light Snow
KIGQ,04/09/2018 15:15 UTC,30.16,32.9,31.82,95.74,0.0,0.0,,20.0,,,,103.0,164.0,,,5.0,,KIGQ 091515Z AUTO 00000KT 5SM -SN BKN010 OVC016 01/00 A3016 RMK AO2 T00051001,,,1000.0,,,31.8,,N,29.5,29.74,,Light Snow
KIGQ,04/09/2018 15:35 UTC,30.16,33.8,32.0,93.02,3.44,100.0,,20.0,,,,103.0,184.0,,,7.0,,KIGQ 091535Z AUTO 10003KT 7SM -SN BKN010 OVC018 01/00 A3016 RMK AO2 T00100000,,,1000.0,,,31.97,,E,29.5,29.73,,Light Snow
KIGQ,04/09/2018 15:55 UTC,30.16,33.8,31.82,92.35,0.0,0.0,,20.0,,,,123.0,204.0,,,7.0,,KIGQ 091555Z AUTO 00000KT 7SM -SN BKN012 OVC020 01/00 A3016 RMK AO2 T00101001,,,1200.0,,,31.79,,N,29.5,29.73,,Light Snow
KIGQ,04/09/2018 16:15 UTC,30.16,34.16,31.82,91.03,3.44,170.0,,,,,,144.0,,,,10.0,,KIGQ 091615Z AUTO 17003KT 10SM OVC014 01/00 A3016 RMK AO2  T00121001,,,1400.0,,,31.78,,S,29.5,29.73,,Overcast
KIGQ,04/09/2018 16:35 UTC,30.16,34.7,31.82,89.09,0.0,0.0,,,254.0,,,163.0,203.0,,,10.0,,KIGQ 091635Z AUTO 00000KT 10SM BKN016 BKN020 OVC025 02/00 A3016 RMK AO2 T00151001,,,1600.0,,,31.77,,N,29.5,29.72,,Overcast
KIGQ,04/09/2018 16:55 UTC,30.16,35.24,31.28,85.31,0.0,0.0,,,294.0,,,192.0,242.0,,,10.0,,KIGQ 091655Z AUTO 00000KT 10SM SCT019 SCT024 OVC029 02/00 A3016 RMK AO2 T00181004,,,2900.0,,,31.22,,N,29.5,29.73,,Overcast
KIGQ,04/09/2018 17:15 UTC,30.16,35.78,30.92,82.29,0.0,0.0,,,,,,294.0,,,,10.0,,KIGQ 091715Z AUTO 00000KT 10SM OVC029 02/M01 A3016 RMK AO2  T00211006,,,2900.0,,,30.85,,N,29.5,29.73,,Overcast
KIGQ,04/09/2018 17:35 UTC,30.16,35.78,31.1,82.89,0.0,0.0,,,314.0,,,202.0,263.0,,,10.0,,KIGQ 091735Z AUTO 00000KT 10SM SCT020 BKN026 OVC031 02/00 A3016 RMK AO2 T00211005,,,2600.0,,,31.03,,N,29.5,29.73,,Overcast
KIGQ,04/09/2018 17:55 UTC,30.15,35.6,30.92,82.88,0.0,0.0,,,304.0,,,182.0,263.0,,,10.0,,KIGQ 091755Z AUTO 00000KT 10SM SCT018 BKN026 OVC030 02/M01 A3015 RMK AO2 T00201006 10022 21006,35.96,30.92,2600.0,,,30.85,,N,29.49,29.72,,Overcast
KIGQ,04/09/2018 18:15 UTC,30.15,36.68,31.28,80.58,0.0,0.0,,,384.0,,,262.0,322.0,,,10.0,,KIGQ 091815Z AUTO 00000KT 10SM SCT026 SCT032 OVC038 03/00 A3015 RMK AO2 T00261004,,,3800.0,,,31.2,,N,29.49,29.71,,Overcast
KIGQ,04/09/2018 18:35 UTC,30.15,36.86,30.92,78.85,4.61,310.0,,,,,,222.0,364.0,,,10.0,,KIGQ 091835Z AUTO 31004KT 10SM SCT022 OVC036 03/M01 A3015 RMK AO2  T00271006,,,3600.0,,,30.83,,NW,29.49,29.71,,Overcast
KIGQ,04/09/2018 18:55 UTC,30.16,36.86,31.1,79.42,0.0,0.0,,,,,,222.0,344.0,,,10.0,,KIGQ 091855Z AUTO 00000KT 10SM SCT022 OVC034 03/00 A3016 RMK AO2  T00271005,,,3400.0,,,31.01,,N,29.5,29.72,,Overcast
KIGQ,04/09/2018 19:15 UTC,30.16,36.86,30.2,76.57,0.0,0.0,,,414.0,,,222.0,312.0,,,10.0,,KIGQ 091915Z AUTO 00000KT 10SM SCT022 SCT031 OVC041 03/M01 A3016 RMK AO2 T00271010,,,4100.0,,,30.1,,N,29.5,29.73,,Overcast
KIGQ,04/09/2018 19:35 UTC,30.16,37.58,31.28,77.77,0.0,0.0,,,,,,222.0,434.0,,,10.0,,KIGQ 091935Z AUTO 00000KT 10SM SCT022 OVC043 03/00 A3016 RMK AO2  T00311004,,,4300.0,,,31.19,,N,29.5,29.71,,Overcast
KIGQ,04/09/2018 19:55 UTC,30.16,36.86,31.28,80.01,0.0,0.0,,,,,,242.0,434.0,,,10.0,,KIGQ 091955Z AUTO 00000KT 10SM SCT024 OVC043 03/00 A3016 RMK AO2  T00271004,,,4300.0,,,31.2,,N,29.5,29.72,,Overcast
KIGQ,04/09/2018 20:15 UTC,30.17,37.04,31.46,80.02,4.61,30.0,,,414.0,,,212.0,262.0,,,10.0,,KIGQ 092015Z AUTO 03004KT 10SM SCT021 SCT026 OVC041 03/00 A3017 RMK AO2 T00281003,,,4100.0,,,31.38,,NNE,29.51,29.72,,Overcast
KIGQ,04/09/2018 20:35 UTC,30.17,36.5,31.82,82.94,8.05,20.0,,,,,,193.0,264.0,,,10.0,,KIGQ 092035Z AUTO 02007KT 10SM BKN019 OVC026 03/00 A3017 RMK AO2  T00251001,,,1900.0,,,31.75,32.36,NNE,29.51,29.72,,Overcast
KIGQ,04/09/2018 20:55 UTC,30.18,35.24,32.18,88.47,5.75,350.0,,,,,,182.0,244.0,,,10.0,,KIGQ 092055Z AUTO 35005KT 10SM SCT018 OVC024 02/00 A3018 RMK AO2  T00180001,,,2400.0,,,32.13,,N,29.52,29.73,,Overcast
KIGQ,04/09/2018 21:15 UTC,30.19,34.34,32.9,94.39,8.05,10.0,,20.0,,,,263.0,334.0,,,4.0,,KIGQ 092115Z AUTO 01007KT 4SM -SN BKN026 OVC033 01/01 A3019 RMK AO2 T00130005,,,2600.0,,,32.88,29.82,N,29.53,29.74,,Light Snow
KIGQ,04/09/2018 21:35 UTC,30.19,33.62,32.9,97.15,8.05,20.0,,20.0,314.0,,,213.0,263.0,,,3.0,,KIGQ 092135Z AUTO 02007KT 3SM -SN BKN021 BKN026 OVC031 01/01 A3019 RMK AO2 T00090005,,,2100.0,,,32.89,28.98,NNE,29.53,29.74,,Light Snow
KIGQ,04/09/2018 21:55 UTC,30.19,33.98,32.54,94.39,4.61,20.0,,,,,,204.0,,,,7.0,,KIGQ 092155Z AUTO 02004KT 7SM OVC020 01/00 A3019 RMK AO2  T00110003,,,2000.0,,,32.52,,NNE,29.53,29.75,,Overcast
KIGQ,04/09/2018 22:15 UTC,30.2,34.7,32.72,92.38,5.75,20.0,,20.0,,,,184.0,,,,5.0,,KIGQ 092215Z AUTO 02005KT 5SM -SN OVC018 02/00 A3020 RMK AO2  T00150004,,,1800.0,,,32.69,,NNE,29.54,29.75,,Light Snow
KIGQ,04/09/2018 22:35 UTC,30.2,34.88,32.0,89.1,8.05,20.0,,17.0,,,,132.0,234.0,,,10.0,,KIGQ 092235Z AUTO 02007KT 10SM -DZ SCT013 OVC023 02/00 A3020 RMK AO2 T00160000,,,2300.0,,,31.96,30.46,NNE,29.54,29.76,,Light Drizzle
KIGQ,04/09/2018 22:55 UTC,30.21,35.06,32.0,88.46,8.05,60.0,,,654.0,,,152.0,233.0,,,10.0,,KIGQ 092255Z AUTO 06007KT 10SM SCT015 BKN023 OVC065 02/00 A3021 RMK AO2 T00170000,,,2300.0,,,31.95,30.67,ENE,29.55,29.77,,Overcast
KIGQ,04/09/2018 23:15 UTC,30.21,35.06,32.0,88.46,4.61,20.0,,,654.0,,,152.0,482.0,,,10.0,,KIGQ 092315Z AUTO 02004KT 10SM SCT015 SCT048 OVC065 02/00 A3021 RMK AO2 T00170000,,,6500.0,,,31.95,,NNE,29.55,29.77,,Overcast
KIGQ,04/09/2018 23:35 UTC,30.22,34.88,31.28,86.54,3.44,30.0,,,,,,654.0,,,,10.0,,KIGQ 092335Z AUTO 03003KT 10SM OVC065 02/00 A3022 RMK AO2  T00161004,,,6500.0,,,31.22,,NNE,29.56,29.79,,Overcast
KIGQ,04/09/2018 23:55 UTC,30.22,34.88,31.82,88.45,5.75,30.0,,,654.0,,,152.0,223.0,,,10.0,,KIGQ 092355Z AUTO 03005KT 10SM SCT015 BKN022 OVC065 02/00 A3022 RMK AO2 T00161001 10031 20007,37.58,33.26,2200.0,,,31.77,,NNE,29.56,29.78,,Overcast
KIGQ,04/10/2018 00:15 UTC,30.23,34.7,31.64,88.44,6.91,350.0,,,,,,173.0,224.0,,,10.0,,KIGQ 100015Z AUTO 35006KT 10SM BKN017 OVC022 02/00 A3023 RMK AO2  T00151002,,,1700.0,,,31.59,,N,29.57,29.8,,Overcast
KIGQ,04/10/2018 00:35 UTC,30.23,33.8,31.46,91.01,4.61,20.0,,,604.0,,,152.0,223.0,,,10.0,,KIGQ 100035Z AUTO 02004KT 10SM SCT015 BKN022 OVC060 01/00 A3023 RMK AO2 T00101003,,,2200.0,,,31.42,,NNE,29.57,29.81,,Overcast
KIGQ,04/10/2018 00:55 UTC,30.24,33.8,30.38,87.11,4.61,10.0,,,604.0,,,272.0,342.0,,,10.0,,KIGQ 100055Z AUTO 01004KT 10SM SCT027 SCT034 OVC060 01/M01 A3024 RMK AO2 T00101009,,,6000.0,,,30.32,,N,29.58,29.83,,Overcast
KIGQ,04/10/2018 01:15 UTC,30.24,33.26,30.2,88.37,0.0,0.0,,,,,,462.0,654.0,,,10.0,,KIGQ 100115Z AUTO 00000KT 10SM SCT046 OVC065 01/M01 A3024 RMK AO2  T00071010,,,6500.0,,,30.15,,N,29.58,29.84,,Overcast
KIGQ,04/10/2018 01:35 UTC,30.25,33.62,30.38,87.74,0.0,0.0,,,,,,462.0,554.0,,,10.0,,KIGQ 100135Z AUTO 00000KT 10SM SCT046 OVC055 01/M01 A3025 RMK AO2  T00091009,,,5500.0,,,30.33,,N,29.59,29.84,,Overcast
KIGQ,04/10/2018 01:55 UTC,30.26,33.8,30.74,88.4,0.0,0.0,,,,,,392.0,554.0,,,10.0,,KIGQ 100155Z AUTO 00000KT 10SM SCT039 OVC055 01/M01 A3026 RMK AO2  T00101007,,,5500.0,,,30.69,,N,29.6,29.85,,Overcast
KIGQ,04/10/2018 02:15 UTC,30.26,33.44,30.74,89.68,0.0,0.0,,,,,,392.0,504.0,,,10.0,,KIGQ 100215Z AUTO 00000KT 10SM SCT039 OVC050 01/M01 A3026 RMK AO2  T00081007,,,5000.0,,,30.7,,N,29.6,29.85,,Overcast
KIGQ,04/10/2018 02:35 UTC,30.27,33.62,30.92,89.69,0.0,0.0,,,,,,504.0,,,,10.0,,KIGQ 100235Z AUTO 00000KT 10SM OVC050 01/M01 A3027 RMK AO2  T00091006,,,5000.0,,,30.88,,N,29.61,29.86,,Overcast
KIGQ,04/10/2018 02:55 UTC,30.27,31.82,30.56,95.02,0.0,0.0,,,,,,484.0,,,,10.0,,KIGQ 100255Z AUTO 00000KT 10SM OVC048 00/M01 A3027 RMK AO2  T10011008,,,4800.0,,,30.54,,N,29.61,29.87,,Overcast
KIGQ,04/10/2018 03:15 UTC,30.27,31.64,31.1,97.84,0.0,0.0,,,,,,482.0,,,,10.0,,KIGQ 100315Z AUTO 00000KT 10SM SCT048 00/00 A3027 RMK AO2  T10021005,,,,,,31.09,,N,29.61,29.87,,Partly Cloudy
KIGQ,04/10/2018 03:35 UTC,30.27,31.64,30.56,95.72,0.0,0.0,,,,,,603.0,,,,10.0,,KIGQ 100335Z AUTO 00000KT 10SM BKN060 00/M01 A3027 RMK AO2  T10021008,,,6000.0,,,30.54,,N,29.61,29.87,,Mostly Cloudy
KIGQ,04/10/2018 03:55 UTC,30.27,30.02,29.3,97.1,0.0,0.0,,,,,,602.0,,,,10.0,,KIGQ 100355Z AUTO 00000KT 10SM SCT060 M01/M01 A3027 RMK AO2  T10111015,,,,,,29.29,,N,29.61,29.9,,Partly Cloudy
KIGQ,04/10/2018 04:15 UTC,30.27,28.22,28.22,100.0,0.0,0.0,,,,,,1.0,,,,7.0,,KIGQ 100415Z AUTO 00000KT 7SM CLR M02/M02 A3027 RMK AO2  T10211021,,,,,,28.22,,N,29.61,29.93,,Clear
KIGQ,04/10/2018 04:35 UTC,30.27,28.04,28.04,100.0,0.0,0.0,,31.0,,,,1.0,,,,5.0,,KIGQ 100435Z AUTO 00000KT 5SM BR CLR M02/M02 A3027 RMK AO2  T10221022,,,,,,28.04,,N,29.61,29.93,,Mist
KIGQ,04/10/2018 04:55 UTC,30.27,27.68,27.68,100.0,0.0,0.0,,31.0,,,,1.0,,,,5.0,,KIGQ 100455Z AUTO 00000KT 5SM BR CLR M02/M02 A3027 RMK AO2  T10241024,,,,,,27.68,,N,29.61,29.94,,Mist
KIGQ,04/10/2018 05:15 UTC,30.27,27.32,27.32,100.0,0.0,0.0,,,,,,1.0,,,,7.0,,KIGQ 100515Z AUTO 00000KT 7SM CLR M03/M03 A3027 RMK AO2  T10261026,,,,,,27.32,,N,29.61,29.95,,Clear
KIGQ,04/10/2018 05:35 UTC,30.27,26.78,26.78,100.0,0.0,0.0,,31.0,,,,602.0,,,,5.0,,KIGQ 100535Z AUTO 00000KT 5SM BR SCT060 M03/M03 A3027 RMK AO2  T10291029,,,,,,26.78,,N,29.61,29.95,,Mist
KIGQ,04/10/2018 05:55 UTC,30.27,26.96,26.96,100.0,0.0,0.0,,31.0,,,,602.0,,,,5.0,,KIGQ 100555Z AUTO 00000KT 5SM BR SCT060 M03/M03 A3027 RMK AO2  T10281028 10015 21029 400311029,34.7,26.78,,37.58,26.78,26.96,,N,29.61,29.95,,Mist
KIGQ,04/10/2018 06:15 UTC,30.27,27.14,27.14,100.0,0.0,0.0,,31.0,,,,602.0,,,,4.0,,KIGQ 100615Z AUTO 00000KT 4SM BR SCT060 M03/M03 A3027 RMK AO2  T10271027,,,,,,27.14,,N,29.61,29.95,,Mist
KIGQ,04/10/2018 06:35 UTC,30.27,25.7,25.7,100.0,0.0,0.0,,31.0,,,,602.0,,,,3.0,,KIGQ 100635Z AUTO 00000KT 3SM BR SCT060 M03/M03 A3027 RMK AO2  T10351035,,,,,,25.7,,N,29.61,29.97,,Mist
KIGQ,04/10/2018 06:55 UTC,30.27,25.7,25.7,100.0,0.0,0.0,,31.0,,,,602.0,,,,4.0,,KIGQ 100655Z AUTO 00000KT 4SM BR SCT060 M03/M03 A3027 RMK AO2  T10351035,,,,,,25.7,,N,29.61,29.97,,Mist
KIGQ,04/10/2018 07:15 UTC,30.27,24.62,24.62,100.0,0.0,0.0,,31.0,,,,75.0,,,,1.75,,KIGQ 100715Z AUTO 00000KT 1 3/4SM BR VV007 M04/M04 A3027 RMK AO2  T10411041,,,700.0,,,24.62,,N,29.61,29.99,,Mist
KIGQ,04/10/2018 07:35 UTC,30.27,24.98,24.98,100.0,0.0,0.0,,30.0,,,,55.0,,,,0.5,,KIGQ 100735Z AUTO 00000KT 1/2SM FZFG VV005 M04/M04 A3027 RMK AO2  T10391039,,,500.0,,,24.98,,N,29.61,29.99,,Ice Fog
KIGQ,04/10/2018 07:55 UTC,30.26,24.98,24.98,100.0,0.0,0.0,,31.0,,,,503.0,,,,1.5,,KIGQ 100755Z AUTO 00000KT 1 1/2SM BR BKN050 M04/M04 A3026 RMK AO2  T10391039,,,5000.0,,,24.98,,N,29.6,29.98,,Mist
KIGQ,04/10/2018 08:15 UTC,30.26,23.72,23.72,100.0,0.0,0.0,,31.0,,,,502.0,,,,2.0,,KIGQ 100815Z AUTO 00000KT 2SM BR SCT050 M05/M05 A3026 RMK AO2  T10461046,,,,,,23.72,,N,29.6,30.0,,Mist
KIGQ,04/10/2018 08:35 UTC,30.26,25.88,25.88,100.0,3.44,270.0,,31.0,,,,1.0,,,,4.0,,KIGQ 100835Z AUTO 27003KT 4SM BR CLR M03/M03 A3026 RMK AO2  T10341034,,,,,,25.88,,W,29.6,29.96,,Mist
KIGQ,04/10/2018 08:55 UTC,30.27,24.8,24.8,100.0,3.44,280.0,,31.0,,,,1.0,,,,2.5,,KIGQ 100855Z AUTO 28003KT 2 1/2SM BR CLR M04/M04 A3027 RMK AO2  T10401040,,,,,,24.8,,W,29.61,29.99,,Mist
KIGQ,04/10/2018 09:15 UTC,30.27,24.44,24.44,100.0,0.0,0.0,,31.0,,,,1.0,,,,2.5,,KIGQ 100915Z AUTO 00000KT 2 1/2SM BR CLR M04/M04 A3027 RMK AO2  T10421042,,,,,,24.44,,N,29.61,29.99,,Mist
KIGQ,04/10/2018 09:35 UTC,30.27,24.26,24.26,100.0,0.0,0.0,,31.0,,,,75.0,,,,1.75,,KIGQ 100935Z AUTO 00000KT 1 3/4SM BR VV007 M04/M04 A3027 RMK AO2  T10431043,,,700.0,,,24.26,,N,29.61,30.0,,Mist
KIGQ,04/10/2018 09:55 UTC,30.27,23.18,23.18,100.0,0.0,0.0,,31.0,,,,1.0,,,,2.5,,KIGQ 100955Z AUTO 00000KT 2 1/2SM BR CLR M05/M05 A3027 RMK AO2  T10491049,,,,,,23.18,,N,29.61,30.01,,Mist
KIGQ,04/10/2018 10:15 UTC,30.27,23.18,23.18,100.0,0.0,0.0,,31.0,,,,1.0,,,,2.5,,KIGQ 101015Z AUTO 00000KT 2 1/2SM BR CLR M05/M05 A3027 RMK AO2  T10491049,,,,,,23.18,,N,29.61,30.01,,Mist
KIGQ,04/10/2018 10:35 UTC,30.28,23.9,23.9,100.0,0.0,0.0,,31.0,,,,1.0,,,,2.0,,KIGQ 101035Z AUTO 00000KT 2SM BR CLR M04/M04 A3028 RMK AO2  T10451045,,,,,,23.9,,N,29.62,30.01,,Mist
KIGQ,04/10/2018 10:55 UTC,30.28,23.0,23.0,100.0,0.0,0.0,,31.0,,,,1.0,,,,2.5,,KIGQ 101055Z AUTO 00000KT 2 1/2SM BR CLR M05/M05 A3028 RMK AO2  T10501050,,,,,,23.0,,N,29.62,30.03,,Mist
KIGQ,04/10/2018 11:15 UTC,30.29,24.26,24.26,100.0,0.0,0.0,,31.0,,,,1.0,,,,3.0,,KIGQ 101115Z AUTO 00000KT 3SM BR CLR M04/M04 A3029 RMK AO2  T10431043,,,,,,24.26,,N,29.63,30.02,,Mist
KIGQ,04/10/2018 11:35 UTC,30.29,23.72,23.72,100.0,0.0,0.0,,31.0,,,,1.0,,,,2.0,,KIGQ 101135Z AUTO 00000KT 2SM BR CLR M05/M05 A3029 RMK AO2  T10461046,,,,,,23.72,,N,29.63,30.03,,Mist
KIGQ,04/10/2018 11:55 UTC,30.29,23.0,23.0,100.0,0.0,0.0,,31.0,,,,1.0,,,,2.5,,KIGQ 101155Z AUTO 00000KT 2 1/2SM BR CLR M05/M05 A3029 RMK AO2  T10501050 11026 21054,27.32,22.28,,,,23.0,,N,29.63,30.04,,Mist
KIGQ,04/10/2018 12:15 UTC,30.29,24.08,24.08,100.0,0.0,0.0,,31.0,,,,1.0,,,,4.0,,KIGQ 101215Z AUTO 00000KT 4SM BR CLR M04/M04 A3029 RMK AO2  T10441044,,,,,,24.08,,N,29.63,30.02,,Mist
KIGQ,04/10/2018 12:35 UTC,30.3,28.22,28.22,100.0,3.44,240.0,,31.0,,,,1.0,,,,5.0,,KIGQ 101235Z AUTO 24003KT 5SM BR CLR M02/M02 A3030 RMK AO2  T10211021,,,,,,28.22,,WSW,29.64,29.96,,Mist
KIGQ,04/10/2018 12:55 UTC,30.3,29.84,29.84,100.0,4.61,260.0,,,,,,1.0,,,,10.0,,KIGQ 101255Z AUTO 26004KT 10SM CLR M01/M01 A3030 RMK AO2  T10121012,,,,,,29.84,,W,29.64,29.93,,Clear
KIGQ,04/10/2018 13:15 UTC,30.31,32.0,29.84,91.61,6.91,270.0,,,,,,1.0,,,,10.0,,KIGQ 101315Z AUTO 27006KT 10SM CLR 00/M01 A3031 RMK AO2  T00001012,,,,,,29.8,,W,29.65,29.92,,Clear
KIGQ,04/10/2018 13:35 UTC,30.31,33.26,28.76,83.32,4.61,290.0,,,,,,1.0,,,,10.0,,KIGQ 101335Z AUTO 29004KT 10SM CLR 01/M02 A3031 RMK AO2  T00071018,,,,,,28.69,,WNW,29.65,29.93,,Clear
KIGQ,04/10/2018 13:55 UTC,30.31,34.7,28.58,78.08,5.75,260.0,,,,,,1.0,,,,10.0,,KIGQ 101355Z AUTO 26005KT 10SM CLR 02/M02 A3031 RMK AO2  T00151019,,,,,,28.49,,W,29.65,29.92,,Clear
KIGQ,04/10/2018 14:15 UTC,30.3,35.6,27.5,72.06,3.44,250.0,,,,,,1.0,,,,10.0,,KIGQ 101415Z AUTO 25003KT 10SM CLR 02/M02 A3030 RMK AO2  T00201025,,,,,,27.38,,WSW,29.64,29.92,,Clear
KIGQ,04/10/2018 14:35 UTC,30.3,36.86,28.04,70.1,4.61,250.0,,,,,,1.0,,,,10.0,,KIGQ 101435Z AUTO 25004KT 10SM CLR 03/M02 A3030 RMK AO2  T00271022,,,,,,27.91,,WSW,29.64,29.91,,Clear
KIGQ,04/10/2018 14:55 UTC,30.3,38.12,27.14,64.28,3.44,290.0,,,,,,1.0,,,,10.0,,KIGQ 101455Z AUTO 29003KT 10SM CLR 03/M03 A3030 RMK AO2  T00341027,,,,,,26.99,,WNW,29.64,29.91,,Clear
KIGQ,04/10/2018 15:15 UTC,30.3,39.02,26.06,59.34,4.61,280.0,,,,,,1.0,,,,10.0,,KIGQ 101515Z AUTO 28004KT 10SM CLR 04/M03 A3030 RMK AO2  T00391033,,,,,,25.89,,W,29.64,29.92,,Clear
KIGQ,04/10/2018 15:35 UTC,30.29,39.74,26.78,59.44,4.61,240.0,,,,,,412.0,,,,10.0,,KIGQ 101535Z AUTO 24004KT 10SM SCT041 04/M03 A3029 RMK AO2  T00431029,,,,,,26.61,,WSW,29.63,29.9,,Partly Cloudy
KIGQ,04/10/2018 15:55 UTC,30.3,41.72,26.6,54.64,8.05,220.0,,,,,,432.0,502.0,,,10.0,,KIGQ 101555Z AUTO 22007KT 10SM SCT043 SCT050 05/M03 A3030 RMK AO2  T00541030,,,,,,26.41,38.49,SW,29.64,29.9,,Partly Cloudy
KIGQ,04/10/2018 16:15 UTC,30.29,40.64,25.34,54.07,4.61,280.0,,,,,,493.0,,,,10.0,,KIGQ 101615Z AUTO 28004KT 10SM BKN049 05/M04 A3029 RMK AO2  T00481037,,,4900.0,,,25.15,,W,29.63,29.91,,Mostly Cloudy
KIGQ,04/10/2018 16:35 UTC,30.29,41.18,24.44,51.0,10.36,270.0,,,,,,494.0,,,,10.0,,KIGQ 101635Z AUTO 27009KT 10SM OVC049 05/M04 A3029 RMK AO2  T00511042,,,4900.0,,,24.24,36.89,W,29.63,29.92,,Overcast
KIGQ,04/10/2018 16:55 UTC,30.28,41.9,24.8,50.35,4.61,260.0,,,,,,493.0,,,,10.0,,KIGQ 101655Z AUTO 26004KT 10SM BKN049 06/M04 A3028 RMK AO2  T00551040,,,4900.0,,,24.6,,W,29.62,29.9,,Mostly Cloudy
KIGQ,04/10/2018 17:15 UTC,30.27,41.0,24.08,50.59,10.36,250.0,,,,,,493.0,,,,10.0,,KIGQ 101715Z AUTO 25009KT 10SM BKN049 05/M04 A3027 RMK AO2  T00501044,,,4900.0,,,23.88,36.68,WSW,29.61,29.91,,Mostly Cloudy
KIGQ,04/10/2018 17:35 UTC,30.26,43.52,26.42,50.61,11.5,270.0,17.27,,,,,493.0,,,,10.0,,KIGQ 101735Z AUTO 27010G15KT 10SM BKN049 06/M03 A3026 RMK AO2  T00641031,,,4900.0,,,26.22,39.3,W,29.6,29.85,,Mostly Cloudy
KIGQ,04/10/2018 17:55 UTC,30.25,43.88,25.34,47.73,4.61,210.0,,,,,,492.0,,,,10.0,,KIGQ 101755Z AUTO 21004KT 10SM SCT049 07/M04 A3025 RMK AO2  T00661037 10067 21050,44.06,23.0,,,,25.13,,SSW,29.59,29.86,,Partly Cloudy
KIGQ,04/10/2018 18:15 UTC,30.24,42.26,24.26,48.55,6.91,250.0,,,,,,493.0,,,,10.0,,KIGQ 101815Z AUTO 25006KT 10SM BKN049 06/M04 A3024 RMK AO2  T00571043,,,4900.0,,,24.05,,WSW,29.58,29.87,,Mostly Cloudy
KIGQ,04/10/2018 18:35 UTC,30.24,42.26,24.26,48.55,8.05,250.0,16.11,,,,,493.0,,,,10.0,,KIGQ 101835Z AUTO 25007G14KT 10SM BKN049 06/M04 A3024 RMK AO2  T00571043,,,4900.0,,,24.05,39.13,WSW,29.58,29.87,,Mostly Cloudy
KIGQ,04/10/2018 18:55 UTC,30.23,42.98,24.62,47.94,8.05,250.0,,,,,,553.0,,,,10.0,,KIGQ 101855Z AUTO 25007KT 10SM BKN055 06/M04 A3023 RMK AO2  T00611041,,,5500.0,,,24.41,39.97,WSW,29.57,29.85,,Mostly Cloudy
KIGQ,04/10/2018 19:15 UTC,30.23,46.04,25.88,44.97,6.91,240.0,,,,,,553.0,,,,10.0,,KIGQ 101915Z AUTO 24006KT 10SM BKN055 08/M03 A3023 RMK AO2  T00781034,,,5500.0,,,25.67,,WSW,29.57,29.82,,Mostly Cloudy
KIGQ,04/10/2018 19:35 UTC,30.22,44.96,25.52,46.15,12.66,250.0,18.41,,,,,553.0,,,,10.0,,KIGQ 101935Z AUTO 25011G16KT 10SM BKN055 07/M04 A3022 RMK AO2  T00721036,,,5500.0,,,25.31,40.69,WSW,29.56,29.82,,Mostly Cloudy
KIGQ,04/10/2018 19:55 UTC,30.21,45.32,26.6,47.61,12.66,240.0,16.11,,,,,554.0,,,,10.0,,KIGQ 101955Z AUTO 24011G14KT 10SM OVC055 07/M03 A3021 RMK AO2  T00741030,,,5500.0,,,26.4,,WSW,29.55,29.79,,Overcast
KIGQ,04/10/2018 20:15 UTC,30.21,44.06,24.8,46.35,6.91,250.0,,,,,,554.0,,,,10.0,,KIGQ 102015Z AUTO 25006KT 10SM OVC055 07/M04 A3021 RMK AO2  T00671040,,,5500.0,,,24.59,,WSW,29.55,29.82,,Overcast
KIGQ,04/10/2018 20:35 UTC,30.2,44.24,25.34,47.08,9.22,250.0,19.57,,,,,554.0,,,,10.0,,KIGQ 102035Z AUTO 25008G17KT 10SM OVC055 07/M04 A3020 RMK AO2  T00681037,,,5500.0,,,25.13,40.97,WSW,29.54,29.8,,Overcast
KIGQ,04/10/2018 20:55 UTC,30.19,43.52,24.8,47.31,14.97,260.0,18.41,,,,,554.0,,,,10.0,,KIGQ 102055Z AUTO 26013G16KT 10SM OVC055 06/M04 A3019 RMK AO2  T00641040,,,5500.0,,,24.59,38.29,W,29.53,29.8,,Overcast
KIGQ,04/10/2018 21:15 UTC,30.19,43.52,25.16,48.03,10.36,250.0,19.57,,,,,554.0,,,,10.0,,KIGQ 102115Z AUTO 25009G17KT 10SM OVC055 06/M04 A3019 RMK AO2  T00641038,,,5500.0,,,24.95,39.69,WSW,29.53,29.8,,Overcast
KIGQ,04/10/2018 21:35 UTC,30.18,44.06,25.7,48.12,11.5,230.0,16.11,,,,,554.0,,,,10.0,,KIGQ 102135Z AUTO 23010G14KT 10SM OVC055 07/M03 A3018 RMK AO2  T00671035,,,5500.0,,,25.5,39.96,SW,29.52,29.78,,Overcast
KIGQ,04/10/2018 21:55 UTC,30.18,43.7,25.34,48.06,6.91,240.0,,,,,,554.0,,,,10.0,,KIGQ 102155Z AUTO 24006KT 10SM OVC055 07/M04 A3018 RMK AO2  T00651037,,,5500.0,,,25.13,,WSW,29.52,29.78,,Overcast
KIGQ,04/10/2018 22:15 UTC,30.17,44.42,25.7,47.46,10.36,250.0,,,,,,554.0,,,,10.0,,KIGQ 102215Z AUTO 25009KT 10SM OVC055 07/M03 A3017 RMK AO2  T00691035,,,5500.0,,,25.49,40.77,WSW,29.51,29.77,,Overcast
KIGQ,04/10/2018 22:35 UTC,30.16,43.88,25.88,48.81,12.66,220.0,,,,,,554.0,,,,10.0,,KIGQ 102235Z AUTO 22011KT 10SM OVC055 07/M03 A3016 RMK AO2  T00661034,,,5500.0,,,25.68,39.38,SW,29.5,29.76,,Overcast
KIGQ,04/10/2018 22:55 UTC,30.16,43.52,25.52,48.76,10.36,260.0,,,,,,553.0,,,,10.0,,KIGQ 102255Z AUTO 26009KT 10SM BKN055 06/M04 A3016 RMK AO2  T00641036,,,5500.0,,,25.32,39.69,W,29.5,29.76,,Mostly Cloudy
KIGQ,04/10/2018 23:15 UTC,30.16,43.16,25.7,49.8,6.91,260.0,,,,,,553.0,,,,10.0,,KIGQ 102315Z AUTO 26006KT 10SM BKN055 06/M03 A3016 RMK AO2  T00621035,,,5500.0,,,25.5,,W,29.5,29.76,,Mostly Cloudy
KIGQ,04/10/2018 23:35 UTC,30.15,42.8,25.7,50.5,11.5,240.0,,,,,,554.0,,,,10.0,,KIGQ 102335Z AUTO 24010KT 10SM OVC055 06/M03 A3015 RMK AO2  T00601035,,,5500.0,,,25.5,38.44,WSW,29.49,29.75,,Overcast
KIGQ,04/11/2018 00:00 UTC,30.14,42.44,26.06,51.97,10.36,250.0,,,,,,554.0,,,,10.0,,KIGQ 110000Z AUTO 25009KT 10SM OVC055 06/M03 A3014 RMK AO2  T00581033,,,5500.0,,,25.87,38.4,WSW,29.48,29.74,,Overcast
KIGQ,04/11/2018 00:15 UTC,30.14,42.26,26.06,52.33,8.05,240.0,,,,,,554.0,,,,10.0,,KIGQ 110015Z AUTO 24007KT 10SM OVC055 06/M03 A3014 RMK AO2  T00571033,,,5500.0,,,25.87,39.13,WSW,29.48,29.74,,Overcast
KIGQ,04/11/2018 00:35 UTC,30.13,42.08,26.42,53.49,6.91,230.0,,,,,,554.0,,,,10.0,,KIGQ 110035Z AUTO 23006KT 10SM OVC055 06/M03 A3013 RMK AO2  T00561031,,,5500.0,,,26.23,,SW,29.47,29.73,,Overcast
KIGQ,04/11/2018 00:55 UTC,30.13,41.9,26.96,55.08,6.91,220.0,,,,,,554.0,,,,10.0,,KIGQ 110055Z AUTO 22006KT 10SM OVC055 06/M03 A3013 RMK AO2  T00551028,,,5500.0,,,26.78,,SW,29.47,29.72,,Overcast
KIGQ,04/11/2018 01:15 UTC,30.13,41.9,26.6,54.26,9.22,230.0,,,,,,554.0,,,,10.0,,KIGQ 110115Z AUTO 23008KT 10SM OVC055 06/M03 A3013 RMK AO2  T00551030,,,5500.0,,,26.41,38.2,SW,29.47,29.73,,Overcast
KIGQ,04/11/2018 01:35 UTC,30.13,41.72,27.14,55.88,6.91,220.0,,,,,,554.0,,,,10.0,,KIGQ 110135Z AUTO 22006KT 10SM OVC055 05/M03 A3013 RMK AO2  T00541027,,,5500.0,,,26.96,,SW,29.47,29.72,,Overcast
KIGQ,04/11/2018 01:55 UTC,30.14,40.1,28.4,62.66,6.91,210.0,,,,,,554.0,,,,10.0,,KIGQ 110155Z AUTO 21006KT 10SM OVC055 05/M02 A3014 RMK AO2  T00451020,,,5500.0,,,28.24,,SSW,29.48,29.72,,Overcast
KIGQ,04/11/2018 02:15 UTC,30.14,40.46,28.4,61.79,8.05,230.0,,,,,,554.0,,,,10.0,,KIGQ 110215Z AUTO 23007KT 10SM OVC055 05/M02 A3014 RMK AO2  T00471020,,,5500.0,,,28.24,37.01,SW,29.48,29.72,,Overcast
KIGQ,04/11/2018 02:35 UTC,30.15,40.64,29.3,63.67,11.5,220.0,,,,,,554.0,,,,10.0,,KIGQ 110235Z AUTO 22010KT 10SM OVC055 05/M01 A3015 RMK AO2  T00481015,,,5500.0,,,29.15,35.83,SW,29.49,29.71,,Overcast
KIGQ,04/11/2018 02:55 UTC,30.14,40.28,29.66,65.52,8.05,210.0,,,,,,554.0,,,,10.0,,KIGQ 110255Z AUTO 21007KT 10SM OVC055 05/M01 A3014 RMK AO2  T00461013,,,5500.0,,,29.52,36.8,SSW,29.48,29.7,,Overcast
KIGQ,04/11/2018 04:55 UTC,30.13,39.38,30.02,68.86,9.22,230.0,,,,,,653.0,754.0,,,10.0,,KIGQ 110455Z AUTO 23008KT 10SM BKN065 OVC075 04/M01 A3013 RMK AO2  T00411011,,,6500.0,,,29.89,35.21,SW,29.47,29.69,,Overcast
KIGQ,04/11/2018 05:15 UTC,30.13,39.02,30.2,70.35,6.91,220.0,,,,,,553.0,704.0,,,10.0,,KIGQ 110515Z AUTO 22006KT 10SM BKN055 OVC070 04/M01 A3013 RMK AO2  T00391010,,,5500.0,,,30.08,,SW,29.47,29.69,,Overcast
KIGQ,04/11/2018 05:35 UTC,30.12,38.66,30.2,71.34,9.22,220.0,,,,,,552.0,704.0,,,10.0,,KIGQ 110535Z AUTO 22008KT 10SM SCT055 OVC070 04/M01 A3012 RMK AO2  T00371010,,,7000.0,,,30.08,34.35,SW,29.47,29.69,,Overcast
KIGQ,04/11/2018 05:55 UTC,30.12,38.48,30.74,73.44,5.75,210.0,,,,,,504.0,,,,10.0,,KIGQ 110555Z AUTO 21005KT 10SM OVC050 04/M01 A3012 RMK AO2  T00361007 10059 20036 400801054,42.62,38.48,5000.0,46.4,22.28,30.63,,SSW,29.47,29.68,,Overcast
KIGQ,04/11/2018 06:15 UTC,30.1,37.76,31.82,78.93,8.05,190.0,,13.0,,,,482.0,604.0,,,10.0,,KIGQ 110615Z AUTO 19007KT 10SM -RA SCT048 OVC060 03/00 A3010 RMK AO2 T00321001,,,6000.0,,,31.73,33.84,S,29.45,29.65,,Light Rain
KIGQ,04/11/2018 06:35 UTC,30.1,37.76,31.46,77.79,6.91,180.0,,,,,,604.0,,,,10.0,,KIGQ 110635Z AUTO 18006KT 10SM OVC060 03/00 A3010 RMK AO2  T00321003,,,6000.0,,,31.37,,S,29.45,29.66,,Overcast
KIGQ,04/11/2018 06:55 UTC,30.09,38.3,31.46,76.15,8.05,190.0,,,,,,552.0,654.0,,,10.0,,KIGQ 110655Z AUTO 19007KT 10SM SCT055 OVC065 04/00 A3009 RMK AO2  T00351003,,,6500.0,,,31.36,34.48,S,29.44,29.64,,Overcast
KIGQ,04/11/2018 07:15 UTC,30.07,37.94,31.46,77.24,9.22,190.0,,,,,,752.0,954.0,,,10.0,,KIGQ 110715Z AUTO 19008KT 10SM SCT075 OVC095 03/00 A3007 RMK AO2  T00331003,,,9500.0,,,31.37,33.5,S,29.42,29.63,,Overcast
KIGQ,04/11/2018 07:35 UTC,30.06,38.3,31.64,76.71,10.36,200.0,,,,,,954.0,,,,10.0,,KIGQ 110735Z AUTO 20009KT 10SM OVC095 04/00 A3006 RMK AO2  T00351002,,,9500.0,,,31.54,33.44,SSW,29.41,29.61,,Overcast
KIGQ,04/11/2018 07:55 UTC,30.06,38.48,31.82,76.73,10.36,210.0,17.27,,954.0,,,602.0,802.0,,,10.0,,KIGQ 110755Z AUTO 21009G15KT 10SM SCT060 SCT080 OVC095 04/00 A3006 RMK AO2 T00361001,,,9500.0,,,31.72,33.66,SSW,29.41,29.61,,Overcast
KIGQ,04/11/2018 08:15 UTC,30.05,37.58,32.0,80.07,12.66,200.0,16.11,13.0,,,,603.0,954.0,,,10.0,,KIGQ 110815Z AUTO 20011G14KT 10SM -RA BKN060 OVC095 03/00 A3005 RMK AO2 T00310000,,,6000.0,,,31.92,31.72,SSW,29.4,29.6,,Light Rain
KIGQ,04/11/2018 08:35 UTC,30.04,37.58,32.0,80.07,11.5,200.0,,,,,,602.0,954.0,,,10.0,,KIGQ 110835Z AUTO 20010KT 10SM SCT060 OVC095 03/00 A3004 RMK AO2  T00310000,,,9500.0,,,31.92,32.13,SSW,29.39,29.59,,Overcast
KIGQ,04/11/2018 08:55 UTC,30.03,36.86,31.64,81.18,11.5,200.0,16.11,,,,,953.0,,,,10.0,,KIGQ 110855Z AUTO 20010G14KT 10SM BKN095 03/00 A3003 RMK AO2  T00271002,,,9500.0,,,31.56,31.27,SSW,29.38,29.59,,Mostly Cloudy
KIGQ,04/11/2018 09:15 UTC,30.03,37.4,31.46,78.89,12.66,200.0,,,,,,954.0,,,,10.0,,KIGQ 110915Z AUTO 20011KT 10SM OVC095 03/00 A3003 RMK AO2  T00301003,,,9500.0,,,31.37,31.5,SSW,29.38,29.59,,Overcast
KIGQ,04/11/2018 09:35 UTC,30.02,36.86,31.1,79.42,10.36,210.0,13.8,,,,,652.0,954.0,,,10.0,,KIGQ 110935Z AUTO 21009G12KT 10SM SCT065 OVC095 03/00 A3002 RMK AO2 T00271005,,,9500.0,,,31.01,31.72,SSW,29.37,29.59,,Overcast
KIGQ,04/11/2018 09:55 UTC,30.01,36.5,30.74,79.39,11.5,210.0,,,,,,954.0,,,,10.0,,KIGQ 110955Z AUTO 21010KT 10SM OVC095 03/M01 A3001 RMK AO2  T00251007,,,9500.0,,,30.65,30.83,SSW,29.36,29.59,,Overcast
KIGQ,04/11/2018 10:15 UTC,30.01,35.6,30.38,81.08,11.5,210.0,,,,,,953.0,,,,10.0,,KIGQ 111015Z AUTO 21010KT 10SM BKN095 02/M01 A3001 RMK AO2  T00201009,,,9500.0,,,30.3,29.74,SSW,29.36,29.6,,Mostly Cloudy
KIGQ,04/11/2018 10:35 UTC,30.01,35.06,30.2,82.23,11.5,210.0,,,,,,952.0,,,,10.0,,KIGQ 111035Z AUTO 21010KT 10SM SCT095 02/M01 A3001 RMK AO2  T00171010,,,,,,30.12,29.09,SSW,29.36,29.6,,Partly Cloudy
KIGQ,04/11/2018 10:55 UTC,30.01,34.7,30.2,83.42,9.22,210.0,19.57,,,,,1.0,,,,10.0,,KIGQ 111055Z AUTO 21008G17KT 10SM CLR 02/M01 A3001 RMK AO2  T00151010,,,,,,30.13,29.65,SSW,29.36,29.61,,Clear
KIGQ,04/11/2018 11:15 UTC,30.01,34.7,30.2,83.42,11.5,210.0,,,,,,1.0,,,,10.0,,KIGQ 111115Z AUTO 21010KT 10SM CLR 02/M01 A3001 RMK AO2  T00151010,,,,,,30.13,28.66,SSW,29.36,29.61,,Clear
KIGQ,04/11/2018 11:35 UTC,30.01,35.06,30.2,82.23,12.66,210.0,18.41,,,,,1.0,,,,10.0,,KIGQ 111135Z AUTO 21011G16KT 10SM CLR 02/M01 A3001 RMK AO2  T00171010,,,,,,30.12,28.65,SSW,29.36,29.6,,Clear
KIGQ,04/11/2018 11:55 UTC,30.02,35.96,30.38,79.93,13.8,210.0,,,,,,1.0,,,,10.0,,KIGQ 111155Z AUTO 21012KT 10SM CLR 02/M01 A3002 RMK AO2 T00221009  10037 20015,38.66,34.7,,,,30.29,29.35,SSW,29.37,29.6,,Clear
KIGQ,04/11/2018 12:15 UTC,30.02,37.04,30.92,78.29,12.66,210.0,,,,,,1.0,,,,10.0,,KIGQ 111215Z AUTO 21011KT 10SM CLR 03/M01 A3002 RMK AO2  T00281006,,,,,,30.83,31.06,SSW,29.37,29.59,,Clear
KIGQ,04/11/2018 12:35 UTC,30.02,38.3,31.46,76.15,16.11,220.0,21.85,,,,,1.0,,,,10.0,,KIGQ 111235Z AUTO 22014G19KT 10SM CLR 04/00 A3002 RMK AO2  T00351003,,,,,,31.36,31.53,SW,29.37,29.57,,Clear
KIGQ,04/11/2018 12:55 UTC,30.02,39.56,32.0,74.09,13.8,220.0,23.02,,,,,1.0,,,,10.0,,KIGQ 111255Z AUTO 22012G20KT 10SM CLR 04/00 A3002 RMK AO2  T00420000,,,,,,31.89,33.76,SW,29.37,29.56,,Clear
KIGQ,04/11/2018 13:15 UTC,30.03,41.0,32.18,70.57,16.11,230.0,,,,,,1.0,,,,10.0,,KIGQ 111315Z AUTO 23014KT 10SM CLR 05/00 A3003 RMK AO2  T00500001,,,,,,32.06,34.88,SW,29.38,29.55,,Clear
KIGQ,04/11/2018 13:35 UTC,30.03,42.62,33.08,68.74,12.66,220.0,,,,,,1.0,,,,10.0,,KIGQ 111335Z AUTO 22011KT 10SM CLR 06/01 A3003 RMK AO2  T00590006,,,,,,32.95,37.85,SW,29.38,29.53,,Clear
KIGQ,04/11/2018 13:55 UTC,30.02,45.14,34.52,66.14,13.8,230.0,23.02,,,,,1.0,,,,10.0,,KIGQ 111355Z AUTO 23012G20KT 10SM CLR 07/01 A3002 RMK AO2  T00730014,,,,,,34.39,,SW,29.37,29.47,,Clear
KIGQ,04/11/2018 14:15 UTC,30.01,46.58,35.06,63.99,17.27,230.0,23.02,,,,,1.0,,,,10.0,,KIGQ 111415Z AUTO 23015G20KT 10SM CLR 08/02 A3001 RMK AO2  T00810017,,,,,,34.93,,SW,29.36,29.44,,Clear
KIGQ,04/11/2018 14:35 UTC,30.02,48.74,36.5,62.47,14.97,230.0,20.71,,,,,1.0,,,,10.0,,KIGQ 111435Z AUTO 23013G18KT 10SM CLR 09/03 A3002 RMK AO2  T00930025,,,,,,36.37,,SW,29.37,29.41,,Clear
KIGQ,04/11/2018 14:55 UTC,30.01,49.82,36.86,60.86,13.8,230.0,19.57,,,,,1.0,,,,10.0,,KIGQ 111455Z AUTO 23012G17KT 10SM CLR 10/03 A3001 RMK AO2  T00990027,,,,,,36.72,,SW,29.36,29.38,,Clear
KIGQ,04/11/2018 15:15 UTC,30.01,52.16,37.76,57.83,11.5,230.0,20.71,,,,,1.0,,,,10.0,,KIGQ 111515Z AUTO 23010G18KT 10SM CLR 11/03 A3001 RMK AO2  T01120032,,,,,,37.62,,SW,29.36,29.35,,Clear
KIGQ,04/11/2018 15:35 UTC,30.01,54.5,38.84,55.37,13.8,230.0,19.57,,,,,1.0,,,,10.0,,KIGQ 111535Z AUTO 23012G17KT 10SM CLR 13/04 A3001 RMK AO2  T01250038,,,,,,38.7,,SW,29.36,29.3,,Clear
KIGQ,04/11/2018 15:55 UTC,30.0,56.12,39.38,53.33,18.41,240.0,23.02,,,,,1.0,,,,10.0,,KIGQ 111555Z AUTO 24016G20KT 10SM CLR 13/04 A3000 RMK AO2  T01340041,,,,,,39.24,,WSW,29.35,29.27,,Clear
KIGQ,04/11/2018 16:15 UTC,30.0,55.4,39.38,54.73,13.8,230.0,,,,,,1.0,,,,10.0,,KIGQ 111615Z AUTO 23012KT 10SM CLR 13/04 A3000 RMK AO2  T01300041,,,,,,39.24,,SW,29.35,29.27,,Clear
KIGQ,04/11/2018 16:35 UTC,29.99,58.1,40.1,51.07,14.97,230.0,,,,,,1.0,,,,10.0,,KIGQ 111635Z AUTO 23013KT 10SM CLR 15/05 A2999 RMK AO2  T01450045,,,,,,39.97,,SW,29.34,29.23,,Clear
KIGQ,04/11/2018 16:55 UTC,29.98,60.44,41.0,48.65,13.8,250.0,,,,,,1.0,,,,10.0,,KIGQ 111655Z AUTO 25012KT 10SM CLR 16/05 A2998 RMK AO2  T01580050,,,,,,40.87,,WSW,29.33,29.17,,Clear
KIGQ,04/11/2018 17:15 UTC,29.97,60.98,41.0,47.72,11.5,240.0,16.11,,,,,1.0,,,,10.0,,KIGQ 111715Z AUTO 24010G14KT 10SM CLR 16/05 A2997 RMK AO2  T01610050,,,,,,40.87,,WSW,29.32,29.16,,Clear
KIGQ,04/11/2018 17:35 UTC,29.96,62.24,41.54,46.61,10.36,250.0,21.85,,,,,1.0,,,,10.0,,KIGQ 111735Z AUTO 25009G19KT 10SM CLR 17/05 A2996 RMK AO2  T01680053,,,,,,41.42,,WSW,29.31,29.13,,Clear
KIGQ,04/11/2018 17:55 UTC,29.95,62.24,41.54,46.61,6.91,260.0,17.27,,,,,1.0,,,,10.0,,KIGQ 111755Z AUTO 26006G15KT 10SM CLR 17/05 A2995 RMK AO2  T01680053 10172 20023,62.96,36.14,,,,41.42,,W,29.3,29.12,,Clear
KIGQ,04/11/2018 18:15 UTC,29.94,63.68,42.08,45.25,11.5,250.0,17.27,,,,,1.0,,,,10.0,,KIGQ 111815Z AUTO 25010G15KT 10SM CLR 18/06 A2994 RMK AO2  T01760056,,,,,,41.97,,WSW,29.29,29.08,,Clear
KIGQ,04/11/2018 18:35 UTC,29.94,64.76,42.62,44.49,11.5,250.0,16.11,,,,,1.0,,,,10.0,,KIGQ 111835Z AUTO 25010G14KT 10SM CLR 18/06 A2994 RMK AO2  T01820059,,,,,,42.51,,WSW,29.29,29.06,,Clear
KIGQ,04/11/2018 18:55 UTC,29.93,64.76,42.44,44.18,10.36,250.0,,,,,,1.0,,,,10.0,,KIGQ 111855Z AUTO 25009KT 10SM CLR 18/06 A2993 RMK AO2  T01820058,,,,,,42.33,,WSW,29.28,29.05,,Clear
KIGQ,04/11/2018 19:15 UTC,29.92,66.2,42.98,42.91,13.8,220.0,19.57,,,,,1.0,,,,10.0,,KIGQ 111915Z AUTO 22012G17KT 210V270 10SM CLR 19/06 A2992 RMK AO2  T01900061,,,,,,42.88,,SW,29.27,29.01,,Clear
KIGQ,04/11/2018 19:35 UTC,29.92,66.74,42.62,41.54,11.5,230.0,,,,,,1.0,,,,10.0,,KIGQ 111935Z AUTO 23010KT 10SM CLR 19/06 A2992 RMK AO2  T01930059,,,,,,42.52,,SW,29.27,29.02,,Clear
KIGQ,04/11/2018 19:55 UTC,29.91,66.74,42.98,42.11,11.5,210.0,17.27,,,,,1.0,,,,10.0,,KIGQ 111955Z AUTO 21010G15KT 10SM CLR 19/06 A2991 RMK AO2  T01930061,,,,,,42.88,,SSW,29.26,29.0,,Clear
KIGQ,04/11/2018 20:15 UTC,29.91,67.46,42.8,40.8,11.5,270.0,,,,,,1002.0,,,,10.0,,KIGQ 112015Z AUTO 27010KT 10SM SCT100 20/06 A2991 RMK AO2  T01970060,,,,,,42.71,,W,29.26,29.0,,Partly Cloudy
KIGQ,04/11/2018 20:35 UTC,29.9,67.64,42.98,40.83,11.5,250.0,18.41,,,,,1.0,,,,10.0,,KIGQ 112035Z AUTO 25010G16KT 10SM CLR 20/06 A2990 RMK AO2  T01980061,,,,,,42.89,,WSW,29.25,28.98,,Clear
KIGQ,04/11/2018 20:55 UTC,29.89,67.64,42.62,40.27,4.61,250.0,,,,,,1.0,,,,10.0,,KIGQ 112055Z AUTO 25004KT 10SM CLR 20/06 A2989 RMK AO2  T01980059,,,,,,42.53,,WSW,29.24,28.98,,Clear
KIGQ,04/11/2018 21:15 UTC,29.89,67.1,42.62,41.02,10.36,210.0,,,,,,1.0,,,,10.0,,KIGQ 112115Z AUTO 21009KT 10SM CLR 20/06 A2989 RMK AO2  T01950059,,,,,,42.52,,SSW,29.24,28.99,,Clear
KIGQ,04/11/2018 21:35 UTC,29.89,67.1,42.26,40.46,11.5,240.0,17.27,,,,,1.0,,,,10.0,,KIGQ 112135Z AUTO 24010G15KT 10SM CLR 20/06 A2989 RMK AO2  T01950057,,,,,,42.16,,WSW,29.24,29.0,,Clear
KIGQ,04/11/2018 21:55 UTC,29.88,66.74,42.26,40.96,9.22,240.0,,,,,,1.0,,,,10.0,,KIGQ 112155Z AUTO 24008KT 10SM CLR 19/06 A2988 RMK AO2  T01930057,,,,,,42.16,,WSW,29.23,28.99,,Clear
KIGQ,04/11/2018 22:15 UTC,29.89,60.44,40.46,47.64,4.61,10.0,,,,,,802.0,1103.0,,,10.0,,KIGQ 112215Z AUTO 01004KT 10SM SCT080 BKN110 16/05 A2989 RMK AO2  T01580047,,,11000.0,,,40.33,,N,29.24,29.1,,Mostly Cloudy
KIGQ,04/11/2018 22:35 UTC,29.89,57.74,40.46,52.46,8.05,50.0,,,,,,802.0,904.0,,,10.0,,KIGQ 112235Z AUTO 05007KT 10SM SCT080 OVC090 14/05 A2989 RMK AO2  T01430047,,,9000.0,,,40.33,,NE,29.24,29.12,,Overcast
KIGQ,04/11/2018 22:55 UTC,29.9,56.66,40.46,54.54,3.44,350.0,,,,,,904.0,,,,10.0,,KIGQ 112255Z AUTO 35003KT 10SM OVC090 14/05 A2990 RMK AO2  T01370047,,,9000.0,,,40.33,,N,29.25,29.13,,Overcast
KIGQ,04/11/2018 23:15 UTC,29.89,56.12,40.82,56.4,4.61,30.0,,,,,,904.0,,,,10.0,,KIGQ 112315Z AUTO 03004KT 10SM OVC090 13/05 A2989 RMK AO2  T01340049,,,9000.0,,,40.69,,NNE,29.24,29.12,,Overcast
KIGQ,04/11/2018 23:35 UTC,29.88,61.52,45.68,56.02,11.5,180.0,,,,,,1003.0,,,,10.0,,KIGQ 112335Z AUTO 18010KT 10SM BKN100 16/08 A2988 RMK AO2  T01640076,,,10000.0,,,45.58,,S,29.23,28.92,,Mostly Cloudy
KIGQ,04/11/2018 23:55 UTC,29.87,60.8,45.14,56.29,9.22,200.0,,,,,,1.0,,,,10.0,,KIGQ 112355Z AUTO 20008KT 10SM CLR 16/07 A2987 RMK AO2 T01600073  10201 20133,68.18,55.94,,,,45.03,,SSW,29.22,28.94,,Clear
KIGQ,04/12/2018 00:15 UTC,29.88,59.36,45.14,59.25,6.91,200.0,,,,,,1.0,,,,10.0,,KIGQ 120015Z AUTO 20006KT 10SM CLR 15/07 A2988 RMK AO2  T01520073,,,,,,45.03,,SSW,29.23,28.96,,Clear
KIGQ,04/12/2018 00:40 UTC,29.88,58.28,45.5,62.43,8.05,180.0,,,,,,1.0,,,,10.0,,KIGQ 120040Z AUTO 18007KT 10SM CLR 15/08 A2988 RMK AO2  T01460075,,,,,,45.4,,S,29.23,28.96,,Clear
KIGQ,04/12/2018 00:55 UTC,29.88,57.2,45.5,64.9,6.91,170.0,,,,,,1.0,,,,10.0,,KIGQ 120055Z AUTO 17006KT 10SM CLR 14/08 A2988 RMK AO2  T01400075,,,,,,45.4,,S,29.23,28.97,,Clear
KIGQ,04/12/2018 01:15 UTC,29.89,56.48,45.5,66.61,6.91,170.0,,,,,,1102.0,,,,10.0,,KIGQ 120115Z AUTO 17006KT 10SM SCT110 14/08 A2989 RMK AO2  T01360075,,,,,,45.41,,S,29.24,28.98,,Partly Cloudy
KIGQ,04/12/2018 01:35 UTC,29.88,56.84,45.5,65.75,6.91,170.0,,,,,,1102.0,,,,10.0,,KIGQ 120135Z AUTO 17006KT 10SM SCT110 14/08 A2988 RMK AO2  T01380075,,,,,,45.4,,S,29.23,28.97,,Partly Cloudy
KIGQ,04/12/2018 01:55 UTC,29.87,57.2,45.32,64.46,6.91,150.0,,,,,,1.0,,,,10.0,,KIGQ 120155Z AUTO 15006KT 10SM CLR 14/07 A2987 RMK AO2  T01400074,,,,,,45.22,,SSE,29.22,28.96,,Clear
KIGQ,04/12/2018 02:15 UTC,29.87,57.56,45.14,63.19,8.05,140.0,,,,,,1202.0,,,,10.0,,KIGQ 120215Z AUTO 14007KT 10SM SCT120 14/07 A2987 RMK AO2  T01420073,,,,,,45.04,,SE,29.22,28.96,,Partly Cloudy
KIGQ,04/12/2018 02:35 UTC,29.87,57.2,44.96,63.58,6.91,160.0,,,,,,1104.0,,,,10.0,,KIGQ 120235Z AUTO 16006KT 10SM OVC110 14/07 A2987 RMK AO2  T01400072,,,11000.0,,,44.86,,SSE,29.22,28.97,,Overcast
KIGQ,04/12/2018 02:55 UTC,29.86,57.38,45.14,63.61,10.36,170.0,,,,,,1104.0,,,,10.0,,KIGQ 120255Z AUTO 17009KT 10SM OVC110 14/07 A2986 RMK AO2  T01410073,,,11000.0,,,45.04,,S,29.21,28.95,,Overcast
KIGQ,04/12/2018 03:15 UTC,29.85,57.2,44.96,63.58,13.8,170.0,,,1104.0,,,602.0,903.0,,,10.0,,KIGQ 120315Z AUTO 17012KT 10SM SCT060 BKN090 OVC110 14/07 A2985 RMK AO2 T01400072,,,9000.0,,,44.86,,S,29.2,28.95,,Overcast
KIGQ,04/12/2018 03:35 UTC,29.83,57.38,44.78,62.74,12.66,160.0,18.41,,,,,602.0,704.0,,,10.0,,KIGQ 120335Z AUTO 16011G16KT 10SM SCT060 OVC070 14/07 A2983 RMK AO2 T01410071,,,7000.0,,,44.68,,SSE,29.18,28.94,,Overcast
KIGQ,04/12/2018 03:55 UTC,29.82,57.2,44.6,62.72,12.66,160.0,,,,,,704.0,,,,10.0,,KIGQ 120355Z AUTO 16011KT 10SM OVC070 14/07 A2982 RMK AO2  T01400070,,,7000.0,,,44.5,,SSE,29.17,28.93,,Overcast
KIGQ,04/12/2018 04:15 UTC,29.8,57.2,44.6,62.72,11.5,150.0,17.27,,,,,804.0,,,,10.0,,KIGQ 120415Z AUTO 15010G15KT 10SM OVC080 14/07 A2980 RMK AO2  T01400070,,,8000.0,,,44.5,,SSE,29.15,28.91,,Overcast
KIGQ,04/12/2018 04:35 UTC,29.79,57.2,44.06,61.44,12.66,170.0,17.27,,,,,804.0,,,,10.0,,KIGQ 120435Z AUTO 17011G15KT 10SM OVC080 14/07 A2979 RMK AO2  T01400067,,,8000.0,,,43.95,,S,29.14,28.92,,Overcast
KIGQ,04/12/2018 04:55 UTC,29.78,56.48,44.42,63.93,13.8,170.0,21.85,,,,,804.0,,,,10.0,,KIGQ 120455Z AUTO 17012G19KT 10SM OVC080 14/07 A2978 RMK AO2  T01360069,,,8000.0,,,44.32,,S,29.13,28.9,,Overcast
KIGQ,04/12/2018 05:15 UTC,29.78,55.22,45.5,69.72,14.97,170.0,19.57,13.0,,,,804.0,,,,10.0,,KIGQ 120515Z AUTO 17013G17KT 10SM -RA OVC080 13/08 A2978 RMK AO2  T01290075,,,8000.0,,,45.41,,S,29.13,28.88,,Light Rain
KIGQ,04/12/2018 05:35 UTC,29.77,54.86,45.5,70.63,16.11,180.0,21.85,,,,,804.0,,,,10.0,,KIGQ 120535Z AUTO 18014G19KT 10SM OVC080 13/08 A2977 RMK AO2  T01270075,,,8000.0,,,45.41,,S,29.12,28.87,,Overcast
KIGQ,04/12/2018 05:55 UTC,29.76,55.58,45.14,67.88,13.8,180.0,,13.0,,,,904.0,,,,10.0,,KIGQ 120555Z AUTO 18012KT 10SM -RA OVC090 13/07 A2976 RMK AO2  T01310073 10160 20125 402010015,60.8,54.5,9000.0,68.18,34.7,45.05,,S,29.11,28.87,,Light Rain
KIGQ,04/12/2018 06:15 UTC,29.76,56.12,44.6,65.21,17.27,190.0,23.02,,,,,904.0,,,,10.0,,KIGQ 120615Z AUTO 19015G20KT 10SM OVC090 13/07 A2976 RMK AO2  T01340070,,,9000.0,,,44.5,,S,29.11,28.88,,Overcast
KIGQ,04/12/2018 06:35 UTC,29.76,56.66,43.88,62.22,13.8,200.0,24.16,,,,,904.0,,,,10.0,,KIGQ 120635Z AUTO 20012G21KT 10SM OVC090 14/07 A2976 RMK AO2  T01370066,,,9000.0,,,43.77,,SSW,29.11,28.9,,Overcast
KIGQ,04/12/2018 06:55 UTC,29.75,56.48,43.7,62.19,13.8,200.0,23.02,,,,,903.0,1104.0,,,10.0,,KIGQ 120655Z AUTO 20012G20KT 10SM BKN090 OVC110 14/07 A2975 RMK AO2 T01360065,,,9000.0,,,43.59,,SSW,29.1,28.89,,Overcast
KIGQ,04/12/2018 07:15 UTC,29.74,56.3,43.34,61.74,12.66,220.0,19.57,,,,,903.0,1104.0,,,10.0,,KIGQ 120715Z AUTO 22011G17KT 10SM BKN090 OVC110 14/06 A2974 RMK AO2 T01350063,,,9000.0,,,43.23,,SW,29.09,28.9,,Overcast
KIGQ,04/12/2018 07:35 UTC,29.75,56.48,42.98,60.5,10.36,230.0,,,,,,904.0,,,,10.0,,KIGQ 120735Z AUTO 23009KT 10SM OVC090 14/06 A2975 RMK AO2  T01360061,,,9000.0,,,42.86,,SW,29.1,28.91,,Overcast
KIGQ,04/12/2018 07:55 UTC,29.74,55.58,44.24,65.59,6.91,230.0,17.27,13.0,,,,904.0,,,,10.0,,KIGQ 120755Z AUTO 23006G15KT 10SM -RA OVC090 13/07 A2974 RMK AO2  T01310068,,,9000.0,,,44.14,,SW,29.09,28.87,,Light Rain
KIGQ,04/12/2018 08:15 UTC,29.72,54.68,44.42,68.24,9.22,200.0,,,,,,904.0,,,,10.0,,KIGQ 120815Z AUTO 20008KT 10SM OVC090 13/07 A2972 RMK AO2  T01260069,,,9000.0,,,44.32,,SSW,29.07,28.86,,Overcast
KIGQ,04/12/2018 08:35 UTC,29.71,53.78,43.88,69.08,9.22,190.0,,,,,,902.0,1202.0,,,10.0,,KIGQ 120835Z AUTO 19008KT 10SM SCT090 SCT120 12/07 A2971 RMK AO2  T01210066,,,,,,43.78,,S,29.06,28.87,,Partly Cloudy
KIGQ,04/12/2018 08:55 UTC,29.7,53.6,43.7,69.06,11.5,190.0,,,,,,1.0,,,,10.0,,KIGQ 120855Z AUTO 19010KT 10SM CLR 12/07 A2970 RMK AO2  T01200065,,,,,,43.6,,S,29.05,28.87,,Clear
KIGQ,04/12/2018 09:15 UTC,29.68,53.6,43.7,69.06,11.5,200.0,,,,,,1.0,,,,10.0,,KIGQ 120915Z AUTO 20010KT 10SM CLR 12/07 A2968 RMK AO2  T01200065,,,,,,43.6,,SSW,29.03,28.85,,Clear
KIGQ,04/12/2018 09:35 UTC,29.68,54.32,43.16,65.89,14.97,210.0,18.41,,,,,1.0,,,,10.0,,KIGQ 120935Z AUTO 21013G16KT 10SM CLR 12/06 A2968 RMK AO2  T01240062,,,,,,43.06,,SSW,29.03,28.85,,Clear
KIGQ,04/12/2018 09:55 UTC,29.67,54.14,42.8,65.41,13.8,210.0,18.41,,,,,1.0,,,,10.0,,KIGQ 120955Z AUTO 21012G16KT 10SM CLR 12/06 A2967 RMK AO2  T01230060,,,,,,42.69,,SSW,29.02,28.86,,Clear
KIGQ,04/12/2018 10:15 UTC,29.67,53.96,42.8,65.84,13.8,210.0,,,,,,1.0,,,,10.0,,KIGQ 121015Z AUTO 21012KT 10SM CLR 12/06 A2967 RMK AO2  T01220060,,,,,,42.69,,SSW,29.02,28.86,,Clear
KIGQ,04/12/2018 10:35 UTC,29.67,54.5,42.8,64.56,14.97,210.0,,,,,,902.0,,,,10.0,,KIGQ 121035Z AUTO 21013KT 10SM SCT090 13/06 A2967 RMK AO2  T01250060,,,,,,42.69,,SSW,29.02,28.85,,Partly Cloudy
KIGQ,04/12/2018 10:55 UTC,29.66,54.5,42.8,64.56,14.97,210.0,,,,,,902.0,,,,10.0,,KIGQ 121055Z AUTO 21013KT 10SM SCT090 13/06 A2966 RMK AO2  T01250060,,,,,,42.69,,SSW,29.02,28.85,,Partly Cloudy
KIGQ,04/12/2018 11:15 UTC,29.66,53.78,42.8,66.28,12.66,210.0,19.57,,,,,1.0,,,,10.0,,KIGQ 121115Z AUTO 21011G17KT 10SM CLR 12/06 A2966 RMK AO2  T01210060,,,,,,42.7,,SSW,29.02,28.86,,Clear
KIGQ,04/12/2018 11:35 UTC,29.66,53.6,42.8,66.71,12.66,220.0,18.41,,,,,1.0,,,,10.0,,KIGQ 121135Z AUTO 22011G16KT 10SM CLR 12/06 A2966 RMK AO2  T01200060,,,,,,42.69,,SW,29.02,28.86,,Clear
KIGQ,04/12/2018 11:50 UTC,29.65,53.6,42.8,66.71,14.97,210.0,19.57,,,,,1.0,,,,10.0,,KIGQ 121150Z AUTO 21013G17KT 10SM CLR 12/06 A2965 RMK AO2  T01200060 10137 20118,56.66,53.24,,,,42.69,,SSW,29.01,28.85,,Clear
KIGQ,04/12/2018 12:15 UTC,29.66,53.6,42.8,66.71,12.66,220.0,19.57,,,,,1.0,,,,10.0,,KIGQ 121215Z AUTO 22011G17KT 10SM CLR 12/06 A2966 RMK AO2  T01200060,,,,,,42.69,,SW,29.02,28.86,,Clear
KIGQ,04/12/2018 12:35 UTC,29.66,55.22,43.34,64.21,16.11,220.0,,,,,,1.0,,,,10.0,,KIGQ 121235Z AUTO 22014KT 10SM CLR 13/06 A2966 RMK AO2  T01290063,,,,,,43.23,,SW,29.02,28.83,,Clear
KIGQ,04/12/2018 12:55 UTC,29.66,57.56,43.7,59.82,18.41,220.0,25.32,,,,,1.0,,,,10.0,,KIGQ 121255Z AUTO 22016G22KT 10SM CLR 14/07 A2966 RMK AO2  T01420065,,,,,,43.59,,SW,29.02,28.8,,Clear
KIGQ,04/12/2018 13:15 UTC,29.66,59.18,44.24,57.62,17.27,230.0,25.32,,,,,1.0,,,,10.0,,KIGQ 121315Z AUTO 23015G22KT 10SM CLR 15/07 A2966 RMK AO2  T01510068,,,,,,44.13,,SW,29.02,28.77,,Clear
KIGQ,04/12/2018 13:35 UTC,29.66,60.44,44.42,55.48,18.41,220.0,25.32,,,,,1.0,,,,10.0,,KIGQ 121335Z AUTO 22016G22KT 10SM CLR 16/07 A2966 RMK AO2  T01580069,,,,,,44.31,,SW,29.02,28.76,,Clear
KIGQ,04/12/2018 13:55 UTC,29.66,62.78,44.78,51.78,20.71,230.0,28.77,,,,,1.0,,,,10.0,,KIGQ 121355Z AUTO 23018G25KT 10SM CLR 17/07 A2966 RMK AO2  T01710071,,,,,,44.67,,SW,29.02,28.73,,Clear
KIGQ,04/12/2018 14:15 UTC,29.66,64.22,45.14,49.92,18.41,240.0,29.93,,,,,1.0,,,,10.0,,KIGQ 121415Z AUTO 24016G26KT 10SM CLR 18/07 A2966 RMK AO2  T01790073,,,,,,45.04,,WSW,29.02,28.71,,Clear
KIGQ,04/12/2018 14:35 UTC,29.65,65.66,45.68,48.46,17.27,230.0,28.77,,,,,1.0,,,,10.0,,KIGQ 121435Z AUTO 23015G25KT 10SM CLR 19/08 A2965 RMK AO2  T01870076,,,,,,45.58,,SW,29.01,28.67,,Clear
KIGQ,04/12/2018 14:55 UTC,29.65,66.92,46.04,47.03,23.02,250.0,29.93,,,,,1.0,,,,10.0,,KIGQ 121455Z AUTO 25020G26KT 10SM CLR 19/08 A2965 RMK AO2  T01940078,,,,,,45.95,,WSW,29.01,28.64,,Clear
KIGQ,04/12/2018 15:15 UTC,29.65,68.36,47.12,46.62,21.85,240.0,28.77,,,,,1.0,,,,10.0,,KIGQ 121515Z AUTO 24019G25KT 10SM CLR 20/08 A2965 RMK AO2  T02020084,,,,,,47.04,,WSW,29.01,28.6,,Clear
KIGQ,04/12/2018 15:35 UTC,29.66,68.72,47.66,46.99,21.85,250.0,31.07,,,,,1.0,,,,10.0,,KIGQ 121535Z AUTO 25019G27KT 10SM CLR 20/09 A2966 RMK AO2  T02040087,,,,,,47.58,,WSW,29.02,28.58,,Clear
KIGQ,04/12/2018 15:55 UTC,29.65,69.98,48.2,45.93,19.57,250.0,27.63,,,,,1.0,,,,10.0,,KIGQ 121555Z AUTO 25017G24KT 10SM CLR 21/09 A2965 RMK AO2  T02110090,,,,,,48.13,,WSW,29.01,28.54,,Clear
KIGQ,04/12/2018 16:15 UTC,29.66,71.06,48.74,45.18,16.11,240.0,26.46,,,,,1.0,,,,10.0,,KIGQ 121615Z AUTO 24014G23KT 10SM CLR 22/09 A2966 RMK AO2  T02170093,,,,,,48.68,,WSW,29.02,28.52,,Clear
KIGQ,04/12/2018 16:35 UTC,29.65,71.6,48.92,44.66,19.57,240.0,25.32,,,,,1.0,,,,10.0,,KIGQ 121635Z AUTO 24017G22KT 10SM CLR 22/09 A2965 RMK AO2  T02200094,,,,,,48.86,,WSW,29.01,28.5,,Clear
KIGQ,04/12/2018 16:55 UTC,29.66,72.68,49.46,43.94,16.11,240.0,25.32,,,,,1.0,,,,10.0,,KIGQ 121655Z AUTO 24014G22KT 10SM CLR 23/10 A2966 RMK AO2  T02260097,,,,,,49.41,,WSW,29.02,28.48,,Clear
KIGQ,04/12/2018 17:15 UTC,29.66,73.58,50.0,43.5,17.27,260.0,27.63,,,,,1.0,,,,10.0,,KIGQ 121715Z AUTO 26015G24KT 10SM CLR 23/10 A2966 RMK AO2  T02310100,,,,,,49.96,,W,29.02,28.46,,Clear
KIGQ,04/12/2018 17:35 UTC,29.66,74.3,50.0,42.46,14.97,250.0,,,,,,1.0,,,,10.0,,KIGQ 121735Z AUTO 25013KT 10SM CLR 24/10 A2966 RMK AO2  T02350100,,,,,,49.96,,WSW,29.02,28.45,,Clear
KIGQ,04/12/2018 17:55 UTC,29.66,75.2,50.72,42.32,17.27,260.0,23.02,,,,,1.0,,,,10.0,,KIGQ 121755Z AUTO 26015G20KT 10SM CLR 24/10 A2966 RMK AO2  T02400104 10240 20120,75.2,53.6,,,,50.69,,W,29.02,28.41,,Clear
KIGQ,04/12/2018 18:15 UTC,29.66,75.56,50.36,41.26,17.27,260.0,20.71,,,,,1.0,,,,10.0,,KIGQ 121815Z AUTO 26015G18KT 10SM CLR 24/10 A2966 RMK AO2  T02420102,,,,,,50.33,,W,29.02,28.42,,Clear
KIGQ,04/12/2018 18:35 UTC,29.67,75.2,50.0,41.21,13.8,270.0,24.16,,,,,1.0,,,,10.0,,KIGQ 121835Z AUTO 27012G21KT 10SM CLR 24/10 A2967 RMK AO2  T02400100,,,,,,49.98,,W,29.02,28.44,,Clear
KIGQ,04/12/2018 18:55 UTC,29.68,74.3,49.82,42.18,10.36,270.0,21.85,,,,,1.0,,,,10.0,,KIGQ 121855Z AUTO 27009G19KT 10SM CLR 24/10 A2968 RMK AO2  T02350099,,,,,,49.79,,W,29.03,28.47,,Clear
KIGQ,04/12/2018 19:15 UTC,29.68,74.84,50.18,41.98,10.36,260.0,,,,,,1.0,,,,10.0,,KIGQ 121915Z AUTO 26009KT 10SM CLR 24/10 A2968 RMK AO2  T02380101,,,,,,50.15,,W,29.03,28.45,,Clear
KIGQ,04/12/2018 19:35 UTC,29.68,75.2,49.82,40.93,8.05,270.0,17.27,,,,,1.0,,,,10.0,,KIGQ 121935Z AUTO 27007G15KT 10SM CLR 24/10 A2968 RMK AO2  T02400099,,,,,,49.79,,W,29.03,28.46,,Clear
KIGQ,04/12/2018 19:55 UTC,29.68,75.38,49.82,40.69,9.22,280.0,,,,,,1.0,,,,10.0,,KIGQ 121955Z AUTO 28008KT 10SM CLR 24/10 A2968 RMK AO2  T02410099,,,,,,49.8,,W,29.03,28.46,,Clear
KIGQ,04/12/2018 20:15 UTC,29.68,74.66,49.46,41.12,9.22,270.0,,,,,,1.0,,,,10.0,,KIGQ 122015Z AUTO 27008KT 10SM CLR 24/10 A2968 RMK AO2  T02370097,,,,,,49.43,,W,29.03,28.48,,Clear
KIGQ,04/12/2018 20:35 UTC,29.68,74.48,49.1,40.82,9.22,320.0,,,,,,1.0,,,,10.0,,KIGQ 122035Z AUTO 32008KT 10SM CLR 24/10 A2968 RMK AO2  T02360095,,,,,,49.07,,NW,29.03,28.49,,Clear
KIGQ,04/12/2018 20:55 UTC,29.7,58.28,46.58,65.03,19.57,40.0,26.46,,,,,1.0,,,,10.0,,KIGQ 122055Z AUTO 04017G23KT 10SM CLR 15/08 A2970 RMK AO2  T01460081,,,,,,46.48,,NE,29.05,28.74,,Clear
KIGQ,04/12/2018 21:15 UTC,29.71,55.4,46.4,71.66,16.11,40.0,21.85,,,,,1.0,,,,10.0,,KIGQ 122115Z AUTO 04014G19KT 10SM CLR 13/08 A2971 RMK AO2  T01300080,,,,,,46.32,,NE,29.06,28.78,,Clear
KIGQ,04/12/2018 21:35 UTC,29.71,54.5,45.86,72.55,13.8,40.0,23.02,,,,,1.0,,,,10.0,,KIGQ 122135Z AUTO 04012G20KT 10SM CLR 13/08 A2971 RMK AO2  T01250077,,,,,,45.78,,NE,29.06,28.8,,Clear
KIGQ,04/12/2018 21:55 UTC,29.71,53.78,45.5,73.47,16.11,40.0,,,,,,1.0,,,,10.0,,KIGQ 122155Z AUTO 04014KT 10SM CLR 12/08 A2971 RMK AO2  T01210075,,,,,,45.42,,NE,29.06,28.82,,Clear
KIGQ,04/12/2018 22:15 UTC,29.71,53.96,45.68,73.49,13.8,30.0,,,,,,1.0,,,,10.0,,KIGQ 122215Z AUTO 03012KT 10SM CLR 12/08 A2971 RMK AO2  T01220076,,,,,,45.6,,NNE,29.06,28.81,,Clear
KIGQ,04/12/2018 22:35 UTC,29.71,53.42,45.86,75.47,13.8,40.0,,,,,,1.0,,,,10.0,,KIGQ 122235Z AUTO 04012KT 10SM CLR 12/08 A2971 RMK AO2  T01190077,,,,,,45.78,,NE,29.06,28.81,,Clear
KIGQ,04/12/2018 22:55 UTC,29.71,52.16,45.5,77.97,16.11,50.0,,,,,,1.0,,,,10.0,,KIGQ 122255Z AUTO 05014KT 10SM CLR 11/08 A2971 RMK AO2  T01120075,,,,,,45.43,,NE,29.06,28.84,,Clear
KIGQ,04/12/2018 23:15 UTC,29.71,51.08,45.5,81.14,16.11,60.0,,,,,,1.0,,,,10.0,,KIGQ 122315Z AUTO 06014KT 10SM CLR 11/08 A2971 RMK AO2  T01060075,,,,,,45.44,,ENE,29.06,28.85,,Clear
KIGQ,04/12/2018 23:35 UTC,29.72,48.74,44.42,84.95,13.8,40.0,20.71,,,,,1.0,,,,7.0,,KIGQ 122335Z AUTO 04012G18KT 7SM CLR 09/07 A2972 RMK AO2  T00930069,,,,,,44.37,,NE,29.07,28.91,,Clear
KIGQ,04/12/2018 23:55 UTC,29.72,46.76,43.52,88.42,10.36,40.0,18.41,,,,,1.0,,,,7.0,,KIGQ 122355Z AUTO 04009G16KT 7SM CLR 08/06 A2972 RMK AO2 T00820064  10248 20082,76.64,46.76,,,,43.48,,NE,29.07,28.95,,Clear
KIGQ,04/13/2018 00:15 UTC,29.73,44.96,42.08,89.56,12.66,30.0,,31.0,,,,1202.0,,,,5.0,,KIGQ 130015Z AUTO 03011KT 5SM BR SCT120 07/06 A2973 RMK AO2  T00720056,,,,,,42.04,40.69,NNE,29.08,29.01,,Mist
KIGQ,04/13/2018 00:35 UTC,29.75,44.6,41.36,88.31,11.5,40.0,,,,,,1204.0,,,,7.0,,KIGQ 130035Z AUTO 04010KT 7SM OVC120 07/05 A2975 RMK AO2  T00700052,,,12000.0,,,41.32,40.61,NE,29.1,29.05,,Overcast
KIGQ,04/13/2018 00:55 UTC,29.76,43.88,40.82,88.89,9.22,40.0,20.71,,,,,1104.0,,,,7.0,,KIGQ 130055Z AUTO 04008G18KT 7SM OVC110 07/05 A2976 RMK AO2  T00660049,,,11000.0,,,40.78,40.55,NE,29.11,29.08,,Overcast
KIGQ,04/13/2018 01:15 UTC,29.74,43.52,40.46,88.88,11.5,40.0,18.41,,,,,1102.0,,,,7.0,,KIGQ 130115Z AUTO 04010G16KT 7SM SCT110 06/05 A2974 RMK AO2  T00640047,,,,,,40.42,39.3,NE,29.09,29.07,,Partly Cloudy
KIGQ,04/13/2018 01:35 UTC,29.74,43.34,40.46,89.49,8.05,40.0,,,,,,702.0,,,,10.0,,KIGQ 130135Z AUTO 04007KT 10SM SCT070 06/05 A2974 RMK AO2  T00630047,,,,,,40.42,40.4,NE,29.09,29.07,,Partly Cloudy
KIGQ,04/13/2018 01:55 UTC,29.75,43.7,40.28,87.65,11.5,30.0,,,,,,703.0,,,,10.0,,KIGQ 130155Z AUTO 03010KT 10SM BKN070 07/05 A2975 RMK AO2  T00650046,,,7000.0,,,40.23,39.52,NNE,29.1,29.09,,Mostly Cloudy
KIGQ,04/13/2018 02:15 UTC,29.75,43.7,39.74,85.83,12.66,40.0,,,,,,703.0,,,,10.0,,KIGQ 130215Z AUTO 04011KT 10SM BKN070 07/04 A2975 RMK AO2  T00650043,,,7000.0,,,39.69,39.16,NE,29.1,29.1,,Mostly Cloudy
KIGQ,04/13/2018 02:35 UTC,29.75,43.16,39.38,86.4,13.8,40.0,18.41,,,,,702.0,,,,10.0,,KIGQ 130235Z AUTO 04012G16KT 10SM SCT070 06/04 A2975 RMK AO2  T00620041,,,,,,39.33,38.17,NE,29.1,29.11,,Partly Cloudy
KIGQ,04/13/2018 02:55 UTC,29.74,42.98,39.2,86.39,13.8,40.0,,,,,,1.0,,,,10.0,,KIGQ 130255Z AUTO 04012KT 10SM CLR 06/04 A2974 RMK AO2  T00610040,,,,,,39.15,37.95,NE,29.09,29.11,,Clear
KIGQ,04/13/2018 03:15 UTC,29.74,43.16,38.48,83.41,9.22,40.0,16.11,,,,,1.0,,,,10.0,,KIGQ 130315Z AUTO 04008G14KT 10SM CLR 06/04 A2974 RMK AO2  T00620036,,,,,,38.41,39.69,NE,29.09,29.12,,Clear
KIGQ,04/13/2018 03:40 UTC,29.74,42.62,38.48,85.16,12.66,40.0,17.27,,,,,702.0,,,,10.0,,KIGQ 130340Z AUTO 04011G15KT 10SM SCT070 06/04 A2974 RMK AO2  T00590036,,,,,,38.42,37.85,NE,29.09,29.12,,Partly Cloudy
KIGQ,04/13/2018 03:55 UTC,29.73,42.8,38.66,85.17,10.36,40.0,,,,,,804.0,,,,10.0,,KIGQ 130355Z AUTO 04009KT 10SM OVC080 06/04 A2973 RMK AO2  T00600037,,,8000.0,,,38.6,38.83,NE,29.08,29.11,,Overcast
KIGQ,04/13/2018 04:15 UTC,29.73,42.8,39.2,86.99,6.91,40.0,,,,,,804.0,,,,10.0,,KIGQ 130415Z AUTO 04006KT 10SM OVC080 06/04 A2973 RMK AO2  T00600040,,,8000.0,,,39.15,,NE,29.08,29.1,,Overcast
KIGQ,04/13/2018 04:35 UTC,29.73,42.44,39.38,88.82,5.75,20.0,,,,,,803.0,,,,10.0,,KIGQ 130435Z AUTO 02005KT 10SM BKN080 06/04 A2973 RMK AO2  T00580041,,,8000.0,,,39.34,,NNE,29.08,29.1,,Mostly Cloudy
KIGQ,04/13/2018 04:55 UTC,29.72,42.44,39.38,88.82,8.05,30.0,,,,,,804.0,,,,10.0,,KIGQ 130455Z AUTO 03007KT 10SM OVC080 06/04 A2972 RMK AO2  T00580041,,,8000.0,,,39.34,39.34,NNE,29.07,29.09,,Overcast
KIGQ,04/13/2018 05:15 UTC,29.72,42.8,40.1,90.09,8.05,50.0,,,,,,804.0,,,,10.0,,KIGQ 130515Z AUTO 05007KT 10SM OVC080 06/05 A2972 RMK AO2  T00600045,,,8000.0,,,40.06,39.76,NE,29.07,29.07,,Overcast
KIGQ,04/13/2018 05:35 UTC,29.72,42.8,40.1,90.09,8.05,30.0,,,,,,904.0,,,,10.0,,KIGQ 130535Z AUTO 03007KT 10SM OVC090 06/05 A2972 RMK AO2  T00600045,,,9000.0,,,40.06,39.76,NNE,29.07,29.07,,Overcast
KIGQ,04/13/2018 05:55 UTC,29.72,42.26,39.56,90.07,6.91,30.0,,,,,,904.0,,,,10.0,,KIGQ 130555Z AUTO 03006KT 10SM OVC090 06/04 A2972 RMK AO2  T00570042 10081 20057 402480057,46.58,42.26,9000.0,76.64,42.26,39.52,,NNE,29.07,29.08,,Overcast
KIGQ,04/13/2018 06:15 UTC,29.72,42.26,39.56,90.07,8.05,40.0,,,,,,904.0,,,,7.0,,KIGQ 130615Z AUTO 04007KT 7SM OVC090 06/04 A2972 RMK AO2  T00570042,,,9000.0,,,39.52,39.13,NE,29.07,29.08,,Overcast
KIGQ,04/13/2018 06:35 UTC,29.72,41.9,39.56,91.33,5.75,30.0,,,,,,1004.0,,,,10.0,,KIGQ 130635Z AUTO 03005KT 10SM OVC100 06/04 A2972 RMK AO2  T00550042,,,10000.0,,,39.53,,NNE,29.07,29.09,,Overcast
KIGQ,04/13/2018 06:55 UTC,29.71,41.72,39.38,91.32,10.36,20.0,,,,,,1004.0,,,,10.0,,KIGQ 130655Z AUTO 02009KT 10SM OVC100 05/04 A2971 RMK AO2  T00540041,,,10000.0,,,39.35,37.54,NNE,29.06,29.08,,Overcast
KIGQ,04/13/2018 07:15 UTC,29.71,41.36,39.38,92.6,6.91,40.0,,,,,,1004.0,,,,10.0,,KIGQ 130715Z AUTO 04006KT 10SM OVC100 05/04 A2971 RMK AO2  T00520041,,,10000.0,,,39.35,,NE,29.06,29.08,,Overcast
KIGQ,04/13/2018 07:35 UTC,29.7,41.0,39.2,93.24,6.91,30.0,,,,,,1004.0,,,,10.0,,KIGQ 130735Z AUTO 03006KT 10SM OVC100 05/04 A2970 RMK AO2  T00500040,,,10000.0,,,39.17,,NNE,29.05,29.08,,Overcast
KIGQ,04/13/2018 07:55 UTC,29.7,41.0,39.2,93.24,6.91,30.0,,,,,,1104.0,,,,7.0,,KIGQ 130755Z AUTO 03006KT 7SM OVC110 05/04 A2970 RMK AO2  T00500040,,,11000.0,,,39.17,,NNE,29.05,29.08,,Overcast
KIGQ,04/13/2018 08:15 UTC,29.7,40.64,39.2,94.55,4.61,360.0,,,,,,1104.0,,,,10.0,,KIGQ 130815Z AUTO 36004KT 10SM OVC110 05/04 A2970 RMK AO2  T00480040,,,11000.0,,,39.18,,N,29.05,29.08,,Overcast
KIGQ,04/13/2018 08:35 UTC,29.69,40.1,39.2,96.55,6.91,10.0,,,,,,1003.0,,,,10.0,,KIGQ 130835Z AUTO 01006KT 10SM BKN100 05/04 A2969 RMK AO2  T00450040,,,10000.0,,,39.19,,N,29.04,29.08,,Mostly Cloudy
KIGQ,04/13/2018 08:55 UTC,29.69,40.1,39.2,96.55,6.91,10.0,,,,,,1002.0,,,,10.0,,KIGQ 130855Z AUTO 01006KT 10SM SCT100 05/04 A2969 RMK AO2  T00450040,,,,,,39.19,,N,29.04,29.08,,Partly Cloudy
KIGQ,04/13/2018 09:15 UTC,29.7,40.1,39.2,96.55,3.44,360.0,,,,,,1.0,,,,10.0,,KIGQ 130915Z AUTO 36003KT 10SM CLR 05/04 A2970 RMK AO2  T00450040,,,,,,39.19,,N,29.05,29.09,,Clear
KIGQ,04/13/2018 09:35 UTC,29.69,39.92,39.02,96.55,5.75,10.0,,,,,,1.0,,,,10.0,,KIGQ 130935Z AUTO 01005KT 10SM CLR 04/04 A2969 RMK AO2  T00440039,,,,,,39.01,,N,29.04,29.08,,Clear
KIGQ,04/13/2018 09:55 UTC,29.69,39.92,39.2,97.23,0.0,0.0,,,,,,952.0,,,,10.0,,KIGQ 130955Z AUTO 00000KT 10SM SCT095 04/04 A2969 RMK AO2  T00440040,,,,,,39.19,,N,29.04,29.08,,Partly Cloudy
KIGQ,04/13/2018 10:15 UTC,29.68,39.74,39.2,97.92,3.44,360.0,,,,,,953.0,,,,10.0,,KIGQ 131015Z AUTO 36003KT 10SM BKN095 04/04 A2968 RMK AO2 LTG DSNT  W T00430040,,,9500.0,,,39.19,,N,29.03,29.07,,Mostly Cloudy
KIGQ,04/13/2018 10:35 UTC,29.68,39.74,39.2,97.92,3.44,20.0,,,,,,952.0,,,,10.0,,KIGQ 131035Z AUTO 02003KT 10SM SCT095 04/04 A2968 RMK AO2  T00430040,,,,,,39.19,,NNE,29.03,29.07,,Partly Cloudy
KIGQ,04/13/2018 10:55 UTC,29.68,39.56,39.2,98.61,0.0,0.0,,,,,,1.0,,,,10.0,,KIGQ 131055Z AUTO 00000KT 10SM CLR 04/04 A2968 RMK AO2  T00420040,,,,,,39.2,,N,29.03,29.07,,Clear
KIGQ,04/13/2018 11:15 UTC,29.68,39.74,39.2,97.92,0.0,0.0,,,,,,902.0,,,,10.0,,KIGQ 131115Z AUTO 00000KT 10SM SCT090 04/04 A2968 RMK AO2  T00430040,,,,,,39.19,,N,29.03,29.07,,Partly Cloudy
KIGQ,04/13/2018 11:35 UTC,29.68,40.1,39.2,96.55,0.0,0.0,,,,,,903.0,,,,7.0,,KIGQ 131135Z AUTO 00000KT 7SM BKN090 05/04 A2968 RMK AO2  T00450040,,,9000.0,,,39.19,,N,29.03,29.07,,Mostly Cloudy
KIGQ,04/13/2018 11:55 UTC,29.68,41.0,40.1,96.57,0.0,0.0,,,,,,904.0,,,,7.0,,KIGQ 131155Z AUTO 00000KT 7SM OVC090 05/05 A2968 RMK AO2 T00500045  10058 20042,42.44,39.56,9000.0,,,40.09,,N,29.03,29.04,,Overcast
KIGQ,04/13/2018 12:15 UTC,29.68,41.72,40.46,95.24,0.0,0.0,,,,,,904.0,,,,7.0,,KIGQ 131215Z AUTO 00000KT 7SM OVC090 05/05 A2968 RMK AO2  T00540047,,,9000.0,,,40.44,,N,29.03,29.03,,Overcast
KIGQ,04/13/2018 12:35 UTC,29.67,42.44,41.0,94.59,3.44,90.0,,,,,,802.0,,,,7.0,,KIGQ 131235Z AUTO 09003KT 7SM SCT080 06/05 A2967 RMK AO2  T00580050,,,,,,40.98,,E,29.02,29.0,,Partly Cloudy
KIGQ,04/13/2018 12:55 UTC,29.68,44.06,41.54,90.78,0.0,0.0,,,,,,1.0,,,,7.0,,KIGQ 131255Z AUTO 00000KT 7SM CLR 07/05 A2968 RMK AO2  T00670053,,,,,,41.51,,N,29.03,28.98,,Clear
KIGQ,04/13/2018 13:15 UTC,29.68,45.5,41.72,86.54,0.0,0.0,,,,,,1.0,,,,7.0,,KIGQ 131315Z AUTO 00000KT 7SM CLR 08/05 A2968 RMK AO2  T00750054,,,,,,41.67,,N,29.03,28.97,,Clear
KIGQ,04/13/2018 13:35 UTC,29.67,47.48,42.62,83.13,0.0,0.0,,,,,,1.0,,,,10.0,,KIGQ 131335Z AUTO 00000KT 10SM CLR 09/06 A2967 RMK AO2  T00860059,,,,,,42.56,,N,29.02,28.92,,Clear
KIGQ,04/13/2018 13:55 UTC,29.67,50.18,43.88,78.87,0.0,0.0,,,,,,1.0,,,,10.0,,KIGQ 131355Z AUTO 00000KT 10SM CLR 10/07 A2967 RMK AO2  T01010066,,,,,,43.81,,N,29.02,28.86,,Clear
KIGQ,04/13/2018 14:15 UTC,29.66,53.78,45.5,73.47,0.0,0.0,,,,,,1.0,,,,10.0,,KIGQ 131415Z AUTO 00000KT 10SM CLR 12/08 A2966 RMK AO2  T01210075,,,,,,45.42,,N,29.02,28.78,,Clear
KIGQ,04/13/2018 14:35 UTC,29.66,56.12,46.76,70.77,0.0,0.0,,,,,,752.0,,,,10.0,,KIGQ 131435Z AUTO 00000KT 10SM SCT075 13/08 A2966 RMK AO2  T01340082,,,,,,46.67,,N,29.02,28.72,,Partly Cloudy
KIGQ,04/13/2018 14:55 UTC,29.66,58.1,47.3,67.26,0.0,0.0,,,,,,752.0,,,,10.0,,KIGQ 131455Z AUTO 00000KT 10SM SCT075 15/09 A2966 RMK AO2  T01450085,,,,,,47.21,,N,29.02,28.69,,Partly Cloudy
KIGQ,04/13/2018 15:15 UTC,29.66,59.9,48.56,66.12,0.0,0.0,,,,,,1.0,,,,10.0,,KIGQ 131515Z AUTO 00000KT 10SM CLR 16/09 A2966 RMK AO2  T01550092,,,,,,48.47,,N,29.02,28.63,,Clear
KIGQ,04/13/2018 15:35 UTC,29.66,60.98,47.66,61.52,6.91,30.0,,,,,,702.0,852.0,,,10.0,,KIGQ 131535Z AUTO 03006KT 10SM SCT070 SCT085 16/09 A2966 RMK AO2  T01610087,,,,,,47.57,,NNE,29.02,28.65,,Partly Cloudy
KIGQ,04/13/2018 15:55 UTC,29.66,58.64,46.94,65.08,9.22,20.0,,,,,,552.0,854.0,,,10.0,,KIGQ 131555Z AUTO 02008KT 10SM SCT055 OVC085 15/08 A2966 RMK AO2  T01480083,,,8500.0,,,46.85,,NNE,29.02,28.69,,Overcast
KIGQ,04/13/2018 16:15 UTC,29.66,59.0,47.3,65.12,8.05,20.0,,,854.0,,,553.0,703.0,,,10.0,,KIGQ 131615Z AUTO 02007KT 10SM BKN055 BKN070 OVC085 15/09 A2966 RMK AO2 T01500085,,,5500.0,,,47.21,,NNE,29.02,28.68,,Overcast
KIGQ,04/13/2018 16:35 UTC,29.66,57.74,46.4,65.86,8.05,360.0,,,,,,704.0,,,,10.0,,KIGQ 131635Z AUTO 36007KT 10SM OVC070 14/08 A2966 RMK AO2  T01430080,,,7000.0,,,46.31,,N,29.02,28.72,,Overcast
KIGQ,04/13/2018 16:55 UTC,29.66,57.2,46.4,67.15,5.75,30.0,,,,,,604.0,,,,10.0,,KIGQ 131655Z AUTO 03005KT 10SM OVC060 14/08 A2966 RMK AO2  T01400080,,,6000.0,,,46.31,,NNE,29.02,28.72,,Overcast
KIGQ,04/13/2018 17:15 UTC,29.66,57.2,46.58,67.61,6.91,20.0,,,,,,604.0,,,,10.0,,KIGQ 131715Z AUTO 02006KT 10SM OVC060 14/08 A2966 RMK AO2  T01400081,,,6000.0,,,46.49,,NNE,29.02,28.72,,Overcast
KIGQ,04/13/2018 17:35 UTC,29.68,57.74,46.58,66.31,9.22,360.0,,,,,,603.0,754.0,,,10.0,,KIGQ 131735Z AUTO 36008KT 10SM BKN060 OVC075 14/08 A2968 RMK AO2  T01430081,,,6000.0,,,46.49,,N,29.03,28.72,,Overcast
KIGQ,04/13/2018 17:55 UTC,29.7,49.64,42.98,77.75,10.36,360.0,,,754.0,,,483.0,603.0,,,10.0,,KIGQ 131755Z AUTO 36009KT 10SM BKN048 BKN060 OVC075 10/06 A2970 RMK AO2 T00980061 10166 20050,61.88,41.0,4800.0,,,42.9,,N,29.05,28.92,,Overcast
KIGQ,04/13/2018 18:15 UTC,29.71,46.4,41.72,83.64,11.5,20.0,18.41,,,,,504.0,,,,10.0,,KIGQ 131815Z AUTO 02010G16KT 10SM OVC050 08/05 A2971 RMK AO2 LTG  DSNT SW T00800054,,,5000.0,,,41.66,,NNE,29.06,28.99,,Overcast
KIGQ,04/13/2018 18:35 UTC,29.73,45.5,41.0,84.16,9.22,20.0,,,,,,504.0,,,,10.0,,KIGQ 131835Z AUTO 02008KT 10SM OVC050 08/05 A2973 RMK AO2 LTG DSNT  N T00750050,,,5000.0,,,40.94,,NNE,29.08,29.03,,Overcast
KIGQ,04/13/2018 18:55 UTC,29.75,44.6,40.46,85.28,6.91,10.0,,,,,,484.0,,,,10.0,,KIGQ 131855Z AUTO 01006KT 10SM OVC048 07/05 A2975 RMK AO2  T00700047,,,4800.0,,,40.4,,N,29.1,29.07,,Overcast
KIGQ,04/13/2018 19:15 UTC,29.75,43.7,40.1,87.04,14.97,360.0,20.71,,,,,484.0,,,,10.0,,KIGQ 131915Z AUTO 36013G18KT 10SM OVC048 07/05 A2975 RMK AO2  T00650045,,,4800.0,,,40.05,38.51,N,29.1,29.09,,Overcast
KIGQ,04/13/2018 19:35 UTC,29.77,43.16,39.74,87.62,11.5,360.0,,,,,,504.0,,,,10.0,,KIGQ 131935Z AUTO 36010KT 10SM OVC050 06/04 A2977 RMK AO2  T00620043,,,5000.0,,,39.69,38.87,N,29.12,29.12,,Overcast
KIGQ,04/13/2018 19:55 UTC,29.78,42.98,40.1,89.47,9.22,10.0,,5.0,,,,504.0,,,,10.0,,KIGQ 131955Z AUTO 01008KT 10SM VCTS OVC050 06/05 A2978 RMK AO2  T00610045,,,5000.0,,,40.06,39.48,N,29.13,29.13,,Thunder
KIGQ,04/13/2018 20:15 UTC,29.78,42.98,40.1,89.47,8.05,30.0,,,,,,504.0,,,,10.0,,KIGQ 132015Z AUTO 03007KT 10SM OVC050 06/05 A2978 RMK AO2  T00610045,,,5000.0,,,40.06,39.97,NNE,29.13,29.13,,Overcast
KIGQ,04/13/2018 20:35 UTC,29.77,42.26,39.56,90.07,6.91,30.0,,,,,,484.0,,,,10.0,,KIGQ 132035Z AUTO 03006KT 10SM OVC048 06/04 A2977 RMK AO2  T00570042,,,4800.0,,,39.52,,NNE,29.12,29.13,,Overcast
KIGQ,04/13/2018 20:55 UTC,29.76,42.62,40.1,90.72,4.61,30.0,,17.0,,,,404.0,,,,10.0,,KIGQ 132055Z AUTO 03004KT 10SM -DZ OVC040 06/05 A2976 RMK AO2  T00590045,,,4000.0,,,40.06,,NNE,29.11,29.11,,Light Drizzle
KIGQ,04/13/2018 21:15 UTC,29.72,42.8,41.18,93.95,4.61,40.0,,13.0,1104.0,,,262.0,903.0,,,10.0,,KIGQ 132115Z AUTO 04004KT 10SM -RA SCT026 BKN090 OVC110 06/05  A2972 RMK AO2 T00600051,,,9000.0,,,41.16,,NE,29.07,29.04,,Light Rain
KIGQ,04/13/2018 21:35 UTC,29.76,43.34,41.72,93.96,3.44,350.0,,13.0,1004.0,,,312.0,492.0,,,10.0,,KIGQ 132135Z AUTO 35003KT 10SM -RA SCT031 SCT049 OVC100 06/05  A2976 RMK AO2 T00630054,,,10000.0,,,41.7,,N,29.11,29.07,,Light Rain
KIGQ,04/13/2018 21:55 UTC,29.72,43.34,41.9,94.62,5.75,80.0,,13.0,1104.0,,,272.0,472.0,,,10.0,,KIGQ 132155Z AUTO 08005KT 10SM -RA SCT027 SCT047 OVC110 06/06  A2972 RMK AO2 T00630055,,,11000.0,,,41.88,,E,29.07,29.02,,Light Rain
KIGQ,04/13/2018 22:15 UTC,29.75,44.06,42.26,93.33,0.0,0.0,,,1102.0,,,142.0,502.0,,,7.0,,KIGQ 132215Z AUTO 00000KT 7SM SCT014 SCT050 SCT110 07/06 A2975 RMK AO2 T00670057,,,,,,42.23,,N,29.1,29.04,,Partly Cloudy
KIGQ,04/13/2018 22:35 UTC,29.75,45.5,42.98,90.83,0.0,0.0,,,952.0,,,142.0,502.0,,,7.0,,KIGQ 132235Z AUTO 00000KT 7SM SCT014 SCT050 SCT095 08/06 A2975 RMK AO2 T00750061,,,,,,42.95,,N,29.1,29.0,,Partly Cloudy
KIGQ,04/13/2018 22:55 UTC,29.74,46.04,43.34,90.23,4.61,110.0,,,,,,1.0,,,,7.0,,KIGQ 132255Z AUTO 11004KT 7SM CLR 08/06 A2974 RMK AO2  T00780063,,,,,,43.3,,ESE,29.09,28.98,,Clear
KIGQ,04/13/2018 23:15 UTC,29.75,47.66,44.06,87.26,6.91,360.0,,,,,,1.0,,,,7.0,,KIGQ 132315Z AUTO 36006KT 7SM CLR 09/07 A2975 RMK AO2  T00870067,,,,,,44.02,,N,29.1,28.96,,Clear
KIGQ,04/13/2018 23:35 UTC,29.75,45.86,43.16,90.22,10.36,30.0,17.27,,,,,132.0,243.0,,,7.0,,KIGQ 132335Z AUTO 03009G15KT 7SM SCT013 BKN024 08/06 A2975 RMK AO2  T00770062,,,2400.0,,,43.12,,NNE,29.1,29.0,,Mostly Cloudy
KIGQ,04/13/2018 23:55 UTC,29.76,43.34,41.72,93.96,8.05,30.0,,,,,,132.0,223.0,,,10.0,,KIGQ 132355Z AUTO 03007KT 10SM SCT013 BKN022 06/05 A2976 RMK AO2  T00630054 10097 20057,49.46,42.26,2200.0,,,41.7,40.4,NNE,29.11,29.07,,Mostly Cloudy
KIGQ,04/14/2018 00:15 UTC,29.76,42.98,41.72,95.27,3.44,30.0,,,,,,152.0,222.0,,,10.0,,KIGQ 140015Z AUTO 03003KT 10SM SCT015 SCT022 06/05 A2976 RMK AO2  T00610054,,,,,,41.7,,NNE,29.11,29.07,,Partly Cloudy
KIGQ,04/14/2018 00:35 UTC,29.78,42.62,41.18,94.6,9.22,10.0,,,,,,292.0,,,,10.0,,KIGQ 140035Z AUTO 01008KT 10SM SCT029 06/05 A2978 RMK AO2  T00590051,,,,,,41.16,39.05,N,29.13,29.1,,Partly Cloudy
KIGQ,04/14/2018 00:55 UTC,29.79,41.36,40.64,97.25,9.22,360.0,,,,,,293.0,,,,10.0,,KIGQ 140055Z AUTO 36008KT 10SM BKN029 05/05 A2979 RMK AO2 LTG DSNT  N AND NW T00520048,,,2900.0,,,40.63,37.56,N,29.14,29.14,,Mostly Cloudy
KIGQ,04/14/2018 01:15 UTC,29.81,41.9,41.0,96.58,11.5,10.0,16.11,,,,,62.0,293.0,,,10.0,,KIGQ 140115Z AUTO 01010G14KT 10SM SCT006 BKN029 06/05 A2981 RMK AO2 LTG DSNT NE T00550050,,,2900.0,,,40.99,37.35,N,29.16,29.15,,Mostly Cloudy
KIGQ,04/14/2018 01:35 UTC,29.82,41.18,40.64,97.93,8.05,360.0,17.27,,,,,64.0,,,,7.0,,KIGQ 140135Z AUTO 36007G15KT 7SM OVC006 05/05 A2982 RMK AO2  T00510048,,,600.0,,,40.63,37.86,N,29.17,29.17,,Overcast
KIGQ,04/14/2018 01:55 UTC,29.82,41.0,40.28,97.25,5.75,10.0,16.11,,,,,64.0,,,,7.0,,KIGQ 140155Z AUTO 01005G14KT 350V050 7SM OVC006 05/05 A2982 RMK AO2 T00500046,,,600.0,,,40.27,,N,29.17,29.18,,Overcast
KIGQ,04/14/2018 02:15 UTC,29.81,40.82,40.28,97.93,10.36,20.0,,,,,,64.0,,,,7.0,,KIGQ 140215Z AUTO 02009KT 7SM OVC006 05/05 A2981 RMK AO2 LTG DSNT  NW T00490046,,,600.0,,,40.27,36.46,NNE,29.16,29.17,,Overcast
KIGQ,04/14/2018 02:35 UTC,29.81,40.46,40.1,98.61,6.91,10.0,,,,,,64.0,,,,7.0,,KIGQ 140235Z AUTO 01006KT 7SM OVC006 05/05 A2981 RMK AO2  T00470045,,,600.0,,,40.09,,N,29.16,29.18,,Overcast
KIGQ,04/14/2018 02:55 UTC,29.79,41.0,40.46,97.93,5.75,20.0,,,,,,63.0,314.0,,,7.0,,KIGQ 140255Z AUTO 02005KT 7SM BKN006 OVC031 05/05 A2979 RMK AO2  T00500047,,,600.0,,,40.45,,NNE,29.14,29.14,,Overcast
KIGQ,04/14/2018 03:15 UTC,29.8,41.18,41.0,99.31,5.75,360.0,,,,,,62.0,314.0,,,7.0,,KIGQ 140315Z AUTO 36005KT 7SM SCT006 OVC031 05/05 A2980 RMK AO2  LTG DSNT NW T00510050,,,3100.0,,,41.0,,N,29.15,29.14,,Overcast
KIGQ,04/14/2018 03:35 UTC,29.79,41.0,40.46,97.93,6.91,10.0,,,,,,62.0,314.0,,,7.0,,KIGQ 140335Z AUTO 01006KT 7SM SCT006 OVC031 05/05 A2979 RMK AO2  T00500047,,,3100.0,,,40.45,,N,29.14,29.14,,Overcast
KIGQ,04/14/2018 03:55 UTC,29.77,41.0,40.46,97.93,8.05,20.0,,,,,,62.0,354.0,,,7.0,,KIGQ 140355Z AUTO 02007KT 7SM SCT006 OVC035 05/05 A2977 RMK AO2  LTG DSNT S T00500047,,,3500.0,,,40.45,37.65,NNE,29.12,29.12,,Overcast
KIGQ,04/14/2018 04:15 UTC,29.76,40.82,40.28,97.93,8.05,10.0,,,,,,63.0,333.0,,,7.0,,KIGQ 140415Z AUTO 01007KT 7SM BKN006 BKN033 05/05 A2976 RMK AO2  LTG DSNT SW T00490046,,,600.0,,,40.27,37.44,N,29.11,29.12,,Mostly Cloudy
KIGQ,04/14/2018 04:35 UTC,29.76,41.0,40.46,97.93,9.22,10.0,16.11,,,,,64.0,,,,7.0,,KIGQ 140435Z AUTO 01008G14KT 7SM OVC006 05/05 A2976 RMK AO2 LTG  DSNT S AND SW T00500047,,,600.0,,,40.45,37.13,N,29.11,29.11,,Overcast
KIGQ,04/14/2018 04:55 UTC,29.77,41.0,40.28,97.25,3.44,360.0,,,,,,63.0,334.0,,,10.0,,KIGQ 140455Z AUTO 36003KT 10SM BKN006 OVC033 05/05 A2977 RMK AO2  LTG DSNT SE T00500046,,,600.0,,,40.27,,N,29.12,29.13,,Overcast
KIGQ,04/14/2018 05:15 UTC,29.77,40.46,39.92,97.92,11.5,10.0,18.41,,,,,64.0,,,,10.0,,KIGQ 140515Z AUTO 01010G16KT 10SM OVC006 05/04 A2977 RMK AO2  T00470044,,,600.0,,,39.91,35.61,N,29.12,29.14,,Overcast
KIGQ,04/14/2018 05:35 UTC,29.76,39.74,39.56,99.3,11.5,10.0,21.85,14.0,,0.05,,64.0,,,,2.0,,KIGQ 140535Z AUTO 01010G19KT 2SM +RA OVC006 04/04 A2976 RMK AO2  VIS 1/2V5 LTG DSNT E P0005 T00430042,,,600.0,,,39.56,34.74,N,29.11,29.14,,Heavy Rain
KIGQ,04/14/2018 05:55 UTC,29.76,39.56,39.56,100.0,9.22,360.0,,13.0,,0.06,,64.0,,0.06,,7.0,,KIGQ 140555Z AUTO 36008KT 7SM -RA OVC006 04/04 A2976 RMK AO2 LTG  DSNT E P0006 60006 T00420042 10063 20042 401660042,43.34,39.56,600.0,61.88,39.56,39.56,35.42,N,29.11,29.15,,Light Rain
KIGQ,04/14/2018 06:15 UTC,29.76,39.56,39.56,100.0,10.36,20.0,,1.0,,0.01,,64.0,,,,5.0,,KIGQ 140615Z AUTO 02009KT 5SM RA OVC006 04/04 A2976 RMK AO2 P0001  T00420042,,,600.0,,,39.56,34.95,NNE,29.11,29.15,,Rain
KIGQ,04/14/2018 06:35 UTC,29.76,39.56,39.56,100.0,10.36,10.0,16.11,1.0,,0.02,,64.0,,,,5.0,,KIGQ 140635Z AUTO 01009G14KT 5SM RA OVC006 04/04 A2976 RMK AO2 LTG  DSNT E P0002 T00420042,,,600.0,,,39.56,34.95,N,29.11,29.15,,Rain
KIGQ,04/14/2018 06:55 UTC,29.74,39.74,39.74,100.0,10.36,10.0,,13.0,,0.09,,64.0,,,,1.75,,KIGQ 140655Z AUTO 01009KT 1 3/4SM -RA OVC006 04/04 A2974 RMK AO2  P0009 T00430043,,,600.0,,,39.74,35.17,N,29.09,29.12,,Light Rain
KIGQ,04/14/2018 07:15 UTC,29.74,39.56,39.56,100.0,5.75,360.0,,41.0,,0.09,,44.0,,,,1.75,,KIGQ 140715Z AUTO 36005KT 1 3/4SM UP OVC004 04/04 A2974 RMK AO2  P0009 T00420042,,,400.0,,,39.56,,N,29.09,29.13,,Unknown Precip
KIGQ,04/14/2018 07:35 UTC,29.73,39.38,39.38,100.0,6.91,360.0,,14.0,,0.14,,44.0,,,,4.0,,KIGQ 140735Z AUTO 36006KT 4SM +RA OVC004 04/04 A2973 RMK AO2 P0014  T00410041,,,400.0,,,39.38,,N,29.08,29.12,,Heavy Rain
KIGQ,04/14/2018 07:55 UTC,29.73,39.2,39.2,100.0,10.36,350.0,,14.0,,0.19,,44.0,,,,2.5,,KIGQ 140755Z AUTO 35009KT 2 1/2SM +RA OVC004 04/04 A2973 RMK AO2  P0019 T00400040,,,400.0,,,39.2,34.52,N,29.08,29.13,,Heavy Rain
KIGQ,04/14/2018 08:15 UTC,29.72,39.2,39.2,100.0,9.22,350.0,,1.0,,0.03,,44.0,,,,5.0,,KIGQ 140815Z AUTO 35008KT 5SM RA OVC004 04/04 A2972 RMK AO2 P0003  T00400040,,,400.0,,,39.2,34.99,N,29.07,29.12,,Rain
KIGQ,04/14/2018 08:35 UTC,29.72,39.2,39.2,100.0,9.22,360.0,,1.0,,0.04,,44.0,,,,7.0,,KIGQ 140835Z AUTO 36008KT 7SM RA OVC004 04/04 A2972 RMK AO2 P0004  T00400040,,,400.0,,,39.2,34.99,N,29.07,29.12,,Rain
KIGQ,04/14/2018 08:55 UTC,29.71,39.2,39.2,100.0,10.36,360.0,17.27,1.0,,0.05,0.33,44.0,,,,7.0,,KIGQ 140855Z AUTO 36009G15KT 7SM RA OVC004 04/04 A2971 RMK AO2  P0005 60033 T00400040,,,400.0,,,39.2,34.52,N,29.06,29.11,,Rain
KIGQ,04/14/2018 09:15 UTC,29.72,39.2,39.2,100.0,12.66,360.0,18.41,1.0,,0.01,,44.0,,,,7.0,,KIGQ 140915Z AUTO 36011G16KT 7SM RA OVC004 04/04 A2972 RMK AO2  P0001 T00400040,,,400.0,,,39.2,33.69,N,29.07,29.12,,Rain
KIGQ,04/14/2018 09:35 UTC,29.71,38.84,38.84,100.0,12.66,10.0,23.02,1.0,,0.01,,44.0,,,,7.0,,KIGQ 140935Z AUTO 01011G20KT 7SM RA OVC004 04/04 A2971 RMK AO2  P0001 T00380038,,,400.0,,,38.84,33.25,N,29.06,29.12,,Rain
KIGQ,04/14/2018 09:55 UTC,29.7,38.66,38.66,100.0,13.8,360.0,19.57,1.0,,0.03,,44.0,,,,7.0,,KIGQ 140955Z AUTO 36012G17KT 7SM RA OVC004 04/04 A2970 RMK AO2  P0003 T00370037,,,400.0,,,38.66,32.66,N,29.05,29.11,,Rain
KIGQ,04/14/2018 10:15 UTC,29.71,38.66,38.66,100.0,10.36,10.0,19.57,1.0,,0.03,,44.0,,,,4.0,,KIGQ 141015Z AUTO 01009G17KT 4SM RA OVC004 04/04 A2971 RMK AO2  P0003 T00370037,,,400.0,,,38.66,33.87,N,29.06,29.12,,Rain
KIGQ,04/14/2018 10:35 UTC,29.71,38.84,38.84,100.0,9.22,360.0,18.41,13.0,,0.05,,44.0,,,,7.0,,KIGQ 141035Z AUTO 36008G16KT 7SM -RA OVC004 04/04 A2971 RMK AO2  P0005 T00380038,,,400.0,,,38.84,34.57,N,29.06,29.12,,Light Rain
KIGQ,04/14/2018 10:55 UTC,29.71,39.02,39.02,100.0,10.36,360.0,16.11,13.0,,0.05,,44.0,,,,10.0,,KIGQ 141055Z AUTO 36009G14KT 10SM -RA OVC004 04/04 A2971 RMK AO2  P0005 T00390039,,,400.0,,,39.02,34.31,N,29.06,29.11,,Light Rain
KIGQ,04/14/2018 11:15 UTC,29.69,39.2,39.2,100.0,10.36,10.0,17.27,13.0,,0.01,,44.0,,,,10.0,,KIGQ 141115Z AUTO 01009G15KT 10SM -RA OVC004 04/04 A2969 RMK AO2  P0001 T00400040,,,400.0,,,39.2,34.52,N,29.04,29.09,,Light Rain
KIGQ,04/14/2018 11:35 UTC,29.67,39.38,39.38,100.0,11.5,10.0,18.41,1.0,,0.01,,44.0,,,,7.0,,KIGQ 141135Z AUTO 01010G16KT 7SM RA OVC004 04/04 A2967 RMK AO2  P0001 T00410041,,,400.0,,,39.38,34.31,N,29.02,29.06,,Rain
KIGQ,04/14/2018 11:55 UTC,29.69,40.28,40.28,100.0,9.22,360.0,,17.0,,0.01,,44.0,,0.42,0.48,4.0,,KIGQ 141155Z AUTO 36008KT 4SM -DZ OVC004 05/05 A2969 RMK AO2 P0001  60042 70048 T00460046 10046 20037,40.28,38.66,400.0,,,40.28,36.28,N,29.04,29.05,,Light Drizzle
KIGQ,04/14/2018 12:15 UTC,29.71,40.28,40.28,100.0,12.66,360.0,18.41,31.0,,,,44.0,,,,5.0,,KIGQ 141215Z AUTO 36011G16KT 5SM BR OVC004 05/05 A2971 RMK AO2  T00460046,,,400.0,,,40.28,35.0,N,29.06,29.07,,Mist
KIGQ,04/14/2018 12:35 UTC,29.74,40.1,40.1,100.0,14.97,20.0,18.41,41.0,,,,44.0,,,,4.0,,KIGQ 141235Z AUTO 02013G16KT 4SM UP OVC004 05/05 A2974 RMK AO2  T00450045,,,400.0,,,40.1,34.08,NNE,29.09,29.11,,Unknown Precip
KIGQ,04/14/2018 12:55 UTC,29.74,40.1,40.1,100.0,11.5,30.0,18.41,1.0,,,,44.0,,,,3.0,,KIGQ 141255Z AUTO 03010G16KT 3SM RA OVC004 05/05 A2974 RMK AO2  T00450045,,,400.0,,,40.1,35.18,NNE,29.09,29.11,,Rain
KIGQ,04/14/2018 13:15 UTC,29.72,40.1,40.1,100.0,20.71,40.0,25.32,17.0,,,,44.0,,,,2.5,,KIGQ 141315Z AUTO 04018G22KT 2 1/2SM -DZ OVC004 05/05 A2972 RMK AO2 T00450045,,,400.0,,,40.1,32.66,NE,29.07,29.09,,Light Drizzle
KIGQ,04/14/2018 13:35 UTC,29.71,39.56,39.56,100.0,14.97,50.0,24.16,13.0,,,,44.0,,,,3.0,,KIGQ 141335Z AUTO 05013G21KT 3SM -RA OVC004 04/04 A2971 RMK AO2  T00420042,,,400.0,,,39.56,33.41,NE,29.06,29.1,,Light Rain
KIGQ,04/14/2018 13:55 UTC,29.79,39.38,39.38,100.0,11.5,20.0,17.27,2.0,,,,44.0,,,,3.0,,KIGQ 141355Z AUTO 02010G15KT 3SM DZ OVC004 04/04 A2979 RMK AO2  T00410041,,,400.0,,,39.38,34.31,NNE,29.14,29.18,,Drizzle
KIGQ,04/14/2018 14:15 UTC,29.78,39.74,39.74,100.0,9.22,20.0,,14.0,,,,44.0,,,,3.0,,KIGQ 141415Z AUTO 02008KT 3SM +RA OVC004 04/04 A2978 RMK AO2  T00430043,,,400.0,,,39.74,35.63,NNE,29.13,29.16,,Heavy Rain
KIGQ,04/14/2018 14:35 UTC,29.74,40.1,40.1,100.0,16.11,30.0,20.71,2.0,,,,44.0,,,,3.0,,KIGQ 141435Z AUTO 03014G18KT 3SM DZ OVC004 05/05 A2974 RMK AO2  T00450045,,,400.0,,,40.1,33.76,NNE,29.09,29.11,,Drizzle
KIGQ,04/14/2018 14:55 UTC,29.71,40.28,40.28,100.0,19.57,40.0,26.46,2.0,,,,44.0,,,,3.0,,KIGQ 141455Z AUTO 04017G23KT 3SM DZ OVC004 05/05 A2971 RMK AO2  T00460046,,,400.0,,,40.28,33.14,NE,29.06,29.07,,Drizzle
KIGQ,04/14/2018 15:15 UTC,29.76,40.28,40.28,100.0,11.5,10.0,18.41,13.0,,,,44.0,,,,3.0,,KIGQ 141515Z AUTO 01010G16KT 3SM -RA OVC004 05/05 A2976 RMK AO2  T00460046,,,400.0,,,40.28,35.39,N,29.11,29.12,,Light Rain
KIGQ,04/14/2018 15:35 UTC,29.78,41.0,41.0,100.0,11.5,30.0,17.27,2.0,,,,44.0,,,,2.5,,KIGQ 141535Z AUTO 03010G15KT 2 1/2SM DZ OVC004 05/05 A2978 RMK AO2  T00500050,,,400.0,,,41.0,36.26,NNE,29.13,29.12,,Drizzle
KIGQ,04/14/2018 15:55 UTC,29.76,40.64,40.64,100.0,16.11,30.0,20.71,2.0,,,,44.0,,,,3.0,,KIGQ 141555Z AUTO 03014G18KT 3SM DZ OVC004 05/05 A2976 RMK AO2  T00480048,,,400.0,,,40.64,34.43,NNE,29.11,29.11,,Drizzle
KIGQ,04/14/2018 16:15 UTC,29.75,40.64,40.64,100.0,19.57,30.0,24.16,13.0,,,,44.0,,,,2.0,,KIGQ 141615Z AUTO 03017G21KT 2SM -RA OVC004 05/05 A2975 RMK AO2  T00480048,,,400.0,,,40.64,33.59,NNE,29.1,29.1,,Light Rain
KIGQ,04/14/2018 16:35 UTC,29.75,41.0,41.0,100.0,12.66,30.0,,17.0,,,,44.0,,,,3.0,,KIGQ 141635Z AUTO 03011KT 3SM -DZ OVC004 05/05 A2975 RMK AO2  T00500050,,,400.0,,,41.0,35.88,NNE,29.1,29.09,,Light Drizzle
KIGQ,04/14/2018 16:55 UTC,29.77,41.0,41.0,100.0,12.66,20.0,19.57,31.0,,,,44.0,,,,3.0,,KIGQ 141655Z AUTO 02011G17KT 3SM BR OVC004 05/05 A2977 RMK AO2  T00500050,,,400.0,,,41.0,35.88,NNE,29.12,29.11,,Mist
KIGQ,04/14/2018 17:15 UTC,29.77,41.0,41.0,100.0,13.8,40.0,,31.0,,,,44.0,,,,2.5,,KIGQ 141715Z AUTO 04012KT 2 1/2SM BR OVC004 05/05 A2977 RMK AO2  T00500050,,,400.0,,,41.0,35.52,NE,29.12,29.11,,Mist
KIGQ,04/14/2018 17:35 UTC,29.77,41.36,41.36,100.0,13.8,40.0,21.85,31.0,,,,44.0,,,,3.0,,KIGQ 141735Z AUTO 04012G19KT 3SM BR OVC004 05/05 A2977 RMK AO2  T00520052,,,400.0,,,41.36,35.96,NE,29.12,29.1,,Mist
KIGQ,04/14/2018 17:55 UTC,29.79,41.54,41.54,100.0,13.8,40.0,19.57,31.0,,,,44.0,,,,3.0,,KIGQ 141755Z AUTO 04012G17KT 3SM BR OVC004 05/05 A2979 RMK AO2  T00530053 10053 20040,41.54,39.2,400.0,,,41.54,36.18,NE,29.14,29.12,,Mist
KIGQ,04/14/2018 18:15 UTC,29.8,41.36,41.36,100.0,18.41,40.0,23.02,31.0,,,,44.0,,,,4.0,,KIGQ 141815Z AUTO 04016G20KT 4SM BR OVC004 05/05 A2980 RMK AO2  T00520052,,,400.0,,,41.36,34.76,NE,29.15,29.13,,Mist
KIGQ,04/14/2018 18:35 UTC,29.81,41.18,41.18,100.0,18.41,40.0,23.02,31.0,,,,44.0,,,,3.0,,KIGQ 141835Z AUTO 04016G20KT 3SM BR OVC004 05/05 A2981 RMK AO2  T00510051,,,400.0,,,41.18,34.54,NE,29.16,29.15,,Mist
KIGQ,04/14/2018 18:55 UTC,29.81,41.0,41.0,100.0,16.11,30.0,25.32,31.0,,,,44.0,,,,4.0,,KIGQ 141855Z AUTO 03014G22KT 4SM BR OVC004 05/05 A2981 RMK AO2  T00500050,,,400.0,,,41.0,34.88,NNE,29.16,29.15,,Mist
KIGQ,04/14/2018 19:15 UTC,29.8,40.82,40.82,100.0,14.97,30.0,20.71,41.0,,,,44.0,,,,3.0,,KIGQ 141915Z AUTO 03013G18KT 3SM UP OVC004 05/05 A2980 RMK AO2  T00490049,,,400.0,,,40.82,34.97,NNE,29.15,29.15,,Unknown Precip
KIGQ,04/14/2018 19:35 UTC,29.82,41.0,41.0,100.0,11.5,30.0,23.02,41.0,,,,44.0,,,,3.0,,KIGQ 141935Z AUTO 03010G20KT 3SM UP OVC004 05/05 A2982 RMK AO2  T00500050,,,400.0,,,41.0,36.26,NNE,29.17,29.16,,Unknown Precip
KIGQ,04/14/2018 19:55 UTC,29.81,40.64,40.64,100.0,14.97,40.0,,31.0,,,,44.0,,,,4.0,,KIGQ 141955Z AUTO 04013KT 4SM BR OVC004 05/05 A2981 RMK AO2  T00480048,,,400.0,,,40.64,34.74,NE,29.16,29.16,,Mist
KIGQ,04/14/2018 20:15 UTC,29.82,40.46,40.46,100.0,16.11,30.0,23.02,31.0,,,,44.0,,,,2.5,,KIGQ 142015Z AUTO 03014G20KT 2 1/2SM BR OVC004 05/05 A2982 RMK AO2  T00470047,,,400.0,,,40.46,34.21,NNE,29.17,29.18,,Mist
KIGQ,04/14/2018 20:35 UTC,29.82,40.1,40.1,100.0,16.11,30.0,21.85,31.0,,,,44.0,,,,4.0,,KIGQ 142035Z AUTO 03014G19KT 4SM BR OVC004 05/05 A2982 RMK AO2  T00450045,,,400.0,,,40.1,33.76,NNE,29.17,29.19,,Mist
KIGQ,04/14/2018 20:55 UTC,29.82,40.1,40.1,100.0,17.27,30.0,24.16,31.0,,,,44.0,,,,5.0,,KIGQ 142055Z AUTO 03015G21KT 5SM BR OVC004 05/05 A2982 RMK AO2  T00450045,,,400.0,,,40.1,33.46,NNE,29.17,29.19,,Mist
KIGQ,04/14/2018 21:15 UTC,29.82,39.38,39.38,100.0,12.66,40.0,20.71,,,,,44.0,,,,7.0,,KIGQ 142115Z AUTO 04011G18KT 7SM OVC004 04/04 A2982 RMK AO2  T00410041,,,400.0,,,39.38,33.91,NE,29.17,29.21,,Overcast
KIGQ,04/14/2018 21:35 UTC,29.81,39.38,39.38,100.0,14.97,40.0,23.02,,,,,64.0,,,,10.0,,KIGQ 142135Z AUTO 04013G20KT 10SM OVC006 04/04 A2981 RMK AO2  T00410041,,,600.0,,,39.38,33.19,NE,29.16,29.2,,Overcast
KIGQ,04/14/2018 21:55 UTC,29.8,39.56,39.56,100.0,14.97,40.0,20.71,,,,,64.0,,,,10.0,,KIGQ 142155Z AUTO 04013G18KT 10SM OVC006 04/04 A2980 RMK AO2  T00420042,,,600.0,,,39.56,33.41,NE,29.15,29.19,,Overcast
KIGQ,04/14/2018 22:15 UTC,29.79,39.74,39.74,100.0,14.97,40.0,21.85,,,,,64.0,,,,10.0,,KIGQ 142215Z AUTO 04013G19KT 10SM OVC006 04/04 A2979 RMK AO2  T00430043,,,600.0,,,39.74,33.63,NE,29.14,29.17,,Overcast
KIGQ,04/14/2018 22:35 UTC,29.8,40.1,40.1,100.0,11.5,40.0,18.41,,,,,64.0,,,,10.0,,KIGQ 142235Z AUTO 04010G16KT 10SM OVC006 05/05 A2980 RMK AO2  T00450045,,,600.0,,,40.1,35.18,NE,29.15,29.17,,Overcast
KIGQ,04/14/2018 22:55 UTC,29.82,40.28,40.28,100.0,11.5,40.0,18.41,,,,,64.0,,,,10.0,,KIGQ 142255Z AUTO 04010G16KT 10SM OVC006 05/05 A2982 RMK AO2  T00460046,,,600.0,,,40.28,35.39,NE,29.17,29.19,,Overcast
KIGQ,04/14/2018 23:15 UTC,29.82,41.0,41.0,100.0,10.36,60.0,,13.0,,,,84.0,,,,10.0,,KIGQ 142315Z AUTO 06009KT 10SM -RA OVC008 05/05 A2982 RMK AO2  T00500050,,,800.0,,,41.0,36.68,ENE,29.17,29.16,,Light Rain
KIGQ,04/14/2018 23:35 UTC,29.81,40.82,40.82,100.0,9.22,60.0,,13.0,,,,84.0,,,,10.0,,KIGQ 142335Z AUTO 06008KT 10SM -RA OVC008 05/05 A2981 RMK AO2  T00490049,,,800.0,,,40.82,36.92,ENE,29.16,29.16,,Light Rain
KIGQ,04/14/2018 23:55 UTC,29.81,41.54,41.54,100.0,11.5,80.0,18.41,,,,,84.0,,,,10.0,,KIGQ 142355Z AUTO 08010G16KT 10SM OVC008 05/05 A2981 RMK AO2  T00530053 10053 20040,41.54,39.2,800.0,,,41.54,36.91,E,29.16,29.14,,Overcast
KIGQ,04/15/2018 00:15 UTC,29.82,41.54,41.36,99.31,10.36,80.0,17.27,,,,,84.0,,,,10.0,,KIGQ 150015Z AUTO 08009G15KT 10SM OVC008 05/05 A2982 RMK AO2  T00530052,,,800.0,,,41.36,37.32,E,29.17,29.15,,Overcast
KIGQ,04/15/2018 00:35 UTC,29.82,41.18,41.0,99.31,13.8,80.0,,,,,,104.0,,,,10.0,,KIGQ 150035Z AUTO 08012KT 10SM OVC010 05/05 A2982 RMK AO2  T00510050,,,1000.0,,,41.0,35.74,E,29.17,29.16,,Overcast
KIGQ,04/15/2018 00:55 UTC,29.82,41.0,40.28,97.25,10.36,60.0,17.27,,,,,104.0,,,,10.0,,KIGQ 150055Z AUTO 06009G15KT 10SM OVC010 05/05 A2982 RMK AO2  T00500046,,,1000.0,,,40.27,36.68,ENE,29.17,29.18,,Overcast
KIGQ,04/15/2018 01:15 UTC,29.84,40.46,40.28,99.3,6.91,60.0,,13.0,,0.02,,104.0,,,,7.0,,KIGQ 150115Z AUTO 06006KT 7SM -RA OVC010 05/05 A2984 RMK AO2 P0002  T00470046,,,1000.0,,,40.28,,ENE,29.19,29.2,,Light Rain
KIGQ,04/15/2018 01:35 UTC,29.84,40.28,40.28,100.0,12.66,90.0,19.57,13.0,,0.02,,104.0,,,,10.0,,KIGQ 150135Z AUTO 09011G17KT 10SM -RA OVC010 05/05 A2984 RMK AO2  P0002 T00460046,,,1000.0,,,40.28,35.0,E,29.19,29.21,,Light Rain
KIGQ,04/15/2018 01:55 UTC,29.82,40.1,40.1,100.0,10.36,70.0,18.41,13.0,,0.02,,84.0,,,,5.0,,KIGQ 150155Z AUTO 07009G16KT 5SM -RA OVC008 05/05 A2982 RMK AO2  P0002 T00450045,,,800.0,,,40.1,35.6,ENE,29.17,29.19,,Light Rain
KIGQ,04/15/2018 02:15 UTC,29.81,39.74,39.74,100.0,11.5,80.0,,17.0,,,,84.0,,,,7.0,,KIGQ 150215Z AUTO 08010KT 7SM -DZ OVC008 04/04 A2981 RMK AO2  T00430043,,,800.0,,,39.74,34.74,E,29.16,29.19,,Light Drizzle
KIGQ,04/15/2018 02:35 UTC,29.81,39.74,39.56,99.3,13.8,80.0,21.85,13.0,,,,84.0,,,,10.0,,KIGQ 150235Z AUTO 08012G19KT 10SM -RA OVC008 04/04 A2981 RMK AO2  T00430042,,,800.0,,,39.56,33.98,E,29.16,29.2,,Light Rain
KIGQ,04/15/2018 02:55 UTC,29.82,39.56,39.56,100.0,8.05,90.0,,1.0,,0.02,0.04,84.0,,,,5.0,,KIGQ 150255Z AUTO 09007KT 5SM RA OVC008 04/04 A2982 RMK AO2 P0002  60004 T00420042,,,800.0,,,39.56,35.96,E,29.17,29.21,,Rain
KIGQ,04/15/2018 03:15 UTC,29.8,39.38,39.38,100.0,13.8,90.0,,13.0,,,,84.0,,,,10.0,,KIGQ 150315Z AUTO 09012KT 10SM -RA OVC008 04/04 A2980 RMK AO2  T00410041,,,800.0,,,39.38,33.54,E,29.15,29.19,,Light Rain
KIGQ,04/15/2018 03:35 UTC,29.8,39.38,39.2,99.3,14.97,90.0,26.46,13.0,,,,84.0,,,,5.0,,KIGQ 150335Z AUTO 09013G23KT 5SM -RA OVC008 04/04 A2980 RMK AO2  T00410040,,,800.0,,,39.2,33.19,E,29.15,29.2,,Light Rain
KIGQ,04/15/2018 03:55 UTC,29.81,39.2,38.84,98.6,17.27,90.0,24.16,,,,,84.0,,,,10.0,,KIGQ 150355Z AUTO 09015G21KT 10SM OVC008 04/04 A2981 RMK AO2  T00400038,,,800.0,,,38.83,32.34,E,29.16,29.22,,Overcast
KIGQ,04/15/2018 04:15 UTC,29.79,39.2,38.48,97.22,17.27,80.0,23.02,,,,,104.0,,,,10.0,,KIGQ 150415Z AUTO 08015G20KT 10SM OVC010 04/04 A2979 RMK AO2  T00400036,,,1000.0,,,38.47,32.34,E,29.14,29.2,,Overcast
KIGQ,04/15/2018 04:35 UTC,29.78,38.66,38.48,99.3,13.8,80.0,,,,,,84.0,,,,10.0,,KIGQ 150435Z AUTO 08012KT 10SM OVC008 04/04 A2978 RMK AO2  T00370036,,,800.0,,,38.48,32.66,E,29.13,29.2,,Overcast
KIGQ,04/15/2018 04:55 UTC,29.76,38.48,38.3,99.3,12.66,80.0,19.57,,,,,84.0,,,,10.0,,KIGQ 150455Z AUTO 08011G17KT 10SM OVC008 04/04 A2976 RMK AO2  T00360035,,,800.0,,,38.3,32.81,E,29.11,29.18,,Overcast
KIGQ,04/15/2018 05:15 UTC,29.8,38.48,37.94,97.9,9.22,80.0,,14.0,,0.02,,84.0,,,,5.0,,KIGQ 150515Z AUTO 08008KT 5SM +RA OVC008 04/03 A2980 RMK AO2 P0002  T00360033,,,800.0,,,37.93,34.14,E,29.15,29.23,,Heavy Rain
KIGQ,04/15/2018 05:35 UTC,29.8,38.3,38.3,100.0,5.75,50.0,,1.0,,0.06,,84.0,,,,4.0,,KIGQ 150535Z AUTO 05005KT 4SM RA OVC008 04/04 A2980 RMK AO2 P0006  T00350035,,,800.0,,,38.3,,NE,29.15,29.22,,Rain
KIGQ,04/15/2018 05:55 UTC,29.8,37.76,37.76,100.0,6.91,70.0,,14.0,,0.09,,83.0,124.0,0.13,,3.0,,KIGQ 150555Z AUTO 07006KT 3SM +RA BKN008 OVC012 03/03 A2980 RMK AO2 P0009 60013 T00320032 10053 20032 400530032,41.54,37.76,800.0,41.54,37.76,37.76,,ENE,29.15,29.24,,Heavy Rain
KIGQ,04/15/2018 06:15 UTC,29.8,37.58,37.58,100.0,4.61,80.0,,13.0,,0.01,,103.0,144.0,,,4.0,,KIGQ 150615Z AUTO 08004KT 4SM -RA BKN010 OVC014 03/03 A2980 RMK AO2 P0001 T00310031,,,1000.0,,,37.58,,E,29.15,29.24,,Light Rain
KIGQ,04/15/2018 06:35 UTC,29.79,37.4,37.4,100.0,8.05,70.0,,13.0,,0.02,,72.0,154.0,,,4.0,,KIGQ 150635Z AUTO 07007KT 4SM -RA SCT007 OVC015 03/03 A2979 RMK AO2 P0002 T00300030,,,1500.0,,,37.4,33.42,ENE,29.14,29.24,,Light Rain
KIGQ,04/15/2018 06:55 UTC,29.8,37.4,37.4,100.0,4.61,60.0,,2.0,174.0,0.02,,72.0,113.0,,,10.0,,KIGQ 150655Z AUTO 06004KT 10SM DZ SCT007 BKN011 OVC017 03/03 A2980 RMK AO2 P0002 T00300030,,,1100.0,,,37.4,,ENE,29.15,29.25,,Drizzle
KIGQ,04/15/2018 07:15 UTC,29.78,37.4,37.4,100.0,8.05,70.0,,1.0,,,,73.0,134.0,,,5.0,,KIGQ 150715Z AUTO 07007KT 5SM RA BKN007 OVC013 03/03 A2978 RMK AO2  T00300030,,,700.0,,,37.4,33.42,ENE,29.13,29.23,,Rain
KIGQ,04/15/2018 07:35 UTC,29.78,37.4,37.4,100.0,9.22,60.0,,13.0,,0.01,,73.0,134.0,,,5.0,,KIGQ 150735Z AUTO 06008KT 5SM -RA BKN007 OVC013 03/03 A2978 RMK AO2 P0001 T00300030,,,700.0,,,37.4,32.86,ENE,29.13,29.23,,Light Rain
KIGQ,04/15/2018 07:55 UTC,29.76,37.04,37.04,100.0,8.05,70.0,,1.0,204.0,0.01,,72.0,132.0,,,5.0,,KIGQ 150755Z AUTO 07007KT 5SM RA SCT007 SCT013 OVC020 03/03 A2976 RMK AO2 P0001 T00280028,,,2000.0,,,37.04,33.0,ENE,29.11,29.22,,Rain
KIGQ,04/15/2018 08:15 UTC,29.75,36.86,36.86,100.0,8.05,60.0,,2.0,224.0,,,72.0,122.0,,,7.0,,KIGQ 150815Z AUTO 06007KT 7SM DZ SCT007 SCT012 OVC022 03/03 A2975 RMK AO2 T00270027,,,2200.0,,,36.86,32.78,ENE,29.1,29.21,,Drizzle
KIGQ,04/15/2018 08:35 UTC,29.75,36.86,36.86,100.0,10.36,60.0,16.11,13.0,,0.01,,74.0,,,,7.0,,KIGQ 150835Z AUTO 06009G14KT 7SM -RA OVC007 03/03 A2975 RMK AO2  P0001 T00270027,,,700.0,,,36.86,31.72,ENE,29.1,29.21,,Light Rain
KIGQ,04/15/2018 08:55 UTC,29.75,36.5,36.5,100.0,10.36,60.0,,13.0,224.0,0.01,0.04,73.0,163.0,,,7.0,,KIGQ 150855Z AUTO 06009KT 7SM -RA BKN007 BKN016 OVC022 03/03 A2975 RMK AO2 P0001 60004 T00250025,,,700.0,,,36.5,31.29,ENE,29.1,29.22,,Light Rain
KIGQ,04/15/2018 09:15 UTC,29.76,36.86,36.86,100.0,9.22,70.0,16.11,1.0,224.0,0.01,,92.0,162.0,,,5.0,,KIGQ 150915Z AUTO 07008G14KT 5SM RA SCT009 SCT016 OVC022 03/03  A2976 RMK AO2 P0001 T00270027,,,2200.0,,,36.86,32.22,ENE,29.11,29.22,,Rain
KIGQ,04/15/2018 09:35 UTC,29.76,36.68,36.68,100.0,8.05,50.0,,13.0,224.0,0.03,,73.0,113.0,,,7.0,,KIGQ 150935Z AUTO 05007KT 7SM -RA BKN007 BKN011 OVC022 03/03 A2976 RMK AO2 P0003 T00260026,,,700.0,,,36.68,32.57,NE,29.11,29.23,,Light Rain
KIGQ,04/15/2018 09:55 UTC,29.74,36.5,36.5,100.0,9.22,60.0,,13.0,,0.04,,73.0,134.0,,,7.0,,KIGQ 150955Z AUTO 06008KT 7SM -RA BKN007 OVC013 03/03 A2974 RMK AO2 P0004 T00250025,,,700.0,,,36.5,31.79,ENE,29.09,29.21,,Light Rain
KIGQ,04/15/2018 10:15 UTC,29.74,36.5,36.5,100.0,11.5,60.0,,13.0,,,,74.0,,,,10.0,,KIGQ 151015Z AUTO 06010KT 10SM -RA OVC007 03/03 A2974 RMK AO2  T00250025,,,700.0,,,36.5,30.83,ENE,29.09,29.21,,Light Rain
KIGQ,04/15/2018 10:35 UTC,29.73,36.14,36.14,100.0,9.22,60.0,,17.0,,,,74.0,,,,10.0,,KIGQ 151035Z AUTO 06008KT 10SM -DZ OVC007 02/02 A2973 RMK AO2  T00230023,,,700.0,,,36.14,31.36,ENE,29.08,29.21,,Light Drizzle
KIGQ,04/15/2018 10:55 UTC,29.71,35.96,35.96,100.0,11.5,50.0,16.11,1.0,,,,73.0,124.0,,,10.0,,KIGQ 151055Z AUTO 05010G14KT 10SM RA BKN007 OVC012 02/02 A2971 RMK AO2 T00220022,,,700.0,,,35.96,30.18,NE,29.06,29.2,,Rain
KIGQ,04/15/2018 11:15 UTC,29.7,35.78,35.78,100.0,9.22,50.0,,17.0,,,,73.0,114.0,,,10.0,,KIGQ 151115Z AUTO 05008KT 10SM -DZ BKN007 OVC011 02/02 A2970 RMK AO2 T00210021,,,700.0,,,35.78,30.93,NE,29.05,29.19,,Light Drizzle
KIGQ,04/15/2018 11:35 UTC,29.73,35.78,35.78,100.0,9.22,60.0,,1.0,,,,74.0,,,,7.0,,KIGQ 151135Z AUTO 06008KT 7SM RA OVC007 02/02 A2973 RMK AO2  T00210021,,,700.0,,,35.78,30.93,ENE,29.08,29.22,,Rain
KIGQ,04/15/2018 11:55 UTC,29.74,35.6,35.6,100.0,10.36,40.0,,1.0,,0.04,,74.0,,0.12,0.25,4.0,,KIGQ 151155Z AUTO 04009KT 4SM RA OVC007 02/02 A2974 RMK AO2 P0004  60012 70025 T00200020 10032 20020,37.76,35.6,700.0,,,35.6,30.21,NE,29.09,29.23,,Rain
KIGQ,04/15/2018 12:15 UTC,29.74,35.06,35.06,100.0,11.5,40.0,,1.0,,0.02,,74.0,,,,4.0,,KIGQ 151215Z AUTO 04010KT 4SM RA OVC007 02/02 A2974 RMK AO2 P0002  T00170017,,,700.0,,,35.06,29.09,NE,29.09,29.25,,Rain
KIGQ,04/15/2018 12:35 UTC,29.73,35.06,35.06,100.0,10.36,50.0,,1.0,,0.05,,73.0,134.0,,,5.0,,KIGQ 151235Z AUTO 05009KT 5SM RA BKN007 OVC013 02/02 A2973 RMK AO2  P0005 T00170017,,,700.0,,,35.06,29.56,NE,29.08,29.24,,Rain
KIGQ,04/15/2018 12:55 UTC,29.71,35.06,35.06,100.0,13.8,50.0,21.85,1.0,,0.08,,73.0,134.0,,,3.0,,KIGQ 151255Z AUTO 05012G19KT 3SM RA BKN007 OVC013 02/02 A2971 RMK AO2 P0008 T00170017,,,700.0,,,35.06,28.25,NE,29.06,29.22,,Rain
KIGQ,04/15/2018 13:15 UTC,29.69,34.7,34.7,100.0,14.97,40.0,20.71,1.0,,0.02,,74.0,,,,4.0,,KIGQ 151315Z AUTO 04013G18KT 4SM RA OVC007 02/02 A2969 RMK AO2  P0002 T00150015,,,700.0,,,34.7,27.42,NE,29.04,29.21,,Rain
KIGQ,04/15/2018 13:35 UTC,29.7,34.7,34.7,100.0,10.36,60.0,17.27,1.0,,0.06,,74.0,,,,4.0,,KIGQ 151335Z AUTO 06009G15KT 4SM RA OVC007 02/02 A2970 RMK AO2  P0006 T00150015,,,700.0,,,34.7,29.13,ENE,29.05,29.22,,Rain
KIGQ,04/15/2018 13:55 UTC,29.71,34.7,34.7,100.0,9.22,50.0,,1.0,,0.09,,74.0,,,,4.0,,KIGQ 151355Z AUTO 05008KT 4SM RA OVC007 02/02 A2971 RMK AO2 P0009  T00150015,,,700.0,,,34.7,29.65,NE,29.06,29.23,,Rain
KIGQ,04/15/2018 14:15 UTC,29.69,34.7,34.7,100.0,10.36,40.0,,1.0,,0.04,,74.0,,,,3.0,,KIGQ 151415Z AUTO 04009KT 3SM RA OVC007 02/02 A2969 RMK AO2 P0004  T00150015,,,700.0,,,34.7,29.13,NE,29.04,29.21,,Rain
KIGQ,04/15/2018 14:35 UTC,29.68,34.7,34.7,100.0,12.66,60.0,,1.0,,0.09,,74.0,,,,4.0,,KIGQ 151435Z AUTO 06011KT 4SM RA OVC007 02/02 A2968 RMK AO2 P0009  T00150015,,,700.0,,,34.7,28.21,ENE,29.03,29.2,,Rain
KIGQ,04/15/2018 14:55 UTC,29.63,34.7,34.7,100.0,16.11,60.0,21.85,13.0,,0.12,0.29,74.0,,,,4.0,,KIGQ 151455Z AUTO 06014G19KT 4SM -RA OVC007 02/02 A2963 RMK AO2  P0012 60029 T00150015,,,700.0,,,34.7,27.07,ENE,28.99,29.16,,Light Rain
KIGQ,04/15/2018 15:15 UTC,29.64,34.88,34.88,100.0,12.66,50.0,19.57,2.0,,,,74.0,,,,10.0,,KIGQ 151515Z AUTO 05011G17KT 10SM DZ OVC007 02/02 A2964 RMK AO2  T00160016,,,700.0,,,34.88,28.43,NE,29.0,29.16,,Drizzle
KIGQ,04/15/2018 15:35 UTC,29.68,35.06,35.06,100.0,5.75,40.0,,13.0,,,,74.0,,,,10.0,,KIGQ 151535Z AUTO 04005KT 10SM -RA OVC007 02/02 A2968 RMK AO2  T00170017,,,700.0,,,35.06,,NE,29.03,29.19,,Light Rain
KIGQ,04/15/2018 15:55 UTC,29.67,35.24,35.24,100.0,5.75,40.0,,13.0,,,,74.0,,,,10.0,,KIGQ 151555Z AUTO 04005KT 10SM -RA OVC007 02/02 A2967 RMK AO2  T00180018,,,700.0,,,35.24,,NE,29.02,29.17,,Light Rain
KIGQ,04/15/2018 16:15 UTC,29.69,35.6,35.6,100.0,4.61,30.0,,13.0,,,,74.0,,,,10.0,,KIGQ 151615Z AUTO 03004KT 10SM -RA OVC007 02/02 A2969 RMK AO2  T00200020,,,700.0,,,35.6,,NNE,29.04,29.18,,Light Rain
KIGQ,04/15/2018 16:35 UTC,29.67,35.96,35.96,100.0,8.05,20.0,,13.0,,,,74.0,,,,3.0,,KIGQ 151635Z AUTO 02007KT 3SM -RA OVC007 02/02 A2967 RMK AO2  T00220022,,,700.0,,,35.96,31.73,NNE,29.02,29.15,,Light Rain
KIGQ,04/15/2018 16:55 UTC,29.68,36.32,36.32,100.0,6.91,30.0,,1.0,,,,54.0,,,,7.0,,KIGQ 151655Z AUTO 03006KT 7SM RA OVC005 02/02 A2968 RMK AO2  T00240024,,,500.0,,,36.32,,NNE,29.03,29.16,,Rain
KIGQ,04/15/2018 17:15 UTC,29.67,36.5,36.5,100.0,8.05,20.0,,,,,,54.0,,,,10.0,,KIGQ 151715Z AUTO 02007KT 10SM OVC005 03/03 A2967 RMK AO2  T00250025,,,500.0,,,36.5,32.36,NNE,29.02,29.14,,Overcast
KIGQ,04/15/2018 17:35 UTC,29.67,36.86,36.86,100.0,6.91,20.0,,,,,,74.0,,,,10.0,,KIGQ 151735Z AUTO 02006KT 10SM OVC007 03/03 A2967 RMK AO2  T00270027,,,700.0,,,36.86,,NNE,29.02,29.13,,Overcast
KIGQ,04/15/2018 17:55 UTC,29.67,36.68,36.68,100.0,5.75,10.0,,13.0,,,,74.0,,0.29,,10.0,,KIGQ 151755Z AUTO 01005KT 10SM -RA OVC007 03/03 A2967 RMK AO2  60029 T00260026 10028 20014,37.04,34.52,700.0,,,36.68,,N,29.02,29.14,,Light Rain
KIGQ,04/15/2018 18:15 UTC,29.66,37.22,37.22,100.0,3.44,30.0,,17.0,,,,74.0,,,,10.0,,KIGQ 151815Z AUTO 03003KT 10SM -DZ OVC007 03/03 A2966 RMK AO2  T00290029,,,700.0,,,37.22,,NNE,29.02,29.12,,Light Drizzle
KIGQ,04/15/2018 18:35 UTC,29.66,37.76,37.4,98.59,3.44,10.0,,13.0,,,,74.0,,,,10.0,,KIGQ 151835Z AUTO 01003KT 10SM -RA OVC007 03/03 A2966 RMK AO2  T00320030,,,700.0,,,37.39,,N,29.02,29.11,,Light Rain
KIGQ,04/15/2018 18:55 UTC,29.66,37.58,37.04,97.9,0.0,0.0,,13.0,,,,74.0,,,,10.0,,KIGQ 151855Z AUTO 00000KT 10SM -RA OVC007 03/03 A2966 RMK AO2  T00310028,,,700.0,,,37.03,,N,29.02,29.12,,Light Rain
KIGQ,04/15/2018 19:15 UTC,29.66,37.58,37.22,98.59,4.61,340.0,,,,,,74.0,,,,10.0,,KIGQ 151915Z AUTO 34004KT 10SM OVC007 03/03 A2966 RMK AO2  T00310029,,,700.0,,,37.21,,NNW,29.02,29.12,,Overcast
KIGQ,04/15/2018 19:35 UTC,29.67,37.58,37.4,99.29,3.44,310.0,,,,,,74.0,,,,10.0,,KIGQ 151935Z AUTO 31003KT 10SM OVC007 03/03 A2967 RMK AO2  T00310030,,,700.0,,,37.4,,NW,29.02,29.11,,Overcast
KIGQ,04/15/2018 19:55 UTC,29.66,37.4,37.22,99.29,4.61,350.0,,13.0,,,,74.0,,,,10.0,,KIGQ 151955Z AUTO 35004KT 10SM -RA OVC007 03/03 A2966 RMK AO2  T00300029,,,700.0,,,37.22,,N,29.02,29.12,,Light Rain
KIGQ,04/15/2018 20:15 UTC,29.66,37.58,37.4,99.29,4.61,350.0,,17.0,,,,74.0,,,,10.0,,KIGQ 152015Z AUTO 35004KT 10SM -DZ OVC007 03/03 A2966 RMK AO2  T00310030,,,700.0,,,37.4,,N,29.02,29.11,,Light Drizzle
KIGQ,04/15/2018 20:35 UTC,29.66,37.58,37.22,98.59,3.44,340.0,,,,,,74.0,,,,10.0,,KIGQ 152035Z AUTO 34003KT 10SM OVC007 03/03 A2966 RMK AO2  T00310029,,,700.0,,,37.21,,NNW,29.02,29.12,,Overcast
KIGQ,04/15/2018 20:55 UTC,29.66,37.4,36.86,97.89,4.61,350.0,,,,,,74.0,,,,10.0,,KIGQ 152055Z AUTO 35004KT 10SM OVC007 03/03 A2966 RMK AO2  T00300027,,,700.0,,,36.85,,N,29.02,29.13,,Overcast
KIGQ,04/15/2018 21:15 UTC,29.66,37.4,36.68,97.2,4.61,340.0,,,,,,74.0,,,,7.0,,KIGQ 152115Z AUTO 34004KT 7SM OVC007 03/03 A2966 RMK AO2  T00300026,,,700.0,,,36.67,,NNW,29.02,29.13,,Overcast
KIGQ,04/15/2018 21:35 UTC,29.66,37.04,36.68,98.59,4.61,340.0,,,,,,74.0,,,,7.0,,KIGQ 152135Z AUTO 34004KT 7SM OVC007 03/03 A2966 RMK AO2  T00280026,,,700.0,,,36.67,,NNW,29.02,29.13,,Overcast
KIGQ,04/15/2018 21:55 UTC,29.67,36.86,36.68,99.29,6.91,330.0,,1.0,,,,74.0,,,,4.0,,KIGQ 152155Z AUTO 33006KT 4SM RA OVC007 03/03 A2967 RMK AO2  T00270026,,,700.0,,,36.68,,NNW,29.02,29.13,,Rain
KIGQ,04/15/2018 22:15 UTC,29.68,36.68,36.68,100.0,4.61,330.0,,18.0,,,,74.0,,,,2.0,,KIGQ 152215Z AUTO 33004KT 2SM +DZ OVC007 03/03 A2968 RMK AO2  T00260026,,,700.0,,,36.68,,NNW,29.03,29.15,,Heavy Drizzle
KIGQ,04/15/2018 22:35 UTC,29.69,36.32,36.32,100.0,4.61,320.0,,1.0,,,,74.0,,,,1.5,,KIGQ 152235Z AUTO 32004KT 1 1/2SM RA OVC007 02/02 A2969 RMK AO2  T00240024,,,700.0,,,36.32,,NW,29.04,29.17,,Rain
KIGQ,04/15/2018 22:55 UTC,29.69,35.6,35.6,100.0,6.91,330.0,,1.0,,0.01,,74.0,,,,2.5,,KIGQ 152255Z AUTO 33006KT 2 1/2SM RA OVC007 02/02 A2969 RMK AO2  P0001 T00200020,,,700.0,,,35.6,,NNW,29.04,29.18,,Rain
KIGQ,04/15/2018 23:15 UTC,29.69,35.78,35.78,100.0,5.75,330.0,,2.0,,,,94.0,,,,2.5,,KIGQ 152315Z AUTO 33005KT 2 1/2SM DZ OVC009 02/02 A2969 RMK AO2  T00210021,,,900.0,,,35.78,,NNW,29.04,29.18,,Drizzle
KIGQ,04/15/2018 23:35 UTC,29.7,35.78,35.78,100.0,5.75,320.0,,2.0,,,,73.0,134.0,,,4.0,,KIGQ 152335Z AUTO 32005KT 4SM DZ BKN007 OVC013 02/02 A2970 RMK AO2  T00210021,,,700.0,,,35.78,,NW,29.05,29.19,,Drizzle
KIGQ,04/15/2018 23:55 UTC,29.7,35.6,35.6,100.0,8.05,320.0,,17.0,,,,73.0,134.0,0.02,,7.0,,KIGQ 152355Z AUTO 32007KT 7SM -DZ BKN007 OVC013 02/02 A2970 RMK AO2 60002 T00200020 10033 20020,37.94,35.6,700.0,,,35.6,31.3,NW,29.05,29.19,,Light Drizzle
KIGQ,04/16/2018 00:15 UTC,29.71,35.6,34.7,96.48,8.05,310.0,,17.0,184.0,,,82.0,123.0,,,10.0,,KIGQ 160015Z AUTO 31007KT 10SM -DZ SCT008 BKN012 OVC018 02/02  A2971 RMK AO2 T00200015,,,1200.0,,,34.68,31.3,NW,29.06,29.22,,Light Drizzle
KIGQ,04/16/2018 00:35 UTC,29.71,35.06,34.16,96.47,9.22,320.0,,2.0,,,,113.0,164.0,,,10.0,,KIGQ 160035Z AUTO 32008KT 10SM DZ BKN011 OVC016 02/01 A2971 RMK AO2 T00170012,,,1100.0,,,34.14,30.08,NW,29.06,29.23,,Drizzle
KIGQ,04/16/2018 00:55 UTC,29.71,34.7,34.16,97.87,9.22,330.0,,17.0,,,,123.0,204.0,,,10.0,,KIGQ 160055Z AUTO 33008KT 10SM -DZ BKN012 OVC020 02/01 A2971 RMK AO2 T00150012,,,1200.0,,,34.15,29.65,NNW,29.06,29.24,,Light Drizzle
KIGQ,04/16/2018 01:15 UTC,29.72,34.52,33.8,97.16,8.05,310.0,,,,,,92.0,144.0,,,10.0,,KIGQ 160115Z AUTO 31007KT 10SM SCT009 OVC014 01/01 A2972 RMK AO2  T00140010,,,1400.0,,,33.79,30.04,NW,29.07,29.25,,Overcast
KIGQ,04/16/2018 01:35 UTC,29.73,34.7,33.98,97.17,5.75,300.0,,,,,,144.0,,,,10.0,,KIGQ 160135Z AUTO 30005KT 10SM OVC014 02/01 A2973 RMK AO2  T00150011,,,1400.0,,,33.97,,WNW,29.08,29.26,,Overcast
KIGQ,04/16/2018 01:55 UTC,29.75,34.7,33.8,96.47,6.91,300.0,,,,,,134.0,,,,10.0,,KIGQ 160155Z AUTO 30006KT 10SM OVC013 02/01 A2975 RMK AO2  T00150010,,,1300.0,,,33.79,,WNW,29.1,29.28,,Overcast
KIGQ,04/16/2018 02:15 UTC,29.76,34.52,33.62,96.47,6.91,280.0,,,,,,134.0,,,,10.0,,KIGQ 160215Z AUTO 28006KT 10SM OVC013 01/01 A2976 RMK AO2  T00140009,,,1300.0,,,33.61,,W,29.11,29.3,,Overcast
KIGQ,04/16/2018 02:35 UTC,29.77,33.98,33.08,96.46,9.22,300.0,,,,,,114.0,,,,10.0,,KIGQ 160235Z AUTO 30008KT 10SM OVC011 01/01 A2977 RMK AO2  T00110006,,,1100.0,,,33.07,28.8,WNW,29.12,29.32,,Overcast
KIGQ,04/16/2018 02:55 UTC,29.76,33.8,32.9,96.45,8.05,290.0,,20.0,,,,114.0,,,,10.0,,KIGQ 160255Z AUTO 29007KT 10SM -SN OVC011 01/01 A2976 RMK AO2  T00100005,,,1100.0,,,32.88,29.19,WNW,29.11,29.31,,Light Snow
KIGQ,04/16/2018 03:15 UTC,29.75,33.08,32.54,97.85,8.05,290.0,,20.0,,,,114.0,,,,7.0,,KIGQ 160315Z AUTO 29007KT 7SM -SN OVC011 01/00 A2975 RMK AO2  T00060003,,,1100.0,,,32.53,28.34,WNW,29.1,29.31,,Light Snow
KIGQ,04/16/2018 03:35 UTC,29.76,32.54,32.0,97.85,8.05,300.0,,20.0,,,,113.0,174.0,,,10.0,,KIGQ 160335Z AUTO 30007KT 10SM -SN BKN011 OVC017 00/00 A2976 RMK AO2 T00030000,,,1100.0,,,31.99,27.71,WNW,29.11,29.34,,Light Snow
KIGQ,04/16/2018 03:55 UTC,29.76,32.36,32.0,98.56,8.05,280.0,,20.0,,,,93.0,194.0,,,4.0,,KIGQ 160355Z AUTO 28007KT 4SM -SN BKN009 OVC019 00/00 A2976 RMK AO2 T00020000,,,900.0,,,31.99,27.5,W,29.11,29.34,,Light Snow
KIGQ,04/16/2018 04:15 UTC,29.76,32.0,32.0,100.0,9.22,280.0,,20.0,,,,94.0,,,,3.0,,KIGQ 160415Z AUTO 28008KT 3SM -SN OVC009 00/00 A2976 RMK AO2  T00000000,,,900.0,,,32.0,26.45,W,29.11,29.34,,Light Snow
KIGQ,04/16/2018 04:35 UTC,29.77,31.82,31.28,97.84,11.5,280.0,19.57,,,,,94.0,,,,7.0,,KIGQ 160435Z AUTO 28010G17KT 7SM OVC009 00/00 A2977 RMK AO2  T10011004,,,900.0,,,31.27,25.18,W,29.12,29.36,,Overcast
KIGQ,04/16/2018 04:55 UTC,29.77,31.1,30.2,96.41,13.8,280.0,18.41,,,,,113.0,164.0,,,10.0,,KIGQ 160455Z AUTO 28012G16KT 10SM BKN011 OVC016 00/M01 A2977 RMK AO2 T10051010,,,1100.0,,,30.18,23.4,W,29.12,29.38,,Overcast
KIGQ,04/16/2018 05:15 UTC,29.78,30.74,29.84,96.4,10.36,280.0,,,,,,114.0,,,,10.0,,KIGQ 160515Z AUTO 28009KT 10SM OVC011 M01/M01 A2978 RMK AO2  T10071012,,,1100.0,,,29.82,24.39,W,29.13,29.4,,Overcast
KIGQ,04/16/2018 05:35 UTC,29.78,30.56,29.3,94.99,10.36,290.0,,,,,,114.0,,,,10.0,,KIGQ 160535Z AUTO 29009KT 10SM OVC011 M01/M01 A2978 RMK AO2  T10081015,,,1100.0,,,29.28,24.18,WNW,29.13,29.41,,Overcast
KIGQ,04/16/2018 05:55 UTC,29.78,30.2,28.76,94.29,12.66,280.0,16.11,,,,,114.0,,,,10.0,,KIGQ 160555Z AUTO 28011G14KT 10SM OVC011 M01/M02 A2978 RMK AO2  T10101018 10020 21010 400331010,35.6,30.2,1100.0,37.94,30.2,28.74,22.74,W,29.13,29.42,,Overcast
KIGQ,04/16/2018 06:15 UTC,29.78,29.84,28.4,94.28,14.97,270.0,20.71,,,,,114.0,,,,10.0,,KIGQ 160615Z AUTO 27013G18KT 10SM OVC011 M01/M02 A2978 RMK AO2  T10121020,,,1100.0,,,28.38,21.43,W,29.13,29.43,,Overcast
KIGQ,04/16/2018 06:35 UTC,29.77,29.3,27.5,92.88,11.5,280.0,18.41,,,,,114.0,,,,10.0,,KIGQ 160635Z AUTO 28010G16KT 10SM OVC011 M01/M02 A2977 RMK AO2  T10151025,,,1100.0,,,27.47,22.14,W,29.12,29.43,,Overcast
KIGQ,04/16/2018 06:55 UTC,29.77,29.12,26.6,90.15,14.97,270.0,24.16,,,,,134.0,,,,10.0,,KIGQ 160655Z AUTO 27013G21KT 10SM OVC013 M02/M03 A2977 RMK AO2  T10161030,,,1300.0,,,26.56,20.55,W,29.12,29.44,,Overcast
KIGQ,04/16/2018 07:15 UTC,29.78,28.94,26.6,90.82,13.8,290.0,18.41,,,,,154.0,,,,10.0,,KIGQ 160715Z AUTO 29012G16KT 10SM OVC015 M02/M03 A2978 RMK AO2  T10171030,,,1500.0,,,26.56,20.76,WNW,29.13,29.45,,Overcast
KIGQ,04/16/2018 07:35 UTC,29.78,28.94,26.6,90.82,12.66,280.0,20.71,,,,,154.0,,,,10.0,,KIGQ 160735Z AUTO 28011G18KT 10SM OVC015 M02/M03 A2978 RMK AO2  T10171030,,,1500.0,,,26.56,21.21,W,29.13,29.45,,Overcast
KIGQ,04/16/2018 07:55 UTC,29.78,28.76,26.24,90.13,12.66,280.0,23.02,,,,,154.0,,,,10.0,,KIGQ 160755Z AUTO 28011G20KT 10SM OVC015 M02/M03 A2978 RMK AO2  T10181032,,,1500.0,,,26.2,20.99,W,29.13,29.46,,Overcast
KIGQ,04/16/2018 08:15 UTC,29.78,28.4,25.7,89.45,13.8,280.0,23.02,,,,,154.0,,,,10.0,,KIGQ 160815Z AUTO 28012G20KT 10SM OVC015 M02/M03 A2978 RMK AO2  T10201035,,,1500.0,,,25.65,20.1,W,29.13,29.47,,Overcast
KIGQ,04/16/2018 08:35 UTC,29.78,28.4,25.7,89.45,12.66,290.0,19.57,,,,,154.0,,,,10.0,,KIGQ 160835Z AUTO 29011G17KT 10SM OVC015 M02/M03 A2978 RMK AO2  T10201035,,,1500.0,,,25.65,20.55,WNW,29.13,29.47,,Overcast
KIGQ,04/16/2018 08:55 UTC,29.78,28.4,25.88,90.12,11.5,270.0,19.57,,,,,154.0,,,,10.0,,KIGQ 160855Z AUTO 27010G17KT 10SM OVC015 M02/M03 A2978 RMK AO2  T10201034,,,1500.0,,,25.84,21.05,W,29.13,29.47,,Overcast
KIGQ,04/16/2018 09:15 UTC,29.78,28.4,25.52,88.78,17.27,280.0,23.02,,,,,154.0,,,,10.0,,KIGQ 160915Z AUTO 28015G20KT 10SM OVC015 M02/M04 A2978 RMK AO2  T10201036,,,1500.0,,,25.47,18.88,W,29.13,29.47,,Overcast
KIGQ,04/16/2018 09:35 UTC,29.79,28.22,25.34,88.77,14.97,280.0,20.71,,,,,154.0,,,,10.0,,KIGQ 160935Z AUTO 28013G18KT 10SM OVC015 M02/M04 A2979 RMK AO2  T10211037,,,1500.0,,,25.29,19.44,W,29.14,29.48,,Overcast
KIGQ,04/16/2018 09:55 UTC,29.78,28.04,24.8,87.44,12.66,280.0,20.71,,,,,154.0,,,,10.0,,KIGQ 160955Z AUTO 28011G18KT 10SM OVC015 M02/M04 A2978 RMK AO2  T10221040,,,1500.0,,,24.75,20.11,W,29.13,29.48,,Overcast
KIGQ,04/16/2018 10:15 UTC,29.79,28.04,25.34,89.43,11.5,290.0,19.57,,,,,154.0,,,,10.0,,KIGQ 161015Z AUTO 29010G17KT 10SM OVC015 M02/M04 A2979 RMK AO2  T10221037,,,1500.0,,,25.29,20.62,WNW,29.14,29.48,,Overcast
KIGQ,04/16/2018 10:35 UTC,29.79,28.22,25.16,88.11,11.5,270.0,20.71,,,,,194.0,,,,10.0,,KIGQ 161035Z AUTO 27010G18KT 10SM OVC019 M02/M04 A2979 RMK AO2  T10211038,,,1900.0,,,25.11,20.84,W,29.14,29.49,,Overcast
KIGQ,04/16/2018 10:55 UTC,29.79,28.04,25.34,89.43,10.36,280.0,16.11,20.0,,,,194.0,,,,10.0,,KIGQ 161055Z AUTO 28009G14KT 10SM -SN OVC019 M02/M04 A2979 RMK AO2  T10221037,,,1900.0,,,25.29,21.16,W,29.14,29.48,,Light Snow
KIGQ,04/16/2018 11:15 UTC,29.79,28.04,24.8,87.44,10.36,270.0,17.27,20.0,,,,173.0,234.0,,,7.0,,KIGQ 161115Z AUTO 27009G15KT 7SM -SN BKN017 OVC023 M02/M04 A2979 RMK AO2 T10221040,,,1700.0,,,24.75,21.16,W,29.14,29.49,,Light Snow
KIGQ,04/16/2018 11:35 UTC,29.79,27.86,24.8,88.09,11.5,280.0,19.57,20.0,604.0,,,193.0,483.0,,,7.0,,KIGQ 161135Z AUTO 28010G17KT 7SM -SN BKN019 BKN048 OVC060 M02/M04  A2979 RMK AO2 T10231040,,,1900.0,,,24.75,20.4,W,29.14,29.49,,Light Snow
KIGQ,04/16/2018 11:55 UTC,29.8,27.86,25.16,89.42,11.5,270.0,20.71,20.0,,,,194.0,,,0.31,2.5,,KIGQ 161155Z AUTO 27010G18KT 2 1/2SM -SN OVC019 M02/M04 A2980 RMK AO2 VIS 1 1/4V4 70031 T10231038 11010 21023,30.2,27.86,1900.0,,,25.11,20.4,W,29.15,29.5,,Light Snow
KIGQ,04/16/2018 12:15 UTC,29.8,28.04,26.24,92.84,8.05,280.0,18.41,20.0,,,,194.0,,,,1.25,,KIGQ 161215Z AUTO 28007G16KT 1 1/4SM -SN OVC019 M02/M03 A2980 RMK AO2 T10221032,,,1900.0,,,26.21,22.42,W,29.15,29.48,,Light Snow
KIGQ,04/16/2018 12:35 UTC,29.8,28.04,25.88,91.46,12.66,270.0,19.57,20.0,,,,174.0,,,,2.0,,KIGQ 161235Z AUTO 27011G17KT 2SM -SN OVC017 M02/M03 A2980 RMK AO2  T10221034,,,1700.0,,,25.84,20.11,W,29.15,29.49,,Light Snow
KIGQ,04/16/2018 12:55 UTC,29.81,28.4,25.88,90.12,10.36,280.0,16.11,20.0,,,,173.0,214.0,,,3.0,,KIGQ 161255Z AUTO 28009G14KT 3SM -SN BKN017 OVC021 M02/M03 A2981 RMK AO2 T10201034,,,1700.0,,,25.84,21.59,W,29.16,29.5,,Light Snow
KIGQ,04/16/2018 13:15 UTC,29.81,28.4,25.52,88.78,13.8,280.0,18.41,20.0,,,,174.0,,,,5.0,,KIGQ 161315Z AUTO 28012G16KT 5SM -SN OVC017 M02/M04 A2981 RMK AO2  T10201036,,,1700.0,,,25.47,20.1,W,29.16,29.5,,Light Snow
KIGQ,04/16/2018 13:35 UTC,29.81,28.94,25.7,87.49,13.8,280.0,19.57,,,,,194.0,,,,10.0,,KIGQ 161335Z AUTO 28012G17KT 10SM OVC019 M02/M03 A2981 RMK AO2  T10171035,,,1900.0,,,25.65,20.76,W,29.16,29.5,,Overcast
KIGQ,04/16/2018 13:55 UTC,29.81,29.12,25.7,86.84,10.36,290.0,18.41,20.0,,,,174.0,,,,7.0,,KIGQ 161355Z AUTO 29009G16KT 7SM -SN OVC017 M02/M03 A2981 RMK AO2  T10161035,,,1700.0,,,25.64,22.45,WNW,29.16,29.49,,Light Snow
KIGQ,04/16/2018 14:15 UTC,29.82,29.12,25.7,86.84,14.97,290.0,21.85,20.0,,,,194.0,,,,5.0,,KIGQ 161415Z AUTO 29013G19KT 5SM -SN OVC019 M02/M03 A2982 RMK AO2  T10161035,,,1900.0,,,25.64,20.55,WNW,29.17,29.5,,Light Snow
KIGQ,04/16/2018 14:35 UTC,29.82,29.12,26.78,90.82,14.97,290.0,18.41,20.0,,,,153.0,214.0,,,1.75,,KIGQ 161435Z AUTO 29013G16KT 1 3/4SM -SN BKN015 OVC021 M02/M03  A2982 RMK AO2 T10161029,,,1500.0,,,26.74,20.55,WNW,29.17,29.49,,Light Snow
KIGQ,04/16/2018 14:55 UTC,29.83,29.3,27.14,91.51,11.5,290.0,18.41,20.0,,,,163.0,224.0,,,2.5,,KIGQ 161455Z AUTO 29010G16KT 2 1/2SM -SN BKN016 OVC022 M01/M03  A2983 RMK AO2 T10151027,,,1600.0,,,27.1,22.14,WNW,29.18,29.5,,Light Snow
KIGQ,04/16/2018 15:15 UTC,29.83,29.84,27.14,89.51,13.8,280.0,23.02,20.0,,,,164.0,,,,0.5,,KIGQ 161515Z AUTO 28012G20KT 1/2SM -SN OVC016 M01/M03 A2983 RMK AO2 T10121027,,,1600.0,,,27.09,21.86,W,29.18,29.49,,Light Snow
KIGQ,04/16/2018 15:35 UTC,29.83,29.84,28.04,92.89,10.36,300.0,19.57,20.0,,,,164.0,,,,0.25,,KIGQ 161535Z AUTO 30009G17KT 1/4SM -SN OVC016 M01/M02 A2983 RMK AO2 T10121022,,,1600.0,,,28.01,23.31,WNW,29.18,29.48,,Light Snow
KIGQ,04/16/2018 15:55 UTC,29.83,30.74,28.22,90.22,12.66,300.0,19.57,20.0,314.0,,,163.0,223.0,,,5.0,,KIGQ 161555Z AUTO 30011G17KT 5SM -SN BKN016 BKN022 OVC031 M01/M02  A2983 RMK AO2 T10071021,,,1600.0,,,28.18,23.4,WNW,29.18,29.47,,Light Snow
KIGQ,04/16/2018 16:15 UTC,29.83,31.28,28.4,88.92,13.8,290.0,20.71,20.0,,,,163.0,234.0,,,5.0,,KIGQ 161615Z AUTO 29012G18KT 5SM -SN BKN016 OVC023 00/M02 A2983 RMK AO2 T10041020,,,1600.0,,,28.35,23.62,WNW,29.18,29.47,,Light Snow
KIGQ,04/16/2018 16:35 UTC,29.83,32.0,28.58,87.01,16.11,290.0,25.32,20.0,,,,183.0,234.0,,,7.0,,KIGQ 161635Z AUTO 29014G22KT 7SM -SN BKN018 OVC023 00/M02 A2983 RMK AO2 T00001019,,,1800.0,,,28.52,23.72,WNW,29.18,29.46,,Light Snow
KIGQ,04/16/2018 16:55 UTC,29.84,32.0,28.22,85.73,13.8,290.0,20.71,,,,,213.0,284.0,,,10.0,,KIGQ 161655Z AUTO 29012G18KT 10SM BKN021 OVC028 00/M02 A2984 RMK AO2 T00001021,,,2100.0,,,28.16,24.5,WNW,29.19,29.48,,Overcast
KIGQ,04/16/2018 17:15 UTC,29.85,32.18,28.04,84.49,10.36,290.0,17.27,,,,,214.0,,,,10.0,,KIGQ 161715Z AUTO 29009G15KT 10SM OVC021 00/M02 A2985 RMK AO2  T00011022,,,2100.0,,,27.97,26.12,WNW,29.2,29.49,,Overcast
KIGQ,04/16/2018 17:35 UTC,29.85,32.0,27.14,82.0,11.5,290.0,20.71,,,,,234.0,,,,10.0,,KIGQ 161735Z AUTO 29010G18KT 10SM OVC023 00/M03 A2985 RMK AO2  T00001027,,,2300.0,,,27.06,25.4,WNW,29.2,29.5,,Overcast
KIGQ,04/16/2018 17:55 UTC,29.86,32.36,27.32,81.42,14.97,300.0,23.02,,,,,234.0,,,,10.0,,KIGQ 161755Z AUTO 30013G20KT 10SM OVC023 00/M03 A2986 RMK AO2  T00021026 10003 21023,32.54,27.86,2300.0,,,27.24,24.54,WNW,29.21,29.51,,Overcast
KIGQ,04/16/2018 18:15 UTC,29.86,32.54,27.14,80.24,12.66,290.0,24.16,,,,,254.0,,,,10.0,,KIGQ 161815Z AUTO 29011G21KT 10SM OVC025 00/M03 A2986 RMK AO2  T00031027,,,2500.0,,,27.05,25.59,WNW,29.21,29.51,,Overcast
KIGQ,04/16/2018 18:35 UTC,29.86,32.54,27.86,82.65,14.97,290.0,21.85,20.0,,,,254.0,,,,7.0,,KIGQ 161835Z AUTO 29013G19KT 7SM -SN OVC025 00/M02 A2986 RMK AO2  T00031023,,,2500.0,,,27.78,24.76,WNW,29.21,29.5,,Light Snow
KIGQ,04/16/2018 18:55 UTC,29.86,32.36,27.68,82.64,16.11,280.0,26.46,20.0,,,,233.0,294.0,,,10.0,,KIGQ 161855Z AUTO 28014G23KT 10SM -SN BKN023 OVC029 00/M02 A2986 RMK AO2 T00021024,,,2300.0,,,27.6,24.17,W,29.21,29.5,,Light Snow
KIGQ,04/16/2018 19:15 UTC,29.86,32.36,27.32,81.42,14.97,270.0,23.02,20.0,,,,273.0,324.0,,,7.0,,KIGQ 161915Z AUTO 27013G20KT 7SM -SN BKN027 OVC032 00/M03 A2986 RMK AO2 T00021026,,,2700.0,,,27.24,24.54,W,29.21,29.51,,Light Snow
KIGQ,04/16/2018 19:35 UTC,29.86,33.08,26.96,77.93,14.97,290.0,20.71,,,,,253.0,334.0,,,10.0,,KIGQ 161935Z AUTO 29013G18KT 10SM BKN025 OVC033 01/M03 A2986 RMK AO2 T00061028,,,2500.0,,,26.86,25.43,WNW,29.21,29.51,,Overcast
KIGQ,04/16/2018 19:55 UTC,29.87,33.98,26.78,74.61,11.5,290.0,21.85,,,,,294.0,,,,10.0,,KIGQ 161955Z AUTO 29010G19KT 10SM OVC029 01/M03 A2987 RMK AO2  T00111029,,,2900.0,,,26.67,27.79,WNW,29.22,29.51,,Overcast
KIGQ,04/16/2018 20:15 UTC,29.87,33.26,26.78,76.8,16.11,280.0,23.02,,,,,294.0,,,,10.0,,KIGQ 162015Z AUTO 28014G20KT 10SM OVC029 01/M03 A2987 RMK AO2  T00071029,,,2900.0,,,26.68,25.29,W,29.22,29.52,,Overcast
KIGQ,04/16/2018 20:35 UTC,29.88,33.44,27.5,78.55,12.66,290.0,17.27,,,,,294.0,,,,10.0,,KIGQ 162035Z AUTO 29011G15KT 10SM OVC029 01/M02 A2988 RMK AO2  T00081025,,,2900.0,,,27.41,26.68,WNW,29.23,29.52,,Overcast
KIGQ,04/16/2018 20:55 UTC,29.88,32.9,26.78,77.92,17.27,290.0,24.16,,,,,274.0,,,,10.0,,KIGQ 162055Z AUTO 29015G21KT 10SM OVC027 01/M03 A2988 RMK AO2  T00051029,,,2700.0,,,26.69,24.49,WNW,29.23,29.53,,Overcast
KIGQ,04/16/2018 21:15 UTC,29.88,33.08,26.42,76.21,9.22,300.0,21.85,,,,,294.0,,,,10.0,,KIGQ 162115Z AUTO 30008G19KT 10SM OVC029 01/M03 A2988 RMK AO2  T00061031,,,2900.0,,,26.32,27.73,WNW,29.23,29.53,,Overcast
KIGQ,04/16/2018 21:35 UTC,29.88,33.08,26.6,76.78,13.8,280.0,23.02,,,,,294.0,,,,10.0,,KIGQ 162135Z AUTO 28012G20KT 10SM OVC029 01/M03 A2988 RMK AO2  T00061030,,,2900.0,,,26.5,25.83,W,29.23,29.53,,Overcast
KIGQ,04/16/2018 21:55 UTC,29.89,32.9,26.24,76.19,13.8,280.0,19.57,,,,,284.0,,,,10.0,,KIGQ 162155Z AUTO 28012G17KT 10SM OVC028 01/M03 A2989 RMK AO2  T00051032,,,2800.0,,,26.14,25.61,W,29.24,29.55,,Overcast
KIGQ,04/16/2018 22:15 UTC,29.89,33.26,26.06,74.54,9.22,300.0,16.11,,,,,284.0,,,,10.0,,KIGQ 162215Z AUTO 30008G14KT 10SM OVC028 01/M03 A2989 RMK AO2  T00071033,,,2800.0,,,25.95,27.94,WNW,29.24,29.55,,Overcast
KIGQ,04/16/2018 22:35 UTC,29.89,33.26,25.7,73.43,10.36,300.0,18.41,,,,,304.0,,,,10.0,,KIGQ 162235Z AUTO 30009G16KT 10SM OVC030 01/M03 A2989 RMK AO2  T00071035,,,3000.0,,,25.58,27.41,WNW,29.24,29.55,,Overcast
KIGQ,04/16/2018 22:55 UTC,29.9,33.08,25.88,74.52,12.66,290.0,19.57,,,,,304.0,,,,10.0,,KIGQ 162255Z AUTO 29011G17KT 10SM OVC030 01/M03 A2990 RMK AO2  T00061034,,,3000.0,,,25.77,26.24,WNW,29.25,29.56,,Overcast
KIGQ,04/16/2018 23:15 UTC,29.91,32.9,25.52,73.95,13.8,300.0,19.57,,,,,304.0,,,,10.0,,KIGQ 162315Z AUTO 30012G17KT 10SM OVC030 01/M04 A2991 RMK AO2  T00051036,,,3000.0,,,25.41,25.61,WNW,29.26,29.58,,Overcast
KIGQ,04/16/2018 23:35 UTC,29.91,33.08,25.52,73.41,6.91,300.0,20.71,,,,,304.0,,,,10.0,,KIGQ 162335Z AUTO 30006G18KT 10SM OVC030 01/M04 A2991 RMK AO2  T00061036,,,3000.0,,,25.4,,WNW,29.26,29.58,,Overcast
KIGQ,04/16/2018 23:55 UTC,29.91,33.08,25.34,72.87,9.22,290.0,18.41,,,,,324.0,,,,10.0,,KIGQ 162355Z AUTO 29008G16KT 10SM OVC032 01/M04 A2991 RMK AO2  T00061037 10011 20001,33.98,32.18,3200.0,,,25.22,27.73,WNW,29.26,29.58,,Overcast
KIGQ,04/17/2018 00:15 UTC,29.91,33.08,26.24,75.64,10.36,280.0,16.11,,,,,344.0,,,,10.0,,KIGQ 170015Z AUTO 28009G14KT 10SM OVC034 01/M03 A2991 RMK AO2  T00061032,,,3400.0,,,26.13,27.19,W,29.26,29.57,,Overcast
KIGQ,04/17/2018 00:35 UTC,29.92,32.9,26.96,78.5,10.36,280.0,,,,,,344.0,,,,10.0,,KIGQ 170035Z AUTO 28009KT 10SM OVC034 01/M03 A2992 RMK AO2  T00051028,,,3400.0,,,26.87,26.98,W,29.27,29.57,,Overcast
KIGQ,04/17/2018 00:55 UTC,29.91,32.9,26.78,77.92,10.36,280.0,,,,,,363.0,434.0,,,10.0,,KIGQ 170055Z AUTO 28009KT 10SM BKN036 OVC043 01/M03 A2991 RMK AO2  T00051029,,,3600.0,,,26.69,26.98,W,29.26,29.56,,Overcast
KIGQ,04/17/2018 01:15 UTC,29.92,32.9,26.6,77.34,9.22,270.0,,,,,,342.0,404.0,,,10.0,,KIGQ 170115Z AUTO 27008KT 10SM SCT034 OVC040 01/M03 A2992 RMK AO2  T00051030,,,4000.0,,,26.5,27.52,W,29.27,29.57,,Overcast
KIGQ,04/17/2018 01:35 UTC,29.92,32.9,27.14,79.08,8.05,270.0,16.11,,,,,312.0,404.0,,,10.0,,KIGQ 170135Z AUTO 27007G14KT 10SM SCT031 OVC040 01/M03 A2992 RMK AO2 T00051027,,,4000.0,,,27.05,28.13,W,29.27,29.57,,Overcast
KIGQ,04/17/2018 01:55 UTC,29.92,32.9,27.5,80.27,9.22,280.0,16.11,,454.0,,,283.0,393.0,,,10.0,,KIGQ 170155Z AUTO 28008G14KT 10SM BKN028 BKN039 OVC045 01/M02  A2992 RMK AO2 T00051025,,,2800.0,,,27.42,27.52,W,29.27,29.56,,Overcast
KIGQ,04/17/2018 02:15 UTC,29.93,32.72,27.5,80.85,12.66,270.0,18.41,,,,,283.0,434.0,,,10.0,,KIGQ 170215Z AUTO 27011G16KT 10SM BKN028 OVC043 00/M02 A2993 RMK AO2 T00041025,,,2800.0,,,27.42,25.81,W,29.28,29.57,,Overcast
KIGQ,04/17/2018 02:35 UTC,29.93,32.9,26.6,77.34,13.8,280.0,19.57,,,,,283.0,434.0,,,10.0,,KIGQ 170235Z AUTO 28012G17KT 10SM BKN028 OVC043 01/M03 A2993 RMK AO2 T00051030,,,2800.0,,,26.5,25.61,W,29.28,29.58,,Overcast
KIGQ,04/17/2018 02:55 UTC,29.93,32.72,26.6,77.9,9.22,280.0,17.27,,414.0,,,283.0,343.0,,,10.0,,KIGQ 170255Z AUTO 28008G15KT 10SM BKN028 BKN034 OVC041 00/M03  A2993 RMK AO2 T00041030,,,2800.0,,,26.5,27.3,W,29.28,29.58,,Overcast
KIGQ,04/17/2018 03:15 UTC,29.92,32.54,26.24,77.3,10.36,280.0,,,414.0,,,282.0,343.0,,,10.0,,KIGQ 170315Z AUTO 28009KT 10SM SCT028 BKN034 OVC041 00/M03 A2992 RMK AO2 T00031032,,,3400.0,,,26.14,26.55,W,29.27,29.58,,Overcast
KIGQ,04/17/2018 03:35 UTC,29.93,32.54,25.7,75.59,17.27,280.0,23.02,,,,,282.0,394.0,,,10.0,,KIGQ 170335Z AUTO 28015G20KT 10SM SCT028 OVC039 00/M03 A2993 RMK AO2 T00031035,,,3900.0,,,25.59,24.04,W,29.28,29.6,,Overcast
KIGQ,04/17/2018 03:55 UTC,29.92,32.18,25.7,76.69,9.22,280.0,23.02,,,,,394.0,,,,7.0,,KIGQ 170355Z AUTO 28008G20KT 7SM OVC039 00/M03 A2992 RMK AO2  T00011035,,,3900.0,,,25.6,26.66,W,29.27,29.59,,Overcast
KIGQ,04/17/2018 04:15 UTC,29.92,32.18,25.34,75.55,13.8,290.0,19.57,,,,,394.0,,,,10.0,,KIGQ 170415Z AUTO 29012G17KT 10SM OVC039 00/M04 A2992 RMK AO2  T00011037,,,3900.0,,,25.23,24.72,WNW,29.27,29.59,,Overcast
KIGQ,04/17/2018 04:35 UTC,29.92,32.0,25.16,75.54,11.5,290.0,20.71,,,,,282.0,414.0,,,10.0,,KIGQ 170435Z AUTO 29010G18KT 10SM SCT028 OVC041 00/M04 A2992 RMK AO2 T00001038,,,4100.0,,,25.05,25.4,WNW,29.27,29.6,,Overcast
KIGQ,04/17/2018 04:55 UTC,29.91,32.0,25.34,76.1,12.66,280.0,17.27,,484.0,,,282.0,413.0,,,10.0,,KIGQ 170455Z AUTO 28011G15KT 10SM SCT028 BKN041 OVC048 00/M04  A2991 RMK AO2 T00001037,,,4100.0,,,25.23,24.93,W,29.26,29.58,,Overcast
KIGQ,04/17/2018 05:15 UTC,29.91,32.0,24.98,74.97,12.66,280.0,19.57,,504.0,,,283.0,333.0,,,10.0,,KIGQ 170515Z AUTO 28011G17KT 10SM BKN028 BKN033 OVC050 00/M04  A2991 RMK AO2 T00001039,,,2800.0,,,24.87,24.93,W,29.26,29.59,,Overcast
KIGQ,04/17/2018 05:35 UTC,29.91,32.0,24.8,74.41,11.5,280.0,17.27,,,,,282.0,444.0,,,10.0,,KIGQ 170535Z AUTO 28010G15KT 10SM SCT028 OVC044 00/M04 A2991 RMK AO2 T00001040,,,4400.0,,,24.69,25.4,W,29.26,29.59,,Overcast
KIGQ,04/17/2018 05:55 UTC,29.9,31.64,24.44,74.37,12.66,280.0,18.41,,,,,282.0,484.0,,,10.0,,KIGQ 170555Z AUTO 28011G16KT 10SM SCT028 OVC048 00/M04 A2990 RMK AO2 T10021042 10006 21002 400111023,33.08,31.64,4800.0,33.98,27.86,24.33,24.49,W,29.25,29.59,,Overcast
KIGQ,04/17/2018 06:15 UTC,29.9,31.64,24.08,73.26,16.11,280.0,19.57,,,,,484.0,,,,10.0,,KIGQ 170615Z AUTO 28014G17KT 10SM OVC048 00/M04 A2990 RMK AO2  T10021044,,,4800.0,,,23.96,23.28,W,29.25,29.59,,Overcast
KIGQ,04/17/2018 06:35 UTC,29.9,31.64,23.9,72.71,10.36,290.0,19.57,,484.0,,,312.0,403.0,,,10.0,,KIGQ 170635Z AUTO 29009G17KT 10SM SCT031 BKN040 OVC048 00/M04  A2990 RMK AO2 T10021045,,,4000.0,,,23.78,25.47,WNW,29.25,29.59,,Overcast
KIGQ,04/17/2018 06:55 UTC,29.9,31.1,23.9,74.32,11.5,280.0,19.57,,,,,313.0,503.0,,,10.0,,KIGQ 170655Z AUTO 28010G17KT 10SM BKN031 BKN050 00/M04 A2990 RMK AO2 T10051045,,,3100.0,,,23.79,24.31,W,29.25,29.6,,Mostly Cloudy
KIGQ,04/17/2018 07:15 UTC,29.9,30.56,23.54,74.82,14.97,280.0,18.41,,,,,292.0,502.0,,,10.0,,KIGQ 170715Z AUTO 28013G16KT 10SM SCT029 SCT050 M01/M05 A2990 RMK AO2 T10081047,,,,,,23.43,22.32,W,29.25,29.6,,Partly Cloudy
KIGQ,04/17/2018 07:35 UTC,29.9,30.74,23.72,74.84,11.5,280.0,,,,,,403.0,,,,10.0,,KIGQ 170735Z AUTO 28010KT 10SM BKN040 M01/M05 A2990 RMK AO2  T10071046,,,4000.0,,,23.61,23.88,W,29.25,29.6,,Mostly Cloudy
KIGQ,04/17/2018 07:55 UTC,29.9,30.92,23.72,74.3,11.5,280.0,17.27,,,,,404.0,,,,10.0,,KIGQ 170755Z AUTO 28010G15KT 10SM OVC040 M01/M05 A2990 RMK AO2  T10061046,,,4000.0,,,23.61,24.1,W,29.25,29.6,,Overcast
KIGQ,04/17/2018 08:15 UTC,29.9,30.92,23.9,74.86,12.66,280.0,,,,,,384.0,,,,10.0,,KIGQ 170815Z AUTO 28011KT 10SM OVC038 M01/M04 A2990 RMK AO2  T10061045,,,3800.0,,,23.79,23.62,W,29.25,29.6,,Overcast
KIGQ,04/17/2018 08:35 UTC,29.9,30.92,23.36,73.18,11.5,290.0,19.57,,,,,384.0,,,,10.0,,KIGQ 170835Z AUTO 29010G17KT 10SM OVC038 M01/M05 A2990 RMK AO2  T10061048,,,3800.0,,,23.24,24.1,WNW,29.25,29.6,,Overcast
KIGQ,04/17/2018 08:55 UTC,29.9,31.1,23.18,72.1,12.66,290.0,18.41,,,,,303.0,364.0,,,10.0,,KIGQ 170855Z AUTO 29011G16KT 10SM BKN030 OVC036 00/M05 A2990 RMK AO2 T10051049,,,3000.0,,,23.06,23.84,WNW,29.25,29.6,,Overcast
KIGQ,04/17/2018 09:15 UTC,29.9,30.56,23.0,73.14,13.8,300.0,25.32,,,,,304.0,,,,10.0,,KIGQ 170915Z AUTO 30012G22KT 10SM OVC030 M01/M05 A2990 RMK AO2  T10081050,,,3000.0,,,22.88,22.74,WNW,29.25,29.61,,Overcast
KIGQ,04/17/2018 09:35 UTC,29.91,29.66,22.82,75.3,11.5,300.0,17.27,,,,,302.0,,,,10.0,,KIGQ 170935Z AUTO 30010G15KT 10SM SCT030 M01/M05 A2991 RMK AO2  T10131051,,,,,,22.71,22.57,WNW,29.26,29.63,,Partly Cloudy
KIGQ,04/17/2018 09:55 UTC,29.91,29.3,23.0,77.0,8.05,280.0,,,,,,1.0,,,,10.0,,KIGQ 170955Z AUTO 28007KT 10SM CLR M01/M05 A2991 RMK AO2  T10151050,,,,,,22.9,23.9,W,29.26,29.63,,Clear
KIGQ,04/17/2018 10:15 UTC,29.91,28.94,23.54,79.94,9.22,280.0,,,,,,1.0,,,,10.0,,KIGQ 171015Z AUTO 28008KT 10SM CLR M02/M05 A2991 RMK AO2  T10171047,,,,,,23.45,22.82,W,29.26,29.62,,Clear
KIGQ,04/17/2018 10:35 UTC,29.9,28.76,23.72,81.14,9.22,270.0,,,,,,1.0,,,,10.0,,KIGQ 171035Z AUTO 27008KT 10SM CLR M02/M05 A2990 RMK AO2  T10181046,,,,,,23.64,22.6,W,29.25,29.61,,Clear
KIGQ,04/17/2018 10:55 UTC,29.9,28.4,23.9,82.97,10.36,270.0,,,,,,1.0,,,,10.0,,KIGQ 171055Z AUTO 27009KT 10SM CLR M02/M04 A2990 RMK AO2  T10201045,,,,,,23.82,21.59,W,29.25,29.61,,Clear
KIGQ,04/17/2018 11:15 UTC,29.9,28.4,23.9,82.97,9.22,270.0,,,,,,1.0,,,,10.0,,KIGQ 171115Z AUTO 27008KT 10SM CLR M02/M04 A2990 RMK AO2  T10201045,,,,,,23.82,22.18,W,29.25,29.61,,Clear
KIGQ,04/17/2018 11:35 UTC,29.91,29.12,24.44,82.4,10.36,280.0,,,,,,433.0,,,,10.0,,KIGQ 171135Z AUTO 28009KT 10SM BKN043 M02/M04 A2991 RMK AO2  T10161042,,,4300.0,,,24.36,22.45,W,29.26,29.61,,Mostly Cloudy
KIGQ,04/17/2018 11:55 UTC,29.91,30.2,24.62,79.44,10.36,280.0,19.57,,,,,434.0,,,,10.0,,KIGQ 171155Z AUTO 28009G17KT 10SM OVC043 M01/M04 A2991 RMK AO2  T10101041 11001 21021,31.82,28.22,4300.0,,,24.53,23.74,W,29.26,29.6,,Overcast
KIGQ,04/17/2018 12:15 UTC,29.91,30.2,24.44,78.85,11.5,270.0,17.27,,,,,434.0,,,,10.0,,KIGQ 171215Z AUTO 27010G15KT 10SM OVC043 M01/M04 A2991 RMK AO2  T10101042,,,4300.0,,,24.35,23.23,W,29.26,29.6,,Overcast
KIGQ,04/17/2018 12:35 UTC,29.91,31.46,24.44,74.92,11.5,300.0,18.41,,,,,453.0,,,,10.0,,KIGQ 171235Z AUTO 30010G16KT 10SM BKN045 00/M04 A2991 RMK AO2  T10031042,,,4500.0,,,24.33,24.75,WNW,29.26,29.6,,Mostly Cloudy
KIGQ,04/17/2018 12:55 UTC,29.91,32.0,24.44,73.3,13.8,280.0,23.02,,,,,252.0,452.0,,,10.0,,KIGQ 171255Z AUTO 28012G20KT 10SM SCT025 SCT045 00/M04 A2991 RMK AO2 T00001042,,,,,,24.32,24.5,W,29.26,29.59,,Partly Cloudy
KIGQ,04/17/2018 13:15 UTC,29.91,32.0,24.26,72.75,11.5,300.0,18.41,,,,,273.0,,,,10.0,,KIGQ 171315Z AUTO 30010G16KT 10SM BKN027 00/M04 A2991 RMK AO2  T00001043,,,2700.0,,,24.14,25.4,WNW,29.26,29.6,,Mostly Cloudy
KIGQ,04/17/2018 13:35 UTC,29.91,32.18,24.26,72.22,9.22,310.0,,,,,,293.0,353.0,,,10.0,,KIGQ 171335Z AUTO 31008KT 10SM BKN029 BKN035 00/M04 A2991 RMK AO2  T00011043,,,2900.0,,,24.14,26.66,NW,29.26,29.6,,Mostly Cloudy
KIGQ,04/17/2018 13:55 UTC,29.9,32.9,23.54,68.07,13.8,300.0,,,,,,313.0,384.0,,,10.0,,KIGQ 171355Z AUTO 30012KT 10SM BKN031 OVC038 01/M05 A2990 RMK AO2  T00051047,,,3100.0,,,23.4,25.61,WNW,29.25,29.59,,Overcast
KIGQ,04/17/2018 14:15 UTC,29.9,32.9,23.54,68.07,11.5,300.0,18.41,,,,,334.0,,,,10.0,,KIGQ 171415Z AUTO 30010G16KT 10SM OVC033 01/M05 A2990 RMK AO2  T00051047,,,3300.0,,,23.4,26.49,WNW,29.25,29.59,,Overcast
KIGQ,04/17/2018 14:35 UTC,29.9,33.26,23.36,66.59,8.05,300.0,,,,,,354.0,,,,10.0,,KIGQ 171435Z AUTO 30007KT 10SM OVC035 01/M05 A2990 RMK AO2  T00071048,,,3500.0,,,23.21,28.56,WNW,29.25,29.59,,Overcast
KIGQ,04/17/2018 14:55 UTC,29.9,34.34,23.36,63.77,9.22,310.0,18.41,,,,,374.0,,,,10.0,,KIGQ 171455Z AUTO 31008G16KT 10SM OVC037 01/M05 A2990 RMK AO2  T00131048,,,3700.0,,,23.2,29.23,NW,29.25,29.58,,Overcast
KIGQ,04/17/2018 15:15 UTC,29.91,35.06,23.18,61.5,12.66,320.0,,,,,,394.0,,,,10.0,,KIGQ 171515Z AUTO 32011KT 10SM OVC039 02/M05 A2991 RMK AO2  T00171049,,,3900.0,,,23.01,28.65,NW,29.26,29.59,,Overcast
KIGQ,04/17/2018 15:35 UTC,29.91,34.7,22.82,61.45,11.5,290.0,18.41,,,,,394.0,,,,10.0,,KIGQ 171535Z AUTO 29010G16KT 10SM OVC039 02/M05 A2991 RMK AO2  T00151051,,,3900.0,,,22.65,28.66,WNW,29.26,29.6,,Overcast
KIGQ,04/17/2018 15:55 UTC,29.91,35.6,23.18,60.2,11.5,320.0,17.27,,,,,414.0,,,,10.0,,KIGQ 171555Z AUTO 32010G15KT 10SM OVC041 02/M05 A2991 RMK AO2  T00201049,,,4100.0,,,23.01,29.74,NW,29.26,29.59,,Overcast
KIGQ,04/17/2018 16:15 UTC,29.91,35.6,23.0,59.74,8.05,300.0,,,,,,434.0,,,,10.0,,KIGQ 171615Z AUTO 30007KT 10SM OVC043 02/M05 A2991 RMK AO2  T00201050,,,4300.0,,,22.82,31.3,WNW,29.26,29.59,,Overcast
KIGQ,04/17/2018 16:35 UTC,29.91,35.6,23.0,59.74,8.05,310.0,16.11,,,,,414.0,,,,10.0,,KIGQ 171635Z AUTO 31007G14KT 10SM OVC041 02/M05 A2991 RMK AO2  T00201050,,,4100.0,,,22.82,31.3,NW,29.26,29.59,,Overcast
KIGQ,04/17/2018 16:55 UTC,29.91,36.5,24.08,60.32,8.05,300.0,19.57,,,,,414.0,,,,10.0,,KIGQ 171655Z AUTO 30007G17KT 10SM OVC041 03/M04 A2991 RMK AO2  T00251044,,,4100.0,,,23.91,32.36,WNW,29.26,29.57,,Overcast
KIGQ,04/17/2018 17:15 UTC,29.9,37.22,24.44,59.52,10.36,340.0,,,,,,433.0,,,,10.0,,KIGQ 171715Z AUTO 34009KT 10SM BKN043 03/M04 A2990 RMK AO2  T00291042,,,4300.0,,,24.26,32.15,NNW,29.25,29.56,,Mostly Cloudy
KIGQ,04/17/2018 17:35 UTC,29.91,37.4,23.36,56.49,10.36,320.0,17.27,,,,,433.0,,,,10.0,,KIGQ 171735Z AUTO 32009G15KT 10SM BKN043 03/M05 A2991 RMK AO2  T00301048,,,4300.0,,,23.17,32.37,NW,29.26,29.58,,Mostly Cloudy
KIGQ,04/17/2018 17:55 UTC,29.9,38.48,24.08,55.8,10.36,300.0,19.57,,,,,433.0,503.0,,,10.0,,KIGQ 171755Z AUTO 30009G17KT 10SM BKN043 BKN050 04/M04 A2990 RMK AO2 T00361044 10038 21011,38.84,30.02,4300.0,,,23.89,33.66,WNW,29.25,29.55,,Mostly Cloudy
KIGQ,04/17/2018 18:15 UTC,29.9,39.74,24.62,54.34,5.75,320.0,18.41,,,,,452.0,502.0,,,10.0,,KIGQ 171815Z AUTO 32005G16KT 10SM SCT045 SCT050 04/M04 A2990 RMK AO2 T00431041,,,,,,24.43,,NW,29.25,29.54,,Partly Cloudy
KIGQ,04/17/2018 18:35 UTC,29.9,39.74,25.52,56.42,8.05,330.0,,,,,,453.0,,,,10.0,,KIGQ 171835Z AUTO 33007KT 10SM BKN045 04/M04 A2990 RMK AO2  T00431036,,,4500.0,,,25.34,36.17,NNW,29.25,29.53,,Mostly Cloudy
KIGQ,04/17/2018 18:55 UTC,29.89,40.28,24.98,54.01,8.05,290.0,,,,,,473.0,,,,10.0,,KIGQ 171855Z AUTO 29007KT 10SM BKN047 05/M04 A2989 RMK AO2  T00461039,,,4700.0,,,24.79,36.8,WNW,29.24,29.52,,Mostly Cloudy
KIGQ,04/17/2018 19:15 UTC,29.89,41.54,25.7,53.01,8.05,300.0,,,,,,472.0,,,,10.0,,KIGQ 171915Z AUTO 30007KT 10SM SCT047 05/M03 A2989 RMK AO2  T00531035,,,,,,25.51,38.28,WNW,29.24,29.51,,Partly Cloudy
KIGQ,04/17/2018 19:35 UTC,29.88,42.44,27.32,54.75,11.5,280.0,16.11,,,,,492.0,,,,10.0,,KIGQ 171935Z AUTO 28010G14KT 10SM SCT049 06/M03 A2988 RMK AO2  T00581026,,,,,,27.14,38.0,W,29.23,29.47,,Partly Cloudy
KIGQ,04/17/2018 19:55 UTC,29.88,40.82,28.22,60.49,0.0,0.0,,,,,,493.0,,,,10.0,,KIGQ 171955Z AUTO 00000KT 10SM BKN049 05/M02 A2988 RMK AO2  T00491021,,,4900.0,,,28.06,,N,29.23,29.46,,Mostly Cloudy
KIGQ,04/17/2018 20:15 UTC,29.88,39.38,28.04,63.5,9.22,40.0,,,,,,392.0,493.0,,,10.0,,KIGQ 172015Z AUTO 04008KT 020V090 10SM SCT039 BKN049 04/M02 A2988 RMK AO2 T00411022,,,4900.0,,,27.89,35.21,NE,29.23,29.48,,Mostly Cloudy
KIGQ,04/17/2018 20:35 UTC,29.88,39.2,28.4,64.9,6.91,50.0,,,,,,492.0,,,,10.0,,KIGQ 172035Z AUTO 05006KT 10SM SCT049 04/M02 A2988 RMK AO2  T00401020,,,,,,28.25,,NE,29.23,29.47,,Partly Cloudy
KIGQ,04/17/2018 20:55 UTC,29.89,39.74,28.76,64.49,8.05,360.0,,,,,,452.0,,,,10.0,,KIGQ 172055Z AUTO 36007KT 10SM SCT045 04/M02 A2989 RMK AO2  T00431018,,,,,,28.61,36.17,N,29.24,29.47,,Partly Cloudy
KIGQ,04/17/2018 21:15 UTC,29.88,39.92,28.22,62.64,10.36,60.0,,,,,,452.0,,,,10.0,,KIGQ 172115Z AUTO 06009KT 10SM SCT045 04/M02 A2988 RMK AO2  T00441021,,,,,,28.07,35.38,ENE,29.23,29.47,,Partly Cloudy
KIGQ,04/17/2018 21:35 UTC,29.89,39.38,28.4,64.44,11.5,40.0,,,,,,472.0,,,,10.0,,KIGQ 172135Z AUTO 04010KT 10SM SCT047 04/M02 A2989 RMK AO2  T00411020,,,,,,28.25,34.31,NE,29.24,29.48,,Partly Cloudy
KIGQ,04/17/2018 21:55 UTC,29.89,39.02,28.04,64.4,12.66,60.0,,,,,,1.0,,,,10.0,,KIGQ 172155Z AUTO 06011KT 10SM CLR 04/M02 A2989 RMK AO2  T00391022,,,,,,27.89,33.47,ENE,29.24,29.49,,Clear
KIGQ,04/17/2018 22:15 UTC,29.89,38.12,26.6,62.86,8.05,40.0,,,,,,1.0,,,,10.0,,KIGQ 172215Z AUTO 04007KT 10SM CLR 03/M03 A2989 RMK AO2  T00341030,,,,,,26.44,34.26,NE,29.24,29.51,,Clear
KIGQ,04/17/2018 22:35 UTC,29.9,37.4,26.6,64.66,10.36,70.0,,,,,,1.0,,,,10.0,,KIGQ 172235Z AUTO 07009KT 10SM CLR 03/M03 A2990 RMK AO2  T00301030,,,,,,26.45,32.37,ENE,29.25,29.53,,Clear
KIGQ,04/17/2018 22:55 UTC,29.91,36.68,25.88,64.57,11.5,50.0,17.27,,,,,1.0,,,,10.0,,KIGQ 172255Z AUTO 05010G15KT 10SM CLR 03/M03 A2991 RMK AO2  T00261034,,,,,,25.73,31.05,NE,29.26,29.55,,Clear
KIGQ,04/17/2018 23:15 UTC,29.91,35.78,25.52,65.92,11.5,60.0,,,,,,1.0,,,,10.0,,KIGQ 172315Z AUTO 06010KT 10SM CLR 02/M04 A2991 RMK AO2  T00211036,,,,,,25.37,29.96,ENE,29.26,29.56,,Clear
KIGQ,04/17/2018 23:35 UTC,29.91,35.6,25.34,65.89,8.05,60.0,,,,,,1.0,,,,10.0,,KIGQ 172335Z AUTO 06007KT 10SM CLR 02/M04 A2991 RMK AO2  T00201037,,,,,,25.19,31.3,ENE,29.26,29.56,,Clear
KIGQ,04/17/2018 23:55 UTC,29.91,34.7,25.34,68.29,10.36,60.0,,,,,,1.0,,,,10.0,,KIGQ 172355Z AUTO 06009KT 10SM CLR 02/M04 A2991 RMK AO2 T00151037  10061 20015,42.98,34.7,,,,25.2,29.13,ENE,29.26,29.57,,Clear
KIGQ,04/18/2018 00:15 UTC,29.92,33.98,24.98,69.24,9.22,40.0,,,,,,1.0,,,,10.0,,KIGQ 180015Z AUTO 04008KT 10SM CLR 01/M04 A2992 RMK AO2  T00111039,,,,,,24.85,28.8,NE,29.27,29.59,,Clear
KIGQ,04/18/2018 00:35 UTC,29.92,33.44,24.98,70.75,8.05,60.0,,,,,,1.0,,,,10.0,,KIGQ 180035Z AUTO 06007KT 10SM CLR 01/M04 A2992 RMK AO2  T00081039,,,,,,24.85,28.77,ENE,29.27,29.59,,Clear
KIGQ,04/18/2018 00:55 UTC,29.93,33.08,24.8,71.24,6.91,50.0,,,,,,1.0,,,,10.0,,KIGQ 180055Z AUTO 05006KT 10SM CLR 01/M04 A2993 RMK AO2  T00061040,,,,,,24.67,,NE,29.28,29.6,,Clear
KIGQ,04/18/2018 01:15 UTC,29.93,32.9,24.8,71.76,6.91,60.0,,,,,,1.0,,,,10.0,,KIGQ 180115Z AUTO 06006KT 10SM CLR 01/M04 A2993 RMK AO2  T00051040,,,,,,24.68,,ENE,29.28,29.61,,Clear
KIGQ,04/18/2018 01:35 UTC,29.94,32.9,25.16,72.85,4.61,70.0,,,,,,1.0,,,,10.0,,KIGQ 180135Z AUTO 07004KT 10SM CLR 01/M04 A2994 RMK AO2  T00051038,,,,,,25.04,,ENE,29.29,29.61,,Clear
KIGQ,04/18/2018 01:55 UTC,29.95,32.54,24.98,73.36,3.44,70.0,,,,,,1.0,,,,10.0,,KIGQ 180155Z AUTO 07003KT 10SM CLR 00/M04 A2995 RMK AO2  T00031039,,,,,,24.86,,ENE,29.3,29.63,,Clear
KIGQ,04/18/2018 02:15 UTC,29.95,32.36,24.8,73.34,4.61,70.0,,,,,,1.0,,,,10.0,,KIGQ 180215Z AUTO 07004KT 10SM CLR 00/M04 A2995 RMK AO2  T00021040,,,,,,24.68,,ENE,29.3,29.63,,Clear
KIGQ,04/18/2018 02:35 UTC,29.95,32.0,24.8,74.41,0.0,0.0,,,,,,1.0,,,,10.0,,KIGQ 180235Z AUTO 00000KT 10SM CLR 00/M04 A2995 RMK AO2  T00001040,,,,,,24.69,,N,29.3,29.63,,Clear
KIGQ,04/18/2018 02:55 UTC,29.95,32.0,24.98,74.97,0.0,0.0,,,,,,1.0,,,,10.0,,KIGQ 180255Z AUTO 00000KT 10SM CLR 00/M04 A2995 RMK AO2  T00001039,,,,,,24.87,,N,29.3,29.63,,Clear
KIGQ,04/18/2018 03:15 UTC,29.95,32.0,25.34,76.1,0.0,0.0,,,,,,1.0,,,,10.0,,KIGQ 180315Z AUTO 00000KT 10SM CLR 00/M04 A2995 RMK AO2  T00001037,,,,,,25.23,,N,29.3,29.62,,Clear
KIGQ,04/18/2018 03:35 UTC,29.95,32.0,25.16,75.54,0.0,0.0,,,,,,1.0,,,,10.0,,KIGQ 180335Z AUTO 00000KT 10SM CLR 00/M04 A2995 RMK AO2  T00001038,,,,,,25.05,,N,29.3,29.63,,Clear
KIGQ,04/18/2018 03:55 UTC,29.95,32.0,25.16,75.54,0.0,0.0,,,,,,1.0,,,,10.0,,KIGQ 180355Z AUTO 00000KT 10SM CLR 00/M04 A2995 RMK AO2  T00001038,,,,,,25.05,,N,29.3,29.63,,Clear
KIGQ,04/18/2018 04:15 UTC,29.95,32.0,25.34,76.1,0.0,0.0,,,,,,1.0,,,,10.0,,KIGQ 180415Z AUTO 00000KT 10SM CLR 00/M04 A2995 RMK AO2  T00001037,,,,,,25.23,,N,29.3,29.62,,Clear
KIGQ,04/18/2018 04:35 UTC,29.95,32.0,25.52,76.68,0.0,0.0,,,,,,1.0,,,,10.0,,KIGQ 180435Z AUTO 00000KT 10SM CLR 00/M04 A2995 RMK AO2  T00001036,,,,,,25.42,,N,29.3,29.62,,Clear
KIGQ,04/18/2018 04:55 UTC,29.95,31.1,25.7,80.12,0.0,0.0,,,,,,1.0,,,,10.0,,KIGQ 180455Z AUTO 00000KT 10SM CLR 00/M03 A2995 RMK AO2  T10051035,,,,,,25.61,,N,29.3,29.63,,Clear
KIGQ,04/18/2018 05:15 UTC,29.95,29.66,24.98,82.44,0.0,0.0,,,,,,1.0,,,,10.0,,KIGQ 180515Z AUTO 00000KT 10SM CLR M01/M04 A2995 RMK AO2  T10131039,,,,,,24.9,,N,29.3,29.64,,Clear
KIGQ,04/18/2018 05:35 UTC,29.95,30.74,25.7,81.3,0.0,0.0,,,,,,1.0,,,,10.0,,KIGQ 180535Z AUTO 00000KT 10SM CLR M01/M03 A2995 RMK AO2  T10071035,,,,,,25.62,,N,29.3,29.63,,Clear
KIGQ,04/18/2018 05:55 UTC,29.94,28.76,25.7,88.13,0.0,0.0,,,,,,1.0,,,,10.0,,KIGQ 180555Z AUTO 00000KT 10SM CLR M02/M03 A2994 RMK AO2 T10181035  10015 21019 400611021,34.7,28.58,,42.98,28.22,25.65,,N,29.29,29.63,,Clear
KIGQ,04/18/2018 06:15 UTC,29.94,30.2,25.7,83.1,0.0,0.0,,,,,,1.0,,,,10.0,,KIGQ 180615Z AUTO 00000KT 10SM CLR M01/M03 A2994 RMK AO2  T10101035,,,,,,25.63,,N,29.29,29.62,,Clear
KIGQ,04/18/2018 06:35 UTC,29.93,29.84,25.7,84.33,0.0,0.0,,,,,,1.0,,,,10.0,,KIGQ 180635Z AUTO 00000KT 10SM CLR M01/M03 A2993 RMK AO2  T10121035,,,,,,25.63,,N,29.28,29.61,,Clear
KIGQ,04/18/2018 06:55 UTC,29.92,29.12,25.7,86.84,4.61,90.0,,,,,,1.0,,,,10.0,,KIGQ 180655Z AUTO 09004KT 10SM CLR M02/M03 A2992 RMK AO2  T10161035,,,,,,25.64,,E,29.27,29.61,,Clear
KIGQ,04/18/2018 07:15 UTC,29.92,29.3,25.7,86.21,0.0,0.0,,,,,,1.0,,,,10.0,,KIGQ 180715Z AUTO 00000KT 10SM CLR M01/M03 A2992 RMK AO2  T10151035,,,,,,25.64,,N,29.27,29.61,,Clear
KIGQ,04/18/2018 07:35 UTC,29.92,30.02,26.06,84.97,0.0,0.0,,,,,,1.0,,,,10.0,,KIGQ 180735Z AUTO 00000KT 10SM CLR M01/M03 A2992 RMK AO2  T10111033,,,,,,25.99,,N,29.27,29.6,,Clear
KIGQ,04/18/2018 07:55 UTC,29.92,26.6,24.8,92.79,3.44,180.0,,,,,,1.0,,,,10.0,,KIGQ 180755Z AUTO 18003KT 10SM CLR M03/M04 A2992 RMK AO2  T10301040,,,,,,24.77,,S,29.27,29.63,,Clear
KIGQ,04/18/2018 08:15 UTC,29.91,27.14,24.98,91.42,0.0,0.0,,,,,,1.0,,,,10.0,,KIGQ 180815Z AUTO 00000KT 10SM CLR M03/M04 A2991 RMK AO2  T10271039,,,,,,24.94,,N,29.26,29.62,,Clear
KIGQ,04/18/2018 08:35 UTC,29.91,27.32,25.16,91.43,0.0,0.0,,,,,,1.0,,,,10.0,,KIGQ 180835Z AUTO 00000KT 10SM CLR M03/M04 A2991 RMK AO2  T10261038,,,,,,25.12,,N,29.26,29.61,,Clear
KIGQ,04/18/2018 08:55 UTC,29.91,27.5,25.7,92.82,0.0,0.0,,,,,,1.0,,,,10.0,,KIGQ 180855Z AUTO 00000KT 10SM CLR M02/M03 A2991 RMK AO2  T10251035,,,,,,25.67,,N,29.26,29.61,,Clear
KIGQ,04/18/2018 09:15 UTC,29.9,28.04,25.7,90.78,0.0,0.0,,,,,,1.0,,,,10.0,,KIGQ 180915Z AUTO 00000KT 10SM CLR M02/M03 A2990 RMK AO2  T10221035,,,,,,25.66,,N,29.25,29.59,,Clear
KIGQ,04/18/2018 09:35 UTC,29.9,28.04,25.52,90.1,0.0,0.0,,,,,,1.0,,,,10.0,,KIGQ 180935Z AUTO 00000KT 10SM CLR M02/M04 A2990 RMK AO2  T10221036,,,,,,25.48,,N,29.25,29.59,,Clear
KIGQ,04/18/2018 09:55 UTC,29.89,27.5,25.52,92.13,4.61,110.0,,,,,,1.0,,,,10.0,,KIGQ 180955Z AUTO 11004KT 10SM CLR M02/M04 A2989 RMK AO2  T10251036,,,,,,25.49,,ESE,29.24,29.59,,Clear
KIGQ,04/18/2018 10:15 UTC,29.88,28.4,25.7,89.45,5.75,100.0,,,,,,1.0,,,,10.0,,KIGQ 181015Z AUTO 10005KT 10SM CLR M02/M03 A2988 RMK AO2  T10201035,,,,,,25.65,,E,29.23,29.57,,Clear
KIGQ,04/18/2018 10:35 UTC,29.88,28.76,25.52,87.48,4.61,120.0,,,,,,1.0,,,,10.0,,KIGQ 181035Z AUTO 12004KT 10SM CLR M02/M04 A2988 RMK AO2 LTG DSNT  W T10181036,,,,,,25.47,,ESE,29.23,29.57,,Clear
KIGQ,04/18/2018 10:55 UTC,29.88,28.58,25.34,87.47,5.75,120.0,,,,,,1.0,,,,10.0,,KIGQ 181055Z AUTO 12005KT 10SM CLR M02/M04 A2988 RMK AO2  T10191037,,,,,,25.29,,ESE,29.23,29.57,,Clear
KIGQ,04/18/2018 11:15 UTC,29.88,29.84,26.06,85.6,0.0,0.0,,,,,,653.0,,,,10.0,,KIGQ 181115Z AUTO 00000KT 10SM BKN065 M01/M03 A2988 RMK AO2  T10121033,,,6500.0,,,26.0,,N,29.23,29.56,,Mostly Cloudy
KIGQ,04/18/2018 11:35 UTC,29.87,30.38,26.42,85.0,5.75,100.0,,,,,,654.0,,,,10.0,,KIGQ 181135Z AUTO 10005KT 10SM OVC065 M01/M03 A2987 RMK AO2  T10091031,,,6500.0,,,26.36,,E,29.22,29.54,,Overcast
KIGQ,04/18/2018 11:55 UTC,29.86,31.1,26.42,82.55,9.22,100.0,,,,,,652.0,704.0,,,10.0,,KIGQ 181155Z AUTO 10008KT 10SM SCT065 OVC070 00/M03 A2986 RMK AO2  T10051031 11005 21041,31.1,24.62,7000.0,,,26.34,25.38,E,29.21,29.53,,Overcast
KIGQ,04/18/2018 12:15 UTC,29.87,31.64,26.6,81.37,8.05,120.0,,,,,,654.0,,,,10.0,,KIGQ 181215Z AUTO 12007KT 10SM OVC065 00/M03 A2987 RMK AO2  T10021030,,,6500.0,,,26.52,26.65,ESE,29.22,29.53,,Overcast
KIGQ,04/18/2018 12:35 UTC,29.86,32.0,26.78,80.79,10.36,110.0,,,,,,654.0,,,,10.0,,KIGQ 181235Z AUTO 11009KT 10SM OVC065 00/M03 A2986 RMK AO2  T00001029,,,6500.0,,,26.7,25.9,ESE,29.21,29.52,,Overcast
KIGQ,04/18/2018 12:55 UTC,29.86,32.54,26.78,79.05,10.36,110.0,,,,,,653.0,,,,10.0,,KIGQ 181255Z AUTO 11009KT 10SM BKN065 00/M03 A2986 RMK AO2  T00031029,,,6500.0,,,26.69,26.55,ESE,29.21,29.51,,Mostly Cloudy
KIGQ,04/18/2018 13:15 UTC,29.86,33.8,26.78,75.15,13.8,110.0,,,,,,652.0,,,,10.0,,KIGQ 181315Z AUTO 11012KT 10SM SCT065 01/M03 A2986 RMK AO2  T00101029,,,,,,26.67,26.71,ESE,29.21,29.5,,Partly Cloudy
KIGQ,04/18/2018 13:35 UTC,29.85,34.7,27.32,74.14,14.97,100.0,18.41,,,,,502.0,653.0,,,10.0,,KIGQ 181335Z AUTO 10013G16KT 10SM SCT050 BKN065 02/M03 A2985 RMK AO2 T00151026,,,6500.0,,,27.21,27.42,E,29.2,29.48,,Mostly Cloudy
KIGQ,04/18/2018 13:55 UTC,29.84,34.88,27.5,74.15,13.8,100.0,18.41,,,,,504.0,,,,10.0,,KIGQ 181355Z AUTO 10012G16KT 10SM OVC050 02/M02 A2984 RMK AO2  T00161025,,,5000.0,,,27.39,28.03,E,29.19,29.47,,Overcast
KIGQ,04/18/2018 14:15 UTC,29.82,35.78,27.86,72.62,13.8,80.0,,,,,,504.0,,,,10.0,,KIGQ 181415Z AUTO 08012KT 10SM OVC050 02/M02 A2982 RMK AO2  T00211023,,,5000.0,,,27.74,29.13,E,29.17,29.44,,Overcast
KIGQ,04/18/2018 14:35 UTC,29.83,35.06,26.96,72.0,11.5,80.0,,,,,,504.0,,,,10.0,,KIGQ 181435Z AUTO 08010KT 10SM OVC050 02/M03 A2983 RMK AO2  T00171028,,,5000.0,,,26.84,29.09,E,29.18,29.46,,Overcast
KIGQ,04/18/2018 14:55 UTC,29.81,35.78,27.32,71.02,12.66,90.0,,,,,,464.0,,,,10.0,,KIGQ 181455Z AUTO 09011KT 10SM OVC046 02/M03 A2981 RMK AO2  T00211026,,,4600.0,,,27.2,29.53,E,29.16,29.43,,Overcast
KIGQ,04/18/2018 15:15 UTC,29.8,36.5,27.5,69.54,14.97,80.0,18.41,,,,,424.0,,,,10.0,,KIGQ 181515Z AUTO 08013G16KT 10SM OVC042 03/M02 A2980 RMK AO2  T00251025,,,4200.0,,,27.37,29.64,E,29.15,29.42,,Overcast
KIGQ,04/18/2018 15:35 UTC,29.8,36.5,27.5,69.54,13.8,90.0,19.57,,,,,424.0,,,,10.0,,KIGQ 181535Z AUTO 09012G17KT 10SM OVC042 03/M02 A2980 RMK AO2  T00251025,,,4200.0,,,27.37,30.01,E,29.15,29.42,,Overcast
KIGQ,04/18/2018 15:55 UTC,29.79,37.4,29.3,72.26,13.8,100.0,,,,,,444.0,,,,10.0,,KIGQ 181555Z AUTO 10012KT 10SM OVC044 03/M01 A2979 RMK AO2  T00301015,,,4400.0,,,29.18,31.12,E,29.14,29.38,,Overcast
KIGQ,04/18/2018 16:15 UTC,29.78,37.76,28.22,68.16,12.66,100.0,18.41,,,,,464.0,,,,10.0,,KIGQ 181615Z AUTO 10011G16KT 10SM OVC046 03/M02 A2978 RMK AO2  T00321021,,,4600.0,,,28.09,31.94,E,29.13,29.38,,Overcast
KIGQ,04/18/2018 16:35 UTC,29.78,37.58,28.58,69.66,9.22,70.0,,,,,,444.0,,,,10.0,,KIGQ 181635Z AUTO 07008KT 10SM OVC044 03/M02 A2978 RMK AO2  T00311019,,,4400.0,,,28.45,33.07,ENE,29.13,29.38,,Overcast
KIGQ,04/18/2018 16:55 UTC,29.77,37.4,27.86,68.12,9.22,60.0,,,,,,464.0,,,,10.0,,KIGQ 181655Z AUTO 06008KT 10SM OVC046 03/M02 A2977 RMK AO2  T00301023,,,4600.0,,,27.73,32.86,ENE,29.12,29.38,,Overcast
KIGQ,04/18/2018 17:15 UTC,29.76,37.4,28.04,68.62,9.22,60.0,17.27,,,,,464.0,,,,10.0,,KIGQ 181715Z AUTO 06008G15KT 10SM OVC046 03/M02 A2976 RMK AO2  T00301022,,,4600.0,,,27.91,32.86,ENE,29.11,29.36,,Overcast
KIGQ,04/18/2018 17:35 UTC,29.74,35.96,30.02,78.77,16.11,60.0,20.71,,,,,444.0,,,,10.0,,KIGQ 181735Z AUTO 06014G18KT 10SM OVC044 02/M01 A2974 RMK AO2  T00221011,,,4400.0,,,29.93,28.63,ENE,29.09,29.32,,Overcast
KIGQ,04/18/2018 17:55 UTC,29.73,35.78,30.02,79.33,14.97,40.0,19.57,,,,,404.0,,,,10.0,,KIGQ 181755Z AUTO 04013G17KT 10SM OVC040 02/M01 A2973 RMK AO2  T00211011 10033 21005,37.94,31.1,4000.0,,,29.93,28.75,NE,29.08,29.32,,Overcast
KIGQ,04/18/2018 18:15 UTC,29.72,36.32,30.38,78.8,12.66,60.0,21.85,,,,,404.0,,,,10.0,,KIGQ 181815Z AUTO 06011G19KT 10SM OVC040 02/M01 A2972 RMK AO2  T00241009,,,4000.0,,,30.29,30.18,ENE,29.07,29.3,,Overcast
KIGQ,04/18/2018 18:35 UTC,29.74,36.5,30.56,78.82,10.36,30.0,,,,,,384.0,,,,10.0,,KIGQ 181835Z AUTO 03009KT 10SM OVC038 03/M01 A2974 RMK AO2  T00251008,,,3800.0,,,30.47,31.29,NNE,29.09,29.31,,Overcast
KIGQ,04/18/2018 18:55 UTC,29.76,36.86,31.28,80.01,8.05,20.0,,,,,,384.0,,,,10.0,,KIGQ 181855Z AUTO 02007KT 10SM OVC038 03/00 A2976 RMK AO2  T00271004,,,3800.0,,,31.2,32.78,NNE,29.11,29.32,,Overcast
KIGQ,04/18/2018 19:15 UTC,29.78,36.14,30.92,81.12,9.22,30.0,,13.0,,,,404.0,,,,10.0,,KIGQ 181915Z AUTO 03008KT 10SM -RA OVC040 02/M01 A2978 RMK AO2  T00231006,,,4000.0,,,30.84,31.36,NNE,29.13,29.35,,Light Rain
KIGQ,04/18/2018 19:35 UTC,29.77,36.5,31.82,82.94,9.22,10.0,,,,,,384.0,,,,10.0,,KIGQ 181935Z AUTO 01008KT 10SM OVC038 03/00 A2977 RMK AO2  T00251001,,,3800.0,,,31.75,31.79,N,29.12,29.32,,Overcast
KIGQ,04/18/2018 19:55 UTC,29.77,36.5,32.0,83.55,8.05,30.0,,,,,,364.0,,,,10.0,,KIGQ 181955Z AUTO 03007KT 10SM OVC036 03/00 A2977 RMK AO2  T00250000,,,3600.0,,,31.93,32.36,NNE,29.12,29.32,,Overcast
KIGQ,04/18/2018 20:15 UTC,29.77,35.78,31.82,85.34,9.22,40.0,,,344.0,,,172.0,232.0,,,10.0,,KIGQ 182015Z AUTO 04008KT 10SM SCT017 SCT023 OVC034 02/00 A2977 RMK AO2 T00211001,,,3400.0,,,31.76,30.93,NE,29.12,29.33,,Overcast
KIGQ,04/18/2018 20:35 UTC,29.77,35.78,31.64,84.72,12.66,40.0,,,,,,282.0,334.0,,,10.0,,KIGQ 182035Z AUTO 04011KT 10SM SCT028 OVC033 02/00 A2977 RMK AO2  T00211002,,,3300.0,,,31.57,29.53,NE,29.12,29.33,,Overcast
KIGQ,04/18/2018 20:55 UTC,29.77,35.6,31.82,85.95,11.5,50.0,,,,,,253.0,314.0,,,10.0,,KIGQ 182055Z AUTO 05010KT 10SM BKN025 OVC031 02/00 A2977 RMK AO2  T00201001,,,2500.0,,,31.76,29.74,NE,29.12,29.33,,Overcast
KIGQ,04/18/2018 21:15 UTC,29.78,35.6,32.0,86.58,8.05,30.0,,,314.0,,,213.0,253.0,,,10.0,,KIGQ 182115Z AUTO 03007KT 10SM BKN021 BKN025 OVC031 02/00 A2978 RMK AO2 T00200000,,,2100.0,,,31.94,31.3,NNE,29.13,29.34,,Overcast
KIGQ,04/18/2018 21:35 UTC,29.79,35.06,32.18,89.1,8.05,10.0,,,,,,143.0,194.0,,,10.0,,KIGQ 182135Z AUTO 01007KT 10SM BKN014 OVC019 02/00 A2979 RMK AO2  T00170001,,,1400.0,,,32.13,30.67,N,29.14,29.35,,Overcast
KIGQ,04/18/2018 21:55 UTC,29.8,34.7,33.26,94.4,5.75,10.0,,1.0,,,,144.0,,,,3.0,,KIGQ 182155Z AUTO 01005KT 3SM RA OVC014 02/01 A2980 RMK AO2  T00150007,,,1400.0,,,33.24,,N,29.15,29.34,,Rain
KIGQ,04/18/2018 22:15 UTC,29.81,34.7,33.8,96.47,6.91,360.0,,1.0,,,,83.0,124.0,,,3.0,,KIGQ 182215Z AUTO 36006KT 3SM RA BKN008 OVC012 02/01 A2981 RMK AO2  T00150010,,,800.0,,,33.79,,N,29.16,29.34,,Rain
KIGQ,04/18/2018 22:35 UTC,29.82,33.98,33.8,99.28,9.22,10.0,,2.0,,,,84.0,,,,3.0,,KIGQ 182235Z AUTO 01008KT 3SM DZ OVC008 01/01 A2982 RMK AO2  T00110010,,,800.0,,,33.8,28.8,N,29.17,29.36,,Drizzle
KIGQ,04/18/2018 22:55 UTC,29.82,33.98,33.98,100.0,6.91,20.0,,2.0,,,,64.0,,,,2.5,,KIGQ 182255Z AUTO 02006KT 2 1/2SM DZ OVC006 01/01 A2982 RMK AO2  T00110011,,,600.0,,,33.98,,NNE,29.17,29.36,,Drizzle
KIGQ,04/18/2018 23:15 UTC,29.82,33.8,33.8,100.0,6.91,360.0,,2.0,,,,64.0,,,,3.0,,KIGQ 182315Z AUTO 36006KT 3SM DZ OVC006 01/01 A2982 RMK AO2  T00100010,,,600.0,,,33.8,,N,29.17,29.36,,Drizzle
KIGQ,04/18/2018 23:35 UTC,29.83,33.98,33.98,100.0,5.75,360.0,,2.0,,,,64.0,,,,3.0,,KIGQ 182335Z AUTO 36005KT 3SM DZ OVC006 01/01 A2983 RMK AO2  T00110011,,,600.0,,,33.98,,N,29.18,29.37,,Drizzle
KIGQ,04/18/2018 23:55 UTC,29.84,33.8,33.8,100.0,0.0,0.0,,2.0,,,,64.0,,,,2.0,,KIGQ 182355Z AUTO 00000KT 2SM DZ OVC006 01/01 A2984 RMK AO2  T00100010 10027 20010,36.86,33.8,600.0,,,33.8,,N,29.19,29.38,,Drizzle
KIGQ,04/19/2018 00:15 UTC,29.85,33.8,33.8,100.0,4.61,340.0,,2.0,,,,44.0,,,,2.5,,KIGQ 190015Z AUTO 34004KT 2 1/2SM DZ OVC004 01/01 A2985 RMK AO2  VIS 2V4 T00100010,,,400.0,,,33.8,,NNW,29.2,29.39,,Drizzle
KIGQ,04/19/2018 00:35 UTC,29.86,33.8,33.8,100.0,3.44,330.0,,1.0,,,,64.0,,,,2.5,,KIGQ 190035Z AUTO 33003KT 2 1/2SM RA OVC006 01/01 A2986 RMK AO2  T00100010,,,600.0,,,33.8,,NNW,29.21,29.4,,Rain
KIGQ,04/19/2018 00:55 UTC,29.86,33.8,33.8,100.0,5.75,320.0,,18.0,,,,64.0,,,,2.5,,KIGQ 190055Z AUTO 32005KT 2 1/2SM +DZ OVC006 01/01 A2986 RMK AO2  T00100010,,,600.0,,,33.8,,NW,29.21,29.4,,Heavy Drizzle
KIGQ,04/19/2018 01:15 UTC,29.87,33.8,33.8,100.0,6.91,320.0,,14.0,,,,64.0,,,,2.5,,KIGQ 190115Z AUTO 32006KT 2 1/2SM +RA OVC006 01/01 A2987 RMK AO2  T00100010,,,600.0,,,33.8,,NW,29.22,29.41,,Heavy Rain
KIGQ,04/19/2018 01:35 UTC,29.88,33.26,33.26,100.0,5.75,320.0,,13.0,,,,44.0,,,,2.5,,KIGQ 190135Z AUTO 32005KT 2 1/2SM -RA OVC004 01/01 A2988 RMK AO2  T00070007,,,400.0,,,33.26,,NW,29.23,29.43,,Light Rain
KIGQ,04/19/2018 01:55 UTC,29.89,32.9,32.9,100.0,3.44,300.0,,14.0,,,,44.0,,,,2.5,,KIGQ 190155Z AUTO 30003KT 2 1/2SM +RA OVC004 01/01 A2989 RMK AO2  T00050005,,,400.0,,,32.9,,WNW,29.24,29.45,,Heavy Rain
KIGQ,04/19/2018 02:15 UTC,29.89,32.9,32.9,100.0,6.91,300.0,,13.0,,,,44.0,,,,2.5,,KIGQ 190215Z AUTO 30006KT 2 1/2SM -RA OVC004 01/01 A2989 RMK AO2  T00050005,,,400.0,,,32.9,,WNW,29.24,29.45,,Light Rain
KIGQ,04/19/2018 02:35 UTC,29.9,32.9,32.9,100.0,6.91,300.0,,20.0,,,,44.0,,,,3.0,,KIGQ 190235Z AUTO 30006KT 3SM -SN OVC004 01/01 A2990 RMK AO2  T00050005,,,400.0,,,32.9,,WNW,29.25,29.46,,Light Snow
KIGQ,04/19/2018 02:55 UTC,29.9,32.9,32.9,100.0,8.05,300.0,,17.0,,,,44.0,,,,4.0,,KIGQ 190255Z AUTO 30007KT 4SM -DZ OVC004 01/01 A2990 RMK AO2  T00050005,,,400.0,,,32.9,28.13,WNW,29.25,29.46,,Light Drizzle
KIGQ,04/19/2018 03:15 UTC,29.9,33.08,33.08,100.0,8.05,320.0,,2.0,,,,64.0,,,,4.0,,KIGQ 190315Z AUTO 32007KT 4SM DZ OVC006 01/01 A2990 RMK AO2  T00060006,,,600.0,,,33.08,28.34,NW,29.25,29.46,,Drizzle
KIGQ,04/19/2018 03:35 UTC,29.9,33.08,33.08,100.0,8.05,310.0,,17.0,,,,64.0,,,,4.0,,KIGQ 190335Z AUTO 31007KT 4SM -DZ OVC006 01/01 A2990 RMK AO2  T00060006,,,600.0,,,33.08,28.34,NW,29.25,29.46,,Light Drizzle
KIGQ,04/19/2018 03:55 UTC,29.91,32.9,32.9,100.0,8.05,300.0,,13.0,,,,64.0,,,,4.0,,KIGQ 190355Z AUTO 30007KT 4SM -RA OVC006 01/01 A2991 RMK AO2  T00050005,,,600.0,,,32.9,28.13,WNW,29.26,29.47,,Light Rain
KIGQ,04/19/2018 04:15 UTC,29.92,32.9,32.9,100.0,10.36,310.0,,20.0,,,,64.0,,,,3.0,,KIGQ 190415Z AUTO 31009KT 3SM -SN OVC006 01/01 A2992 RMK AO2  T00050005,,,600.0,,,32.9,26.98,NW,29.27,29.48,,Light Snow
KIGQ,04/19/2018 04:35 UTC,29.92,32.36,32.36,100.0,8.05,300.0,,20.0,,,,64.0,,,,1.75,,KIGQ 190435Z AUTO 30007KT 1 3/4SM -SN OVC006 00/00 A2992 RMK AO2  T00020002,,,600.0,,,32.36,27.5,WNW,29.27,29.5,,Light Snow
KIGQ,04/19/2018 04:55 UTC,29.93,32.18,32.18,100.0,8.05,310.0,,20.0,,0.02,,44.0,,,,0.75,,KIGQ 190455Z AUTO 31007KT 3/4SM -SN OVC004 00/00 A2993 RMK AO2  P0002 T00010001,,,400.0,,,32.18,27.29,NW,29.28,29.51,,Light Snow
KIGQ,04/19/2018 05:15 UTC,29.94,32.18,32.18,100.0,9.22,310.0,,20.0,,0.01,,44.0,,,,0.75,,KIGQ 190515Z AUTO 31008KT 3/4SM -SN OVC004 00/00 A2994 RMK AO2  P0001 T00010001,,,400.0,,,32.18,26.66,NW,29.29,29.52,,Light Snow
KIGQ,04/19/2018 05:35 UTC,29.95,32.18,32.18,100.0,8.05,320.0,,3.0,,0.02,,44.0,,,,0.75,,KIGQ 190535Z AUTO 32007KT 3/4SM SN OVC004 00/00 A2995 RMK AO2  P0002 T00010001,,,400.0,,,32.18,27.29,NW,29.3,29.53,,Snow
KIGQ,04/19/2018 05:55 UTC,29.96,32.0,32.0,100.0,8.05,320.0,,3.0,,0.03,,44.0,,0.05,,0.75,,KIGQ 190555Z AUTO 32007KT 3/4SM SN OVC004 00/00 A2996 RMK AO2  P0003 60005 T00000000 10010 20000 400331041,33.8,32.0,400.0,37.94,24.62,32.0,27.08,NW,29.31,29.54,,Snow
KIGQ,04/19/2018 06:15 UTC,29.97,32.0,32.0,100.0,5.75,330.0,,20.0,,0.01,,44.0,,,,1.25,,KIGQ 190615Z AUTO 33005KT 1 1/4SM -SN OVC004 00/00 A2997 RMK AO2  P0001 T00000000,,,400.0,,,32.0,,NNW,29.32,29.56,,Light Snow
KIGQ,04/19/2018 06:35 UTC,29.98,32.18,32.18,100.0,6.91,330.0,,20.0,,0.02,,44.0,,,,2.0,,KIGQ 190635Z AUTO 33006KT 2SM -SN OVC004 00/00 A2998 RMK AO2 P0002  T00010001,,,400.0,,,32.18,,NNW,29.33,29.56,,Light Snow
KIGQ,04/19/2018 06:55 UTC,29.99,32.72,32.72,100.0,8.05,350.0,,20.0,,0.02,,44.0,,,,4.0,,KIGQ 190655Z AUTO 35007KT 4SM -SN OVC004 00/00 A2999 RMK AO2 P0002  T00040004,,,400.0,,,32.72,27.92,N,29.34,29.56,,Light Snow
KIGQ,04/19/2018 07:15 UTC,30.0,33.8,33.8,100.0,8.05,360.0,,20.0,,,,64.0,,,,7.0,,KIGQ 190715Z AUTO 36007KT 7SM -SN OVC006 01/01 A3000 RMK AO2  T00100010,,,600.0,,,33.8,29.19,N,29.35,29.54,,Light Snow
KIGQ,04/19/2018 07:35 UTC,30.01,34.16,34.16,100.0,8.05,10.0,17.27,41.0,,,,63.0,124.0,,,10.0,,KIGQ 190735Z AUTO 01007G15KT 10SM UP BKN006 OVC012 01/01 A3001 RMK AO2 T00120012,,,600.0,,,34.16,29.61,N,29.36,29.55,,Unknown Precip
KIGQ,04/19/2018 07:55 UTC,30.02,34.16,34.16,100.0,10.36,10.0,,13.0,,,,83.0,124.0,,,10.0,,KIGQ 190755Z AUTO 01009KT 10SM -RA BKN008 OVC012 01/01 A3002 RMK AO2 T00120012,,,800.0,,,34.16,28.49,N,29.37,29.56,,Light Rain
KIGQ,04/19/2018 08:15 UTC,30.03,34.7,33.98,97.17,18.41,20.0,24.16,13.0,,,,93.0,134.0,,,10.0,,KIGQ 190815Z AUTO 02016G21KT 10SM -RA BKN009 OVC013 02/01 A3003 RMK AO2 T00150011,,,900.0,,,33.97,26.42,NNE,29.38,29.57,,Light Rain
KIGQ,04/19/2018 08:35 UTC,30.05,34.7,33.8,96.47,11.5,10.0,19.57,13.0,,,,114.0,,,,10.0,,KIGQ 190835Z AUTO 01010G17KT 10SM -RA OVC011 02/01 A3005 RMK AO2  T00150010,,,1100.0,,,33.79,28.66,N,29.4,29.59,,Light Rain
KIGQ,04/19/2018 08:55 UTC,30.06,34.7,33.98,97.17,9.22,10.0,,13.0,,,0.02,133.0,184.0,,,10.0,,KIGQ 190855Z AUTO 01008KT 10SM -RA BKN013 OVC018 02/01 A3006 RMK AO2 60002 T00150011,,,1300.0,,,33.97,29.65,N,29.41,29.6,,Light Rain
KIGQ,04/19/2018 09:15 UTC,30.07,34.7,34.16,97.87,8.05,10.0,,,,,,133.0,184.0,,,10.0,,KIGQ 190915Z AUTO 01007KT 10SM BKN013 OVC018 02/01 A3007 RMK AO2  T00150012,,,1300.0,,,34.15,30.25,N,29.42,29.6,,Overcast
KIGQ,04/19/2018 09:35 UTC,30.08,34.88,33.8,95.78,6.91,10.0,,,1104.0,,,152.0,553.0,,,10.0,,KIGQ 190935Z AUTO 01006KT 10SM SCT015 BKN055 OVC110 02/01 A3008 RMK AO2 T00160010,,,5500.0,,,33.78,,N,29.43,29.62,,Overcast
KIGQ,04/19/2018 09:55 UTC,30.09,34.88,34.16,97.17,5.75,360.0,,,,,,133.0,554.0,,,10.0,,KIGQ 190955Z AUTO 36005KT 10SM BKN013 OVC055 02/01 A3009 RMK AO2  T00160012,,,1300.0,,,34.15,,N,29.44,29.62,,Overcast
KIGQ,04/19/2018 10:15 UTC,30.11,34.88,34.34,97.87,8.05,350.0,,,,,,114.0,,,,10.0,,KIGQ 191015Z AUTO 35007KT 10SM OVC011 02/01 A3011 RMK AO2  T00160013,,,1100.0,,,34.33,30.46,N,29.46,29.64,,Overcast
KIGQ,04/19/2018 10:35 UTC,30.12,35.06,34.34,97.17,10.36,360.0,,,,,,133.0,,,,10.0,,KIGQ 191035Z AUTO 36009KT 10SM BKN013 02/01 A3012 RMK AO2  T00170013,,,1300.0,,,34.33,29.56,N,29.47,29.65,,Mostly Cloudy
KIGQ,04/19/2018 10:55 UTC,30.14,35.06,33.98,95.78,5.75,360.0,,,,,,132.0,,,,10.0,,KIGQ 191055Z AUTO 36005KT 10SM SCT013 02/01 A3014 RMK AO2  T00170011,,,,,,33.96,,N,29.48,29.67,,Partly Cloudy
KIGQ,04/19/2018 11:15 UTC,30.16,34.88,33.8,95.78,9.22,350.0,,,,,,132.0,,,,10.0,,KIGQ 191115Z AUTO 35008KT 10SM SCT013 02/01 A3016 RMK AO2  T00160010,,,,,,33.78,29.87,N,29.5,29.69,,Partly Cloudy
KIGQ,04/19/2018 11:35 UTC,30.17,35.06,33.8,95.1,9.22,360.0,,,,,,132.0,,,,10.0,,KIGQ 191135Z AUTO 36008KT 10SM SCT013 02/01 A3017 RMK AO2  T00170010,,,,,,33.78,30.08,N,29.51,29.7,,Partly Cloudy
KIGQ,04/19/2018 11:55 UTC,30.19,35.06,33.62,94.41,8.05,350.0,,,,,,132.0,,0.02,0.07,10.0,,KIGQ 191155Z AUTO 35007KT 10SM SCT013 02/01 A3019 RMK AO2 60002  70007 T00170009 10017 20000,35.06,32.0,,,,33.6,30.67,N,29.53,29.72,,Partly Cloudy
KIGQ,04/19/2018 12:15 UTC,30.2,35.6,33.44,91.74,8.05,360.0,,,,,,1.0,,,,10.0,,KIGQ 191215Z AUTO 36007KT 10SM CLR 02/01 A3020 RMK AO2  T00200008,,,,,,33.4,31.3,N,29.54,29.73,,Clear
KIGQ,04/19/2018 12:35 UTC,30.21,36.5,33.08,87.26,8.05,360.0,,,,,,1.0,,,,10.0,,KIGQ 191235Z AUTO 36007KT 10SM CLR 03/01 A3021 RMK AO2  T00250006,,,,,,33.03,32.36,N,29.55,29.74,,Clear
KIGQ,04/19/2018 12:55 UTC,30.22,36.68,32.36,84.17,10.36,10.0,20.71,,,,,1.0,,,,10.0,,KIGQ 191255Z AUTO 01009G18KT 10SM CLR 03/00 A3022 RMK AO2  T00260002,,,,,,32.29,31.5,N,29.56,29.76,,Clear
KIGQ,04/19/2018 13:15 UTC,30.24,37.4,32.36,81.81,10.36,10.0,19.57,,,,,1.0,,,,10.0,,KIGQ 191315Z AUTO 01009G17KT 10SM CLR 03/00 A3024 RMK AO2  T00300002,,,,,,32.28,32.37,N,29.58,29.78,,Clear
KIGQ,04/19/2018 13:35 UTC,30.25,37.76,32.72,81.84,12.66,350.0,17.27,,,,,1.0,,,,10.0,,KIGQ 191335Z AUTO 35011G15KT 10SM CLR 03/00 A3025 RMK AO2  T00320004,,,,,,32.64,31.94,N,29.59,29.78,,Clear
KIGQ,04/19/2018 13:55 UTC,30.26,38.48,32.18,77.85,12.66,360.0,17.27,,,,,1.0,,,,10.0,,KIGQ 191355Z AUTO 36011G15KT 10SM CLR 04/00 A3026 RMK AO2  T00360001,,,,,,32.09,32.81,N,29.6,29.79,,Clear
KIGQ,04/19/2018 14:15 UTC,30.27,39.2,32.36,76.24,12.66,350.0,19.57,,,,,1.0,,,,10.0,,KIGQ 191415Z AUTO 35011G17KT 330V030 10SM CLR 04/00 A3027 RMK AO2  T00400002,,,,,,32.26,33.69,N,29.61,29.8,,Clear
KIGQ,04/19/2018 14:35 UTC,30.29,39.56,32.72,76.27,14.97,360.0,20.71,,,,,1.0,,,,10.0,,KIGQ 191435Z AUTO 36013G18KT 10SM CLR 04/00 A3029 RMK AO2  T00420004,,,,,,32.62,33.41,N,29.63,29.81,,Clear
KIGQ,04/19/2018 14:55 UTC,30.3,40.1,32.54,74.15,11.5,10.0,20.71,,,,,1.0,,,,10.0,,KIGQ 191455Z AUTO 01010G18KT 10SM CLR 05/00 A3030 RMK AO2  T00450003,,,,,,32.43,35.18,N,29.64,29.82,,Clear
KIGQ,04/19/2018 15:15 UTC,30.31,40.82,33.26,74.22,10.36,360.0,,,,,,1.0,,,,10.0,,KIGQ 191515Z AUTO 36009KT 10SM CLR 05/01 A3031 RMK AO2  T00490007,,,,,,33.15,36.46,N,29.65,29.81,,Clear
KIGQ,04/19/2018 15:35 UTC,30.32,41.36,32.72,71.13,12.66,360.0,,,,,,1.0,,,,10.0,,KIGQ 191535Z AUTO 36011KT 10SM CLR 05/00 A3032 RMK AO2  T00520004,,,,,,32.6,36.31,N,29.66,29.83,,Clear
KIGQ,04/19/2018 15:55 UTC,30.32,42.44,32.9,68.72,10.36,10.0,18.41,,,,,1.0,,,,10.0,,KIGQ 191555Z AUTO 01009G16KT 10SM CLR 06/01 A3032 RMK AO2  T00580005,,,,,,32.77,38.4,N,29.66,29.82,,Clear
KIGQ,04/19/2018 16:15 UTC,30.33,43.52,32.9,65.93,11.5,10.0,,,,,,1.0,,,,10.0,,KIGQ 191615Z AUTO 01010KT 10SM CLR 06/01 A3033 RMK AO2  T00640005,,,,,,32.76,39.3,N,29.67,29.82,,Clear
KIGQ,04/19/2018 16:35 UTC,30.33,44.06,30.92,59.62,11.5,30.0,16.11,,,,,1.0,,,,10.0,,KIGQ 191635Z AUTO 03010G14KT 10SM CLR 07/M01 A3033 RMK AO2  T00671006,,,,,,30.76,39.96,NNE,29.67,29.85,,Clear
KIGQ,04/19/2018 16:55 UTC,30.34,43.7,28.94,55.76,9.22,10.0,16.11,,,,,1.0,,,,10.0,,KIGQ 191655Z AUTO 01008G14KT 10SM CLR 07/M02 A3034 RMK AO2  T00651017,,,,,,28.76,40.33,N,29.68,29.9,,Clear
KIGQ,04/19/2018 17:15 UTC,30.34,44.78,32.36,61.49,11.5,20.0,,,,,,1.0,,,,10.0,,KIGQ 191715Z AUTO 02010KT 10SM CLR 07/00 A3034 RMK AO2  T00710002,,,,,,32.21,40.83,NNE,29.68,29.83,,Clear
KIGQ,04/19/2018 17:35 UTC,30.34,45.14,31.28,58.06,10.36,350.0,,,,,,1.0,,,,10.0,,KIGQ 191735Z AUTO 35009KT 10SM CLR 07/00 A3034 RMK AO2  T00731004,,,,,,31.12,,N,29.68,29.85,,Clear
KIGQ,04/19/2018 17:55 UTC,30.34,45.14,31.1,57.64,10.36,20.0,17.27,,,,,1.0,,,,10.0,,KIGQ 191755Z AUTO 02009G15KT 10SM CLR 07/00 A3034 RMK AO2  T00731005 10074 20017,45.32,35.06,,,,30.94,,NNE,29.68,29.85,,Clear
KIGQ,04/19/2018 18:15 UTC,30.36,45.32,32.0,59.37,11.5,40.0,,,,,,1.0,,,,10.0,,KIGQ 191815Z AUTO 04010KT 10SM CLR 07/00 A3036 RMK AO2  T00740000,,,,,,31.84,,NE,29.7,29.86,,Clear
KIGQ,04/19/2018 18:35 UTC,30.36,46.04,31.28,56.11,12.66,360.0,18.41,,,,,1.0,,,,10.0,,KIGQ 191835Z AUTO 36011G16KT 10SM CLR 08/00 A3036 RMK AO2  T00781004,,,,,,31.11,,N,29.7,29.86,,Clear
KIGQ,04/19/2018 18:55 UTC,30.37,45.68,30.02,54.05,13.8,40.0,18.41,,,,,1.0,,,,10.0,,KIGQ 191855Z AUTO 04012G16KT 10SM CLR 08/M01 A3037 RMK AO2  T00761011,,,,,,29.85,,NE,29.71,29.9,,Clear
KIGQ,04/19/2018 19:15 UTC,30.38,46.04,29.3,51.77,13.8,20.0,23.02,,,,,1.0,,,,10.0,,KIGQ 191915Z AUTO 02012G20KT 10SM CLR 08/M01 A3038 RMK AO2  T00781015,,,,,,29.12,,NNE,29.72,29.92,,Clear
KIGQ,04/19/2018 19:35 UTC,30.38,46.58,29.66,51.48,13.8,20.0,19.57,,,,,1.0,,,,10.0,,KIGQ 191935Z AUTO 02012G17KT 10SM CLR 08/M01 A3038 RMK AO2  T00811013,,,,,,29.48,,NNE,29.72,29.91,,Clear
KIGQ,04/19/2018 19:55 UTC,30.38,47.12,28.4,47.9,13.8,20.0,19.57,,,,,1.0,,,,10.0,,KIGQ 191955Z AUTO 02012G17KT 10SM CLR 08/M02 A3038 RMK AO2  T00841020,,,,,,28.2,,NNE,29.72,29.93,,Clear
KIGQ,04/19/2018 20:15 UTC,30.39,47.3,28.94,48.65,14.97,10.0,19.57,,,,,1.0,,,,10.0,,KIGQ 192015Z AUTO 01013G17KT 10SM CLR 09/M02 A3039 RMK AO2  T00851017,,,,,,28.75,,N,29.73,29.93,,Clear
KIGQ,04/19/2018 20:35 UTC,30.39,46.4,29.66,51.83,13.8,30.0,18.41,,,,,1.0,,,,10.0,,KIGQ 192035Z AUTO 03012G16KT 10SM CLR 08/M01 A3039 RMK AO2  T00801013,,,,,,29.48,,NNE,29.73,29.92,,Clear
KIGQ,04/19/2018 20:55 UTC,30.39,46.58,24.26,41.18,13.8,30.0,19.57,,,,,1.0,,,,10.0,,KIGQ 192055Z AUTO 03012G17KT 10SM CLR 08/M04 A3039 RMK AO2  T00811043,,,,,,24.04,,NNE,29.73,30.0,,Clear
KIGQ,04/19/2018 21:15 UTC,30.39,47.48,23.36,38.33,12.66,20.0,17.27,,,,,1.0,,,,10.0,,KIGQ 192115Z AUTO 02011G15KT 10SM CLR 09/M05 A3039 RMK AO2  T00861048,,,,,,23.13,,NNE,29.73,30.01,,Clear
KIGQ,04/19/2018 21:35 UTC,30.4,47.48,25.34,41.64,11.5,30.0,,,,,,1.0,,,,10.0,,KIGQ 192135Z AUTO 03010KT 10SM CLR 09/M04 A3040 RMK AO2  T00861037,,,,,,25.12,,NNE,29.74,29.99,,Clear
KIGQ,04/19/2018 21:55 UTC,30.4,46.94,27.86,47.17,8.05,40.0,,,,,,1.0,,,,10.0,,KIGQ 192155Z AUTO 04007KT 10SM CLR 08/M02 A3040 RMK AO2  T00831023,,,,,,27.66,,NE,29.74,29.95,,Clear
KIGQ,04/19/2018 22:15 UTC,30.39,47.66,27.68,45.57,9.22,50.0,,,,,,1.0,,,,10.0,,KIGQ 192215Z AUTO 05008KT 010V070 10SM CLR 09/M02 A3039 RMK AO2  T00871024,,,,,,27.48,,NE,29.73,29.94,,Clear
KIGQ,04/19/2018 22:35 UTC,30.4,46.58,27.86,47.82,11.5,10.0,,,,,,1.0,,,,10.0,,KIGQ 192235Z AUTO 01010KT 10SM CLR 08/M02 A3040 RMK AO2  T00811023,,,,,,27.66,,N,29.74,29.96,,Clear
KIGQ,04/19/2018 22:55 UTC,30.4,46.58,26.78,45.73,10.36,30.0,16.11,,,,,1.0,,,,10.0,,KIGQ 192255Z AUTO 03009G14KT 10SM CLR 08/M03 A3040 RMK AO2  T00811029,,,,,,26.57,,NNE,29.74,29.97,,Clear
KIGQ,04/19/2018 23:15 UTC,30.4,46.76,27.14,46.1,10.36,40.0,,,,,,1.0,,,,10.0,,KIGQ 192315Z AUTO 04009KT 10SM CLR 08/M03 A3040 RMK AO2  T00821027,,,,,,26.94,,NE,29.74,29.97,,Clear
KIGQ,04/19/2018 23:35 UTC,30.4,46.4,26.42,45.36,10.36,20.0,,,,,,1.0,,,,10.0,,KIGQ 192335Z AUTO 02009KT 10SM CLR 08/M03 A3040 RMK AO2  T00801031,,,,,,26.21,,NNE,29.74,29.98,,Clear
KIGQ,04/19/2018 23:55 UTC,30.41,45.5,26.78,47.64,10.36,40.0,,,,,,1.0,,,,10.0,,KIGQ 192355Z AUTO 04009KT 10SM CLR 08/M03 A3041 RMK AO2 T00751029  10088 20073,47.84,45.14,,,,26.58,,NE,29.75,29.99,,Clear
KIGQ,04/20/2018 00:15 UTC,30.41,44.06,27.32,51.46,6.91,30.0,,,,,,1.0,,,,10.0,,KIGQ 200015Z AUTO 03006KT 10SM CLR 07/M03 A3041 RMK AO2  T00671026,,,,,,27.13,,NNE,29.75,29.99,,Clear
KIGQ,04/20/2018 00:35 UTC,30.41,42.8,28.22,56.04,9.22,40.0,,,,,,1.0,,,,10.0,,KIGQ 200035Z AUTO 04008KT 10SM CLR 06/M02 A3041 RMK AO2  T00601021,,,,,,28.04,39.27,NE,29.75,29.98,,Clear
KIGQ,04/20/2018 00:55 UTC,30.41,41.72,28.94,60.17,5.75,40.0,,,,,,1.0,,,,10.0,,KIGQ 200055Z AUTO 04005KT 10SM CLR 05/M02 A3041 RMK AO2  T00541017,,,,,,28.78,,NE,29.75,29.98,,Clear
KIGQ,04/20/2018 01:15 UTC,30.42,40.1,29.66,65.98,5.75,40.0,,,,,,1.0,,,,10.0,,KIGQ 200115Z AUTO 04005KT 10SM CLR 05/M01 A3042 RMK AO2  T00451013,,,,,,29.52,,NE,29.76,29.99,,Clear
KIGQ,04/20/2018 01:35 UTC,30.42,39.74,30.02,67.9,0.0,0.0,,,,,,1.0,,,,10.0,,KIGQ 200135Z AUTO 00000KT 10SM CLR 04/M01 A3042 RMK AO2  T00431011,,,,,,29.89,,N,29.76,29.98,,Clear
KIGQ,04/20/2018 01:55 UTC,30.43,39.56,30.02,68.38,0.0,0.0,,,,,,1.0,,,,10.0,,KIGQ 200155Z AUTO 00000KT 10SM CLR 04/M01 A3043 RMK AO2  T00421011,,,,,,29.89,,N,29.77,30.0,,Clear
KIGQ,04/20/2018 02:15 UTC,30.43,39.2,30.2,69.85,0.0,0.0,,,,,,1.0,,,,10.0,,KIGQ 200215Z AUTO 00000KT 10SM CLR 04/M01 A3043 RMK AO2  T00401010,,,,,,30.07,,N,29.77,29.99,,Clear
KIGQ,04/20/2018 02:35 UTC,30.43,39.2,29.66,68.33,0.0,0.0,,,,,,1.0,,,,10.0,,KIGQ 200235Z AUTO 00000KT 10SM CLR 04/M01 A3043 RMK AO2  T00401013,,,,,,29.53,,N,29.77,30.0,,Clear
KIGQ,04/20/2018 02:55 UTC,30.43,38.3,29.66,70.78,0.0,0.0,,,,,,1.0,,,,10.0,,KIGQ 200255Z AUTO 00000KT 10SM CLR 04/M01 A3043 RMK AO2  T00351013,,,,,,29.54,,N,29.77,30.01,,Clear
KIGQ,04/20/2018 03:15 UTC,30.42,37.4,29.84,73.87,0.0,0.0,,,,,,1.0,,,,10.0,,KIGQ 200315Z AUTO 00000KT 10SM CLR 03/M01 A3042 RMK AO2  T00301012,,,,,,29.73,,N,29.76,30.0,,Clear
KIGQ,04/20/2018 03:35 UTC,30.43,35.06,29.48,79.86,0.0,0.0,,,,,,1.0,,,,10.0,,KIGQ 200335Z AUTO 00000KT 10SM CLR 02/M01 A3043 RMK AO2  T00171014,,,,,,29.4,,N,29.77,30.03,,Clear
KIGQ,04/20/2018 03:55 UTC,30.43,34.88,30.02,82.22,0.0,0.0,,,,,,1.0,,,,10.0,,KIGQ 200355Z AUTO 00000KT 10SM CLR 02/M01 A3043 RMK AO2  T00161011,,,,,,29.94,,N,29.77,30.03,,Clear
KIGQ,04/20/2018 04:15 UTC,30.43,34.16,30.56,86.5,0.0,0.0,,,,,,1.0,,,,10.0,,KIGQ 200415Z AUTO 00000KT 10SM CLR 01/M01 A3043 RMK AO2  T00121008,,,,,,30.5,,N,29.77,30.02,,Clear
KIGQ,04/20/2018 04:35 UTC,30.44,33.8,30.02,85.84,0.0,0.0,,,,,,1.0,,,,10.0,,KIGQ 200435Z AUTO 00000KT 10SM CLR 01/M01 A3044 RMK AO2  T00101011,,,,,,29.96,,N,29.78,30.04,,Clear
KIGQ,04/20/2018 04:55 UTC,30.44,32.72,29.84,88.99,0.0,0.0,,,,,,1.0,,,,10.0,,KIGQ 200455Z AUTO 00000KT 10SM CLR 00/M01 A3044 RMK AO2  T00041012,,,,,,29.79,,N,29.78,30.05,,Clear
KIGQ,04/20/2018 05:15 UTC,30.45,33.08,30.02,88.36,0.0,0.0,,,,,,1.0,,,,10.0,,KIGQ 200515Z AUTO 00000KT 10SM CLR 01/M01 A3045 RMK AO2  T00061011,,,,,,29.97,,N,29.79,30.06,,Clear
KIGQ,04/20/2018 05:35 UTC,30.44,30.2,28.04,91.54,0.0,0.0,,,,,,1.0,,,,10.0,,KIGQ 200535Z AUTO 00000KT 10SM CLR M01/M02 A3044 RMK AO2  T10101022,,,,,,28.0,,N,29.78,30.09,,Clear
KIGQ,04/20/2018 05:55 UTC,30.44,30.38,28.76,93.6,0.0,0.0,,,,,,1.0,,,,10.0,,KIGQ 200555Z AUTO 00000KT 10SM CLR M01/M02 A3044 RMK AO2 T10091018  10075 21011 400881011,45.5,30.02,,47.84,30.02,28.73,,N,29.78,30.08,,Clear
KIGQ,04/20/2018 06:15 UTC,30.44,30.02,28.76,94.98,0.0,0.0,,,,,,1.0,,,,10.0,,KIGQ 200615Z AUTO 00000KT 10SM CLR M01/M02 A3044 RMK AO2  T10111018,,,,,,28.74,,N,29.78,30.08,,Clear
KIGQ,04/20/2018 06:35 UTC,30.44,29.12,28.4,97.09,0.0,0.0,,,,,,1.0,,,,10.0,,KIGQ 200635Z AUTO 00000KT 10SM CLR M02/M02 A3044 RMK AO2  T10161020,,,,,,28.39,,N,29.78,30.09,,Clear
KIGQ,04/20/2018 06:55 UTC,30.45,29.3,28.94,98.54,0.0,0.0,,,,,,1.0,,,,7.0,,KIGQ 200655Z AUTO 00000KT 7SM CLR M01/M02 A3045 RMK AO2  T10151017,,,,,,28.93,,N,29.79,30.1,,Clear
KIGQ,04/20/2018 07:15 UTC,30.44,28.4,28.22,99.26,0.0,0.0,,,,,,1.0,,,,10.0,,KIGQ 200715Z AUTO 00000KT 10SM CLR M02/M02 A3044 RMK AO2  T10201021,,,,,,28.22,,N,29.78,30.1,,Clear
KIGQ,04/20/2018 07:35 UTC,30.45,28.94,28.94,100.0,0.0,0.0,,,,,,1.0,,,,10.0,,KIGQ 200735Z AUTO 00000KT 10SM CLR M02/M02 A3045 RMK AO2  T10171017,,,,,,28.94,,N,29.79,30.1,,Clear
KIGQ,04/20/2018 07:55 UTC,30.45,29.66,28.76,96.39,0.0,0.0,,,,,,1.0,,,,10.0,,KIGQ 200755Z AUTO 00000KT 10SM CLR M01/M02 A3045 RMK AO2  T10131018,,,,,,28.75,,N,29.79,30.1,,Clear
KIGQ,04/20/2018 08:15 UTC,30.46,29.3,28.94,98.54,0.0,0.0,,,,,,1.0,,,,10.0,,KIGQ 200815Z AUTO 00000KT 10SM CLR M01/M02 A3046 RMK AO2  T10151017,,,,,,28.93,,N,29.8,30.11,,Clear
KIGQ,04/20/2018 08:35 UTC,30.46,30.02,29.3,97.1,0.0,0.0,,,,,,1.0,,,,10.0,,KIGQ 200835Z AUTO 00000KT 10SM CLR M01/M01 A3046 RMK AO2  T10111015,,,,,,29.29,,N,29.8,30.1,,Clear
KIGQ,04/20/2018 08:55 UTC,30.46,29.84,28.22,93.58,0.0,0.0,,,,,,1.0,,,,10.0,,KIGQ 200855Z AUTO 00000KT 10SM CLR M01/M02 A3046 RMK AO2  T10121021,,,,,,28.19,,N,29.8,30.11,,Clear
KIGQ,04/20/2018 09:15 UTC,30.47,30.02,28.22,92.9,0.0,0.0,,,,,,1.0,,,,10.0,,KIGQ 200915Z AUTO 00000KT 10SM CLR M01/M02 A3047 RMK AO2  T10111021,,,,,,28.19,,N,29.81,30.12,,Clear
KIGQ,04/20/2018 09:35 UTC,30.47,29.12,27.68,94.26,0.0,0.0,,,,,,1.0,,,,10.0,,KIGQ 200935Z AUTO 00000KT 10SM CLR M02/M02 A3047 RMK AO2  T10161024,,,,,,27.65,,N,29.81,30.13,,Clear
KIGQ,04/20/2018 09:55 UTC,30.47,27.14,26.6,97.79,0.0,0.0,,,,,,1.0,,,,10.0,,KIGQ 200955Z AUTO 00000KT 10SM CLR M03/M03 A3047 RMK AO2  T10271030,,,,,,26.59,,N,29.81,30.16,,Clear
KIGQ,04/20/2018 10:15 UTC,30.48,27.86,27.86,100.0,0.0,0.0,,,,,,1.0,,,,10.0,,KIGQ 201015Z AUTO 00000KT 10SM CLR M02/M02 A3048 RMK AO2  T10231023,,,,,,27.86,,N,29.82,30.15,,Clear
KIGQ,04/20/2018 10:35 UTC,30.48,25.88,25.52,98.51,0.0,0.0,,,,,,1.0,,,,10.0,,KIGQ 201035Z AUTO 00000KT 10SM CLR M03/M04 A3048 RMK AO2  T10341036,,,,,,25.51,,N,29.82,30.19,,Clear
KIGQ,04/20/2018 10:55 UTC,30.49,26.6,26.06,97.79,0.0,0.0,,,,,,1.0,,,,10.0,,KIGQ 201055Z AUTO 00000KT 10SM CLR M03/M03 A3049 RMK AO2  T10301033,,,,,,26.05,,N,29.83,30.19,,Clear
KIGQ,04/20/2018 11:15 UTC,30.49,26.78,26.06,97.06,0.0,0.0,,,,,,1.0,,,,10.0,,KIGQ 201115Z AUTO 00000KT 10SM CLR M03/M03 A3049 RMK AO2  T10291033,,,,,,26.05,,N,29.83,30.19,,Clear
KIGQ,04/20/2018 11:35 UTC,30.5,28.4,27.68,97.08,0.0,0.0,,,,,,1.0,,,,10.0,,KIGQ 201135Z AUTO 00000KT 10SM CLR M02/M02 A3050 RMK AO2  T10201024,,,,,,27.67,,N,29.84,30.17,,Clear
KIGQ,04/20/2018 11:55 UTC,30.51,30.38,27.86,90.2,0.0,0.0,,,,,,1.0,,,,10.0,,KIGQ 201155Z AUTO 00000KT 10SM CLR M01/M02 A3051 RMK AO2 T10091023  11005 21034,31.1,25.88,,,,27.82,,N,29.85,30.16,,Clear
KIGQ,04/20/2018 12:15 UTC,30.5,31.82,30.2,93.64,0.0,0.0,,,,,,1.0,,,,10.0,,KIGQ 201215Z AUTO 00000KT 10SM CLR 00/M01 A3050 RMK AO2  T10011010,,,,,,30.17,,N,29.84,30.11,,Clear
KIGQ,04/20/2018 12:35 UTC,30.51,33.26,31.1,91.66,0.0,0.0,,,,,,1.0,,,,10.0,,KIGQ 201235Z AUTO 00000KT 10SM CLR 01/00 A3051 RMK AO2  T00071005,,,,,,31.07,,N,29.85,30.1,,Clear
KIGQ,04/20/2018 12:55 UTC,30.51,35.96,31.82,84.74,0.0,0.0,,,,,,1.0,,,,10.0,,KIGQ 201255Z AUTO 00000KT 10SM CLR 02/00 A3051 RMK AO2  T00221001,,,,,,31.76,,N,29.85,30.07,,Clear
KIGQ,04/20/2018 13:15 UTC,30.51,39.02,31.82,75.12,0.0,0.0,,,,,,1.0,,,,10.0,,KIGQ 201315Z AUTO 00000KT 10SM CLR 04/00 A3051 RMK AO2  T00391001,,,,,,31.72,,N,29.85,30.05,,Clear
KIGQ,04/20/2018 13:35 UTC,30.52,41.18,32.18,70.08,0.0,0.0,,,,,,1.0,,,,10.0,,KIGQ 201335Z AUTO 00000KT 10SM CLR 05/00 A3052 RMK AO2  T00510001,,,,,,32.06,,N,29.86,30.04,,Clear
KIGQ,04/20/2018 13:55 UTC,30.52,44.24,32.72,63.68,0.0,0.0,,,,,,1.0,,,,10.0,,KIGQ 201355Z AUTO 00000KT 10SM CLR 07/00 A3052 RMK AO2  T00680004,,,,,,32.58,,N,29.86,30.01,,Clear
KIGQ,04/20/2018 14:15 UTC,30.52,46.4,32.36,57.82,0.0,0.0,,,,,,1.0,,,,10.0,,KIGQ 201415Z AUTO 00000KT 10SM CLR 08/00 A3052 RMK AO2  T00800002,,,,,,32.2,,N,29.86,30.01,,Clear
KIGQ,04/20/2018 14:35 UTC,30.52,47.66,32.72,55.95,0.0,0.0,,,,,,1.0,,,,10.0,,KIGQ 201435Z AUTO 00000KT 10SM CLR 09/00 A3052 RMK AO2  T00870004,,,,,,32.56,,N,29.86,29.99,,Clear
KIGQ,04/20/2018 14:55 UTC,30.53,48.74,31.28,50.7,0.0,0.0,,,,,,1.0,,,,10.0,,KIGQ 201455Z AUTO 00000KT 10SM CLR 09/00 A3053 RMK AO2  T00931004,,,,,,31.1,,N,29.87,30.02,,Clear
KIGQ,04/20/2018 15:15 UTC,30.53,49.82,31.28,48.69,0.0,0.0,,,,,,1.0,,,,10.0,,KIGQ 201515Z AUTO 00000KT 10SM CLR 10/00 A3053 RMK AO2  T00991004,,,,,,31.1,,N,29.87,30.01,,Clear
KIGQ,04/20/2018 15:35 UTC,30.53,51.08,31.46,46.81,0.0,0.0,,,,,,1.0,,,,10.0,,KIGQ 201535Z AUTO 00000KT 10SM CLR 11/00 A3053 RMK AO2  T01061003,,,,,,31.28,,N,29.87,30.0,,Clear
KIGQ,04/20/2018 15:55 UTC,30.53,51.8,30.38,43.63,0.0,0.0,,,,,,1.0,,,,10.0,,KIGQ 201555Z AUTO 00000KT 10SM CLR 11/M01 A3053 RMK AO2  T01101009,,,,,,30.19,,N,29.87,30.02,,Clear
KIGQ,04/20/2018 16:15 UTC,30.53,51.8,27.86,39.35,0.0,0.0,,,,,,1.0,,,,10.0,,KIGQ 201615Z AUTO 00000KT 10SM CLR 11/M02 A3053 RMK AO2  T01101023,,,,,,27.65,,N,29.87,30.06,,Clear
KIGQ,04/20/2018 16:35 UTC,30.52,52.88,29.12,39.83,0.0,0.0,,,,,,1.0,,,,10.0,,KIGQ 201635Z AUTO 00000KT 10SM CLR 12/M02 A3052 RMK AO2  T01161016,,,,,,28.92,,N,29.86,30.02,,Clear
KIGQ,04/20/2018 16:55 UTC,30.52,54.32,30.02,39.2,0.0,0.0,,,,,,1.0,,,,10.0,,KIGQ 201655Z AUTO 00000KT 10SM CLR 12/M01 A3052 RMK AO2  T01241011,,,,,,29.83,,N,29.86,30.0,,Clear
KIGQ,04/20/2018 17:15 UTC,30.52,55.04,30.2,38.47,0.0,0.0,,,,,,1.0,,,,10.0,,KIGQ 201715Z AUTO 00000KT 10SM CLR 13/M01 A3052 RMK AO2  T01281010,,,,,,30.01,,N,29.86,29.99,,Clear
KIGQ,04/20/2018 17:35 UTC,30.51,55.58,29.66,36.9,0.0,0.0,,,,,,1.0,,,,10.0,,KIGQ 201735Z AUTO 00000KT 10SM CLR 13/M01 A3051 RMK AO2  T01311013,,,,,,29.47,,N,29.85,29.99,,Clear
KIGQ,04/20/2018 17:55 UTC,30.5,55.76,31.46,39.44,8.05,40.0,,,,,,1.0,,,,10.0,,KIGQ 201755Z AUTO 04007KT 10SM CLR 13/00 A3050 RMK AO2 T01321003  10136 21008,56.48,30.56,,,,31.28,,NE,29.84,29.94,,Clear
KIGQ,04/20/2018 18:15 UTC,30.49,56.3,29.66,35.95,5.75,30.0,,,,,,1.0,,,,10.0,,KIGQ 201815Z AUTO 03005KT 10SM CLR 14/M01 A3049 RMK AO2  T01351013,,,,,,29.47,,NNE,29.83,29.97,,Clear
KIGQ,04/20/2018 18:35 UTC,30.49,56.48,28.04,33.42,9.22,30.0,,,,,,1.0,,,,10.0,,KIGQ 201835Z AUTO 03008KT 340V040 10SM CLR 14/M02 A3049 RMK AO2  T01361022,,,,,,27.85,,NNE,29.83,29.99,,Clear
KIGQ,04/20/2018 18:55 UTC,30.49,57.02,26.96,31.35,3.44,60.0,,,,,,1.0,,,,10.0,,KIGQ 201855Z AUTO 06003KT 10SM CLR 14/M03 A3049 RMK AO2  T01391028,,,,,,26.77,,ENE,29.83,30.01,,Clear
KIGQ,04/20/2018 19:15 UTC,30.48,57.56,29.66,34.35,6.91,50.0,,,,,,1.0,,,,10.0,,KIGQ 201915Z AUTO 05006KT 10SM CLR 14/M01 A3048 RMK AO2  T01421013,,,,,,29.48,,NE,29.82,29.95,,Clear
KIGQ,04/20/2018 19:35 UTC,30.48,56.48,26.96,31.97,6.91,10.0,,,,,,1.0,,,,10.0,,KIGQ 201935Z AUTO 01006KT 10SM CLR 14/M03 A3048 RMK AO2  T01361028,,,,,,26.77,,N,29.82,30.0,,Clear
KIGQ,04/20/2018 19:55 UTC,30.47,57.02,28.04,32.78,6.91,50.0,,,,,,1.0,,,,10.0,,KIGQ 201955Z AUTO 05006KT 10SM CLR 14/M02 A3047 RMK AO2  T01391022,,,,,,27.85,,NE,29.81,29.97,,Clear
KIGQ,04/20/2018 20:15 UTC,30.47,56.3,24.8,29.41,6.91,10.0,,,,,,1.0,,,,10.0,,KIGQ 202015Z AUTO 01006KT 10SM CLR 14/M04 A3047 RMK AO2  T01351040,,,,,,24.6,,N,29.81,30.03,,Clear
KIGQ,04/20/2018 20:35 UTC,30.48,57.2,27.32,31.62,3.44,360.0,,,,,,1.0,,,,10.0,,KIGQ 202035Z AUTO 36003KT 10SM CLR 14/M03 A3048 RMK AO2  T01401026,,,,,,27.14,,N,29.82,29.99,,Clear
KIGQ,04/20/2018 20:55 UTC,30.47,56.48,26.06,30.8,5.75,30.0,,,,,,1.0,,,,10.0,,KIGQ 202055Z AUTO 03005KT 10SM CLR 14/M03 A3047 RMK AO2  T01361033,,,,,,25.87,,NNE,29.81,30.0,,Clear
KIGQ,04/20/2018 21:15 UTC,30.47,55.94,24.98,30.02,6.91,60.0,,,,,,1.0,,,,10.0,,KIGQ 202115Z AUTO 06006KT 10SM CLR 13/M04 A3047 RMK AO2  T01331039,,,,,,24.78,,ENE,29.81,30.02,,Clear
KIGQ,04/20/2018 21:35 UTC,30.47,55.94,23.72,28.48,8.05,60.0,,,,,,1.0,,,,10.0,,KIGQ 202135Z AUTO 06007KT 10SM CLR 13/M05 A3047 RMK AO2  T01331046,,,,,,23.52,,ENE,29.81,30.04,,Clear
KIGQ,04/20/2018 21:55 UTC,30.47,55.58,23.72,28.86,6.91,60.0,,,,,,1.0,,,,10.0,,KIGQ 202155Z AUTO 06006KT 10SM CLR 13/M05 A3047 RMK AO2  T01311046,,,,,,23.52,,ENE,29.81,30.04,,Clear
KIGQ,04/20/2018 22:15 UTC,30.46,55.22,22.64,27.94,8.05,50.0,,,,,,1.0,,,,10.0,,KIGQ 202215Z AUTO 05007KT 10SM CLR 13/M05 A3046 RMK AO2  T01291052,,,,,,22.44,,NE,29.8,30.05,,Clear
KIGQ,04/20/2018 22:35 UTC,30.45,53.78,21.38,27.91,9.22,60.0,,,,,,1.0,,,,10.0,,KIGQ 202235Z AUTO 06008KT 10SM CLR 12/M06 A3045 RMK AO2  T01211059,,,,,,21.16,,ENE,29.79,30.06,,Clear
KIGQ,04/20/2018 22:55 UTC,30.44,53.78,21.2,27.7,11.5,70.0,,,,,,1.0,,,,10.0,,KIGQ 202255Z AUTO 07010KT 10SM CLR 12/M06 A3044 RMK AO2  T01211060,,,,,,20.99,,ENE,29.78,30.06,,Clear
KIGQ,04/20/2018 23:15 UTC,30.44,53.42,20.84,27.64,11.5,70.0,,,,,,1.0,,,,10.0,,KIGQ 202315Z AUTO 07010KT 10SM CLR 12/M06 A3044 RMK AO2  T01191062,,,,,,20.62,,ENE,29.78,30.06,,Clear
KIGQ,04/20/2018 23:35 UTC,30.43,52.7,21.2,28.82,6.91,60.0,,,,,,1.0,,,,10.0,,KIGQ 202335Z AUTO 06006KT 10SM CLR 12/M06 A3043 RMK AO2  T01151060,,,,,,20.98,,ENE,29.77,30.05,,Clear
KIGQ,04/20/2018 23:55 UTC,30.43,51.26,19.58,28.36,9.22,70.0,,,,,,1.0,,,,10.0,,KIGQ 202355Z AUTO 07008KT 10SM CLR 11/M07 A3043 RMK AO2 T01071069  10145 20107,58.1,51.26,,,,19.35,,ENE,29.77,30.08,,Clear
KIGQ,04/21/2018 00:15 UTC,30.43,50.18,20.66,30.91,8.05,70.0,,,,,,1.0,,,,10.0,,KIGQ 210015Z AUTO 07007KT 10SM CLR 10/M06 A3043 RMK AO2  T01011063,,,,,,20.43,,ENE,29.77,30.07,,Clear
KIGQ,04/21/2018 00:35 UTC,30.43,48.56,23.0,36.26,0.0,0.0,,,,,,1.0,,,,10.0,,KIGQ 210035Z AUTO 00000KT 10SM CLR 09/M05 A3043 RMK AO2  T00921050,,,,,,22.78,,N,29.77,30.05,,Clear
KIGQ,04/21/2018 00:55 UTC,30.43,48.2,21.02,33.79,3.44,80.0,,,,,,1.0,,,,10.0,,KIGQ 210055Z AUTO 08003KT 10SM CLR 09/M06 A3043 RMK AO2  T00901061,,,,,,20.78,,E,29.77,30.07,,Clear
KIGQ,04/21/2018 01:15 UTC,30.44,46.76,21.2,35.95,0.0,0.0,,,,,,1.0,,,,10.0,,KIGQ 210115Z AUTO 00000KT 10SM CLR 08/M06 A3044 RMK AO2  T00821060,,,,,,20.97,,N,29.78,30.09,,Clear
KIGQ,04/21/2018 01:35 UTC,30.44,46.76,21.2,35.95,0.0,0.0,,,,,,1.0,,,,10.0,,KIGQ 210135Z AUTO 00000KT 10SM CLR 08/M06 A3044 RMK AO2  T00821060,,,,,,20.97,,N,29.78,30.09,,Clear
KIGQ,04/21/2018 01:55 UTC,30.44,46.76,21.02,35.67,0.0,0.0,,,,,,1.0,,,,10.0,,KIGQ 210155Z AUTO 00000KT 10SM CLR 08/M06 A3044 RMK AO2  T00821061,,,,,,20.78,,N,29.78,30.09,,Clear
KIGQ,04/21/2018 02:15 UTC,30.44,44.96,23.0,41.53,0.0,0.0,,,,,,1.0,,,,10.0,,KIGQ 210215Z AUTO 00000KT 10SM CLR 07/M05 A3044 RMK AO2  T00721050,,,,,,22.77,,N,29.78,30.07,,Clear
KIGQ,04/21/2018 02:35 UTC,30.45,43.52,23.54,44.88,0.0,0.0,,,,,,1.0,,,,10.0,,KIGQ 210235Z AUTO 00000KT 10SM CLR 06/M05 A3045 RMK AO2  T00641047,,,,,,23.32,,N,29.79,30.09,,Clear
KIGQ,04/21/2018 02:55 UTC,30.45,43.7,22.28,42.27,0.0,0.0,,,,,,1.0,,,,10.0,,KIGQ 210255Z AUTO 00000KT 10SM CLR 07/M05 A3045 RMK AO2  T00651054,,,,,,22.05,,N,29.79,30.1,,Clear
KIGQ,04/21/2018 03:15 UTC,30.45,42.98,22.28,43.45,0.0,0.0,,,,,,1.0,,,,10.0,,KIGQ 210315Z AUTO 00000KT 10SM CLR 06/M05 A3045 RMK AO2  T00611054,,,,,,22.05,,N,29.79,30.1,,Clear
KIGQ,04/21/2018 03:35 UTC,30.45,41.54,22.28,45.93,0.0,0.0,,,,,,1.0,,,,10.0,,KIGQ 210335Z AUTO 00000KT 10SM CLR 05/M05 A3045 RMK AO2  T00531054,,,,,,22.06,,N,29.79,30.11,,Clear
KIGQ,04/21/2018 03:55 UTC,30.44,40.64,24.98,53.26,0.0,0.0,,,,,,1.0,,,,10.0,,KIGQ 210355Z AUTO 00000KT 10SM CLR 05/M04 A3044 RMK AO2  T00481039,,,,,,24.78,,N,29.78,30.07,,Clear
KIGQ,04/21/2018 04:15 UTC,30.45,39.92,24.44,53.55,0.0,0.0,,,,,,1.0,,,,10.0,,KIGQ 210415Z AUTO 00000KT 10SM CLR 04/M04 A3045 RMK AO2  T00441042,,,,,,24.24,,N,29.79,30.09,,Clear
KIGQ,04/21/2018 04:35 UTC,30.45,39.02,25.16,57.16,0.0,0.0,,,,,,1.0,,,,10.0,,KIGQ 210435Z AUTO 00000KT 10SM CLR 04/M04 A3045 RMK AO2  T00391038,,,,,,24.98,,N,29.79,30.09,,Clear
KIGQ,04/21/2018 04:55 UTC,30.46,38.84,24.26,55.44,0.0,0.0,,,,,,1.0,,,,10.0,,KIGQ 210455Z AUTO 00000KT 10SM CLR 04/M04 A3046 RMK AO2  T00381043,,,,,,24.07,,N,29.8,30.11,,Clear
KIGQ,04/21/2018 05:15 UTC,30.46,36.86,27.14,67.55,0.0,0.0,,,,,,1.0,,,,10.0,,KIGQ 210515Z AUTO 00000KT 10SM CLR 03/M03 A3046 RMK AO2  T00271027,,,,,,27.0,,N,29.8,30.08,,Clear
KIGQ,04/21/2018 05:35 UTC,30.46,35.24,28.94,77.55,0.0,0.0,,,,,,1.0,,,,10.0,,KIGQ 210535Z AUTO 00000KT 10SM CLR 02/M02 A3046 RMK AO2  T00181017,,,,,,28.84,,N,29.8,30.07,,Clear
KIGQ,04/21/2018 05:55 UTC,30.45,36.86,29.12,73.27,0.0,0.0,,,,,,1.0,,,,10.0,,KIGQ 210555Z AUTO 00000KT 10SM CLR 03/M02 A3045 RMK AO2 T00271016  10107 20017 401451034,51.26,35.06,,58.1,25.88,29.01,,N,29.79,30.05,,Clear
KIGQ,04/21/2018 06:15 UTC,30.45,36.5,27.68,70.06,0.0,0.0,,,,,,1.0,,,,10.0,,KIGQ 210615Z AUTO 00000KT 10SM CLR 03/M02 A3045 RMK AO2  T00251024,,,,,,27.55,,N,29.79,30.07,,Clear
KIGQ,04/21/2018 06:35 UTC,30.44,36.68,26.78,67.02,0.0,0.0,,,,,,1.0,,,,10.0,,KIGQ 210635Z AUTO 00000KT 10SM CLR 03/M03 A3044 RMK AO2  T00261029,,,,,,26.64,,N,29.78,30.07,,Clear
KIGQ,04/21/2018 06:55 UTC,30.44,36.5,26.42,66.5,0.0,0.0,,,,,,1.0,,,,10.0,,KIGQ 210655Z AUTO 00000KT 10SM CLR 03/M03 A3044 RMK AO2  T00251031,,,,,,26.28,,N,29.78,30.08,,Clear
KIGQ,04/21/2018 07:15 UTC,30.44,37.04,22.82,56.01,0.0,0.0,,,,,,1.0,,,,10.0,,KIGQ 210715Z AUTO 00000KT 10SM CLR 03/M05 A3044 RMK AO2  T00281051,,,,,,22.63,,N,29.78,30.12,,Clear
KIGQ,04/21/2018 07:35 UTC,30.44,36.86,24.44,60.38,0.0,0.0,,,,,,1.0,,,,10.0,,KIGQ 210735Z AUTO 00000KT 10SM CLR 03/M04 A3044 RMK AO2  T00271042,,,,,,24.27,,N,29.78,30.1,,Clear
KIGQ,04/21/2018 07:55 UTC,30.43,35.6,24.44,63.46,0.0,0.0,,,,,,1.0,,,,10.0,,KIGQ 210755Z AUTO 00000KT 10SM CLR 02/M04 A3043 RMK AO2  T00201042,,,,,,24.28,,N,29.77,30.1,,Clear
KIGQ,04/21/2018 08:15 UTC,30.43,34.16,27.32,75.75,0.0,0.0,,,,,,1.0,,,,10.0,,KIGQ 210815Z AUTO 00000KT 10SM CLR 01/M03 A3043 RMK AO2  T00121026,,,,,,27.21,,N,29.77,30.07,,Clear
KIGQ,04/21/2018 08:35 UTC,30.44,36.68,25.88,64.57,0.0,0.0,,,,,,1.0,,,,10.0,,KIGQ 210835Z AUTO 00000KT 10SM CLR 03/M03 A3044 RMK AO2  T00261034,,,,,,25.73,,N,29.78,30.08,,Clear
KIGQ,04/21/2018 08:55 UTC,30.44,36.68,26.78,67.02,0.0,0.0,,,,,,1.0,,,,10.0,,KIGQ 210855Z AUTO 00000KT 10SM CLR 03/M03 A3044 RMK AO2  T00261029,,,,,,26.64,,N,29.78,30.07,,Clear
KIGQ,04/21/2018 09:15 UTC,30.44,37.58,25.52,61.39,0.0,0.0,,,,,,1.0,,,,10.0,,KIGQ 210915Z AUTO 00000KT 10SM CLR 03/M04 A3044 RMK AO2  T00311036,,,,,,25.35,,N,29.78,30.08,,Clear
KIGQ,04/21/2018 09:35 UTC,30.44,37.22,27.68,68.09,0.0,0.0,,,,,,1.0,,,,10.0,,KIGQ 210935Z AUTO 00000KT 10SM CLR 03/M02 A3044 RMK AO2  T00291024,,,,,,27.54,,N,29.78,30.05,,Clear
KIGQ,04/21/2018 09:55 UTC,30.44,37.94,26.96,64.25,0.0,0.0,,,,,,1.0,,,,10.0,,KIGQ 210955Z AUTO 00000KT 10SM CLR 03/M03 A3044 RMK AO2  T00331028,,,,,,26.81,,N,29.78,30.06,,Clear
KIGQ,04/21/2018 10:15 UTC,30.44,38.3,28.04,66.24,0.0,0.0,,,,,,1.0,,,,10.0,,KIGQ 211015Z AUTO 00000KT 10SM CLR 04/M02 A3044 RMK AO2  T00351022,,,,,,27.9,,N,29.78,30.04,,Clear
KIGQ,04/21/2018 10:35 UTC,30.43,36.14,31.46,82.92,0.0,0.0,,,,,,1.0,,,,10.0,,KIGQ 211035Z AUTO 00000KT 10SM CLR 02/00 A3043 RMK AO2  T00231003,,,,,,31.39,,N,29.77,29.99,,Clear
KIGQ,04/21/2018 10:55 UTC,30.44,37.04,30.02,75.48,0.0,0.0,,,,,,1.0,,,,10.0,,KIGQ 211055Z AUTO 00000KT 10SM CLR 03/M01 A3044 RMK AO2  T00281011,,,,,,29.92,,N,29.78,30.02,,Clear
KIGQ,04/21/2018 11:15 UTC,30.44,36.32,31.82,83.54,0.0,0.0,,,,,,1.0,,,,10.0,,KIGQ 211115Z AUTO 00000KT 10SM CLR 02/00 A3044 RMK AO2  T00241001,,,,,,31.75,,N,29.78,30.0,,Clear
KIGQ,04/21/2018 11:35 UTC,30.44,37.22,30.2,75.49,0.0,0.0,,,,,,1102.0,,,,10.0,,KIGQ 211135Z AUTO 00000KT 10SM SCT110 03/M01 A3044 RMK AO2  T00291010,,,,,,30.1,,N,29.78,30.02,,Partly Cloudy
KIGQ,04/21/2018 11:55 UTC,30.45,39.02,27.32,62.52,0.0,0.0,,,,,,1203.0,,,,10.0,,KIGQ 211155Z AUTO 00000KT 10SM BKN120 04/M03 A3045 RMK AO2  T00391026 10039 20008,39.02,33.44,12000.0,,,27.16,,N,29.79,30.06,,Mostly Cloudy
KIGQ,04/21/2018 12:15 UTC,30.44,39.92,28.4,63.1,0.0,0.0,,,,,,1103.0,,,,10.0,,KIGQ 211215Z AUTO 00000KT 10SM BKN110 04/M02 A3044 RMK AO2  T00441020,,,11000.0,,,28.25,,N,29.78,30.03,,Mostly Cloudy
KIGQ,04/21/2018 12:35 UTC,30.44,41.36,27.86,58.37,0.0,0.0,,,,,,1104.0,,,,10.0,,KIGQ 211235Z AUTO 00000KT 10SM OVC110 05/M02 A3044 RMK AO2  T00521023,,,11000.0,,,27.69,,N,29.78,30.03,,Overcast
KIGQ,04/21/2018 12:55 UTC,30.44,42.44,25.52,50.82,0.0,0.0,,,,,,1004.0,,,,10.0,,KIGQ 211255Z AUTO 00000KT 10SM OVC100 06/M04 A3044 RMK AO2  T00581036,,,10000.0,,,25.32,,N,29.78,30.05,,Overcast
KIGQ,04/21/2018 13:15 UTC,30.45,42.8,28.04,55.63,0.0,0.0,,,,,,1004.0,,,,10.0,,KIGQ 211315Z AUTO 00000KT 10SM OVC100 06/M02 A3045 RMK AO2  T00601022,,,10000.0,,,27.86,,N,29.79,30.03,,Overcast
KIGQ,04/21/2018 13:35 UTC,30.46,43.34,28.94,56.54,0.0,0.0,,,,,,904.0,,,,10.0,,KIGQ 211335Z AUTO 00000KT 10SM OVC090 06/M02 A3046 RMK AO2  T00631017,,,9000.0,,,28.77,,N,29.8,30.02,,Overcast
KIGQ,04/21/2018 13:55 UTC,30.46,43.7,26.96,51.4,0.0,0.0,,,,,,752.0,904.0,,,10.0,,KIGQ 211355Z AUTO 00000KT 10SM SCT075 OVC090 07/M03 A3046 RMK AO2  T00651028,,,9000.0,,,26.77,,N,29.8,30.05,,Overcast
KIGQ,04/21/2018 14:15 UTC,30.46,44.24,26.42,49.24,0.0,0.0,,,,,,904.0,,,,10.0,,KIGQ 211415Z AUTO 00000KT 10SM OVC090 07/M03 A3046 RMK AO2  T00681031,,,9000.0,,,26.22,,N,29.8,30.05,,Overcast
KIGQ,04/21/2018 14:35 UTC,30.46,44.6,27.14,50.04,0.0,0.0,,,,,,904.0,,,,10.0,,KIGQ 211435Z AUTO 00000KT 10SM OVC090 07/M03 A3046 RMK AO2 LTG  DSNT SW T00701027,,,9000.0,,,26.95,,N,29.8,30.04,,Overcast
KIGQ,04/21/2018 14:55 UTC,30.46,44.6,27.68,51.16,0.0,0.0,,,,,,904.0,,,,10.0,,KIGQ 211455Z AUTO 00000KT 10SM OVC090 07/M02 A3046 RMK AO2  T00701024,,,9000.0,,,27.49,,N,29.8,30.03,,Overcast
KIGQ,04/21/2018 15:15 UTC,30.46,44.96,29.3,53.94,0.0,0.0,,,,,,804.0,,,,10.0,,KIGQ 211515Z AUTO 00000KT 10SM OVC080 07/M01 A3046 RMK AO2  T00721015,,,8000.0,,,29.12,,N,29.8,30.0,,Overcast
KIGQ,04/21/2018 15:35 UTC,30.47,45.5,29.66,53.62,0.0,0.0,,,,,,804.0,,,,10.0,,KIGQ 211535Z AUTO 00000KT 10SM OVC080 08/M01 A3047 RMK AO2  T00751013,,,8000.0,,,29.48,,N,29.81,30.01,,Overcast
KIGQ,04/21/2018 15:55 UTC,30.46,46.22,31.46,56.14,0.0,0.0,,,,,,803.0,854.0,,,10.0,,KIGQ 211555Z AUTO 00000KT 10SM BKN080 OVC085 08/00 A3046 RMK AO2  T00791003,,,8000.0,,,31.29,,N,29.8,29.96,,Overcast
KIGQ,04/21/2018 16:15 UTC,30.46,46.76,30.56,53.04,3.44,20.0,,,,,,752.0,854.0,,,10.0,,KIGQ 211615Z AUTO 02003KT 10SM SCT075 OVC085 08/M01 A3046 RMK AO2  T00821008,,,8500.0,,,30.38,,NNE,29.8,29.97,,Overcast
KIGQ,04/21/2018 16:35 UTC,30.44,48.56,30.38,49.21,3.44,140.0,,,,,,854.0,,,,10.0,,KIGQ 211635Z AUTO 14003KT 10SM OVC085 09/M01 A3044 RMK AO2  T00921009,,,8500.0,,,30.2,,SE,29.78,29.95,,Overcast
KIGQ,04/21/2018 16:55 UTC,30.44,49.1,30.92,49.29,0.0,0.0,,,,,,853.0,904.0,,,10.0,,KIGQ 211655Z AUTO 00000KT 10SM BKN085 OVC090 10/M01 A3044 RMK AO2  T00951006,,,8500.0,,,30.74,,N,29.78,29.93,,Overcast
KIGQ,04/21/2018 17:15 UTC,30.44,49.82,30.74,47.64,0.0,0.0,,,,,,753.0,854.0,,,10.0,,KIGQ 211715Z AUTO 00000KT 10SM BKN075 OVC085 10/M01 A3044 RMK AO2  T00991007,,,7500.0,,,30.55,,N,29.78,29.93,,Overcast
KIGQ,04/21/2018 17:35 UTC,30.43,50.54,31.46,47.76,0.0,0.0,,,,,,653.0,754.0,,,10.0,,KIGQ 211735Z AUTO 00000KT 10SM BKN065 OVC075 10/00 A3043 RMK AO2  T01031003,,,6500.0,,,31.28,,N,29.77,29.9,,Overcast
KIGQ,04/21/2018 17:55 UTC,30.42,50.54,34.7,54.39,5.75,40.0,,,,,,654.0,,,,10.0,,KIGQ 211755Z AUTO 04005KT 10SM OVC065 10/02 A3042 RMK AO2  T01030015 10106 20036,51.08,38.48,6500.0,,,34.54,,NE,29.76,29.83,,Overcast
KIGQ,04/21/2018 18:15 UTC,30.42,48.56,34.88,58.98,0.0,0.0,,,,,,654.0,,,,10.0,,KIGQ 211815Z AUTO 00000KT 10SM OVC065 09/02 A3042 RMK AO2  T00920016,,,6500.0,,,34.73,,N,29.76,29.84,,Overcast
KIGQ,04/21/2018 18:35 UTC,30.43,48.74,35.24,59.43,0.0,0.0,,,,,,654.0,,,,10.0,,KIGQ 211835Z AUTO 00000KT 10SM OVC065 09/02 A3043 RMK AO2  T00930018,,,6500.0,,,35.1,,N,29.77,29.84,,Overcast
KIGQ,04/21/2018 18:55 UTC,30.42,49.1,35.06,58.21,0.0,0.0,,,,,,653.0,804.0,,,10.0,,KIGQ 211855Z AUTO 00000KT 10SM BKN065 OVC080 10/02 A3042 RMK AO2  T00950017,,,6500.0,,,34.91,,N,29.76,29.83,,Overcast
KIGQ,04/21/2018 19:15 UTC,30.43,49.1,34.34,56.57,0.0,0.0,,,,,,803.0,904.0,,,10.0,,KIGQ 211915Z AUTO 00000KT 10SM BKN080 OVC090 10/01 A3043 RMK AO2  T00950013,,,8000.0,,,34.19,,N,29.77,29.86,,Overcast
KIGQ,04/21/2018 19:35 UTC,30.43,49.1,33.98,55.76,0.0,0.0,,,,,,702.0,854.0,,,10.0,,KIGQ 211935Z AUTO 00000KT 10SM SCT070 OVC085 10/01 A3043 RMK AO2  T00950011,,,8500.0,,,33.82,,N,29.77,29.87,,Overcast
KIGQ,04/21/2018 19:55 UTC,30.42,50.0,35.96,58.34,3.44,360.0,,,,,,653.0,703.0,,,10.0,,KIGQ 211955Z AUTO 36003KT 10SM BKN065 BKN070 10/02 A3042 RMK AO2  T01000022,,,6500.0,,,35.81,,N,29.76,29.81,,Mostly Cloudy
KIGQ,04/21/2018 20:15 UTC,30.41,50.9,34.16,52.53,4.61,20.0,,,752.0,,,602.0,652.0,,,10.0,,KIGQ 212015Z AUTO 02004KT 10SM SCT060 SCT065 SCT075 11/01 A3041 RMK AO2 T01050012,,,,,,34.0,,NNE,29.75,29.83,,Partly Cloudy
KIGQ,04/21/2018 20:35 UTC,30.4,52.16,33.62,49.07,5.75,40.0,,,,,,653.0,,,,10.0,,KIGQ 212035Z AUTO 04005KT 10SM BKN065 11/01 A3040 RMK AO2  T01120009,,,6500.0,,,33.45,,NE,29.74,29.82,,Mostly Cloudy
KIGQ,04/21/2018 20:55 UTC,30.39,52.16,32.54,46.99,4.61,30.0,,,,,,652.0,,,,10.0,,KIGQ 212055Z AUTO 03004KT 10SM SCT065 11/00 A3039 RMK AO2  T01120003,,,,,,32.36,,NNE,29.73,29.83,,Partly Cloudy
KIGQ,04/21/2018 21:15 UTC,30.39,51.98,32.36,46.96,5.75,40.0,,,,,,1.0,,,,10.0,,KIGQ 212115Z AUTO 04005KT 10SM CLR 11/00 A3039 RMK AO2  T01110002,,,,,,32.18,,NE,29.73,29.84,,Clear
KIGQ,04/21/2018 21:35 UTC,30.39,51.26,33.44,50.36,8.05,40.0,,,,,,1.0,,,,10.0,,KIGQ 212135Z AUTO 04007KT 10SM CLR 11/01 A3039 RMK AO2  T01070008,,,,,,33.27,,NE,29.73,29.82,,Clear
KIGQ,04/21/2018 21:55 UTC,30.38,50.9,31.82,47.81,8.05,60.0,,,,,,1.0,,,,10.0,,KIGQ 212155Z AUTO 06007KT 10SM CLR 11/00 A3038 RMK AO2  T01051001,,,,,,31.64,,ENE,29.72,29.84,,Clear
KIGQ,04/21/2018 22:15 UTC,30.37,50.18,31.46,48.4,9.22,40.0,,,,,,1.0,,,,10.0,,KIGQ 212215Z AUTO 04008KT 10SM CLR 10/00 A3037 RMK AO2  T01011003,,,,,,31.28,,NE,29.71,29.85,,Clear
KIGQ,04/21/2018 22:35 UTC,30.37,48.74,30.56,49.24,9.22,50.0,,,,,,1.0,,,,10.0,,KIGQ 212235Z AUTO 05008KT 10SM CLR 09/M01 A3037 RMK AO2  T00931008,,,,,,30.38,,NE,29.71,29.87,,Clear
KIGQ,04/21/2018 22:55 UTC,30.37,47.66,29.12,48.35,10.36,40.0,,,,,,1.0,,,,10.0,,KIGQ 212255Z AUTO 04009KT 10SM CLR 09/M02 A3037 RMK AO2  T00871016,,,,,,28.93,,NE,29.71,29.9,,Clear
KIGQ,04/21/2018 23:15 UTC,30.37,46.4,28.22,48.86,9.22,40.0,,,,,,1.0,,,,10.0,,KIGQ 212315Z AUTO 04008KT 10SM CLR 08/M02 A3037 RMK AO2  T00801021,,,,,,28.03,,NE,29.71,29.92,,Clear
KIGQ,04/21/2018 23:35 UTC,30.36,45.68,28.04,49.84,8.05,50.0,,,,,,1.0,,,,10.0,,KIGQ 212335Z AUTO 05007KT 10SM CLR 08/M02 A3036 RMK AO2  T00761022,,,,,,27.85,,NE,29.7,29.92,,Clear
KIGQ,04/21/2018 23:55 UTC,30.36,45.5,28.4,50.93,6.91,40.0,,,,,,1.0,,,,10.0,,KIGQ 212355Z AUTO 04006KT 10SM CLR 08/M02 A3036 RMK AO2 T00751020  10115 20075,52.7,45.5,,,,28.21,,NE,29.7,29.91,,Clear
KIGQ,04/22/2018 00:15 UTC,30.37,45.32,28.22,50.9,3.44,30.0,,,,,,1.0,,,,10.0,,KIGQ 220015Z AUTO 03003KT 10SM CLR 07/M02 A3037 RMK AO2  T00741021,,,,,,28.03,,NNE,29.71,29.93,,Clear
KIGQ,04/22/2018 00:35 UTC,30.37,44.6,27.32,50.41,3.44,40.0,,,,,,1.0,,,,10.0,,KIGQ 220035Z AUTO 04003KT 10SM CLR 07/M03 A3037 RMK AO2  T00701026,,,,,,27.13,,NE,29.71,29.95,,Clear
KIGQ,04/22/2018 00:55 UTC,30.37,44.6,26.24,48.21,6.91,40.0,,,,,,1.0,,,,10.0,,KIGQ 220055Z AUTO 04006KT 10SM CLR 07/M03 A3037 RMK AO2  T00701032,,,,,,26.04,,NE,29.71,29.96,,Clear
KIGQ,04/22/2018 01:15 UTC,30.36,44.06,26.42,49.58,6.91,40.0,,,,,,1.0,,,,10.0,,KIGQ 220115Z AUTO 04006KT 10SM CLR 07/M03 A3036 RMK AO2  T00671031,,,,,,26.22,,NE,29.7,29.95,,Clear
KIGQ,04/22/2018 01:35 UTC,30.38,43.88,25.88,48.81,3.44,30.0,,,,,,1.0,,,,10.0,,KIGQ 220135Z AUTO 03003KT 10SM CLR 07/M03 A3038 RMK AO2  T00661034,,,,,,25.68,,NNE,29.72,29.98,,Clear
KIGQ,04/22/2018 01:55 UTC,30.37,43.7,26.24,49.89,6.91,40.0,,,,,,1.0,,,,10.0,,KIGQ 220155Z AUTO 04006KT 10SM CLR 07/M03 A3037 RMK AO2  T00651032,,,,,,26.04,,NE,29.71,29.97,,Clear
KIGQ,04/22/2018 02:15 UTC,30.39,42.98,26.24,51.29,4.61,40.0,,,,,,1.0,,,,10.0,,KIGQ 220215Z AUTO 04004KT 10SM CLR 06/M03 A3039 RMK AO2  T00611032,,,,,,26.05,,NE,29.73,29.99,,Clear
KIGQ,04/22/2018 02:35 UTC,30.39,43.16,26.42,51.31,3.44,40.0,,,,,,1.0,,,,10.0,,KIGQ 220235Z AUTO 04003KT 10SM CLR 06/M03 A3039 RMK AO2  T00621031,,,,,,26.22,,NE,29.73,29.99,,Clear
KIGQ,04/22/2018 02:55 UTC,30.4,42.8,26.78,52.81,0.0,0.0,,,,,,1.0,,,,10.0,,KIGQ 220255Z AUTO 00000KT 10SM CLR 06/M03 A3040 RMK AO2  T00601029,,,,,,26.59,,N,29.74,29.99,,Clear
KIGQ,04/22/2018 03:15 UTC,30.39,42.8,27.5,54.4,5.75,30.0,,,,,,1.0,,,,10.0,,KIGQ 220315Z AUTO 03005KT 10SM CLR 06/M02 A3039 RMK AO2  T00601025,,,,,,27.32,,NNE,29.73,29.97,,Clear
KIGQ,04/22/2018 03:35 UTC,30.39,42.8,27.32,54.0,4.61,50.0,,,,,,1.0,,,,10.0,,KIGQ 220335Z AUTO 05004KT 10SM CLR 06/M03 A3039 RMK AO2  T00601026,,,,,,27.13,,NE,29.73,29.98,,Clear
KIGQ,04/22/2018 03:55 UTC,30.38,42.8,27.5,54.4,0.0,0.0,,,,,,1.0,,,,10.0,,KIGQ 220355Z AUTO 00000KT 10SM CLR 06/M02 A3038 RMK AO2  T00601025,,,,,,27.32,,N,29.72,29.96,,Clear
KIGQ,04/22/2018 04:15 UTC,30.38,42.8,27.5,54.4,0.0,0.0,,,,,,1.0,,,,10.0,,KIGQ 220415Z AUTO 00000KT 10SM CLR 06/M02 A3038 RMK AO2  T00601025,,,,,,27.32,,N,29.72,29.96,,Clear
KIGQ,04/22/2018 04:35 UTC,30.37,42.8,27.68,54.81,5.75,40.0,,,,,,1.0,,,,10.0,,KIGQ 220435Z AUTO 04005KT 10SM CLR 06/M02 A3037 RMK AO2  T00601024,,,,,,27.5,,NE,29.71,29.95,,Clear
KIGQ,04/22/2018 04:55 UTC,30.37,42.26,28.04,56.79,8.05,40.0,,,,,,1.0,,,,10.0,,KIGQ 220455Z AUTO 04007KT 10SM CLR 06/M02 A3037 RMK AO2  T00571022,,,,,,27.86,39.13,NE,29.71,29.95,,Clear
KIGQ,04/22/2018 05:15 UTC,30.39,42.26,27.86,56.37,0.0,0.0,,,,,,1.0,,,,10.0,,KIGQ 220515Z AUTO 00000KT 10SM CLR 06/M02 A3039 RMK AO2  T00571023,,,,,,27.68,,N,29.73,29.97,,Clear
KIGQ,04/22/2018 05:35 UTC,30.39,42.44,27.86,55.99,0.0,0.0,,,,,,1.0,,,,10.0,,KIGQ 220535Z AUTO 00000KT 10SM CLR 06/M02 A3039 RMK AO2  T00581023,,,,,,27.68,,N,29.73,29.97,,Clear
KIGQ,04/22/2018 05:55 UTC,30.38,41.9,29.12,60.2,0.0,0.0,,,,,,1.0,,,,10.0,,KIGQ 220555Z AUTO 00000KT 10SM CLR 06/M02 A3038 RMK AO2 T00551016  10075 20055 401150008,45.5,41.9,,52.7,33.44,28.96,,N,29.72,29.94,,Clear
KIGQ,04/22/2018 06:15 UTC,30.36,41.18,30.02,64.21,0.0,0.0,,,,,,1.0,,,,10.0,,KIGQ 220615Z AUTO 00000KT 10SM CLR 05/M01 A3036 RMK AO2  T00511011,,,,,,29.87,,N,29.7,29.91,,Clear
KIGQ,04/22/2018 06:35 UTC,30.36,41.0,30.56,66.09,4.61,40.0,,,,,,1.0,,,,10.0,,KIGQ 220635Z AUTO 04004KT 10SM CLR 05/M01 A3036 RMK AO2  T00501008,,,,,,30.42,,NE,29.7,29.91,,Clear
KIGQ,04/22/2018 06:55 UTC,30.34,40.82,31.1,68.03,4.61,30.0,,,,,,1.0,,,,10.0,,KIGQ 220655Z AUTO 03004KT 10SM CLR 05/00 A3034 RMK AO2  T00491005,,,,,,30.97,,NNE,29.68,29.88,,Clear
KIGQ,04/22/2018 07:15 UTC,30.34,41.0,31.1,67.56,4.61,40.0,,,,,,1.0,,,,10.0,,KIGQ 220715Z AUTO 04004KT 10SM CLR 05/00 A3034 RMK AO2  T00501005,,,,,,30.97,,NE,29.68,29.88,,Clear
KIGQ,04/22/2018 07:35 UTC,30.34,41.0,31.1,67.56,0.0,0.0,,,,,,1.0,,,,10.0,,KIGQ 220735Z AUTO 00000KT 10SM CLR 05/00 A3034 RMK AO2  T00501005,,,,,,30.97,,N,29.68,29.88,,Clear
KIGQ,04/22/2018 07:55 UTC,30.34,41.54,30.92,65.68,0.0,0.0,,,,,,1.0,,,,10.0,,KIGQ 220755Z AUTO 00000KT 10SM CLR 05/M01 A3034 RMK AO2  T00531006,,,,,,30.78,,N,29.68,29.88,,Clear
KIGQ,04/22/2018 08:15 UTC,30.34,41.36,31.64,68.1,4.61,30.0,,,,,,1.0,,,,10.0,,KIGQ 220815Z AUTO 03004KT 10SM CLR 05/00 A3034 RMK AO2  T00521002,,,,,,31.51,,NNE,29.68,29.87,,Clear
KIGQ,04/22/2018 08:35 UTC,30.34,41.36,32.0,69.09,0.0,0.0,,,,,,1.0,,,,10.0,,KIGQ 220835Z AUTO 00000KT 10SM CLR 05/00 A3034 RMK AO2  T00520000,,,,,,31.87,,N,29.68,29.86,,Clear
KIGQ,04/22/2018 08:55 UTC,30.34,41.36,32.54,70.61,0.0,0.0,,,,,,1202.0,,,,10.0,,KIGQ 220855Z AUTO 00000KT 10SM SCT120 05/00 A3034 RMK AO2  T00520003,,,,,,32.42,,N,29.68,29.85,,Partly Cloudy
KIGQ,04/22/2018 09:15 UTC,30.34,41.72,33.26,71.68,9.22,40.0,,,,,,1202.0,,,,10.0,,KIGQ 220915Z AUTO 04008KT 10SM SCT120 05/01 A3034 RMK AO2  T00540007,,,,,,33.15,37.98,NE,29.68,29.84,,Partly Cloudy
KIGQ,04/22/2018 09:35 UTC,30.33,42.62,33.8,70.76,6.91,50.0,,,,,,1.0,,,,10.0,,KIGQ 220935Z AUTO 05006KT 10SM CLR 06/01 A3033 RMK AO2  T00590010,,,,,,33.69,,NE,29.67,29.81,,Clear
KIGQ,04/22/2018 09:55 UTC,30.32,43.88,33.08,65.5,8.05,70.0,,,,,,1202.0,,,,10.0,,KIGQ 220955Z AUTO 07007KT 10SM SCT120 07/01 A3032 RMK AO2  T00660006,,,,,,32.94,41.03,ENE,29.66,29.8,,Partly Cloudy
KIGQ,04/22/2018 10:15 UTC,30.32,44.24,33.08,64.61,5.75,60.0,,,,,,1203.0,,,,10.0,,KIGQ 221015Z AUTO 06005KT 10SM BKN120 07/01 A3032 RMK AO2  T00680006,,,12000.0,,,32.94,,ENE,29.66,29.8,,Mostly Cloudy
KIGQ,04/22/2018 10:35 UTC,30.32,44.42,32.9,63.7,0.0,0.0,,,,,,1204.0,,,,10.0,,KIGQ 221035Z AUTO 00000KT 10SM OVC120 07/01 A3032 RMK AO2  T00690005,,,12000.0,,,32.76,,N,29.66,29.8,,Overcast
KIGQ,04/22/2018 10:55 UTC,30.33,44.6,32.18,61.46,0.0,0.0,,,,,,1204.0,,,,10.0,,KIGQ 221055Z AUTO 00000KT 10SM OVC120 07/00 A3033 RMK AO2  T00700001,,,12000.0,,,32.03,,N,29.67,29.83,,Overcast
KIGQ,04/22/2018 11:15 UTC,30.34,44.6,32.18,61.46,0.0,0.0,,,,,,1204.0,,,,10.0,,KIGQ 221115Z AUTO 00000KT 10SM OVC120 07/00 A3034 RMK AO2  T00700001,,,12000.0,,,32.03,,N,29.68,29.84,,Overcast
KIGQ,04/22/2018 11:35 UTC,30.35,45.5,32.18,59.39,0.0,0.0,,,,,,1204.0,,,,10.0,,KIGQ 221135Z AUTO 00000KT 10SM OVC120 08/00 A3035 RMK AO2  T00750001,,,12000.0,,,32.02,,N,29.69,29.84,,Overcast
KIGQ,04/22/2018 11:55 UTC,30.36,45.5,31.82,58.54,4.61,70.0,,,,,,1203.0,,,,10.0,,KIGQ 221155Z AUTO 07004KT 10SM BKN120 08/00 A3036 RMK AO2  T00751001 10075 20048,45.5,40.64,12000.0,,,31.66,,ENE,29.7,29.86,,Mostly Cloudy
KIGQ,04/22/2018 12:15 UTC,30.36,46.76,31.82,55.81,0.0,0.0,,,,,,1.0,,,,10.0,,KIGQ 221215Z AUTO 00000KT 10SM CLR 08/00 A3036 RMK AO2  T00821001,,,,,,31.65,,N,29.7,29.85,,Clear
KIGQ,04/22/2018 12:35 UTC,30.36,48.2,29.66,48.43,5.75,80.0,,,,,,1.0,,,,10.0,,KIGQ 221235Z AUTO 08005KT 10SM CLR 09/M01 A3036 RMK AO2  T00901013,,,,,,29.47,,E,29.7,29.88,,Clear
KIGQ,04/22/2018 12:55 UTC,30.36,48.56,29.12,46.74,6.91,70.0,,,,,,1.0,,,,10.0,,KIGQ 221255Z AUTO 07006KT 10SM CLR 09/M02 A3036 RMK AO2  T00921016,,,,,,28.92,,ENE,29.7,29.88,,Clear
KIGQ,04/22/2018 13:15 UTC,30.36,49.1,29.12,45.81,6.91,90.0,,,,,,1.0,,,,10.0,,KIGQ 221315Z AUTO 09006KT 10SM CLR 10/M02 A3036 RMK AO2  T00951016,,,,,,28.93,,E,29.7,29.88,,Clear
KIGQ,04/22/2018 13:35 UTC,30.36,50.18,28.4,42.72,8.05,90.0,,,,,,1.0,,,,10.0,,KIGQ 221335Z AUTO 09007KT 10SM CLR 10/M02 A3036 RMK AO2  T01011020,,,,,,28.2,,E,29.7,29.89,,Clear
KIGQ,04/22/2018 13:55 UTC,30.36,51.8,28.76,40.84,10.36,90.0,,,,,,1.0,,,,10.0,,KIGQ 221355Z AUTO 09009KT 10SM CLR 11/M02 A3036 RMK AO2  T01101018,,,,,,28.56,,E,29.7,29.87,,Clear
KIGQ,04/22/2018 14:15 UTC,30.36,52.16,28.94,40.6,8.05,90.0,,,,,,1.0,,,,10.0,,KIGQ 221415Z AUTO 09007KT 10SM CLR 11/M02 A3036 RMK AO2  T01121017,,,,,,28.74,,E,29.7,29.87,,Clear
KIGQ,04/22/2018 14:35 UTC,30.36,54.32,30.2,39.49,6.91,100.0,,,,,,1.0,,,,10.0,,KIGQ 221435Z AUTO 10006KT 10SM CLR 12/M01 A3036 RMK AO2  T01241010,,,,,,30.01,,E,29.7,29.83,,Clear
KIGQ,04/22/2018 14:55 UTC,30.36,55.58,30.38,38.0,10.36,90.0,,,,,,1.0,,,,10.0,,KIGQ 221455Z AUTO 09009KT 10SM CLR 13/M01 A3036 RMK AO2  T01311009,,,,,,30.2,,E,29.7,29.82,,Clear
KIGQ,04/22/2018 15:15 UTC,30.35,56.48,31.82,38.99,11.5,100.0,19.57,,,,,1.0,,,,10.0,,KIGQ 221515Z AUTO 10010G17KT 10SM CLR 14/00 A3035 RMK AO2  T01361001,,,,,,31.64,,E,29.69,29.78,,Clear
KIGQ,04/22/2018 15:35 UTC,30.34,57.2,31.46,37.44,16.11,90.0,,,,,,1.0,,,,10.0,,KIGQ 221535Z AUTO 09014KT 10SM CLR 14/00 A3034 RMK AO2  T01401003,,,,,,31.28,,E,29.68,29.77,,Clear
KIGQ,04/22/2018 15:55 UTC,30.34,57.92,31.28,36.22,13.8,90.0,,,,,,1.0,,,,10.0,,KIGQ 221555Z AUTO 09012KT 10SM CLR 14/00 A3034 RMK AO2  T01441004,,,,,,31.1,,E,29.68,29.77,,Clear
KIGQ,04/22/2018 16:15 UTC,30.34,58.64,30.2,33.78,10.36,100.0,,,,,,1.0,,,,10.0,,KIGQ 221615Z AUTO 10009KT 10SM CLR 15/M01 A3034 RMK AO2  T01481010,,,,,,30.02,,E,29.68,29.79,,Clear
KIGQ,04/22/2018 16:35 UTC,30.33,59.72,28.76,30.65,14.97,100.0,,,,,,1.0,,,,10.0,,KIGQ 221635Z AUTO 10013KT 10SM CLR 15/M02 A3033 RMK AO2  T01541018,,,,,,28.59,,E,29.67,29.8,,Clear
KIGQ,04/22/2018 16:55 UTC,30.32,59.0,33.44,38.02,9.22,30.0,,,,,,1.0,,,,10.0,,KIGQ 221655Z AUTO 03008KT 10SM CLR 15/01 A3032 RMK AO2  T01500008,,,,,,33.28,,NNE,29.66,29.7,,Clear
KIGQ,04/22/2018 17:15 UTC,30.31,59.0,33.44,38.02,9.22,20.0,,,,,,1.0,,,,10.0,,KIGQ 221715Z AUTO 02008KT 10SM CLR 15/01 A3031 RMK AO2  T01500008,,,,,,33.28,,NNE,29.65,29.69,,Clear
KIGQ,04/22/2018 17:35 UTC,30.3,60.26,34.7,38.23,10.36,40.0,,,,,,1.0,,,,10.0,,KIGQ 221735Z AUTO 04009KT 10SM CLR 16/02 A3030 RMK AO2  T01570015,,,,,,34.55,,NE,29.64,29.65,,Clear
KIGQ,04/22/2018 17:55 UTC,30.3,60.98,35.42,38.34,12.66,40.0,,,,,,1.0,,,,10.0,,KIGQ 221755Z AUTO 04011KT 10SM CLR 16/02 A3030 RMK AO2 T01610019  10161 20076,60.98,45.68,,,,35.27,,NE,29.64,29.63,,Clear
KIGQ,04/22/2018 18:15 UTC,30.29,60.8,33.44,35.66,11.5,60.0,,,,,,1.0,,,,10.0,,KIGQ 221815Z AUTO 06010KT 10SM CLR 16/01 A3029 RMK AO2  T01600008,,,,,,33.29,,ENE,29.63,29.66,,Clear
KIGQ,04/22/2018 18:35 UTC,30.29,60.98,33.44,35.43,13.8,50.0,,,,,,1.0,,,,10.0,,KIGQ 221835Z AUTO 05012KT 10SM CLR 16/01 A3029 RMK AO2  T01610008,,,,,,33.28,,NE,29.63,29.66,,Clear
KIGQ,04/22/2018 18:55 UTC,30.28,61.34,34.52,36.53,11.5,40.0,18.41,,,,,1.0,,,,10.0,,KIGQ 221855Z AUTO 04010G16KT 10SM CLR 16/01 A3028 RMK AO2  T01630014,,,,,,34.37,,NE,29.62,29.63,,Clear
KIGQ,04/22/2018 19:15 UTC,30.28,59.54,32.36,35.71,13.8,40.0,,,,,,1.0,,,,10.0,,KIGQ 221915Z AUTO 04012KT 10SM CLR 15/00 A3028 RMK AO2  T01530002,,,,,,32.2,,NE,29.62,29.68,,Clear
KIGQ,04/22/2018 19:35 UTC,30.27,59.36,32.9,36.73,14.97,50.0,,,,,,1.0,,,,10.0,,KIGQ 221935Z AUTO 05013KT 10SM CLR 15/01 A3027 RMK AO2  T01520005,,,,,,32.74,,NE,29.61,29.66,,Clear
KIGQ,04/22/2018 19:55 UTC,30.26,59.36,32.9,36.73,12.66,40.0,,,,,,1.0,,,,10.0,,KIGQ 221955Z AUTO 04011KT 10SM CLR 15/01 A3026 RMK AO2  T01520005,,,,,,32.74,,NE,29.6,29.65,,Clear
KIGQ,04/22/2018 20:15 UTC,30.25,60.08,33.62,36.85,11.5,40.0,18.41,,,,,1.0,,,,10.0,,KIGQ 222015Z AUTO 04010G16KT 10SM CLR 16/01 A3025 RMK AO2  T01560009,,,,,,33.46,,NE,29.59,29.62,,Clear
KIGQ,04/22/2018 20:35 UTC,30.25,58.1,32.9,38.42,16.11,50.0,21.85,,,,,1.0,,,,10.0,,KIGQ 222035Z AUTO 05014G19KT 10SM CLR 15/01 A3025 RMK AO2  T01450005,,,,,,32.73,,NE,29.59,29.65,,Clear
KIGQ,04/22/2018 20:55 UTC,30.25,57.92,34.16,40.67,12.66,50.0,,,,,,1.0,,,,10.0,,KIGQ 222055Z AUTO 05011KT 10SM CLR 14/01 A3025 RMK AO2  T01440012,,,,,,34.0,,NE,29.59,29.62,,Clear
KIGQ,04/22/2018 21:15 UTC,30.25,57.38,33.26,40.0,13.8,50.0,20.71,,,,,1.0,,,,10.0,,KIGQ 222115Z AUTO 05012G18KT 10SM CLR 14/01 A3025 RMK AO2  T01410007,,,,,,33.09,,NE,29.59,29.64,,Clear
KIGQ,04/22/2018 21:35 UTC,30.25,56.84,33.26,40.78,9.22,40.0,20.71,,,,,1.0,,,,10.0,,KIGQ 222135Z AUTO 04008G18KT 10SM CLR 14/01 A3025 RMK AO2  T01380007,,,,,,33.09,,NE,29.59,29.65,,Clear
KIGQ,04/22/2018 21:55 UTC,30.24,56.3,34.34,43.42,11.5,40.0,,,,,,1.0,,,,10.0,,KIGQ 222155Z AUTO 04010KT 10SM CLR 14/01 A3024 RMK AO2  T01350013,,,,,,34.17,,NE,29.58,29.62,,Clear
KIGQ,04/22/2018 22:15 UTC,30.24,55.58,33.26,42.69,12.66,30.0,,,,,,1.0,,,,10.0,,KIGQ 222215Z AUTO 03011KT 10SM CLR 13/01 A3024 RMK AO2  T01310007,,,,,,33.09,,NNE,29.58,29.65,,Clear
KIGQ,04/22/2018 22:35 UTC,30.24,54.86,32.9,43.19,13.8,50.0,18.41,,,,,1.0,,,,10.0,,KIGQ 222235Z AUTO 05012G16KT 10SM CLR 13/01 A3024 RMK AO2  T01270005,,,,,,32.73,,NE,29.58,29.66,,Clear
KIGQ,04/22/2018 22:55 UTC,30.24,53.42,32.54,44.86,13.8,40.0,,,,,,1.0,,,,10.0,,KIGQ 222255Z AUTO 04012KT 10SM CLR 12/00 A3024 RMK AO2  T01190003,,,,,,32.36,,NE,29.58,29.67,,Clear
KIGQ,04/22/2018 23:15 UTC,30.24,51.98,32.18,46.62,12.66,40.0,,,,,,1.0,,,,10.0,,KIGQ 222315Z AUTO 04011KT 10SM CLR 11/00 A3024 RMK AO2  T01110001,,,,,,32.0,,NE,29.58,29.69,,Clear
KIGQ,04/22/2018 23:35 UTC,30.24,50.9,32.0,48.16,13.8,40.0,19.57,,,,,1.0,,,,10.0,,KIGQ 222335Z AUTO 04012G17KT 10SM CLR 11/00 A3024 RMK AO2  T01050000,,,,,,31.82,,NE,29.58,29.7,,Clear
KIGQ,04/22/2018 23:55 UTC,30.24,49.1,32.9,53.4,10.36,30.0,,,,,,1.0,,,,10.0,,KIGQ 222355Z AUTO 03009KT 10SM CLR 10/01 A3024 RMK AO2 T00950005  10167 20095,62.06,49.1,,,,32.73,,NNE,29.58,29.69,,Clear
KIGQ,04/23/2018 00:15 UTC,30.25,47.66,33.26,57.18,13.8,40.0,,,,,,1.0,,,,10.0,,KIGQ 230015Z AUTO 04012KT 10SM CLR 09/01 A3025 RMK AO2  T00870007,,,,,,33.1,,NE,29.59,29.7,,Clear
KIGQ,04/23/2018 00:35 UTC,30.25,46.58,33.44,59.98,14.97,40.0,,,,,,1.0,,,,10.0,,KIGQ 230035Z AUTO 04013KT 10SM CLR 08/01 A3025 RMK AO2  T00810008,,,,,,33.29,,NE,29.59,29.71,,Clear
KIGQ,04/23/2018 00:55 UTC,30.25,45.5,33.62,62.93,11.5,40.0,18.41,,,,,1.0,,,,10.0,,KIGQ 230055Z AUTO 04010G16KT 10SM CLR 08/01 A3025 RMK AO2  T00750009,,,,,,33.48,,NE,29.59,29.71,,Clear
KIGQ,04/23/2018 01:15 UTC,30.26,44.06,33.98,67.44,10.36,30.0,,,,,,1.0,,,,10.0,,KIGQ 230115Z AUTO 03009KT 10SM CLR 07/01 A3026 RMK AO2  T00670011,,,,,,33.85,40.34,NNE,29.6,29.73,,Clear
KIGQ,04/23/2018 01:35 UTC,30.26,43.88,33.8,67.42,10.36,30.0,,,,,,1.0,,,,10.0,,KIGQ 230135Z AUTO 03009KT 10SM CLR 07/01 A3026 RMK AO2  T00660010,,,,,,33.67,40.12,NNE,29.6,29.73,,Clear
KIGQ,04/23/2018 01:55 UTC,30.26,43.7,33.8,67.89,9.22,40.0,,,,,,1.0,,,,10.0,,KIGQ 230155Z AUTO 04008KT 10SM CLR 07/01 A3026 RMK AO2  T00650010,,,,,,33.68,40.33,NE,29.6,29.73,,Clear
KIGQ,04/23/2018 02:15 UTC,30.26,42.98,33.8,69.79,9.22,30.0,,,,,,1.0,,,,10.0,,KIGQ 230215Z AUTO 03008KT 10SM CLR 06/01 A3026 RMK AO2  T00610010,,,,,,33.68,39.48,NNE,29.6,29.74,,Clear
KIGQ,04/23/2018 02:35 UTC,30.26,42.98,34.16,70.8,10.36,30.0,,,,,,1.0,,,,10.0,,KIGQ 230235Z AUTO 03009KT 10SM CLR 06/01 A3026 RMK AO2  T00610012,,,,,,34.05,39.05,NNE,29.6,29.73,,Clear
KIGQ,04/23/2018 02:55 UTC,30.25,42.8,34.7,72.84,10.36,40.0,,,,,,1.0,,,,10.0,,KIGQ 230255Z AUTO 04009KT 10SM CLR 06/02 A3025 RMK AO2  T00600015,,,,,,34.59,38.83,NE,29.59,29.71,,Clear
KIGQ,04/23/2018 03:15 UTC,30.24,42.08,34.88,75.43,9.22,40.0,,,,,,1.0,,,,10.0,,KIGQ 230315Z AUTO 04008KT 10SM CLR 06/02 A3024 RMK AO2  T00560016,,,,,,34.78,38.41,NE,29.58,29.7,,Clear
KIGQ,04/23/2018 03:35 UTC,30.24,41.72,35.24,77.58,5.75,30.0,,,,,,1.0,,,,10.0,,KIGQ 230335Z AUTO 03005KT 10SM CLR 05/02 A3024 RMK AO2  T00540018,,,,,,35.15,,NNE,29.58,29.7,,Clear
KIGQ,04/23/2018 03:55 UTC,30.24,41.18,35.6,80.36,3.44,40.0,,,,,,1.0,,,,10.0,,KIGQ 230355Z AUTO 04003KT 10SM CLR 05/02 A3024 RMK AO2  T00510020,,,,,,35.52,,NE,29.58,29.69,,Clear
KIGQ,04/23/2018 04:15 UTC,30.24,41.18,35.6,80.36,0.0,0.0,,,,,,1.0,,,,10.0,,KIGQ 230415Z AUTO 00000KT 10SM CLR 05/02 A3024 RMK AO2  T00510020,,,,,,35.52,,N,29.58,29.69,,Clear
KIGQ,04/23/2018 04:35 UTC,30.24,41.36,35.78,80.37,0.0,0.0,,,,,,1.0,,,,10.0,,KIGQ 230435Z AUTO 00000KT 10SM CLR 05/02 A3024 RMK AO2  T00520021,,,,,,35.7,,N,29.58,29.69,,Clear
KIGQ,04/23/2018 04:55 UTC,30.24,41.18,35.78,80.94,4.61,40.0,,,,,,1.0,,,,10.0,,KIGQ 230455Z AUTO 04004KT 10SM CLR 05/02 A3024 RMK AO2  T00510021,,,,,,35.71,,NE,29.58,29.69,,Clear
KIGQ,04/23/2018 05:15 UTC,30.24,40.46,35.96,83.82,0.0,0.0,,,,,,1.0,,,,10.0,,KIGQ 230515Z AUTO 00000KT 10SM CLR 05/02 A3024 RMK AO2  T00470022,,,,,,35.89,,N,29.58,29.69,,Clear
KIGQ,04/23/2018 05:35 UTC,30.23,40.28,35.96,84.41,4.61,30.0,,,,,,1.0,,,,10.0,,KIGQ 230535Z AUTO 03004KT 10SM CLR 05/02 A3023 RMK AO2  T00460022,,,,,,35.9,,NNE,29.57,29.68,,Clear
KIGQ,04/23/2018 05:55 UTC,30.23,40.46,36.14,84.42,3.44,30.0,,,,,,1.0,,,,10.0,,KIGQ 230555Z AUTO 03003KT 10SM CLR 05/02 A3023 RMK AO2 T00470023  10095 20042 401670042,49.1,39.56,,62.06,39.56,36.08,,NNE,29.57,29.68,,Clear
KIGQ,04/23/2018 06:15 UTC,30.21,40.46,35.42,82.05,5.75,20.0,,,,,,1.0,,,,10.0,,KIGQ 230615Z AUTO 02005KT 10SM CLR 05/02 A3021 RMK AO2  T00470019,,,,,,35.35,,NNE,29.55,29.67,,Clear
KIGQ,04/23/2018 06:35 UTC,30.21,41.36,34.7,77.0,3.44,20.0,,,,,,1.0,,,,10.0,,KIGQ 230635Z AUTO 02003KT 10SM CLR 05/02 A3021 RMK AO2  T00520015,,,,,,34.61,,NNE,29.55,29.68,,Clear
KIGQ,04/23/2018 06:55 UTC,30.2,41.0,34.16,76.41,4.61,30.0,,,,,,1.0,,,,10.0,,KIGQ 230655Z AUTO 03004KT 10SM CLR 05/01 A3020 RMK AO2  T00500012,,,,,,34.06,,NNE,29.54,29.68,,Clear
KIGQ,04/23/2018 07:15 UTC,30.2,41.54,33.8,73.76,0.0,0.0,,,,,,1.0,,,,10.0,,KIGQ 230715Z AUTO 00000KT 10SM CLR 05/01 A3020 RMK AO2  T00530010,,,,,,33.69,,N,29.54,29.68,,Clear
KIGQ,04/23/2018 07:35 UTC,30.2,41.0,33.44,74.24,3.44,40.0,,,,,,1.0,,,,10.0,,KIGQ 230735Z AUTO 04003KT 10SM CLR 05/01 A3020 RMK AO2  T00500008,,,,,,33.34,,NE,29.54,29.69,,Clear
KIGQ,04/23/2018 07:55 UTC,30.19,42.08,31.82,66.71,3.44,50.0,,,,,,1.0,,,,10.0,,KIGQ 230755Z AUTO 05003KT 10SM CLR 06/00 A3019 RMK AO2  T00561001,,,,,,31.68,,NE,29.53,29.71,,Clear
KIGQ,04/23/2018 08:15 UTC,30.19,42.26,30.38,62.5,0.0,0.0,,,,,,1.0,,,,10.0,,KIGQ 230815Z AUTO 00000KT 10SM CLR 06/M01 A3019 RMK AO2  T00571009,,,,,,30.23,,N,29.53,29.73,,Clear
KIGQ,04/23/2018 08:35 UTC,30.19,42.62,29.48,59.42,3.44,40.0,,,,,,1.0,,,,10.0,,KIGQ 230835Z AUTO 04003KT 10SM CLR 06/M01 A3019 RMK AO2  T00591014,,,,,,29.32,,NE,29.53,29.74,,Clear
KIGQ,04/23/2018 08:55 UTC,30.19,41.54,29.3,61.49,3.44,30.0,,,,,,1.0,,,,10.0,,KIGQ 230855Z AUTO 03003KT 10SM CLR 05/M01 A3019 RMK AO2  T00531015,,,,,,29.14,,NNE,29.53,29.75,,Clear
KIGQ,04/23/2018 09:15 UTC,30.19,41.18,30.02,64.21,4.61,30.0,,,,,,1.0,,,,10.0,,KIGQ 230915Z AUTO 03004KT 10SM CLR 05/M01 A3019 RMK AO2  T00511011,,,,,,29.87,,NNE,29.53,29.74,,Clear
KIGQ,04/23/2018 09:35 UTC,30.19,41.54,31.1,66.16,4.61,30.0,,,,,,1.0,,,,10.0,,KIGQ 230935Z AUTO 03004KT 10SM CLR 05/00 A3019 RMK AO2  T00531005,,,,,,30.96,,NNE,29.53,29.72,,Clear
KIGQ,04/23/2018 09:55 UTC,30.19,41.18,32.0,69.58,4.61,30.0,,,,,,1.0,,,,10.0,,KIGQ 230955Z AUTO 03004KT 10SM CLR 05/00 A3019 RMK AO2  T00510000,,,,,,31.88,,NNE,29.53,29.71,,Clear
KIGQ,04/23/2018 10:15 UTC,30.19,41.18,32.54,71.11,3.44,20.0,,,,,,1.0,,,,10.0,,KIGQ 231015Z AUTO 02003KT 10SM CLR 05/00 A3019 RMK AO2  T00510003,,,,,,32.42,,NNE,29.53,29.7,,Clear
KIGQ,04/23/2018 10:35 UTC,30.19,41.54,33.08,71.66,6.91,20.0,,,,,,1.0,,,,10.0,,KIGQ 231035Z AUTO 02006KT 10SM CLR 05/01 A3019 RMK AO2  T00530006,,,,,,32.96,,NNE,29.53,29.69,,Clear
KIGQ,04/23/2018 10:55 UTC,30.19,41.9,32.9,70.17,5.75,30.0,,,,,,1.0,,,,10.0,,KIGQ 231055Z AUTO 03005KT 10SM CLR 06/01 A3019 RMK AO2  T00550005,,,,,,32.78,,NNE,29.53,29.69,,Clear
KIGQ,04/23/2018 11:15 UTC,30.19,42.26,32.72,68.7,5.75,30.0,,,,,,1.0,,,,10.0,,KIGQ 231115Z AUTO 03005KT 10SM CLR 06/00 A3019 RMK AO2  T00570004,,,,,,32.59,,NNE,29.53,29.69,,Clear
KIGQ,04/23/2018 11:35 UTC,30.19,42.98,32.54,66.34,8.05,30.0,,,,,,1.0,,,,10.0,,KIGQ 231135Z AUTO 03007KT 10SM CLR 06/00 A3019 RMK AO2  T00610003,,,,,,32.41,39.97,NNE,29.53,29.69,,Clear
KIGQ,04/23/2018 11:55 UTC,30.19,44.06,32.0,62.29,9.22,30.0,,,,,,1.0,,,,10.0,,KIGQ 231155Z AUTO 03008KT 10SM CLR 07/00 A3019 RMK AO2 T00670000  10067 20045,44.06,40.1,,,,31.85,40.76,NNE,29.53,29.69,,Clear
KIGQ,04/23/2018 12:15 UTC,30.2,45.68,31.64,57.72,10.36,40.0,,,,,,1.0,,,,10.0,,KIGQ 231215Z AUTO 04009KT 10SM CLR 08/00 A3020 RMK AO2  T00761002,,,,,,31.48,,NE,29.54,29.7,,Clear
KIGQ,04/23/2018 12:35 UTC,30.19,47.3,32.0,55.09,9.22,40.0,,,,,,1.0,,,,10.0,,KIGQ 231235Z AUTO 04008KT 10SM CLR 09/00 A3019 RMK AO2  T00850000,,,,,,31.83,,NE,29.53,29.67,,Clear
KIGQ,04/23/2018 12:55 UTC,30.19,46.94,32.54,57.07,9.22,30.0,,,,,,1.0,,,,10.0,,KIGQ 231255Z AUTO 03008KT 10SM CLR 08/00 A3019 RMK AO2  T00830003,,,,,,32.38,,NNE,29.53,29.66,,Clear
KIGQ,04/23/2018 13:15 UTC,30.19,47.3,31.28,53.51,8.05,40.0,16.11,,,,,1.0,,,,10.0,,KIGQ 231315Z AUTO 04007G14KT 10SM CLR 09/00 A3019 RMK AO2  T00851004,,,,,,31.11,,NE,29.53,29.68,,Clear
KIGQ,04/23/2018 13:35 UTC,30.19,47.84,30.92,51.67,10.36,40.0,,,,,,1.0,,,,10.0,,KIGQ 231335Z AUTO 04009KT 10SM CLR 09/M01 A3019 RMK AO2  T00881006,,,,,,30.74,,NE,29.53,29.69,,Clear
KIGQ,04/23/2018 13:55 UTC,30.19,48.38,31.28,51.38,11.5,40.0,,,,,,1.0,,,,10.0,,KIGQ 231355Z AUTO 04010KT 10SM CLR 09/00 A3019 RMK AO2  T00911004,,,,,,31.1,,NE,29.53,29.68,,Clear
KIGQ,04/23/2018 14:15 UTC,30.19,48.56,33.08,54.88,9.22,30.0,,,,,,1.0,,,,10.0,,KIGQ 231415Z AUTO 03008KT 10SM CLR 09/01 A3019 RMK AO2  T00920006,,,,,,32.92,,NNE,29.53,29.64,,Clear
KIGQ,04/23/2018 14:35 UTC,30.19,48.02,35.6,61.93,8.05,30.0,,,,,,1.0,,,,10.0,,KIGQ 231435Z AUTO 03007KT 10SM CLR 09/02 A3019 RMK AO2  T00890020,,,,,,35.46,,NNE,29.53,29.6,,Clear
KIGQ,04/23/2018 14:55 UTC,30.18,48.02,35.42,61.49,9.22,10.0,,,,,,1.0,,,,10.0,,KIGQ 231455Z AUTO 01008KT 10SM CLR 09/02 A3018 RMK AO2  T00890019,,,,,,35.28,,N,29.52,29.59,,Clear
KIGQ,04/23/2018 15:15 UTC,30.18,48.02,34.88,60.18,11.5,30.0,,,,,,1.0,,,,10.0,,KIGQ 231515Z AUTO 03010KT 10SM CLR 09/02 A3018 RMK AO2  T00890016,,,,,,34.73,,NNE,29.52,29.6,,Clear
KIGQ,04/23/2018 15:35 UTC,30.17,50.0,35.96,58.34,10.36,10.0,,,,,,1.0,,,,10.0,,KIGQ 231535Z AUTO 01009KT 10SM CLR 10/02 A3017 RMK AO2  T01000022,,,,,,35.81,,N,29.51,29.55,,Clear
KIGQ,04/23/2018 15:55 UTC,30.16,51.44,38.66,61.52,10.36,360.0,,,,,,1.0,,,,10.0,,KIGQ 231555Z AUTO 36009KT 10SM CLR 11/04 A3016 RMK AO2  T01080037,,,,,,38.53,,N,29.5,29.47,,Clear
KIGQ,04/23/2018 16:15 UTC,30.16,50.9,38.48,62.32,10.36,10.0,,,,,,1.0,,,,10.0,,KIGQ 231615Z AUTO 01009KT 10SM CLR 11/04 A3016 RMK AO2  T01050036,,,,,,38.35,,N,29.5,29.48,,Clear
KIGQ,04/23/2018 16:35 UTC,30.16,51.8,37.76,58.6,10.36,40.0,,,,,,1.0,,,,10.0,,KIGQ 231635Z AUTO 04009KT 10SM CLR 11/03 A3016 RMK AO2  T01100032,,,,,,37.62,,NE,29.5,29.49,,Clear
KIGQ,04/23/2018 16:55 UTC,30.15,51.98,38.12,59.04,11.5,20.0,,,,,,1.0,,,,10.0,,KIGQ 231655Z AUTO 02010KT 10SM CLR 11/03 A3015 RMK AO2  T01110034,,,,,,37.98,,NNE,29.49,29.47,,Clear
KIGQ,04/23/2018 17:15 UTC,30.14,52.34,38.3,58.68,11.5,20.0,,,,,,1.0,,,,10.0,,KIGQ 231715Z AUTO 02010KT 10SM CLR 11/04 A3014 RMK AO2  T01130035,,,,,,38.16,,NNE,29.48,29.45,,Clear
KIGQ,04/23/2018 17:35 UTC,30.13,52.7,37.58,56.29,10.36,30.0,,,,,,1.0,,,,10.0,,KIGQ 231735Z AUTO 03009KT 10SM CLR 12/03 A3013 RMK AO2  T01150031,,,,,,37.44,,NNE,29.47,29.46,,Clear
KIGQ,04/23/2018 17:55 UTC,30.13,51.98,37.76,58.21,10.36,10.0,,,,,,1.0,,,,10.0,,KIGQ 231755Z AUTO 01009KT 10SM CLR 11/03 A3013 RMK AO2 T01110032  10116 20068,52.88,44.24,,,,37.62,,N,29.47,29.46,,Clear
KIGQ,04/23/2018 18:15 UTC,30.13,51.44,37.22,58.14,9.22,10.0,,,,,,1.0,,,,10.0,,KIGQ 231815Z AUTO 01008KT 10SM CLR 11/03 A3013 RMK AO2  T01080029,,,,,,37.08,,N,29.47,29.48,,Clear
KIGQ,04/23/2018 18:35 UTC,30.12,51.62,37.58,58.57,9.22,20.0,,,,,,1103.0,,,,10.0,,KIGQ 231835Z AUTO 02008KT 10SM BKN110 11/03 A3012 RMK AO2  T01090031,,,11000.0,,,37.44,,NNE,29.47,29.47,,Mostly Cloudy
KIGQ,04/23/2018 18:55 UTC,30.12,50.18,37.76,62.22,10.36,10.0,,,,,,1104.0,,,,10.0,,KIGQ 231855Z AUTO 01009KT 10SM OVC110 10/03 A3012 RMK AO2  T01010032,,,11000.0,,,37.63,,N,29.47,29.47,,Overcast
KIGQ,04/23/2018 19:15 UTC,30.12,50.9,38.66,62.76,10.36,20.0,,,,,,1102.0,,,,10.0,,KIGQ 231915Z AUTO 02009KT 10SM SCT110 11/04 A3012 RMK AO2  T01050037,,,,,,38.53,,NNE,29.47,29.45,,Partly Cloudy
KIGQ,04/23/2018 19:35 UTC,30.12,51.08,38.66,62.34,10.36,20.0,,,,,,1102.0,,,,10.0,,KIGQ 231935Z AUTO 02009KT 10SM SCT110 11/04 A3012 RMK AO2  T01060037,,,,,,38.53,,NNE,29.47,29.44,,Partly Cloudy
KIGQ,04/23/2018 19:55 UTC,30.12,50.0,38.3,63.98,9.22,20.0,,,,,,1103.0,,,,10.0,,KIGQ 231955Z AUTO 02008KT 10SM BKN110 10/04 A3012 RMK AO2  T01000035,,,11000.0,,,38.17,,NNE,29.47,29.46,,Mostly Cloudy
KIGQ,04/23/2018 20:15 UTC,30.11,50.0,38.12,63.53,10.36,20.0,,,,,,1103.0,,,,10.0,,KIGQ 232015Z AUTO 02009KT 10SM BKN110 10/03 A3011 RMK AO2  T01000034,,,11000.0,,,37.99,,NNE,29.46,29.45,,Mostly Cloudy
KIGQ,04/23/2018 20:35 UTC,30.11,50.54,38.84,64.05,8.05,20.0,,,,,,1203.0,,,,10.0,,KIGQ 232035Z AUTO 02007KT 10SM BKN120 10/04 A3011 RMK AO2  T01030038,,,12000.0,,,38.72,,NNE,29.46,29.43,,Mostly Cloudy
KIGQ,04/23/2018 20:55 UTC,30.11,51.08,39.02,63.23,9.22,10.0,,,,,,1204.0,,,,10.0,,KIGQ 232055Z AUTO 01008KT 10SM OVC120 11/04 A3011 RMK AO2  T01060039,,,12000.0,,,38.9,,N,29.46,29.43,,Overcast
KIGQ,04/23/2018 21:15 UTC,30.11,51.8,39.2,62.0,5.75,10.0,,,,,,1102.0,,,,10.0,,KIGQ 232115Z AUTO 01005KT 10SM SCT110 11/04 A3011 RMK AO2  T01100040,,,,,,39.07,,N,29.46,29.42,,Partly Cloudy
KIGQ,04/23/2018 21:35 UTC,30.11,51.8,39.02,61.57,5.75,20.0,,,,,,1102.0,,,,10.0,,KIGQ 232135Z AUTO 02005KT 10SM SCT110 11/04 A3011 RMK AO2  T01100039,,,,,,38.89,,NNE,29.46,29.42,,Partly Cloudy
KIGQ,04/23/2018 21:55 UTC,30.11,50.72,37.22,59.7,11.5,30.0,,13.0,1103.0,,,702.0,903.0,,,10.0,,KIGQ 232155Z AUTO 03010KT 10SM -RA SCT070 BKN090 BKN110 10/03  A3011 RMK AO2 T01040029,,,9000.0,,,37.08,,NNE,29.46,29.47,,Light Rain
KIGQ,04/23/2018 22:15 UTC,30.11,50.0,37.58,62.2,9.22,30.0,,13.0,,,,803.0,904.0,,,10.0,,KIGQ 232215Z AUTO 03008KT 10SM -RA BKN080 OVC090 10/03 A3011 RMK AO2 T01000031,,,8000.0,,,37.45,,NNE,29.46,29.47,,Light Rain
KIGQ,04/23/2018 22:35 UTC,30.11,50.0,38.3,63.98,9.22,20.0,,13.0,,,,804.0,,,,10.0,,KIGQ 232235Z AUTO 02008KT 10SM -RA OVC080 10/04 A3011 RMK AO2  T01000035,,,8000.0,,,38.17,,NNE,29.46,29.45,,Light Rain
KIGQ,04/23/2018 22:55 UTC,30.11,49.1,37.76,64.77,9.22,20.0,,13.0,,,,804.0,,,,10.0,,KIGQ 232255Z AUTO 02008KT 10SM -RA OVC080 10/03 A3011 RMK AO2  T00950032,,,8000.0,,,37.63,,NNE,29.46,29.47,,Light Rain
KIGQ,04/23/2018 23:15 UTC,30.11,49.1,38.12,65.7,5.75,30.0,,13.0,,,,804.0,,,,10.0,,KIGQ 232315Z AUTO 03005KT 10SM -RA OVC080 10/03 A3011 RMK AO2  T00950034,,,8000.0,,,38.0,,NNE,29.46,29.46,,Light Rain
KIGQ,04/23/2018 23:35 UTC,30.11,48.92,37.76,65.21,6.91,30.0,,13.0,,,,804.0,,,,10.0,,KIGQ 232335Z AUTO 03006KT 10SM -RA OVC080 09/03 A3011 RMK AO2  T00940032,,,8000.0,,,37.64,,NNE,29.46,29.47,,Light Rain
KIGQ,04/23/2018 23:55 UTC,30.11,48.2,36.5,63.75,6.91,40.0,,17.0,,,,904.0,,,,10.0,,KIGQ 232355Z AUTO 04006KT 10SM -DZ OVC090 09/03 A3011 RMK AO2  T00900025 10111 20090,51.98,48.2,9000.0,,,36.37,,NE,29.46,29.5,,Light Drizzle
KIGQ,04/24/2018 00:15 UTC,30.11,47.3,36.14,65.0,5.75,30.0,,17.0,,,,904.0,,,,10.0,,KIGQ 240015Z AUTO 03005KT 10SM -DZ OVC090 09/02 A3011 RMK AO2  T00850023,,,9000.0,,,36.01,,NNE,29.46,29.52,,Light Drizzle
KIGQ,04/24/2018 00:35 UTC,30.12,47.3,35.96,64.54,6.91,40.0,,,,,,904.0,,,,10.0,,KIGQ 240035Z AUTO 04006KT 10SM OVC090 09/02 A3012 RMK AO2  T00850022,,,9000.0,,,35.83,,NE,29.47,29.53,,Overcast
KIGQ,04/24/2018 00:55 UTC,30.11,47.3,37.04,67.36,3.44,20.0,,13.0,,,,804.0,,,,10.0,,KIGQ 240055Z AUTO 02003KT 10SM -RA OVC080 09/03 A3011 RMK AO2  T00850028,,,8000.0,,,36.92,,NNE,29.46,29.5,,Light Rain
KIGQ,04/24/2018 01:15 UTC,30.11,46.4,38.66,74.26,3.44,20.0,,13.0,,,,804.0,,,,10.0,,KIGQ 240115Z AUTO 02003KT 10SM -RA OVC080 08/04 A3011 RMK AO2  T00800037,,,8000.0,,,38.57,,NNE,29.46,29.47,,Light Rain
KIGQ,04/24/2018 01:35 UTC,30.11,46.58,39.56,76.4,0.0,0.0,,13.0,704.0,,,242.0,602.0,,,10.0,,KIGQ 240135Z AUTO 00000KT 10SM -RA SCT024 SCT060 OVC070 08/04  A3011 RMK AO2 T00810042,,,7000.0,,,39.48,,N,29.46,29.45,,Light Rain
KIGQ,04/24/2018 01:55 UTC,30.11,46.94,39.92,76.43,0.0,0.0,,,704.0,,,203.0,313.0,,,10.0,,KIGQ 240155Z AUTO 00000KT 10SM BKN020 BKN031 OVC070 08/04 A3011 RMK AO2 T00830044,,,2000.0,,,39.83,,N,29.46,29.44,,Overcast
KIGQ,04/24/2018 02:15 UTC,30.11,47.3,39.92,75.4,0.0,0.0,,13.0,,,,224.0,,,,10.0,,KIGQ 240215Z AUTO 00000KT 10SM -RA OVC022 09/04 A3011 RMK AO2  T00850044,,,2200.0,,,39.83,,N,29.46,29.43,,Light Rain
KIGQ,04/24/2018 02:35 UTC,30.12,46.94,39.38,74.84,4.61,40.0,,13.0,,,,223.0,274.0,,,10.0,,KIGQ 240235Z AUTO 04004KT 10SM -RA BKN022 OVC027 08/04 A3012 RMK AO2 T00830041,,,2200.0,,,39.29,,NE,29.47,29.46,,Light Rain
KIGQ,04/24/2018 02:55 UTC,30.11,46.58,39.74,76.93,4.61,40.0,,13.0,,,,204.0,,,,10.0,,KIGQ 240255Z AUTO 04004KT 10SM -RA OVC020 08/04 A3011 RMK AO2  T00810043,,,2000.0,,,39.65,,NE,29.46,29.44,,Light Rain
KIGQ,04/24/2018 03:15 UTC,30.11,46.58,40.1,78.02,4.61,20.0,,13.0,,,,203.0,254.0,,,10.0,,KIGQ 240315Z AUTO 02004KT 10SM -RA BKN020 OVC025 08/05 A3011 RMK AO2 T00810045,,,2000.0,,,40.02,,NNE,29.46,29.43,,Light Rain
KIGQ,04/24/2018 03:35 UTC,30.11,46.58,40.46,79.12,0.0,0.0,,,,,,184.0,,,,10.0,,KIGQ 240335Z AUTO 00000KT 10SM OVC018 08/05 A3011 RMK AO2  T00810047,,,1800.0,,,40.39,,N,29.46,29.43,,Overcast
KIGQ,04/24/2018 03:55 UTC,30.11,46.04,41.18,83.03,0.0,0.0,,2.0,,,,143.0,184.0,,,7.0,,KIGQ 240355Z AUTO 00000KT 7SM DZ BKN014 OVC018 08/05 A3011 RMK AO2  T00780051,,,1400.0,,,41.12,,N,29.46,29.41,,Drizzle
KIGQ,04/24/2018 04:15 UTC,30.1,45.5,42.26,88.36,0.0,0.0,,2.0,,,,132.0,224.0,,,7.0,,KIGQ 240415Z AUTO 00000KT 7SM DZ SCT013 OVC022 08/06 A3010 RMK AO2  T00750057,,,2200.0,,,42.22,,N,29.45,29.38,,Drizzle
KIGQ,04/24/2018 04:35 UTC,30.1,45.5,42.8,90.21,0.0,0.0,,1.0,,,,244.0,,,,7.0,,KIGQ 240435Z AUTO 00000KT 7SM RA OVC024 08/06 A3010 RMK AO2  T00750060,,,2400.0,,,42.76,,N,29.45,29.37,,Rain
KIGQ,04/24/2018 04:55 UTC,30.09,45.14,42.62,90.82,0.0,0.0,,17.0,,,,92.0,264.0,,,10.0,,KIGQ 240455Z AUTO 00000KT 10SM -DZ SCT009 OVC026 07/06 A3009 RMK AO2 T00730059,,,2600.0,,,42.59,,N,29.44,29.36,,Light Drizzle
KIGQ,04/24/2018 05:15 UTC,30.09,45.5,42.26,88.36,0.0,0.0,,,334.0,,,72.0,182.0,,,10.0,,KIGQ 240515Z AUTO 00000KT 10SM SCT007 SCT018 OVC033 08/06 A3009 RMK AO2 T00750057,,,3300.0,,,42.22,,N,29.44,29.37,,Overcast
KIGQ,04/24/2018 05:35 UTC,30.09,45.68,42.8,89.6,0.0,0.0,,17.0,,,,354.0,,,,10.0,,KIGQ 240535Z AUTO 00000KT 10SM -DZ OVC035 08/06 A3009 RMK AO2  T00760060,,,3500.0,,,42.76,,N,29.44,29.35,,Light Drizzle
KIGQ,04/24/2018 05:55 UTC,30.08,46.04,43.52,90.86,0.0,0.0,,13.0,354.0,,,112.0,253.0,,,10.0,,KIGQ 240555Z AUTO 00000KT 10SM -RA SCT011 BKN025 OVC035 08/06  A3008 RMK AO2 T00780064 10089 20073 401160045,48.02,45.14,2500.0,52.88,40.1,43.49,,N,29.43,29.32,,Light Rain
KIGQ,04/24/2018 06:15 UTC,30.08,45.68,44.06,94.02,0.0,0.0,,1.0,,,,94.0,,,,7.0,,KIGQ 240615Z AUTO 00000KT 7SM RA OVC009 08/07 A3008 RMK AO2  T00760067,,,900.0,,,44.04,,N,29.43,29.31,,Rain
KIGQ,04/24/2018 06:35 UTC,30.07,45.14,44.24,96.63,0.0,0.0,,13.0,274.0,,,93.0,163.0,,,10.0,,KIGQ 240635Z AUTO 00000KT 10SM -RA BKN009 BKN016 OVC027 07/07  A3007 RMK AO2 T00730068,,,900.0,,,44.23,,N,29.42,29.3,,Light Rain
KIGQ,04/24/2018 06:55 UTC,30.07,44.96,43.7,95.31,0.0,0.0,,,854.0,,,152.0,293.0,,,10.0,,KIGQ 240655Z AUTO 00000KT 10SM SCT015 BKN029 OVC085 07/07 A3007 RMK AO2 T00720065,,,2900.0,,,43.68,,N,29.42,29.32,,Overcast
KIGQ,04/24/2018 07:15 UTC,30.06,44.96,43.88,95.97,0.0,0.0,,,854.0,,,292.0,703.0,,,10.0,,KIGQ 240715Z AUTO 00000KT 10SM SCT029 BKN070 OVC085 07/07 A3006 RMK AO2 T00720066,,,7000.0,,,43.87,,N,29.41,29.3,,Overcast
KIGQ,04/24/2018 07:35 UTC,30.06,45.5,43.88,94.02,4.61,40.0,,1.0,754.0,,,312.0,552.0,,,10.0,,KIGQ 240735Z AUTO 04004KT 10SM RA SCT031 SCT055 OVC075 08/07 A3006 RMK AO2 T00750066,,,7500.0,,,43.86,,NE,29.41,29.3,,Rain
KIGQ,04/24/2018 07:55 UTC,30.07,45.14,44.06,95.97,0.0,0.0,,13.0,,,,552.0,854.0,,,7.0,,KIGQ 240755Z AUTO 00000KT 7SM -RA SCT055 OVC085 07/07 A3007 RMK AO2 T00730067,,,8500.0,,,44.05,,N,29.42,29.31,,Light Rain
KIGQ,04/24/2018 08:15 UTC,30.07,44.78,42.98,93.35,0.0,0.0,,13.0,,,,854.0,,,,7.0,,KIGQ 240815Z AUTO 00000KT 7SM -RA OVC085 07/06 A3007 RMK AO2  T00710061,,,8500.0,,,42.95,,N,29.42,29.34,,Light Rain
KIGQ,04/24/2018 08:35 UTC,30.07,44.6,43.7,96.62,0.0,0.0,,13.0,,,,854.0,,,,7.0,,KIGQ 240835Z AUTO 00000KT 7SM -RA OVC085 07/07 A3007 RMK AO2  T00700065,,,8500.0,,,43.69,,N,29.42,29.32,,Light Rain
KIGQ,04/24/2018 08:55 UTC,30.06,44.78,44.06,97.29,0.0,0.0,,13.0,,,,904.0,,,,7.0,,KIGQ 240855Z AUTO 00000KT 7SM -RA OVC090 07/07 A3006 RMK AO2  T00710067,,,9000.0,,,44.05,,N,29.41,29.3,,Light Rain
KIGQ,04/24/2018 09:15 UTC,30.06,44.6,43.52,95.96,0.0,0.0,,,,,,602.0,804.0,,,10.0,,KIGQ 240915Z AUTO 00000KT 10SM SCT060 OVC080 07/06 A3006 RMK AO2  T00700064,,,8000.0,,,43.51,,N,29.41,29.31,,Overcast
KIGQ,04/24/2018 09:35 UTC,30.05,44.06,42.8,95.29,0.0,0.0,,,,,,603.0,804.0,,,10.0,,KIGQ 240935Z AUTO 00000KT 10SM BKN060 OVC080 07/06 A3005 RMK AO2  T00670060,,,6000.0,,,42.78,,N,29.4,29.33,,Overcast
KIGQ,04/24/2018 09:55 UTC,30.05,43.7,42.44,95.28,0.0,0.0,,13.0,904.0,,,602.0,802.0,,,10.0,,KIGQ 240955Z AUTO 00000KT 10SM -RA SCT060 SCT080 OVC090 07/06  A3005 RMK AO2 T00650058,,,9000.0,,,42.42,,N,29.4,29.34,,Light Rain
KIGQ,04/24/2018 10:15 UTC,30.04,42.44,41.54,96.59,0.0,0.0,,,,,,652.0,903.0,,,10.0,,KIGQ 241015Z AUTO 00000KT 10SM SCT065 BKN090 06/05 A3004 RMK AO2  T00580053,,,9000.0,,,41.53,,N,29.39,29.36,,Mostly Cloudy
KIGQ,04/24/2018 10:35 UTC,30.05,42.8,41.9,96.6,0.0,0.0,,,,,,654.0,,,,10.0,,KIGQ 241035Z AUTO 00000KT 10SM OVC065 06/06 A3005 RMK AO2  T00600055,,,6500.0,,,41.89,,N,29.4,29.36,,Overcast
KIGQ,04/24/2018 10:55 UTC,30.05,42.98,42.08,96.6,0.0,0.0,,,,,,654.0,,,,10.0,,KIGQ 241055Z AUTO 00000KT 10SM OVC065 06/06 A3005 RMK AO2  T00610056,,,6500.0,,,42.07,,N,29.4,29.36,,Overcast
KIGQ,04/24/2018 11:15 UTC,30.05,43.88,43.16,97.28,0.0,0.0,,,,,,202.0,654.0,,,7.0,,KIGQ 241115Z AUTO 00000KT 7SM SCT020 OVC065 07/06 A3005 RMK AO2  T00660062,,,6500.0,,,43.15,,N,29.4,29.32,,Overcast
KIGQ,04/24/2018 11:35 UTC,30.05,44.6,43.88,97.29,0.0,0.0,,31.0,,,,554.0,,,,5.0,,KIGQ 241135Z AUTO 00000KT 5SM BR OVC055 07/07 A3005 RMK AO2  T00700066,,,5500.0,,,43.87,,N,29.4,29.3,,Mist
KIGQ,04/24/2018 11:55 UTC,30.05,45.5,44.42,95.98,4.61,360.0,,31.0,,,,554.0,,,,5.0,,KIGQ 241155Z AUTO 36004KT 5SM BR OVC055 08/07 A3005 RMK AO2  T00750069 10077 20058,45.86,42.44,5500.0,,,44.41,,N,29.4,29.27,,Mist
KIGQ,04/24/2018 12:15 UTC,30.06,46.76,45.14,94.05,3.44,10.0,,,,,,504.0,,,,10.0,,KIGQ 241215Z AUTO 01003KT 10SM OVC050 08/07 A3006 RMK AO2  T00820073,,,5000.0,,,45.12,,N,29.41,29.25,,Overcast
KIGQ,04/24/2018 12:35 UTC,30.06,49.28,46.76,90.98,4.61,360.0,,,,,,504.0,,,,7.0,,KIGQ 241235Z AUTO 36004KT 7SM OVC050 10/08 A3006 RMK AO2  T00960082,,,5000.0,,,46.73,,N,29.41,29.18,,Overcast
KIGQ,04/24/2018 12:55 UTC,30.07,49.28,46.58,90.37,3.44,10.0,,,,,,504.0,,,,7.0,,KIGQ 241255Z AUTO 01003KT 7SM OVC050 10/08 A3007 RMK AO2  T00960081,,,5000.0,,,46.55,,N,29.42,29.2,,Overcast
KIGQ,04/24/2018 13:15 UTC,30.06,50.9,47.3,87.43,4.61,10.0,,,,,,502.0,854.0,,,10.0,,KIGQ 241315Z AUTO 01004KT 10SM SCT050 OVC085 11/09 A3006 RMK AO2  T01050085,,,8500.0,,,47.26,,N,29.41,29.15,,Overcast
KIGQ,04/24/2018 13:35 UTC,30.06,51.8,47.48,85.14,4.61,20.0,,,,,,852.0,,,,10.0,,KIGQ 241335Z AUTO 02004KT 10SM SCT085 11/09 A3006 RMK AO2  T01100086,,,,,,47.43,,NNE,29.41,29.13,,Partly Cloudy
KIGQ,04/24/2018 13:55 UTC,30.06,52.88,48.38,84.64,5.75,50.0,,,,,,902.0,,,,10.0,,KIGQ 241355Z AUTO 05005KT 10SM SCT090 12/09 A3006 RMK AO2  T01160091,,,,,,48.33,,NE,29.41,29.09,,Partly Cloudy
KIGQ,04/24/2018 14:15 UTC,30.05,53.42,49.28,85.82,8.05,40.0,,,,,,202.0,903.0,,,10.0,,KIGQ 241415Z AUTO 04007KT 10SM SCT020 BKN090 12/10 A3005 RMK AO2  T01190096,,,9000.0,,,49.24,,NE,29.4,29.05,,Mostly Cloudy
KIGQ,04/24/2018 14:35 UTC,30.05,54.68,50.18,84.75,8.05,40.0,,,,,,203.0,904.0,,,10.0,,KIGQ 241435Z AUTO 04007KT 10SM BKN020 OVC090 13/10 A3005 RMK AO2  T01260101,,,2000.0,,,50.14,,NE,29.4,29.01,,Overcast
KIGQ,04/24/2018 14:55 UTC,30.04,56.3,51.44,83.73,6.91,60.0,,,,,,203.0,,,,10.0,,KIGQ 241455Z AUTO 06006KT 10SM BKN020 14/11 A3004 RMK AO2  T01350108,,,2000.0,,,51.39,,ENE,29.39,28.93,,Mostly Cloudy
KIGQ,04/24/2018 15:15 UTC,30.04,56.12,50.72,82.06,4.61,20.0,,,443.0,,,203.0,263.0,,,10.0,,KIGQ 241515Z AUTO 02004KT 10SM BKN020 BKN026 BKN044 13/10 A3004 RMK AO2 T01340104,,,2000.0,,,50.67,,NNE,29.39,28.96,,Mostly Cloudy
KIGQ,04/24/2018 15:35 UTC,30.04,57.02,51.26,81.04,5.75,30.0,,,,,,244.0,,,,10.0,,KIGQ 241535Z AUTO 03005KT 10SM OVC024 14/11 A3004 RMK AO2  T01390107,,,2400.0,,,51.21,,NNE,29.39,28.93,,Overcast
KIGQ,04/24/2018 15:55 UTC,30.04,58.82,51.98,78.02,9.22,20.0,,,,,,242.0,,,,10.0,,KIGQ 241555Z AUTO 02008KT 10SM SCT024 15/11 A3004 RMK AO2  T01490111,,,,,,51.92,,NNE,29.39,28.89,,Partly Cloudy
KIGQ,04/24/2018 16:15 UTC,30.04,59.0,51.62,76.5,8.05,20.0,,,,,,222.0,,,,10.0,,KIGQ 241615Z AUTO 02007KT 10SM SCT022 15/11 A3004 RMK AO2  T01500109,,,,,,51.56,,NNE,29.39,28.9,,Partly Cloudy
KIGQ,04/24/2018 16:35 UTC,30.04,58.64,51.26,76.47,8.05,360.0,,,,,,222.0,503.0,,,10.0,,KIGQ 241635Z AUTO 36007KT 10SM SCT022 BKN050 15/11 A3004 RMK AO2  T01480107,,,5000.0,,,51.2,,N,29.39,28.92,,Mostly Cloudy
KIGQ,04/24/2018 16:55 UTC,30.03,58.82,51.08,75.47,11.5,40.0,,,704.0,,,222.0,503.0,,,10.0,,KIGQ 241655Z AUTO 04010KT 10SM SCT022 BKN050 OVC070 15/11 A3003 RMK AO2 T01490106,,,5000.0,,,51.02,,NE,29.38,28.91,,Overcast
KIGQ,04/24/2018 17:15 UTC,30.03,58.82,51.08,75.47,11.5,20.0,,,704.0,,,242.0,553.0,,,10.0,,KIGQ 241715Z AUTO 02010KT 10SM SCT024 BKN055 OVC070 15/11 A3003 RMK AO2 T01490106,,,5500.0,,,51.02,,NNE,29.38,28.91,,Overcast
KIGQ,04/24/2018 17:35 UTC,30.02,58.28,51.08,76.94,11.5,20.0,16.11,,,,,243.0,704.0,,,10.0,,KIGQ 241735Z AUTO 02010G14KT 10SM BKN024 OVC070 15/11 A3002 RMK AO2 T01460106,,,2400.0,,,51.02,,NNE,29.37,28.91,,Overcast
KIGQ,04/24/2018 17:55 UTC,30.02,57.02,50.36,78.39,9.22,360.0,,,,,,244.0,,,,10.0,,KIGQ 241755Z AUTO 36008KT 10SM OVC024 14/10 A3002 RMK AO2  T01390102 10155 20075,59.9,45.5,2400.0,,,50.3,,N,29.37,28.95,,Overcast
KIGQ,04/24/2018 18:15 UTC,30.01,56.48,50.18,79.4,9.22,20.0,,,,,,262.0,,,,10.0,,KIGQ 241815Z AUTO 02008KT 10SM SCT026 14/10 A3001 RMK AO2  T01360101,,,,,,50.12,,NNE,29.36,28.95,,Partly Cloudy
KIGQ,04/24/2018 18:35 UTC,30.01,56.48,50.54,80.46,10.36,20.0,,,,,,283.0,,,,10.0,,KIGQ 241835Z AUTO 02009KT 10SM BKN028 14/10 A3001 RMK AO2  T01360103,,,2800.0,,,50.48,,NNE,29.36,28.93,,Mostly Cloudy
KIGQ,04/24/2018 18:55 UTC,30.01,58.1,51.08,77.44,10.36,20.0,,,,,,282.0,,,,10.0,,KIGQ 241855Z AUTO 02009KT 10SM SCT028 15/11 A3001 RMK AO2  T01450106,,,,,,51.02,,NNE,29.36,28.9,,Partly Cloudy
KIGQ,04/24/2018 19:15 UTC,30.01,60.26,51.8,73.63,10.36,60.0,,,,,,482.0,,,,10.0,,KIGQ 241915Z AUTO 06009KT 10SM SCT048 16/11 A3001 RMK AO2  T01570110,,,,,,51.74,,ENE,29.36,28.85,,Partly Cloudy
KIGQ,04/24/2018 19:35 UTC,30.01,59.9,51.44,73.59,10.36,40.0,,,,,,503.0,,,,10.0,,KIGQ 241935Z AUTO 04009KT 10SM BKN050 16/11 A3001 RMK AO2  T01550108,,,5000.0,,,51.37,,NE,29.36,28.87,,Mostly Cloudy
KIGQ,04/24/2018 19:55 UTC,30.0,59.18,51.08,74.51,10.36,20.0,,,,,,504.0,,,,10.0,,KIGQ 241955Z AUTO 02009KT 10SM OVC050 15/11 A3000 RMK AO2  T01510106,,,5000.0,,,51.02,,NNE,29.35,28.88,,Overcast
KIGQ,04/24/2018 20:15 UTC,29.99,59.9,51.8,74.58,8.05,20.0,,,,,,503.0,,,,10.0,,KIGQ 242015Z AUTO 02007KT 360V060 10SM BKN050 16/11 A2999 RMK AO2  T01550110,,,5000.0,,,51.74,,NNE,29.34,28.83,,Mostly Cloudy
KIGQ,04/24/2018 20:35 UTC,29.99,59.54,51.08,73.56,11.5,60.0,16.11,,,,,502.0,,,,10.0,,KIGQ 242035Z AUTO 06010G14KT 10SM SCT050 15/11 A2999 RMK AO2  T01530106,,,,,,51.02,,ENE,29.34,28.86,,Partly Cloudy
KIGQ,04/24/2018 20:55 UTC,29.99,58.82,50.72,74.47,10.36,30.0,,,,,,1.0,,,,10.0,,KIGQ 242055Z AUTO 03009KT 10SM CLR 15/10 A2999 RMK AO2  T01490104,,,,,,50.65,,NNE,29.34,28.88,,Clear
KIGQ,04/24/2018 21:15 UTC,29.99,57.74,50.18,75.87,11.5,20.0,,,,,,1102.0,,,,10.0,,KIGQ 242115Z AUTO 02010KT 10SM SCT110 14/10 A2999 RMK AO2  T01430101,,,,,,50.11,,NNE,29.34,28.91,,Partly Cloudy
KIGQ,04/24/2018 21:35 UTC,29.99,58.28,50.54,75.42,10.36,50.0,,,,,,482.0,1102.0,,,10.0,,KIGQ 242135Z AUTO 05009KT 020V080 10SM SCT048 SCT110 15/10 A2999 RMK AO2 T01460103,,,,,,50.48,,NE,29.34,28.9,,Partly Cloudy
KIGQ,04/24/2018 21:55 UTC,29.99,56.84,49.82,77.33,9.22,10.0,,,,,,1002.0,,,,10.0,,KIGQ 242155Z AUTO 01008KT 10SM SCT100 14/10 A2999 RMK AO2  T01380099,,,,,,49.76,,N,29.34,28.94,,Partly Cloudy
KIGQ,04/24/2018 22:15 UTC,29.99,56.66,49.82,77.83,10.36,40.0,,,,,,1004.0,,,,10.0,,KIGQ 242215Z AUTO 04009KT 10SM OVC100 14/10 A2999 RMK AO2  T01370099,,,10000.0,,,49.76,,NE,29.34,28.94,,Overcast
KIGQ,04/24/2018 22:35 UTC,30.0,56.12,49.64,78.84,6.91,20.0,,,,,,1004.0,,,,10.0,,KIGQ 242235Z AUTO 02006KT 10SM OVC100 13/10 A3000 RMK AO2  T01340098,,,10000.0,,,49.58,,NNE,29.35,28.96,,Overcast
KIGQ,04/24/2018 22:55 UTC,30.0,55.58,49.46,79.86,6.91,40.0,,,,,,1004.0,,,,10.0,,KIGQ 242255Z AUTO 04006KT 10SM OVC100 13/10 A3000 RMK AO2  T01310097,,,10000.0,,,49.4,,NE,29.35,28.97,,Overcast
KIGQ,04/24/2018 23:15 UTC,30.0,54.5,49.1,81.95,6.91,10.0,,,,,,1104.0,,,,10.0,,KIGQ 242315Z AUTO 01006KT 10SM OVC110 13/10 A3000 RMK AO2  T01250095,,,11000.0,,,49.05,,N,29.35,28.99,,Overcast
KIGQ,04/24/2018 23:35 UTC,29.99,55.94,49.64,79.35,6.91,50.0,,,,,,1104.0,,,,10.0,,KIGQ 242335Z AUTO 05006KT 10SM OVC110 13/10 A2999 RMK AO2  T01330098,,,11000.0,,,49.58,,NE,29.34,28.95,,Overcast
KIGQ,04/24/2018 23:55 UTC,29.99,53.96,49.1,83.58,9.22,50.0,,,,,,1104.0,,,,10.0,,KIGQ 242355Z AUTO 05008KT 10SM OVC110 12/10 A2999 RMK AO2  T01220095 10159 20122,60.62,53.96,11000.0,,,49.05,,NE,29.34,28.99,,Overcast
KIGQ,04/25/2018 00:15 UTC,29.99,52.7,48.56,85.77,8.05,40.0,,,,,,1102.0,,,,10.0,,KIGQ 250015Z AUTO 04007KT 10SM SCT110 12/09 A2999 RMK AO2  T01150092,,,,,,48.51,,NE,29.34,29.02,,Partly Cloudy
KIGQ,04/25/2018 00:35 UTC,30.0,51.62,48.2,88.06,6.91,50.0,,,,,,1.0,,,,10.0,,KIGQ 250035Z AUTO 05006KT 10SM CLR 11/09 A3000 RMK AO2  T01090090,,,,,,48.16,,NE,29.35,29.05,,Clear
KIGQ,04/25/2018 00:55 UTC,30.0,50.18,48.02,92.26,5.75,50.0,,,,,,1.0,,,,10.0,,KIGQ 250055Z AUTO 05005KT 10SM CLR 10/09 A3000 RMK AO2  T01010089,,,,,,48.0,,NE,29.35,29.07,,Clear
KIGQ,04/25/2018 01:15 UTC,30.01,49.28,47.3,92.85,4.61,40.0,,,,,,1.0,,,,10.0,,KIGQ 250115Z AUTO 04004KT 10SM CLR 10/09 A3001 RMK AO2  T00960085,,,,,,47.28,,NE,29.36,29.11,,Clear
KIGQ,04/25/2018 01:35 UTC,30.01,48.2,46.58,94.09,4.61,60.0,,,,,,1.0,,,,10.0,,KIGQ 250135Z AUTO 06004KT 10SM CLR 09/08 A3001 RMK AO2  T00900081,,,,,,46.56,,ENE,29.36,29.15,,Clear
KIGQ,04/25/2018 01:55 UTC,30.01,47.66,46.4,95.36,4.61,60.0,,,,,,1.0,,,,7.0,,KIGQ 250155Z AUTO 06004KT 7SM CLR 09/08 A3001 RMK AO2  T00870080,,,,,,46.38,,ENE,29.36,29.16,,Clear
KIGQ,04/25/2018 02:15 UTC,30.01,47.3,46.22,96.01,3.44,70.0,,,,,,1.0,,,,7.0,,KIGQ 250215Z AUTO 07003KT 7SM CLR 09/08 A3001 RMK AO2  T00850079,,,,,,46.21,,ENE,29.36,29.16,,Clear
KIGQ,04/25/2018 02:35 UTC,30.01,46.94,45.86,96.0,4.61,50.0,,,,,,1.0,,,,10.0,,KIGQ 250235Z AUTO 05004KT 10SM CLR 08/08 A3001 RMK AO2  T00830077,,,,,,45.85,,NE,29.36,29.18,,Clear
KIGQ,04/25/2018 02:55 UTC,30.01,46.58,45.86,97.31,0.0,0.0,,,,,,1.0,,,,7.0,,KIGQ 250255Z AUTO 00000KT 7SM CLR 08/08 A3001 RMK AO2  T00810077,,,,,,45.85,,N,29.36,29.18,,Clear
KIGQ,04/25/2018 03:15 UTC,30.02,46.4,45.5,96.65,0.0,0.0,,,,,,1.0,,,,7.0,,KIGQ 250315Z AUTO 00000KT 7SM CLR 08/08 A3002 RMK AO2  T00800075,,,,,,45.49,,N,29.37,29.2,,Clear
KIGQ,04/25/2018 03:35 UTC,30.01,45.5,44.78,97.3,3.44,10.0,,,,,,1.0,,,,7.0,,KIGQ 250335Z AUTO 01003KT 7SM CLR 08/07 A3001 RMK AO2  T00750071,,,,,,44.77,,N,29.36,29.22,,Clear
KIGQ,04/25/2018 03:55 UTC,30.01,44.96,44.78,99.32,4.61,20.0,,,,,,1.0,,,,7.0,,KIGQ 250355Z AUTO 02004KT 7SM CLR 07/07 A3001 RMK AO2  T00720071,,,,,,44.78,,NNE,29.36,29.23,,Clear
KIGQ,04/25/2018 04:15 UTC,30.01,44.78,44.6,99.32,0.0,0.0,,,,,,1.0,,,,7.0,,KIGQ 250415Z AUTO 00000KT 7SM CLR 07/07 A3001 RMK AO2  T00710070,,,,,,44.6,,N,29.36,29.23,,Clear
KIGQ,04/25/2018 04:35 UTC,30.01,44.42,44.24,99.32,0.0,0.0,,,,,,1.0,,,,7.0,,KIGQ 250435Z AUTO 00000KT 7SM CLR 07/07 A3001 RMK AO2  T00690068,,,,,,44.24,,N,29.36,29.25,,Clear
KIGQ,04/25/2018 04:55 UTC,30.01,44.42,44.42,100.0,3.44,10.0,,,,,,1.0,,,,7.0,,KIGQ 250455Z AUTO 01003KT 7SM CLR 07/07 A3001 RMK AO2  T00690069,,,,,,44.42,,N,29.36,29.24,,Clear
KIGQ,04/25/2018 05:15 UTC,30.01,44.06,44.06,100.0,4.61,340.0,,,,,,62.0,,,,7.0,,KIGQ 250515Z AUTO 34004KT 7SM SCT006 07/07 A3001 RMK AO2  T00670067,,,,,,44.06,,NNW,29.36,29.25,,Partly Cloudy
KIGQ,04/25/2018 05:35 UTC,30.02,43.7,43.7,100.0,8.05,360.0,,31.0,,,,43.0,,,,4.0,,KIGQ 250535Z AUTO 36007KT 4SM BR BKN004 07/07 A3002 RMK AO2  T00650065,,,400.0,,,43.7,40.82,N,29.37,29.28,,Mist
KIGQ,04/25/2018 05:55 UTC,30.02,43.16,43.16,100.0,6.91,10.0,,31.0,,,,44.0,,,,4.0,,KIGQ 250555Z AUTO 01006KT 4SM BR OVC004 06/06 A3002 RMK AO2  T00620062 10122 20062 401590058,53.96,43.16,400.0,60.62,42.44,43.16,,N,29.37,29.3,,Mist
KIGQ,04/25/2018 06:15 UTC,30.03,43.34,43.34,100.0,8.05,10.0,,31.0,,,,44.0,,,,5.0,,KIGQ 250615Z AUTO 01007KT 5SM BR OVC004 06/06 A3003 RMK AO2  T00630063,,,400.0,,,43.34,40.4,N,29.38,29.3,,Mist
KIGQ,04/25/2018 06:35 UTC,30.02,42.8,41.36,94.6,10.36,20.0,16.11,,313.0,,,42.0,72.0,,,10.0,,KIGQ 250635Z AUTO 02009G14KT 10SM SCT004 SCT007 BKN031 06/05 A3002 RMK AO2 T00600052,,,3100.0,,,41.34,38.83,NNE,29.37,29.34,,Mostly Cloudy
KIGQ,04/25/2018 06:55 UTC,30.02,43.7,39.56,85.23,10.36,10.0,,,,,,314.0,,,,10.0,,KIGQ 250655Z AUTO 01009KT 10SM OVC031 07/04 A3002 RMK AO2  T00650042,,,3100.0,,,39.5,39.91,N,29.37,29.38,,Overcast
KIGQ,04/25/2018 07:15 UTC,30.03,44.96,39.2,80.1,8.05,360.0,17.27,,,,,233.0,314.0,,,10.0,,KIGQ 250715Z AUTO 36007G15KT 10SM BKN023 OVC031 07/04 A3003 RMK AO2 T00720040,,,2300.0,,,39.13,42.3,N,29.38,29.39,,Overcast
KIGQ,04/25/2018 07:35 UTC,30.02,44.24,38.48,80.04,11.5,360.0,21.85,,,,,234.0,,,,10.0,,KIGQ 250735Z AUTO 36010G19KT 10SM OVC023 07/04 A3002 RMK AO2  T00680036,,,2300.0,,,38.4,40.17,N,29.37,29.4,,Overcast
KIGQ,04/25/2018 07:55 UTC,30.03,43.88,37.58,78.33,12.66,360.0,17.27,,,,,234.0,,,,10.0,,KIGQ 250755Z AUTO 36011G15KT 10SM OVC023 07/03 A3003 RMK AO2  T00660031,,,2300.0,,,37.5,39.38,N,29.38,29.43,,Overcast
KIGQ,04/25/2018 08:15 UTC,30.03,43.7,36.86,76.67,11.5,10.0,20.71,,,,,254.0,,,,10.0,,KIGQ 250815Z AUTO 01010G18KT 10SM OVC025 07/03 A3003 RMK AO2  T00650027,,,2500.0,,,36.77,39.52,N,29.38,29.45,,Overcast
KIGQ,04/25/2018 08:35 UTC,30.03,43.34,36.5,76.63,11.5,360.0,17.27,,,,,254.0,,,,10.0,,KIGQ 250835Z AUTO 36010G15KT 10SM OVC025 06/03 A3003 RMK AO2  T00630025,,,2500.0,,,36.41,39.09,N,29.38,29.46,,Overcast
KIGQ,04/25/2018 08:55 UTC,30.03,43.16,35.96,75.53,10.36,10.0,16.11,,,,,253.0,354.0,,,10.0,,KIGQ 250855Z AUTO 01009G14KT 10SM BKN025 OVC035 06/02 A3003 RMK AO2 T00620022,,,2500.0,,,35.86,39.26,N,29.38,29.47,,Overcast
KIGQ,04/25/2018 09:15 UTC,30.03,42.8,35.6,75.5,13.8,360.0,19.57,,,,,252.0,334.0,,,10.0,,KIGQ 250915Z AUTO 36012G17KT 10SM SCT025 OVC033 06/02 A3003 RMK AO2 T00600020,,,3300.0,,,35.51,37.73,N,29.38,29.48,,Overcast
KIGQ,04/25/2018 09:35 UTC,30.04,42.8,35.42,74.96,9.22,10.0,18.41,,,,,272.0,334.0,,,10.0,,KIGQ 250935Z AUTO 01008G16KT 10SM SCT027 OVC033 06/02 A3004 RMK AO2 T00600019,,,3300.0,,,35.32,39.27,N,29.39,29.49,,Overcast
KIGQ,04/25/2018 09:55 UTC,30.04,42.44,35.42,76.0,10.36,10.0,18.41,,,,,272.0,354.0,,,10.0,,KIGQ 250955Z AUTO 01009G16KT 10SM SCT027 OVC035 06/02 A3004 RMK AO2 T00580019,,,3500.0,,,35.32,38.4,N,29.39,29.49,,Overcast
KIGQ,04/25/2018 10:15 UTC,30.05,42.26,35.6,77.08,11.5,10.0,17.27,,,,,354.0,,,,10.0,,KIGQ 251015Z AUTO 01010G15KT 10SM OVC035 06/02 A3005 RMK AO2  T00570020,,,3500.0,,,35.51,37.78,N,29.4,29.5,,Overcast
KIGQ,04/25/2018 10:35 UTC,30.06,42.26,35.6,77.08,11.5,10.0,17.27,,,,,354.0,,,,10.0,,KIGQ 251035Z AUTO 01010G15KT 10SM OVC035 06/02 A3006 RMK AO2  T00570020,,,3500.0,,,35.51,37.78,N,29.41,29.51,,Overcast
KIGQ,04/25/2018 10:55 UTC,30.06,42.08,35.06,75.97,11.5,10.0,25.32,,,,,354.0,,,,10.0,,KIGQ 251055Z AUTO 01010G22KT 10SM OVC035 06/02 A3006 RMK AO2  T00560017,,,3500.0,,,34.97,37.57,N,29.41,29.52,,Overcast
KIGQ,04/25/2018 11:15 UTC,30.07,41.9,35.42,77.6,13.8,10.0,24.16,,,,,354.0,,,,10.0,,KIGQ 251115Z AUTO 01012G21KT 10SM OVC035 06/02 A3007 RMK AO2  T00550019,,,3500.0,,,35.33,36.63,N,29.42,29.53,,Overcast
KIGQ,04/25/2018 11:35 UTC,30.07,41.18,35.6,80.36,14.97,10.0,20.71,,,,,352.0,,,,10.0,,KIGQ 251135Z AUTO 01013G18KT 10SM SCT035 05/02 A3007 RMK AO2  T00510020,,,,,,35.52,35.41,N,29.42,29.53,,Partly Cloudy
KIGQ,04/25/2018 11:55 UTC,30.09,41.18,35.96,81.52,13.8,10.0,17.27,,,,,1.0,,,,10.0,,KIGQ 251155Z AUTO 01012G15KT 320V040 10SM CLR 05/02 A3009 RMK AO2  T00510022 10072 20050,44.96,41.0,,,,35.89,35.74,N,29.44,29.54,,Clear
KIGQ,04/25/2018 12:15 UTC,30.09,41.36,36.68,83.29,11.5,20.0,17.27,,,,,1.0,,,,10.0,,KIGQ 251215Z AUTO 02010G15KT 10SM CLR 05/03 A3009 RMK AO2  T00520026,,,,,,36.61,36.7,NNE,29.44,29.53,,Clear
KIGQ,04/25/2018 12:35 UTC,30.1,41.18,36.68,83.87,8.05,10.0,18.41,,,,,1.0,,,,10.0,,KIGQ 251235Z AUTO 01007G16KT 10SM CLR 05/03 A3010 RMK AO2  T00510026,,,,,,36.62,37.86,N,29.45,29.54,,Clear
KIGQ,04/25/2018 12:55 UTC,30.1,42.62,37.58,82.21,11.5,10.0,20.71,,,,,1.0,,,,10.0,,KIGQ 251255Z AUTO 01010G18KT 10SM CLR 06/03 A3010 RMK AO2  T00590031,,,,,,37.51,38.22,N,29.45,29.51,,Clear
KIGQ,04/25/2018 13:15 UTC,30.1,44.24,37.76,77.81,10.36,10.0,17.27,,,,,1.0,,,,10.0,,KIGQ 251315Z AUTO 01009G15KT 10SM CLR 07/03 A3010 RMK AO2  T00680032,,,,,,37.68,40.56,N,29.45,29.5,,Clear
KIGQ,04/25/2018 13:35 UTC,30.11,44.24,37.4,76.72,12.66,10.0,19.57,,,,,1.0,,,,10.0,,KIGQ 251335Z AUTO 01011G17KT 10SM CLR 07/03 A3011 RMK AO2  T00680030,,,,,,37.31,39.82,N,29.46,29.51,,Clear
KIGQ,04/25/2018 13:55 UTC,30.1,44.96,38.12,76.78,16.11,10.0,23.02,,,,,1.0,,,,10.0,,KIGQ 251355Z AUTO 01014G20KT 10SM CLR 07/03 A3010 RMK AO2  T00720034,,,,,,38.03,39.79,N,29.45,29.48,,Clear
KIGQ,04/25/2018 14:15 UTC,30.11,44.42,37.94,77.83,13.8,360.0,24.16,,,,,1.0,,,,10.0,,KIGQ 251415Z AUTO 36012G21KT 10SM CLR 07/03 A3011 RMK AO2  T00690033,,,,,,37.86,39.71,N,29.46,29.5,,Clear
KIGQ,04/25/2018 14:35 UTC,30.12,45.14,38.3,76.8,12.66,20.0,19.57,,,,,1.0,,,,10.0,,KIGQ 251435Z AUTO 02011G17KT 10SM CLR 07/04 A3012 RMK AO2  T00730035,,,,,,38.21,,NNE,29.47,29.5,,Clear
KIGQ,04/25/2018 14:55 UTC,30.12,45.68,37.94,74.19,16.11,10.0,23.02,,,,,1.0,,,,10.0,,KIGQ 251455Z AUTO 01014G20KT 10SM CLR 08/03 A3012 RMK AO2  T00760033,,,,,,37.84,,N,29.47,29.5,,Clear
KIGQ,04/25/2018 15:15 UTC,30.12,45.14,37.4,74.13,13.8,20.0,21.85,,,,,1.0,,,,10.0,,KIGQ 251515Z AUTO 02012G19KT 10SM CLR 07/03 A3012 RMK AO2  T00730030,,,,,,37.3,,NNE,29.47,29.52,,Clear
KIGQ,04/25/2018 15:35 UTC,30.11,46.22,37.94,72.69,12.66,10.0,17.27,,,,,1.0,,,,10.0,,KIGQ 251535Z AUTO 01011G15KT 10SM CLR 08/03 A3011 RMK AO2  T00790033,,,,,,37.84,,N,29.46,29.49,,Clear
KIGQ,04/25/2018 15:55 UTC,30.11,45.5,37.4,73.13,9.22,10.0,20.71,,,,,1.0,,,,10.0,,KIGQ 251555Z AUTO 01008G18KT 10SM CLR 08/03 A3011 RMK AO2  T00750030,,,,,,37.3,,N,29.46,29.5,,Clear
KIGQ,04/25/2018 16:15 UTC,30.11,45.32,36.86,72.08,11.5,10.0,19.57,,,,,1.0,,,,10.0,,KIGQ 251615Z AUTO 01010G17KT 10SM CLR 07/03 A3011 RMK AO2  T00740027,,,,,,36.76,,N,29.46,29.52,,Clear
KIGQ,04/25/2018 16:35 UTC,30.12,45.86,36.86,70.62,12.66,360.0,20.71,,,,,1.0,,,,10.0,,KIGQ 251635Z AUTO 36011G18KT 10SM CLR 08/03 A3012 RMK AO2  T00770027,,,,,,36.75,,N,29.47,29.52,,Clear
KIGQ,04/25/2018 16:55 UTC,30.12,46.4,36.68,68.7,10.36,10.0,18.41,,,,,1.0,,,,10.0,,KIGQ 251655Z AUTO 01009G16KT 10SM CLR 08/03 A3012 RMK AO2  T00800026,,,,,,36.56,,N,29.47,29.52,,Clear
KIGQ,04/25/2018 17:15 UTC,30.12,47.3,37.22,67.84,11.5,20.0,18.41,,,,,1.0,,,,10.0,,KIGQ 251715Z AUTO 02010G16KT 10SM CLR 09/03 A3012 RMK AO2  T00850029,,,,,,37.1,,NNE,29.47,29.5,,Clear
KIGQ,04/25/2018 17:35 UTC,30.12,47.48,36.86,66.43,13.8,20.0,,,,,,1.0,,,,10.0,,KIGQ 251735Z AUTO 02012KT 10SM CLR 09/03 A3012 RMK AO2  T00860027,,,,,,36.74,,NNE,29.47,29.51,,Clear
KIGQ,04/25/2018 17:55 UTC,30.11,48.2,37.58,66.52,14.97,20.0,,,,,,1.0,,,,10.0,,KIGQ 251755Z AUTO 02013KT 10SM CLR 09/03 A3011 RMK AO2 T00900031  10090 20050,48.2,41.0,,,,37.46,,NNE,29.46,29.48,,Clear
KIGQ,04/25/2018 18:15 UTC,30.11,47.84,37.04,66.0,14.97,360.0,19.57,,,,,1.0,,,,10.0,,KIGQ 251815Z AUTO 36013G17KT 10SM CLR 09/03 A3011 RMK AO2  T00880028,,,,,,36.91,,N,29.46,29.49,,Clear
KIGQ,04/25/2018 18:35 UTC,30.1,48.56,36.14,62.0,13.8,30.0,19.57,,,,,1.0,,,,10.0,,KIGQ 251835Z AUTO 03012G17KT 10SM CLR 09/02 A3010 RMK AO2  T00920023,,,,,,36.0,,NNE,29.45,29.5,,Clear
KIGQ,04/25/2018 18:55 UTC,30.11,48.56,36.14,62.0,12.66,10.0,17.27,,,,,1.0,,,,10.0,,KIGQ 251855Z AUTO 01011G15KT 10SM CLR 09/02 A3011 RMK AO2  T00920023,,,,,,36.0,,N,29.46,29.51,,Clear
KIGQ,04/25/2018 19:15 UTC,30.09,48.2,33.8,57.25,17.27,30.0,25.32,,,,,1.0,,,,10.0,,KIGQ 251915Z AUTO 03015G22KT 10SM CLR 09/01 A3009 RMK AO2  T00900010,,,,,,33.64,,NNE,29.44,29.54,,Clear
KIGQ,04/25/2018 19:35 UTC,30.09,49.28,34.16,55.79,16.11,40.0,19.57,,,,,1.0,,,,10.0,,KIGQ 251935Z AUTO 04014G17KT 10SM CLR 10/01 A3009 RMK AO2  T00960012,,,,,,34.0,,NE,29.44,29.52,,Clear
KIGQ,04/25/2018 19:55 UTC,30.08,49.28,33.26,53.81,12.66,10.0,18.41,,,,,1.0,,,,10.0,,KIGQ 251955Z AUTO 01011G16KT 10SM CLR 10/01 A3008 RMK AO2  T00960007,,,,,,33.09,,N,29.43,29.53,,Clear
KIGQ,04/25/2018 20:15 UTC,30.06,48.92,33.98,56.14,13.8,20.0,18.41,,,,,1.0,,,,10.0,,KIGQ 252015Z AUTO 02012G16KT 10SM CLR 09/01 A3006 RMK AO2  T00940011,,,,,,33.82,,NNE,29.41,29.5,,Clear
KIGQ,04/25/2018 20:35 UTC,30.06,49.46,35.06,57.44,10.36,50.0,,,,,,1.0,,,,10.0,,KIGQ 252035Z AUTO 05009KT 10SM CLR 10/02 A3006 RMK AO2  T00970017,,,,,,34.91,,NE,29.41,29.47,,Clear
KIGQ,04/25/2018 20:55 UTC,30.06,49.1,34.34,56.57,12.66,20.0,17.27,,,,,1.0,,,,10.0,,KIGQ 252055Z AUTO 02011G15KT 10SM CLR 10/01 A3006 RMK AO2  T00950013,,,,,,34.19,,NNE,29.41,29.49,,Clear
KIGQ,04/25/2018 21:15 UTC,30.06,48.02,33.62,57.23,12.66,30.0,16.11,,,,,1.0,,,,10.0,,KIGQ 252115Z AUTO 03011G14KT 10SM CLR 09/01 A3006 RMK AO2  T00890009,,,,,,33.46,,NNE,29.41,29.51,,Clear
KIGQ,04/25/2018 21:35 UTC,30.06,47.48,33.8,58.82,11.5,30.0,16.11,,,,,1.0,,,,10.0,,KIGQ 252135Z AUTO 03010G14KT 10SM CLR 09/01 A3006 RMK AO2  T00860010,,,,,,33.65,,NNE,29.41,29.51,,Clear
KIGQ,04/25/2018 21:55 UTC,30.06,46.22,34.16,62.58,12.66,20.0,18.41,,,,,1.0,,,,10.0,,KIGQ 252155Z AUTO 02011G16KT 10SM CLR 08/01 A3006 RMK AO2  T00790012,,,,,,34.02,,NNE,29.41,29.51,,Clear
KIGQ,04/25/2018 22:15 UTC,30.06,45.5,33.62,62.93,10.36,10.0,,,,,,1.0,,,,10.0,,KIGQ 252215Z AUTO 01009KT 10SM CLR 08/01 A3006 RMK AO2  T00750009,,,,,,33.48,,N,29.41,29.53,,Clear
KIGQ,04/25/2018 22:35 UTC,30.05,45.5,34.34,64.77,10.36,30.0,,,,,,1.0,,,,10.0,,KIGQ 252235Z AUTO 03009KT 350V050 10SM CLR 08/01 A3005 RMK AO2  T00750013,,,,,,34.2,,NNE,29.4,29.5,,Clear
KIGQ,04/25/2018 22:55 UTC,30.06,45.14,34.16,65.19,8.05,20.0,,,,,,1.0,,,,10.0,,KIGQ 252255Z AUTO 02007KT 10SM CLR 07/01 A3006 RMK AO2  T00730012,,,,,,34.03,,NNE,29.41,29.52,,Clear
KIGQ,04/25/2018 23:15 UTC,30.05,44.6,33.98,66.07,10.36,40.0,,,,,,1.0,,,,10.0,,KIGQ 252315Z AUTO 04009KT 10SM CLR 07/01 A3005 RMK AO2  T00700011,,,,,,33.85,40.99,NE,29.4,29.52,,Clear
KIGQ,04/25/2018 23:35 UTC,30.05,44.06,33.08,65.05,8.05,50.0,,,,,,1.0,,,,10.0,,KIGQ 252335Z AUTO 05007KT 10SM CLR 07/01 A3005 RMK AO2  T00670006,,,,,,32.94,41.24,NE,29.4,29.54,,Clear
KIGQ,04/25/2018 23:55 UTC,30.05,42.98,32.9,67.31,10.36,40.0,,,,,,1.0,,,,10.0,,KIGQ 252355Z AUTO 04009KT 10SM CLR 06/01 A3005 RMK AO2 T00610005  10099 20061,49.82,42.98,,,,32.77,39.05,NE,29.4,29.55,,Clear
KIGQ,04/26/2018 00:15 UTC,30.04,42.44,32.36,67.25,9.22,50.0,,,,,,1.0,,,,10.0,,KIGQ 260015Z AUTO 05008KT 10SM CLR 06/00 A3004 RMK AO2  T00580002,,,,,,32.23,38.84,NE,29.39,29.55,,Clear
KIGQ,04/26/2018 00:35 UTC,30.04,41.18,33.08,72.67,9.22,50.0,,,,,,1.0,,,,10.0,,KIGQ 260035Z AUTO 05008KT 10SM CLR 05/01 A3004 RMK AO2  T00510006,,,,,,32.97,37.34,NE,29.39,29.55,,Clear
KIGQ,04/26/2018 00:55 UTC,30.04,40.1,33.8,78.0,9.22,40.0,,,,,,1.0,,,,10.0,,KIGQ 260055Z AUTO 04008KT 10SM CLR 05/01 A3004 RMK AO2  T00450010,,,,,,33.71,36.06,NE,29.39,29.54,,Clear
KIGQ,04/26/2018 01:15 UTC,30.04,39.2,33.98,81.36,4.61,30.0,,,,,,1.0,,,,10.0,,KIGQ 260115Z AUTO 03004KT 10SM CLR 04/01 A3004 RMK AO2  T00400011,,,,,,33.9,,NNE,29.39,29.54,,Clear
KIGQ,04/26/2018 01:35 UTC,30.04,39.38,34.34,81.96,4.61,30.0,,,,,,1.0,,,,10.0,,KIGQ 260135Z AUTO 03004KT 10SM CLR 04/01 A3004 RMK AO2  T00410013,,,,,,34.27,,NNE,29.39,29.54,,Clear
KIGQ,04/26/2018 01:55 UTC,30.04,39.02,34.34,83.12,5.75,20.0,,,,,,1.0,,,,10.0,,KIGQ 260155Z AUTO 02005KT 10SM CLR 04/01 A3004 RMK AO2  T00390013,,,,,,34.27,,NNE,29.39,29.54,,Clear
KIGQ,04/26/2018 02:15 UTC,30.04,38.66,34.7,85.52,5.75,30.0,,,,,,1.0,,,,10.0,,KIGQ 260215Z AUTO 03005KT 10SM CLR 04/02 A3004 RMK AO2  T00370015,,,,,,34.64,,NNE,29.39,29.54,,Clear
KIGQ,04/26/2018 02:35 UTC,30.04,38.66,34.7,85.52,3.44,20.0,,,,,,1.0,,,,10.0,,KIGQ 260235Z AUTO 02003KT 10SM CLR 04/02 A3004 RMK AO2  T00370015,,,,,,34.64,,NNE,29.39,29.54,,Clear
KIGQ,04/26/2018 02:55 UTC,30.03,38.48,34.52,85.51,0.0,0.0,,,,,,1.0,,,,10.0,,KIGQ 260255Z AUTO 00000KT 10SM CLR 04/01 A3003 RMK AO2  T00360014,,,,,,34.46,,N,29.38,29.53,,Clear
KIGQ,04/26/2018 03:15 UTC,30.03,38.3,34.34,85.5,0.0,0.0,,,,,,1.0,,,,10.0,,KIGQ 260315Z AUTO 00000KT 10SM CLR 04/01 A3003 RMK AO2  T00350013,,,,,,34.28,,N,29.38,29.53,,Clear
KIGQ,04/26/2018 03:35 UTC,30.02,37.94,33.98,85.48,0.0,0.0,,,,,,1.0,,,,10.0,,KIGQ 260335Z AUTO 00000KT 10SM CLR 03/01 A3002 RMK AO2  T00330011,,,,,,33.92,,N,29.37,29.53,,Clear
KIGQ,04/26/2018 03:55 UTC,30.02,37.94,33.8,84.86,0.0,0.0,,,,,,1.0,,,,10.0,,KIGQ 260355Z AUTO 00000KT 10SM CLR 03/01 A3002 RMK AO2  T00330010,,,,,,33.74,,N,29.37,29.54,,Clear
KIGQ,04/26/2018 04:15 UTC,30.01,37.58,33.8,86.07,0.0,0.0,,,,,,1.0,,,,10.0,,KIGQ 260415Z AUTO 00000KT 10SM CLR 03/01 A3001 RMK AO2  T00310010,,,,,,33.74,,N,29.36,29.53,,Clear
KIGQ,04/26/2018 04:35 UTC,30.01,32.9,31.46,94.36,0.0,0.0,,,,,,1.0,,,,10.0,,KIGQ 260435Z AUTO 00000KT 10SM CLR 01/00 A3001 RMK AO2  T00051003,,,,,,31.44,,N,29.36,29.6,,Clear
KIGQ,04/26/2018 04:55 UTC,30.0,33.8,33.08,97.15,0.0,0.0,,,,,,1.0,,,,10.0,,KIGQ 260455Z AUTO 00000KT 10SM CLR 01/01 A3000 RMK AO2  T00100006,,,,,,33.07,,N,29.35,29.56,,Clear
KIGQ,04/26/2018 05:15 UTC,30.0,35.96,33.26,89.79,0.0,0.0,,,,,,1.0,,,,10.0,,KIGQ 260515Z AUTO 00000KT 10SM CLR 02/01 A3000 RMK AO2  T00220007,,,,,,33.22,,N,29.35,29.54,,Clear
KIGQ,04/26/2018 05:35 UTC,29.99,35.24,32.54,89.76,0.0,0.0,,,,,,1.0,,,,10.0,,KIGQ 260535Z AUTO 00000KT 10SM CLR 02/00 A2999 RMK AO2  T00180003,,,,,,32.5,,N,29.34,29.54,,Clear
KIGQ,04/26/2018 05:55 UTC,29.99,35.06,32.72,91.06,0.0,0.0,,,,,,1.0,,,,10.0,,KIGQ 260555Z AUTO 00000KT 10SM CLR 02/00 A2999 RMK AO2 T00170004  10061 20001 400990001,42.98,32.18,,49.82,32.18,32.68,,N,29.34,29.54,,Clear
KIGQ,04/26/2018 06:15 UTC,29.99,35.42,32.36,88.48,0.0,0.0,,,,,,1.0,,,,10.0,,KIGQ 260615Z AUTO 00000KT 10SM CLR 02/00 A2999 RMK AO2  T00190002,,,,,,32.31,,N,29.34,29.55,,Clear
KIGQ,04/26/2018 06:35 UTC,29.98,35.06,32.36,89.75,0.0,0.0,,,,,,1.0,,,,10.0,,KIGQ 260635Z AUTO 00000KT 10SM CLR 02/00 A2998 RMK AO2  T00170002,,,,,,32.32,,N,29.33,29.54,,Clear
KIGQ,04/26/2018 06:55 UTC,29.97,33.26,32.0,95.06,0.0,0.0,,,,,,1.0,,,,10.0,,KIGQ 260655Z AUTO 00000KT 10SM CLR 01/00 A2997 RMK AO2  T00070000,,,,,,31.98,,N,29.32,29.55,,Clear
KIGQ,04/26/2018 07:15 UTC,29.96,34.16,32.0,91.69,0.0,0.0,,,,,,1.0,,,,10.0,,KIGQ 260715Z AUTO 00000KT 10SM CLR 01/00 A2996 RMK AO2  T00120000,,,,,,31.96,,N,29.31,29.53,,Clear
KIGQ,04/26/2018 07:35 UTC,29.96,31.1,30.2,96.41,0.0,0.0,,,,,,1.0,,,,10.0,,KIGQ 260735Z AUTO 00000KT 10SM CLR 00/M01 A2996 RMK AO2  T10051010,,,,,,30.18,,N,29.31,29.58,,Clear
KIGQ,04/26/2018 07:55 UTC,29.96,30.74,30.56,99.27,0.0,0.0,,,,,,1.0,,,,10.0,,KIGQ 260755Z AUTO 00000KT 10SM CLR M01/M01 A2996 RMK AO2  T10071008,,,,,,30.56,,N,29.31,29.57,,Clear
KIGQ,04/26/2018 08:15 UTC,29.96,32.9,32.0,96.44,0.0,0.0,,,,,,1.0,,,,10.0,,KIGQ 260815Z AUTO 00000KT 10SM CLR 01/00 A2996 RMK AO2  T00050000,,,,,,31.98,,N,29.31,29.54,,Clear
KIGQ,04/26/2018 08:35 UTC,29.96,33.62,32.0,93.69,0.0,0.0,,,,,,1.0,,,,10.0,,KIGQ 260835Z AUTO 00000KT 10SM CLR 01/00 A2996 RMK AO2  T00090000,,,,,,31.97,,N,29.31,29.53,,Clear
KIGQ,04/26/2018 08:55 UTC,29.96,33.08,31.64,94.36,0.0,0.0,,,,,,1.0,,,,10.0,,KIGQ 260855Z AUTO 00000KT 10SM CLR 01/00 A2996 RMK AO2  T00061002,,,,,,31.62,,N,29.31,29.54,,Clear
KIGQ,04/26/2018 09:15 UTC,29.96,32.18,31.46,97.13,0.0,0.0,,,,,,1.0,,,,10.0,,KIGQ 260915Z AUTO 00000KT 10SM CLR 00/00 A2996 RMK AO2  T00011003,,,,,,31.45,,N,29.31,29.55,,Clear
KIGQ,04/26/2018 09:35 UTC,29.96,31.28,29.66,93.63,0.0,0.0,,,,,,1.0,,,,10.0,,KIGQ 260935Z AUTO 00000KT 10SM CLR 00/M01 A2996 RMK AO2  T10041013,,,,,,29.63,,N,29.31,29.58,,Clear
KIGQ,04/26/2018 09:55 UTC,29.96,31.28,30.56,97.12,0.0,0.0,,,,,,1.0,,,,10.0,,KIGQ 260955Z AUTO 00000KT 10SM CLR 00/M01 A2996 RMK AO2  T10041008,,,,,,30.55,,N,29.31,29.57,,Clear
KIGQ,04/26/2018 10:15 UTC,29.96,29.84,29.48,98.54,0.0,0.0,,,,,,1.0,,,,10.0,,KIGQ 261015Z AUTO 00000KT 10SM CLR M01/M01 A2996 RMK AO2  T10121014,,,,,,29.47,,N,29.31,29.6,,Clear
KIGQ,04/26/2018 10:35 UTC,29.96,31.64,30.2,94.33,0.0,0.0,,,,,,1.0,,,,10.0,,KIGQ 261035Z AUTO 00000KT 10SM CLR 00/M01 A2996 RMK AO2  T10021010,,,,,,30.18,,N,29.31,29.57,,Clear
KIGQ,04/26/2018 10:55 UTC,29.96,31.1,30.2,96.41,0.0,0.0,,,,,,1.0,,,,10.0,,KIGQ 261055Z AUTO 00000KT 10SM CLR 00/M01 A2996 RMK AO2  T10051010,,,,,,30.18,,N,29.31,29.58,,Clear
KIGQ,04/26/2018 11:15 UTC,29.96,31.82,30.74,95.72,0.0,0.0,,,,,,1.0,,,,10.0,,KIGQ 261115Z AUTO 00000KT 10SM CLR 00/M01 A2996 RMK AO2  T10011007,,,,,,30.72,,N,29.31,29.56,,Clear
KIGQ,04/26/2018 11:35 UTC,29.96,32.72,30.74,92.31,0.0,0.0,,,,,,1.0,,,,10.0,,KIGQ 261135Z AUTO 00000KT 10SM CLR 00/M01 A2996 RMK AO2  T00041007,,,,,,30.71,,N,29.31,29.56,,Clear
KIGQ,04/26/2018 11:55 UTC,29.97,32.0,31.1,96.43,0.0,0.0,,,,,,1.0,,,,10.0,,KIGQ 261155Z AUTO 00000KT 10SM CLR 00/00 A2997 RMK AO2 T00001005  10020 21015,35.6,29.3,,,,31.09,,N,29.32,29.57,,Clear
KIGQ,04/26/2018 12:15 UTC,29.97,34.34,33.62,97.16,0.0,0.0,,,,,,1.0,,,,10.0,,KIGQ 261215Z AUTO 00000KT 10SM CLR 01/01 A2997 RMK AO2  T00130009,,,,,,33.61,,N,29.32,29.51,,Clear
KIGQ,04/26/2018 12:35 UTC,29.97,38.48,35.6,89.27,0.0,0.0,,,,,,1.0,,,,10.0,,KIGQ 261235Z AUTO 00000KT 10SM CLR 04/02 A2997 RMK AO2  T00360020,,,,,,35.56,,N,29.32,29.45,,Clear
KIGQ,04/26/2018 12:55 UTC,29.97,42.8,34.88,73.37,3.44,10.0,,,,,,1.0,,,,10.0,,KIGQ 261255Z AUTO 01003KT 10SM CLR 06/02 A2997 RMK AO2  T00600016,,,,,,34.78,,N,29.32,29.43,,Clear
KIGQ,04/26/2018 13:15 UTC,29.98,44.06,35.24,70.92,0.0,0.0,,,,,,1.0,,,,10.0,,KIGQ 261315Z AUTO 00000KT 10SM CLR 07/02 A2998 RMK AO2  T00670018,,,,,,35.13,,N,29.33,29.43,,Clear
KIGQ,04/26/2018 13:35 UTC,29.97,46.04,35.78,67.2,4.61,50.0,,,,,,1.0,,,,10.0,,KIGQ 261335Z AUTO 05004KT 10SM CLR 08/02 A2997 RMK AO2  T00780021,,,,,,35.66,,NE,29.32,29.39,,Clear
KIGQ,04/26/2018 13:55 UTC,29.97,46.94,36.14,65.89,0.0,0.0,,,,,,1.0,,,,10.0,,KIGQ 261355Z AUTO 00000KT 10SM CLR 08/02 A2997 RMK AO2  T00830023,,,,,,36.01,,N,29.32,29.38,,Clear
KIGQ,04/26/2018 14:15 UTC,29.98,48.92,36.32,61.61,4.61,40.0,,,,,,1.0,,,,10.0,,KIGQ 261415Z AUTO 04004KT 10SM CLR 09/02 A2998 RMK AO2  T00940024,,,,,,36.18,,NE,29.33,29.37,,Clear
KIGQ,04/26/2018 14:35 UTC,29.98,49.64,35.78,58.71,0.0,0.0,,,,,,1.0,,,,10.0,,KIGQ 261435Z AUTO 00000KT 10SM CLR 10/02 A2998 RMK AO2  T00980021,,,,,,35.63,,N,29.33,29.38,,Clear
KIGQ,04/26/2018 14:55 UTC,29.98,50.36,35.96,57.57,4.61,100.0,,,,,,1.0,,,,10.0,,KIGQ 261455Z AUTO 10004KT 10SM CLR 10/02 A2998 RMK AO2  T01020022,,,,,,35.81,,E,29.33,29.37,,Clear
KIGQ,04/26/2018 15:15 UTC,29.98,51.44,35.42,54.14,5.75,50.0,,,,,,1.0,,,,10.0,,KIGQ 261515Z AUTO 05005KT 10SM CLR 11/02 A2998 RMK AO2  T01080019,,,,,,35.26,,NE,29.33,29.37,,Clear
KIGQ,04/26/2018 15:35 UTC,29.98,52.7,33.44,47.76,0.0,0.0,,,,,,1.0,,,,10.0,,KIGQ 261535Z AUTO 00000KT 10SM CLR 12/01 A2998 RMK AO2  T01150008,,,,,,33.27,,N,29.33,29.4,,Clear
KIGQ,04/26/2018 15:55 UTC,29.97,53.96,34.16,46.94,3.44,70.0,,,,,,1.0,,,,7.0,,KIGQ 261555Z AUTO 07003KT 7SM CLR 12/01 A2997 RMK AO2  T01220012,,,,,,33.99,,ENE,29.32,29.37,,Clear
KIGQ,04/26/2018 16:15 UTC,29.97,54.5,33.26,44.39,3.44,80.0,,,,,,1.0,,,,10.0,,KIGQ 261615Z AUTO 08003KT 10SM CLR 13/01 A2997 RMK AO2  T01250007,,,,,,33.08,,E,29.32,29.39,,Clear
KIGQ,04/26/2018 16:35 UTC,29.97,55.4,33.08,42.66,0.0,0.0,,,,,,1.0,,,,10.0,,KIGQ 261635Z AUTO 00000KT 10SM CLR 13/01 A2997 RMK AO2  T01300006,,,,,,32.91,,N,29.32,29.39,,Clear
KIGQ,04/26/2018 16:55 UTC,29.97,56.3,32.9,40.99,0.0,0.0,,,,,,1.0,,,,10.0,,KIGQ 261655Z AUTO 00000KT 10SM CLR 14/01 A2997 RMK AO2  T01350005,,,,,,32.73,,N,29.32,29.38,,Clear
KIGQ,04/26/2018 17:15 UTC,29.96,57.92,33.98,40.38,4.61,140.0,,,,,,1.0,,,,10.0,,KIGQ 261715Z AUTO 14004KT 10SM CLR 14/01 A2996 RMK AO2  T01440011,,,,,,33.82,,SE,29.31,29.34,,Clear
KIGQ,04/26/2018 17:35 UTC,29.96,57.74,32.72,38.64,0.0,0.0,,,,,,1.0,,,,10.0,,KIGQ 261735Z AUTO 00000KT 10SM CLR 14/00 A2996 RMK AO2  T01430004,,,,,,32.55,,N,29.31,29.37,,Clear
KIGQ,04/26/2018 17:55 UTC,29.95,58.1,32.0,37.05,0.0,0.0,,,,,,1.0,,,,10.0,,KIGQ 261755Z AUTO 00000KT 10SM CLR 15/00 A2995 RMK AO2 T01450000  10146 20000,58.28,32.0,,,,31.83,,N,29.3,29.37,,Clear
KIGQ,04/26/2018 18:15 UTC,29.94,59.18,33.8,38.32,4.61,100.0,,,,,,1.0,,,,10.0,,KIGQ 261815Z AUTO 10004KT 10SM CLR 15/01 A2994 RMK AO2  T01510010,,,,,,33.64,,E,29.29,29.32,,Clear
KIGQ,04/26/2018 18:35 UTC,29.93,59.9,33.62,37.08,3.44,200.0,,,,,,1.0,,,,10.0,,KIGQ 261835Z AUTO 20003KT 10SM CLR 16/01 A2993 RMK AO2  T01550009,,,,,,33.46,,SSW,29.28,29.31,,Clear
KIGQ,04/26/2018 18:55 UTC,29.93,60.8,34.16,36.7,0.0,0.0,,,,,,1.0,,,,10.0,,KIGQ 261855Z AUTO 00000KT 10SM CLR 16/01 A2993 RMK AO2  T01600012,,,,,,34.01,,N,29.28,29.29,,Clear
KIGQ,04/26/2018 19:15 UTC,29.91,61.16,34.34,36.5,0.0,0.0,,,,,,1.0,,,,10.0,,KIGQ 261915Z AUTO 00000KT 10SM CLR 16/01 A2991 RMK AO2  T01620013,,,,,,34.19,,N,29.26,29.26,,Clear
KIGQ,04/26/2018 19:35 UTC,29.91,62.42,35.42,36.44,4.61,10.0,,,,,,1.0,,,,10.0,,KIGQ 261935Z AUTO 01004KT 10SM CLR 17/02 A2991 RMK AO2  T01690019,,,,,,35.27,,N,29.26,29.23,,Clear
KIGQ,04/26/2018 19:55 UTC,29.91,60.98,32.72,34.42,3.44,60.0,,,,,,1.0,,,,10.0,,KIGQ 261955Z AUTO 06003KT 10SM CLR 16/00 A2991 RMK AO2  T01610004,,,,,,32.56,,ENE,29.26,29.3,,Clear
KIGQ,04/26/2018 20:15 UTC,29.9,61.7,32.9,33.8,0.0,0.0,,,,,,1.0,,,,10.0,,KIGQ 262015Z AUTO 00000KT 10SM CLR 17/01 A2990 RMK AO2  T01650005,,,,,,32.75,,N,29.25,29.28,,Clear
KIGQ,04/26/2018 20:35 UTC,29.89,62.42,32.54,32.48,0.0,0.0,,,,,,1.0,,,,10.0,,KIGQ 262035Z AUTO 00000KT 10SM CLR 17/00 A2989 RMK AO2  T01690003,,,,,,32.39,,N,29.24,29.27,,Clear
KIGQ,04/26/2018 20:55 UTC,29.88,63.5,34.52,33.85,6.91,270.0,,,,,,1.0,,,,10.0,,KIGQ 262055Z AUTO 27006KT 10SM CLR 18/01 A2988 RMK AO2  T01750014,,,,,,34.38,,W,29.23,29.22,,Clear
KIGQ,04/26/2018 21:15 UTC,29.88,62.96,34.7,34.75,0.0,0.0,,,,,,1.0,,,,10.0,,KIGQ 262115Z AUTO 00000KT 10SM CLR 17/02 A2988 RMK AO2  T01720015,,,,,,34.56,,N,29.23,29.21,,Clear
KIGQ,04/26/2018 21:35 UTC,29.88,62.6,33.62,33.71,3.44,60.0,,,,,,1.0,,,,10.0,,KIGQ 262135Z AUTO 06003KT 10SM CLR 17/01 A2988 RMK AO2  T01700009,,,,,,33.48,,ENE,29.23,29.24,,Clear
KIGQ,04/26/2018 21:55 UTC,29.87,63.68,35.6,35.12,3.44,110.0,,,,,,1.0,,,,10.0,,KIGQ 262155Z AUTO 11003KT 10SM CLR 18/02 A2987 RMK AO2  T01760020,,,,,,35.47,,ESE,29.22,29.18,,Clear
KIGQ,04/26/2018 22:15 UTC,29.86,64.22,35.24,33.97,0.0,0.0,,,,,,1.0,,,,10.0,,KIGQ 262215Z AUTO 00000KT 10SM CLR 18/02 A2986 RMK AO2  T01790018,,,,,,35.11,,N,29.21,29.17,,Clear
KIGQ,04/26/2018 22:35 UTC,29.86,62.78,34.52,34.72,5.75,70.0,,,,,,1.0,,,,10.0,,KIGQ 262235Z AUTO 07005KT 10SM CLR 17/01 A2986 RMK AO2  T01710014,,,,,,34.38,,ENE,29.21,29.2,,Clear
KIGQ,04/26/2018 22:55 UTC,29.85,62.24,34.88,35.9,5.75,80.0,,,,,,1.0,,,,10.0,,KIGQ 262255Z AUTO 08005KT 10SM CLR 17/02 A2985 RMK AO2  T01680016,,,,,,34.74,,E,29.2,29.18,,Clear
KIGQ,04/26/2018 23:15 UTC,29.85,62.06,35.78,37.44,3.44,100.0,,,,,,1.0,,,,10.0,,KIGQ 262315Z AUTO 10003KT 10SM CLR 17/02 A2985 RMK AO2  T01670021,,,,,,35.64,,E,29.2,29.16,,Clear
KIGQ,04/26/2018 23:35 UTC,29.85,62.96,34.52,34.5,3.44,130.0,,,,,,1.0,,,,10.0,,KIGQ 262335Z AUTO 13003KT 10SM CLR 17/01 A2985 RMK AO2  T01720014,,,,,,34.38,,SE,29.2,29.19,,Clear
KIGQ,04/26/2018 23:55 UTC,29.85,60.08,37.58,43.12,0.0,0.0,,,,,,1.0,,,,10.0,,KIGQ 262355Z AUTO 00000KT 10SM CLR 16/03 A2985 RMK AO2 T01560031  10180 20146,64.4,58.28,,,,37.44,,N,29.2,29.13,,Clear
KIGQ,04/27/2018 00:15 UTC,29.85,61.34,34.88,37.06,4.61,110.0,,,,,,1.0,,,,10.0,,KIGQ 270015Z AUTO 11004KT 10SM CLR 16/02 A2985 RMK AO2  T01630016,,,,,,34.73,,ESE,29.2,29.19,,Clear
KIGQ,04/27/2018 00:35 UTC,29.86,60.08,33.26,36.32,3.44,90.0,,,,,,1.0,,,,10.0,,KIGQ 270035Z AUTO 09003KT 10SM CLR 16/01 A2986 RMK AO2  T01560007,,,,,,33.1,,E,29.21,29.24,,Clear
KIGQ,04/27/2018 00:55 UTC,29.86,57.02,35.24,43.86,6.91,110.0,,,,,,1.0,,,,10.0,,KIGQ 270055Z AUTO 11006KT 10SM CLR 14/02 A2986 RMK AO2  T01390018,,,,,,35.08,,ESE,29.21,29.22,,Clear
KIGQ,04/27/2018 01:15 UTC,29.86,56.12,33.44,42.16,5.75,130.0,,,,,,1.0,,,,10.0,,KIGQ 270115Z AUTO 13005KT 10SM CLR 13/01 A2986 RMK AO2  T01340008,,,,,,33.27,,SE,29.21,29.26,,Clear
KIGQ,04/27/2018 01:35 UTC,29.85,55.58,32.36,41.17,6.91,130.0,,,,,,1.0,,,,10.0,,KIGQ 270135Z AUTO 13006KT 10SM CLR 13/00 A2985 RMK AO2  T01310002,,,,,,32.18,,SE,29.2,29.28,,Clear
KIGQ,04/27/2018 01:55 UTC,29.86,54.86,32.54,42.57,6.91,140.0,,,,,,1.0,,,,10.0,,KIGQ 270155Z AUTO 14006KT 10SM CLR 13/00 A2986 RMK AO2  T01270003,,,,,,32.36,,SE,29.21,29.29,,Clear
KIGQ,04/27/2018 02:15 UTC,29.85,54.14,32.18,43.07,5.75,140.0,,,,,,1.0,,,,10.0,,KIGQ 270215Z AUTO 14005KT 10SM CLR 12/00 A2985 RMK AO2  T01230001,,,,,,32.0,,SE,29.2,29.29,,Clear
KIGQ,04/27/2018 02:35 UTC,29.85,53.06,32.36,45.13,5.75,140.0,,,,,,1.0,,,,10.0,,KIGQ 270235Z AUTO 14005KT 10SM CLR 12/00 A2985 RMK AO2  T01170002,,,,,,32.18,,SE,29.2,29.29,,Clear
KIGQ,04/27/2018 02:55 UTC,29.85,50.54,31.46,47.76,3.44,150.0,,,,,,1.0,,,,10.0,,KIGQ 270255Z AUTO 15003KT 10SM CLR 10/00 A2985 RMK AO2  T01031003,,,,,,31.28,,SSE,29.2,29.32,,Clear
KIGQ,04/27/2018 03:15 UTC,29.84,49.64,30.2,46.92,4.61,160.0,,,,,,1.0,,,,10.0,,KIGQ 270315Z AUTO 16004KT 10SM CLR 10/M01 A2984 RMK AO2  T00981010,,,,,,30.01,,SSE,29.19,29.34,,Clear
KIGQ,04/27/2018 03:35 UTC,29.84,47.66,29.48,49.06,4.61,170.0,,,,,,1.0,,,,10.0,,KIGQ 270335Z AUTO 17004KT 10SM CLR 09/M01 A2984 RMK AO2  T00871014,,,,,,29.29,,S,29.19,29.36,,Clear
KIGQ,04/27/2018 03:55 UTC,29.83,48.56,28.76,46.06,4.61,160.0,,,,,,1.0,,,,10.0,,KIGQ 270355Z AUTO 16004KT 10SM CLR 09/M02 A2983 RMK AO2  T00921018,,,,,,28.56,,SSE,29.18,29.36,,Clear
KIGQ,04/27/2018 04:15 UTC,29.83,47.66,28.58,47.29,5.75,170.0,,,,,,1.0,,,,10.0,,KIGQ 270415Z AUTO 17005KT 10SM CLR 09/M02 A2983 RMK AO2  T00871019,,,,,,28.39,,S,29.18,29.37,,Clear
KIGQ,04/27/2018 04:35 UTC,29.82,47.48,29.66,49.76,3.44,170.0,,,,,,1.0,,,,10.0,,KIGQ 270435Z AUTO 17003KT 10SM CLR 09/M01 A2982 RMK AO2  T00861013,,,,,,29.47,,S,29.17,29.34,,Clear
KIGQ,04/27/2018 04:55 UTC,29.82,45.68,29.84,53.65,0.0,0.0,,,,,,1.0,,,,10.0,,KIGQ 270455Z AUTO 00000KT 10SM CLR 08/M01 A2982 RMK AO2  T00761012,,,,,,29.66,,N,29.17,29.35,,Clear
KIGQ,04/27/2018 05:15 UTC,29.81,45.32,30.02,54.79,3.44,170.0,,,,,,1.0,,,,10.0,,KIGQ 270515Z AUTO 17003KT 10SM CLR 07/M01 A2981 RMK AO2  T00741011,,,,,,29.85,,S,29.16,29.34,,Clear
KIGQ,04/27/2018 05:35 UTC,29.81,46.04,28.94,51.01,3.44,180.0,,,,,,1.0,,,,10.0,,KIGQ 270535Z AUTO 18003KT 10SM CLR 08/M02 A2981 RMK AO2  T00781017,,,,,,28.75,,S,29.16,29.35,,Clear
KIGQ,04/27/2018 05:55 UTC,29.8,47.12,31.64,54.66,0.0,0.0,,,,,,1.0,,,,10.0,,KIGQ 270555Z AUTO 00000KT 10SM CLR 08/00 A2980 RMK AO2 T00841002  10163 20072 401801015,61.34,44.96,,64.4,29.3,31.47,,N,29.15,29.29,,Clear
KIGQ,04/27/2018 06:15 UTC,29.8,46.94,31.82,55.44,0.0,0.0,,,,,,1.0,,,,10.0,,KIGQ 270615Z AUTO 00000KT 10SM CLR 08/00 A2980 RMK AO2  T00831001,,,,,,31.65,,N,29.15,29.29,,Clear
KIGQ,04/27/2018 06:35 UTC,29.78,47.48,31.28,53.15,3.44,180.0,,,,,,1.0,,,,10.0,,KIGQ 270635Z AUTO 18003KT 10SM CLR 09/00 A2978 RMK AO2  T00861004,,,,,,31.11,,S,29.13,29.27,,Clear
KIGQ,04/27/2018 06:55 UTC,29.77,46.76,33.08,58.72,0.0,0.0,,,,,,1.0,,,,10.0,,KIGQ 270655Z AUTO 00000KT 10SM CLR 08/01 A2977 RMK AO2  T00820006,,,,,,32.93,,N,29.12,29.23,,Clear
KIGQ,04/27/2018 07:15 UTC,29.76,47.3,32.36,55.89,0.0,0.0,,,,,,1.0,,,,10.0,,KIGQ 270715Z AUTO 00000KT 10SM CLR 09/00 A2976 RMK AO2  T00850002,,,,,,32.19,,N,29.11,29.23,,Clear
KIGQ,04/27/2018 07:40 UTC,29.75,47.12,32.54,56.68,4.61,220.0,,,,,,1.0,,,,10.0,,KIGQ 270740Z AUTO 22004KT 10SM CLR 08/00 A2975 RMK AO2  T00840003,,,,,,32.38,,SW,29.1,29.22,,Clear
KIGQ,04/27/2018 07:55 UTC,29.74,45.14,32.9,61.98,4.61,190.0,,,,,,1.0,,,,10.0,,KIGQ 270755Z AUTO 19004KT 10SM CLR 07/01 A2974 RMK AO2  T00730005,,,,,,32.75,,S,29.09,29.22,,Clear
KIGQ,04/27/2018 08:15 UTC,29.74,47.48,34.7,60.98,5.75,200.0,,,,,,1202.0,,,,10.0,,KIGQ 270815Z AUTO 20005KT 10SM SCT120 09/02 A2974 RMK AO2  T00860015,,,,,,34.56,,SSW,29.09,29.17,,Partly Cloudy
KIGQ,04/27/2018 08:35 UTC,29.73,48.02,35.78,62.37,4.61,220.0,,,,,,1203.0,,,,10.0,,KIGQ 270835Z AUTO 22004KT 10SM BKN120 09/02 A2973 RMK AO2  T00890021,,,12000.0,,,35.64,,SW,29.08,29.13,,Mostly Cloudy
KIGQ,04/27/2018 08:55 UTC,29.74,48.56,35.24,59.83,5.75,250.0,,,,,,1202.0,,,,10.0,,KIGQ 270855Z AUTO 25005KT 10SM SCT120 09/02 A2974 RMK AO2  T00920018,,,,,,35.1,,WSW,29.09,29.15,,Partly Cloudy
KIGQ,04/27/2018 09:15 UTC,29.74,48.92,35.6,59.88,6.91,230.0,,,,,,1.0,,,,10.0,,KIGQ 270915Z AUTO 23006KT 10SM CLR 09/02 A2974 RMK AO2  T00940020,,,,,,35.46,,SW,29.09,29.14,,Clear
KIGQ,04/27/2018 09:35 UTC,29.74,48.2,35.6,61.51,3.44,280.0,,,,,,953.0,1203.0,,,10.0,,KIGQ 270935Z AUTO 28003KT 10SM BKN095 BKN120 09/02 A2974 RMK AO2  T00900020,,,9500.0,,,35.46,,W,29.09,29.15,,Mostly Cloudy
KIGQ,04/27/2018 09:55 UTC,29.77,44.42,37.4,76.19,10.36,10.0,23.02,,,,,953.0,1204.0,,,10.0,,KIGQ 270955Z AUTO 01009G20KT 10SM BKN095 OVC120 07/03 A2977 RMK AO2 T00690030,,,9500.0,,,37.31,40.77,N,29.12,29.16,,Overcast
KIGQ,04/27/2018 10:15 UTC,29.78,42.44,37.22,81.61,13.8,10.0,21.85,,,,,952.0,1202.0,,,10.0,,KIGQ 271015Z AUTO 01012G19KT 10SM SCT095 SCT120 06/03 A2978 RMK AO2 T00580029,,,,,,37.15,37.29,N,29.13,29.19,,Partly Cloudy
KIGQ,04/27/2018 10:35 UTC,29.78,41.72,36.86,82.72,13.8,360.0,20.71,,,,,852.0,1203.0,,,10.0,,KIGQ 271035Z AUTO 36012G18KT 10SM SCT085 BKN120 05/03 A2978 RMK AO2 T00540027,,,12000.0,,,36.79,36.41,N,29.13,29.21,,Mostly Cloudy
KIGQ,04/27/2018 10:55 UTC,29.8,41.18,37.04,85.07,13.8,360.0,18.41,,,,,852.0,1203.0,,,10.0,,KIGQ 271055Z AUTO 36012G16KT 10SM SCT085 BKN120 05/03 A2980 RMK AO2 T00510028,,,12000.0,,,36.98,35.74,N,29.15,29.23,,Mostly Cloudy
KIGQ,04/27/2018 11:15 UTC,29.8,41.0,36.86,85.06,17.27,10.0,23.02,,,,,1202.0,,,,10.0,,KIGQ 271115Z AUTO 01015G20KT 10SM SCT120 05/03 A2980 RMK AO2  T00500027,,,,,,36.8,34.58,N,29.15,29.23,,Partly Cloudy
KIGQ,04/27/2018 11:35 UTC,29.81,41.0,37.04,85.67,13.8,360.0,19.57,,,,,1.0,,,,10.0,,KIGQ 271135Z AUTO 36012G17KT 10SM CLR 05/03 A2981 RMK AO2  T00500028,,,,,,36.98,35.52,N,29.16,29.24,,Clear
KIGQ,04/27/2018 11:55 UTC,29.81,42.26,37.58,83.35,11.5,360.0,20.71,,,,,603.0,,,,10.0,,KIGQ 271155Z AUTO 36010G18KT 10SM BKN060 06/03 A2981 RMK AO2  T00570031 10096 20050,49.28,41.0,6000.0,,,37.51,37.78,N,29.16,29.22,,Mostly Cloudy
KIGQ,04/27/2018 12:15 UTC,29.82,42.98,37.94,82.23,9.22,10.0,,,,,,603.0,,,,10.0,,KIGQ 271215Z AUTO 01008KT 10SM BKN060 06/03 A2982 RMK AO2  T00610033,,,6000.0,,,37.87,39.48,N,29.17,29.22,,Mostly Cloudy
KIGQ,04/27/2018 12:35 UTC,29.82,44.6,37.94,77.29,9.22,350.0,16.11,,,,,703.0,,,,10.0,,KIGQ 271235Z AUTO 35008G14KT 10SM BKN070 07/03 A2982 RMK AO2  T00700033,,,7000.0,,,37.85,41.4,N,29.17,29.2,,Mostly Cloudy
KIGQ,04/27/2018 12:55 UTC,29.82,45.86,38.12,74.21,10.36,360.0,,,,,,702.0,,,,10.0,,KIGQ 271255Z AUTO 36009KT 10SM SCT070 08/03 A2982 RMK AO2  T00770034,,,,,,38.03,,N,29.17,29.19,,Partly Cloudy
KIGQ,04/27/2018 13:15 UTC,29.83,45.32,37.4,73.63,13.8,360.0,23.02,,,,,1.0,,,,10.0,,KIGQ 271315Z AUTO 36012G20KT 10SM CLR 07/03 A2983 RMK AO2  T00740030,,,,,,37.3,,N,29.18,29.22,,Clear
KIGQ,04/27/2018 13:35 UTC,29.83,45.5,37.58,73.65,13.8,350.0,19.57,,,,,1.0,,,,10.0,,KIGQ 271335Z AUTO 35012G17KT 10SM CLR 08/03 A2983 RMK AO2  T00750031,,,,,,37.48,,N,29.18,29.21,,Clear
KIGQ,04/27/2018 13:55 UTC,29.84,45.68,37.76,73.66,17.27,10.0,26.46,,,,,1.0,,,,10.0,,KIGQ 271355Z AUTO 01015G23KT 10SM CLR 08/03 A2984 RMK AO2  T00760032,,,,,,37.66,,N,29.19,29.22,,Clear
KIGQ,04/27/2018 14:15 UTC,29.84,47.12,38.12,70.76,14.97,10.0,23.02,,,,,1.0,,,,10.0,,KIGQ 271415Z AUTO 01013G20KT 10SM CLR 08/03 A2984 RMK AO2  T00840034,,,,,,38.01,,N,29.19,29.2,,Clear
KIGQ,04/27/2018 14:35 UTC,29.85,48.92,39.02,68.51,12.66,20.0,18.41,,,,,272.0,,,,10.0,,KIGQ 271435Z AUTO 02011G16KT 340V040 10SM SCT027 09/04 A2985 RMK AO2 T00940039,,,,,,38.91,,NNE,29.2,29.18,,Partly Cloudy
KIGQ,04/27/2018 14:55 UTC,29.85,48.92,38.84,68.03,12.66,30.0,18.41,,,,,272.0,,,,10.0,,KIGQ 271455Z AUTO 03011G16KT 10SM SCT027 09/04 A2985 RMK AO2  T00940038,,,,,,38.73,,NNE,29.2,29.18,,Partly Cloudy
KIGQ,04/27/2018 15:15 UTC,29.86,48.56,38.48,67.99,12.66,10.0,18.41,,,,,1.0,,,,10.0,,KIGQ 271515Z AUTO 01011G16KT 10SM CLR 09/04 A2986 RMK AO2  T00920036,,,,,,38.37,,N,29.21,29.2,,Clear
KIGQ,04/27/2018 15:35 UTC,29.86,50.18,38.66,64.46,11.5,40.0,,,,,,1.0,,,,10.0,,KIGQ 271535Z AUTO 04010KT 10SM CLR 10/04 A2986 RMK AO2  T01010037,,,,,,38.54,,NE,29.21,29.19,,Clear
KIGQ,04/27/2018 15:55 UTC,29.86,50.36,37.94,62.25,13.8,30.0,,,,,,1.0,,,,10.0,,KIGQ 271555Z AUTO 03012KT 10SM CLR 10/03 A2986 RMK AO2  T01020033,,,,,,37.81,,NNE,29.21,29.2,,Clear
KIGQ,04/27/2018 16:15 UTC,29.87,50.0,32.72,51.26,14.97,30.0,,,,,,1.0,,,,10.0,,KIGQ 271615Z AUTO 03013KT 10SM CLR 10/00 A2987 RMK AO2  T01000004,,,,,,32.55,,NNE,29.22,29.32,,Clear
KIGQ,04/27/2018 16:35 UTC,29.87,50.9,32.18,48.51,13.8,30.0,18.41,,,,,1.0,,,,10.0,,KIGQ 271635Z AUTO 03012G16KT 340V040 10SM CLR 11/00 A2987 RMK AO2  T01050001,,,,,,32.0,,NNE,29.22,29.33,,Clear
KIGQ,04/27/2018 16:55 UTC,29.87,50.9,32.18,48.51,16.11,20.0,19.57,,,,,1.0,,,,10.0,,KIGQ 271655Z AUTO 02014G17KT 10SM CLR 11/00 A2987 RMK AO2  T01050001,,,,,,32.0,,NNE,29.22,29.33,,Clear
KIGQ,04/27/2018 17:15 UTC,29.86,49.82,30.38,46.95,12.66,10.0,19.57,,,,,1.0,,,,10.0,,KIGQ 271715Z AUTO 01011G17KT 10SM CLR 10/M01 A2986 RMK AO2  T00991009,,,,,,30.19,,N,29.21,29.36,,Clear
KIGQ,04/27/2018 17:35 UTC,29.86,50.54,31.28,47.41,11.5,20.0,,,,,,1.0,,,,10.0,,KIGQ 271735Z AUTO 02010KT 10SM CLR 10/00 A2986 RMK AO2  T01031004,,,,,,31.1,,NNE,29.21,29.34,,Clear
KIGQ,04/27/2018 17:55 UTC,29.85,51.08,32.18,48.19,9.22,60.0,,,,,,1.0,,,,10.0,,KIGQ 271755Z AUTO 06008KT 10SM CLR 11/00 A2985 RMK AO2 T01060001  10112 20058,52.16,42.44,,,,32.0,,ENE,29.2,29.31,,Clear
KIGQ,04/27/2018 18:15 UTC,29.84,51.8,32.54,47.61,9.22,20.0,,,,,,1.0,,,,10.0,,KIGQ 271815Z AUTO 02008KT 10SM CLR 11/00 A2984 RMK AO2  T01100003,,,,,,32.36,,NNE,29.19,29.29,,Clear
KIGQ,04/27/2018 18:35 UTC,29.84,51.8,32.18,46.93,9.22,40.0,,,,,,1.0,,,,10.0,,KIGQ 271835Z AUTO 04008KT 10SM CLR 11/00 A2984 RMK AO2  T01100001,,,,,,32.0,,NE,29.19,29.29,,Clear
KIGQ,04/27/2018 18:55 UTC,29.84,51.8,33.08,48.66,8.05,40.0,,,,,,1.0,,,,10.0,,KIGQ 271855Z AUTO 04007KT 10SM CLR 11/01 A2984 RMK AO2  T01100006,,,,,,32.91,,NE,29.19,29.27,,Clear
KIGQ,04/27/2018 19:15 UTC,29.83,51.98,34.88,51.94,9.22,40.0,,,,,,1202.0,,,,10.0,,KIGQ 271915Z AUTO 04008KT 10SM SCT120 11/02 A2983 RMK AO2  T01110016,,,,,,34.72,,NE,29.18,29.23,,Partly Cloudy
KIGQ,04/27/2018 19:35 UTC,29.82,51.62,32.36,47.58,10.36,70.0,,,,,,1102.0,,,,10.0,,KIGQ 271935Z AUTO 07009KT 10SM SCT110 11/00 A2982 RMK AO2  T01090002,,,,,,32.18,,ENE,29.17,29.27,,Partly Cloudy
KIGQ,04/27/2018 19:55 UTC,29.81,52.52,32.9,47.04,8.05,70.0,,,,,,1102.0,,,,10.0,,KIGQ 271955Z AUTO 07007KT 10SM SCT110 11/01 A2981 RMK AO2  T01140005,,,,,,32.72,,ENE,29.16,29.24,,Partly Cloudy
KIGQ,04/27/2018 20:15 UTC,29.8,53.24,32.9,45.82,8.05,50.0,,,,,,1202.0,,,,10.0,,KIGQ 272015Z AUTO 05007KT 10SM SCT120 12/01 A2980 RMK AO2  T01180005,,,,,,32.72,,NE,29.15,29.23,,Partly Cloudy
KIGQ,04/27/2018 20:35 UTC,29.8,53.06,33.08,46.46,9.22,50.0,,,,,,1.0,,,,10.0,,KIGQ 272035Z AUTO 05008KT 10SM CLR 12/01 A2980 RMK AO2  T01170006,,,,,,32.91,,NE,29.15,29.23,,Clear
KIGQ,04/27/2018 20:55 UTC,29.8,52.16,32.0,45.97,9.22,40.0,,,,,,1.0,,,,10.0,,KIGQ 272055Z AUTO 04008KT 10SM CLR 11/00 A2980 RMK AO2  T01120000,,,,,,31.82,,NE,29.15,29.25,,Clear
KIGQ,04/27/2018 21:15 UTC,29.78,52.52,31.82,45.04,9.22,70.0,,,,,,1.0,,,,10.0,,KIGQ 272115Z AUTO 07008KT 10SM CLR 11/00 A2978 RMK AO2  T01141001,,,,,,31.64,,ENE,29.13,29.23,,Clear
KIGQ,04/27/2018 21:35 UTC,29.78,52.34,31.46,44.68,12.66,60.0,,,,,,1.0,,,,10.0,,KIGQ 272135Z AUTO 06011KT 10SM CLR 11/00 A2978 RMK AO2  T01131003,,,,,,31.27,,ENE,29.13,29.24,,Clear
KIGQ,04/27/2018 21:55 UTC,29.76,51.8,31.64,45.92,10.36,50.0,,,,,,1.0,,,,10.0,,KIGQ 272155Z AUTO 05009KT 10SM CLR 11/00 A2976 RMK AO2  T01101002,,,,,,31.46,,NE,29.11,29.22,,Clear
KIGQ,04/27/2018 22:15 UTC,29.77,50.72,30.74,46.07,10.36,60.0,17.27,,,,,902.0,1102.0,,,10.0,,KIGQ 272215Z AUTO 06009G15KT 10SM SCT090 SCT110 10/M01 A2977 RMK AO2 T01041007,,,,,,30.55,,ENE,29.12,29.25,,Partly Cloudy
KIGQ,04/27/2018 22:35 UTC,29.78,50.0,30.38,46.63,11.5,50.0,,,804.0,,,502.0,702.0,,,10.0,,KIGQ 272235Z AUTO 05010KT 10SM SCT050 SCT070 OVC080 10/M01 A2978 RMK AO2 T01001009,,,8000.0,,,30.19,,NE,29.13,29.27,,Overcast
KIGQ,04/27/2018 22:55 UTC,29.78,48.2,29.84,48.79,8.05,20.0,,,,,,602.0,704.0,,,10.0,,KIGQ 272255Z AUTO 02007KT 10SM SCT060 OVC070 09/M01 A2978 RMK AO2  T00901012,,,7000.0,,,29.65,,NNE,29.13,29.29,,Overcast
KIGQ,04/27/2018 23:15 UTC,29.76,46.76,28.76,49.28,17.27,40.0,21.85,5.0,804.0,,,482.0,603.0,,,10.0,,KIGQ 272315Z AUTO 04015G19KT 10SM VCTS SCT048 BKN060 OVC080 08/M02  A2976 RMK AO2 T00821018,,,6000.0,,,28.57,,NE,29.11,29.3,,Thunder
KIGQ,04/27/2018 23:35 UTC,29.77,45.14,30.38,55.98,14.97,60.0,21.85,13.0,,,,502.0,654.0,,,10.0,,KIGQ 272335Z AUTO 06013G19KT 10SM -RA SCT050 OVC065 07/M01 A2977 RMK AO2 T00731009,,,6500.0,,,30.21,,ENE,29.12,29.29,,Light Rain
KIGQ,04/27/2018 23:55 UTC,29.76,43.52,32.0,63.59,14.97,40.0,21.85,13.0,,,,503.0,654.0,,,10.0,,KIGQ 272355Z AUTO 04013G19KT 10SM -RA BKN050 OVC065 06/00 A2976 RMK AO2 T00640000 10119 20064,53.42,43.52,5000.0,,,31.86,38.29,NE,29.11,29.26,,Light Rain
KIGQ,04/28/2018 00:15 UTC,29.74,43.16,32.72,66.37,16.11,60.0,20.71,13.0,854.0,,,503.0,653.0,,,10.0,,KIGQ 280015Z AUTO 06014G18KT 10SM -RA BKN050 BKN065 OVC085 06/00  A2974 RMK AO2 T00620004,,,5000.0,,,32.59,37.56,ENE,29.09,29.23,,Light Rain
KIGQ,04/28/2018 00:35 UTC,29.73,42.98,33.8,69.79,18.41,60.0,25.32,13.0,,,,603.0,704.0,,,10.0,,KIGQ 280035Z AUTO 06016G22KT 10SM -RA BKN060 OVC070 06/01 A2973 RMK AO2 T00610010,,,6000.0,,,33.68,36.79,ENE,29.08,29.21,,Light Rain
KIGQ,04/28/2018 00:55 UTC,29.74,43.34,33.8,68.83,16.11,70.0,24.16,13.0,,,,602.0,704.0,,,10.0,,KIGQ 280055Z AUTO 07014G21KT 10SM -RA SCT060 OVC070 06/01 A2974 RMK AO2 T00630010,,,7000.0,,,33.68,37.78,ENE,29.09,29.21,,Light Rain
KIGQ,04/28/2018 01:15 UTC,29.75,42.62,32.54,67.27,13.8,60.0,26.46,13.0,,,,702.0,804.0,,,10.0,,KIGQ 280115Z AUTO 06012G23KT 10SM -RA SCT070 OVC080 06/00 A2975 RMK AO2 T00590003,,,8000.0,,,32.41,37.51,ENE,29.1,29.25,,Light Rain
KIGQ,04/28/2018 01:35 UTC,29.8,42.44,35.06,74.92,14.97,40.0,25.32,,,,,804.0,,,,10.0,,KIGQ 280135Z AUTO 04013G22KT 10SM OVC080 06/02 A2980 RMK AO2  T00580017,,,8000.0,,,34.96,36.96,NE,29.15,29.26,,Overcast
KIGQ,04/28/2018 01:55 UTC,29.81,41.9,34.34,74.33,16.11,40.0,23.02,,,,,803.0,1204.0,,,10.0,,KIGQ 280155Z AUTO 04014G20KT 10SM BKN080 OVC120 06/01 A2981 RMK AO2 T00550013,,,8000.0,,,34.24,35.99,NE,29.16,29.28,,Overcast
KIGQ,04/28/2018 02:15 UTC,29.81,41.0,34.34,76.96,16.11,40.0,20.71,,,,,903.0,1104.0,,,10.0,,KIGQ 280215Z AUTO 04014G18KT 10SM BKN090 OVC110 05/01 A2981 RMK AO2 T00500013,,,9000.0,,,34.25,34.88,NE,29.16,29.29,,Overcast
KIGQ,04/28/2018 02:35 UTC,29.82,40.1,34.34,79.7,10.36,50.0,19.57,,,,,902.0,1103.0,,,10.0,,KIGQ 280235Z AUTO 05009G17KT 10SM SCT090 BKN110 05/01 A2982 RMK AO2 T00450013,,,11000.0,,,34.26,35.6,NE,29.17,29.31,,Mostly Cloudy
KIGQ,04/28/2018 02:55 UTC,29.81,39.74,35.06,83.18,14.97,70.0,23.02,,,,,802.0,1103.0,,,10.0,,KIGQ 280255Z AUTO 07013G20KT 10SM SCT080 BKN110 04/02 A2981 RMK AO2 T00430017,,,11000.0,,,34.99,33.63,ENE,29.16,29.29,,Mostly Cloudy
KIGQ,04/28/2018 03:15 UTC,29.84,39.74,35.78,85.59,11.5,20.0,,,,,,802.0,953.0,,,10.0,,KIGQ 280315Z AUTO 02010KT 10SM SCT080 BKN095 04/02 A2984 RMK AO2  T00430021,,,9500.0,,,35.72,34.74,NNE,29.19,29.3,,Mostly Cloudy
KIGQ,04/28/2018 03:35 UTC,29.84,40.1,36.68,87.46,12.66,20.0,19.57,,953.0,,,152.0,702.0,,,10.0,,KIGQ 280335Z AUTO 02011G17KT 10SM SCT015 SCT070 BKN095 05/03 A2984 RMK AO2 T00450026,,,9500.0,,,36.63,34.78,NNE,29.19,29.28,,Mostly Cloudy
KIGQ,04/28/2018 03:55 UTC,29.86,39.56,37.4,91.89,11.5,10.0,20.71,,,,,133.0,703.0,,,10.0,,KIGQ 280355Z AUTO 01010G18KT 10SM BKN013 BKN070 04/03 A2986 RMK AO2 T00420030,,,1300.0,,,37.37,34.52,N,29.21,29.29,,Mostly Cloudy
KIGQ,04/28/2018 04:15 UTC,29.86,39.38,37.04,91.23,12.66,20.0,18.41,,,,,133.0,184.0,,,10.0,,KIGQ 280415Z AUTO 02011G16KT 10SM BKN013 OVC018 04/03 A2986 RMK AO2 T00410028,,,1300.0,,,37.0,33.91,NNE,29.21,29.3,,Overcast
KIGQ,04/28/2018 04:35 UTC,29.87,39.38,36.5,89.31,12.66,20.0,25.32,,,,,163.0,244.0,,,10.0,,KIGQ 280435Z AUTO 02011G22KT 10SM BKN016 OVC024 04/03 A2987 RMK AO2 T00410025,,,1600.0,,,36.46,33.91,NNE,29.22,29.32,,Overcast
KIGQ,04/28/2018 04:55 UTC,29.88,39.2,35.96,88.04,13.8,20.0,20.71,,,,,143.0,224.0,,,10.0,,KIGQ 280455Z AUTO 02012G18KT 10SM BKN014 OVC022 04/02 A2988 RMK AO2 T00400022,,,1400.0,,,35.91,33.32,NNE,29.23,29.34,,Overcast
KIGQ,04/28/2018 05:15 UTC,29.89,39.2,35.6,86.79,10.36,10.0,18.41,,,,,142.0,244.0,,,10.0,,KIGQ 280515Z AUTO 01009G16KT 10SM SCT014 OVC024 04/02 A2989 RMK AO2 T00400020,,,2400.0,,,35.55,34.52,N,29.24,29.36,,Overcast
KIGQ,04/28/2018 05:35 UTC,29.89,39.38,35.78,86.8,9.22,10.0,,,,,,284.0,,,,10.0,,KIGQ 280535Z AUTO 01008KT 10SM OVC028 04/02 A2989 RMK AO2  T00410021,,,2800.0,,,35.73,35.21,N,29.24,29.36,,Overcast
KIGQ,04/28/2018 05:55 UTC,29.88,39.56,35.78,86.19,5.75,10.0,,,,,,323.0,374.0,,,10.0,,KIGQ 280555Z AUTO 01005KT 10SM BKN032 OVC037 04/02 A2988 RMK AO2  T00420021 10064 20040 401190040,43.52,39.2,3200.0,53.42,39.2,35.72,,N,29.23,29.35,,Overcast
KIGQ,04/28/2018 06:15 UTC,29.89,39.38,35.42,85.57,10.36,360.0,,,452.0,,,342.0,392.0,,,10.0,,KIGQ 280615Z AUTO 36009KT 10SM SCT034 SCT039 SCT045 04/02 A2989 RMK AO2 T00410019,,,,,,35.36,34.74,N,29.24,29.36,,Partly Cloudy
KIGQ,04/28/2018 06:35 UTC,29.89,39.38,34.88,83.75,11.5,360.0,16.11,,,,,1.0,,,,10.0,,KIGQ 280635Z AUTO 36010G14KT 10SM CLR 04/02 A2989 RMK AO2  T00410016,,,,,,34.81,34.31,N,29.24,29.37,,Clear
KIGQ,04/28/2018 06:55 UTC,29.89,39.38,34.16,81.38,13.8,360.0,18.41,,,,,1.0,,,,10.0,,KIGQ 280655Z AUTO 36012G16KT 10SM CLR 04/01 A2989 RMK AO2  T00410012,,,,,,34.09,33.54,N,29.24,29.39,,Clear
KIGQ,04/28/2018 07:15 UTC,29.89,39.2,33.44,79.62,12.66,360.0,20.71,,,,,1.0,,,,10.0,,KIGQ 280715Z AUTO 36011G18KT 10SM CLR 04/01 A2989 RMK AO2  T00400008,,,,,,33.36,33.69,N,29.24,29.4,,Clear
KIGQ,04/28/2018 07:35 UTC,29.9,39.2,33.08,78.48,13.8,360.0,20.71,,,,,1.0,,,,10.0,,KIGQ 280735Z AUTO 36012G18KT 10SM CLR 04/01 A2990 RMK AO2  T00400006,,,,,,32.99,33.32,N,29.25,29.42,,Clear
KIGQ,04/28/2018 07:55 UTC,29.91,38.66,33.26,80.74,11.5,360.0,19.57,,,,,1.0,,,,10.0,,KIGQ 280755Z AUTO 36010G17KT 10SM CLR 04/01 A2991 RMK AO2  T00370007,,,,,,33.18,33.44,N,29.26,29.43,,Clear
KIGQ,04/28/2018 08:15 UTC,29.91,38.3,33.62,83.07,12.66,10.0,23.02,,,,,1.0,,,,10.0,,KIGQ 280815Z AUTO 01011G20KT 10SM CLR 04/01 A2991 RMK AO2  T00350009,,,,,,33.55,32.59,N,29.26,29.42,,Clear
KIGQ,04/28/2018 08:35 UTC,29.93,37.94,33.8,84.86,10.36,360.0,20.71,,,,,1.0,,,,10.0,,KIGQ 280835Z AUTO 36009G18KT 10SM CLR 03/01 A2993 RMK AO2  T00330010,,,,,,33.74,33.01,N,29.28,29.44,,Clear
KIGQ,04/28/2018 08:55 UTC,29.94,37.4,34.16,87.94,14.97,360.0,18.41,,,,,1.0,,,,10.0,,KIGQ 280855Z AUTO 36013G16KT 10SM CLR 03/01 A2994 RMK AO2  T00300012,,,,,,34.11,30.75,N,29.29,29.45,,Clear
KIGQ,04/28/2018 09:15 UTC,29.94,37.4,34.16,87.94,10.36,360.0,18.41,,,,,1.0,,,,10.0,,KIGQ 280915Z AUTO 36009G16KT 10SM CLR 03/01 A2994 RMK AO2  T00300012,,,,,,34.11,32.37,N,29.29,29.45,,Clear
KIGQ,04/28/2018 09:35 UTC,29.94,37.22,34.34,89.21,10.36,360.0,18.41,,,,,142.0,,,,10.0,,KIGQ 280935Z AUTO 36009G16KT 10SM SCT014 03/01 A2994 RMK AO2  T00290013,,,,,,34.3,32.15,N,29.29,29.45,,Partly Cloudy
KIGQ,04/28/2018 09:55 UTC,29.95,37.04,34.16,89.2,9.22,360.0,17.27,,,,,142.0,,,,10.0,,KIGQ 280955Z AUTO 36008G15KT 10SM SCT014 03/01 A2995 RMK AO2  T00280012,,,,,,34.12,32.43,N,29.3,29.46,,Partly Cloudy
KIGQ,04/28/2018 10:15 UTC,29.96,37.04,34.16,89.2,10.36,360.0,18.41,,,,,142.0,,,,10.0,,KIGQ 281015Z AUTO 36009G16KT 10SM SCT014 03/01 A2996 RMK AO2  T00280012,,,,,,34.12,31.93,N,29.31,29.47,,Partly Cloudy
KIGQ,04/28/2018 10:35 UTC,29.97,36.86,34.34,90.48,12.66,350.0,18.41,,,,,143.0,,,,10.0,,KIGQ 281035Z AUTO 35011G16KT 10SM BKN014 03/01 A2997 RMK AO2  T00270013,,,1400.0,,,34.3,30.84,N,29.32,29.48,,Mostly Cloudy
KIGQ,04/28/2018 10:55 UTC,29.98,37.04,34.7,91.14,10.36,360.0,19.57,,,,,144.0,,,,10.0,,KIGQ 281055Z AUTO 36009G17KT 10SM OVC014 03/02 A2998 RMK AO2  T00280015,,,1400.0,,,34.66,31.93,N,29.33,29.49,,Overcast
KIGQ,04/28/2018 11:15 UTC,29.99,37.04,33.98,88.56,10.36,10.0,19.57,,,,,144.0,,,,10.0,,KIGQ 281115Z AUTO 01009G17KT 10SM OVC014 03/01 A2999 RMK AO2  T00280011,,,1400.0,,,33.93,31.93,N,29.34,29.51,,Overcast
KIGQ,04/28/2018 11:35 UTC,30.01,37.04,34.16,89.2,14.97,360.0,24.16,,,,,144.0,,,,10.0,,KIGQ 281135Z AUTO 36013G21KT 10SM OVC014 03/01 A3001 RMK AO2  T00280012,,,1400.0,,,34.12,30.31,N,29.36,29.53,,Overcast
KIGQ,04/28/2018 11:55 UTC,30.02,37.4,34.34,88.58,9.22,360.0,17.27,,,,,144.0,,,,10.0,,KIGQ 281155Z AUTO 36008G15KT 10SM OVC014 03/01 A3002 RMK AO2  T00300013 10042 20027,39.56,36.86,1400.0,,,34.29,32.86,N,29.37,29.53,,Overcast
KIGQ,04/28/2018 12:15 UTC,30.03,37.76,34.52,87.96,12.66,360.0,25.32,,,,,144.0,,,,10.0,,KIGQ 281215Z AUTO 36011G22KT 10SM OVC014 03/01 A3003 RMK AO2  T00320014,,,1400.0,,,34.47,31.94,N,29.38,29.53,,Overcast
KIGQ,04/28/2018 12:35 UTC,30.04,38.12,34.34,86.11,10.36,360.0,19.57,,,,,144.0,,,,10.0,,KIGQ 281235Z AUTO 36009G17KT 10SM OVC014 03/01 A3004 RMK AO2  T00340013,,,1400.0,,,34.28,33.23,N,29.39,29.55,,Overcast
KIGQ,04/28/2018 12:55 UTC,30.05,38.84,34.34,83.71,10.36,10.0,17.27,,,,,144.0,,,,10.0,,KIGQ 281255Z AUTO 01009G15KT 10SM OVC014 04/01 A3005 RMK AO2  T00380013,,,1400.0,,,34.27,34.09,N,29.4,29.55,,Overcast
KIGQ,04/28/2018 13:15 UTC,30.06,39.74,34.52,81.4,10.36,10.0,21.85,,,,,143.0,,,,10.0,,KIGQ 281315Z AUTO 01009G19KT 10SM BKN014 04/01 A3006 RMK AO2  T00430014,,,1400.0,,,34.44,35.17,N,29.41,29.55,,Mostly Cloudy
KIGQ,04/28/2018 13:35 UTC,30.06,41.0,34.52,77.52,16.11,10.0,,,,,,162.0,,,,10.0,,KIGQ 281335Z AUTO 01014KT 10SM SCT016 05/01 A3006 RMK AO2  T00500014,,,,,,34.43,34.88,N,29.41,29.54,,Partly Cloudy
KIGQ,04/28/2018 13:55 UTC,30.07,41.36,34.7,77.0,13.8,20.0,19.57,,,,,182.0,,,,10.0,,KIGQ 281355Z AUTO 02012G17KT 10SM SCT018 05/02 A3007 RMK AO2  T00520015,,,,,,34.61,35.96,NNE,29.42,29.55,,Partly Cloudy
KIGQ,04/28/2018 14:15 UTC,30.08,41.9,34.7,75.41,14.97,10.0,19.57,,,,,1.0,,,,10.0,,KIGQ 281415Z AUTO 01013G17KT 10SM CLR 06/02 A3008 RMK AO2  T00550015,,,,,,34.6,36.3,N,29.43,29.55,,Clear
KIGQ,04/28/2018 14:35 UTC,30.1,41.9,34.7,75.41,14.97,20.0,19.57,,,,,1.0,,,,10.0,,KIGQ 281435Z AUTO 02013G17KT 330V040 10SM CLR 06/02 A3010 RMK AO2  T00550015,,,,,,34.6,36.3,NNE,29.45,29.57,,Clear
KIGQ,04/28/2018 14:55 UTC,30.11,42.8,34.88,73.37,16.11,10.0,19.57,,,,,1.0,,,,10.0,,KIGQ 281455Z AUTO 01014G17KT 10SM CLR 06/02 A3011 RMK AO2  T00600016,,,,,,34.78,37.11,N,29.46,29.57,,Clear
KIGQ,04/28/2018 15:15 UTC,30.11,43.52,35.06,71.88,13.8,10.0,17.27,,,,,1.0,,,,10.0,,KIGQ 281515Z AUTO 01012G15KT 10SM CLR 06/02 A3011 RMK AO2  T00640017,,,,,,34.95,38.61,N,29.46,29.57,,Clear
KIGQ,04/28/2018 15:35 UTC,30.12,43.7,34.34,69.37,11.5,10.0,20.71,,,,,1.0,,,,10.0,,KIGQ 281535Z AUTO 01010G18KT 10SM CLR 07/01 A3012 RMK AO2  T00650013,,,,,,34.22,39.52,N,29.47,29.59,,Clear
KIGQ,04/28/2018 15:55 UTC,30.13,44.6,34.34,67.03,9.22,10.0,16.11,,,,,1.0,,,,10.0,,KIGQ 281555Z AUTO 01008G14KT 10SM CLR 07/01 A3013 RMK AO2  T00700013,,,,,,34.21,41.4,N,29.47,29.58,,Clear
KIGQ,04/28/2018 16:15 UTC,30.13,44.6,33.62,65.12,13.8,20.0,,,,,,1.0,,,,10.0,,KIGQ 281615Z AUTO 02012KT 10SM CLR 07/01 A3013 RMK AO2  T00700009,,,,,,33.48,39.93,NNE,29.47,29.6,,Clear
KIGQ,04/28/2018 16:35 UTC,30.14,44.42,33.8,66.05,16.11,30.0,20.71,,,,,1.0,,,,10.0,,KIGQ 281635Z AUTO 03014G18KT 10SM CLR 07/01 A3014 RMK AO2  T00690010,,,,,,33.67,39.12,NNE,29.48,29.6,,Clear
KIGQ,04/28/2018 16:55 UTC,30.15,45.32,34.34,65.22,13.8,350.0,,,,,,1.0,,,,10.0,,KIGQ 281655Z AUTO 35012KT 10SM CLR 07/01 A3015 RMK AO2  T00740013,,,,,,34.21,,N,29.49,29.6,,Clear
KIGQ,04/28/2018 17:15 UTC,30.16,45.5,35.06,66.66,13.8,360.0,18.41,,,,,1.0,,,,10.0,,KIGQ 281715Z AUTO 36012G16KT 10SM CLR 08/02 A3016 RMK AO2  T00750017,,,,,,34.93,,N,29.5,29.59,,Clear
KIGQ,04/28/2018 17:35 UTC,30.16,44.96,33.98,65.17,14.97,20.0,,,,,,1.0,,,,10.0,,KIGQ 281735Z AUTO 02013KT 10SM CLR 07/01 A3016 RMK AO2  T00720011,,,,,,33.85,40.07,NNE,29.5,29.62,,Clear
KIGQ,04/28/2018 17:55 UTC,30.16,45.5,35.06,66.66,14.97,360.0,20.71,,,,,1.0,,,,10.0,,KIGQ 281755Z AUTO 36013G18KT 10SM CLR 08/02 A3016 RMK AO2  T00750017 10076 20030,45.68,37.4,,,,34.93,,N,29.5,29.59,,Clear
KIGQ,04/28/2018 18:15 UTC,30.17,45.5,32.72,60.7,16.11,20.0,24.16,,,,,1.0,,,,10.0,,KIGQ 281815Z AUTO 02014G21KT 10SM CLR 08/00 A3017 RMK AO2  T00750004,,,,,,32.57,,NNE,29.51,29.65,,Clear
KIGQ,04/28/2018 18:35 UTC,30.17,46.4,33.08,59.52,16.11,10.0,26.46,,,,,1.0,,,,10.0,,KIGQ 281835Z AUTO 01014G23KT 10SM CLR 08/01 A3017 RMK AO2  T00800006,,,,,,32.93,,N,29.51,29.63,,Clear
KIGQ,04/28/2018 18:55 UTC,30.18,46.22,29.84,52.57,14.97,10.0,24.16,,,,,1.0,,,,10.0,,KIGQ 281855Z AUTO 01013G21KT 10SM CLR 08/M01 A3018 RMK AO2  T00791012,,,,,,29.66,,N,29.52,29.7,,Clear
KIGQ,04/28/2018 19:15 UTC,30.18,45.5,27.14,48.35,18.41,10.0,23.02,,,,,1.0,,,,10.0,,KIGQ 281915Z AUTO 01016G20KT 340V040 10SM CLR 08/M03 A3018 RMK AO2  T00751027,,,,,,26.94,,N,29.52,29.75,,Clear
KIGQ,04/28/2018 19:35 UTC,30.18,46.22,23.9,41.12,13.8,20.0,,,,,,1.0,,,,10.0,,KIGQ 281935Z AUTO 02012KT 10SM CLR 08/M04 A3018 RMK AO2  T00791045,,,,,,23.68,,NNE,29.52,29.79,,Clear
KIGQ,04/28/2018 19:55 UTC,30.19,46.22,23.0,39.59,16.11,30.0,19.57,,,,,1.0,,,,10.0,,KIGQ 281955Z AUTO 03014G17KT 10SM CLR 08/M05 A3019 RMK AO2  T00791050,,,,,,22.77,,NNE,29.53,29.81,,Clear
KIGQ,04/28/2018 20:15 UTC,30.19,45.86,24.98,43.61,18.41,30.0,23.02,,,,,1.0,,,,10.0,,KIGQ 282015Z AUTO 03016G20KT 10SM CLR 08/M04 A3019 RMK AO2  T00771039,,,,,,24.77,,NNE,29.53,29.79,,Clear
KIGQ,04/28/2018 20:35 UTC,30.19,45.32,24.8,44.18,16.11,360.0,21.85,,,,,1.0,,,,10.0,,KIGQ 282035Z AUTO 36014G19KT 10SM CLR 07/M04 A3019 RMK AO2  T00741040,,,,,,24.59,,N,29.53,29.79,,Clear
KIGQ,04/28/2018 20:55 UTC,30.19,45.14,26.42,47.58,12.66,10.0,19.57,,,,,1.0,,,,10.0,,KIGQ 282055Z AUTO 01011G17KT 10SM CLR 07/M03 A3019 RMK AO2  T00731031,,,,,,26.22,,N,29.53,29.77,,Clear
KIGQ,04/28/2018 21:15 UTC,30.19,45.14,26.42,47.58,11.5,10.0,17.27,,,,,1.0,,,,10.0,,KIGQ 282115Z AUTO 01010G15KT 10SM CLR 07/M03 A3019 RMK AO2  T00731031,,,,,,26.22,,N,29.53,29.77,,Clear
KIGQ,04/28/2018 21:35 UTC,30.2,44.78,25.7,46.82,9.22,20.0,,,,,,1.0,,,,10.0,,KIGQ 282135Z AUTO 02008KT 10SM CLR 07/M03 A3020 RMK AO2  T00711035,,,,,,25.49,41.62,NNE,29.54,29.79,,Clear
KIGQ,04/28/2018 21:55 UTC,30.2,44.78,25.16,45.78,12.66,30.0,18.41,,,,,1.0,,,,10.0,,KIGQ 282155Z AUTO 03011G16KT 10SM CLR 07/M04 A3020 RMK AO2  T00711038,,,,,,24.95,40.47,NNE,29.54,29.8,,Clear
KIGQ,04/28/2018 22:15 UTC,30.21,44.24,24.8,46.03,11.5,30.0,18.41,,,,,1.0,,,,10.0,,KIGQ 282215Z AUTO 03010G16KT 10SM CLR 07/M04 A3021 RMK AO2  T00681040,,,,,,24.59,40.17,NNE,29.55,29.82,,Clear
KIGQ,04/28/2018 22:35 UTC,30.22,43.88,22.64,42.62,12.66,30.0,20.71,,,,,1.0,,,,10.0,,KIGQ 282235Z AUTO 03011G18KT 10SM CLR 07/M05 A3022 RMK AO2  T00661052,,,,,,22.41,39.38,NNE,29.56,29.86,,Clear
KIGQ,04/28/2018 22:55 UTC,30.22,43.34,24.62,47.28,13.8,20.0,21.85,,,,,1.0,,,,10.0,,KIGQ 282255Z AUTO 02012G19KT 10SM CLR 06/M04 A3022 RMK AO2  T00631041,,,,,,24.41,38.39,NNE,29.56,29.84,,Clear
KIGQ,04/28/2018 23:15 UTC,30.22,42.08,24.08,48.52,11.5,20.0,19.57,,,,,1.0,,,,10.0,,KIGQ 282315Z AUTO 02010G17KT 10SM CLR 06/M04 A3022 RMK AO2  T00561044,,,,,,23.87,37.57,NNE,29.56,29.85,,Clear
KIGQ,04/28/2018 23:35 UTC,30.22,41.72,24.98,51.09,10.36,30.0,,,,,,1.0,,,,10.0,,KIGQ 282335Z AUTO 03009KT 10SM CLR 05/M04 A3022 RMK AO2  T00541039,,,,,,24.78,37.54,NNE,29.56,29.84,,Clear
KIGQ,04/28/2018 23:55 UTC,30.23,41.36,23.36,48.4,10.36,20.0,,,,,,1.0,,,,10.0,,KIGQ 282355Z AUTO 02009KT 10SM CLR 05/M05 A3023 RMK AO2 T00521048  10081 20052,46.58,41.36,,,,23.15,37.11,NNE,29.57,29.87,,Clear
KIGQ,04/29/2018 00:15 UTC,30.24,41.0,23.54,49.45,10.36,40.0,,,,,,1.0,,,,10.0,,KIGQ 290015Z AUTO 04009KT 10SM CLR 05/M05 A3024 RMK AO2  T00501047,,,,,,23.33,36.68,NE,29.58,29.88,,Clear
KIGQ,04/29/2018 00:35 UTC,30.24,40.1,24.62,53.58,5.75,40.0,,,,,,1.0,,,,10.0,,KIGQ 290035Z AUTO 04005KT 10SM CLR 05/M04 A3024 RMK AO2  T00451041,,,,,,24.43,,NE,29.58,29.87,,Clear
KIGQ,04/29/2018 00:55 UTC,30.24,39.2,25.7,58.05,3.44,20.0,,,,,,1.0,,,,10.0,,KIGQ 290055Z AUTO 02003KT 10SM CLR 04/M03 A3024 RMK AO2  T00401035,,,,,,25.52,,NNE,29.58,29.87,,Clear
KIGQ,04/29/2018 01:15 UTC,30.25,38.66,25.34,58.41,3.44,20.0,,,,,,1.0,,,,10.0,,KIGQ 290115Z AUTO 02003KT 10SM CLR 04/M04 A3025 RMK AO2  T00371037,,,,,,25.17,,NNE,29.59,29.88,,Clear
KIGQ,04/29/2018 01:35 UTC,30.25,38.66,25.16,57.97,3.44,10.0,,,,,,1.0,,,,10.0,,KIGQ 290135Z AUTO 01003KT 10SM CLR 04/M04 A3025 RMK AO2  T00371038,,,,,,24.98,,N,29.59,29.89,,Clear
KIGQ,04/29/2018 01:55 UTC,30.26,38.84,24.98,57.13,0.0,0.0,,,,,,1.0,,,,10.0,,KIGQ 290155Z AUTO 00000KT 10SM CLR 04/M04 A3026 RMK AO2  T00381039,,,,,,24.8,,N,29.6,29.9,,Clear
KIGQ,04/29/2018 02:15 UTC,30.26,38.48,25.52,59.26,0.0,0.0,,,,,,1.0,,,,10.0,,KIGQ 290215Z AUTO 00000KT 10SM CLR 04/M04 A3026 RMK AO2  T00361036,,,,,,25.35,,N,29.6,29.89,,Clear
KIGQ,04/29/2018 02:35 UTC,30.26,38.3,25.7,60.13,0.0,0.0,,,,,,1.0,,,,10.0,,KIGQ 290235Z AUTO 00000KT 10SM CLR 04/M03 A3026 RMK AO2  T00351035,,,,,,25.53,,N,29.6,29.89,,Clear
KIGQ,04/29/2018 02:55 UTC,30.27,37.76,26.6,63.75,3.44,10.0,,,,,,1.0,,,,10.0,,KIGQ 290255Z AUTO 01003KT 10SM CLR 03/M03 A3027 RMK AO2  T00321030,,,,,,26.44,,N,29.61,29.89,,Clear
KIGQ,04/29/2018 03:15 UTC,30.27,37.76,27.14,65.19,0.0,0.0,,,,,,1.0,,,,10.0,,KIGQ 290315Z AUTO 00000KT 10SM CLR 03/M03 A3027 RMK AO2  T00321027,,,,,,26.99,,N,29.61,29.89,,Clear
KIGQ,04/29/2018 03:35 UTC,30.27,37.58,26.6,64.21,0.0,0.0,,,,,,1.0,,,,10.0,,KIGQ 290335Z AUTO 00000KT 10SM CLR 03/M03 A3027 RMK AO2  T00311030,,,,,,26.45,,N,29.61,29.89,,Clear
KIGQ,04/29/2018 03:55 UTC,30.27,37.58,26.42,63.73,0.0,0.0,,,,,,1.0,,,,10.0,,KIGQ 290355Z AUTO 00000KT 10SM CLR 03/M03 A3027 RMK AO2  T00311031,,,,,,26.27,,N,29.61,29.9,,Clear
KIGQ,04/29/2018 04:15 UTC,30.28,37.22,25.88,63.21,0.0,0.0,,,,,,1.0,,,,10.0,,KIGQ 290415Z AUTO 00000KT 10SM CLR 03/M03 A3028 RMK AO2  T00291034,,,,,,25.72,,N,29.62,29.92,,Clear
KIGQ,04/29/2018 04:35 UTC,30.28,36.68,26.42,66.03,0.0,0.0,,,,,,1.0,,,,10.0,,KIGQ 290435Z AUTO 00000KT 10SM CLR 03/M03 A3028 RMK AO2  T00261031,,,,,,26.27,,N,29.62,29.91,,Clear
KIGQ,04/29/2018 04:55 UTC,30.29,33.98,26.06,72.42,0.0,0.0,,,,,,1.0,,,,10.0,,KIGQ 290455Z AUTO 00000KT 10SM CLR 01/M03 A3029 RMK AO2  T00111033,,,,,,25.94,,N,29.63,29.94,,Clear
KIGQ,04/29/2018 05:15 UTC,30.29,33.08,26.42,76.21,0.0,0.0,,,,,,1.0,,,,10.0,,KIGQ 290515Z AUTO 00000KT 10SM CLR 01/M03 A3029 RMK AO2  T00061031,,,,,,26.32,,N,29.63,29.94,,Clear
KIGQ,04/29/2018 05:35 UTC,30.29,32.9,26.6,77.34,0.0,0.0,,,,,,1.0,,,,10.0,,KIGQ 290535Z AUTO 00000KT 10SM CLR 01/M03 A3029 RMK AO2  T00051030,,,,,,26.5,,N,29.63,29.94,,Clear
KIGQ,04/29/2018 05:55 UTC,30.29,33.44,27.14,77.39,0.0,0.0,,,,,,1.0,,,,10.0,,KIGQ 290555Z AUTO 00000KT 10SM CLR 01/M03 A3029 RMK AO2 T00081027  10052 21006 400811006,41.36,30.92,,46.58,30.92,27.04,,N,29.63,29.93,,Clear
KIGQ,04/29/2018 06:15 UTC,30.29,33.98,26.24,72.96,0.0,0.0,,,,,,1.0,,,,10.0,,KIGQ 290615Z AUTO 00000KT 10SM CLR 01/M03 A3029 RMK AO2  T00111032,,,,,,26.12,,N,29.63,29.94,,Clear
KIGQ,04/29/2018 06:35 UTC,30.29,30.92,26.78,84.4,0.0,0.0,,,,,,1.0,,,,10.0,,KIGQ 290635Z AUTO 00000KT 10SM CLR M01/M03 A3029 RMK AO2  T10061029,,,,,,26.71,,N,29.63,29.95,,Clear
KIGQ,04/29/2018 06:55 UTC,30.29,30.2,24.8,80.04,0.0,0.0,,,,,,1.0,,,,10.0,,KIGQ 290655Z AUTO 00000KT 10SM CLR M01/M04 A3029 RMK AO2  T10101040,,,,,,24.71,,N,29.63,29.98,,Clear
KIGQ,04/29/2018 07:15 UTC,30.29,31.46,26.24,80.75,0.0,0.0,,,,,,1.0,,,,10.0,,KIGQ 290715Z AUTO 00000KT 10SM CLR 00/M03 A3029 RMK AO2  T10031032,,,,,,26.16,,N,29.63,29.95,,Clear
KIGQ,04/29/2018 07:35 UTC,30.29,34.88,26.06,69.87,3.44,340.0,,,,,,1.0,,,,10.0,,KIGQ 290735Z AUTO 34003KT 10SM CLR 02/M03 A3029 RMK AO2  T00161033,,,,,,25.93,,NNW,29.63,29.94,,Clear
KIGQ,04/29/2018 07:55 UTC,30.3,34.7,26.42,71.43,4.61,330.0,,,,,,1.0,,,,10.0,,KIGQ 290755Z AUTO 33004KT 10SM CLR 02/M03 A3030 RMK AO2  T00151031,,,,,,26.3,,NNW,29.64,29.94,,Clear
KIGQ,04/29/2018 08:15 UTC,30.3,33.8,26.6,74.6,0.0,0.0,,,,,,1.0,,,,10.0,,KIGQ 290815Z AUTO 00000KT 10SM CLR 01/M03 A3030 RMK AO2  T00101030,,,,,,26.49,,N,29.64,29.95,,Clear
KIGQ,04/29/2018 08:35 UTC,30.31,34.16,26.42,72.98,0.0,0.0,,,,,,1.0,,,,10.0,,KIGQ 290835Z AUTO 00000KT 10SM CLR 01/M03 A3031 RMK AO2  T00121031,,,,,,26.3,,N,29.65,29.96,,Clear
KIGQ,04/29/2018 08:55 UTC,30.32,34.7,26.6,71.96,0.0,0.0,,,,,,1.0,,,,10.0,,KIGQ 290855Z AUTO 00000KT 10SM CLR 02/M03 A3032 RMK AO2  T00151030,,,,,,26.48,,N,29.66,29.96,,Clear
KIGQ,04/29/2018 09:15 UTC,30.32,33.62,26.78,75.7,0.0,0.0,,,,,,1.0,,,,10.0,,KIGQ 290915Z AUTO 00000KT 10SM CLR 01/M03 A3032 RMK AO2  T00091029,,,,,,26.68,,N,29.66,29.97,,Clear
KIGQ,04/29/2018 09:35 UTC,30.32,33.08,26.96,77.93,3.44,350.0,,,,,,1.0,,,,10.0,,KIGQ 290935Z AUTO 35003KT 10SM CLR 01/M03 A3032 RMK AO2  T00061028,,,,,,26.86,,N,29.66,29.97,,Clear
KIGQ,04/29/2018 09:55 UTC,30.32,32.9,26.96,78.5,0.0,0.0,,,,,,1.0,,,,10.0,,KIGQ 290955Z AUTO 00000KT 10SM CLR 01/M03 A3032 RMK AO2  T00051028,,,,,,26.87,,N,29.66,29.97,,Clear
KIGQ,04/29/2018 10:15 UTC,30.33,30.92,25.7,80.7,3.44,320.0,,,,,,1.0,,,,10.0,,KIGQ 291015Z AUTO 32003KT 10SM CLR M01/M03 A3033 RMK AO2  T10061035,,,,,,25.61,,NW,29.67,30.0,,Clear
KIGQ,04/29/2018 10:35 UTC,30.34,31.64,26.96,82.59,0.0,0.0,,,,,,1.0,,,,10.0,,KIGQ 291035Z AUTO 00000KT 10SM CLR 00/M03 A3034 RMK AO2  T10021028,,,,,,26.88,,N,29.68,29.99,,Clear
KIGQ,04/29/2018 10:55 UTC,30.34,32.0,27.5,83.23,0.0,0.0,,,,,,1.0,,,,10.0,,KIGQ 291055Z AUTO 00000KT 10SM CLR 00/M02 A3034 RMK AO2  T00001025,,,,,,27.43,,N,29.68,29.99,,Clear
KIGQ,04/29/2018 11:15 UTC,30.34,32.72,28.22,83.28,0.0,0.0,,,,,,1.0,,,,10.0,,KIGQ 291115Z AUTO 00000KT 10SM CLR 00/M02 A3034 RMK AO2  T00041021,,,,,,28.15,,N,29.68,29.97,,Clear
KIGQ,04/29/2018 11:35 UTC,30.36,32.72,28.4,83.9,0.0,0.0,,,,,,1.0,,,,10.0,,KIGQ 291135Z AUTO 00000KT 10SM CLR 00/M02 A3036 RMK AO2  T00041020,,,,,,28.33,,N,29.7,29.99,,Clear
KIGQ,04/29/2018 11:55 UTC,30.36,35.78,31.82,85.34,3.44,20.0,,,,,,1.0,,,,7.0,,KIGQ 291155Z AUTO 02003KT 7SM CLR 02/00 A3036 RMK AO2 T00211001  10021 21015,35.78,29.3,,,,31.76,,NNE,29.7,29.92,,Clear
KIGQ,04/29/2018 12:15 UTC,30.37,38.12,32.18,78.96,8.05,20.0,,,,,,1.0,,,,10.0,,KIGQ 291215Z AUTO 02007KT 10SM CLR 03/00 A3037 RMK AO2  T00340001,,,,,,32.09,34.26,NNE,29.71,29.91,,Clear
KIGQ,04/29/2018 12:35 UTC,30.38,39.2,32.18,75.69,4.61,30.0,,,,,,1.0,,,,10.0,,KIGQ 291235Z AUTO 03004KT 10SM CLR 04/00 A3038 RMK AO2  T00400001,,,,,,32.08,,NNE,29.72,29.91,,Clear
KIGQ,04/29/2018 12:55 UTC,30.38,40.28,32.54,73.63,4.61,10.0,,,,,,1.0,,,,10.0,,KIGQ 291255Z AUTO 01004KT 10SM CLR 05/00 A3038 RMK AO2  T00460003,,,,,,32.43,,N,29.72,29.9,,Clear
KIGQ,04/29/2018 13:15 UTC,30.38,41.9,32.72,69.66,6.91,40.0,,,,,,1.0,,,,10.0,,KIGQ 291315Z AUTO 04006KT 10SM CLR 06/00 A3038 RMK AO2  T00550004,,,,,,32.6,,NE,29.72,29.88,,Clear
KIGQ,04/29/2018 13:35 UTC,30.39,42.08,31.82,66.71,9.22,40.0,,,,,,1.0,,,,10.0,,KIGQ 291335Z AUTO 04008KT 10SM CLR 06/00 A3039 RMK AO2  T00561001,,,,,,31.68,38.41,NE,29.73,29.91,,Clear
KIGQ,04/29/2018 13:55 UTC,30.39,42.98,30.74,61.69,8.05,30.0,,,,,,1.0,,,,10.0,,KIGQ 291355Z AUTO 03007KT 10SM CLR 06/M01 A3039 RMK AO2  T00611007,,,,,,30.59,39.97,NNE,29.73,29.92,,Clear
KIGQ,04/29/2018 14:15 UTC,30.39,44.06,30.2,57.9,3.44,10.0,,,,,,1.0,,,,10.0,,KIGQ 291415Z AUTO 01003KT 10SM CLR 07/M01 A3039 RMK AO2  T00671010,,,,,,30.03,,N,29.73,29.92,,Clear
KIGQ,04/29/2018 14:35 UTC,30.39,44.78,26.42,48.24,8.05,40.0,,,,,,1.0,,,,10.0,,KIGQ 291435Z AUTO 04007KT 10SM CLR 07/M03 A3039 RMK AO2  T00711031,,,,,,26.22,42.09,NE,29.73,29.98,,Clear
KIGQ,04/29/2018 14:55 UTC,30.39,45.68,29.84,53.65,8.05,80.0,,,,,,1.0,,,,10.0,,KIGQ 291455Z AUTO 08007KT 10SM CLR 08/M01 A3039 RMK AO2  T00761012,,,,,,29.66,,E,29.73,29.92,,Clear
KIGQ,04/29/2018 15:15 UTC,30.4,45.86,27.86,49.13,5.75,40.0,,,,,,1.0,,,,10.0,,KIGQ 291515Z AUTO 04005KT 10SM CLR 08/M02 A3040 RMK AO2  T00771023,,,,,,27.66,,NE,29.74,29.96,,Clear
KIGQ,04/29/2018 15:35 UTC,30.39,46.22,26.96,46.7,6.91,50.0,,,,,,1.0,,,,10.0,,KIGQ 291535Z AUTO 05006KT 10SM CLR 08/M03 A3039 RMK AO2  T00791028,,,,,,26.75,,NE,29.73,29.96,,Clear
KIGQ,04/29/2018 15:55 UTC,30.39,46.58,27.86,47.82,6.91,30.0,,,,,,1.0,,,,10.0,,KIGQ 291555Z AUTO 03006KT 10SM CLR 08/M02 A3039 RMK AO2  T00811023,,,,,,27.66,,NNE,29.73,29.95,,Clear
KIGQ,04/29/2018 16:15 UTC,30.39,47.3,26.96,44.84,8.05,50.0,,,,,,1.0,,,,10.0,,KIGQ 291615Z AUTO 05007KT 10SM CLR 09/M03 A3039 RMK AO2  T00851028,,,,,,26.75,,NE,29.73,29.96,,Clear
KIGQ,04/29/2018 16:35 UTC,30.39,48.56,26.42,41.82,6.91,70.0,,,,,,1.0,,,,10.0,,KIGQ 291635Z AUTO 07006KT 10SM CLR 09/M03 A3039 RMK AO2  T00921031,,,,,,26.21,,ENE,29.73,29.96,,Clear
KIGQ,04/29/2018 16:55 UTC,30.38,47.84,22.46,36.41,4.61,50.0,,,,,,1.0,,,,10.0,,KIGQ 291655Z AUTO 05004KT 10SM CLR 09/M05 A3038 RMK AO2  T00881053,,,,,,22.23,,NE,29.72,30.01,,Clear
KIGQ,04/29/2018 17:15 UTC,30.37,49.1,24.44,37.75,8.05,50.0,,,,,,1.0,,,,10.0,,KIGQ 291715Z AUTO 05007KT 10SM CLR 10/M04 A3037 RMK AO2  T00951042,,,,,,24.22,,NE,29.71,29.96,,Clear
KIGQ,04/29/2018 17:35 UTC,30.36,49.64,21.38,32.52,3.44,50.0,,,,,,1.0,,,,10.0,,KIGQ 291735Z AUTO 05003KT 10SM CLR 10/M06 A3036 RMK AO2  T00981059,,,,,,21.15,,NE,29.7,29.99,,Clear
KIGQ,04/29/2018 17:55 UTC,30.36,51.62,24.08,33.86,6.91,10.0,,,,,,1.0,,,,10.0,,KIGQ 291755Z AUTO 01006KT 10SM CLR 11/M04 A3036 RMK AO2 T01091044  10109 20023,51.62,36.14,,,,23.86,,N,29.7,29.95,,Clear
KIGQ,04/29/2018 18:15 UTC,30.36,51.62,23.18,32.61,0.0,0.0,,,,,,1.0,,,,10.0,,KIGQ 291815Z AUTO 00000KT 10SM CLR 11/M05 A3036 RMK AO2  T01091049,,,,,,22.96,,N,29.7,29.96,,Clear
KIGQ,04/29/2018 18:35 UTC,30.36,52.7,21.92,29.71,6.91,10.0,,,,,,1.0,,,,10.0,,KIGQ 291835Z AUTO 01006KT 10SM CLR 12/M06 A3036 RMK AO2  T01151056,,,,,,21.7,,N,29.7,29.97,,Clear
KIGQ,04/29/2018 18:55 UTC,30.36,52.16,19.58,27.43,3.44,40.0,,,,,,1.0,,,,10.0,,KIGQ 291855Z AUTO 04003KT 10SM CLR 11/M07 A3036 RMK AO2  T01121069,,,,,,19.35,,NE,29.7,30.0,,Clear
KIGQ,04/29/2018 19:15 UTC,30.35,52.7,20.48,27.95,6.91,60.0,,,,,,1.0,,,,10.0,,KIGQ 291915Z AUTO 06006KT 10SM CLR 12/M06 A3035 RMK AO2  T01151064,,,,,,20.26,,ENE,29.69,29.98,,Clear
KIGQ,04/29/2018 19:35 UTC,30.34,53.42,20.84,27.64,4.61,80.0,,,,,,1.0,,,,10.0,,KIGQ 291935Z AUTO 08004KT 10SM CLR 12/M06 A3034 RMK AO2  T01191062,,,,,,20.62,,E,29.68,29.96,,Clear
KIGQ,04/29/2018 19:55 UTC,30.33,54.14,23.0,29.5,4.61,90.0,,,,,,1.0,,,,10.0,,KIGQ 291955Z AUTO 09004KT 10SM CLR 12/M05 A3033 RMK AO2  T01231050,,,,,,22.79,,E,29.67,29.92,,Clear
KIGQ,04/29/2018 20:15 UTC,30.32,53.96,23.0,29.7,3.44,60.0,,,,,,1.0,,,,10.0,,KIGQ 292015Z AUTO 06003KT 10SM CLR 12/M05 A3032 RMK AO2  T01221050,,,,,,22.79,,ENE,29.66,29.91,,Clear
KIGQ,04/29/2018 20:35 UTC,30.32,55.04,21.56,26.86,0.0,0.0,,,,,,1.0,,,,10.0,,KIGQ 292035Z AUTO 00000KT 10SM CLR 13/M06 A3032 RMK AO2  T01281058,,,,,,21.35,,N,29.66,29.92,,Clear
KIGQ,04/29/2018 20:55 UTC,30.31,54.5,21.2,26.98,3.44,20.0,,,,,,1.0,,,,10.0,,KIGQ 292055Z AUTO 02003KT 10SM CLR 13/M06 A3031 RMK AO2  T01251060,,,,,,20.99,,NNE,29.65,29.92,,Clear
KIGQ,04/29/2018 21:15 UTC,30.3,54.68,20.84,26.4,5.75,80.0,,,,,,1.0,,,,10.0,,KIGQ 292115Z AUTO 08005KT 10SM CLR 13/M06 A3030 RMK AO2  T01261062,,,,,,20.63,,E,29.64,29.91,,Clear
KIGQ,04/29/2018 21:35 UTC,30.3,54.86,20.48,25.83,5.75,60.0,,,,,,1.0,,,,10.0,,KIGQ 292135Z AUTO 06005KT 10SM CLR 13/M06 A3030 RMK AO2  T01271064,,,,,,20.28,,ENE,29.64,29.92,,Clear
KIGQ,04/29/2018 21:55 UTC,30.29,54.86,20.48,25.83,0.0,0.0,,,,,,1.0,,,,10.0,,KIGQ 292155Z AUTO 00000KT 10SM CLR 13/M06 A3029 RMK AO2  T01271064,,,,,,20.28,,N,29.63,29.91,,Clear
KIGQ,04/29/2018 22:15 UTC,30.29,55.04,20.66,25.86,0.0,0.0,,,,,,1.0,,,,10.0,,KIGQ 292215Z AUTO 00000KT 10SM CLR 13/M06 A3029 RMK AO2  T01281063,,,,,,20.46,,N,29.63,29.9,,Clear
KIGQ,04/29/2018 22:35 UTC,30.28,54.5,20.66,26.37,0.0,0.0,,,,,,1.0,,,,10.0,,KIGQ 292235Z AUTO 00000KT 10SM CLR 13/M06 A3028 RMK AO2  T01251063,,,,,,20.45,,N,29.62,29.9,,Clear
KIGQ,04/29/2018 22:55 UTC,30.27,54.5,19.94,25.57,0.0,0.0,,,,,,1.0,,,,10.0,,KIGQ 292255Z AUTO 00000KT 10SM CLR 13/M07 A3027 RMK AO2  T01251067,,,,,,19.73,,N,29.61,29.9,,Clear
KIGQ,04/29/2018 23:15 UTC,30.27,54.5,20.48,26.17,4.61,40.0,,,,,,1.0,,,,10.0,,KIGQ 292315Z AUTO 04004KT 10SM CLR 13/M06 A3027 RMK AO2  T01251064,,,,,,20.27,,NE,29.61,29.89,,Clear
KIGQ,04/29/2018 23:35 UTC,30.26,53.06,21.2,28.44,5.75,40.0,,,,,,1.0,,,,10.0,,KIGQ 292335Z AUTO 04005KT 10SM CLR 12/M06 A3026 RMK AO2  T01171060,,,,,,20.98,,NE,29.6,29.88,,Clear
KIGQ,04/29/2018 23:55 UTC,30.26,51.98,19.94,28.05,5.75,60.0,,,,,,1.0,,,,10.0,,KIGQ 292355Z AUTO 06005KT 10SM CLR 11/M07 A3026 RMK AO2 T01111067  10130 20107,55.4,51.26,,,,19.72,,ENE,29.6,29.9,,Clear
KIGQ,04/30/2018 00:15 UTC,30.26,50.72,18.14,27.2,5.75,50.0,,,,,,1.0,,,,10.0,,KIGQ 300015Z AUTO 05005KT 10SM CLR 10/M08 A3026 RMK AO2  T01041077,,,,,,17.91,,NE,29.6,29.92,,Clear
KIGQ,04/30/2018 00:35 UTC,30.26,48.56,17.78,29.02,4.61,60.0,,,,,,1.0,,,,10.0,,KIGQ 300035Z AUTO 06004KT 10SM CLR 09/M08 A3026 RMK AO2  T00921079,,,,,,17.54,,ENE,29.6,29.94,,Clear
KIGQ,04/30/2018 00:55 UTC,30.25,47.3,18.68,31.63,5.75,70.0,,,,,,1.0,,,,10.0,,KIGQ 300055Z AUTO 07005KT 10SM CLR 09/M07 A3025 RMK AO2  T00851074,,,,,,18.44,,ENE,29.59,29.92,,Clear
KIGQ,04/30/2018 01:15 UTC,30.25,45.86,18.32,32.88,3.44,90.0,,,,,,1.0,,,,10.0,,KIGQ 300115Z AUTO 09003KT 10SM CLR 08/M08 A3025 RMK AO2  T00771076,,,,,,18.07,,E,29.59,29.93,,Clear
KIGQ,04/30/2018 01:35 UTC,30.25,44.6,20.84,38.42,4.61,100.0,,,,,,1.0,,,,10.0,,KIGQ 300135Z AUTO 10004KT 10SM CLR 07/M06 A3025 RMK AO2  T00701062,,,,,,20.6,,E,29.59,29.91,,Clear
KIGQ,04/30/2018 01:55 UTC,30.25,43.7,17.78,34.88,4.61,90.0,,,,,,1.0,,,,10.0,,KIGQ 300155Z AUTO 09004KT 10SM CLR 07/M08 A3025 RMK AO2  T00651079,,,,,,17.53,,E,29.59,29.95,,Clear
KIGQ,04/30/2018 02:15 UTC,30.25,42.44,19.22,38.94,3.44,100.0,,,,,,1.0,,,,10.0,,KIGQ 300215Z AUTO 10003KT 10SM CLR 06/M07 A3025 RMK AO2  T00581071,,,,,,18.98,,E,29.59,29.94,,Clear
KIGQ,04/30/2018 02:35 UTC,30.24,42.62,18.68,37.79,4.61,120.0,,,,,,1.0,,,,10.0,,KIGQ 300235Z AUTO 12004KT 10SM CLR 06/M07 A3024 RMK AO2  T00591074,,,,,,18.44,,ESE,29.58,29.93,,Clear
KIGQ,04/30/2018 02:55 UTC,30.24,42.98,18.86,37.56,0.0,0.0,,,,,,1.0,,,,10.0,,KIGQ 300255Z AUTO 00000KT 10SM CLR 06/M07 A3024 RMK AO2  T00611073,,,,,,18.62,,N,29.58,29.93,,Clear
KIGQ,04/30/2018 03:15 UTC,30.24,41.9,18.5,38.55,0.0,0.0,,,,,,1.0,,,,10.0,,KIGQ 300315Z AUTO 00000KT 10SM CLR 06/M07 A3024 RMK AO2  T00551075,,,,,,18.25,,N,29.58,29.94,,Clear
KIGQ,04/30/2018 03:35 UTC,30.24,41.9,17.6,37.08,0.0,0.0,,,,,,1.0,,,,10.0,,KIGQ 300335Z AUTO 00000KT 10SM CLR 06/M08 A3024 RMK AO2  T00551080,,,,,,17.35,,N,29.58,29.95,,Clear
KIGQ,04/30/2018 03:55 UTC,30.24,41.0,18.68,40.23,0.0,0.0,,,,,,1.0,,,,10.0,,KIGQ 300355Z AUTO 00000KT 10SM CLR 05/M07 A3024 RMK AO2  T00501074,,,,,,18.44,,N,29.58,29.94,,Clear
KIGQ,04/30/2018 04:15 UTC,30.24,41.0,16.52,36.64,0.0,0.0,,,,,,1.0,,,,10.0,,KIGQ 300415Z AUTO 00000KT 10SM CLR 05/M09 A3024 RMK AO2  T00501086,,,,,,16.27,,N,29.58,29.96,,Clear
KIGQ,04/30/2018 04:35 UTC,30.25,41.18,17.96,38.73,0.0,0.0,,,,,,1.0,,,,10.0,,KIGQ 300435Z AUTO 00000KT 10SM CLR 05/M08 A3025 RMK AO2  T00511078,,,,,,17.72,,N,29.59,29.96,,Clear
KIGQ,04/30/2018 04:55 UTC,30.25,37.76,21.74,52.01,0.0,0.0,,,,,,1.0,,,,10.0,,KIGQ 300455Z AUTO 00000KT 10SM CLR 03/M06 A3025 RMK AO2  T00321057,,,,,,21.53,,N,29.59,29.93,,Clear
KIGQ,04/30/2018 05:15 UTC,30.25,39.02,18.5,43.11,0.0,0.0,,,,,,1.0,,,,10.0,,KIGQ 300515Z AUTO 00000KT 10SM CLR 04/M07 A3025 RMK AO2 LTG DSNT W  T00391075,,,,,,18.26,,N,29.59,29.96,,Clear
KIGQ,04/30/2018 05:35 UTC,30.25,39.38,18.32,42.18,0.0,0.0,,,,,,1.0,,,,10.0,,KIGQ 300535Z AUTO 00000KT 10SM CLR 04/M08 A3025 RMK AO2 LTG DSNT W  T00411076,,,,,,18.08,,N,29.59,29.96,,Clear
KIGQ,04/30/2018 05:55 UTC,30.24,39.02,18.86,43.78,0.0,0.0,,,,,,1.0,,,,10.0,,KIGQ 300555Z AUTO 00000KT 10SM CLR 04/M07 A3024 RMK AO2 LTG DSNT W  T00391073 10110 20026 401301015,51.8,36.68,,55.4,29.3,18.62,,N,29.58,29.95,,Clear
KIGQ,04/30/2018 06:15 UTC,30.24,39.2,18.14,42.15,0.0,0.0,,,,,,1.0,,,,10.0,,KIGQ 300615Z AUTO 00000KT 10SM CLR 04/M08 A3024 RMK AO2  T00401077,,,,,,17.9,,N,29.58,29.95,,Clear
KIGQ,04/30/2018 06:35 UTC,30.24,38.48,18.14,43.35,0.0,0.0,,,,,,1.0,,,,10.0,,KIGQ 300635Z AUTO 00000KT 10SM CLR 04/M08 A3024 RMK AO2  T00361077,,,,,,17.9,,N,29.58,29.96,,Clear
KIGQ,04/30/2018 06:55 UTC,30.24,37.76,18.32,44.94,0.0,0.0,,,,,,1.0,,,,10.0,,KIGQ 300655Z AUTO 00000KT 10SM CLR 03/M08 A3024 RMK AO2  T00321076,,,,,,18.09,,N,29.58,29.96,,Clear
KIGQ,04/30/2018 07:15 UTC,30.24,36.5,19.58,49.86,0.0,0.0,,,,,,1.0,,,,10.0,,KIGQ 300715Z AUTO 00000KT 10SM CLR 03/M07 A3024 RMK AO2  T00251069,,,,,,19.37,,N,29.58,29.95,,Clear
KIGQ,04/30/2018 07:35 UTC,30.24,38.3,19.58,46.45,0.0,0.0,,,,,,1.0,,,,10.0,,KIGQ 300735Z AUTO 00000KT 10SM CLR 04/M07 A3024 RMK AO2  T00351069,,,,,,19.36,,N,29.58,29.94,,Clear
KIGQ,04/30/2018 07:55 UTC,30.23,36.86,21.74,53.89,0.0,0.0,,,,,,1.0,,,,10.0,,KIGQ 300755Z AUTO 00000KT 10SM CLR 03/M06 A3023 RMK AO2  T00271057,,,,,,21.54,,N,29.57,29.92,,Clear
KIGQ,04/30/2018 08:15 UTC,30.23,37.4,23.54,56.92,0.0,0.0,,,,,,1.0,,,,10.0,,KIGQ 300815Z AUTO 00000KT 10SM CLR 03/M05 A3023 RMK AO2  T00301047,,,,,,23.36,,N,29.57,29.89,,Clear
KIGQ,04/30/2018 08:35 UTC,30.23,35.24,24.08,63.41,0.0,0.0,,,,,,1.0,,,,10.0,,KIGQ 300835Z AUTO 00000KT 10SM CLR 02/M04 A3023 RMK AO2  T00181044,,,,,,23.92,,N,29.57,29.9,,Clear
KIGQ,04/30/2018 08:55 UTC,30.23,38.12,23.9,56.17,0.0,0.0,,,,,,1.0,,,,10.0,,KIGQ 300855Z AUTO 00000KT 10SM CLR 03/M04 A3023 RMK AO2  T00341045,,,,,,23.71,,N,29.57,29.88,,Clear
KIGQ,04/30/2018 09:15 UTC,30.23,38.12,23.9,56.17,0.0,0.0,,,,,,1.0,,,,10.0,,KIGQ 300915Z AUTO 00000KT 10SM CLR 03/M04 A3023 RMK AO2  T00341045,,,,,,23.71,,N,29.57,29.88,,Clear
KIGQ,04/30/2018 09:35 UTC,30.24,36.5,24.08,60.32,0.0,0.0,,,,,,1.0,,,,10.0,,KIGQ 300935Z AUTO 00000KT 10SM CLR 03/M04 A3024 RMK AO2  T00251044,,,,,,23.91,,N,29.58,29.9,,Clear
KIGQ,04/30/2018 09:55 UTC,30.24,37.22,24.44,59.52,0.0,0.0,,,,,,1.0,,,,10.0,,KIGQ 300955Z AUTO 00000KT 10SM CLR 03/M04 A3024 RMK AO2  T00291042,,,,,,24.26,,N,29.58,29.89,,Clear
KIGQ,04/30/2018 10:15 UTC,30.24,37.4,23.9,57.78,0.0,0.0,,,,,,1.0,,,,10.0,,KIGQ 301015Z AUTO 00000KT 10SM CLR 03/M04 A3024 RMK AO2  T00301045,,,,,,23.72,,N,29.58,29.9,,Clear
KIGQ,04/30/2018 10:35 UTC,30.24,37.04,24.44,59.95,0.0,0.0,,,,,,1.0,,,,10.0,,KIGQ 301035Z AUTO 00000KT 10SM CLR 03/M04 A3024 RMK AO2  T00281042,,,,,,24.27,,N,29.58,29.89,,Clear
KIGQ,04/30/2018 10:55 UTC,30.24,35.42,24.26,63.44,0.0,0.0,,,,,,1.0,,,,10.0,,KIGQ 301055Z AUTO 00000KT 10SM CLR 02/M04 A3024 RMK AO2  T00191043,,,,,,24.1,,N,29.58,29.9,,Clear
KIGQ,04/30/2018 11:15 UTC,30.25,36.5,24.8,62.17,0.0,0.0,,,,,,1.0,,,,10.0,,KIGQ 301115Z AUTO 00000KT 10SM CLR 03/M04 A3025 RMK AO2  T00251040,,,,,,24.64,,N,29.59,29.9,,Clear
KIGQ,04/30/2018 11:35 UTC,30.25,36.14,24.98,63.54,0.0,0.0,,,,,,1.0,,,,10.0,,KIGQ 301135Z AUTO 00000KT 10SM CLR 02/M04 A3025 RMK AO2  T00231039,,,,,,24.82,,N,29.59,29.9,,Clear
KIGQ,04/30/2018 11:55 UTC,30.26,37.94,26.24,62.37,0.0,0.0,,,,,,1.0,,,,10.0,,KIGQ 301155Z AUTO 00000KT 10SM CLR 03/M03 A3026 RMK AO2 LTG DSNT W  T00331032 10040 20013,39.2,34.34,,,,26.08,,N,29.6,29.89,,Clear
KIGQ,04/30/2018 12:15 UTC,30.26,41.9,30.92,64.77,3.44,170.0,,,,,,1.0,,,,10.0,,KIGQ 301215Z AUTO 17003KT 10SM CLR 06/M01 A3026 RMK AO2  T00551006,,,,,,30.78,,S,29.6,29.79,,Clear
KIGQ,04/30/2018 12:35 UTC,30.26,46.76,31.64,55.41,5.75,180.0,,,,,,1.0,,,,10.0,,KIGQ 301235Z AUTO 18005KT 10SM CLR 08/00 A3026 RMK AO2  T00821002,,,,,,31.47,,S,29.6,29.75,,Clear
KIGQ,04/30/2018 12:55 UTC,30.25,50.18,30.56,46.66,5.75,200.0,,,,,,1.0,,,,10.0,,KIGQ 301255Z AUTO 20005KT 10SM CLR 10/M01 A3025 RMK AO2  T01011008,,,,,,30.37,,SSW,29.59,29.74,,Clear
KIGQ,04/30/2018 13:15 UTC,30.25,52.88,30.74,42.55,9.22,200.0,,,,,,1.0,,,,10.0,,KIGQ 301315Z AUTO 20008KT 10SM CLR 12/M01 A3025 RMK AO2  T01161007,,,,,,30.55,,SSW,29.59,29.72,,Clear
KIGQ,04/30/2018 13:35 UTC,30.25,55.22,31.64,40.51,9.22,200.0,,,,,,1.0,,,,10.0,,KIGQ 301335Z AUTO 20008KT 10SM CLR 13/00 A3025 RMK AO2  T01291002,,,,,,31.46,,SSW,29.59,29.69,,Clear
KIGQ,04/30/2018 13:55 UTC,30.25,57.02,32.18,38.8,12.66,200.0,,,,,,1.0,,,,10.0,,KIGQ 301355Z AUTO 20011KT 10SM CLR 14/00 A3025 RMK AO2  T01390001,,,,,,32.01,,SSW,29.59,29.67,,Clear
KIGQ,04/30/2018 14:15 UTC,30.24,58.64,32.36,36.87,13.8,210.0,,,,,,1.0,,,,10.0,,KIGQ 301415Z AUTO 21012KT 10SM CLR 15/00 A3024 RMK AO2  T01480002,,,,,,32.19,,SSW,29.58,29.65,,Clear
KIGQ,04/30/2018 14:35 UTC,30.24,60.08,32.36,35.03,17.27,200.0,21.85,,,,,1.0,,,,10.0,,KIGQ 301435Z AUTO 20015G19KT 10SM CLR 16/00 A3024 RMK AO2  T01560002,,,,,,32.2,,SSW,29.58,29.64,,Clear
KIGQ,04/30/2018 14:55 UTC,30.23,62.06,32.72,33.13,16.11,200.0,,,,,,1.0,,,,10.0,,KIGQ 301455Z AUTO 20014KT 10SM CLR 17/00 A3023 RMK AO2  T01670004,,,,,,32.57,,SSW,29.57,29.61,,Clear
KIGQ,04/30/2018 15:15 UTC,30.23,62.78,33.08,32.78,14.97,200.0,23.02,,,,,1.0,,,,10.0,,KIGQ 301515Z AUTO 20013G20KT 10SM CLR 17/01 A3023 RMK AO2  T01710006,,,,,,32.94,,SSW,29.57,29.6,,Clear
KIGQ,04/30/2018 15:35 UTC,30.22,64.4,33.98,32.11,18.41,190.0,21.85,,,,,1.0,,,,10.0,,KIGQ 301535Z AUTO 19016G19KT 10SM CLR 18/01 A3022 RMK AO2  T01800011,,,,,,33.85,,S,29.56,29.56,,Clear
KIGQ,04/30/2018 15:55 UTC,30.22,65.48,34.34,31.37,16.11,200.0,23.02,,,,,1.0,,,,10.0,,KIGQ 301555Z AUTO 20014G20KT 10SM CLR 19/01 A3022 RMK AO2  T01860013,,,,,,34.22,,SSW,29.56,29.54,,Clear
KIGQ,04/30/2018 16:15 UTC,30.21,65.84,34.7,31.43,17.27,210.0,23.02,,,,,1.0,,,,10.0,,KIGQ 301615Z AUTO 21015G20KT 10SM CLR 19/02 A3021 RMK AO2  T01880015,,,,,,34.58,,SSW,29.55,29.52,,Clear
KIGQ,04/30/2018 16:35 UTC,30.2,67.28,35.6,30.99,13.8,200.0,19.57,,,,,1.0,,,,10.0,,KIGQ 301635Z AUTO 20012G17KT 10SM CLR 20/02 A3020 RMK AO2  T01960020,,,,,,35.49,,SSW,29.54,29.48,,Clear
KIGQ,04/30/2018 16:55 UTC,30.19,68.54,36.32,30.54,14.97,200.0,24.16,,,,,1.0,,,,10.0,,KIGQ 301655Z AUTO 20013G21KT 10SM CLR 20/02 A3019 RMK AO2  T02030024,,,,,,36.23,,SSW,29.53,29.45,,Clear
KIGQ,04/30/2018 17:15 UTC,30.18,69.26,35.96,29.37,14.97,210.0,20.71,,,,,1.0,,,,10.0,,KIGQ 301715Z AUTO 21013G18KT 10SM CLR 21/02 A3018 RMK AO2  T02070022,,,,,,35.87,,SSW,29.52,29.44,,Clear
KIGQ,04/30/2018 17:35 UTC,30.17,70.16,36.32,28.9,10.36,210.0,19.57,,,,,1.0,,,,10.0,,KIGQ 301735Z AUTO 21009G17KT 10SM CLR 21/02 A3017 RMK AO2  T02120024,,,,,,36.25,,SSW,29.51,29.42,,Clear
KIGQ,04/30/2018 17:55 UTC,30.16,71.24,37.76,29.48,13.8,210.0,19.57,,,,,1.0,,,,10.0,,KIGQ 301755Z AUTO 21012G17KT 10SM CLR 22/03 A3016 RMK AO2  T02180032 10218 20035,71.24,38.3,,,,37.69,,SSW,29.5,29.37,,Clear
KIGQ,04/30/2018 18:15 UTC,30.16,72.32,37.58,28.23,16.11,210.0,20.71,,,,,1.0,,,,10.0,,KIGQ 301815Z AUTO 21014G18KT 10SM CLR 22/03 A3016 RMK AO2  T02240031,,,,,,37.53,,SSW,29.5,29.36,,Clear
KIGQ,04/30/2018 18:35 UTC,30.15,72.5,37.94,28.45,16.11,180.0,21.85,,,,,1.0,,,,10.0,,KIGQ 301835Z AUTO 18014G19KT 10SM CLR 23/03 A3015 RMK AO2  T02250033,,,,,,37.89,,S,29.49,29.34,,Clear
KIGQ,04/30/2018 18:55 UTC,30.14,73.22,37.22,27.0,12.66,200.0,24.16,,,,,1.0,,,,10.0,,KIGQ 301855Z AUTO 20011G21KT 10SM CLR 23/03 A3014 RMK AO2  T02290029,,,,,,37.18,,SSW,29.48,29.35,,Clear
KIGQ,04/30/2018 19:15 UTC,30.13,74.48,37.94,26.63,17.27,200.0,21.85,,,,,1.0,,,,10.0,,KIGQ 301915Z AUTO 20015G19KT 10SM CLR 24/03 A3013 RMK AO2  T02360033,,,,,,37.92,,SSW,29.47,29.31,,Clear
KIGQ,04/30/2018 19:35 UTC,30.12,74.84,38.12,26.5,13.8,220.0,,,,,,1.0,,,,10.0,,KIGQ 301935Z AUTO 22012KT 10SM CLR 24/03 A3012 RMK AO2  T02380034,,,,,,38.11,,SW,29.47,29.3,,Clear
KIGQ,04/30/2018 19:55 UTC,30.11,75.92,39.02,26.48,17.27,210.0,,,,,,1.0,,,,10.0,,KIGQ 301955Z AUTO 21015KT 10SM CLR 24/04 A3011 RMK AO2  T02440039,,,,,,39.02,,SSW,29.46,29.26,,Clear
KIGQ,04/30/2018 20:15 UTC,30.1,76.1,38.66,25.95,12.66,200.0,24.16,,,,,1.0,,,,10.0,,KIGQ 302015Z AUTO 20011G21KT 10SM CLR 25/04 A3010 RMK AO2  T02450037,,,,,,38.66,,SSW,29.45,29.26,,Clear
KIGQ,04/30/2018 20:35 UTC,30.08,76.46,39.02,26.01,17.27,190.0,21.85,,,,,1.0,,,,10.0,,KIGQ 302035Z AUTO 19015G19KT 10SM CLR 25/04 A3008 RMK AO2  T02470039,,,,,,39.03,,S,29.43,29.23,,Clear
KIGQ,04/30/2018 20:55 UTC,30.07,76.82,40.1,26.8,16.11,190.0,19.57,,,,,1.0,,,,10.0,,KIGQ 302055Z AUTO 19014G17KT 10SM CLR 25/05 A3007 RMK AO2  T02490045,,,,,,40.1,,S,29.42,29.19,,Clear
KIGQ,04/30/2018 21:15 UTC,30.07,77.0,39.56,26.09,16.11,200.0,21.85,,,,,1.0,,,,10.0,,KIGQ 302115Z AUTO 20014G19KT 10SM CLR 25/04 A3007 RMK AO2  T02500042,,,,,,39.57,,SSW,29.42,29.2,,Clear
KIGQ,04/30/2018 21:35 UTC,30.06,75.74,39.2,26.82,13.8,200.0,19.57,,,,,1.0,,,,10.0,,KIGQ 302135Z AUTO 20012G17KT 10SM CLR 24/04 A3006 RMK AO2  T02430040,,,,,,39.19,,SSW,29.41,29.21,,Clear
KIGQ,04/30/2018 21:55 UTC,30.05,77.36,40.28,26.51,12.66,210.0,19.57,,,,,1.0,,,,10.0,,KIGQ 302155Z AUTO 21011G17KT 10SM CLR 25/05 A3005 RMK AO2  T02520046,,,,,,40.29,,SSW,29.4,29.16,,Clear
KIGQ,04/30/2018 22:15 UTC,30.05,76.82,40.1,26.8,16.11,180.0,,,,,,1.0,,,,10.0,,KIGQ 302215Z AUTO 18014KT 10SM CLR 25/05 A3005 RMK AO2  T02490045,,,,,,40.1,,S,29.4,29.17,,Clear
KIGQ,04/30/2018 22:35 UTC,30.04,76.1,39.74,27.07,14.97,190.0,,,,,,1.0,,,,10.0,,KIGQ 302235Z AUTO 19013KT 10SM CLR 25/04 A3004 RMK AO2  T02450043,,,,,,39.74,,S,29.39,29.17,,Clear
KIGQ,04/30/2018 22:55 UTC,30.04,76.1,39.92,27.26,14.97,190.0,19.57,,,,,1.0,,,,10.0,,KIGQ 302255Z AUTO 19013G17KT 10SM CLR 25/04 A3004 RMK AO2  T02450044,,,,,,39.92,,S,29.39,29.16,,Clear
KIGQ,04/30/2018 23:15 UTC,30.03,75.38,39.56,27.53,11.5,200.0,21.85,,,,,1.0,,,,10.0,,KIGQ 302315Z AUTO 20010G19KT 10SM CLR 24/04 A3003 RMK AO2  T02410042,,,,,,39.55,,SSW,29.38,29.17,,Clear
KIGQ,04/30/2018 23:35 UTC,30.03,73.58,38.66,28.23,13.8,200.0,21.85,,,,,1.0,,,,10.0,,KIGQ 302335Z AUTO 20012G19KT 10SM CLR 23/04 A3003 RMK AO2  T02310037,,,,,,38.63,,SSW,29.38,29.21,,Clear
KIGQ,04/30/2018 23:55 UTC,30.02,73.22,38.48,28.37,12.66,190.0,17.27,,,,,1.0,,,,10.0,,KIGQ 302355Z AUTO 19011G15KT 10SM CLR 23/04 A3002 RMK AO2  T02290036 10252 20217,77.36,71.06,,,,38.44,,S,29.37,29.2,,Clear
