# STATION: KIGQ
# STATION NAME: Lansing Municipal Airport
# LATITUDE: 41.54125
# LONGITUDE: -87.52822
# ELEVATION [ft]: 607
# STATE: IL
Station_ID,Date_Time,altimeter_set_1,air_temp_set_1,dew_point_temperature_set_1,relative_humidity_set_1,wind_speed_set_1,wind_direction_set_1,wind_gust_set_1,weather_cond_code_set_1,cloud_layer_3_code_set_1,precip_accum_one_hour_set_1,precip_accum_three_hour_set_1,cloud_layer_1_code_set_1,cloud_layer_2_code_set_1,precip_accum_six_hour_set_1,precip_accum_24_hour_set_1,visibility_set_1,metar_remark_set_1,metar_set_1,air_temp_high_6_hour_set_1,air_temp_low_6_hour_set_1,ceiling_set_1,air_temp_high_24_hour_set_1,air_temp_low_24_hour_set_1,dew_point_temperature_set_1d,wind_chill_set_1d,wind_cardinal_direction_set_1d,pressure_set_1d,sea_level_pressure_set_1d,heat_index_set_1d,weather_condition_set_1d
,,INHG,Fahrenheit,Fahrenheit,%,Miles/hour,Degrees,Miles/hour,code,code,Inches,Inches,code,code,Inches,Inches,Statute miles,text,text,Fahrenheit,Fahrenheit,Feet,Fahrenheit,Fahrenheit,Fahrenheit,Fahrenheit,Code,INHG,INHG,Fahrenheit,Code
KIGQ,05/01/2018 00:15 UTC,30.02,71.78,37.94,29.15,12.66,190.0,,,,,,1.0,,,,10.0,,KIGQ 010015Z AUTO 19011KT 10SM CLR 22/03 A3002 RMK AO2  T02210033,,,,,,37.88,,S,29.37,29.23,,Clear
KIGQ,05/01/2018 00:35 UTC,30.01,69.44,37.58,31.12,13.8,190.0,,,,,,1.0,,,,10.0,,KIGQ 010035Z AUTO 19012KT 10SM CLR 21/03 A3001 RMK AO2  T02080031,,,,,,37.49,,S,29.36,29.24,,Clear
KIGQ,05/01/2018 00:55 UTC,30.01,68.18,37.22,32.04,10.36,180.0,17.27,,,,,1.0,,,,10.0,,KIGQ 010055Z AUTO 18009G15KT 10SM CLR 20/03 A3001 RMK AO2  T02010029,,,,,,37.13,,S,29.36,29.26,,Clear
KIGQ,05/01/2018 01:15 UTC,30.01,66.92,36.68,32.75,11.5,180.0,,,,,,1.0,,,,10.0,,KIGQ 010115Z AUTO 18010KT 10SM CLR 19/03 A3001 RMK AO2  T01940026,,,,,,36.57,,S,29.36,29.28,,Clear
KIGQ,05/01/2018 01:35 UTC,30.01,65.66,36.5,33.97,12.66,180.0,,,,,,1.0,,,,10.0,,KIGQ 010135Z AUTO 18011KT 10SM CLR 19/03 A3001 RMK AO2  T01870025,,,,,,36.38,,S,29.36,29.29,,Clear
KIGQ,05/01/2018 01:55 UTC,30.01,65.48,36.68,34.42,13.8,180.0,,,,,,1.0,,,,10.0,,KIGQ 010155Z AUTO 18012KT 10SM CLR 19/03 A3001 RMK AO2  T01860026,,,,,,36.56,,S,29.36,29.28,,Clear
KIGQ,05/01/2018 02:15 UTC,30.01,64.94,36.5,34.83,12.66,180.0,,,,,,1.0,,,,10.0,,KIGQ 010215Z AUTO 18011KT 10SM CLR 18/03 A3001 RMK AO2  T01830025,,,,,,36.38,,S,29.36,29.29,,Clear
KIGQ,05/01/2018 02:35 UTC,30.01,64.04,36.32,35.68,13.8,180.0,,,,,,1.0,,,,10.0,,KIGQ 010235Z AUTO 18012KT 10SM CLR 18/02 A3001 RMK AO2  T01780024,,,,,,36.19,,S,29.36,29.3,,Clear
KIGQ,05/01/2018 02:55 UTC,30.01,63.5,36.32,36.36,11.5,190.0,,,,,,1.0,,,,10.0,,KIGQ 010255Z AUTO 19010KT 10SM CLR 18/02 A3001 RMK AO2  T01750024,,,,,,36.18,,S,29.36,29.31,,Clear
KIGQ,05/01/2018 03:15 UTC,30.01,63.32,35.96,36.08,11.5,190.0,,,,,,1.0,,,,10.0,,KIGQ 010315Z AUTO 19010KT 10SM CLR 17/02 A3001 RMK AO2  T01740022,,,,,,35.83,,S,29.36,29.32,,Clear
KIGQ,05/01/2018 03:35 UTC,30.01,62.78,35.78,36.5,12.66,200.0,,,,,,1.0,,,,10.0,,KIGQ 010335Z AUTO 20011KT 10SM CLR 17/02 A3001 RMK AO2  T01710021,,,,,,35.64,,SSW,29.36,29.32,,Clear
KIGQ,05/01/2018 03:55 UTC,30.01,61.88,35.78,37.68,11.5,200.0,17.27,,,,,1.0,,,,10.0,,KIGQ 010355Z AUTO 20010G15KT 10SM CLR 17/02 A3001 RMK AO2  T01660021,,,,,,35.64,,SSW,29.36,29.33,,Clear
KIGQ,05/01/2018 04:15 UTC,30.01,60.62,35.78,39.4,11.5,190.0,,,,,,1.0,,,,10.0,,KIGQ 010415Z AUTO 19010KT 10SM CLR 16/02 A3001 RMK AO2  T01590021,,,,,,35.63,,S,29.36,29.34,,Clear
KIGQ,05/01/2018 04:35 UTC,30.01,59.54,35.96,41.23,10.36,190.0,,,,,,1.0,,,,10.0,,KIGQ 010435Z AUTO 19009KT 10SM CLR 15/02 A3001 RMK AO2  T01530022,,,,,,35.81,,S,29.36,29.34,,Clear
KIGQ,05/01/2018 04:55 UTC,30.01,59.18,35.78,41.47,10.36,190.0,,,,,,1.0,,,,10.0,,KIGQ 010455Z AUTO 19009KT 10SM CLR 15/02 A3001 RMK AO2  T01510021,,,,,,35.63,,S,29.36,29.34,,Clear
KIGQ,05/01/2018 05:15 UTC,30.01,58.46,35.96,42.85,10.36,190.0,,,,,,1.0,,,,10.0,,KIGQ 010515Z AUTO 19009KT 10SM CLR 15/02 A3001 RMK AO2  T01470022,,,,,,35.8,,S,29.36,29.35,,Clear
KIGQ,05/01/2018 05:35 UTC,30.0,58.1,35.78,43.1,11.5,190.0,,,,,,1.0,,,,10.0,,KIGQ 010535Z AUTO 19010KT 10SM CLR 15/02 A3000 RMK AO2  T01450021,,,,,,35.62,,S,29.35,29.34,,Clear
KIGQ,05/01/2018 05:55 UTC,30.0,58.28,35.96,43.13,11.5,190.0,,,,,,1.0,,,,10.0,,KIGQ 010555Z AUTO 19010KT 10SM CLR 15/02 A3000 RMK AO2 T01460022  10228 20145 402520013,73.04,58.1,,77.36,34.34,35.8,,S,29.35,29.34,,Clear
KIGQ,05/01/2018 06:15 UTC,30.0,58.28,36.14,43.44,13.8,200.0,,,,,,1.0,,,,10.0,,KIGQ 010615Z AUTO 20012KT 10SM CLR 15/02 A3000 RMK AO2  T01460023,,,,,,35.99,,SSW,29.35,29.33,,Clear
KIGQ,05/01/2018 06:35 UTC,29.99,58.28,36.14,43.44,12.66,200.0,18.41,,,,,1.0,,,,10.0,,KIGQ 010635Z AUTO 20011G16KT 10SM CLR 15/02 A2999 RMK AO2  T01460023,,,,,,35.99,,SSW,29.34,29.32,,Clear
KIGQ,05/01/2018 06:55 UTC,29.99,58.46,36.32,43.47,13.8,200.0,18.41,,,,,1.0,,,,10.0,,KIGQ 010655Z AUTO 20012G16KT 10SM CLR 15/02 A2999 RMK AO2  T01470024,,,,,,36.17,,SSW,29.34,29.32,,Clear
KIGQ,05/01/2018 07:20 UTC,30.0,59.18,36.5,42.67,10.36,200.0,19.57,,,,,1.0,,,,10.0,,KIGQ 010720Z AUTO 20009G17KT 10SM CLR 15/03 A3000 RMK AO2  T01510025,,,,,,36.35,,SSW,29.35,29.32,,Clear
KIGQ,05/01/2018 07:35 UTC,30.01,59.0,36.68,43.25,9.22,210.0,,,,,,1.0,,,,10.0,,KIGQ 010735Z AUTO 21008KT 10SM CLR 15/03 A3001 RMK AO2  T01500026,,,,,,36.53,,SSW,29.36,29.33,,Clear
KIGQ,05/01/2018 08:15 UTC,30.02,58.46,36.86,44.4,9.22,210.0,,,,,,1.0,,,,10.0,,KIGQ 010815Z AUTO 21008KT 10SM CLR 15/03 A3002 RMK AO2  T01470027,,,,,,36.71,,SSW,29.37,29.33,,Clear
KIGQ,05/01/2018 08:35 UTC,30.03,57.92,37.04,45.59,9.22,220.0,,,,,,1.0,,,,10.0,,KIGQ 010835Z AUTO 22008KT 10SM CLR 14/03 A3003 RMK AO2  T01440028,,,,,,36.88,,SW,29.38,29.34,,Clear
KIGQ,05/01/2018 08:55 UTC,30.03,56.48,36.68,47.34,8.05,210.0,,,,,,1.0,,,,10.0,,KIGQ 010855Z AUTO 21007KT 10SM CLR 14/03 A3003 RMK AO2  T01360026,,,,,,36.52,,SSW,29.38,29.36,,Clear
KIGQ,05/01/2018 09:15 UTC,30.03,55.22,36.5,49.2,6.91,210.0,,,,,,1.0,,,,10.0,,KIGQ 010915Z AUTO 21006KT 10SM CLR 13/03 A3003 RMK AO2  T01290025,,,,,,36.34,,SSW,29.38,29.37,,Clear
KIGQ,05/01/2018 09:35 UTC,30.03,54.86,36.86,50.56,6.91,200.0,,,,,,1.0,,,,10.0,,KIGQ 010935Z AUTO 20006KT 10SM CLR 13/03 A3003 RMK AO2  T01270027,,,,,,36.7,,SSW,29.38,29.37,,Clear
KIGQ,05/01/2018 09:55 UTC,30.02,52.7,36.86,54.72,6.91,190.0,,,,,,1.0,,,,10.0,,KIGQ 010955Z AUTO 19006KT 10SM CLR 12/03 A3002 RMK AO2  T01150027,,,,,,36.71,,S,29.37,29.37,,Clear
KIGQ,05/01/2018 10:15 UTC,30.02,51.8,37.4,57.78,5.75,190.0,,,,,,1.0,,,,10.0,,KIGQ 011015Z AUTO 19005KT 10SM CLR 11/03 A3002 RMK AO2  T01100030,,,,,,37.26,,S,29.37,29.37,,Clear
KIGQ,05/01/2018 10:35 UTC,30.02,51.62,37.4,58.16,8.05,200.0,,,,,,1.0,,,,10.0,,KIGQ 011035Z AUTO 20007KT 10SM CLR 11/03 A3002 RMK AO2  T01090030,,,,,,37.26,,SSW,29.37,29.37,,Clear
KIGQ,05/01/2018 10:55 UTC,30.02,52.88,37.76,56.32,9.22,200.0,,,,,,1.0,,,,10.0,,KIGQ 011055Z AUTO 20008KT 10SM CLR 12/03 A3002 RMK AO2  T01160032,,,,,,37.62,,SSW,29.37,29.35,,Clear
KIGQ,05/01/2018 11:10 UTC,30.03,53.24,37.94,55.97,8.05,200.0,,,,,,1.0,,,,10.0,,KIGQ 011110Z AUTO 20007KT 10SM CLR 12/03 A3003 RMK AO2  T01180033,,,,,,37.8,,SSW,29.38,29.35,,Clear
KIGQ,05/01/2018 11:35 UTC,30.03,54.5,38.3,54.22,9.22,200.0,,,,,,1.0,,,,10.0,,KIGQ 011135Z AUTO 20008KT 10SM CLR 13/04 A3003 RMK AO2  T01250035,,,,,,38.16,,SSW,29.38,29.34,,Clear
KIGQ,05/01/2018 11:55 UTC,30.02,55.94,38.84,52.55,9.22,200.0,,,,,,1.0,,,,10.0,,KIGQ 011155Z AUTO 20008KT 10SM CLR 13/04 A3002 RMK AO2 T01330038  10152 20103,59.36,50.54,,,,38.7,,SSW,29.37,29.3,,Clear
KIGQ,05/01/2018 12:15 UTC,30.02,57.74,39.02,49.6,8.05,200.0,,,,,,1.0,,,,10.0,,KIGQ 011215Z AUTO 20007KT 10SM CLR 14/04 A3002 RMK AO2  T01430039,,,,,,38.88,,SSW,29.37,29.29,,Clear
KIGQ,05/01/2018 12:35 UTC,30.03,59.9,39.92,47.55,10.36,220.0,,,,,,1.0,,,,10.0,,KIGQ 011235Z AUTO 22009KT 10SM CLR 16/04 A3003 RMK AO2  T01550044,,,,,,39.78,,SW,29.38,29.26,,Clear
KIGQ,05/01/2018 12:55 UTC,30.04,61.7,40.82,46.2,10.36,210.0,,,,,,1.0,,,,10.0,,KIGQ 011255Z AUTO 21009KT 10SM CLR 17/05 A3004 RMK AO2  T01650049,,,,,,40.69,,SSW,29.39,29.23,,Clear
KIGQ,05/01/2018 13:15 UTC,30.04,63.68,42.26,45.56,13.8,210.0,17.27,,,,,1.0,,,,10.0,,KIGQ 011315Z AUTO 21012G15KT 10SM CLR 18/06 A3004 RMK AO2  T01760057,,,,,,42.14,,SSW,29.39,29.18,,Clear
KIGQ,05/01/2018 13:35 UTC,30.04,65.12,43.16,44.85,16.11,210.0,,,,,,1.0,,,,10.0,,KIGQ 011335Z AUTO 21014KT 10SM CLR 18/06 A3004 RMK AO2 LTG DSNT W  T01840062,,,,,,43.05,,SSW,29.39,29.14,,Clear
KIGQ,05/01/2018 13:55 UTC,30.04,66.74,44.42,44.5,12.66,210.0,19.57,,,,,1.0,,,,10.0,,KIGQ 011355Z AUTO 21011G17KT 10SM CLR 19/07 A3004 RMK AO2  T01930069,,,,,,44.33,,SSW,29.39,29.09,,Clear
KIGQ,05/01/2018 14:15 UTC,30.03,69.44,46.76,44.32,14.97,220.0,18.41,,,,,1.0,,,,10.0,,KIGQ 011415Z AUTO 22013G16KT 10SM CLR 21/08 A3003 RMK AO2  T02080082,,,,,,46.68,,SW,29.38,28.98,,Clear
KIGQ,05/01/2018 14:35 UTC,30.03,71.06,48.2,44.28,16.11,210.0,25.32,,,,,1.0,,,,10.0,,KIGQ 011435Z AUTO 21014G22KT 10SM CLR 22/09 A3003 RMK AO2  T02170090,,,,,,48.14,,SSW,29.38,28.91,,Clear
KIGQ,05/01/2018 14:55 UTC,30.02,71.96,48.74,43.83,14.97,220.0,23.02,,,,,1.0,,,,10.0,,KIGQ 011455Z AUTO 22013G20KT 10SM CLR 22/09 A3002 RMK AO2  T02220093,,,,,,48.69,,SW,29.37,28.87,,Clear
KIGQ,05/01/2018 15:15 UTC,30.02,74.48,50.72,43.35,13.8,220.0,20.71,,,,,1.0,,,,10.0,,KIGQ 011515Z AUTO 22012G18KT 10SM CLR 24/10 A3002 RMK AO2  T02360104,,,,,,50.69,,SW,29.37,28.77,,Clear
KIGQ,05/01/2018 15:35 UTC,30.01,75.74,51.62,42.98,17.27,210.0,23.02,,,,,1.0,,,,10.0,,KIGQ 011535Z AUTO 21015G20KT 10SM CLR 24/11 A3001 RMK AO2  T02430109,,,,,,51.6,,SSW,29.36,28.72,,Clear
KIGQ,05/01/2018 15:55 UTC,30.01,77.18,52.88,42.92,18.41,210.0,23.02,,,,,1.0,,,,10.0,,KIGQ 011555Z AUTO 21016G20KT 10SM CLR 25/12 A3001 RMK AO2  T02510116,,,,,,52.87,,SSW,29.36,28.65,,Clear
KIGQ,05/01/2018 16:15 UTC,30.01,78.44,53.6,42.28,17.27,210.0,26.46,,,,,1.0,,,,10.0,,KIGQ 011615Z AUTO 21015G23KT 10SM CLR 26/12 A3001 RMK AO2  T02580120,,,,,,53.61,,SSW,29.36,28.6,,Clear
KIGQ,05/01/2018 16:35 UTC,30.0,79.16,54.14,42.11,18.41,220.0,27.63,,,,,1.0,,,,10.0,,KIGQ 011635Z AUTO 22016G24KT 10SM CLR 26/12 A3000 RMK AO2  T02620123,,,,,,54.15,,SW,29.35,28.56,,Clear
KIGQ,05/01/2018 16:55 UTC,30.0,79.88,54.32,41.4,20.71,230.0,28.77,,,,,1.0,,,,10.0,,KIGQ 011655Z AUTO 23018G25KT 10SM CLR 27/12 A3000 RMK AO2  T02660124,,,,,,54.34,,SW,29.35,28.55,,Clear
KIGQ,05/01/2018 17:15 UTC,30.0,80.78,53.6,39.16,17.27,230.0,27.63,,,,,1.0,,,,10.0,,KIGQ 011715Z AUTO 23015G24KT 10SM CLR 27/12 A3000 RMK AO2  T02710120,,,,,,53.63,,SW,29.35,28.58,80.41,Clear
KIGQ,05/01/2018 17:35 UTC,30.0,81.86,54.14,38.57,20.71,220.0,27.63,,,,,752.0,,,,10.0,,KIGQ 011735Z AUTO 22018G24KT 10SM SCT075 28/12 A3000 RMK AO2  T02770123,,,,,,54.19,,SW,29.35,28.54,81.18,Partly Cloudy
KIGQ,05/01/2018 17:55 UTC,29.99,82.4,54.5,38.4,20.71,220.0,32.21,,,,,752.0,,,,10.0,,KIGQ 011755Z AUTO 22018G28KT 10SM SCT075 28/13 A2999 RMK AO2  T02800125 10280 20133,82.4,55.94,,,,54.55,,SW,29.34,28.51,81.61,Partly Cloudy
KIGQ,05/01/2018 18:15 UTC,29.99,80.6,54.32,40.44,18.41,250.0,25.32,,,,,753.0,903.0,,,10.0,,KIGQ 011815Z AUTO 25016G22KT 10SM BKN075 BKN090 27/12 A2999 RMK AO2 LTG DSNT NW T02700124,,,7500.0,,,54.35,,WSW,29.34,28.53,80.39,Mostly Cloudy
KIGQ,05/01/2018 18:35 UTC,29.99,82.4,54.5,38.4,18.41,220.0,31.07,,,,,752.0,902.0,,,10.0,,KIGQ 011835Z AUTO 22016G27KT 10SM SCT075 SCT090 28/13 A2999 RMK AO2 T02800125,,,,,,54.55,,SW,29.34,28.51,81.61,Partly Cloudy
KIGQ,05/01/2018 18:55 UTC,29.98,82.22,54.32,38.37,12.66,230.0,27.63,,,,,752.0,,,,10.0,,KIGQ 011855Z AUTO 23011G24KT 10SM SCT075 28/12 A2998 RMK AO2  T02790124,,,,,,54.37,,SW,29.33,28.51,81.45,Partly Cloudy
KIGQ,05/01/2018 19:15 UTC,29.98,82.76,54.14,37.46,18.41,230.0,32.21,,,,,752.0,,,,10.0,,KIGQ 011915Z AUTO 23016G28KT 10SM SCT075 28/12 A2998 RMK AO2  T02820123,,,,,,54.2,,SW,29.33,28.51,81.8,Partly Cloudy
KIGQ,05/01/2018 19:35 UTC,29.96,83.3,53.96,36.57,19.57,220.0,24.16,,,,,752.0,,,,10.0,,KIGQ 011935Z AUTO 22017G21KT 10SM SCT075 29/12 A2996 RMK AO2  T02850122,,,,,,54.02,,SW,29.31,28.5,82.16,Partly Cloudy
KIGQ,05/01/2018 19:55 UTC,29.96,83.48,53.6,35.89,21.85,230.0,27.63,,,,,1.0,,,,10.0,,KIGQ 011955Z AUTO 23019G24KT 10SM CLR 29/12 A2996 RMK AO2  T02860120,,,,,,53.67,,SW,29.31,28.51,82.23,Clear
KIGQ,05/01/2018 20:15 UTC,29.95,84.2,54.32,36.0,17.27,220.0,24.16,,,,,852.0,,,,10.0,,KIGQ 012015Z AUTO 22015G21KT 10SM SCT085 29/12 A2995 RMK AO2  T02900124,,,,,,54.4,,SW,29.3,28.46,82.89,Partly Cloudy
KIGQ,05/01/2018 20:35 UTC,29.95,83.84,53.42,35.24,21.85,230.0,28.77,,,,,1.0,,,,10.0,,KIGQ 012035Z AUTO 23019G25KT 10SM CLR 29/12 A2995 RMK AO2  T02880119,,,,,,53.5,,SW,29.3,28.51,82.47,Clear
KIGQ,05/01/2018 20:55 UTC,29.94,84.38,52.88,33.96,20.71,220.0,26.46,,,,,1.0,,,,10.0,,KIGQ 012055Z AUTO 22018G23KT 10SM CLR 29/12 A2994 RMK AO2  T02910116,,,,,,52.97,,SW,29.29,28.52,82.79,Clear
KIGQ,05/01/2018 21:15 UTC,29.94,84.02,52.52,33.9,19.57,220.0,28.77,,,,,1.0,,,,10.0,,KIGQ 012115Z AUTO 22017G25KT 10SM CLR 29/11 A2994 RMK AO2  T02890114,,,,,,52.6,,SW,29.29,28.54,82.46,Clear
KIGQ,05/01/2018 21:35 UTC,29.93,82.58,51.98,34.81,20.71,220.0,28.77,,,,,1.0,,,,10.0,,KIGQ 012135Z AUTO 22018G25KT 10SM CLR 28/11 A2993 RMK AO2  T02810111,,,,,,52.04,,SW,29.28,28.56,81.36,Clear
KIGQ,05/01/2018 21:55 UTC,29.93,82.4,52.34,35.48,23.02,210.0,32.21,,,,,1.0,,,,10.0,,KIGQ 012155Z AUTO 21020G28KT 10SM CLR 28/11 A2993 RMK AO2  T02800113,,,,,,52.4,,SSW,29.28,28.55,81.28,Clear
KIGQ,05/01/2018 22:15 UTC,29.93,81.86,51.44,34.93,23.02,200.0,26.46,,,,,1.0,,,,10.0,,KIGQ 012215Z AUTO 20020G23KT 10SM CLR 28/11 A2993 RMK AO2  T02770108,,,,,,51.49,,SSW,29.28,28.59,80.81,Clear
KIGQ,05/01/2018 22:35 UTC,29.93,82.4,51.98,35.01,23.02,210.0,29.93,,,,,1.0,,,,10.0,,KIGQ 012235Z AUTO 21020G26KT 10SM CLR 28/11 A2993 RMK AO2  T02800111,,,,,,52.04,,SSW,29.28,28.57,81.24,Clear
KIGQ,05/01/2018 22:55 UTC,29.92,81.32,51.44,35.54,19.57,200.0,29.93,,,,,1.0,,,,10.0,,KIGQ 012255Z AUTO 20017G26KT 10SM CLR 27/11 A2992 RMK AO2  T02740108,,,,,,51.48,,SSW,29.27,28.59,80.47,Clear
KIGQ,05/01/2018 23:15 UTC,29.92,80.78,50.9,35.46,16.11,210.0,27.63,,,,,1.0,,,,10.0,,KIGQ 012315Z AUTO 21014G24KT 10SM CLR 27/11 A2992 RMK AO2  T02710105,,,,,,50.94,,SSW,29.27,28.62,80.09,Clear
KIGQ,05/01/2018 23:35 UTC,29.92,80.06,50.36,35.58,24.16,200.0,28.77,,,,,1.0,,,,10.0,,KIGQ 012335Z AUTO 20021G25KT 10SM CLR 27/10 A2992 RMK AO2  T02670102,,,,,,50.39,,SSW,29.27,28.64,79.44,Clear
KIGQ,05/01/2018 23:55 UTC,29.92,79.7,50.9,36.73,19.57,210.0,25.32,,,,,1.0,,,,10.0,,KIGQ 012355Z AUTO 21017G22KT 10SM CLR 27/11 A2992 RMK AO2  T02650105 10293 20265,84.74,79.7,,,,50.92,,SSW,29.27,28.62,,Clear
KIGQ,05/02/2018 00:15 UTC,29.91,79.16,51.08,37.63,21.85,210.0,29.93,,,,,1.0,,,,10.0,,KIGQ 020015Z AUTO 21019G26KT 10SM CLR 26/11 A2991 RMK AO2  T02620106,,,,,,51.09,,SSW,29.26,28.61,,Clear
KIGQ,05/02/2018 00:35 UTC,29.91,77.72,50.9,39.19,16.11,210.0,26.46,,,,,1.0,,,,10.0,,KIGQ 020035Z AUTO 21014G23KT 10SM CLR 25/11 A2991 RMK AO2  T02540105,,,,,,50.9,,SSW,29.26,28.63,,Clear
KIGQ,05/02/2018 00:55 UTC,29.91,76.46,50.9,40.86,16.11,200.0,24.16,,,,,1.0,,,,10.0,,KIGQ 020055Z AUTO 20014G21KT 10SM CLR 25/11 A2991 RMK AO2  T02470105,,,,,,50.89,,SSW,29.26,28.64,,Clear
KIGQ,05/02/2018 01:15 UTC,29.91,75.2,50.9,42.61,17.27,200.0,20.71,,,,,1.0,,,,10.0,,KIGQ 020115Z AUTO 20015G18KT 10SM CLR 24/11 A2991 RMK AO2  T02400105,,,,,,50.88,,SSW,29.26,28.65,,Clear
KIGQ,05/02/2018 01:35 UTC,29.92,75.02,50.9,42.86,16.11,200.0,24.16,,,,,1.0,,,,10.0,,KIGQ 020135Z AUTO 20014G21KT 10SM CLR 24/11 A2992 RMK AO2  T02390105,,,,,,50.87,,SSW,29.27,28.66,,Clear
KIGQ,05/02/2018 01:55 UTC,29.92,74.3,50.9,43.91,16.11,200.0,23.02,,,,,1.0,,,,10.0,,KIGQ 020155Z AUTO 20014G20KT 10SM CLR 24/11 A2992 RMK AO2  T02350105,,,,,,50.87,,SSW,29.27,28.67,,Clear
KIGQ,05/02/2018 02:15 UTC,29.93,73.76,50.9,44.71,19.57,200.0,,,,,,1.0,,,,10.0,,KIGQ 020215Z AUTO 20017KT 10SM CLR 23/11 A2993 RMK AO2  T02320105,,,,,,50.86,,SSW,29.28,28.68,,Clear
KIGQ,05/02/2018 02:35 UTC,29.93,73.4,50.9,45.25,17.27,200.0,25.32,,,,,1.0,,,,10.0,,KIGQ 020235Z AUTO 20015G22KT 10SM CLR 23/11 A2993 RMK AO2  T02300105,,,,,,50.86,,SSW,29.28,28.68,,Clear
KIGQ,05/02/2018 02:55 UTC,29.94,72.86,50.9,46.08,19.57,200.0,24.16,,,,,1.0,,,,10.0,,KIGQ 020255Z AUTO 20017G21KT 10SM CLR 23/11 A2994 RMK AO2  T02270105,,,,,,50.86,,SSW,29.29,28.7,,Clear
KIGQ,05/02/2018 03:15 UTC,29.94,72.68,50.9,46.36,17.27,200.0,27.63,,,,,1.0,,,,10.0,,KIGQ 020315Z AUTO 20015G24KT 10SM CLR 23/11 A2994 RMK AO2  T02260105,,,,,,50.86,,SSW,29.29,28.7,,Clear
KIGQ,05/02/2018 03:35 UTC,29.94,71.96,51.08,47.81,18.41,200.0,25.32,,,,,1.0,,,,10.0,,KIGQ 020335Z AUTO 20016G22KT 10SM CLR 22/11 A2994 RMK AO2  T02220106,,,,,,51.03,,SSW,29.29,28.7,,Clear
KIGQ,05/02/2018 03:55 UTC,29.95,72.14,51.08,47.52,18.41,200.0,25.32,,,,,1.0,,,,10.0,,KIGQ 020355Z AUTO 20016G22KT 10SM CLR 22/11 A2995 RMK AO2  T02230106,,,,,,51.03,,SSW,29.3,28.71,,Clear
KIGQ,05/02/2018 04:15 UTC,29.95,71.06,51.08,49.29,14.97,200.0,18.41,,,,,1.0,,,,10.0,,KIGQ 020415Z AUTO 20013G16KT 10SM CLR 22/11 A2995 RMK AO2  T02170106,,,,,,51.02,,SSW,29.3,28.72,,Clear
KIGQ,05/02/2018 04:35 UTC,29.94,70.88,51.44,50.26,19.57,210.0,24.16,,,,,1.0,,,,10.0,,KIGQ 020435Z AUTO 21017G21KT 10SM CLR 22/11 A2994 RMK AO2  T02160108,,,,,,51.38,,SSW,29.29,28.69,,Clear
KIGQ,05/02/2018 04:55 UTC,29.94,70.88,51.8,50.93,21.85,210.0,26.46,,,,,1.0,,,,10.0,,KIGQ 020455Z AUTO 21019G23KT 10SM CLR 22/11 A2994 RMK AO2  T02160110,,,,,,51.74,,SSW,29.29,28.68,,Clear
KIGQ,05/02/2018 05:15 UTC,29.94,70.88,51.98,51.27,20.71,210.0,25.32,,,,,1.0,,,,10.0,,KIGQ 020515Z AUTO 21018G22KT 10SM CLR 22/11 A2994 RMK AO2 LTG DSNT  NW T02160111,,,,,,51.93,,SSW,29.29,28.67,,Clear
KIGQ,05/02/2018 05:35 UTC,29.94,70.34,52.34,52.91,20.71,210.0,24.16,,,,,1.0,,,,10.0,,KIGQ 020535Z AUTO 21018G21KT 10SM CLR 21/11 A2994 RMK AO2  T02130113,,,,,,52.28,,SSW,29.29,28.66,,Clear
KIGQ,05/02/2018 05:55 UTC,29.93,69.8,52.7,54.61,16.11,210.0,25.32,,,,,1.0,,,,10.0,,KIGQ 020555Z AUTO 21014G22KT 10SM CLR 21/12 A2993 RMK AO2 LTG DSNT  NW T02100115 10265 20210 402930103,79.7,69.8,,84.74,50.54,52.64,,SSW,29.28,28.64,,Clear
KIGQ,05/02/2018 06:15 UTC,29.94,69.8,52.7,54.61,17.27,210.0,23.02,,,,,1.0,,,,10.0,,KIGQ 020615Z AUTO 21015G20KT 10SM CLR 21/12 A2994 RMK AO2 LTG DSNT  NW T02100115,,,,,,52.64,,SSW,29.29,28.65,,Clear
KIGQ,05/02/2018 06:35 UTC,29.93,69.8,52.88,54.97,16.11,210.0,21.85,,,,,1.0,,,,10.0,,KIGQ 020635Z AUTO 21014G19KT 10SM CLR 21/12 A2993 RMK AO2  T02100116,,,,,,52.82,,SSW,29.28,28.63,,Clear
KIGQ,05/02/2018 06:55 UTC,29.93,69.98,52.88,54.64,18.41,220.0,25.32,,,,,802.0,,,,10.0,,KIGQ 020655Z AUTO 22016G22KT 10SM SCT080 21/12 A2993 RMK AO2  T02110116,,,,,,52.82,,SW,29.28,28.63,,Partly Cloudy
KIGQ,05/02/2018 07:15 UTC,29.93,69.8,52.88,54.97,18.41,220.0,24.16,,,,,802.0,,,,10.0,,KIGQ 020715Z AUTO 22016G21KT 10SM SCT080 21/12 A2993 RMK AO2  T02100116,,,,,,52.82,,SW,29.28,28.63,,Partly Cloudy
KIGQ,05/02/2018 07:35 UTC,29.93,69.26,52.88,56.0,16.11,210.0,21.85,,,,,1.0,,,,10.0,,KIGQ 020735Z AUTO 21014G19KT 10SM CLR 21/12 A2993 RMK AO2  T02070116,,,,,,52.82,,SSW,29.28,28.64,,Clear
KIGQ,05/02/2018 07:55 UTC,29.92,68.9,52.7,56.32,17.27,220.0,21.85,,,,,1.0,,,,10.0,,KIGQ 020755Z AUTO 22015G19KT 10SM CLR 21/12 A2992 RMK AO2  T02050115,,,,,,52.64,,SW,29.27,28.64,,Clear
KIGQ,05/02/2018 08:15 UTC,29.92,68.54,52.7,57.02,16.11,210.0,23.02,,,,,1.0,,,,10.0,,KIGQ 020815Z AUTO 21014G20KT 10SM CLR 20/12 A2992 RMK AO2  T02030115,,,,,,52.64,,SSW,29.27,28.64,,Clear
KIGQ,05/02/2018 08:35 UTC,29.91,68.18,52.7,57.72,16.11,200.0,21.85,,,,,1.0,,,,10.0,,KIGQ 020835Z AUTO 20014G19KT 10SM CLR 20/12 A2991 RMK AO2  T02010115,,,,,,52.63,,SSW,29.26,28.63,,Clear
KIGQ,05/02/2018 08:55 UTC,29.92,67.64,52.7,58.8,16.11,210.0,23.02,,,,,1.0,,,,10.0,,KIGQ 020855Z AUTO 21014G20KT 10SM CLR 20/12 A2992 RMK AO2  T01980115,,,,,,52.63,,SSW,29.27,28.65,,Clear
KIGQ,05/02/2018 09:15 UTC,29.91,67.64,52.7,58.8,14.97,210.0,23.02,,,,,1.0,,,,10.0,,KIGQ 020915Z AUTO 21013G20KT 10SM CLR 20/12 A2991 RMK AO2  T01980115,,,,,,52.63,,SSW,29.26,28.64,,Clear
KIGQ,05/02/2018 09:35 UTC,29.91,67.28,52.34,58.75,14.97,210.0,20.71,,,,,1.0,,,,10.0,,KIGQ 020935Z AUTO 21013G18KT 10SM CLR 20/11 A2991 RMK AO2  T01960113,,,,,,52.27,,SSW,29.26,28.66,,Clear
KIGQ,05/02/2018 09:55 UTC,29.91,66.92,52.16,59.1,12.66,210.0,18.41,,,,,1.0,,,,10.0,,KIGQ 020955Z AUTO 21011G16KT 10SM CLR 19/11 A2991 RMK AO2  T01940112,,,,,,52.09,,SSW,29.26,28.67,,Clear
KIGQ,05/02/2018 10:15 UTC,29.92,67.1,51.8,57.96,13.8,230.0,18.41,,,,,1.0,,,,10.0,,KIGQ 021015Z AUTO 23012G16KT 10SM CLR 20/11 A2992 RMK AO2  T01950110,,,,,,51.73,,SW,29.27,28.69,,Clear
KIGQ,05/02/2018 10:35 UTC,29.92,65.84,51.44,59.74,9.22,220.0,18.41,,,,,1.0,,,,10.0,,KIGQ 021035Z AUTO 22008G16KT 10SM CLR 19/11 A2992 RMK AO2  T01880108,,,,,,51.37,,SW,29.27,28.72,,Clear
KIGQ,05/02/2018 10:55 UTC,29.93,65.3,51.08,60.06,9.22,220.0,,,,,,1.0,,,,10.0,,KIGQ 021055Z AUTO 22008KT 10SM CLR 19/11 A2993 RMK AO2  T01850106,,,,,,51.0,,SW,29.28,28.75,,Clear
KIGQ,05/02/2018 11:15 UTC,29.93,64.76,50.9,60.8,10.36,210.0,,,,,,1.0,,,,10.0,,KIGQ 021115Z AUTO 21009KT 10SM CLR 18/11 A2993 RMK AO2  T01820105,,,,,,50.82,,SSW,29.28,28.76,,Clear
KIGQ,05/02/2018 11:35 UTC,29.94,65.3,50.54,58.87,10.36,220.0,,,,,,1.0,,,,10.0,,KIGQ 021135Z AUTO 22009KT 10SM CLR 19/10 A2994 RMK AO2  T01850103,,,,,,50.46,,SW,29.29,28.78,,Clear
KIGQ,05/02/2018 11:55 UTC,29.94,65.66,50.72,58.53,9.22,220.0,,,,,,1.0,,,,10.0,,KIGQ 021155Z AUTO 22008KT 10SM CLR 19/10 A2994 RMK AO2 T01870104  10212 20181,70.16,64.58,,,,50.64,,SW,29.29,28.77,,Clear
KIGQ,05/02/2018 12:15 UTC,29.95,66.74,50.54,56.01,11.5,220.0,18.41,,,,,1.0,,,,10.0,,KIGQ 021215Z AUTO 22010G16KT 10SM CLR 19/10 A2995 RMK AO2 LTG DSNT  N T01930103,,,,,,50.46,,SW,29.3,28.78,,Clear
KIGQ,05/02/2018 12:35 UTC,29.95,67.64,50.9,55.03,16.11,220.0,20.71,,,,,1.0,,,,10.0,,KIGQ 021235Z AUTO 22014G18KT 10SM CLR 20/11 A2995 RMK AO2  T01980105,,,,,,50.83,,SW,29.3,28.75,,Clear
KIGQ,05/02/2018 12:55 UTC,29.94,68.18,51.08,54.38,12.66,220.0,18.41,,,,,1.0,,,,10.0,,KIGQ 021255Z AUTO 22011G16KT 10SM CLR 20/11 A2994 RMK AO2  T02010106,,,,,,51.01,,SW,29.29,28.73,,Clear
KIGQ,05/02/2018 13:15 UTC,29.94,70.34,51.62,51.53,12.66,220.0,19.57,,,,,1.0,,,,10.0,,KIGQ 021315Z AUTO 22011G17KT 10SM CLR 21/11 A2994 RMK AO2  T02130109,,,,,,51.56,,SW,29.29,28.69,,Clear
KIGQ,05/02/2018 13:35 UTC,29.95,72.68,52.7,49.54,17.27,230.0,24.16,,,,,1.0,,,,10.0,,KIGQ 021335Z AUTO 23015G21KT 10SM CLR 23/12 A2995 RMK AO2  T02260115,,,,,,52.66,,SW,29.3,28.63,,Clear
KIGQ,05/02/2018 13:55 UTC,29.94,74.3,53.6,48.49,16.11,240.0,19.57,,,,,1.0,,,,10.0,,KIGQ 021355Z AUTO 24014G17KT 10SM CLR 24/12 A2994 RMK AO2  T02350120,,,,,,53.57,,WSW,29.29,28.57,,Clear
KIGQ,05/02/2018 14:15 UTC,29.95,75.38,54.32,48.02,17.27,230.0,32.21,,,,,1.0,,,,10.0,,KIGQ 021415Z AUTO 23015G28KT 10SM CLR 24/12 A2995 RMK AO2  T02410124,,,,,,54.3,,SW,29.3,28.54,,Clear
KIGQ,05/02/2018 14:35 UTC,29.93,74.84,54.5,49.22,13.8,230.0,20.71,,,,,652.0,902.0,,,10.0,,KIGQ 021435Z AUTO 23012G18KT 10SM SCT065 SCT090 24/13 A2993 RMK AO2 T02380125,,,,,,54.48,,SW,29.28,28.51,,Partly Cloudy
KIGQ,05/02/2018 14:55 UTC,29.94,76.46,54.86,47.25,17.27,240.0,24.16,,,,,1002.0,,,,10.0,,KIGQ 021455Z AUTO 24015G21KT 10SM SCT100 25/13 A2994 RMK AO2  T02470127,,,,,,54.85,,WSW,29.29,28.49,,Partly Cloudy
KIGQ,05/02/2018 15:15 UTC,29.95,76.82,55.22,47.31,18.41,270.0,24.16,,,,,1.0,,,,10.0,,KIGQ 021515Z AUTO 27016G21KT 230V340 10SM CLR 25/13 A2995 RMK AO2  T02490129,,,,,,55.21,,W,29.3,28.48,,Clear
KIGQ,05/02/2018 15:35 UTC,29.95,76.1,54.5,47.2,18.41,240.0,24.16,,,,,1.0,,,,10.0,,KIGQ 021535Z AUTO 24016G21KT 10SM CLR 25/13 A2995 RMK AO2  T02450125,,,,,,54.49,,WSW,29.3,28.52,,Clear
KIGQ,05/02/2018 15:55 UTC,29.95,77.54,55.94,47.42,17.27,230.0,20.71,,,,,1.0,,,,10.0,,KIGQ 021555Z AUTO 23015G18KT 10SM CLR 25/13 A2995 RMK AO2  T02530133,,,,,,55.94,,SW,29.3,28.44,,Clear
KIGQ,05/02/2018 16:15 UTC,29.95,78.8,56.12,45.79,14.97,230.0,23.02,,,,,1.0,,,,10.0,,KIGQ 021615Z AUTO 23013G20KT 10SM CLR 26/13 A2995 RMK AO2  T02600134,,,,,,56.13,,SW,29.3,28.42,,Clear
KIGQ,05/02/2018 16:35 UTC,29.95,80.06,57.02,45.39,19.57,250.0,26.46,,,,,1.0,,,,10.0,,KIGQ 021635Z AUTO 25017G23KT 10SM CLR 27/14 A2995 RMK AO2  T02670139,,,,,,57.04,,WSW,29.3,28.36,79.9,Clear
KIGQ,05/02/2018 16:55 UTC,29.95,80.78,57.2,44.63,23.02,240.0,29.93,,,,,1.0,,,,10.0,,KIGQ 021655Z AUTO 24020G26KT 10SM CLR 27/14 A2995 RMK AO2  T02710140,,,,,,57.23,,WSW,29.3,28.34,80.94,Clear
KIGQ,05/02/2018 17:15 UTC,29.94,82.4,57.92,43.45,20.71,260.0,26.46,,,,,1.0,,,,10.0,,KIGQ 021715Z AUTO 26018G23KT 10SM CLR 28/14 A2994 RMK AO2  T02800144,,,,,,57.96,,W,29.29,28.28,82.24,Clear
KIGQ,05/02/2018 17:35 UTC,29.94,81.68,57.56,43.91,17.27,240.0,28.77,,,,,1.0,,,,10.0,,KIGQ 021735Z AUTO 24015G25KT 10SM CLR 28/14 A2994 RMK AO2  T02760142,,,,,,57.6,,WSW,29.29,28.31,81.64,Clear
KIGQ,05/02/2018 17:55 UTC,29.94,83.48,58.28,42.51,20.71,240.0,27.63,,,,,1.0,,,,10.0,,KIGQ 021755Z AUTO 24018G24KT 10SM CLR 29/15 A2994 RMK AO2  T02860146 10286 20187,83.48,65.66,,,,58.34,,WSW,29.29,28.25,83.16,Clear
KIGQ,05/02/2018 18:15 UTC,29.93,84.38,58.64,41.84,16.11,240.0,26.46,,,,,1.0,,,,10.0,,KIGQ 021815Z AUTO 24014G23KT 10SM CLR 29/15 A2993 RMK AO2  T02910148,,,,,,58.71,,WSW,29.28,28.21,83.99,Clear
KIGQ,05/02/2018 18:35 UTC,29.92,84.92,59.36,42.19,14.97,250.0,26.46,,,,,1.0,,,,10.0,,KIGQ 021835Z AUTO 25013G23KT 10SM CLR 29/15 A2992 RMK AO2  T02940152,,,,,,59.43,,WSW,29.27,28.16,84.65,Clear
KIGQ,05/02/2018 18:55 UTC,29.92,84.74,59.54,42.71,20.71,250.0,24.16,,,,,702.0,,,,10.0,,KIGQ 021855Z AUTO 25018G21KT 10SM SCT070 29/15 A2992 RMK AO2  T02930153,,,,,,59.61,,WSW,29.27,28.15,84.54,Partly Cloudy
KIGQ,05/02/2018 19:15 UTC,29.92,85.28,60.26,43.07,10.36,230.0,24.16,,,,,702.0,902.0,,,10.0,,KIGQ 021915Z AUTO 23009G21KT 10SM SCT070 SCT090 30/16 A2992 RMK AO2 T02960157,,,,,,60.34,,SW,29.27,28.1,85.24,Partly Cloudy
KIGQ,05/02/2018 19:35 UTC,29.92,85.1,60.8,44.15,14.97,260.0,20.71,,903.0,,,702.0,802.0,,,10.0,,KIGQ 021935Z AUTO 26013G18KT 10SM SCT070 SCT080 BKN090 30/16 A2992 RMK AO2 T02950160,,,9000.0,,,60.87,,W,29.27,28.07,85.25,Mostly Cloudy
KIGQ,05/02/2018 19:55 UTC,29.91,84.02,60.26,44.84,13.8,230.0,18.41,,,,,702.0,903.0,,,10.0,,KIGQ 021955Z AUTO 23012G16KT 210V270 10SM SCT070 BKN090 29/16  A2991 RMK AO2 T02890157,,,9000.0,,,60.32,,SW,29.26,28.1,84.13,Mostly Cloudy
KIGQ,05/02/2018 20:15 UTC,29.9,85.1,61.16,44.72,20.71,260.0,28.77,,,,,702.0,902.0,,,10.0,,KIGQ 022015Z AUTO 26018G25KT 10SM SCT070 SCT090 30/16 A2990 RMK AO2 LTG DSNT W T02950162,,,,,,61.23,,W,29.25,28.03,85.37,Partly Cloudy
KIGQ,05/02/2018 20:35 UTC,29.89,84.38,60.8,45.18,16.11,250.0,24.16,,,,,702.0,1002.0,,,10.0,,KIGQ 022035Z AUTO 25014G21KT 10SM SCT070 SCT100 29/16 A2989 RMK AO2 LTG DSNT NW T02910160,,,,,,60.86,,WSW,29.24,28.05,84.61,Partly Cloudy
KIGQ,05/02/2018 20:55 UTC,29.88,85.46,61.7,45.06,13.8,240.0,18.41,,1003.0,,,702.0,803.0,,,10.0,,KIGQ 022055Z AUTO 24012G16KT 10SM SCT070 BKN080 BKN100 30/17 A2988 RMK AO2 LTG DSNT W T02970165,,,8000.0,,,61.78,,WSW,29.23,27.97,85.89,Mostly Cloudy
KIGQ,05/02/2018 21:15 UTC,29.88,83.84,60.98,46.27,16.11,210.0,20.71,,1003.0,,,703.0,853.0,,,10.0,,KIGQ 022115Z AUTO 21014G18KT 10SM BKN070 BKN085 BKN100 29/16 A2988 RMK AO2 LTG DSNT W T02880161,,,7000.0,,,61.04,,SSW,29.23,28.03,84.19,Mostly Cloudy
KIGQ,05/02/2018 21:35 UTC,29.88,82.94,60.62,47.02,14.97,220.0,19.57,,,,,702.0,953.0,,,10.0,,KIGQ 022135Z AUTO 22013G17KT 10SM SCT070 BKN095 28/16 A2988 RMK AO2 LTG DSNT SW THRU NW T02830159,,,9500.0,,,60.67,,SW,29.23,28.06,83.32,Mostly Cloudy
KIGQ,05/02/2018 21:55 UTC,29.87,82.58,60.8,47.88,9.22,220.0,,,952.0,,,702.0,852.0,,,10.0,,KIGQ 022155Z AUTO 22008KT 10SM SCT070 SCT085 SCT095 28/16 A2987 RMK AO2 LTG DSNT N AND W T02810160,,,,,,60.85,,SW,29.22,28.04,83.07,Partly Cloudy
KIGQ,05/02/2018 22:15 UTC,29.87,83.12,60.98,47.35,10.36,210.0,,,1103.0,,,702.0,853.0,,,10.0,,KIGQ 022215Z AUTO 21009KT 10SM SCT070 BKN085 BKN110 28/16 A2987 RMK AO2 LTG DSNT N AND W T02840161,,,8500.0,,,61.03,,SSW,29.22,28.03,83.57,Mostly Cloudy
KIGQ,05/02/2018 22:35 UTC,29.9,79.7,62.42,55.66,20.71,300.0,37.98,,853.0,,,602.0,703.0,,,10.0,,KIGQ 022235Z AUTO 30018G33KT 10SM -VCTSRA SCT060 BKN070 BKN085  27/17 A2990 RMK AO2 LTG DSNT ALQS T02650169,,,7000.0,,,62.43,,WNW,29.25,28.01,,Mostly Cloudy
KIGQ,05/02/2018 22:55 UTC,29.87,73.4,63.5,71.22,0.0,0.0,,,1203.0,,,422.0,702.0,,,10.0,,KIGQ 022255Z AUTO 00000KT 10SM SCT042 SCT070 BKN120 23/18 A2987 RMK AO2 LTG DSNT NE S AND NW T02300175,,,12000.0,,,63.48,,N,29.22,27.98,,Mostly Cloudy
KIGQ,05/02/2018 23:15 UTC,29.88,73.58,62.6,68.59,0.0,0.0,,,,,,1.0,,,,10.0,,KIGQ 022315Z AUTO 00000KT 10SM CLR 23/17 A2988 RMK AO2 LTG DSNT NE  THRU SW T02310170,,,,,,62.58,,N,29.23,28.04,,Clear
KIGQ,05/02/2018 23:35 UTC,29.87,74.3,61.88,65.28,0.0,0.0,,5.0,,,,602.0,,,,10.0,,KIGQ 022335Z AUTO 00000KT 10SM VCTS SCT060 24/17 A2987 RMK AO2 LTG  DSNT NE THRU S T02350166,,,,,,61.86,,N,29.22,28.07,,Thunder
KIGQ,05/02/2018 23:55 UTC,29.86,74.84,61.16,62.51,0.0,0.0,,,,,,602.0,,,,10.0,,KIGQ 022355Z AUTO 00000KT 10SM SCT060 24/16 A2986 RMK AO2 LTG DSNT  E SW AND NW T02380162 10301 20228,86.18,73.04,,,,61.14,,N,29.21,28.09,,Partly Cloudy
KIGQ,05/03/2018 00:15 UTC,29.86,73.58,62.42,68.16,4.61,150.0,,,,,,602.0,,,,10.0,,KIGQ 030015Z AUTO 15004KT 10SM SCT060 23/17 A2986 RMK AO2 LTG DSNT  ALQS T02310169,,,,,,62.4,,SSE,29.21,28.03,,Partly Cloudy
KIGQ,05/03/2018 00:35 UTC,29.86,73.4,62.6,69.01,5.75,140.0,,,,,,602.0,,,,10.0,,KIGQ 030035Z AUTO 14005KT 10SM SCT060 23/17 A2986 RMK AO2 LTG DSNT  ALQS T02300170,,,,,,62.58,,SE,29.21,28.03,,Partly Cloudy
KIGQ,05/03/2018 00:55 UTC,29.86,71.78,62.6,72.88,6.91,150.0,,5.0,,,,603.0,,,,10.0,,KIGQ 030055Z AUTO 15006KT 10SM TS BKN060 22/17 A2986 RMK AO2 LTG  DSNT E SW AND W T02210170,,,6000.0,,,62.58,,SSE,29.21,28.04,,Thunder
KIGQ,05/03/2018 01:15 UTC,29.88,71.06,64.22,79.04,13.8,190.0,,,,,,603.0,754.0,,,10.0,,KIGQ 030115Z AUTO 19012KT 10SM -VCTSRA BKN060 OVC075 22/18 A2988 RMK AO2 LTG DSNT ALQS T02170179,,,6000.0,,,64.2,,S,29.23,27.98,,Overcast
KIGQ,05/03/2018 01:35 UTC,29.87,69.8,64.22,82.49,3.44,200.0,,,1104.0,,,553.0,653.0,,,10.0,,KIGQ 030135Z AUTO 20003KT 10SM BKN055 BKN065 OVC110 21/18 A2987 RMK AO2 LTG DSNT ALQS T02100179,,,5500.0,,,64.2,,SSW,29.22,27.98,,Overcast
KIGQ,05/03/2018 01:55 UTC,29.88,68.9,63.86,84.0,0.0,0.0,,,1103.0,,,553.0,753.0,,,10.0,,KIGQ 030155Z AUTO 00000KT 10SM BKN055 BKN075 BKN110 21/18 A2988 RMK AO2 LTG DSNT N THRU E T02050177,,,5500.0,,,63.84,,N,29.23,28.03,,Mostly Cloudy
KIGQ,05/03/2018 02:15 UTC,29.91,70.88,64.4,80.02,3.44,340.0,,5.0,,,,553.0,654.0,,,10.0,,KIGQ 030215Z AUTO 34003KT 10SM TS BKN055 OVC065 22/18 A2991 RMK AO2 LTG DSNT NE T02160180,,,5500.0,,,64.38,,NNW,29.26,28.0,,Thunder
KIGQ,05/03/2018 02:35 UTC,29.91,70.34,59.54,68.67,3.44,110.0,,,,,,552.0,1103.0,,,10.0,,KIGQ 030235Z AUTO 11003KT 10SM SCT055 BKN110 21/15 A2991 RMK AO2  LTG DSNT E AND S T02130153,,,11000.0,,,59.5,,ESE,29.26,28.28,,Mostly Cloudy
KIGQ,05/03/2018 02:55 UTC,29.91,69.08,59.0,70.32,9.22,80.0,,,853.0,,,552.0,652.0,,,10.0,,KIGQ 030255Z AUTO 08008KT 10SM SCT055 SCT065 BKN085 21/15 A2991 RMK AO2 LTG DSNT E T02060150,,,8500.0,,,58.96,,E,29.26,28.33,,Mostly Cloudy
KIGQ,05/03/2018 03:15 UTC,29.91,68.0,59.36,73.91,6.91,120.0,,,,,,554.0,,,,10.0,,KIGQ 030315Z AUTO 12006KT 10SM OVC055 20/15 A2991 RMK AO2 LTG DSNT  E AND NW T02000152,,,5500.0,,,59.32,,ESE,29.26,28.32,,Overcast
KIGQ,05/03/2018 03:35 UTC,29.91,64.4,61.34,89.81,10.36,120.0,,1.0,,0.06,,504.0,,,,10.0,,KIGQ 030335Z AUTO 12009KT 10SM RA OVC050 18/16 A2991 RMK AO2 LTG  DSNT E W AND NW P0006 T01800163,,,5000.0,,,61.32,,ESE,29.26,28.26,,Rain
KIGQ,05/03/2018 03:55 UTC,29.91,64.22,62.6,94.48,5.75,130.0,,,754.0,0.06,,463.0,553.0,,,10.0,,KIGQ 030355Z AUTO 13005KT 10SM BKN046 BKN055 OVC075 18/17 A2991 RMK AO2 LTG DSNT E W AND NW P0006 T01790170,,,4600.0,,,62.59,,SE,29.26,28.19,,Overcast
KIGQ,05/03/2018 04:15 UTC,29.9,64.58,63.5,96.3,5.75,170.0,,5.0,,,,442.0,504.0,,,10.0,,KIGQ 030415Z AUTO 17005KT 10SM VCTS SCT044 OVC050 18/18 A2990 RMK AO2 LTG DSNT NW THRU NE T01810175,,,5000.0,,,63.49,,S,29.25,28.12,,Thunder
KIGQ,05/03/2018 04:35 UTC,29.9,64.76,63.86,96.91,6.91,170.0,,,1003.0,,,602.0,803.0,,,10.0,,KIGQ 030435Z AUTO 17006KT 10SM SCT060 BKN080 BKN100 18/18 A2990 RMK AO2 LTG DSNT NW THRU E T01820177,,,8000.0,,,63.86,,S,29.25,28.1,,Mostly Cloudy
KIGQ,05/03/2018 04:55 UTC,29.91,66.38,65.3,96.33,4.61,190.0,,,,,,802.0,,,,10.0,,KIGQ 030455Z AUTO 19004KT 10SM SCT080 19/19 A2991 RMK AO2 LTG DSNT  NW THRU NE T01910185,,,,,,65.3,,S,29.26,28.0,,Partly Cloudy
KIGQ,05/03/2018 05:15 UTC,29.93,69.98,66.2,87.83,3.44,290.0,,5.0,,,,702.0,803.0,,,10.0,,KIGQ 030515Z AUTO 29003KT 10SM VCTS SCT070 BKN080 21/19 A2993 RMK AO2 LTG DSNT W THRU NE T02110190,,,8000.0,,,66.19,,WNW,29.28,27.92,,Thunder
KIGQ,05/03/2018 05:35 UTC,29.93,65.66,62.42,89.3,3.44,140.0,,5.0,604.0,,,212.0,342.0,,,10.0,,KIGQ 030535Z AUTO 14003KT 10SM VCTS SCT021 SCT034 OVC060 19/17  A2993 RMK AO2 LTG DSNT W THRU NE T01870169,,,6000.0,,,62.4,,SE,29.28,28.2,,Thunder
KIGQ,05/03/2018 05:55 UTC,29.95,67.28,62.78,85.51,8.05,340.0,24.16,,604.0,0.08,,242.0,343.0,0.14,,7.0,,KIGQ 030555Z AUTO 34007G21KT 7SM /VCTSRA SCT024 BKN034 OVC060  20/17 A2995 RMK AO2 LTG DSNT ALQS P0008 60014 T01960171 10240  20178 403010178,75.2,64.04,3400.0,86.18,64.04,62.76,,NNW,29.3,28.18,,Overcast
KIGQ,05/03/2018 06:15 UTC,29.96,62.6,62.6,100.0,5.75,350.0,,1.0,504.0,0.05,,232.0,333.0,,,5.0,,KIGQ 030615Z AUTO 35005KT 5SM RA SCT023 BKN033 OVC050 17/17 A2996 RMK AO2 LTG DSNT NE P0005 T01700170,,,3300.0,,,62.6,,N,29.31,28.26,,Rain
KIGQ,05/03/2018 06:35 UTC,29.93,62.6,62.6,100.0,0.0,0.0,,13.0,,0.05,,603.0,1204.0,,,10.0,,KIGQ 030635Z AUTO 00000KT 10SM -RA BKN060 OVC120 17/17 A2993 RMK AO2 LTG DSNT NE AND E P0005 T01700170,,,6000.0,,,62.6,,N,29.28,28.23,,Light Rain
KIGQ,05/03/2018 06:55 UTC,29.92,61.7,61.7,100.0,3.44,110.0,,,,0.05,,602.0,1202.0,,,7.0,,KIGQ 030655Z AUTO 11003KT 7SM SCT060 SCT120 17/17 A2992 RMK AO2  LTG DSNT E P0005 T01650165,,,,,,61.7,,ESE,29.27,28.28,,Partly Cloudy
KIGQ,05/03/2018 07:15 UTC,29.92,61.88,61.88,100.0,4.61,120.0,,31.0,,,,503.0,,,,5.0,,KIGQ 030715Z AUTO 12004KT 5SM BR BKN050 17/17 A2992 RMK AO2  T01660166,,,5000.0,,,61.88,,ESE,29.27,28.27,,Mist
KIGQ,05/03/2018 07:35 UTC,29.91,62.42,62.42,100.0,4.61,130.0,,31.0,804.0,,,503.0,703.0,,,5.0,,KIGQ 030735Z AUTO 13004KT 5SM BR BKN050 BKN070 OVC080 17/17 A2991 RMK AO2 T01690169,,,5000.0,,,62.42,,SE,29.26,28.22,,Mist
KIGQ,05/03/2018 07:55 UTC,29.92,62.6,62.6,100.0,3.44,160.0,,13.0,,0.02,,503.0,704.0,,,4.0,,KIGQ 030755Z AUTO 16003KT 4SM -RA BKN050 OVC070 17/17 A2992 RMK AO2 LTG DSNT E AND S P0002 T01700170,,,5000.0,,,62.6,,SSE,29.27,28.22,,Light Rain
KIGQ,05/03/2018 08:15 UTC,29.9,62.78,62.78,100.0,3.44,120.0,,31.0,,,,484.0,,,,4.0,,KIGQ 030815Z AUTO 12003KT 4SM BR OVC048 17/17 A2990 RMK AO2 LTG  DSNT S AND SW T01710171,,,4800.0,,,62.78,,ESE,29.25,28.19,,Mist
KIGQ,05/03/2018 08:35 UTC,29.89,63.32,63.32,100.0,6.91,120.0,,13.0,,,,463.0,554.0,,,4.0,,KIGQ 030835Z AUTO 12006KT 4SM -RA BKN046 OVC055 17/17 A2989 RMK AO2 LTG DSNT S T01740174,,,4600.0,,,63.32,,ESE,29.24,28.14,,Light Rain
KIGQ,05/03/2018 08:55 UTC,29.88,63.68,63.68,100.0,5.75,120.0,,1.0,604.0,0.04,0.11,392.0,463.0,,,4.0,,KIGQ 030855Z AUTO 12005KT 4SM RA SCT039 BKN046 OVC060 18/18 A2988 RMK AO2 LTG DSNT SE THRU W P0004 60011 T01760176,,,4600.0,,,63.68,,ESE,29.23,28.11,,Rain
KIGQ,05/03/2018 09:15 UTC,29.88,63.86,63.86,100.0,0.0,0.0,,66.0,,,,374.0,,,,5.0,,KIGQ 030915Z AUTO 00000KT 5SM TSRA OVC037 18/18 A2988 RMK AO2 LTG  DSNT SE THRU SW T01770177,,,3700.0,,,63.86,,N,29.23,28.09,,Thunderstorm
KIGQ,05/03/2018 09:35 UTC,29.9,63.68,63.68,100.0,4.61,340.0,,78.0,354.0,0.32,,52.0,273.0,,,1.5,,KIGQ 030935Z AUTO 34004KT 1 1/2SM +TSRA SCT005 BKN027 OVC035 18/18  A2990 RMK AO2 LTG DSNT ALQS P0032 T01760176,,,2700.0,,,63.68,,NNW,29.25,28.13,,Heavy Rain/Thunderstorm
KIGQ,05/03/2018 09:55 UTC,29.92,63.5,63.5,100.0,0.0,0.0,,14.0,374.0,0.52,,72.0,243.0,,,2.0,,KIGQ 030955Z AUTO 00000KT 2SM +RA SCT007 BKN024 OVC037 18/18 A2992 RMK AO2 LTG DSNT NE THRU S P0052 T01750175,,,2400.0,,,63.5,,N,29.27,28.16,,Heavy Rain
KIGQ,05/03/2018 10:15 UTC,29.89,63.14,63.14,100.0,4.61,60.0,,13.0,1104.0,,,92.0,313.0,,,3.0,,KIGQ 031015Z AUTO 06004KT 3SM -RA SCT009 BKN031 OVC110 17/17 A2989 RMK AO2 LTG DSNT E T01730173,,,3100.0,,,63.14,,ENE,29.24,28.15,,Light Rain
KIGQ,05/03/2018 10:35 UTC,29.88,62.96,62.96,100.0,4.61,90.0,,31.0,,,,92.0,314.0,,,2.5,,KIGQ 031035Z AUTO 09004KT 2 1/2SM BR SCT009 OVC031 17/17 A2988 RMK AO2 T01720172,,,3100.0,,,62.96,,E,29.23,28.16,,Mist
KIGQ,05/03/2018 10:55 UTC,29.9,62.6,62.6,100.0,4.61,120.0,,31.0,,,,294.0,,,,3.0,,KIGQ 031055Z AUTO 12004KT 3SM BR OVC029 17/17 A2990 RMK AO2 LTG  DSNT SE T01700170,,,2900.0,,,62.6,,ESE,29.25,28.2,,Mist
KIGQ,05/03/2018 11:15 UTC,29.9,62.78,62.78,100.0,0.0,0.0,,31.0,,,,294.0,,,,2.0,,KIGQ 031115Z AUTO 00000KT 2SM BR OVC029 17/17 A2990 RMK AO2 LTG  DSNT E T01710171,,,2900.0,,,62.78,,N,29.25,28.19,,Mist
KIGQ,05/03/2018 11:35 UTC,29.91,62.96,62.96,100.0,0.0,0.0,,31.0,,,,274.0,,,,2.0,,KIGQ 031135Z AUTO 00000KT 2SM BR OVC027 17/17 A2991 RMK AO2  T01720172,,,2700.0,,,62.96,,N,29.26,28.19,,Mist
KIGQ,05/03/2018 11:55 UTC,29.91,63.14,63.14,100.0,0.0,0.0,,31.0,,,,194.0,,0.63,0.78,3.0,,KIGQ 031155Z AUTO 00000KT 3SM BR OVC019 17/17 A2991 RMK AO2 60063  70078 T01730173 10186 20164,65.48,61.52,1900.0,,,63.14,,N,29.26,28.17,,Mist
KIGQ,05/03/2018 12:15 UTC,29.9,63.5,63.5,100.0,0.0,0.0,,31.0,,,,173.0,554.0,,,4.0,,KIGQ 031215Z AUTO 00000KT 4SM BR BKN017 OVC055 18/18 A2990 RMK AO2  T01750175,,,1700.0,,,63.5,,N,29.25,28.14,,Mist
KIGQ,05/03/2018 12:35 UTC,29.91,63.68,63.68,100.0,0.0,0.0,,31.0,654.0,,,152.0,503.0,,,5.0,,KIGQ 031235Z AUTO 00000KT 5SM BR SCT015 BKN050 OVC065 18/18 A2991 RMK AO2 T01760176,,,5000.0,,,63.68,,N,29.26,28.14,,Mist
KIGQ,05/03/2018 12:55 UTC,29.91,64.04,64.04,100.0,3.44,160.0,,31.0,,,,484.0,,,,4.0,,KIGQ 031255Z AUTO 16003KT 4SM BR OVC048 18/18 A2991 RMK AO2  T01780178,,,4800.0,,,64.04,,SSE,29.26,28.11,,Mist
KIGQ,05/03/2018 13:15 UTC,29.91,64.58,64.58,100.0,3.44,170.0,,,,,,483.0,,,,7.0,,KIGQ 031315Z AUTO 17003KT 7SM BKN048 18/18 A2991 RMK AO2  T01810181,,,4800.0,,,64.58,,S,29.26,28.07,,Mostly Cloudy
KIGQ,05/03/2018 13:35 UTC,29.91,65.84,65.84,100.0,6.91,210.0,,,602.0,,,72.0,462.0,,,7.0,,KIGQ 031335Z AUTO 21006KT 7SM SCT007 SCT046 SCT060 19/19 A2991 RMK AO2 T01880188,,,,,,65.84,,SSW,29.26,27.98,,Partly Cloudy
KIGQ,05/03/2018 13:55 UTC,29.91,67.1,67.1,100.0,8.05,230.0,,,,,,73.0,,,,7.0,,KIGQ 031355Z AUTO 23007KT 7SM BKN007 20/20 A2991 RMK AO2  T01950195,,,700.0,,,67.1,,SW,29.26,27.88,,Mostly Cloudy
KIGQ,05/03/2018 14:15 UTC,29.91,68.0,67.46,98.16,9.22,250.0,18.41,,,,,94.0,,,,10.0,,KIGQ 031415Z AUTO 25008G16KT 10SM OVC009 20/20 A2991 RMK AO2  T02000197,,,900.0,,,67.46,,WSW,29.26,27.84,,Overcast
KIGQ,05/03/2018 14:35 UTC,29.92,68.0,67.1,96.95,9.22,260.0,,,,,,113.0,174.0,,,10.0,,KIGQ 031435Z AUTO 26008KT 10SM BKN011 OVC017 20/20 A2992 RMK AO2  T02000195,,,1100.0,,,67.1,,W,29.27,27.87,,Overcast
KIGQ,05/03/2018 14:55 UTC,29.92,68.18,67.1,96.35,11.5,260.0,17.27,,274.0,,,132.0,193.0,,,10.0,,KIGQ 031455Z AUTO 26010G15KT 10SM SCT013 BKN019 OVC027 20/20 A2992 RMK AO2 T02010195,,,1900.0,,,67.09,,W,29.27,27.87,,Overcast
KIGQ,05/03/2018 15:15 UTC,29.94,66.92,65.12,93.96,3.44,30.0,,,274.0,,,133.0,183.0,,,7.0,,KIGQ 031515Z AUTO 03003KT 7SM BKN013 BKN018 OVC027 19/18 A2994 RMK AO2 T01940184,,,1300.0,,,65.11,,NNE,29.29,28.04,,Overcast
KIGQ,05/03/2018 15:35 UTC,29.94,67.46,66.02,95.15,0.0,0.0,,,,,,143.0,224.0,,,7.0,,KIGQ 031535Z AUTO 00000KT 7SM BKN014 OVC022 20/19 A2994 RMK AO2  T01970189,,,1400.0,,,66.01,,N,29.29,27.97,,Overcast
KIGQ,05/03/2018 15:55 UTC,29.94,69.98,66.38,88.38,9.22,240.0,,,,,,162.0,224.0,,,10.0,,KIGQ 031555Z AUTO 24008KT 10SM SCT016 OVC022 21/19 A2994 RMK AO2  T02110191,,,2200.0,,,66.37,,WSW,29.29,27.91,,Overcast
KIGQ,05/03/2018 16:15 UTC,29.94,70.88,66.02,84.66,9.22,250.0,,,,,,224.0,,,,10.0,,KIGQ 031615Z AUTO 25008KT 10SM OVC022 22/19 A2994 RMK AO2  T02160189,,,2200.0,,,66.01,,WSW,29.29,27.93,,Overcast
KIGQ,05/03/2018 16:35 UTC,29.94,71.24,66.38,84.68,6.91,260.0,,,,,,224.0,,,,10.0,,KIGQ 031635Z AUTO 26006KT 10SM OVC022 22/19 A2994 RMK AO2  T02180191,,,2200.0,,,66.37,,W,29.29,27.9,,Overcast
KIGQ,05/03/2018 16:55 UTC,29.95,64.94,59.9,83.75,10.36,20.0,,,,,,204.0,,,,7.0,,KIGQ 031655Z AUTO 02009KT 7SM OVC020 18/16 A2995 RMK AO2  T01830155,,,2000.0,,,59.87,,NNE,29.3,28.37,,Overcast
KIGQ,05/03/2018 17:15 UTC,29.96,60.08,55.94,86.2,9.22,30.0,,,304.0,,,203.0,253.0,,,10.0,,KIGQ 031715Z AUTO 03008KT 10SM BKN020 BKN025 OVC030 16/13 A2996 RMK AO2 T01560133,,,2000.0,,,55.91,,NNE,29.31,28.63,,Overcast
KIGQ,05/03/2018 17:35 UTC,29.96,57.56,53.78,87.2,8.05,40.0,,,,,,222.0,324.0,,,10.0,,KIGQ 031735Z AUTO 04007KT 10SM SCT022 OVC032 14/12 A2996 RMK AO2  T01420121,,,3200.0,,,53.75,,NE,29.31,28.75,,Overcast
KIGQ,05/03/2018 17:55 UTC,29.97,56.66,52.88,87.15,6.91,50.0,,31.0,,,,233.0,344.0,,,5.0,,KIGQ 031755Z AUTO 05006KT 5SM BR BKN023 OVC034 14/12 A2997 RMK AO2  T01370116 10220 20136,71.6,56.48,2300.0,,,52.85,,NE,29.32,28.8,,Mist
KIGQ,05/03/2018 18:15 UTC,29.98,57.02,53.6,88.33,5.75,60.0,,,474.0,,,232.0,303.0,,,7.0,,KIGQ 031815Z AUTO 06005KT 7SM SCT023 BKN030 OVC047 14/12 A2998 RMK AO2 T01390120,,,3000.0,,,53.57,,ENE,29.33,28.78,,Overcast
KIGQ,05/03/2018 18:35 UTC,29.98,57.02,53.24,87.17,5.75,90.0,,,494.0,,,232.0,363.0,,,10.0,,KIGQ 031835Z AUTO 09005KT 10SM SCT023 BKN036 OVC049 14/12 A2998 RMK AO2 T01390118,,,3600.0,,,53.21,,E,29.33,28.79,,Overcast
KIGQ,05/03/2018 18:55 UTC,29.97,59.0,55.04,86.7,3.44,90.0,,,853.0,,,473.0,703.0,,,10.0,,KIGQ 031855Z AUTO 09003KT 10SM BKN047 BKN070 BKN085 15/13 A2997 RMK AO2 T01500128,,,4700.0,,,55.01,,E,29.32,28.69,,Mostly Cloudy
KIGQ,05/03/2018 19:15 UTC,29.97,61.88,56.84,83.55,3.44,50.0,,,1104.0,,,492.0,703.0,,,10.0,,KIGQ 031915Z AUTO 05003KT 10SM SCT049 BKN070 OVC110 17/14 A2997 RMK AO2 T01660138,,,7000.0,,,56.8,,NE,29.32,28.57,,Overcast
KIGQ,05/03/2018 19:35 UTC,29.95,64.04,57.92,80.52,3.44,30.0,,,704.0,,,242.0,503.0,,,10.0,,KIGQ 031935Z AUTO 03003KT 10SM SCT024 BKN050 OVC070 18/14 A2995 RMK AO2 T01780144,,,5000.0,,,57.88,,NNE,29.3,28.48,,Overcast
KIGQ,05/03/2018 19:55 UTC,29.95,66.02,59.36,79.13,3.44,20.0,,,853.0,,,502.0,702.0,,,10.0,,KIGQ 031955Z AUTO 02003KT 10SM SCT050 SCT070 BKN085 19/15 A2995 RMK AO2 LTG DSNT S T01890152,,,8500.0,,,59.32,,NNE,29.3,28.38,,Mostly Cloudy
KIGQ,05/03/2018 20:15 UTC,29.94,67.28,60.26,78.23,3.44,20.0,,,853.0,,,322.0,382.0,,,10.0,,KIGQ 032015Z AUTO 02003KT 10SM SCT032 SCT038 BKN085 20/16 A2994 RMK AO2 LTG DSNT SE T01960157,,,8500.0,,,60.23,,NNE,29.29,28.31,,Mostly Cloudy
KIGQ,05/03/2018 20:35 UTC,29.93,68.54,61.16,77.34,0.0,0.0,,,554.0,,,343.0,433.0,,,10.0,,KIGQ 032035Z AUTO 00000KT 10SM BKN034 BKN043 OVC055 20/16 A2993 RMK AO2 LTG DSNT SE T02030162,,,3400.0,,,61.13,,N,29.28,28.24,,Overcast
KIGQ,05/03/2018 20:55 UTC,29.93,69.08,63.14,81.41,0.0,0.0,,13.0,,,,243.0,364.0,,,10.0,,KIGQ 032055Z AUTO 00000KT 10SM -RA BKN024 OVC036 21/17 A2993 RMK AO2 LTG DSNT E T02060173,,,2400.0,,,63.12,,N,29.28,28.12,,Light Rain
KIGQ,05/03/2018 21:15 UTC,29.93,72.5,66.56,81.66,16.11,230.0,25.32,,,,,264.0,,,,10.0,,KIGQ 032115Z AUTO 23014G22KT 10SM OVC026 23/19 A2993 RMK AO2  T02250192,,,2600.0,,,66.55,,SW,29.28,27.86,,Overcast
KIGQ,05/03/2018 21:35 UTC,29.91,72.5,67.1,83.19,11.5,220.0,,,,,,243.0,,,,10.0,,KIGQ 032135Z AUTO 22010KT 10SM BKN024 23/20 A2991 RMK AO2 LTG DSNT  NW T02250195,,,2400.0,,,67.09,,SW,29.26,27.8,,Mostly Cloudy
KIGQ,05/03/2018 21:55 UTC,29.94,71.96,65.12,79.11,14.97,250.0,21.85,,,,,702.0,,,,10.0,,KIGQ 032155Z AUTO 25013G19KT 10SM SCT070 22/18 A2994 RMK AO2 LTG  DSNT NW T02220184,,,,,,65.1,,WSW,29.29,27.97,,Partly Cloudy
KIGQ,05/03/2018 22:15 UTC,29.93,72.14,65.66,80.12,12.66,220.0,,,,,,552.0,703.0,,,10.0,,KIGQ 032215Z AUTO 22011KT 10SM SCT055 BKN070 22/19 A2993 RMK AO2  T02230187,,,7000.0,,,65.64,,SW,29.28,27.92,,Mostly Cloudy
KIGQ,05/03/2018 22:35 UTC,29.94,71.6,65.12,80.08,10.36,230.0,,,702.0,,,342.0,502.0,,,10.0,,KIGQ 032235Z AUTO 23009KT 10SM SCT034 SCT050 SCT070 22/18 A2994 RMK AO2 T02200184,,,,,,65.1,,SW,29.29,27.97,,Partly Cloudy
KIGQ,05/03/2018 22:55 UTC,29.91,71.06,65.48,82.58,9.22,210.0,,,652.0,,,342.0,502.0,,,10.0,,KIGQ 032255Z AUTO 21008KT 10SM SCT034 SCT050 SCT065 22/19 A2991 RMK AO2 T02170186,,,,,,65.46,,SSW,29.26,27.93,,Partly Cloudy
KIGQ,05/03/2018 23:15 UTC,29.91,70.7,65.66,84.12,8.05,220.0,,,,,,1202.0,,,,10.0,,KIGQ 032315Z AUTO 22007KT 10SM SCT120 22/19 A2991 RMK AO2  T02150187,,,,,,65.64,,SW,29.26,27.92,,Partly Cloudy
KIGQ,05/03/2018 23:35 UTC,29.9,69.8,65.84,87.28,6.91,190.0,,,,,,1102.0,,,,10.0,,KIGQ 032335Z AUTO 19006KT 10SM SCT110 21/19 A2990 RMK AO2  T02100188,,,,,,65.83,,S,29.25,27.91,,Partly Cloudy
KIGQ,05/03/2018 23:55 UTC,29.91,69.44,65.66,87.8,10.36,200.0,,,,,,1103.0,,,,10.0,,KIGQ 032355Z AUTO 20009KT 10SM BKN110 21/19 A2991 RMK AO2  T02080187 10225 20135,72.5,56.3,11000.0,,,65.64,,SSW,29.26,27.94,,Mostly Cloudy
KIGQ,05/04/2018 00:15 UTC,29.9,68.9,65.12,87.78,17.27,200.0,21.85,,,,,1104.0,,,,10.0,,KIGQ 040015Z AUTO 20015G19KT 10SM OVC110 21/18 A2990 RMK AO2  T02050184,,,11000.0,,,65.11,,SSW,29.25,27.97,,Overcast
KIGQ,05/04/2018 00:35 UTC,29.89,68.36,65.48,90.54,14.97,200.0,21.85,,,,,192.0,1103.0,,,10.0,,KIGQ 040035Z AUTO 20013G19KT 10SM SCT019 BKN110 20/19 A2989 RMK AO2 T02020186,,,11000.0,,,65.47,,SSW,29.24,27.94,,Mostly Cloudy
KIGQ,05/04/2018 00:55 UTC,29.87,67.82,65.84,93.39,10.36,170.0,,,1203.0,,,282.0,1003.0,,,10.0,,KIGQ 040055Z AUTO 17009KT 10SM SCT028 BKN100 BKN120 20/19 A2987 RMK AO2 T01990188,,,10000.0,,,65.83,,S,29.22,27.91,,Mostly Cloudy
KIGQ,05/04/2018 01:15 UTC,29.86,67.64,65.84,93.97,16.11,190.0,20.71,,1003.0,,,212.0,283.0,,,10.0,,KIGQ 040115Z AUTO 19014G18KT 10SM SCT021 BKN028 BKN100 20/19 A2986 RMK AO2 T01980188,,,2800.0,,,65.83,,S,29.21,27.9,,Mostly Cloudy
KIGQ,05/04/2018 01:35 UTC,29.87,68.18,65.66,91.67,13.8,200.0,20.71,,,,,214.0,,,,10.0,,KIGQ 040135Z AUTO 20012G18KT 10SM OVC021 20/19 A2987 RMK AO2  T02010187,,,2100.0,,,65.65,,SSW,29.22,27.91,,Overcast
KIGQ,05/04/2018 01:55 UTC,29.88,68.54,64.76,87.76,19.57,200.0,28.77,,,,,234.0,,,,10.0,,KIGQ 040155Z AUTO 20017G25KT 10SM OVC023 20/18 A2988 RMK AO2  T02030182,,,2300.0,,,64.74,,SSW,29.23,27.98,,Overcast
KIGQ,05/04/2018 02:15 UTC,29.87,68.18,64.76,88.85,18.41,200.0,25.32,,,,,214.0,,,,10.0,,KIGQ 040215Z AUTO 20016G22KT 10SM OVC021 20/18 A2987 RMK AO2  T02010182,,,2100.0,,,64.75,,SSW,29.22,27.97,,Overcast
KIGQ,05/04/2018 02:35 UTC,29.87,68.0,64.4,88.29,14.97,200.0,25.32,,,,,233.0,284.0,,,10.0,,KIGQ 040235Z AUTO 20013G22KT 10SM BKN023 OVC028 20/18 A2987 RMK AO2 T02000180,,,2300.0,,,64.39,,SSW,29.22,27.99,,Overcast
KIGQ,05/04/2018 02:55 UTC,29.87,68.0,64.4,88.29,18.41,190.0,23.02,,,,,234.0,,,,10.0,,KIGQ 040255Z AUTO 19016G20KT 10SM OVC023 20/18 A2987 RMK AO2  T02000180,,,2300.0,,,64.39,,S,29.22,27.99,,Overcast
KIGQ,05/04/2018 03:15 UTC,29.86,67.28,63.68,88.25,13.8,190.0,21.85,,,,,214.0,,,,10.0,,KIGQ 040315Z AUTO 19012G19KT 10SM OVC021 20/18 A2986 RMK AO2  T01960176,,,2100.0,,,63.66,,S,29.21,28.04,,Overcast
KIGQ,05/04/2018 03:35 UTC,29.86,66.2,63.14,89.89,16.11,190.0,23.02,,,,,213.0,1204.0,,,10.0,,KIGQ 040335Z AUTO 19014G20KT 10SM BKN021 OVC120 19/17 A2986 RMK AO2 T01900173,,,2100.0,,,63.12,,S,29.21,28.08,,Overcast
KIGQ,05/04/2018 03:55 UTC,29.85,65.84,63.14,91.02,16.11,190.0,24.16,,,,,1103.0,,,,10.0,,KIGQ 040355Z AUTO 19014G21KT 10SM BKN110 19/17 A2985 RMK AO2  T01880173,,,11000.0,,,63.13,,S,29.2,28.08,,Mostly Cloudy
KIGQ,05/04/2018 04:20 UTC,29.84,65.48,63.14,92.16,14.97,200.0,21.85,,,,,1104.0,,,,10.0,,KIGQ 040420Z AUTO 20013G19KT 10SM OVC110 19/17 A2984 RMK AO2  T01860173,,,11000.0,,,63.13,,SSW,29.19,28.07,,Overcast
KIGQ,05/04/2018 04:35 UTC,29.84,65.3,62.96,92.15,12.66,200.0,,,,,,1104.0,,,,10.0,,KIGQ 040435Z AUTO 20011KT 10SM OVC110 19/17 A2984 RMK AO2  T01850172,,,11000.0,,,62.95,,SSW,29.19,28.08,,Overcast
KIGQ,05/04/2018 04:55 UTC,29.83,65.3,62.78,91.57,18.41,190.0,24.16,,,,,1104.0,,,,10.0,,KIGQ 040455Z AUTO 19016G21KT 10SM OVC110 19/17 A2983 RMK AO2  T01850171,,,11000.0,,,62.76,,S,29.18,28.08,,Overcast
KIGQ,05/04/2018 05:15 UTC,29.82,64.76,62.78,93.31,13.8,190.0,20.71,,,,,1104.0,,,,10.0,,KIGQ 040515Z AUTO 19012G18KT 10SM OVC110 18/17 A2982 RMK AO2  T01820171,,,11000.0,,,62.77,,S,29.17,28.08,,Overcast
KIGQ,05/04/2018 05:35 UTC,29.81,64.76,62.78,93.31,16.11,190.0,23.02,,,,,323.0,1104.0,,,10.0,,KIGQ 040535Z AUTO 19014G20KT 10SM BKN032 OVC110 18/17 A2981 RMK AO2 T01820171,,,3200.0,,,62.77,,S,29.16,28.07,,Overcast
KIGQ,05/04/2018 05:55 UTC,29.79,64.58,62.42,92.72,17.27,190.0,24.16,,,,,323.0,,,,10.0,,KIGQ 040555Z AUTO 19015G21KT 10SM BKN032 18/17 A2979 RMK AO2  T01810169 10209 20181 402250135,69.62,64.58,3200.0,72.5,56.3,62.41,,S,29.14,28.07,,Mostly Cloudy
KIGQ,05/04/2018 06:15 UTC,29.77,64.4,62.24,92.71,19.57,190.0,24.16,,,,,322.0,,,,10.0,,KIGQ 040615Z AUTO 19017G21KT 10SM SCT032 18/17 A2977 RMK AO2  T01800168,,,,,,62.23,,S,29.12,28.07,,Partly Cloudy
KIGQ,05/04/2018 06:35 UTC,29.76,64.4,62.06,92.12,17.27,190.0,,,,,,1.0,,,,10.0,,KIGQ 040635Z AUTO 19015KT 10SM CLR 18/17 A2976 RMK AO2  T01800167,,,,,,62.04,,S,29.11,28.07,,Clear
KIGQ,05/04/2018 06:55 UTC,29.76,63.86,62.06,93.88,13.8,200.0,23.02,,,,,342.0,,,,10.0,,KIGQ 040655Z AUTO 20012G20KT 10SM SCT034 18/17 A2976 RMK AO2  T01770167,,,,,,62.05,,SSW,29.11,28.07,,Partly Cloudy
KIGQ,05/04/2018 07:15 UTC,29.76,63.86,62.06,93.88,14.97,200.0,20.71,,,,,324.0,,,,10.0,,KIGQ 040715Z AUTO 20013G18KT 10SM OVC032 18/17 A2976 RMK AO2  T01770167,,,3200.0,,,62.05,,SSW,29.11,28.07,,Overcast
KIGQ,05/04/2018 07:35 UTC,29.76,64.22,61.88,92.12,19.57,210.0,26.46,,413.0,,,243.0,303.0,,,10.0,,KIGQ 040735Z AUTO 21017G23KT 10SM BKN024 BKN030 BKN041 18/17 A2976 RMK AO2 T01790166,,,2400.0,,,61.87,,SSW,29.11,28.08,,Mostly Cloudy
KIGQ,05/04/2018 07:55 UTC,29.75,64.4,62.06,92.12,14.97,210.0,26.46,,414.0,,,212.0,353.0,,,10.0,,KIGQ 040755Z AUTO 21013G23KT 10SM SCT021 BKN035 OVC041 18/17 A2975 RMK AO2 T01800167,,,3500.0,,,62.04,,SSW,29.1,28.06,,Overcast
KIGQ,05/04/2018 08:15 UTC,29.74,64.76,62.6,92.72,19.57,220.0,26.46,,,,,203.0,364.0,,,10.0,,KIGQ 040815Z AUTO 22017G23KT 10SM BKN020 OVC036 18/17 A2974 RMK AO2 T01820170,,,2000.0,,,62.59,,SW,29.09,28.01,,Overcast
KIGQ,05/04/2018 08:35 UTC,29.74,64.94,62.6,92.14,16.11,220.0,23.02,,334.0,,,182.0,233.0,,,10.0,,KIGQ 040835Z AUTO 22014G20KT 10SM SCT018 BKN023 OVC033 18/17 A2974 RMK AO2 T01830170,,,2300.0,,,62.59,,SW,29.09,28.01,,Overcast
KIGQ,05/04/2018 08:55 UTC,29.73,65.48,62.96,91.58,20.71,220.0,26.46,,,,,183.0,254.0,,,10.0,,KIGQ 040855Z AUTO 22018G23KT 10SM BKN018 OVC025 19/17 A2973 RMK AO2 T01860172,,,1800.0,,,62.95,,SW,29.08,27.97,,Overcast
KIGQ,05/04/2018 09:15 UTC,29.71,65.3,62.96,92.15,14.97,220.0,26.46,,,,,183.0,233.0,,,10.0,,KIGQ 040915Z AUTO 22013G23KT 10SM BKN018 BKN023 19/17 A2971 RMK AO2 T01850172,,,1800.0,,,62.95,,SW,29.06,27.95,,Mostly Cloudy
KIGQ,05/04/2018 09:35 UTC,29.72,64.76,62.78,93.31,16.11,220.0,24.16,,,,,1.0,,,,10.0,,KIGQ 040935Z AUTO 22014G21KT 10SM CLR 18/17 A2972 RMK AO2  T01820171,,,,,,62.77,,SW,29.07,27.98,,Clear
KIGQ,05/04/2018 09:55 UTC,29.72,65.12,62.78,92.15,19.57,230.0,28.77,,,,,173.0,,,,10.0,,KIGQ 040955Z AUTO 23017G25KT 10SM BKN017 18/17 A2972 RMK AO2  T01840171,,,1700.0,,,62.77,,SW,29.07,27.97,,Mostly Cloudy
KIGQ,05/04/2018 10:15 UTC,29.71,65.3,62.78,91.57,21.85,230.0,28.77,,,,,174.0,,,,10.0,,KIGQ 041015Z AUTO 23019G25KT 10SM OVC017 19/17 A2971 RMK AO2  T01850171,,,1700.0,,,62.76,,SW,29.06,27.96,,Overcast
KIGQ,05/04/2018 10:35 UTC,29.72,64.94,62.6,92.14,19.57,230.0,33.38,,,,,174.0,,,,10.0,,KIGQ 041035Z AUTO 23017G29KT 10SM OVC017 18/17 A2972 RMK AO2  T01830170,,,1700.0,,,62.59,,SW,29.07,27.99,,Overcast
KIGQ,05/04/2018 10:55 UTC,29.72,64.58,62.24,92.13,21.85,230.0,27.63,,,,,154.0,,,,10.0,,KIGQ 041055Z AUTO 23019G24KT 10SM OVC015 18/17 A2972 RMK AO2  T01810168,,,1500.0,,,62.23,,SW,29.07,28.01,,Overcast
KIGQ,05/04/2018 11:15 UTC,29.71,64.4,62.24,92.71,20.71,230.0,26.46,,,,,154.0,,,,10.0,,KIGQ 041115Z AUTO 23018G23KT 10SM OVC015 18/17 A2971 RMK AO2  T01800168,,,1500.0,,,62.23,,SW,29.06,28.0,,Overcast
KIGQ,05/04/2018 11:35 UTC,29.72,64.04,62.06,93.29,23.02,220.0,32.21,,,,,173.0,223.0,,,10.0,,KIGQ 041135Z AUTO 22020G28KT 10SM BKN017 BKN022 18/17 A2972 RMK AO2 T01780167,,,1700.0,,,62.05,,SW,29.07,28.03,,Mostly Cloudy
KIGQ,05/04/2018 11:55 UTC,29.74,64.58,62.24,92.13,20.71,230.0,31.07,,,,,153.0,224.0,,,10.0,,KIGQ 041155Z AUTO 23018G27KT 10SM BKN015 OVC022 18/17 A2974 RMK AO2 T01810168 10186 20176,65.48,63.68,1500.0,,,62.23,,SW,29.09,28.03,,Overcast
KIGQ,05/04/2018 12:15 UTC,29.75,65.3,62.06,89.28,23.02,230.0,32.21,,,,,174.0,,,,10.0,,KIGQ 041215Z AUTO 23020G28KT 10SM OVC017 19/17 A2975 RMK AO2  T01850167,,,1700.0,,,62.04,,SW,29.1,28.04,,Overcast
KIGQ,05/04/2018 12:35 UTC,29.76,65.48,62.06,88.73,24.16,250.0,32.21,,,,,194.0,,,,10.0,,KIGQ 041235Z AUTO 25021G28KT 10SM OVC019 19/17 A2976 RMK AO2  T01860167,,,1900.0,,,62.04,,WSW,29.11,28.05,,Overcast
KIGQ,05/04/2018 12:55 UTC,29.76,65.3,61.88,88.72,20.71,250.0,31.07,,,,,193.0,234.0,,,10.0,,KIGQ 041255Z AUTO 25018G27KT 10SM BKN019 OVC023 19/17 A2976 RMK AO2 T01850166,,,1900.0,,,61.86,,WSW,29.11,28.06,,Overcast
KIGQ,05/04/2018 13:15 UTC,29.78,65.48,59.0,79.6,26.46,270.0,37.98,,373.0,,,192.0,263.0,,,10.0,,KIGQ 041315Z AUTO 27023G33KT 10SM SCT019 BKN026 BKN037 19/15 A2978 RMK AO2 T01860150,,,2600.0,,,58.96,,W,29.13,28.24,,Mostly Cloudy
KIGQ,05/04/2018 13:35 UTC,29.79,65.66,57.38,74.64,29.93,280.0,43.73,,423.0,,,292.0,332.0,,,10.0,,KIGQ 041335Z AUTO 28026G38KT 10SM SCT029 SCT033 BKN042 19/14 A2979 RMK AO2 T01870141,,,4200.0,,,57.33,,W,29.14,28.32,,Mostly Cloudy
KIGQ,05/04/2018 13:55 UTC,29.82,64.4,55.76,73.56,24.16,290.0,32.21,,443.0,,,272.0,332.0,,,10.0,,KIGQ 041355Z AUTO 29021G28KT 10SM SCT027 SCT033 BKN044 18/13 A2982 RMK AO2 T01800132,,,4400.0,,,55.71,,WNW,29.17,28.44,,Mostly Cloudy
KIGQ,05/04/2018 14:15 UTC,29.84,64.58,55.4,72.15,17.27,280.0,28.77,,653.0,,,272.0,442.0,,,10.0,,KIGQ 041415Z AUTO 28015G25KT 10SM SCT027 SCT044 BKN065 18/13 A2984 RMK AO2 T01810130,,,6500.0,,,55.35,,W,29.19,28.48,,Mostly Cloudy
KIGQ,05/04/2018 14:35 UTC,29.85,64.4,54.86,71.19,16.11,300.0,32.21,,,,,292.0,654.0,,,10.0,,KIGQ 041435Z AUTO 30014G28KT 10SM SCT029 OVC065 18/13 A2985 RMK AO2 T01800127,,,6500.0,,,54.8,,WNW,29.2,28.52,,Overcast
KIGQ,05/04/2018 14:55 UTC,29.86,64.58,55.04,71.21,17.27,290.0,25.32,,,,,292.0,554.0,,,10.0,,KIGQ 041455Z AUTO 29015G22KT 10SM SCT029 OVC055 18/13 A2986 RMK AO2 LTG DSNT S AND SW T01810128,,,5500.0,,,54.98,,WNW,29.21,28.52,,Overcast
KIGQ,05/04/2018 15:15 UTC,29.88,62.96,54.14,72.93,14.97,280.0,25.32,,,,,312.0,504.0,,,10.0,,KIGQ 041515Z AUTO 28013G22KT 10SM SCT031 OVC050 17/12 A2988 RMK AO2 LTG DSNT S T01720123,,,5000.0,,,54.08,,W,29.23,28.59,,Overcast
KIGQ,05/04/2018 15:35 UTC,29.88,62.78,53.78,72.44,13.8,300.0,21.85,,,,,464.0,,,,10.0,,KIGQ 041535Z AUTO 30012G19KT 10SM OVC046 17/12 A2988 RMK AO2  T01710121,,,4600.0,,,53.72,,WNW,29.23,28.61,,Overcast
KIGQ,05/04/2018 15:55 UTC,29.89,64.22,54.32,70.25,9.22,310.0,17.27,,704.0,,,332.0,493.0,,,10.0,,KIGQ 041555Z AUTO 31008G15KT 10SM SCT033 BKN049 OVC070 18/12 A2989 RMK AO2 LTG DSNT SE T01790124,,,4900.0,,,54.26,,NW,29.24,28.58,,Overcast
KIGQ,05/04/2018 16:15 UTC,29.91,65.3,53.78,66.33,19.57,320.0,26.46,,503.0,,,332.0,402.0,,,10.0,,KIGQ 041615Z AUTO 32017G23KT 10SM SCT033 SCT040 BKN050 19/12 A2991 RMK AO2 T01850121,,,5000.0,,,53.72,,NW,29.26,28.61,,Mostly Cloudy
KIGQ,05/04/2018 16:35 UTC,29.92,66.2,54.14,65.14,14.97,340.0,24.16,,483.0,,,352.0,413.0,,,10.0,,KIGQ 041635Z AUTO 34013G21KT 10SM SCT035 BKN041 BKN048 19/12 A2992 RMK AO2 T01900123,,,4100.0,,,54.08,,NNW,29.27,28.6,,Mostly Cloudy
KIGQ,05/04/2018 16:55 UTC,29.92,66.38,54.14,64.74,10.36,10.0,,,503.0,,,373.0,463.0,,,10.0,,KIGQ 041655Z AUTO 01009KT 10SM BKN037 BKN046 BKN050 19/12 A2992 RMK AO2 T01910123,,,3700.0,,,54.08,,N,29.27,28.6,,Mostly Cloudy
KIGQ,05/04/2018 17:15 UTC,29.93,66.56,50.9,57.12,17.27,320.0,24.16,,,,,392.0,462.0,,,10.0,,KIGQ 041715Z AUTO 32015G21KT 10SM SCT039 SCT046 19/11 A2993 RMK AO2 T01920105,,,,,,50.83,,NW,29.28,28.74,,Partly Cloudy
KIGQ,05/04/2018 17:35 UTC,29.94,67.28,52.34,58.75,11.5,340.0,16.11,,,,,442.0,,,,10.0,,KIGQ 041735Z AUTO 34010G14KT 310V010 10SM SCT044 20/11 A2994 RMK AO2 T01960113,,,,,,52.27,,NNW,29.29,28.69,,Partly Cloudy
KIGQ,05/04/2018 17:55 UTC,29.96,67.1,50.36,54.95,4.61,360.0,16.11,,,,,482.0,,,,10.0,,KIGQ 041755Z AUTO 36004G14KT 10SM SCT048 20/10 A2996 RMK AO2  T01950102 10198 20171,67.64,62.78,,,,50.28,,N,29.31,28.79,,Partly Cloudy
KIGQ,05/04/2018 18:15 UTC,29.96,68.18,51.44,55.11,12.66,320.0,16.11,,,,,502.0,1203.0,,,10.0,,KIGQ 041815Z AUTO 32011G14KT 10SM SCT050 BKN120 20/11 A2996 RMK AO2 T02010108,,,12000.0,,,51.37,,NW,29.31,28.74,,Mostly Cloudy
KIGQ,05/04/2018 18:35 UTC,29.96,69.26,52.52,55.26,9.22,330.0,,,,,,492.0,1203.0,,,10.0,,KIGQ 041835Z AUTO 33008KT 310V010 10SM SCT049 BKN120 21/11 A2996 RMK AO2 T02070114,,,12000.0,,,52.46,,NNW,29.31,28.68,,Mostly Cloudy
KIGQ,05/04/2018 18:55 UTC,29.97,69.62,52.34,54.23,10.36,330.0,17.27,,,,,502.0,1203.0,,,10.0,,KIGQ 041855Z AUTO 33009G15KT 10SM SCT050 BKN120 21/11 A2997 RMK AO2 T02090113,,,12000.0,,,52.28,,NNW,29.32,28.7,,Mostly Cloudy
KIGQ,05/04/2018 19:15 UTC,29.97,69.44,51.98,53.84,9.22,320.0,16.11,,,,,1202.0,,,,10.0,,KIGQ 041915Z AUTO 32008G14KT 10SM SCT120 21/11 A2997 RMK AO2  T02080111,,,,,,51.92,,NW,29.32,28.71,,Partly Cloudy
KIGQ,05/04/2018 19:35 UTC,29.96,70.7,52.7,52.97,9.22,310.0,,,,,,502.0,,,,10.0,,KIGQ 041935Z AUTO 31008KT 10SM SCT050 22/12 A2996 RMK AO2  T02150115,,,,,,52.65,,NW,29.31,28.66,,Partly Cloudy
KIGQ,05/04/2018 19:55 UTC,29.96,71.24,51.62,49.98,8.05,310.0,26.46,,,,,502.0,,,,10.0,,KIGQ 041955Z AUTO 31007G23KT 10SM SCT050 22/11 A2996 RMK AO2  T02180109,,,,,,51.57,,NW,29.31,28.7,,Partly Cloudy
KIGQ,05/04/2018 20:15 UTC,29.97,71.6,52.16,50.37,14.97,250.0,20.71,,,,,552.0,,,,10.0,,KIGQ 042015Z AUTO 25013G18KT 230V300 10SM SCT055 22/11 A2997 RMK AO2 T02200112,,,,,,52.11,,WSW,29.32,28.69,,Partly Cloudy
KIGQ,05/04/2018 20:35 UTC,29.96,71.96,52.88,51.09,12.66,280.0,18.41,,,,,553.0,,,,10.0,,KIGQ 042035Z AUTO 28011G16KT 10SM BKN055 22/12 A2996 RMK AO2  T02220116,,,5500.0,,,52.83,,W,29.31,28.64,,Mostly Cloudy
KIGQ,05/04/2018 20:55 UTC,29.97,71.42,51.08,48.69,12.66,300.0,16.11,,,,,552.0,,,,10.0,,KIGQ 042055Z AUTO 30011G14KT 10SM SCT055 22/11 A2997 RMK AO2  T02190106,,,,,,51.02,,WNW,29.32,28.73,,Partly Cloudy
KIGQ,05/04/2018 21:15 UTC,29.97,72.32,52.16,49.16,10.36,280.0,19.57,,,,,552.0,,,,10.0,,KIGQ 042115Z AUTO 28009G17KT 10SM SCT055 22/11 A2997 RMK AO2  T02240112,,,,,,52.11,,W,29.32,28.68,,Partly Cloudy
KIGQ,05/04/2018 21:35 UTC,29.97,71.96,52.34,50.09,5.75,270.0,10.36,,,,,552.0,,,,10.0,,KIGQ 042135Z AUTO 27005G09KT 10SM SCT055 22/11 A2997 RMK AO2  T02220113,,,,,,52.29,,W,29.32,28.68,,Partly Cloudy
KIGQ,05/04/2018 21:55 UTC,29.97,72.5,51.62,47.9,9.22,280.0,,,,,,552.0,,,,10.0,,KIGQ 042155Z AUTO 28008KT 10SM SCT055 23/11 A2997 RMK AO2  T02250109,,,,,,51.58,,W,29.32,28.7,,Partly Cloudy
KIGQ,05/04/2018 22:15 UTC,29.98,72.5,51.8,48.22,12.66,260.0,18.41,,,,,1.0,,,,10.0,,KIGQ 042215Z AUTO 26011G16KT 10SM CLR 23/11 A2998 RMK AO2  T02250110,,,,,,51.76,,W,29.33,28.7,,Clear
KIGQ,05/04/2018 22:35 UTC,29.99,72.5,51.26,47.26,9.22,280.0,,,,,,1.0,,,,10.0,,KIGQ 042235Z AUTO 28008KT 10SM CLR 23/11 A2999 RMK AO2  T02250107,,,,,,51.21,,W,29.34,28.74,,Clear
KIGQ,05/04/2018 22:55 UTC,29.98,72.5,51.98,48.54,9.22,270.0,,,,,,1.0,,,,10.0,,KIGQ 042255Z AUTO 27008KT 10SM CLR 23/11 A2998 RMK AO2  T02250111,,,,,,51.94,,W,29.33,28.7,,Clear
KIGQ,05/04/2018 23:15 UTC,29.99,71.96,50.0,45.94,11.5,280.0,,,,,,1.0,,,,10.0,,KIGQ 042315Z AUTO 28010KT 10SM CLR 22/10 A2999 RMK AO2  T02220100,,,,,,49.95,,W,29.34,28.79,,Clear
KIGQ,05/04/2018 23:35 UTC,29.99,71.6,50.54,47.44,8.05,240.0,,,,,,1.0,,,,10.0,,KIGQ 042335Z AUTO 24007KT 10SM CLR 22/10 A2999 RMK AO2  T02200103,,,,,,50.49,,WSW,29.34,28.78,,Clear
KIGQ,05/04/2018 23:55 UTC,29.99,70.88,50.18,47.97,8.05,280.0,,,,,,1.0,,,,10.0,,KIGQ 042355Z AUTO 28007KT 10SM CLR 22/10 A2999 RMK AO2 T02160101  10226 20194,72.68,66.92,,,,50.12,,W,29.34,28.8,,Clear
KIGQ,05/05/2018 00:15 UTC,29.99,70.7,50.0,47.94,5.75,280.0,,,,,,1.0,,,,10.0,,KIGQ 050015Z AUTO 28005KT 10SM CLR 22/10 A2999 RMK AO2  T02150100,,,,,,49.94,,W,29.34,28.8,,Clear
KIGQ,05/05/2018 00:35 UTC,30.0,69.62,50.18,50.07,6.91,280.0,,,,,,702.0,,,,10.0,,KIGQ 050035Z AUTO 28006KT 10SM SCT070 21/10 A3000 RMK AO2  T02090101,,,,,,50.12,,W,29.35,28.82,,Partly Cloudy
KIGQ,05/05/2018 00:55 UTC,30.01,67.46,50.0,53.55,5.75,260.0,,,,,,702.0,,,,10.0,,KIGQ 050055Z AUTO 26005KT 10SM SCT070 20/10 A3001 RMK AO2  T01970100,,,,,,49.92,,W,29.36,28.85,,Partly Cloudy
KIGQ,05/05/2018 01:15 UTC,30.01,67.46,50.0,53.55,0.0,0.0,,,,,,1.0,,,,10.0,,KIGQ 050115Z AUTO 00000KT 10SM CLR 20/10 A3001 RMK AO2  T01970100,,,,,,49.92,,N,29.36,28.85,,Clear
KIGQ,05/05/2018 01:35 UTC,30.01,61.52,51.8,70.41,3.44,220.0,,,,,,1.0,,,,10.0,,KIGQ 050135Z AUTO 22003KT 10SM CLR 16/11 A3001 RMK AO2  T01640110,,,,,,51.73,,SW,29.36,28.84,,Clear
KIGQ,05/05/2018 01:55 UTC,30.02,57.56,50.18,76.37,3.44,200.0,,,,,,1.0,,,,10.0,,KIGQ 050155Z AUTO 20003KT 10SM CLR 14/10 A3002 RMK AO2  T01420101,,,,,,50.12,,SSW,29.37,28.95,,Clear
KIGQ,05/05/2018 02:15 UTC,30.03,57.38,50.18,76.86,5.75,190.0,,,,,,1.0,,,,10.0,,KIGQ 050215Z AUTO 19005KT 10SM CLR 14/10 A3003 RMK AO2  T01410101,,,,,,50.12,,S,29.38,28.96,,Clear
KIGQ,05/05/2018 02:35 UTC,30.03,58.46,50.36,74.44,6.91,190.0,,,,,,1.0,,,,10.0,,KIGQ 050235Z AUTO 19006KT 10SM CLR 15/10 A3003 RMK AO2  T01470102,,,,,,50.29,,S,29.38,28.94,,Clear
KIGQ,05/05/2018 02:55 UTC,30.03,56.3,50.18,79.91,4.61,200.0,,,,,,1.0,,,,10.0,,KIGQ 050255Z AUTO 20004KT 10SM CLR 14/10 A3003 RMK AO2  T01350101,,,,,,50.12,,SSW,29.38,28.97,,Clear
KIGQ,05/05/2018 03:15 UTC,30.04,56.66,50.0,78.36,3.44,190.0,,,,,,1.0,,,,10.0,,KIGQ 050315Z AUTO 19003KT 10SM CLR 14/10 A3004 RMK AO2  T01370100,,,,,,49.94,,S,29.39,28.98,,Clear
KIGQ,05/05/2018 03:35 UTC,30.03,56.66,49.64,77.31,4.61,190.0,,,,,,1.0,,,,10.0,,KIGQ 050335Z AUTO 19004KT 10SM CLR 14/10 A3003 RMK AO2  T01370098,,,,,,49.58,,S,29.38,28.98,,Clear
KIGQ,05/05/2018 03:55 UTC,30.03,56.84,49.64,76.81,4.61,190.0,,,,,,752.0,,,,10.0,,KIGQ 050355Z AUTO 19004KT 10SM SCT075 14/10 A3003 RMK AO2  T01380098,,,,,,49.57,,S,29.38,28.98,,Partly Cloudy
KIGQ,05/05/2018 04:15 UTC,30.03,58.1,50.9,76.93,4.61,180.0,,,,,,753.0,853.0,,,10.0,,KIGQ 050415Z AUTO 18004KT 10SM BKN075 BKN085 15/11 A3003 RMK AO2  T01450105,,,7500.0,,,50.84,,S,29.38,28.92,,Mostly Cloudy
KIGQ,05/05/2018 04:35 UTC,30.03,57.2,51.08,79.99,3.44,190.0,,,,,,752.0,852.0,,,10.0,,KIGQ 050435Z AUTO 19003KT 10SM SCT075 SCT085 14/11 A3003 RMK AO2  T01400106,,,,,,51.03,,S,29.38,28.93,,Partly Cloudy
KIGQ,05/05/2018 04:55 UTC,30.03,56.48,50.9,81.54,4.61,200.0,,,,,,953.0,,,,10.0,,KIGQ 050455Z AUTO 20004KT 10SM BKN095 14/11 A3003 RMK AO2  T01360105,,,9500.0,,,50.85,,SSW,29.38,28.94,,Mostly Cloudy
KIGQ,05/05/2018 05:15 UTC,30.03,55.58,50.36,82.57,5.75,190.0,,,,,,952.0,,,,10.0,,KIGQ 050515Z AUTO 19005KT 10SM SCT095 13/10 A3003 RMK AO2  T01310102,,,,,,50.31,,S,29.38,28.97,,Partly Cloudy
KIGQ,05/05/2018 05:35 UTC,30.02,57.2,50.72,78.93,0.0,0.0,,,,,,703.0,853.0,,,10.0,,KIGQ 050535Z AUTO 00000KT 10SM BKN070 BKN085 14/10 A3002 RMK AO2  T01400104,,,7000.0,,,50.66,,N,29.37,28.93,,Mostly Cloudy
KIGQ,05/05/2018 05:55 UTC,30.02,59.18,50.54,73.03,3.44,230.0,,,,,,753.0,954.0,,,10.0,,KIGQ 050555Z AUTO 23003KT 10SM BKN075 OVC095 15/10 A3002 RMK AO2  T01510103 10217 20127 402260127,71.06,54.86,7500.0,72.68,54.86,50.47,,SW,29.37,28.92,,Overcast
KIGQ,05/05/2018 06:15 UTC,30.02,58.28,50.36,74.92,3.44,220.0,,,,,,852.0,,,,10.0,,KIGQ 050615Z AUTO 22003KT 10SM SCT085 15/10 A3002 RMK AO2  T01460102,,,,,,50.29,,SW,29.37,28.93,,Partly Cloudy
KIGQ,05/05/2018 06:35 UTC,30.02,55.94,48.92,77.25,3.44,200.0,,,,,,952.0,,,,10.0,,KIGQ 050635Z AUTO 20003KT 10SM SCT095 13/09 A3002 RMK AO2  T01330094,,,,,,48.86,,SSW,29.37,29.01,,Partly Cloudy
KIGQ,05/05/2018 06:55 UTC,30.01,53.42,48.38,82.98,0.0,0.0,,,,,,952.0,,,,10.0,,KIGQ 050655Z AUTO 00000KT 10SM SCT095 12/09 A3001 RMK AO2  T01190091,,,,,,48.33,,N,29.36,29.04,,Partly Cloudy
KIGQ,05/05/2018 07:15 UTC,30.01,53.78,48.38,81.89,0.0,0.0,,,,,,952.0,,,,10.0,,KIGQ 050715Z AUTO 00000KT 10SM SCT095 12/09 A3001 RMK AO2  T01210091,,,,,,48.32,,N,29.36,29.04,,Partly Cloudy
KIGQ,05/05/2018 07:35 UTC,30.01,54.5,48.38,79.77,0.0,0.0,,,,,,1.0,,,,10.0,,KIGQ 050735Z AUTO 00000KT 10SM CLR 13/09 A3001 RMK AO2  T01250091,,,,,,48.32,,N,29.36,29.03,,Clear
KIGQ,05/05/2018 07:55 UTC,30.01,53.42,47.84,81.32,5.75,180.0,,,,,,1.0,,,,10.0,,KIGQ 050755Z AUTO 18005KT 10SM CLR 12/09 A3001 RMK AO2  T01190088,,,,,,47.78,,S,29.36,29.06,,Clear
KIGQ,05/05/2018 08:15 UTC,30.01,52.16,48.02,85.74,3.44,200.0,,,,,,1.0,,,,10.0,,KIGQ 050815Z AUTO 20003KT 10SM CLR 11/09 A3001 RMK AO2  T01120089,,,,,,47.97,,SSW,29.36,29.06,,Clear
KIGQ,05/05/2018 08:35 UTC,30.01,50.9,48.2,90.43,0.0,0.0,,,,,,1.0,,,,10.0,,KIGQ 050835Z AUTO 00000KT 10SM CLR 11/09 A3001 RMK AO2  T01050090,,,,,,48.17,,N,29.36,29.07,,Clear
KIGQ,05/05/2018 08:55 UTC,30.01,52.34,48.74,87.5,0.0,0.0,,,,,,1.0,,,,10.0,,KIGQ 050855Z AUTO 00000KT 10SM CLR 11/09 A3001 RMK AO2  T01130093,,,,,,48.7,,N,29.36,29.04,,Clear
KIGQ,05/05/2018 09:15 UTC,30.02,48.74,46.76,92.84,4.61,190.0,,,,,,1.0,,,,10.0,,KIGQ 050915Z AUTO 19004KT 10SM CLR 09/08 A3002 RMK AO2  T00930082,,,,,,46.74,,S,29.37,29.14,,Clear
KIGQ,05/05/2018 09:35 UTC,30.02,50.54,47.48,89.2,4.61,180.0,,,,,,1.0,,,,10.0,,KIGQ 050935Z AUTO 18004KT 10SM CLR 10/09 A3002 RMK AO2  T01030086,,,,,,47.44,,S,29.37,29.11,,Clear
KIGQ,05/05/2018 09:55 UTC,30.02,50.72,47.66,89.21,5.75,180.0,,,,,,1.0,,,,10.0,,KIGQ 050955Z AUTO 18005KT 10SM CLR 10/09 A3002 RMK AO2  T01040087,,,,,,47.62,,S,29.37,29.1,,Clear
KIGQ,05/05/2018 10:15 UTC,30.02,49.64,47.3,91.61,4.61,190.0,,,,,,1.0,,,,10.0,,KIGQ 051015Z AUTO 19004KT 10SM CLR 10/09 A3002 RMK AO2  T00980085,,,,,,47.27,,S,29.37,29.12,,Clear
KIGQ,05/05/2018 10:35 UTC,30.03,48.56,46.76,93.46,4.61,190.0,,,,,,1.0,,,,10.0,,KIGQ 051035Z AUTO 19004KT 10SM CLR 09/08 A3003 RMK AO2  T00920082,,,,,,46.74,,S,29.38,29.16,,Clear
KIGQ,05/05/2018 10:55 UTC,30.03,49.28,47.48,93.48,5.75,190.0,,,,,,1.0,,,,10.0,,KIGQ 051055Z AUTO 19005KT 10SM CLR 10/09 A3003 RMK AO2  T00960086,,,,,,47.46,,S,29.38,29.13,,Clear
KIGQ,05/05/2018 11:15 UTC,30.04,50.36,47.84,91.02,3.44,200.0,,,,,,1.0,,,,10.0,,KIGQ 051115Z AUTO 20003KT 10SM CLR 10/09 A3004 RMK AO2  T01020088,,,,,,47.81,,SSW,29.39,29.12,,Clear
KIGQ,05/05/2018 11:35 UTC,30.04,51.26,49.1,92.29,3.44,210.0,,,,,,1.0,,,,10.0,,KIGQ 051135Z AUTO 21003KT 10SM CLR 11/10 A3004 RMK AO2  T01070095,,,,,,49.08,,SSW,29.39,29.07,,Clear
KIGQ,05/05/2018 11:55 UTC,30.04,53.6,51.8,93.6,0.0,0.0,,,,,,1.0,,,,10.0,,KIGQ 051155Z AUTO 00000KT 10SM CLR 12/11 A3004 RMK AO2 T01200110  10154 20089,59.72,48.02,,,,51.78,,N,29.39,28.95,,Clear
KIGQ,05/05/2018 12:15 UTC,30.05,56.84,53.78,89.49,0.0,0.0,,,,,,1.0,,,,10.0,,KIGQ 051215Z AUTO 00000KT 10SM CLR 14/12 A3005 RMK AO2  T01380121,,,,,,53.75,,N,29.4,28.85,,Clear
KIGQ,05/05/2018 12:35 UTC,30.05,59.72,53.06,78.61,0.0,0.0,,,,,,1.0,,,,10.0,,KIGQ 051235Z AUTO 00000KT 10SM CLR 15/12 A3005 RMK AO2  T01540117,,,,,,53.01,,N,29.4,28.84,,Clear
KIGQ,05/05/2018 12:55 UTC,30.05,62.06,53.96,74.78,3.44,240.0,,,,,,1.0,,,,10.0,,KIGQ 051255Z AUTO 24003KT 10SM CLR 17/12 A3005 RMK AO2  T01670122,,,,,,53.9,,WSW,29.4,28.78,,Clear
KIGQ,05/05/2018 13:15 UTC,30.05,64.58,53.06,66.25,4.61,260.0,,,,,,1.0,,,,10.0,,KIGQ 051315Z AUTO 26004KT 10SM CLR 18/12 A3005 RMK AO2  T01810117,,,,,,53.0,,W,29.4,28.8,,Clear
KIGQ,05/05/2018 13:35 UTC,30.05,66.2,51.62,59.39,6.91,260.0,,,,,,1.0,,,,10.0,,KIGQ 051335Z AUTO 26006KT 10SM CLR 19/11 A3005 RMK AO2  T01900109,,,,,,51.55,,W,29.4,28.84,,Clear
KIGQ,05/05/2018 13:55 UTC,30.05,67.46,51.8,57.24,5.75,240.0,,,,,,1.0,,,,10.0,,KIGQ 051355Z AUTO 24005KT 10SM CLR 20/11 A3005 RMK AO2  T01970110,,,,,,51.73,,WSW,29.4,28.82,,Clear
KIGQ,05/05/2018 14:15 UTC,30.05,69.26,51.44,53.11,6.91,260.0,,,,,,1.0,,,,10.0,,KIGQ 051415Z AUTO 26006KT 10SM CLR 21/11 A3005 RMK AO2  T02070108,,,,,,51.38,,W,29.4,28.82,,Clear
KIGQ,05/05/2018 14:35 UTC,30.05,70.34,50.54,49.51,6.91,260.0,,,,,,1.0,,,,10.0,,KIGQ 051435Z AUTO 26006KT 10SM CLR 21/10 A3005 RMK AO2  T02130103,,,,,,50.48,,W,29.4,28.85,,Clear
KIGQ,05/05/2018 14:55 UTC,30.04,71.78,50.9,47.79,8.05,270.0,,,,,,1.0,,,,10.0,,KIGQ 051455Z AUTO 27007KT 10SM CLR 22/11 A3004 RMK AO2  T02210105,,,,,,50.85,,W,29.39,28.81,,Clear
KIGQ,05/05/2018 15:15 UTC,30.04,72.86,50.0,44.56,8.05,250.0,,,,,,1.0,,,,10.0,,KIGQ 051515Z AUTO 25007KT 10SM CLR 23/10 A3004 RMK AO2  T02270100,,,,,,49.95,,WSW,29.39,28.84,,Clear
KIGQ,05/05/2018 15:35 UTC,30.04,73.76,49.82,42.95,9.22,260.0,,,,,,1.0,,,,10.0,,KIGQ 051535Z AUTO 26008KT 10SM CLR 23/10 A3004 RMK AO2  T02320099,,,,,,49.78,,W,29.39,28.84,,Clear
KIGQ,05/05/2018 15:55 UTC,30.04,74.66,49.1,40.57,6.91,240.0,16.11,,,,,1.0,,,,10.0,,KIGQ 051555Z AUTO 24006G14KT 10SM CLR 24/10 A3004 RMK AO2  T02370095,,,,,,49.07,,WSW,29.39,28.86,,Clear
KIGQ,05/05/2018 16:15 UTC,30.04,75.38,47.48,37.28,10.36,270.0,,,,,,1.0,,,,10.0,,KIGQ 051615Z AUTO 27009KT 10SM CLR 24/09 A3004 RMK AO2  T02410086,,,,,,47.46,,W,29.39,28.92,,Clear
KIGQ,05/05/2018 16:35 UTC,30.03,75.74,48.2,37.84,0.0,0.0,,,,,,1.0,,,,10.0,,KIGQ 051635Z AUTO 00000KT 10SM CLR 24/09 A3003 RMK AO2  T02430090,,,,,,48.18,,N,29.38,28.88,,Clear
KIGQ,05/05/2018 16:55 UTC,30.02,75.92,48.56,38.13,9.22,240.0,,,,,,1.0,,,,10.0,,KIGQ 051655Z AUTO 24008KT 10SM CLR 24/09 A3002 RMK AO2  T02440092,,,,,,48.54,,WSW,29.37,28.85,,Clear
KIGQ,05/05/2018 17:15 UTC,30.02,76.28,47.84,36.67,3.44,270.0,,,,,,1.0,,,,10.0,,KIGQ 051715Z AUTO 27003KT 10SM CLR 25/09 A3002 RMK AO2  T02460088,,,,,,47.82,,W,29.37,28.88,,Clear
KIGQ,05/05/2018 17:35 UTC,30.01,77.0,48.92,37.29,9.22,290.0,16.11,,,,,1.0,,,,10.0,,KIGQ 051735Z AUTO 29008G14KT 10SM CLR 25/09 A3001 RMK AO2  T02500094,,,,,,48.91,,WNW,29.36,28.82,,Clear
KIGQ,05/05/2018 17:55 UTC,30.01,77.36,49.28,37.35,6.91,240.0,,,,,,1.0,,,,10.0,,KIGQ 051755Z AUTO 24006KT 10SM CLR 25/10 A3001 RMK AO2 T02520096  10252 20121,77.36,53.78,,,,49.28,,WSW,29.36,28.8,,Clear
KIGQ,05/05/2018 18:15 UTC,30.0,77.36,47.48,34.91,8.05,310.0,,,,,,1.0,,,,10.0,,KIGQ 051815Z AUTO 31007KT 10SM CLR 25/09 A3000 RMK AO2  T02520086,,,,,,47.48,,NW,29.35,28.86,,Clear
KIGQ,05/05/2018 18:35 UTC,29.99,78.26,48.74,35.53,9.22,260.0,,,,,,1.0,,,,10.0,,KIGQ 051835Z AUTO 26008KT 10SM CLR 26/09 A2999 RMK AO2  T02570093,,,,,,48.75,,W,29.34,28.8,,Clear
KIGQ,05/05/2018 18:55 UTC,29.99,78.44,49.46,36.28,8.05,280.0,,,,,,1.0,,,,10.0,,KIGQ 051855Z AUTO 28007KT 10SM CLR 26/10 A2999 RMK AO2  T02580097,,,,,,49.47,,W,29.34,28.77,,Clear
KIGQ,05/05/2018 19:15 UTC,29.98,78.44,47.3,33.46,3.44,290.0,,,,,,1.0,,,,10.0,,KIGQ 051915Z AUTO 29003KT 10SM CLR 26/09 A2998 RMK AO2  T02580085,,,,,,47.31,,WNW,29.33,28.84,,Clear
KIGQ,05/05/2018 19:35 UTC,29.98,79.16,48.74,34.5,3.44,240.0,,,,,,1.0,,,,10.0,,KIGQ 051935Z AUTO 24003KT 10SM CLR 26/09 A2998 RMK AO2  T02620093,,,,,,48.76,,WSW,29.33,28.78,,Clear
KIGQ,05/05/2018 19:55 UTC,29.97,79.16,48.2,33.81,5.75,240.0,,,,,,1.0,,,,10.0,,KIGQ 051955Z AUTO 24005KT 10SM CLR 26/09 A2997 RMK AO2  T02620090,,,,,,48.22,,WSW,29.32,28.79,,Clear
KIGQ,05/05/2018 20:15 UTC,29.96,79.7,50.0,35.52,6.91,270.0,,,,,,1.0,,,,10.0,,KIGQ 052015Z AUTO 27006KT 10SM CLR 27/10 A2996 RMK AO2  T02650100,,,,,,50.02,,W,29.31,28.7,,Clear
KIGQ,05/05/2018 20:35 UTC,29.96,79.52,48.38,33.64,4.61,260.0,17.27,,,,,1.0,,,,10.0,,KIGQ 052035Z AUTO 26004G15KT 10SM CLR 26/09 A2996 RMK AO2  T02640091,,,,,,48.41,,W,29.31,28.77,,Clear
KIGQ,05/05/2018 20:55 UTC,29.95,79.88,50.18,35.55,5.75,310.0,,,,,,1.0,,,,10.0,,KIGQ 052055Z AUTO 31005KT 10SM CLR 27/10 A2995 RMK AO2  T02660101,,,,,,50.21,,NW,29.3,28.68,,Clear
KIGQ,05/05/2018 21:15 UTC,29.95,79.7,50.18,35.76,11.5,270.0,17.27,,,,,1.0,,,,10.0,,KIGQ 052115Z AUTO 27010G15KT 250V330 10SM CLR 27/10 A2995 RMK AO2  T02650101,,,,,,50.2,,W,29.3,28.69,,Clear
KIGQ,05/05/2018 21:35 UTC,29.95,79.88,49.64,34.85,5.75,300.0,17.27,,,,,1.0,,,,10.0,,KIGQ 052135Z AUTO 30005G15KT 10SM CLR 27/10 A2995 RMK AO2  T02660098,,,,,,49.67,,WNW,29.3,28.71,,Clear
KIGQ,05/05/2018 21:55 UTC,29.94,79.88,49.64,34.85,11.5,290.0,16.11,,,,,1.0,,,,10.0,,KIGQ 052155Z AUTO 29010G14KT 10SM CLR 27/10 A2994 RMK AO2  T02660098,,,,,,49.67,,WNW,29.29,28.7,,Clear
KIGQ,05/05/2018 22:15 UTC,29.94,79.7,49.1,34.35,14.97,270.0,19.57,,,,,1.0,,,,10.0,,KIGQ 052215Z AUTO 27013G17KT 10SM CLR 27/10 A2994 RMK AO2  T02650095,,,,,,49.13,,W,29.29,28.72,,Clear
KIGQ,05/05/2018 22:35 UTC,29.94,79.34,48.38,33.84,6.91,270.0,,,,,,1.0,,,,10.0,,KIGQ 052235Z AUTO 27006KT 10SM CLR 26/09 A2994 RMK AO2  T02630091,,,,,,48.41,,W,29.29,28.75,,Clear
KIGQ,05/05/2018 22:55 UTC,29.94,78.8,49.46,35.86,8.05,290.0,,,,,,1.0,,,,10.0,,KIGQ 052255Z AUTO 29007KT 10SM CLR 26/10 A2994 RMK AO2  T02600097,,,,,,49.48,,WNW,29.29,28.71,,Clear
KIGQ,05/05/2018 23:20 UTC,29.93,78.44,50.36,37.52,8.05,280.0,,,,,,1.0,,,,10.0,,KIGQ 052320Z AUTO 28007KT 10SM CLR 26/10 A2993 RMK AO2  T02580102,,,,,,50.37,,W,29.28,28.67,,Clear
KIGQ,05/05/2018 23:35 UTC,29.92,78.08,49.28,36.47,4.61,260.0,,,,,,1.0,,,,10.0,,KIGQ 052335Z AUTO 26004KT 10SM CLR 26/10 A2992 RMK AO2  T02560096,,,,,,49.29,,W,29.27,28.7,,Clear
KIGQ,05/05/2018 23:55 UTC,29.92,76.64,50.0,39.28,6.91,280.0,,,,,,1.0,,,,10.0,,KIGQ 052355Z AUTO 28006KT 10SM CLR 25/10 A2992 RMK AO2 T02480100  10266 20248,79.88,76.64,,,,49.99,,W,29.27,28.69,,Clear
KIGQ,05/06/2018 00:20 UTC,29.92,75.74,49.46,39.67,3.44,280.0,,,,,,1002.0,,,,10.0,,KIGQ 060020Z AUTO 28003KT 10SM SCT100 24/10 A2992 RMK AO2  T02430097,,,,,,49.44,,W,29.27,28.71,,Partly Cloudy
KIGQ,05/06/2018 00:35 UTC,29.93,76.82,47.12,35.06,11.5,330.0,23.02,,,,,852.0,1002.0,,,10.0,,KIGQ 060035Z AUTO 33010G20KT 10SM SCT085 SCT100 25/08 A2993 RMK AO2 T02490084,,,,,,47.11,,NNW,29.28,28.81,,Partly Cloudy
KIGQ,05/06/2018 00:55 UTC,29.92,76.82,46.04,33.66,10.36,270.0,,,,,,1003.0,,,,10.0,,KIGQ 060055Z AUTO 27009KT 10SM BKN100 25/08 A2992 RMK AO2  T02490078,,,10000.0,,,46.03,,W,29.27,28.84,,Mostly Cloudy
KIGQ,05/06/2018 01:15 UTC,29.93,74.84,47.12,37.44,8.05,340.0,,,,,,1002.0,,,,10.0,,KIGQ 060115Z AUTO 34007KT 10SM SCT100 24/08 A2993 RMK AO2  T02380084,,,,,,47.09,,NNW,29.28,28.82,,Partly Cloudy
KIGQ,05/06/2018 01:35 UTC,29.94,73.4,46.58,38.5,5.75,360.0,,,,,,1.0,,,,10.0,,KIGQ 060135Z AUTO 36005KT 10SM CLR 23/08 A2994 RMK AO2  T02300081,,,,,,46.54,,N,29.29,28.86,,Clear
KIGQ,05/06/2018 01:55 UTC,29.94,72.5,46.04,38.88,3.44,10.0,,,,,,1.0,,,,10.0,,KIGQ 060155Z AUTO 01003KT 10SM CLR 23/08 A2994 RMK AO2  T02250078,,,,,,45.99,,N,29.29,28.89,,Clear
KIGQ,05/06/2018 02:15 UTC,29.95,70.88,45.68,40.51,5.75,10.0,,,,,,1.0,,,,10.0,,KIGQ 060215Z AUTO 01005KT 10SM CLR 22/08 A2995 RMK AO2  T02160076,,,,,,45.61,,N,29.3,28.92,,Clear
KIGQ,05/06/2018 02:35 UTC,29.96,67.64,45.86,45.56,9.22,360.0,,,,,,1.0,,,,10.0,,KIGQ 060235Z AUTO 36008KT 10SM CLR 20/08 A2996 RMK AO2  T01980077,,,,,,45.77,,N,29.31,28.95,,Clear
KIGQ,05/06/2018 02:55 UTC,29.96,60.8,44.78,55.53,9.22,10.0,,,,,,1.0,,,,10.0,,KIGQ 060255Z AUTO 01008KT 10SM CLR 16/07 A2996 RMK AO2  T01600071,,,,,,44.67,,N,29.31,29.04,,Clear
KIGQ,05/06/2018 03:15 UTC,29.96,58.46,42.98,56.34,4.61,10.0,,,,,,1.0,,,,10.0,,KIGQ 060315Z AUTO 01004KT 10SM CLR 15/06 A2996 RMK AO2  T01470061,,,,,,42.86,,N,29.31,29.11,,Clear
KIGQ,05/06/2018 03:35 UTC,29.97,57.38,44.06,61.04,4.61,10.0,,,,,,1.0,,,,10.0,,KIGQ 060335Z AUTO 01004KT 10SM CLR 14/07 A2997 RMK AO2  T01410067,,,,,,43.95,,N,29.32,29.1,,Clear
KIGQ,05/06/2018 03:55 UTC,29.97,56.48,45.14,65.7,0.0,0.0,,,,,,1.0,,,,10.0,,KIGQ 060355Z AUTO 00000KT 10SM CLR 14/07 A2997 RMK AO2  T01360073,,,,,,45.04,,N,29.32,29.07,,Clear
KIGQ,05/06/2018 04:15 UTC,29.97,56.3,45.5,67.04,0.0,0.0,,,,,,1.0,,,,10.0,,KIGQ 060415Z AUTO 00000KT 10SM CLR 14/08 A2997 RMK AO2  T01350075,,,,,,45.4,,N,29.32,29.06,,Clear
KIGQ,05/06/2018 04:35 UTC,29.97,55.4,45.68,69.74,0.0,0.0,,,,,,1.0,,,,10.0,,KIGQ 060435Z AUTO 00000KT 10SM CLR 13/08 A2997 RMK AO2  T01300076,,,,,,45.59,,N,29.32,29.07,,Clear
KIGQ,05/06/2018 04:55 UTC,29.97,54.68,45.86,72.07,3.44,40.0,,,,,,1.0,,,,10.0,,KIGQ 060455Z AUTO 04003KT 10SM CLR 13/08 A2997 RMK AO2 LTG DSNT NW  T01260077,,,,,,45.77,,NE,29.32,29.07,,Clear
KIGQ,05/06/2018 05:15 UTC,29.97,54.68,45.86,72.07,0.0,0.0,,,,,,1.0,,,,10.0,,KIGQ 060515Z AUTO 00000KT 10SM CLR 13/08 A2997 RMK AO2  T01260077,,,,,,45.77,,N,29.32,29.07,,Clear
KIGQ,05/06/2018 05:35 UTC,29.96,53.78,46.22,75.5,0.0,0.0,,,,,,1.0,,,,10.0,,KIGQ 060535Z AUTO 00000KT 10SM CLR 12/08 A2996 RMK AO2 LTG DSNT NW  T01210079,,,,,,46.14,,N,29.31,29.05,,Clear
KIGQ,05/06/2018 05:55 UTC,29.96,53.78,45.86,74.48,0.0,0.0,,,,,,1.0,,,,10.0,,KIGQ 060555Z AUTO 00000KT 10SM CLR 12/08 A2996 RMK AO2 T01210077  10251 20121 402660089,77.18,53.78,,79.88,48.02,45.78,,N,29.31,29.07,,Clear
KIGQ,05/06/2018 06:15 UTC,29.96,53.42,46.04,75.98,0.0,0.0,,,,,,1.0,,,,10.0,,KIGQ 060615Z AUTO 00000KT 10SM CLR 12/08 A2996 RMK AO2  T01190078,,,,,,45.96,,N,29.31,29.06,,Clear
KIGQ,05/06/2018 06:35 UTC,29.96,53.78,45.32,72.97,0.0,0.0,,,,,,1.0,,,,10.0,,KIGQ 060635Z AUTO 00000KT 10SM CLR 12/07 A2996 RMK AO2  T01210074,,,,,,45.24,,N,29.31,29.08,,Clear
KIGQ,05/06/2018 06:55 UTC,29.95,52.88,45.5,75.93,0.0,0.0,,,,,,1.0,,,,10.0,,KIGQ 060655Z AUTO 00000KT 10SM CLR 12/08 A2995 RMK AO2  T01160075,,,,,,45.42,,N,29.3,29.07,,Clear
KIGQ,05/06/2018 07:15 UTC,29.95,52.88,46.22,78.03,0.0,0.0,,,,,,1.0,,,,10.0,,KIGQ 060715Z AUTO 00000KT 10SM CLR 12/08 A2995 RMK AO2  T01160079,,,,,,46.15,,N,29.3,29.05,,Clear
KIGQ,05/06/2018 07:35 UTC,29.95,49.28,45.5,86.75,0.0,0.0,,,,,,1.0,,,,10.0,,KIGQ 060735Z AUTO 00000KT 10SM CLR 10/08 A2995 RMK AO2  T00960075,,,,,,45.46,,N,29.3,29.11,,Clear
KIGQ,05/06/2018 07:55 UTC,29.95,48.92,45.68,88.52,0.0,0.0,,,,,,1.0,,,,7.0,,KIGQ 060755Z AUTO 00000KT 7SM CLR 09/08 A2995 RMK AO2  T00940076,,,,,,45.64,,N,29.3,29.1,,Clear
KIGQ,05/06/2018 08:15 UTC,29.94,49.46,46.58,89.76,0.0,0.0,,,,,,1.0,,,,7.0,,KIGQ 060815Z AUTO 00000KT 7SM CLR 10/08 A2994 RMK AO2  T00970081,,,,,,46.55,,N,29.29,29.06,,Clear
KIGQ,05/06/2018 08:35 UTC,29.94,49.46,46.4,89.15,0.0,0.0,,,,,,1.0,,,,7.0,,KIGQ 060835Z AUTO 00000KT 7SM CLR 10/08 A2994 RMK AO2  T00970080,,,,,,46.36,,N,29.29,29.07,,Clear
KIGQ,05/06/2018 08:55 UTC,29.94,50.9,46.94,86.25,0.0,0.0,,,,,,1.0,,,,10.0,,KIGQ 060855Z AUTO 00000KT 10SM CLR 11/08 A2994 RMK AO2  T01050083,,,,,,46.9,,N,29.29,29.04,,Clear
KIGQ,05/06/2018 09:15 UTC,29.94,50.72,46.4,85.08,0.0,0.0,,,,,,1.0,,,,10.0,,KIGQ 060915Z AUTO 00000KT 10SM CLR 10/08 A2994 RMK AO2  T01040080,,,,,,46.35,,N,29.29,29.06,,Clear
KIGQ,05/06/2018 09:35 UTC,29.94,50.18,47.3,89.79,0.0,0.0,,,,,,1.0,,,,10.0,,KIGQ 060935Z AUTO 00000KT 10SM CLR 10/09 A2994 RMK AO2  T01010085,,,,,,47.27,,N,29.29,29.03,,Clear
KIGQ,05/06/2018 09:55 UTC,29.94,48.38,46.22,92.19,0.0,0.0,,,,,,1.0,,,,7.0,,KIGQ 060955Z AUTO 00000KT 7SM CLR 09/08 A2994 RMK AO2  T00910079,,,,,,46.19,,N,29.29,29.08,,Clear
KIGQ,05/06/2018 10:15 UTC,29.94,48.92,46.22,90.35,0.0,0.0,,,,,,1.0,,,,7.0,,KIGQ 061015Z AUTO 00000KT 7SM CLR 09/08 A2994 RMK AO2  T00940079,,,,,,46.19,,N,29.29,29.08,,Clear
KIGQ,05/06/2018 10:35 UTC,29.94,49.28,47.3,92.85,0.0,0.0,,,,,,1.0,,,,7.0,,KIGQ 061035Z AUTO 00000KT 7SM CLR 10/09 A2994 RMK AO2  T00960085,,,,,,47.28,,N,29.29,29.04,,Clear
KIGQ,05/06/2018 10:55 UTC,29.96,51.98,47.48,84.58,6.91,340.0,,,,,,1.0,,,,7.0,,KIGQ 061055Z AUTO 34006KT 7SM CLR 11/09 A2996 RMK AO2  T01110086,,,,,,47.43,,NNW,29.31,29.03,,Clear
KIGQ,05/06/2018 11:15 UTC,29.98,52.34,44.96,75.88,4.61,10.0,,,,,,1.0,,,,10.0,,KIGQ 061115Z AUTO 01004KT 10SM CLR 11/07 A2998 RMK AO2  T01130072,,,,,,44.88,,N,29.33,29.13,,Clear
KIGQ,05/06/2018 11:35 UTC,29.98,52.52,44.24,73.34,5.75,10.0,,,,,,1.0,,,,10.0,,KIGQ 061135Z AUTO 01005KT 10SM CLR 11/07 A2998 RMK AO2  T01140068,,,,,,44.15,,N,29.33,29.14,,Clear
KIGQ,05/06/2018 11:55 UTC,29.97,53.78,45.68,73.97,4.61,50.0,,,,,,1.0,,,,10.0,,KIGQ 061155Z AUTO 05004KT 10SM CLR 12/08 A2997 RMK AO2 T01210076  10123 20090,54.14,48.2,,,,45.6,,NE,29.32,29.08,,Clear
KIGQ,05/06/2018 12:15 UTC,29.99,55.4,45.32,68.79,0.0,0.0,,,,,,952.0,,,,10.0,,KIGQ 061215Z AUTO 00000KT 10SM SCT095 13/07 A2999 RMK AO2  T01300074,,,,,,45.23,,N,29.34,29.1,,Partly Cloudy
KIGQ,05/06/2018 12:35 UTC,30.0,57.02,44.06,61.84,3.44,10.0,,,,,,952.0,,,,10.0,,KIGQ 061235Z AUTO 01003KT 10SM SCT095 14/07 A3000 RMK AO2  T01390067,,,,,,43.95,,N,29.35,29.13,,Partly Cloudy
KIGQ,05/06/2018 12:55 UTC,29.99,58.28,43.52,57.89,5.75,10.0,,,,,,1.0,,,,10.0,,KIGQ 061255Z AUTO 01005KT 10SM CLR 15/06 A2999 RMK AO2  T01460064,,,,,,43.4,,N,29.34,29.13,,Clear
KIGQ,05/06/2018 13:15 UTC,29.99,57.2,42.8,58.55,3.44,20.0,,,,,,1102.0,,,,10.0,,KIGQ 061315Z AUTO 02003KT 10SM SCT110 14/06 A2999 RMK AO2  T01400060,,,,,,42.68,,NNE,29.34,29.16,,Partly Cloudy
KIGQ,05/06/2018 13:35 UTC,29.98,57.74,44.24,60.67,0.0,0.0,,,,,,1002.0,,,,10.0,,KIGQ 061335Z AUTO 00000KT 10SM SCT100 14/07 A2998 RMK AO2  T01430068,,,,,,44.13,,N,29.33,29.1,,Partly Cloudy
KIGQ,05/06/2018 13:55 UTC,29.96,57.74,44.78,61.93,6.91,110.0,,,,,,1003.0,,,,10.0,,KIGQ 061355Z AUTO 11006KT 10SM BKN100 14/07 A2996 RMK AO2  T01430071,,,10000.0,,,44.67,,ESE,29.31,29.06,,Mostly Cloudy
KIGQ,05/06/2018 14:15 UTC,29.97,58.28,45.5,62.43,0.0,0.0,,,,,,904.0,,,,10.0,,KIGQ 061415Z AUTO 00000KT 10SM OVC090 15/08 A2997 RMK AO2  T01460075,,,9000.0,,,45.4,,N,29.32,29.05,,Overcast
KIGQ,05/06/2018 14:35 UTC,29.96,60.08,45.14,57.75,0.0,0.0,,,,,,904.0,,,,10.0,,KIGQ 061435Z AUTO 00000KT 10SM OVC090 16/07 A2996 RMK AO2  T01560073,,,9000.0,,,45.03,,N,29.31,29.03,,Overcast
KIGQ,05/06/2018 14:55 UTC,29.96,60.08,45.68,58.95,0.0,0.0,,,,,,1004.0,,,,10.0,,KIGQ 061455Z AUTO 00000KT 10SM OVC100 16/08 A2996 RMK AO2  T01560076,,,10000.0,,,45.58,,N,29.31,29.02,,Overcast
KIGQ,05/06/2018 15:15 UTC,29.97,60.98,46.22,58.27,0.0,0.0,,,,,,904.0,,,,10.0,,KIGQ 061515Z AUTO 00000KT 10SM OVC090 16/08 A2997 RMK AO2  T01610079,,,9000.0,,,46.12,,N,29.32,29.0,,Overcast
KIGQ,05/06/2018 15:35 UTC,29.97,63.14,47.48,56.63,0.0,0.0,,,,,,903.0,1204.0,,,10.0,,KIGQ 061535Z AUTO 00000KT 10SM BKN090 OVC120 17/09 A2997 RMK AO2  T01730086,,,9000.0,,,47.38,,N,29.32,28.94,,Overcast
KIGQ,05/06/2018 15:55 UTC,29.98,63.5,47.84,56.68,0.0,0.0,,,,,,903.0,1204.0,,,10.0,,KIGQ 061555Z AUTO 00000KT 10SM BKN090 OVC120 18/09 A2998 RMK AO2  T01750088,,,9000.0,,,47.75,,N,29.33,28.94,,Overcast
KIGQ,05/06/2018 16:15 UTC,29.98,66.56,48.38,52.0,8.05,360.0,,,,,,1202.0,,,,10.0,,KIGQ 061615Z AUTO 36007KT 10SM SCT120 19/09 A2998 RMK AO2  T01920091,,,,,,48.3,,N,29.33,28.89,,Partly Cloudy
KIGQ,05/06/2018 16:35 UTC,29.99,66.56,48.92,53.06,9.22,20.0,,,,,,1.0,,,,10.0,,KIGQ 061635Z AUTO 02008KT 10SM CLR 19/09 A2999 RMK AO2  T01920094,,,,,,48.84,,NNE,29.34,28.88,,Clear
KIGQ,05/06/2018 16:55 UTC,29.99,62.6,47.84,58.5,10.36,20.0,,,,,,1003.0,,,,10.0,,KIGQ 061655Z AUTO 02009KT 10SM BKN100 17/09 A2999 RMK AO2  T01700088,,,10000.0,,,47.75,,NNE,29.34,28.95,,Mostly Cloudy
KIGQ,05/06/2018 17:15 UTC,29.99,62.6,47.12,56.94,9.22,30.0,,,,,,1002.0,,,,10.0,,KIGQ 061715Z AUTO 03008KT 10SM SCT100 17/08 A2999 RMK AO2  T01700084,,,,,,47.02,,NNE,29.34,28.98,,Partly Cloudy
KIGQ,05/06/2018 17:35 UTC,30.0,62.24,47.66,58.85,12.66,40.0,,,,,,1.0,,,,10.0,,KIGQ 061735Z AUTO 04011KT 10SM CLR 17/09 A3000 RMK AO2  T01680087,,,,,,47.57,,NE,29.35,28.97,,Clear
KIGQ,05/06/2018 17:55 UTC,30.01,59.9,46.22,60.55,13.8,30.0,,,,,,1.0,,,,10.0,,KIGQ 061755Z AUTO 03012KT 10SM CLR 16/08 A3001 RMK AO2 T01550079  10200 20122,68.0,53.96,,,,46.12,,NNE,29.36,29.05,,Clear
KIGQ,05/06/2018 18:15 UTC,30.01,60.44,46.58,60.21,12.66,30.0,16.11,,,,,1.0,,,,10.0,,KIGQ 061815Z AUTO 03011G14KT 10SM CLR 16/08 A3001 RMK AO2  T01580081,,,,,,46.48,,NNE,29.36,29.04,,Clear
KIGQ,05/06/2018 18:35 UTC,30.02,61.52,46.04,56.78,12.66,10.0,,,,,,1.0,,,,10.0,,KIGQ 061835Z AUTO 01011KT 10SM CLR 16/08 A3002 RMK AO2  T01640078,,,,,,45.94,,N,29.37,29.05,,Clear
KIGQ,05/06/2018 18:55 UTC,30.02,60.44,44.96,56.63,14.97,10.0,19.57,,,,,1.0,,,,10.0,,KIGQ 061855Z AUTO 01013G17KT 10SM CLR 16/07 A3002 RMK AO2  T01580072,,,,,,44.85,,N,29.37,29.1,,Clear
KIGQ,05/06/2018 19:15 UTC,30.03,59.0,43.7,56.81,13.8,30.0,17.27,,,,,1.0,,,,10.0,,KIGQ 061915Z AUTO 03012G15KT 10SM CLR 15/07 A3003 RMK AO2  T01500065,,,,,,43.58,,NNE,29.38,29.16,,Clear
KIGQ,05/06/2018 19:35 UTC,30.02,60.08,43.52,54.29,11.5,20.0,17.27,,,,,1.0,,,,10.0,,KIGQ 061935Z AUTO 02010G15KT 10SM CLR 16/06 A3002 RMK AO2  T01560064,,,,,,43.4,,NNE,29.37,29.15,,Clear
KIGQ,05/06/2018 19:55 UTC,30.03,61.88,44.78,53.45,10.36,360.0,17.27,,,,,1.0,,,,10.0,,KIGQ 061955Z AUTO 36009G15KT 10SM CLR 17/07 A3003 RMK AO2  T01660071,,,,,,44.67,,N,29.38,29.1,,Clear
KIGQ,05/06/2018 20:15 UTC,30.03,60.98,42.08,49.76,14.97,10.0,19.57,,,,,1.0,,,,10.0,,KIGQ 062015Z AUTO 01013G17KT 10SM CLR 16/06 A3003 RMK AO2 LTG DSNT  E T01610056,,,,,,41.96,,N,29.38,29.19,,Clear
KIGQ,05/06/2018 20:35 UTC,30.02,61.52,42.62,49.84,16.11,20.0,20.71,,,,,1.0,,,,10.0,,KIGQ 062035Z AUTO 02014G18KT 10SM CLR 16/06 A3002 RMK AO2  T01640059,,,,,,42.5,,NNE,29.37,29.16,,Clear
KIGQ,05/06/2018 20:55 UTC,30.03,60.98,41.54,48.73,11.5,20.0,19.57,,,,,1.0,,,,10.0,,KIGQ 062055Z AUTO 02010G17KT 10SM CLR 16/05 A3003 RMK AO2  T01610053,,,,,,41.41,,NNE,29.38,29.21,,Clear
KIGQ,05/06/2018 21:15 UTC,30.03,61.16,41.54,48.42,13.8,20.0,20.71,,,,,1.0,,,,10.0,,KIGQ 062115Z AUTO 02012G18KT 10SM CLR 16/05 A3003 RMK AO2  T01620053,,,,,,41.41,,NNE,29.38,29.21,,Clear
KIGQ,05/06/2018 21:35 UTC,30.04,60.08,40.82,48.93,11.5,20.0,21.85,,,,,1.0,,,,10.0,,KIGQ 062135Z AUTO 02010G19KT 10SM CLR 16/05 A3004 RMK AO2 LTG DSNT  S T01560049,,,,,,40.69,,NNE,29.39,29.24,,Clear
KIGQ,05/06/2018 21:55 UTC,30.04,58.64,42.62,55.21,13.8,20.0,21.85,,,,,1.0,,,,10.0,,KIGQ 062155Z AUTO 02012G19KT 10SM CLR 15/06 A3004 RMK AO2  T01480059,,,,,,42.5,,NNE,29.39,29.2,,Clear
KIGQ,05/06/2018 22:15 UTC,30.05,57.2,42.08,56.95,12.66,10.0,25.32,,,,,1.0,,,,10.0,,KIGQ 062215Z AUTO 01011G22KT 10SM CLR 14/06 A3005 RMK AO2  T01400056,,,,,,41.96,,N,29.4,29.24,,Clear
KIGQ,05/06/2018 22:35 UTC,30.05,57.02,41.54,56.13,12.66,360.0,20.71,,,,,1.0,,,,10.0,,KIGQ 062235Z AUTO 36011G18KT 10SM CLR 14/05 A3005 RMK AO2  T01390053,,,,,,41.41,,N,29.4,29.26,,Clear
KIGQ,05/06/2018 22:55 UTC,30.06,56.48,41.9,58.04,14.97,360.0,19.57,,,,,1.0,,,,10.0,,KIGQ 062255Z AUTO 36013G17KT 10SM CLR 14/06 A3006 RMK AO2  T01360055,,,,,,41.78,,N,29.41,29.26,,Clear
KIGQ,05/06/2018 23:15 UTC,30.06,55.94,42.26,60.01,13.8,10.0,19.57,,,,,1.0,,,,10.0,,KIGQ 062315Z AUTO 01012G17KT 10SM CLR 13/06 A3006 RMK AO2  T01330057,,,,,,42.14,,N,29.41,29.25,,Clear
KIGQ,05/06/2018 23:35 UTC,30.06,55.58,43.7,64.25,11.5,20.0,17.27,,,,,1.0,,,,10.0,,KIGQ 062335Z AUTO 02010G15KT 10SM CLR 13/07 A3006 RMK AO2  T01310065,,,,,,43.59,,NNE,29.41,29.22,,Clear
KIGQ,05/06/2018 23:55 UTC,30.07,54.86,43.7,65.95,13.8,20.0,19.57,,,,,1.0,,,,10.0,,KIGQ 062355Z AUTO 02012G17KT 10SM CLR 13/07 A3007 RMK AO2  T01270065 10167 20127,62.06,54.86,,,,43.59,,NNE,29.42,29.23,,Clear
KIGQ,05/07/2018 00:15 UTC,30.08,54.14,43.88,68.17,12.66,10.0,18.41,,,,,1.0,,,,10.0,,KIGQ 070015Z AUTO 01011G16KT 10SM CLR 12/07 A3008 RMK AO2  T01230066,,,,,,43.78,,N,29.43,29.24,,Clear
KIGQ,05/07/2018 00:35 UTC,30.08,52.7,44.24,72.86,5.75,20.0,,,,,,1.0,,,,10.0,,KIGQ 070035Z AUTO 02005KT 10SM CLR 12/07 A3008 RMK AO2  T01150068,,,,,,44.15,,NNE,29.43,29.25,,Clear
KIGQ,05/07/2018 00:55 UTC,30.09,50.9,43.7,76.27,12.66,30.0,18.41,,,,,1.0,,,,10.0,,KIGQ 070055Z AUTO 03011G16KT 10SM CLR 11/07 A3009 RMK AO2  T01050065,,,,,,43.62,,NNE,29.44,29.29,,Clear
KIGQ,05/07/2018 01:15 UTC,30.1,49.64,43.52,79.37,9.22,10.0,,,,,,1.0,,,,10.0,,KIGQ 070115Z AUTO 01008KT 10SM CLR 10/06 A3010 RMK AO2  T00980064,,,,,,43.45,,N,29.45,29.31,,Clear
KIGQ,05/07/2018 01:35 UTC,30.11,49.64,43.34,78.83,10.36,10.0,,,,,,1.0,,,,10.0,,KIGQ 070135Z AUTO 01009KT 10SM CLR 10/06 A3011 RMK AO2  T00980063,,,,,,43.27,,N,29.46,29.33,,Clear
KIGQ,05/07/2018 01:55 UTC,30.12,49.64,43.52,79.37,4.61,40.0,,,,,,1.0,,,,10.0,,KIGQ 070155Z AUTO 04004KT 10SM CLR 10/06 A3012 RMK AO2 LTG DSNT SW  T00980064,,,,,,43.45,,NE,29.47,29.33,,Clear
KIGQ,05/07/2018 02:15 UTC,30.13,49.46,43.7,80.46,6.91,20.0,,,,,,1.0,,,,10.0,,KIGQ 070215Z AUTO 02006KT 10SM CLR 10/07 A3013 RMK AO2  T00970065,,,,,,43.63,,NNE,29.47,29.33,,Clear
KIGQ,05/07/2018 02:35 UTC,30.13,49.1,42.98,79.33,5.75,360.0,,,,,,1.0,,,,10.0,,KIGQ 070235Z AUTO 36005KT 10SM CLR 10/06 A3013 RMK AO2  T00950061,,,,,,42.91,,N,29.47,29.35,,Clear
KIGQ,05/07/2018 02:55 UTC,30.14,49.28,42.8,78.25,5.75,340.0,,,,,,1.0,,,,10.0,,KIGQ 070255Z AUTO 34005KT 10SM CLR 10/06 A3014 RMK AO2  T00960060,,,,,,42.72,,NNW,29.48,29.37,,Clear
KIGQ,05/07/2018 03:15 UTC,30.14,48.74,42.8,79.85,3.44,20.0,,,,,,1.0,,,,10.0,,KIGQ 070315Z AUTO 02003KT 10SM CLR 09/06 A3014 RMK AO2  T00930060,,,,,,42.73,,NNE,29.48,29.37,,Clear
KIGQ,05/07/2018 03:35 UTC,30.14,48.38,42.8,80.93,0.0,0.0,,,,,,1.0,,,,10.0,,KIGQ 070335Z AUTO 00000KT 10SM CLR 09/06 A3014 RMK AO2  T00910060,,,,,,42.73,,N,29.48,29.37,,Clear
KIGQ,05/07/2018 03:55 UTC,30.14,48.38,42.8,80.93,0.0,0.0,,,,,,1.0,,,,10.0,,KIGQ 070355Z AUTO 00000KT 10SM CLR 09/06 A3014 RMK AO2  T00910060,,,,,,42.73,,N,29.48,29.37,,Clear
KIGQ,05/07/2018 04:15 UTC,30.15,48.02,42.44,80.9,0.0,0.0,,,,,,1.0,,,,10.0,,KIGQ 070415Z AUTO 00000KT 10SM CLR 09/06 A3015 RMK AO2  T00890058,,,,,,42.37,,N,29.49,29.4,,Clear
KIGQ,05/07/2018 04:35 UTC,30.15,48.38,42.44,79.82,0.0,0.0,,,,,,1.0,,,,10.0,,KIGQ 070435Z AUTO 00000KT 10SM CLR 09/06 A3015 RMK AO2  T00910058,,,,,,42.37,,N,29.49,29.39,,Clear
KIGQ,05/07/2018 04:55 UTC,30.15,47.48,42.08,81.42,0.0,0.0,,,,,,1.0,,,,10.0,,KIGQ 070455Z AUTO 00000KT 10SM CLR 09/06 A3015 RMK AO2  T00860056,,,,,,42.01,,N,29.49,29.41,,Clear
KIGQ,05/07/2018 05:15 UTC,30.15,47.66,41.9,80.32,0.0,0.0,,,,,,1.0,,,,10.0,,KIGQ 070515Z AUTO 00000KT 10SM CLR 09/06 A3015 RMK AO2  T00870055,,,,,,41.83,,N,29.49,29.41,,Clear
KIGQ,05/07/2018 05:35 UTC,30.15,47.48,41.9,80.86,0.0,0.0,,,,,,1.0,,,,10.0,,KIGQ 070535Z AUTO 00000KT 10SM CLR 09/06 A3015 RMK AO2  T00860055,,,,,,41.83,,N,29.49,29.41,,Clear
KIGQ,05/07/2018 05:55 UTC,30.14,47.3,41.9,81.41,0.0,0.0,,,,,,1.0,,,,10.0,,KIGQ 070555Z AUTO 00000KT 10SM CLR 09/06 A3014 RMK AO2 T00850055  10126 20085 402000085,54.68,47.3,,68.0,47.3,41.83,,N,29.48,29.4,,Clear
KIGQ,05/07/2018 06:15 UTC,30.15,47.3,41.9,81.41,0.0,0.0,,,,,,1.0,,,,10.0,,KIGQ 070615Z AUTO 00000KT 10SM CLR 09/06 A3015 RMK AO2  T00850055,,,,,,41.83,,N,29.49,29.42,,Clear
KIGQ,05/07/2018 06:35 UTC,30.15,47.48,41.9,80.86,0.0,0.0,,,,,,1.0,,,,10.0,,KIGQ 070635Z AUTO 00000KT 10SM CLR 09/06 A3015 RMK AO2  T00860055,,,,,,41.83,,N,29.49,29.41,,Clear
KIGQ,05/07/2018 06:55 UTC,30.15,47.48,41.54,79.75,0.0,0.0,,,,,,1.0,,,,10.0,,KIGQ 070655Z AUTO 00000KT 10SM CLR 09/05 A3015 RMK AO2  T00860053,,,,,,41.47,,N,29.49,29.42,,Clear
KIGQ,05/07/2018 07:15 UTC,30.15,47.12,41.9,81.96,0.0,0.0,,,,,,1.0,,,,10.0,,KIGQ 070715Z AUTO 00000KT 10SM CLR 08/06 A3015 RMK AO2  T00840055,,,,,,41.83,,N,29.49,29.42,,Clear
KIGQ,05/07/2018 07:35 UTC,30.15,46.58,42.26,84.82,0.0,0.0,,,,,,1.0,,,,10.0,,KIGQ 070735Z AUTO 00000KT 10SM CLR 08/06 A3015 RMK AO2  T00810057,,,,,,42.21,,N,29.49,29.41,,Clear
KIGQ,05/07/2018 07:55 UTC,30.15,46.58,42.08,84.23,0.0,0.0,,,,,,1.0,,,,10.0,,KIGQ 070755Z AUTO 00000KT 10SM CLR 08/06 A3015 RMK AO2  T00810056,,,,,,42.02,,N,29.49,29.42,,Clear
KIGQ,05/07/2018 08:15 UTC,30.16,46.76,42.62,85.42,0.0,0.0,,,,,,1.0,,,,10.0,,KIGQ 070815Z AUTO 00000KT 10SM CLR 08/06 A3016 RMK AO2  T00820059,,,,,,42.57,,N,29.5,29.41,,Clear
KIGQ,05/07/2018 08:35 UTC,30.16,46.76,42.62,85.42,0.0,0.0,,,,,,1.0,,,,10.0,,KIGQ 070835Z AUTO 00000KT 10SM CLR 08/06 A3016 RMK AO2  T00820059,,,,,,42.57,,N,29.5,29.41,,Clear
KIGQ,05/07/2018 08:55 UTC,30.17,46.4,42.98,87.79,0.0,0.0,,,,,,1.0,,,,10.0,,KIGQ 070855Z AUTO 00000KT 10SM CLR 08/06 A3017 RMK AO2  T00800061,,,,,,42.94,,N,29.51,29.42,,Clear
KIGQ,05/07/2018 09:15 UTC,30.17,46.58,43.34,88.41,0.0,0.0,,,,,,1.0,,,,10.0,,KIGQ 070915Z AUTO 00000KT 10SM CLR 08/06 A3017 RMK AO2  T00810063,,,,,,43.3,,N,29.51,29.4,,Clear
KIGQ,05/07/2018 09:35 UTC,30.18,46.76,43.7,89.03,0.0,0.0,,,,,,1.0,,,,10.0,,KIGQ 070935Z AUTO 00000KT 10SM CLR 08/07 A3018 RMK AO2  T00820065,,,,,,43.66,,N,29.52,29.4,,Clear
KIGQ,05/07/2018 09:55 UTC,30.18,46.22,43.52,90.24,0.0,0.0,,,,,,1.0,,,,10.0,,KIGQ 070955Z AUTO 00000KT 10SM CLR 08/06 A3018 RMK AO2  T00790064,,,,,,43.49,,N,29.52,29.41,,Clear
KIGQ,05/07/2018 10:15 UTC,30.19,45.68,42.8,89.6,0.0,0.0,,,,,,1.0,,,,10.0,,KIGQ 071015Z AUTO 00000KT 10SM CLR 08/06 A3019 RMK AO2  T00760060,,,,,,42.76,,N,29.53,29.45,,Clear
KIGQ,05/07/2018 10:35 UTC,30.19,45.68,42.44,88.36,0.0,0.0,,,,,,1.0,,,,10.0,,KIGQ 071035Z AUTO 00000KT 10SM CLR 08/06 A3019 RMK AO2  T00760058,,,,,,42.4,,N,29.53,29.46,,Clear
KIGQ,05/07/2018 10:55 UTC,30.2,45.14,42.62,90.82,0.0,0.0,,,,,,1.0,,,,10.0,,KIGQ 071055Z AUTO 00000KT 10SM CLR 07/06 A3020 RMK AO2  T00730059,,,,,,42.59,,N,29.54,29.47,,Clear
KIGQ,05/07/2018 11:15 UTC,30.2,45.86,42.8,88.99,0.0,0.0,,,,,,1.0,,,,10.0,,KIGQ 071115Z AUTO 00000KT 10SM CLR 08/06 A3020 RMK AO2  T00770060,,,,,,42.76,,N,29.54,29.46,,Clear
KIGQ,05/07/2018 11:35 UTC,30.21,46.58,42.98,87.2,0.0,0.0,,,,,,1.0,,,,10.0,,KIGQ 071135Z AUTO 00000KT 10SM CLR 08/06 A3021 RMK AO2  T00810061,,,,,,42.94,,N,29.55,29.45,,Clear
KIGQ,05/07/2018 11:55 UTC,30.21,47.84,44.06,86.67,3.44,50.0,,,,,,1.0,,,,10.0,,KIGQ 071155Z AUTO 05003KT 10SM CLR 09/07 A3021 RMK AO2 T00880067  10088 20071,47.84,44.78,,,,44.01,,NE,29.55,29.41,,Clear
KIGQ,05/07/2018 12:15 UTC,30.22,49.28,44.42,83.26,3.44,50.0,,,,,,1.0,,,,10.0,,KIGQ 071215Z AUTO 05003KT 10SM CLR 10/07 A3022 RMK AO2  T00960069,,,,,,44.36,,NE,29.56,29.4,,Clear
KIGQ,05/07/2018 12:35 UTC,30.23,50.72,44.78,80.01,0.0,0.0,,,,,,1.0,,,,10.0,,KIGQ 071235Z AUTO 00000KT 10SM CLR 10/07 A3023 RMK AO2  T01040071,,,,,,44.71,,N,29.57,29.39,,Clear
KIGQ,05/07/2018 12:55 UTC,30.23,52.7,45.32,75.92,0.0,0.0,,,,,,1.0,,,,10.0,,KIGQ 071255Z AUTO 00000KT 10SM CLR 12/07 A3023 RMK AO2  T01150074,,,,,,45.25,,N,29.57,29.36,,Clear
KIGQ,05/07/2018 13:15 UTC,30.23,53.96,45.68,73.49,3.44,30.0,,,,,,1.0,,,,10.0,,KIGQ 071315Z AUTO 03003KT 10SM CLR 12/08 A3023 RMK AO2  T01220076,,,,,,45.6,,NNE,29.57,29.33,,Clear
KIGQ,05/07/2018 13:35 UTC,30.23,55.4,45.5,69.26,0.0,0.0,,,,,,1.0,,,,10.0,,KIGQ 071335Z AUTO 00000KT 10SM CLR 13/08 A3023 RMK AO2  T01300075,,,,,,45.41,,N,29.57,29.33,,Clear
KIGQ,05/07/2018 13:55 UTC,30.23,56.84,45.86,66.65,3.44,340.0,,,,,,1.0,,,,10.0,,KIGQ 071355Z AUTO 34003KT 10SM CLR 14/08 A3023 RMK AO2  T01380077,,,,,,45.77,,NNW,29.57,29.3,,Clear
KIGQ,05/07/2018 14:15 UTC,30.24,58.1,46.22,64.57,0.0,0.0,,,,,,1.0,,,,10.0,,KIGQ 071415Z AUTO 00000KT 10SM CLR 15/08 A3024 RMK AO2  T01450079,,,,,,46.12,,N,29.58,29.29,,Clear
KIGQ,05/07/2018 14:35 UTC,30.24,60.26,47.12,61.85,0.0,0.0,,,,,,1.0,,,,10.0,,KIGQ 071435Z AUTO 00000KT 10SM CLR 16/08 A3024 RMK AO2  T01570084,,,,,,47.03,,N,29.58,29.24,,Clear
KIGQ,05/07/2018 14:55 UTC,30.24,61.7,46.58,57.59,4.61,70.0,,,,,,1.0,,,,10.0,,KIGQ 071455Z AUTO 07004KT 10SM CLR 17/08 A3024 RMK AO2  T01650081,,,,,,46.48,,ENE,29.58,29.25,,Clear
KIGQ,05/07/2018 15:15 UTC,30.24,62.24,44.96,53.14,0.0,0.0,,,,,,1.0,,,,10.0,,KIGQ 071515Z AUTO 00000KT 10SM CLR 17/07 A3024 RMK AO2  T01680072,,,,,,44.85,,N,29.58,29.3,,Clear
KIGQ,05/07/2018 15:35 UTC,30.24,63.68,45.68,51.92,0.0,0.0,,,,,,1.0,,,,10.0,,KIGQ 071535Z AUTO 00000KT 10SM CLR 18/08 A3024 RMK AO2  T01760076,,,,,,45.58,,N,29.58,29.26,,Clear
KIGQ,05/07/2018 15:55 UTC,30.24,64.58,46.22,51.35,0.0,0.0,,,,,,1.0,,,,10.0,,KIGQ 071555Z AUTO 00000KT 10SM CLR 18/08 A3024 RMK AO2  T01810079,,,,,,46.12,,N,29.58,29.24,,Clear
KIGQ,05/07/2018 16:15 UTC,30.24,65.3,45.5,48.73,0.0,0.0,,,,,,1.0,,,,10.0,,KIGQ 071615Z AUTO 00000KT 10SM CLR 19/08 A3024 RMK AO2  T01850075,,,,,,45.4,,N,29.58,29.26,,Clear
KIGQ,05/07/2018 16:35 UTC,30.24,66.2,47.12,50.22,4.61,40.0,,,,,,1.0,,,,10.0,,KIGQ 071635Z AUTO 04004KT 10SM CLR 19/08 A3024 RMK AO2  T01900084,,,,,,47.03,,NE,29.58,29.19,,Clear
KIGQ,05/07/2018 16:55 UTC,30.23,67.64,47.12,47.79,0.0,0.0,,,,,,1.0,,,,10.0,,KIGQ 071655Z AUTO 00000KT 10SM CLR 20/08 A3023 RMK AO2  T01980084,,,,,,47.04,,N,29.57,29.17,,Clear
KIGQ,05/07/2018 17:15 UTC,30.22,67.82,46.94,47.17,0.0,0.0,,,,,,1.0,,,,10.0,,KIGQ 071715Z AUTO 00000KT 10SM CLR 20/08 A3022 RMK AO2  T01990083,,,,,,46.86,,N,29.56,29.17,,Clear
KIGQ,05/07/2018 17:35 UTC,30.22,68.0,45.68,44.7,4.61,360.0,,,,,,1.0,,,,10.0,,KIGQ 071735Z AUTO 36004KT 10SM CLR 20/08 A3022 RMK AO2  T02000076,,,,,,45.59,,N,29.56,29.21,,Clear
KIGQ,05/07/2018 17:55 UTC,30.21,68.54,46.4,45.09,5.75,50.0,,,,,,1.0,,,,10.0,,KIGQ 071755Z AUTO 05005KT 10SM CLR 20/08 A3021 RMK AO2 T02030080  10204 20089,68.72,48.02,,,,46.32,,NE,29.55,29.17,,Clear
KIGQ,05/07/2018 18:15 UTC,30.21,69.26,47.12,45.2,6.91,50.0,,,,,,1.0,,,,10.0,,KIGQ 071815Z AUTO 05006KT 10SM CLR 21/08 A3021 RMK AO2  T02070084,,,,,,47.04,,NE,29.55,29.14,,Clear
KIGQ,05/07/2018 18:35 UTC,30.21,69.08,46.76,44.87,5.75,70.0,,,,,,1.0,,,,10.0,,KIGQ 071835Z AUTO 07005KT 10SM CLR 21/08 A3021 RMK AO2  T02060082,,,,,,46.68,,ENE,29.55,29.15,,Clear
KIGQ,05/07/2018 18:55 UTC,30.21,69.26,46.04,43.4,4.61,60.0,,,,,,1.0,,,,10.0,,KIGQ 071855Z AUTO 06004KT 10SM CLR 21/08 A3021 RMK AO2  T02070078,,,,,,45.96,,ENE,29.55,29.18,,Clear
KIGQ,05/07/2018 19:15 UTC,30.2,69.8,47.48,44.98,6.91,40.0,,,,,,1.0,,,,10.0,,KIGQ 071915Z AUTO 04006KT 10SM CLR 21/09 A3020 RMK AO2  T02100086,,,,,,47.41,,NE,29.54,29.11,,Clear
KIGQ,05/07/2018 19:35 UTC,30.2,69.08,46.94,45.18,4.61,50.0,,,,,,1.0,,,,10.0,,KIGQ 071935Z AUTO 05004KT 10SM CLR 21/08 A3020 RMK AO2  T02060083,,,,,,46.87,,NE,29.54,29.14,,Clear
KIGQ,05/07/2018 19:55 UTC,30.19,69.44,45.32,41.97,3.44,10.0,,,,,,1.0,,,,10.0,,KIGQ 071955Z AUTO 01003KT 10SM CLR 21/07 A3019 RMK AO2  T02080074,,,,,,45.24,,N,29.53,29.18,,Clear
KIGQ,05/07/2018 20:15 UTC,30.19,69.8,44.96,40.9,4.61,70.0,,,,,,1.0,,,,10.0,,KIGQ 072015Z AUTO 07004KT 10SM CLR 21/07 A3019 RMK AO2  T02100072,,,,,,44.89,,ENE,29.53,29.19,,Clear
KIGQ,05/07/2018 20:35 UTC,30.18,70.16,44.96,40.4,5.75,30.0,,,,,,1.0,,,,10.0,,KIGQ 072035Z AUTO 03005KT 10SM CLR 21/07 A3018 RMK AO2  T02120072,,,,,,44.89,,NNE,29.52,29.18,,Clear
KIGQ,05/07/2018 20:55 UTC,30.18,70.16,44.42,39.58,8.05,70.0,,,,,,1.0,,,,10.0,,KIGQ 072055Z AUTO 07007KT 10SM CLR 21/07 A3018 RMK AO2  T02120069,,,,,,44.35,,ENE,29.52,29.19,,Clear
KIGQ,05/07/2018 21:15 UTC,30.17,70.52,44.42,39.09,5.75,60.0,,,,,,1.0,,,,10.0,,KIGQ 072115Z AUTO 06005KT 10SM CLR 21/07 A3017 RMK AO2  T02140069,,,,,,44.35,,ENE,29.51,29.18,,Clear
KIGQ,05/07/2018 21:35 UTC,30.17,70.34,44.06,38.8,5.75,80.0,,,,,,1.0,,,,10.0,,KIGQ 072135Z AUTO 08005KT 10SM CLR 21/07 A3017 RMK AO2  T02130067,,,,,,43.99,,E,29.51,29.2,,Clear
KIGQ,05/07/2018 21:55 UTC,30.17,70.52,44.96,39.91,5.75,50.0,,,,,,1.0,,,,10.0,,KIGQ 072155Z AUTO 05005KT 10SM CLR 21/07 A3017 RMK AO2  T02140072,,,,,,44.89,,NE,29.51,29.16,,Clear
KIGQ,05/07/2018 22:15 UTC,30.17,70.34,44.24,39.07,4.61,60.0,,,,,,1.0,,,,10.0,,KIGQ 072215Z AUTO 06004KT 10SM CLR 21/07 A3017 RMK AO2  T02130068,,,,,,44.17,,ENE,29.51,29.19,,Clear
KIGQ,05/07/2018 22:35 UTC,30.17,70.16,44.78,40.12,0.0,0.0,,,,,,1.0,,,,10.0,,KIGQ 072235Z AUTO 00000KT 10SM CLR 21/07 A3017 RMK AO2  T02120071,,,,,,44.7,,N,29.51,29.17,,Clear
KIGQ,05/07/2018 22:55 UTC,30.16,70.16,44.42,39.58,4.61,60.0,,,,,,1.0,,,,10.0,,KIGQ 072255Z AUTO 06004KT 10SM CLR 21/07 A3016 RMK AO2  T02120069,,,,,,44.35,,ENE,29.5,29.17,,Clear
KIGQ,05/07/2018 23:15 UTC,30.16,69.44,44.96,41.4,8.05,90.0,,,,,,1.0,,,,10.0,,KIGQ 072315Z AUTO 09007KT 10SM CLR 21/07 A3016 RMK AO2  T02080072,,,,,,44.88,,E,29.5,29.16,,Clear
KIGQ,05/07/2018 23:35 UTC,30.15,68.9,43.16,39.37,5.75,90.0,,,,,,1.0,,,,10.0,,KIGQ 072335Z AUTO 09005KT 10SM CLR 21/06 A3015 RMK AO2  T02050062,,,,,,43.07,,E,29.49,29.21,,Clear
KIGQ,05/07/2018 23:55 UTC,30.15,68.0,44.6,42.9,5.75,100.0,,,,,,1.0,,,,10.0,,KIGQ 072355Z AUTO 10005KT 10SM CLR 20/07 A3015 RMK AO2 T02000070  10216 20200,70.88,68.0,,,,44.51,,E,29.49,29.17,,Clear
KIGQ,05/08/2018 00:15 UTC,30.15,66.92,43.88,43.32,5.75,100.0,,,,,,1.0,,,,10.0,,KIGQ 080015Z AUTO 10005KT 10SM CLR 19/07 A3015 RMK AO2  T01940066,,,,,,43.78,,E,29.49,29.21,,Clear
KIGQ,05/08/2018 00:35 UTC,30.15,66.2,43.88,44.41,5.75,120.0,,,,,,1.0,,,,10.0,,KIGQ 080035Z AUTO 12005KT 10SM CLR 19/07 A3015 RMK AO2  T01900066,,,,,,43.78,,ESE,29.49,29.21,,Clear
KIGQ,05/08/2018 00:55 UTC,30.15,65.3,43.16,44.57,4.61,120.0,,,,,,1.0,,,,10.0,,KIGQ 080055Z AUTO 12004KT 10SM CLR 19/06 A3015 RMK AO2  T01850062,,,,,,43.05,,ESE,29.49,29.24,,Clear
KIGQ,05/08/2018 01:15 UTC,30.15,65.3,42.8,43.96,4.61,130.0,,,,,,1.0,,,,10.0,,KIGQ 080115Z AUTO 13004KT 10SM CLR 19/06 A3015 RMK AO2  T01850060,,,,,,42.69,,SE,29.49,29.25,,Clear
KIGQ,05/08/2018 01:35 UTC,30.15,63.68,42.8,46.52,0.0,0.0,,,,,,1.0,,,,10.0,,KIGQ 080135Z AUTO 00000KT 10SM CLR 18/06 A3015 RMK AO2  T01760060,,,,,,42.69,,N,29.49,29.26,,Clear
KIGQ,05/08/2018 01:55 UTC,30.15,61.52,43.52,51.59,0.0,0.0,,,,,,1.0,,,,10.0,,KIGQ 080155Z AUTO 00000KT 10SM CLR 16/06 A3015 RMK AO2  T01640064,,,,,,43.4,,N,29.49,29.26,,Clear
KIGQ,05/08/2018 02:15 UTC,30.15,58.82,44.6,59.18,0.0,0.0,,,,,,1.0,,,,10.0,,KIGQ 080215Z AUTO 00000KT 10SM CLR 15/07 A3015 RMK AO2  T01490070,,,,,,44.49,,N,29.49,29.24,,Clear
KIGQ,05/08/2018 02:35 UTC,30.16,57.38,44.96,63.17,0.0,0.0,,,,,,1.0,,,,10.0,,KIGQ 080235Z AUTO 00000KT 10SM CLR 14/07 A3016 RMK AO2  T01410072,,,,,,44.86,,N,29.5,29.26,,Clear
KIGQ,05/08/2018 02:55 UTC,30.16,57.02,44.42,62.69,0.0,0.0,,,,,,1.0,,,,10.0,,KIGQ 080255Z AUTO 00000KT 10SM CLR 14/07 A3016 RMK AO2  T01390069,,,,,,44.31,,N,29.5,29.28,,Clear
KIGQ,05/08/2018 03:15 UTC,30.16,57.74,44.24,60.67,3.44,160.0,,,,,,1.0,,,,10.0,,KIGQ 080315Z AUTO 16003KT 10SM CLR 14/07 A3016 RMK AO2  T01430068,,,,,,44.13,,SSE,29.5,29.27,,Clear
KIGQ,05/08/2018 03:35 UTC,30.15,58.28,43.7,58.29,3.44,150.0,,,,,,1.0,,,,10.0,,KIGQ 080335Z AUTO 15003KT 10SM CLR 15/07 A3015 RMK AO2  T01460065,,,,,,43.58,,SSE,29.49,29.28,,Clear
KIGQ,05/08/2018 03:55 UTC,30.15,59.54,44.24,56.89,3.44,150.0,,,,,,1.0,,,,10.0,,KIGQ 080355Z AUTO 15003KT 10SM CLR 15/07 A3015 RMK AO2  T01530068,,,,,,44.13,,SSE,29.49,29.25,,Clear
KIGQ,05/08/2018 04:15 UTC,30.15,58.28,43.88,58.7,0.0,0.0,,,,,,1.0,,,,10.0,,KIGQ 080415Z AUTO 00000KT 10SM CLR 15/07 A3015 RMK AO2  T01460066,,,,,,43.77,,N,29.49,29.27,,Clear
KIGQ,05/08/2018 04:35 UTC,30.15,56.66,43.7,61.79,0.0,0.0,,,,,,1.0,,,,10.0,,KIGQ 080435Z AUTO 00000KT 10SM CLR 14/07 A3015 RMK AO2  T01370065,,,,,,43.59,,N,29.49,29.29,,Clear
KIGQ,05/08/2018 04:55 UTC,30.14,57.38,43.7,60.21,0.0,0.0,,,,,,1.0,,,,10.0,,KIGQ 080455Z AUTO 00000KT 10SM CLR 14/07 A3014 RMK AO2  T01410065,,,,,,43.59,,N,29.48,29.27,,Clear
KIGQ,05/08/2018 05:15 UTC,30.14,54.5,43.52,66.37,0.0,0.0,,,,,,1.0,,,,10.0,,KIGQ 080515Z AUTO 00000KT 10SM CLR 13/06 A3014 RMK AO2  T01250064,,,,,,43.42,,N,29.48,29.3,,Clear
KIGQ,05/08/2018 05:35 UTC,30.14,56.84,44.06,62.24,0.0,0.0,,,,,,1.0,,,,10.0,,KIGQ 080535Z AUTO 00000KT 10SM CLR 14/07 A3014 RMK AO2  T01380067,,,,,,43.95,,N,29.48,29.27,,Clear
KIGQ,05/08/2018 05:55 UTC,30.14,55.22,44.24,66.45,0.0,0.0,,,,,,1.0,,,,10.0,,KIGQ 080555Z AUTO 00000KT 10SM CLR 13/07 A3014 RMK AO2 T01290068  10200 20125 402160071,68.0,54.5,,70.88,44.78,44.14,,N,29.48,29.28,,Clear
KIGQ,05/08/2018 06:15 UTC,30.14,54.32,44.42,69.14,0.0,0.0,,,,,,1.0,,,,10.0,,KIGQ 080615Z AUTO 00000KT 10SM CLR 12/07 A3014 RMK AO2  T01240069,,,,,,44.33,,N,29.48,29.28,,Clear
KIGQ,05/08/2018 06:35 UTC,30.14,55.76,43.88,64.27,0.0,0.0,,,,,,1.0,,,,10.0,,KIGQ 080635Z AUTO 00000KT 10SM CLR 13/07 A3014 RMK AO2  T01320066,,,,,,43.77,,N,29.48,29.28,,Clear
KIGQ,05/08/2018 06:55 UTC,30.14,53.78,44.24,70.03,0.0,0.0,,,,,,1.0,,,,10.0,,KIGQ 080655Z AUTO 00000KT 10SM CLR 12/07 A3014 RMK AO2  T01210068,,,,,,44.15,,N,29.48,29.29,,Clear
KIGQ,05/08/2018 07:15 UTC,30.14,54.86,43.88,66.41,4.61,190.0,,,,,,1.0,,,,10.0,,KIGQ 080715Z AUTO 19004KT 10SM CLR 13/07 A3014 RMK AO2  T01270066,,,,,,43.78,,S,29.48,29.29,,Clear
KIGQ,05/08/2018 07:35 UTC,30.14,53.42,44.06,70.47,0.0,0.0,,,,,,1.0,,,,10.0,,KIGQ 080735Z AUTO 00000KT 10SM CLR 12/07 A3014 RMK AO2  T01190067,,,,,,43.97,,N,29.48,29.3,,Clear
KIGQ,05/08/2018 07:55 UTC,30.14,53.06,43.7,70.43,0.0,0.0,,,,,,1.0,,,,10.0,,KIGQ 080755Z AUTO 00000KT 10SM CLR 12/07 A3014 RMK AO2  T01170065,,,,,,43.6,,N,29.48,29.31,,Clear
KIGQ,05/08/2018 08:15 UTC,30.14,53.06,43.7,70.43,0.0,0.0,,,,,,1.0,,,,10.0,,KIGQ 080815Z AUTO 00000KT 10SM CLR 12/07 A3014 RMK AO2  T01170065,,,,,,43.6,,N,29.48,29.31,,Clear
KIGQ,05/08/2018 08:35 UTC,30.14,52.52,44.06,72.84,0.0,0.0,,,,,,1.0,,,,10.0,,KIGQ 080835Z AUTO 00000KT 10SM CLR 11/07 A3014 RMK AO2  T01140067,,,,,,43.97,,N,29.48,29.3,,Clear
KIGQ,05/08/2018 08:55 UTC,30.15,52.7,43.88,71.86,0.0,0.0,,,,,,1.0,,,,10.0,,KIGQ 080855Z AUTO 00000KT 10SM CLR 12/07 A3015 RMK AO2  T01150066,,,,,,43.79,,N,29.49,29.32,,Clear
KIGQ,05/08/2018 09:15 UTC,30.15,53.06,44.24,71.9,0.0,0.0,,,,,,1.0,,,,10.0,,KIGQ 080915Z AUTO 00000KT 10SM CLR 12/07 A3015 RMK AO2  T01170068,,,,,,44.15,,N,29.49,29.3,,Clear
KIGQ,05/08/2018 09:35 UTC,30.15,52.88,43.88,71.39,0.0,0.0,,,,,,1.0,,,,10.0,,KIGQ 080935Z AUTO 00000KT 10SM CLR 12/07 A3015 RMK AO2  T01160066,,,,,,43.79,,N,29.49,29.32,,Clear
KIGQ,05/08/2018 09:55 UTC,30.15,52.7,43.7,71.37,0.0,0.0,,,,,,1.0,,,,10.0,,KIGQ 080955Z AUTO 00000KT 10SM CLR 12/07 A3015 RMK AO2  T01150065,,,,,,43.61,,N,29.49,29.32,,Clear
KIGQ,05/08/2018 10:15 UTC,30.15,50.9,43.7,76.27,0.0,0.0,,,,,,1.0,,,,10.0,,KIGQ 081015Z AUTO 00000KT 10SM CLR 11/07 A3015 RMK AO2  T01050065,,,,,,43.62,,N,29.49,29.34,,Clear
KIGQ,05/08/2018 10:35 UTC,30.16,52.16,43.7,72.8,0.0,0.0,,,,,,1.0,,,,10.0,,KIGQ 081035Z AUTO 00000KT 10SM CLR 11/07 A3016 RMK AO2  T01120065,,,,,,43.61,,N,29.5,29.34,,Clear
KIGQ,05/08/2018 10:55 UTC,30.16,51.26,43.7,75.26,0.0,0.0,,,,,,1.0,,,,10.0,,KIGQ 081055Z AUTO 00000KT 10SM CLR 11/07 A3016 RMK AO2  T01070065,,,,,,43.62,,N,29.5,29.34,,Clear
KIGQ,05/08/2018 11:15 UTC,30.17,53.6,43.34,68.11,0.0,0.0,,,,,,1.0,,,,10.0,,KIGQ 081115Z AUTO 00000KT 10SM CLR 12/06 A3017 RMK AO2  T01200063,,,,,,43.24,,N,29.51,29.34,,Clear
KIGQ,05/08/2018 11:35 UTC,30.17,53.42,43.34,68.56,0.0,0.0,,,,,,1.0,,,,10.0,,KIGQ 081135Z AUTO 00000KT 10SM CLR 12/06 A3017 RMK AO2  T01190063,,,,,,43.24,,N,29.51,29.35,,Clear
KIGQ,05/08/2018 11:55 UTC,30.18,54.5,47.48,77.12,0.0,0.0,,,,,,1.0,,,,10.0,,KIGQ 081155Z AUTO 00000KT 10SM CLR 13/09 A3018 RMK AO2 T01250086  10135 20100,56.3,50.0,,,,47.41,,N,29.52,29.22,,Clear
KIGQ,05/08/2018 12:15 UTC,30.18,57.2,47.84,70.89,4.61,210.0,,,,,,1.0,,,,10.0,,KIGQ 081215Z AUTO 21004KT 10SM CLR 14/09 A3018 RMK AO2  T01400088,,,,,,47.76,,SSW,29.52,29.18,,Clear
KIGQ,05/08/2018 12:35 UTC,30.18,58.82,47.48,65.99,4.61,190.0,,,,,,1.0,,,,10.0,,KIGQ 081235Z AUTO 19004KT 10SM CLR 15/09 A3018 RMK AO2  T01490086,,,,,,47.39,,S,29.52,29.18,,Clear
KIGQ,05/08/2018 12:55 UTC,30.18,61.52,47.84,60.77,4.61,200.0,,,,,,1.0,,,,10.0,,KIGQ 081255Z AUTO 20004KT 10SM CLR 16/09 A3018 RMK AO2  T01640088,,,,,,47.75,,SSW,29.52,29.15,,Clear
KIGQ,05/08/2018 13:15 UTC,30.18,63.5,46.76,54.43,5.75,210.0,,,,,,1.0,,,,10.0,,KIGQ 081315Z AUTO 21005KT 10SM CLR 18/08 A3018 RMK AO2  T01750082,,,,,,46.66,,SSW,29.52,29.17,,Clear
KIGQ,05/08/2018 13:35 UTC,30.19,65.12,46.4,50.74,6.91,220.0,,,,,,1.0,,,,10.0,,KIGQ 081335Z AUTO 22006KT 10SM CLR 18/08 A3019 RMK AO2  T01840080,,,,,,46.3,,SW,29.53,29.18,,Clear
KIGQ,05/08/2018 13:55 UTC,30.18,66.2,46.58,49.21,5.75,200.0,,,,,,1.0,,,,10.0,,KIGQ 081355Z AUTO 20005KT 10SM CLR 19/08 A3018 RMK AO2  T01900081,,,,,,46.49,,SSW,29.52,29.15,,Clear
KIGQ,05/08/2018 14:15 UTC,30.18,67.64,47.3,48.11,6.91,180.0,,,,,,1.0,,,,10.0,,KIGQ 081415Z AUTO 18006KT 10SM CLR 20/09 A3018 RMK AO2  T01980085,,,,,,47.22,,S,29.52,29.11,,Clear
KIGQ,05/08/2018 14:35 UTC,30.18,68.9,47.66,46.7,6.91,220.0,,,,,,1.0,,,,10.0,,KIGQ 081435Z AUTO 22006KT 10SM CLR 21/09 A3018 RMK AO2  T02050087,,,,,,47.58,,SW,29.52,29.09,,Clear
KIGQ,05/08/2018 14:55 UTC,30.18,70.34,48.38,45.68,6.91,190.0,,,,,,1.0,,,,10.0,,KIGQ 081455Z AUTO 19006KT 10SM CLR 21/09 A3018 RMK AO2  T02130091,,,,,,48.31,,S,29.52,29.05,,Clear
KIGQ,05/08/2018 15:15 UTC,30.18,71.42,48.38,44.04,8.05,230.0,,,,,,1.0,,,,10.0,,KIGQ 081515Z AUTO 23007KT 10SM CLR 22/09 A3018 RMK AO2  T02190091,,,,,,48.32,,SW,29.52,29.04,,Clear
KIGQ,05/08/2018 15:35 UTC,30.17,72.32,48.56,43.01,6.91,220.0,,,,,,1.0,,,,10.0,,KIGQ 081535Z AUTO 22006KT 10SM CLR 22/09 A3017 RMK AO2  T02240092,,,,,,48.51,,SW,29.51,29.02,,Clear
KIGQ,05/08/2018 15:55 UTC,30.16,73.4,48.92,42.04,8.05,210.0,,,,,,1.0,,,,10.0,,KIGQ 081555Z AUTO 21007KT 10SM CLR 23/09 A3016 RMK AO2  T02300094,,,,,,48.88,,SSW,29.5,28.99,,Clear
KIGQ,05/08/2018 16:15 UTC,30.17,74.12,48.38,40.21,5.75,190.0,,,,,,1.0,,,,10.0,,KIGQ 081615Z AUTO 19005KT 10SM CLR 23/09 A3017 RMK AO2  T02340091,,,,,,48.34,,S,29.51,29.01,,Clear
KIGQ,05/08/2018 16:35 UTC,30.17,74.84,48.38,39.26,4.61,270.0,,,,,,1.0,,,,10.0,,KIGQ 081635Z AUTO 27004KT 10SM CLR 24/09 A3017 RMK AO2  T02380091,,,,,,48.35,,W,29.51,29.01,,Clear
KIGQ,05/08/2018 16:55 UTC,30.16,75.2,48.38,38.79,4.61,320.0,,,,,,1.0,,,,10.0,,KIGQ 081655Z AUTO 32004KT 10SM CLR 24/09 A3016 RMK AO2  T02400091,,,,,,48.35,,NW,29.5,29.0,,Clear
KIGQ,05/08/2018 17:15 UTC,30.16,75.92,49.82,39.96,4.61,280.0,,,,,,1.0,,,,10.0,,KIGQ 081715Z AUTO 28004KT 10SM CLR 24/10 A3016 RMK AO2  T02440099,,,,,,49.8,,W,29.5,28.93,,Clear
KIGQ,05/08/2018 17:35 UTC,30.15,76.1,48.38,37.65,0.0,0.0,,,,,,1.0,,,,10.0,,KIGQ 081735Z AUTO 00000KT 10SM CLR 25/09 A3015 RMK AO2  T02450091,,,,,,48.37,,N,29.49,28.98,,Clear
KIGQ,05/08/2018 17:55 UTC,30.15,77.0,50.36,39.34,0.0,0.0,,,,,,1.0,,,,10.0,,KIGQ 081755Z AUTO 00000KT 10SM CLR 25/10 A3015 RMK AO2 T02500102  10250 20126,77.0,54.68,,,,50.35,,N,29.49,28.89,,Clear
KIGQ,05/08/2018 18:15 UTC,30.14,77.18,50.18,38.85,4.61,320.0,,,,,,1.0,,,,10.0,,KIGQ 081815Z AUTO 32004KT 10SM CLR 25/10 A3014 RMK AO2  T02510101,,,,,,50.18,,NW,29.48,28.89,,Clear
KIGQ,05/08/2018 18:35 UTC,30.13,77.9,51.8,40.28,4.61,160.0,,,,,,1.0,,,,10.0,,KIGQ 081835Z AUTO 16004KT 10SM CLR 26/11 A3013 RMK AO2  T02550110,,,,,,51.8,,SSE,29.47,28.8,,Clear
KIGQ,05/08/2018 18:55 UTC,30.13,77.72,50.36,38.42,0.0,0.0,,,,,,1.0,,,,10.0,,KIGQ 081855Z AUTO 00000KT 10SM CLR 25/10 A3013 RMK AO2  T02540102,,,,,,50.36,,N,29.47,28.87,,Clear
KIGQ,05/08/2018 19:15 UTC,30.12,78.08,50.0,37.46,3.44,150.0,,,,,,1.0,,,,10.0,,KIGQ 081915Z AUTO 15003KT 10SM CLR 26/10 A3012 RMK AO2  T02560100,,,,,,50.0,,SSE,29.47,28.88,,Clear
KIGQ,05/08/2018 19:35 UTC,30.11,78.26,50.0,37.24,4.61,170.0,,,,,,1.0,,,,10.0,,KIGQ 081935Z AUTO 17004KT 10SM CLR 26/10 A3011 RMK AO2  T02570100,,,,,,50.01,,S,29.46,28.87,,Clear
KIGQ,05/08/2018 19:55 UTC,30.11,78.62,51.08,38.31,3.44,200.0,,,,,,1.0,,,,10.0,,KIGQ 081955Z AUTO 20003KT 10SM CLR 26/11 A3011 RMK AO2  T02590106,,,,,,51.09,,SSW,29.46,28.82,,Clear
KIGQ,05/08/2018 20:15 UTC,30.1,78.8,50.72,37.58,3.44,100.0,,,,,,1.0,,,,10.0,,KIGQ 082015Z AUTO 10003KT 10SM CLR 26/10 A3010 RMK AO2  T02600104,,,,,,50.74,,E,29.45,28.82,,Clear
KIGQ,05/08/2018 20:35 UTC,30.09,78.8,50.18,36.83,5.75,190.0,,,,,,1.0,,,,10.0,,KIGQ 082035Z AUTO 19005KT 10SM CLR 26/10 A3009 RMK AO2  T02600101,,,,,,50.19,,S,29.44,28.83,,Clear
KIGQ,05/08/2018 20:55 UTC,30.08,78.98,51.26,38.11,4.61,170.0,,,,,,1.0,,,,10.0,,KIGQ 082055Z AUTO 17004KT 10SM CLR 26/11 A3008 RMK AO2  T02610107,,,,,,51.28,,S,29.43,28.78,,Clear
KIGQ,05/08/2018 21:15 UTC,30.07,78.8,50.72,37.58,10.36,190.0,,,,,,1.0,,,,10.0,,KIGQ 082115Z AUTO 19009KT 10SM CLR 26/10 A3007 RMK AO2  T02600104,,,,,,50.74,,S,29.42,28.79,,Clear
KIGQ,05/08/2018 21:35 UTC,30.06,78.62,51.62,39.08,6.91,170.0,,,,,,1.0,,,,10.0,,KIGQ 082135Z AUTO 17006KT 10SM CLR 26/11 A3006 RMK AO2  T02590109,,,,,,51.63,,S,29.41,28.74,,Clear
KIGQ,05/08/2018 21:55 UTC,30.06,78.44,50.36,37.52,4.61,180.0,,,,,,1.0,,,,10.0,,KIGQ 082155Z AUTO 18004KT 10SM CLR 26/10 A3006 RMK AO2  T02580102,,,,,,50.37,,S,29.41,28.8,,Clear
KIGQ,05/08/2018 22:15 UTC,30.05,78.08,49.46,36.72,0.0,0.0,,,,,,1.0,,,,10.0,,KIGQ 082215Z AUTO 00000KT 10SM CLR 26/10 A3005 RMK AO2  T02560097,,,,,,49.47,,N,29.4,28.83,,Clear
KIGQ,05/08/2018 22:35 UTC,30.05,78.26,51.26,39.02,3.44,140.0,,,,,,1.0,,,,10.0,,KIGQ 082235Z AUTO 14003KT 10SM CLR 26/11 A3005 RMK AO2  T02570107,,,,,,51.27,,SE,29.4,28.75,,Clear
KIGQ,05/08/2018 22:55 UTC,30.04,77.36,51.8,41.0,6.91,130.0,,,,,,1.0,,,,10.0,,KIGQ 082255Z AUTO 13006KT 10SM CLR 25/11 A3004 RMK AO2  T02520110,,,,,,51.79,,SE,29.39,28.73,,Clear
KIGQ,05/08/2018 23:15 UTC,30.04,77.36,50.36,38.88,10.36,130.0,,,,,,1.0,,,,10.0,,KIGQ 082315Z AUTO 13009KT 10SM CLR 25/10 A3004 RMK AO2  T02520102,,,,,,50.36,,SE,29.39,28.79,,Clear
KIGQ,05/08/2018 23:35 UTC,30.03,75.74,50.18,40.75,5.75,140.0,,,,,,1.0,,,,10.0,,KIGQ 082335Z AUTO 14005KT 10SM CLR 24/10 A3003 RMK AO2  T02430101,,,,,,50.16,,SE,29.38,28.8,,Clear
KIGQ,05/08/2018 23:55 UTC,30.03,75.02,49.1,40.09,4.61,140.0,,,,,,1.0,,,,10.0,,KIGQ 082355Z AUTO 14004KT 10SM CLR 24/10 A3003 RMK AO2 T02390095  10261 20234,78.98,74.12,,,,49.07,,SE,29.38,28.85,,Clear
KIGQ,05/09/2018 00:15 UTC,30.03,74.48,49.46,41.37,5.75,110.0,,,,,,1.0,,,,10.0,,KIGQ 090015Z AUTO 11005KT 10SM CLR 24/10 A3003 RMK AO2  T02360097,,,,,,49.43,,ESE,29.38,28.84,,Clear
KIGQ,05/09/2018 00:35 UTC,30.03,72.68,48.02,41.64,5.75,60.0,,,,,,1.0,,,,10.0,,KIGQ 090035Z AUTO 06005KT 10SM CLR 23/09 A3003 RMK AO2  T02260089,,,,,,47.97,,ENE,29.38,28.91,,Clear
KIGQ,05/09/2018 00:55 UTC,30.04,71.06,47.3,42.81,0.0,0.0,,,,,,1.0,,,,10.0,,KIGQ 090055Z AUTO 00000KT 10SM CLR 22/09 A3004 RMK AO2  T02170085,,,,,,47.24,,N,29.39,28.96,,Clear
KIGQ,05/09/2018 01:15 UTC,30.03,70.34,47.12,43.57,3.44,80.0,,,,,,1.0,,,,10.0,,KIGQ 090115Z AUTO 08003KT 10SM CLR 21/08 A3003 RMK AO2  T02130084,,,,,,47.05,,E,29.38,28.96,,Clear
KIGQ,05/09/2018 01:35 UTC,30.03,68.9,46.76,45.15,3.44,90.0,,,,,,1.0,,,,10.0,,KIGQ 090135Z AUTO 09003KT 10SM CLR 21/08 A3003 RMK AO2  T02050082,,,,,,46.68,,E,29.38,28.98,,Clear
KIGQ,05/09/2018 01:55 UTC,30.03,69.62,46.76,44.05,3.44,90.0,,,,,,1.0,,,,10.0,,KIGQ 090155Z AUTO 09003KT 10SM CLR 21/08 A3003 RMK AO2  T02090082,,,,,,46.69,,E,29.38,28.98,,Clear
KIGQ,05/09/2018 02:15 UTC,30.03,69.08,47.3,45.79,4.61,100.0,,,,,,1.0,,,,10.0,,KIGQ 090215Z AUTO 10004KT 10SM CLR 21/09 A3003 RMK AO2  T02060085,,,,,,47.22,,E,29.38,28.96,,Clear
KIGQ,05/09/2018 02:35 UTC,30.03,68.18,47.84,48.19,4.61,130.0,,,,,,1.0,,,,10.0,,KIGQ 090235Z AUTO 13004KT 10SM CLR 20/09 A3003 RMK AO2 LTG DSNT W  T02010088,,,,,,47.76,,SE,29.38,28.95,,Clear
KIGQ,05/09/2018 03:20 UTC,30.03,64.76,47.84,54.24,3.44,150.0,,,,,,1.0,,,,10.0,,KIGQ 090320Z AUTO 15003KT 10SM CLR 18/09 A3003 RMK AO2  T01820088,,,,,,47.75,,SSE,29.38,28.98,,Clear
KIGQ,05/09/2018 03:35 UTC,30.03,66.02,47.48,51.22,4.61,140.0,,,,,,1.0,,,,10.0,,KIGQ 090335Z AUTO 14004KT 10SM CLR 19/09 A3003 RMK AO2  T01890086,,,,,,47.39,,SE,29.38,28.98,,Clear
KIGQ,05/09/2018 03:55 UTC,30.02,65.3,47.3,52.16,5.75,140.0,,,,,,1.0,,,,10.0,,KIGQ 090355Z AUTO 14005KT 10SM CLR 19/09 A3002 RMK AO2  T01850085,,,,,,47.21,,SE,29.37,28.98,,Clear
KIGQ,05/09/2018 06:55 UTC,29.96,59.36,45.86,60.89,0.0,0.0,,,,,,1.0,,,,10.0,,KIGQ 090655Z AUTO 00000KT 10SM CLR 15/08 A2996 RMK AO2 LTG DSNT W  T01520077,,,,,,45.76,,N,29.31,29.02,,Clear
KIGQ,05/09/2018 07:15 UTC,29.96,60.08,46.04,59.76,0.0,0.0,,,,,,1.0,,,,10.0,,KIGQ 090715Z AUTO 00000KT 10SM CLR 16/08 A2996 RMK AO2 LTG DSNT NW  T01560078,,,,,,45.94,,N,29.31,29.01,,Clear
KIGQ,05/09/2018 07:35 UTC,29.96,58.28,45.68,62.86,0.0,0.0,,,,,,1.0,,,,10.0,,KIGQ 090735Z AUTO 00000KT 10SM CLR 15/08 A2996 RMK AO2  T01460076,,,,,,45.58,,N,29.31,29.03,,Clear
KIGQ,05/09/2018 07:55 UTC,29.94,58.1,45.5,62.83,4.61,130.0,,,,,,1.0,,,,10.0,,KIGQ 090755Z AUTO 13004KT 10SM CLR 15/08 A2994 RMK AO2  T01450075,,,,,,45.4,,SE,29.29,29.02,,Clear
KIGQ,05/09/2018 08:15 UTC,29.94,56.66,45.5,66.17,3.44,160.0,,,,,,1.0,,,,10.0,,KIGQ 090815Z AUTO 16003KT 10SM CLR 14/08 A2994 RMK AO2  T01370075,,,,,,45.4,,SSE,29.29,29.03,,Clear
KIGQ,05/09/2018 08:35 UTC,29.94,55.94,44.6,65.64,3.44,140.0,,,,,,1.0,,,,10.0,,KIGQ 090835Z AUTO 14003KT 10SM CLR 13/07 A2994 RMK AO2 LTG DSNT SW  AND W T01330070,,,,,,44.5,,SE,29.29,29.06,,Clear
KIGQ,05/09/2018 08:55 UTC,29.94,56.66,43.88,62.22,3.44,160.0,,,,,,1.0,,,,10.0,,KIGQ 090855Z AUTO 16003KT 10SM CLR 14/07 A2994 RMK AO2  T01370066,,,,,,43.77,,SSE,29.29,29.08,,Clear
KIGQ,05/09/2018 09:15 UTC,29.92,57.74,43.7,59.43,5.75,150.0,,,,,,1.0,,,,10.0,,KIGQ 090915Z AUTO 15005KT 10SM CLR 14/07 A2992 RMK AO2  T01430065,,,,,,43.59,,SSE,29.27,29.06,,Clear
KIGQ,05/09/2018 09:35 UTC,29.92,55.58,43.7,64.25,8.05,180.0,,,,,,1.0,,,,10.0,,KIGQ 090935Z AUTO 18007KT 10SM CLR 13/07 A2992 RMK AO2 LTG DSNT W  AND NW T01310065,,,,,,43.59,,S,29.27,29.07,,Clear
KIGQ,05/09/2018 09:55 UTC,29.9,59.18,43.34,55.68,8.05,170.0,,,,,,1.0,,,,10.0,,KIGQ 090955Z AUTO 17007KT 10SM CLR 15/06 A2990 RMK AO2 LTG DSNT SW  T01510063,,,,,,43.22,,S,29.25,29.04,,Clear
KIGQ,05/09/2018 10:15 UTC,29.89,60.44,43.16,52.87,8.05,170.0,,,,,,1.0,,,,10.0,,KIGQ 091015Z AUTO 17007KT 10SM CLR 16/06 A2989 RMK AO2 LTG DSNT NW  T01580062,,,,,,43.04,,S,29.24,29.02,,Clear
KIGQ,05/09/2018 10:35 UTC,29.88,61.16,43.16,51.54,9.22,150.0,,,,,,1.0,,,,10.0,,KIGQ 091035Z AUTO 15008KT 10SM CLR 16/06 A2988 RMK AO2 LTG DSNT SW  AND W T01620062,,,,,,43.04,,SSE,29.23,29.01,,Clear
KIGQ,05/09/2018 10:55 UTC,29.88,62.42,43.52,49.98,10.36,160.0,,,,,,1.0,,,,10.0,,KIGQ 091055Z AUTO 16009KT 10SM CLR 17/06 A2988 RMK AO2 LTG DSNT W  AND NW T01690064,,,,,,43.41,,SSE,29.23,28.98,,Clear
KIGQ,05/09/2018 11:15 UTC,29.87,63.14,44.06,49.75,13.8,170.0,17.27,,,,,902.0,,,,10.0,,KIGQ 091115Z AUTO 17012G15KT 10SM SCT090 17/07 A2987 RMK AO2 LTG  DSNT W T01730067,,,,,,43.95,,S,29.22,28.95,,Partly Cloudy
KIGQ,05/09/2018 11:35 UTC,29.87,64.04,44.6,49.21,13.8,160.0,,,,,,902.0,,,,10.0,,KIGQ 091135Z AUTO 16012KT 10SM SCT090 18/07 A2987 RMK AO2 LTG DSNT  W AND NW T01780070,,,,,,44.49,,SSE,29.22,28.93,,Partly Cloudy
KIGQ,05/09/2018 11:55 UTC,29.86,64.22,45.32,50.26,12.66,160.0,20.71,,902.0,,,552.0,652.0,,,10.0,,KIGQ 091155Z AUTO 16011G18KT 10SM SCT055 SCT065 SCT090 18/07 A2986 RMK AO2 LTG DSNT SW THRU NW T01790074 10179 20130,64.22,55.4,,,,45.22,,SSE,29.21,28.89,,Partly Cloudy
KIGQ,05/09/2018 12:15 UTC,29.86,64.04,45.86,51.62,19.57,170.0,,5.0,903.0,,,552.0,653.0,,,10.0,,KIGQ 091215Z AUTO 17017KT 10SM VCTS SCT055 BKN065 BKN090 18/08  A2986 RMK AO2 LTG DSNT SW THRU NW T01780077,,,6500.0,,,45.76,,S,29.21,28.88,,Thunder
KIGQ,05/09/2018 12:35 UTC,29.85,64.4,46.76,52.74,17.27,160.0,21.85,5.0,1003.0,,,552.0,653.0,,,10.0,,KIGQ 091235Z AUTO 16015G19KT 10SM VCTS SCT055 BKN065 BKN100 18/08  A2985 RMK AO2 LTG DSNT SW THRU NW T01800082,,,6500.0,,,46.66,,SSE,29.2,28.83,,Thunder
KIGQ,05/09/2018 12:55 UTC,29.87,63.32,49.46,60.6,11.5,250.0,20.71,78.0,1004.0,0.04,,272.0,553.0,,,7.0,,KIGQ 091255Z AUTO 25010G18KT 7SM +TSRA SCT027 BKN055 OVC100 17/10  A2987 RMK AO2 LTG DSNT ALQS P0004 T01740097,,,5500.0,,,49.37,,WSW,29.22,28.77,,Heavy Rain/Thunderstorm
KIGQ,05/09/2018 13:15 UTC,29.88,58.64,53.6,83.34,3.44,350.0,,77.0,554.0,,,322.0,432.0,,,10.0,,KIGQ 091315Z AUTO 35003KT 10SM -TSRA SCT032 SCT043 OVC055 15/12  A2988 RMK AO2 LTG DSNT ALQS T01480120,,,5500.0,,,53.56,,N,29.23,28.66,,Light Rain/Thunderstorm
KIGQ,05/09/2018 13:35 UTC,29.86,58.28,54.32,86.67,5.75,110.0,,,1104.0,,,553.0,803.0,,,10.0,,KIGQ 091335Z AUTO 11005KT 10SM -VCTSRA BKN055 BKN080 OVC110 15/12  A2986 RMK AO2 LTG DSNT NE THRU S T01460124,,,5500.0,,,54.29,,ESE,29.21,28.61,,Overcast
KIGQ,05/09/2018 13:55 UTC,29.83,61.16,53.6,76.19,9.22,160.0,,,,,,802.0,1102.0,,,10.0,,KIGQ 091355Z AUTO 16008KT 10SM SCT080 SCT110 16/12 A2983 RMK AO2  LTG DSNT N THRU SE T01620120,,,,,,53.55,,SSE,29.18,28.58,,Partly Cloudy
KIGQ,05/09/2018 14:15 UTC,29.81,62.24,56.12,80.38,14.97,160.0,20.71,,,,,1002.0,,,,10.0,,KIGQ 091415Z AUTO 16013G18KT 10SM SCT100 17/13 A2981 RMK AO2 LTG  DSNT NE AND E T01680134,,,,,,56.08,,SSE,29.16,28.44,,Partly Cloudy
KIGQ,05/09/2018 14:35 UTC,29.81,63.68,55.22,73.97,18.41,170.0,24.16,,,,,952.0,1103.0,,,10.0,,KIGQ 091435Z AUTO 17016G21KT 10SM SCT095 BKN110 18/13 A2981 RMK AO2 LTG DSNT E T01760129,,,11000.0,,,55.17,,S,29.16,28.47,,Mostly Cloudy
KIGQ,05/09/2018 14:55 UTC,29.82,63.5,55.76,75.91,14.97,170.0,21.85,,,,0.04,1104.0,,,,10.0,,KIGQ 091455Z AUTO 17013G19KT 10SM OVC110 18/13 A2982 RMK AO2 LTG  DSNT E 60004 T01750132,,,11000.0,,,55.71,,S,29.17,28.45,,Overcast
KIGQ,05/09/2018 15:15 UTC,29.82,61.52,56.3,82.99,10.36,170.0,18.41,13.0,1004.0,0.02,,262.0,502.0,,,7.0,,KIGQ 091515Z AUTO 17009G16KT 7SM -RA SCT026 SCT050 OVC100 16/14  A2982 RMK AO2 P0002 T01640135,,,10000.0,,,56.26,,S,29.17,28.45,,Light Rain
KIGQ,05/09/2018 15:35 UTC,29.82,63.5,56.3,77.4,10.36,170.0,,,,0.02,,1004.0,,,,10.0,,KIGQ 091535Z AUTO 17009KT 10SM OVC100 18/14 A2982 RMK AO2 P0002  T01750135,,,10000.0,,,56.25,,S,29.17,28.43,,Overcast
KIGQ,05/09/2018 15:55 UTC,29.82,66.74,57.92,73.31,12.66,180.0,16.11,,,0.02,,1103.0,,,,10.0,,KIGQ 091555Z AUTO 18011G14KT 10SM BKN110 19/14 A2982 RMK AO2 P0002  T01930144,,,11000.0,,,57.88,,S,29.17,28.32,,Mostly Cloudy
KIGQ,05/09/2018 16:15 UTC,29.81,68.36,58.1,69.79,12.66,180.0,,,,,,1103.0,,,,10.0,,KIGQ 091615Z AUTO 18011KT 10SM BKN110 20/15 A2981 RMK AO2 LTG DSNT  NW T02020145,,,11000.0,,,58.06,,S,29.16,28.28,,Mostly Cloudy
KIGQ,05/09/2018 16:35 UTC,29.79,70.34,59.36,68.23,14.97,180.0,20.71,,,,,1203.0,,,,10.0,,KIGQ 091635Z AUTO 18013G18KT 10SM BKN120 21/15 A2979 RMK AO2  T02130152,,,12000.0,,,59.32,,S,29.14,28.17,,Mostly Cloudy
KIGQ,05/09/2018 16:55 UTC,29.78,74.3,62.42,66.54,14.97,180.0,,,,,,1102.0,,,,10.0,,KIGQ 091655Z AUTO 18013KT 10SM SCT110 24/17 A2978 RMK AO2  T02350169,,,,,,62.4,,S,29.13,27.94,,Partly Cloudy
KIGQ,05/09/2018 17:15 UTC,29.76,73.58,60.8,64.37,14.97,190.0,20.71,,,,,1.0,,,,10.0,,KIGQ 091715Z AUTO 19013G18KT 10SM CLR 23/16 A2976 RMK AO2  T02310160,,,,,,60.77,,S,29.11,28.03,,Clear
KIGQ,05/09/2018 17:35 UTC,29.75,76.46,60.44,57.74,21.85,190.0,33.38,,,,,502.0,,,,10.0,,KIGQ 091735Z AUTO 19019G29KT 10SM SCT050 25/16 A2975 RMK AO2  T02470158,,,,,,60.43,,S,29.1,28.01,,Partly Cloudy
KIGQ,05/09/2018 17:55 UTC,29.74,76.46,60.26,57.37,20.71,200.0,32.21,,,,,504.0,,0.06,,10.0,,KIGQ 091755Z AUTO 20018G28KT 10SM OVC050 25/16 A2974 RMK AO2 60006  T02470157 10251 20145,77.18,58.1,5000.0,,,60.25,,SSW,29.09,28.01,,Overcast
KIGQ,05/09/2018 18:15 UTC,29.74,77.18,60.62,56.74,27.63,210.0,33.38,,,,,504.0,,,,10.0,,KIGQ 091815Z AUTO 21024G29KT 10SM OVC050 25/16 A2974 RMK AO2  T02510159,,,5000.0,,,60.61,,SSW,29.09,27.98,,Overcast
KIGQ,05/09/2018 18:35 UTC,29.73,77.54,61.34,57.52,27.63,220.0,33.38,,,,,504.0,,,,10.0,,KIGQ 091835Z AUTO 22024G29KT 10SM OVC050 25/16 A2973 RMK AO2  T02530163,,,5000.0,,,61.34,,SW,29.08,27.92,,Overcast
KIGQ,05/09/2018 18:55 UTC,29.71,77.72,61.52,57.54,25.32,190.0,32.21,,,,,503.0,553.0,,,10.0,,KIGQ 091855Z AUTO 19022G28KT 10SM BKN050 BKN055 25/16 A2971 RMK AO2 T02540164,,,5000.0,,,61.52,,S,29.06,27.89,,Mostly Cloudy
KIGQ,05/09/2018 19:15 UTC,29.71,77.36,61.52,58.23,24.16,200.0,31.07,,,,,503.0,,,,10.0,,KIGQ 091915Z AUTO 20021G27KT 10SM BKN050 25/16 A2971 RMK AO2 LTG  DSNT SE T02520164,,,5000.0,,,61.51,,SSW,29.06,27.89,,Mostly Cloudy
KIGQ,05/09/2018 19:35 UTC,29.7,76.46,60.98,58.86,21.85,190.0,26.46,,,,,504.0,,,,10.0,,KIGQ 091935Z AUTO 19019G23KT 10SM OVC050 25/16 A2970 RMK AO2  T02470161,,,5000.0,,,60.97,,S,29.05,27.92,,Overcast
KIGQ,05/09/2018 19:55 UTC,29.69,77.0,60.98,57.81,16.11,210.0,27.63,,,,,504.0,,,,10.0,,KIGQ 091955Z AUTO 21014G24KT 10SM OVC050 25/16 A2969 RMK AO2  T02500161,,,5000.0,,,60.97,,SSW,29.04,27.91,,Overcast
KIGQ,05/09/2018 20:15 UTC,29.68,77.72,62.24,59.02,21.85,220.0,28.77,,,,,504.0,,,,10.0,,KIGQ 092015Z AUTO 22019G25KT 10SM OVC050 25/17 A2968 RMK AO2 LTG  DSNT N T02540168,,,5000.0,,,62.24,,SW,29.03,27.82,,Overcast
KIGQ,05/09/2018 20:35 UTC,29.67,78.62,62.78,58.4,16.11,210.0,26.46,,,,,504.0,,,,10.0,,KIGQ 092035Z AUTO 21014G23KT 10SM OVC050 26/17 A2967 RMK AO2 LTG  DSNT NE AND S T02590171,,,5000.0,,,62.78,,SSW,29.02,27.76,,Overcast
KIGQ,05/09/2018 20:55 UTC,29.66,73.94,64.22,71.73,13.8,190.0,23.02,13.0,,0.02,0.02,503.0,704.0,,,10.0,,KIGQ 092055Z AUTO 19012G20KT 10SM -RA BKN050 OVC070 23/18 A2966 RMK AO2 P0002 60002 T02330179,,,5000.0,,,64.2,,S,29.02,27.73,,Light Rain
KIGQ,05/09/2018 21:15 UTC,29.65,78.62,64.22,61.42,25.32,220.0,33.38,,,,,604.0,,,,10.0,,KIGQ 092115Z AUTO 22022G29KT 10SM OVC060 26/18 A2965 RMK AO2 LTG  DSNT SE AND NW T02590179,,,6000.0,,,64.22,,SW,29.01,27.66,,Overcast
KIGQ,05/09/2018 21:35 UTC,29.64,80.96,63.5,55.49,20.71,240.0,33.38,,,,,603.0,,,,10.0,,KIGQ 092135Z AUTO 24018G29KT 10SM BKN060 27/18 A2964 RMK AO2 LTG  DSNT NW T02720175,,,6000.0,,,63.52,,WSW,29.0,27.67,82.39,Mostly Cloudy
KIGQ,05/09/2018 21:55 UTC,29.64,81.14,61.16,50.8,26.46,230.0,32.21,,,,,602.0,,,,10.0,,KIGQ 092155Z AUTO 23023G28KT 10SM SCT060 27/16 A2964 RMK AO2 LTG  DSNT E T02730162,,,,,,61.19,,SW,29.0,27.81,81.97,Partly Cloudy
KIGQ,05/09/2018 22:15 UTC,29.63,80.06,59.72,50.0,24.16,240.0,31.07,,,,,1.0,,,,10.0,,KIGQ 092215Z AUTO 24021G27KT 10SM CLR 27/15 A2963 RMK AO2  T02670154,,,,,,59.74,,WSW,28.99,27.9,80.86,Clear
KIGQ,05/09/2018 22:35 UTC,29.64,79.7,59.72,50.59,19.57,230.0,31.07,,,,,1.0,,,,10.0,,KIGQ 092235Z AUTO 23017G27KT 10SM CLR 27/15 A2964 RMK AO2 LTG DSNT  N AND NW T02650154,,,,,,59.73,,SW,29.0,27.91,,Clear
KIGQ,05/09/2018 22:55 UTC,29.63,78.98,60.26,52.8,20.71,220.0,25.32,,,,,1202.0,,,,10.0,,KIGQ 092255Z AUTO 22018G22KT 10SM SCT120 26/16 A2963 RMK AO2 LTG  DSNT N THRU SE T02610157,,,,,,60.27,,SW,28.99,27.88,,Partly Cloudy
KIGQ,05/09/2018 23:15 UTC,29.63,77.18,60.08,55.66,19.57,250.0,28.77,,1202.0,,,502.0,802.0,,,10.0,,KIGQ 092315Z AUTO 25017G25KT 10SM SCT050 SCT080 SCT120 25/16 A2963 RMK AO2 LTG DSNT S THRU N T02510156,,,,,,60.07,,WSW,28.99,27.91,,Partly Cloudy
KIGQ,05/09/2018 23:35 UTC,29.65,77.18,60.8,57.11,18.41,240.0,27.63,5.0,,,,1102.0,,,,10.0,,KIGQ 092335Z AUTO 24016G24KT 10SM TS SCT110 25/16 A2965 RMK AO2  LTG DSNT SE AND S T02510160,,,,,,60.8,,WSW,29.01,27.89,,Thunder
KIGQ,05/09/2018 23:55 UTC,29.66,76.46,60.26,57.37,14.97,230.0,25.32,,1203.0,,,752.0,1003.0,0.02,,10.0,,KIGQ 092355Z AUTO 23013G22KT 10SM SCT075 BKN100 BKN120 25/16 A2966 RMK AO2 LTG DSNT SE THRU SW 60002 T02470157 10275 20230,81.5,73.4,10000.0,,,60.25,,SW,29.02,27.93,,Mostly Cloudy
KIGQ,05/10/2018 00:15 UTC,29.65,75.38,61.52,62.18,12.66,220.0,20.71,,1203.0,,,752.0,853.0,,,10.0,,KIGQ 100015Z AUTO 22011G18KT 10SM SCT075 BKN085 BKN120 24/16 A2965 RMK AO2 LTG DSNT E AND S T02410164,,,8500.0,,,61.5,,SW,29.01,27.86,,Mostly Cloudy
KIGQ,05/10/2018 00:35 UTC,29.66,73.58,61.88,66.88,9.22,220.0,,5.0,,,,852.0,1202.0,,,10.0,,KIGQ 100035Z AUTO 22008KT 10SM VCTS SCT085 SCT120 23/17 A2966 RMK AO2 LTG DSNT NE THRU S T02310166,,,,,,61.86,,SW,29.02,27.87,,Thunder
KIGQ,05/10/2018 00:55 UTC,29.66,71.06,62.6,74.68,9.22,200.0,,,,,,752.0,,,,10.0,,KIGQ 100055Z AUTO 20008KT 10SM SCT075 22/17 A2966 RMK AO2 LTG DSNT  NE THRU SE T02170170,,,,,,62.58,,SSW,29.02,27.86,,Partly Cloudy
KIGQ,05/10/2018 01:15 UTC,29.67,70.34,63.5,78.98,10.36,210.0,,,,,,752.0,902.0,,,10.0,,KIGQ 100115Z AUTO 21009KT 10SM SCT075 SCT090 21/18 A2967 RMK AO2  LTG DSNT SE T02130175,,,,,,63.48,,SSW,29.02,27.82,,Partly Cloudy
KIGQ,05/10/2018 01:35 UTC,29.67,69.44,62.78,79.41,9.22,210.0,,,,,,902.0,,,,10.0,,KIGQ 100135Z AUTO 21008KT 10SM SCT090 21/17 A2967 RMK AO2 LTG DSNT  SE T02080171,,,,,,62.76,,SSW,29.02,27.87,,Partly Cloudy
KIGQ,05/10/2018 01:55 UTC,29.68,69.08,62.42,79.38,4.61,240.0,,,,,,1.0,,,,10.0,,KIGQ 100155Z AUTO 24004KT 10SM CLR 21/17 A2968 RMK AO2 LTG DSNT E  THRU S T02060169,,,,,,62.39,,WSW,29.03,27.9,,Clear
KIGQ,05/10/2018 02:15 UTC,29.69,72.68,59.36,63.04,11.5,290.0,19.57,,,,,1.0,,,,10.0,,KIGQ 100215Z AUTO 29010G17KT 10SM CLR 23/15 A2969 RMK AO2 LTG DSNT  E THRU S T02260152,,,,,,59.33,,WNW,29.04,28.04,,Clear
KIGQ,05/10/2018 02:35 UTC,29.7,72.68,59.0,62.23,12.66,290.0,19.57,,,,,1002.0,,,,10.0,,KIGQ 100235Z AUTO 29011G17KT 10SM SCT100 23/15 A2970 RMK AO2 LTG  DSNT SE T02260150,,,,,,58.97,,WNW,29.05,28.07,,Partly Cloudy
KIGQ,05/10/2018 02:55 UTC,29.71,71.6,59.18,64.96,10.36,300.0,,5.0,,,,902.0,,,,10.0,,KIGQ 100255Z AUTO 30009KT 10SM VCTS SCT090 22/15 A2971 RMK AO2 LTG  DSNT NE THRU SE T02200151,,,,,,59.15,,WNW,29.06,28.09,,Thunder
KIGQ,05/10/2018 03:15 UTC,29.73,71.06,57.2,61.62,10.36,280.0,16.11,,,,,1.0,,,,10.0,,KIGQ 100315Z AUTO 28009G14KT 10SM CLR 22/14 A2973 RMK AO2 LTG DSNT  SE AND S T02170140,,,,,,57.16,,W,29.08,28.21,,Clear
KIGQ,05/10/2018 03:35 UTC,29.74,70.16,55.94,60.71,11.5,280.0,20.71,,,,,1.0,,,,10.0,,KIGQ 100335Z AUTO 28010G18KT 10SM CLR 21/13 A2974 RMK AO2  T02120133,,,,,,55.89,,W,29.09,28.3,,Clear
KIGQ,05/10/2018 03:55 UTC,29.75,68.9,56.48,64.63,9.22,280.0,,,,,,1.0,,,,10.0,,KIGQ 100355Z AUTO 28008KT 10SM CLR 21/14 A2975 RMK AO2 LTG DSNT SE  T02050136,,,,,,56.43,,W,29.1,28.29,,Clear
KIGQ,05/10/2018 05:35 UTC,29.77,64.4,57.38,77.99,6.91,280.0,,,,,,1.0,,,,10.0,,KIGQ 100535Z AUTO 28006KT 10SM CLR 18/14 A2977 RMK AO2  T01800141,,,,,,57.34,,W,29.12,28.32,,Clear
KIGQ,05/10/2018 05:55 UTC,29.77,63.68,57.2,79.46,6.91,280.0,,,,,,1.0,,,,10.0,,KIGQ 100555Z AUTO 28006KT 10SM CLR 18/14 A2977 RMK AO2 T01760140  10248 20176 402750130,76.64,63.68,,81.5,55.4,57.16,,W,29.12,28.33,,Clear
KIGQ,05/10/2018 06:15 UTC,29.78,62.06,57.2,84.11,5.75,280.0,,,,,,1.0,,,,10.0,,KIGQ 100615Z AUTO 28005KT 10SM CLR 17/14 A2978 RMK AO2  T01670140,,,,,,57.17,,W,29.13,28.36,,Clear
KIGQ,05/10/2018 06:35 UTC,29.78,61.34,57.02,85.71,8.05,280.0,,,,,,1.0,,,,10.0,,KIGQ 100635Z AUTO 28007KT 10SM CLR 16/14 A2978 RMK AO2  T01630139,,,,,,56.99,,W,29.13,28.38,,Clear
KIGQ,05/10/2018 06:55 UTC,29.78,61.88,56.66,83.01,5.75,280.0,,,,,,1.0,,,,10.0,,KIGQ 100655Z AUTO 28005KT 10SM CLR 17/14 A2978 RMK AO2  T01660137,,,,,,56.62,,W,29.13,28.39,,Clear
KIGQ,05/10/2018 07:15 UTC,29.79,60.62,56.3,85.67,4.61,270.0,,,,,,1.0,,,,10.0,,KIGQ 100715Z AUTO 27004KT 10SM CLR 16/14 A2979 RMK AO2  T01590135,,,,,,56.27,,W,29.14,28.43,,Clear
KIGQ,05/10/2018 07:35 UTC,29.79,59.0,56.3,90.76,6.91,270.0,,,,,,1.0,,,,10.0,,KIGQ 100735Z AUTO 27006KT 10SM CLR 15/14 A2979 RMK AO2  T01500135,,,,,,56.28,,W,29.14,28.45,,Clear
KIGQ,05/10/2018 07:55 UTC,29.8,58.46,55.76,90.73,5.75,270.0,,,,,,1.0,,,,10.0,,KIGQ 100755Z AUTO 27005KT 10SM CLR 15/13 A2980 RMK AO2  T01470132,,,,,,55.74,,W,29.15,28.49,,Clear
KIGQ,05/10/2018 08:15 UTC,29.8,57.74,55.4,91.9,5.75,270.0,,,,,,1.0,,,,10.0,,KIGQ 100815Z AUTO 27005KT 10SM CLR 14/13 A2980 RMK AO2  T01430130,,,,,,55.38,,W,29.15,28.51,,Clear
KIGQ,05/10/2018 08:35 UTC,29.8,57.38,55.58,93.71,4.61,250.0,,,,,,1.0,,,,10.0,,KIGQ 100835Z AUTO 25004KT 10SM CLR 14/13 A2980 RMK AO2 LTG DSNT E  T01410131,,,,,,55.56,,WSW,29.15,28.51,,Clear
KIGQ,05/10/2018 08:55 UTC,29.81,57.2,55.58,94.32,6.91,250.0,,,,,,1.0,,,,10.0,,KIGQ 100855Z AUTO 25006KT 10SM CLR 14/13 A2981 RMK AO2  T01400131,,,,,,55.57,,WSW,29.16,28.52,,Clear
KIGQ,05/10/2018 09:15 UTC,29.81,57.56,55.58,93.1,5.75,250.0,,,,,,1.0,,,,10.0,,KIGQ 100915Z AUTO 25005KT 10SM CLR 14/13 A2981 RMK AO2  T01420131,,,,,,55.56,,WSW,29.16,28.52,,Clear
KIGQ,05/10/2018 09:35 UTC,29.81,57.02,55.58,94.93,6.91,260.0,,,,,,1.0,,,,10.0,,KIGQ 100935Z AUTO 26006KT 10SM CLR 14/13 A2981 RMK AO2  T01390131,,,,,,55.57,,W,29.16,28.52,,Clear
KIGQ,05/10/2018 09:55 UTC,29.81,57.2,55.58,94.32,6.91,270.0,,,,,,1.0,,,,10.0,,KIGQ 100955Z AUTO 27006KT 10SM CLR 14/13 A2981 RMK AO2 LTG DSNT SW  T01400131,,,,,,55.57,,W,29.16,28.52,,Clear
KIGQ,05/10/2018 10:15 UTC,29.81,56.84,55.4,94.92,6.91,250.0,,,,,,1.0,,,,10.0,,KIGQ 101015Z AUTO 25006KT 10SM CLR 14/13 A2981 RMK AO2 LTG DSNT SW  T01380130,,,,,,55.39,,WSW,29.16,28.53,,Clear
KIGQ,05/10/2018 10:35 UTC,29.82,56.3,55.4,96.79,6.91,260.0,,,,,,1.0,,,,10.0,,KIGQ 101035Z AUTO 26006KT 10SM CLR 14/13 A2982 RMK AO2  T01350130,,,,,,55.39,,W,29.17,28.55,,Clear
KIGQ,05/10/2018 10:55 UTC,29.83,56.84,55.58,95.55,8.05,270.0,,,,,,1.0,,,,10.0,,KIGQ 101055Z AUTO 27007KT 10SM CLR 14/13 A2983 RMK AO2  T01380131,,,,,,55.57,,W,29.18,28.55,,Clear
KIGQ,05/10/2018 11:15 UTC,29.85,57.56,55.58,93.1,6.91,270.0,,,,,,1.0,,,,10.0,,KIGQ 101115Z AUTO 27006KT 10SM CLR 14/13 A2985 RMK AO2  T01420131,,,,,,55.56,,W,29.2,28.56,,Clear
KIGQ,05/10/2018 11:35 UTC,29.86,58.1,55.58,91.31,5.75,270.0,,,,,,1.0,,,,10.0,,KIGQ 101135Z AUTO 27005KT 10SM CLR 15/13 A2986 RMK AO2  T01450131,,,,,,55.56,,W,29.21,28.56,,Clear
KIGQ,05/10/2018 11:55 UTC,29.87,59.0,55.94,89.58,6.91,270.0,,,,,,1.0,,,0.08,10.0,,KIGQ 101155Z AUTO 27006KT 10SM CLR 15/13 A2987 RMK AO2 70008  T01500133 10175 20135,63.5,56.3,,,,55.91,,W,29.22,28.55,,Clear
KIGQ,05/10/2018 12:15 UTC,29.88,60.08,55.94,86.2,5.75,290.0,,,,,,1.0,,,,10.0,,KIGQ 101215Z AUTO 29005KT 10SM CLR 16/13 A2988 RMK AO2  T01560133,,,,,,55.91,,WNW,29.23,28.54,,Clear
KIGQ,05/10/2018 12:35 UTC,29.89,60.98,55.94,83.49,11.5,280.0,17.27,,,,,1.0,,,,10.0,,KIGQ 101235Z AUTO 28010G15KT 10SM CLR 16/13 A2989 RMK AO2 LTG DSNT  SW T01610133,,,,,,55.9,,W,29.24,28.54,,Clear
KIGQ,05/10/2018 12:55 UTC,29.89,61.88,56.3,81.94,8.05,290.0,,,,,,1.0,,,,10.0,,KIGQ 101255Z AUTO 29007KT 10SM CLR 17/14 A2989 RMK AO2  T01660135,,,,,,56.26,,WNW,29.24,28.52,,Clear
KIGQ,05/10/2018 13:15 UTC,29.9,62.78,56.48,79.9,9.22,300.0,16.11,,,,,202.0,,,,10.0,,KIGQ 101315Z AUTO 30008G14KT 10SM SCT020 17/14 A2990 RMK AO2  T01710136,,,,,,56.44,,WNW,29.25,28.51,,Partly Cloudy
KIGQ,05/10/2018 13:35 UTC,29.91,63.14,56.48,78.9,10.36,290.0,17.27,,,,,202.0,,,,10.0,,KIGQ 101335Z AUTO 29009G15KT 10SM SCT020 17/14 A2991 RMK AO2  T01730136,,,,,,56.44,,WNW,29.26,28.52,,Partly Cloudy
KIGQ,05/10/2018 13:55 UTC,29.91,63.32,56.3,77.89,9.22,300.0,,,,,,223.0,,,,10.0,,KIGQ 101355Z AUTO 30008KT 10SM BKN022 17/14 A2991 RMK AO2  T01740135,,,2200.0,,,56.25,,WNW,29.26,28.52,,Mostly Cloudy
KIGQ,05/10/2018 14:15 UTC,29.93,63.32,56.3,77.89,9.22,320.0,,,,,,244.0,,,,10.0,,KIGQ 101415Z AUTO 32008KT 10SM OVC024 17/14 A2993 RMK AO2  T01740135,,,2400.0,,,56.25,,NW,29.28,28.54,,Overcast
KIGQ,05/10/2018 14:35 UTC,29.93,63.68,56.12,76.42,10.36,330.0,,,,,,264.0,,,,10.0,,KIGQ 101435Z AUTO 33009KT 10SM OVC026 18/13 A2993 RMK AO2  T01760134,,,2600.0,,,56.07,,NNW,29.28,28.55,,Overcast
KIGQ,05/10/2018 14:55 UTC,29.94,64.22,56.12,74.99,6.91,290.0,,,,,,264.0,,,,10.0,,KIGQ 101455Z AUTO 29006KT 10SM OVC026 18/13 A2994 RMK AO2  T01790134,,,2600.0,,,56.07,,WNW,29.29,28.55,,Overcast
KIGQ,05/10/2018 15:15 UTC,29.95,64.58,55.76,73.1,4.61,310.0,,,,,,294.0,,,,10.0,,KIGQ 101515Z AUTO 31004KT 10SM OVC029 18/13 A2995 RMK AO2  T01810132,,,2900.0,,,55.71,,NW,29.3,28.57,,Overcast
KIGQ,05/10/2018 15:35 UTC,29.96,65.3,56.48,73.17,3.44,340.0,,,,,,313.0,364.0,,,10.0,,KIGQ 101535Z AUTO 34003KT 10SM BKN031 OVC036 19/14 A2996 RMK AO2  T01850136,,,3100.0,,,56.43,,NNW,29.31,28.54,,Overcast
KIGQ,05/10/2018 15:55 UTC,29.96,67.1,57.2,70.56,3.44,310.0,,,,,,313.0,383.0,,,10.0,,KIGQ 101555Z AUTO 31003KT 10SM BKN031 BKN038 20/14 A2996 RMK AO2  T01950140,,,3100.0,,,57.15,,NW,29.31,28.49,,Mostly Cloudy
KIGQ,05/10/2018 16:15 UTC,29.96,66.38,55.4,67.78,8.05,320.0,,,,,,333.0,,,,10.0,,KIGQ 101615Z AUTO 32007KT 10SM BKN033 19/13 A2996 RMK AO2  T01910130,,,3300.0,,,55.35,,NW,29.31,28.58,,Mostly Cloudy
KIGQ,05/10/2018 16:35 UTC,29.95,68.18,57.2,67.98,6.91,330.0,,,,,,333.0,393.0,,,10.0,,KIGQ 101635Z AUTO 33006KT 10SM BKN033 BKN039 20/14 A2995 RMK AO2  T02010140,,,3300.0,,,57.15,,NNW,29.3,28.47,,Mostly Cloudy
KIGQ,05/10/2018 16:55 UTC,29.96,68.36,56.12,64.98,3.44,50.0,,,,,,332.0,,,,10.0,,KIGQ 101655Z AUTO 05003KT 10SM SCT033 20/13 A2996 RMK AO2  T02020134,,,,,,56.07,,NE,29.31,28.53,,Partly Cloudy
KIGQ,05/10/2018 17:15 UTC,29.94,68.9,56.3,64.21,6.91,330.0,,,,,,352.0,,,,10.0,,KIGQ 101715Z AUTO 33006KT 310V020 10SM SCT035 21/14 A2994 RMK AO2  T02050135,,,,,,56.25,,NNW,29.29,28.49,,Partly Cloudy
KIGQ,05/10/2018 17:35 UTC,29.95,68.36,56.66,66.26,5.75,60.0,,,,,,382.0,,,,10.0,,KIGQ 101735Z AUTO 06005KT 10SM SCT038 20/14 A2995 RMK AO2  T02020137,,,,,,56.61,,ENE,29.3,28.49,,Partly Cloudy
KIGQ,05/10/2018 17:55 UTC,29.95,68.9,56.66,65.05,6.91,30.0,,,,,,362.0,,,,10.0,,KIGQ 101755Z AUTO 03006KT 10SM SCT036 21/14 A2995 RMK AO2  T02050137 10206 20150,69.08,59.0,,,,56.61,,NNE,29.3,28.49,,Partly Cloudy
KIGQ,05/10/2018 18:15 UTC,29.95,68.9,58.1,68.51,9.22,50.0,,,,,,1.0,,,,10.0,,KIGQ 101815Z AUTO 05008KT 10SM CLR 21/15 A2995 RMK AO2  T02050145,,,,,,58.06,,NE,29.3,28.42,,Clear
KIGQ,05/10/2018 18:35 UTC,29.95,69.62,58.64,68.15,6.91,60.0,,,,,,1.0,,,,10.0,,KIGQ 101835Z AUTO 06006KT 10SM CLR 21/15 A2995 RMK AO2  T02090148,,,,,,58.6,,ENE,29.3,28.38,,Clear
KIGQ,05/10/2018 18:55 UTC,29.95,68.72,57.38,67.17,8.05,50.0,,,,,,1.0,,,,10.0,,KIGQ 101855Z AUTO 05007KT 10SM CLR 20/14 A2995 RMK AO2  T02040141,,,,,,57.33,,NE,29.3,28.45,,Clear
KIGQ,05/10/2018 19:15 UTC,29.95,68.9,57.56,67.19,11.5,40.0,,,,,,1.0,,,,10.0,,KIGQ 101915Z AUTO 04010KT 10SM CLR 21/14 A2995 RMK AO2  T02050142,,,,,,57.51,,NE,29.3,28.44,,Clear
KIGQ,05/10/2018 19:35 UTC,29.95,67.1,56.48,68.75,12.66,40.0,,,,,,1.0,,,,10.0,,KIGQ 101935Z AUTO 04011KT 10SM CLR 20/14 A2995 RMK AO2  T01950136,,,,,,56.43,,NE,29.3,28.51,,Clear
KIGQ,05/10/2018 19:55 UTC,29.96,66.2,55.94,69.55,11.5,50.0,,,,,,1.0,,,,10.0,,KIGQ 101955Z AUTO 05010KT 10SM CLR 19/13 A2996 RMK AO2  T01900133,,,,,,55.89,,NE,29.31,28.56,,Clear
KIGQ,05/10/2018 20:15 UTC,29.96,66.02,55.94,69.98,13.8,40.0,,,,,,1.0,,,,10.0,,KIGQ 102015Z AUTO 04012KT 10SM CLR 19/13 A2996 RMK AO2  T01890133,,,,,,55.89,,NE,29.31,28.56,,Clear
KIGQ,05/10/2018 20:35 UTC,29.96,63.86,55.22,73.5,12.66,40.0,,,,,,652.0,,,,10.0,,KIGQ 102035Z AUTO 04011KT 10SM SCT065 18/13 A2996 RMK AO2  T01770129,,,,,,55.17,,NE,29.31,28.62,,Partly Cloudy
KIGQ,05/10/2018 20:55 UTC,29.97,63.68,55.04,73.48,11.5,40.0,,,,,,654.0,,,,10.0,,KIGQ 102055Z AUTO 04010KT 10SM OVC065 18/13 A2997 RMK AO2  T01760128,,,6500.0,,,54.98,,NE,29.32,28.64,,Overcast
KIGQ,05/10/2018 21:15 UTC,29.96,63.86,55.04,73.02,12.66,60.0,,,,,,653.0,803.0,,,10.0,,KIGQ 102115Z AUTO 06011KT 10SM BKN065 BKN080 18/13 A2996 RMK AO2  T01770128,,,6500.0,,,54.98,,ENE,29.31,28.63,,Mostly Cloudy
KIGQ,05/10/2018 21:35 UTC,29.96,63.5,54.5,72.51,10.36,50.0,,,,,,652.0,803.0,,,10.0,,KIGQ 102135Z AUTO 05009KT 10SM SCT065 BKN080 18/13 A2996 RMK AO2  T01750125,,,8000.0,,,54.44,,NE,29.31,28.65,,Mostly Cloudy
KIGQ,05/10/2018 21:55 UTC,29.96,64.58,55.4,72.15,9.22,40.0,,,,,,802.0,,,,10.0,,KIGQ 102155Z AUTO 04008KT 10SM SCT080 18/13 A2996 RMK AO2  T01810130,,,,,,55.35,,NE,29.31,28.6,,Partly Cloudy
KIGQ,05/10/2018 22:15 UTC,29.96,64.4,54.68,70.73,10.36,40.0,,,,,,802.0,,,,10.0,,KIGQ 102215Z AUTO 04009KT 10SM SCT080 18/13 A2996 RMK AO2  T01800126,,,,,,54.62,,NE,29.31,28.64,,Partly Cloudy
KIGQ,05/10/2018 22:35 UTC,29.96,63.86,53.78,69.75,9.22,20.0,,,,,,1.0,,,,10.0,,KIGQ 102235Z AUTO 02008KT 10SM CLR 18/12 A2996 RMK AO2  T01770121,,,,,,53.72,,NNE,29.31,28.68,,Clear
KIGQ,05/10/2018 22:55 UTC,29.97,63.32,53.24,69.69,11.5,40.0,,,,,,1.0,,,,10.0,,KIGQ 102255Z AUTO 04010KT 10SM CLR 17/12 A2997 RMK AO2  T01740118,,,,,,53.18,,NE,29.32,28.72,,Clear
KIGQ,05/10/2018 23:15 UTC,29.97,62.96,53.24,70.57,10.36,50.0,,,,,,802.0,,,,10.0,,KIGQ 102315Z AUTO 05009KT 10SM SCT080 17/12 A2997 RMK AO2  T01720118,,,,,,53.18,,NE,29.32,28.72,,Partly Cloudy
KIGQ,05/10/2018 23:35 UTC,29.97,62.6,53.24,71.47,9.22,40.0,,,,,,802.0,,,,10.0,,KIGQ 102335Z AUTO 04008KT 10SM SCT080 17/12 A2997 RMK AO2  T01700118,,,,,,53.18,,NE,29.32,28.73,,Partly Cloudy
KIGQ,05/10/2018 23:55 UTC,29.96,62.78,53.42,71.49,8.05,50.0,,,,,,1.0,,,,10.0,,KIGQ 102355Z AUTO 05007KT 10SM CLR 17/12 A2996 RMK AO2 T01710119  10210 20170,69.8,62.6,,,,53.36,,NE,29.31,28.71,,Clear
KIGQ,05/11/2018 00:15 UTC,29.96,62.6,53.06,71.0,8.05,40.0,,,,,,1.0,,,,10.0,,KIGQ 110015Z AUTO 04007KT 10SM CLR 17/12 A2996 RMK AO2  T01700117,,,,,,53.0,,NE,29.31,28.72,,Clear
KIGQ,05/11/2018 00:35 UTC,29.96,61.88,52.7,71.87,8.05,40.0,,,,,,1.0,,,,10.0,,KIGQ 110035Z AUTO 04007KT 10SM CLR 17/12 A2996 RMK AO2  T01660115,,,,,,52.64,,NE,29.31,28.75,,Clear
KIGQ,05/11/2018 00:55 UTC,29.97,60.98,51.98,72.25,4.61,40.0,,,,,,1.0,,,,10.0,,KIGQ 110055Z AUTO 04004KT 10SM CLR 16/11 A2997 RMK AO2  T01610111,,,,,,51.91,,NE,29.32,28.79,,Clear
KIGQ,05/11/2018 01:15 UTC,29.97,60.08,51.8,74.1,4.61,50.0,,,,,,1.0,,,,10.0,,KIGQ 110115Z AUTO 05004KT 10SM CLR 16/11 A2997 RMK AO2  T01560110,,,,,,51.74,,NE,29.32,28.81,,Clear
KIGQ,05/11/2018 01:35 UTC,29.98,59.9,51.8,74.58,5.75,70.0,,,,,,1.0,,,,10.0,,KIGQ 110135Z AUTO 07005KT 10SM CLR 16/11 A2998 RMK AO2  T01550110,,,,,,51.74,,ENE,29.33,28.82,,Clear
KIGQ,05/11/2018 01:55 UTC,29.98,59.54,51.62,75.04,4.61,60.0,,,,,,1.0,,,,10.0,,KIGQ 110155Z AUTO 06004KT 10SM CLR 15/11 A2998 RMK AO2  T01530109,,,,,,51.56,,ENE,29.33,28.83,,Clear
KIGQ,05/11/2018 02:15 UTC,29.98,59.0,51.44,75.99,6.91,50.0,,,,,,1.0,,,,10.0,,KIGQ 110215Z AUTO 05006KT 10SM CLR 15/11 A2998 RMK AO2  T01500108,,,,,,51.38,,NE,29.33,28.84,,Clear
KIGQ,05/11/2018 02:35 UTC,29.99,59.0,51.26,75.49,6.91,60.0,,,,,,1.0,,,,10.0,,KIGQ 110235Z AUTO 06006KT 10SM CLR 15/11 A2999 RMK AO2  T01500107,,,,,,51.2,,ENE,29.34,28.86,,Clear
KIGQ,05/11/2018 02:55 UTC,30.0,58.46,51.08,76.45,3.44,50.0,,,,,,1.0,,,,10.0,,KIGQ 110255Z AUTO 05003KT 10SM CLR 15/11 A3000 RMK AO2  T01470106,,,,,,51.02,,NE,29.35,28.88,,Clear
KIGQ,05/11/2018 03:15 UTC,30.01,58.28,50.9,76.43,3.44,40.0,,,,,,1.0,,,,10.0,,KIGQ 110315Z AUTO 04003KT 10SM CLR 15/11 A3001 RMK AO2  T01460105,,,,,,50.84,,NE,29.36,28.9,,Clear
KIGQ,05/11/2018 03:35 UTC,30.02,58.46,50.9,75.94,4.61,50.0,,,,,,1.0,,,,10.0,,KIGQ 110335Z AUTO 05004KT 10SM CLR 15/11 A3002 RMK AO2  T01470105,,,,,,50.84,,NE,29.37,28.91,,Clear
KIGQ,05/11/2018 03:55 UTC,30.02,58.28,50.9,76.43,4.61,40.0,,,,,,1.0,,,,10.0,,KIGQ 110355Z AUTO 04004KT 10SM CLR 15/11 A3002 RMK AO2  T01460105,,,,,,50.84,,NE,29.37,28.91,,Clear
KIGQ,05/11/2018 04:15 UTC,30.03,58.1,51.26,77.96,4.61,40.0,,,,,,953.0,,,,10.0,,KIGQ 110415Z AUTO 04004KT 10SM BKN095 15/11 A3003 RMK AO2  T01450107,,,9500.0,,,51.2,,NE,29.38,28.91,,Mostly Cloudy
KIGQ,05/11/2018 04:35 UTC,30.03,57.38,51.26,80.0,4.61,50.0,,,,,,953.0,,,,10.0,,KIGQ 110435Z AUTO 05004KT 10SM BKN095 14/11 A3003 RMK AO2  T01410107,,,9500.0,,,51.21,,NE,29.38,28.92,,Mostly Cloudy
KIGQ,05/11/2018 04:55 UTC,30.03,56.48,50.9,81.54,5.75,40.0,,,,,,953.0,,,,10.0,,KIGQ 110455Z AUTO 04005KT 10SM BKN095 14/11 A3003 RMK AO2  T01360105,,,9500.0,,,50.85,,NE,29.38,28.94,,Mostly Cloudy
KIGQ,05/11/2018 05:15 UTC,30.03,56.66,51.08,81.56,4.61,50.0,,,,,,952.0,,,,10.0,,KIGQ 110515Z AUTO 05004KT 10SM SCT095 14/11 A3003 RMK AO2  T01370106,,,,,,51.03,,NE,29.38,28.93,,Partly Cloudy
KIGQ,05/11/2018 05:35 UTC,30.03,57.2,51.08,79.99,5.75,40.0,,,,,,953.0,,,,10.0,,KIGQ 110535Z AUTO 04005KT 10SM BKN095 14/11 A3003 RMK AO2  T01400106,,,9500.0,,,51.03,,NE,29.38,28.93,,Mostly Cloudy
KIGQ,05/11/2018 05:55 UTC,30.04,57.38,50.9,78.94,5.75,30.0,,,,,,954.0,,,,10.0,,KIGQ 110555Z AUTO 03005KT 10SM OVC095 14/11 A3004 RMK AO2  T01410105 10170 20136 402100135,62.6,56.48,9500.0,69.8,56.3,50.84,,NNE,29.39,28.94,,Overcast
KIGQ,05/11/2018 06:15 UTC,30.05,51.98,48.2,86.9,12.66,10.0,17.27,,,,,954.0,,,,10.0,,KIGQ 110615Z AUTO 01011G15KT 10SM OVC095 11/09 A3005 RMK AO2  T01110090,,,9500.0,,,48.16,,N,29.4,29.1,,Overcast
KIGQ,05/11/2018 06:35 UTC,30.04,51.44,49.1,91.68,10.36,30.0,,,,,,954.0,,,,10.0,,KIGQ 110635Z AUTO 03009KT 10SM OVC095 11/10 A3004 RMK AO2  T01080095,,,9500.0,,,49.07,,NNE,29.39,29.06,,Overcast
KIGQ,05/11/2018 06:55 UTC,30.02,51.26,49.28,92.91,8.05,40.0,,,,,,953.0,1203.0,,,10.0,,KIGQ 110655Z AUTO 04007KT 10SM BKN095 BKN120 11/10 A3002 RMK AO2  T01070096,,,9500.0,,,49.26,,NE,29.37,29.04,,Mostly Cloudy
KIGQ,05/11/2018 07:15 UTC,30.02,50.54,48.92,94.15,10.36,40.0,,,,,,953.0,,,,10.0,,KIGQ 110715Z AUTO 04009KT 10SM BKN095 10/09 A3002 RMK AO2  T01030094,,,9500.0,,,48.9,,NE,29.37,29.06,,Mostly Cloudy
KIGQ,05/11/2018 07:35 UTC,30.03,50.36,48.74,94.14,9.22,30.0,,,,,,954.0,,,,10.0,,KIGQ 110735Z AUTO 03008KT 10SM OVC095 10/09 A3003 RMK AO2  T01020093,,,9500.0,,,48.72,,NNE,29.38,29.08,,Overcast
KIGQ,05/11/2018 07:55 UTC,30.03,49.64,47.3,91.61,6.91,20.0,,,1204.0,,,752.0,953.0,,,10.0,,KIGQ 110755Z AUTO 02006KT 10SM SCT075 BKN095 OVC120 10/09 A3003 RMK AO2 T00980085,,,9500.0,,,47.27,,NNE,29.38,29.13,,Overcast
KIGQ,05/11/2018 08:15 UTC,30.03,48.38,46.04,91.57,6.91,10.0,,1.0,1204.0,0.03,,472.0,753.0,,,7.0,,KIGQ 110815Z AUTO 01006KT 7SM RA SCT047 BKN075 OVC120 09/08 A3003 RMK AO2 P0003 T00910078,,,7500.0,,,46.01,,N,29.38,29.18,,Rain
KIGQ,05/11/2018 08:35 UTC,30.05,47.3,45.32,92.79,6.91,360.0,,,1004.0,0.04,,472.0,753.0,,,10.0,,KIGQ 110835Z AUTO 36006KT 10SM SCT047 BKN075 OVC100 09/07 A3005 RMK AO2 LTG DSNT W P0004 T00850074,,,7500.0,,,45.29,,N,29.4,29.23,,Overcast
KIGQ,05/11/2018 08:55 UTC,30.05,46.94,44.96,92.78,3.44,20.0,,13.0,1004.0,0.04,0.04,652.0,803.0,,,10.0,,KIGQ 110855Z AUTO 02003KT 10SM -RA SCT065 BKN080 OVC100 08/07  A3005 RMK AO2 P0004 60004 T00830072,,,8000.0,,,44.93,,NNE,29.4,29.24,,Light Rain
KIGQ,05/11/2018 09:15 UTC,30.06,46.94,45.68,95.35,4.61,20.0,,1.0,1004.0,,,482.0,803.0,,,10.0,,KIGQ 110915Z AUTO 02004KT 10SM RA SCT048 BKN080 OVC100 08/08 A3006 RMK AO2 T00830076,,,8000.0,,,45.66,,NNE,29.41,29.23,,Rain
KIGQ,05/11/2018 09:35 UTC,30.04,46.58,46.04,97.98,3.44,360.0,,13.0,1104.0,0.02,,602.0,1003.0,,,10.0,,KIGQ 110935Z AUTO 36003KT 10SM -RA SCT060 BKN100 OVC110 08/08  A3004 RMK AO2 P0002 T00810078,,,10000.0,,,46.03,,N,29.39,29.21,,Light Rain
KIGQ,05/11/2018 09:55 UTC,30.05,46.58,46.04,97.98,3.44,360.0,,1.0,1104.0,0.02,,442.0,753.0,,,10.0,,KIGQ 110955Z AUTO 36003KT 10SM RA SCT044 BKN075 OVC110 08/08 A3005 RMK AO2 P0002 T00810078,,,7500.0,,,46.03,,N,29.4,29.22,,Rain
KIGQ,05/11/2018 10:15 UTC,30.01,46.4,46.4,100.0,8.05,70.0,,13.0,1004.0,0.05,,362.0,703.0,,,7.0,,KIGQ 111015Z AUTO 07007KT 7SM -RA SCT036 BKN070 OVC100 08/08 A3001 RMK AO2 P0005 T00800080,,,7000.0,,,46.4,,ENE,29.36,29.17,,Light Rain
KIGQ,05/11/2018 10:35 UTC,30.01,46.4,46.4,100.0,6.91,40.0,,13.0,1104.0,0.05,,703.0,903.0,,,10.0,,KIGQ 111035Z AUTO 04006KT 10SM -RA BKN070 BKN090 OVC110 08/08  A3001 RMK AO2 P0005 T00800080,,,7000.0,,,46.4,,NE,29.36,29.17,,Light Rain
KIGQ,05/11/2018 10:55 UTC,30.01,46.58,46.58,100.0,4.61,60.0,,,,0.05,,53.0,704.0,,,10.0,,KIGQ 111055Z AUTO 06004KT 10SM BKN005 OVC070 08/08 A3001 RMK AO2  P0005 T00810081,,,500.0,,,46.58,,ENE,29.36,29.16,,Overcast
KIGQ,05/11/2018 11:15 UTC,30.02,47.3,47.3,100.0,3.44,40.0,,,,,,52.0,704.0,,,7.0,,KIGQ 111115Z AUTO 04003KT 7SM SCT005 OVC070 09/09 A3002 RMK AO2  T00850085,,,7000.0,,,47.3,,NE,29.37,29.14,,Overcast
KIGQ,05/11/2018 11:35 UTC,30.02,47.66,47.66,100.0,5.75,20.0,,,,,,32.0,704.0,,,7.0,,KIGQ 111135Z AUTO 02005KT 7SM SCT003 OVC070 09/09 A3002 RMK AO2  T00870087,,,7000.0,,,47.66,,NNE,29.37,29.13,,Overcast
KIGQ,05/11/2018 11:55 UTC,30.01,48.38,48.38,100.0,5.75,60.0,,,,,,703.0,853.0,0.11,0.11,7.0,,KIGQ 111155Z AUTO 06005KT 7SM BKN070 BKN085 09/09 A3001 RMK AO2  60011 70011 T00910091 10142 20080,57.56,46.4,7000.0,,,48.38,,ENE,29.36,29.09,,Mostly Cloudy
KIGQ,05/11/2018 12:15 UTC,30.01,50.0,50.0,100.0,4.61,70.0,,,1103.0,,,603.0,853.0,,,10.0,,KIGQ 111215Z AUTO 07004KT 10SM BKN060 BKN085 BKN110 10/10 A3001 RMK AO2 T01000100,,,6000.0,,,50.0,,ENE,29.36,29.02,,Mostly Cloudy
KIGQ,05/11/2018 12:35 UTC,30.02,50.54,50.54,100.0,4.61,20.0,,,,,,602.0,,,,7.0,,KIGQ 111235Z AUTO 02004KT 7SM SCT060 10/10 A3002 RMK AO2 LTG DSNT  SW T01030103,,,,,,50.54,,NNE,29.37,29.0,,Partly Cloudy
KIGQ,05/11/2018 12:55 UTC,30.03,51.98,51.98,100.0,5.75,30.0,,,953.0,,,703.0,803.0,,,10.0,,KIGQ 111255Z AUTO 03005KT 10SM BKN070 BKN080 BKN095 11/11 A3003 RMK AO2 T01110111,,,7000.0,,,51.98,,NNE,29.38,28.95,,Mostly Cloudy
KIGQ,05/11/2018 13:15 UTC,30.03,53.6,52.7,96.76,9.22,40.0,,,,,,703.0,804.0,,,10.0,,KIGQ 111315Z AUTO 04008KT 10SM BKN070 OVC080 12/12 A3003 RMK AO2  T01200115,,,7000.0,,,52.69,,NE,29.38,28.9,,Overcast
KIGQ,05/11/2018 13:35 UTC,30.04,53.42,52.16,95.48,9.22,30.0,,,704.0,,,102.0,142.0,,,10.0,,KIGQ 111335Z AUTO 03008KT 10SM SCT010 SCT014 OVC070 12/11 A3004 RMK AO2 T01190112,,,7000.0,,,52.15,,NNE,29.39,28.94,,Overcast
KIGQ,05/11/2018 13:55 UTC,30.04,53.06,51.44,94.21,10.36,40.0,,,,,,124.0,,,,10.0,,KIGQ 111355Z AUTO 04009KT 10SM OVC012 12/11 A3004 RMK AO2  T01170108,,,1200.0,,,51.42,,NE,29.39,28.97,,Overcast
KIGQ,05/11/2018 14:15 UTC,30.03,53.24,51.08,92.36,9.22,40.0,,,,,,124.0,,,,10.0,,KIGQ 111415Z AUTO 04008KT 10SM OVC012 12/11 A3003 RMK AO2  T01180106,,,1200.0,,,51.06,,NE,29.38,28.97,,Overcast
KIGQ,05/11/2018 14:35 UTC,30.03,54.14,51.26,89.96,8.05,50.0,,,,,,144.0,,,,10.0,,KIGQ 111435Z AUTO 05007KT 10SM OVC014 12/11 A3003 RMK AO2  T01230107,,,1400.0,,,51.23,,NE,29.38,28.95,,Overcast
KIGQ,05/11/2018 14:55 UTC,30.02,55.4,52.34,89.42,8.05,50.0,,,,,,144.0,,,,10.0,,KIGQ 111455Z AUTO 05007KT 10SM OVC014 13/11 A3002 RMK AO2  T01300113,,,1400.0,,,52.31,,NE,29.37,28.89,,Overcast
KIGQ,05/11/2018 15:15 UTC,30.01,57.74,52.88,83.83,12.66,80.0,17.27,,,,,163.0,364.0,,,10.0,,KIGQ 111515Z AUTO 08011G15KT 10SM BKN016 OVC036 14/12 A3001 RMK AO2 T01430116,,,1600.0,,,52.84,,E,29.36,28.83,,Overcast
KIGQ,05/11/2018 15:35 UTC,30.01,57.92,51.08,77.94,12.66,100.0,18.41,,,,,202.0,344.0,,,10.0,,KIGQ 111535Z AUTO 10011G16KT 10SM SCT020 OVC034 14/11 A3001 RMK AO2 T01440106,,,3400.0,,,51.02,,E,29.36,28.9,,Overcast
KIGQ,05/11/2018 15:55 UTC,30.0,57.74,50.9,77.93,13.8,100.0,18.41,,,,,324.0,,,,10.0,,KIGQ 111555Z AUTO 10012G16KT 10SM OVC032 14/11 A3000 RMK AO2  T01430105,,,3200.0,,,50.84,,E,29.35,28.9,,Overcast
KIGQ,05/11/2018 16:15 UTC,30.0,57.2,50.0,76.85,12.66,100.0,17.27,,,,,304.0,,,,10.0,,KIGQ 111615Z AUTO 10011G15KT 10SM OVC030 14/10 A3000 RMK AO2  T01400100,,,3000.0,,,49.94,,E,29.35,28.94,,Overcast
KIGQ,05/11/2018 16:35 UTC,30.01,57.2,50.72,78.93,9.22,110.0,,,,,,304.0,,,,10.0,,KIGQ 111635Z AUTO 11008KT 10SM OVC030 14/10 A3001 RMK AO2  T01400104,,,3000.0,,,50.66,,ESE,29.36,28.92,,Overcast
KIGQ,05/11/2018 16:55 UTC,30.05,57.56,50.54,77.39,8.05,130.0,,,,,,242.0,304.0,,,10.0,,KIGQ 111655Z AUTO 13007KT 10SM SCT024 OVC030 14/10 A3005 RMK AO2  T01420103,,,3000.0,,,50.48,,SE,29.4,28.96,,Overcast
KIGQ,05/11/2018 17:15 UTC,30.02,58.46,51.26,76.96,11.5,110.0,,,803.0,,,242.0,303.0,,,10.0,,KIGQ 111715Z AUTO 11010KT 10SM SCT024 BKN030 BKN080 15/11 A3002 RMK AO2 T01470107,,,3000.0,,,51.2,,ESE,29.37,28.9,,Mostly Cloudy
KIGQ,05/11/2018 17:35 UTC,29.99,57.38,50.0,76.35,13.8,120.0,,,802.0,,,322.0,702.0,,,10.0,,KIGQ 111735Z AUTO 12012KT 10SM SCT032 SCT070 SCT080 14/10 A2999 RMK AO2 T01410100,,,,,,49.94,,ESE,29.34,28.92,,Partly Cloudy
KIGQ,05/11/2018 17:55 UTC,29.94,58.1,50.54,75.91,16.11,100.0,23.02,,,,,1.0,,,,10.0,,KIGQ 111755Z AUTO 10014G20KT 10SM CLR 15/10 A2994 RMK AO2  T01450103 10154 20092,59.72,48.56,,,,50.48,,E,29.29,28.85,,Clear
KIGQ,05/11/2018 18:15 UTC,29.94,58.28,50.9,76.43,14.97,90.0,18.41,,,,,1.0,,,,10.0,,KIGQ 111815Z AUTO 09013G16KT 10SM CLR 15/11 A2994 RMK AO2  T01460105,,,,,,50.84,,E,29.29,28.83,,Clear
KIGQ,05/11/2018 18:35 UTC,29.95,57.56,50.36,76.88,13.8,100.0,19.57,13.0,1003.0,,,312.0,462.0,,,10.0,,KIGQ 111835Z AUTO 10012G17KT 10SM -RA SCT031 SCT046 BKN100 14/10  A2995 RMK AO2 T01420102,,,10000.0,,,50.3,,E,29.3,28.87,,Light Rain
KIGQ,05/11/2018 18:55 UTC,29.95,58.1,51.44,78.48,8.05,90.0,,13.0,1103.0,,,302.0,432.0,,,10.0,,KIGQ 111855Z AUTO 09007KT 10SM -RA SCT030 SCT043 BKN110 15/11  A2995 RMK AO2 T01450108,,,11000.0,,,51.38,,E,29.3,28.82,,Light Rain
KIGQ,05/11/2018 19:15 UTC,29.95,60.26,51.44,72.66,13.8,100.0,17.27,,,,,302.0,1202.0,,,10.0,,KIGQ 111915Z AUTO 10012G15KT 10SM SCT030 SCT120 16/11 A2995 RMK AO2 T01570108,,,,,,51.37,,E,29.3,28.8,,Partly Cloudy
KIGQ,05/11/2018 19:35 UTC,29.94,58.46,50.0,73.45,12.66,100.0,,,,,,1202.0,,,,10.0,,KIGQ 111935Z AUTO 10011KT 10SM SCT120 15/10 A2994 RMK AO2  T01470100,,,,,,49.93,,E,29.29,28.86,,Partly Cloudy
KIGQ,05/11/2018 19:55 UTC,29.94,58.46,51.26,76.96,9.22,100.0,,13.0,702.0,,,302.0,452.0,,,10.0,,KIGQ 111955Z AUTO 10008KT 10SM -RA SCT030 SCT045 SCT070 15/11  A2994 RMK AO2 T01470107,,,,,,51.2,,E,29.29,28.82,,Light Rain
KIGQ,05/11/2018 20:15 UTC,29.93,58.82,51.08,75.47,9.22,90.0,,13.0,552.0,,,392.0,472.0,,,10.0,,KIGQ 112015Z AUTO 09008KT 10SM -RA SCT039 SCT047 SCT055 15/11  A2993 RMK AO2 T01490106,,,,,,51.02,,E,29.28,28.81,,Light Rain
KIGQ,05/11/2018 20:35 UTC,29.93,59.0,50.9,74.49,9.22,100.0,,,552.0,,,382.0,482.0,,,10.0,,KIGQ 112035Z AUTO 10008KT 10SM SCT038 SCT048 SCT055 15/11 A2993 RMK AO2 T01500105,,,,,,50.84,,E,29.28,28.81,,Partly Cloudy
KIGQ,05/11/2018 20:55 UTC,29.93,60.08,51.26,72.64,8.05,90.0,,,,,,1.0,,,,7.0,,KIGQ 112055Z AUTO 09007KT 7SM CLR 16/11 A2993 RMK AO2  T01560107,,,,,,51.19,,E,29.28,28.79,,Clear
KIGQ,05/11/2018 21:15 UTC,29.93,61.16,51.8,71.32,9.22,100.0,,,,,,1.0,,,,10.0,,KIGQ 112115Z AUTO 10008KT 10SM CLR 16/11 A2993 RMK AO2  T01620110,,,,,,51.73,,E,29.28,28.76,,Clear
KIGQ,05/11/2018 21:35 UTC,29.93,61.34,51.8,70.86,10.36,20.0,,,,,,1.0,,,,10.0,,KIGQ 112135Z AUTO 02009KT 10SM CLR 16/11 A2993 RMK AO2  T01630110,,,,,,51.73,,NNE,29.28,28.76,,Clear
KIGQ,05/11/2018 21:55 UTC,29.93,58.28,49.64,72.94,9.22,30.0,,,,,,1.0,,,,10.0,,KIGQ 112155Z AUTO 03008KT 10SM CLR 15/10 A2993 RMK AO2  T01460098,,,,,,49.57,,NNE,29.28,28.87,,Clear
KIGQ,05/11/2018 22:15 UTC,29.93,57.2,48.56,72.83,11.5,40.0,,,,,,1.0,,,,10.0,,KIGQ 112215Z AUTO 04010KT 10SM CLR 14/09 A2993 RMK AO2  T01400092,,,,,,48.49,,NE,29.28,28.92,,Clear
KIGQ,05/11/2018 22:35 UTC,29.92,56.66,48.2,73.27,12.66,30.0,,,,,,1.0,,,,10.0,,KIGQ 112235Z AUTO 03011KT 10SM CLR 14/09 A2992 RMK AO2  T01370090,,,,,,48.13,,NNE,29.27,28.92,,Clear
KIGQ,05/11/2018 22:55 UTC,29.93,54.68,47.12,75.59,16.11,40.0,,,,,,1.0,,,,10.0,,KIGQ 112255Z AUTO 04014KT 10SM CLR 13/08 A2993 RMK AO2  T01260084,,,,,,47.05,,NE,29.28,28.99,,Clear
KIGQ,05/11/2018 23:15 UTC,29.93,53.6,46.76,77.57,14.97,50.0,19.57,,,,,1.0,,,,10.0,,KIGQ 112315Z AUTO 05013G17KT 10SM CLR 12/08 A2993 RMK AO2  T01200082,,,,,,46.69,,NE,29.28,29.01,,Clear
KIGQ,05/11/2018 23:35 UTC,29.93,53.6,46.94,78.09,12.66,40.0,20.71,,,,,752.0,853.0,,,10.0,,KIGQ 112335Z AUTO 04011G18KT 10SM SCT075 BKN085 12/08 A2993 RMK AO2 T01200083,,,8500.0,,,46.87,,NE,29.28,29.0,,Mostly Cloudy
KIGQ,05/11/2018 23:55 UTC,29.93,51.98,46.58,81.76,11.5,40.0,18.41,,,,,752.0,852.0,,,10.0,,KIGQ 112355Z AUTO 04010G16KT 10SM SCT075 SCT085 11/08 A2993 RMK AO2 T01110081 10168 20111,62.24,51.98,,,,46.52,,NE,29.28,29.03,,Partly Cloudy
KIGQ,05/12/2018 00:15 UTC,29.94,50.18,46.22,86.21,12.66,30.0,17.27,,,,,652.0,853.0,,,10.0,,KIGQ 120015Z AUTO 03011G15KT 10SM SCT065 BKN085 10/08 A2994 RMK AO2 T01010079,,,8500.0,,,46.17,,NNE,29.29,29.07,,Mostly Cloudy
KIGQ,05/12/2018 00:35 UTC,29.93,50.0,46.4,87.38,13.8,40.0,,,,,,653.0,853.0,,,10.0,,KIGQ 120035Z AUTO 04012KT 10SM BKN065 BKN085 10/08 A2993 RMK AO2  T01000080,,,6500.0,,,46.36,,NE,29.28,29.05,,Mostly Cloudy
KIGQ,05/12/2018 00:55 UTC,29.93,49.46,46.4,89.15,12.66,40.0,,,,,,752.0,,,,10.0,,KIGQ 120055Z AUTO 04011KT 10SM SCT075 10/08 A2993 RMK AO2  T00970080,,,,,,46.36,,NE,29.28,29.06,,Partly Cloudy
KIGQ,05/12/2018 01:15 UTC,29.92,49.46,46.4,89.15,9.22,30.0,,,,,,752.0,903.0,,,10.0,,KIGQ 120115Z AUTO 03008KT 10SM SCT075 BKN090 10/08 A2992 RMK AO2  T00970080,,,9000.0,,,46.36,,NNE,29.27,29.05,,Mostly Cloudy
KIGQ,05/12/2018 01:35 UTC,29.94,49.82,46.94,89.78,9.22,10.0,,,1003.0,,,752.0,803.0,,,10.0,,KIGQ 120135Z AUTO 01008KT 10SM SCT075 BKN080 BKN100 10/08 A2994 RMK AO2 LTG DSNT W T00990083,,,8000.0,,,46.91,,N,29.29,29.05,,Mostly Cloudy
KIGQ,05/12/2018 01:55 UTC,29.94,50.0,47.12,89.79,10.36,40.0,,,,,,702.0,953.0,,,10.0,,KIGQ 120155Z AUTO 04009KT 10SM SCT070 BKN095 10/08 A2994 RMK AO2  T01000084,,,9500.0,,,47.09,,NE,29.29,29.04,,Mostly Cloudy
KIGQ,05/12/2018 02:15 UTC,29.94,49.64,46.58,89.16,9.22,40.0,,,,,,802.0,1103.0,,,10.0,,KIGQ 120215Z AUTO 04008KT 10SM SCT080 BKN110 10/08 A2994 RMK AO2  T00980081,,,11000.0,,,46.54,,NE,29.29,29.06,,Mostly Cloudy
KIGQ,05/12/2018 02:35 UTC,29.95,49.46,46.58,89.76,4.61,30.0,,,,,,1103.0,,,,10.0,,KIGQ 120235Z AUTO 03004KT 10SM BKN110 10/08 A2995 RMK AO2  T00970081,,,11000.0,,,46.55,,NNE,29.3,29.07,,Mostly Cloudy
KIGQ,05/12/2018 02:55 UTC,29.96,49.64,46.76,89.77,5.75,40.0,,,,,,1104.0,,,,10.0,,KIGQ 120255Z AUTO 04005KT 10SM OVC110 10/08 A2996 RMK AO2  T00980082,,,11000.0,,,46.73,,NE,29.31,29.08,,Overcast
KIGQ,05/12/2018 03:15 UTC,29.96,50.0,46.94,89.18,6.91,20.0,,,1104.0,,,752.0,852.0,,,10.0,,KIGQ 120315Z AUTO 02006KT 10SM SCT075 SCT085 OVC110 10/08 A2996 RMK AO2 T01000083,,,11000.0,,,46.9,,NNE,29.31,29.07,,Overcast
KIGQ,05/12/2018 03:35 UTC,29.96,50.0,47.3,90.4,5.75,30.0,,,,,,1204.0,,,,10.0,,KIGQ 120335Z AUTO 03005KT 10SM OVC120 10/09 A2996 RMK AO2 LTG DSNT  NE T01000085,,,12000.0,,,47.27,,NNE,29.31,29.06,,Overcast
KIGQ,05/12/2018 03:55 UTC,29.96,50.0,47.3,90.4,4.61,40.0,,,,,,902.0,1204.0,,,10.0,,KIGQ 120355Z AUTO 04004KT 10SM SCT090 OVC120 10/09 A2996 RMK AO2  LTG DSNT NE T01000085,,,12000.0,,,47.27,,NE,29.31,29.06,,Overcast
KIGQ,05/12/2018 04:15 UTC,29.96,50.18,47.48,90.4,4.61,40.0,,,,,,904.0,,,,10.0,,KIGQ 120415Z AUTO 04004KT 10SM OVC090 10/09 A2996 RMK AO2 LTG DSNT  NE T01010086,,,9000.0,,,47.45,,NE,29.31,29.05,,Overcast
KIGQ,05/12/2018 04:35 UTC,29.96,50.54,47.48,89.2,5.75,30.0,,,,,,904.0,,,,10.0,,KIGQ 120435Z AUTO 03005KT 10SM OVC090 10/09 A2996 RMK AO2 LTG DSNT  NE T01030086,,,9000.0,,,47.44,,NNE,29.31,29.04,,Overcast
KIGQ,05/12/2018 04:55 UTC,29.95,50.9,47.48,88.02,3.44,30.0,,,,,,904.0,,,,10.0,,KIGQ 120455Z AUTO 03003KT 10SM OVC090 11/09 A2995 RMK AO2 LTG DSNT  N AND NE T01050086,,,9000.0,,,47.44,,NNE,29.3,29.03,,Overcast
KIGQ,05/12/2018 05:15 UTC,29.95,50.54,47.66,89.81,5.75,30.0,,,,,,904.0,,,,10.0,,KIGQ 120515Z AUTO 03005KT 10SM OVC090 10/09 A2995 RMK AO2  T01030087,,,9000.0,,,47.63,,NNE,29.3,29.03,,Overcast
KIGQ,05/12/2018 05:35 UTC,29.95,50.18,47.48,90.4,6.91,30.0,,,,,,904.0,,,,10.0,,KIGQ 120535Z AUTO 03006KT 10SM OVC090 10/09 A2995 RMK AO2 LTG DSNT  N AND NE T01010086,,,9000.0,,,47.45,,NNE,29.3,29.04,,Overcast
KIGQ,05/12/2018 05:55 UTC,29.95,50.0,47.3,90.4,8.05,30.0,,,,,,903.0,1204.0,,,10.0,,KIGQ 120555Z AUTO 03007KT 10SM BKN090 OVC120 10/09 A2995 RMK AO2  LTG DSNT NE T01000085 10110 20096 401680080,51.8,49.28,9000.0,62.24,46.4,47.27,,NNE,29.3,29.05,,Overcast
KIGQ,05/12/2018 06:15 UTC,29.95,49.46,46.76,90.37,9.22,30.0,,,,,,803.0,1204.0,,,10.0,,KIGQ 120615Z AUTO 03008KT 10SM BKN080 OVC120 10/08 A2995 RMK AO2  LTG DSNT NE T00970082,,,8000.0,,,46.73,,NNE,29.3,29.07,,Overcast
KIGQ,05/12/2018 06:35 UTC,29.95,48.74,46.4,91.58,9.22,30.0,,,,,,804.0,,,,10.0,,KIGQ 120635Z AUTO 03008KT 10SM OVC080 09/08 A2995 RMK AO2 LTG DSNT  NE T00930080,,,8000.0,,,46.37,,NNE,29.3,29.08,,Overcast
KIGQ,05/12/2018 06:55 UTC,29.95,48.74,46.4,91.58,12.66,40.0,,,,,,804.0,,,,10.0,,KIGQ 120655Z AUTO 04011KT 10SM OVC080 09/08 A2995 RMK AO2 LTG DSNT  NE T00930080,,,8000.0,,,46.37,,NE,29.3,29.08,,Overcast
KIGQ,05/12/2018 07:15 UTC,29.95,48.2,45.86,91.56,11.5,40.0,,,,,,804.0,,,,10.0,,KIGQ 120715Z AUTO 04010KT 10SM OVC080 09/08 A2995 RMK AO2  T00900077,,,8000.0,,,45.83,,NE,29.3,29.11,,Overcast
KIGQ,05/12/2018 07:35 UTC,29.95,47.66,46.04,94.08,9.22,30.0,,,,,,804.0,,,,10.0,,KIGQ 120735Z AUTO 03008KT 10SM OVC080 09/08 A2995 RMK AO2 LTG DSNT  NE T00870078,,,8000.0,,,46.02,,NNE,29.3,29.11,,Overcast
KIGQ,05/12/2018 07:55 UTC,29.96,47.66,46.04,94.08,12.66,30.0,,,,,,804.0,,,,10.0,,KIGQ 120755Z AUTO 03011KT 10SM OVC080 09/08 A2996 RMK AO2  T00870078,,,8000.0,,,46.02,,NNE,29.31,29.12,,Overcast
KIGQ,05/12/2018 08:15 UTC,29.96,47.3,45.68,94.07,10.36,30.0,18.41,,,,,804.0,,,,10.0,,KIGQ 120815Z AUTO 03009G16KT 10SM OVC080 09/08 A2996 RMK AO2 LTG  DSNT NE T00850076,,,8000.0,,,45.66,,NNE,29.31,29.13,,Overcast
KIGQ,05/12/2018 08:35 UTC,29.96,47.3,45.5,93.43,12.66,30.0,16.11,,,,,804.0,,,,10.0,,KIGQ 120835Z AUTO 03011G14KT 10SM OVC080 09/08 A2996 RMK AO2  T00850075,,,8000.0,,,45.48,,NNE,29.31,29.13,,Overcast
KIGQ,05/12/2018 08:55 UTC,29.97,47.3,45.5,93.43,10.36,40.0,,,,,,804.0,,,,10.0,,KIGQ 120855Z AUTO 04009KT 10SM OVC080 09/08 A2997 RMK AO2  T00850075,,,8000.0,,,45.48,,NE,29.32,29.14,,Overcast
KIGQ,05/12/2018 09:15 UTC,29.97,47.3,45.14,92.16,10.36,50.0,,,,,,804.0,,,,10.0,,KIGQ 120915Z AUTO 05009KT 10SM OVC080 09/07 A2997 RMK AO2  T00850073,,,8000.0,,,45.11,,NE,29.32,29.15,,Overcast
KIGQ,05/12/2018 09:35 UTC,29.96,47.3,44.78,90.91,11.5,60.0,,,,,,804.0,,,,10.0,,KIGQ 120935Z AUTO 06010KT 10SM OVC080 09/07 A2996 RMK AO2 LTG DSNT  NW T00850071,,,8000.0,,,44.75,,ENE,29.31,29.15,,Overcast
KIGQ,05/12/2018 09:55 UTC,29.98,47.3,44.78,90.91,10.36,50.0,,,,,,804.0,,,,10.0,,KIGQ 120955Z AUTO 05009KT 10SM OVC080 09/07 A2998 RMK AO2 LTG DSNT  W AND NW T00850071,,,8000.0,,,44.75,,NE,29.33,29.18,,Overcast
KIGQ,05/12/2018 10:15 UTC,30.0,47.3,44.78,90.91,5.75,40.0,,,,,,804.0,,,,10.0,,KIGQ 121015Z AUTO 04005KT 10SM OVC080 09/07 A3000 RMK AO2 LTG DSNT  W T00850071,,,8000.0,,,44.75,,NE,29.35,29.2,,Overcast
KIGQ,05/12/2018 10:35 UTC,29.99,47.3,44.96,91.53,5.75,50.0,,,,,,804.0,,,,10.0,,KIGQ 121035Z AUTO 05005KT 10SM OVC080 09/07 A2999 RMK AO2 LTG DSNT  W T00850072,,,8000.0,,,44.93,,NE,29.34,29.18,,Overcast
KIGQ,05/12/2018 10:55 UTC,30.01,47.66,45.14,90.92,4.61,20.0,,,,,,802.0,1103.0,,,10.0,,KIGQ 121055Z AUTO 02004KT 10SM SCT080 BKN110 09/07 A3001 RMK AO2  LTG DSNT W T00870073,,,11000.0,,,45.11,,NNE,29.36,29.19,,Mostly Cloudy
KIGQ,05/12/2018 11:15 UTC,30.0,47.48,45.68,93.43,10.36,40.0,,,,,,803.0,1203.0,,,10.0,,KIGQ 121115Z AUTO 04009KT 10SM BKN080 BKN120 09/08 A3000 RMK AO2  LTG DSNT W THRU NE T00860076,,,8000.0,,,45.66,,NE,29.35,29.17,,Mostly Cloudy
KIGQ,05/12/2018 11:35 UTC,30.01,47.3,45.86,94.71,8.05,40.0,,,1003.0,,,82.0,802.0,,,7.0,,KIGQ 121135Z AUTO 04007KT 7SM SCT008 SCT080 BKN100 09/08 A3001 RMK AO2 LTG DSNT W THRU NE T00850077,,,10000.0,,,45.84,,NE,29.36,29.17,,Mostly Cloudy
KIGQ,05/12/2018 11:55 UTC,30.04,46.94,46.04,96.66,5.75,10.0,,17.0,753.0,,,82.0,502.0,,,5.0,,KIGQ 121155Z AUTO 01005KT 5SM -DZ SCT008 SCT050 BKN075 08/08 A3004 RMK AO2 LTG DSNT ALQS T00830078 10100 20083,50.0,46.94,7500.0,,,46.03,,N,29.39,29.2,,Light Drizzle
KIGQ,05/12/2018 12:15 UTC,30.03,47.3,46.4,96.66,4.61,20.0,,2485.0,853.0,,,82.0,753.0,,,5.0,,KIGQ 121215Z AUTO 02004KT 5SM VCTS BR SCT008 BKN075 BKN085 09/08  A3003 RMK AO2 LTG DSNT ALQS T00850080,,,7500.0,,,46.39,,NNE,29.38,29.18,,Thunder,Mist
KIGQ,05/12/2018 12:35 UTC,30.07,47.12,46.58,97.98,6.91,360.0,,2485.0,,,,83.0,754.0,,,4.0,,KIGQ 121235Z AUTO 36006KT 4SM VCTS BR BKN008 OVC075 08/08 A3007 RMK AO2 LTG DSNT ALQS T00840081,,,800.0,,,46.57,,N,29.42,29.22,,Thunder,Mist
KIGQ,05/12/2018 12:55 UTC,30.08,46.4,46.04,98.65,3.44,360.0,,,,,,64.0,,,,5.0,,KIGQ 121255Z AUTO 36003KT 5SM -VCTSRA OVC006 08/08 A3008 RMK AO2  LTG DSNT NE E AND SW T00800078,,,600.0,,,46.04,,N,29.43,29.25,,Overcast
KIGQ,05/12/2018 13:15 UTC,30.08,45.86,45.86,100.0,3.44,330.0,,1.0,,,,64.0,,,,4.0,,KIGQ 121315Z AUTO 33003KT 4SM RA OVC006 08/08 A3008 RMK AO2 LTG  DSNT ALQS T00770077,,,600.0,,,45.86,,NNW,29.43,29.26,,Rain
KIGQ,05/12/2018 13:35 UTC,30.03,45.5,45.5,100.0,8.05,50.0,,,,0.02,,64.0,,,,3.0,,KIGQ 121335Z AUTO 05007KT 3SM /VCTSRA OVC006 08/08 A3003 RMK AO2  LTG DSNT NE THRU S P0002 T00750075,,,600.0,,,45.5,,NE,29.38,29.22,,Overcast
KIGQ,05/12/2018 13:55 UTC,30.0,45.5,45.5,100.0,14.97,40.0,18.41,13.0,504.0,0.05,,43.0,193.0,,,2.5,,KIGQ 121355Z AUTO 04013G16KT 2 1/2SM -RA BKN004 BKN019 OVC050  08/08 A3000 RMK AO2 LTG DSNT ALQS P0005 T00750075,,,400.0,,,45.5,,NE,29.35,29.19,,Light Rain
KIGQ,05/12/2018 14:15 UTC,30.07,46.04,46.04,100.0,5.75,350.0,,13.0,,,,44.0,,,,4.0,,KIGQ 121415Z AUTO 35005KT 4SM -RA OVC004 08/08 A3007 RMK AO2 LTG  DSNT E AND W T00780078,,,400.0,,,46.04,,N,29.42,29.24,,Light Rain
KIGQ,05/12/2018 14:35 UTC,30.05,48.2,48.2,100.0,6.91,70.0,,31.0,,,,44.0,,,,2.0,,KIGQ 121435Z AUTO 07006KT 2SM BR OVC004 09/09 A3005 RMK AO2 LTG  DSNT SE T00900090,,,400.0,,,48.2,,ENE,29.4,29.14,,Mist
KIGQ,05/12/2018 14:55 UTC,30.11,48.92,48.56,98.66,0.0,0.0,,31.0,,,0.05,64.0,,,,4.0,,KIGQ 121455Z AUTO 00000KT 4SM BR OVC006 09/09 A3011 RMK AO2 LTG  DSNT E SW AND W 60005 T00940092,,,600.0,,,48.55,,N,29.46,29.18,,Mist
KIGQ,05/12/2018 15:15 UTC,30.09,49.28,49.1,99.33,5.75,350.0,,31.0,,,,64.0,,,,4.0,,KIGQ 121515Z AUTO 35005KT 4SM BR OVC006 10/10 A3009 RMK AO2  T00960095,,,600.0,,,49.1,,N,29.44,29.14,,Mist
KIGQ,05/12/2018 15:35 UTC,30.1,49.46,49.1,98.67,5.75,20.0,,31.0,,,,64.0,,,,5.0,,KIGQ 121535Z AUTO 02005KT 5SM BR OVC006 10/10 A3010 RMK AO2 LTG  DSNT E T00970095,,,600.0,,,49.1,,NNE,29.45,29.15,,Mist
KIGQ,05/12/2018 15:55 UTC,30.11,50.54,49.28,95.42,10.36,20.0,,,,,,84.0,,,,10.0,,KIGQ 121555Z AUTO 02009KT 10SM OVC008 10/10 A3011 RMK AO2 LTG DSNT  SW AND W T01030096,,,800.0,,,49.26,,NNE,29.46,29.14,,Overcast
KIGQ,05/12/2018 16:15 UTC,30.11,50.9,48.56,91.66,9.22,20.0,,,,,,104.0,,,,10.0,,KIGQ 121615Z AUTO 02008KT 10SM OVC010 11/09 A3011 RMK AO2 LTG DSNT  E T01050092,,,1000.0,,,48.53,,NNE,29.46,29.16,,Overcast
KIGQ,05/12/2018 16:35 UTC,30.09,51.08,48.56,91.05,12.66,20.0,,,,,,104.0,,,,10.0,,KIGQ 121635Z AUTO 02011KT 10SM OVC010 11/09 A3009 RMK AO2  T01060092,,,1000.0,,,48.53,,NNE,29.44,29.14,,Overcast
KIGQ,05/12/2018 16:55 UTC,30.08,50.36,47.66,90.41,18.41,10.0,24.16,,,,,104.0,,,,10.0,,KIGQ 121655Z AUTO 01016G21KT 10SM OVC010 10/09 A3008 RMK AO2  T01020087,,,1000.0,,,47.63,,N,29.43,29.16,,Overcast
KIGQ,05/12/2018 17:15 UTC,30.1,50.0,47.3,90.4,9.22,20.0,26.46,,,,,103.0,,,,7.0,,KIGQ 121715Z AUTO 02008G23KT 7SM BKN010 10/09 A3010 RMK AO2 LTG  DSNT E AND W T01000085,,,1000.0,,,47.27,,NNE,29.45,29.2,,Mostly Cloudy
KIGQ,05/12/2018 17:35 UTC,30.1,49.82,47.12,90.39,11.5,20.0,18.41,,,,,104.0,,,,10.0,,KIGQ 121735Z AUTO 02010G16KT 10SM OVC010 10/08 A3010 RMK AO2  T00990084,,,1000.0,,,47.09,,NNE,29.45,29.21,,Overcast
KIGQ,05/12/2018 17:55 UTC,30.12,49.64,47.12,91.0,4.61,20.0,,,,,,104.0,,0.05,,10.0,,KIGQ 121755Z AUTO 02004KT 10SM OVC010 10/08 A3012 RMK AO2 60005  T00980084 10108 20075,51.44,45.5,1000.0,,,47.09,,NNE,29.47,29.23,,Overcast
KIGQ,05/12/2018 18:15 UTC,30.11,49.64,46.94,90.38,8.05,40.0,,,,,,124.0,,,,7.0,,KIGQ 121815Z AUTO 04007KT 7SM OVC012 10/08 A3011 RMK AO2  T00980083,,,1200.0,,,46.91,,NE,29.46,29.22,,Overcast
KIGQ,05/12/2018 18:35 UTC,30.13,49.28,46.76,90.98,4.61,60.0,,,,,,124.0,,,,10.0,,KIGQ 121835Z AUTO 06004KT 10SM OVC012 10/08 A3013 RMK AO2  T00960082,,,1200.0,,,46.73,,ENE,29.47,29.24,,Overcast
KIGQ,05/12/2018 18:55 UTC,30.13,49.28,46.58,90.37,4.61,20.0,,,,,,124.0,,,,10.0,,KIGQ 121855Z AUTO 02004KT 10SM OVC012 10/08 A3013 RMK AO2 LTG DSNT  W AND NW T00960081,,,1200.0,,,46.55,,NNE,29.47,29.25,,Overcast
KIGQ,05/12/2018 19:15 UTC,30.11,48.38,46.4,92.82,9.22,30.0,,,,,,124.0,,,,7.0,,KIGQ 121915Z AUTO 03008KT 7SM OVC012 09/08 A3011 RMK AO2 LTG DSNT  SW THRU NW T00910080,,,1200.0,,,46.37,,NNE,29.46,29.25,,Overcast
KIGQ,05/12/2018 19:35 UTC,30.17,46.94,46.22,97.32,14.97,300.0,18.41,66.0,,,,104.0,,,,5.0,,KIGQ 121935Z AUTO 30013G16KT 5SM TSRA OVC010 08/08 A3017 RMK AO2  LTG DSNT ALQS T00830079,,,1000.0,,,46.21,,WNW,29.51,29.32,,Thunderstorm
KIGQ,05/12/2018 19:55 UTC,30.13,45.5,45.5,100.0,3.44,20.0,16.11,66.0,,0.3,,43.0,104.0,,,2.0,,KIGQ 121955Z AUTO 02003G14KT 2SM TSRA BKN004 OVC010 08/08 A3013 RMK AO2 LTG DSNT ALQS P0030 T00750075,,,400.0,,,45.5,,NNE,29.47,29.31,,Thunderstorm
KIGQ,05/12/2018 20:15 UTC,30.11,45.5,45.5,100.0,5.75,40.0,,,,0.05,,44.0,,,,4.0,,KIGQ 122015Z AUTO 04005KT 4SM -VCTSRA OVC004 08/08 A3011 RMK AO2  LTG DSNT NE THRU SE P0005 T00750075,,,400.0,,,45.5,,NE,29.46,29.3,,Overcast
KIGQ,05/12/2018 20:35 UTC,30.06,46.4,46.4,100.0,11.5,40.0,,2485.0,,0.05,,44.0,,,,4.0,,KIGQ 122035Z AUTO 04010KT 4SM VCTS BR OVC004 08/08 A3006 RMK AO2  LTG DSNT E P0005 T00800080,,,400.0,,,46.4,,NE,29.41,29.22,,Thunder,Mist
KIGQ,05/12/2018 20:55 UTC,30.08,46.58,46.58,100.0,11.5,10.0,,2485.0,,0.05,0.35,44.0,,,,2.5,,KIGQ 122055Z AUTO 01010KT 2 1/2SM TS BR OVC004 08/08 A3008 RMK AO2  LTG DSNT E P0005 60035 T00810081,,,400.0,,,46.58,,N,29.43,29.23,,Thunder,Mist
KIGQ,05/12/2018 21:15 UTC,30.03,47.3,47.3,100.0,14.97,60.0,20.71,31.0,,,,44.0,,,,2.0,,KIGQ 122115Z AUTO 06013G18KT 2SM BR OVC004 09/09 A3003 RMK AO2 LTG  DSNT E T00850085,,,400.0,,,47.3,,ENE,29.38,29.15,,Mist
KIGQ,05/12/2018 21:35 UTC,30.04,47.12,47.12,100.0,8.05,70.0,,31.0,,,,44.0,,,,2.0,,KIGQ 122135Z AUTO 07007KT 2SM BR OVC004 08/08 A3004 RMK AO2 LTG  DSNT E T00840084,,,400.0,,,47.12,,ENE,29.39,29.17,,Mist
KIGQ,05/12/2018 21:55 UTC,30.03,47.12,47.12,100.0,8.05,70.0,,31.0,,,,44.0,,,,5.0,,KIGQ 122155Z AUTO 07007KT 5SM BR OVC004 08/08 A3003 RMK AO2 LTG  DSNT E T00840084,,,400.0,,,47.12,,ENE,29.38,29.16,,Mist
KIGQ,05/12/2018 22:15 UTC,30.06,47.3,47.3,100.0,9.22,360.0,,,,,,64.0,,,,7.0,,KIGQ 122215Z AUTO 36008KT 7SM OVC006 09/09 A3006 RMK AO2  T00850085,,,600.0,,,47.3,,N,29.41,29.18,,Overcast
KIGQ,05/12/2018 22:35 UTC,30.08,47.66,47.48,99.33,9.22,20.0,16.11,,,,,64.0,,,,7.0,,KIGQ 122235Z AUTO 02008G14KT 7SM OVC006 09/09 A3008 RMK AO2 LTG  DSNT E T00870086,,,600.0,,,47.48,,NNE,29.43,29.19,,Overcast
KIGQ,05/12/2018 22:55 UTC,30.08,47.12,46.94,99.32,9.22,30.0,,31.0,,,,64.0,,,,5.0,,KIGQ 122255Z AUTO 03008KT 5SM BR OVC006 08/08 A3008 RMK AO2  T00840083,,,600.0,,,46.94,,NNE,29.43,29.22,,Mist
KIGQ,05/12/2018 23:15 UTC,30.11,46.76,46.4,98.65,3.44,20.0,,,,,,64.0,,,,7.0,,KIGQ 122315Z AUTO 02003KT 7SM OVC006 08/08 A3011 RMK AO2  T00820080,,,600.0,,,46.4,,NNE,29.46,29.27,,Overcast
KIGQ,05/12/2018 23:35 UTC,30.11,46.94,46.76,99.32,0.0,0.0,,,,,,64.0,,,,7.0,,KIGQ 122335Z AUTO 00000KT 7SM OVC006 08/08 A3011 RMK AO2 LTG DSNT  E T00830082,,,600.0,,,46.76,,N,29.46,29.25,,Overcast
KIGQ,05/12/2018 23:55 UTC,30.09,47.3,47.3,100.0,4.61,360.0,,,,,,62.0,164.0,0.35,,7.0,,KIGQ 122355Z AUTO 36004KT 7SM SCT006 OVC016 09/09 A3009 RMK AO2  60035 T00850085 10099 20073,49.82,45.14,1600.0,,,47.3,,N,29.44,29.21,,Overcast
KIGQ,05/13/2018 00:15 UTC,30.09,47.66,47.3,98.66,4.61,10.0,,,,,,62.0,162.0,,,7.0,,KIGQ 130015Z AUTO 01004KT 7SM SCT006 SCT016 09/09 A3009 RMK AO2  T00870085,,,,,,47.3,,N,29.44,29.21,,Partly Cloudy
KIGQ,05/13/2018 00:35 UTC,30.1,47.66,47.3,98.66,4.61,360.0,,,,,,62.0,,,,7.0,,KIGQ 130035Z AUTO 36004KT 7SM SCT006 09/09 A3010 RMK AO2  T00870085,,,,,,47.3,,N,29.45,29.22,,Partly Cloudy
KIGQ,05/13/2018 00:55 UTC,30.1,47.48,47.48,100.0,3.44,340.0,,,,,,63.0,,,,7.0,,KIGQ 130055Z AUTO 34003KT 7SM BKN006 09/09 A3010 RMK AO2  T00860086,,,600.0,,,47.48,,NNW,29.45,29.22,,Mostly Cloudy
KIGQ,05/13/2018 01:15 UTC,30.1,47.3,47.3,100.0,5.75,10.0,,,,,,62.0,134.0,,,10.0,,KIGQ 130115Z AUTO 01005KT 10SM SCT006 OVC013 09/09 A3010 RMK AO2  T00850085,,,1300.0,,,47.3,,N,29.45,29.22,,Overcast
KIGQ,05/13/2018 01:35 UTC,30.1,47.3,47.3,100.0,5.75,10.0,,,,,,114.0,,,,10.0,,KIGQ 130135Z AUTO 01005KT 10SM OVC011 09/09 A3010 RMK AO2  T00850085,,,1100.0,,,47.3,,N,29.45,29.22,,Overcast
KIGQ,05/13/2018 01:55 UTC,30.1,47.3,47.3,100.0,6.91,20.0,,,,,,114.0,,,,10.0,,KIGQ 130155Z AUTO 02006KT 10SM OVC011 09/09 A3010 RMK AO2  T00850085,,,1100.0,,,47.3,,NNE,29.45,29.22,,Overcast
KIGQ,05/13/2018 02:15 UTC,30.1,47.48,47.48,100.0,6.91,20.0,,,,,,114.0,,,,10.0,,KIGQ 130215Z AUTO 02006KT 10SM OVC011 09/09 A3010 RMK AO2  T00860086,,,1100.0,,,47.48,,NNE,29.45,29.22,,Overcast
KIGQ,05/13/2018 02:35 UTC,30.1,47.66,47.66,100.0,9.22,20.0,,,,,,94.0,,,,10.0,,KIGQ 130235Z AUTO 02008KT 10SM OVC009 09/09 A3010 RMK AO2 LTG DSNT  NW T00870087,,,900.0,,,47.66,,NNE,29.45,29.21,,Overcast
KIGQ,05/13/2018 02:55 UTC,30.06,47.48,47.48,100.0,11.5,70.0,,,,,,74.0,,,,7.0,,KIGQ 130255Z AUTO 07010KT 7SM OVC007 09/09 A3006 RMK AO2  T00860086,,,700.0,,,47.48,,ENE,29.41,29.18,,Overcast
KIGQ,05/13/2018 03:15 UTC,30.07,47.3,47.3,100.0,8.05,40.0,,31.0,,,,74.0,,,,5.0,,KIGQ 130315Z AUTO 04007KT 5SM BR OVC007 09/09 A3007 RMK AO2  T00850085,,,700.0,,,47.3,,NE,29.42,29.19,,Mist
KIGQ,05/13/2018 03:35 UTC,30.06,46.76,46.76,100.0,9.22,40.0,,,,,,54.0,,,,7.0,,KIGQ 130335Z AUTO 04008KT 7SM OVC005 08/08 A3006 RMK AO2 LTG DSNT  N T00820082,,,500.0,,,46.76,,NE,29.41,29.2,,Overcast
KIGQ,05/13/2018 03:55 UTC,30.05,46.76,46.76,100.0,5.75,40.0,,31.0,,,,54.0,,,,5.0,,KIGQ 130355Z AUTO 04005KT 5SM BR OVC005 08/08 A3005 RMK AO2  T00820082,,,500.0,,,46.76,,NE,29.4,29.19,,Mist
KIGQ,05/13/2018 04:15 UTC,30.04,46.94,46.94,100.0,4.61,60.0,,31.0,,,,54.0,,,,5.0,,KIGQ 130415Z AUTO 06004KT 5SM BR OVC005 08/08 A3004 RMK AO2  T00830083,,,500.0,,,46.94,,ENE,29.39,29.18,,Mist
KIGQ,05/13/2018 04:35 UTC,30.04,47.3,47.3,100.0,3.44,40.0,,31.0,,,,54.0,,,,5.0,,KIGQ 130435Z AUTO 04003KT 5SM BR OVC005 09/09 A3004 RMK AO2 LTG  DSNT NE AND W T00850085,,,500.0,,,47.3,,NE,29.39,29.16,,Mist
KIGQ,05/13/2018 04:55 UTC,30.03,47.66,47.66,100.0,4.61,40.0,,14.0,,0.01,,54.0,,,,4.0,,KIGQ 130455Z AUTO 04004KT 4SM +RA OVC005 09/09 A3003 RMK AO2 LTG  DSNT N AND W P0001 T00870087,,,500.0,,,47.66,,NE,29.38,29.14,,Heavy Rain
KIGQ,05/13/2018 05:15 UTC,30.04,48.74,48.74,100.0,6.91,20.0,,31.0,,,,34.0,,,,3.0,,KIGQ 130515Z AUTO 02006KT 3SM BR OVC003 09/09 A3004 RMK AO2 LTG  DSNT W AND NW T00930093,,,300.0,,,48.74,,NNE,29.39,29.1,,Mist
KIGQ,05/13/2018 05:35 UTC,30.03,49.46,49.46,100.0,5.75,30.0,,31.0,,,,33.0,104.0,,,4.0,,KIGQ 130535Z AUTO 03005KT 4SM BR BKN003 OVC010 10/10 A3003 RMK AO2  LTG DSNT W THRU N T00970097,,,300.0,,,49.46,,NNE,29.38,29.06,,Mist
KIGQ,05/13/2018 05:55 UTC,30.05,49.46,49.46,100.0,9.22,360.0,,2485.0,,,,33.0,104.0,0.02,,4.0,,KIGQ 130555Z AUTO 36008KT 4SM TS BR BKN003 OVC010 10/10 A3005 RMK AO2 LTG DSNT ALQS 60002 T00970097 10098 20082 401080073,49.64,46.76,300.0,51.44,45.14,49.46,,N,29.4,29.08,,Thunder,Mist
KIGQ,05/13/2018 06:15 UTC,30.05,50.0,50.0,100.0,8.05,50.0,,77.0,,,,34.0,,,,3.0,,KIGQ 130615Z AUTO 05007KT 3SM -TSRA OVC003 10/10 A3005 RMK AO2 LTG  DSNT ALQS T01000100,,,300.0,,,50.0,,NE,29.4,29.06,,Light Rain/Thunderstorm
KIGQ,05/13/2018 06:35 UTC,30.05,50.9,50.9,100.0,11.5,40.0,,78.0,304.0,0.03,,32.0,112.0,,,3.0,,KIGQ 130635Z AUTO 04010KT 3SM +TSRA SCT003 SCT011 OVC030 11/11  A3005 RMK AO2 LTG DSNT ALQS P0003 T01050105,,,3000.0,,,50.9,,NE,29.4,29.02,,Heavy Rain/Thunderstorm
KIGQ,05/13/2018 06:55 UTC,30.04,50.9,50.9,100.0,6.91,50.0,,78.0,,0.11,,33.0,324.0,,,3.0,,KIGQ 130655Z AUTO 05006KT 3SM +TSRA BKN003 OVC032 11/11 A3004 RMK AO2 LTG DSNT ALQS P0011 T01050105,,,300.0,,,50.9,,NE,29.39,29.01,,Heavy Rain/Thunderstorm
KIGQ,05/13/2018 07:15 UTC,30.02,50.9,50.9,100.0,9.22,60.0,,77.0,,0.47,,34.0,,,,1.0,,KIGQ 130715Z AUTO 06008KT 1SM -TSRA OVC003 11/11 A3002 RMK AO2 LTG  DSNT N THRU S P0047 T01050105,,,300.0,,,50.9,,ENE,29.37,28.99,,Light Rain/Thunderstorm
KIGQ,05/13/2018 07:35 UTC,29.99,50.0,50.0,100.0,6.91,80.0,,,,0.47,,33.0,164.0,,,5.0,,KIGQ 130735Z AUTO 08006KT 5SM -VCTSRA BKN003 OVC016 10/10 A2999 RMK AO2 LTG DSNT N THRU E P0047 T01000100,,,300.0,,,50.0,,E,29.34,29.0,,Overcast
KIGQ,05/13/2018 07:55 UTC,30.01,50.18,50.18,100.0,5.75,40.0,,31.0,,0.47,,34.0,,,,4.0,,KIGQ 130755Z AUTO 04005KT 4SM BR OVC003 10/10 A3001 RMK AO2 LTG  DSNT N THRU E P0047 T01010101,,,300.0,,,50.18,,NE,29.36,29.01,,Mist
KIGQ,05/13/2018 08:15 UTC,30.0,49.1,49.1,100.0,8.05,40.0,,31.0,,,,34.0,,,,2.0,,KIGQ 130815Z AUTO 04007KT 2SM BR OVC003 10/10 A3000 RMK AO2 LTG  DSNT NE T00950095,,,300.0,,,49.1,,NE,29.35,29.05,,Mist
KIGQ,05/13/2018 08:35 UTC,30.0,49.1,49.1,100.0,10.36,60.0,,2485.0,,,,34.0,,,,2.5,,KIGQ 130835Z AUTO 06009KT 2 1/2SM VCTS BR OVC003 10/10 A3000 RMK AO2 LTG DSNT NE T00950095,,,300.0,,,49.1,,ENE,29.35,29.05,,Thunder,Mist
KIGQ,05/13/2018 08:55 UTC,30.0,49.64,49.64,100.0,8.05,70.0,,31.0,,,0.59,34.0,,,,3.0,,KIGQ 130855Z AUTO 07007KT 3SM BR OVC003 10/10 A3000 RMK AO2 LTG  DSNT NW 60059 T00980098,,,300.0,,,49.64,,ENE,29.35,29.02,,Mist
KIGQ,05/13/2018 09:15 UTC,30.0,50.0,50.0,100.0,8.05,70.0,,31.0,,,,34.0,,,,3.0,,KIGQ 130915Z AUTO 07007KT 3SM BR OVC003 10/10 A3000 RMK AO2 LTG  DSNT E T01000100,,,300.0,,,50.0,,ENE,29.35,29.01,,Mist
KIGQ,05/13/2018 09:35 UTC,30.0,50.36,50.36,100.0,5.75,100.0,,31.0,,,,34.0,,,,4.0,,KIGQ 130935Z AUTO 10005KT 4SM BR OVC003 10/10 A3000 RMK AO2  T01020102,,,300.0,,,50.36,,E,29.35,28.99,,Mist
KIGQ,05/13/2018 09:55 UTC,30.0,50.9,50.9,100.0,4.61,110.0,,31.0,1204.0,,,32.0,603.0,,,5.0,,KIGQ 130955Z AUTO 11004KT 5SM BR SCT003 BKN060 OVC120 11/11 A3000 RMK AO2 LTG DSNT NE T01050105,,,6000.0,,,50.9,,ESE,29.35,28.97,,Mist
KIGQ,05/13/2018 10:15 UTC,30.0,51.8,51.8,100.0,9.22,140.0,,,804.0,,,52.0,503.0,,,7.0,,KIGQ 131015Z AUTO 14008KT 7SM SCT005 BKN050 OVC080 11/11 A3000 RMK AO2 T01100110,,,5000.0,,,51.8,,SE,29.35,28.93,,Overcast
KIGQ,05/13/2018 10:35 UTC,30.0,51.98,51.98,100.0,6.91,140.0,,,1004.0,,,372.0,503.0,,,7.0,,KIGQ 131035Z AUTO 14006KT 7SM SCT037 BKN050 OVC100 11/11 A3000 RMK AO2 T01110111,,,5000.0,,,51.98,,SE,29.35,28.92,,Overcast
KIGQ,05/13/2018 10:55 UTC,30.01,51.8,51.8,100.0,8.05,170.0,,31.0,1104.0,,,353.0,503.0,,,5.0,,KIGQ 131055Z AUTO 17007KT 5SM BR BKN035 BKN050 OVC110 11/11 A3001 RMK AO2 T01100110,,,3500.0,,,51.8,,S,29.36,28.94,,Mist
KIGQ,05/13/2018 11:15 UTC,30.02,51.98,51.98,100.0,0.0,0.0,,31.0,,,,353.0,464.0,,,5.0,,KIGQ 131115Z AUTO 00000KT 5SM BR BKN035 OVC046 11/11 A3002 RMK AO2  LTG DSNT E T01110111,,,3500.0,,,51.98,,N,29.37,28.94,,Mist
KIGQ,05/13/2018 11:35 UTC,30.03,52.7,52.7,100.0,5.75,30.0,,31.0,,,,92.0,354.0,,,5.0,,KIGQ 131135Z AUTO 03005KT 5SM BR SCT009 OVC035 12/12 A3003 RMK AO2  T01150115,,,3500.0,,,52.7,,NNE,29.38,28.91,,Mist
KIGQ,05/13/2018 11:55 UTC,30.03,53.06,53.06,100.0,3.44,360.0,,31.0,,,,93.0,334.0,0.59,1.01,5.0,,KIGQ 131155Z AUTO 36003KT 5SM BR BKN009 OVC033 12/12 A3003 RMK AO2  60059 70101 T01170117 10117 20094,53.06,48.92,900.0,,,53.06,,N,29.38,28.9,,Mist
KIGQ,05/13/2018 12:15 UTC,30.04,53.6,53.6,100.0,8.05,10.0,,,,,,52.0,94.0,,,7.0,,KIGQ 131215Z AUTO 01007KT 7SM SCT005 OVC009 12/12 A3004 RMK AO2  T01200120,,,900.0,,,53.6,,N,29.39,28.88,,Overcast
KIGQ,05/13/2018 12:35 UTC,30.04,51.44,51.44,100.0,6.91,10.0,,31.0,,,,53.0,114.0,,,4.0,,KIGQ 131235Z AUTO 01006KT 4SM BR BKN005 OVC011 11/11 A3004 RMK AO2  LTG DSNT E AND SW T01080108,,,500.0,,,51.44,,N,29.39,28.98,,Mist
KIGQ,05/13/2018 12:55 UTC,30.03,50.72,50.72,100.0,11.5,30.0,,31.0,,,,54.0,,,,2.5,,KIGQ 131255Z AUTO 03010KT 2 1/2SM BR OVC005 10/10 A3003 RMK AO2  T01040104,,,500.0,,,50.72,,NNE,29.38,29.01,,Mist
KIGQ,05/13/2018 13:15 UTC,30.04,49.28,49.28,100.0,6.91,20.0,,31.0,,,,54.0,,,,4.0,,KIGQ 131315Z AUTO 02006KT 4SM BR OVC005 10/10 A3004 RMK AO2  T00960096,,,500.0,,,49.28,,NNE,29.39,29.08,,Mist
KIGQ,05/13/2018 13:35 UTC,30.05,49.46,49.46,100.0,4.61,10.0,,31.0,,,,54.0,,,,3.0,,KIGQ 131335Z AUTO 01004KT 3SM BR OVC005 10/10 A3005 RMK AO2  T00970097,,,500.0,,,49.46,,N,29.4,29.08,,Mist
KIGQ,05/13/2018 13:55 UTC,30.04,50.0,50.0,100.0,5.75,20.0,,31.0,,,,54.0,,,,3.0,,KIGQ 131355Z AUTO 02005KT 3SM BR OVC005 10/10 A3004 RMK AO2  T01000100,,,500.0,,,50.0,,NNE,29.39,29.05,,Mist
KIGQ,05/13/2018 14:15 UTC,30.04,51.62,51.62,100.0,4.61,30.0,,31.0,,,,54.0,,,,4.0,,KIGQ 131415Z AUTO 03004KT 4SM BR OVC005 11/11 A3004 RMK AO2  T01090109,,,500.0,,,51.62,,NNE,29.39,28.97,,Mist
KIGQ,05/13/2018 14:35 UTC,30.04,52.7,52.52,99.34,4.61,70.0,,31.0,,,,54.0,,,,5.0,,KIGQ 131435Z AUTO 07004KT 5SM BR OVC005 12/11 A3004 RMK AO2  T01150114,,,500.0,,,52.52,,ENE,29.39,28.93,,Mist
KIGQ,05/13/2018 14:55 UTC,30.04,53.78,53.24,98.04,5.75,60.0,,31.0,,,,54.0,,,,5.0,,KIGQ 131455Z AUTO 06005KT 5SM BR OVC005 12/12 A3004 RMK AO2  T01210118,,,500.0,,,53.23,,ENE,29.39,28.89,,Mist
KIGQ,05/13/2018 15:15 UTC,30.04,54.5,53.42,96.13,0.0,0.0,,31.0,,,,74.0,,,,5.0,,KIGQ 131515Z AUTO 00000KT 5SM BR OVC007 13/12 A3004 RMK AO2  T01250119,,,700.0,,,53.41,,N,29.39,28.88,,Mist
KIGQ,05/13/2018 15:35 UTC,30.04,55.04,53.6,94.89,4.61,10.0,,31.0,,,,94.0,,,,5.0,,KIGQ 131535Z AUTO 01004KT 5SM BR OVC009 13/12 A3004 RMK AO2  T01280120,,,900.0,,,53.59,,N,29.39,28.86,,Mist
KIGQ,05/13/2018 15:55 UTC,30.05,56.12,54.14,93.06,0.0,0.0,,31.0,,,,94.0,,,,5.0,,KIGQ 131555Z AUTO 00000KT 5SM BR OVC009 13/12 A3005 RMK AO2  T01340123,,,900.0,,,54.12,,N,29.4,28.84,,Mist
KIGQ,05/13/2018 16:15 UTC,30.04,58.1,55.58,91.31,4.61,40.0,,31.0,,,,113.0,,,,5.0,,KIGQ 131615Z AUTO 04004KT 5SM BR BKN011 15/13 A3004 RMK AO2  T01450131,,,1100.0,,,55.56,,NE,29.39,28.75,,Mist
KIGQ,05/13/2018 16:35 UTC,30.04,59.72,55.94,87.31,5.75,30.0,,31.0,,,,112.0,,,,5.0,,KIGQ 131635Z AUTO 03005KT 5SM BR SCT011 15/13 A3004 RMK AO2  T01540133,,,,,,55.91,,NNE,29.39,28.71,,Mist
KIGQ,05/13/2018 16:55 UTC,30.04,60.8,55.94,84.03,3.44,330.0,,,,,,1003.0,,,,7.0,,KIGQ 131655Z AUTO 33003KT 7SM BKN100 16/13 A3004 RMK AO2  T01600133,,,10000.0,,,55.9,,NNW,29.39,28.7,,Mostly Cloudy
KIGQ,05/13/2018 17:15 UTC,30.04,62.24,57.02,83.03,6.91,20.0,,,,,,1003.0,,,,7.0,,KIGQ 131715Z AUTO 02006KT 7SM BKN100 17/14 A3004 RMK AO2  T01680139,,,10000.0,,,56.98,,NNE,29.39,28.63,,Mostly Cloudy
KIGQ,05/13/2018 17:35 UTC,30.04,63.14,57.56,82.03,4.61,20.0,,,,,,552.0,1002.0,,,7.0,,KIGQ 131735Z AUTO 02004KT 7SM SCT055 SCT100 17/14 A3004 RMK AO2  T01730142,,,,,,57.52,,NNE,29.39,28.6,,Partly Cloudy
KIGQ,05/13/2018 17:55 UTC,30.03,62.78,56.66,80.42,0.0,0.0,,,,,,502.0,902.0,,,10.0,,KIGQ 131755Z AUTO 00000KT 10SM SCT050 SCT090 17/14 A3003 RMK AO2  T01710137 10174 20096,63.32,49.28,,,,56.62,,N,29.38,28.63,,Partly Cloudy
KIGQ,05/13/2018 18:15 UTC,30.03,63.5,57.56,81.0,5.75,50.0,,,,,,802.0,902.0,,,10.0,,KIGQ 131815Z AUTO 05005KT 10SM SCT080 SCT090 18/14 A3003 RMK AO2  T01750142,,,,,,57.52,,NE,29.38,28.58,,Partly Cloudy
KIGQ,05/13/2018 18:35 UTC,30.03,64.4,57.56,78.49,4.61,360.0,,,,,,903.0,1003.0,,,10.0,,KIGQ 131835Z AUTO 36004KT 10SM BKN090 BKN100 18/14 A3003 RMK AO2  T01800142,,,9000.0,,,57.52,,N,29.38,28.57,,Mostly Cloudy
KIGQ,05/13/2018 18:55 UTC,30.03,64.58,57.74,78.51,5.75,20.0,,,,,,803.0,953.0,,,10.0,,KIGQ 131855Z AUTO 02005KT 10SM BKN080 BKN095 18/14 A3003 RMK AO2  T01810143,,,8000.0,,,57.7,,NNE,29.38,28.56,,Mostly Cloudy
KIGQ,05/13/2018 19:15 UTC,30.02,64.4,57.38,77.99,6.91,10.0,,,,,,802.0,,,,10.0,,KIGQ 131915Z AUTO 01006KT 10SM SCT080 18/14 A3002 RMK AO2  T01800141,,,,,,57.34,,N,29.37,28.57,,Partly Cloudy
KIGQ,05/13/2018 19:35 UTC,30.02,64.76,57.92,78.52,5.75,40.0,,,,,,802.0,,,,10.0,,KIGQ 131935Z AUTO 04005KT 10SM SCT080 18/14 A3002 RMK AO2  T01820144,,,,,,57.88,,NE,29.37,28.54,,Partly Cloudy
KIGQ,05/13/2018 19:55 UTC,30.03,63.32,56.84,79.43,5.75,20.0,,,,,,703.0,803.0,,,10.0,,KIGQ 131955Z AUTO 02005KT 10SM BKN070 BKN080 17/14 A3003 RMK AO2  T01740138,,,7000.0,,,56.8,,NNE,29.38,28.62,,Mostly Cloudy
KIGQ,05/13/2018 20:15 UTC,30.02,62.78,56.66,80.42,5.75,20.0,,,,,,604.0,,,,10.0,,KIGQ 132015Z AUTO 02005KT 10SM OVC060 17/14 A3002 RMK AO2 LTG DSNT  W T01710137,,,6000.0,,,56.62,,NNE,29.37,28.62,,Overcast
KIGQ,05/13/2018 20:35 UTC,30.02,62.78,56.3,79.38,6.91,70.0,,,,,,602.0,703.0,,,7.0,,KIGQ 132035Z AUTO 07006KT 7SM SCT060 BKN070 17/14 A3002 RMK AO2  T01710135,,,7000.0,,,56.26,,ENE,29.37,28.64,,Mostly Cloudy
KIGQ,05/13/2018 20:55 UTC,30.02,62.96,57.02,80.96,4.61,30.0,,,,,,603.0,753.0,,,7.0,,KIGQ 132055Z AUTO 03004KT 7SM BKN060 BKN075 17/14 A3002 RMK AO2  T01720139,,,6000.0,,,56.98,,NNE,29.37,28.61,,Mostly Cloudy
KIGQ,05/13/2018 21:15 UTC,30.02,62.24,56.12,80.38,9.22,50.0,,,,,,472.0,604.0,,,10.0,,KIGQ 132115Z AUTO 05008KT 10SM SCT047 OVC060 17/13 A3002 RMK AO2  T01680134,,,6000.0,,,56.08,,NE,29.37,28.65,,Overcast
KIGQ,05/13/2018 21:35 UTC,30.01,60.62,55.22,82.38,8.05,70.0,,,,,,472.0,604.0,,,10.0,,KIGQ 132135Z AUTO 07007KT 10SM SCT047 OVC060 16/13 A3001 RMK AO2  T01590129,,,6000.0,,,55.18,,ENE,29.36,28.7,,Overcast
KIGQ,05/13/2018 21:55 UTC,30.03,58.82,54.14,84.45,6.91,70.0,,,,,,453.0,604.0,,,10.0,,KIGQ 132155Z AUTO 07006KT 10SM BKN045 OVC060 15/12 A3003 RMK AO2  LTG DSNT SW T01490123,,,4500.0,,,54.1,,ENE,29.38,28.79,,Overcast
KIGQ,05/13/2018 22:15 UTC,30.01,58.28,53.78,84.97,8.05,20.0,,,,,,453.0,703.0,,,10.0,,KIGQ 132215Z AUTO 02007KT 10SM BKN045 BKN070 15/12 A3001 RMK AO2  LTG DSNT SW T01460121,,,4500.0,,,53.74,,NNE,29.36,28.79,,Mostly Cloudy
KIGQ,05/13/2018 22:35 UTC,30.0,57.38,53.78,87.76,8.05,100.0,,,,,,1.0,,,,10.0,,KIGQ 132235Z AUTO 10007KT 10SM CLR 14/12 A3000 RMK AO2 LTG DSNT SW  T01410121,,,,,,53.75,,E,29.35,28.79,,Clear
KIGQ,05/13/2018 22:55 UTC,30.0,56.3,53.24,89.46,5.75,110.0,,,,,,1.0,,,,10.0,,KIGQ 132255Z AUTO 11005KT 10SM CLR 14/12 A3000 RMK AO2  T01350118,,,,,,53.21,,ESE,29.35,28.82,,Clear
KIGQ,05/13/2018 23:15 UTC,29.96,55.94,53.6,91.84,8.05,100.0,,,,,,1.0,,,,10.0,,KIGQ 132315Z AUTO 10007KT 10SM CLR 13/12 A2996 RMK AO2 LTG DSNT SE  AND S T01330120,,,,,,53.58,,E,29.31,28.77,,Clear
KIGQ,05/13/2018 23:35 UTC,29.91,56.3,53.96,91.85,10.36,110.0,,13.0,,,,952.0,1202.0,,,10.0,,KIGQ 132335Z AUTO 11009KT 10SM -RA SCT095 SCT120 14/12 A2991 RMK AO2 LTG DSNT SE T01350122,,,,,,53.94,,ESE,29.26,28.7,,Light Rain
KIGQ,05/13/2018 23:55 UTC,29.91,56.66,54.5,92.47,11.5,20.0,,13.0,,,,1102.0,,,,7.0,,KIGQ 132355Z AUTO 02010KT 7SM -RA SCT110 14/13 A2991 RMK AO2 LTG  DSNT E AND SE T01370125 10183 20133,64.94,55.94,,,,54.48,,NNE,29.26,28.68,,Light Rain
KIGQ,05/14/2018 00:15 UTC,29.95,55.22,53.06,92.42,10.36,10.0,,,,,,1102.0,,,,7.0,,KIGQ 140015Z AUTO 01009KT 7SM SCT110 13/12 A2995 RMK AO2 LTG DSNT  E T01290117,,,,,,53.04,,N,29.3,28.79,,Partly Cloudy
KIGQ,05/14/2018 00:35 UTC,29.95,53.24,51.98,95.48,12.66,20.0,,31.0,,,,1.0,,,,5.0,,KIGQ 140035Z AUTO 02011KT 5SM BR CLR 12/11 A2995 RMK AO2  T01180111,,,,,,51.97,,NNE,29.3,28.85,,Mist
KIGQ,05/14/2018 00:55 UTC,29.96,51.8,51.44,98.68,8.05,60.0,,31.0,,,,72.0,,,,5.0,,KIGQ 140055Z AUTO 06007KT 5SM BR SCT007 11/11 A2996 RMK AO2 LTG  DSNT E T01100108,,,,,,51.44,,ENE,29.31,28.9,,Mist
KIGQ,05/14/2018 01:15 UTC,29.98,50.9,50.9,100.0,0.0,0.0,,,,,,72.0,,,,10.0,,KIGQ 140115Z AUTO 00000KT 10SM SCT007 11/11 A2998 RMK AO2  T01050105,,,,,,50.9,,N,29.33,28.95,,Partly Cloudy
KIGQ,05/14/2018 01:35 UTC,29.97,50.9,50.9,100.0,3.44,30.0,,,,,,1.0,,,,10.0,,KIGQ 140135Z AUTO 03003KT 10SM CLR 11/11 A2997 RMK AO2  T01050105,,,,,,50.9,,NNE,29.32,28.94,,Clear
KIGQ,05/14/2018 01:55 UTC,29.98,50.9,50.9,100.0,3.44,30.0,,,,,,1.0,,,,10.0,,KIGQ 140155Z AUTO 03003KT 10SM CLR 11/11 A2998 RMK AO2  T01050105,,,,,,50.9,,NNE,29.33,28.95,,Clear
KIGQ,05/14/2018 02:15 UTC,29.97,50.9,50.9,100.0,0.0,0.0,,,,,,1.0,,,,7.0,,KIGQ 140215Z AUTO 00000KT 7SM CLR 11/11 A2997 RMK AO2  T01050105,,,,,,50.9,,N,29.32,28.94,,Clear
KIGQ,05/14/2018 02:35 UTC,29.98,51.08,50.9,99.34,0.0,0.0,,,,,,1.0,,,,7.0,,KIGQ 140235Z AUTO 00000KT 7SM CLR 11/11 A2998 RMK AO2  T01060105,,,,,,50.9,,N,29.33,28.95,,Clear
KIGQ,05/14/2018 02:55 UTC,29.98,51.26,51.08,99.34,0.0,0.0,,,,,,1.0,,,,7.0,,KIGQ 140255Z AUTO 00000KT 7SM CLR 11/11 A2998 RMK AO2  T01070106,,,,,,51.08,,N,29.33,28.94,,Clear
KIGQ,05/14/2018 03:15 UTC,29.99,51.8,51.08,97.38,0.0,0.0,,,,,,1.0,,,,7.0,,KIGQ 140315Z AUTO 00000KT 7SM CLR 11/11 A2999 RMK AO2  T01100106,,,,,,51.07,,N,29.34,28.94,,Clear
KIGQ,05/14/2018 03:35 UTC,29.99,51.08,51.08,100.0,0.0,0.0,,,,,,852.0,,,,7.0,,KIGQ 140335Z AUTO 00000KT 7SM SCT085 11/11 A2999 RMK AO2  T01060106,,,,,,51.08,,N,29.34,28.95,,Partly Cloudy
KIGQ,05/14/2018 03:55 UTC,29.99,51.98,51.44,98.03,0.0,0.0,,,,,,853.0,,,,7.0,,KIGQ 140355Z AUTO 00000KT 7SM BKN085 11/11 A2999 RMK AO2  T01110108,,,8500.0,,,51.43,,N,29.34,28.93,,Mostly Cloudy
KIGQ,05/14/2018 04:15 UTC,29.99,52.16,51.8,98.68,0.0,0.0,,,,,,702.0,953.0,,,7.0,,KIGQ 140415Z AUTO 00000KT 7SM SCT070 BKN095 11/11 A2999 RMK AO2  T01120110,,,9500.0,,,51.8,,N,29.34,28.91,,Mostly Cloudy
KIGQ,05/14/2018 04:35 UTC,29.99,52.7,52.16,98.03,0.0,0.0,,,954.0,,,603.0,703.0,,,7.0,,KIGQ 140435Z AUTO 00000KT 7SM BKN060 BKN070 OVC095 12/11 A2999 RMK AO2 T01150112,,,6000.0,,,52.15,,N,29.34,28.89,,Overcast
KIGQ,05/14/2018 04:55 UTC,29.99,53.24,52.16,96.11,0.0,0.0,,,,,,603.0,704.0,,,7.0,,KIGQ 140455Z AUTO 00000KT 7SM BKN060 OVC070 12/11 A2999 RMK AO2  T01180112,,,6000.0,,,52.15,,N,29.34,28.89,,Overcast
KIGQ,05/14/2018 05:15 UTC,29.99,53.6,52.52,96.12,0.0,0.0,,,,,,603.0,703.0,,,7.0,,KIGQ 140515Z AUTO 00000KT 7SM BKN060 BKN070 12/11 A2999 RMK AO2  T01200114,,,6000.0,,,52.51,,N,29.34,28.87,,Mostly Cloudy
KIGQ,05/14/2018 05:35 UTC,29.98,53.6,52.52,96.12,0.0,0.0,,,953.0,,,602.0,703.0,,,7.0,,KIGQ 140535Z AUTO 00000KT 7SM SCT060 BKN070 BKN095 12/11 A2998 RMK AO2 T01200114,,,7000.0,,,52.51,,N,29.33,28.86,,Mostly Cloudy
KIGQ,05/14/2018 05:55 UTC,29.97,53.6,52.7,96.76,0.0,0.0,,,953.0,,,602.0,702.0,,,7.0,,KIGQ 140555Z AUTO 00000KT 7SM SCT060 SCT070 BKN095 12/12 A2997 RMK AO2 T01200115 10136 20105 401830094,56.48,50.9,9500.0,64.94,48.92,52.69,,N,29.32,28.84,,Mostly Cloudy
KIGQ,05/14/2018 06:15 UTC,29.96,53.06,52.7,98.69,0.0,0.0,,,753.0,,,502.0,602.0,,,7.0,,KIGQ 140615Z AUTO 00000KT 7SM SCT050 SCT060 BKN075 12/12 A2996 RMK AO2 T01170115,,,7500.0,,,52.7,,N,29.31,28.84,,Mostly Cloudy
KIGQ,05/14/2018 06:35 UTC,29.96,52.7,52.7,100.0,0.0,0.0,,,1002.0,,,502.0,702.0,,,7.0,,KIGQ 140635Z AUTO 00000KT 7SM SCT050 SCT070 SCT100 12/12 A2996 RMK AO2 T01150115,,,,,,52.7,,N,29.31,28.84,,Partly Cloudy
KIGQ,05/14/2018 06:55 UTC,29.95,52.7,52.34,98.69,0.0,0.0,,,,,,1.0,,,,7.0,,KIGQ 140655Z AUTO 00000KT 7SM CLR 12/11 A2995 RMK AO2 LTG DSNT N  T01150113,,,,,,52.34,,N,29.3,28.84,,Clear
KIGQ,05/14/2018 07:15 UTC,29.94,52.16,52.16,100.0,0.0,0.0,,,,,,1.0,,,,7.0,,KIGQ 140715Z AUTO 00000KT 7SM CLR 11/11 A2994 RMK AO2  T01120112,,,,,,52.16,,N,29.29,28.85,,Clear
KIGQ,05/14/2018 07:35 UTC,29.92,52.34,52.34,100.0,3.44,140.0,,,,,,1.0,,,,7.0,,KIGQ 140735Z AUTO 14003KT 7SM CLR 11/11 A2992 RMK AO2  T01130113,,,,,,52.34,,SE,29.27,28.82,,Clear
KIGQ,05/14/2018 07:55 UTC,29.91,52.16,52.16,100.0,0.0,0.0,,,,,,1.0,,,,7.0,,KIGQ 140755Z AUTO 00000KT 7SM CLR 11/11 A2991 RMK AO2 LTG DSNT NW  T01120112,,,,,,52.16,,N,29.26,28.82,,Clear
KIGQ,05/14/2018 08:15 UTC,29.9,52.16,52.16,100.0,3.44,170.0,,,,,,1.0,,,,7.0,,KIGQ 140815Z AUTO 17003KT 7SM CLR 11/11 A2990 RMK AO2 LTG DSNT NE  T01120112,,,,,,52.16,,S,29.25,28.81,,Clear
KIGQ,05/14/2018 08:35 UTC,29.91,53.06,53.06,100.0,0.0,0.0,,,,,,1002.0,,,,7.0,,KIGQ 140835Z AUTO 00000KT 7SM SCT100 12/12 A2991 RMK AO2 LTG DSNT  N AND NW T01170117,,,,,,53.06,,N,29.26,28.77,,Partly Cloudy
KIGQ,05/14/2018 08:55 UTC,29.91,54.5,54.5,100.0,3.44,180.0,,,,,,1103.0,,,,7.0,,KIGQ 140855Z AUTO 18003KT 7SM BKN110 13/13 A2991 RMK AO2 LTG DSNT  N AND NE T01250125,,,11000.0,,,54.5,,S,29.26,28.7,,Mostly Cloudy
KIGQ,05/14/2018 09:15 UTC,29.91,55.22,55.22,100.0,0.0,0.0,,31.0,,,,902.0,1104.0,,,5.0,,KIGQ 140915Z AUTO 00000KT 5SM BR SCT090 OVC110 13/13 A2991 RMK AO2  LTG DSNT N AND NE T01290129,,,11000.0,,,55.22,,N,29.26,28.66,,Mist
KIGQ,05/14/2018 09:35 UTC,29.9,56.12,56.12,100.0,0.0,0.0,,,,,,1104.0,,,,7.0,,KIGQ 140935Z AUTO 00000KT 7SM OVC110 13/13 A2990 RMK AO2 LTG DSNT  NW THRU NE T01340134,,,11000.0,,,56.12,,N,29.25,28.6,,Overcast
KIGQ,05/14/2018 09:55 UTC,29.91,57.38,57.2,99.35,0.0,0.0,,,,,,902.0,1104.0,,,7.0,,KIGQ 140955Z AUTO 00000KT 7SM SCT090 OVC110 14/14 A2991 RMK AO2  LTG DSNT NW THRU E T01410140,,,11000.0,,,57.2,,N,29.26,28.55,,Overcast
KIGQ,05/14/2018 10:15 UTC,29.91,57.38,56.84,98.07,8.05,30.0,,,,,,902.0,1103.0,,,7.0,,KIGQ 141015Z AUTO 03007KT 7SM SCT090 BKN110 14/14 A2991 RMK AO2  LTG DSNT NW THRU E T01410138,,,11000.0,,,56.83,,NNE,29.26,28.57,,Mostly Cloudy
KIGQ,05/14/2018 10:35 UTC,29.92,57.2,56.48,97.44,4.61,70.0,,,,,,1102.0,,,,7.0,,KIGQ 141035Z AUTO 07004KT 7SM SCT110 14/14 A2992 RMK AO2 LTG DSNT  N AND NE T01400136,,,,,,56.47,,ENE,29.27,28.59,,Partly Cloudy
KIGQ,05/14/2018 10:55 UTC,29.95,55.58,55.04,98.06,10.36,40.0,,31.0,,,,1.0,,,,5.0,,KIGQ 141055Z AUTO 04009KT 5SM BR CLR 13/13 A2995 RMK AO2 LTG DSNT  N AND NE T01310128,,,,,,55.04,,NE,29.3,28.71,,Mist
KIGQ,05/14/2018 11:15 UTC,29.95,55.76,55.22,98.06,5.75,70.0,,31.0,1202.0,,,552.0,902.0,,,5.0,,KIGQ 141115Z AUTO 07005KT 5SM BR SCT055 SCT090 SCT120 13/13 A2995 RMK AO2 LTG DSNT NW THRU NE T01320129,,,,,,55.21,,ENE,29.3,28.7,,Mist
KIGQ,05/14/2018 11:35 UTC,29.94,56.84,56.3,98.07,4.61,130.0,,31.0,753.0,,,552.0,653.0,,,5.0,,KIGQ 141135Z AUTO 13004KT 5SM BR SCT055 BKN065 BKN075 14/14 A2994 RMK AO2 LTG DSNT NW THRU NE T01380135,,,6500.0,,,56.3,,SE,29.29,28.63,,Mist
KIGQ,05/14/2018 11:55 UTC,30.01,57.56,56.66,96.81,24.16,310.0,32.21,,804.0,,,503.0,653.0,,,7.0,,KIGQ 141155Z AUTO 31021G28KT 250V320 7SM BKN050 BKN065 OVC080  14/14 A3001 RMK AO2 LTG DSNT W THRU NE T01420137 10142  20112,57.56,52.16,5000.0,,,56.65,,NW,29.36,28.67,,Overcast
KIGQ,05/14/2018 12:15 UTC,30.03,56.48,56.48,100.0,8.05,30.0,19.57,78.0,,0.4,,93.0,134.0,,,1.25,,KIGQ 141215Z AUTO 03007G17KT 1 1/4SM +TSRA BKN009 OVC013 14/14  A3003 RMK AO2 VIS 1/2V5 LTG DSNT ALQS P0040 T01360136,,,900.0,,,56.48,,NNE,29.38,28.71,,Heavy Rain/Thunderstorm
KIGQ,05/14/2018 12:35 UTC,30.01,57.2,57.2,100.0,4.61,80.0,,,754.0,0.49,,82.0,142.0,,,3.0,,KIGQ 141235Z AUTO 08004KT 3SM -VCTSRA SCT008 SCT014 OVC075 14/14  A3001 RMK AO2 LTG DSNT ALQS P0049 T01400140,,,7500.0,,,57.2,,E,29.36,28.65,,Overcast
KIGQ,05/14/2018 12:55 UTC,29.99,57.74,57.74,100.0,4.61,100.0,,13.0,904.0,0.49,,452.0,753.0,,,1.75,,KIGQ 141255Z AUTO 10004KT 1 3/4SM -RA SCT045 BKN075 OVC090 14/14  A2999 RMK AO2 LTG DSNT NE THRU SE P0049 T01430143,,,7500.0,,,57.74,,E,29.34,28.6,,Light Rain
KIGQ,05/14/2018 13:15 UTC,29.98,58.28,58.28,100.0,5.75,100.0,,13.0,1203.0,,,452.0,903.0,,,1.5,,KIGQ 141315Z AUTO 10005KT 1 1/2SM -RA SCT045 BKN090 BKN120 15/15  A2998 RMK AO2 LTG DSNT N AND NE T01460146,,,9000.0,,,58.28,,E,29.33,28.56,,Light Rain
KIGQ,05/14/2018 13:35 UTC,29.98,59.18,59.18,100.0,5.75,110.0,,31.0,,,,903.0,,,,2.5,,KIGQ 141335Z AUTO 11005KT 2 1/2SM BR BKN090 15/15 A2998 RMK AO2  LTG DSNT NE AND E T01510151,,,9000.0,,,59.18,,ESE,29.33,28.51,,Mist
KIGQ,05/14/2018 13:55 UTC,29.96,60.8,60.8,100.0,5.75,110.0,,31.0,,,,902.0,,,,4.0,,KIGQ 141355Z AUTO 11005KT 4SM BR SCT090 16/16 A2996 RMK AO2 LTG  DSNT NE E AND W T01600160,,,,,,60.8,,ESE,29.31,28.38,,Mist
KIGQ,05/14/2018 14:15 UTC,29.96,62.6,62.6,100.0,6.91,130.0,,,,,,1.0,,,,7.0,,KIGQ 141415Z AUTO 13006KT 7SM CLR 17/17 A2996 RMK AO2 LTG DSNT E  AND W T01700170,,,,,,62.6,,SE,29.31,28.26,,Clear
KIGQ,05/14/2018 14:35 UTC,29.97,63.5,63.5,100.0,6.91,140.0,,,,,,903.0,,,,10.0,,KIGQ 141435Z AUTO 14006KT 10SM BKN090 18/18 A2997 RMK AO2 LTG DSNT  W AND NW T01750175,,,9000.0,,,63.5,,SE,29.32,28.21,,Mostly Cloudy
KIGQ,05/14/2018 14:55 UTC,29.99,64.4,64.04,98.75,4.61,190.0,,5.0,,,0.49,903.0,,,,10.0,,KIGQ 141455Z AUTO 19004KT 10SM TS BKN090 18/18 A2999 RMK AO2 LTG  DSNT NW 60049 T01800178,,,9000.0,,,64.04,,S,29.34,28.19,,Thunder
KIGQ,05/14/2018 15:15 UTC,29.98,64.94,64.58,98.75,0.0,0.0,,,,,,904.0,,,,10.0,,KIGQ 141515Z AUTO 00000KT 10SM OVC090 18/18 A2998 RMK AO2 LTG DSNT  N AND NW T01830181,,,9000.0,,,64.58,,N,29.33,28.14,,Overcast
KIGQ,05/14/2018 15:35 UTC,29.97,66.2,64.58,94.53,4.61,130.0,,,,,,902.0,,,,10.0,,KIGQ 141535Z AUTO 13004KT 10SM SCT090 19/18 A2997 RMK AO2 LTG DSNT  NE T01900181,,,,,,64.57,,SE,29.32,28.11,,Partly Cloudy
KIGQ,05/14/2018 15:55 UTC,29.96,66.74,65.3,95.13,8.05,140.0,,,,,,1.0,,,,10.0,,KIGQ 141555Z AUTO 14007KT 10SM CLR 19/19 A2996 RMK AO2  T01930185,,,,,,65.29,,SE,29.31,28.05,,Clear
KIGQ,05/14/2018 16:15 UTC,29.95,67.46,65.3,92.8,10.36,140.0,,,,,,1.0,,,,10.0,,KIGQ 141615Z AUTO 14009KT 10SM CLR 20/19 A2995 RMK AO2  T01970185,,,,,,65.29,,SE,29.3,28.03,,Clear
KIGQ,05/14/2018 16:35 UTC,29.95,69.26,66.02,89.45,9.22,150.0,,,,,,1.0,,,,10.0,,KIGQ 141635Z AUTO 15008KT 10SM CLR 21/19 A2995 RMK AO2  T02070189,,,,,,66.01,,SSE,29.3,27.96,,Clear
KIGQ,05/14/2018 16:55 UTC,29.92,71.24,66.74,85.74,14.97,160.0,18.41,,,,,1.0,,,,10.0,,KIGQ 141655Z AUTO 16013G16KT 10SM CLR 22/19 A2992 RMK AO2  T02180193,,,,,,66.73,,SSE,29.27,27.85,,Clear
KIGQ,05/14/2018 17:15 UTC,29.92,73.22,67.46,82.22,13.8,160.0,18.41,,,,,1.0,,,,10.0,,KIGQ 141715Z AUTO 16012G16KT 10SM CLR 23/20 A2992 RMK AO2  T02290197,,,,,,67.45,,SSE,29.27,27.78,,Clear
KIGQ,05/14/2018 17:35 UTC,29.91,75.38,67.82,77.44,11.5,170.0,16.11,,,,,1.0,,,,10.0,,KIGQ 141735Z AUTO 17010G14KT 10SM CLR 24/20 A2991 RMK AO2  T02410199,,,,,,67.81,,S,29.26,27.71,,Clear
KIGQ,05/14/2018 17:55 UTC,29.9,77.0,68.0,73.85,11.5,170.0,16.11,,,,,1.0,,0.49,,10.0,,KIGQ 141755Z AUTO 17010G14KT 10SM CLR 25/20 A2990 RMK AO2 60049  T02500200 10250 20135,77.0,56.3,,,,68.0,,S,29.25,27.67,,Clear
KIGQ,05/14/2018 18:15 UTC,29.89,78.8,68.18,70.03,14.97,180.0,19.57,,,,,1.0,,,,10.0,,KIGQ 141815Z AUTO 18013G17KT 10SM CLR 26/20 A2989 RMK AO2  T02600201,,,,,,68.19,,S,29.24,27.62,,Clear
KIGQ,05/14/2018 18:35 UTC,29.88,79.7,66.92,65.11,17.27,180.0,24.16,,,,,1.0,,,,10.0,,KIGQ 141835Z AUTO 18015G21KT 10SM CLR 27/19 A2988 RMK AO2  T02650194,,,,,,66.93,,S,29.23,27.69,,Clear
KIGQ,05/14/2018 18:55 UTC,29.88,80.78,66.92,62.86,16.11,180.0,23.02,,,,,1.0,,,,10.0,,KIGQ 141855Z AUTO 18014G20KT 10SM CLR 27/19 A2988 RMK AO2  T02710194,,,,,,66.94,,S,29.23,27.68,83.17,Clear
KIGQ,05/14/2018 19:15 UTC,29.88,81.86,66.92,60.69,16.11,190.0,20.71,,,,,1.0,,,,10.0,,KIGQ 141915Z AUTO 19014G18KT 10SM CLR 28/19 A2988 RMK AO2  T02770194,,,,,,66.94,,S,29.23,27.67,84.35,Clear
KIGQ,05/14/2018 19:35 UTC,29.88,82.94,65.66,56.11,12.66,190.0,21.85,,,,,1.0,,,,10.0,,KIGQ 141935Z AUTO 19011G19KT 10SM CLR 28/19 A2988 RMK AO2  T02830187,,,,,,65.7,,S,29.23,27.74,84.99,Clear
KIGQ,05/14/2018 19:55 UTC,29.87,83.3,64.76,53.76,13.8,190.0,24.16,,,,,1.0,,,,10.0,,KIGQ 141955Z AUTO 19012G21KT 10SM CLR 29/18 A2987 RMK AO2  T02850182,,,,,,64.8,,S,29.22,27.79,85.0,Clear
KIGQ,05/14/2018 20:15 UTC,29.86,84.2,64.4,51.58,17.27,200.0,23.02,,,,,1.0,,,,10.0,,KIGQ 142015Z AUTO 20015G20KT 10SM CLR 29/18 A2986 RMK AO2  T02900180,,,,,,64.46,,SSW,29.21,27.79,85.74,Clear
KIGQ,05/14/2018 20:35 UTC,29.85,84.02,65.3,53.52,17.27,220.0,24.16,,,,,1.0,,,,10.0,,KIGQ 142035Z AUTO 22015G21KT 10SM CLR 29/19 A2985 RMK AO2 LTG DSNT  W T02890185,,,,,,65.35,,SW,29.2,27.72,85.94,Clear
KIGQ,05/14/2018 20:55 UTC,29.84,84.56,66.56,54.95,11.5,210.0,23.02,,,,,602.0,752.0,,,10.0,,KIGQ 142055Z AUTO 21010G20KT 10SM SCT060 SCT075 29/19 A2984 RMK AO2 T02920192,,,,,,66.61,,SSW,29.19,27.62,87.08,Partly Cloudy
KIGQ,05/14/2018 21:15 UTC,29.83,84.56,64.76,51.63,12.66,210.0,19.57,,,,,652.0,753.0,,,10.0,,KIGQ 142115Z AUTO 21011G17KT 10SM SCT065 BKN075 29/18 A2983 RMK AO2 LTG DSNT W T02920182,,,7500.0,,,64.82,,SSW,29.18,27.73,86.25,Mostly Cloudy
KIGQ,05/14/2018 21:35 UTC,29.82,85.1,64.04,49.48,13.8,230.0,,,,,,652.0,803.0,,,10.0,,KIGQ 142135Z AUTO 23012KT 10SM SCT065 BKN080 30/18 A2982 RMK AO2  LTG DSNT W AND NW T02950178,,,8000.0,,,64.1,,SW,29.17,27.77,86.47,Mostly Cloudy
KIGQ,05/14/2018 21:55 UTC,29.81,84.02,65.12,53.19,9.22,240.0,,,,,,702.0,804.0,,,10.0,,KIGQ 142155Z AUTO 24008KT 10SM SCT070 OVC080 29/18 A2981 RMK AO2  LTG DSNT W AND NW T02890184,,,8000.0,,,65.17,,WSW,29.16,27.7,85.86,Overcast
KIGQ,05/14/2018 22:15 UTC,29.81,83.3,65.3,54.78,5.75,230.0,,,,,,703.0,804.0,,,10.0,,KIGQ 142215Z AUTO 23005KT 10SM BKN070 OVC080 29/19 A2981 RMK AO2  T02850185,,,7000.0,,,65.34,,SW,29.16,27.69,85.22,Overcast
KIGQ,05/14/2018 22:35 UTC,29.81,74.12,62.24,66.52,13.8,40.0,17.27,,,,,702.0,904.0,,,10.0,,KIGQ 142235Z AUTO 04012G15KT 10SM SCT070 OVC090 23/17 A2981 RMK AO2 LTG DSNT W AND NW T02340168,,,9000.0,,,62.22,,NE,29.16,27.99,,Overcast
KIGQ,05/14/2018 22:55 UTC,29.82,67.1,61.7,82.83,12.66,40.0,17.27,,,,,703.0,903.0,,,10.0,,KIGQ 142255Z AUTO 04011G15KT 10SM BKN070 BKN090 20/17 A2982 RMK AO2 LTG DSNT NW T01950165,,,7000.0,,,61.67,,NE,29.17,28.11,,Mostly Cloudy
KIGQ,05/14/2018 23:15 UTC,29.81,66.2,61.7,85.45,12.66,40.0,,,1103.0,,,702.0,903.0,,,10.0,,KIGQ 142315Z AUTO 04011KT 10SM SCT070 BKN090 BKN110 19/17 A2981 RMK AO2 LTG DSNT NW T01900165,,,9000.0,,,61.68,,NE,29.16,28.11,,Mostly Cloudy
KIGQ,05/14/2018 23:35 UTC,29.81,65.66,61.7,87.06,10.36,40.0,17.27,5.0,,,,702.0,902.0,,,10.0,,KIGQ 142335Z AUTO 04009G15KT 10SM VCTS SCT070 SCT090 19/17 A2981 RMK AO2 LTG DSNT W THRU NE T01870165,,,,,,61.68,,NE,29.16,28.12,,Thunder
KIGQ,05/14/2018 23:55 UTC,29.86,64.04,60.8,89.23,4.61,360.0,31.07,5.0,954.0,,,132.0,703.0,,,7.0,,KIGQ 142355Z AUTO 36004G27KT 7SM VCTS SCT013 BKN070 OVC095 18/16  A2986 RMK AO2 LTG DSNT ALQS T01780160 10298 20178,85.64,64.04,7000.0,,,60.78,,N,29.21,28.24,,Thunder
KIGQ,05/15/2018 00:15 UTC,29.83,63.14,61.7,95.06,13.8,60.0,23.02,5.0,803.0,0.01,,132.0,252.0,,,10.0,,KIGQ 150015Z AUTO 06012G20KT 10SM VCTS SCT013 SCT025 BKN080 17/17  A2983 RMK AO2 LTG DSNT NE SE AND NW P0001 T01730165,,,8000.0,,,61.69,,ENE,29.18,28.17,,Thunder
KIGQ,05/15/2018 00:35 UTC,29.83,62.6,62.06,98.12,10.36,50.0,,5.0,,0.01,,1.0,,,,7.0,,KIGQ 150035Z AUTO 05009KT 7SM VCTS CLR 17/17 A2983 RMK AO2 LTG  DSNT NE AND SE P0001 T01700167,,,,,,62.06,,NE,29.18,28.16,,Thunder
KIGQ,05/15/2018 00:55 UTC,29.83,62.06,61.7,98.74,5.75,30.0,10.36,,,0.01,,1.0,,,,7.0,,KIGQ 150055Z AUTO 03005G09KT 7SM CLR 17/17 A2983 RMK AO2 LTG DSNT  NW THRU SE P0001 T01670165,,,,,,61.7,,NNE,29.18,28.19,,Clear
KIGQ,05/15/2018 01:15 UTC,29.83,61.7,61.34,98.74,4.61,110.0,,,,,,752.0,852.0,,,10.0,,KIGQ 150115Z AUTO 11004KT 10SM SCT075 SCT085 17/16 A2983 RMK AO2  T01650163,,,,,,61.34,,ESE,29.18,28.21,,Partly Cloudy
KIGQ,05/15/2018 01:35 UTC,29.81,61.7,61.7,100.0,6.91,70.0,,31.0,752.0,,,502.0,652.0,,,5.0,,KIGQ 150135Z AUTO 07006KT 5SM BR SCT050 SCT065 SCT075 17/17 A2981 RMK AO2 LTG DSNT N AND NE T01650165,,,,,,61.7,,ENE,29.16,28.17,,Mist
KIGQ,05/15/2018 02:00 UTC,29.8,61.52,61.52,100.0,4.61,120.0,,31.0,,,,652.0,,,,5.0,,KIGQ 150200Z AUTO 12004KT 5SM BR SCT065 16/16 A2980 RMK AO2 LTG  DSNT NW THRU E T01640164,,,,,,61.52,,ESE,29.15,28.17,,Mist
KIGQ,05/15/2018 02:15 UTC,29.79,61.7,61.7,100.0,0.0,0.0,,31.0,,,,652.0,852.0,,,5.0,,KIGQ 150215Z AUTO 00000KT 5SM BR SCT065 SCT085 17/17 A2979 RMK AO2  LTG DSNT W THRU N T01650165,,,,,,61.7,,N,29.14,28.15,,Mist
KIGQ,05/15/2018 02:35 UTC,29.8,61.7,61.7,100.0,0.0,0.0,,2485.0,,,,652.0,853.0,,,5.0,,KIGQ 150235Z AUTO 00000KT 5SM VCTS BR SCT065 BKN085 17/17 A2980 RMK AO2 LTG DSNT W THRU N T01650165,,,8500.0,,,61.7,,N,29.15,28.16,,Thunder,Mist
KIGQ,05/15/2018 02:55 UTC,29.81,61.7,61.7,100.0,0.0,0.0,,31.0,,,0.01,652.0,852.0,,,5.0,,KIGQ 150255Z AUTO 00000KT 5SM BR SCT065 SCT085 17/17 A2981 RMK AO2  LTG DSNT W THRU NE 60001 T01650165,,,,,,61.7,,N,29.16,28.17,,Mist
KIGQ,05/15/2018 03:15 UTC,29.8,61.7,61.7,100.0,0.0,0.0,,31.0,,,,652.0,953.0,,,4.0,,KIGQ 150315Z AUTO 00000KT 4SM BR SCT065 BKN095 17/17 A2980 RMK AO2  LTG DSNT W THRU NE T01650165,,,9500.0,,,61.7,,N,29.15,28.16,,Mist
KIGQ,05/15/2018 03:35 UTC,29.81,61.16,61.16,100.0,0.0,0.0,,2485.0,,,,652.0,852.0,,,4.0,,KIGQ 150335Z AUTO 00000KT 4SM VCTS BR SCT065 SCT085 16/16 A2981 RMK AO2 LTG DSNT W THRU N T01620162,,,,,,61.16,,N,29.16,28.21,,Thunder,Mist
KIGQ,05/15/2018 03:55 UTC,29.87,64.04,62.78,95.68,13.8,340.0,23.02,,383.0,,,132.0,242.0,,,10.0,,KIGQ 150355Z AUTO 34012G20KT 10SM SCT013 SCT024 BKN038 18/17 A2987 RMK AO2 LTG DSNT W THRU NE T01780171,,,3800.0,,,62.77,,NNW,29.22,28.14,,Mostly Cloudy
KIGQ,05/15/2018 04:15 UTC,29.85,63.32,62.78,98.12,4.61,130.0,,,384.0,0.41,,153.0,243.0,,,1.5,,KIGQ 150415Z AUTO 13004KT 1 1/2SM /VCTSRA BKN015 BKN024 OVC038  17/17 A2985 RMK AO2 LTG DSNT ALQS P0041 T01740171,,,1500.0,,,62.78,,SE,29.2,28.13,,Overcast
KIGQ,05/15/2018 04:35 UTC,29.87,62.6,62.6,100.0,5.75,260.0,,78.0,904.0,0.53,,172.0,603.0,,,3.0,,KIGQ 150435Z AUTO 26005KT 3SM +TSRA SCT017 BKN060 OVC090 17/17  A2987 RMK AO2 LTG DSNT ALQS P0053 T01700170,,,6000.0,,,62.6,,W,29.22,28.17,,Heavy Rain/Thunderstorm
KIGQ,05/15/2018 04:55 UTC,29.83,62.6,62.6,100.0,5.75,70.0,,66.0,1104.0,0.55,,462.0,703.0,,,7.0,,KIGQ 150455Z AUTO 07005KT 7SM TSRA SCT046 BKN070 OVC110 17/17  A2983 RMK AO2 LTG DSNT ALQS P0055 T01700170,,,7000.0,,,62.6,,ENE,29.18,28.13,,Thunderstorm
KIGQ,05/15/2018 05:15 UTC,29.82,62.96,62.96,100.0,5.75,100.0,,,1204.0,,,752.0,902.0,,,10.0,,KIGQ 150515Z AUTO 10005KT 10SM -VCTSRA SCT075 SCT090 OVC120 17/17  A2982 RMK AO2 LTG DSNT W THRU NE T01720172,,,12000.0,,,62.96,,E,29.17,28.09,,Overcast
KIGQ,05/15/2018 05:35 UTC,29.85,62.96,62.96,100.0,3.44,170.0,,13.0,,,,552.0,1103.0,,,10.0,,KIGQ 150535Z AUTO 17003KT 10SM -RA SCT055 BKN110 17/17 A2985 RMK AO2 LTG DSNT W THRU E T01720172,,,11000.0,,,62.96,,S,29.2,28.13,,Light Rain
KIGQ,05/15/2018 05:55 UTC,29.83,62.78,62.78,100.0,3.44,70.0,,,,,,552.0,1104.0,0.56,,7.0,,KIGQ 150555Z AUTO 07003KT 7SM -VCTSRA SCT055 OVC110 17/17 A2983 RMK AO2 LTG DSNT W THRU NE 60056 T01710171 10182 20162  402980112,64.76,61.16,11000.0,85.64,52.16,62.78,,ENE,29.18,28.12,,Overcast
KIGQ,05/15/2018 06:15 UTC,29.83,62.6,62.6,100.0,0.0,0.0,,,,,,1103.0,,,,7.0,,KIGQ 150615Z AUTO 00000KT 7SM -VCTSRA BKN110 17/17 A2983 RMK AO2  LTG DSNT ALQS T01700170,,,11000.0,,,62.6,,N,29.18,28.13,,Mostly Cloudy
KIGQ,05/15/2018 06:35 UTC,29.85,62.6,62.6,100.0,5.75,240.0,,66.0,,0.01,,1103.0,,,,3.0,,KIGQ 150635Z AUTO 24005KT 3SM TSRA BKN110 17/17 A2985 RMK AO2 LTG  DSNT ALQS P0001 T01700170,,,11000.0,,,62.6,,WSW,29.2,28.15,,Thunderstorm
KIGQ,05/15/2018 06:55 UTC,29.83,62.06,62.06,100.0,3.44,130.0,,1.0,,0.01,,802.0,1104.0,,,5.0,,KIGQ 150655Z AUTO 13003KT 5SM RA SCT080 OVC110 17/17 A2983 RMK AO2  LTG DSNT NE AND SE P0001 T01670167,,,11000.0,,,62.06,,SE,29.18,28.17,,Rain
KIGQ,05/15/2018 07:15 UTC,29.83,62.06,62.06,100.0,4.61,190.0,,31.0,,,,902.0,1102.0,,,5.0,,KIGQ 150715Z AUTO 19004KT 5SM BR SCT090 SCT110 17/17 A2983 RMK AO2  LTG DSNT ALQS T01670167,,,,,,62.06,,S,29.18,28.17,,Mist
KIGQ,05/15/2018 07:35 UTC,29.83,61.88,61.88,100.0,0.0,0.0,,31.0,,,,1.0,,,,4.0,,KIGQ 150735Z AUTO 00000KT 4SM BR CLR 17/17 A2983 RMK AO2 LTG DSNT  E T01660166,,,,,,61.88,,N,29.18,28.18,,Mist
KIGQ,05/15/2018 07:55 UTC,29.84,61.88,61.88,100.0,5.75,220.0,,13.0,,,,1003.0,,,,5.0,,KIGQ 150755Z AUTO 22005KT 5SM -RA BKN100 17/17 A2984 RMK AO2 LTG  DSNT SE T01660166,,,10000.0,,,61.88,,SW,29.19,28.19,,Light Rain
KIGQ,05/15/2018 08:15 UTC,29.85,62.06,62.06,100.0,4.61,210.0,,,1203.0,,,652.0,1003.0,,,7.0,,KIGQ 150815Z AUTO 21004KT 7SM SCT065 BKN100 BKN120 17/17 A2985 RMK AO2 LTG DSNT W T01670167,,,10000.0,,,62.06,,SSW,29.2,28.19,,Mostly Cloudy
KIGQ,05/15/2018 08:35 UTC,29.84,61.88,61.88,100.0,0.0,0.0,,,,,,652.0,1202.0,,,7.0,,KIGQ 150835Z AUTO 00000KT 7SM SCT065 SCT120 17/17 A2984 RMK AO2  T01660166,,,,,,61.88,,N,29.19,28.19,,Partly Cloudy
KIGQ,05/15/2018 08:55 UTC,29.85,61.34,61.34,100.0,0.0,0.0,,31.0,,,0.01,1.0,,,,5.0,,KIGQ 150855Z AUTO 00000KT 5SM BR CLR 16/16 A2985 RMK AO2 60001  T01630163,,,,,,61.34,,N,29.2,28.24,,Mist
KIGQ,05/15/2018 09:15 UTC,29.86,60.98,60.98,100.0,4.61,250.0,,31.0,,,,902.0,,,,5.0,,KIGQ 150915Z AUTO 25004KT 5SM BR SCT090 16/16 A2986 RMK AO2 LTG  DSNT W T01610161,,,,,,60.98,,WSW,29.21,28.27,,Mist
KIGQ,05/15/2018 09:35 UTC,29.86,61.7,61.7,100.0,4.61,260.0,,,1103.0,,,202.0,902.0,,,7.0,,KIGQ 150935Z AUTO 26004KT 7SM SCT020 SCT090 BKN110 17/17 A2986 RMK AO2 LTG DSNT W T01650165,,,11000.0,,,61.7,,W,29.21,28.22,,Mostly Cloudy
KIGQ,05/15/2018 09:55 UTC,29.86,62.06,62.06,100.0,0.0,0.0,,31.0,,,,223.0,1104.0,,,5.0,,KIGQ 150955Z AUTO 00000KT 5SM BR BKN022 OVC110 17/17 A2986 RMK AO2  T01670167,,,2200.0,,,62.06,,N,29.21,28.2,,Mist
KIGQ,05/15/2018 10:15 UTC,29.87,61.7,61.7,100.0,3.44,220.0,,31.0,,,,204.0,,,,5.0,,KIGQ 151015Z AUTO 22003KT 5SM BR OVC020 17/17 A2987 RMK AO2  T01650165,,,2000.0,,,61.7,,SW,29.22,28.23,,Mist
KIGQ,05/15/2018 10:35 UTC,29.87,62.06,62.06,100.0,0.0,0.0,,31.0,,,,184.0,,,,5.0,,KIGQ 151035Z AUTO 00000KT 5SM BR OVC018 17/17 A2987 RMK AO2  T01670167,,,1800.0,,,62.06,,N,29.22,28.21,,Mist
KIGQ,05/15/2018 10:55 UTC,29.88,62.6,62.6,100.0,3.44,220.0,,31.0,,,,164.0,,,,5.0,,KIGQ 151055Z AUTO 22003KT 5SM BR OVC016 17/17 A2988 RMK AO2  T01700170,,,1600.0,,,62.6,,SW,29.23,28.18,,Mist
KIGQ,05/15/2018 11:15 UTC,29.89,63.14,63.14,100.0,4.61,220.0,,31.0,,,,164.0,,,,4.0,,KIGQ 151115Z AUTO 22004KT 4SM BR OVC016 17/17 A2989 RMK AO2  T01730173,,,1600.0,,,63.14,,SW,29.24,28.15,,Mist
KIGQ,05/15/2018 11:35 UTC,29.9,63.5,63.5,100.0,5.75,240.0,,31.0,334.0,,,162.0,283.0,,,4.0,,KIGQ 151135Z AUTO 24005KT 4SM BR SCT016 BKN028 OVC033 18/18 A2990 RMK AO2 T01750175,,,2800.0,,,63.5,,WSW,29.25,28.14,,Mist
KIGQ,05/15/2018 11:55 UTC,29.9,63.86,63.86,100.0,0.0,0.0,,31.0,,,,243.0,314.0,0.01,1.06,4.0,,KIGQ 151155Z AUTO 00000KT 4SM BR BKN024 OVC031 18/18 A2990 RMK AO2  60001 70106 T01770177 10177 20161,63.86,60.98,2400.0,,,63.86,,N,29.25,28.11,,Mist
KIGQ,05/15/2018 12:15 UTC,29.9,64.4,64.4,100.0,3.44,10.0,,31.0,,,,183.0,244.0,,,3.0,,KIGQ 151215Z AUTO 01003KT 3SM BR BKN018 OVC024 18/18 A2990 RMK AO2  T01800180,,,1800.0,,,64.4,,N,29.25,28.07,,Mist
KIGQ,05/15/2018 12:35 UTC,29.9,64.76,64.76,100.0,4.61,360.0,,31.0,,,,144.0,,,,4.0,,KIGQ 151235Z AUTO 36004KT 4SM BR OVC014 18/18 A2990 RMK AO2  T01820182,,,1400.0,,,64.76,,N,29.25,28.05,,Mist
KIGQ,05/15/2018 12:55 UTC,29.91,64.94,64.94,100.0,4.61,360.0,,31.0,,,,84.0,,,,2.5,,KIGQ 151255Z AUTO 36004KT 2 1/2SM BR OVC008 18/18 A2991 RMK AO2  T01830183,,,800.0,,,64.94,,N,29.26,28.04,,Mist
KIGQ,05/15/2018 13:15 UTC,29.93,60.8,60.8,100.0,10.36,360.0,19.57,31.0,,,,64.0,,,,3.0,,KIGQ 151315Z AUTO 36009G17KT 3SM BR OVC006 16/16 A2993 RMK AO2  T01600160,,,600.0,,,60.8,,N,29.28,28.35,,Mist
KIGQ,05/15/2018 13:35 UTC,29.94,61.7,61.7,100.0,6.91,10.0,,,,,,62.0,134.0,,,10.0,,KIGQ 151335Z AUTO 01006KT 10SM SCT006 OVC013 17/17 A2994 RMK AO2  T01650165,,,1300.0,,,61.7,,N,29.29,28.3,,Overcast
KIGQ,05/15/2018 13:55 UTC,29.94,63.14,62.42,97.5,3.44,10.0,,,,,,153.0,324.0,,,10.0,,KIGQ 151355Z AUTO 01003KT 10SM BKN015 OVC032 17/17 A2994 RMK AO2  LTG DSNT SW T01730169,,,1500.0,,,62.41,,N,29.29,28.24,,Overcast
KIGQ,05/15/2018 14:15 UTC,29.94,65.3,63.32,93.32,8.05,360.0,,,,,,172.0,322.0,,,10.0,,KIGQ 151415Z AUTO 36007KT 10SM SCT017 SCT032 19/17 A2994 RMK AO2  T01850174,,,,,,63.31,,N,29.29,28.17,,Partly Cloudy
KIGQ,05/15/2018 14:35 UTC,29.96,61.88,61.16,97.49,11.5,20.0,,,293.0,,,82.0,112.0,,,10.0,,KIGQ 151435Z AUTO 02010KT 10SM SCT008 SCT011 BKN029 17/16 A2996 RMK AO2 LTG DSNT SW T01660162,,,2900.0,,,61.16,,NNE,29.31,28.35,,Mostly Cloudy
KIGQ,05/15/2018 14:55 UTC,29.96,61.7,60.8,96.87,8.05,10.0,,5.0,,,,63.0,294.0,,,10.0,,KIGQ 151455Z AUTO 01007KT 10SM VCTS BKN006 OVC029 17/16 A2996 RMK AO2 T01650160,,,600.0,,,60.79,,N,29.31,28.37,,Thunder
KIGQ,05/15/2018 15:15 UTC,29.97,63.32,61.34,93.27,8.05,350.0,,,,,,102.0,293.0,,,10.0,,KIGQ 151515Z AUTO 35007KT 10SM SCT010 BKN029 17/16 A2997 RMK AO2  T01740163,,,2900.0,,,61.33,,N,29.32,28.33,,Mostly Cloudy
KIGQ,05/15/2018 15:35 UTC,29.98,64.22,60.44,87.54,10.36,360.0,19.57,,,,,102.0,,,,10.0,,KIGQ 151535Z AUTO 36009G17KT 10SM SCT010 18/16 A2998 RMK AO2  T01790158,,,,,,60.42,,N,29.33,28.38,,Partly Cloudy
KIGQ,05/15/2018 15:55 UTC,29.99,64.94,60.08,84.29,10.36,10.0,,,,,,1.0,,,,10.0,,KIGQ 151555Z AUTO 01009KT 10SM CLR 18/16 A2999 RMK AO2  T01830156,,,,,,60.05,,N,29.34,28.4,,Clear
KIGQ,05/15/2018 17:35 UTC,29.99,64.58,61.34,89.25,16.11,40.0,19.57,,,,,1.0,,,,10.0,,KIGQ 151735Z AUTO 04014G17KT 10SM CLR 18/16 A2999 RMK AO2  T01810163,,,,,,61.32,,NE,29.34,28.34,,Clear
KIGQ,05/15/2018 17:55 UTC,30.0,64.22,60.98,89.23,11.5,40.0,,,,,,142.0,,,,10.0,,KIGQ 151755Z AUTO 04010KT 10SM SCT014 18/16 A3000 RMK AO2 LTG DSNT  SE T01790161 10185 20160,65.3,60.8,,,,60.96,,NE,29.35,28.37,,Partly Cloudy
KIGQ,05/15/2018 18:15 UTC,30.01,62.6,60.26,92.06,11.5,70.0,,,,,,123.0,,,,7.0,,KIGQ 151815Z AUTO 07010KT 7SM BKN012 17/16 A3001 RMK AO2  T01700157,,,1200.0,,,60.24,,ENE,29.36,28.44,,Mostly Cloudy
KIGQ,05/15/2018 18:35 UTC,30.02,60.98,59.18,93.8,8.05,60.0,,,,,,104.0,,,,10.0,,KIGQ 151835Z AUTO 06007KT 10SM OVC010 16/15 A3002 RMK AO2  T01610151,,,1000.0,,,59.17,,ENE,29.37,28.52,,Overcast
KIGQ,05/15/2018 18:55 UTC,30.03,62.42,59.54,90.31,5.75,70.0,,,,,,103.0,,,,7.0,,KIGQ 151855Z AUTO 07005KT 7SM BKN010 17/15 A3003 RMK AO2  T01690153,,,1000.0,,,59.52,,ENE,29.38,28.5,,Mostly Cloudy
KIGQ,05/15/2018 19:15 UTC,30.02,62.24,59.54,90.88,8.05,10.0,,,,,,102.0,1203.0,,,7.0,,KIGQ 151915Z AUTO 01007KT 7SM SCT010 BKN120 17/15 A3002 RMK AO2  T01680153,,,12000.0,,,59.52,,N,29.37,28.49,,Mostly Cloudy
KIGQ,05/15/2018 19:35 UTC,30.01,61.88,59.72,92.63,8.05,30.0,,31.0,,,,1203.0,,,,4.0,,KIGQ 151935Z AUTO 03007KT 4SM BR BKN120 17/15 A3001 RMK AO2  T01660154,,,12000.0,,,59.7,,NNE,29.36,28.48,,Mist
KIGQ,05/15/2018 19:55 UTC,30.01,63.14,60.08,89.76,9.22,50.0,,31.0,,,,102.0,1203.0,,,5.0,,KIGQ 151955Z AUTO 05008KT 5SM BR SCT010 BKN120 17/16 A3001 RMK AO2  T01730156,,,12000.0,,,60.06,,NE,29.36,28.44,,Mist
KIGQ,05/15/2018 20:15 UTC,30.01,62.96,60.08,90.33,9.22,10.0,,,,,,123.0,,,,7.0,,KIGQ 152015Z AUTO 01008KT 7SM BKN012 17/16 A3001 RMK AO2  T01720156,,,1200.0,,,60.06,,N,29.36,28.44,,Mostly Cloudy
KIGQ,05/15/2018 20:35 UTC,30.0,62.24,58.64,88.01,11.5,20.0,19.57,,,,,122.0,,,,10.0,,KIGQ 152035Z AUTO 02010G17KT 10SM SCT012 17/15 A3000 RMK AO2  T01680148,,,,,,58.62,,NNE,29.35,28.52,,Partly Cloudy
KIGQ,05/15/2018 20:55 UTC,30.0,58.46,56.66,93.74,10.36,10.0,,,,,,83.0,123.0,,,10.0,,KIGQ 152055Z AUTO 01009KT 10SM BKN008 BKN012 15/14 A3000 RMK AO2  T01470137,,,800.0,,,56.65,,N,29.35,28.65,,Mostly Cloudy
KIGQ,05/15/2018 21:15 UTC,30.01,57.2,55.4,93.7,8.05,360.0,,,,,,83.0,,,,10.0,,KIGQ 152115Z AUTO 36007KT 10SM BKN008 14/13 A3001 RMK AO2  T01400130,,,800.0,,,55.38,,N,29.36,28.73,,Mostly Cloudy
KIGQ,05/15/2018 21:35 UTC,30.0,55.04,52.7,91.81,11.5,10.0,,,,,,82.0,,,,10.0,,KIGQ 152135Z AUTO 01010KT 10SM SCT008 13/12 A3000 RMK AO2  T01280115,,,,,,52.68,,N,29.35,28.86,,Partly Cloudy
KIGQ,05/15/2018 21:55 UTC,30.0,55.58,52.34,88.84,11.5,360.0,,,,,,1.0,,,,10.0,,KIGQ 152155Z AUTO 36010KT 10SM CLR 13/11 A3000 RMK AO2  T01310113,,,,,,52.31,,N,29.35,28.87,,Clear
KIGQ,05/15/2018 22:15 UTC,30.01,55.4,51.44,86.51,5.75,10.0,,,,,,1.0,,,,10.0,,KIGQ 152215Z AUTO 01005KT 10SM CLR 13/11 A3001 RMK AO2  T01300108,,,,,,51.4,,N,29.36,28.91,,Clear
KIGQ,05/15/2018 22:35 UTC,30.01,55.94,51.44,84.83,8.05,30.0,,,,,,1.0,,,,10.0,,KIGQ 152235Z AUTO 03007KT 10SM CLR 13/11 A3001 RMK AO2  T01330108,,,,,,51.4,,NNE,29.36,28.91,,Clear
KIGQ,05/15/2018 22:55 UTC,30.01,55.04,50.54,84.77,9.22,50.0,,,,,,1.0,,,,10.0,,KIGQ 152255Z AUTO 05008KT 10SM CLR 13/10 A3001 RMK AO2  T01280103,,,,,,50.5,,NE,29.36,28.95,,Clear
KIGQ,05/15/2018 23:15 UTC,30.01,54.5,48.92,81.4,10.36,30.0,,,,,,1.0,,,,10.0,,KIGQ 152315Z AUTO 03009KT 10SM CLR 13/09 A3001 RMK AO2  T01250094,,,,,,48.87,,NNE,29.36,29.01,,Clear
KIGQ,05/15/2018 23:35 UTC,30.0,53.96,47.48,78.66,13.8,30.0,,,,,,1.0,,,,10.0,,KIGQ 152335Z AUTO 03012KT 10SM CLR 12/09 A3000 RMK AO2  T01220086,,,,,,47.42,,NNE,29.35,29.05,,Clear
KIGQ,05/15/2018 23:55 UTC,30.0,53.42,46.94,78.61,13.8,20.0,,,,,,1.0,,,,10.0,,KIGQ 152355Z AUTO 02012KT 10SM CLR 12/08 A3000 RMK AO2 T01190083  10179 20119,64.22,53.42,,,,46.87,,NNE,29.35,29.08,,Clear
KIGQ,05/16/2018 00:15 UTC,30.0,52.52,46.58,80.15,12.66,20.0,,,,,,1.0,,,,10.0,,KIGQ 160015Z AUTO 02011KT 10SM CLR 11/08 A3000 RMK AO2  T01140081,,,,,,46.52,,NNE,29.35,29.1,,Clear
KIGQ,05/16/2018 00:35 UTC,30.01,51.8,46.4,81.75,8.05,10.0,,,,,,1.0,,,,10.0,,KIGQ 160035Z AUTO 01007KT 10SM CLR 11/08 A3001 RMK AO2  T01100080,,,,,,46.34,,N,29.36,29.12,,Clear
KIGQ,05/16/2018 00:55 UTC,30.01,51.26,46.22,82.83,9.22,40.0,,,,,,1.0,,,,10.0,,KIGQ 160055Z AUTO 04008KT 10SM CLR 11/08 A3001 RMK AO2  T01070079,,,,,,46.16,,NE,29.36,29.13,,Clear
KIGQ,05/16/2018 01:15 UTC,30.02,50.18,45.14,82.75,9.22,40.0,,,,,,1.0,,,,10.0,,KIGQ 160115Z AUTO 04008KT 10SM CLR 10/07 A3002 RMK AO2  T01010073,,,,,,45.08,,NE,29.37,29.18,,Clear
KIGQ,05/16/2018 01:35 UTC,30.02,49.64,45.14,84.43,9.22,20.0,,,,,,1.0,,,,10.0,,KIGQ 160135Z AUTO 02008KT 10SM CLR 10/07 A3002 RMK AO2  T00980073,,,,,,45.09,,NNE,29.37,29.18,,Clear
KIGQ,05/16/2018 01:55 UTC,30.02,49.46,44.78,83.84,8.05,10.0,,,,,,1.0,,,,10.0,,KIGQ 160155Z AUTO 01007KT 10SM CLR 10/07 A3002 RMK AO2  T00970071,,,,,,44.72,,N,29.37,29.2,,Clear
KIGQ,05/16/2018 02:15 UTC,30.03,49.28,44.96,84.99,5.75,10.0,,,,,,1.0,,,,10.0,,KIGQ 160215Z AUTO 01005KT 10SM CLR 10/07 A3003 RMK AO2  T00960072,,,,,,44.91,,N,29.38,29.2,,Clear
KIGQ,05/16/2018 02:35 UTC,30.03,49.1,44.06,82.68,9.22,360.0,,,,,,1.0,,,,10.0,,KIGQ 160235Z AUTO 36008KT 10SM CLR 10/07 A3003 RMK AO2  T00950067,,,,,,44.0,,N,29.38,29.23,,Clear
KIGQ,05/16/2018 02:55 UTC,30.04,49.1,43.7,81.55,5.75,20.0,,,,,,1.0,,,,10.0,,KIGQ 160255Z AUTO 02005KT 10SM CLR 10/07 A3004 RMK AO2  T00950065,,,,,,43.64,,NNE,29.39,29.25,,Clear
KIGQ,05/16/2018 03:15 UTC,30.04,48.92,43.88,82.66,3.44,20.0,,,,,,1.0,,,,10.0,,KIGQ 160315Z AUTO 02003KT 10SM CLR 09/07 A3004 RMK AO2  T00940066,,,,,,43.82,,NNE,29.39,29.25,,Clear
KIGQ,05/16/2018 03:35 UTC,30.04,48.56,43.88,83.78,5.75,20.0,,,,,,1.0,,,,10.0,,KIGQ 160335Z AUTO 02005KT 10SM CLR 09/07 A3004 RMK AO2  T00920066,,,,,,43.82,,NNE,29.39,29.25,,Clear
KIGQ,05/16/2018 03:55 UTC,30.04,48.2,44.06,85.51,4.61,20.0,,,,,,1.0,,,,10.0,,KIGQ 160355Z AUTO 02004KT 10SM CLR 09/07 A3004 RMK AO2  T00900067,,,,,,44.01,,NNE,29.39,29.25,,Clear
KIGQ,05/16/2018 04:15 UTC,30.03,48.38,44.06,84.93,4.61,20.0,,,,,,1.0,,,,10.0,,KIGQ 160415Z AUTO 02004KT 10SM CLR 09/07 A3003 RMK AO2  T00910067,,,,,,44.01,,NNE,29.38,29.24,,Clear
KIGQ,05/16/2018 04:35 UTC,30.03,48.38,44.06,84.93,0.0,0.0,,,,,,1.0,,,,10.0,,KIGQ 160435Z AUTO 00000KT 10SM CLR 09/07 A3003 RMK AO2  T00910067,,,,,,44.01,,N,29.38,29.24,,Clear
KIGQ,05/16/2018 04:55 UTC,30.03,48.56,44.06,84.36,0.0,0.0,,,,,,1.0,,,,10.0,,KIGQ 160455Z AUTO 00000KT 10SM CLR 09/07 A3003 RMK AO2  T00920067,,,,,,44.01,,N,29.38,29.23,,Clear
KIGQ,05/16/2018 05:15 UTC,30.02,48.56,44.42,85.53,0.0,0.0,,,,,,1.0,,,,10.0,,KIGQ 160515Z AUTO 00000KT 10SM CLR 09/07 A3002 RMK AO2  T00920069,,,,,,44.37,,N,29.37,29.21,,Clear
KIGQ,05/16/2018 05:35 UTC,30.02,48.56,44.06,84.36,0.0,0.0,,,,,,1.0,,,,10.0,,KIGQ 160535Z AUTO 00000KT 10SM CLR 09/07 A3002 RMK AO2  T00920067,,,,,,44.01,,N,29.37,29.22,,Clear
KIGQ,05/16/2018 05:55 UTC,30.01,48.2,44.6,87.28,0.0,0.0,,,,,,1.0,,,,10.0,,KIGQ 160555Z AUTO 00000KT 10SM CLR 09/07 A3001 RMK AO2 T00900070  10118 20090 401850090,53.24,48.2,,65.3,48.2,44.55,,N,29.36,29.2,,Clear
KIGQ,05/16/2018 06:15 UTC,30.01,48.2,44.78,87.88,0.0,0.0,,,,,,1.0,,,,10.0,,KIGQ 160615Z AUTO 00000KT 10SM CLR 09/07 A3001 RMK AO2  T00900071,,,,,,44.74,,N,29.36,29.2,,Clear
KIGQ,05/16/2018 06:35 UTC,30.01,47.66,44.6,89.07,0.0,0.0,,,,,,1.0,,,,10.0,,KIGQ 160635Z AUTO 00000KT 10SM CLR 09/07 A3001 RMK AO2  T00870070,,,,,,44.56,,N,29.36,29.21,,Clear
KIGQ,05/16/2018 06:55 UTC,30.01,48.02,44.24,86.68,0.0,0.0,,,,,,1.0,,,,10.0,,KIGQ 160655Z AUTO 00000KT 10SM CLR 09/07 A3001 RMK AO2  T00890068,,,,,,44.19,,N,29.36,29.21,,Clear
KIGQ,05/16/2018 07:15 UTC,30.01,48.2,44.6,87.28,0.0,0.0,,,,,,1.0,,,,10.0,,KIGQ 160715Z AUTO 00000KT 10SM CLR 09/07 A3001 RMK AO2  T00900070,,,,,,44.55,,N,29.36,29.2,,Clear
KIGQ,05/16/2018 07:35 UTC,30.01,48.02,44.78,88.48,0.0,0.0,,,,,,1.0,,,,10.0,,KIGQ 160735Z AUTO 00000KT 10SM CLR 09/07 A3001 RMK AO2  T00890071,,,,,,44.74,,N,29.36,29.2,,Clear
KIGQ,05/16/2018 07:55 UTC,30.0,47.84,44.78,89.08,0.0,0.0,,,,,,1.0,,,,10.0,,KIGQ 160755Z AUTO 00000KT 10SM CLR 09/07 A3000 RMK AO2  T00880071,,,,,,44.74,,N,29.35,29.19,,Clear
KIGQ,05/16/2018 08:15 UTC,30.0,47.66,44.96,90.3,0.0,0.0,,,,,,1.0,,,,10.0,,KIGQ 160815Z AUTO 00000KT 10SM CLR 09/07 A3000 RMK AO2  T00870072,,,,,,44.93,,N,29.35,29.19,,Clear
KIGQ,05/16/2018 08:35 UTC,30.0,47.48,45.68,93.43,0.0,0.0,,,,,,1.0,,,,10.0,,KIGQ 160835Z AUTO 00000KT 10SM CLR 09/08 A3000 RMK AO2  T00860076,,,,,,45.66,,N,29.35,29.17,,Clear
KIGQ,05/16/2018 08:55 UTC,30.0,47.66,45.68,92.8,0.0,0.0,,,,,,362.0,,,,10.0,,KIGQ 160855Z AUTO 00000KT 10SM SCT036 09/08 A3000 RMK AO2  T00870076,,,,,,45.65,,N,29.35,29.17,,Partly Cloudy
KIGQ,05/16/2018 09:15 UTC,30.0,47.66,45.32,91.54,0.0,0.0,,,,,,1.0,,,,10.0,,KIGQ 160915Z AUTO 00000KT 10SM CLR 09/07 A3000 RMK AO2  T00870074,,,,,,45.29,,N,29.35,29.18,,Clear
KIGQ,05/16/2018 09:35 UTC,30.01,47.66,45.68,92.8,0.0,0.0,,,,,,1.0,,,,10.0,,KIGQ 160935Z AUTO 00000KT 10SM CLR 09/08 A3001 RMK AO2  T00870076,,,,,,45.65,,N,29.36,29.18,,Clear
KIGQ,05/16/2018 09:55 UTC,30.01,47.48,45.5,92.8,0.0,0.0,,,,,,1.0,,,,10.0,,KIGQ 160955Z AUTO 00000KT 10SM CLR 09/08 A3001 RMK AO2  T00860075,,,,,,45.48,,N,29.36,29.18,,Clear
KIGQ,05/16/2018 10:15 UTC,30.02,46.94,45.68,95.35,0.0,0.0,,,,,,1.0,,,,10.0,,KIGQ 161015Z AUTO 00000KT 10SM CLR 08/08 A3002 RMK AO2  T00830076,,,,,,45.66,,N,29.37,29.19,,Clear
KIGQ,05/16/2018 10:35 UTC,30.02,46.58,45.32,95.34,0.0,0.0,,,,,,1.0,,,,10.0,,KIGQ 161035Z AUTO 00000KT 10SM CLR 08/07 A3002 RMK AO2  T00810074,,,,,,45.3,,N,29.37,29.21,,Clear
KIGQ,05/16/2018 10:55 UTC,30.03,47.12,46.04,96.01,0.0,0.0,,,,,,1.0,,,,10.0,,KIGQ 161055Z AUTO 00000KT 10SM CLR 08/08 A3003 RMK AO2  T00840078,,,,,,46.03,,N,29.38,29.19,,Clear
KIGQ,05/16/2018 11:15 UTC,30.03,47.84,46.58,95.37,0.0,0.0,,,,,,1.0,,,,10.0,,KIGQ 161115Z AUTO 00000KT 10SM CLR 09/08 A3003 RMK AO2  T00880081,,,,,,46.56,,N,29.38,29.17,,Clear
KIGQ,05/16/2018 11:35 UTC,30.04,50.0,48.2,93.5,0.0,0.0,,,,,,1.0,,,,10.0,,KIGQ 161135Z AUTO 00000KT 10SM CLR 10/09 A3004 RMK AO2  T01000090,,,,,,48.18,,N,29.39,29.11,,Clear
KIGQ,05/16/2018 11:55 UTC,30.04,51.8,49.1,90.47,0.0,0.0,,,,,,1.0,,,,10.0,,KIGQ 161155Z AUTO 00000KT 10SM CLR 11/10 A3004 RMK AO2 T01100095  10110 20080,51.8,46.4,,,,49.07,,N,29.39,29.06,,Clear
KIGQ,05/16/2018 12:15 UTC,30.04,53.78,50.36,88.17,0.0,0.0,,,,,,1.0,,,,10.0,,KIGQ 161215Z AUTO 00000KT 10SM CLR 12/10 A3004 RMK AO2  T01210102,,,,,,50.33,,N,29.39,29.0,,Clear
KIGQ,05/16/2018 12:35 UTC,30.04,55.58,51.08,84.81,3.44,40.0,,,,,,1.0,,,,10.0,,KIGQ 161235Z AUTO 04003KT 10SM CLR 13/11 A3004 RMK AO2  T01310106,,,,,,51.04,,NE,29.39,28.95,,Clear
KIGQ,05/16/2018 12:55 UTC,30.04,57.92,52.34,81.65,3.44,70.0,,,,,,1.0,,,,10.0,,KIGQ 161255Z AUTO 07003KT 10SM CLR 14/11 A3004 RMK AO2  T01440113,,,,,,52.29,,ENE,29.39,28.88,,Clear
KIGQ,05/16/2018 13:15 UTC,30.03,60.08,53.96,80.21,5.75,40.0,,,,,,1.0,,,,10.0,,KIGQ 161315Z AUTO 04005KT 10SM CLR 16/12 A3003 RMK AO2  T01560122,,,,,,53.91,,NE,29.38,28.78,,Clear
KIGQ,05/16/2018 13:35 UTC,30.03,61.7,54.14,76.24,4.61,30.0,,,,,,1.0,,,,10.0,,KIGQ 161335Z AUTO 03004KT 10SM CLR 17/12 A3003 RMK AO2  T01650123,,,,,,54.09,,NNE,29.38,28.76,,Clear
KIGQ,05/16/2018 13:55 UTC,30.04,61.88,53.24,73.3,4.61,10.0,,,,,,1.0,,,,10.0,,KIGQ 161355Z AUTO 01004KT 10SM CLR 17/12 A3004 RMK AO2  T01660118,,,,,,53.18,,N,29.39,28.8,,Clear
KIGQ,05/16/2018 14:15 UTC,30.03,62.24,53.96,74.31,5.75,40.0,,,,,,1.0,,,,10.0,,KIGQ 161415Z AUTO 04005KT 10SM CLR 17/12 A3003 RMK AO2  T01680122,,,,,,53.9,,NE,29.38,28.76,,Clear
KIGQ,05/16/2018 14:35 UTC,30.03,62.96,54.5,73.9,8.05,20.0,,,,,,1.0,,,,10.0,,KIGQ 161435Z AUTO 02007KT 10SM CLR 17/13 A3003 RMK AO2  T01720125,,,,,,54.45,,NNE,29.38,28.73,,Clear
KIGQ,05/16/2018 14:55 UTC,30.03,63.68,54.32,71.58,5.75,40.0,,,,,,1.0,,,,10.0,,KIGQ 161455Z AUTO 04005KT 10SM CLR 18/12 A3003 RMK AO2  T01760124,,,,,,54.26,,NE,29.38,28.73,,Clear
KIGQ,05/16/2018 15:15 UTC,30.03,64.58,54.86,70.75,5.75,40.0,,,,,,1.0,,,,10.0,,KIGQ 161515Z AUTO 04005KT 10SM CLR 18/13 A3003 RMK AO2  T01810127,,,,,,54.81,,NE,29.38,28.7,,Clear
KIGQ,05/16/2018 15:35 UTC,30.03,66.2,55.76,69.1,4.61,40.0,,,,,,1.0,,,,10.0,,KIGQ 161535Z AUTO 04004KT 10SM CLR 19/13 A3003 RMK AO2  T01900132,,,,,,55.71,,NE,29.38,28.64,,Clear
KIGQ,05/16/2018 15:55 UTC,30.03,67.1,56.48,68.75,8.05,30.0,,,,,,1.0,,,,10.0,,KIGQ 161555Z AUTO 03007KT 10SM CLR 20/14 A3003 RMK AO2  T01950136,,,,,,56.43,,NNE,29.38,28.6,,Clear
KIGQ,05/16/2018 16:15 UTC,30.03,68.0,57.02,67.96,8.05,30.0,,,,,,1.0,,,,10.0,,KIGQ 161615Z AUTO 03007KT 10SM CLR 20/14 A3003 RMK AO2  T02000139,,,,,,56.97,,NNE,29.38,28.56,,Clear
KIGQ,05/16/2018 16:35 UTC,30.03,69.26,58.1,67.67,6.91,40.0,,,,,,1.0,,,,10.0,,KIGQ 161635Z AUTO 04006KT 10SM CLR 21/15 A3003 RMK AO2  T02070145,,,,,,58.06,,NE,29.38,28.49,,Clear
KIGQ,05/16/2018 16:55 UTC,30.02,69.98,58.46,66.89,6.91,50.0,,,,,,1.0,,,,10.0,,KIGQ 161655Z AUTO 05006KT 10SM CLR 21/15 A3002 RMK AO2  T02110147,,,,,,58.42,,NE,29.37,28.46,,Clear
KIGQ,05/16/2018 17:15 UTC,30.01,70.7,58.46,65.27,3.44,20.0,,,,,,1.0,,,,10.0,,KIGQ 161715Z AUTO 02003KT 10SM CLR 22/15 A3001 RMK AO2  T02150147,,,,,,58.42,,NNE,29.36,28.44,,Clear
KIGQ,05/16/2018 17:35 UTC,30.01,71.06,58.28,64.06,9.22,30.0,,,,,,1.0,,,,10.0,,KIGQ 161735Z AUTO 03008KT 10SM CLR 22/15 A3001 RMK AO2  T02170146,,,,,,58.24,,NNE,29.36,28.44,,Clear
KIGQ,05/16/2018 17:55 UTC,30.01,71.24,57.38,61.65,9.22,60.0,,,,,,1.0,,,,10.0,,KIGQ 161755Z AUTO 06008KT 10SM CLR 22/14 A3001 RMK AO2 T02180141  10218 20110,71.24,51.8,,,,57.34,,ENE,29.36,28.49,,Clear
KIGQ,05/16/2018 18:15 UTC,30.0,71.24,57.74,62.45,10.36,30.0,,,,,,1.0,,,,10.0,,KIGQ 161815Z AUTO 03009KT 10SM CLR 22/14 A3000 RMK AO2  T02180143,,,,,,57.7,,NNE,29.35,28.46,,Clear
KIGQ,05/16/2018 18:35 UTC,30.0,71.96,57.38,60.17,10.36,30.0,,,,,,1.0,,,,10.0,,KIGQ 161835Z AUTO 03009KT 10SM CLR 22/14 A3000 RMK AO2  T02220141,,,,,,57.34,,NNE,29.35,28.47,,Clear
KIGQ,05/16/2018 18:55 UTC,29.99,73.04,58.46,60.31,8.05,30.0,,,,,,1.0,,,,10.0,,KIGQ 161855Z AUTO 03007KT 10SM CLR 23/15 A2999 RMK AO2  T02280147,,,,,,58.43,,NNE,29.34,28.39,,Clear
KIGQ,05/16/2018 19:15 UTC,29.98,73.58,59.36,61.16,8.05,30.0,,,,,,1.0,,,,10.0,,KIGQ 161915Z AUTO 03007KT 10SM CLR 23/15 A2998 RMK AO2  T02310152,,,,,,59.33,,NNE,29.33,28.33,,Clear
KIGQ,05/16/2018 19:35 UTC,29.98,73.76,57.38,56.63,9.22,50.0,,,,,,1.0,,,,10.0,,KIGQ 161935Z AUTO 05008KT 10SM CLR 23/14 A2998 RMK AO2  T02320141,,,,,,57.35,,NE,29.33,28.43,,Clear
KIGQ,05/16/2018 19:55 UTC,29.98,73.4,56.84,56.21,10.36,40.0,,,,,,1.0,,,,10.0,,KIGQ 161955Z AUTO 04009KT 10SM CLR 23/14 A2998 RMK AO2  T02300138,,,,,,56.8,,NE,29.33,28.46,,Clear
KIGQ,05/16/2018 20:15 UTC,29.98,73.4,58.46,59.58,10.36,40.0,,,,,,1.0,,,,10.0,,KIGQ 162015Z AUTO 04009KT 10SM CLR 23/15 A2998 RMK AO2  T02300147,,,,,,58.43,,NE,29.33,28.38,,Clear
KIGQ,05/16/2018 20:35 UTC,29.97,73.4,57.56,57.69,9.22,10.0,,,,,,1.0,,,,10.0,,KIGQ 162035Z AUTO 01008KT 10SM CLR 23/14 A2997 RMK AO2  T02300142,,,,,,57.53,,N,29.32,28.42,,Clear
KIGQ,05/16/2018 20:55 UTC,29.97,73.4,56.48,55.49,10.36,40.0,,,,,,1.0,,,,10.0,,KIGQ 162055Z AUTO 04009KT 10SM CLR 23/14 A2997 RMK AO2  T02300136,,,,,,56.45,,NE,29.32,28.47,,Clear
KIGQ,05/16/2018 21:15 UTC,29.97,73.4,56.66,55.85,9.22,10.0,,,,,,1.0,,,,10.0,,KIGQ 162115Z AUTO 01008KT 10SM CLR 23/14 A2997 RMK AO2  T02300137,,,,,,56.63,,N,29.32,28.46,,Clear
KIGQ,05/16/2018 21:35 UTC,29.97,73.58,55.04,52.35,9.22,10.0,,,,,,1.0,,,,10.0,,KIGQ 162135Z AUTO 01008KT 10SM CLR 23/13 A2997 RMK AO2  T02310128,,,,,,55.0,,N,29.32,28.54,,Clear
KIGQ,05/16/2018 21:55 UTC,29.97,73.4,54.32,51.31,9.22,20.0,,,,,,1.0,,,,10.0,,KIGQ 162155Z AUTO 02008KT 10SM CLR 23/12 A2997 RMK AO2  T02300124,,,,,,54.28,,NNE,29.32,28.57,,Clear
KIGQ,05/16/2018 22:15 UTC,29.97,73.94,54.68,51.05,9.22,40.0,,,,,,1.0,,,,10.0,,KIGQ 162215Z AUTO 04008KT 10SM CLR 23/13 A2997 RMK AO2  T02330126,,,,,,54.65,,NE,29.32,28.55,,Clear
KIGQ,05/16/2018 22:35 UTC,29.97,73.58,54.5,51.33,6.91,30.0,,,,,,1.0,,,,10.0,,KIGQ 162235Z AUTO 03006KT 10SM CLR 23/13 A2997 RMK AO2  T02310125,,,,,,54.46,,NNE,29.32,28.56,,Clear
KIGQ,05/16/2018 22:55 UTC,29.96,73.4,53.24,49.32,9.22,30.0,,,,,,1.0,,,,10.0,,KIGQ 162255Z AUTO 03008KT 10SM CLR 23/12 A2996 RMK AO2  T02300118,,,,,,53.2,,NNE,29.31,28.61,,Clear
KIGQ,05/16/2018 23:15 UTC,29.96,72.5,53.42,51.17,6.91,50.0,,,,,,1.0,,,,10.0,,KIGQ 162315Z AUTO 05006KT 10SM CLR 23/12 A2996 RMK AO2  T02250119,,,,,,53.37,,NE,29.31,28.61,,Clear
KIGQ,05/16/2018 23:35 UTC,29.96,71.24,53.24,53.05,9.22,40.0,,,,,,1.0,,,,10.0,,KIGQ 162335Z AUTO 04008KT 10SM CLR 22/12 A2996 RMK AO2  T02180118,,,,,,53.19,,NE,29.31,28.63,,Clear
KIGQ,05/16/2018 23:55 UTC,29.96,69.8,54.68,58.71,6.91,40.0,,,,,,1.0,,,,10.0,,KIGQ 162355Z AUTO 04006KT 10SM CLR 21/13 A2996 RMK AO2 T02100126  10234 20210,74.12,69.8,,,,54.63,,NE,29.31,28.58,,Clear
KIGQ,05/17/2018 00:15 UTC,29.96,68.0,55.04,63.26,8.05,30.0,,,,,,1.0,,,,10.0,,KIGQ 170015Z AUTO 03007KT 10SM CLR 20/13 A2996 RMK AO2  T02000128,,,,,,54.98,,NNE,29.31,28.58,,Clear
KIGQ,05/17/2018 00:35 UTC,29.97,65.84,56.48,71.81,9.22,40.0,,,,,,1.0,,,,10.0,,KIGQ 170035Z AUTO 04008KT 10SM CLR 19/14 A2997 RMK AO2  T01880136,,,,,,56.43,,NE,29.32,28.55,,Clear
KIGQ,05/17/2018 00:55 UTC,29.98,64.04,55.76,74.49,8.05,40.0,,,,,,1.0,,,,10.0,,KIGQ 170055Z AUTO 04007KT 10SM CLR 18/13 A2998 RMK AO2  T01780132,,,,,,55.71,,NE,29.33,28.61,,Clear
KIGQ,05/17/2018 01:15 UTC,29.98,62.6,55.4,77.33,8.05,40.0,,,,,,1.0,,,,10.0,,KIGQ 170115Z AUTO 04007KT 10SM CLR 17/13 A2998 RMK AO2  T01700130,,,,,,55.35,,NE,29.33,28.64,,Clear
KIGQ,05/17/2018 01:35 UTC,29.98,61.34,55.4,80.84,4.61,40.0,,,,,,1.0,,,,10.0,,KIGQ 170135Z AUTO 04004KT 10SM CLR 16/13 A2998 RMK AO2  T01630130,,,,,,55.36,,NE,29.33,28.66,,Clear
KIGQ,05/17/2018 01:55 UTC,29.99,60.62,54.68,80.78,4.61,70.0,,,,,,1.0,,,,10.0,,KIGQ 170155Z AUTO 07004KT 10SM CLR 16/13 A2999 RMK AO2  T01590126,,,,,,54.63,,ENE,29.34,28.71,,Clear
KIGQ,05/17/2018 02:20 UTC,29.99,60.26,54.68,81.82,0.0,0.0,,,,,,1.0,,,,10.0,,KIGQ 170220Z AUTO 00000KT 10SM CLR 16/13 A2999 RMK AO2  T01570126,,,,,,54.64,,N,29.34,28.71,,Clear
KIGQ,05/17/2018 02:35 UTC,30.0,59.9,54.68,82.88,0.0,0.0,,,,,,1.0,,,,10.0,,KIGQ 170235Z AUTO 00000KT 10SM CLR 16/13 A3000 RMK AO2  T01550126,,,,,,54.64,,N,29.35,28.72,,Clear
KIGQ,05/17/2018 02:55 UTC,30.0,57.56,54.68,90.11,0.0,0.0,,,,,,1.0,,,,10.0,,KIGQ 170255Z AUTO 00000KT 10SM CLR 14/13 A3000 RMK AO2  T01420126,,,,,,54.66,,N,29.35,28.75,,Clear
KIGQ,05/17/2018 03:15 UTC,30.0,58.64,55.22,88.4,0.0,0.0,,,,,,1.0,,,,10.0,,KIGQ 170315Z AUTO 00000KT 10SM CLR 15/13 A3000 RMK AO2  T01480129,,,,,,55.19,,N,29.35,28.71,,Clear
KIGQ,05/17/2018 03:35 UTC,30.0,58.82,54.86,86.69,0.0,0.0,,,,,,1.0,,,,10.0,,KIGQ 170335Z AUTO 00000KT 10SM CLR 15/13 A3000 RMK AO2  T01490127,,,,,,54.83,,N,29.35,28.73,,Clear
KIGQ,05/17/2018 03:55 UTC,30.0,56.3,54.32,93.06,0.0,0.0,,,,,,1.0,,,,10.0,,KIGQ 170355Z AUTO 00000KT 10SM CLR 14/12 A3000 RMK AO2  T01350124,,,,,,54.3,,N,29.35,28.78,,Clear
KIGQ,05/17/2018 04:15 UTC,30.0,57.74,55.04,90.71,0.0,0.0,,,,,,1.0,,,,10.0,,KIGQ 170415Z AUTO 00000KT 10SM CLR 14/13 A3000 RMK AO2  T01430128,,,,,,55.02,,N,29.35,28.73,,Clear
KIGQ,05/17/2018 04:35 UTC,30.0,54.5,53.96,98.05,0.0,0.0,,,,,,1.0,,,,10.0,,KIGQ 170435Z AUTO 00000KT 10SM CLR 13/12 A3000 RMK AO2  T01250122,,,,,,53.95,,N,29.35,28.81,,Clear
KIGQ,05/17/2018 04:55 UTC,30.0,53.96,53.96,100.0,0.0,0.0,,,,,,1.0,,,,10.0,,KIGQ 170455Z AUTO 00000KT 10SM CLR 12/12 A3000 RMK AO2  T01220122,,,,,,53.96,,N,29.35,28.82,,Clear
KIGQ,05/17/2018 05:15 UTC,30.0,53.42,53.42,100.0,0.0,0.0,,,,,,1.0,,,,7.0,,KIGQ 170515Z AUTO 00000KT 7SM CLR 12/12 A3000 RMK AO2  T01190119,,,,,,53.42,,N,29.35,28.85,,Clear
KIGQ,05/17/2018 05:35 UTC,30.0,54.86,54.86,100.0,0.0,0.0,,,,,,1.0,,,,7.0,,KIGQ 170535Z AUTO 00000KT 7SM CLR 13/13 A3000 RMK AO2  T01270127,,,,,,54.86,,N,29.35,28.77,,Clear
KIGQ,05/17/2018 05:55 UTC,30.0,54.32,54.32,100.0,0.0,0.0,,,,,,1.0,,,,7.0,,KIGQ 170555Z AUTO 00000KT 7SM CLR 12/12 A3000 RMK AO2 T01240124  10210 20117 402340080,69.8,53.06,,74.12,46.4,54.32,,N,29.35,28.8,,Clear
KIGQ,05/17/2018 06:15 UTC,30.0,52.7,52.7,100.0,0.0,0.0,,,,,,1.0,,,,7.0,,KIGQ 170615Z AUTO 00000KT 7SM CLR 12/12 A3000 RMK AO2  T01150115,,,,,,52.7,,N,29.35,28.88,,Clear
KIGQ,05/17/2018 06:35 UTC,30.0,53.06,53.06,100.0,0.0,0.0,,,,,,1.0,,,,7.0,,KIGQ 170635Z AUTO 00000KT 7SM CLR 12/12 A3000 RMK AO2  T01170117,,,,,,53.06,,N,29.35,28.86,,Clear
KIGQ,05/17/2018 06:55 UTC,30.0,53.96,53.96,100.0,0.0,0.0,,,,,,1.0,,,,7.0,,KIGQ 170655Z AUTO 00000KT 7SM CLR 12/12 A3000 RMK AO2  T01220122,,,,,,53.96,,N,29.35,28.82,,Clear
KIGQ,05/17/2018 07:15 UTC,29.99,52.88,52.88,100.0,0.0,0.0,,,,,,1.0,,,,7.0,,KIGQ 170715Z AUTO 00000KT 7SM CLR 12/12 A2999 RMK AO2  T01160116,,,,,,52.88,,N,29.34,28.86,,Clear
KIGQ,05/17/2018 07:35 UTC,29.99,52.7,52.7,100.0,0.0,0.0,,31.0,,,,1.0,,,,5.0,,KIGQ 170735Z AUTO 00000KT 5SM BR CLR 12/12 A2999 RMK AO2  T01150115,,,,,,52.7,,N,29.34,28.87,,Mist
KIGQ,05/17/2018 07:55 UTC,29.99,53.78,53.78,100.0,0.0,0.0,,,,,,1.0,,,,7.0,,KIGQ 170755Z AUTO 00000KT 7SM CLR 12/12 A2999 RMK AO2  T01210121,,,,,,53.78,,N,29.34,28.82,,Clear
KIGQ,05/17/2018 08:15 UTC,29.98,53.78,53.78,100.0,0.0,0.0,,,,,,1.0,,,,10.0,,KIGQ 170815Z AUTO 00000KT 10SM CLR 12/12 A2998 RMK AO2  T01210121,,,,,,53.78,,N,29.33,28.81,,Clear
KIGQ,05/17/2018 08:35 UTC,29.98,53.6,53.6,100.0,0.0,0.0,,,,,,1.0,,,,10.0,,KIGQ 170835Z AUTO 00000KT 10SM CLR 12/12 A2998 RMK AO2  T01200120,,,,,,53.6,,N,29.33,28.82,,Clear
KIGQ,05/17/2018 08:55 UTC,29.99,52.7,52.7,100.0,0.0,0.0,,,,,,1.0,,,,7.0,,KIGQ 170855Z AUTO 00000KT 7SM CLR 12/12 A2999 RMK AO2  T01150115,,,,,,52.7,,N,29.34,28.87,,Clear
KIGQ,05/17/2018 09:15 UTC,29.99,52.16,52.16,100.0,0.0,0.0,,,,,,1.0,,,,7.0,,KIGQ 170915Z AUTO 00000KT 7SM CLR 11/11 A2999 RMK AO2  T01120112,,,,,,52.16,,N,29.34,28.9,,Clear
KIGQ,05/17/2018 09:35 UTC,29.99,51.8,51.8,100.0,0.0,0.0,,,,,,1.0,,,,10.0,,KIGQ 170935Z AUTO 00000KT 10SM CLR 11/11 A2999 RMK AO2  T01100110,,,,,,51.8,,N,29.34,28.92,,Clear
KIGQ,05/17/2018 09:55 UTC,30.0,52.16,52.16,100.0,0.0,0.0,,,,,,1.0,,,,10.0,,KIGQ 170955Z AUTO 00000KT 10SM CLR 11/11 A3000 RMK AO2  T01120112,,,,,,52.16,,N,29.35,28.91,,Clear
KIGQ,05/17/2018 10:15 UTC,30.01,52.16,52.16,100.0,0.0,0.0,,,,,,1.0,,,,10.0,,KIGQ 171015Z AUTO 00000KT 10SM CLR 11/11 A3001 RMK AO2  T01120112,,,,,,52.16,,N,29.36,28.92,,Clear
KIGQ,05/17/2018 10:35 UTC,30.01,51.98,51.98,100.0,0.0,0.0,,,,,,1.0,,,,10.0,,KIGQ 171035Z AUTO 00000KT 10SM CLR 11/11 A3001 RMK AO2  T01110111,,,,,,51.98,,N,29.36,28.93,,Clear
KIGQ,05/17/2018 10:55 UTC,30.01,52.52,52.52,100.0,0.0,0.0,,,,,,1.0,,,,10.0,,KIGQ 171055Z AUTO 00000KT 10SM CLR 11/11 A3001 RMK AO2  T01140114,,,,,,52.52,,N,29.36,28.9,,Clear
KIGQ,05/17/2018 11:15 UTC,30.02,53.06,52.34,97.39,0.0,0.0,,,,,,1.0,,,,10.0,,KIGQ 171115Z AUTO 00000KT 10SM CLR 12/11 A3002 RMK AO2  T01170113,,,,,,52.33,,N,29.37,28.91,,Clear
KIGQ,05/17/2018 11:35 UTC,30.02,54.14,54.14,100.0,0.0,0.0,,,,,,1.0,,,,10.0,,KIGQ 171135Z AUTO 00000KT 10SM CLR 12/12 A3002 RMK AO2  T01230123,,,,,,54.14,,N,29.37,28.83,,Clear
KIGQ,05/17/2018 11:55 UTC,30.02,55.04,54.86,99.35,0.0,0.0,,,,,,1.0,,,,10.0,,KIGQ 171155Z AUTO 00000KT 10SM CLR 13/13 A3002 RMK AO2 T01280127  10130 20109,55.4,51.62,,,,54.86,,N,29.37,28.79,,Clear
KIGQ,05/17/2018 12:15 UTC,30.03,57.56,57.56,100.0,0.0,0.0,,,,,,1.0,,,,10.0,,KIGQ 171215Z AUTO 00000KT 10SM CLR 14/14 A3003 RMK AO2  T01420142,,,,,,57.56,,N,29.38,28.65,,Clear
KIGQ,05/17/2018 12:35 UTC,30.03,59.18,58.64,98.09,0.0,0.0,,,,,,1.0,,,,10.0,,KIGQ 171235Z AUTO 00000KT 10SM CLR 15/15 A3003 RMK AO2 LTG DSNT SW  T01510148,,,,,,58.64,,N,29.38,28.58,,Clear
KIGQ,05/17/2018 12:55 UTC,30.03,62.78,57.74,83.61,0.0,0.0,,,,,,1.0,,,,10.0,,KIGQ 171255Z AUTO 00000KT 10SM CLR 17/14 A3003 RMK AO2  T01710143,,,,,,57.71,,N,29.38,28.58,,Clear
KIGQ,05/17/2018 13:15 UTC,30.04,65.12,57.92,77.54,0.0,0.0,,,,,,1.0,,,,10.0,,KIGQ 171315Z AUTO 00000KT 10SM CLR 18/14 A3004 RMK AO2  T01840144,,,,,,57.88,,N,29.39,28.56,,Clear
KIGQ,05/17/2018 13:35 UTC,30.04,66.56,57.02,71.42,0.0,0.0,,,,,,1.0,,,,10.0,,KIGQ 171335Z AUTO 00000KT 10SM CLR 19/14 A3004 RMK AO2  T01920139,,,,,,56.97,,N,29.39,28.59,,Clear
KIGQ,05/17/2018 13:55 UTC,30.04,68.9,58.28,68.95,4.61,40.0,,,,,,1.0,,,,7.0,,KIGQ 171355Z AUTO 04004KT 7SM CLR 21/15 A3004 RMK AO2  T02050146,,,,,,58.24,,NE,29.39,28.5,,Clear
KIGQ,05/17/2018 14:15 UTC,30.05,68.9,57.38,66.76,5.75,40.0,,,,,,1.0,,,,10.0,,KIGQ 171415Z AUTO 04005KT 10SM CLR 21/14 A3005 RMK AO2  T02050141,,,,,,57.33,,NE,29.4,28.55,,Clear
KIGQ,05/17/2018 14:35 UTC,30.05,68.72,57.02,66.31,3.44,30.0,,,,,,1.0,,,,10.0,,KIGQ 171435Z AUTO 03003KT 10SM CLR 20/14 A3005 RMK AO2  T02040139,,,,,,56.97,,NNE,29.4,28.57,,Clear
KIGQ,05/17/2018 14:55 UTC,30.06,68.18,55.58,64.12,8.05,10.0,,,,,,1.0,,,,10.0,,KIGQ 171455Z AUTO 01007KT 10SM CLR 20/13 A3006 RMK AO2  T02010131,,,,,,55.53,,N,29.41,28.66,,Clear
KIGQ,05/17/2018 15:15 UTC,30.06,68.72,55.04,61.72,6.91,20.0,,,,,,1.0,,,,10.0,,KIGQ 171515Z AUTO 02006KT 10SM CLR 20/13 A3006 RMK AO2  T02040128,,,,,,54.98,,NNE,29.41,28.68,,Clear
KIGQ,05/17/2018 15:35 UTC,30.07,67.1,56.48,68.75,9.22,10.0,,,,,,1.0,,,,10.0,,KIGQ 171535Z AUTO 01008KT 10SM CLR 20/14 A3007 RMK AO2  T01950136,,,,,,56.43,,N,29.42,28.64,,Clear
KIGQ,05/17/2018 15:55 UTC,30.08,63.32,54.14,72.02,5.75,20.0,,,,,,1.0,,,,10.0,,KIGQ 171555Z AUTO 02005KT 10SM CLR 17/12 A3008 RMK AO2  T01740123,,,,,,54.08,,NNE,29.43,28.79,,Clear
KIGQ,05/17/2018 16:15 UTC,30.08,62.6,54.14,73.86,9.22,40.0,,,,,,1.0,,,,10.0,,KIGQ 171615Z AUTO 04008KT 10SM CLR 17/12 A3008 RMK AO2  T01700123,,,,,,54.08,,NE,29.43,28.8,,Clear
KIGQ,05/17/2018 16:35 UTC,30.07,62.96,53.06,70.11,9.22,40.0,,,,,,1.0,,,,10.0,,KIGQ 171635Z AUTO 04008KT 10SM CLR 17/12 A3007 RMK AO2  T01720117,,,,,,53.0,,NE,29.42,28.83,,Clear
KIGQ,05/17/2018 16:55 UTC,30.07,62.78,53.24,71.02,9.22,20.0,,,,,,1.0,,,,10.0,,KIGQ 171655Z AUTO 02008KT 10SM CLR 17/12 A3007 RMK AO2  T01710118,,,,,,53.18,,NNE,29.42,28.83,,Clear
KIGQ,05/17/2018 17:15 UTC,30.07,62.6,53.06,71.0,10.36,50.0,,,,,,1.0,,,,10.0,,KIGQ 171715Z AUTO 05009KT 10SM CLR 17/12 A3007 RMK AO2  T01700117,,,,,,53.0,,NE,29.42,28.84,,Clear
KIGQ,05/17/2018 17:35 UTC,30.07,62.6,52.52,69.61,10.36,30.0,,,,,,1.0,,,,10.0,,KIGQ 171735Z AUTO 03009KT 10SM CLR 17/11 A3007 RMK AO2  T01700114,,,,,,52.46,,NNE,29.42,28.86,,Clear
KIGQ,05/17/2018 17:55 UTC,30.07,63.14,52.88,69.21,3.44,10.0,,,,,,1.0,,,,10.0,,KIGQ 171755Z AUTO 01003KT 10SM CLR 17/12 A3007 RMK AO2 T01730116  10210 20128,69.8,55.04,,,,52.82,,N,29.42,28.84,,Clear
KIGQ,05/17/2018 18:15 UTC,30.06,62.6,52.34,69.15,4.61,40.0,,,,,,1.0,,,,10.0,,KIGQ 171815Z AUTO 04004KT 10SM CLR 17/11 A3006 RMK AO2  T01700113,,,,,,52.27,,NE,29.41,28.85,,Clear
KIGQ,05/17/2018 18:35 UTC,30.07,62.96,52.52,68.73,8.05,40.0,,,,,,1.0,,,,10.0,,KIGQ 171835Z AUTO 04007KT 10SM CLR 17/11 A3007 RMK AO2  T01720114,,,,,,52.45,,NE,29.42,28.85,,Clear
KIGQ,05/17/2018 18:55 UTC,30.06,62.42,51.8,68.22,11.5,360.0,,,,,,1.0,,,,10.0,,KIGQ 171855Z AUTO 36010KT 10SM CLR 17/11 A3006 RMK AO2  T01690110,,,,,,51.73,,N,29.41,28.88,,Clear
KIGQ,05/17/2018 19:15 UTC,30.06,60.62,51.44,71.73,12.66,20.0,,,,,,1.0,,,,10.0,,KIGQ 171915Z AUTO 02011KT 10SM CLR 16/11 A3006 RMK AO2  T01590108,,,,,,51.37,,NNE,29.41,28.91,,Clear
KIGQ,05/17/2018 19:35 UTC,30.06,60.44,51.8,73.16,11.5,30.0,17.27,,,,,1.0,,,,10.0,,KIGQ 171935Z AUTO 03010G15KT 10SM CLR 16/11 A3006 RMK AO2  T01580110,,,,,,51.74,,NNE,29.41,28.9,,Clear
KIGQ,05/17/2018 19:55 UTC,30.05,59.9,51.26,73.1,13.8,30.0,17.27,,,,,1.0,,,,10.0,,KIGQ 171955Z AUTO 03012G15KT 10SM CLR 16/11 A3005 RMK AO2  T01550107,,,,,,51.19,,NNE,29.4,28.91,,Clear
KIGQ,05/17/2018 20:15 UTC,30.06,58.28,49.46,72.45,13.8,30.0,,,,,,1.0,,,,10.0,,KIGQ 172015Z AUTO 03012KT 10SM CLR 15/10 A3006 RMK AO2  T01460097,,,,,,49.39,,NNE,29.41,29.01,,Clear
KIGQ,05/17/2018 20:35 UTC,30.06,56.84,49.1,75.28,12.66,30.0,,,,,,1.0,,,,10.0,,KIGQ 172035Z AUTO 03011KT 10SM CLR 14/10 A3006 RMK AO2  T01380095,,,,,,49.03,,NNE,29.41,29.03,,Clear
KIGQ,05/17/2018 20:55 UTC,30.06,56.84,49.1,75.28,14.97,20.0,,,,,,1.0,,,,10.0,,KIGQ 172055Z AUTO 02013KT 10SM CLR 14/10 A3006 RMK AO2  T01380095,,,,,,49.03,,NNE,29.41,29.03,,Clear
KIGQ,05/17/2018 21:15 UTC,30.05,57.02,49.46,75.81,13.8,30.0,17.27,,,,,1.0,,,,10.0,,KIGQ 172115Z AUTO 03012G15KT 10SM CLR 14/10 A3005 RMK AO2  T01390097,,,,,,49.39,,NNE,29.4,29.01,,Clear
KIGQ,05/17/2018 21:35 UTC,30.06,55.22,48.2,77.19,11.5,30.0,17.27,,,,,1.0,,,,10.0,,KIGQ 172135Z AUTO 03010G15KT 10SM CLR 13/09 A3006 RMK AO2  T01290090,,,,,,48.13,,NNE,29.41,29.08,,Clear
KIGQ,05/17/2018 21:55 UTC,30.06,55.58,48.74,77.74,12.66,30.0,17.27,,,,,1.0,,,,10.0,,KIGQ 172155Z AUTO 03011G15KT 10SM CLR 13/09 A3006 RMK AO2  T01310093,,,,,,48.68,,NNE,29.41,29.06,,Clear
KIGQ,05/17/2018 22:15 UTC,30.06,54.68,48.02,78.19,12.66,40.0,16.11,,,,,1.0,,,,10.0,,KIGQ 172215Z AUTO 04011G14KT 10SM CLR 13/09 A3006 RMK AO2  T01260089,,,,,,47.96,,NE,29.41,29.09,,Clear
KIGQ,05/17/2018 22:35 UTC,30.05,54.86,47.66,76.63,10.36,40.0,,,,,,1.0,,,,10.0,,KIGQ 172235Z AUTO 04009KT 10SM CLR 13/09 A3005 RMK AO2  T01270087,,,,,,47.59,,NE,29.4,29.09,,Clear
KIGQ,05/17/2018 22:55 UTC,30.05,53.6,46.94,78.09,12.66,10.0,,,,,,1.0,,,,10.0,,KIGQ 172255Z AUTO 01011KT 10SM CLR 12/08 A3005 RMK AO2  T01200083,,,,,,46.87,,N,29.4,29.12,,Clear
KIGQ,05/17/2018 23:15 UTC,30.06,52.88,46.58,79.1,11.5,40.0,,,,,,1.0,,,,10.0,,KIGQ 172315Z AUTO 04010KT 10SM CLR 12/08 A3006 RMK AO2  T01160081,,,,,,46.51,,NE,29.41,29.15,,Clear
KIGQ,05/17/2018 23:35 UTC,30.06,51.8,46.04,80.64,14.97,20.0,,,,,,1.0,,,,10.0,,KIGQ 172335Z AUTO 02013KT 10SM CLR 11/08 A3006 RMK AO2  T01100078,,,,,,45.98,,NNE,29.41,29.18,,Clear
KIGQ,05/17/2018 23:55 UTC,30.07,50.54,45.5,82.78,6.91,20.0,,,,,,1.0,,,,10.0,,KIGQ 172355Z AUTO 02006KT 10SM CLR 10/08 A3007 RMK AO2 T01030075  10173 20103,63.14,50.54,,,,45.44,,NNE,29.42,29.22,,Clear
KIGQ,05/18/2018 00:15 UTC,30.07,49.64,45.5,85.59,9.22,10.0,,,,,,1.0,,,,10.0,,KIGQ 180015Z AUTO 01008KT 10SM CLR 10/08 A3007 RMK AO2  T00980075,,,,,,45.45,,N,29.42,29.23,,Clear
KIGQ,05/18/2018 00:35 UTC,30.07,48.74,45.14,87.31,8.05,20.0,,,,,,1.0,,,,10.0,,KIGQ 180035Z AUTO 02007KT 10SM CLR 09/07 A3007 RMK AO2  T00930073,,,,,,45.1,,NNE,29.42,29.24,,Clear
KIGQ,05/18/2018 00:55 UTC,30.08,48.2,44.96,88.49,5.75,10.0,,,,,,1.0,,,,10.0,,KIGQ 180055Z AUTO 01005KT 10SM CLR 09/07 A3008 RMK AO2  T00900072,,,,,,44.92,,N,29.43,29.26,,Clear
KIGQ,05/18/2018 01:15 UTC,30.08,48.2,44.78,87.88,6.91,360.0,,,,,,1.0,,,,10.0,,KIGQ 180115Z AUTO 36006KT 10SM CLR 09/07 A3008 RMK AO2  T00900071,,,,,,44.74,,N,29.43,29.27,,Clear
KIGQ,05/18/2018 01:35 UTC,30.08,47.84,44.6,88.47,6.91,20.0,,,,,,1.0,,,,10.0,,KIGQ 180135Z AUTO 02006KT 10SM CLR 09/07 A3008 RMK AO2  T00880070,,,,,,44.56,,NNE,29.43,29.28,,Clear
KIGQ,05/18/2018 01:55 UTC,30.08,47.84,44.96,89.69,5.75,10.0,,,,,,1.0,,,,10.0,,KIGQ 180155Z AUTO 01005KT 10SM CLR 09/07 A3008 RMK AO2  T00880072,,,,,,44.92,,N,29.43,29.27,,Clear
KIGQ,05/18/2018 02:15 UTC,30.07,48.2,44.96,88.49,10.36,20.0,,,,,,1.0,,,,10.0,,KIGQ 180215Z AUTO 02009KT 10SM CLR 09/07 A3007 RMK AO2  T00900072,,,,,,44.92,,NNE,29.42,29.25,,Clear
KIGQ,05/18/2018 02:35 UTC,30.08,48.2,45.14,89.1,5.75,30.0,,,,,,1.0,,,,10.0,,KIGQ 180235Z AUTO 03005KT 10SM CLR 09/07 A3008 RMK AO2  T00900073,,,,,,45.1,,NNE,29.43,29.26,,Clear
KIGQ,05/18/2018 02:55 UTC,30.08,48.38,45.5,89.71,4.61,30.0,,,,,,1.0,,,,10.0,,KIGQ 180255Z AUTO 03004KT 10SM CLR 09/08 A3008 RMK AO2  T00910075,,,,,,45.46,,NNE,29.43,29.25,,Clear
KIGQ,05/18/2018 03:15 UTC,30.08,48.56,45.68,89.72,4.61,20.0,,,,,,1.0,,,,10.0,,KIGQ 180315Z AUTO 02004KT 10SM CLR 09/08 A3008 RMK AO2  T00920076,,,,,,45.64,,NNE,29.43,29.24,,Clear
KIGQ,05/18/2018 03:35 UTC,30.08,48.56,45.5,89.11,5.75,20.0,,,,,,1.0,,,,10.0,,KIGQ 180335Z AUTO 02005KT 10SM CLR 09/08 A3008 RMK AO2  T00920075,,,,,,45.46,,NNE,29.43,29.25,,Clear
KIGQ,05/18/2018 03:55 UTC,30.07,48.56,45.86,90.34,4.61,30.0,,,,,,1.0,,,,10.0,,KIGQ 180355Z AUTO 03004KT 10SM CLR 09/08 A3007 RMK AO2  T00920077,,,,,,45.83,,NNE,29.42,29.22,,Clear
KIGQ,05/18/2018 04:15 UTC,30.06,48.56,45.5,89.11,6.91,30.0,,,,,,1.0,,,,10.0,,KIGQ 180415Z AUTO 03006KT 10SM CLR 09/08 A3006 RMK AO2  T00920075,,,,,,45.46,,NNE,29.41,29.22,,Clear
KIGQ,05/18/2018 04:35 UTC,30.06,48.56,45.86,90.34,3.44,40.0,,,,,,1.0,,,,10.0,,KIGQ 180435Z AUTO 04003KT 10SM CLR 09/08 A3006 RMK AO2  T00920077,,,,,,45.83,,NE,29.41,29.21,,Clear
KIGQ,05/18/2018 04:55 UTC,30.07,48.38,46.4,92.82,0.0,0.0,,,,,,1.0,,,,10.0,,KIGQ 180455Z AUTO 00000KT 10SM CLR 09/08 A3007 RMK AO2  T00910080,,,,,,46.37,,N,29.42,29.21,,Clear
KIGQ,05/18/2018 05:15 UTC,30.07,48.38,46.58,93.46,0.0,0.0,,,,,,1.0,,,,10.0,,KIGQ 180515Z AUTO 00000KT 10SM CLR 09/08 A3007 RMK AO2  T00910081,,,,,,46.56,,N,29.42,29.2,,Clear
KIGQ,05/18/2018 05:35 UTC,30.07,48.38,46.76,94.09,0.0,0.0,,,,,,1.0,,,,10.0,,KIGQ 180535Z AUTO 00000KT 10SM CLR 09/08 A3007 RMK AO2  T00910082,,,,,,46.74,,N,29.42,29.2,,Clear
KIGQ,05/18/2018 05:55 UTC,30.07,48.74,47.3,94.74,0.0,0.0,,,,,,1.0,,,,10.0,,KIGQ 180555Z AUTO 00000KT 10SM CLR 09/09 A3007 RMK AO2 T00930085  10103 20087 402100087,50.54,47.66,,69.8,47.66,47.28,,N,29.42,29.18,,Clear
KIGQ,05/18/2018 06:15 UTC,30.06,49.1,47.66,94.75,0.0,0.0,,,,,,1.0,,,,10.0,,KIGQ 180615Z AUTO 00000KT 10SM CLR 10/09 A3006 RMK AO2  T00950087,,,,,,47.64,,N,29.41,29.15,,Clear
KIGQ,05/18/2018 06:35 UTC,30.05,49.1,47.66,94.75,0.0,0.0,,,,,,1.0,,,,10.0,,KIGQ 180635Z AUTO 00000KT 10SM CLR 10/09 A3005 RMK AO2  T00950087,,,,,,47.64,,N,29.4,29.14,,Clear
KIGQ,05/18/2018 06:55 UTC,30.05,49.1,47.84,95.39,0.0,0.0,,,,,,1.0,,,,10.0,,KIGQ 180655Z AUTO 00000KT 10SM CLR 10/09 A3005 RMK AO2  T00950088,,,,,,47.82,,N,29.4,29.14,,Clear
KIGQ,05/18/2018 07:15 UTC,30.05,49.28,48.2,96.04,0.0,0.0,,,,,,1.0,,,,10.0,,KIGQ 180715Z AUTO 00000KT 10SM CLR 10/09 A3005 RMK AO2  T00960090,,,,,,48.19,,N,29.4,29.13,,Clear
KIGQ,05/18/2018 07:35 UTC,30.05,49.64,48.74,96.7,0.0,0.0,,,,,,1.0,,,,10.0,,KIGQ 180735Z AUTO 00000KT 10SM CLR 10/09 A3005 RMK AO2  T00980093,,,,,,48.73,,N,29.4,29.1,,Clear
KIGQ,05/18/2018 07:55 UTC,30.05,50.18,49.28,96.71,0.0,0.0,,,,,,1.0,,,,10.0,,KIGQ 180755Z AUTO 00000KT 10SM CLR 10/10 A3005 RMK AO2  T01010096,,,,,,49.27,,N,29.4,29.08,,Clear
KIGQ,05/18/2018 08:15 UTC,30.04,50.18,49.46,97.36,0.0,0.0,,,,,,1.0,,,,10.0,,KIGQ 180815Z AUTO 00000KT 10SM CLR 10/10 A3004 RMK AO2  T01010097,,,,,,49.45,,N,29.39,29.07,,Clear
KIGQ,05/18/2018 08:35 UTC,30.04,50.0,49.64,98.67,0.0,0.0,,,,,,1.0,,,,10.0,,KIGQ 180835Z AUTO 00000KT 10SM CLR 10/10 A3004 RMK AO2  T01000098,,,,,,49.64,,N,29.39,29.06,,Clear
KIGQ,05/18/2018 08:55 UTC,30.05,50.9,50.18,97.37,0.0,0.0,,,,,,1.0,,,,10.0,,KIGQ 180855Z AUTO 00000KT 10SM CLR 11/10 A3005 RMK AO2  T01050101,,,,,,50.17,,N,29.4,29.04,,Clear
KIGQ,05/18/2018 09:15 UTC,30.05,50.9,50.36,98.02,0.0,0.0,,,,,,1.0,,,,10.0,,KIGQ 180915Z AUTO 00000KT 10SM CLR 11/10 A3005 RMK AO2  T01050102,,,,,,50.35,,N,29.4,29.04,,Clear
KIGQ,05/18/2018 09:35 UTC,30.05,51.44,50.9,98.02,5.75,20.0,,,,,,1.0,,,,10.0,,KIGQ 180935Z AUTO 02005KT 10SM CLR 11/11 A3005 RMK AO2  T01080105,,,,,,50.89,,NNE,29.4,29.01,,Clear
KIGQ,05/18/2018 09:55 UTC,30.05,51.8,50.9,96.73,0.0,0.0,,,,,,1.0,,,,10.0,,KIGQ 180955Z AUTO 00000KT 10SM CLR 11/11 A3005 RMK AO2  T01100105,,,,,,50.89,,N,29.4,29.01,,Clear
KIGQ,05/18/2018 10:15 UTC,30.06,51.8,51.08,97.38,0.0,0.0,,,,,,1.0,,,,10.0,,KIGQ 181015Z AUTO 00000KT 10SM CLR 11/11 A3006 RMK AO2  T01100106,,,,,,51.07,,N,29.41,29.01,,Clear
KIGQ,05/18/2018 10:35 UTC,30.05,52.16,51.44,97.38,3.44,30.0,,,,,,1.0,,,,10.0,,KIGQ 181035Z AUTO 03003KT 10SM CLR 11/11 A3005 RMK AO2  T01120108,,,,,,51.43,,NNE,29.4,28.99,,Clear
KIGQ,05/18/2018 10:55 UTC,30.05,52.52,51.26,95.46,3.44,40.0,,,,,,1.0,,,,10.0,,KIGQ 181055Z AUTO 04003KT 10SM CLR 11/11 A3005 RMK AO2  T01140107,,,,,,51.25,,NE,29.4,28.99,,Clear
KIGQ,05/18/2018 11:15 UTC,30.05,52.7,50.9,93.58,3.44,30.0,,,,,,1.0,,,,10.0,,KIGQ 181115Z AUTO 03003KT 10SM CLR 12/11 A3005 RMK AO2  T01150105,,,,,,50.88,,NNE,29.4,29.0,,Clear
KIGQ,05/18/2018 11:35 UTC,30.06,54.14,51.26,89.96,5.75,10.0,,,,,,1.0,,,,10.0,,KIGQ 181135Z AUTO 01005KT 10SM CLR 12/11 A3006 RMK AO2  T01230107,,,,,,51.23,,N,29.41,28.98,,Clear
KIGQ,05/18/2018 11:55 UTC,30.06,56.12,51.8,85.41,4.61,20.0,,,,,,1.0,,,,10.0,,KIGQ 181155Z AUTO 02004KT 10SM CLR 13/11 A3006 RMK AO2 T01340110  10134 20093,56.12,48.74,,,,51.76,,NNE,29.41,28.94,,Clear
KIGQ,05/18/2018 12:15 UTC,30.07,57.38,52.16,82.7,5.75,20.0,,,,,,1.0,,,,10.0,,KIGQ 181215Z AUTO 02005KT 10SM CLR 14/11 A3007 RMK AO2  T01410112,,,,,,52.11,,NNE,29.42,28.92,,Clear
KIGQ,05/18/2018 12:35 UTC,30.07,58.28,51.98,79.54,6.91,30.0,,,,,,1.0,,,,10.0,,KIGQ 181235Z AUTO 03006KT 10SM CLR 15/11 A3007 RMK AO2  T01460111,,,,,,51.93,,NNE,29.42,28.92,,Clear
KIGQ,05/18/2018 12:55 UTC,30.06,60.08,51.62,73.61,9.22,40.0,,,,,,1.0,,,,10.0,,KIGQ 181255Z AUTO 04008KT 10SM CLR 16/11 A3006 RMK AO2  T01560109,,,,,,51.56,,NE,29.41,28.91,,Clear
KIGQ,05/18/2018 13:15 UTC,30.06,60.44,51.98,73.65,8.05,30.0,,,,,,1.0,,,,10.0,,KIGQ 181315Z AUTO 03007KT 10SM CLR 16/11 A3006 RMK AO2  T01580111,,,,,,51.92,,NNE,29.41,28.89,,Clear
KIGQ,05/18/2018 13:35 UTC,30.06,59.9,51.8,74.58,8.05,30.0,,,,,,1.0,,,,10.0,,KIGQ 181335Z AUTO 03007KT 10SM CLR 16/11 A3006 RMK AO2  T01550110,,,,,,51.74,,NNE,29.41,28.9,,Clear
KIGQ,05/18/2018 13:55 UTC,30.05,61.16,52.34,72.75,9.22,30.0,,,,,,1.0,,,,10.0,,KIGQ 181355Z AUTO 03008KT 10SM CLR 16/11 A3005 RMK AO2  T01620113,,,,,,52.28,,NNE,29.4,28.86,,Clear
KIGQ,05/18/2018 14:15 UTC,30.05,61.7,52.52,71.85,6.91,50.0,,,,,,1.0,,,,10.0,,KIGQ 181415Z AUTO 05006KT 10SM CLR 17/11 A3005 RMK AO2  T01650114,,,,,,52.46,,NE,29.4,28.85,,Clear
KIGQ,05/18/2018 14:35 UTC,30.04,62.96,53.42,71.04,8.05,30.0,,,,,,1.0,,,,10.0,,KIGQ 181435Z AUTO 03007KT 10SM CLR 17/12 A3004 RMK AO2  T01720119,,,,,,53.36,,NNE,29.39,28.79,,Clear
KIGQ,05/18/2018 14:55 UTC,30.04,63.68,53.96,70.65,6.91,30.0,,,,,,1.0,,,,10.0,,KIGQ 181455Z AUTO 03006KT 10SM CLR 18/12 A3004 RMK AO2  T01760122,,,,,,53.9,,NNE,29.39,28.76,,Clear
KIGQ,05/18/2018 15:15 UTC,30.03,64.22,54.14,69.79,9.22,30.0,,,,,,1.0,,,,10.0,,KIGQ 181515Z AUTO 03008KT 10SM CLR 18/12 A3003 RMK AO2  T01790123,,,,,,54.08,,NNE,29.38,28.73,,Clear
KIGQ,05/18/2018 15:35 UTC,30.03,65.48,55.22,69.47,8.05,40.0,,,,,,1.0,,,,10.0,,KIGQ 181535Z AUTO 04007KT 10SM CLR 19/13 A3003 RMK AO2  T01860129,,,,,,55.16,,NE,29.38,28.67,,Clear
KIGQ,05/18/2018 15:55 UTC,30.03,65.66,54.5,67.25,10.36,20.0,,,,,,1.0,,,,10.0,,KIGQ 181555Z AUTO 02009KT 10SM CLR 19/13 A3003 RMK AO2  T01870125,,,,,,54.44,,NNE,29.38,28.7,,Clear
KIGQ,05/18/2018 16:15 UTC,30.04,61.52,52.34,71.83,10.36,10.0,,,,,,1.0,,,,10.0,,KIGQ 181615Z AUTO 01009KT 10SM CLR 16/11 A3004 RMK AO2  T01640113,,,,,,52.28,,N,29.39,28.84,,Clear
KIGQ,05/18/2018 16:35 UTC,30.04,62.96,53.6,71.51,9.22,20.0,,,,,,1.0,,,,10.0,,KIGQ 181635Z AUTO 02008KT 10SM CLR 17/12 A3004 RMK AO2  T01720120,,,,,,53.54,,NNE,29.39,28.78,,Clear
KIGQ,05/18/2018 16:55 UTC,30.04,62.78,53.24,71.02,10.36,10.0,,,,,,1.0,,,,10.0,,KIGQ 181655Z AUTO 01009KT 10SM CLR 17/12 A3004 RMK AO2  T01710118,,,,,,53.18,,N,29.39,28.8,,Clear
KIGQ,05/18/2018 17:15 UTC,30.03,61.7,52.7,72.32,9.22,30.0,,,,,,1202.0,,,,10.0,,KIGQ 181715Z AUTO 03008KT 10SM SCT120 17/12 A3003 RMK AO2  T01650115,,,,,,52.64,,NNE,29.38,28.82,,Partly Cloudy
KIGQ,05/18/2018 17:35 UTC,30.03,61.34,52.88,73.74,10.36,30.0,,,,,,1203.0,,,,10.0,,KIGQ 181735Z AUTO 03009KT 10SM BKN120 16/12 A3003 RMK AO2  T01630116,,,12000.0,,,52.82,,NNE,29.38,28.81,,Mostly Cloudy
KIGQ,05/18/2018 17:55 UTC,30.03,61.7,52.7,72.32,10.36,20.0,,,,,,1103.0,,,,10.0,,KIGQ 181755Z AUTO 02009KT 10SM BKN110 17/12 A3003 RMK AO2  T01650115 10194 20135,66.92,56.3,11000.0,,,52.64,,NNE,29.38,28.82,,Mostly Cloudy
KIGQ,05/18/2018 18:15 UTC,30.03,57.38,51.26,80.0,10.36,20.0,,13.0,1004.0,,,472.0,653.0,,,10.0,,KIGQ 181815Z AUTO 02009KT 10SM -RA SCT047 BKN065 OVC100 14/11  A3003 RMK AO2 T01410107,,,6500.0,,,51.21,,NNE,29.38,28.92,,Light Rain
KIGQ,05/18/2018 18:35 UTC,30.02,55.94,50.54,82.05,11.5,30.0,19.57,13.0,,,,552.0,654.0,,,10.0,,KIGQ 181835Z AUTO 03010G17KT 10SM -RA SCT055 OVC065 13/10 A3002 RMK AO2 T01330103,,,6500.0,,,50.49,,NNE,29.37,28.95,,Light Rain
KIGQ,05/18/2018 18:55 UTC,30.01,54.68,50.36,85.32,10.36,20.0,,13.0,,,,754.0,,,,10.0,,KIGQ 181855Z AUTO 02009KT 10SM -RA OVC075 13/10 A3001 RMK AO2  T01260102,,,7500.0,,,50.32,,NNE,29.36,28.96,,Light Rain
KIGQ,05/18/2018 19:15 UTC,30.01,54.32,50.72,87.61,3.44,40.0,,13.0,954.0,,,282.0,753.0,,,10.0,,KIGQ 181915Z AUTO 04003KT 10SM -RA SCT028 BKN075 OVC095 12/10  A3001 RMK AO2 T01240104,,,7500.0,,,50.68,,NE,29.36,28.95,,Light Rain
KIGQ,05/18/2018 19:35 UTC,30.01,54.14,51.44,90.56,4.61,30.0,,1.0,954.0,,,272.0,502.0,,,7.0,,KIGQ 181935Z AUTO 03004KT 7SM RA SCT027 SCT050 OVC095 12/11 A3001 RMK AO2 T01230108,,,9500.0,,,51.41,,NNE,29.36,28.92,,Rain
KIGQ,05/18/2018 19:55 UTC,30.0,54.68,52.16,91.19,5.75,10.0,,,954.0,,,492.0,603.0,,,10.0,,KIGQ 181955Z AUTO 01005KT 10SM SCT049 BKN060 OVC095 13/11 A3000 RMK AO2 T01260112,,,6000.0,,,52.14,,N,29.35,28.88,,Overcast
KIGQ,05/18/2018 20:15 UTC,29.99,54.5,51.8,90.58,9.22,30.0,,,,,,493.0,604.0,,,10.0,,KIGQ 182015Z AUTO 03008KT 10SM BKN049 OVC060 13/11 A2999 RMK AO2  T01250110,,,4900.0,,,51.77,,NNE,29.34,28.89,,Overcast
KIGQ,05/18/2018 20:35 UTC,29.99,55.04,51.08,86.49,5.75,10.0,,,,,,494.0,,,,10.0,,KIGQ 182035Z AUTO 01005KT 10SM OVC049 13/11 A2999 RMK AO2  T01280106,,,4900.0,,,51.04,,N,29.34,28.91,,Overcast
KIGQ,05/18/2018 20:55 UTC,29.97,56.12,51.26,83.72,8.05,20.0,,,,,,474.0,,,,10.0,,KIGQ 182055Z AUTO 02007KT 10SM OVC047 13/11 A2997 RMK AO2  T01340107,,,4700.0,,,51.21,,NNE,29.32,28.87,,Overcast
KIGQ,05/18/2018 21:15 UTC,29.98,55.22,50.36,83.66,6.91,20.0,,,,,,373.0,454.0,,,10.0,,KIGQ 182115Z AUTO 02006KT 10SM BKN037 OVC045 13/10 A2998 RMK AO2  T01290102,,,3700.0,,,50.31,,NNE,29.33,28.92,,Overcast
KIGQ,05/18/2018 21:35 UTC,29.98,55.04,49.64,81.99,6.91,10.0,,,,,,354.0,,,,10.0,,KIGQ 182135Z AUTO 01006KT 10SM OVC035 13/10 A2998 RMK AO2  T01280098,,,3500.0,,,49.59,,N,29.33,28.95,,Overcast
KIGQ,05/18/2018 21:55 UTC,29.97,55.22,49.82,82.0,4.61,10.0,,,,,,334.0,,,,10.0,,KIGQ 182155Z AUTO 01004KT 10SM OVC033 13/10 A2997 RMK AO2  T01290099,,,3300.0,,,49.77,,N,29.32,28.93,,Overcast
KIGQ,05/18/2018 22:15 UTC,29.97,54.5,49.28,82.5,5.75,10.0,,,,,,294.0,,,,10.0,,KIGQ 182215Z AUTO 01005KT 10SM OVC029 13/10 A2997 RMK AO2  T01250096,,,2900.0,,,49.23,,N,29.32,28.96,,Overcast
KIGQ,05/18/2018 22:35 UTC,29.97,54.14,49.28,83.59,5.75,30.0,,,,,,233.0,284.0,,,10.0,,KIGQ 182235Z AUTO 03005KT 10SM BKN023 OVC028 12/10 A2997 RMK AO2  T01230096,,,2300.0,,,49.23,,NNE,29.32,28.96,,Overcast
KIGQ,05/18/2018 22:55 UTC,29.97,53.96,49.46,84.71,5.75,10.0,,13.0,,,,194.0,,,,10.0,,KIGQ 182255Z AUTO 01005KT 10SM -RA OVC019 12/10 A2997 RMK AO2  T01220097,,,1900.0,,,49.42,,N,29.32,28.96,,Light Rain
KIGQ,05/18/2018 23:15 UTC,29.96,53.78,50.0,87.0,4.61,20.0,,13.0,,,,174.0,,,,10.0,,KIGQ 182315Z AUTO 02004KT 10SM -RA OVC017 12/10 A2996 RMK AO2  T01210100,,,1700.0,,,49.96,,NNE,29.31,28.93,,Light Rain
KIGQ,05/18/2018 23:35 UTC,29.96,53.6,49.82,86.99,4.61,10.0,,,,,,154.0,,,,10.0,,KIGQ 182335Z AUTO 01004KT 10SM OVC015 12/10 A2996 RMK AO2  T01200099,,,1500.0,,,49.78,,N,29.31,28.94,,Overcast
KIGQ,05/18/2018 23:55 UTC,29.96,53.6,50.0,87.57,3.44,20.0,,,,,,154.0,,,,10.0,,KIGQ 182355Z AUTO 02003KT 10SM OVC015 12/10 A2996 RMK AO2  T01200100 10163 20119,61.34,53.42,1500.0,,,49.96,,NNE,29.31,28.93,,Overcast
KIGQ,05/19/2018 00:15 UTC,29.96,53.96,50.9,89.36,3.44,10.0,,,,,,134.0,,,,10.0,,KIGQ 190015Z AUTO 01003KT 10SM OVC013 12/11 A2996 RMK AO2  T01220105,,,1300.0,,,50.87,,N,29.31,28.89,,Overcast
KIGQ,05/19/2018 00:35 UTC,29.96,54.5,52.34,92.4,0.0,0.0,,13.0,,,,134.0,,,,10.0,,KIGQ 190035Z AUTO 00000KT 10SM -RA OVC013 13/11 A2996 RMK AO2  T01250113,,,1300.0,,,52.32,,N,29.31,28.84,,Light Rain
KIGQ,05/19/2018 00:55 UTC,29.96,55.22,53.42,93.65,0.0,0.0,,2.0,,,,134.0,,,,10.0,,KIGQ 190055Z AUTO 00000KT 10SM DZ OVC013 13/12 A2996 RMK AO2  T01290119,,,1300.0,,,53.4,,N,29.31,28.79,,Drizzle
KIGQ,05/19/2018 01:15 UTC,29.95,55.22,53.96,95.52,3.44,30.0,,13.0,,,,134.0,,,,10.0,,KIGQ 190115Z AUTO 03003KT 10SM -RA OVC013 13/12 A2995 RMK AO2  T01290122,,,1300.0,,,53.95,,NNE,29.3,28.75,,Light Rain
KIGQ,05/19/2018 01:35 UTC,29.94,55.58,55.04,98.06,3.44,30.0,,,,,,114.0,,,,7.0,,KIGQ 190135Z AUTO 03003KT 7SM OVC011 13/13 A2994 RMK AO2  T01310128,,,1100.0,,,55.04,,NNE,29.29,28.7,,Overcast
KIGQ,05/19/2018 01:55 UTC,29.94,55.94,55.58,98.7,3.44,30.0,,,,,,114.0,,,,7.0,,KIGQ 190155Z AUTO 03003KT 7SM OVC011 13/13 A2994 RMK AO2  T01330131,,,1100.0,,,55.58,,NNE,29.29,28.67,,Overcast
KIGQ,05/19/2018 02:15 UTC,29.94,56.66,56.3,98.71,3.44,60.0,,,,,,134.0,,,,7.0,,KIGQ 190215Z AUTO 06003KT 7SM OVC013 14/14 A2994 RMK AO2  T01370135,,,1300.0,,,56.3,,ENE,29.29,28.63,,Overcast
KIGQ,05/19/2018 02:35 UTC,29.94,57.56,57.2,98.71,4.61,70.0,,31.0,,,,154.0,,,,4.0,,KIGQ 190235Z AUTO 07004KT 4SM BR OVC015 14/14 A2994 RMK AO2  T01420140,,,1500.0,,,57.2,,ENE,29.29,28.58,,Mist
KIGQ,05/19/2018 02:55 UTC,29.94,57.74,57.74,100.0,5.75,60.0,,31.0,,,,134.0,,,,5.0,,KIGQ 190255Z AUTO 06005KT 5SM BR OVC013 14/14 A2994 RMK AO2  T01430143,,,1300.0,,,57.74,,ENE,29.29,28.55,,Mist
KIGQ,05/19/2018 03:15 UTC,29.94,58.1,58.1,100.0,4.61,90.0,,17.0,,,,134.0,,,,7.0,,KIGQ 190315Z AUTO 09004KT 7SM -DZ OVC013 15/15 A2994 RMK AO2  T01450145,,,1300.0,,,58.1,,E,29.29,28.53,,Light Drizzle
KIGQ,05/19/2018 03:35 UTC,29.93,59.0,58.64,98.72,4.61,90.0,,17.0,,,,134.0,,,,10.0,,KIGQ 190335Z AUTO 09004KT 10SM -DZ OVC013 15/15 A2993 RMK AO2  T01500148,,,1300.0,,,58.64,,E,29.28,28.48,,Light Drizzle
KIGQ,05/19/2018 03:55 UTC,29.93,59.0,58.46,98.09,4.61,100.0,,,,,,154.0,,,,10.0,,KIGQ 190355Z AUTO 10004KT 10SM OVC015 15/15 A2993 RMK AO2  T01500147,,,1500.0,,,58.46,,E,29.28,28.49,,Overcast
KIGQ,05/19/2018 04:15 UTC,29.92,59.18,58.1,96.21,9.22,100.0,,,,,,134.0,,,,10.0,,KIGQ 190415Z AUTO 10008KT 10SM OVC013 15/15 A2992 RMK AO2  T01510145,,,1300.0,,,58.09,,E,29.27,28.5,,Overcast
KIGQ,05/19/2018 04:35 UTC,29.92,59.0,58.1,96.83,4.61,80.0,,13.0,,,,114.0,,,,10.0,,KIGQ 190435Z AUTO 08004KT 10SM -RA OVC011 15/15 A2992 RMK AO2  T01500145,,,1100.0,,,58.09,,E,29.27,28.5,,Light Rain
KIGQ,05/19/2018 04:55 UTC,29.92,58.46,58.28,99.36,4.61,90.0,,,,,,114.0,,,,10.0,,KIGQ 190455Z AUTO 09004KT 10SM OVC011 15/15 A2992 RMK AO2  T01470146,,,1100.0,,,58.28,,E,29.27,28.5,,Overcast
KIGQ,05/19/2018 05:15 UTC,29.91,58.46,58.46,100.0,4.61,90.0,,,,,,114.0,,,,10.0,,KIGQ 190515Z AUTO 09004KT 10SM OVC011 15/15 A2991 RMK AO2  T01470147,,,1100.0,,,58.46,,E,29.26,28.48,,Overcast
KIGQ,05/19/2018 05:35 UTC,29.91,58.1,58.1,100.0,4.61,70.0,,13.0,,,,94.0,,,,10.0,,KIGQ 190535Z AUTO 07004KT 10SM -RA OVC009 15/15 A2991 RMK AO2  T01450145,,,900.0,,,58.1,,ENE,29.26,28.5,,Light Rain
KIGQ,05/19/2018 05:55 UTC,29.9,58.1,58.1,100.0,4.61,60.0,,13.0,,,,94.0,,,,10.0,,KIGQ 190555Z AUTO 06004KT 10SM -RA OVC009 15/15 A2990 RMK AO2 LTG  DSNT S T01450145 10151 20120 401940093,59.18,53.6,900.0,66.92,48.74,58.1,,ENE,29.25,28.49,,Light Rain
KIGQ,05/19/2018 06:15 UTC,29.89,58.1,58.1,100.0,4.61,80.0,,1.0,,,,94.0,,,,7.0,,KIGQ 190615Z AUTO 08004KT 7SM RA OVC009 15/15 A2989 RMK AO2 LTG  DSNT S T01450145,,,900.0,,,58.1,,E,29.24,28.48,,Rain
KIGQ,05/19/2018 06:35 UTC,29.88,57.92,57.92,100.0,3.44,90.0,,1.0,,,,94.0,,,,7.0,,KIGQ 190635Z AUTO 09003KT 7SM RA OVC009 14/14 A2988 RMK AO2  T01440144,,,900.0,,,57.92,,E,29.23,28.48,,Rain
KIGQ,05/19/2018 06:55 UTC,29.88,57.74,57.74,100.0,0.0,0.0,,13.0,,,,74.0,,,,7.0,,KIGQ 190655Z AUTO 00000KT 7SM -RA OVC007 14/14 A2988 RMK AO2  T01430143,,,700.0,,,57.74,,N,29.23,28.49,,Light Rain
KIGQ,05/19/2018 07:15 UTC,29.87,57.56,57.56,100.0,0.0,0.0,,1.0,,,,74.0,,,,7.0,,KIGQ 190715Z AUTO 00000KT 7SM RA OVC007 14/14 A2987 RMK AO2  T01420142,,,700.0,,,57.56,,N,29.22,28.49,,Rain
KIGQ,05/19/2018 07:35 UTC,29.86,57.38,57.38,100.0,0.0,0.0,,13.0,,,,74.0,,,,7.0,,KIGQ 190735Z AUTO 00000KT 7SM -RA OVC007 14/14 A2986 RMK AO2  T01410141,,,700.0,,,57.38,,N,29.21,28.49,,Light Rain
KIGQ,05/19/2018 07:55 UTC,29.86,57.56,57.56,100.0,0.0,0.0,,13.0,,,,74.0,,,,7.0,,KIGQ 190755Z AUTO 00000KT 7SM -RA OVC007 14/14 A2986 RMK AO2  T01420142,,,700.0,,,57.56,,N,29.21,28.48,,Light Rain
KIGQ,05/19/2018 08:15 UTC,29.86,57.74,57.74,100.0,0.0,0.0,,,,,,74.0,,,,7.0,,KIGQ 190815Z AUTO 00000KT 7SM OVC007 14/14 A2986 RMK AO2  T01430143,,,700.0,,,57.74,,N,29.21,28.47,,Overcast
KIGQ,05/19/2018 08:35 UTC,29.87,57.74,57.74,100.0,0.0,0.0,,,,,,74.0,,,,7.0,,KIGQ 190835Z AUTO 00000KT 7SM OVC007 14/14 A2987 RMK AO2  T01430143,,,700.0,,,57.74,,N,29.22,28.48,,Overcast
KIGQ,05/19/2018 08:55 UTC,29.87,57.92,57.92,100.0,0.0,0.0,,,,,,74.0,,,,10.0,,KIGQ 190855Z AUTO 00000KT 10SM OVC007 14/14 A2987 RMK AO2  T01440144,,,700.0,,,57.92,,N,29.22,28.47,,Overcast
KIGQ,05/19/2018 09:15 UTC,29.87,58.1,58.1,100.0,0.0,0.0,,13.0,,,,54.0,,,,7.0,,KIGQ 190915Z AUTO 00000KT 7SM -RA OVC005 15/15 A2987 RMK AO2  T01450145,,,500.0,,,58.1,,N,29.22,28.46,,Light Rain
KIGQ,05/19/2018 09:35 UTC,29.88,58.1,58.1,100.0,0.0,0.0,,1.0,,,,54.0,,,,5.0,,KIGQ 190935Z AUTO 00000KT 5SM RA OVC005 15/15 A2988 RMK AO2  T01450145,,,500.0,,,58.1,,N,29.23,28.47,,Rain
KIGQ,05/19/2018 09:55 UTC,29.87,58.1,58.1,100.0,0.0,0.0,,1.0,,,,54.0,,,,5.0,,KIGQ 190955Z AUTO 00000KT 5SM RA OVC005 15/15 A2987 RMK AO2  T01450145,,,500.0,,,58.1,,N,29.22,28.46,,Rain
KIGQ,05/19/2018 10:15 UTC,29.86,58.1,58.1,100.0,0.0,0.0,,1.0,,,,54.0,,,,5.0,,KIGQ 191015Z AUTO 00000KT 5SM RA OVC005 15/15 A2986 RMK AO2  T01450145,,,500.0,,,58.1,,N,29.21,28.45,,Rain
KIGQ,05/19/2018 10:35 UTC,29.87,57.92,57.92,100.0,0.0,0.0,,1.0,,,,54.0,,,,5.0,,KIGQ 191035Z AUTO 00000KT 5SM RA OVC005 14/14 A2987 RMK AO2  T01440144,,,500.0,,,57.92,,N,29.22,28.47,,Rain
KIGQ,05/19/2018 10:55 UTC,29.87,58.1,58.1,100.0,0.0,0.0,,13.0,,,,63.0,104.0,,,3.0,,KIGQ 191055Z AUTO 00000KT 3SM -RA BKN006 OVC010 15/15 A2987 RMK AO2 T01450145,,,600.0,,,58.1,,N,29.22,28.46,,Light Rain
KIGQ,05/19/2018 11:15 UTC,29.87,58.1,58.1,100.0,0.0,0.0,,17.0,,,,64.0,,,,3.0,,KIGQ 191115Z AUTO 00000KT 3SM -DZ OVC006 15/15 A2987 RMK AO2  T01450145,,,600.0,,,58.1,,N,29.22,28.46,,Light Drizzle
KIGQ,05/19/2018 11:35 UTC,29.88,58.1,58.1,100.0,0.0,0.0,,13.0,,,,64.0,,,,4.0,,KIGQ 191135Z AUTO 00000KT 4SM -RA OVC006 15/15 A2988 RMK AO2  T01450145,,,600.0,,,58.1,,N,29.23,28.47,,Light Rain
KIGQ,05/19/2018 11:55 UTC,29.88,57.38,57.38,100.0,0.0,0.0,,13.0,,,,34.0,,,,1.75,,KIGQ 191155Z AUTO 00000KT 1 3/4SM -RA OVC003 14/14 A2988 RMK AO2  T01410141 10145 20141,58.1,57.38,300.0,,,57.38,,N,29.23,28.51,,Light Rain
KIGQ,05/19/2018 12:15 UTC,29.88,57.02,57.02,100.0,0.0,0.0,,13.0,,,,34.0,,,,1.75,,KIGQ 191215Z AUTO 00000KT 1 3/4SM -RA OVC003 14/14 A2988 RMK AO2  T01390139,,,300.0,,,57.02,,N,29.23,28.53,,Light Rain
KIGQ,05/19/2018 12:35 UTC,29.89,57.2,57.2,100.0,0.0,0.0,,13.0,,,,34.0,,,,2.0,,KIGQ 191235Z AUTO 00000KT 2SM -RA OVC003 14/14 A2989 RMK AO2 LTG  DSNT SW T01400140,,,300.0,,,57.2,,N,29.24,28.53,,Light Rain
KIGQ,05/19/2018 12:55 UTC,29.89,57.2,57.2,100.0,0.0,0.0,,17.0,,,,34.0,,,,2.0,,KIGQ 191255Z AUTO 00000KT 2SM -DZ OVC003 14/14 A2989 RMK AO2  T01400140,,,300.0,,,57.2,,N,29.24,28.53,,Light Drizzle
KIGQ,05/19/2018 13:15 UTC,29.89,57.38,57.38,100.0,0.0,0.0,,1.0,,,,34.0,,,,1.75,,KIGQ 191315Z AUTO 00000KT 1 3/4SM RA OVC003 14/14 A2989 RMK AO2  T01410141,,,300.0,,,57.38,,N,29.24,28.52,,Rain
KIGQ,05/19/2018 13:35 UTC,29.88,58.1,58.1,100.0,0.0,0.0,,13.0,,,,34.0,,,,2.0,,KIGQ 191335Z AUTO 00000KT 2SM -RA OVC003 15/15 A2988 RMK AO2  T01450145,,,300.0,,,58.1,,N,29.23,28.47,,Light Rain
KIGQ,05/19/2018 13:55 UTC,29.88,58.1,58.1,100.0,0.0,0.0,,17.0,,,,34.0,,,,2.5,,KIGQ 191355Z AUTO 00000KT 2 1/2SM -DZ OVC003 15/15 A2988 RMK AO2  T01450145,,,300.0,,,58.1,,N,29.23,28.47,,Light Drizzle
KIGQ,05/19/2018 14:15 UTC,29.88,58.28,58.28,100.0,0.0,0.0,,31.0,,,,34.0,,,,2.5,,KIGQ 191415Z AUTO 00000KT 2 1/2SM BR OVC003 15/15 A2988 RMK AO2  T01460146,,,300.0,,,58.28,,N,29.23,28.46,,Mist
KIGQ,05/19/2018 14:35 UTC,29.88,59.0,59.0,100.0,0.0,0.0,,13.0,,,,34.0,,,,2.5,,KIGQ 191435Z AUTO 00000KT 2 1/2SM -RA OVC003 15/15 A2988 RMK AO2  T01500150,,,300.0,,,59.0,,N,29.23,28.41,,Light Rain
KIGQ,05/19/2018 14:55 UTC,29.88,59.54,59.54,100.0,0.0,0.0,,31.0,,,,34.0,,,,2.5,,KIGQ 191455Z AUTO 00000KT 2 1/2SM BR OVC003 15/15 A2988 RMK AO2  T01530153,,,300.0,,,59.54,,N,29.23,28.38,,Mist
KIGQ,05/19/2018 15:15 UTC,29.87,60.44,60.44,100.0,0.0,0.0,,31.0,,,,54.0,,,,2.5,,KIGQ 191515Z AUTO 00000KT 2 1/2SM BR OVC005 16/16 A2987 RMK AO2  T01580158,,,500.0,,,60.44,,N,29.22,28.31,,Mist
KIGQ,05/19/2018 15:35 UTC,29.88,61.7,61.7,100.0,0.0,0.0,,31.0,,,,54.0,,,,3.0,,KIGQ 191535Z AUTO 00000KT 3SM BR OVC005 17/17 A2988 RMK AO2  T01650165,,,500.0,,,61.7,,N,29.23,28.24,,Mist
KIGQ,05/19/2018 15:55 UTC,29.88,62.6,62.42,99.37,0.0,0.0,,31.0,,,,54.0,,,,3.0,,KIGQ 191555Z AUTO 00000KT 3SM BR OVC005 17/17 A2988 RMK AO2  T01700169,,,500.0,,,62.42,,N,29.23,28.19,,Mist
KIGQ,05/19/2018 16:15 UTC,29.89,64.58,63.68,96.91,3.44,230.0,,31.0,,,,74.0,,,,4.0,,KIGQ 191615Z AUTO 23003KT 4SM BR OVC007 18/18 A2989 RMK AO2  T01810176,,,700.0,,,63.68,,SW,29.24,28.1,,Mist
KIGQ,05/19/2018 16:35 UTC,29.89,65.3,63.86,95.11,5.75,260.0,,,,,,104.0,,,,7.0,,KIGQ 191635Z AUTO 26005KT 7SM OVC010 19/18 A2989 RMK AO2  T01850177,,,1000.0,,,63.85,,W,29.24,28.08,,Overcast
KIGQ,05/19/2018 16:55 UTC,29.89,66.02,64.04,93.34,6.91,270.0,,,,,,124.0,,,,7.0,,KIGQ 191655Z AUTO 27006KT 7SM OVC012 19/18 A2989 RMK AO2  T01890178,,,1200.0,,,64.03,,W,29.24,28.06,,Overcast
KIGQ,05/19/2018 17:15 UTC,29.89,66.2,63.68,91.6,9.22,290.0,,,,,,124.0,,,,7.0,,KIGQ 191715Z AUTO 29008KT 7SM OVC012 19/18 A2989 RMK AO2  T01900176,,,1200.0,,,63.67,,WNW,29.24,28.08,,Overcast
KIGQ,05/19/2018 17:35 UTC,29.9,67.28,64.22,89.93,11.5,270.0,,,,,,124.0,,,,7.0,,KIGQ 191735Z AUTO 27010KT 7SM OVC012 20/18 A2990 RMK AO2  T01960179,,,1200.0,,,64.2,,W,29.25,28.05,,Overcast
KIGQ,05/19/2018 17:55 UTC,29.9,67.1,64.04,89.93,6.91,270.0,,31.0,,,,144.0,,,,5.0,,KIGQ 191755Z AUTO 27006KT 5SM BR OVC014 20/18 A2990 RMK AO2  T01950178 10196 20138,67.28,56.84,1400.0,,,64.03,,W,29.25,28.06,,Mist
KIGQ,05/19/2018 18:15 UTC,29.9,67.1,63.68,88.8,9.22,270.0,,31.0,,,,164.0,,,,5.0,,KIGQ 191815Z AUTO 27008KT 5SM BR OVC016 20/18 A2990 RMK AO2  T01950176,,,1600.0,,,63.66,,W,29.25,28.08,,Mist
KIGQ,05/19/2018 18:35 UTC,29.9,68.0,63.86,86.64,6.91,270.0,,,,,,162.0,244.0,,,7.0,,KIGQ 191835Z AUTO 27006KT 7SM SCT016 OVC024 20/18 A2990 RMK AO2  T02000177,,,2400.0,,,63.84,,W,29.25,28.06,,Overcast
KIGQ,05/19/2018 18:55 UTC,29.89,67.1,63.5,88.24,8.05,280.0,,,344.0,,,162.0,263.0,,,7.0,,KIGQ 191855Z AUTO 28007KT 7SM SCT016 BKN026 OVC034 20/18 A2989 RMK AO2 T01950175,,,2600.0,,,63.48,,W,29.24,28.08,,Overcast
KIGQ,05/19/2018 19:15 UTC,29.89,66.38,63.32,89.9,5.75,300.0,,,,,,232.0,294.0,,,7.0,,KIGQ 191915Z AUTO 30005KT 7SM SCT023 OVC029 19/17 A2989 RMK AO2  T01910174,,,2900.0,,,63.31,,WNW,29.24,28.1,,Overcast
KIGQ,05/19/2018 19:35 UTC,29.89,66.2,62.96,89.32,4.61,310.0,,31.0,,,,194.0,,,,5.0,,KIGQ 191935Z AUTO 31004KT 5SM BR OVC019 19/17 A2989 RMK AO2  T01900172,,,1900.0,,,62.94,,NW,29.24,28.12,,Mist
KIGQ,05/19/2018 19:55 UTC,29.89,68.0,63.68,86.09,0.0,0.0,,31.0,414.0,,,193.0,243.0,,,5.0,,KIGQ 191955Z AUTO 00000KT 5SM BR BKN019 BKN024 OVC041 20/18 A2989 RMK AO2 T02000176,,,1900.0,,,63.66,,N,29.24,28.06,,Mist
KIGQ,05/19/2018 20:15 UTC,29.9,67.82,63.5,86.08,4.61,280.0,,,414.0,,,183.0,243.0,,,7.0,,KIGQ 192015Z AUTO 28004KT 7SM BKN018 BKN024 OVC041 20/18 A2990 RMK AO2 T01990175,,,1800.0,,,63.48,,W,29.25,28.08,,Overcast
KIGQ,05/19/2018 20:35 UTC,29.89,68.72,64.04,85.06,5.75,320.0,,,,,,203.0,264.0,,,7.0,,KIGQ 192035Z AUTO 32005KT 7SM BKN020 OVC026 20/18 A2989 RMK AO2  T02040178,,,2000.0,,,64.02,,NW,29.24,28.03,,Overcast
KIGQ,05/19/2018 20:55 UTC,29.89,68.9,64.22,85.07,4.61,300.0,,,,,,203.0,264.0,,,7.0,,KIGQ 192055Z AUTO 30004KT 7SM BKN020 OVC026 21/18 A2989 RMK AO2  T02050179,,,2000.0,,,64.2,,WNW,29.24,28.01,,Overcast
KIGQ,05/19/2018 21:15 UTC,29.89,65.48,60.8,84.86,4.61,20.0,,6.0,,,,223.0,284.0,,,5.0,,KIGQ 192115Z AUTO 02004KT 5SM HZ BKN022 OVC028 19/16 A2989 RMK AO2  T01860160,,,2200.0,,,60.77,,NNE,29.24,28.25,,Haze
KIGQ,05/19/2018 21:35 UTC,29.9,65.48,60.44,83.79,5.75,40.0,,6.0,,,,263.0,384.0,,,5.0,,KIGQ 192135Z AUTO 04005KT 5SM HZ BKN026 OVC038 19/16 A2990 RMK AO2  T01860158,,,2600.0,,,60.41,,NE,29.25,28.28,,Haze
KIGQ,05/19/2018 21:55 UTC,29.9,65.48,59.9,82.19,5.75,30.0,,6.0,413.0,,,242.0,292.0,,,5.0,,KIGQ 192155Z AUTO 03005KT 5SM HZ SCT024 SCT029 BKN041 19/16 A2990 RMK AO2 T01860155,,,4100.0,,,59.87,,NNE,29.25,28.31,,Haze
KIGQ,05/19/2018 22:15 UTC,29.89,66.02,60.26,81.71,5.75,30.0,,6.0,,,,412.0,,,,5.0,,KIGQ 192215Z AUTO 03005KT 5SM HZ SCT041 19/16 A2989 RMK AO2  T01890157,,,,,,60.23,,NNE,29.24,28.28,,Haze
KIGQ,05/19/2018 22:35 UTC,29.9,65.66,59.9,81.68,4.61,40.0,,6.0,,,,402.0,,,,5.0,,KIGQ 192235Z AUTO 04004KT 5SM HZ SCT040 19/16 A2990 RMK AO2  T01870155,,,,,,59.87,,NE,29.25,28.31,,Haze
KIGQ,05/19/2018 22:55 UTC,29.9,65.3,59.54,81.66,3.44,30.0,,6.0,,,,292.0,363.0,,,4.0,,KIGQ 192255Z AUTO 03003KT 4SM HZ SCT029 BKN036 19/15 A2990 RMK AO2  T01850153,,,3600.0,,,59.51,,NNE,29.25,28.33,,Haze
KIGQ,05/19/2018 23:15 UTC,29.91,64.4,59.18,83.18,4.61,30.0,,,,,,343.0,,,,7.0,,KIGQ 192315Z AUTO 03004KT 7SM BKN034 18/15 A2991 RMK AO2  T01800151,,,3400.0,,,59.15,,NNE,29.26,28.37,,Mostly Cloudy
KIGQ,05/19/2018 23:35 UTC,29.91,63.68,58.46,83.13,5.75,30.0,,,,,,343.0,,,,7.0,,KIGQ 192335Z AUTO 03005KT 7SM BKN034 18/15 A2991 RMK AO2  T01760147,,,3400.0,,,58.43,,NNE,29.26,28.42,,Mostly Cloudy
KIGQ,05/19/2018 23:55 UTC,29.91,62.6,58.28,85.79,5.75,30.0,,,,,,303.0,,,,7.0,,KIGQ 192355Z AUTO 03005KT 7SM BKN030 17/15 A2991 RMK AO2 T01700146  10207 20170,69.26,62.6,3000.0,,,58.25,,NNE,29.26,28.44,,Mostly Cloudy
KIGQ,05/20/2018 00:15 UTC,29.92,61.7,58.1,87.98,0.0,0.0,,31.0,,,,304.0,,,,5.0,,KIGQ 200015Z AUTO 00000KT 5SM BR OVC030 17/15 A2992 RMK AO2  T01650145,,,3000.0,,,58.07,,N,29.27,28.47,,Mist
KIGQ,05/20/2018 00:35 UTC,29.93,60.08,57.56,91.39,5.75,30.0,,31.0,,,,283.0,,,,4.0,,KIGQ 200035Z AUTO 03005KT 4SM BR BKN028 16/14 A2993 RMK AO2  T01560142,,,2800.0,,,57.54,,NNE,29.28,28.52,,Mist
KIGQ,05/20/2018 00:55 UTC,29.94,58.46,57.2,95.58,8.05,40.0,,31.0,,,,284.0,,,,3.0,,KIGQ 200055Z AUTO 04007KT 3SM BR OVC028 15/14 A2994 RMK AO2  T01470140,,,2800.0,,,57.19,,NE,29.29,28.57,,Mist
KIGQ,05/20/2018 01:15 UTC,29.94,58.1,57.2,96.82,5.75,50.0,,31.0,,,,264.0,,,,4.0,,KIGQ 200115Z AUTO 05005KT 4SM BR OVC026 15/14 A2994 RMK AO2  T01450140,,,2600.0,,,57.19,,NE,29.29,28.57,,Mist
KIGQ,05/20/2018 01:35 UTC,29.95,58.46,57.92,98.08,0.0,0.0,,31.0,,,,264.0,,,,5.0,,KIGQ 200135Z AUTO 00000KT 5SM BR OVC026 15/14 A2995 RMK AO2  T01470144,,,2600.0,,,57.91,,N,29.3,28.54,,Mist
KIGQ,05/20/2018 01:55 UTC,29.96,59.0,58.28,97.46,0.0,0.0,,31.0,,,,264.0,,,,5.0,,KIGQ 200155Z AUTO 00000KT 5SM BR OVC026 15/15 A2996 RMK AO2  T01500146,,,2600.0,,,58.27,,N,29.31,28.53,,Mist
KIGQ,05/20/2018 02:15 UTC,29.97,59.36,58.46,96.84,0.0,0.0,,31.0,,,,244.0,,,,5.0,,KIGQ 200215Z AUTO 00000KT 5SM BR OVC024 15/15 A2997 RMK AO2  T01520147,,,2400.0,,,58.45,,N,29.32,28.53,,Mist
KIGQ,05/20/2018 02:35 UTC,29.99,59.9,59.0,96.84,3.44,20.0,,31.0,,,,244.0,,,,5.0,,KIGQ 200235Z AUTO 02003KT 5SM BR OVC024 16/15 A2999 RMK AO2  T01550150,,,2400.0,,,58.99,,NNE,29.34,28.52,,Mist
KIGQ,05/20/2018 02:55 UTC,30.0,59.9,59.0,96.84,0.0,0.0,,31.0,,,,244.0,,,,5.0,,KIGQ 200255Z AUTO 00000KT 5SM BR OVC024 16/15 A3000 RMK AO2  T01550150,,,2400.0,,,58.99,,N,29.35,28.53,,Mist
KIGQ,05/20/2018 03:15 UTC,30.0,59.54,59.0,98.09,0.0,0.0,,31.0,,,,243.0,1203.0,,,5.0,,KIGQ 200315Z AUTO 00000KT 5SM BR BKN024 BKN120 15/15 A3000 RMK AO2  T01530150,,,2400.0,,,58.99,,N,29.35,28.53,,Mist
KIGQ,05/20/2018 03:35 UTC,30.0,59.36,58.82,98.09,0.0,0.0,,31.0,,,,1202.0,,,,5.0,,KIGQ 200335Z AUTO 00000KT 5SM BR SCT120 15/15 A3000 RMK AO2  T01520149,,,,,,58.82,,N,29.35,28.54,,Mist
KIGQ,05/20/2018 03:55 UTC,30.0,59.36,58.82,98.09,0.0,0.0,,31.0,,,,1203.0,,,,5.0,,KIGQ 200355Z AUTO 00000KT 5SM BR BKN120 15/15 A3000 RMK AO2  T01520149,,,12000.0,,,58.82,,N,29.35,28.54,,Mist
KIGQ,05/20/2018 04:15 UTC,30.01,59.54,58.82,97.46,4.61,20.0,,31.0,,,,1203.0,,,,5.0,,KIGQ 200415Z AUTO 02004KT 5SM BR BKN120 15/15 A3001 RMK AO2 LTG  DSNT W T01530149,,,12000.0,,,58.81,,NNE,29.36,28.55,,Mist
KIGQ,05/20/2018 04:35 UTC,30.01,59.54,58.82,97.46,4.61,40.0,,,,,,1203.0,,,,7.0,,KIGQ 200435Z AUTO 04004KT 7SM BKN120 15/15 A3001 RMK AO2  T01530149,,,12000.0,,,58.81,,NE,29.36,28.55,,Mostly Cloudy
KIGQ,05/20/2018 04:55 UTC,29.99,59.72,58.82,96.84,6.91,40.0,,,,,,1203.0,,,,7.0,,KIGQ 200455Z AUTO 04006KT 7SM BKN120 15/15 A2999 RMK AO2  T01540149,,,12000.0,,,58.81,,NE,29.34,28.53,,Mostly Cloudy
KIGQ,05/20/2018 05:15 UTC,30.0,59.18,58.82,98.72,3.44,50.0,,31.0,,,,1202.0,,,,5.0,,KIGQ 200515Z AUTO 05003KT 5SM BR SCT120 15/15 A3000 RMK AO2  T01510149,,,,,,58.82,,NE,29.35,28.54,,Mist
KIGQ,05/20/2018 05:35 UTC,30.01,59.0,59.0,100.0,0.0,0.0,,31.0,,,,1203.0,,,,5.0,,KIGQ 200535Z AUTO 00000KT 5SM BR BKN120 15/15 A3001 RMK AO2  T01500150,,,12000.0,,,59.0,,N,29.36,28.55,,Mist
KIGQ,05/20/2018 05:55 UTC,30.02,58.46,58.46,100.0,3.44,140.0,,31.0,,,,1203.0,,,,5.0,,KIGQ 200555Z AUTO 14003KT 5SM BR BKN120 15/15 A3002 RMK AO2  T01470147 10170 20145 402070138,62.6,58.1,12000.0,69.26,56.84,58.46,,SE,29.37,28.59,,Mist
KIGQ,05/20/2018 06:15 UTC,30.03,58.1,58.1,100.0,9.22,40.0,,31.0,,,,82.0,1202.0,,,5.0,,KIGQ 200615Z AUTO 04008KT 5SM BR SCT008 SCT120 15/15 A3003 RMK AO2  T01450145,,,,,,58.1,,NE,29.38,28.62,,Mist
KIGQ,05/20/2018 06:35 UTC,30.05,57.38,56.84,98.07,10.36,40.0,17.27,31.0,,,,103.0,,,,5.0,,KIGQ 200635Z AUTO 04009G15KT 5SM BR BKN010 14/14 A3005 RMK AO2  T01410138,,,1000.0,,,56.83,,NE,29.4,28.71,,Mist
KIGQ,05/20/2018 06:55 UTC,30.05,55.76,55.4,98.7,14.97,40.0,19.57,31.0,,,,93.0,134.0,,,5.0,,KIGQ 200655Z AUTO 04013G17KT 5SM BR BKN009 OVC013 13/13 A3005 RMK AO2 T01320130,,,900.0,,,55.4,,NE,29.4,28.79,,Mist
KIGQ,05/20/2018 07:15 UTC,30.05,52.16,52.16,100.0,10.36,30.0,17.27,31.0,,,,34.0,,,,2.0,,KIGQ 200715Z AUTO 03009G15KT 2SM BR OVC003 11/11 A3005 RMK AO2  T01120112,,,300.0,,,52.16,,NNE,29.4,28.96,,Mist
KIGQ,05/20/2018 07:35 UTC,30.06,50.54,50.54,100.0,9.22,30.0,,17.0,,,,34.0,,,,1.5,,KIGQ 200735Z AUTO 03008KT 1 1/2SM -DZ OVC003 10/10 A3006 RMK AO2  T01030103,,,300.0,,,50.54,,NNE,29.41,29.04,,Light Drizzle
KIGQ,05/20/2018 07:55 UTC,30.06,50.0,50.0,100.0,10.36,40.0,,31.0,,,,34.0,,,,5.0,,KIGQ 200755Z AUTO 04009KT 5SM BR OVC003 10/10 A3006 RMK AO2  T01000100,,,300.0,,,50.0,,NE,29.41,29.07,,Mist
KIGQ,05/20/2018 08:15 UTC,30.06,49.1,49.1,100.0,9.22,40.0,,31.0,,,,34.0,,,,3.0,,KIGQ 200815Z AUTO 04008KT 3SM BR OVC003 10/10 A3006 RMK AO2  T00950095,,,300.0,,,49.1,,NE,29.41,29.11,,Mist
KIGQ,05/20/2018 08:35 UTC,30.07,48.38,48.38,100.0,12.66,40.0,17.27,,,,,34.0,,,,7.0,,KIGQ 200835Z AUTO 04011G15KT 7SM OVC003 09/09 A3007 RMK AO2  T00910091,,,300.0,,,48.38,,NE,29.42,29.15,,Overcast
KIGQ,05/20/2018 08:55 UTC,30.07,48.2,48.2,100.0,8.05,20.0,,,,,,34.0,,,,7.0,,KIGQ 200855Z AUTO 02007KT 7SM OVC003 09/09 A3007 RMK AO2  T00900090,,,300.0,,,48.2,,NNE,29.42,29.16,,Overcast
KIGQ,05/20/2018 09:15 UTC,30.08,47.48,47.48,100.0,11.5,350.0,16.11,,,,,54.0,,,,10.0,,KIGQ 200915Z AUTO 35010G14KT 10SM OVC005 09/09 A3008 RMK AO2  T00860086,,,500.0,,,47.48,,N,29.43,29.2,,Overcast
KIGQ,05/20/2018 09:35 UTC,30.08,46.22,46.22,100.0,10.36,10.0,17.27,,,,,54.0,,,,10.0,,KIGQ 200935Z AUTO 01009G15KT 10SM OVC005 08/08 A3008 RMK AO2  T00790079,,,500.0,,,46.22,,N,29.43,29.25,,Overcast
KIGQ,05/20/2018 09:55 UTC,30.09,45.86,45.68,99.32,8.05,360.0,,,,,,54.0,,,,10.0,,KIGQ 200955Z AUTO 36007KT 10SM OVC005 08/08 A3009 RMK AO2  T00770076,,,500.0,,,45.68,,N,29.44,29.28,,Overcast
KIGQ,05/20/2018 10:15 UTC,30.1,45.5,45.5,100.0,10.36,20.0,16.11,,,,,74.0,,,,10.0,,KIGQ 201015Z AUTO 02009G14KT 10SM OVC007 08/08 A3010 RMK AO2  T00750075,,,700.0,,,45.5,,NNE,29.45,29.29,,Overcast
KIGQ,05/20/2018 10:35 UTC,30.11,44.96,44.96,100.0,6.91,10.0,16.11,,,,,54.0,,,,7.0,,KIGQ 201035Z AUTO 01006G14KT 320V030 7SM OVC005 07/07 A3011 RMK AO2 T00720072,,,500.0,,,44.96,,N,29.46,29.32,,Overcast
KIGQ,05/20/2018 10:55 UTC,30.11,44.78,44.78,100.0,8.05,10.0,,,,,,54.0,,,,7.0,,KIGQ 201055Z AUTO 01007KT 7SM OVC005 07/07 A3011 RMK AO2  T00710071,,,500.0,,,44.78,42.09,N,29.46,29.33,,Overcast
KIGQ,05/20/2018 11:15 UTC,30.12,45.14,45.14,100.0,5.75,10.0,,,,,,54.0,,,,7.0,,KIGQ 201115Z AUTO 01005KT 7SM OVC005 07/07 A3012 RMK AO2  T00730073,,,500.0,,,45.14,,N,29.47,29.33,,Overcast
KIGQ,05/20/2018 11:35 UTC,30.13,44.96,44.96,100.0,6.91,10.0,,31.0,,,,34.0,,,,4.0,,KIGQ 201135Z AUTO 01006KT 4SM BR OVC003 07/07 A3013 RMK AO2  T00720072,,,300.0,,,44.96,,N,29.47,29.33,,Mist
KIGQ,05/20/2018 11:55 UTC,30.14,44.96,44.96,100.0,3.44,10.0,,31.0,,,,34.0,,,,3.0,,KIGQ 201155Z AUTO 01003KT 3SM BR OVC003 07/07 A3014 RMK AO2  T00720072 10147 20071,58.46,44.78,300.0,,,44.96,,N,29.48,29.34,,Mist
KIGQ,05/20/2018 12:15 UTC,30.13,45.5,45.5,100.0,5.75,30.0,,31.0,,,,34.0,,,,3.0,,KIGQ 201215Z AUTO 03005KT 3SM BR OVC003 08/08 A3013 RMK AO2  T00750075,,,300.0,,,45.5,,NNE,29.47,29.31,,Mist
KIGQ,05/20/2018 12:35 UTC,30.14,45.14,45.14,100.0,9.22,30.0,16.11,31.0,,,,34.0,,,,0.75,,KIGQ 201235Z AUTO 03008G14KT 3/4SM BR OVC003 07/07 A3014 RMK AO2  T00730073,,,300.0,,,45.14,,NNE,29.48,29.34,,Mist
KIGQ,05/20/2018 12:55 UTC,30.15,44.96,44.96,100.0,8.05,360.0,,31.0,,,,34.0,,,,1.75,,KIGQ 201255Z AUTO 36007KT 1 3/4SM BR OVC003 07/07 A3015 RMK AO2  T00720072,,,300.0,,,44.96,42.3,N,29.49,29.35,,Mist
KIGQ,05/20/2018 13:15 UTC,30.16,44.78,44.78,100.0,8.05,360.0,,31.0,,,,34.0,,,,4.0,,KIGQ 201315Z AUTO 36007KT 4SM BR OVC003 07/07 A3016 RMK AO2  T00710071,,,300.0,,,44.78,42.09,N,29.5,29.37,,Mist
KIGQ,05/20/2018 13:35 UTC,30.16,45.14,45.14,100.0,5.75,20.0,,,,,,34.0,,,,7.0,,KIGQ 201335Z AUTO 02005KT 7SM OVC003 07/07 A3016 RMK AO2  T00730073,,,300.0,,,45.14,,NNE,29.5,29.36,,Overcast
KIGQ,05/20/2018 13:55 UTC,30.18,45.5,45.5,100.0,5.75,360.0,,,,,,34.0,,,,7.0,,KIGQ 201355Z AUTO 36005KT 7SM OVC003 08/08 A3018 RMK AO2  T00750075,,,300.0,,,45.5,,N,29.52,29.37,,Overcast
KIGQ,05/20/2018 14:15 UTC,30.19,45.86,45.86,100.0,5.75,10.0,,,,,,34.0,,,,7.0,,KIGQ 201415Z AUTO 01005KT 7SM OVC003 08/08 A3019 RMK AO2  T00770077,,,300.0,,,45.86,,N,29.53,29.36,,Overcast
KIGQ,05/20/2018 14:35 UTC,30.19,45.14,45.14,100.0,10.36,10.0,,31.0,,,,34.0,,,,5.0,,KIGQ 201435Z AUTO 01009KT 5SM BR OVC003 07/07 A3019 RMK AO2  T00730073,,,300.0,,,45.14,,N,29.53,29.39,,Mist
KIGQ,05/20/2018 14:55 UTC,30.19,45.14,45.14,100.0,9.22,20.0,16.11,31.0,,,,34.0,,,,5.0,,KIGQ 201455Z AUTO 02008G14KT 5SM BR OVC003 07/07 A3019 RMK AO2 LTG  DSNT S T00730073,,,300.0,,,45.14,,NNE,29.53,29.39,,Mist
KIGQ,05/20/2018 15:15 UTC,30.19,45.14,45.14,100.0,10.36,20.0,16.11,,,,,34.0,,,,7.0,,KIGQ 201515Z AUTO 02009G14KT 7SM OVC003 07/07 A3019 RMK AO2  T00730073,,,300.0,,,45.14,,NNE,29.53,29.39,,Overcast
KIGQ,05/20/2018 15:35 UTC,30.21,44.96,44.96,100.0,10.36,360.0,,,,,,54.0,,,,10.0,,KIGQ 201535Z AUTO 36009KT 330V030 10SM OVC005 07/07 A3021 RMK AO2  T00720072,,,500.0,,,44.96,41.42,N,29.55,29.42,,Overcast
KIGQ,05/20/2018 15:55 UTC,30.21,44.6,44.6,100.0,6.91,10.0,,,,,,54.0,,,,10.0,,KIGQ 201555Z AUTO 01006KT 10SM OVC005 07/07 A3021 RMK AO2  T00700070,,,500.0,,,44.6,,N,29.55,29.43,,Overcast
KIGQ,05/20/2018 16:15 UTC,30.21,44.6,44.6,100.0,11.5,360.0,17.27,,,,,54.0,,,,10.0,,KIGQ 201615Z AUTO 36010G15KT 10SM OVC005 07/07 A3021 RMK AO2  T00700070,,,500.0,,,44.6,40.61,N,29.55,29.43,,Overcast
KIGQ,05/20/2018 16:35 UTC,30.21,44.24,44.06,99.32,14.97,360.0,19.57,,,,,54.0,,,,10.0,,KIGQ 201635Z AUTO 36013G17KT 10SM OVC005 07/07 A3021 RMK AO2  T00680067,,,500.0,,,44.06,39.18,N,29.55,29.45,,Overcast
KIGQ,05/20/2018 16:55 UTC,30.22,44.42,44.24,99.32,8.05,360.0,18.41,,,,,54.0,,,,10.0,,KIGQ 201655Z AUTO 36007G16KT 10SM OVC005 07/07 A3022 RMK AO2  T00690068,,,500.0,,,44.24,41.66,N,29.56,29.45,,Overcast
KIGQ,05/20/2018 17:15 UTC,30.23,44.6,44.24,98.64,6.91,20.0,18.41,,,,,54.0,,,,10.0,,KIGQ 201715Z AUTO 02006G16KT 10SM OVC005 07/07 A3023 RMK AO2  T00700068,,,500.0,,,44.24,,NNE,29.57,29.46,,Overcast
KIGQ,05/20/2018 17:35 UTC,30.22,45.32,44.6,97.3,10.36,20.0,16.11,,,,,54.0,,,,10.0,,KIGQ 201735Z AUTO 02009G14KT 10SM OVC005 07/07 A3022 RMK AO2  T00740070,,,500.0,,,44.59,,NNE,29.56,29.43,,Overcast
KIGQ,05/20/2018 17:55 UTC,30.2,46.58,45.5,96.0,9.22,20.0,,,274.0,,,73.0,113.0,,,10.0,,KIGQ 201755Z AUTO 02008KT 10SM BKN007 BKN011 OVC027 08/08 A3020 RMK AO2 T00810075 10081 20068,46.58,44.24,700.0,,,45.49,,NNE,29.54,29.38,,Overcast
KIGQ,05/20/2018 18:15 UTC,30.19,49.28,47.48,93.48,5.75,80.0,,,,,,92.0,254.0,,,10.0,,KIGQ 201815Z AUTO 08005KT 10SM SCT009 OVC025 10/09 A3019 RMK AO2  T00960086,,,2500.0,,,47.46,,E,29.53,29.28,,Overcast
KIGQ,05/20/2018 18:35 UTC,30.19,53.06,49.82,88.72,6.91,80.0,,,,,,274.0,,,,10.0,,KIGQ 201835Z AUTO 08006KT 10SM OVC027 12/10 A3019 RMK AO2  T01170099,,,2700.0,,,49.78,,E,29.53,29.17,,Overcast
KIGQ,05/20/2018 18:55 UTC,30.2,54.68,51.08,87.63,8.05,30.0,,,,,,122.0,294.0,,,10.0,,KIGQ 201855Z AUTO 03007KT 10SM SCT012 OVC029 13/11 A3020 RMK AO2  T01260106,,,2900.0,,,51.05,,NNE,29.54,29.12,,Overcast
KIGQ,05/20/2018 19:15 UTC,30.19,54.68,51.26,88.21,9.22,30.0,,,,,,123.0,294.0,,,10.0,,KIGQ 201915Z AUTO 03008KT 10SM BKN012 OVC029 13/11 A3019 RMK AO2  T01260107,,,1200.0,,,51.23,,NNE,29.53,29.1,,Overcast
KIGQ,05/20/2018 19:35 UTC,30.2,54.86,51.08,87.05,10.36,10.0,,,,,,124.0,,,,10.0,,KIGQ 201935Z AUTO 01009KT 10SM OVC012 13/11 A3020 RMK AO2  T01270106,,,1200.0,,,51.04,,N,29.54,29.11,,Overcast
KIGQ,05/20/2018 19:55 UTC,30.21,50.72,48.02,90.43,10.36,20.0,,,,,,124.0,,,,10.0,,KIGQ 201955Z AUTO 02009KT 10SM OVC012 10/09 A3021 RMK AO2  T01040089,,,1200.0,,,47.99,,NNE,29.55,29.27,,Overcast
KIGQ,05/20/2018 20:15 UTC,30.21,50.0,47.48,91.01,11.5,20.0,16.11,,,,,104.0,,,,10.0,,KIGQ 202015Z AUTO 02010G14KT 10SM OVC010 10/09 A3021 RMK AO2  T01000086,,,1000.0,,,47.45,,NNE,29.55,29.29,,Overcast
KIGQ,05/20/2018 20:35 UTC,30.21,50.36,47.66,90.41,10.36,360.0,,,,,,104.0,,,,10.0,,KIGQ 202035Z AUTO 36009KT 10SM OVC010 10/09 A3021 RMK AO2  T01020087,,,1000.0,,,47.63,,N,29.55,29.29,,Overcast
KIGQ,05/20/2018 20:55 UTC,30.2,49.1,46.76,91.6,14.97,10.0,19.57,,,,,84.0,,,,10.0,,KIGQ 202055Z AUTO 01013G17KT 10SM OVC008 10/08 A3020 RMK AO2  T00950082,,,800.0,,,46.73,,N,29.54,29.31,,Overcast
KIGQ,05/20/2018 21:15 UTC,30.18,47.3,45.68,94.07,14.97,30.0,19.57,,,,,84.0,,,,10.0,,KIGQ 202115Z AUTO 03013G17KT 10SM OVC008 09/08 A3018 RMK AO2  T00850076,,,800.0,,,45.66,,NNE,29.52,29.34,,Overcast
KIGQ,05/20/2018 21:35 UTC,30.18,47.66,46.4,95.36,8.05,30.0,,,,,,84.0,,,,10.0,,KIGQ 202135Z AUTO 03007KT 360V060 10SM OVC008 09/08 A3018 RMK AO2  T00870080,,,800.0,,,46.38,,NNE,29.52,29.32,,Overcast
KIGQ,05/20/2018 21:55 UTC,30.17,47.48,46.58,96.67,10.36,30.0,,,,,,84.0,,,,7.0,,KIGQ 202155Z AUTO 03009KT 7SM OVC008 09/08 A3017 RMK AO2  T00860081,,,800.0,,,46.57,,NNE,29.51,29.31,,Overcast
KIGQ,05/20/2018 22:15 UTC,30.17,47.48,46.76,97.33,8.05,30.0,,31.0,,,,84.0,,,,5.0,,KIGQ 202215Z AUTO 03007KT 5SM BR OVC008 09/08 A3017 RMK AO2  T00860082,,,800.0,,,46.75,,NNE,29.51,29.3,,Mist
KIGQ,05/20/2018 22:35 UTC,30.14,47.3,46.4,96.66,12.66,20.0,,31.0,,,,84.0,,,,5.0,,KIGQ 202235Z AUTO 02011KT 5SM BR OVC008 09/08 A3014 RMK AO2  T00850080,,,800.0,,,46.39,,NNE,29.48,29.28,,Mist
KIGQ,05/20/2018 22:55 UTC,30.16,46.94,46.94,100.0,3.44,30.0,,31.0,,,,64.0,,,,2.0,,KIGQ 202255Z AUTO 03003KT 2SM BR OVC006 08/08 A3016 RMK AO2  T00830083,,,600.0,,,46.94,,NNE,29.5,29.29,,Mist
KIGQ,05/20/2018 23:15 UTC,30.16,46.4,46.4,100.0,8.05,20.0,,31.0,,,,44.0,,,,2.5,,KIGQ 202315Z AUTO 02007KT 2 1/2SM BR OVC004 08/08 A3016 RMK AO2  T00800080,,,400.0,,,46.4,,NNE,29.5,29.31,,Mist
KIGQ,05/20/2018 23:35 UTC,30.17,46.58,46.58,100.0,6.91,40.0,,31.0,,,,44.0,,,,3.0,,KIGQ 202335Z AUTO 04006KT 3SM BR OVC004 08/08 A3017 RMK AO2  T00810081,,,400.0,,,46.58,,NE,29.51,29.31,,Mist
KIGQ,05/20/2018 23:55 UTC,30.17,46.4,46.4,100.0,8.05,30.0,,31.0,,,,44.0,,,,2.0,,KIGQ 202355Z AUTO 03007KT 2SM BR OVC004 08/08 A3017 RMK AO2  T00800080 10132 20080,55.76,46.4,400.0,,,46.4,,NNE,29.51,29.32,,Mist
KIGQ,05/21/2018 00:15 UTC,30.16,46.58,46.58,100.0,6.91,50.0,,31.0,,,,44.0,,,,2.5,,KIGQ 210015Z AUTO 05006KT 2 1/2SM BR OVC004 08/08 A3016 RMK AO2  T00810081,,,400.0,,,46.58,,NE,29.5,29.3,,Mist
KIGQ,05/21/2018 00:35 UTC,30.17,46.4,46.4,100.0,5.75,310.0,19.57,31.0,,,,44.0,,,,5.0,,KIGQ 210035Z AUTO 31005G17KT 5SM BR OVC004 08/08 A3017 RMK AO2  T00800080,,,400.0,,,46.4,,NW,29.51,29.32,,Mist
KIGQ,05/21/2018 00:55 UTC,30.17,46.94,46.4,97.98,5.75,350.0,,,,,,84.0,,,,7.0,,KIGQ 210055Z AUTO 35005KT 7SM OVC008 08/08 A3017 RMK AO2  T00830080,,,800.0,,,46.39,,N,29.51,29.32,,Overcast
KIGQ,05/21/2018 01:15 UTC,30.17,46.76,45.86,96.66,5.75,360.0,,,,,,84.0,,,,10.0,,KIGQ 210115Z AUTO 36005KT 10SM OVC008 08/08 A3017 RMK AO2  T00820077,,,800.0,,,45.85,,N,29.51,29.33,,Overcast
KIGQ,05/21/2018 01:35 UTC,30.17,46.76,46.4,98.65,6.91,10.0,,,,,,83.0,234.0,,,10.0,,KIGQ 210135Z AUTO 01006KT 10SM BKN008 OVC023 08/08 A3017 RMK AO2  T00820080,,,800.0,,,46.4,,N,29.51,29.32,,Overcast
KIGQ,05/21/2018 01:55 UTC,30.18,46.94,46.4,97.98,0.0,0.0,,,,,,102.0,234.0,,,10.0,,KIGQ 210155Z AUTO 00000KT 10SM SCT010 OVC023 08/08 A3018 RMK AO2  T00830080,,,2300.0,,,46.39,,N,29.52,29.33,,Overcast
KIGQ,05/21/2018 02:15 UTC,30.18,47.3,46.4,96.66,6.91,20.0,,,,,,92.0,234.0,,,10.0,,KIGQ 210215Z AUTO 02006KT 10SM SCT009 OVC023 09/08 A3018 RMK AO2  T00850080,,,2300.0,,,46.39,,NNE,29.52,29.32,,Overcast
KIGQ,05/21/2018 02:35 UTC,30.19,47.3,46.4,96.66,4.61,40.0,,,,,,93.0,234.0,,,10.0,,KIGQ 210235Z AUTO 04004KT 10SM BKN009 OVC023 09/08 A3019 RMK AO2  T00850080,,,900.0,,,46.39,,NE,29.53,29.33,,Overcast
KIGQ,05/21/2018 02:55 UTC,30.19,47.3,46.58,97.32,5.75,10.0,,,,,,94.0,,,,10.0,,KIGQ 210255Z AUTO 01005KT 10SM OVC009 09/08 A3019 RMK AO2  T00850081,,,900.0,,,46.57,,N,29.53,29.33,,Overcast
KIGQ,05/21/2018 03:15 UTC,30.2,47.66,46.94,97.33,5.75,30.0,,,,,,93.0,124.0,,,10.0,,KIGQ 210315Z AUTO 03005KT 10SM BKN009 OVC012 09/08 A3020 RMK AO2  T00870083,,,900.0,,,46.93,,NNE,29.54,29.32,,Overcast
KIGQ,05/21/2018 03:35 UTC,30.19,47.84,47.3,97.99,5.75,10.0,,,,,,74.0,,,,10.0,,KIGQ 210335Z AUTO 01005KT 10SM OVC007 09/09 A3019 RMK AO2  T00880085,,,700.0,,,47.29,,N,29.53,29.3,,Overcast
KIGQ,05/21/2018 03:55 UTC,30.19,48.2,47.48,97.33,3.44,30.0,,,,,,74.0,,,,10.0,,KIGQ 210355Z AUTO 03003KT 10SM OVC007 09/09 A3019 RMK AO2  T00900086,,,700.0,,,47.47,,NNE,29.53,29.29,,Overcast
KIGQ,05/21/2018 04:15 UTC,30.19,48.2,47.3,96.68,4.61,10.0,,,,,,74.0,,,,10.0,,KIGQ 210415Z AUTO 01004KT 10SM OVC007 09/09 A3019 RMK AO2  T00900085,,,700.0,,,47.29,,N,29.53,29.3,,Overcast
KIGQ,05/21/2018 04:35 UTC,30.19,48.2,47.48,97.33,9.22,40.0,,,,,,74.0,,,,10.0,,KIGQ 210435Z AUTO 04008KT 10SM OVC007 09/09 A3019 RMK AO2  T00900086,,,700.0,,,47.47,,NE,29.53,29.29,,Overcast
KIGQ,05/21/2018 04:55 UTC,30.18,47.48,47.48,100.0,8.05,40.0,,31.0,,,,54.0,,,,5.0,,KIGQ 210455Z AUTO 04007KT 5SM BR OVC005 09/09 A3018 RMK AO2  T00860086,,,500.0,,,47.48,,NE,29.52,29.29,,Mist
KIGQ,05/21/2018 05:15 UTC,30.18,47.12,47.12,100.0,5.75,20.0,,31.0,,,,34.0,,,,4.0,,KIGQ 210515Z AUTO 02005KT 4SM BR OVC003 08/08 A3018 RMK AO2  T00840084,,,300.0,,,47.12,,NNE,29.52,29.3,,Mist
KIGQ,05/21/2018 05:35 UTC,30.18,46.94,46.94,100.0,9.22,30.0,,31.0,,,,34.0,,,,3.0,,KIGQ 210535Z AUTO 03008KT 3SM BR OVC003 08/08 A3018 RMK AO2  T00830083,,,300.0,,,46.94,,NNE,29.52,29.31,,Mist
KIGQ,05/21/2018 05:55 UTC,30.17,47.3,47.3,100.0,5.75,40.0,,31.0,,,,34.0,,,,3.0,,KIGQ 210555Z AUTO 04005KT 3SM BR OVC003 09/09 A3017 RMK AO2  T00850085 10090 20079 401470068,48.2,46.22,300.0,58.46,44.24,47.3,,NE,29.51,29.29,,Mist
KIGQ,05/21/2018 06:15 UTC,30.16,47.3,47.3,100.0,6.91,40.0,,31.0,,,,54.0,,,,5.0,,KIGQ 210615Z AUTO 04006KT 5SM BR OVC005 09/09 A3016 RMK AO2  T00850085,,,500.0,,,47.3,,NE,29.5,29.27,,Mist
KIGQ,05/21/2018 06:35 UTC,30.16,47.84,47.12,97.33,10.36,40.0,,,,,,54.0,,,,10.0,,KIGQ 210635Z AUTO 04009KT 10SM OVC005 09/08 A3016 RMK AO2  T00880084,,,500.0,,,47.11,,NE,29.5,29.28,,Overcast
KIGQ,05/21/2018 06:55 UTC,30.15,47.48,46.76,97.33,5.75,40.0,,,,,,54.0,,,,10.0,,KIGQ 210655Z AUTO 04005KT 10SM OVC005 09/08 A3015 RMK AO2  T00860082,,,500.0,,,46.75,,NE,29.49,29.28,,Overcast
KIGQ,05/21/2018 07:15 UTC,30.15,47.48,46.94,97.99,3.44,20.0,,,,,,54.0,,,,10.0,,KIGQ 210715Z AUTO 02003KT 10SM OVC005 09/08 A3015 RMK AO2  T00860083,,,500.0,,,46.93,,NNE,29.49,29.27,,Overcast
KIGQ,05/21/2018 07:35 UTC,30.14,48.2,47.3,96.68,4.61,40.0,,,,,,54.0,,,,10.0,,KIGQ 210735Z AUTO 04004KT 10SM OVC005 09/09 A3014 RMK AO2  T00900085,,,500.0,,,47.29,,NE,29.48,29.25,,Overcast
KIGQ,05/21/2018 07:55 UTC,30.14,48.38,48.02,98.66,5.75,30.0,,,,,,54.0,,,,10.0,,KIGQ 210755Z AUTO 03005KT 10SM OVC005 09/09 A3014 RMK AO2  T00910089,,,500.0,,,48.02,,NNE,29.48,29.22,,Overcast
KIGQ,05/21/2018 08:15 UTC,30.13,49.1,48.38,97.34,5.75,50.0,,,,,,54.0,,,,10.0,,KIGQ 210815Z AUTO 05005KT 10SM OVC005 10/09 A3013 RMK AO2  T00950091,,,500.0,,,48.37,,NE,29.47,29.19,,Overcast
KIGQ,05/21/2018 08:35 UTC,30.14,49.1,48.92,99.33,3.44,40.0,,,,,,54.0,,,,10.0,,KIGQ 210835Z AUTO 04003KT 10SM OVC005 10/09 A3014 RMK AO2  T00950094,,,500.0,,,48.92,,NE,29.48,29.19,,Overcast
KIGQ,05/21/2018 08:55 UTC,30.14,49.46,49.46,100.0,3.44,40.0,,,,,,54.0,,,,7.0,,KIGQ 210855Z AUTO 04003KT 7SM OVC005 10/10 A3014 RMK AO2  T00970097,,,500.0,,,49.46,,NE,29.48,29.16,,Overcast
KIGQ,05/21/2018 09:15 UTC,30.13,49.46,49.46,100.0,4.61,40.0,,,,,,54.0,,,,7.0,,KIGQ 210915Z AUTO 04004KT 7SM OVC005 10/10 A3013 RMK AO2 LTG DSNT  SW T00970097,,,500.0,,,49.46,,NE,29.47,29.15,,Overcast
KIGQ,05/21/2018 09:35 UTC,30.13,49.82,49.82,100.0,3.44,40.0,,31.0,,,,54.0,,,,5.0,,KIGQ 210935Z AUTO 04003KT 5SM BR OVC005 10/10 A3013 RMK AO2 LTG  DSNT SW T00990099,,,500.0,,,49.82,,NE,29.47,29.14,,Mist
KIGQ,05/21/2018 09:55 UTC,30.13,50.0,50.0,100.0,4.61,40.0,,31.0,,,,54.0,,,,5.0,,KIGQ 210955Z AUTO 04004KT 5SM BR OVC005 10/10 A3013 RMK AO2  T01000100,,,500.0,,,50.0,,NE,29.47,29.13,,Mist
KIGQ,05/21/2018 10:15 UTC,30.12,50.36,50.36,100.0,4.61,40.0,,31.0,,,,52.0,652.0,,,5.0,,KIGQ 211015Z AUTO 04004KT 5SM BR SCT005 SCT065 10/10 A3012 RMK AO2  T01020102,,,,,,50.36,,NE,29.47,29.11,,Mist
KIGQ,05/21/2018 10:35 UTC,30.12,50.9,50.9,100.0,4.61,40.0,,31.0,653.0,,,42.0,482.0,,,5.0,,KIGQ 211035Z AUTO 04004KT 5SM BR SCT004 SCT048 BKN065 11/11 A3012 RMK AO2 T01050105,,,6500.0,,,50.9,,NE,29.47,29.09,,Mist
KIGQ,05/21/2018 10:55 UTC,30.11,51.44,51.44,100.0,3.44,50.0,,2485.0,1104.0,,,43.0,483.0,,,4.0,,KIGQ 211055Z AUTO 05003KT 4SM VCTS BR BKN004 BKN048 OVC110 11/11  A3011 RMK AO2 LTG DSNT SE THRU W T01080108,,,400.0,,,51.44,,NE,29.46,29.05,,Thunder,Mist
KIGQ,05/21/2018 11:15 UTC,30.12,51.8,51.8,100.0,5.75,40.0,,2485.0,604.0,,,43.0,443.0,,,4.0,,KIGQ 211115Z AUTO 04005KT 4SM VCTS BR BKN004 BKN044 OVC060 11/11  A3012 RMK AO2 LTG DSNT SW AND W T01100110,,,400.0,,,51.8,,NE,29.47,29.05,,Thunder,Mist
KIGQ,05/21/2018 11:35 UTC,30.12,51.98,51.98,100.0,3.44,50.0,,2485.0,604.0,,,43.0,413.0,,,4.0,,KIGQ 211135Z AUTO 05003KT 4SM VCTS BR BKN004 BKN041 OVC060 11/11  A3012 RMK AO2 LTG DSNT SW THRU NW T01110111,,,400.0,,,51.98,,NE,29.47,29.04,,Thunder,Mist
KIGQ,05/21/2018 11:55 UTC,30.13,52.7,52.7,100.0,0.0,0.0,,13.0,,0.01,,43.0,434.0,0.01,0.01,2.5,,KIGQ 211155Z AUTO 00000KT 2 1/2SM -RA BKN004 OVC043 12/12 A3013 RMK AO2 LTG DSNT W AND NW P0001 60001 70001 T01150115 10115  20085,52.7,47.3,400.0,,,52.7,,N,29.47,29.0,,Light Rain
KIGQ,05/21/2018 12:15 UTC,30.12,53.24,53.24,100.0,6.91,30.0,,13.0,,,,63.0,414.0,,,2.5,,KIGQ 211215Z AUTO 03006KT 2 1/2SM -RA BKN006 OVC041 12/12 A3012 RMK AO2 LTG DSNT NW T01180118,,,600.0,,,53.24,,NNE,29.47,28.98,,Light Rain
KIGQ,05/21/2018 12:35 UTC,30.13,51.26,51.26,100.0,11.5,20.0,21.85,,,0.14,,44.0,,,,1.0,,KIGQ 211235Z AUTO 02010G19KT 1SM /VCTSRA OVC004 11/11 A3013 RMK AO2 LTG DSNT N P0014 T01070107,,,400.0,,,51.26,,NNE,29.47,29.07,,Overcast
KIGQ,05/21/2018 12:55 UTC,30.13,51.8,51.8,100.0,6.91,30.0,,14.0,264.0,0.21,,42.0,83.0,,,1.5,,KIGQ 211255Z AUTO 03006KT 1 1/2SM +RA SCT004 BKN008 OVC026 11/11  A3013 RMK AO2 P0021 T01100110,,,800.0,,,51.8,,NNE,29.47,29.05,,Heavy Rain
KIGQ,05/21/2018 13:15 UTC,30.13,51.98,51.98,100.0,3.44,20.0,,13.0,324.0,0.01,,33.0,83.0,,,2.0,,KIGQ 211315Z AUTO 02003KT 2SM -RA BKN003 BKN008 OVC032 11/11 A3013 RMK AO2 P0001 T01110111,,,300.0,,,51.98,,NNE,29.47,29.04,,Light Rain
KIGQ,05/21/2018 13:35 UTC,30.15,52.52,52.52,100.0,0.0,0.0,,1.0,,0.05,,33.0,84.0,,,1.75,,KIGQ 211335Z AUTO 00000KT 1 3/4SM RA BKN003 OVC008 11/11 A3015 RMK AO2 P0005 T01140114,,,300.0,,,52.52,,N,29.49,29.03,,Rain
KIGQ,05/21/2018 13:55 UTC,30.13,53.24,53.24,100.0,4.61,40.0,,13.0,374.0,0.05,,32.0,83.0,,,1.75,,KIGQ 211355Z AUTO 04004KT 1 3/4SM -RA SCT003 BKN008 OVC037 12/12  A3013 RMK AO2 P0005 T01180118,,,800.0,,,53.24,,NE,29.47,28.98,,Light Rain
KIGQ,05/21/2018 14:15 UTC,30.12,54.5,54.5,100.0,5.75,50.0,,13.0,424.0,,,52.0,312.0,,,2.0,,KIGQ 211415Z AUTO 05005KT 2SM -RA SCT005 SCT031 OVC042 13/13 A3012 RMK AO2 LTG DSNT E T01250125,,,4200.0,,,54.5,,NE,29.47,28.91,,Light Rain
KIGQ,05/21/2018 14:35 UTC,30.1,55.4,55.4,100.0,8.05,70.0,,13.0,,,,34.0,,,,2.0,,KIGQ 211435Z AUTO 07007KT 2SM -RA OVC003 13/13 A3010 RMK AO2 LTG  DSNT E T01300130,,,300.0,,,55.4,,ENE,29.45,28.85,,Light Rain
KIGQ,05/21/2018 14:55 UTC,30.11,57.02,57.02,100.0,6.91,80.0,,13.0,,,0.26,34.0,,,,3.0,,KIGQ 211455Z AUTO 08006KT 3SM -RA OVC003 14/14 A3011 RMK AO2 LTG  DSNT E 60026 T01390139,,,300.0,,,57.02,,E,29.46,28.77,,Light Rain
KIGQ,05/21/2018 15:15 UTC,30.1,57.92,57.92,100.0,8.05,90.0,,31.0,1204.0,,,33.0,93.0,,,3.0,,KIGQ 211515Z AUTO 09007KT 3SM BR BKN003 BKN009 OVC120 14/14 A3010 RMK AO2 T01440144,,,300.0,,,57.92,,E,29.45,28.7,,Mist
KIGQ,05/21/2018 15:35 UTC,30.1,59.9,59.9,100.0,5.75,120.0,,31.0,503.0,,,82.0,363.0,,,3.0,,KIGQ 211535Z AUTO 12005KT 3SM BR SCT008 BKN036 BKN050 16/16 A3010 RMK AO2 T01550155,,,3600.0,,,59.9,,ESE,29.45,28.58,,Mist
KIGQ,05/21/2018 15:55 UTC,30.1,61.88,61.34,98.11,10.36,130.0,17.27,,604.0,,,123.0,443.0,,,7.0,,KIGQ 211555Z AUTO 13009G15KT 7SM BKN012 BKN044 OVC060 17/16 A3010 RMK AO2 T01660163,,,1200.0,,,61.34,,SE,29.45,28.48,,Overcast
KIGQ,05/21/2018 16:15 UTC,30.1,61.88,60.98,96.87,10.36,130.0,,,,,,143.0,194.0,,,7.0,,KIGQ 211615Z AUTO 13009KT 7SM BKN014 OVC019 17/16 A3010 RMK AO2  T01660161,,,1400.0,,,60.97,,SE,29.45,28.5,,Overcast
KIGQ,05/21/2018 16:35 UTC,30.1,62.24,60.98,95.65,11.5,140.0,,,,,,144.0,,,,7.0,,KIGQ 211635Z AUTO 14010KT 7SM OVC014 17/16 A3010 RMK AO2  T01680161,,,1400.0,,,60.97,,SE,29.45,28.5,,Overcast
KIGQ,05/21/2018 16:55 UTC,30.11,62.6,61.34,95.66,9.22,170.0,,1.0,,,,144.0,,,,5.0,,KIGQ 211655Z AUTO 17008KT 5SM RA OVC014 17/16 A3011 RMK AO2  T01700163,,,1400.0,,,61.33,,S,29.46,28.48,,Rain
KIGQ,05/21/2018 17:15 UTC,30.09,61.7,61.7,100.0,4.61,120.0,9.22,1.0,,0.01,,142.0,504.0,,,4.0,,KIGQ 211715Z AUTO 12004G08KT 4SM RA SCT014 OVC050 17/17 A3009 RMK AO2 P0001 T01650165,,,5000.0,,,61.7,,ESE,29.44,28.46,,Rain
KIGQ,05/21/2018 17:35 UTC,30.08,62.6,62.6,100.0,0.0,0.0,,13.0,704.0,0.02,,102.0,503.0,,,4.0,,KIGQ 211735Z AUTO 00000KT 4SM -RA SCT010 BKN050 OVC070 17/17 A3008 RMK AO2 P0002 T01700170,,,5000.0,,,62.6,,N,29.43,28.38,,Light Rain
KIGQ,05/21/2018 17:55 UTC,30.08,62.78,62.24,98.12,0.0,0.0,,31.0,554.0,0.02,,103.0,173.0,0.28,,5.0,,KIGQ 211755Z AUTO 00000KT 5SM BR BKN010 BKN017 OVC055 17/17 A3008 RMK AO2 LTG DSNT E P0002 60028 T01710168 10172 20107,62.96,51.26,1000.0,,,62.24,,N,29.43,28.4,,Mist
KIGQ,05/21/2018 18:15 UTC,30.07,63.68,62.96,97.51,0.0,0.0,,31.0,554.0,,,102.0,172.0,,,5.0,,KIGQ 211815Z AUTO 00000KT 5SM BR SCT010 SCT017 OVC055 18/17 A3007 RMK AO2 T01760172,,,5500.0,,,62.96,,N,29.42,28.34,,Mist
KIGQ,05/21/2018 18:35 UTC,30.07,64.4,63.5,96.9,0.0,0.0,,31.0,,,,173.0,504.0,,,5.0,,KIGQ 211835Z AUTO 00000KT 5SM BR BKN017 OVC050 18/18 A3007 RMK AO2  T01800175,,,1700.0,,,63.49,,N,29.42,28.3,,Mist
KIGQ,05/21/2018 18:55 UTC,30.06,65.3,64.22,96.31,4.61,130.0,,31.0,,,,154.0,,,,5.0,,KIGQ 211855Z AUTO 13004KT 5SM BR OVC015 19/18 A3006 RMK AO2  T01850179,,,1500.0,,,64.21,,SE,29.41,28.23,,Mist
KIGQ,05/21/2018 19:15 UTC,30.05,66.02,64.58,95.12,5.75,130.0,,,,,,154.0,,,,7.0,,KIGQ 211915Z AUTO 13005KT 7SM OVC015 19/18 A3005 RMK AO2  T01890181,,,1500.0,,,64.57,,SE,29.4,28.19,,Overcast
KIGQ,05/21/2018 19:35 UTC,30.04,66.92,65.3,94.55,6.91,140.0,,,,,,174.0,,,,7.0,,KIGQ 211935Z AUTO 14006KT 7SM OVC017 19/19 A3004 RMK AO2  T01940185,,,1700.0,,,65.29,,SE,29.39,28.13,,Overcast
KIGQ,05/21/2018 19:55 UTC,30.03,67.46,65.48,93.38,9.22,150.0,,31.0,,,,173.0,424.0,,,5.0,,KIGQ 211955Z AUTO 15008KT 5SM BR BKN017 OVC042 20/19 A3003 RMK AO2  T01970186,,,1700.0,,,65.47,,SSE,29.38,28.1,,Mist
KIGQ,05/21/2018 20:15 UTC,30.02,67.64,65.3,92.23,8.05,150.0,,31.0,804.0,,,152.0,422.0,,,5.0,,KIGQ 212015Z AUTO 15007KT 5SM BR SCT015 SCT042 OVC080 20/19 A3002 RMK AO2 T01980185,,,8000.0,,,65.29,,SSE,29.37,28.1,,Mist
KIGQ,05/21/2018 20:35 UTC,30.01,70.88,67.82,90.08,9.22,130.0,,,903.0,,,152.0,552.0,,,7.0,,KIGQ 212035Z AUTO 13008KT 7SM SCT015 SCT055 BKN090 22/20 A3001 RMK AO2 T02160199,,,9000.0,,,67.81,,SE,29.36,27.88,,Mostly Cloudy
KIGQ,05/21/2018 20:55 UTC,30.0,71.06,67.28,87.88,6.91,150.0,,,,,,172.0,653.0,,,7.0,,KIGQ 212055Z AUTO 15006KT 7SM SCT017 BKN065 22/20 A3000 RMK AO2  T02170196,,,6500.0,,,67.27,,SSE,29.35,27.9,,Mostly Cloudy
KIGQ,05/21/2018 21:15 UTC,29.99,69.98,66.74,89.49,6.91,140.0,,,,,,192.0,554.0,,,7.0,,KIGQ 212115Z AUTO 14006KT 7SM SCT019 OVC055 21/19 A2999 RMK AO2  T02110193,,,5500.0,,,66.73,,SE,29.34,27.94,,Overcast
KIGQ,05/21/2018 21:35 UTC,29.99,69.8,66.92,90.6,6.91,140.0,,,504.0,,,192.0,483.0,,,7.0,,KIGQ 212135Z AUTO 14006KT 7SM SCT019 BKN048 OVC050 21/19 A2999 RMK AO2 T02100194,,,4800.0,,,66.91,,SE,29.34,27.93,,Overcast
KIGQ,05/21/2018 21:55 UTC,29.98,70.34,67.1,89.5,4.61,120.0,,,,,,454.0,,,,7.0,,KIGQ 212155Z AUTO 12004KT 7SM OVC045 21/20 A2998 RMK AO2  T02130195,,,4500.0,,,67.09,,ESE,29.33,27.9,,Overcast
KIGQ,05/21/2018 22:15 UTC,29.99,69.08,67.28,94.01,8.05,160.0,,1.0,404.0,,,172.0,232.0,,,4.0,,KIGQ 212215Z AUTO 16007KT 4SM RA SCT017 SCT023 OVC040 21/20 A2999 RMK AO2 T02060196,,,4000.0,,,67.27,,SSE,29.34,27.92,,Rain
KIGQ,05/21/2018 22:35 UTC,29.99,67.82,67.82,100.0,5.75,160.0,,13.0,,0.01,,172.0,234.0,,,3.0,,KIGQ 212235Z AUTO 16005KT 3SM -RA SCT017 OVC023 20/20 A2999 RMK AO2 P0001 T01990199,,,2300.0,,,67.82,,SSE,29.34,27.9,,Light Rain
KIGQ,05/21/2018 22:55 UTC,29.98,68.36,68.36,100.0,3.44,140.0,,31.0,304.0,0.01,,182.0,263.0,,,4.0,,KIGQ 212255Z AUTO 14003KT 4SM BR SCT018 BKN026 OVC030 20/20 A2998 RMK AO2 P0001 T02020202,,,2600.0,,,68.36,,SE,29.33,27.85,,Mist
KIGQ,05/21/2018 23:15 UTC,29.98,68.36,68.36,100.0,4.61,120.0,,31.0,,,,284.0,,,,3.0,,KIGQ 212315Z AUTO 12004KT 3SM BR OVC028 20/20 A2998 RMK AO2  T02020202,,,2800.0,,,68.36,,ESE,29.33,27.85,,Mist
KIGQ,05/21/2018 23:35 UTC,29.98,68.36,68.36,100.0,3.44,110.0,,31.0,,,,323.0,424.0,,,4.0,,KIGQ 212335Z AUTO 11003KT 4SM BR BKN032 OVC042 20/20 A2998 RMK AO2  T02020202,,,3200.0,,,68.36,,ESE,29.33,27.85,,Mist
KIGQ,05/21/2018 23:55 UTC,29.97,68.0,68.0,100.0,4.61,100.0,,31.0,454.0,,,232.0,323.0,0.01,,3.0,,KIGQ 212355Z AUTO 10004KT 3SM BR SCT023 BKN032 OVC045 20/20 A2997 RMK AO2 60001 T02000200 10221 20172,71.78,62.96,3200.0,,,68.0,,E,29.32,27.87,,Mist
KIGQ,05/22/2018 00:15 UTC,29.98,68.0,68.0,100.0,0.0,0.0,,31.0,,,,233.0,314.0,,,3.0,,KIGQ 220015Z AUTO 00000KT 3SM BR BKN023 OVC031 20/20 A2998 RMK AO2  T02000200,,,2300.0,,,68.0,,N,29.33,27.88,,Mist
KIGQ,05/22/2018 00:35 UTC,29.98,68.0,68.0,100.0,0.0,0.0,,31.0,453.0,,,232.0,362.0,,,4.0,,KIGQ 220035Z AUTO 00000KT 4SM BR SCT023 SCT036 BKN045 20/20 A2998 RMK AO2 T02000200,,,4500.0,,,68.0,,N,29.33,27.88,,Mist
KIGQ,05/22/2018 00:55 UTC,29.98,67.28,67.28,100.0,3.44,350.0,,31.0,452.0,,,182.0,392.0,,,3.0,,KIGQ 220055Z AUTO 35003KT 3SM BR SCT018 SCT039 SCT045 20/20 A2998 RMK AO2 T01960196,,,,,,67.28,,N,29.33,27.93,,Mist
KIGQ,05/22/2018 01:15 UTC,29.98,64.76,64.76,100.0,0.0,0.0,,31.0,493.0,,,182.0,423.0,,,2.5,,KIGQ 220115Z AUTO 00000KT 2 1/2SM BR SCT018 BKN042 BKN049 18/18  A2998 RMK AO2 T01820182,,,4200.0,,,64.76,,N,29.33,28.13,,Mist
KIGQ,05/22/2018 01:35 UTC,29.98,63.14,63.14,100.0,0.0,0.0,,31.0,,,,443.0,,,,5.0,,KIGQ 220135Z AUTO 00000KT 5SM BR BKN044 17/17 A2998 RMK AO2  T01730173,,,4400.0,,,63.14,,N,29.33,28.25,,Mist
KIGQ,05/22/2018 01:55 UTC,29.98,61.88,61.88,100.0,0.0,0.0,,31.0,,,,462.0,,,,4.0,,KIGQ 220155Z AUTO 00000KT 4SM BR SCT046 17/17 A2998 RMK AO2  T01660166,,,,,,61.88,,N,29.33,28.33,,Mist
KIGQ,05/22/2018 02:15 UTC,29.98,61.16,61.16,100.0,0.0,0.0,,31.0,,,,1.0,,,,4.0,,KIGQ 220215Z AUTO 00000KT 4SM BR CLR 16/16 A2998 RMK AO2  T01620162,,,,,,61.16,,N,29.33,28.38,,Mist
KIGQ,05/22/2018 02:35 UTC,29.99,60.62,60.62,100.0,0.0,0.0,,31.0,,,,1.0,,,,3.0,,KIGQ 220235Z AUTO 00000KT 3SM BR CLR 16/16 A2999 RMK AO2  T01590159,,,,,,60.62,,N,29.34,28.42,,Mist
KIGQ,05/22/2018 02:55 UTC,29.99,59.54,59.54,100.0,0.0,0.0,,31.0,,,,75.0,,,,1.5,,KIGQ 220255Z AUTO 00000KT 1 1/2SM BR VV007 15/15 A2999 RMK AO2  T01530153,,,700.0,,,59.54,,N,29.34,28.49,,Mist
KIGQ,05/22/2018 03:15 UTC,29.99,59.9,59.9,100.0,0.0,0.0,,31.0,,,,75.0,,,,1.75,,KIGQ 220315Z AUTO 00000KT 1 3/4SM BR VV007 16/16 A2999 RMK AO2  T01550155,,,700.0,,,59.9,,N,29.34,28.47,,Mist
KIGQ,05/22/2018 03:35 UTC,29.99,58.64,58.64,100.0,0.0,0.0,,31.0,,,,1.0,,,,2.5,,KIGQ 220335Z AUTO 00000KT 2 1/2SM BR CLR 15/15 A2999 RMK AO2  T01480148,,,,,,58.64,,N,29.34,28.55,,Mist
KIGQ,05/22/2018 03:55 UTC,29.99,58.1,58.1,100.0,0.0,0.0,,31.0,,,,1.0,,,,2.5,,KIGQ 220355Z AUTO 00000KT 2 1/2SM BR CLR 15/15 A2999 RMK AO2  T01450145,,,,,,58.1,,N,29.34,28.58,,Mist
KIGQ,05/22/2018 04:15 UTC,30.0,57.2,57.2,100.0,0.0,0.0,,31.0,,,,53.0,,,,3.0,,KIGQ 220415Z AUTO 00000KT 3SM BR BKN005 14/14 A3000 RMK AO2  T01400140,,,500.0,,,57.2,,N,29.35,28.64,,Mist
KIGQ,05/22/2018 04:35 UTC,30.0,56.66,56.66,100.0,0.0,0.0,,31.0,,,,54.0,,,,4.0,,KIGQ 220435Z AUTO 00000KT 4SM BR OVC005 14/14 A3000 RMK AO2  T01370137,,,500.0,,,56.66,,N,29.35,28.67,,Mist
KIGQ,05/22/2018 04:55 UTC,29.99,55.94,55.94,100.0,0.0,0.0,,31.0,,,,34.0,,,,2.5,,KIGQ 220455Z AUTO 00000KT 2 1/2SM BR OVC003 13/13 A2999 RMK AO2  T01330133,,,300.0,,,55.94,,N,29.34,28.7,,Mist
KIGQ,05/22/2018 05:15 UTC,29.98,56.48,56.48,100.0,0.0,0.0,,31.0,,,,34.0,,,,3.0,,KIGQ 220515Z AUTO 00000KT 3SM BR OVC003 14/14 A2998 RMK AO2  T01360136,,,300.0,,,56.48,,N,29.33,28.66,,Mist
KIGQ,05/22/2018 05:35 UTC,29.98,56.48,56.48,100.0,0.0,0.0,,31.0,,,,34.0,,,,3.0,,KIGQ 220535Z AUTO 00000KT 3SM BR OVC003 14/14 A2998 RMK AO2  T01360136,,,300.0,,,56.48,,N,29.33,28.66,,Mist
KIGQ,05/22/2018 05:55 UTC,29.98,56.48,56.48,100.0,0.0,0.0,,31.0,,,,34.0,,,,4.0,,KIGQ 220555Z AUTO 00000KT 4SM BR OVC003 14/14 A2998 RMK AO2  T01360136 10202 20133 402210085,68.36,55.94,300.0,71.78,47.3,56.48,,N,29.33,28.66,,Mist
KIGQ,05/22/2018 06:15 UTC,29.98,56.66,56.66,100.0,0.0,0.0,,31.0,,,,34.0,,,,3.0,,KIGQ 220615Z AUTO 00000KT 3SM BR OVC003 14/14 A2998 RMK AO2  T01370137,,,300.0,,,56.66,,N,29.33,28.65,,Mist
KIGQ,05/22/2018 06:35 UTC,29.98,56.84,56.84,100.0,0.0,0.0,,31.0,,,,34.0,,,,2.0,,KIGQ 220635Z AUTO 00000KT 2SM BR OVC003 14/14 A2998 RMK AO2  T01380138,,,300.0,,,56.84,,N,29.33,28.64,,Mist
KIGQ,05/22/2018 06:55 UTC,29.98,57.2,57.2,100.0,0.0,0.0,,31.0,,,,34.0,,,,1.25,,KIGQ 220655Z AUTO 00000KT 1 1/4SM BR OVC003 14/14 A2998 RMK AO2  T01400140,,,300.0,,,57.2,,N,29.33,28.62,,Mist
KIGQ,05/22/2018 07:15 UTC,29.97,57.02,57.02,100.0,0.0,0.0,,31.0,,,,34.0,,,,1.0,,KIGQ 220715Z AUTO 00000KT 1SM BR OVC003 14/14 A2997 RMK AO2  T01390139,,,300.0,,,57.02,,N,29.32,28.62,,Mist
KIGQ,05/22/2018 07:35 UTC,29.97,56.84,56.84,100.0,0.0,0.0,,9.0,,,,34.0,,,,0.25,,KIGQ 220735Z AUTO 00000KT 1/4SM FG OVC003 14/14 A2997 RMK AO2  T01380138,,,300.0,,,56.84,,N,29.32,28.63,,Fog
KIGQ,05/22/2018 07:55 UTC,29.96,56.66,56.66,100.0,0.0,0.0,,9.0,,,,34.0,,,,0.25,,KIGQ 220755Z AUTO 00000KT 1/4SM FG OVC003 14/14 A2996 RMK AO2  T01370137,,,300.0,,,56.66,,N,29.31,28.63,,Fog
KIGQ,05/22/2018 08:15 UTC,29.97,56.3,56.3,100.0,0.0,0.0,,9.0,,,,34.0,,,,0.5,,KIGQ 220815Z AUTO 00000KT 1/2SM FG OVC003 14/14 A2997 RMK AO2  T01350135,,,300.0,,,56.3,,N,29.32,28.66,,Fog
KIGQ,05/22/2018 08:35 UTC,29.97,55.76,55.76,100.0,4.61,20.0,,31.0,,,,34.0,,,,0.75,,KIGQ 220835Z AUTO 02004KT 3/4SM BR OVC003 13/13 A2997 RMK AO2  T01320132,,,300.0,,,55.76,,NNE,29.32,28.69,,Mist
KIGQ,05/22/2018 08:55 UTC,29.98,55.4,55.4,100.0,0.0,0.0,,9.0,,,,34.0,,,,0.5,,KIGQ 220855Z AUTO 00000KT 1/2SM FG OVC003 13/13 A2998 RMK AO2  T01300130,,,300.0,,,55.4,,N,29.33,28.72,,Fog
KIGQ,05/22/2018 09:15 UTC,29.98,55.04,55.04,100.0,4.61,10.0,,9.0,,,,34.0,,,,0.5,,KIGQ 220915Z AUTO 01004KT 1/2SM FG OVC003 13/13 A2998 RMK AO2  T01280128,,,300.0,,,55.04,,N,29.33,28.74,,Fog
KIGQ,05/22/2018 09:35 UTC,29.98,54.68,54.68,100.0,0.0,0.0,,9.0,,,,34.0,,,,0.5,,KIGQ 220935Z AUTO 00000KT 1/2SM FG OVC003 13/13 A2998 RMK AO2  T01260126,,,300.0,,,54.68,,N,29.33,28.76,,Fog
KIGQ,05/22/2018 09:55 UTC,29.99,54.5,54.5,100.0,4.61,340.0,,31.0,,,,34.0,,,,1.0,,KIGQ 220955Z AUTO 34004KT 1SM BR OVC003 13/13 A2999 RMK AO2  T01250125,,,300.0,,,54.5,,NNW,29.34,28.78,,Mist
KIGQ,05/22/2018 10:15 UTC,29.98,54.14,54.14,100.0,0.0,0.0,,31.0,,,,34.0,,,,1.75,,KIGQ 221015Z AUTO 00000KT 1 3/4SM BR OVC003 12/12 A2998 RMK AO2  T01230123,,,300.0,,,54.14,,N,29.33,28.79,,Mist
KIGQ,05/22/2018 10:35 UTC,29.99,53.6,53.6,100.0,0.0,0.0,,31.0,,,,34.0,,,,2.0,,KIGQ 221035Z AUTO 00000KT 2SM BR OVC003 12/12 A2999 RMK AO2  T01200120,,,300.0,,,53.6,,N,29.34,28.83,,Mist
KIGQ,05/22/2018 10:55 UTC,30.0,53.42,53.42,100.0,0.0,0.0,,31.0,,,,34.0,,,,2.0,,KIGQ 221055Z AUTO 00000KT 2SM BR OVC003 12/12 A3000 RMK AO2  T01190119,,,300.0,,,53.42,,N,29.35,28.85,,Mist
KIGQ,05/22/2018 11:15 UTC,30.0,53.06,53.06,100.0,3.44,50.0,,31.0,,,,34.0,,,,2.0,,KIGQ 221115Z AUTO 05003KT 2SM BR OVC003 12/12 A3000 RMK AO2  T01170117,,,300.0,,,53.06,,NE,29.35,28.86,,Mist
KIGQ,05/22/2018 11:35 UTC,30.01,53.24,53.24,100.0,3.44,40.0,,31.0,,,,34.0,,,,2.5,,KIGQ 221135Z AUTO 04003KT 2 1/2SM BR OVC003 12/12 A3001 RMK AO2  T01180118,,,300.0,,,53.24,,NE,29.36,28.87,,Mist
KIGQ,05/22/2018 11:55 UTC,30.01,53.6,53.6,100.0,0.0,0.0,,31.0,,,,34.0,,,0.29,2.0,,KIGQ 221155Z AUTO 00000KT 2SM BR OVC003 12/12 A3001 RMK AO2 70029  T01200120 10140 20117,57.2,53.06,300.0,,,53.6,,N,29.36,28.85,,Mist
KIGQ,05/22/2018 12:15 UTC,30.01,53.6,53.6,100.0,4.61,70.0,,31.0,,,,34.0,,,,1.0,,KIGQ 221215Z AUTO 07004KT 1SM BR OVC003 12/12 A3001 RMK AO2  T01200120,,,300.0,,,53.6,,ENE,29.36,28.85,,Mist
KIGQ,05/22/2018 12:35 UTC,30.02,53.96,53.96,100.0,0.0,0.0,,31.0,,,,34.0,,,,1.75,,KIGQ 221235Z AUTO 00000KT 1 3/4SM BR OVC003 12/12 A3002 RMK AO2  T01220122,,,300.0,,,53.96,,N,29.37,28.84,,Mist
KIGQ,05/22/2018 12:55 UTC,30.03,54.68,54.68,100.0,0.0,0.0,,31.0,,,,54.0,,,,1.75,,KIGQ 221255Z AUTO 00000KT 1 3/4SM BR OVC005 13/13 A3003 RMK AO2  T01260126,,,500.0,,,54.68,,N,29.38,28.81,,Mist
KIGQ,05/22/2018 13:15 UTC,30.03,55.4,55.4,100.0,4.61,120.0,,31.0,,,,54.0,,,,1.75,,KIGQ 221315Z AUTO 12004KT 1 3/4SM BR OVC005 13/13 A3003 RMK AO2  T01300130,,,500.0,,,55.4,,ESE,29.38,28.77,,Mist
KIGQ,05/22/2018 13:35 UTC,30.04,55.4,55.22,99.35,3.44,110.0,,31.0,,,,54.0,,,,1.75,,KIGQ 221335Z AUTO 11003KT 1 3/4SM BR OVC005 13/13 A3004 RMK AO2  T01300129,,,500.0,,,55.22,,ESE,29.39,28.79,,Mist
KIGQ,05/22/2018 13:55 UTC,30.04,56.12,55.76,98.71,0.0,0.0,,31.0,,,,74.0,,,,2.0,,KIGQ 221355Z AUTO 00000KT 2SM BR OVC007 13/13 A3004 RMK AO2  T01340132,,,700.0,,,55.76,,N,29.39,28.76,,Mist
KIGQ,05/22/2018 14:15 UTC,30.04,56.3,55.58,97.43,0.0,0.0,,31.0,244.0,,,73.0,113.0,,,2.0,,KIGQ 221415Z AUTO 00000KT 2SM BR BKN007 BKN011 OVC024 14/13 A3004 RMK AO2 T01350131,,,700.0,,,55.57,,N,29.39,28.77,,Mist
KIGQ,05/22/2018 14:35 UTC,30.05,57.2,56.3,96.81,0.0,0.0,,31.0,,,,112.0,224.0,,,2.5,,KIGQ 221435Z AUTO 00000KT 2 1/2SM BR SCT011 OVC022 14/14 A3005 RMK AO2 T01400135,,,2200.0,,,56.29,,N,29.4,28.73,,Mist
KIGQ,05/22/2018 14:55 UTC,30.06,57.92,56.3,94.33,0.0,0.0,,31.0,,,,113.0,184.0,,,2.5,,KIGQ 221455Z AUTO 00000KT 2 1/2SM BR BKN011 OVC018 14/14 A3006 RMK AO2 T01440135,,,1100.0,,,56.28,,N,29.41,28.74,,Mist
KIGQ,05/22/2018 15:15 UTC,30.06,58.46,56.48,93.13,3.44,40.0,,31.0,,,,114.0,,,,3.0,,KIGQ 221515Z AUTO 04003KT 3SM BR OVC011 15/14 A3006 RMK AO2  T01470136,,,1100.0,,,56.46,,NE,29.41,28.72,,Mist
KIGQ,05/22/2018 15:35 UTC,30.07,58.82,56.48,91.94,3.44,50.0,,31.0,,,,114.0,,,,3.0,,KIGQ 221535Z AUTO 05003KT 3SM BR OVC011 15/14 A3007 RMK AO2  T01490136,,,1100.0,,,56.46,,NE,29.42,28.73,,Mist
KIGQ,05/22/2018 15:55 UTC,30.06,59.54,56.66,90.19,4.61,30.0,,31.0,,,,94.0,,,,3.0,,KIGQ 221555Z AUTO 03004KT 3SM BR OVC009 15/14 A3006 RMK AO2  T01530137,,,900.0,,,56.64,,NNE,29.41,28.7,,Mist
KIGQ,05/22/2018 16:15 UTC,30.07,60.44,57.92,91.4,4.61,30.0,,31.0,,,,94.0,,,,4.0,,KIGQ 221615Z AUTO 03004KT 4SM BR OVC009 16/14 A3007 RMK AO2  T01580144,,,900.0,,,57.9,,NNE,29.42,28.64,,Mist
KIGQ,05/22/2018 16:35 UTC,30.07,60.8,58.28,91.41,0.0,0.0,,31.0,,,,94.0,,,,4.0,,KIGQ 221635Z AUTO 00000KT 4SM BR OVC009 16/15 A3007 RMK AO2  T01600146,,,900.0,,,58.26,,N,29.42,28.62,,Mist
KIGQ,05/22/2018 16:55 UTC,30.08,62.6,59.9,90.89,0.0,0.0,,31.0,254.0,,,92.0,173.0,,,5.0,,KIGQ 221655Z AUTO 00000KT 5SM BR SCT009 BKN017 OVC025 17/16 A3008 RMK AO2 LTG DSNT S T01700155,,,1700.0,,,59.88,,N,29.43,28.53,,Mist
KIGQ,05/22/2018 17:15 UTC,30.07,63.32,60.08,89.19,0.0,0.0,,31.0,,,,132.0,274.0,,,5.0,,KIGQ 221715Z AUTO 00000KT 5SM BR SCT013 OVC027 17/16 A3007 RMK AO2  T01740156,,,2700.0,,,60.06,,N,29.42,28.5,,Mist
KIGQ,05/22/2018 17:35 UTC,30.08,63.86,59.54,85.86,0.0,0.0,,,,,,132.0,254.0,,,7.0,,KIGQ 221735Z AUTO 00000KT 7SM SCT013 OVC025 18/15 A3008 RMK AO2  T01770153,,,2500.0,,,59.51,,N,29.43,28.53,,Overcast
KIGQ,05/22/2018 17:55 UTC,30.07,63.5,58.64,84.2,6.91,50.0,,6.0,,,,274.0,,,,5.0,,KIGQ 221755Z AUTO 05006KT 5SM HZ OVC027 18/15 A3007 RMK AO2  T01750148 10178 20120,64.04,53.6,2700.0,,,58.61,,NE,29.42,28.57,,Haze
KIGQ,05/22/2018 18:15 UTC,30.07,62.78,58.1,84.7,9.22,40.0,,6.0,,,,254.0,,,,5.0,,KIGQ 221815Z AUTO 04008KT 5SM HZ OVC025 17/15 A3007 RMK AO2  T01710145,,,2500.0,,,58.07,,NE,29.42,28.61,,Haze
KIGQ,05/22/2018 18:35 UTC,30.08,61.34,56.84,85.16,10.36,30.0,,31.0,,,,254.0,,,,4.0,,KIGQ 221835Z AUTO 03009KT 4SM BR OVC025 16/14 A3008 RMK AO2  T01630138,,,2500.0,,,56.81,,NNE,29.43,28.69,,Mist
KIGQ,05/22/2018 18:55 UTC,30.08,60.8,56.84,86.8,10.36,60.0,,31.0,,,,202.0,274.0,,,4.0,,KIGQ 221855Z AUTO 06009KT 4SM BR SCT020 OVC027 16/14 A3008 RMK AO2  T01600138,,,2700.0,,,56.81,,ENE,29.43,28.7,,Mist
KIGQ,05/22/2018 19:15 UTC,30.08,60.62,56.48,86.23,10.36,40.0,,31.0,,,,314.0,,,,5.0,,KIGQ 221915Z AUTO 04009KT 5SM BR OVC031 16/14 A3008 RMK AO2  T01590136,,,3100.0,,,56.45,,NE,29.43,28.72,,Mist
KIGQ,05/22/2018 19:35 UTC,30.08,59.9,56.12,87.32,9.22,60.0,,31.0,,,,333.0,,,,4.0,,KIGQ 221935Z AUTO 06008KT 4SM BR BKN033 16/13 A3008 RMK AO2  T01550134,,,3300.0,,,56.09,,ENE,29.43,28.74,,Mist
KIGQ,05/22/2018 19:55 UTC,30.08,60.26,56.84,88.48,8.05,50.0,,31.0,,,,394.0,,,,5.0,,KIGQ 221955Z AUTO 05007KT 5SM BR OVC039 16/14 A3008 RMK AO2  T01570138,,,3900.0,,,56.81,,NE,29.43,28.71,,Mist
KIGQ,05/22/2018 20:15 UTC,30.07,60.98,57.2,87.38,5.75,40.0,,31.0,,,,394.0,,,,5.0,,KIGQ 222015Z AUTO 04005KT 5SM BR OVC039 16/14 A3007 RMK AO2  T01610140,,,3900.0,,,57.17,,NE,29.42,28.67,,Mist
KIGQ,05/22/2018 20:35 UTC,30.06,61.52,57.2,85.72,8.05,30.0,,6.0,,,,414.0,,,,5.0,,KIGQ 222035Z AUTO 03007KT 5SM HZ OVC041 16/14 A3006 RMK AO2  T01640140,,,4100.0,,,57.17,,NNE,29.41,28.65,,Haze
KIGQ,05/22/2018 20:55 UTC,30.05,60.98,56.48,85.14,10.36,70.0,,,,,,413.0,,,,7.0,,KIGQ 222055Z AUTO 07009KT 7SM BKN041 16/14 A3005 RMK AO2  T01610136,,,4100.0,,,56.45,,ENE,29.4,28.68,,Mostly Cloudy
KIGQ,05/22/2018 21:15 UTC,30.06,61.16,56.66,85.15,9.22,40.0,,,,,,412.0,,,,7.0,,KIGQ 222115Z AUTO 04008KT 7SM SCT041 16/14 A3006 RMK AO2  T01620137,,,,,,56.63,,NE,29.41,28.68,,Partly Cloudy
KIGQ,05/22/2018 21:35 UTC,30.06,59.9,55.76,86.19,5.75,40.0,,,,,,1.0,,,,7.0,,KIGQ 222135Z AUTO 04005KT 7SM CLR 16/13 A3006 RMK AO2  T01550132,,,,,,55.73,,NE,29.41,28.74,,Clear
KIGQ,05/22/2018 21:55 UTC,30.07,59.9,55.94,86.75,9.22,60.0,,,,,,413.0,,,,7.0,,KIGQ 222155Z AUTO 06008KT 7SM BKN041 16/13 A3007 RMK AO2  T01550133,,,4100.0,,,55.91,,ENE,29.42,28.74,,Mostly Cloudy
KIGQ,05/22/2018 22:15 UTC,30.06,59.0,55.22,87.27,8.05,30.0,,,,,,413.0,,,,7.0,,KIGQ 222215Z AUTO 03007KT 7SM BKN041 15/13 A3006 RMK AO2  T01500129,,,4100.0,,,55.19,,NNE,29.41,28.77,,Mostly Cloudy
KIGQ,05/22/2018 22:35 UTC,30.06,59.54,55.4,86.17,8.05,50.0,,,,,,412.0,,,,7.0,,KIGQ 222235Z AUTO 05007KT 7SM SCT041 15/13 A3006 RMK AO2  T01530130,,,,,,55.37,,NE,29.41,28.76,,Partly Cloudy
KIGQ,05/22/2018 22:55 UTC,30.05,58.28,54.86,88.39,4.61,10.0,,,,,,1.0,,,,10.0,,KIGQ 222255Z AUTO 01004KT 10SM CLR 15/13 A3005 RMK AO2  T01460127,,,,,,54.83,,N,29.4,28.78,,Clear
KIGQ,05/22/2018 23:15 UTC,30.05,58.46,54.86,87.82,4.61,20.0,,,,,,1.0,,,,7.0,,KIGQ 222315Z AUTO 02004KT 7SM CLR 15/13 A3005 RMK AO2  T01470127,,,,,,54.83,,NNE,29.4,28.78,,Clear
KIGQ,05/22/2018 23:35 UTC,30.05,59.0,55.04,86.7,8.05,40.0,,,,,,1.0,,,,7.0,,KIGQ 222335Z AUTO 04007KT 7SM CLR 15/13 A3005 RMK AO2  T01500128,,,,,,55.01,,NE,29.4,28.77,,Clear
KIGQ,05/22/2018 23:55 UTC,30.05,57.92,54.5,88.37,4.61,30.0,,,,,,1.0,,,,7.0,,KIGQ 222355Z AUTO 03004KT 7SM CLR 14/13 A3005 RMK AO2 T01440125  10176 20144,63.68,57.92,,,,54.47,,NNE,29.4,28.8,,Clear
KIGQ,05/23/2018 00:15 UTC,30.05,56.84,53.78,89.49,8.05,40.0,,,,,,1.0,,,,7.0,,KIGQ 230015Z AUTO 04007KT 7SM CLR 14/12 A3005 RMK AO2  T01380121,,,,,,53.75,,NE,29.4,28.85,,Clear
KIGQ,05/23/2018 00:35 UTC,30.06,55.76,53.6,92.44,8.05,40.0,,,,,,1.0,,,,7.0,,KIGQ 230035Z AUTO 04007KT 7SM CLR 13/12 A3006 RMK AO2  T01320120,,,,,,53.58,,NE,29.41,28.87,,Clear
KIGQ,05/23/2018 00:55 UTC,30.06,54.5,52.88,94.25,4.61,40.0,,,,,,1.0,,,,7.0,,KIGQ 230055Z AUTO 04004KT 7SM CLR 13/12 A3006 RMK AO2  T01250116,,,,,,52.86,,NE,29.41,28.92,,Clear
KIGQ,05/23/2018 01:15 UTC,30.07,53.6,52.34,95.48,4.61,40.0,,,,,,1.0,,,,10.0,,KIGQ 230115Z AUTO 04004KT 10SM CLR 12/11 A3007 RMK AO2  T01200113,,,,,,52.33,,NE,29.42,28.96,,Clear
KIGQ,05/23/2018 01:35 UTC,30.08,52.7,52.16,98.03,4.61,30.0,,,,,,1.0,,,,10.0,,KIGQ 230135Z AUTO 03004KT 10SM CLR 12/11 A3008 RMK AO2  T01150112,,,,,,52.15,,NNE,29.43,28.98,,Clear
KIGQ,05/23/2018 01:55 UTC,30.09,52.52,51.8,97.38,0.0,0.0,,,,,,1.0,,,,10.0,,KIGQ 230155Z AUTO 00000KT 10SM CLR 11/11 A3009 RMK AO2  T01140110,,,,,,51.79,,N,29.44,29.01,,Clear
KIGQ,05/23/2018 02:20 UTC,30.09,52.16,51.8,98.68,0.0,0.0,,,,,,1.0,,,,10.0,,KIGQ 230220Z AUTO 00000KT 10SM CLR 11/11 A3009 RMK AO2  T01120110,,,,,,51.8,,N,29.44,29.01,,Clear
KIGQ,05/23/2018 02:35 UTC,30.09,51.98,51.44,98.03,0.0,0.0,,,,,,1.0,,,,10.0,,KIGQ 230235Z AUTO 00000KT 10SM CLR 11/11 A3009 RMK AO2  T01110108,,,,,,51.43,,N,29.44,29.03,,Clear
KIGQ,05/23/2018 02:55 UTC,30.1,52.34,51.8,98.03,0.0,0.0,,,,,,1.0,,,,10.0,,KIGQ 230255Z AUTO 00000KT 10SM CLR 11/11 A3010 RMK AO2  T01130110,,,,,,51.79,,N,29.45,29.02,,Clear
KIGQ,05/23/2018 03:20 UTC,30.11,51.98,51.8,99.34,0.0,0.0,,,,,,1.0,,,,10.0,,KIGQ 230320Z AUTO 00000KT 10SM CLR 11/11 A3011 RMK AO2  T01110110,,,,,,51.8,,N,29.46,29.04,,Clear
KIGQ,05/23/2018 03:35 UTC,30.11,52.34,51.8,98.03,0.0,0.0,,,,,,1.0,,,,10.0,,KIGQ 230335Z AUTO 00000KT 10SM CLR 11/11 A3011 RMK AO2  T01130110,,,,,,51.79,,N,29.46,29.03,,Clear
KIGQ,05/23/2018 03:55 UTC,30.11,51.26,51.08,99.34,0.0,0.0,,,,,,1.0,,,,10.0,,KIGQ 230355Z AUTO 00000KT 10SM CLR 11/11 A3011 RMK AO2  T01070106,,,,,,51.08,,N,29.46,29.07,,Clear
KIGQ,05/23/2018 04:15 UTC,30.11,50.36,50.36,100.0,0.0,0.0,,,,,,1.0,,,,7.0,,KIGQ 230415Z AUTO 00000KT 7SM CLR 10/10 A3011 RMK AO2  T01020102,,,,,,50.36,,N,29.46,29.1,,Clear
KIGQ,05/23/2018 04:35 UTC,30.11,50.54,50.54,100.0,0.0,0.0,,,,,,1.0,,,,7.0,,KIGQ 230435Z AUTO 00000KT 7SM CLR 10/10 A3011 RMK AO2  T01030103,,,,,,50.54,,N,29.46,29.1,,Clear
KIGQ,05/23/2018 04:55 UTC,30.11,50.54,50.54,100.0,0.0,0.0,,31.0,,,,1.0,,,,5.0,,KIGQ 230455Z AUTO 00000KT 5SM BR CLR 10/10 A3011 RMK AO2  T01030103,,,,,,50.54,,N,29.46,29.1,,Mist
KIGQ,05/23/2018 05:15 UTC,30.11,50.54,50.54,100.0,0.0,0.0,,,,,,1.0,,,,7.0,,KIGQ 230515Z AUTO 00000KT 7SM CLR 10/10 A3011 RMK AO2  T01030103,,,,,,50.54,,N,29.46,29.1,,Clear
KIGQ,05/23/2018 05:35 UTC,30.11,50.18,50.18,100.0,0.0,0.0,,,,,,1.0,,,,7.0,,KIGQ 230535Z AUTO 00000KT 7SM CLR 10/10 A3011 RMK AO2  T01010101,,,,,,50.18,,N,29.46,29.11,,Clear
KIGQ,05/23/2018 05:55 UTC,30.11,50.18,50.18,100.0,0.0,0.0,,,,,,1.0,,,,7.0,,KIGQ 230555Z AUTO 00000KT 7SM CLR 10/10 A3011 RMK AO2 T01010101  10145 20100 401780100,58.1,50.0,,64.04,50.0,50.18,,N,29.46,29.11,,Clear
KIGQ,05/23/2018 06:15 UTC,30.11,49.28,49.28,100.0,0.0,0.0,,,,,,1.0,,,,7.0,,KIGQ 230615Z AUTO 00000KT 7SM CLR 10/10 A3011 RMK AO2  T00960096,,,,,,49.28,,N,29.46,29.15,,Clear
KIGQ,05/23/2018 06:35 UTC,30.12,49.28,49.28,100.0,0.0,0.0,,31.0,,,,1.0,,,,5.0,,KIGQ 230635Z AUTO 00000KT 5SM BR CLR 10/10 A3012 RMK AO2  T00960096,,,,,,49.28,,N,29.47,29.16,,Mist
KIGQ,05/23/2018 06:55 UTC,30.12,47.66,47.66,100.0,0.0,0.0,,31.0,,,,1.0,,,,3.0,,KIGQ 230655Z AUTO 00000KT 3SM BR CLR 09/09 A3012 RMK AO2  T00870087,,,,,,47.66,,N,29.47,29.23,,Mist
KIGQ,05/23/2018 07:15 UTC,30.12,48.56,48.56,100.0,0.0,0.0,,31.0,,,,1.0,,,,2.0,,KIGQ 230715Z AUTO 00000KT 2SM BR CLR 09/09 A3012 RMK AO2  T00920092,,,,,,48.56,,N,29.47,29.19,,Mist
KIGQ,05/23/2018 07:35 UTC,30.12,49.28,49.28,100.0,0.0,0.0,,31.0,,,,1.0,,,,3.0,,KIGQ 230735Z AUTO 00000KT 3SM BR CLR 10/10 A3012 RMK AO2  T00960096,,,,,,49.28,,N,29.47,29.16,,Mist
KIGQ,05/23/2018 07:55 UTC,30.12,49.28,49.28,100.0,0.0,0.0,,31.0,,,,1.0,,,,4.0,,KIGQ 230755Z AUTO 00000KT 4SM BR CLR 10/10 A3012 RMK AO2  T00960096,,,,,,49.28,,N,29.47,29.16,,Mist
KIGQ,05/23/2018 08:15 UTC,30.13,48.56,48.56,100.0,0.0,0.0,,31.0,,,,55.0,,,,0.75,,KIGQ 230815Z AUTO 00000KT 3/4SM BR VV005 09/09 A3013 RMK AO2  T00920092,,,500.0,,,48.56,,N,29.47,29.19,,Mist
KIGQ,05/23/2018 08:35 UTC,30.13,47.66,47.66,100.0,0.0,0.0,,31.0,,,,1.0,,,,2.5,,KIGQ 230835Z AUTO 00000KT 2 1/2SM BR CLR 09/09 A3013 RMK AO2  T00870087,,,,,,47.66,,N,29.47,29.23,,Mist
KIGQ,05/23/2018 08:55 UTC,30.14,48.02,48.02,100.0,0.0,0.0,,31.0,,,,1.0,,,,3.0,,KIGQ 230855Z AUTO 00000KT 3SM BR CLR 09/09 A3014 RMK AO2  T00890089,,,,,,48.02,,N,29.48,29.23,,Mist
KIGQ,05/23/2018 09:15 UTC,30.14,48.38,48.38,100.0,0.0,0.0,,31.0,,,,1.0,,,,5.0,,KIGQ 230915Z AUTO 00000KT 5SM BR CLR 09/09 A3014 RMK AO2  T00910091,,,,,,48.38,,N,29.48,29.21,,Mist
KIGQ,05/23/2018 09:35 UTC,30.14,47.84,47.84,100.0,0.0,0.0,,31.0,,,,1.0,,,,2.5,,KIGQ 230935Z AUTO 00000KT 2 1/2SM BR CLR 09/09 A3014 RMK AO2  T00880088,,,,,,47.84,,N,29.48,29.23,,Mist
KIGQ,05/23/2018 09:55 UTC,30.15,48.2,48.2,100.0,0.0,0.0,,31.0,,,,1.0,,,,4.0,,KIGQ 230955Z AUTO 00000KT 4SM BR CLR 09/09 A3015 RMK AO2  T00900090,,,,,,48.2,,N,29.49,29.23,,Mist
KIGQ,05/23/2018 10:15 UTC,30.16,48.2,48.2,100.0,0.0,0.0,,31.0,,,,1.0,,,,5.0,,KIGQ 231015Z AUTO 00000KT 5SM BR CLR 09/09 A3016 RMK AO2  T00900090,,,,,,48.2,,N,29.5,29.24,,Mist
KIGQ,05/23/2018 10:35 UTC,30.16,48.2,48.2,100.0,0.0,0.0,,31.0,,,,1.0,,,,4.0,,KIGQ 231035Z AUTO 00000KT 4SM BR CLR 09/09 A3016 RMK AO2  T00900090,,,,,,48.2,,N,29.5,29.24,,Mist
KIGQ,05/23/2018 10:55 UTC,30.17,48.2,48.2,100.0,0.0,0.0,,31.0,,,,1.0,,,,4.0,,KIGQ 231055Z AUTO 00000KT 4SM BR CLR 09/09 A3017 RMK AO2  T00900090,,,,,,48.2,,N,29.51,29.25,,Mist
KIGQ,05/23/2018 11:15 UTC,30.17,48.92,48.92,100.0,0.0,0.0,,31.0,,,,1.0,,,,4.0,,KIGQ 231115Z AUTO 00000KT 4SM BR CLR 09/09 A3017 RMK AO2  T00940094,,,,,,48.92,,N,29.51,29.22,,Mist
KIGQ,05/23/2018 11:35 UTC,30.18,50.9,50.9,100.0,0.0,0.0,,31.0,,,,1.0,,,,3.0,,KIGQ 231135Z AUTO 00000KT 3SM BR CLR 11/11 A3018 RMK AO2  T01050105,,,,,,50.9,,N,29.52,29.14,,Mist
KIGQ,05/23/2018 11:55 UTC,30.19,52.52,52.52,100.0,0.0,0.0,,31.0,,,,1.0,,,,3.0,,KIGQ 231155Z AUTO 00000KT 3SM BR CLR 11/11 A3019 RMK AO2 T01140114  10114 20085,52.52,47.3,,,,52.52,,N,29.53,29.07,,Mist
KIGQ,05/23/2018 12:15 UTC,30.2,54.14,54.14,100.0,0.0,0.0,,31.0,,,,1.0,,,,3.0,,KIGQ 231215Z AUTO 00000KT 3SM BR CLR 12/12 A3020 RMK AO2  T01230123,,,,,,54.14,,N,29.54,29.0,,Mist
KIGQ,05/23/2018 12:35 UTC,30.2,56.48,56.3,99.35,0.0,0.0,,31.0,,,,1.0,,,,3.0,,KIGQ 231235Z AUTO 00000KT 3SM BR CLR 14/14 A3020 RMK AO2  T01360135,,,,,,56.3,,N,29.54,28.89,,Mist
KIGQ,05/23/2018 12:55 UTC,30.2,57.02,56.66,98.71,0.0,0.0,,31.0,,,,1.0,,,,4.0,,KIGQ 231255Z AUTO 00000KT 4SM BR CLR 14/14 A3020 RMK AO2  T01390137,,,,,,56.66,,N,29.54,28.86,,Mist
KIGQ,05/23/2018 13:15 UTC,30.21,59.36,57.38,93.15,0.0,0.0,,31.0,,,,1.0,,,,5.0,,KIGQ 231315Z AUTO 00000KT 5SM BR CLR 15/14 A3021 RMK AO2  T01520141,,,,,,57.36,,N,29.55,28.81,,Mist
KIGQ,05/23/2018 13:35 UTC,30.2,61.88,57.56,85.74,3.44,80.0,,,,,,1.0,,,,7.0,,KIGQ 231335Z AUTO 08003KT 7SM CLR 17/14 A3020 RMK AO2  T01660142,,,,,,57.53,,E,29.54,28.77,,Clear
KIGQ,05/23/2018 13:55 UTC,30.21,63.86,58.28,82.08,0.0,0.0,,,,,,1.0,,,,10.0,,KIGQ 231355Z AUTO 00000KT 10SM CLR 18/15 A3021 RMK AO2  T01770146,,,,,,58.25,,N,29.55,28.72,,Clear
KIGQ,05/23/2018 14:15 UTC,30.21,65.66,59.36,80.13,0.0,0.0,,,,,,1.0,,,,10.0,,KIGQ 231415Z AUTO 00000KT 10SM CLR 19/15 A3021 RMK AO2  T01870152,,,,,,59.33,,N,29.55,28.64,,Clear
KIGQ,05/23/2018 14:35 UTC,30.21,66.92,60.26,79.21,3.44,50.0,,,,,,1.0,,,,10.0,,KIGQ 231435Z AUTO 05003KT 10SM CLR 19/16 A3021 RMK AO2  T01940157,,,,,,60.23,,NE,29.55,28.58,,Clear
KIGQ,05/23/2018 14:55 UTC,30.21,68.0,60.62,77.3,5.75,70.0,,,,,,1.0,,,,10.0,,KIGQ 231455Z AUTO 07005KT 10SM CLR 20/16 A3021 RMK AO2  T02000159,,,,,,60.59,,ENE,29.55,28.55,,Clear
KIGQ,05/23/2018 15:15 UTC,30.21,68.9,61.52,77.37,5.75,50.0,,,,,,1.0,,,,10.0,,KIGQ 231515Z AUTO 05005KT 10SM CLR 21/16 A3021 RMK AO2  T02050164,,,,,,61.49,,NE,29.55,28.49,,Clear
KIGQ,05/23/2018 15:35 UTC,30.21,69.62,61.34,75.02,3.44,100.0,,,,,,1.0,,,,10.0,,KIGQ 231535Z AUTO 10003KT 10SM CLR 21/16 A3021 RMK AO2  T02090163,,,,,,61.31,,E,29.55,28.49,,Clear
KIGQ,05/23/2018 15:55 UTC,30.21,70.16,62.06,75.54,4.61,70.0,,,,,,1.0,,,,10.0,,KIGQ 231555Z AUTO 07004KT 10SM CLR 21/17 A3021 RMK AO2  T02120167,,,,,,62.03,,ENE,29.55,28.44,,Clear
KIGQ,05/23/2018 16:15 UTC,30.21,69.98,60.08,70.86,0.0,0.0,,,,,,1.0,,,,10.0,,KIGQ 231615Z AUTO 00000KT 10SM CLR 21/16 A3021 RMK AO2  T02110156,,,,,,60.04,,N,29.55,28.55,,Clear
KIGQ,05/23/2018 16:35 UTC,30.21,71.42,61.16,70.12,4.61,10.0,,,,,,1.0,,,,10.0,,KIGQ 231635Z AUTO 01004KT 10SM CLR 22/16 A3021 RMK AO2  T02190162,,,,,,61.13,,N,29.55,28.48,,Clear
KIGQ,05/23/2018 16:55 UTC,30.21,71.6,59.18,64.96,3.44,150.0,,,,,,1.0,,,,10.0,,KIGQ 231655Z AUTO 15003KT 10SM CLR 22/15 A3021 RMK AO2  T02200151,,,,,,59.15,,SSE,29.55,28.58,,Clear
KIGQ,05/23/2018 17:15 UTC,30.21,72.68,60.8,66.35,4.61,70.0,,,,,,1.0,,,,10.0,,KIGQ 231715Z AUTO 07004KT 10SM CLR 23/16 A3021 RMK AO2  T02260160,,,,,,60.77,,ENE,29.55,28.48,,Clear
KIGQ,05/23/2018 17:35 UTC,30.21,72.86,61.52,67.65,0.0,0.0,,,,,,1.0,,,,10.0,,KIGQ 231735Z AUTO 00000KT 10SM CLR 23/16 A3021 RMK AO2  T02270164,,,,,,61.49,,N,29.55,28.44,,Clear
KIGQ,05/23/2018 17:55 UTC,30.21,73.76,61.34,65.22,3.44,30.0,,,,,,1.0,,,,10.0,,KIGQ 231755Z AUTO 03003KT 10SM CLR 23/16 A3021 RMK AO2 T02320163  10232 20115,73.76,52.7,,,,61.32,,NNE,29.55,28.44,,Clear
KIGQ,05/23/2018 18:15 UTC,30.21,74.3,57.02,54.9,0.0,0.0,,,,,,1.0,,,,10.0,,KIGQ 231815Z AUTO 00000KT 10SM CLR 24/14 A3021 RMK AO2  T02350139,,,,,,56.99,,N,29.55,28.67,,Clear
KIGQ,05/23/2018 18:35 UTC,30.21,74.66,56.84,53.89,3.44,70.0,,,,,,1.0,,,,10.0,,KIGQ 231835Z AUTO 07003KT 10SM CLR 24/14 A3021 RMK AO2  T02370138,,,,,,56.81,,ENE,29.55,28.67,,Clear
KIGQ,05/23/2018 18:55 UTC,30.2,75.2,57.38,53.97,4.61,10.0,,,,,,1.0,,,,10.0,,KIGQ 231855Z AUTO 01004KT 10SM CLR 24/14 A3020 RMK AO2  T02400141,,,,,,57.36,,N,29.54,28.63,,Clear
KIGQ,05/23/2018 19:15 UTC,30.2,75.2,57.74,54.67,5.75,20.0,,,,,,1.0,,,,10.0,,KIGQ 231915Z AUTO 02005KT 10SM CLR 24/14 A3020 RMK AO2  T02400143,,,,,,57.72,,NNE,29.54,28.61,,Clear
KIGQ,05/23/2018 19:35 UTC,30.19,75.38,56.3,51.6,9.22,40.0,,,,,,1.0,,,,10.0,,KIGQ 231935Z AUTO 04008KT 010V090 10SM CLR 24/14 A3019 RMK AO2  T02410135,,,,,,56.28,,NE,29.53,28.67,,Clear
KIGQ,05/23/2018 19:55 UTC,30.19,75.38,52.88,45.56,5.75,30.0,,,,,,1.0,,,,10.0,,KIGQ 231955Z AUTO 03005KT 10SM CLR 24/12 A3019 RMK AO2  T02410116,,,,,,52.86,,NNE,29.53,28.84,,Clear
KIGQ,05/23/2018 20:15 UTC,30.19,75.92,51.26,42.16,0.0,0.0,,,,,,1.0,,,,10.0,,KIGQ 232015Z AUTO 00000KT 10SM CLR 24/11 A3019 RMK AO2  T02440107,,,,,,51.24,,N,29.53,28.9,,Clear
KIGQ,05/23/2018 20:35 UTC,30.18,75.92,51.62,42.72,6.91,50.0,,,,,,1.0,,,,10.0,,KIGQ 232035Z AUTO 05006KT 10SM CLR 24/11 A3018 RMK AO2  T02440109,,,,,,51.6,,NE,29.52,28.88,,Clear
KIGQ,05/23/2018 20:55 UTC,30.17,75.92,53.42,45.64,6.91,60.0,,,,,,1.0,,,,10.0,,KIGQ 232055Z AUTO 06006KT 10SM CLR 24/12 A3017 RMK AO2  T02440119,,,,,,53.4,,ENE,29.51,28.79,,Clear
KIGQ,05/23/2018 21:15 UTC,30.16,75.2,53.42,46.75,4.61,50.0,,,,,,1.0,,,,7.0,,KIGQ 232115Z AUTO 05004KT 7SM CLR 24/12 A3016 RMK AO2  T02400119,,,,,,53.4,,NE,29.5,28.78,,Clear
KIGQ,05/23/2018 21:35 UTC,30.16,75.02,52.34,45.2,5.75,30.0,,,,,,1.0,,,,10.0,,KIGQ 232135Z AUTO 03005KT 10SM CLR 24/11 A3016 RMK AO2  T02390113,,,,,,52.31,,NNE,29.5,28.83,,Clear
KIGQ,05/23/2018 21:55 UTC,30.16,74.48,54.68,50.14,6.91,60.0,,,,,,1.0,,,,10.0,,KIGQ 232155Z AUTO 06006KT 10SM CLR 24/13 A3016 RMK AO2  T02360126,,,,,,54.65,,ENE,29.5,28.73,,Clear
KIGQ,05/23/2018 22:15 UTC,30.16,73.94,53.78,49.4,5.75,70.0,,6.0,,,,1.0,,,,5.0,,KIGQ 232215Z AUTO 07005KT 5SM HZ CLR 23/12 A3016 RMK AO2  T02330121,,,,,,53.74,,ENE,29.5,28.78,,Haze
KIGQ,05/23/2018 22:35 UTC,30.16,73.04,53.06,49.59,5.75,60.0,,,,,,1.0,,,,10.0,,KIGQ 232235Z AUTO 06005KT 10SM CLR 23/12 A3016 RMK AO2  T02280117,,,,,,53.02,,ENE,29.5,28.82,,Clear
KIGQ,05/23/2018 22:55 UTC,30.15,72.5,52.7,49.84,5.75,40.0,,,,,,1.0,,,,10.0,,KIGQ 232255Z AUTO 04005KT 10SM CLR 23/12 A3015 RMK AO2  T02250115,,,,,,52.66,,NE,29.49,28.83,,Clear
KIGQ,05/23/2018 23:15 UTC,30.15,71.6,53.6,53.1,5.75,40.0,,,,,,1.0,,,,7.0,,KIGQ 232315Z AUTO 04005KT 7SM CLR 22/12 A3015 RMK AO2  T02200120,,,,,,53.55,,NE,29.49,28.8,,Clear
KIGQ,05/23/2018 23:35 UTC,30.15,70.52,54.86,57.67,6.91,30.0,,,,,,1.0,,,,10.0,,KIGQ 232335Z AUTO 03006KT 10SM CLR 21/13 A3015 RMK AO2  T02140127,,,,,,54.81,,NNE,29.49,28.75,,Clear
KIGQ,05/23/2018 23:55 UTC,30.15,68.9,50.54,52.0,9.22,40.0,,,,,,1.0,,,,10.0,,KIGQ 232355Z AUTO 04008KT 10SM CLR 21/10 A3015 RMK AO2 T02050103  10245 20205,76.1,68.9,,,,50.47,,NE,29.49,28.95,,Clear
KIGQ,05/24/2018 00:15 UTC,30.16,68.18,51.8,55.84,5.75,50.0,,,,,,1.0,,,,10.0,,KIGQ 240015Z AUTO 05005KT 10SM CLR 20/11 A3016 RMK AO2  T02010110,,,,,,51.73,,NE,29.5,28.92,,Clear
KIGQ,05/24/2018 00:35 UTC,30.16,66.2,53.96,64.72,6.91,40.0,,,,,,1.0,,,,10.0,,KIGQ 240035Z AUTO 04006KT 10SM CLR 19/12 A3016 RMK AO2  T01900122,,,,,,53.9,,NE,29.5,28.84,,Clear
KIGQ,05/24/2018 00:55 UTC,30.16,64.58,54.5,69.83,4.61,50.0,,,,,,1.0,,,,10.0,,KIGQ 240055Z AUTO 05004KT 10SM CLR 18/13 A3016 RMK AO2  T01810125,,,,,,54.44,,NE,29.5,28.83,,Clear
KIGQ,05/24/2018 01:15 UTC,30.17,63.14,53.42,70.59,5.75,40.0,,,,,,1.0,,,,10.0,,KIGQ 240115Z AUTO 04005KT 10SM CLR 17/12 A3017 RMK AO2  T01730119,,,,,,53.36,,NE,29.51,28.91,,Clear
KIGQ,05/24/2018 01:35 UTC,30.18,62.24,53.96,74.31,4.61,40.0,,,,,,1.0,,,,10.0,,KIGQ 240135Z AUTO 04004KT 10SM CLR 17/12 A3018 RMK AO2  T01680122,,,,,,53.9,,NE,29.52,28.9,,Clear
KIGQ,05/24/2018 01:55 UTC,30.18,60.62,53.96,78.69,4.61,50.0,,,,,,1.0,,,,10.0,,KIGQ 240155Z AUTO 05004KT 10SM CLR 16/12 A3018 RMK AO2  T01590122,,,,,,53.91,,NE,29.52,28.92,,Clear
KIGQ,05/24/2018 02:15 UTC,30.18,60.8,54.5,79.74,5.75,50.0,,,,,,1.0,,,,10.0,,KIGQ 240215Z AUTO 05005KT 10SM CLR 16/13 A3018 RMK AO2  T01600125,,,,,,54.45,,NE,29.52,28.9,,Clear
KIGQ,05/24/2018 02:35 UTC,30.19,60.08,54.68,82.35,0.0,0.0,,,,,,1.0,,,,10.0,,KIGQ 240235Z AUTO 00000KT 10SM CLR 16/13 A3019 RMK AO2  T01560126,,,,,,54.64,,N,29.53,28.91,,Clear
KIGQ,05/24/2018 02:55 UTC,30.19,60.08,54.86,82.89,0.0,0.0,,,,,,1.0,,,,10.0,,KIGQ 240255Z AUTO 00000KT 10SM CLR 16/13 A3019 RMK AO2  T01560127,,,,,,54.82,,N,29.53,28.9,,Clear
KIGQ,05/24/2018 03:15 UTC,30.2,60.08,55.04,83.43,0.0,0.0,,,,,,1.0,,,,10.0,,KIGQ 240315Z AUTO 00000KT 10SM CLR 16/13 A3020 RMK AO2  T01560128,,,,,,55.0,,N,29.54,28.9,,Clear
KIGQ,05/24/2018 03:35 UTC,30.2,59.9,55.04,83.97,0.0,0.0,,,,,,1.0,,,,10.0,,KIGQ 240335Z AUTO 00000KT 10SM CLR 16/13 A3020 RMK AO2  T01550128,,,,,,55.0,,N,29.54,28.9,,Clear
KIGQ,05/24/2018 03:55 UTC,30.19,59.36,55.22,86.16,0.0,0.0,,,,,,1.0,,,,10.0,,KIGQ 240355Z AUTO 00000KT 10SM CLR 15/13 A3019 RMK AO2  T01520129,,,,,,55.19,,N,29.53,28.89,,Clear
KIGQ,05/24/2018 04:15 UTC,30.2,59.36,55.04,85.6,0.0,0.0,,,,,,1.0,,,,10.0,,KIGQ 240415Z AUTO 00000KT 10SM CLR 15/13 A3020 RMK AO2  T01520128,,,,,,55.01,,N,29.54,28.91,,Clear
KIGQ,05/24/2018 04:35 UTC,30.2,57.74,55.22,91.3,0.0,0.0,,,,,,1.0,,,,10.0,,KIGQ 240435Z AUTO 00000KT 10SM CLR 14/13 A3020 RMK AO2  T01430129,,,,,,55.2,,N,29.54,28.92,,Clear
KIGQ,05/24/2018 04:55 UTC,30.2,58.28,55.4,90.14,0.0,0.0,,,,,,1.0,,,,10.0,,KIGQ 240455Z AUTO 00000KT 10SM CLR 15/13 A3020 RMK AO2  T01460130,,,,,,55.38,,N,29.54,28.9,,Clear
KIGQ,05/24/2018 05:15 UTC,30.2,57.38,55.4,93.1,0.0,0.0,,,,,,1.0,,,,10.0,,KIGQ 240515Z AUTO 00000KT 10SM CLR 14/13 A3020 RMK AO2  T01410130,,,,,,55.38,,N,29.54,28.91,,Clear
KIGQ,05/24/2018 05:35 UTC,30.19,58.1,55.4,90.72,0.0,0.0,,,,,,1.0,,,,10.0,,KIGQ 240535Z AUTO 00000KT 10SM CLR 15/13 A3019 RMK AO2  T01450130,,,,,,55.38,,N,29.53,28.9,,Clear
KIGQ,05/24/2018 05:55 UTC,30.19,55.94,55.22,97.42,0.0,0.0,,,,,,1.0,,,,10.0,,KIGQ 240555Z AUTO 00000KT 10SM CLR 13/13 A3019 RMK AO2 T01330129  10205 20133 402450085,68.9,55.94,,76.1,47.3,55.21,,N,29.53,28.93,,Clear
KIGQ,05/24/2018 06:15 UTC,30.18,55.76,54.68,96.15,0.0,0.0,,,,,,1.0,,,,10.0,,KIGQ 240615Z AUTO 00000KT 10SM CLR 13/13 A3018 RMK AO2  T01320126,,,,,,54.67,,N,29.52,28.94,,Clear
KIGQ,05/24/2018 06:35 UTC,30.18,56.48,55.4,96.17,0.0,0.0,,,,,,1.0,,,,10.0,,KIGQ 240635Z AUTO 00000KT 10SM CLR 14/13 A3018 RMK AO2  T01360130,,,,,,55.39,,N,29.52,28.9,,Clear
KIGQ,05/24/2018 06:55 UTC,30.17,55.4,54.5,96.78,0.0,0.0,,,,,,1.0,,,,10.0,,KIGQ 240655Z AUTO 00000KT 10SM CLR 13/13 A3017 RMK AO2  T01300125,,,,,,54.49,,N,29.51,28.94,,Clear
KIGQ,05/24/2018 07:15 UTC,30.17,54.86,54.86,100.0,0.0,0.0,,,,,,1.0,,,,10.0,,KIGQ 240715Z AUTO 00000KT 10SM CLR 13/13 A3017 RMK AO2  T01270127,,,,,,54.86,,N,29.51,28.94,,Clear
KIGQ,05/24/2018 07:35 UTC,30.17,54.32,54.32,100.0,0.0,0.0,,,,,,1.0,,,,7.0,,KIGQ 240735Z AUTO 00000KT 7SM CLR 12/12 A3017 RMK AO2  T01240124,,,,,,54.32,,N,29.51,28.96,,Clear
KIGQ,05/24/2018 07:55 UTC,30.17,54.68,54.68,100.0,0.0,0.0,,,,,,1.0,,,,7.0,,KIGQ 240755Z AUTO 00000KT 7SM CLR 13/13 A3017 RMK AO2  T01260126,,,,,,54.68,,N,29.51,28.94,,Clear
KIGQ,05/24/2018 08:15 UTC,30.17,55.4,55.04,98.7,0.0,0.0,,,,,,1.0,,,,10.0,,KIGQ 240815Z AUTO 00000KT 10SM CLR 13/13 A3017 RMK AO2  T01300128,,,,,,55.04,,N,29.51,28.92,,Clear
KIGQ,05/24/2018 08:35 UTC,30.17,54.32,54.32,100.0,0.0,0.0,,,,,,1.0,,,,10.0,,KIGQ 240835Z AUTO 00000KT 10SM CLR 12/12 A3017 RMK AO2  T01240124,,,,,,54.32,,N,29.51,28.96,,Clear
KIGQ,05/24/2018 08:55 UTC,30.17,53.78,53.78,100.0,0.0,0.0,,,,,,1.0,,,,10.0,,KIGQ 240855Z AUTO 00000KT 10SM CLR 12/12 A3017 RMK AO2  T01210121,,,,,,53.78,,N,29.51,28.99,,Clear
KIGQ,05/24/2018 09:15 UTC,30.18,55.04,55.04,100.0,0.0,0.0,,,,,,1.0,,,,10.0,,KIGQ 240915Z AUTO 00000KT 10SM CLR 13/13 A3018 RMK AO2  T01280128,,,,,,55.04,,N,29.52,28.94,,Clear
KIGQ,05/24/2018 09:35 UTC,30.18,54.86,54.86,100.0,0.0,0.0,,,,,,1.0,,,,10.0,,KIGQ 240935Z AUTO 00000KT 10SM CLR 13/13 A3018 RMK AO2  T01270127,,,,,,54.86,,N,29.52,28.95,,Clear
KIGQ,05/24/2018 09:55 UTC,30.19,54.32,54.32,100.0,0.0,0.0,,,,,,1.0,,,,7.0,,KIGQ 240955Z AUTO 00000KT 7SM CLR 12/12 A3019 RMK AO2  T01240124,,,,,,54.32,,N,29.53,28.98,,Clear
KIGQ,05/24/2018 10:15 UTC,30.19,54.5,54.5,100.0,0.0,0.0,,,,,,1.0,,,,7.0,,KIGQ 241015Z AUTO 00000KT 7SM CLR 13/13 A3019 RMK AO2  T01250125,,,,,,54.5,,N,29.53,28.97,,Clear
KIGQ,05/24/2018 10:35 UTC,30.19,53.6,53.6,100.0,0.0,0.0,,,,,,1.0,,,,7.0,,KIGQ 241035Z AUTO 00000KT 7SM CLR 12/12 A3019 RMK AO2  T01200120,,,,,,53.6,,N,29.53,29.02,,Clear
KIGQ,05/24/2018 10:55 UTC,30.2,52.88,52.88,100.0,0.0,0.0,,31.0,,,,1.0,,,,5.0,,KIGQ 241055Z AUTO 00000KT 5SM BR CLR 12/12 A3020 RMK AO2  T01160116,,,,,,52.88,,N,29.54,29.07,,Mist
KIGQ,05/24/2018 11:15 UTC,30.21,53.96,53.96,100.0,0.0,0.0,,,,,,1.0,,,,7.0,,KIGQ 241115Z AUTO 00000KT 7SM CLR 12/12 A3021 RMK AO2  T01220122,,,,,,53.96,,N,29.55,29.02,,Clear
KIGQ,05/24/2018 11:35 UTC,30.21,56.48,56.48,100.0,0.0,0.0,,,,,,1.0,,,,7.0,,KIGQ 241135Z AUTO 00000KT 7SM CLR 14/14 A3021 RMK AO2  T01360136,,,,,,56.48,,N,29.55,28.89,,Clear
KIGQ,05/24/2018 11:55 UTC,30.21,59.72,58.46,95.6,0.0,0.0,,,,,,1.0,,,,10.0,,KIGQ 241155Z AUTO 00000KT 10SM CLR 15/15 A3021 RMK AO2 T01540147  10154 20114,59.72,52.52,,,,58.45,,N,29.55,28.76,,Clear
KIGQ,05/24/2018 12:15 UTC,30.22,62.6,60.08,91.48,0.0,0.0,,,,,,1.0,,,,10.0,,KIGQ 241215Z AUTO 00000KT 10SM CLR 17/16 A3022 RMK AO2  T01700156,,,,,,60.06,,N,29.56,28.65,,Clear
KIGQ,05/24/2018 12:35 UTC,30.22,64.94,61.16,87.58,0.0,0.0,,,,,,1.0,,,,10.0,,KIGQ 241235Z AUTO 00000KT 10SM CLR 18/16 A3022 RMK AO2  T01830162,,,,,,61.14,,N,29.56,28.57,,Clear
KIGQ,05/24/2018 12:55 UTC,30.22,68.72,60.26,74.45,6.91,190.0,,,,,,1.0,,,,10.0,,KIGQ 241255Z AUTO 19006KT 10SM CLR 20/16 A3022 RMK AO2  T02040157,,,,,,60.22,,S,29.56,28.57,,Clear
KIGQ,05/24/2018 13:15 UTC,30.23,70.34,61.34,73.2,4.61,190.0,,,,,,1.0,,,,10.0,,KIGQ 241315Z AUTO 19004KT 10SM CLR 21/16 A3023 RMK AO2  T02130163,,,,,,61.31,,S,29.57,28.5,,Clear
KIGQ,05/24/2018 13:35 UTC,30.22,71.6,60.62,68.37,6.91,180.0,,,,,,1.0,,,,10.0,,KIGQ 241335Z AUTO 18006KT 10SM CLR 22/16 A3022 RMK AO2  T02200159,,,,,,60.59,,S,29.56,28.52,,Clear
KIGQ,05/24/2018 13:55 UTC,30.22,73.04,60.8,65.55,5.75,180.0,,,,,,1.0,,,,10.0,,KIGQ 241355Z AUTO 18005KT 10SM CLR 23/16 A3022 RMK AO2  T02280160,,,,,,60.77,,S,29.56,28.49,,Clear
KIGQ,05/24/2018 14:15 UTC,30.22,74.3,61.52,64.46,6.91,170.0,,,,,,1.0,,,,10.0,,KIGQ 241415Z AUTO 17006KT 10SM CLR 24/16 A3022 RMK AO2  T02350164,,,,,,61.5,,S,29.56,28.43,,Clear
KIGQ,05/24/2018 14:35 UTC,30.21,75.56,61.52,61.81,8.05,180.0,,,,,,1.0,,,,10.0,,KIGQ 241435Z AUTO 18007KT 10SM CLR 24/16 A3021 RMK AO2  T02420164,,,,,,61.51,,S,29.55,28.41,,Clear
KIGQ,05/24/2018 14:55 UTC,30.21,76.28,60.62,58.46,8.05,180.0,,,,,,1.0,,,,10.0,,KIGQ 241455Z AUTO 18007KT 10SM CLR 25/16 A3021 RMK AO2  T02460159,,,,,,60.61,,S,29.55,28.45,,Clear
KIGQ,05/24/2018 15:15 UTC,30.2,77.18,61.52,58.58,9.22,180.0,,,,,,1.0,,,,10.0,,KIGQ 241515Z AUTO 18008KT 10SM CLR 25/16 A3020 RMK AO2  T02510164,,,,,,61.51,,S,29.54,28.38,,Clear
KIGQ,05/24/2018 15:35 UTC,30.2,77.9,60.44,55.06,10.36,200.0,,,,,,1.0,,,,10.0,,KIGQ 241535Z AUTO 20009KT 10SM CLR 26/16 A3020 RMK AO2  T02550158,,,,,,60.44,,SSW,29.54,28.44,,Clear
KIGQ,05/24/2018 15:55 UTC,30.19,78.44,60.26,53.74,6.91,180.0,,,,,,1.0,,,,10.0,,KIGQ 241555Z AUTO 18006KT 160V220 10SM CLR 26/16 A3019 RMK AO2  T02580157,,,,,,60.26,,S,29.53,28.43,,Clear
KIGQ,05/24/2018 16:15 UTC,30.2,78.62,59.9,52.75,6.91,210.0,,,,,,1.0,,,,10.0,,KIGQ 241615Z AUTO 21006KT 10SM CLR 26/16 A3020 RMK AO2  T02590155,,,,,,59.91,,SSW,29.54,28.46,,Clear
KIGQ,05/24/2018 16:35 UTC,30.19,79.16,59.9,51.82,5.75,170.0,,,,,,1.0,,,,10.0,,KIGQ 241635Z AUTO 17005KT 10SM CLR 26/16 A3019 RMK AO2  T02620155,,,,,,59.91,,S,29.53,28.45,,Clear
KIGQ,05/24/2018 16:55 UTC,30.18,79.52,59.0,49.6,4.61,210.0,,,,,,1.0,,,,10.0,,KIGQ 241655Z AUTO 21004KT 10SM CLR 26/15 A3018 RMK AO2  T02640150,,,,,,59.01,,SSW,29.52,28.48,,Clear
KIGQ,05/24/2018 17:15 UTC,30.18,79.88,59.0,49.02,4.61,190.0,9.22,,,,,1.0,,,,10.0,,KIGQ 241715Z AUTO 19004G08KT 10SM CLR 27/15 A3018 RMK AO2  T02660150,,,,,,59.02,,S,29.52,28.48,,Clear
KIGQ,05/24/2018 17:35 UTC,30.17,80.6,60.44,50.4,3.44,210.0,,,,,,1.0,,,,10.0,,KIGQ 241735Z AUTO 21003KT 10SM CLR 27/16 A3017 RMK AO2  T02700158,,,,,,60.46,,SSW,29.51,28.38,81.39,Clear
KIGQ,05/24/2018 17:55 UTC,30.16,80.96,60.62,50.13,5.75,140.0,,,,,,1.0,,,,10.0,,KIGQ 241755Z AUTO 14005KT 10SM CLR 27/16 A3016 RMK AO2 T02720159  10272 20156,80.96,60.08,,,,60.64,,SE,29.5,28.36,81.71,Clear
KIGQ,05/24/2018 18:15 UTC,30.15,81.32,59.36,47.38,0.0,0.0,,,,,,1.0,,,,10.0,,KIGQ 241815Z AUTO 00000KT 10SM CLR 27/15 A3015 RMK AO2  T02740152,,,,,,59.39,,N,29.49,28.41,81.73,Clear
KIGQ,05/24/2018 18:35 UTC,30.15,81.68,60.62,48.98,5.75,150.0,,,,,,1.0,,,,10.0,,KIGQ 241835Z AUTO 15005KT 10SM CLR 28/16 A3015 RMK AO2  T02760159,,,,,,60.66,,SSE,29.49,28.34,82.29,Clear
KIGQ,05/24/2018 18:55 UTC,30.13,81.68,58.82,45.94,3.44,130.0,,,,,,1.0,,,,10.0,,KIGQ 241855Z AUTO 13003KT 10SM CLR 28/15 A3013 RMK AO2  T02760149,,,,,,58.86,,SE,29.47,28.42,81.89,Clear
KIGQ,05/24/2018 19:15 UTC,30.13,82.04,59.36,46.29,3.44,200.0,,,,,,1.0,,,,10.0,,KIGQ 241915Z AUTO 20003KT 10SM CLR 28/15 A3013 RMK AO2  T02780152,,,,,,59.4,,SSW,29.47,28.39,82.28,Clear
KIGQ,05/24/2018 19:35 UTC,30.13,82.76,59.18,44.93,3.44,100.0,,,,,,1.0,,,,10.0,,KIGQ 241935Z AUTO 10003KT 10SM CLR 28/15 A3013 RMK AO2  T02820151,,,,,,59.23,,E,29.47,28.39,82.8,Clear
KIGQ,05/24/2018 19:55 UTC,30.13,82.58,59.54,45.78,0.0,0.0,,,,,,1.0,,,,10.0,,KIGQ 241955Z AUTO 00000KT 10SM CLR 28/15 A3013 RMK AO2  T02810153,,,,,,59.59,,N,29.47,28.37,82.75,Clear
KIGQ,05/24/2018 20:15 UTC,30.12,83.12,60.08,45.86,5.75,150.0,,,,,,1.0,,,,10.0,,KIGQ 242015Z AUTO 15005KT 10SM CLR 28/16 A3012 RMK AO2  T02840156,,,,,,60.13,,SSE,29.47,28.34,83.32,Clear
KIGQ,05/24/2018 20:35 UTC,30.11,83.12,60.26,46.16,4.61,120.0,,,,,,1.0,,,,10.0,,KIGQ 242035Z AUTO 12004KT 10SM CLR 28/16 A3011 RMK AO2  T02840157,,,,,,60.31,,ESE,29.46,28.32,83.37,Clear
KIGQ,05/24/2018 20:55 UTC,30.11,83.48,60.62,46.21,4.61,120.0,,,,,,1.0,,,,10.0,,KIGQ 242055Z AUTO 12004KT 10SM CLR 29/16 A3011 RMK AO2  T02860159,,,,,,60.67,,ESE,29.46,28.29,83.78,Clear
KIGQ,05/24/2018 21:15 UTC,30.1,83.66,60.08,45.07,6.91,140.0,,,,,,1.0,,,,10.0,,KIGQ 242115Z AUTO 14006KT 10SM CLR 29/16 A3010 RMK AO2  T02870156,,,,,,60.14,,SE,29.45,28.31,83.78,Clear
KIGQ,05/24/2018 21:35 UTC,30.09,83.84,60.98,46.27,4.61,120.0,,,,,,1.0,,,,10.0,,KIGQ 242135Z AUTO 12004KT 10SM CLR 29/16 A3009 RMK AO2  T02880161,,,,,,61.04,,ESE,29.44,28.25,84.19,Clear
KIGQ,05/24/2018 21:55 UTC,30.08,83.66,59.54,44.21,0.0,0.0,,,,,,1.0,,,,10.0,,KIGQ 242155Z AUTO 00000KT 10SM CLR 29/15 A3008 RMK AO2  T02870153,,,,,,59.6,,N,29.43,28.32,83.63,Clear
KIGQ,05/24/2018 22:15 UTC,30.08,83.66,59.54,44.21,0.0,0.0,,,,,,1.0,,,,10.0,,KIGQ 242215Z AUTO 00000KT 10SM CLR 29/15 A3008 RMK AO2  T02870153,,,,,,59.6,,N,29.43,28.32,83.63,Clear
KIGQ,05/24/2018 22:35 UTC,30.07,83.3,59.36,44.44,5.75,130.0,,,,,,1.0,,,,10.0,,KIGQ 242235Z AUTO 13005KT 10SM CLR 29/15 A3007 RMK AO2  T02850152,,,,,,59.41,,SE,29.42,28.33,83.28,Clear
KIGQ,05/24/2018 22:55 UTC,30.06,83.3,58.64,43.31,5.75,130.0,,,,,,1.0,,,,10.0,,KIGQ 242255Z AUTO 13005KT 10SM CLR 29/15 A3006 RMK AO2  T02850148,,,,,,58.69,,SE,29.41,28.36,83.1,Clear
KIGQ,05/24/2018 23:15 UTC,30.05,83.12,58.82,43.85,4.61,170.0,,,,,,1.0,,,,10.0,,KIGQ 242315Z AUTO 17004KT 10SM CLR 28/15 A3005 RMK AO2  T02840149,,,,,,58.87,,S,29.4,28.34,83.0,Clear
KIGQ,05/24/2018 23:35 UTC,30.04,82.04,59.54,46.59,0.0,0.0,,,,,,1.0,,,,10.0,,KIGQ 242335Z AUTO 00000KT 10SM CLR 28/15 A3004 RMK AO2  T02780153,,,,,,59.58,,N,29.39,28.3,82.32,Clear
KIGQ,05/24/2018 23:55 UTC,30.04,81.14,58.1,45.56,4.61,140.0,,,,,,1.0,,,,10.0,,KIGQ 242355Z AUTO 14004KT 10SM CLR 27/15 A3004 RMK AO2 T02730145  10289 20272,84.02,80.96,,,,58.13,,SE,29.39,28.38,81.35,Clear
KIGQ,05/25/2018 00:15 UTC,30.04,80.24,57.92,46.61,5.75,140.0,,,,,,1.0,,,,10.0,,KIGQ 250015Z AUTO 14005KT 10SM CLR 27/14 A3004 RMK AO2  T02680144,,,,,,57.94,,SE,29.39,28.4,80.69,Clear
KIGQ,05/25/2018 00:35 UTC,30.04,79.16,58.1,48.6,4.61,130.0,,,,,,1.0,,,,10.0,,KIGQ 250035Z AUTO 13004KT 10SM CLR 26/15 A3004 RMK AO2  T02620145,,,,,,58.11,,SE,29.39,28.4,,Clear
KIGQ,05/25/2018 00:55 UTC,30.04,77.72,58.46,51.61,4.61,100.0,,,,,,1.0,,,,10.0,,KIGQ 250055Z AUTO 10004KT 10SM CLR 25/15 A3004 RMK AO2  T02540147,,,,,,58.46,,E,29.39,28.4,,Clear
KIGQ,05/25/2018 01:15 UTC,30.04,76.1,58.64,54.8,5.75,80.0,,,,,,1.0,,,,10.0,,KIGQ 250115Z AUTO 08005KT 10SM CLR 25/15 A3004 RMK AO2  T02450148,,,,,,58.62,,E,29.39,28.4,,Clear
KIGQ,05/25/2018 01:35 UTC,30.04,74.3,58.82,58.56,4.61,80.0,,,,,,1.0,,,,10.0,,KIGQ 250135Z AUTO 08004KT 10SM CLR 24/15 A3004 RMK AO2  T02350149,,,,,,58.79,,E,29.39,28.41,,Clear
KIGQ,05/25/2018 01:55 UTC,30.04,74.3,58.64,58.19,4.61,80.0,,,,,,1.0,,,,10.0,,KIGQ 250155Z AUTO 08004KT 10SM CLR 24/15 A3004 RMK AO2  T02350148,,,,,,58.62,,E,29.39,28.42,,Clear
KIGQ,05/25/2018 02:15 UTC,30.04,72.68,59.18,62.63,3.44,90.0,,,,,,1.0,,,,10.0,,KIGQ 250215Z AUTO 09003KT 10SM CLR 23/15 A3004 RMK AO2  T02260151,,,,,,59.15,,E,29.39,28.41,,Clear
KIGQ,05/25/2018 02:35 UTC,30.04,71.24,59.18,65.75,5.75,100.0,,,,,,1.0,,,,10.0,,KIGQ 250235Z AUTO 10005KT 10SM CLR 22/15 A3004 RMK AO2  T02180151,,,,,,59.14,,E,29.39,28.43,,Clear
KIGQ,05/25/2018 02:55 UTC,30.04,70.88,59.54,67.42,4.61,130.0,,,,,,1.0,,,,10.0,,KIGQ 250255Z AUTO 13004KT 10SM CLR 22/15 A3004 RMK AO2  T02160153,,,,,,59.5,,SE,29.39,28.41,,Clear
KIGQ,05/25/2018 03:15 UTC,30.04,70.52,57.74,63.99,3.44,140.0,,,,,,1.0,,,,10.0,,KIGQ 250315Z AUTO 14003KT 10SM CLR 21/14 A3004 RMK AO2  T02140143,,,,,,57.7,,SE,29.39,28.51,,Clear
KIGQ,05/25/2018 03:35 UTC,30.04,68.72,57.2,66.74,4.61,150.0,,,,,,1.0,,,,10.0,,KIGQ 250335Z AUTO 15004KT 10SM CLR 20/14 A3004 RMK AO2  T02040140,,,,,,57.15,,SSE,29.39,28.55,,Clear
KIGQ,05/25/2018 03:55 UTC,30.04,71.24,55.94,58.53,3.44,160.0,,,,,,1.0,,,,10.0,,KIGQ 250355Z AUTO 16003KT 10SM CLR 22/13 A3004 RMK AO2  T02180133,,,,,,55.9,,SSE,29.39,28.59,,Clear
KIGQ,05/25/2018 04:15 UTC,30.04,66.56,56.3,69.59,0.0,0.0,,,,,,1.0,,,,10.0,,KIGQ 250415Z AUTO 00000KT 10SM CLR 19/14 A3004 RMK AO2  T01920135,,,,,,56.25,,N,29.39,28.62,,Clear
KIGQ,05/25/2018 04:35 UTC,30.04,67.46,54.14,62.37,0.0,0.0,,,,,,1.0,,,,10.0,,KIGQ 250435Z AUTO 00000KT 10SM CLR 20/12 A3004 RMK AO2  T01970123,,,,,,54.08,,N,29.39,28.71,,Clear
KIGQ,05/25/2018 04:55 UTC,30.04,66.74,54.5,64.78,4.61,170.0,,,,,,1.0,,,,10.0,,KIGQ 250455Z AUTO 17004KT 10SM CLR 19/13 A3004 RMK AO2  T01930125,,,,,,54.44,,S,29.39,28.7,,Clear
KIGQ,05/25/2018 05:15 UTC,30.04,65.3,54.68,68.55,3.44,170.0,,,,,,1.0,,,,10.0,,KIGQ 250515Z AUTO 17003KT 10SM CLR 19/13 A3004 RMK AO2  T01850126,,,,,,54.62,,S,29.39,28.71,,Clear
KIGQ,05/25/2018 05:35 UTC,30.04,65.12,53.42,65.87,4.61,170.0,,,,,,1.0,,,,10.0,,KIGQ 250535Z AUTO 17004KT 10SM CLR 18/12 A3004 RMK AO2  T01840119,,,,,,53.35,,S,29.39,28.76,,Clear
KIGQ,05/25/2018 05:55 UTC,30.04,65.66,52.7,62.97,4.61,180.0,,,,,,1.0,,,,10.0,,KIGQ 250555Z AUTO 18004KT 10SM CLR 19/12 A3004 RMK AO2 T01870115  10272 20183 402890114,80.96,64.94,,84.02,52.52,52.63,,S,29.39,28.79,,Clear
KIGQ,05/25/2018 06:15 UTC,30.03,65.66,52.34,62.14,5.75,180.0,,,,,,1.0,,,,10.0,,KIGQ 250615Z AUTO 18005KT 10SM CLR 19/11 A3003 RMK AO2  T01870113,,,,,,52.27,,S,29.38,28.79,,Clear
KIGQ,05/25/2018 06:35 UTC,30.02,64.94,51.8,62.46,4.61,170.0,,,,,,1.0,,,,10.0,,KIGQ 250635Z AUTO 17004KT 10SM CLR 18/11 A3002 RMK AO2  T01830110,,,,,,51.73,,S,29.37,28.81,,Clear
KIGQ,05/25/2018 06:55 UTC,30.02,65.66,52.34,62.14,0.0,0.0,,,,,,1.0,,,,10.0,,KIGQ 250655Z AUTO 00000KT 10SM CLR 19/11 A3002 RMK AO2  T01870113,,,,,,52.27,,N,29.37,28.78,,Clear
KIGQ,05/25/2018 07:15 UTC,30.01,64.4,51.26,62.39,0.0,0.0,,,,,,1.0,,,,10.0,,KIGQ 250715Z AUTO 00000KT 10SM CLR 18/11 A3001 RMK AO2  T01800107,,,,,,51.19,,N,29.36,28.83,,Clear
KIGQ,05/25/2018 07:35 UTC,30.01,65.66,51.62,60.51,0.0,0.0,,,,,,1.0,,,,10.0,,KIGQ 250735Z AUTO 00000KT 10SM CLR 19/11 A3001 RMK AO2  T01870109,,,,,,51.55,,N,29.36,28.8,,Clear
KIGQ,05/25/2018 07:55 UTC,30.01,62.24,53.6,73.34,0.0,0.0,,,,,,1.0,,,,10.0,,KIGQ 250755Z AUTO 00000KT 10SM CLR 17/12 A3001 RMK AO2  T01680120,,,,,,53.54,,N,29.36,28.76,,Clear
KIGQ,05/25/2018 08:15 UTC,30.01,63.32,52.52,67.87,0.0,0.0,,,,,,1.0,,,,10.0,,KIGQ 250815Z AUTO 00000KT 10SM CLR 17/11 A3001 RMK AO2  T01740114,,,,,,52.45,,N,29.36,28.79,,Clear
KIGQ,05/25/2018 08:35 UTC,30.01,63.86,51.98,65.29,0.0,0.0,,,,,,1.0,,,,10.0,,KIGQ 250835Z AUTO 00000KT 10SM CLR 18/11 A3001 RMK AO2  T01770111,,,,,,51.91,,N,29.36,28.81,,Clear
KIGQ,05/25/2018 08:55 UTC,30.0,62.96,52.16,67.83,0.0,0.0,,,,,,1.0,,,,10.0,,KIGQ 250855Z AUTO 00000KT 10SM CLR 17/11 A3000 RMK AO2  T01720112,,,,,,52.09,,N,29.35,28.8,,Clear
KIGQ,05/25/2018 09:15 UTC,29.99,62.96,52.7,69.19,0.0,0.0,,,,,,1.0,,,,10.0,,KIGQ 250915Z AUTO 00000KT 10SM CLR 17/12 A2999 RMK AO2  T01720115,,,,,,52.64,,N,29.34,28.77,,Clear
KIGQ,05/25/2018 09:35 UTC,29.99,63.5,53.24,69.25,0.0,0.0,,,,,,1.0,,,,10.0,,KIGQ 250935Z AUTO 00000KT 10SM CLR 18/12 A2999 RMK AO2  T01750118,,,,,,53.18,,N,29.34,28.74,,Clear
KIGQ,05/25/2018 09:55 UTC,29.99,64.04,53.6,68.85,0.0,0.0,,,,,,1.0,,,,10.0,,KIGQ 250955Z AUTO 00000KT 10SM CLR 18/12 A2999 RMK AO2  T01780120,,,,,,53.54,,N,29.34,28.72,,Clear
KIGQ,05/25/2018 10:15 UTC,29.99,60.98,53.96,77.69,3.44,200.0,,,,,,1.0,,,,10.0,,KIGQ 251015Z AUTO 20003KT 10SM CLR 16/12 A2999 RMK AO2  T01610122,,,,,,53.91,,SSW,29.34,28.73,,Clear
KIGQ,05/25/2018 10:35 UTC,29.98,60.98,54.14,78.2,3.44,170.0,,,,,,1.0,,,,10.0,,KIGQ 251035Z AUTO 17003KT 10SM CLR 16/12 A2998 RMK AO2  T01610123,,,,,,54.09,,S,29.33,28.71,,Clear
KIGQ,05/25/2018 10:55 UTC,29.98,61.88,54.5,76.76,0.0,0.0,,,,,,1.0,,,,10.0,,KIGQ 251055Z AUTO 00000KT 10SM CLR 17/13 A2998 RMK AO2  T01660125,,,,,,54.45,,N,29.33,28.69,,Clear
KIGQ,05/25/2018 11:15 UTC,29.97,62.78,55.4,76.84,3.44,180.0,,,,,,1.0,,,,10.0,,KIGQ 251115Z AUTO 18003KT 10SM CLR 17/13 A2997 RMK AO2  T01710130,,,,,,55.35,,S,29.32,28.63,,Clear
KIGQ,05/25/2018 11:35 UTC,29.97,64.58,58.1,79.53,3.44,200.0,,,,,,1.0,,,,10.0,,KIGQ 251135Z AUTO 20003KT 10SM CLR 18/15 A2997 RMK AO2  T01810145,,,,,,58.06,,SSW,29.32,28.48,,Clear
KIGQ,05/25/2018 11:55 UTC,29.97,67.1,58.46,73.82,4.61,210.0,,,,,,1.0,,,,10.0,,KIGQ 251155Z AUTO 21004KT 10SM CLR 20/15 A2997 RMK AO2 T01950147  10195 20155,67.1,59.9,,,,58.42,,SSW,29.32,28.44,,Clear
KIGQ,05/25/2018 12:15 UTC,29.97,68.18,59.18,72.98,6.91,190.0,,,,,,1.0,,,,10.0,,KIGQ 251215Z AUTO 19006KT 10SM CLR 20/15 A2997 RMK AO2  T02010151,,,,,,59.14,,S,29.32,28.39,,Clear
KIGQ,05/25/2018 12:35 UTC,29.97,69.98,59.72,69.96,5.75,210.0,,,,,,1.0,,,,10.0,,KIGQ 251235Z AUTO 21005KT 10SM CLR 21/15 A2997 RMK AO2  T02110154,,,,,,59.68,,SSW,29.32,28.34,,Clear
KIGQ,05/25/2018 12:55 UTC,29.97,71.96,60.8,67.98,5.75,210.0,,,,,,1.0,,,,10.0,,KIGQ 251255Z AUTO 21005KT 10SM CLR 22/16 A2997 RMK AO2  T02220160,,,,,,60.77,,SSW,29.32,28.26,,Clear
KIGQ,05/25/2018 13:15 UTC,29.97,73.58,61.16,65.2,6.91,210.0,,,,,,1.0,,,,10.0,,KIGQ 251315Z AUTO 21006KT 10SM CLR 23/16 A2997 RMK AO2  T02310162,,,,,,61.14,,SSW,29.32,28.22,,Clear
KIGQ,05/25/2018 13:35 UTC,29.97,75.2,61.7,62.95,8.05,210.0,,,,,,1.0,,,,10.0,,KIGQ 251335Z AUTO 21007KT 10SM CLR 24/17 A2997 RMK AO2  T02400165,,,,,,61.68,,SSW,29.32,28.17,,Clear
KIGQ,05/25/2018 13:55 UTC,29.97,76.46,61.88,60.76,9.22,200.0,,,,,,1.0,,,,10.0,,KIGQ 251355Z AUTO 20008KT 10SM CLR 25/17 A2997 RMK AO2  T02470166,,,,,,61.87,,SSW,29.32,28.15,,Clear
KIGQ,05/25/2018 14:15 UTC,29.96,77.9,61.7,57.57,8.05,220.0,,,,,,1.0,,,,10.0,,KIGQ 251415Z AUTO 22007KT 10SM CLR 26/17 A2996 RMK AO2  T02550165,,,,,,61.7,,SW,29.31,28.13,,Clear
KIGQ,05/25/2018 14:35 UTC,29.96,79.34,62.6,56.68,6.91,220.0,,,,,,1.0,,,,10.0,,KIGQ 251435Z AUTO 22006KT 10SM CLR 26/17 A2996 RMK AO2  T02630170,,,,,,62.61,,SW,29.31,28.06,,Clear
KIGQ,05/25/2018 14:55 UTC,29.95,80.42,62.42,54.37,9.22,220.0,,,,,,1.0,,,,10.0,,KIGQ 251455Z AUTO 22008KT 10SM CLR 27/17 A2995 RMK AO2  T02690169,,,,,,62.44,,SW,29.3,28.05,81.66,Clear
KIGQ,05/25/2018 15:15 UTC,29.94,81.32,62.96,53.81,10.36,210.0,,,,,,1.0,,,,10.0,,KIGQ 251515Z AUTO 21009KT 10SM CLR 27/17 A2994 RMK AO2  T02740172,,,,,,62.98,,SSW,29.29,28.0,82.57,Clear
KIGQ,05/25/2018 15:35 UTC,29.94,82.4,64.04,53.97,6.91,220.0,,,,,,1.0,,,,10.0,,KIGQ 251535Z AUTO 22006KT 10SM CLR 28/18 A2994 RMK AO2  T02800178,,,,,,64.08,,SW,29.29,27.92,83.88,Clear
KIGQ,05/25/2018 15:55 UTC,29.93,82.76,62.78,51.04,6.91,250.0,,,,,,1.0,,,,10.0,,KIGQ 251555Z AUTO 25006KT 10SM CLR 28/17 A2993 RMK AO2  T02820171,,,,,,62.82,,WSW,29.28,27.98,83.8,Clear
KIGQ,05/25/2018 16:15 UTC,29.94,83.84,63.68,50.88,8.05,230.0,,,,,,1.0,,,,10.0,,KIGQ 251615Z AUTO 23007KT 10SM CLR 29/18 A2994 RMK AO2  T02880176,,,,,,63.73,,SW,29.29,27.92,85.11,Clear
KIGQ,05/25/2018 16:35 UTC,29.93,84.38,63.5,49.69,6.91,220.0,,,,,,1.0,,,,10.0,,KIGQ 251635Z AUTO 22006KT 10SM CLR 29/18 A2993 RMK AO2  T02910175,,,,,,63.56,,SW,29.28,27.92,85.55,Clear
KIGQ,05/25/2018 16:55 UTC,29.93,84.2,62.6,48.42,6.91,250.0,,,,,,752.0,,,,10.0,,KIGQ 251655Z AUTO 25006KT 10SM SCT075 29/17 A2993 RMK AO2  T02900170,,,,,,62.66,,WSW,29.28,27.98,85.05,Partly Cloudy
KIGQ,05/25/2018 17:15 UTC,29.92,84.38,63.32,49.38,6.91,230.0,,,,,,652.0,853.0,,,10.0,,KIGQ 251715Z AUTO 23006KT 10SM SCT065 BKN085 29/17 A2992 RMK AO2  T02910174,,,8500.0,,,63.38,,SW,29.27,27.92,85.49,Mostly Cloudy
KIGQ,05/25/2018 17:35 UTC,29.91,85.46,63.68,48.31,9.22,230.0,,,,,,652.0,852.0,,,10.0,,KIGQ 251735Z AUTO 23008KT 190V270 10SM SCT065 SCT085 30/18 A2991 RMK AO2 T02970176,,,,,,63.75,,SW,29.26,27.88,86.67,Partly Cloudy
KIGQ,05/25/2018 17:55 UTC,29.91,86.18,62.6,45.46,5.75,210.0,,,,,,652.0,,,,10.0,,KIGQ 251755Z AUTO 21005KT 10SM SCT065 30/17 A2991 RMK AO2  T03010170 10303 20195,86.54,67.1,,,,62.69,,SSW,29.26,27.94,86.92,Partly Cloudy
KIGQ,05/25/2018 18:15 UTC,29.9,85.28,63.14,47.68,8.05,220.0,,,,,,752.0,852.0,,,10.0,,KIGQ 251815Z AUTO 22007KT 10SM SCT075 SCT085 30/17 A2990 RMK AO2  T02960173,,,,,,63.21,,SW,29.25,27.9,86.27,Partly Cloudy
KIGQ,05/25/2018 18:35 UTC,29.88,86.54,62.06,44.09,3.44,220.0,,,,,,752.0,952.0,,,10.0,,KIGQ 251835Z AUTO 22003KT 10SM SCT075 SCT095 30/17 A2988 RMK AO2  T03030167,,,,,,62.15,,SW,29.23,27.94,87.05,Partly Cloudy
KIGQ,05/25/2018 18:55 UTC,29.88,85.46,62.6,46.51,5.75,200.0,,,,,,902.0,,,,10.0,,KIGQ 251855Z AUTO 20005KT 10SM SCT090 30/17 A2988 RMK AO2  T02970170,,,,,,62.67,,SSW,29.23,27.92,86.23,Partly Cloudy
KIGQ,05/25/2018 19:15 UTC,29.86,84.74,61.7,46.11,6.91,220.0,,,,,,802.0,1002.0,,,10.0,,KIGQ 251915Z AUTO 22006KT 10SM SCT080 SCT100 29/17 A2986 RMK AO2  T02930165,,,,,,61.77,,SW,29.21,27.96,85.23,Partly Cloudy
KIGQ,05/25/2018 19:35 UTC,29.86,87.26,61.34,42.02,0.0,0.0,,,,,,902.0,,,,10.0,,KIGQ 251935Z AUTO 00000KT 10SM SCT090 31/16 A2986 RMK AO2  T03070163,,,,,,61.45,,N,29.21,27.96,87.46,Partly Cloudy
KIGQ,05/25/2018 19:55 UTC,29.84,87.8,62.24,42.64,0.0,0.0,,,,,,802.0,,,,10.0,,KIGQ 251955Z AUTO 00000KT 10SM SCT080 31/17 A2984 RMK AO2  T03100168,,,,,,62.35,,N,29.19,27.88,88.36,Partly Cloudy
KIGQ,05/25/2018 20:15 UTC,29.84,85.1,62.6,47.05,3.44,160.0,,,,,,803.0,,,,10.0,,KIGQ 252015Z AUTO 16003KT 10SM BKN080 30/17 A2984 RMK AO2  T02950170,,,8000.0,,,62.67,,SSE,29.19,27.88,85.89,Mostly Cloudy
KIGQ,05/25/2018 20:35 UTC,29.83,86.36,62.6,45.2,9.22,220.0,,,,,,803.0,1104.0,,,10.0,,KIGQ 252035Z AUTO 22008KT 10SM BKN080 OVC110 30/17 A2983 RMK AO2  T03020170,,,8000.0,,,62.69,,SW,29.18,27.86,87.1,Overcast
KIGQ,05/25/2018 20:55 UTC,29.82,87.08,62.42,43.9,4.61,130.0,,,,,,803.0,1103.0,,,10.0,,KIGQ 252055Z AUTO 13004KT 10SM BKN080 BKN110 31/17 A2982 RMK AO2  T03060169,,,8000.0,,,62.52,,SE,29.17,27.85,87.72,Mostly Cloudy
KIGQ,05/25/2018 21:15 UTC,29.81,87.08,62.06,43.35,6.91,190.0,,,,,,803.0,,,,10.0,,KIGQ 252115Z AUTO 19006KT 10SM BKN080 31/17 A2981 RMK AO2  T03060167,,,8000.0,,,62.16,,S,29.16,27.86,87.58,Mostly Cloudy
KIGQ,05/25/2018 21:35 UTC,29.81,86.0,62.42,45.43,6.91,190.0,,,,,,903.0,,,,10.0,,KIGQ 252135Z AUTO 19006KT 10SM BKN090 30/17 A2981 RMK AO2  T03000169,,,9000.0,,,62.5,,S,29.16,27.85,86.68,Mostly Cloudy
KIGQ,05/25/2018 21:55 UTC,29.8,86.36,62.96,45.77,3.44,180.0,,,,,,902.0,,,,10.0,,KIGQ 252155Z AUTO 18003KT 10SM SCT090 30/17 A2980 RMK AO2  T03020172,,,,,,63.04,,S,29.15,27.8,87.24,Partly Cloudy
KIGQ,05/25/2018 22:15 UTC,29.79,85.82,62.78,46.27,3.44,200.0,,,,,,1.0,,,,10.0,,KIGQ 252215Z AUTO 20003KT 10SM CLR 30/17 A2979 RMK AO2  T02990171,,,,,,62.86,,SSW,29.14,27.81,86.65,Clear
KIGQ,05/25/2018 22:35 UTC,29.78,83.3,64.4,53.09,4.61,180.0,,,,,,852.0,,,,10.0,,KIGQ 252235Z AUTO 18004KT 10SM SCT085 29/18 A2978 RMK AO2  T02850180,,,,,,64.45,,S,29.13,27.72,84.86,Partly Cloudy
KIGQ,05/25/2018 22:55 UTC,29.77,83.66,64.58,52.81,3.44,60.0,,,,,,852.0,1103.0,,,10.0,,KIGQ 252255Z AUTO 06003KT 10SM SCT085 BKN110 29/18 A2977 RMK AO2  T02870181,,,11000.0,,,64.63,,ENE,29.12,27.69,85.28,Mostly Cloudy
KIGQ,05/25/2018 23:15 UTC,29.77,82.58,62.06,50.05,0.0,0.0,,,,,,1004.0,,,,10.0,,KIGQ 252315Z AUTO 00000KT 10SM OVC100 28/17 A2977 RMK AO2  T02810167,,,10000.0,,,62.1,,N,29.12,27.87,83.42,Overcast
KIGQ,05/25/2018 23:35 UTC,29.77,80.96,63.86,56.19,4.61,70.0,,,,,,904.0,,,,10.0,,KIGQ 252335Z AUTO 07004KT 10SM OVC090 27/18 A2977 RMK AO2  T02720177,,,9000.0,,,63.88,,ENE,29.12,27.77,82.48,Overcast
KIGQ,05/25/2018 23:55 UTC,29.77,80.96,64.94,58.35,0.0,0.0,,,,,,904.0,,,,10.0,,KIGQ 252355Z AUTO 00000KT 10SM OVC090 27/18 A2977 RMK AO2  T02720183 10315 20272,88.7,80.96,9000.0,,,64.96,,N,29.12,27.7,82.78,Overcast
KIGQ,05/26/2018 00:15 UTC,29.77,80.6,64.4,57.94,12.66,270.0,17.27,,,,,902.0,,,,10.0,,KIGQ 260015Z AUTO 27011G15KT 10SM SCT090 27/18 A2977 RMK AO2 LTG  DSNT SW T02700180,,,,,,64.42,,W,29.12,27.74,82.28,Partly Cloudy
KIGQ,05/26/2018 00:35 UTC,29.77,79.52,65.48,62.31,6.91,280.0,,,,,,1.0,,,,10.0,,KIGQ 260035Z AUTO 28006KT 10SM CLR 26/19 A2977 RMK AO2  T02640186,,,,,,65.49,,W,29.12,27.68,,Clear
KIGQ,05/26/2018 00:55 UTC,29.79,78.8,64.94,62.61,10.36,270.0,,,,,,1202.0,,,,10.0,,KIGQ 260055Z AUTO 27009KT 10SM SCT120 26/18 A2979 RMK AO2  T02600183,,,,,,64.94,,W,29.14,27.75,,Partly Cloudy
KIGQ,05/26/2018 01:15 UTC,29.78,78.26,64.4,62.54,3.44,290.0,,,,,,1204.0,,,,10.0,,KIGQ 260115Z AUTO 29003KT 10SM OVC120 26/18 A2978 RMK AO2  T02570180,,,12000.0,,,64.4,,WNW,29.13,27.78,,Overcast
KIGQ,05/26/2018 01:35 UTC,29.78,77.36,64.22,64.02,3.44,310.0,,,,,,952.0,1203.0,,,10.0,,KIGQ 260135Z AUTO 31003KT 10SM SCT095 BKN120 25/18 A2978 RMK AO2  T02520179,,,12000.0,,,64.22,,NW,29.13,27.8,,Mostly Cloudy
KIGQ,05/26/2018 01:55 UTC,29.78,76.82,64.58,66.0,3.44,270.0,,,,,,853.0,953.0,,,10.0,,KIGQ 260155Z AUTO 27003KT 10SM BKN085 BKN095 25/18 A2978 RMK AO2  T02490181,,,8500.0,,,64.57,,W,29.13,27.78,,Mostly Cloudy
KIGQ,05/26/2018 02:15 UTC,29.79,76.28,64.94,68.04,0.0,0.0,,,,,,854.0,,,,10.0,,KIGQ 260215Z AUTO 00000KT 10SM OVC085 25/18 A2979 RMK AO2  T02460183,,,8500.0,,,64.93,,N,29.14,27.77,,Overcast
KIGQ,05/26/2018 02:35 UTC,29.8,73.76,65.84,76.35,0.0,0.0,,,,,,852.0,1004.0,,,10.0,,KIGQ 260235Z AUTO 00000KT 10SM SCT085 OVC100 23/19 A2980 RMK AO2  T02320188,,,10000.0,,,65.83,,N,29.15,27.76,,Overcast
KIGQ,05/26/2018 02:55 UTC,29.8,74.3,65.48,74.05,3.44,190.0,,,,,,903.0,1104.0,,,10.0,,KIGQ 260255Z AUTO 19003KT 10SM BKN090 OVC110 24/19 A2980 RMK AO2  T02350186,,,9000.0,,,65.47,,S,29.15,27.77,,Overcast
KIGQ,05/26/2018 03:15 UTC,29.83,75.02,65.66,72.74,9.22,240.0,,,,,,703.0,904.0,,,10.0,,KIGQ 260315Z AUTO 24008KT 10SM BKN070 OVC090 24/19 A2983 RMK AO2  T02390187,,,7000.0,,,65.65,,WSW,29.18,27.78,,Overcast
KIGQ,05/26/2018 03:35 UTC,29.83,75.2,66.2,73.67,8.05,220.0,,,,,,704.0,,,,10.0,,KIGQ 260335Z AUTO 22007KT 10SM OVC070 24/19 A2983 RMK AO2  T02400190,,,7000.0,,,66.19,,SW,29.18,27.75,,Overcast
KIGQ,05/26/2018 03:55 UTC,29.83,73.58,67.82,82.24,12.66,260.0,16.11,13.0,,,,703.0,804.0,,,10.0,,KIGQ 260355Z AUTO 26011G14KT 10SM -RA BKN070 OVC080 23/20 A2983 RMK AO2 T02310199,,,7000.0,,,67.81,,W,29.18,27.66,,Light Rain
KIGQ,05/26/2018 04:15 UTC,29.82,72.68,68.54,86.88,5.75,240.0,,,,,,702.0,1103.0,,,10.0,,KIGQ 260415Z AUTO 24005KT 10SM SCT070 BKN110 23/20 A2982 RMK AO2  T02260203,,,11000.0,,,68.53,,WSW,29.17,27.61,,Mostly Cloudy
KIGQ,05/26/2018 04:35 UTC,29.82,72.68,68.9,87.96,9.22,240.0,,,,,,1104.0,,,,10.0,,KIGQ 260435Z AUTO 24008KT 10SM OVC110 23/21 A2982 RMK AO2  T02260205,,,11000.0,,,68.89,,WSW,29.17,27.58,,Overcast
KIGQ,05/26/2018 04:55 UTC,29.82,72.14,68.9,89.58,8.05,230.0,,17.0,,,,1103.0,,,,10.0,,KIGQ 260455Z AUTO 23007KT 10SM -DZ BKN110 22/21 A2982 RMK AO2 LTG  DSNT NE T02230205,,,11000.0,,,68.89,,SW,29.17,27.59,,Light Drizzle
KIGQ,05/26/2018 05:15 UTC,29.81,71.24,69.08,92.91,5.75,220.0,,,,,,903.0,1104.0,,,10.0,,KIGQ 260515Z AUTO 22005KT 10SM BKN090 OVC110 22/21 A2981 RMK AO2  T02180206,,,9000.0,,,69.07,,SW,29.16,27.58,,Overcast
KIGQ,05/26/2018 05:35 UTC,29.81,71.24,67.82,88.99,4.61,230.0,,,,,,1002.0,,,,10.0,,KIGQ 260535Z AUTO 23004KT 10SM SCT100 22/20 A2981 RMK AO2  T02180199,,,,,,67.81,,SW,29.16,27.67,,Partly Cloudy
KIGQ,05/26/2018 05:55 UTC,29.81,70.52,67.64,90.62,5.75,220.0,,,,,,1.0,,,,10.0,,KIGQ 260555Z AUTO 22005KT 10SM CLR 21/20 A2981 RMK AO2 T02140198  10276 20214 403150155,81.68,70.52,,88.7,59.9,67.63,,SW,29.16,27.69,,Clear
KIGQ,05/26/2018 06:15 UTC,29.79,69.8,67.46,92.3,4.61,180.0,,,,,,1202.0,,,,10.0,,KIGQ 260615Z AUTO 18004KT 10SM SCT120 21/20 A2979 RMK AO2  T02100197,,,,,,67.45,,S,29.14,27.69,,Partly Cloudy
KIGQ,05/26/2018 06:35 UTC,29.78,68.54,67.28,95.76,3.44,180.0,,,,,,1202.0,,,,10.0,,KIGQ 260635Z AUTO 18003KT 10SM SCT120 20/20 A2978 RMK AO2  T02030196,,,,,,67.27,,S,29.13,27.71,,Partly Cloudy
KIGQ,05/26/2018 06:55 UTC,29.77,68.0,66.74,95.75,5.75,170.0,,,,,,1.0,,,,10.0,,KIGQ 260655Z AUTO 17005KT 10SM CLR 20/19 A2977 RMK AO2  T02000193,,,,,,66.73,,S,29.12,27.75,,Clear
KIGQ,05/26/2018 07:15 UTC,29.77,68.0,66.92,96.35,3.44,190.0,,,,,,802.0,,,,10.0,,KIGQ 260715Z AUTO 19003KT 10SM SCT080 20/19 A2977 RMK AO2  T02000194,,,,,,66.91,,S,29.12,27.73,,Partly Cloudy
KIGQ,05/26/2018 07:35 UTC,29.77,67.46,67.1,98.77,4.61,210.0,,,,,,802.0,,,,10.0,,KIGQ 260735Z AUTO 21004KT 10SM SCT080 20/20 A2977 RMK AO2  T01970195,,,,,,67.1,,SSW,29.12,27.73,,Partly Cloudy
KIGQ,05/26/2018 07:55 UTC,29.76,67.1,67.1,100.0,4.61,190.0,,,,,,1102.0,,,,10.0,,KIGQ 260755Z AUTO 19004KT 10SM SCT110 20/20 A2976 RMK AO2  T01950195,,,,,,67.1,,S,29.11,27.72,,Partly Cloudy
KIGQ,05/26/2018 08:15 UTC,29.76,67.64,67.1,98.16,5.75,200.0,,,,,,1104.0,,,,10.0,,KIGQ 260815Z AUTO 20005KT 10SM OVC110 20/20 A2976 RMK AO2  T01980195,,,11000.0,,,67.1,,SSW,29.11,27.72,,Overcast
KIGQ,05/26/2018 08:35 UTC,29.77,68.0,66.74,95.75,5.75,220.0,,,,,,1204.0,,,,10.0,,KIGQ 260835Z AUTO 22005KT 10SM OVC120 20/19 A2977 RMK AO2  T02000193,,,12000.0,,,66.73,,SW,29.12,27.75,,Overcast
KIGQ,05/26/2018 08:55 UTC,29.78,68.54,66.56,93.41,4.61,240.0,,,,,,1104.0,,,,10.0,,KIGQ 260855Z AUTO 24004KT 10SM OVC110 20/19 A2978 RMK AO2  T02030192,,,11000.0,,,66.55,,WSW,29.13,27.76,,Overcast
KIGQ,05/26/2018 09:15 UTC,29.79,68.18,66.56,94.57,4.61,230.0,,,,,,1104.0,,,,10.0,,KIGQ 260915Z AUTO 23004KT 10SM OVC110 20/19 A2979 RMK AO2  T02010192,,,11000.0,,,66.55,,SW,29.14,27.78,,Overcast
KIGQ,05/26/2018 09:35 UTC,29.79,68.9,67.1,94.01,6.91,230.0,,,1104.0,,,752.0,902.0,,,10.0,,KIGQ 260935Z AUTO 23006KT 10SM SCT075 SCT090 OVC110 21/20 A2979 RMK AO2 T02050195,,,11000.0,,,67.09,,SW,29.14,27.73,,Overcast
KIGQ,05/26/2018 09:55 UTC,29.78,68.18,67.1,96.35,4.61,220.0,,,,,,902.0,1103.0,,,10.0,,KIGQ 260955Z AUTO 22004KT 10SM SCT090 BKN110 20/20 A2978 RMK AO2  T02010195,,,11000.0,,,67.09,,SW,29.13,27.73,,Mostly Cloudy
KIGQ,05/26/2018 10:15 UTC,29.77,67.1,66.56,98.15,6.91,210.0,,,,,,1202.0,,,,10.0,,KIGQ 261015Z AUTO 21006KT 10SM SCT120 20/19 A2977 RMK AO2  T01950192,,,,,,66.56,,SSW,29.12,27.77,,Partly Cloudy
KIGQ,05/26/2018 10:35 UTC,29.77,68.0,67.28,97.55,5.75,240.0,,,,,,1.0,,,,10.0,,KIGQ 261035Z AUTO 24005KT 10SM CLR 20/20 A2977 RMK AO2  T02000196,,,,,,67.28,,WSW,29.12,27.71,,Clear
KIGQ,05/26/2018 10:55 UTC,29.77,67.28,67.1,99.38,4.61,250.0,,,,,,1.0,,,,10.0,,KIGQ 261055Z AUTO 25004KT 10SM CLR 20/20 A2977 RMK AO2  T01960195,,,,,,67.1,,WSW,29.12,27.73,,Clear
KIGQ,05/26/2018 11:15 UTC,29.78,66.74,66.74,100.0,0.0,0.0,,31.0,,,,1.0,,,,5.0,,KIGQ 261115Z AUTO 00000KT 5SM BR CLR 19/19 A2978 RMK AO2  T01930193,,,,,,66.74,,N,29.13,27.77,,Mist
KIGQ,05/26/2018 11:35 UTC,29.79,68.18,68.0,99.38,0.0,0.0,,,,,,1.0,,,,7.0,,KIGQ 261135Z AUTO 00000KT 7SM CLR 20/20 A2979 RMK AO2  T02010200,,,,,,68.0,,N,29.14,27.68,,Clear
KIGQ,05/26/2018 11:55 UTC,29.79,69.98,68.18,94.03,5.75,260.0,,,,,,1.0,,,,10.0,,KIGQ 261155Z AUTO 26005KT 10SM CLR 21/20 A2979 RMK AO2 T02110201  10215 20192,70.7,66.56,,,,68.17,,W,29.14,27.64,,Clear
KIGQ,05/26/2018 12:15 UTC,29.8,70.7,68.18,91.76,5.75,260.0,,,,,,1.0,,,,10.0,,KIGQ 261215Z AUTO 26005KT 10SM CLR 22/20 A2980 RMK AO2  T02150201,,,,,,68.17,,W,29.15,27.64,,Clear
KIGQ,05/26/2018 12:35 UTC,29.8,71.6,68.54,90.11,5.75,220.0,,,,,,1.0,,,,10.0,,KIGQ 261235Z AUTO 22005KT 10SM CLR 22/20 A2980 RMK AO2  T02200203,,,,,,68.53,,SW,29.15,27.6,,Clear
KIGQ,05/26/2018 12:55 UTC,29.8,70.88,68.36,91.77,5.75,210.0,,,,,,1.0,,,,10.0,,KIGQ 261255Z AUTO 21005KT 10SM CLR 22/20 A2980 RMK AO2  T02160202,,,,,,68.35,,SSW,29.15,27.63,,Clear
KIGQ,05/26/2018 13:15 UTC,29.81,73.4,69.26,86.92,5.75,180.0,,,,,,1.0,,,,10.0,,KIGQ 261315Z AUTO 18005KT 10SM CLR 23/21 A2981 RMK AO2  T02300207,,,,,,69.25,,S,29.16,27.54,,Clear
KIGQ,05/26/2018 13:35 UTC,29.81,74.3,69.8,85.91,5.75,180.0,,,,,,1.0,,,,10.0,,KIGQ 261335Z AUTO 18005KT 10SM CLR 24/21 A2981 RMK AO2  T02350210,,,,,,69.79,,S,29.16,27.48,,Clear
KIGQ,05/26/2018 13:55 UTC,29.8,75.38,68.9,80.36,4.61,190.0,,,,,,1.0,,,,10.0,,KIGQ 261355Z AUTO 19004KT 10SM CLR 24/21 A2980 RMK AO2  T02410205,,,,,,68.89,,S,29.15,27.53,,Clear
KIGQ,05/26/2018 14:15 UTC,29.81,77.0,68.18,74.3,3.44,220.0,,,,,,1.0,,,,10.0,,KIGQ 261415Z AUTO 22003KT 10SM CLR 25/20 A2981 RMK AO2  T02500201,,,,,,68.18,,SW,29.16,27.57,,Clear
KIGQ,05/26/2018 14:35 UTC,29.81,77.36,68.0,72.97,0.0,0.0,,,,,,1.0,,,,10.0,,KIGQ 261435Z AUTO 00000KT 10SM CLR 25/20 A2981 RMK AO2  T02520200,,,,,,68.0,,N,29.16,27.57,,Clear
KIGQ,05/26/2018 14:55 UTC,29.81,78.44,67.82,69.99,4.61,280.0,,,,,,1.0,,,,10.0,,KIGQ 261455Z AUTO 28004KT 10SM CLR 26/20 A2981 RMK AO2  T02580199,,,,,,67.82,,W,29.16,27.57,,Clear
KIGQ,05/26/2018 15:15 UTC,29.81,79.34,68.36,69.23,4.61,270.0,,,,,,1.0,,,,10.0,,KIGQ 261515Z AUTO 27004KT 10SM CLR 26/20 A2981 RMK AO2  T02630202,,,,,,68.37,,W,29.16,27.52,,Clear
KIGQ,05/26/2018 15:35 UTC,29.81,79.88,68.54,68.44,3.44,240.0,,,,,,1202.0,,,,10.0,,KIGQ 261535Z AUTO 24003KT 10SM SCT120 27/20 A2981 RMK AO2  T02660203,,,,,,68.55,,WSW,29.16,27.5,,Partly Cloudy
KIGQ,05/26/2018 15:55 UTC,29.8,80.78,68.54,66.46,0.0,0.0,,,,,,1.0,,,,10.0,,KIGQ 261555Z AUTO 00000KT 10SM CLR 27/20 A2980 RMK AO2  T02710203,,,,,,68.56,,N,29.15,27.48,83.7,Clear
KIGQ,05/26/2018 16:15 UTC,29.81,81.32,68.36,64.9,4.61,230.0,,,,,,1.0,,,,10.0,,KIGQ 261615Z AUTO 23004KT 10SM CLR 27/20 A2981 RMK AO2  T02740202,,,,,,68.38,,SW,29.16,27.5,84.29,Clear
KIGQ,05/26/2018 16:35 UTC,29.81,81.32,68.0,64.11,5.75,240.0,,,,,,1.0,,,,10.0,,KIGQ 261635Z AUTO 24005KT 10SM CLR 27/20 A2981 RMK AO2  T02740200,,,,,,68.02,,WSW,29.16,27.52,84.15,Clear
KIGQ,05/26/2018 16:55 UTC,29.8,82.04,65.12,56.69,0.0,0.0,,,,,,1.0,,,,10.0,,KIGQ 261655Z AUTO 00000KT 10SM CLR 28/18 A2980 RMK AO2  T02780184,,,,,,65.15,,N,29.15,27.71,83.89,Clear
KIGQ,05/26/2018 17:15 UTC,29.8,83.3,65.12,54.44,3.44,290.0,,,,,,1.0,,,,10.0,,KIGQ 261715Z AUTO 29003KT 10SM CLR 29/18 A2980 RMK AO2  T02850184,,,,,,65.17,,WNW,29.15,27.69,85.14,Clear
KIGQ,05/26/2018 17:35 UTC,29.8,83.48,65.12,54.12,3.44,240.0,,,,,,1.0,,,,10.0,,KIGQ 261735Z AUTO 24003KT 10SM CLR 29/18 A2980 RMK AO2  T02860184,,,,,,65.16,,WSW,29.15,27.69,85.32,Clear
KIGQ,05/26/2018 17:55 UTC,29.8,84.38,64.58,51.6,6.91,260.0,,,,,,1.0,,,,10.0,,KIGQ 261755Z AUTO 26006KT 10SM CLR 29/18 A2980 RMK AO2 T02910181  10291 20211,84.38,69.98,,,,64.64,,W,29.15,27.72,85.99,Clear
KIGQ,05/26/2018 18:15 UTC,29.79,85.46,65.48,51.44,4.61,290.0,,,,,,602.0,,,,10.0,,KIGQ 261815Z AUTO 29004KT 10SM SCT060 30/19 A2979 RMK AO2  T02970186,,,,,,65.55,,WNW,29.14,27.63,87.49,Partly Cloudy
KIGQ,05/26/2018 18:35 UTC,29.78,85.46,64.4,49.54,6.91,320.0,,,,,,1.0,,,,10.0,,KIGQ 261835Z AUTO 32006KT 10SM CLR 30/18 A2978 RMK AO2  T02970180,,,,,,64.47,,NW,29.13,27.7,86.98,Clear
KIGQ,05/26/2018 18:55 UTC,29.78,85.28,64.04,49.2,5.75,330.0,,,,,,1.0,,,,10.0,,KIGQ 261855Z AUTO 33005KT 10SM CLR 30/18 A2978 RMK AO2  T02960178,,,,,,64.11,,NNW,29.13,27.72,86.65,Clear
KIGQ,05/26/2018 19:15 UTC,29.78,85.46,64.22,49.23,3.44,310.0,,,,,,602.0,,,,10.0,,KIGQ 261915Z AUTO 31003KT 10SM SCT060 30/18 A2978 RMK AO2  T02970179,,,,,,64.29,,NW,29.13,27.71,86.9,Partly Cloudy
KIGQ,05/26/2018 19:35 UTC,29.77,86.18,65.48,50.27,3.44,270.0,,,,,,1.0,,,,10.0,,KIGQ 261935Z AUTO 27003KT 10SM CLR 30/19 A2977 RMK AO2  T03010186,,,,,,65.56,,W,29.12,27.61,88.23,Clear
KIGQ,05/26/2018 19:55 UTC,29.77,86.36,64.4,48.14,5.75,300.0,,,,,,602.0,,,,10.0,,KIGQ 261955Z AUTO 30005KT 10SM SCT060 30/18 A2977 RMK AO2  T03020180,,,,,,64.48,,WNW,29.12,27.68,87.89,Partly Cloudy
KIGQ,05/26/2018 20:15 UTC,29.76,86.18,66.02,51.22,3.44,300.0,,,,,,1.0,,,,10.0,,KIGQ 262015Z AUTO 30003KT 10SM CLR 30/19 A2976 RMK AO2  T03010189,,,,,,66.09,,WNW,29.11,27.56,88.52,Clear
KIGQ,05/26/2018 20:35 UTC,29.76,86.72,67.1,52.26,6.91,270.0,,,,,,602.0,,,,10.0,,KIGQ 262035Z AUTO 27006KT 10SM SCT060 30/20 A2976 RMK AO2  T03040195,,,,,,67.18,,W,29.11,27.48,89.7,Partly Cloudy
KIGQ,05/26/2018 20:55 UTC,29.76,87.08,66.74,51.03,11.5,260.0,,,,,,602.0,,,,10.0,,KIGQ 262055Z AUTO 26010KT 10SM SCT060 31/19 A2976 RMK AO2  T03060193,,,,,,66.82,,W,29.11,27.5,89.88,Partly Cloudy
KIGQ,05/26/2018 21:15 UTC,29.76,85.82,66.74,53.12,3.44,310.0,,,,,,602.0,,,,10.0,,KIGQ 262115Z AUTO 31003KT 10SM SCT060 30/19 A2976 RMK AO2  T02990193,,,,,,66.81,,NW,29.11,27.51,88.52,Partly Cloudy
KIGQ,05/26/2018 21:35 UTC,29.75,86.9,66.02,50.06,8.05,270.0,,,,,,602.0,,,,10.0,,KIGQ 262135Z AUTO 27007KT 10SM SCT060 31/19 A2975 RMK AO2  T03050189,,,,,,66.1,,W,29.1,27.54,89.28,Partly Cloudy
KIGQ,05/26/2018 21:55 UTC,29.75,86.9,64.94,48.22,5.75,290.0,,,,,,1.0,,,,10.0,,KIGQ 262155Z AUTO 29005KT 10SM CLR 31/18 A2975 RMK AO2  T03050183,,,,,,65.03,,WNW,29.1,27.62,88.71,Clear
KIGQ,05/26/2018 22:15 UTC,29.74,87.08,64.76,47.65,5.75,290.0,,,,,,1.0,,,,10.0,,KIGQ 262215Z AUTO 29005KT 10SM CLR 31/18 A2974 RMK AO2  T03060182,,,,,,64.85,,WNW,29.09,27.62,88.8,Clear
KIGQ,05/26/2018 22:35 UTC,29.74,87.08,64.94,47.95,9.22,350.0,,,,,,1.0,,,,10.0,,KIGQ 262235Z AUTO 35008KT 300V360 10SM CLR 31/18 A2974 RMK AO2  T03060183,,,,,,65.03,,N,29.09,27.6,88.9,Clear
KIGQ,05/26/2018 22:55 UTC,29.74,86.36,65.3,49.67,3.44,30.0,,,,,,1.0,,,,10.0,,KIGQ 262255Z AUTO 03003KT 10SM CLR 30/19 A2974 RMK AO2  T03020185,,,,,,65.38,,NNE,29.09,27.59,88.33,Clear
KIGQ,05/26/2018 23:15 UTC,29.74,87.26,66.02,49.49,0.0,0.0,,,,,,1.0,,,,10.0,,KIGQ 262315Z AUTO 00000KT 10SM CLR 31/19 A2974 RMK AO2  T03070189,,,,,,66.11,,N,29.09,27.53,89.66,Clear
KIGQ,05/26/2018 23:35 UTC,29.74,87.26,64.22,46.49,3.44,310.0,,,,,,1.0,,,,10.0,,KIGQ 262335Z AUTO 31003KT 10SM CLR 31/18 A2974 RMK AO2  T03070179,,,,,,64.31,,NW,29.09,27.65,88.72,Clear
KIGQ,05/26/2018 23:55 UTC,29.74,85.64,64.58,49.56,3.44,270.0,,,,,,1.0,,,,10.0,,KIGQ 262355Z AUTO 27003KT 10SM CLR 30/18 A2974 RMK AO2 T02980181  10308 20291,87.44,84.38,,,,64.65,,W,29.09,27.64,87.24,Clear
KIGQ,05/27/2018 00:15 UTC,29.75,85.28,64.94,50.77,3.44,230.0,,,,,,1.0,,,,10.0,,KIGQ 270015Z AUTO 23003KT 10SM CLR 30/18 A2975 RMK AO2  T02960183,,,,,,65.01,,SW,29.1,27.63,87.05,Clear
KIGQ,05/27/2018 00:35 UTC,29.76,84.74,64.4,50.69,3.44,240.0,,,,,,1.0,,,,10.0,,KIGQ 270035Z AUTO 24003KT 10SM CLR 29/18 A2976 RMK AO2  T02930180,,,,,,64.46,,WSW,29.11,27.69,86.27,Clear
KIGQ,05/27/2018 00:55 UTC,29.76,82.76,64.76,54.7,0.0,0.0,,,,,,1.0,,,,10.0,,KIGQ 270055Z AUTO 00000KT 10SM CLR 28/18 A2976 RMK AO2  T02820182,,,,,,64.8,,N,29.11,27.68,84.47,Clear
KIGQ,05/27/2018 01:15 UTC,29.76,80.78,65.3,59.43,0.0,0.0,,,,,,1.0,,,,10.0,,KIGQ 270115Z AUTO 00000KT 10SM CLR 27/19 A2976 RMK AO2  T02710185,,,,,,65.32,,N,29.11,27.67,82.7,Clear
KIGQ,05/27/2018 01:35 UTC,29.76,78.62,64.58,62.2,0.0,0.0,,,,,,1.0,,,,10.0,,KIGQ 270135Z AUTO 00000KT 10SM CLR 26/18 A2976 RMK AO2  T02590181,,,,,,64.58,,N,29.11,27.74,,Clear
KIGQ,05/27/2018 01:55 UTC,29.77,79.16,64.4,60.72,0.0,0.0,,,,,,1.0,,,,10.0,,KIGQ 270155Z AUTO 00000KT 10SM CLR 26/18 A2977 RMK AO2  T02620180,,,,,,64.41,,N,29.12,27.76,,Clear
KIGQ,05/27/2018 02:15 UTC,29.78,74.66,66.02,74.55,0.0,0.0,,,,,,1.0,,,,10.0,,KIGQ 270215Z AUTO 00000KT 10SM CLR 24/19 A2978 RMK AO2  T02370189,,,,,,66.01,,N,29.13,27.71,,Clear
KIGQ,05/27/2018 02:35 UTC,29.8,76.82,65.48,68.1,0.0,0.0,,,,,,1.0,,,,10.0,,KIGQ 270235Z AUTO 00000KT 10SM CLR 25/19 A2980 RMK AO2  T02490186,,,,,,65.48,,N,29.15,27.74,,Clear
KIGQ,05/27/2018 02:55 UTC,29.81,75.92,65.84,71.04,3.44,80.0,,,,,,1.0,,,,10.0,,KIGQ 270255Z AUTO 08003KT 10SM CLR 24/19 A2981 RMK AO2  T02440188,,,,,,65.83,,E,29.16,27.74,,Clear
KIGQ,05/27/2018 03:15 UTC,29.82,76.82,65.84,68.95,0.0,0.0,,,,,,752.0,,,,10.0,,KIGQ 270315Z AUTO 00000KT 10SM SCT075 25/19 A2982 RMK AO2  T02490188,,,,,,65.83,,N,29.17,27.74,,Partly Cloudy
KIGQ,05/27/2018 03:35 UTC,29.82,75.74,66.2,72.36,0.0,0.0,,,,,,753.0,,,,10.0,,KIGQ 270335Z AUTO 00000KT 10SM BKN075 24/19 A2982 RMK AO2  T02430190,,,7500.0,,,66.19,,N,29.17,27.73,,Mostly Cloudy
KIGQ,05/27/2018 03:55 UTC,29.82,74.48,66.92,77.37,0.0,0.0,,,,,,752.0,,,,10.0,,KIGQ 270355Z AUTO 00000KT 10SM SCT075 24/19 A2982 RMK AO2  T02360194,,,,,,66.91,,N,29.17,27.7,,Partly Cloudy
KIGQ,05/27/2018 04:15 UTC,29.82,72.32,66.92,83.18,0.0,0.0,,,,,,752.0,,,,10.0,,KIGQ 270415Z AUTO 00000KT 10SM SCT075 22/19 A2982 RMK AO2  T02240194,,,,,,66.91,,N,29.17,27.73,,Partly Cloudy
KIGQ,05/27/2018 04:35 UTC,29.83,72.5,67.1,83.19,0.0,0.0,,,,,,752.0,,,,10.0,,KIGQ 270435Z AUTO 00000KT 10SM SCT075 23/20 A2983 RMK AO2  T02250195,,,,,,67.09,,N,29.18,27.72,,Partly Cloudy
KIGQ,05/27/2018 04:55 UTC,29.83,72.32,66.56,82.15,0.0,0.0,,,,,,752.0,,,,10.0,,KIGQ 270455Z AUTO 00000KT 10SM SCT075 22/19 A2983 RMK AO2  T02240192,,,,,,66.54,,N,29.18,27.76,,Partly Cloudy
KIGQ,05/27/2018 05:15 UTC,29.83,71.06,65.48,82.58,3.44,180.0,,,,,,752.0,,,,10.0,,KIGQ 270515Z AUTO 18003KT 10SM SCT075 22/19 A2983 RMK AO2  T02170186,,,,,,65.46,,S,29.18,27.85,,Partly Cloudy
KIGQ,05/27/2018 05:35 UTC,29.83,70.52,65.3,83.58,0.0,0.0,,,,,,1.0,,,,10.0,,KIGQ 270535Z AUTO 00000KT 10SM CLR 21/19 A2983 RMK AO2  T02140185,,,,,,65.28,,N,29.18,27.86,,Clear
KIGQ,05/27/2018 05:55 UTC,29.83,70.34,65.12,83.57,0.0,0.0,,,,,,1.0,,,,10.0,,KIGQ 270555Z AUTO 00000KT 10SM CLR 21/18 A2983 RMK AO2 T02130184  10300 20212 403080192,86.0,70.16,,87.44,66.56,65.1,,N,29.18,27.88,,Clear
KIGQ,05/27/2018 06:15 UTC,29.83,71.06,64.94,81.04,0.0,0.0,,,,,,1.0,,,,10.0,,KIGQ 270615Z AUTO 00000KT 10SM CLR 22/18 A2983 RMK AO2  T02170183,,,,,,64.92,,N,29.18,27.88,,Clear
KIGQ,05/27/2018 06:35 UTC,29.83,71.6,65.12,80.08,0.0,0.0,,,,,,1.0,,,,10.0,,KIGQ 270635Z AUTO 00000KT 10SM CLR 22/18 A2983 RMK AO2  T02200184,,,,,,65.1,,N,29.18,27.86,,Clear
KIGQ,05/27/2018 06:55 UTC,29.83,70.34,64.76,82.53,0.0,0.0,,,,,,1.0,,,,10.0,,KIGQ 270655Z AUTO 00000KT 10SM CLR 21/18 A2983 RMK AO2  T02130182,,,,,,64.74,,N,29.18,27.9,,Clear
KIGQ,05/27/2018 07:15 UTC,29.82,69.98,64.76,83.55,0.0,0.0,,,,,,1.0,,,,10.0,,KIGQ 270715Z AUTO 00000KT 10SM CLR 21/18 A2982 RMK AO2  T02110182,,,,,,64.74,,N,29.17,27.9,,Clear
KIGQ,05/27/2018 07:35 UTC,29.82,69.26,65.3,87.25,3.44,180.0,,,,,,1.0,,,,10.0,,KIGQ 270735Z AUTO 18003KT 10SM CLR 21/19 A2982 RMK AO2  T02070185,,,,,,65.29,,S,29.17,27.87,,Clear
KIGQ,05/27/2018 07:55 UTC,29.83,68.36,64.4,87.2,0.0,0.0,,,,,,1.0,,,,10.0,,KIGQ 270755Z AUTO 00000KT 10SM CLR 20/18 A2983 RMK AO2  T02020180,,,,,,64.38,,N,29.18,27.95,,Clear
KIGQ,05/27/2018 08:15 UTC,29.83,69.8,64.22,82.49,0.0,0.0,,,,,,1.0,,,,10.0,,KIGQ 270815Z AUTO 00000KT 10SM CLR 21/18 A2983 RMK AO2  T02100179,,,,,,64.2,,N,29.18,27.94,,Clear
KIGQ,05/27/2018 08:35 UTC,29.83,70.16,64.4,82.0,0.0,0.0,,,,,,1.0,,,,10.0,,KIGQ 270835Z AUTO 00000KT 10SM CLR 21/18 A2983 RMK AO2  T02120180,,,,,,64.38,,N,29.18,27.93,,Clear
KIGQ,05/27/2018 08:55 UTC,29.83,68.0,64.76,89.4,0.0,0.0,,,,,,1.0,,,,10.0,,KIGQ 270855Z AUTO 00000KT 10SM CLR 20/18 A2983 RMK AO2  T02000182,,,,,,64.75,,N,29.18,27.93,,Clear
KIGQ,05/27/2018 09:15 UTC,29.83,68.9,64.22,85.07,0.0,0.0,,,,,,1.0,,,,10.0,,KIGQ 270915Z AUTO 00000KT 10SM CLR 21/18 A2983 RMK AO2  T02050179,,,,,,64.2,,N,29.18,27.95,,Clear
KIGQ,05/27/2018 09:35 UTC,29.84,67.1,64.4,91.06,0.0,0.0,,,,,,1.0,,,,10.0,,KIGQ 270935Z AUTO 00000KT 10SM CLR 20/18 A2984 RMK AO2  T01950180,,,,,,64.39,,N,29.19,27.98,,Clear
KIGQ,05/27/2018 09:55 UTC,29.84,67.1,64.58,91.64,0.0,0.0,,,,,,1.0,,,,10.0,,KIGQ 270955Z AUTO 00000KT 10SM CLR 20/18 A2984 RMK AO2  T01950181,,,,,,64.57,,N,29.19,27.96,,Clear
KIGQ,05/27/2018 10:15 UTC,29.85,67.1,64.58,91.64,0.0,0.0,,,,,,1.0,,,,10.0,,KIGQ 271015Z AUTO 00000KT 10SM CLR 20/18 A2985 RMK AO2  T01950181,,,,,,64.57,,N,29.2,27.98,,Clear
KIGQ,05/27/2018 10:35 UTC,29.85,67.82,64.4,88.83,3.44,180.0,,,,,,1.0,,,,10.0,,KIGQ 271035Z AUTO 18003KT 10SM CLR 20/18 A2985 RMK AO2  T01990180,,,,,,64.38,,S,29.2,27.98,,Clear
KIGQ,05/27/2018 10:55 UTC,29.86,67.1,63.86,89.36,0.0,0.0,,,,,,1.0,,,,10.0,,KIGQ 271055Z AUTO 00000KT 10SM CLR 20/18 A2986 RMK AO2  T01950177,,,,,,63.84,,N,29.21,28.03,,Clear
KIGQ,05/27/2018 11:15 UTC,29.86,68.18,64.58,88.29,0.0,0.0,,,,,,1.0,,,,10.0,,KIGQ 271115Z AUTO 00000KT 10SM CLR 20/18 A2986 RMK AO2  T02010181,,,,,,64.56,,N,29.21,27.97,,Clear
KIGQ,05/27/2018 11:35 UTC,29.86,69.8,66.2,88.37,0.0,0.0,,,,,,1.0,,,,10.0,,KIGQ 271135Z AUTO 00000KT 10SM CLR 21/19 A2986 RMK AO2  T02100190,,,,,,66.19,,N,29.21,27.85,,Clear
KIGQ,05/27/2018 11:55 UTC,29.87,71.42,67.28,86.82,0.0,0.0,,,,,,1.0,,,,10.0,,KIGQ 271155Z AUTO 00000KT 10SM CLR 22/20 A2987 RMK AO2 T02190196  10222 20191,71.96,66.38,,,,67.27,,N,29.22,27.76,,Clear
KIGQ,05/27/2018 12:15 UTC,29.87,73.58,68.18,83.26,0.0,0.0,,,,,,1.0,,,,10.0,,KIGQ 271215Z AUTO 00000KT 10SM CLR 23/20 A2987 RMK AO2  T02310201,,,,,,68.17,,N,29.22,27.67,,Clear
KIGQ,05/27/2018 12:35 UTC,29.88,76.46,68.9,77.53,0.0,0.0,,,,,,1.0,,,,10.0,,KIGQ 271235Z AUTO 00000KT 10SM CLR 25/21 A2988 RMK AO2  T02470205,,,,,,68.89,,N,29.23,27.59,,Clear
KIGQ,05/27/2018 12:55 UTC,29.88,77.9,68.36,72.58,0.0,0.0,,,,,,1.0,,,,10.0,,KIGQ 271255Z AUTO 00000KT 10SM CLR 26/20 A2988 RMK AO2  T02550202,,,,,,68.36,,N,29.23,27.61,,Clear
KIGQ,05/27/2018 13:15 UTC,29.88,79.16,68.9,70.94,0.0,0.0,,,,,,1.0,,,,10.0,,KIGQ 271315Z AUTO 00000KT 10SM CLR 26/21 A2988 RMK AO2  T02620205,,,,,,68.91,,N,29.23,27.56,,Clear
KIGQ,05/27/2018 13:35 UTC,29.88,80.6,69.62,69.36,0.0,0.0,,,,,,1.0,,,,10.0,,KIGQ 271335Z AUTO 00000KT 10SM CLR 27/21 A2988 RMK AO2  T02700209,,,,,,69.63,,N,29.23,27.48,83.84,Clear
KIGQ,05/27/2018 13:55 UTC,29.88,82.58,70.7,67.49,0.0,0.0,,,,,,1.0,,,,10.0,,KIGQ 271355Z AUTO 00000KT 10SM CLR 28/22 A2988 RMK AO2  T02810215,,,,,,70.73,,N,29.23,27.38,86.94,Clear
KIGQ,05/27/2018 14:15 UTC,29.88,83.84,71.06,65.6,0.0,0.0,,,,,,1.0,,,,10.0,,KIGQ 271415Z AUTO 00000KT 10SM CLR 29/22 A2988 RMK AO2  T02880217,,,,,,71.1,,N,29.23,27.33,88.8,Clear
KIGQ,05/27/2018 14:35 UTC,29.89,84.92,72.14,65.73,0.0,0.0,,,,,,1.0,,,,10.0,,KIGQ 271435Z AUTO 00000KT 10SM CLR 29/22 A2989 RMK AO2  T02940223,,,,,,72.18,,N,29.24,27.24,90.98,Clear
KIGQ,05/27/2018 14:55 UTC,29.88,86.0,72.86,65.06,4.61,240.0,,,,,,1.0,,,,10.0,,KIGQ 271455Z AUTO 24004KT 10SM CLR 30/23 A2988 RMK AO2  T03000227,,,,,,72.91,,WSW,29.23,27.15,93.01,Clear
KIGQ,05/27/2018 15:15 UTC,29.88,86.9,73.04,63.61,3.44,210.0,,,,,,1.0,,,,10.0,,KIGQ 271515Z AUTO 21003KT 10SM CLR 31/23 A2988 RMK AO2  T03050228,,,,,,73.1,,SSW,29.23,27.13,94.37,Clear
KIGQ,05/27/2018 15:35 UTC,29.88,87.98,73.22,61.85,5.75,190.0,,,,,,1.0,,,,10.0,,KIGQ 271535Z AUTO 19005KT 10SM CLR 31/23 A2988 RMK AO2  T03110229,,,,,,73.29,,S,29.23,27.1,95.97,Clear
KIGQ,05/27/2018 15:55 UTC,29.88,88.34,71.24,57.2,3.44,220.0,,,,,,1.0,,,,10.0,,KIGQ 271555Z AUTO 22003KT 10SM CLR 31/22 A2988 RMK AO2  T03130218,,,,,,71.32,,SW,29.23,27.26,94.59,Clear
KIGQ,05/27/2018 16:15 UTC,29.88,89.6,68.9,50.77,0.0,0.0,,,,,,1.0,,,,10.0,,KIGQ 271615Z AUTO 00000KT 10SM CLR 32/21 A2988 RMK AO2  T03200205,,,,,,69.01,,N,29.23,27.43,94.19,Clear
KIGQ,05/27/2018 16:35 UTC,29.88,89.24,68.54,50.72,4.61,270.0,,,,,,1.0,,,,10.0,,KIGQ 271635Z AUTO 27004KT 10SM CLR 32/20 A2988 RMK AO2  T03180203,,,,,,68.65,,W,29.23,27.46,93.5,Clear
KIGQ,05/27/2018 16:55 UTC,29.88,89.6,69.08,51.08,3.44,210.0,,,,,,1.0,,,,10.0,,KIGQ 271655Z AUTO 21003KT 10SM CLR 32/21 A2988 RMK AO2  T03200206,,,,,,69.19,,SSW,29.23,27.42,94.33,Clear
KIGQ,05/27/2018 17:15 UTC,29.88,90.14,69.26,50.53,3.44,290.0,,,,,,1.0,,,,10.0,,KIGQ 271715Z AUTO 29003KT 10SM CLR 32/21 A2988 RMK AO2  T03230207,,,,,,69.37,,WNW,29.23,27.4,95.1,Clear
KIGQ,05/27/2018 17:35 UTC,29.88,90.68,69.98,50.92,3.44,200.0,,,,,,1.0,,,,10.0,,KIGQ 271735Z AUTO 20003KT 10SM CLR 33/21 A2988 RMK AO2  T03260211,,,,,,70.1,,SSW,29.23,27.34,96.34,Clear
KIGQ,05/27/2018 17:55 UTC,29.88,91.4,69.08,48.29,5.75,260.0,,,,,,702.0,953.0,,,10.0,,KIGQ 271755Z AUTO 26005KT 10SM SCT070 BKN095 33/21 A2988 RMK AO2  T03300206 10330 20220,91.4,71.6,9500.0,,,69.22,,W,29.23,27.4,96.46,Mostly Cloudy
KIGQ,05/27/2018 18:15 UTC,29.88,89.6,68.0,49.23,0.0,0.0,,,,,,702.0,952.0,,,10.0,,KIGQ 271815Z AUTO 00000KT 10SM SCT070 SCT095 32/20 A2988 RMK AO2  T03200200,,,,,,68.12,,N,29.23,27.5,93.53,Partly Cloudy
KIGQ,05/27/2018 18:35 UTC,29.88,92.12,67.46,44.67,4.61,290.0,,,,,,1.0,,,,10.0,,KIGQ 271835Z AUTO 29004KT 10SM CLR 33/20 A2988 RMK AO2  T03340197,,,,,,67.62,,WNW,29.23,27.52,96.05,Clear
KIGQ,05/27/2018 18:55 UTC,29.88,92.3,65.12,40.97,0.0,0.0,,,,,,1.0,,,,10.0,,KIGQ 271855Z AUTO 00000KT 10SM CLR 34/18 A2988 RMK AO2  T03350184,,,,,,65.29,,N,29.23,27.68,94.68,Clear
KIGQ,05/27/2018 19:15 UTC,29.88,92.66,66.38,42.32,0.0,0.0,,,,,,802.0,,,,10.0,,KIGQ 271915Z AUTO 00000KT 10SM SCT080 34/19 A2988 RMK AO2  T03370191,,,,,,66.55,,N,29.23,27.59,95.91,Partly Cloudy
KIGQ,05/27/2018 19:35 UTC,29.87,93.2,64.58,39.1,3.44,280.0,,,,,,802.0,,,,10.0,,KIGQ 271935Z AUTO 28003KT 10SM SCT080 34/18 A2987 RMK AO2  T03400181,,,,,,64.77,,W,29.22,27.7,95.36,Partly Cloudy
KIGQ,05/27/2018 19:55 UTC,29.87,93.56,63.68,37.47,3.44,290.0,,,,,,1.0,,,,10.0,,KIGQ 271955Z AUTO 29003KT 10SM CLR 34/18 A2987 RMK AO2  T03420176,,,,,,63.88,,WNW,29.22,27.76,95.24,Clear
KIGQ,05/27/2018 20:15 UTC,29.86,93.56,63.86,37.71,0.0,0.0,,,,,,1.0,,,,10.0,,KIGQ 272015Z AUTO 00000KT 10SM CLR 34/18 A2986 RMK AO2  T03420177,,,,,,64.06,,N,29.21,27.74,95.35,Clear
KIGQ,05/27/2018 20:35 UTC,29.86,93.56,63.86,37.71,0.0,0.0,,,,,,1.0,,,,10.0,,KIGQ 272035Z AUTO 00000KT 10SM CLR 34/18 A2986 RMK AO2 LTG DSNT SW  T03420177,,,,,,64.06,,N,29.21,27.74,95.35,Clear
KIGQ,05/27/2018 20:55 UTC,29.86,93.56,67.64,42.99,6.91,40.0,,,,,,1.0,,,,10.0,,KIGQ 272055Z AUTO 04006KT 10SM CLR 34/20 A2986 RMK AO2  T03420198,,,,,,67.82,,NE,29.21,27.47,97.88,Clear
KIGQ,05/27/2018 21:15 UTC,29.85,91.94,67.1,44.36,11.5,70.0,,,,,,1.0,,,,10.0,,KIGQ 272115Z AUTO 07010KT 10SM CLR 33/20 A2985 RMK AO2  T03330195,,,,,,67.25,,ENE,29.2,27.51,95.58,Clear
KIGQ,05/27/2018 21:35 UTC,29.85,91.94,66.92,44.09,4.61,90.0,,,,,,1.0,,,,10.0,,KIGQ 272135Z AUTO 09004KT 10SM CLR 33/19 A2985 RMK AO2  T03330194,,,,,,67.07,,E,29.2,27.53,95.45,Clear
KIGQ,05/27/2018 21:55 UTC,29.85,91.94,66.92,44.09,5.75,30.0,,,,,,1.0,,,,10.0,,KIGQ 272155Z AUTO 03005KT 10SM CLR 33/19 A2985 RMK AO2  T03330194,,,,,,67.07,,NNE,29.2,27.53,95.45,Clear
KIGQ,05/27/2018 22:15 UTC,29.86,90.86,64.76,42.31,10.36,60.0,,,,,,1.0,,,,10.0,,KIGQ 272215Z AUTO 06009KT 10SM CLR 33/18 A2986 RMK AO2  T03270182,,,,,,64.91,,ENE,29.21,27.7,92.85,Clear
KIGQ,05/27/2018 22:35 UTC,29.86,90.5,64.04,41.72,8.05,60.0,,,,,,1.0,,,,10.0,,KIGQ 272235Z AUTO 06007KT 10SM CLR 33/18 A2986 RMK AO2  T03250178,,,,,,64.18,,ENE,29.21,27.75,92.05,Clear
KIGQ,05/27/2018 22:55 UTC,29.86,89.6,64.04,42.92,9.22,40.0,,,,,,1.0,,,,10.0,,KIGQ 272255Z AUTO 04008KT 10SM CLR 32/18 A2986 RMK AO2  T03200178,,,,,,64.17,,NE,29.21,27.76,91.08,Clear
KIGQ,05/27/2018 23:15 UTC,29.86,89.06,65.48,45.9,4.61,50.0,,,,,,1.0,,,,10.0,,KIGQ 272315Z AUTO 05004KT 10SM CLR 32/19 A2986 RMK AO2  T03170186,,,,,,65.6,,NE,29.21,27.67,91.3,Clear
KIGQ,05/27/2018 23:35 UTC,29.87,88.52,65.48,46.68,6.91,70.0,,,,,,1.0,,,,10.0,,KIGQ 272335Z AUTO 07006KT 10SM CLR 31/19 A2987 RMK AO2  T03140186,,,,,,65.59,,ENE,29.22,27.68,90.71,Clear
KIGQ,05/27/2018 23:55 UTC,29.87,87.8,65.3,47.46,5.75,70.0,,,,,,1.0,,,,10.0,,KIGQ 272355Z AUTO 07005KT 10SM CLR 31/19 A2987 RMK AO2 T03100185  10345 20310,94.1,87.8,,,,65.4,,ENE,29.22,27.7,89.84,Clear
KIGQ,05/28/2018 00:15 UTC,29.87,87.62,64.22,45.97,5.75,80.0,,,,,,1.0,,,,10.0,,KIGQ 280015Z AUTO 08005KT 10SM CLR 31/18 A2987 RMK AO2  T03090179,,,,,,64.32,,E,29.22,27.78,89.09,Clear
KIGQ,05/28/2018 00:35 UTC,29.87,86.72,62.96,45.25,4.61,80.0,,,,,,1.0,,,,10.0,,KIGQ 280035Z AUTO 08004KT 10SM CLR 30/17 A2987 RMK AO2  T03040172,,,,,,63.05,,E,29.22,27.87,87.6,Clear
KIGQ,05/28/2018 00:55 UTC,29.88,85.1,62.6,47.05,3.44,50.0,,,,,,1.0,,,,10.0,,KIGQ 280055Z AUTO 05003KT 10SM CLR 30/17 A2988 RMK AO2  T02950170,,,,,,62.67,,NE,29.23,27.92,85.89,Clear
KIGQ,05/28/2018 01:15 UTC,29.88,84.2,61.7,46.91,3.44,80.0,,,,,,1.0,,,,10.0,,KIGQ 280115Z AUTO 08003KT 10SM CLR 29/17 A2988 RMK AO2  T02900165,,,,,,61.76,,E,29.23,27.99,84.74,Clear
KIGQ,05/28/2018 01:35 UTC,29.87,83.66,62.06,48.34,0.0,0.0,,,,,,1.0,,,,10.0,,KIGQ 280135Z AUTO 00000KT 10SM CLR 29/17 A2987 RMK AO2  T02870167,,,,,,62.11,,N,29.22,27.96,84.37,Clear
KIGQ,05/28/2018 01:55 UTC,29.88,80.24,62.06,54.0,3.44,130.0,,,,,,1.0,,,,10.0,,KIGQ 280155Z AUTO 13003KT 10SM CLR 27/17 A2988 RMK AO2  T02680167,,,,,,62.08,,SE,29.23,28.0,81.43,Clear
KIGQ,05/28/2018 02:15 UTC,29.88,78.98,62.96,58.08,3.44,90.0,,,,,,1.0,,,,10.0,,KIGQ 280215Z AUTO 09003KT 10SM CLR 26/17 A2988 RMK AO2  T02610172,,,,,,62.97,,E,29.23,27.96,,Clear
KIGQ,05/28/2018 02:35 UTC,29.89,80.6,62.6,54.4,0.0,0.0,,,,,,1.0,,,,10.0,,KIGQ 280235Z AUTO 00000KT 10SM CLR 27/17 A2989 RMK AO2  T02700170,,,,,,62.62,,N,29.24,27.98,81.85,Clear
KIGQ,05/28/2018 02:55 UTC,29.9,75.56,64.22,67.96,4.61,180.0,,,,,,1.0,,,,10.0,,KIGQ 280255Z AUTO 18004KT 10SM CLR 24/18 A2990 RMK AO2  T02420179,,,,,,64.21,,S,29.25,27.94,,Clear
KIGQ,05/28/2018 03:15 UTC,29.91,72.14,64.58,77.16,5.75,180.0,,,,,,1.0,,,,10.0,,KIGQ 280315Z AUTO 18005KT 10SM CLR 22/18 A2991 RMK AO2  T02230181,,,,,,64.56,,S,29.26,27.97,,Clear
KIGQ,05/28/2018 03:35 UTC,29.91,73.58,63.5,70.79,0.0,0.0,,,,,,1.0,,,,10.0,,KIGQ 280335Z AUTO 00000KT 10SM CLR 23/18 A2991 RMK AO2  T02310175,,,,,,63.48,,N,29.26,28.02,,Clear
KIGQ,05/28/2018 03:55 UTC,29.9,76.46,62.42,61.92,3.44,180.0,,,,,,1.0,,,,10.0,,KIGQ 280355Z AUTO 18003KT 10SM CLR 25/17 A2990 RMK AO2  T02470169,,,,,,62.41,,S,29.25,28.04,,Clear
KIGQ,05/28/2018 04:15 UTC,29.91,72.68,62.24,69.81,0.0,0.0,,,,,,1.0,,,,10.0,,KIGQ 280415Z AUTO 00000KT 10SM CLR 23/17 A2991 RMK AO2  T02260168,,,,,,62.22,,N,29.26,28.11,,Clear
KIGQ,05/28/2018 04:35 UTC,29.91,73.76,61.34,65.22,3.44,200.0,,,,,,1.0,,,,10.0,,KIGQ 280435Z AUTO 20003KT 10SM CLR 23/16 A2991 RMK AO2  T02320163,,,,,,61.32,,SSW,29.26,28.15,,Clear
KIGQ,05/28/2018 04:55 UTC,29.91,73.58,62.06,67.3,3.44,180.0,,,,,,1.0,,,,10.0,,KIGQ 280455Z AUTO 18003KT 10SM CLR 23/17 A2991 RMK AO2  T02310167,,,,,,62.04,,S,29.26,28.11,,Clear
KIGQ,05/28/2018 05:15 UTC,29.91,72.86,61.16,66.79,0.0,0.0,,,,,,1.0,,,,10.0,,KIGQ 280515Z AUTO 00000KT 10SM CLR 23/16 A2991 RMK AO2  T02270162,,,,,,61.13,,N,29.26,28.17,,Clear
KIGQ,05/28/2018 05:35 UTC,29.92,71.96,62.06,71.07,0.0,0.0,,,,,,1.0,,,,10.0,,KIGQ 280535Z AUTO 00000KT 10SM CLR 22/17 A2992 RMK AO2  T02220167,,,,,,62.03,,N,29.27,28.14,,Clear
KIGQ,05/28/2018 05:55 UTC,29.92,72.68,62.42,70.25,0.0,0.0,,,,,,1.0,,,,10.0,,KIGQ 280555Z AUTO 00000KT 10SM CLR 23/17 A2992 RMK AO2 T02260169  10311 20219 403450191,87.98,71.42,,94.1,66.38,62.39,,N,29.27,28.11,,Clear
KIGQ,05/28/2018 06:15 UTC,29.91,70.52,62.6,76.06,0.0,0.0,,,,,,1.0,,,,10.0,,KIGQ 280615Z AUTO 00000KT 10SM CLR 21/17 A2991 RMK AO2 LTG DSNT NW  T02140170,,,,,,62.57,,N,29.26,28.11,,Clear
KIGQ,05/28/2018 06:35 UTC,29.91,68.0,65.3,91.1,3.44,190.0,,,,,,1.0,,,,10.0,,KIGQ 280635Z AUTO 19003KT 10SM CLR 20/19 A2991 RMK AO2  T02000185,,,,,,65.29,,S,29.26,27.98,,Clear
KIGQ,05/28/2018 06:55 UTC,29.91,68.18,64.22,87.19,3.44,190.0,,,,,,1.0,,,,10.0,,KIGQ 280655Z AUTO 19003KT 10SM CLR 20/18 A2991 RMK AO2  T02010179,,,,,,64.2,,S,29.26,28.04,,Clear
KIGQ,05/28/2018 07:15 UTC,29.9,70.16,63.5,79.46,5.75,190.0,,,,,,1.0,,,,10.0,,KIGQ 280715Z AUTO 19005KT 10SM CLR 21/18 A2990 RMK AO2  T02120175,,,,,,63.48,,S,29.25,28.05,,Clear
KIGQ,05/28/2018 07:35 UTC,29.91,69.8,64.4,83.01,0.0,0.0,,,,,,1.0,,,,10.0,,KIGQ 280735Z AUTO 00000KT 10SM CLR 21/18 A2991 RMK AO2  T02100180,,,,,,64.38,,N,29.26,28.01,,Clear
KIGQ,05/28/2018 07:55 UTC,29.9,70.88,64.58,80.52,3.44,180.0,,,,,,1.0,,,,10.0,,KIGQ 280755Z AUTO 18003KT 10SM CLR 22/18 A2990 RMK AO2  T02160181,,,,,,64.56,,S,29.25,27.98,,Clear
KIGQ,05/28/2018 08:15 UTC,29.9,69.98,64.76,83.55,0.0,0.0,,,,,,1.0,,,,10.0,,KIGQ 280815Z AUTO 00000KT 10SM CLR 21/18 A2990 RMK AO2  T02110182,,,,,,64.74,,N,29.25,27.98,,Clear
KIGQ,05/28/2018 08:35 UTC,29.91,70.52,65.3,83.58,0.0,0.0,,,,,,1.0,,,,10.0,,KIGQ 280835Z AUTO 00000KT 10SM CLR 21/19 A2991 RMK AO2  T02140185,,,,,,65.28,,N,29.26,27.95,,Clear
KIGQ,05/28/2018 08:55 UTC,29.92,70.16,65.12,84.08,0.0,0.0,,,,,,1.0,,,,10.0,,KIGQ 280855Z AUTO 00000KT 10SM CLR 21/18 A2992 RMK AO2  T02120184,,,,,,65.1,,N,29.27,27.97,,Clear
KIGQ,05/28/2018 09:15 UTC,29.92,69.62,64.94,85.11,0.0,0.0,,,,,,1.0,,,,10.0,,KIGQ 280915Z AUTO 00000KT 10SM CLR 21/18 A2992 RMK AO2  T02090183,,,,,,64.92,,N,29.27,27.99,,Clear
KIGQ,05/28/2018 09:35 UTC,29.92,68.72,64.76,87.22,0.0,0.0,,,,,,1.0,,,,10.0,,KIGQ 280935Z AUTO 00000KT 10SM CLR 20/18 A2992 RMK AO2  T02040182,,,,,,64.74,,N,29.27,28.01,,Clear
KIGQ,05/28/2018 09:55 UTC,29.92,67.1,64.58,91.64,3.44,190.0,,,,,,1.0,,,,10.0,,KIGQ 280955Z AUTO 19003KT 10SM CLR 20/18 A2992 RMK AO2  T01950181,,,,,,64.57,,S,29.27,28.05,,Clear
KIGQ,05/28/2018 10:15 UTC,29.92,67.1,65.12,93.37,0.0,0.0,,,,,,1.0,,,,10.0,,KIGQ 281015Z AUTO 00000KT 10SM CLR 20/18 A2992 RMK AO2  T01950184,,,,,,65.11,,N,29.27,28.01,,Clear
KIGQ,05/28/2018 10:35 UTC,29.93,68.18,65.66,91.67,0.0,0.0,,,,,,1.0,,,,10.0,,KIGQ 281035Z AUTO 00000KT 10SM CLR 20/19 A2993 RMK AO2  T02010187,,,,,,65.65,,N,29.28,27.98,,Clear
KIGQ,05/28/2018 10:55 UTC,29.93,67.82,65.66,92.81,0.0,0.0,,,,,,1.0,,,,10.0,,KIGQ 281055Z AUTO 00000KT 10SM CLR 20/19 A2993 RMK AO2  T01990187,,,,,,65.65,,N,29.28,27.98,,Clear
KIGQ,05/28/2018 11:15 UTC,29.94,68.18,66.38,93.99,0.0,0.0,,,,,,1.0,,,,10.0,,KIGQ 281115Z AUTO 00000KT 10SM CLR 20/19 A2994 RMK AO2  T02010191,,,,,,66.37,,N,29.29,27.94,,Clear
KIGQ,05/28/2018 11:35 UTC,29.94,70.7,68.18,91.76,0.0,0.0,,,,,,1.0,,,,10.0,,KIGQ 281135Z AUTO 00000KT 10SM CLR 22/20 A2994 RMK AO2  T02150201,,,,,,68.17,,N,29.29,27.78,,Clear
KIGQ,05/28/2018 11:55 UTC,29.94,72.68,69.8,90.71,0.0,0.0,,,,,,1.0,,,,10.0,,KIGQ 281155Z AUTO 00000KT 10SM CLR 23/21 A2994 RMK AO2 T02260210  10227 20195,72.86,67.1,,,,69.79,,N,29.29,27.64,,Clear
KIGQ,05/28/2018 12:15 UTC,29.94,75.74,71.06,85.47,0.0,0.0,,,,,,1.0,,,,10.0,,KIGQ 281215Z AUTO 00000KT 10SM CLR 24/22 A2994 RMK AO2  T02430217,,,,,,71.06,,N,29.29,27.5,,Clear
KIGQ,05/28/2018 12:35 UTC,29.95,77.9,69.98,76.71,0.0,0.0,,,,,,1.0,,,,10.0,,KIGQ 281235Z AUTO 00000KT 10SM CLR 26/21 A2995 RMK AO2  T02550211,,,,,,69.98,,N,29.3,27.56,,Clear
KIGQ,05/28/2018 12:55 UTC,29.95,80.06,71.06,74.14,0.0,0.0,,,,,,1.0,,,,10.0,,KIGQ 281255Z AUTO 00000KT 10SM CLR 27/22 A2995 RMK AO2  T02670217,,,,,,71.07,,N,29.3,27.45,83.57,Clear
KIGQ,05/28/2018 13:15 UTC,29.95,82.04,71.6,70.8,0.0,0.0,,,,,,1.0,,,,10.0,,KIGQ 281315Z AUTO 00000KT 10SM CLR 28/22 A2995 RMK AO2  T02780220,,,,,,71.62,,N,29.3,27.38,86.69,Clear
KIGQ,05/28/2018 13:35 UTC,29.96,83.3,71.6,67.98,0.0,0.0,,,,,,1.0,,,,10.0,,KIGQ 281335Z AUTO 00000KT 10SM CLR 29/22 A2996 RMK AO2  T02850220,,,,,,71.63,,N,29.31,27.38,88.43,Clear
KIGQ,05/28/2018 13:55 UTC,29.96,84.38,72.32,67.28,3.44,280.0,,,,,,1.0,,,,10.0,,KIGQ 281355Z AUTO 28003KT 10SM CLR 29/22 A2996 RMK AO2  T02910224,,,,,,72.36,,W,29.31,27.3,90.39,Clear
KIGQ,05/28/2018 14:15 UTC,29.96,86.0,70.88,60.85,3.44,290.0,,,,,,1.0,,,,10.0,,KIGQ 281415Z AUTO 29003KT 10SM CLR 30/22 A2996 RMK AO2  T03000216,,,,,,70.94,,WNW,29.31,27.4,91.41,Clear
KIGQ,05/28/2018 14:35 UTC,29.96,86.36,70.7,59.79,0.0,0.0,,,,,,1.0,,,,10.0,,KIGQ 281435Z AUTO 00000KT 10SM CLR 30/22 A2996 RMK AO2  T03020215,,,,,,70.76,,N,29.31,27.41,91.71,Clear
KIGQ,05/28/2018 14:55 UTC,29.97,87.44,70.16,56.73,4.61,340.0,,,,,,1.0,,,,10.0,,KIGQ 281455Z AUTO 34004KT 10SM CLR 31/21 A2997 RMK AO2  T03080212,,,,,,70.24,,NNW,29.32,27.45,92.61,Clear
KIGQ,05/28/2018 15:15 UTC,29.97,88.34,69.8,54.47,8.05,360.0,,,,,,1.0,,,,10.0,,KIGQ 281515Z AUTO 36007KT 10SM CLR 31/21 A2997 RMK AO2  T03130210,,,,,,69.89,,N,29.32,27.47,93.4,Clear
KIGQ,05/28/2018 15:35 UTC,29.98,88.7,68.54,51.58,16.11,20.0,20.71,,,,,1.0,,,,10.0,,KIGQ 281535Z AUTO 02014G18KT 10SM CLR 32/20 A2998 RMK AO2  T03150203,,,,,,68.64,,NNE,29.33,27.57,92.87,Clear
KIGQ,05/28/2018 15:55 UTC,29.99,85.82,68.18,55.82,9.22,20.0,19.57,,,,,1.0,,,,10.0,,KIGQ 281555Z AUTO 02008G17KT 10SM CLR 30/20 A2999 RMK AO2  T02990201,,,,,,68.25,,NNE,29.34,27.64,89.36,Clear
KIGQ,05/28/2018 16:15 UTC,30.0,83.48,67.1,57.96,9.22,360.0,18.41,,,,,1.0,,,,10.0,,KIGQ 281615Z AUTO 36008G16KT 10SM CLR 29/20 A3000 RMK AO2  T02860195,,,,,,67.14,,N,29.35,27.76,86.18,Clear
KIGQ,05/28/2018 16:35 UTC,30.01,81.68,67.28,61.81,12.66,20.0,20.71,,,,,1.0,,,,10.0,,KIGQ 281635Z AUTO 02011G18KT 350V050 10SM CLR 28/20 A3001 RMK AO2  T02760196,,,,,,67.3,,NNE,29.36,27.77,84.29,Clear
KIGQ,05/28/2018 16:55 UTC,30.02,80.6,63.5,56.14,18.41,40.0,26.46,,,,,1.0,,,,,,KIGQ 281655Z AUTO 04016G23KT CLR 27/18 A3002 RMK AO2 T02700175  PWINO,,,,,,63.52,,NE,29.37,28.05,82.06,Clear
KIGQ,05/28/2018 17:15 UTC,30.01,81.86,62.6,52.22,19.57,50.0,35.68,,,,,1.0,,,,,,KIGQ 281715Z AUTO 05017G31KT CLR 28/17 A3001 RMK AO2 T02770170  PWINO,,,,,,62.63,,NE,29.36,28.09,82.95,Clear
KIGQ,05/28/2018 17:35 UTC,30.0,81.68,63.14,53.53,20.71,40.0,25.32,,,,,1.0,,,,,,KIGQ 281735Z AUTO 04018G22KT CLR 28/17 A3000 RMK AO2 T02760173  PWINO,,,,,,63.17,,NE,29.35,28.04,82.94,Clear
KIGQ,05/28/2018 17:55 UTC,29.99,82.4,63.68,53.29,19.57,50.0,25.32,,,,,1.0,,,,,,KIGQ 281755Z AUTO 05017G22KT CLR 28/18 A2999 RMK AO2 T02800176  10315 20228 PWINO,88.7,73.04,,,,63.71,,NE,29.34,27.99,83.76,Clear
KIGQ,05/28/2018 18:15 UTC,29.98,82.58,63.86,53.32,16.11,40.0,24.16,,,,,1.0,,,,,,KIGQ 281815Z AUTO 04014G21KT CLR 28/18 A2998 RMK AO2 T02810177  PWINO,,,,,,63.9,,NE,29.33,27.97,83.99,Clear
KIGQ,05/28/2018 18:35 UTC,29.96,82.76,64.04,53.34,10.36,60.0,23.02,,,,,1.0,,,,,,KIGQ 281835Z AUTO 06009G20KT CLR 28/18 A2996 RMK AO2 T02820178  PWINO,,,,,,64.08,,ENE,29.31,27.93,84.22,Clear
KIGQ,05/28/2018 18:55 UTC,29.96,84.2,66.02,54.56,9.22,40.0,16.11,,,,,1.0,,,,10.0,,KIGQ 281855Z AUTO 04008G14KT 10SM CLR 29/19 A2996 RMK AO2  T02900189,,,,,,66.07,,NE,29.31,27.78,86.44,Clear
KIGQ,05/28/2018 19:15 UTC,29.95,85.64,66.38,52.76,4.61,30.0,,,,,,1.0,,,,10.0,,KIGQ 281915Z AUTO 03004KT 10SM CLR 30/19 A2995 RMK AO2  T02980191,,,,,,66.45,,NNE,29.3,27.73,88.13,Clear
KIGQ,05/28/2018 19:35 UTC,29.94,86.36,66.56,51.89,4.61,20.0,,,,,,1.0,,,,10.0,,KIGQ 281935Z AUTO 02004KT 10SM CLR 30/19 A2994 RMK AO2  T03020192,,,,,,66.64,,NNE,29.29,27.7,89.0,Clear
KIGQ,05/28/2018 19:55 UTC,29.92,87.26,67.1,51.38,0.0,0.0,,,,,,1.0,,,,10.0,,KIGQ 281955Z AUTO 00000KT 10SM CLR 31/20 A2992 RMK AO2  T03070195,,,,,,67.19,,N,29.27,27.63,90.3,Clear
KIGQ,05/28/2018 20:15 UTC,29.92,89.42,68.18,49.81,0.0,0.0,,,,,,1.0,,,,10.0,,KIGQ 282015Z AUTO 00000KT 10SM CLR 32/20 A2992 RMK AO2  T03190201,,,,,,68.29,,N,29.27,27.53,93.45,Clear
KIGQ,05/28/2018 20:35 UTC,29.91,89.6,67.64,48.62,0.0,0.0,,,,,,1.0,,,,10.0,,KIGQ 282035Z AUTO 00000KT 10SM CLR 32/20 A2991 RMK AO2  T03200198,,,,,,67.75,,N,29.26,27.56,93.27,Clear
KIGQ,05/28/2018 20:55 UTC,29.9,90.86,69.44,49.72,0.0,0.0,,,,,,1.0,,,,10.0,,KIGQ 282055Z AUTO 00000KT 10SM CLR 33/21 A2990 RMK AO2  T03270208,,,,,,69.57,,N,29.25,27.4,96.11,Clear
KIGQ,05/28/2018 21:15 UTC,29.89,91.76,67.82,45.73,0.0,0.0,,,,,,1.0,,,,10.0,,KIGQ 282115Z AUTO 00000KT 10SM CLR 33/20 A2989 RMK AO2  T03320199,,,,,,67.97,,N,29.24,27.5,95.89,Clear
KIGQ,05/28/2018 21:35 UTC,29.88,92.3,68.0,45.25,0.0,0.0,,,,,,1.0,,,,10.0,,KIGQ 282135Z AUTO 00000KT 10SM CLR 34/20 A2988 RMK AO2  T03350200,,,,,,68.15,,N,29.23,27.47,96.67,Clear
KIGQ,05/28/2018 21:55 UTC,29.88,92.3,68.72,46.38,0.0,0.0,,,,,,1.0,,,,10.0,,KIGQ 282155Z AUTO 00000KT 10SM CLR 34/20 A2988 RMK AO2  T03350204,,,,,,68.87,,N,29.23,27.42,97.23,Clear
KIGQ,05/28/2018 22:15 UTC,29.88,92.66,65.48,41.02,0.0,0.0,,,,,,1.0,,,,10.0,,KIGQ 282215Z AUTO 00000KT 10SM CLR 34/19 A2988 RMK AO2  T03370186,,,,,,65.65,,N,29.23,27.65,95.31,Clear
KIGQ,05/28/2018 22:35 UTC,29.88,92.66,66.92,43.12,0.0,0.0,,,,,,1.0,,,,10.0,,KIGQ 282235Z AUTO 00000KT 10SM CLR 34/19 A2988 RMK AO2  T03370194,,,,,,67.09,,N,29.23,27.55,96.29,Clear
KIGQ,05/28/2018 22:55 UTC,29.87,93.02,67.46,43.44,0.0,0.0,,,,,,1.0,,,,10.0,,KIGQ 282255Z AUTO 00000KT 10SM CLR 34/20 A2987 RMK AO2  T03390197,,,,,,67.63,,N,29.22,27.5,97.11,Clear
KIGQ,05/28/2018 23:15 UTC,29.88,91.94,69.98,48.97,0.0,0.0,,,,,,1.0,,,,10.0,,KIGQ 282315Z AUTO 00000KT 10SM CLR 33/21 A2988 RMK AO2  T03330211,,,,,,70.12,,N,29.23,27.32,97.87,Clear
KIGQ,05/28/2018 23:35 UTC,29.88,91.22,68.72,47.97,0.0,0.0,,,,,,1.0,,,,10.0,,KIGQ 282335Z AUTO 00000KT 10SM CLR 33/20 A2988 RMK AO2  T03290204,,,,,,68.86,,N,29.23,27.43,95.96,Clear
KIGQ,05/28/2018 23:55 UTC,29.88,92.66,65.84,41.54,0.0,0.0,,,,,,1.0,,,,10.0,,KIGQ 282355Z AUTO 00000KT 10SM CLR 34/19 A2988 RMK AO2 T03370188  10341 20279,93.38,82.22,,,,66.02,,N,29.23,27.63,95.55,Clear
KIGQ,05/29/2018 00:15 UTC,29.88,86.54,69.08,56.26,5.75,40.0,,,,,,1.0,,,,10.0,,KIGQ 290015Z AUTO 04005KT 10SM CLR 30/21 A2988 RMK AO2  T03030206,,,,,,69.15,,NE,29.23,27.45,90.76,Clear
KIGQ,05/29/2018 00:35 UTC,29.88,83.48,66.74,57.25,4.61,50.0,,,,,,1.0,,,,10.0,,KIGQ 290035Z AUTO 05004KT 10SM CLR 29/19 A2988 RMK AO2  T02860193,,,,,,66.78,,NE,29.23,27.66,86.02,Clear
KIGQ,05/29/2018 00:55 UTC,29.9,77.0,64.4,65.2,8.05,60.0,,,,,,1.0,,,,10.0,,KIGQ 290055Z AUTO 06007KT 10SM CLR 25/18 A2990 RMK AO2  T02500180,,,,,,64.4,,ENE,29.25,27.91,,Clear
KIGQ,05/29/2018 01:15 UTC,29.91,73.22,62.96,70.31,3.44,60.0,,,,,,1.0,,,,10.0,,KIGQ 290115Z AUTO 06003KT 10SM CLR 23/17 A2991 RMK AO2  T02290172,,,,,,62.94,,ENE,29.26,28.06,,Clear
KIGQ,05/29/2018 01:35 UTC,29.91,71.6,62.6,73.32,6.91,30.0,,,,,,1.0,,,,10.0,,KIGQ 290135Z AUTO 03006KT 10SM CLR 22/17 A2991 RMK AO2  T02200170,,,,,,62.57,,NNE,29.26,28.1,,Clear
KIGQ,05/29/2018 01:55 UTC,29.91,70.7,62.6,75.59,5.75,40.0,,,,,,1.0,,,,10.0,,KIGQ 290155Z AUTO 04005KT 10SM CLR 22/17 A2991 RMK AO2  T02150170,,,,,,62.57,,NE,29.26,28.11,,Clear
KIGQ,05/29/2018 02:15 UTC,29.92,70.7,62.6,75.59,3.44,40.0,,,,,,1.0,,,,10.0,,KIGQ 290215Z AUTO 04003KT 10SM CLR 22/17 A2992 RMK AO2  T02150170,,,,,,62.57,,NE,29.27,28.12,,Clear
KIGQ,05/29/2018 02:35 UTC,29.92,70.7,63.14,77.04,3.44,30.0,,,,,,1.0,,,,10.0,,KIGQ 290235Z AUTO 03003KT 10SM CLR 22/17 A2992 RMK AO2  T02150173,,,,,,63.12,,NNE,29.27,28.09,,Clear
KIGQ,05/29/2018 02:55 UTC,29.93,70.88,63.5,77.54,0.0,0.0,,,,,,1.0,,,,10.0,,KIGQ 290255Z AUTO 00000KT 10SM CLR 22/18 A2993 RMK AO2  T02160175,,,,,,63.48,,N,29.28,28.07,,Clear
KIGQ,05/29/2018 03:15 UTC,29.93,71.06,63.86,78.05,0.0,0.0,,,,,,1.0,,,,10.0,,KIGQ 290315Z AUTO 00000KT 10SM CLR 22/18 A2993 RMK AO2  T02170177,,,,,,63.84,,N,29.28,28.05,,Clear
KIGQ,05/29/2018 03:35 UTC,29.93,71.24,64.22,78.56,4.61,30.0,,,,,,1.0,,,,10.0,,KIGQ 290335Z AUTO 03004KT 10SM CLR 22/18 A2993 RMK AO2  T02180179,,,,,,64.2,,NNE,29.28,28.02,,Clear
KIGQ,05/29/2018 03:55 UTC,29.93,71.06,63.86,78.05,0.0,0.0,,,,,,1.0,,,,10.0,,KIGQ 290355Z AUTO 00000KT 10SM CLR 22/18 A2993 RMK AO2  T02170177,,,,,,63.84,,N,29.28,28.05,,Clear
KIGQ,05/29/2018 04:15 UTC,29.93,70.7,63.5,78.02,6.91,40.0,,,,,,1.0,,,,10.0,,KIGQ 290415Z AUTO 04006KT 10SM CLR 22/18 A2993 RMK AO2  T02150175,,,,,,63.48,,NE,29.28,28.08,,Clear
KIGQ,05/29/2018 04:35 UTC,29.94,69.44,62.78,79.41,6.91,40.0,,,,,,1.0,,,,10.0,,KIGQ 290435Z AUTO 04006KT 10SM CLR 21/17 A2994 RMK AO2  T02080171,,,,,,62.76,,NE,29.29,28.14,,Clear
KIGQ,05/29/2018 04:55 UTC,29.94,68.54,62.42,80.86,4.61,40.0,,,,,,1.0,,,,10.0,,KIGQ 290455Z AUTO 04004KT 10SM CLR 20/17 A2994 RMK AO2  T02030169,,,,,,62.39,,NE,29.29,28.18,,Clear
KIGQ,05/29/2018 05:15 UTC,29.93,68.9,61.7,77.87,4.61,20.0,,,,,,1.0,,,,10.0,,KIGQ 290515Z AUTO 02004KT 10SM CLR 21/17 A2993 RMK AO2  T02050165,,,,,,61.67,,NNE,29.28,28.2,,Clear
KIGQ,05/29/2018 05:35 UTC,29.93,68.72,60.98,76.38,3.44,30.0,,,,,,1.0,,,,10.0,,KIGQ 290535Z AUTO 03003KT 10SM CLR 20/16 A2993 RMK AO2  T02040161,,,,,,60.95,,NNE,29.28,28.24,,Clear
KIGQ,05/29/2018 05:55 UTC,29.93,68.9,60.8,75.43,4.61,20.0,,,,,,1.0,,,,10.0,,KIGQ 290555Z AUTO 02004KT 10SM CLR 21/16 A2993 RMK AO2 T02050160  10339 20203 403410195,93.02,68.54,,93.38,67.1,60.77,,NNE,29.28,28.25,,Clear
KIGQ,05/29/2018 06:15 UTC,29.93,69.08,60.98,75.44,3.44,10.0,,,,,,1202.0,,,,10.0,,KIGQ 290615Z AUTO 01003KT 10SM SCT120 21/16 A2993 RMK AO2  T02060161,,,,,,60.95,,N,29.28,28.24,,Partly Cloudy
KIGQ,05/29/2018 06:35 UTC,29.92,68.9,60.8,75.43,0.0,0.0,,,,,,1.0,,,,10.0,,KIGQ 290635Z AUTO 00000KT 10SM CLR 21/16 A2992 RMK AO2  T02050160,,,,,,60.77,,N,29.27,28.24,,Clear
KIGQ,05/29/2018 06:55 UTC,29.91,69.08,60.44,74.01,0.0,0.0,,,,,,1203.0,,,,10.0,,KIGQ 290655Z AUTO 00000KT 10SM BKN120 21/16 A2991 RMK AO2  T02060158,,,12000.0,,,60.4,,N,29.26,28.25,,Mostly Cloudy
KIGQ,05/29/2018 07:15 UTC,29.91,68.72,60.44,74.93,3.44,30.0,,,,,,1202.0,,,,10.0,,KIGQ 290715Z AUTO 03003KT 10SM SCT120 20/16 A2991 RMK AO2  T02040158,,,,,,60.41,,NNE,29.26,28.25,,Partly Cloudy
KIGQ,05/29/2018 07:35 UTC,29.91,66.56,60.44,80.71,0.0,0.0,,,,,,1.0,,,,10.0,,KIGQ 290735Z AUTO 00000KT 10SM CLR 19/16 A2991 RMK AO2  T01920158,,,,,,60.41,,N,29.26,28.28,,Clear
KIGQ,05/29/2018 07:55 UTC,29.91,66.92,60.44,79.71,0.0,0.0,,,,,,1.0,,,,10.0,,KIGQ 290755Z AUTO 00000KT 10SM CLR 19/16 A2991 RMK AO2  T01940158,,,,,,60.41,,N,29.26,28.28,,Clear
KIGQ,05/29/2018 08:15 UTC,29.91,67.28,60.26,78.23,0.0,0.0,,,,,,1.0,,,,10.0,,KIGQ 290815Z AUTO 00000KT 10SM CLR 20/16 A2991 RMK AO2  T01960157,,,,,,60.23,,N,29.26,28.28,,Clear
KIGQ,05/29/2018 08:35 UTC,29.92,66.2,60.26,81.2,0.0,0.0,,,,,,1.0,,,,10.0,,KIGQ 290835Z AUTO 00000KT 10SM CLR 19/16 A2992 RMK AO2  T01900157,,,,,,60.23,,N,29.27,28.3,,Clear
KIGQ,05/29/2018 08:55 UTC,29.91,66.74,60.44,80.21,0.0,0.0,,,,,,1102.0,,,,10.0,,KIGQ 290855Z AUTO 00000KT 10SM SCT110 19/16 A2991 RMK AO2  T01930158,,,,,,60.41,,N,29.26,28.28,,Partly Cloudy
KIGQ,05/29/2018 09:15 UTC,29.91,66.74,60.8,81.24,0.0,0.0,,,,,,1.0,,,,10.0,,KIGQ 290915Z AUTO 00000KT 10SM CLR 19/16 A2991 RMK AO2  T01930160,,,,,,60.77,,N,29.26,28.26,,Clear
KIGQ,05/29/2018 09:35 UTC,29.91,66.2,60.98,83.3,0.0,0.0,,,,,,1.0,,,,10.0,,KIGQ 290935Z AUTO 00000KT 10SM CLR 19/16 A2991 RMK AO2  T01900161,,,,,,60.95,,N,29.26,28.25,,Clear
KIGQ,05/29/2018 09:55 UTC,29.91,66.2,60.98,83.3,0.0,0.0,,,,,,1.0,,,,10.0,,KIGQ 290955Z AUTO 00000KT 10SM CLR 19/16 A2991 RMK AO2  T01900161,,,,,,60.95,,N,29.26,28.25,,Clear
KIGQ,05/29/2018 10:15 UTC,29.91,66.2,61.16,83.83,0.0,0.0,,,,,,1103.0,,,,10.0,,KIGQ 291015Z AUTO 00000KT 10SM BKN110 19/16 A2991 RMK AO2  T01900162,,,11000.0,,,61.13,,N,29.26,28.24,,Mostly Cloudy
KIGQ,05/29/2018 10:35 UTC,29.92,65.66,61.34,85.96,3.44,10.0,,,,,,1103.0,,,,10.0,,KIGQ 291035Z AUTO 01003KT 10SM BKN110 19/16 A2992 RMK AO2  T01870163,,,11000.0,,,61.32,,N,29.27,28.25,,Mostly Cloudy
KIGQ,05/29/2018 10:55 UTC,29.92,66.2,60.8,82.77,0.0,0.0,,,,,,1202.0,,,,10.0,,KIGQ 291055Z AUTO 00000KT 10SM SCT120 19/16 A2992 RMK AO2  T01900160,,,,,,60.77,,N,29.27,28.27,,Partly Cloudy
KIGQ,05/29/2018 11:15 UTC,29.92,66.56,61.52,83.86,0.0,0.0,,,,,,1202.0,,,,10.0,,KIGQ 291115Z AUTO 00000KT 10SM SCT120 19/16 A2992 RMK AO2  T01920164,,,,,,61.5,,N,29.27,28.23,,Partly Cloudy
KIGQ,05/29/2018 11:35 UTC,29.93,66.92,62.6,86.03,0.0,0.0,,,,,,1102.0,,,,10.0,,KIGQ 291135Z AUTO 00000KT 10SM SCT110 19/17 A2993 RMK AO2  T01940170,,,,,,62.58,,N,29.28,28.18,,Partly Cloudy
KIGQ,05/29/2018 11:55 UTC,29.93,68.0,62.06,81.33,0.0,0.0,,,,,,1103.0,,,,10.0,,KIGQ 291155Z AUTO 00000KT 10SM BKN110 20/17 A2993 RMK AO2  T02000167 10207 20186,69.26,65.48,11000.0,,,62.03,,N,29.28,28.19,,Mostly Cloudy
KIGQ,05/29/2018 12:15 UTC,29.93,68.54,63.14,82.93,0.0,0.0,,,,,,1103.0,,,,10.0,,KIGQ 291215Z AUTO 00000KT 10SM BKN110 20/17 A2993 RMK AO2  T02030173,,,11000.0,,,63.12,,N,29.28,28.12,,Mostly Cloudy
KIGQ,05/29/2018 12:35 UTC,29.93,69.26,63.5,81.94,0.0,0.0,,,,,,1202.0,,,,10.0,,KIGQ 291235Z AUTO 00000KT 10SM SCT120 21/18 A2993 RMK AO2  T02070175,,,,,,63.48,,N,29.28,28.09,,Partly Cloudy
KIGQ,05/29/2018 12:55 UTC,29.93,70.16,64.22,81.49,0.0,0.0,,,,,,1102.0,,,,10.0,,KIGQ 291255Z AUTO 00000KT 10SM SCT110 21/18 A2993 RMK AO2  T02120179,,,,,,64.2,,N,29.28,28.04,,Partly Cloudy
KIGQ,05/29/2018 13:15 UTC,29.93,71.24,64.22,78.56,3.44,50.0,,,,,,1202.0,,,,10.0,,KIGQ 291315Z AUTO 05003KT 10SM SCT120 22/18 A2993 RMK AO2  T02180179,,,,,,64.2,,NE,29.28,28.02,,Partly Cloudy
KIGQ,05/29/2018 13:35 UTC,29.93,72.86,65.3,77.23,4.61,30.0,,,,,,1.0,,,,10.0,,KIGQ 291335Z AUTO 03004KT 10SM CLR 23/19 A2993 RMK AO2  T02270185,,,,,,65.28,,NNE,29.28,27.94,,Clear
KIGQ,05/29/2018 13:55 UTC,29.94,73.4,64.94,74.89,3.44,40.0,,,,,,1102.0,,,,10.0,,KIGQ 291355Z AUTO 04003KT 10SM SCT110 23/18 A2994 RMK AO2  T02300183,,,,,,64.92,,NE,29.29,27.96,,Partly Cloudy
KIGQ,05/29/2018 14:15 UTC,29.94,74.48,65.48,73.6,0.0,0.0,,,,,,1103.0,,,,10.0,,KIGQ 291415Z AUTO 00000KT 10SM BKN110 24/19 A2994 RMK AO2  T02360186,,,11000.0,,,65.46,,N,29.29,27.91,,Mostly Cloudy
KIGQ,05/29/2018 14:35 UTC,29.93,75.92,66.92,73.74,0.0,0.0,,,,,,1103.0,,,,10.0,,KIGQ 291435Z AUTO 00000KT 10SM BKN110 24/19 A2993 RMK AO2  T02440194,,,11000.0,,,66.91,,N,29.28,27.79,,Mostly Cloudy
KIGQ,05/29/2018 14:55 UTC,29.93,77.18,66.74,70.29,3.44,110.0,,,,,,1102.0,,,,10.0,,KIGQ 291455Z AUTO 11003KT 10SM SCT110 25/19 A2993 RMK AO2  T02510193,,,,,,66.74,,ESE,29.28,27.79,,Partly Cloudy
KIGQ,05/29/2018 15:15 UTC,29.93,78.62,67.64,69.15,0.0,0.0,,,,,,1102.0,,,,10.0,,KIGQ 291515Z AUTO 00000KT 10SM SCT110 26/20 A2993 RMK AO2  T02590198,,,,,,67.64,,N,29.28,27.71,,Partly Cloudy
KIGQ,05/29/2018 15:35 UTC,29.92,80.06,68.18,67.2,0.0,0.0,,,,,,1.0,,,,10.0,,KIGQ 291535Z AUTO 00000KT 10SM CLR 27/20 A2992 RMK AO2  T02670201,,,,,,68.19,,N,29.27,27.64,82.71,Clear
KIGQ,05/29/2018 15:55 UTC,29.92,82.04,69.08,64.99,0.0,0.0,,,,,,1.0,,,,10.0,,KIGQ 291555Z AUTO 00000KT 10SM CLR 28/21 A2992 RMK AO2  T02780206,,,,,,69.11,,N,29.27,27.55,85.45,Clear
KIGQ,05/29/2018 16:15 UTC,29.91,83.3,69.44,63.17,0.0,0.0,,,,,,1.0,,,,10.0,,KIGQ 291615Z AUTO 00000KT 10SM CLR 29/21 A2991 RMK AO2  T02850208,,,,,,69.47,,N,29.26,27.49,87.16,Clear
KIGQ,05/29/2018 16:35 UTC,29.92,84.38,70.52,63.3,3.44,40.0,,,,,,1.0,,,,10.0,,KIGQ 291635Z AUTO 04003KT 10SM CLR 29/21 A2992 RMK AO2  T02910214,,,,,,70.56,,NE,29.27,27.41,89.14,Clear
KIGQ,05/29/2018 16:55 UTC,29.91,83.48,69.08,62.04,5.75,20.0,,,,,,1.0,,,,7.0,,KIGQ 291655Z AUTO 02005KT 7SM CLR 29/21 A2991 RMK AO2  T02860206,,,,,,69.12,,NNE,29.26,27.52,87.18,Clear
KIGQ,05/29/2018 17:15 UTC,29.91,83.84,69.26,61.7,5.75,30.0,,,,,,1.0,,,,10.0,,KIGQ 291715Z AUTO 03005KT 10SM CLR 29/21 A2991 RMK AO2  T02880207,,,,,,69.3,,NNE,29.26,27.5,87.71,Clear
KIGQ,05/29/2018 17:35 UTC,29.91,83.12,68.54,61.61,8.05,20.0,,,,,,1.0,,,,10.0,,KIGQ 291735Z AUTO 02007KT 10SM CLR 28/20 A2991 RMK AO2  T02840203,,,,,,68.57,,NNE,29.26,27.56,86.48,Clear
KIGQ,05/29/2018 17:55 UTC,29.91,82.94,69.08,63.13,4.61,10.0,,,,,,1.0,,,,10.0,,KIGQ 291755Z AUTO 01004KT 10SM CLR 28/21 A2991 RMK AO2 T02830206  10293 20200,84.74,68.0,,,,69.11,,N,29.26,27.53,86.54,Clear
KIGQ,05/29/2018 18:15 UTC,29.9,82.4,68.18,62.29,5.75,10.0,,,,,,1.0,,,,10.0,,KIGQ 291815Z AUTO 01005KT 10SM CLR 28/20 A2990 RMK AO2  T02800201,,,,,,68.21,,N,29.25,27.59,85.48,Clear
KIGQ,05/29/2018 18:35 UTC,29.9,83.3,68.72,61.63,3.44,360.0,,,,,,1.0,,,,10.0,,KIGQ 291835Z AUTO 36003KT 10SM CLR 29/20 A2990 RMK AO2  T02850204,,,,,,68.75,,N,29.25,27.54,86.78,Clear
KIGQ,05/29/2018 18:55 UTC,29.9,82.76,68.54,62.33,3.44,20.0,,,,,,1.0,,,,10.0,,KIGQ 291855Z AUTO 02003KT 10SM CLR 28/20 A2990 RMK AO2  T02820203,,,,,,68.57,,NNE,29.25,27.56,86.06,Clear
KIGQ,05/29/2018 19:15 UTC,29.9,82.58,68.0,61.54,5.75,40.0,,,,,,1.0,,,,10.0,,KIGQ 291915Z AUTO 04005KT 10SM CLR 28/20 A2990 RMK AO2  T02810200,,,,,,68.03,,NE,29.25,27.6,85.6,Clear
KIGQ,05/29/2018 19:35 UTC,29.89,82.04,68.9,64.59,4.61,20.0,,,,,,1.0,,,,10.0,,KIGQ 291935Z AUTO 02004KT 10SM CLR 28/21 A2989 RMK AO2  T02780205,,,,,,68.93,,NNE,29.24,27.53,85.37,Clear
KIGQ,05/29/2018 19:55 UTC,29.88,81.32,68.18,64.5,5.75,30.0,,,,,,1.0,,,,10.0,,KIGQ 291955Z AUTO 03005KT 10SM CLR 27/20 A2988 RMK AO2 LTG DSNT E  T02740201,,,,,,68.2,,NNE,29.23,27.58,84.22,Clear
KIGQ,05/29/2018 20:15 UTC,29.88,77.9,65.84,66.54,8.05,20.0,,,,,,1.0,,,,10.0,,KIGQ 292015Z AUTO 02007KT 10SM CLR 26/19 A2988 RMK AO2 LTG DSNT E  T02550188,,,,,,65.84,,NNE,29.23,27.79,,Clear
KIGQ,05/29/2018 20:35 UTC,29.88,76.1,65.12,68.87,9.22,40.0,,,,,,1.0,,,,10.0,,KIGQ 292035Z AUTO 04008KT 10SM CLR 25/18 A2988 RMK AO2  T02450184,,,,,,65.11,,NE,29.23,27.86,,Clear
KIGQ,05/29/2018 20:55 UTC,29.88,75.38,64.76,69.66,4.61,360.0,,,,,,752.0,,,,10.0,,KIGQ 292055Z AUTO 36004KT 10SM SCT075 24/18 A2988 RMK AO2  T02410182,,,,,,64.75,,N,29.23,27.89,,Partly Cloudy
KIGQ,05/29/2018 21:15 UTC,29.87,74.84,64.4,70.04,5.75,30.0,,,,,,752.0,,,,10.0,,KIGQ 292115Z AUTO 03005KT 10SM SCT075 24/18 A2987 RMK AO2  T02380180,,,,,,64.38,,NNE,29.22,27.91,,Partly Cloudy
KIGQ,05/29/2018 21:35 UTC,29.86,73.58,64.04,72.14,6.91,40.0,,,,,,1.0,,,,10.0,,KIGQ 292135Z AUTO 04006KT 10SM CLR 23/18 A2986 RMK AO2  T02310178,,,,,,64.02,,NE,29.21,27.94,,Clear
KIGQ,05/29/2018 21:55 UTC,29.86,72.5,63.5,73.41,5.75,10.0,,,,,,1.0,,,,10.0,,KIGQ 292155Z AUTO 01005KT 10SM CLR 23/18 A2986 RMK AO2  T02250175,,,,,,63.48,,N,29.21,27.98,,Clear
KIGQ,05/29/2018 22:15 UTC,29.85,73.94,64.58,72.64,4.61,30.0,,,,,,1.0,,,,7.0,,KIGQ 292215Z AUTO 03004KT 7SM CLR 23/18 A2985 RMK AO2  T02330181,,,,,,64.57,,NNE,29.2,27.89,,Clear
KIGQ,05/29/2018 22:35 UTC,29.86,74.48,64.76,71.78,9.22,60.0,,,,,,1.0,,,,10.0,,KIGQ 292235Z AUTO 06008KT 10SM CLR 24/18 A2986 RMK AO2  T02360182,,,,,,64.74,,ENE,29.21,27.88,,Clear
KIGQ,05/29/2018 22:55 UTC,29.85,74.48,64.76,71.78,6.91,40.0,,,,,,1.0,,,,10.0,,KIGQ 292255Z AUTO 04006KT 10SM CLR 24/18 A2985 RMK AO2  T02360182,,,,,,64.74,,NE,29.2,27.87,,Clear
KIGQ,05/29/2018 23:15 UTC,29.84,73.4,64.04,72.58,9.22,40.0,,,,,,1.0,,,,10.0,,KIGQ 292315Z AUTO 04008KT 10SM CLR 23/18 A2984 RMK AO2  T02300178,,,,,,64.02,,NE,29.19,27.92,,Clear
KIGQ,05/29/2018 23:35 UTC,29.84,72.68,63.5,72.97,10.36,50.0,21.85,,,,,1.0,,,,10.0,,KIGQ 292335Z AUTO 05009G19KT 10SM CLR 23/18 A2984 RMK AO2  T02260175,,,,,,63.48,,NE,29.19,27.96,,Clear
KIGQ,05/29/2018 23:55 UTC,29.84,70.7,63.32,77.53,4.61,30.0,,,,,,1.0,,,,10.0,,KIGQ 292355Z AUTO 03004KT 10SM CLR 22/17 A2984 RMK AO2 T02150174  10285 20215,83.3,70.7,,,,63.3,,NNE,29.19,27.99,,Clear
KIGQ,05/30/2018 00:15 UTC,29.83,70.7,63.5,78.02,3.44,30.0,,,,,,1.0,,,,10.0,,KIGQ 300015Z AUTO 03003KT 10SM CLR 22/18 A2983 RMK AO2  T02150175,,,,,,63.48,,NNE,29.18,27.97,,Clear
KIGQ,05/30/2018 00:35 UTC,29.82,71.24,64.4,79.05,6.91,40.0,,,,,,1.0,,,,10.0,,KIGQ 300035Z AUTO 04006KT 10SM CLR 22/18 A2982 RMK AO2  T02180180,,,,,,64.38,,NE,29.17,27.9,,Clear
KIGQ,05/30/2018 00:55 UTC,29.82,71.42,64.58,79.06,4.61,50.0,,,,,,1.0,,,,10.0,,KIGQ 300055Z AUTO 05004KT 10SM CLR 22/18 A2982 RMK AO2  T02190181,,,,,,64.56,,NE,29.17,27.89,,Clear
KIGQ,05/30/2018 01:15 UTC,29.81,71.6,64.94,79.58,5.75,70.0,,,,,,1.0,,,,10.0,,KIGQ 300115Z AUTO 07005KT 10SM CLR 22/18 A2981 RMK AO2  T02200183,,,,,,64.92,,ENE,29.16,27.85,,Clear
KIGQ,05/30/2018 01:35 UTC,29.81,72.5,65.48,78.66,5.75,80.0,,,,,,1.0,,,,10.0,,KIGQ 300135Z AUTO 08005KT 10SM CLR 23/19 A2981 RMK AO2  T02250186,,,,,,65.46,,E,29.16,27.81,,Clear
KIGQ,05/30/2018 01:55 UTC,29.81,73.22,66.02,78.23,5.75,100.0,,,,,,1.0,,,,10.0,,KIGQ 300155Z AUTO 10005KT 10SM CLR 23/19 A2981 RMK AO2  T02290189,,,,,,66.01,,E,29.16,27.76,,Clear
KIGQ,05/30/2018 02:15 UTC,29.81,73.94,66.38,77.32,6.91,100.0,,,,,,1.0,,,,10.0,,KIGQ 300215Z AUTO 10006KT 10SM CLR 23/19 A2981 RMK AO2  T02330191,,,,,,66.37,,E,29.16,27.73,,Clear
KIGQ,05/30/2018 02:35 UTC,29.81,74.84,66.74,75.97,6.91,90.0,,,,,,1.0,,,,10.0,,KIGQ 300235Z AUTO 09006KT 10SM CLR 24/19 A2981 RMK AO2  T02380193,,,,,,66.73,,E,29.16,27.69,,Clear
KIGQ,05/30/2018 02:55 UTC,29.81,74.84,67.1,76.92,5.75,90.0,,,,,,1.0,,,,10.0,,KIGQ 300255Z AUTO 09005KT 10SM CLR 24/20 A2981 RMK AO2  T02380195,,,,,,67.09,,E,29.16,27.67,,Clear
KIGQ,05/30/2018 03:15 UTC,29.81,75.38,67.28,76.02,4.61,90.0,,,,,,1.0,,,,10.0,,KIGQ 300315Z AUTO 09004KT 10SM CLR 24/20 A2981 RMK AO2  T02410196,,,,,,67.27,,E,29.16,27.65,,Clear
KIGQ,05/30/2018 03:35 UTC,29.81,75.56,67.46,76.03,3.44,70.0,,,,,,1.0,,,,10.0,,KIGQ 300335Z AUTO 07003KT 10SM CLR 24/20 A2981 RMK AO2  T02420197,,,,,,67.45,,ENE,29.16,27.64,,Clear
KIGQ,05/30/2018 03:55 UTC,29.81,75.56,67.64,76.5,0.0,0.0,,,,,,1.0,,,,10.0,,KIGQ 300355Z AUTO 00000KT 10SM CLR 24/20 A2981 RMK AO2  T02420198,,,,,,67.63,,N,29.16,27.62,,Clear
KIGQ,05/30/2018 04:15 UTC,29.82,75.2,68.0,78.39,0.0,0.0,,,,,,1.0,,,,10.0,,KIGQ 300415Z AUTO 00000KT 10SM CLR 24/20 A2982 RMK AO2  T02400200,,,,,,67.99,,N,29.17,27.61,,Clear
KIGQ,05/30/2018 04:35 UTC,29.82,75.2,68.0,78.39,0.0,0.0,,,,,,1.0,,,,10.0,,KIGQ 300435Z AUTO 00000KT 10SM CLR 24/20 A2982 RMK AO2 LTG DSNT SW  T02400200,,,,,,67.99,,N,29.17,27.61,,Clear
KIGQ,05/30/2018 04:55 UTC,29.81,75.92,68.0,76.54,4.61,80.0,,,,,,1.0,,,,10.0,,KIGQ 300455Z AUTO 08004KT 10SM CLR 24/20 A2981 RMK AO2  T02440200,,,,,,67.99,,E,29.16,27.59,,Clear
KIGQ,05/30/2018 05:15 UTC,29.8,76.28,68.0,75.63,5.75,80.0,,,,,,1.0,,,,10.0,,KIGQ 300515Z AUTO 08005KT 10SM CLR 25/20 A2980 RMK AO2  T02460200,,,,,,68.0,,E,29.15,27.58,,Clear
KIGQ,05/30/2018 05:35 UTC,29.8,76.1,68.0,76.08,5.75,90.0,,,,,,1.0,,,,10.0,,KIGQ 300535Z AUTO 09005KT 10SM CLR 25/20 A2980 RMK AO2  T02450200,,,,,,67.99,,E,29.15,27.58,,Clear
KIGQ,05/30/2018 05:55 UTC,29.79,76.64,68.0,74.73,5.75,80.0,,,,,,1.0,,,,10.0,,KIGQ 300555Z AUTO 08005KT 10SM CLR 25/20 A2979 RMK AO2 T02480200  10248 20215 402930186,76.64,70.7,,84.74,65.48,68.0,,E,29.14,27.56,,Clear
KIGQ,05/30/2018 06:15 UTC,29.79,76.46,68.0,75.18,4.61,90.0,,,,,,1.0,,,,10.0,,KIGQ 300615Z AUTO 09004KT 10SM CLR 25/20 A2979 RMK AO2  T02470200,,,,,,68.0,,E,29.14,27.57,,Clear
KIGQ,05/30/2018 06:35 UTC,29.78,76.46,67.64,74.25,4.61,80.0,,,,,,1.0,,,,10.0,,KIGQ 300635Z AUTO 08004KT 10SM CLR 25/20 A2978 RMK AO2  T02470198,,,,,,67.63,,E,29.13,27.58,,Clear
KIGQ,05/30/2018 06:55 UTC,29.77,76.28,67.64,74.7,4.61,80.0,,,,,,1.0,,,,10.0,,KIGQ 300655Z AUTO 08004KT 10SM CLR 25/20 A2977 RMK AO2  T02460198,,,,,,67.63,,E,29.12,27.57,,Clear
KIGQ,05/30/2018 07:15 UTC,29.77,76.1,67.64,75.14,4.61,70.0,,,,,,1.0,,,,10.0,,KIGQ 300715Z AUTO 07004KT 10SM CLR 25/20 A2977 RMK AO2  T02450198,,,,,,67.63,,ENE,29.12,27.58,,Clear
KIGQ,05/30/2018 07:35 UTC,29.77,75.2,68.0,78.39,0.0,0.0,,,,,,1.0,,,,10.0,,KIGQ 300735Z AUTO 00000KT 10SM CLR 24/20 A2977 RMK AO2  T02400200,,,,,,67.99,,N,29.12,27.56,,Clear
KIGQ,05/30/2018 07:55 UTC,29.77,74.12,68.18,81.77,4.61,10.0,,,,,,1.0,,,,10.0,,KIGQ 300755Z AUTO 01004KT 10SM CLR 23/20 A2977 RMK AO2  T02340201,,,,,,68.17,,N,29.12,27.56,,Clear
KIGQ,05/30/2018 08:15 UTC,29.76,72.5,67.28,83.71,4.61,30.0,,,,,,1.0,,,,10.0,,KIGQ 300815Z AUTO 03004KT 10SM CLR 23/20 A2976 RMK AO2  T02250196,,,,,,67.27,,NNE,29.11,27.64,,Clear
KIGQ,05/30/2018 08:35 UTC,29.75,71.96,67.1,84.72,4.61,40.0,,13.0,,,,1102.0,,,,10.0,,KIGQ 300835Z AUTO 04004KT 10SM -RA SCT110 22/20 A2975 RMK AO2  T02220195,,,,,,67.09,,NE,29.1,27.65,,Light Rain
KIGQ,05/30/2018 08:55 UTC,29.75,71.6,67.46,86.83,0.0,0.0,,,,,,1002.0,1202.0,,,10.0,,KIGQ 300855Z AUTO 00000KT 10SM SCT100 SCT120 22/20 A2975 RMK AO2  T02200197,,,,,,67.45,,N,29.1,27.63,,Partly Cloudy
KIGQ,05/30/2018 09:15 UTC,29.74,71.24,68.18,90.09,0.0,0.0,,13.0,1204.0,,,702.0,1003.0,,,10.0,,KIGQ 300915Z AUTO 00000KT 10SM -RA SCT070 BKN100 OVC120 22/20  A2974 RMK AO2 T02180201,,,10000.0,,,68.17,,N,29.09,27.57,,Light Rain
KIGQ,05/30/2018 09:35 UTC,29.73,70.7,68.54,92.9,3.44,50.0,,,,,,752.0,1004.0,,,10.0,,KIGQ 300935Z AUTO 05003KT 10SM SCT075 OVC100 22/20 A2973 RMK AO2  T02150203,,,10000.0,,,68.53,,NE,29.08,27.55,,Overcast
KIGQ,05/30/2018 09:55 UTC,29.73,70.7,68.72,93.47,0.0,0.0,,,,,,1004.0,,,,10.0,,KIGQ 300955Z AUTO 00000KT 10SM OVC100 22/20 A2973 RMK AO2  T02150204,,,10000.0,,,68.71,,N,29.08,27.53,,Overcast
KIGQ,05/30/2018 10:15 UTC,29.73,71.06,69.08,93.48,0.0,0.0,,,,,,904.0,,,,10.0,,KIGQ 301015Z AUTO 00000KT 10SM OVC090 22/21 A2973 RMK AO2  T02170206,,,9000.0,,,69.07,,N,29.08,27.5,,Overcast
KIGQ,05/30/2018 10:35 UTC,29.73,71.24,68.9,92.34,3.44,90.0,,,,,,902.0,1102.0,,,10.0,,KIGQ 301035Z AUTO 09003KT 10SM SCT090 SCT110 22/21 A2973 RMK AO2  T02180205,,,,,,68.89,,E,29.08,27.51,,Partly Cloudy
KIGQ,05/30/2018 10:55 UTC,29.72,72.86,68.9,87.43,5.75,100.0,,,,,,902.0,1103.0,,,10.0,,KIGQ 301055Z AUTO 10005KT 10SM SCT090 BKN110 23/21 A2972 RMK AO2  T02270205,,,11000.0,,,68.89,,E,29.07,27.48,,Mostly Cloudy
KIGQ,05/30/2018 11:15 UTC,29.72,73.4,69.08,86.39,5.75,110.0,,,,,,903.0,,,,10.0,,KIGQ 301115Z AUTO 11005KT 10SM BKN090 23/21 A2972 RMK AO2  T02300206,,,9000.0,,,69.07,,ESE,29.07,27.46,,Mostly Cloudy
KIGQ,05/30/2018 11:35 UTC,29.72,74.3,69.44,84.86,3.44,120.0,,,,,,903.0,,,,10.0,,KIGQ 301135Z AUTO 12003KT 10SM BKN090 24/21 A2972 RMK AO2  T02350208,,,9000.0,,,69.43,,ESE,29.07,27.42,,Mostly Cloudy
KIGQ,05/30/2018 11:55 UTC,29.72,75.2,69.8,83.37,5.75,110.0,,,,,,902.0,,,,10.0,,KIGQ 301155Z AUTO 11005KT 10SM SCT090 24/21 A2972 RMK AO2 LTG DSNT  W T02400210 10248 20213,76.64,70.34,,,,69.79,,ESE,29.07,27.38,,Partly Cloudy
KIGQ,05/30/2018 12:15 UTC,29.71,75.38,69.8,82.87,6.91,110.0,,,,,,902.0,,,,10.0,,KIGQ 301215Z AUTO 11006KT 10SM SCT090 24/21 A2971 RMK AO2  T02410210,,,,,,69.79,,ESE,29.06,27.37,,Partly Cloudy
KIGQ,05/30/2018 12:35 UTC,29.71,75.92,70.16,82.4,6.91,120.0,,,,,,902.0,,,,10.0,,KIGQ 301235Z AUTO 12006KT 10SM SCT090 24/21 A2971 RMK AO2  T02440212,,,,,,70.16,,ESE,29.06,27.33,,Partly Cloudy
KIGQ,05/30/2018 12:55 UTC,29.72,76.64,70.7,81.95,8.05,130.0,,,,,,902.0,,,,10.0,,KIGQ 301255Z AUTO 13007KT 10SM SCT090 25/22 A2972 RMK AO2  T02480215,,,,,,70.7,,SE,29.07,27.29,,Partly Cloudy
KIGQ,05/30/2018 13:15 UTC,29.71,77.54,70.88,80.03,8.05,120.0,,,,,,802.0,,,,10.0,,KIGQ 301315Z AUTO 12007KT 10SM SCT080 25/22 A2971 RMK AO2  T02530216,,,,,,70.88,,ESE,29.06,27.26,,Partly Cloudy
KIGQ,05/30/2018 13:35 UTC,29.71,80.6,71.6,74.19,10.36,150.0,,,,,,802.0,902.0,,,10.0,,KIGQ 301335Z AUTO 15009KT 10SM SCT080 SCT090 27/22 A2971 RMK AO2  T02700220,,,,,,71.61,,SSE,29.06,27.16,84.58,Partly Cloudy
KIGQ,05/30/2018 13:55 UTC,29.71,80.6,71.6,74.19,11.5,160.0,18.41,,,,,483.0,,,,10.0,,KIGQ 301355Z AUTO 16010G16KT 10SM BKN048 27/22 A2971 RMK AO2 LTG  DSNT NW T02700220,,,4800.0,,,71.61,,SSE,29.06,27.16,84.58,Mostly Cloudy
KIGQ,05/30/2018 14:15 UTC,29.7,80.06,71.24,74.59,12.66,130.0,16.11,,,,,482.0,,,,10.0,,KIGQ 301415Z AUTO 13011G14KT 10SM SCT048 27/22 A2970 RMK AO2  T02670218,,,,,,71.25,,SE,29.05,27.18,83.63,Partly Cloudy
KIGQ,05/30/2018 14:35 UTC,29.7,79.88,71.24,75.03,9.22,150.0,,,,,,1.0,,,,10.0,,KIGQ 301435Z AUTO 15008KT 10SM CLR 27/22 A2970 RMK AO2  T02660218,,,,,,71.25,,SSE,29.05,27.19,,Clear
KIGQ,05/30/2018 14:55 UTC,29.69,80.42,71.96,75.54,6.91,140.0,,,,,,1.0,,,,10.0,,KIGQ 301455Z AUTO 14006KT 10SM CLR 27/22 A2969 RMK AO2  T02690222,,,,,,71.97,,SE,29.04,27.11,84.45,Clear
KIGQ,05/30/2018 15:15 UTC,29.69,80.78,72.32,75.57,8.05,170.0,,,,,,282.0,463.0,,,10.0,,KIGQ 301515Z AUTO 17007KT 10SM SCT028 BKN046 27/22 A2969 RMK AO2  T02710224,,,4600.0,,,72.33,,S,29.04,27.08,85.16,Mostly Cloudy
KIGQ,05/30/2018 15:35 UTC,29.68,80.06,71.78,75.97,9.22,130.0,,,,,,283.0,464.0,,,10.0,,KIGQ 301535Z AUTO 13008KT 10SM BKN028 OVC046 27/22 A2968 RMK AO2  T02670221,,,2800.0,,,71.79,,SE,29.03,27.12,83.81,Overcast
KIGQ,05/30/2018 15:55 UTC,29.68,81.5,72.32,73.82,8.05,150.0,,,,,,302.0,373.0,,,10.0,,KIGQ 301555Z AUTO 15007KT 10SM SCT030 BKN037 28/22 A2968 RMK AO2  T02750224,,,3700.0,,,72.34,,SSE,29.03,27.06,86.27,Mostly Cloudy
KIGQ,05/30/2018 16:15 UTC,29.67,81.5,72.5,74.27,6.91,170.0,,,,,,322.0,413.0,,,10.0,,KIGQ 301615Z AUTO 17006KT 10SM SCT032 BKN041 28/23 A2967 RMK AO2  T02750225,,,4100.0,,,72.52,,S,29.02,27.03,86.36,Mostly Cloudy
KIGQ,05/30/2018 16:35 UTC,29.66,82.94,71.6,68.77,5.75,170.0,16.11,,474.0,,,322.0,393.0,,,10.0,,KIGQ 301635Z AUTO 17005G14KT 10SM SCT032 BKN039 OVC047 28/22 A2966 RMK AO2 T02830220,,,3900.0,,,71.63,,S,29.02,27.09,87.94,Overcast
KIGQ,05/30/2018 16:55 UTC,29.66,83.48,71.6,67.59,11.5,150.0,16.11,,704.0,,,362.0,443.0,,,10.0,,KIGQ 301655Z AUTO 15010G14KT 10SM SCT036 BKN044 OVC070 29/22 A2966 RMK AO2 T02860220,,,4400.0,,,71.63,,SSE,29.02,27.08,88.68,Overcast
KIGQ,05/30/2018 17:15 UTC,29.65,83.3,71.42,67.57,5.75,170.0,,,703.0,,,413.0,503.0,,,10.0,,KIGQ 301715Z AUTO 17005KT 10SM BKN041 BKN050 BKN070 29/22 A2965 RMK AO2 T02850219,,,4100.0,,,71.45,,S,29.01,27.09,88.32,Mostly Cloudy
KIGQ,05/30/2018 17:35 UTC,29.64,84.38,71.6,65.66,8.05,130.0,16.11,,703.0,,,413.0,503.0,,,10.0,,KIGQ 301735Z AUTO 13007G14KT 10SM BKN041 BKN050 BKN070 29/22 A2964 RMK AO2 LTG DSNT W T02910220,,,4100.0,,,71.64,,SE,29.0,27.05,89.87,Mostly Cloudy
KIGQ,05/30/2018 17:55 UTC,29.64,85.28,71.6,63.8,6.91,150.0,,,,,,412.0,703.0,,,10.0,,KIGQ 301755Z AUTO 15006KT 10SM SCT041 BKN070 30/22 A2964 RMK AO2  T02960220 10300 20240,86.0,75.2,7000.0,,,71.65,,SSE,29.0,27.04,91.04,Mostly Cloudy
KIGQ,05/30/2018 18:15 UTC,29.63,83.66,70.88,65.58,11.5,140.0,16.11,,804.0,,,412.0,652.0,,,10.0,,KIGQ 301815Z AUTO 14010G14KT 10SM SCT041 SCT065 OVC080 29/22 A2963 RMK AO2 LTG DSNT S T02870216,,,8000.0,,,70.92,,SE,28.99,27.1,88.45,Overcast
KIGQ,05/30/2018 18:35 UTC,29.62,83.3,70.88,66.34,9.22,110.0,,,903.0,,,412.0,652.0,,,10.0,,KIGQ 301835Z AUTO 11008KT 10SM SCT041 SCT065 BKN090 29/22 A2962 RMK AO2 T02850216,,,9000.0,,,70.91,,ESE,28.98,27.1,87.99,Mostly Cloudy
KIGQ,05/30/2018 18:55 UTC,29.61,84.2,71.06,64.85,6.91,120.0,,,,,,432.0,902.0,,,10.0,,KIGQ 301855Z AUTO 12006KT 10SM SCT043 SCT090 29/22 A2961 RMK AO2  T02900217,,,,,,71.1,,ESE,28.97,27.06,89.27,Partly Cloudy
KIGQ,05/30/2018 19:15 UTC,29.6,83.3,70.88,66.34,6.91,130.0,,,,,,432.0,1003.0,,,10.0,,KIGQ 301915Z AUTO 13006KT 10SM SCT043 BKN100 29/22 A2960 RMK AO2  T02850216,,,10000.0,,,70.91,,SE,28.96,27.08,87.99,Mostly Cloudy
KIGQ,05/30/2018 19:35 UTC,29.6,82.4,70.7,67.88,6.91,140.0,,,,,,902.0,,,,10.0,,KIGQ 301935Z AUTO 14006KT 10SM SCT090 28/22 A2960 RMK AO2 LTG DSNT  E T02800215,,,,,,70.73,,SE,28.96,27.1,86.7,Partly Cloudy
KIGQ,05/30/2018 19:55 UTC,29.6,81.32,70.16,69.02,10.36,130.0,,,,,,443.0,553.0,,,10.0,,KIGQ 301955Z AUTO 13009KT 10SM BKN044 BKN055 27/21 A2960 RMK AO2  LTG DSNT E T02740212,,,4400.0,,,70.18,,SE,28.96,27.16,85.01,Mostly Cloudy
KIGQ,05/30/2018 20:15 UTC,29.61,75.2,72.14,90.25,10.36,140.0,24.16,1.0,753.0,,,443.0,653.0,,,10.0,,KIGQ 302015Z AUTO 14009G21KT 10SM RA BKN044 BKN065 BKN075 24/22  A2961 RMK AO2 T02400223,,,4400.0,,,72.14,,SE,28.97,27.1,,Rain
KIGQ,05/30/2018 20:35 UTC,29.6,73.76,72.86,97.02,8.05,140.0,,1.0,,0.01,,462.0,604.0,,,10.0,,KIGQ 302035Z AUTO 14007KT 10SM RA SCT046 OVC060 23/23 A2960 RMK AO2 P0001 T02320227,,,6000.0,,,72.86,,SE,28.96,27.06,,Rain
KIGQ,05/30/2018 20:55 UTC,29.59,73.4,73.22,99.4,8.05,130.0,,1.0,,0.02,0.02,752.0,904.0,,,10.0,,KIGQ 302055Z AUTO 13007KT 10SM RA SCT075 OVC090 23/23 A2959 RMK AO2 LTG DSNT NW P0002 60002 T02300229,,,9000.0,,,73.22,,SE,28.95,27.02,,Rain
KIGQ,05/30/2018 21:15 UTC,29.57,72.86,72.86,100.0,8.05,130.0,,1.0,904.0,0.01,,92.0,753.0,,,7.0,,KIGQ 302115Z AUTO 13007KT 7SM RA SCT009 BKN075 OVC090 23/23 A2957 RMK AO2 LTG DSNT NW P0001 T02270227,,,7500.0,,,72.86,,SE,28.93,27.04,,Rain
KIGQ,05/30/2018 21:35 UTC,29.57,72.68,72.68,100.0,4.61,160.0,,1.0,904.0,0.01,,82.0,752.0,,,10.0,,KIGQ 302135Z AUTO 16004KT 10SM RA SCT008 SCT075 OVC090 23/23 A2957 RMK AO2 LTG DSNT W AND NW P0001 T02260226,,,9000.0,,,72.68,,SSE,28.93,27.06,,Rain
KIGQ,05/30/2018 21:55 UTC,29.58,72.68,72.68,100.0,3.44,130.0,,13.0,804.0,0.01,,372.0,463.0,,,10.0,,KIGQ 302155Z AUTO 13003KT 10SM -RA SCT037 BKN046 OVC080 23/23  A2958 RMK AO2 LTG DSNT W P0001 T02260226,,,4600.0,,,72.68,,SE,28.94,27.07,,Light Rain
KIGQ,05/30/2018 22:15 UTC,29.58,73.4,73.04,98.8,3.44,100.0,,1.0,654.0,,,372.0,503.0,,,10.0,,KIGQ 302215Z AUTO 10003KT 10SM RA SCT037 BKN050 OVC065 23/23 A2958 RMK AO2 T02300228,,,5000.0,,,73.04,,E,28.94,27.03,,Rain
KIGQ,05/30/2018 22:35 UTC,29.57,73.58,73.04,98.2,0.0,0.0,,13.0,503.0,,,322.0,412.0,,,10.0,,KIGQ 302235Z AUTO 00000KT 10SM -RA SCT032 SCT041 BKN050 23/23  A2957 RMK AO2 T02310228,,,5000.0,,,73.04,,N,28.93,27.01,,Light Rain
KIGQ,05/30/2018 22:55 UTC,29.58,74.3,72.68,94.71,0.0,0.0,,,,,,1.0,,,,10.0,,KIGQ 302255Z AUTO 00000KT 10SM CLR 24/23 A2958 RMK AO2  T02350226,,,,,,72.68,,N,28.94,27.04,,Clear
KIGQ,05/30/2018 23:15 UTC,29.57,74.12,72.32,94.13,0.0,0.0,,,,,,102.0,,,,10.0,,KIGQ 302315Z AUTO 00000KT 10SM SCT010 23/22 A2957 RMK AO2  T02340224,,,,,,72.32,,N,28.93,27.06,,Partly Cloudy
KIGQ,05/30/2018 23:35 UTC,29.58,74.3,72.86,95.29,4.61,290.0,,,,,,102.0,,,,10.0,,KIGQ 302335Z AUTO 29004KT 10SM SCT010 24/23 A2958 RMK AO2 LTG DSNT  NW T02350227,,,,,,72.86,,WNW,28.94,27.03,,Partly Cloudy
KIGQ,05/30/2018 23:55 UTC,29.58,73.76,72.86,97.02,3.44,290.0,,13.0,,,,172.0,952.0,0.03,,10.0,,KIGQ 302355Z AUTO 29003KT 10SM -RA SCT017 SCT095 23/23 A2958 RMK AO2 60003 T02320227 10293 20226,84.74,72.68,,,,72.86,,WNW,28.94,27.03,,Light Rain
KIGQ,05/31/2018 00:15 UTC,29.58,73.4,73.22,99.4,5.75,280.0,,1.0,,,,173.0,854.0,,,10.0,,KIGQ 310015Z AUTO 28005KT 10SM RA BKN017 OVC085 23/23 A2958 RMK AO2 T02300229,,,1700.0,,,73.22,,W,28.94,27.01,,Rain
KIGQ,05/31/2018 00:35 UTC,29.57,72.68,72.68,100.0,3.44,310.0,,13.0,,,,172.0,852.0,,,10.0,,KIGQ 310035Z AUTO 31003KT 10SM -RA SCT017 SCT085 23/23 A2957 RMK AO2 T02260226,,,,,,72.68,,NW,28.93,27.06,,Light Rain
KIGQ,05/31/2018 00:55 UTC,29.56,72.5,72.5,100.0,3.44,240.0,,,1203.0,,,82.0,903.0,,,10.0,,KIGQ 310055Z AUTO 24003KT 10SM SCT008 BKN090 BKN120 23/23 A2956 RMK AO2 T02250225,,,9000.0,,,72.5,,WSW,28.92,27.06,,Mostly Cloudy
KIGQ,05/31/2018 01:15 UTC,29.57,72.5,72.5,100.0,5.75,260.0,,,,,,82.0,1103.0,,,10.0,,KIGQ 310115Z AUTO 26005KT 10SM SCT008 BKN110 23/23 A2957 RMK AO2  T02250225,,,11000.0,,,72.5,,W,28.93,27.07,,Mostly Cloudy
KIGQ,05/31/2018 01:35 UTC,29.58,72.32,72.32,100.0,3.44,260.0,,,,,,1102.0,,,,10.0,,KIGQ 310135Z AUTO 26003KT 10SM SCT110 22/22 A2958 RMK AO2  T02240224,,,,,,72.32,,W,28.94,27.1,,Partly Cloudy
KIGQ,05/31/2018 01:55 UTC,29.59,72.14,72.14,100.0,4.61,260.0,,,,,,1202.0,,,,10.0,,KIGQ 310155Z AUTO 26004KT 10SM SCT120 22/22 A2959 RMK AO2 LTG DSNT  SW AND W T02230223,,,,,,72.14,,W,28.95,27.13,,Partly Cloudy
KIGQ,05/31/2018 02:15 UTC,29.59,71.96,71.96,100.0,3.44,200.0,,,,,,1102.0,,,,10.0,,KIGQ 310215Z AUTO 20003KT 10SM SCT110 22/22 A2959 RMK AO2  T02220222,,,,,,71.96,,SSW,28.95,27.14,,Partly Cloudy
KIGQ,05/31/2018 02:35 UTC,29.6,71.78,71.78,100.0,6.91,220.0,,,,,,1103.0,,,,10.0,,KIGQ 310235Z AUTO 22006KT 10SM BKN110 22/22 A2960 RMK AO2  T02210221,,,11000.0,,,71.78,,SW,28.96,27.17,,Mostly Cloudy
KIGQ,05/31/2018 02:55 UTC,29.6,71.6,71.6,100.0,8.05,220.0,,,,,,1102.0,,,,10.0,,KIGQ 310255Z AUTO 22007KT 10SM SCT110 22/22 A2960 RMK AO2  T02200220,,,,,,71.6,,SW,28.96,27.19,,Partly Cloudy
KIGQ,05/31/2018 03:15 UTC,29.6,71.6,71.6,100.0,6.91,220.0,,,,,,1.0,,,,10.0,,KIGQ 310315Z AUTO 22006KT 10SM CLR 22/22 A2960 RMK AO2 LTG DSNT S  T02200220,,,,,,71.6,,SW,28.96,27.19,,Clear
KIGQ,05/31/2018 03:35 UTC,29.62,71.42,71.42,100.0,9.22,220.0,,,,,,1.0,,,,10.0,,KIGQ 310335Z AUTO 22008KT 10SM CLR 22/22 A2962 RMK AO2  T02190219,,,,,,71.42,,SW,28.98,27.22,,Clear
KIGQ,05/31/2018 03:55 UTC,29.61,71.06,71.06,100.0,5.75,240.0,,,,,,803.0,,,,10.0,,KIGQ 310355Z AUTO 24005KT 10SM BKN080 22/22 A2961 RMK AO2  T02170217,,,8000.0,,,71.06,,WSW,28.97,27.25,,Mostly Cloudy
KIGQ,05/31/2018 04:15 UTC,29.62,70.34,70.16,99.39,8.05,210.0,,,,,,802.0,,,,10.0,,KIGQ 310415Z AUTO 21007KT 10SM SCT080 21/21 A2962 RMK AO2  T02130212,,,,,,70.16,,SSW,28.98,27.33,,Partly Cloudy
KIGQ,05/31/2018 04:35 UTC,29.62,69.62,69.62,100.0,8.05,230.0,,,,,,1.0,,,,10.0,,KIGQ 310435Z AUTO 23007KT 10SM CLR 21/21 A2962 RMK AO2  T02090209,,,,,,69.62,,SW,28.98,27.38,,Clear
KIGQ,05/31/2018 04:55 UTC,29.63,69.8,68.54,95.79,8.05,230.0,,,,,,902.0,,,,10.0,,KIGQ 310455Z AUTO 23007KT 10SM SCT090 21/20 A2963 RMK AO2  T02100203,,,,,,68.54,,SW,28.99,27.47,,Partly Cloudy
KIGQ,05/31/2018 05:15 UTC,29.63,69.8,68.0,94.03,9.22,230.0,,,,,,1.0,,,,10.0,,KIGQ 310515Z AUTO 23008KT 10SM CLR 21/20 A2963 RMK AO2  T02100200,,,,,,67.99,,SW,28.99,27.5,,Clear
KIGQ,05/31/2018 05:35 UTC,29.64,69.98,68.18,94.03,10.36,230.0,,,,,,702.0,,,,10.0,,KIGQ 310535Z AUTO 23009KT 10SM SCT070 21/20 A2964 RMK AO2  T02110201,,,,,,68.17,,SW,29.0,27.5,,Partly Cloudy
KIGQ,05/31/2018 05:55 UTC,29.64,69.8,68.36,95.2,9.22,230.0,,,,,,702.0,,,,10.0,,KIGQ 310555Z AUTO 23008KT 10SM SCT070 21/20 A2964 RMK AO2  T02100202 10232 20209 403000209,73.76,69.62,,86.0,69.62,68.36,,SW,29.0,27.49,,Partly Cloudy
KIGQ,05/31/2018 06:15 UTC,29.64,69.44,68.54,96.97,8.05,230.0,,,,,,1.0,,,,10.0,,KIGQ 310615Z AUTO 23007KT 10SM CLR 21/20 A2964 RMK AO2  T02080203,,,,,,68.54,,SW,29.0,27.48,,Clear
KIGQ,05/31/2018 06:35 UTC,29.64,69.8,68.9,96.97,9.22,230.0,,,,,,1.0,,,,10.0,,KIGQ 310635Z AUTO 23008KT 10SM CLR 21/21 A2964 RMK AO2  T02100205,,,,,,68.9,,SW,29.0,27.45,,Clear
KIGQ,05/31/2018 06:55 UTC,29.65,69.8,68.9,96.97,8.05,230.0,,,,,,502.0,,,,10.0,,KIGQ 310655Z AUTO 23007KT 10SM SCT050 21/21 A2965 RMK AO2  T02100205,,,,,,68.9,,SW,29.01,27.46,,Partly Cloudy
KIGQ,05/31/2018 07:15 UTC,29.65,69.44,68.9,98.17,6.91,220.0,,,,,,502.0,,,,10.0,,KIGQ 310715Z AUTO 22006KT 10SM SCT050 21/21 A2965 RMK AO2  T02080205,,,,,,68.9,,SW,29.01,27.47,,Partly Cloudy
KIGQ,05/31/2018 07:35 UTC,29.65,69.26,68.54,97.57,5.75,220.0,,,,,,1.0,,,,10.0,,KIGQ 310735Z AUTO 22005KT 10SM CLR 21/20 A2965 RMK AO2  T02070203,,,,,,68.54,,SW,29.01,27.49,,Clear
KIGQ,05/31/2018 07:55 UTC,29.65,69.08,68.36,97.57,6.91,220.0,,,,,,1.0,,,,10.0,,KIGQ 310755Z AUTO 22006KT 10SM CLR 21/20 A2965 RMK AO2  T02060202,,,,,,68.36,,SW,29.01,27.51,,Clear
KIGQ,05/31/2018 08:15 UTC,29.65,68.9,68.18,97.56,5.75,220.0,,,,,,1.0,,,,10.0,,KIGQ 310815Z AUTO 22005KT 10SM CLR 21/20 A2965 RMK AO2  T02050201,,,,,,68.18,,SW,29.01,27.53,,Clear
KIGQ,05/31/2018 08:35 UTC,29.66,68.9,68.0,96.96,5.75,220.0,,,,,,1.0,,,,10.0,,KIGQ 310835Z AUTO 22005KT 10SM CLR 21/20 A2966 RMK AO2  T02050200,,,,,,68.0,,SW,29.02,27.55,,Clear
KIGQ,05/31/2018 08:55 UTC,29.66,68.36,67.46,96.96,5.75,210.0,,,,,,1.0,,,,10.0,,KIGQ 310855Z AUTO 21005KT 10SM CLR 20/20 A2966 RMK AO2  T02020197,,,,,,67.46,,SSW,29.02,27.59,,Clear
KIGQ,05/31/2018 09:15 UTC,29.67,67.1,67.1,100.0,4.61,210.0,,,,,,1.0,,,,10.0,,KIGQ 310915Z AUTO 21004KT 10SM CLR 20/20 A2967 RMK AO2  T01950195,,,,,,67.1,,SSW,29.02,27.63,,Clear
KIGQ,05/31/2018 09:35 UTC,29.67,67.1,67.1,100.0,4.61,220.0,,,,,,1.0,,,,10.0,,KIGQ 310935Z AUTO 22004KT 10SM CLR 20/20 A2967 RMK AO2  T01950195,,,,,,67.1,,SW,29.02,27.63,,Clear
KIGQ,05/31/2018 09:55 UTC,29.67,66.56,66.56,100.0,3.44,210.0,,,,,,902.0,,,,10.0,,KIGQ 310955Z AUTO 21003KT 10SM SCT090 19/19 A2967 RMK AO2  T01920192,,,,,,66.56,,SSW,29.02,27.68,,Partly Cloudy
KIGQ,05/31/2018 10:15 UTC,29.68,66.92,66.92,100.0,4.61,210.0,,,,,,904.0,,,,10.0,,KIGQ 311015Z AUTO 21004KT 10SM OVC090 19/19 A2968 RMK AO2  T01940194,,,9000.0,,,66.92,,SSW,29.03,27.66,,Overcast
KIGQ,05/31/2018 10:35 UTC,29.68,67.28,67.1,99.38,5.75,220.0,,,,,,903.0,,,,10.0,,KIGQ 311035Z AUTO 22005KT 10SM BKN090 20/20 A2968 RMK AO2  T01960195,,,9000.0,,,67.1,,SW,29.03,27.64,,Mostly Cloudy
KIGQ,05/31/2018 10:55 UTC,29.69,67.1,66.56,98.15,4.61,220.0,,,,,,902.0,,,,10.0,,KIGQ 311055Z AUTO 22004KT 10SM SCT090 20/19 A2969 RMK AO2  T01950192,,,,,,66.56,,SW,29.04,27.69,,Partly Cloudy
KIGQ,05/31/2018 11:15 UTC,29.7,67.46,67.1,98.77,4.61,220.0,,,,,,1.0,,,,10.0,,KIGQ 311115Z AUTO 22004KT 10SM CLR 20/20 A2970 RMK AO2  T01970195,,,,,,67.1,,SW,29.05,27.66,,Clear
KIGQ,05/31/2018 11:35 UTC,29.7,69.26,67.46,94.01,4.61,220.0,,,,,,1.0,,,,10.0,,KIGQ 311135Z AUTO 22004KT 10SM CLR 21/20 A2970 RMK AO2  T02070197,,,,,,67.45,,SW,29.05,27.61,,Clear
KIGQ,05/31/2018 11:55 UTC,29.7,71.06,68.0,90.09,5.75,220.0,,,,,,1.0,,,0.03,10.0,,KIGQ 311155Z AUTO 22005KT 10SM CLR 22/20 A2970 RMK AO2 70003  T02170200 10217 20191,71.06,66.38,,,,67.99,,SW,29.05,27.55,,Clear
KIGQ,05/31/2018 12:15 UTC,29.7,72.68,68.18,85.82,5.75,220.0,,,,,,1.0,,,,10.0,,KIGQ 311215Z AUTO 22005KT 10SM CLR 23/20 A2970 RMK AO2  T02260201,,,,,,68.17,,SW,29.05,27.51,,Clear
KIGQ,05/31/2018 12:35 UTC,29.7,74.3,68.9,83.31,6.91,220.0,,,,,,1.0,,,,10.0,,KIGQ 311235Z AUTO 22006KT 10SM CLR 24/21 A2970 RMK AO2  T02350205,,,,,,68.89,,SW,29.05,27.44,,Clear
KIGQ,05/31/2018 12:55 UTC,29.7,75.56,68.9,79.88,8.05,230.0,,,,,,1.0,,,,10.0,,KIGQ 311255Z AUTO 23007KT 10SM CLR 24/21 A2970 RMK AO2  T02420205,,,,,,68.89,,SW,29.05,27.42,,Clear
KIGQ,05/31/2018 13:15 UTC,29.7,76.46,69.44,78.98,9.22,220.0,,,,,,1.0,,,,10.0,,KIGQ 311315Z AUTO 22008KT 10SM CLR 25/21 A2970 RMK AO2  T02470208,,,,,,69.44,,SW,29.05,27.37,,Clear
KIGQ,05/31/2018 13:35 UTC,29.7,77.72,71.06,80.05,8.05,230.0,,,,,,1.0,,,,10.0,,KIGQ 311335Z AUTO 23007KT 10SM CLR 25/22 A2970 RMK AO2  T02540217,,,,,,71.06,,SW,29.05,27.23,,Clear
KIGQ,05/31/2018 13:55 UTC,29.71,78.98,71.24,77.27,6.91,220.0,,,,,,1.0,,,,10.0,,KIGQ 311355Z AUTO 22006KT 10SM CLR 26/22 A2971 RMK AO2  T02610218,,,,,,71.24,,SW,29.06,27.21,,Clear
KIGQ,05/31/2018 14:15 UTC,29.71,80.06,70.34,72.35,10.36,230.0,,,,,,1.0,,,,10.0,,KIGQ 311415Z AUTO 23009KT 10SM CLR 27/21 A2971 RMK AO2  T02670213,,,,,,70.35,,SW,29.06,27.26,83.34,Clear
KIGQ,05/31/2018 14:35 UTC,29.71,81.5,71.78,72.49,6.91,230.0,,,,,,1.0,,,,10.0,,KIGQ 311435Z AUTO 23006KT 10SM CLR 28/22 A2971 RMK AO2  T02750221,,,,,,71.8,,SW,29.06,27.13,86.0,Clear
KIGQ,05/31/2018 14:55 UTC,29.71,82.4,71.42,69.56,11.5,230.0,16.11,,,,,1.0,,,,10.0,,KIGQ 311455Z AUTO 23010G14KT 10SM CLR 28/22 A2971 RMK AO2  T02800219,,,,,,71.45,,SW,29.06,27.15,87.1,Clear
KIGQ,05/31/2018 15:15 UTC,29.72,83.12,70.52,65.92,14.97,260.0,19.57,,,,,1.0,,,,10.0,,KIGQ 311515Z AUTO 26013G17KT 10SM CLR 28/21 A2972 RMK AO2  T02840214,,,,,,70.55,,W,29.07,27.22,87.54,Clear
KIGQ,05/31/2018 15:35 UTC,29.72,84.2,70.7,64.06,12.66,230.0,20.71,,,,,1.0,,,,10.0,,KIGQ 311535Z AUTO 23011G18KT 10SM CLR 29/22 A2972 RMK AO2  T02900215,,,,,,70.74,,SW,29.07,27.19,89.03,Clear
KIGQ,05/31/2018 15:55 UTC,29.72,84.38,69.26,60.64,14.97,270.0,21.85,,,,,1.0,,,,10.0,,KIGQ 311555Z AUTO 27013G19KT 10SM CLR 29/21 A2972 RMK AO2  T02910207,,,,,,69.3,,W,29.07,27.3,88.35,Clear
KIGQ,05/31/2018 16:15 UTC,29.73,84.92,69.08,59.24,12.66,260.0,23.02,,,,,1.0,,,,10.0,,KIGQ 311615Z AUTO 26011G20KT 10SM CLR 29/21 A2973 RMK AO2  T02940206,,,,,,69.13,,W,29.08,27.32,88.88,Clear
KIGQ,05/31/2018 16:35 UTC,29.72,85.46,69.26,58.59,19.57,260.0,24.16,,,,,1.0,,,,10.0,,KIGQ 311635Z AUTO 26017G21KT 10SM CLR 30/21 A2972 RMK AO2  T02970207,,,,,,69.32,,W,29.07,27.29,89.62,Clear
KIGQ,05/31/2018 16:55 UTC,29.73,84.38,68.18,58.44,16.11,250.0,24.16,,,,,1102.0,,,,10.0,,KIGQ 311655Z AUTO 25014G21KT 10SM SCT110 29/20 A2973 RMK AO2  T02910201,,,,,,68.23,,WSW,29.08,27.39,87.73,Partly Cloudy
KIGQ,05/31/2018 17:15 UTC,29.72,86.54,68.54,55.23,18.41,260.0,23.02,,,,,1103.0,,,,10.0,,KIGQ 311715Z AUTO 26016G20KT 10SM BKN110 30/20 A2972 RMK AO2  T03030203,,,11000.0,,,68.61,,W,29.07,27.33,90.4,Mostly Cloudy
KIGQ,05/31/2018 17:35 UTC,29.71,87.26,67.46,52.02,13.8,250.0,21.85,,,,,1102.0,,,,10.0,,KIGQ 311735Z AUTO 25012G19KT 10SM SCT110 31/20 A2971 RMK AO2  T03070197,,,,,,67.54,,WSW,29.06,27.39,90.52,Partly Cloudy
KIGQ,05/31/2018 17:55 UTC,29.71,87.44,66.02,49.21,21.85,270.0,26.46,,,,,602.0,1102.0,,,10.0,,KIGQ 311755Z AUTO 27019G23KT 10SM SCT060 SCT110 31/19 A2971 RMK AO2 T03080189 10310 20218,87.8,71.24,,,,66.11,,W,29.06,27.5,89.86,Partly Cloudy
KIGQ,05/31/2018 18:15 UTC,29.71,88.16,66.56,49.01,16.11,260.0,26.46,,,,,1102.0,,,,10.0,,KIGQ 311815Z AUTO 26014G23KT 10SM SCT110 31/19 A2971 RMK AO2  T03120192,,,,,,66.66,,W,29.06,27.45,90.95,Partly Cloudy
KIGQ,05/31/2018 18:35 UTC,29.71,85.1,67.1,55.03,11.5,270.0,,,1103.0,,,602.0,852.0,,,10.0,,KIGQ 311835Z AUTO 27010KT 10SM SCT060 SCT085 BKN110 30/20 A2971 RMK AO2 T02950195,,,11000.0,,,67.16,,W,29.06,27.44,87.94,Mostly Cloudy
KIGQ,05/31/2018 18:55 UTC,29.7,87.98,69.44,54.42,13.8,240.0,19.57,,,,,752.0,1103.0,,,10.0,,KIGQ 311855Z AUTO 24012G17KT 10SM SCT075 BKN110 31/21 A2970 RMK AO2 T03110208,,,11000.0,,,69.53,,WSW,29.05,27.23,92.7,Mostly Cloudy
KIGQ,05/31/2018 19:15 UTC,29.7,87.08,68.0,53.29,12.66,240.0,19.57,,,,,602.0,1102.0,,,10.0,,KIGQ 311915Z AUTO 24011G17KT 10SM SCT060 SCT110 31/20 A2970 RMK AO2 T03060200,,,,,,68.08,,WSW,29.05,27.35,90.66,Partly Cloudy
KIGQ,05/31/2018 19:35 UTC,29.69,87.8,68.54,53.07,12.66,250.0,20.71,,,,,602.0,702.0,,,10.0,,KIGQ 311935Z AUTO 25011G18KT 10SM SCT060 SCT070 31/20 A2969 RMK AO2 T03100203,,,,,,68.63,,WSW,29.04,27.29,91.84,Partly Cloudy
KIGQ,05/31/2018 19:55 UTC,29.69,88.52,67.64,50.3,14.97,240.0,21.85,,902.0,,,602.0,702.0,,,10.0,,KIGQ 311955Z AUTO 24013G19KT 10SM SCT060 SCT070 SCT090 31/20 A2969 RMK AO2 T03140198,,,,,,67.74,,WSW,29.04,27.35,92.05,Partly Cloudy
KIGQ,05/31/2018 20:15 UTC,29.71,86.18,66.38,51.86,20.71,310.0,32.21,,1203.0,,,602.0,703.0,,,10.0,,KIGQ 312015Z AUTO 31018G28KT 10SM SCT060 BKN070 BKN120 30/19 A2971 RMK AO2 LTG DSNT NE AND NW T03010191,,,7000.0,,,66.45,,NW,29.06,27.48,88.71,Mostly Cloudy
KIGQ,05/31/2018 20:35 UTC,29.71,83.48,68.18,60.16,8.05,320.0,18.41,,1103.0,,,602.0,702.0,,,10.0,,KIGQ 312035Z AUTO 32007G16KT 290V350 10SM SCT060 SCT070 BKN110  29/20 A2971 RMK AO2 LTG DSNT NE T02860201,,,11000.0,,,68.22,,NW,29.06,27.38,86.71,Mostly Cloudy
KIGQ,05/31/2018 20:55 UTC,29.7,82.04,67.1,60.72,5.75,290.0,,,,,,852.0,1102.0,,,10.0,,KIGQ 312055Z AUTO 29005KT 10SM SCT085 SCT110 28/20 A2970 RMK AO2  T02780195,,,,,,67.13,,WNW,29.05,27.47,84.62,Partly Cloudy
KIGQ,05/31/2018 21:15 UTC,29.69,84.74,68.54,58.49,8.05,260.0,,,,,,1202.0,,,,10.0,,KIGQ 312115Z AUTO 26007KT 10SM SCT120 29/20 A2969 RMK AO2  T02930203,,,,,,68.59,,W,29.04,27.32,88.34,Partly Cloudy
KIGQ,05/31/2018 21:35 UTC,29.69,84.38,68.54,59.17,11.5,270.0,,,,,,1202.0,,,,10.0,,KIGQ 312135Z AUTO 27010KT 10SM SCT120 29/20 A2969 RMK AO2  T02910203,,,,,,68.59,,W,29.04,27.33,87.93,Partly Cloudy
KIGQ,05/31/2018 21:55 UTC,29.69,85.64,69.08,57.89,11.5,270.0,16.11,,,,,1202.0,,,,10.0,,KIGQ 312155Z AUTO 27010G14KT 10SM SCT120 30/21 A2969 RMK AO2  T02980206,,,,,,69.14,,W,29.04,27.27,89.71,Partly Cloudy
KIGQ,05/31/2018 22:15 UTC,29.68,86.36,66.74,52.21,8.05,270.0,,,,,,1.0,,,,10.0,,KIGQ 312215Z AUTO 27007KT 10SM CLR 30/19 A2968 RMK AO2 LTG DSNT E  T03020193,,,,,,66.81,,W,29.03,27.43,89.1,Clear
KIGQ,05/31/2018 22:35 UTC,29.68,86.54,67.28,52.89,9.22,240.0,,,,,,1.0,,,,10.0,,KIGQ 312235Z AUTO 24008KT 10SM CLR 30/20 A2968 RMK AO2  T03030196,,,,,,67.35,,WSW,29.03,27.38,89.61,Clear
KIGQ,05/31/2018 22:55 UTC,29.69,85.28,67.82,56.09,8.05,270.0,,,,,,1.0,,,,10.0,,KIGQ 312255Z AUTO 27007KT 10SM CLR 30/20 A2969 RMK AO2  T02960199,,,,,,67.88,,W,29.04,27.37,88.54,Clear
KIGQ,05/31/2018 23:15 UTC,29.69,84.2,68.72,59.88,4.61,300.0,,,,,,1.0,,,,10.0,,KIGQ 312315Z AUTO 30004KT 10SM CLR 29/20 A2969 RMK AO2  T02900204,,,,,,68.77,,WNW,29.04,27.31,87.83,Clear
KIGQ,05/31/2018 23:35 UTC,29.69,83.84,68.9,60.95,3.44,290.0,,,,,,1.0,,,,10.0,,KIGQ 312335Z AUTO 29003KT 10SM CLR 29/21 A2969 RMK AO2 LTG DSNT SW  AND W T02880205,,,,,,68.94,,WNW,29.04,27.31,87.51,Clear
KIGQ,05/31/2018 23:55 UTC,29.7,81.68,68.72,64.94,11.5,250.0,19.57,77.0,1202.0,,,502.0,602.0,,,10.0,,KIGQ 312355Z AUTO 25010G17KT 10SM -TSRA SCT050 SCT060 SCT120 28/20  A2970 RMK AO2 LTG DSNT SW AND W T02760204 10318 20276,89.24,81.68,,,,68.74,,WSW,29.05,27.36,84.86,Light Rain/Thunderstorm
