# STATION: KIGQ
# STATION NAME: Lansing Municipal Airport
# LATITUDE: 41.54125
# LONGITUDE: -87.52822
# ELEVATION [ft]: 607
# STATE: IL
Station_ID,Date_Time,altimeter_set_1,air_temp_set_1,dew_point_temperature_set_1,relative_humidity_set_1,wind_speed_set_1,wind_direction_set_1,wind_gust_set_1,weather_cond_code_set_1,cloud_layer_3_code_set_1,precip_accum_one_hour_set_1,precip_accum_three_hour_set_1,cloud_layer_1_code_set_1,cloud_layer_2_code_set_1,precip_accum_six_hour_set_1,precip_accum_24_hour_set_1,visibility_set_1,metar_remark_set_1,metar_set_1,air_temp_high_6_hour_set_1,air_temp_low_6_hour_set_1,ceiling_set_1,air_temp_high_24_hour_set_1,air_temp_low_24_hour_set_1,dew_point_temperature_set_1d,wind_chill_set_1d,wind_cardinal_direction_set_1d,pressure_set_1d,sea_level_pressure_set_1d,heat_index_set_1d,weather_condition_set_1d
,,INHG,Fahrenheit,Fahrenheit,%,Miles/hour,Degrees,Miles/hour,code,code,Inches,Inches,code,code,Inches,Inches,Statute miles,text,text,Fahrenheit,Fahrenheit,Feet,Fahrenheit,Fahrenheit,Fahrenheit,Fahrenheit,Code,INHG,INHG,Fahrenheit,Code
KIGQ,07/01/2018 00:15 UTC,29.93,87.26,77.18,72.19,10.36,190.0,,,,,,1.0,,,,10.0,,KIGQ 010015Z AUTO 19009KT 10SM CLR 31/25 A2993 RMK AO2  T03070251,,,,,,77.23,,S,29.28,26.8,99.39,Clear
KIGQ,07/01/2018 00:35 UTC,29.93,86.54,77.0,73.42,10.36,190.0,,,,,,1.0,,,,10.0,,KIGQ 010035Z AUTO 19009KT 10SM CLR 30/25 A2993 RMK AO2  T03030250,,,,,,77.04,,S,29.28,26.83,98.05,Clear
KIGQ,07/01/2018 00:55 UTC,29.92,85.64,77.18,76.0,10.36,180.0,,,,,,1.0,,,,10.0,,KIGQ 010055Z AUTO 18009KT 10SM CLR 30/25 A2992 RMK AO2  T02980251,,,,,,77.21,,S,29.27,26.81,96.82,Clear
KIGQ,07/01/2018 01:15 UTC,29.92,84.74,77.0,77.75,9.22,180.0,,,,,,1.0,,,,10.0,,KIGQ 010115Z AUTO 18008KT 10SM CLR 29/25 A2992 RMK AO2  T02930250,,,,,,77.03,,S,29.27,26.84,95.12,Clear
KIGQ,07/01/2018 01:35 UTC,29.91,83.3,76.64,80.46,9.22,180.0,,,,,,1.0,,,,10.0,,KIGQ 010135Z AUTO 18008KT 10SM CLR 29/25 A2991 RMK AO2  T02850248,,,,,,76.66,,S,29.26,26.89,92.25,Clear
KIGQ,07/01/2018 01:55 UTC,29.9,82.76,76.28,80.91,9.22,170.0,,,,,,1.0,,,,10.0,,KIGQ 010155Z AUTO 17008KT 10SM CLR 28/25 A2990 RMK AO2  T02820246,,,,,,76.3,,S,29.25,26.92,90.96,Clear
KIGQ,07/01/2018 02:15 UTC,29.89,82.4,75.74,80.4,13.8,170.0,,,,,,1.0,,,,10.0,,KIGQ 010215Z AUTO 17012KT 10SM CLR 28/24 A2989 RMK AO2  T02800243,,,,,,75.76,,S,29.24,26.96,89.89,Clear
KIGQ,07/01/2018 02:35 UTC,29.89,81.5,74.84,80.33,8.05,180.0,,,,,,1.0,,,,10.0,,KIGQ 010235Z AUTO 18007KT 10SM CLR 28/24 A2989 RMK AO2  T02750238,,,,,,74.85,,S,29.24,27.06,87.67,Clear
KIGQ,07/01/2018 02:55 UTC,29.93,80.78,74.48,81.25,6.91,200.0,,,,,,1.0,,,,10.0,,KIGQ 010255Z AUTO 20006KT 10SM CLR 27/24 A2993 RMK AO2  T02710236,,,,,,74.49,,SSW,29.28,27.14,86.16,Clear
KIGQ,07/01/2018 03:15 UTC,29.94,79.7,74.48,84.16,6.91,210.0,,,,,,342.0,,,,10.0,,KIGQ 010315Z AUTO 21006KT 10SM SCT034 27/24 A2994 RMK AO2  T02650236,,,,,,74.49,,SSW,29.29,27.16,,Partly Cloudy
KIGQ,07/01/2018 03:35 UTC,29.95,79.88,74.66,84.17,5.75,210.0,,,,,,343.0,,,,10.0,,KIGQ 010335Z AUTO 21005KT 10SM BKN034 27/24 A2995 RMK AO2  T02660237,,,3400.0,,,74.67,,SSW,29.3,27.16,,Mostly Cloudy
KIGQ,07/01/2018 03:55 UTC,29.95,78.8,74.48,86.68,4.61,190.0,,,,,,342.0,,,,10.0,,KIGQ 010355Z AUTO 19004KT 10SM SCT034 26/24 A2995 RMK AO2  T02600236,,,,,,74.48,,S,29.3,27.19,,Partly Cloudy
KIGQ,07/01/2018 04:15 UTC,29.95,77.36,74.48,90.88,6.91,200.0,,,,,,1.0,,,,10.0,,KIGQ 010415Z AUTO 20006KT 10SM CLR 25/24 A2995 RMK AO2  T02520236,,,,,,74.48,,SSW,29.3,27.21,,Clear
KIGQ,07/01/2018 04:35 UTC,29.95,77.72,74.66,90.35,6.91,200.0,,,,,,1.0,,,,10.0,,KIGQ 010435Z AUTO 20006KT 10SM CLR 25/24 A2995 RMK AO2  T02540237,,,,,,74.66,,SSW,29.3,27.19,,Clear
KIGQ,07/01/2018 04:55 UTC,29.95,77.36,74.3,90.34,8.05,190.0,,,,,,1.0,,,,10.0,,KIGQ 010455Z AUTO 19007KT 10SM CLR 25/24 A2995 RMK AO2  T02520235,,,,,,74.3,,S,29.3,27.23,,Clear
KIGQ,07/01/2018 05:15 UTC,29.95,77.36,73.94,89.26,6.91,190.0,,,,,,1.0,,,,10.0,,KIGQ 010515Z AUTO 19006KT 10SM CLR 25/23 A2995 RMK AO2  T02520233,,,,,,73.94,,S,29.3,27.26,,Clear
KIGQ,07/01/2018 05:35 UTC,29.95,77.0,73.94,90.32,5.75,200.0,,,,,,1.0,,,,10.0,,KIGQ 010535Z AUTO 20005KT 10SM CLR 25/23 A2995 RMK AO2  T02500233,,,,,,73.94,,SSW,29.3,27.26,,Clear
KIGQ,07/01/2018 05:55 UTC,29.96,76.28,73.94,92.5,5.75,230.0,,,,,,1.0,,,,10.0,,KIGQ 010555Z AUTO 23005KT 10SM CLR 25/23 A2996 RMK AO2 T02460233  10311 20246 403350241,87.98,76.28,,92.3,75.38,73.94,,SW,29.31,27.28,,Clear
KIGQ,07/01/2018 06:15 UTC,29.95,76.1,73.94,93.05,6.91,190.0,,,,,,1.0,,,,10.0,,KIGQ 010615Z AUTO 19006KT 10SM CLR 25/23 A2995 RMK AO2  T02450233,,,,,,73.94,,S,29.3,27.28,,Clear
KIGQ,07/01/2018 06:35 UTC,29.95,75.38,73.76,94.73,8.05,190.0,,,,,,1.0,,,,10.0,,KIGQ 010635Z AUTO 19007KT 10SM CLR 24/23 A2995 RMK AO2  T02410232,,,,,,73.76,,S,29.3,27.3,,Clear
KIGQ,07/01/2018 06:55 UTC,29.95,75.2,73.76,95.3,3.44,190.0,,,,,,1.0,,,,10.0,,KIGQ 010655Z AUTO 19003KT 10SM CLR 24/23 A2995 RMK AO2  T02400232,,,,,,73.76,,S,29.3,27.3,,Clear
KIGQ,07/01/2018 07:15 UTC,29.95,74.84,73.76,96.45,3.44,200.0,,,,,,1.0,,,,10.0,,KIGQ 010715Z AUTO 20003KT 10SM CLR 24/23 A2995 RMK AO2  T02380232,,,,,,73.76,,SSW,29.3,27.31,,Clear
KIGQ,07/01/2018 07:35 UTC,29.95,74.3,73.58,97.62,4.61,200.0,,,,,,362.0,,,,10.0,,KIGQ 010735Z AUTO 20004KT 10SM SCT036 24/23 A2995 RMK AO2  T02350231,,,,,,73.58,,SSW,29.3,27.33,,Partly Cloudy
KIGQ,07/01/2018 07:55 UTC,29.94,73.4,73.4,100.0,3.44,180.0,,,,,,342.0,,,,10.0,,KIGQ 010755Z AUTO 18003KT 10SM SCT034 23/23 A2994 RMK AO2  T02300230,,,,,,73.4,,S,29.29,27.35,,Partly Cloudy
KIGQ,07/01/2018 08:15 UTC,29.93,74.48,73.76,97.62,0.0,0.0,,,,,,342.0,,,,10.0,,KIGQ 010815Z AUTO 00000KT 10SM SCT034 24/23 A2993 RMK AO2  T02360232,,,,,,73.76,,N,29.28,27.3,,Partly Cloudy
KIGQ,07/01/2018 08:35 UTC,29.93,75.38,74.3,96.46,5.75,170.0,,,,,,363.0,423.0,,,10.0,,KIGQ 010835Z AUTO 17005KT 10SM BKN036 BKN042 24/24 A2993 RMK AO2  T02410235,,,3600.0,,,74.3,,S,29.28,27.24,,Mostly Cloudy
KIGQ,07/01/2018 08:55 UTC,29.93,75.2,74.3,97.04,6.91,170.0,,,502.0,,,362.0,462.0,,,10.0,,KIGQ 010855Z AUTO 17006KT 10SM SCT036 SCT046 SCT050 24/24 A2993 RMK AO2 T02400235,,,,,,74.3,,S,29.28,27.24,,Partly Cloudy
KIGQ,07/01/2018 09:15 UTC,29.93,74.48,73.76,97.62,6.91,180.0,,,,,,1.0,,,,10.0,,KIGQ 010915Z AUTO 18006KT 10SM CLR 24/23 A2993 RMK AO2  T02360232,,,,,,73.76,,S,29.28,27.3,,Clear
KIGQ,07/01/2018 09:35 UTC,29.93,75.02,73.94,96.46,8.05,180.0,,,,,,362.0,,,,10.0,,KIGQ 010935Z AUTO 18007KT 10SM SCT036 24/23 A2993 RMK AO2  T02390233,,,,,,73.94,,S,29.28,27.27,,Partly Cloudy
KIGQ,07/01/2018 09:55 UTC,29.93,75.02,73.76,95.88,8.05,170.0,,,,,,362.0,,,,10.0,,KIGQ 010955Z AUTO 17007KT 10SM SCT036 24/23 A2993 RMK AO2  T02390232,,,,,,73.76,,S,29.28,27.29,,Partly Cloudy
KIGQ,07/01/2018 10:15 UTC,29.93,75.56,73.58,93.6,12.66,180.0,,,,,,1.0,,,,10.0,,KIGQ 011015Z AUTO 18011KT 10SM CLR 24/23 A2993 RMK AO2  T02420231,,,,,,73.58,,S,29.28,27.29,,Clear
KIGQ,07/01/2018 10:35 UTC,29.93,75.2,73.58,94.73,8.05,200.0,,,,,,1.0,,,,10.0,,KIGQ 011035Z AUTO 20007KT 10SM CLR 24/23 A2993 RMK AO2  T02400231,,,,,,73.58,,SSW,29.28,27.3,,Clear
KIGQ,07/01/2018 10:55 UTC,29.93,75.38,73.76,94.73,9.22,190.0,,,,,,1.0,,,,10.0,,KIGQ 011055Z AUTO 19008KT 10SM CLR 24/23 A2993 RMK AO2  T02410232,,,,,,73.76,,S,29.28,27.28,,Clear
KIGQ,07/01/2018 11:15 UTC,29.93,75.74,73.94,94.17,9.22,180.0,,,,,,1.0,,,,10.0,,KIGQ 011115Z AUTO 18008KT 10SM CLR 24/23 A2993 RMK AO2  T02430233,,,,,,73.94,,S,29.28,27.26,,Clear
KIGQ,07/01/2018 11:35 UTC,29.93,76.28,73.76,91.95,10.36,170.0,,,,,,1.0,,,,10.0,,KIGQ 011135Z AUTO 17009KT 150V220 10SM CLR 25/23 A2993 RMK AO2  T02460232,,,,,,73.76,,S,29.28,27.27,,Clear
KIGQ,07/01/2018 11:55 UTC,29.93,77.36,73.76,88.72,11.5,170.0,,,,,,1.0,,,,10.0,,KIGQ 011155Z AUTO 17010KT 10SM CLR 25/23 A2993 RMK AO2 T02520232  10252 20230,77.36,73.4,,,,73.76,,S,29.28,27.25,,Clear
KIGQ,07/01/2018 12:15 UTC,29.93,77.0,73.76,89.78,8.05,180.0,,,,,,1.0,,,,10.0,,KIGQ 011215Z AUTO 18007KT 050V210 10SM CLR 25/23 A2993 RMK AO2  T02500232,,,,,,73.76,,S,29.28,27.26,,Clear
KIGQ,07/01/2018 12:35 UTC,29.93,78.98,73.94,84.63,8.05,190.0,,,,,,1.0,,,,10.0,,KIGQ 011235Z AUTO 19007KT 10SM CLR 26/23 A2993 RMK AO2  T02610233,,,,,,73.95,,S,29.28,27.21,,Clear
KIGQ,07/01/2018 12:55 UTC,29.93,80.24,74.3,82.2,10.36,190.0,,,,,,1.0,,,,10.0,,KIGQ 011255Z AUTO 19009KT 10SM CLR 27/24 A2993 RMK AO2  T02680235,,,,,,74.31,,S,29.28,27.16,85.07,Clear
KIGQ,07/01/2018 13:15 UTC,29.93,81.5,75.2,81.3,8.05,190.0,,,,,,1.0,,,,10.0,,KIGQ 011315Z AUTO 19007KT 10SM CLR 28/24 A2993 RMK AO2  T02750240,,,,,,75.21,,S,29.28,27.06,87.88,Clear
KIGQ,07/01/2018 13:35 UTC,29.93,81.68,75.2,80.83,10.36,190.0,,,,,,1.0,,,,10.0,,KIGQ 011335Z AUTO 19009KT 10SM CLR 28/24 A2993 RMK AO2  T02760240,,,,,,75.21,,S,29.28,27.06,88.21,Clear
KIGQ,07/01/2018 13:55 UTC,29.92,82.58,75.74,79.93,13.8,160.0,,,,,,1.0,,,,10.0,,KIGQ 011355Z AUTO 16012KT 10SM CLR 28/24 A2992 RMK AO2  T02810243,,,,,,75.76,,SSE,29.27,26.99,90.21,Clear
KIGQ,07/01/2018 14:15 UTC,29.91,84.2,76.82,78.64,14.97,190.0,,,,,,1.0,,,,10.0,,KIGQ 011415Z AUTO 19013KT 10SM CLR 29/25 A2991 RMK AO2  T02900249,,,,,,76.84,,S,29.26,26.86,94.01,Clear
KIGQ,07/01/2018 14:35 UTC,29.91,85.1,76.64,75.95,14.97,180.0,20.71,,,,,1.0,,,,10.0,,KIGQ 011435Z AUTO 18013G18KT 10SM CLR 30/25 A2991 RMK AO2  T02950248,,,,,,76.67,,S,29.26,26.86,95.33,Clear
KIGQ,07/01/2018 14:55 UTC,29.91,85.82,77.18,75.56,18.41,190.0,23.02,,,,,1.0,,,,10.0,,KIGQ 011455Z AUTO 19016G20KT 10SM CLR 30/25 A2991 RMK AO2  T02990251,,,,,,77.21,,S,29.26,26.8,97.11,Clear
KIGQ,07/01/2018 15:15 UTC,29.9,86.0,77.36,75.58,20.71,180.0,24.16,,,,,1.0,,,,10.0,,KIGQ 011515Z AUTO 18018G21KT 10SM CLR 30/25 A2990 RMK AO2  T03000252,,,,,,77.4,,S,29.25,26.77,97.62,Clear
KIGQ,07/01/2018 15:35 UTC,29.9,87.08,77.18,72.6,18.41,180.0,28.77,,,,,1.0,,,,10.0,,KIGQ 011535Z AUTO 18016G25KT 10SM CLR 31/25 A2990 RMK AO2  T03060251,,,,,,77.23,,S,29.25,26.77,99.11,Clear
KIGQ,07/01/2018 15:55 UTC,29.9,87.08,77.36,73.03,18.41,180.0,27.63,,,,,292.0,,,,10.0,,KIGQ 011555Z AUTO 18016G24KT 10SM SCT029 31/25 A2990 RMK AO2  T03060252,,,,,,77.4,,S,29.25,26.75,99.33,Partly Cloudy
KIGQ,07/01/2018 16:15 UTC,29.9,86.54,77.18,73.85,23.02,190.0,28.77,,433.0,,,312.0,372.0,,,10.0,,KIGQ 011615Z AUTO 19020G25KT 10SM SCT031 SCT037 BKN043 30/25 A2990 RMK AO2 T03030251,,,4300.0,,,77.22,,S,29.25,26.78,98.26,Mostly Cloudy
KIGQ,07/01/2018 16:35 UTC,29.9,86.54,77.36,74.29,19.57,190.0,25.32,,703.0,,,342.0,433.0,,,10.0,,KIGQ 011635Z AUTO 19017G22KT 10SM SCT034 BKN043 BKN070 30/25 A2990 RMK AO2 T03030252,,,4300.0,,,77.4,,S,29.25,26.76,98.48,Mostly Cloudy
KIGQ,07/01/2018 16:55 UTC,29.89,89.24,78.44,70.69,21.85,190.0,26.46,,652.0,,,342.0,432.0,,,10.0,,KIGQ 011655Z AUTO 19019G23KT 10SM SCT034 SCT043 SCT065 32/26 A2989 RMK AO2 T03180258,,,,,,78.5,,S,29.24,26.61,104.13,Partly Cloudy
KIGQ,07/01/2018 17:15 UTC,29.88,89.6,78.08,69.08,24.16,180.0,32.21,,,,,322.0,,,,10.0,,KIGQ 011715Z AUTO 18021G28KT 10SM SCT032 32/26 A2988 RMK AO2  T03200256,,,,,,78.15,,S,29.23,26.63,104.14,Partly Cloudy
KIGQ,07/01/2018 17:35 UTC,29.87,89.96,77.9,67.9,18.41,190.0,26.46,,,,,342.0,403.0,,,10.0,,KIGQ 011735Z AUTO 19016G23KT 10SM SCT034 BKN040 32/26 A2987 RMK AO2 T03220255,,,4000.0,,,77.97,,S,29.22,26.63,104.4,Mostly Cloudy
KIGQ,07/01/2018 17:55 UTC,29.87,88.7,77.72,70.22,14.97,190.0,,,,,,343.0,,,,10.0,,KIGQ 011755Z AUTO 19013KT 10SM BKN034 32/25 A2987 RMK AO2  T03150254 10323 20250,90.14,77.0,3400.0,,,77.78,,S,29.22,26.66,102.28,Mostly Cloudy
KIGQ,07/01/2018 18:15 UTC,29.86,90.68,78.26,67.18,20.71,200.0,26.46,,,,,342.0,423.0,,,10.0,,KIGQ 011815Z AUTO 20018G23KT 10SM SCT034 BKN042 33/26 A2986 RMK AO2 T03260257,,,4200.0,,,78.34,,SSW,29.21,26.57,105.98,Mostly Cloudy
KIGQ,07/01/2018 18:35 UTC,29.85,90.5,77.18,65.2,21.85,190.0,29.93,,,,,382.0,432.0,,,10.0,,KIGQ 011835Z AUTO 19019G26KT 10SM SCT038 SCT043 33/25 A2985 RMK AO2 T03250251,,,,,,77.26,,S,29.2,26.67,104.14,Partly Cloudy
KIGQ,07/01/2018 18:55 UTC,29.84,91.22,77.18,63.75,23.02,210.0,28.77,,,,,382.0,,,,10.0,,KIGQ 011855Z AUTO 21020G25KT 10SM SCT038 33/25 A2984 RMK AO2  T03290251,,,,,,77.27,,SSW,29.19,26.65,105.15,Partly Cloudy
KIGQ,07/01/2018 19:15 UTC,29.83,91.04,77.9,65.65,19.57,200.0,27.63,,,,,1.0,,,,10.0,,KIGQ 011915Z AUTO 20017G24KT 10SM CLR 33/26 A2983 RMK AO2  T03280255,,,,,,77.99,,SSW,29.18,26.57,105.96,Clear
KIGQ,07/01/2018 19:35 UTC,29.82,91.04,77.72,65.26,14.97,190.0,25.32,,602.0,,,422.0,492.0,,,10.0,,KIGQ 011935Z AUTO 19013G22KT 10SM SCT042 SCT049 SCT060 33/25 A2982 RMK AO2 T03280254,,,,,,77.81,,S,29.17,26.58,105.69,Partly Cloudy
KIGQ,07/01/2018 19:55 UTC,29.81,91.4,77.72,64.53,18.41,190.0,25.32,,602.0,,,422.0,492.0,,,10.0,,KIGQ 011955Z AUTO 19016G22KT 10SM SCT042 SCT049 SCT060 33/25 A2981 RMK AO2 T03300254,,,,,,77.81,,S,29.16,26.57,106.19,Partly Cloudy
KIGQ,07/01/2018 20:15 UTC,29.81,91.04,77.72,65.26,20.71,190.0,27.63,,602.0,,,432.0,502.0,,,10.0,,KIGQ 012015Z AUTO 19018G24KT 10SM SCT043 SCT050 SCT060 33/25 A2981 RMK AO2 T03280254,,,,,,77.81,,S,29.16,26.57,105.69,Partly Cloudy
KIGQ,07/01/2018 20:35 UTC,29.82,91.4,77.72,64.53,16.11,200.0,29.93,,602.0,,,422.0,482.0,,,10.0,,KIGQ 012035Z AUTO 20014G26KT 10SM SCT042 SCT048 SCT060 33/25 A2982 RMK AO2 T03300254,,,,,,77.81,,SSW,29.17,26.58,106.19,Partly Cloudy
KIGQ,07/01/2018 20:55 UTC,29.83,90.86,76.28,62.58,23.02,210.0,29.93,,802.0,,,442.0,652.0,,,10.0,,KIGQ 012055Z AUTO 21020G26KT 10SM SCT044 SCT065 SCT080 33/25 A2983 RMK AO2 T03270246,,,,,,76.37,,SSW,29.18,26.73,103.4,Partly Cloudy
KIGQ,07/01/2018 21:15 UTC,29.82,88.52,76.28,67.34,17.27,200.0,27.63,,753.0,,,462.0,502.0,,,10.0,,KIGQ 012115Z AUTO 20015G24KT 10SM SCT046 SCT050 BKN075 31/25 A2982 RMK AO2 T03140246,,,7500.0,,,76.34,,SSW,29.17,26.75,100.12,Mostly Cloudy
KIGQ,07/01/2018 21:35 UTC,29.84,83.84,76.1,77.68,20.71,190.0,33.38,13.0,603.0,,,432.0,503.0,,,7.0,,KIGQ 012135Z AUTO 19018G29KT 7SM -RA SCT043 BKN050 BKN060 29/25  A2984 RMK AO2 LTG DSNT NW T02880245,,,5000.0,,,76.12,,S,29.19,26.86,92.7,Light Rain
KIGQ,07/01/2018 21:55 UTC,29.83,87.62,78.08,73.52,11.5,210.0,16.11,,,,,442.0,503.0,,,10.0,,KIGQ 012155Z AUTO 21010G14KT 10SM SCT044 BKN050 31/26 A2983 RMK AO2 LTG DSNT NW T03090256,,,5000.0,,,78.13,,SSW,29.18,26.6,101.13,Mostly Cloudy
KIGQ,07/01/2018 22:15 UTC,29.83,89.96,77.18,66.31,13.8,220.0,21.85,,,,,482.0,603.0,,,10.0,,KIGQ 012215Z AUTO 22012G19KT 10SM SCT048 BKN060 32/25 A2983 RMK AO2 LTG DSNT W T03220251,,,6000.0,,,77.26,,SW,29.18,26.66,103.37,Mostly Cloudy
KIGQ,07/01/2018 22:35 UTC,29.84,86.0,77.0,74.69,11.5,220.0,19.57,,703.0,,,463.0,603.0,,,10.0,,KIGQ 012235Z AUTO 22010G17KT 10SM BKN046 BKN060 BKN070 30/25 A2984 RMK AO2 LTG DSNT SW T03000250,,,4600.0,,,77.04,,SW,29.19,26.74,97.19,Mostly Cloudy
KIGQ,07/01/2018 22:55 UTC,29.85,82.76,73.04,72.61,20.71,270.0,,,702.0,,,362.0,482.0,,,10.0,,KIGQ 012255Z AUTO 27018KT 10SM SCT036 SCT048 SCT070 28/23 A2985 RMK AO2 LTG DSNT SW T02820228,,,,,,73.06,,W,29.2,27.15,88.59,Partly Cloudy
KIGQ,07/01/2018 23:15 UTC,29.87,80.24,73.58,80.24,12.66,260.0,,,753.0,,,462.0,602.0,,,10.0,,KIGQ 012315Z AUTO 26011KT 10SM SCT046 SCT060 BKN075 27/23 A2987 RMK AO2 LTG DSNT NE T02680231,,,7500.0,,,73.59,,W,29.22,27.16,84.78,Mostly Cloudy
KIGQ,07/01/2018 23:35 UTC,29.87,79.7,72.86,79.71,13.8,250.0,19.57,,,,,442.0,602.0,,,10.0,,KIGQ 012335Z AUTO 25012G17KT 10SM SCT044 SCT060 27/23 A2987 RMK AO2 T02650227,,,,,,72.87,,WSW,29.22,27.23,,Partly Cloudy
KIGQ,07/01/2018 23:55 UTC,29.86,79.34,72.5,79.69,12.66,250.0,21.85,,,,,602.0,,,,10.0,,KIGQ 012355Z AUTO 25011G19KT 10SM SCT060 26/23 A2986 RMK AO2  T02630225 10330 20263,91.4,79.34,,,,72.51,,WSW,29.21,27.25,,Partly Cloudy
KIGQ,07/02/2018 00:15 UTC,29.87,79.16,71.6,77.76,13.8,250.0,17.27,,,,,462.0,502.0,,,10.0,,KIGQ 020015Z AUTO 25012G15KT 10SM SCT046 SCT050 26/22 A2987 RMK AO2 LTG DSNT E T02620220,,,,,,71.61,,WSW,29.22,27.34,,Partly Cloudy
KIGQ,07/02/2018 00:35 UTC,29.87,78.8,71.06,77.26,12.66,250.0,19.57,,,,,483.0,603.0,,,10.0,,KIGQ 020035Z AUTO 25011G17KT 10SM BKN048 BKN060 26/22 A2987 RMK AO2 T02600217,,,4800.0,,,71.07,,WSW,29.22,27.39,,Mostly Cloudy
KIGQ,07/02/2018 00:55 UTC,29.87,78.26,70.88,78.16,9.22,240.0,,,1103.0,,,502.0,602.0,,,10.0,,KIGQ 020055Z AUTO 24008KT 10SM SCT050 SCT060 BKN110 26/22 A2987 RMK AO2 T02570216,,,11000.0,,,70.88,,WSW,29.22,27.41,,Mostly Cloudy
KIGQ,07/02/2018 01:15 UTC,29.87,77.9,71.06,79.57,8.05,240.0,,,,,,1103.0,,,,10.0,,KIGQ 020115Z AUTO 24007KT 10SM BKN110 26/22 A2987 RMK AO2  T02550217,,,11000.0,,,71.06,,WSW,29.22,27.4,,Mostly Cloudy
KIGQ,07/02/2018 01:35 UTC,29.87,77.36,71.6,82.5,6.91,220.0,,,,,,902.0,1104.0,,,10.0,,KIGQ 020135Z AUTO 22006KT 10SM SCT090 OVC110 25/22 A2987 RMK AO2  T02520220,,,11000.0,,,71.6,,SW,29.22,27.37,,Overcast
KIGQ,07/02/2018 01:55 UTC,29.89,77.36,71.42,82.0,6.91,220.0,,,,,,904.0,,,,10.0,,KIGQ 020155Z AUTO 22006KT 10SM OVC090 25/22 A2989 RMK AO2  T02520219,,,9000.0,,,71.42,,SW,29.24,27.4,,Overcast
KIGQ,07/02/2018 02:15 UTC,29.89,76.82,70.88,81.96,8.05,220.0,,,,,,904.0,,,,10.0,,KIGQ 020215Z AUTO 22007KT 10SM OVC090 25/22 A2989 RMK AO2  T02490216,,,9000.0,,,70.88,,SW,29.24,27.45,,Overcast
KIGQ,07/02/2018 02:35 UTC,29.9,76.46,70.7,82.44,9.22,220.0,,,,,,904.0,,,,10.0,,KIGQ 020235Z AUTO 22008KT 10SM OVC090 25/22 A2990 RMK AO2  T02470215,,,9000.0,,,70.7,,SW,29.25,27.48,,Overcast
KIGQ,07/02/2018 02:55 UTC,29.91,76.1,70.88,83.94,6.91,220.0,,,,,,903.0,1104.0,,,10.0,,KIGQ 020255Z AUTO 22006KT 10SM BKN090 OVC110 25/22 A2991 RMK AO2  T02450216,,,9000.0,,,70.88,,SW,29.26,27.48,,Overcast
KIGQ,07/02/2018 03:15 UTC,29.91,75.74,70.88,84.95,4.61,220.0,,,,,,804.0,,,,10.0,,KIGQ 020315Z AUTO 22004KT 10SM OVC080 24/22 A2991 RMK AO2  T02430216,,,8000.0,,,70.88,,SW,29.26,27.48,,Overcast
KIGQ,07/02/2018 03:35 UTC,29.91,75.74,71.06,85.47,3.44,220.0,,,,,,804.0,,,,10.0,,KIGQ 020335Z AUTO 22003KT 10SM OVC080 24/22 A2991 RMK AO2  T02430217,,,8000.0,,,71.06,,SW,29.26,27.47,,Overcast
KIGQ,07/02/2018 03:55 UTC,29.91,76.1,70.52,82.92,5.75,230.0,,,,,,804.0,,,,10.0,,KIGQ 020355Z AUTO 23005KT 10SM OVC080 25/21 A2991 RMK AO2  T02450214,,,8000.0,,,70.52,,SW,29.26,27.51,,Overcast
KIGQ,07/02/2018 04:15 UTC,29.92,75.38,70.7,85.45,4.61,230.0,,,,,,903.0,,,,10.0,,KIGQ 020415Z AUTO 23004KT 10SM BKN090 24/22 A2992 RMK AO2  T02410215,,,9000.0,,,70.7,,SW,29.27,27.51,,Mostly Cloudy
KIGQ,07/02/2018 04:35 UTC,29.93,74.66,70.7,87.52,4.61,210.0,,,,,,902.0,,,,10.0,,KIGQ 020435Z AUTO 21004KT 10SM SCT090 24/22 A2993 RMK AO2  T02370215,,,,,,70.69,,SSW,29.28,27.53,,Partly Cloudy
KIGQ,07/02/2018 04:55 UTC,29.94,74.3,70.88,89.12,4.61,220.0,,,,,,392.0,,,,10.0,,KIGQ 020455Z AUTO 22004KT 10SM SCT039 24/22 A2994 RMK AO2  T02350216,,,,,,70.87,,SW,29.29,27.54,,Partly Cloudy
KIGQ,07/02/2018 05:15 UTC,29.94,72.86,70.7,92.96,4.61,200.0,,,,,,392.0,,,,10.0,,KIGQ 020515Z AUTO 20004KT 10SM SCT039 23/22 A2994 RMK AO2  T02270215,,,,,,70.69,,SSW,29.29,27.57,,Partly Cloudy
KIGQ,07/02/2018 05:35 UTC,29.94,72.5,70.34,92.95,5.75,220.0,,,,,,392.0,,,,10.0,,KIGQ 020535Z AUTO 22005KT 10SM SCT039 23/21 A2994 RMK AO2  T02250213,,,,,,70.33,,SW,29.29,27.6,,Partly Cloudy
KIGQ,07/02/2018 05:55 UTC,29.94,73.4,69.98,89.08,6.91,230.0,,,,,,1.0,,,,10.0,,KIGQ 020555Z AUTO 23006KT 10SM CLR 23/21 A2994 RMK AO2 T02300211  10263 20225 403300225,79.34,72.5,,91.4,72.5,69.97,,SW,29.29,27.62,,Clear
KIGQ,07/02/2018 06:15 UTC,29.94,73.04,69.98,90.17,5.75,240.0,,,,,,1.0,,,,10.0,,KIGQ 020615Z AUTO 24005KT 10SM CLR 23/21 A2994 RMK AO2  T02280211,,,,,,69.97,,WSW,29.29,27.62,,Clear
KIGQ,07/02/2018 06:35 UTC,29.94,73.04,70.52,91.84,5.75,240.0,,,,,,1.0,,,,10.0,,KIGQ 020635Z AUTO 24005KT 10SM CLR 23/21 A2994 RMK AO2  T02280214,,,,,,70.52,,WSW,29.29,27.58,,Clear
KIGQ,07/02/2018 06:55 UTC,29.94,73.04,70.88,92.97,5.75,250.0,,,,,,1.0,,,,10.0,,KIGQ 020655Z AUTO 25005KT 10SM CLR 23/22 A2994 RMK AO2  T02280216,,,,,,70.88,,WSW,29.29,27.55,,Clear
KIGQ,07/02/2018 07:15 UTC,29.94,73.04,71.24,94.11,6.91,260.0,,,,,,702.0,,,,10.0,,KIGQ 020715Z AUTO 26006KT 10SM SCT070 23/22 A2994 RMK AO2  T02280218,,,,,,71.24,,W,29.29,27.53,,Partly Cloudy
KIGQ,07/02/2018 07:35 UTC,29.95,72.68,71.6,96.42,8.05,260.0,,,,,,702.0,,,,10.0,,KIGQ 020735Z AUTO 26007KT 10SM SCT070 23/22 A2995 RMK AO2  T02260220,,,,,,71.6,,W,29.3,27.52,,Partly Cloudy
KIGQ,07/02/2018 07:55 UTC,29.96,72.5,71.6,97.01,5.75,260.0,,,,,,1.0,,,,10.0,,KIGQ 020755Z AUTO 26005KT 10SM CLR 23/22 A2996 RMK AO2  T02250220,,,,,,71.6,,W,29.31,27.53,,Clear
KIGQ,07/02/2018 08:15 UTC,29.95,71.78,71.24,98.19,3.44,290.0,,,,,,652.0,,,,10.0,,KIGQ 020815Z AUTO 29003KT 10SM SCT065 22/22 A2995 RMK AO2  T02210218,,,,,,71.24,,WNW,29.3,27.56,,Partly Cloudy
KIGQ,07/02/2018 08:35 UTC,29.95,71.6,71.06,98.19,4.61,290.0,,,,,,652.0,,,,10.0,,KIGQ 020835Z AUTO 29004KT 10SM SCT065 22/22 A2995 RMK AO2  T02200217,,,,,,71.06,,WNW,29.3,27.57,,Partly Cloudy
KIGQ,07/02/2018 08:55 UTC,29.95,71.06,71.06,100.0,3.44,290.0,,,,,,1.0,,,,10.0,,KIGQ 020855Z AUTO 29003KT 10SM CLR 22/22 A2995 RMK AO2  T02170217,,,,,,71.06,,WNW,29.3,27.58,,Clear
KIGQ,07/02/2018 09:15 UTC,29.96,70.88,70.88,100.0,0.0,0.0,,,,,,1.0,,,,10.0,,KIGQ 020915Z AUTO 00000KT 10SM CLR 22/22 A2996 RMK AO2  T02160216,,,,,,70.88,,N,29.31,27.61,,Clear
KIGQ,07/02/2018 09:35 UTC,29.96,70.88,70.7,99.39,3.44,300.0,,,,,,1.0,,,,10.0,,KIGQ 020935Z AUTO 30003KT 10SM CLR 22/22 A2996 RMK AO2  T02160215,,,,,,70.7,,WNW,29.31,27.62,,Clear
KIGQ,07/02/2018 09:55 UTC,29.97,70.7,69.98,97.58,0.0,0.0,,,,,,1.0,,,,10.0,,KIGQ 020955Z AUTO 00000KT 10SM CLR 22/21 A2997 RMK AO2  T02150211,,,,,,69.98,,N,29.32,27.69,,Clear
KIGQ,07/02/2018 10:15 UTC,29.98,68.18,68.18,100.0,0.0,0.0,,,,,,1.0,,,,10.0,,KIGQ 021015Z AUTO 00000KT 10SM CLR 20/20 A2998 RMK AO2  T02010201,,,,,,68.18,,N,29.33,27.86,,Clear
KIGQ,07/02/2018 10:35 UTC,29.99,68.72,68.72,100.0,0.0,0.0,,,,,,1.0,,,,10.0,,KIGQ 021035Z AUTO 00000KT 10SM CLR 20/20 A2999 RMK AO2  T02040204,,,,,,68.72,,N,29.34,27.83,,Clear
KIGQ,07/02/2018 10:55 UTC,30.0,68.36,68.36,100.0,0.0,0.0,,,,,,1.0,,,,10.0,,KIGQ 021055Z AUTO 00000KT 10SM CLR 20/20 A3000 RMK AO2  T02020202,,,,,,68.36,,N,29.35,27.87,,Clear
KIGQ,07/02/2018 11:15 UTC,30.0,69.98,69.08,96.98,3.44,290.0,,,,,,1.0,,,,10.0,,KIGQ 021115Z AUTO 29003KT 10SM CLR 21/21 A3000 RMK AO2  T02110206,,,,,,69.08,,WNW,29.35,27.79,,Clear
KIGQ,07/02/2018 11:35 UTC,30.01,71.6,68.72,90.67,4.61,320.0,,,,,,1.0,,,,10.0,,KIGQ 021135Z AUTO 32004KT 10SM CLR 22/20 A3001 RMK AO2  T02200204,,,,,,68.71,,NW,29.36,27.8,,Clear
KIGQ,07/02/2018 11:55 UTC,30.02,72.86,68.54,86.36,3.44,330.0,,,,,,1.0,,,,10.0,,KIGQ 021155Z AUTO 33003KT 10SM CLR 23/20 A3002 RMK AO2 T02270203  10230 20201,73.4,68.18,,,,68.53,,NNW,29.37,27.81,,Clear
KIGQ,07/02/2018 12:15 UTC,30.02,72.86,66.92,81.68,3.44,340.0,,,,,,1.0,,,,10.0,,KIGQ 021215Z AUTO 34003KT 10SM CLR 23/19 A3002 RMK AO2  T02270194,,,,,,66.91,,NNW,29.37,27.92,,Clear
KIGQ,07/02/2018 12:35 UTC,30.03,73.4,67.1,80.71,0.0,0.0,,,,,,1.0,,,,10.0,,KIGQ 021235Z AUTO 00000KT 10SM CLR 23/20 A3003 RMK AO2  T02300195,,,,,,67.09,,N,29.38,27.91,,Clear
KIGQ,07/02/2018 12:55 UTC,30.04,74.48,67.1,77.85,0.0,0.0,,,,,,1.0,,,,10.0,,KIGQ 021255Z AUTO 00000KT 10SM CLR 24/20 A3004 RMK AO2  T02360195,,,,,,67.09,,N,29.39,27.91,,Clear
KIGQ,07/02/2018 13:15 UTC,30.04,74.12,67.1,78.79,5.75,10.0,,,,,,1.0,,,,10.0,,KIGQ 021315Z AUTO 01005KT 10SM CLR 23/20 A3004 RMK AO2  T02340195,,,,,,67.09,,N,29.39,27.91,,Clear
KIGQ,07/02/2018 13:35 UTC,30.05,74.12,67.64,80.27,0.0,0.0,,,,,,1.0,,,,10.0,,KIGQ 021335Z AUTO 00000KT 10SM CLR 23/20 A3005 RMK AO2  T02340198,,,,,,67.63,,N,29.4,27.89,,Clear
KIGQ,07/02/2018 13:55 UTC,30.05,73.4,67.64,82.23,4.61,50.0,,,,,,192.0,,,,10.0,,KIGQ 021355Z AUTO 05004KT 10SM SCT019 23/20 A3005 RMK AO2  T02300198,,,,,,67.63,,NE,29.4,27.9,,Partly Cloudy
KIGQ,07/02/2018 14:15 UTC,30.06,74.48,66.74,76.89,5.75,80.0,,,,,,192.0,,,,10.0,,KIGQ 021415Z AUTO 08005KT 10SM SCT019 24/19 A3006 RMK AO2  T02360193,,,,,,66.73,,E,29.41,27.95,,Partly Cloudy
KIGQ,07/02/2018 14:35 UTC,30.06,75.2,65.66,72.31,5.75,50.0,,,,,,1.0,,,,10.0,,KIGQ 021435Z AUTO 05005KT 10SM CLR 24/19 A3006 RMK AO2  T02400187,,,,,,65.65,,NE,29.41,28.02,,Clear
KIGQ,07/02/2018 14:55 UTC,30.07,75.02,65.12,71.39,5.75,60.0,,,,,,1.0,,,,10.0,,KIGQ 021455Z AUTO 06005KT 10SM CLR 24/18 A3007 RMK AO2  T02390184,,,,,,65.11,,ENE,29.42,28.06,,Clear
KIGQ,07/02/2018 15:15 UTC,30.07,75.38,65.84,72.33,8.05,60.0,,,,,,1.0,,,,10.0,,KIGQ 021515Z AUTO 06007KT 10SM CLR 24/19 A3007 RMK AO2  T02410188,,,,,,65.83,,ENE,29.42,28.01,,Clear
KIGQ,07/02/2018 15:35 UTC,30.07,75.02,65.3,71.84,0.0,0.0,,,,,,1.0,,,,10.0,,KIGQ 021535Z AUTO 00000KT 10SM CLR 24/19 A3007 RMK AO2  T02390185,,,,,,65.29,,N,29.42,28.05,,Clear
KIGQ,07/02/2018 15:55 UTC,30.07,75.56,66.02,72.34,3.44,80.0,,,,,,1.0,,,,10.0,,KIGQ 021555Z AUTO 08003KT 10SM CLR 24/19 A3007 RMK AO2  T02420189,,,,,,66.01,,E,29.42,28.0,,Clear
KIGQ,07/02/2018 16:15 UTC,30.08,75.38,65.66,71.88,6.91,70.0,,,,,,1.0,,,,10.0,,KIGQ 021615Z AUTO 07006KT 10SM CLR 24/19 A3008 RMK AO2  T02410187,,,,,,65.65,,ENE,29.43,28.03,,Clear
KIGQ,07/02/2018 16:35 UTC,30.08,76.1,66.2,71.5,8.05,70.0,,,,,,1.0,,,,10.0,,KIGQ 021635Z AUTO 07007KT 10SM CLR 25/19 A3008 RMK AO2  T02450190,,,,,,66.19,,ENE,29.43,27.99,,Clear
KIGQ,07/02/2018 16:55 UTC,30.09,75.74,66.2,72.36,4.61,80.0,,,,,,1.0,,,,10.0,,KIGQ 021655Z AUTO 08004KT 10SM CLR 24/19 A3009 RMK AO2  T02430190,,,,,,66.19,,E,29.44,28.0,,Clear
KIGQ,07/02/2018 17:15 UTC,30.08,76.28,66.38,71.52,6.91,50.0,,,,,,1.0,,,,10.0,,KIGQ 021715Z AUTO 05006KT 10SM CLR 25/19 A3008 RMK AO2  T02460191,,,,,,66.37,,NE,29.43,27.97,,Clear
KIGQ,07/02/2018 17:35 UTC,30.09,77.18,66.56,69.86,6.91,60.0,,,,,,1.0,,,,10.0,,KIGQ 021735Z AUTO 06006KT 10SM CLR 25/19 A3009 RMK AO2  T02510192,,,,,,66.56,,ENE,29.44,27.96,,Clear
KIGQ,07/02/2018 17:55 UTC,30.09,77.18,66.38,69.42,3.44,50.0,,,,,,1.0,,,,10.0,,KIGQ 021755Z AUTO 05003KT 10SM CLR 25/19 A3009 RMK AO2 T02510191  10251 20225,77.18,72.5,,,,66.38,,NE,29.44,27.97,,Clear
KIGQ,07/02/2018 18:15 UTC,30.09,78.08,66.74,68.24,0.0,0.0,,,,,,1.0,,,,10.0,,KIGQ 021815Z AUTO 00000KT 10SM CLR 26/19 A3009 RMK AO2  T02560193,,,,,,66.74,,N,29.44,27.94,,Clear
KIGQ,07/02/2018 18:35 UTC,30.09,77.9,66.38,67.79,3.44,50.0,,,,,,1.0,,,,10.0,,KIGQ 021835Z AUTO 05003KT 10SM CLR 26/19 A3009 RMK AO2  T02550191,,,,,,66.38,,NE,29.44,27.96,,Clear
KIGQ,07/02/2018 18:55 UTC,30.1,78.26,65.48,64.94,3.44,330.0,,,,,,1.0,,,,10.0,,KIGQ 021855Z AUTO 33003KT 10SM CLR 26/19 A3010 RMK AO2  T02570186,,,,,,65.48,,NNW,29.45,28.03,,Clear
KIGQ,07/02/2018 19:15 UTC,30.09,78.98,66.02,64.62,4.61,50.0,,,,,,1.0,,,,10.0,,KIGQ 021915Z AUTO 05004KT 10SM CLR 26/19 A3009 RMK AO2  T02610189,,,,,,66.03,,NE,29.44,27.98,,Clear
KIGQ,07/02/2018 19:35 UTC,30.09,79.7,66.02,63.12,4.61,60.0,,,,,,1.0,,,,10.0,,KIGQ 021935Z AUTO 06004KT 10SM CLR 27/19 A3009 RMK AO2  T02650189,,,,,,66.03,,ENE,29.44,27.97,,Clear
KIGQ,07/02/2018 19:55 UTC,30.08,78.98,65.48,63.42,4.61,50.0,,,,,,1.0,,,,10.0,,KIGQ 021955Z AUTO 05004KT 10SM CLR 26/19 A3008 RMK AO2  T02610186,,,,,,65.49,,NE,29.43,28.0,,Clear
KIGQ,07/02/2018 20:15 UTC,30.08,79.88,65.84,62.36,3.44,10.0,,,,,,1.0,,,,10.0,,KIGQ 022015Z AUTO 01003KT 10SM CLR 27/19 A3008 RMK AO2  T02660188,,,,,,65.85,,N,29.43,27.97,,Clear
KIGQ,07/02/2018 20:35 UTC,30.08,78.98,64.94,62.24,4.61,60.0,,,,,,1.0,,,,10.0,,KIGQ 022035Z AUTO 06004KT 10SM CLR 26/18 A3008 RMK AO2  T02610183,,,,,,64.94,,ENE,29.43,28.04,,Clear
KIGQ,07/02/2018 20:55 UTC,30.08,78.62,63.86,60.65,3.44,40.0,,,,,,1.0,,,,10.0,,KIGQ 022055Z AUTO 04003KT 10SM CLR 26/18 A3008 RMK AO2  T02590177,,,,,,63.86,,NE,29.43,28.11,,Clear
KIGQ,07/02/2018 21:15 UTC,30.07,78.62,64.22,61.42,5.75,50.0,,,,,,1.0,,,,10.0,,KIGQ 022115Z AUTO 05005KT 10SM CLR 26/18 A3007 RMK AO2  T02590179,,,,,,64.22,,NE,29.42,28.08,,Clear
KIGQ,07/02/2018 21:35 UTC,30.06,78.98,64.58,61.47,8.05,50.0,,,,,,1.0,,,,10.0,,KIGQ 022135Z AUTO 05007KT 10SM CLR 26/18 A3006 RMK AO2  T02610181,,,,,,64.59,,NE,29.41,28.04,,Clear
KIGQ,07/02/2018 21:55 UTC,30.06,79.16,63.32,58.47,4.61,40.0,,,,,,1.0,,,,10.0,,KIGQ 022155Z AUTO 04004KT 10SM CLR 26/17 A3006 RMK AO2  T02620174,,,,,,63.33,,NE,29.41,28.12,,Clear
KIGQ,07/02/2018 22:15 UTC,30.06,78.8,61.88,56.25,6.91,50.0,,,,,,1.0,,,,10.0,,KIGQ 022215Z AUTO 05006KT 10SM CLR 26/17 A3006 RMK AO2  T02600166,,,,,,61.89,,NE,29.41,28.21,,Clear
KIGQ,07/02/2018 22:35 UTC,30.06,79.16,61.52,54.89,8.05,50.0,,,,,,1.0,,,,10.0,,KIGQ 022235Z AUTO 05007KT 10SM CLR 26/16 A3006 RMK AO2  T02620164,,,,,,61.53,,NE,29.41,28.23,,Clear
KIGQ,07/02/2018 22:55 UTC,30.07,78.62,59.9,52.75,4.61,50.0,,,,,,1.0,,,,10.0,,KIGQ 022255Z AUTO 05004KT 10SM CLR 26/16 A3007 RMK AO2  T02590155,,,,,,59.91,,NE,29.42,28.34,,Clear
KIGQ,07/02/2018 23:15 UTC,30.08,77.9,58.1,50.65,5.75,50.0,,,,,,1.0,,,,10.0,,KIGQ 022315Z AUTO 05005KT 10SM CLR 26/15 A3008 RMK AO2  T02550145,,,,,,58.1,,NE,29.43,28.46,,Clear
KIGQ,07/02/2018 23:35 UTC,30.08,77.36,56.66,48.96,9.22,60.0,,,,,,1.0,,,,10.0,,KIGQ 022335Z AUTO 06008KT 10SM CLR 25/14 A3008 RMK AO2  T02520137,,,,,,56.66,,ENE,29.43,28.54,,Clear
KIGQ,07/02/2018 23:55 UTC,30.08,76.82,57.02,50.49,6.91,60.0,,,,,,1.0,,,,10.0,,KIGQ 022355Z AUTO 06006KT 10SM CLR 25/14 A3008 RMK AO2 T02490139  10267 20249,80.06,76.82,,,,57.01,,ENE,29.43,28.52,,Clear
KIGQ,07/03/2018 00:15 UTC,30.08,75.74,56.66,51.65,5.75,60.0,,,,,,1.0,,,,10.0,,KIGQ 030015Z AUTO 06005KT 10SM CLR 24/14 A3008 RMK AO2  T02430137,,,,,,56.64,,ENE,29.43,28.55,,Clear
KIGQ,07/03/2018 00:35 UTC,30.08,74.66,57.38,54.95,5.75,60.0,,,,,,1.0,,,,10.0,,KIGQ 030035Z AUTO 06005KT 10SM CLR 24/14 A3008 RMK AO2  T02370141,,,,,,57.35,,ENE,29.43,28.53,,Clear
KIGQ,07/03/2018 00:55 UTC,30.08,73.76,57.92,57.74,5.75,40.0,,,,,,1.0,,,,10.0,,KIGQ 030055Z AUTO 04005KT 10SM CLR 23/14 A3008 RMK AO2  T02320144,,,,,,57.89,,NE,29.43,28.51,,Clear
KIGQ,07/03/2018 01:15 UTC,30.09,72.5,57.38,59.08,5.75,40.0,,,,,,1.0,,,,10.0,,KIGQ 030115Z AUTO 04005KT 10SM CLR 23/14 A3009 RMK AO2  T02250141,,,,,,57.34,,NE,29.44,28.56,,Clear
KIGQ,07/03/2018 01:35 UTC,30.09,71.6,58.1,62.5,3.44,50.0,,,,,,1.0,,,,10.0,,KIGQ 030135Z AUTO 05003KT 10SM CLR 22/15 A3009 RMK AO2  T02200145,,,,,,58.06,,NE,29.44,28.53,,Clear
KIGQ,07/03/2018 01:55 UTC,30.09,69.44,57.74,66.39,0.0,0.0,,,,,,1.0,,,,10.0,,KIGQ 030155Z AUTO 00000KT 10SM CLR 21/14 A3009 RMK AO2  T02080143,,,,,,57.7,,N,29.44,28.57,,Clear
KIGQ,07/03/2018 02:15 UTC,30.1,69.8,59.18,69.05,0.0,0.0,,,,,,1.0,,,,10.0,,KIGQ 030215Z AUTO 00000KT 10SM CLR 21/15 A3010 RMK AO2  T02100151,,,,,,59.14,,N,29.45,28.5,,Clear
KIGQ,07/03/2018 02:35 UTC,30.11,69.62,58.46,67.71,0.0,0.0,,,,,,1.0,,,,10.0,,KIGQ 030235Z AUTO 00000KT 10SM CLR 21/15 A3011 RMK AO2  T02090147,,,,,,58.42,,N,29.46,28.55,,Clear
KIGQ,07/03/2018 02:55 UTC,30.11,69.44,57.92,66.82,0.0,0.0,,,,,,1.0,,,,10.0,,KIGQ 030255Z AUTO 00000KT 10SM CLR 21/14 A3011 RMK AO2  T02080144,,,,,,57.88,,N,29.46,28.58,,Clear
KIGQ,07/03/2018 03:15 UTC,30.11,68.0,58.28,71.11,0.0,0.0,,,,,,1.0,,,,10.0,,KIGQ 030315Z AUTO 00000KT 10SM CLR 20/15 A3011 RMK AO2  T02000146,,,,,,58.24,,N,29.46,28.58,,Clear
KIGQ,07/03/2018 03:35 UTC,30.12,66.74,58.46,74.74,0.0,0.0,,,,,,1.0,,,,10.0,,KIGQ 030335Z AUTO 00000KT 10SM CLR 19/15 A3012 RMK AO2  T01930147,,,,,,58.42,,N,29.47,28.59,,Clear
KIGQ,07/03/2018 03:55 UTC,30.12,65.48,58.28,77.58,0.0,0.0,,,,,,1.0,,,,10.0,,KIGQ 030355Z AUTO 00000KT 10SM CLR 19/15 A3012 RMK AO2  T01860146,,,,,,58.24,,N,29.47,28.62,,Clear
KIGQ,07/03/2018 04:15 UTC,30.12,65.66,59.18,79.61,0.0,0.0,,,,,,1.0,,,,10.0,,KIGQ 030415Z AUTO 00000KT 10SM CLR 19/15 A3012 RMK AO2  T01870151,,,,,,59.14,,N,29.47,28.57,,Clear
KIGQ,07/03/2018 04:35 UTC,30.12,65.12,59.18,81.12,0.0,0.0,,,,,,1.0,,,,10.0,,KIGQ 030435Z AUTO 00000KT 10SM CLR 18/15 A3012 RMK AO2  T01840151,,,,,,59.15,,N,29.47,28.58,,Clear
KIGQ,07/03/2018 04:55 UTC,30.12,63.5,58.46,83.66,0.0,0.0,,,,,,1.0,,,,10.0,,KIGQ 030455Z AUTO 00000KT 10SM CLR 18/15 A3012 RMK AO2  T01750147,,,,,,58.43,,N,29.47,28.63,,Clear
KIGQ,07/03/2018 05:15 UTC,30.12,59.72,57.74,93.17,0.0,0.0,,,,,,1.0,,,,10.0,,KIGQ 030515Z AUTO 00000KT 10SM CLR 15/14 A3012 RMK AO2  T01540143,,,,,,57.73,,N,29.47,28.71,,Clear
KIGQ,07/03/2018 05:35 UTC,30.12,62.78,59.36,88.6,0.0,0.0,,,,,,1.0,,,,10.0,,KIGQ 030535Z AUTO 00000KT 10SM CLR 17/15 A3012 RMK AO2  T01710152,,,,,,59.34,,N,29.47,28.59,,Clear
KIGQ,07/03/2018 05:55 UTC,30.13,60.26,59.0,95.61,0.0,0.0,,,,,,1.0,,,,10.0,,KIGQ 030555Z AUTO 00000KT 10SM CLR 16/15 A3013 RMK AO2 T01570150  10248 20154 402670154,76.64,59.72,,80.06,59.72,58.99,,N,29.47,28.64,,Clear
KIGQ,07/03/2018 06:15 UTC,30.13,61.88,59.72,92.63,0.0,0.0,,,,,,1.0,,,,10.0,,KIGQ 030615Z AUTO 00000KT 10SM CLR 17/15 A3013 RMK AO2  T01660154,,,,,,59.7,,N,29.47,28.59,,Clear
KIGQ,07/03/2018 06:35 UTC,30.12,63.14,59.36,87.49,0.0,0.0,,,,,,1.0,,,,10.0,,KIGQ 030635Z AUTO 00000KT 10SM CLR 17/15 A3012 RMK AO2  T01730152,,,,,,59.34,,N,29.47,28.59,,Clear
KIGQ,07/03/2018 06:55 UTC,30.13,63.14,59.0,86.37,0.0,0.0,,,,,,1.0,,,,10.0,,KIGQ 030655Z AUTO 00000KT 10SM CLR 17/15 A3013 RMK AO2  T01730150,,,,,,58.97,,N,29.47,28.61,,Clear
KIGQ,07/03/2018 07:15 UTC,30.12,62.78,59.0,87.47,0.0,0.0,,,,,,1.0,,,,10.0,,KIGQ 030715Z AUTO 00000KT 10SM CLR 17/15 A3012 RMK AO2  T01710150,,,,,,58.97,,N,29.47,28.61,,Clear
KIGQ,07/03/2018 07:35 UTC,30.12,62.06,59.0,89.71,0.0,0.0,,,,,,1.0,,,,10.0,,KIGQ 030735Z AUTO 00000KT 10SM CLR 17/15 A3012 RMK AO2  T01670150,,,,,,58.98,,N,29.47,28.62,,Clear
KIGQ,07/03/2018 07:55 UTC,30.12,61.16,59.72,95.02,0.0,0.0,,,,,,1.0,,,,10.0,,KIGQ 030755Z AUTO 00000KT 10SM CLR 16/15 A3012 RMK AO2  T01620154,,,,,,59.71,,N,29.47,28.6,,Clear
KIGQ,07/03/2018 08:15 UTC,30.12,61.7,59.0,90.86,0.0,0.0,,,,,,1.0,,,,10.0,,KIGQ 030815Z AUTO 00000KT 10SM CLR 17/15 A3012 RMK AO2  T01650150,,,,,,58.98,,N,29.47,28.63,,Clear
KIGQ,07/03/2018 08:35 UTC,30.11,61.88,59.36,91.45,0.0,0.0,,,,,,1.0,,,,10.0,,KIGQ 030835Z AUTO 00000KT 10SM CLR 17/15 A3011 RMK AO2  T01660152,,,,,,59.34,,N,29.46,28.6,,Clear
KIGQ,07/03/2018 08:55 UTC,30.11,61.88,59.9,93.23,0.0,0.0,,,,,,1.0,,,,10.0,,KIGQ 030855Z AUTO 00000KT 10SM CLR 17/16 A3011 RMK AO2  T01660155,,,,,,59.89,,N,29.46,28.57,,Clear
KIGQ,07/03/2018 09:15 UTC,30.11,62.06,59.9,92.64,0.0,0.0,,,,,,1.0,,,,10.0,,KIGQ 030915Z AUTO 00000KT 10SM CLR 17/16 A3011 RMK AO2  T01670155,,,,,,59.89,,N,29.46,28.57,,Clear
KIGQ,07/03/2018 09:35 UTC,30.12,62.06,60.08,93.23,0.0,0.0,,,,,,1.0,,,,10.0,,KIGQ 030935Z AUTO 00000KT 10SM CLR 17/16 A3012 RMK AO2  T01670156,,,,,,60.07,,N,29.47,28.57,,Clear
KIGQ,07/03/2018 09:55 UTC,30.12,62.96,60.8,92.67,0.0,0.0,,,,,,1.0,,,,10.0,,KIGQ 030955Z AUTO 00000KT 10SM CLR 17/16 A3012 RMK AO2  T01720160,,,,,,60.79,,N,29.47,28.52,,Clear
KIGQ,07/03/2018 10:15 UTC,30.12,63.32,61.52,93.86,0.0,0.0,,,,,,1.0,,,,10.0,,KIGQ 031015Z AUTO 00000KT 10SM CLR 17/16 A3012 RMK AO2  T01740164,,,,,,61.51,,N,29.47,28.48,,Clear
KIGQ,07/03/2018 10:35 UTC,30.13,63.5,62.06,95.07,0.0,0.0,,,,,,1.0,,,,10.0,,KIGQ 031035Z AUTO 00000KT 10SM CLR 18/17 A3013 RMK AO2  T01750167,,,,,,62.05,,N,29.47,28.44,,Clear
KIGQ,07/03/2018 10:55 UTC,30.13,63.86,61.7,92.69,0.0,0.0,,,,,,1.0,,,,10.0,,KIGQ 031055Z AUTO 00000KT 10SM CLR 18/17 A3013 RMK AO2  T01770165,,,,,,61.69,,N,29.47,28.46,,Clear
KIGQ,07/03/2018 11:15 UTC,30.14,65.12,63.14,93.32,0.0,0.0,,,,,,482.0,,,,10.0,,KIGQ 031115Z AUTO 00000KT 10SM SCT048 18/17 A3014 RMK AO2  T01840173,,,,,,63.13,,N,29.48,28.37,,Partly Cloudy
KIGQ,07/03/2018 11:35 UTC,30.14,66.74,63.5,89.35,0.0,0.0,,,,,,482.0,,,,10.0,,KIGQ 031135Z AUTO 00000KT 10SM SCT048 19/18 A3014 RMK AO2  T01930175,,,,,,63.49,,N,29.48,28.33,,Partly Cloudy
KIGQ,07/03/2018 11:55 UTC,30.14,68.9,65.3,88.33,0.0,0.0,,,,,,503.0,,,,10.0,,KIGQ 031155Z AUTO 00000KT 10SM BKN050 21/19 A3014 RMK AO2  T02050185 10205 20158,68.9,60.44,5000.0,,,65.29,,N,29.48,28.19,,Mostly Cloudy
KIGQ,07/03/2018 12:15 UTC,30.14,69.8,66.56,89.48,0.0,0.0,,,,,,502.0,,,,10.0,,KIGQ 031215Z AUTO 00000KT 10SM SCT050 21/19 A3014 RMK AO2  T02100192,,,,,,66.55,,N,29.48,28.1,,Partly Cloudy
KIGQ,07/03/2018 12:35 UTC,30.13,71.06,66.92,86.8,3.44,70.0,,,,,,502.0,602.0,,,10.0,,KIGQ 031235Z AUTO 07003KT 10SM SCT050 SCT060 22/19 A3013 RMK AO2  T02170194,,,,,,66.91,,ENE,29.47,28.05,,Partly Cloudy
KIGQ,07/03/2018 12:55 UTC,30.14,73.94,68.0,81.76,3.44,90.0,,,,,,482.0,,,,10.0,,KIGQ 031255Z AUTO 09003KT 10SM SCT048 23/20 A3014 RMK AO2  T02330200,,,,,,67.99,,E,29.48,27.94,,Partly Cloudy
KIGQ,07/03/2018 13:15 UTC,30.14,75.56,68.9,79.88,3.44,110.0,,,,,,453.0,503.0,,,10.0,,KIGQ 031315Z AUTO 11003KT 10SM BKN045 BKN050 24/21 A3014 RMK AO2  T02420205,,,4500.0,,,68.89,,ESE,29.48,27.86,,Mostly Cloudy
KIGQ,07/03/2018 13:35 UTC,30.14,77.36,68.36,73.88,3.44,100.0,,,,,,452.0,502.0,,,10.0,,KIGQ 031335Z AUTO 10003KT 10SM SCT045 SCT050 25/20 A3014 RMK AO2  T02520202,,,,,,68.36,,E,29.48,27.87,,Partly Cloudy
KIGQ,07/03/2018 13:55 UTC,30.14,78.98,68.54,70.48,5.75,90.0,,,,,,1.0,,,,10.0,,KIGQ 031355Z AUTO 09005KT 10SM CLR 26/20 A3014 RMK AO2  T02610203,,,,,,68.54,,E,29.48,27.84,,Clear
KIGQ,07/03/2018 14:15 UTC,30.15,80.6,69.44,68.94,5.75,110.0,,,,,,1.0,,,,10.0,,KIGQ 031415Z AUTO 11005KT 10SM CLR 27/21 A3015 RMK AO2  T02700208,,,,,,69.45,,ESE,29.49,27.76,83.78,Clear
KIGQ,07/03/2018 14:35 UTC,30.15,81.68,69.62,66.97,4.61,120.0,,,,,,1.0,,,,10.0,,KIGQ 031435Z AUTO 12004KT 10SM CLR 28/21 A3015 RMK AO2  T02760209,,,,,,69.64,,ESE,29.49,27.73,85.24,Clear
KIGQ,07/03/2018 14:55 UTC,30.14,82.94,70.88,67.12,4.61,120.0,,,,,,1.0,,,,10.0,,KIGQ 031455Z AUTO 12004KT 10SM CLR 28/22 A3014 RMK AO2  T02830216,,,,,,70.91,,ESE,29.48,27.61,87.52,Clear
KIGQ,07/03/2018 15:15 UTC,30.15,84.2,71.42,65.64,6.91,120.0,,,,,,652.0,,,,10.0,,KIGQ 031515Z AUTO 12006KT 10SM SCT065 29/22 A3015 RMK AO2  T02900219,,,,,,71.46,,ESE,29.49,27.56,89.51,Partly Cloudy
KIGQ,07/03/2018 15:35 UTC,30.14,85.46,71.96,64.21,6.91,120.0,,,,,,652.0,,,,10.0,,KIGQ 031535Z AUTO 12006KT 10SM SCT065 30/22 A3014 RMK AO2  T02970222,,,,,,72.01,,ESE,29.48,27.49,91.55,Partly Cloudy
KIGQ,07/03/2018 15:55 UTC,30.15,85.64,71.78,63.46,6.91,150.0,,,,,,1.0,,,,10.0,,KIGQ 031555Z AUTO 15006KT 10SM CLR 30/22 A3015 RMK AO2  T02980221,,,,,,71.83,,SSE,29.49,27.51,91.65,Clear
KIGQ,07/03/2018 16:15 UTC,30.15,86.9,72.86,63.23,8.05,90.0,,,,,,1.0,,,,10.0,,KIGQ 031615Z AUTO 09007KT 10SM CLR 31/23 A3015 RMK AO2  T03050227,,,,,,72.92,,E,29.49,27.41,94.21,Clear
KIGQ,07/03/2018 16:35 UTC,30.15,86.72,72.86,63.59,4.61,90.0,,,,,,1.0,,,,10.0,,KIGQ 031635Z AUTO 09004KT 10SM CLR 30/23 A3015 RMK AO2  T03040227,,,,,,72.92,,E,29.49,27.41,93.97,Clear
KIGQ,07/03/2018 16:55 UTC,30.15,87.26,73.58,64.04,3.44,120.0,,,,,,1.0,,,,10.0,,KIGQ 031655Z AUTO 12003KT 10SM CLR 31/23 A3015 RMK AO2  T03070231,,,,,,73.64,,ESE,29.49,27.34,95.37,Clear
KIGQ,07/03/2018 17:15 UTC,30.14,87.98,75.02,65.68,8.05,110.0,,,,,,1.0,,,,10.0,,KIGQ 031715Z AUTO 11007KT 10SM CLR 31/24 A3014 RMK AO2  T03110239,,,,,,75.08,,ESE,29.48,27.19,97.86,Clear
KIGQ,07/03/2018 17:35 UTC,30.14,88.16,75.2,65.71,6.91,120.0,,,,,,402.0,472.0,,,10.0,,KIGQ 031735Z AUTO 12006KT 10SM SCT040 SCT047 31/24 A3014 RMK AO2  T03120240,,,,,,75.27,,ESE,29.48,27.17,98.32,Partly Cloudy
KIGQ,07/03/2018 17:55 UTC,30.14,89.6,76.28,65.09,6.91,120.0,,,602.0,,,382.0,472.0,,,10.0,,KIGQ 031755Z AUTO 12006KT 080V140 10SM SCT038 SCT047 SCT060 32/25  A3014 RMK AO2 T03200246 10320 20206,89.6,69.08,,,,76.36,,ESE,29.48,27.05,101.65,Partly Cloudy
KIGQ,07/03/2018 18:15 UTC,30.14,86.36,73.76,66.29,4.61,50.0,,,603.0,,,403.0,493.0,,,10.0,,KIGQ 031815Z AUTO 05004KT 10SM BKN040 BKN049 BKN060 30/23 A3014 RMK AO2 T03020232,,,4000.0,,,73.81,,NE,29.48,27.33,94.32,Mostly Cloudy
KIGQ,07/03/2018 18:35 UTC,30.14,85.28,73.22,67.38,0.0,0.0,,,,,,403.0,484.0,,,10.0,,KIGQ 031835Z AUTO 00000KT 10SM BKN040 OVC048 30/23 A3014 RMK AO2  T02960229,,,4000.0,,,73.26,,N,29.48,27.39,92.34,Overcast
KIGQ,07/03/2018 18:55 UTC,30.14,85.1,73.22,67.77,3.44,40.0,,,,,,403.0,474.0,,,10.0,,KIGQ 031855Z AUTO 04003KT 10SM BKN040 OVC047 30/23 A3014 RMK AO2  T02950229,,,4000.0,,,73.26,,NE,29.48,27.39,92.09,Overcast
KIGQ,07/03/2018 19:15 UTC,30.13,86.0,73.76,67.05,0.0,0.0,,,653.0,,,402.0,483.0,,,10.0,,KIGQ 031915Z AUTO 00000KT 10SM SCT040 BKN048 BKN065 30/23 A3013 RMK AO2 T03000232,,,4800.0,,,73.81,,N,29.47,27.32,93.82,Mostly Cloudy
KIGQ,07/03/2018 19:35 UTC,30.13,87.62,73.76,63.7,6.91,70.0,,,653.0,,,402.0,452.0,,,10.0,,KIGQ 031935Z AUTO 07006KT 10SM SCT040 SCT045 BKN065 31/23 A3013 RMK AO2 T03090232,,,6500.0,,,73.83,,ENE,29.47,27.3,96.03,Mostly Cloudy
KIGQ,07/03/2018 19:55 UTC,30.13,86.54,74.3,67.12,3.44,20.0,,,803.0,,,603.0,703.0,,,10.0,,KIGQ 031955Z AUTO 02003KT 10SM BKN060 BKN070 BKN080 30/24 A3013 RMK AO2 T03030235,,,6000.0,,,74.35,,NNE,29.47,27.27,95.09,Mostly Cloudy
KIGQ,07/03/2018 20:15 UTC,30.12,87.44,73.94,64.45,3.44,40.0,,,902.0,,,602.0,702.0,,,10.0,,KIGQ 032015Z AUTO 04003KT 10SM SCT060 SCT070 SCT090 31/23 A3012 RMK AO2 T03080233,,,,,,74.0,,NE,29.47,27.29,95.97,Partly Cloudy
KIGQ,07/03/2018 20:35 UTC,30.11,87.08,74.48,66.37,9.22,50.0,,,803.0,,,432.0,552.0,,,10.0,,KIGQ 032035Z AUTO 05008KT 10SM SCT043 SCT055 BKN080 31/24 A3011 RMK AO2 T03060236,,,8000.0,,,74.53,,NE,29.46,27.23,96.03,Mostly Cloudy
KIGQ,07/03/2018 20:55 UTC,30.11,87.44,74.3,65.23,6.91,50.0,,,803.0,,,432.0,553.0,,,10.0,,KIGQ 032055Z AUTO 05006KT 10SM SCT043 BKN055 BKN080 31/24 A3011 RMK AO2 T03080235,,,5500.0,,,74.36,,NE,29.46,27.24,96.34,Mostly Cloudy
KIGQ,07/03/2018 21:15 UTC,30.11,87.8,74.48,64.88,9.22,50.0,,,,,,452.0,552.0,,,10.0,,KIGQ 032115Z AUTO 05008KT 10SM SCT045 SCT055 31/24 A3011 RMK AO2  T03100236,,,,,,74.54,,NE,29.46,27.22,97.02,Partly Cloudy
KIGQ,07/03/2018 21:35 UTC,30.11,87.26,74.12,65.21,6.91,50.0,,,,,,1002.0,,,,10.0,,KIGQ 032135Z AUTO 05006KT 10SM SCT100 31/23 A3011 RMK AO2  T03070234,,,,,,74.18,,NE,29.46,27.26,95.91,Partly Cloudy
KIGQ,07/03/2018 21:55 UTC,30.11,87.26,74.12,65.21,6.91,40.0,,,,,,1.0,,,,10.0,,KIGQ 032155Z AUTO 04006KT 10SM CLR 31/23 A3011 RMK AO2  T03070234,,,,,,74.18,,NE,29.46,27.26,95.91,Clear
KIGQ,07/03/2018 22:15 UTC,30.11,87.8,74.12,64.1,3.44,50.0,,,,,,1.0,,,,10.0,,KIGQ 032215Z AUTO 05003KT 10SM CLR 31/23 A3011 RMK AO2  T03100234,,,,,,74.18,,NE,29.46,27.26,96.64,Clear
KIGQ,07/03/2018 22:35 UTC,30.11,87.62,74.3,64.86,3.44,50.0,,,,,,1.0,,,,10.0,,KIGQ 032235Z AUTO 05003KT 10SM CLR 31/24 A3011 RMK AO2  T03090235,,,,,,74.36,,NE,29.46,27.24,96.59,Clear
KIGQ,07/03/2018 22:55 UTC,30.11,87.8,74.48,64.88,8.05,30.0,,,,,,1.0,,,,10.0,,KIGQ 032255Z AUTO 03007KT 10SM CLR 31/24 A3011 RMK AO2  T03100236,,,,,,74.54,,NNE,29.46,27.22,97.02,Clear
KIGQ,07/03/2018 23:15 UTC,30.11,86.9,73.94,65.56,4.61,30.0,,,,,,462.0,502.0,,,10.0,,KIGQ 032315Z AUTO 03004KT 10SM SCT046 SCT050 31/23 A3011 RMK AO2  T03050233,,,,,,74.0,,NNE,29.46,27.28,95.23,Partly Cloudy
KIGQ,07/03/2018 23:35 UTC,30.11,85.1,73.4,68.18,4.61,20.0,,,802.0,,,462.0,502.0,,,10.0,,KIGQ 032335Z AUTO 02004KT 10SM SCT046 SCT050 SCT080 30/23 A3011 RMK AO2 T02950230,,,,,,73.44,,NNE,29.46,27.35,92.25,Partly Cloudy
KIGQ,07/03/2018 23:55 UTC,30.11,84.56,73.58,69.79,4.61,40.0,,,653.0,,,462.0,502.0,,,10.0,,KIGQ 032355Z AUTO 04004KT 10SM SCT046 SCT050 BKN065 29/23 A3011 RMK AO2 T02920231 10320 20292,89.6,84.56,6500.0,,,73.62,,NE,29.46,27.34,91.63,Mostly Cloudy
KIGQ,07/04/2018 00:35 UTC,30.11,82.4,72.86,73.02,0.0,0.0,,,,,,1.0,,,,10.0,,KIGQ 040035Z AUTO 00000KT 10SM CLR 28/23 A3011 RMK AO2  T02800227,,,,,,72.88,,N,29.46,27.44,87.94,Clear
KIGQ,07/04/2018 00:55 UTC,30.11,81.68,72.68,74.29,3.44,40.0,,,,,,1.0,,,,10.0,,KIGQ 040055Z AUTO 04003KT 10SM CLR 28/23 A3011 RMK AO2  T02760226,,,,,,72.7,,NE,29.46,27.46,86.74,Clear
KIGQ,07/04/2018 01:15 UTC,30.12,81.14,72.86,76.06,3.44,30.0,,,,,,1.0,,,,10.0,,KIGQ 040115Z AUTO 03003KT 10SM CLR 27/23 A3012 RMK AO2  T02730227,,,,,,72.87,,NNE,29.47,27.46,85.98,Clear
KIGQ,07/04/2018 01:35 UTC,30.13,80.96,73.04,76.97,0.0,0.0,,,,,,1.0,,,,10.0,,KIGQ 040135Z AUTO 00000KT 10SM CLR 27/23 A3013 RMK AO2  T02720228,,,,,,73.05,,N,29.47,27.45,85.77,Clear
KIGQ,07/04/2018 01:55 UTC,30.13,80.6,72.86,77.41,3.44,340.0,,,,,,1.0,,,,10.0,,KIGQ 040155Z AUTO 34003KT 10SM CLR 27/23 A3013 RMK AO2  T02700227,,,,,,72.87,,NNW,29.47,27.47,85.1,Clear
KIGQ,07/04/2018 02:15 UTC,30.14,79.52,72.68,79.7,0.0,0.0,,,,,,1.0,,,,10.0,,KIGQ 040215Z AUTO 00000KT 10SM CLR 26/23 A3014 RMK AO2  T02640226,,,,,,72.69,,N,29.48,27.51,,Clear
KIGQ,07/04/2018 02:35 UTC,30.15,79.88,72.86,79.25,0.0,0.0,,,,,,402.0,,,,10.0,,KIGQ 040235Z AUTO 00000KT 10SM SCT040 27/23 A3015 RMK AO2  T02660227,,,,,,72.87,,N,29.49,27.5,,Partly Cloudy
KIGQ,07/04/2018 02:55 UTC,30.15,79.88,72.86,79.25,0.0,0.0,,,,,,402.0,,,,10.0,,KIGQ 040255Z AUTO 00000KT 10SM SCT040 27/23 A3015 RMK AO2  T02660227,,,,,,72.87,,N,29.49,27.5,,Partly Cloudy
KIGQ,07/04/2018 03:15 UTC,30.15,78.62,73.4,84.09,0.0,0.0,,,,,,402.0,,,,10.0,,KIGQ 040315Z AUTO 00000KT 10SM SCT040 26/23 A3015 RMK AO2  T02590230,,,,,,73.4,,N,29.49,27.48,,Partly Cloudy
KIGQ,07/04/2018 03:35 UTC,30.15,79.16,73.4,82.62,0.0,0.0,,,,,,1.0,,,,7.0,,KIGQ 040335Z AUTO 00000KT 7SM CLR 26/23 A3015 RMK AO2  T02620230,,,,,,73.4,,N,29.49,27.47,,Clear
KIGQ,07/04/2018 03:55 UTC,30.16,78.44,73.76,85.62,0.0,0.0,,,,,,1.0,,,,7.0,,KIGQ 040355Z AUTO 00000KT 7SM CLR 26/23 A3016 RMK AO2  T02580232,,,,,,73.76,,N,29.5,27.46,,Clear
KIGQ,07/04/2018 04:15 UTC,30.16,78.98,74.3,85.65,3.44,160.0,,,,,,1.0,,,,7.0,,KIGQ 040415Z AUTO 16003KT 7SM CLR 26/24 A3016 RMK AO2  T02610235,,,,,,74.3,,SSE,29.5,27.4,,Clear
KIGQ,07/04/2018 04:35 UTC,30.16,79.52,75.74,88.29,5.75,160.0,,,,,,1.0,,,,10.0,,KIGQ 040435Z AUTO 16005KT 10SM CLR 26/24 A3016 RMK AO2  T02640243,,,,,,75.75,,SSE,29.5,27.27,,Clear
KIGQ,07/04/2018 04:55 UTC,30.16,78.8,75.38,89.32,4.61,180.0,,,,,,1.0,,,,10.0,,KIGQ 040455Z AUTO 18004KT 10SM CLR 26/24 A3016 RMK AO2  T02600241,,,,,,75.38,,S,29.5,27.31,,Clear
KIGQ,07/04/2018 05:15 UTC,30.16,78.44,75.56,90.92,5.75,170.0,,,,,,1.0,,,,10.0,,KIGQ 040515Z AUTO 17005KT 10SM CLR 26/24 A3016 RMK AO2  T02580242,,,,,,75.56,,S,29.5,27.3,,Clear
KIGQ,07/04/2018 05:35 UTC,30.17,77.18,75.2,93.65,4.61,170.0,,,,,,1.0,,,,10.0,,KIGQ 040535Z AUTO 17004KT 10SM CLR 25/24 A3017 RMK AO2  T02510240,,,,,,75.2,,S,29.51,27.36,,Clear
KIGQ,07/04/2018 05:55 UTC,30.17,78.08,75.38,91.45,4.61,170.0,,,,,,1.0,,,,10.0,,KIGQ 040555Z AUTO 17004KT 10SM CLR 26/24 A3017 RMK AO2 T02560241  10291 20250 403210158,84.38,77.0,,89.78,60.44,75.38,,S,29.51,27.33,,Clear
KIGQ,07/04/2018 06:15 UTC,30.18,77.36,74.3,90.34,5.75,180.0,,,,,,1.0,,,,10.0,,KIGQ 040615Z AUTO 18005KT 10SM CLR 25/24 A3018 RMK AO2  T02520235,,,,,,74.3,,S,29.52,27.45,,Clear
KIGQ,07/04/2018 06:35 UTC,30.18,77.0,74.3,91.42,4.61,170.0,,,,,,1.0,,,,10.0,,KIGQ 040635Z AUTO 17004KT 10SM CLR 25/24 A3018 RMK AO2  T02500235,,,,,,74.3,,S,29.52,27.45,,Clear
KIGQ,07/04/2018 06:55 UTC,30.18,75.56,73.94,94.74,4.61,180.0,,,,,,1.0,,,,10.0,,KIGQ 040655Z AUTO 18004KT 10SM CLR 24/23 A3018 RMK AO2  T02420233,,,,,,73.94,,S,29.52,27.51,,Clear
KIGQ,07/04/2018 07:15 UTC,30.18,75.74,74.3,95.31,5.75,150.0,,,,,,1.0,,,,10.0,,KIGQ 040715Z AUTO 15005KT 10SM CLR 24/24 A3018 RMK AO2  T02430235,,,,,,74.3,,SSE,29.52,27.47,,Clear
KIGQ,07/04/2018 07:35 UTC,30.18,75.92,73.58,92.49,4.61,170.0,,,,,,1.0,,,,10.0,,KIGQ 040735Z AUTO 17004KT 10SM CLR 24/23 A3018 RMK AO2  T02440231,,,,,,73.58,,S,29.52,27.53,,Clear
KIGQ,07/04/2018 07:55 UTC,30.19,74.84,73.4,95.3,4.61,180.0,,,,,,1.0,,,,10.0,,KIGQ 040755Z AUTO 18004KT 10SM CLR 24/23 A3019 RMK AO2  T02380230,,,,,,73.4,,S,29.53,27.57,,Clear
KIGQ,07/04/2018 08:15 UTC,30.19,74.48,73.04,95.29,4.61,180.0,,,,,,1.0,,,,10.0,,KIGQ 040815Z AUTO 18004KT 10SM CLR 24/23 A3019 RMK AO2  T02360228,,,,,,73.04,,S,29.53,27.61,,Clear
KIGQ,07/04/2018 08:35 UTC,30.19,73.94,73.04,97.03,4.61,190.0,,,,,,1.0,,,,10.0,,KIGQ 040835Z AUTO 19004KT 10SM CLR 23/23 A3019 RMK AO2  T02330228,,,,,,73.04,,S,29.53,27.62,,Clear
KIGQ,07/04/2018 08:55 UTC,30.19,73.58,73.04,98.2,0.0,0.0,,,,,,1.0,,,,10.0,,KIGQ 040855Z AUTO 00000KT 10SM CLR 23/23 A3019 RMK AO2  T02310228,,,,,,73.04,,N,29.53,27.62,,Clear
KIGQ,07/04/2018 09:15 UTC,30.19,73.4,73.04,98.8,0.0,0.0,,,,,,1.0,,,,10.0,,KIGQ 040915Z AUTO 00000KT 10SM CLR 23/23 A3019 RMK AO2  T02300228,,,,,,73.04,,N,29.53,27.63,,Clear
KIGQ,07/04/2018 09:40 UTC,30.19,72.86,72.68,99.4,3.44,200.0,,,,,,1.0,,,,10.0,,KIGQ 040940Z AUTO 20003KT 10SM CLR 23/23 A3019 RMK AO2  T02270226,,,,,,72.68,,SSW,29.53,27.66,,Clear
KIGQ,07/04/2018 09:55 UTC,30.19,71.96,71.96,100.0,0.0,0.0,,,,,,1.0,,,,10.0,,KIGQ 040955Z AUTO 00000KT 10SM CLR 22/22 A3019 RMK AO2  T02220222,,,,,,71.96,,N,29.53,27.73,,Clear
KIGQ,07/04/2018 10:15 UTC,30.19,72.5,72.5,100.0,0.0,0.0,,,,,,1.0,,,,10.0,,KIGQ 041015Z AUTO 00000KT 10SM CLR 23/23 A3019 RMK AO2  T02250225,,,,,,72.5,,N,29.53,27.68,,Clear
KIGQ,07/04/2018 10:35 UTC,30.19,72.86,72.86,100.0,0.0,0.0,,,,,,1.0,,,,10.0,,KIGQ 041035Z AUTO 00000KT 10SM CLR 23/23 A3019 RMK AO2  T02270227,,,,,,72.86,,N,29.53,27.65,,Clear
KIGQ,07/04/2018 10:55 UTC,30.2,73.22,73.22,100.0,3.44,130.0,,,,,,1.0,,,,10.0,,KIGQ 041055Z AUTO 13003KT 10SM CLR 23/23 A3020 RMK AO2  T02290229,,,,,,73.22,,SE,29.54,27.62,,Clear
KIGQ,07/04/2018 11:15 UTC,30.21,73.22,73.22,100.0,0.0,0.0,,,,,,1.0,,,,10.0,,KIGQ 041115Z AUTO 00000KT 10SM CLR 23/23 A3021 RMK AO2  T02290229,,,,,,73.22,,N,29.55,27.63,,Clear
KIGQ,07/04/2018 11:35 UTC,30.22,74.3,73.76,98.21,4.61,140.0,,,,,,1.0,,,,10.0,,KIGQ 041135Z AUTO 14004KT 10SM CLR 24/23 A3022 RMK AO2  T02350232,,,,,,73.76,,SE,29.56,27.58,,Clear
KIGQ,07/04/2018 11:55 UTC,30.22,75.02,73.94,96.46,3.44,150.0,,,,,,1.0,,,,10.0,,KIGQ 041155Z AUTO 15003KT 10SM CLR 24/23 A3022 RMK AO2 T02390233  10256 20222,78.08,71.96,,,,73.94,,SSE,29.56,27.56,,Clear
KIGQ,07/04/2018 12:15 UTC,30.23,76.28,74.3,93.62,4.61,150.0,,,,,,1.0,,,,10.0,,KIGQ 041215Z AUTO 15004KT 10SM CLR 25/24 A3023 RMK AO2  T02460235,,,,,,74.3,,SSE,29.57,27.52,,Clear
KIGQ,07/04/2018 12:35 UTC,30.24,77.54,74.84,91.44,5.75,180.0,,,,,,242.0,,,,10.0,,KIGQ 041235Z AUTO 18005KT 10SM SCT024 25/24 A3024 RMK AO2  T02530238,,,,,,74.84,,S,29.58,27.46,,Partly Cloudy
KIGQ,07/04/2018 12:55 UTC,30.24,78.26,75.02,89.83,6.91,180.0,,,,,,242.0,,,,10.0,,KIGQ 041255Z AUTO 18006KT 10SM SCT024 26/24 A3024 RMK AO2  T02570239,,,,,,75.02,,S,29.58,27.43,,Partly Cloudy
KIGQ,07/04/2018 13:15 UTC,30.24,79.16,75.2,87.74,6.91,330.0,,,,,,1.0,,,,10.0,,KIGQ 041315Z AUTO 33006KT 10SM CLR 26/24 A3024 RMK AO2  T02620240,,,,,,75.2,,NNW,29.58,27.4,,Clear
KIGQ,07/04/2018 13:35 UTC,30.25,79.88,75.38,86.22,6.91,190.0,,,,,,1.0,,,,10.0,,KIGQ 041335Z AUTO 19006KT 10SM CLR 27/24 A3025 RMK AO2 LTG DSNT SW  T02660241,,,,,,75.39,,S,29.59,27.39,,Clear
KIGQ,07/04/2018 13:55 UTC,30.24,80.78,75.56,84.23,5.75,190.0,,,,,,1.0,,,,10.0,,KIGQ 041355Z AUTO 19005KT 10SM CLR 27/24 A3024 RMK AO2  T02710242,,,,,,75.57,,S,29.58,27.35,86.71,Clear
KIGQ,07/04/2018 14:15 UTC,30.24,81.14,76.1,84.75,4.61,190.0,,,,,,1.0,,,,10.0,,KIGQ 041415Z AUTO 19004KT 10SM CLR 27/25 A3024 RMK AO2 LTG DSNT SW  T02730245,,,,,,76.11,,S,29.58,27.29,87.74,Clear
KIGQ,07/04/2018 14:35 UTC,30.25,81.68,76.46,84.28,5.75,220.0,,,,,,272.0,,,,10.0,,KIGQ 041435Z AUTO 22005KT 10SM SCT027 28/25 A3025 RMK AO2  T02760247,,,,,,76.47,,SW,29.59,27.26,89.05,Partly Cloudy
KIGQ,07/04/2018 14:55 UTC,30.24,83.3,77.36,82.4,5.75,180.0,,,,,,252.0,,,,10.0,,KIGQ 041455Z AUTO 18005KT 10SM SCT025 29/25 A3024 RMK AO2  T02850252,,,,,,77.38,,S,29.58,27.14,92.91,Partly Cloudy
KIGQ,07/04/2018 15:15 UTC,30.24,83.84,77.54,81.47,3.44,150.0,,,,,,1.0,,,,10.0,,KIGQ 041515Z AUTO 15003KT 10SM CLR 29/25 A3024 RMK AO2  T02880253,,,,,,77.56,,SSE,29.58,27.12,94.09,Clear
KIGQ,07/04/2018 15:35 UTC,30.24,84.56,77.9,80.56,5.75,210.0,,,,,,1.0,,,,10.0,,KIGQ 041535Z AUTO 21005KT 10SM CLR 29/26 A3024 RMK AO2 LTG DSNT SW  T02920255,,,,,,77.92,,SSW,29.58,27.07,95.78,Clear
KIGQ,07/04/2018 15:55 UTC,30.24,86.0,78.44,78.32,5.75,180.0,,,,,,212.0,272.0,,,10.0,,KIGQ 041555Z AUTO 18005KT 10SM SCT021 SCT027 30/26 A3024 RMK AO2  LTG DSNT SW T03000258,,,,,,78.47,,S,29.58,27.0,98.95,Partly Cloudy
KIGQ,07/04/2018 16:15 UTC,30.24,86.9,78.44,76.11,6.91,190.0,,5.0,,,,233.0,333.0,,,10.0,,KIGQ 041615Z AUTO 19006KT 160V220 10SM VCTS BKN023 BKN033 31/26  A3024 RMK AO2 LTG DSNT S AND SW T03050258,,,2300.0,,,78.48,,S,29.58,26.98,100.46,Thunder
KIGQ,07/04/2018 16:35 UTC,30.23,87.44,78.26,74.38,8.05,200.0,,,,,,252.0,313.0,,,10.0,,KIGQ 041635Z AUTO 20007KT 10SM SCT025 BKN031 31/26 A3023 RMK AO2  LTG DSNT S AND SW T03080257,,,3100.0,,,78.31,,SSW,29.57,26.98,101.09,Mostly Cloudy
KIGQ,07/04/2018 16:55 UTC,30.24,82.04,73.04,74.32,12.66,240.0,19.57,,463.0,,,273.0,353.0,,,10.0,,KIGQ 041655Z AUTO 24011G17KT 10SM BKN027 BKN035 BKN046 28/23 A3024 RMK AO2 LTG DSNT S AND SW T02780228,,,2700.0,,,73.06,,WSW,29.58,27.55,87.5,Mostly Cloudy
KIGQ,07/04/2018 17:15 UTC,30.23,79.88,74.66,84.17,10.36,190.0,,,703.0,,,272.0,602.0,,,10.0,,KIGQ 041715Z AUTO 19009KT 10SM SCT027 SCT060 BKN070 27/24 A3023 RMK AO2 LTG DSNT S THRU W T02660237,,,7000.0,,,74.67,,S,29.57,27.43,,Mostly Cloudy
KIGQ,07/04/2018 17:35 UTC,30.23,79.52,73.94,83.14,4.61,210.0,,,,,,1.0,,,,10.0,,KIGQ 041735Z AUTO 21004KT 10SM CLR 26/23 A3023 RMK AO2 LTG DSNT S  AND W T02640233,,,,,,73.94,,SSW,29.57,27.5,,Clear
KIGQ,07/04/2018 17:55 UTC,30.23,79.88,73.76,81.68,3.44,230.0,,,,,,1.0,,,,10.0,,KIGQ 041755Z AUTO 23003KT 10SM CLR 27/23 A3023 RMK AO2 LTG DSNT SW  T02660232 10310 20240,87.8,75.2,,,,73.77,,SW,29.57,27.51,,Clear
KIGQ,07/04/2018 18:15 UTC,30.23,82.22,76.46,82.82,5.75,230.0,,,,,,1.0,,,,10.0,,KIGQ 041815Z AUTO 23005KT 10SM CLR 28/25 A3023 RMK AO2 LTG DSNT SE  AND SW T02790247,,,,,,76.47,,SW,29.57,27.23,90.1,Clear
KIGQ,07/04/2018 18:35 UTC,30.22,86.9,78.62,76.56,9.22,210.0,,5.0,,,,1.0,,,,10.0,,KIGQ 041835Z AUTO 21008KT 10SM VCTS CLR 31/26 A3022 RMK AO2 LTG  DSNT ALQS T03050259,,,,,,78.66,,SSW,29.56,26.95,100.7,Thunder
KIGQ,07/04/2018 18:55 UTC,30.21,84.56,74.84,72.79,13.8,220.0,19.57,,473.0,,,232.0,292.0,,,10.0,,KIGQ 041855Z AUTO 22012G17KT 10SM SCT023 SCT029 BKN047 29/24 A3021 RMK AO2 LTG DSNT E T02920238,,,4700.0,,,74.87,,SW,29.55,27.33,92.72,Mostly Cloudy
KIGQ,07/04/2018 19:15 UTC,30.22,82.58,72.68,72.16,4.61,220.0,,,362.0,,,212.0,292.0,,,10.0,,KIGQ 041915Z AUTO 22004KT 10SM SCT021 SCT029 SCT036 28/23 A3022 RMK AO2 T02810226,,,,,,72.7,,SW,29.56,27.55,88.09,Partly Cloudy
KIGQ,07/04/2018 19:35 UTC,30.22,82.4,73.58,74.81,6.91,190.0,,,,,,1.0,,,,10.0,,KIGQ 041935Z AUTO 19006KT 10SM CLR 28/23 A3022 RMK AO2  T02800231,,,,,,73.6,,S,29.56,27.48,88.39,Clear
KIGQ,07/04/2018 19:55 UTC,30.21,81.5,74.12,78.42,4.61,190.0,,,,,,1.0,,,,10.0,,KIGQ 041955Z AUTO 19004KT 10SM CLR 28/23 A3021 RMK AO2  T02750234,,,,,,74.13,,S,29.55,27.43,87.24,Clear
KIGQ,07/04/2018 20:15 UTC,30.21,81.5,74.48,79.37,5.75,180.0,,,,,,1.0,,,,10.0,,KIGQ 042015Z AUTO 18005KT 10SM CLR 28/24 A3021 RMK AO2  T02750236,,,,,,74.49,,S,29.55,27.4,87.45,Clear
KIGQ,07/04/2018 20:35 UTC,30.2,82.04,75.56,80.85,4.61,180.0,,,,,,1.0,,,,10.0,,KIGQ 042035Z AUTO 18004KT 10SM CLR 28/24 A3020 RMK AO2  T02780242,,,,,,75.57,,S,29.54,27.29,89.11,Clear
KIGQ,07/04/2018 20:55 UTC,30.2,83.3,76.1,79.04,4.61,180.0,,,,,,1.0,,,,10.0,,KIGQ 042055Z AUTO 18004KT 10SM CLR 29/25 A3020 RMK AO2 LTG DSNT S  T02850245,,,,,,76.12,,S,29.54,27.22,91.77,Clear
KIGQ,07/04/2018 21:15 UTC,30.2,84.02,76.64,78.62,5.75,140.0,,,,,,1.0,,,,10.0,,KIGQ 042115Z AUTO 14005KT 10SM CLR 29/25 A3020 RMK AO2  T02890248,,,,,,76.66,,SE,29.54,27.16,93.52,Clear
KIGQ,07/04/2018 21:35 UTC,30.2,85.1,77.18,77.32,5.75,150.0,,,,,,1.0,,,,10.0,,KIGQ 042135Z AUTO 15005KT 10SM CLR 30/25 A3020 RMK AO2  T02950251,,,,,,77.21,,SSE,29.54,27.09,95.92,Clear
KIGQ,07/04/2018 21:55 UTC,30.19,86.36,78.26,76.97,4.61,160.0,,,,,,1.0,,,,10.0,,KIGQ 042155Z AUTO 16004KT 10SM CLR 30/26 A3019 RMK AO2 LTG DSNT W  T03020257,,,,,,78.3,,SSE,29.53,26.96,99.33,Clear
KIGQ,07/04/2018 22:15 UTC,30.19,88.16,80.24,77.57,6.91,170.0,,,,,,1.0,,,,10.0,,KIGQ 042215Z AUTO 17006KT 10SM CLR 31/27 A3019 RMK AO2 LTG DSNT W  T03120268,,,,,,80.28,,S,29.53,26.73,105.21,Clear
KIGQ,07/04/2018 22:35 UTC,30.18,88.52,79.88,75.8,9.22,190.0,,,,,,1.0,,,,10.0,,KIGQ 042235Z AUTO 19008KT 10SM CLR 31/27 A3018 RMK AO2 LTG DSNT W  T03140266,,,,,,79.93,,S,29.52,26.75,105.23,Clear
KIGQ,07/04/2018 22:55 UTC,30.18,88.7,78.98,73.19,9.22,220.0,,,,,,1.0,,,,10.0,,KIGQ 042255Z AUTO 22008KT 10SM CLR 32/26 A3018 RMK AO2  T03150261,,,,,,79.03,,SW,29.52,26.84,104.11,Clear
KIGQ,07/04/2018 23:15 UTC,30.18,88.34,80.24,77.13,6.91,210.0,,,,,,342.0,,,,10.0,,KIGQ 042315Z AUTO 21006KT 10SM SCT034 31/27 A3018 RMK AO2  T03130268,,,,,,80.28,,SSW,29.52,26.72,105.51,Partly Cloudy
KIGQ,07/04/2018 23:35 UTC,30.18,87.44,77.18,71.78,5.75,220.0,,,,,,342.0,,,,10.0,,KIGQ 042335Z AUTO 22005KT 10SM SCT034 31/25 A3018 RMK AO2 LTG DSNT  E AND W T03080251,,,,,,77.23,,SW,29.52,27.04,99.66,Partly Cloudy
KIGQ,07/04/2018 23:55 UTC,30.18,85.82,77.18,75.56,6.91,230.0,,,,,,1.0,,,,10.0,,KIGQ 042355Z AUTO 23006KT 10SM CLR 30/25 A3018 RMK AO2 LTG DSNT W  T02990251 10316 20267,88.88,80.06,,,,77.21,,SW,29.52,27.06,97.11,Clear
KIGQ,07/05/2018 00:15 UTC,30.19,85.28,76.46,75.07,4.61,250.0,,,,,,1.0,,,,10.0,,KIGQ 050015Z AUTO 25004KT 10SM CLR 30/25 A3019 RMK AO2 LTG DSNT SW  THRU NW T02960247,,,,,,76.49,,WSW,29.53,27.15,95.44,Clear
KIGQ,07/05/2018 00:35 UTC,30.19,84.92,77.0,77.31,3.44,270.0,,5.0,,,,1.0,,,,10.0,,KIGQ 050035Z AUTO 27003KT 10SM TS CLR 29/25 A3019 RMK AO2 LTG DSNT  S THRU NW T02940250,,,,,,77.03,,W,29.53,27.1,95.42,Thunder
KIGQ,07/05/2018 00:55 UTC,30.21,83.12,75.56,78.08,11.5,270.0,,5.0,503.0,,,382.0,452.0,,,10.0,,KIGQ 050055Z AUTO 27010KT 10SM TS SCT038 SCT045 BKN050 28/24 A3021 RMK AO2 LTG DSNT SE THRU W T02840242,,,5000.0,,,75.58,,W,29.55,27.28,91.01,Thunder
KIGQ,07/05/2018 01:15 UTC,30.22,76.28,74.48,94.19,9.22,170.0,17.27,66.0,1104.0,0.04,,382.0,503.0,,,5.0,,KIGQ 050115Z AUTO 17008G15KT 5SM TSRA SCT038 BKN050 OVC110 25/24  A3022 RMK AO2 LTG DSNT ALQS P0004 T02460236,,,5000.0,,,74.48,,S,29.56,27.49,,Thunderstorm
KIGQ,07/05/2018 01:35 UTC,30.23,75.38,74.48,97.04,6.91,210.0,,77.0,1104.0,0.06,,352.0,482.0,,,10.0,,KIGQ 050135Z AUTO 21006KT 10SM -TSRA SCT035 SCT048 OVC110 24/24  A3023 RMK AO2 LTG DSNT ALQS P0006 T02410236,,,11000.0,,,74.48,,SSW,29.57,27.52,,Light Rain/Thunderstorm
KIGQ,07/05/2018 01:55 UTC,30.22,75.38,75.38,100.0,8.05,140.0,,78.0,454.0,0.21,,132.0,353.0,,,1.75,,KIGQ 050155Z AUTO 14007KT 1 3/4SM +TSRA SCT013 BKN035 OVC045 24/24  A3022 RMK AO2 VIS 1/4V5 LTG DSNT ALQS P0021 T02410241,,,3500.0,,,75.38,,SE,29.56,27.43,,Heavy Rain/Thunderstorm
KIGQ,07/05/2018 02:15 UTC,30.26,76.1,75.74,98.81,12.66,230.0,,77.0,554.0,,,292.0,443.0,,,10.0,,KIGQ 050215Z AUTO 23011KT 10SM -TSRA SCT029 BKN044 OVC055 25/24  A3026 RMK AO2 LTG DSNT ALQS T02450243,,,4400.0,,,75.74,,SW,29.6,27.43,,Light Rain/Thunderstorm
KIGQ,07/05/2018 02:35 UTC,30.26,72.5,71.78,97.6,9.22,80.0,35.68,78.0,,1.3,,43.0,104.0,,,1.0,,KIGQ 050235Z AUTO 08008G31KT 1SM +TSRA BKN004 OVC010 23/22 A3026 RMK AO2 LTG DSNT ALQS P0130 T02250221,,,400.0,,,71.78,,E,29.6,27.81,,Heavy Rain/Thunderstorm
KIGQ,07/05/2018 02:55 UTC,30.26,71.78,71.78,100.0,8.05,300.0,,66.0,1004.0,1.44,1.65,142.0,503.0,,,10.0,,KIGQ 050255Z AUTO 30007KT 10SM TSRA SCT014 BKN050 OVC100 22/22  A3026 RMK AO2 LTG DSNT ALQS P0144 60165 T02210221,,,5000.0,,,71.78,,WNW,29.6,27.82,,Thunderstorm
KIGQ,07/05/2018 03:15 UTC,30.28,72.5,72.5,100.0,3.44,290.0,,,1004.0,0.01,,502.0,702.0,,,7.0,,KIGQ 050315Z AUTO 29003KT 7SM VCTSRA SCT050 SCT070 OVC100 23/23  A3028 RMK AO2 LTG DSNT ALQS P0001 T02250225,,,10000.0,,,72.5,,WNW,29.62,27.77,,Overcast
KIGQ,07/05/2018 03:35 UTC,30.26,72.68,72.68,100.0,8.05,170.0,,,,0.01,,1002.0,1203.0,,,4.0,,KIGQ 050335Z AUTO 17007KT 4SM -VCTSRA SCT100 BKN120 23/23 A3026 RMK AO2 LTG DSNT ALQS P0001 T02260226,,,12000.0,,,72.68,,S,29.6,27.74,,Mostly Cloudy
KIGQ,07/05/2018 03:55 UTC,30.26,72.68,72.68,100.0,4.61,110.0,,13.0,,0.01,,1203.0,,,,2.5,,KIGQ 050355Z AUTO 11004KT 2 1/2SM -RA BKN120 23/23 A3026 RMK AO2  LTG DSNT ALQS P0001 T02260226,,,12000.0,,,72.68,,ESE,29.6,27.74,,Light Rain
KIGQ,07/05/2018 04:15 UTC,30.25,72.86,72.86,100.0,5.75,100.0,,66.0,,0.01,,1103.0,,,,3.0,,KIGQ 050415Z AUTO 10005KT 3SM TSRA BKN110 23/23 A3025 RMK AO2 LTG  DSNT NE THRU SE P0001 T02270227,,,11000.0,,,72.86,,E,29.59,27.71,,Thunderstorm
KIGQ,07/05/2018 04:35 UTC,30.25,72.86,72.86,100.0,4.61,130.0,,,,0.02,,1103.0,,,,3.0,,KIGQ 050435Z AUTO 13004KT 3SM -VCTSRA BKN110 23/23 A3025 RMK AO2  LTG DSNT NE P0002 T02270227,,,11000.0,,,72.86,,SE,29.59,27.71,,Mostly Cloudy
KIGQ,07/05/2018 04:55 UTC,30.23,72.5,72.5,100.0,4.61,130.0,,2485.0,,0.02,,1.0,,,,3.0,,KIGQ 050455Z AUTO 13004KT 3SM VCTS BR CLR 23/23 A3023 RMK AO2 LTG  DSNT E P0002 T02250225,,,,,,72.5,,SE,29.57,27.72,,Thunder,Mist
KIGQ,07/05/2018 05:15 UTC,30.2,72.32,72.32,100.0,6.91,130.0,,31.0,,,,1.0,,,,3.0,,KIGQ 050515Z AUTO 13006KT 3SM BR CLR 22/22 A3020 RMK AO2 LTG DSNT  SE T02240224,,,,,,72.32,,SE,29.54,27.71,,Mist
KIGQ,07/05/2018 05:35 UTC,30.19,72.5,72.5,100.0,5.75,150.0,,31.0,,,,1.0,,,,3.0,,KIGQ 050535Z AUTO 15005KT 3SM BR CLR 23/23 A3019 RMK AO2  T02250225,,,,,,72.5,,SSE,29.53,27.68,,Mist
KIGQ,07/05/2018 05:55 UTC,30.21,72.5,72.5,100.0,0.0,0.0,,31.0,,,,1.0,,1.68,,5.0,,KIGQ 050555Z AUTO 00000KT 5SM BR CLR 23/23 A3021 RMK AO2 60168  T02250225 10300 20220 403160220,86.0,71.6,,88.88,71.6,72.5,,N,29.55,27.7,,Mist
KIGQ,07/05/2018 06:15 UTC,30.23,72.68,72.68,100.0,6.91,280.0,,,,,,1.0,,,,7.0,,KIGQ 050615Z AUTO 28006KT 7SM CLR 23/23 A3023 RMK AO2  T02260226,,,,,,72.68,,W,29.57,27.71,,Clear
KIGQ,07/05/2018 06:35 UTC,30.21,73.04,73.04,100.0,5.75,200.0,10.36,31.0,,,,1.0,,,,5.0,,KIGQ 050635Z AUTO 20005G09KT 5SM BR CLR 23/23 A3021 RMK AO2  T02280228,,,,,,73.04,,SSW,29.55,27.65,,Mist
KIGQ,07/05/2018 06:55 UTC,30.21,72.86,72.86,100.0,3.44,220.0,,,,,,1.0,,,,7.0,,KIGQ 050655Z AUTO 22003KT 7SM CLR 23/23 A3021 RMK AO2  T02270227,,,,,,72.86,,SW,29.55,27.67,,Clear
KIGQ,07/05/2018 07:15 UTC,30.21,72.86,72.86,100.0,3.44,250.0,,,,,,1.0,,,,7.0,,KIGQ 050715Z AUTO 25003KT 7SM CLR 23/23 A3021 RMK AO2  T02270227,,,,,,72.86,,WSW,29.55,27.67,,Clear
KIGQ,07/05/2018 07:35 UTC,30.21,72.86,72.86,100.0,3.44,260.0,,,,,,1.0,,,,10.0,,KIGQ 050735Z AUTO 26003KT 10SM CLR 23/23 A3021 RMK AO2  T02270227,,,,,,72.86,,W,29.55,27.67,,Clear
KIGQ,07/05/2018 07:55 UTC,30.22,72.68,72.68,100.0,5.75,250.0,,,,,,1.0,,,,10.0,,KIGQ 050755Z AUTO 25005KT 10SM CLR 23/23 A3022 RMK AO2  T02260226,,,,,,72.68,,WSW,29.56,27.7,,Clear
KIGQ,07/05/2018 08:15 UTC,30.22,72.68,72.68,100.0,0.0,0.0,,,,,,1.0,,,,10.0,,KIGQ 050815Z AUTO 00000KT 10SM CLR 23/23 A3022 RMK AO2  T02260226,,,,,,72.68,,N,29.56,27.7,,Clear
KIGQ,07/05/2018 08:35 UTC,30.23,72.86,72.86,100.0,0.0,0.0,,,,,,1.0,,,,7.0,,KIGQ 050835Z AUTO 00000KT 7SM CLR 23/23 A3023 RMK AO2  T02270227,,,,,,72.86,,N,29.57,27.69,,Clear
KIGQ,07/05/2018 08:55 UTC,30.24,72.68,72.68,100.0,4.61,260.0,,,,,,1.0,,,,10.0,,KIGQ 050855Z AUTO 26004KT 10SM CLR 23/23 A3024 RMK AO2  T02260226,,,,,,72.68,,W,29.58,27.72,,Clear
KIGQ,07/05/2018 09:15 UTC,30.24,72.68,72.68,100.0,4.61,310.0,,,,,,1.0,,,,10.0,,KIGQ 050915Z AUTO 31004KT 10SM CLR 23/23 A3024 RMK AO2  T02260226,,,,,,72.68,,NW,29.58,27.72,,Clear
KIGQ,07/05/2018 09:35 UTC,30.22,72.5,72.5,100.0,3.44,260.0,,,,,,1.0,,,,10.0,,KIGQ 050935Z AUTO 26003KT 10SM CLR 23/23 A3022 RMK AO2  T02250225,,,,,,72.5,,W,29.56,27.71,,Clear
KIGQ,07/05/2018 09:55 UTC,30.23,72.32,72.32,100.0,3.44,220.0,,,,,,1.0,,,,10.0,,KIGQ 050955Z AUTO 22003KT 10SM CLR 22/22 A3023 RMK AO2  T02240224,,,,,,72.32,,SW,29.57,27.74,,Clear
KIGQ,07/05/2018 10:15 UTC,30.23,71.96,71.96,100.0,0.0,0.0,,,,,,1.0,,,,10.0,,KIGQ 051015Z AUTO 00000KT 10SM CLR 22/22 A3023 RMK AO2  T02220222,,,,,,71.96,,N,29.57,27.77,,Clear
KIGQ,07/05/2018 10:35 UTC,30.23,71.6,71.6,100.0,0.0,0.0,,,,,,1.0,,,,7.0,,KIGQ 051035Z AUTO 00000KT 7SM CLR 22/22 A3023 RMK AO2  T02200220,,,,,,71.6,,N,29.57,27.81,,Clear
KIGQ,07/05/2018 10:55 UTC,30.23,71.06,71.06,100.0,0.0,0.0,,31.0,,,,1.0,,,,4.0,,KIGQ 051055Z AUTO 00000KT 4SM BR CLR 22/22 A3023 RMK AO2  T02170217,,,,,,71.06,,N,29.57,27.86,,Mist
KIGQ,07/05/2018 11:15 UTC,30.23,71.6,71.6,100.0,0.0,0.0,,,,,,1.0,,,,7.0,,KIGQ 051115Z AUTO 00000KT 7SM CLR 22/22 A3023 RMK AO2  T02200220,,,,,,71.6,,N,29.57,27.81,,Clear
KIGQ,07/05/2018 11:35 UTC,30.24,72.86,72.86,100.0,0.0,0.0,,,,,,1.0,,,,7.0,,KIGQ 051135Z AUTO 00000KT 7SM CLR 23/23 A3024 RMK AO2  T02270227,,,,,,72.86,,N,29.58,27.7,,Clear
KIGQ,07/05/2018 11:55 UTC,30.24,74.12,74.12,100.0,0.0,0.0,,,,,,1.0,,,1.68,10.0,,KIGQ 051155Z AUTO 00000KT 10SM CLR 23/23 A3024 RMK AO2 70168  T02340234 10234 20217,74.12,71.06,,,,74.12,,N,29.58,27.58,,Clear
KIGQ,07/05/2018 12:15 UTC,30.25,75.38,75.38,100.0,0.0,0.0,,,,,,1.0,,,,10.0,,KIGQ 051215Z AUTO 00000KT 10SM CLR 24/24 A3025 RMK AO2  T02410241,,,,,,75.38,,N,29.59,27.46,,Clear
KIGQ,07/05/2018 12:35 UTC,30.26,76.64,75.38,95.9,0.0,0.0,,,,,,1.0,,,,10.0,,KIGQ 051235Z AUTO 00000KT 10SM CLR 25/24 A3026 RMK AO2  T02480241,,,,,,75.38,,N,29.6,27.45,,Clear
KIGQ,07/05/2018 12:55 UTC,30.26,77.36,75.56,94.21,0.0,0.0,,,,,,1.0,,,,10.0,,KIGQ 051255Z AUTO 00000KT 10SM CLR 25/24 A3026 RMK AO2  T02520242,,,,,,75.56,,N,29.6,27.42,,Clear
KIGQ,07/05/2018 13:15 UTC,30.26,78.08,76.1,93.67,0.0,0.0,,,,,,1.0,,,,10.0,,KIGQ 051315Z AUTO 00000KT 10SM CLR 26/25 A3026 RMK AO2  T02560245,,,,,,76.1,,N,29.6,27.36,,Clear
KIGQ,07/05/2018 13:35 UTC,30.26,80.24,75.74,86.24,4.61,250.0,,,,,,1.0,,,,10.0,,KIGQ 051335Z AUTO 25004KT 10SM CLR 27/24 A3026 RMK AO2  T02680243,,,,,,75.75,,WSW,29.6,27.36,85.87,Clear
KIGQ,07/05/2018 13:55 UTC,30.26,81.68,76.46,84.28,4.61,260.0,,,,,,1.0,,,,10.0,,KIGQ 051355Z AUTO 26004KT 10SM CLR 28/25 A3026 RMK AO2 LTG DSNT SW  T02760247,,,,,,76.47,,W,29.6,27.27,89.05,Clear
KIGQ,07/05/2018 14:15 UTC,30.25,82.76,76.64,81.88,4.61,250.0,,,,,,1.0,,,,10.0,,KIGQ 051415Z AUTO 25004KT 10SM CLR 28/25 A3025 RMK AO2 LTG DSNT SE  AND SW T02820248,,,,,,76.66,,WSW,29.59,27.23,91.26,Clear
KIGQ,07/05/2018 14:35 UTC,30.25,83.3,77.36,82.4,0.0,0.0,,,,,,1.0,,,,10.0,,KIGQ 051435Z AUTO 00000KT 10SM CLR 29/25 A3025 RMK AO2 LTG DSNT SE  AND S T02850252,,,,,,77.38,,N,29.59,27.15,92.91,Clear
KIGQ,07/05/2018 14:55 UTC,30.24,84.38,77.72,80.54,0.0,0.0,,,,,,1.0,,,,10.0,,KIGQ 051455Z AUTO 00000KT 10SM CLR 29/25 A3024 RMK AO2 LTG DSNT SE  AND S T02910254,,,,,,77.74,,N,29.58,27.09,95.26,Clear
KIGQ,07/05/2018 15:15 UTC,30.24,85.28,78.44,80.13,6.91,290.0,,,,,,1.0,,,,10.0,,KIGQ 051515Z AUTO 29006KT 10SM CLR 30/26 A3024 RMK AO2 LTG DSNT S  T02960258,,,,,,78.46,,WNW,29.58,27.01,97.69,Clear
KIGQ,07/05/2018 15:35 UTC,30.24,86.0,78.08,77.4,5.75,270.0,,,,,,1.0,,,,10.0,,KIGQ 051535Z AUTO 27005KT 10SM CLR 30/26 A3024 RMK AO2 LTG DSNT SE  T03000256,,,,,,78.11,,W,29.58,27.03,98.5,Clear
KIGQ,07/05/2018 15:55 UTC,30.24,86.18,78.26,77.41,4.61,300.0,,,,,,1.0,,,,10.0,,KIGQ 051555Z AUTO 30004KT 10SM CLR 30/26 A3024 RMK AO2 LTG DSNT SE  T03010257,,,,,,78.29,,WNW,29.58,27.01,99.03,Clear
KIGQ,07/05/2018 16:15 UTC,30.24,87.08,78.98,77.03,4.61,300.0,,,,,,242.0,,,,10.0,,KIGQ 051615Z AUTO 30004KT 10SM SCT024 31/26 A3024 RMK AO2  T03060261,,,,,,79.02,,WNW,29.58,26.93,101.5,Partly Cloudy
KIGQ,07/05/2018 16:35 UTC,30.24,87.44,78.62,75.26,3.44,350.0,,,,,,262.0,,,,10.0,,KIGQ 051635Z AUTO 35003KT 10SM SCT026 31/26 A3024 RMK AO2 LTG DSNT  S T03080259,,,,,,78.66,,N,29.58,26.96,101.58,Partly Cloudy
KIGQ,07/05/2018 16:55 UTC,30.25,87.98,78.26,73.12,0.0,0.0,,,,,,262.0,332.0,,,10.0,,KIGQ 051655Z AUTO 00000KT 10SM SCT026 SCT033 31/26 A3025 RMK AO2  LTG DSNT SE AND S T03110257,,,,,,78.31,,N,29.59,27.0,101.94,Partly Cloudy
KIGQ,07/05/2018 17:15 UTC,30.24,88.7,78.62,72.33,4.61,300.0,,,,,,332.0,,,,10.0,,KIGQ 051715Z AUTO 30004KT 10SM SCT033 32/26 A3024 RMK AO2  T03150259,,,,,,78.67,,WNW,29.58,26.94,103.57,Partly Cloudy
KIGQ,07/05/2018 17:35 UTC,30.24,89.42,79.16,71.97,3.44,280.0,,,,,,292.0,602.0,,,10.0,,KIGQ 051735Z AUTO 28003KT 10SM SCT029 SCT060 32/26 A3024 RMK AO2  LTG DSNT S T03190262,,,,,,79.22,,W,29.58,26.87,105.5,Partly Cloudy
KIGQ,07/05/2018 17:55 UTC,30.22,89.6,78.62,70.31,3.44,260.0,,,603.0,,,342.0,463.0,,,10.0,,KIGQ 051755Z AUTO 26003KT 10SM SCT034 BKN046 BKN060 32/26 A3022 RMK AO2 T03200259 10320 20234,89.6,74.12,4600.0,,,78.68,,W,29.56,26.91,104.94,Mostly Cloudy
KIGQ,07/05/2018 18:15 UTC,30.21,90.5,75.56,61.79,3.44,360.0,,,653.0,,,342.0,462.0,,,10.0,,KIGQ 051815Z AUTO 36003KT 10SM SCT034 SCT046 BKN065 33/24 A3021 RMK AO2 T03250242,,,6500.0,,,75.65,,N,29.55,27.18,101.97,Mostly Cloudy
KIGQ,07/05/2018 18:35 UTC,30.21,89.6,76.64,65.87,4.61,170.0,,,903.0,,,412.0,552.0,,,10.0,,KIGQ 051835Z AUTO 17004KT 10SM SCT041 SCT055 BKN090 32/25 A3021 RMK AO2 LTG DSNT S THRU W T03200248,,,9000.0,,,76.71,,S,29.55,27.09,102.12,Mostly Cloudy
KIGQ,07/05/2018 18:55 UTC,30.2,88.7,77.0,68.57,4.61,80.0,,,904.0,,,362.0,433.0,,,10.0,,KIGQ 051855Z AUTO 08004KT 10SM SCT036 BKN043 OVC090 32/25 A3020 RMK AO2 LTG DSNT SW AND W T03150250,,,4300.0,,,77.06,,E,29.54,27.06,101.31,Overcast
KIGQ,07/05/2018 19:15 UTC,30.19,79.7,73.4,81.17,27.63,360.0,36.82,5.0,,0.15,,282.0,374.0,,,,,KIGQ 051915Z AUTO 36024G32KT TS SCT028 OVC037 27/23 A3019 RMK AO2  LTG DSNT ALQS P0015 T02650230,,,3700.0,,,73.41,,N,29.53,27.5,,Thunder
KIGQ,07/05/2018 19:35 UTC,30.24,74.48,71.6,90.77,20.71,90.0,24.16,66.0,604.0,0.27,,172.0,343.0,,,3.0,,KIGQ 051935Z AUTO 09018G21KT 3SM TSRA SCT017 BKN034 OVC060 24/22  A3024 RMK AO2 LTG DSNT ALQS P0027 T02360220,,,3400.0,,,71.59,,E,29.58,27.77,,Thunderstorm
KIGQ,07/05/2018 19:55 UTC,30.3,73.22,72.86,98.8,23.02,340.0,32.21,78.0,264.0,0.31,,62.0,172.0,,,1.25,,KIGQ 051955Z AUTO 34020G28KT 1 1/4SM +TSRA SCT006 SCT017 OVC026  23/23 A3030 RMK AO2 LTG DSNT ALQS P0031 T02290227,,,2600.0,,,72.86,,NNW,29.64,27.75,,Heavy Rain/Thunderstorm
KIGQ,07/05/2018 20:15 UTC,30.27,71.96,71.96,100.0,4.61,120.0,,66.0,604.0,0.35,,153.0,303.0,,,2.0,,KIGQ 052015Z AUTO 12004KT 2SM TSRA BKN015 BKN030 OVC060 22/22  A3027 RMK AO2 VIS 3/4V5 LTG DSNT ALQS P0035 T02220222,,,1500.0,,,71.96,,ESE,29.61,27.81,,Thunderstorm
KIGQ,07/05/2018 20:35 UTC,30.26,72.5,72.5,100.0,11.5,180.0,,77.0,1102.0,0.36,,702.0,852.0,,,10.0,,KIGQ 052035Z AUTO 18010KT 10SM -TSRA SCT070 SCT085 SCT110 23/23  A3026 RMK AO2 LTG DSNT ALQS P0036 T02250225,,,,,,72.5,,S,29.6,27.75,,Light Rain/Thunderstorm
KIGQ,07/05/2018 20:55 UTC,30.27,71.6,71.6,100.0,8.05,170.0,,66.0,,0.36,0.68,1103.0,,,,10.0,,KIGQ 052055Z AUTO 17007KT 10SM TSRA BKN110 22/22 A3027 RMK AO2 LTG  DSNT ALQS P0036 60068 T02200220,,,11000.0,,,71.6,,S,29.61,27.85,,Thunderstorm
KIGQ,07/05/2018 21:15 UTC,30.25,71.78,70.16,94.66,8.05,150.0,,,,0.01,,952.0,1204.0,,,7.0,,KIGQ 052115Z AUTO 15007KT 7SM -VCTSRA SCT095 OVC120 22/21 A3025 RMK AO2 LTG DSNT E AND S P0001 T02210212,,,12000.0,,,70.16,,SSE,29.59,27.93,,Overcast
KIGQ,07/05/2018 21:35 UTC,30.24,71.6,70.88,97.59,0.0,0.0,,13.0,,0.01,,1202.0,,,,10.0,,KIGQ 052135Z AUTO 00000KT 10SM -RA SCT120 22/22 A3024 RMK AO2 LTG  DSNT SE P0001 T02200216,,,,,,70.88,,N,29.58,27.87,,Light Rain
KIGQ,07/05/2018 21:55 UTC,30.23,72.5,71.78,97.6,3.44,250.0,,,,0.01,,1.0,,,,10.0,,KIGQ 052155Z AUTO 25003KT 10SM CLR 23/22 A3023 RMK AO2 P0001  T02250221,,,,,,71.78,,WSW,29.57,27.78,,Clear
KIGQ,07/05/2018 22:15 UTC,30.23,73.58,71.96,94.7,3.44,300.0,,,,,,1.0,,,,10.0,,KIGQ 052215Z AUTO 30003KT 10SM CLR 23/22 A3023 RMK AO2  T02310222,,,,,,71.96,,WNW,29.57,27.75,,Clear
KIGQ,07/05/2018 22:35 UTC,30.23,74.48,71.96,91.89,6.91,250.0,,,,,,1.0,,,,10.0,,KIGQ 052235Z AUTO 25006KT 10SM CLR 24/22 A3023 RMK AO2  T02360222,,,,,,71.96,,WSW,29.57,27.73,,Clear
KIGQ,07/05/2018 22:55 UTC,30.23,74.84,73.04,94.15,8.05,260.0,,,,,,462.0,,,,10.0,,KIGQ 052255Z AUTO 26007KT 10SM SCT046 24/23 A3023 RMK AO2  T02380228,,,,,,73.04,,W,29.57,27.64,,Partly Cloudy
KIGQ,07/05/2018 23:15 UTC,30.22,75.92,72.86,90.28,8.05,260.0,,,,,,462.0,,,,10.0,,KIGQ 052315Z AUTO 26007KT 10SM SCT046 24/23 A3022 RMK AO2  T02440227,,,,,,72.86,,W,29.56,27.63,,Partly Cloudy
KIGQ,07/05/2018 23:35 UTC,30.23,76.64,72.68,87.62,3.44,300.0,,,,,,1.0,,,,10.0,,KIGQ 052335Z AUTO 30003KT 10SM CLR 25/23 A3023 RMK AO2 LTG DSNT W  T02480226,,,,,,72.68,,WNW,29.57,27.64,,Clear
KIGQ,07/05/2018 23:55 UTC,30.23,76.28,73.76,91.95,8.05,270.0,,,,,,1.0,,0.69,,10.0,,KIGQ 052355Z AUTO 27007KT 10SM CLR 25/23 A3023 RMK AO2 LTG DSNT W  60069 T02460232 10326 20220,90.68,71.6,,,,73.76,,W,29.57,27.56,,Clear
KIGQ,07/06/2018 00:15 UTC,30.24,76.28,74.3,93.62,5.75,260.0,,13.0,,,,1102.0,,,,10.0,,KIGQ 060015Z AUTO 26005KT 10SM -RA SCT110 25/24 A3024 RMK AO2 LTG  DSNT SW T02460235,,,,,,74.3,,W,29.58,27.53,,Light Rain
KIGQ,07/06/2018 00:35 UTC,30.24,76.46,74.66,94.19,3.44,260.0,,,,,,1.0,,,,10.0,,KIGQ 060035Z AUTO 26003KT 10SM CLR 25/24 A3024 RMK AO2 LTG DSNT SW  T02470237,,,,,,74.66,,W,29.58,27.49,,Clear
KIGQ,07/06/2018 00:55 UTC,30.24,76.28,74.84,95.33,4.61,260.0,,,,,,1.0,,,,10.0,,KIGQ 060055Z AUTO 26004KT 10SM CLR 25/24 A3024 RMK AO2  T02460238,,,,,,74.84,,W,29.58,27.48,,Clear
KIGQ,07/06/2018 01:15 UTC,30.24,76.28,74.48,94.19,0.0,0.0,,,,,,1.0,,,,10.0,,KIGQ 060115Z AUTO 00000KT 10SM CLR 25/24 A3024 RMK AO2  T02460236,,,,,,74.48,,N,29.58,27.51,,Clear
KIGQ,07/06/2018 01:35 UTC,30.23,75.38,74.66,97.63,0.0,0.0,,,,,,1.0,,,,10.0,,KIGQ 060135Z AUTO 00000KT 10SM CLR 24/24 A3023 RMK AO2  T02410237,,,,,,74.66,,N,29.57,27.5,,Clear
KIGQ,07/06/2018 01:55 UTC,30.24,75.38,74.66,97.63,3.44,280.0,,,,,,1.0,,,,10.0,,KIGQ 060155Z AUTO 28003KT 10SM CLR 24/24 A3024 RMK AO2  T02410237,,,,,,74.66,,W,29.58,27.51,,Clear
KIGQ,07/06/2018 02:15 UTC,30.24,75.38,74.84,98.22,0.0,0.0,,,,,,1.0,,,,10.0,,KIGQ 060215Z AUTO 00000KT 10SM CLR 24/24 A3024 RMK AO2  T02410238,,,,,,74.84,,N,29.58,27.5,,Clear
KIGQ,07/06/2018 02:35 UTC,30.25,75.02,74.84,99.4,4.61,280.0,,,,,,1.0,,,,10.0,,KIGQ 060235Z AUTO 28004KT 10SM CLR 24/24 A3025 RMK AO2  T02390238,,,,,,74.84,,W,29.59,27.51,,Clear
KIGQ,07/06/2018 02:55 UTC,30.25,74.84,74.84,100.0,0.0,0.0,,,,,,412.0,752.0,,,10.0,,KIGQ 060255Z AUTO 00000KT 10SM SCT041 SCT075 24/24 A3025 RMK AO2  T02380238,,,,,,74.84,,N,29.59,27.51,,Partly Cloudy
KIGQ,07/06/2018 03:15 UTC,30.25,74.84,74.84,100.0,0.0,0.0,,,,,,372.0,502.0,,,10.0,,KIGQ 060315Z AUTO 00000KT 10SM SCT037 SCT050 24/24 A3025 RMK AO2  T02380238,,,,,,74.84,,N,29.59,27.51,,Partly Cloudy
KIGQ,07/06/2018 03:35 UTC,30.24,75.2,74.84,98.81,4.61,310.0,,,502.0,,,352.0,402.0,,,10.0,,KIGQ 060335Z AUTO 31004KT 10SM SCT035 SCT040 SCT050 24/24 A3024 RMK AO2 T02400238,,,,,,74.84,,NW,29.58,27.5,,Partly Cloudy
KIGQ,07/06/2018 03:55 UTC,30.25,75.2,74.66,98.22,5.75,310.0,,,,,,1.0,,,,10.0,,KIGQ 060355Z AUTO 31005KT 10SM CLR 24/24 A3025 RMK AO2  T02400237,,,,,,74.66,,NW,29.59,27.52,,Clear
KIGQ,07/06/2018 04:15 UTC,30.25,75.2,74.48,97.63,5.75,310.0,,,,,,1.0,,,,10.0,,KIGQ 060415Z AUTO 31005KT 10SM CLR 24/24 A3025 RMK AO2  T02400236,,,,,,74.48,,NW,29.59,27.54,,Clear
KIGQ,07/06/2018 04:35 UTC,30.25,74.84,74.48,98.81,5.75,310.0,,,,,,1.0,,,,10.0,,KIGQ 060435Z AUTO 31005KT 10SM CLR 24/24 A3025 RMK AO2  T02380236,,,,,,74.48,,NW,29.59,27.54,,Clear
KIGQ,07/06/2018 04:55 UTC,30.25,74.66,74.48,99.4,3.44,330.0,,,,,,1.0,,,,10.0,,KIGQ 060455Z AUTO 33003KT 10SM CLR 24/24 A3025 RMK AO2  T02370236,,,,,,74.48,,NNW,29.59,27.55,,Clear
KIGQ,07/06/2018 05:15 UTC,30.26,74.3,74.3,100.0,0.0,0.0,,,,,,1.0,,,,10.0,,KIGQ 060515Z AUTO 00000KT 10SM CLR 24/24 A3026 RMK AO2  T02350235,,,,,,74.3,,N,29.6,27.58,,Clear
KIGQ,07/06/2018 05:35 UTC,30.26,74.3,74.3,100.0,4.61,330.0,,,,,,1.0,,,,10.0,,KIGQ 060535Z AUTO 33004KT 10SM CLR 24/24 A3026 RMK AO2  T02350235,,,,,,74.3,,NNW,29.6,27.58,,Clear
KIGQ,07/06/2018 05:55 UTC,30.26,74.3,74.3,100.0,3.44,330.0,,,,,,1.0,,,,10.0,,KIGQ 060555Z AUTO 33003KT 10SM CLR 24/24 A3026 RMK AO2 T02350235  10248 20235 403260217,76.64,74.3,,90.68,71.06,74.3,,NNW,29.6,27.58,,Clear
KIGQ,07/06/2018 06:15 UTC,30.26,74.66,72.68,93.58,6.91,360.0,,,,,,1.0,,,,10.0,,KIGQ 060615Z AUTO 36006KT 10SM CLR 24/23 A3026 RMK AO2  T02370226,,,,,,72.68,,N,29.6,27.71,,Clear
KIGQ,07/06/2018 06:35 UTC,30.27,75.2,69.8,83.37,10.36,10.0,18.41,,,,,1.0,,,,10.0,,KIGQ 060635Z AUTO 01009G16KT 10SM CLR 24/21 A3027 RMK AO2  T02400210,,,,,,69.79,,N,29.61,27.93,,Clear
KIGQ,07/06/2018 06:55 UTC,30.27,73.94,69.8,86.95,8.05,10.0,16.11,,,,,1.0,,,,10.0,,KIGQ 060655Z AUTO 01007G14KT 10SM CLR 23/21 A3027 RMK AO2  T02330210,,,,,,69.79,,N,29.61,27.95,,Clear
KIGQ,07/06/2018 07:15 UTC,30.28,73.4,69.44,87.46,4.61,10.0,,,,,,1.0,,,,10.0,,KIGQ 060715Z AUTO 01004KT 10SM CLR 23/21 A3028 RMK AO2  T02300208,,,,,,69.43,,N,29.62,27.99,,Clear
KIGQ,07/06/2018 07:35 UTC,30.29,73.04,67.82,83.74,5.75,360.0,,,,,,1.0,,,,10.0,,KIGQ 060735Z AUTO 36005KT 10SM CLR 23/20 A3029 RMK AO2  T02280199,,,,,,67.81,,N,29.63,28.12,,Clear
KIGQ,07/06/2018 07:55 UTC,30.29,72.5,67.28,83.71,4.61,10.0,,,,,,1.0,,,,10.0,,KIGQ 060755Z AUTO 01004KT 10SM CLR 23/20 A3029 RMK AO2  T02250196,,,,,,67.27,,N,29.63,28.17,,Clear
KIGQ,07/06/2018 08:15 UTC,30.29,71.6,67.46,86.83,3.44,360.0,,,,,,1.0,,,,10.0,,KIGQ 060815Z AUTO 36003KT 10SM CLR 22/20 A3029 RMK AO2  T02200197,,,,,,67.45,,N,29.63,28.17,,Clear
KIGQ,07/06/2018 08:35 UTC,30.3,71.06,67.64,88.98,8.05,10.0,,,,,,1.0,,,,10.0,,KIGQ 060835Z AUTO 01007KT 10SM CLR 22/20 A3030 RMK AO2  T02170198,,,,,,67.63,,N,29.64,28.17,,Clear
KIGQ,07/06/2018 08:55 UTC,30.31,70.88,67.1,87.87,11.5,10.0,,,,,,1.0,,,,10.0,,KIGQ 060855Z AUTO 01010KT 10SM CLR 22/20 A3031 RMK AO2  T02160195,,,,,,67.09,,N,29.65,28.22,,Clear
KIGQ,07/06/2018 09:15 UTC,30.32,69.98,67.1,90.6,9.22,20.0,,,,,,1.0,,,,10.0,,KIGQ 060915Z AUTO 02008KT 10SM CLR 21/20 A3032 RMK AO2  T02110195,,,,,,67.09,,NNE,29.66,28.24,,Clear
KIGQ,07/06/2018 09:35 UTC,30.32,69.8,68.0,94.03,10.36,30.0,16.11,,,,,1.0,,,,10.0,,KIGQ 060935Z AUTO 03009G14KT 10SM CLR 21/20 A3032 RMK AO2  T02100200,,,,,,67.99,,NNE,29.66,28.19,,Clear
KIGQ,07/06/2018 09:55 UTC,30.33,70.16,65.3,84.61,11.5,40.0,20.71,,,,,1.0,,,,,,KIGQ 060955Z AUTO 04010G18KT CLR 21/19 A3033 RMK AO2 T02120185  PWINO,,,,,,65.28,,NE,29.67,28.37,,Clear
KIGQ,07/06/2018 10:15 UTC,30.34,69.62,64.58,84.05,10.36,40.0,,,,,,1.0,,,,10.0,,KIGQ 061015Z AUTO 04009KT 10SM CLR 21/18 A3034 RMK AO2  T02090181,,,,,,64.56,,NE,29.68,28.43,,Clear
KIGQ,07/06/2018 10:35 UTC,30.35,69.44,62.78,79.41,11.5,40.0,17.27,,,,,1.0,,,,10.0,,KIGQ 061035Z AUTO 04010G15KT 10SM CLR 21/17 A3035 RMK AO2  T02080171,,,,,,62.76,,NE,29.69,28.55,,Clear
KIGQ,07/06/2018 10:55 UTC,30.36,69.26,61.52,76.43,8.05,40.0,,,,,,1.0,,,,10.0,,KIGQ 061055Z AUTO 04007KT 10SM CLR 21/16 A3036 RMK AO2  T02070164,,,,,,61.49,,NE,29.7,28.64,,Clear
KIGQ,07/06/2018 11:15 UTC,30.37,69.26,61.7,76.91,9.22,40.0,,,,,,1.0,,,,10.0,,KIGQ 061115Z AUTO 04008KT 10SM CLR 21/17 A3037 RMK AO2  T02070165,,,,,,61.67,,NE,29.71,28.64,,Clear
KIGQ,07/06/2018 11:35 UTC,30.38,69.44,61.16,75.0,9.22,40.0,18.41,,,,,1.0,,,,10.0,,KIGQ 061135Z AUTO 04008G16KT 10SM CLR 21/16 A3038 RMK AO2  T02080162,,,,,,61.13,,NE,29.72,28.67,,Clear
KIGQ,07/06/2018 11:55 UTC,30.39,69.8,60.98,73.61,10.36,40.0,,,,,,1.0,,,0.69,10.0,,KIGQ 061155Z AUTO 04009KT 10SM CLR 21/16 A3039 RMK AO2 70069  T02100161 10241 20206,75.38,69.08,,,,60.95,,NE,29.73,28.69,,Clear
KIGQ,07/06/2018 12:15 UTC,30.39,70.16,60.62,71.79,10.36,50.0,17.27,,,,,1.0,,,,,,KIGQ 061215Z AUTO 05009G15KT CLR 21/16 A3039 RMK AO2 T02120159,,,,,,60.58,,NE,29.73,28.71,,Clear
KIGQ,07/06/2018 12:35 UTC,30.39,70.52,59.9,69.13,11.5,50.0,20.71,,,,,1.0,,,,10.0,,KIGQ 061235Z AUTO 05010G18KT 10SM CLR 21/16 A3039 RMK AO2  T02140155,,,,,,59.86,,NE,29.73,28.74,,Clear
KIGQ,07/06/2018 12:55 UTC,30.4,70.88,59.72,67.86,13.8,40.0,23.02,,,,,1.0,,,,10.0,,KIGQ 061255Z AUTO 04012G20KT 10SM CLR 22/15 A3040 RMK AO2  T02160154 PWINO,,,,,,59.69,,NE,29.74,28.76,,Clear
KIGQ,07/06/2018 13:15 UTC,30.41,71.24,60.08,67.9,14.97,40.0,18.41,,,,,1.0,,,,10.0,,KIGQ 061315Z AUTO 04013G16KT 10SM CLR 22/16 A3041 RMK AO2  T02180156,,,,,,60.05,,NE,29.75,28.74,,Clear
KIGQ,07/06/2018 13:35 UTC,30.41,71.06,58.64,64.89,11.5,50.0,,,,,,1.0,,,,,,KIGQ 061335Z AUTO 05010KT CLR 22/15 A3041 RMK AO2 T02170148  PWINO,,,,,,58.6,,NE,29.75,28.82,,Clear
KIGQ,07/06/2018 13:55 UTC,30.41,71.42,59.36,65.78,13.8,60.0,19.57,,,,,1.0,,,,,,KIGQ 061355Z AUTO 06012G17KT CLR 22/15 A3041 RMK AO2 T02190152  PWINO,,,,,,59.33,,ENE,29.75,28.78,,Clear
KIGQ,07/06/2018 14:15 UTC,30.41,70.88,58.46,64.87,12.66,40.0,,,,,,1.0,,,,,,KIGQ 061415Z AUTO 04011KT CLR 22/15 A3041 RMK AO2 T02160147  PWINO,,,,,,58.42,,NE,29.75,28.83,,Clear
KIGQ,07/06/2018 14:35 UTC,30.42,71.42,58.46,63.69,16.11,30.0,19.57,,,,,1.0,,,,,,KIGQ 061435Z AUTO 03014G17KT CLR 22/15 A3042 RMK AO2 T02190147  PWINO,,,,,,58.42,,NNE,29.76,28.84,,Clear
KIGQ,07/06/2018 14:55 UTC,30.42,71.78,59.36,64.98,13.8,50.0,20.71,,,,,362.0,,,,,,KIGQ 061455Z AUTO 05012G18KT SCT036 22/15 A3042 RMK AO2 T02210152  PWINO,,,,,,59.33,,NE,29.76,28.79,,Partly Cloudy
KIGQ,07/06/2018 15:15 UTC,30.42,71.6,59.18,64.96,11.5,60.0,20.71,,,,,362.0,,,,,,KIGQ 061515Z AUTO 06010G18KT SCT036 22/15 A3042 RMK AO2 T02200151  PWINO,,,,,,59.15,,ENE,29.76,28.8,,Partly Cloudy
KIGQ,07/06/2018 15:35 UTC,30.42,71.78,58.82,63.74,11.5,40.0,18.41,,,,,362.0,,,,10.0,,KIGQ 061535Z AUTO 04010G16KT 10SM SCT036 22/15 A3042 RMK AO2  T02210149,,,,,,58.78,,NE,29.76,28.82,,Partly Cloudy
KIGQ,07/06/2018 15:55 UTC,30.43,71.6,56.48,58.96,13.8,40.0,18.41,,,,,1.0,,,,10.0,,KIGQ 061555Z AUTO 04012G16KT 10SM CLR 22/14 A3043 RMK AO2  T02200136,,,,,,56.44,,NE,29.77,28.95,,Clear
KIGQ,07/06/2018 16:15 UTC,30.43,72.14,57.56,60.19,13.8,50.0,18.41,,,,,1.0,,,,10.0,,KIGQ 061615Z AUTO 05012G16KT 10SM CLR 22/14 A3043 RMK AO2  T02230142,,,,,,57.52,,NE,29.77,28.89,,Clear
KIGQ,07/06/2018 16:35 UTC,30.42,72.5,59.0,62.61,12.66,70.0,17.27,,,,,1.0,,,,,,KIGQ 061635Z AUTO 07011G15KT CLR 23/15 A3042 RMK AO2 T02250150  PWINO,,,,,,58.97,,ENE,29.76,28.8,,Clear
KIGQ,07/06/2018 16:55 UTC,30.42,72.5,56.84,57.94,12.66,10.0,18.41,,,,,1.0,,,,10.0,,KIGQ 061655Z AUTO 01011G16KT 10SM CLR 23/14 A3042 RMK AO2  T02250138,,,,,,56.8,,N,29.76,28.91,,Clear
KIGQ,07/06/2018 17:15 UTC,30.42,71.6,55.94,57.82,10.36,20.0,18.41,,,,,1.0,,,,10.0,,KIGQ 061715Z AUTO 02009G16KT 10SM CLR 22/13 A3042 RMK AO2  T02200133,,,,,,55.9,,NNE,29.76,28.96,,Clear
KIGQ,07/06/2018 17:35 UTC,30.42,71.6,57.02,60.12,10.36,30.0,17.27,,,,,1.0,,,,10.0,,KIGQ 061735Z AUTO 03009G15KT 10SM CLR 22/14 A3042 RMK AO2  T02200139,,,,,,56.98,,NNE,29.76,28.91,,Clear
KIGQ,07/06/2018 17:55 UTC,30.42,71.24,56.3,59.29,12.66,20.0,16.11,,,,,1.0,,,,10.0,,KIGQ 061755Z AUTO 02011G14KT 10SM CLR 22/14 A3042 RMK AO2  T02180135 10226 20210,72.68,69.8,,,,56.25,,NNE,29.76,28.95,,Clear
KIGQ,07/06/2018 18:15 UTC,30.42,71.6,56.66,59.34,12.66,30.0,17.27,,,,,1.0,,,,10.0,,KIGQ 061815Z AUTO 03011G15KT 10SM CLR 22/14 A3042 RMK AO2  T02200137,,,,,,56.62,,NNE,29.76,28.93,,Clear
KIGQ,07/06/2018 18:35 UTC,30.41,71.24,57.92,62.86,11.5,40.0,19.57,,,,,1.0,,,,10.0,,KIGQ 061835Z AUTO 04010G17KT 10SM CLR 22/14 A3041 RMK AO2  T02180144,,,,,,57.88,,NE,29.75,28.86,,Clear
KIGQ,07/06/2018 18:55 UTC,30.41,70.88,59.0,66.14,12.66,30.0,17.27,,,,,1.0,,,,,,KIGQ 061855Z AUTO 03011G15KT CLR 22/15 A3041 RMK AO2 T02160150,,,,,,58.96,,NNE,29.75,28.81,,Clear
KIGQ,07/06/2018 19:15 UTC,30.4,70.7,58.82,66.11,10.36,10.0,18.41,,,,,1.0,,,,10.0,,KIGQ 061915Z AUTO 01009G16KT 330V040 10SM CLR 22/15 A3040 RMK AO2  T02150149,,,,,,58.78,,N,29.74,28.81,,Clear
KIGQ,07/06/2018 19:35 UTC,30.39,70.52,57.92,64.41,10.36,360.0,17.27,,,,,1.0,,,,10.0,,KIGQ 061935Z AUTO 36009G15KT 10SM CLR 21/14 A3039 RMK AO2  T02140144,,,,,,57.88,,N,29.73,28.84,,Clear
KIGQ,07/06/2018 19:55 UTC,30.39,70.52,58.82,66.52,10.36,10.0,19.57,,,,,1.0,,,,10.0,,KIGQ 061955Z AUTO 01009G17KT 10SM CLR 21/15 A3039 RMK AO2  T02140149,,,,,,58.78,,N,29.73,28.8,,Clear
KIGQ,07/06/2018 20:15 UTC,30.38,70.7,59.36,67.4,12.66,350.0,18.41,,,,,1.0,,,,10.0,,KIGQ 062015Z AUTO 35011G16KT 10SM CLR 22/15 A3038 RMK AO2  T02150152,,,,,,59.32,,N,29.72,28.76,,Clear
KIGQ,07/06/2018 20:35 UTC,30.38,70.7,59.36,67.4,12.66,20.0,18.41,,,,,1.0,,,,10.0,,KIGQ 062035Z AUTO 02011G16KT 10SM CLR 22/15 A3038 RMK AO2  T02150152,,,,,,59.32,,NNE,29.72,28.76,,Clear
KIGQ,07/06/2018 20:55 UTC,30.38,70.88,60.26,69.17,11.5,10.0,19.57,,,,,1.0,,,,10.0,,KIGQ 062055Z AUTO 01010G17KT 10SM CLR 22/16 A3038 RMK AO2  T02160157,,,,,,60.23,,N,29.72,28.71,,Clear
KIGQ,07/06/2018 21:15 UTC,30.37,69.98,59.9,70.41,10.36,20.0,18.41,,,,,1.0,,,,10.0,,KIGQ 062115Z AUTO 02009G16KT 10SM CLR 21/16 A3037 RMK AO2  T02110155,,,,,,59.86,,NNE,29.71,28.73,,Clear
KIGQ,07/06/2018 21:35 UTC,30.37,69.98,60.62,72.24,10.36,360.0,,,,,,1.0,,,,10.0,,KIGQ 062135Z AUTO 36009KT 10SM CLR 21/16 A3037 RMK AO2  T02110159,,,,,,60.59,,N,29.71,28.69,,Clear
KIGQ,07/06/2018 21:55 UTC,30.36,69.62,60.8,73.6,12.66,10.0,18.41,,,,,1.0,,,,10.0,,KIGQ 062155Z AUTO 01011G16KT 10SM CLR 21/16 A3036 RMK AO2  T02090160,,,,,,60.77,,N,29.7,28.67,,Clear
KIGQ,07/06/2018 22:15 UTC,30.35,69.8,60.8,73.15,13.8,20.0,19.57,,,,,1.0,,,,10.0,,KIGQ 062215Z AUTO 02012G17KT 10SM CLR 21/16 A3035 RMK AO2  T02100160,,,,,,60.77,,NNE,29.69,28.66,,Clear
KIGQ,07/06/2018 22:35 UTC,30.34,69.26,60.08,72.63,12.66,30.0,16.11,,,,,1.0,,,,10.0,,KIGQ 062235Z AUTO 03011G14KT 10SM CLR 21/16 A3034 RMK AO2  T02070156,,,,,,60.05,,NNE,29.68,28.69,,Clear
KIGQ,07/06/2018 22:55 UTC,30.34,69.26,59.54,71.24,10.36,20.0,,,,,,1.0,,,,10.0,,KIGQ 062255Z AUTO 02009KT 10SM CLR 21/15 A3034 RMK AO2  T02070153,,,,,,59.5,,NNE,29.68,28.72,,Clear
KIGQ,07/06/2018 23:15 UTC,30.34,69.44,59.0,69.46,11.5,10.0,18.41,,,,,1.0,,,,10.0,,KIGQ 062315Z AUTO 01010G16KT 10SM CLR 21/15 A3034 RMK AO2  T02080150,,,,,,58.96,,N,29.68,28.75,,Clear
KIGQ,07/06/2018 23:35 UTC,30.33,68.9,59.18,71.21,12.66,360.0,,,,,,1.0,,,,10.0,,KIGQ 062335Z AUTO 36011KT 10SM CLR 21/15 A3033 RMK AO2  T02050151,,,,,,59.14,,N,29.67,28.74,,Clear
KIGQ,07/06/2018 23:55 UTC,30.34,68.9,59.18,71.21,10.36,20.0,,,,,,1.0,,,,10.0,,KIGQ 062355Z AUTO 02009KT 10SM CLR 21/15 A3034 RMK AO2 T02050151  10220 20205,71.6,68.9,,,,59.14,,NNE,29.68,28.75,,Clear
KIGQ,07/07/2018 00:15 UTC,30.34,68.36,58.1,69.79,11.5,40.0,,,,,,1.0,,,,10.0,,KIGQ 070015Z AUTO 04010KT 10SM CLR 20/15 A3034 RMK AO2  T02020145,,,,,,58.06,,NE,29.68,28.81,,Clear
KIGQ,07/07/2018 00:35 UTC,30.34,67.82,58.1,71.09,10.36,30.0,,,,,,1.0,,,,10.0,,KIGQ 070035Z AUTO 03009KT 10SM CLR 20/15 A3034 RMK AO2  T01990145,,,,,,58.06,,NNE,29.68,28.81,,Clear
KIGQ,07/07/2018 00:55 UTC,30.34,67.1,58.64,74.3,10.36,30.0,18.41,,,,,1.0,,,,10.0,,KIGQ 070055Z AUTO 03009G16KT 10SM CLR 20/15 A3034 RMK AO2  T01950148,,,,,,58.6,,NNE,29.68,28.79,,Clear
KIGQ,07/07/2018 01:15 UTC,30.34,66.56,58.46,75.21,9.22,20.0,16.11,,,,,1.0,,,,10.0,,KIGQ 070115Z AUTO 02008G14KT 10SM CLR 19/15 A3034 RMK AO2  T01920147,,,,,,58.42,,NNE,29.68,28.81,,Clear
KIGQ,07/07/2018 01:35 UTC,30.35,65.84,58.64,77.61,10.36,20.0,,,,,,1.0,,,,10.0,,KIGQ 070135Z AUTO 02009KT 10SM CLR 19/15 A3035 RMK AO2  T01880148,,,,,,58.6,,NNE,29.69,28.82,,Clear
KIGQ,07/07/2018 01:55 UTC,30.35,65.66,58.46,77.59,8.05,40.0,,,,,,1.0,,,,10.0,,KIGQ 070155Z AUTO 04007KT 10SM CLR 19/15 A3035 RMK AO2  T01870147,,,,,,58.42,,NE,29.69,28.83,,Clear
KIGQ,07/07/2018 02:15 UTC,30.36,65.3,58.1,77.56,6.91,30.0,,,,,,1.0,,,,10.0,,KIGQ 070215Z AUTO 03006KT 10SM CLR 19/15 A3036 RMK AO2  T01850145,,,,,,58.06,,NNE,29.7,28.86,,Clear
KIGQ,07/07/2018 02:35 UTC,30.37,64.94,57.74,77.53,5.75,40.0,,,,,,1.0,,,,10.0,,KIGQ 070235Z AUTO 04005KT 10SM CLR 18/14 A3037 RMK AO2  T01830143,,,,,,57.7,,NE,29.71,28.89,,Clear
KIGQ,07/07/2018 02:55 UTC,30.36,65.12,58.1,78.05,9.22,40.0,,,,,,1.0,,,,10.0,,KIGQ 070255Z AUTO 04008KT 10SM CLR 18/15 A3036 RMK AO2  T01840145,,,,,,58.06,,NE,29.7,28.86,,Clear
KIGQ,07/07/2018 03:15 UTC,30.37,65.3,58.46,78.57,6.91,40.0,,,,,,1.0,,,,10.0,,KIGQ 070315Z AUTO 04006KT 10SM CLR 19/15 A3037 RMK AO2  T01850147,,,,,,58.42,,NE,29.71,28.85,,Clear
KIGQ,07/07/2018 03:35 UTC,30.37,64.94,59.18,81.63,10.36,40.0,,,,,,1.0,,,,10.0,,KIGQ 070335Z AUTO 04009KT 10SM CLR 18/15 A3037 RMK AO2  T01830151,,,,,,59.15,,NE,29.71,28.82,,Clear
KIGQ,07/07/2018 03:55 UTC,30.37,64.76,59.9,84.28,8.05,30.0,,,,,,1.0,,,,10.0,,KIGQ 070355Z AUTO 03007KT 10SM CLR 18/16 A3037 RMK AO2  T01820155,,,,,,59.87,,NNE,29.71,28.79,,Clear
KIGQ,07/07/2018 04:15 UTC,30.37,64.58,59.9,84.81,5.75,30.0,,,,,,1.0,,,,10.0,,KIGQ 070415Z AUTO 03005KT 10SM CLR 18/16 A3037 RMK AO2  T01810155,,,,,,59.87,,NNE,29.71,28.79,,Clear
KIGQ,07/07/2018 04:35 UTC,30.36,64.4,60.26,86.44,6.91,40.0,,,,,,1.0,,,,10.0,,KIGQ 070435Z AUTO 04006KT 10SM CLR 18/16 A3036 RMK AO2  T01800157,,,,,,60.23,,NE,29.7,28.76,,Clear
KIGQ,07/07/2018 04:55 UTC,30.36,64.76,60.8,87.01,8.05,30.0,,,,,,1.0,,,,10.0,,KIGQ 070455Z AUTO 03007KT 10SM CLR 18/16 A3036 RMK AO2  T01820160,,,,,,60.78,,NNE,29.7,28.73,,Clear
KIGQ,07/07/2018 05:15 UTC,30.36,64.4,60.8,88.11,5.75,30.0,,,,,,1.0,,,,10.0,,KIGQ 070515Z AUTO 03005KT 10SM CLR 18/16 A3036 RMK AO2  T01800160,,,,,,60.78,,NNE,29.7,28.73,,Clear
KIGQ,07/07/2018 05:35 UTC,30.36,64.4,60.8,88.11,6.91,30.0,,,,,,1.0,,,,10.0,,KIGQ 070535Z AUTO 03006KT 10SM CLR 18/16 A3036 RMK AO2  T01800160,,,,,,60.78,,NNE,29.7,28.73,,Clear
KIGQ,07/07/2018 05:55 UTC,30.35,64.22,60.98,89.23,6.91,40.0,,,,,,1.0,,,,10.0,,KIGQ 070555Z AUTO 04006KT 10SM CLR 18/16 A3035 RMK AO2 T01790161  10205 20179 402410179,68.9,64.22,,75.38,64.22,60.96,,NE,29.69,28.72,,Clear
KIGQ,07/07/2018 06:15 UTC,30.34,64.22,61.34,90.38,5.75,40.0,,,,,,1.0,,,,10.0,,KIGQ 070615Z AUTO 04005KT 10SM CLR 18/16 A3034 RMK AO2 T01790163  PWINO,,,,,,61.32,,NE,29.68,28.69,,Clear
KIGQ,07/07/2018 06:35 UTC,30.34,63.86,61.7,92.69,4.61,50.0,,,,,,1.0,,,,10.0,,KIGQ 070635Z AUTO 05004KT 10SM CLR 18/17 A3034 RMK AO2  T01770165,,,,,,61.69,,NE,29.68,28.67,,Clear
KIGQ,07/07/2018 06:55 UTC,30.34,63.86,61.7,92.69,0.0,0.0,,,,,,1.0,,,,10.0,,KIGQ 070655Z AUTO 00000KT 10SM CLR 18/17 A3034 RMK AO2  T01770165,,,,,,61.69,,N,29.68,28.67,,Clear
KIGQ,07/07/2018 07:15 UTC,30.34,62.6,61.52,96.27,0.0,0.0,,,,,,1.0,,,,10.0,,KIGQ 070715Z AUTO 00000KT 10SM CLR 17/16 A3034 RMK AO2  T01700164,,,,,,61.51,,N,29.68,28.7,,Clear
KIGQ,07/07/2018 07:35 UTC,30.34,62.6,61.88,97.5,0.0,0.0,,,,,,1.0,,,,10.0,,KIGQ 070735Z AUTO 00000KT 10SM CLR 17/17 A3034 RMK AO2  T01700166,,,,,,61.88,,N,29.68,28.68,,Clear
KIGQ,07/07/2018 07:55 UTC,30.34,60.8,60.8,100.0,0.0,0.0,,,,,,1.0,,,,10.0,,KIGQ 070755Z AUTO 00000KT 10SM CLR 16/16 A3034 RMK AO2  T01600160,,,,,,60.8,,N,29.68,28.76,,Clear
KIGQ,07/07/2018 08:15 UTC,30.34,58.28,58.28,100.0,0.0,0.0,,,,,,1.0,,,,10.0,,KIGQ 070815Z AUTO 00000KT 10SM CLR 15/15 A3034 RMK AO2  T01460146,,,,,,58.28,,N,29.68,28.92,,Clear
KIGQ,07/07/2018 08:35 UTC,30.33,59.72,59.72,100.0,3.44,50.0,,,,,,1.0,,,,10.0,,KIGQ 070835Z AUTO 05003KT 10SM CLR 15/15 A3033 RMK AO2  T01540154,,,,,,59.72,,NE,29.67,28.82,,Clear
KIGQ,07/07/2018 08:55 UTC,30.34,59.0,59.0,100.0,0.0,0.0,,,,,,1.0,,,,10.0,,KIGQ 070855Z AUTO 00000KT 10SM CLR 15/15 A3034 RMK AO2  T01500150,,,,,,59.0,,N,29.68,28.87,,Clear
KIGQ,07/07/2018 09:15 UTC,30.34,56.12,56.12,100.0,0.0,0.0,,,,,,1.0,,,,10.0,,KIGQ 070915Z AUTO 00000KT 10SM CLR 13/13 A3034 RMK AO2  T01340134,,,,,,56.12,,N,29.68,29.04,,Clear
KIGQ,07/07/2018 09:35 UTC,30.34,57.38,57.38,100.0,0.0,0.0,,,,,,1.0,,,,10.0,,KIGQ 070935Z AUTO 00000KT 10SM CLR 14/14 A3034 RMK AO2  T01410141,,,,,,57.38,,N,29.68,28.97,,Clear
KIGQ,07/07/2018 09:55 UTC,30.34,56.66,56.66,100.0,0.0,0.0,,,,,,1.0,,,,10.0,,KIGQ 070955Z AUTO 00000KT 10SM CLR 14/14 A3034 RMK AO2  T01370137,,,,,,56.66,,N,29.68,29.01,,Clear
KIGQ,07/07/2018 10:15 UTC,30.35,56.66,56.66,100.0,0.0,0.0,,,,,,1.0,,,,10.0,,KIGQ 071015Z AUTO 00000KT 10SM CLR 14/14 A3035 RMK AO2  T01370137,,,,,,56.66,,N,29.69,29.02,,Clear
KIGQ,07/07/2018 10:35 UTC,30.36,55.4,55.4,100.0,0.0,0.0,,,,,,1.0,,,,10.0,,KIGQ 071035Z AUTO 00000KT 10SM CLR 13/13 A3036 RMK AO2  T01300130,,,,,,55.4,,N,29.7,29.1,,Clear
KIGQ,07/07/2018 10:55 UTC,30.37,56.3,56.3,100.0,3.44,40.0,,,,,,1.0,,,,10.0,,KIGQ 071055Z AUTO 04003KT 10SM CLR 14/14 A3037 RMK AO2  T01350135,,,,,,56.3,,NE,29.71,29.06,,Clear
KIGQ,07/07/2018 11:15 UTC,30.37,57.92,56.12,93.72,0.0,0.0,,,,,,1.0,,,,10.0,,KIGQ 071115Z AUTO 00000KT 10SM CLR 14/13 A3037 RMK AO2  T01440134,,,,,,56.1,,N,29.71,29.05,,Clear
KIGQ,07/07/2018 11:35 UTC,30.38,60.08,55.94,86.2,0.0,0.0,,,,,,1.0,,,,10.0,,KIGQ 071135Z AUTO 00000KT 10SM CLR 16/13 A3038 RMK AO2  T01560133,,,,,,55.91,,N,29.72,29.04,,Clear
KIGQ,07/07/2018 11:55 UTC,30.39,61.52,56.48,83.53,0.0,0.0,,,,,,1.0,,,,10.0,,KIGQ 071155Z AUTO 00000KT 10SM CLR 16/14 A3039 RMK AO2 T01640136  10180 20126,64.4,54.68,,,,56.44,,N,29.73,29.01,,Clear
KIGQ,07/07/2018 12:15 UTC,30.39,61.88,54.32,76.26,4.61,110.0,,,,,,1.0,,,,10.0,,KIGQ 071215Z AUTO 11004KT 10SM CLR 17/12 A3039 RMK AO2  T01660124,,,,,,54.27,,ESE,29.73,29.11,,Clear
KIGQ,07/07/2018 12:35 UTC,30.39,62.96,52.34,68.28,6.91,120.0,,,,,,1.0,,,,10.0,,KIGQ 071235Z AUTO 12006KT 10SM CLR 17/11 A3039 RMK AO2  T01720113,,,,,,52.27,,ESE,29.73,29.18,,Clear
KIGQ,07/07/2018 12:55 UTC,30.4,64.22,53.96,69.33,8.05,100.0,,,,,,1.0,,,,10.0,,KIGQ 071255Z AUTO 10007KT 020V120 10SM CLR 18/12 A3040 RMK AO2  T01790122,,,,,,53.9,,E,29.74,29.11,,Clear
KIGQ,07/07/2018 13:15 UTC,30.4,65.12,53.42,65.87,5.75,110.0,,,,,,1.0,,,,10.0,,KIGQ 071315Z AUTO 11005KT 10SM CLR 18/12 A3040 RMK AO2  T01840119,,,,,,53.35,,ESE,29.74,29.12,,Clear
KIGQ,07/07/2018 13:35 UTC,30.4,66.56,54.68,65.62,5.75,110.0,,,,,,1.0,,,,10.0,,KIGQ 071335Z AUTO 11005KT 10SM CLR 19/13 A3040 RMK AO2  T01920126,,,,,,54.62,,ESE,29.74,29.05,,Clear
KIGQ,07/07/2018 13:55 UTC,30.4,67.82,54.14,61.6,0.0,0.0,,,,,,1.0,,,,10.0,,KIGQ 071355Z AUTO 00000KT 10SM CLR 20/12 A3040 RMK AO2  T01990123,,,,,,54.08,,N,29.74,29.06,,Clear
KIGQ,07/07/2018 14:15 UTC,30.39,68.54,54.14,60.1,4.61,100.0,,,,,,1.0,,,,10.0,,KIGQ 071415Z AUTO 10004KT 10SM CLR 20/12 A3039 RMK AO2  T02030123,,,,,,54.08,,E,29.73,29.05,,Clear
KIGQ,07/07/2018 14:35 UTC,30.39,69.98,54.14,57.22,4.61,90.0,,,,,,1.0,,,,10.0,,KIGQ 071435Z AUTO 09004KT 10SM CLR 21/12 A3039 RMK AO2  T02110123,,,,,,54.09,,E,29.73,29.03,,Clear
KIGQ,07/07/2018 14:55 UTC,30.39,70.7,53.78,55.1,4.61,130.0,,,,,,1.0,,,,10.0,,KIGQ 071455Z AUTO 13004KT 10SM CLR 22/12 A3039 RMK AO2  T02150121,,,,,,53.73,,SE,29.73,29.04,,Clear
KIGQ,07/07/2018 15:15 UTC,30.39,71.6,53.78,53.45,0.0,0.0,,,,,,1.0,,,,10.0,,KIGQ 071515Z AUTO 00000KT 10SM CLR 22/12 A3039 RMK AO2  T02200121,,,,,,53.73,,N,29.73,29.03,,Clear
KIGQ,07/07/2018 15:35 UTC,30.38,72.5,53.96,52.19,0.0,0.0,,,,,,1.0,,,,10.0,,KIGQ 071535Z AUTO 00000KT 10SM CLR 23/12 A3038 RMK AO2  T02250122,,,,,,53.92,,N,29.72,29.01,,Clear
KIGQ,07/07/2018 15:55 UTC,30.38,72.5,51.98,48.54,0.0,0.0,,,,,,1.0,,,,10.0,,KIGQ 071555Z AUTO 00000KT 10SM CLR 23/11 A3038 RMK AO2  T02250111,,,,,,51.94,,N,29.72,29.09,,Clear
KIGQ,07/07/2018 16:15 UTC,30.38,74.12,54.14,49.76,4.61,150.0,,,,,,1.0,,,,10.0,,KIGQ 071615Z AUTO 15004KT 10SM CLR 23/12 A3038 RMK AO2  T02340123,,,,,,54.11,,SSE,29.72,28.98,,Clear
KIGQ,07/07/2018 16:35 UTC,30.38,74.48,54.5,49.81,6.91,130.0,,,,,,1.0,,,,10.0,,KIGQ 071635Z AUTO 13006KT 10SM CLR 24/13 A3038 RMK AO2  T02360125,,,,,,54.47,,SE,29.72,28.96,,Clear
KIGQ,07/07/2018 16:55 UTC,30.37,74.48,53.06,47.26,4.61,130.0,,,,,,1.0,,,,10.0,,KIGQ 071655Z AUTO 13004KT 10SM CLR 24/12 A3037 RMK AO2  T02360117,,,,,,53.03,,SE,29.71,29.02,,Clear
KIGQ,07/07/2018 17:15 UTC,30.37,75.2,53.6,47.06,5.75,120.0,,,,,,1.0,,,,10.0,,KIGQ 071715Z AUTO 12005KT 10SM CLR 24/12 A3037 RMK AO2  T02400120,,,,,,53.58,,ESE,29.71,28.99,,Clear
KIGQ,07/07/2018 17:35 UTC,30.36,75.02,53.06,46.41,0.0,0.0,,,,,,1.0,,,,10.0,,KIGQ 071735Z AUTO 00000KT 10SM CLR 24/12 A3036 RMK AO2  T02390117,,,,,,53.03,,N,29.7,29.0,,Clear
KIGQ,07/07/2018 17:55 UTC,30.35,76.1,51.62,42.47,5.75,110.0,,,,,,1.0,,,,10.0,,KIGQ 071755Z AUTO 11005KT 10SM CLR 25/11 A3035 RMK AO2 T02450109  10245 20163,76.1,61.34,,,,51.61,,ESE,29.69,29.05,,Clear
KIGQ,07/07/2018 18:15 UTC,30.34,76.46,51.44,41.68,6.91,150.0,,,,,,1.0,,,,10.0,,KIGQ 071815Z AUTO 15006KT 10SM CLR 25/11 A3034 RMK AO2  T02470108,,,,,,51.42,,SSE,29.68,29.04,,Clear
KIGQ,07/07/2018 18:35 UTC,30.34,77.0,52.16,42.05,5.75,150.0,,,,,,1.0,,,,10.0,,KIGQ 071835Z AUTO 15005KT 10SM CLR 25/11 A3034 RMK AO2  T02500112,,,,,,52.15,,SSE,29.68,29.01,,Clear
KIGQ,07/07/2018 18:55 UTC,30.34,77.54,53.24,42.98,3.44,150.0,,,,,,1.0,,,,10.0,,KIGQ 071855Z AUTO 15003KT 10SM CLR 25/12 A3034 RMK AO2  T02530118,,,,,,53.24,,SSE,29.68,28.95,,Clear
KIGQ,07/07/2018 19:15 UTC,30.33,77.18,51.62,40.97,5.75,160.0,,,,,,1.0,,,,10.0,,KIGQ 071915Z AUTO 16005KT 10SM CLR 25/11 A3033 RMK AO2  T02510109,,,,,,51.61,,SSE,29.67,29.02,,Clear
KIGQ,07/07/2018 19:35 UTC,30.32,77.9,53.42,42.75,4.61,140.0,,,,,,1.0,,,,10.0,,KIGQ 071935Z AUTO 14004KT 10SM CLR 26/12 A3032 RMK AO2  T02550119,,,,,,53.42,,SE,29.66,28.92,,Clear
KIGQ,07/07/2018 19:55 UTC,30.32,78.62,53.42,41.75,3.44,130.0,,,,,,1.0,,,,10.0,,KIGQ 071955Z AUTO 13003KT 10SM CLR 26/12 A3032 RMK AO2  T02590119,,,,,,53.43,,SE,29.66,28.92,,Clear
KIGQ,07/07/2018 20:15 UTC,30.31,78.8,53.06,40.96,3.44,140.0,,,,,,1.0,,,,10.0,,KIGQ 072015Z AUTO 14003KT 10SM CLR 26/12 A3031 RMK AO2  T02600117,,,,,,53.07,,SE,29.65,28.92,,Clear
KIGQ,07/07/2018 20:35 UTC,30.31,78.8,52.16,39.63,4.61,110.0,,,,,,1.0,,,,10.0,,KIGQ 072035Z AUTO 11004KT 10SM CLR 26/11 A3031 RMK AO2  T02600112,,,,,,52.17,,ESE,29.65,28.96,,Clear
KIGQ,07/07/2018 20:55 UTC,30.31,79.7,54.5,41.92,5.75,70.0,,,,,,1.0,,,,10.0,,KIGQ 072055Z AUTO 07005KT 10SM CLR 27/13 A3031 RMK AO2  T02650125,,,,,,54.52,,ENE,29.65,28.85,,Clear
KIGQ,07/07/2018 21:15 UTC,30.3,78.44,56.84,47.55,5.75,20.0,,,,,,1.0,,,,10.0,,KIGQ 072115Z AUTO 02005KT 10SM CLR 26/14 A3030 RMK AO2  T02580138,,,,,,56.84,,NNE,29.64,28.73,,Clear
KIGQ,07/07/2018 21:35 UTC,30.3,78.8,57.92,48.86,6.91,40.0,,,,,,1.0,,,,10.0,,KIGQ 072135Z AUTO 04006KT 10SM CLR 26/14 A3030 RMK AO2  T02600144,,,,,,57.93,,NE,29.64,28.67,,Clear
KIGQ,07/07/2018 21:55 UTC,30.3,78.08,57.02,48.43,9.22,70.0,,,,,,1.0,,,,10.0,,KIGQ 072155Z AUTO 07008KT 10SM CLR 26/14 A3030 RMK AO2  T02560139,,,,,,57.02,,ENE,29.64,28.72,,Clear
KIGQ,07/07/2018 22:15 UTC,30.29,77.36,56.66,48.96,6.91,60.0,,,,,,1.0,,,,10.0,,KIGQ 072215Z AUTO 06006KT 10SM CLR 25/14 A3029 RMK AO2  T02520137,,,,,,56.66,,ENE,29.63,28.74,,Clear
KIGQ,07/07/2018 22:35 UTC,30.29,77.0,57.02,50.19,9.22,50.0,,,,,,1.0,,,,10.0,,KIGQ 072235Z AUTO 05008KT 10SM CLR 25/14 A3029 RMK AO2  T02500139,,,,,,57.01,,NE,29.63,28.72,,Clear
KIGQ,07/07/2018 22:55 UTC,30.29,76.1,56.12,50.05,9.22,40.0,,,,,,1.0,,,,10.0,,KIGQ 072255Z AUTO 04008KT 10SM CLR 25/13 A3029 RMK AO2  T02450134,,,,,,56.1,,NE,29.63,28.78,,Clear
KIGQ,07/07/2018 23:15 UTC,30.28,75.74,56.12,50.66,8.05,40.0,,,,,,1.0,,,,10.0,,KIGQ 072315Z AUTO 04007KT 10SM CLR 24/13 A3028 RMK AO2  T02430134,,,,,,56.1,,NE,29.62,28.77,,Clear
KIGQ,07/07/2018 23:35 UTC,30.27,74.84,55.94,51.86,6.91,50.0,,,,,,1.0,,,,10.0,,KIGQ 072335Z AUTO 05006KT 10SM CLR 24/13 A3027 RMK AO2  T02380133,,,,,,55.92,,NE,29.61,28.78,,Clear
KIGQ,07/07/2018 23:55 UTC,30.27,74.66,56.84,53.89,6.91,50.0,,,,,,1.0,,,,10.0,,KIGQ 072355Z AUTO 05006KT 10SM CLR 24/14 A3027 RMK AO2 T02370138  10265 20237,79.7,74.66,,,,56.81,,NE,29.61,28.74,,Clear
KIGQ,07/08/2018 00:15 UTC,30.26,73.94,56.48,54.49,8.05,70.0,,,,,,1.0,,,,10.0,,KIGQ 080015Z AUTO 07007KT 10SM CLR 23/14 A3026 RMK AO2  T02330136,,,,,,56.45,,ENE,29.6,28.75,,Clear
KIGQ,07/08/2018 00:35 UTC,30.26,73.04,57.02,57.27,4.61,50.0,,,,,,1.0,,,,10.0,,KIGQ 080035Z AUTO 05004KT 10SM CLR 23/14 A3026 RMK AO2  T02280139,,,,,,56.99,,NE,29.6,28.73,,Clear
KIGQ,07/08/2018 00:55 UTC,30.26,71.78,57.38,60.53,4.61,40.0,,,,,,1.0,,,,10.0,,KIGQ 080055Z AUTO 04004KT 10SM CLR 22/14 A3026 RMK AO2  T02210141,,,,,,57.34,,NE,29.6,28.73,,Clear
KIGQ,07/08/2018 01:15 UTC,30.26,70.52,57.74,63.99,3.44,50.0,,,,,,1.0,,,,10.0,,KIGQ 080115Z AUTO 05003KT 10SM CLR 21/14 A3026 RMK AO2  T02140143,,,,,,57.7,,NE,29.6,28.72,,Clear
KIGQ,07/08/2018 01:35 UTC,30.26,69.62,57.56,65.56,4.61,50.0,,,,,,1.0,,,,10.0,,KIGQ 080135Z AUTO 05004KT 10SM CLR 21/14 A3026 RMK AO2  T02090142,,,,,,57.52,,NE,29.6,28.74,,Clear
KIGQ,07/08/2018 01:55 UTC,30.26,68.18,57.92,69.77,4.61,50.0,,,,,,1.0,,,,10.0,,KIGQ 080155Z AUTO 05004KT 10SM CLR 20/14 A3026 RMK AO2  T02010144,,,,,,57.88,,NE,29.6,28.74,,Clear
KIGQ,07/08/2018 02:15 UTC,30.27,68.0,57.74,69.75,4.61,50.0,,,,,,1.0,,,,10.0,,KIGQ 080215Z AUTO 05004KT 10SM CLR 20/14 A3027 RMK AO2  T02000143,,,,,,57.7,,NE,29.61,28.76,,Clear
KIGQ,07/08/2018 02:35 UTC,30.27,67.64,57.92,71.07,4.61,50.0,,,,,,1.0,,,,10.0,,KIGQ 080235Z AUTO 05004KT 10SM CLR 20/14 A3027 RMK AO2  T01980144,,,,,,57.87,,NE,29.61,28.75,,Clear
KIGQ,07/08/2018 02:55 UTC,30.28,66.92,57.56,71.92,3.44,70.0,,,,,,1.0,,,,10.0,,KIGQ 080255Z AUTO 07003KT 10SM CLR 19/14 A3028 RMK AO2  T01940142,,,,,,57.51,,ENE,29.62,28.79,,Clear
KIGQ,07/08/2018 03:15 UTC,30.28,66.02,58.1,75.65,3.44,70.0,,,,,,1.0,,,,10.0,,KIGQ 080315Z AUTO 07003KT 10SM CLR 19/15 A3028 RMK AO2  T01890145,,,,,,58.06,,ENE,29.62,28.77,,Clear
KIGQ,07/08/2018 03:35 UTC,30.28,65.3,58.64,79.07,0.0,0.0,,,,,,1.0,,,,10.0,,KIGQ 080335Z AUTO 00000KT 10SM CLR 19/15 A3028 RMK AO2  T01850148,,,,,,58.6,,N,29.62,28.75,,Clear
KIGQ,07/08/2018 03:55 UTC,30.28,64.94,59.0,81.11,0.0,0.0,,,,,,1.0,,,,10.0,,KIGQ 080355Z AUTO 00000KT 10SM CLR 18/15 A3028 RMK AO2  T01830150,,,,,,58.97,,N,29.62,28.74,,Clear
KIGQ,07/08/2018 04:15 UTC,30.28,65.12,59.72,82.7,0.0,0.0,,,,,,1.0,,,,10.0,,KIGQ 080415Z AUTO 00000KT 10SM CLR 18/15 A3028 RMK AO2  T01840154,,,,,,59.69,,N,29.62,28.7,,Clear
KIGQ,07/08/2018 04:35 UTC,30.29,65.3,59.36,81.13,0.0,0.0,,,,,,1.0,,,,10.0,,KIGQ 080435Z AUTO 00000KT 10SM CLR 19/15 A3029 RMK AO2  T01850152,,,,,,59.33,,N,29.63,28.73,,Clear
KIGQ,07/08/2018 04:55 UTC,30.28,63.14,59.0,86.37,0.0,0.0,,,,,,1.0,,,,10.0,,KIGQ 080455Z AUTO 00000KT 10SM CLR 17/15 A3028 RMK AO2  T01730150,,,,,,58.97,,N,29.62,28.76,,Clear
KIGQ,07/08/2018 05:15 UTC,30.28,62.42,59.9,91.47,0.0,0.0,,,,,,1.0,,,,10.0,,KIGQ 080515Z AUTO 00000KT 10SM CLR 17/16 A3028 RMK AO2  T01690155,,,,,,59.88,,N,29.62,28.72,,Clear
KIGQ,07/08/2018 05:35 UTC,30.28,61.16,59.9,95.63,0.0,0.0,,,,,,1.0,,,,7.0,,KIGQ 080535Z AUTO 00000KT 7SM CLR 16/16 A3028 RMK AO2  T01620155,,,,,,59.89,,N,29.62,28.74,,Clear
KIGQ,07/08/2018 05:55 UTC,30.27,59.9,59.18,97.47,0.0,0.0,,,,,,1.0,,,,7.0,,KIGQ 080555Z AUTO 00000KT 7SM CLR 16/15 A3027 RMK AO2 T01550151  10237 20155 402650126,74.66,59.9,,79.7,54.68,59.17,,N,29.61,28.78,,Clear
KIGQ,07/08/2018 06:15 UTC,30.27,60.8,59.18,94.4,0.0,0.0,,,,,,1.0,,,,10.0,,KIGQ 080615Z AUTO 00000KT 10SM CLR 16/15 A3027 RMK AO2  T01600151,,,,,,59.17,,N,29.61,28.77,,Clear
KIGQ,07/08/2018 06:35 UTC,30.27,59.9,59.36,98.1,0.0,0.0,,,,,,1.0,,,,7.0,,KIGQ 080635Z AUTO 00000KT 7SM CLR 16/15 A3027 RMK AO2  T01550152,,,,,,59.36,,N,29.61,28.77,,Clear
KIGQ,07/08/2018 06:55 UTC,30.27,60.08,60.08,100.0,0.0,0.0,,,,,,1.0,,,,7.0,,KIGQ 080655Z AUTO 00000KT 7SM CLR 16/16 A3027 RMK AO2  T01560156,,,,,,60.08,,N,29.61,28.73,,Clear
KIGQ,07/08/2018 07:15 UTC,30.27,59.0,59.0,100.0,0.0,0.0,,,,,,1.0,,,,7.0,,KIGQ 080715Z AUTO 00000KT 7SM CLR 15/15 A3027 RMK AO2  T01500150,,,,,,59.0,,N,29.61,28.8,,Clear
KIGQ,07/08/2018 07:35 UTC,30.27,58.1,57.56,98.08,0.0,0.0,,,,,,1.0,,,,7.0,,KIGQ 080735Z AUTO 00000KT 7SM CLR 15/14 A3027 RMK AO2  T01450142,,,,,,57.56,,N,29.61,28.88,,Clear
KIGQ,07/08/2018 07:55 UTC,30.26,58.46,58.46,100.0,0.0,0.0,,31.0,,,,1.0,,,,5.0,,KIGQ 080755Z AUTO 00000KT 5SM BR CLR 15/15 A3026 RMK AO2  T01470147,,,,,,58.46,,N,29.6,28.82,,Mist
KIGQ,07/08/2018 08:15 UTC,30.26,57.56,57.56,100.0,0.0,0.0,,31.0,,,,1.0,,,,5.0,,KIGQ 080815Z AUTO 00000KT 5SM BR CLR 14/14 A3026 RMK AO2  T01420142,,,,,,57.56,,N,29.6,28.88,,Mist
KIGQ,07/08/2018 08:35 UTC,30.26,58.46,58.46,100.0,0.0,0.0,,,,,,1.0,,,,7.0,,KIGQ 080835Z AUTO 00000KT 7SM CLR 15/15 A3026 RMK AO2  T01470147,,,,,,58.46,,N,29.6,28.82,,Clear
KIGQ,07/08/2018 08:55 UTC,30.26,59.9,59.54,98.73,0.0,0.0,,,,,,1.0,,,,7.0,,KIGQ 080855Z AUTO 00000KT 7SM CLR 16/15 A3026 RMK AO2  T01550153,,,,,,59.54,,N,29.6,28.75,,Clear
KIGQ,07/08/2018 09:15 UTC,30.26,59.36,59.36,100.0,0.0,0.0,,,,,,1.0,,,,7.0,,KIGQ 080915Z AUTO 00000KT 7SM CLR 15/15 A3026 RMK AO2  T01520152,,,,,,59.36,,N,29.6,28.77,,Clear
KIGQ,07/08/2018 09:35 UTC,30.27,59.0,59.0,100.0,0.0,0.0,,,,,,1.0,,,,7.0,,KIGQ 080935Z AUTO 00000KT 7SM CLR 15/15 A3027 RMK AO2  T01500150,,,,,,59.0,,N,29.61,28.8,,Clear
KIGQ,07/08/2018 09:55 UTC,30.27,58.82,58.82,100.0,0.0,0.0,,,,,,1.0,,,,7.0,,KIGQ 080955Z AUTO 00000KT 7SM CLR 15/15 A3027 RMK AO2  T01490149,,,,,,58.82,,N,29.61,28.81,,Clear
KIGQ,07/08/2018 10:15 UTC,30.27,58.28,58.28,100.0,0.0,0.0,,,,,,1.0,,,,10.0,,KIGQ 081015Z AUTO 00000KT 10SM CLR 15/15 A3027 RMK AO2  T01460146,,,,,,58.28,,N,29.61,28.85,,Clear
KIGQ,07/08/2018 10:35 UTC,30.28,58.46,58.46,100.0,0.0,0.0,,,,,,1.0,,,,7.0,,KIGQ 081035Z AUTO 00000KT 7SM CLR 15/15 A3028 RMK AO2  T01470147,,,,,,58.46,,N,29.62,28.84,,Clear
KIGQ,07/08/2018 10:55 UTC,30.29,59.0,59.0,100.0,0.0,0.0,,,,,,1.0,,,,10.0,,KIGQ 081055Z AUTO 00000KT 10SM CLR 15/15 A3029 RMK AO2  T01500150,,,,,,59.0,,N,29.63,28.82,,Clear
KIGQ,07/08/2018 11:15 UTC,30.29,59.36,58.82,98.09,0.0,0.0,,,,,,1.0,,,,10.0,,KIGQ 081115Z AUTO 00000KT 10SM CLR 15/15 A3029 RMK AO2  T01520149,,,,,,58.82,,N,29.63,28.83,,Clear
KIGQ,07/08/2018 11:35 UTC,30.3,61.16,59.54,94.41,0.0,0.0,,,,,,1.0,,,,10.0,,KIGQ 081135Z AUTO 00000KT 10SM CLR 16/15 A3030 RMK AO2  T01620153,,,,,,59.53,,N,29.64,28.78,,Clear
KIGQ,07/08/2018 11:55 UTC,30.31,62.6,60.26,92.06,0.0,0.0,,,,,,1.0,,,,10.0,,KIGQ 081155Z AUTO 00000KT 10SM CLR 17/16 A3031 RMK AO2 T01700157  10170 20141,62.6,57.38,,,,60.24,,N,29.65,28.73,,Clear
KIGQ,07/08/2018 12:15 UTC,30.32,64.22,60.44,87.54,0.0,0.0,,,,,,1.0,,,,10.0,,KIGQ 081215Z AUTO 00000KT 10SM CLR 18/16 A3032 RMK AO2  T01790158,,,,,,60.42,,N,29.66,28.71,,Clear
KIGQ,07/08/2018 12:35 UTC,30.32,66.2,60.44,81.72,0.0,0.0,,,,,,1.0,,,,10.0,,KIGQ 081235Z AUTO 00000KT 10SM CLR 19/16 A3032 RMK AO2  T01900158,,,,,,60.41,,N,29.66,28.69,,Clear
KIGQ,07/08/2018 12:55 UTC,30.32,67.28,60.62,79.23,0.0,0.0,,,,,,1.0,,,,10.0,,KIGQ 081255Z AUTO 00000KT 10SM CLR 20/16 A3032 RMK AO2  T01960159,,,,,,60.59,,N,29.66,28.67,,Clear
KIGQ,07/08/2018 13:15 UTC,30.31,68.9,60.98,75.91,0.0,0.0,,,,,,1.0,,,,10.0,,KIGQ 081315Z AUTO 00000KT 10SM CLR 21/16 A3031 RMK AO2  T02050161,,,,,,60.95,,N,29.65,28.62,,Clear
KIGQ,07/08/2018 13:35 UTC,30.32,70.52,60.62,70.92,3.44,180.0,,,,,,1.0,,,,10.0,,KIGQ 081335Z AUTO 18003KT 10SM CLR 21/16 A3032 RMK AO2  T02140159,,,,,,60.59,,S,29.66,28.63,,Clear
KIGQ,07/08/2018 13:55 UTC,30.32,71.78,60.8,68.39,3.44,150.0,,,,,,1.0,,,,10.0,,KIGQ 081355Z AUTO 15003KT 10SM CLR 22/16 A3032 RMK AO2  T02210160,,,,,,60.77,,SSE,29.66,28.61,,Clear
KIGQ,07/08/2018 14:15 UTC,30.32,73.4,60.98,65.18,3.44,150.0,,,,,,1.0,,,,10.0,,KIGQ 081415Z AUTO 15003KT 10SM CLR 23/16 A3032 RMK AO2  T02300161,,,,,,60.96,,SSE,29.66,28.58,,Clear
KIGQ,07/08/2018 14:35 UTC,30.32,74.48,59.9,60.5,4.61,120.0,,,,,,1.0,,,,10.0,,KIGQ 081435Z AUTO 12004KT 10SM CLR 24/16 A3032 RMK AO2  T02360155,,,,,,59.88,,ESE,29.66,28.63,,Clear
KIGQ,07/08/2018 14:55 UTC,30.31,75.38,59.9,58.71,4.61,150.0,,,,,,1.0,,,,10.0,,KIGQ 081455Z AUTO 15004KT 10SM CLR 24/16 A3031 RMK AO2  T02410155,,,,,,59.88,,SSE,29.65,28.61,,Clear
KIGQ,07/08/2018 15:15 UTC,30.31,76.1,58.82,55.16,5.75,200.0,,,,,,1.0,,,,10.0,,KIGQ 081515Z AUTO 20005KT 10SM CLR 25/15 A3031 RMK AO2  T02450149,,,,,,58.81,,SSW,29.65,28.66,,Clear
KIGQ,07/08/2018 15:40 UTC,30.31,76.28,57.74,52.75,6.91,220.0,,,,,,1.0,,,,10.0,,KIGQ 081540Z AUTO 22006KT 10SM CLR 25/14 A3031 RMK AO2  T02460143,,,,,,57.73,,SW,29.65,28.71,,Clear
KIGQ,07/08/2018 15:55 UTC,30.3,77.0,57.74,51.51,4.61,210.0,,,,,,1.0,,,,10.0,,KIGQ 081555Z AUTO 21004KT 10SM CLR 25/14 A3030 RMK AO2  T02500143,,,,,,57.73,,SSW,29.64,28.7,,Clear
KIGQ,07/08/2018 16:15 UTC,30.3,77.0,58.64,53.19,4.61,270.0,,,,,,1.0,,,,10.0,,KIGQ 081615Z AUTO 27004KT 10SM CLR 25/15 A3030 RMK AO2  T02500148,,,,,,58.63,,W,29.64,28.65,,Clear
KIGQ,07/08/2018 16:35 UTC,30.29,77.9,57.92,50.32,5.75,210.0,,,,,,1.0,,,,10.0,,KIGQ 081635Z AUTO 21005KT 10SM CLR 26/14 A3029 RMK AO2  T02550144,,,,,,57.92,,SSW,29.63,28.67,,Clear
KIGQ,07/08/2018 16:55 UTC,30.3,77.9,57.56,49.68,3.44,260.0,,,,,,1.0,,,,10.0,,KIGQ 081655Z AUTO 26003KT 10SM CLR 26/14 A3030 RMK AO2  T02550142,,,,,,57.56,,W,29.64,28.7,,Clear
KIGQ,07/08/2018 17:15 UTC,30.29,78.8,59.36,51.44,4.61,220.0,,,,,,1.0,,,,10.0,,KIGQ 081715Z AUTO 22004KT 10SM CLR 26/15 A3029 RMK AO2  T02600152,,,,,,59.37,,SW,29.63,28.58,,Clear
KIGQ,07/08/2018 17:35 UTC,30.28,79.7,59.18,49.63,5.75,210.0,,,,,,1.0,,,,10.0,,KIGQ 081735Z AUTO 21005KT 10SM CLR 27/15 A3028 RMK AO2  T02650151,,,,,,59.2,,SSW,29.62,28.57,,Clear
KIGQ,07/08/2018 17:55 UTC,30.28,79.88,59.18,49.34,3.44,210.0,,,,,,1.0,,,,10.0,,KIGQ 081755Z AUTO 21003KT 10SM CLR 27/15 A3028 RMK AO2 T02660151  10266 20171,79.88,62.78,,,,59.2,,SSW,29.62,28.57,,Clear
KIGQ,07/08/2018 18:15 UTC,30.27,80.06,57.92,46.88,0.0,0.0,,,,,,1.0,,,,10.0,,KIGQ 081815Z AUTO 00000KT 10SM CLR 27/14 A3027 RMK AO2  T02670144,,,,,,57.94,,N,29.61,28.63,79.97,Clear
KIGQ,07/08/2018 18:35 UTC,30.26,80.78,57.38,44.92,3.44,110.0,,,,,,1.0,,,,10.0,,KIGQ 081835Z AUTO 11003KT 10SM CLR 27/14 A3026 RMK AO2  T02710141,,,,,,57.41,,ESE,29.6,28.64,80.97,Clear
KIGQ,07/08/2018 18:55 UTC,30.26,81.68,59.0,46.23,5.75,160.0,,,,,,1.0,,,,10.0,,KIGQ 081855Z AUTO 16005KT 10SM CLR 28/15 A3026 RMK AO2  T02760150,,,,,,59.03,,SSE,29.6,28.54,81.92,Clear
KIGQ,07/08/2018 19:15 UTC,30.24,81.68,60.08,48.05,8.05,160.0,,,,,,1.0,,,,10.0,,KIGQ 081915Z AUTO 16007KT 10SM CLR 28/16 A3024 RMK AO2  T02760156,,,,,,60.12,,SSE,29.58,28.46,82.16,Clear
KIGQ,07/08/2018 19:35 UTC,30.24,81.86,58.82,45.67,4.61,160.0,,,,,,1.0,,,,10.0,,KIGQ 081935Z AUTO 16004KT 10SM CLR 28/15 A3024 RMK AO2  T02770149,,,,,,58.86,,SSE,29.58,28.53,82.02,Clear
KIGQ,07/08/2018 19:55 UTC,30.24,82.76,60.8,47.6,6.91,140.0,,,,,,1.0,,,,10.0,,KIGQ 081955Z AUTO 14006KT 10SM CLR 28/16 A3024 RMK AO2  T02820160,,,,,,60.85,,SE,29.58,28.41,83.22,Clear
KIGQ,07/08/2018 20:15 UTC,30.24,82.94,59.18,44.67,5.75,180.0,,,,,,1.0,,,,10.0,,KIGQ 082015Z AUTO 18005KT 10SM CLR 28/15 A3024 RMK AO2  T02830151,,,,,,59.23,,S,29.58,28.5,82.95,Clear
KIGQ,07/08/2018 20:35 UTC,30.24,82.22,58.64,44.85,0.0,0.0,,,,,,1.0,,,,10.0,,KIGQ 082035Z AUTO 00000KT 10SM CLR 28/15 A3024 RMK AO2  T02790148,,,,,,58.68,,N,29.58,28.54,82.26,Clear
KIGQ,07/08/2018 20:55 UTC,30.24,82.94,60.8,47.32,5.75,150.0,,,,,,1.0,,,,10.0,,KIGQ 082055Z AUTO 15005KT 10SM CLR 28/16 A3024 RMK AO2  T02830160,,,,,,60.85,,SSE,29.58,28.41,83.37,Clear
KIGQ,07/08/2018 21:15 UTC,30.24,82.4,59.72,46.34,5.75,220.0,,,,,,1.0,,,,10.0,,KIGQ 082115Z AUTO 22005KT 10SM CLR 28/15 A3024 RMK AO2  T02800154,,,,,,59.76,,SW,29.58,28.48,82.65,Clear
KIGQ,07/08/2018 21:35 UTC,30.24,82.4,60.44,47.54,5.75,230.0,,,,,,1.0,,,,10.0,,KIGQ 082135Z AUTO 23005KT 10SM CLR 28/16 A3024 RMK AO2  T02800158,,,,,,60.48,,SW,29.58,28.43,82.82,Clear
KIGQ,07/08/2018 21:55 UTC,30.23,82.04,59.36,46.29,8.05,210.0,,,,,,1.0,,,,10.0,,KIGQ 082155Z AUTO 21007KT 10SM CLR 28/15 A3023 RMK AO2  T02780152,,,,,,59.4,,SSW,29.57,28.49,82.28,Clear
KIGQ,07/08/2018 22:15 UTC,30.24,82.4,60.62,47.85,5.75,210.0,,,,,,1.0,,,,10.0,,KIGQ 082215Z AUTO 21005KT 10SM CLR 28/16 A3024 RMK AO2  T02800159,,,,,,60.66,,SSW,29.58,28.42,82.87,Clear
KIGQ,07/08/2018 22:35 UTC,30.22,82.22,60.62,48.13,5.75,200.0,,,,,,1.0,,,,10.0,,KIGQ 082235Z AUTO 20005KT 10SM CLR 28/16 A3022 RMK AO2  T02790159,,,,,,60.66,,SSW,29.56,28.4,82.72,Clear
KIGQ,07/08/2018 22:55 UTC,30.22,82.22,60.08,47.21,6.91,210.0,,,,,,1.0,,,,10.0,,KIGQ 082255Z AUTO 21006KT 10SM CLR 28/16 A3022 RMK AO2  T02790156,,,,,,60.12,,SSW,29.56,28.44,82.59,Clear
KIGQ,07/08/2018 23:15 UTC,30.21,81.86,61.52,50.27,8.05,180.0,,,,,,1.0,,,,10.0,,KIGQ 082315Z AUTO 18007KT 10SM CLR 28/16 A3021 RMK AO2  T02770164,,,,,,61.56,,S,29.55,28.34,82.66,Clear
KIGQ,07/08/2018 23:35 UTC,30.21,81.5,62.24,52.16,9.22,210.0,,,,,,1.0,,,,10.0,,KIGQ 082335Z AUTO 21008KT 10SM CLR 28/17 A3021 RMK AO2  T02750168,,,,,,62.27,,SSW,29.55,28.3,82.54,Clear
KIGQ,07/08/2018 23:55 UTC,30.22,80.78,61.34,51.73,8.05,220.0,,,,,,1.0,,,,10.0,,KIGQ 082355Z AUTO 22007KT 10SM CLR 27/16 A3022 RMK AO2 T02710163  10285 20265,83.3,79.7,,,,61.36,,SW,29.56,28.38,81.72,Clear
KIGQ,07/09/2018 00:15 UTC,30.22,79.7,61.88,54.61,4.61,200.0,,,,,,1.0,,,,10.0,,KIGQ 090015Z AUTO 20004KT 10SM CLR 27/17 A3022 RMK AO2  T02650166,,,,,,61.89,,SSW,29.56,28.36,,Clear
KIGQ,07/09/2018 00:35 UTC,30.21,78.26,62.96,59.47,5.75,200.0,,,,,,1.0,,,,10.0,,KIGQ 090035Z AUTO 20005KT 10SM CLR 26/17 A3021 RMK AO2  T02570172,,,,,,62.96,,SSW,29.55,28.29,,Clear
KIGQ,07/09/2018 00:55 UTC,30.21,76.28,64.04,65.93,5.75,200.0,,,,,,1.0,,,,10.0,,KIGQ 090055Z AUTO 20005KT 10SM CLR 25/18 A3021 RMK AO2  T02460178,,,,,,64.03,,SSW,29.55,28.25,,Clear
KIGQ,07/09/2018 01:15 UTC,30.21,73.58,64.04,72.14,4.61,200.0,,,,,,1.0,,,,10.0,,KIGQ 090115Z AUTO 20004KT 10SM CLR 23/18 A3021 RMK AO2  T02310178,,,,,,64.02,,SSW,29.55,28.28,,Clear
KIGQ,07/09/2018 01:35 UTC,30.2,71.24,63.68,77.09,5.75,190.0,,,,,,1.0,,,,10.0,,KIGQ 090135Z AUTO 19005KT 10SM CLR 22/18 A3020 RMK AO2  T02180176,,,,,,63.66,,S,29.54,28.32,,Clear
KIGQ,07/09/2018 01:55 UTC,30.21,71.96,63.86,75.71,3.44,220.0,,,,,,1.0,,,,10.0,,KIGQ 090155Z AUTO 22003KT 10SM CLR 22/18 A3021 RMK AO2  T02220177,,,,,,63.84,,SW,29.55,28.31,,Clear
KIGQ,07/09/2018 02:15 UTC,30.21,71.42,63.68,76.62,3.44,210.0,,,,,,1.0,,,,10.0,,KIGQ 090215Z AUTO 21003KT 10SM CLR 22/18 A3021 RMK AO2  T02190176,,,,,,63.66,,SSW,29.55,28.33,,Clear
KIGQ,07/09/2018 02:35 UTC,30.22,69.98,63.14,78.95,0.0,0.0,,,,,,1.0,,,,10.0,,KIGQ 090235Z AUTO 00000KT 10SM CLR 21/17 A3022 RMK AO2  T02110173,,,,,,63.12,,N,29.56,28.39,,Clear
KIGQ,07/09/2018 02:55 UTC,30.22,69.98,63.68,80.46,0.0,0.0,,,,,,1.0,,,,10.0,,KIGQ 090255Z AUTO 00000KT 10SM CLR 21/18 A3022 RMK AO2  T02110176,,,,,,63.66,,N,29.56,28.36,,Clear
KIGQ,07/09/2018 03:15 UTC,30.21,68.54,63.14,82.93,3.44,170.0,,,,,,1.0,,,,10.0,,KIGQ 090315Z AUTO 17003KT 10SM CLR 20/17 A3021 RMK AO2  T02030173,,,,,,63.12,,S,29.55,28.4,,Clear
KIGQ,07/09/2018 03:35 UTC,30.21,67.64,63.5,86.62,3.44,180.0,,,,,,1.0,,,,10.0,,KIGQ 090335Z AUTO 18003KT 10SM CLR 20/18 A3021 RMK AO2  T01980175,,,,,,63.48,,S,29.55,28.39,,Clear
KIGQ,07/09/2018 03:55 UTC,30.21,68.9,64.22,85.07,0.0,0.0,,,,,,1.0,,,,10.0,,KIGQ 090355Z AUTO 00000KT 10SM CLR 21/18 A3021 RMK AO2  T02050179,,,,,,64.2,,N,29.55,28.33,,Clear
KIGQ,07/09/2018 04:15 UTC,30.21,69.08,64.58,85.61,0.0,0.0,,,,,,1.0,,,,10.0,,KIGQ 090415Z AUTO 00000KT 10SM CLR 21/18 A3021 RMK AO2  T02060181,,,,,,64.56,,N,29.55,28.31,,Clear
KIGQ,07/09/2018 04:35 UTC,30.21,68.36,64.76,88.3,0.0,0.0,,,,,,1.0,,,,10.0,,KIGQ 090435Z AUTO 00000KT 10SM CLR 20/18 A3021 RMK AO2  T02020182,,,,,,64.74,,N,29.55,28.3,,Clear
KIGQ,07/09/2018 04:55 UTC,30.22,67.28,64.58,91.07,0.0,0.0,,,,,,1.0,,,,10.0,,KIGQ 090455Z AUTO 00000KT 10SM CLR 20/18 A3022 RMK AO2  T01960181,,,,,,64.57,,N,29.56,28.34,,Clear
KIGQ,07/09/2018 05:15 UTC,30.22,67.64,64.76,90.51,0.0,0.0,,,,,,1.0,,,,10.0,,KIGQ 090515Z AUTO 00000KT 10SM CLR 20/18 A3022 RMK AO2  T01980182,,,,,,64.75,,N,29.56,28.32,,Clear
KIGQ,07/09/2018 05:35 UTC,30.23,66.2,64.58,94.53,0.0,0.0,,,,,,1.0,,,,10.0,,KIGQ 090535Z AUTO 00000KT 10SM CLR 19/18 A3023 RMK AO2  T01900181,,,,,,64.57,,N,29.57,28.36,,Clear
KIGQ,07/09/2018 05:55 UTC,30.23,65.48,64.4,96.31,0.0,0.0,,,,,,1.0,,,,10.0,,KIGQ 090555Z AUTO 00000KT 10SM CLR 19/18 A3023 RMK AO2 T01860180  10271 20186 402850141,80.78,65.48,,83.3,57.38,64.39,,N,29.57,28.38,,Clear
KIGQ,07/09/2018 06:15 UTC,30.24,65.48,64.22,95.71,0.0,0.0,,,,,,1.0,,,,10.0,,KIGQ 090615Z AUTO 00000KT 10SM CLR 19/18 A3024 RMK AO2  T01860179,,,,,,64.21,,N,29.58,28.41,,Clear
KIGQ,07/09/2018 06:35 UTC,30.24,65.48,64.58,96.92,0.0,0.0,,,,,,1.0,,,,10.0,,KIGQ 090635Z AUTO 00000KT 10SM CLR 19/18 A3024 RMK AO2  T01860181,,,,,,64.58,,N,29.58,28.38,,Clear
KIGQ,07/09/2018 06:55 UTC,30.23,65.66,64.4,95.71,0.0,0.0,,,,,,1.0,,,,10.0,,KIGQ 090655Z AUTO 00000KT 10SM CLR 19/18 A3023 RMK AO2  T01870180,,,,,,64.39,,N,29.57,28.38,,Clear
KIGQ,07/09/2018 07:15 UTC,30.23,64.76,64.04,97.52,0.0,0.0,,,,,,1.0,,,,10.0,,KIGQ 090715Z AUTO 00000KT 10SM CLR 18/18 A3023 RMK AO2  T01820178,,,,,,64.04,,N,29.57,28.42,,Clear
KIGQ,07/09/2018 07:35 UTC,30.23,64.94,64.4,98.14,0.0,0.0,,,,,,1.0,,,,10.0,,KIGQ 090735Z AUTO 00000KT 10SM CLR 18/18 A3023 RMK AO2  T01830180,,,,,,64.4,,N,29.57,28.39,,Clear
KIGQ,07/09/2018 07:55 UTC,30.22,62.24,62.06,99.37,3.44,180.0,,,,,,1.0,,,,10.0,,KIGQ 090755Z AUTO 18003KT 10SM CLR 17/17 A3022 RMK AO2  T01680167,,,,,,62.06,,S,29.56,28.55,,Clear
KIGQ,07/09/2018 08:15 UTC,30.22,62.96,62.96,100.0,0.0,0.0,,,,,,1.0,,,,10.0,,KIGQ 090815Z AUTO 00000KT 10SM CLR 17/17 A3022 RMK AO2  T01720172,,,,,,62.96,,N,29.56,28.49,,Clear
KIGQ,07/09/2018 08:35 UTC,30.22,60.62,60.62,100.0,0.0,0.0,,,,,,1.0,,,,10.0,,KIGQ 090835Z AUTO 00000KT 10SM CLR 16/16 A3022 RMK AO2  T01590159,,,,,,60.62,,N,29.56,28.65,,Clear
KIGQ,07/09/2018 08:55 UTC,30.22,62.78,62.78,100.0,0.0,0.0,,,,,,1.0,,,,10.0,,KIGQ 090855Z AUTO 00000KT 10SM CLR 17/17 A3022 RMK AO2  T01710171,,,,,,62.78,,N,29.56,28.5,,Clear
KIGQ,07/09/2018 09:15 UTC,30.22,62.96,62.96,100.0,0.0,0.0,,,,,,1.0,,,,10.0,,KIGQ 090915Z AUTO 00000KT 10SM CLR 17/17 A3022 RMK AO2  T01720172,,,,,,62.96,,N,29.56,28.49,,Clear
KIGQ,07/09/2018 09:35 UTC,30.21,62.78,62.78,100.0,0.0,0.0,,,,,,1.0,,,,10.0,,KIGQ 090935Z AUTO 00000KT 10SM CLR 17/17 A3021 RMK AO2  T01710171,,,,,,62.78,,N,29.55,28.49,,Clear
KIGQ,07/09/2018 09:55 UTC,30.21,62.42,62.42,100.0,0.0,0.0,,,,,,1.0,,,,10.0,,KIGQ 090955Z AUTO 00000KT 10SM CLR 17/17 A3021 RMK AO2  T01690169,,,,,,62.42,,N,29.55,28.52,,Clear
KIGQ,07/09/2018 10:15 UTC,30.22,62.96,62.96,100.0,0.0,0.0,,,,,,1.0,,,,10.0,,KIGQ 091015Z AUTO 00000KT 10SM CLR 17/17 A3022 RMK AO2  T01720172,,,,,,62.96,,N,29.56,28.49,,Clear
KIGQ,07/09/2018 10:35 UTC,30.22,63.5,63.5,100.0,0.0,0.0,,,,,,1.0,,,,10.0,,KIGQ 091035Z AUTO 00000KT 10SM CLR 18/18 A3022 RMK AO2  T01750175,,,,,,63.5,,N,29.56,28.45,,Clear
KIGQ,07/09/2018 10:55 UTC,30.23,63.68,63.68,100.0,0.0,0.0,,,,,,1.0,,,,10.0,,KIGQ 091055Z AUTO 00000KT 10SM CLR 18/18 A3023 RMK AO2  T01760176,,,,,,63.68,,N,29.57,28.45,,Clear
KIGQ,07/09/2018 11:15 UTC,30.23,62.6,62.6,100.0,0.0,0.0,,,,,,1.0,,,,10.0,,KIGQ 091115Z AUTO 00000KT 10SM CLR 17/17 A3023 RMK AO2  T01700170,,,,,,62.6,,N,29.57,28.53,,Clear
KIGQ,07/09/2018 11:35 UTC,30.23,64.4,64.4,100.0,0.0,0.0,,,,,,1.0,,,,10.0,,KIGQ 091135Z AUTO 00000KT 10SM CLR 18/18 A3023 RMK AO2  T01800180,,,,,,64.4,,N,29.57,28.4,,Clear
KIGQ,07/09/2018 11:55 UTC,30.23,66.2,66.2,100.0,0.0,0.0,,,,,,1.0,,,,10.0,,KIGQ 091155Z AUTO 00000KT 10SM CLR 19/19 A3023 RMK AO2 T01900190  10190 20159,66.2,60.62,,,,66.2,,N,29.57,28.26,,Clear
KIGQ,07/09/2018 12:15 UTC,30.23,67.64,66.74,96.95,0.0,0.0,,,,,,1.0,,,,10.0,,KIGQ 091215Z AUTO 00000KT 10SM CLR 20/19 A3023 RMK AO2  T01980193,,,,,,66.74,,N,29.57,28.21,,Clear
KIGQ,07/09/2018 12:35 UTC,30.24,69.44,67.1,92.29,0.0,0.0,,,,,,1.0,,,,10.0,,KIGQ 091235Z AUTO 00000KT 10SM CLR 21/20 A3024 RMK AO2  T02080195,,,,,,67.09,,N,29.58,28.17,,Clear
KIGQ,07/09/2018 12:55 UTC,30.24,71.78,68.18,88.46,3.44,220.0,,,,,,1.0,,,,10.0,,KIGQ 091255Z AUTO 22003KT 10SM CLR 22/20 A3024 RMK AO2  T02210201,,,,,,68.17,,SW,29.58,28.06,,Clear
KIGQ,07/09/2018 13:15 UTC,30.24,73.58,68.0,82.75,4.61,220.0,,,,,,1.0,,,,10.0,,KIGQ 091315Z AUTO 22004KT 10SM CLR 23/20 A3024 RMK AO2  T02310200,,,,,,67.99,,SW,29.58,28.05,,Clear
KIGQ,07/09/2018 13:35 UTC,30.24,75.38,68.54,79.38,5.75,220.0,,,,,,1.0,,,,10.0,,KIGQ 091335Z AUTO 22005KT 10SM CLR 24/20 A3024 RMK AO2  T02410203,,,,,,68.53,,SW,29.58,27.99,,Clear
KIGQ,07/09/2018 13:55 UTC,30.24,77.0,68.9,76.16,6.91,230.0,,,,,,1.0,,,,10.0,,KIGQ 091355Z AUTO 23006KT 10SM CLR 25/21 A3024 RMK AO2  T02500205,,,,,,68.9,,SW,29.58,27.94,,Clear
KIGQ,07/09/2018 14:15 UTC,30.24,78.44,69.08,73.08,6.91,210.0,,,,,,1.0,,,,10.0,,KIGQ 091415Z AUTO 21006KT 10SM CLR 26/21 A3024 RMK AO2  T02580206,,,,,,69.08,,SSW,29.58,27.91,,Clear
KIGQ,07/09/2018 14:35 UTC,30.23,79.52,68.72,69.68,5.75,230.0,,,,,,1.0,,,,10.0,,KIGQ 091435Z AUTO 23005KT 10SM CLR 26/20 A3023 RMK AO2  T02640204,,,,,,68.73,,SW,29.57,27.91,,Clear
KIGQ,07/09/2018 14:55 UTC,30.23,80.96,68.9,66.89,8.05,260.0,,,,,,1.0,,,,10.0,,KIGQ 091455Z AUTO 26007KT 10SM CLR 27/21 A3023 RMK AO2  T02720205,,,,,,68.92,,W,29.57,27.88,84.05,Clear
KIGQ,07/09/2018 15:15 UTC,30.23,81.5,67.1,61.79,10.36,250.0,17.27,,,,,1.0,,,,10.0,,KIGQ 091515Z AUTO 25009G15KT 10SM CLR 28/20 A3023 RMK AO2  T02750195,,,,,,67.12,,WSW,29.57,28.0,84.03,Clear
KIGQ,07/09/2018 15:35 UTC,30.22,82.4,67.28,60.39,11.5,270.0,18.41,,,,,1.0,,,,10.0,,KIGQ 091535Z AUTO 27010G16KT 10SM CLR 28/20 A3022 RMK AO2  T02800196,,,,,,67.31,,W,29.56,27.97,85.09,Clear
KIGQ,07/09/2018 15:55 UTC,30.22,82.94,66.56,57.89,10.36,260.0,,,,,,1.0,,,,10.0,,KIGQ 091555Z AUTO 26009KT 10SM CLR 28/19 A3022 RMK AO2  T02830192,,,,,,66.6,,W,29.56,28.01,85.37,Clear
KIGQ,07/09/2018 16:15 UTC,30.22,83.84,66.38,55.89,12.66,260.0,17.27,,,,,1.0,,,,10.0,,KIGQ 091615Z AUTO 26011G15KT 10SM CLR 29/19 A3022 RMK AO2  T02880191,,,,,,66.43,,W,29.56,28.02,86.23,Clear
KIGQ,07/09/2018 16:35 UTC,30.22,84.2,64.94,52.55,14.97,270.0,19.57,,,,,1.0,,,,10.0,,KIGQ 091635Z AUTO 27013G17KT 10SM CLR 29/18 A3022 RMK AO2  T02900183,,,,,,64.99,,W,29.56,28.11,85.96,Clear
KIGQ,07/09/2018 16:55 UTC,30.22,85.28,67.1,54.71,9.22,280.0,,,,,,1.0,,,,10.0,,KIGQ 091655Z AUTO 28008KT 10SM CLR 30/20 A3022 RMK AO2  T02960195,,,,,,67.16,,W,29.56,27.95,88.13,Clear
KIGQ,07/09/2018 17:15 UTC,30.22,84.74,66.38,54.3,10.36,250.0,17.27,,,,,1.0,,,,10.0,,KIGQ 091715Z AUTO 25009G15KT 10SM CLR 29/19 A3022 RMK AO2  T02930191,,,,,,66.44,,WSW,29.56,28.01,87.18,Clear
KIGQ,07/09/2018 17:35 UTC,30.21,85.82,63.68,47.76,10.36,290.0,,,,,,1.0,,,,10.0,,KIGQ 091735Z AUTO 29009KT 10SM CLR 30/18 A3021 RMK AO2  T02990176,,,,,,63.76,,WNW,29.55,28.17,87.02,Clear
KIGQ,07/09/2018 17:55 UTC,30.2,86.0,65.66,50.87,9.22,240.0,,,,,,1.0,,,,10.0,,KIGQ 091755Z AUTO 24008KT 10SM CLR 30/19 A3020 RMK AO2 T03000187  10301 20190,86.18,66.2,,,,65.73,,WSW,29.54,28.02,88.14,Clear
KIGQ,07/09/2018 18:15 UTC,30.2,86.72,66.92,51.94,13.8,260.0,19.57,,,,,1.0,,,,10.0,,KIGQ 091815Z AUTO 26012G17KT 10SM CLR 30/19 A3020 RMK AO2  T03040194,,,,,,67.0,,W,29.54,27.93,89.6,Clear
KIGQ,07/09/2018 18:35 UTC,30.2,87.08,66.56,50.72,9.22,250.0,17.27,,,,,1.0,,,,10.0,,KIGQ 091835Z AUTO 25008G15KT 10SM CLR 31/19 A3020 RMK AO2  T03060192,,,,,,66.65,,WSW,29.54,27.95,89.78,Clear
KIGQ,07/09/2018 18:55 UTC,30.19,86.72,66.38,50.98,6.91,270.0,,,,,,1.0,,,,10.0,,KIGQ 091855Z AUTO 27006KT 10SM CLR 30/19 A3019 RMK AO2  T03040191,,,,,,66.46,,W,29.53,27.95,89.29,Clear
KIGQ,07/09/2018 19:15 UTC,30.19,86.9,65.12,48.52,8.05,250.0,,,,,,1.0,,,,10.0,,KIGQ 091915Z AUTO 25007KT 10SM CLR 31/18 A3019 RMK AO2  T03050184,,,,,,65.2,,WSW,29.53,28.04,88.8,Clear
KIGQ,07/09/2018 19:35 UTC,30.18,87.44,67.28,51.4,9.22,220.0,16.11,,,,,1.0,,,,10.0,,KIGQ 091935Z AUTO 22008G14KT 10SM CLR 31/20 A3018 RMK AO2  T03080196,,,,,,67.36,,SW,29.52,27.87,90.6,Clear
KIGQ,07/09/2018 19:55 UTC,30.17,87.8,66.74,49.88,10.36,250.0,16.11,,,,,1.0,,,,10.0,,KIGQ 091955Z AUTO 25009G14KT 10SM CLR 31/19 A3017 RMK AO2  T03100193,,,,,,66.83,,WSW,29.51,27.9,90.67,Clear
KIGQ,07/09/2018 20:15 UTC,30.16,87.62,65.84,48.63,12.66,230.0,16.11,,,,,1.0,,,,10.0,,KIGQ 092015Z AUTO 23011G14KT 10SM CLR 31/19 A3016 RMK AO2  T03090188,,,,,,65.93,,SW,29.5,27.95,89.95,Clear
KIGQ,07/09/2018 20:35 UTC,30.16,87.8,65.84,48.35,8.05,260.0,,,,,,1.0,,,,10.0,,KIGQ 092035Z AUTO 26007KT 10SM CLR 31/19 A3016 RMK AO2  T03100188,,,,,,65.93,,W,29.5,27.95,90.14,Clear
KIGQ,07/09/2018 20:55 UTC,30.15,87.44,68.0,52.69,11.5,250.0,,,,,,1.0,,,,10.0,,KIGQ 092055Z AUTO 25010KT 10SM CLR 31/20 A3015 RMK AO2  T03080200,,,,,,68.08,,WSW,29.49,27.79,91.07,Clear
KIGQ,07/09/2018 21:15 UTC,30.15,87.44,68.18,53.02,12.66,240.0,,,,,,1.0,,,,10.0,,KIGQ 092115Z AUTO 24011KT 10SM CLR 31/20 A3015 RMK AO2  T03080201,,,,,,68.26,,WSW,29.49,27.77,91.19,Clear
KIGQ,07/09/2018 21:35 UTC,30.15,87.8,68.72,53.4,12.66,250.0,16.11,,,,,1.0,,,,10.0,,KIGQ 092135Z AUTO 25011G14KT 10SM CLR 31/20 A3015 RMK AO2  T03100204,,,,,,68.81,,WSW,29.49,27.73,91.97,Clear
KIGQ,07/09/2018 21:55 UTC,30.14,87.62,68.54,53.37,10.36,250.0,,,,,,1.0,,,,10.0,,KIGQ 092155Z AUTO 25009KT 10SM CLR 31/20 A3014 RMK AO2  T03090203,,,,,,68.62,,WSW,29.48,27.74,91.63,Clear
KIGQ,07/09/2018 22:15 UTC,30.14,87.44,68.18,53.02,10.36,270.0,,,,,,1.0,,,,10.0,,KIGQ 092215Z AUTO 27009KT 10SM CLR 31/20 A3014 RMK AO2  T03080201,,,,,,68.26,,W,29.48,27.76,91.19,Clear
KIGQ,07/09/2018 22:35 UTC,30.13,87.62,68.9,54.03,9.22,250.0,12.66,,,,,1.0,,,,10.0,,KIGQ 092235Z AUTO 25008G11KT 10SM CLR 31/21 A3013 RMK AO2  T03090205,,,,,,68.98,,WSW,29.47,27.7,91.89,Clear
KIGQ,07/09/2018 22:55 UTC,30.13,87.26,68.0,52.99,10.36,230.0,,,,,,1.0,,,,10.0,,KIGQ 092255Z AUTO 23009KT 10SM CLR 31/20 A3013 RMK AO2  T03070200,,,,,,68.08,,SW,29.47,27.77,90.86,Clear
KIGQ,07/09/2018 23:15 UTC,30.12,86.9,68.72,54.94,11.5,230.0,,,,,,1.0,,,,10.0,,KIGQ 092315Z AUTO 23010KT 10SM CLR 31/20 A3012 RMK AO2  T03050204,,,,,,68.79,,SW,29.47,27.72,90.93,Clear
KIGQ,07/09/2018 23:35 UTC,30.12,84.74,68.0,57.42,12.66,250.0,,,,,,1.0,,,,10.0,,KIGQ 092335Z AUTO 25011KT 10SM CLR 29/20 A3012 RMK AO2  T02930200,,,,,,68.05,,WSW,29.47,27.8,88.04,Clear
KIGQ,07/09/2018 23:55 UTC,30.12,84.92,69.62,60.34,6.91,230.0,,,,,,1.0,,,,10.0,,KIGQ 092355Z AUTO 23006KT 10SM CLR 29/21 A3012 RMK AO2 T02940209  10311 20292,87.98,84.56,,,,69.67,,SW,29.47,27.67,89.21,Clear
KIGQ,07/10/2018 00:15 UTC,30.12,85.28,69.8,60.02,10.36,250.0,,,,,,1.0,,,,10.0,,KIGQ 100015Z AUTO 25009KT 10SM CLR 30/21 A3012 RMK AO2  T02960210,,,,,,69.85,,WSW,29.47,27.66,89.76,Clear
KIGQ,07/10/2018 00:35 UTC,30.12,84.56,70.16,62.17,8.05,240.0,,,,,,1.0,,,,10.0,,KIGQ 100035Z AUTO 24007KT 10SM CLR 29/21 A3012 RMK AO2  T02920212,,,,,,70.2,,WSW,29.47,27.64,89.13,Clear
KIGQ,07/10/2018 00:55 UTC,30.12,84.2,70.16,62.89,9.22,250.0,,,,,,1.0,,,,10.0,,KIGQ 100055Z AUTO 25008KT 10SM CLR 29/21 A3012 RMK AO2  T02900212,,,,,,70.2,,WSW,29.47,27.64,88.68,Clear
KIGQ,07/10/2018 01:15 UTC,30.12,83.48,70.34,64.76,6.91,250.0,,,,,,1.0,,,,10.0,,KIGQ 100115Z AUTO 25006KT 10SM CLR 29/21 A3012 RMK AO2  T02860213,,,,,,70.37,,WSW,29.47,27.64,87.9,Clear
KIGQ,07/10/2018 01:35 UTC,30.11,82.4,70.7,67.88,5.75,250.0,,,,,,1.0,,,,10.0,,KIGQ 100135Z AUTO 25005KT 10SM CLR 28/22 A3011 RMK AO2  T02800215,,,,,,70.73,,WSW,29.46,27.61,86.7,Clear
KIGQ,07/10/2018 01:55 UTC,30.11,80.96,70.88,71.56,5.75,240.0,,,,,,1.0,,,,10.0,,KIGQ 100155Z AUTO 24005KT 10SM CLR 27/22 A3011 RMK AO2  T02720216,,,,,,70.9,,WSW,29.46,27.62,84.82,Clear
KIGQ,07/10/2018 02:15 UTC,30.12,78.98,71.6,78.22,0.0,0.0,,,,,,1.0,,,,10.0,,KIGQ 100215Z AUTO 00000KT 10SM CLR 26/22 A3012 RMK AO2  T02610220,,,,,,71.61,,N,29.47,27.6,,Clear
KIGQ,07/10/2018 02:35 UTC,30.12,75.74,70.88,84.95,3.44,220.0,,,,,,1.0,,,,10.0,,KIGQ 100235Z AUTO 22003KT 10SM CLR 24/22 A3012 RMK AO2  T02430216,,,,,,70.88,,SW,29.47,27.7,,Clear
KIGQ,07/10/2018 02:55 UTC,30.12,74.3,71.06,89.67,3.44,210.0,,,,,,1.0,,,,10.0,,KIGQ 100255Z AUTO 21003KT 10SM CLR 24/22 A3012 RMK AO2  T02350217,,,,,,71.06,,SSW,29.47,27.71,,Clear
KIGQ,07/10/2018 03:15 UTC,30.12,74.48,71.96,91.89,4.61,210.0,,,,,,1.0,,,,10.0,,KIGQ 100315Z AUTO 21004KT 10SM CLR 24/22 A3012 RMK AO2  T02360222,,,,,,71.96,,SSW,29.47,27.63,,Clear
KIGQ,07/10/2018 03:35 UTC,30.12,73.4,71.42,93.55,4.61,210.0,,,,,,1.0,,,,10.0,,KIGQ 100335Z AUTO 21004KT 10SM CLR 23/22 A3012 RMK AO2  T02300219,,,,,,71.42,,SSW,29.47,27.69,,Clear
KIGQ,07/10/2018 03:55 UTC,30.11,72.68,71.42,95.84,3.44,210.0,,,,,,1.0,,,,10.0,,KIGQ 100355Z AUTO 21003KT 10SM CLR 23/22 A3011 RMK AO2  T02260219,,,,,,71.42,,SSW,29.46,27.69,,Clear
KIGQ,07/10/2018 04:15 UTC,30.12,73.04,71.96,96.43,0.0,0.0,,,,,,1.0,,,,10.0,,KIGQ 100415Z AUTO 00000KT 10SM CLR 23/22 A3012 RMK AO2  T02280222,,,,,,71.96,,N,29.47,27.65,,Clear
KIGQ,07/10/2018 04:35 UTC,30.12,74.48,71.78,91.33,3.44,230.0,,,,,,1.0,,,,10.0,,KIGQ 100435Z AUTO 23003KT 10SM CLR 24/22 A3012 RMK AO2  T02360221,,,,,,71.78,,SW,29.47,27.65,,Clear
KIGQ,07/10/2018 04:55 UTC,30.12,72.5,71.42,96.42,0.0,0.0,,,,,,1.0,,,,10.0,,KIGQ 100455Z AUTO 00000KT 10SM CLR 23/22 A3012 RMK AO2  T02250219,,,,,,71.42,,N,29.47,27.7,,Clear
KIGQ,07/10/2018 05:15 UTC,30.11,73.22,71.96,95.85,0.0,0.0,,,,,,1.0,,,,10.0,,KIGQ 100515Z AUTO 00000KT 10SM CLR 23/22 A3011 RMK AO2  T02290222,,,,,,71.96,,N,29.46,27.64,,Clear
KIGQ,07/10/2018 05:35 UTC,30.11,72.32,71.96,98.79,0.0,0.0,,,,,,1.0,,,,10.0,,KIGQ 100535Z AUTO 00000KT 10SM CLR 22/22 A3011 RMK AO2  T02240222,,,,,,71.96,,N,29.46,27.66,,Clear
KIGQ,07/10/2018 05:55 UTC,30.11,71.96,71.78,99.39,3.44,200.0,,,,,,1.0,,,,10.0,,KIGQ 100555Z AUTO 20003KT 10SM CLR 22/22 A3011 RMK AO2 T02220221  10297 20222 403110159,85.46,71.96,,87.98,60.62,71.78,,SSW,29.46,27.68,,Clear
KIGQ,07/10/2018 06:15 UTC,30.11,71.78,71.78,100.0,0.0,0.0,,,,,,1.0,,,,10.0,,KIGQ 100615Z AUTO 00000KT 10SM CLR 22/22 A3011 RMK AO2  T02210221,,,,,,71.78,,N,29.46,27.68,,Clear
KIGQ,07/10/2018 06:35 UTC,30.1,71.6,71.6,100.0,0.0,0.0,,,,,,1.0,,,,10.0,,KIGQ 100635Z AUTO 00000KT 10SM CLR 22/22 A3010 RMK AO2  T02200220,,,,,,71.6,,N,29.45,27.68,,Clear
KIGQ,07/10/2018 06:55 UTC,30.1,72.32,72.32,100.0,4.61,220.0,,,,,,1.0,,,,10.0,,KIGQ 100655Z AUTO 22004KT 10SM CLR 22/22 A3010 RMK AO2  T02240224,,,,,,72.32,,SW,29.45,27.62,,Clear
KIGQ,07/10/2018 07:15 UTC,30.1,72.86,72.86,100.0,4.61,220.0,,,,,,903.0,,,,10.0,,KIGQ 100715Z AUTO 22004KT 10SM BKN090 23/23 A3010 RMK AO2  T02270227,,,9000.0,,,72.86,,SW,29.45,27.57,,Mostly Cloudy
KIGQ,07/10/2018 07:35 UTC,30.1,73.4,73.4,100.0,3.44,220.0,,,,,,904.0,,,,10.0,,KIGQ 100735Z AUTO 22003KT 10SM OVC090 23/23 A3010 RMK AO2  T02300230,,,9000.0,,,73.4,,SW,29.45,27.51,,Overcast
KIGQ,07/10/2018 07:55 UTC,30.1,73.4,73.4,100.0,4.61,230.0,,,,,,904.0,,,,10.0,,KIGQ 100755Z AUTO 23004KT 10SM OVC090 23/23 A3010 RMK AO2  T02300230,,,9000.0,,,73.4,,SW,29.45,27.51,,Overcast
KIGQ,07/10/2018 08:15 UTC,30.09,74.66,73.76,97.04,4.61,230.0,,,,,,903.0,,,,10.0,,KIGQ 100815Z AUTO 23004KT 10SM BKN090 24/23 A3009 RMK AO2  T02370232,,,9000.0,,,73.76,,SW,29.44,27.46,,Mostly Cloudy
KIGQ,07/10/2018 08:35 UTC,30.09,74.3,73.58,97.62,3.44,230.0,,,,,,903.0,,,,10.0,,KIGQ 100835Z AUTO 23003KT 10SM BKN090 24/23 A3009 RMK AO2  T02350231,,,9000.0,,,73.58,,SW,29.44,27.48,,Mostly Cloudy
KIGQ,07/10/2018 08:55 UTC,30.09,75.2,74.12,96.46,5.75,250.0,,,,,,902.0,,,,10.0,,KIGQ 100855Z AUTO 25005KT 10SM SCT090 24/23 A3009 RMK AO2  T02400234,,,,,,74.12,,WSW,29.44,27.42,,Partly Cloudy
KIGQ,07/10/2018 09:15 UTC,30.09,75.74,74.3,95.31,3.44,250.0,,,,,,462.0,,,,10.0,,KIGQ 100915Z AUTO 25003KT 10SM SCT046 24/24 A3009 RMK AO2  T02430235,,,,,,74.3,,WSW,29.44,27.39,,Partly Cloudy
KIGQ,07/10/2018 09:35 UTC,30.09,75.92,74.3,94.75,4.61,270.0,,,,,,463.0,,,,10.0,,KIGQ 100935Z AUTO 27004KT 10SM BKN046 24/24 A3009 RMK AO2  T02440235,,,4600.0,,,74.3,,W,29.44,27.39,,Mostly Cloudy
KIGQ,07/10/2018 09:55 UTC,30.09,75.56,74.3,95.89,3.44,260.0,,,,,,442.0,,,,10.0,,KIGQ 100955Z AUTO 26003KT 10SM SCT044 24/24 A3009 RMK AO2  T02420235,,,,,,74.3,,W,29.44,27.4,,Partly Cloudy
KIGQ,07/10/2018 10:15 UTC,30.09,75.2,74.3,97.04,3.44,270.0,,,,,,602.0,1002.0,,,10.0,,KIGQ 101015Z AUTO 27003KT 10SM SCT060 SCT100 24/24 A3009 RMK AO2  T02400235,,,,,,74.3,,W,29.44,27.4,,Partly Cloudy
KIGQ,07/10/2018 10:35 UTC,30.09,75.02,74.3,97.63,4.61,250.0,,,703.0,,,422.0,502.0,,,10.0,,KIGQ 101035Z AUTO 25004KT 10SM SCT042 SCT050 BKN070 24/24 A3009 RMK AO2 T02390235,,,7000.0,,,74.3,,WSW,29.44,27.4,,Mostly Cloudy
KIGQ,07/10/2018 10:55 UTC,30.09,74.48,73.94,98.21,3.44,250.0,,,,,,752.0,1002.0,,,10.0,,KIGQ 101055Z AUTO 25003KT 10SM SCT075 SCT100 24/23 A3009 RMK AO2  T02360233,,,,,,73.94,,WSW,29.44,27.44,,Partly Cloudy
KIGQ,07/10/2018 11:15 UTC,30.09,74.66,74.3,98.8,4.61,280.0,,,,,,1.0,,,,10.0,,KIGQ 101115Z AUTO 28004KT 10SM CLR 24/24 A3009 RMK AO2  T02370235,,,,,,74.3,,W,29.44,27.41,,Clear
KIGQ,07/10/2018 11:35 UTC,30.09,75.56,74.48,96.46,4.61,270.0,,,,,,502.0,,,,10.0,,KIGQ 101135Z AUTO 27004KT 10SM SCT050 24/24 A3009 RMK AO2  T02420236,,,,,,74.48,,W,29.44,27.38,,Partly Cloudy
KIGQ,07/10/2018 11:55 UTC,30.09,76.1,74.3,94.18,4.61,260.0,,,,,,1.0,,,,10.0,,KIGQ 101155Z AUTO 26004KT 10SM CLR 25/24 A3009 RMK AO2 T02450235  10245 20217,76.1,71.06,,,,74.3,,W,29.44,27.39,,Clear
KIGQ,07/10/2018 12:15 UTC,30.09,77.18,74.3,90.88,3.44,300.0,,,,,,552.0,,,,10.0,,KIGQ 101215Z AUTO 30003KT 10SM SCT055 25/24 A3009 RMK AO2  T02510235,,,,,,74.3,,WNW,29.44,27.37,,Partly Cloudy
KIGQ,07/10/2018 12:35 UTC,30.09,77.9,74.12,88.21,0.0,0.0,,,,,,552.0,,,,10.0,,KIGQ 101235Z AUTO 00000KT 10SM SCT055 26/23 A3009 RMK AO2  T02550234,,,,,,74.12,,N,29.44,27.37,,Partly Cloudy
KIGQ,07/10/2018 12:55 UTC,30.09,79.34,74.12,84.14,3.44,280.0,,,,,,1.0,,,,10.0,,KIGQ 101255Z AUTO 28003KT 10SM CLR 26/23 A3009 RMK AO2  T02630234,,,,,,74.13,,W,29.44,27.35,,Clear
KIGQ,07/10/2018 13:15 UTC,30.09,80.6,73.58,79.3,3.44,350.0,,,,,,1.0,,,,10.0,,KIGQ 101315Z AUTO 35003KT 10SM CLR 27/23 A3009 RMK AO2  T02700231,,,,,,73.59,,N,29.44,27.38,85.41,Clear
KIGQ,07/10/2018 13:35 UTC,30.09,81.14,73.4,77.45,3.44,10.0,,,,,,1.0,,,,10.0,,KIGQ 101335Z AUTO 01003KT 10SM CLR 27/23 A3009 RMK AO2  T02730230,,,,,,73.41,,N,29.44,27.39,86.25,Clear
KIGQ,07/10/2018 13:55 UTC,30.09,81.68,73.58,76.57,0.0,0.0,,,,,,1.0,,,,10.0,,KIGQ 101355Z AUTO 00000KT 10SM CLR 28/23 A3009 RMK AO2  T02760231,,,,,,73.6,,N,29.44,27.36,87.24,Clear
KIGQ,07/10/2018 14:15 UTC,30.09,82.04,73.76,76.14,4.61,20.0,,,,,,1.0,,,,10.0,,KIGQ 101415Z AUTO 02004KT 10SM CLR 28/23 A3009 RMK AO2  T02780232,,,,,,73.78,,NNE,29.44,27.34,87.93,Clear
KIGQ,07/10/2018 14:35 UTC,30.09,81.5,73.58,77.02,5.75,20.0,,,,,,1.0,,,,10.0,,KIGQ 101435Z AUTO 02005KT 10SM CLR 28/23 A3009 RMK AO2  T02750231,,,,,,73.6,,NNE,29.44,27.37,86.94,Clear
KIGQ,07/10/2018 14:55 UTC,30.09,80.96,73.4,77.91,6.91,20.0,,,,,,1.0,,,,10.0,,KIGQ 101455Z AUTO 02006KT 10SM CLR 27/23 A3009 RMK AO2  T02720230,,,,,,73.41,,NNE,29.44,27.39,85.95,Clear
KIGQ,07/10/2018 15:15 UTC,30.1,80.78,73.76,79.32,6.91,30.0,,,,,,343.0,,,,10.0,,KIGQ 101515Z AUTO 03006KT 10SM BKN034 27/23 A3010 RMK AO2  T02710232,,,3400.0,,,73.77,,NNE,29.45,27.37,85.81,Mostly Cloudy
KIGQ,07/10/2018 15:35 UTC,30.11,80.96,73.58,78.38,8.05,40.0,,,,,,342.0,,,,10.0,,KIGQ 101535Z AUTO 04007KT 10SM SCT034 27/23 A3011 RMK AO2  T02720231,,,,,,73.59,,NE,29.46,27.4,86.04,Partly Cloudy
KIGQ,07/10/2018 15:55 UTC,30.11,81.68,73.76,77.03,9.22,30.0,,,,,,1.0,,,,10.0,,KIGQ 101555Z AUTO 03008KT 10SM CLR 28/23 A3011 RMK AO2  T02760232,,,,,,73.77,,NNE,29.46,27.37,87.34,Clear
KIGQ,07/10/2018 16:15 UTC,30.11,82.58,74.48,76.65,8.05,30.0,,,,,,1.0,,,,10.0,,KIGQ 101615Z AUTO 03007KT 10SM CLR 28/24 A3011 RMK AO2  T02810236,,,,,,74.5,,NNE,29.46,27.29,89.29,Clear
KIGQ,07/10/2018 16:35 UTC,30.11,82.4,73.76,75.26,9.22,10.0,,,,,,1.0,,,,10.0,,KIGQ 101635Z AUTO 01008KT 10SM CLR 28/23 A3011 RMK AO2  T02800232,,,,,,73.78,,N,29.46,27.36,88.51,Clear
KIGQ,07/10/2018 16:55 UTC,30.11,81.5,73.22,76.09,9.22,20.0,,,,,,1.0,,,,10.0,,KIGQ 101655Z AUTO 02008KT 10SM CLR 28/23 A3011 RMK AO2  T02750229,,,,,,73.23,,NNE,29.46,27.42,86.74,Clear
KIGQ,07/10/2018 17:15 UTC,30.11,81.32,73.4,77.0,6.91,360.0,16.11,,,,,1.0,,,,10.0,,KIGQ 101715Z AUTO 36006G14KT 10SM CLR 27/23 A3011 RMK AO2  T02740230,,,,,,73.41,,N,29.46,27.41,86.55,Clear
KIGQ,07/10/2018 17:35 UTC,30.11,81.86,73.22,75.21,11.5,30.0,,,,,,1.0,,,,10.0,,KIGQ 101735Z AUTO 03010KT 10SM CLR 28/23 A3011 RMK AO2  T02770229,,,,,,73.24,,NNE,29.46,27.41,87.32,Clear
KIGQ,07/10/2018 17:55 UTC,30.11,80.06,71.96,76.43,11.5,360.0,,,,,,1.0,,,,,,KIGQ 101755Z AUTO 36010KT CLR 27/22 A3011 RMK AO2 T02670222 10282  20246 PWINO,82.76,76.28,,,,71.97,,N,29.46,27.54,83.87,Clear
KIGQ,07/10/2018 18:15 UTC,30.11,80.6,72.32,76.01,12.66,360.0,,,,,,1.0,,,,10.0,,KIGQ 101815Z AUTO 36011KT 10SM CLR 27/22 A3011 RMK AO2  T02700224,,,,,,72.33,,N,29.46,27.51,84.87,Clear
KIGQ,07/10/2018 18:35 UTC,30.1,79.88,71.42,75.49,10.36,350.0,17.27,,,,,1.0,,,,10.0,,KIGQ 101835Z AUTO 35009G15KT 10SM CLR 27/22 A3010 RMK AO2  T02660219,,,,,,71.43,,N,29.45,27.58,,Clear
KIGQ,07/10/2018 18:55 UTC,30.1,79.88,70.7,73.67,11.5,10.0,18.41,,,,,1.0,,,,10.0,,KIGQ 101855Z AUTO 01010G16KT 10SM CLR 27/22 A3010 RMK AO2  T02660215,,,,,,70.71,,N,29.45,27.63,,Clear
KIGQ,07/10/2018 19:15 UTC,30.09,80.96,70.88,71.56,9.22,360.0,16.11,,,,,1.0,,,,10.0,,KIGQ 101915Z AUTO 36008G14KT 10SM CLR 27/22 A3009 RMK AO2  T02720216,,,,,,70.9,,N,29.44,27.6,84.82,Clear
KIGQ,07/10/2018 19:35 UTC,30.1,80.96,70.16,69.83,14.97,20.0,19.57,,,,,1.0,,,,10.0,,KIGQ 101935Z AUTO 02013G17KT 10SM CLR 27/21 A3010 RMK AO2  T02720212,,,,,,70.18,,NNE,29.45,27.66,84.53,Clear
KIGQ,07/10/2018 19:55 UTC,30.1,80.6,68.9,67.68,10.36,360.0,18.41,,,,,1.0,,,,10.0,,KIGQ 101955Z AUTO 36009G16KT 10SM CLR 27/21 A3010 RMK AO2  T02700205,,,,,,68.92,,N,29.45,27.76,83.6,Clear
KIGQ,07/10/2018 20:15 UTC,30.09,80.78,66.56,62.08,12.66,20.0,19.57,,,,,1.0,,,,,,KIGQ 102015Z AUTO 02011G17KT CLR 27/19 A3009 RMK AO2 T02710192,,,,,,66.58,,NNE,29.44,27.92,83.06,Clear
KIGQ,07/10/2018 20:35 UTC,30.1,80.96,61.52,51.76,10.36,20.0,,,,,,1.0,,,,,,KIGQ 102035Z AUTO 02009KT 350V050 CLR 27/16 A3010 RMK AO2  T02720164,,,,,,61.55,,NNE,29.45,28.25,81.91,Clear
KIGQ,07/10/2018 20:55 UTC,30.1,81.5,59.54,47.41,11.5,20.0,21.85,,,,,1.0,,,,10.0,,KIGQ 102055Z AUTO 02010G19KT 10SM CLR 28/15 A3010 RMK AO2  T02750153,,,,,,59.57,,NNE,29.45,28.36,81.9,Clear
KIGQ,07/10/2018 21:15 UTC,30.1,81.68,57.02,43.06,11.5,30.0,19.57,,,,,1.0,,,,,,KIGQ 102115Z AUTO 03010G17KT CLR 28/14 A3010 RMK AO2 T02760139  PWINO,,,,,,57.06,,NNE,29.45,28.5,81.53,Clear
KIGQ,07/10/2018 21:35 UTC,30.1,81.86,56.48,41.99,12.66,20.0,19.57,,,,,1.0,,,,10.0,,KIGQ 102135Z AUTO 02011G17KT 10SM CLR 28/14 A3010 RMK AO2  T02770136,,,,,,56.52,,NNE,29.45,28.53,81.56,Clear
KIGQ,07/10/2018 21:55 UTC,30.1,80.6,55.58,42.34,12.66,20.0,17.27,,,,,1.0,,,,10.0,,KIGQ 102155Z AUTO 02011G15KT 10SM CLR 27/13 A3010 RMK AO2  T02700131,,,,,,55.61,,NNE,29.45,28.58,80.57,Clear
KIGQ,07/10/2018 22:15 UTC,30.1,80.06,57.56,46.28,8.05,20.0,16.11,,,,,1.0,,,,10.0,,KIGQ 102215Z AUTO 02007G14KT 10SM CLR 27/14 A3010 RMK AO2  T02670142,,,,,,57.58,,NNE,29.45,28.48,79.94,Clear
KIGQ,07/10/2018 22:35 UTC,30.1,80.42,57.92,46.34,12.66,20.0,18.41,,,,,1.0,,,,10.0,,KIGQ 102235Z AUTO 02011G16KT 10SM CLR 27/14 A3010 RMK AO2  T02690144,,,,,,57.94,,NNE,29.45,28.46,80.81,Clear
KIGQ,07/10/2018 22:55 UTC,30.09,79.7,57.2,46.23,11.5,50.0,16.11,,,,,1.0,,,,10.0,,KIGQ 102255Z AUTO 05010G14KT 10SM CLR 27/14 A3009 RMK AO2  T02650140,,,,,,57.22,,NE,29.44,28.5,,Clear
KIGQ,07/10/2018 23:15 UTC,30.08,78.62,55.22,44.58,11.5,30.0,,,,,,1.0,,,,10.0,,KIGQ 102315Z AUTO 03010KT 10SM CLR 26/13 A3008 RMK AO2 T02590129  PWINO,,,,,,55.23,,NNE,29.43,28.6,,Clear
KIGQ,07/10/2018 23:35 UTC,30.08,78.44,56.12,46.33,9.22,40.0,,,,,,1.0,,,,10.0,,KIGQ 102335Z AUTO 04008KT 10SM CLR 26/13 A3008 RMK AO2  T02580134,,,,,,56.12,,NE,29.43,28.55,,Clear
KIGQ,07/10/2018 23:55 UTC,30.08,77.36,56.3,48.32,10.36,30.0,,,,,,1.0,,,,,,KIGQ 102355Z AUTO 03009KT CLR 25/14 A3008 RMK AO2 T02520135 10277  20252 PWINO,81.86,77.36,,,,56.29,,NNE,29.43,28.55,,Clear
KIGQ,07/11/2018 00:15 UTC,30.08,76.46,56.84,50.76,9.22,20.0,,,,,,1.0,,,,10.0,,KIGQ 110015Z AUTO 02008KT 10SM CLR 25/14 A3008 RMK AO2  T02470138,,,,,,56.83,,NNE,29.43,28.54,,Clear
KIGQ,07/11/2018 00:35 UTC,30.08,75.56,57.92,54.37,5.75,40.0,,,,,,1.0,,,,10.0,,KIGQ 110035Z AUTO 04005KT 10SM CLR 24/14 A3008 RMK AO2  T02420144,,,,,,57.9,,NE,29.43,28.49,,Clear
KIGQ,07/11/2018 00:55 UTC,30.08,75.2,59.54,58.31,8.05,30.0,,,,,,1.0,,,,10.0,,KIGQ 110055Z AUTO 03007KT 10SM CLR 24/15 A3008 RMK AO2  T02400153,,,,,,59.52,,NNE,29.43,28.4,,Clear
KIGQ,07/11/2018 01:15 UTC,30.08,74.3,59.18,59.32,8.05,20.0,,,,,,1.0,,,,10.0,,KIGQ 110115Z AUTO 02007KT 10SM CLR 24/15 A3008 RMK AO2  T02350151,,,,,,59.15,,NNE,29.43,28.43,,Clear
KIGQ,07/11/2018 01:35 UTC,30.08,73.58,58.46,59.22,5.75,20.0,,,,,,1.0,,,,10.0,,KIGQ 110135Z AUTO 02005KT 10SM CLR 23/15 A3008 RMK AO2  T02310147,,,,,,58.43,,NNE,29.43,28.48,,Clear
KIGQ,07/11/2018 01:55 UTC,30.08,72.86,58.46,60.67,5.75,20.0,,,,,,1.0,,,,10.0,,KIGQ 110155Z AUTO 02005KT 10SM CLR 23/15 A3008 RMK AO2  T02270147,,,,,,58.43,,NNE,29.43,28.49,,Clear
KIGQ,07/11/2018 02:15 UTC,30.09,72.68,59.36,63.04,6.91,20.0,,,,,,1.0,,,,10.0,,KIGQ 110215Z AUTO 02006KT 10SM CLR 23/15 A3009 RMK AO2  T02260152,,,,,,59.33,,NNE,29.44,28.45,,Clear
KIGQ,07/11/2018 02:35 UTC,30.1,72.5,59.9,64.65,4.61,360.0,,,,,,1.0,,,,10.0,,KIGQ 110235Z AUTO 36004KT 10SM CLR 23/16 A3010 RMK AO2  T02250155,,,,,,59.87,,N,29.45,28.43,,Clear
KIGQ,07/11/2018 02:55 UTC,30.1,72.14,61.7,69.75,8.05,20.0,,,,,,1.0,,,,10.0,,KIGQ 110255Z AUTO 02007KT 10SM CLR 22/17 A3010 RMK AO2  T02230165,,,,,,61.67,,NNE,29.45,28.34,,Clear
KIGQ,07/11/2018 03:15 UTC,30.1,71.6,61.88,71.49,4.61,20.0,,,,,,1.0,,,,10.0,,KIGQ 110315Z AUTO 02004KT 10SM CLR 22/17 A3010 RMK AO2  T02200166,,,,,,61.85,,NNE,29.45,28.33,,Clear
KIGQ,07/11/2018 03:35 UTC,30.1,71.42,61.88,71.92,4.61,360.0,,,,,,1.0,,,,10.0,,KIGQ 110335Z AUTO 36004KT 10SM CLR 22/17 A3010 RMK AO2  T02190166,,,,,,61.85,,N,29.45,28.34,,Clear
KIGQ,07/11/2018 03:55 UTC,30.11,70.88,62.06,73.72,0.0,0.0,,,,,,1.0,,,,10.0,,KIGQ 110355Z AUTO 00000KT 10SM CLR 22/17 A3011 RMK AO2  T02160167,,,,,,62.03,,N,29.46,28.34,,Clear
KIGQ,07/11/2018 04:15 UTC,30.1,70.7,61.7,73.23,4.61,10.0,,,,,,1.0,,,,10.0,,KIGQ 110415Z AUTO 01004KT 10SM CLR 22/17 A3010 RMK AO2  T02150165,,,,,,61.67,,N,29.45,28.35,,Clear
KIGQ,07/11/2018 04:35 UTC,30.1,70.7,61.7,73.23,3.44,360.0,,,,,,1.0,,,,10.0,,KIGQ 110435Z AUTO 36003KT 10SM CLR 22/17 A3010 RMK AO2  T02150165,,,,,,61.67,,N,29.45,28.35,,Clear
KIGQ,07/11/2018 04:55 UTC,30.1,70.34,61.7,74.14,3.44,10.0,,,,,,1.0,,,,10.0,,KIGQ 110455Z AUTO 01003KT 10SM CLR 21/17 A3010 RMK AO2  T02130165,,,,,,61.67,,N,29.45,28.36,,Clear
KIGQ,07/11/2018 05:15 UTC,30.11,70.7,62.06,74.17,0.0,0.0,,,,,,1.0,,,,10.0,,KIGQ 110515Z AUTO 00000KT 10SM CLR 22/17 A3011 RMK AO2  T02150167,,,,,,62.03,,N,29.46,28.34,,Clear
KIGQ,07/11/2018 05:35 UTC,30.1,69.8,62.06,76.48,3.44,10.0,,,,,,1.0,,,,10.0,,KIGQ 110535Z AUTO 01003KT 10SM CLR 21/17 A3010 RMK AO2  T02100167,,,,,,62.03,,N,29.45,28.34,,Clear
KIGQ,07/11/2018 05:55 UTC,30.09,69.44,62.24,77.91,3.44,10.0,,,,,,1.0,,,,10.0,,KIGQ 110555Z AUTO 01003KT 10SM CLR 21/17 A3009 RMK AO2 T02080168  10252 20208 402820208,77.36,69.44,,82.76,69.44,62.21,,N,29.44,28.33,,Clear
KIGQ,07/11/2018 06:10 UTC,30.09,69.08,62.6,79.88,0.0,0.0,,,,,,1.0,,,,10.0,,KIGQ 110610Z AUTO 00000KT 10SM CLR 21/17 A3009 RMK AO2  T02060170,,,,,,62.57,,N,29.44,28.31,,Clear
KIGQ,07/11/2018 06:35 UTC,30.1,68.72,62.6,80.87,0.0,0.0,,,,,,1.0,,,,10.0,,KIGQ 110635Z AUTO 00000KT 10SM CLR 20/17 A3010 RMK AO2  T02040170,,,,,,62.57,,N,29.45,28.33,,Clear
KIGQ,07/11/2018 06:55 UTC,30.1,68.9,62.6,80.37,0.0,0.0,,,,,,1.0,,,,10.0,,KIGQ 110655Z AUTO 00000KT 10SM CLR 21/17 A3010 RMK AO2  T02050170,,,,,,62.57,,N,29.45,28.32,,Clear
KIGQ,07/11/2018 07:15 UTC,30.1,68.9,62.6,80.37,3.44,360.0,,,,,,1.0,,,,10.0,,KIGQ 110715Z AUTO 36003KT 10SM CLR 21/17 A3010 RMK AO2  T02050170,,,,,,62.57,,N,29.45,28.32,,Clear
KIGQ,07/11/2018 07:35 UTC,30.11,68.9,62.6,80.37,3.44,350.0,,,,,,1.0,,,,10.0,,KIGQ 110735Z AUTO 35003KT 10SM CLR 21/17 A3011 RMK AO2  T02050170,,,,,,62.57,,N,29.46,28.33,,Clear
KIGQ,07/11/2018 07:55 UTC,30.11,69.08,62.6,79.88,4.61,10.0,,,,,,1.0,,,,10.0,,KIGQ 110755Z AUTO 01004KT 10SM CLR 21/17 A3011 RMK AO2  T02060170,,,,,,62.57,,N,29.46,28.33,,Clear
KIGQ,07/11/2018 08:15 UTC,30.11,69.08,62.78,80.39,3.44,10.0,,,,,,1.0,,,,10.0,,KIGQ 110815Z AUTO 01003KT 10SM CLR 21/17 A3011 RMK AO2  T02060171,,,,,,62.76,,N,29.46,28.32,,Clear
KIGQ,07/11/2018 08:35 UTC,30.11,68.9,62.78,80.88,3.44,30.0,,,,,,1.0,,,,10.0,,KIGQ 110835Z AUTO 03003KT 10SM CLR 21/17 A3011 RMK AO2  T02050171,,,,,,62.75,,NNE,29.46,28.32,,Clear
KIGQ,07/11/2018 08:55 UTC,30.12,68.72,63.14,82.42,0.0,0.0,,,,,,1.0,,,,10.0,,KIGQ 110855Z AUTO 00000KT 10SM CLR 20/17 A3012 RMK AO2  T02040173,,,,,,63.12,,N,29.47,28.31,,Clear
KIGQ,07/11/2018 09:15 UTC,30.12,68.54,62.96,82.41,3.44,10.0,,,,,,1.0,,,,10.0,,KIGQ 110915Z AUTO 01003KT 10SM CLR 20/17 A3012 RMK AO2  T02030172,,,,,,62.94,,N,29.47,28.33,,Clear
KIGQ,07/11/2018 09:35 UTC,30.12,68.36,62.96,82.92,0.0,0.0,,,,,,1.0,,,,10.0,,KIGQ 110935Z AUTO 00000KT 10SM CLR 20/17 A3012 RMK AO2  T02020172,,,,,,62.94,,N,29.47,28.33,,Clear
KIGQ,07/11/2018 09:55 UTC,30.13,68.0,62.78,83.42,0.0,0.0,,,,,,1.0,,,,10.0,,KIGQ 110955Z AUTO 00000KT 10SM CLR 20/17 A3013 RMK AO2  T02000171,,,,,,62.76,,N,29.47,28.35,,Clear
KIGQ,07/11/2018 10:15 UTC,30.12,64.22,62.42,93.89,0.0,0.0,,,,,,1.0,,,,10.0,,KIGQ 111015Z AUTO 00000KT 10SM CLR 18/17 A3012 RMK AO2  T01790169,,,,,,62.41,,N,29.47,28.41,,Clear
KIGQ,07/11/2018 10:35 UTC,30.13,65.12,62.42,90.99,0.0,0.0,,,,,,1.0,,,,10.0,,KIGQ 111035Z AUTO 00000KT 10SM CLR 18/17 A3013 RMK AO2  T01840169,,,,,,62.4,,N,29.47,28.4,,Clear
KIGQ,07/11/2018 10:55 UTC,30.14,65.84,62.6,89.31,0.0,0.0,,,,,,22.0,,,,10.0,,KIGQ 111055Z AUTO 00000KT 10SM SCT002 19/17 A3014 RMK AO2  T01880170,,,,,,62.58,,N,29.48,28.39,,Partly Cloudy
KIGQ,07/11/2018 11:15 UTC,30.14,66.02,63.5,91.6,0.0,0.0,,,,,,22.0,,,,10.0,,KIGQ 111115Z AUTO 00000KT 10SM SCT002 19/18 A3014 RMK AO2  T01890175,,,,,,63.49,,N,29.48,28.34,,Partly Cloudy
KIGQ,07/11/2018 11:35 UTC,30.15,68.9,64.76,86.68,0.0,0.0,,,,,,1.0,,,,10.0,,KIGQ 111135Z AUTO 00000KT 10SM CLR 21/18 A3015 RMK AO2  T02050182,,,,,,64.74,,N,29.49,28.24,,Clear
KIGQ,07/11/2018 11:55 UTC,30.14,71.42,64.76,79.56,3.44,30.0,,,,,,1.0,,,,10.0,,KIGQ 111155Z AUTO 03003KT 10SM CLR 22/18 A3014 RMK AO2 T02190182  10219 20178,71.42,64.04,,,,64.74,,NNE,29.48,28.19,,Clear
KIGQ,07/11/2018 12:15 UTC,30.14,72.32,65.66,79.63,5.75,40.0,,,,,,22.0,,,,10.0,,KIGQ 111215Z AUTO 04005KT 10SM SCT002 22/19 A3014 RMK AO2  T02240187,,,,,,65.64,,NE,29.48,28.12,,Partly Cloudy
KIGQ,07/11/2018 12:35 UTC,30.14,73.58,66.2,77.77,3.44,60.0,,,,,,1.0,,,,10.0,,KIGQ 111235Z AUTO 06003KT 10SM CLR 23/19 A3014 RMK AO2  T02310190,,,,,,66.19,,ENE,29.48,28.07,,Clear
KIGQ,07/11/2018 12:55 UTC,30.15,74.12,65.84,75.43,4.61,30.0,,,,,,1.0,,,,10.0,,KIGQ 111255Z AUTO 03004KT 10SM CLR 23/19 A3015 RMK AO2  T02340188,,,,,,65.83,,NNE,29.49,28.1,,Clear
KIGQ,07/11/2018 13:15 UTC,30.16,75.2,63.32,66.64,0.0,0.0,,,,,,1.0,,,,10.0,,KIGQ 111315Z AUTO 00000KT 10SM CLR 24/17 A3016 RMK AO2  T02400174,,,,,,63.3,,N,29.5,28.26,,Clear
KIGQ,07/11/2018 13:35 UTC,30.16,76.28,62.24,61.9,5.75,130.0,,,,,,1.0,,,,10.0,,KIGQ 111335Z AUTO 13005KT 10SM CLR 25/17 A3016 RMK AO2  T02460168,,,,,,62.23,,SE,29.5,28.31,,Clear
KIGQ,07/11/2018 13:55 UTC,30.16,76.46,62.42,61.92,3.44,130.0,,,,,,1.0,,,,10.0,,KIGQ 111355Z AUTO 13003KT 10SM CLR 25/17 A3016 RMK AO2  T02470169,,,,,,62.41,,SE,29.5,28.3,,Clear
KIGQ,07/11/2018 14:15 UTC,30.16,77.0,62.24,60.44,4.61,160.0,,,,,,1.0,,,,10.0,,KIGQ 111415Z AUTO 16004KT 10SM CLR 25/17 A3016 RMK AO2  T02500168,,,,,,62.23,,SSE,29.5,28.3,,Clear
KIGQ,07/11/2018 14:35 UTC,30.15,77.9,62.78,59.8,5.75,130.0,,,,,,1.0,,,,10.0,,KIGQ 111435Z AUTO 13005KT 10SM CLR 26/17 A3015 RMK AO2  T02550171,,,,,,62.78,,SE,29.49,28.25,,Clear
KIGQ,07/11/2018 14:55 UTC,30.15,78.26,60.8,55.11,8.05,140.0,,,,,,1.0,,,,10.0,,KIGQ 111455Z AUTO 14007KT 10SM CLR 26/16 A3015 RMK AO2  T02570160,,,,,,60.8,,SE,29.49,28.36,,Clear
KIGQ,07/11/2018 15:15 UTC,30.15,78.98,60.44,53.14,6.91,150.0,,,,,,1.0,,,,10.0,,KIGQ 111515Z AUTO 15006KT 10SM CLR 26/16 A3015 RMK AO2  T02610158,,,,,,60.45,,SSE,29.49,28.38,,Clear
KIGQ,07/11/2018 15:35 UTC,30.15,79.34,60.98,53.53,5.75,140.0,,,,,,1.0,,,,10.0,,KIGQ 111535Z AUTO 14005KT 10SM CLR 26/16 A3015 RMK AO2  T02630161,,,,,,60.99,,SE,29.49,28.34,,Clear
KIGQ,07/11/2018 15:55 UTC,30.16,79.88,61.34,53.27,0.0,0.0,,,,,,1.0,,,,10.0,,KIGQ 111555Z AUTO 00000KT 10SM CLR 27/16 A3016 RMK AO2  T02660163,,,,,,61.36,,N,29.5,28.32,,Clear
KIGQ,07/11/2018 16:15 UTC,30.16,80.06,60.8,51.95,0.0,0.0,,,,,,1.0,,,,10.0,,KIGQ 111615Z AUTO 00000KT 10SM CLR 27/16 A3016 RMK AO2  T02670160,,,,,,60.81,,N,29.5,28.35,81.05,Clear
KIGQ,07/11/2018 16:35 UTC,30.16,80.78,62.96,54.77,3.44,190.0,,,,,,1.0,,,,10.0,,KIGQ 111635Z AUTO 19003KT 10SM CLR 27/17 A3016 RMK AO2  T02710172,,,,,,62.98,,S,29.5,28.22,82.09,Clear
KIGQ,07/11/2018 16:55 UTC,30.16,81.32,62.6,53.14,0.0,0.0,,,,,,1.0,,,,10.0,,KIGQ 111655Z AUTO 00000KT 10SM CLR 27/17 A3016 RMK AO2  T02740170,,,,,,62.63,,N,29.5,28.23,82.47,Clear
KIGQ,07/11/2018 17:15 UTC,30.16,82.04,63.14,52.91,0.0,0.0,,,,,,1.0,,,,10.0,,KIGQ 111715Z AUTO 00000KT 10SM CLR 28/17 A3016 RMK AO2  T02780173,,,,,,63.18,,N,29.5,28.19,83.26,Clear
KIGQ,07/11/2018 17:35 UTC,30.15,82.04,63.86,54.26,0.0,0.0,,,,,,1.0,,,,10.0,,KIGQ 111735Z AUTO 00000KT 10SM CLR 28/18 A3015 RMK AO2  T02780177,,,,,,63.89,,N,29.49,28.14,83.48,Clear
KIGQ,07/11/2018 17:55 UTC,30.15,82.94,64.04,53.04,4.61,150.0,,,,,,1.0,,,,10.0,,KIGQ 111755Z AUTO 15004KT 10SM CLR 28/18 A3015 RMK AO2 T02830178  10283 20220,82.94,71.6,,,,64.08,,SSE,29.49,28.11,84.39,Clear
KIGQ,07/11/2018 18:15 UTC,30.14,82.58,62.24,50.37,3.44,170.0,,,,,,1.0,,,,10.0,,KIGQ 111815Z AUTO 17003KT 10SM CLR 28/17 A3014 RMK AO2  T02810168,,,,,,62.28,,S,29.48,28.22,83.47,Clear
KIGQ,07/11/2018 18:35 UTC,30.14,83.66,62.6,49.27,0.0,0.0,,,,,,1.0,,,,10.0,,KIGQ 111835Z AUTO 00000KT 10SM CLR 29/17 A3014 RMK AO2  T02870170,,,,,,62.65,,N,29.48,28.19,84.56,Clear
KIGQ,07/11/2018 18:55 UTC,30.13,83.84,62.24,48.37,5.75,110.0,,,,,,1.0,,,,10.0,,KIGQ 111855Z AUTO 11005KT 10SM CLR 29/17 A3013 RMK AO2  T02880168,,,,,,62.29,,ESE,29.47,28.2,84.6,Clear
KIGQ,07/11/2018 19:15 UTC,30.13,84.02,62.6,48.7,0.0,0.0,,,,,,1.0,,,,10.0,,KIGQ 111915Z AUTO 00000KT 10SM CLR 29/17 A3013 RMK AO2  T02890170,,,,,,62.65,,N,29.47,28.18,84.88,Clear
KIGQ,07/11/2018 19:35 UTC,30.13,85.1,63.86,49.17,0.0,0.0,,,,,,1.0,,,,10.0,,KIGQ 111935Z AUTO 00000KT 10SM CLR 30/18 A3013 RMK AO2  T02950177,,,,,,63.92,,N,29.47,28.08,86.39,Clear
KIGQ,07/11/2018 19:55 UTC,30.13,84.2,63.86,50.61,3.44,230.0,,,,,,1.0,,,,10.0,,KIGQ 111955Z AUTO 23003KT 10SM CLR 29/18 A3013 RMK AO2  T02900177,,,,,,63.91,,SW,29.47,28.09,85.52,Clear
KIGQ,07/11/2018 20:15 UTC,30.12,84.92,63.5,48.84,3.44,170.0,,,,,,1.0,,,,10.0,,KIGQ 112015Z AUTO 17003KT 10SM CLR 29/18 A3012 RMK AO2  T02940175,,,,,,63.57,,S,29.47,28.11,86.07,Clear
KIGQ,07/11/2018 20:35 UTC,30.12,84.92,64.58,50.72,8.05,40.0,,,,,,1.0,,,,10.0,,KIGQ 112035Z AUTO 04007KT 10SM CLR 29/18 A3012 RMK AO2  T02940181,,,,,,64.64,,NE,29.47,28.04,86.53,Clear
KIGQ,07/11/2018 20:55 UTC,30.13,84.74,65.12,51.98,8.05,40.0,,,,,,1.0,,,,10.0,,KIGQ 112055Z AUTO 04007KT 10SM CLR 29/18 A3013 RMK AO2  T02930184,,,,,,65.18,,NE,29.47,28.0,86.59,Clear
KIGQ,07/11/2018 21:15 UTC,30.13,84.02,64.58,52.2,10.36,30.0,,,,,,1.0,,,,10.0,,KIGQ 112115Z AUTO 03009KT 10SM CLR 29/18 A3013 RMK AO2  T02890181,,,,,,64.63,,NNE,29.47,28.05,85.64,Clear
KIGQ,07/11/2018 21:35 UTC,30.12,83.66,64.58,52.81,9.22,30.0,,,,,,1.0,,,,10.0,,KIGQ 112135Z AUTO 03008KT 10SM CLR 29/18 A3012 RMK AO2  T02870181,,,,,,64.63,,NNE,29.47,28.05,85.28,Clear
KIGQ,07/11/2018 21:55 UTC,30.12,83.3,64.58,53.42,9.22,40.0,,,,,,1.0,,,,10.0,,KIGQ 112155Z AUTO 04008KT 10SM CLR 29/18 A3012 RMK AO2  T02850181,,,,,,64.62,,NE,29.47,28.05,84.93,Clear
KIGQ,07/11/2018 22:15 UTC,30.12,82.94,64.76,54.39,9.22,20.0,,,,,,1.0,,,,10.0,,KIGQ 112215Z AUTO 02008KT 10SM CLR 28/18 A3012 RMK AO2  T02830182,,,,,,64.8,,NNE,29.47,28.05,84.65,Clear
KIGQ,07/11/2018 22:35 UTC,30.12,82.22,65.3,56.72,6.91,30.0,,,,,,1.0,,,,10.0,,KIGQ 112235Z AUTO 03006KT 10SM CLR 28/19 A3012 RMK AO2  T02790185,,,,,,65.33,,NNE,29.47,28.02,84.14,Clear
KIGQ,07/11/2018 22:55 UTC,30.12,81.5,64.4,56.27,9.22,30.0,,,,,,1.0,,,,10.0,,KIGQ 112255Z AUTO 03008KT 10SM CLR 28/18 A3012 RMK AO2  T02750180,,,,,,64.43,,NNE,29.47,28.09,83.14,Clear
KIGQ,07/11/2018 23:15 UTC,30.12,80.6,63.86,56.85,8.05,20.0,,,,,,1.0,,,,10.0,,KIGQ 112315Z AUTO 02007KT 10SM CLR 27/18 A3012 RMK AO2  T02700177,,,,,,63.88,,NNE,29.47,28.13,82.15,Clear
KIGQ,07/11/2018 23:35 UTC,30.12,79.34,63.86,59.24,8.05,40.0,,,,,,1.0,,,,10.0,,KIGQ 112335Z AUTO 04007KT 10SM CLR 26/18 A3012 RMK AO2  T02630177,,,,,,63.87,,NE,29.47,28.14,,Clear
KIGQ,07/11/2018 23:55 UTC,30.12,78.62,63.86,60.65,6.91,30.0,,,,,,1.0,,,,10.0,,KIGQ 112355Z AUTO 03006KT 10SM CLR 26/18 A3012 RMK AO2 T02590177  10295 20259,85.1,78.62,,,,63.86,,NNE,29.47,28.15,,Clear
KIGQ,07/12/2018 00:15 UTC,30.12,77.54,64.22,63.64,8.05,30.0,,,,,,1.0,,,,10.0,,KIGQ 120015Z AUTO 03007KT 10SM CLR 25/18 A3012 RMK AO2  T02530179,,,,,,64.22,,NNE,29.47,28.14,,Clear
KIGQ,07/12/2018 00:35 UTC,30.13,77.0,64.76,66.02,5.75,40.0,,,,,,1.0,,,,10.0,,KIGQ 120035Z AUTO 04005KT 10SM CLR 25/18 A3013 RMK AO2  T02500182,,,,,,64.76,,NE,29.47,28.11,,Clear
KIGQ,07/12/2018 00:55 UTC,30.13,76.1,63.68,65.5,5.75,30.0,,,,,,1.0,,,,10.0,,KIGQ 120055Z AUTO 03005KT 10SM CLR 25/18 A3013 RMK AO2  T02450176,,,,,,63.67,,NNE,29.47,28.19,,Clear
KIGQ,07/12/2018 01:15 UTC,30.12,75.2,63.32,66.64,4.61,30.0,,,,,,1.0,,,,10.0,,KIGQ 120115Z AUTO 03004KT 10SM CLR 24/17 A3012 RMK AO2  T02400174,,,,,,63.3,,NNE,29.47,28.23,,Clear
KIGQ,07/12/2018 01:35 UTC,30.12,74.3,63.68,69.55,4.61,50.0,,,,,,1.0,,,,10.0,,KIGQ 120135Z AUTO 05004KT 10SM CLR 24/18 A3012 RMK AO2  T02350176,,,,,,63.66,,NE,29.47,28.21,,Clear
KIGQ,07/12/2018 01:55 UTC,30.13,73.58,63.68,71.24,4.61,50.0,,,,,,1.0,,,,10.0,,KIGQ 120155Z AUTO 05004KT 10SM CLR 23/18 A3013 RMK AO2  T02310176,,,,,,63.66,,NE,29.47,28.22,,Clear
KIGQ,07/12/2018 02:15 UTC,30.14,73.22,64.4,73.94,4.61,30.0,,,,,,1.0,,,,10.0,,KIGQ 120215Z AUTO 03004KT 10SM CLR 23/18 A3014 RMK AO2  T02290180,,,,,,64.38,,NNE,29.48,28.19,,Clear
KIGQ,07/12/2018 02:35 UTC,30.14,73.22,64.4,73.94,4.61,50.0,,,,,,1.0,,,,10.0,,KIGQ 120235Z AUTO 05004KT 10SM CLR 23/18 A3014 RMK AO2  T02290180,,,,,,64.38,,NE,29.48,28.19,,Clear
KIGQ,07/12/2018 02:55 UTC,30.15,72.68,64.4,75.3,0.0,0.0,,,,,,1.0,,,,10.0,,KIGQ 120255Z AUTO 00000KT 10SM CLR 23/18 A3015 RMK AO2  T02260180,,,,,,64.38,,N,29.49,28.21,,Clear
KIGQ,07/12/2018 03:15 UTC,30.15,72.5,64.4,75.76,3.44,40.0,,,,,,1.0,,,,10.0,,KIGQ 120315Z AUTO 04003KT 10SM CLR 23/18 A3015 RMK AO2  T02250180,,,,,,64.38,,NE,29.49,28.21,,Clear
KIGQ,07/12/2018 03:35 UTC,30.16,71.96,63.86,75.71,0.0,0.0,,,,,,1.0,,,,10.0,,KIGQ 120335Z AUTO 00000KT 10SM CLR 22/18 A3016 RMK AO2  T02220177,,,,,,63.84,,N,29.5,28.26,,Clear
KIGQ,07/12/2018 03:55 UTC,30.16,70.16,64.4,82.0,0.0,0.0,,,,,,1.0,,,,10.0,,KIGQ 120355Z AUTO 00000KT 10SM CLR 21/18 A3016 RMK AO2  T02120180,,,,,,64.38,,N,29.5,28.25,,Clear
KIGQ,07/12/2018 04:15 UTC,30.16,68.54,64.94,88.31,0.0,0.0,,,,,,1.0,,,,10.0,,KIGQ 120415Z AUTO 00000KT 10SM CLR 20/18 A3016 RMK AO2  T02030183,,,,,,64.92,,N,29.5,28.24,,Clear
KIGQ,07/12/2018 04:35 UTC,30.16,68.36,64.4,87.2,0.0,0.0,,,,,,1.0,,,,10.0,,KIGQ 120435Z AUTO 00000KT 10SM CLR 20/18 A3016 RMK AO2  T02020180,,,,,,64.38,,N,29.5,28.27,,Clear
KIGQ,07/12/2018 04:55 UTC,30.16,71.06,63.68,77.56,0.0,0.0,,,,,,1.0,,,,10.0,,KIGQ 120455Z AUTO 00000KT 10SM CLR 22/18 A3016 RMK AO2  T02170176,,,,,,63.66,,N,29.5,28.28,,Clear
KIGQ,07/12/2018 05:15 UTC,30.16,69.8,64.4,83.01,0.0,0.0,,,,,,1.0,,,,10.0,,KIGQ 120515Z AUTO 00000KT 10SM CLR 21/18 A3016 RMK AO2  T02100180,,,,,,64.38,,N,29.5,28.26,,Clear
KIGQ,07/12/2018 05:35 UTC,30.16,69.08,65.12,87.24,0.0,0.0,,,,,,1.0,,,,10.0,,KIGQ 120535Z AUTO 00000KT 10SM CLR 21/18 A3016 RMK AO2  T02060184,,,,,,65.1,,N,29.5,28.22,,Clear
KIGQ,07/12/2018 05:55 UTC,30.16,69.26,64.58,85.09,0.0,0.0,,,,,,1.0,,,,10.0,,KIGQ 120555Z AUTO 00000KT 10SM CLR 21/18 A3016 RMK AO2 T02070181  10258 20196 402950178,78.44,67.28,,85.1,64.04,64.56,,N,29.5,28.25,,Clear
KIGQ,07/12/2018 06:15 UTC,30.16,69.08,64.4,85.08,0.0,0.0,,,,,,1.0,,,,10.0,,KIGQ 120615Z AUTO 00000KT 10SM CLR 21/18 A3016 RMK AO2  T02060180,,,,,,64.38,,N,29.5,28.27,,Clear
KIGQ,07/12/2018 06:35 UTC,30.16,67.1,63.86,89.36,0.0,0.0,,,,,,1.0,,,,10.0,,KIGQ 120635Z AUTO 00000KT 10SM CLR 20/18 A3016 RMK AO2  T01950177,,,,,,63.84,,N,29.5,28.32,,Clear
KIGQ,07/12/2018 06:55 UTC,30.16,66.74,63.86,90.48,0.0,0.0,,,,,,1.0,,,,10.0,,KIGQ 120655Z AUTO 00000KT 10SM CLR 19/18 A3016 RMK AO2  T01930177,,,,,,63.85,,N,29.5,28.33,,Clear
KIGQ,07/12/2018 07:15 UTC,30.16,65.66,63.68,93.33,0.0,0.0,,,,,,1.0,,,,10.0,,KIGQ 120715Z AUTO 00000KT 10SM CLR 19/18 A3016 RMK AO2  T01870176,,,,,,63.67,,N,29.5,28.35,,Clear
KIGQ,07/12/2018 07:35 UTC,30.16,64.76,63.5,95.7,0.0,0.0,,,,,,1.0,,,,10.0,,KIGQ 120735Z AUTO 00000KT 10SM CLR 18/18 A3016 RMK AO2  T01820175,,,,,,63.49,,N,29.5,28.38,,Clear
KIGQ,07/12/2018 07:55 UTC,30.15,65.3,63.68,94.51,0.0,0.0,,,,,,1.0,,,,10.0,,KIGQ 120755Z AUTO 00000KT 10SM CLR 19/18 A3015 RMK AO2  T01850176,,,,,,63.67,,N,29.49,28.35,,Clear
KIGQ,07/12/2018 08:15 UTC,30.15,64.94,64.22,97.52,0.0,0.0,,,,,,1.0,,,,10.0,,KIGQ 120815Z AUTO 00000KT 10SM CLR 18/18 A3015 RMK AO2  T01830179,,,,,,64.22,,N,29.49,28.32,,Clear
KIGQ,07/12/2018 08:35 UTC,30.15,64.76,63.86,96.91,0.0,0.0,,,,,,1.0,,,,10.0,,KIGQ 120835Z AUTO 00000KT 10SM CLR 18/18 A3015 RMK AO2  T01820177,,,,,,63.86,,N,29.49,28.34,,Clear
KIGQ,07/12/2018 08:55 UTC,30.15,64.4,63.5,96.9,0.0,0.0,,,,,,1.0,,,,10.0,,KIGQ 120855Z AUTO 00000KT 10SM CLR 18/18 A3015 RMK AO2  T01800175,,,,,,63.49,,N,29.49,28.37,,Clear
KIGQ,07/12/2018 09:15 UTC,30.15,64.04,64.04,100.0,0.0,0.0,,,,,,1.0,,,,10.0,,KIGQ 120915Z AUTO 00000KT 10SM CLR 18/18 A3015 RMK AO2  T01780178,,,,,,64.04,,N,29.49,28.34,,Clear
KIGQ,07/12/2018 09:35 UTC,30.15,64.94,64.58,98.75,0.0,0.0,,,,,,1.0,,,,10.0,,KIGQ 120935Z AUTO 00000KT 10SM CLR 18/18 A3015 RMK AO2  T01830181,,,,,,64.58,,N,29.49,28.3,,Clear
KIGQ,07/12/2018 09:55 UTC,30.15,64.22,63.68,98.13,0.0,0.0,,,,,,1.0,,,,10.0,,KIGQ 120955Z AUTO 00000KT 10SM CLR 18/18 A3015 RMK AO2  T01790176,,,,,,63.68,,N,29.49,28.36,,Clear
KIGQ,07/12/2018 10:15 UTC,30.15,64.58,64.4,99.37,0.0,0.0,,,,,,1.0,,,,10.0,,KIGQ 121015Z AUTO 00000KT 10SM CLR 18/18 A3015 RMK AO2  T01810180,,,,,,64.4,,N,29.49,28.32,,Clear
KIGQ,07/12/2018 10:35 UTC,30.16,63.32,62.96,98.75,0.0,0.0,,,,,,1.0,,,,10.0,,KIGQ 121035Z AUTO 00000KT 10SM CLR 17/17 A3016 RMK AO2  T01740172,,,,,,62.96,,N,29.5,28.43,,Clear
KIGQ,07/12/2018 10:55 UTC,30.16,64.76,63.68,96.3,0.0,0.0,,,,,,1.0,,,,10.0,,KIGQ 121055Z AUTO 00000KT 10SM CLR 18/18 A3016 RMK AO2  T01820176,,,,,,63.67,,N,29.5,28.37,,Clear
KIGQ,07/12/2018 11:15 UTC,30.16,65.66,64.04,94.52,0.0,0.0,,,,,,1.0,,,,10.0,,KIGQ 121115Z AUTO 00000KT 10SM CLR 19/18 A3016 RMK AO2  T01870178,,,,,,64.03,,N,29.5,28.33,,Clear
KIGQ,07/12/2018 11:35 UTC,30.16,68.0,65.48,91.67,0.0,0.0,,,,,,32.0,,,,10.0,,KIGQ 121135Z AUTO 00000KT 10SM SCT003 20/19 A3016 RMK AO2  T02000186,,,,,,65.47,,N,29.5,28.21,,Partly Cloudy
KIGQ,07/12/2018 11:55 UTC,30.17,69.26,66.56,91.14,0.0,0.0,,,,,,22.0,,,,10.0,,KIGQ 121155Z AUTO 00000KT 10SM SCT002 21/19 A3017 RMK AO2  T02070192 10208 20173,69.44,63.14,,,,66.55,,N,29.51,28.14,,Partly Cloudy
KIGQ,07/12/2018 12:15 UTC,30.18,70.7,66.38,86.24,3.44,190.0,,,,,,22.0,,,,10.0,,KIGQ 121215Z AUTO 19003KT 10SM SCT002 22/19 A3018 RMK AO2  T02150191,,,,,,66.37,,S,29.52,28.14,,Partly Cloudy
KIGQ,07/12/2018 12:35 UTC,30.18,72.32,66.02,80.63,5.75,190.0,,,,,,22.0,,,,10.0,,KIGQ 121235Z AUTO 19005KT 10SM SCT002 22/19 A3018 RMK AO2  T02240189,,,,,,66.0,,S,29.52,28.14,,Partly Cloudy
KIGQ,07/12/2018 12:55 UTC,30.18,73.4,65.66,76.79,4.61,180.0,,,,,,22.0,,,,10.0,,KIGQ 121255Z AUTO 18004KT 10SM SCT002 23/19 A3018 RMK AO2  T02300187,,,,,,65.64,,S,29.52,28.15,,Partly Cloudy
KIGQ,07/12/2018 13:15 UTC,30.19,74.66,64.76,71.35,6.91,200.0,,,,,,1.0,,,,10.0,,KIGQ 121315Z AUTO 20006KT 10SM CLR 24/18 A3019 RMK AO2  T02370182,,,,,,64.74,,SSW,29.53,28.2,,Clear
KIGQ,07/12/2018 13:35 UTC,30.2,75.92,65.12,69.29,5.75,180.0,,,,,,1.0,,,,10.0,,KIGQ 121335Z AUTO 18005KT 10SM CLR 24/18 A3020 RMK AO2  T02440184,,,,,,65.11,,S,29.54,28.17,,Clear
KIGQ,07/12/2018 13:55 UTC,30.21,77.18,64.4,64.81,8.05,200.0,,,,,,1.0,,,,10.0,,KIGQ 121355Z AUTO 20007KT 10SM CLR 25/18 A3021 RMK AO2  T02510180,,,,,,64.4,,SSW,29.55,28.22,,Clear
KIGQ,07/12/2018 14:15 UTC,30.21,78.08,64.76,63.71,6.91,200.0,,,,,,1.0,,,,10.0,,KIGQ 121415Z AUTO 20006KT 10SM CLR 26/18 A3021 RMK AO2  T02560182,,,,,,64.76,,SSW,29.55,28.18,,Clear
KIGQ,07/12/2018 14:35 UTC,30.21,78.8,65.66,64.2,8.05,190.0,,,,,,1.0,,,,10.0,,KIGQ 121435Z AUTO 19007KT 10SM CLR 26/19 A3021 RMK AO2  T02600187,,,,,,65.67,,S,29.55,28.11,,Clear
KIGQ,07/12/2018 14:55 UTC,30.21,78.98,65.48,63.42,8.05,210.0,,,,,,1.0,,,,10.0,,KIGQ 121455Z AUTO 21007KT 10SM CLR 26/19 A3021 RMK AO2  T02610186,,,,,,65.49,,SSW,29.55,28.12,,Clear
KIGQ,07/12/2018 15:15 UTC,30.21,79.88,62.42,55.34,10.36,200.0,,,,,,1.0,,,,10.0,,KIGQ 121515Z AUTO 20009KT 10SM CLR 27/17 A3021 RMK AO2  T02660169,,,,,,62.44,,SSW,29.55,28.31,,Clear
KIGQ,07/12/2018 15:35 UTC,30.21,80.78,61.7,52.39,10.36,200.0,,,,,,1.0,,,,10.0,,KIGQ 121535Z AUTO 20009KT 10SM CLR 27/17 A3021 RMK AO2  T02710165,,,,,,61.72,,SSW,29.55,28.34,81.8,Clear
KIGQ,07/12/2018 15:55 UTC,30.2,80.42,62.78,55.06,8.05,210.0,,,,,,1.0,,,,10.0,,KIGQ 121555Z AUTO 21007KT 10SM CLR 27/17 A3020 RMK AO2  T02690171,,,,,,62.8,,SSW,29.54,28.27,81.74,Clear
KIGQ,07/12/2018 16:15 UTC,30.21,81.86,63.14,53.22,10.36,180.0,,,,,,1.0,,,,10.0,,KIGQ 121615Z AUTO 18009KT 10SM CLR 28/17 A3021 RMK AO2  T02770173,,,,,,63.17,,S,29.55,28.24,83.1,Clear
KIGQ,07/12/2018 16:35 UTC,30.21,82.04,63.14,52.91,8.05,200.0,,,,,,1.0,,,,10.0,,KIGQ 121635Z AUTO 20007KT 10SM CLR 28/17 A3021 RMK AO2  T02780173,,,,,,63.18,,SSW,29.55,28.24,83.26,Clear
KIGQ,07/12/2018 16:55 UTC,30.2,82.04,62.78,52.24,9.22,190.0,,,,,,1.0,,,,10.0,,KIGQ 121655Z AUTO 19008KT 10SM CLR 28/17 A3020 RMK AO2  T02780171,,,,,,62.81,,S,29.54,28.26,83.16,Clear
KIGQ,07/12/2018 17:15 UTC,30.19,82.76,62.42,50.4,11.5,170.0,,,,,,1.0,,,,10.0,,KIGQ 121715Z AUTO 17010KT 10SM CLR 28/17 A3019 RMK AO2  T02820169,,,,,,62.46,,S,29.53,28.26,83.69,Clear
KIGQ,07/12/2018 17:35 UTC,30.19,82.58,62.96,51.66,10.36,200.0,,,,,,1.0,,,,10.0,,KIGQ 121735Z AUTO 20009KT 10SM CLR 28/17 A3019 RMK AO2  T02810172,,,,,,63.0,,SSW,29.53,28.23,83.69,Clear
KIGQ,07/12/2018 17:55 UTC,30.19,82.76,63.32,52.02,10.36,200.0,,,,,,1.0,,,,10.0,,KIGQ 121755Z AUTO 20009KT 10SM CLR 28/17 A3019 RMK AO2 T02820174  10285 20209,83.3,69.62,,,,63.36,,SSW,29.53,28.2,83.97,Clear
KIGQ,07/12/2018 18:15 UTC,30.18,83.48,64.4,52.78,10.36,210.0,,,,,,1.0,,,,10.0,,KIGQ 121815Z AUTO 21009KT 10SM CLR 29/18 A3018 RMK AO2  T02860180,,,,,,64.45,,SSW,29.52,28.12,85.04,Clear
KIGQ,07/12/2018 18:35 UTC,30.18,83.12,64.76,54.07,8.05,200.0,,,,,,1.0,,,,10.0,,KIGQ 121835Z AUTO 20007KT 10SM CLR 28/18 A3018 RMK AO2 LTG DSNT N  T02840182,,,,,,64.8,,SSW,29.52,28.1,84.82,Clear
KIGQ,07/12/2018 18:55 UTC,30.17,82.76,65.3,55.74,9.22,210.0,,,,,,1.0,,,,10.0,,KIGQ 121855Z AUTO 21008KT 170V230 10SM CLR 28/19 A3017 RMK AO2  T02820185,,,,,,65.34,,SSW,29.51,28.05,84.67,Clear
KIGQ,07/12/2018 19:15 UTC,30.18,83.48,65.12,54.12,8.05,200.0,,,,,,1.0,,,,10.0,,KIGQ 121915Z AUTO 20007KT 10SM CLR 29/18 A3018 RMK AO2  T02860184,,,,,,65.16,,SSW,29.52,28.07,85.32,Clear
KIGQ,07/12/2018 19:35 UTC,30.17,83.48,64.94,53.78,3.44,200.0,,,,,,1.0,,,,10.0,,KIGQ 121935Z AUTO 20003KT 10SM CLR 29/18 A3017 RMK AO2  T02860183,,,,,,64.98,,SSW,29.51,28.07,85.25,Clear
KIGQ,07/12/2018 19:55 UTC,30.17,83.3,65.3,54.78,8.05,180.0,,,,,,1.0,,,,10.0,,KIGQ 121955Z AUTO 18007KT 10SM CLR 29/19 A3017 RMK AO2  T02850185,,,,,,65.34,,S,29.51,28.05,85.22,Clear
KIGQ,07/12/2018 20:15 UTC,30.17,83.3,66.02,56.16,6.91,200.0,,,,,,1.0,,,,10.0,,KIGQ 122015Z AUTO 20006KT 10SM CLR 29/19 A3017 RMK AO2  T02850189,,,,,,66.06,,SSW,29.51,28.0,85.51,Clear
KIGQ,07/12/2018 20:35 UTC,30.16,82.76,65.48,56.09,8.05,190.0,,,,,,1.0,,,,10.0,,KIGQ 122035Z AUTO 19007KT 10SM CLR 28/19 A3016 RMK AO2  T02820186,,,,,,65.52,,S,29.5,28.03,84.74,Clear
KIGQ,07/12/2018 20:55 UTC,30.16,82.4,65.66,57.1,8.05,200.0,,,,,,1.0,,,,10.0,,KIGQ 122055Z AUTO 20007KT 10SM CLR 28/19 A3016 RMK AO2  T02800187,,,,,,65.69,,SSW,29.5,28.02,84.45,Clear
KIGQ,07/12/2018 21:15 UTC,30.16,82.22,66.2,58.52,5.75,180.0,,,,,,1.0,,,,10.0,,KIGQ 122115Z AUTO 18005KT 10SM CLR 28/19 A3016 RMK AO2  T02790190,,,,,,66.23,,S,29.5,27.99,84.47,Clear
KIGQ,07/12/2018 21:35 UTC,30.16,81.86,66.92,60.69,6.91,190.0,,,,,,1.0,,,,10.0,,KIGQ 122135Z AUTO 19006KT 10SM CLR 28/19 A3016 RMK AO2  T02770194,,,,,,66.94,,S,29.5,27.94,84.35,Clear
KIGQ,07/12/2018 21:55 UTC,30.15,81.68,67.1,61.43,8.05,190.0,,,,,,1.0,,,,10.0,,KIGQ 122155Z AUTO 19007KT 10SM CLR 28/20 A3015 RMK AO2  T02760195,,,,,,67.13,,S,29.49,27.92,84.23,Clear
KIGQ,07/12/2018 22:15 UTC,30.15,81.5,67.82,63.34,6.91,200.0,,,,,,1.0,,,,10.0,,KIGQ 122215Z AUTO 20006KT 10SM CLR 28/20 A3015 RMK AO2  T02750199,,,,,,67.84,,SSW,29.49,27.87,84.29,Clear
KIGQ,07/12/2018 22:35 UTC,30.14,81.5,68.54,64.92,6.91,190.0,,,,,,1.0,,,,10.0,,KIGQ 122235Z AUTO 19006KT 10SM CLR 28/20 A3014 RMK AO2  T02750203,,,,,,68.56,,S,29.48,27.81,84.57,Clear
KIGQ,07/12/2018 22:55 UTC,30.13,80.96,67.64,64.06,8.05,190.0,,,,,,1.0,,,,10.0,,KIGQ 122255Z AUTO 19007KT 10SM CLR 27/20 A3013 RMK AO2  T02720198,,,,,,67.66,,S,29.47,27.87,83.61,Clear
KIGQ,07/12/2018 23:15 UTC,30.13,80.6,68.0,65.62,6.91,190.0,,,,,,1.0,,,,10.0,,KIGQ 122315Z AUTO 19006KT 10SM CLR 27/20 A3013 RMK AO2  T02700200,,,,,,68.01,,S,29.47,27.85,83.31,Clear
KIGQ,07/12/2018 23:35 UTC,30.12,80.06,67.82,66.38,8.05,190.0,,,,,,1.0,,,,10.0,,KIGQ 122335Z AUTO 19007KT 10SM CLR 27/20 A3012 RMK AO2  T02670199,,,,,,67.83,,S,29.47,27.87,82.61,Clear
KIGQ,07/12/2018 23:55 UTC,30.11,79.88,68.36,68.02,6.91,190.0,,,,,,1.0,,,,10.0,,KIGQ 122355Z AUTO 19006KT 10SM CLR 27/20 A3011 RMK AO2 T02660202  10287 20266,83.66,79.88,,,,68.37,,S,29.46,27.82,,Clear
KIGQ,07/13/2018 00:15 UTC,30.11,80.6,67.64,64.82,8.05,180.0,,,,,,1.0,,,,10.0,,KIGQ 130015Z AUTO 18007KT 10SM CLR 27/20 A3011 RMK AO2  T02700198,,,,,,67.66,,S,29.46,27.86,83.19,Clear
KIGQ,07/13/2018 00:35 UTC,30.11,79.88,67.46,65.95,8.05,180.0,,,,,,1.0,,,,10.0,,KIGQ 130035Z AUTO 18007KT 10SM CLR 27/20 A3011 RMK AO2  T02660197,,,,,,67.47,,S,29.46,27.89,,Clear
KIGQ,07/13/2018 00:55 UTC,30.11,78.8,67.28,67.9,6.91,170.0,,,,,,1.0,,,,10.0,,KIGQ 130055Z AUTO 17006KT 10SM CLR 26/20 A3011 RMK AO2  T02600196,,,,,,67.29,,S,29.46,27.91,,Clear
KIGQ,07/13/2018 01:15 UTC,30.1,78.44,67.1,68.28,9.22,160.0,,,,,,1.0,,,,10.0,,KIGQ 130115Z AUTO 16008KT 10SM CLR 26/20 A3010 RMK AO2  T02580195,,,,,,67.1,,SSE,29.45,27.92,,Clear
KIGQ,07/13/2018 01:35 UTC,30.1,77.36,67.1,70.75,6.91,160.0,,,,,,1.0,,,,10.0,,KIGQ 130135Z AUTO 16006KT 10SM CLR 25/20 A3010 RMK AO2  T02520195,,,,,,67.1,,SSE,29.45,27.93,,Clear
KIGQ,07/13/2018 01:55 UTC,30.1,76.82,66.74,71.13,8.05,160.0,,,,,,1.0,,,,10.0,,KIGQ 130155Z AUTO 16007KT 10SM CLR 25/19 A3010 RMK AO2  T02490193,,,,,,66.73,,SSE,29.45,27.96,,Clear
KIGQ,07/13/2018 02:15 UTC,30.11,76.28,66.56,71.97,4.61,160.0,,,,,,1.0,,,,10.0,,KIGQ 130215Z AUTO 16004KT 10SM CLR 25/19 A3011 RMK AO2  T02460192,,,,,,66.55,,SSE,29.46,27.99,,Clear
KIGQ,07/13/2018 02:35 UTC,30.12,75.74,66.56,73.27,4.61,150.0,,,,,,1.0,,,,10.0,,KIGQ 130235Z AUTO 15004KT 10SM CLR 24/19 A3012 RMK AO2  T02430192,,,,,,66.55,,SSE,29.47,28.01,,Clear
KIGQ,07/13/2018 02:55 UTC,30.13,75.38,66.56,74.15,3.44,140.0,,,,,,1.0,,,,10.0,,KIGQ 130255Z AUTO 14003KT 10SM CLR 24/19 A3013 RMK AO2  T02410192,,,,,,66.55,,SE,29.47,28.01,,Clear
KIGQ,07/13/2018 03:15 UTC,30.14,74.48,66.74,76.89,4.61,160.0,,,,,,1.0,,,,10.0,,KIGQ 130315Z AUTO 16004KT 10SM CLR 24/19 A3014 RMK AO2  T02360193,,,,,,66.73,,SSE,29.48,28.02,,Clear
KIGQ,07/13/2018 03:35 UTC,30.15,72.5,66.38,81.15,4.61,160.0,,,,,,1.0,,,,10.0,,KIGQ 130335Z AUTO 16004KT 10SM CLR 23/19 A3015 RMK AO2  T02250191,,,,,,66.37,,SSE,29.49,28.08,,Clear
KIGQ,07/13/2018 03:55 UTC,30.15,71.6,66.38,83.65,5.75,160.0,,,,,,1.0,,,,10.0,,KIGQ 130355Z AUTO 16005KT 10SM CLR 22/19 A3015 RMK AO2  T02200191,,,,,,66.36,,SSE,29.49,28.1,,Clear
KIGQ,07/13/2018 04:15 UTC,30.16,72.5,66.38,81.15,4.61,160.0,,,,,,1.0,,,,10.0,,KIGQ 130415Z AUTO 16004KT 10SM CLR 23/19 A3016 RMK AO2  T02250191,,,,,,66.37,,SSE,29.5,28.09,,Clear
KIGQ,07/13/2018 04:35 UTC,30.17,70.7,66.2,85.71,5.75,190.0,,,,,,1.0,,,,10.0,,KIGQ 130435Z AUTO 19005KT 10SM CLR 22/19 A3017 RMK AO2  T02150190,,,,,,66.19,,S,29.51,28.14,,Clear
KIGQ,07/13/2018 04:55 UTC,30.16,70.88,65.48,83.09,5.75,160.0,,,,,,1.0,,,,10.0,,KIGQ 130455Z AUTO 16005KT 10SM CLR 22/19 A3016 RMK AO2  T02160186,,,,,,65.46,,SSE,29.5,28.17,,Clear
KIGQ,07/13/2018 05:15 UTC,30.17,71.06,65.48,82.58,5.75,180.0,,,,,,1.0,,,,10.0,,KIGQ 130515Z AUTO 18005KT 10SM CLR 22/19 A3017 RMK AO2  T02170186,,,,,,65.46,,S,29.51,28.18,,Clear
KIGQ,07/13/2018 05:35 UTC,30.17,69.98,65.48,85.67,5.75,180.0,,,,,,1.0,,,,10.0,,KIGQ 130535Z AUTO 18005KT 10SM CLR 21/19 A3017 RMK AO2  T02110186,,,,,,65.47,,S,29.51,28.2,,Clear
KIGQ,07/13/2018 05:55 UTC,30.16,68.9,65.3,88.33,5.75,180.0,,,,,,1.0,,,,10.0,,KIGQ 130555Z AUTO 18005KT 10SM CLR 21/19 A3016 RMK AO2 T02050185  10270 20205 402870173,80.6,68.9,,83.66,63.14,65.29,,S,29.5,28.21,,Clear
KIGQ,07/13/2018 06:15 UTC,30.15,68.36,65.48,90.54,5.75,200.0,,,,,,1.0,,,,10.0,,KIGQ 130615Z AUTO 20005KT 10SM CLR 20/19 A3015 RMK AO2  T02020186,,,,,,65.47,,SSW,29.49,28.2,,Clear
KIGQ,07/13/2018 06:35 UTC,30.14,68.36,65.3,89.98,8.05,180.0,,,,,,1.0,,,,10.0,,KIGQ 130635Z AUTO 18007KT 10SM CLR 20/19 A3014 RMK AO2  T02020185,,,,,,65.29,,S,29.48,28.2,,Clear
KIGQ,07/13/2018 06:55 UTC,30.13,68.54,65.3,89.42,6.91,180.0,,,,,,1.0,,,,10.0,,KIGQ 130655Z AUTO 18006KT 10SM CLR 20/19 A3013 RMK AO2  T02030185,,,,,,65.29,,S,29.47,28.19,,Clear
KIGQ,07/13/2018 07:15 UTC,30.13,68.9,64.58,86.14,5.75,180.0,,,,,,1.0,,,,10.0,,KIGQ 130715Z AUTO 18005KT 10SM CLR 21/18 A3013 RMK AO2  T02050181,,,,,,64.56,,S,29.47,28.23,,Clear
KIGQ,07/13/2018 07:35 UTC,30.13,68.54,64.4,86.67,6.91,180.0,,,,,,1.0,,,,10.0,,KIGQ 130735Z AUTO 18006KT 10SM CLR 20/18 A3013 RMK AO2  T02030180,,,,,,64.38,,S,29.47,28.24,,Clear
KIGQ,07/13/2018 07:55 UTC,30.13,69.08,64.4,85.08,0.0,0.0,,,,,,1.0,,,,10.0,,KIGQ 130755Z AUTO 00000KT 10SM CLR 21/18 A3013 RMK AO2  T02060180,,,,,,64.38,,N,29.47,28.23,,Clear
KIGQ,07/13/2018 08:15 UTC,30.14,69.08,64.22,84.55,0.0,0.0,,,,,,1.0,,,,10.0,,KIGQ 130815Z AUTO 00000KT 10SM CLR 21/18 A3014 RMK AO2  T02060179,,,,,,64.2,,N,29.48,28.26,,Clear
KIGQ,07/13/2018 08:35 UTC,30.13,68.18,63.86,86.1,3.44,210.0,,,,,,1.0,,,,10.0,,KIGQ 130835Z AUTO 21003KT 10SM CLR 20/18 A3013 RMK AO2  T02010177,,,,,,63.84,,SSW,29.47,28.28,,Clear
KIGQ,07/13/2018 08:55 UTC,30.14,68.0,63.86,86.64,0.0,0.0,,,,,,1.0,,,,10.0,,KIGQ 130855Z AUTO 00000KT 10SM CLR 20/18 A3014 RMK AO2  T02000177,,,,,,63.84,,N,29.48,28.29,,Clear
KIGQ,07/13/2018 09:15 UTC,30.13,67.28,63.32,87.15,0.0,0.0,,,,,,1.0,,,,10.0,,KIGQ 130915Z AUTO 00000KT 10SM CLR 20/17 A3013 RMK AO2  T01960174,,,,,,63.3,,N,29.47,28.32,,Clear
KIGQ,07/13/2018 09:35 UTC,30.13,66.02,63.14,90.45,0.0,0.0,,,,,,1.0,,,,10.0,,KIGQ 130935Z AUTO 00000KT 10SM CLR 19/17 A3013 RMK AO2  T01890173,,,,,,63.12,,N,29.47,28.35,,Clear
KIGQ,07/13/2018 09:55 UTC,30.13,65.48,63.32,92.74,4.61,180.0,,,,,,1.0,,,,10.0,,KIGQ 130955Z AUTO 18004KT 10SM CLR 19/17 A3013 RMK AO2  T01860174,,,,,,63.31,,S,29.47,28.35,,Clear
KIGQ,07/13/2018 10:15 UTC,30.12,64.4,63.14,95.69,4.61,180.0,,,,,,1.0,,,,10.0,,KIGQ 131015Z AUTO 18004KT 10SM CLR 18/17 A3012 RMK AO2  T01800173,,,,,,63.13,,S,29.47,28.37,,Clear
KIGQ,07/13/2018 10:35 UTC,30.13,64.58,63.32,95.69,5.75,190.0,,,,,,1.0,,,,10.0,,KIGQ 131035Z AUTO 19005KT 10SM CLR 18/17 A3013 RMK AO2  T01810174,,,,,,63.31,,S,29.47,28.36,,Clear
KIGQ,07/13/2018 10:55 UTC,30.13,64.94,63.68,95.7,3.44,190.0,,,,,,1.0,,,,10.0,,KIGQ 131055Z AUTO 19003KT 10SM CLR 18/18 A3013 RMK AO2  T01830176,,,,,,63.67,,S,29.47,28.33,,Clear
KIGQ,07/13/2018 11:15 UTC,30.13,67.1,64.4,91.06,3.44,190.0,,,,,,1.0,,,,10.0,,KIGQ 131115Z AUTO 19003KT 10SM CLR 20/18 A3013 RMK AO2  T01950180,,,,,,64.39,,S,29.47,28.26,,Clear
KIGQ,07/13/2018 11:35 UTC,30.14,68.18,65.3,90.53,3.44,190.0,,,,,,1.0,,,,10.0,,KIGQ 131135Z AUTO 19003KT 10SM CLR 20/19 A3014 RMK AO2  T02010185,,,,,,65.29,,S,29.48,28.2,,Clear
KIGQ,07/13/2018 12:35 UTC,30.15,71.96,65.66,80.61,6.91,220.0,,,,,,22.0,,,,10.0,,KIGQ 131235Z AUTO 22006KT 10SM SCT002 22/19 A3015 RMK AO2  T02220187,,,,,,65.64,,SW,29.49,28.14,,Partly Cloudy
KIGQ,07/13/2018 12:55 UTC,30.15,73.4,66.02,77.76,6.91,220.0,,,,,,22.0,,,,10.0,,KIGQ 131255Z AUTO 22006KT 10SM SCT002 23/19 A3015 RMK AO2  T02300189,,,,,,66.01,,SW,29.49,28.1,,Partly Cloudy
KIGQ,07/13/2018 13:15 UTC,30.15,75.2,66.56,74.6,9.22,210.0,,,,,,1.0,,,,10.0,,KIGQ 131315Z AUTO 21008KT 10SM CLR 24/19 A3015 RMK AO2  T02400192,,,,,,66.55,,SSW,29.49,28.04,,Clear
KIGQ,07/13/2018 13:35 UTC,30.15,76.28,66.02,70.64,9.22,200.0,,,,,,1.0,,,,10.0,,KIGQ 131335Z AUTO 20008KT 10SM CLR 25/19 A3015 RMK AO2  T02460189,,,,,,66.01,,SSW,29.49,28.06,,Clear
KIGQ,07/13/2018 13:55 UTC,30.15,77.0,64.4,65.2,10.36,220.0,,,,,,1.0,,,,10.0,,KIGQ 131355Z AUTO 22009KT 10SM CLR 25/18 A3015 RMK AO2  T02500180,,,,,,64.4,,SW,29.49,28.16,,Clear
KIGQ,07/13/2018 14:15 UTC,30.15,78.26,65.66,65.35,11.5,200.0,,,,,,1.0,,,,10.0,,KIGQ 131415Z AUTO 20010KT 10SM CLR 26/19 A3015 RMK AO2  T02570187,,,,,,65.66,,SSW,29.49,28.06,,Clear
KIGQ,07/13/2018 14:35 UTC,30.15,79.16,65.12,62.27,10.36,210.0,,,,,,1.0,,,,10.0,,KIGQ 131435Z AUTO 21009KT 10SM CLR 26/18 A3015 RMK AO2  T02620184,,,,,,65.13,,SSW,29.49,28.08,,Clear
KIGQ,07/13/2018 14:55 UTC,30.15,79.7,65.66,62.33,10.36,230.0,,,,,,1.0,,,,10.0,,KIGQ 131455Z AUTO 23009KT 10SM CLR 27/19 A3015 RMK AO2  T02650187,,,,,,65.67,,SW,29.49,28.04,,Clear
KIGQ,07/13/2018 15:15 UTC,30.15,80.6,66.2,61.67,9.22,220.0,,,,,,1.0,,,,10.0,,KIGQ 131515Z AUTO 22008KT 10SM CLR 27/19 A3015 RMK AO2  T02700190,,,,,,66.22,,SW,29.49,28.0,82.77,Clear
KIGQ,07/13/2018 15:35 UTC,30.15,81.32,66.92,61.77,8.05,220.0,,,,,,1.0,,,,10.0,,KIGQ 131535Z AUTO 22007KT 10SM CLR 27/19 A3015 RMK AO2  T02740194,,,,,,66.94,,SW,29.49,27.94,83.77,Clear
KIGQ,07/13/2018 15:55 UTC,30.15,82.22,67.1,60.36,8.05,190.0,,,,,,1.0,,,,10.0,,KIGQ 131555Z AUTO 19007KT 10SM CLR 28/20 A3015 RMK AO2  T02790195,,,,,,67.13,,S,29.49,27.91,84.82,Clear
KIGQ,07/13/2018 16:15 UTC,30.15,82.4,66.38,58.54,10.36,200.0,,,,,,1.0,,,,10.0,,KIGQ 131615Z AUTO 20009KT 10SM CLR 28/19 A3015 RMK AO2  T02800191,,,,,,66.41,,SSW,29.49,27.96,84.72,Clear
KIGQ,07/13/2018 16:35 UTC,30.14,83.12,67.64,59.74,9.22,290.0,,,,,,1.0,,,,10.0,,KIGQ 131635Z AUTO 29008KT 230V320 10SM CLR 28/20 A3014 RMK AO2  T02840198,,,,,,67.68,,WNW,29.48,27.85,86.04,Clear
KIGQ,07/13/2018 16:55 UTC,30.14,83.84,67.28,57.65,6.91,280.0,,,,,,1.0,,,,10.0,,KIGQ 131655Z AUTO 28006KT 10SM CLR 29/20 A3014 RMK AO2  T02880196,,,,,,67.32,,W,29.48,27.87,86.66,Clear
KIGQ,07/13/2018 17:15 UTC,30.13,84.56,68.18,58.11,6.91,220.0,,,,,,1.0,,,,10.0,,KIGQ 131715Z AUTO 22006KT 10SM CLR 29/20 A3013 RMK AO2  T02920201,,,,,,68.23,,SW,29.47,27.79,87.94,Clear
KIGQ,07/13/2018 17:35 UTC,30.12,84.38,68.18,58.44,8.05,220.0,,,,,,1.0,,,,10.0,,KIGQ 131735Z AUTO 22007KT 10SM CLR 29/20 A3012 RMK AO2  T02910201,,,,,,68.23,,SW,29.47,27.79,87.73,Clear
KIGQ,07/13/2018 17:55 UTC,30.11,85.64,68.9,57.54,4.61,200.0,,,,,,1.0,,,,10.0,,KIGQ 131755Z AUTO 20004KT 10SM CLR 30/21 A3011 RMK AO2 T02980205  10299 20209,85.82,69.62,,,,68.96,,SSW,29.46,27.71,89.6,Clear
KIGQ,07/13/2018 18:15 UTC,30.11,86.0,69.26,57.59,9.22,160.0,,,,,,1.0,,,,10.0,,KIGQ 131815Z AUTO 16008KT 110V190 10SM CLR 30/21 A3011 RMK AO2  T03000207,,,,,,69.32,,SSE,29.46,27.68,90.25,Clear
KIGQ,07/13/2018 18:35 UTC,30.11,86.0,68.36,55.84,9.22,170.0,,,,,,1.0,,,,10.0,,KIGQ 131835Z AUTO 17008KT 10SM CLR 30/20 A3011 RMK AO2  T03000202,,,,,,68.42,,S,29.46,27.75,89.67,Clear
KIGQ,07/13/2018 18:55 UTC,30.11,86.72,68.54,54.91,9.22,180.0,,,,,,1.0,,,,10.0,,KIGQ 131855Z AUTO 18008KT 10SM CLR 30/20 A3011 RMK AO2  T03040203,,,,,,68.61,,S,29.46,27.73,90.6,Clear
KIGQ,07/13/2018 19:15 UTC,30.1,86.9,68.54,54.6,11.5,190.0,16.11,,,,,1.0,,,,10.0,,KIGQ 131915Z AUTO 19010G14KT 10SM CLR 31/20 A3010 RMK AO2  T03050203,,,,,,68.61,,S,29.45,27.71,90.81,Clear
KIGQ,07/13/2018 19:35 UTC,30.1,87.08,67.82,52.97,6.91,190.0,,,,,,1.0,,,,10.0,,KIGQ 131935Z AUTO 19006KT 10SM CLR 31/20 A3010 RMK AO2  T03060199,,,,,,67.9,,S,29.45,27.76,90.55,Clear
KIGQ,07/13/2018 19:55 UTC,30.1,87.26,67.28,51.7,11.5,190.0,,,,,,1.0,,,,10.0,,KIGQ 131955Z AUTO 19010KT 10SM CLR 31/20 A3010 RMK AO2  T03070196,,,,,,67.37,,S,29.45,27.8,90.41,Clear
KIGQ,07/13/2018 20:15 UTC,30.09,87.62,68.9,54.03,10.36,170.0,,,,,,1.0,,,,10.0,,KIGQ 132015Z AUTO 17009KT 10SM CLR 31/21 A3009 RMK AO2  T03090205,,,,,,68.98,,S,29.44,27.67,91.89,Clear
KIGQ,07/13/2018 20:35 UTC,30.09,87.8,70.16,56.09,11.5,190.0,16.11,,,,,1.0,,,,10.0,,KIGQ 132035Z AUTO 19010G14KT 10SM CLR 31/21 A3009 RMK AO2  T03100212,,,,,,70.24,,S,29.44,27.57,93.04,Clear
KIGQ,07/13/2018 20:55 UTC,30.09,87.98,69.08,53.75,9.22,190.0,,,,,,1.0,,,,10.0,,KIGQ 132055Z AUTO 19008KT 10SM CLR 31/21 A3009 RMK AO2  T03110206,,,,,,69.16,,S,29.44,27.65,92.43,Clear
KIGQ,07/13/2018 21:15 UTC,30.08,87.8,68.0,52.09,11.5,160.0,,,,,,1.0,,,,10.0,,KIGQ 132115Z AUTO 16010KT 10SM CLR 31/20 A3008 RMK AO2  T03100200,,,,,,68.09,,SSE,29.43,27.72,91.47,Clear
KIGQ,07/13/2018 21:35 UTC,30.07,87.8,67.46,51.14,8.05,180.0,,,,,,1.0,,,,10.0,,KIGQ 132135Z AUTO 18007KT 10SM CLR 31/20 A3007 RMK AO2  T03100197,,,,,,67.55,,S,29.42,27.75,91.12,Clear
KIGQ,07/13/2018 21:55 UTC,30.07,87.44,66.92,50.77,6.91,200.0,,,,,,1.0,,,,10.0,,KIGQ 132155Z AUTO 20006KT 10SM CLR 31/19 A3007 RMK AO2  T03080194,,,,,,67.01,,SSW,29.42,27.8,90.38,Clear
KIGQ,07/13/2018 22:15 UTC,30.06,87.26,67.82,52.67,9.22,200.0,,,,,,1.0,,,,10.0,,KIGQ 132215Z AUTO 20008KT 10SM CLR 31/20 A3006 RMK AO2  T03070199,,,,,,67.9,,SSW,29.41,27.72,90.75,Clear
KIGQ,07/13/2018 22:35 UTC,30.05,87.08,68.0,53.29,8.05,190.0,,,,,,1.0,,,,10.0,,KIGQ 132235Z AUTO 19007KT 10SM CLR 31/20 A3005 RMK AO2  T03060200,,,,,,68.08,,S,29.4,27.7,90.66,Clear
KIGQ,07/13/2018 22:55 UTC,30.04,86.9,67.28,52.29,11.5,190.0,,,,,,1.0,,,,10.0,,KIGQ 132255Z AUTO 19010KT 10SM CLR 31/20 A3004 RMK AO2  T03050196,,,,,,67.36,,S,29.39,27.75,90.01,Clear
KIGQ,07/13/2018 23:15 UTC,30.04,86.18,68.18,55.18,9.22,190.0,,,,,,1.0,,,,10.0,,KIGQ 132315Z AUTO 19008KT 10SM CLR 30/20 A3004 RMK AO2  T03010201,,,,,,68.25,,S,29.39,27.69,89.76,Clear
KIGQ,07/13/2018 23:35 UTC,30.04,85.28,66.92,54.38,10.36,160.0,,,,,,1.0,,,,10.0,,KIGQ 132335Z AUTO 16009KT 10SM CLR 30/19 A3004 RMK AO2  T02960194,,,,,,66.98,,SSE,29.39,27.79,88.04,Clear
KIGQ,07/13/2018 23:55 UTC,30.03,84.74,65.84,53.29,9.22,170.0,,,,,,1.0,,,,10.0,,KIGQ 132355Z AUTO 17008KT 10SM CLR 29/19 A3003 RMK AO2 T02930188  10311 20293,87.98,84.74,,,,65.9,,S,29.38,27.86,86.92,Clear
KIGQ,07/14/2018 00:15 UTC,30.03,84.02,66.74,56.26,10.36,170.0,,,,,,1.0,,,,10.0,,KIGQ 140015Z AUTO 17009KT 10SM CLR 29/19 A3003 RMK AO2  T02890193,,,,,,66.79,,S,29.38,27.81,86.59,Clear
KIGQ,07/14/2018 00:35 UTC,30.04,82.04,67.1,60.72,8.05,180.0,,,,,,1.0,,,,10.0,,KIGQ 140035Z AUTO 18007KT 10SM CLR 28/20 A3004 RMK AO2  T02780195,,,,,,67.13,,S,29.39,27.81,84.62,Clear
KIGQ,07/14/2018 00:55 UTC,30.06,79.88,67.46,65.95,6.91,200.0,,,,,,1.0,,,,10.0,,KIGQ 140055Z AUTO 20006KT 10SM CLR 27/20 A3006 RMK AO2  T02660197,,,,,,67.47,,SSW,29.41,27.83,,Clear
KIGQ,07/14/2018 01:15 UTC,30.07,78.8,67.46,68.32,5.75,190.0,,,,,,1.0,,,,10.0,,KIGQ 140115Z AUTO 19005KT 10SM CLR 26/20 A3007 RMK AO2  T02600197,,,,,,67.47,,S,29.42,27.86,,Clear
KIGQ,07/14/2018 01:35 UTC,30.05,77.18,67.1,71.17,6.91,170.0,,,,,,1.0,,,,10.0,,KIGQ 140135Z AUTO 17006KT 10SM CLR 25/20 A3005 RMK AO2  T02510195,,,,,,67.1,,S,29.4,27.88,,Clear
KIGQ,07/14/2018 01:55 UTC,30.06,77.36,67.1,70.75,5.75,160.0,,,,,,1.0,,,,10.0,,KIGQ 140155Z AUTO 16005KT 10SM CLR 25/20 A3006 RMK AO2 LTG DSNT NW  T02520195,,,,,,67.1,,SSE,29.41,27.89,,Clear
KIGQ,07/14/2018 02:15 UTC,30.06,77.36,67.46,71.63,4.61,160.0,,,,,,1.0,,,,10.0,,KIGQ 140215Z AUTO 16004KT 10SM CLR 25/20 A3006 RMK AO2  T02520197,,,,,,67.46,,SSE,29.41,27.87,,Clear
KIGQ,07/14/2018 02:35 UTC,30.08,76.64,67.82,74.27,0.0,0.0,,,,,,1.0,,,,10.0,,KIGQ 140235Z AUTO 00000KT 10SM CLR 25/20 A3008 RMK AO2  T02480199,,,,,,67.82,,N,29.43,27.87,,Clear
KIGQ,07/14/2018 02:55 UTC,30.08,77.0,68.0,73.85,0.0,0.0,,,,,,1.0,,,,10.0,,KIGQ 140255Z AUTO 00000KT 10SM CLR 25/20 A3008 RMK AO2  T02500200,,,,,,68.0,,N,29.43,27.85,,Clear
KIGQ,07/14/2018 03:15 UTC,30.08,75.38,68.0,77.92,3.44,210.0,,,,,,1.0,,,,10.0,,KIGQ 140315Z AUTO 21003KT 10SM CLR 24/20 A3008 RMK AO2  T02410200,,,,,,67.99,,SSW,29.43,27.87,,Clear
KIGQ,07/14/2018 03:35 UTC,30.09,72.68,67.82,84.76,4.61,210.0,,,,,,1.0,,,,10.0,,KIGQ 140335Z AUTO 21004KT 10SM CLR 23/20 A3009 RMK AO2  T02260199,,,,,,67.81,,SSW,29.44,27.93,,Clear
KIGQ,07/14/2018 03:55 UTC,30.11,70.88,68.0,90.64,3.44,240.0,,,,,,1.0,,,,10.0,,KIGQ 140355Z AUTO 24003KT 10SM CLR 22/20 A3011 RMK AO2 LTG DSNT W  T02160200,,,,,,67.99,,WSW,29.46,27.97,,Clear
KIGQ,07/14/2018 04:15 UTC,30.11,74.66,68.9,82.31,5.75,250.0,,,,,,1.0,,,,10.0,,KIGQ 140415Z AUTO 25005KT 10SM CLR 24/21 A3011 RMK AO2  T02370205,,,,,,68.89,,WSW,29.46,27.85,,Clear
KIGQ,07/14/2018 04:35 UTC,30.11,74.48,68.9,82.81,5.75,220.0,,,,,,1.0,,,,10.0,,KIGQ 140435Z AUTO 22005KT 10SM CLR 24/21 A3011 RMK AO2  T02360205,,,,,,68.89,,SW,29.46,27.85,,Clear
KIGQ,07/14/2018 04:55 UTC,30.09,71.96,68.9,90.12,5.75,180.0,,,,,,1.0,,,,10.0,,KIGQ 140455Z AUTO 18005KT 10SM CLR 22/21 A3009 RMK AO2  T02220205,,,,,,68.89,,S,29.44,27.87,,Clear
KIGQ,07/14/2018 05:15 UTC,30.09,73.76,69.44,86.41,4.61,240.0,,,,,,1.0,,,,10.0,,KIGQ 140515Z AUTO 24004KT 10SM CLR 23/21 A3009 RMK AO2  T02320208,,,,,,69.43,,WSW,29.44,27.8,,Clear
KIGQ,07/14/2018 05:35 UTC,30.07,72.32,69.44,90.69,6.91,170.0,,,,,,1.0,,,,10.0,,KIGQ 140535Z AUTO 17006KT 10SM CLR 22/21 A3007 RMK AO2  T02240208,,,,,,69.43,,S,29.42,27.8,,Clear
KIGQ,07/14/2018 05:55 UTC,30.07,71.96,69.8,92.94,4.61,200.0,,,,,,1.0,,,,10.0,,KIGQ 140555Z AUTO 20004KT 10SM CLR 22/21 A3007 RMK AO2 T02220210  10292 20216 403110180,84.56,70.88,,87.98,64.4,69.8,,SSW,29.42,27.78,,Clear
KIGQ,07/14/2018 06:15 UTC,30.05,71.78,69.8,93.5,5.75,170.0,,,,,,1.0,,,,10.0,,KIGQ 140615Z AUTO 17005KT 10SM CLR 22/21 A3005 RMK AO2  T02210210,,,,,,69.79,,S,29.4,27.77,,Clear
KIGQ,07/14/2018 06:35 UTC,30.05,72.5,69.8,91.26,4.61,180.0,,,,,,1.0,,,,10.0,,KIGQ 140635Z AUTO 18004KT 10SM CLR 23/21 A3005 RMK AO2 LTG DSNT W  T02250210,,,,,,69.79,,S,29.4,27.75,,Clear
KIGQ,07/14/2018 06:55 UTC,30.04,72.68,69.8,90.71,3.44,210.0,,,,,,1.0,,,,10.0,,KIGQ 140655Z AUTO 21003KT 10SM CLR 23/21 A3004 RMK AO2  T02260210,,,,,,69.79,,SSW,29.39,27.74,,Clear
KIGQ,07/14/2018 07:15 UTC,30.05,72.68,69.8,90.71,0.0,0.0,,,,,,1.0,,,,10.0,,KIGQ 140715Z AUTO 00000KT 10SM CLR 23/21 A3005 RMK AO2  T02260210,,,,,,69.79,,N,29.4,27.75,,Clear
KIGQ,07/14/2018 07:35 UTC,30.04,73.4,69.8,88.54,0.0,0.0,,,,,,1.0,,,,10.0,,KIGQ 140735Z AUTO 00000KT 10SM CLR 23/21 A3004 RMK AO2  T02300210,,,,,,69.79,,N,29.39,27.73,,Clear
KIGQ,07/14/2018 07:55 UTC,30.04,73.4,69.8,88.54,3.44,240.0,,,,,,1.0,,,,10.0,,KIGQ 140755Z AUTO 24003KT 10SM CLR 23/21 A3004 RMK AO2  T02300210,,,,,,69.79,,WSW,29.39,27.73,,Clear
KIGQ,07/14/2018 08:15 UTC,30.05,73.4,69.98,89.08,4.61,240.0,,,,,,1.0,,,,10.0,,KIGQ 140815Z AUTO 24004KT 10SM CLR 23/21 A3005 RMK AO2  T02300211,,,,,,69.97,,WSW,29.4,27.73,,Clear
KIGQ,07/14/2018 08:35 UTC,30.04,73.22,69.8,89.08,3.44,270.0,,,,,,1.0,,,,10.0,,KIGQ 140835Z AUTO 27003KT 10SM CLR 23/21 A3004 RMK AO2  T02290210,,,,,,69.79,,W,29.39,27.73,,Clear
KIGQ,07/14/2018 08:55 UTC,30.05,73.04,69.8,89.62,5.75,260.0,,,,,,1.0,,,,10.0,,KIGQ 140855Z AUTO 26005KT 10SM CLR 23/21 A3005 RMK AO2  T02280210,,,,,,69.79,,W,29.4,27.75,,Clear
KIGQ,07/14/2018 09:15 UTC,30.05,73.04,69.98,90.17,4.61,270.0,,,,,,1.0,,,,10.0,,KIGQ 140915Z AUTO 27004KT 10SM CLR 23/21 A3005 RMK AO2  T02280211,,,,,,69.97,,W,29.4,27.73,,Clear
KIGQ,07/14/2018 09:35 UTC,30.05,73.4,69.98,89.08,3.44,290.0,,,,,,1.0,,,,10.0,,KIGQ 140935Z AUTO 29003KT 10SM CLR 23/21 A3005 RMK AO2  T02300211,,,,,,69.97,,WNW,29.4,27.73,,Clear
KIGQ,07/14/2018 09:55 UTC,30.04,72.86,69.98,90.71,0.0,0.0,,,,,,1102.0,,,,10.0,,KIGQ 140955Z AUTO 00000KT 10SM SCT110 23/21 A3004 RMK AO2  T02270211,,,,,,69.97,,N,29.39,27.73,,Partly Cloudy
KIGQ,07/14/2018 10:15 UTC,30.05,72.68,70.52,92.96,0.0,0.0,,,,,,1103.0,,,,10.0,,KIGQ 141015Z AUTO 00000KT 10SM BKN110 23/21 A3005 RMK AO2  T02260214,,,11000.0,,,70.52,,N,29.4,27.7,,Mostly Cloudy
KIGQ,07/14/2018 10:35 UTC,30.06,72.32,70.34,93.52,3.44,200.0,,,,,,1102.0,,,,10.0,,KIGQ 141035Z AUTO 20003KT 10SM SCT110 22/21 A3006 RMK AO2 LTG DSNT  SW T02240213,,,,,,70.34,,SSW,29.41,27.73,,Partly Cloudy
KIGQ,07/14/2018 10:55 UTC,30.07,72.86,70.16,91.27,0.0,0.0,,,,,,1102.0,,,,10.0,,KIGQ 141055Z AUTO 00000KT 10SM SCT110 23/21 A3007 RMK AO2  T02270212,,,,,,70.15,,N,29.42,27.74,,Partly Cloudy
KIGQ,07/14/2018 11:15 UTC,30.07,73.4,70.52,90.73,0.0,0.0,,13.0,,,,802.0,1103.0,,,10.0,,KIGQ 141115Z AUTO 00000KT 10SM -RA SCT080 BKN110 23/21 A3007 RMK AO2 T02300214,,,11000.0,,,70.51,,N,29.42,27.71,,Light Rain
KIGQ,07/14/2018 11:35 UTC,30.07,72.5,70.88,94.67,0.0,0.0,,13.0,,,,802.0,1102.0,,,10.0,,KIGQ 141135Z AUTO 00000KT 10SM -RA SCT080 SCT110 23/22 A3007 RMK AO2 T02250216,,,,,,70.88,,N,29.42,27.7,,Light Rain
KIGQ,07/14/2018 11:55 UTC,30.09,73.4,70.7,91.29,9.22,300.0,,13.0,1102.0,,,432.0,852.0,,,10.0,,KIGQ 141155Z AUTO 30008KT 10SM -RA SCT043 SCT085 SCT110 23/22  A3009 RMK AO2 T02300215 10231 20221,73.58,71.78,,,,70.69,,WNW,29.44,27.72,,Light Rain
KIGQ,07/14/2018 12:15 UTC,30.09,72.86,70.52,92.4,9.22,320.0,,13.0,1103.0,,,432.0,602.0,,,10.0,,KIGQ 141215Z AUTO 32008KT 10SM -RA SCT043 SCT060 BKN110 23/21  A3009 RMK AO2 LTG DSNT SW T02270214,,,11000.0,,,70.52,,NW,29.44,27.74,,Light Rain
KIGQ,07/14/2018 12:35 UTC,30.09,73.4,71.06,92.41,3.44,300.0,,13.0,653.0,,,352.0,503.0,,,10.0,,KIGQ 141235Z AUTO 30003KT 10SM -RA SCT035 BKN050 BKN065 23/22  A3009 RMK AO2 LTG DSNT SW T02300217,,,5000.0,,,71.05,,WNW,29.44,27.69,,Light Rain
KIGQ,07/14/2018 12:55 UTC,30.09,73.4,71.42,93.55,5.75,310.0,,17.0,1103.0,,,362.0,502.0,,,10.0,,KIGQ 141255Z AUTO 31005KT 10SM -DZ SCT036 SCT050 BKN110 23/22  A3009 RMK AO2 T02300219,,,11000.0,,,71.42,,NW,29.44,27.66,,Light Drizzle
KIGQ,07/14/2018 13:15 UTC,30.1,73.58,70.88,91.3,4.61,290.0,,13.0,,,,302.0,1004.0,,,10.0,,KIGQ 141315Z AUTO 29004KT 10SM -RA SCT030 OVC100 23/22 A3010 RMK AO2 LTG DSNT SW T02310216,,,10000.0,,,70.88,,WNW,29.45,27.71,,Light Rain
KIGQ,07/14/2018 13:35 UTC,30.09,72.86,71.6,95.84,0.0,0.0,,,904.0,0.03,,332.0,482.0,,,4.0,,KIGQ 141335Z AUTO 00000KT 4SM /VCTSRA SCT033 SCT048 OVC090 23/22  A3009 RMK AO2 LTG DSNT SW P0003 T02270220,,,9000.0,,,71.6,,N,29.44,27.66,,Overcast
KIGQ,07/14/2018 13:55 UTC,30.09,71.78,71.6,99.39,0.0,0.0,,1.0,704.0,0.14,,362.0,503.0,,,2.0,,KIGQ 141355Z AUTO 00000KT 2SM RA SCT036 BKN050 OVC070 22/22 A3009 RMK AO2 LTG DSNT SW P0014 T02210220,,,5000.0,,,71.6,,N,29.44,27.67,,Rain
KIGQ,07/14/2018 14:15 UTC,30.07,71.78,71.78,100.0,0.0,0.0,,13.0,904.0,,,412.0,703.0,,,10.0,,KIGQ 141415Z AUTO 00000KT 10SM -RA SCT041 BKN070 OVC090 22/22  A3007 RMK AO2 LTG DSNT SW T02210221,,,7000.0,,,71.78,,N,29.42,27.64,,Light Rain
KIGQ,07/14/2018 14:35 UTC,30.06,71.96,71.96,100.0,3.44,110.0,,1.0,904.0,,,402.0,602.0,,,7.0,,KIGQ 141435Z AUTO 11003KT 7SM RA SCT040 SCT060 OVC090 22/22 A3006 RMK AO2 LTG DSNT SW T02220222,,,9000.0,,,71.96,,ESE,29.41,27.61,,Rain
KIGQ,07/14/2018 14:55 UTC,30.08,72.5,72.5,100.0,0.0,0.0,,13.0,904.0,,0.14,362.0,653.0,,,10.0,,KIGQ 141455Z AUTO 00000KT 10SM -RA SCT036 BKN065 OVC090 23/23  A3008 RMK AO2 LTG DSNT SW 60014 T02250225,,,6500.0,,,72.5,,N,29.43,27.58,,Light Rain
KIGQ,07/14/2018 15:15 UTC,30.08,72.86,72.68,99.4,0.0,0.0,,13.0,1104.0,,,402.0,702.0,,,10.0,,KIGQ 141515Z AUTO 00000KT 10SM -RA SCT040 SCT070 OVC110 23/23  A3008 RMK AO2 LTG DSNT S AND SW T02270226,,,11000.0,,,72.68,,N,29.43,27.56,,Light Rain
KIGQ,07/14/2018 15:35 UTC,30.1,72.86,72.5,98.8,0.0,0.0,,13.0,1004.0,,,402.0,502.0,,,10.0,,KIGQ 141535Z AUTO 00000KT 10SM -RA SCT040 SCT050 OVC100 23/23  A3010 RMK AO2 LTG DSNT S AND SW T02270225,,,10000.0,,,72.5,,N,29.45,27.6,,Light Rain
KIGQ,07/14/2018 15:55 UTC,30.11,73.22,72.68,98.2,0.0,0.0,,,1204.0,,,442.0,1003.0,,,10.0,,KIGQ 141555Z AUTO 00000KT 10SM SCT044 BKN100 OVC120 23/23 A3011 RMK AO2 LTG DSNT SW T02290226,,,10000.0,,,72.68,,N,29.46,27.59,,Overcast
KIGQ,07/14/2018 16:15 UTC,30.12,73.22,73.22,100.0,4.61,180.0,,13.0,1204.0,,,342.0,1003.0,,,7.0,,KIGQ 141615Z AUTO 18004KT 7SM -RA SCT034 BKN100 OVC120 23/23 A3012 RMK AO2 LTG DSNT SW T02290229,,,10000.0,,,73.22,,S,29.47,27.55,,Light Rain
KIGQ,07/14/2018 16:35 UTC,30.11,72.86,72.86,100.0,3.44,160.0,,,,,,902.0,,,,10.0,,KIGQ 141635Z AUTO 16003KT 10SM SCT090 23/23 A3011 RMK AO2 LTG DSNT  SW T02270227,,,,,,72.86,,SSE,29.46,27.58,,Partly Cloudy
KIGQ,07/14/2018 16:55 UTC,30.1,73.4,72.86,98.2,4.61,160.0,,13.0,412.0,,,122.0,312.0,,,10.0,,KIGQ 141655Z AUTO 16004KT 10SM -RA SCT012 SCT031 SCT041 23/23  A3010 RMK AO2 LTG DSNT SW T02300227,,,,,,72.86,,SSE,29.45,27.56,,Light Rain
KIGQ,07/14/2018 17:15 UTC,30.1,73.76,72.68,96.44,0.0,0.0,,13.0,332.0,,,112.0,282.0,,,10.0,,KIGQ 141715Z AUTO 00000KT 10SM -RA SCT011 SCT028 SCT033 23/23  A3010 RMK AO2 LTG DSNT S T02320226,,,,,,72.68,,N,29.45,27.57,,Light Rain
KIGQ,07/14/2018 17:35 UTC,30.08,73.94,72.32,94.7,0.0,0.0,,,,,,112.0,,,,10.0,,KIGQ 141735Z AUTO 00000KT 10SM SCT011 23/22 A3008 RMK AO2  T02330224,,,,,,72.32,,N,29.43,27.57,,Partly Cloudy
KIGQ,07/14/2018 17:55 UTC,30.06,74.48,73.04,95.29,6.91,100.0,,,,,,1.0,,0.14,,10.0,,KIGQ 141755Z AUTO 10006KT 10SM CLR 24/23 A3006 RMK AO2 60014  T02360228 10236 20219,74.48,71.42,,,,73.04,,E,29.41,27.49,,Clear
KIGQ,07/14/2018 18:15 UTC,30.07,74.48,72.32,93.01,0.0,0.0,,,,,,1.0,,,,10.0,,KIGQ 141815Z AUTO 00000KT 10SM CLR 24/22 A3007 RMK AO2  T02360224,,,,,,72.32,,N,29.42,27.55,,Clear
KIGQ,07/14/2018 18:35 UTC,30.08,75.02,71.96,90.25,0.0,0.0,,,,,,1.0,,,,10.0,,KIGQ 141835Z AUTO 00000KT 10SM CLR 24/22 A3008 RMK AO2  T02390222,,,,,,71.96,,N,29.43,27.58,,Clear
KIGQ,07/14/2018 18:55 UTC,30.08,75.92,72.86,90.28,0.0,0.0,,,,,,1.0,,,,10.0,,KIGQ 141855Z AUTO 00000KT 10SM CLR 24/23 A3008 RMK AO2  T02440227,,,,,,72.86,,N,29.43,27.5,,Clear
KIGQ,07/14/2018 19:15 UTC,30.06,76.46,72.68,88.14,4.61,140.0,,,,,,1002.0,,,,10.0,,KIGQ 141915Z AUTO 14004KT 10SM SCT100 25/23 A3006 RMK AO2  T02470226,,,,,,72.68,,SE,29.41,27.49,,Partly Cloudy
KIGQ,07/14/2018 19:35 UTC,30.06,76.82,71.96,85.01,0.0,0.0,,,,,,1002.0,,,,10.0,,KIGQ 141935Z AUTO 00000KT 10SM SCT100 25/22 A3006 RMK AO2  T02490222,,,,,,71.96,,N,29.41,27.54,,Partly Cloudy
KIGQ,07/14/2018 19:55 UTC,30.05,78.44,73.58,85.11,4.61,100.0,,,,,,1.0,,,,10.0,,KIGQ 141955Z AUTO 10004KT 10SM CLR 26/23 A3005 RMK AO2  T02580231,,,,,,73.58,,E,29.4,27.37,,Clear
KIGQ,07/14/2018 20:15 UTC,30.04,79.16,72.86,81.13,3.44,70.0,,,,,,1.0,,,,10.0,,KIGQ 142015Z AUTO 07003KT 10SM CLR 26/23 A3004 RMK AO2  T02620227,,,,,,72.86,,ENE,29.39,27.41,,Clear
KIGQ,07/14/2018 20:35 UTC,30.04,79.7,72.86,79.71,3.44,100.0,,,,,,1.0,,,,10.0,,KIGQ 142035Z AUTO 10003KT 10SM CLR 27/23 A3004 RMK AO2  T02650227,,,,,,72.87,,E,29.39,27.4,,Clear
KIGQ,07/14/2018 20:55 UTC,30.03,80.96,73.76,78.85,5.75,120.0,,,,,,1.0,,,,10.0,,KIGQ 142055Z AUTO 12005KT 10SM CLR 27/23 A3003 RMK AO2  T02720232,,,,,,73.77,,ESE,29.38,27.3,86.12,Clear
KIGQ,07/14/2018 21:15 UTC,30.02,81.5,73.4,76.55,4.61,120.0,,,,,,1.0,,,,10.0,,KIGQ 142115Z AUTO 12004KT 10SM CLR 28/23 A3002 RMK AO2  T02750230,,,,,,73.41,,ESE,29.37,27.31,86.84,Clear
KIGQ,07/14/2018 21:35 UTC,30.01,82.22,72.5,72.56,4.61,110.0,,,,,,1.0,,,,10.0,,KIGQ 142135Z AUTO 11004KT 10SM CLR 28/23 A3001 RMK AO2  T02790225,,,,,,72.52,,ESE,29.36,27.37,87.45,Clear
KIGQ,07/14/2018 21:55 UTC,30.0,81.86,71.78,71.65,5.75,190.0,,,,,,1.0,,,,10.0,,KIGQ 142155Z AUTO 19005KT 10SM CLR 28/22 A3000 RMK AO2  T02770221,,,,,,71.8,,S,29.35,27.42,86.53,Clear
KIGQ,07/14/2018 22:15 UTC,29.99,82.58,71.96,70.43,0.0,0.0,,,,,,1.0,,,,10.0,,KIGQ 142215Z AUTO 00000KT 10SM CLR 28/22 A2999 RMK AO2  T02810222,,,,,,71.99,,N,29.34,27.39,87.66,Clear
KIGQ,07/14/2018 22:35 UTC,29.99,82.76,72.32,70.88,3.44,100.0,,,,,,1.0,,,,10.0,,KIGQ 142235Z AUTO 10003KT 10SM CLR 28/22 A2999 RMK AO2  T02820224,,,,,,72.35,,E,29.34,27.35,88.13,Clear
KIGQ,07/14/2018 22:55 UTC,29.99,81.86,71.78,71.65,0.0,0.0,,,,,,1.0,,,,10.0,,KIGQ 142255Z AUTO 00000KT 10SM CLR 28/22 A2999 RMK AO2  T02770221,,,,,,71.8,,N,29.34,27.41,86.53,Clear
KIGQ,07/14/2018 23:15 UTC,30.0,81.14,72.32,74.69,8.05,220.0,,,,,,1.0,,,,10.0,,KIGQ 142315Z AUTO 22007KT 10SM CLR 27/22 A3000 RMK AO2  T02730224,,,,,,72.33,,SW,29.35,27.39,85.72,Clear
KIGQ,07/14/2018 23:35 UTC,30.01,79.88,72.86,79.25,6.91,210.0,,,,,,1.0,,,,10.0,,KIGQ 142335Z AUTO 21006KT 10SM CLR 27/23 A3001 RMK AO2  T02660227,,,,,,72.87,,SSW,29.36,27.37,,Clear
KIGQ,07/14/2018 23:55 UTC,30.01,79.34,72.68,80.17,6.91,210.0,,,,,,1.0,,,,10.0,,KIGQ 142355Z AUTO 21006KT 10SM CLR 26/23 A3001 RMK AO2 LTG DSNT SW  T02630226 10284 20235,83.12,74.3,,,,72.69,,SSW,29.36,27.39,,Clear
KIGQ,07/15/2018 00:15 UTC,30.03,78.8,73.4,83.6,4.61,200.0,,,,,,1.0,,,,10.0,,KIGQ 150015Z AUTO 20004KT 10SM CLR 26/23 A3003 RMK AO2 LTG DSNT SW  T02600230,,,,,,73.4,,SSW,29.38,27.36,,Clear
KIGQ,07/15/2018 00:35 UTC,30.03,78.08,73.58,86.12,4.61,200.0,,,,,,1.0,,,,10.0,,KIGQ 150035Z AUTO 20004KT 10SM CLR 26/23 A3003 RMK AO2  T02560231,,,,,,73.58,,SSW,29.38,27.36,,Clear
KIGQ,07/15/2018 00:55 UTC,30.02,77.54,74.12,89.26,0.0,0.0,,,,,,1.0,,,,10.0,,KIGQ 150055Z AUTO 00000KT 10SM CLR 25/23 A3002 RMK AO2  T02530234,,,,,,74.12,,N,29.37,27.31,,Clear
KIGQ,07/15/2018 01:15 UTC,30.02,77.54,74.12,89.26,0.0,0.0,,,,,,1.0,,,,10.0,,KIGQ 150115Z AUTO 00000KT 10SM CLR 25/23 A3002 RMK AO2  T02530234,,,,,,74.12,,N,29.37,27.31,,Clear
KIGQ,07/15/2018 01:35 UTC,30.02,77.36,73.58,88.19,0.0,0.0,,,,,,1.0,,,,10.0,,KIGQ 150135Z AUTO 00000KT 10SM CLR 25/23 A3002 RMK AO2  T02520231,,,,,,73.58,,N,29.37,27.36,,Clear
KIGQ,07/15/2018 01:55 UTC,30.03,76.28,73.4,90.84,0.0,0.0,,,,,,292.0,,,,7.0,,KIGQ 150155Z AUTO 00000KT 7SM SCT029 25/23 A3003 RMK AO2  T02460230,,,,,,73.4,,N,29.38,27.4,,Partly Cloudy
KIGQ,07/15/2018 02:15 UTC,30.04,76.1,73.4,91.39,3.44,30.0,,,,,,293.0,,,,10.0,,KIGQ 150215Z AUTO 03003KT 10SM BKN029 25/23 A3004 RMK AO2  T02450230,,,2900.0,,,73.4,,NNE,29.39,27.41,,Mostly Cloudy
KIGQ,07/15/2018 02:35 UTC,30.03,75.38,73.4,93.6,0.0,0.0,,,,,,312.0,552.0,,,10.0,,KIGQ 150235Z AUTO 00000KT 10SM SCT031 SCT055 24/23 A3003 RMK AO2  T02410230,,,,,,73.4,,N,29.38,27.41,,Partly Cloudy
KIGQ,07/15/2018 02:55 UTC,30.03,75.02,73.04,93.59,0.0,0.0,,,,,,1.0,,,,10.0,,KIGQ 150255Z AUTO 00000KT 10SM CLR 24/23 A3003 RMK AO2  T02390228,,,,,,73.04,,N,29.38,27.45,,Clear
KIGQ,07/15/2018 03:15 UTC,30.02,74.66,73.4,95.87,3.44,120.0,,,,,,282.0,362.0,,,10.0,,KIGQ 150315Z AUTO 12003KT 10SM SCT028 SCT036 24/23 A3002 RMK AO2  T02370230,,,,,,73.4,,ESE,29.37,27.41,,Partly Cloudy
KIGQ,07/15/2018 03:35 UTC,30.02,73.94,73.4,98.21,0.0,0.0,,,,,,282.0,382.0,,,10.0,,KIGQ 150335Z AUTO 00000KT 10SM SCT028 SCT038 23/23 A3002 RMK AO2  T02330230,,,,,,73.4,,N,29.37,27.42,,Partly Cloudy
KIGQ,07/15/2018 03:55 UTC,30.02,74.3,73.58,97.62,0.0,0.0,,,,,,302.0,382.0,,,10.0,,KIGQ 150355Z AUTO 00000KT 10SM SCT030 SCT038 24/23 A3002 RMK AO2  T02350231,,,,,,73.58,,N,29.37,27.4,,Partly Cloudy
KIGQ,07/15/2018 04:15 UTC,30.02,75.2,73.58,94.73,0.0,0.0,,,,,,283.0,384.0,,,10.0,,KIGQ 150415Z AUTO 00000KT 10SM BKN028 OVC038 24/23 A3002 RMK AO2  T02400231,,,2800.0,,,73.58,,N,29.37,27.39,,Overcast
KIGQ,07/15/2018 04:35 UTC,30.02,75.74,73.58,93.04,0.0,0.0,,,,,,263.0,404.0,,,10.0,,KIGQ 150435Z AUTO 00000KT 10SM BKN026 OVC040 24/23 A3002 RMK AO2  T02430231,,,2600.0,,,73.58,,N,29.37,27.38,,Overcast
KIGQ,07/15/2018 04:55 UTC,30.01,74.48,73.58,97.03,0.0,0.0,,,,,,262.0,,,,7.0,,KIGQ 150455Z AUTO 00000KT 7SM SCT026 24/23 A3001 RMK AO2  T02360231,,,,,,73.58,,N,29.36,27.39,,Partly Cloudy
KIGQ,07/15/2018 05:15 UTC,30.01,73.58,73.04,98.2,0.0,0.0,,,,,,1.0,,,,10.0,,KIGQ 150515Z AUTO 00000KT 10SM CLR 23/23 A3001 RMK AO2  T02310228,,,,,,73.04,,N,29.36,27.45,,Clear
KIGQ,07/15/2018 05:35 UTC,30.01,71.96,71.96,100.0,0.0,0.0,,,,,,1.0,,,,10.0,,KIGQ 150535Z AUTO 00000KT 10SM CLR 22/22 A3001 RMK AO2  T02220222,,,,,,71.96,,N,29.36,27.56,,Clear
KIGQ,07/15/2018 05:55 UTC,30.01,72.86,72.68,99.4,0.0,0.0,,,,,,1.0,,,,10.0,,KIGQ 150555Z AUTO 00000KT 10SM CLR 23/23 A3001 RMK AO2 T02270226  10263 20220 402840219,79.34,71.6,,83.12,71.42,72.68,,N,29.36,27.49,,Clear
KIGQ,07/15/2018 06:15 UTC,30.0,73.04,72.14,97.02,0.0,0.0,,,,,,1.0,,,,10.0,,KIGQ 150615Z AUTO 00000KT 10SM CLR 23/22 A3000 RMK AO2  T02280223,,,,,,72.14,,N,29.35,27.52,,Clear
KIGQ,07/15/2018 06:35 UTC,30.0,73.04,71.96,96.43,0.0,0.0,,,,,,1.0,,,,10.0,,KIGQ 150635Z AUTO 00000KT 10SM CLR 23/22 A3000 RMK AO2  T02280222,,,,,,71.96,,N,29.35,27.53,,Clear
KIGQ,07/15/2018 06:55 UTC,30.01,72.5,72.14,98.79,0.0,0.0,,,,,,1.0,,,,10.0,,KIGQ 150655Z AUTO 00000KT 10SM CLR 23/22 A3001 RMK AO2  T02250223,,,,,,72.14,,N,29.36,27.54,,Clear
KIGQ,07/15/2018 07:15 UTC,30.01,71.96,71.6,98.79,4.61,230.0,,,,,,752.0,,,,10.0,,KIGQ 150715Z AUTO 23004KT 10SM SCT075 22/22 A3001 RMK AO2  T02220220,,,,,,71.6,,SW,29.36,27.59,,Partly Cloudy
KIGQ,07/15/2018 07:35 UTC,30.01,70.88,70.88,100.0,0.0,0.0,,,,,,752.0,,,,10.0,,KIGQ 150735Z AUTO 00000KT 10SM SCT075 22/22 A3001 RMK AO2  T02160216,,,,,,70.88,,N,29.36,27.66,,Partly Cloudy
KIGQ,07/15/2018 07:55 UTC,30.01,71.78,71.6,99.39,0.0,0.0,,,,,,753.0,,,,10.0,,KIGQ 150755Z AUTO 00000KT 10SM BKN075 22/22 A3001 RMK AO2  T02210220,,,7500.0,,,71.6,,N,29.36,27.59,,Mostly Cloudy
KIGQ,07/15/2018 08:15 UTC,30.03,71.96,71.6,98.79,3.44,290.0,,,,,,753.0,,,,10.0,,KIGQ 150815Z AUTO 29003KT 10SM BKN075 22/22 A3003 RMK AO2  T02220220,,,7500.0,,,71.6,,WNW,29.38,27.61,,Mostly Cloudy
KIGQ,07/15/2018 08:35 UTC,30.03,71.24,70.7,98.19,0.0,0.0,,,,,,853.0,,,,10.0,,KIGQ 150835Z AUTO 00000KT 10SM BKN085 22/22 A3003 RMK AO2  T02180215,,,8500.0,,,70.7,,N,29.38,27.69,,Mostly Cloudy
KIGQ,07/15/2018 08:55 UTC,30.02,70.88,70.88,100.0,0.0,0.0,,,,,,552.0,853.0,,,10.0,,KIGQ 150855Z AUTO 00000KT 10SM SCT055 BKN085 22/22 A3002 RMK AO2  T02160216,,,8500.0,,,70.88,,N,29.37,27.67,,Mostly Cloudy
KIGQ,07/15/2018 09:15 UTC,30.02,71.06,70.88,99.39,0.0,0.0,,,854.0,,,492.0,553.0,,,10.0,,KIGQ 150915Z AUTO 00000KT 10SM SCT049 BKN055 OVC085 22/22 A3002 RMK AO2 T02170216,,,5500.0,,,70.88,,N,29.37,27.67,,Overcast
KIGQ,07/15/2018 09:35 UTC,30.01,70.7,70.7,100.0,0.0,0.0,,,,,,492.0,552.0,,,10.0,,KIGQ 150935Z AUTO 00000KT 10SM SCT049 SCT055 22/22 A3001 RMK AO2  LTG DSNT NE T02150215,,,,,,70.7,,N,29.36,27.67,,Partly Cloudy
KIGQ,07/15/2018 09:55 UTC,30.01,70.52,70.52,100.0,0.0,0.0,,,,,,1.0,,,,7.0,,KIGQ 150955Z AUTO 00000KT 7SM CLR 21/21 A3001 RMK AO2 LTG DSNT NE  T02140214,,,,,,70.52,,N,29.36,27.69,,Clear
KIGQ,07/15/2018 10:15 UTC,30.01,70.7,70.7,100.0,0.0,0.0,,,,,,1.0,,,,10.0,,KIGQ 151015Z AUTO 00000KT 10SM CLR 22/22 A3001 RMK AO2 LTG DSNT NE  T02150215,,,,,,70.7,,N,29.36,27.67,,Clear
KIGQ,07/15/2018 10:35 UTC,30.01,70.34,70.34,100.0,0.0,0.0,,,,,,1.0,,,,10.0,,KIGQ 151035Z AUTO 00000KT 10SM CLR 21/21 A3001 RMK AO2 LTG DSNT NE  T02130213,,,,,,70.34,,N,29.36,27.71,,Clear
KIGQ,07/15/2018 10:55 UTC,30.01,69.8,69.8,100.0,0.0,0.0,,,,,,1.0,,,,10.0,,KIGQ 151055Z AUTO 00000KT 10SM CLR 21/21 A3001 RMK AO2  T02100210,,,,,,69.8,,N,29.36,27.75,,Clear
KIGQ,07/15/2018 11:15 UTC,30.02,70.34,70.34,100.0,0.0,0.0,,,,,,1.0,,,,10.0,,KIGQ 151115Z AUTO 00000KT 10SM CLR 21/21 A3002 RMK AO2  T02130213,,,,,,70.34,,N,29.37,27.72,,Clear
KIGQ,07/15/2018 11:35 UTC,30.02,70.34,70.34,100.0,0.0,0.0,,,,,,1102.0,,,,10.0,,KIGQ 151135Z AUTO 00000KT 10SM SCT110 21/21 A3002 RMK AO2  T02130213,,,,,,70.34,,N,29.37,27.72,,Partly Cloudy
KIGQ,07/15/2018 11:55 UTC,30.02,71.6,71.6,100.0,3.44,130.0,,,,,,1.0,,,0.14,10.0,,KIGQ 151155Z AUTO 13003KT 10SM CLR 22/22 A3002 RMK AO2 70014  T02200220 10229 20207,73.22,69.26,,,,71.6,,SE,29.37,27.6,,Clear
KIGQ,07/15/2018 12:15 UTC,30.02,73.76,72.5,95.86,3.44,110.0,,,,,,653.0,803.0,,,10.0,,KIGQ 151215Z AUTO 11003KT 10SM BKN065 BKN080 23/23 A3002 RMK AO2  T02320225,,,6500.0,,,72.5,,ESE,29.37,27.5,,Mostly Cloudy
KIGQ,07/15/2018 12:35 UTC,30.01,75.2,72.86,92.47,5.75,120.0,,,,,,654.0,,,,10.0,,KIGQ 151235Z AUTO 12005KT 10SM OVC065 24/23 A3001 RMK AO2  T02400227,,,6500.0,,,72.86,,ESE,29.36,27.44,,Overcast
KIGQ,07/15/2018 12:55 UTC,30.01,76.82,73.4,89.23,4.61,160.0,,,,,,22.0,553.0,,,10.0,,KIGQ 151255Z AUTO 16004KT 10SM SCT002 BKN055 25/23 A3001 RMK AO2  T02490230,,,5500.0,,,73.4,,SSE,29.36,27.37,,Mostly Cloudy
KIGQ,07/15/2018 13:15 UTC,30.01,77.18,72.86,86.59,6.91,140.0,,,,,,22.0,502.0,,,10.0,,KIGQ 151315Z AUTO 14006KT 10SM SCT002 SCT050 25/23 A3001 RMK AO2  T02510227,,,,,,72.86,,SE,29.36,27.41,,Partly Cloudy
KIGQ,07/15/2018 13:35 UTC,30.01,77.9,73.58,86.63,3.44,120.0,,,,,,22.0,,,,10.0,,KIGQ 151335Z AUTO 12003KT 10SM SCT002 26/23 A3001 RMK AO2  T02550231,,,,,,73.58,,ESE,29.36,27.34,,Partly Cloudy
KIGQ,07/15/2018 13:55 UTC,30.0,79.34,74.48,85.16,3.44,140.0,,,,,,22.0,,,,10.0,,KIGQ 151355Z AUTO 14003KT 10SM SCT002 26/24 A3000 RMK AO2  T02630236,,,,,,74.49,,SE,29.35,27.23,,Partly Cloudy
KIGQ,07/15/2018 14:15 UTC,30.0,80.42,74.84,83.2,5.75,150.0,,,,,,1.0,,,,10.0,,KIGQ 151415Z AUTO 15005KT 10SM CLR 27/24 A3000 RMK AO2  T02690238,,,,,,74.85,,SSE,29.35,27.18,85.65,Clear
KIGQ,07/15/2018 14:35 UTC,29.99,80.6,74.84,82.71,6.91,190.0,,,,,,1.0,,,,10.0,,KIGQ 151435Z AUTO 19006KT 10SM CLR 27/24 A2999 RMK AO2  T02700238,,,,,,74.85,,S,29.34,27.17,86.0,Clear
KIGQ,07/15/2018 14:55 UTC,29.99,81.14,75.2,82.26,5.75,210.0,,,,,,1.0,,,,10.0,,KIGQ 151455Z AUTO 21005KT 10SM CLR 27/24 A2999 RMK AO2  T02730240,,,,,,75.21,,SSW,29.34,27.13,87.21,Clear
KIGQ,07/15/2018 15:15 UTC,29.99,81.68,74.66,79.39,3.44,190.0,,,,,,1.0,,,,10.0,,KIGQ 151515Z AUTO 19003KT 10SM CLR 28/24 A2999 RMK AO2  T02760237,,,,,,74.68,,S,29.34,27.17,87.88,Clear
KIGQ,07/15/2018 15:35 UTC,29.99,82.58,72.86,72.6,5.75,230.0,,,,,,222.0,852.0,,,10.0,,KIGQ 151535Z AUTO 23005KT 10SM SCT022 SCT085 28/23 A2999 RMK AO2  T02810227,,,,,,72.88,,SW,29.34,27.31,88.21,Partly Cloudy
KIGQ,07/15/2018 15:55 UTC,29.99,82.76,73.58,73.94,3.44,190.0,,,,,,853.0,,,,10.0,,KIGQ 151555Z AUTO 19003KT 10SM BKN085 28/23 A2999 RMK AO2  T02820231,,,8500.0,,,73.6,,S,29.34,27.25,88.95,Mostly Cloudy
KIGQ,07/15/2018 16:15 UTC,29.99,84.02,74.12,72.3,0.0,0.0,,,,,,852.0,,,,10.0,,KIGQ 151615Z AUTO 00000KT 10SM SCT085 29/23 A2999 RMK AO2  T02890234,,,,,,74.15,,N,29.34,27.18,91.28,Partly Cloudy
KIGQ,07/15/2018 16:35 UTC,29.99,85.28,75.56,72.86,8.05,160.0,,,853.0,,,292.0,352.0,,,10.0,,KIGQ 151635Z AUTO 16007KT 10SM SCT029 SCT035 BKN085 30/24 A2999 RMK AO2 T02960242,,,8500.0,,,75.6,,SSE,29.34,27.04,94.51,Mostly Cloudy
KIGQ,07/15/2018 16:55 UTC,29.99,84.38,74.12,71.47,5.75,210.0,,,853.0,,,292.0,352.0,,,10.0,,KIGQ 151655Z AUTO 21005KT 10SM SCT029 SCT035 BKN085 29/23 A2999 RMK AO2 T02910234,,,8500.0,,,74.15,,SSW,29.34,27.18,91.82,Mostly Cloudy
KIGQ,07/15/2018 17:15 UTC,29.99,85.46,74.12,69.05,6.91,190.0,,,,,,312.0,852.0,,,10.0,,KIGQ 151715Z AUTO 19006KT 10SM SCT031 SCT085 30/23 A2999 RMK AO2  T02970234,,,,,,74.16,,S,29.34,27.16,93.39,Partly Cloudy
KIGQ,07/15/2018 17:35 UTC,29.99,86.0,74.66,69.1,6.91,200.0,,,,,,853.0,,,,10.0,,KIGQ 151735Z AUTO 20006KT 10SM BKN085 30/24 A2999 RMK AO2  T03000237,,,8500.0,,,74.7,,SSW,29.34,27.11,94.68,Mostly Cloudy
KIGQ,07/15/2018 17:55 UTC,29.99,86.9,73.58,64.77,5.75,190.0,,,,,,854.0,,,,10.0,,KIGQ 151755Z AUTO 19005KT 10SM OVC085 31/23 A2999 RMK AO2 LTG DSNT  SW T03050231 10305 20221,86.9,71.78,8500.0,,,73.64,,S,29.34,27.19,94.88,Overcast
KIGQ,07/15/2018 18:15 UTC,29.99,85.46,74.12,69.05,6.91,180.0,,,,,,852.0,,,,10.0,,KIGQ 151815Z AUTO 18006KT 10SM SCT085 30/23 A2999 RMK AO2  T02970234,,,,,,74.16,,S,29.34,27.16,93.39,Partly Cloudy
KIGQ,07/15/2018 18:35 UTC,29.98,86.54,73.22,64.73,4.61,210.0,,,852.0,,,342.0,452.0,,,10.0,,KIGQ 151835Z AUTO 21004KT 10SM SCT034 SCT045 SCT085 30/23 A2998 RMK AO2 T03030229,,,,,,73.27,,SSW,29.33,27.22,94.06,Partly Cloudy
KIGQ,07/15/2018 18:55 UTC,29.98,87.44,72.86,62.15,5.75,230.0,,,,,,392.0,492.0,,,10.0,,KIGQ 151855Z AUTO 23005KT 10SM SCT039 SCT049 31/23 A2998 RMK AO2  T03080227,,,,,,72.92,,SW,29.33,27.24,94.91,Partly Cloudy
KIGQ,07/15/2018 19:15 UTC,29.98,87.44,73.76,64.06,6.91,190.0,,,492.0,,,392.0,462.0,,,10.0,,KIGQ 151915Z AUTO 19006KT 10SM SCT039 SCT046 SCT049 31/23 A2998 RMK AO2 T03080232,,,,,,73.82,,S,29.33,27.16,95.79,Partly Cloudy
KIGQ,07/15/2018 19:35 UTC,29.97,87.62,74.66,65.64,6.91,180.0,,,,,,393.0,443.0,,,10.0,,KIGQ 151935Z AUTO 18006KT 10SM BKN039 BKN044 31/24 A2997 RMK AO2  T03090237,,,3900.0,,,74.72,,S,29.32,27.07,96.97,Mostly Cloudy
KIGQ,07/15/2018 19:55 UTC,29.96,87.44,73.04,62.53,5.75,180.0,,,,,,392.0,,,,10.0,,KIGQ 151955Z AUTO 18005KT 10SM SCT039 31/23 A2996 RMK AO2  T03080228,,,,,,73.1,,S,29.31,27.2,95.08,Partly Cloudy
KIGQ,07/15/2018 20:15 UTC,29.96,87.8,73.76,63.34,6.91,190.0,,,,,,412.0,502.0,,,10.0,,KIGQ 152015Z AUTO 19006KT 10SM SCT041 SCT050 31/23 A2996 RMK AO2  T03100232,,,,,,73.83,,S,29.31,27.13,96.27,Partly Cloudy
KIGQ,07/15/2018 20:35 UTC,29.95,87.8,73.58,62.95,6.91,220.0,,,,,,412.0,,,,10.0,,KIGQ 152035Z AUTO 22006KT 10SM SCT041 31/23 A2995 RMK AO2  T03100231,,,,,,73.64,,SW,29.3,27.14,96.09,Partly Cloudy
KIGQ,07/15/2018 20:55 UTC,29.95,86.36,73.22,65.1,5.75,210.0,,,,,,1.0,,,,10.0,,KIGQ 152055Z AUTO 21005KT 10SM CLR 30/23 A2995 RMK AO2  T03020229,,,,,,73.27,,SSW,29.3,27.19,93.81,Clear
KIGQ,07/15/2018 21:15 UTC,29.94,86.54,72.68,63.57,6.91,190.0,,,1103.0,,,452.0,552.0,,,10.0,,KIGQ 152115Z AUTO 19006KT 10SM SCT045 SCT055 BKN110 30/23 A2994 RMK AO2 T03030226,,,11000.0,,,72.74,,S,29.29,27.22,93.57,Mostly Cloudy
KIGQ,07/15/2018 21:35 UTC,29.94,87.98,73.04,61.47,9.22,220.0,,,1103.0,,,452.0,552.0,,,10.0,,KIGQ 152135Z AUTO 22008KT 10SM SCT045 SCT055 BKN110 31/23 A2994 RMK AO2 T03110228,,,11000.0,,,73.11,,SW,29.29,27.17,95.79,Mostly Cloudy
KIGQ,07/15/2018 21:55 UTC,29.94,87.8,73.22,62.2,8.05,240.0,,,1103.0,,,432.0,552.0,,,10.0,,KIGQ 152155Z AUTO 24007KT 200V260 10SM SCT043 SCT055 BKN110 31/23  A2994 RMK AO2 T03100229,,,11000.0,,,73.29,,WSW,29.29,27.16,95.73,Mostly Cloudy
KIGQ,07/15/2018 22:15 UTC,29.94,87.8,73.58,62.95,10.36,270.0,,,,,,432.0,552.0,,,10.0,,KIGQ 152215Z AUTO 27009KT 10SM SCT043 SCT055 31/23 A2994 RMK AO2  T03100231,,,,,,73.64,,W,29.29,27.13,96.09,Partly Cloudy
KIGQ,07/15/2018 22:35 UTC,29.93,87.62,73.94,64.08,8.05,240.0,,,,,,432.0,1102.0,,,10.0,,KIGQ 152235Z AUTO 24007KT 10SM SCT043 SCT110 31/23 A2993 RMK AO2  T03090233,,,,,,74.0,,WSW,29.28,27.09,96.21,Partly Cloudy
KIGQ,07/15/2018 22:55 UTC,29.93,87.08,73.4,64.02,8.05,230.0,,,,,,1202.0,,,,10.0,,KIGQ 152255Z AUTO 23007KT 10SM SCT120 31/23 A2993 RMK AO2  T03060230,,,,,,73.46,,SW,29.28,27.14,94.95,Partly Cloudy
KIGQ,07/15/2018 23:15 UTC,29.93,86.72,73.4,64.75,8.05,240.0,,,,,,1.0,,,,10.0,,KIGQ 152315Z AUTO 24007KT 10SM CLR 30/23 A2993 RMK AO2  T03040230,,,,,,73.46,,WSW,29.28,27.15,94.47,Clear
KIGQ,07/15/2018 23:35 UTC,29.93,86.0,73.4,66.25,6.91,230.0,,,,,,1.0,,,,10.0,,KIGQ 152335Z AUTO 23006KT 10SM CLR 30/23 A2993 RMK AO2  T03000230,,,,,,73.45,,SW,29.28,27.16,93.49,Clear
KIGQ,07/15/2018 23:55 UTC,29.92,85.46,72.68,65.79,5.75,220.0,,,,,,1.0,,,,10.0,,KIGQ 152355Z AUTO 22005KT 10SM CLR 30/23 A2992 RMK AO2 T02970226  10314 20296,88.52,85.28,,,,72.73,,SW,29.27,27.22,92.13,Clear
KIGQ,07/16/2018 00:15 UTC,29.92,84.74,73.58,69.39,4.61,220.0,,,,,,1.0,,,,10.0,,KIGQ 160015Z AUTO 22004KT 10SM CLR 29/23 A2992 RMK AO2  T02930231,,,,,,73.62,,SW,29.27,27.15,91.89,Clear
KIGQ,07/16/2018 00:35 UTC,29.92,84.2,73.58,70.6,3.44,210.0,,,,,,1.0,,,,10.0,,KIGQ 160035Z AUTO 21003KT 10SM CLR 29/23 A2992 RMK AO2  T02900231,,,,,,73.61,,SSW,29.27,27.16,91.11,Clear
KIGQ,07/16/2018 00:55 UTC,29.92,82.76,74.3,75.75,3.44,210.0,,,,,,1.0,,,,10.0,,KIGQ 160055Z AUTO 21003KT 10SM CLR 28/24 A2992 RMK AO2  T02820235,,,,,,74.32,,SSW,29.27,27.11,89.45,Clear
KIGQ,07/16/2018 01:15 UTC,29.93,80.6,74.3,81.24,0.0,0.0,,,,,,1.0,,,,10.0,,KIGQ 160115Z AUTO 00000KT 10SM CLR 27/24 A2993 RMK AO2  T02700235,,,,,,74.31,,N,29.28,27.16,85.74,Clear
KIGQ,07/16/2018 01:35 UTC,29.93,78.98,73.76,84.12,3.44,190.0,,,,,,1.0,,,,10.0,,KIGQ 160135Z AUTO 19003KT 10SM CLR 26/23 A2993 RMK AO2  T02610232,,,,,,73.76,,S,29.28,27.23,,Clear
KIGQ,07/16/2018 01:55 UTC,29.93,78.44,74.12,86.66,3.44,200.0,,,,,,1.0,,,,10.0,,KIGQ 160155Z AUTO 20003KT 10SM CLR 26/23 A2993 RMK AO2  T02580234,,,,,,74.12,,SSW,29.28,27.2,,Clear
KIGQ,07/16/2018 02:15 UTC,29.94,77.9,73.94,87.68,3.44,180.0,,,,,,1.0,,,,10.0,,KIGQ 160215Z AUTO 18003KT 10SM CLR 26/23 A2994 RMK AO2  T02550233,,,,,,73.94,,S,29.29,27.24,,Clear
KIGQ,07/16/2018 02:35 UTC,29.95,77.54,74.3,89.8,0.0,0.0,,,,,,432.0,,,,10.0,,KIGQ 160235Z AUTO 00000KT 10SM SCT043 25/24 A2995 RMK AO2  T02530235,,,,,,74.3,,N,29.3,27.22,,Partly Cloudy
KIGQ,07/16/2018 02:55 UTC,29.95,77.72,74.48,89.81,0.0,0.0,,,,,,1.0,,,,10.0,,KIGQ 160255Z AUTO 00000KT 10SM CLR 25/24 A2995 RMK AO2  T02540236,,,,,,74.48,,N,29.3,27.2,,Clear
KIGQ,07/16/2018 03:15 UTC,29.96,76.46,74.3,93.07,0.0,0.0,,,,,,1.0,,,,10.0,,KIGQ 160315Z AUTO 00000KT 10SM CLR 25/24 A2996 RMK AO2  T02470235,,,,,,74.3,,N,29.31,27.25,,Clear
KIGQ,07/16/2018 03:35 UTC,29.96,77.0,74.3,91.42,0.0,0.0,,,,,,1.0,,,,10.0,,KIGQ 160335Z AUTO 00000KT 10SM CLR 25/24 A2996 RMK AO2  T02500235,,,,,,74.3,,N,29.31,27.24,,Clear
KIGQ,07/16/2018 03:55 UTC,29.95,77.36,74.48,90.88,0.0,0.0,,,,,,1.0,,,,10.0,,KIGQ 160355Z AUTO 00000KT 10SM CLR 25/24 A2995 RMK AO2  T02520236,,,,,,74.48,,N,29.3,27.21,,Clear
KIGQ,07/16/2018 04:15 UTC,29.96,76.46,74.12,92.51,0.0,0.0,,,,,,1.0,,,,10.0,,KIGQ 160415Z AUTO 00000KT 10SM CLR 25/23 A2996 RMK AO2  T02470234,,,,,,74.12,,N,29.31,27.26,,Clear
KIGQ,07/16/2018 04:35 UTC,29.96,75.74,73.76,93.61,0.0,0.0,,,,,,1.0,,,,10.0,,KIGQ 160435Z AUTO 00000KT 10SM CLR 24/23 A2996 RMK AO2  T02430232,,,,,,73.76,,N,29.31,27.31,,Clear
KIGQ,07/16/2018 04:55 UTC,29.96,74.48,73.58,97.03,4.61,200.0,,,,,,1.0,,,,10.0,,KIGQ 160455Z AUTO 20004KT 10SM CLR 24/23 A2996 RMK AO2  T02360231,,,,,,73.58,,SSW,29.31,27.34,,Clear
KIGQ,07/16/2018 05:15 UTC,29.95,74.3,73.58,97.62,0.0,0.0,,,,,,1.0,,,,10.0,,KIGQ 160515Z AUTO 00000KT 10SM CLR 24/23 A2995 RMK AO2  T02350231,,,,,,73.58,,N,29.3,27.33,,Clear
KIGQ,07/16/2018 05:35 UTC,29.96,73.94,73.4,98.21,3.44,200.0,,,,,,1.0,,,,10.0,,KIGQ 160535Z AUTO 20003KT 10SM CLR 23/23 A2996 RMK AO2  T02330230,,,,,,73.4,,SSW,29.31,27.36,,Clear
KIGQ,07/16/2018 05:55 UTC,29.96,74.12,73.58,98.21,0.0,0.0,,,,,,853.0,,,,10.0,,KIGQ 160555Z AUTO 00000KT 10SM BKN085 23/23 A2996 RMK AO2  T02340231 10296 20232 403140207,85.28,73.76,8500.0,88.52,69.26,73.58,,N,29.31,27.35,,Mostly Cloudy
KIGQ,07/16/2018 06:15 UTC,29.96,74.3,73.58,97.62,3.44,190.0,,,,,,854.0,,,,10.0,,KIGQ 160615Z AUTO 19003KT 10SM OVC085 24/23 A2996 RMK AO2  T02350231,,,8500.0,,,73.58,,S,29.31,27.34,,Overcast
KIGQ,07/16/2018 06:35 UTC,29.95,73.94,73.76,99.4,0.0,0.0,,,,,,854.0,,,,10.0,,KIGQ 160635Z AUTO 00000KT 10SM OVC085 23/23 A2995 RMK AO2  T02330232,,,8500.0,,,73.76,,N,29.3,27.32,,Overcast
KIGQ,07/16/2018 06:55 UTC,29.95,73.58,73.58,100.0,0.0,0.0,,,,,,852.0,,,,10.0,,KIGQ 160655Z AUTO 00000KT 10SM SCT085 23/23 A2995 RMK AO2  T02310231,,,,,,73.58,,N,29.3,27.34,,Partly Cloudy
KIGQ,07/16/2018 07:15 UTC,29.94,73.4,73.4,100.0,0.0,0.0,,,,,,1.0,,,,10.0,,KIGQ 160715Z AUTO 00000KT 10SM CLR 23/23 A2994 RMK AO2  T02300230,,,,,,73.4,,N,29.29,27.35,,Clear
KIGQ,07/16/2018 07:35 UTC,29.94,73.04,73.04,100.0,0.0,0.0,,,,,,1.0,,,,10.0,,KIGQ 160735Z AUTO 00000KT 10SM CLR 23/23 A2994 RMK AO2  T02280228,,,,,,73.04,,N,29.29,27.39,,Clear
KIGQ,07/16/2018 07:55 UTC,29.94,72.86,72.86,100.0,0.0,0.0,,,,,,1.0,,,,10.0,,KIGQ 160755Z AUTO 00000KT 10SM CLR 23/23 A2994 RMK AO2  T02270227,,,,,,72.86,,N,29.29,27.4,,Clear
KIGQ,07/16/2018 08:15 UTC,29.94,72.5,72.5,100.0,4.61,190.0,,,,,,1.0,,,,10.0,,KIGQ 160815Z AUTO 19004KT 10SM CLR 23/23 A2994 RMK AO2  T02250225,,,,,,72.5,,S,29.29,27.44,,Clear
KIGQ,07/16/2018 08:35 UTC,29.93,71.78,71.78,100.0,0.0,0.0,,,,,,1.0,,,,10.0,,KIGQ 160835Z AUTO 00000KT 10SM CLR 22/22 A2993 RMK AO2  T02210221,,,,,,71.78,,N,29.28,27.5,,Clear
KIGQ,07/16/2018 08:55 UTC,29.93,72.14,72.14,100.0,0.0,0.0,,,,,,1.0,,,,10.0,,KIGQ 160855Z AUTO 00000KT 10SM CLR 22/22 A2993 RMK AO2  T02230223,,,,,,72.14,,N,29.28,27.46,,Clear
KIGQ,07/16/2018 09:15 UTC,29.93,71.78,71.78,100.0,0.0,0.0,,,,,,1.0,,,,7.0,,KIGQ 160915Z AUTO 00000KT 7SM CLR 22/22 A2993 RMK AO2  T02210221,,,,,,71.78,,N,29.28,27.5,,Clear
KIGQ,07/16/2018 09:35 UTC,29.93,72.14,72.14,100.0,0.0,0.0,,,,,,1.0,,,,7.0,,KIGQ 160935Z AUTO 00000KT 7SM CLR 22/22 A2993 RMK AO2  T02230223,,,,,,72.14,,N,29.28,27.46,,Clear
KIGQ,07/16/2018 09:55 UTC,29.93,71.96,71.96,100.0,0.0,0.0,,31.0,,,,332.0,,,,5.0,,KIGQ 160955Z AUTO 00000KT 5SM BR SCT033 22/22 A2993 RMK AO2  T02220222,,,,,,71.96,,N,29.28,27.48,,Mist
KIGQ,07/16/2018 10:15 UTC,29.94,72.68,72.68,100.0,0.0,0.0,,31.0,,,,333.0,,,,5.0,,KIGQ 161015Z AUTO 00000KT 5SM BR BKN033 23/23 A2994 RMK AO2  T02260226,,,3300.0,,,72.68,,N,29.29,27.42,,Mist
KIGQ,07/16/2018 10:35 UTC,29.94,72.86,72.86,100.0,0.0,0.0,,31.0,,,,313.0,474.0,,,5.0,,KIGQ 161035Z AUTO 00000KT 5SM BR BKN031 OVC047 23/23 A2994 RMK AO2  T02270227,,,3100.0,,,72.86,,N,29.29,27.4,,Mist
KIGQ,07/16/2018 10:55 UTC,29.95,73.94,73.94,100.0,0.0,0.0,,,553.0,,,342.0,453.0,,,10.0,,KIGQ 161055Z AUTO 00000KT 10SM SCT034 BKN045 BKN055 23/23 A2995 RMK AO2 T02330233,,,4500.0,,,73.94,,N,29.3,27.31,,Mostly Cloudy
KIGQ,07/16/2018 11:15 UTC,29.95,73.4,73.4,100.0,0.0,0.0,,,433.0,,,282.0,342.0,,,7.0,,KIGQ 161115Z AUTO 00000KT 7SM SCT028 SCT034 BKN043 23/23 A2995 RMK AO2 T02300230,,,4300.0,,,73.4,,N,29.3,27.36,,Mostly Cloudy
KIGQ,07/16/2018 11:35 UTC,29.94,73.4,73.4,100.0,3.44,170.0,,31.0,,,,282.0,342.0,,,5.0,,KIGQ 161135Z AUTO 17003KT 5SM BR SCT028 SCT034 23/23 A2994 RMK AO2  T02300230,,,,,,73.4,,S,29.29,27.35,,Mist
KIGQ,07/16/2018 11:55 UTC,29.94,74.66,74.66,100.0,0.0,0.0,,31.0,,,,1.0,,,,5.0,,KIGQ 161155Z AUTO 00000KT 5SM BR CLR 24/24 A2994 RMK AO2 T02370237  10237 20220,74.66,71.6,,,,74.66,,N,29.29,27.23,,Mist
KIGQ,07/16/2018 12:15 UTC,29.94,76.28,75.92,98.81,0.0,0.0,,,,,,1.0,,,,7.0,,KIGQ 161215Z AUTO 00000KT 7SM CLR 25/24 A2994 RMK AO2  T02460244,,,,,,75.92,,N,29.29,27.09,,Clear
KIGQ,07/16/2018 12:35 UTC,29.94,77.0,75.56,95.34,0.0,0.0,,,,,,1.0,,,,10.0,,KIGQ 161235Z AUTO 00000KT 10SM CLR 25/24 A2994 RMK AO2  T02500242,,,,,,75.56,,N,29.29,27.11,,Clear
KIGQ,07/16/2018 12:55 UTC,29.94,78.98,75.92,90.4,0.0,0.0,,,,,,1.0,,,,10.0,,KIGQ 161255Z AUTO 00000KT 10SM CLR 26/24 A2994 RMK AO2  T02610244,,,,,,75.92,,N,29.29,27.05,,Clear
KIGQ,07/16/2018 13:15 UTC,29.94,80.06,76.1,87.79,0.0,0.0,,,,,,1.0,,,,10.0,,KIGQ 161315Z AUTO 00000KT 10SM CLR 27/25 A2994 RMK AO2  T02670245,,,,,,76.11,,N,29.29,27.02,85.86,Clear
KIGQ,07/16/2018 13:35 UTC,29.94,81.32,76.1,84.26,0.0,0.0,,,,,,1.0,,,,10.0,,KIGQ 161335Z AUTO 00000KT 10SM CLR 27/25 A2994 RMK AO2  T02740245,,,,,,76.11,,N,29.29,27.0,88.1,Clear
KIGQ,07/16/2018 13:55 UTC,29.94,82.22,75.92,81.35,0.0,0.0,,,,,,1.0,,,,10.0,,KIGQ 161355Z AUTO 00000KT 10SM CLR 28/24 A2994 RMK AO2  T02790244,,,,,,75.93,,N,29.29,27.0,89.69,Clear
KIGQ,07/16/2018 14:15 UTC,29.95,83.48,76.64,80.0,0.0,0.0,,,,,,402.0,,,,10.0,,KIGQ 161415Z AUTO 00000KT 10SM SCT040 29/25 A2995 RMK AO2  T02860248,,,,,,76.66,,N,29.3,26.92,92.57,Partly Cloudy
KIGQ,07/16/2018 14:35 UTC,29.95,84.02,76.46,78.16,3.44,270.0,,,423.0,,,242.0,342.0,,,10.0,,KIGQ 161435Z AUTO 27003KT 10SM SCT024 SCT034 BKN042 29/25 A2995 RMK AO2 T02890247,,,4200.0,,,76.48,,W,29.3,26.93,93.35,Mostly Cloudy
KIGQ,07/16/2018 14:55 UTC,29.94,84.38,75.92,75.89,0.0,0.0,,,1202.0,,,242.0,422.0,,,10.0,,KIGQ 161455Z AUTO 00000KT 10SM SCT024 SCT042 SCT120 29/24 A2994 RMK AO2 T02910244,,,,,,75.95,,N,29.29,26.97,93.43,Partly Cloudy
KIGQ,07/16/2018 15:15 UTC,29.94,85.64,74.84,70.32,3.44,260.0,,,,,,1202.0,,,,10.0,,KIGQ 161515Z AUTO 26003KT 10SM SCT120 30/24 A2994 RMK AO2  T02980238,,,,,,74.88,,W,29.29,27.05,94.33,Partly Cloudy
KIGQ,07/16/2018 15:35 UTC,29.94,86.36,74.84,68.73,3.44,240.0,,,,,,352.0,1202.0,,,10.0,,KIGQ 161535Z AUTO 24003KT 10SM SCT035 SCT120 30/24 A2994 RMK AO2  T03020238,,,,,,74.89,,WSW,29.29,27.04,95.38,Partly Cloudy
KIGQ,07/16/2018 15:55 UTC,29.94,85.1,73.94,69.42,3.44,240.0,,,,,,322.0,382.0,,,10.0,,KIGQ 161555Z AUTO 24003KT 10SM SCT032 SCT038 30/23 A2994 RMK AO2  T02950233,,,,,,73.98,,WSW,29.29,27.13,92.71,Partly Cloudy
KIGQ,07/16/2018 16:15 UTC,29.94,86.18,74.48,68.3,6.91,280.0,,6.0,703.0,,,373.0,603.0,,,1.75,,KIGQ 161615Z AUTO 28006KT 1 3/4SM HZ BKN037 BKN060 BKN070 30/24  A2994 RMK AO2 T03010236,,,3700.0,,,74.53,,W,29.29,27.07,94.76,Haze
KIGQ,07/16/2018 16:35 UTC,29.94,85.46,75.38,72.01,3.44,230.0,,,602.0,,,372.0,502.0,,,10.0,,KIGQ 161635Z AUTO 23003KT 10SM SCT037 SCT050 SCT060 30/24 A2994 RMK AO2 T02970241,,,,,,75.42,,SW,29.29,27.0,94.6,Partly Cloudy
KIGQ,07/16/2018 16:55 UTC,29.93,86.18,73.04,65.08,4.61,340.0,,,802.0,,,362.0,502.0,,,10.0,,KIGQ 161655Z AUTO 34004KT 10SM SCT036 SCT050 SCT080 30/23 A2993 RMK AO2 LTG DSNT S AND SW T03010228,,,,,,73.09,,NNW,29.28,27.19,93.41,Partly Cloudy
KIGQ,07/16/2018 17:15 UTC,29.94,84.2,76.82,78.64,5.75,250.0,,,503.0,,,332.0,393.0,,,10.0,,KIGQ 161715Z AUTO 25005KT 10SM SCT033 BKN039 BKN050 29/25 A2994 RMK AO2 T02900249,,,3900.0,,,76.84,,WSW,29.29,26.89,94.01,Mostly Cloudy
KIGQ,07/16/2018 17:35 UTC,29.92,86.0,76.46,73.37,3.44,230.0,,,704.0,,,332.0,493.0,,,10.0,,KIGQ 161735Z AUTO 23003KT 10SM SCT033 BKN049 OVC070 30/25 A2992 RMK AO2 T03000247,,,4900.0,,,76.5,,SW,29.27,26.87,96.58,Overcast
KIGQ,07/16/2018 17:55 UTC,29.92,84.02,74.84,74.06,4.61,20.0,,13.0,,,,363.0,484.0,,,10.0,,KIGQ 161755Z AUTO 02004KT 10SM -RA BKN036 OVC048 29/24 A2992 RMK AO2 LTG DSNT E THRU S T02890238 10307 20238,87.26,74.84,3600.0,,,74.87,,NNE,29.27,27.05,91.88,Light Rain
KIGQ,07/16/2018 18:15 UTC,29.92,86.54,75.02,68.75,0.0,0.0,,,603.0,,,282.0,402.0,,,10.0,,KIGQ 161815Z AUTO 00000KT 10SM SCT028 SCT040 BKN060 30/24 A2992 RMK AO2 LTG DSNT E AND SE T03030239,,,6000.0,,,75.07,,N,29.27,27.0,95.83,Mostly Cloudy
KIGQ,07/16/2018 18:35 UTC,29.92,80.6,75.2,83.71,13.8,150.0,21.85,5.0,704.0,,,472.0,603.0,,,10.0,,KIGQ 161835Z AUTO 15012G19KT 10SM VCTS SCT047 BKN060 OVC070 27/24  A2992 RMK AO2 LTG DSNT E AND SE T02700240,,,6000.0,,,75.21,,SSE,29.27,27.07,86.17,Thunder
KIGQ,07/16/2018 18:55 UTC,29.93,76.82,71.6,83.98,14.97,130.0,,5.0,,,,434.0,,,,10.0,,KIGQ 161855Z AUTO 13013KT 10SM TS OVC043 25/22 A2993 RMK AO2 LTG  DSNT E AND SE T02490220,,,4300.0,,,71.6,,SE,29.28,27.43,,Thunder
KIGQ,07/16/2018 19:15 UTC,29.94,76.1,70.16,81.91,4.61,90.0,19.57,,,,,454.0,,,,10.0,,KIGQ 161915Z AUTO 09004G17KT 10SM OVC045 25/21 A2994 RMK AO2 LTG  DSNT NE THRU SE T02450212,,,4500.0,,,70.16,,E,29.29,27.56,,Overcast
KIGQ,07/16/2018 19:35 UTC,29.94,74.3,70.88,89.12,4.61,30.0,,14.0,554.0,0.16,,132.0,453.0,,,2.5,,KIGQ 161935Z AUTO 03004KT 2 1/2SM +RA SCT013 BKN045 OVC055 24/22  A2994 RMK AO2 VIS 3/4V5 P0016 T02350216,,,4500.0,,,70.87,,NNE,29.29,27.54,,Heavy Rain
KIGQ,07/16/2018 19:55 UTC,29.92,74.48,73.76,97.62,5.75,140.0,,13.0,654.0,0.43,,132.0,493.0,,,10.0,,KIGQ 161955Z AUTO 14005KT 10SM -RA SCT013 BKN049 OVC065 24/23  A2992 RMK AO2 P0043 T02360232,,,4900.0,,,73.76,,SE,29.27,27.29,,Light Rain
KIGQ,07/16/2018 20:15 UTC,29.93,75.2,72.86,92.47,0.0,0.0,,,754.0,,,422.0,483.0,,,10.0,,KIGQ 162015Z AUTO 00000KT 10SM SCT042 BKN048 OVC075 24/23 A2993 RMK AO2 T02400227,,,4800.0,,,72.86,,N,29.28,27.36,,Overcast
KIGQ,07/16/2018 20:35 UTC,29.93,75.92,74.66,95.89,4.61,270.0,,78.0,1004.0,,,422.0,753.0,,,5.0,,KIGQ 162035Z AUTO 27004KT 5SM +TSRA SCT042 BKN075 OVC100 24/24  A2993 RMK AO2 LTG DSNT ALQS T02440237,,,7500.0,,,74.66,,W,29.28,27.2,,Heavy Rain/Thunderstorm
KIGQ,07/16/2018 20:55 UTC,29.93,74.3,74.3,100.0,6.91,230.0,,,,0.01,0.44,652.0,1004.0,,,10.0,,KIGQ 162055Z AUTO 23006KT 10SM -VCTSRA SCT065 OVC100 24/24 A2993 RMK AO2 LTG DSNT S AND SW P0001 60044 T02350235,,,10000.0,,,74.3,,SW,29.28,27.25,,Overcast
KIGQ,07/16/2018 21:15 UTC,29.91,74.66,74.66,100.0,4.61,160.0,,13.0,1104.0,,,292.0,903.0,,,7.0,,KIGQ 162115Z AUTO 16004KT 7SM -RA SCT029 BKN090 OVC110 24/24 A2991 RMK AO2 T02370237,,,9000.0,,,74.66,,SSE,29.26,27.2,,Light Rain
KIGQ,07/16/2018 21:35 UTC,29.91,76.46,75.02,95.33,0.0,0.0,,,,,,1202.0,,,,10.0,,KIGQ 162135Z AUTO 00000KT 10SM SCT120 25/24 A2991 RMK AO2  T02470239,,,,,,75.02,,N,29.26,27.14,,Partly Cloudy
KIGQ,07/16/2018 21:55 UTC,29.91,78.08,74.3,88.22,0.0,0.0,,,,,,1.0,,,,10.0,,KIGQ 162155Z AUTO 00000KT 10SM CLR 26/24 A2991 RMK AO2  T02560235,,,,,,74.3,,N,29.26,27.17,,Clear
KIGQ,07/16/2018 22:15 UTC,29.91,78.62,74.12,86.15,0.0,0.0,,,,,,1.0,,,,10.0,,KIGQ 162215Z AUTO 00000KT 10SM CLR 26/23 A2991 RMK AO2  T02590234,,,,,,74.12,,N,29.26,27.18,,Clear
KIGQ,07/16/2018 22:35 UTC,29.91,80.78,74.84,82.23,0.0,0.0,,,,,,1.0,,,,10.0,,KIGQ 162235Z AUTO 00000KT 10SM CLR 27/24 A2991 RMK AO2  T02710238,,,,,,74.85,,N,29.26,27.09,86.34,Clear
KIGQ,07/16/2018 22:55 UTC,29.91,81.68,75.92,82.79,3.44,350.0,,,,,,1.0,,,,10.0,,KIGQ 162255Z AUTO 35003KT 10SM CLR 28/24 A2991 RMK AO2  T02760244,,,,,,75.93,,N,29.26,26.98,88.68,Clear
KIGQ,07/16/2018 23:15 UTC,29.91,82.58,75.02,78.04,5.75,360.0,,,,,,1.0,,,,10.0,,KIGQ 162315Z AUTO 36005KT 10SM CLR 28/24 A2991 RMK AO2  T02810239,,,,,,75.04,,N,29.26,27.04,89.67,Clear
KIGQ,07/16/2018 23:35 UTC,29.91,82.22,73.04,73.89,5.75,60.0,,,,,,1.0,,,,10.0,,KIGQ 162335Z AUTO 06005KT 10SM CLR 28/23 A2991 RMK AO2  T02790228,,,,,,73.06,,ENE,29.26,27.22,87.77,Clear
KIGQ,07/16/2018 23:55 UTC,29.92,81.5,72.68,74.72,5.75,60.0,,,,,,1.0,,0.44,,10.0,,KIGQ 162355Z AUTO 06005KT 10SM CLR 28/23 A2992 RMK AO2 60044  T02750226 10308 20227,87.44,72.86,,,,72.69,,ENE,29.27,27.27,86.46,Clear
KIGQ,07/17/2018 00:15 UTC,29.92,80.6,73.4,78.82,5.75,70.0,,,,,,1.0,,,,10.0,,KIGQ 170015Z AUTO 07005KT 10SM CLR 27/23 A2992 RMK AO2  T02700230,,,,,,73.41,,ENE,29.27,27.22,85.33,Clear
KIGQ,07/17/2018 00:35 UTC,29.93,79.16,74.66,86.18,5.75,80.0,,,,,,432.0,,,,10.0,,KIGQ 170035Z AUTO 08005KT 10SM SCT043 26/24 A2993 RMK AO2  T02620237,,,,,,74.66,,E,29.28,27.15,,Partly Cloudy
KIGQ,07/17/2018 00:55 UTC,29.93,78.26,74.66,88.76,3.44,50.0,,,,,,432.0,,,,10.0,,KIGQ 170055Z AUTO 05003KT 10SM SCT043 26/24 A2993 RMK AO2  T02570237,,,,,,74.66,,NE,29.28,27.16,,Partly Cloudy
KIGQ,07/17/2018 01:15 UTC,29.94,77.72,73.58,87.15,5.75,40.0,,,,,,352.0,453.0,,,10.0,,KIGQ 170115Z AUTO 04005KT 10SM SCT035 BKN045 25/23 A2994 RMK AO2  T02540231,,,4500.0,,,73.58,,NE,29.29,27.27,,Mostly Cloudy
KIGQ,07/17/2018 01:35 UTC,29.95,77.36,73.94,89.26,3.44,50.0,,,,,,373.0,424.0,,,10.0,,KIGQ 170135Z AUTO 05003KT 10SM BKN037 OVC042 25/23 A2995 RMK AO2  T02520233,,,3700.0,,,73.94,,NE,29.3,27.26,,Overcast
KIGQ,07/17/2018 01:55 UTC,29.95,76.28,74.48,94.19,3.44,50.0,,,,,,392.0,,,,10.0,,KIGQ 170155Z AUTO 05003KT 10SM SCT039 25/24 A2995 RMK AO2  T02460236,,,,,,74.48,,NE,29.3,27.23,,Partly Cloudy
KIGQ,07/17/2018 02:15 UTC,29.96,75.74,74.48,95.89,3.44,60.0,,,,,,382.0,,,,10.0,,KIGQ 170215Z AUTO 06003KT 10SM SCT038 24/24 A2996 RMK AO2  T02430236,,,,,,74.48,,ENE,29.31,27.25,,Partly Cloudy
KIGQ,07/17/2018 02:35 UTC,29.97,75.2,74.84,98.81,3.44,40.0,,31.0,,,,403.0,,,,5.0,,KIGQ 170235Z AUTO 04003KT 5SM BR BKN040 24/24 A2997 RMK AO2  T02400238,,,4000.0,,,74.84,,NE,29.32,27.23,,Mist
KIGQ,07/17/2018 02:55 UTC,29.98,74.66,74.66,100.0,0.0,0.0,,31.0,,,,422.0,,,,5.0,,KIGQ 170255Z AUTO 00000KT 5SM BR SCT042 24/24 A2998 RMK AO2  T02370237,,,,,,74.66,,N,29.33,27.27,,Mist
KIGQ,07/17/2018 03:15 UTC,29.99,74.3,74.3,100.0,3.44,30.0,,,,,,1.0,,,,7.0,,KIGQ 170315Z AUTO 03003KT 7SM CLR 24/24 A2999 RMK AO2  T02350235,,,,,,74.3,,NNE,29.34,27.31,,Clear
KIGQ,07/17/2018 03:35 UTC,29.99,73.94,73.94,100.0,0.0,0.0,,,,,,1.0,,,,7.0,,KIGQ 170335Z AUTO 00000KT 7SM CLR 23/23 A2999 RMK AO2  T02330233,,,,,,73.94,,N,29.34,27.35,,Clear
KIGQ,07/17/2018 03:55 UTC,29.99,73.76,73.76,100.0,0.0,0.0,,31.0,,,,1.0,,,,5.0,,KIGQ 170355Z AUTO 00000KT 5SM BR CLR 23/23 A2999 RMK AO2  T02320232,,,,,,73.76,,N,29.34,27.37,,Mist
KIGQ,07/17/2018 04:15 UTC,29.99,73.4,73.4,100.0,0.0,0.0,,31.0,,,,1.0,,,,5.0,,KIGQ 170415Z AUTO 00000KT 5SM BR CLR 23/23 A2999 RMK AO2  T02300230,,,,,,73.4,,N,29.34,27.4,,Mist
KIGQ,07/17/2018 04:35 UTC,29.99,73.04,73.04,100.0,0.0,0.0,,31.0,,,,1.0,,,,4.0,,KIGQ 170435Z AUTO 00000KT 4SM BR CLR 23/23 A2999 RMK AO2  T02280228,,,,,,73.04,,N,29.34,27.44,,Mist
KIGQ,07/17/2018 04:55 UTC,29.99,72.5,72.5,100.0,0.0,0.0,,31.0,,,,1.0,,,,4.0,,KIGQ 170455Z AUTO 00000KT 4SM BR CLR 23/23 A2999 RMK AO2  T02250225,,,,,,72.5,,N,29.34,27.49,,Mist
KIGQ,07/17/2018 05:15 UTC,29.99,71.96,71.96,100.0,0.0,0.0,,31.0,,,,1.0,,,,3.0,,KIGQ 170515Z AUTO 00000KT 3SM BR CLR 22/22 A2999 RMK AO2  T02220222,,,,,,71.96,,N,29.34,27.54,,Mist
KIGQ,07/17/2018 05:35 UTC,29.99,69.98,69.98,100.0,0.0,0.0,,31.0,,,,1.0,,,,2.5,,KIGQ 170535Z AUTO 00000KT 2 1/2SM BR CLR 21/21 A2999 RMK AO2  T02110211,,,,,,69.98,,N,29.34,27.72,,Mist
KIGQ,07/17/2018 05:55 UTC,29.99,66.74,66.74,100.0,0.0,0.0,,9.0,,,,44.0,,,,0.25,,KIGQ 170555Z AUTO 00000KT 1/4SM FG OVC004 19/19 A2999 RMK AO2  T01930193 10274 20192 403080192,81.32,66.56,400.0,87.44,66.56,66.74,,N,29.34,27.99,,Fog
KIGQ,07/17/2018 06:15 UTC,29.99,66.74,66.74,100.0,0.0,0.0,,9.0,,,,43.0,,,,0.5,,KIGQ 170615Z AUTO 00000KT 1/2SM FG BKN004 19/19 A2999 RMK AO2  T01930193,,,400.0,,,66.74,,N,29.34,27.99,,Fog
KIGQ,07/17/2018 06:35 UTC,29.99,65.48,65.48,100.0,0.0,0.0,,9.0,,,,44.0,,,,0.25,,KIGQ 170635Z AUTO 00000KT 1/4SM FG OVC004 19/19 A2999 RMK AO2  T01860186,,,400.0,,,65.48,,N,29.34,28.08,,Fog
KIGQ,07/17/2018 06:55 UTC,29.99,66.2,66.2,100.0,0.0,0.0,,31.0,,,,43.0,,,,1.5,,KIGQ 170655Z AUTO 00000KT 1 1/2SM BR BKN004 19/19 A2999 RMK AO2  T01900190,,,400.0,,,66.2,,N,29.34,28.03,,Mist
KIGQ,07/17/2018 07:15 UTC,29.99,67.82,67.82,100.0,0.0,0.0,,31.0,,,,42.0,,,,1.25,,KIGQ 170715Z AUTO 00000KT 1 1/4SM BR SCT004 20/20 A2999 RMK AO2  T01990199,,,,,,67.82,,N,29.34,27.9,,Mist
KIGQ,07/17/2018 07:35 UTC,29.99,68.0,68.0,100.0,0.0,0.0,,31.0,,,,75.0,,,,1.75,,KIGQ 170735Z AUTO 00000KT 1 3/4SM BR VV007 20/20 A2999 RMK AO2  T02000200,,,700.0,,,68.0,,N,29.34,27.89,,Mist
KIGQ,07/17/2018 07:55 UTC,29.99,68.0,68.0,100.0,0.0,0.0,,31.0,,,,1.0,,,,3.0,,KIGQ 170755Z AUTO 00000KT 3SM BR CLR 20/20 A2999 RMK AO2  T02000200,,,,,,68.0,,N,29.34,27.89,,Mist
KIGQ,07/17/2018 08:15 UTC,29.99,66.56,66.56,100.0,3.44,320.0,,,,,,1.0,,,,10.0,,KIGQ 170815Z AUTO 32003KT 10SM CLR 19/19 A2999 RMK AO2  T01920192,,,,,,66.56,,NW,29.34,28.0,,Clear
KIGQ,07/17/2018 08:35 UTC,29.99,66.2,66.2,100.0,4.61,320.0,,,,,,1.0,,,,10.0,,KIGQ 170835Z AUTO 32004KT 10SM CLR 19/19 A2999 RMK AO2  T01900190,,,,,,66.2,,NW,29.34,28.03,,Clear
KIGQ,07/17/2018 08:55 UTC,29.99,66.2,64.76,95.12,4.61,320.0,,,,,,1.0,,,,10.0,,KIGQ 170855Z AUTO 32004KT 10SM CLR 19/18 A2999 RMK AO2  T01900182,,,,,,64.75,,NW,29.34,28.12,,Clear
KIGQ,07/17/2018 09:15 UTC,30.0,66.56,62.78,87.66,4.61,320.0,,,,,,1.0,,,,10.0,,KIGQ 170915Z AUTO 32004KT 10SM CLR 19/17 A3000 RMK AO2  T01920171,,,,,,62.76,,NW,29.35,28.24,,Clear
KIGQ,07/17/2018 09:35 UTC,29.99,66.74,62.42,86.02,4.61,320.0,,,,,,1.0,,,,10.0,,KIGQ 170935Z AUTO 32004KT 10SM CLR 19/17 A2999 RMK AO2  T01930169,,,,,,62.4,,NW,29.34,28.25,,Clear
KIGQ,07/17/2018 09:55 UTC,30.0,66.56,62.06,85.47,3.44,320.0,,,,,,1.0,,,,10.0,,KIGQ 170955Z AUTO 32003KT 10SM CLR 19/17 A3000 RMK AO2  T01920167,,,,,,62.04,,NW,29.35,28.28,,Clear
KIGQ,07/17/2018 10:15 UTC,30.01,66.38,61.7,84.92,3.44,310.0,,,,,,1.0,,,,10.0,,KIGQ 171015Z AUTO 31003KT 10SM CLR 19/17 A3001 RMK AO2  T01910165,,,,,,61.68,,NW,29.36,28.31,,Clear
KIGQ,07/17/2018 10:35 UTC,30.01,66.2,61.7,85.45,0.0,0.0,,,,,,1.0,,,,10.0,,KIGQ 171035Z AUTO 00000KT 10SM CLR 19/17 A3001 RMK AO2  T01900165,,,,,,61.68,,N,29.36,28.32,,Clear
KIGQ,07/17/2018 10:55 UTC,30.02,66.2,61.7,85.45,0.0,0.0,,,,,,1.0,,,,10.0,,KIGQ 171055Z AUTO 00000KT 10SM CLR 19/17 A3002 RMK AO2  T01900165,,,,,,61.68,,N,29.37,28.33,,Clear
KIGQ,07/17/2018 11:15 UTC,30.03,67.1,61.88,83.36,0.0,0.0,,,,,,1.0,,,,10.0,,KIGQ 171115Z AUTO 00000KT 10SM CLR 20/17 A3003 RMK AO2  T01950166,,,,,,61.85,,N,29.38,28.32,,Clear
KIGQ,07/17/2018 11:35 UTC,30.04,68.0,62.96,83.95,3.44,310.0,,,,,,1.0,,,,10.0,,KIGQ 171135Z AUTO 31003KT 10SM CLR 20/17 A3004 RMK AO2  T02000172,,,,,,62.94,,NW,29.39,28.25,,Clear
KIGQ,07/17/2018 11:55 UTC,30.04,69.8,63.68,80.95,0.0,0.0,,,,,,1.0,,,0.44,10.0,,KIGQ 171155Z AUTO 00000KT 10SM CLR 21/18 A3004 RMK AO2 70044  T02100176 10210 20186,69.8,65.48,,,,63.66,,N,29.39,28.19,,Clear
KIGQ,07/17/2018 12:15 UTC,30.05,71.6,63.86,76.63,0.0,0.0,,,,,,22.0,,,,10.0,,KIGQ 171215Z AUTO 00000KT 10SM SCT002 22/18 A3005 RMK AO2  T02200177,,,,,,63.84,,N,29.4,28.16,,Partly Cloudy
KIGQ,07/17/2018 12:35 UTC,30.05,72.86,64.4,74.84,3.44,320.0,,,,,,22.0,,,,10.0,,KIGQ 171235Z AUTO 32003KT 10SM SCT002 23/18 A3005 RMK AO2  T02270180,,,,,,64.38,,NW,29.4,28.12,,Partly Cloudy
KIGQ,07/17/2018 12:55 UTC,30.06,74.12,64.04,70.85,0.0,0.0,,,,,,1.0,,,,10.0,,KIGQ 171255Z AUTO 00000KT 10SM CLR 23/18 A3006 RMK AO2  T02340178,,,,,,64.02,,N,29.41,28.13,,Clear
KIGQ,07/17/2018 13:15 UTC,30.06,74.84,64.76,70.93,0.0,0.0,,,,,,1.0,,,,10.0,,KIGQ 171315Z AUTO 00000KT 10SM CLR 24/18 A3006 RMK AO2  T02380182,,,,,,64.75,,N,29.41,28.08,,Clear
KIGQ,07/17/2018 13:35 UTC,30.06,75.38,64.94,70.1,0.0,0.0,,,,,,1.0,,,,10.0,,KIGQ 171335Z AUTO 00000KT 10SM CLR 24/18 A3006 RMK AO2  T02410183,,,,,,64.93,,N,29.41,28.06,,Clear
KIGQ,07/17/2018 13:55 UTC,30.06,76.46,65.12,68.06,4.61,30.0,,,,,,1.0,,,,10.0,,KIGQ 171355Z AUTO 03004KT 10SM CLR 25/18 A3006 RMK AO2  T02470184,,,,,,65.11,,NNE,29.41,28.04,,Clear
KIGQ,07/17/2018 14:15 UTC,30.06,77.36,63.14,61.65,3.44,360.0,,,,,,1.0,,,,10.0,,KIGQ 171415Z AUTO 36003KT 10SM CLR 25/17 A3006 RMK AO2  T02520173,,,,,,63.14,,N,29.41,28.15,,Clear
KIGQ,07/17/2018 14:35 UTC,30.05,78.62,64.4,61.81,3.44,350.0,,,,,,1.0,,,,10.0,,KIGQ 171435Z AUTO 35003KT 10SM CLR 26/18 A3005 RMK AO2  T02590180,,,,,,64.4,,N,29.4,28.05,,Clear
KIGQ,07/17/2018 14:55 UTC,30.06,78.98,63.86,59.94,3.44,280.0,,,,,,1.0,,,,10.0,,KIGQ 171455Z AUTO 28003KT 10SM CLR 26/18 A3006 RMK AO2  T02610177,,,,,,63.87,,W,29.41,28.09,,Clear
KIGQ,07/17/2018 15:15 UTC,30.06,79.7,63.32,57.45,3.44,300.0,,,,,,1.0,,,,10.0,,KIGQ 171515Z AUTO 30003KT 10SM CLR 27/17 A3006 RMK AO2  T02650174,,,,,,63.33,,WNW,29.41,28.11,,Clear
KIGQ,07/17/2018 15:35 UTC,30.06,80.6,64.4,57.94,3.44,320.0,,,,,,1.0,,,,10.0,,KIGQ 171535Z AUTO 32003KT 10SM CLR 27/18 A3006 RMK AO2  T02700180,,,,,,64.42,,NW,29.41,28.03,82.28,Clear
KIGQ,07/17/2018 15:55 UTC,30.06,80.78,65.48,59.8,4.61,50.0,,,,,,1.0,,,,10.0,,KIGQ 171555Z AUTO 05004KT 10SM CLR 27/19 A3006 RMK AO2  T02710186,,,,,,65.5,,NE,29.41,27.96,82.75,Clear
KIGQ,07/17/2018 16:15 UTC,30.07,79.34,67.1,66.29,8.05,20.0,,,,,,1.0,,,,10.0,,KIGQ 171615Z AUTO 02007KT 10SM CLR 26/20 A3007 RMK AO2  T02630195,,,,,,67.11,,NNE,29.42,27.88,,Clear
KIGQ,07/17/2018 16:35 UTC,30.07,78.8,67.64,68.74,10.36,30.0,,,,,,1.0,,,,10.0,,KIGQ 171635Z AUTO 03009KT 10SM CLR 26/20 A3007 RMK AO2  T02600198,,,,,,67.64,,NNE,29.42,27.85,,Clear
KIGQ,07/17/2018 16:55 UTC,30.08,77.9,66.2,67.37,11.5,10.0,17.27,,,,,1.0,,,,10.0,,KIGQ 171655Z AUTO 01010G15KT 10SM CLR 26/19 A3008 RMK AO2  T02550190,,,,,,66.2,,N,29.43,27.97,,Clear
KIGQ,07/17/2018 17:15 UTC,30.08,76.64,65.84,69.36,11.5,30.0,16.11,,,,,1.0,,,,10.0,,KIGQ 171715Z AUTO 03010G14KT 10SM CLR 25/19 A3008 RMK AO2  T02480188,,,,,,65.83,,NNE,29.43,28.01,,Clear
KIGQ,07/17/2018 17:35 UTC,30.08,77.54,64.76,64.85,11.5,30.0,,,,,,1.0,,,,10.0,,KIGQ 171735Z AUTO 03010KT 10SM CLR 25/18 A3008 RMK AO2  T02530182,,,,,,64.76,,NNE,29.43,28.07,,Clear
KIGQ,07/17/2018 17:55 UTC,30.08,77.72,64.4,63.67,12.66,30.0,18.41,,,,,1.0,,,,10.0,,KIGQ 171755Z AUTO 03011G16KT 10SM CLR 25/18 A3008 RMK AO2  T02540180 10272 20211,80.96,69.98,,,,64.4,,NNE,29.43,28.09,,Clear
KIGQ,07/17/2018 18:15 UTC,30.08,77.72,63.68,62.08,12.66,20.0,,,,,,1.0,,,,10.0,,KIGQ 171815Z AUTO 02011KT 10SM CLR 25/18 A3008 RMK AO2  T02540176,,,,,,63.68,,NNE,29.43,28.13,,Clear
KIGQ,07/17/2018 18:35 UTC,30.08,77.54,63.14,61.28,11.5,10.0,17.27,,,,,1.0,,,,10.0,,KIGQ 171835Z AUTO 01010G15KT 10SM CLR 25/17 A3008 RMK AO2  T02530173,,,,,,63.14,,N,29.43,28.17,,Clear
KIGQ,07/17/2018 18:55 UTC,30.08,77.36,62.78,60.87,13.8,60.0,17.27,,,,,1.0,,,,10.0,,KIGQ 171855Z AUTO 06012G15KT 10SM CLR 25/17 A3008 RMK AO2  T02520171,,,,,,62.77,,ENE,29.43,28.19,,Clear
KIGQ,07/17/2018 19:15 UTC,30.08,77.18,62.42,60.47,13.8,50.0,17.27,,,,,1.0,,,,10.0,,KIGQ 171915Z AUTO 05012G15KT 10SM CLR 25/17 A3008 RMK AO2  T02510169,,,,,,62.42,,NE,29.43,28.22,,Clear
KIGQ,07/17/2018 19:35 UTC,30.08,77.0,63.32,62.78,11.5,70.0,17.27,,,,,342.0,1002.0,,,10.0,,KIGQ 171935Z AUTO 07010G15KT 10SM SCT034 SCT100 25/17 A3008 RMK AO2 T02500174,,,,,,63.31,,ENE,29.43,28.16,,Partly Cloudy
KIGQ,07/17/2018 19:55 UTC,30.08,76.64,64.04,65.15,11.5,20.0,17.27,,,,,342.0,,,,,,KIGQ 171955Z AUTO 02010G15KT SCT034 25/18 A3008 RMK AO2  T02480178,,,,,,64.03,,NNE,29.43,28.12,,Partly Cloudy
KIGQ,07/17/2018 20:15 UTC,30.08,77.0,62.6,61.21,10.36,40.0,17.27,,,,,1.0,,,,10.0,,KIGQ 172015Z AUTO 04009G15KT 10SM CLR 25/17 A3008 RMK AO2  T02500170,,,,,,62.59,,NE,29.43,28.21,,Clear
KIGQ,07/17/2018 20:35 UTC,30.08,76.64,62.42,61.56,11.5,20.0,19.57,,,,,1.0,,,,10.0,,KIGQ 172035Z AUTO 02010G17KT 10SM CLR 25/17 A3008 RMK AO2  T02480169,,,,,,62.41,,NNE,29.43,28.22,,Clear
KIGQ,07/17/2018 20:55 UTC,30.07,75.92,62.96,64.25,12.66,50.0,20.71,,,,,1.0,,,,,,KIGQ 172055Z AUTO 05011G18KT CLR 24/17 A3007 RMK AO2 T02440172  PWINO,,,,,,62.95,,NE,29.42,28.19,,Clear
KIGQ,07/17/2018 21:15 UTC,30.07,75.38,60.62,60.23,13.8,70.0,,,,,,1.0,,,,10.0,,KIGQ 172115Z AUTO 07012KT 10SM CLR 24/16 A3007 RMK AO2  T02410159,,,,,,60.6,,ENE,29.42,28.33,,Clear
KIGQ,07/17/2018 21:35 UTC,30.07,76.1,59.9,57.32,12.66,70.0,,,,,,1.0,,,,10.0,,KIGQ 172135Z AUTO 07011KT 10SM CLR 25/16 A3007 RMK AO2  T02450155,,,,,,59.89,,ENE,29.42,28.37,,Clear
KIGQ,07/17/2018 21:55 UTC,30.07,75.38,57.92,54.7,12.66,40.0,,,,,,1.0,,,,,,KIGQ 172155Z AUTO 04011KT CLR 24/14 A3007 RMK AO2 T02410144,,,,,,57.9,,NE,29.42,28.48,,Clear
KIGQ,07/17/2018 22:15 UTC,30.07,75.38,56.66,52.28,11.5,40.0,,,,,,1.0,,,,,,KIGQ 172215Z AUTO 04010KT CLR 24/14 A3007 RMK AO2 T02410137  PWINO,,,,,,56.64,,NE,29.42,28.54,,Clear
KIGQ,07/17/2018 22:35 UTC,30.07,75.38,57.74,54.35,11.5,60.0,,,,,,1.0,,,,10.0,,KIGQ 172235Z AUTO 06010KT 10SM CLR 24/14 A3007 RMK AO2  T02410143,,,,,,57.72,,ENE,29.42,28.49,,Clear
KIGQ,07/17/2018 22:55 UTC,30.07,75.2,57.92,55.03,11.5,40.0,,,,,,1.0,,,,10.0,,KIGQ 172255Z AUTO 04010KT 10SM CLR 24/14 A3007 RMK AO2  T02400144,,,,,,57.9,,NE,29.42,28.48,,Clear
KIGQ,07/17/2018 23:15 UTC,30.07,74.66,56.3,52.85,10.36,50.0,,,,,,1.0,,,,10.0,,KIGQ 172315Z AUTO 05009KT 10SM CLR 24/14 A3007 RMK AO2  T02370135,,,,,,56.27,,NE,29.42,28.57,,Clear
KIGQ,07/17/2018 23:35 UTC,30.07,73.94,57.2,55.93,10.36,60.0,17.27,,,,,1.0,,,,10.0,,KIGQ 172335Z AUTO 06009G15KT 10SM CLR 23/14 A3007 RMK AO2  T02330140,,,,,,57.17,,ENE,29.42,28.53,,Clear
KIGQ,07/17/2018 23:55 UTC,30.08,73.4,57.56,57.69,10.36,50.0,,,,,,1.0,,,,10.0,,KIGQ 172355Z AUTO 05009KT 10SM CLR 23/14 A3008 RMK AO2 T02300142  10256 20230,78.08,73.4,,,,57.53,,NE,29.43,28.53,,Clear
KIGQ,07/18/2018 00:15 UTC,30.08,72.86,57.02,57.62,8.05,50.0,,,,,,1.0,,,,10.0,,KIGQ 180015Z AUTO 05007KT 10SM CLR 23/14 A3008 RMK AO2  T02270139,,,,,,56.99,,NE,29.43,28.56,,Clear
KIGQ,07/18/2018 00:35 UTC,30.08,72.14,58.64,62.57,0.0,0.0,,,,,,1.0,,,,10.0,,KIGQ 180035Z AUTO 00000KT 10SM CLR 22/15 A3008 RMK AO2  T02230148,,,,,,58.61,,N,29.43,28.49,,Clear
KIGQ,07/18/2018 00:55 UTC,30.08,71.6,59.0,64.54,10.36,40.0,,,,,,1.0,,,,10.0,,KIGQ 180055Z AUTO 04009KT 10SM CLR 22/15 A3008 RMK AO2  T02200150,,,,,,58.96,,NE,29.43,28.47,,Clear
KIGQ,07/18/2018 01:15 UTC,30.08,70.52,60.26,70.02,8.05,50.0,,,,,,1.0,,,,10.0,,KIGQ 180115Z AUTO 05007KT 10SM CLR 21/16 A3008 RMK AO2  T02140157,,,,,,60.23,,NE,29.43,28.42,,Clear
KIGQ,07/18/2018 01:35 UTC,30.09,69.98,60.44,71.78,9.22,50.0,,,,,,1.0,,,,10.0,,KIGQ 180135Z AUTO 05008KT 10SM CLR 21/16 A3009 RMK AO2  T02110158,,,,,,60.41,,NE,29.44,28.42,,Clear
KIGQ,07/18/2018 01:55 UTC,30.09,69.44,61.52,75.96,9.22,50.0,,,,,,1.0,,,,10.0,,KIGQ 180155Z AUTO 05008KT 10SM CLR 21/16 A3009 RMK AO2  T02080164,,,,,,61.49,,NE,29.44,28.37,,Clear
KIGQ,07/18/2018 02:15 UTC,30.1,68.9,61.52,77.37,8.05,40.0,,,,,,1.0,,,,10.0,,KIGQ 180215Z AUTO 04007KT 10SM CLR 21/16 A3010 RMK AO2  T02050164,,,,,,61.49,,NE,29.45,28.39,,Clear
KIGQ,07/18/2018 02:35 UTC,30.1,68.36,61.7,79.32,8.05,40.0,,,,,,1.0,,,,10.0,,KIGQ 180235Z AUTO 04007KT 10SM CLR 20/17 A3010 RMK AO2  T02020165,,,,,,61.67,,NE,29.45,28.38,,Clear
KIGQ,07/18/2018 02:55 UTC,30.1,68.36,61.34,78.32,9.22,50.0,,,,,,1.0,,,,10.0,,KIGQ 180255Z AUTO 05008KT 10SM CLR 20/16 A3010 RMK AO2  T02020163,,,,,,61.31,,NE,29.45,28.4,,Clear
KIGQ,07/18/2018 03:15 UTC,30.11,68.0,60.44,76.8,8.05,30.0,,,,,,1.0,,,,10.0,,KIGQ 180315Z AUTO 03007KT 10SM CLR 20/16 A3011 RMK AO2  T02000158,,,,,,60.4,,NNE,29.46,28.47,,Clear
KIGQ,07/18/2018 03:35 UTC,30.11,68.0,61.16,78.79,6.91,30.0,,,,,,1.0,,,,10.0,,KIGQ 180335Z AUTO 03006KT 10SM CLR 20/16 A3011 RMK AO2  T02000162,,,,,,61.13,,NNE,29.46,28.43,,Clear
KIGQ,07/18/2018 03:55 UTC,30.11,67.46,61.34,80.78,5.75,40.0,,,,,,1.0,,,,10.0,,KIGQ 180355Z AUTO 04005KT 10SM CLR 20/16 A3011 RMK AO2  T01970163,,,,,,61.31,,NE,29.46,28.42,,Clear
KIGQ,07/18/2018 04:15 UTC,30.11,67.1,60.44,79.22,6.91,40.0,,,,,,1.0,,,,10.0,,KIGQ 180415Z AUTO 04006KT 10SM CLR 20/16 A3011 RMK AO2  T01950158,,,,,,60.41,,NE,29.46,28.48,,Clear
KIGQ,07/18/2018 04:35 UTC,30.11,67.28,59.9,77.23,5.75,30.0,,,,,,1.0,,,,10.0,,KIGQ 180435Z AUTO 03005KT 10SM CLR 20/16 A3011 RMK AO2  T01960155,,,,,,59.86,,NNE,29.46,28.5,,Clear
KIGQ,07/18/2018 04:55 UTC,30.11,67.1,59.54,76.72,5.75,40.0,,,,,,1.0,,,,10.0,,KIGQ 180455Z AUTO 04005KT 10SM CLR 20/15 A3011 RMK AO2  T01950153,,,,,,59.5,,NE,29.46,28.52,,Clear
KIGQ,07/18/2018 05:15 UTC,30.11,66.38,59.0,77.16,4.61,50.0,,,,,,1.0,,,,10.0,,KIGQ 180515Z AUTO 05004KT 10SM CLR 19/15 A3011 RMK AO2  T01910150,,,,,,58.96,,NE,29.46,28.56,,Clear
KIGQ,07/18/2018 05:35 UTC,30.12,66.56,58.46,75.21,3.44,40.0,,,,,,1.0,,,,10.0,,KIGQ 180535Z AUTO 04003KT 10SM CLR 19/15 A3012 RMK AO2  T01920147,,,,,,58.42,,NE,29.47,28.6,,Clear
KIGQ,07/18/2018 05:55 UTC,30.12,66.56,58.28,74.73,4.61,40.0,,,,,,1.0,,,,10.0,,KIGQ 180555Z AUTO 04004KT 10SM CLR 19/15 A3012 RMK AO2 T01920146  10230 20190 402720186,73.4,66.2,,80.96,65.48,58.24,,NE,29.47,28.61,,Clear
KIGQ,07/18/2018 06:15 UTC,30.12,66.38,57.56,73.28,3.44,30.0,,,,,,1.0,,,,10.0,,KIGQ 180615Z AUTO 03003KT 10SM CLR 19/14 A3012 RMK AO2  T01910142,,,,,,57.52,,NNE,29.47,28.64,,Clear
KIGQ,07/18/2018 06:35 UTC,30.12,66.38,57.38,72.8,3.44,30.0,,,,,,1.0,,,,10.0,,KIGQ 180635Z AUTO 03003KT 10SM CLR 19/14 A3012 RMK AO2  T01910141,,,,,,57.33,,NNE,29.47,28.65,,Clear
KIGQ,07/18/2018 06:55 UTC,30.12,66.2,56.66,71.38,0.0,0.0,,,,,,1.0,,,,10.0,,KIGQ 180655Z AUTO 00000KT 10SM CLR 19/14 A3012 RMK AO2  T01900137,,,,,,56.61,,N,29.47,28.69,,Clear
KIGQ,07/18/2018 07:15 UTC,30.12,65.84,56.3,71.34,3.44,20.0,,,,,,1.0,,,,10.0,,KIGQ 180715Z AUTO 02003KT 10SM CLR 19/14 A3012 RMK AO2  T01880135,,,,,,56.25,,NNE,29.47,28.71,,Clear
KIGQ,07/18/2018 07:35 UTC,30.12,65.66,56.3,71.79,0.0,0.0,,,,,,1.0,,,,10.0,,KIGQ 180735Z AUTO 00000KT 10SM CLR 19/14 A3012 RMK AO2  T01870135,,,,,,56.25,,N,29.47,28.71,,Clear
KIGQ,07/18/2018 07:55 UTC,30.12,64.76,56.48,74.56,3.44,20.0,,,,,,1.0,,,,10.0,,KIGQ 180755Z AUTO 02003KT 10SM CLR 18/14 A3012 RMK AO2  T01820136,,,,,,56.43,,NNE,29.47,28.71,,Clear
KIGQ,07/18/2018 08:15 UTC,30.12,63.14,56.3,78.39,0.0,0.0,,,,,,1.0,,,,10.0,,KIGQ 180815Z AUTO 00000KT 10SM CLR 17/14 A3012 RMK AO2  T01730135,,,,,,56.26,,N,29.47,28.74,,Clear
KIGQ,07/18/2018 08:35 UTC,30.12,60.8,56.66,86.24,0.0,0.0,,,,,,1.0,,,,10.0,,KIGQ 180835Z AUTO 00000KT 10SM CLR 16/14 A3012 RMK AO2  T01600137,,,,,,56.63,,N,29.47,28.75,,Clear
KIGQ,07/18/2018 08:55 UTC,30.13,60.98,57.02,86.81,0.0,0.0,,,,,,1.0,,,,10.0,,KIGQ 180855Z AUTO 00000KT 10SM CLR 16/14 A3013 RMK AO2  T01610139,,,,,,56.99,,N,29.47,28.73,,Clear
KIGQ,07/18/2018 09:15 UTC,30.13,57.38,55.76,94.32,0.0,0.0,,,,,,1.0,,,,10.0,,KIGQ 180915Z AUTO 00000KT 10SM CLR 14/13 A3013 RMK AO2  T01410132,,,,,,55.75,,N,29.47,28.83,,Clear
KIGQ,07/18/2018 09:35 UTC,30.13,57.74,56.84,96.81,0.0,0.0,,,,,,1.0,,,,10.0,,KIGQ 180935Z AUTO 00000KT 10SM CLR 14/14 A3013 RMK AO2  T01430138,,,,,,56.83,,N,29.47,28.78,,Clear
KIGQ,07/18/2018 09:55 UTC,30.13,59.0,57.56,94.97,0.0,0.0,,,,,,1.0,,,,10.0,,KIGQ 180955Z AUTO 00000KT 10SM CLR 15/14 A3013 RMK AO2  T01500142,,,,,,57.55,,N,29.47,28.73,,Clear
KIGQ,07/18/2018 10:15 UTC,30.13,58.82,57.38,94.97,0.0,0.0,,,,,,1.0,,,,10.0,,KIGQ 181015Z AUTO 00000KT 10SM CLR 15/14 A3013 RMK AO2  T01490141,,,,,,57.37,,N,29.47,28.74,,Clear
KIGQ,07/18/2018 10:35 UTC,30.13,58.46,56.84,94.35,0.0,0.0,,,,,,1.0,,,,10.0,,KIGQ 181035Z AUTO 00000KT 10SM CLR 15/14 A3013 RMK AO2  T01470138,,,,,,56.83,,N,29.47,28.77,,Clear
KIGQ,07/18/2018 10:55 UTC,30.13,56.66,56.3,98.71,0.0,0.0,,,,,,1.0,,,,10.0,,KIGQ 181055Z AUTO 00000KT 10SM CLR 14/14 A3013 RMK AO2  T01370135,,,,,,56.3,,N,29.47,28.81,,Clear
KIGQ,07/18/2018 11:15 UTC,30.13,58.46,57.2,95.58,0.0,0.0,,,,,,22.0,,,,10.0,,KIGQ 181115Z AUTO 00000KT 10SM SCT002 15/14 A3013 RMK AO2  T01470140,,,,,,57.19,,N,29.47,28.75,,Partly Cloudy
KIGQ,07/18/2018 11:35 UTC,30.13,59.9,58.28,94.38,0.0,0.0,,,,,,22.0,,,,10.0,,KIGQ 181135Z AUTO 00000KT 10SM SCT002 16/15 A3013 RMK AO2  T01550146,,,,,,58.27,,N,29.47,28.68,,Partly Cloudy
KIGQ,07/18/2018 11:55 UTC,30.14,62.24,59.9,92.05,0.0,0.0,,,,,,1.0,,,,10.0,,KIGQ 181155Z AUTO 00000KT 10SM CLR 17/16 A3014 RMK AO2 T01680155  10192 20137,66.56,56.66,,,,59.88,,N,29.48,28.58,,Clear
KIGQ,07/18/2018 12:15 UTC,30.14,64.58,60.98,88.12,0.0,0.0,,,,,,22.0,,,,10.0,,KIGQ 181215Z AUTO 00000KT 10SM SCT002 18/16 A3014 RMK AO2  T01810161,,,,,,60.96,,N,29.48,28.5,,Partly Cloudy
KIGQ,07/18/2018 12:35 UTC,30.14,67.46,61.88,82.33,3.44,50.0,,,,,,1.0,,,,10.0,,KIGQ 181235Z AUTO 05003KT 10SM CLR 20/17 A3014 RMK AO2  T01970166,,,,,,61.85,,NE,29.48,28.41,,Clear
KIGQ,07/18/2018 12:55 UTC,30.14,69.44,61.7,76.44,8.05,60.0,,,,,,1.0,,,,10.0,,KIGQ 181255Z AUTO 06007KT 10SM CLR 21/17 A3014 RMK AO2  T02080165,,,,,,61.67,,ENE,29.48,28.4,,Clear
KIGQ,07/18/2018 13:15 UTC,30.13,69.98,60.26,71.32,8.05,30.0,,,,,,1.0,,,,10.0,,KIGQ 181315Z AUTO 03007KT 10SM CLR 21/16 A3013 RMK AO2  T02110157,,,,,,60.23,,NNE,29.47,28.46,,Clear
KIGQ,07/18/2018 13:35 UTC,30.14,70.88,59.9,68.29,6.91,50.0,,,,,,1.0,,,,10.0,,KIGQ 181335Z AUTO 05006KT 10SM CLR 22/16 A3014 RMK AO2  T02160155,,,,,,59.86,,NE,29.48,28.48,,Clear
KIGQ,07/18/2018 13:55 UTC,30.13,70.7,59.18,66.97,8.05,30.0,,,,,,1.0,,,,10.0,,KIGQ 181355Z AUTO 03007KT 10SM CLR 22/15 A3013 RMK AO2  T02150151,,,,,,59.14,,NNE,29.47,28.51,,Clear
KIGQ,07/18/2018 14:15 UTC,30.14,71.6,60.44,67.94,6.91,70.0,,,,,,1.0,,,,10.0,,KIGQ 181415Z AUTO 07006KT 10SM CLR 22/16 A3014 RMK AO2  T02200158,,,,,,60.41,,ENE,29.48,28.44,,Clear
KIGQ,07/18/2018 14:35 UTC,30.13,71.6,57.92,62.09,6.91,40.0,,,,,,1.0,,,,10.0,,KIGQ 181435Z AUTO 04006KT 10SM CLR 22/14 A3013 RMK AO2  T02200144,,,,,,57.88,,NE,29.47,28.57,,Clear
KIGQ,07/18/2018 14:55 UTC,30.13,72.86,58.28,60.28,10.36,60.0,,,,,,1.0,,,,10.0,,KIGQ 181455Z AUTO 06009KT 10SM CLR 23/15 A3013 RMK AO2  T02270146,,,,,,58.25,,ENE,29.47,28.54,,Clear
KIGQ,07/18/2018 15:15 UTC,30.13,73.04,56.66,56.53,9.22,60.0,,,,,,1.0,,,,10.0,,KIGQ 181515Z AUTO 06008KT 10SM CLR 23/14 A3013 RMK AO2  T02280137,,,,,,56.62,,ENE,29.47,28.62,,Clear
KIGQ,07/18/2018 15:35 UTC,30.14,73.22,56.12,55.1,11.5,80.0,16.11,,,,,1.0,,,,10.0,,KIGQ 181535Z AUTO 08010G14KT 10SM CLR 23/13 A3014 RMK AO2  T02290134,,,,,,56.08,,E,29.48,28.65,,Clear
KIGQ,07/18/2018 15:55 UTC,30.14,73.4,55.22,53.01,11.5,60.0,,,,,,1.0,,,,10.0,,KIGQ 181555Z AUTO 06010KT 10SM CLR 23/13 A3014 RMK AO2  T02300129,,,,,,55.18,,ENE,29.48,28.7,,Clear
KIGQ,07/18/2018 16:15 UTC,30.14,73.58,56.12,54.44,8.05,30.0,,,,,,1.0,,,,10.0,,KIGQ 181615Z AUTO 03007KT 10SM CLR 23/13 A3014 RMK AO2  T02310134,,,,,,56.09,,NNE,29.48,28.65,,Clear
KIGQ,07/18/2018 16:35 UTC,30.13,74.3,56.12,53.15,10.36,40.0,,,,,,1.0,,,,10.0,,KIGQ 181635Z AUTO 04009KT 10SM CLR 24/13 A3013 RMK AO2  T02350134,,,,,,56.09,,NE,29.47,28.63,,Clear
KIGQ,07/18/2018 16:55 UTC,30.13,74.12,55.76,52.77,10.36,40.0,17.27,,,,,1.0,,,,10.0,,KIGQ 181655Z AUTO 04009G15KT 10SM CLR 23/13 A3013 RMK AO2  T02340132,,,,,,55.73,,NE,29.47,28.65,,Clear
KIGQ,07/18/2018 17:15 UTC,30.13,74.48,56.48,53.52,8.05,90.0,,,,,,1.0,,,,10.0,,KIGQ 181715Z AUTO 09007KT 10SM CLR 24/14 A3013 RMK AO2  T02360136,,,,,,56.45,,E,29.47,28.61,,Clear
KIGQ,07/18/2018 17:35 UTC,30.13,75.38,55.76,50.6,11.5,30.0,,,,,,1.0,,,,10.0,,KIGQ 181735Z AUTO 03010KT 10SM CLR 24/13 A3013 RMK AO2  T02410132,,,,,,55.74,,NNE,29.47,28.64,,Clear
KIGQ,07/18/2018 17:55 UTC,30.13,75.38,55.22,49.62,9.22,60.0,16.11,,,,,1.0,,,,10.0,,KIGQ 181755Z AUTO 06008G14KT 10SM CLR 24/13 A3013 RMK AO2  T02410129 10241 20169,75.38,62.42,,,,55.2,,ENE,29.47,28.67,,Clear
KIGQ,07/18/2018 18:15 UTC,30.13,76.1,56.3,50.38,11.5,50.0,16.11,,,,,1.0,,,,10.0,,KIGQ 181815Z AUTO 05010G14KT 10SM CLR 25/14 A3013 RMK AO2  T02450135,,,,,,56.28,,NE,29.47,28.61,,Clear
KIGQ,07/18/2018 18:35 UTC,30.12,76.1,54.32,46.89,12.66,70.0,17.27,,,,,1.0,,,,10.0,,KIGQ 181835Z AUTO 07011G15KT 10SM CLR 25/12 A3012 RMK AO2  T02450124,,,,,,54.3,,ENE,29.47,28.7,,Clear
KIGQ,07/18/2018 18:55 UTC,30.12,76.1,55.4,48.77,6.91,50.0,,,,,,1.0,,,,10.0,,KIGQ 181855Z AUTO 05006KT 10SM CLR 25/13 A3012 RMK AO2  T02450130,,,,,,55.39,,NE,29.47,28.65,,Clear
KIGQ,07/18/2018 19:15 UTC,30.12,75.74,55.22,49.03,11.5,40.0,,,,,,1.0,,,,10.0,,KIGQ 181915Z AUTO 04010KT 10SM CLR 24/13 A3012 RMK AO2  T02430129,,,,,,55.2,,NE,29.47,28.66,,Clear
KIGQ,07/18/2018 19:35 UTC,30.11,76.1,54.86,47.82,11.5,30.0,20.71,,,,,1.0,,,,10.0,,KIGQ 181935Z AUTO 03010G18KT 010V080 10SM CLR 25/13 A3011 RMK AO2  T02450127,,,,,,54.84,,NNE,29.46,28.67,,Clear
KIGQ,07/18/2018 19:55 UTC,30.11,76.1,55.76,49.41,11.5,50.0,16.11,,,,,1.0,,,,,,KIGQ 181955Z AUTO 05010G14KT CLR 25/13 A3011 RMK AO2 T02450132,,,,,,55.75,,NE,29.46,28.62,,Clear
KIGQ,07/18/2018 20:15 UTC,30.11,75.74,54.32,47.45,10.36,60.0,,,,,,1.0,,,,10.0,,KIGQ 182015Z AUTO 06009KT 10SM CLR 24/12 A3011 RMK AO2  T02430124,,,,,,54.3,,ENE,29.46,28.7,,Clear
KIGQ,07/18/2018 20:35 UTC,30.1,75.38,54.14,47.71,9.22,70.0,18.41,,,,,1.0,,,,10.0,,KIGQ 182035Z AUTO 07008G16KT 10SM CLR 24/12 A3010 RMK AO2  T02410123,,,,,,54.12,,ENE,29.45,28.7,,Clear
KIGQ,07/18/2018 20:55 UTC,30.09,75.2,53.96,47.68,9.22,40.0,,,,,,1.0,,,,10.0,,KIGQ 182055Z AUTO 04008KT 10SM CLR 24/12 A3009 RMK AO2  T02400122,,,,,,53.94,,NE,29.44,28.7,,Clear
KIGQ,07/18/2018 21:15 UTC,30.08,75.2,54.5,48.63,10.36,50.0,,,,,,1.0,,,,10.0,,KIGQ 182115Z AUTO 05009KT 10SM CLR 24/13 A3008 RMK AO2  T02400125,,,,,,54.48,,NE,29.43,28.66,,Clear
KIGQ,07/18/2018 21:35 UTC,30.08,74.84,54.86,49.86,10.36,50.0,,,,,,1.0,,,,10.0,,KIGQ 182135Z AUTO 05009KT 10SM CLR 24/13 A3008 RMK AO2  T02380127,,,,,,54.83,,NE,29.43,28.65,,Clear
KIGQ,07/18/2018 21:55 UTC,30.08,74.3,53.06,47.54,10.36,40.0,,,,,,1.0,,,,10.0,,KIGQ 182155Z AUTO 04009KT 10SM CLR 24/12 A3008 RMK AO2  T02350117,,,,,,53.03,,NE,29.43,28.74,,Clear
KIGQ,07/18/2018 22:15 UTC,30.08,74.12,52.88,47.51,10.36,40.0,,,,,,1.0,,,,10.0,,KIGQ 182215Z AUTO 04009KT 10SM CLR 23/12 A3008 RMK AO2  T02340116,,,,,,52.84,,NE,29.43,28.75,,Clear
KIGQ,07/18/2018 22:35 UTC,30.08,74.3,53.24,47.86,9.22,70.0,16.11,,,,,1.0,,,,10.0,,KIGQ 182235Z AUTO 07008G14KT 10SM CLR 24/12 A3008 RMK AO2  T02350118,,,,,,53.21,,ENE,29.43,28.73,,Clear
KIGQ,07/18/2018 22:55 UTC,30.07,74.3,52.88,47.23,9.22,50.0,,,,,,1.0,,,,10.0,,KIGQ 182255Z AUTO 05008KT 10SM CLR 24/12 A3007 RMK AO2  T02350116,,,,,,52.85,,NE,29.42,28.73,,Clear
KIGQ,07/18/2018 23:15 UTC,30.06,73.76,53.06,48.41,9.22,60.0,,,,,,1.0,,,,10.0,,KIGQ 182315Z AUTO 06008KT 10SM CLR 23/12 A3006 RMK AO2  T02320117,,,,,,53.02,,ENE,29.41,28.72,,Clear
KIGQ,07/18/2018 23:35 UTC,30.06,73.4,53.42,49.65,4.61,50.0,,,,,,1.0,,,,10.0,,KIGQ 182335Z AUTO 05004KT 10SM CLR 23/12 A3006 RMK AO2  T02300119,,,,,,53.38,,NE,29.41,28.71,,Clear
KIGQ,07/18/2018 23:55 UTC,30.06,71.6,53.24,52.4,4.61,40.0,,,,,,1.0,,,,10.0,,KIGQ 182355Z AUTO 04004KT 10SM CLR 22/12 A3006 RMK AO2 T02200118  10246 20220,76.28,71.6,,,,53.19,,NE,29.41,28.73,,Clear
KIGQ,07/19/2018 00:15 UTC,30.06,71.42,53.96,54.13,0.0,0.0,,,,,,1.0,,,,10.0,,KIGQ 190015Z AUTO 00000KT 10SM CLR 22/12 A3006 RMK AO2  T02190122,,,,,,53.91,,N,29.41,28.7,,Clear
KIGQ,07/19/2018 00:35 UTC,30.05,70.7,54.32,56.2,3.44,40.0,,,,,,1.0,,,,10.0,,KIGQ 190035Z AUTO 04003KT 10SM CLR 22/12 A3005 RMK AO2  T02150124,,,,,,54.27,,NE,29.4,28.68,,Clear
KIGQ,07/19/2018 00:55 UTC,30.06,70.52,54.68,57.29,4.61,40.0,,,,,,1.0,,,,10.0,,KIGQ 190055Z AUTO 04004KT 10SM CLR 21/13 A3006 RMK AO2  T02140126,,,,,,54.63,,NE,29.41,28.68,,Clear
KIGQ,07/19/2018 01:15 UTC,30.05,69.8,55.58,60.66,6.91,30.0,,,,,,1.0,,,,10.0,,KIGQ 190115Z AUTO 03006KT 10SM CLR 21/13 A3005 RMK AO2  T02100131,,,,,,55.53,,NNE,29.4,28.63,,Clear
KIGQ,07/19/2018 01:35 UTC,30.04,68.9,56.48,64.63,6.91,40.0,,,,,,1.0,,,,10.0,,KIGQ 190135Z AUTO 04006KT 10SM CLR 21/14 A3004 RMK AO2  T02050136,,,,,,56.43,,NE,29.39,28.59,,Clear
KIGQ,07/19/2018 01:55 UTC,30.05,68.9,57.56,67.19,3.44,60.0,,,,,,1.0,,,,10.0,,KIGQ 190155Z AUTO 06003KT 10SM CLR 21/14 A3005 RMK AO2  T02050142,,,,,,57.51,,ENE,29.4,28.54,,Clear
KIGQ,07/19/2018 02:15 UTC,30.06,69.08,58.46,68.97,3.44,50.0,,,,,,1.0,,,,10.0,,KIGQ 190215Z AUTO 05003KT 10SM CLR 21/15 A3006 RMK AO2  T02060147,,,,,,58.42,,NE,29.41,28.51,,Clear
KIGQ,07/19/2018 02:35 UTC,30.06,68.36,59.0,72.07,0.0,0.0,,,,,,1.0,,,,10.0,,KIGQ 190235Z AUTO 00000KT 10SM CLR 20/15 A3006 RMK AO2  T02020150,,,,,,58.96,,N,29.41,28.49,,Clear
KIGQ,07/19/2018 02:55 UTC,30.06,68.18,59.0,72.52,0.0,0.0,,,,,,1.0,,,,10.0,,KIGQ 190255Z AUTO 00000KT 10SM CLR 20/15 A3006 RMK AO2  T02010150,,,,,,58.96,,N,29.41,28.49,,Clear
KIGQ,07/19/2018 03:15 UTC,30.06,66.2,59.54,79.15,3.44,90.0,,,,,,1.0,,,,10.0,,KIGQ 190315Z AUTO 09003KT 10SM CLR 19/15 A3006 RMK AO2  T01900153,,,,,,59.51,,E,29.41,28.48,,Clear
KIGQ,07/19/2018 03:35 UTC,30.05,66.92,59.54,77.2,4.61,90.0,,,,,,1.0,,,,10.0,,KIGQ 190335Z AUTO 09004KT 10SM CLR 19/15 A3005 RMK AO2  T01940153,,,,,,59.5,,E,29.4,28.47,,Clear
KIGQ,07/19/2018 03:55 UTC,30.05,66.56,59.72,78.67,0.0,0.0,,,,,,1.0,,,,10.0,,KIGQ 190355Z AUTO 00000KT 10SM CLR 19/15 A3005 RMK AO2  T01920154,,,,,,59.69,,N,29.4,28.46,,Clear
KIGQ,07/19/2018 04:15 UTC,30.05,63.68,59.36,85.85,0.0,0.0,,,,,,1.0,,,,10.0,,KIGQ 190415Z AUTO 00000KT 10SM CLR 18/15 A3005 RMK AO2  T01760152,,,,,,59.33,,N,29.4,28.51,,Clear
KIGQ,07/19/2018 04:35 UTC,30.06,62.42,58.64,87.45,0.0,0.0,,,,,,1.0,,,,10.0,,KIGQ 190435Z AUTO 00000KT 10SM CLR 17/15 A3006 RMK AO2  T01690148,,,,,,58.61,,N,29.41,28.57,,Clear
KIGQ,07/19/2018 04:55 UTC,30.06,61.34,58.28,89.68,0.0,0.0,,,,,,1.0,,,,10.0,,KIGQ 190455Z AUTO 00000KT 10SM CLR 16/15 A3006 RMK AO2  T01630146,,,,,,58.26,,N,29.41,28.6,,Clear
KIGQ,07/19/2018 05:15 UTC,30.06,61.34,58.46,90.26,0.0,0.0,,,,,,1.0,,,,10.0,,KIGQ 190515Z AUTO 00000KT 10SM CLR 16/15 A3006 RMK AO2  T01630147,,,,,,58.44,,N,29.41,28.6,,Clear
KIGQ,07/19/2018 05:35 UTC,30.05,62.6,59.54,89.74,0.0,0.0,,,,,,1.0,,,,10.0,,KIGQ 190535Z AUTO 00000KT 10SM CLR 17/15 A3005 RMK AO2  T01700153,,,,,,59.52,,N,29.4,28.52,,Clear
KIGQ,07/19/2018 05:55 UTC,30.05,62.42,59.0,88.58,0.0,0.0,,,,,,1.0,,,,10.0,,KIGQ 190555Z AUTO 00000KT 10SM CLR 17/15 A3005 RMK AO2 T01690150  10221 20156 402460137,71.78,60.08,,76.28,56.66,58.98,,N,29.4,28.55,,Clear
KIGQ,07/19/2018 06:15 UTC,30.05,61.52,59.0,91.44,0.0,0.0,,,,,,1.0,,,,10.0,,KIGQ 190615Z AUTO 00000KT 10SM CLR 16/15 A3005 RMK AO2  T01640150,,,,,,58.98,,N,29.4,28.56,,Clear
KIGQ,07/19/2018 06:35 UTC,30.05,62.24,58.46,87.44,0.0,0.0,,,,,,1.0,,,,10.0,,KIGQ 190635Z AUTO 00000KT 10SM CLR 17/15 A3005 RMK AO2  T01680147,,,,,,58.43,,N,29.4,28.57,,Clear
KIGQ,07/19/2018 06:55 UTC,30.04,61.34,57.92,88.53,0.0,0.0,,,,,,1.0,,,,10.0,,KIGQ 190655Z AUTO 00000KT 10SM CLR 16/14 A3004 RMK AO2  T01630144,,,,,,57.89,,N,29.39,28.6,,Clear
KIGQ,07/19/2018 07:15 UTC,30.04,61.34,57.56,87.4,0.0,0.0,,,,,,1.0,,,,10.0,,KIGQ 190715Z AUTO 00000KT 10SM CLR 16/14 A3004 RMK AO2  T01630142,,,,,,57.53,,N,29.39,28.62,,Clear
KIGQ,07/19/2018 07:35 UTC,30.04,60.62,57.38,89.07,0.0,0.0,,,,,,1.0,,,,10.0,,KIGQ 190735Z AUTO 00000KT 10SM CLR 16/14 A3004 RMK AO2  T01590141,,,,,,57.35,,N,29.39,28.64,,Clear
KIGQ,07/19/2018 07:55 UTC,30.04,59.72,58.1,94.38,0.0,0.0,,,,,,1.0,,,,10.0,,KIGQ 190755Z AUTO 00000KT 10SM CLR 15/15 A3004 RMK AO2  T01540145,,,,,,58.09,,N,29.39,28.61,,Clear
KIGQ,07/19/2018 08:15 UTC,30.03,59.72,58.1,94.38,0.0,0.0,,,,,,1.0,,,,10.0,,KIGQ 190815Z AUTO 00000KT 10SM CLR 15/15 A3003 RMK AO2  T01540145,,,,,,58.09,,N,29.38,28.6,,Clear
KIGQ,07/19/2018 08:35 UTC,30.03,60.44,57.74,90.81,0.0,0.0,,,,,,1.0,,,,10.0,,KIGQ 190835Z AUTO 00000KT 10SM CLR 16/14 A3003 RMK AO2  T01580143,,,,,,57.72,,N,29.38,28.61,,Clear
KIGQ,07/19/2018 08:55 UTC,30.03,59.72,56.84,90.2,0.0,0.0,,,,,,1.0,,,,10.0,,KIGQ 190855Z AUTO 00000KT 10SM CLR 15/14 A3003 RMK AO2  T01540138,,,,,,56.82,,N,29.38,28.66,,Clear
KIGQ,07/19/2018 09:15 UTC,30.03,58.28,57.38,96.82,0.0,0.0,,,,,,1.0,,,,10.0,,KIGQ 190915Z AUTO 00000KT 10SM CLR 15/14 A3003 RMK AO2  T01460141,,,,,,57.37,,N,29.38,28.65,,Clear
KIGQ,07/19/2018 09:35 UTC,30.02,58.82,57.38,94.97,0.0,0.0,,,,,,1.0,,,,10.0,,KIGQ 190935Z AUTO 00000KT 10SM CLR 15/14 A3002 RMK AO2  T01490141,,,,,,57.37,,N,29.37,28.64,,Clear
KIGQ,07/19/2018 09:55 UTC,30.02,57.2,56.66,98.07,0.0,0.0,,,,,,1.0,,,,10.0,,KIGQ 190955Z AUTO 00000KT 10SM CLR 14/14 A3002 RMK AO2  T01400137,,,,,,56.65,,N,29.37,28.69,,Clear
KIGQ,07/19/2018 10:15 UTC,30.02,58.1,57.56,98.08,0.0,0.0,,,,,,1.0,,,,10.0,,KIGQ 191015Z AUTO 00000KT 10SM CLR 15/14 A3002 RMK AO2  T01450142,,,,,,57.56,,N,29.37,28.64,,Clear
KIGQ,07/19/2018 10:35 UTC,30.01,58.28,56.84,94.96,0.0,0.0,,,,,,1.0,,,,10.0,,KIGQ 191035Z AUTO 00000KT 10SM CLR 15/14 A3001 RMK AO2 LTG DSNT W  T01460138,,,,,,56.83,,N,29.36,28.66,,Clear
KIGQ,07/19/2018 10:55 UTC,30.02,58.1,57.2,96.82,0.0,0.0,,,,,,552.0,,,,10.0,,KIGQ 191055Z AUTO 00000KT 10SM SCT055 15/14 A3002 RMK AO2  T01450140,,,,,,57.19,,N,29.37,28.65,,Partly Cloudy
KIGQ,07/19/2018 11:15 UTC,30.02,58.46,57.74,97.45,0.0,0.0,,,,,,552.0,,,,10.0,,KIGQ 191115Z AUTO 00000KT 10SM SCT055 15/14 A3002 RMK AO2  T01470143,,,,,,57.73,,N,29.37,28.62,,Partly Cloudy
KIGQ,07/19/2018 11:35 UTC,30.02,60.44,58.1,91.99,0.0,0.0,,,,,,1.0,,,,10.0,,KIGQ 191135Z AUTO 00000KT 10SM CLR 16/15 A3002 RMK AO2  T01580145,,,,,,58.08,,N,29.37,28.58,,Clear
KIGQ,07/19/2018 11:55 UTC,30.02,63.86,60.08,87.52,0.0,0.0,,,,,,1.0,,,,10.0,,KIGQ 191155Z AUTO 00000KT 10SM CLR 18/16 A3002 RMK AO2 T01770156  10177 20140,63.86,57.2,,,,60.05,,N,29.37,28.44,,Clear
KIGQ,07/19/2018 12:15 UTC,30.02,65.3,60.08,83.24,0.0,0.0,,,,,,1.0,,,,10.0,,KIGQ 191215Z AUTO 00000KT 10SM CLR 19/16 A3002 RMK AO2  T01850156,,,,,,60.05,,N,29.37,28.43,,Clear
KIGQ,07/19/2018 12:35 UTC,30.02,66.74,60.98,81.76,4.61,110.0,,,,,,1.0,,,,10.0,,KIGQ 191235Z AUTO 11004KT 10SM CLR 19/16 A3002 RMK AO2  T01930161,,,,,,60.95,,ESE,29.37,28.36,,Clear
KIGQ,07/19/2018 12:55 UTC,30.02,68.36,60.8,76.84,3.44,120.0,,,,,,22.0,,,,10.0,,KIGQ 191255Z AUTO 12003KT 10SM SCT002 20/16 A3002 RMK AO2  T02020160,,,,,,60.77,,ESE,29.37,28.35,,Partly Cloudy
KIGQ,07/19/2018 13:15 UTC,30.01,69.8,61.7,75.51,5.75,120.0,,,,,,1.0,,,,10.0,,KIGQ 191315Z AUTO 12005KT 10SM CLR 21/17 A3001 RMK AO2  T02100165,,,,,,61.67,,ESE,29.36,28.27,,Clear
KIGQ,07/19/2018 13:35 UTC,30.01,71.06,62.78,75.15,4.61,110.0,,,,,,1.0,,,,10.0,,KIGQ 191335Z AUTO 11004KT 10SM CLR 22/17 A3001 RMK AO2  T02170171,,,,,,62.75,,ESE,29.36,28.2,,Clear
KIGQ,07/19/2018 13:55 UTC,30.01,73.22,62.6,69.43,5.75,140.0,,,,,,1.0,,,,10.0,,KIGQ 191355Z AUTO 14005KT 10SM CLR 23/17 A3001 RMK AO2 LTG DSNT W  T02290170,,,,,,62.58,,SE,29.36,28.18,,Clear
KIGQ,07/19/2018 14:15 UTC,30.01,74.48,62.78,66.98,6.91,150.0,,,,,,1.0,,,,10.0,,KIGQ 191415Z AUTO 15006KT 10SM CLR 24/17 A3001 RMK AO2  T02360171,,,,,,62.76,,SSE,29.36,28.15,,Clear
KIGQ,07/19/2018 14:35 UTC,30.0,75.92,64.4,67.57,8.05,150.0,,,,,,1.0,,,,10.0,,KIGQ 191435Z AUTO 15007KT 10SM CLR 24/18 A3000 RMK AO2  T02440180,,,,,,64.39,,SSE,29.35,28.03,,Clear
KIGQ,07/19/2018 14:55 UTC,29.99,77.0,64.4,65.2,10.36,150.0,,,,,,1.0,,,,10.0,,KIGQ 191455Z AUTO 15009KT 10SM CLR 25/18 A2999 RMK AO2  T02500180,,,,,,64.4,,SSE,29.34,28.0,,Clear
KIGQ,07/19/2018 15:15 UTC,29.99,77.36,64.04,63.62,8.05,170.0,,,,,,1.0,,,,10.0,,KIGQ 191515Z AUTO 17007KT 10SM CLR 25/18 A2999 RMK AO2  T02520178,,,,,,64.04,,S,29.34,28.02,,Clear
KIGQ,07/19/2018 15:35 UTC,29.99,78.26,64.76,63.33,10.36,160.0,,,,,,1.0,,,,10.0,,KIGQ 191535Z AUTO 16009KT 10SM CLR 26/18 A2999 RMK AO2  T02570182,,,,,,64.76,,SSE,29.34,27.97,,Clear
KIGQ,07/19/2018 15:55 UTC,29.98,79.34,64.58,60.75,12.66,150.0,16.11,,,,,1.0,,,,10.0,,KIGQ 191555Z AUTO 15011G14KT 10SM CLR 26/18 A2998 RMK AO2  T02630181,,,,,,64.59,,SSE,29.33,27.96,,Clear
KIGQ,07/19/2018 16:15 UTC,29.97,80.06,64.58,59.34,8.05,170.0,11.5,,,,,1.0,,,,10.0,,KIGQ 191615Z AUTO 17007G10KT 10SM CLR 27/18 A2997 RMK AO2  T02670181,,,,,,64.6,,S,29.32,27.94,81.81,Clear
KIGQ,07/19/2018 16:35 UTC,29.98,80.96,64.58,57.62,8.05,160.0,,,,,,1.0,,,,10.0,,KIGQ 191635Z AUTO 16007KT 10SM CLR 27/18 A2998 RMK AO2  T02720181,,,,,,64.6,,SSE,29.33,27.94,82.67,Clear
KIGQ,07/19/2018 16:55 UTC,29.97,81.5,64.4,56.27,12.66,180.0,,,,,,1.0,,,,10.0,,KIGQ 191655Z AUTO 18011KT 10SM CLR 28/18 A2997 RMK AO2  T02750180,,,,,,64.43,,S,29.32,27.93,83.14,Clear
KIGQ,07/19/2018 17:15 UTC,29.97,81.68,63.14,53.53,10.36,170.0,21.85,,,,,1.0,,,,10.0,,KIGQ 191715Z AUTO 17009G19KT 10SM CLR 28/17 A2997 RMK AO2  T02760173,,,,,,63.17,,S,29.32,28.01,82.94,Clear
KIGQ,07/19/2018 17:35 UTC,29.96,81.14,63.5,55.16,13.8,170.0,,,,,,502.0,,,,10.0,,KIGQ 191735Z AUTO 17012KT 10SM SCT050 27/18 A2996 RMK AO2  T02730175,,,,,,63.52,,S,29.31,27.99,82.55,Partly Cloudy
KIGQ,07/19/2018 17:55 UTC,29.96,83.12,62.42,49.82,11.5,160.0,18.41,,,,,502.0,,,,10.0,,KIGQ 191755Z AUTO 16010G16KT 10SM SCT050 28/17 A2996 RMK AO2  T02840169 10286 20179,83.48,64.22,,,,62.47,,SSE,29.31,28.03,84.01,Partly Cloudy
KIGQ,07/19/2018 18:15 UTC,29.95,83.3,61.88,48.6,16.11,180.0,24.16,,,,,602.0,,,,10.0,,KIGQ 191815Z AUTO 18014G21KT 10SM SCT060 29/17 A2995 RMK AO2  T02850166,,,,,,61.93,,S,29.3,28.05,84.0,Partly Cloudy
KIGQ,07/19/2018 18:35 UTC,29.94,83.66,61.34,47.13,14.97,170.0,21.85,,,,,1.0,,,,10.0,,KIGQ 191835Z AUTO 17013G19KT 10SM CLR 29/16 A2994 RMK AO2 LTG DSNT  W T02870163,,,,,,61.39,,S,29.29,28.07,84.15,Clear
KIGQ,07/19/2018 18:55 UTC,29.94,83.12,61.52,48.26,12.66,170.0,19.57,,,,,1.0,,,,10.0,,KIGQ 191855Z AUTO 17011G17KT 10SM CLR 28/16 A2994 RMK AO2  T02840164,,,,,,61.57,,S,29.29,28.07,83.73,Clear
KIGQ,07/19/2018 19:15 UTC,29.93,82.94,60.62,47.02,12.66,170.0,,,,,,1.0,,,,10.0,,KIGQ 191915Z AUTO 17011KT 10SM CLR 28/16 A2993 RMK AO2 LTG DSNT W  T02830159,,,,,,60.67,,S,29.28,28.11,83.32,Clear
KIGQ,07/19/2018 19:35 UTC,29.93,84.38,61.34,46.05,11.5,160.0,17.27,,,,,1.0,,,,10.0,,KIGQ 191935Z AUTO 16010G15KT 10SM CLR 29/16 A2993 RMK AO2  T02910163,,,,,,61.4,,SSE,29.28,28.06,84.78,Clear
KIGQ,07/19/2018 19:55 UTC,29.93,84.38,61.16,45.76,19.57,180.0,24.16,,,,,1.0,,,,10.0,,KIGQ 191955Z AUTO 18017G21KT 10SM CLR 29/16 A2993 RMK AO2  T02910162,,,,,,61.22,,S,29.28,28.07,84.72,Clear
KIGQ,07/19/2018 20:15 UTC,29.93,84.38,62.06,47.24,13.8,200.0,20.71,,,,,1.0,,,,10.0,,KIGQ 192015Z AUTO 20012G18KT 10SM CLR 29/17 A2993 RMK AO2  T02910167,,,,,,62.12,,SSW,29.28,28.01,85.03,Clear
KIGQ,07/19/2018 20:35 UTC,29.93,84.92,63.68,49.15,13.8,190.0,17.27,,,,,1.0,,,,10.0,,KIGQ 192035Z AUTO 19012G15KT 10SM CLR 29/18 A2993 RMK AO2 LTG DSNT  W T02940176,,,,,,63.75,,S,29.28,27.9,86.14,Clear
KIGQ,07/19/2018 20:55 UTC,29.92,83.66,62.6,49.27,12.66,200.0,,,,,,1.0,,,,10.0,,KIGQ 192055Z AUTO 20011KT 10SM CLR 29/17 A2992 RMK AO2  T02870170,,,,,,62.65,,SSW,29.27,27.98,84.56,Clear
KIGQ,07/19/2018 21:15 UTC,29.91,83.84,64.22,51.85,11.5,200.0,,,,,,1002.0,,,,10.0,,KIGQ 192115Z AUTO 20010KT 10SM SCT100 29/18 A2991 RMK AO2  T02880179,,,,,,64.27,,SSW,29.26,27.86,85.32,Partly Cloudy
KIGQ,07/19/2018 21:35 UTC,29.9,84.56,65.12,52.28,10.36,210.0,17.27,,,,,1002.0,,,,10.0,,KIGQ 192135Z AUTO 21009G15KT 10SM SCT100 29/18 A2990 RMK AO2  T02920184,,,,,,65.18,,SSW,29.25,27.78,86.4,Partly Cloudy
KIGQ,07/19/2018 21:55 UTC,29.89,83.12,64.58,53.73,11.5,210.0,,,,,,552.0,1002.0,,,10.0,,KIGQ 192155Z AUTO 21010KT 10SM SCT055 SCT100 28/18 A2989 RMK AO2  T02840181,,,,,,64.62,,SSW,29.24,27.82,84.76,Partly Cloudy
KIGQ,07/19/2018 22:15 UTC,29.88,81.32,65.12,58.03,8.05,190.0,,,,,,552.0,,,,10.0,,KIGQ 192215Z AUTO 19007KT 10SM SCT055 27/18 A2988 RMK AO2  T02740184,,,,,,65.14,,S,29.23,27.8,83.18,Partly Cloudy
KIGQ,07/19/2018 22:35 UTC,29.88,80.6,65.84,60.91,10.36,190.0,,,,,,1.0,,,,10.0,,KIGQ 192235Z AUTO 19009KT 10SM CLR 27/19 A2988 RMK AO2  T02700188,,,,,,65.86,,S,29.23,27.76,82.66,Clear
KIGQ,07/19/2018 22:55 UTC,29.87,80.78,64.94,58.69,11.5,170.0,,,,,,1.0,,,,10.0,,KIGQ 192255Z AUTO 17010KT 10SM CLR 27/18 A2987 RMK AO2  T02710183,,,,,,64.96,,S,29.22,27.8,82.6,Clear
KIGQ,07/19/2018 23:15 UTC,29.86,80.6,65.12,59.41,10.36,170.0,,,,,,1202.0,,,,10.0,,KIGQ 192315Z AUTO 17009KT 10SM SCT120 27/18 A2986 RMK AO2  T02700184,,,,,,65.14,,S,29.21,27.78,82.47,Partly Cloudy
KIGQ,07/19/2018 23:35 UTC,29.87,80.06,65.48,61.22,10.36,180.0,,,,,,1103.0,,,,10.0,,KIGQ 192335Z AUTO 18009KT 10SM BKN110 27/19 A2987 RMK AO2 LTG DSNT  NW T02670186,,,11000.0,,,65.49,,S,29.22,27.78,82.02,Mostly Cloudy
KIGQ,07/19/2018 23:55 UTC,29.86,79.88,65.66,61.97,11.5,170.0,,5.0,,,,1103.0,,,,10.0,,KIGQ 192355Z AUTO 17010KT 10SM VCTS BKN110 27/19 A2986 RMK AO2 LTG  DSNT NW T02660187 10295 20266,85.1,79.88,11000.0,,,65.67,,S,29.21,27.76,,Thunder
KIGQ,07/20/2018 00:15 UTC,29.85,79.7,65.84,62.72,11.5,160.0,16.11,,,,,952.0,1103.0,,,10.0,,KIGQ 200015Z AUTO 16010G14KT 10SM SCT095 BKN110 27/19 A2985 RMK AO2 LTG DSNT NW T02650188,,,11000.0,,,65.85,,SSE,29.2,27.74,,Mostly Cloudy
KIGQ,07/20/2018 00:35 UTC,29.83,79.7,65.84,62.72,9.22,150.0,,,,,,952.0,1202.0,,,10.0,,KIGQ 200035Z AUTO 15008KT 10SM SCT095 SCT120 27/19 A2983 RMK AO2  T02650188,,,,,,65.85,,SSE,29.18,27.72,,Partly Cloudy
KIGQ,07/20/2018 00:55 UTC,29.84,78.98,65.84,64.22,5.75,160.0,,,,,,802.0,,,,10.0,,KIGQ 200055Z AUTO 16005KT 10SM SCT080 26/19 A2984 RMK AO2  T02610188,,,,,,65.85,,SSE,29.19,27.73,,Partly Cloudy
KIGQ,07/20/2018 01:15 UTC,29.84,78.44,65.66,64.96,8.05,160.0,,,,,,802.0,1102.0,,,10.0,,KIGQ 200115Z AUTO 16007KT 10SM SCT080 SCT110 26/19 A2984 RMK AO2  T02580187,,,,,,65.66,,SSE,29.19,27.75,,Partly Cloudy
KIGQ,07/20/2018 01:35 UTC,29.84,77.54,65.66,66.91,6.91,150.0,,,,,,702.0,1102.0,,,10.0,,KIGQ 200135Z AUTO 15006KT 10SM SCT070 SCT110 25/19 A2984 RMK AO2  T02530187,,,,,,65.66,,SSE,29.19,27.76,,Partly Cloudy
KIGQ,07/20/2018 01:55 UTC,29.84,77.9,66.2,67.37,6.91,150.0,,,,,,702.0,803.0,,,10.0,,KIGQ 200155Z AUTO 15006KT 10SM SCT070 BKN080 26/19 A2984 RMK AO2  T02550190,,,8000.0,,,66.2,,SSE,29.19,27.72,,Mostly Cloudy
KIGQ,07/20/2018 02:15 UTC,29.84,77.18,66.2,68.99,8.05,150.0,,13.0,1104.0,,,702.0,903.0,,,10.0,,KIGQ 200215Z AUTO 15007KT 10SM -RA SCT070 BKN090 OVC110 25/19  A2984 RMK AO2 T02510190,,,9000.0,,,66.2,,SSE,29.19,27.73,,Light Rain
KIGQ,07/20/2018 02:35 UTC,29.84,76.46,66.74,71.99,5.75,160.0,,,,,,703.0,904.0,,,10.0,,KIGQ 200235Z AUTO 16005KT 10SM BKN070 OVC090 25/19 A2984 RMK AO2  T02470193,,,7000.0,,,66.74,,SSE,29.19,27.7,,Overcast
KIGQ,07/20/2018 02:55 UTC,29.84,77.0,66.2,69.4,9.22,160.0,,,,,,653.0,904.0,,,10.0,,KIGQ 200255Z AUTO 16008KT 10SM BKN065 OVC090 25/19 A2984 RMK AO2  LTG DSNT NW T02500190,,,6500.0,,,66.19,,SSE,29.19,27.73,,Overcast
KIGQ,07/20/2018 03:15 UTC,29.83,76.64,65.84,69.36,8.05,150.0,,,,,,652.0,903.0,,,10.0,,KIGQ 200315Z AUTO 15007KT 10SM SCT065 BKN090 25/19 A2983 RMK AO2  T02480188,,,9000.0,,,65.83,,SSE,29.18,27.75,,Mostly Cloudy
KIGQ,07/20/2018 03:35 UTC,29.82,76.1,65.48,69.74,10.36,150.0,,,,,,653.0,704.0,,,10.0,,KIGQ 200335Z AUTO 15009KT 10SM BKN065 OVC070 25/19 A2982 RMK AO2  T02450186,,,6500.0,,,65.47,,SSE,29.17,27.77,,Overcast
KIGQ,07/20/2018 03:55 UTC,29.81,75.38,65.3,70.98,10.36,150.0,,,803.0,,,602.0,703.0,,,10.0,,KIGQ 200355Z AUTO 15009KT 10SM SCT060 BKN070 BKN080 24/19 A2981 RMK AO2 T02410185,,,7000.0,,,65.29,,SSE,29.16,27.78,,Mostly Cloudy
KIGQ,07/20/2018 04:15 UTC,29.81,75.2,65.3,71.41,10.36,140.0,,,,,,503.0,,,,10.0,,KIGQ 200415Z AUTO 14009KT 10SM BKN050 24/19 A2981 RMK AO2  T02400185,,,5000.0,,,65.29,,SE,29.16,27.79,,Mostly Cloudy
KIGQ,07/20/2018 04:35 UTC,29.81,74.84,65.3,72.27,11.5,150.0,17.27,,,,,502.0,,,,10.0,,KIGQ 200435Z AUTO 15010G15KT 10SM SCT050 24/19 A2981 RMK AO2  T02380185,,,,,,65.29,,SSE,29.16,27.79,,Partly Cloudy
KIGQ,07/20/2018 04:55 UTC,29.81,74.84,65.48,72.72,11.5,160.0,16.11,,,,,452.0,902.0,,,10.0,,KIGQ 200455Z AUTO 16010G14KT 10SM SCT045 SCT090 24/19 A2981 RMK AO2 T02380186,,,,,,65.47,,SSE,29.16,27.78,,Partly Cloudy
KIGQ,07/20/2018 05:15 UTC,29.8,75.38,65.3,70.98,12.66,150.0,18.41,,,,,453.0,903.0,,,10.0,,KIGQ 200515Z AUTO 15011G16KT 10SM BKN045 BKN090 24/19 A2980 RMK AO2 T02410185,,,4500.0,,,65.29,,SSE,29.15,27.77,,Mostly Cloudy
KIGQ,07/20/2018 05:35 UTC,29.79,75.2,65.3,71.41,14.97,160.0,18.41,,904.0,,,453.0,553.0,,,10.0,,KIGQ 200535Z AUTO 16013G16KT 10SM BKN045 BKN055 OVC090 24/19 A2979 RMK AO2 LTG DSNT NW T02400185,,,4500.0,,,65.29,,SSE,29.14,27.76,,Overcast
KIGQ,07/20/2018 05:55 UTC,29.78,75.38,64.94,70.1,13.8,160.0,21.85,,904.0,,,433.0,553.0,,,10.0,,KIGQ 200555Z AUTO 16012G19KT 10SM BKN043 BKN055 OVC090 24/18 A2978 RMK AO2 T02410183 10266 20237 402950140,79.88,74.66,4300.0,85.1,57.2,64.93,,SSE,29.13,27.78,,Overcast
KIGQ,07/20/2018 06:15 UTC,29.78,75.02,64.76,70.5,11.5,160.0,18.41,,803.0,,,413.0,553.0,,,10.0,,KIGQ 200615Z AUTO 16010G16KT 10SM BKN041 BKN055 BKN080 24/18 A2978 RMK AO2 T02390182,,,4100.0,,,64.75,,SSE,29.13,27.79,,Mostly Cloudy
KIGQ,07/20/2018 06:35 UTC,29.77,75.2,64.76,70.08,11.5,160.0,18.41,,653.0,,,393.0,463.0,,,10.0,,KIGQ 200635Z AUTO 16010G16KT 10SM BKN039 BKN046 BKN065 24/18 A2977 RMK AO2 T02400182,,,3900.0,,,64.75,,SSE,29.12,27.78,,Mostly Cloudy
KIGQ,07/20/2018 06:55 UTC,29.76,75.56,64.58,68.81,13.8,160.0,19.57,,,,,393.0,464.0,,,10.0,,KIGQ 200655Z AUTO 16012G17KT 10SM BKN039 OVC046 24/18 A2976 RMK AO2 LTG DSNT N T02420181,,,3900.0,,,64.57,,SSE,29.11,27.78,,Overcast
KIGQ,07/20/2018 07:15 UTC,29.76,75.74,64.58,68.4,14.97,160.0,23.02,,,,,394.0,,,,10.0,,KIGQ 200715Z AUTO 16013G20KT 10SM OVC039 24/18 A2976 RMK AO2  T02430181,,,3900.0,,,64.57,,SSE,29.11,27.77,,Overcast
KIGQ,07/20/2018 07:35 UTC,29.76,75.02,64.76,70.5,16.11,170.0,21.85,,502.0,,,372.0,452.0,,,10.0,,KIGQ 200735Z AUTO 17014G19KT 10SM SCT037 SCT045 SCT050 24/18 A2976 RMK AO2 T02390182,,,,,,64.75,,S,29.11,27.77,,Partly Cloudy
KIGQ,07/20/2018 07:55 UTC,29.75,74.3,64.94,72.67,12.66,180.0,20.71,,,,,1.0,,,,10.0,,KIGQ 200755Z AUTO 18011G18KT 10SM CLR 24/18 A2975 RMK AO2  T02350183,,,,,,64.92,,S,29.1,27.76,,Clear
KIGQ,07/20/2018 08:15 UTC,29.75,73.4,64.94,74.89,12.66,180.0,18.41,,,,,502.0,602.0,,,10.0,,KIGQ 200815Z AUTO 18011G16KT 10SM SCT050 SCT060 23/18 A2975 RMK AO2 T02300183,,,,,,64.92,,S,29.1,27.77,,Partly Cloudy
KIGQ,07/20/2018 08:35 UTC,29.74,73.04,65.3,76.76,12.66,180.0,,,,,,502.0,602.0,,,10.0,,KIGQ 200835Z AUTO 18011KT 10SM SCT050 SCT060 23/19 A2974 RMK AO2  T02280185,,,,,,65.28,,S,29.09,27.74,,Partly Cloudy
KIGQ,07/20/2018 08:55 UTC,29.74,72.5,65.3,78.17,10.36,190.0,,,,,,602.0,,,,10.0,,KIGQ 200855Z AUTO 19009KT 10SM SCT060 23/19 A2974 RMK AO2  T02250185,,,,,,65.28,,S,29.09,27.75,,Partly Cloudy
KIGQ,07/20/2018 09:15 UTC,29.73,72.32,65.48,79.14,8.05,190.0,,,,,,603.0,,,,10.0,,KIGQ 200915Z AUTO 19007KT 10SM BKN060 22/19 A2973 RMK AO2  T02240186,,,6000.0,,,65.46,,S,29.08,27.73,,Mostly Cloudy
KIGQ,07/20/2018 09:35 UTC,29.73,71.96,65.66,80.61,11.5,190.0,,,,,,552.0,,,,10.0,,KIGQ 200935Z AUTO 19010KT 10SM SCT055 22/19 A2973 RMK AO2  T02220187,,,,,,65.64,,S,29.08,27.72,,Partly Cloudy
KIGQ,07/20/2018 09:55 UTC,29.72,71.06,65.84,83.62,11.5,180.0,,,,,,552.0,,,,10.0,,KIGQ 200955Z AUTO 18010KT 10SM SCT055 22/19 A2972 RMK AO2  T02170188,,,,,,65.82,,S,29.07,27.71,,Partly Cloudy
KIGQ,07/20/2018 10:15 UTC,29.72,70.7,66.02,85.17,10.36,180.0,,,,,,322.0,,,,10.0,,KIGQ 201015Z AUTO 18009KT 10SM SCT032 22/19 A2972 RMK AO2  T02150189,,,,,,66.0,,S,29.07,27.7,,Partly Cloudy
KIGQ,07/20/2018 10:35 UTC,29.71,70.88,66.2,85.19,10.36,170.0,,,,,,243.0,,,,10.0,,KIGQ 201035Z AUTO 17009KT 10SM BKN024 22/19 A2971 RMK AO2  T02160190,,,2400.0,,,66.19,,S,29.06,27.68,,Mostly Cloudy
KIGQ,07/20/2018 10:55 UTC,29.72,70.52,65.84,85.16,9.22,170.0,,,,,,224.0,,,,10.0,,KIGQ 201055Z AUTO 17008KT 10SM OVC022 21/19 A2972 RMK AO2  T02140188,,,2200.0,,,65.82,,S,29.07,27.72,,Overcast
KIGQ,07/20/2018 11:15 UTC,29.72,70.7,65.84,84.64,9.22,180.0,,,,,,223.0,,,,10.0,,KIGQ 201115Z AUTO 18008KT 10SM BKN022 22/19 A2972 RMK AO2 LTG DSNT  E T02150188,,,2200.0,,,65.82,,S,29.07,27.72,,Mostly Cloudy
KIGQ,07/20/2018 11:35 UTC,29.72,71.6,66.2,83.13,10.36,180.0,,,,,,223.0,,,,10.0,,KIGQ 201135Z AUTO 18009KT 10SM BKN022 22/19 A2972 RMK AO2  T02200190,,,2200.0,,,66.18,,S,29.07,27.68,,Mostly Cloudy
KIGQ,07/20/2018 11:55 UTC,29.72,71.96,65.84,81.11,13.8,170.0,,,,,,204.0,,,,10.0,,KIGQ 201155Z AUTO 17012KT 10SM OVC020 22/19 A2972 RMK AO2  T02220188 10243 20213,75.74,70.34,2000.0,,,65.82,,S,29.07,27.7,,Overcast
KIGQ,07/20/2018 12:15 UTC,29.72,72.5,66.2,80.65,9.22,190.0,,,,,,204.0,,,,10.0,,KIGQ 201215Z AUTO 19008KT 10SM OVC020 23/19 A2972 RMK AO2  T02250190,,,2000.0,,,66.19,,S,29.07,27.67,,Overcast
KIGQ,07/20/2018 12:35 UTC,29.72,73.4,66.2,78.24,11.5,200.0,20.71,,,,,202.0,,,,10.0,,KIGQ 201235Z AUTO 20010G18KT 10SM SCT020 23/19 A2972 RMK AO2 LTG  DSNT E T02300190,,,,,,66.18,,SSW,29.07,27.66,,Partly Cloudy
KIGQ,07/20/2018 12:55 UTC,29.71,73.94,66.74,78.29,14.97,190.0,,,,,,1.0,,,,10.0,,KIGQ 201255Z AUTO 19013KT 10SM CLR 23/19 A2971 RMK AO2 LTG DSNT NE  T02330193,,,,,,66.73,,S,29.06,27.6,,Clear
KIGQ,07/20/2018 13:15 UTC,29.71,74.66,67.64,78.83,12.66,200.0,17.27,,,,,1.0,,,,10.0,,KIGQ 201315Z AUTO 20011G15KT 10SM CLR 24/20 A2971 RMK AO2  T02370198,,,,,,67.63,,SSW,29.06,27.53,,Clear
KIGQ,07/20/2018 13:35 UTC,29.7,75.56,68.18,77.94,14.97,200.0,,,,,,212.0,,,,10.0,,KIGQ 201335Z AUTO 20013KT 10SM SCT021 24/20 A2970 RMK AO2  T02420201,,,,,,68.17,,SSW,29.05,27.47,,Partly Cloudy
KIGQ,07/20/2018 13:55 UTC,29.7,74.84,68.54,80.82,14.97,190.0,,,,,,214.0,,,,10.0,,KIGQ 201355Z AUTO 19013KT 10SM OVC021 24/20 A2970 RMK AO2  T02380203,,,2100.0,,,68.53,,S,29.05,27.46,,Overcast
KIGQ,07/20/2018 14:15 UTC,29.69,76.28,69.44,79.45,10.36,200.0,16.11,,,,,214.0,,,,10.0,,KIGQ 201415Z AUTO 20009G14KT 10SM OVC021 25/21 A2969 RMK AO2  T02460208,,,2100.0,,,69.44,,SSW,29.04,27.36,,Overcast
KIGQ,07/20/2018 14:35 UTC,29.69,76.1,69.8,80.91,11.5,220.0,17.27,,344.0,,,233.0,293.0,,,10.0,,KIGQ 201435Z AUTO 22010G15KT 10SM BKN023 BKN029 OVC034 25/21 A2969 RMK AO2 T02450210,,,2300.0,,,69.79,,SW,29.04,27.34,,Overcast
KIGQ,07/20/2018 14:55 UTC,29.68,75.92,68.18,77.01,13.8,230.0,19.57,,413.0,,,232.0,282.0,,,10.0,,KIGQ 201455Z AUTO 23012G17KT 10SM SCT023 SCT028 BKN041 24/20 A2968 RMK AO2 T02440201,,,4100.0,,,68.17,,SW,29.03,27.45,,Mostly Cloudy
KIGQ,07/20/2018 15:15 UTC,29.68,78.08,68.54,72.6,14.97,230.0,,,502.0,,,342.0,422.0,,,10.0,,KIGQ 201515Z AUTO 23013KT 10SM SCT034 SCT042 SCT050 26/20 A2968 RMK AO2 T02560203,,,,,,68.54,,SW,29.03,27.39,,Partly Cloudy
KIGQ,07/20/2018 15:35 UTC,29.67,77.72,67.46,70.79,14.97,230.0,,,603.0,,,292.0,352.0,,,10.0,,KIGQ 201535Z AUTO 23013KT 10SM SCT029 SCT035 BKN060 25/20 A2967 RMK AO2 T02540197,,,6000.0,,,67.46,,SW,29.02,27.47,,Mostly Cloudy
KIGQ,07/20/2018 15:55 UTC,29.67,76.28,68.18,76.1,10.36,230.0,,,604.0,,,292.0,363.0,,,10.0,,KIGQ 201555Z AUTO 23009KT 10SM SCT029 BKN036 OVC060 25/20 A2967 RMK AO2 T02460201,,,3600.0,,,68.18,,SW,29.02,27.43,,Overcast
KIGQ,07/20/2018 16:15 UTC,29.69,72.5,68.18,86.34,21.85,240.0,28.77,13.0,414.0,,,192.0,273.0,,,5.0,,KIGQ 201615Z AUTO 24019G25KT 5SM -RA SCT019 BKN027 OVC041 23/20  A2969 RMK AO2 T02250201,,,2700.0,,,68.17,,WSW,29.04,27.5,,Light Rain
KIGQ,07/20/2018 16:35 UTC,29.69,70.7,68.36,92.33,17.27,240.0,24.16,1.0,494.0,,,132.0,403.0,,,10.0,,KIGQ 201635Z AUTO 24015G21KT 10SM RA SCT013 BKN040 OVC049 22/20  A2969 RMK AO2 T02150202,,,4000.0,,,68.35,,WSW,29.04,27.52,,Rain
KIGQ,07/20/2018 16:55 UTC,29.69,68.36,67.28,96.36,10.36,240.0,,1.0,494.0,0.01,,112.0,433.0,,,7.0,,KIGQ 201655Z AUTO 24009KT 7SM RA SCT011 BKN043 OVC049 20/20 A2969 RMK AO2 P0001 T02020196,,,4300.0,,,67.28,,WSW,29.04,27.62,,Rain
KIGQ,07/20/2018 17:15 UTC,29.69,69.44,68.9,98.17,10.36,220.0,,13.0,604.0,,,112.0,463.0,,,10.0,,KIGQ 201715Z AUTO 22009KT 10SM -RA SCT011 BKN046 OVC060 21/21  A2969 RMK AO2 T02080205,,,4600.0,,,68.9,,SW,29.04,27.5,,Light Rain
KIGQ,07/20/2018 17:35 UTC,29.68,72.68,70.7,93.53,11.5,230.0,17.27,,553.0,,,123.0,373.0,,,10.0,,KIGQ 201735Z AUTO 23010G15KT 10SM BKN012 BKN037 BKN055 23/22 A2968 RMK AO2 T02260215,,,1200.0,,,70.7,,SW,29.03,27.31,,Mostly Cloudy
KIGQ,07/20/2018 17:55 UTC,29.67,74.3,70.34,87.5,16.11,240.0,,,324.0,,,143.0,223.0,0.01,,10.0,,KIGQ 201755Z AUTO 24014KT 10SM BKN014 BKN022 OVC032 24/21 A2967 RMK AO2 60001 T02350213 10258 20202,78.44,68.36,1400.0,,,70.33,,WSW,29.02,27.3,,Overcast
KIGQ,07/20/2018 18:15 UTC,29.66,73.4,68.72,85.33,18.41,240.0,27.63,,,,,163.0,304.0,,,10.0,,KIGQ 201815Z AUTO 24016G24KT 10SM BKN016 OVC030 23/20 A2966 RMK AO2 T02300204,,,1600.0,,,68.71,,WSW,29.02,27.43,,Overcast
KIGQ,07/20/2018 18:35 UTC,29.66,69.98,68.9,96.38,14.97,250.0,27.63,1.0,304.0,,,102.0,143.0,,,3.0,,KIGQ 201835Z AUTO 25013G24KT 3SM RA SCT010 BKN014 OVC030 21/21  A2966 RMK AO2 T02110205,,,1400.0,,,68.9,,WSW,29.02,27.47,,Rain
KIGQ,07/20/2018 18:55 UTC,29.66,70.7,69.26,95.22,14.97,240.0,19.57,,,,,143.0,214.0,,,10.0,,KIGQ 201855Z AUTO 24013G17KT 10SM BKN014 OVC021 22/21 A2966 RMK AO2 T02150207,,,1400.0,,,69.26,,WSW,29.02,27.43,,Overcast
KIGQ,07/20/2018 19:15 UTC,29.66,70.7,68.9,94.05,13.8,230.0,17.27,,,,,144.0,,,,10.0,,KIGQ 201915Z AUTO 23012G15KT 10SM OVC014 22/21 A2966 RMK AO2  T02150205,,,1400.0,,,68.89,,SW,29.02,27.46,,Overcast
KIGQ,07/20/2018 19:35 UTC,29.66,71.24,69.8,95.23,10.36,220.0,,,414.0,,,142.0,243.0,,,10.0,,KIGQ 201935Z AUTO 22009KT 10SM SCT014 BKN024 OVC041 22/21 A2966 RMK AO2 LTG DSNT NE T02180210,,,2400.0,,,69.8,,SW,29.02,27.39,,Overcast
KIGQ,07/20/2018 19:55 UTC,29.67,71.06,69.98,96.4,9.22,240.0,,13.0,404.0,0.04,,142.0,233.0,,,3.0,,KIGQ 201955Z AUTO 24008KT 3SM -RA SCT014 BKN023 OVC040 22/21 A2967 RMK AO2 P0004 T02170211,,,2300.0,,,69.98,,WSW,29.02,27.38,,Light Rain
KIGQ,07/20/2018 20:15 UTC,29.66,71.06,70.7,98.79,6.91,230.0,,17.0,354.0,,,122.0,213.0,,,10.0,,KIGQ 202015Z AUTO 23006KT 10SM -DZ SCT012 BKN021 OVC035 22/22  A2966 RMK AO2 LTG DSNT NE T02170215,,,2100.0,,,70.7,,SW,29.02,27.32,,Light Drizzle
KIGQ,07/20/2018 20:35 UTC,29.66,72.5,71.24,95.83,13.8,230.0,,,474.0,,,102.0,373.0,,,10.0,,KIGQ 202035Z AUTO 23012KT 10SM SCT010 BKN037 OVC047 23/22 A2966 RMK AO2 T02250218,,,3700.0,,,71.24,,SW,29.02,27.26,,Overcast
KIGQ,07/20/2018 20:55 UTC,29.66,72.5,69.98,91.82,17.27,250.0,23.02,13.0,414.0,,0.04,142.0,303.0,,,10.0,,KIGQ 202055Z AUTO 25015G20KT 10SM -RA SCT014 BKN030 OVC041 23/21  A2966 RMK AO2 60004 T02250211,,,3000.0,,,69.97,,WSW,29.02,27.36,,Light Rain
KIGQ,07/20/2018 21:15 UTC,29.66,70.7,70.34,98.78,9.22,250.0,,13.0,704.0,0.01,,162.0,433.0,,,10.0,,KIGQ 202115Z AUTO 25008KT 10SM -RA SCT016 BKN043 OVC070 22/21  A2966 RMK AO2 P0001 T02150213,,,4300.0,,,70.34,,WSW,29.02,27.36,,Light Rain
KIGQ,07/20/2018 21:35 UTC,29.67,73.4,70.88,91.85,11.5,250.0,,,754.0,0.01,,232.0,353.0,,,10.0,,KIGQ 202135Z AUTO 25010KT 10SM SCT023 BKN035 OVC075 23/22 A2967 RMK AO2 P0001 T02300216,,,3500.0,,,70.88,,WSW,29.02,27.28,,Overcast
KIGQ,07/20/2018 21:55 UTC,29.67,72.5,70.34,92.95,9.22,270.0,,1.0,334.0,0.01,,172.0,223.0,,,10.0,,KIGQ 202155Z AUTO 27008KT 10SM RA SCT017 BKN022 OVC033 23/21 A2967 RMK AO2 P0001 T02250213,,,2200.0,,,70.33,,W,29.02,27.33,,Rain
KIGQ,07/20/2018 22:15 UTC,29.67,69.8,69.08,97.57,12.66,260.0,,,654.0,0.06,,132.0,222.0,,,10.0,,KIGQ 202215Z AUTO 26011KT 10SM SCT013 SCT022 OVC065 21/21 A2967 RMK AO2 P0006 T02100206,,,6500.0,,,69.08,,W,29.02,27.46,,Overcast
KIGQ,07/20/2018 22:35 UTC,29.67,70.34,68.9,95.21,9.22,280.0,,,854.0,0.06,,602.0,753.0,,,10.0,,KIGQ 202235Z AUTO 28008KT 10SM SCT060 BKN075 OVC085 21/21 A2967 RMK AO2 P0006 T02130205,,,7500.0,,,68.9,,W,29.02,27.46,,Overcast
KIGQ,07/20/2018 22:55 UTC,29.67,72.86,70.16,91.27,9.22,270.0,,,1004.0,0.06,,262.0,452.0,,,10.0,,KIGQ 202255Z AUTO 27008KT 10SM SCT026 SCT045 OVC100 23/21 A2967 RMK AO2 P0006 T02270212,,,10000.0,,,70.15,,W,29.02,27.34,,Overcast
KIGQ,07/20/2018 23:15 UTC,29.68,72.86,70.34,91.83,8.05,290.0,16.11,,464.0,,,182.0,223.0,,,10.0,,KIGQ 202315Z AUTO 29007G14KT 10SM SCT018 BKN022 OVC046 23/21 A2968 RMK AO2 T02270213,,,2200.0,,,70.33,,WNW,29.03,27.33,,Overcast
KIGQ,07/20/2018 23:35 UTC,29.68,73.4,70.34,90.18,12.66,270.0,,,704.0,,,182.0,473.0,,,10.0,,KIGQ 202335Z AUTO 27011KT 10SM SCT018 BKN047 OVC070 23/21 A2968 RMK AO2 T02300213,,,4700.0,,,70.33,,W,29.03,27.33,,Overcast
KIGQ,07/20/2018 23:55 UTC,29.68,72.14,69.26,90.69,13.8,270.0,21.85,,604.0,,,172.0,463.0,0.12,,10.0,,KIGQ 202355Z AUTO 27012G19KT 10SM SCT017 BKN046 OVC060 22/21 A2968 RMK AO2 60012 T02230207 10237 20210,74.66,69.8,4600.0,,,69.25,,W,29.03,27.42,,Overcast
KIGQ,07/21/2018 00:15 UTC,29.68,70.88,69.44,95.22,11.5,260.0,18.41,1.0,604.0,,,152.0,263.0,,,5.0,,KIGQ 210015Z AUTO 26010G16KT 5SM RA SCT015 BKN026 OVC060 22/21  A2968 RMK AO2 T02160208,,,2600.0,,,69.44,,W,29.03,27.43,,Rain
KIGQ,07/21/2018 00:35 UTC,29.69,69.26,68.72,98.17,12.66,300.0,21.85,14.0,314.0,0.15,,133.0,213.0,,,2.0,,KIGQ 210035Z AUTO 30011G19KT 2SM +RA BKN013 BKN021 OVC031 21/20  A2969 RMK AO2 VIS 1V5 P0015 T02070204,,,1300.0,,,68.72,,WNW,29.04,27.51,,Heavy Rain
KIGQ,07/21/2018 00:55 UTC,29.68,67.46,67.28,99.38,10.36,300.0,19.57,14.0,394.0,0.25,,112.0,263.0,,,3.0,,KIGQ 210055Z AUTO 30009G17KT 3SM +RA SCT011 BKN026 OVC039 20/20  A2968 RMK AO2 P0025 T01970196,,,2600.0,,,67.28,,WNW,29.03,27.63,,Heavy Rain
KIGQ,07/21/2018 01:15 UTC,29.68,67.28,67.28,100.0,13.8,280.0,18.41,14.0,454.0,0.15,,92.0,333.0,,,3.0,,KIGQ 210115Z AUTO 28012G16KT 3SM +RA SCT009 BKN033 OVC045 20/20  A2968 RMK AO2 P0015 T01960196,,,3300.0,,,67.28,,W,29.03,27.63,,Heavy Rain
KIGQ,07/21/2018 01:35 UTC,29.68,68.0,68.0,100.0,5.75,290.0,,,464.0,0.2,,222.0,273.0,,,10.0,,KIGQ 210135Z AUTO 29005KT 10SM SCT022 BKN027 OVC046 20/20 A2968 RMK AO2 P0020 T02000200,,,2700.0,,,68.0,,WNW,29.03,27.57,,Overcast
KIGQ,07/21/2018 01:55 UTC,29.68,68.0,68.0,100.0,5.75,260.0,,14.0,204.0,0.2,,112.0,142.0,,,7.0,,KIGQ 210155Z AUTO 26005KT 7SM +RA SCT011 SCT014 OVC020 20/20 A2968 RMK AO2 P0020 T02000200,,,2000.0,,,68.0,,W,29.03,27.57,,Heavy Rain
KIGQ,07/21/2018 02:15 UTC,29.68,68.9,68.9,100.0,6.91,230.0,,1.0,264.0,,,122.0,203.0,,,7.0,,KIGQ 210215Z AUTO 23006KT 7SM RA SCT012 BKN020 OVC026 21/21 A2968 RMK AO2 T02050205,,,2000.0,,,68.9,,SW,29.03,27.5,,Rain
KIGQ,07/21/2018 02:35 UTC,29.68,68.9,68.9,100.0,6.91,210.0,,13.0,344.0,,,223.0,293.0,,,5.0,,KIGQ 210235Z AUTO 21006KT 5SM -RA BKN022 BKN029 OVC034 21/21 A2968 RMK AO2 T02050205,,,2200.0,,,68.9,,SSW,29.03,27.5,,Light Rain
KIGQ,07/21/2018 02:55 UTC,29.68,68.9,68.9,100.0,8.05,240.0,,13.0,,0.01,0.47,183.0,294.0,,,5.0,,KIGQ 210255Z AUTO 24007KT 5SM -RA BKN018 OVC029 21/21 A2968 RMK AO2 P0001 60047 T02050205,,,1800.0,,,68.9,,WSW,29.03,27.5,,Light Rain
KIGQ,07/21/2018 03:15 UTC,29.68,69.08,69.08,100.0,10.36,250.0,,,354.0,,,182.0,292.0,,,10.0,,KIGQ 210315Z AUTO 25009KT 10SM SCT018 SCT029 OVC035 21/21 A2968 RMK AO2 T02060206,,,3500.0,,,69.08,,WSW,29.03,27.48,,Overcast
KIGQ,07/21/2018 03:35 UTC,29.67,69.08,68.9,99.39,8.05,250.0,,,,,,252.0,334.0,,,10.0,,KIGQ 210335Z AUTO 25007KT 10SM SCT025 OVC033 21/21 A2967 RMK AO2  T02060205,,,3300.0,,,68.9,,WSW,29.02,27.48,,Overcast
KIGQ,07/21/2018 03:55 UTC,29.67,69.26,68.9,98.78,8.05,250.0,,,,,,254.0,,,,10.0,,KIGQ 210355Z AUTO 25007KT 10SM OVC025 21/21 A2967 RMK AO2  T02070205,,,2500.0,,,68.9,,WSW,29.02,27.48,,Overcast
KIGQ,07/21/2018 04:15 UTC,29.66,69.44,69.08,98.78,11.5,250.0,16.11,,,,,192.0,254.0,,,7.0,,KIGQ 210415Z AUTO 25010G14KT 7SM SCT019 OVC025 21/21 A2966 RMK AO2  T02080206,,,2500.0,,,69.08,,WSW,29.02,27.46,,Overcast
KIGQ,07/21/2018 04:35 UTC,29.66,69.26,68.9,98.78,8.05,250.0,,1.0,,,,173.0,254.0,,,7.0,,KIGQ 210435Z AUTO 25007KT 7SM RA BKN017 OVC025 21/21 A2966 RMK AO2  T02070205,,,1700.0,,,68.9,,WSW,29.02,27.48,,Rain
KIGQ,07/21/2018 04:55 UTC,29.66,68.9,68.9,100.0,12.66,250.0,16.11,2.0,,,,134.0,,,,4.0,,KIGQ 210455Z AUTO 25011G14KT 4SM DZ OVC013 21/21 A2966 RMK AO2  T02050205,,,1300.0,,,68.9,,WSW,29.02,27.49,,Drizzle
KIGQ,07/21/2018 05:15 UTC,29.66,68.36,68.36,100.0,11.5,270.0,,2.0,,,,103.0,164.0,,,5.0,,KIGQ 210515Z AUTO 27010KT 5SM DZ BKN010 OVC016 20/20 A2966 RMK AO2  T02020202,,,1000.0,,,68.36,,W,29.02,27.53,,Drizzle
KIGQ,07/21/2018 05:35 UTC,29.66,68.36,68.36,100.0,10.36,250.0,,1.0,,,,103.0,164.0,,,7.0,,KIGQ 210535Z AUTO 25009KT 7SM RA BKN010 OVC016 20/20 A2966 RMK AO2  T02020202,,,1000.0,,,68.36,,WSW,29.02,27.53,,Rain
KIGQ,07/21/2018 05:55 UTC,29.66,68.18,68.18,100.0,11.5,260.0,,,,,,83.0,124.0,0.47,,7.0,,KIGQ 210555Z AUTO 26010KT 7SM BKN008 OVC012 20/20 A2966 RMK AO2  60047 T02010201 10222 20195 402580195,71.96,67.1,800.0,78.44,67.1,68.18,,W,29.02,27.55,,Overcast
KIGQ,07/21/2018 06:15 UTC,29.65,68.18,68.18,100.0,9.22,270.0,17.27,1.0,,,,84.0,,,,7.0,,KIGQ 210615Z AUTO 27008G15KT 7SM RA OVC008 20/20 A2965 RMK AO2  T02010201,,,800.0,,,68.18,,W,29.01,27.54,,Rain
KIGQ,07/21/2018 06:35 UTC,29.65,68.0,68.0,100.0,9.22,280.0,,,,,,84.0,,,,10.0,,KIGQ 210635Z AUTO 28008KT 10SM OVC008 20/20 A2965 RMK AO2  T02000200,,,800.0,,,68.0,,W,29.01,27.55,,Overcast
KIGQ,07/21/2018 06:55 UTC,29.65,68.0,68.0,100.0,8.05,280.0,,,,,,84.0,,,,10.0,,KIGQ 210655Z AUTO 28007KT 10SM OVC008 20/20 A2965 RMK AO2  T02000200,,,800.0,,,68.0,,W,29.01,27.55,,Overcast
KIGQ,07/21/2018 07:15 UTC,29.65,68.0,68.0,100.0,8.05,280.0,,,,,,84.0,,,,10.0,,KIGQ 210715Z AUTO 28007KT 10SM OVC008 20/20 A2965 RMK AO2  T02000200,,,800.0,,,68.0,,W,29.01,27.55,,Overcast
KIGQ,07/21/2018 07:35 UTC,29.65,68.0,68.0,100.0,8.05,280.0,,,,,,84.0,,,,10.0,,KIGQ 210735Z AUTO 28007KT 10SM OVC008 20/20 A2965 RMK AO2  T02000200,,,800.0,,,68.0,,W,29.01,27.55,,Overcast
KIGQ,07/21/2018 07:55 UTC,29.64,68.18,68.18,100.0,6.91,290.0,,,,,,84.0,,,,10.0,,KIGQ 210755Z AUTO 29006KT 10SM OVC008 20/20 A2964 RMK AO2  T02010201,,,800.0,,,68.18,,WNW,29.0,27.53,,Overcast
KIGQ,07/21/2018 08:15 UTC,29.64,68.36,68.36,100.0,8.05,280.0,,,,,,84.0,,,,10.0,,KIGQ 210815Z AUTO 28007KT 10SM OVC008 20/20 A2964 RMK AO2  T02020202,,,800.0,,,68.36,,W,29.0,27.51,,Overcast
KIGQ,07/21/2018 08:35 UTC,29.64,68.36,68.36,100.0,8.05,280.0,,,,,,84.0,,,,10.0,,KIGQ 210835Z AUTO 28007KT 10SM OVC008 20/20 A2964 RMK AO2  T02020202,,,800.0,,,68.36,,W,29.0,27.51,,Overcast
KIGQ,07/21/2018 08:55 UTC,29.64,68.18,68.18,100.0,6.91,280.0,,,,,,82.0,204.0,,,10.0,,KIGQ 210855Z AUTO 28006KT 10SM SCT008 OVC020 20/20 A2964 RMK AO2  T02010201,,,2000.0,,,68.18,,W,29.0,27.53,,Overcast
KIGQ,07/21/2018 09:15 UTC,29.65,68.18,68.18,100.0,8.05,280.0,,,264.0,,,82.0,223.0,,,10.0,,KIGQ 210915Z AUTO 28007KT 10SM SCT008 BKN022 OVC026 20/20 A2965 RMK AO2 T02010201,,,2200.0,,,68.18,,W,29.01,27.54,,Overcast
KIGQ,07/21/2018 09:35 UTC,29.65,68.18,68.18,100.0,10.36,270.0,,,,,,82.0,264.0,,,10.0,,KIGQ 210935Z AUTO 27009KT 10SM SCT008 OVC026 20/20 A2965 RMK AO2  T02010201,,,2600.0,,,68.18,,W,29.01,27.54,,Overcast
KIGQ,07/21/2018 09:55 UTC,29.65,68.18,68.18,100.0,10.36,280.0,,,264.0,,,122.0,193.0,,,10.0,,KIGQ 210955Z AUTO 28009KT 10SM SCT012 BKN019 OVC026 20/20 A2965 RMK AO2 T02010201,,,1900.0,,,68.18,,W,29.01,27.54,,Overcast
KIGQ,07/21/2018 10:15 UTC,29.66,68.36,68.36,100.0,9.22,270.0,,,,,,102.0,154.0,,,10.0,,KIGQ 211015Z AUTO 27008KT 10SM SCT010 OVC015 20/20 A2966 RMK AO2  T02020202,,,1500.0,,,68.36,,W,29.02,27.53,,Overcast
KIGQ,07/21/2018 10:35 UTC,29.66,68.18,68.18,100.0,9.22,290.0,,,,,,124.0,,,,10.0,,KIGQ 211035Z AUTO 29008KT 10SM OVC012 20/20 A2966 RMK AO2  T02010201,,,1200.0,,,68.18,,WNW,29.02,27.55,,Overcast
KIGQ,07/21/2018 10:55 UTC,29.66,68.18,68.18,100.0,9.22,300.0,,,,,,104.0,,,,10.0,,KIGQ 211055Z AUTO 30008KT 10SM OVC010 20/20 A2966 RMK AO2  T02010201,,,1000.0,,,68.18,,WNW,29.02,27.55,,Overcast
KIGQ,07/21/2018 11:15 UTC,29.67,68.0,68.0,100.0,8.05,310.0,,2.0,,,,83.0,124.0,,,4.0,,KIGQ 211115Z AUTO 31007KT 4SM DZ BKN008 OVC012 20/20 A2967 RMK AO2  T02000200,,,800.0,,,68.0,,NW,29.02,27.56,,Drizzle
KIGQ,07/21/2018 11:35 UTC,29.67,68.0,68.0,100.0,10.36,320.0,,13.0,,,,64.0,,,,3.0,,KIGQ 211135Z AUTO 32009KT 3SM -RA OVC006 20/20 A2967 RMK AO2  T02000200,,,600.0,,,68.0,,NW,29.02,27.56,,Light Rain
KIGQ,07/21/2018 11:55 UTC,29.68,68.18,68.18,100.0,8.05,320.0,,,,,,84.0,,,0.6,10.0,,KIGQ 211155Z AUTO 32007KT 10SM OVC008 20/20 A2968 RMK AO2 70060  T02010201 10202 20200,68.36,68.0,800.0,,,68.18,,NW,29.03,27.56,,Overcast
KIGQ,07/21/2018 12:15 UTC,29.68,68.36,68.36,100.0,5.75,320.0,,1.0,,,,84.0,,,,4.0,,KIGQ 211215Z AUTO 32005KT 4SM RA OVC008 20/20 A2968 RMK AO2  T02020202,,,800.0,,,68.36,,NW,29.03,27.54,,Rain
KIGQ,07/21/2018 12:35 UTC,29.69,68.18,68.18,100.0,6.91,330.0,,1.0,,0.01,,84.0,,,,2.5,,KIGQ 211235Z AUTO 33006KT 2 1/2SM RA OVC008 20/20 A2969 RMK AO2  P0001 T02010201,,,800.0,,,68.18,,NNW,29.04,27.57,,Rain
KIGQ,07/21/2018 12:55 UTC,29.7,68.36,68.36,100.0,6.91,330.0,,,,0.01,,63.0,154.0,,,10.0,,KIGQ 211255Z AUTO 33006KT 10SM BKN006 OVC015 20/20 A2970 RMK AO2  P0001 T02020202,,,600.0,,,68.36,,NNW,29.05,27.56,,Overcast
KIGQ,07/21/2018 13:15 UTC,29.7,68.9,68.9,100.0,6.91,320.0,,,,,,113.0,164.0,,,10.0,,KIGQ 211315Z AUTO 32006KT 10SM BKN011 OVC016 21/21 A2970 RMK AO2  T02050205,,,1100.0,,,68.9,,NW,29.05,27.52,,Overcast
KIGQ,07/21/2018 13:35 UTC,29.71,69.26,69.08,99.39,9.22,310.0,,,,,,114.0,,,,10.0,,KIGQ 211335Z AUTO 31008KT 10SM OVC011 21/21 A2971 RMK AO2  T02070206,,,1100.0,,,69.08,,NW,29.06,27.51,,Overcast
KIGQ,07/21/2018 13:55 UTC,29.71,70.16,69.98,99.39,11.5,320.0,,,,,,94.0,,,,10.0,,KIGQ 211355Z AUTO 32010KT 10SM OVC009 21/21 A2971 RMK AO2  T02120211,,,900.0,,,69.98,,NW,29.06,27.43,,Overcast
KIGQ,07/21/2018 14:15 UTC,29.71,70.52,69.8,97.58,9.22,320.0,,,,,,114.0,,,,7.0,,KIGQ 211415Z AUTO 32008KT 7SM OVC011 21/21 A2971 RMK AO2  T02140210,,,1100.0,,,69.8,,NW,29.06,27.44,,Overcast
KIGQ,07/21/2018 14:35 UTC,29.71,69.08,69.08,100.0,6.91,320.0,,1.0,,,,83.0,134.0,,,5.0,,KIGQ 211435Z AUTO 32006KT 5SM RA BKN008 OVC013 21/21 A2971 RMK AO2  T02060206,,,800.0,,,69.08,,NW,29.06,27.51,,Rain
KIGQ,07/21/2018 14:55 UTC,29.71,69.08,69.08,100.0,6.91,320.0,,13.0,,,0.01,64.0,,,,5.0,,KIGQ 211455Z AUTO 32006KT 5SM -RA OVC006 21/21 A2971 RMK AO2 60001  T02060206,,,600.0,,,69.08,,NW,29.06,27.51,,Light Rain
KIGQ,07/21/2018 15:15 UTC,29.73,69.26,69.26,100.0,12.66,340.0,16.11,1.0,,0.01,,64.0,,,,5.0,,KIGQ 211515Z AUTO 34011G14KT 5SM RA OVC006 21/21 A2973 RMK AO2  P0001 T02070207,,,600.0,,,69.26,,NNW,29.08,27.52,,Rain
KIGQ,07/21/2018 15:35 UTC,29.73,68.9,68.9,100.0,10.36,350.0,18.41,14.0,,0.02,,84.0,,,,7.0,,KIGQ 211535Z AUTO 35009G16KT 7SM +RA OVC008 21/21 A2973 RMK AO2  P0002 T02050205,,,800.0,,,68.9,,N,29.08,27.55,,Heavy Rain
KIGQ,07/21/2018 15:55 UTC,29.74,68.54,68.54,100.0,8.05,350.0,18.41,1.0,,0.1,,84.0,,,,4.0,,KIGQ 211555Z AUTO 35007G16KT 4SM RA OVC008 20/20 A2974 RMK AO2  P0010 T02030203,,,800.0,,,68.54,,N,29.09,27.59,,Rain
KIGQ,07/21/2018 16:15 UTC,29.75,69.8,69.8,100.0,11.5,350.0,19.57,,,,,84.0,,,,7.0,,KIGQ 211615Z AUTO 35010G17KT 7SM OVC008 21/21 A2975 RMK AO2  T02100210,,,800.0,,,69.8,,N,29.1,27.49,,Overcast
KIGQ,07/21/2018 16:35 UTC,29.75,68.9,68.9,100.0,6.91,350.0,20.71,13.0,,0.02,,84.0,,,,4.0,,KIGQ 211635Z AUTO 35006G18KT 4SM -RA OVC008 21/21 A2975 RMK AO2  P0002 T02050205,,,800.0,,,68.9,,N,29.1,27.57,,Light Rain
KIGQ,07/21/2018 16:55 UTC,29.75,68.72,68.72,100.0,12.66,350.0,21.85,2.0,,0.02,,64.0,,,,4.0,,KIGQ 211655Z AUTO 35011G19KT 320V030 4SM DZ OVC006 20/20 A2975 RMK AO2 P0002 T02040204,,,600.0,,,68.72,,N,29.1,27.58,,Drizzle
KIGQ,07/21/2018 17:15 UTC,29.75,68.9,68.9,100.0,12.66,340.0,20.71,,,,,64.0,,,,10.0,,KIGQ 211715Z AUTO 34011G18KT 10SM OVC006 21/21 A2975 RMK AO2  T02050205,,,600.0,,,68.9,,NNW,29.1,27.57,,Overcast
KIGQ,07/21/2018 17:35 UTC,29.76,68.9,68.9,100.0,9.22,350.0,18.41,13.0,,,,64.0,,,,7.0,,KIGQ 211735Z AUTO 35008G16KT 7SM -RA OVC006 21/21 A2976 RMK AO2  T02050205,,,600.0,,,68.9,,N,29.11,27.58,,Light Rain
KIGQ,07/21/2018 17:55 UTC,29.76,68.18,68.18,100.0,11.5,350.0,20.71,1.0,,,,84.0,,0.13,,4.0,,KIGQ 211755Z AUTO 35010G18KT 4SM RA OVC008 20/20 A2976 RMK AO2  60013 T02010201 10215 20200,70.7,68.0,800.0,,,68.18,,N,29.11,27.64,,Rain
KIGQ,07/21/2018 18:15 UTC,29.76,68.36,68.36,100.0,11.5,350.0,19.57,1.0,,,,103.0,144.0,,,5.0,,KIGQ 211815Z AUTO 35010G17KT 5SM RA BKN010 OVC014 20/20 A2976 RMK AO2 T02020202,,,1000.0,,,68.36,,N,29.11,27.62,,Rain
KIGQ,07/21/2018 18:35 UTC,29.76,68.0,68.0,100.0,9.22,350.0,18.41,1.0,204.0,,,83.0,123.0,,,4.0,,KIGQ 211835Z AUTO 35008G16KT 4SM RA BKN008 BKN012 OVC020 20/20  A2976 RMK AO2 T02000200,,,800.0,,,68.0,,N,29.11,27.65,,Rain
KIGQ,07/21/2018 18:55 UTC,29.76,68.9,68.9,100.0,10.36,360.0,17.27,,314.0,,,83.0,223.0,,,10.0,,KIGQ 211855Z AUTO 36009G15KT 10SM BKN008 BKN022 OVC031 21/21 A2976 RMK AO2 T02050205,,,800.0,,,68.9,,N,29.11,27.58,,Overcast
KIGQ,07/21/2018 19:15 UTC,29.76,69.98,69.8,99.39,12.66,350.0,17.27,,,,,104.0,,,,10.0,,KIGQ 211915Z AUTO 35011G15KT 10SM OVC010 21/21 A2976 RMK AO2  T02110210,,,1000.0,,,69.8,,N,29.11,27.5,,Overcast
KIGQ,07/21/2018 19:35 UTC,29.76,71.96,70.34,94.66,10.36,360.0,20.71,,,,,104.0,,,,10.0,,KIGQ 211935Z AUTO 36009G18KT 10SM OVC010 22/21 A2976 RMK AO2  T02220213,,,1000.0,,,70.34,,N,29.11,27.43,,Overcast
KIGQ,07/21/2018 19:55 UTC,29.77,72.86,69.8,90.16,13.8,10.0,20.71,,,,,144.0,,,,10.0,,KIGQ 211955Z AUTO 01012G18KT 10SM OVC014 23/21 A2977 RMK AO2  T02270210,,,1400.0,,,69.79,,N,29.12,27.46,,Overcast
KIGQ,07/21/2018 20:15 UTC,29.77,73.76,69.08,85.35,12.66,360.0,23.02,,,,,184.0,,,,10.0,,KIGQ 212015Z AUTO 36011G20KT 10SM OVC018 23/21 A2977 RMK AO2  T02320206,,,1800.0,,,69.07,,N,29.12,27.5,,Overcast
KIGQ,07/21/2018 20:35 UTC,29.77,72.5,68.36,86.88,12.66,10.0,21.85,,,,,163.0,434.0,,,10.0,,KIGQ 212035Z AUTO 01011G19KT 340V040 10SM BKN016 OVC043 23/20  A2977 RMK AO2 T02250202,,,1600.0,,,68.35,,N,29.12,27.57,,Overcast
KIGQ,07/21/2018 20:55 UTC,29.78,72.5,68.54,87.41,12.66,360.0,21.85,,,,,164.0,,,,,,KIGQ 212055Z AUTO 36011G19KT OVC016 23/20 A2978 RMK AO2 T02250203  PWINO,,,1600.0,,,68.53,,N,29.13,27.57,,Overcast
KIGQ,07/21/2018 21:15 UTC,29.79,72.68,68.54,86.88,14.97,10.0,25.32,,,,,164.0,,,,10.0,,KIGQ 212115Z AUTO 01013G22KT 10SM OVC016 23/20 A2979 RMK AO2  T02260203,,,1600.0,,,68.53,,N,29.14,27.58,,Overcast
KIGQ,07/21/2018 21:35 UTC,29.79,72.5,68.18,86.34,14.97,10.0,21.85,,,,,164.0,,,,10.0,,KIGQ 212135Z AUTO 01013G19KT 10SM OVC016 23/20 A2979 RMK AO2  T02250201,,,1600.0,,,68.17,,N,29.14,27.61,,Overcast
KIGQ,07/21/2018 21:55 UTC,29.79,71.24,67.46,87.89,10.36,360.0,23.02,,,,,163.0,334.0,,,,,KIGQ 212155Z AUTO 36009G20KT BKN016 OVC033 22/20 A2979 RMK AO2  T02180197,,,1600.0,,,67.45,,N,29.14,27.67,,Overcast
KIGQ,07/21/2018 22:15 UTC,29.79,71.6,68.18,89.0,10.36,10.0,17.27,,854.0,,,172.0,443.0,,,10.0,,KIGQ 212215Z AUTO 01009G15KT 10SM SCT017 BKN044 OVC085 22/20 A2979 RMK AO2 T02200201,,,4400.0,,,68.17,,N,29.14,27.62,,Overcast
KIGQ,07/21/2018 22:35 UTC,29.79,72.68,68.36,86.35,9.22,350.0,17.27,,703.0,,,173.0,503.0,,,10.0,,KIGQ 212235Z AUTO 35008G15KT 330V030 10SM BKN017 BKN050 BKN070  23/20 A2979 RMK AO2 T02260202,,,1700.0,,,68.35,,N,29.14,27.59,,Mostly Cloudy
KIGQ,07/21/2018 22:55 UTC,29.79,72.5,67.28,83.71,13.8,350.0,18.41,,804.0,,,172.0,283.0,,,10.0,,KIGQ 212255Z AUTO 35012G16KT 10SM SCT017 BKN028 OVC080 23/20 A2979 RMK AO2 T02250196,,,2800.0,,,67.27,,N,29.14,27.67,,Overcast
KIGQ,07/21/2018 23:15 UTC,29.79,72.32,67.82,85.8,12.66,20.0,18.41,,804.0,,,173.0,243.0,,,10.0,,KIGQ 212315Z AUTO 02011G16KT 10SM BKN017 BKN024 OVC080 22/20 A2979 RMK AO2 T02240199,,,1700.0,,,67.81,,NNE,29.14,27.63,,Overcast
KIGQ,07/21/2018 23:35 UTC,29.79,71.6,67.46,86.83,13.8,10.0,19.57,,804.0,,,172.0,263.0,,,10.0,,KIGQ 212335Z AUTO 01012G17KT 10SM SCT017 BKN026 OVC080 22/20 A2979 RMK AO2 T02200197,,,2600.0,,,67.45,,N,29.14,27.67,,Overcast
KIGQ,07/21/2018 23:55 UTC,29.79,71.24,67.28,87.35,9.22,360.0,16.11,,464.0,,,172.0,373.0,,,10.0,,KIGQ 212355Z AUTO 36008G14KT 10SM SCT017 BKN037 OVC046 22/20 A2979 RMK AO2 T02180196 10234 20200,74.12,68.0,3700.0,,,67.27,,N,29.14,27.69,,Overcast
KIGQ,07/22/2018 00:15 UTC,29.79,70.7,67.64,90.07,10.36,360.0,18.41,,604.0,,,162.0,393.0,,,10.0,,KIGQ 220015Z AUTO 36009G16KT 10SM SCT016 BKN039 OVC060 22/20 A2979 RMK AO2 T02150198,,,3900.0,,,67.63,,N,29.14,27.67,,Overcast
KIGQ,07/22/2018 00:35 UTC,29.79,70.34,67.64,91.18,10.36,10.0,16.11,,553.0,,,142.0,272.0,,,10.0,,KIGQ 220035Z AUTO 01009G14KT 10SM SCT014 SCT027 BKN055 21/20 A2979 RMK AO2 T02130198,,,5500.0,,,67.63,,N,29.14,27.67,,Mostly Cloudy
KIGQ,07/22/2018 00:55 UTC,29.8,69.98,67.46,91.73,9.22,360.0,,,553.0,,,152.0,233.0,,,10.0,,KIGQ 220055Z AUTO 36008KT 330V030 10SM SCT015 BKN023 BKN055 21/20  A2980 RMK AO2 T02110197,,,2300.0,,,67.45,,N,29.15,27.7,,Mostly Cloudy
KIGQ,07/22/2018 01:15 UTC,29.8,69.8,67.1,91.16,11.5,360.0,19.57,,552.0,,,152.0,232.0,,,10.0,,KIGQ 220115Z AUTO 36010G17KT 10SM SCT015 SCT023 SCT055 21/20 A2980 RMK AO2 T02100195,,,,,,67.09,,N,29.15,27.73,,Partly Cloudy
KIGQ,07/22/2018 01:35 UTC,29.81,69.08,67.28,94.01,10.36,10.0,20.71,,312.0,,,112.0,162.0,,,10.0,,KIGQ 220135Z AUTO 01009G18KT 330V040 10SM SCT011 SCT016 SCT031  21/20 A2981 RMK AO2 T02060196,,,,,,67.27,,N,29.16,27.74,,Partly Cloudy
KIGQ,07/22/2018 01:55 UTC,29.81,69.26,67.64,94.6,10.36,350.0,16.11,,314.0,,,113.0,163.0,,,10.0,,KIGQ 220155Z AUTO 35009G14KT 320V020 10SM BKN011 BKN016 OVC031  21/20 A2981 RMK AO2 T02070198,,,1100.0,,,67.63,,N,29.16,27.71,,Overcast
KIGQ,07/22/2018 02:15 UTC,29.81,69.08,68.0,96.37,6.91,360.0,,,,,,114.0,,,,10.0,,KIGQ 220215Z AUTO 36006KT 10SM OVC011 21/20 A2981 RMK AO2  T02060200,,,1100.0,,,68.0,,N,29.16,27.69,,Overcast
KIGQ,07/22/2018 02:35 UTC,29.81,69.08,68.0,96.37,9.22,360.0,18.41,,,,,94.0,,,,10.0,,KIGQ 220235Z AUTO 36008G16KT 10SM OVC009 21/20 A2981 RMK AO2  T02060200,,,900.0,,,68.0,,N,29.16,27.69,,Overcast
KIGQ,07/22/2018 02:55 UTC,29.81,69.08,68.0,96.37,6.91,360.0,17.27,,,,,94.0,,,,10.0,,KIGQ 220255Z AUTO 36006G15KT 10SM OVC009 21/20 A2981 RMK AO2  T02060200,,,900.0,,,68.0,,N,29.16,27.69,,Overcast
KIGQ,07/22/2018 03:15 UTC,29.81,68.54,68.36,99.38,6.91,360.0,,1.0,,,,94.0,,,,7.0,,KIGQ 220315Z AUTO 36006KT 7SM RA OVC009 20/20 A2981 RMK AO2  T02030202,,,900.0,,,68.36,,N,29.16,27.67,,Rain
KIGQ,07/22/2018 03:35 UTC,29.8,68.54,68.54,100.0,4.61,360.0,,13.0,,,,94.0,,,,10.0,,KIGQ 220335Z AUTO 36004KT 10SM -RA OVC009 20/20 A2980 RMK AO2  T02030203,,,900.0,,,68.54,,N,29.15,27.65,,Light Rain
KIGQ,07/22/2018 03:55 UTC,29.8,69.08,69.08,100.0,8.05,350.0,,,,,,94.0,,,,10.0,,KIGQ 220355Z AUTO 35007KT 10SM OVC009 21/21 A2980 RMK AO2  T02060206,,,900.0,,,69.08,,N,29.15,27.6,,Overcast
KIGQ,07/22/2018 04:15 UTC,29.8,69.26,69.08,99.39,8.05,350.0,18.41,1.0,,,,94.0,,,,7.0,,KIGQ 220415Z AUTO 35007G16KT 7SM RA OVC009 21/21 A2980 RMK AO2  T02070206,,,900.0,,,69.08,,N,29.15,27.6,,Rain
KIGQ,07/22/2018 04:35 UTC,29.79,69.08,69.08,100.0,8.05,350.0,,,,,,94.0,,,,10.0,,KIGQ 220435Z AUTO 35007KT 10SM OVC009 21/21 A2979 RMK AO2  T02060206,,,900.0,,,69.08,,N,29.14,27.59,,Overcast
KIGQ,07/22/2018 04:55 UTC,29.79,69.08,69.08,100.0,5.75,360.0,,,,,,94.0,,,,10.0,,KIGQ 220455Z AUTO 36005KT 10SM OVC009 21/21 A2979 RMK AO2  T02060206,,,900.0,,,69.08,,N,29.14,27.59,,Overcast
KIGQ,07/22/2018 05:15 UTC,29.8,68.9,68.9,100.0,9.22,360.0,,13.0,,,,74.0,,,,7.0,,KIGQ 220515Z AUTO 36008KT 320V020 7SM -RA OVC007 21/21 A2980 RMK AO2 T02050205,,,700.0,,,68.9,,N,29.15,27.62,,Light Rain
KIGQ,07/22/2018 05:35 UTC,29.8,68.9,68.9,100.0,6.91,360.0,,,,,,74.0,,,,10.0,,KIGQ 220535Z AUTO 36006KT 10SM OVC007 21/21 A2980 RMK AO2  T02050205,,,700.0,,,68.9,,N,29.15,27.62,,Overcast
KIGQ,07/22/2018 05:55 UTC,29.79,68.72,68.72,100.0,9.22,350.0,,,,,,73.0,164.0,,,10.0,,KIGQ 220555Z AUTO 35008KT 10SM BKN007 OVC016 20/20 A2979 RMK AO2  T02040204 10218 20202 402340200,71.24,68.36,700.0,74.12,68.0,68.72,,N,29.14,27.62,,Overcast
KIGQ,07/22/2018 06:15 UTC,29.79,68.9,68.9,100.0,8.05,10.0,,1.0,,,,73.0,134.0,,,10.0,,KIGQ 220615Z AUTO 01007KT 10SM RA BKN007 OVC013 21/21 A2979 RMK AO2 T02050205,,,700.0,,,68.9,,N,29.14,27.61,,Rain
KIGQ,07/22/2018 06:35 UTC,29.79,68.9,68.9,100.0,5.75,360.0,,,,,,114.0,,,,10.0,,KIGQ 220635Z AUTO 36005KT 10SM OVC011 21/21 A2979 RMK AO2  T02050205,,,1100.0,,,68.9,,N,29.14,27.61,,Overcast
KIGQ,07/22/2018 06:55 UTC,29.78,69.26,69.26,100.0,10.36,10.0,19.57,13.0,,0.08,,73.0,144.0,,,3.0,,KIGQ 220655Z AUTO 01009G17KT 3SM -RA BKN007 OVC014 21/21 A2978 RMK AO2 P0008 T02070207,,,700.0,,,69.26,,N,29.13,27.57,,Light Rain
KIGQ,07/22/2018 07:15 UTC,29.78,69.26,69.26,100.0,8.05,20.0,,13.0,,,,74.0,,,,10.0,,KIGQ 220715Z AUTO 02007KT 10SM -RA OVC007 21/21 A2978 RMK AO2  T02070207,,,700.0,,,69.26,,NNE,29.13,27.57,,Light Rain
KIGQ,07/22/2018 07:35 UTC,29.78,69.44,69.44,100.0,8.05,20.0,,,214.0,,,62.0,133.0,,,10.0,,KIGQ 220735Z AUTO 02007KT 350V050 10SM SCT006 BKN013 OVC021 21/21  A2978 RMK AO2 T02080208,,,1300.0,,,69.44,,NNE,29.13,27.55,,Overcast
KIGQ,07/22/2018 07:55 UTC,29.78,69.44,69.44,100.0,6.91,20.0,,,,,,94.0,,,,10.0,,KIGQ 220755Z AUTO 02006KT 10SM OVC009 21/21 A2978 RMK AO2  T02080208,,,900.0,,,69.44,,NNE,29.13,27.55,,Overcast
KIGQ,07/22/2018 08:15 UTC,29.78,69.62,69.62,100.0,10.36,20.0,,,,,,94.0,,,,10.0,,KIGQ 220815Z AUTO 02009KT 10SM OVC009 21/21 A2978 RMK AO2  T02090209,,,900.0,,,69.62,,NNE,29.13,27.54,,Overcast
KIGQ,07/22/2018 08:35 UTC,29.78,69.08,69.08,100.0,9.22,350.0,,13.0,184.0,0.01,,93.0,133.0,,,10.0,,KIGQ 220835Z AUTO 35008KT 10SM -RA BKN009 BKN013 OVC018 21/21  A2978 RMK AO2 P0001 T02060206,,,900.0,,,69.08,,N,29.13,27.58,,Light Rain
KIGQ,07/22/2018 08:55 UTC,29.79,68.9,68.9,100.0,5.75,350.0,,13.0,244.0,0.01,0.09,92.0,143.0,,,10.0,,KIGQ 220855Z AUTO 35005KT 10SM -RA SCT009 BKN014 OVC024 21/21  A2979 RMK AO2 P0001 60009 T02050205,,,1400.0,,,68.9,,N,29.14,27.61,,Light Rain
KIGQ,07/22/2018 09:15 UTC,29.79,68.9,68.9,100.0,6.91,10.0,,13.0,204.0,,,83.0,153.0,,,10.0,,KIGQ 220915Z AUTO 01006KT 10SM -RA BKN008 BKN015 OVC020 21/21  A2979 RMK AO2 T02050205,,,800.0,,,68.9,,N,29.14,27.61,,Light Rain
KIGQ,07/22/2018 09:35 UTC,29.79,68.9,68.9,100.0,6.91,10.0,,,,,,83.0,134.0,,,10.0,,KIGQ 220935Z AUTO 01006KT 10SM BKN008 OVC013 21/21 A2979 RMK AO2  T02050205,,,800.0,,,68.9,,N,29.14,27.61,,Overcast
KIGQ,07/22/2018 09:55 UTC,29.8,68.9,68.9,100.0,5.75,10.0,,,324.0,,,72.0,143.0,,,10.0,,KIGQ 220955Z AUTO 01005KT 10SM SCT007 BKN014 OVC032 21/21 A2980 RMK AO2 T02050205,,,1400.0,,,68.9,,N,29.15,27.62,,Overcast
KIGQ,07/22/2018 10:15 UTC,29.8,68.9,68.9,100.0,9.22,20.0,,,484.0,,,93.0,183.0,,,10.0,,KIGQ 221015Z AUTO 02008KT 10SM BKN009 BKN018 OVC048 21/21 A2980 RMK AO2 T02050205,,,900.0,,,68.9,,NNE,29.15,27.62,,Overcast
KIGQ,07/22/2018 10:35 UTC,29.81,68.9,68.9,100.0,8.05,30.0,,,504.0,,,112.0,173.0,,,10.0,,KIGQ 221035Z AUTO 03007KT 10SM SCT011 BKN017 OVC050 21/21 A2981 RMK AO2 T02050205,,,1700.0,,,68.9,,NNE,29.16,27.63,,Overcast
KIGQ,07/22/2018 10:55 UTC,29.81,68.36,68.36,100.0,6.91,30.0,,14.0,344.0,0.05,,112.0,183.0,,,7.0,,KIGQ 221055Z AUTO 03006KT 7SM +RA SCT011 BKN018 OVC034 20/20 A2981 RMK AO2 P0005 T02020202,,,1800.0,,,68.36,,NNE,29.16,27.67,,Heavy Rain
KIGQ,07/22/2018 11:15 UTC,29.81,68.36,68.36,100.0,8.05,10.0,,14.0,374.0,0.06,,72.0,213.0,,,4.0,,KIGQ 221115Z AUTO 01007KT 4SM +RA SCT007 BKN021 OVC037 20/20 A2981 RMK AO2 P0006 T02020202,,,2100.0,,,68.36,,N,29.16,27.67,,Heavy Rain
KIGQ,07/22/2018 11:35 UTC,29.81,68.9,68.9,100.0,5.75,10.0,,13.0,174.0,0.08,,93.0,133.0,,,5.0,,KIGQ 221135Z AUTO 01005KT 5SM -RA BKN009 BKN013 OVC017 21/21 A2981 RMK AO2 P0008 T02050205,,,900.0,,,68.9,,N,29.16,27.63,,Light Rain
KIGQ,07/22/2018 11:55 UTC,29.82,68.72,68.72,100.0,5.75,40.0,,1.0,194.0,0.08,,73.0,113.0,0.22,0.35,5.0,,KIGQ 221155Z AUTO 04005KT 5SM RA BKN007 BKN011 OVC019 20/20 A2982 RMK AO2 P0008 60022 70035 T02040204 10210 20201,69.8,68.18,700.0,,,68.72,,NE,29.17,27.65,,Rain
KIGQ,07/22/2018 12:15 UTC,29.82,68.54,68.54,100.0,4.61,30.0,,14.0,,0.28,,74.0,,,,1.0,,KIGQ 221215Z AUTO 03004KT 1SM +RA OVC007 20/20 A2982 RMK AO2 VIS  1/2V4 P0028 T02030203,,,700.0,,,68.54,,NNE,29.17,27.67,,Heavy Rain
KIGQ,07/22/2018 12:35 UTC,29.83,68.9,68.9,100.0,9.22,360.0,,13.0,,0.32,,73.0,144.0,,,7.0,,KIGQ 221235Z AUTO 36008KT 320V020 7SM -RA BKN007 OVC014 21/21  A2983 RMK AO2 P0032 T02050205,,,700.0,,,68.9,,N,29.18,27.65,,Light Rain
KIGQ,07/22/2018 12:55 UTC,29.83,68.9,68.9,100.0,9.22,340.0,,14.0,,0.36,,73.0,134.0,,,4.0,,KIGQ 221255Z AUTO 34008KT 320V020 4SM +RA BKN007 OVC013 21/21  A2983 RMK AO2 P0036 T02050205,,,700.0,,,68.9,,NNW,29.18,27.65,,Heavy Rain
KIGQ,07/22/2018 13:15 UTC,29.83,68.9,68.9,100.0,9.22,360.0,,14.0,,0.01,,74.0,,,,7.0,,KIGQ 221315Z AUTO 36008KT 7SM +RA OVC007 21/21 A2983 RMK AO2 P0001  T02050205,,,700.0,,,68.9,,N,29.18,27.65,,Heavy Rain
KIGQ,07/22/2018 13:35 UTC,29.83,68.9,68.9,100.0,5.75,10.0,,,,0.02,,74.0,,,,10.0,,KIGQ 221335Z AUTO 01005KT 10SM OVC007 21/21 A2983 RMK AO2 P0002  T02050205,,,700.0,,,68.9,,N,29.18,27.65,,Overcast
KIGQ,07/22/2018 13:55 UTC,29.83,69.26,69.26,100.0,10.36,10.0,,13.0,,0.02,,74.0,,,,10.0,,KIGQ 221355Z AUTO 01009KT 340V040 10SM -RA OVC007 21/21 A2983 RMK AO2 P0002 T02070207,,,700.0,,,69.26,,N,29.18,27.62,,Light Rain
KIGQ,07/22/2018 14:15 UTC,29.84,69.8,69.8,100.0,8.05,10.0,,13.0,,0.02,,73.0,134.0,,,10.0,,KIGQ 221415Z AUTO 01007KT 10SM -RA BKN007 OVC013 21/21 A2984 RMK AO2 P0002 T02100210,,,700.0,,,69.8,,N,29.19,27.58,,Light Rain
KIGQ,07/22/2018 14:35 UTC,29.84,69.44,69.44,100.0,8.05,350.0,,,,0.02,,73.0,114.0,,,7.0,,KIGQ 221435Z AUTO 35007KT 7SM BKN007 OVC011 21/21 A2984 RMK AO2  P0002 T02080208,,,700.0,,,69.44,,N,29.19,27.61,,Overcast
KIGQ,07/22/2018 14:55 UTC,29.84,69.8,69.8,100.0,11.5,350.0,17.27,,224.0,0.02,0.4,73.0,113.0,,,10.0,,KIGQ 221455Z AUTO 35010G15KT 10SM BKN007 BKN011 OVC022 21/21 A2984 RMK AO2 P0002 60040 T02100210,,,700.0,,,69.8,,N,29.19,27.58,,Overcast
KIGQ,07/22/2018 15:15 UTC,29.85,70.16,70.16,100.0,8.05,10.0,,,,,,73.0,134.0,,,10.0,,KIGQ 221515Z AUTO 01007KT 10SM BKN007 OVC013 21/21 A2985 RMK AO2  T02120212,,,700.0,,,70.16,,N,29.2,27.56,,Overcast
KIGQ,07/22/2018 15:35 UTC,29.85,70.7,70.7,100.0,8.05,360.0,,,,,,74.0,,,,10.0,,KIGQ 221535Z AUTO 36007KT 10SM OVC007 22/22 A2985 RMK AO2  T02150215,,,700.0,,,70.7,,N,29.2,27.51,,Overcast
KIGQ,07/22/2018 15:55 UTC,29.85,70.34,70.34,100.0,9.22,360.0,,,,,,74.0,,,,10.0,,KIGQ 221555Z AUTO 36008KT 10SM OVC007 21/21 A2985 RMK AO2  T02130213,,,700.0,,,70.34,,N,29.2,27.54,,Overcast
KIGQ,07/22/2018 16:15 UTC,29.85,70.88,70.7,99.39,10.36,30.0,,13.0,,,,93.0,164.0,,,7.0,,KIGQ 221615Z AUTO 03009KT 7SM -RA BKN009 OVC016 22/22 A2985 RMK AO2 T02160215,,,900.0,,,70.7,,NNE,29.2,27.51,,Light Rain
KIGQ,07/22/2018 16:35 UTC,29.85,71.96,70.88,96.41,8.05,20.0,,,,,,113.0,214.0,,,7.0,,KIGQ 221635Z AUTO 02007KT 7SM BKN011 OVC021 22/22 A2985 RMK AO2  T02220216,,,1100.0,,,70.88,,NNE,29.2,27.48,,Overcast
KIGQ,07/22/2018 16:55 UTC,29.85,72.5,69.98,91.82,11.5,30.0,16.11,,,,,134.0,,,,10.0,,KIGQ 221655Z AUTO 03010G14KT 10SM OVC013 23/21 A2985 RMK AO2  T02250211,,,1300.0,,,69.97,,NNE,29.2,27.54,,Overcast
KIGQ,07/22/2018 17:15 UTC,29.85,72.5,69.44,90.15,8.05,20.0,,,,,,133.0,204.0,,,10.0,,KIGQ 221715Z AUTO 02007KT 10SM BKN013 OVC020 23/21 A2985 RMK AO2  T02250208,,,1300.0,,,69.43,,NNE,29.2,27.58,,Overcast
KIGQ,07/22/2018 17:35 UTC,29.86,73.22,69.44,87.99,12.66,30.0,16.11,,,,,174.0,,,,10.0,,KIGQ 221735Z AUTO 03011G14KT 10SM OVC017 23/21 A2986 RMK AO2  T02290208,,,1700.0,,,69.43,,NNE,29.21,27.58,,Overcast
KIGQ,07/22/2018 17:55 UTC,29.85,72.5,71.06,95.25,6.91,10.0,,,,,,153.0,244.0,0.4,,7.0,,KIGQ 221755Z AUTO 01006KT 7SM BKN015 OVC024 23/22 A2985 RMK AO2  LTG DSNT E AND SE 60040 T02250217 10230 20202,73.4,68.36,1500.0,,,71.06,,N,29.2,27.46,,Overcast
KIGQ,07/22/2018 18:15 UTC,29.85,72.32,70.52,94.09,10.36,20.0,18.41,,284.0,,,142.0,223.0,,,10.0,,KIGQ 221815Z AUTO 02009G16KT 10SM SCT014 BKN022 OVC028 22/21 A2985 RMK AO2 LTG DSNT SE T02240214,,,2200.0,,,70.52,,NNE,29.2,27.5,,Overcast
KIGQ,07/22/2018 18:35 UTC,29.85,72.5,69.8,91.26,10.36,20.0,18.41,,294.0,,,122.0,203.0,,,10.0,,KIGQ 221835Z AUTO 02009G16KT 10SM SCT012 BKN020 OVC029 23/21 A2985 RMK AO2 LTG DSNT E AND SE T02250210,,,2000.0,,,69.79,,NNE,29.2,27.55,,Overcast
KIGQ,07/22/2018 18:55 UTC,29.85,73.22,70.7,91.84,10.36,30.0,,,284.0,,,143.0,193.0,,,10.0,,KIGQ 221855Z AUTO 03009KT 10SM BKN014 BKN019 OVC028 23/22 A2985 RMK AO2 T02290215,,,1400.0,,,70.69,,NNE,29.2,27.47,,Overcast
KIGQ,07/22/2018 19:15 UTC,29.85,73.4,70.34,90.18,10.36,20.0,19.57,,,,,143.0,214.0,,,10.0,,KIGQ 221915Z AUTO 02009G17KT 10SM BKN014 OVC021 23/21 A2985 RMK AO2 LTG DSNT SE T02300213,,,1400.0,,,70.33,,NNE,29.2,27.5,,Overcast
KIGQ,07/22/2018 19:35 UTC,29.86,73.4,70.7,91.29,9.22,10.0,,,,,,143.0,214.0,,,10.0,,KIGQ 221935Z AUTO 01008KT 10SM BKN014 OVC021 23/22 A2986 RMK AO2  T02300215,,,1400.0,,,70.69,,N,29.21,27.48,,Overcast
KIGQ,07/22/2018 19:55 UTC,29.86,72.5,69.8,91.26,9.22,360.0,18.41,,,,,143.0,204.0,,,10.0,,KIGQ 221955Z AUTO 36008G16KT 10SM BKN014 OVC020 23/21 A2986 RMK AO2 T02250210,,,1400.0,,,69.79,,N,29.21,27.56,,Overcast
KIGQ,07/22/2018 20:15 UTC,29.86,72.86,69.98,90.71,14.97,360.0,18.41,,,,,143.0,214.0,,,10.0,,KIGQ 222015Z AUTO 36013G16KT 10SM BKN014 OVC021 23/21 A2986 RMK AO2 T02270211,,,1400.0,,,69.97,,N,29.21,27.54,,Overcast
KIGQ,07/22/2018 20:35 UTC,29.86,73.4,69.98,89.08,12.66,360.0,18.41,,,,,163.0,234.0,,,10.0,,KIGQ 222035Z AUTO 36011G16KT 10SM BKN016 OVC023 23/21 A2986 RMK AO2 T02300211,,,1600.0,,,69.97,,N,29.21,27.54,,Overcast
KIGQ,07/22/2018 20:55 UTC,29.87,73.22,69.98,89.62,10.36,360.0,23.02,,,,,152.0,214.0,,,10.0,,KIGQ 222055Z AUTO 36009G20KT 10SM SCT015 OVC021 23/21 A2987 RMK AO2 T02290211,,,2100.0,,,69.97,,N,29.22,27.55,,Overcast
KIGQ,07/22/2018 21:15 UTC,29.87,74.12,69.98,86.96,11.5,360.0,18.41,,,,,153.0,214.0,,,10.0,,KIGQ 222115Z AUTO 36010G16KT 10SM BKN015 OVC021 23/21 A2987 RMK AO2 T02340211,,,1500.0,,,69.97,,N,29.22,27.54,,Overcast
KIGQ,07/22/2018 21:35 UTC,29.88,73.58,69.44,86.93,14.97,10.0,20.71,,,,,153.0,204.0,,,10.0,,KIGQ 222135Z AUTO 01013G18KT 330V040 10SM BKN015 OVC020 23/21  A2988 RMK AO2 T02310208,,,1500.0,,,69.43,,N,29.23,27.59,,Overcast
KIGQ,07/22/2018 21:55 UTC,29.88,73.22,69.8,89.08,12.66,10.0,19.57,,,,,133.0,224.0,,,10.0,,KIGQ 222155Z AUTO 01011G17KT 10SM BKN013 OVC022 23/21 A2988 RMK AO2 T02290210,,,1300.0,,,69.79,,N,29.23,27.57,,Overcast
KIGQ,07/22/2018 22:15 UTC,29.88,72.5,69.44,90.15,11.5,360.0,19.57,,,,,153.0,224.0,,,10.0,,KIGQ 222215Z AUTO 36010G17KT 10SM BKN015 OVC022 23/21 A2988 RMK AO2 T02250208,,,1500.0,,,69.43,,N,29.23,27.61,,Overcast
KIGQ,07/22/2018 22:35 UTC,29.88,72.5,69.98,91.82,10.36,10.0,,,,,,134.0,,,,10.0,,KIGQ 222235Z AUTO 01009KT 10SM OVC013 23/21 A2988 RMK AO2  T02250211,,,1300.0,,,69.97,,N,29.23,27.57,,Overcast
KIGQ,07/22/2018 22:55 UTC,29.89,72.32,69.8,91.81,11.5,10.0,19.57,,,,,134.0,,,,10.0,,KIGQ 222255Z AUTO 01010G17KT 330V040 10SM OVC013 22/21 A2989 RMK AO2 T02240210,,,1300.0,,,69.79,,N,29.24,27.59,,Overcast
KIGQ,07/22/2018 23:15 UTC,29.89,71.78,69.44,92.36,11.5,10.0,18.41,,,,,134.0,,,,10.0,,KIGQ 222315Z AUTO 01010G16KT 10SM OVC013 22/21 A2989 RMK AO2  T02210208,,,1300.0,,,69.43,,N,29.24,27.63,,Overcast
KIGQ,07/22/2018 23:35 UTC,29.9,71.24,69.08,92.91,12.66,10.0,20.71,,,,,114.0,,,,10.0,,KIGQ 222335Z AUTO 01011G18KT 10SM OVC011 22/21 A2990 RMK AO2  T02180206,,,1100.0,,,69.07,,N,29.25,27.67,,Overcast
KIGQ,07/22/2018 23:55 UTC,29.9,71.24,69.26,93.49,11.5,20.0,16.11,,,,,113.0,164.0,,,10.0,,KIGQ 222355Z AUTO 02010G14KT 10SM BKN011 OVC016 22/21 A2990 RMK AO2 T02180207 10237 20217,74.66,71.06,1100.0,,,69.25,,NNE,29.25,27.66,,Overcast
KIGQ,07/23/2018 00:15 UTC,29.9,71.06,68.9,92.91,11.5,360.0,18.41,,,,,114.0,,,,10.0,,KIGQ 230015Z AUTO 36010G16KT 10SM OVC011 22/21 A2990 RMK AO2  T02170205,,,1100.0,,,68.89,,N,29.25,27.69,,Overcast
KIGQ,07/23/2018 00:35 UTC,29.91,70.16,68.9,95.79,13.8,10.0,19.57,,,,,113.0,193.0,,,10.0,,KIGQ 230035Z AUTO 01012G17KT 10SM BKN011 BKN019 21/21 A2991 RMK AO2 T02120205,,,1100.0,,,68.89,,N,29.26,27.71,,Mostly Cloudy
KIGQ,07/23/2018 00:55 UTC,29.91,69.98,68.9,96.38,8.05,10.0,17.27,,384.0,,,113.0,193.0,,,10.0,,KIGQ 230055Z AUTO 01007G15KT 10SM BKN011 BKN019 OVC038 21/21 A2991 RMK AO2 T02110205,,,1100.0,,,68.9,,N,29.26,27.71,,Overcast
KIGQ,07/23/2018 01:15 UTC,29.91,69.8,68.9,96.97,9.22,360.0,,,244.0,,,93.0,173.0,,,10.0,,KIGQ 230115Z AUTO 36008KT 10SM BKN009 BKN017 OVC024 21/21 A2991 RMK AO2 T02100205,,,900.0,,,68.9,,N,29.26,27.72,,Overcast
KIGQ,07/23/2018 01:35 UTC,29.92,69.44,68.9,98.17,8.05,360.0,,,,,,113.0,223.0,,,10.0,,KIGQ 230135Z AUTO 36007KT 10SM BKN011 BKN022 21/21 A2992 RMK AO2  T02080205,,,1100.0,,,68.9,,N,29.27,27.73,,Mostly Cloudy
KIGQ,07/23/2018 01:55 UTC,29.92,69.08,68.72,98.78,5.75,350.0,,,232.0,,,92.0,152.0,,,10.0,,KIGQ 230155Z AUTO 35005KT 10SM SCT009 SCT015 SCT023 21/20 A2992 RMK AO2 T02060204,,,,,,68.72,,N,29.27,27.75,,Partly Cloudy
KIGQ,07/23/2018 02:15 UTC,29.93,68.9,68.54,98.78,5.75,10.0,,,,,,152.0,202.0,,,10.0,,KIGQ 230215Z AUTO 01005KT 10SM SCT015 SCT020 21/20 A2993 RMK AO2  T02050203,,,,,,68.54,,N,29.28,27.77,,Partly Cloudy
KIGQ,07/23/2018 02:35 UTC,29.94,68.9,68.54,98.78,4.61,350.0,,,,,,113.0,183.0,,,10.0,,KIGQ 230235Z AUTO 35004KT 10SM BKN011 BKN018 21/20 A2994 RMK AO2  T02050203,,,1100.0,,,68.54,,N,29.29,27.78,,Mostly Cloudy
KIGQ,07/23/2018 02:55 UTC,29.95,68.54,68.36,99.38,4.61,10.0,,,,,,112.0,282.0,,,10.0,,KIGQ 230255Z AUTO 01004KT 10SM SCT011 SCT028 20/20 A2995 RMK AO2  T02030202,,,,,,68.36,,N,29.3,27.81,,Partly Cloudy
KIGQ,07/23/2018 03:15 UTC,29.95,68.36,68.36,100.0,3.44,350.0,,,,,,92.0,,,,10.0,,KIGQ 230315Z AUTO 35003KT 10SM SCT009 20/20 A2995 RMK AO2  T02020202,,,,,,68.36,,N,29.3,27.82,,Partly Cloudy
KIGQ,07/23/2018 03:35 UTC,29.95,68.0,68.0,100.0,3.44,340.0,,,,,,73.0,853.0,,,10.0,,KIGQ 230335Z AUTO 34003KT 10SM BKN007 BKN085 20/20 A2995 RMK AO2  T02000200,,,700.0,,,68.0,,NNW,29.3,27.85,,Mostly Cloudy
KIGQ,07/23/2018 03:55 UTC,29.94,68.0,68.0,100.0,0.0,0.0,,,,,,72.0,903.0,,,10.0,,KIGQ 230355Z AUTO 00000KT 10SM SCT007 BKN090 20/20 A2994 RMK AO2  T02000200,,,9000.0,,,68.0,,N,29.29,27.84,,Mostly Cloudy
KIGQ,07/23/2018 04:15 UTC,29.94,68.0,68.0,100.0,0.0,0.0,,,,,,804.0,,,,10.0,,KIGQ 230415Z AUTO 00000KT 10SM OVC080 20/20 A2994 RMK AO2  T02000200,,,8000.0,,,68.0,,N,29.29,27.84,,Overcast
KIGQ,07/23/2018 04:35 UTC,29.94,68.18,68.18,100.0,0.0,0.0,,,,,,802.0,904.0,,,10.0,,KIGQ 230435Z AUTO 00000KT 10SM SCT080 OVC090 20/20 A2994 RMK AO2  T02010201,,,9000.0,,,68.18,,N,29.29,27.82,,Overcast
KIGQ,07/23/2018 04:55 UTC,29.93,68.18,68.18,100.0,3.44,330.0,,,,,,904.0,,,,10.0,,KIGQ 230455Z AUTO 33003KT 10SM OVC090 20/20 A2993 RMK AO2  T02010201,,,9000.0,,,68.18,,NNW,29.28,27.81,,Overcast
KIGQ,07/23/2018 05:15 UTC,29.93,68.18,68.18,100.0,0.0,0.0,,,,,,702.0,804.0,,,10.0,,KIGQ 230515Z AUTO 00000KT 10SM SCT070 OVC080 20/20 A2993 RMK AO2  T02010201,,,8000.0,,,68.18,,N,29.28,27.81,,Overcast
KIGQ,07/23/2018 05:35 UTC,29.92,68.0,68.0,100.0,3.44,230.0,,,,,,603.0,704.0,,,10.0,,KIGQ 230535Z AUTO 23003KT 10SM BKN060 OVC070 20/20 A2992 RMK AO2  T02000200,,,6000.0,,,68.0,,SW,29.27,27.81,,Overcast
KIGQ,07/23/2018 05:55 UTC,29.91,68.0,68.0,100.0,0.0,0.0,,,,,,604.0,,,,7.0,,KIGQ 230555Z AUTO 00000KT 7SM OVC060 20/20 A2991 RMK AO2 T02000200  10218 20200 402370200,71.24,68.0,6000.0,74.66,68.0,68.0,,N,29.26,27.8,,Overcast
KIGQ,07/23/2018 06:15 UTC,29.91,68.0,68.0,100.0,4.61,300.0,,,604.0,,,332.0,453.0,,,10.0,,KIGQ 230615Z AUTO 30004KT 10SM SCT033 BKN045 OVC060 20/20 A2991 RMK AO2 T02000200,,,4500.0,,,68.0,,WNW,29.26,27.8,,Overcast
KIGQ,07/23/2018 06:35 UTC,29.91,68.0,68.0,100.0,3.44,290.0,,2.0,,,,283.0,414.0,,,7.0,,KIGQ 230635Z AUTO 29003KT 7SM DZ BKN028 OVC041 20/20 A2991 RMK AO2  T02000200,,,2800.0,,,68.0,,WNW,29.26,27.8,,Drizzle
KIGQ,07/23/2018 06:55 UTC,29.91,68.0,68.0,100.0,3.44,300.0,,13.0,,,,213.0,284.0,,,10.0,,KIGQ 230655Z AUTO 30003KT 10SM -RA BKN021 OVC028 20/20 A2991 RMK AO2 T02000200,,,2100.0,,,68.0,,WNW,29.26,27.8,,Light Rain
KIGQ,07/23/2018 07:15 UTC,29.91,68.18,68.18,100.0,0.0,0.0,,17.0,,,,174.0,,,,10.0,,KIGQ 230715Z AUTO 00000KT 10SM -DZ OVC017 20/20 A2991 RMK AO2  T02010201,,,1700.0,,,68.18,,N,29.26,27.79,,Light Drizzle
KIGQ,07/23/2018 07:35 UTC,29.91,68.18,68.0,99.38,4.61,340.0,,,,,,153.0,234.0,,,10.0,,KIGQ 230735Z AUTO 34004KT 10SM BKN015 OVC023 20/20 A2991 RMK AO2  T02010200,,,1500.0,,,68.0,,NNW,29.26,27.8,,Overcast
KIGQ,07/23/2018 07:55 UTC,29.91,68.36,67.28,96.36,4.61,330.0,,,604.0,,,153.0,253.0,,,10.0,,KIGQ 230755Z AUTO 33004KT 10SM BKN015 BKN025 OVC060 20/20 A2991 RMK AO2 T02020196,,,1500.0,,,67.28,,NNW,29.26,27.85,,Overcast
KIGQ,07/23/2018 08:15 UTC,29.9,68.18,67.1,96.35,3.44,340.0,,,904.0,,,152.0,603.0,,,10.0,,KIGQ 230815Z AUTO 34003KT 10SM SCT015 BKN060 OVC090 20/20 A2990 RMK AO2 T02010195,,,6000.0,,,67.09,,NNW,29.25,27.85,,Overcast
KIGQ,07/23/2018 08:35 UTC,29.91,68.18,67.1,96.35,3.44,330.0,,,,,,604.0,,,,10.0,,KIGQ 230835Z AUTO 33003KT 10SM OVC060 20/20 A2991 RMK AO2  T02010195,,,6000.0,,,67.09,,NNW,29.26,27.86,,Overcast
KIGQ,07/23/2018 08:55 UTC,29.91,68.18,67.1,96.35,3.44,340.0,,,,,,603.0,754.0,,,10.0,,KIGQ 230855Z AUTO 34003KT 10SM BKN060 OVC075 20/20 A2991 RMK AO2  T02010195,,,6000.0,,,67.09,,NNW,29.26,27.86,,Overcast
KIGQ,07/23/2018 09:15 UTC,29.91,68.18,67.1,96.35,3.44,320.0,,,754.0,,,602.0,653.0,,,10.0,,KIGQ 230915Z AUTO 32003KT 10SM SCT060 BKN065 OVC075 20/20 A2991 RMK AO2 T02010195,,,6500.0,,,67.09,,NW,29.26,27.86,,Overcast
KIGQ,07/23/2018 09:35 UTC,29.91,68.18,67.1,96.35,3.44,330.0,,,754.0,,,602.0,653.0,,,10.0,,KIGQ 230935Z AUTO 33003KT 10SM SCT060 BKN065 OVC075 20/20 A2991 RMK AO2 T02010195,,,6500.0,,,67.09,,NNW,29.26,27.86,,Overcast
KIGQ,07/23/2018 09:55 UTC,29.91,68.36,67.1,95.76,0.0,0.0,,,,,,754.0,,,,10.0,,KIGQ 230955Z AUTO 00000KT 10SM OVC075 20/20 A2991 RMK AO2  T02020195,,,7500.0,,,67.09,,N,29.26,27.86,,Overcast
KIGQ,07/23/2018 10:15 UTC,29.91,68.0,67.1,96.95,3.44,320.0,,,,,,854.0,,,,10.0,,KIGQ 231015Z AUTO 32003KT 10SM OVC085 20/20 A2991 RMK AO2  T02000195,,,8500.0,,,67.1,,NW,29.26,27.86,,Overcast
KIGQ,07/23/2018 10:35 UTC,29.91,67.82,66.92,96.95,3.44,330.0,,,,,,854.0,,,,10.0,,KIGQ 231035Z AUTO 33003KT 10SM OVC085 20/19 A2991 RMK AO2  T01990194,,,8500.0,,,66.92,,NNW,29.26,27.88,,Overcast
KIGQ,07/23/2018 10:55 UTC,29.91,67.64,66.74,96.95,3.44,320.0,,,,,,854.0,,,,10.0,,KIGQ 231055Z AUTO 32003KT 10SM OVC085 20/19 A2991 RMK AO2  T01980193,,,8500.0,,,66.74,,NW,29.26,27.89,,Overcast
KIGQ,07/23/2018 11:15 UTC,29.91,67.64,67.1,98.16,0.0,0.0,,,,,,854.0,,,,10.0,,KIGQ 231115Z AUTO 00000KT 10SM OVC085 20/20 A2991 RMK AO2  T01980195,,,8500.0,,,67.1,,N,29.26,27.87,,Overcast
KIGQ,07/23/2018 11:35 UTC,29.92,68.18,67.1,96.35,3.44,320.0,,,,,,854.0,,,,10.0,,KIGQ 231135Z AUTO 32003KT 10SM OVC085 20/20 A2992 RMK AO2  T02010195,,,8500.0,,,67.09,,NW,29.27,27.87,,Overcast
KIGQ,07/23/2018 11:55 UTC,29.92,68.18,66.2,93.4,4.61,330.0,,,,,,854.0,,,0.4,10.0,,KIGQ 231155Z AUTO 33004KT 10SM OVC085 20/19 A2992 RMK AO2 70040  T02010190 10203 20198,68.54,67.64,8500.0,,,66.19,,NNW,29.27,27.93,,Overcast
KIGQ,07/23/2018 12:15 UTC,29.93,68.36,65.66,91.11,8.05,330.0,,,,,,854.0,,,,10.0,,KIGQ 231215Z AUTO 33007KT 10SM OVC085 20/19 A2993 RMK AO2  T02020187,,,8500.0,,,65.65,,NNW,29.28,27.97,,Overcast
KIGQ,07/23/2018 12:35 UTC,29.93,69.26,65.3,87.25,5.75,340.0,,,,,,32.0,853.0,,,10.0,,KIGQ 231235Z AUTO 34005KT 10SM SCT003 BKN085 21/19 A2993 RMK AO2  T02070185,,,8500.0,,,65.29,,NNW,29.28,27.98,,Mostly Cloudy
KIGQ,07/23/2018 12:55 UTC,29.93,69.98,65.48,85.67,3.44,350.0,,,,,,32.0,,,,10.0,,KIGQ 231255Z AUTO 35003KT 10SM SCT003 21/19 A2993 RMK AO2  T02110186,,,,,,65.47,,N,29.28,27.96,,Partly Cloudy
KIGQ,07/23/2018 13:15 UTC,29.94,71.06,66.02,84.14,4.61,350.0,,,,,,192.0,,,,10.0,,KIGQ 231315Z AUTO 35004KT 10SM SCT019 22/19 A2994 RMK AO2  T02170189,,,,,,66.0,,N,29.29,27.92,,Partly Cloudy
KIGQ,07/23/2018 13:35 UTC,29.94,71.06,65.12,81.55,6.91,330.0,,,,,,192.0,,,,10.0,,KIGQ 231335Z AUTO 33006KT 10SM SCT019 22/18 A2994 RMK AO2  T02170184,,,,,,65.1,,NNW,29.29,27.98,,Partly Cloudy
KIGQ,07/23/2018 13:55 UTC,29.94,71.6,64.76,79.08,6.91,330.0,,,,,,212.0,,,,10.0,,KIGQ 231355Z AUTO 33006KT 10SM SCT021 22/18 A2994 RMK AO2  T02200182,,,,,,64.74,,NNW,29.29,28.0,,Partly Cloudy
KIGQ,07/23/2018 14:15 UTC,29.94,71.96,65.12,79.11,5.75,340.0,,,,,,1.0,,,,10.0,,KIGQ 231415Z AUTO 34005KT 10SM CLR 22/18 A2994 RMK AO2  T02220184,,,,,,65.1,,NNW,29.29,27.97,,Clear
KIGQ,07/23/2018 14:35 UTC,29.94,72.5,65.12,77.68,6.91,340.0,,,,,,232.0,,,,10.0,,KIGQ 231435Z AUTO 34006KT 10SM SCT023 23/18 A2994 RMK AO2  T02250184,,,,,,65.1,,NNW,29.29,27.96,,Partly Cloudy
KIGQ,07/23/2018 14:55 UTC,29.94,73.04,67.1,81.69,9.22,40.0,,,,,,1.0,,,,10.0,,KIGQ 231455Z AUTO 04008KT 10SM CLR 23/20 A2994 RMK AO2  T02280195,,,,,,67.09,,NE,29.29,27.83,,Clear
KIGQ,07/23/2018 15:15 UTC,29.94,72.5,67.1,83.19,5.75,40.0,,,,,,1.0,,,,10.0,,KIGQ 231515Z AUTO 04005KT 10SM CLR 23/20 A2994 RMK AO2  T02250195,,,,,,67.09,,NE,29.29,27.83,,Clear
KIGQ,07/23/2018 15:35 UTC,29.94,72.5,66.74,82.17,6.91,10.0,,,,,,753.0,,,,10.0,,KIGQ 231535Z AUTO 01006KT 10SM BKN075 23/19 A2994 RMK AO2  T02250193,,,7500.0,,,66.73,,N,29.29,27.86,,Mostly Cloudy
KIGQ,07/23/2018 15:55 UTC,29.94,72.68,66.92,82.18,6.91,10.0,,,,,,754.0,,,,10.0,,KIGQ 231555Z AUTO 01006KT 10SM OVC075 23/19 A2994 RMK AO2  T02260194,,,7500.0,,,66.91,,N,29.29,27.84,,Overcast
KIGQ,07/23/2018 16:15 UTC,29.94,72.86,67.1,82.19,9.22,40.0,,,,,,752.0,,,,10.0,,KIGQ 231615Z AUTO 04008KT 10SM SCT075 23/20 A2994 RMK AO2  T02270195,,,,,,67.09,,NE,29.29,27.83,,Partly Cloudy
KIGQ,07/23/2018 16:35 UTC,29.94,73.4,67.46,81.72,5.75,360.0,,,,,,1.0,,,,10.0,,KIGQ 231635Z AUTO 36005KT 10SM CLR 23/20 A2994 RMK AO2  T02300197,,,,,,67.45,,N,29.29,27.8,,Clear
KIGQ,07/23/2018 16:55 UTC,29.94,74.12,67.1,78.79,6.91,10.0,,,,,,222.0,702.0,,,10.0,,KIGQ 231655Z AUTO 01006KT 10SM SCT022 SCT070 23/20 A2994 RMK AO2  T02340195,,,,,,67.09,,N,29.29,27.81,,Partly Cloudy
KIGQ,07/23/2018 17:15 UTC,29.94,74.66,67.82,79.32,9.22,20.0,,,703.0,,,222.0,502.0,,,10.0,,KIGQ 231715Z AUTO 02008KT 10SM SCT022 SCT050 BKN070 24/20 A2994 RMK AO2 T02370199,,,7000.0,,,67.81,,NNE,29.29,27.75,,Mostly Cloudy
KIGQ,07/23/2018 17:35 UTC,29.94,75.2,67.64,77.43,9.22,350.0,,,704.0,,,242.0,503.0,,,10.0,,KIGQ 231735Z AUTO 35008KT 10SM SCT024 BKN050 OVC070 24/20 A2994 RMK AO2 T02400198,,,5000.0,,,67.63,,N,29.29,27.76,,Overcast
KIGQ,07/23/2018 17:55 UTC,29.94,75.02,67.28,76.93,11.5,20.0,17.27,,,,,242.0,504.0,,,10.0,,KIGQ 231755Z AUTO 02010G15KT 10SM SCT024 OVC050 24/20 A2994 RMK AO2 T02390196 10242 20201,75.56,68.18,5000.0,,,67.27,,NNE,29.29,27.79,,Overcast
KIGQ,07/23/2018 18:15 UTC,29.94,74.66,66.38,75.48,11.5,20.0,17.27,,,,,242.0,504.0,,,10.0,,KIGQ 231815Z AUTO 02010G15KT 10SM SCT024 OVC050 24/19 A2994 RMK AO2 T02370191,,,5000.0,,,66.37,,NNE,29.29,27.85,,Overcast
KIGQ,07/23/2018 18:35 UTC,29.94,75.92,66.74,73.29,13.8,30.0,18.41,,,,,422.0,502.0,,,10.0,,KIGQ 231835Z AUTO 03012G16KT 10SM SCT042 SCT050 24/19 A2994 RMK AO2 T02440193,,,,,,66.73,,NNE,29.29,27.81,,Partly Cloudy
KIGQ,07/23/2018 18:55 UTC,29.94,76.1,66.56,72.4,12.66,10.0,18.41,,,,,422.0,502.0,,,10.0,,KIGQ 231855Z AUTO 01011G16KT 10SM SCT042 SCT050 25/19 A2994 RMK AO2 T02450192,,,,,,66.55,,N,29.29,27.82,,Partly Cloudy
KIGQ,07/23/2018 19:15 UTC,29.93,76.46,66.92,72.43,12.66,30.0,,,,,,502.0,,,,,,KIGQ 231915Z AUTO 03011KT SCT050 25/19 A2993 RMK AO2 T02470194,,,,,,66.91,,NNE,29.28,27.78,,Partly Cloudy
KIGQ,07/23/2018 19:35 UTC,29.93,76.28,66.92,72.87,8.05,30.0,19.57,,,,,1.0,,,,10.0,,KIGQ 231935Z AUTO 03007G17KT 10SM CLR 25/19 A2993 RMK AO2  T02460194,,,,,,66.91,,NNE,29.28,27.79,,Clear
KIGQ,07/23/2018 19:55 UTC,29.93,76.1,66.92,73.3,9.22,360.0,18.41,,,,,1.0,,,,10.0,,KIGQ 231955Z AUTO 36008G16KT 10SM CLR 25/19 A2993 RMK AO2  T02450194,,,,,,66.91,,N,29.28,27.79,,Clear
KIGQ,07/23/2018 20:15 UTC,29.93,76.46,67.1,72.89,11.5,10.0,16.11,,,,,1.0,,,,10.0,,KIGQ 232015Z AUTO 01010G14KT 10SM CLR 25/20 A2993 RMK AO2  T02470195,,,,,,67.1,,N,29.28,27.77,,Clear
KIGQ,07/23/2018 20:35 UTC,29.93,76.46,67.28,73.34,9.22,30.0,,,,,,1.0,,,,10.0,,KIGQ 232035Z AUTO 03008KT 10SM CLR 25/20 A2993 RMK AO2  T02470196,,,,,,67.27,,NNE,29.28,27.76,,Clear
KIGQ,07/23/2018 20:55 UTC,29.93,76.1,66.38,71.95,13.8,20.0,19.57,,,,,602.0,,,,10.0,,KIGQ 232055Z AUTO 02012G17KT 10SM SCT060 25/19 A2993 RMK AO2  T02450191,,,,,,66.37,,NNE,29.28,27.82,,Partly Cloudy
KIGQ,07/23/2018 21:15 UTC,29.93,74.66,66.38,75.48,9.22,20.0,17.27,,,,,604.0,,,,10.0,,KIGQ 232115Z AUTO 02008G15KT 10SM OVC060 24/19 A2993 RMK AO2  T02370191,,,6000.0,,,66.37,,NNE,29.28,27.84,,Overcast
KIGQ,07/23/2018 21:35 UTC,29.94,74.3,65.84,74.98,11.5,20.0,17.27,,,,,603.0,704.0,,,10.0,,KIGQ 232135Z AUTO 02010G15KT 10SM BKN060 OVC070 24/19 A2994 RMK AO2 T02350188,,,6000.0,,,65.83,,NNE,29.29,27.89,,Overcast
KIGQ,07/23/2018 21:55 UTC,29.94,73.58,66.02,77.29,11.5,30.0,17.27,,704.0,,,503.0,603.0,,,10.0,,KIGQ 232155Z AUTO 03010G15KT 350V050 10SM BKN050 BKN060 OVC070  23/19 A2994 RMK AO2 T02310189,,,5000.0,,,66.01,,NNE,29.29,27.89,,Overcast
KIGQ,07/23/2018 22:15 UTC,29.94,73.94,66.2,76.84,11.5,10.0,18.41,,803.0,,,502.0,603.0,,,10.0,,KIGQ 232215Z AUTO 01010G16KT 10SM SCT050 BKN060 BKN080 23/19 A2994 RMK AO2 T02330190,,,6000.0,,,66.19,,N,29.29,27.87,,Mostly Cloudy
KIGQ,07/23/2018 22:35 UTC,29.94,74.66,66.74,76.43,6.91,10.0,16.11,,,,,602.0,802.0,,,10.0,,KIGQ 232235Z AUTO 01006G14KT 10SM SCT060 SCT080 24/19 A2994 RMK AO2 T02370193,,,,,,66.73,,N,29.29,27.83,,Partly Cloudy
KIGQ,07/23/2018 22:55 UTC,29.94,72.86,66.02,79.18,8.05,20.0,,,,,,462.0,702.0,,,10.0,,KIGQ 232255Z AUTO 02007KT 10SM SCT046 SCT070 23/19 A2994 RMK AO2  T02270189,,,,,,66.0,,NNE,29.29,27.9,,Partly Cloudy
KIGQ,07/23/2018 23:15 UTC,29.94,72.68,66.02,79.66,8.05,10.0,,,,,,413.0,703.0,,,10.0,,KIGQ 232315Z AUTO 01007KT 10SM BKN041 BKN070 23/19 A2994 RMK AO2  T02260189,,,4100.0,,,66.0,,N,29.29,27.9,,Mostly Cloudy
KIGQ,07/23/2018 23:35 UTC,29.94,72.5,66.02,80.15,9.22,20.0,,,,,,412.0,704.0,,,10.0,,KIGQ 232335Z AUTO 02008KT 10SM SCT041 OVC070 23/19 A2994 RMK AO2  T02250189,,,7000.0,,,66.01,,NNE,29.29,27.9,,Overcast
KIGQ,07/23/2018 23:55 UTC,29.95,71.24,66.38,84.68,5.75,360.0,,,,,,702.0,,,,10.0,,KIGQ 232355Z AUTO 36005KT 10SM SCT070 22/19 A2995 RMK AO2  T02180191 10251 20218,77.18,71.24,,,,66.37,,N,29.3,27.91,,Partly Cloudy
KIGQ,07/24/2018 00:15 UTC,29.96,71.24,66.74,85.74,5.75,360.0,,,,,,442.0,703.0,,,10.0,,KIGQ 240015Z AUTO 36005KT 10SM SCT044 BKN070 22/19 A2996 RMK AO2  T02180193,,,7000.0,,,66.73,,N,29.31,27.89,,Mostly Cloudy
KIGQ,07/24/2018 00:35 UTC,29.96,71.06,66.74,86.26,4.61,20.0,,,704.0,,,423.0,603.0,,,10.0,,KIGQ 240035Z AUTO 02004KT 10SM BKN042 BKN060 OVC070 22/19 A2996 RMK AO2 T02170193,,,4200.0,,,66.73,,NNE,29.31,27.9,,Overcast
KIGQ,07/24/2018 00:55 UTC,29.96,70.7,66.92,87.87,5.75,10.0,,,,,,422.0,604.0,,,10.0,,KIGQ 240055Z AUTO 01005KT 10SM SCT042 OVC060 22/19 A2996 RMK AO2  T02150194,,,6000.0,,,66.91,,N,29.31,27.89,,Overcast
KIGQ,07/24/2018 01:15 UTC,29.96,70.34,66.56,87.85,4.61,10.0,,,703.0,,,432.0,603.0,,,10.0,,KIGQ 240115Z AUTO 01004KT 10SM SCT043 BKN060 BKN070 21/19 A2996 RMK AO2 T02130192,,,6000.0,,,66.55,,N,29.31,27.92,,Mostly Cloudy
KIGQ,07/24/2018 01:35 UTC,29.96,69.98,67.1,90.6,0.0,0.0,,,703.0,,,412.0,482.0,,,10.0,,KIGQ 240135Z AUTO 00000KT 10SM SCT041 SCT048 BKN070 21/20 A2996 RMK AO2 T02110195,,,7000.0,,,67.09,,N,29.31,27.89,,Mostly Cloudy
KIGQ,07/24/2018 01:55 UTC,29.96,70.16,67.1,90.05,3.44,10.0,,,,,,432.0,703.0,,,10.0,,KIGQ 240155Z AUTO 01003KT 10SM SCT043 BKN070 21/20 A2996 RMK AO2  T02120195,,,7000.0,,,67.09,,N,29.31,27.88,,Mostly Cloudy
KIGQ,07/24/2018 02:15 UTC,29.96,70.16,66.74,88.94,0.0,0.0,,,,,,703.0,,,,10.0,,KIGQ 240215Z AUTO 00000KT 10SM BKN070 21/19 A2996 RMK AO2  T02120193,,,7000.0,,,66.73,,N,29.31,27.91,,Mostly Cloudy
KIGQ,07/24/2018 02:35 UTC,29.96,70.34,66.92,88.95,0.0,0.0,,,,,,602.0,703.0,,,10.0,,KIGQ 240235Z AUTO 00000KT 10SM SCT060 BKN070 21/19 A2996 RMK AO2  T02130194,,,7000.0,,,66.91,,N,29.31,27.89,,Mostly Cloudy
KIGQ,07/24/2018 02:55 UTC,29.97,69.98,66.2,87.83,4.61,10.0,,,,,,603.0,703.0,,,10.0,,KIGQ 240255Z AUTO 01004KT 10SM BKN060 BKN070 21/19 A2997 RMK AO2  T02110190,,,6000.0,,,66.19,,N,29.32,27.96,,Mostly Cloudy
KIGQ,07/24/2018 03:15 UTC,29.97,69.26,66.2,90.01,0.0,0.0,,,,,,702.0,,,,10.0,,KIGQ 240315Z AUTO 00000KT 10SM SCT070 21/19 A2997 RMK AO2  T02070190,,,,,,66.19,,N,29.32,27.97,,Partly Cloudy
KIGQ,07/24/2018 03:35 UTC,29.97,69.08,66.38,91.14,0.0,0.0,,,,,,652.0,,,,10.0,,KIGQ 240335Z AUTO 00000KT 10SM SCT065 21/19 A2997 RMK AO2  T02060191,,,,,,66.37,,N,29.32,27.96,,Partly Cloudy
KIGQ,07/24/2018 03:55 UTC,29.97,68.54,66.38,92.83,0.0,0.0,,,,,,1.0,,,,10.0,,KIGQ 240355Z AUTO 00000KT 10SM CLR 20/19 A2997 RMK AO2  T02030191,,,,,,66.37,,N,29.32,27.96,,Clear
KIGQ,07/24/2018 04:15 UTC,29.97,68.9,66.38,91.7,0.0,0.0,,,,,,1.0,,,,10.0,,KIGQ 240415Z AUTO 00000KT 10SM CLR 21/19 A2997 RMK AO2  T02050191,,,,,,66.37,,N,29.32,27.96,,Clear
KIGQ,07/24/2018 04:35 UTC,29.96,68.54,65.84,91.12,0.0,0.0,,,,,,1.0,,,,10.0,,KIGQ 240435Z AUTO 00000KT 10SM CLR 20/19 A2996 RMK AO2  T02030188,,,,,,65.83,,N,29.31,27.99,,Clear
KIGQ,07/24/2018 04:55 UTC,29.97,68.0,66.2,93.98,0.0,0.0,,,,,,1.0,,,,10.0,,KIGQ 240455Z AUTO 00000KT 10SM CLR 20/19 A2997 RMK AO2  T02000190,,,,,,66.19,,N,29.32,27.98,,Clear
KIGQ,07/24/2018 05:15 UTC,29.96,66.2,64.76,95.12,0.0,0.0,,,,,,1.0,,,,10.0,,KIGQ 240515Z AUTO 00000KT 10SM CLR 19/18 A2996 RMK AO2  T01900182,,,,,,64.75,,N,29.31,28.09,,Clear
KIGQ,07/24/2018 05:35 UTC,29.96,65.12,65.12,100.0,0.0,0.0,,,,,,1.0,,,,10.0,,KIGQ 240535Z AUTO 00000KT 10SM CLR 18/18 A2996 RMK AO2  T01840184,,,,,,65.12,,N,29.31,28.08,,Clear
KIGQ,07/24/2018 05:55 UTC,29.96,65.3,65.3,100.0,0.0,0.0,,,,,,1.0,,,,10.0,,KIGQ 240555Z AUTO 00000KT 10SM CLR 19/19 A2996 RMK AO2 T01850185  10219 20181 402510181,71.42,64.58,,77.18,64.58,65.3,,N,29.31,28.07,,Clear
KIGQ,07/24/2018 06:15 UTC,29.96,65.48,65.48,100.0,0.0,0.0,,,,,,652.0,,,,10.0,,KIGQ 240615Z AUTO 00000KT 10SM SCT065 19/19 A2996 RMK AO2  T01860186,,,,,,65.48,,N,29.31,28.05,,Partly Cloudy
KIGQ,07/24/2018 06:35 UTC,29.97,65.12,65.12,100.0,0.0,0.0,,,,,,652.0,,,,10.0,,KIGQ 240635Z AUTO 00000KT 10SM SCT065 18/18 A2997 RMK AO2  T01840184,,,,,,65.12,,N,29.32,28.09,,Partly Cloudy
KIGQ,07/24/2018 06:55 UTC,29.96,64.94,64.94,100.0,0.0,0.0,,,,,,652.0,,,,10.0,,KIGQ 240655Z AUTO 00000KT 10SM SCT065 18/18 A2996 RMK AO2  T01830183,,,,,,64.94,,N,29.31,28.09,,Partly Cloudy
KIGQ,07/24/2018 07:15 UTC,29.96,64.76,64.76,100.0,3.44,260.0,,,,,,652.0,,,,10.0,,KIGQ 240715Z AUTO 26003KT 10SM SCT065 18/18 A2996 RMK AO2  T01820182,,,,,,64.76,,W,29.31,28.11,,Partly Cloudy
KIGQ,07/24/2018 07:35 UTC,29.96,64.94,64.94,100.0,0.0,0.0,,,,,,652.0,,,,10.0,,KIGQ 240735Z AUTO 00000KT 10SM SCT065 18/18 A2996 RMK AO2  T01830183,,,,,,64.94,,N,29.31,28.09,,Partly Cloudy
KIGQ,07/24/2018 07:55 UTC,29.96,64.76,64.76,100.0,3.44,260.0,,,,,,652.0,703.0,,,10.0,,KIGQ 240755Z AUTO 26003KT 10SM SCT065 BKN070 18/18 A2996 RMK AO2  T01820182,,,7000.0,,,64.76,,W,29.31,28.11,,Mostly Cloudy
KIGQ,07/24/2018 08:15 UTC,29.96,64.94,64.94,100.0,0.0,0.0,,,703.0,,,222.0,602.0,,,10.0,,KIGQ 240815Z AUTO 00000KT 10SM SCT022 SCT060 BKN070 18/18 A2996 RMK AO2 T01830183,,,7000.0,,,64.94,,N,29.31,28.09,,Mostly Cloudy
KIGQ,07/24/2018 08:35 UTC,29.96,65.48,65.48,100.0,0.0,0.0,,,,,,223.0,704.0,,,10.0,,KIGQ 240835Z AUTO 00000KT 10SM BKN022 OVC070 19/19 A2996 RMK AO2  T01860186,,,2200.0,,,65.48,,N,29.31,28.05,,Overcast
KIGQ,07/24/2018 08:55 UTC,29.97,65.84,65.84,100.0,4.61,280.0,,,,,,223.0,454.0,,,10.0,,KIGQ 240855Z AUTO 28004KT 10SM BKN022 OVC045 19/19 A2997 RMK AO2  T01880188,,,2200.0,,,65.84,,W,29.32,28.04,,Overcast
KIGQ,07/24/2018 09:15 UTC,29.97,65.84,65.48,98.76,0.0,0.0,,,,,,243.0,454.0,,,10.0,,KIGQ 240915Z AUTO 00000KT 10SM BKN024 OVC045 19/19 A2997 RMK AO2  T01880186,,,2400.0,,,65.48,,N,29.32,28.06,,Overcast
KIGQ,07/24/2018 09:35 UTC,29.98,65.66,65.3,98.76,0.0,0.0,,,483.0,,,242.0,433.0,,,10.0,,KIGQ 240935Z AUTO 00000KT 10SM SCT024 BKN043 BKN048 19/19 A2998 RMK AO2 T01870185,,,4300.0,,,65.3,,N,29.33,28.08,,Mostly Cloudy
KIGQ,07/24/2018 09:55 UTC,29.98,64.94,64.94,100.0,0.0,0.0,,,653.0,,,432.0,492.0,,,10.0,,KIGQ 240955Z AUTO 00000KT 10SM SCT043 SCT049 BKN065 18/18 A2998 RMK AO2 T01830183,,,6500.0,,,64.94,,N,29.33,28.12,,Mostly Cloudy
KIGQ,07/24/2018 10:15 UTC,29.98,64.4,64.4,100.0,0.0,0.0,,,654.0,,,422.0,503.0,,,10.0,,KIGQ 241015Z AUTO 00000KT 10SM SCT042 BKN050 OVC065 18/18 A2998 RMK AO2 T01800180,,,5000.0,,,64.4,,N,29.33,28.15,,Overcast
KIGQ,07/24/2018 10:35 UTC,29.99,65.48,65.48,100.0,0.0,0.0,,,483.0,,,172.0,412.0,,,10.0,,KIGQ 241035Z AUTO 00000KT 10SM SCT017 SCT041 BKN048 19/19 A2999 RMK AO2 T01860186,,,4800.0,,,65.48,,N,29.34,28.08,,Mostly Cloudy
KIGQ,07/24/2018 10:55 UTC,29.99,64.58,64.58,100.0,3.44,190.0,,,652.0,,,472.0,552.0,,,10.0,,KIGQ 241055Z AUTO 19003KT 10SM SCT047 SCT055 SCT065 18/18 A2999 RMK AO2 T01810181,,,,,,64.58,,S,29.34,28.15,,Partly Cloudy
KIGQ,07/24/2018 11:15 UTC,29.99,64.22,64.22,100.0,0.0,0.0,,,,,,653.0,,,,10.0,,KIGQ 241115Z AUTO 00000KT 10SM BKN065 18/18 A2999 RMK AO2  T01790179,,,6500.0,,,64.22,,N,29.34,28.18,,Mostly Cloudy
KIGQ,07/24/2018 11:35 UTC,29.99,65.3,65.3,100.0,0.0,0.0,,,,,,652.0,,,,10.0,,KIGQ 241135Z AUTO 00000KT 10SM SCT065 19/19 A2999 RMK AO2  T01850185,,,,,,65.3,,N,29.34,28.1,,Partly Cloudy
KIGQ,07/24/2018 11:55 UTC,29.99,66.38,66.38,100.0,0.0,0.0,,,,,,1.0,,,,10.0,,KIGQ 241155Z AUTO 00000KT 10SM CLR 19/19 A2999 RMK AO2 T01910191  10191 20176,66.38,63.68,,,,66.38,,N,29.34,28.02,,Clear
KIGQ,07/24/2018 12:15 UTC,29.99,67.46,67.1,98.77,0.0,0.0,,,,,,1.0,,,,10.0,,KIGQ 241215Z AUTO 00000KT 10SM CLR 20/20 A2999 RMK AO2  T01970195,,,,,,67.1,,N,29.34,27.95,,Clear
KIGQ,07/24/2018 12:35 UTC,29.99,68.9,67.64,95.77,0.0,0.0,,,,,,1.0,,,,7.0,,KIGQ 241235Z AUTO 00000KT 7SM CLR 21/20 A2999 RMK AO2  T02050198,,,,,,67.63,,N,29.34,27.9,,Clear
KIGQ,07/24/2018 12:55 UTC,30.0,69.44,67.82,94.6,0.0,0.0,,,,,,1.0,,,,10.0,,KIGQ 241255Z AUTO 00000KT 10SM CLR 21/20 A3000 RMK AO2  T02080199,,,,,,67.81,,N,29.35,27.89,,Clear
KIGQ,07/24/2018 13:15 UTC,30.0,70.16,68.18,93.46,0.0,0.0,,,,,,1.0,,,,7.0,,KIGQ 241315Z AUTO 00000KT 7SM CLR 21/20 A3000 RMK AO2  T02120201,,,,,,68.17,,N,29.35,27.85,,Clear
KIGQ,07/24/2018 13:35 UTC,30.0,71.6,68.18,89.0,0.0,0.0,,,,,,1.0,,,,10.0,,KIGQ 241335Z AUTO 00000KT 10SM CLR 22/20 A3000 RMK AO2  T02200201,,,,,,68.17,,N,29.35,27.83,,Clear
KIGQ,07/24/2018 13:55 UTC,30.0,72.32,68.54,87.94,0.0,0.0,,,,,,1.0,,,,10.0,,KIGQ 241355Z AUTO 00000KT 10SM CLR 22/20 A3000 RMK AO2  T02240203,,,,,,68.53,,N,29.35,27.8,,Clear
KIGQ,07/24/2018 14:15 UTC,30.0,74.48,69.62,84.87,3.44,20.0,,,,,,1.0,,,,7.0,,KIGQ 241415Z AUTO 02003KT 7SM CLR 24/21 A3000 RMK AO2  T02360209,,,,,,69.61,,NNE,29.35,27.69,,Clear
KIGQ,07/24/2018 14:35 UTC,30.0,75.74,69.62,81.38,4.61,340.0,,,,,,1.0,,,,10.0,,KIGQ 241435Z AUTO 34004KT 10SM CLR 24/21 A3000 RMK AO2  T02430209,,,,,,69.61,,NNW,29.35,27.67,,Clear
KIGQ,07/24/2018 14:55 UTC,30.01,76.64,69.98,79.97,4.61,20.0,,,,,,212.0,,,,10.0,,KIGQ 241455Z AUTO 02004KT 10SM SCT021 25/21 A3001 RMK AO2  T02480211,,,,,,69.98,,NNE,29.36,27.64,,Partly Cloudy
KIGQ,07/24/2018 15:15 UTC,30.01,77.0,69.26,77.1,5.75,60.0,,,,,,212.0,,,,10.0,,KIGQ 241515Z AUTO 06005KT 10SM SCT021 25/21 A3001 RMK AO2  T02500207,,,,,,69.26,,ENE,29.36,27.69,,Partly Cloudy
KIGQ,07/24/2018 15:35 UTC,30.01,77.72,69.26,75.29,6.91,30.0,,,,,,1.0,,,,10.0,,KIGQ 241535Z AUTO 03006KT 10SM CLR 25/21 A3001 RMK AO2  T02540207,,,,,,69.26,,NNE,29.36,27.68,,Clear
KIGQ,07/24/2018 15:55 UTC,30.01,77.9,68.9,73.93,8.05,10.0,,,,,,1.0,,,,10.0,,KIGQ 241555Z AUTO 01007KT 10SM CLR 26/21 A3001 RMK AO2  T02550205,,,,,,68.9,,N,29.36,27.71,,Clear
KIGQ,07/24/2018 16:15 UTC,30.01,78.44,68.54,71.74,8.05,30.0,,,,,,1.0,,,,10.0,,KIGQ 241615Z AUTO 03007KT 10SM CLR 26/20 A3001 RMK AO2  T02580203,,,,,,68.54,,NNE,29.36,27.72,,Clear
KIGQ,07/24/2018 16:35 UTC,30.01,78.08,67.64,70.39,6.91,20.0,,,,,,1.0,,,,10.0,,KIGQ 241635Z AUTO 02006KT 10SM CLR 26/20 A3001 RMK AO2  T02560198,,,,,,67.64,,NNE,29.36,27.79,,Clear
KIGQ,07/24/2018 16:55 UTC,30.01,79.16,69.62,72.7,5.75,60.0,,,,,,1.0,,,,10.0,,KIGQ 241655Z AUTO 06005KT 10SM CLR 26/21 A3001 RMK AO2  T02620209,,,,,,69.63,,ENE,29.36,27.64,,Clear
KIGQ,07/24/2018 17:15 UTC,30.01,78.8,68.18,70.03,3.44,50.0,,,,,,1.0,,,,10.0,,KIGQ 241715Z AUTO 05003KT 10SM CLR 26/20 A3001 RMK AO2  T02600201,,,,,,68.19,,NE,29.36,27.75,,Clear
KIGQ,07/24/2018 17:35 UTC,30.01,79.34,68.18,68.8,4.61,30.0,,,,,,1.0,,,,10.0,,KIGQ 241735Z AUTO 03004KT 10SM CLR 26/20 A3001 RMK AO2  T02630201,,,,,,68.19,,NNE,29.36,27.74,,Clear
KIGQ,07/24/2018 17:55 UTC,30.01,79.7,68.72,69.27,4.61,20.0,,,,,,1.0,,,,10.0,,KIGQ 241755Z AUTO 02004KT 10SM CLR 27/20 A3001 RMK AO2 T02650204  10265 20192,79.7,66.56,,,,68.73,,NNE,29.36,27.69,,Clear
KIGQ,07/24/2018 18:15 UTC,30.01,80.06,68.9,68.88,3.44,50.0,,,,,,1.0,,,,10.0,,KIGQ 241815Z AUTO 05003KT 10SM CLR 27/21 A3001 RMK AO2  T02670205,,,,,,68.91,,NE,29.36,27.68,82.91,Clear
KIGQ,07/24/2018 18:35 UTC,30.01,80.42,67.82,65.6,0.0,0.0,,,,,,1.0,,,,10.0,,KIGQ 241835Z AUTO 00000KT 10SM CLR 27/20 A3001 RMK AO2  T02690199,,,,,,67.83,,N,29.36,27.75,83.04,Clear
KIGQ,07/24/2018 18:55 UTC,30.0,80.96,67.28,63.27,4.61,350.0,,,,,,1.0,,,,10.0,,KIGQ 241855Z AUTO 35004KT 10SM CLR 27/20 A3000 RMK AO2  T02720196,,,,,,67.3,,N,29.35,27.77,83.49,Clear
KIGQ,07/24/2018 19:15 UTC,30.0,80.78,66.38,61.7,5.75,20.0,,,,,,1.0,,,,10.0,,KIGQ 241915Z AUTO 02005KT 10SM CLR 27/19 A3000 RMK AO2  T02710191,,,,,,66.4,,NNE,29.35,27.84,83.01,Clear
KIGQ,07/24/2018 19:35 UTC,30.0,81.32,66.56,61.0,4.61,10.0,,,,,,1.0,,,,10.0,,KIGQ 241935Z AUTO 01004KT 10SM CLR 27/19 A3000 RMK AO2  T02740192,,,,,,66.58,,N,29.35,27.82,83.64,Clear
KIGQ,07/24/2018 19:55 UTC,29.99,81.5,65.84,59.16,6.91,40.0,,,,,,1.0,,,,10.0,,KIGQ 241955Z AUTO 04006KT 10SM CLR 28/19 A2999 RMK AO2  T02750188,,,,,,65.87,,NE,29.34,27.86,83.59,Clear
KIGQ,07/24/2018 20:15 UTC,29.99,81.5,66.2,59.9,6.91,60.0,,,,,,1.0,,,,10.0,,KIGQ 242015Z AUTO 06006KT 10SM CLR 28/19 A2999 RMK AO2  T02750190,,,,,,66.23,,ENE,29.34,27.83,83.71,Clear
KIGQ,07/24/2018 20:35 UTC,29.99,81.68,65.66,58.45,4.61,60.0,,,,,,1.0,,,,10.0,,KIGQ 242035Z AUTO 06004KT 10SM CLR 28/19 A2999 RMK AO2  T02760187,,,,,,65.69,,ENE,29.34,27.87,83.72,Clear
KIGQ,07/24/2018 20:55 UTC,29.99,81.32,65.12,58.03,5.75,40.0,,,,,,1.0,,,,10.0,,KIGQ 242055Z AUTO 04005KT 10SM CLR 27/18 A2999 RMK AO2  T02740184,,,,,,65.14,,NE,29.34,27.91,83.18,Clear
KIGQ,07/24/2018 21:15 UTC,29.99,81.5,65.48,58.42,5.75,80.0,,,,,,1.0,,,,10.0,,KIGQ 242115Z AUTO 08005KT 10SM CLR 28/19 A2999 RMK AO2  T02750186,,,,,,65.5,,E,29.34,27.88,83.47,Clear
KIGQ,07/24/2018 21:35 UTC,29.98,81.5,65.12,57.69,5.75,60.0,,,,,,1.0,,,,10.0,,KIGQ 242135Z AUTO 06005KT 10SM CLR 28/18 A2998 RMK AO2  T02750184,,,,,,65.14,,ENE,29.33,27.9,83.36,Clear
KIGQ,07/24/2018 21:55 UTC,29.98,81.14,64.4,56.93,5.75,60.0,,,,,,1.0,,,,10.0,,KIGQ 242155Z AUTO 06005KT 10SM CLR 27/18 A2998 RMK AO2  T02730180,,,,,,64.42,,ENE,29.33,27.95,82.8,Clear
KIGQ,07/24/2018 22:15 UTC,29.98,81.5,64.76,56.98,4.61,30.0,,,,,,1.0,,,,10.0,,KIGQ 242215Z AUTO 03004KT 10SM CLR 28/18 A2998 RMK AO2  T02750182,,,,,,64.79,,NNE,29.33,27.92,83.25,Clear
KIGQ,07/24/2018 22:35 UTC,29.98,80.96,63.32,55.14,3.44,60.0,,,,,,1.0,,,,10.0,,KIGQ 242235Z AUTO 06003KT 10SM CLR 27/17 A2998 RMK AO2  T02720174,,,,,,63.34,,ENE,29.33,28.02,82.34,Clear
KIGQ,07/24/2018 22:55 UTC,29.97,79.7,63.5,57.81,3.44,90.0,,,,,,802.0,,,,10.0,,KIGQ 242255Z AUTO 09003KT 10SM SCT080 27/18 A2997 RMK AO2  T02650175,,,,,,63.51,,E,29.32,28.01,,Partly Cloudy
KIGQ,07/24/2018 23:15 UTC,29.97,80.06,62.96,56.07,4.61,80.0,,,1203.0,,,702.0,803.0,,,10.0,,KIGQ 242315Z AUTO 08004KT 10SM SCT070 BKN080 BKN120 27/17 A2997 RMK AO2 T02670172,,,8000.0,,,62.98,,E,29.32,28.04,81.46,Mostly Cloudy
KIGQ,07/24/2018 23:35 UTC,29.97,80.6,62.96,55.09,4.61,70.0,,,1202.0,,,702.0,802.0,,,10.0,,KIGQ 242335Z AUTO 07004KT 10SM SCT070 SCT080 SCT120 27/17 A2997 RMK AO2 T02700172,,,,,,62.98,,ENE,29.32,28.04,81.93,Partly Cloudy
KIGQ,07/24/2018 23:55 UTC,29.97,78.98,63.5,59.19,3.44,80.0,,,,,,1.0,,,,10.0,,KIGQ 242355Z AUTO 08003KT 10SM CLR 26/18 A2997 RMK AO2 T02610175  10277 20261,81.86,78.98,,,,63.51,,E,29.32,28.02,,Clear
KIGQ,07/25/2018 00:15 UTC,29.98,79.16,63.68,59.22,0.0,0.0,,,,,,1.0,,,,10.0,,KIGQ 250015Z AUTO 00000KT 10SM CLR 26/18 A2998 RMK AO2  T02620176,,,,,,63.69,,N,29.33,28.02,,Clear
KIGQ,07/25/2018 00:35 UTC,29.98,78.98,63.86,59.94,0.0,0.0,,,,,,552.0,,,,10.0,,KIGQ 250035Z AUTO 00000KT 10SM SCT055 26/18 A2998 RMK AO2  T02610177,,,,,,63.87,,N,29.33,28.01,,Partly Cloudy
KIGQ,07/25/2018 00:55 UTC,29.98,79.16,61.7,55.24,0.0,0.0,,,,,,552.0,,,,10.0,,KIGQ 250055Z AUTO 00000KT 10SM SCT055 26/17 A2998 RMK AO2  T02620165,,,,,,61.71,,N,29.33,28.14,,Partly Cloudy
KIGQ,07/25/2018 01:15 UTC,29.98,77.18,64.04,64.0,0.0,0.0,,,,,,1.0,,,,10.0,,KIGQ 250115Z AUTO 00000KT 10SM CLR 25/18 A2998 RMK AO2  T02510178,,,,,,64.04,,N,29.33,28.02,,Clear
KIGQ,07/25/2018 01:35 UTC,29.98,77.0,64.58,65.61,0.0,0.0,,,,,,502.0,,,,10.0,,KIGQ 250135Z AUTO 00000KT 10SM SCT050 25/18 A2998 RMK AO2  T02500181,,,,,,64.58,,N,29.33,27.98,,Partly Cloudy
KIGQ,07/25/2018 01:55 UTC,29.99,75.02,66.02,73.66,0.0,0.0,,,,,,503.0,,,,10.0,,KIGQ 250155Z AUTO 00000KT 10SM BKN050 24/19 A2999 RMK AO2  T02390189,,,5000.0,,,66.01,,N,29.34,27.92,,Mostly Cloudy
KIGQ,07/25/2018 02:15 UTC,29.99,73.94,67.64,80.75,0.0,0.0,,,,,,503.0,653.0,,,10.0,,KIGQ 250215Z AUTO 00000KT 10SM BKN050 BKN065 23/20 A2999 RMK AO2  T02330198,,,5000.0,,,67.63,,N,29.34,27.83,,Mostly Cloudy
KIGQ,07/25/2018 02:35 UTC,30.0,72.5,69.8,91.26,0.0,0.0,,,,,,503.0,653.0,,,10.0,,KIGQ 250235Z AUTO 00000KT 10SM BKN050 BKN065 23/21 A3000 RMK AO2  T02250210,,,5000.0,,,69.79,,N,29.35,27.7,,Mostly Cloudy
KIGQ,07/25/2018 02:55 UTC,30.0,73.94,69.44,85.89,0.0,0.0,,,,,,502.0,,,,10.0,,KIGQ 250255Z AUTO 00000KT 10SM SCT050 23/21 A3000 RMK AO2  T02330208,,,,,,69.43,,N,29.35,27.71,,Partly Cloudy
KIGQ,07/25/2018 03:15 UTC,29.99,73.04,67.1,81.69,0.0,0.0,,,,,,502.0,,,,10.0,,KIGQ 250315Z AUTO 00000KT 10SM SCT050 23/20 A2999 RMK AO2  T02280195,,,,,,67.09,,N,29.34,27.88,,Partly Cloudy
KIGQ,07/25/2018 03:35 UTC,30.0,71.06,67.1,87.34,0.0,0.0,,,,,,502.0,,,,10.0,,KIGQ 250335Z AUTO 00000KT 10SM SCT050 22/20 A3000 RMK AO2  T02170195,,,,,,67.09,,N,29.35,27.91,,Partly Cloudy
KIGQ,07/25/2018 03:55 UTC,30.0,71.78,67.82,87.38,0.0,0.0,,,,,,502.0,602.0,,,10.0,,KIGQ 250355Z AUTO 00000KT 10SM SCT050 SCT060 22/20 A3000 RMK AO2  T02210199,,,,,,67.81,,N,29.35,27.85,,Partly Cloudy
KIGQ,07/25/2018 04:15 UTC,30.0,70.7,67.1,88.41,0.0,0.0,,,,,,703.0,,,,10.0,,KIGQ 250415Z AUTO 00000KT 10SM BKN070 22/20 A3000 RMK AO2  T02150195,,,7000.0,,,67.09,,N,29.35,27.92,,Mostly Cloudy
KIGQ,07/25/2018 04:35 UTC,30.0,71.96,67.1,84.72,0.0,0.0,,,,,,482.0,703.0,,,10.0,,KIGQ 250435Z AUTO 00000KT 10SM SCT048 BKN070 22/20 A3000 RMK AO2  T02220195,,,7000.0,,,67.09,,N,29.35,27.9,,Mostly Cloudy
KIGQ,07/25/2018 04:55 UTC,30.0,71.24,66.2,84.15,0.0,0.0,,,,,,502.0,,,,10.0,,KIGQ 250455Z AUTO 00000KT 10SM SCT050 22/19 A3000 RMK AO2  T02180190,,,,,,66.18,,N,29.35,27.97,,Partly Cloudy
KIGQ,07/25/2018 05:15 UTC,30.0,71.06,66.02,84.14,0.0,0.0,,,,,,1.0,,,,10.0,,KIGQ 250515Z AUTO 00000KT 10SM CLR 22/19 A3000 RMK AO2  T02170189,,,,,,66.0,,N,29.35,27.98,,Clear
KIGQ,07/25/2018 05:35 UTC,30.01,69.44,66.38,90.02,0.0,0.0,,,,,,1.0,,,,10.0,,KIGQ 250535Z AUTO 00000KT 10SM CLR 21/19 A3001 RMK AO2  T02080191,,,,,,66.37,,N,29.36,27.99,,Clear
KIGQ,07/25/2018 05:55 UTC,30.01,69.26,65.84,88.9,0.0,0.0,,,,,,1.0,,,,10.0,,KIGQ 250555Z AUTO 00000KT 10SM CLR 21/19 A3001 RMK AO2 T02070188  10266 20207 402770176,79.88,69.26,,81.86,63.68,65.83,,N,29.36,28.03,,Clear
KIGQ,07/25/2018 06:15 UTC,30.0,68.0,66.02,93.4,0.0,0.0,,,,,,1.0,,,,10.0,,KIGQ 250615Z AUTO 00000KT 10SM CLR 20/19 A3000 RMK AO2  T02000189,,,,,,66.01,,N,29.35,28.03,,Clear
KIGQ,07/25/2018 06:35 UTC,30.0,67.28,66.2,96.34,0.0,0.0,,,,,,1.0,,,,10.0,,KIGQ 250635Z AUTO 00000KT 10SM CLR 20/19 A3000 RMK AO2  T01960190,,,,,,66.19,,N,29.35,28.02,,Clear
KIGQ,07/25/2018 06:55 UTC,30.0,68.54,65.3,89.42,0.0,0.0,,,,,,1.0,,,,10.0,,KIGQ 250655Z AUTO 00000KT 10SM CLR 20/19 A3000 RMK AO2  T02030185,,,,,,65.29,,N,29.35,28.06,,Clear
KIGQ,07/25/2018 07:15 UTC,30.0,68.0,64.22,87.73,0.0,0.0,,,,,,1.0,,,,10.0,,KIGQ 250715Z AUTO 00000KT 10SM CLR 20/18 A3000 RMK AO2  T02000179,,,,,,64.2,,N,29.35,28.14,,Clear
KIGQ,07/25/2018 07:35 UTC,30.0,65.84,64.4,95.12,0.0,0.0,,,,,,1.0,,,,10.0,,KIGQ 250735Z AUTO 00000KT 10SM CLR 19/18 A3000 RMK AO2  T01880180,,,,,,64.39,,N,29.35,28.16,,Clear
KIGQ,07/25/2018 07:55 UTC,30.01,65.66,64.58,96.31,0.0,0.0,,,,,,1.0,,,,10.0,,KIGQ 250755Z AUTO 00000KT 10SM CLR 19/18 A3001 RMK AO2  T01870181,,,,,,64.57,,N,29.36,28.16,,Clear
KIGQ,07/25/2018 08:15 UTC,30.01,65.3,64.94,98.76,0.0,0.0,,,,,,1.0,,,,10.0,,KIGQ 250815Z AUTO 00000KT 10SM CLR 19/18 A3001 RMK AO2  T01850183,,,,,,64.94,,N,29.36,28.14,,Clear
KIGQ,07/25/2018 08:35 UTC,30.01,64.4,64.4,100.0,0.0,0.0,,,,,,1.0,,,,10.0,,KIGQ 250835Z AUTO 00000KT 10SM CLR 18/18 A3001 RMK AO2  T01800180,,,,,,64.4,,N,29.36,28.19,,Clear
KIGQ,07/25/2018 08:55 UTC,30.0,64.94,64.58,98.75,0.0,0.0,,,,,,1.0,,,,10.0,,KIGQ 250855Z AUTO 00000KT 10SM CLR 18/18 A3000 RMK AO2  T01830181,,,,,,64.58,,N,29.35,28.16,,Clear
KIGQ,07/25/2018 09:15 UTC,30.01,65.66,64.4,95.71,0.0,0.0,,,,,,1.0,,,,10.0,,KIGQ 250915Z AUTO 00000KT 10SM CLR 19/18 A3001 RMK AO2  T01870180,,,,,,64.39,,N,29.36,28.17,,Clear
KIGQ,07/25/2018 09:35 UTC,30.0,65.48,64.4,96.31,0.0,0.0,,,,,,1.0,,,,10.0,,KIGQ 250935Z AUTO 00000KT 10SM CLR 19/18 A3000 RMK AO2  T01860180,,,,,,64.39,,N,29.35,28.16,,Clear
KIGQ,07/25/2018 09:55 UTC,30.01,64.76,62.96,93.9,0.0,0.0,,,,,,1.0,,,,10.0,,KIGQ 250955Z AUTO 00000KT 10SM CLR 18/17 A3001 RMK AO2  T01820172,,,,,,62.95,,N,29.36,28.26,,Clear
KIGQ,07/25/2018 10:15 UTC,30.01,62.96,62.42,98.12,0.0,0.0,,,,,,1.0,,,,10.0,,KIGQ 251015Z AUTO 00000KT 10SM CLR 17/17 A3001 RMK AO2  T01720169,,,,,,62.42,,N,29.36,28.32,,Clear
KIGQ,07/25/2018 10:35 UTC,30.01,63.86,63.32,98.13,0.0,0.0,,,,,,1.0,,,,10.0,,KIGQ 251035Z AUTO 00000KT 10SM CLR 18/17 A3001 RMK AO2  T01770174,,,,,,63.32,,N,29.36,28.26,,Clear
KIGQ,07/25/2018 10:55 UTC,30.01,62.96,62.24,97.5,0.0,0.0,,,,,,1.0,,,,10.0,,KIGQ 251055Z AUTO 00000KT 10SM CLR 17/17 A3001 RMK AO2  T01720168,,,,,,62.23,,N,29.36,28.33,,Clear
KIGQ,07/25/2018 11:15 UTC,30.01,64.94,63.5,95.1,0.0,0.0,,,,,,1.0,,,,10.0,,KIGQ 251115Z AUTO 00000KT 10SM CLR 18/18 A3001 RMK AO2  T01830175,,,,,,63.49,,N,29.36,28.23,,Clear
KIGQ,07/25/2018 11:35 UTC,30.01,66.38,63.86,91.61,0.0,0.0,,,,,,1.0,,,,10.0,,KIGQ 251135Z AUTO 00000KT 10SM CLR 19/18 A3001 RMK AO2  T01910177,,,,,,63.85,,N,29.36,28.19,,Clear
KIGQ,07/25/2018 11:55 UTC,30.01,68.54,63.86,85.05,3.44,340.0,,,,,,1.0,,,,10.0,,KIGQ 251155Z AUTO 34003KT 10SM CLR 20/18 A3001 RMK AO2 T02030177  10206 20172,69.08,62.96,,,,63.84,,NNW,29.36,28.16,,Clear
KIGQ,07/25/2018 12:15 UTC,30.02,70.16,64.04,80.98,0.0,0.0,,,,,,1.0,,,,10.0,,KIGQ 251215Z AUTO 00000KT 10SM CLR 21/18 A3002 RMK AO2  T02120178,,,,,,64.02,,N,29.37,28.14,,Clear
KIGQ,07/25/2018 12:35 UTC,30.03,71.24,63.68,77.09,3.44,320.0,,,,,,1.0,,,,10.0,,KIGQ 251235Z AUTO 32003KT 10SM CLR 22/18 A3003 RMK AO2  T02180176,,,,,,63.66,,NW,29.38,28.16,,Clear
KIGQ,07/25/2018 12:55 UTC,30.03,72.32,64.04,75.27,0.0,0.0,,,,,,1.0,,,,10.0,,KIGQ 251255Z AUTO 00000KT 10SM CLR 22/18 A3003 RMK AO2 LTG DSNT W  T02240178,,,,,,64.02,,N,29.38,28.12,,Clear
KIGQ,07/25/2018 13:15 UTC,30.03,73.4,64.76,74.43,0.0,0.0,,,,,,1.0,,,,10.0,,KIGQ 251315Z AUTO 00000KT 10SM CLR 23/18 A3003 RMK AO2  T02300182,,,,,,64.74,,N,29.38,28.07,,Clear
KIGQ,07/25/2018 13:35 UTC,30.04,74.48,65.12,72.69,0.0,0.0,,,,,,1.0,,,,10.0,,KIGQ 251335Z AUTO 00000KT 10SM CLR 24/18 A3004 RMK AO2  T02360184,,,,,,65.11,,N,29.39,28.04,,Clear
KIGQ,07/25/2018 13:55 UTC,30.05,75.38,65.48,71.43,3.44,20.0,,,,,,1.0,,,,10.0,,KIGQ 251355Z AUTO 02003KT 10SM CLR 24/19 A3005 RMK AO2  T02410186,,,,,,65.47,,NNE,29.4,28.01,,Clear
KIGQ,07/25/2018 14:15 UTC,30.05,76.1,65.84,70.62,0.0,0.0,,,,,,1.0,,,,10.0,,KIGQ 251415Z AUTO 00000KT 10SM CLR 25/19 A3005 RMK AO2  T02450188,,,,,,65.83,,N,29.4,27.98,,Clear
KIGQ,07/25/2018 14:35 UTC,30.05,77.0,66.2,69.4,3.44,320.0,,,,,,1.0,,,,10.0,,KIGQ 251435Z AUTO 32003KT 10SM CLR 25/19 A3005 RMK AO2  T02500190,,,,,,66.19,,NW,29.4,27.95,,Clear
KIGQ,07/25/2018 14:55 UTC,30.04,77.9,66.2,67.37,0.0,0.0,,,,,,1.0,,,,10.0,,KIGQ 251455Z AUTO 00000KT 10SM CLR 26/19 A3004 RMK AO2  T02550190,,,,,,66.2,,N,29.39,27.93,,Clear
KIGQ,07/25/2018 15:15 UTC,30.04,78.26,64.76,63.33,0.0,0.0,,,,,,1.0,,,,10.0,,KIGQ 251515Z AUTO 00000KT 10SM CLR 26/18 A3004 RMK AO2  T02570182,,,,,,64.76,,N,29.39,28.02,,Clear
KIGQ,07/25/2018 15:35 UTC,30.04,78.98,63.5,59.19,5.75,60.0,,,,,,1.0,,,,10.0,,KIGQ 251535Z AUTO 06005KT 10SM CLR 26/18 A3004 RMK AO2  T02610175,,,,,,63.51,,ENE,29.39,28.09,,Clear
KIGQ,07/25/2018 15:55 UTC,30.04,79.7,61.16,53.24,9.22,340.0,,,,,,1.0,,,,10.0,,KIGQ 251555Z AUTO 34008KT 10SM CLR 27/16 A3004 RMK AO2  T02650162,,,,,,61.17,,NNW,29.39,28.23,,Clear
KIGQ,07/25/2018 16:15 UTC,30.04,80.6,61.16,51.7,6.91,350.0,,,,,,1.0,,,,10.0,,KIGQ 251615Z AUTO 35006KT 10SM CLR 27/16 A3004 RMK AO2 LTG DSNT W  T02700162,,,,,,61.18,,N,29.39,28.22,81.54,Clear
KIGQ,07/25/2018 16:35 UTC,30.04,80.42,60.26,50.37,8.05,40.0,,,,,,1.0,,,,10.0,,KIGQ 251635Z AUTO 04007KT 10SM CLR 27/16 A3004 RMK AO2  T02690157,,,,,,60.28,,NE,29.39,28.27,81.22,Clear
KIGQ,07/25/2018 16:55 UTC,30.03,80.6,59.54,48.81,3.44,20.0,,,,,,1.0,,,,10.0,,KIGQ 251655Z AUTO 02003KT 10SM CLR 27/15 A3003 RMK AO2  T02700153,,,,,,59.56,,NNE,29.38,28.3,81.22,Clear
KIGQ,07/25/2018 17:15 UTC,30.03,80.78,60.26,49.79,4.61,90.0,,,,,,1.0,,,,10.0,,KIGQ 251715Z AUTO 09004KT 10SM CLR 27/16 A3003 RMK AO2  T02710157,,,,,,60.29,,E,29.38,28.26,81.5,Clear
KIGQ,07/25/2018 17:35 UTC,30.03,81.32,61.88,51.81,0.0,0.0,,,,,,1.0,,,,10.0,,KIGQ 251735Z AUTO 00000KT 10SM CLR 27/17 A3003 RMK AO2  T02740166,,,,,,61.91,,N,29.38,28.16,82.29,Clear
KIGQ,07/25/2018 17:55 UTC,30.03,81.32,60.8,49.87,5.75,320.0,,,,,,1.0,,,,10.0,,KIGQ 251755Z AUTO 32005KT 10SM CLR 27/16 A3003 RMK AO2 T02740160  10277 20205,81.86,68.9,,,,60.83,,NW,29.38,28.22,82.04,Clear
KIGQ,07/25/2018 18:15 UTC,30.02,81.86,60.62,48.69,0.0,0.0,,,,,,1.0,,,,10.0,,KIGQ 251815Z AUTO 00000KT 10SM CLR 28/16 A3002 RMK AO2  T02770159,,,,,,60.65,,N,29.37,28.22,82.43,Clear
KIGQ,07/25/2018 18:35 UTC,30.01,82.22,61.16,49.06,4.61,80.0,,,,,,1.0,,,,10.0,,KIGQ 251835Z AUTO 08004KT 10SM CLR 28/16 A3001 RMK AO2  T02790162,,,,,,61.2,,E,29.36,28.17,82.86,Clear
KIGQ,07/25/2018 18:55 UTC,30.01,83.3,63.86,52.1,0.0,0.0,,,,,,1.0,,,,10.0,,KIGQ 251855Z AUTO 00000KT 10SM CLR 29/18 A3001 RMK AO2  T02850177,,,,,,63.91,,N,29.36,27.99,84.66,Clear
KIGQ,07/25/2018 19:15 UTC,30.0,82.94,62.78,50.75,6.91,80.0,,,,,,1.0,,,,10.0,,KIGQ 251915Z AUTO 08006KT 10SM CLR 28/17 A3000 RMK AO2  T02830171,,,,,,62.83,,E,29.35,28.05,83.96,Clear
KIGQ,07/25/2018 19:35 UTC,30.0,82.76,62.06,49.76,3.44,20.0,,,,,,1.0,,,,10.0,,KIGQ 251935Z AUTO 02003KT 10SM CLR 28/17 A3000 RMK AO2  T02820167,,,,,,62.1,,NNE,29.35,28.1,83.58,Clear
KIGQ,07/25/2018 19:55 UTC,30.0,83.3,61.52,47.98,0.0,0.0,,,,,,1.0,,,,10.0,,KIGQ 251955Z AUTO 00000KT 10SM CLR 29/16 A3000 RMK AO2  T02850164,,,,,,61.57,,N,29.35,28.13,83.89,Clear
KIGQ,07/25/2018 20:15 UTC,29.99,83.3,61.52,47.98,0.0,0.0,,,,,,1.0,,,,10.0,,KIGQ 252015Z AUTO 00000KT 10SM CLR 29/16 A2999 RMK AO2  T02850164,,,,,,61.57,,N,29.34,28.12,83.89,Clear
KIGQ,07/25/2018 20:35 UTC,29.98,83.66,63.68,51.17,0.0,0.0,,,,,,1.0,,,,10.0,,KIGQ 252035Z AUTO 00000KT 10SM CLR 29/18 A2998 RMK AO2  T02870176,,,,,,63.73,,N,29.33,27.97,84.94,Clear
KIGQ,07/25/2018 20:55 UTC,29.98,83.12,63.14,51.09,4.61,110.0,,,,,,1.0,,,,10.0,,KIGQ 252055Z AUTO 11004KT 10SM CLR 28/17 A2998 RMK AO2  T02840173,,,,,,63.18,,ESE,29.33,28.01,84.24,Clear
KIGQ,07/25/2018 21:15 UTC,29.97,83.48,63.86,51.8,5.75,110.0,,,,,,1.0,,,,10.0,,KIGQ 252115Z AUTO 11005KT 10SM CLR 29/18 A2997 RMK AO2  T02860177,,,,,,63.91,,ESE,29.32,27.95,84.84,Clear
KIGQ,07/25/2018 21:35 UTC,29.96,83.84,63.5,50.56,4.61,100.0,,,,,,1.0,,,,10.0,,KIGQ 252135Z AUTO 10004KT 10SM CLR 29/18 A2996 RMK AO2  T02880175,,,,,,63.55,,E,29.31,27.96,85.04,Clear
KIGQ,07/25/2018 21:55 UTC,29.97,83.66,63.86,51.5,4.61,110.0,,,,,,1.0,,,,10.0,,KIGQ 252155Z AUTO 11004KT 10SM CLR 29/18 A2997 RMK AO2  T02870177,,,,,,63.91,,ESE,29.32,27.95,85.01,Clear
KIGQ,07/25/2018 22:15 UTC,29.97,83.3,63.68,51.77,4.61,140.0,,,,,,1.0,,,,10.0,,KIGQ 252215Z AUTO 14004KT 10SM CLR 29/18 A2997 RMK AO2  T02850176,,,,,,63.73,,SE,29.32,27.96,84.6,Clear
KIGQ,07/25/2018 22:35 UTC,29.96,83.3,62.96,50.48,3.44,80.0,,,,,,1.0,,,,10.0,,KIGQ 252235Z AUTO 08003KT 10SM CLR 29/17 A2996 RMK AO2  T02850172,,,,,,63.01,,E,29.31,28.0,84.35,Clear
KIGQ,07/25/2018 22:55 UTC,29.96,82.58,62.6,51.02,3.44,120.0,,,,,,1.0,,,,10.0,,KIGQ 252255Z AUTO 12003KT 10SM CLR 28/17 A2996 RMK AO2  T02810170,,,,,,62.64,,ESE,29.31,28.03,83.58,Clear
KIGQ,07/25/2018 23:15 UTC,29.96,83.3,63.68,51.77,0.0,0.0,,,,,,1.0,,,,10.0,,KIGQ 252315Z AUTO 00000KT 10SM CLR 29/18 A2996 RMK AO2  T02850176,,,,,,63.73,,N,29.31,27.95,84.6,Clear
KIGQ,07/25/2018 23:35 UTC,29.96,82.76,62.96,51.37,0.0,0.0,,,,,,1.0,,,,10.0,,KIGQ 252335Z AUTO 00000KT 10SM CLR 28/17 A2996 RMK AO2  T02820172,,,,,,63.0,,N,29.31,28.0,83.86,Clear
KIGQ,07/25/2018 23:55 UTC,29.95,83.3,61.7,48.29,0.0,0.0,,,,,,1.0,,,,10.0,,KIGQ 252355Z AUTO 00000KT 10SM CLR 29/17 A2995 RMK AO2 T02850165  10290 20276,84.2,81.68,,,,61.75,,N,29.3,28.07,83.94,Clear
KIGQ,07/26/2018 00:15 UTC,29.96,80.96,64.22,56.9,4.61,130.0,,,,,,1.0,,,,10.0,,KIGQ 260015Z AUTO 13004KT 10SM CLR 27/18 A2996 RMK AO2  T02720179,,,,,,64.24,,SE,29.31,27.94,82.58,Clear
KIGQ,07/26/2018 00:35 UTC,29.96,78.62,64.58,62.2,3.44,120.0,,,,,,1.0,,,,10.0,,KIGQ 260035Z AUTO 12003KT 10SM CLR 26/18 A2996 RMK AO2  T02590181,,,,,,64.58,,ESE,29.31,27.94,,Clear
KIGQ,07/26/2018 00:55 UTC,29.95,78.26,64.04,61.76,4.61,120.0,,,,,,1.0,,,,10.0,,KIGQ 260055Z AUTO 12004KT 10SM CLR 26/18 A2995 RMK AO2  T02570178,,,,,,64.04,,ESE,29.3,27.97,,Clear
KIGQ,07/26/2018 01:15 UTC,29.95,76.64,64.58,66.39,4.61,160.0,,,,,,1.0,,,,10.0,,KIGQ 260115Z AUTO 16004KT 10SM CLR 25/18 A2995 RMK AO2  T02480181,,,,,,64.57,,SSE,29.3,27.96,,Clear
KIGQ,07/26/2018 01:35 UTC,29.95,74.12,66.92,78.3,5.75,220.0,,,,,,1.0,,,,10.0,,KIGQ 260135Z AUTO 22005KT 10SM CLR 23/19 A2995 RMK AO2  T02340194,,,,,,66.91,,SW,29.3,27.83,,Clear
KIGQ,07/26/2018 01:55 UTC,29.95,75.2,66.56,74.6,4.61,240.0,,,,,,1.0,,,,10.0,,KIGQ 260155Z AUTO 24004KT 10SM CLR 24/19 A2995 RMK AO2  T02400192,,,,,,66.55,,WSW,29.3,27.84,,Clear
KIGQ,07/26/2018 02:15 UTC,29.95,73.4,67.28,81.22,4.61,230.0,,,,,,1.0,,,,10.0,,KIGQ 260215Z AUTO 23004KT 10SM CLR 23/20 A2995 RMK AO2  T02300196,,,,,,67.27,,SW,29.3,27.82,,Clear
KIGQ,07/26/2018 02:35 UTC,29.95,74.66,66.74,76.43,5.75,250.0,,,,,,1.0,,,,10.0,,KIGQ 260235Z AUTO 25005KT 10SM CLR 24/19 A2995 RMK AO2  T02370193,,,,,,66.73,,WSW,29.3,27.84,,Clear
KIGQ,07/26/2018 02:55 UTC,29.94,74.66,66.74,76.43,4.61,250.0,,,,,,1.0,,,,10.0,,KIGQ 260255Z AUTO 25004KT 10SM CLR 24/19 A2994 RMK AO2  T02370193,,,,,,66.73,,WSW,29.29,27.83,,Clear
KIGQ,07/26/2018 03:15 UTC,29.95,73.4,66.92,80.21,5.75,260.0,,,,,,1.0,,,,10.0,,KIGQ 260315Z AUTO 26005KT 10SM CLR 23/19 A2995 RMK AO2  T02300194,,,,,,66.91,,W,29.3,27.84,,Clear
KIGQ,07/26/2018 03:35 UTC,29.95,73.4,67.1,80.71,4.61,250.0,,,,,,1.0,,,,10.0,,KIGQ 260335Z AUTO 25004KT 10SM CLR 23/20 A2995 RMK AO2  T02300195,,,,,,67.09,,WSW,29.3,27.83,,Clear
KIGQ,07/26/2018 03:55 UTC,29.94,73.4,66.74,79.72,4.61,240.0,,,,,,1.0,,,,10.0,,KIGQ 260355Z AUTO 24004KT 10SM CLR 23/19 A2994 RMK AO2  T02300193,,,,,,66.73,,WSW,29.29,27.84,,Clear
KIGQ,07/26/2018 04:15 UTC,29.94,71.06,66.92,86.8,3.44,210.0,,,,,,1.0,,,,10.0,,KIGQ 260415Z AUTO 21003KT 10SM CLR 22/19 A2994 RMK AO2  T02170194,,,,,,66.91,,SSW,29.29,27.86,,Clear
KIGQ,07/26/2018 04:35 UTC,29.94,71.96,66.56,83.16,3.44,220.0,,,,,,1.0,,,,10.0,,KIGQ 260435Z AUTO 22003KT 10SM CLR 22/19 A2994 RMK AO2  T02220192,,,,,,66.55,,SW,29.29,27.88,,Clear
KIGQ,07/26/2018 04:55 UTC,29.94,71.42,66.56,84.69,0.0,0.0,,,,,,1.0,,,,10.0,,KIGQ 260455Z AUTO 00000KT 10SM CLR 22/19 A2994 RMK AO2  T02190192,,,,,,66.55,,N,29.29,27.88,,Clear
KIGQ,07/26/2018 05:15 UTC,29.94,72.86,66.74,81.18,4.61,240.0,,,,,,1.0,,,,10.0,,KIGQ 260515Z AUTO 24004KT 10SM CLR 23/19 A2994 RMK AO2  T02270193,,,,,,66.73,,WSW,29.29,27.85,,Clear
KIGQ,07/26/2018 05:35 UTC,29.93,70.88,67.1,87.87,4.61,220.0,,,,,,1.0,,,,10.0,,KIGQ 260535Z AUTO 22004KT 10SM CLR 22/20 A2993 RMK AO2  T02160195,,,,,,67.09,,SW,29.28,27.84,,Clear
KIGQ,07/26/2018 05:55 UTC,29.93,71.96,66.56,83.16,5.75,240.0,,,,,,1002.0,,,,10.0,,KIGQ 260555Z AUTO 24005KT 10SM SCT100 22/19 A2993 RMK AO2  T02220192 10284 20213 402900172,83.12,70.34,,84.2,62.96,66.55,,WSW,29.28,27.87,,Partly Cloudy
KIGQ,07/26/2018 06:15 UTC,29.93,72.86,67.1,82.19,4.61,240.0,,,,,,1003.0,,,,10.0,,KIGQ 260615Z AUTO 24004KT 10SM BKN100 23/20 A2993 RMK AO2  T02270195,,,10000.0,,,67.09,,WSW,29.28,27.82,,Mostly Cloudy
KIGQ,07/26/2018 06:35 UTC,29.92,70.7,67.1,88.41,5.75,220.0,,,,,,1002.0,,,,10.0,,KIGQ 260635Z AUTO 22005KT 10SM SCT100 22/20 A2992 RMK AO2  T02150195,,,,,,67.09,,SW,29.27,27.84,,Partly Cloudy
KIGQ,07/26/2018 06:55 UTC,29.92,70.16,67.1,90.05,6.91,220.0,,,,,,1102.0,,,,10.0,,KIGQ 260655Z AUTO 22006KT 10SM SCT110 21/20 A2992 RMK AO2  T02120195,,,,,,67.09,,SW,29.27,27.84,,Partly Cloudy
KIGQ,07/26/2018 07:15 UTC,29.91,71.42,67.28,86.82,4.61,220.0,,,,,,1103.0,,,,10.0,,KIGQ 260715Z AUTO 22004KT 10SM BKN110 22/20 A2991 RMK AO2  T02190196,,,11000.0,,,67.27,,SW,29.26,27.8,,Mostly Cloudy
KIGQ,07/26/2018 07:35 UTC,29.91,70.52,67.28,89.51,3.44,220.0,,,,,,1004.0,,,,10.0,,KIGQ 260735Z AUTO 22003KT 10SM OVC100 21/20 A2991 RMK AO2  T02140196,,,10000.0,,,67.27,,SW,29.26,27.82,,Overcast
KIGQ,07/26/2018 07:55 UTC,29.91,71.24,66.56,85.21,4.61,230.0,,,,,,1003.0,1103.0,,,10.0,,KIGQ 260755Z AUTO 23004KT 10SM BKN100 BKN110 22/19 A2991 RMK AO2  T02180192,,,10000.0,,,66.55,,SW,29.26,27.85,,Mostly Cloudy
KIGQ,07/26/2018 08:15 UTC,29.9,69.26,67.1,92.86,4.61,220.0,,,,,,652.0,902.0,,,10.0,,KIGQ 260815Z AUTO 22004KT 10SM SCT065 SCT090 21/20 A2990 RMK AO2  T02070195,,,,,,67.09,,SW,29.25,27.84,,Partly Cloudy
KIGQ,07/26/2018 08:35 UTC,29.9,69.26,67.1,92.86,3.44,220.0,,,,,,652.0,1103.0,,,10.0,,KIGQ 260835Z AUTO 22003KT 10SM SCT065 BKN110 21/20 A2990 RMK AO2  T02070195,,,11000.0,,,67.09,,SW,29.25,27.84,,Mostly Cloudy
KIGQ,07/26/2018 08:55 UTC,29.9,68.9,66.74,92.85,3.44,230.0,,,1103.0,,,652.0,802.0,,,10.0,,KIGQ 260855Z AUTO 23003KT 10SM SCT065 SCT080 BKN110 21/19 A2990 RMK AO2 T02050193,,,11000.0,,,66.73,,SW,29.25,27.87,,Mostly Cloudy
KIGQ,07/26/2018 09:15 UTC,29.89,69.26,67.1,92.86,0.0,0.0,,,,,,552.0,802.0,,,10.0,,KIGQ 260915Z AUTO 00000KT 10SM SCT055 SCT080 21/20 A2989 RMK AO2  T02070195,,,,,,67.09,,N,29.24,27.83,,Partly Cloudy
KIGQ,07/26/2018 09:35 UTC,29.9,68.36,66.2,92.83,5.75,210.0,,,,,,1.0,,,,10.0,,KIGQ 260935Z AUTO 21005KT 10SM CLR 20/19 A2990 RMK AO2  T02020190,,,,,,66.19,,SSW,29.25,27.91,,Clear
KIGQ,07/26/2018 09:55 UTC,29.9,68.9,66.2,91.13,4.61,220.0,,,,,,1103.0,,,,10.0,,KIGQ 260955Z AUTO 22004KT 10SM BKN110 21/19 A2990 RMK AO2  T02050190,,,11000.0,,,66.19,,SW,29.25,27.9,,Mostly Cloudy
KIGQ,07/26/2018 10:15 UTC,29.9,68.9,66.02,90.56,5.75,230.0,,,,,,703.0,1104.0,,,10.0,,KIGQ 261015Z AUTO 23005KT 10SM BKN070 OVC110 21/19 A2990 RMK AO2  T02050189,,,7000.0,,,66.01,,SW,29.25,27.91,,Overcast
KIGQ,07/26/2018 10:35 UTC,29.91,69.8,65.3,85.66,5.75,240.0,,,,,,703.0,,,,10.0,,KIGQ 261035Z AUTO 24005KT 10SM BKN070 21/19 A2991 RMK AO2  T02100185,,,7000.0,,,65.29,,WSW,29.26,27.96,,Mostly Cloudy
KIGQ,07/26/2018 10:55 UTC,29.91,68.9,64.94,87.23,8.05,260.0,,,,,,702.0,,,,10.0,,KIGQ 261055Z AUTO 26007KT 10SM SCT070 21/18 A2991 RMK AO2  T02050183,,,,,,64.92,,W,29.26,27.99,,Partly Cloudy
KIGQ,07/26/2018 11:15 UTC,29.91,69.08,65.3,87.79,8.05,260.0,,,,,,1.0,,,,10.0,,KIGQ 261115Z AUTO 26007KT 10SM CLR 21/19 A2991 RMK AO2  T02060185,,,,,,65.29,,W,29.26,27.97,,Clear
KIGQ,07/26/2018 11:35 UTC,29.92,69.8,65.66,86.73,6.91,270.0,,,,,,502.0,852.0,,,10.0,,KIGQ 261135Z AUTO 27006KT 10SM SCT050 SCT085 21/19 A2992 RMK AO2  T02100187,,,,,,65.64,,W,29.27,27.94,,Partly Cloudy
KIGQ,07/26/2018 11:55 UTC,29.92,70.34,66.2,86.76,6.91,260.0,,,,,,502.0,,,,10.0,,KIGQ 261155Z AUTO 26006KT 10SM SCT050 21/19 A2992 RMK AO2  T02130190 10227 20200,72.86,68.0,,,,66.19,,W,29.27,27.9,,Partly Cloudy
KIGQ,07/26/2018 12:15 UTC,29.91,70.7,66.38,86.24,8.05,270.0,,,,,,1.0,,,,10.0,,KIGQ 261215Z AUTO 27007KT 10SM CLR 22/19 A2991 RMK AO2  T02150191,,,,,,66.37,,W,29.26,27.87,,Clear
KIGQ,07/26/2018 12:35 UTC,29.92,71.6,66.74,84.7,6.91,280.0,,,,,,902.0,,,,10.0,,KIGQ 261235Z AUTO 28006KT 10SM SCT090 22/19 A2992 RMK AO2  T02200193,,,,,,66.73,,W,29.27,27.85,,Partly Cloudy
KIGQ,07/26/2018 12:55 UTC,29.92,71.78,67.1,85.24,6.91,290.0,,,,,,603.0,904.0,,,10.0,,KIGQ 261255Z AUTO 29006KT 10SM BKN060 OVC090 22/20 A2992 RMK AO2  T02210195,,,6000.0,,,67.09,,WNW,29.27,27.82,,Overcast
KIGQ,07/26/2018 13:15 UTC,29.92,72.32,67.1,83.7,5.75,290.0,,,,,,603.0,,,,10.0,,KIGQ 261315Z AUTO 29005KT 10SM BKN060 22/20 A2992 RMK AO2  T02240195,,,6000.0,,,67.09,,WNW,29.27,27.81,,Mostly Cloudy
KIGQ,07/26/2018 13:35 UTC,29.93,72.86,67.1,82.19,8.05,270.0,,,,,,602.0,853.0,,,10.0,,KIGQ 261335Z AUTO 27007KT 10SM SCT060 BKN085 23/20 A2993 RMK AO2  T02270195,,,8500.0,,,67.09,,W,29.28,27.82,,Mostly Cloudy
KIGQ,07/26/2018 13:55 UTC,29.93,73.94,67.46,80.25,5.75,290.0,,,,,,852.0,,,,10.0,,KIGQ 261355Z AUTO 29005KT 10SM SCT085 23/20 A2993 RMK AO2  T02330197,,,,,,67.45,,WNW,29.28,27.78,,Partly Cloudy
KIGQ,07/26/2018 14:15 UTC,29.94,73.22,67.1,81.2,5.75,280.0,,,,,,852.0,,,,10.0,,KIGQ 261415Z AUTO 28005KT 10SM SCT085 23/20 A2994 RMK AO2  T02290195,,,,,,67.09,,W,29.29,27.82,,Partly Cloudy
KIGQ,07/26/2018 14:35 UTC,29.93,74.3,66.92,77.83,5.75,280.0,,,853.0,,,232.0,602.0,,,10.0,,KIGQ 261435Z AUTO 28005KT 10SM SCT023 SCT060 BKN085 24/19 A2993 RMK AO2 T02350194,,,8500.0,,,66.91,,W,29.28,27.81,,Mostly Cloudy
KIGQ,07/26/2018 14:55 UTC,29.94,73.94,65.48,74.95,6.91,310.0,,,852.0,,,252.0,602.0,,,10.0,,KIGQ 261455Z AUTO 31006KT 10SM SCT025 SCT060 SCT085 23/19 A2994 RMK AO2 T02330186,,,,,,65.47,,NW,29.29,27.92,,Partly Cloudy
KIGQ,07/26/2018 15:15 UTC,29.94,75.74,64.4,67.98,8.05,310.0,,,,,,312.0,852.0,,,10.0,,KIGQ 261515Z AUTO 31007KT 10SM SCT031 SCT085 24/18 A2994 RMK AO2  T02430180,,,,,,64.39,,NW,29.29,27.97,,Partly Cloudy
KIGQ,07/26/2018 15:35 UTC,29.94,76.64,65.3,68.08,4.61,300.0,,,,,,352.0,,,,10.0,,KIGQ 261535Z AUTO 30004KT 10SM SCT035 25/19 A2994 RMK AO2  T02480185,,,,,,65.29,,WNW,29.29,27.9,,Partly Cloudy
KIGQ,07/26/2018 15:55 UTC,29.94,77.18,63.32,62.41,5.75,300.0,,,,,,372.0,,,,10.0,,KIGQ 261555Z AUTO 30005KT 10SM SCT037 25/17 A2994 RMK AO2  T02510174,,,,,,63.32,,WNW,29.29,28.02,,Partly Cloudy
KIGQ,07/26/2018 16:15 UTC,29.94,78.08,63.68,61.35,5.75,300.0,,,,,,392.0,,,,10.0,,KIGQ 261615Z AUTO 30005KT 10SM SCT039 26/18 A2994 RMK AO2  T02560176,,,,,,63.68,,WNW,29.29,27.99,,Partly Cloudy
KIGQ,07/26/2018 16:35 UTC,29.94,78.26,62.24,57.98,11.5,260.0,16.11,,492.0,,,412.0,462.0,,,10.0,,KIGQ 261635Z AUTO 26010G14KT 10SM SCT041 SCT046 SCT049 26/17 A2994 RMK AO2 T02570168,,,,,,62.24,,W,29.29,28.07,,Partly Cloudy
KIGQ,07/26/2018 16:55 UTC,29.94,78.8,58.64,50.13,8.05,300.0,16.11,,,,,482.0,,,,10.0,,KIGQ 261655Z AUTO 30007G14KT 10SM SCT048 26/15 A2994 RMK AO2  T02600148,,,,,,58.64,,WNW,29.29,28.28,,Partly Cloudy
KIGQ,07/26/2018 17:15 UTC,29.94,78.8,59.72,52.1,6.91,290.0,,,,,,1.0,,,,10.0,,KIGQ 261715Z AUTO 29006KT 10SM CLR 26/15 A2994 RMK AO2  T02600154,,,,,,59.72,,WNW,29.29,28.22,,Clear
KIGQ,07/26/2018 17:35 UTC,29.94,78.98,59.72,51.8,8.05,290.0,,,,,,1.0,,,,10.0,,KIGQ 261735Z AUTO 29007KT 10SM CLR 26/15 A2994 RMK AO2  T02610154,,,,,,59.73,,WNW,29.29,28.21,,Clear
KIGQ,07/26/2018 17:55 UTC,29.94,79.52,59.72,50.89,12.66,320.0,,,,,,1.0,,,,10.0,,KIGQ 261755Z AUTO 32011KT 10SM CLR 26/15 A2994 RMK AO2 T02640154  10264 20213,79.52,70.34,,,,59.73,,NW,29.29,28.21,,Clear
KIGQ,07/26/2018 18:15 UTC,29.93,79.34,58.28,48.62,11.5,270.0,20.71,,,,,1.0,,,,10.0,,KIGQ 261815Z AUTO 27010G18KT 10SM CLR 26/15 A2993 RMK AO2  T02630146,,,,,,58.29,,W,29.28,28.28,,Clear
KIGQ,07/26/2018 18:35 UTC,29.93,79.52,59.54,50.56,8.05,300.0,16.11,,,,,602.0,,,,10.0,,KIGQ 261835Z AUTO 30007G14KT 10SM SCT060 26/15 A2993 RMK AO2  T02640153,,,,,,59.55,,WNW,29.28,28.21,,Partly Cloudy
KIGQ,07/26/2018 18:55 UTC,29.93,79.34,59.9,51.52,10.36,290.0,,,,,,602.0,,,,10.0,,KIGQ 261855Z AUTO 29009KT 10SM SCT060 26/16 A2993 RMK AO2  T02630155,,,,,,59.91,,WNW,29.28,28.19,,Partly Cloudy
KIGQ,07/26/2018 19:15 UTC,29.93,78.62,59.72,52.41,11.5,310.0,,,,,,603.0,653.0,,,10.0,,KIGQ 261915Z AUTO 31010KT 10SM BKN060 BKN065 26/15 A2993 RMK AO2  T02590154,,,6000.0,,,59.72,,NW,29.28,28.21,,Mostly Cloudy
KIGQ,07/26/2018 19:35 UTC,29.93,77.0,59.54,54.93,9.22,290.0,,,,,,552.0,653.0,,,10.0,,KIGQ 261935Z AUTO 29008KT 10SM SCT055 BKN065 25/15 A2993 RMK AO2  T02500153,,,6500.0,,,59.53,,WNW,29.28,28.23,,Mostly Cloudy
KIGQ,07/26/2018 19:55 UTC,29.93,78.26,60.62,54.76,9.22,280.0,,,,,,702.0,,,,10.0,,KIGQ 261955Z AUTO 28008KT 10SM SCT070 26/16 A2993 RMK AO2  T02570159,,,,,,60.62,,W,29.28,28.16,,Partly Cloudy
KIGQ,07/26/2018 20:15 UTC,29.92,78.62,58.82,50.76,9.22,310.0,,,,,,702.0,,,,10.0,,KIGQ 262015Z AUTO 31008KT 10SM SCT070 26/15 A2992 RMK AO2  T02590149,,,,,,58.83,,NW,29.27,28.25,,Partly Cloudy
KIGQ,07/26/2018 20:35 UTC,29.93,77.9,58.28,50.98,13.8,290.0,19.57,,,,,1.0,,,,10.0,,KIGQ 262035Z AUTO 29012G17KT 10SM CLR 26/15 A2993 RMK AO2  T02550146,,,,,,58.28,,WNW,29.28,28.29,,Clear
KIGQ,07/26/2018 20:55 UTC,29.93,77.72,60.44,55.39,10.36,300.0,,,,,,552.0,702.0,,,10.0,,KIGQ 262055Z AUTO 30009KT 10SM SCT055 SCT070 25/16 A2993 RMK AO2  T02540158,,,,,,60.44,,WNW,29.28,28.18,,Partly Cloudy
KIGQ,07/26/2018 21:15 UTC,29.93,77.18,59.36,54.26,12.66,290.0,18.41,,,,,552.0,703.0,,,10.0,,KIGQ 262115Z AUTO 29011G16KT 10SM SCT055 BKN070 25/15 A2993 RMK AO2 T02510152,,,7000.0,,,59.36,,WNW,29.28,28.24,,Mostly Cloudy
KIGQ,07/26/2018 21:35 UTC,29.94,76.28,59.72,56.62,9.22,290.0,,,,,,603.0,704.0,,,10.0,,KIGQ 262135Z AUTO 29008KT 10SM BKN060 OVC070 25/15 A2994 RMK AO2  T02460154,,,6000.0,,,59.71,,WNW,29.29,28.24,,Overcast
KIGQ,07/26/2018 21:55 UTC,29.94,76.82,59.18,54.55,9.22,290.0,,,,,,604.0,,,,10.0,,KIGQ 262155Z AUTO 29008KT 10SM OVC060 25/15 A2994 RMK AO2  T02490151,,,6000.0,,,59.17,,WNW,29.29,28.27,,Overcast
KIGQ,07/26/2018 22:15 UTC,29.94,76.46,57.92,52.77,9.22,290.0,,,,,,603.0,704.0,,,10.0,,KIGQ 262215Z AUTO 29008KT 10SM BKN060 OVC070 25/14 A2994 RMK AO2  T02470144,,,6000.0,,,57.91,,WNW,29.29,28.34,,Overcast
KIGQ,07/26/2018 22:35 UTC,29.95,75.92,58.1,54.08,9.22,290.0,17.27,,,,,602.0,704.0,,,10.0,,KIGQ 262235Z AUTO 29008G15KT 10SM SCT060 OVC070 24/15 A2995 RMK AO2 T02440145,,,7000.0,,,58.09,,WNW,29.3,28.34,,Overcast
KIGQ,07/26/2018 22:55 UTC,29.94,76.28,57.92,53.09,9.22,290.0,17.27,,,,,704.0,,,,10.0,,KIGQ 262255Z AUTO 29008G15KT 10SM OVC070 25/14 A2994 RMK AO2  T02460144,,,7000.0,,,57.91,,WNW,29.29,28.34,,Overcast
KIGQ,07/26/2018 23:15 UTC,29.94,75.38,58.28,55.41,9.22,290.0,,,,,,703.0,,,,10.0,,KIGQ 262315Z AUTO 29008KT 10SM BKN070 24/15 A2994 RMK AO2  T02410146,,,7000.0,,,58.26,,WNW,29.29,28.33,,Mostly Cloudy
KIGQ,07/26/2018 23:35 UTC,29.94,74.66,57.56,55.31,9.22,290.0,16.11,,,,,702.0,,,,10.0,,KIGQ 262335Z AUTO 29008G14KT 10SM SCT070 24/14 A2994 RMK AO2  T02370142,,,,,,57.54,,WNW,29.29,28.37,,Partly Cloudy
KIGQ,07/26/2018 23:55 UTC,29.94,76.1,59.0,55.51,11.5,290.0,17.27,,,,,552.0,703.0,,,10.0,,KIGQ 262355Z AUTO 29010G15KT 10SM SCT055 BKN070 25/15 A2994 RMK AO2 T02450150 10265 20236,79.7,74.48,7000.0,,,58.98,,WNW,29.29,28.28,,Mostly Cloudy
KIGQ,07/27/2018 00:15 UTC,29.94,73.76,57.92,57.74,8.05,290.0,,,,,,702.0,,,,10.0,,KIGQ 270015Z AUTO 29007KT 10SM SCT070 23/14 A2994 RMK AO2  T02320144,,,,,,57.89,,WNW,29.29,28.36,,Partly Cloudy
KIGQ,07/27/2018 00:35 UTC,29.94,73.58,58.28,58.84,8.05,280.0,,,,,,502.0,,,,10.0,,KIGQ 270035Z AUTO 28007KT 10SM SCT050 23/15 A2994 RMK AO2  T02310146,,,,,,58.25,,W,29.29,28.35,,Partly Cloudy
KIGQ,07/27/2018 00:55 UTC,29.95,72.86,58.46,60.67,6.91,280.0,,,,,,1.0,,,,10.0,,KIGQ 270055Z AUTO 28006KT 10SM CLR 23/15 A2995 RMK AO2  T02270147,,,,,,58.43,,W,29.3,28.36,,Clear
KIGQ,07/27/2018 01:15 UTC,29.95,72.14,58.28,61.76,8.05,290.0,,,,,,502.0,702.0,,,10.0,,KIGQ 270115Z AUTO 29007KT 10SM SCT050 SCT070 22/15 A2995 RMK AO2  T02230146,,,,,,58.24,,WNW,29.3,28.37,,Partly Cloudy
KIGQ,07/27/2018 01:35 UTC,29.96,70.7,58.46,65.27,5.75,280.0,,,,,,502.0,702.0,,,10.0,,KIGQ 270135Z AUTO 28005KT 10SM SCT050 SCT070 22/15 A2996 RMK AO2  T02150147,,,,,,58.42,,W,29.31,28.39,,Partly Cloudy
KIGQ,07/27/2018 01:55 UTC,29.96,70.88,58.82,65.71,5.75,280.0,,,,,,752.0,,,,10.0,,KIGQ 270155Z AUTO 28005KT 10SM SCT075 22/15 A2996 RMK AO2  T02160149,,,,,,58.78,,W,29.31,28.37,,Partly Cloudy
KIGQ,07/27/2018 02:15 UTC,29.97,70.34,59.0,67.36,3.44,290.0,,,,,,1.0,,,,10.0,,KIGQ 270215Z AUTO 29003KT 10SM CLR 21/15 A2997 RMK AO2  T02130150,,,,,,58.96,,WNW,29.32,28.37,,Clear
KIGQ,07/27/2018 02:35 UTC,29.98,69.8,59.0,68.61,5.75,280.0,,,,,,1.0,,,,10.0,,KIGQ 270235Z AUTO 28005KT 10SM CLR 21/15 A2998 RMK AO2  T02100150,,,,,,58.96,,W,29.33,28.39,,Clear
KIGQ,07/27/2018 02:55 UTC,29.98,69.08,59.0,70.32,4.61,280.0,,,,,,1.0,,,,10.0,,KIGQ 270255Z AUTO 28004KT 10SM CLR 21/15 A2998 RMK AO2  T02060150,,,,,,58.96,,W,29.33,28.4,,Clear
KIGQ,07/27/2018 03:15 UTC,29.98,68.0,59.18,73.44,0.0,0.0,,,,,,1.0,,,,10.0,,KIGQ 270315Z AUTO 00000KT 10SM CLR 20/15 A2998 RMK AO2  T02000151,,,,,,59.14,,N,29.33,28.4,,Clear
KIGQ,07/27/2018 03:35 UTC,29.98,68.36,59.0,72.07,5.75,280.0,,,,,,652.0,,,,10.0,,KIGQ 270335Z AUTO 28005KT 10SM SCT065 20/15 A2998 RMK AO2  T02020150,,,,,,58.96,,W,29.33,28.41,,Partly Cloudy
KIGQ,07/27/2018 03:55 UTC,29.98,67.46,59.0,74.33,6.91,280.0,,,,,,652.0,,,,10.0,,KIGQ 270355Z AUTO 28006KT 10SM SCT065 20/15 A2998 RMK AO2  T01970150,,,,,,58.96,,W,29.33,28.42,,Partly Cloudy
KIGQ,07/27/2018 04:15 UTC,29.98,67.28,59.0,74.8,4.61,290.0,,,,,,1.0,,,,10.0,,KIGQ 270415Z AUTO 29004KT 10SM CLR 20/15 A2998 RMK AO2  T01960150,,,,,,58.96,,WNW,29.33,28.42,,Clear
KIGQ,07/27/2018 04:35 UTC,29.98,67.28,58.46,73.37,5.75,290.0,,,,,,1.0,,,,10.0,,KIGQ 270435Z AUTO 29005KT 10SM CLR 20/15 A2998 RMK AO2  T01960147,,,,,,58.42,,WNW,29.33,28.45,,Clear
KIGQ,07/27/2018 04:55 UTC,29.99,67.1,58.1,72.88,5.75,290.0,,,,,,1.0,,,,10.0,,KIGQ 270455Z AUTO 29005KT 10SM CLR 20/15 A2999 RMK AO2  T01950145,,,,,,58.06,,WNW,29.34,28.48,,Clear
KIGQ,07/27/2018 05:15 UTC,29.99,66.56,57.92,73.77,4.61,300.0,,,,,,1.0,,,,10.0,,KIGQ 270515Z AUTO 30004KT 10SM CLR 19/14 A2999 RMK AO2  T01920144,,,,,,57.88,,WNW,29.34,28.49,,Clear
KIGQ,07/27/2018 05:35 UTC,29.99,65.66,57.74,75.61,3.44,300.0,,,,,,1.0,,,,10.0,,KIGQ 270535Z AUTO 30003KT 10SM CLR 19/14 A2999 RMK AO2  T01870143,,,,,,57.7,,WNW,29.34,28.51,,Clear
KIGQ,07/27/2018 05:55 UTC,29.99,65.3,57.56,76.07,3.44,290.0,,,,,,1.0,,,,10.0,,KIGQ 270555Z AUTO 29003KT 10SM CLR 19/14 A2999 RMK AO2 T01850142  10243 20185 402650185,75.74,65.3,,79.7,65.3,57.52,,WNW,29.34,28.52,,Clear
KIGQ,07/27/2018 06:15 UTC,29.99,64.04,57.56,79.48,3.44,290.0,,,,,,1.0,,,,10.0,,KIGQ 270615Z AUTO 29003KT 10SM CLR 18/14 A2999 RMK AO2  T01780142,,,,,,57.52,,WNW,29.34,28.54,,Clear
KIGQ,07/27/2018 06:35 UTC,29.98,64.22,57.2,77.97,3.44,300.0,,,,,,1.0,,,,10.0,,KIGQ 270635Z AUTO 30003KT 10SM CLR 18/14 A2998 RMK AO2  T01790140,,,,,,57.16,,WNW,29.33,28.54,,Clear
KIGQ,07/27/2018 06:55 UTC,29.98,63.32,57.2,80.46,3.44,290.0,,,,,,1.0,,,,10.0,,KIGQ 270655Z AUTO 29003KT 10SM CLR 17/14 A2998 RMK AO2  T01740140,,,,,,57.16,,WNW,29.33,28.55,,Clear
KIGQ,07/27/2018 07:15 UTC,29.98,63.14,56.66,79.41,0.0,0.0,,,,,,1.0,,,,10.0,,KIGQ 270715Z AUTO 00000KT 10SM CLR 17/14 A2998 RMK AO2  T01730137,,,,,,56.62,,N,29.33,28.58,,Clear
KIGQ,07/27/2018 07:35 UTC,29.98,62.6,56.66,80.93,3.44,270.0,,,,,,1.0,,,,10.0,,KIGQ 270735Z AUTO 27003KT 10SM CLR 17/14 A2998 RMK AO2  T01700137,,,,,,56.62,,W,29.33,28.59,,Clear
KIGQ,07/27/2018 07:55 UTC,29.98,61.52,56.84,84.62,3.44,240.0,,,,,,1.0,,,,10.0,,KIGQ 270755Z AUTO 24003KT 10SM CLR 16/14 A2998 RMK AO2  T01640138,,,,,,56.81,,WSW,29.33,28.59,,Clear
KIGQ,07/27/2018 08:15 UTC,29.99,60.08,56.48,87.9,3.44,250.0,,,,,,1.0,,,,10.0,,KIGQ 270815Z AUTO 25003KT 10SM CLR 16/14 A2999 RMK AO2  T01560136,,,,,,56.45,,WSW,29.34,28.63,,Clear
KIGQ,07/27/2018 08:35 UTC,29.99,60.8,56.48,85.68,0.0,0.0,,,,,,1.0,,,,10.0,,KIGQ 270835Z AUTO 00000KT 10SM CLR 16/14 A2999 RMK AO2  T01600136,,,,,,56.45,,N,29.34,28.62,,Clear
KIGQ,07/27/2018 08:55 UTC,29.99,58.82,56.84,93.14,0.0,0.0,,,,,,392.0,,,,10.0,,KIGQ 270855Z AUTO 00000KT 10SM SCT039 15/14 A2999 RMK AO2  T01490138,,,,,,56.82,,N,29.34,28.63,,Partly Cloudy
KIGQ,07/27/2018 09:15 UTC,29.99,59.18,56.84,91.95,3.44,230.0,,,,,,412.0,492.0,,,10.0,,KIGQ 270915Z AUTO 23003KT 10SM SCT041 SCT049 15/14 A2999 RMK AO2  T01510138,,,,,,56.82,,SW,29.34,28.63,,Partly Cloudy
KIGQ,07/27/2018 09:35 UTC,29.99,59.9,57.38,91.38,0.0,0.0,,,,,,1.0,,,,10.0,,KIGQ 270935Z AUTO 00000KT 10SM CLR 16/14 A2999 RMK AO2  T01550141,,,,,,57.36,,N,29.34,28.59,,Clear
KIGQ,07/27/2018 09:55 UTC,29.99,59.54,57.38,92.56,0.0,0.0,,,,,,472.0,,,,10.0,,KIGQ 270955Z AUTO 00000KT 10SM SCT047 15/14 A2999 RMK AO2  T01530141,,,,,,57.36,,N,29.34,28.6,,Partly Cloudy
KIGQ,07/27/2018 10:15 UTC,30.0,59.36,57.92,94.98,3.44,250.0,,,,,,432.0,,,,10.0,,KIGQ 271015Z AUTO 25003KT 10SM SCT043 15/14 A3000 RMK AO2  T01520144,,,,,,57.91,,WSW,29.35,28.58,,Partly Cloudy
KIGQ,07/27/2018 10:35 UTC,30.0,59.0,57.56,94.97,3.44,260.0,,,,,,432.0,,,,10.0,,KIGQ 271035Z AUTO 26003KT 10SM SCT043 15/14 A3000 RMK AO2  T01500142,,,,,,57.55,,W,29.35,28.61,,Partly Cloudy
KIGQ,07/27/2018 10:55 UTC,30.01,59.18,58.1,96.21,3.44,240.0,,,,,,452.0,,,,10.0,,KIGQ 271055Z AUTO 24003KT 10SM SCT045 15/15 A3001 RMK AO2  T01510145,,,,,,58.09,,WSW,29.36,28.59,,Partly Cloudy
KIGQ,07/27/2018 11:15 UTC,30.01,59.36,58.1,95.59,3.44,260.0,,,,,,452.0,,,,10.0,,KIGQ 271115Z AUTO 26003KT 10SM SCT045 15/15 A3001 RMK AO2  T01520145,,,,,,58.09,,W,29.36,28.59,,Partly Cloudy
KIGQ,07/27/2018 11:35 UTC,30.01,59.9,58.46,94.99,4.61,260.0,,,,,,1.0,,,,10.0,,KIGQ 271135Z AUTO 26004KT 10SM CLR 16/15 A3001 RMK AO2  T01550147,,,,,,58.45,,W,29.36,28.56,,Clear
KIGQ,07/27/2018 11:55 UTC,30.01,60.8,59.0,93.8,4.61,270.0,,,,,,1.0,,,,10.0,,KIGQ 271155Z AUTO 27004KT 10SM CLR 16/15 A3001 RMK AO2 T01600150  10184 20146,65.12,58.28,,,,58.99,,W,29.36,28.52,,Clear
KIGQ,07/27/2018 12:15 UTC,30.01,61.88,59.18,90.87,5.75,270.0,,,,,,1.0,,,,10.0,,KIGQ 271215Z AUTO 27005KT 10SM CLR 17/15 A3001 RMK AO2  T01660151,,,,,,59.16,,W,29.36,28.5,,Clear
KIGQ,07/27/2018 12:35 UTC,30.01,63.32,59.9,88.63,3.44,290.0,,,,,,1.0,,,,10.0,,KIGQ 271235Z AUTO 29003KT 10SM CLR 17/16 A3001 RMK AO2  T01740155,,,,,,59.88,,WNW,29.36,28.45,,Clear
KIGQ,07/27/2018 12:55 UTC,30.02,64.4,60.08,85.89,5.75,300.0,,,,,,1.0,,,,10.0,,KIGQ 271255Z AUTO 30005KT 10SM CLR 18/16 A3002 RMK AO2  T01800156,,,,,,60.05,,WNW,29.37,28.44,,Clear
KIGQ,07/27/2018 13:15 UTC,30.03,66.02,60.44,82.23,6.91,290.0,,,,,,1.0,,,,10.0,,KIGQ 271315Z AUTO 29006KT 10SM CLR 19/16 A3003 RMK AO2  T01890158,,,,,,60.41,,WNW,29.38,28.41,,Clear
KIGQ,07/27/2018 13:35 UTC,30.03,66.2,60.44,81.72,4.61,310.0,,,,,,1.0,,,,10.0,,KIGQ 271335Z AUTO 31004KT 10SM CLR 19/16 A3003 RMK AO2  T01900158,,,,,,60.41,,NW,29.38,28.41,,Clear
KIGQ,07/27/2018 13:55 UTC,30.04,68.0,61.16,78.79,4.61,270.0,,,,,,1.0,,,,10.0,,KIGQ 271355Z AUTO 27004KT 10SM CLR 20/16 A3004 RMK AO2  T02000162,,,,,,61.13,,W,29.39,28.36,,Clear
KIGQ,07/27/2018 14:15 UTC,30.04,68.36,60.98,77.33,8.05,280.0,,,,,,1.0,,,,10.0,,KIGQ 271415Z AUTO 28007KT 10SM CLR 20/16 A3004 RMK AO2  T02020161,,,,,,60.95,,W,29.39,28.36,,Clear
KIGQ,07/27/2018 14:35 UTC,30.04,69.44,60.98,74.52,5.75,270.0,,,,,,1.0,,,,10.0,,KIGQ 271435Z AUTO 27005KT 10SM CLR 21/16 A3004 RMK AO2  T02080161,,,,,,60.95,,W,29.39,28.35,,Clear
KIGQ,07/27/2018 14:55 UTC,30.05,70.52,61.88,74.15,8.05,280.0,,,,,,252.0,,,,10.0,,KIGQ 271455Z AUTO 28007KT 10SM SCT025 21/17 A3005 RMK AO2  T02140166,,,,,,61.85,,W,29.4,28.29,,Partly Cloudy
KIGQ,07/27/2018 15:15 UTC,30.05,70.52,61.88,74.15,4.61,290.0,,,,,,283.0,,,,10.0,,KIGQ 271515Z AUTO 29004KT 10SM BKN028 21/17 A3005 RMK AO2  T02140166,,,2800.0,,,61.85,,WNW,29.4,28.29,,Mostly Cloudy
KIGQ,07/27/2018 15:35 UTC,30.05,70.34,60.44,70.9,5.75,290.0,,,403.0,,,283.0,353.0,,,10.0,,KIGQ 271535Z AUTO 29005KT 10SM BKN028 BKN035 BKN040 21/16 A3005 RMK AO2 T02130158,,,2800.0,,,60.41,,WNW,29.4,28.38,,Mostly Cloudy
KIGQ,07/27/2018 15:55 UTC,30.05,72.32,61.52,68.89,9.22,270.0,,,493.0,,,322.0,372.0,,,10.0,,KIGQ 271555Z AUTO 27008KT 10SM SCT032 SCT037 BKN049 22/16 A3005 RMK AO2 T02240164,,,4900.0,,,61.49,,W,29.4,28.29,,Mostly Cloudy
KIGQ,07/27/2018 16:15 UTC,30.05,72.5,61.7,68.91,8.05,290.0,17.27,,472.0,,,322.0,382.0,,,10.0,,KIGQ 271615Z AUTO 29007G15KT 10SM SCT032 SCT038 SCT047 23/17 A3005 RMK AO2 T02250165,,,,,,61.67,,WNW,29.4,28.28,,Partly Cloudy
KIGQ,07/27/2018 16:35 UTC,30.05,73.58,61.52,66.03,10.36,270.0,,,,,,362.0,433.0,,,10.0,,KIGQ 271635Z AUTO 27009KT 10SM SCT036 BKN043 23/16 A3005 RMK AO2  T02310164,,,4300.0,,,61.5,,W,29.4,28.28,,Mostly Cloudy
KIGQ,07/27/2018 16:55 UTC,30.06,73.76,60.98,64.39,6.91,270.0,,,,,,382.0,432.0,,,10.0,,KIGQ 271655Z AUTO 27006KT 10SM SCT038 SCT043 23/16 A3006 RMK AO2  T02320161,,,,,,60.95,,W,29.41,28.32,,Partly Cloudy
KIGQ,07/27/2018 17:15 UTC,30.05,73.22,59.18,61.51,8.05,310.0,,,,,,402.0,502.0,,,10.0,,KIGQ 271715Z AUTO 31007KT 10SM SCT040 SCT050 23/15 A3005 RMK AO2  T02290151,,,,,,59.15,,NW,29.4,28.41,,Partly Cloudy
KIGQ,07/27/2018 17:35 UTC,30.05,74.66,59.36,58.99,10.36,300.0,,,,,,402.0,502.0,,,10.0,,KIGQ 271735Z AUTO 30009KT 260V320 10SM SCT040 SCT050 24/15 A3005 RMK AO2 T02370152,,,,,,59.34,,WNW,29.4,28.39,,Partly Cloudy
KIGQ,07/27/2018 17:55 UTC,30.05,74.48,59.72,60.11,8.05,250.0,16.11,,,,,453.0,603.0,,,10.0,,KIGQ 271755Z AUTO 25007G14KT 10SM BKN045 BKN060 24/15 A3005 RMK AO2 T02360154 10240 20161,75.2,60.98,4500.0,,,59.7,,WSW,29.4,28.37,,Mostly Cloudy
KIGQ,07/27/2018 18:15 UTC,30.05,74.48,58.1,56.73,11.5,310.0,,,,,,473.0,604.0,,,10.0,,KIGQ 271815Z AUTO 31010KT 10SM BKN047 OVC060 24/15 A3005 RMK AO2  T02360145,,,4700.0,,,58.07,,NW,29.4,28.46,,Overcast
KIGQ,07/27/2018 18:35 UTC,30.06,73.76,58.46,58.87,9.22,300.0,,,,,,473.0,603.0,,,10.0,,KIGQ 271835Z AUTO 30008KT 10SM BKN047 BKN060 23/15 A3006 RMK AO2  T02320147,,,4700.0,,,58.43,,WNW,29.41,28.46,,Mostly Cloudy
KIGQ,07/27/2018 18:55 UTC,30.05,74.3,56.66,54.19,5.75,300.0,,,703.0,,,472.0,602.0,,,10.0,,KIGQ 271855Z AUTO 30005KT 10SM SCT047 SCT060 BKN070 24/14 A3005 RMK AO2 T02350137,,,7000.0,,,56.63,,WNW,29.4,28.53,,Mostly Cloudy
KIGQ,07/27/2018 19:15 UTC,30.05,74.84,57.92,55.69,10.36,300.0,,,,,,502.0,703.0,,,10.0,,KIGQ 271915Z AUTO 30009KT 10SM SCT050 BKN070 24/14 A3005 RMK AO2  T02380144,,,7000.0,,,57.9,,WNW,29.4,28.46,,Mostly Cloudy
KIGQ,07/27/2018 19:35 UTC,30.05,75.92,60.98,59.92,5.75,360.0,,,,,,502.0,703.0,,,10.0,,KIGQ 271935Z AUTO 36005KT 10SM SCT050 BKN070 24/16 A3005 RMK AO2  T02440161,,,7000.0,,,60.97,,N,29.4,28.29,,Mostly Cloudy
KIGQ,07/27/2018 19:55 UTC,30.05,73.76,56.84,55.54,8.05,300.0,,,704.0,,,482.0,553.0,,,10.0,,KIGQ 271955Z AUTO 30007KT 10SM SCT048 BKN055 OVC070 23/14 A3005 RMK AO2 T02320138,,,5500.0,,,56.81,,WNW,29.4,28.53,,Overcast
KIGQ,07/27/2018 20:15 UTC,30.05,75.92,57.92,53.73,9.22,320.0,,,,,,703.0,,,,10.0,,KIGQ 272015Z AUTO 32008KT 10SM BKN070 24/14 A3005 RMK AO2  T02440144,,,7000.0,,,57.9,,NW,29.4,28.45,,Mostly Cloudy
KIGQ,07/27/2018 20:35 UTC,30.06,74.3,57.56,55.98,6.91,300.0,,,,,,502.0,704.0,,,10.0,,KIGQ 272035Z AUTO 30006KT 10SM SCT050 OVC070 24/14 A3006 RMK AO2  T02350142,,,7000.0,,,57.53,,WNW,29.41,28.5,,Overcast
KIGQ,07/27/2018 20:55 UTC,30.05,74.66,57.56,55.31,5.75,290.0,,,,,,602.0,704.0,,,10.0,,KIGQ 272055Z AUTO 29005KT 10SM SCT060 OVC070 24/14 A3005 RMK AO2  T02370142,,,7000.0,,,57.54,,WNW,29.4,28.49,,Overcast
KIGQ,07/27/2018 21:15 UTC,30.06,74.48,57.2,54.93,9.22,290.0,,,704.0,,,502.0,602.0,,,10.0,,KIGQ 272115Z AUTO 29008KT 10SM SCT050 SCT060 OVC070 24/14 A3006 RMK AO2 T02360140,,,7000.0,,,57.18,,WNW,29.41,28.52,,Overcast
KIGQ,07/27/2018 21:35 UTC,30.06,74.3,57.02,54.9,8.05,290.0,,,,,,502.0,704.0,,,10.0,,KIGQ 272135Z AUTO 29007KT 10SM SCT050 OVC070 24/14 A3006 RMK AO2  T02350139,,,7000.0,,,56.99,,WNW,29.41,28.53,,Overcast
KIGQ,07/27/2018 21:55 UTC,30.06,74.66,57.74,55.67,6.91,290.0,,,,,,502.0,704.0,,,10.0,,KIGQ 272155Z AUTO 29006KT 10SM SCT050 OVC070 24/14 A3006 RMK AO2  T02370143,,,7000.0,,,57.72,,WNW,29.41,28.49,,Overcast
KIGQ,07/27/2018 22:15 UTC,30.07,72.86,60.98,66.37,5.75,40.0,,,,,,503.0,704.0,,,10.0,,KIGQ 272215Z AUTO 04005KT 10SM BKN050 OVC070 23/16 A3007 RMK AO2  T02270161,,,5000.0,,,60.95,,NE,29.42,28.34,,Overcast
KIGQ,07/27/2018 22:35 UTC,30.07,72.5,60.44,65.9,4.61,40.0,,,,,,503.0,704.0,,,10.0,,KIGQ 272235Z AUTO 04004KT 10SM BKN050 OVC070 23/16 A3007 RMK AO2  T02250158,,,5000.0,,,60.41,,NE,29.42,28.37,,Overcast
KIGQ,07/27/2018 22:55 UTC,30.07,71.6,60.08,67.07,4.61,50.0,,,,,,503.0,704.0,,,10.0,,KIGQ 272255Z AUTO 05004KT 10SM BKN050 OVC070 22/16 A3007 RMK AO2  T02200156,,,5000.0,,,60.05,,NE,29.42,28.4,,Overcast
KIGQ,07/27/2018 23:15 UTC,30.07,71.24,60.08,67.9,5.75,90.0,,,753.0,,,502.0,652.0,,,10.0,,KIGQ 272315Z AUTO 09005KT 10SM SCT050 SCT065 BKN075 22/16 A3007 RMK AO2 T02180156,,,7500.0,,,60.05,,E,29.42,28.41,,Mostly Cloudy
KIGQ,07/27/2018 23:35 UTC,30.07,71.6,59.9,66.65,0.0,0.0,,,,,,752.0,,,,10.0,,KIGQ 272335Z AUTO 00000KT 10SM SCT075 22/16 A3007 RMK AO2  T02200155,,,,,,59.87,,N,29.42,28.41,,Partly Cloudy
KIGQ,07/27/2018 23:55 UTC,30.07,70.88,60.08,68.73,5.75,90.0,,,,,,753.0,,,,10.0,,KIGQ 272355Z AUTO 09005KT 10SM BKN075 22/16 A3007 RMK AO2  T02160156 10245 20212,76.1,70.16,7500.0,,,60.05,,E,29.42,28.41,,Mostly Cloudy
KIGQ,07/28/2018 00:15 UTC,30.07,71.24,59.54,66.6,3.44,90.0,,,,,,502.0,753.0,,,10.0,,KIGQ 280015Z AUTO 09003KT 10SM SCT050 BKN075 22/15 A3007 RMK AO2  T02180153,,,7500.0,,,59.5,,E,29.42,28.44,,Mostly Cloudy
KIGQ,07/28/2018 00:35 UTC,30.07,69.8,59.72,70.39,3.44,110.0,,,,,,502.0,752.0,,,10.0,,KIGQ 280035Z AUTO 11003KT 10SM SCT050 SCT075 21/15 A3007 RMK AO2  T02100154,,,,,,59.68,,ESE,29.42,28.44,,Partly Cloudy
KIGQ,07/28/2018 00:55 UTC,30.07,69.08,59.9,72.61,3.44,100.0,,,,,,1.0,,,,10.0,,KIGQ 280055Z AUTO 10003KT 10SM CLR 21/16 A3007 RMK AO2  T02060155,,,,,,59.86,,E,29.42,28.44,,Clear
KIGQ,07/28/2018 01:15 UTC,30.07,68.18,59.18,72.98,0.0,0.0,,,,,,1.0,,,,10.0,,KIGQ 280115Z AUTO 00000KT 10SM CLR 20/15 A3007 RMK AO2  T02010151,,,,,,59.14,,N,29.42,28.49,,Clear
KIGQ,07/28/2018 01:35 UTC,30.08,65.3,59.36,81.13,0.0,0.0,,,,,,1.0,,,,10.0,,KIGQ 280135Z AUTO 00000KT 10SM CLR 19/15 A3008 RMK AO2  T01850152,,,,,,59.33,,N,29.43,28.52,,Clear
KIGQ,07/28/2018 01:55 UTC,30.08,66.2,59.54,79.15,3.44,140.0,,,,,,602.0,,,,10.0,,KIGQ 280155Z AUTO 14003KT 10SM SCT060 19/15 A3008 RMK AO2  T01900153,,,,,,59.51,,SE,29.43,28.5,,Partly Cloudy
KIGQ,07/28/2018 02:15 UTC,30.08,66.2,60.26,81.2,0.0,0.0,,,,,,603.0,804.0,,,10.0,,KIGQ 280215Z AUTO 00000KT 10SM BKN060 OVC080 19/16 A3008 RMK AO2  T01900157,,,6000.0,,,60.23,,N,29.43,28.47,,Overcast
KIGQ,07/28/2018 02:35 UTC,30.09,67.1,60.8,80.24,0.0,0.0,,,,,,603.0,804.0,,,10.0,,KIGQ 280235Z AUTO 00000KT 10SM BKN060 OVC080 20/16 A3009 RMK AO2  T01950160,,,6000.0,,,60.77,,N,29.44,28.44,,Overcast
KIGQ,07/28/2018 02:55 UTC,30.09,66.38,60.8,82.26,0.0,0.0,,,,,,502.0,802.0,,,10.0,,KIGQ 280255Z AUTO 00000KT 10SM SCT050 SCT080 19/16 A3009 RMK AO2  T01910160,,,,,,60.77,,N,29.44,28.45,,Partly Cloudy
KIGQ,07/28/2018 03:15 UTC,30.09,65.12,60.26,84.3,0.0,0.0,,,,,,1.0,,,,10.0,,KIGQ 280315Z AUTO 00000KT 10SM CLR 18/16 A3009 RMK AO2  T01840157,,,,,,60.23,,N,29.44,28.49,,Clear
KIGQ,07/28/2018 03:35 UTC,30.09,63.5,60.08,88.63,0.0,0.0,,,,,,1.0,,,,10.0,,KIGQ 280335Z AUTO 00000KT 10SM CLR 18/16 A3009 RMK AO2  T01750156,,,,,,60.06,,N,29.44,28.52,,Clear
KIGQ,07/28/2018 03:55 UTC,30.09,62.42,60.44,93.24,0.0,0.0,,,,,,1.0,,,,10.0,,KIGQ 280355Z AUTO 00000KT 10SM CLR 17/16 A3009 RMK AO2  T01690158,,,,,,60.43,,N,29.44,28.51,,Clear
KIGQ,07/28/2018 04:15 UTC,30.08,62.42,60.08,92.06,0.0,0.0,,,,,,1.0,,,,10.0,,KIGQ 280415Z AUTO 00000KT 10SM CLR 17/16 A3008 RMK AO2  T01690156,,,,,,60.06,,N,29.43,28.52,,Clear
KIGQ,07/28/2018 04:35 UTC,30.08,62.06,60.08,93.23,0.0,0.0,,,,,,1.0,,,,10.0,,KIGQ 280435Z AUTO 00000KT 10SM CLR 17/16 A3008 RMK AO2  T01670156,,,,,,60.07,,N,29.43,28.53,,Clear
KIGQ,07/28/2018 04:55 UTC,30.08,61.16,59.54,94.41,0.0,0.0,,,,,,1.0,,,,10.0,,KIGQ 280455Z AUTO 00000KT 10SM CLR 16/15 A3008 RMK AO2  T01620153,,,,,,59.53,,N,29.43,28.56,,Clear
KIGQ,07/28/2018 05:15 UTC,30.08,61.7,59.9,93.82,0.0,0.0,,,,,,1.0,,,,10.0,,KIGQ 280515Z AUTO 00000KT 10SM CLR 17/16 A3008 RMK AO2  T01650155,,,,,,59.89,,N,29.43,28.54,,Clear
KIGQ,07/28/2018 05:35 UTC,30.09,58.64,58.1,98.08,4.61,190.0,,,,,,1.0,,,,10.0,,KIGQ 280535Z AUTO 19004KT 10SM CLR 15/15 A3009 RMK AO2  T01480145,,,,,,58.09,,S,29.44,28.68,,Clear
KIGQ,07/28/2018 05:55 UTC,30.09,58.1,57.38,97.45,0.0,0.0,,,,,,1.0,,,,10.0,,KIGQ 280555Z AUTO 00000KT 10SM CLR 15/14 A3009 RMK AO2 T01450141  10220 20145 402450145,71.6,58.1,,76.1,58.1,57.37,,N,29.44,28.72,,Clear
KIGQ,07/28/2018 06:15 UTC,30.09,58.64,57.92,97.45,0.0,0.0,,,,,,1.0,,,,10.0,,KIGQ 280615Z AUTO 00000KT 10SM CLR 15/14 A3009 RMK AO2  T01480144,,,,,,57.91,,N,29.44,28.68,,Clear
KIGQ,07/28/2018 06:35 UTC,30.09,58.28,57.38,96.82,0.0,0.0,,,,,,1.0,,,,10.0,,KIGQ 280635Z AUTO 00000KT 10SM CLR 15/14 A3009 RMK AO2  T01460141,,,,,,57.37,,N,29.44,28.71,,Clear
KIGQ,07/28/2018 06:55 UTC,30.09,58.64,58.1,98.08,0.0,0.0,,,,,,1.0,,,,10.0,,KIGQ 280655Z AUTO 00000KT 10SM CLR 15/15 A3009 RMK AO2  T01480145,,,,,,58.09,,N,29.44,28.68,,Clear
KIGQ,07/28/2018 07:15 UTC,30.09,58.46,57.92,98.08,0.0,0.0,,,,,,1.0,,,,10.0,,KIGQ 280715Z AUTO 00000KT 10SM CLR 15/14 A3009 RMK AO2  T01470144,,,,,,57.91,,N,29.44,28.69,,Clear
KIGQ,07/28/2018 07:35 UTC,30.09,57.2,56.48,97.44,0.0,0.0,,,,,,1.0,,,,10.0,,KIGQ 280735Z AUTO 00000KT 10SM CLR 14/14 A3009 RMK AO2  T01400136,,,,,,56.47,,N,29.44,28.77,,Clear
KIGQ,07/28/2018 07:55 UTC,30.09,57.2,56.66,98.07,0.0,0.0,,,,,,1.0,,,,10.0,,KIGQ 280755Z AUTO 00000KT 10SM CLR 14/14 A3009 RMK AO2  T01400137,,,,,,56.65,,N,29.44,28.76,,Clear
KIGQ,07/28/2018 08:15 UTC,30.1,57.2,56.48,97.44,0.0,0.0,,,,,,1.0,,,,10.0,,KIGQ 280815Z AUTO 00000KT 10SM CLR 14/14 A3010 RMK AO2  T01400136,,,,,,56.47,,N,29.45,28.78,,Clear
KIGQ,07/28/2018 08:35 UTC,30.11,59.0,57.38,94.36,0.0,0.0,,,,,,1.0,,,,10.0,,KIGQ 280835Z AUTO 00000KT 10SM CLR 15/14 A3011 RMK AO2  T01500141,,,,,,57.37,,N,29.46,28.73,,Clear
KIGQ,07/28/2018 08:55 UTC,30.11,59.0,57.38,94.36,0.0,0.0,,,,,,1.0,,,,10.0,,KIGQ 280855Z AUTO 00000KT 10SM CLR 15/14 A3011 RMK AO2  T01500141,,,,,,57.37,,N,29.46,28.73,,Clear
KIGQ,07/28/2018 09:15 UTC,30.11,58.82,57.38,94.97,0.0,0.0,,,,,,1.0,,,,10.0,,KIGQ 280915Z AUTO 00000KT 10SM CLR 15/14 A3011 RMK AO2  T01490141,,,,,,57.37,,N,29.46,28.73,,Clear
KIGQ,07/28/2018 09:35 UTC,30.1,56.66,56.12,98.07,0.0,0.0,,,,,,1.0,,,,10.0,,KIGQ 280935Z AUTO 00000KT 10SM CLR 14/13 A3010 RMK AO2  T01370134,,,,,,56.12,,N,29.45,28.8,,Clear
KIGQ,07/28/2018 09:55 UTC,30.1,56.66,56.12,98.07,0.0,0.0,,,,,,1.0,,,,10.0,,KIGQ 280955Z AUTO 00000KT 10SM CLR 14/13 A3010 RMK AO2  T01370134,,,,,,56.12,,N,29.45,28.8,,Clear
KIGQ,07/28/2018 10:15 UTC,30.1,55.58,55.58,100.0,0.0,0.0,,,,,,1.0,,,,10.0,,KIGQ 281015Z AUTO 00000KT 10SM CLR 13/13 A3010 RMK AO2  T01310131,,,,,,55.58,,N,29.45,28.84,,Clear
KIGQ,07/28/2018 10:35 UTC,30.11,55.4,55.4,100.0,0.0,0.0,,,,,,1.0,,,,10.0,,KIGQ 281035Z AUTO 00000KT 10SM CLR 13/13 A3011 RMK AO2  T01300130,,,,,,55.4,,N,29.46,28.86,,Clear
KIGQ,07/28/2018 10:55 UTC,30.11,54.5,54.5,100.0,0.0,0.0,,,,,,1.0,,,,10.0,,KIGQ 281055Z AUTO 00000KT 10SM CLR 13/13 A3011 RMK AO2  T01250125,,,,,,54.5,,N,29.46,28.9,,Clear
KIGQ,07/28/2018 11:15 UTC,30.12,55.4,55.4,100.0,0.0,0.0,,,,,,1.0,,,,10.0,,KIGQ 281115Z AUTO 00000KT 10SM CLR 13/13 A3012 RMK AO2  T01300130,,,,,,55.4,,N,29.47,28.87,,Clear
KIGQ,07/28/2018 11:35 UTC,30.13,55.94,55.94,100.0,0.0,0.0,,,,,,1.0,,,,10.0,,KIGQ 281135Z AUTO 00000KT 10SM CLR 13/13 A3013 RMK AO2  T01330133,,,,,,55.94,,N,29.47,28.84,,Clear
KIGQ,07/28/2018 11:55 UTC,30.13,59.18,58.82,98.72,0.0,0.0,,,,,,1.0,,,,10.0,,KIGQ 281155Z AUTO 00000KT 10SM CLR 15/15 A3013 RMK AO2 T01510149  10152 20125,59.36,54.5,,,,58.82,,N,29.47,28.67,,Clear
KIGQ,07/28/2018 12:15 UTC,30.13,61.34,58.82,91.43,0.0,0.0,,,,,,1.0,,,,10.0,,KIGQ 281215Z AUTO 00000KT 10SM CLR 16/15 A3013 RMK AO2  T01630149,,,,,,58.8,,N,29.47,28.64,,Clear
KIGQ,07/28/2018 12:35 UTC,30.13,63.14,59.36,87.49,0.0,0.0,,,,,,1.0,,,,10.0,,KIGQ 281235Z AUTO 00000KT 10SM CLR 17/15 A3013 RMK AO2 LTG DSNT SW  T01730152,,,,,,59.34,,N,29.47,28.59,,Clear
KIGQ,07/28/2018 12:55 UTC,30.13,65.12,59.54,82.17,0.0,0.0,,,,,,1.0,,,,10.0,,KIGQ 281255Z AUTO 00000KT 10SM CLR 18/15 A3013 RMK AO2  T01840153,,,,,,59.51,,N,29.47,28.56,,Clear
KIGQ,07/28/2018 13:15 UTC,30.14,66.74,60.26,79.7,0.0,0.0,,,,,,1.0,,,,10.0,,KIGQ 281315Z AUTO 00000KT 10SM CLR 19/16 A3014 RMK AO2  T01930157,,,,,,60.23,,N,29.48,28.51,,Clear
KIGQ,07/28/2018 13:35 UTC,30.15,68.36,60.26,75.38,0.0,0.0,,,,,,1.0,,,,10.0,,KIGQ 281335Z AUTO 00000KT 10SM CLR 20/16 A3015 RMK AO2  T02020157,,,,,,60.23,,N,29.49,28.5,,Clear
KIGQ,07/28/2018 13:55 UTC,30.16,70.34,59.54,68.67,0.0,0.0,,,,,,1.0,,,,10.0,,KIGQ 281355Z AUTO 00000KT 10SM CLR 21/15 A3016 RMK AO2  T02130153,,,,,,59.5,,N,29.5,28.53,,Clear
KIGQ,07/28/2018 14:15 UTC,30.16,71.78,59.72,65.82,4.61,280.0,,,,,,1.0,,,,10.0,,KIGQ 281415Z AUTO 28004KT 10SM CLR 22/15 A3016 RMK AO2  T02210154,,,,,,59.69,,W,29.5,28.5,,Clear
KIGQ,07/28/2018 14:35 UTC,30.15,72.68,56.84,57.59,3.44,300.0,,,,,,1.0,,,,10.0,,KIGQ 281435Z AUTO 30003KT 10SM CLR 23/14 A3015 RMK AO2  T02260138,,,,,,56.8,,WNW,29.49,28.63,,Clear
KIGQ,07/28/2018 14:55 UTC,30.15,73.76,56.66,55.18,3.44,290.0,,,,,,1.0,,,,10.0,,KIGQ 281455Z AUTO 29003KT 10SM CLR 23/14 A3015 RMK AO2  T02320137,,,,,,56.63,,WNW,29.49,28.63,,Clear
KIGQ,07/28/2018 15:15 UTC,30.15,74.48,56.84,54.22,4.61,260.0,,,,,,1.0,,,,10.0,,KIGQ 281515Z AUTO 26004KT 10SM CLR 24/14 A3015 RMK AO2  T02360138,,,,,,56.81,,W,29.49,28.62,,Clear
KIGQ,07/28/2018 15:35 UTC,30.16,74.66,55.76,51.83,6.91,280.0,,,,,,1.0,,,,10.0,,KIGQ 281535Z AUTO 28006KT 10SM CLR 24/13 A3016 RMK AO2  T02370132,,,,,,55.73,,W,29.5,28.68,,Clear
KIGQ,07/28/2018 15:55 UTC,30.15,75.2,55.04,49.59,3.44,290.0,,,,,,602.0,,,,10.0,,KIGQ 281555Z AUTO 29003KT 10SM SCT060 24/13 A3015 RMK AO2  T02400128,,,,,,55.01,,WNW,29.49,28.7,,Partly Cloudy
KIGQ,07/28/2018 16:15 UTC,30.15,75.38,55.58,50.27,3.44,290.0,,,,,,602.0,,,,10.0,,KIGQ 281615Z AUTO 29003KT 10SM SCT060 24/13 A3015 RMK AO2  T02410131,,,,,,55.56,,WNW,29.49,28.67,,Partly Cloudy
KIGQ,07/28/2018 16:35 UTC,30.14,76.1,54.32,46.89,3.44,270.0,,,,,,1.0,,,,10.0,,KIGQ 281635Z AUTO 27003KT 10SM CLR 25/12 A3014 RMK AO2  T02450124,,,,,,54.3,,W,29.48,28.71,,Clear
KIGQ,07/28/2018 16:55 UTC,30.13,75.74,54.32,47.45,11.5,330.0,,,,,,602.0,,,,10.0,,KIGQ 281655Z AUTO 33010KT 10SM SCT060 24/12 A3013 RMK AO2  T02430124,,,,,,54.3,,NNW,29.47,28.71,,Partly Cloudy
KIGQ,07/28/2018 17:15 UTC,30.13,76.64,54.32,46.06,6.91,300.0,,,,,,1.0,,,,10.0,,KIGQ 281715Z AUTO 30006KT 10SM CLR 25/12 A3013 RMK AO2  T02480124,,,,,,54.31,,WNW,29.47,28.7,,Clear
KIGQ,07/28/2018 17:35 UTC,30.13,76.46,55.04,47.56,9.22,270.0,,,,,,602.0,,,,10.0,,KIGQ 281735Z AUTO 27008KT 10SM SCT060 25/13 A3013 RMK AO2  T02470128,,,,,,55.03,,W,29.47,28.67,,Partly Cloudy
KIGQ,07/28/2018 17:55 UTC,30.13,77.36,55.94,47.7,6.91,270.0,,,,,,602.0,,,,10.0,,KIGQ 281755Z AUTO 27006KT 10SM SCT060 25/13 A3013 RMK AO2  T02520133 10252 20153,77.36,59.54,,,,55.94,,W,29.47,28.61,,Partly Cloudy
KIGQ,07/28/2018 18:15 UTC,30.13,76.82,55.22,47.31,0.0,0.0,,,,,,602.0,,,,10.0,,KIGQ 281815Z AUTO 00000KT 10SM SCT060 25/13 A3013 RMK AO2  T02490129,,,,,,55.21,,N,29.47,28.65,,Partly Cloudy
KIGQ,07/28/2018 18:35 UTC,30.13,77.0,55.76,47.96,0.0,0.0,,,,,,603.0,,,,10.0,,KIGQ 281835Z AUTO 00000KT 10SM BKN060 25/13 A3013 RMK AO2  T02500132,,,6000.0,,,55.75,,N,29.47,28.63,,Mostly Cloudy
KIGQ,07/28/2018 18:55 UTC,30.13,76.1,55.58,49.08,6.91,260.0,,,,,,603.0,,,,10.0,,KIGQ 281855Z AUTO 26006KT 10SM BKN060 25/13 A3013 RMK AO2  T02450131,,,6000.0,,,55.56,,W,29.47,28.64,,Mostly Cloudy
KIGQ,07/28/2018 19:15 UTC,30.12,76.28,55.04,47.85,6.91,260.0,,,,,,603.0,,,,10.0,,KIGQ 281915Z AUTO 26006KT 10SM BKN060 25/13 A3012 RMK AO2  T02460128,,,6000.0,,,55.03,,W,29.47,28.67,,Mostly Cloudy
KIGQ,07/28/2018 19:35 UTC,30.12,76.46,55.22,47.87,0.0,0.0,,,,,,702.0,,,,10.0,,KIGQ 281935Z AUTO 00000KT 10SM SCT070 25/13 A3012 RMK AO2  T02470129,,,,,,55.2,,N,29.47,28.66,,Partly Cloudy
KIGQ,07/28/2018 19:55 UTC,30.12,75.74,54.5,47.76,0.0,0.0,,,,,,702.0,,,,10.0,,KIGQ 281955Z AUTO 00000KT 10SM SCT070 24/13 A3012 RMK AO2  T02430125,,,,,,54.48,,N,29.47,28.7,,Partly Cloudy
KIGQ,07/28/2018 20:15 UTC,30.12,75.92,56.84,51.68,3.44,80.0,,,,,,703.0,,,,10.0,,KIGQ 282015Z AUTO 08003KT 10SM BKN070 24/14 A3012 RMK AO2  T02440138,,,7000.0,,,56.82,,E,29.47,28.58,,Mostly Cloudy
KIGQ,07/28/2018 20:35 UTC,30.11,75.56,58.28,55.08,6.91,60.0,,,,,,603.0,,,,10.0,,KIGQ 282035Z AUTO 06006KT 10SM BKN060 24/15 A3011 RMK AO2  T02420146,,,6000.0,,,58.26,,ENE,29.46,28.5,,Mostly Cloudy
KIGQ,07/28/2018 20:55 UTC,30.11,75.02,57.2,53.95,4.61,60.0,,,,,,603.0,,,,10.0,,KIGQ 282055Z AUTO 06004KT 10SM BKN060 24/14 A3011 RMK AO2  T02390140,,,6000.0,,,57.18,,ENE,29.46,28.56,,Mostly Cloudy
KIGQ,07/28/2018 21:15 UTC,30.11,76.28,58.1,53.43,4.61,110.0,,,,,,602.0,,,,10.0,,KIGQ 282115Z AUTO 11004KT 10SM SCT060 25/15 A3011 RMK AO2  T02460145,,,,,,58.08,,ESE,29.46,28.5,,Partly Cloudy
KIGQ,07/28/2018 21:35 UTC,30.12,75.02,57.56,54.65,0.0,0.0,,,,,,1.0,,,,10.0,,KIGQ 282135Z AUTO 00000KT 10SM CLR 24/14 A3012 RMK AO2  T02390142,,,,,,57.54,,N,29.47,28.55,,Clear
KIGQ,07/28/2018 21:55 UTC,30.12,76.28,58.46,54.13,4.61,120.0,,,,,,1.0,,,,10.0,,KIGQ 282155Z AUTO 12004KT 10SM CLR 25/15 A3012 RMK AO2  T02460147,,,,,,58.45,,ESE,29.47,28.49,,Clear
KIGQ,07/28/2018 22:15 UTC,30.12,75.2,60.26,59.82,5.75,190.0,,,,,,603.0,,,,10.0,,KIGQ 282215Z AUTO 19005KT 10SM BKN060 24/16 A3012 RMK AO2  T02400157,,,6000.0,,,60.24,,S,29.47,28.41,,Mostly Cloudy
KIGQ,07/28/2018 22:35 UTC,30.11,74.84,59.9,59.78,5.75,180.0,,,,,,603.0,803.0,,,10.0,,KIGQ 282235Z AUTO 18005KT 10SM BKN060 BKN080 24/16 A3011 RMK AO2  T02380155,,,6000.0,,,59.88,,S,29.46,28.42,,Mostly Cloudy
KIGQ,07/28/2018 22:55 UTC,30.12,73.58,59.72,61.95,6.91,200.0,,,,,,603.0,803.0,,,10.0,,KIGQ 282255Z AUTO 20006KT 10SM BKN060 BKN080 23/15 A3012 RMK AO2  T02310154,,,6000.0,,,59.69,,SSW,29.47,28.45,,Mostly Cloudy
KIGQ,07/28/2018 23:15 UTC,30.11,74.3,59.0,58.94,6.91,210.0,,,,,,602.0,802.0,,,10.0,,KIGQ 282315Z AUTO 21006KT 10SM SCT060 SCT080 24/15 A3011 RMK AO2  T02350150,,,,,,58.97,,SSW,29.46,28.47,,Partly Cloudy
KIGQ,07/28/2018 23:35 UTC,30.11,73.04,59.72,63.08,4.61,200.0,,,,,,1.0,,,,10.0,,KIGQ 282335Z AUTO 20004KT 10SM CLR 23/15 A3011 RMK AO2  T02280154,,,,,,59.69,,SSW,29.46,28.45,,Clear
KIGQ,07/28/2018 23:55 UTC,30.11,71.96,60.08,66.26,4.61,200.0,,,,,,1.0,,,,10.0,,KIGQ 282355Z AUTO 20004KT 10SM CLR 22/16 A3011 RMK AO2 T02220156  10252 20222,77.36,71.96,,,,60.05,,SSW,29.46,28.44,,Clear
KIGQ,07/29/2018 00:15 UTC,30.11,71.96,59.72,65.42,4.61,220.0,,,,,,602.0,,,,10.0,,KIGQ 290015Z AUTO 22004KT 10SM SCT060 22/15 A3011 RMK AO2  T02220154,,,,,,59.69,,SW,29.46,28.46,,Partly Cloudy
KIGQ,07/29/2018 00:35 UTC,30.11,71.6,59.72,66.22,4.61,220.0,,,,,,602.0,,,,10.0,,KIGQ 290035Z AUTO 22004KT 10SM SCT060 22/15 A3011 RMK AO2  T02200154,,,,,,59.69,,SW,29.46,28.46,,Partly Cloudy
KIGQ,07/29/2018 00:55 UTC,30.11,70.16,59.72,69.54,4.61,230.0,,,,,,602.0,,,,10.0,,KIGQ 290055Z AUTO 23004KT 10SM SCT060 21/15 A3011 RMK AO2  T02120154,,,,,,59.69,,SW,29.46,28.48,,Partly Cloudy
KIGQ,07/29/2018 01:15 UTC,30.11,68.9,59.72,72.59,3.44,210.0,,,,,,1.0,,,,10.0,,KIGQ 290115Z AUTO 21003KT 10SM CLR 21/15 A3011 RMK AO2  T02050154,,,,,,59.68,,SSW,29.46,28.49,,Clear
KIGQ,07/29/2018 01:35 UTC,30.11,66.02,59.9,80.67,3.44,220.0,,,,,,1.0,,,,10.0,,KIGQ 290135Z AUTO 22003KT 10SM CLR 19/16 A3011 RMK AO2  T01890155,,,,,,59.87,,SW,29.46,28.52,,Clear
KIGQ,07/29/2018 01:55 UTC,30.11,65.48,59.9,82.19,0.0,0.0,,,,,,1.0,,,,10.0,,KIGQ 290155Z AUTO 00000KT 10SM CLR 19/16 A3011 RMK AO2  T01860155,,,,,,59.87,,N,29.46,28.52,,Clear
KIGQ,07/29/2018 02:15 UTC,30.12,67.1,59.9,77.71,0.0,0.0,,,,,,1.0,,,,10.0,,KIGQ 290215Z AUTO 00000KT 10SM CLR 20/16 A3012 RMK AO2  T01950155,,,,,,59.86,,N,29.47,28.52,,Clear
KIGQ,07/29/2018 02:35 UTC,30.12,66.2,60.44,81.72,0.0,0.0,,,,,,1.0,,,,10.0,,KIGQ 290235Z AUTO 00000KT 10SM CLR 19/16 A3012 RMK AO2  T01900158,,,,,,60.41,,N,29.47,28.5,,Clear
KIGQ,07/29/2018 02:55 UTC,30.12,66.38,60.98,82.78,0.0,0.0,,,,,,1.0,,,,10.0,,KIGQ 290255Z AUTO 00000KT 10SM CLR 19/16 A3012 RMK AO2  T01910161,,,,,,60.95,,N,29.47,28.47,,Clear
KIGQ,07/29/2018 03:15 UTC,30.12,66.2,60.8,82.77,0.0,0.0,,,,,,1.0,,,,10.0,,KIGQ 290315Z AUTO 00000KT 10SM CLR 19/16 A3012 RMK AO2  T01900160,,,,,,60.77,,N,29.47,28.48,,Clear
KIGQ,07/29/2018 03:35 UTC,30.12,64.58,60.8,87.56,0.0,0.0,,,,,,1.0,,,,10.0,,KIGQ 290335Z AUTO 00000KT 10SM CLR 18/16 A3012 RMK AO2  T01810160,,,,,,60.78,,N,29.47,28.5,,Clear
KIGQ,07/29/2018 03:55 UTC,30.12,64.4,60.08,85.89,0.0,0.0,,,,,,1.0,,,,10.0,,KIGQ 290355Z AUTO 00000KT 10SM CLR 18/16 A3012 RMK AO2  T01800156,,,,,,60.05,,N,29.47,28.54,,Clear
KIGQ,07/29/2018 04:15 UTC,30.12,63.5,60.44,89.77,0.0,0.0,,,,,,1.0,,,,10.0,,KIGQ 290415Z AUTO 00000KT 10SM CLR 18/16 A3012 RMK AO2  T01750158,,,,,,60.42,,N,29.47,28.53,,Clear
KIGQ,07/29/2018 04:35 UTC,30.12,63.14,60.08,89.76,0.0,0.0,,,,,,1.0,,,,10.0,,KIGQ 290435Z AUTO 00000KT 10SM CLR 17/16 A3012 RMK AO2  T01730156,,,,,,60.06,,N,29.47,28.55,,Clear
KIGQ,07/29/2018 04:55 UTC,30.12,61.7,59.54,92.63,0.0,0.0,,,,,,1.0,,,,10.0,,KIGQ 290455Z AUTO 00000KT 10SM CLR 17/15 A3012 RMK AO2  T01650153,,,,,,59.53,,N,29.47,28.6,,Clear
KIGQ,07/29/2018 05:15 UTC,30.13,63.5,58.64,84.2,0.0,0.0,,,,,,1.0,,,,10.0,,KIGQ 290515Z AUTO 00000KT 10SM CLR 18/15 A3013 RMK AO2  T01750148,,,,,,58.61,,N,29.47,28.62,,Clear
KIGQ,07/29/2018 05:35 UTC,30.13,60.8,57.92,90.24,0.0,0.0,,,,,,1.0,,,,10.0,,KIGQ 290535Z AUTO 00000KT 10SM CLR 16/14 A3013 RMK AO2  T01600144,,,,,,57.9,,N,29.47,28.69,,Clear
KIGQ,07/29/2018 05:55 UTC,30.13,59.36,58.28,96.21,0.0,0.0,,,,,,1.0,,,,10.0,,KIGQ 290555Z AUTO 00000KT 10SM CLR 15/15 A3013 RMK AO2 T01520146  10223 20152 402520125,72.14,59.36,,77.36,54.5,58.27,,N,29.47,28.69,,Clear
KIGQ,07/29/2018 06:15 UTC,30.13,60.26,59.18,96.23,0.0,0.0,,,,,,1.0,,,,10.0,,KIGQ 290615Z AUTO 00000KT 10SM CLR 16/15 A3013 RMK AO2  T01570151,,,,,,59.17,,N,29.47,28.63,,Clear
KIGQ,07/29/2018 06:35 UTC,30.13,60.98,59.36,94.41,0.0,0.0,,,,,,1.0,,,,10.0,,KIGQ 290635Z AUTO 00000KT 10SM CLR 16/15 A3013 RMK AO2  T01610152,,,,,,59.35,,N,29.47,28.62,,Clear
KIGQ,07/29/2018 06:55 UTC,30.13,57.92,57.38,98.08,0.0,0.0,,,,,,1.0,,,,10.0,,KIGQ 290655Z AUTO 00000KT 10SM CLR 14/14 A3013 RMK AO2  T01440141,,,,,,57.38,,N,29.47,28.75,,Clear
KIGQ,07/29/2018 07:15 UTC,30.13,59.0,58.1,96.83,0.0,0.0,,,,,,1.0,,,,10.0,,KIGQ 290715Z AUTO 00000KT 10SM CLR 15/15 A3013 RMK AO2  T01500145,,,,,,58.09,,N,29.47,28.7,,Clear
KIGQ,07/29/2018 07:35 UTC,30.13,59.0,58.1,96.83,0.0,0.0,,,,,,1.0,,,,10.0,,KIGQ 290735Z AUTO 00000KT 10SM CLR 15/15 A3013 RMK AO2  T01500145,,,,,,58.09,,N,29.47,28.7,,Clear
KIGQ,07/29/2018 07:55 UTC,30.13,57.74,57.56,99.36,3.44,190.0,,,,,,1.0,,,,10.0,,KIGQ 290755Z AUTO 19003KT 10SM CLR 14/14 A3013 RMK AO2  T01430142,,,,,,57.56,,S,29.47,28.74,,Clear
KIGQ,07/29/2018 08:15 UTC,30.13,59.0,58.46,98.09,3.44,190.0,,,,,,1.0,,,,10.0,,KIGQ 290815Z AUTO 19003KT 10SM CLR 15/15 A3013 RMK AO2  T01500147,,,,,,58.46,,S,29.47,28.69,,Clear
KIGQ,07/29/2018 08:35 UTC,30.14,58.28,58.28,100.0,0.0,0.0,,,,,,1.0,,,,10.0,,KIGQ 290835Z AUTO 00000KT 10SM CLR 15/15 A3014 RMK AO2  T01460146,,,,,,58.28,,N,29.48,28.71,,Clear
KIGQ,07/29/2018 08:55 UTC,30.13,57.02,57.02,100.0,0.0,0.0,,,,,,1.0,,,,10.0,,KIGQ 290855Z AUTO 00000KT 10SM CLR 14/14 A3013 RMK AO2  T01390139,,,,,,57.02,,N,29.47,28.78,,Clear
KIGQ,07/29/2018 09:15 UTC,30.14,58.1,58.1,100.0,0.0,0.0,,,,,,1202.0,,,,10.0,,KIGQ 290915Z AUTO 00000KT 10SM SCT120 15/15 A3014 RMK AO2  T01450145,,,,,,58.1,,N,29.48,28.72,,Partly Cloudy
KIGQ,07/29/2018 09:35 UTC,30.14,57.02,57.02,100.0,0.0,0.0,,,,,,1202.0,,,,10.0,,KIGQ 290935Z AUTO 00000KT 10SM SCT120 14/14 A3014 RMK AO2  T01390139,,,,,,57.02,,N,29.48,28.79,,Partly Cloudy
KIGQ,07/29/2018 09:55 UTC,30.13,57.56,57.38,99.35,0.0,0.0,,,,,,1202.0,,,,10.0,,KIGQ 290955Z AUTO 00000KT 10SM SCT120 14/14 A3013 RMK AO2  T01420141,,,,,,57.38,,N,29.47,28.75,,Partly Cloudy
KIGQ,07/29/2018 10:15 UTC,30.13,57.56,57.2,98.71,0.0,0.0,,,,,,1.0,,,,10.0,,KIGQ 291015Z AUTO 00000KT 10SM CLR 14/14 A3013 RMK AO2  T01420140,,,,,,57.2,,N,29.47,28.76,,Clear
KIGQ,07/29/2018 10:35 UTC,30.13,58.1,57.56,98.08,0.0,0.0,,,,,,1.0,,,,10.0,,KIGQ 291035Z AUTO 00000KT 10SM CLR 15/14 A3013 RMK AO2  T01450142,,,,,,57.56,,N,29.47,28.74,,Clear
KIGQ,07/29/2018 10:55 UTC,30.13,57.2,57.2,100.0,0.0,0.0,,,,,,1.0,,,,10.0,,KIGQ 291055Z AUTO 00000KT 10SM CLR 14/14 A3013 RMK AO2  T01400140,,,,,,57.2,,N,29.47,28.77,,Clear
KIGQ,07/29/2018 11:15 UTC,30.12,57.74,57.2,98.08,0.0,0.0,,,,,,1.0,,,,10.0,,KIGQ 291115Z AUTO 00000KT 10SM CLR 14/14 A3012 RMK AO2  T01430140,,,,,,57.2,,N,29.47,28.76,,Clear
KIGQ,07/29/2018 11:35 UTC,30.12,58.82,58.28,98.09,0.0,0.0,,,,,,1.0,,,,10.0,,KIGQ 291135Z AUTO 00000KT 10SM CLR 15/15 A3012 RMK AO2  T01490146,,,,,,58.28,,N,29.47,28.7,,Clear
KIGQ,07/29/2018 11:55 UTC,30.12,60.26,59.18,96.23,0.0,0.0,,,,,,1.0,,,,10.0,,KIGQ 291155Z AUTO 00000KT 10SM CLR 16/15 A3012 RMK AO2 T01570151  10162 20139,61.16,57.02,,,,59.17,,N,29.47,28.63,,Clear
KIGQ,07/29/2018 12:15 UTC,30.13,61.34,60.26,96.25,0.0,0.0,,,,,,1.0,,,,10.0,,KIGQ 291215Z AUTO 00000KT 10SM CLR 16/16 A3013 RMK AO2  T01630157,,,,,,60.25,,N,29.47,28.57,,Clear
KIGQ,07/29/2018 12:35 UTC,30.13,62.78,61.7,96.27,0.0,0.0,,,,,,1.0,,,,10.0,,KIGQ 291235Z AUTO 00000KT 10SM CLR 17/17 A3013 RMK AO2  T01710165,,,,,,61.69,,N,29.47,28.47,,Clear
KIGQ,07/29/2018 12:55 UTC,30.13,64.94,61.7,89.27,0.0,0.0,,,,,,1.0,,,,10.0,,KIGQ 291255Z AUTO 00000KT 10SM CLR 18/17 A3013 RMK AO2  T01830165,,,,,,61.68,,N,29.47,28.44,,Clear
KIGQ,07/29/2018 13:15 UTC,30.13,67.46,62.06,82.86,0.0,0.0,,,,,,1.0,,,,10.0,,KIGQ 291315Z AUTO 00000KT 10SM CLR 20/17 A3013 RMK AO2  T01970167,,,,,,62.04,,N,29.47,28.39,,Clear
KIGQ,07/29/2018 13:35 UTC,30.13,68.9,62.24,79.36,0.0,0.0,,,,,,1.0,,,,10.0,,KIGQ 291335Z AUTO 00000KT 10SM CLR 21/17 A3013 RMK AO2  T02050168,,,,,,62.21,,N,29.47,28.37,,Clear
KIGQ,07/29/2018 13:55 UTC,30.14,70.34,62.42,76.04,0.0,0.0,,,,,,1.0,,,,10.0,,KIGQ 291355Z AUTO 00000KT 10SM CLR 21/17 A3014 RMK AO2  T02130169,,,,,,62.39,,N,29.48,28.35,,Clear
KIGQ,07/29/2018 14:15 UTC,30.14,72.14,61.52,69.31,0.0,0.0,,,,,,1.0,,,,10.0,,KIGQ 291415Z AUTO 00000KT 10SM CLR 22/16 A3014 RMK AO2  T02230164,,,,,,61.49,,N,29.48,28.38,,Clear
KIGQ,07/29/2018 14:35 UTC,30.13,73.4,60.26,63.53,0.0,0.0,,,,,,1.0,,,,10.0,,KIGQ 291435Z AUTO 00000KT 10SM CLR 23/16 A3013 RMK AO2  T02300157,,,,,,60.23,,N,29.47,28.42,,Clear
KIGQ,07/29/2018 14:55 UTC,30.13,74.66,60.44,61.3,0.0,0.0,,,,,,1.0,,,,10.0,,KIGQ 291455Z AUTO 00000KT 10SM CLR 24/16 A3013 RMK AO2  T02370158,,,,,,60.42,,N,29.47,28.4,,Clear
KIGQ,07/29/2018 15:15 UTC,30.13,75.38,59.36,57.59,0.0,0.0,,,,,,1.0,,,,10.0,,KIGQ 291515Z AUTO 00000KT 10SM CLR 24/15 A3013 RMK AO2  T02410152,,,,,,59.34,,N,29.47,28.45,,Clear
KIGQ,07/29/2018 15:35 UTC,30.13,75.56,58.46,55.44,0.0,0.0,,,,,,1.0,,,,10.0,,KIGQ 291535Z AUTO 00000KT 10SM CLR 24/15 A3013 RMK AO2  T02420147,,,,,,58.44,,N,29.47,28.5,,Clear
KIGQ,07/29/2018 15:55 UTC,30.13,76.1,58.64,54.8,0.0,0.0,,,,,,1.0,,,,10.0,,KIGQ 291555Z AUTO 00000KT 10SM CLR 25/15 A3013 RMK AO2  T02450148,,,,,,58.62,,N,29.47,28.49,,Clear
KIGQ,07/29/2018 16:15 UTC,30.13,75.56,59.0,56.52,4.61,180.0,,,,,,1.0,,,,10.0,,KIGQ 291615Z AUTO 18004KT 10SM CLR 24/15 A3013 RMK AO2  T02420150,,,,,,58.98,,S,29.47,28.47,,Clear
KIGQ,07/29/2018 16:35 UTC,30.12,76.64,57.02,50.79,0.0,0.0,,,,,,1.0,,,,10.0,,KIGQ 291635Z AUTO 00000KT 10SM CLR 25/14 A3012 RMK AO2  T02480139,,,,,,57.01,,N,29.47,28.57,,Clear
KIGQ,07/29/2018 16:55 UTC,30.12,75.92,58.64,55.13,0.0,0.0,,,,,,1.0,,,,10.0,,KIGQ 291655Z AUTO 00000KT 10SM CLR 24/15 A3012 RMK AO2  T02440148,,,,,,58.62,,N,29.47,28.49,,Clear
KIGQ,07/29/2018 17:15 UTC,30.12,76.82,59.0,54.2,4.61,220.0,,,,,,1.0,,,,10.0,,KIGQ 291715Z AUTO 22004KT 10SM CLR 25/15 A3012 RMK AO2  T02490150,,,,,,58.99,,SW,29.47,28.46,,Clear
KIGQ,07/29/2018 17:35 UTC,30.11,76.1,59.54,56.59,3.44,180.0,,,,,,1102.0,,,,10.0,,KIGQ 291735Z AUTO 18003KT 10SM SCT110 25/15 A3011 RMK AO2  T02450153,,,,,,59.52,,S,29.46,28.43,,Partly Cloudy
KIGQ,07/29/2018 17:55 UTC,30.11,75.74,60.8,59.89,4.61,210.0,,,,,,472.0,1103.0,,,10.0,,KIGQ 291755Z AUTO 21004KT 10SM SCT047 BKN110 24/16 A3011 RMK AO2  T02430160 10250 20158,77.0,60.44,11000.0,,,60.78,,SSW,29.46,28.36,,Mostly Cloudy
KIGQ,07/29/2018 18:15 UTC,30.11,75.74,62.78,64.23,6.91,210.0,,,,,,492.0,1103.0,,,10.0,,KIGQ 291815Z AUTO 21006KT 10SM SCT049 BKN110 24/17 A3011 RMK AO2  T02430171,,,11000.0,,,62.77,,SSW,29.46,28.24,,Mostly Cloudy
KIGQ,07/29/2018 18:35 UTC,30.11,76.46,62.96,63.11,8.05,160.0,,,1103.0,,,493.0,603.0,,,10.0,,KIGQ 291835Z AUTO 16007KT 10SM BKN049 BKN060 BKN110 25/17 A3011 RMK AO2 T02470172,,,4900.0,,,62.95,,SSE,29.46,28.22,,Mostly Cloudy
KIGQ,07/29/2018 18:55 UTC,30.1,77.0,63.5,63.18,8.05,230.0,,,1204.0,,,422.0,603.0,,,10.0,,KIGQ 291855Z AUTO 23007KT 190V330 10SM SCT042 BKN060 OVC120 25/18  A3010 RMK AO2 T02500175,,,6000.0,,,63.5,,SW,29.45,28.17,,Overcast
KIGQ,07/29/2018 19:15 UTC,30.11,76.46,63.68,64.72,10.36,200.0,,,1104.0,,,442.0,653.0,,,10.0,,KIGQ 291915Z AUTO 20009KT 10SM SCT044 BKN065 OVC110 25/18 A3011 RMK AO2 T02470176,,,6500.0,,,63.67,,SSW,29.46,28.18,,Overcast
KIGQ,07/29/2018 19:35 UTC,30.11,75.74,62.6,63.82,9.22,190.0,,,704.0,,,462.0,653.0,,,10.0,,KIGQ 291935Z AUTO 19008KT 10SM SCT046 BKN065 OVC070 24/17 A3011 RMK AO2 T02430170,,,6500.0,,,62.59,,S,29.46,28.25,,Overcast
KIGQ,07/29/2018 19:55 UTC,30.11,76.1,61.52,60.71,8.05,200.0,,,704.0,,,442.0,603.0,,,10.0,,KIGQ 291955Z AUTO 20007KT 10SM SCT044 BKN060 OVC070 25/16 A3011 RMK AO2 T02450164,,,6000.0,,,61.51,,SSW,29.46,28.31,,Overcast
KIGQ,07/29/2018 20:15 UTC,30.1,76.1,62.78,63.47,9.22,180.0,,,753.0,,,502.0,603.0,,,10.0,,KIGQ 292015Z AUTO 18008KT 10SM SCT050 BKN060 BKN075 25/17 A3010 RMK AO2 T02450171,,,6000.0,,,62.77,,S,29.45,28.23,,Mostly Cloudy
KIGQ,07/29/2018 20:35 UTC,30.09,75.38,62.96,65.41,8.05,190.0,,,,,,503.0,653.0,,,10.0,,KIGQ 292035Z AUTO 19007KT 10SM BKN050 BKN065 24/17 A3009 RMK AO2  T02410172,,,5000.0,,,62.94,,S,29.44,28.22,,Mostly Cloudy
KIGQ,07/29/2018 20:55 UTC,30.09,74.66,60.44,61.3,6.91,210.0,,,,,,554.0,,,,10.0,,KIGQ 292055Z AUTO 21006KT 10SM OVC055 24/16 A3009 RMK AO2  T02370158,,,5500.0,,,60.42,,SSW,29.44,28.37,,Overcast
KIGQ,07/29/2018 21:15 UTC,30.09,74.3,61.52,64.46,8.05,230.0,,,,,,603.0,754.0,,,10.0,,KIGQ 292115Z AUTO 23007KT 10SM BKN060 OVC075 24/16 A3009 RMK AO2  T02350164,,,6000.0,,,61.5,,SW,29.44,28.31,,Overcast
KIGQ,07/29/2018 21:35 UTC,30.09,73.76,61.7,66.05,6.91,210.0,,,,,,752.0,,,,10.0,,KIGQ 292135Z AUTO 21006KT 10SM SCT075 23/17 A3009 RMK AO2  T02320165,,,,,,61.68,,SSW,29.44,28.31,,Partly Cloudy
KIGQ,07/29/2018 21:55 UTC,30.09,73.4,62.06,67.71,6.91,180.0,,,,,,1.0,,,,10.0,,KIGQ 292155Z AUTO 18006KT 10SM CLR 23/17 A3009 RMK AO2 LTG DSNT NE  T02300167,,,,,,62.04,,S,29.44,28.29,,Clear
KIGQ,07/29/2018 22:15 UTC,30.09,73.22,62.06,68.12,6.91,200.0,,,,,,1.0,,,,10.0,,KIGQ 292215Z AUTO 20006KT 10SM CLR 23/17 A3009 RMK AO2  T02290167,,,,,,62.04,,SSW,29.44,28.29,,Clear
KIGQ,07/29/2018 22:35 UTC,30.08,74.48,62.78,66.98,5.75,190.0,,,,,,1.0,,,,10.0,,KIGQ 292235Z AUTO 19005KT 10SM CLR 24/17 A3008 RMK AO2  T02360171,,,,,,62.76,,S,29.43,28.23,,Clear
KIGQ,07/29/2018 22:55 UTC,30.08,73.76,61.34,65.22,4.61,180.0,,,,,,1102.0,,,,10.0,,KIGQ 292255Z AUTO 18004KT 10SM SCT110 23/16 A3008 RMK AO2  T02320163,,,,,,61.32,,S,29.43,28.32,,Partly Cloudy
KIGQ,07/29/2018 23:15 UTC,30.08,73.58,60.62,63.96,4.61,200.0,,,,,,802.0,1103.0,,,10.0,,KIGQ 292315Z AUTO 20004KT 10SM SCT080 BKN110 23/16 A3008 RMK AO2  T02310159,,,11000.0,,,60.59,,SSW,29.43,28.36,,Mostly Cloudy
KIGQ,07/29/2018 23:35 UTC,30.08,73.76,60.8,63.98,6.91,210.0,,,,,,803.0,1104.0,,,10.0,,KIGQ 292335Z AUTO 21006KT 10SM BKN080 OVC110 23/16 A3008 RMK AO2  T02320160,,,8000.0,,,60.77,,SSW,29.43,28.35,,Overcast
KIGQ,07/29/2018 23:55 UTC,30.08,73.22,61.52,66.84,6.91,210.0,,,,,,803.0,1104.0,,,10.0,,KIGQ 292355Z AUTO 21006KT 10SM BKN080 OVC110 23/16 A3008 RMK AO2  T02290164 10254 20227,77.72,72.86,8000.0,,,61.5,,SSW,29.43,28.31,,Overcast
KIGQ,07/30/2018 00:15 UTC,30.08,71.96,62.24,71.52,5.75,190.0,,,,,,802.0,1102.0,,,10.0,,KIGQ 300015Z AUTO 19005KT 10SM SCT080 SCT110 22/17 A3008 RMK AO2  T02220168,,,,,,62.21,,S,29.43,28.29,,Partly Cloudy
KIGQ,07/30/2018 00:35 UTC,30.08,70.52,61.16,72.29,6.91,190.0,,,,,,1.0,,,,10.0,,KIGQ 300035Z AUTO 19006KT 10SM CLR 21/16 A3008 RMK AO2  T02140162,,,,,,61.13,,S,29.43,28.37,,Clear
KIGQ,07/30/2018 00:55 UTC,30.08,68.72,61.7,78.35,6.91,190.0,,,,,,1.0,,,,10.0,,KIGQ 300055Z AUTO 19006KT 10SM CLR 20/17 A3008 RMK AO2  T02040165,,,,,,61.67,,S,29.43,28.36,,Clear
KIGQ,07/30/2018 01:15 UTC,30.08,66.74,61.34,82.81,5.75,190.0,,,,,,1.0,,,,10.0,,KIGQ 300115Z AUTO 19005KT 10SM CLR 19/16 A3008 RMK AO2  T01930163,,,,,,61.31,,S,29.43,28.4,,Clear
KIGQ,07/30/2018 01:35 UTC,30.09,64.94,60.98,87.02,4.61,190.0,,,,,,1.0,,,,10.0,,KIGQ 300135Z AUTO 19004KT 10SM CLR 18/16 A3009 RMK AO2  T01830161,,,,,,60.96,,S,29.44,28.45,,Clear
KIGQ,07/30/2018 01:55 UTC,30.09,64.4,60.8,88.11,3.44,190.0,,,,,,1.0,,,,10.0,,KIGQ 300155Z AUTO 19003KT 10SM CLR 18/16 A3009 RMK AO2  T01800160,,,,,,60.78,,S,29.44,28.47,,Clear
KIGQ,07/30/2018 02:15 UTC,30.1,63.5,60.62,90.35,3.44,190.0,,,,,,1.0,,,,10.0,,KIGQ 300215Z AUTO 19003KT 10SM CLR 18/16 A3010 RMK AO2  T01750159,,,,,,60.6,,S,29.45,28.5,,Clear
KIGQ,07/30/2018 02:35 UTC,30.11,62.78,60.62,92.66,0.0,0.0,,,,,,1.0,,,,10.0,,KIGQ 300235Z AUTO 00000KT 10SM CLR 17/16 A3011 RMK AO2  T01710159,,,,,,60.61,,N,29.46,28.52,,Clear
KIGQ,07/30/2018 02:55 UTC,30.12,63.14,60.98,92.67,3.44,200.0,,,,,,1.0,,,,10.0,,KIGQ 300255Z AUTO 20003KT 10SM CLR 17/16 A3012 RMK AO2  T01730161,,,,,,60.97,,SSW,29.47,28.51,,Clear
KIGQ,07/30/2018 03:15 UTC,30.12,61.34,59.9,95.02,3.44,190.0,,,,,,1202.0,,,,10.0,,KIGQ 300315Z AUTO 19003KT 10SM SCT120 16/16 A3012 RMK AO2  T01630155,,,,,,59.89,,S,29.47,28.59,,Partly Cloudy
KIGQ,07/30/2018 03:35 UTC,30.12,62.24,60.98,95.65,0.0,0.0,,,,,,1204.0,,,,10.0,,KIGQ 300335Z AUTO 00000KT 10SM OVC120 17/16 A3012 RMK AO2  T01680161,,,12000.0,,,60.97,,N,29.47,28.52,,Overcast
KIGQ,07/30/2018 03:55 UTC,30.12,61.7,60.44,95.64,0.0,0.0,,,,,,1203.0,,,,10.0,,KIGQ 300355Z AUTO 00000KT 10SM BKN120 17/16 A3012 RMK AO2  T01650158,,,12000.0,,,60.43,,N,29.47,28.55,,Mostly Cloudy
KIGQ,07/30/2018 04:15 UTC,30.12,62.78,61.16,94.45,3.44,180.0,,,,,,1.0,,,,10.0,,KIGQ 300415Z AUTO 18003KT 10SM CLR 17/16 A3012 RMK AO2  T01710162,,,,,,61.15,,S,29.47,28.5,,Clear
KIGQ,07/30/2018 04:35 UTC,30.12,62.24,61.16,96.26,0.0,0.0,,,,,,1.0,,,,10.0,,KIGQ 300435Z AUTO 00000KT 10SM CLR 17/16 A3012 RMK AO2  T01680162,,,,,,61.15,,N,29.47,28.51,,Clear
KIGQ,07/30/2018 04:55 UTC,30.12,61.34,59.9,95.02,0.0,0.0,,,,,,1.0,,,,10.0,,KIGQ 300455Z AUTO 00000KT 10SM CLR 16/16 A3012 RMK AO2  T01630155,,,,,,59.89,,N,29.47,28.59,,Clear
KIGQ,07/30/2018 05:15 UTC,30.12,61.7,60.98,97.49,0.0,0.0,,,,,,1.0,,,,10.0,,KIGQ 300515Z AUTO 00000KT 10SM CLR 17/16 A3012 RMK AO2  T01650161,,,,,,60.98,,N,29.47,28.52,,Clear
KIGQ,07/30/2018 05:35 UTC,30.12,59.9,59.18,97.47,0.0,0.0,,,,,,1.0,,,,10.0,,KIGQ 300535Z AUTO 00000KT 10SM CLR 16/15 A3012 RMK AO2  T01550151,,,,,,59.17,,N,29.47,28.64,,Clear
KIGQ,07/30/2018 05:55 UTC,30.12,59.54,59.54,100.0,0.0,0.0,,,,,,1.0,,,,10.0,,KIGQ 300555Z AUTO 00000KT 10SM CLR 15/15 A3012 RMK AO2 LTG DSNT SW  T01530153 10227 20149 402540139,72.86,58.82,,77.72,57.02,59.54,,N,29.47,28.63,,Clear
KIGQ,07/30/2018 06:15 UTC,30.11,60.08,60.08,100.0,0.0,0.0,,,,,,1.0,,,,10.0,,KIGQ 300615Z AUTO 00000KT 10SM CLR 16/16 A3011 RMK AO2  T01560156,,,,,,60.08,,N,29.46,28.58,,Clear
KIGQ,07/30/2018 06:35 UTC,30.11,59.18,59.18,100.0,0.0,0.0,,,,,,1.0,,,,10.0,,KIGQ 300635Z AUTO 00000KT 10SM CLR 15/15 A3011 RMK AO2  T01510151,,,,,,59.18,,N,29.46,28.64,,Clear
KIGQ,07/30/2018 06:55 UTC,30.11,59.9,59.9,100.0,0.0,0.0,,,,,,1.0,,,,10.0,,KIGQ 300655Z AUTO 00000KT 10SM CLR 16/16 A3011 RMK AO2  T01550155,,,,,,59.9,,N,29.46,28.59,,Clear
KIGQ,07/30/2018 07:15 UTC,30.11,57.74,57.74,100.0,0.0,0.0,,31.0,,,,1.0,,,,5.0,,KIGQ 300715Z AUTO 00000KT 5SM BR CLR 14/14 A3011 RMK AO2  T01430143,,,,,,57.74,,N,29.46,28.72,,Mist
KIGQ,07/30/2018 07:35 UTC,30.11,57.56,57.56,100.0,0.0,0.0,,,,,,1.0,,,,7.0,,KIGQ 300735Z AUTO 00000KT 7SM CLR 14/14 A3011 RMK AO2  T01420142,,,,,,57.56,,N,29.46,28.73,,Clear
KIGQ,07/30/2018 07:55 UTC,30.11,59.0,59.0,100.0,0.0,0.0,,,,,,1.0,,,,7.0,,KIGQ 300755Z AUTO 00000KT 7SM CLR 15/15 A3011 RMK AO2  T01500150,,,,,,59.0,,N,29.46,28.65,,Clear
KIGQ,07/30/2018 08:15 UTC,30.11,59.18,59.18,100.0,0.0,0.0,,31.0,,,,1.0,,,,5.0,,KIGQ 300815Z AUTO 00000KT 5SM BR CLR 15/15 A3011 RMK AO2  T01510151,,,,,,59.18,,N,29.46,28.64,,Mist
KIGQ,07/30/2018 08:35 UTC,30.09,56.48,56.48,100.0,0.0,0.0,,31.0,,,,75.0,,,,1.0,,KIGQ 300835Z AUTO 00000KT 1SM BR VV007 14/14 A3009 RMK AO2  T01360136,,,700.0,,,56.48,,N,29.44,28.78,,Mist
KIGQ,07/30/2018 08:55 UTC,30.09,58.46,58.46,100.0,0.0,0.0,,31.0,,,,55.0,,,,0.75,,KIGQ 300855Z AUTO 00000KT 3/4SM BR VV005 15/15 A3009 RMK AO2  T01470147,,,500.0,,,58.46,,N,29.44,28.66,,Mist
KIGQ,07/30/2018 09:15 UTC,30.09,58.46,58.46,100.0,0.0,0.0,,31.0,,,,1.0,,,,5.0,,KIGQ 300915Z AUTO 00000KT 5SM BR CLR 15/15 A3009 RMK AO2 LTG DSNT  SW AND W T01470147,,,,,,58.46,,N,29.44,28.66,,Mist
KIGQ,07/30/2018 09:35 UTC,30.09,54.5,54.5,100.0,0.0,0.0,,31.0,,,,23.0,,,,1.0,,KIGQ 300935Z AUTO 00000KT 1SM BR BKN002 13/13 A3009 RMK AO2 VIS  1/2V5 T01250125,,,200.0,,,54.5,,N,29.44,28.88,,Mist
KIGQ,07/30/2018 09:55 UTC,30.08,55.94,55.94,100.0,0.0,0.0,,9.0,,,,23.0,,,,0.5,,KIGQ 300955Z AUTO 00000KT 1/2SM FG BKN002 13/13 A3008 RMK AO2  T01330133,,,200.0,,,55.94,,N,29.43,28.8,,Fog
KIGQ,07/30/2018 10:15 UTC,30.08,56.12,56.12,100.0,0.0,0.0,,31.0,,,,23.0,,,,0.75,,KIGQ 301015Z AUTO 00000KT 3/4SM BR BKN002 13/13 A3008 RMK AO2  T01340134,,,200.0,,,56.12,,N,29.43,28.79,,Mist
KIGQ,07/30/2018 10:35 UTC,30.08,57.2,57.2,100.0,0.0,0.0,,,,,,1.0,,,,10.0,,KIGQ 301035Z AUTO 00000KT 10SM CLR 14/14 A3008 RMK AO2  T01400140,,,,,,57.2,,N,29.43,28.72,,Clear
KIGQ,07/30/2018 10:55 UTC,30.08,58.28,58.28,100.0,0.0,0.0,,,,,,1.0,,,,10.0,,KIGQ 301055Z AUTO 00000KT 10SM CLR 15/15 A3008 RMK AO2  T01460146,,,,,,58.28,,N,29.43,28.66,,Clear
KIGQ,07/30/2018 11:15 UTC,30.09,57.38,57.38,100.0,0.0,0.0,,,,,,1.0,,,,10.0,,KIGQ 301115Z AUTO 00000KT 10SM CLR 14/14 A3009 RMK AO2  T01410141,,,,,,57.38,,N,29.44,28.72,,Clear
KIGQ,07/30/2018 11:35 UTC,30.1,57.2,57.2,100.0,0.0,0.0,,,,,,1.0,,,,10.0,,KIGQ 301135Z AUTO 00000KT 10SM CLR 14/14 A3010 RMK AO2 LTG DSNT S  T01400140,,,,,,57.2,,N,29.45,28.75,,Clear
KIGQ,07/30/2018 11:55 UTC,30.1,58.28,58.28,100.0,0.0,0.0,,,,,,1.0,,,,10.0,,KIGQ 301155Z AUTO 00000KT 10SM CLR 15/15 A3010 RMK AO2 T01460146  10157 20124,60.26,54.32,,,,58.28,,N,29.45,28.68,,Clear
KIGQ,07/30/2018 12:15 UTC,30.11,59.36,59.36,100.0,0.0,0.0,,,,,,1.0,,,,10.0,,KIGQ 301215Z AUTO 00000KT 10SM CLR 15/15 A3011 RMK AO2  T01520152,,,,,,59.36,,N,29.46,28.63,,Clear
KIGQ,07/30/2018 12:35 UTC,30.1,59.0,59.0,100.0,0.0,0.0,,,,,,1.0,,,,7.0,,KIGQ 301235Z AUTO 00000KT 7SM CLR 15/15 A3010 RMK AO2  T01500150,,,,,,59.0,,N,29.45,28.64,,Clear
KIGQ,07/30/2018 12:55 UTC,30.09,60.08,60.08,100.0,0.0,0.0,,,,,,1.0,,,,10.0,,KIGQ 301255Z AUTO 00000KT 10SM CLR 16/16 A3009 RMK AO2  T01560156,,,,,,60.08,,N,29.44,28.56,,Clear
KIGQ,07/30/2018 13:15 UTC,30.09,61.52,61.52,100.0,0.0,0.0,,,,,,1.0,,,,10.0,,KIGQ 301315Z AUTO 00000KT 10SM CLR 16/16 A3009 RMK AO2  T01640164,,,,,,61.52,,N,29.44,28.47,,Clear
KIGQ,07/30/2018 13:35 UTC,30.09,64.58,63.5,96.3,3.44,70.0,,,,,,1.0,,,,10.0,,KIGQ 301335Z AUTO 07003KT 10SM CLR 18/18 A3009 RMK AO2  T01810175,,,,,,63.49,,ENE,29.44,28.32,,Clear
KIGQ,07/30/2018 13:55 UTC,30.09,67.46,63.5,87.16,3.44,90.0,,,,,,1.0,,,,10.0,,KIGQ 301355Z AUTO 09003KT 10SM CLR 20/18 A3009 RMK AO2  T01970175,,,,,,63.48,,E,29.44,28.28,,Clear
KIGQ,07/30/2018 14:15 UTC,30.09,69.8,62.78,78.44,3.44,100.0,,,,,,1.0,,,,10.0,,KIGQ 301415Z AUTO 10003KT 10SM CLR 21/17 A3009 RMK AO2  T02100171,,,,,,62.76,,E,29.44,28.29,,Clear
KIGQ,07/30/2018 14:35 UTC,30.1,70.88,62.24,74.19,4.61,90.0,,,,,,1.0,,,,10.0,,KIGQ 301435Z AUTO 09004KT 10SM CLR 22/17 A3010 RMK AO2  T02160168,,,,,,62.21,,E,29.45,28.32,,Clear
KIGQ,07/30/2018 14:55 UTC,30.1,71.6,61.52,70.59,4.61,110.0,,,,,,1.0,,,,10.0,,KIGQ 301455Z AUTO 11004KT 10SM CLR 22/16 A3010 RMK AO2  T02200164,,,,,,61.49,,ESE,29.45,28.35,,Clear
KIGQ,07/30/2018 15:15 UTC,30.11,72.5,62.24,70.23,3.44,100.0,,,,,,1.0,,,,10.0,,KIGQ 301515Z AUTO 10003KT 10SM CLR 23/17 A3011 RMK AO2  T02250168,,,,,,62.21,,E,29.46,28.31,,Clear
KIGQ,07/30/2018 15:35 UTC,30.1,73.04,62.42,69.41,3.44,140.0,,,,,,1.0,,,,10.0,,KIGQ 301535Z AUTO 14003KT 10SM CLR 23/17 A3010 RMK AO2  T02280169,,,,,,62.4,,SE,29.45,28.28,,Clear
KIGQ,07/30/2018 15:55 UTC,30.1,73.94,62.6,67.77,0.0,0.0,,,,,,1.0,,,,10.0,,KIGQ 301555Z AUTO 00000KT 10SM CLR 23/17 A3010 RMK AO2  T02330170,,,,,,62.58,,N,29.45,28.26,,Clear
KIGQ,07/30/2018 16:15 UTC,30.1,73.76,62.6,68.18,4.61,90.0,,,,,,342.0,412.0,,,10.0,,KIGQ 301615Z AUTO 09004KT 10SM SCT034 SCT041 23/17 A3010 RMK AO2  T02320170,,,,,,62.58,,E,29.45,28.27,,Partly Cloudy
KIGQ,07/30/2018 16:35 UTC,30.1,76.1,63.86,65.91,6.91,130.0,,,,,,343.0,413.0,,,10.0,,KIGQ 301635Z AUTO 13006KT 10SM BKN034 BKN041 25/18 A3010 RMK AO2  T02450177,,,3400.0,,,63.85,,SE,29.45,28.16,,Mostly Cloudy
KIGQ,07/30/2018 16:55 UTC,30.1,75.38,63.14,65.83,4.61,110.0,,,,,,362.0,433.0,,,10.0,,KIGQ 301655Z AUTO 11004KT 10SM SCT036 BKN043 24/17 A3010 RMK AO2  T02410173,,,4300.0,,,63.13,,ESE,29.45,28.21,,Mostly Cloudy
KIGQ,07/30/2018 17:15 UTC,30.09,74.66,62.24,65.33,0.0,0.0,,,703.0,,,363.0,433.0,,,10.0,,KIGQ 301715Z AUTO 00000KT 10SM BKN036 BKN043 BKN070 24/17 A3009 RMK AO2 T02370168,,,3600.0,,,62.22,,N,29.44,28.27,,Mostly Cloudy
KIGQ,07/30/2018 17:55 UTC,30.08,74.66,62.78,66.58,5.75,40.0,,,704.0,,,403.0,493.0,,,10.0,,KIGQ 301755Z AUTO 04005KT 10SM BKN040 BKN049 OVC070 24/17 A3008 RMK AO2 T02370171 10245 20146,76.1,58.28,4000.0,,,62.76,,NE,29.43,28.22,,Overcast
KIGQ,07/30/2018 18:15 UTC,30.08,76.28,63.86,65.52,5.75,60.0,,,803.0,,,382.0,602.0,,,10.0,,KIGQ 301815Z AUTO 06005KT 10SM SCT038 SCT060 BKN080 25/18 A3008 RMK AO2 T02460177,,,8000.0,,,63.85,,ENE,29.43,28.14,,Mostly Cloudy
KIGQ,07/30/2018 18:35 UTC,30.07,77.54,64.22,63.64,4.61,30.0,,,,,,382.0,553.0,,,10.0,,KIGQ 301835Z AUTO 03004KT 10SM SCT038 BKN055 25/18 A3007 RMK AO2  T02530179,,,5500.0,,,64.22,,NNE,29.42,28.09,,Mostly Cloudy
KIGQ,07/30/2018 18:55 UTC,30.07,77.0,64.04,64.38,5.75,20.0,,,,,,383.0,553.0,,,10.0,,KIGQ 301855Z AUTO 02005KT 10SM BKN038 BKN055 25/18 A3007 RMK AO2  T02500178,,,3800.0,,,64.03,,NNE,29.42,28.11,,Mostly Cloudy
KIGQ,07/30/2018 19:15 UTC,30.07,76.1,63.86,65.91,4.61,70.0,,,,,,382.0,,,,10.0,,KIGQ 301915Z AUTO 07004KT 10SM SCT038 25/18 A3007 RMK AO2  T02450177,,,,,,63.85,,ENE,29.42,28.13,,Partly Cloudy
KIGQ,07/30/2018 19:35 UTC,30.06,76.28,63.86,65.52,8.05,30.0,,,,,,1.0,,,,10.0,,KIGQ 301935Z AUTO 03007KT 10SM CLR 25/18 A3006 RMK AO2  T02460177,,,,,,63.85,,NNE,29.41,28.12,,Clear
KIGQ,07/30/2018 19:55 UTC,30.06,77.18,63.86,63.6,5.75,60.0,,,,,,382.0,492.0,,,10.0,,KIGQ 301955Z AUTO 06005KT 10SM SCT038 SCT049 25/18 A3006 RMK AO2  T02510177,,,,,,63.86,,ENE,29.41,28.11,,Partly Cloudy
KIGQ,07/30/2018 20:15 UTC,30.06,76.46,63.14,63.51,6.91,70.0,,,,,,1.0,,,,10.0,,KIGQ 302015Z AUTO 07006KT 10SM CLR 25/17 A3006 RMK AO2  T02470173,,,,,,63.13,,ENE,29.41,28.16,,Clear
KIGQ,07/30/2018 20:35 UTC,30.05,77.36,63.86,63.22,6.91,30.0,,,,,,1.0,,,,10.0,,KIGQ 302035Z AUTO 03006KT 10SM CLR 25/18 A3005 RMK AO2  T02520177,,,,,,63.86,,NNE,29.4,28.1,,Clear
KIGQ,07/30/2018 20:55 UTC,30.05,76.64,63.14,63.13,8.05,70.0,,,,,,1.0,,,,10.0,,KIGQ 302055Z AUTO 07007KT 10SM CLR 25/17 A3005 RMK AO2  T02480173,,,,,,63.13,,ENE,29.4,28.15,,Clear
KIGQ,07/30/2018 21:15 UTC,30.05,77.0,62.96,61.99,5.75,40.0,,,,,,1.0,,,,10.0,,KIGQ 302115Z AUTO 04005KT 10SM CLR 25/17 A3005 RMK AO2  T02500172,,,,,,62.95,,NE,29.4,28.16,,Clear
KIGQ,07/30/2018 21:35 UTC,30.05,76.64,62.96,62.73,9.22,40.0,,,,,,1.0,,,,10.0,,KIGQ 302135Z AUTO 04008KT 10SM CLR 25/17 A3005 RMK AO2  T02480172,,,,,,62.95,,NE,29.4,28.16,,Clear
KIGQ,07/30/2018 21:55 UTC,30.04,76.46,62.96,63.11,8.05,40.0,,,,,,1.0,,,,10.0,,KIGQ 302155Z AUTO 04007KT 10SM CLR 25/17 A3004 RMK AO2  T02470172,,,,,,62.95,,NE,29.39,28.15,,Clear
KIGQ,07/30/2018 22:15 UTC,30.04,75.92,62.24,62.64,6.91,50.0,,,,,,1.0,,,,10.0,,KIGQ 302215Z AUTO 05006KT 10SM CLR 24/17 A3004 RMK AO2  T02440168,,,,,,62.23,,NE,29.39,28.2,,Clear
KIGQ,07/30/2018 22:35 UTC,30.04,75.56,62.06,63.0,6.91,50.0,,,,,,1.0,,,,10.0,,KIGQ 302235Z AUTO 05006KT 10SM CLR 24/17 A3004 RMK AO2  T02420167,,,,,,62.05,,NE,29.39,28.22,,Clear
KIGQ,07/30/2018 22:55 UTC,30.04,75.2,61.88,63.35,8.05,60.0,,,,,,1.0,,,,10.0,,KIGQ 302255Z AUTO 06007KT 10SM CLR 24/17 A3004 RMK AO2  T02400166,,,,,,61.86,,ENE,29.39,28.23,,Clear
KIGQ,07/30/2018 23:15 UTC,30.04,75.2,61.7,62.95,9.22,50.0,,,,,,1.0,,,,10.0,,KIGQ 302315Z AUTO 05008KT 10SM CLR 24/17 A3004 RMK AO2  T02400165,,,,,,61.68,,NE,29.39,28.24,,Clear
KIGQ,07/30/2018 23:35 UTC,30.03,74.66,61.88,64.5,6.91,50.0,,,,,,1.0,,,,10.0,,KIGQ 302335Z AUTO 05006KT 10SM CLR 24/17 A3003 RMK AO2  T02370166,,,,,,61.86,,NE,29.38,28.23,,Clear
KIGQ,07/30/2018 23:55 UTC,30.03,74.12,61.52,64.85,8.05,50.0,,,,,,1.0,,,,10.0,,KIGQ 302355Z AUTO 05007KT 10SM CLR 23/16 A3003 RMK AO2 T02340164  10253 20234,77.54,74.12,,,,61.5,,NE,29.38,28.25,,Clear
KIGQ,07/31/2018 00:15 UTC,30.03,73.4,62.6,69.01,3.44,50.0,,,,,,1.0,,,,10.0,,KIGQ 310015Z AUTO 05003KT 10SM CLR 23/17 A3003 RMK AO2  T02300170,,,,,,62.58,,NE,29.38,28.2,,Clear
KIGQ,07/31/2018 00:35 UTC,30.03,72.5,61.7,68.91,9.22,50.0,,,,,,1.0,,,,10.0,,KIGQ 310035Z AUTO 05008KT 10SM CLR 23/17 A3003 RMK AO2  T02250165,,,,,,61.67,,NE,29.38,28.26,,Clear
KIGQ,07/31/2018 00:55 UTC,30.04,71.96,61.88,70.62,4.61,50.0,,,,,,1.0,,,,10.0,,KIGQ 310055Z AUTO 05004KT 10SM CLR 22/17 A3004 RMK AO2  T02220166,,,,,,61.85,,NE,29.39,28.27,,Clear
KIGQ,07/31/2018 01:15 UTC,30.04,71.6,62.6,73.32,4.61,60.0,,,,,,443.0,,,,10.0,,KIGQ 310115Z AUTO 06004KT 10SM BKN044 22/17 A3004 RMK AO2  T02200170,,,4400.0,,,62.57,,ENE,29.39,28.23,,Mostly Cloudy
KIGQ,07/31/2018 01:35 UTC,30.04,71.24,63.14,75.64,4.61,50.0,,,,,,444.0,,,,10.0,,KIGQ 310135Z AUTO 05004KT 10SM OVC044 22/17 A3004 RMK AO2  T02180173,,,4400.0,,,63.11,,NE,29.39,28.2,,Overcast
KIGQ,07/31/2018 01:55 UTC,30.05,70.34,63.14,77.99,4.61,80.0,,,,,,462.0,,,,10.0,,KIGQ 310155Z AUTO 08004KT 10SM SCT046 21/17 A3005 RMK AO2  T02130173,,,,,,63.12,,E,29.4,28.22,,Partly Cloudy
KIGQ,07/31/2018 02:15 UTC,30.05,69.98,63.32,79.45,4.61,80.0,,,,,,1.0,,,,10.0,,KIGQ 310215Z AUTO 08004KT 10SM CLR 21/17 A3005 RMK AO2  T02110174,,,,,,63.3,,E,29.4,28.22,,Clear
KIGQ,07/31/2018 02:35 UTC,30.05,69.8,63.32,79.94,3.44,20.0,,,,,,1.0,,,,10.0,,KIGQ 310235Z AUTO 02003KT 10SM CLR 21/17 A3005 RMK AO2  T02100174,,,,,,63.3,,NNE,29.4,28.22,,Clear
KIGQ,07/31/2018 02:55 UTC,30.06,69.26,63.5,81.94,0.0,0.0,,,,,,1.0,,,,10.0,,KIGQ 310255Z AUTO 00000KT 10SM CLR 21/18 A3006 RMK AO2  T02070175,,,,,,63.48,,N,29.41,28.23,,Clear
KIGQ,07/31/2018 03:15 UTC,30.05,68.36,63.32,83.97,0.0,0.0,,,,,,1.0,,,,10.0,,KIGQ 310315Z AUTO 00000KT 10SM CLR 20/17 A3005 RMK AO2  T02020174,,,,,,63.3,,N,29.4,28.24,,Clear
KIGQ,07/31/2018 03:35 UTC,30.05,68.18,63.5,85.03,0.0,0.0,,,,,,1.0,,,,10.0,,KIGQ 310335Z AUTO 00000KT 10SM CLR 20/18 A3005 RMK AO2  T02010175,,,,,,63.48,,N,29.4,28.23,,Clear
KIGQ,07/31/2018 03:55 UTC,30.06,68.36,63.86,85.57,0.0,0.0,,,,,,1.0,,,,10.0,,KIGQ 310355Z AUTO 00000KT 10SM CLR 20/18 A3006 RMK AO2  T02020177,,,,,,63.84,,N,29.41,28.22,,Clear
KIGQ,07/31/2018 04:15 UTC,30.06,67.82,64.04,87.72,0.0,0.0,,,,,,1.0,,,,10.0,,KIGQ 310415Z AUTO 00000KT 10SM CLR 20/18 A3006 RMK AO2  T01990178,,,,,,64.02,,N,29.41,28.21,,Clear
KIGQ,07/31/2018 04:35 UTC,30.06,67.46,63.86,88.26,0.0,0.0,,,,,,1.0,,,,10.0,,KIGQ 310435Z AUTO 00000KT 10SM CLR 20/18 A3006 RMK AO2  T01970177,,,,,,63.84,,N,29.41,28.23,,Clear
KIGQ,07/31/2018 04:55 UTC,30.07,65.66,63.32,92.17,0.0,0.0,,,,,,1.0,,,,10.0,,KIGQ 310455Z AUTO 00000KT 10SM CLR 19/17 A3007 RMK AO2  T01870174,,,,,,63.31,,N,29.42,28.29,,Clear
KIGQ,07/31/2018 05:15 UTC,30.06,64.58,63.32,95.69,0.0,0.0,,,,,,1.0,,,,10.0,,KIGQ 310515Z AUTO 00000KT 10SM CLR 18/17 A3006 RMK AO2  T01810174,,,,,,63.31,,N,29.41,28.3,,Clear
KIGQ,07/31/2018 05:35 UTC,30.06,65.48,63.5,93.33,0.0,0.0,,,,,,1.0,,,,10.0,,KIGQ 310535Z AUTO 00000KT 10SM CLR 19/18 A3006 RMK AO2  T01860175,,,,,,63.49,,N,29.41,28.27,,Clear
KIGQ,07/31/2018 05:55 UTC,30.06,64.58,63.5,96.3,0.0,0.0,,,,,,1.0,,,,10.0,,KIGQ 310555Z AUTO 00000KT 10SM CLR 18/18 A3006 RMK AO2 T01810175  10233 20180 402530124,73.94,64.4,,77.54,54.32,63.49,,N,29.41,28.29,,Clear
KIGQ,07/31/2018 06:15 UTC,30.06,64.58,63.5,96.3,0.0,0.0,,,,,,1102.0,,,,10.0,,KIGQ 310615Z AUTO 00000KT 10SM SCT110 18/18 A3006 RMK AO2  T01810175,,,,,,63.49,,N,29.41,28.29,,Partly Cloudy
KIGQ,07/31/2018 06:35 UTC,30.06,64.58,63.32,95.69,0.0,0.0,,,,,,1.0,,,,10.0,,KIGQ 310635Z AUTO 00000KT 10SM CLR 18/17 A3006 RMK AO2  T01810174,,,,,,63.31,,N,29.41,28.3,,Clear
KIGQ,07/31/2018 06:55 UTC,30.06,62.42,61.34,96.26,0.0,0.0,,,,,,1.0,,,,10.0,,KIGQ 310655Z AUTO 00000KT 10SM CLR 17/16 A3006 RMK AO2  T01690163,,,,,,61.33,,N,29.41,28.44,,Clear
KIGQ,07/31/2018 07:15 UTC,30.05,61.7,61.52,99.37,0.0,0.0,,,,,,1.0,,,,10.0,,KIGQ 310715Z AUTO 00000KT 10SM CLR 17/16 A3005 RMK AO2  T01650164,,,,,,61.52,,N,29.4,28.42,,Clear
KIGQ,07/31/2018 07:35 UTC,30.04,61.88,61.88,100.0,0.0,0.0,,,,,,1.0,,,,10.0,,KIGQ 310735Z AUTO 00000KT 10SM CLR 17/17 A3004 RMK AO2  T01660166,,,,,,61.88,,N,29.39,28.39,,Clear
KIGQ,07/31/2018 07:55 UTC,30.04,62.06,61.7,98.74,0.0,0.0,,,,,,1.0,,,,10.0,,KIGQ 310755Z AUTO 00000KT 10SM CLR 17/17 A3004 RMK AO2  T01670165,,,,,,61.7,,N,29.39,28.4,,Clear
KIGQ,07/31/2018 08:15 UTC,30.04,60.8,60.62,99.36,0.0,0.0,,,,,,1.0,,,,10.0,,KIGQ 310815Z AUTO 00000KT 10SM CLR 16/16 A3004 RMK AO2  T01600159,,,,,,60.62,,N,29.39,28.47,,Clear
KIGQ,07/31/2018 08:35 UTC,30.03,62.78,62.24,98.12,0.0,0.0,,,,,,492.0,,,,10.0,,KIGQ 310835Z AUTO 00000KT 10SM SCT049 17/17 A3003 RMK AO2  T01710168,,,,,,62.24,,N,29.38,28.35,,Partly Cloudy
KIGQ,07/31/2018 08:55 UTC,30.03,62.06,61.88,99.37,0.0,0.0,,,,,,1202.0,,,,10.0,,KIGQ 310855Z AUTO 00000KT 10SM SCT120 17/17 A3003 RMK AO2  T01670166,,,,,,61.88,,N,29.38,28.38,,Partly Cloudy
KIGQ,07/31/2018 09:15 UTC,30.02,61.16,61.16,100.0,0.0,0.0,,,,,,1202.0,,,,10.0,,KIGQ 310915Z AUTO 00000KT 10SM SCT120 16/16 A3002 RMK AO2  T01620162,,,,,,61.16,,N,29.37,28.42,,Partly Cloudy
KIGQ,07/31/2018 09:35 UTC,30.02,61.7,61.7,100.0,0.0,0.0,,31.0,,,,1202.0,,,,5.0,,KIGQ 310935Z AUTO 00000KT 5SM BR SCT120 17/17 A3002 RMK AO2  T01650165,,,,,,61.7,,N,29.37,28.38,,Mist
KIGQ,07/31/2018 09:55 UTC,30.01,62.6,62.6,100.0,0.0,0.0,,,,,,1202.0,,,,10.0,,KIGQ 310955Z AUTO 00000KT 10SM SCT120 17/17 A3001 RMK AO2  T01700170,,,,,,62.6,,N,29.36,28.31,,Partly Cloudy
KIGQ,07/31/2018 10:15 UTC,30.01,62.24,62.24,100.0,0.0,0.0,,,,,,1.0,,,,10.0,,KIGQ 311015Z AUTO 00000KT 10SM CLR 17/17 A3001 RMK AO2  T01680168,,,,,,62.24,,N,29.36,28.34,,Clear
KIGQ,07/31/2018 10:35 UTC,30.01,62.06,62.06,100.0,0.0,0.0,,,,,,1.0,,,,10.0,,KIGQ 311035Z AUTO 00000KT 10SM CLR 17/17 A3001 RMK AO2  T01670167,,,,,,62.06,,N,29.36,28.35,,Clear
KIGQ,07/31/2018 10:55 UTC,30.01,61.16,61.16,100.0,0.0,0.0,,,,,,1.0,,,,7.0,,KIGQ 311055Z AUTO 00000KT 7SM CLR 16/16 A3001 RMK AO2  T01620162,,,,,,61.16,,N,29.36,28.41,,Clear
KIGQ,07/31/2018 11:15 UTC,30.02,61.52,61.52,100.0,0.0,0.0,,,,,,1202.0,,,,7.0,,KIGQ 311115Z AUTO 00000KT 7SM SCT120 16/16 A3002 RMK AO2  T01640164,,,,,,61.52,,N,29.37,28.4,,Partly Cloudy
KIGQ,07/31/2018 11:35 UTC,30.03,62.24,62.24,100.0,0.0,0.0,,,,,,1202.0,,,,10.0,,KIGQ 311135Z AUTO 00000KT 10SM SCT120 17/17 A3003 RMK AO2  T01680168,,,,,,62.24,,N,29.38,28.36,,Partly Cloudy
KIGQ,07/31/2018 11:55 UTC,30.03,64.22,64.22,100.0,0.0,0.0,,,,,,1.0,,,,10.0,,KIGQ 311155Z AUTO 00000KT 10SM CLR 18/18 A3003 RMK AO2 T01790179  10184 20160,65.12,60.8,,,,64.22,,N,29.38,28.22,,Clear
KIGQ,07/31/2018 12:15 UTC,30.03,64.76,64.76,100.0,0.0,0.0,,,,,,1.0,,,,10.0,,KIGQ 311215Z AUTO 00000KT 10SM CLR 18/18 A3003 RMK AO2  T01820182,,,,,,64.76,,N,29.38,28.18,,Clear
KIGQ,07/31/2018 12:35 UTC,30.02,66.2,65.3,96.93,0.0,0.0,,,,,,1.0,,,,10.0,,KIGQ 311235Z AUTO 00000KT 10SM CLR 19/19 A3002 RMK AO2  T01900185,,,,,,65.3,,N,29.37,28.12,,Clear
KIGQ,07/31/2018 12:55 UTC,30.03,67.1,66.2,96.94,0.0,0.0,,,,,,1.0,,,,10.0,,KIGQ 311255Z AUTO 00000KT 10SM CLR 20/19 A3003 RMK AO2  T01950190,,,,,,66.2,,N,29.38,28.06,,Clear
KIGQ,07/31/2018 13:15 UTC,30.03,67.46,66.2,95.74,3.44,140.0,,,,,,1.0,,,,10.0,,KIGQ 311315Z AUTO 14003KT 10SM CLR 20/19 A3003 RMK AO2  T01970190,,,,,,66.19,,SE,29.38,28.05,,Clear
KIGQ,07/31/2018 13:35 UTC,30.03,66.92,64.76,92.79,0.0,0.0,,,,,,1.0,,,,10.0,,KIGQ 311335Z AUTO 00000KT 10SM CLR 19/18 A3003 RMK AO2  T01940182,,,,,,64.75,,N,29.38,28.15,,Clear
KIGQ,07/31/2018 13:55 UTC,30.04,68.0,64.58,88.84,0.0,0.0,,,,,,1.0,,,,10.0,,KIGQ 311355Z AUTO 00000KT 10SM CLR 20/18 A3004 RMK AO2  T02000181,,,,,,64.56,,N,29.39,28.16,,Clear
KIGQ,07/31/2018 14:15 UTC,30.04,68.9,65.3,88.33,0.0,0.0,,,,,,1.0,,,,10.0,,KIGQ 311415Z AUTO 00000KT 10SM CLR 21/19 A3004 RMK AO2  T02050185,,,,,,65.29,,N,29.39,28.1,,Clear
KIGQ,07/31/2018 14:35 UTC,30.04,69.8,62.78,78.44,0.0,0.0,,,,,,1.0,,,,10.0,,KIGQ 311435Z AUTO 00000KT 10SM CLR 21/17 A3004 RMK AO2  T02100171,,,,,,62.76,,N,29.39,28.24,,Clear
KIGQ,07/31/2018 14:55 UTC,30.04,70.34,61.34,73.2,0.0,0.0,,,,,,1.0,,,,10.0,,KIGQ 311455Z AUTO 00000KT 10SM CLR 21/16 A3004 RMK AO2  T02130163,,,,,,61.31,,N,29.39,28.32,,Clear
KIGQ,07/31/2018 15:15 UTC,30.04,71.42,62.78,74.24,0.0,0.0,,,,,,1102.0,,,,10.0,,KIGQ 311515Z AUTO 00000KT 10SM SCT110 22/17 A3004 RMK AO2  T02190171,,,,,,62.76,,N,29.39,28.22,,Partly Cloudy
KIGQ,07/31/2018 15:35 UTC,30.03,73.4,63.14,70.33,4.61,30.0,,,,,,1203.0,,,,10.0,,KIGQ 311535Z AUTO 03004KT 10SM BKN120 23/17 A3003 RMK AO2  T02300173,,,12000.0,,,63.12,,NNE,29.38,28.17,,Mostly Cloudy
KIGQ,07/31/2018 15:55 UTC,30.03,73.58,63.68,71.24,5.75,40.0,,,,,,1102.0,,,,10.0,,KIGQ 311555Z AUTO 04005KT 10SM SCT110 23/18 A3003 RMK AO2  T02310176,,,,,,63.66,,NE,29.38,28.13,,Partly Cloudy
KIGQ,07/31/2018 16:15 UTC,30.04,73.04,62.78,70.29,6.91,90.0,,,,,,1.0,,,,10.0,,KIGQ 311615Z AUTO 09006KT 10SM CLR 23/17 A3004 RMK AO2  T02280171,,,,,,62.76,,E,29.39,28.2,,Clear
KIGQ,07/31/2018 16:35 UTC,30.03,73.76,63.86,71.26,6.91,110.0,,,,,,1.0,,,,10.0,,KIGQ 311635Z AUTO 11006KT 10SM CLR 23/18 A3003 RMK AO2  T02320177,,,,,,63.84,,ESE,29.38,28.12,,Clear
KIGQ,07/31/2018 16:55 UTC,30.03,74.12,63.32,69.09,3.44,120.0,,,,,,332.0,603.0,,,10.0,,KIGQ 311655Z AUTO 12003KT 10SM SCT033 BKN060 23/17 A3003 RMK AO2  T02340174,,,6000.0,,,63.3,,ESE,29.38,28.15,,Mostly Cloudy
KIGQ,07/31/2018 17:15 UTC,30.02,75.02,63.32,67.04,0.0,0.0,,,1003.0,,,332.0,603.0,,,10.0,,KIGQ 311715Z AUTO 00000KT 10SM SCT033 BKN060 BKN100 24/17 A3002 RMK AO2 T02390174,,,6000.0,,,63.3,,N,29.37,28.13,,Mostly Cloudy
KIGQ,07/31/2018 17:35 UTC,30.01,75.2,64.76,70.08,5.75,50.0,,,1003.0,,,332.0,603.0,,,10.0,,KIGQ 311735Z AUTO 05005KT 10SM SCT033 BKN060 BKN100 24/18 A3001 RMK AO2 T02400182,,,6000.0,,,64.75,,NE,29.36,28.02,,Mostly Cloudy
KIGQ,07/31/2018 17:55 UTC,30.01,76.28,63.5,64.7,4.61,20.0,,,903.0,,,332.0,602.0,,,10.0,,KIGQ 311755Z AUTO 02004KT 10SM SCT033 SCT060 BKN090 25/18 A3001 RMK AO2 T02460175 10247 20180,76.46,64.4,9000.0,,,63.49,,NNE,29.36,28.09,,Mostly Cloudy
KIGQ,07/31/2018 18:15 UTC,30.01,75.2,63.14,66.22,6.91,70.0,,,804.0,,,352.0,703.0,,,10.0,,KIGQ 311815Z AUTO 07006KT 10SM SCT035 BKN070 OVC080 24/17 A3001 RMK AO2 T02400173,,,7000.0,,,63.12,,ENE,29.36,28.12,,Overcast
KIGQ,07/31/2018 18:35 UTC,30.0,75.56,62.42,63.8,8.05,60.0,,,,,,704.0,,,,10.0,,KIGQ 311835Z AUTO 06007KT 10SM OVC070 24/17 A3000 RMK AO2  T02420169,,,7000.0,,,62.41,,ENE,29.35,28.15,,Overcast
KIGQ,07/31/2018 18:55 UTC,30.0,75.38,61.88,62.97,4.61,40.0,,,,,,702.0,,,,10.0,,KIGQ 311855Z AUTO 04004KT 10SM SCT070 24/17 A3000 RMK AO2  T02410166,,,,,,61.86,,NE,29.35,28.19,,Partly Cloudy
KIGQ,07/31/2018 19:15 UTC,29.99,76.1,62.6,63.06,5.75,20.0,,,,,,1102.0,,,,10.0,,KIGQ 311915Z AUTO 02005KT 10SM SCT110 25/17 A2999 RMK AO2  T02450170,,,,,,62.59,,NNE,29.34,28.13,,Partly Cloudy
KIGQ,07/31/2018 19:35 UTC,29.98,74.48,60.44,61.67,8.05,20.0,,,,,,1.0,,,,10.0,,KIGQ 311935Z AUTO 02007KT 10SM CLR 24/16 A2998 RMK AO2  T02360158,,,,,,60.42,,NNE,29.33,28.26,,Clear
KIGQ,07/31/2018 19:55 UTC,29.98,73.94,61.16,64.42,5.75,50.0,,,,,,1.0,,,,10.0,,KIGQ 311955Z AUTO 05005KT 10SM CLR 23/16 A2998 RMK AO2  T02330162,,,,,,61.14,,NE,29.33,28.23,,Clear
KIGQ,07/31/2018 20:15 UTC,29.98,74.12,62.24,66.52,6.91,60.0,,,,,,1.0,,,,10.0,,KIGQ 312015Z AUTO 06006KT 10SM CLR 23/17 A2998 RMK AO2  T02340168,,,,,,62.22,,ENE,29.33,28.16,,Clear
KIGQ,07/31/2018 20:35 UTC,29.99,74.12,63.68,69.97,6.91,50.0,,,,,,322.0,752.0,,,10.0,,KIGQ 312035Z AUTO 05006KT 10SM SCT032 SCT075 23/18 A2999 RMK AO2  T02340176,,,,,,63.66,,NE,29.34,28.08,,Partly Cloudy
KIGQ,07/31/2018 20:55 UTC,29.98,73.4,63.68,71.67,3.44,30.0,,,,,,322.0,754.0,,,10.0,,KIGQ 312055Z AUTO 03003KT 10SM SCT032 OVC075 23/18 A2998 RMK AO2  T02300176,,,7500.0,,,63.66,,NNE,29.33,28.08,,Overcast
KIGQ,07/31/2018 21:15 UTC,29.98,72.68,64.04,74.36,4.61,20.0,,13.0,1104.0,,,322.0,753.0,,,10.0,,KIGQ 312115Z AUTO 02004KT 10SM -RA SCT032 BKN075 OVC110 23/18  A2998 RMK AO2 T02260178,,,7500.0,,,64.02,,NNE,29.33,28.07,,Light Rain
KIGQ,07/31/2018 21:35 UTC,29.98,72.5,64.04,74.81,8.05,10.0,,13.0,,,,752.0,1103.0,,,10.0,,KIGQ 312135Z AUTO 01007KT 10SM -RA SCT075 BKN110 23/18 A2998 RMK AO2 T02250178,,,11000.0,,,64.02,,N,29.33,28.07,,Light Rain
KIGQ,07/31/2018 21:55 UTC,29.99,72.5,64.4,75.76,3.44,10.0,,,,,,753.0,1103.0,,,10.0,,KIGQ 312155Z AUTO 01003KT 10SM BKN075 BKN110 23/18 A2999 RMK AO2  T02250180,,,7500.0,,,64.38,,N,29.34,28.06,,Mostly Cloudy
KIGQ,07/31/2018 22:15 UTC,29.99,72.14,63.86,75.25,4.61,50.0,,13.0,,,,272.0,754.0,,,10.0,,KIGQ 312215Z AUTO 05004KT 10SM -RA SCT027 OVC075 22/18 A2999 RMK AO2 T02230177,,,7500.0,,,63.84,,NE,29.34,28.1,,Light Rain
KIGQ,07/31/2018 22:35 UTC,29.98,71.6,64.76,79.08,3.44,40.0,,13.0,,,,853.0,1104.0,,,10.0,,KIGQ 312235Z AUTO 04003KT 10SM -RA BKN085 OVC110 22/18 A2998 RMK AO2 T02200182,,,8500.0,,,64.74,,NE,29.33,28.04,,Light Rain
KIGQ,07/31/2018 22:55 UTC,29.98,71.6,64.94,79.58,6.91,50.0,,17.0,1104.0,,,752.0,952.0,,,10.0,,KIGQ 312255Z AUTO 05006KT 10SM -DZ SCT075 SCT095 OVC110 22/18  A2998 RMK AO2 T02200183,,,11000.0,,,64.92,,NE,29.33,28.03,,Light Drizzle
KIGQ,07/31/2018 23:15 UTC,29.97,71.24,64.4,79.05,5.75,40.0,,13.0,,,,952.0,1104.0,,,10.0,,KIGQ 312315Z AUTO 04005KT 10SM -RA SCT095 OVC110 22/18 A2997 RMK AO2 T02180180,,,11000.0,,,64.38,,NE,29.32,28.05,,Light Rain
KIGQ,07/31/2018 23:35 UTC,29.96,70.88,65.12,82.05,6.91,40.0,,,,,,1103.0,,,,10.0,,KIGQ 312335Z AUTO 04006KT 10SM BKN110 22/18 A2996 RMK AO2  T02160184,,,11000.0,,,65.1,,NE,29.31,28.0,,Mostly Cloudy
KIGQ,07/31/2018 23:55 UTC,29.96,70.52,65.3,83.58,3.44,40.0,,,,,,1203.0,,,,10.0,,KIGQ 312355Z AUTO 04003KT 10SM BKN120 21/19 A2996 RMK AO2  T02140185 10245 20214,76.1,70.52,12000.0,,,65.28,,NE,29.31,28.0,,Mostly Cloudy
