# STATION: KIGQ
# STATION NAME: Lansing Municipal Airport
# LATITUDE: 41.54125
# LONGITUDE: -87.52822
# ELEVATION [ft]: 607
# STATE: IL
Station_ID,Date_Time,altimeter_set_1,air_temp_set_1,dew_point_temperature_set_1,relative_humidity_set_1,wind_speed_set_1,wind_direction_set_1,wind_gust_set_1,weather_cond_code_set_1,cloud_layer_3_code_set_1,precip_accum_one_hour_set_1,precip_accum_three_hour_set_1,cloud_layer_1_code_set_1,cloud_layer_2_code_set_1,precip_accum_six_hour_set_1,precip_accum_24_hour_set_1,visibility_set_1,metar_remark_set_1,metar_set_1,air_temp_high_6_hour_set_1,air_temp_low_6_hour_set_1,ceiling_set_1,air_temp_high_24_hour_set_1,air_temp_low_24_hour_set_1,dew_point_temperature_set_1d,wind_chill_set_1d,wind_cardinal_direction_set_1d,pressure_set_1d,sea_level_pressure_set_1d,heat_index_set_1d,weather_condition_set_1d
,,INHG,Fahrenheit,Fahrenheit,%,Miles/hour,Degrees,Miles/hour,code,code,Inches,Inches,code,code,Inches,Inches,Statute miles,text,text,Fahrenheit,Fahrenheit,Feet,Fahrenheit,Fahrenheit,Fahrenheit,Fahrenheit,Code,INHG,INHG,Fahrenheit,Code
KIGQ,08/01/2018 00:15 UTC,29.96,70.7,65.84,84.64,3.44,50.0,,,,,,1103.0,,,,10.0,,KIGQ 010015Z AUTO 05003KT 10SM BKN110 22/19 A2996 RMK AO2  T02150188,,,11000.0,,,65.82,,NE,29.31,27.96,,Mostly Cloudy
KIGQ,08/01/2018 00:35 UTC,29.97,70.7,66.2,85.71,0.0,0.0,,,1203.0,,,222.0,803.0,,,10.0,,KIGQ 010035Z AUTO 00000KT 10SM SCT022 BKN080 BKN120 22/19 A2997 RMK AO2 T02150190,,,8000.0,,,66.19,,N,29.32,27.95,,Mostly Cloudy
KIGQ,08/01/2018 00:55 UTC,29.98,70.16,66.2,87.29,3.44,30.0,,,,,,222.0,802.0,,,10.0,,KIGQ 010055Z AUTO 03003KT 10SM SCT022 SCT080 21/19 A2998 RMK AO2  T02120190,,,,,,66.18,,NNE,29.33,27.96,,Partly Cloudy
KIGQ,08/01/2018 01:15 UTC,29.98,70.16,65.66,85.68,0.0,0.0,,,,,,1202.0,,,,10.0,,KIGQ 010115Z AUTO 00000KT 10SM SCT120 21/19 A2998 RMK AO2  T02120187,,,,,,65.65,,N,29.33,28.0,,Partly Cloudy
KIGQ,08/01/2018 01:35 UTC,29.97,69.44,65.3,86.71,3.44,50.0,,,,,,282.0,1202.0,,,10.0,,KIGQ 010135Z AUTO 05003KT 10SM SCT028 SCT120 21/19 A2997 RMK AO2  T02080185,,,,,,65.28,,NE,29.32,28.02,,Partly Cloudy
KIGQ,08/01/2018 01:55 UTC,29.97,68.9,66.02,90.56,3.44,80.0,,,,,,262.0,1202.0,,,10.0,,KIGQ 010155Z AUTO 08003KT 10SM SCT026 SCT120 21/19 A2997 RMK AO2  T02050189,,,,,,66.01,,E,29.32,27.98,,Partly Cloudy
KIGQ,08/01/2018 02:15 UTC,29.98,68.0,65.84,92.82,0.0,0.0,,,,,,1202.0,,,,10.0,,KIGQ 010215Z AUTO 00000KT 10SM SCT120 20/19 A2998 RMK AO2  T02000188,,,,,,65.83,,N,29.33,28.02,,Partly Cloudy
KIGQ,08/01/2018 02:35 UTC,29.98,68.0,65.84,92.82,0.0,0.0,,,,,,1.0,,,,10.0,,KIGQ 010235Z AUTO 00000KT 10SM CLR 20/19 A2998 RMK AO2  T02000188,,,,,,65.83,,N,29.33,28.02,,Clear
KIGQ,08/01/2018 02:55 UTC,29.98,67.28,65.3,93.38,0.0,0.0,,,,,,1.0,,,,10.0,,KIGQ 010255Z AUTO 00000KT 10SM CLR 20/19 A2998 RMK AO2  T01960185,,,,,,65.29,,N,29.33,28.06,,Clear
KIGQ,08/01/2018 03:15 UTC,29.97,67.64,65.12,91.65,0.0,0.0,,,,,,1.0,,,,10.0,,KIGQ 010315Z AUTO 00000KT 10SM CLR 20/18 A2997 RMK AO2  T01980184,,,,,,65.11,,N,29.32,28.06,,Clear
KIGQ,08/01/2018 03:35 UTC,29.96,63.86,62.78,96.29,0.0,0.0,,,,,,1.0,,,,10.0,,KIGQ 010335Z AUTO 00000KT 10SM CLR 18/17 A2996 RMK AO2  T01770171,,,,,,62.77,,N,29.31,28.24,,Clear
KIGQ,08/01/2018 03:55 UTC,29.95,63.68,62.96,97.51,0.0,0.0,,,,,,1.0,,,,10.0,,KIGQ 010355Z AUTO 00000KT 10SM CLR 18/17 A2995 RMK AO2  T01760172,,,,,,62.96,,N,29.3,28.22,,Clear
KIGQ,08/01/2018 04:15 UTC,29.96,61.52,61.52,100.0,0.0,0.0,,,,,,1.0,,,,7.0,,KIGQ 010415Z AUTO 00000KT 7SM CLR 16/16 A2996 RMK AO2  T01640164,,,,,,61.52,,N,29.31,28.34,,Clear
KIGQ,08/01/2018 04:35 UTC,29.98,62.06,62.06,100.0,0.0,0.0,,31.0,,,,1.0,,,,4.0,,KIGQ 010435Z AUTO 00000KT 4SM BR CLR 17/17 A2998 RMK AO2  T01670167,,,,,,62.06,,N,29.33,28.32,,Mist
KIGQ,08/01/2018 04:55 UTC,29.97,61.52,61.52,100.0,0.0,0.0,,31.0,,,,1.0,,,,3.0,,KIGQ 010455Z AUTO 00000KT 3SM BR CLR 16/16 A2997 RMK AO2  T01640164,,,,,,61.52,,N,29.32,28.35,,Mist
KIGQ,08/01/2018 05:15 UTC,29.97,61.88,61.88,100.0,0.0,0.0,,31.0,,,,1202.0,,,,3.0,,KIGQ 010515Z AUTO 00000KT 3SM BR SCT120 17/17 A2997 RMK AO2  T01660166,,,,,,61.88,,N,29.32,28.32,,Mist
KIGQ,08/01/2018 05:35 UTC,29.97,62.96,62.96,100.0,0.0,0.0,,31.0,,,,1202.0,,,,5.0,,KIGQ 010535Z AUTO 00000KT 5SM BR SCT120 17/17 A2997 RMK AO2  T01720172,,,,,,62.96,,N,29.32,28.25,,Mist
KIGQ,08/01/2018 05:55 UTC,29.96,62.6,62.6,100.0,0.0,0.0,,31.0,,,,1.0,,,,5.0,,KIGQ 010555Z AUTO 00000KT 5SM BR CLR 17/17 A2996 RMK AO2 T01700170  10215 20159 402470159,70.7,60.62,,76.46,60.62,62.6,,N,29.31,28.26,,Mist
KIGQ,08/01/2018 06:15 UTC,29.97,61.34,61.34,100.0,3.44,170.0,,31.0,,,,1.0,,,,2.0,,KIGQ 010615Z AUTO 17003KT 2SM BR CLR 16/16 A2997 RMK AO2  T01630163,,,,,,61.34,,S,29.32,28.36,,Mist
KIGQ,08/01/2018 06:35 UTC,29.96,61.7,61.7,100.0,0.0,0.0,,31.0,,,,75.0,,,,1.25,,KIGQ 010635Z AUTO 00000KT 1 1/4SM BR VV007 17/17 A2996 RMK AO2  T01650165,,,700.0,,,61.7,,N,29.31,28.32,,Mist
KIGQ,08/01/2018 06:55 UTC,29.96,60.62,60.62,100.0,0.0,0.0,,9.0,,,,55.0,,,,0.5,,KIGQ 010655Z AUTO 00000KT 1/2SM FG VV005 16/16 A2996 RMK AO2  T01590159,,,500.0,,,60.62,,N,29.31,28.39,,Fog
KIGQ,08/01/2018 07:15 UTC,29.96,61.34,61.34,100.0,0.0,0.0,,9.0,,,,33.0,,,,0.5,,KIGQ 010715Z AUTO 00000KT 1/2SM FG BKN003 16/16 A2996 RMK AO2  T01630163,,,300.0,,,61.34,,N,29.31,28.35,,Fog
KIGQ,08/01/2018 07:35 UTC,29.97,59.9,59.9,100.0,0.0,0.0,,9.0,,,,33.0,83.0,,,0.5,,KIGQ 010735Z AUTO 00000KT 1/2SM FG BKN003 BKN008 16/16 A2997 RMK AO2 T01550155,,,300.0,,,59.9,,N,29.32,28.45,,Fog
KIGQ,08/01/2018 07:55 UTC,29.97,60.26,60.26,100.0,0.0,0.0,,31.0,,,,32.0,82.0,,,2.0,,KIGQ 010755Z AUTO 00000KT 2SM BR SCT003 SCT008 16/16 A2997 RMK AO2  T01570157,,,,,,60.26,,N,29.32,28.43,,Mist
KIGQ,08/01/2018 08:15 UTC,29.97,59.72,59.72,100.0,0.0,0.0,,31.0,,,,75.0,,,,1.75,,KIGQ 010815Z AUTO 00000KT 1 3/4SM BR VV007 15/15 A2997 RMK AO2  T01540154,,,700.0,,,59.72,,N,29.32,28.46,,Mist
KIGQ,08/01/2018 08:35 UTC,29.97,58.82,58.82,100.0,0.0,0.0,,31.0,,,,75.0,,,,1.5,,KIGQ 010835Z AUTO 00000KT 1 1/2SM BR VV007 15/15 A2997 RMK AO2  T01490149,,,700.0,,,58.82,,N,29.32,28.52,,Mist
KIGQ,08/01/2018 08:55 UTC,29.97,60.62,60.62,100.0,0.0,0.0,,31.0,,,,75.0,,,,1.5,,KIGQ 010855Z AUTO 00000KT 1 1/2SM BR VV007 16/16 A2997 RMK AO2  T01590159,,,700.0,,,60.62,,N,29.32,28.4,,Mist
KIGQ,08/01/2018 09:15 UTC,29.97,60.08,60.08,100.0,0.0,0.0,,9.0,,,,54.0,,,,0.25,,KIGQ 010915Z AUTO 00000KT 1/4SM FG OVC005 16/16 A2997 RMK AO2  T01560156,,,500.0,,,60.08,,N,29.32,28.44,,Fog
KIGQ,08/01/2018 09:35 UTC,29.98,59.0,59.0,100.0,0.0,0.0,,9.0,,,,54.0,,,,0.25,,KIGQ 010935Z AUTO 00000KT 1/4SM FG OVC005 15/15 A2998 RMK AO2  T01500150,,,500.0,,,59.0,,N,29.33,28.52,,Fog
KIGQ,08/01/2018 09:55 UTC,29.98,58.28,58.28,100.0,0.0,0.0,,9.0,,,,53.0,,,,0.5,,KIGQ 010955Z AUTO 00000KT 1/2SM FG BKN005 15/15 A2998 RMK AO2  T01460146,,,500.0,,,58.28,,N,29.33,28.56,,Fog
KIGQ,08/01/2018 10:15 UTC,29.98,58.28,58.28,100.0,0.0,0.0,,31.0,,,,75.0,,,,1.0,,KIGQ 011015Z AUTO 00000KT 1SM BR VV007 15/15 A2998 RMK AO2  T01460146,,,700.0,,,58.28,,N,29.33,28.56,,Mist
KIGQ,08/01/2018 10:35 UTC,29.98,58.64,58.64,100.0,0.0,0.0,,9.0,,,,55.0,,,,0.5,,KIGQ 011035Z AUTO 00000KT 1/2SM FG VV005 15/15 A2998 RMK AO2  T01480148,,,500.0,,,58.64,,N,29.33,28.54,,Fog
KIGQ,08/01/2018 10:55 UTC,29.98,58.82,58.82,100.0,0.0,0.0,,31.0,,,,1.0,,,,2.5,,KIGQ 011055Z AUTO 00000KT 2 1/2SM BR CLR 15/15 A2998 RMK AO2 VIS 1  1/4V3 T01490149,,,,,,58.82,,N,29.33,28.53,,Mist
KIGQ,08/01/2018 11:15 UTC,29.98,58.46,58.46,100.0,0.0,0.0,,31.0,,,,75.0,,,,1.75,,KIGQ 011115Z AUTO 00000KT 1 3/4SM BR VV007 15/15 A2998 RMK AO2  T01470147,,,700.0,,,58.46,,N,29.33,28.55,,Mist
KIGQ,08/01/2018 11:35 UTC,29.99,58.28,58.28,100.0,0.0,0.0,,31.0,,,,75.0,,,,1.25,,KIGQ 011135Z AUTO 00000KT 1 1/4SM BR VV007 15/15 A2999 RMK AO2  T01460146,,,700.0,,,58.28,,N,29.34,28.57,,Mist
KIGQ,08/01/2018 11:55 UTC,29.99,60.98,60.98,100.0,0.0,0.0,,31.0,,,,1.0,,,,2.5,,KIGQ 011155Z AUTO 00000KT 2 1/2SM BR CLR 16/16 A2999 RMK AO2  T01610161 10171 20144,62.78,57.92,,,,60.98,,N,29.34,28.4,,Mist
KIGQ,08/01/2018 12:15 UTC,29.99,62.6,62.6,100.0,0.0,0.0,,31.0,,,,1.0,,,,2.5,,KIGQ 011215Z AUTO 00000KT 2 1/2SM BR CLR 17/17 A2999 RMK AO2  T01700170,,,,,,62.6,,N,29.34,28.29,,Mist
KIGQ,08/01/2018 12:35 UTC,29.99,64.22,64.22,100.0,0.0,0.0,,31.0,,,,1.0,,,,5.0,,KIGQ 011235Z AUTO 00000KT 5SM BR CLR 18/18 A2999 RMK AO2 LTG DSNT  SW T01790179,,,,,,64.22,,N,29.34,28.18,,Mist
KIGQ,08/01/2018 12:55 UTC,29.99,67.28,64.76,91.64,4.61,270.0,,,,,,1.0,,,,7.0,,KIGQ 011255Z AUTO 27004KT 7SM CLR 20/18 A2999 RMK AO2  T01960182,,,,,,64.75,,W,29.34,28.1,,Clear
KIGQ,08/01/2018 13:15 UTC,29.99,69.62,65.48,86.72,4.61,290.0,,,,,,1.0,,,,7.0,,KIGQ 011315Z AUTO 29004KT 7SM CLR 21/19 A2999 RMK AO2  T02090186,,,,,,65.46,,WNW,29.34,28.03,,Clear
KIGQ,08/01/2018 13:35 UTC,30.0,71.06,65.3,82.07,4.61,280.0,,,,,,1.0,,,,10.0,,KIGQ 011335Z AUTO 28004KT 10SM CLR 22/19 A3000 RMK AO2  T02170185,,,,,,65.28,,W,29.35,28.03,,Clear
KIGQ,08/01/2018 13:55 UTC,30.0,72.68,64.76,76.25,4.61,290.0,,,,,,1.0,,,,10.0,,KIGQ 011355Z AUTO 29004KT 10SM CLR 23/18 A3000 RMK AO2  T02260182,,,,,,64.74,,WNW,29.35,28.04,,Clear
KIGQ,08/01/2018 14:15 UTC,30.0,74.3,64.94,72.67,4.61,260.0,,,,,,1.0,,,,10.0,,KIGQ 011415Z AUTO 26004KT 10SM CLR 24/18 A3000 RMK AO2  T02350183,,,,,,64.92,,W,29.35,28.01,,Clear
KIGQ,08/01/2018 14:35 UTC,30.0,74.66,65.3,72.71,4.61,250.0,,,,,,1.0,,,,10.0,,KIGQ 011435Z AUTO 25004KT 10SM CLR 24/19 A3000 RMK AO2  T02370185,,,,,,65.29,,WSW,29.35,27.98,,Clear
KIGQ,08/01/2018 14:55 UTC,30.0,75.92,65.48,70.16,4.61,260.0,,,,,,1.0,,,,10.0,,KIGQ 011455Z AUTO 26004KT 10SM CLR 24/19 A3000 RMK AO2  T02440186,,,,,,65.47,,W,29.35,27.96,,Clear
KIGQ,08/01/2018 15:15 UTC,30.0,76.64,64.58,66.39,5.75,250.0,,,,,,1.0,,,,10.0,,KIGQ 011515Z AUTO 25005KT 10SM CLR 25/18 A3000 RMK AO2  T02480181,,,,,,64.57,,WSW,29.35,28.01,,Clear
KIGQ,08/01/2018 15:35 UTC,30.0,76.46,63.86,65.13,6.91,250.0,,,,,,1.0,,,,10.0,,KIGQ 011535Z AUTO 25006KT 10SM CLR 25/18 A3000 RMK AO2  T02470177,,,,,,63.85,,WSW,29.35,28.06,,Clear
KIGQ,08/01/2018 15:55 UTC,30.0,77.54,63.5,62.06,3.44,260.0,,,,,,1.0,,,,10.0,,KIGQ 011555Z AUTO 26003KT 10SM CLR 25/18 A3000 RMK AO2  T02530175,,,,,,63.5,,W,29.35,28.07,,Clear
KIGQ,08/01/2018 16:15 UTC,30.0,78.08,63.68,61.35,0.0,0.0,,,,,,1.0,,,,10.0,,KIGQ 011615Z AUTO 00000KT 10SM CLR 26/18 A3000 RMK AO2  T02560176,,,,,,63.68,,N,29.35,28.05,,Clear
KIGQ,08/01/2018 16:35 UTC,29.99,78.8,62.24,56.97,5.75,240.0,,,,,,1.0,,,,10.0,,KIGQ 011635Z AUTO 24005KT 10SM CLR 26/17 A2999 RMK AO2  T02600168,,,,,,62.25,,WSW,29.34,28.12,,Clear
KIGQ,08/01/2018 16:55 UTC,29.99,79.7,63.14,57.09,11.5,260.0,20.71,,,,,1.0,,,,10.0,,KIGQ 011655Z AUTO 26010G18KT 200V290 10SM CLR 27/17 A2999 RMK AO2  T02650173,,,,,,63.15,,W,29.34,28.05,,Clear
KIGQ,08/01/2018 17:15 UTC,29.98,80.42,63.32,56.12,8.05,270.0,,,,,,1.0,,,,10.0,,KIGQ 011715Z AUTO 27007KT 10SM CLR 27/17 A2998 RMK AO2  T02690174,,,,,,63.34,,W,29.33,28.02,81.86,Clear
KIGQ,08/01/2018 17:35 UTC,29.98,80.78,60.08,49.47,8.05,270.0,,,,,,1.0,,,,10.0,,KIGQ 011735Z AUTO 27007KT 10SM CLR 27/16 A2998 RMK AO2  T02710156,,,,,,60.1,,W,29.33,28.22,81.46,Clear
KIGQ,08/01/2018 17:55 UTC,29.98,81.5,60.62,49.26,6.91,280.0,,,,,,1.0,,,,10.0,,KIGQ 011755Z AUTO 28006KT 10SM CLR 28/16 A2998 RMK AO2 T02750159  10275 20162,81.5,61.16,,,,60.65,,W,29.33,28.18,82.14,Clear
KIGQ,08/01/2018 18:15 UTC,29.98,81.5,59.18,46.8,4.61,240.0,,,,,,1.0,,,,10.0,,KIGQ 011815Z AUTO 24004KT 10SM CLR 28/15 A2998 RMK AO2 LTG DSNT N  T02750151,,,,,,59.21,,WSW,29.33,28.26,81.82,Clear
KIGQ,08/01/2018 18:35 UTC,29.97,82.4,59.18,45.46,0.0,0.0,,,,,,1.0,,,,10.0,,KIGQ 011835Z AUTO 00000KT 10SM CLR 28/15 A2997 RMK AO2  T02800151,,,,,,59.22,,N,29.32,28.24,82.52,Clear
KIGQ,08/01/2018 18:55 UTC,29.96,80.78,60.62,50.43,10.36,220.0,,,,,,552.0,,,,10.0,,KIGQ 011855Z AUTO 22009KT 170V260 10SM SCT055 27/16 A2996 RMK AO2  LTG DSNT W T02710159,,,,,,60.65,,SW,29.31,28.16,81.57,Partly Cloudy
KIGQ,08/01/2018 19:15 UTC,29.96,82.22,63.14,52.6,10.36,260.0,,,,,,552.0,,,,10.0,,KIGQ 011915Z AUTO 26009KT 10SM SCT055 28/17 A2996 RMK AO2 LTG DSNT  W T02790173,,,,,,63.18,,W,29.31,28.0,83.42,Partly Cloudy
KIGQ,08/01/2018 19:35 UTC,29.96,82.94,59.9,45.83,8.05,250.0,,,,,,1.0,,,,10.0,,KIGQ 011935Z AUTO 25007KT 10SM CLR 28/16 A2996 RMK AO2 LTG DSNT NW  T02830155,,,,,,59.95,,WSW,29.31,28.19,83.13,Clear
KIGQ,08/01/2018 19:55 UTC,29.95,82.76,58.46,43.79,8.05,220.0,,,,,,1.0,,,,10.0,,KIGQ 011955Z AUTO 22007KT 190V330 10SM CLR 28/15 A2995 RMK AO2 LTG  DSNT NW T02820147,,,,,,58.51,,SW,29.3,28.26,82.63,Clear
KIGQ,08/01/2018 20:15 UTC,29.95,82.76,60.08,46.4,9.22,200.0,,,,,,1.0,,,,10.0,,KIGQ 012015Z AUTO 20008KT 10SM CLR 28/16 A2995 RMK AO2 LTG DSNT NW  T02820156,,,,,,60.13,,SSW,29.3,28.17,83.03,Clear
KIGQ,08/01/2018 20:35 UTC,29.95,82.22,62.42,51.29,12.66,200.0,17.27,,,,,602.0,,,,10.0,,KIGQ 012035Z AUTO 20011G15KT 10SM SCT060 28/17 A2995 RMK AO2  T02790169,,,,,,62.46,,SSW,29.3,28.03,83.21,Partly Cloudy
KIGQ,08/01/2018 20:55 UTC,29.95,82.94,62.24,49.79,10.36,230.0,16.11,,,,,602.0,,,,10.0,,KIGQ 012055Z AUTO 23009G14KT 10SM SCT060 28/17 A2995 RMK AO2  T02830168,,,,,,62.28,,SW,29.3,28.04,83.79,Partly Cloudy
KIGQ,08/01/2018 21:15 UTC,29.95,80.96,61.52,51.76,8.05,230.0,,,,,,602.0,1203.0,,,10.0,,KIGQ 012115Z AUTO 23007KT 10SM SCT060 BKN120 27/16 A2995 RMK AO2  LTG DSNT W T02720164,,,12000.0,,,61.55,,SW,29.3,28.1,81.91,Mostly Cloudy
KIGQ,08/01/2018 21:35 UTC,29.96,79.34,60.62,52.85,9.22,230.0,,5.0,,,,1203.0,,,,10.0,,KIGQ 012135Z AUTO 23008KT 10SM VCTS BKN120 26/16 A2996 RMK AO2 LTG  DSNT W THRU NE T02630159,,,12000.0,,,60.63,,SW,29.31,28.18,,Thunder
KIGQ,08/01/2018 21:55 UTC,29.99,71.42,55.94,58.17,21.85,280.0,36.82,5.0,,,,602.0,1203.0,,,10.0,,KIGQ 012155Z AUTO 28019G32KT 10SM VCTS SCT060 BKN120 22/13 A2999 RMK AO2 LTG DSNT ALQS T02190133,,,12000.0,,,55.9,,W,29.34,28.54,,Thunder
KIGQ,08/01/2018 22:15 UTC,29.97,66.56,60.44,80.71,4.61,260.0,,13.0,1104.0,0.01,,602.0,902.0,,,7.0,,KIGQ 012215Z AUTO 26004KT 7SM -RA SCT060 SCT090 OVC110 19/16 A2997 RMK AO2 LTG DSNT NE AND SW P0001 T01920158,,,11000.0,,,60.41,,W,29.32,28.34,,Light Rain
KIGQ,08/01/2018 22:35 UTC,29.96,66.56,62.42,86.56,0.0,0.0,,13.0,,0.02,,903.0,1104.0,,,7.0,,KIGQ 012235Z AUTO 00000KT 7SM -RA BKN090 OVC110 19/17 A2996 RMK AO2 LTG DSNT NE AND NW P0002 T01920169,,,9000.0,,,62.4,,N,29.31,28.22,,Light Rain
KIGQ,08/01/2018 22:55 UTC,29.96,72.32,66.02,80.63,3.44,100.0,,,1204.0,0.02,,342.0,1003.0,,,10.0,,KIGQ 012255Z AUTO 10003KT 10SM SCT034 BKN100 OVC120 22/19 A2996 RMK AO2 LTG DSNT E P0002 T02240189,,,10000.0,,,66.0,,E,29.31,27.93,,Overcast
KIGQ,08/01/2018 23:15 UTC,29.96,71.6,66.38,83.65,0.0,0.0,,,1002.0,,,442.0,602.0,,,10.0,,KIGQ 012315Z AUTO 00000KT 10SM SCT044 SCT060 SCT100 22/19 A2996 RMK AO2 T02200191,,,,,,66.36,,N,29.31,27.91,,Partly Cloudy
KIGQ,08/01/2018 23:35 UTC,29.96,72.86,66.2,79.67,0.0,0.0,,,,,,1.0,,,,10.0,,KIGQ 012335Z AUTO 00000KT 10SM CLR 23/19 A2996 RMK AO2 LTG DSNT N  T02270190,,,,,,66.18,,N,29.31,27.91,,Clear
KIGQ,08/01/2018 23:55 UTC,29.95,73.22,67.1,81.2,0.0,0.0,,,,,,1.0,,0.02,,10.0,,KIGQ 012355Z AUTO 00000KT 10SM CLR 23/20 A2995 RMK AO2 LTG DSNT W  60002 T02290195 10284 20191,83.12,66.38,,,,67.09,,N,29.3,27.83,,Clear
KIGQ,08/02/2018 00:20 UTC,29.95,73.58,66.38,78.26,0.0,0.0,,,,,,1.0,,,,10.0,,KIGQ 020020Z AUTO 00000KT 10SM CLR 23/19 A2995 RMK AO2 LTG DSNT NW  T02310191,,,,,,66.37,,N,29.3,27.88,,Clear
KIGQ,08/02/2018 00:35 UTC,29.95,70.7,66.92,87.87,4.61,180.0,,,,,,1.0,,,,10.0,,KIGQ 020035Z AUTO 18004KT 10SM CLR 22/19 A2995 RMK AO2  T02150194,,,,,,66.91,,S,29.3,27.88,,Clear
KIGQ,08/02/2018 00:55 UTC,29.95,68.54,65.48,89.98,3.44,180.0,,,,,,1.0,,,,10.0,,KIGQ 020055Z AUTO 18003KT 10SM CLR 20/19 A2995 RMK AO2  T02030186,,,,,,65.47,,S,29.3,28.0,,Clear
KIGQ,08/02/2018 01:15 UTC,29.95,68.18,65.84,92.25,3.44,170.0,,,,,,1.0,,,,10.0,,KIGQ 020115Z AUTO 17003KT 10SM CLR 20/19 A2995 RMK AO2  T02010188,,,,,,65.83,,S,29.3,27.98,,Clear
KIGQ,08/02/2018 01:35 UTC,29.96,67.46,65.12,92.22,0.0,0.0,,,,,,1.0,,,,10.0,,KIGQ 020135Z AUTO 00000KT 10SM CLR 20/18 A2996 RMK AO2  T01970184,,,,,,65.11,,N,29.31,28.05,,Clear
KIGQ,08/02/2018 01:55 UTC,29.96,66.74,64.58,92.78,4.61,180.0,,,,,,1.0,,,,10.0,,KIGQ 020155Z AUTO 18004KT 10SM CLR 19/18 A2996 RMK AO2  T01930181,,,,,,64.57,,S,29.31,28.09,,Clear
KIGQ,08/02/2018 02:15 UTC,29.96,66.56,64.4,92.78,5.75,180.0,,,,,,1.0,,,,10.0,,KIGQ 020215Z AUTO 18005KT 10SM CLR 19/18 A2996 RMK AO2  T01920180,,,,,,64.39,,S,29.31,28.11,,Clear
KIGQ,08/02/2018 02:35 UTC,29.97,67.1,63.68,88.8,6.91,180.0,,,,,,602.0,,,,10.0,,KIGQ 020235Z AUTO 18006KT 10SM SCT060 20/18 A2997 RMK AO2  T01950176,,,,,,63.66,,S,29.32,28.15,,Partly Cloudy
KIGQ,08/02/2018 02:55 UTC,29.97,65.84,63.5,92.17,3.44,190.0,,,,,,1.0,,,,10.0,,KIGQ 020255Z AUTO 19003KT 10SM CLR 19/18 A2997 RMK AO2  T01880175,,,,,,63.49,,S,29.32,28.18,,Clear
KIGQ,08/02/2018 03:15 UTC,29.98,66.56,64.04,91.62,0.0,0.0,,,,,,1.0,,,,10.0,,KIGQ 020315Z AUTO 00000KT 10SM CLR 19/18 A2998 RMK AO2  T01920178,,,,,,64.03,,N,29.33,28.15,,Clear
KIGQ,08/02/2018 03:35 UTC,29.98,66.2,63.5,91.03,0.0,0.0,,,,,,1.0,,,,10.0,,KIGQ 020335Z AUTO 00000KT 10SM CLR 19/18 A2998 RMK AO2  T01900175,,,,,,63.49,,N,29.33,28.18,,Clear
KIGQ,08/02/2018 03:55 UTC,29.98,67.46,64.4,89.94,4.61,200.0,,,,,,1202.0,,,,10.0,,KIGQ 020355Z AUTO 20004KT 10SM SCT120 20/18 A2998 RMK AO2  T01970180,,,,,,64.39,,SSW,29.33,28.11,,Partly Cloudy
KIGQ,08/02/2018 04:15 UTC,29.98,67.46,64.58,90.51,4.61,200.0,,,,,,1.0,,,,10.0,,KIGQ 020415Z AUTO 20004KT 10SM CLR 20/18 A2998 RMK AO2  T01970181,,,,,,64.57,,SSW,29.33,28.1,,Clear
KIGQ,08/02/2018 04:35 UTC,29.98,67.28,64.4,90.5,5.75,200.0,,,,,,1.0,,,,10.0,,KIGQ 020435Z AUTO 20005KT 10SM CLR 20/18 A2998 RMK AO2  T01960180,,,,,,64.39,,SSW,29.33,28.12,,Clear
KIGQ,08/02/2018 04:55 UTC,29.98,66.74,64.04,91.05,3.44,210.0,,,,,,1.0,,,,10.0,,KIGQ 020455Z AUTO 21003KT 10SM CLR 19/18 A2998 RMK AO2  T01930178,,,,,,64.03,,SSW,29.33,28.14,,Clear
KIGQ,08/02/2018 05:15 UTC,29.99,65.84,63.86,93.34,4.61,200.0,,,,,,1.0,,,,10.0,,KIGQ 020515Z AUTO 20004KT 10SM CLR 19/18 A2999 RMK AO2  T01880177,,,,,,63.85,,SSW,29.34,28.18,,Clear
KIGQ,08/02/2018 05:35 UTC,29.98,65.12,63.68,95.1,4.61,210.0,,,,,,1.0,,,,10.0,,KIGQ 020535Z AUTO 21004KT 10SM CLR 18/18 A2998 RMK AO2  T01840176,,,,,,63.67,,SSW,29.33,28.19,,Clear
KIGQ,08/02/2018 05:55 UTC,29.99,66.2,63.86,92.18,5.75,210.0,,,,,,1.0,,,,10.0,,KIGQ 020555Z AUTO 21005KT 10SM CLR 19/18 A2999 RMK AO2 T01900177  10235 20182 402840144,74.3,64.76,,83.12,57.92,63.85,,SSW,29.34,28.17,,Clear
KIGQ,08/02/2018 06:15 UTC,29.99,66.2,64.04,92.76,3.44,200.0,,,,,,1.0,,,,10.0,,KIGQ 020615Z AUTO 20003KT 10SM CLR 19/18 A2999 RMK AO2  T01900178,,,,,,64.03,,SSW,29.34,28.16,,Clear
KIGQ,08/02/2018 06:35 UTC,29.98,66.02,64.22,93.93,4.61,210.0,,,,,,1102.0,,,,10.0,,KIGQ 020635Z AUTO 21004KT 10SM SCT110 19/18 A2998 RMK AO2  T01890179,,,,,,64.21,,SSW,29.33,28.14,,Partly Cloudy
KIGQ,08/02/2018 06:55 UTC,29.98,66.2,64.22,93.35,4.61,200.0,,,,,,1202.0,,,,10.0,,KIGQ 020655Z AUTO 20004KT 10SM SCT120 19/18 A2998 RMK AO2  T01900179,,,,,,64.21,,SSW,29.33,28.14,,Partly Cloudy
KIGQ,08/02/2018 07:15 UTC,29.97,66.38,64.4,93.35,4.61,210.0,,,,,,1103.0,,,,10.0,,KIGQ 020715Z AUTO 21004KT 10SM BKN110 19/18 A2997 RMK AO2  T01910180,,,11000.0,,,64.39,,SSW,29.32,28.12,,Mostly Cloudy
KIGQ,08/02/2018 07:35 UTC,29.97,66.56,64.4,92.78,6.91,210.0,,,,,,1103.0,,,,10.0,,KIGQ 020735Z AUTO 21006KT 10SM BKN110 19/18 A2997 RMK AO2  T01920180,,,11000.0,,,64.39,,SSW,29.32,28.12,,Mostly Cloudy
KIGQ,08/02/2018 07:55 UTC,29.97,66.38,64.04,92.19,5.75,200.0,,,,,,1.0,,,,10.0,,KIGQ 020755Z AUTO 20005KT 10SM CLR 19/18 A2997 RMK AO2  T01910178,,,,,,64.03,,SSW,29.32,28.14,,Clear
KIGQ,08/02/2018 08:15 UTC,29.97,66.02,63.68,92.18,3.44,210.0,,,,,,1102.0,,,,10.0,,KIGQ 020815Z AUTO 21003KT 10SM SCT110 19/18 A2997 RMK AO2  T01890176,,,,,,63.67,,SSW,29.32,28.17,,Partly Cloudy
KIGQ,08/02/2018 08:35 UTC,29.97,66.38,63.86,91.61,4.61,220.0,,,,,,1103.0,,,,10.0,,KIGQ 020835Z AUTO 22004KT 10SM BKN110 19/18 A2997 RMK AO2  T01910177,,,11000.0,,,63.85,,SW,29.32,28.15,,Mostly Cloudy
KIGQ,08/02/2018 08:55 UTC,29.97,66.2,63.86,92.18,4.61,190.0,,,,,,1204.0,,,,10.0,,KIGQ 020855Z AUTO 19004KT 10SM OVC120 19/18 A2997 RMK AO2  T01900177,,,12000.0,,,63.85,,S,29.32,28.15,,Overcast
KIGQ,08/02/2018 09:15 UTC,29.97,65.84,63.5,92.17,6.91,210.0,,,,,,1203.0,,,,10.0,,KIGQ 020915Z AUTO 21006KT 10SM BKN120 19/18 A2997 RMK AO2  T01880175,,,12000.0,,,63.49,,SSW,29.32,28.18,,Mostly Cloudy
KIGQ,08/02/2018 09:35 UTC,29.97,65.3,63.14,92.74,6.91,220.0,,,,,,1202.0,,,,10.0,,KIGQ 020935Z AUTO 22006KT 10SM SCT120 19/17 A2997 RMK AO2  T01850173,,,,,,63.13,,SW,29.32,28.21,,Partly Cloudy
KIGQ,08/02/2018 09:55 UTC,29.97,64.58,62.78,93.9,5.75,200.0,,,,,,1.0,,,,10.0,,KIGQ 020955Z AUTO 20005KT 10SM CLR 18/17 A2997 RMK AO2  T01810171,,,,,,62.77,,SSW,29.32,28.24,,Clear
KIGQ,08/02/2018 10:15 UTC,29.97,64.58,62.6,93.3,5.75,210.0,,,,,,1.0,,,,10.0,,KIGQ 021015Z AUTO 21005KT 10SM CLR 18/17 A2997 RMK AO2  T01810170,,,,,,62.59,,SSW,29.32,28.25,,Clear
KIGQ,08/02/2018 10:35 UTC,29.98,64.4,62.24,92.71,3.44,210.0,,,,,,1.0,,,,10.0,,KIGQ 021035Z AUTO 21003KT 10SM CLR 18/17 A2998 RMK AO2  T01800168,,,,,,62.23,,SSW,29.33,28.28,,Clear
KIGQ,08/02/2018 10:55 UTC,29.98,63.86,62.06,93.88,4.61,210.0,,,,,,1.0,,,,10.0,,KIGQ 021055Z AUTO 21004KT 10SM CLR 18/17 A2998 RMK AO2  T01770167,,,,,,62.05,,SSW,29.33,28.3,,Clear
KIGQ,08/02/2018 11:15 UTC,29.99,63.68,61.88,93.87,3.44,180.0,,,,,,1.0,,,,10.0,,KIGQ 021115Z AUTO 18003KT 10SM CLR 18/17 A2999 RMK AO2  T01760166,,,,,,61.87,,S,29.34,28.32,,Clear
KIGQ,08/02/2018 11:35 UTC,29.99,63.68,62.24,95.07,4.61,190.0,,,,,,1.0,,,,10.0,,KIGQ 021135Z AUTO 19004KT 10SM CLR 18/17 A2999 RMK AO2  T01760168,,,,,,62.23,,S,29.34,28.3,,Clear
KIGQ,08/02/2018 11:55 UTC,29.99,65.3,62.6,91.0,5.75,190.0,,,,,,1.0,,,0.02,10.0,,KIGQ 021155Z AUTO 19005KT 10SM CLR 19/17 A2999 RMK AO2 70002  T01850170 10195 20172,67.1,62.96,,,,62.59,,S,29.34,28.26,,Clear
KIGQ,08/02/2018 12:15 UTC,29.99,67.64,63.68,87.16,6.91,190.0,,,,,,803.0,,,,10.0,,KIGQ 021215Z AUTO 19006KT 10SM BKN080 20/18 A2999 RMK AO2  T01980176,,,8000.0,,,63.66,,S,29.34,28.16,,Mostly Cloudy
KIGQ,08/02/2018 12:35 UTC,29.99,68.54,64.04,85.58,5.75,220.0,,,,,,802.0,,,,10.0,,KIGQ 021235Z AUTO 22005KT 10SM SCT080 20/18 A2999 RMK AO2  T02030178,,,,,,64.02,,SW,29.34,28.13,,Partly Cloudy
KIGQ,08/02/2018 12:55 UTC,29.99,70.34,63.86,79.98,11.5,210.0,,,,,,802.0,,,,10.0,,KIGQ 021255Z AUTO 21010KT 10SM SCT080 21/18 A2999 RMK AO2 LTG DSNT  NW T02130177,,,,,,63.84,,SSW,29.34,28.12,,Partly Cloudy
KIGQ,08/02/2018 13:15 UTC,29.99,71.6,64.4,78.09,10.36,210.0,,5.0,,,,1.0,,,,10.0,,KIGQ 021315Z AUTO 21009KT 10SM VCTS CLR 22/18 A2999 RMK AO2  T02200180,,,,,,64.38,,SSW,29.34,28.07,,Thunder
KIGQ,08/02/2018 13:35 UTC,29.99,72.86,64.76,75.79,9.22,200.0,,,,,,1.0,,,,10.0,,KIGQ 021335Z AUTO 20008KT 10SM CLR 23/18 A2999 RMK AO2 LTG DSNT NW  T02270182,,,,,,64.74,,SSW,29.34,28.03,,Clear
KIGQ,08/02/2018 13:55 UTC,29.99,73.94,65.3,74.48,11.5,200.0,17.27,,,,,1.0,,,,10.0,,KIGQ 021355Z AUTO 20010G15KT 10SM CLR 23/19 A2999 RMK AO2 LTG DSNT  NW T02330185,,,,,,65.29,,SSW,29.34,27.98,,Clear
KIGQ,08/02/2018 14:15 UTC,29.99,74.3,65.3,73.59,11.5,230.0,,,,,,1.0,,,,10.0,,KIGQ 021415Z AUTO 23010KT 210V330 10SM CLR 24/19 A2999 RMK AO2  T02350185,,,,,,65.29,,SW,29.34,27.98,,Clear
KIGQ,08/02/2018 14:35 UTC,29.99,75.02,66.02,73.66,9.22,220.0,,,,,,1.0,,,,10.0,,KIGQ 021435Z AUTO 22008KT 10SM CLR 24/19 A2999 RMK AO2  T02390189,,,,,,66.01,,SW,29.34,27.92,,Clear
KIGQ,08/02/2018 14:55 UTC,29.98,76.28,66.38,71.52,11.5,210.0,,,,,,1.0,,,,10.0,,KIGQ 021455Z AUTO 21010KT 10SM CLR 25/19 A2998 RMK AO2  T02460191,,,,,,66.37,,SSW,29.33,27.87,,Clear
KIGQ,08/02/2018 15:15 UTC,29.98,77.36,66.02,68.16,12.66,200.0,16.11,,,,,1.0,,,,10.0,,KIGQ 021515Z AUTO 20011G14KT 10SM CLR 25/19 A2998 RMK AO2 LTG DSNT  N T02520189,,,,,,66.02,,SSW,29.33,27.88,,Clear
KIGQ,08/02/2018 15:35 UTC,29.98,78.44,67.28,68.7,11.5,200.0,,,,,,1.0,,,,10.0,,KIGQ 021535Z AUTO 20010KT 10SM CLR 26/20 A2998 RMK AO2  T02580196,,,,,,67.28,,SSW,29.33,27.78,,Clear
KIGQ,08/02/2018 15:55 UTC,29.97,78.98,66.74,66.25,10.36,200.0,,,,,,1.0,,,,10.0,,KIGQ 021555Z AUTO 20009KT 10SM CLR 26/19 A2997 RMK AO2  T02610193,,,,,,66.75,,SSW,29.32,27.8,,Clear
KIGQ,08/02/2018 16:15 UTC,29.97,80.42,67.28,64.39,11.5,210.0,16.11,,,,,1.0,,,,10.0,,KIGQ 021615Z AUTO 21010G14KT 10SM CLR 27/20 A2997 RMK AO2  T02690196,,,,,,67.29,,SSW,29.32,27.75,82.88,Clear
KIGQ,08/02/2018 16:35 UTC,29.96,81.32,67.64,63.32,13.8,210.0,,,,,,1.0,,,,10.0,,KIGQ 021635Z AUTO 21012KT 10SM CLR 27/20 A2996 RMK AO2  T02740198,,,,,,67.66,,SSW,29.31,27.7,84.02,Clear
KIGQ,08/02/2018 16:55 UTC,29.96,82.58,68.54,62.69,12.66,200.0,18.41,,,,,1.0,,,,10.0,,KIGQ 021655Z AUTO 20011G16KT 10SM CLR 28/20 A2996 RMK AO2 LTG DSNT  SW T02810203,,,,,,68.57,,SSW,29.31,27.62,85.85,Clear
KIGQ,08/02/2018 17:15 UTC,29.96,83.48,68.18,60.16,14.97,210.0,,,,,,1.0,,,,10.0,,KIGQ 021715Z AUTO 21013KT 10SM CLR 29/20 A2996 RMK AO2  T02860201,,,,,,68.22,,SSW,29.31,27.64,86.71,Clear
KIGQ,08/02/2018 17:35 UTC,29.96,83.84,68.0,59.1,14.97,200.0,20.71,,,,,1.0,,,,10.0,,KIGQ 021735Z AUTO 20013G18KT 10SM CLR 29/20 A2996 RMK AO2 LTG DSNT  SW T02880200,,,,,,68.04,,SSW,29.31,27.65,87.03,Clear
KIGQ,08/02/2018 17:55 UTC,29.96,84.38,68.0,58.08,17.27,190.0,,,,,,1002.0,,,,10.0,,KIGQ 021755Z AUTO 19015KT 10SM SCT100 29/20 A2996 RMK AO2  T02910200 10291 20185,84.38,65.3,,,,68.05,,S,29.31,27.64,87.63,Partly Cloudy
KIGQ,08/02/2018 18:15 UTC,29.95,84.2,67.82,58.06,14.97,200.0,19.57,,,,,602.0,1002.0,,,10.0,,KIGQ 021815Z AUTO 20013G17KT 10SM SCT060 SCT100 29/20 A2995 RMK AO2 T02900199,,,,,,67.87,,SSW,29.3,27.65,87.34,Partly Cloudy
KIGQ,08/02/2018 18:35 UTC,29.95,85.1,66.38,53.68,13.8,220.0,19.57,,,,,502.0,602.0,,,10.0,,KIGQ 021835Z AUTO 22012G17KT 10SM SCT050 SCT060 30/19 A2995 RMK AO2 T02950191,,,,,,66.44,,SW,29.3,27.74,87.56,Partly Cloudy
KIGQ,08/02/2018 18:55 UTC,29.95,83.66,64.58,52.81,14.97,240.0,21.85,,803.0,,,502.0,703.0,,,10.0,,KIGQ 021855Z AUTO 24013G19KT 10SM SCT050 BKN070 BKN080 29/18 A2995 RMK AO2 T02870181,,,7000.0,,,64.63,,WSW,29.3,27.88,85.28,Mostly Cloudy
KIGQ,08/02/2018 19:15 UTC,29.95,84.2,66.92,56.29,13.8,220.0,,,803.0,,,492.0,703.0,,,10.0,,KIGQ 021915Z AUTO 22012KT 10SM SCT049 BKN070 BKN080 29/19 A2995 RMK AO2 T02900194,,,7000.0,,,66.97,,SW,29.3,27.71,86.88,Mostly Cloudy
KIGQ,08/02/2018 19:35 UTC,29.95,85.82,65.3,50.53,13.8,230.0,18.41,,702.0,,,492.0,602.0,,,10.0,,KIGQ 021935Z AUTO 23012G16KT 10SM SCT049 SCT060 SCT070 30/19 A2995 RMK AO2 LTG DSNT E T02990185,,,,,,65.37,,SW,29.3,27.81,87.77,Partly Cloudy
KIGQ,08/02/2018 19:55 UTC,29.95,86.0,62.78,46.01,17.27,240.0,23.02,,,,,502.0,802.0,,,10.0,,KIGQ 021955Z AUTO 24015G20KT 10SM SCT050 SCT080 30/17 A2995 RMK AO2 LTG DSNT SW T03000171,,,,,,62.86,,WSW,29.3,27.97,86.82,Partly Cloudy
KIGQ,08/02/2018 20:15 UTC,29.95,85.1,63.14,47.95,16.11,250.0,24.16,,,,,802.0,,,,10.0,,KIGQ 022015Z AUTO 25014G21KT 10SM SCT080 30/17 A2995 RMK AO2  T02950173,,,,,,63.21,,WSW,29.3,27.96,86.1,Partly Cloudy
KIGQ,08/02/2018 20:35 UTC,29.94,85.1,64.58,50.43,11.5,250.0,21.85,,,,,1.0,,,,10.0,,KIGQ 022035Z AUTO 25010G19KT 10SM CLR 30/18 A2994 RMK AO2 LTG DSNT  E T02950181,,,,,,64.65,,WSW,29.29,27.85,86.71,Clear
KIGQ,08/02/2018 20:55 UTC,29.94,84.02,64.94,52.86,16.11,260.0,,5.0,,,,1.0,,,,10.0,,KIGQ 022055Z AUTO 26014KT 10SM VCTS CLR 29/18 A2994 RMK AO2 LTG  DSNT E AND SE T02890183,,,,,,64.99,,W,29.29,27.84,85.79,Thunder
KIGQ,08/02/2018 21:15 UTC,29.93,82.22,64.4,54.97,16.11,260.0,,,,,,1.0,,,,10.0,,KIGQ 022115Z AUTO 26014KT 10SM CLR 28/18 A2993 RMK AO2 LTG DSNT NE  THRU S T02790180,,,,,,64.43,,W,29.28,27.88,83.83,Clear
KIGQ,08/02/2018 21:35 UTC,29.94,81.32,64.58,56.95,16.11,250.0,23.02,,,,,652.0,,,,10.0,,KIGQ 022135Z AUTO 25014G20KT 10SM SCT065 27/18 A2994 RMK AO2 LTG  DSNT NE THRU SE T02740181,,,,,,64.6,,WSW,29.29,27.89,83.02,Partly Cloudy
KIGQ,08/02/2018 21:55 UTC,29.94,80.78,65.48,59.8,9.22,240.0,,,653.0,,,452.0,553.0,,,10.0,,KIGQ 022155Z AUTO 24008KT 10SM SCT045 BKN055 BKN065 27/19 A2994 RMK AO2 LTG DSNT E T02710186,,,5500.0,,,65.5,,WSW,29.29,27.84,82.75,Mostly Cloudy
KIGQ,08/02/2018 22:15 UTC,29.95,80.24,67.1,64.37,10.36,270.0,,,,,,452.0,553.0,,,10.0,,KIGQ 022215Z AUTO 27009KT 10SM SCT045 BKN055 27/20 A2995 RMK AO2  LTG DSNT E AND SE T02680195,,,5500.0,,,67.11,,W,29.3,27.74,82.62,Mostly Cloudy
KIGQ,08/02/2018 22:35 UTC,29.94,81.5,68.54,64.92,10.36,240.0,,,603.0,,,432.0,503.0,,,10.0,,KIGQ 022235Z AUTO 24009KT 10SM SCT043 BKN050 BKN060 28/20 A2994 RMK AO2 LTG DSNT SE T02750203,,,5000.0,,,68.56,,WSW,29.29,27.61,84.57,Mostly Cloudy
KIGQ,08/02/2018 22:55 UTC,29.95,81.86,67.1,61.07,9.22,240.0,,,,,,483.0,,,,10.0,,KIGQ 022255Z AUTO 24008KT 10SM BKN048 28/20 A2995 RMK AO2  T02770195,,,4800.0,,,67.13,,WSW,29.3,27.72,84.42,Mostly Cloudy
KIGQ,08/02/2018 23:15 UTC,29.95,80.6,69.26,68.52,5.75,180.0,,,,,,412.0,503.0,,,10.0,,KIGQ 022315Z AUTO 18005KT 10SM SCT041 BKN050 27/21 A2995 RMK AO2  LTG DSNT SE AND S T02700207,,,5000.0,,,69.28,,S,29.3,27.58,83.72,Mostly Cloudy
KIGQ,08/02/2018 23:35 UTC,29.96,77.36,68.18,73.43,6.91,160.0,,,603.0,,,392.0,483.0,,,10.0,,KIGQ 022335Z AUTO 16006KT 10SM SCT039 BKN048 BKN060 25/20 A2996 RMK AO2 T02520201,,,4800.0,,,68.18,,SSE,29.31,27.71,,Mostly Cloudy
KIGQ,08/02/2018 23:55 UTC,29.96,76.64,67.64,73.81,6.91,180.0,,,,,,393.0,484.0,,,10.0,,KIGQ 022355Z AUTO 18006KT 10SM BKN039 OVC048 25/20 A2996 RMK AO2  LTG DSNT NE AND E T02480198 10301 20248,86.18,76.64,3900.0,,,67.63,,S,29.31,27.76,,Overcast
KIGQ,08/03/2018 00:15 UTC,29.97,76.1,68.0,76.08,5.75,180.0,,,603.0,,,392.0,483.0,,,10.0,,KIGQ 030015Z AUTO 18005KT 10SM SCT039 BKN048 BKN060 25/20 A2997 RMK AO2 T02450200,,,4800.0,,,67.99,,S,29.32,27.75,,Mostly Cloudy
KIGQ,08/03/2018 00:35 UTC,29.98,75.74,68.18,77.47,6.91,180.0,,,603.0,,,433.0,503.0,,,10.0,,KIGQ 030035Z AUTO 18006KT 10SM BKN043 BKN050 BKN060 24/20 A2998 RMK AO2 LTG DSNT NE T02430201,,,4300.0,,,68.17,,S,29.33,27.76,,Mostly Cloudy
KIGQ,08/03/2018 00:55 UTC,29.97,74.12,67.1,78.79,6.91,200.0,,,653.0,,,453.0,503.0,,,10.0,,KIGQ 030055Z AUTO 20006KT 10SM BKN045 BKN050 BKN065 23/20 A2997 RMK AO2 T02340195,,,4500.0,,,67.09,,SSW,29.32,27.84,,Mostly Cloudy
KIGQ,08/03/2018 01:15 UTC,29.98,72.5,66.38,81.15,10.36,190.0,,,,,,1.0,,,,10.0,,KIGQ 030115Z AUTO 19009KT 10SM CLR 23/19 A2998 RMK AO2  T02250191,,,,,,66.37,,S,29.33,27.92,,Clear
KIGQ,08/03/2018 01:35 UTC,29.98,70.7,66.56,86.78,4.61,200.0,,,,,,1.0,,,,10.0,,KIGQ 030135Z AUTO 20004KT 10SM CLR 22/19 A2998 RMK AO2  T02150192,,,,,,66.55,,SSW,29.33,27.93,,Clear
KIGQ,08/03/2018 01:55 UTC,29.99,69.98,66.38,88.38,0.0,0.0,,,,,,1.0,,,,10.0,,KIGQ 030155Z AUTO 00000KT 10SM CLR 21/19 A2999 RMK AO2  T02110191,,,,,,66.37,,N,29.34,27.97,,Clear
KIGQ,08/03/2018 02:15 UTC,29.99,70.16,66.2,87.29,4.61,210.0,,,,,,1.0,,,,10.0,,KIGQ 030215Z AUTO 21004KT 10SM CLR 21/19 A2999 RMK AO2  T02120190,,,,,,66.18,,SSW,29.34,27.97,,Clear
KIGQ,08/03/2018 02:35 UTC,30.0,68.72,65.84,90.56,0.0,0.0,,,,,,1.0,,,,10.0,,KIGQ 030235Z AUTO 00000KT 10SM CLR 20/19 A3000 RMK AO2 LTG DSNT S  T02040188,,,,,,65.83,,N,29.35,28.03,,Clear
KIGQ,08/03/2018 02:55 UTC,30.01,68.18,65.66,91.67,0.0,0.0,,,,,,1.0,,,,10.0,,KIGQ 030255Z AUTO 00000KT 10SM CLR 20/19 A3001 RMK AO2 LTG DSNT S  T02010187,,,,,,65.65,,N,29.36,28.06,,Clear
KIGQ,08/03/2018 03:15 UTC,30.01,68.18,65.3,90.53,4.61,190.0,,,,,,1.0,,,,10.0,,KIGQ 030315Z AUTO 19004KT 10SM CLR 20/19 A3001 RMK AO2  T02010185,,,,,,65.29,,S,29.36,28.08,,Clear
KIGQ,08/03/2018 03:35 UTC,30.0,65.84,64.58,95.72,0.0,0.0,,,,,,1.0,,,,10.0,,KIGQ 030335Z AUTO 00000KT 10SM CLR 19/18 A3000 RMK AO2  T01880181,,,,,,64.57,,N,29.35,28.14,,Clear
KIGQ,08/03/2018 03:55 UTC,30.0,65.84,64.58,95.72,4.61,210.0,,,,,,1.0,,,,10.0,,KIGQ 030355Z AUTO 21004KT 10SM CLR 19/18 A3000 RMK AO2  T01880181,,,,,,64.57,,SSW,29.35,28.14,,Clear
KIGQ,08/03/2018 04:15 UTC,30.01,65.66,64.76,96.92,3.44,170.0,,,,,,1.0,,,,10.0,,KIGQ 030415Z AUTO 17003KT 10SM CLR 19/18 A3001 RMK AO2  T01870182,,,,,,64.75,,S,29.36,28.15,,Clear
KIGQ,08/03/2018 04:35 UTC,30.01,65.3,64.04,95.71,4.61,160.0,,,,,,462.0,,,,10.0,,KIGQ 030435Z AUTO 16004KT 10SM SCT046 19/18 A3001 RMK AO2  T01850178,,,,,,64.03,,SSE,29.36,28.19,,Partly Cloudy
KIGQ,08/03/2018 04:55 UTC,30.01,66.02,64.76,95.72,0.0,0.0,,,,,,462.0,,,,10.0,,KIGQ 030455Z AUTO 00000KT 10SM SCT046 19/18 A3001 RMK AO2  T01890182,,,,,,64.75,,N,29.36,28.14,,Partly Cloudy
KIGQ,08/03/2018 05:15 UTC,30.01,63.86,63.14,97.51,3.44,180.0,,,,,,1.0,,,,10.0,,KIGQ 030515Z AUTO 18003KT 10SM CLR 18/17 A3001 RMK AO2  T01770173,,,,,,63.14,,S,29.36,28.27,,Clear
KIGQ,08/03/2018 05:35 UTC,30.01,65.12,65.12,100.0,0.0,0.0,,,,,,1.0,,,,10.0,,KIGQ 030535Z AUTO 00000KT 10SM CLR 18/18 A3001 RMK AO2  T01840184,,,,,,65.12,,N,29.36,28.13,,Clear
KIGQ,08/03/2018 05:55 UTC,30.01,63.5,63.32,99.37,0.0,0.0,,,,,,492.0,,,,10.0,,KIGQ 030555Z AUTO 00000KT 10SM SCT049 18/17 A3001 RMK AO2  T01750174 10247 20174 403010172,76.46,63.32,,86.18,62.96,63.32,,N,29.36,28.26,,Partly Cloudy
KIGQ,08/03/2018 06:15 UTC,30.01,62.24,62.24,100.0,0.0,0.0,,,,,,1.0,,,,10.0,,KIGQ 030615Z AUTO 00000KT 10SM CLR 17/17 A3001 RMK AO2  T01680168,,,,,,62.24,,N,29.36,28.34,,Clear
KIGQ,08/03/2018 06:35 UTC,30.01,62.96,62.96,100.0,3.44,160.0,,31.0,,,,1.0,,,,3.0,,KIGQ 030635Z AUTO 16003KT 3SM BR CLR 17/17 A3001 RMK AO2  T01720172,,,,,,62.96,,SSE,29.36,28.29,,Mist
KIGQ,08/03/2018 06:55 UTC,30.01,62.96,62.96,100.0,0.0,0.0,,,,,,1.0,,,,7.0,,KIGQ 030655Z AUTO 00000KT 7SM CLR 17/17 A3001 RMK AO2  T01720172,,,,,,62.96,,N,29.36,28.29,,Clear
KIGQ,08/03/2018 07:15 UTC,30.01,61.16,61.16,100.0,3.44,170.0,,,,,,1.0,,,,7.0,,KIGQ 030715Z AUTO 17003KT 7SM CLR 16/16 A3001 RMK AO2  T01620162,,,,,,61.16,,S,29.36,28.41,,Clear
KIGQ,08/03/2018 07:35 UTC,30.01,60.62,60.62,100.0,3.44,180.0,,,,,,1.0,,,,10.0,,KIGQ 030735Z AUTO 18003KT 10SM CLR 16/16 A3001 RMK AO2  T01590159,,,,,,60.62,,S,29.36,28.45,,Clear
KIGQ,08/03/2018 07:55 UTC,30.01,61.16,61.16,100.0,0.0,0.0,,,,,,1.0,,,,7.0,,KIGQ 030755Z AUTO 00000KT 7SM CLR 16/16 A3001 RMK AO2  T01620162,,,,,,61.16,,N,29.36,28.41,,Clear
KIGQ,08/03/2018 08:15 UTC,30.01,61.34,61.34,100.0,0.0,0.0,,,,,,1.0,,,,10.0,,KIGQ 030815Z AUTO 00000KT 10SM CLR 16/16 A3001 RMK AO2  T01630163,,,,,,61.34,,N,29.36,28.4,,Clear
KIGQ,08/03/2018 08:35 UTC,30.01,60.08,60.08,100.0,0.0,0.0,,31.0,,,,1.0,,,,5.0,,KIGQ 030835Z AUTO 00000KT 5SM BR CLR 16/16 A3001 RMK AO2  T01560156,,,,,,60.08,,N,29.36,28.48,,Mist
KIGQ,08/03/2018 08:55 UTC,30.02,60.08,60.08,100.0,0.0,0.0,,,,,,1.0,,,,7.0,,KIGQ 030855Z AUTO 00000KT 7SM CLR 16/16 A3002 RMK AO2  T01560156,,,,,,60.08,,N,29.37,28.49,,Clear
KIGQ,08/03/2018 09:15 UTC,30.02,59.18,59.18,100.0,0.0,0.0,,31.0,,,,1.0,,,,5.0,,KIGQ 030915Z AUTO 00000KT 5SM BR CLR 15/15 A3002 RMK AO2  T01510151,,,,,,59.18,,N,29.37,28.55,,Mist
KIGQ,08/03/2018 09:35 UTC,30.02,59.18,59.18,100.0,0.0,0.0,,31.0,,,,1.0,,,,4.0,,KIGQ 030935Z AUTO 00000KT 4SM BR CLR 15/15 A3002 RMK AO2  T01510151,,,,,,59.18,,N,29.37,28.55,,Mist
KIGQ,08/03/2018 09:55 UTC,30.02,59.9,59.9,100.0,0.0,0.0,,31.0,,,,1.0,,,,5.0,,KIGQ 030955Z AUTO 00000KT 5SM BR CLR 16/16 A3002 RMK AO2  T01550155,,,,,,59.9,,N,29.37,28.5,,Mist
KIGQ,08/03/2018 10:15 UTC,30.03,59.0,59.0,100.0,0.0,0.0,,31.0,,,,75.0,,,,1.25,,KIGQ 031015Z AUTO 00000KT 1 1/4SM BR VV007 15/15 A3003 RMK AO2  T01500150,,,700.0,,,59.0,,N,29.38,28.57,,Mist
KIGQ,08/03/2018 10:35 UTC,30.03,58.46,58.46,100.0,0.0,0.0,,31.0,,,,1.0,,,,2.0,,KIGQ 031035Z AUTO 00000KT 2SM BR CLR 15/15 A3003 RMK AO2  T01470147,,,,,,58.46,,N,29.38,28.6,,Mist
KIGQ,08/03/2018 10:55 UTC,30.04,57.2,57.2,100.0,0.0,0.0,,31.0,,,,1.0,,,,2.0,,KIGQ 031055Z AUTO 00000KT 2SM BR CLR 14/14 A3004 RMK AO2  T01400140,,,,,,57.2,,N,29.39,28.68,,Mist
KIGQ,08/03/2018 11:15 UTC,30.04,57.92,57.92,100.0,0.0,0.0,,31.0,,,,42.0,,,,1.0,,KIGQ 031115Z AUTO 00000KT 1SM BR SCT004 14/14 A3004 RMK AO2 VIS  1/4V4 T01440144,,,,,,57.92,,N,29.39,28.64,,Mist
KIGQ,08/03/2018 11:35 UTC,30.05,58.46,58.46,100.0,0.0,0.0,,31.0,,,,1.0,,,,3.0,,KIGQ 031135Z AUTO 00000KT 3SM BR CLR 15/15 A3005 RMK AO2  T01470147,,,,,,58.46,,N,29.4,28.62,,Mist
KIGQ,08/03/2018 11:55 UTC,30.05,60.8,60.8,100.0,0.0,0.0,,31.0,,,,1.0,,,,4.0,,KIGQ 031155Z AUTO 00000KT 4SM BR CLR 16/16 A3005 RMK AO2 T01600160  10175 20138,63.5,56.84,,,,60.8,,N,29.4,28.47,,Mist
KIGQ,08/03/2018 12:15 UTC,30.06,62.6,62.6,100.0,0.0,0.0,,,,,,1.0,,,,7.0,,KIGQ 031215Z AUTO 00000KT 7SM CLR 17/17 A3006 RMK AO2  T01700170,,,,,,62.6,,N,29.41,28.36,,Clear
KIGQ,08/03/2018 12:35 UTC,30.06,64.94,64.04,96.91,0.0,0.0,,,,,,1.0,,,,10.0,,KIGQ 031235Z AUTO 00000KT 10SM CLR 18/18 A3006 RMK AO2  T01830178,,,,,,64.03,,N,29.41,28.25,,Clear
KIGQ,08/03/2018 12:55 UTC,30.06,68.36,65.66,91.11,0.0,0.0,,,,,,1.0,,,,10.0,,KIGQ 031255Z AUTO 00000KT 10SM CLR 20/19 A3006 RMK AO2  T02020187,,,,,,65.65,,N,29.41,28.1,,Clear
KIGQ,08/03/2018 13:15 UTC,30.06,70.52,67.28,89.51,0.0,0.0,,,,,,1.0,,,,7.0,,KIGQ 031315Z AUTO 00000KT 7SM CLR 21/20 A3006 RMK AO2  T02140196,,,,,,67.27,,N,29.41,27.97,,Clear
KIGQ,08/03/2018 13:35 UTC,30.06,72.32,67.28,84.22,0.0,0.0,,,,,,1.0,,,,10.0,,KIGQ 031335Z AUTO 00000KT 10SM CLR 22/20 A3006 RMK AO2  T02240196,,,,,,67.27,,N,29.41,27.94,,Clear
KIGQ,08/03/2018 13:55 UTC,30.07,74.12,66.2,76.38,0.0,0.0,,,,,,1.0,,,,10.0,,KIGQ 031355Z AUTO 00000KT 10SM CLR 23/19 A3007 RMK AO2  T02340190,,,,,,66.19,,N,29.42,28.0,,Clear
KIGQ,08/03/2018 14:15 UTC,30.07,75.74,60.62,59.51,0.0,0.0,,,,,,1.0,,,,10.0,,KIGQ 031415Z AUTO 00000KT 10SM CLR 24/16 A3007 RMK AO2  T02430159,,,,,,60.6,,N,29.42,28.33,,Clear
KIGQ,08/03/2018 14:35 UTC,30.07,76.46,60.44,57.74,0.0,0.0,,,,,,1.0,,,,10.0,,KIGQ 031435Z AUTO 00000KT 10SM CLR 25/16 A3007 RMK AO2  T02470158,,,,,,60.43,,N,29.42,28.33,,Clear
KIGQ,08/03/2018 14:55 UTC,30.08,77.0,60.08,56.0,0.0,0.0,,,,,,1.0,,,,10.0,,KIGQ 031455Z AUTO 00000KT 10SM CLR 25/16 A3008 RMK AO2  T02500156,,,,,,60.07,,N,29.43,28.36,,Clear
KIGQ,08/03/2018 15:15 UTC,30.07,77.18,59.18,53.91,0.0,0.0,,,,,,1.0,,,,10.0,,KIGQ 031515Z AUTO 00000KT 10SM CLR 25/15 A3007 RMK AO2  T02510151,,,,,,59.17,,N,29.42,28.39,,Clear
KIGQ,08/03/2018 15:35 UTC,30.08,77.9,59.72,53.67,4.61,260.0,,,,,,1.0,,,,10.0,,KIGQ 031535Z AUTO 26004KT 10SM CLR 26/15 A3008 RMK AO2  T02550154,,,,,,59.72,,W,29.43,28.37,,Clear
KIGQ,08/03/2018 15:55 UTC,30.08,79.16,60.26,52.49,4.61,290.0,,,,,,1.0,,,,10.0,,KIGQ 031555Z AUTO 29004KT 10SM CLR 26/16 A3008 RMK AO2  T02620157,,,,,,60.27,,WNW,29.43,28.32,,Clear
KIGQ,08/03/2018 16:15 UTC,30.08,79.16,59.54,51.16,5.75,280.0,,,,,,1.0,,,,10.0,,KIGQ 031615Z AUTO 28005KT 10SM CLR 26/15 A3008 RMK AO2  T02620153,,,,,,59.55,,W,29.43,28.36,,Clear
KIGQ,08/03/2018 16:35 UTC,30.07,79.7,57.74,47.13,0.0,0.0,,,,,,1.0,,,,10.0,,KIGQ 031635Z AUTO 00000KT 10SM CLR 27/14 A3007 RMK AO2  T02650143,,,,,,57.75,,N,29.42,28.45,,Clear
KIGQ,08/03/2018 16:55 UTC,30.06,80.06,58.46,47.8,0.0,0.0,,,,,,1.0,,,,10.0,,KIGQ 031655Z AUTO 00000KT 10SM CLR 27/15 A3006 RMK AO2  T02670147,,,,,,58.48,,N,29.41,28.4,80.65,Clear
KIGQ,08/03/2018 17:15 UTC,30.06,80.78,57.92,45.8,0.0,0.0,,,,,,1.0,,,,10.0,,KIGQ 031715Z AUTO 00000KT 10SM CLR 27/14 A3006 RMK AO2  T02710144,,,,,,57.95,,N,29.41,28.42,81.06,Clear
KIGQ,08/03/2018 17:35 UTC,30.06,81.14,59.54,47.96,0.0,0.0,,,,,,1.0,,,,10.0,,KIGQ 031735Z AUTO 00000KT 10SM CLR 27/15 A3006 RMK AO2  T02730153,,,,,,59.57,,N,29.41,28.33,81.63,Clear
KIGQ,08/03/2018 17:55 UTC,30.06,81.68,60.26,48.35,0.0,0.0,,,,,,1.0,,,,10.0,,KIGQ 031755Z AUTO 00000KT 10SM CLR 28/16 A3006 RMK AO2 T02760157  10279 20161,82.22,60.98,,,,60.29,,N,29.41,28.28,82.2,Clear
KIGQ,08/03/2018 18:15 UTC,30.05,82.76,60.62,47.3,3.44,320.0,,,,,,1.0,,,,10.0,,KIGQ 031815Z AUTO 32003KT 10SM CLR 28/16 A3005 RMK AO2  T02820159,,,,,,60.67,,NW,29.4,28.24,83.17,Clear
KIGQ,08/03/2018 18:35 UTC,30.05,82.76,60.8,47.6,0.0,0.0,,,,,,1.0,,,,10.0,,KIGQ 031835Z AUTO 00000KT 10SM CLR 28/16 A3005 RMK AO2  T02820160,,,,,,60.85,,N,29.4,28.23,83.22,Clear
KIGQ,08/03/2018 18:55 UTC,30.05,83.66,62.06,48.34,4.61,320.0,,,,,,1.0,,,,10.0,,KIGQ 031855Z AUTO 32004KT 10SM CLR 29/17 A3005 RMK AO2  T02870167,,,,,,62.11,,NW,29.4,28.14,84.37,Clear
KIGQ,08/03/2018 19:15 UTC,30.04,84.2,62.6,48.42,6.91,230.0,,,,,,1.0,,,,10.0,,KIGQ 031915Z AUTO 23006KT 10SM CLR 29/17 A3004 RMK AO2  T02900170,,,,,,62.66,,SW,29.39,28.09,85.05,Clear
KIGQ,08/03/2018 19:35 UTC,30.04,84.2,62.42,48.12,6.91,270.0,,,,,,1.0,,,,10.0,,KIGQ 031935Z AUTO 27006KT 10SM CLR 29/17 A3004 RMK AO2  T02900169,,,,,,62.48,,W,29.39,28.1,84.99,Clear
KIGQ,08/03/2018 19:55 UTC,30.03,84.38,61.88,46.94,4.61,290.0,,,,,,1.0,,,,10.0,,KIGQ 031955Z AUTO 29004KT 10SM CLR 29/17 A3003 RMK AO2  T02910166,,,,,,61.94,,WNW,29.38,28.12,84.96,Clear
KIGQ,08/03/2018 20:15 UTC,30.03,85.64,61.88,45.09,4.61,270.0,,,,,,1.0,,,,10.0,,KIGQ 032015Z AUTO 27004KT 10SM CLR 30/17 A3003 RMK AO2  T02980166,,,,,,61.96,,W,29.38,28.11,86.13,Clear
KIGQ,08/03/2018 20:35 UTC,30.03,85.1,61.88,45.87,4.61,260.0,,,,,,1.0,,,,10.0,,KIGQ 032035Z AUTO 26004KT 10SM CLR 30/17 A3003 RMK AO2  T02950166,,,,,,61.95,,W,29.38,28.12,85.62,Clear
KIGQ,08/03/2018 20:55 UTC,30.03,85.28,61.16,44.46,0.0,0.0,,,,,,1.0,,,,10.0,,KIGQ 032055Z AUTO 00000KT 10SM CLR 30/16 A3003 RMK AO2 LTG DSNT N  T02960162,,,,,,61.23,,N,29.38,28.16,85.54,Clear
KIGQ,08/03/2018 21:15 UTC,30.03,85.82,62.24,45.4,5.75,280.0,,,,,,1.0,,,,10.0,,KIGQ 032115Z AUTO 28005KT 10SM CLR 30/17 A3003 RMK AO2  T02990168,,,,,,62.32,,W,29.38,28.09,86.43,Clear
KIGQ,08/03/2018 21:35 UTC,30.03,85.64,62.24,45.66,6.91,250.0,,,,,,1.0,,,,10.0,,KIGQ 032135Z AUTO 25006KT 10SM CLR 30/17 A3003 RMK AO2  T02980168,,,,,,62.32,,WSW,29.38,28.09,86.26,Clear
KIGQ,08/03/2018 21:55 UTC,30.04,86.18,63.14,46.33,4.61,250.0,,,,,,1.0,,,,10.0,,KIGQ 032155Z AUTO 25004KT 10SM CLR 30/17 A3004 RMK AO2  T03010173,,,,,,63.22,,WSW,29.39,28.04,87.15,Clear
KIGQ,08/03/2018 22:15 UTC,30.03,84.38,66.92,55.96,4.61,40.0,,,,,,1.0,,,,10.0,,KIGQ 032215Z AUTO 04004KT 10SM CLR 29/19 A3003 RMK AO2  T02910194,,,,,,66.97,,NE,29.38,27.79,87.07,Clear
KIGQ,08/03/2018 22:35 UTC,30.02,83.48,66.2,56.19,3.44,30.0,,,,,,1.0,,,,10.0,,KIGQ 032235Z AUTO 03003KT 10SM CLR 29/19 A3002 RMK AO2  T02860190,,,,,,66.24,,NNE,29.37,27.84,85.78,Clear
KIGQ,08/03/2018 22:55 UTC,30.02,81.86,66.2,59.2,5.75,30.0,,,,,,1.0,,,,10.0,,KIGQ 032255Z AUTO 03005KT 10SM CLR 28/19 A3002 RMK AO2  T02770190,,,,,,66.23,,NNE,29.37,27.86,84.09,Clear
KIGQ,08/03/2018 23:15 UTC,30.02,81.86,66.74,60.32,5.75,40.0,,,,,,1.0,,,,10.0,,KIGQ 032315Z AUTO 04005KT 10SM CLR 28/19 A3002 RMK AO2  T02770193,,,,,,66.77,,NE,29.37,27.82,84.29,Clear
KIGQ,08/03/2018 23:35 UTC,30.01,81.5,65.84,59.16,4.61,70.0,,,,,,1.0,,,,10.0,,KIGQ 032335Z AUTO 07004KT 10SM CLR 28/19 A3001 RMK AO2  T02750188,,,,,,65.87,,ENE,29.36,27.88,83.59,Clear
KIGQ,08/03/2018 23:55 UTC,30.02,80.96,66.2,60.96,4.61,40.0,,,,,,1.0,,,,10.0,,KIGQ 032355Z AUTO 04004KT 10SM CLR 27/19 A3002 RMK AO2 T02720190  10301 20272,86.18,80.96,,,,66.22,,NE,29.37,27.87,83.15,Clear
KIGQ,08/04/2018 00:15 UTC,30.02,80.42,66.38,62.42,4.61,80.0,,,,,,1.0,,,,10.0,,KIGQ 040015Z AUTO 08004KT 10SM CLR 27/19 A3002 RMK AO2  T02690191,,,,,,66.39,,E,29.37,27.86,82.62,Clear
KIGQ,08/04/2018 00:35 UTC,30.01,78.98,66.38,65.43,3.44,70.0,,,,,,1.0,,,,10.0,,KIGQ 040035Z AUTO 07003KT 10SM CLR 26/19 A3001 RMK AO2  T02610191,,,,,,66.39,,ENE,29.36,27.87,,Clear
KIGQ,08/04/2018 00:55 UTC,30.02,78.44,66.02,65.78,3.44,30.0,,,,,,1.0,,,,10.0,,KIGQ 040055Z AUTO 03003KT 10SM CLR 26/19 A3002 RMK AO2  T02580189,,,,,,66.02,,NNE,29.37,27.91,,Clear
KIGQ,08/04/2018 01:15 UTC,30.02,77.9,66.02,66.95,0.0,0.0,,,,,,1.0,,,,10.0,,KIGQ 040115Z AUTO 00000KT 10SM CLR 26/19 A3002 RMK AO2  T02550189,,,,,,66.02,,N,29.37,27.92,,Clear
KIGQ,08/04/2018 01:35 UTC,30.03,76.28,66.2,71.08,0.0,0.0,,,,,,1.0,,,,10.0,,KIGQ 040135Z AUTO 00000KT 10SM CLR 25/19 A3003 RMK AO2  T02460190,,,,,,66.19,,N,29.38,27.94,,Clear
KIGQ,08/04/2018 01:55 UTC,30.04,74.84,66.38,75.03,0.0,0.0,,,,,,1.0,,,,10.0,,KIGQ 040155Z AUTO 00000KT 10SM CLR 24/19 A3004 RMK AO2  T02380191,,,,,,66.37,,N,29.39,27.95,,Clear
KIGQ,08/04/2018 02:15 UTC,30.04,74.12,66.56,77.33,0.0,0.0,,,,,,1.0,,,,10.0,,KIGQ 040215Z AUTO 00000KT 10SM CLR 23/19 A3004 RMK AO2  T02340192,,,,,,66.55,,N,29.39,27.95,,Clear
KIGQ,08/04/2018 02:35 UTC,30.05,74.3,66.74,77.35,0.0,0.0,,,,,,1.0,,,,7.0,,KIGQ 040235Z AUTO 00000KT 7SM CLR 24/19 A3005 RMK AO2  T02350193,,,,,,66.73,,N,29.4,27.94,,Clear
KIGQ,08/04/2018 02:55 UTC,30.06,74.3,67.1,78.32,0.0,0.0,,,,,,1.0,,,,10.0,,KIGQ 040255Z AUTO 00000KT 10SM CLR 24/20 A3006 RMK AO2  T02350195,,,,,,67.09,,N,29.41,27.93,,Clear
KIGQ,08/04/2018 03:15 UTC,30.06,73.4,67.1,80.71,0.0,0.0,,,,,,1.0,,,,10.0,,KIGQ 040315Z AUTO 00000KT 10SM CLR 23/20 A3006 RMK AO2  T02300195,,,,,,67.09,,N,29.41,27.94,,Clear
KIGQ,08/04/2018 03:35 UTC,30.07,73.4,68.0,83.25,0.0,0.0,,,,,,1.0,,,,10.0,,KIGQ 040335Z AUTO 00000KT 10SM CLR 23/20 A3007 RMK AO2  T02300200,,,,,,67.99,,N,29.42,27.89,,Clear
KIGQ,08/04/2018 03:55 UTC,30.06,73.04,67.82,83.74,0.0,0.0,,,,,,1.0,,,,10.0,,KIGQ 040355Z AUTO 00000KT 10SM CLR 23/20 A3006 RMK AO2  T02280199,,,,,,67.81,,N,29.41,27.9,,Clear
KIGQ,08/04/2018 04:15 UTC,30.06,69.8,66.56,89.48,0.0,0.0,,,,,,1.0,,,,10.0,,KIGQ 040415Z AUTO 00000KT 10SM CLR 21/19 A3006 RMK AO2  T02100192,,,,,,66.55,,N,29.41,28.03,,Clear
KIGQ,08/04/2018 04:35 UTC,30.06,68.9,66.56,92.27,0.0,0.0,,,,,,1.0,,,,10.0,,KIGQ 040435Z AUTO 00000KT 10SM CLR 21/19 A3006 RMK AO2  T02050192,,,,,,66.55,,N,29.41,28.04,,Clear
KIGQ,08/04/2018 04:55 UTC,30.05,69.08,66.56,91.7,0.0,0.0,,,,,,1.0,,,,10.0,,KIGQ 040455Z AUTO 00000KT 10SM CLR 21/19 A3005 RMK AO2  T02060192,,,,,,66.55,,N,29.4,28.03,,Clear
KIGQ,08/04/2018 05:15 UTC,30.05,69.8,66.92,90.6,0.0,0.0,,,,,,1.0,,,,10.0,,KIGQ 040515Z AUTO 00000KT 10SM CLR 21/19 A3005 RMK AO2  T02100194,,,,,,66.91,,N,29.4,27.99,,Clear
KIGQ,08/04/2018 05:35 UTC,30.05,68.9,66.38,91.7,0.0,0.0,,,,,,1.0,,,,10.0,,KIGQ 040535Z AUTO 00000KT 10SM CLR 21/19 A3005 RMK AO2  T02050191,,,,,,66.37,,N,29.4,28.04,,Clear
KIGQ,08/04/2018 05:55 UTC,30.05,71.06,66.56,85.73,4.61,170.0,,,,,,1.0,,,,10.0,,KIGQ 040555Z AUTO 17004KT 10SM CLR 22/19 A3005 RMK AO2 T02170192  10272 20205 403010138,80.96,68.9,,86.18,56.84,66.55,,S,29.4,28.0,,Clear
KIGQ,08/04/2018 06:15 UTC,30.05,69.98,66.2,87.83,3.44,160.0,,,,,,1.0,,,,10.0,,KIGQ 040615Z AUTO 16003KT 10SM CLR 21/19 A3005 RMK AO2  T02110190,,,,,,66.19,,SSE,29.4,28.04,,Clear
KIGQ,08/04/2018 06:35 UTC,30.04,70.34,65.66,85.15,4.61,170.0,,,,,,1.0,,,,10.0,,KIGQ 040635Z AUTO 17004KT 10SM CLR 21/19 A3004 RMK AO2  T02130187,,,,,,65.64,,S,29.39,28.06,,Clear
KIGQ,08/04/2018 06:55 UTC,30.04,70.16,65.3,84.61,0.0,0.0,,,,,,1.0,,,,10.0,,KIGQ 040655Z AUTO 00000KT 10SM CLR 21/19 A3004 RMK AO2  T02120185,,,,,,65.28,,N,29.39,28.08,,Clear
KIGQ,08/04/2018 07:15 UTC,30.04,70.88,64.94,81.54,3.44,150.0,,,,,,1.0,,,,10.0,,KIGQ 040715Z AUTO 15003KT 10SM CLR 22/18 A3004 RMK AO2  T02160183,,,,,,64.92,,SSE,29.39,28.1,,Clear
KIGQ,08/04/2018 07:35 UTC,30.04,70.7,64.94,82.04,3.44,150.0,,,,,,1.0,,,,10.0,,KIGQ 040735Z AUTO 15003KT 10SM CLR 22/18 A3004 RMK AO2  T02150183,,,,,,64.92,,SSE,29.39,28.1,,Clear
KIGQ,08/04/2018 07:55 UTC,30.04,70.7,65.3,83.07,4.61,170.0,,,,,,1.0,,,,10.0,,KIGQ 040755Z AUTO 17004KT 10SM CLR 22/19 A3004 RMK AO2  T02150185,,,,,,65.28,,S,29.39,28.08,,Clear
KIGQ,08/04/2018 08:15 UTC,30.04,69.62,65.3,86.18,0.0,0.0,,,,,,1.0,,,,10.0,,KIGQ 040815Z AUTO 00000KT 10SM CLR 21/19 A3004 RMK AO2  T02090185,,,,,,65.28,,N,29.39,28.09,,Clear
KIGQ,08/04/2018 08:35 UTC,30.05,69.26,65.48,87.8,0.0,0.0,,,,,,1.0,,,,10.0,,KIGQ 040835Z AUTO 00000KT 10SM CLR 21/19 A3005 RMK AO2  T02070186,,,,,,65.47,,N,29.4,28.09,,Clear
KIGQ,08/04/2018 08:55 UTC,30.05,68.54,65.66,90.55,4.61,200.0,,,,,,1.0,,,,10.0,,KIGQ 040855Z AUTO 20004KT 10SM CLR 20/19 A3005 RMK AO2  T02030187,,,,,,65.65,,SSW,29.4,28.09,,Clear
KIGQ,08/04/2018 09:15 UTC,30.06,68.54,66.38,92.83,0.0,0.0,,,,,,1.0,,,,10.0,,KIGQ 040915Z AUTO 00000KT 10SM CLR 20/19 A3006 RMK AO2  T02030191,,,,,,66.37,,N,29.41,28.06,,Clear
KIGQ,08/04/2018 09:35 UTC,30.06,68.54,66.92,94.58,0.0,0.0,,,,,,1.0,,,,10.0,,KIGQ 040935Z AUTO 00000KT 10SM CLR 20/19 A3006 RMK AO2  T02030194,,,,,,66.91,,N,29.41,28.02,,Clear
KIGQ,08/04/2018 09:55 UTC,30.06,68.0,66.74,95.75,0.0,0.0,,,,,,1.0,,,,10.0,,KIGQ 040955Z AUTO 00000KT 10SM CLR 20/19 A3006 RMK AO2  T02000193,,,,,,66.73,,N,29.41,28.04,,Clear
KIGQ,08/04/2018 10:15 UTC,30.06,68.0,67.64,98.77,0.0,0.0,,,,,,1.0,,,,10.0,,KIGQ 041015Z AUTO 00000KT 10SM CLR 20/20 A3006 RMK AO2  T02000198,,,,,,67.64,,N,29.41,27.98,,Clear
KIGQ,08/04/2018 10:35 UTC,30.06,68.0,67.82,99.38,0.0,0.0,,,,,,1.0,,,,10.0,,KIGQ 041035Z AUTO 00000KT 10SM CLR 20/20 A3006 RMK AO2  T02000199,,,,,,67.82,,N,29.41,27.97,,Clear
KIGQ,08/04/2018 10:55 UTC,30.07,66.56,66.56,100.0,0.0,0.0,,,,,,1.0,,,,7.0,,KIGQ 041055Z AUTO 00000KT 7SM CLR 19/19 A3007 RMK AO2  T01920192,,,,,,66.56,,N,29.42,28.08,,Clear
KIGQ,08/04/2018 11:15 UTC,30.07,67.46,67.46,100.0,0.0,0.0,,,,,,1.0,,,,7.0,,KIGQ 041115Z AUTO 00000KT 7SM CLR 20/20 A3007 RMK AO2  T01970197,,,,,,67.46,,N,29.42,28.01,,Clear
KIGQ,08/04/2018 11:35 UTC,30.08,68.0,68.0,100.0,0.0,0.0,,,,,,1.0,,,,7.0,,KIGQ 041135Z AUTO 00000KT 7SM CLR 20/20 A3008 RMK AO2  T02000200,,,,,,68.0,,N,29.43,27.98,,Clear
KIGQ,08/04/2018 11:55 UTC,30.08,69.08,69.08,100.0,0.0,0.0,,,,,,1.0,,,,7.0,,KIGQ 041155Z AUTO 00000KT 7SM CLR 21/21 A3008 RMK AO2 T02060206  10216 20192,70.88,66.56,,,,69.08,,N,29.43,27.89,,Clear
KIGQ,08/04/2018 12:15 UTC,30.08,70.88,70.88,100.0,3.44,200.0,,,,,,1.0,,,,7.0,,KIGQ 041215Z AUTO 20003KT 7SM CLR 22/22 A3008 RMK AO2  T02160216,,,,,,70.88,,SSW,29.43,27.73,,Clear
KIGQ,08/04/2018 12:35 UTC,30.08,72.86,71.42,95.26,3.44,190.0,,,,,,1.0,,,,10.0,,KIGQ 041235Z AUTO 19003KT 10SM CLR 23/22 A3008 RMK AO2  T02270219,,,,,,71.42,,S,29.43,27.66,,Clear
KIGQ,08/04/2018 12:55 UTC,30.08,74.48,71.78,91.33,4.61,200.0,,,,,,1.0,,,,10.0,,KIGQ 041255Z AUTO 20004KT 10SM CLR 24/22 A3008 RMK AO2  T02360221,,,,,,71.78,,SSW,29.43,27.61,,Clear
KIGQ,08/04/2018 13:15 UTC,30.08,75.92,71.6,86.53,5.75,210.0,,,,,,1.0,,,,10.0,,KIGQ 041315Z AUTO 21005KT 10SM CLR 24/22 A3008 RMK AO2  T02440220,,,,,,71.6,,SSW,29.43,27.6,,Clear
KIGQ,08/04/2018 13:35 UTC,30.09,77.54,72.14,83.52,4.61,220.0,,,,,,1.0,,,,10.0,,KIGQ 041335Z AUTO 22004KT 10SM CLR 25/22 A3009 RMK AO2  T02530223,,,,,,72.14,,SW,29.44,27.54,,Clear
KIGQ,08/04/2018 13:55 UTC,30.09,78.98,72.5,80.63,4.61,220.0,,,,,,1.0,,,,10.0,,KIGQ 041355Z AUTO 22004KT 10SM CLR 26/23 A3009 RMK AO2  T02610225,,,,,,72.5,,SW,29.44,27.49,,Clear
KIGQ,08/04/2018 14:15 UTC,30.08,80.42,72.86,77.86,5.75,200.0,,,,,,1.0,,,,10.0,,KIGQ 041415Z AUTO 20005KT 10SM CLR 27/23 A3008 RMK AO2  T02690227,,,,,,72.87,,SSW,29.43,27.43,84.8,Clear
KIGQ,08/04/2018 14:35 UTC,30.08,81.32,72.68,75.16,3.44,210.0,,,,,,1.0,,,,10.0,,KIGQ 041435Z AUTO 21003KT 10SM CLR 27/23 A3008 RMK AO2  T02740226,,,,,,72.69,,SSW,29.43,27.44,86.18,Clear
KIGQ,08/04/2018 14:55 UTC,30.08,82.58,73.76,74.82,5.75,230.0,,,,,,1.0,,,,10.0,,KIGQ 041455Z AUTO 23005KT 10SM CLR 28/23 A3008 RMK AO2  T02810232,,,,,,73.78,,SW,29.43,27.33,88.79,Clear
KIGQ,08/04/2018 15:15 UTC,30.08,84.2,72.86,68.91,5.75,180.0,,,,,,1.0,,,,10.0,,KIGQ 041515Z AUTO 18005KT 10SM CLR 29/23 A3008 RMK AO2  T02900227,,,,,,72.89,,S,29.43,27.38,90.55,Clear
KIGQ,08/04/2018 15:35 UTC,30.08,84.38,72.86,68.51,4.61,190.0,,,,,,1.0,,,,10.0,,KIGQ 041535Z AUTO 19004KT 10SM CLR 29/23 A3008 RMK AO2  T02910227,,,,,,72.89,,S,29.43,27.38,90.8,Clear
KIGQ,08/04/2018 15:55 UTC,30.08,85.64,73.4,67.01,4.61,200.0,,,,,,1.0,,,,10.0,,KIGQ 041555Z AUTO 20004KT 10SM CLR 30/23 A3008 RMK AO2  T02980230,,,,,,73.44,,SSW,29.43,27.32,92.99,Clear
KIGQ,08/04/2018 16:15 UTC,30.09,87.08,73.58,64.4,5.75,210.0,,,,,,1.0,,,,10.0,,KIGQ 041615Z AUTO 21005KT 10SM CLR 31/23 A3009 RMK AO2  T03060231,,,,,,73.64,,SSW,29.44,27.29,95.12,Clear
KIGQ,08/04/2018 16:35 UTC,30.08,87.98,73.94,63.36,5.75,190.0,,,,,,1.0,,,,10.0,,KIGQ 041635Z AUTO 19005KT 10SM CLR 31/23 A3008 RMK AO2  T03110233,,,,,,74.01,,S,29.43,27.24,96.7,Clear
KIGQ,08/04/2018 16:55 UTC,30.08,88.34,72.86,60.41,5.75,210.0,,,,,,1.0,,,,10.0,,KIGQ 041655Z AUTO 21005KT 10SM CLR 31/23 A3008 RMK AO2  T03130227,,,,,,72.93,,SSW,29.43,27.33,96.08,Clear
KIGQ,08/04/2018 17:15 UTC,30.08,89.24,73.4,59.8,9.22,190.0,,,,,,1.0,,,,10.0,,KIGQ 041715Z AUTO 19008KT 10SM CLR 32/23 A3008 RMK AO2  T03180230,,,,,,73.48,,S,29.43,27.27,97.8,Clear
KIGQ,08/04/2018 17:35 UTC,30.08,89.06,72.68,58.7,9.22,200.0,,,,,,1.0,,,,10.0,,KIGQ 041735Z AUTO 20008KT 10SM CLR 32/23 A3008 RMK AO2  T03170226,,,,,,72.76,,SSW,29.43,27.33,96.83,Clear
KIGQ,08/04/2018 17:55 UTC,30.07,89.78,72.68,57.39,9.22,210.0,,,,,,1.0,,,,10.0,,KIGQ 041755Z AUTO 21008KT 10SM CLR 32/23 A3007 RMK AO2 T03210226  10322 20207,89.96,69.26,,,,72.77,,SSW,29.42,27.32,97.75,Clear
KIGQ,08/04/2018 18:15 UTC,30.06,89.96,72.14,56.04,9.22,200.0,16.11,,,,,1.0,,,,10.0,,KIGQ 041815Z AUTO 20008G14KT 10SM CLR 32/22 A3006 RMK AO2  T03220223,,,,,,72.24,,SSW,29.41,27.35,97.44,Clear
KIGQ,08/04/2018 18:35 UTC,30.06,90.5,71.96,54.77,9.22,200.0,17.27,,,,,1.0,,,,10.0,,KIGQ 041835Z AUTO 20008G15KT 10SM CLR 33/22 A3006 RMK AO2  T03250222,,,,,,72.07,,SSW,29.41,27.36,97.94,Clear
KIGQ,08/04/2018 18:55 UTC,30.06,90.68,71.96,54.46,11.5,190.0,,,,,,1.0,,,,10.0,,KIGQ 041855Z AUTO 19010KT 10SM CLR 33/22 A3006 RMK AO2  T03260222,,,,,,72.07,,S,29.41,27.36,98.17,Clear
KIGQ,08/04/2018 19:15 UTC,30.05,91.4,71.6,52.61,9.22,200.0,,,,,,1.0,,,,10.0,,KIGQ 041915Z AUTO 20008KT 10SM CLR 33/22 A3005 RMK AO2  T03300220,,,,,,71.72,,SSW,29.4,27.37,98.71,Clear
KIGQ,08/04/2018 19:35 UTC,30.05,91.04,70.7,51.6,10.36,190.0,,,,,,1.0,,,,10.0,,KIGQ 041935Z AUTO 19009KT 10SM CLR 33/22 A3005 RMK AO2  T03280215,,,,,,70.82,,S,29.4,27.45,97.42,Clear
KIGQ,08/04/2018 19:55 UTC,30.04,91.94,70.7,50.18,13.8,200.0,,,,,,1.0,,,,10.0,,KIGQ 041955Z AUTO 20012KT 10SM CLR 33/22 A3004 RMK AO2  T03330215,,,,,,70.84,,SSW,29.39,27.43,98.52,Clear
KIGQ,08/04/2018 20:15 UTC,30.04,91.76,70.7,50.46,12.66,200.0,,,,,,1.0,,,,10.0,,KIGQ 042015Z AUTO 20011KT 10SM CLR 33/22 A3004 RMK AO2  T03320215,,,,,,70.83,,SSW,29.39,27.43,98.3,Clear
KIGQ,08/04/2018 20:35 UTC,30.04,91.76,70.34,49.85,14.97,190.0,19.57,,,,,1.0,,,,10.0,,KIGQ 042035Z AUTO 19013G17KT 10SM CLR 33/21 A3004 RMK AO2  T03320213,,,,,,70.48,,S,29.39,27.46,97.97,Clear
KIGQ,08/04/2018 20:55 UTC,30.04,91.4,69.26,48.59,16.11,210.0,,,,,,1.0,,,,10.0,,KIGQ 042055Z AUTO 21014KT 10SM CLR 33/21 A3004 RMK AO2  T03300207,,,,,,69.4,,SSW,29.39,27.55,96.61,Clear
KIGQ,08/04/2018 21:15 UTC,30.03,89.78,69.26,51.11,11.5,210.0,,,,,,1.0,,,,10.0,,KIGQ 042115Z AUTO 21010KT 10SM CLR 32/21 A3003 RMK AO2  T03210207,,,,,,69.37,,SSW,29.38,27.55,94.68,Clear
KIGQ,08/04/2018 21:35 UTC,30.03,90.32,68.9,49.64,12.66,200.0,,,,,,1.0,,,,10.0,,KIGQ 042135Z AUTO 20011KT 10SM CLR 32/21 A3003 RMK AO2  T03240205,,,,,,69.02,,SSW,29.38,27.58,95.04,Clear
KIGQ,08/04/2018 21:55 UTC,30.03,90.5,68.0,47.86,12.66,200.0,18.41,,,,,1.0,,,,10.0,,KIGQ 042155Z AUTO 20011G16KT 10SM CLR 33/20 A3003 RMK AO2  T03250200,,,,,,68.13,,SSW,29.38,27.64,94.56,Clear
KIGQ,08/04/2018 22:15 UTC,30.03,88.88,68.9,51.93,13.8,210.0,,,,,,1.0,,,,10.0,,KIGQ 042215Z AUTO 21012KT 10SM CLR 32/21 A3003 RMK AO2  T03160205,,,,,,69.0,,SSW,29.38,27.59,93.35,Clear
KIGQ,08/04/2018 22:35 UTC,30.03,88.52,69.26,53.17,12.66,210.0,18.41,,,,,1.0,,,,10.0,,KIGQ 042235Z AUTO 21011G16KT 10SM CLR 31/21 A3003 RMK AO2  T03140207,,,,,,69.35,,SSW,29.38,27.57,93.2,Clear
KIGQ,08/04/2018 22:55 UTC,30.03,87.62,70.52,57.1,10.36,190.0,,,,,,1.0,,,,10.0,,KIGQ 042255Z AUTO 19009KT 10SM CLR 31/21 A3003 RMK AO2  T03090214,,,,,,70.6,,S,29.38,27.48,93.11,Clear
KIGQ,08/04/2018 23:15 UTC,30.03,87.26,70.52,57.76,10.36,200.0,,,,,,1.0,,,,10.0,,KIGQ 042315Z AUTO 20009KT 10SM CLR 31/21 A3003 RMK AO2  T03070214,,,,,,70.59,,SSW,29.38,27.48,92.67,Clear
KIGQ,08/04/2018 23:35 UTC,30.03,86.9,70.52,58.42,11.5,190.0,,,,,,1.0,,,,10.0,,KIGQ 042335Z AUTO 19010KT 10SM CLR 31/21 A3003 RMK AO2  T03050214,,,,,,70.59,,S,29.38,27.49,92.24,Clear
KIGQ,08/04/2018 23:55 UTC,30.04,86.0,71.78,62.73,11.5,200.0,,,,,,1.0,,,,10.0,,KIGQ 042355Z AUTO 20010KT 10SM CLR 30/22 A3004 RMK AO2 T03000221  10333 20300,91.94,86.0,,,,71.83,,SSW,29.39,27.41,92.11,Clear
KIGQ,08/05/2018 00:15 UTC,30.04,84.92,69.98,61.09,11.5,190.0,,,,,,1.0,,,,10.0,,KIGQ 050015Z AUTO 19010KT 10SM CLR 29/21 A3004 RMK AO2  T02940211,,,,,,70.03,,S,29.39,27.56,89.45,Clear
KIGQ,08/05/2018 00:35 UTC,30.04,83.3,69.62,63.56,9.22,190.0,,,,,,1.0,,,,10.0,,KIGQ 050035Z AUTO 19008KT 10SM CLR 29/21 A3004 RMK AO2  T02850209,,,,,,69.65,,S,29.39,27.61,87.26,Clear
KIGQ,08/05/2018 00:55 UTC,30.05,81.68,69.26,66.16,9.22,190.0,,,,,,1.0,,,,10.0,,KIGQ 050055Z AUTO 19008KT 10SM CLR 28/21 A3005 RMK AO2  T02760207,,,,,,69.28,,S,29.4,27.67,85.09,Clear
KIGQ,08/05/2018 01:15 UTC,30.05,80.6,68.9,67.68,8.05,190.0,,,,,,1.0,,,,10.0,,KIGQ 050115Z AUTO 19007KT 10SM CLR 27/21 A3005 RMK AO2  T02700205,,,,,,68.92,,S,29.4,27.71,83.6,Clear
KIGQ,08/05/2018 01:35 UTC,30.06,79.52,68.9,70.11,9.22,200.0,,,,,,1.0,,,,10.0,,KIGQ 050135Z AUTO 20008KT 10SM CLR 26/21 A3006 RMK AO2  T02640205,,,,,,68.91,,SSW,29.41,27.73,,Clear
KIGQ,08/05/2018 01:55 UTC,30.06,78.26,69.08,73.51,8.05,200.0,,,,,,1.0,,,,10.0,,KIGQ 050155Z AUTO 20007KT 10SM CLR 26/21 A3006 RMK AO2  T02570206,,,,,,69.08,,SSW,29.41,27.74,,Clear
KIGQ,08/05/2018 02:15 UTC,30.07,77.72,69.08,74.83,6.91,190.0,,,,,,1.0,,,,10.0,,KIGQ 050215Z AUTO 19006KT 10SM CLR 25/21 A3007 RMK AO2  T02540206,,,,,,69.08,,S,29.42,27.76,,Clear
KIGQ,08/05/2018 02:35 UTC,30.07,76.82,69.44,78.04,6.91,190.0,,,,,,1.0,,,,10.0,,KIGQ 050235Z AUTO 19006KT 10SM CLR 25/21 A3007 RMK AO2  T02490208,,,,,,69.44,,S,29.42,27.74,,Clear
KIGQ,08/05/2018 02:55 UTC,30.08,76.1,69.8,80.91,6.91,190.0,,,,,,1.0,,,,10.0,,KIGQ 050255Z AUTO 19006KT 10SM CLR 25/21 A3008 RMK AO2  T02450210,,,,,,69.79,,S,29.43,27.73,,Clear
KIGQ,08/05/2018 03:15 UTC,30.08,75.2,70.16,84.4,6.91,190.0,,,,,,1.0,,,,10.0,,KIGQ 050315Z AUTO 19006KT 10SM CLR 24/21 A3008 RMK AO2  T02400212,,,,,,70.16,,S,29.43,27.72,,Clear
KIGQ,08/05/2018 03:35 UTC,30.08,75.2,70.7,85.96,6.91,200.0,,,,,,1.0,,,,10.0,,KIGQ 050335Z AUTO 20006KT 10SM CLR 24/22 A3008 RMK AO2  T02400215,,,,,,70.7,,SSW,29.43,27.68,,Clear
KIGQ,08/05/2018 03:55 UTC,30.08,75.2,70.7,85.96,6.91,200.0,,,,,,1.0,,,,10.0,,KIGQ 050355Z AUTO 20006KT 10SM CLR 24/22 A3008 RMK AO2  T02400215,,,,,,70.7,,SSW,29.43,27.68,,Clear
KIGQ,08/05/2018 04:15 UTC,30.08,74.84,70.7,87.0,5.75,200.0,,,,,,1.0,,,,10.0,,KIGQ 050415Z AUTO 20005KT 10SM CLR 24/22 A3008 RMK AO2  T02380215,,,,,,70.7,,SSW,29.43,27.68,,Clear
KIGQ,08/05/2018 04:35 UTC,30.09,74.48,70.34,86.98,5.75,200.0,,,,,,1.0,,,,10.0,,KIGQ 050435Z AUTO 20005KT 10SM CLR 24/21 A3009 RMK AO2  T02360213,,,,,,70.33,,SSW,29.44,27.73,,Clear
KIGQ,08/05/2018 04:55 UTC,30.09,73.76,70.16,88.56,5.75,190.0,,,,,,1.0,,,,10.0,,KIGQ 050455Z AUTO 19005KT 10SM CLR 23/21 A3009 RMK AO2  T02320212,,,,,,70.16,,S,29.44,27.75,,Clear
KIGQ,08/05/2018 05:15 UTC,30.09,73.4,70.16,89.63,8.05,190.0,,,,,,1.0,,,,10.0,,KIGQ 050515Z AUTO 19007KT 10SM CLR 23/21 A3009 RMK AO2  T02300212,,,,,,70.15,,S,29.44,27.76,,Clear
KIGQ,08/05/2018 05:35 UTC,30.09,73.4,70.16,89.63,6.91,190.0,,,,,,1.0,,,,10.0,,KIGQ 050535Z AUTO 19006KT 10SM CLR 23/21 A3009 RMK AO2  T02300212,,,,,,70.15,,S,29.44,27.76,,Clear
KIGQ,08/05/2018 05:55 UTC,30.08,73.4,70.34,90.18,8.05,200.0,,,,,,1.0,,,,10.0,,KIGQ 050555Z AUTO 20007KT 10SM CLR 23/21 A3008 RMK AO2 T02300213  10300 20228 403330192,86.0,73.04,,91.94,66.56,70.33,,SSW,29.43,27.73,,Clear
KIGQ,08/05/2018 06:15 UTC,30.08,73.58,70.16,89.09,8.05,200.0,,,,,,1.0,,,,10.0,,KIGQ 050615Z AUTO 20007KT 10SM CLR 23/21 A3008 RMK AO2  T02310212,,,,,,70.15,,SSW,29.43,27.74,,Clear
KIGQ,08/05/2018 06:35 UTC,30.08,73.76,69.98,88.01,8.05,200.0,,,,,,1.0,,,,10.0,,KIGQ 050635Z AUTO 20007KT 10SM CLR 23/21 A3008 RMK AO2  T02320211,,,,,,69.97,,SSW,29.43,27.75,,Clear
KIGQ,08/05/2018 06:55 UTC,30.08,73.4,69.98,89.08,8.05,190.0,,,,,,1.0,,,,10.0,,KIGQ 050655Z AUTO 19007KT 10SM CLR 23/21 A3008 RMK AO2  T02300211,,,,,,69.97,,S,29.43,27.76,,Clear
KIGQ,08/05/2018 07:15 UTC,30.08,73.4,69.98,89.08,8.05,190.0,,,,,,1.0,,,,10.0,,KIGQ 050715Z AUTO 19007KT 10SM CLR 23/21 A3008 RMK AO2  T02300211,,,,,,69.97,,S,29.43,27.76,,Clear
KIGQ,08/05/2018 07:35 UTC,30.08,73.04,69.98,90.17,6.91,200.0,,,,,,1.0,,,,10.0,,KIGQ 050735Z AUTO 20006KT 10SM CLR 23/21 A3008 RMK AO2  T02280211,,,,,,69.97,,SSW,29.43,27.76,,Clear
KIGQ,08/05/2018 07:55 UTC,30.08,72.5,69.8,91.26,5.75,200.0,,,,,,1.0,,,,10.0,,KIGQ 050755Z AUTO 20005KT 10SM CLR 23/21 A3008 RMK AO2  T02250210,,,,,,69.79,,SSW,29.43,27.79,,Clear
KIGQ,08/05/2018 08:15 UTC,30.08,72.32,69.8,91.81,8.05,190.0,,,,,,1.0,,,,10.0,,KIGQ 050815Z AUTO 19007KT 10SM CLR 22/21 A3008 RMK AO2  T02240210,,,,,,69.79,,S,29.43,27.79,,Clear
KIGQ,08/05/2018 08:35 UTC,30.08,72.14,69.8,92.37,8.05,200.0,,,,,,1.0,,,,10.0,,KIGQ 050835Z AUTO 20007KT 10SM CLR 22/21 A3008 RMK AO2  T02230210,,,,,,69.79,,SSW,29.43,27.79,,Clear
KIGQ,08/05/2018 08:55 UTC,30.08,71.6,69.26,92.36,5.75,200.0,,,,,,1.0,,,,10.0,,KIGQ 050855Z AUTO 20005KT 10SM CLR 22/21 A3008 RMK AO2  T02200207,,,,,,69.25,,SSW,29.43,27.84,,Clear
KIGQ,08/05/2018 09:15 UTC,30.08,71.42,69.26,92.92,6.91,190.0,,,,,,1.0,,,,10.0,,KIGQ 050915Z AUTO 19006KT 10SM CLR 22/21 A3008 RMK AO2  T02190207,,,,,,69.25,,S,29.43,27.84,,Clear
KIGQ,08/05/2018 09:35 UTC,30.08,71.6,69.08,91.79,8.05,200.0,,,,,,1.0,,,,10.0,,KIGQ 050935Z AUTO 20007KT 10SM CLR 22/21 A3008 RMK AO2  T02200206,,,,,,69.07,,SSW,29.43,27.85,,Clear
KIGQ,08/05/2018 09:55 UTC,30.08,71.6,68.9,91.23,6.91,200.0,,,,,,1.0,,,,10.0,,KIGQ 050955Z AUTO 20006KT 10SM CLR 22/21 A3008 RMK AO2  T02200205,,,,,,68.89,,SSW,29.43,27.86,,Clear
KIGQ,08/05/2018 10:15 UTC,30.08,71.24,68.54,91.21,8.05,190.0,,,,,,1.0,,,,10.0,,KIGQ 051015Z AUTO 19007KT 10SM CLR 22/20 A3008 RMK AO2  T02180203,,,,,,68.53,,S,29.43,27.89,,Clear
KIGQ,08/05/2018 10:35 UTC,30.09,71.6,68.36,89.55,8.05,200.0,,,,,,1.0,,,,10.0,,KIGQ 051035Z AUTO 20007KT 10SM CLR 22/20 A3009 RMK AO2  T02200202,,,,,,68.35,,SSW,29.44,27.91,,Clear
KIGQ,08/05/2018 10:55 UTC,30.1,71.42,68.18,89.55,6.91,200.0,,,,,,1.0,,,,10.0,,KIGQ 051055Z AUTO 20006KT 10SM CLR 22/20 A3010 RMK AO2  T02190201,,,,,,68.17,,SSW,29.45,27.94,,Clear
KIGQ,08/05/2018 11:15 UTC,30.1,71.24,68.18,90.09,5.75,200.0,,,,,,1.0,,,,10.0,,KIGQ 051115Z AUTO 20005KT 10SM CLR 22/20 A3010 RMK AO2  T02180201,,,,,,68.17,,SSW,29.45,27.94,,Clear
KIGQ,08/05/2018 11:35 UTC,30.11,72.32,68.54,87.94,6.91,210.0,,,,,,1.0,,,,10.0,,KIGQ 051135Z AUTO 21006KT 10SM CLR 22/20 A3011 RMK AO2  T02240203,,,,,,68.53,,SSW,29.46,27.91,,Clear
KIGQ,08/05/2018 11:55 UTC,30.11,73.4,68.9,85.86,9.22,210.0,,,,,,1.0,,,,10.0,,KIGQ 051155Z AUTO 21008KT 10SM CLR 23/21 A3011 RMK AO2 T02300205  10232 20217,73.76,71.06,,,,68.89,,SSW,29.46,27.87,,Clear
KIGQ,08/05/2018 12:15 UTC,30.12,73.94,68.72,83.8,8.05,210.0,,,,,,1.0,,,,10.0,,KIGQ 051215Z AUTO 21007KT 10SM CLR 23/20 A3012 RMK AO2  T02330204,,,,,,68.71,,SSW,29.47,27.88,,Clear
KIGQ,08/05/2018 12:35 UTC,30.12,74.3,68.9,83.31,9.22,210.0,,,,,,1.0,,,,10.0,,KIGQ 051235Z AUTO 21008KT 10SM CLR 24/21 A3012 RMK AO2 LTG DSNT SW  T02350205,,,,,,68.89,,SSW,29.47,27.87,,Clear
KIGQ,08/05/2018 12:55 UTC,30.13,74.3,68.9,83.31,6.91,210.0,,,,,,1.0,,,,10.0,,KIGQ 051255Z AUTO 21006KT 10SM CLR 24/21 A3013 RMK AO2  T02350205,,,,,,68.89,,SSW,29.47,27.87,,Clear
KIGQ,08/05/2018 13:15 UTC,30.13,77.18,69.98,78.55,9.22,220.0,,,,,,852.0,1203.0,,,10.0,,KIGQ 051315Z AUTO 22008KT 10SM SCT085 BKN120 25/21 A3013 RMK AO2  T02510211,,,12000.0,,,69.98,,SW,29.47,27.75,,Mostly Cloudy
KIGQ,08/05/2018 13:35 UTC,30.13,78.44,69.98,75.36,9.22,230.0,,,,,,853.0,1203.0,,,10.0,,KIGQ 051335Z AUTO 23008KT 10SM BKN085 BKN120 26/21 A3013 RMK AO2  T02580211,,,8500.0,,,69.98,,SW,29.47,27.73,,Mostly Cloudy
KIGQ,08/05/2018 13:55 UTC,30.12,79.16,69.98,73.6,10.36,230.0,,,,,,852.0,1202.0,,,10.0,,KIGQ 051355Z AUTO 23009KT 10SM SCT085 SCT120 26/21 A3012 RMK AO2  T02620211,,,,,,69.99,,SW,29.47,27.72,,Partly Cloudy
KIGQ,08/05/2018 14:15 UTC,30.12,79.16,70.16,74.05,9.22,210.0,,,,,,1.0,,,,10.0,,KIGQ 051415Z AUTO 21008KT 10SM CLR 26/21 A3012 RMK AO2  T02620212,,,,,,70.17,,SSW,29.47,27.71,,Clear
KIGQ,08/05/2018 14:35 UTC,30.12,79.88,70.88,74.12,10.36,220.0,,,,,,1.0,,,,10.0,,KIGQ 051435Z AUTO 22009KT 10SM CLR 27/22 A3012 RMK AO2  T02660216,,,,,,70.89,,SW,29.47,27.64,,Clear
KIGQ,08/05/2018 14:55 UTC,30.11,82.04,71.24,69.94,9.22,200.0,,,,,,1.0,,,,10.0,,KIGQ 051455Z AUTO 20008KT 10SM CLR 28/22 A3011 RMK AO2  T02780218,,,,,,71.26,,SSW,29.46,27.57,86.5,Clear
KIGQ,08/05/2018 15:15 UTC,30.11,81.68,70.16,68.22,12.66,220.0,,,,,,1.0,,,,10.0,,KIGQ 051515Z AUTO 22011KT 10SM CLR 28/21 A3011 RMK AO2  T02760212,,,,,,70.18,,SW,29.46,27.66,85.49,Clear
KIGQ,08/05/2018 15:35 UTC,30.11,83.48,70.88,65.96,11.5,230.0,16.11,,,,,1.0,,,,10.0,,KIGQ 051535Z AUTO 23010G14KT 10SM CLR 29/22 A3011 RMK AO2  T02860216,,,,,,70.91,,SW,29.46,27.58,88.22,Clear
KIGQ,08/05/2018 15:55 UTC,30.13,83.66,70.16,63.99,12.66,240.0,16.11,,,,,1.0,,,,10.0,,KIGQ 051555Z AUTO 24011G14KT 10SM CLR 29/21 A3013 RMK AO2  T02870212,,,,,,70.19,,WSW,29.47,27.65,88.01,Clear
KIGQ,08/05/2018 16:15 UTC,30.13,83.66,70.7,65.18,11.5,240.0,16.11,,,,,1202.0,,,,10.0,,KIGQ 051615Z AUTO 24010G14KT 10SM SCT120 29/22 A3013 RMK AO2  T02870215,,,,,,70.74,,WSW,29.47,27.61,88.34,Partly Cloudy
KIGQ,08/05/2018 16:35 UTC,30.1,85.46,70.52,61.15,11.5,210.0,,,,,,1202.0,,,,10.0,,KIGQ 051635Z AUTO 21010KT 10SM SCT120 30/21 A3010 RMK AO2 LTG DSNT  W T02970214,,,,,,70.57,,SSW,29.45,27.58,90.47,Partly Cloudy
KIGQ,08/05/2018 16:55 UTC,30.09,85.82,71.6,62.71,8.05,200.0,,,,,,1.0,,,,10.0,,KIGQ 051655Z AUTO 20007KT 10SM CLR 30/22 A3009 RMK AO2  T02990220,,,,,,71.65,,SSW,29.44,27.47,91.73,Clear
KIGQ,08/05/2018 17:15 UTC,30.08,87.62,71.24,58.51,11.5,210.0,,,,,,1.0,,,,10.0,,KIGQ 051715Z AUTO 21010KT 10SM CLR 31/22 A3008 RMK AO2  T03090218,,,,,,71.31,,SSW,29.43,27.47,93.7,Clear
KIGQ,08/05/2018 17:35 UTC,30.06,88.7,71.78,57.6,12.66,190.0,,,,,,1.0,,,,10.0,,KIGQ 051735Z AUTO 19011KT 10SM CLR 32/22 A3006 RMK AO2 LTG DSNT N  T03150221,,,,,,71.87,,S,29.41,27.39,95.52,Clear
KIGQ,08/05/2018 17:55 UTC,30.07,89.78,69.8,52.06,12.66,200.0,18.41,,,,,1.0,,,,10.0,,KIGQ 051755Z AUTO 20011G16KT 10SM CLR 32/21 A3007 RMK AO2  T03210210 10321 20230,89.78,73.4,,,,69.91,,SSW,29.42,27.55,95.12,Clear
KIGQ,08/05/2018 18:15 UTC,30.06,89.96,70.34,52.73,13.8,200.0,18.41,,,,,1.0,,,,10.0,,KIGQ 051815Z AUTO 20012G16KT 10SM CLR 32/21 A3006 RMK AO2  T03220213,,,,,,70.45,,SSW,29.41,27.5,95.79,Clear
KIGQ,08/05/2018 18:35 UTC,30.06,90.86,71.06,52.53,14.97,200.0,21.85,,,,,1.0,,,,10.0,,KIGQ 051835Z AUTO 20013G19KT 10SM CLR 33/22 A3006 RMK AO2  T03270217,,,,,,71.18,,SSW,29.41,27.43,97.53,Clear
KIGQ,08/05/2018 18:55 UTC,30.06,89.42,69.08,51.37,16.11,220.0,20.71,,,,,1.0,,,,10.0,,KIGQ 051855Z AUTO 22014G18KT 10SM CLR 32/21 A3006 RMK AO2  T03190206,,,,,,69.19,,SW,29.41,27.6,94.12,Clear
KIGQ,08/05/2018 19:15 UTC,30.06,91.4,68.0,46.53,17.27,230.0,23.02,,,,,1.0,,,,10.0,,KIGQ 051915Z AUTO 23015G20KT 10SM CLR 33/20 A3006 RMK AO2  T03300200,,,,,,68.14,,SW,29.41,27.67,95.61,Clear
KIGQ,08/05/2018 19:35 UTC,30.06,91.94,69.26,47.78,17.27,230.0,24.16,,,,,1.0,,,,10.0,,KIGQ 051935Z AUTO 23015G21KT 10SM CLR 33/21 A3006 RMK AO2  T03330207,,,,,,69.4,,SW,29.41,27.56,97.25,Clear
KIGQ,08/05/2018 19:55 UTC,30.06,92.84,67.64,43.95,18.41,220.0,26.46,,,,,652.0,,,,10.0,,KIGQ 051955Z AUTO 22016G23KT 10SM SCT065 34/20 A3006 RMK AO2  T03380198,,,,,,67.8,,SW,29.41,27.68,97.03,Partly Cloudy
KIGQ,08/05/2018 20:15 UTC,30.06,93.02,66.38,41.85,18.41,230.0,26.46,,,,,752.0,,,,10.0,,KIGQ 052015Z AUTO 23016G23KT 10SM SCT075 34/19 A3006 RMK AO2  T03390191,,,,,,66.56,,SW,29.41,27.77,96.33,Partly Cloudy
KIGQ,08/05/2018 20:35 UTC,30.05,91.4,66.56,44.28,16.11,220.0,23.02,,,,,752.0,,,,10.0,,KIGQ 052035Z AUTO 22014G20KT 10SM SCT075 33/19 A3005 RMK AO2  T03300192,,,,,,66.71,,SW,29.4,27.76,94.58,Partly Cloudy
KIGQ,08/05/2018 20:55 UTC,30.06,92.3,66.38,42.79,19.57,230.0,26.46,,,,,752.0,,,,10.0,,KIGQ 052055Z AUTO 23017G23KT 10SM SCT075 34/19 A3006 RMK AO2  T03350191,,,,,,66.54,,SW,29.41,27.78,95.49,Partly Cloudy
KIGQ,08/05/2018 21:15 UTC,30.04,92.12,67.46,44.67,17.27,230.0,21.85,,,,,1.0,,,,10.0,,KIGQ 052115Z AUTO 23015G19KT 10SM CLR 33/20 A3004 RMK AO2  T03340197,,,,,,67.62,,SW,29.39,27.68,96.05,Clear
KIGQ,08/05/2018 21:35 UTC,30.03,91.58,68.72,47.43,13.8,250.0,,,,,,1.0,,,,10.0,,KIGQ 052135Z AUTO 25012KT 10SM CLR 33/20 A3003 RMK AO2  T03310204,,,,,,68.86,,WSW,29.38,27.58,96.38,Clear
KIGQ,08/05/2018 21:55 UTC,30.02,91.04,69.44,49.44,13.8,260.0,17.27,,,,,1.0,,,,10.0,,KIGQ 052155Z AUTO 26012G15KT 10SM CLR 33/21 A3002 RMK AO2  T03280208,,,,,,69.57,,W,29.37,27.52,96.32,Clear
KIGQ,08/05/2018 22:15 UTC,30.02,90.32,69.26,50.25,12.66,240.0,19.57,,,,,1.0,,,,10.0,,KIGQ 052215Z AUTO 24011G17KT 10SM CLR 32/21 A3002 RMK AO2  T03240207,,,,,,69.38,,WSW,29.37,27.54,95.32,Clear
KIGQ,08/05/2018 22:35 UTC,30.02,89.6,69.62,52.03,11.5,230.0,,,,,,1.0,,,,10.0,,KIGQ 052235Z AUTO 23010KT 10SM CLR 32/21 A3002 RMK AO2  T03200209,,,,,,69.72,,SW,29.37,27.52,94.75,Clear
KIGQ,08/05/2018 22:55 UTC,30.03,89.06,70.16,53.9,10.36,240.0,,,,,,1.0,,,,10.0,,KIGQ 052255Z AUTO 24009KT 10SM CLR 32/21 A3003 RMK AO2 LTG DSNT NW  T03170212,,,,,,70.25,,WSW,29.38,27.49,94.55,Clear
KIGQ,08/05/2018 23:15 UTC,30.04,89.6,68.18,49.53,16.11,230.0,,,,,,1.0,,,,10.0,,KIGQ 052315Z AUTO 23014KT 10SM CLR 32/20 A3004 RMK AO2  T03200201,,,,,,68.29,,SW,29.39,27.65,93.65,Clear
KIGQ,08/05/2018 23:35 UTC,30.04,88.88,67.46,49.43,11.5,230.0,,,,,,1.0,,,,10.0,,KIGQ 052335Z AUTO 23010KT 10SM CLR 32/20 A3004 RMK AO2  T03160197,,,,,,67.57,,SW,29.39,27.71,92.33,Clear
KIGQ,08/05/2018 23:55 UTC,30.04,87.62,66.74,50.17,10.36,220.0,,,,,,1.0,,,,10.0,,KIGQ 052355Z AUTO 22009KT 10SM CLR 31/19 A3004 RMK AO2 T03090193  10340 20309,93.2,87.62,,,,66.83,,SW,29.39,27.78,90.47,Clear
KIGQ,08/06/2018 00:15 UTC,30.05,84.38,69.08,60.27,6.91,200.0,,,,,,1.0,,,,10.0,,KIGQ 060015Z AUTO 20006KT 10SM CLR 29/21 A3005 RMK AO2  T02910206,,,,,,69.12,,SSW,29.4,27.65,88.24,Clear
KIGQ,08/06/2018 00:35 UTC,30.05,82.58,70.7,67.49,6.91,200.0,,,,,,1.0,,,,10.0,,KIGQ 060035Z AUTO 20006KT 10SM CLR 28/22 A3005 RMK AO2  T02810215,,,,,,70.73,,SSW,29.4,27.55,86.94,Clear
KIGQ,08/06/2018 00:55 UTC,30.06,81.5,70.7,69.89,6.91,210.0,,,,,,1.0,,,,10.0,,KIGQ 060055Z AUTO 21006KT 10SM CLR 28/22 A3006 RMK AO2  T02750215,,,,,,70.72,,SSW,29.41,27.57,85.49,Clear
KIGQ,08/06/2018 01:15 UTC,30.08,82.4,70.16,66.65,8.05,220.0,,,,,,1.0,,,,10.0,,KIGQ 060115Z AUTO 22007KT 10SM CLR 28/21 A3008 RMK AO2  T02800212,,,,,,70.19,,SW,29.43,27.62,86.42,Clear
KIGQ,08/06/2018 01:35 UTC,30.08,81.5,69.44,66.95,5.75,210.0,,,,,,1.0,,,,10.0,,KIGQ 060135Z AUTO 21005KT 10SM CLR 28/21 A3008 RMK AO2 LTG DSNT NW  T02750208,,,,,,69.46,,SSW,29.43,27.69,84.94,Clear
KIGQ,08/06/2018 01:55 UTC,30.08,78.08,69.8,75.79,5.75,190.0,,,,,,1.0,,,,10.0,,KIGQ 060155Z AUTO 19005KT 10SM CLR 26/21 A3008 RMK AO2 LTG DSNT NW  T02560210,,,,,,69.8,,S,29.43,27.71,,Clear
KIGQ,08/06/2018 02:15 UTC,30.08,77.0,69.98,79.02,5.75,190.0,,,,,,1.0,,,,10.0,,KIGQ 060215Z AUTO 19005KT 10SM CLR 25/21 A3008 RMK AO2  T02500211,,,,,,69.98,,S,29.43,27.71,,Clear
KIGQ,08/06/2018 02:35 UTC,30.09,77.9,70.7,78.61,5.75,210.0,,,,,,1.0,,,,10.0,,KIGQ 060235Z AUTO 21005KT 10SM CLR 26/22 A3009 RMK AO2 LTG DSNT NW  T02550215,,,,,,70.7,,SSW,29.44,27.65,,Clear
KIGQ,08/06/2018 02:55 UTC,30.09,78.8,71.6,78.68,5.75,210.0,,,,,,1.0,,,,10.0,,KIGQ 060255Z AUTO 21005KT 10SM CLR 26/22 A3009 RMK AO2 LTG DSNT NW  T02600220,,,,,,71.6,,SSW,29.44,27.57,,Clear
KIGQ,08/06/2018 03:15 UTC,30.09,78.08,71.96,81.55,5.75,200.0,,,,,,1.0,,,,10.0,,KIGQ 060315Z AUTO 20005KT 10SM CLR 26/22 A3009 RMK AO2  T02560222,,,,,,71.96,,SSW,29.44,27.55,,Clear
KIGQ,08/06/2018 03:35 UTC,30.1,78.26,72.32,82.06,4.61,230.0,,,,,,1.0,,,,10.0,,KIGQ 060335Z AUTO 23004KT 10SM CLR 26/22 A3010 RMK AO2  T02570224,,,,,,72.32,,SW,29.45,27.53,,Clear
KIGQ,08/06/2018 03:55 UTC,30.09,76.82,72.14,85.53,4.61,180.0,,,,,,1.0,,,,10.0,,KIGQ 060355Z AUTO 18004KT 10SM CLR 25/22 A3009 RMK AO2  T02490223,,,,,,72.14,,S,29.44,27.55,,Clear
KIGQ,08/06/2018 04:15 UTC,30.1,76.46,72.32,87.08,4.61,250.0,,,,,,382.0,552.0,,,10.0,,KIGQ 060415Z AUTO 25004KT 10SM SCT038 SCT055 25/22 A3010 RMK AO2  LTG DSNT NW T02470224,,,,,,72.32,,WSW,29.45,27.55,,Partly Cloudy
KIGQ,08/06/2018 04:35 UTC,30.09,77.9,72.32,83.04,4.61,220.0,,,652.0,,,382.0,552.0,,,10.0,,KIGQ 060435Z AUTO 22004KT 10SM SCT038 SCT055 SCT065 26/22 A3009 RMK AO2 T02550224,,,,,,72.32,,SW,29.44,27.52,,Partly Cloudy
KIGQ,08/06/2018 04:55 UTC,30.09,77.0,72.14,85.02,5.75,220.0,,,,,,1.0,,,,10.0,,KIGQ 060455Z AUTO 22005KT 10SM CLR 25/22 A3009 RMK AO2  T02500223,,,,,,72.14,,SW,29.44,27.55,,Clear
KIGQ,08/06/2018 05:15 UTC,30.08,77.36,71.6,82.5,0.0,0.0,,,,,,1.0,,,,10.0,,KIGQ 060515Z AUTO 00000KT 10SM CLR 25/22 A3008 RMK AO2  T02520220,,,,,,71.6,,N,29.43,27.58,,Clear
KIGQ,08/06/2018 05:35 UTC,30.07,77.54,68.0,72.54,0.0,0.0,,,,,,1.0,,,,10.0,,KIGQ 060535Z AUTO 00000KT 10SM CLR 25/20 A3007 RMK AO2  T02530200,,,,,,68.0,,N,29.42,27.84,,Clear
KIGQ,08/06/2018 05:55 UTC,30.06,75.2,68.0,78.39,4.61,180.0,,,,,,752.0,902.0,,,10.0,,KIGQ 060555Z AUTO 18004KT 10SM SCT075 SCT090 24/20 A3006 RMK AO2  LTG DSNT NW T02400200 10308 20240 403400217,87.44,75.2,,93.2,71.06,67.99,,S,29.41,27.86,,Partly Cloudy
KIGQ,08/06/2018 06:15 UTC,30.06,75.2,68.54,79.86,0.0,0.0,,,,,,1.0,,,,10.0,,KIGQ 060615Z AUTO 00000KT 10SM CLR 24/20 A3006 RMK AO2 LTG DSNT NW  T02400203,,,,,,68.53,,N,29.41,27.82,,Clear
KIGQ,08/06/2018 06:35 UTC,30.06,75.02,68.0,78.86,3.44,180.0,,,,,,1.0,,,,10.0,,KIGQ 060635Z AUTO 18003KT 10SM CLR 24/20 A3006 RMK AO2  T02390200,,,,,,67.99,,S,29.41,27.86,,Clear
KIGQ,08/06/2018 06:55 UTC,30.06,73.58,68.36,83.78,5.75,170.0,,,,,,1.0,,,,10.0,,KIGQ 060655Z AUTO 17005KT 10SM CLR 23/20 A3006 RMK AO2  T02310202,,,,,,68.35,,S,29.41,27.85,,Clear
KIGQ,08/06/2018 07:15 UTC,30.06,74.48,70.16,86.45,0.0,0.0,,,,,,1.0,,,,10.0,,KIGQ 060715Z AUTO 00000KT 10SM CLR 24/21 A3006 RMK AO2  T02360212,,,,,,70.15,,N,29.41,27.71,,Clear
KIGQ,08/06/2018 07:35 UTC,30.05,74.3,70.7,88.58,0.0,0.0,,,,,,1.0,,,,10.0,,KIGQ 060735Z AUTO 00000KT 10SM CLR 24/22 A3005 RMK AO2  T02350215,,,,,,70.69,,N,29.4,27.66,,Clear
KIGQ,08/06/2018 07:55 UTC,30.06,74.3,70.7,88.58,0.0,0.0,,,,,,1.0,,,,10.0,,KIGQ 060755Z AUTO 00000KT 10SM CLR 24/22 A3006 RMK AO2 LTG DSNT N  T02350215,,,,,,70.69,,N,29.41,27.67,,Clear
KIGQ,08/06/2018 08:15 UTC,30.05,72.68,70.52,92.96,3.44,180.0,,5.0,,,,1.0,,,,10.0,,KIGQ 060815Z AUTO 18003KT 10SM VCTS CLR 23/21 A3005 RMK AO2 LTG  DSNT N T02260214,,,,,,70.52,,S,29.4,27.7,,Thunder
KIGQ,08/06/2018 08:35 UTC,30.05,72.68,70.7,93.53,5.75,190.0,,,,,,1.0,,,,10.0,,KIGQ 060835Z AUTO 19005KT 10SM CLR 23/22 A3005 RMK AO2  T02260215,,,,,,70.7,,S,29.4,27.69,,Clear
KIGQ,08/06/2018 08:55 UTC,30.05,72.86,70.7,92.96,4.61,180.0,,,,,,1.0,,,,10.0,,KIGQ 060855Z AUTO 18004KT 10SM CLR 23/22 A3005 RMK AO2 LTG DSNT NW  T02270215,,,,,,70.69,,S,29.4,27.68,,Clear
KIGQ,08/06/2018 09:15 UTC,30.05,73.4,70.88,91.85,3.44,190.0,,,,,,1.0,,,,10.0,,KIGQ 060915Z AUTO 19003KT 10SM CLR 23/22 A3005 RMK AO2  T02300216,,,,,,70.88,,S,29.4,27.66,,Clear
KIGQ,08/06/2018 09:35 UTC,30.04,72.68,70.88,94.1,5.75,170.0,,,,,,1.0,,,,10.0,,KIGQ 060935Z AUTO 17005KT 10SM CLR 23/22 A3004 RMK AO2 LTG DSNT N  T02260216,,,,,,70.88,,S,29.39,27.66,,Clear
KIGQ,08/06/2018 09:55 UTC,30.04,72.86,71.6,95.84,4.61,200.0,,,,,,1.0,,,,10.0,,KIGQ 060955Z AUTO 20004KT 10SM CLR 23/22 A3004 RMK AO2 LTG DSNT N  AND NE T02270220,,,,,,71.6,,SSW,29.39,27.6,,Clear
KIGQ,08/06/2018 10:15 UTC,30.04,72.5,71.6,97.01,0.0,0.0,,,,,,1.0,,,,10.0,,KIGQ 061015Z AUTO 00000KT 10SM CLR 23/22 A3004 RMK AO2 LTG DSNT NE  T02250220,,,,,,71.6,,N,29.39,27.61,,Clear
KIGQ,08/06/2018 10:35 UTC,30.04,72.86,71.78,96.42,0.0,0.0,,,,,,852.0,,,,7.0,,KIGQ 061035Z AUTO 00000KT 7SM SCT085 23/22 A3004 RMK AO2 LTG DSNT  NE T02270221,,,,,,71.78,,N,29.39,27.59,,Partly Cloudy
KIGQ,08/06/2018 10:55 UTC,30.05,71.78,71.42,98.79,0.0,0.0,,,,,,652.0,853.0,,,10.0,,KIGQ 061055Z AUTO 00000KT 10SM SCT065 BKN085 22/22 A3005 RMK AO2  LTG DSNT N AND NE T02210219,,,8500.0,,,71.42,,N,29.4,27.64,,Mostly Cloudy
KIGQ,08/06/2018 11:15 UTC,30.06,73.58,72.5,96.44,0.0,0.0,,,854.0,,,252.0,653.0,,,10.0,,KIGQ 061115Z AUTO 00000KT 10SM SCT025 BKN065 OVC085 23/23 A3006 RMK AO2 LTG DSNT NE T02310225,,,6500.0,,,72.5,,N,29.41,27.54,,Overcast
KIGQ,08/06/2018 11:35 UTC,30.08,74.3,72.5,94.14,0.0,0.0,,,254.0,,,142.0,193.0,,,10.0,,KIGQ 061135Z AUTO 00000KT 10SM SCT014 BKN019 OVC025 24/23 A3008 RMK AO2 T02350225,,,1900.0,,,72.5,,N,29.43,27.55,,Overcast
KIGQ,08/06/2018 11:55 UTC,30.08,74.66,72.68,93.58,0.0,0.0,,,,,,214.0,,,,10.0,,KIGQ 061155Z AUTO 00000KT 10SM OVC021 24/23 A3008 RMK AO2  T02370226 10245 20220,76.1,71.6,2100.0,,,72.68,,N,29.43,27.53,,Overcast
KIGQ,08/06/2018 12:15 UTC,30.08,73.58,67.64,81.73,5.75,60.0,,,,,,234.0,,,,10.0,,KIGQ 061215Z AUTO 06005KT 10SM OVC023 23/20 A3008 RMK AO2 LTG DSNT  NE T02310198,,,2300.0,,,67.63,,ENE,29.43,27.92,,Overcast
KIGQ,08/06/2018 12:35 UTC,30.08,73.58,67.28,80.73,5.75,80.0,,,804.0,,,232.0,703.0,,,10.0,,KIGQ 061235Z AUTO 08005KT 10SM SCT023 BKN070 OVC080 23/20 A3008 RMK AO2 LTG DSNT NE T02310196,,,7000.0,,,67.27,,E,29.43,27.95,,Overcast
KIGQ,08/06/2018 12:55 UTC,30.07,73.76,68.18,82.76,6.91,90.0,,,,,,702.0,903.0,,,10.0,,KIGQ 061255Z AUTO 09006KT 10SM SCT070 BKN090 23/20 A3007 RMK AO2  LTG DSNT NE AND W T02320201,,,9000.0,,,68.17,,E,29.42,27.87,,Mostly Cloudy
KIGQ,08/06/2018 13:15 UTC,30.07,75.38,68.0,77.92,8.05,90.0,,,,,,902.0,,,,10.0,,KIGQ 061315Z AUTO 09007KT 10SM SCT090 24/20 A3007 RMK AO2  T02410200,,,,,,67.99,,E,29.42,27.86,,Partly Cloudy
KIGQ,08/06/2018 13:35 UTC,30.06,75.38,68.0,77.92,6.91,110.0,,,,,,902.0,,,,10.0,,KIGQ 061335Z AUTO 11006KT 10SM SCT090 24/20 A3006 RMK AO2 LTG DSNT  NE AND NW T02410200,,,,,,67.99,,ESE,29.41,27.85,,Partly Cloudy
KIGQ,08/06/2018 13:55 UTC,30.05,75.74,68.36,77.95,5.75,110.0,,,,,,1.0,,,,10.0,,KIGQ 061355Z AUTO 11005KT 10SM CLR 24/20 A3005 RMK AO2  T02430202,,,,,,68.35,,ESE,29.4,27.81,,Clear
KIGQ,08/06/2018 14:15 UTC,30.05,75.74,68.72,78.92,5.75,110.0,,,,,,852.0,,,,10.0,,KIGQ 061415Z AUTO 11005KT 10SM SCT085 24/20 A3005 RMK AO2 LTG DSNT  N AND NW T02430204,,,,,,68.71,,ESE,29.4,27.79,,Partly Cloudy
KIGQ,08/06/2018 14:35 UTC,30.05,75.92,68.9,78.93,3.44,120.0,,,,,,852.0,1102.0,,,10.0,,KIGQ 061435Z AUTO 12003KT 10SM SCT085 SCT110 24/21 A3005 RMK AO2  LTG DSNT N T02440205,,,,,,68.89,,ESE,29.4,27.77,,Partly Cloudy
KIGQ,08/06/2018 14:55 UTC,30.06,76.46,69.08,78.01,0.0,0.0,,,,,,213.0,1103.0,,,10.0,,KIGQ 061455Z AUTO 00000KT 10SM BKN021 BKN110 25/21 A3006 RMK AO2  LTG DSNT NW T02470206,,,2100.0,,,69.08,,N,29.41,27.76,,Mostly Cloudy
KIGQ,08/06/2018 15:15 UTC,30.07,75.2,69.62,82.86,3.44,10.0,,1.0,,,,194.0,,,,10.0,,KIGQ 061515Z AUTO 01003KT 10SM RA OVC019 24/21 A3007 RMK AO2 LTG  DSNT SW T02400209,,,1900.0,,,69.61,,N,29.42,27.75,,Rain
KIGQ,08/06/2018 15:35 UTC,30.09,74.3,70.34,87.5,5.75,330.0,,13.0,,,,214.0,,,,10.0,,KIGQ 061535Z AUTO 33005KT 10SM -RA OVC021 24/21 A3009 RMK AO2 LTG  DSNT N T02350213,,,2100.0,,,70.33,,NNW,29.44,27.73,,Light Rain
KIGQ,08/06/2018 15:55 UTC,30.08,72.86,70.7,92.96,4.61,30.0,,13.0,,,,234.0,,,,10.0,,KIGQ 061555Z AUTO 03004KT 10SM -RA OVC023 23/22 A3008 RMK AO2  T02270215,,,2300.0,,,70.69,,NNE,29.43,27.71,,Light Rain
KIGQ,08/06/2018 16:15 UTC,30.06,73.76,72.32,95.28,4.61,60.0,,13.0,392.0,,,232.0,332.0,,,10.0,,KIGQ 061615Z AUTO 06004KT 10SM -RA SCT023 SCT033 SCT039 23/22  A3006 RMK AO2 T02320224,,,,,,72.32,,ENE,29.41,27.55,,Light Rain
KIGQ,08/06/2018 16:35 UTC,30.06,75.38,72.86,91.92,4.61,40.0,,,,,,93.0,223.0,,,10.0,,KIGQ 061635Z AUTO 04004KT 10SM BKN009 BKN022 24/23 A3006 RMK AO2  T02410227,,,900.0,,,72.86,,NE,29.41,27.49,,Mostly Cloudy
KIGQ,08/06/2018 16:55 UTC,30.03,75.2,72.14,90.25,5.75,100.0,,,,,,93.0,223.0,,,10.0,,KIGQ 061655Z AUTO 10005KT 10SM BKN009 BKN022 24/22 A3003 RMK AO2  T02400223,,,900.0,,,72.14,,E,29.38,27.52,,Mostly Cloudy
KIGQ,08/06/2018 17:15 UTC,30.03,75.74,72.5,89.73,3.44,110.0,,,,,,112.0,,,,10.0,,KIGQ 061715Z AUTO 11003KT 10SM SCT011 24/23 A3003 RMK AO2  T02430225,,,,,,72.5,,ESE,29.38,27.48,,Partly Cloudy
KIGQ,08/06/2018 17:35 UTC,30.02,77.0,72.86,87.11,5.75,130.0,,,,,,162.0,,,,10.0,,KIGQ 061735Z AUTO 13005KT 10SM SCT016 25/23 A3002 RMK AO2  T02500227,,,,,,72.86,,SE,29.37,27.42,,Partly Cloudy
KIGQ,08/06/2018 17:55 UTC,30.01,78.62,73.94,85.63,4.61,90.0,,,,,,163.0,213.0,,,10.0,,KIGQ 061755Z AUTO 09004KT 10SM BKN016 BKN021 26/23 A3001 RMK AO2  T02590233 10261 20226,78.98,72.68,1600.0,,,73.94,,E,29.36,27.3,,Mostly Cloudy
KIGQ,08/06/2018 18:15 UTC,30.0,79.34,74.66,85.67,6.91,190.0,,,,,,143.0,214.0,,,10.0,,KIGQ 061815Z AUTO 19006KT 10SM BKN014 OVC021 26/24 A3000 RMK AO2  T02630237,,,1400.0,,,74.66,,S,29.35,27.22,,Overcast
KIGQ,08/06/2018 18:35 UTC,30.0,81.14,75.2,82.26,10.36,210.0,,,,0.1,,163.0,,,,,,KIGQ 061835Z AUTO 21009KT BKN016 27/24 A3000 RMK AO2 P0010  T02730240 PWINO,,,1600.0,,,75.21,,SSW,29.35,27.14,87.21,Mostly Cloudy
KIGQ,08/06/2018 18:55 UTC,30.0,81.14,74.48,80.3,9.22,200.0,,,,0.1,,182.0,252.0,,,10.0,,KIGQ 061855Z AUTO 20008KT 10SM SCT018 SCT025 27/24 A3000 RMK AO2  P0010 T02730236,,,,,,74.49,,SSW,29.35,27.2,86.81,Partly Cloudy
KIGQ,08/06/2018 19:15 UTC,29.99,82.4,74.66,77.56,10.36,200.0,,,,,,222.0,272.0,,,10.0,,KIGQ 061915Z AUTO 20009KT 10SM SCT022 SCT027 28/24 A2999 RMK AO2  T02800237,,,,,,74.68,,SSW,29.34,27.16,89.11,Partly Cloudy
KIGQ,08/06/2018 19:35 UTC,29.99,83.84,75.02,74.94,12.66,220.0,17.27,,,,,222.0,1202.0,,,10.0,,KIGQ 061935Z AUTO 22011G15KT 10SM SCT022 SCT120 29/24 A2999 RMK AO2 T02880239,,,,,,75.05,,SW,29.34,27.11,91.75,Partly Cloudy
KIGQ,08/06/2018 19:55 UTC,29.99,84.38,75.2,74.09,13.8,240.0,18.41,,,,,222.0,1103.0,,,10.0,,KIGQ 061955Z AUTO 24012G16KT 210V320 10SM SCT022 BKN110 29/24  A2999 RMK AO2 T02910240,,,11000.0,,,75.23,,WSW,29.34,27.08,92.76,Mostly Cloudy
KIGQ,08/06/2018 20:15 UTC,29.98,84.2,75.38,74.97,11.5,200.0,19.57,,,,,242.0,1103.0,,,10.0,,KIGQ 062015Z AUTO 20010G17KT 10SM SCT024 BKN110 29/24 A2998 RMK AO2 T02900241,,,11000.0,,,75.41,,SSW,29.33,27.06,92.64,Mostly Cloudy
KIGQ,08/06/2018 20:35 UTC,29.98,84.38,75.2,74.09,10.36,220.0,,,,,,262.0,1103.0,,,10.0,,KIGQ 062035Z AUTO 22009KT 190V250 10SM SCT026 BKN110 29/24 A2998 RMK AO2 T02910240,,,11000.0,,,75.23,,SW,29.33,27.07,92.76,Mostly Cloudy
KIGQ,08/06/2018 20:55 UTC,29.98,83.84,74.66,74.04,10.36,200.0,,,1102.0,,0.1,262.0,752.0,,,10.0,,KIGQ 062055Z AUTO 20009KT 10SM SCT026 SCT075 SCT110 29/24 A2998 RMK AO2 60010 T02880237,,,,,,74.69,,SSW,29.33,27.13,91.44,Partly Cloudy
KIGQ,08/06/2018 21:15 UTC,29.98,84.2,75.2,74.52,8.05,210.0,,,443.0,,,282.0,353.0,,,10.0,,KIGQ 062115Z AUTO 21007KT 10SM SCT028 BKN035 BKN044 29/24 A2998 RMK AO2 T02900240,,,3500.0,,,75.23,,SSW,29.33,27.08,92.48,Mostly Cloudy
KIGQ,08/06/2018 21:35 UTC,29.97,83.3,74.66,75.34,6.91,220.0,,,1004.0,,,302.0,353.0,,,10.0,,KIGQ 062135Z AUTO 22006KT 10SM SCT030 BKN035 OVC100 29/24 A2997 RMK AO2 T02850237,,,3500.0,,,74.68,,SW,29.32,27.13,90.59,Overcast
KIGQ,08/06/2018 21:55 UTC,29.96,84.74,74.3,71.08,5.75,330.0,,5.0,704.0,,,332.0,453.0,,,10.0,,KIGQ 062155Z AUTO 33005KT 10SM VCTS SCT033 BKN045 OVC070 29/24  A2996 RMK AO2 LTG DSNT NE AND E T02930235,,,4500.0,,,74.34,,NNW,29.31,27.13,92.51,Thunder
KIGQ,08/06/2018 22:15 UTC,29.96,78.08,72.86,84.06,9.22,20.0,,5.0,604.0,,,332.0,483.0,,,10.0,,KIGQ 062215Z AUTO 02008KT 10SM VCTS SCT033 BKN048 OVC060 26/23  A2996 RMK AO2 LTG DSNT ALQS T02560227,,,4800.0,,,72.86,,NNE,29.31,27.34,,Thunder
KIGQ,08/06/2018 22:35 UTC,29.96,78.8,73.22,83.1,8.05,10.0,,5.0,653.0,,,412.0,503.0,,,10.0,,KIGQ 062235Z AUTO 01007KT 10SM TS SCT041 BKN050 BKN065 26/23 A2996 RMK AO2 LTG DSNT ALQS T02600229,,,5000.0,,,73.22,,N,29.31,27.3,,Thunder
KIGQ,08/06/2018 22:55 UTC,29.95,78.8,72.5,81.11,8.05,360.0,,5.0,1202.0,,,392.0,652.0,,,10.0,,KIGQ 062255Z AUTO 36007KT 10SM VCTS SCT039 SCT065 SCT120 26/23  A2995 RMK AO2 LTG DSNT NE THRU S T02600225,,,,,,72.5,,N,29.3,27.35,,Thunder
KIGQ,08/06/2018 23:15 UTC,29.95,76.82,72.14,85.53,9.22,10.0,,,653.0,,,322.0,422.0,,,10.0,,KIGQ 062315Z AUTO 01008KT 10SM SCT032 SCT042 BKN065 25/22 A2995 RMK AO2 LTG DSNT E THRU S T02490223,,,6500.0,,,72.14,,N,29.3,27.41,,Mostly Cloudy
KIGQ,08/06/2018 23:35 UTC,29.95,76.1,72.5,88.66,5.75,40.0,,,654.0,,,412.0,503.0,,,10.0,,KIGQ 062335Z AUTO 04005KT 10SM SCT041 BKN050 OVC065 25/23 A2995 RMK AO2 LTG DSNT E THRU S T02450225,,,5000.0,,,72.5,,NE,29.3,27.39,,Overcast
KIGQ,08/06/2018 23:55 UTC,29.96,76.1,72.14,87.59,5.75,40.0,,,654.0,,,332.0,553.0,0.1,,10.0,,KIGQ 062355Z AUTO 04005KT 10SM SCT033 BKN055 OVC065 25/22 A2996 RMK AO2 LTG DSNT SE AND S 60010 T02450223 10293 20245,84.74,76.1,5500.0,,,72.14,,NE,29.31,27.43,,Overcast
KIGQ,08/07/2018 00:15 UTC,29.97,76.1,72.32,88.13,4.61,20.0,,,554.0,,,352.0,413.0,,,10.0,,KIGQ 070015Z AUTO 02004KT 10SM SCT035 BKN041 OVC055 25/22 A2997 RMK AO2 LTG DSNT E T02450224,,,4100.0,,,72.32,,NNE,29.32,27.43,,Overcast
KIGQ,08/07/2018 00:35 UTC,29.97,75.38,71.96,89.17,5.75,50.0,,,504.0,,,122.0,343.0,,,10.0,,KIGQ 070035Z AUTO 05005KT 10SM SCT012 BKN034 OVC050 24/22 A2997 RMK AO2 LTG DSNT SE AND S T02410222,,,3400.0,,,71.96,,NE,29.32,27.47,,Overcast
KIGQ,08/07/2018 00:55 UTC,29.99,74.3,71.78,91.88,5.75,60.0,,,463.0,,,122.0,392.0,,,10.0,,KIGQ 070055Z AUTO 06005KT 10SM SCT012 SCT039 BKN046 24/22 A2999 RMK AO2 LTG DSNT SE AND S T02350221,,,4600.0,,,71.78,,ENE,29.34,27.52,,Mostly Cloudy
KIGQ,08/07/2018 01:15 UTC,29.98,73.94,71.6,92.43,5.75,50.0,,,,,,472.0,703.0,,,10.0,,KIGQ 070115Z AUTO 05005KT 10SM SCT047 BKN070 23/22 A2998 RMK AO2  LTG DSNT SE AND SW T02330220,,,7000.0,,,71.6,,NE,29.33,27.53,,Mostly Cloudy
KIGQ,08/07/2018 01:35 UTC,29.99,73.58,71.6,93.55,5.75,40.0,,,,,,702.0,802.0,,,10.0,,KIGQ 070135Z AUTO 04005KT 10SM SCT070 SCT080 23/22 A2999 RMK AO2  LTG DSNT S T02310220,,,,,,71.6,,NE,29.34,27.54,,Partly Cloudy
KIGQ,08/07/2018 01:55 UTC,29.99,73.58,71.42,92.98,3.44,40.0,,,,,,802.0,1202.0,,,10.0,,KIGQ 070155Z AUTO 04003KT 10SM SCT080 SCT120 23/22 A2999 RMK AO2  LTG DSNT S T02310219,,,,,,71.42,,NE,29.34,27.56,,Partly Cloudy
KIGQ,08/07/2018 02:15 UTC,30.0,73.58,71.42,92.98,3.44,90.0,,,803.0,,,552.0,702.0,,,10.0,,KIGQ 070215Z AUTO 09003KT 10SM SCT055 SCT070 BKN080 23/22 A3000 RMK AO2 T02310219,,,8000.0,,,71.42,,E,29.35,27.57,,Mostly Cloudy
KIGQ,08/07/2018 02:35 UTC,30.0,72.86,71.24,94.68,3.44,110.0,,,803.0,,,502.0,653.0,,,10.0,,KIGQ 070235Z AUTO 11003KT 10SM SCT050 BKN065 BKN080 23/22 A3000 RMK AO2 LTG DSNT E AND SE T02270218,,,6500.0,,,71.24,,ESE,29.35,27.59,,Mostly Cloudy
KIGQ,08/07/2018 02:55 UTC,30.01,73.04,71.78,95.84,4.61,100.0,,,,,,502.0,802.0,,,10.0,,KIGQ 070255Z AUTO 10004KT 10SM SCT050 SCT080 23/22 A3001 RMK AO2  T02280221,,,,,,71.78,,E,29.36,27.56,,Partly Cloudy
KIGQ,08/07/2018 03:15 UTC,30.01,72.86,71.6,95.84,0.0,0.0,,,,,,502.0,,,,10.0,,KIGQ 070315Z AUTO 00000KT 10SM SCT050 23/22 A3001 RMK AO2  T02270220,,,,,,71.6,,N,29.36,27.57,,Partly Cloudy
KIGQ,08/07/2018 03:35 UTC,30.01,72.68,71.6,96.42,0.0,0.0,,,,,,1102.0,,,,10.0,,KIGQ 070335Z AUTO 00000KT 10SM SCT110 23/22 A3001 RMK AO2  T02260220,,,,,,71.6,,N,29.36,27.58,,Partly Cloudy
KIGQ,08/07/2018 03:55 UTC,30.0,72.32,71.6,97.6,0.0,0.0,,,1103.0,,,302.0,553.0,,,7.0,,KIGQ 070355Z AUTO 00000KT 7SM SCT030 BKN055 BKN110 22/22 A3000 RMK AO2 T02240220,,,5500.0,,,71.6,,N,29.35,27.57,,Mostly Cloudy
KIGQ,08/07/2018 04:15 UTC,30.0,71.42,70.52,96.99,0.0,0.0,,,,,,302.0,503.0,,,7.0,,KIGQ 070415Z AUTO 00000KT 7SM SCT030 BKN050 22/21 A3000 RMK AO2  T02190214,,,5000.0,,,70.52,,N,29.35,27.67,,Mostly Cloudy
KIGQ,08/07/2018 04:35 UTC,30.0,69.98,69.8,99.39,0.0,0.0,,31.0,,,,1102.0,,,,5.0,,KIGQ 070435Z AUTO 00000KT 5SM BR SCT110 21/21 A3000 RMK AO2  T02110210,,,,,,69.8,,N,29.35,27.74,,Mist
KIGQ,08/07/2018 04:55 UTC,30.0,71.24,71.24,100.0,0.0,0.0,,,,,,1102.0,,,,7.0,,KIGQ 070455Z AUTO 00000KT 7SM SCT110 22/22 A3000 RMK AO2  T02180218,,,,,,71.24,,N,29.35,27.62,,Partly Cloudy
KIGQ,08/07/2018 05:15 UTC,30.0,71.6,71.24,98.79,0.0,0.0,,,,,,1.0,,,,7.0,,KIGQ 070515Z AUTO 00000KT 7SM CLR 22/22 A3000 RMK AO2  T02200218,,,,,,71.24,,N,29.35,27.61,,Clear
KIGQ,08/07/2018 05:35 UTC,30.0,71.24,71.24,100.0,0.0,0.0,,,,,,1.0,,,,7.0,,KIGQ 070535Z AUTO 00000KT 7SM CLR 22/22 A3000 RMK AO2  T02180218,,,,,,71.24,,N,29.35,27.62,,Clear
KIGQ,08/07/2018 05:55 UTC,30.0,70.88,70.88,100.0,0.0,0.0,,31.0,,,,1.0,,,,5.0,,KIGQ 070555Z AUTO 00000KT 5SM BR CLR 22/22 A3000 RMK AO2 T02160216  10245 20209 402930209,76.1,69.62,,84.74,69.62,70.88,,N,29.35,27.65,,Mist
KIGQ,08/07/2018 06:15 UTC,29.99,70.7,70.7,100.0,0.0,0.0,,31.0,,,,232.0,302.0,,,5.0,,KIGQ 070615Z AUTO 00000KT 5SM BR SCT023 SCT030 22/22 A2999 RMK AO2  T02150215,,,,,,70.7,,N,29.34,27.65,,Mist
KIGQ,08/07/2018 06:35 UTC,29.97,69.98,69.98,100.0,0.0,0.0,,31.0,,,,233.0,303.0,,,4.0,,KIGQ 070635Z AUTO 00000KT 4SM BR BKN023 BKN030 21/21 A2997 RMK AO2  T02110211,,,2300.0,,,69.98,,N,29.32,27.7,,Mist
KIGQ,08/07/2018 06:55 UTC,29.96,70.16,70.16,100.0,0.0,0.0,,31.0,,,,232.0,323.0,,,4.0,,KIGQ 070655Z AUTO 00000KT 4SM BR SCT023 BKN032 21/21 A2996 RMK AO2  T02120212,,,3200.0,,,70.16,,N,29.31,27.67,,Mist
KIGQ,08/07/2018 07:15 UTC,29.97,70.7,70.7,100.0,0.0,0.0,,31.0,,,,272.0,322.0,,,5.0,,KIGQ 070715Z AUTO 00000KT 5SM BR SCT027 SCT032 22/22 A2997 RMK AO2  T02150215,,,,,,70.7,,N,29.32,27.63,,Mist
KIGQ,08/07/2018 07:35 UTC,29.97,70.7,70.7,100.0,3.44,320.0,,31.0,,,,1.0,,,,5.0,,KIGQ 070735Z AUTO 32003KT 5SM BR CLR 22/22 A2997 RMK AO2  T02150215,,,,,,70.7,,NW,29.32,27.63,,Mist
KIGQ,08/07/2018 07:55 UTC,29.97,70.7,70.7,100.0,0.0,0.0,,31.0,,,,1.0,,,,4.0,,KIGQ 070755Z AUTO 00000KT 4SM BR CLR 22/22 A2997 RMK AO2  T02150215,,,,,,70.7,,N,29.32,27.63,,Mist
KIGQ,08/07/2018 08:15 UTC,29.98,70.16,70.16,100.0,0.0,0.0,,31.0,,,,1.0,,,,4.0,,KIGQ 070815Z AUTO 00000KT 4SM BR CLR 21/21 A2998 RMK AO2  T02120212,,,,,,70.16,,N,29.33,27.69,,Mist
KIGQ,08/07/2018 08:35 UTC,29.98,70.7,70.7,100.0,0.0,0.0,,31.0,,,,1.0,,,,3.0,,KIGQ 070835Z AUTO 00000KT 3SM BR CLR 22/22 A2998 RMK AO2  T02150215,,,,,,70.7,,N,29.33,27.64,,Mist
KIGQ,08/07/2018 08:55 UTC,29.98,68.72,68.72,100.0,0.0,0.0,,31.0,,,,1.0,,,,2.0,,KIGQ 070855Z AUTO 00000KT 2SM BR CLR 20/20 A2998 RMK AO2  T02040204,,,,,,68.72,,N,29.33,27.82,,Mist
KIGQ,08/07/2018 09:15 UTC,29.98,68.9,68.9,100.0,0.0,0.0,,31.0,,,,383.0,,,,2.0,,KIGQ 070915Z AUTO 00000KT 2SM BR BKN038 21/21 A2998 RMK AO2  T02050205,,,3800.0,,,68.9,,N,29.33,27.8,,Mist
KIGQ,08/07/2018 09:35 UTC,29.97,68.9,68.9,100.0,0.0,0.0,,31.0,,,,382.0,,,,1.25,,KIGQ 070935Z AUTO 00000KT 1 1/4SM BR SCT038 21/21 A2997 RMK AO2  T02050205,,,,,,68.9,,N,29.32,27.79,,Mist
KIGQ,08/07/2018 09:55 UTC,29.98,68.36,68.36,100.0,0.0,0.0,,31.0,,,,62.0,,,,1.5,,KIGQ 070955Z AUTO 00000KT 1 1/2SM BR SCT006 20/20 A2998 RMK AO2  T02020202,,,,,,68.36,,N,29.33,27.85,,Mist
KIGQ,08/07/2018 10:15 UTC,29.97,68.18,68.18,100.0,0.0,0.0,,31.0,,,,75.0,,,,1.5,,KIGQ 071015Z AUTO 00000KT 1 1/2SM BR VV007 20/20 A2997 RMK AO2  T02010201,,,700.0,,,68.18,,N,29.32,27.85,,Mist
KIGQ,08/07/2018 10:35 UTC,29.96,69.26,69.26,100.0,0.0,0.0,,31.0,,,,1.0,,,,3.0,,KIGQ 071035Z AUTO 00000KT 3SM BR CLR 21/21 A2996 RMK AO2  T02070207,,,,,,69.26,,N,29.31,27.75,,Mist
KIGQ,08/07/2018 10:55 UTC,29.97,69.8,69.8,100.0,0.0,0.0,,31.0,,,,1.0,,,,3.0,,KIGQ 071055Z AUTO 00000KT 3SM BR CLR 21/21 A2997 RMK AO2  T02100210,,,,,,69.8,,N,29.32,27.71,,Mist
KIGQ,08/07/2018 11:15 UTC,29.96,68.72,68.72,100.0,0.0,0.0,,31.0,,,,75.0,,,,1.5,,KIGQ 071115Z AUTO 00000KT 1 1/2SM BR VV007 20/20 A2996 RMK AO2  T02040204,,,700.0,,,68.72,,N,29.31,27.8,,Mist
KIGQ,08/07/2018 11:35 UTC,29.96,69.8,69.8,100.0,0.0,0.0,,31.0,,,,75.0,,,,1.75,,KIGQ 071135Z AUTO 00000KT 1 3/4SM BR VV007 21/21 A2996 RMK AO2 LTG  DSNT S T02100210,,,700.0,,,69.8,,N,29.31,27.7,,Mist
KIGQ,08/07/2018 11:55 UTC,29.97,70.34,70.34,100.0,0.0,0.0,,31.0,,,,1.0,,,0.1,2.5,,KIGQ 071155Z AUTO 00000KT 2 1/2SM BR CLR 21/21 A2997 RMK AO2 LTG  DSNT S 70010 T02130213 10217 20200,71.06,68.0,,,,70.34,,N,29.32,27.67,,Mist
KIGQ,08/07/2018 12:15 UTC,29.98,71.42,71.06,98.79,0.0,0.0,,31.0,,,,1.0,,,,2.0,,KIGQ 071215Z AUTO 00000KT 2SM BR CLR 22/22 A2998 RMK AO2  T02190217,,,,,,71.06,,N,29.33,27.61,,Mist
KIGQ,08/07/2018 12:35 UTC,29.99,72.5,71.42,96.42,4.61,190.0,,31.0,1202.0,,,322.0,372.0,,,2.5,,KIGQ 071235Z AUTO 19004KT 2 1/2SM BR SCT032 SCT037 SCT120 23/22  A2999 RMK AO2 LTG DSNT SW T02250219,,,,,,71.42,,S,29.34,27.57,,Mist
KIGQ,08/07/2018 12:55 UTC,30.0,72.86,72.14,97.6,3.44,170.0,,31.0,,,,323.0,394.0,,,2.5,,KIGQ 071255Z AUTO 17003KT 2 1/2SM BR BKN032 OVC039 23/22 A3000 RMK AO2 T02270223,,,3200.0,,,72.14,,S,29.35,27.52,,Mist
KIGQ,08/07/2018 13:15 UTC,29.99,73.4,71.6,94.12,3.44,140.0,,31.0,,,,303.0,374.0,,,3.0,,KIGQ 071315Z AUTO 14003KT 3SM BR BKN030 OVC037 23/22 A2999 RMK AO2  T02300220,,,3000.0,,,71.6,,SE,29.34,27.55,,Mist
KIGQ,08/07/2018 13:35 UTC,29.99,74.3,71.78,91.88,0.0,0.0,,31.0,474.0,,,282.0,332.0,,,4.0,,KIGQ 071335Z AUTO 00000KT 4SM BR SCT028 SCT033 OVC047 24/22 A2999 RMK AO2 T02350221,,,4700.0,,,71.78,,N,29.34,27.52,,Mist
KIGQ,08/07/2018 13:55 UTC,30.0,76.1,70.7,83.43,0.0,0.0,,6.0,,,,472.0,,,,5.0,,KIGQ 071355Z AUTO 00000KT 5SM HZ SCT047 25/22 A3000 RMK AO2  T02450215,,,,,,70.7,,N,29.35,27.58,,Haze
KIGQ,08/07/2018 14:15 UTC,29.99,76.1,71.06,84.45,4.61,160.0,,6.0,312.0,,,132.0,232.0,,,5.0,,KIGQ 071415Z AUTO 16004KT 5SM HZ SCT013 SCT023 SCT031 25/22 A2999 RMK AO2 T02450217,,,,,,71.06,,SSE,29.34,27.55,,Haze
KIGQ,08/07/2018 14:35 UTC,30.0,76.64,71.06,82.95,0.0,0.0,,,313.0,,,152.0,232.0,,,7.0,,KIGQ 071435Z AUTO 00000KT 7SM SCT015 SCT023 BKN031 25/22 A3000 RMK AO2 T02480217,,,3100.0,,,71.06,,N,29.35,27.55,,Mostly Cloudy
KIGQ,08/07/2018 14:55 UTC,30.0,76.1,70.88,83.94,4.61,140.0,,,332.0,,,172.0,232.0,,,7.0,,KIGQ 071455Z AUTO 14004KT 7SM SCT017 SCT023 SCT033 25/22 A3000 RMK AO2 T02450216,,,,,,70.88,,SE,29.35,27.57,,Partly Cloudy
KIGQ,08/07/2018 15:15 UTC,30.0,76.28,70.88,83.44,4.61,160.0,,,403.0,,,152.0,332.0,,,10.0,,KIGQ 071515Z AUTO 16004KT 10SM SCT015 SCT033 BKN040 25/22 A3000 RMK AO2 T02460216,,,4000.0,,,70.88,,SSE,29.35,27.57,,Mostly Cloudy
KIGQ,08/07/2018 15:35 UTC,30.0,77.9,69.8,76.24,4.61,180.0,,,,,,402.0,,,,10.0,,KIGQ 071535Z AUTO 18004KT 10SM SCT040 26/21 A3000 RMK AO2  T02550210,,,,,,69.8,,S,29.35,27.63,,Partly Cloudy
KIGQ,08/07/2018 15:55 UTC,29.99,79.16,70.7,75.42,6.91,180.0,,,,,,382.0,,,,10.0,,KIGQ 071555Z AUTO 18006KT 10SM SCT038 26/22 A2999 RMK AO2  T02620215,,,,,,70.7,,S,29.34,27.53,,Partly Cloudy
KIGQ,08/07/2018 16:15 UTC,29.99,80.06,69.98,71.47,0.0,0.0,,,,,,1.0,,,,10.0,,KIGQ 071615Z AUTO 00000KT 10SM CLR 27/21 A2999 RMK AO2  T02670211,,,,,,69.99,,N,29.34,27.58,83.23,Clear
KIGQ,08/07/2018 16:35 UTC,29.98,80.78,70.16,70.24,6.91,240.0,,,,,,1.0,,,,10.0,,KIGQ 071635Z AUTO 24006KT 10SM CLR 27/21 A2998 RMK AO2  T02710212,,,,,,70.18,,WSW,29.33,27.54,84.28,Clear
KIGQ,08/07/2018 16:55 UTC,29.98,80.78,70.34,70.67,5.75,250.0,,,503.0,,,282.0,462.0,,,10.0,,KIGQ 071655Z AUTO 25005KT 10SM SCT028 SCT046 BKN050 27/21 A2998 RMK AO2 T02710213,,,5000.0,,,70.35,,WSW,29.33,27.53,84.35,Mostly Cloudy
KIGQ,08/07/2018 17:15 UTC,29.97,81.68,70.52,69.06,5.75,270.0,,,503.0,,,292.0,443.0,,,10.0,,KIGQ 071715Z AUTO 27005KT 10SM SCT029 BKN044 BKN050 28/21 A2997 RMK AO2 T02760214,,,4400.0,,,70.54,,W,29.32,27.49,85.65,Mostly Cloudy
KIGQ,08/07/2018 17:35 UTC,29.97,80.96,71.42,72.88,9.22,200.0,,,504.0,,,302.0,373.0,,,10.0,,KIGQ 071735Z AUTO 20008KT 180V240 10SM SCT030 BKN037 OVC050 27/22  A2997 RMK AO2 T02720219,,,3700.0,,,71.43,,SSW,29.32,27.43,85.05,Overcast
KIGQ,08/07/2018 17:55 UTC,29.97,81.32,71.96,73.36,8.05,220.0,,,484.0,,,293.0,363.0,,,10.0,,KIGQ 071755Z AUTO 22007KT 210V020 10SM BKN029 BKN036 OVC048 27/22  A2997 RMK AO2 T02740222 10282 20214,82.76,70.52,2900.0,,,71.98,,SW,29.32,27.38,85.82,Overcast
KIGQ,08/07/2018 18:15 UTC,29.96,80.06,71.6,75.5,4.61,190.0,,,482.0,,,272.0,342.0,,,10.0,,KIGQ 071815Z AUTO 19004KT 10SM SCT027 SCT034 SCT048 27/22 A2996 RMK AO2 T02670220,,,,,,71.61,,S,29.31,27.42,83.75,Partly Cloudy
KIGQ,08/07/2018 18:35 UTC,29.96,80.06,71.42,75.05,4.61,220.0,,,1202.0,,,652.0,852.0,,,10.0,,KIGQ 071835Z AUTO 22004KT 10SM SCT065 SCT085 SCT120 27/22 A2996 RMK AO2 T02670219,,,,,,71.43,,SW,29.31,27.43,83.69,Partly Cloudy
KIGQ,08/07/2018 18:55 UTC,29.96,79.7,70.34,73.2,9.22,260.0,,1.0,1003.0,,,282.0,432.0,,,10.0,,KIGQ 071855Z AUTO 26008KT 10SM RA SCT028 SCT043 BKN100 27/21 A2996 RMK AO2 T02650213,,,10000.0,,,70.35,,W,29.31,27.52,,Rain
KIGQ,08/07/2018 19:15 UTC,29.95,77.9,73.04,85.07,5.75,230.0,,13.0,753.0,,,282.0,403.0,,,7.0,,KIGQ 071915Z AUTO 23005KT 7SM -RA SCT028 BKN040 BKN075 26/23 A2995 RMK AO2 T02550228,,,4000.0,,,73.04,,SW,29.3,27.32,,Light Rain
KIGQ,08/07/2018 19:35 UTC,29.94,78.26,73.76,86.13,9.22,220.0,,,1203.0,,,322.0,412.0,,,10.0,,KIGQ 071935Z AUTO 22008KT 10SM SCT032 SCT041 BKN120 26/23 A2994 RMK AO2 T02570232,,,12000.0,,,73.76,,SW,29.29,27.25,,Mostly Cloudy
KIGQ,08/07/2018 19:55 UTC,29.93,78.44,73.94,86.14,9.22,230.0,,13.0,,,,303.0,383.0,,,10.0,,KIGQ 071955Z AUTO 23008KT 10SM -RA BKN030 BKN038 26/23 A2993 RMK AO2 T02580233,,,3000.0,,,73.94,,SW,29.28,27.22,,Light Rain
KIGQ,08/07/2018 20:15 UTC,29.93,79.16,73.94,84.13,12.66,220.0,,,803.0,,,302.0,702.0,,,10.0,,KIGQ 072015Z AUTO 22011KT 10SM SCT030 SCT070 BKN080 26/23 A2993 RMK AO2 T02620233,,,8000.0,,,73.94,,SW,29.28,27.21,,Mostly Cloudy
KIGQ,08/07/2018 20:35 UTC,29.92,78.8,73.22,83.1,8.05,250.0,,,1003.0,,,602.0,802.0,,,10.0,,KIGQ 072035Z AUTO 25007KT 10SM SCT060 SCT080 BKN100 26/23 A2992 RMK AO2 T02600229,,,10000.0,,,73.22,,WSW,29.27,27.26,,Mostly Cloudy
KIGQ,08/07/2018 20:55 UTC,29.91,78.8,72.68,81.6,9.22,240.0,,,,,,1002.0,,,,10.0,,KIGQ 072055Z AUTO 24008KT 10SM SCT100 26/23 A2991 RMK AO2  T02600226,,,,,,72.68,,WSW,29.26,27.3,,Partly Cloudy
KIGQ,08/07/2018 21:15 UTC,29.91,78.8,72.14,80.13,8.05,260.0,,,,,,212.0,1003.0,,,10.0,,KIGQ 072115Z AUTO 26007KT 10SM SCT021 BKN100 26/22 A2991 RMK AO2  T02600223,,,10000.0,,,72.14,,W,29.26,27.34,,Mostly Cloudy
KIGQ,08/07/2018 21:35 UTC,29.91,78.98,71.24,77.27,9.22,260.0,,,,,,212.0,1004.0,,,10.0,,KIGQ 072135Z AUTO 26008KT 10SM SCT021 OVC100 26/22 A2991 RMK AO2  T02610218,,,10000.0,,,71.24,,W,29.26,27.41,,Overcast
KIGQ,08/07/2018 21:55 UTC,29.91,78.8,71.6,78.68,8.05,250.0,,,,,,222.0,1003.0,,,10.0,,KIGQ 072155Z AUTO 25007KT 10SM SCT022 BKN100 26/22 A2991 RMK AO2  T02600220,,,10000.0,,,71.6,,WSW,29.26,27.39,,Mostly Cloudy
KIGQ,08/07/2018 22:15 UTC,29.91,78.98,71.42,77.74,5.75,280.0,,,422.0,,,222.0,322.0,,,10.0,,KIGQ 072215Z AUTO 28005KT 10SM SCT022 SCT032 SCT042 26/22 A2991 RMK AO2 T02610219,,,,,,71.42,,W,29.26,27.4,,Partly Cloudy
KIGQ,08/07/2018 22:35 UTC,29.92,78.26,70.7,77.68,10.36,330.0,,,502.0,,,292.0,422.0,,,10.0,,KIGQ 072235Z AUTO 33009KT 10SM SCT029 SCT042 SCT050 26/22 A2992 RMK AO2 T02570215,,,,,,70.7,,NNW,29.27,27.47,,Partly Cloudy
KIGQ,08/07/2018 22:55 UTC,29.92,75.56,69.8,82.38,9.22,340.0,17.27,,,,,852.0,,,,10.0,,KIGQ 072255Z AUTO 34008G15KT 10SM SCT085 24/21 A2992 RMK AO2  T02420210,,,,,,69.8,,NNW,29.27,27.58,,Partly Cloudy
KIGQ,08/07/2018 23:15 UTC,29.92,75.2,69.98,83.88,6.91,350.0,,,,,,852.0,,,,10.0,,KIGQ 072315Z AUTO 35006KT 10SM SCT085 24/21 A2992 RMK AO2  T02400211,,,,,,69.97,,N,29.27,27.57,,Partly Cloudy
KIGQ,08/07/2018 23:35 UTC,29.92,74.84,70.16,85.42,4.61,350.0,,,,,,162.0,,,,10.0,,KIGQ 072335Z AUTO 35004KT 10SM SCT016 24/21 A2992 RMK AO2  T02380212,,,,,,70.16,,N,29.27,27.56,,Partly Cloudy
KIGQ,08/07/2018 23:55 UTC,29.93,73.4,69.8,88.54,6.91,10.0,,,272.0,,,142.0,222.0,,,10.0,,KIGQ 072355Z AUTO 01006KT 10SM SCT014 SCT022 SCT027 23/21 A2993 RMK AO2 T02300210 10275 20230,81.5,73.4,,,,69.79,,N,29.28,27.62,,Partly Cloudy
KIGQ,08/08/2018 00:15 UTC,29.93,73.4,68.9,85.86,8.05,20.0,,,,,,192.0,272.0,,,10.0,,KIGQ 080015Z AUTO 02007KT 10SM SCT019 SCT027 23/21 A2993 RMK AO2  T02300205,,,,,,68.89,,NNE,29.28,27.68,,Partly Cloudy
KIGQ,08/08/2018 00:35 UTC,29.94,73.04,69.08,87.44,6.91,20.0,,,,,,233.0,283.0,,,10.0,,KIGQ 080035Z AUTO 02006KT 10SM BKN023 BKN028 23/21 A2994 RMK AO2  T02280206,,,2300.0,,,69.07,,NNE,29.29,27.69,,Mostly Cloudy
KIGQ,08/08/2018 00:55 UTC,29.93,72.68,69.08,88.51,5.75,30.0,,,314.0,,,202.0,253.0,,,10.0,,KIGQ 080055Z AUTO 03005KT 10SM SCT020 BKN025 OVC031 23/21 A2993 RMK AO2 T02260206,,,2500.0,,,69.07,,NNE,29.28,27.68,,Overcast
KIGQ,08/08/2018 01:15 UTC,29.94,71.78,68.18,88.46,3.44,50.0,,,313.0,,,132.0,252.0,,,10.0,,KIGQ 080115Z AUTO 05003KT 10SM SCT013 SCT025 BKN031 22/20 A2994 RMK AO2 T02210201,,,3100.0,,,68.17,,NE,29.29,27.77,,Mostly Cloudy
KIGQ,08/08/2018 01:35 UTC,29.94,71.06,68.18,90.65,0.0,0.0,,,,,,132.0,252.0,,,10.0,,KIGQ 080135Z AUTO 00000KT 10SM SCT013 SCT025 22/20 A2994 RMK AO2  T02170201,,,,,,68.17,,N,29.29,27.78,,Partly Cloudy
KIGQ,08/08/2018 01:55 UTC,29.94,70.88,68.36,91.77,0.0,0.0,,,,,,1.0,,,,10.0,,KIGQ 080155Z AUTO 00000KT 10SM CLR 22/20 A2994 RMK AO2  T02160202,,,,,,68.35,,N,29.29,27.77,,Clear
KIGQ,08/08/2018 02:15 UTC,29.94,70.52,68.18,92.32,0.0,0.0,,,,,,1.0,,,,10.0,,KIGQ 080215Z AUTO 00000KT 10SM CLR 21/20 A2994 RMK AO2  T02140201,,,,,,68.17,,N,29.29,27.79,,Clear
KIGQ,08/08/2018 02:35 UTC,29.94,69.98,68.54,95.2,0.0,0.0,,,,,,1.0,,,,10.0,,KIGQ 080235Z AUTO 00000KT 10SM CLR 21/20 A2994 RMK AO2  T02110203,,,,,,68.53,,N,29.29,27.77,,Clear
KIGQ,08/08/2018 02:55 UTC,29.94,68.9,67.64,95.77,0.0,0.0,,31.0,,,,1.0,,,,4.0,,KIGQ 080255Z AUTO 00000KT 4SM BR CLR 21/20 A2994 RMK AO2  T02050198,,,,,,67.63,,N,29.29,27.85,,Mist
KIGQ,08/08/2018 03:15 UTC,29.93,68.54,68.0,98.16,0.0,0.0,,,,,,1.0,,,,10.0,,KIGQ 080315Z AUTO 00000KT 10SM CLR 20/20 A2993 RMK AO2  T02030200,,,,,,68.0,,N,29.28,27.82,,Clear
KIGQ,08/08/2018 03:35 UTC,29.93,67.82,67.46,98.77,0.0,0.0,,,,,,1.0,,,,10.0,,KIGQ 080335Z AUTO 00000KT 10SM CLR 20/20 A2993 RMK AO2  T01990197,,,,,,67.46,,N,29.28,27.86,,Clear
KIGQ,08/08/2018 03:55 UTC,29.94,68.36,68.18,99.38,0.0,0.0,,,,,,1.0,,,,10.0,,KIGQ 080355Z AUTO 00000KT 10SM CLR 20/20 A2994 RMK AO2  T02020201,,,,,,68.18,,N,29.29,27.82,,Clear
KIGQ,08/08/2018 04:15 UTC,29.94,68.0,67.82,99.38,0.0,0.0,,,,,,702.0,,,,7.0,,KIGQ 080415Z AUTO 00000KT 7SM SCT070 20/20 A2994 RMK AO2  T02000199,,,,,,67.82,,N,29.29,27.85,,Partly Cloudy
KIGQ,08/08/2018 04:35 UTC,29.93,68.9,68.36,98.17,0.0,0.0,,,,,,703.0,,,,7.0,,KIGQ 080435Z AUTO 00000KT 7SM BKN070 21/20 A2993 RMK AO2  T02050202,,,7000.0,,,68.36,,N,29.28,27.79,,Mostly Cloudy
KIGQ,08/08/2018 04:55 UTC,29.93,67.1,67.1,100.0,0.0,0.0,,,,,,704.0,,,,7.0,,KIGQ 080455Z AUTO 00000KT 7SM OVC070 20/20 A2993 RMK AO2  T01950195,,,7000.0,,,67.1,,N,29.28,27.9,,Overcast
KIGQ,08/08/2018 05:15 UTC,29.93,66.92,66.92,100.0,0.0,0.0,,,,,,804.0,,,,7.0,,KIGQ 080515Z AUTO 00000KT 7SM OVC080 19/19 A2993 RMK AO2  T01940194,,,8000.0,,,66.92,,N,29.28,27.91,,Overcast
KIGQ,08/08/2018 05:35 UTC,29.93,67.46,67.46,100.0,0.0,0.0,,31.0,,,,702.0,803.0,,,5.0,,KIGQ 080535Z AUTO 00000KT 5SM BR SCT070 BKN080 20/20 A2993 RMK AO2  T01970197,,,8000.0,,,67.46,,N,29.28,27.87,,Mist
KIGQ,08/08/2018 05:55 UTC,29.92,68.0,68.0,100.0,0.0,0.0,,31.0,,,,702.0,804.0,,,5.0,,KIGQ 080555Z AUTO 00000KT 5SM BR SCT070 OVC080 20/20 A2992 RMK AO2  T02000200 10230 20192 402820192,73.4,66.56,8000.0,82.76,66.56,68.0,,N,29.27,27.81,,Mist
KIGQ,08/08/2018 06:15 UTC,29.92,68.36,68.36,100.0,0.0,0.0,,,,,,904.0,,,,7.0,,KIGQ 080615Z AUTO 00000KT 7SM OVC090 20/20 A2992 RMK AO2  T02020202,,,9000.0,,,68.36,,N,29.27,27.78,,Overcast
KIGQ,08/08/2018 06:35 UTC,29.92,68.36,68.18,99.38,0.0,0.0,,,,,,902.0,,,,7.0,,KIGQ 080635Z AUTO 00000KT 7SM SCT090 20/20 A2992 RMK AO2  T02020201,,,,,,68.18,,N,29.27,27.8,,Partly Cloudy
KIGQ,08/08/2018 06:55 UTC,29.92,67.28,67.1,99.38,0.0,0.0,,31.0,,,,1.0,,,,5.0,,KIGQ 080655Z AUTO 00000KT 5SM BR CLR 20/20 A2992 RMK AO2  T01960195,,,,,,67.1,,N,29.27,27.88,,Mist
KIGQ,08/08/2018 07:15 UTC,29.92,68.18,68.18,100.0,0.0,0.0,,31.0,,,,702.0,,,,5.0,,KIGQ 080715Z AUTO 00000KT 5SM BR SCT070 20/20 A2992 RMK AO2  T02010201,,,,,,68.18,,N,29.27,27.8,,Mist
KIGQ,08/08/2018 07:35 UTC,29.92,67.28,67.28,100.0,0.0,0.0,,31.0,,,,702.0,,,,4.0,,KIGQ 080735Z AUTO 00000KT 4SM BR SCT070 20/20 A2992 RMK AO2  T01960196,,,,,,67.28,,N,29.27,27.87,,Mist
KIGQ,08/08/2018 07:55 UTC,29.92,66.38,66.38,100.0,0.0,0.0,,31.0,,,,1.0,,,,3.0,,KIGQ 080755Z AUTO 00000KT 3SM BR CLR 19/19 A2992 RMK AO2  T01910191,,,,,,66.38,,N,29.27,27.94,,Mist
KIGQ,08/08/2018 08:15 UTC,29.92,64.4,64.4,100.0,3.44,190.0,,31.0,,,,1.0,,,,3.0,,KIGQ 080815Z AUTO 19003KT 3SM BR CLR 18/18 A2992 RMK AO2  T01800180,,,,,,64.4,,S,29.27,28.09,,Mist
KIGQ,08/08/2018 08:35 UTC,29.92,65.12,65.12,100.0,0.0,0.0,,31.0,,,,92.0,,,,4.0,,KIGQ 080835Z AUTO 00000KT 4SM BR SCT009 18/18 A2992 RMK AO2  T01840184,,,,,,65.12,,N,29.27,28.04,,Mist
KIGQ,08/08/2018 08:55 UTC,29.92,65.66,65.66,100.0,0.0,0.0,,31.0,,,,93.0,,,,5.0,,KIGQ 080855Z AUTO 00000KT 5SM BR BKN009 19/19 A2992 RMK AO2  T01870187,,,900.0,,,65.66,,N,29.27,28.0,,Mist
KIGQ,08/08/2018 09:15 UTC,29.92,66.38,66.38,100.0,0.0,0.0,,31.0,,,,74.0,,,,5.0,,KIGQ 080915Z AUTO 00000KT 5SM BR OVC007 19/19 A2992 RMK AO2  T01910191,,,700.0,,,66.38,,N,29.27,27.94,,Mist
KIGQ,08/08/2018 09:35 UTC,29.92,67.82,67.82,100.0,0.0,0.0,,31.0,,,,74.0,,,,5.0,,KIGQ 080935Z AUTO 00000KT 5SM BR OVC007 20/20 A2992 RMK AO2  T01990199,,,700.0,,,67.82,,N,29.27,27.83,,Mist
KIGQ,08/08/2018 09:55 UTC,29.92,67.1,67.1,100.0,3.44,190.0,,31.0,,,,94.0,,,,4.0,,KIGQ 080955Z AUTO 19003KT 4SM BR OVC009 20/20 A2992 RMK AO2  T01950195,,,900.0,,,67.1,,S,29.27,27.89,,Mist
KIGQ,08/08/2018 10:15 UTC,29.92,67.28,67.28,100.0,0.0,0.0,,31.0,,,,94.0,,,,3.0,,KIGQ 081015Z AUTO 00000KT 3SM BR OVC009 20/20 A2992 RMK AO2  T01960196,,,900.0,,,67.28,,N,29.27,27.87,,Mist
KIGQ,08/08/2018 10:35 UTC,29.92,66.2,66.2,100.0,0.0,0.0,,31.0,,,,94.0,,,,2.0,,KIGQ 081035Z AUTO 00000KT 2SM BR OVC009 19/19 A2992 RMK AO2  T01900190,,,900.0,,,66.2,,N,29.27,27.96,,Mist
KIGQ,08/08/2018 10:55 UTC,29.93,67.28,67.28,100.0,3.44,230.0,,31.0,,,,54.0,,,,2.5,,KIGQ 081055Z AUTO 23003KT 2 1/2SM BR OVC005 20/20 A2993 RMK AO2  T01960196,,,500.0,,,67.28,,SW,29.28,27.88,,Mist
KIGQ,08/08/2018 11:15 UTC,29.93,68.36,68.36,100.0,0.0,0.0,,31.0,,,,34.0,,,,1.5,,KIGQ 081115Z AUTO 00000KT 1 1/2SM BR OVC003 20/20 A2993 RMK AO2  T02020202,,,300.0,,,68.36,,N,29.28,27.8,,Mist
KIGQ,08/08/2018 11:35 UTC,29.93,68.72,68.72,100.0,0.0,0.0,,31.0,,,,34.0,,,,1.5,,KIGQ 081135Z AUTO 00000KT 1 1/2SM BR OVC003 20/20 A2993 RMK AO2  T02040204,,,300.0,,,68.72,,N,29.28,27.77,,Mist
KIGQ,08/08/2018 11:55 UTC,29.94,69.08,69.08,100.0,0.0,0.0,,31.0,,,,34.0,,,,1.5,,KIGQ 081155Z AUTO 00000KT 1 1/2SM BR OVC003 21/21 A2994 RMK AO2  T02060206 10206 20180,69.08,64.4,300.0,,,69.08,,N,29.29,27.74,,Mist
KIGQ,08/08/2018 12:15 UTC,29.94,69.26,69.26,100.0,4.61,210.0,,31.0,,,,34.0,,,,1.75,,KIGQ 081215Z AUTO 21004KT 1 3/4SM BR OVC003 21/21 A2994 RMK AO2  T02070207,,,300.0,,,69.26,,SSW,29.29,27.73,,Mist
KIGQ,08/08/2018 12:35 UTC,29.94,69.98,69.98,100.0,4.61,200.0,,14.0,,0.05,,34.0,,,,1.25,,KIGQ 081235Z AUTO 20004KT 1 1/4SM +RA OVC003 21/21 A2994 RMK AO2  P0005 T02110211,,,300.0,,,69.98,,SSW,29.29,27.67,,Heavy Rain
KIGQ,08/08/2018 12:55 UTC,29.93,69.8,69.8,100.0,0.0,0.0,,31.0,,0.05,,33.0,94.0,,,1.5,,KIGQ 081255Z AUTO 00000KT 1 1/2SM BR BKN003 OVC009 21/21 A2993 RMK AO2 P0005 T02100210,,,300.0,,,69.8,,N,29.28,27.67,,Mist
KIGQ,08/08/2018 13:15 UTC,29.93,70.7,70.16,98.18,0.0,0.0,,31.0,,,,54.0,,,,2.0,,KIGQ 081315Z AUTO 00000KT 2SM BR OVC005 22/21 A2993 RMK AO2  T02150212,,,500.0,,,70.16,,N,29.28,27.63,,Mist
KIGQ,08/08/2018 13:35 UTC,29.94,70.7,70.16,98.18,4.61,230.0,,13.0,,,,54.0,,,,3.0,,KIGQ 081335Z AUTO 23004KT 3SM -RA OVC005 22/21 A2994 RMK AO2  T02150212,,,500.0,,,70.16,,SW,29.29,27.64,,Light Rain
KIGQ,08/08/2018 13:55 UTC,29.94,71.24,70.34,96.99,0.0,0.0,,31.0,174.0,,,53.0,123.0,,,3.0,,KIGQ 081355Z AUTO 00000KT 3SM BR BKN005 BKN012 OVC017 22/21 A2994 RMK AO2 T02180213,,,500.0,,,70.34,,N,29.29,27.62,,Mist
KIGQ,08/08/2018 14:15 UTC,29.94,72.5,70.16,92.38,0.0,0.0,,31.0,,,,73.0,154.0,,,4.0,,KIGQ 081415Z AUTO 00000KT 4SM BR BKN007 OVC015 23/21 A2994 RMK AO2  T02250212,,,700.0,,,70.15,,N,29.29,27.62,,Mist
KIGQ,08/08/2018 14:35 UTC,29.94,73.76,70.52,89.65,0.0,0.0,,31.0,,,,73.0,154.0,,,5.0,,KIGQ 081435Z AUTO 00000KT 5SM BR BKN007 OVC015 23/21 A2994 RMK AO2  T02320214,,,700.0,,,70.52,,N,29.29,27.57,,Mist
KIGQ,08/08/2018 14:55 UTC,29.94,73.76,69.8,87.48,0.0,0.0,,,433.0,,0.05,152.0,233.0,,,7.0,,KIGQ 081455Z AUTO 00000KT 7SM SCT015 BKN023 BKN043 23/21 A2994 RMK AO2 60005 T02320210,,,2300.0,,,69.79,,N,29.29,27.62,,Mostly Cloudy
KIGQ,08/08/2018 15:15 UTC,29.94,75.38,69.44,81.86,0.0,0.0,,,433.0,,,133.0,213.0,,,7.0,,KIGQ 081515Z AUTO 00000KT 7SM BKN013 BKN021 BKN043 24/21 A2994 RMK AO2 T02410208,,,1300.0,,,69.43,,N,29.29,27.63,,Mostly Cloudy
KIGQ,08/08/2018 15:35 UTC,29.94,76.1,69.8,80.91,0.0,0.0,,,,,,154.0,,,,7.0,,KIGQ 081535Z AUTO 00000KT 7SM OVC015 25/21 A2994 RMK AO2  T02450210,,,1500.0,,,69.79,,N,29.29,27.59,,Overcast
KIGQ,08/08/2018 15:55 UTC,29.94,76.82,69.8,79.01,0.0,0.0,,,,,,194.0,,,,7.0,,KIGQ 081555Z AUTO 00000KT 7SM OVC019 25/21 A2994 RMK AO2  T02490210,,,1900.0,,,69.8,,N,29.29,27.58,,Overcast
KIGQ,08/08/2018 16:15 UTC,29.94,78.44,70.16,75.82,4.61,150.0,,,,,,193.0,353.0,,,10.0,,KIGQ 081615Z AUTO 15004KT 10SM BKN019 BKN035 26/21 A2994 RMK AO2  T02580212,,,1900.0,,,70.16,,SSE,29.29,27.53,,Mostly Cloudy
KIGQ,08/08/2018 16:35 UTC,29.94,78.8,69.44,73.11,8.05,330.0,,,,,,233.0,333.0,,,10.0,,KIGQ 081635Z AUTO 33007KT 300V360 10SM BKN023 BKN033 26/21 A2994 RMK AO2 T02600208,,,2300.0,,,69.44,,NNW,29.29,27.58,,Mostly Cloudy
KIGQ,08/08/2018 16:55 UTC,29.95,73.58,68.9,85.34,9.22,20.0,,,,,,182.0,234.0,,,10.0,,KIGQ 081655Z AUTO 02008KT 10SM SCT018 OVC023 23/21 A2995 RMK AO2  T02310205,,,2300.0,,,68.89,,NNE,29.3,27.7,,Overcast
KIGQ,08/08/2018 17:15 UTC,29.95,74.48,69.62,84.87,6.91,30.0,,13.0,434.0,,,143.0,213.0,,,10.0,,KIGQ 081715Z AUTO 03006KT 10SM -RA BKN014 BKN021 OVC043 24/21  A2995 RMK AO2 T02360209,,,1400.0,,,69.61,,NNE,29.3,27.64,,Light Rain
KIGQ,08/08/2018 17:35 UTC,29.96,72.68,68.9,87.96,5.75,10.0,,13.0,404.0,,,143.0,203.0,,,7.0,,KIGQ 081735Z AUTO 01005KT 7SM -RA BKN014 BKN020 OVC040 23/21 A2996 RMK AO2 T02260205,,,1400.0,,,68.89,,N,29.31,27.73,,Light Rain
KIGQ,08/08/2018 17:55 UTC,29.95,73.94,68.9,84.32,6.91,30.0,,,654.0,,,172.0,472.0,0.05,,10.0,,KIGQ 081755Z AUTO 03006KT 10SM SCT017 SCT047 OVC065 23/21 A2995 RMK AO2 60005 T02330205 10261 20206,78.98,69.08,6500.0,,,68.89,,NNE,29.3,27.7,,Overcast
KIGQ,08/08/2018 18:15 UTC,29.95,77.0,69.8,78.54,5.75,360.0,,,753.0,,,192.0,252.0,,,10.0,,KIGQ 081815Z AUTO 36005KT 10SM SCT019 SCT025 BKN075 25/21 A2995 RMK AO2 T02500210,,,7500.0,,,69.8,,N,29.3,27.59,,Mostly Cloudy
KIGQ,08/08/2018 18:35 UTC,29.94,78.08,68.54,72.6,4.61,360.0,,,753.0,,,243.0,303.0,,,10.0,,KIGQ 081835Z AUTO 36004KT 10SM BKN024 BKN030 BKN075 26/20 A2994 RMK AO2 T02560203,,,2400.0,,,68.54,,N,29.29,27.66,,Mostly Cloudy
KIGQ,08/08/2018 18:55 UTC,29.94,77.0,67.46,72.49,0.0,0.0,,,,,,272.0,314.0,,,10.0,,KIGQ 081855Z AUTO 00000KT 10SM SCT027 OVC031 25/20 A2994 RMK AO2  T02500197,,,3100.0,,,67.46,,N,29.29,27.75,,Overcast
KIGQ,08/08/2018 19:15 UTC,29.94,77.0,67.82,73.39,0.0,0.0,,,1004.0,,,273.0,323.0,,,10.0,,KIGQ 081915Z AUTO 00000KT 10SM BKN027 BKN032 OVC100 25/20 A2994 RMK AO2 T02500199,,,2700.0,,,67.82,,N,29.29,27.72,,Overcast
KIGQ,08/08/2018 19:35 UTC,29.94,78.26,67.64,69.97,4.61,30.0,,,553.0,,,272.0,402.0,,,10.0,,KIGQ 081935Z AUTO 03004KT 10SM SCT027 SCT040 BKN055 26/20 A2994 RMK AO2 T02570198,,,5500.0,,,67.64,,NNE,29.29,27.72,,Mostly Cloudy
KIGQ,08/08/2018 19:55 UTC,29.94,78.8,68.36,70.46,5.75,30.0,,,503.0,,,272.0,442.0,,,10.0,,KIGQ 081955Z AUTO 03005KT 10SM SCT027 SCT044 BKN050 26/20 A2994 RMK AO2 T02600202,,,5000.0,,,68.36,,NNE,29.29,27.66,,Mostly Cloudy
KIGQ,08/08/2018 20:15 UTC,29.93,78.8,68.0,69.6,9.22,70.0,,,603.0,,,272.0,442.0,,,10.0,,KIGQ 082015Z AUTO 07008KT 10SM SCT027 SCT044 BKN060 26/20 A2993 RMK AO2 T02600200,,,6000.0,,,68.01,,ENE,29.28,27.68,,Mostly Cloudy
KIGQ,08/08/2018 20:35 UTC,29.93,76.46,66.38,71.1,6.91,60.0,,,604.0,,,272.0,503.0,,,10.0,,KIGQ 082035Z AUTO 06006KT 10SM SCT027 BKN050 OVC060 25/19 A2993 RMK AO2 T02470191,,,5000.0,,,66.38,,ENE,29.28,27.82,,Overcast
KIGQ,08/08/2018 20:55 UTC,29.92,77.9,66.74,68.64,6.91,50.0,,,,,,412.0,502.0,,,10.0,,KIGQ 082055Z AUTO 05006KT 10SM SCT041 SCT050 26/19 A2992 RMK AO2  T02550193,,,,,,66.74,,NE,29.27,27.77,,Partly Cloudy
KIGQ,08/08/2018 21:15 UTC,29.92,78.08,67.1,69.09,6.91,50.0,,,,,,1.0,,,,10.0,,KIGQ 082115Z AUTO 05006KT 10SM CLR 26/20 A2992 RMK AO2  T02560195,,,,,,67.1,,NE,29.27,27.74,,Clear
KIGQ,08/08/2018 21:35 UTC,29.92,78.44,67.1,68.28,6.91,30.0,,,,,,1.0,,,,10.0,,KIGQ 082135Z AUTO 03006KT 10SM CLR 26/20 A2992 RMK AO2  T02580195,,,,,,67.1,,NNE,29.27,27.74,,Clear
KIGQ,08/08/2018 21:55 UTC,29.92,78.44,66.2,66.19,0.0,0.0,,,,,,1.0,,,,10.0,,KIGQ 082155Z AUTO 00000KT 10SM CLR 26/19 A2992 RMK AO2  T02580190,,,,,,66.2,,N,29.27,27.8,,Clear
KIGQ,08/08/2018 22:15 UTC,29.92,78.08,66.2,66.98,0.0,0.0,,,,,,1.0,,,,10.0,,KIGQ 082215Z AUTO 00000KT 10SM CLR 26/19 A2992 RMK AO2  T02560190,,,,,,66.2,,N,29.27,27.8,,Clear
KIGQ,08/08/2018 22:35 UTC,29.92,77.72,65.48,66.1,0.0,0.0,,,,,,1.0,,,,10.0,,KIGQ 082235Z AUTO 00000KT 10SM CLR 25/19 A2992 RMK AO2  T02540186,,,,,,65.48,,N,29.27,27.85,,Clear
KIGQ,08/08/2018 22:55 UTC,29.92,77.9,65.48,65.71,3.44,70.0,,,,,,1.0,,,,10.0,,KIGQ 082255Z AUTO 07003KT 10SM CLR 26/19 A2992 RMK AO2  T02550186,,,,,,65.48,,ENE,29.27,27.85,,Clear
KIGQ,08/08/2018 23:15 UTC,29.93,77.9,65.66,66.12,3.44,60.0,,,,,,1.0,,,,10.0,,KIGQ 082315Z AUTO 06003KT 10SM CLR 26/19 A2993 RMK AO2  T02550187,,,,,,65.66,,ENE,29.28,27.85,,Clear
KIGQ,08/08/2018 23:35 UTC,29.92,77.36,64.94,65.65,5.75,80.0,,,,,,1.0,,,,10.0,,KIGQ 082335Z AUTO 08005KT 10SM CLR 25/18 A2992 RMK AO2  T02520183,,,,,,64.94,,E,29.27,27.89,,Clear
KIGQ,08/08/2018 23:55 UTC,29.92,77.0,64.76,66.02,3.44,60.0,,,,,,1.0,,,,10.0,,KIGQ 082355Z AUTO 06003KT 10SM CLR 25/18 A2992 RMK AO2 T02500182  10262 20233,79.16,73.94,,,,64.76,,ENE,29.27,27.91,,Clear
KIGQ,08/09/2018 00:15 UTC,29.93,75.74,64.94,69.27,3.44,90.0,,,,,,1.0,,,,10.0,,KIGQ 090015Z AUTO 09003KT 10SM CLR 24/18 A2993 RMK AO2  T02430183,,,,,,64.93,,E,29.28,27.92,,Clear
KIGQ,08/09/2018 00:35 UTC,29.93,74.66,64.4,70.46,3.44,110.0,,,,,,1.0,,,,10.0,,KIGQ 090035Z AUTO 11003KT 10SM CLR 24/18 A2993 RMK AO2  T02370180,,,,,,64.38,,ESE,29.28,27.97,,Clear
KIGQ,08/09/2018 00:55 UTC,29.92,73.76,64.94,74.0,3.44,130.0,,,,,,1.0,,,,10.0,,KIGQ 090055Z AUTO 13003KT 10SM CLR 23/18 A2992 RMK AO2  T02320183,,,,,,64.92,,SE,29.27,27.94,,Clear
KIGQ,08/09/2018 01:15 UTC,29.93,73.4,64.76,74.43,0.0,0.0,,,,,,1.0,,,,10.0,,KIGQ 090115Z AUTO 00000KT 10SM CLR 23/18 A2993 RMK AO2  T02300182,,,,,,64.74,,N,29.28,27.96,,Clear
KIGQ,08/09/2018 01:35 UTC,29.93,72.32,64.58,76.7,0.0,0.0,,,,,,1.0,,,,10.0,,KIGQ 090135Z AUTO 00000KT 10SM CLR 22/18 A2993 RMK AO2  T02240181,,,,,,64.56,,N,29.28,27.99,,Clear
KIGQ,08/09/2018 01:55 UTC,29.94,69.8,65.3,85.66,0.0,0.0,,,,,,1.0,,,,10.0,,KIGQ 090155Z AUTO 00000KT 10SM CLR 21/19 A2994 RMK AO2  T02100185,,,,,,65.29,,N,29.29,27.99,,Clear
KIGQ,08/09/2018 02:15 UTC,29.95,69.08,65.3,87.79,0.0,0.0,,,,,,1.0,,,,10.0,,KIGQ 090215Z AUTO 00000KT 10SM CLR 21/19 A2995 RMK AO2  T02060185,,,,,,65.29,,N,29.3,28.01,,Clear
KIGQ,08/09/2018 02:35 UTC,29.96,68.36,64.76,88.3,0.0,0.0,,,,,,1.0,,,,10.0,,KIGQ 090235Z AUTO 00000KT 10SM CLR 20/18 A2996 RMK AO2  T02020182,,,,,,64.74,,N,29.31,28.06,,Clear
KIGQ,08/09/2018 02:55 UTC,29.96,66.74,64.22,91.62,0.0,0.0,,,,,,1.0,,,,10.0,,KIGQ 090255Z AUTO 00000KT 10SM CLR 19/18 A2996 RMK AO2  T01930179,,,,,,64.21,,N,29.31,28.11,,Clear
KIGQ,08/09/2018 03:15 UTC,29.96,66.2,64.4,93.94,0.0,0.0,,,,,,1.0,,,,10.0,,KIGQ 090315Z AUTO 00000KT 10SM CLR 19/18 A2996 RMK AO2  T01900180,,,,,,64.39,,N,29.31,28.11,,Clear
KIGQ,08/09/2018 03:35 UTC,29.96,66.2,64.94,95.72,0.0,0.0,,,,,,1.0,,,,10.0,,KIGQ 090335Z AUTO 00000KT 10SM CLR 19/18 A2996 RMK AO2  T01900183,,,,,,64.93,,N,29.31,28.08,,Clear
KIGQ,08/09/2018 03:55 UTC,29.97,66.02,64.94,96.32,0.0,0.0,,,,,,1.0,,,,10.0,,KIGQ 090355Z AUTO 00000KT 10SM CLR 19/18 A2997 RMK AO2  T01890183,,,,,,64.93,,N,29.32,28.09,,Clear
KIGQ,08/09/2018 04:15 UTC,29.97,66.2,64.58,94.53,0.0,0.0,,,,,,1.0,,,,10.0,,KIGQ 090415Z AUTO 00000KT 10SM CLR 19/18 A2997 RMK AO2  T01900181,,,,,,64.57,,N,29.32,28.11,,Clear
KIGQ,08/09/2018 04:35 UTC,29.97,66.2,64.58,94.53,0.0,0.0,,,,,,1.0,,,,10.0,,KIGQ 090435Z AUTO 00000KT 10SM CLR 19/18 A2997 RMK AO2  T01900181,,,,,,64.57,,N,29.32,28.11,,Clear
KIGQ,08/09/2018 04:55 UTC,29.97,66.2,65.3,96.93,0.0,0.0,,,,,,1.0,,,,10.0,,KIGQ 090455Z AUTO 00000KT 10SM CLR 19/19 A2997 RMK AO2  T01900185,,,,,,65.3,,N,29.32,28.07,,Clear
KIGQ,08/09/2018 05:15 UTC,29.97,66.56,64.94,94.54,0.0,0.0,,,,,,1.0,,,,10.0,,KIGQ 090515Z AUTO 00000KT 10SM CLR 19/18 A2997 RMK AO2  T01920183,,,,,,64.93,,N,29.32,28.08,,Clear
KIGQ,08/09/2018 05:35 UTC,29.97,65.66,64.4,95.71,0.0,0.0,,,,,,1.0,,,,10.0,,KIGQ 090535Z AUTO 00000KT 10SM CLR 19/18 A2997 RMK AO2  T01870180,,,,,,64.39,,N,29.32,28.13,,Clear
KIGQ,08/09/2018 05:55 UTC,29.96,64.76,63.5,95.7,0.0,0.0,,,,,,1.0,,,,10.0,,KIGQ 090555Z AUTO 00000KT 10SM CLR 18/18 A2996 RMK AO2 T01820175  10250 20182 402620180,77.0,64.76,,79.16,64.4,63.49,,N,29.31,28.18,,Clear
KIGQ,08/09/2018 06:15 UTC,29.96,63.86,63.86,100.0,3.44,190.0,,,,,,1.0,,,,7.0,,KIGQ 090615Z AUTO 19003KT 7SM CLR 18/18 A2996 RMK AO2  T01770177,,,,,,63.86,,S,29.31,28.17,,Clear
KIGQ,08/09/2018 06:35 UTC,29.95,63.86,63.86,100.0,0.0,0.0,,,,,,1.0,,,,7.0,,KIGQ 090635Z AUTO 00000KT 7SM CLR 18/18 A2995 RMK AO2  T01770177,,,,,,63.86,,N,29.3,28.16,,Clear
KIGQ,08/09/2018 06:55 UTC,29.95,62.78,62.78,100.0,0.0,0.0,,31.0,,,,1.0,,,,5.0,,KIGQ 090655Z AUTO 00000KT 5SM BR CLR 17/17 A2995 RMK AO2  T01710171,,,,,,62.78,,N,29.3,28.24,,Mist
KIGQ,08/09/2018 07:15 UTC,29.94,63.5,63.5,100.0,0.0,0.0,,,,,,1.0,,,,7.0,,KIGQ 090715Z AUTO 00000KT 7SM CLR 18/18 A2994 RMK AO2  T01750175,,,,,,63.5,,N,29.29,28.18,,Clear
KIGQ,08/09/2018 07:35 UTC,29.95,63.5,63.5,100.0,0.0,0.0,,31.0,,,,75.0,,,,1.0,,KIGQ 090735Z AUTO 00000KT 1SM BR VV007 18/18 A2995 RMK AO2  T01750175,,,700.0,,,63.5,,N,29.3,28.19,,Mist
KIGQ,08/09/2018 07:55 UTC,29.95,63.68,63.68,100.0,0.0,0.0,,31.0,,,,1.0,,,,5.0,,KIGQ 090755Z AUTO 00000KT 5SM BR CLR 18/18 A2995 RMK AO2  T01760176,,,,,,63.68,,N,29.3,28.18,,Mist
KIGQ,08/09/2018 08:15 UTC,29.94,62.24,62.24,100.0,0.0,0.0,,31.0,,,,1.0,,,,2.0,,KIGQ 090815Z AUTO 00000KT 2SM BR CLR 17/17 A2994 RMK AO2  T01680168,,,,,,62.24,,N,29.29,28.27,,Mist
KIGQ,08/09/2018 08:35 UTC,29.94,62.42,62.42,100.0,6.91,180.0,,31.0,,,,1.0,,,,4.0,,KIGQ 090835Z AUTO 18006KT 4SM BR CLR 17/17 A2994 RMK AO2  T01690169,,,,,,62.42,,S,29.29,28.25,,Mist
KIGQ,08/09/2018 08:55 UTC,29.94,61.7,61.7,100.0,3.44,190.0,,,,,,1.0,,,,7.0,,KIGQ 090855Z AUTO 19003KT 7SM CLR 17/17 A2994 RMK AO2  T01650165,,,,,,61.7,,S,29.29,28.3,,Clear
KIGQ,08/09/2018 09:15 UTC,29.95,61.88,61.7,99.37,0.0,0.0,,,,,,1.0,,,,7.0,,KIGQ 090915Z AUTO 00000KT 7SM CLR 17/17 A2995 RMK AO2  T01660165,,,,,,61.7,,N,29.3,28.31,,Clear
KIGQ,08/09/2018 09:35 UTC,29.95,61.52,61.16,98.74,4.61,190.0,,,,,,1.0,,,,7.0,,KIGQ 090935Z AUTO 19004KT 7SM CLR 16/16 A2995 RMK AO2  T01640162,,,,,,61.16,,S,29.3,28.34,,Clear
KIGQ,08/09/2018 09:55 UTC,29.95,62.24,62.06,99.37,0.0,0.0,,31.0,,,,1.0,,,,5.0,,KIGQ 090955Z AUTO 00000KT 5SM BR CLR 17/17 A2995 RMK AO2  T01680167,,,,,,62.06,,N,29.3,28.29,,Mist
KIGQ,08/09/2018 10:15 UTC,29.96,62.78,62.78,100.0,0.0,0.0,,,,,,1.0,,,,7.0,,KIGQ 091015Z AUTO 00000KT 7SM CLR 17/17 A2996 RMK AO2  T01710171,,,,,,62.78,,N,29.31,28.25,,Clear
KIGQ,08/09/2018 10:35 UTC,29.96,62.06,61.88,99.37,4.61,170.0,,31.0,,,,1.0,,,,5.0,,KIGQ 091035Z AUTO 17004KT 5SM BR CLR 17/17 A2996 RMK AO2  T01670166,,,,,,61.88,,S,29.31,28.31,,Mist
KIGQ,08/09/2018 10:55 UTC,29.97,61.7,61.34,98.74,4.61,320.0,,31.0,,,,1.0,,,,5.0,,KIGQ 091055Z AUTO 32004KT 5SM BR CLR 17/16 A2997 RMK AO2  T01650163,,,,,,61.34,,NW,29.32,28.35,,Mist
KIGQ,08/09/2018 11:15 UTC,29.97,60.8,60.62,99.36,0.0,0.0,,31.0,,,,1.0,,,,5.0,,KIGQ 091115Z AUTO 00000KT 5SM BR CLR 16/16 A2997 RMK AO2  T01600159,,,,,,60.62,,N,29.32,28.4,,Mist
KIGQ,08/09/2018 11:35 UTC,29.97,62.96,62.78,99.37,4.61,200.0,,31.0,,,,1.0,,,,5.0,,KIGQ 091135Z AUTO 20004KT 5SM BR CLR 17/17 A2997 RMK AO2  T01720171,,,,,,62.78,,SSW,29.32,28.26,,Mist
KIGQ,08/09/2018 11:55 UTC,29.97,65.12,64.58,98.14,3.44,220.0,,31.0,,,,1.0,,,0.05,5.0,,KIGQ 091155Z AUTO 22003KT 5SM BR CLR 18/18 A2997 RMK AO2 70005  T01840181 10184 20160,65.12,60.8,,,,64.58,,SW,29.32,28.12,,Mist
KIGQ,08/09/2018 12:15 UTC,29.97,66.56,64.4,92.78,5.75,210.0,,,,,,1.0,,,,10.0,,KIGQ 091215Z AUTO 21005KT 10SM CLR 19/18 A2997 RMK AO2  T01920180,,,,,,64.39,,SSW,29.32,28.12,,Clear
KIGQ,08/09/2018 12:35 UTC,29.97,68.36,65.3,89.98,6.91,230.0,,,,,,1.0,,,,10.0,,KIGQ 091235Z AUTO 23006KT 10SM CLR 20/19 A2997 RMK AO2  T02020185,,,,,,65.29,,SW,29.32,28.04,,Clear
KIGQ,08/09/2018 12:55 UTC,29.97,70.16,66.02,86.75,5.75,230.0,,,,,,1.0,,,,10.0,,KIGQ 091255Z AUTO 23005KT 10SM CLR 21/19 A2997 RMK AO2  T02120189,,,,,,66.0,,SW,29.32,27.97,,Clear
KIGQ,08/09/2018 13:15 UTC,29.97,72.14,66.38,82.14,5.75,240.0,,,,,,402.0,462.0,,,10.0,,KIGQ 091315Z AUTO 24005KT 10SM SCT040 SCT046 22/19 A2997 RMK AO2  T02230191,,,,,,66.36,,WSW,29.32,27.92,,Partly Cloudy
KIGQ,08/09/2018 13:35 UTC,29.97,73.76,66.56,78.27,6.91,230.0,,,602.0,,,422.0,492.0,,,10.0,,KIGQ 091335Z AUTO 23006KT 10SM SCT042 SCT049 SCT060 23/19 A2997 RMK AO2 T02320192,,,,,,66.55,,SW,29.32,27.88,,Partly Cloudy
KIGQ,08/09/2018 13:55 UTC,29.97,75.92,66.92,73.74,8.05,230.0,,,703.0,,,433.0,603.0,,,10.0,,KIGQ 091355Z AUTO 23007KT 10SM BKN043 BKN060 BKN070 24/19 A2997 RMK AO2 T02440194,,,4300.0,,,66.91,,SW,29.32,27.83,,Mostly Cloudy
KIGQ,08/09/2018 14:15 UTC,29.97,77.54,65.84,67.33,10.36,250.0,,,,,,393.0,,,,10.0,,KIGQ 091415Z AUTO 25009KT 10SM BKN039 25/19 A2997 RMK AO2  T02530188,,,3900.0,,,65.84,,WSW,29.32,27.88,,Mostly Cloudy
KIGQ,08/09/2018 14:35 UTC,29.97,77.36,66.02,68.16,12.66,230.0,19.57,,,,,393.0,473.0,,,10.0,,KIGQ 091435Z AUTO 23011G17KT 10SM BKN039 BKN047 25/19 A2997 RMK AO2 T02520189,,,3900.0,,,66.02,,SW,29.32,27.87,,Mostly Cloudy
KIGQ,08/09/2018 14:55 UTC,29.97,79.16,67.1,66.68,10.36,240.0,,,,,,412.0,,,,10.0,,KIGQ 091455Z AUTO 24009KT 10SM SCT041 26/20 A2997 RMK AO2  T02620195,,,,,,67.11,,WSW,29.32,27.78,,Partly Cloudy
KIGQ,08/09/2018 15:15 UTC,29.97,79.88,66.74,64.33,10.36,240.0,,,,,,1.0,,,,10.0,,KIGQ 091515Z AUTO 24009KT 10SM CLR 27/19 A2997 RMK AO2  T02660193,,,,,,66.75,,WSW,29.32,27.79,,Clear
KIGQ,08/09/2018 15:35 UTC,29.97,80.96,66.56,61.72,11.5,240.0,,,,,,1.0,,,,10.0,,KIGQ 091535Z AUTO 24010KT 10SM CLR 27/19 A2997 RMK AO2  T02720192,,,,,,66.58,,WSW,29.32,27.79,83.26,Clear
KIGQ,08/09/2018 15:55 UTC,29.97,82.58,66.56,58.57,12.66,250.0,16.11,,,,,1.0,,,,10.0,,KIGQ 091555Z AUTO 25011G14KT 10SM CLR 28/19 A2997 RMK AO2  T02810192,,,,,,66.6,,WSW,29.32,27.77,84.99,Clear
KIGQ,08/09/2018 16:15 UTC,29.96,83.48,66.74,57.25,12.66,260.0,16.11,,,,,1.0,,,,10.0,,KIGQ 091615Z AUTO 26011G14KT 10SM CLR 29/19 A2996 RMK AO2  T02860193,,,,,,66.78,,W,29.31,27.74,86.02,Clear
KIGQ,08/09/2018 16:35 UTC,29.96,84.2,66.92,56.29,11.5,270.0,,,,,,1.0,,,,10.0,,KIGQ 091635Z AUTO 27010KT 10SM CLR 29/19 A2996 RMK AO2  T02900194,,,,,,66.97,,W,29.31,27.72,86.88,Clear
KIGQ,08/09/2018 16:55 UTC,29.96,84.38,67.82,57.72,12.66,250.0,,,,,,1.0,,,,10.0,,KIGQ 091655Z AUTO 25011KT 10SM CLR 29/20 A2996 RMK AO2  T02910199,,,,,,67.87,,WSW,29.31,27.65,87.53,Clear
KIGQ,08/09/2018 17:15 UTC,29.95,85.82,68.54,56.51,11.5,240.0,19.57,,,,,1.0,,,,10.0,,KIGQ 091715Z AUTO 24010G17KT 10SM CLR 30/20 A2995 RMK AO2  T02990203,,,,,,68.6,,WSW,29.3,27.57,89.58,Clear
KIGQ,08/09/2018 17:35 UTC,29.95,85.28,67.82,56.09,12.66,270.0,,,,,,412.0,,,,10.0,,KIGQ 091735Z AUTO 27011KT 10SM SCT041 30/20 A2995 RMK AO2  T02960199,,,,,,67.88,,W,29.3,27.63,88.54,Partly Cloudy
KIGQ,08/09/2018 17:55 UTC,29.94,87.08,68.9,54.96,12.66,260.0,17.27,,,,,1.0,,,,10.0,,KIGQ 091755Z AUTO 26011G15KT 10SM CLR 31/21 A2994 RMK AO2  T03060205 10306 20185,87.08,65.3,,,,68.97,,W,29.29,27.52,91.26,Clear
KIGQ,08/09/2018 18:15 UTC,29.94,87.62,68.9,54.03,11.5,250.0,19.57,,,,,442.0,502.0,,,10.0,,KIGQ 091815Z AUTO 25010G17KT 220V280 10SM SCT044 SCT050 31/21  A2994 RMK AO2 T03090205,,,,,,68.98,,WSW,29.29,27.52,91.89,Partly Cloudy
KIGQ,08/09/2018 18:35 UTC,29.94,87.98,69.26,54.08,9.22,230.0,16.11,,,,,442.0,502.0,,,10.0,,KIGQ 091835Z AUTO 23008G14KT 210V050 10SM SCT044 SCT050 31/21  A2994 RMK AO2 T03110207,,,,,,69.34,,SW,29.29,27.48,92.57,Partly Cloudy
KIGQ,08/09/2018 18:55 UTC,29.94,89.24,69.98,53.27,10.36,250.0,17.27,,703.0,,,482.0,603.0,,,10.0,,KIGQ 091855Z AUTO 25009G15KT 10SM SCT048 BKN060 BKN070 32/21 A2994 RMK AO2 T03180211,,,6000.0,,,70.08,,WSW,29.29,27.41,94.62,Mostly Cloudy
KIGQ,08/09/2018 19:15 UTC,29.93,88.34,69.8,54.47,11.5,280.0,17.27,,702.0,,,462.0,602.0,,,10.0,,KIGQ 091915Z AUTO 28010G15KT 10SM SCT046 SCT060 SCT070 31/21 A2993 RMK AO2 T03130210,,,,,,69.89,,W,29.28,27.43,93.4,Partly Cloudy
KIGQ,08/09/2018 19:35 UTC,29.92,88.7,69.8,53.85,11.5,260.0,19.57,,,,,462.0,,,,10.0,,KIGQ 091935Z AUTO 26010G17KT 10SM SCT046 32/21 A2992 RMK AO2  T03150210,,,,,,69.89,,W,29.27,27.41,93.83,Partly Cloudy
KIGQ,08/09/2018 19:55 UTC,29.91,87.8,69.62,55.06,10.36,250.0,18.41,,,,,462.0,1203.0,,,10.0,,KIGQ 091955Z AUTO 25009G16KT 10SM SCT046 BKN120 31/21 A2991 RMK AO2 T03100209,,,12000.0,,,69.7,,WSW,29.26,27.43,92.62,Mostly Cloudy
KIGQ,08/09/2018 20:15 UTC,29.91,87.8,68.72,53.4,11.5,250.0,,,,,,462.0,1203.0,,,10.0,,KIGQ 092015Z AUTO 25010KT 10SM SCT046 BKN120 31/20 A2991 RMK AO2  T03100204,,,12000.0,,,68.81,,WSW,29.26,27.5,91.97,Mostly Cloudy
KIGQ,08/09/2018 20:35 UTC,29.9,87.98,68.72,53.09,12.66,270.0,21.85,,1203.0,,,502.0,553.0,,,10.0,,KIGQ 092035Z AUTO 27011G19KT 10SM SCT050 BKN055 BKN120 31/20 A2990 RMK AO2 T03110204,,,5500.0,,,68.81,,W,29.25,27.48,92.17,Mostly Cloudy
KIGQ,08/09/2018 20:55 UTC,29.9,88.34,68.18,51.53,10.36,250.0,18.41,,,,,503.0,,,,10.0,,KIGQ 092055Z AUTO 25009G16KT 10SM BKN050 31/20 A2990 RMK AO2  T03130201,,,5000.0,,,68.27,,WSW,29.25,27.52,92.21,Mostly Cloudy
KIGQ,08/09/2018 21:15 UTC,29.9,88.16,68.0,51.51,10.36,260.0,,,,,,502.0,602.0,,,10.0,,KIGQ 092115Z AUTO 26009KT 10SM SCT050 SCT060 31/20 A2990 RMK AO2  T03120200,,,,,,68.09,,W,29.25,27.54,91.88,Partly Cloudy
KIGQ,08/09/2018 21:35 UTC,29.9,89.24,67.28,48.57,14.97,260.0,18.41,,,,,502.0,1002.0,,,10.0,,KIGQ 092135Z AUTO 26013G16KT 10SM SCT050 SCT100 32/20 A2990 RMK AO2 LTG DSNT N T03180196,,,,,,67.39,,W,29.25,27.58,92.62,Partly Cloudy
KIGQ,08/09/2018 21:55 UTC,29.89,88.34,67.46,50.27,9.22,250.0,,,,,,1.0,,,,10.0,,KIGQ 092155Z AUTO 25008KT 10SM CLR 31/20 A2989 RMK AO2 LTG DSNT N  AND NE T03130197,,,,,,67.56,,WSW,29.24,27.56,91.72,Clear
KIGQ,08/09/2018 22:15 UTC,29.89,87.08,67.64,52.64,12.66,260.0,17.27,,,,,552.0,,,,10.0,,KIGQ 092215Z AUTO 26011G15KT 10SM SCT055 31/20 A2989 RMK AO2 LTG  DSNT N T03060198,,,,,,67.72,,W,29.24,27.57,90.43,Partly Cloudy
KIGQ,08/09/2018 22:35 UTC,29.89,86.9,68.72,54.94,12.66,230.0,,,,,,552.0,,,,10.0,,KIGQ 092235Z AUTO 23011KT 10SM SCT055 31/20 A2989 RMK AO2 LTG DSNT  N T03050204,,,,,,68.79,,SW,29.24,27.49,90.93,Partly Cloudy
KIGQ,08/09/2018 22:55 UTC,29.89,86.54,69.26,56.61,12.66,240.0,,,,,,502.0,,,,10.0,,KIGQ 092255Z AUTO 24011KT 10SM SCT050 30/21 A2989 RMK AO2 LTG DSNT  NW THRU NE T03030207,,,,,,69.33,,WSW,29.24,27.45,90.89,Partly Cloudy
KIGQ,08/09/2018 23:15 UTC,29.89,86.54,68.72,55.57,11.5,250.0,,,,,,502.0,,,,10.0,,KIGQ 092315Z AUTO 25010KT 10SM SCT050 30/20 A2989 RMK AO2 LTG DSNT  N T03030204,,,,,,68.79,,WSW,29.24,27.49,90.52,Partly Cloudy
KIGQ,08/09/2018 23:35 UTC,29.89,86.18,68.9,56.56,8.05,260.0,,,,,,1.0,,,,10.0,,KIGQ 092335Z AUTO 26007KT 10SM CLR 30/21 A2989 RMK AO2  T03010205,,,,,,68.97,,W,29.24,27.48,90.22,Clear
KIGQ,08/09/2018 23:55 UTC,29.89,85.28,68.9,58.2,9.22,270.0,,,,,,492.0,602.0,,,10.0,,KIGQ 092355Z AUTO 27008KT 10SM SCT049 SCT060 30/21 A2989 RMK AO2  LTG DSNT E T02960205 10323 20296,90.14,85.28,,,,68.95,,W,29.24,27.49,89.18,Partly Cloudy
KIGQ,08/10/2018 00:15 UTC,29.9,81.14,69.08,66.91,3.44,50.0,,,,,,503.0,,,,10.0,,KIGQ 100015Z AUTO 05003KT 10SM BKN050 27/21 A2990 RMK AO2  T02730206,,,5000.0,,,69.1,,NE,29.25,27.54,84.34,Mostly Cloudy
KIGQ,08/10/2018 00:35 UTC,29.91,80.06,69.98,71.47,8.05,30.0,,,,,,503.0,654.0,,,10.0,,KIGQ 100035Z AUTO 03007KT 10SM BKN050 OVC065 27/21 A2991 RMK AO2  T02670211,,,5000.0,,,69.99,,NNE,29.26,27.49,83.23,Overcast
KIGQ,08/10/2018 00:55 UTC,29.92,79.16,68.36,69.64,4.61,20.0,,,,,,503.0,604.0,,,10.0,,KIGQ 100055Z AUTO 02004KT 10SM BKN050 OVC060 26/20 A2992 RMK AO2  LTG DSNT NW T02620202,,,5000.0,,,68.37,,NNE,29.27,27.64,,Overcast
KIGQ,08/10/2018 01:15 UTC,29.94,78.62,68.54,71.32,10.36,10.0,,,,,,484.0,,,,10.0,,KIGQ 100115Z AUTO 01009KT 10SM OVC048 26/20 A2994 RMK AO2 LTG DSNT  E AND NW T02590203,,,4800.0,,,68.54,,N,29.29,27.65,,Overcast
KIGQ,08/10/2018 01:35 UTC,29.94,77.0,66.92,71.15,6.91,350.0,,13.0,1003.0,,,483.0,603.0,,,10.0,,KIGQ 100135Z AUTO 35006KT 10SM -RA BKN048 BKN060 BKN100 25/19  A2994 RMK AO2 LTG DSNT E W AND NW T02500194,,,4800.0,,,66.92,,N,29.29,27.79,,Light Rain
KIGQ,08/10/2018 01:55 UTC,29.94,74.66,68.18,80.31,0.0,0.0,,13.0,902.0,,,462.0,652.0,,,10.0,,KIGQ 100155Z AUTO 00000KT 10SM -RA SCT046 SCT065 SCT090 24/20  A2994 RMK AO2 T02370201,,,,,,68.17,,N,29.29,27.73,,Light Rain
KIGQ,08/10/2018 02:15 UTC,29.93,73.94,68.0,81.76,8.05,100.0,,,,,,1.0,,,,10.0,,KIGQ 100215Z AUTO 10007KT 10SM CLR 23/20 A2993 RMK AO2  T02330200,,,,,,67.99,,E,29.28,27.74,,Clear
KIGQ,08/10/2018 02:35 UTC,29.94,74.84,68.0,79.34,5.75,50.0,,,,,,1.0,,,,10.0,,KIGQ 100235Z AUTO 05005KT 10SM CLR 24/20 A2994 RMK AO2  T02380200,,,,,,67.99,,NE,29.29,27.74,,Clear
KIGQ,08/10/2018 02:55 UTC,29.95,74.66,68.9,82.31,5.75,50.0,,,,,,482.0,,,,10.0,,KIGQ 100255Z AUTO 05005KT 10SM SCT048 24/21 A2995 RMK AO2  T02370205,,,,,,68.89,,NE,29.3,27.69,,Partly Cloudy
KIGQ,08/10/2018 03:15 UTC,29.95,74.48,68.72,82.3,3.44,60.0,,,703.0,,,482.0,552.0,,,10.0,,KIGQ 100315Z AUTO 06003KT 10SM SCT048 SCT055 BKN070 24/20 A2995 RMK AO2 LTG DSNT NE AND W T02360204,,,7000.0,,,68.71,,ENE,29.3,27.7,,Mostly Cloudy
KIGQ,08/10/2018 03:35 UTC,29.95,74.48,68.54,81.8,3.44,30.0,,,,,,503.0,604.0,,,10.0,,KIGQ 100335Z AUTO 03003KT 10SM BKN050 OVC060 24/20 A2995 RMK AO2  LTG DSNT N AND NE T02360203,,,5000.0,,,68.53,,NNE,29.3,27.72,,Overcast
KIGQ,08/10/2018 03:55 UTC,29.96,74.66,68.36,80.81,0.0,0.0,,,,,,484.0,,,,10.0,,KIGQ 100355Z AUTO 00000KT 10SM OVC048 24/20 A2996 RMK AO2 LTG DSNT  NE T02370202,,,4800.0,,,68.35,,N,29.31,27.74,,Overcast
KIGQ,08/10/2018 04:15 UTC,29.96,74.48,68.36,81.29,0.0,0.0,,5.0,,,,484.0,,,,10.0,,KIGQ 100415Z AUTO 00000KT 10SM VCTS OVC048 24/20 A2996 RMK AO2 LTG  DSNT NE T02360202,,,4800.0,,,68.35,,N,29.31,27.74,,Thunder
KIGQ,08/10/2018 04:35 UTC,29.96,74.84,69.26,82.83,5.75,50.0,,,,,,443.0,504.0,,,10.0,,KIGQ 100435Z AUTO 05005KT 10SM BKN044 OVC050 24/21 A2996 RMK AO2  LTG DSNT NE AND E T02380207,,,4400.0,,,69.25,,NE,29.31,27.67,,Overcast
KIGQ,08/10/2018 04:55 UTC,29.96,73.4,69.8,88.54,4.61,60.0,,,,,,442.0,504.0,,,10.0,,KIGQ 100455Z AUTO 06004KT 10SM VCTSRA SCT044 OVC050 23/21 A2996 RMK AO2 LTG DSNT NE THRU SE T02300210,,,5000.0,,,69.79,,ENE,29.31,27.65,,Overcast
KIGQ,08/10/2018 05:15 UTC,29.96,71.6,69.62,93.5,5.75,80.0,,,,,,464.0,,,,10.0,,KIGQ 100515Z AUTO 08005KT 10SM OVC046 22/21 A2996 RMK AO2 LTG DSNT  E T02200209,,,4600.0,,,69.62,,E,29.31,27.69,,Overcast
KIGQ,08/10/2018 05:35 UTC,29.96,71.6,69.98,94.65,6.91,100.0,,,954.0,,,462.0,603.0,,,10.0,,KIGQ 100535Z AUTO 10006KT 10SM SCT046 BKN060 OVC095 22/21 A2996 RMK AO2 T02200211,,,6000.0,,,69.98,,E,29.31,27.66,,Overcast
KIGQ,08/10/2018 05:55 UTC,29.96,71.78,70.7,96.41,8.05,130.0,,,753.0,,,442.0,603.0,,,10.0,,KIGQ 100555Z AUTO 13007KT 10SM -VCTSRA SCT044 BKN060 BKN075 22/22  A2996 RMK AO2 LTG DSNT E T02210215 10296 20220 403230160,85.28,71.6,6000.0,90.14,60.8,70.7,,SE,29.31,27.61,,Mostly Cloudy
KIGQ,08/10/2018 06:15 UTC,29.94,71.6,69.98,94.65,5.75,150.0,,,852.0,,,462.0,802.0,,,10.0,,KIGQ 100615Z AUTO 15005KT 10SM SCT046 SCT080 SCT085 22/21 A2994 RMK AO2 T02200211,,,,,,69.98,,SSE,29.29,27.64,,Partly Cloudy
KIGQ,08/10/2018 06:35 UTC,29.94,70.52,68.9,94.63,4.61,190.0,,,,,,1.0,,,,10.0,,KIGQ 100635Z AUTO 19004KT 10SM CLR 21/21 A2994 RMK AO2  T02140205,,,,,,68.9,,S,29.29,27.74,,Clear
KIGQ,08/10/2018 06:55 UTC,29.94,69.8,68.36,95.2,0.0,0.0,,,,,,1002.0,,,,10.0,,KIGQ 100655Z AUTO 00000KT 10SM SCT100 21/20 A2994 RMK AO2  T02100202,,,,,,68.36,,N,29.29,27.78,,Partly Cloudy
KIGQ,08/10/2018 07:15 UTC,29.94,69.98,68.18,94.03,0.0,0.0,,,,,,1002.0,,,,10.0,,KIGQ 100715Z AUTO 00000KT 10SM SCT100 21/20 A2994 RMK AO2  T02110201,,,,,,68.17,,N,29.29,27.79,,Partly Cloudy
KIGQ,08/10/2018 07:35 UTC,29.93,69.98,68.18,94.03,0.0,0.0,,,,,,1.0,,,,10.0,,KIGQ 100735Z AUTO 00000KT 10SM CLR 21/20 A2993 RMK AO2  T02110201,,,,,,68.17,,N,29.28,27.78,,Clear
KIGQ,08/10/2018 07:55 UTC,29.94,69.26,68.0,95.78,0.0,0.0,,,,,,1.0,,,,10.0,,KIGQ 100755Z AUTO 00000KT 10SM CLR 21/20 A2994 RMK AO2  T02070200,,,,,,68.0,,N,29.29,27.82,,Clear
KIGQ,08/10/2018 08:15 UTC,29.94,68.9,67.28,94.59,0.0,0.0,,,,,,1.0,,,,10.0,,KIGQ 100815Z AUTO 00000KT 10SM CLR 21/20 A2994 RMK AO2  T02050196,,,,,,67.27,,N,29.29,27.87,,Clear
KIGQ,08/10/2018 08:35 UTC,29.93,68.54,67.1,95.17,0.0,0.0,,,,,,1.0,,,,10.0,,KIGQ 100835Z AUTO 00000KT 10SM CLR 20/20 A2993 RMK AO2  T02030195,,,,,,67.09,,N,29.28,27.88,,Clear
KIGQ,08/10/2018 08:55 UTC,29.93,68.9,67.1,94.01,0.0,0.0,,,,,,1.0,,,,10.0,,KIGQ 100855Z AUTO 00000KT 10SM CLR 21/20 A2993 RMK AO2  T02050195,,,,,,67.09,,N,29.28,27.87,,Clear
KIGQ,08/10/2018 09:15 UTC,29.93,68.54,66.56,93.41,0.0,0.0,,,,,,1.0,,,,10.0,,KIGQ 100915Z AUTO 00000KT 10SM CLR 20/19 A2993 RMK AO2  T02030192,,,,,,66.55,,N,29.28,27.91,,Clear
KIGQ,08/10/2018 09:35 UTC,29.93,67.82,65.66,92.81,0.0,0.0,,,,,,1.0,,,,10.0,,KIGQ 100935Z AUTO 00000KT 10SM CLR 20/19 A2993 RMK AO2  T01990187,,,,,,65.65,,N,29.28,27.98,,Clear
KIGQ,08/10/2018 09:55 UTC,29.93,67.64,66.92,97.55,3.44,30.0,,,,,,1.0,,,,10.0,,KIGQ 100955Z AUTO 03003KT 10SM CLR 20/19 A2993 RMK AO2  T01980194,,,,,,66.92,,NNE,29.28,27.9,,Clear
KIGQ,08/10/2018 10:15 UTC,29.94,68.0,67.46,98.16,4.61,30.0,,,,,,1.0,,,,10.0,,KIGQ 101015Z AUTO 03004KT 10SM CLR 20/20 A2994 RMK AO2  T02000197,,,,,,67.46,,NNE,29.29,27.87,,Clear
KIGQ,08/10/2018 10:35 UTC,29.94,68.36,67.46,96.96,0.0,0.0,,,,,,502.0,,,,10.0,,KIGQ 101035Z AUTO 00000KT 10SM SCT050 20/20 A2994 RMK AO2  T02020197,,,,,,67.46,,N,29.29,27.87,,Partly Cloudy
KIGQ,08/10/2018 10:55 UTC,29.94,68.54,67.46,96.36,3.44,30.0,,,,,,1.0,,,,10.0,,KIGQ 101055Z AUTO 03003KT 10SM CLR 20/20 A2994 RMK AO2  T02030197,,,,,,67.46,,NNE,29.29,27.86,,Clear
KIGQ,08/10/2018 11:15 UTC,29.95,68.72,67.1,94.59,0.0,0.0,,,,,,492.0,,,,10.0,,KIGQ 101115Z AUTO 00000KT 10SM SCT049 20/20 A2995 RMK AO2  T02040195,,,,,,67.09,,N,29.3,27.89,,Partly Cloudy
KIGQ,08/10/2018 11:35 UTC,29.95,68.9,67.1,94.01,0.0,0.0,,,,,,132.0,493.0,,,10.0,,KIGQ 101135Z AUTO 00000KT 10SM SCT013 BKN049 21/20 A2995 RMK AO2  T02050195,,,4900.0,,,67.09,,N,29.3,27.89,,Mostly Cloudy
KIGQ,08/10/2018 11:55 UTC,29.95,68.54,67.1,95.17,0.0,0.0,,,,,,102.0,133.0,,,10.0,,KIGQ 101155Z AUTO 00000KT 10SM SCT010 BKN013 20/20 A2995 RMK AO2  T02030195 10221 20196,71.78,67.28,1300.0,,,67.09,,N,29.3,27.9,,Mostly Cloudy
KIGQ,08/10/2018 12:15 UTC,29.95,69.98,68.36,94.62,0.0,0.0,,,,,,102.0,,,,10.0,,KIGQ 101215Z AUTO 00000KT 10SM SCT010 21/20 A2995 RMK AO2  T02110202,,,,,,68.36,,N,29.3,27.79,,Partly Cloudy
KIGQ,08/10/2018 12:35 UTC,29.95,71.96,68.9,90.12,0.0,0.0,,,,,,1.0,,,,10.0,,KIGQ 101235Z AUTO 00000KT 10SM CLR 22/21 A2995 RMK AO2  T02220205,,,,,,68.89,,N,29.3,27.73,,Clear
KIGQ,08/10/2018 12:55 UTC,29.95,73.58,69.8,88.01,3.44,110.0,,,,,,602.0,,,,7.0,,KIGQ 101255Z AUTO 11003KT 7SM SCT060 23/21 A2995 RMK AO2  T02310210,,,,,,69.79,,ESE,29.3,27.64,,Partly Cloudy
KIGQ,08/10/2018 13:15 UTC,29.95,74.3,70.34,87.5,3.44,110.0,,,603.0,,,82.0,463.0,,,10.0,,KIGQ 101315Z AUTO 11003KT 10SM SCT008 BKN046 BKN060 24/21 A2995 RMK AO2 T02350213,,,4600.0,,,70.33,,ESE,29.3,27.59,,Mostly Cloudy
KIGQ,08/10/2018 13:35 UTC,29.95,75.56,70.7,84.94,5.75,90.0,,,,,,102.0,463.0,,,10.0,,KIGQ 101335Z AUTO 09005KT 10SM SCT010 BKN046 24/22 A2995 RMK AO2  T02420215,,,4600.0,,,70.7,,E,29.3,27.54,,Mostly Cloudy
KIGQ,08/10/2018 13:55 UTC,29.95,76.46,70.7,82.44,3.44,120.0,,,,,,102.0,442.0,,,10.0,,KIGQ 101355Z AUTO 12003KT 10SM SCT010 SCT044 25/22 A2995 RMK AO2  T02470215,,,,,,70.7,,ESE,29.3,27.53,,Partly Cloudy
KIGQ,08/10/2018 14:15 UTC,29.95,77.18,70.34,79.52,4.61,100.0,,,,,,122.0,,,,10.0,,KIGQ 101415Z AUTO 10004KT 10SM SCT012 25/21 A2995 RMK AO2  T02510213,,,,,,70.34,,E,29.3,27.55,,Partly Cloudy
KIGQ,08/10/2018 14:35 UTC,29.96,78.44,69.98,75.36,4.61,120.0,,,,,,162.0,,,,10.0,,KIGQ 101435Z AUTO 12004KT 10SM SCT016 26/21 A2996 RMK AO2  T02580211,,,,,,69.98,,ESE,29.31,27.57,,Partly Cloudy
KIGQ,08/10/2018 14:55 UTC,29.95,78.08,69.98,76.26,3.44,60.0,,,,,,183.0,,,,10.0,,KIGQ 101455Z AUTO 06003KT 10SM BKN018 26/21 A2995 RMK AO2  T02560211,,,1800.0,,,69.98,,ENE,29.3,27.56,,Mostly Cloudy
KIGQ,08/10/2018 15:15 UTC,29.96,78.62,70.34,75.84,4.61,70.0,,,,,,182.0,,,,10.0,,KIGQ 101515Z AUTO 07004KT 10SM SCT018 26/21 A2996 RMK AO2  T02590213,,,,,,70.34,,ENE,29.31,27.54,,Partly Cloudy
KIGQ,08/10/2018 15:35 UTC,29.96,79.16,69.98,73.6,4.61,80.0,,,,,,222.0,,,,10.0,,KIGQ 101535Z AUTO 08004KT 10SM SCT022 26/21 A2996 RMK AO2  T02620211,,,,,,69.99,,E,29.31,27.56,,Partly Cloudy
KIGQ,08/10/2018 15:55 UTC,29.96,80.42,70.34,71.5,3.44,40.0,,,,,,222.0,432.0,,,10.0,,KIGQ 101555Z AUTO 04003KT 10SM SCT022 SCT043 27/21 A2996 RMK AO2  T02690213,,,,,,70.35,,NE,29.31,27.51,83.85,Partly Cloudy
KIGQ,08/10/2018 16:15 UTC,29.96,82.04,70.52,68.26,5.75,80.0,,,,,,223.0,433.0,,,10.0,,KIGQ 101615Z AUTO 08005KT 10SM BKN022 BKN043 28/21 A2996 RMK AO2  T02780214,,,2200.0,,,70.54,,E,29.31,27.48,86.13,Mostly Cloudy
KIGQ,08/10/2018 16:35 UTC,29.96,80.78,69.08,67.7,3.44,40.0,,,,,,242.0,302.0,,,10.0,,KIGQ 101635Z AUTO 04003KT 10SM SCT024 SCT030 27/21 A2996 RMK AO2  T02710206,,,,,,69.1,,NE,29.31,27.6,83.89,Partly Cloudy
KIGQ,08/10/2018 16:55 UTC,29.95,82.22,69.62,65.81,5.75,50.0,,,,,,242.0,,,,10.0,,KIGQ 101655Z AUTO 05005KT 10SM SCT024 28/21 A2995 RMK AO2  T02790209,,,,,,69.64,,NE,29.3,27.53,85.93,Partly Cloudy
KIGQ,08/10/2018 17:15 UTC,29.95,81.86,69.26,65.77,9.22,30.0,,,,,,242.0,,,,10.0,,KIGQ 101715Z AUTO 03008KT 10SM SCT024 28/21 A2995 RMK AO2  T02770207,,,,,,69.28,,NNE,29.3,27.57,85.31,Partly Cloudy
KIGQ,08/10/2018 17:35 UTC,29.95,82.4,69.8,65.83,9.22,70.0,,,,,,502.0,,,,10.0,,KIGQ 101735Z AUTO 07008KT 10SM SCT050 28/21 A2995 RMK AO2  T02800210,,,,,,69.82,,ENE,29.3,27.52,86.24,Partly Cloudy
KIGQ,08/10/2018 17:55 UTC,29.94,82.22,69.44,65.41,9.22,40.0,,,,,,242.0,502.0,,,10.0,,KIGQ 101755Z AUTO 04008KT 10SM SCT024 SCT050 28/21 A2994 RMK AO2  T02790208 10281 20204,82.58,68.72,,,,69.47,,NE,29.29,27.54,85.84,Partly Cloudy
KIGQ,08/10/2018 18:15 UTC,29.94,81.68,68.0,63.36,5.75,50.0,,,,,,262.0,,,,10.0,,KIGQ 101815Z AUTO 05005KT 10SM SCT026 28/20 A2994 RMK AO2  T02760200,,,,,,68.02,,NE,29.29,27.65,84.57,Partly Cloudy
KIGQ,08/10/2018 18:35 UTC,29.94,82.04,66.38,59.23,6.91,50.0,,,,,,302.0,,,,10.0,,KIGQ 101835Z AUTO 05006KT 10SM SCT030 28/19 A2994 RMK AO2  T02780191,,,,,,66.41,,NE,29.29,27.76,84.34,Partly Cloudy
KIGQ,08/10/2018 18:55 UTC,29.94,81.86,67.28,61.45,9.22,60.0,,,,,,302.0,,,,10.0,,KIGQ 101855Z AUTO 06008KT 10SM SCT030 28/20 A2994 RMK AO2  T02770196,,,,,,67.31,,ENE,29.29,27.7,84.49,Partly Cloudy
KIGQ,08/10/2018 19:15 UTC,29.94,81.32,68.72,65.71,9.22,30.0,,,,,,283.0,503.0,,,10.0,,KIGQ 101915Z AUTO 03008KT 10SM BKN028 BKN050 27/20 A2994 RMK AO2  T02740204,,,2800.0,,,68.74,,NNE,29.29,27.6,84.42,Mostly Cloudy
KIGQ,08/10/2018 19:35 UTC,29.94,80.96,68.54,66.07,10.36,40.0,,,,,,263.0,503.0,,,10.0,,KIGQ 101935Z AUTO 04009KT 10SM BKN026 BKN050 27/20 A2994 RMK AO2  T02720203,,,2600.0,,,68.56,,NE,29.29,27.62,83.92,Mostly Cloudy
KIGQ,08/10/2018 19:55 UTC,29.93,81.68,69.08,65.75,10.36,10.0,,,,,,243.0,,,,10.0,,KIGQ 101955Z AUTO 01009KT 10SM BKN024 28/21 A2993 RMK AO2  T02760206,,,2400.0,,,69.1,,N,29.28,27.56,85.01,Mostly Cloudy
KIGQ,08/10/2018 20:15 UTC,29.93,80.6,69.44,68.94,10.36,40.0,,,,,,243.0,,,,10.0,,KIGQ 102015Z AUTO 04009KT 10SM BKN024 27/21 A2993 RMK AO2 LTG DSNT  SW T02700208,,,2400.0,,,69.45,,NE,29.28,27.55,83.78,Mostly Cloudy
KIGQ,08/10/2018 20:35 UTC,29.93,78.98,69.08,71.8,9.22,40.0,16.11,,,,,223.0,273.0,,,7.0,,KIGQ 102035Z AUTO 04008G14KT 7SM BKN022 BKN027 26/21 A2993 RMK AO2  T02610206,,,2200.0,,,69.09,,NE,29.28,27.6,,Mostly Cloudy
KIGQ,08/10/2018 20:55 UTC,29.93,79.52,68.54,69.25,8.05,20.0,,,,,,203.0,,,,10.0,,KIGQ 102055Z AUTO 02007KT 10SM BKN020 26/20 A2993 RMK AO2  T02640203,,,2000.0,,,68.55,,NNE,29.28,27.63,,Mostly Cloudy
KIGQ,08/10/2018 21:15 UTC,29.93,78.98,68.9,71.36,5.75,10.0,,,,,,202.0,,,,10.0,,KIGQ 102115Z AUTO 01005KT 10SM SCT020 26/21 A2993 RMK AO2  T02610205,,,,,,68.91,,N,29.28,27.61,,Partly Cloudy
KIGQ,08/10/2018 21:35 UTC,29.93,78.44,68.36,71.3,9.22,40.0,,,,,,1.0,,,,10.0,,KIGQ 102135Z AUTO 04008KT 10SM CLR 26/20 A2993 RMK AO2  T02580202,,,,,,68.36,,NE,29.28,27.66,,Clear
KIGQ,08/10/2018 21:55 UTC,29.92,78.08,68.54,72.6,8.05,30.0,,,,,,192.0,,,,10.0,,KIGQ 102155Z AUTO 03007KT 350V050 10SM SCT019 26/20 A2992 RMK AO2  T02560203,,,,,,68.54,,NNE,29.27,27.64,,Partly Cloudy
KIGQ,08/10/2018 22:15 UTC,29.92,77.72,68.36,73.01,9.22,10.0,,,,,,182.0,,,,10.0,,KIGQ 102215Z AUTO 01008KT 10SM SCT018 25/20 A2992 RMK AO2  T02540202,,,,,,68.36,,N,29.27,27.66,,Partly Cloudy
KIGQ,08/10/2018 22:35 UTC,29.91,77.36,68.18,73.43,12.66,30.0,17.27,,,,,182.0,,,,10.0,,KIGQ 102235Z AUTO 03011G15KT 10SM SCT018 25/20 A2991 RMK AO2  T02520201,,,,,,68.18,,NNE,29.26,27.66,,Partly Cloudy
KIGQ,08/10/2018 22:55 UTC,29.91,76.64,67.82,74.27,10.36,360.0,,,,,,182.0,,,,10.0,,KIGQ 102255Z AUTO 36009KT 10SM SCT018 25/20 A2991 RMK AO2 LTG DSNT  SE T02480199,,,,,,67.82,,N,29.26,27.7,,Partly Cloudy
KIGQ,08/10/2018 23:15 UTC,29.92,75.92,68.36,77.49,9.22,40.0,,,,,,172.0,,,,10.0,,KIGQ 102315Z AUTO 04008KT 10SM SCT017 24/20 A2992 RMK AO2  T02440202,,,,,,68.35,,NE,29.27,27.68,,Partly Cloudy
KIGQ,08/10/2018 23:35 UTC,29.92,75.38,68.18,78.4,10.36,30.0,,,,,,193.0,,,,10.0,,KIGQ 102335Z AUTO 03009KT 10SM BKN019 24/20 A2992 RMK AO2  T02410201,,,1900.0,,,68.17,,NNE,29.27,27.7,,Mostly Cloudy
KIGQ,08/10/2018 23:55 UTC,29.92,75.2,68.36,79.36,8.05,30.0,,,,,,173.0,,,,10.0,,KIGQ 102355Z AUTO 03007KT 10SM BKN017 24/20 A2992 RMK AO2  T02400202 10283 20240,82.94,75.2,1700.0,,,68.35,,NNE,29.27,27.69,,Mostly Cloudy
KIGQ,08/11/2018 00:15 UTC,29.94,74.66,68.72,81.81,6.91,360.0,,,,,,174.0,,,,10.0,,KIGQ 110015Z AUTO 36006KT 10SM OVC017 24/20 A2994 RMK AO2  T02370204,,,1700.0,,,68.71,,N,29.29,27.69,,Overcast
KIGQ,08/11/2018 00:35 UTC,29.94,74.3,68.54,82.29,6.91,10.0,,,,,,174.0,,,,10.0,,KIGQ 110035Z AUTO 01006KT 10SM OVC017 24/20 A2994 RMK AO2  T02350203,,,1700.0,,,68.53,,N,29.29,27.71,,Overcast
KIGQ,08/11/2018 00:55 UTC,29.95,74.3,68.18,81.28,6.91,10.0,,,,,,174.0,,,,10.0,,KIGQ 110055Z AUTO 01006KT 10SM OVC017 24/20 A2995 RMK AO2  T02350201,,,1700.0,,,68.17,,N,29.3,27.74,,Overcast
KIGQ,08/11/2018 01:15 UTC,29.96,74.3,68.0,80.78,6.91,30.0,,,,,,194.0,,,,10.0,,KIGQ 110115Z AUTO 03006KT 10SM OVC019 24/20 A2996 RMK AO2  T02350200,,,1900.0,,,67.99,,NNE,29.31,27.77,,Overcast
KIGQ,08/11/2018 01:35 UTC,29.96,73.4,67.82,82.74,5.75,30.0,,,,,,194.0,,,,10.0,,KIGQ 110135Z AUTO 03005KT 10SM OVC019 23/20 A2996 RMK AO2  T02300199,,,1900.0,,,67.81,,NNE,29.31,27.79,,Overcast
KIGQ,08/11/2018 01:55 UTC,29.96,73.94,68.0,81.76,5.75,50.0,,,,,,174.0,,,,10.0,,KIGQ 110155Z AUTO 05005KT 10SM OVC017 23/20 A2996 RMK AO2  T02330200,,,1700.0,,,67.99,,NE,29.31,27.77,,Overcast
KIGQ,08/11/2018 02:15 UTC,29.96,72.68,67.82,84.76,5.75,40.0,,,,,,172.0,302.0,,,10.0,,KIGQ 110215Z AUTO 04005KT 10SM SCT017 SCT030 23/20 A2996 RMK AO2  T02260199,,,,,,67.81,,NE,29.31,27.8,,Partly Cloudy
KIGQ,08/11/2018 02:35 UTC,29.96,72.5,67.82,85.28,4.61,30.0,,,,,,1.0,,,,10.0,,KIGQ 110235Z AUTO 03004KT 10SM CLR 23/20 A2996 RMK AO2  T02250199,,,,,,67.81,,NNE,29.31,27.8,,Clear
KIGQ,08/11/2018 02:55 UTC,29.96,72.5,68.0,85.81,5.75,20.0,,,,,,1.0,,,,10.0,,KIGQ 110255Z AUTO 02005KT 10SM CLR 23/20 A2996 RMK AO2  T02250200,,,,,,67.99,,NNE,29.31,27.79,,Clear
KIGQ,08/11/2018 03:15 UTC,29.96,72.5,67.82,85.28,3.44,30.0,,,,,,1.0,,,,10.0,,KIGQ 110315Z AUTO 03003KT 10SM CLR 23/20 A2996 RMK AO2  T02250199,,,,,,67.81,,NNE,29.31,27.8,,Clear
KIGQ,08/11/2018 03:35 UTC,29.96,71.96,67.64,86.31,0.0,0.0,,,,,,1.0,,,,10.0,,KIGQ 110335Z AUTO 00000KT 10SM CLR 22/20 A2996 RMK AO2  T02220198,,,,,,67.63,,N,29.31,27.82,,Clear
KIGQ,08/11/2018 03:55 UTC,29.97,71.78,67.64,86.84,3.44,10.0,,,,,,1.0,,,,10.0,,KIGQ 110355Z AUTO 01003KT 10SM CLR 22/20 A2997 RMK AO2  T02210198,,,,,,67.63,,N,29.32,27.84,,Clear
KIGQ,08/11/2018 04:15 UTC,29.97,71.78,67.46,86.3,3.44,10.0,,,,,,1.0,,,,10.0,,KIGQ 110415Z AUTO 01003KT 10SM CLR 22/20 A2997 RMK AO2  T02210197,,,,,,67.45,,N,29.32,27.85,,Clear
KIGQ,08/11/2018 04:35 UTC,29.97,72.14,67.46,85.26,0.0,0.0,,,,,,1.0,,,,10.0,,KIGQ 110435Z AUTO 00000KT 10SM CLR 22/20 A2997 RMK AO2  T02230197,,,,,,67.45,,N,29.32,27.84,,Clear
KIGQ,08/11/2018 04:55 UTC,29.96,72.14,67.64,85.79,4.61,10.0,,,,,,342.0,,,,10.0,,KIGQ 110455Z AUTO 01004KT 10SM SCT034 22/20 A2996 RMK AO2  T02230198,,,,,,67.63,,N,29.31,27.82,,Partly Cloudy
KIGQ,08/11/2018 05:15 UTC,29.97,72.68,67.64,84.24,4.61,10.0,,,493.0,,,342.0,423.0,,,10.0,,KIGQ 110515Z AUTO 01004KT 10SM SCT034 BKN042 BKN049 23/20 A2997 RMK AO2 T02260198,,,4200.0,,,67.63,,N,29.32,27.82,,Mostly Cloudy
KIGQ,08/11/2018 05:35 UTC,29.97,72.5,67.46,84.23,4.61,10.0,,,,,,432.0,492.0,,,10.0,,KIGQ 110535Z AUTO 01004KT 10SM SCT043 SCT049 23/20 A2997 RMK AO2  T02250197,,,,,,67.45,,N,29.32,27.84,,Partly Cloudy
KIGQ,08/11/2018 05:55 UTC,29.97,71.96,67.1,84.72,3.44,20.0,,,,,,1.0,,,,10.0,,KIGQ 110555Z AUTO 02003KT 10SM CLR 22/20 A2997 RMK AO2 T02220195  10240 20220 402830196,75.2,71.6,,82.94,67.28,67.09,,NNE,29.32,27.87,,Clear
KIGQ,08/11/2018 06:15 UTC,29.97,71.6,66.92,85.23,3.44,10.0,,,,,,1.0,,,,10.0,,KIGQ 110615Z AUTO 01003KT 10SM CLR 22/19 A2997 RMK AO2  T02200194,,,,,,66.91,,N,29.32,27.89,,Clear
KIGQ,08/11/2018 06:35 UTC,29.97,71.6,66.56,84.17,0.0,0.0,,,,,,1.0,,,,10.0,,KIGQ 110635Z AUTO 00000KT 10SM CLR 22/19 A2997 RMK AO2  T02200192,,,,,,66.54,,N,29.32,27.91,,Clear
KIGQ,08/11/2018 06:55 UTC,29.97,71.6,66.2,83.13,3.44,360.0,,,,,,1.0,,,,10.0,,KIGQ 110655Z AUTO 36003KT 10SM CLR 22/19 A2997 RMK AO2  T02200190,,,,,,66.18,,N,29.32,27.94,,Clear
KIGQ,08/11/2018 07:15 UTC,29.97,71.42,66.38,84.16,0.0,0.0,,,,,,1.0,,,,10.0,,KIGQ 110715Z AUTO 00000KT 10SM CLR 22/19 A2997 RMK AO2  T02190191,,,,,,66.36,,N,29.32,27.93,,Clear
KIGQ,08/11/2018 07:35 UTC,29.97,71.42,66.38,84.16,0.0,0.0,,,,,,1.0,,,,10.0,,KIGQ 110735Z AUTO 00000KT 10SM CLR 22/19 A2997 RMK AO2  T02190191,,,,,,66.36,,N,29.32,27.93,,Clear
KIGQ,08/11/2018 07:55 UTC,29.96,70.88,66.38,85.72,0.0,0.0,,,,,,1.0,,,,10.0,,KIGQ 110755Z AUTO 00000KT 10SM CLR 22/19 A2996 RMK AO2  T02160191,,,,,,66.37,,N,29.31,27.92,,Clear
KIGQ,08/11/2018 08:15 UTC,29.96,66.2,64.4,93.94,0.0,0.0,,,,,,1.0,,,,10.0,,KIGQ 110815Z AUTO 00000KT 10SM CLR 19/18 A2996 RMK AO2  T01900180,,,,,,64.39,,N,29.31,28.11,,Clear
KIGQ,08/11/2018 08:35 UTC,29.96,66.92,64.58,92.21,0.0,0.0,,,,,,1.0,,,,10.0,,KIGQ 110835Z AUTO 00000KT 10SM CLR 19/18 A2996 RMK AO2  T01940181,,,,,,64.57,,N,29.31,28.09,,Clear
KIGQ,08/11/2018 08:55 UTC,29.96,68.9,67.1,94.01,0.0,0.0,,,,,,1.0,,,,10.0,,KIGQ 110855Z AUTO 00000KT 10SM CLR 21/20 A2996 RMK AO2  T02050195,,,,,,67.09,,N,29.31,27.9,,Clear
KIGQ,08/11/2018 09:15 UTC,29.96,69.08,66.74,92.28,0.0,0.0,,,,,,1.0,,,,10.0,,KIGQ 110915Z AUTO 00000KT 10SM CLR 21/19 A2996 RMK AO2  T02060193,,,,,,66.73,,N,29.31,27.92,,Clear
KIGQ,08/11/2018 09:35 UTC,29.95,69.26,66.74,91.71,0.0,0.0,,,,,,1.0,,,,10.0,,KIGQ 110935Z AUTO 00000KT 10SM CLR 21/19 A2995 RMK AO2  T02070193,,,,,,66.73,,N,29.3,27.91,,Clear
KIGQ,08/11/2018 09:55 UTC,29.95,69.26,67.1,92.86,0.0,0.0,,,,,,1.0,,,,10.0,,KIGQ 110955Z AUTO 00000KT 10SM CLR 21/20 A2995 RMK AO2  T02070195,,,,,,67.09,,N,29.3,27.89,,Clear
KIGQ,08/11/2018 10:15 UTC,29.95,69.62,67.1,91.72,0.0,0.0,,,,,,1.0,,,,10.0,,KIGQ 111015Z AUTO 00000KT 10SM CLR 21/20 A2995 RMK AO2  T02090195,,,,,,67.09,,N,29.3,27.88,,Clear
KIGQ,08/11/2018 10:35 UTC,29.96,69.8,67.1,91.16,0.0,0.0,,,,,,1.0,,,,10.0,,KIGQ 111035Z AUTO 00000KT 10SM CLR 21/20 A2996 RMK AO2  T02100195,,,,,,67.09,,N,29.31,27.89,,Clear
KIGQ,08/11/2018 10:55 UTC,29.96,69.8,67.1,91.16,3.44,340.0,,,,,,1.0,,,,10.0,,KIGQ 111055Z AUTO 34003KT 10SM CLR 21/20 A2996 RMK AO2  T02100195,,,,,,67.09,,NNW,29.31,27.89,,Clear
KIGQ,08/11/2018 11:15 UTC,29.96,69.8,67.28,91.73,0.0,0.0,,,,,,1.0,,,,10.0,,KIGQ 111115Z AUTO 00000KT 10SM CLR 21/20 A2996 RMK AO2  T02100196,,,,,,67.27,,N,29.31,27.88,,Clear
KIGQ,08/11/2018 11:35 UTC,29.97,69.98,67.46,91.73,0.0,0.0,,,,,,1.0,,,,10.0,,KIGQ 111135Z AUTO 00000KT 10SM CLR 21/20 A2997 RMK AO2  T02110197,,,,,,67.45,,N,29.32,27.87,,Clear
KIGQ,08/11/2018 11:55 UTC,29.97,70.52,68.0,91.75,0.0,0.0,,,,,,1.0,,,,10.0,,KIGQ 111155Z AUTO 00000KT 10SM CLR 21/20 A2997 RMK AO2 T02140200  10221 20190,71.78,66.2,,,,67.99,,N,29.32,27.83,,Clear
KIGQ,08/11/2018 12:15 UTC,29.98,71.96,68.9,90.12,0.0,0.0,,,,,,1.0,,,,10.0,,KIGQ 111215Z AUTO 00000KT 10SM CLR 22/21 A2998 RMK AO2  T02220205,,,,,,68.89,,N,29.33,27.76,,Clear
KIGQ,08/11/2018 12:35 UTC,29.99,73.4,69.08,86.39,0.0,0.0,,,,,,1.0,,,,10.0,,KIGQ 111235Z AUTO 00000KT 10SM CLR 23/21 A2999 RMK AO2  T02300206,,,,,,69.07,,N,29.34,27.73,,Clear
KIGQ,08/11/2018 12:55 UTC,29.99,74.66,69.62,84.36,0.0,0.0,,,,,,1.0,,,,10.0,,KIGQ 111255Z AUTO 00000KT 10SM CLR 24/21 A2999 RMK AO2  T02370209,,,,,,69.61,,N,29.34,27.68,,Clear
KIGQ,08/11/2018 13:15 UTC,30.0,75.56,69.26,80.87,3.44,30.0,,,,,,1.0,,,,10.0,,KIGQ 111315Z AUTO 03003KT 10SM CLR 24/21 A3000 RMK AO2  T02420207,,,,,,69.25,,NNE,29.35,27.7,,Clear
KIGQ,08/11/2018 13:35 UTC,30.0,76.82,68.36,75.21,4.61,30.0,,,,,,1.0,,,,10.0,,KIGQ 111335Z AUTO 03004KT 10SM CLR 25/20 A3000 RMK AO2  T02490202,,,,,,68.36,,NNE,29.35,27.75,,Clear
KIGQ,08/11/2018 13:55 UTC,30.01,77.54,68.9,74.81,3.44,10.0,,,,,,1.0,,,,10.0,,KIGQ 111355Z AUTO 01003KT 10SM CLR 25/21 A3001 RMK AO2  T02530205,,,,,,68.9,,N,29.36,27.71,,Clear
KIGQ,08/11/2018 14:15 UTC,30.01,78.08,67.1,69.09,4.61,50.0,,,,,,1.0,,,,10.0,,KIGQ 111415Z AUTO 05004KT 10SM CLR 26/20 A3001 RMK AO2  T02560195,,,,,,67.1,,NE,29.36,27.83,,Clear
KIGQ,08/11/2018 14:35 UTC,30.02,78.98,67.46,67.92,5.75,10.0,,,,,,1.0,,,,10.0,,KIGQ 111435Z AUTO 01005KT 10SM CLR 26/20 A3002 RMK AO2  T02610197,,,,,,67.47,,N,29.37,27.8,,Clear
KIGQ,08/11/2018 14:55 UTC,30.03,80.24,66.74,63.58,4.61,20.0,,,,,,312.0,,,,10.0,,KIGQ 111455Z AUTO 02004KT 10SM SCT031 27/19 A3003 RMK AO2  T02680193,,,,,,66.76,,NNE,29.38,27.85,82.53,Partly Cloudy
KIGQ,08/11/2018 15:15 UTC,30.04,80.6,64.94,59.04,5.75,10.0,,,,,,312.0,,,,10.0,,KIGQ 111515Z AUTO 01005KT 10SM SCT031 27/18 A3004 RMK AO2  T02700183,,,,,,64.96,,N,29.39,27.98,82.42,Partly Cloudy
KIGQ,08/11/2018 15:35 UTC,30.04,81.5,62.96,53.5,6.91,20.0,,,,,,1.0,,,,10.0,,KIGQ 111535Z AUTO 02006KT 10SM CLR 28/17 A3004 RMK AO2  T02750172,,,,,,62.99,,NNE,29.39,28.1,82.73,Clear
KIGQ,08/11/2018 15:55 UTC,30.04,81.14,63.14,54.47,6.91,360.0,,,,,,1.0,,,,10.0,,KIGQ 111555Z AUTO 36006KT 10SM CLR 27/17 A3004 RMK AO2 LTG DSNT SE  T02730173,,,,,,63.16,,N,29.39,28.09,82.46,Clear
KIGQ,08/11/2018 16:15 UTC,30.04,82.4,60.62,47.85,4.61,20.0,,,,,,1.0,,,,7.0,,KIGQ 111615Z AUTO 02004KT 7SM CLR 28/16 A3004 RMK AO2  T02800159,,,,,,60.66,,NNE,29.39,28.23,82.87,Clear
KIGQ,08/11/2018 16:35 UTC,30.04,83.3,59.72,45.02,6.91,40.0,,,,,,1.0,,,,10.0,,KIGQ 111635Z AUTO 04006KT 10SM CLR 29/15 A3004 RMK AO2  T02850154,,,,,,59.78,,NE,29.39,28.27,83.38,Clear
KIGQ,08/11/2018 16:55 UTC,30.04,83.12,59.9,45.57,4.61,40.0,,,,,,1.0,,,,10.0,,KIGQ 111655Z AUTO 04004KT 10SM CLR 28/16 A3004 RMK AO2  T02840155,,,,,,59.95,,NE,29.39,28.27,83.28,Clear
KIGQ,08/11/2018 17:15 UTC,30.04,83.48,59.36,44.19,6.91,20.0,,,,,,1.0,,,,10.0,,KIGQ 111715Z AUTO 02006KT 10SM CLR 29/15 A3004 RMK AO2  T02860152,,,,,,59.42,,NNE,29.39,28.29,83.43,Clear
KIGQ,08/11/2018 17:35 UTC,30.03,83.66,59.54,44.21,5.75,350.0,,,,,,1.0,,,,10.0,,KIGQ 111735Z AUTO 35005KT 10SM CLR 29/15 A3003 RMK AO2  T02870153,,,,,,59.6,,N,29.38,28.27,83.63,Clear
KIGQ,08/11/2018 17:55 UTC,30.03,84.92,60.26,43.57,4.61,70.0,,,,,,1.0,,,,10.0,,KIGQ 111755Z AUTO 07004KT 10SM CLR 29/16 A3003 RMK AO2 T02940157  10294 20215,84.92,70.7,,,,60.34,,ENE,29.38,28.22,84.92,Clear
KIGQ,08/11/2018 18:15 UTC,30.03,84.38,57.56,40.25,9.22,80.0,,,,,,1.0,,,,10.0,,KIGQ 111815Z AUTO 08008KT 10SM CLR 29/14 A3003 RMK AO2  T02910142,,,,,,57.63,,E,29.38,28.38,83.72,Clear
KIGQ,08/11/2018 18:35 UTC,30.03,85.28,58.46,40.39,8.05,80.0,,,,,,1.0,,,,10.0,,KIGQ 111835Z AUTO 08007KT 10SM CLR 30/15 A3003 RMK AO2  T02960147,,,,,,58.54,,E,29.38,28.32,84.7,Clear
KIGQ,08/11/2018 18:55 UTC,30.03,85.28,56.48,37.62,9.22,90.0,,,,,,1.0,,,,10.0,,KIGQ 111855Z AUTO 09008KT 10SM CLR 30/14 A3003 RMK AO2  T02960136,,,,,,56.57,,E,29.38,28.43,84.2,Clear
KIGQ,08/11/2018 19:15 UTC,30.02,85.28,56.12,37.13,6.91,90.0,,,,,,1.0,,,,10.0,,KIGQ 111915Z AUTO 09006KT 10SM CLR 30/13 A3002 RMK AO2  T02960134,,,,,,56.21,,E,29.37,28.43,84.12,Clear
KIGQ,08/11/2018 19:35 UTC,30.02,85.28,56.48,37.62,8.05,70.0,,,,,,1.0,,,,10.0,,KIGQ 111935Z AUTO 07007KT 10SM CLR 30/14 A3002 RMK AO2  T02960136,,,,,,56.57,,ENE,29.37,28.41,84.2,Clear
KIGQ,08/11/2018 19:55 UTC,30.01,85.28,55.58,36.41,6.91,40.0,,,,,,1.0,,,,10.0,,KIGQ 111955Z AUTO 04006KT 10SM CLR 30/13 A3001 RMK AO2  T02960131,,,,,,55.67,,NE,29.36,28.45,84.0,Clear
KIGQ,08/11/2018 20:15 UTC,30.01,85.46,55.58,36.2,6.91,80.0,,,,,,1.0,,,,10.0,,KIGQ 112015Z AUTO 08006KT 10SM CLR 30/13 A3001 RMK AO2  T02970131,,,,,,55.67,,E,29.36,28.45,84.15,Clear
KIGQ,08/11/2018 20:35 UTC,30.01,85.28,54.86,35.47,8.05,90.0,,,,,,1.0,,,,10.0,,KIGQ 112035Z AUTO 09007KT 10SM CLR 30/13 A3001 RMK AO2  T02960127,,,,,,54.95,,E,29.36,28.49,83.85,Clear
KIGQ,08/11/2018 20:55 UTC,30.01,85.28,54.32,34.78,9.22,70.0,,,,,,1.0,,,,10.0,,KIGQ 112055Z AUTO 07008KT 030V100 10SM CLR 30/12 A3001 RMK AO2  T02960124,,,,,,54.42,,ENE,29.36,28.52,83.75,Clear
KIGQ,08/11/2018 21:15 UTC,30.0,85.1,53.6,34.07,4.61,80.0,,,,,,1.0,,,,10.0,,KIGQ 112115Z AUTO 08004KT 10SM CLR 30/12 A3000 RMK AO2  T02950120,,,,,,53.69,,E,29.35,28.54,83.47,Clear
KIGQ,08/11/2018 21:35 UTC,30.0,85.1,53.6,34.07,5.75,80.0,,,,,,1.0,,,,10.0,,KIGQ 112135Z AUTO 08005KT 10SM CLR 30/12 A3000 RMK AO2  T02950120,,,,,,53.69,,E,29.35,28.54,83.47,Clear
KIGQ,08/11/2018 21:55 UTC,30.0,84.92,53.06,33.6,0.0,0.0,,,,,,1.0,,,,10.0,,KIGQ 112155Z AUTO 00000KT 10SM CLR 29/12 A3000 RMK AO2  T02940117,,,,,,53.16,,N,29.35,28.57,83.23,Clear
KIGQ,08/11/2018 22:15 UTC,30.0,84.38,54.14,35.56,5.75,70.0,,,,,,1.0,,,,10.0,,KIGQ 112215Z AUTO 07005KT 10SM CLR 29/12 A3000 RMK AO2  T02910123,,,,,,54.22,,ENE,29.35,28.52,83.0,Clear
KIGQ,08/11/2018 22:35 UTC,30.01,83.84,53.06,34.78,8.05,50.0,,,,,,1.0,,,,10.0,,KIGQ 112235Z AUTO 05007KT 10SM CLR 29/12 A3001 RMK AO2  T02880117,,,,,,53.14,,NE,29.36,28.59,82.41,Clear
KIGQ,08/11/2018 22:55 UTC,30.01,82.94,52.16,34.64,8.05,50.0,,,,,,1.0,,,,10.0,,KIGQ 112255Z AUTO 05007KT 10SM CLR 28/11 A3001 RMK AO2  T02830112,,,,,,52.23,,NE,29.36,28.64,81.63,Clear
KIGQ,08/11/2018 23:15 UTC,30.01,82.04,53.6,37.59,8.05,30.0,,,,,,652.0,,,,10.0,,KIGQ 112315Z AUTO 03007KT 10SM SCT065 28/12 A3001 RMK AO2  T02780120,,,,,,53.65,,NNE,29.36,28.58,81.22,Partly Cloudy
KIGQ,08/11/2018 23:35 UTC,30.01,80.24,55.04,42.01,3.44,40.0,,,,,,653.0,,,,10.0,,KIGQ 112335Z AUTO 04003KT 10SM BKN065 27/13 A3001 RMK AO2  T02680128,,,6500.0,,,55.07,,NE,29.36,28.52,79.94,Mostly Cloudy
KIGQ,08/11/2018 23:55 UTC,30.01,79.7,56.12,44.46,3.44,20.0,,,,,,653.0,,,,10.0,,KIGQ 112355Z AUTO 02003KT 10SM BKN065 27/13 A3001 RMK AO2  T02650134 10299 20265,85.82,79.7,6500.0,,,56.14,,NNE,29.36,28.47,,Mostly Cloudy
KIGQ,08/12/2018 00:15 UTC,30.01,79.7,56.12,44.46,0.0,0.0,,,,,,652.0,,,,10.0,,KIGQ 120015Z AUTO 00000KT 10SM SCT065 27/13 A3001 RMK AO2  T02650134,,,,,,56.14,,N,29.36,28.47,,Partly Cloudy
KIGQ,08/12/2018 00:35 UTC,30.01,78.8,56.3,46.09,0.0,0.0,,,,,,1.0,,,,10.0,,KIGQ 120035Z AUTO 00000KT 10SM CLR 26/14 A3001 RMK AO2  T02600135,,,,,,56.31,,N,29.36,28.47,,Clear
KIGQ,08/12/2018 00:55 UTC,30.01,77.72,57.2,49.33,0.0,0.0,,,,,,1.0,,,,10.0,,KIGQ 120055Z AUTO 00000KT 10SM CLR 25/14 A3001 RMK AO2  T02540140,,,,,,57.2,,N,29.36,28.43,,Clear
KIGQ,08/12/2018 01:15 UTC,30.02,76.46,58.46,53.81,0.0,0.0,,,,,,1.0,,,,10.0,,KIGQ 120115Z AUTO 00000KT 10SM CLR 25/15 A3002 RMK AO2  T02470147,,,,,,58.45,,N,29.37,28.39,,Clear
KIGQ,08/12/2018 01:35 UTC,30.02,76.1,59.0,55.51,0.0,0.0,,,,,,1.0,,,,10.0,,KIGQ 120135Z AUTO 00000KT 10SM CLR 25/15 A3002 RMK AO2  T02450150,,,,,,58.98,,N,29.37,28.36,,Clear
KIGQ,08/12/2018 01:55 UTC,30.03,68.9,58.46,69.4,0.0,0.0,,,,,,1.0,,,,10.0,,KIGQ 120155Z AUTO 00000KT 10SM CLR 21/15 A3003 RMK AO2  T02050147,,,,,,58.42,,N,29.38,28.48,,Clear
KIGQ,08/12/2018 02:15 UTC,30.04,68.54,59.0,71.63,0.0,0.0,,,,,,1.0,,,,10.0,,KIGQ 120215Z AUTO 00000KT 10SM CLR 20/15 A3004 RMK AO2  T02030150,,,,,,58.96,,N,29.39,28.46,,Clear
KIGQ,08/12/2018 02:35 UTC,30.04,69.62,59.72,70.83,0.0,0.0,,,,,,1.0,,,,10.0,,KIGQ 120235Z AUTO 00000KT 10SM CLR 21/15 A3004 RMK AO2  T02090154,,,,,,59.68,,N,29.39,28.41,,Clear
KIGQ,08/12/2018 02:55 UTC,30.05,68.9,59.9,73.06,0.0,0.0,,,,,,1.0,,,,10.0,,KIGQ 120255Z AUTO 00000KT 10SM CLR 21/16 A3005 RMK AO2  T02050155,,,,,,59.87,,N,29.4,28.42,,Clear
KIGQ,08/12/2018 03:15 UTC,30.06,68.0,59.9,75.34,0.0,0.0,,,,,,1.0,,,,10.0,,KIGQ 120315Z AUTO 00000KT 10SM CLR 20/16 A3006 RMK AO2  T02000155,,,,,,59.86,,N,29.41,28.44,,Clear
KIGQ,08/12/2018 03:35 UTC,30.06,69.08,59.72,72.14,0.0,0.0,,,,,,1.0,,,,10.0,,KIGQ 120335Z AUTO 00000KT 10SM CLR 21/15 A3006 RMK AO2  T02060154,,,,,,59.68,,N,29.41,28.44,,Clear
KIGQ,08/12/2018 03:55 UTC,30.06,68.0,60.26,76.31,0.0,0.0,,,,,,1.0,,,,10.0,,KIGQ 120355Z AUTO 00000KT 10SM CLR 20/16 A3006 RMK AO2  T02000157,,,,,,60.22,,N,29.41,28.42,,Clear
KIGQ,08/12/2018 04:15 UTC,30.07,65.48,60.62,84.32,0.0,0.0,,,,,,1.0,,,,10.0,,KIGQ 120415Z AUTO 00000KT 10SM CLR 19/16 A3007 RMK AO2  T01860159,,,,,,60.59,,N,29.42,28.45,,Clear
KIGQ,08/12/2018 04:35 UTC,30.07,66.56,61.16,82.8,0.0,0.0,,,,,,1.0,,,,10.0,,KIGQ 120435Z AUTO 00000KT 10SM CLR 19/16 A3007 RMK AO2  T01920162,,,,,,61.13,,N,29.42,28.4,,Clear
KIGQ,08/12/2018 04:55 UTC,30.07,65.3,60.8,85.39,0.0,0.0,,,,,,1.0,,,,10.0,,KIGQ 120455Z AUTO 00000KT 10SM CLR 19/16 A3007 RMK AO2  T01850160,,,,,,60.77,,N,29.42,28.44,,Clear
KIGQ,08/12/2018 05:15 UTC,30.07,65.84,60.8,83.81,0.0,0.0,,,,,,1.0,,,,10.0,,KIGQ 120515Z AUTO 00000KT 10SM CLR 19/16 A3007 RMK AO2  T01880160,,,,,,60.77,,N,29.42,28.43,,Clear
KIGQ,08/12/2018 05:35 UTC,30.08,64.94,60.8,86.47,0.0,0.0,,,,,,1.0,,,,10.0,,KIGQ 120535Z AUTO 00000KT 10SM CLR 18/16 A3008 RMK AO2  T01830160,,,,,,60.78,,N,29.43,28.45,,Clear
KIGQ,08/12/2018 05:55 UTC,30.08,64.94,60.8,86.47,0.0,0.0,,,,,,1.0,,,,10.0,,KIGQ 120555Z AUTO 00000KT 10SM CLR 18/16 A3008 RMK AO2 T01830160  10265 20183 402990183,79.7,64.94,,85.82,64.94,60.78,,N,29.43,28.45,,Clear
KIGQ,08/12/2018 06:15 UTC,30.07,66.2,61.16,83.83,0.0,0.0,,,,,,1.0,,,,10.0,,KIGQ 120615Z AUTO 00000KT 10SM CLR 19/16 A3007 RMK AO2  T01900162,,,,,,61.13,,N,29.42,28.41,,Clear
KIGQ,08/12/2018 06:35 UTC,30.08,66.92,61.16,81.77,0.0,0.0,,,,,,1.0,,,,10.0,,KIGQ 120635Z AUTO 00000KT 10SM CLR 19/16 A3008 RMK AO2  T01940162,,,,,,61.13,,N,29.43,28.41,,Clear
KIGQ,08/12/2018 06:55 UTC,30.08,66.92,60.98,81.25,0.0,0.0,,,,,,1.0,,,,10.0,,KIGQ 120655Z AUTO 00000KT 10SM CLR 19/16 A3008 RMK AO2  T01940161,,,,,,60.95,,N,29.43,28.42,,Clear
KIGQ,08/12/2018 07:15 UTC,30.08,64.58,60.44,86.45,0.0,0.0,,,,,,1.0,,,,10.0,,KIGQ 120715Z AUTO 00000KT 10SM CLR 18/16 A3008 RMK AO2  T01810158,,,,,,60.42,,N,29.43,28.48,,Clear
KIGQ,08/12/2018 07:35 UTC,30.08,62.96,59.9,89.75,0.0,0.0,,,,,,1.0,,,,10.0,,KIGQ 120735Z AUTO 00000KT 10SM CLR 17/16 A3008 RMK AO2  T01720155,,,,,,59.88,,N,29.43,28.52,,Clear
KIGQ,08/12/2018 07:55 UTC,30.08,62.96,59.72,89.18,0.0,0.0,,,,,,1.0,,,,10.0,,KIGQ 120755Z AUTO 00000KT 10SM CLR 17/15 A3008 RMK AO2  T01720154,,,,,,59.7,,N,29.43,28.53,,Clear
KIGQ,08/12/2018 08:15 UTC,30.08,63.68,60.26,88.64,0.0,0.0,,,,,,1.0,,,,10.0,,KIGQ 120815Z AUTO 00000KT 10SM CLR 18/16 A3008 RMK AO2  T01760157,,,,,,60.24,,N,29.43,28.5,,Clear
KIGQ,08/12/2018 08:35 UTC,30.08,64.4,60.8,88.11,0.0,0.0,,,,,,1.0,,,,10.0,,KIGQ 120835Z AUTO 00000KT 10SM CLR 18/16 A3008 RMK AO2  T01800160,,,,,,60.78,,N,29.43,28.46,,Clear
KIGQ,08/12/2018 08:55 UTC,30.08,63.86,60.44,88.65,0.0,0.0,,,,,,1.0,,,,10.0,,KIGQ 120855Z AUTO 00000KT 10SM CLR 18/16 A3008 RMK AO2  T01770158,,,,,,60.42,,N,29.43,28.49,,Clear
KIGQ,08/12/2018 09:15 UTC,30.08,62.42,59.9,91.47,0.0,0.0,,,,,,1.0,,,,10.0,,KIGQ 120915Z AUTO 00000KT 10SM CLR 17/16 A3008 RMK AO2  T01690155,,,,,,59.88,,N,29.43,28.53,,Clear
KIGQ,08/12/2018 09:35 UTC,30.09,62.6,60.08,91.48,0.0,0.0,,,,,,1.0,,,,10.0,,KIGQ 120935Z AUTO 00000KT 10SM CLR 17/16 A3009 RMK AO2  T01700156,,,,,,60.06,,N,29.44,28.53,,Clear
KIGQ,08/12/2018 09:55 UTC,30.08,62.6,60.08,91.48,0.0,0.0,,,,,,1.0,,,,10.0,,KIGQ 120955Z AUTO 00000KT 10SM CLR 17/16 A3008 RMK AO2  T01700156,,,,,,60.06,,N,29.43,28.52,,Clear
KIGQ,08/12/2018 10:15 UTC,30.09,64.22,61.16,89.8,0.0,0.0,,,,,,1.0,,,,10.0,,KIGQ 121015Z AUTO 00000KT 10SM CLR 18/16 A3009 RMK AO2  T01790162,,,,,,61.14,,N,29.44,28.45,,Clear
KIGQ,08/12/2018 10:35 UTC,30.09,64.76,61.16,88.13,0.0,0.0,,,,,,1.0,,,,10.0,,KIGQ 121035Z AUTO 00000KT 10SM CLR 18/16 A3009 RMK AO2  T01820162,,,,,,61.14,,N,29.44,28.45,,Clear
KIGQ,08/12/2018 10:55 UTC,30.09,62.96,60.08,90.33,0.0,0.0,,,,,,1.0,,,,10.0,,KIGQ 121055Z AUTO 00000KT 10SM CLR 17/16 A3009 RMK AO2  T01720156,,,,,,60.06,,N,29.44,28.53,,Clear
KIGQ,08/12/2018 11:15 UTC,30.1,62.06,59.36,90.87,0.0,0.0,,,,,,1.0,,,,10.0,,KIGQ 121115Z AUTO 00000KT 10SM CLR 17/15 A3010 RMK AO2  T01670152,,,,,,59.34,,N,29.45,28.58,,Clear
KIGQ,08/12/2018 11:35 UTC,30.1,62.24,60.08,92.64,0.0,0.0,,,,,,1.0,,,,10.0,,KIGQ 121135Z AUTO 00000KT 10SM CLR 17/16 A3010 RMK AO2  T01680156,,,,,,60.06,,N,29.45,28.54,,Clear
KIGQ,08/12/2018 11:55 UTC,30.11,64.4,61.7,90.96,0.0,0.0,,,,,,1.0,,,,10.0,,KIGQ 121155Z AUTO 00000KT 10SM CLR 18/17 A3011 RMK AO2 T01800165  10196 20164,67.28,61.52,,,,61.68,,N,29.46,28.44,,Clear
KIGQ,08/12/2018 12:15 UTC,30.11,66.56,63.5,89.9,0.0,0.0,,,,,,1.0,,,,10.0,,KIGQ 121215Z AUTO 00000KT 10SM CLR 19/18 A3011 RMK AO2  T01920175,,,,,,63.48,,N,29.46,28.31,,Clear
KIGQ,08/12/2018 12:35 UTC,30.12,69.44,64.58,84.57,0.0,0.0,,,,,,1.0,,,,10.0,,KIGQ 121235Z AUTO 00000KT 10SM CLR 21/18 A3012 RMK AO2  T02080181,,,,,,64.56,,N,29.47,28.22,,Clear
KIGQ,08/12/2018 12:55 UTC,30.12,73.04,65.12,76.28,0.0,0.0,,,,,,1.0,,,,10.0,,KIGQ 121255Z AUTO 00000KT 10SM CLR 23/18 A3012 RMK AO2  T02280184,,,,,,65.1,,N,29.47,28.14,,Clear
KIGQ,08/12/2018 13:15 UTC,30.13,74.66,65.84,74.08,0.0,0.0,,,,,,1.0,,,,10.0,,KIGQ 121315Z AUTO 00000KT 10SM CLR 24/19 A3013 RMK AO2  T02370188,,,,,,65.83,,N,29.47,28.07,,Clear
KIGQ,08/12/2018 13:35 UTC,30.13,76.28,66.2,71.08,3.44,360.0,,,,,,1.0,,,,10.0,,KIGQ 121335Z AUTO 36003KT 10SM CLR 25/19 A3013 RMK AO2  T02460190,,,,,,66.19,,N,29.47,28.03,,Clear
KIGQ,08/12/2018 13:55 UTC,30.14,77.9,66.92,69.07,3.44,360.0,,,,,,1.0,,,,10.0,,KIGQ 121355Z AUTO 36003KT 10SM CLR 26/19 A3014 RMK AO2  T02550194,,,,,,66.92,,N,29.48,27.97,,Clear
KIGQ,08/12/2018 14:15 UTC,30.14,78.98,67.46,67.92,6.91,360.0,,,,,,1.0,,,,10.0,,KIGQ 121415Z AUTO 36006KT 10SM CLR 26/20 A3014 RMK AO2  T02610197,,,,,,67.47,,N,29.48,27.92,,Clear
KIGQ,08/12/2018 14:35 UTC,30.14,79.34,68.0,68.38,6.91,20.0,,,,,,1.0,,,,10.0,,KIGQ 121435Z AUTO 02006KT 10SM CLR 26/20 A3014 RMK AO2  T02630200,,,,,,68.01,,NNE,29.48,27.87,,Clear
KIGQ,08/12/2018 14:55 UTC,30.14,79.88,67.64,66.36,5.75,70.0,,,,,,242.0,,,,10.0,,KIGQ 121455Z AUTO 07005KT 10SM SCT024 27/20 A3014 RMK AO2  T02660198,,,,,,67.65,,ENE,29.48,27.89,,Partly Cloudy
KIGQ,08/12/2018 15:15 UTC,30.15,80.24,66.02,62.01,4.61,340.0,,,,,,1.0,,,,10.0,,KIGQ 121515Z AUTO 34004KT 10SM CLR 27/19 A3015 RMK AO2  T02680189,,,,,,66.03,,NNW,29.49,28.01,82.34,Clear
KIGQ,08/12/2018 15:35 UTC,30.15,80.78,65.3,59.43,6.91,10.0,,,,,,1.0,,,,10.0,,KIGQ 121535Z AUTO 01006KT 10SM CLR 27/19 A3015 RMK AO2  T02710185,,,,,,65.32,,N,29.49,28.05,82.7,Clear
KIGQ,08/12/2018 15:55 UTC,30.15,81.86,63.68,54.23,6.91,360.0,,,,,,1.0,,,,10.0,,KIGQ 121555Z AUTO 36006KT 10SM CLR 28/18 A3015 RMK AO2  T02770176,,,,,,63.71,,N,29.49,28.15,83.26,Clear
KIGQ,08/12/2018 16:15 UTC,30.15,82.4,62.78,51.64,6.91,10.0,,,,,,1.0,,,,10.0,,KIGQ 121615Z AUTO 01006KT 10SM CLR 28/17 A3015 RMK AO2  T02800171,,,,,,62.82,,N,29.49,28.2,83.48,Clear
KIGQ,08/12/2018 16:35 UTC,30.15,83.12,63.86,52.4,5.75,40.0,,,,,,1.0,,,,10.0,,KIGQ 121635Z AUTO 04005KT 10SM CLR 28/18 A3015 RMK AO2  T02840177,,,,,,63.9,,NE,29.49,28.12,84.49,Clear
KIGQ,08/12/2018 16:55 UTC,30.14,84.2,60.8,45.44,5.75,30.0,,,,,,1.0,,,,10.0,,KIGQ 121655Z AUTO 03005KT 10SM CLR 29/16 A3014 RMK AO2  T02900160,,,,,,60.86,,NNE,29.48,28.29,84.45,Clear
KIGQ,08/12/2018 17:15 UTC,30.14,84.2,59.72,43.73,10.36,40.0,,,,,,1.0,,,,10.0,,KIGQ 121715Z AUTO 04009KT 10SM CLR 29/15 A3014 RMK AO2  T02900154,,,,,,59.78,,NE,29.48,28.36,84.13,Clear
KIGQ,08/12/2018 17:35 UTC,30.14,84.56,59.18,42.41,8.05,50.0,,,,,,1.0,,,,10.0,,KIGQ 121735Z AUTO 05007KT 10SM CLR 29/15 A3014 RMK AO2  T02920151,,,,,,59.25,,NE,29.48,28.39,84.29,Clear
KIGQ,08/12/2018 17:55 UTC,30.13,84.74,61.7,46.11,9.22,40.0,,,,,,1.0,,,,10.0,,KIGQ 121755Z AUTO 04008KT 010V070 10SM CLR 29/17 A3013 RMK AO2  T02930165 10295 20180,85.1,64.4,,,,61.77,,NE,29.47,28.22,85.23,Clear
KIGQ,08/12/2018 18:15 UTC,30.14,83.3,60.62,46.48,12.66,60.0,,,,,,1.0,,,,,,KIGQ 121815Z AUTO 06011KT CLR 29/16 A3014 RMK AO2 T02850159,,,,,,60.67,,ENE,29.48,28.31,83.62,Clear
KIGQ,08/12/2018 18:35 UTC,30.13,83.84,57.74,41.22,10.36,60.0,,,,,,1.0,,,,10.0,,KIGQ 121835Z AUTO 06009KT 10SM CLR 29/14 A3013 RMK AO2  T02880143,,,,,,57.81,,ENE,29.47,28.46,83.32,Clear
KIGQ,08/12/2018 18:55 UTC,30.13,84.02,58.64,42.32,10.36,50.0,,,,,,1.0,,,,10.0,,KIGQ 121855Z AUTO 05009KT 10SM CLR 29/15 A3013 RMK AO2  T02890148,,,,,,58.7,,NE,29.47,28.41,83.69,Clear
KIGQ,08/12/2018 19:15 UTC,30.13,83.84,60.44,45.39,10.36,60.0,16.11,,,,,1.0,,,,10.0,,KIGQ 121915Z AUTO 06009G14KT 10SM CLR 29/16 A3013 RMK AO2  T02880158,,,,,,60.5,,ENE,29.47,28.31,84.03,Clear
KIGQ,08/12/2018 19:35 UTC,30.12,84.02,59.0,42.87,9.22,80.0,,,,,,1.0,,,,10.0,,KIGQ 121935Z AUTO 08008KT 10SM CLR 29/15 A3012 RMK AO2  T02890150,,,,,,59.06,,E,29.47,28.39,83.78,Clear
KIGQ,08/12/2018 19:55 UTC,30.12,84.38,58.1,41.04,10.36,50.0,,,,,,1.0,,,,10.0,,KIGQ 121955Z AUTO 05009KT 10SM CLR 29/15 A3012 RMK AO2  T02910145,,,,,,58.17,,NE,29.47,28.44,83.85,Clear
KIGQ,08/12/2018 20:15 UTC,30.11,84.38,59.54,43.2,6.91,20.0,,,,,,1.0,,,,10.0,,KIGQ 122015Z AUTO 02006KT 10SM CLR 29/15 A3011 RMK AO2  T02910153,,,,,,59.61,,NNE,29.46,28.35,84.23,Clear
KIGQ,08/12/2018 20:35 UTC,30.11,84.2,55.94,38.18,6.91,40.0,,,,,,1.0,,,,10.0,,KIGQ 122035Z AUTO 04006KT 10SM CLR 29/13 A3011 RMK AO2  T02900133,,,,,,56.01,,NE,29.46,28.54,83.21,Clear
KIGQ,08/12/2018 20:55 UTC,30.1,84.56,57.02,39.25,8.05,10.0,,,,,,1.0,,,,10.0,,KIGQ 122055Z AUTO 01007KT 10SM CLR 29/14 A3010 RMK AO2  T02920139,,,,,,57.1,,N,29.45,28.47,83.74,Clear
KIGQ,08/12/2018 21:15 UTC,30.1,83.66,54.5,36.87,10.36,40.0,,,,,,1.0,,,,10.0,,KIGQ 122115Z AUTO 04009KT 10SM CLR 29/13 A3010 RMK AO2  T02870125,,,,,,54.57,,NE,29.45,28.61,82.52,Clear
KIGQ,08/12/2018 21:35 UTC,30.1,83.66,51.44,32.96,5.75,360.0,,,,,,1.0,,,,10.0,,KIGQ 122135Z AUTO 36005KT 10SM CLR 29/11 A3010 RMK AO2  T02870108,,,,,,51.52,,N,29.45,28.75,82.04,Clear
KIGQ,08/12/2018 21:55 UTC,30.09,83.3,52.88,35.16,8.05,50.0,,,,,,1.0,,,,10.0,,KIGQ 122155Z AUTO 05007KT 020V090 10SM CLR 29/12 A3009 RMK AO2  T02850116,,,,,,52.95,,NE,29.44,28.68,81.99,Clear
KIGQ,08/12/2018 22:15 UTC,30.09,82.58,57.38,42.37,3.44,50.0,,,,,,1.0,,,,10.0,,KIGQ 122215Z AUTO 05003KT 10SM CLR 28/14 A3009 RMK AO2  T02810141,,,,,,57.43,,NE,29.44,28.46,82.26,Clear
KIGQ,08/12/2018 22:35 UTC,30.09,82.4,55.22,39.42,4.61,10.0,,,,,,1.0,,,,10.0,,KIGQ 122235Z AUTO 01004KT 10SM CLR 28/13 A3009 RMK AO2  T02800129,,,,,,55.27,,N,29.44,28.57,81.73,Clear
KIGQ,08/12/2018 22:55 UTC,30.09,81.5,56.66,42.76,3.44,10.0,,,,,,1.0,,,,10.0,,KIGQ 122255Z AUTO 01003KT 10SM CLR 28/14 A3009 RMK AO2  T02750137,,,,,,56.7,,N,29.44,28.51,81.34,Clear
KIGQ,08/12/2018 23:15 UTC,30.08,80.78,57.56,45.21,5.75,350.0,,,,,,1.0,,,,10.0,,KIGQ 122315Z AUTO 35005KT 10SM CLR 27/14 A3008 RMK AO2  T02710142,,,,,,57.59,,N,29.43,28.46,81.0,Clear
KIGQ,08/12/2018 23:35 UTC,30.09,79.88,58.64,48.39,0.0,0.0,,,,,,1.0,,,,10.0,,KIGQ 122335Z AUTO 00000KT 10SM CLR 27/15 A3009 RMK AO2  T02660148,,,,,,58.66,,N,29.44,28.42,,Clear
KIGQ,08/12/2018 23:55 UTC,30.08,78.62,62.06,56.94,4.61,30.0,,,,,,1.0,,,,10.0,,KIGQ 122355Z AUTO 03004KT 10SM CLR 26/17 A3008 RMK AO2 T02590167  10295 20259,85.1,78.62,,,,62.06,,NNE,29.43,28.22,,Clear
KIGQ,08/13/2018 00:15 UTC,30.08,77.18,62.78,61.24,3.44,30.0,,,,,,1.0,,,,10.0,,KIGQ 130015Z AUTO 03003KT 10SM CLR 25/17 A3008 RMK AO2  T02510171,,,,,,62.78,,NNE,29.43,28.2,,Clear
KIGQ,08/13/2018 00:35 UTC,30.09,75.74,63.86,66.71,3.44,20.0,,,,,,1.0,,,,10.0,,KIGQ 130035Z AUTO 02003KT 10SM CLR 24/18 A3009 RMK AO2  T02430177,,,,,,63.85,,NNE,29.44,28.16,,Clear
KIGQ,08/13/2018 00:55 UTC,30.09,74.84,64.76,70.93,0.0,0.0,,,,,,1.0,,,,10.0,,KIGQ 130055Z AUTO 00000KT 10SM CLR 24/18 A3009 RMK AO2  T02380182,,,,,,64.75,,N,29.44,28.11,,Clear
KIGQ,08/13/2018 01:15 UTC,30.1,74.12,65.48,74.5,0.0,0.0,,,,,,1.0,,,,10.0,,KIGQ 130115Z AUTO 00000KT 10SM CLR 23/19 A3010 RMK AO2  T02340186,,,,,,65.47,,N,29.45,28.08,,Clear
KIGQ,08/13/2018 01:35 UTC,30.1,72.5,65.3,78.17,0.0,0.0,,,,,,1.0,,,,10.0,,KIGQ 130135Z AUTO 00000KT 10SM CLR 23/19 A3010 RMK AO2  T02250185,,,,,,65.28,,N,29.45,28.11,,Clear
KIGQ,08/13/2018 01:55 UTC,30.11,72.68,66.38,80.66,0.0,0.0,,,,,,1.0,,,,10.0,,KIGQ 130155Z AUTO 00000KT 10SM CLR 23/19 A3011 RMK AO2  T02260191,,,,,,66.37,,N,29.46,28.05,,Clear
KIGQ,08/13/2018 02:15 UTC,30.11,72.32,66.92,83.18,3.44,50.0,,,,,,1.0,,,,10.0,,KIGQ 130215Z AUTO 05003KT 10SM CLR 22/19 A3011 RMK AO2  T02240194,,,,,,66.91,,NE,29.46,28.02,,Clear
KIGQ,08/13/2018 02:35 UTC,30.12,71.78,67.46,86.3,0.0,0.0,,,,,,1.0,,,,10.0,,KIGQ 130235Z AUTO 00000KT 10SM CLR 22/20 A3012 RMK AO2  T02210197,,,,,,67.45,,N,29.47,28.0,,Clear
KIGQ,08/13/2018 02:55 UTC,30.12,71.6,66.74,84.7,0.0,0.0,,,,,,1.0,,,,10.0,,KIGQ 130255Z AUTO 00000KT 10SM CLR 22/19 A3012 RMK AO2  T02200193,,,,,,66.73,,N,29.47,28.05,,Clear
KIGQ,08/13/2018 03:15 UTC,30.12,70.34,65.66,85.15,0.0,0.0,,,,,,1.0,,,,10.0,,KIGQ 130315Z AUTO 00000KT 10SM CLR 21/19 A3012 RMK AO2  T02130187,,,,,,65.64,,N,29.47,28.14,,Clear
KIGQ,08/13/2018 03:35 UTC,30.13,66.2,63.68,91.6,0.0,0.0,,,,,,1.0,,,,10.0,,KIGQ 130335Z AUTO 00000KT 10SM CLR 19/18 A3013 RMK AO2  T01900176,,,,,,63.67,,N,29.47,28.32,,Clear
KIGQ,08/13/2018 03:55 UTC,30.13,66.2,63.68,91.6,0.0,0.0,,,,,,1.0,,,,10.0,,KIGQ 130355Z AUTO 00000KT 10SM CLR 19/18 A3013 RMK AO2  T01900176,,,,,,63.67,,N,29.47,28.32,,Clear
KIGQ,08/13/2018 04:15 UTC,30.13,65.84,63.32,91.59,0.0,0.0,,,,,,1.0,,,,10.0,,KIGQ 130415Z AUTO 00000KT 10SM CLR 19/17 A3013 RMK AO2  T01880174,,,,,,63.31,,N,29.47,28.34,,Clear
KIGQ,08/13/2018 04:35 UTC,30.13,64.58,62.96,94.49,0.0,0.0,,31.0,,,,1.0,,,,5.0,,KIGQ 130435Z AUTO 00000KT 5SM BR CLR 18/17 A3013 RMK AO2  T01810172,,,,,,62.95,,N,29.47,28.38,,Mist
KIGQ,08/13/2018 04:55 UTC,30.13,65.3,64.4,96.92,0.0,0.0,,,,,,1.0,,,,10.0,,KIGQ 130455Z AUTO 00000KT 10SM CLR 19/18 A3013 RMK AO2  T01850180,,,,,,64.4,,N,29.47,28.28,,Clear
KIGQ,08/13/2018 05:15 UTC,30.14,65.66,63.86,93.92,0.0,0.0,,,,,,1.0,,,,10.0,,KIGQ 130515Z AUTO 00000KT 10SM CLR 19/18 A3014 RMK AO2  T01870177,,,,,,63.85,,N,29.48,28.32,,Clear
KIGQ,08/13/2018 05:35 UTC,30.14,65.66,63.5,92.75,0.0,0.0,,,,,,1.0,,,,10.0,,KIGQ 130535Z AUTO 00000KT 10SM CLR 19/18 A3014 RMK AO2  T01870175,,,,,,63.49,,N,29.48,28.34,,Clear
KIGQ,08/13/2018 05:55 UTC,30.13,63.86,62.24,94.47,0.0,0.0,,,,,,1.0,,,,7.0,,KIGQ 130555Z AUTO 00000KT 7SM CLR 18/17 A3013 RMK AO2 T01770168  10258 20177 402950164,78.44,63.86,,85.1,61.52,62.23,,N,29.47,28.43,,Clear
KIGQ,08/13/2018 06:15 UTC,30.13,65.12,64.4,97.52,0.0,0.0,,,,,,1.0,,,,10.0,,KIGQ 130615Z AUTO 00000KT 10SM CLR 18/18 A3013 RMK AO2  T01840180,,,,,,64.39,,N,29.47,28.29,,Clear
KIGQ,08/13/2018 06:35 UTC,30.13,64.76,63.32,95.09,0.0,0.0,,,,,,1.0,,,,7.0,,KIGQ 130635Z AUTO 00000KT 7SM CLR 18/17 A3013 RMK AO2  T01820174,,,,,,63.31,,N,29.47,28.36,,Clear
KIGQ,08/13/2018 06:55 UTC,30.13,64.76,64.04,97.52,0.0,0.0,,,,,,1.0,,,,10.0,,KIGQ 130655Z AUTO 00000KT 10SM CLR 18/18 A3013 RMK AO2  T01820178,,,,,,64.04,,N,29.47,28.31,,Clear
KIGQ,08/13/2018 07:15 UTC,30.12,64.4,63.14,95.69,0.0,0.0,,,,,,1.0,,,,10.0,,KIGQ 130715Z AUTO 00000KT 10SM CLR 18/17 A3012 RMK AO2  T01800173,,,,,,63.13,,N,29.47,28.37,,Clear
KIGQ,08/13/2018 07:35 UTC,30.12,64.76,63.68,96.3,0.0,0.0,,,,,,1.0,,,,10.0,,KIGQ 130735Z AUTO 00000KT 10SM CLR 18/18 A3012 RMK AO2  T01820176,,,,,,63.67,,N,29.47,28.33,,Clear
KIGQ,08/13/2018 07:55 UTC,30.11,62.96,62.06,96.88,0.0,0.0,,,,,,1.0,,,,7.0,,KIGQ 130755Z AUTO 00000KT 7SM CLR 17/17 A3011 RMK AO2  T01720167,,,,,,62.05,,N,29.46,28.44,,Clear
KIGQ,08/13/2018 08:15 UTC,30.11,62.42,61.7,97.49,0.0,0.0,,31.0,,,,1.0,,,,5.0,,KIGQ 130815Z AUTO 00000KT 5SM BR CLR 17/17 A3011 RMK AO2  T01690165,,,,,,61.69,,N,29.46,28.47,,Mist
KIGQ,08/13/2018 08:35 UTC,30.11,63.32,63.14,99.37,0.0,0.0,,31.0,,,,1.0,,,,5.0,,KIGQ 130835Z AUTO 00000KT 5SM BR CLR 17/17 A3011 RMK AO2  T01740173,,,,,,63.14,,N,29.46,28.38,,Mist
KIGQ,08/13/2018 08:55 UTC,30.11,64.4,63.86,98.13,0.0,0.0,,,,,,1.0,,,,10.0,,KIGQ 130855Z AUTO 00000KT 10SM CLR 18/18 A3011 RMK AO2  T01800177,,,,,,63.86,,N,29.46,28.32,,Clear
KIGQ,08/13/2018 09:15 UTC,30.11,63.68,63.14,98.13,0.0,0.0,,,,,,1.0,,,,10.0,,KIGQ 130915Z AUTO 00000KT 10SM CLR 18/17 A3011 RMK AO2  T01760173,,,,,,63.14,,N,29.46,28.37,,Clear
KIGQ,08/13/2018 09:35 UTC,30.11,62.6,62.42,99.37,0.0,0.0,,31.0,,,,1.0,,,,5.0,,KIGQ 130935Z AUTO 00000KT 5SM BR CLR 17/17 A3011 RMK AO2  T01700169,,,,,,62.42,,N,29.46,28.43,,Mist
KIGQ,08/13/2018 09:55 UTC,30.11,62.96,62.78,99.37,0.0,0.0,,,,,,52.0,,,,7.0,,KIGQ 130955Z AUTO 00000KT 7SM SCT005 17/17 A3011 RMK AO2  T01720171,,,,,,62.78,,N,29.46,28.4,,Partly Cloudy
KIGQ,08/13/2018 10:15 UTC,30.11,62.78,62.6,99.37,0.0,0.0,,31.0,,,,13.0,54.0,,,5.0,,KIGQ 131015Z AUTO 00000KT 5SM BR BKN001 OVC005 17/17 A3011 RMK AO2  T01710170,,,100.0,,,62.6,,N,29.46,28.41,,Mist
KIGQ,08/13/2018 10:35 UTC,30.11,62.6,62.24,98.74,0.0,0.0,,9.0,,,,14.0,,,,0.25,,KIGQ 131035Z AUTO 00000KT 1/4SM FG OVC001 17/17 A3011 RMK AO2 VIS  M1/4V3 T01700168,,,100.0,,,62.24,,N,29.46,28.43,,Fog
KIGQ,08/13/2018 10:55 UTC,30.11,62.78,62.78,100.0,0.0,0.0,,9.0,,,,14.0,,,,-0.25,,KIGQ 131055Z AUTO 00000KT M1/4SM FG OVC001 17/17 A3011 RMK AO2  T01710171,,,100.0,,,62.78,,N,29.46,28.4,,Fog
KIGQ,08/13/2018 11:15 UTC,30.11,63.5,63.5,100.0,0.0,0.0,,9.0,,,,14.0,,,,-0.25,,KIGQ 131115Z AUTO 00000KT M1/4SM FG OVC001 18/18 A3011 RMK AO2  T01750175,,,100.0,,,63.5,,N,29.46,28.35,,Fog
KIGQ,08/13/2018 11:35 UTC,30.11,62.96,62.96,100.0,0.0,0.0,,9.0,,,,14.0,,,,-0.25,,KIGQ 131135Z AUTO 00000KT M1/4SM FG OVC001 17/17 A3011 RMK AO2  T01720172,,,100.0,,,62.96,,N,29.46,28.39,,Fog
KIGQ,08/13/2018 11:55 UTC,30.12,64.04,64.04,100.0,0.0,0.0,,9.0,,,,13.0,74.0,,,0.5,,KIGQ 131155Z AUTO 00000KT 1/2SM FG BKN001 OVC007 18/18 A3012 RMK AO2 T01780178 10188 20166,65.84,61.88,100.0,,,64.04,,N,29.47,28.32,,Fog
KIGQ,08/13/2018 12:15 UTC,30.12,66.38,66.38,100.0,0.0,0.0,,31.0,,,,72.0,,,,3.0,,KIGQ 131215Z AUTO 00000KT 3SM BR SCT007 19/19 A3012 RMK AO2  T01910191,,,,,,66.38,,N,29.47,28.15,,Mist
KIGQ,08/13/2018 12:35 UTC,30.13,67.46,67.46,100.0,3.44,290.0,,31.0,,,,52.0,,,,4.0,,KIGQ 131235Z AUTO 29003KT 4SM BR SCT005 20/20 A3013 RMK AO2  T01970197,,,,,,67.46,,WNW,29.47,28.06,,Mist
KIGQ,08/13/2018 12:55 UTC,30.13,68.36,68.18,99.38,0.0,0.0,,9.0,,,,34.0,,,,0.5,,KIGQ 131255Z AUTO 00000KT 1/2SM FG OVC003 20/20 A3013 RMK AO2  T02020201,,,300.0,,,68.18,,N,29.47,28.0,,Fog
KIGQ,08/13/2018 13:15 UTC,30.13,68.72,68.54,99.39,0.0,0.0,,9.0,,,,34.0,,,,-0.25,,KIGQ 131315Z AUTO 00000KT M1/4SM FG OVC003 20/20 A3013 RMK AO2  T02040203,,,300.0,,,68.54,,N,29.47,27.97,,Fog
KIGQ,08/13/2018 13:35 UTC,30.13,69.62,69.62,100.0,0.0,0.0,,9.0,,,,34.0,,,,-0.25,,KIGQ 131335Z AUTO 00000KT M1/4SM FG OVC003 21/21 A3013 RMK AO2  T02090209,,,300.0,,,69.62,,N,29.47,27.88,,Fog
KIGQ,08/13/2018 13:55 UTC,30.14,70.16,70.16,100.0,0.0,0.0,,9.0,,,,34.0,,,,0.5,,KIGQ 131355Z AUTO 00000KT 1/2SM FG OVC003 21/21 A3014 RMK AO2  T02120212,,,300.0,,,70.16,,N,29.48,27.84,,Fog
KIGQ,08/13/2018 14:15 UTC,30.13,71.06,71.06,100.0,0.0,0.0,,31.0,,,,34.0,,,,1.25,,KIGQ 131415Z AUTO 00000KT 1 1/4SM BR OVC003 22/22 A3013 RMK AO2  T02170217,,,300.0,,,71.06,,N,29.47,27.75,,Mist
KIGQ,08/13/2018 14:35 UTC,30.13,72.68,71.24,95.25,0.0,0.0,,31.0,,,,32.0,,,,3.0,,KIGQ 131435Z AUTO 00000KT 3SM BR SCT003 23/22 A3013 RMK AO2  T02260218,,,,,,71.24,,N,29.47,27.72,,Mist
KIGQ,08/13/2018 14:55 UTC,30.14,74.48,70.7,88.05,0.0,0.0,,31.0,,,,1.0,,,,4.0,,KIGQ 131455Z AUTO 00000KT 4SM BR CLR 24/22 A3014 RMK AO2  T02360215,,,,,,70.69,,N,29.48,27.74,,Mist
KIGQ,08/13/2018 15:15 UTC,30.14,76.1,70.34,82.41,0.0,0.0,,6.0,,,,1.0,,,,5.0,,KIGQ 131515Z AUTO 00000KT 5SM HZ CLR 25/21 A3014 RMK AO2  T02450213,,,,,,70.33,,N,29.48,27.74,,Haze
KIGQ,08/13/2018 15:35 UTC,30.14,78.8,68.72,71.34,3.44,10.0,,,,,,1.0,,,,7.0,,KIGQ 131535Z AUTO 01003KT 7SM CLR 26/20 A3014 RMK AO2  T02600204,,,,,,68.73,,N,29.48,27.83,,Clear
KIGQ,08/13/2018 15:55 UTC,30.13,79.7,66.74,64.71,0.0,0.0,,,,,,1.0,,,,10.0,,KIGQ 131555Z AUTO 00000KT 10SM CLR 27/19 A3013 RMK AO2  T02650193,,,,,,66.75,,N,29.47,27.95,,Clear
KIGQ,08/13/2018 16:15 UTC,30.12,81.86,65.3,57.38,0.0,0.0,,,,,,1.0,,,,10.0,,KIGQ 131615Z AUTO 00000KT 10SM CLR 28/19 A3012 RMK AO2  T02770185,,,,,,65.33,,N,29.47,28.02,83.78,Clear
KIGQ,08/13/2018 16:35 UTC,30.12,81.86,64.4,55.61,4.61,110.0,,,,,,1.0,,,,10.0,,KIGQ 131635Z AUTO 11004KT 10SM CLR 28/18 A3012 RMK AO2  T02770180,,,,,,64.43,,ESE,29.47,28.08,83.48,Clear
KIGQ,08/13/2018 16:55 UTC,30.11,81.14,64.58,57.29,0.0,0.0,,,753.0,,,392.0,492.0,,,10.0,,KIGQ 131655Z AUTO 00000KT 10SM SCT039 SCT049 BKN075 27/18 A3011 RMK AO2 T02730181,,,7500.0,,,64.61,,N,29.46,28.07,82.85,Mostly Cloudy
KIGQ,08/13/2018 17:15 UTC,30.1,82.94,62.96,51.07,3.44,320.0,,,654.0,,,393.0,503.0,,,10.0,,KIGQ 131715Z AUTO 32003KT 10SM BKN039 BKN050 OVC065 28/17 A3010 RMK AO2 T02830172,,,3900.0,,,63.0,,NW,29.45,28.14,84.02,Overcast
KIGQ,08/13/2018 17:35 UTC,30.1,82.04,60.44,48.1,0.0,0.0,,,,,,402.0,474.0,,,10.0,,KIGQ 131735Z AUTO 00000KT 10SM SCT040 OVC047 28/16 A3010 RMK AO2  T02780158,,,4700.0,,,60.48,,N,29.45,28.31,82.53,Overcast
KIGQ,08/13/2018 17:55 UTC,30.09,81.86,60.98,49.32,0.0,0.0,,,,,,493.0,704.0,,,10.0,,KIGQ 131755Z AUTO 00000KT 10SM BKN049 OVC070 28/16 A3009 RMK AO2  T02770161 10286 20178,83.48,64.04,4900.0,,,61.02,,N,29.44,28.26,82.52,Overcast
KIGQ,08/13/2018 18:15 UTC,30.09,82.76,61.52,48.83,0.0,0.0,,,,,,603.0,654.0,,,10.0,,KIGQ 131815Z AUTO 00000KT 10SM BKN060 OVC065 28/16 A3009 RMK AO2  T02820164,,,6000.0,,,61.57,,N,29.44,28.22,83.42,Overcast
KIGQ,08/13/2018 18:35 UTC,30.08,84.38,61.88,46.94,0.0,0.0,,,,,,503.0,,,,10.0,,KIGQ 131835Z AUTO 00000KT 10SM BKN050 29/17 A3008 RMK AO2  T02910166,,,5000.0,,,61.94,,N,29.43,28.18,84.96,Mostly Cloudy
KIGQ,08/13/2018 18:55 UTC,30.08,84.92,60.44,43.85,0.0,0.0,,,,,,502.0,,,,10.0,,KIGQ 131855Z AUTO 00000KT 10SM SCT050 29/16 A3008 RMK AO2  T02940158,,,,,,60.52,,N,29.43,28.26,84.98,Partly Cloudy
KIGQ,08/13/2018 19:15 UTC,30.07,83.66,57.02,40.4,3.44,50.0,,,,,,1.0,,,,10.0,,KIGQ 131915Z AUTO 05003KT 10SM CLR 29/14 A3007 RMK AO2  T02870139,,,,,,57.09,,NE,29.42,28.45,83.02,Clear
KIGQ,08/13/2018 19:35 UTC,30.06,85.46,57.92,39.39,4.61,20.0,,,,,,1.0,,,,10.0,,KIGQ 131935Z AUTO 02004KT 10SM CLR 30/14 A3006 RMK AO2  T02970144,,,,,,58.01,,NNE,29.41,28.38,84.71,Clear
KIGQ,08/13/2018 19:55 UTC,30.05,85.28,58.1,39.87,0.0,0.0,,,,,,1.0,,,,10.0,,KIGQ 131955Z AUTO 00000KT 10SM CLR 30/15 A3005 RMK AO2  T02960145,,,,,,58.18,,N,29.4,28.36,84.61,Clear
KIGQ,08/13/2018 20:15 UTC,30.05,85.82,58.28,39.45,4.61,80.0,,,,,,1.0,,,,10.0,,KIGQ 132015Z AUTO 08004KT 10SM CLR 30/15 A3005 RMK AO2  T02990146,,,,,,58.38,,E,29.4,28.34,85.12,Clear
KIGQ,08/13/2018 20:35 UTC,30.04,85.82,58.28,39.45,3.44,110.0,,,,,,1.0,,,,10.0,,KIGQ 132035Z AUTO 11003KT 10SM CLR 30/15 A3004 RMK AO2  T02990146,,,,,,58.38,,ESE,29.39,28.33,85.12,Clear
KIGQ,08/13/2018 20:55 UTC,30.04,85.28,57.56,39.11,3.44,350.0,,,,,,1.0,,,,10.0,,KIGQ 132055Z AUTO 35003KT 10SM CLR 30/14 A3004 RMK AO2  T02960142,,,,,,57.65,,N,29.39,28.38,84.47,Clear
KIGQ,08/13/2018 21:15 UTC,30.03,85.46,57.38,38.63,3.44,90.0,,,,,,1.0,,,,10.0,,KIGQ 132115Z AUTO 09003KT 10SM CLR 30/14 A3003 RMK AO2  T02970141,,,,,,57.47,,E,29.38,28.38,84.57,Clear
KIGQ,08/13/2018 21:35 UTC,30.03,85.28,57.2,38.6,0.0,0.0,,,,,,1.0,,,,10.0,,KIGQ 132135Z AUTO 00000KT 10SM CLR 30/14 A3003 RMK AO2  T02960140,,,,,,57.28,,N,29.38,28.39,84.37,Clear
KIGQ,08/13/2018 21:55 UTC,30.02,85.28,57.38,38.86,5.75,90.0,,,,,,1.0,,,,10.0,,KIGQ 132155Z AUTO 09005KT 10SM CLR 30/14 A3002 RMK AO2  T02960141,,,,,,57.47,,E,29.37,28.37,84.42,Clear
KIGQ,08/13/2018 22:15 UTC,30.02,84.74,57.02,39.02,5.75,40.0,,,,,,1.0,,,,10.0,,KIGQ 132215Z AUTO 04005KT 10SM CLR 29/14 A3002 RMK AO2  T02930139,,,,,,57.1,,NE,29.37,28.39,83.88,Clear
KIGQ,08/13/2018 22:35 UTC,30.02,83.66,56.48,39.62,5.75,40.0,,,,,,1.0,,,,10.0,,KIGQ 132235Z AUTO 04005KT 10SM CLR 29/14 A3002 RMK AO2  T02870136,,,,,,56.55,,NE,29.37,28.43,82.9,Clear
KIGQ,08/13/2018 22:55 UTC,30.02,83.3,55.94,39.3,6.91,50.0,,,,,,1.0,,,,10.0,,KIGQ 132255Z AUTO 05006KT 10SM CLR 29/13 A3002 RMK AO2  T02850133,,,,,,56.0,,NE,29.37,28.46,82.51,Clear
KIGQ,08/13/2018 23:15 UTC,30.01,82.58,55.76,39.97,6.91,50.0,,,,,,1.0,,,,10.0,,KIGQ 132315Z AUTO 05006KT 10SM CLR 28/13 A3001 RMK AO2  T02810132,,,,,,55.82,,NE,29.36,28.46,81.95,Clear
KIGQ,08/13/2018 23:35 UTC,30.01,81.5,56.3,42.2,5.75,50.0,,,,,,1.0,,,,10.0,,KIGQ 132335Z AUTO 05005KT 10SM CLR 28/14 A3001 RMK AO2  T02750135,,,,,,56.34,,NE,29.36,28.45,81.28,Clear
KIGQ,08/13/2018 23:55 UTC,30.01,80.78,55.94,42.64,5.75,80.0,,,,,,1.0,,,,10.0,,KIGQ 132355Z AUTO 08005KT 10SM CLR 27/13 A3001 RMK AO2 T02710133  10302 20271,86.36,80.78,,,,55.97,,E,29.36,28.47,80.74,Clear
KIGQ,08/14/2018 00:15 UTC,30.01,80.06,55.58,43.09,4.61,80.0,,,,,,1.0,,,,10.0,,KIGQ 140015Z AUTO 08004KT 10SM CLR 27/13 A3001 RMK AO2  T02670131,,,,,,55.6,,E,29.36,28.5,79.79,Clear
KIGQ,08/14/2018 00:35 UTC,30.01,78.26,58.28,50.38,4.61,90.0,,,,,,1.0,,,,10.0,,KIGQ 140035Z AUTO 09004KT 10SM CLR 26/15 A3001 RMK AO2  T02570146,,,,,,58.28,,E,29.36,28.37,,Clear
KIGQ,08/14/2018 00:55 UTC,30.02,77.54,57.2,49.62,3.44,110.0,,,,,,1.0,,,,10.0,,KIGQ 140055Z AUTO 11003KT 10SM CLR 25/14 A3002 RMK AO2  T02530140,,,,,,57.19,,ESE,29.37,28.45,,Clear
KIGQ,08/14/2018 01:15 UTC,30.02,76.82,57.74,51.81,3.44,110.0,,,,,,1.0,,,,10.0,,KIGQ 140115Z AUTO 11003KT 10SM CLR 25/14 A3002 RMK AO2  T02490143,,,,,,57.73,,ESE,29.37,28.42,,Clear
KIGQ,08/14/2018 01:35 UTC,30.03,75.02,57.92,55.36,0.0,0.0,,,,,,1.0,,,,10.0,,KIGQ 140135Z AUTO 00000KT 10SM CLR 24/14 A3003 RMK AO2  T02390144,,,,,,57.9,,N,29.38,28.44,,Clear
KIGQ,08/14/2018 01:55 UTC,30.03,71.42,59.72,66.62,0.0,0.0,,,,,,1.0,,,,10.0,,KIGQ 140155Z AUTO 00000KT 10SM CLR 22/15 A3003 RMK AO2  T02190154,,,,,,59.68,,N,29.38,28.38,,Clear
KIGQ,08/14/2018 02:15 UTC,30.04,72.32,59.54,64.22,0.0,0.0,,,,,,1.0,,,,10.0,,KIGQ 140215Z AUTO 00000KT 10SM CLR 22/15 A3004 RMK AO2  T02240153,,,,,,59.51,,N,29.39,28.39,,Clear
KIGQ,08/14/2018 02:35 UTC,30.04,69.8,60.8,73.15,0.0,0.0,,,,,,1.0,,,,10.0,,KIGQ 140235Z AUTO 00000KT 10SM CLR 21/16 A3004 RMK AO2  T02100160,,,,,,60.77,,N,29.39,28.35,,Clear
KIGQ,08/14/2018 02:55 UTC,30.04,68.36,60.08,74.9,0.0,0.0,,,,,,1.0,,,,10.0,,KIGQ 140255Z AUTO 00000KT 10SM CLR 20/16 A3004 RMK AO2  T02020156,,,,,,60.05,,N,29.39,28.41,,Clear
KIGQ,08/14/2018 03:15 UTC,30.04,67.64,60.8,78.76,0.0,0.0,,,,,,1.0,,,,10.0,,KIGQ 140315Z AUTO 00000KT 10SM CLR 20/16 A3004 RMK AO2  T01980160,,,,,,60.77,,N,29.39,28.38,,Clear
KIGQ,08/14/2018 03:35 UTC,30.04,67.64,61.52,80.79,0.0,0.0,,,,,,1.0,,,,10.0,,KIGQ 140335Z AUTO 00000KT 10SM CLR 20/16 A3004 RMK AO2  T01980164,,,,,,61.49,,N,29.39,28.34,,Clear
KIGQ,08/14/2018 03:55 UTC,30.04,69.8,61.52,75.03,0.0,0.0,,,,,,1.0,,,,10.0,,KIGQ 140355Z AUTO 00000KT 10SM CLR 21/16 A3004 RMK AO2  T02100164,,,,,,61.49,,N,29.39,28.31,,Clear
KIGQ,08/14/2018 04:15 UTC,30.03,69.44,60.8,74.05,0.0,0.0,,,,,,1.0,,,,10.0,,KIGQ 140415Z AUTO 00000KT 10SM CLR 21/16 A3003 RMK AO2  T02080160,,,,,,60.77,,N,29.38,28.35,,Clear
KIGQ,08/14/2018 04:35 UTC,30.03,67.1,60.8,80.24,0.0,0.0,,,,,,1.0,,,,10.0,,KIGQ 140435Z AUTO 00000KT 10SM CLR 20/16 A3003 RMK AO2  T01950160,,,,,,60.77,,N,29.38,28.38,,Clear
KIGQ,08/14/2018 04:55 UTC,30.03,68.0,60.8,77.79,0.0,0.0,,,,,,1.0,,,,10.0,,KIGQ 140455Z AUTO 00000KT 10SM CLR 20/16 A3003 RMK AO2  T02000160,,,,,,60.77,,N,29.38,28.36,,Clear
KIGQ,08/14/2018 05:15 UTC,30.03,69.62,62.24,77.44,0.0,0.0,,,,,,1.0,,,,10.0,,KIGQ 140515Z AUTO 00000KT 10SM CLR 21/17 A3003 RMK AO2  T02090168,,,,,,62.21,,N,29.38,28.26,,Clear
KIGQ,08/14/2018 05:35 UTC,30.03,67.46,61.34,80.78,0.0,0.0,,,,,,1.0,,,,10.0,,KIGQ 140535Z AUTO 00000KT 10SM CLR 20/16 A3003 RMK AO2  T01970163,,,,,,61.31,,N,29.38,28.34,,Clear
KIGQ,08/14/2018 05:55 UTC,30.02,67.82,61.16,79.28,0.0,0.0,,,,,,1.0,,,,10.0,,KIGQ 140555Z AUTO 00000KT 10SM CLR 20/16 A3002 RMK AO2 T01990162  10271 20195 403020166,80.78,67.1,,86.36,61.88,61.13,,N,29.37,28.34,,Clear
KIGQ,08/14/2018 06:15 UTC,30.02,66.02,61.52,85.44,0.0,0.0,,,,,,1.0,,,,10.0,,KIGQ 140615Z AUTO 00000KT 10SM CLR 19/16 A3002 RMK AO2  T01890164,,,,,,61.5,,N,29.37,28.34,,Clear
KIGQ,08/14/2018 06:35 UTC,30.01,64.76,61.16,88.13,0.0,0.0,,,,,,1.0,,,,10.0,,KIGQ 140635Z AUTO 00000KT 10SM CLR 18/16 A3001 RMK AO2  T01820162,,,,,,61.14,,N,29.36,28.36,,Clear
KIGQ,08/14/2018 06:55 UTC,30.01,65.66,62.24,88.73,0.0,0.0,,,,,,1.0,,,,10.0,,KIGQ 140655Z AUTO 00000KT 10SM CLR 19/17 A3001 RMK AO2  T01870168,,,,,,62.22,,N,29.36,28.29,,Clear
KIGQ,08/14/2018 07:15 UTC,30.01,64.4,60.8,88.11,0.0,0.0,,,,,,1.0,,,,10.0,,KIGQ 140715Z AUTO 00000KT 10SM CLR 18/16 A3001 RMK AO2  T01800160,,,,,,60.78,,N,29.36,28.39,,Clear
KIGQ,08/14/2018 07:35 UTC,30.0,65.84,61.52,85.97,0.0,0.0,,,,,,1.0,,,,10.0,,KIGQ 140735Z AUTO 00000KT 10SM CLR 19/16 A3000 RMK AO2  T01880164,,,,,,61.5,,N,29.35,28.32,,Clear
KIGQ,08/14/2018 07:55 UTC,30.0,64.94,61.88,89.84,0.0,0.0,,,,,,1.0,,,,10.0,,KIGQ 140755Z AUTO 00000KT 10SM CLR 18/17 A3000 RMK AO2  T01830166,,,,,,61.86,,N,29.35,28.31,,Clear
KIGQ,08/14/2018 08:15 UTC,30.0,63.68,60.62,89.78,0.0,0.0,,,,,,1.0,,,,10.0,,KIGQ 140815Z AUTO 00000KT 10SM CLR 18/16 A3000 RMK AO2  T01760159,,,,,,60.6,,N,29.35,28.4,,Clear
KIGQ,08/14/2018 08:35 UTC,30.0,64.4,61.7,90.96,0.0,0.0,,,,,,1.0,,,,10.0,,KIGQ 140835Z AUTO 00000KT 10SM CLR 18/17 A3000 RMK AO2  T01800165,,,,,,61.68,,N,29.35,28.33,,Clear
KIGQ,08/14/2018 08:55 UTC,30.0,62.96,60.62,92.08,0.0,0.0,,,,,,1.0,,,,10.0,,KIGQ 140855Z AUTO 00000KT 10SM CLR 17/16 A3000 RMK AO2  T01720159,,,,,,60.61,,N,29.35,28.41,,Clear
KIGQ,08/14/2018 09:15 UTC,30.0,63.5,61.16,92.09,0.0,0.0,,,,,,1.0,,,,10.0,,KIGQ 140915Z AUTO 00000KT 10SM CLR 18/16 A3000 RMK AO2  T01750162,,,,,,61.14,,N,29.35,28.37,,Clear
KIGQ,08/14/2018 09:35 UTC,30.0,63.32,61.34,93.27,0.0,0.0,,,,,,1.0,,,,10.0,,KIGQ 140935Z AUTO 00000KT 10SM CLR 17/16 A3000 RMK AO2  T01740163,,,,,,61.33,,N,29.35,28.36,,Clear
KIGQ,08/14/2018 09:55 UTC,30.0,61.52,59.72,93.82,0.0,0.0,,,,,,1.0,,,,10.0,,KIGQ 140955Z AUTO 00000KT 10SM CLR 16/15 A3000 RMK AO2  T01640154,,,,,,59.71,,N,29.35,28.47,,Clear
KIGQ,08/14/2018 10:15 UTC,30.0,61.34,60.26,96.25,0.0,0.0,,,,,,1.0,,,,7.0,,KIGQ 141015Z AUTO 00000KT 7SM CLR 16/16 A3000 RMK AO2  T01630157,,,,,,60.25,,N,29.35,28.44,,Clear
KIGQ,08/14/2018 10:35 UTC,30.01,60.98,60.08,96.86,0.0,0.0,,,,,,1.0,,,,10.0,,KIGQ 141035Z AUTO 00000KT 10SM CLR 16/16 A3001 RMK AO2  T01610156,,,,,,60.07,,N,29.36,28.47,,Clear
KIGQ,08/14/2018 10:55 UTC,30.01,62.42,60.8,94.44,0.0,0.0,,,,,,1.0,,,,10.0,,KIGQ 141055Z AUTO 00000KT 10SM CLR 17/16 A3001 RMK AO2  T01690160,,,,,,60.79,,N,29.36,28.41,,Clear
KIGQ,08/14/2018 11:15 UTC,30.01,60.62,59.0,94.4,0.0,0.0,,,,,,1.0,,,,7.0,,KIGQ 141115Z AUTO 00000KT 7SM CLR 16/15 A3001 RMK AO2  T01590150,,,,,,58.99,,N,29.36,28.53,,Clear
KIGQ,08/14/2018 11:35 UTC,30.01,61.34,59.72,94.42,3.44,190.0,,,,,,1.0,,,,7.0,,KIGQ 141135Z AUTO 19003KT 7SM CLR 16/15 A3001 RMK AO2  T01630154,,,,,,59.71,,S,29.36,28.48,,Clear
KIGQ,08/14/2018 11:55 UTC,30.01,62.6,60.62,93.25,3.44,190.0,,,,,,1.0,,,,10.0,,KIGQ 141155Z AUTO 19003KT 10SM CLR 17/16 A3001 RMK AO2 T01700159  10198 20158,67.64,60.44,,,,60.61,,S,29.36,28.42,,Clear
KIGQ,08/14/2018 12:15 UTC,30.01,64.58,62.06,91.55,0.0,0.0,,,,,,1.0,,,,10.0,,KIGQ 141215Z AUTO 00000KT 10SM CLR 18/17 A3001 RMK AO2  T01810167,,,,,,62.05,,N,29.36,28.32,,Clear
KIGQ,08/14/2018 12:35 UTC,30.02,66.2,62.96,89.32,0.0,0.0,,,,,,1.0,,,,7.0,,KIGQ 141235Z AUTO 00000KT 7SM CLR 19/17 A3002 RMK AO2  T01900172,,,,,,62.94,,N,29.37,28.26,,Clear
KIGQ,08/14/2018 12:55 UTC,30.02,68.0,63.14,84.48,0.0,0.0,,6.0,,,,1.0,,,,5.0,,KIGQ 141255Z AUTO 00000KT 5SM HZ CLR 20/17 A3002 RMK AO2  T02000173,,,,,,63.12,,N,29.37,28.22,,Haze
KIGQ,08/14/2018 13:15 UTC,30.02,69.98,64.04,81.48,0.0,0.0,,,,,,1.0,,,,7.0,,KIGQ 141315Z AUTO 00000KT 7SM CLR 21/18 A3002 RMK AO2  T02110178,,,,,,64.02,,N,29.37,28.14,,Clear
KIGQ,08/14/2018 13:35 UTC,30.02,71.78,64.58,78.11,0.0,0.0,,,,,,1.0,,,,10.0,,KIGQ 141335Z AUTO 00000KT 10SM CLR 22/18 A3002 RMK AO2  T02210181,,,,,,64.56,,N,29.37,28.09,,Clear
KIGQ,08/14/2018 13:55 UTC,30.02,73.76,65.12,74.46,0.0,0.0,,,,,,1.0,,,,10.0,,KIGQ 141355Z AUTO 00000KT 10SM CLR 23/18 A3002 RMK AO2  T02320184,,,,,,65.1,,N,29.37,28.03,,Clear
KIGQ,08/14/2018 14:15 UTC,30.02,76.46,65.12,68.06,0.0,0.0,,,,,,1.0,,,,10.0,,KIGQ 141415Z AUTO 00000KT 10SM CLR 25/18 A3002 RMK AO2  T02470184,,,,,,65.11,,N,29.37,27.99,,Clear
KIGQ,08/14/2018 14:35 UTC,30.02,79.16,65.3,62.66,0.0,0.0,,,,,,1.0,,,,10.0,,KIGQ 141435Z AUTO 00000KT 10SM CLR 26/19 A3002 RMK AO2  T02620185,,,,,,65.31,,N,29.37,27.95,,Clear
KIGQ,08/14/2018 14:55 UTC,30.01,80.96,64.22,56.9,0.0,0.0,,,,,,1.0,,,,10.0,,KIGQ 141455Z AUTO 00000KT 10SM CLR 27/18 A3001 RMK AO2  T02720179,,,,,,64.24,,N,29.36,27.99,82.58,Clear
KIGQ,08/14/2018 15:15 UTC,30.01,82.4,61.88,50.03,0.0,0.0,,,,,,1.0,,,,10.0,,KIGQ 141515Z AUTO 00000KT 10SM CLR 28/17 A3001 RMK AO2  T02800166,,,,,,61.92,,N,29.36,28.12,83.21,Clear
KIGQ,08/14/2018 15:35 UTC,30.01,83.12,62.24,49.5,3.44,240.0,,,,,,1.0,,,,10.0,,KIGQ 141535Z AUTO 24003KT 10SM CLR 28/17 A3001 RMK AO2  T02840168,,,,,,62.28,,WSW,29.36,28.09,83.95,Clear
KIGQ,08/14/2018 15:55 UTC,30.01,83.48,61.88,48.32,4.61,190.0,,,,,,1.0,,,,10.0,,KIGQ 141555Z AUTO 19004KT 10SM CLR 29/17 A3001 RMK AO2  T02860166,,,,,,61.93,,S,29.36,28.11,84.16,Clear
KIGQ,08/14/2018 16:15 UTC,30.01,84.38,60.08,44.04,3.44,200.0,,,,,,1.0,,,,10.0,,KIGQ 141615Z AUTO 20003KT 10SM CLR 29/16 A3001 RMK AO2  T02910156,,,,,,60.15,,SSW,29.36,28.21,84.39,Clear
KIGQ,08/14/2018 16:35 UTC,30.01,84.92,60.8,44.41,8.05,190.0,,,,,,552.0,,,,10.0,,KIGQ 141635Z AUTO 19007KT 10SM SCT055 29/16 A3001 RMK AO2  T02940160,,,,,,60.87,,S,29.36,28.17,85.09,Partly Cloudy
KIGQ,08/14/2018 16:55 UTC,30.01,85.28,59.9,42.52,4.61,220.0,,,,,,1.0,,,,10.0,,KIGQ 141655Z AUTO 22004KT 10SM CLR 30/16 A3001 RMK AO2  T02960155,,,,,,59.98,,SW,29.36,28.22,85.12,Clear
KIGQ,08/14/2018 17:15 UTC,30.01,86.0,60.08,41.82,8.05,230.0,,,,,,552.0,,,,10.0,,KIGQ 141715Z AUTO 23007KT 190V250 10SM SCT055 30/16 A3001 RMK AO2  T03000156,,,,,,60.17,,SW,29.36,28.2,85.83,Partly Cloudy
KIGQ,08/14/2018 17:35 UTC,30.0,86.18,59.54,40.79,10.36,240.0,,,,,,1.0,,,,10.0,,KIGQ 141735Z AUTO 24009KT 10SM CLR 30/15 A3000 RMK AO2  T03010153,,,,,,59.63,,WSW,29.35,28.22,85.82,Clear
KIGQ,08/14/2018 17:55 UTC,30.0,86.72,59.9,40.62,9.22,200.0,16.11,,,,,602.0,,,,10.0,,KIGQ 141755Z AUTO 20008G14KT 10SM SCT060 30/16 A3000 RMK AO2  T03040155 10306 20171,87.08,62.78,,,,60.0,,SSW,29.35,28.19,86.43,Partly Cloudy
KIGQ,08/14/2018 18:15 UTC,30.0,86.36,60.98,42.69,9.22,210.0,,,,,,602.0,,,,10.0,,KIGQ 141815Z AUTO 21008KT 10SM SCT060 30/16 A3000 RMK AO2  T03020161,,,,,,61.07,,SSW,29.35,28.13,86.47,Partly Cloudy
KIGQ,08/14/2018 18:35 UTC,30.0,86.0,60.08,41.82,5.75,240.0,,,,,,602.0,,,,10.0,,KIGQ 141835Z AUTO 24005KT 10SM SCT060 30/16 A3000 RMK AO2  T03000156,,,,,,60.17,,WSW,29.35,28.19,85.83,Partly Cloudy
KIGQ,08/14/2018 18:55 UTC,30.0,87.08,61.34,42.26,9.22,210.0,,,,,,602.0,,,,10.0,,KIGQ 141855Z AUTO 21008KT 10SM SCT060 31/16 A3000 RMK AO2  T03060163,,,,,,61.44,,SSW,29.35,28.1,87.29,Partly Cloudy
KIGQ,08/14/2018 19:15 UTC,29.99,86.18,61.34,43.48,6.91,220.0,,,,,,1.0,,,,10.0,,KIGQ 141915Z AUTO 22006KT 10SM CLR 30/16 A2999 RMK AO2  T03010163,,,,,,61.43,,SW,29.34,28.1,86.43,Clear
KIGQ,08/14/2018 19:35 UTC,29.99,86.9,62.06,43.59,8.05,220.0,,,,,,1.0,,,,10.0,,KIGQ 141935Z AUTO 22007KT 10SM CLR 31/17 A2999 RMK AO2  T03050167,,,,,,62.15,,SW,29.34,28.05,87.4,Clear
KIGQ,08/14/2018 19:55 UTC,29.98,85.28,61.7,45.32,6.91,210.0,,,,,,1.0,,,,10.0,,KIGQ 141955Z AUTO 21006KT 10SM CLR 30/17 A2998 RMK AO2  T02960165,,,,,,61.77,,SSW,29.33,28.08,85.73,Clear
KIGQ,08/14/2018 20:15 UTC,29.98,85.28,62.42,46.48,8.05,190.0,,,,,,602.0,,,,10.0,,KIGQ 142015Z AUTO 19007KT 10SM SCT060 30/17 A2998 RMK AO2  T02960169,,,,,,62.49,,S,29.33,28.03,85.99,Partly Cloudy
KIGQ,08/14/2018 20:35 UTC,29.97,86.36,62.06,44.35,8.05,210.0,,,,,,602.0,702.0,,,10.0,,KIGQ 142035Z AUTO 21007KT 10SM SCT060 SCT070 30/17 A2997 RMK AO2  T03020167,,,,,,62.15,,SSW,29.32,28.03,86.88,Partly Cloudy
KIGQ,08/14/2018 20:55 UTC,29.96,87.26,62.24,43.37,8.05,230.0,,,,,,603.0,703.0,,,10.0,,KIGQ 142055Z AUTO 23007KT 10SM BKN060 BKN070 31/17 A2996 RMK AO2  T03070168,,,6000.0,,,62.34,,SW,29.31,28.0,87.83,Mostly Cloudy
KIGQ,08/14/2018 21:15 UTC,29.96,86.0,60.8,42.9,5.75,220.0,,,,,,602.0,,,,10.0,,KIGQ 142115Z AUTO 22005KT 10SM SCT060 30/16 A2996 RMK AO2  T03000160,,,,,,60.88,,SW,29.31,28.1,86.07,Partly Cloudy
KIGQ,08/14/2018 21:35 UTC,29.96,85.82,61.34,43.98,5.75,190.0,,,,,,602.0,,,,10.0,,KIGQ 142135Z AUTO 19005KT 10SM SCT060 30/16 A2996 RMK AO2  T02990163,,,,,,61.42,,S,29.31,28.07,86.1,Partly Cloudy
KIGQ,08/14/2018 21:55 UTC,29.96,84.56,60.8,44.92,6.91,190.0,,,,,,602.0,,,,10.0,,KIGQ 142155Z AUTO 19006KT 10SM SCT060 29/16 A2996 RMK AO2  T02920160,,,,,,60.87,,S,29.31,28.12,84.77,Partly Cloudy
KIGQ,08/14/2018 22:15 UTC,29.96,83.66,62.06,48.34,6.91,200.0,,,,,,1.0,,,,10.0,,KIGQ 142215Z AUTO 20006KT 10SM CLR 29/17 A2996 RMK AO2  T02870167,,,,,,62.11,,SSW,29.31,28.05,84.37,Clear
KIGQ,08/14/2018 22:35 UTC,29.96,85.28,61.52,45.03,4.61,200.0,,,,,,1.0,,,,10.0,,KIGQ 142235Z AUTO 20004KT 10SM CLR 30/16 A2996 RMK AO2  T02960164,,,,,,61.59,,SSW,29.31,28.07,85.66,Clear
KIGQ,08/14/2018 22:55 UTC,29.96,83.48,60.8,46.51,6.91,190.0,,,,,,652.0,,,,10.0,,KIGQ 142255Z AUTO 19006KT 10SM SCT065 29/16 A2996 RMK AO2  T02860160,,,,,,60.86,,S,29.31,28.13,83.83,Partly Cloudy
KIGQ,08/14/2018 23:15 UTC,29.95,81.86,61.7,50.59,5.75,190.0,,,,,,652.0,,,,10.0,,KIGQ 142315Z AUTO 19005KT 10SM SCT065 28/17 A2995 RMK AO2  T02770165,,,,,,61.74,,S,29.3,28.08,82.7,Partly Cloudy
KIGQ,08/14/2018 23:35 UTC,29.95,81.5,63.14,53.84,5.75,190.0,,,,,,1.0,,,,10.0,,KIGQ 142335Z AUTO 19005KT 10SM CLR 28/17 A2995 RMK AO2  T02750173,,,,,,63.17,,S,29.3,27.99,82.78,Clear
KIGQ,08/14/2018 23:55 UTC,29.95,81.32,62.96,53.81,5.75,200.0,,,,,,1.0,,,,10.0,,KIGQ 142355Z AUTO 20005KT 10SM CLR 27/17 A2995 RMK AO2 T02740172  10310 20274,87.8,81.32,,,,62.98,,SSW,29.3,28.01,82.57,Clear
KIGQ,08/15/2018 00:15 UTC,29.95,79.88,62.6,55.69,5.75,190.0,,,,,,1.0,,,,10.0,,KIGQ 150015Z AUTO 19005KT 10SM CLR 27/17 A2995 RMK AO2 LTG DSNT W  T02660170,,,,,,62.61,,S,29.3,28.04,,Clear
KIGQ,08/15/2018 00:35 UTC,29.96,77.9,62.78,59.8,5.75,190.0,,,,,,1.0,,,,10.0,,KIGQ 150035Z AUTO 19005KT 10SM CLR 26/17 A2996 RMK AO2  T02550171,,,,,,62.78,,S,29.31,28.07,,Clear
KIGQ,08/15/2018 00:55 UTC,29.96,76.82,64.04,64.77,4.61,200.0,,,,,,1.0,,,,10.0,,KIGQ 150055Z AUTO 20004KT 10SM CLR 25/18 A2996 RMK AO2  T02490178,,,,,,64.04,,SSW,29.31,28.0,,Clear
KIGQ,08/15/2018 01:15 UTC,29.96,75.74,64.4,67.98,5.75,190.0,,,,,,1.0,,,,10.0,,KIGQ 150115Z AUTO 19005KT 10SM CLR 24/18 A2996 RMK AO2  T02430180,,,,,,64.39,,S,29.31,27.99,,Clear
KIGQ,08/15/2018 01:35 UTC,29.96,75.2,64.58,69.64,5.75,200.0,,,,,,1.0,,,,10.0,,KIGQ 150135Z AUTO 20005KT 10SM CLR 24/18 A2996 RMK AO2  T02400181,,,,,,64.57,,SSW,29.31,27.98,,Clear
KIGQ,08/15/2018 01:55 UTC,29.96,74.12,64.58,72.2,4.61,200.0,,,,,,1.0,,,,10.0,,KIGQ 150155Z AUTO 20004KT 10SM CLR 23/18 A2996 RMK AO2  T02340181,,,,,,64.56,,SSW,29.31,28.0,,Clear
KIGQ,08/15/2018 02:15 UTC,29.97,73.4,64.4,73.5,4.61,200.0,,,,,,1.0,,,,10.0,,KIGQ 150215Z AUTO 20004KT 10SM CLR 23/18 A2997 RMK AO2  T02300180,,,,,,64.38,,SSW,29.32,28.03,,Clear
KIGQ,08/15/2018 02:35 UTC,29.98,73.4,64.22,73.04,4.61,200.0,,,,,,1.0,,,,10.0,,KIGQ 150235Z AUTO 20004KT 10SM CLR 23/18 A2998 RMK AO2  T02300179,,,,,,64.2,,SSW,29.33,28.05,,Clear
KIGQ,08/15/2018 02:55 UTC,29.97,72.68,64.04,74.36,0.0,0.0,,,,,,1.0,,,,10.0,,KIGQ 150255Z AUTO 00000KT 10SM CLR 23/18 A2997 RMK AO2  T02260178,,,,,,64.02,,N,29.32,28.06,,Clear
KIGQ,08/15/2018 03:15 UTC,29.98,73.04,63.86,73.0,0.0,0.0,,,,,,1.0,,,,10.0,,KIGQ 150315Z AUTO 00000KT 10SM CLR 23/18 A2998 RMK AO2  T02280177,,,,,,63.84,,N,29.33,28.08,,Clear
KIGQ,08/15/2018 03:35 UTC,29.97,72.68,63.68,73.43,0.0,0.0,,,,,,1.0,,,,10.0,,KIGQ 150335Z AUTO 00000KT 10SM CLR 23/18 A2997 RMK AO2  T02260176,,,,,,63.66,,N,29.32,28.08,,Clear
KIGQ,08/15/2018 03:55 UTC,29.97,71.78,63.5,75.22,0.0,0.0,,,,,,1.0,,,,10.0,,KIGQ 150355Z AUTO 00000KT 10SM CLR 22/18 A2997 RMK AO2  T02210175,,,,,,63.48,,N,29.32,28.1,,Clear
KIGQ,08/15/2018 04:15 UTC,29.97,71.6,63.68,76.15,0.0,0.0,,,,,,1.0,,,,10.0,,KIGQ 150415Z AUTO 00000KT 10SM CLR 22/18 A2997 RMK AO2  T02200176,,,,,,63.66,,N,29.32,28.09,,Clear
KIGQ,08/15/2018 04:35 UTC,29.97,71.6,63.14,74.73,0.0,0.0,,,,,,1.0,,,,10.0,,KIGQ 150435Z AUTO 00000KT 10SM CLR 22/17 A2997 RMK AO2  T02200173,,,,,,63.12,,N,29.32,28.13,,Clear
KIGQ,08/15/2018 04:55 UTC,29.96,70.7,62.96,76.56,0.0,0.0,,,,,,1.0,,,,10.0,,KIGQ 150455Z AUTO 00000KT 10SM CLR 22/17 A2996 RMK AO2  T02150172,,,,,,62.94,,N,29.31,28.14,,Clear
KIGQ,08/15/2018 05:15 UTC,29.96,71.06,62.96,75.63,0.0,0.0,,,,,,1.0,,,,10.0,,KIGQ 150515Z AUTO 00000KT 10SM CLR 22/17 A2996 RMK AO2  T02170172,,,,,,62.94,,N,29.31,28.13,,Clear
KIGQ,08/15/2018 05:35 UTC,29.96,70.16,63.14,78.47,0.0,0.0,,,,,,1.0,,,,10.0,,KIGQ 150535Z AUTO 00000KT 10SM CLR 21/17 A2996 RMK AO2  T02120173,,,,,,63.12,,N,29.31,28.13,,Clear
KIGQ,08/15/2018 05:55 UTC,29.96,70.52,62.96,77.02,0.0,0.0,,,,,,1.0,,,,10.0,,KIGQ 150555Z AUTO 00000KT 10SM CLR 21/17 A2996 RMK AO2 T02140172  10272 20210 403100158,80.96,69.8,,87.8,60.44,62.93,,N,29.31,28.14,,Clear
KIGQ,08/15/2018 06:15 UTC,29.95,70.7,62.96,76.56,0.0,0.0,,,,,,1.0,,,,10.0,,KIGQ 150615Z AUTO 00000KT 10SM CLR 22/17 A2995 RMK AO2  T02150172,,,,,,62.94,,N,29.3,28.13,,Clear
KIGQ,08/15/2018 06:35 UTC,29.95,71.78,63.32,74.74,0.0,0.0,,,,,,1.0,,,,10.0,,KIGQ 150635Z AUTO 00000KT 10SM CLR 22/17 A2995 RMK AO2  T02210174,,,,,,63.3,,N,29.3,28.09,,Clear
KIGQ,08/15/2018 06:55 UTC,29.94,71.24,63.14,75.64,0.0,0.0,,,,,,1.0,,,,10.0,,KIGQ 150655Z AUTO 00000KT 10SM CLR 22/17 A2994 RMK AO2  T02180173,,,,,,63.11,,N,29.29,28.1,,Clear
KIGQ,08/15/2018 07:15 UTC,29.95,70.88,63.5,77.54,0.0,0.0,,,,,,1.0,,,,10.0,,KIGQ 150715Z AUTO 00000KT 10SM CLR 22/18 A2995 RMK AO2  T02160175,,,,,,63.48,,N,29.3,28.09,,Clear
KIGQ,08/15/2018 07:35 UTC,29.95,71.06,64.04,78.54,0.0,0.0,,,,,,1.0,,,,10.0,,KIGQ 150735Z AUTO 00000KT 10SM CLR 22/18 A2995 RMK AO2  T02170178,,,,,,64.02,,N,29.3,28.06,,Clear
KIGQ,08/15/2018 07:55 UTC,29.96,69.98,64.4,82.51,3.44,200.0,,,,,,1.0,,,,10.0,,KIGQ 150755Z AUTO 20003KT 10SM CLR 21/18 A2996 RMK AO2  T02110180,,,,,,64.38,,SSW,29.31,28.06,,Clear
KIGQ,08/15/2018 08:15 UTC,29.97,69.44,64.04,82.99,0.0,0.0,,,,,,462.0,,,,10.0,,KIGQ 150815Z AUTO 00000KT 10SM SCT046 21/18 A2997 RMK AO2  T02080178,,,,,,64.02,,N,29.32,28.1,,Partly Cloudy
KIGQ,08/15/2018 08:35 UTC,29.97,70.16,64.4,82.0,0.0,0.0,,,,,,462.0,602.0,,,10.0,,KIGQ 150835Z AUTO 00000KT 10SM SCT046 SCT060 21/18 A2997 RMK AO2  T02120180,,,,,,64.38,,N,29.32,28.07,,Partly Cloudy
KIGQ,08/15/2018 08:55 UTC,29.97,70.34,64.4,81.5,0.0,0.0,,,,,,482.0,,,,10.0,,KIGQ 150855Z AUTO 00000KT 10SM SCT048 21/18 A2997 RMK AO2  T02130180,,,,,,64.38,,N,29.32,28.07,,Partly Cloudy
KIGQ,08/15/2018 09:15 UTC,29.97,70.52,64.4,81.0,0.0,0.0,,,,,,502.0,,,,10.0,,KIGQ 150915Z AUTO 00000KT 10SM SCT050 21/18 A2997 RMK AO2  T02140180,,,,,,64.38,,N,29.32,28.06,,Partly Cloudy
KIGQ,08/15/2018 09:35 UTC,29.97,69.8,64.4,83.01,4.61,170.0,,,,,,503.0,603.0,,,10.0,,KIGQ 150935Z AUTO 17004KT 10SM BKN050 BKN060 21/18 A2997 RMK AO2  T02100180,,,5000.0,,,64.38,,S,29.32,28.07,,Mostly Cloudy
KIGQ,08/15/2018 09:55 UTC,29.97,69.98,65.3,85.13,0.0,0.0,,,,,,483.0,604.0,,,10.0,,KIGQ 150955Z AUTO 00000KT 10SM BKN048 OVC060 21/19 A2997 RMK AO2  T02110185,,,4800.0,,,65.28,,N,29.32,28.01,,Overcast
KIGQ,08/15/2018 10:15 UTC,29.97,70.16,64.94,83.56,0.0,0.0,,,,,,462.0,603.0,,,10.0,,KIGQ 151015Z AUTO 00000KT 10SM SCT046 BKN060 21/18 A2997 RMK AO2  T02120183,,,6000.0,,,64.92,,N,29.32,28.03,,Mostly Cloudy
KIGQ,08/15/2018 10:35 UTC,29.97,70.7,65.12,82.56,3.44,120.0,,,,,,482.0,654.0,,,10.0,,KIGQ 151035Z AUTO 12003KT 10SM SCT048 OVC065 22/18 A2997 RMK AO2  T02150184,,,6500.0,,,65.1,,ESE,29.32,28.02,,Overcast
KIGQ,08/15/2018 10:55 UTC,29.97,70.7,65.66,84.12,0.0,0.0,,,604.0,,,442.0,493.0,,,10.0,,KIGQ 151055Z AUTO 00000KT 10SM SCT044 BKN049 OVC060 22/19 A2997 RMK AO2 T02150187,,,4900.0,,,65.64,,N,29.32,27.98,,Overcast
KIGQ,08/15/2018 11:15 UTC,29.98,70.16,65.66,85.68,0.0,0.0,,,854.0,,,443.0,503.0,,,10.0,,KIGQ 151115Z AUTO 00000KT 10SM BKN044 BKN050 OVC085 21/19 A2998 RMK AO2 T02120187,,,4400.0,,,65.65,,N,29.33,28.0,,Overcast
KIGQ,08/15/2018 11:35 UTC,29.97,70.7,65.12,82.56,3.44,130.0,,,854.0,,,502.0,703.0,,,10.0,,KIGQ 151135Z AUTO 13003KT 10SM SCT050 BKN070 OVC085 22/18 A2997 RMK AO2 T02150184,,,7000.0,,,65.1,,SE,29.32,28.02,,Overcast
KIGQ,08/15/2018 11:55 UTC,29.98,71.24,65.66,82.59,3.44,160.0,,,,,,703.0,853.0,,,10.0,,KIGQ 151155Z AUTO 16003KT 10SM BKN070 BKN085 22/19 A2998 RMK AO2  T02180187 10221 20208,71.78,69.44,7000.0,,,65.64,,SSE,29.33,27.98,,Mostly Cloudy
KIGQ,08/15/2018 12:15 UTC,29.98,71.78,66.2,82.63,0.0,0.0,,,,,,702.0,,,,10.0,,KIGQ 151215Z AUTO 00000KT 10SM SCT070 22/19 A2998 RMK AO2  T02210190,,,,,,66.19,,N,29.33,27.94,,Partly Cloudy
KIGQ,08/15/2018 12:35 UTC,29.97,72.5,66.2,80.65,3.44,150.0,,,,,,602.0,,,,10.0,,KIGQ 151235Z AUTO 15003KT 10SM SCT060 23/19 A2997 RMK AO2  T02250190,,,,,,66.19,,SSE,29.32,27.92,,Partly Cloudy
KIGQ,08/15/2018 12:55 UTC,29.97,73.04,66.56,80.19,4.61,130.0,,,,,,702.0,,,,10.0,,KIGQ 151255Z AUTO 13004KT 10SM SCT070 23/19 A2997 RMK AO2  T02280192,,,,,,66.55,,SE,29.32,27.89,,Partly Cloudy
KIGQ,08/15/2018 13:15 UTC,29.97,73.58,66.38,78.26,4.61,120.0,,,,,,1.0,,,,10.0,,KIGQ 151315Z AUTO 12004KT 10SM CLR 23/19 A2997 RMK AO2  T02310191,,,,,,66.37,,ESE,29.32,27.9,,Clear
KIGQ,08/15/2018 13:35 UTC,29.97,75.02,66.38,74.58,4.61,110.0,,,,,,1.0,,,,10.0,,KIGQ 151335Z AUTO 11004KT 10SM CLR 24/19 A2997 RMK AO2  T02390191,,,,,,66.37,,ESE,29.32,27.88,,Clear
KIGQ,08/15/2018 13:55 UTC,29.97,75.2,66.74,75.06,4.61,140.0,,,,,,902.0,,,,10.0,,KIGQ 151355Z AUTO 14004KT 10SM SCT090 24/19 A2997 RMK AO2  T02400193,,,,,,66.73,,SE,29.32,27.85,,Partly Cloudy
KIGQ,08/15/2018 14:15 UTC,29.97,76.46,66.92,72.43,5.75,120.0,,,,,,902.0,,,,10.0,,KIGQ 151415Z AUTO 12005KT 10SM SCT090 25/19 A2997 RMK AO2  T02470194,,,,,,66.91,,ESE,29.32,27.82,,Partly Cloudy
KIGQ,08/15/2018 14:35 UTC,29.96,77.18,67.1,71.17,0.0,0.0,,,,,,902.0,,,,10.0,,KIGQ 151435Z AUTO 00000KT 10SM SCT090 25/20 A2996 RMK AO2  T02510195,,,,,,67.1,,N,29.31,27.79,,Partly Cloudy
KIGQ,08/15/2018 14:55 UTC,29.96,77.0,67.28,72.04,3.44,120.0,,,,,,1.0,,,,10.0,,KIGQ 151455Z AUTO 12003KT 10SM CLR 25/20 A2996 RMK AO2  T02500196,,,,,,67.28,,ESE,29.31,27.78,,Clear
KIGQ,08/15/2018 15:15 UTC,29.96,77.9,67.28,69.93,0.0,0.0,,,,,,1.0,,,,10.0,,KIGQ 151515Z AUTO 00000KT 10SM CLR 26/20 A2996 RMK AO2  T02550196,,,,,,67.28,,N,29.31,27.77,,Clear
KIGQ,08/15/2018 15:35 UTC,29.97,79.16,68.0,68.78,8.05,130.0,,,,,,1.0,,,,10.0,,KIGQ 151535Z AUTO 13007KT 030V200 10SM CLR 26/20 A2997 RMK AO2  T02620200,,,,,,68.01,,SE,29.32,27.71,,Clear
KIGQ,08/15/2018 15:55 UTC,29.97,78.62,67.64,69.15,6.91,140.0,,,,,,1.0,,,,10.0,,KIGQ 151555Z AUTO 14006KT 10SM CLR 26/20 A2997 RMK AO2 LTG DSNT W  T02590198,,,,,,67.64,,SE,29.32,27.75,,Clear
KIGQ,08/15/2018 16:15 UTC,29.97,80.06,68.72,68.46,8.05,110.0,,,,,,1.0,,,,10.0,,KIGQ 151615Z AUTO 11007KT 10SM CLR 27/20 A2997 RMK AO2  T02670204,,,,,,68.73,,ESE,29.32,27.65,82.86,Clear
KIGQ,08/15/2018 16:35 UTC,29.96,79.88,67.64,66.36,5.75,160.0,,,,,,902.0,,,,10.0,,KIGQ 151635Z AUTO 16005KT 10SM SCT090 27/20 A2996 RMK AO2 LTG DSNT  W T02660198,,,,,,67.65,,SSE,29.31,27.72,,Partly Cloudy
KIGQ,08/15/2018 16:55 UTC,29.96,80.6,68.18,66.03,4.61,170.0,,,,,,903.0,,,,10.0,,KIGQ 151655Z AUTO 17004KT 10SM BKN090 27/20 A2996 RMK AO2  T02700201,,,9000.0,,,68.2,,S,29.31,27.67,83.36,Mostly Cloudy
KIGQ,08/15/2018 17:15 UTC,29.96,80.24,67.46,65.18,3.44,180.0,,,902.0,,,552.0,702.0,,,10.0,,KIGQ 151715Z AUTO 18003KT 10SM SCT055 SCT070 SCT090 27/20 A2996 RMK AO2 T02680197,,,,,,67.48,,S,29.31,27.73,82.72,Partly Cloudy
KIGQ,08/15/2018 17:35 UTC,29.95,79.52,67.1,65.9,3.44,150.0,,,654.0,,,302.0,503.0,,,10.0,,KIGQ 151735Z AUTO 15003KT 10SM SCT030 BKN050 OVC065 26/20 A2995 RMK AO2 T02640195,,,5000.0,,,67.11,,SSE,29.3,27.75,,Overcast
KIGQ,08/15/2018 17:55 UTC,29.95,78.62,69.44,73.55,6.91,200.0,,,,,,273.0,354.0,,,10.0,,KIGQ 151755Z AUTO 20006KT 10SM BKN027 OVC035 26/21 A2995 RMK AO2  T02590208 10271 20218,80.78,71.24,2700.0,,,69.44,,SSW,29.3,27.59,,Overcast
KIGQ,08/15/2018 18:15 UTC,29.95,80.42,67.82,65.6,14.97,180.0,18.41,,,,,273.0,314.0,,,10.0,,KIGQ 151815Z AUTO 18013G16KT 10SM BKN027 OVC031 27/20 A2995 RMK AO2 T02690199,,,2700.0,,,67.83,,S,29.3,27.69,83.04,Overcast
KIGQ,08/15/2018 18:35 UTC,29.95,81.68,68.18,63.75,13.8,180.0,,,,,,273.0,353.0,,,10.0,,KIGQ 151835Z AUTO 18012KT 10SM BKN027 BKN035 28/20 A2995 RMK AO2  T02760201,,,2700.0,,,68.2,,S,29.3,27.65,84.64,Mostly Cloudy
KIGQ,08/15/2018 18:55 UTC,29.94,82.22,68.0,62.26,11.5,170.0,,,,,,253.0,323.0,,,10.0,,KIGQ 151855Z AUTO 17010KT 10SM BKN025 BKN032 28/20 A2994 RMK AO2  LTG DSNT W T02790200,,,2500.0,,,68.03,,S,29.29,27.65,85.19,Mostly Cloudy
KIGQ,08/15/2018 19:15 UTC,29.94,80.06,67.28,65.15,10.36,160.0,,,,,,252.0,323.0,,,10.0,,KIGQ 151915Z AUTO 16009KT 10SM SCT025 BKN032 27/20 A2994 RMK AO2  T02670196,,,3200.0,,,67.29,,SSE,29.29,27.72,82.47,Mostly Cloudy
KIGQ,08/15/2018 19:35 UTC,29.94,79.88,67.28,65.54,9.22,160.0,,,,,,253.0,324.0,,,10.0,,KIGQ 151935Z AUTO 16008KT 020V190 10SM BKN025 OVC032 27/20 A2994 RMK AO2 T02660196,,,2500.0,,,67.29,,SSE,29.29,27.73,,Overcast
KIGQ,08/15/2018 19:55 UTC,29.93,79.88,67.82,66.77,11.5,150.0,,,,,,252.0,344.0,,,10.0,,KIGQ 151955Z AUTO 15010KT 10SM SCT025 OVC034 27/20 A2993 RMK AO2  T02660199,,,3400.0,,,67.83,,SSE,29.28,27.68,,Overcast
KIGQ,08/15/2018 20:15 UTC,29.93,80.96,68.54,66.07,8.05,150.0,,,,,,252.0,363.0,,,10.0,,KIGQ 152015Z AUTO 15007KT 050V250 10SM SCT025 BKN036 27/20 A2993 RMK AO2 T02720203,,,3600.0,,,68.56,,SSE,29.28,27.61,83.92,Mostly Cloudy
KIGQ,08/15/2018 20:35 UTC,29.92,81.32,68.9,66.11,10.36,150.0,,,,,,253.0,303.0,,,10.0,,KIGQ 152035Z AUTO 15009KT 10SM BKN025 BKN030 27/21 A2992 RMK AO2  T02740205,,,2500.0,,,68.92,,SSE,29.27,27.57,84.49,Mostly Cloudy
KIGQ,08/15/2018 20:55 UTC,29.91,80.96,68.9,66.89,11.5,150.0,,,,,,253.0,303.0,,,10.0,,KIGQ 152055Z AUTO 15010KT 10SM BKN025 BKN030 27/21 A2991 RMK AO2  T02720205,,,2500.0,,,68.92,,SSE,29.26,27.56,84.05,Mostly Cloudy
KIGQ,08/15/2018 21:15 UTC,29.91,83.12,68.54,61.61,9.22,150.0,,,,,,283.0,364.0,,,10.0,,KIGQ 152115Z AUTO 15008KT 10SM BKN028 OVC036 28/20 A2991 RMK AO2  T02840203,,,2800.0,,,68.57,,SSE,29.26,27.56,86.48,Overcast
KIGQ,08/15/2018 21:35 UTC,29.9,83.66,68.18,59.81,11.5,150.0,,,,,,304.0,,,,10.0,,KIGQ 152135Z AUTO 15010KT 10SM OVC030 29/20 A2990 RMK AO2  T02870201,,,3000.0,,,68.22,,SSE,29.25,27.57,86.92,Overcast
KIGQ,08/15/2018 21:55 UTC,29.91,82.58,68.18,61.93,14.97,190.0,,,,,,303.0,364.0,,,10.0,,KIGQ 152155Z AUTO 19013KT 10SM BKN030 OVC036 28/20 A2991 RMK AO2  T02810201,,,3000.0,,,68.21,,S,29.26,27.6,85.68,Overcast
KIGQ,08/15/2018 22:15 UTC,29.91,79.52,67.82,67.56,14.97,160.0,,,463.0,,,283.0,363.0,,,10.0,,KIGQ 152215Z AUTO 16013KT 10SM BKN028 BKN036 BKN046 26/20 A2991 RMK AO2 T02640199,,,2800.0,,,67.83,,SSE,29.26,27.66,,Mostly Cloudy
KIGQ,08/15/2018 22:35 UTC,29.91,78.98,67.46,67.92,11.5,180.0,,,472.0,,,262.0,342.0,,,10.0,,KIGQ 152235Z AUTO 18010KT 10SM SCT026 SCT034 SCT047 26/20 A2991 RMK AO2 T02610197,,,,,,67.47,,S,29.26,27.69,,Partly Cloudy
KIGQ,08/15/2018 22:55 UTC,29.91,78.98,68.0,69.19,11.5,180.0,,,,,,262.0,,,,10.0,,KIGQ 152255Z AUTO 18010KT 10SM SCT026 26/20 A2991 RMK AO2  T02610200,,,,,,68.01,,S,29.26,27.65,,Partly Cloudy
KIGQ,08/15/2018 23:15 UTC,29.91,78.98,68.0,69.19,16.11,180.0,,,,,,242.0,392.0,,,10.0,,KIGQ 152315Z AUTO 18014KT 10SM SCT024 SCT039 26/20 A2991 RMK AO2  LTG DSNT W T02610200,,,,,,68.01,,S,29.26,27.65,,Partly Cloudy
KIGQ,08/15/2018 23:35 UTC,29.92,78.62,67.82,69.58,11.5,170.0,,,393.0,,,242.0,332.0,,,10.0,,KIGQ 152335Z AUTO 17010KT 10SM SCT024 SCT033 BKN039 26/20 A2992 RMK AO2 LTG DSNT W AND NW T02590199,,,3900.0,,,67.82,,S,29.27,27.68,,Mostly Cloudy
KIGQ,08/15/2018 23:55 UTC,29.92,78.08,67.64,70.39,11.5,170.0,,,503.0,,,242.0,413.0,,,10.0,,KIGQ 152355Z AUTO 17010KT 10SM SCT024 BKN041 BKN050 26/20 A2992 RMK AO2 LTG DSNT N AND S T02560198 10291 20256,84.38,78.08,4100.0,,,67.64,,S,29.27,27.7,,Mostly Cloudy
KIGQ,08/16/2018 00:15 UTC,29.93,77.0,66.74,70.71,11.5,190.0,,,504.0,,,242.0,413.0,,,10.0,,KIGQ 160015Z AUTO 19010KT 10SM SCT024 BKN041 OVC050 25/19 A2993 RMK AO2 LTG DSNT N T02500193,,,4100.0,,,66.74,,S,29.28,27.79,,Overcast
KIGQ,08/16/2018 00:35 UTC,29.94,75.38,66.56,74.15,9.22,180.0,,,,,,413.0,494.0,,,10.0,,KIGQ 160035Z AUTO 18008KT 10SM BKN041 OVC049 24/19 A2994 RMK AO2  T02410192,,,4100.0,,,66.55,,S,29.29,27.83,,Overcast
KIGQ,08/16/2018 00:55 UTC,29.94,74.84,65.3,72.27,12.66,160.0,,,1103.0,,,472.0,552.0,,,10.0,,KIGQ 160055Z AUTO 16011KT 10SM SCT047 SCT055 BKN110 24/19 A2994 RMK AO2 T02380185,,,11000.0,,,65.29,,SSE,29.29,27.92,,Mostly Cloudy
KIGQ,08/16/2018 01:15 UTC,29.94,73.58,65.48,75.85,6.91,170.0,,,,,,1102.0,,,,10.0,,KIGQ 160115Z AUTO 17006KT 10SM SCT110 23/19 A2994 RMK AO2 LTG DSNT  NW T02310186,,,,,,65.46,,S,29.29,27.93,,Partly Cloudy
KIGQ,08/16/2018 01:35 UTC,29.94,72.86,65.84,78.69,8.05,170.0,,,,,,1.0,,,,10.0,,KIGQ 160135Z AUTO 17007KT 10SM CLR 23/19 A2994 RMK AO2 LTG DSNT NW  T02270188,,,,,,65.82,,S,29.29,27.91,,Clear
KIGQ,08/16/2018 01:55 UTC,29.94,72.5,66.2,80.65,8.05,170.0,,,,,,1.0,,,,10.0,,KIGQ 160155Z AUTO 17007KT 10SM CLR 23/19 A2994 RMK AO2  T02250190,,,,,,66.19,,S,29.29,27.89,,Clear
KIGQ,08/16/2018 02:15 UTC,29.94,72.5,66.2,80.65,8.05,170.0,,,,,,1.0,,,,10.0,,KIGQ 160215Z AUTO 17007KT 10SM CLR 23/19 A2994 RMK AO2  T02250190,,,,,,66.19,,S,29.29,27.89,,Clear
KIGQ,08/16/2018 02:35 UTC,29.94,71.78,66.38,83.15,3.44,150.0,,,,,,1.0,,,,10.0,,KIGQ 160235Z AUTO 15003KT 10SM CLR 22/19 A2994 RMK AO2  T02210191,,,,,,66.37,,SSE,29.29,27.89,,Clear
KIGQ,08/16/2018 02:55 UTC,29.94,71.6,66.38,83.65,6.91,160.0,,,,,,1.0,,,,10.0,,KIGQ 160255Z AUTO 16006KT 10SM CLR 22/19 A2994 RMK AO2  T02200191,,,,,,66.36,,SSE,29.29,27.89,,Clear
KIGQ,08/16/2018 03:15 UTC,29.94,71.6,66.56,84.17,4.61,150.0,,,,,,1.0,,,,10.0,,KIGQ 160315Z AUTO 15004KT 10SM CLR 22/19 A2994 RMK AO2  T02200192,,,,,,66.54,,SSE,29.29,27.88,,Clear
KIGQ,08/16/2018 03:35 UTC,29.94,71.24,66.74,85.74,3.44,150.0,,,,,,1.0,,,,10.0,,KIGQ 160335Z AUTO 15003KT 10SM CLR 22/19 A2994 RMK AO2  T02180193,,,,,,66.73,,SSE,29.29,27.87,,Clear
KIGQ,08/16/2018 03:55 UTC,29.94,71.06,67.1,87.34,4.61,140.0,,,,,,183.0,,,,10.0,,KIGQ 160355Z AUTO 14004KT 10SM BKN018 22/20 A2994 RMK AO2  T02170195,,,1800.0,,,67.09,,SE,29.29,27.85,,Mostly Cloudy
KIGQ,08/16/2018 04:15 UTC,29.94,70.88,67.1,87.87,4.61,140.0,,,,,,183.0,,,,10.0,,KIGQ 160415Z AUTO 14004KT 10SM BKN018 22/20 A2994 RMK AO2  T02160195,,,1800.0,,,67.09,,SE,29.29,27.85,,Mostly Cloudy
KIGQ,08/16/2018 04:35 UTC,29.94,70.7,67.28,88.96,3.44,130.0,,,,,,204.0,,,,10.0,,KIGQ 160435Z AUTO 13003KT 10SM OVC020 22/20 A2994 RMK AO2  T02150196,,,2000.0,,,67.27,,SE,29.29,27.85,,Overcast
KIGQ,08/16/2018 04:55 UTC,29.94,70.7,67.28,88.96,3.44,120.0,,,,,,132.0,223.0,,,10.0,,KIGQ 160455Z AUTO 12003KT 10SM SCT013 BKN022 22/20 A2994 RMK AO2  T02150196,,,2200.0,,,67.27,,ESE,29.29,27.85,,Mostly Cloudy
KIGQ,08/16/2018 05:15 UTC,29.95,70.7,67.28,88.96,4.61,130.0,,,,,,133.0,223.0,,,10.0,,KIGQ 160515Z AUTO 13004KT 10SM BKN013 BKN022 22/20 A2995 RMK AO2  T02150196,,,1300.0,,,67.27,,SE,29.3,27.86,,Mostly Cloudy
KIGQ,08/16/2018 05:35 UTC,29.94,70.7,67.28,88.96,3.44,110.0,,,,,,134.0,,,,10.0,,KIGQ 160535Z AUTO 11003KT 10SM OVC013 22/20 A2994 RMK AO2  T02150196,,,1300.0,,,67.27,,ESE,29.29,27.85,,Overcast
KIGQ,08/16/2018 05:55 UTC,29.94,70.7,67.46,89.52,0.0,0.0,,,,,,114.0,,,,10.0,,KIGQ 160555Z AUTO 00000KT 10SM OVC011 22/20 A2994 RMK AO2  T02150197 10255 20213 402910208,77.9,70.34,1100.0,84.38,69.44,67.45,,N,29.29,27.83,,Overcast
KIGQ,08/16/2018 06:15 UTC,29.94,70.88,67.82,90.08,0.0,0.0,,,,,,94.0,,,,10.0,,KIGQ 160615Z AUTO 00000KT 10SM OVC009 22/20 A2994 RMK AO2  T02160199,,,900.0,,,67.81,,N,29.29,27.81,,Overcast
KIGQ,08/16/2018 06:35 UTC,29.93,70.88,68.0,90.64,3.44,120.0,,,244.0,,,92.0,193.0,,,10.0,,KIGQ 160635Z AUTO 12003KT 10SM SCT009 BKN019 OVC024 22/20 A2993 RMK AO2 T02160200,,,1900.0,,,67.99,,ESE,29.28,27.78,,Overcast
KIGQ,08/16/2018 06:55 UTC,29.92,70.7,67.64,90.07,3.44,120.0,,,324.0,,,92.0,213.0,,,10.0,,KIGQ 160655Z AUTO 12003KT 10SM SCT009 BKN021 OVC032 22/20 A2992 RMK AO2 T02150198,,,2100.0,,,67.63,,ESE,29.27,27.8,,Overcast
KIGQ,08/16/2018 07:15 UTC,29.92,70.34,67.64,91.18,3.44,90.0,,,343.0,,,92.0,222.0,,,10.0,,KIGQ 160715Z AUTO 09003KT 10SM SCT009 SCT022 BKN034 21/20 A2992 RMK AO2 T02130198,,,3400.0,,,67.63,,E,29.27,27.81,,Mostly Cloudy
KIGQ,08/16/2018 07:35 UTC,29.93,69.98,67.82,92.88,3.44,110.0,,,,,,1.0,,,,10.0,,KIGQ 160735Z AUTO 11003KT 10SM CLR 21/20 A2993 RMK AO2  T02110199,,,,,,67.81,,ESE,29.28,27.81,,Clear
KIGQ,08/16/2018 07:55 UTC,29.93,70.34,68.0,92.32,0.0,0.0,,,,,,73.0,193.0,,,10.0,,KIGQ 160755Z AUTO 00000KT 10SM BKN007 BKN019 21/20 A2993 RMK AO2  T02130200,,,700.0,,,67.99,,N,29.28,27.79,,Mostly Cloudy
KIGQ,08/16/2018 08:15 UTC,29.92,70.16,68.0,92.88,0.0,0.0,,,,,,73.0,213.0,,,7.0,,KIGQ 160815Z AUTO 00000KT 7SM BKN007 BKN021 21/20 A2992 RMK AO2  T02120200,,,700.0,,,67.99,,N,29.27,27.78,,Mostly Cloudy
KIGQ,08/16/2018 08:35 UTC,29.92,70.16,68.0,92.88,3.44,140.0,,,,,,93.0,213.0,,,7.0,,KIGQ 160835Z AUTO 14003KT 7SM BKN009 BKN021 21/20 A2992 RMK AO2  T02120200,,,900.0,,,67.99,,SE,29.27,27.78,,Mostly Cloudy
KIGQ,08/16/2018 08:55 UTC,29.92,70.16,68.0,92.88,0.0,0.0,,,,,,94.0,,,,7.0,,KIGQ 160855Z AUTO 00000KT 7SM OVC009 21/20 A2992 RMK AO2 LTG DSNT  S T02120200,,,900.0,,,67.99,,N,29.27,27.78,,Overcast
KIGQ,08/16/2018 09:15 UTC,29.93,70.34,68.18,92.89,0.0,0.0,,,,,,94.0,,,,7.0,,KIGQ 160915Z AUTO 00000KT 7SM OVC009 21/20 A2993 RMK AO2  T02130201,,,900.0,,,68.17,,N,29.28,27.78,,Overcast
KIGQ,08/16/2018 09:35 UTC,29.92,70.7,68.36,92.33,0.0,0.0,,,,,,94.0,,,,7.0,,KIGQ 160935Z AUTO 00000KT 7SM OVC009 22/20 A2992 RMK AO2  T02150202,,,900.0,,,68.35,,N,29.27,27.75,,Overcast
KIGQ,08/16/2018 09:55 UTC,29.92,70.7,68.36,92.33,0.0,0.0,,,,,,94.0,,,,7.0,,KIGQ 160955Z AUTO 00000KT 7SM OVC009 22/20 A2992 RMK AO2  T02150202,,,900.0,,,68.35,,N,29.27,27.75,,Overcast
KIGQ,08/16/2018 10:15 UTC,29.93,70.7,68.36,92.33,3.44,130.0,,,,,,94.0,,,,10.0,,KIGQ 161015Z AUTO 13003KT 10SM OVC009 22/20 A2993 RMK AO2  T02150202,,,900.0,,,68.35,,SE,29.28,27.76,,Overcast
KIGQ,08/16/2018 10:35 UTC,29.93,70.7,68.18,91.76,0.0,0.0,,,,,,94.0,,,,7.0,,KIGQ 161035Z AUTO 00000KT 7SM OVC009 22/20 A2993 RMK AO2  T02150201,,,900.0,,,68.17,,N,29.28,27.77,,Overcast
KIGQ,08/16/2018 10:55 UTC,29.94,70.7,68.18,91.76,0.0,0.0,,,,,,94.0,,,,7.0,,KIGQ 161055Z AUTO 00000KT 7SM OVC009 22/20 A2994 RMK AO2  T02150201,,,900.0,,,68.17,,N,29.29,27.78,,Overcast
KIGQ,08/16/2018 11:15 UTC,29.94,70.34,68.0,92.32,0.0,0.0,,,213.0,,,92.0,143.0,,,7.0,,KIGQ 161115Z AUTO 00000KT 7SM SCT009 BKN014 BKN021 21/20 A2994 RMK AO2 T02130200,,,1400.0,,,67.99,,N,29.29,27.8,,Mostly Cloudy
KIGQ,08/16/2018 11:35 UTC,29.95,69.8,67.82,93.45,0.0,0.0,,31.0,,,,212.0,,,,5.0,,KIGQ 161135Z AUTO 00000KT 5SM BR SCT021 21/20 A2995 RMK AO2  T02100199,,,,,,67.81,,N,29.3,27.83,,Mist
KIGQ,08/16/2018 11:55 UTC,29.95,69.98,68.18,94.03,0.0,0.0,,31.0,,,,132.0,,,,5.0,,KIGQ 161155Z AUTO 00000KT 5SM BR SCT013 21/20 A2995 RMK AO2  T02110201 10216 20210,70.88,69.8,,,,68.17,,N,29.3,27.8,,Mist
KIGQ,08/16/2018 12:15 UTC,29.96,70.88,68.72,92.9,0.0,0.0,,31.0,,,,134.0,,,,5.0,,KIGQ 161215Z AUTO 00000KT 5SM BR OVC013 22/20 A2996 RMK AO2  T02160204,,,1300.0,,,68.71,,N,29.31,27.76,,Mist
KIGQ,08/16/2018 12:35 UTC,29.96,71.06,68.54,91.77,0.0,0.0,,,,,,134.0,,,,7.0,,KIGQ 161235Z AUTO 00000KT 7SM OVC013 22/20 A2996 RMK AO2  T02170203,,,1300.0,,,68.53,,N,29.31,27.77,,Overcast
KIGQ,08/16/2018 12:55 UTC,29.96,71.78,68.9,90.67,0.0,0.0,,,,,,134.0,,,,7.0,,KIGQ 161255Z AUTO 00000KT 7SM OVC013 22/21 A2996 RMK AO2  T02210205,,,1300.0,,,68.89,,N,29.31,27.74,,Overcast
KIGQ,08/16/2018 13:15 UTC,29.96,72.5,68.9,88.5,0.0,0.0,,,,,,132.0,204.0,,,7.0,,KIGQ 161315Z AUTO 00000KT 7SM SCT013 OVC020 23/21 A2996 RMK AO2  T02250205,,,2000.0,,,68.89,,N,29.31,27.73,,Overcast
KIGQ,08/16/2018 13:35 UTC,29.96,73.58,69.08,85.87,0.0,0.0,,,364.0,,,82.0,223.0,,,10.0,,KIGQ 161335Z AUTO 00000KT 10SM SCT008 BKN022 OVC036 23/21 A2996 RMK AO2 T02310206,,,2200.0,,,69.07,,N,29.31,27.7,,Overcast
KIGQ,08/16/2018 13:55 UTC,29.96,73.94,68.18,82.27,0.0,0.0,,,384.0,,,82.0,243.0,,,10.0,,KIGQ 161355Z AUTO 00000KT 10SM SCT008 BKN024 OVC038 23/20 A2996 RMK AO2 T02330201,,,2400.0,,,68.17,,N,29.31,27.76,,Overcast
KIGQ,08/16/2018 14:15 UTC,29.96,74.84,68.36,80.32,3.44,330.0,,,424.0,,,163.0,253.0,,,10.0,,KIGQ 161415Z AUTO 33003KT 10SM BKN016 BKN025 OVC042 24/20 A2996 RMK AO2 T02380202,,,1600.0,,,68.35,,NNW,29.31,27.73,,Overcast
KIGQ,08/16/2018 14:35 UTC,29.96,76.1,68.18,76.55,0.0,0.0,,,,,,162.0,254.0,,,10.0,,KIGQ 161435Z AUTO 00000KT 10SM SCT016 OVC025 25/20 A2996 RMK AO2  T02450201,,,2500.0,,,68.17,,N,29.31,27.73,,Overcast
KIGQ,08/16/2018 14:55 UTC,29.96,76.46,67.28,73.34,0.0,0.0,,,484.0,,,272.0,322.0,,,10.0,,KIGQ 161455Z AUTO 00000KT 10SM SCT027 SCT032 OVC048 25/20 A2996 RMK AO2 T02470196,,,4800.0,,,67.27,,N,29.31,27.79,,Overcast
KIGQ,08/16/2018 15:15 UTC,29.97,76.28,67.28,73.78,0.0,0.0,,,,,,464.0,,,,10.0,,KIGQ 161515Z AUTO 00000KT 10SM OVC046 25/20 A2997 RMK AO2  T02460196,,,4600.0,,,67.27,,N,29.32,27.8,,Overcast
KIGQ,08/16/2018 15:35 UTC,29.97,76.82,67.82,73.83,3.44,50.0,,,,,,464.0,,,,10.0,,KIGQ 161535Z AUTO 05003KT 10SM OVC046 25/20 A2997 RMK AO2  T02490199,,,4600.0,,,67.82,,NE,29.32,27.76,,Overcast
KIGQ,08/16/2018 15:55 UTC,29.97,77.18,67.46,72.06,0.0,0.0,,,,,,464.0,,,,10.0,,KIGQ 161555Z AUTO 00000KT 10SM OVC046 25/20 A2997 RMK AO2  T02510197,,,4600.0,,,67.46,,N,29.32,27.78,,Overcast
KIGQ,08/16/2018 16:15 UTC,29.97,78.8,68.0,69.6,0.0,0.0,,,484.0,,,203.0,263.0,,,10.0,,KIGQ 161615Z AUTO 00000KT 10SM BKN020 BKN026 OVC048 26/20 A2997 RMK AO2 T02600200,,,2000.0,,,68.01,,N,29.32,27.72,,Overcast
KIGQ,08/16/2018 16:35 UTC,29.97,78.8,67.46,68.32,0.0,0.0,,,,,,202.0,484.0,,,10.0,,KIGQ 161635Z AUTO 00000KT 10SM SCT020 OVC048 26/20 A2997 RMK AO2  T02600197,,,4800.0,,,67.47,,N,29.32,27.76,,Overcast
KIGQ,08/16/2018 16:55 UTC,29.96,80.42,67.28,64.39,0.0,0.0,,,,,,243.0,483.0,,,10.0,,KIGQ 161655Z AUTO 00000KT 10SM BKN024 BKN048 27/20 A2996 RMK AO2  T02690196,,,2400.0,,,67.29,,N,29.31,27.74,82.88,Mostly Cloudy
KIGQ,08/16/2018 17:15 UTC,29.96,79.7,66.74,64.71,0.0,0.0,,,,,,283.0,503.0,,,10.0,,KIGQ 161715Z AUTO 00000KT 10SM BKN028 BKN050 27/19 A2996 RMK AO2  T02650193,,,2800.0,,,66.75,,N,29.31,27.79,,Mostly Cloudy
KIGQ,08/16/2018 17:35 UTC,29.96,80.6,66.2,61.67,0.0,0.0,,,,,,314.0,,,,10.0,,KIGQ 161735Z AUTO 00000KT 10SM OVC031 27/19 A2996 RMK AO2  T02700190,,,3100.0,,,66.22,,N,29.31,27.81,82.77,Overcast
KIGQ,08/16/2018 17:55 UTC,29.96,80.42,66.92,63.6,0.0,0.0,,,,,,312.0,483.0,,,10.0,,KIGQ 161755Z AUTO 00000KT 10SM SCT031 BKN048 27/19 A2996 RMK AO2  T02690194 10272 20211,80.96,69.98,4800.0,,,66.94,,N,29.31,27.76,82.77,Mostly Cloudy
KIGQ,08/16/2018 18:15 UTC,29.95,82.22,66.56,59.25,0.0,0.0,,,,,,322.0,483.0,,,10.0,,KIGQ 161815Z AUTO 00000KT 10SM SCT032 BKN048 28/19 A2995 RMK AO2  T02790192,,,4800.0,,,66.59,,N,29.3,27.76,84.6,Mostly Cloudy
KIGQ,08/16/2018 18:35 UTC,29.95,81.86,66.2,59.2,0.0,0.0,,,,,,323.0,484.0,,,10.0,,KIGQ 161835Z AUTO 00000KT 10SM BKN032 OVC048 28/19 A2995 RMK AO2  T02770190,,,3200.0,,,66.23,,N,29.3,27.79,84.09,Overcast
KIGQ,08/16/2018 18:55 UTC,29.95,81.5,66.38,60.27,0.0,0.0,,,,,,323.0,493.0,,,10.0,,KIGQ 161855Z AUTO 00000KT 10SM BKN032 BKN049 28/19 A2995 RMK AO2  T02750191,,,3200.0,,,66.4,,N,29.3,27.78,83.77,Mostly Cloudy
KIGQ,08/16/2018 19:15 UTC,29.94,84.38,66.56,55.27,3.44,50.0,,,,,,493.0,,,,10.0,,KIGQ 161915Z AUTO 05003KT 10SM BKN049 29/19 A2994 RMK AO2  T02910192,,,4900.0,,,66.61,,NE,29.29,27.72,86.89,Mostly Cloudy
KIGQ,08/16/2018 19:35 UTC,29.94,83.48,66.92,57.6,5.75,30.0,,,494.0,,,362.0,422.0,,,10.0,,KIGQ 161935Z AUTO 03005KT 10SM SCT036 SCT042 OVC049 29/19 A2994 RMK AO2 T02860194,,,4900.0,,,66.96,,NNE,29.29,27.71,86.1,Overcast
KIGQ,08/16/2018 19:55 UTC,29.93,82.58,67.46,60.41,5.75,30.0,,,494.0,,,362.0,423.0,,,10.0,,KIGQ 161955Z AUTO 03005KT 10SM SCT036 BKN042 OVC049 28/20 A2993 RMK AO2 T02810197,,,4200.0,,,67.49,,NNE,29.28,27.67,85.36,Overcast
KIGQ,08/16/2018 20:15 UTC,29.93,83.48,67.64,59.05,4.61,20.0,,,,,,402.0,492.0,,,10.0,,KIGQ 162015Z AUTO 02004KT 10SM SCT040 SCT049 29/20 A2993 RMK AO2  T02860198,,,,,,67.68,,NNE,29.28,27.65,86.44,Partly Cloudy
KIGQ,08/16/2018 20:35 UTC,29.93,83.84,67.46,58.01,5.75,20.0,,,,,,382.0,492.0,,,10.0,,KIGQ 162035Z AUTO 02005KT 10SM SCT038 SCT049 29/20 A2993 RMK AO2  T02880197,,,,,,67.5,,NNE,29.28,27.66,86.75,Partly Cloudy
KIGQ,08/16/2018 20:55 UTC,29.93,83.12,67.28,59.0,0.0,0.0,,,493.0,,,362.0,443.0,,,10.0,,KIGQ 162055Z AUTO 00000KT 10SM SCT036 BKN044 BKN049 28/20 A2993 RMK AO2 T02840196,,,4400.0,,,67.32,,N,29.28,27.68,85.88,Mostly Cloudy
KIGQ,08/16/2018 21:15 UTC,29.92,83.84,67.28,57.65,4.61,50.0,,,,,,432.0,,,,10.0,,KIGQ 162115Z AUTO 05004KT 10SM SCT043 29/20 A2992 RMK AO2  T02880196,,,,,,67.32,,NE,29.27,27.66,86.66,Partly Cloudy
KIGQ,08/16/2018 21:35 UTC,29.91,82.4,67.64,61.14,6.91,60.0,,,,,,402.0,,,,10.0,,KIGQ 162135Z AUTO 06006KT 10SM SCT040 28/20 A2991 RMK AO2  T02800198,,,,,,67.67,,ENE,29.26,27.64,85.24,Partly Cloudy
KIGQ,08/16/2018 21:55 UTC,29.91,82.94,67.28,59.35,5.75,60.0,,,,,,402.0,,,,10.0,,KIGQ 162155Z AUTO 06005KT 10SM SCT040 28/20 A2991 RMK AO2  T02830196,,,,,,67.32,,ENE,29.26,27.66,85.68,Partly Cloudy
KIGQ,08/16/2018 22:15 UTC,29.91,83.12,67.46,59.37,8.05,40.0,,,,,,1.0,,,,10.0,,KIGQ 162215Z AUTO 04007KT 10SM CLR 28/20 A2991 RMK AO2  T02840197,,,,,,67.5,,NE,29.26,27.64,85.96,Clear
KIGQ,08/16/2018 22:35 UTC,29.91,81.68,66.74,60.67,6.91,60.0,,,,,,1.0,,,,10.0,,KIGQ 162235Z AUTO 06006KT 10SM CLR 28/19 A2991 RMK AO2  T02760193,,,,,,66.76,,ENE,29.26,27.71,84.09,Clear
KIGQ,08/16/2018 22:55 UTC,29.93,80.78,66.2,61.31,4.61,50.0,,,,,,1.0,,,,10.0,,KIGQ 162255Z AUTO 05004KT 10SM CLR 27/19 A2993 RMK AO2  T02710190,,,,,,66.22,,NE,29.28,27.78,82.96,Clear
KIGQ,08/16/2018 23:15 UTC,29.93,81.5,66.02,59.53,4.61,50.0,,,,,,1.0,,,,10.0,,KIGQ 162315Z AUTO 05004KT 10SM CLR 28/19 A2993 RMK AO2  T02750189,,,,,,66.05,,NE,29.28,27.78,83.65,Clear
KIGQ,08/16/2018 23:35 UTC,29.93,79.7,66.2,63.51,5.75,40.0,,,,,,1.0,,,,10.0,,KIGQ 162335Z AUTO 04005KT 10SM CLR 27/19 A2993 RMK AO2  T02650190,,,,,,66.21,,NE,29.28,27.79,,Clear
KIGQ,08/16/2018 23:55 UTC,29.92,79.16,65.48,63.05,5.75,50.0,,,,,,1.0,,,,10.0,,KIGQ 162355Z AUTO 05005KT 10SM CLR 26/19 A2992 RMK AO2 T02620186  10296 20262,85.28,79.16,,,,65.49,,NE,29.27,27.84,,Clear
KIGQ,08/17/2018 00:15 UTC,29.93,78.08,64.58,63.31,4.61,50.0,,,,,,1.0,,,,10.0,,KIGQ 170015Z AUTO 05004KT 10SM CLR 26/18 A2993 RMK AO2  T02560181,,,,,,64.58,,NE,29.28,27.92,,Clear
KIGQ,08/17/2018 00:35 UTC,29.92,77.18,64.58,65.22,5.75,70.0,,,,,,1.0,,,,10.0,,KIGQ 170035Z AUTO 07005KT 10SM CLR 25/18 A2992 RMK AO2  T02510181,,,,,,64.58,,ENE,29.27,27.92,,Clear
KIGQ,08/17/2018 00:55 UTC,29.92,76.28,66.2,71.08,4.61,40.0,,,,,,1.0,,,,10.0,,KIGQ 170055Z AUTO 04004KT 10SM CLR 25/19 A2992 RMK AO2 LTG DSNT NW  T02460190,,,,,,66.19,,NE,29.27,27.82,,Clear
KIGQ,08/17/2018 01:15 UTC,29.93,75.38,66.92,75.08,0.0,0.0,,,,,,1.0,,,,10.0,,KIGQ 170115Z AUTO 00000KT 10SM CLR 24/19 A2993 RMK AO2 LTG DSNT NW  T02410194,,,,,,66.91,,N,29.28,27.8,,Clear
KIGQ,08/17/2018 01:35 UTC,29.93,75.2,66.74,75.06,3.44,80.0,,,,,,1.0,,,,10.0,,KIGQ 170135Z AUTO 08003KT 10SM CLR 24/19 A2993 RMK AO2  T02400193,,,,,,66.73,,E,29.28,27.81,,Clear
KIGQ,08/17/2018 01:55 UTC,29.94,75.2,67.28,76.47,0.0,0.0,,,,,,1.0,,,,10.0,,KIGQ 170155Z AUTO 00000KT 10SM CLR 24/20 A2994 RMK AO2 LTG DSNT NW  T02400196,,,,,,67.27,,N,29.29,27.78,,Clear
KIGQ,08/17/2018 02:15 UTC,29.95,74.48,67.46,78.82,0.0,0.0,,,,,,1.0,,,,10.0,,KIGQ 170215Z AUTO 00000KT 10SM CLR 24/20 A2995 RMK AO2  T02360197,,,,,,67.45,,N,29.3,27.79,,Clear
KIGQ,08/17/2018 02:35 UTC,29.94,74.3,67.82,80.28,0.0,0.0,,,,,,1.0,,,,10.0,,KIGQ 170235Z AUTO 00000KT 10SM CLR 24/20 A2994 RMK AO2  T02350199,,,,,,67.81,,N,29.29,27.76,,Clear
KIGQ,08/17/2018 02:55 UTC,29.94,73.4,67.46,81.72,4.61,80.0,,,,,,1.0,,,,10.0,,KIGQ 170255Z AUTO 08004KT 10SM CLR 23/20 A2994 RMK AO2  T02300197,,,,,,67.45,,E,29.29,27.8,,Clear
KIGQ,08/17/2018 03:15 UTC,29.95,73.58,68.18,83.26,0.0,0.0,,,,,,1.0,,,,10.0,,KIGQ 170315Z AUTO 00000KT 10SM CLR 23/20 A2995 RMK AO2  T02310201,,,,,,68.17,,N,29.3,27.75,,Clear
KIGQ,08/17/2018 03:35 UTC,29.96,72.86,68.0,84.78,3.44,100.0,,,,,,1.0,,,,10.0,,KIGQ 170335Z AUTO 10003KT 10SM CLR 23/20 A2996 RMK AO2  T02270200,,,,,,67.99,,E,29.31,27.79,,Clear
KIGQ,08/17/2018 03:55 UTC,29.96,73.76,68.9,84.83,0.0,0.0,,,903.0,,,472.0,602.0,,,10.0,,KIGQ 170355Z AUTO 00000KT 10SM SCT047 SCT060 BKN090 23/21 A2996 RMK AO2 LTG DSNT W T02320205,,,9000.0,,,68.89,,N,29.31,27.71,,Mostly Cloudy
KIGQ,08/17/2018 04:15 UTC,29.95,74.12,68.36,82.28,3.44,60.0,,,1104.0,,,452.0,903.0,,,10.0,,KIGQ 170415Z AUTO 06003KT 10SM SCT045 BKN090 OVC110 23/20 A2995 RMK AO2 LTG DSNT W T02340202,,,9000.0,,,68.35,,ENE,29.3,27.73,,Overcast
KIGQ,08/17/2018 04:35 UTC,29.94,73.76,68.0,82.25,4.61,60.0,,,,,,1102.0,,,,10.0,,KIGQ 170435Z AUTO 06004KT 10SM SCT110 23/20 A2994 RMK AO2 LTG DSNT  NW T02320200,,,,,,67.99,,ENE,29.29,27.75,,Partly Cloudy
KIGQ,08/17/2018 04:55 UTC,29.95,73.76,68.0,82.25,0.0,0.0,,,902.0,,,502.0,702.0,,,10.0,,KIGQ 170455Z AUTO 00000KT 10SM SCT050 SCT070 SCT090 23/20 A2995 RMK AO2 T02320200,,,,,,67.99,,N,29.3,27.76,,Partly Cloudy
KIGQ,08/17/2018 05:15 UTC,29.94,73.76,68.18,82.76,0.0,0.0,,,704.0,,,452.0,503.0,,,10.0,,KIGQ 170515Z AUTO 00000KT 10SM SCT045 BKN050 OVC070 23/20 A2994 RMK AO2 LTG DSNT W T02320201,,,5000.0,,,68.17,,N,29.29,27.74,,Overcast
KIGQ,08/17/2018 05:35 UTC,29.94,73.58,68.18,83.26,3.44,80.0,,,,,,502.0,703.0,,,10.0,,KIGQ 170535Z AUTO 08003KT 10SM SCT050 BKN070 23/20 A2994 RMK AO2  LTG DSNT NW T02310201,,,7000.0,,,68.17,,E,29.29,27.74,,Mostly Cloudy
KIGQ,08/17/2018 05:55 UTC,29.94,73.76,68.18,82.76,0.0,0.0,,,803.0,,,482.0,703.0,,,10.0,,KIGQ 170555Z AUTO 00000KT 10SM SCT048 BKN070 BKN080 23/20 A2994 RMK AO2 LTG DSNT SW AND NW T02320201 10262 20227  402960210,79.16,72.86,7000.0,85.28,69.8,68.17,,N,29.29,27.74,,Mostly Cloudy
KIGQ,08/17/2018 06:15 UTC,29.95,73.58,67.1,80.23,8.05,290.0,11.5,,654.0,,,212.0,403.0,,,10.0,,KIGQ 170615Z AUTO 29007G10KT 10SM SCT021 BKN040 OVC065 23/20 A2995 RMK AO2 LTG DSNT SW AND NW T02310195,,,4000.0,,,67.09,,WNW,29.3,27.83,,Overcast
KIGQ,08/17/2018 06:35 UTC,29.96,70.88,67.28,88.42,6.91,310.0,,78.0,434.0,0.17,,212.0,303.0,,,4.0,,KIGQ 170635Z AUTO 31006KT 4SM +TSRA SCT021 BKN030 OVC043 22/20  A2996 RMK AO2 LTG DSNT ALQS P0017 T02160196,,,3000.0,,,67.27,,NW,29.31,27.86,,Heavy Rain/Thunderstorm
KIGQ,08/17/2018 06:55 UTC,29.96,69.98,67.28,91.17,0.0,0.0,,66.0,1004.0,0.23,,252.0,553.0,,,7.0,,KIGQ 170655Z AUTO 00000KT 7SM TSRA SCT025 BKN055 OVC100 21/20  A2996 RMK AO2 LTG DSNT N AND SE P0023 T02110196,,,5500.0,,,67.27,,N,29.31,27.88,,Thunderstorm
KIGQ,08/17/2018 07:15 UTC,29.94,69.44,67.82,94.6,3.44,350.0,,1.0,,0.02,,902.0,1104.0,,,5.0,,KIGQ 170715Z AUTO 35003KT 5SM RA SCT090 OVC110 21/20 A2994 RMK AO2  LTG DSNT NE AND E P0002 T02080199,,,11000.0,,,67.81,,N,29.29,27.83,,Rain
KIGQ,08/17/2018 07:35 UTC,29.91,69.08,68.0,96.37,5.75,20.0,,1.0,,0.05,,852.0,1104.0,,,7.0,,KIGQ 170735Z AUTO 02005KT 7SM RA SCT085 OVC110 21/20 A2991 RMK AO2  LTG DSNT NE AND SE P0005 T02060200,,,11000.0,,,68.0,,NNE,29.26,27.79,,Rain
KIGQ,08/17/2018 07:55 UTC,29.9,68.72,66.92,94.0,5.75,30.0,,13.0,,0.05,,852.0,1203.0,,,10.0,,KIGQ 170755Z AUTO 03005KT 10SM -RA SCT085 BKN120 20/19 A2990 RMK AO2 LTG DSNT SE P0005 T02040194,,,12000.0,,,66.91,,NNE,29.25,27.86,,Light Rain
KIGQ,08/17/2018 08:15 UTC,29.91,68.9,67.1,94.01,0.0,0.0,,,,,,1202.0,,,,10.0,,KIGQ 170815Z AUTO 00000KT 10SM SCT120 21/20 A2991 RMK AO2 LTG DSNT  NE AND S T02050195,,,,,,67.09,,N,29.26,27.85,,Partly Cloudy
KIGQ,08/17/2018 08:35 UTC,29.93,69.08,67.64,95.18,3.44,180.0,,,,,,63.0,1203.0,,,10.0,,KIGQ 170835Z AUTO 18003KT 10SM BKN006 BKN120 21/20 A2993 RMK AO2  LTG DSNT S T02060198,,,600.0,,,67.63,,S,29.28,27.83,,Mostly Cloudy
KIGQ,08/17/2018 08:55 UTC,29.94,69.08,68.18,96.96,0.0,0.0,,,,,0.28,64.0,,,,7.0,,KIGQ 170855Z AUTO 00000KT 7SM OVC006 21/20 A2994 RMK AO2 LTG DSNT  NE 60028 T02060201,,,600.0,,,68.18,,N,29.29,27.81,,Overcast
KIGQ,08/17/2018 09:15 UTC,29.94,68.9,68.0,96.96,0.0,0.0,,31.0,,,,64.0,,,,5.0,,KIGQ 170915Z AUTO 00000KT 5SM BR OVC006 21/20 A2994 RMK AO2  T02050200,,,600.0,,,68.0,,N,29.29,27.82,,Mist
KIGQ,08/17/2018 09:35 UTC,29.94,68.36,67.64,97.56,3.44,210.0,,31.0,,,,83.0,,,,4.0,,KIGQ 170935Z AUTO 21003KT 4SM BR BKN008 20/20 A2994 RMK AO2  T02020198,,,800.0,,,67.64,,SSW,29.29,27.85,,Mist
KIGQ,08/17/2018 09:55 UTC,29.94,68.18,67.82,98.77,0.0,0.0,,31.0,,,,82.0,1203.0,,,5.0,,KIGQ 170955Z AUTO 00000KT 5SM BR SCT008 BKN120 20/20 A2994 RMK AO2  LTG DSNT SE T02010199,,,12000.0,,,67.82,,N,29.29,27.84,,Mist
KIGQ,08/17/2018 10:15 UTC,29.95,68.0,67.64,98.77,6.91,230.0,,31.0,,,,1103.0,,,,4.0,,KIGQ 171015Z AUTO 23006KT 4SM BR BKN110 20/20 A2995 RMK AO2  T02000198,,,11000.0,,,67.64,,SW,29.3,27.87,,Mist
KIGQ,08/17/2018 10:35 UTC,29.95,67.64,67.1,98.16,5.75,210.0,,,,,,93.0,1104.0,,,7.0,,KIGQ 171035Z AUTO 21005KT 7SM BKN009 OVC110 20/20 A2995 RMK AO2  T01980195,,,900.0,,,67.1,,SSW,29.3,27.91,,Overcast
KIGQ,08/17/2018 10:55 UTC,29.96,67.46,66.74,97.55,4.61,240.0,,,,,,94.0,,,,10.0,,KIGQ 171055Z AUTO 24004KT 10SM OVC009 20/19 A2996 RMK AO2  T01970193,,,900.0,,,66.74,,WSW,29.31,27.95,,Overcast
KIGQ,08/17/2018 11:15 UTC,29.96,67.28,66.38,96.94,3.44,230.0,,,,,,94.0,,,,10.0,,KIGQ 171115Z AUTO 23003KT 10SM OVC009 20/19 A2996 RMK AO2  T01960191,,,900.0,,,66.38,,SW,29.31,27.97,,Overcast
KIGQ,08/17/2018 11:35 UTC,29.96,67.28,66.38,96.94,3.44,240.0,,,,,,93.0,364.0,,,10.0,,KIGQ 171135Z AUTO 24003KT 10SM BKN009 OVC036 20/19 A2996 RMK AO2  T01960191,,,900.0,,,66.38,,WSW,29.31,27.97,,Overcast
KIGQ,08/17/2018 11:55 UTC,29.96,67.82,66.74,96.35,5.75,240.0,,,364.0,,,72.0,242.0,0.28,0.28,10.0,,KIGQ 171155Z AUTO 24005KT 10SM SCT007 SCT024 OVC036 20/19 A2996 RMK AO2 60028 70028 T01990193 10233 20195,73.94,67.1,3600.0,,,66.74,,WSW,29.31,27.94,,Overcast
KIGQ,08/17/2018 12:15 UTC,29.95,68.18,66.92,95.76,0.0,0.0,,,1204.0,,,243.0,333.0,,,10.0,,KIGQ 171215Z AUTO 00000KT 10SM BKN024 BKN033 OVC120 20/19 A2995 RMK AO2 LTG DSNT E T02010194,,,2400.0,,,66.92,,N,29.3,27.91,,Overcast
KIGQ,08/17/2018 12:35 UTC,29.95,68.9,66.56,92.27,0.0,0.0,,31.0,1203.0,,,222.0,852.0,,,5.0,,KIGQ 171235Z AUTO 00000KT 5SM BR SCT022 SCT085 BKN120 21/19 A2995 RMK AO2 T02050192,,,12000.0,,,66.55,,N,29.3,27.93,,Mist
KIGQ,08/17/2018 12:55 UTC,29.95,68.9,66.74,92.85,0.0,0.0,,13.0,1104.0,,,332.0,753.0,,,2.5,,KIGQ 171255Z AUTO 00000KT 2 1/2SM -RA SCT033 BKN075 OVC110 21/19  A2995 RMK AO2 T02050193,,,7500.0,,,66.73,,N,29.3,27.92,,Light Rain
KIGQ,08/17/2018 13:15 UTC,29.96,69.62,67.28,92.29,3.44,210.0,,13.0,1203.0,,,382.0,502.0,,,2.5,,KIGQ 171315Z AUTO 21003KT 2 1/2SM -RA SCT038 SCT050 BKN120 21/20  A2996 RMK AO2 T02090196,,,12000.0,,,67.27,,SSW,29.31,27.88,,Light Rain
KIGQ,08/17/2018 13:35 UTC,29.96,69.26,67.28,93.43,0.0,0.0,,13.0,1204.0,,,322.0,493.0,,,5.0,,KIGQ 171335Z AUTO 00000KT 5SM -RA SCT032 BKN049 OVC120 21/20 A2996 RMK AO2 T02070196,,,4900.0,,,67.27,,N,29.31,27.89,,Light Rain
KIGQ,08/17/2018 13:55 UTC,29.96,69.8,67.82,93.45,0.0,0.0,,17.0,473.0,,,272.0,332.0,,,10.0,,KIGQ 171355Z AUTO 00000KT 10SM -DZ SCT027 SCT033 BKN047 21/20  A2996 RMK AO2 T02100199,,,4700.0,,,67.81,,N,29.31,27.84,,Light Drizzle
KIGQ,08/17/2018 14:15 UTC,29.96,70.16,68.18,93.46,4.61,120.0,,,,,,233.0,,,,10.0,,KIGQ 171415Z AUTO 12004KT 10SM BKN023 21/20 A2996 RMK AO2 LTG DSNT  N T02120201,,,2300.0,,,68.17,,ESE,29.31,27.81,,Mostly Cloudy
KIGQ,08/17/2018 14:35 UTC,29.96,70.7,68.0,91.19,0.0,0.0,,,,,,233.0,274.0,,,10.0,,KIGQ 171435Z AUTO 00000KT 10SM BKN023 OVC027 22/20 A2996 RMK AO2  T02150200,,,2300.0,,,67.99,,N,29.31,27.82,,Overcast
KIGQ,08/17/2018 14:55 UTC,29.96,71.6,67.28,86.29,0.0,0.0,,,,,,163.0,224.0,,,10.0,,KIGQ 171455Z AUTO 00000KT 10SM BKN016 OVC022 22/20 A2996 RMK AO2  LTG DSNT N T02200196,,,1600.0,,,67.27,,N,29.31,27.85,,Overcast
KIGQ,08/17/2018 15:15 UTC,29.96,72.5,67.46,84.23,0.0,0.0,,,,,,163.0,234.0,,,10.0,,KIGQ 171515Z AUTO 00000KT 10SM BKN016 OVC023 23/20 A2996 RMK AO2  LTG DSNT N AND E T02250197,,,1600.0,,,67.45,,N,29.31,27.83,,Overcast
KIGQ,08/17/2018 15:35 UTC,29.96,73.04,68.36,85.31,5.75,210.0,,,,,,163.0,254.0,,,10.0,,KIGQ 171535Z AUTO 21005KT 10SM BKN016 OVC025 23/20 A2996 RMK AO2  LTG DSNT N T02280202,,,1600.0,,,68.35,,SSW,29.31,27.76,,Overcast
KIGQ,08/17/2018 15:55 UTC,29.96,72.68,68.36,86.35,5.75,210.0,,,,,,164.0,,,,10.0,,KIGQ 171555Z AUTO 21005KT 10SM OVC016 23/20 A2996 RMK AO2  T02260202,,,1600.0,,,68.35,,SSW,29.31,27.76,,Overcast
KIGQ,08/17/2018 16:15 UTC,29.96,72.5,67.64,84.75,5.75,220.0,,,,,,143.0,224.0,,,10.0,,KIGQ 171615Z AUTO 22005KT 10SM BKN014 OVC022 23/20 A2996 RMK AO2  T02250198,,,1400.0,,,67.63,,SW,29.31,27.82,,Overcast
KIGQ,08/17/2018 16:35 UTC,29.97,72.5,68.18,86.34,3.44,220.0,,,,,,144.0,,,,10.0,,KIGQ 171635Z AUTO 22003KT 10SM OVC014 23/20 A2997 RMK AO2  T02250201,,,1400.0,,,68.17,,SW,29.32,27.79,,Overcast
KIGQ,08/17/2018 16:55 UTC,29.97,72.5,68.0,85.81,5.75,240.0,,13.0,,,,144.0,,,,10.0,,KIGQ 171655Z AUTO 24005KT 10SM -RA OVC014 23/20 A2997 RMK AO2  T02250200,,,1400.0,,,67.99,,WSW,29.32,27.8,,Light Rain
KIGQ,08/17/2018 17:15 UTC,29.97,73.04,68.36,85.31,3.44,250.0,,13.0,,,,164.0,,,,10.0,,KIGQ 171715Z AUTO 25003KT 10SM -RA OVC016 23/20 A2997 RMK AO2  T02280202,,,1600.0,,,68.35,,WSW,29.32,27.77,,Light Rain
KIGQ,08/17/2018 17:35 UTC,29.98,73.4,68.0,83.25,5.75,220.0,,,803.0,,,162.0,202.0,,,10.0,,KIGQ 171735Z AUTO 22005KT 10SM SCT016 SCT020 BKN080 23/20 A2998 RMK AO2 T02300200,,,8000.0,,,67.99,,SW,29.33,27.8,,Mostly Cloudy
KIGQ,08/17/2018 17:55 UTC,29.97,73.76,68.72,84.31,4.61,240.0,,,802.0,,,142.0,202.0,,,10.0,,KIGQ 171755Z AUTO 24004KT 10SM SCT014 SCT020 SCT080 23/20 A2997 RMK AO2 T02320204 10232 20199,73.76,67.82,,,,68.71,,WSW,29.32,27.73,,Partly Cloudy
KIGQ,08/17/2018 18:15 UTC,29.98,74.3,68.36,81.78,3.44,280.0,,,,,,142.0,,,,10.0,,KIGQ 171815Z AUTO 28003KT 10SM SCT014 24/20 A2998 RMK AO2  T02350202,,,,,,68.35,,W,29.33,27.76,,Partly Cloudy
KIGQ,08/17/2018 18:35 UTC,29.97,75.56,68.9,79.88,0.0,0.0,,13.0,252.0,,,142.0,192.0,,,10.0,,KIGQ 171835Z AUTO 00000KT 10SM -RA SCT014 SCT019 SCT025 24/21  A2997 RMK AO2 T02420205,,,,,,68.89,,N,29.32,27.7,,Light Rain
KIGQ,08/17/2018 18:55 UTC,29.96,77.0,68.18,74.3,3.44,260.0,,,,,,142.0,1102.0,,,10.0,,KIGQ 171855Z AUTO 26003KT 10SM SCT014 SCT110 25/20 A2996 RMK AO2  T02500201,,,,,,68.18,,W,29.31,27.72,,Partly Cloudy
KIGQ,08/17/2018 19:15 UTC,29.96,78.98,68.72,70.92,0.0,0.0,,,,,,1.0,,,,10.0,,KIGQ 171915Z AUTO 00000KT 10SM CLR 26/20 A2996 RMK AO2  T02610204,,,,,,68.73,,N,29.31,27.65,,Clear
KIGQ,08/17/2018 19:35 UTC,29.95,79.16,67.64,67.94,0.0,0.0,,,,,,212.0,,,,10.0,,KIGQ 171935Z AUTO 00000KT 10SM SCT021 26/20 A2995 RMK AO2  T02620198,,,,,,67.65,,N,29.3,27.72,,Partly Cloudy
KIGQ,08/17/2018 19:55 UTC,29.94,78.44,67.82,69.99,0.0,0.0,,,,,,252.0,,,,10.0,,KIGQ 171955Z AUTO 00000KT 10SM SCT025 26/20 A2994 RMK AO2 LTG DSNT  S T02580199,,,,,,67.82,,N,29.29,27.71,,Partly Cloudy
KIGQ,08/17/2018 20:15 UTC,29.94,79.34,67.82,67.96,3.44,190.0,,,,,,253.0,,,,10.0,,KIGQ 172015Z AUTO 19003KT 10SM BKN025 26/20 A2994 RMK AO2  T02630199,,,2500.0,,,67.83,,S,29.29,27.69,,Mostly Cloudy
KIGQ,08/17/2018 20:35 UTC,29.94,80.42,67.82,65.6,0.0,0.0,,,413.0,,,283.0,343.0,,,10.0,,KIGQ 172035Z AUTO 00000KT 10SM BKN028 BKN034 BKN041 27/20 A2994 RMK AO2 T02690199,,,2800.0,,,67.83,,N,29.29,27.68,83.04,Mostly Cloudy
KIGQ,08/17/2018 20:55 UTC,29.94,80.42,66.92,63.6,5.75,190.0,,,,,,284.0,,,,10.0,,KIGQ 172055Z AUTO 19005KT 10SM OVC028 27/19 A2994 RMK AO2  T02690194,,,2800.0,,,66.94,,S,29.29,27.74,82.77,Overcast
KIGQ,08/17/2018 21:15 UTC,29.93,80.78,67.28,63.64,0.0,0.0,,,403.0,,,283.0,343.0,,,10.0,,KIGQ 172115Z AUTO 00000KT 10SM BKN028 BKN034 BKN040 27/20 A2993 RMK AO2 T02710196,,,2800.0,,,67.3,,N,29.28,27.7,83.29,Mostly Cloudy
KIGQ,08/17/2018 21:35 UTC,29.93,78.98,68.0,69.19,0.0,0.0,,,803.0,,,322.0,602.0,,,10.0,,KIGQ 172135Z AUTO 00000KT 10SM SCT032 SCT060 BKN080 26/20 A2993 RMK AO2 T02610200,,,8000.0,,,68.01,,N,29.28,27.68,,Mostly Cloudy
KIGQ,08/17/2018 21:55 UTC,29.94,77.9,68.9,73.93,5.75,70.0,,,803.0,,,362.0,432.0,,,10.0,,KIGQ 172155Z AUTO 07005KT 10SM SCT036 SCT043 BKN080 26/21 A2994 RMK AO2 T02550205,,,8000.0,,,68.9,,ENE,29.29,27.63,,Mostly Cloudy
KIGQ,08/17/2018 22:15 UTC,29.94,77.0,68.54,75.23,9.22,50.0,,,,,,1202.0,,,,10.0,,KIGQ 172215Z AUTO 05008KT 10SM SCT120 25/20 A2994 RMK AO2  T02500203,,,,,,68.54,,NE,29.29,27.67,,Partly Cloudy
KIGQ,08/17/2018 22:35 UTC,29.95,76.1,68.54,77.5,9.22,40.0,,13.0,,,,702.0,1103.0,,,10.0,,KIGQ 172235Z AUTO 04008KT 10SM -RA SCT070 BKN110 25/20 A2995 RMK AO2 LTG DSNT W T02450203,,,11000.0,,,68.53,,NE,29.3,27.69,,Light Rain
KIGQ,08/17/2018 22:55 UTC,29.95,75.38,68.54,79.38,8.05,40.0,,,,,,1104.0,,,,10.0,,KIGQ 172255Z AUTO 04007KT 10SM OVC110 24/20 A2995 RMK AO2  T02410203,,,11000.0,,,68.53,,NE,29.3,27.7,,Overcast
KIGQ,08/17/2018 23:15 UTC,29.95,74.3,68.9,83.31,3.44,40.0,,1.0,1204.0,,,502.0,753.0,,,7.0,,KIGQ 172315Z AUTO 04003KT 7SM RA SCT050 BKN075 OVC120 24/21 A2995 RMK AO2 T02350205,,,7500.0,,,68.89,,NE,29.3,27.69,,Rain
KIGQ,08/17/2018 23:35 UTC,29.95,74.66,68.9,82.31,3.44,60.0,,13.0,1204.0,,,322.0,803.0,,,10.0,,KIGQ 172335Z AUTO 06003KT 10SM -RA SCT032 BKN080 OVC120 24/21  A2995 RMK AO2 T02370205,,,8000.0,,,68.89,,ENE,29.3,27.69,,Light Rain
KIGQ,08/17/2018 23:55 UTC,29.95,75.2,69.26,81.85,0.0,0.0,,,,,,1202.0,,,,10.0,,KIGQ 172355Z AUTO 00000KT 10SM SCT120 24/21 A2995 RMK AO2  T02400207 10275 20231,81.5,73.58,,,,69.25,,N,29.3,27.65,,Partly Cloudy
KIGQ,08/18/2018 00:15 UTC,29.97,74.84,68.54,80.82,0.0,0.0,,,,,,1.0,,,,10.0,,KIGQ 180015Z AUTO 00000KT 10SM CLR 24/20 A2997 RMK AO2  T02380203,,,,,,68.53,,N,29.32,27.73,,Clear
KIGQ,08/18/2018 00:35 UTC,29.97,74.3,68.36,81.78,3.44,40.0,,,,,,1.0,,,,10.0,,KIGQ 180035Z AUTO 04003KT 10SM CLR 24/20 A2997 RMK AO2  T02350202,,,,,,68.35,,NE,29.32,27.75,,Clear
KIGQ,08/18/2018 00:55 UTC,29.98,73.76,68.0,82.25,4.61,40.0,,,,,,1.0,,,,10.0,,KIGQ 180055Z AUTO 04004KT 10SM CLR 23/20 A2998 RMK AO2  T02320200,,,,,,67.99,,NE,29.33,27.79,,Clear
KIGQ,08/18/2018 01:15 UTC,29.98,73.4,68.0,83.25,3.44,60.0,,,,,,1.0,,,,10.0,,KIGQ 180115Z AUTO 06003KT 10SM CLR 23/20 A2998 RMK AO2  T02300200,,,,,,67.99,,ENE,29.33,27.8,,Clear
KIGQ,08/18/2018 01:35 UTC,29.99,72.86,68.0,84.78,3.44,20.0,,,,,,1.0,,,,10.0,,KIGQ 180135Z AUTO 02003KT 10SM CLR 23/20 A2999 RMK AO2  T02270200,,,,,,67.99,,NNE,29.34,27.82,,Clear
KIGQ,08/18/2018 01:55 UTC,29.99,73.04,68.0,84.26,0.0,0.0,,,,,,1.0,,,,10.0,,KIGQ 180155Z AUTO 00000KT 10SM CLR 23/20 A2999 RMK AO2  T02280200,,,,,,67.99,,N,29.34,27.81,,Clear
KIGQ,08/18/2018 02:15 UTC,29.99,72.5,68.0,85.81,0.0,0.0,,,,,,1.0,,,,10.0,,KIGQ 180215Z AUTO 00000KT 10SM CLR 23/20 A2999 RMK AO2  T02250200,,,,,,67.99,,N,29.34,27.82,,Clear
KIGQ,08/18/2018 02:35 UTC,29.99,72.5,68.36,86.88,3.44,40.0,,,,,,1.0,,,,10.0,,KIGQ 180235Z AUTO 04003KT 10SM CLR 23/20 A2999 RMK AO2  T02250202,,,,,,68.35,,NE,29.34,27.8,,Clear
KIGQ,08/18/2018 02:55 UTC,29.99,72.5,68.9,88.5,0.0,0.0,,,,,,1.0,,,,10.0,,KIGQ 180255Z AUTO 00000KT 10SM CLR 23/21 A2999 RMK AO2  T02250205,,,,,,68.89,,N,29.34,27.76,,Clear
KIGQ,08/18/2018 03:15 UTC,29.99,72.5,68.9,88.5,0.0,0.0,,,,,,1.0,,,,10.0,,KIGQ 180315Z AUTO 00000KT 10SM CLR 23/21 A2999 RMK AO2  T02250205,,,,,,68.89,,N,29.34,27.76,,Clear
KIGQ,08/18/2018 03:35 UTC,29.99,69.98,67.64,92.3,0.0,0.0,,,,,,1.0,,,,10.0,,KIGQ 180335Z AUTO 00000KT 10SM CLR 21/20 A2999 RMK AO2  T02110198,,,,,,67.63,,N,29.34,27.88,,Clear
KIGQ,08/18/2018 03:55 UTC,29.99,68.9,66.56,92.27,0.0,0.0,,,,,,1.0,,,,10.0,,KIGQ 180355Z AUTO 00000KT 10SM CLR 21/19 A2999 RMK AO2  T02050192,,,,,,66.55,,N,29.34,27.97,,Clear
KIGQ,08/18/2018 04:15 UTC,29.99,70.88,68.9,93.48,0.0,0.0,,,,,,1.0,,,,10.0,,KIGQ 180415Z AUTO 00000KT 10SM CLR 22/21 A2999 RMK AO2  T02160205,,,,,,68.89,,N,29.34,27.78,,Clear
KIGQ,08/18/2018 04:35 UTC,30.0,69.8,68.0,94.03,0.0,0.0,,,,,,1.0,,,,10.0,,KIGQ 180435Z AUTO 00000KT 10SM CLR 21/20 A3000 RMK AO2  T02100200,,,,,,67.99,,N,29.35,27.87,,Clear
KIGQ,08/18/2018 04:55 UTC,30.0,68.72,66.92,94.0,0.0,0.0,,,,,,1.0,,,,7.0,,KIGQ 180455Z AUTO 00000KT 7SM CLR 20/19 A3000 RMK AO2  T02040194,,,,,,66.91,,N,29.35,27.96,,Clear
KIGQ,08/18/2018 05:15 UTC,30.01,67.64,67.1,98.16,0.0,0.0,,31.0,,,,1.0,,,,5.0,,KIGQ 180515Z AUTO 00000KT 5SM BR CLR 20/20 A3001 RMK AO2  T01980195,,,,,,67.1,,N,29.36,27.97,,Mist
KIGQ,08/18/2018 05:35 UTC,30.01,68.54,67.82,97.56,0.0,0.0,,,,,,172.0,,,,7.0,,KIGQ 180535Z AUTO 00000KT 7SM SCT017 20/20 A3001 RMK AO2  T02030199,,,,,,67.82,,N,29.36,27.91,,Partly Cloudy
KIGQ,08/18/2018 05:55 UTC,30.0,68.0,67.46,98.16,0.0,0.0,,,,,,172.0,,,,7.0,,KIGQ 180555Z AUTO 00000KT 7SM SCT017 20/20 A3000 RMK AO2 T02000197  10240 20196 402750195,75.2,67.28,,81.5,67.1,67.46,,N,29.35,27.93,,Partly Cloudy
KIGQ,08/18/2018 06:15 UTC,30.0,67.82,67.46,98.77,0.0,0.0,,31.0,,,,1.0,,,,5.0,,KIGQ 180615Z AUTO 00000KT 5SM BR CLR 20/20 A3000 RMK AO2  T01990197,,,,,,67.46,,N,29.35,27.93,,Mist
KIGQ,08/18/2018 06:35 UTC,30.0,67.1,66.56,98.15,0.0,0.0,,31.0,,,,75.0,,,,1.5,,KIGQ 180635Z AUTO 00000KT 1 1/2SM BR VV007 20/19 A3000 RMK AO2 VIS  3/4V5 T01950192,,,700.0,,,66.56,,N,29.35,28.0,,Mist
KIGQ,08/18/2018 06:55 UTC,29.99,66.2,65.84,98.76,0.0,0.0,,31.0,,,,75.0,,,,1.0,,KIGQ 180655Z AUTO 00000KT 1SM BR VV007 19/19 A2999 RMK AO2  T01900188,,,700.0,,,65.84,,N,29.34,28.05,,Mist
KIGQ,08/18/2018 07:15 UTC,29.99,66.38,66.38,100.0,0.0,0.0,,9.0,,,,44.0,,,,0.5,,KIGQ 180715Z AUTO 00000KT 1/2SM FG OVC004 19/19 A2999 RMK AO2  T01910191,,,400.0,,,66.38,,N,29.34,28.02,,Fog
KIGQ,08/18/2018 07:35 UTC,29.99,67.46,67.46,100.0,0.0,0.0,,31.0,242.0,,,42.0,162.0,,,5.0,,KIGQ 180735Z AUTO 00000KT 5SM BR SCT004 SCT016 SCT024 20/20 A2999 RMK AO2 T01970197,,,,,,67.46,,N,29.34,27.93,,Mist
KIGQ,08/18/2018 07:55 UTC,29.99,67.46,67.46,100.0,0.0,0.0,,,,,,162.0,212.0,,,7.0,,KIGQ 180755Z AUTO 00000KT 7SM SCT016 SCT021 20/20 A2999 RMK AO2  T01970197,,,,,,67.46,,N,29.34,27.93,,Partly Cloudy
KIGQ,08/18/2018 08:15 UTC,29.99,68.0,67.82,99.38,0.0,0.0,,,,,,142.0,192.0,,,7.0,,KIGQ 180815Z AUTO 00000KT 7SM SCT014 SCT019 20/20 A2999 RMK AO2  T02000199,,,,,,67.82,,N,29.34,27.9,,Partly Cloudy
KIGQ,08/18/2018 08:35 UTC,29.99,68.0,67.46,98.16,0.0,0.0,,31.0,,,,172.0,222.0,,,5.0,,KIGQ 180835Z AUTO 00000KT 5SM BR SCT017 SCT022 20/20 A2999 RMK AO2  T02000197,,,,,,67.46,,N,29.34,27.92,,Mist
KIGQ,08/18/2018 08:55 UTC,30.0,67.64,67.28,98.77,0.0,0.0,,31.0,,,,172.0,,,,5.0,,KIGQ 180855Z AUTO 00000KT 5SM BR SCT017 20/20 A3000 RMK AO2  T01980196,,,,,,67.28,,N,29.35,27.95,,Mist
KIGQ,08/18/2018 09:15 UTC,30.0,66.56,66.02,98.15,0.0,0.0,,31.0,,,,162.0,,,,4.0,,KIGQ 180915Z AUTO 00000KT 4SM BR SCT016 19/19 A3000 RMK AO2  T01920189,,,,,,66.02,,N,29.35,28.05,,Mist
KIGQ,08/18/2018 09:35 UTC,30.0,66.02,65.66,98.76,0.0,0.0,,9.0,,,,32.0,144.0,,,0.5,,KIGQ 180935Z AUTO 00000KT 1/2SM FG SCT003 OVC014 19/19 A3000 RMK AO2 T01890187,,,1400.0,,,65.66,,N,29.35,28.08,,Fog
KIGQ,08/18/2018 09:55 UTC,30.0,65.66,65.48,99.38,0.0,0.0,,9.0,,,,34.0,,,,0.25,,KIGQ 180955Z AUTO 00000KT 1/4SM FG OVC003 19/19 A3000 RMK AO2  T01870186,,,300.0,,,65.48,,N,29.35,28.09,,Fog
KIGQ,08/18/2018 10:15 UTC,30.0,67.1,67.1,100.0,0.0,0.0,,31.0,,,,34.0,,,,1.5,,KIGQ 181015Z AUTO 00000KT 1 1/2SM BR OVC003 20/20 A3000 RMK AO2  VIS 1/2V3 T01950195,,,300.0,,,67.1,,N,29.35,27.97,,Mist
KIGQ,08/18/2018 10:35 UTC,30.0,66.38,66.38,100.0,0.0,0.0,,31.0,,,,32.0,,,,5.0,,KIGQ 181035Z AUTO 00000KT 5SM BR SCT003 19/19 A3000 RMK AO2  T01910191,,,,,,66.38,,N,29.35,28.03,,Mist
KIGQ,08/18/2018 10:55 UTC,30.01,64.76,64.76,100.0,0.0,0.0,,31.0,263.0,,,153.0,193.0,,,1.5,,KIGQ 181055Z AUTO 00000KT 1 1/2SM BR BKN015 BKN019 BKN026 18/18  A3001 RMK AO2 T01820182,,,1500.0,,,64.76,,N,29.36,28.16,,Mist
KIGQ,08/18/2018 11:15 UTC,30.01,65.3,65.3,100.0,0.0,0.0,,31.0,,,,153.0,263.0,,,2.5,,KIGQ 181115Z AUTO 00000KT 2 1/2SM BR BKN015 BKN026 19/19 A3001 RMK AO2 T01850185,,,1500.0,,,65.3,,N,29.36,28.12,,Mist
KIGQ,08/18/2018 11:35 UTC,30.01,65.12,65.12,100.0,0.0,0.0,,31.0,,,,152.0,,,,3.0,,KIGQ 181135Z AUTO 00000KT 3SM BR SCT015 18/18 A3001 RMK AO2  T01840184,,,,,,65.12,,N,29.36,28.13,,Mist
KIGQ,08/18/2018 11:55 UTC,30.01,65.84,65.84,100.0,0.0,0.0,,31.0,,,,153.0,223.0,,,1.75,,KIGQ 181155Z AUTO 00000KT 1 3/4SM BR BKN015 BKN022 19/19 A3001 RMK AO2 T01880188 10205 20180,68.9,64.4,1500.0,,,65.84,,N,29.36,28.08,,Mist
KIGQ,08/18/2018 12:15 UTC,30.02,67.64,67.64,100.0,0.0,0.0,,31.0,,,,153.0,223.0,,,2.5,,KIGQ 181215Z AUTO 00000KT 2 1/2SM BR BKN015 BKN022 20/20 A3002 RMK AO2 T01980198,,,1500.0,,,67.64,,N,29.37,27.95,,Mist
KIGQ,08/18/2018 12:35 UTC,30.02,69.8,69.8,100.0,0.0,0.0,,31.0,,,,153.0,,,,4.0,,KIGQ 181235Z AUTO 00000KT 4SM BR BKN015 21/21 A3002 RMK AO2  T02100210,,,1500.0,,,69.8,,N,29.37,27.76,,Mist
KIGQ,08/18/2018 12:55 UTC,30.03,71.78,71.42,98.79,0.0,0.0,,31.0,,,,153.0,,,,5.0,,KIGQ 181255Z AUTO 00000KT 5SM BR BKN015 22/22 A3003 RMK AO2  T02210219,,,1500.0,,,71.42,,N,29.38,27.62,,Mist
KIGQ,08/18/2018 13:15 UTC,30.02,73.58,70.52,90.19,0.0,0.0,,,,,,183.0,253.0,,,7.0,,KIGQ 181315Z AUTO 00000KT 7SM BKN018 BKN025 23/21 A3002 RMK AO2  T02310214,,,1800.0,,,70.51,,N,29.37,27.66,,Mostly Cloudy
KIGQ,08/18/2018 13:35 UTC,30.02,74.66,69.98,85.41,0.0,0.0,,,,,,183.0,253.0,,,10.0,,KIGQ 181335Z AUTO 00000KT 10SM BKN018 BKN025 24/21 A3002 RMK AO2  T02370211,,,1800.0,,,69.98,,N,29.37,27.68,,Mostly Cloudy
KIGQ,08/18/2018 13:55 UTC,30.03,75.2,68.54,79.86,6.91,360.0,,,,,,183.0,,,,10.0,,KIGQ 181355Z AUTO 36006KT 10SM BKN018 24/20 A3003 RMK AO2  T02400203,,,1800.0,,,68.53,,N,29.38,27.79,,Mostly Cloudy
KIGQ,08/18/2018 14:15 UTC,30.03,75.2,68.0,78.39,9.22,360.0,,,,,,232.0,302.0,,,10.0,,KIGQ 181415Z AUTO 36008KT 10SM SCT023 SCT030 24/20 A3003 RMK AO2  T02400200,,,,,,67.99,,N,29.38,27.83,,Partly Cloudy
KIGQ,08/18/2018 14:35 UTC,30.03,76.1,67.64,75.14,4.61,10.0,,,,,,233.0,303.0,,,10.0,,KIGQ 181435Z AUTO 01004KT 10SM BKN023 BKN030 25/20 A3003 RMK AO2  T02450198,,,2300.0,,,67.63,,N,29.38,27.84,,Mostly Cloudy
KIGQ,08/18/2018 14:55 UTC,30.03,76.46,67.64,74.25,8.05,360.0,,,372.0,,,252.0,302.0,,,10.0,,KIGQ 181455Z AUTO 36007KT 10SM SCT025 SCT030 SCT037 25/20 A3003 RMK AO2 T02470198,,,,,,67.63,,N,29.38,27.83,,Partly Cloudy
KIGQ,08/18/2018 15:15 UTC,30.03,76.82,67.28,72.47,8.05,10.0,,,,,,252.0,352.0,,,10.0,,KIGQ 181515Z AUTO 01007KT 10SM SCT025 SCT035 25/20 A3003 RMK AO2  T02490196,,,,,,67.28,,N,29.38,27.86,,Partly Cloudy
KIGQ,08/18/2018 15:35 UTC,30.03,77.9,66.56,68.22,3.44,20.0,,,,,,253.0,333.0,,,10.0,,KIGQ 181535Z AUTO 02003KT 10SM BKN025 BKN033 26/19 A3003 RMK AO2  T02550192,,,2500.0,,,66.56,,NNE,29.38,27.89,,Mostly Cloudy
KIGQ,08/18/2018 15:55 UTC,30.03,78.44,67.1,68.28,5.75,360.0,,,,,,233.0,353.0,,,10.0,,KIGQ 181555Z AUTO 36005KT 10SM BKN023 BKN035 26/20 A3003 RMK AO2  T02580195,,,2300.0,,,67.1,,N,29.38,27.85,,Mostly Cloudy
KIGQ,08/18/2018 16:15 UTC,30.03,78.26,65.84,65.76,4.61,20.0,,,,,,252.0,333.0,,,10.0,,KIGQ 181615Z AUTO 02004KT 10SM SCT025 BKN033 26/19 A3003 RMK AO2  T02570188,,,3300.0,,,65.84,,NNE,29.38,27.94,,Mostly Cloudy
KIGQ,08/18/2018 16:35 UTC,30.03,77.72,66.02,67.35,10.36,40.0,,,,,,272.0,,,,10.0,,KIGQ 181635Z AUTO 04009KT 10SM SCT027 25/19 A3003 RMK AO2  T02540189,,,,,,66.02,,NE,29.38,27.93,,Partly Cloudy
KIGQ,08/18/2018 16:55 UTC,30.03,77.72,65.66,66.52,8.05,10.0,,,,,,252.0,352.0,,,10.0,,KIGQ 181655Z AUTO 01007KT 10SM SCT025 SCT035 25/19 A3003 RMK AO2  T02540187,,,,,,65.66,,N,29.38,27.95,,Partly Cloudy
KIGQ,08/18/2018 17:15 UTC,30.03,78.26,64.58,62.94,5.75,10.0,,,,,,252.0,332.0,,,10.0,,KIGQ 181715Z AUTO 01005KT 10SM SCT025 SCT033 26/18 A3003 RMK AO2  T02570181,,,,,,64.58,,N,29.38,28.02,,Partly Cloudy
KIGQ,08/18/2018 17:35 UTC,30.02,78.98,64.76,61.85,11.5,50.0,,,,,,302.0,,,,10.0,,KIGQ 181735Z AUTO 05010KT 10SM SCT030 26/18 A3002 RMK AO2  T02610182,,,,,,64.76,,NE,29.37,27.99,,Partly Cloudy
KIGQ,08/18/2018 17:55 UTC,30.02,79.16,65.12,62.27,3.44,40.0,,,,,,283.0,,,,10.0,,KIGQ 181755Z AUTO 04003KT 10SM BKN028 26/18 A3002 RMK AO2  T02620184 10263 20189,79.34,66.02,2800.0,,,65.13,,NE,29.37,27.96,,Mostly Cloudy
KIGQ,08/18/2018 18:15 UTC,30.02,78.98,65.3,63.03,5.75,40.0,,,,,,263.0,333.0,,,10.0,,KIGQ 181815Z AUTO 04005KT 10SM BKN026 BKN033 26/19 A3002 RMK AO2  T02610185 PWINO,,,2600.0,,,65.31,,NE,29.37,27.95,,Mostly Cloudy
KIGQ,08/18/2018 18:35 UTC,30.01,78.26,66.56,67.41,5.75,20.0,,,474.0,,,263.0,333.0,,,10.0,,KIGQ 181835Z AUTO 02005KT 10SM BKN026 BKN033 OVC047 26/19 A3001 RMK AO2 T02570192,,,2600.0,,,66.56,,NNE,29.36,27.87,,Overcast
KIGQ,08/18/2018 18:55 UTC,30.01,78.26,66.02,66.17,6.91,10.0,,,,,,263.0,323.0,,,10.0,,KIGQ 181855Z AUTO 01006KT 10SM BKN026 BKN032 26/19 A3001 RMK AO2  T02570189,,,2600.0,,,66.02,,N,29.36,27.9,,Mostly Cloudy
KIGQ,08/18/2018 19:15 UTC,30.01,79.16,66.74,65.86,8.05,40.0,,,,,,263.0,323.0,,,10.0,,KIGQ 181915Z AUTO 04007KT 10SM BKN026 BKN032 26/19 A3001 RMK AO2  T02620193,,,2600.0,,,66.75,,NE,29.36,27.84,,Mostly Cloudy
KIGQ,08/18/2018 19:35 UTC,30.0,78.26,66.02,66.17,9.22,360.0,,,,,,263.0,322.0,,,10.0,,KIGQ 181935Z AUTO 36008KT 10SM BKN026 SCT032 26/19 A3000 RMK AO2  T02570189,,,2600.0,,,66.02,,N,29.35,27.89,,Partly Cloudy
KIGQ,08/18/2018 19:55 UTC,30.0,78.26,66.02,66.17,9.22,20.0,,,,,,262.0,,,,10.0,,KIGQ 181955Z AUTO 02008KT 10SM SCT026 26/19 A3000 RMK AO2  T02570189,,,,,,66.02,,NNE,29.35,27.89,,Partly Cloudy
KIGQ,08/18/2018 20:15 UTC,30.0,78.62,65.84,64.98,6.91,20.0,,,,,,263.0,,,,10.0,,KIGQ 182015Z AUTO 02006KT 10SM BKN026 26/19 A3000 RMK AO2  T02590188,,,2600.0,,,65.84,,NNE,29.35,27.9,,Mostly Cloudy
KIGQ,08/18/2018 20:35 UTC,30.0,77.72,65.48,66.1,9.22,350.0,,,,,,263.0,,,,10.0,,KIGQ 182035Z AUTO 35008KT 10SM BKN026 25/19 A3000 RMK AO2  T02540186,,,2600.0,,,65.48,,N,29.35,27.94,,Mostly Cloudy
KIGQ,08/18/2018 20:55 UTC,29.99,77.54,65.48,66.5,9.22,350.0,,,,,,243.0,,,,10.0,,KIGQ 182055Z AUTO 35008KT 10SM BKN024 25/19 A2999 RMK AO2  T02530186,,,2400.0,,,65.48,,N,29.34,27.93,,Mostly Cloudy
KIGQ,08/18/2018 21:15 UTC,29.99,77.36,65.66,67.31,5.75,30.0,,,,,,243.0,,,,10.0,,KIGQ 182115Z AUTO 03005KT 10SM BKN024 25/19 A2999 RMK AO2  T02520187,,,2400.0,,,65.66,,NNE,29.34,27.92,,Mostly Cloudy
KIGQ,08/18/2018 21:35 UTC,29.99,77.18,65.3,66.87,8.05,10.0,,,,,,242.0,,,,10.0,,KIGQ 182135Z AUTO 01007KT 10SM SCT024 25/19 A2999 RMK AO2  T02510185,,,,,,65.3,,N,29.34,27.94,,Partly Cloudy
KIGQ,08/18/2018 21:55 UTC,29.99,76.64,65.12,67.65,6.91,360.0,,,,,,242.0,,,,10.0,,KIGQ 182155Z AUTO 36006KT 10SM SCT024 25/18 A2999 RMK AO2  T02480184,,,,,,65.11,,N,29.34,27.96,,Partly Cloudy
KIGQ,08/18/2018 22:15 UTC,29.99,76.46,65.48,68.91,8.05,10.0,,,,,,232.0,,,,10.0,,KIGQ 182215Z AUTO 01007KT 10SM SCT023 25/19 A2999 RMK AO2  T02470186,,,,,,65.47,,N,29.34,27.94,,Partly Cloudy
KIGQ,08/18/2018 22:35 UTC,29.99,76.1,65.48,69.74,9.22,360.0,,,,,,232.0,,,,10.0,,KIGQ 182235Z AUTO 36008KT 10SM SCT023 25/19 A2999 RMK AO2  T02450186,,,,,,65.47,,N,29.34,27.95,,Partly Cloudy
KIGQ,08/18/2018 22:55 UTC,29.99,75.56,65.48,71.0,6.91,360.0,,,,,,233.0,,,,10.0,,KIGQ 182255Z AUTO 36006KT 10SM BKN023 24/19 A2999 RMK AO2  T02420186,,,2300.0,,,65.47,,N,29.34,27.95,,Mostly Cloudy
KIGQ,08/18/2018 23:15 UTC,29.98,75.2,65.66,72.31,5.75,10.0,,,,,,213.0,,,,10.0,,KIGQ 182315Z AUTO 01005KT 10SM BKN021 24/19 A2998 RMK AO2  T02400187,,,2100.0,,,65.65,,N,29.33,27.93,,Mostly Cloudy
KIGQ,08/18/2018 23:35 UTC,29.98,74.84,66.02,74.1,6.91,10.0,,,,,,213.0,,,,10.0,,KIGQ 182335Z AUTO 01006KT 10SM BKN021 24/19 A2998 RMK AO2  T02380189,,,2100.0,,,66.01,,N,29.33,27.91,,Mostly Cloudy
KIGQ,08/18/2018 23:55 UTC,29.98,74.3,65.66,74.51,6.91,40.0,,,,,,212.0,,,,10.0,,KIGQ 182355Z AUTO 04006KT 10SM SCT021 24/19 A2998 RMK AO2  T02350187 10265 20235,79.7,74.3,,,,65.65,,NE,29.33,27.95,,Partly Cloudy
KIGQ,08/19/2018 00:15 UTC,29.98,73.4,65.84,77.27,6.91,20.0,,,,,,192.0,,,,10.0,,KIGQ 190015Z AUTO 02006KT 10SM SCT019 23/19 A2998 RMK AO2  T02300188,,,,,,65.82,,NNE,29.33,27.95,,Partly Cloudy
KIGQ,08/19/2018 00:35 UTC,29.98,73.04,66.02,78.7,4.61,10.0,,,,,,1.0,,,,10.0,,KIGQ 190035Z AUTO 01004KT 10SM CLR 23/19 A2998 RMK AO2  T02280189,,,,,,66.0,,N,29.33,27.94,,Clear
KIGQ,08/19/2018 00:55 UTC,29.98,72.68,66.2,80.16,5.75,20.0,,,,,,1.0,,,,10.0,,KIGQ 190055Z AUTO 02005KT 10SM CLR 23/19 A2998 RMK AO2  T02260190,,,,,,66.19,,NNE,29.33,27.93,,Clear
KIGQ,08/19/2018 01:15 UTC,29.98,72.32,66.2,81.14,0.0,0.0,,,,,,1.0,,,,10.0,,KIGQ 190115Z AUTO 00000KT 10SM CLR 22/19 A2998 RMK AO2  T02240190,,,,,,66.19,,N,29.33,27.94,,Clear
KIGQ,08/19/2018 01:35 UTC,29.99,71.78,66.2,82.63,3.44,30.0,,,,,,1.0,,,,10.0,,KIGQ 190135Z AUTO 03003KT 10SM CLR 22/19 A2999 RMK AO2  T02210190,,,,,,66.19,,NNE,29.34,27.95,,Clear
KIGQ,08/19/2018 01:55 UTC,29.99,71.96,66.56,83.16,0.0,0.0,,,,,,162.0,,,,10.0,,KIGQ 190155Z AUTO 00000KT 10SM SCT016 22/19 A2999 RMK AO2  T02220192,,,,,,66.55,,N,29.34,27.93,,Partly Cloudy
KIGQ,08/19/2018 02:15 UTC,29.99,71.6,66.2,83.13,0.0,0.0,,,,,,162.0,,,,10.0,,KIGQ 190215Z AUTO 00000KT 10SM SCT016 22/19 A2999 RMK AO2  T02200190,,,,,,66.18,,N,29.34,27.96,,Partly Cloudy
KIGQ,08/19/2018 02:35 UTC,30.0,71.42,66.38,84.16,0.0,0.0,,,,,,162.0,,,,10.0,,KIGQ 190235Z AUTO 00000KT 10SM SCT016 22/19 A3000 RMK AO2  T02190191,,,,,,66.36,,N,29.35,27.96,,Partly Cloudy
KIGQ,08/19/2018 02:55 UTC,30.0,71.06,66.56,85.73,0.0,0.0,,,,,,162.0,,,,10.0,,KIGQ 190255Z AUTO 00000KT 10SM SCT016 22/19 A3000 RMK AO2  T02170192,,,,,,66.55,,N,29.35,27.95,,Partly Cloudy
KIGQ,08/19/2018 03:15 UTC,30.0,70.88,66.74,86.79,0.0,0.0,,,,,,182.0,,,,10.0,,KIGQ 190315Z AUTO 00000KT 10SM SCT018 22/19 A3000 RMK AO2  T02160193,,,,,,66.73,,N,29.35,27.94,,Partly Cloudy
KIGQ,08/19/2018 03:35 UTC,30.0,69.8,66.38,88.92,0.0,0.0,,,,,,1.0,,,,10.0,,KIGQ 190335Z AUTO 00000KT 10SM CLR 21/19 A3000 RMK AO2  T02100191,,,,,,66.37,,N,29.35,27.98,,Clear
KIGQ,08/19/2018 03:55 UTC,30.0,69.8,66.74,90.04,0.0,0.0,,,,,,1.0,,,,10.0,,KIGQ 190355Z AUTO 00000KT 10SM CLR 21/19 A3000 RMK AO2  T02100193,,,,,,66.73,,N,29.35,27.95,,Clear
KIGQ,08/19/2018 04:15 UTC,29.99,70.34,66.74,88.4,0.0,0.0,,,,,,1.0,,,,10.0,,KIGQ 190415Z AUTO 00000KT 10SM CLR 21/19 A2999 RMK AO2  T02130193,,,,,,66.73,,N,29.34,27.94,,Clear
KIGQ,08/19/2018 04:35 UTC,29.99,70.88,67.1,87.87,3.44,10.0,,,,,,1.0,,,,10.0,,KIGQ 190435Z AUTO 01003KT 10SM CLR 22/20 A2999 RMK AO2  T02160195,,,,,,67.09,,N,29.34,27.91,,Clear
KIGQ,08/19/2018 04:55 UTC,29.99,70.16,66.56,88.39,0.0,0.0,,,,,,1.0,,,,10.0,,KIGQ 190455Z AUTO 00000KT 10SM CLR 21/19 A2999 RMK AO2  T02120192,,,,,,66.55,,N,29.34,27.95,,Clear
KIGQ,08/19/2018 05:15 UTC,29.99,70.16,67.1,90.05,0.0,0.0,,,,,,1.0,,,,10.0,,KIGQ 190515Z AUTO 00000KT 10SM CLR 21/20 A2999 RMK AO2  T02120195,,,,,,67.09,,N,29.34,27.92,,Clear
KIGQ,08/19/2018 05:35 UTC,29.99,68.18,64.94,89.41,0.0,0.0,,,,,,1.0,,,,10.0,,KIGQ 190535Z AUTO 00000KT 10SM CLR 20/18 A2999 RMK AO2  T02010183,,,,,,64.93,,N,29.34,28.08,,Clear
KIGQ,08/19/2018 05:55 UTC,29.99,66.38,64.4,93.35,0.0,0.0,,,,,,1.0,,,,7.0,,KIGQ 190555Z AUTO 00000KT 7SM CLR 19/18 A2999 RMK AO2 T01910180  10235 20190 402650180,74.3,66.2,,79.7,64.4,64.39,,N,29.34,28.14,,Clear
KIGQ,08/19/2018 06:15 UTC,29.99,64.94,64.04,96.91,0.0,0.0,,,,,,1.0,,,,7.0,,KIGQ 190615Z AUTO 00000KT 7SM CLR 18/18 A2999 RMK AO2  T01830178,,,,,,64.03,,N,29.34,28.18,,Clear
KIGQ,08/19/2018 06:35 UTC,29.99,65.66,64.76,96.92,0.0,0.0,,,,,,1.0,,,,7.0,,KIGQ 190635Z AUTO 00000KT 7SM CLR 19/18 A2999 RMK AO2  T01870182,,,,,,64.75,,N,29.34,28.13,,Clear
KIGQ,08/19/2018 06:55 UTC,29.99,66.56,65.84,97.54,0.0,0.0,,,,,,152.0,,,,10.0,,KIGQ 190655Z AUTO 00000KT 10SM SCT015 19/19 A2999 RMK AO2  T01920188,,,,,,65.84,,N,29.34,28.05,,Partly Cloudy
KIGQ,08/19/2018 07:15 UTC,29.99,64.4,62.78,94.49,0.0,0.0,,31.0,,,,152.0,,,,5.0,,KIGQ 190715Z AUTO 00000KT 5SM BR SCT015 18/17 A2999 RMK AO2  T01800171,,,,,,62.77,,N,29.34,28.26,,Mist
KIGQ,08/19/2018 07:35 UTC,29.99,64.4,64.04,98.75,0.0,0.0,,31.0,,,,1.0,,,,4.0,,KIGQ 190735Z AUTO 00000KT 4SM BR CLR 18/18 A2999 RMK AO2  T01800178,,,,,,64.04,,N,29.34,28.19,,Mist
KIGQ,08/19/2018 07:55 UTC,29.98,64.04,63.68,98.75,0.0,0.0,,31.0,,,,1.0,,,,3.0,,KIGQ 190755Z AUTO 00000KT 3SM BR CLR 18/18 A2998 RMK AO2  T01780176,,,,,,63.68,,N,29.33,28.2,,Mist
KIGQ,08/19/2018 08:15 UTC,29.98,65.12,64.76,98.76,0.0,0.0,,9.0,,,,55.0,,,,0.5,,KIGQ 190815Z AUTO 00000KT 1/2SM FG VV005 18/18 A2998 RMK AO2  T01840182,,,500.0,,,64.76,,N,29.33,28.12,,Fog
KIGQ,08/19/2018 08:35 UTC,29.98,62.6,62.42,99.37,0.0,0.0,,31.0,,,,55.0,,,,0.75,,KIGQ 190835Z AUTO 00000KT 3/4SM BR VV005 17/17 A2998 RMK AO2 VIS  1/4V5 T01700169,,,500.0,,,62.42,,N,29.33,28.29,,Mist
KIGQ,08/19/2018 08:55 UTC,29.98,62.78,62.6,99.37,0.0,0.0,,9.0,,,,55.0,,,,0.5,,KIGQ 190855Z AUTO 00000KT 1/2SM FG VV005 17/17 A2998 RMK AO2 VIS  1/2V4 T01710170,,,500.0,,,62.6,,N,29.33,28.28,,Fog
KIGQ,08/19/2018 09:15 UTC,29.97,63.14,63.14,100.0,0.0,0.0,,9.0,,,,43.0,,,,0.5,,KIGQ 190915Z AUTO 00000KT 1/2SM FG BKN004 17/17 A2997 RMK AO2 VIS  1/4V4 T01730173,,,400.0,,,63.14,,N,29.32,28.24,,Fog
KIGQ,08/19/2018 09:35 UTC,29.98,62.6,62.6,100.0,0.0,0.0,,9.0,,,,44.0,,,,0.25,,KIGQ 190935Z AUTO 00000KT 1/4SM FG OVC004 17/17 A2998 RMK AO2  T01700170,,,400.0,,,62.6,,N,29.33,28.28,,Fog
KIGQ,08/19/2018 09:55 UTC,29.98,62.6,62.6,100.0,0.0,0.0,,9.0,,,,44.0,,,,0.25,,KIGQ 190955Z AUTO 00000KT 1/4SM FG OVC004 17/17 A2998 RMK AO2  T01700170,,,400.0,,,62.6,,N,29.33,28.28,,Fog
KIGQ,08/19/2018 10:15 UTC,29.98,62.6,62.6,100.0,0.0,0.0,,9.0,,,,24.0,,,,0.25,,KIGQ 191015Z AUTO 00000KT 1/4SM FG OVC002 17/17 A2998 RMK AO2  T01700170,,,200.0,,,62.6,,N,29.33,28.28,,Fog
KIGQ,08/19/2018 10:35 UTC,29.98,62.78,62.78,100.0,0.0,0.0,,31.0,,,,23.0,,,,1.5,,KIGQ 191035Z AUTO 00000KT 1 1/2SM BR BKN002 17/17 A2998 RMK AO2  VIS 1/2V5 T01710171,,,200.0,,,62.78,,N,29.33,28.27,,Mist
KIGQ,08/19/2018 10:55 UTC,29.99,61.88,61.88,100.0,0.0,0.0,,31.0,,,,1.0,,,,2.0,,KIGQ 191055Z AUTO 00000KT 2SM BR CLR 17/17 A2999 RMK AO2 VIS 1/2V5  T01660166,,,,,,61.88,,N,29.34,28.34,,Mist
KIGQ,08/19/2018 11:15 UTC,29.99,62.6,62.6,100.0,0.0,0.0,,9.0,,,,5.0,,,,-0.25,,KIGQ 191115Z AUTO 00000KT M1/4SM FG VV000 17/17 A2999 RMK AO2  T01700170,,,0.0,,,62.6,,N,29.34,28.29,,Fog
KIGQ,08/19/2018 11:35 UTC,29.99,61.16,61.16,100.0,0.0,0.0,,9.0,,,,5.0,,,,-0.25,,KIGQ 191135Z AUTO 00000KT M1/4SM FG VV000 16/16 A2999 RMK AO2  T01620162,,,0.0,,,61.16,,N,29.34,28.39,,Fog
KIGQ,08/19/2018 11:55 UTC,29.98,62.96,62.96,100.0,0.0,0.0,,31.0,,,,1.0,,,,2.0,,KIGQ 191155Z AUTO 00000KT 2SM BR CLR 17/17 A2998 RMK AO2 VIS 1/2V5  T01720172 10195 20162,67.1,61.16,,,,62.96,,N,29.33,28.26,,Mist
KIGQ,08/19/2018 12:15 UTC,29.99,65.12,65.12,100.0,0.0,0.0,,,,,,1.0,,,,7.0,,KIGQ 191215Z AUTO 00000KT 7SM CLR 18/18 A2999 RMK AO2  T01840184,,,,,,65.12,,N,29.34,28.11,,Clear
KIGQ,08/19/2018 12:35 UTC,29.99,66.56,66.56,100.0,0.0,0.0,,,,,,1.0,,,,7.0,,KIGQ 191235Z AUTO 00000KT 7SM CLR 19/19 A2999 RMK AO2  T01920192,,,,,,66.56,,N,29.34,28.0,,Clear
KIGQ,08/19/2018 12:55 UTC,29.99,68.54,68.18,98.77,0.0,0.0,,,,,,1.0,,,,10.0,,KIGQ 191255Z AUTO 00000KT 10SM CLR 20/20 A2999 RMK AO2  T02030201,,,,,,68.18,,N,29.34,27.87,,Clear
KIGQ,08/19/2018 13:15 UTC,30.0,69.98,69.26,97.57,0.0,0.0,,,,,,1.0,,,,7.0,,KIGQ 191315Z AUTO 00000KT 7SM CLR 21/21 A3000 RMK AO2  T02110207,,,,,,69.26,,N,29.35,27.78,,Clear
KIGQ,08/19/2018 13:35 UTC,30.01,71.42,68.9,91.78,0.0,0.0,,,,,,1.0,,,,10.0,,KIGQ 191335Z AUTO 00000KT 10SM CLR 22/21 A3001 RMK AO2  T02190205,,,,,,68.89,,N,29.36,27.79,,Clear
KIGQ,08/19/2018 13:55 UTC,30.0,73.22,69.26,87.45,0.0,0.0,,,,,,1.0,,,,10.0,,KIGQ 191355Z AUTO 00000KT 10SM CLR 23/21 A3000 RMK AO2  T02290207,,,,,,69.25,,N,29.35,27.73,,Clear
KIGQ,08/19/2018 14:15 UTC,30.0,76.1,68.54,77.5,0.0,0.0,,,,,,142.0,,,,10.0,,KIGQ 191415Z AUTO 00000KT 10SM SCT014 25/20 A3000 RMK AO2  T02450203,,,,,,68.53,,N,29.35,27.74,,Partly Cloudy
KIGQ,08/19/2018 14:35 UTC,30.01,76.64,68.0,74.73,0.0,0.0,,,,,,142.0,,,,10.0,,KIGQ 191435Z AUTO 00000KT 10SM SCT014 25/20 A3001 RMK AO2  T02480200,,,,,,68.0,,N,29.36,27.79,,Partly Cloudy
KIGQ,08/19/2018 14:55 UTC,30.01,77.36,67.1,70.75,0.0,0.0,,,,,,182.0,,,,10.0,,KIGQ 191455Z AUTO 00000KT 10SM SCT018 25/20 A3001 RMK AO2  T02520195,,,,,,67.1,,N,29.36,27.84,,Partly Cloudy
KIGQ,08/19/2018 15:15 UTC,30.0,78.44,67.1,68.28,3.44,130.0,,,,,,232.0,,,,10.0,,KIGQ 191515Z AUTO 13003KT 10SM SCT023 26/20 A3000 RMK AO2  T02580195,,,,,,67.1,,SE,29.35,27.82,,Partly Cloudy
KIGQ,08/19/2018 15:35 UTC,30.0,78.98,67.1,67.08,3.44,90.0,,,,,,253.0,303.0,,,10.0,,KIGQ 191535Z AUTO 09003KT 10SM BKN025 BKN030 26/20 A3000 RMK AO2  T02610195,,,2500.0,,,67.11,,E,29.35,27.81,,Mostly Cloudy
KIGQ,08/19/2018 15:55 UTC,30.0,80.6,66.74,62.84,4.61,110.0,,,,,,273.0,343.0,,,10.0,,KIGQ 191555Z AUTO 11004KT 10SM BKN027 BKN034 27/19 A3000 RMK AO2  T02700193,,,2700.0,,,66.76,,ESE,29.35,27.82,82.92,Mostly Cloudy
KIGQ,08/19/2018 16:15 UTC,30.01,80.78,66.56,62.08,0.0,0.0,,,423.0,,,292.0,353.0,,,10.0,,KIGQ 191615Z AUTO 00000KT 10SM SCT029 BKN035 BKN042 27/19 A3001 RMK AO2 T02710192,,,3500.0,,,66.58,,N,29.36,27.84,83.06,Mostly Cloudy
KIGQ,08/19/2018 16:35 UTC,30.0,81.86,64.94,56.67,5.75,140.0,,,443.0,,,312.0,373.0,,,10.0,,KIGQ 191635Z AUTO 14005KT 10SM SCT031 BKN037 BKN044 28/18 A3000 RMK AO2 T02770183,,,3700.0,,,64.97,,SE,29.35,27.92,83.66,Mostly Cloudy
KIGQ,08/19/2018 16:55 UTC,30.0,82.22,63.5,53.27,3.44,110.0,,,753.0,,,362.0,462.0,,,10.0,,KIGQ 191655Z AUTO 11003KT 10SM SCT036 SCT046 BKN075 28/18 A3000 RMK AO2 T02790175,,,7500.0,,,63.54,,ESE,29.35,28.01,83.54,Mostly Cloudy
KIGQ,08/19/2018 17:15 UTC,30.0,82.76,64.04,53.34,4.61,110.0,,,,,,403.0,753.0,,,10.0,,KIGQ 191715Z AUTO 11004KT 10SM BKN040 BKN075 28/18 A3000 RMK AO2  T02820178,,,4000.0,,,64.08,,ESE,29.35,27.97,84.22,Mostly Cloudy
KIGQ,08/19/2018 17:35 UTC,30.0,82.76,64.4,54.02,5.75,160.0,,,,,,402.0,472.0,,,10.0,,KIGQ 191735Z AUTO 16005KT 10SM SCT040 SCT047 28/18 A3000 RMK AO2  T02820180,,,,,,64.44,,SSE,29.35,27.95,84.34,Partly Cloudy
KIGQ,08/19/2018 17:55 UTC,29.99,83.84,65.3,53.83,5.75,210.0,,,,,,422.0,482.0,,,10.0,,KIGQ 191755Z AUTO 21005KT 10SM SCT042 SCT048 29/19 A2999 RMK AO2  T02880185 10289 20174,84.02,63.32,,,,65.35,,SSW,29.34,27.87,85.76,Partly Cloudy
KIGQ,08/19/2018 18:15 UTC,29.99,82.04,63.86,54.26,3.44,140.0,,,703.0,,,402.0,502.0,,,10.0,,KIGQ 191815Z AUTO 14003KT 10SM SCT040 SCT050 BKN070 28/18 A2999 RMK AO2 T02780177,,,7000.0,,,63.89,,SE,29.34,27.98,83.48,Mostly Cloudy
KIGQ,08/19/2018 18:35 UTC,29.99,82.76,64.04,53.34,0.0,0.0,,,853.0,,,422.0,703.0,,,10.0,,KIGQ 191835Z AUTO 00000KT 10SM SCT042 BKN070 BKN085 28/18 A2999 RMK AO2 T02820178,,,7000.0,,,64.08,,N,29.34,27.96,84.22,Mostly Cloudy
KIGQ,08/19/2018 18:55 UTC,29.99,82.22,68.0,62.26,5.75,30.0,,,704.0,,,443.0,503.0,,,10.0,,KIGQ 191855Z AUTO 03005KT 10SM BKN044 BKN050 OVC070 28/20 A2999 RMK AO2 T02790200,,,4400.0,,,68.03,,NNE,29.34,27.7,85.19,Overcast
KIGQ,08/19/2018 19:15 UTC,29.98,80.42,68.54,67.24,6.91,50.0,,,804.0,,,472.0,603.0,,,10.0,,KIGQ 191915Z AUTO 05006KT 10SM SCT047 BKN060 OVC080 27/20 A2998 RMK AO2 T02690203,,,6000.0,,,68.55,,NE,29.33,27.67,83.26,Overcast
KIGQ,08/19/2018 19:35 UTC,29.98,80.24,68.18,66.81,6.91,80.0,,,854.0,,,492.0,603.0,,,10.0,,KIGQ 191935Z AUTO 08006KT 10SM SCT049 BKN060 OVC085 27/20 A2998 RMK AO2 T02680201,,,6000.0,,,68.19,,E,29.33,27.7,82.93,Overcast
KIGQ,08/19/2018 19:55 UTC,29.97,82.76,68.18,61.57,10.36,70.0,,,703.0,,,352.0,502.0,,,10.0,,KIGQ 191955Z AUTO 07009KT 10SM SCT035 SCT050 BKN070 28/20 A2997 RMK AO2 T02820201,,,7000.0,,,68.21,,ENE,29.32,27.66,85.89,Mostly Cloudy
KIGQ,08/19/2018 20:15 UTC,29.97,82.76,68.0,61.19,8.05,50.0,,,,,,702.0,,,,10.0,,KIGQ 192015Z AUTO 05007KT 10SM SCT070 28/20 A2997 RMK AO2  T02820200,,,,,,68.03,,NE,29.32,27.67,85.81,Partly Cloudy
KIGQ,08/19/2018 20:35 UTC,29.96,82.4,68.18,62.29,6.91,40.0,,,,,,1.0,,,,10.0,,KIGQ 192035Z AUTO 04006KT 10SM CLR 28/20 A2996 RMK AO2  T02800201,,,,,,68.21,,NE,29.31,27.65,85.48,Clear
KIGQ,08/19/2018 20:55 UTC,29.96,82.76,68.18,61.57,8.05,30.0,,,,,,1.0,,,,10.0,,KIGQ 192055Z AUTO 03007KT 10SM CLR 28/20 A2996 RMK AO2  T02820201,,,,,,68.21,,NNE,29.31,27.65,85.89,Clear
KIGQ,08/19/2018 21:15 UTC,29.95,83.12,68.54,61.61,4.61,80.0,,,,,,1.0,,,,10.0,,KIGQ 192115Z AUTO 08004KT 10SM CLR 28/20 A2995 RMK AO2  T02840203,,,,,,68.57,,E,29.3,27.61,86.48,Clear
KIGQ,08/19/2018 21:35 UTC,29.94,83.3,68.0,60.13,5.75,50.0,,,,,,1.0,,,,10.0,,KIGQ 192135Z AUTO 05005KT 10SM CLR 29/20 A2994 RMK AO2  T02850200,,,,,,68.04,,NE,29.29,27.63,86.42,Clear
KIGQ,08/19/2018 21:55 UTC,29.94,82.94,67.82,60.46,10.36,60.0,,,,,,1.0,,,,10.0,,KIGQ 192155Z AUTO 06009KT 10SM CLR 28/20 A2994 RMK AO2  T02830199,,,,,,67.86,,ENE,29.29,27.65,85.93,Clear
KIGQ,08/19/2018 22:15 UTC,29.94,81.5,68.0,63.73,10.36,70.0,,,,,,1.0,,,,10.0,,KIGQ 192215Z AUTO 07009KT 10SM CLR 28/20 A2994 RMK AO2  T02750200,,,,,,68.02,,ENE,29.29,27.65,84.36,Clear
KIGQ,08/19/2018 22:35 UTC,29.94,80.6,67.28,64.02,10.36,50.0,,,,,,1.0,,,,10.0,,KIGQ 192235Z AUTO 05009KT 10SM CLR 27/20 A2994 RMK AO2  T02700196,,,,,,67.3,,NE,29.29,27.72,83.08,Clear
KIGQ,08/19/2018 22:55 UTC,29.94,79.7,66.74,64.71,8.05,40.0,,,,,,1.0,,,,10.0,,KIGQ 192255Z AUTO 04007KT 10SM CLR 27/19 A2994 RMK AO2  T02650193,,,,,,66.75,,NE,29.29,27.77,,Clear
KIGQ,08/19/2018 23:15 UTC,29.94,79.34,67.1,66.29,8.05,70.0,,,,,,1.0,,,,10.0,,KIGQ 192315Z AUTO 07007KT 10SM CLR 26/20 A2994 RMK AO2  T02630195,,,,,,67.11,,ENE,29.29,27.74,,Clear
KIGQ,08/19/2018 23:35 UTC,29.94,78.26,67.46,69.54,5.75,60.0,,,,,,1.0,,,,10.0,,KIGQ 192335Z AUTO 06005KT 10SM CLR 26/20 A2994 RMK AO2  T02570197,,,,,,67.46,,ENE,29.29,27.73,,Clear
KIGQ,08/19/2018 23:55 UTC,29.94,77.9,68.18,72.13,5.75,70.0,,,,,,1.0,,,,10.0,,KIGQ 192355Z AUTO 07005KT 10SM CLR 26/20 A2994 RMK AO2 T02550201  10286 20255,83.48,77.9,,,,68.18,,ENE,29.29,27.69,,Clear
KIGQ,08/20/2018 00:15 UTC,29.95,77.18,68.36,74.32,4.61,50.0,,,,,,503.0,,,,10.0,,KIGQ 200015Z AUTO 05004KT 10SM BKN050 25/20 A2995 RMK AO2  T02510202,,,5000.0,,,68.36,,NE,29.3,27.69,,Mostly Cloudy
KIGQ,08/20/2018 00:35 UTC,29.95,77.0,68.9,76.16,6.91,60.0,,,,,,502.0,,,,10.0,,KIGQ 200035Z AUTO 06006KT 10SM SCT050 25/21 A2995 RMK AO2  T02500205,,,,,,68.9,,ENE,29.3,27.66,,Partly Cloudy
KIGQ,08/20/2018 00:55 UTC,29.95,75.92,68.9,78.93,0.0,0.0,,,,,,1.0,,,,10.0,,KIGQ 200055Z AUTO 00000KT 10SM CLR 24/21 A2995 RMK AO2  T02440205,,,,,,68.89,,N,29.3,27.67,,Clear
KIGQ,08/20/2018 01:15 UTC,29.96,75.38,68.9,80.36,3.44,70.0,,,,,,1.0,,,,10.0,,KIGQ 200115Z AUTO 07003KT 10SM CLR 24/21 A2996 RMK AO2  T02410205,,,,,,68.89,,ENE,29.31,27.69,,Clear
KIGQ,08/20/2018 01:35 UTC,29.96,75.74,69.26,80.39,5.75,70.0,,,,,,502.0,,,,10.0,,KIGQ 200135Z AUTO 07005KT 10SM SCT050 24/21 A2996 RMK AO2  T02430207,,,,,,69.25,,ENE,29.31,27.66,,Partly Cloudy
KIGQ,08/20/2018 01:55 UTC,29.96,75.38,69.08,80.86,5.75,70.0,,,,,,422.0,482.0,,,10.0,,KIGQ 200155Z AUTO 07005KT 10SM SCT042 SCT048 24/21 A2996 RMK AO2  T02410206,,,,,,69.07,,ENE,29.31,27.67,,Partly Cloudy
KIGQ,08/20/2018 02:15 UTC,29.96,75.38,68.9,80.36,4.61,90.0,,,,,,402.0,502.0,,,10.0,,KIGQ 200215Z AUTO 09004KT 10SM SCT040 SCT050 24/21 A2996 RMK AO2  T02410205,,,,,,68.89,,E,29.31,27.69,,Partly Cloudy
KIGQ,08/20/2018 02:35 UTC,29.97,75.2,68.0,78.39,5.75,110.0,,,,,,403.0,473.0,,,10.0,,KIGQ 200235Z AUTO 11005KT 10SM BKN040 BKN047 24/20 A2997 RMK AO2  T02400200,,,4000.0,,,67.99,,ESE,29.32,27.76,,Mostly Cloudy
KIGQ,08/20/2018 02:55 UTC,29.97,74.48,67.1,77.85,5.75,110.0,,,,,,422.0,,,,10.0,,KIGQ 200255Z AUTO 11005KT 10SM SCT042 24/20 A2997 RMK AO2  T02360195,,,,,,67.09,,ESE,29.32,27.84,,Partly Cloudy
KIGQ,08/20/2018 03:15 UTC,29.97,73.4,66.56,79.22,6.91,100.0,,,,,,1.0,,,,10.0,,KIGQ 200315Z AUTO 10006KT 10SM CLR 23/19 A2997 RMK AO2  T02300192,,,,,,66.55,,E,29.32,27.89,,Clear
KIGQ,08/20/2018 03:35 UTC,29.96,73.22,65.84,77.74,6.91,110.0,,,,,,1.0,,,,10.0,,KIGQ 200335Z AUTO 11006KT 10SM CLR 23/19 A2996 RMK AO2  T02290188,,,,,,65.82,,ESE,29.31,27.93,,Clear
KIGQ,08/20/2018 03:55 UTC,29.97,73.04,65.3,76.76,4.61,130.0,,,,,,1.0,,,,10.0,,KIGQ 200355Z AUTO 13004KT 10SM CLR 23/19 A2997 RMK AO2  T02280185,,,,,,65.28,,SE,29.32,27.97,,Clear
KIGQ,08/20/2018 04:15 UTC,29.98,72.68,65.3,77.7,0.0,0.0,,,,,,1.0,,,,10.0,,KIGQ 200415Z AUTO 00000KT 10SM CLR 23/19 A2998 RMK AO2  T02260185,,,,,,65.28,,N,29.33,27.99,,Clear
KIGQ,08/20/2018 04:35 UTC,29.98,71.06,64.4,79.53,3.44,150.0,,,,,,1.0,,,,10.0,,KIGQ 200435Z AUTO 15003KT 10SM CLR 22/18 A2998 RMK AO2  T02170180,,,,,,64.38,,SSE,29.33,28.07,,Clear
KIGQ,08/20/2018 04:55 UTC,29.97,71.06,64.04,78.54,5.75,110.0,,,,,,1.0,,,,10.0,,KIGQ 200455Z AUTO 11005KT 10SM CLR 22/18 A2997 RMK AO2  T02170178,,,,,,64.02,,ESE,29.32,28.08,,Clear
KIGQ,08/20/2018 05:15 UTC,29.97,71.6,64.4,78.09,8.05,120.0,,,,,,1.0,,,,10.0,,KIGQ 200515Z AUTO 12007KT 10SM CLR 22/18 A2997 RMK AO2  T02200180,,,,,,64.38,,ESE,29.32,28.05,,Clear
KIGQ,08/20/2018 05:35 UTC,29.97,71.78,64.04,76.65,6.91,120.0,,,,,,1.0,,,,10.0,,KIGQ 200535Z AUTO 12006KT 10SM CLR 22/18 A2997 RMK AO2  T02210178,,,,,,64.02,,ESE,29.32,28.07,,Clear
KIGQ,08/20/2018 05:55 UTC,29.96,71.78,64.04,76.65,8.05,130.0,,,,,,1.0,,,,10.0,,KIGQ 200555Z AUTO 13007KT 10SM CLR 22/18 A2996 RMK AO2 T02210178  10255 20216 402890162,77.9,70.88,,84.02,61.16,64.02,,SE,29.31,28.06,,Clear
KIGQ,08/20/2018 06:15 UTC,29.96,71.6,63.86,76.63,8.05,130.0,,,,,,1.0,,,,10.0,,KIGQ 200615Z AUTO 13007KT 10SM CLR 22/18 A2996 RMK AO2  T02200177,,,,,,63.84,,SE,29.31,28.07,,Clear
KIGQ,08/20/2018 06:35 UTC,29.95,71.24,63.68,77.09,9.22,120.0,,,,,,1.0,,,,10.0,,KIGQ 200635Z AUTO 12008KT 10SM CLR 22/18 A2995 RMK AO2  T02180176,,,,,,63.66,,ESE,29.3,28.08,,Clear
KIGQ,08/20/2018 06:55 UTC,29.95,70.88,63.5,77.54,5.75,120.0,,,,,,1.0,,,,10.0,,KIGQ 200655Z AUTO 12005KT 10SM CLR 22/18 A2995 RMK AO2  T02160175,,,,,,63.48,,ESE,29.3,28.09,,Clear
KIGQ,08/20/2018 07:15 UTC,29.95,70.34,63.14,77.99,6.91,120.0,,,,,,1.0,,,,10.0,,KIGQ 200715Z AUTO 12006KT 10SM CLR 21/17 A2995 RMK AO2  T02130173,,,,,,63.12,,ESE,29.3,28.12,,Clear
KIGQ,08/20/2018 07:35 UTC,29.95,70.34,62.78,77.01,6.91,130.0,,,,,,1.0,,,,10.0,,KIGQ 200735Z AUTO 13006KT 10SM CLR 21/17 A2995 RMK AO2  T02130171,,,,,,62.75,,SE,29.3,28.14,,Clear
KIGQ,08/20/2018 07:55 UTC,29.95,69.98,62.78,77.96,5.75,140.0,,,,,,1.0,,,,10.0,,KIGQ 200755Z AUTO 14005KT 10SM CLR 21/17 A2995 RMK AO2  T02110171,,,,,,62.76,,SE,29.3,28.15,,Clear
KIGQ,08/20/2018 08:15 UTC,29.94,69.26,62.6,79.39,5.75,120.0,,,,,,1.0,,,,10.0,,KIGQ 200815Z AUTO 12005KT 10SM CLR 21/17 A2994 RMK AO2  T02070170,,,,,,62.57,,ESE,29.29,28.16,,Clear
KIGQ,08/20/2018 08:35 UTC,29.94,68.9,62.78,80.88,5.75,130.0,,,,,,1.0,,,,10.0,,KIGQ 200835Z AUTO 13005KT 10SM CLR 21/17 A2994 RMK AO2  T02050171,,,,,,62.75,,SE,29.29,28.15,,Clear
KIGQ,08/20/2018 08:55 UTC,29.94,68.36,62.6,81.88,6.91,120.0,,,,,,1.0,,,,10.0,,KIGQ 200855Z AUTO 12006KT 10SM CLR 20/17 A2994 RMK AO2  T02020170,,,,,,62.58,,ESE,29.29,28.17,,Clear
KIGQ,08/20/2018 09:15 UTC,29.94,68.54,62.6,81.37,8.05,120.0,,,,,,1.0,,,,10.0,,KIGQ 200915Z AUTO 12007KT 10SM CLR 20/17 A2994 RMK AO2  T02030170,,,,,,62.57,,ESE,29.29,28.17,,Clear
KIGQ,08/20/2018 09:35 UTC,29.93,68.9,62.6,80.37,8.05,120.0,,,,,,1.0,,,,10.0,,KIGQ 200935Z AUTO 12007KT 10SM CLR 21/17 A2993 RMK AO2  T02050170,,,,,,62.57,,ESE,29.28,28.15,,Clear
KIGQ,08/20/2018 09:55 UTC,29.93,68.36,62.42,81.36,6.91,100.0,,,,,,1.0,,,,10.0,,KIGQ 200955Z AUTO 10006KT 10SM CLR 20/17 A2993 RMK AO2  T02020169,,,,,,62.4,,E,29.28,28.17,,Clear
KIGQ,08/20/2018 10:15 UTC,29.93,67.28,62.06,83.37,5.75,110.0,,,,,,1.0,,,,10.0,,KIGQ 201015Z AUTO 11005KT 10SM CLR 20/17 A2993 RMK AO2  T01960167,,,,,,62.03,,ESE,29.28,28.2,,Clear
KIGQ,08/20/2018 10:35 UTC,29.93,67.1,62.06,83.89,6.91,110.0,,,,,,1.0,,,,10.0,,KIGQ 201035Z AUTO 11006KT 10SM CLR 20/17 A2993 RMK AO2  T01950167,,,,,,62.04,,ESE,29.28,28.2,,Clear
KIGQ,08/20/2018 10:55 UTC,29.93,67.1,61.88,83.36,6.91,120.0,,,,,,1.0,,,,10.0,,KIGQ 201055Z AUTO 12006KT 10SM CLR 20/17 A2993 RMK AO2  T01950166,,,,,,61.85,,ESE,29.28,28.21,,Clear
KIGQ,08/20/2018 11:15 UTC,29.92,66.56,61.88,84.93,6.91,110.0,,,,,,1.0,,,,10.0,,KIGQ 201115Z AUTO 11006KT 10SM CLR 19/17 A2992 RMK AO2  T01920166,,,,,,61.86,,ESE,29.27,28.21,,Clear
KIGQ,08/20/2018 11:35 UTC,29.92,67.1,61.88,83.36,6.91,110.0,,,,,,1.0,,,,10.0,,KIGQ 201135Z AUTO 11006KT 10SM CLR 20/17 A2992 RMK AO2  T01950166,,,,,,61.85,,ESE,29.27,28.2,,Clear
KIGQ,08/20/2018 11:55 UTC,29.93,67.64,62.06,82.34,6.91,120.0,,,,,,1.0,,,,10.0,,KIGQ 201155Z AUTO 12006KT 10SM CLR 20/17 A2993 RMK AO2 T01980167  10221 20192,71.78,66.56,,,,62.03,,ESE,29.28,28.2,,Clear
KIGQ,08/20/2018 12:15 UTC,29.93,68.0,62.06,81.33,8.05,120.0,,,,,,1.0,,,,10.0,,KIGQ 201215Z AUTO 12007KT 10SM CLR 20/17 A2993 RMK AO2  T02000167,,,,,,62.03,,ESE,29.28,28.19,,Clear
KIGQ,08/20/2018 12:35 UTC,29.94,68.54,62.24,80.35,6.91,120.0,,,,,,1.0,,,,10.0,,KIGQ 201235Z AUTO 12006KT 10SM CLR 20/17 A2994 RMK AO2  T02030168,,,,,,62.21,,ESE,29.29,28.19,,Clear
KIGQ,08/20/2018 12:55 UTC,29.94,69.08,62.42,79.38,6.91,120.0,,,,,,1.0,,,,10.0,,KIGQ 201255Z AUTO 12006KT 10SM CLR 21/17 A2994 RMK AO2  T02060169,,,,,,62.39,,ESE,29.29,28.17,,Clear
KIGQ,08/20/2018 13:15 UTC,29.93,70.16,62.78,77.48,9.22,120.0,,,,,,1.0,,,,10.0,,KIGQ 201315Z AUTO 12008KT 10SM CLR 21/17 A2993 RMK AO2  T02120171,,,,,,62.75,,ESE,29.28,28.12,,Clear
KIGQ,08/20/2018 13:35 UTC,29.93,71.6,63.14,74.73,9.22,130.0,,,,,,1.0,,,,10.0,,KIGQ 201335Z AUTO 13008KT 10SM CLR 22/17 A2993 RMK AO2  T02200173,,,,,,63.12,,SE,29.28,28.09,,Clear
KIGQ,08/20/2018 13:55 UTC,29.93,72.32,63.32,73.39,9.22,150.0,,,,,,1.0,,,,10.0,,KIGQ 201355Z AUTO 15008KT 10SM CLR 22/17 A2993 RMK AO2  T02240174,,,,,,63.3,,SSE,29.28,28.07,,Clear
KIGQ,08/20/2018 14:15 UTC,29.91,73.04,63.68,72.55,8.05,110.0,,,,,,1.0,,,,10.0,,KIGQ 201415Z AUTO 11007KT 10SM CLR 23/18 A2991 RMK AO2  T02280176,,,,,,63.66,,ESE,29.26,28.02,,Clear
KIGQ,08/20/2018 14:35 UTC,29.9,73.58,63.86,71.69,11.5,110.0,,,,,,1.0,,,,10.0,,KIGQ 201435Z AUTO 11010KT 10SM CLR 23/18 A2990 RMK AO2  T02310177,,,,,,63.84,,ESE,29.25,27.99,,Clear
KIGQ,08/20/2018 14:55 UTC,29.89,75.02,64.76,70.5,9.22,110.0,,,,,,1.0,,,,10.0,,KIGQ 201455Z AUTO 11008KT 10SM CLR 24/18 A2989 RMK AO2  T02390182,,,,,,64.75,,ESE,29.24,27.9,,Clear
KIGQ,08/20/2018 15:15 UTC,29.87,74.84,65.12,71.82,11.5,100.0,,,,,,1.0,,,,10.0,,KIGQ 201515Z AUTO 10010KT 10SM CLR 24/18 A2987 RMK AO2  T02380184,,,,,,65.11,,E,29.22,27.86,,Clear
KIGQ,08/20/2018 15:35 UTC,29.88,75.74,65.66,71.02,11.5,110.0,17.27,,,,,1.0,,,,10.0,,KIGQ 201535Z AUTO 11010G15KT 10SM CLR 24/19 A2988 RMK AO2  T02430187,,,,,,65.65,,ESE,29.23,27.83,,Clear
KIGQ,08/20/2018 15:55 UTC,29.88,76.1,66.02,71.06,11.5,110.0,18.41,,,,,372.0,,,,10.0,,KIGQ 201555Z AUTO 11010G16KT 10SM SCT037 25/19 A2988 RMK AO2 LTG  DSNT S T02450189,,,,,,66.01,,ESE,29.23,27.8,,Partly Cloudy
KIGQ,08/20/2018 16:15 UTC,29.87,76.28,66.2,71.08,11.5,110.0,17.27,,,,,372.0,802.0,,,10.0,,KIGQ 201615Z AUTO 11010G15KT 10SM SCT037 SCT080 25/19 A2987 RMK AO2 LTG DSNT S T02460190,,,,,,66.19,,ESE,29.22,27.77,,Partly Cloudy
KIGQ,08/20/2018 16:35 UTC,29.87,75.56,66.38,73.25,8.05,120.0,,,1203.0,,,502.0,902.0,,,10.0,,KIGQ 201635Z AUTO 12007KT 10SM SCT050 SCT090 BKN120 24/19 A2987 RMK AO2 T02420191,,,12000.0,,,66.37,,ESE,29.22,27.77,,Mostly Cloudy
KIGQ,08/20/2018 16:55 UTC,29.88,73.4,67.64,82.23,10.36,130.0,,1.0,1204.0,0.01,,752.0,903.0,,,5.0,,KIGQ 201655Z AUTO 13009KT 5SM RA SCT075 BKN090 OVC120 23/20 A2988 RMK AO2 LTG DSNT SE P0001 T02300198,,,9000.0,,,67.63,,SE,29.23,27.72,,Rain
KIGQ,08/20/2018 17:15 UTC,29.88,72.14,68.72,89.03,0.0,0.0,,1.0,804.0,0.02,,212.0,313.0,,,5.0,,KIGQ 201715Z AUTO 00000KT 5SM RA SCT021 BKN031 OVC080 22/20 A2988 RMK AO2 P0002 T02230204,,,3100.0,,,68.71,,N,29.23,27.66,,Rain
KIGQ,08/20/2018 17:35 UTC,29.87,71.6,68.9,91.23,3.44,120.0,,14.0,464.0,0.14,,193.0,303.0,,,2.0,,KIGQ 201735Z AUTO 12003KT 2SM +RA BKN019 BKN030 OVC046 22/21 A2987 RMK AO2 P0014 T02200205,,,1900.0,,,68.89,,ESE,29.22,27.65,,Heavy Rain
KIGQ,08/20/2018 17:55 UTC,29.86,72.5,71.42,96.42,11.5,100.0,17.27,13.0,604.0,0.21,,82.0,353.0,0.22,,4.0,,KIGQ 201755Z AUTO 10010G15KT 4SM -RA SCT008 BKN035 OVC060 23/22  A2986 RMK AO2 P0021 60022 T02250219 10246 20199,76.28,67.82,3500.0,,,71.42,,E,29.21,27.44,,Light Rain
KIGQ,08/20/2018 18:15 UTC,29.86,72.5,69.08,89.04,8.05,120.0,,13.0,364.0,,,102.0,303.0,,,10.0,,KIGQ 201815Z AUTO 12007KT 10SM -RA SCT010 BKN030 OVC036 23/21  A2986 RMK AO2 T02250206,,,3000.0,,,69.07,,ESE,29.21,27.61,,Light Rain
KIGQ,08/20/2018 18:35 UTC,29.86,73.94,70.88,90.2,11.5,100.0,,13.0,324.0,,,223.0,263.0,,,10.0,,KIGQ 201835Z AUTO 10010KT 10SM -RA BKN022 BKN026 OVC032 23/22  A2986 RMK AO2 LTG DSNT SE T02330216,,,2200.0,,,70.87,,E,29.21,27.46,,Light Rain
KIGQ,08/20/2018 18:55 UTC,29.84,73.76,70.7,90.2,13.8,90.0,,,454.0,,,132.0,213.0,,,10.0,,KIGQ 201855Z AUTO 09012KT 10SM SCT013 BKN021 OVC045 23/22 A2984 RMK AO2 T02320215,,,2100.0,,,70.7,,E,29.19,27.46,,Overcast
KIGQ,08/20/2018 19:15 UTC,29.84,74.3,70.88,89.12,11.5,100.0,,,214.0,,,102.0,143.0,,,10.0,,KIGQ 201915Z AUTO 10010KT 10SM SCT010 BKN014 OVC021 24/22 A2984 RMK AO2 T02350216,,,1400.0,,,70.87,,E,29.19,27.43,,Overcast
KIGQ,08/20/2018 19:35 UTC,29.83,75.92,71.96,87.58,11.5,110.0,,,454.0,,,112.0,153.0,,,10.0,,KIGQ 201935Z AUTO 11010KT 10SM SCT011 BKN015 OVC045 24/22 A2983 RMK AO2 T02440222,,,1500.0,,,71.96,,ESE,29.18,27.32,,Overcast
KIGQ,08/20/2018 19:55 UTC,29.83,76.1,70.34,82.41,10.36,130.0,20.71,,444.0,,,133.0,273.0,,,10.0,,KIGQ 201955Z AUTO 13009G18KT 10SM BKN013 BKN027 OVC044 25/21 A2983 RMK AO2 LTG DSNT W T02450213,,,1300.0,,,70.33,,SE,29.18,27.44,,Overcast
KIGQ,08/20/2018 20:15 UTC,29.83,75.74,69.8,81.88,8.05,140.0,,,554.0,,,162.0,463.0,,,10.0,,KIGQ 202015Z AUTO 14007KT 070V150 10SM SCT016 BKN046 OVC055 24/21  A2983 RMK AO2 LTG DSNT E AND W T02430210,,,4600.0,,,69.79,,SE,29.18,27.49,,Overcast
KIGQ,08/20/2018 20:35 UTC,29.81,77.0,71.78,83.99,9.22,130.0,,13.0,504.0,,,182.0,243.0,,,10.0,,KIGQ 202035Z AUTO 13008KT 10SM -RA SCT018 BKN024 OVC050 25/22  A2981 RMK AO2 T02500221,,,2400.0,,,71.78,,SE,29.16,27.3,,Light Rain
KIGQ,08/20/2018 20:55 UTC,29.81,76.46,70.7,82.44,13.8,130.0,,,554.0,,,183.0,253.0,,,10.0,,KIGQ 202055Z AUTO 13012KT 10SM BKN018 BKN025 OVC055 25/22 A2981 RMK AO2 LTG DSNT W T02470215,,,1800.0,,,70.7,,SE,29.16,27.39,,Overcast
KIGQ,08/20/2018 21:15 UTC,29.8,77.18,69.98,78.55,11.5,130.0,16.11,,504.0,,,182.0,423.0,,,10.0,,KIGQ 202115Z AUTO 13010G14KT 10SM SCT018 BKN042 OVC050 25/21 A2980 RMK AO2 T02510211,,,4200.0,,,69.98,,SE,29.15,27.42,,Overcast
KIGQ,08/20/2018 21:35 UTC,29.8,77.18,69.8,78.07,9.22,130.0,18.41,,504.0,,,202.0,413.0,,,10.0,,KIGQ 202135Z AUTO 13008G16KT 10SM SCT020 BKN041 OVC050 25/21 A2980 RMK AO2 T02510210,,,4100.0,,,69.8,,SE,29.15,27.43,,Overcast
KIGQ,08/20/2018 21:55 UTC,29.79,78.26,70.52,77.21,10.36,120.0,16.11,,553.0,,,202.0,363.0,,,10.0,,KIGQ 202155Z AUTO 12009G14KT 10SM SCT020 BKN036 BKN055 26/21 A2979 RMK AO2 T02570214,,,3600.0,,,70.52,,ESE,29.14,27.36,,Mostly Cloudy
KIGQ,08/20/2018 22:15 UTC,29.78,77.9,70.16,77.18,10.36,120.0,,,343.0,,,203.0,263.0,,,10.0,,KIGQ 202215Z AUTO 12009KT 10SM BKN020 BKN026 BKN034 26/21 A2978 RMK AO2 T02550212,,,2000.0,,,70.16,,ESE,29.13,27.38,,Mostly Cloudy
KIGQ,08/20/2018 22:35 UTC,29.77,77.9,69.98,76.71,11.5,120.0,,,,,,202.0,262.0,,,10.0,,KIGQ 202235Z AUTO 12010KT 10SM SCT020 SCT026 26/21 A2977 RMK AO2  T02550211,,,,,,69.98,,ESE,29.12,27.38,,Partly Cloudy
KIGQ,08/20/2018 22:55 UTC,29.78,77.54,70.34,78.58,8.05,120.0,,,,,,203.0,,,,10.0,,KIGQ 202255Z AUTO 12007KT 10SM BKN020 25/21 A2978 RMK AO2 LTG DSNT  W T02530213,,,2000.0,,,70.34,,ESE,29.13,27.37,,Mostly Cloudy
KIGQ,08/20/2018 23:15 UTC,29.77,77.18,70.34,79.52,10.36,130.0,,,323.0,,,182.0,243.0,,,10.0,,KIGQ 202315Z AUTO 13009KT 10SM SCT018 BKN024 BKN032 25/21 A2977 RMK AO2 LTG DSNT S AND W T02510213,,,2400.0,,,70.34,,SE,29.12,27.36,,Mostly Cloudy
KIGQ,08/20/2018 23:35 UTC,29.77,77.0,69.98,79.02,9.22,120.0,,,402.0,,,222.0,312.0,,,10.0,,KIGQ 202335Z AUTO 12008KT 10SM SCT022 SCT031 SCT040 25/21 A2977 RMK AO2 LTG DSNT W T02500211,,,,,,69.98,,ESE,29.12,27.39,,Partly Cloudy
KIGQ,08/20/2018 23:55 UTC,29.77,76.82,70.7,81.46,9.22,130.0,,,,,,212.0,343.0,,,10.0,,KIGQ 202355Z AUTO 13008KT 10SM SCT021 BKN034 25/22 A2977 RMK AO2  LTG DSNT W T02490215 10261 20221,78.98,71.78,3400.0,,,70.7,,SE,29.12,27.34,,Mostly Cloudy
KIGQ,08/21/2018 00:15 UTC,29.8,76.46,70.34,81.44,4.61,140.0,,,1204.0,,,212.0,323.0,,,10.0,,KIGQ 210015Z AUTO 14004KT 10SM SCT021 BKN032 OVC120 25/21 A2980 RMK AO2 LTG DSNT NW T02470213,,,3200.0,,,70.34,,SE,29.15,27.4,,Overcast
KIGQ,08/21/2018 00:35 UTC,29.78,75.38,70.7,85.45,8.05,130.0,,13.0,1204.0,,,202.0,283.0,,,10.0,,KIGQ 210035Z AUTO 13007KT 10SM -RA SCT020 BKN028 OVC120 24/22  A2978 RMK AO2 LTG DSNT W AND NW T02410215,,,2800.0,,,70.7,,SE,29.13,27.37,,Light Rain
KIGQ,08/21/2018 00:55 UTC,29.79,73.76,69.44,86.41,9.22,120.0,,,1104.0,,,142.0,553.0,,,10.0,,KIGQ 210055Z AUTO 12008KT 10SM SCT014 BKN055 OVC110 23/21 A2979 RMK AO2 LTG DSNT NW T02320208,,,5500.0,,,69.43,,ESE,29.14,27.5,,Overcast
KIGQ,08/21/2018 01:15 UTC,29.8,70.16,67.1,90.05,9.22,310.0,19.57,,,0.24,,223.0,434.0,,,2.0,,KIGQ 210115Z AUTO 31008G17KT 2SM -VCTSRA BKN022 OVC043 21/20 A2980 RMK AO2 VIS 1 1/4V4 LTG DSNT ALQS P0024 T02120195,,,2200.0,,,67.09,,NW,29.15,27.72,,Overcast
KIGQ,08/21/2018 01:35 UTC,29.83,69.8,67.1,91.16,0.0,0.0,,77.0,414.0,0.24,,222.0,323.0,,,10.0,,KIGQ 210135Z AUTO 00000KT 10SM -TSRA SCT022 BKN032 OVC041 21/20  A2983 RMK AO2 LTG DSNT SW THRU N P0024 T02100195,,,3200.0,,,67.09,,N,29.18,27.76,,Light Rain/Thunderstorm
KIGQ,08/21/2018 01:55 UTC,29.82,68.36,66.02,92.25,6.91,290.0,28.77,,,1.36,,73.0,134.0,,,0.75,,KIGQ 210155Z AUTO 29006G25KT 3/4SM /VCTSRA BKN007 OVC013 20/19  A2982 RMK AO2 LTG DSNT ALQS P0136 T02020189,,,700.0,,,66.01,,WNW,29.17,27.84,,Overcast
KIGQ,08/21/2018 02:15 UTC,29.82,68.36,66.2,92.83,4.61,60.0,,14.0,954.0,0.34,,72.0,173.0,,,2.5,,KIGQ 210215Z AUTO 06004KT 2 1/2SM +RA SCT007 BKN017 OVC095 20/19  A2982 RMK AO2 LTG DSNT ALQS P0034 T02020190,,,1700.0,,,66.19,,ENE,29.17,27.83,,Heavy Rain
KIGQ,08/21/2018 02:35 UTC,29.81,68.18,66.2,93.4,3.44,80.0,,,953.0,0.34,,322.0,452.0,,,10.0,,KIGQ 210235Z AUTO 08003KT 10SM SCT032 SCT045 BKN095 20/19 A2981 RMK AO2 LTG DSNT N THRU E P0034 T02010190,,,9500.0,,,66.19,,E,29.16,27.82,,Mostly Cloudy
KIGQ,08/21/2018 02:55 UTC,29.8,68.9,67.28,94.59,3.44,50.0,,,,0.34,1.71,362.0,453.0,,,10.0,,KIGQ 210255Z AUTO 05003KT 10SM SCT036 BKN045 21/20 A2980 RMK AO2  LTG DSNT NE THRU SE P0034 60171 T02050196,,,4500.0,,,67.27,,NE,29.15,27.73,,Mostly Cloudy
KIGQ,08/21/2018 03:15 UTC,29.8,68.54,67.28,95.76,4.61,70.0,,5.0,1203.0,,,343.0,413.0,,,10.0,,KIGQ 210315Z AUTO 07004KT 10SM VCTS BKN034 BKN041 BKN120 20/20  A2980 RMK AO2 LTG DSNT E THRU S T02030196,,,3400.0,,,67.27,,ENE,29.15,27.73,,Thunder
KIGQ,08/21/2018 03:35 UTC,29.8,68.36,67.28,96.36,4.61,140.0,,,1204.0,,,342.0,403.0,,,10.0,,KIGQ 210335Z AUTO 14004KT 10SM SCT034 BKN040 OVC120 20/20 A2980 RMK AO2 LTG DSNT NE THRU SW T02020196,,,4000.0,,,67.28,,SE,29.15,27.74,,Overcast
KIGQ,08/21/2018 03:55 UTC,29.8,68.36,67.28,96.36,5.75,120.0,,,,,,172.0,404.0,,,10.0,,KIGQ 210355Z AUTO 12005KT 10SM SCT017 OVC040 20/20 A2980 RMK AO2  T02020196,,,4000.0,,,67.28,,ESE,29.15,27.74,,Overcast
KIGQ,08/21/2018 04:15 UTC,29.8,68.36,67.46,96.96,5.75,100.0,,,,,,153.0,383.0,,,10.0,,KIGQ 210415Z AUTO 10005KT 10SM BKN015 BKN038 20/20 A2980 RMK AO2  LTG DSNT NE THRU SE T02020197,,,1500.0,,,67.46,,E,29.15,27.72,,Mostly Cloudy
KIGQ,08/21/2018 04:35 UTC,29.8,68.0,67.46,98.16,4.61,110.0,,,1002.0,,,152.0,382.0,,,10.0,,KIGQ 210435Z AUTO 11004KT 10SM SCT015 SCT038 SCT100 20/20 A2980 RMK AO2 LTG DSNT NE THRU SE T02000197,,,,,,67.46,,ESE,29.15,27.73,,Partly Cloudy
KIGQ,08/21/2018 04:55 UTC,29.8,68.54,68.0,98.16,5.75,110.0,,5.0,1103.0,,,142.0,372.0,,,10.0,,KIGQ 210455Z AUTO 11005KT 10SM VCTS SCT014 SCT037 BKN110 20/20  A2980 RMK AO2 LTG DSNT E T02030200,,,11000.0,,,68.0,,ESE,29.15,27.68,,Thunder
KIGQ,08/21/2018 05:15 UTC,29.8,68.9,68.0,96.96,4.61,130.0,,,1104.0,,,333.0,413.0,,,10.0,,KIGQ 210515Z AUTO 13004KT 10SM BKN033 BKN041 OVC110 21/20 A2980 RMK AO2 LTG DSNT NE THRU SE T02050200,,,3300.0,,,68.0,,SE,29.15,27.68,,Overcast
KIGQ,08/21/2018 06:35 UTC,29.78,68.54,67.46,96.36,5.75,130.0,,13.0,,,,852.0,1102.0,,,10.0,,KIGQ 210635Z AUTO 13005KT 10SM -RA SCT085 SCT110 20/20 A2978 RMK AO2 LTG DSNT SE T02030197,,,,,,67.46,,SE,29.13,27.7,,Light Rain
KIGQ,08/21/2018 06:55 UTC,29.78,68.54,67.64,96.96,5.75,130.0,,77.0,653.0,,,383.0,503.0,,,10.0,,KIGQ 210655Z AUTO 13005KT 10SM -TSRA BKN038 BKN050 BKN065 20/20  A2978 RMK AO2 LTG DSNT E AND SW T02030198,,,3800.0,,,67.64,,SE,29.13,27.69,,Light Rain/Thunderstorm
KIGQ,08/21/2018 07:15 UTC,29.77,68.72,68.0,97.56,5.75,150.0,,,,0.01,,143.0,364.0,,,7.0,,KIGQ 210715Z AUTO 15005KT 7SM +VCTSRA BKN014 OVC036 20/20 A2977 RMK AO2 LTG DSNT E P0001 T02040200,,,1400.0,,,68.0,,SSE,29.12,27.65,,Overcast
KIGQ,08/21/2018 07:35 UTC,29.76,68.54,68.0,98.16,3.44,200.0,,13.0,1104.0,0.02,,132.0,953.0,,,10.0,,KIGQ 210735Z AUTO 20003KT 10SM -RA SCT013 BKN095 OVC110 20/20  A2976 RMK AO2 LTG DSNT W AND NW P0002 T02030200,,,9500.0,,,68.0,,SSW,29.11,27.64,,Light Rain
KIGQ,08/21/2018 07:55 UTC,29.76,68.54,68.18,98.77,0.0,0.0,,13.0,904.0,0.02,,392.0,653.0,,,10.0,,KIGQ 210755Z AUTO 00000KT 10SM -RA SCT039 BKN065 OVC090 20/20  A2976 RMK AO2 LTG DSNT SE W AND NW P0002 T02030201,,,6500.0,,,68.18,,N,29.11,27.63,,Light Rain
KIGQ,08/21/2018 08:15 UTC,29.76,68.72,68.36,98.77,0.0,0.0,,13.0,654.0,,,282.0,453.0,,,10.0,,KIGQ 210815Z AUTO 00000KT 10SM -RA SCT028 BKN045 OVC065 20/20  A2976 RMK AO2 LTG DSNT NW THRU NE T02040202,,,4500.0,,,68.36,,N,29.11,27.62,,Light Rain
KIGQ,08/21/2018 08:35 UTC,29.76,68.9,68.18,97.56,0.0,0.0,,,,,,263.0,334.0,,,10.0,,KIGQ 210835Z AUTO 00000KT 10SM BKN026 OVC033 21/20 A2976 RMK AO2  LTG DSNT NE T02050201,,,2600.0,,,68.18,,N,29.11,27.63,,Overcast
KIGQ,08/21/2018 08:55 UTC,29.76,68.54,68.18,98.77,0.0,0.0,,,,,0.02,63.0,264.0,,,10.0,,KIGQ 210855Z AUTO 00000KT 10SM -VCTSRA BKN006 OVC026 20/20 A2976 RMK AO2 LTG DSNT NE 60002 T02030201,,,600.0,,,68.18,,N,29.11,27.63,,Overcast
KIGQ,08/21/2018 09:15 UTC,29.76,68.36,68.0,98.77,0.0,0.0,,,954.0,,,62.0,393.0,,,10.0,,KIGQ 210915Z AUTO 00000KT 10SM SCT006 BKN039 OVC095 20/20 A2976 RMK AO2 T02020200,,,3900.0,,,68.0,,N,29.11,27.65,,Overcast
KIGQ,08/21/2018 09:35 UTC,29.76,68.36,68.18,99.38,0.0,0.0,,,954.0,,,62.0,503.0,,,10.0,,KIGQ 210935Z AUTO 00000KT 10SM SCT006 BKN050 OVC095 20/20 A2976 RMK AO2 T02020201,,,5000.0,,,68.18,,N,29.11,27.63,,Overcast
KIGQ,08/21/2018 09:55 UTC,29.76,68.18,68.0,99.38,3.44,180.0,,,954.0,,,63.0,703.0,,,10.0,,KIGQ 210955Z AUTO 18003KT 10SM BKN006 BKN070 OVC095 20/20 A2976 RMK AO2 T02010200,,,600.0,,,68.0,,S,29.11,27.65,,Overcast
KIGQ,08/21/2018 10:15 UTC,29.76,68.0,68.0,100.0,0.0,0.0,,,,,,64.0,,,,10.0,,KIGQ 211015Z AUTO 00000KT 10SM OVC006 20/20 A2976 RMK AO2 LTG DSNT  N AND E T02000200,,,600.0,,,68.0,,N,29.11,27.65,,Overcast
KIGQ,08/21/2018 10:35 UTC,29.75,68.0,67.64,98.77,0.0,0.0,,,,,,63.0,954.0,,,10.0,,KIGQ 211035Z AUTO 00000KT 10SM BKN006 OVC095 20/20 A2975 RMK AO2  T02000198,,,600.0,,,67.64,,N,29.1,27.67,,Overcast
KIGQ,08/21/2018 10:55 UTC,29.75,67.46,67.28,99.38,3.44,200.0,,,,,,44.0,,,,10.0,,KIGQ 211055Z AUTO 20003KT 10SM OVC004 20/20 A2975 RMK AO2  T01970196,,,400.0,,,67.28,,SSW,29.1,27.7,,Overcast
KIGQ,08/21/2018 11:15 UTC,29.76,67.1,67.1,100.0,3.44,210.0,,,,,,43.0,953.0,,,7.0,,KIGQ 211115Z AUTO 21003KT 7SM BKN004 BKN095 20/20 A2976 RMK AO2  T01950195,,,400.0,,,67.1,,SSW,29.11,27.72,,Mostly Cloudy
KIGQ,08/21/2018 11:35 UTC,29.76,67.1,66.74,98.77,0.0,0.0,,31.0,,,,42.0,,,,3.0,,KIGQ 211135Z AUTO 00000KT 3SM BR SCT004 20/19 A2976 RMK AO2  T01950193,,,,,,66.74,,N,29.11,27.75,,Mist
KIGQ,08/21/2018 11:55 UTC,29.77,67.1,67.1,100.0,0.0,0.0,,31.0,,,,42.0,,0.02,1.97,4.0,,KIGQ 211155Z AUTO 00000KT 4SM BR SCT004 20/20 A2977 RMK AO2 60002  70197 T01950195 10205 20195,68.9,67.1,,,,67.1,,N,29.12,27.73,,Mist
KIGQ,08/21/2018 12:15 UTC,29.78,68.18,68.18,100.0,0.0,0.0,,31.0,,,,602.0,,,,5.0,,KIGQ 211215Z AUTO 00000KT 5SM BR SCT060 20/20 A2978 RMK AO2  T02010201,,,,,,68.18,,N,29.13,27.66,,Mist
KIGQ,08/21/2018 12:35 UTC,29.78,68.36,68.36,100.0,3.44,250.0,,,603.0,,,32.0,323.0,,,7.0,,KIGQ 211235Z AUTO 25003KT 7SM SCT003 BKN032 BKN060 20/20 A2978 RMK AO2 LTG DSNT NE T02020202,,,3200.0,,,68.36,,WSW,29.13,27.64,,Mostly Cloudy
KIGQ,08/21/2018 12:55 UTC,29.79,69.08,68.9,99.39,4.61,240.0,,,324.0,,,32.0,72.0,,,10.0,,KIGQ 211255Z AUTO 24004KT 10SM SCT003 SCT007 OVC032 21/21 A2979 RMK AO2 LTG DSNT NE T02060205,,,3200.0,,,68.9,,WSW,29.14,27.6,,Overcast
KIGQ,08/21/2018 13:15 UTC,29.8,69.44,67.82,94.6,5.75,240.0,,,404.0,,,82.0,153.0,,,7.0,,KIGQ 211315Z AUTO 24005KT 7SM SCT008 BKN015 OVC040 21/20 A2980 RMK AO2 LTG DSNT NE T02080199,,,1500.0,,,67.81,,WSW,29.15,27.68,,Overcast
KIGQ,08/21/2018 13:35 UTC,29.8,70.34,67.64,91.18,4.61,250.0,,,404.0,,,83.0,153.0,,,7.0,,KIGQ 211335Z AUTO 25004KT 7SM BKN008 BKN015 OVC040 21/20 A2980 RMK AO2 T02130198,,,800.0,,,67.63,,WSW,29.15,27.68,,Overcast
KIGQ,08/21/2018 13:55 UTC,29.8,70.52,67.64,90.62,3.44,250.0,,,,,,84.0,,,,7.0,,KIGQ 211355Z AUTO 25003KT 7SM OVC008 21/20 A2980 RMK AO2  T02140198,,,800.0,,,67.63,,WSW,29.15,27.68,,Overcast
KIGQ,08/21/2018 14:15 UTC,29.8,71.24,68.54,91.21,3.44,290.0,,,,,,84.0,,,,10.0,,KIGQ 211415Z AUTO 29003KT 10SM OVC008 22/20 A2980 RMK AO2  T02180203,,,800.0,,,68.53,,WNW,29.15,27.61,,Overcast
KIGQ,08/21/2018 14:35 UTC,29.8,71.96,68.72,89.57,3.44,270.0,,,,,,84.0,,,,10.0,,KIGQ 211435Z AUTO 27003KT 10SM OVC008 22/20 A2980 RMK AO2  T02220204,,,800.0,,,68.71,,W,29.15,27.59,,Overcast
KIGQ,08/21/2018 14:55 UTC,29.8,73.4,68.9,85.86,0.0,0.0,,,,,,104.0,,,,10.0,,KIGQ 211455Z AUTO 00000KT 10SM OVC010 23/21 A2980 RMK AO2  T02300205,,,1000.0,,,68.89,,N,29.15,27.55,,Overcast
KIGQ,08/21/2018 15:15 UTC,29.81,73.22,68.9,86.38,5.75,280.0,,,,,,104.0,,,,10.0,,KIGQ 211515Z AUTO 28005KT 10SM OVC010 23/21 A2981 RMK AO2  T02290205,,,1000.0,,,68.89,,W,29.16,27.57,,Overcast
KIGQ,08/21/2018 15:35 UTC,29.81,74.66,68.72,81.81,5.75,300.0,,,453.0,,,123.0,213.0,,,10.0,,KIGQ 211535Z AUTO 30005KT 10SM BKN012 BKN021 BKN045 24/20 A2981 RMK AO2 T02370204,,,1200.0,,,68.71,,WNW,29.16,27.56,,Mostly Cloudy
KIGQ,08/21/2018 15:55 UTC,29.82,72.14,68.36,87.94,11.5,310.0,,14.0,324.0,0.06,,92.0,143.0,,,3.0,,KIGQ 211555Z AUTO 31010KT 3SM +RA SCT009 BKN014 OVC032 22/20 A2982 RMK AO2 P0006 T02230202,,,1400.0,,,68.35,,NW,29.17,27.63,,Heavy Rain
KIGQ,08/21/2018 16:15 UTC,29.82,70.88,69.08,94.06,4.61,310.0,,13.0,434.0,0.05,,112.0,303.0,,,7.0,,KIGQ 211615Z AUTO 31004KT 7SM -RA SCT011 BKN030 OVC043 22/21 A2982 RMK AO2 P0005 T02160206,,,3000.0,,,69.08,,NW,29.17,27.6,,Light Rain
KIGQ,08/21/2018 16:35 UTC,29.82,71.96,69.08,90.68,4.61,310.0,,13.0,704.0,0.05,,112.0,203.0,,,7.0,,KIGQ 211635Z AUTO 31004KT 7SM -RA SCT011 BKN020 OVC070 22/21 A2982 RMK AO2 P0005 T02220206,,,2000.0,,,69.07,,NW,29.17,27.58,,Light Rain
KIGQ,08/21/2018 16:55 UTC,29.83,73.94,69.26,85.36,4.61,330.0,,,804.0,0.05,,163.0,293.0,,,10.0,,KIGQ 211655Z AUTO 33004KT 10SM BKN016 BKN029 OVC080 23/21 A2983 RMK AO2 P0005 T02330207,,,1600.0,,,69.25,,NNW,29.18,27.55,,Overcast
KIGQ,08/21/2018 17:15 UTC,29.83,72.5,68.0,85.81,11.5,360.0,20.71,,304.0,,,143.0,233.0,,,10.0,,KIGQ 211715Z AUTO 36010G18KT 10SM BKN014 BKN023 OVC030 23/20 A2983 RMK AO2 T02250200,,,1400.0,,,67.99,,N,29.18,27.66,,Overcast
KIGQ,08/21/2018 17:35 UTC,29.84,71.42,66.38,84.16,11.5,360.0,23.02,,,,,143.0,204.0,,,10.0,,KIGQ 211735Z AUTO 36010G20KT 10SM BKN014 OVC020 22/19 A2984 RMK AO2 T02190191,,,1400.0,,,66.36,,N,29.19,27.79,,Overcast
KIGQ,08/21/2018 17:55 UTC,29.86,70.7,65.3,83.07,10.36,350.0,21.85,,,,,143.0,224.0,0.14,,10.0,,KIGQ 211755Z AUTO 35009G19KT 330V030 10SM BKN014 OVC022 22/19  A2986 RMK AO2 LTG DSNT E 60014 T02150185 10237 20196,74.66,67.28,1400.0,,,65.28,,N,29.21,27.89,,Overcast
KIGQ,08/21/2018 18:15 UTC,29.87,72.32,63.86,74.79,16.11,360.0,24.16,,364.0,,,162.0,293.0,,,10.0,,KIGQ 211815Z AUTO 36014G21KT 10SM SCT016 BKN029 OVC036 22/18 A2987 RMK AO2 T02240177,,,2900.0,,,63.84,,N,29.22,27.97,,Overcast
KIGQ,08/21/2018 18:35 UTC,29.87,71.6,63.5,75.68,13.8,360.0,24.16,,404.0,,,242.0,343.0,,,,,KIGQ 211835Z AUTO 36012G21KT SCT024 BKN034 OVC040 22/18 A2987 RMK AO2 T02200175 PWINO,,,3400.0,,,63.48,,N,29.22,28.0,,Overcast
KIGQ,08/21/2018 18:55 UTC,29.87,71.96,63.68,75.23,13.8,350.0,23.02,,,,,182.0,364.0,,,,,KIGQ 211855Z AUTO 35012G20KT SCT018 OVC036 22/18 A2987 RMK AO2  T02220176 PWINO,,,3600.0,,,63.66,,N,29.22,27.99,,Overcast
KIGQ,08/21/2018 19:15 UTC,29.88,73.4,63.32,70.78,10.36,360.0,20.71,,,,,363.0,434.0,,,10.0,,KIGQ 211915Z AUTO 36009G18KT 10SM BKN036 OVC043 23/17 A2988 RMK AO2 T02300174,,,3600.0,,,63.3,,N,29.23,28.0,,Overcast
KIGQ,08/21/2018 19:35 UTC,29.89,75.74,62.24,63.02,16.11,360.0,21.85,,443.0,,,292.0,362.0,,,10.0,,KIGQ 211935Z AUTO 36014G19KT 10SM SCT029 SCT036 BKN044 24/17 A2989 RMK AO2 T02430168,,,4400.0,,,62.23,,N,29.24,28.05,,Mostly Cloudy
KIGQ,08/21/2018 19:55 UTC,29.89,75.2,62.96,65.81,14.97,360.0,26.46,,603.0,,,292.0,352.0,,,10.0,,KIGQ 211955Z AUTO 36013G23KT 10SM SCT029 SCT035 BKN060 24/17 A2989 RMK AO2 T02400172,,,6000.0,,,62.95,,N,29.24,28.01,,Mostly Cloudy
KIGQ,08/21/2018 20:15 UTC,29.9,73.58,63.68,71.24,11.5,350.0,19.57,,604.0,,,243.0,293.0,,,10.0,,KIGQ 212015Z AUTO 35010G17KT 10SM BKN024 BKN029 OVC060 23/18 A2990 RMK AO2 T02310176,,,2400.0,,,63.66,,N,29.25,28.0,,Overcast
KIGQ,08/21/2018 20:35 UTC,29.89,74.48,64.04,70.0,10.36,360.0,21.85,,654.0,,,243.0,293.0,,,,,KIGQ 212035Z AUTO 36009G19KT BKN024 BKN029 OVC065 24/18 A2989 RMK AO2 T02360178 PWINO,,,2400.0,,,64.02,,N,29.24,27.96,,Overcast
KIGQ,08/21/2018 20:55 UTC,29.9,74.48,63.68,69.13,13.8,350.0,26.46,,704.0,,,242.0,433.0,,,,,KIGQ 212055Z AUTO 35012G23KT SCT024 BKN043 OVC070 24/18 A2990 RMK AO2 T02360176 PWINO,,,4300.0,,,63.66,,N,29.25,27.99,,Overcast
KIGQ,08/21/2018 21:15 UTC,29.91,74.66,64.4,70.46,16.11,360.0,,,433.0,,,222.0,282.0,,,10.0,,KIGQ 212115Z AUTO 36014KT 10SM SCT022 SCT028 BKN043 24/18 A2991 RMK AO2 T02370180,,,4300.0,,,64.38,,N,29.26,27.95,,Mostly Cloudy
KIGQ,08/21/2018 21:35 UTC,29.91,74.84,63.5,67.87,13.8,10.0,24.16,,652.0,,,222.0,312.0,,,,,KIGQ 212135Z AUTO 01012G21KT SCT022 SCT031 SCT065 24/18 A2991 RMK AO2 T02380175 PWINO,,,,,,63.48,,N,29.26,28.01,,Partly Cloudy
KIGQ,08/21/2018 21:55 UTC,29.91,74.3,63.5,69.11,8.05,10.0,23.02,,,,,242.0,312.0,,,,,KIGQ 212155Z AUTO 01007G20KT 350V050 SCT024 SCT031 24/18 A2991 RMK AO2 T02350175 PWINO,,,,,,63.48,,N,29.26,28.01,,Partly Cloudy
KIGQ,08/21/2018 22:15 UTC,29.92,73.76,64.04,71.71,13.8,10.0,19.57,,,,,232.0,,,,10.0,,KIGQ 212215Z AUTO 01012G17KT 10SM SCT023 23/18 A2992 RMK AO2  T02320178,,,,,,64.02,,N,29.27,27.99,,Partly Cloudy
KIGQ,08/21/2018 22:35 UTC,29.93,73.4,63.5,71.22,9.22,10.0,17.27,,,,,232.0,,,,10.0,,KIGQ 212235Z AUTO 01008G15KT 10SM SCT023 23/18 A2993 RMK AO2  T02300175,,,,,,63.48,,N,29.28,28.04,,Partly Cloudy
KIGQ,08/21/2018 22:55 UTC,29.94,73.4,62.96,69.89,9.22,360.0,,,,,,902.0,,,,10.0,,KIGQ 212255Z AUTO 36008KT 10SM SCT090 23/17 A2994 RMK AO2  T02300172,,,,,,62.94,,N,29.29,28.09,,Partly Cloudy
KIGQ,08/21/2018 23:15 UTC,29.94,72.68,64.4,75.3,6.91,20.0,,,,,,903.0,,,,10.0,,KIGQ 212315Z AUTO 02006KT 10SM BKN090 23/18 A2994 RMK AO2  T02260180,,,9000.0,,,64.38,,NNE,29.29,28.01,,Mostly Cloudy
KIGQ,08/21/2018 23:35 UTC,29.94,71.96,63.68,75.23,10.36,10.0,16.11,,,,,1003.0,,,,10.0,,KIGQ 212335Z AUTO 01009G14KT 10SM BKN100 22/18 A2994 RMK AO2  T02220176,,,10000.0,,,63.66,,N,29.29,28.06,,Mostly Cloudy
KIGQ,08/21/2018 23:55 UTC,29.95,71.6,64.04,77.12,5.75,20.0,,,,,,1002.0,,,,10.0,,KIGQ 212355Z AUTO 02005KT 10SM SCT100 22/18 A2995 RMK AO2  T02200178 10243 20214,75.74,70.52,,,,64.02,,NNE,29.3,28.05,,Partly Cloudy
KIGQ,08/22/2018 00:15 UTC,29.96,70.88,63.68,78.03,5.75,20.0,,,,,,402.0,952.0,,,10.0,,KIGQ 220015Z AUTO 02005KT 10SM SCT040 SCT095 22/18 A2996 RMK AO2  T02160176,,,,,,63.66,,NNE,29.31,28.09,,Partly Cloudy
KIGQ,08/22/2018 00:35 UTC,29.96,70.7,63.86,79.01,3.44,10.0,,,,,,1.0,,,,10.0,,KIGQ 220035Z AUTO 01003KT 10SM CLR 22/18 A2996 RMK AO2  T02150177,,,,,,63.84,,N,29.31,28.08,,Clear
KIGQ,08/22/2018 00:55 UTC,29.97,70.7,63.86,79.01,5.75,360.0,,,,,,382.0,,,,10.0,,KIGQ 220055Z AUTO 36005KT 10SM SCT038 22/18 A2997 RMK AO2  T02150177,,,,,,63.84,,N,29.32,28.09,,Partly Cloudy
KIGQ,08/22/2018 01:15 UTC,29.98,70.7,64.04,79.51,8.05,20.0,,,603.0,,,362.0,443.0,,,10.0,,KIGQ 220115Z AUTO 02007KT 10SM SCT036 BKN044 BKN060 22/18 A2998 RMK AO2 T02150178,,,4400.0,,,64.02,,NNE,29.33,28.09,,Mostly Cloudy
KIGQ,08/22/2018 01:35 UTC,29.98,70.34,63.86,79.98,3.44,10.0,,,602.0,,,322.0,402.0,,,10.0,,KIGQ 220135Z AUTO 01003KT 10SM SCT032 SCT040 SCT060 21/18 A2998 RMK AO2 T02130177,,,,,,63.84,,N,29.33,28.11,,Partly Cloudy
KIGQ,08/22/2018 01:55 UTC,29.99,70.16,63.86,80.47,4.61,360.0,,,,,,352.0,,,,10.0,,KIGQ 220155Z AUTO 36004KT 10SM SCT035 21/18 A2999 RMK AO2  T02120177,,,,,,63.84,,N,29.34,28.12,,Partly Cloudy
KIGQ,08/22/2018 02:15 UTC,30.0,70.34,64.22,80.99,5.75,350.0,,,,,,222.0,323.0,,,10.0,,KIGQ 220215Z AUTO 35005KT 10SM SCT022 BKN032 21/18 A3000 RMK AO2  T02130179,,,3200.0,,,64.2,,N,29.35,28.11,,Mostly Cloudy
KIGQ,08/22/2018 02:35 UTC,30.0,70.34,63.86,79.98,6.91,10.0,,,,,,263.0,314.0,,,10.0,,KIGQ 220235Z AUTO 01006KT 10SM BKN026 OVC031 21/18 A3000 RMK AO2  T02130177,,,2600.0,,,63.84,,N,29.35,28.13,,Overcast
KIGQ,08/22/2018 02:55 UTC,30.01,70.16,63.32,78.96,6.91,360.0,,13.0,1104.0,,,273.0,323.0,,,10.0,,KIGQ 220255Z AUTO 36006KT 10SM -RA BKN027 BKN032 OVC110 21/17  A3001 RMK AO2 T02120174,,,2700.0,,,63.29,,N,29.36,28.17,,Light Rain
KIGQ,08/22/2018 03:15 UTC,30.01,69.8,63.5,80.44,4.61,360.0,,,904.0,,,292.0,363.0,,,10.0,,KIGQ 220315Z AUTO 36004KT 10SM SCT029 BKN036 OVC090 21/18 A3001 RMK AO2 T02100175,,,3600.0,,,63.48,,N,29.36,28.17,,Overcast
KIGQ,08/22/2018 03:35 UTC,30.01,68.9,64.22,85.07,0.0,0.0,,13.0,904.0,,,292.0,603.0,,,10.0,,KIGQ 220335Z AUTO 00000KT 10SM -RA SCT029 BKN060 OVC090 21/18  A3001 RMK AO2 T02050179,,,6000.0,,,64.2,,N,29.36,28.14,,Light Rain
KIGQ,08/22/2018 03:55 UTC,30.01,69.08,63.5,82.44,5.75,350.0,,,604.0,,,282.0,402.0,,,10.0,,KIGQ 220355Z AUTO 35005KT 10SM SCT028 SCT040 OVC060 21/18 A3001 RMK AO2 T02060175,,,6000.0,,,63.48,,N,29.36,28.18,,Overcast
KIGQ,08/22/2018 04:15 UTC,30.01,69.44,62.78,79.41,8.05,330.0,,,,,,263.0,434.0,,,10.0,,KIGQ 220415Z AUTO 33007KT 10SM BKN026 OVC043 21/17 A3001 RMK AO2  T02080171,,,2600.0,,,62.76,,NNW,29.36,28.22,,Overcast
KIGQ,08/22/2018 04:35 UTC,30.01,68.9,62.42,79.87,8.05,320.0,,,444.0,,,243.0,343.0,,,10.0,,KIGQ 220435Z AUTO 32007KT 10SM BKN024 BKN034 OVC044 21/17 A3001 RMK AO2 T02050169,,,2400.0,,,62.39,,NW,29.36,28.24,,Overcast
KIGQ,08/22/2018 04:55 UTC,30.01,68.18,61.7,79.81,8.05,310.0,,,,,,242.0,344.0,,,10.0,,KIGQ 220455Z AUTO 31007KT 10SM SCT024 OVC034 20/17 A3001 RMK AO2  T02010165,,,3400.0,,,61.67,,NW,29.36,28.29,,Overcast
KIGQ,08/22/2018 05:15 UTC,30.01,67.64,61.34,80.28,4.61,330.0,,,503.0,,,262.0,342.0,,,10.0,,KIGQ 220515Z AUTO 33004KT 10SM SCT026 SCT034 BKN050 20/16 A3001 RMK AO2 T01980163,,,5000.0,,,61.31,,NNW,29.36,28.32,,Mostly Cloudy
KIGQ,08/22/2018 05:35 UTC,30.02,67.28,61.16,80.76,3.44,320.0,,,,,,504.0,,,,10.0,,KIGQ 220535Z AUTO 32003KT 10SM OVC050 20/16 A3002 RMK AO2  T01960162,,,5000.0,,,61.13,,NW,29.37,28.34,,Overcast
KIGQ,08/22/2018 05:55 UTC,30.02,66.56,60.44,80.71,4.61,320.0,,,,,,312.0,503.0,,,10.0,,KIGQ 220555Z AUTO 32004KT 10SM SCT031 BKN050 19/16 A3002 RMK AO2  T01920158 10219 20192 402430192,71.42,66.56,5000.0,75.74,66.56,60.41,,NW,29.37,28.39,,Mostly Cloudy
KIGQ,08/22/2018 06:15 UTC,30.02,66.2,59.9,80.17,4.61,320.0,,,,,,332.0,,,,10.0,,KIGQ 220615Z AUTO 32004KT 10SM SCT033 19/16 A3002 RMK AO2  T01900155,,,,,,59.87,,NW,29.37,28.42,,Partly Cloudy
KIGQ,08/22/2018 06:35 UTC,30.03,66.56,59.72,78.67,3.44,330.0,,,553.0,,,303.0,363.0,,,10.0,,KIGQ 220635Z AUTO 33003KT 10SM BKN030 BKN036 BKN055 19/15 A3003 RMK AO2 T01920154,,,3000.0,,,59.69,,NNW,29.38,28.44,,Mostly Cloudy
KIGQ,08/22/2018 06:55 UTC,30.03,66.56,58.64,75.7,4.61,340.0,,,,,,303.0,554.0,,,10.0,,KIGQ 220655Z AUTO 34004KT 10SM BKN030 OVC055 19/15 A3003 RMK AO2  T01920148,,,3000.0,,,58.6,,NNW,29.38,28.5,,Overcast
KIGQ,08/22/2018 07:15 UTC,30.03,66.2,58.1,75.18,3.44,350.0,,,,,,302.0,503.0,,,10.0,,KIGQ 220715Z AUTO 35003KT 10SM SCT030 BKN050 19/15 A3003 RMK AO2  T01900145,,,5000.0,,,58.06,,N,29.38,28.53,,Mostly Cloudy
KIGQ,08/22/2018 07:35 UTC,30.03,66.38,56.48,70.48,5.75,360.0,,,,,,503.0,,,,10.0,,KIGQ 220735Z AUTO 36005KT 10SM BKN050 19/14 A3003 RMK AO2  T01910136,,,5000.0,,,56.43,,N,29.38,28.6,,Mostly Cloudy
KIGQ,08/22/2018 07:55 UTC,30.04,65.3,56.48,73.17,6.91,330.0,,,,,,502.0,,,,10.0,,KIGQ 220755Z AUTO 33006KT 10SM SCT050 19/14 A3004 RMK AO2  T01850136,,,,,,56.43,,NNW,29.39,28.63,,Partly Cloudy
KIGQ,08/22/2018 08:15 UTC,30.05,64.22,55.58,73.54,8.05,330.0,,,,,,1.0,,,,10.0,,KIGQ 220815Z AUTO 33007KT 10SM CLR 18/13 A3005 RMK AO2  T01790131,,,,,,55.53,,NNW,29.4,28.69,,Clear
KIGQ,08/22/2018 08:35 UTC,30.06,63.68,54.5,72.05,6.91,320.0,,,,,,1.0,,,,10.0,,KIGQ 220835Z AUTO 32006KT 10SM CLR 18/13 A3006 RMK AO2  T01760125,,,,,,54.44,,NW,29.41,28.75,,Clear
KIGQ,08/22/2018 08:55 UTC,30.06,62.78,53.78,72.44,5.75,330.0,,,,,,1.0,,,,10.0,,KIGQ 220855Z AUTO 33005KT 10SM CLR 17/12 A3006 RMK AO2  T01710121,,,,,,53.72,,NNW,29.41,28.79,,Clear
KIGQ,08/22/2018 09:15 UTC,30.07,61.88,53.42,73.79,6.91,320.0,,,,,,1.0,,,,10.0,,KIGQ 220915Z AUTO 32006KT 10SM CLR 17/12 A3007 RMK AO2  T01660119,,,,,,53.36,,NW,29.42,28.83,,Clear
KIGQ,08/22/2018 09:35 UTC,30.08,61.52,53.06,73.75,5.75,320.0,,,,,,1.0,,,,10.0,,KIGQ 220935Z AUTO 32005KT 10SM CLR 16/12 A3008 RMK AO2  T01640117,,,,,,53.0,,NW,29.43,28.86,,Clear
KIGQ,08/22/2018 09:55 UTC,30.08,60.8,52.7,74.66,6.91,310.0,,,,,,1.0,,,,10.0,,KIGQ 220955Z AUTO 31006KT 10SM CLR 16/12 A3008 RMK AO2  T01600115,,,,,,52.64,,NW,29.43,28.88,,Clear
KIGQ,08/22/2018 10:15 UTC,30.09,60.26,51.98,74.12,5.75,320.0,,,,,,1.0,,,,10.0,,KIGQ 221015Z AUTO 32005KT 10SM CLR 16/11 A3009 RMK AO2  T01570111,,,,,,51.92,,NW,29.44,28.92,,Clear
KIGQ,08/22/2018 10:35 UTC,30.09,60.08,51.8,74.1,8.05,320.0,,,,,,1.0,,,,10.0,,KIGQ 221035Z AUTO 32007KT 10SM CLR 16/11 A3009 RMK AO2  T01560110,,,,,,51.74,,NW,29.44,28.93,,Clear
KIGQ,08/22/2018 10:55 UTC,30.1,59.36,51.44,75.02,5.75,320.0,,,,,,1.0,,,,10.0,,KIGQ 221055Z AUTO 32005KT 10SM CLR 15/11 A3010 RMK AO2  T01520108,,,,,,51.38,,NW,29.45,28.96,,Clear
KIGQ,08/22/2018 11:15 UTC,30.11,59.36,51.08,74.03,11.5,320.0,17.27,,,,,1.0,,,,10.0,,KIGQ 221115Z AUTO 32010G15KT 10SM CLR 15/11 A3011 RMK AO2  T01520106,,,,,,51.01,,NW,29.46,28.99,,Clear
KIGQ,08/22/2018 11:35 UTC,30.11,59.36,50.9,73.54,9.22,320.0,,,,,,1.0,,,,10.0,,KIGQ 221135Z AUTO 32008KT 10SM CLR 15/11 A3011 RMK AO2  T01520105,,,,,,50.83,,NW,29.46,28.99,,Clear
KIGQ,08/22/2018 11:55 UTC,30.11,59.72,51.08,73.09,10.36,320.0,17.27,,,,,1.0,,,0.14,10.0,,KIGQ 221155Z AUTO 32009G15KT 10SM CLR 15/11 A3011 RMK AO2 LTG DSNT  NE 70014 T01540106 10196 20150,67.28,59.0,,,,51.01,,NW,29.46,28.98,,Clear
KIGQ,08/22/2018 12:15 UTC,30.12,60.62,51.44,71.73,9.22,320.0,,,,,,1.0,,,,10.0,,KIGQ 221215Z AUTO 32008KT 10SM CLR 16/11 A3012 RMK AO2  T01590108,,,,,,51.37,,NW,29.47,28.97,,Clear
KIGQ,08/22/2018 12:35 UTC,30.12,61.88,51.98,69.99,6.91,330.0,,,,,,1.0,,,,10.0,,KIGQ 221235Z AUTO 33006KT 10SM CLR 17/11 A3012 RMK AO2  T01660111,,,,,,51.91,,NNW,29.47,28.94,,Clear
KIGQ,08/22/2018 12:55 UTC,30.12,63.5,52.16,66.56,3.44,330.0,,,,,,1.0,,,,10.0,,KIGQ 221255Z AUTO 33003KT 10SM CLR 18/11 A3012 RMK AO2  T01750112,,,,,,52.09,,NNW,29.47,28.91,,Clear
KIGQ,08/22/2018 13:15 UTC,30.13,64.58,52.52,64.95,6.91,320.0,,,,,,1.0,,,,10.0,,KIGQ 221315Z AUTO 32006KT 10SM CLR 18/11 A3013 RMK AO2  T01810114,,,,,,52.45,,NW,29.47,28.89,,Clear
KIGQ,08/22/2018 13:35 UTC,30.13,65.84,52.16,61.34,9.22,340.0,,,,,,1.0,,,,10.0,,KIGQ 221335Z AUTO 34008KT 10SM CLR 19/11 A3013 RMK AO2  T01880112,,,,,,52.09,,NNW,29.47,28.89,,Clear
KIGQ,08/22/2018 13:55 UTC,30.14,66.56,51.98,59.44,6.91,360.0,,,,,,1.0,,,,10.0,,KIGQ 221355Z AUTO 36006KT 10SM CLR 19/11 A3014 RMK AO2  T01920111,,,,,,51.91,,N,29.48,28.9,,Clear
KIGQ,08/22/2018 14:15 UTC,30.14,67.82,52.52,58.06,6.91,350.0,,,,,,1.0,,,,10.0,,KIGQ 221415Z AUTO 35006KT 10SM CLR 20/11 A3014 RMK AO2  T01990114,,,,,,52.46,,N,29.48,28.87,,Clear
KIGQ,08/22/2018 14:35 UTC,30.14,68.9,53.42,57.82,4.61,360.0,,,,,,1.0,,,,10.0,,KIGQ 221435Z AUTO 36004KT 10SM CLR 21/12 A3014 RMK AO2  T02050119,,,,,,53.36,,N,29.48,28.82,,Clear
KIGQ,08/22/2018 14:55 UTC,30.15,69.62,53.24,56.05,9.22,360.0,,,,,,1.0,,,,10.0,,KIGQ 221455Z AUTO 36008KT 10SM CLR 21/12 A3015 RMK AO2  T02090118,,,,,,53.18,,N,29.49,28.83,,Clear
KIGQ,08/22/2018 15:15 UTC,30.15,70.52,53.78,55.44,8.05,310.0,,,,,,1.0,,,,10.0,,KIGQ 221515Z AUTO 31007KT 10SM CLR 21/12 A3015 RMK AO2  T02140121,,,,,,53.73,,NW,29.49,28.8,,Clear
KIGQ,08/22/2018 15:35 UTC,30.15,71.42,52.7,51.69,9.22,320.0,16.11,,,,,1.0,,,,10.0,,KIGQ 221535Z AUTO 32008G14KT 10SM CLR 22/12 A3015 RMK AO2  T02190115,,,,,,52.65,,NW,29.49,28.84,,Clear
KIGQ,08/22/2018 15:55 UTC,30.15,72.86,53.6,50.89,6.91,330.0,,,,,,1.0,,,,10.0,,KIGQ 221555Z AUTO 33006KT 10SM CLR 23/12 A3015 RMK AO2  T02270120,,,,,,53.56,,NNW,29.49,28.79,,Clear
KIGQ,08/22/2018 16:15 UTC,30.15,73.76,52.16,46.83,6.91,350.0,,,,,,1.0,,,,10.0,,KIGQ 221615Z AUTO 35006KT 10SM CLR 23/11 A3015 RMK AO2  T02320112,,,,,,52.12,,N,29.49,28.84,,Clear
KIGQ,08/22/2018 16:35 UTC,30.15,74.3,50.36,43.04,5.75,20.0,,,,,,1.0,,,,10.0,,KIGQ 221635Z AUTO 02005KT 10SM CLR 24/10 A3015 RMK AO2  T02350102,,,,,,50.33,,NNE,29.49,28.91,,Clear
KIGQ,08/22/2018 16:55 UTC,30.15,75.38,49.64,40.42,11.5,320.0,,,,,,502.0,,,,10.0,,KIGQ 221655Z AUTO 32010KT 10SM SCT050 24/10 A3015 RMK AO2  T02410098,,,,,,49.62,,NW,29.49,28.93,,Partly Cloudy
KIGQ,08/22/2018 17:15 UTC,30.14,75.92,50.36,40.77,6.91,330.0,,,,,,1.0,,,,10.0,,KIGQ 221715Z AUTO 33006KT 10SM CLR 24/10 A3014 RMK AO2  T02440102,,,,,,50.34,,NNW,29.48,28.89,,Clear
KIGQ,08/22/2018 17:35 UTC,30.14,76.1,49.28,38.94,13.8,330.0,25.32,,,,,652.0,802.0,,,10.0,,KIGQ 221735Z AUTO 33012G22KT 310V020 10SM SCT065 SCT080 25/10  A3014 RMK AO2 T02450096,,,,,,49.27,,NNW,29.48,28.93,,Partly Cloudy
KIGQ,08/22/2018 17:55 UTC,30.14,76.82,48.92,37.51,10.36,330.0,16.11,,,,,652.0,802.0,,,10.0,,KIGQ 221755Z AUTO 33009G14KT 10SM SCT065 SCT080 25/09 A3014 RMK AO2 T02490094 10251 20155,77.18,59.9,,,,48.91,,NNW,29.48,28.94,,Partly Cloudy
KIGQ,08/22/2018 18:15 UTC,30.13,77.0,50.0,38.82,8.05,50.0,,,,,,802.0,852.0,,,10.0,,KIGQ 221815Z AUTO 05007KT 10SM SCT080 SCT085 25/10 A3013 RMK AO2  T02500100,,,,,,49.99,,NE,29.47,28.89,,Partly Cloudy
KIGQ,08/22/2018 18:35 UTC,30.13,74.66,49.82,41.68,4.61,20.0,,,,,,702.0,803.0,,,10.0,,KIGQ 221835Z AUTO 02004KT 10SM SCT070 BKN080 24/10 A3013 RMK AO2  T02370099,,,8000.0,,,49.79,,NNE,29.47,28.91,,Mostly Cloudy
KIGQ,08/22/2018 18:55 UTC,30.13,74.84,48.74,39.79,8.05,360.0,,,,,,702.0,802.0,,,10.0,,KIGQ 221855Z AUTO 36007KT 10SM SCT070 SCT080 24/09 A3013 RMK AO2  T02380093,,,,,,48.71,,N,29.47,28.95,,Partly Cloudy
KIGQ,08/22/2018 19:15 UTC,30.13,74.3,49.1,41.06,8.05,10.0,,,,,,703.0,803.0,,,10.0,,KIGQ 221915Z AUTO 01007KT 10SM BKN070 BKN080 24/10 A3013 RMK AO2  T02350095,,,7000.0,,,49.06,,N,29.47,28.94,,Mostly Cloudy
KIGQ,08/22/2018 19:35 UTC,30.12,75.38,49.1,39.61,5.75,30.0,,,,,,702.0,903.0,,,10.0,,KIGQ 221935Z AUTO 03005KT 10SM SCT070 BKN090 24/10 A3012 RMK AO2  T02410095,,,9000.0,,,49.07,,NNE,29.47,28.94,,Mostly Cloudy
KIGQ,08/22/2018 19:55 UTC,30.12,76.64,49.28,38.24,8.05,30.0,,,,,,903.0,,,,10.0,,KIGQ 221955Z AUTO 03007KT 10SM BKN090 25/10 A3012 RMK AO2  T02480096,,,9000.0,,,49.27,,NNE,29.47,28.92,,Mostly Cloudy
KIGQ,08/22/2018 20:15 UTC,30.12,77.36,49.1,37.1,3.44,10.0,,,,,,803.0,,,,10.0,,KIGQ 222015Z AUTO 01003KT 10SM BKN080 25/10 A3012 RMK AO2  T02520095,,,8000.0,,,49.1,,N,29.47,28.92,,Mostly Cloudy
KIGQ,08/22/2018 20:35 UTC,30.11,76.1,49.28,38.94,3.44,10.0,,,,,,803.0,,,,10.0,,KIGQ 222035Z AUTO 01003KT 10SM BKN080 25/10 A3011 RMK AO2  T02450096,,,8000.0,,,49.27,,N,29.46,28.91,,Mostly Cloudy
KIGQ,08/22/2018 20:55 UTC,30.11,75.74,48.92,38.88,5.75,20.0,,,,,,703.0,803.0,,,10.0,,KIGQ 222055Z AUTO 02005KT 10SM BKN070 BKN080 24/09 A3011 RMK AO2  T02430094,,,7000.0,,,48.9,,NNE,29.46,28.93,,Mostly Cloudy
KIGQ,08/22/2018 21:15 UTC,30.11,75.2,49.1,39.85,3.44,350.0,,,,,,804.0,,,,10.0,,KIGQ 222115Z AUTO 35003KT 10SM OVC080 24/10 A3011 RMK AO2  T02400095,,,8000.0,,,49.07,,N,29.46,28.93,,Overcast
KIGQ,08/22/2018 21:35 UTC,30.11,74.48,49.46,41.37,5.75,20.0,,,,,,702.0,853.0,,,10.0,,KIGQ 222135Z AUTO 02005KT 10SM SCT070 BKN085 24/10 A3011 RMK AO2  T02360097,,,8500.0,,,49.43,,NNE,29.46,28.92,,Mostly Cloudy
KIGQ,08/22/2018 21:55 UTC,30.11,75.38,49.82,40.69,4.61,30.0,,,,,,752.0,853.0,,,10.0,,KIGQ 222155Z AUTO 03004KT 10SM SCT075 BKN085 24/10 A3011 RMK AO2  T02410099,,,8500.0,,,49.8,,NNE,29.46,28.9,,Mostly Cloudy
KIGQ,08/22/2018 22:15 UTC,30.11,75.38,51.98,44.08,4.61,60.0,,,,,,753.0,854.0,,,10.0,,KIGQ 222215Z AUTO 06004KT 10SM BKN075 OVC085 24/11 A3011 RMK AO2  T02410111,,,7500.0,,,51.96,,ENE,29.46,28.8,,Overcast
KIGQ,08/22/2018 22:35 UTC,30.11,75.74,51.8,43.26,3.44,30.0,,,,,,753.0,904.0,,,10.0,,KIGQ 222235Z AUTO 03003KT 10SM BKN075 OVC090 24/11 A3011 RMK AO2  T02430110,,,7500.0,,,51.78,,NNE,29.46,28.81,,Overcast
KIGQ,08/22/2018 22:55 UTC,30.11,75.2,51.98,44.34,5.75,90.0,,,,,,753.0,904.0,,,10.0,,KIGQ 222255Z AUTO 09005KT 10SM BKN075 OVC090 24/11 A3011 RMK AO2  T02400111,,,7500.0,,,51.95,,E,29.46,28.81,,Overcast
KIGQ,08/22/2018 23:15 UTC,30.11,74.48,51.8,45.12,5.75,80.0,,,,,,753.0,804.0,,,10.0,,KIGQ 222315Z AUTO 08005KT 10SM BKN075 OVC080 24/11 A3011 RMK AO2  T02360110,,,7500.0,,,51.77,,E,29.46,28.82,,Overcast
KIGQ,08/22/2018 23:35 UTC,30.11,74.3,51.98,45.69,0.0,0.0,,,,,,703.0,803.0,,,10.0,,KIGQ 222335Z AUTO 00000KT 10SM BKN070 BKN080 24/11 A3011 RMK AO2  T02350111,,,7000.0,,,51.95,,N,29.46,28.81,,Mostly Cloudy
KIGQ,08/22/2018 23:55 UTC,30.11,73.4,51.44,46.16,3.44,90.0,,,,,,702.0,803.0,,,10.0,,KIGQ 222355Z AUTO 09003KT 10SM SCT070 BKN080 23/11 A3011 RMK AO2  T02300108 10255 20230,77.9,73.4,8000.0,,,51.4,,E,29.46,28.84,,Mostly Cloudy
KIGQ,08/23/2018 00:15 UTC,30.11,72.86,52.52,48.91,0.0,0.0,,,,,,703.0,804.0,,,10.0,,KIGQ 230015Z AUTO 00000KT 10SM BKN070 OVC080 23/11 A3011 RMK AO2  T02270114,,,7000.0,,,52.47,,N,29.46,28.8,,Overcast
KIGQ,08/23/2018 00:35 UTC,30.11,72.14,51.8,48.8,0.0,0.0,,,,,,703.0,,,,10.0,,KIGQ 230035Z AUTO 00000KT 10SM BKN070 22/11 A3011 RMK AO2  T02230110,,,7000.0,,,51.75,,N,29.46,28.84,,Mostly Cloudy
KIGQ,08/23/2018 00:55 UTC,30.11,71.24,51.98,50.65,0.0,0.0,,,,,,702.0,,,,10.0,,KIGQ 230055Z AUTO 00000KT 10SM SCT070 22/11 A3011 RMK AO2  T02180111,,,,,,51.93,,N,29.46,28.84,,Partly Cloudy
KIGQ,08/23/2018 01:15 UTC,30.12,67.1,53.96,62.74,0.0,0.0,,,,,,1.0,,,,10.0,,KIGQ 230115Z AUTO 00000KT 10SM CLR 20/12 A3012 RMK AO2  T01950122,,,,,,53.9,,N,29.47,28.8,,Clear
KIGQ,08/23/2018 01:35 UTC,30.12,65.66,52.16,61.73,0.0,0.0,,,,,,1.0,,,,10.0,,KIGQ 230135Z AUTO 00000KT 10SM CLR 19/11 A3012 RMK AO2  T01870112,,,,,,52.09,,N,29.47,28.89,,Clear
KIGQ,08/23/2018 01:55 UTC,30.13,63.5,54.68,72.99,0.0,0.0,,,,,,1.0,,,,10.0,,KIGQ 230155Z AUTO 00000KT 10SM CLR 18/13 A3013 RMK AO2  T01750126,,,,,,54.63,,N,29.47,28.81,,Clear
KIGQ,08/23/2018 02:15 UTC,30.13,61.7,54.68,77.75,0.0,0.0,,,,,,1.0,,,,10.0,,KIGQ 230215Z AUTO 00000KT 10SM CLR 17/13 A3013 RMK AO2  T01650126,,,,,,54.63,,N,29.47,28.83,,Clear
KIGQ,08/23/2018 02:35 UTC,30.14,60.8,54.68,80.27,0.0,0.0,,,,,,1.0,,,,10.0,,KIGQ 230235Z AUTO 00000KT 10SM CLR 16/13 A3014 RMK AO2  T01600126,,,,,,54.63,,N,29.48,28.85,,Clear
KIGQ,08/23/2018 02:55 UTC,30.14,61.16,54.86,79.77,0.0,0.0,,,,,,1.0,,,,10.0,,KIGQ 230255Z AUTO 00000KT 10SM CLR 16/13 A3014 RMK AO2  T01620127,,,,,,54.81,,N,29.48,28.83,,Clear
KIGQ,08/23/2018 03:15 UTC,30.14,59.72,55.4,85.62,0.0,0.0,,,,,,1.0,,,,10.0,,KIGQ 230315Z AUTO 00000KT 10SM CLR 15/13 A3014 RMK AO2  T01540130,,,,,,55.37,,N,29.48,28.83,,Clear
KIGQ,08/23/2018 03:35 UTC,30.14,59.0,55.4,87.85,0.0,0.0,,,,,,1.0,,,,10.0,,KIGQ 230335Z AUTO 00000KT 10SM CLR 15/13 A3014 RMK AO2  T01500130,,,,,,55.37,,N,29.48,28.83,,Clear
KIGQ,08/23/2018 03:55 UTC,30.14,59.54,55.22,85.61,0.0,0.0,,,,,,1.0,,,,10.0,,KIGQ 230355Z AUTO 00000KT 10SM CLR 15/13 A3014 RMK AO2  T01530129,,,,,,55.19,,N,29.48,28.84,,Clear
KIGQ,08/23/2018 04:15 UTC,30.13,58.1,54.86,88.96,0.0,0.0,,,,,,1.0,,,,10.0,,KIGQ 230415Z AUTO 00000KT 10SM CLR 15/13 A3013 RMK AO2  T01450127,,,,,,54.83,,N,29.47,28.86,,Clear
KIGQ,08/23/2018 04:35 UTC,30.13,59.36,54.86,85.04,0.0,0.0,,,,,,1.0,,,,10.0,,KIGQ 230435Z AUTO 00000KT 10SM CLR 15/13 A3013 RMK AO2  T01520127,,,,,,54.82,,N,29.47,28.84,,Clear
KIGQ,08/23/2018 04:55 UTC,30.13,57.38,53.96,88.34,0.0,0.0,,,,,,1.0,,,,10.0,,KIGQ 230455Z AUTO 00000KT 10SM CLR 14/12 A3013 RMK AO2  T01410122,,,,,,53.93,,N,29.47,28.9,,Clear
KIGQ,08/23/2018 05:15 UTC,30.13,57.38,54.14,88.92,0.0,0.0,,,,,,1.0,,,,10.0,,KIGQ 230515Z AUTO 00000KT 10SM CLR 14/12 A3013 RMK AO2  T01410123,,,,,,54.11,,N,29.47,28.9,,Clear
KIGQ,08/23/2018 05:35 UTC,30.13,56.66,53.96,90.66,0.0,0.0,,,,,,1.0,,,,10.0,,KIGQ 230535Z AUTO 00000KT 10SM CLR 14/12 A3013 RMK AO2  T01370122,,,,,,53.93,,N,29.47,28.91,,Clear
KIGQ,08/23/2018 05:55 UTC,30.13,55.76,53.24,91.23,0.0,0.0,,,,,,1.0,,,,10.0,,KIGQ 230555Z AUTO 00000KT 10SM CLR 13/12 A3013 RMK AO2 T01320118  10230 20132 402550132,73.4,55.76,,77.9,55.76,53.22,,N,29.47,28.95,,Clear
KIGQ,08/23/2018 06:15 UTC,30.13,55.94,53.24,90.64,0.0,0.0,,,,,,1.0,,,,10.0,,KIGQ 230615Z AUTO 00000KT 10SM CLR 13/12 A3013 RMK AO2  T01330118,,,,,,53.22,,N,29.47,28.95,,Clear
KIGQ,08/23/2018 06:35 UTC,30.13,55.76,53.6,92.44,0.0,0.0,,,,,,1.0,,,,10.0,,KIGQ 230635Z AUTO 00000KT 10SM CLR 13/12 A3013 RMK AO2  T01320120,,,,,,53.58,,N,29.47,28.94,,Clear
KIGQ,08/23/2018 06:55 UTC,30.13,54.86,52.34,91.19,0.0,0.0,,,,,,1.0,,,,10.0,,KIGQ 230655Z AUTO 00000KT 10SM CLR 13/11 A3013 RMK AO2  T01270113,,,,,,52.31,,N,29.47,28.99,,Clear
KIGQ,08/23/2018 07:15 UTC,30.13,54.68,52.52,92.4,0.0,0.0,,,,,,1.0,,,,10.0,,KIGQ 230715Z AUTO 00000KT 10SM CLR 13/11 A3013 RMK AO2  T01260114,,,,,,52.5,,N,29.47,28.99,,Clear
KIGQ,08/23/2018 07:35 UTC,30.13,54.68,52.52,92.4,0.0,0.0,,,,,,1.0,,,,10.0,,KIGQ 230735Z AUTO 00000KT 10SM CLR 13/11 A3013 RMK AO2  T01260114,,,,,,52.5,,N,29.47,28.99,,Clear
KIGQ,08/23/2018 07:55 UTC,30.13,53.6,51.8,93.6,0.0,0.0,,,,,,1.0,,,,10.0,,KIGQ 230755Z AUTO 00000KT 10SM CLR 12/11 A3013 RMK AO2  T01200110,,,,,,51.78,,N,29.47,29.03,,Clear
KIGQ,08/23/2018 08:15 UTC,30.13,54.5,52.52,93.01,0.0,0.0,,,,,,1.0,,,,10.0,,KIGQ 230815Z AUTO 00000KT 10SM CLR 13/11 A3013 RMK AO2  T01250114,,,,,,52.5,,N,29.47,28.99,,Clear
KIGQ,08/23/2018 08:35 UTC,30.13,53.78,52.34,94.86,0.0,0.0,,,,,,1.0,,,,10.0,,KIGQ 230835Z AUTO 00000KT 10SM CLR 12/11 A3013 RMK AO2  T01210113,,,,,,52.33,,N,29.47,29.01,,Clear
KIGQ,08/23/2018 08:55 UTC,30.13,53.78,53.06,97.4,0.0,0.0,,,,,,1.0,,,,10.0,,KIGQ 230855Z AUTO 00000KT 10SM CLR 12/12 A3013 RMK AO2  T01210117,,,,,,53.05,,N,29.47,28.98,,Clear
KIGQ,08/23/2018 09:15 UTC,30.14,53.06,51.98,96.11,0.0,0.0,,,,,,1.0,,,,10.0,,KIGQ 230915Z AUTO 00000KT 10SM CLR 12/11 A3014 RMK AO2  T01170111,,,,,,51.97,,N,29.48,29.04,,Clear
KIGQ,08/23/2018 09:35 UTC,30.14,52.16,51.08,96.09,0.0,0.0,,,,,,1.0,,,,10.0,,KIGQ 230935Z AUTO 00000KT 10SM CLR 11/11 A3014 RMK AO2  T01120106,,,,,,51.07,,N,29.48,29.08,,Clear
KIGQ,08/23/2018 09:55 UTC,30.14,52.52,51.62,96.74,0.0,0.0,,,,,,1.0,,,,10.0,,KIGQ 230955Z AUTO 00000KT 10SM CLR 11/11 A3014 RMK AO2  T01140109,,,,,,51.61,,N,29.48,29.06,,Clear
KIGQ,08/23/2018 10:15 UTC,30.14,52.88,52.16,97.39,0.0,0.0,,,,,,1.0,,,,10.0,,KIGQ 231015Z AUTO 00000KT 10SM CLR 12/11 A3014 RMK AO2  T01160112,,,,,,52.15,,N,29.48,29.03,,Clear
KIGQ,08/23/2018 10:35 UTC,30.14,53.42,52.7,97.39,0.0,0.0,,,,,,1.0,,,,10.0,,KIGQ 231035Z AUTO 00000KT 10SM CLR 12/12 A3014 RMK AO2  T01190115,,,,,,52.69,,N,29.48,29.01,,Clear
KIGQ,08/23/2018 10:55 UTC,30.15,52.88,52.34,98.04,0.0,0.0,,,,,,1.0,,,,10.0,,KIGQ 231055Z AUTO 00000KT 10SM CLR 12/11 A3015 RMK AO2  T01160113,,,,,,52.34,,N,29.49,29.04,,Clear
KIGQ,08/23/2018 11:15 UTC,30.15,52.34,51.8,98.03,0.0,0.0,,31.0,,,,1.0,,,,5.0,,KIGQ 231115Z AUTO 00000KT 5SM BR CLR 11/11 A3015 RMK AO2  T01130110,,,,,,51.79,,N,29.49,29.06,,Mist
KIGQ,08/23/2018 11:35 UTC,30.16,52.7,52.16,98.03,0.0,0.0,,,,,,1.0,,,,10.0,,KIGQ 231135Z AUTO 00000KT 10SM CLR 12/11 A3016 RMK AO2  T01150112,,,,,,52.15,,N,29.5,29.06,,Clear
KIGQ,08/23/2018 11:55 UTC,30.16,54.32,53.78,98.05,0.0,0.0,,,,,,1.0,,,,10.0,,KIGQ 231155Z AUTO 00000KT 10SM CLR 12/12 A3016 RMK AO2 T01240121  10135 20112,56.3,52.16,,,,53.77,,N,29.5,28.98,,Clear
KIGQ,08/23/2018 12:15 UTC,30.16,56.3,54.5,93.68,0.0,0.0,,,,,,1.0,,,,10.0,,KIGQ 231215Z AUTO 00000KT 10SM CLR 14/13 A3016 RMK AO2  T01350125,,,,,,54.48,,N,29.5,28.92,,Clear
KIGQ,08/23/2018 12:35 UTC,30.16,58.28,55.22,89.55,0.0,0.0,,,,,,1.0,,,,10.0,,KIGQ 231235Z AUTO 00000KT 10SM CLR 15/13 A3016 RMK AO2  T01460129,,,,,,55.19,,N,29.5,28.87,,Clear
KIGQ,08/23/2018 12:55 UTC,30.16,60.62,55.94,84.56,0.0,0.0,,,,,,1.0,,,,10.0,,KIGQ 231255Z AUTO 00000KT 10SM CLR 16/13 A3016 RMK AO2  T01590133,,,,,,55.9,,N,29.5,28.81,,Clear
KIGQ,08/23/2018 13:15 UTC,30.16,62.96,57.38,82.02,0.0,0.0,,,,,,1.0,,,,10.0,,KIGQ 231315Z AUTO 00000KT 10SM CLR 17/14 A3016 RMK AO2  T01720141,,,,,,57.34,,N,29.5,28.72,,Clear
KIGQ,08/23/2018 13:35 UTC,30.16,65.84,57.38,74.18,0.0,0.0,,,,,,1.0,,,,10.0,,KIGQ 231335Z AUTO 00000KT 10SM CLR 19/14 A3016 RMK AO2  T01880141,,,,,,57.34,,N,29.5,28.69,,Clear
KIGQ,08/23/2018 13:55 UTC,30.17,67.64,57.02,68.81,3.44,220.0,,,,,,1.0,,,,10.0,,KIGQ 231355Z AUTO 22003KT 10SM CLR 20/14 A3017 RMK AO2  T01980139,,,,,,56.97,,SW,29.51,28.7,,Clear
KIGQ,08/23/2018 14:15 UTC,30.16,69.26,56.66,64.25,3.44,200.0,,,,,,1.0,,,,10.0,,KIGQ 231415Z AUTO 20003KT 10SM CLR 21/14 A3016 RMK AO2  T02070137,,,,,,56.61,,SSW,29.5,28.69,,Clear
KIGQ,08/23/2018 14:35 UTC,30.17,70.7,56.3,60.39,0.0,0.0,,,,,,1.0,,,,10.0,,KIGQ 231435Z AUTO 00000KT 10SM CLR 22/14 A3017 RMK AO2  T02150135,,,,,,56.25,,N,29.51,28.7,,Clear
KIGQ,08/23/2018 14:55 UTC,30.16,73.04,54.32,51.93,5.75,220.0,,,,,,1.0,,,,10.0,,KIGQ 231455Z AUTO 22005KT 10SM CLR 23/12 A3016 RMK AO2  T02280124,,,,,,54.28,,SW,29.5,28.76,,Clear
KIGQ,08/23/2018 15:15 UTC,30.16,74.3,54.14,49.46,5.75,200.0,,,,,,1.0,,,,10.0,,KIGQ 231515Z AUTO 20005KT 10SM CLR 24/12 A3016 RMK AO2  T02350123,,,,,,54.11,,SSW,29.5,28.76,,Clear
KIGQ,08/23/2018 15:35 UTC,30.16,75.02,52.88,46.11,6.91,220.0,,,,,,1.0,,,,10.0,,KIGQ 231535Z AUTO 22006KT 10SM CLR 24/12 A3016 RMK AO2  T02390116,,,,,,52.85,,SW,29.5,28.81,,Clear
KIGQ,08/23/2018 15:55 UTC,30.16,75.38,52.88,45.56,6.91,240.0,,,,,,1.0,,,,10.0,,KIGQ 231555Z AUTO 24006KT 10SM CLR 24/12 A3016 RMK AO2  T02410116,,,,,,52.86,,WSW,29.5,28.81,,Clear
KIGQ,08/23/2018 16:15 UTC,30.16,76.46,52.16,42.81,9.22,260.0,,,,,,1.0,,,,10.0,,KIGQ 231615Z AUTO 26008KT 10SM CLR 25/11 A3016 RMK AO2  T02470112,,,,,,52.15,,W,29.5,28.83,,Clear
KIGQ,08/23/2018 16:35 UTC,30.16,76.1,52.34,43.61,8.05,220.0,,,,,,552.0,,,,10.0,,KIGQ 231635Z AUTO 22007KT 10SM SCT055 25/11 A3016 RMK AO2  T02450113,,,,,,52.32,,SW,29.5,28.82,,Partly Cloudy
KIGQ,08/23/2018 16:55 UTC,30.16,77.36,52.88,42.67,6.91,240.0,,,,,,552.0,,,,10.0,,KIGQ 231655Z AUTO 24006KT 10SM SCT055 25/12 A3016 RMK AO2  T02520116,,,,,,52.88,,WSW,29.5,28.79,,Partly Cloudy
KIGQ,08/23/2018 17:15 UTC,30.15,77.18,53.24,43.49,8.05,200.0,,,,,,552.0,,,,10.0,,KIGQ 231715Z AUTO 20007KT 10SM SCT055 25/12 A3015 RMK AO2  T02510118,,,,,,53.23,,SSW,29.49,28.76,,Partly Cloudy
KIGQ,08/23/2018 17:35 UTC,30.15,76.64,51.8,41.99,5.75,200.0,,,,,,552.0,,,,10.0,,KIGQ 231735Z AUTO 20005KT 10SM SCT055 25/11 A3015 RMK AO2  T02480110,,,,,,51.79,,SSW,29.49,28.83,,Partly Cloudy
KIGQ,08/23/2018 17:55 UTC,30.14,77.36,52.16,41.55,11.5,250.0,,,,,,552.0,,,,10.0,,KIGQ 231755Z AUTO 25010KT 10SM SCT055 25/11 A3014 RMK AO2  T02520112 10253 20127,77.54,54.86,,,,52.15,,WSW,29.48,28.8,,Partly Cloudy
KIGQ,08/23/2018 18:15 UTC,30.14,77.54,52.52,41.86,9.22,200.0,,,,,,1.0,,,,10.0,,KIGQ 231815Z AUTO 20008KT 10SM CLR 25/11 A3014 RMK AO2  T02530114,,,,,,52.52,,SSW,29.48,28.78,,Clear
KIGQ,08/23/2018 18:35 UTC,30.13,78.08,53.06,41.94,6.91,230.0,17.27,,,,,602.0,,,,10.0,,KIGQ 231835Z AUTO 23006G15KT 10SM SCT060 26/12 A3013 RMK AO2  T02560117,,,,,,53.06,,SW,29.47,28.74,,Partly Cloudy
KIGQ,08/23/2018 18:55 UTC,30.13,77.36,53.6,43.81,12.66,230.0,16.11,,,,,603.0,,,,10.0,,KIGQ 231855Z AUTO 23011G14KT 10SM BKN060 25/12 A3013 RMK AO2  T02520120,,,6000.0,,,53.6,,SW,29.47,28.73,,Mostly Cloudy
KIGQ,08/23/2018 19:15 UTC,30.13,78.26,52.52,40.88,6.91,210.0,,,,,,603.0,,,,10.0,,KIGQ 231915Z AUTO 21006KT 10SM BKN060 26/11 A3013 RMK AO2  T02570114,,,6000.0,,,52.53,,SSW,29.47,28.77,,Mostly Cloudy
KIGQ,08/23/2018 19:35 UTC,30.12,78.26,53.42,42.25,9.22,250.0,,,,,,602.0,,,,10.0,,KIGQ 231935Z AUTO 25008KT 10SM SCT060 26/12 A3012 RMK AO2  T02570119,,,,,,53.43,,WSW,29.47,28.73,,Partly Cloudy
KIGQ,08/23/2018 19:55 UTC,30.11,77.72,53.06,42.44,9.22,240.0,,,,,,602.0,,,,10.0,,KIGQ 231955Z AUTO 24008KT 10SM SCT060 25/12 A3011 RMK AO2  T02540117,,,,,,53.06,,WSW,29.46,28.74,,Partly Cloudy
KIGQ,08/23/2018 20:15 UTC,30.1,78.98,54.32,42.64,12.66,220.0,17.27,,,,,602.0,,,,10.0,,KIGQ 232015Z AUTO 22011G15KT 190V250 10SM SCT060 26/12 A3010 RMK AO2 T02610124,,,,,,54.33,,SW,29.45,28.66,,Partly Cloudy
KIGQ,08/23/2018 20:35 UTC,30.1,77.54,54.14,44.41,9.22,210.0,17.27,,,,,602.0,,,,10.0,,KIGQ 232035Z AUTO 21008G15KT 10SM SCT060 25/12 A3010 RMK AO2  T02530123,,,,,,54.13,,SSW,29.45,28.68,,Partly Cloudy
KIGQ,08/23/2018 20:55 UTC,30.09,78.8,53.6,41.78,10.36,240.0,16.11,,,,,602.0,,,,10.0,,KIGQ 232055Z AUTO 24009G14KT 10SM SCT060 26/12 A3009 RMK AO2  T02600120,,,,,,53.61,,WSW,29.44,28.68,,Partly Cloudy
KIGQ,08/23/2018 21:15 UTC,30.08,78.62,53.78,42.3,4.61,250.0,,,,,,602.0,,,,10.0,,KIGQ 232115Z AUTO 25004KT 10SM SCT060 26/12 A3008 RMK AO2  T02590121,,,,,,53.79,,WSW,29.43,28.67,,Partly Cloudy
KIGQ,08/23/2018 21:35 UTC,30.08,79.16,53.6,41.29,10.36,230.0,,,,,,603.0,,,,10.0,,KIGQ 232135Z AUTO 23009KT 10SM BKN060 26/12 A3008 RMK AO2  T02620120,,,6000.0,,,53.61,,SW,29.43,28.67,,Mostly Cloudy
KIGQ,08/23/2018 21:55 UTC,30.08,78.8,53.96,42.33,8.05,210.0,,,,,,603.0,,,,10.0,,KIGQ 232155Z AUTO 21007KT 10SM BKN060 26/12 A3008 RMK AO2  T02600122,,,6000.0,,,53.97,,SSW,29.43,28.66,,Mostly Cloudy
KIGQ,08/23/2018 22:15 UTC,30.08,78.98,53.42,41.26,9.22,220.0,,,,,,603.0,,,,10.0,,KIGQ 232215Z AUTO 22008KT 10SM BKN060 26/12 A3008 RMK AO2  T02610119,,,6000.0,,,53.43,,SW,29.43,28.68,,Mostly Cloudy
KIGQ,08/23/2018 22:35 UTC,30.07,78.26,55.04,44.82,5.75,320.0,,,,,,604.0,,,,10.0,,KIGQ 232235Z AUTO 32005KT 10SM OVC060 26/13 A3007 RMK AO2  T02570128,,,6000.0,,,55.04,,NW,29.42,28.6,,Overcast
KIGQ,08/23/2018 22:55 UTC,30.07,78.08,53.24,42.22,4.61,200.0,,,,,,604.0,,,,10.0,,KIGQ 232255Z AUTO 20004KT 10SM OVC060 26/12 A3007 RMK AO2  T02560118,,,6000.0,,,53.24,,SSW,29.42,28.69,,Overcast
KIGQ,08/23/2018 23:15 UTC,30.06,77.36,53.6,43.81,8.05,230.0,,,,,,603.0,,,,10.0,,KIGQ 232315Z AUTO 23007KT 10SM BKN060 25/12 A3006 RMK AO2  T02520120,,,6000.0,,,53.6,,SW,29.41,28.66,,Mostly Cloudy
KIGQ,08/23/2018 23:35 UTC,30.06,76.46,54.86,47.25,5.75,200.0,,,,,,602.0,,,,10.0,,KIGQ 232335Z AUTO 20005KT 10SM SCT060 25/13 A3006 RMK AO2  T02470127,,,,,,54.85,,SSW,29.41,28.61,,Partly Cloudy
KIGQ,08/23/2018 23:55 UTC,30.06,74.48,55.22,51.13,10.36,180.0,,,,,,603.0,,,,10.0,,KIGQ 232355Z AUTO 18009KT 10SM BKN060 24/13 A3006 RMK AO2  T02360129 10263 20236,79.34,74.48,6000.0,,,55.19,,S,29.41,28.61,,Mostly Cloudy
KIGQ,08/24/2018 00:15 UTC,30.06,73.4,55.76,54.06,6.91,190.0,,,,,,604.0,,,,10.0,,KIGQ 240015Z AUTO 19006KT 10SM OVC060 23/13 A3006 RMK AO2  T02300132,,,6000.0,,,55.72,,S,29.41,28.6,,Overcast
KIGQ,08/24/2018 00:35 UTC,30.06,70.7,56.48,60.78,6.91,180.0,,,,,,602.0,,,,10.0,,KIGQ 240035Z AUTO 18006KT 10SM SCT060 22/14 A3006 RMK AO2  T02150136,,,,,,56.43,,S,29.41,28.59,,Partly Cloudy
KIGQ,08/24/2018 00:55 UTC,30.07,67.46,56.48,67.9,6.91,180.0,,,,,,1.0,,,,10.0,,KIGQ 240055Z AUTO 18006KT 10SM CLR 20/14 A3007 RMK AO2  T01970136,,,,,,56.43,,S,29.42,28.63,,Clear
KIGQ,08/24/2018 01:15 UTC,30.07,66.2,56.48,70.92,5.75,190.0,,,,,,1.0,,,,10.0,,KIGQ 240115Z AUTO 19005KT 10SM CLR 19/14 A3007 RMK AO2  T01900136,,,,,,56.43,,S,29.42,28.65,,Clear
KIGQ,08/24/2018 01:35 UTC,30.08,65.66,56.84,73.2,5.75,190.0,,,,,,1.0,,,,10.0,,KIGQ 240135Z AUTO 19005KT 10SM CLR 19/14 A3008 RMK AO2  T01870138,,,,,,56.79,,S,29.43,28.65,,Clear
KIGQ,08/24/2018 01:55 UTC,30.08,64.76,56.3,74.07,5.75,190.0,,,,,,1.0,,,,10.0,,KIGQ 240155Z AUTO 19005KT 10SM CLR 18/14 A3008 RMK AO2  T01820135,,,,,,56.25,,S,29.43,28.68,,Clear
KIGQ,08/24/2018 02:15 UTC,30.08,63.5,55.58,75.41,4.61,190.0,,,,,,1.0,,,,10.0,,KIGQ 240215Z AUTO 19004KT 10SM CLR 18/13 A3008 RMK AO2  T01750131,,,,,,55.53,,S,29.43,28.73,,Clear
KIGQ,08/24/2018 02:35 UTC,30.08,62.6,55.4,77.33,4.61,190.0,,,,,,1.0,,,,10.0,,KIGQ 240235Z AUTO 19004KT 10SM CLR 17/13 A3008 RMK AO2  T01700130,,,,,,55.35,,S,29.43,28.74,,Clear
KIGQ,08/24/2018 02:55 UTC,30.08,60.98,54.68,79.76,5.75,180.0,,,,,,1.0,,,,10.0,,KIGQ 240255Z AUTO 18005KT 10SM CLR 16/13 A3008 RMK AO2  T01610126,,,,,,54.63,,S,29.43,28.79,,Clear
KIGQ,08/24/2018 03:15 UTC,30.08,62.06,54.86,77.28,5.75,180.0,,,,,,1.0,,,,10.0,,KIGQ 240315Z AUTO 18005KT 10SM CLR 17/13 A3008 RMK AO2  T01670127,,,,,,54.81,,S,29.43,28.77,,Clear
KIGQ,08/24/2018 03:35 UTC,30.07,61.7,54.68,77.75,5.75,180.0,,,,,,1.0,,,,10.0,,KIGQ 240335Z AUTO 18005KT 10SM CLR 17/13 A3007 RMK AO2  T01650126,,,,,,54.63,,S,29.42,28.78,,Clear
KIGQ,08/24/2018 03:55 UTC,30.07,61.52,54.5,77.74,5.75,180.0,,,,,,1.0,,,,10.0,,KIGQ 240355Z AUTO 18005KT 10SM CLR 16/13 A3007 RMK AO2  T01640125,,,,,,54.45,,S,29.42,28.79,,Clear
KIGQ,08/24/2018 04:15 UTC,30.07,59.36,54.14,82.84,3.44,190.0,,,,,,1.0,,,,10.0,,KIGQ 240415Z AUTO 19003KT 10SM CLR 15/12 A3007 RMK AO2  T01520123,,,,,,54.1,,S,29.42,28.82,,Clear
KIGQ,08/24/2018 04:35 UTC,30.07,60.44,54.68,81.3,0.0,0.0,,,,,,1.0,,,,10.0,,KIGQ 240435Z AUTO 00000KT 10SM CLR 16/13 A3007 RMK AO2  T01580126,,,,,,54.64,,N,29.42,28.79,,Clear
KIGQ,08/24/2018 04:55 UTC,30.08,60.26,54.68,81.82,0.0,0.0,,,,,,1.0,,,,10.0,,KIGQ 240455Z AUTO 00000KT 10SM CLR 16/13 A3008 RMK AO2  T01570126,,,,,,54.64,,N,29.43,28.8,,Clear
KIGQ,08/24/2018 05:15 UTC,30.08,60.08,54.5,81.81,3.44,190.0,,,,,,1.0,,,,10.0,,KIGQ 240515Z AUTO 19003KT 10SM CLR 16/13 A3008 RMK AO2 LTG DSNT W  T01560125,,,,,,54.46,,S,29.43,28.81,,Clear
KIGQ,08/24/2018 05:35 UTC,30.08,58.46,53.6,83.87,4.61,170.0,,,,,,1.0,,,,10.0,,KIGQ 240535Z AUTO 17004KT 10SM CLR 15/12 A3008 RMK AO2  T01470120,,,,,,53.56,,S,29.43,28.87,,Clear
KIGQ,08/24/2018 05:55 UTC,30.08,59.54,54.32,82.85,3.44,180.0,,,,,,1.0,,,,10.0,,KIGQ 240555Z AUTO 18003KT 10SM CLR 15/12 A3008 RMK AO2 T01530124  10235 20146 402630112,74.3,58.28,,79.34,52.16,54.28,,S,29.43,28.82,,Clear
KIGQ,08/24/2018 06:15 UTC,30.06,59.36,54.14,82.84,0.0,0.0,,,,,,1.0,,,,10.0,,KIGQ 240615Z AUTO 00000KT 10SM CLR 15/12 A3006 RMK AO2  T01520123,,,,,,54.1,,N,29.41,28.81,,Clear
KIGQ,08/24/2018 06:35 UTC,30.06,60.08,54.68,82.35,0.0,0.0,,,,,,1.0,,,,10.0,,KIGQ 240635Z AUTO 00000KT 10SM CLR 16/13 A3006 RMK AO2  T01560126,,,,,,54.64,,N,29.41,28.78,,Clear
KIGQ,08/24/2018 06:55 UTC,30.06,59.36,54.14,82.84,0.0,0.0,,,,,,1.0,,,,10.0,,KIGQ 240655Z AUTO 00000KT 10SM CLR 15/12 A3006 RMK AO2  T01520123,,,,,,54.1,,N,29.41,28.81,,Clear
KIGQ,08/24/2018 07:15 UTC,30.05,59.0,54.5,85.02,0.0,0.0,,,,,,1.0,,,,10.0,,KIGQ 240715Z AUTO 00000KT 10SM CLR 15/13 A3005 RMK AO2  T01500125,,,,,,54.46,,N,29.4,28.79,,Clear
KIGQ,08/24/2018 07:35 UTC,30.05,57.56,53.96,87.77,0.0,0.0,,,,,,1.0,,,,10.0,,KIGQ 240735Z AUTO 00000KT 10SM CLR 14/12 A3005 RMK AO2  T01420122,,,,,,53.93,,N,29.4,28.83,,Clear
KIGQ,08/24/2018 07:55 UTC,30.04,58.28,54.5,87.24,3.44,150.0,,,,,,1.0,,,,10.0,,KIGQ 240755Z AUTO 15003KT 10SM CLR 15/13 A3004 RMK AO2  T01460125,,,,,,54.47,,SSE,29.39,28.79,,Clear
KIGQ,08/24/2018 08:15 UTC,30.05,59.9,54.86,83.42,3.44,160.0,,,,,,1.0,,,,10.0,,KIGQ 240815Z AUTO 16003KT 10SM CLR 16/13 A3005 RMK AO2  T01550127,,,,,,54.82,,SSE,29.4,28.77,,Clear
KIGQ,08/24/2018 08:35 UTC,30.04,58.1,53.96,86.09,4.61,160.0,,,,,,1.0,,,,10.0,,KIGQ 240835Z AUTO 16004KT 10SM CLR 15/12 A3004 RMK AO2  T01450122,,,,,,53.93,,SSE,29.39,28.81,,Clear
KIGQ,08/24/2018 08:55 UTC,30.03,59.9,55.22,84.52,3.44,150.0,,,,,,1.0,,,,10.0,,KIGQ 240855Z AUTO 15003KT 10SM CLR 16/13 A3003 RMK AO2  T01550129,,,,,,55.18,,SSE,29.38,28.73,,Clear
KIGQ,08/24/2018 09:15 UTC,30.02,60.8,55.4,82.4,5.75,160.0,,,,,,1.0,,,,10.0,,KIGQ 240915Z AUTO 16005KT 10SM CLR 16/13 A3002 RMK AO2  T01600130,,,,,,55.36,,SSE,29.37,28.7,,Clear
KIGQ,08/24/2018 09:35 UTC,30.02,61.7,55.58,80.34,5.75,160.0,,,,,,1.0,,,,10.0,,KIGQ 240935Z AUTO 16005KT 10SM CLR 17/13 A3002 RMK AO2  T01650131,,,,,,55.54,,SSE,29.37,28.69,,Clear
KIGQ,08/24/2018 09:55 UTC,30.02,61.7,55.4,79.82,4.61,160.0,,,,,,1.0,,,,10.0,,KIGQ 240955Z AUTO 16004KT 10SM CLR 17/13 A3002 RMK AO2 LTG DSNT SW  T01650130,,,,,,55.36,,SSE,29.37,28.69,,Clear
KIGQ,08/24/2018 10:15 UTC,30.03,60.8,54.86,80.8,4.61,180.0,,,,,,1.0,,,,10.0,,KIGQ 241015Z AUTO 18004KT 10SM CLR 16/13 A3003 RMK AO2 LTG DSNT SW  T01600127,,,,,,54.82,,S,29.38,28.74,,Clear
KIGQ,08/24/2018 10:35 UTC,30.03,61.7,54.86,78.27,5.75,180.0,,,,,,1.0,,,,10.0,,KIGQ 241035Z AUTO 18005KT 10SM CLR 17/13 A3003 RMK AO2  T01650127,,,,,,54.81,,S,29.38,28.73,,Clear
KIGQ,08/24/2018 10:55 UTC,30.03,62.6,54.32,74.35,9.22,180.0,,,,,,1.0,,,,10.0,,KIGQ 241055Z AUTO 18008KT 10SM CLR 17/12 A3003 RMK AO2  T01700124,,,,,,54.27,,S,29.38,28.74,,Clear
KIGQ,08/24/2018 11:15 UTC,30.04,62.6,54.14,73.86,8.05,170.0,,,,,,1.0,,,,10.0,,KIGQ 241115Z AUTO 17007KT 10SM CLR 17/12 A3004 RMK AO2  T01700123,,,,,,54.08,,S,29.39,28.76,,Clear
KIGQ,08/24/2018 11:35 UTC,30.04,62.6,54.14,73.86,10.36,180.0,17.27,,,,,1.0,,,,10.0,,KIGQ 241135Z AUTO 18009G15KT 10SM CLR 17/12 A3004 RMK AO2  T01700123,,,,,,54.08,,S,29.39,28.76,,Clear
KIGQ,08/24/2018 11:55 UTC,30.05,62.78,54.14,73.39,11.5,190.0,,,,,,1.0,,,,10.0,,KIGQ 241155Z AUTO 19010KT 10SM CLR 17/12 A3005 RMK AO2 T01710123  10171 20141,62.78,57.38,,,,54.08,,S,29.4,28.77,,Clear
KIGQ,08/24/2018 12:15 UTC,30.05,63.5,54.14,71.56,10.36,180.0,,,,,,1202.0,,,,10.0,,KIGQ 241215Z AUTO 18009KT 10SM SCT120 18/12 A3005 RMK AO2  T01750123,,,,,,54.08,,S,29.4,28.76,,Partly Cloudy
KIGQ,08/24/2018 12:35 UTC,30.05,63.68,54.5,72.05,9.22,180.0,,,,,,1202.0,,,,10.0,,KIGQ 241235Z AUTO 18008KT 10SM SCT120 18/13 A3005 RMK AO2  T01760125,,,,,,54.44,,S,29.4,28.74,,Partly Cloudy
KIGQ,08/24/2018 12:55 UTC,30.06,64.04,54.5,71.15,6.91,190.0,,,,,,1202.0,,,,10.0,,KIGQ 241255Z AUTO 19006KT 10SM SCT120 18/13 A3006 RMK AO2  T01780125,,,,,,54.44,,S,29.41,28.75,,Partly Cloudy
KIGQ,08/24/2018 13:15 UTC,30.06,63.86,54.68,72.07,8.05,180.0,,,,,,1.0,,,,10.0,,KIGQ 241315Z AUTO 18007KT 10SM CLR 18/13 A3006 RMK AO2  T01770126,,,,,,54.62,,S,29.41,28.74,,Clear
KIGQ,08/24/2018 13:35 UTC,30.06,64.04,54.68,71.62,6.91,190.0,,,,,,1.0,,,,10.0,,KIGQ 241335Z AUTO 19006KT 10SM CLR 18/13 A3006 RMK AO2  T01780126,,,,,,54.62,,S,29.41,28.74,,Clear
KIGQ,08/24/2018 13:55 UTC,30.06,64.04,55.22,73.04,8.05,190.0,,,,,,1.0,,,,10.0,,KIGQ 241355Z AUTO 19007KT 10SM CLR 18/13 A3006 RMK AO2  T01780129,,,,,,55.17,,S,29.41,28.72,,Clear
KIGQ,08/24/2018 14:15 UTC,30.07,64.4,55.22,72.13,8.05,200.0,,,,,,1.0,,,,10.0,,KIGQ 241415Z AUTO 20007KT 10SM CLR 18/13 A3007 RMK AO2  T01800129,,,,,,55.17,,SSW,29.42,28.72,,Clear
KIGQ,08/24/2018 14:35 UTC,30.07,63.5,55.4,74.92,8.05,200.0,,,,,,1103.0,,,,10.0,,KIGQ 241435Z AUTO 20007KT 10SM BKN110 18/13 A3007 RMK AO2  T01750130,,,11000.0,,,55.35,,SSW,29.42,28.72,,Mostly Cloudy
KIGQ,08/24/2018 14:55 UTC,30.07,62.24,56.66,81.96,8.05,190.0,,1.0,,,,1004.0,,,,10.0,,KIGQ 241455Z AUTO 19007KT 10SM RA OVC100 17/14 A3007 RMK AO2  T01680137,,,10000.0,,,56.62,,S,29.42,28.68,,Rain
KIGQ,08/24/2018 15:15 UTC,30.07,61.88,57.2,84.64,6.91,190.0,,13.0,,,,1004.0,,,,10.0,,KIGQ 241515Z AUTO 19006KT 10SM -RA OVC100 17/14 A3007 RMK AO2  T01660140,,,10000.0,,,57.17,,S,29.42,28.66,,Light Rain
KIGQ,08/24/2018 15:35 UTC,30.06,61.7,57.74,86.85,5.75,190.0,,13.0,,,,803.0,954.0,,,10.0,,KIGQ 241535Z AUTO 19005KT 10SM -RA BKN080 OVC095 17/14 A3006 RMK AO2 T01650143,,,8000.0,,,57.71,,S,29.41,28.63,,Light Rain
KIGQ,08/24/2018 15:55 UTC,30.06,61.88,57.56,85.74,8.05,180.0,,1.0,,,,754.0,,,,10.0,,KIGQ 241555Z AUTO 18007KT 10SM RA OVC075 17/14 A3006 RMK AO2  T01660142,,,7500.0,,,57.53,,S,29.41,28.63,,Rain
KIGQ,08/24/2018 16:15 UTC,30.04,62.06,58.28,87.43,9.22,170.0,,13.0,854.0,,,502.0,653.0,,,10.0,,KIGQ 241615Z AUTO 17008KT 10SM -RA SCT050 BKN065 OVC085 17/15  A3004 RMK AO2 T01670146,,,6500.0,,,58.25,,S,29.39,28.58,,Light Rain
KIGQ,08/24/2018 16:35 UTC,30.04,62.6,58.82,87.46,5.75,200.0,,13.0,704.0,,,432.0,503.0,,,10.0,,KIGQ 241635Z AUTO 20005KT 10SM -RA SCT043 BKN050 OVC070 17/15  A3004 RMK AO2 T01700149,,,5000.0,,,58.79,,SSW,29.39,28.54,,Light Rain
KIGQ,08/24/2018 16:55 UTC,30.03,62.6,59.36,89.16,6.91,180.0,,13.0,904.0,,,362.0,553.0,,,10.0,,KIGQ 241655Z AUTO 18006KT 10SM -RA SCT036 BKN055 OVC090 17/15  A3003 RMK AO2 T01700152,,,5500.0,,,59.34,,S,29.38,28.51,,Light Rain
KIGQ,08/24/2018 17:15 UTC,30.01,63.5,59.54,86.95,8.05,180.0,,13.0,804.0,,,122.0,553.0,,,10.0,,KIGQ 241715Z AUTO 18007KT 10SM -RA SCT012 BKN055 OVC080 18/15  A3001 RMK AO2 T01750153,,,5500.0,,,59.52,,S,29.36,28.46,,Light Rain
KIGQ,08/24/2018 17:35 UTC,30.01,64.58,60.26,85.9,9.22,200.0,,,392.0,,,122.0,302.0,,,10.0,,KIGQ 241735Z AUTO 20008KT 10SM SCT012 SCT030 SCT039 18/16 A3001 RMK AO2 T01810157,,,,,,60.23,,SSW,29.36,28.41,,Partly Cloudy
KIGQ,08/24/2018 17:55 UTC,30.0,66.56,60.98,82.27,9.22,180.0,,,1203.0,,,143.0,233.0,,,10.0,,KIGQ 241755Z AUTO 18008KT 10SM BKN014 BKN023 BKN120 19/16 A3000 RMK AO2 T01920161 10192 20165,66.56,61.7,1400.0,,,60.95,,S,29.35,28.34,,Mostly Cloudy
KIGQ,08/24/2018 18:15 UTC,30.0,67.82,60.26,76.79,16.11,180.0,19.57,,1204.0,,,142.0,203.0,,,10.0,,KIGQ 241815Z AUTO 18014G17KT 10SM SCT014 BKN020 OVC120 20/16 A3000 RMK AO2 LTG DSNT N T01990157,,,2000.0,,,60.23,,S,29.35,28.37,,Overcast
KIGQ,08/24/2018 18:35 UTC,30.0,68.36,60.62,76.35,14.97,180.0,,,1204.0,,,203.0,273.0,,,10.0,,KIGQ 241835Z AUTO 18013KT 10SM BKN020 BKN027 OVC120 20/16 A3000 RMK AO2 T02020159,,,2000.0,,,60.59,,S,29.35,28.34,,Overcast
KIGQ,08/24/2018 18:55 UTC,29.99,68.9,59.72,72.59,12.66,190.0,,,504.0,,,222.0,293.0,,,10.0,,KIGQ 241855Z AUTO 19011KT 10SM SCT022 BKN029 OVC050 21/15 A2999 RMK AO2 T02050154,,,2900.0,,,59.68,,S,29.34,28.37,,Overcast
KIGQ,08/24/2018 19:15 UTC,29.99,69.98,59.72,69.96,17.27,170.0,20.71,,504.0,,,253.0,303.0,,,10.0,,KIGQ 241915Z AUTO 17015G18KT 10SM BKN025 BKN030 OVC050 21/15 A2999 RMK AO2 T02110154,,,2500.0,,,59.68,,S,29.34,28.36,,Overcast
KIGQ,08/24/2018 19:35 UTC,29.97,71.24,59.9,67.46,17.27,160.0,23.02,,1104.0,,,272.0,503.0,,,10.0,,KIGQ 241935Z AUTO 16015G20KT 10SM SCT027 BKN050 OVC110 22/16 A2997 RMK AO2 T02180155,,,5000.0,,,59.86,,SSE,29.32,28.32,,Overcast
KIGQ,08/24/2018 19:55 UTC,29.96,71.06,59.54,67.01,11.5,160.0,17.27,,,,,292.0,554.0,,,10.0,,KIGQ 241955Z AUTO 16010G15KT 10SM SCT029 OVC055 22/15 A2996 RMK AO2 T02170153,,,5500.0,,,59.5,,SSE,29.31,28.33,,Overcast
KIGQ,08/24/2018 20:15 UTC,29.96,70.88,58.46,64.87,16.11,170.0,23.02,,554.0,,,312.0,432.0,,,10.0,,KIGQ 242015Z AUTO 17014G20KT 10SM SCT031 SCT043 OVC055 22/15 A2996 RMK AO2 T02160147,,,5500.0,,,58.42,,S,29.31,28.39,,Overcast
KIGQ,08/24/2018 20:35 UTC,29.96,71.06,58.28,64.06,14.97,170.0,24.16,,,,,313.0,414.0,,,10.0,,KIGQ 242035Z AUTO 17013G21KT 10SM BKN031 OVC041 22/15 A2996 RMK AO2 T02170146,,,3100.0,,,58.24,,S,29.31,28.39,,Overcast
KIGQ,08/24/2018 20:55 UTC,29.95,70.7,58.46,65.27,11.5,190.0,20.71,,,,,312.0,394.0,,,10.0,,KIGQ 242055Z AUTO 19010G18KT 10SM SCT031 OVC039 22/15 A2995 RMK AO2 T02150147,,,3900.0,,,58.42,,S,29.3,28.38,,Overcast
KIGQ,08/24/2018 21:15 UTC,29.95,70.7,58.28,64.85,13.8,180.0,21.85,,,,,374.0,,,,10.0,,KIGQ 242115Z AUTO 18012G19KT 10SM OVC037 22/15 A2995 RMK AO2  T02150146,,,3700.0,,,58.24,,S,29.3,28.39,,Overcast
KIGQ,08/24/2018 21:35 UTC,29.94,69.8,57.56,65.16,14.97,180.0,24.16,,,,,373.0,464.0,,,10.0,,KIGQ 242135Z AUTO 18013G21KT 10SM BKN037 OVC046 21/14 A2994 RMK AO2 T02100142,,,3700.0,,,57.52,,S,29.29,28.42,,Overcast
KIGQ,08/24/2018 21:55 UTC,29.94,68.9,57.56,67.19,14.97,180.0,20.71,,,,,374.0,,,,10.0,,KIGQ 242155Z AUTO 18013G18KT 10SM OVC037 21/14 A2994 RMK AO2  T02050142,,,3700.0,,,57.51,,S,29.29,28.43,,Overcast
KIGQ,08/24/2018 22:15 UTC,29.95,68.0,57.56,69.3,13.8,190.0,,,,,,334.0,,,,10.0,,KIGQ 242215Z AUTO 19012KT 10SM OVC033 20/14 A2995 RMK AO2  T02000142,,,3300.0,,,57.52,,S,29.3,28.45,,Overcast
KIGQ,08/24/2018 22:35 UTC,29.95,66.38,58.46,75.68,20.71,180.0,27.63,,,,,233.0,314.0,,,10.0,,KIGQ 242235Z AUTO 18018G24KT 10SM BKN023 OVC031 19/15 A2995 RMK AO2 T01910147,,,2300.0,,,58.42,,S,29.3,28.43,,Overcast
KIGQ,08/24/2018 22:55 UTC,29.94,64.76,59.9,84.28,12.66,170.0,18.41,,,,,153.0,234.0,,,10.0,,KIGQ 242255Z AUTO 17011G16KT 10SM BKN015 OVC023 18/16 A2994 RMK AO2 T01820155,,,1500.0,,,59.87,,S,29.29,28.36,,Overcast
KIGQ,08/24/2018 23:15 UTC,29.95,64.58,59.72,84.27,14.97,170.0,19.57,,,,,134.0,,,,10.0,,KIGQ 242315Z AUTO 17013G17KT 10SM OVC013 18/15 A2995 RMK AO2  T01810154,,,1300.0,,,59.69,,S,29.3,28.38,,Overcast
KIGQ,08/24/2018 23:35 UTC,29.95,64.76,59.9,84.28,10.36,170.0,,,,,,133.0,184.0,,,10.0,,KIGQ 242335Z AUTO 17009KT 10SM BKN013 OVC018 18/16 A2995 RMK AO2  T01820155,,,1300.0,,,59.87,,S,29.3,28.37,,Overcast
KIGQ,08/24/2018 23:55 UTC,29.94,64.94,59.9,83.75,10.36,170.0,16.11,,,,,154.0,,,,10.0,,KIGQ 242355Z AUTO 17009G14KT 10SM OVC015 18/16 A2994 RMK AO2  T01830155 10220 20181,71.6,64.58,1500.0,,,59.87,,S,29.29,28.36,,Overcast
KIGQ,08/25/2018 00:15 UTC,29.94,65.3,59.9,82.71,12.66,180.0,,,,,,154.0,,,,10.0,,KIGQ 250015Z AUTO 18011KT 10SM OVC015 19/16 A2994 RMK AO2  T01850155,,,1500.0,,,59.87,,S,29.29,28.35,,Overcast
KIGQ,08/25/2018 00:35 UTC,29.94,65.3,59.72,82.18,13.8,170.0,19.57,,,,,154.0,,,,10.0,,KIGQ 250035Z AUTO 17012G17KT 10SM OVC015 19/15 A2994 RMK AO2  T01850154,,,1500.0,,,59.69,,S,29.29,28.36,,Overcast
KIGQ,08/25/2018 00:55 UTC,29.94,65.3,59.54,81.66,13.8,190.0,19.57,,,,,154.0,,,,10.0,,KIGQ 250055Z AUTO 19012G17KT 10SM OVC015 19/15 A2994 RMK AO2  T01850153,,,1500.0,,,59.51,,S,29.29,28.37,,Overcast
KIGQ,08/25/2018 01:15 UTC,29.94,64.58,59.54,83.73,17.27,170.0,,,,,,154.0,,,,10.0,,KIGQ 250115Z AUTO 17015KT 10SM OVC015 18/15 A2994 RMK AO2  T01810153,,,1500.0,,,59.51,,S,29.29,28.38,,Overcast
KIGQ,08/25/2018 01:35 UTC,29.95,63.5,59.72,87.51,16.11,180.0,23.02,,,,,104.0,,,,7.0,,KIGQ 250135Z AUTO 18014G20KT 7SM OVC010 18/15 A2995 RMK AO2  T01750154,,,1000.0,,,59.7,,S,29.3,28.39,,Overcast
KIGQ,08/25/2018 01:55 UTC,29.95,63.5,59.9,88.07,13.8,180.0,17.27,,,,,104.0,,,,10.0,,KIGQ 250155Z AUTO 18012G15KT 10SM OVC010 18/16 A2995 RMK AO2  T01750155,,,1000.0,,,59.88,,S,29.3,28.39,,Overcast
KIGQ,08/25/2018 02:15 UTC,29.95,63.5,60.08,88.63,13.8,170.0,,,,,,104.0,,,,7.0,,KIGQ 250215Z AUTO 17012KT 7SM OVC010 18/16 A2995 RMK AO2  T01750156,,,1000.0,,,60.06,,S,29.3,28.38,,Overcast
KIGQ,08/25/2018 02:35 UTC,29.95,63.5,60.26,89.2,9.22,180.0,,,,,,84.0,,,,10.0,,KIGQ 250235Z AUTO 18008KT 10SM OVC008 18/16 A2995 RMK AO2  T01750157,,,800.0,,,60.24,,S,29.3,28.37,,Overcast
KIGQ,08/25/2018 02:55 UTC,29.95,63.86,60.08,87.52,11.5,190.0,17.27,,,,,104.0,,,,10.0,,KIGQ 250255Z AUTO 19010G15KT 10SM OVC010 18/16 A2995 RMK AO2  T01770156,,,1000.0,,,60.05,,S,29.3,28.37,,Overcast
KIGQ,08/25/2018 03:15 UTC,29.96,64.4,60.08,85.89,11.5,190.0,,,,,,124.0,,,,10.0,,KIGQ 250315Z AUTO 19010KT 10SM OVC012 18/16 A2996 RMK AO2  T01800156,,,1200.0,,,60.05,,S,29.31,28.38,,Overcast
KIGQ,08/25/2018 03:35 UTC,29.96,64.4,60.26,86.44,12.66,180.0,,,,,,124.0,,,,10.0,,KIGQ 250335Z AUTO 18011KT 10SM OVC012 18/16 A2996 RMK AO2  T01800157,,,1200.0,,,60.23,,S,29.31,28.37,,Overcast
KIGQ,08/25/2018 03:55 UTC,29.96,64.4,60.62,87.55,9.22,180.0,,,,,,124.0,,,,10.0,,KIGQ 250355Z AUTO 18008KT 10SM OVC012 18/16 A2996 RMK AO2  T01800159,,,1200.0,,,60.6,,S,29.31,28.35,,Overcast
KIGQ,08/25/2018 04:15 UTC,29.97,64.94,60.98,87.02,11.5,190.0,16.11,,,,,124.0,,,,10.0,,KIGQ 250415Z AUTO 19010G14KT 10SM OVC012 18/16 A2997 RMK AO2  T01830161,,,1200.0,,,60.96,,S,29.32,28.33,,Overcast
KIGQ,08/25/2018 04:35 UTC,29.96,65.3,61.16,86.49,12.66,190.0,18.41,,,,,104.0,,,,10.0,,KIGQ 250435Z AUTO 19011G16KT 10SM OVC010 19/16 A2996 RMK AO2  T01850162,,,1000.0,,,61.14,,S,29.31,28.31,,Overcast
KIGQ,08/25/2018 04:55 UTC,29.96,65.3,61.34,87.04,11.5,190.0,19.57,,,,,104.0,,,,10.0,,KIGQ 250455Z AUTO 19010G17KT 10SM OVC010 19/16 A2996 RMK AO2  T01850163,,,1000.0,,,61.32,,S,29.31,28.3,,Overcast
KIGQ,08/25/2018 05:15 UTC,29.95,65.3,61.34,87.04,16.11,180.0,21.85,,,,,104.0,,,,10.0,,KIGQ 250515Z AUTO 18014G19KT 10SM OVC010 19/16 A2995 RMK AO2  T01850163,,,1000.0,,,61.32,,S,29.3,28.29,,Overcast
KIGQ,08/25/2018 05:35 UTC,29.94,65.66,61.34,85.96,13.8,180.0,18.41,,,,,124.0,,,,10.0,,KIGQ 250535Z AUTO 18012G16KT 10SM OVC012 19/16 A2994 RMK AO2  T01870163,,,1200.0,,,61.32,,S,29.29,28.27,,Overcast
KIGQ,08/25/2018 05:55 UTC,29.94,65.66,60.98,84.87,11.5,190.0,,,,,,124.0,,,,10.0,,KIGQ 250555Z AUTO 19010KT 10SM OVC012 19/16 A2994 RMK AO2  T01870161 10187 20175 402200141,65.66,63.5,1200.0,71.6,57.38,60.95,,S,29.29,28.29,,Overcast
KIGQ,08/25/2018 06:15 UTC,29.95,65.84,60.8,83.81,13.8,190.0,17.27,,,,,144.0,,,,10.0,,KIGQ 250615Z AUTO 19012G15KT 10SM OVC014 19/16 A2995 RMK AO2  T01880160,,,1400.0,,,60.77,,S,29.3,28.31,,Overcast
KIGQ,08/25/2018 06:35 UTC,29.95,65.66,60.8,84.33,9.22,190.0,,,,,,184.0,,,,10.0,,KIGQ 250635Z AUTO 19008KT 10SM OVC018 19/16 A2995 RMK AO2  T01870160,,,1800.0,,,60.77,,S,29.3,28.31,,Overcast
KIGQ,08/25/2018 06:55 UTC,29.94,65.66,60.62,83.8,12.66,190.0,,,,,,224.0,,,,10.0,,KIGQ 250655Z AUTO 19011KT 10SM OVC022 19/16 A2994 RMK AO2 LTG DSNT  W AND NW T01870159,,,2200.0,,,60.59,,S,29.29,28.31,,Overcast
KIGQ,08/25/2018 07:15 UTC,29.93,65.48,60.8,84.86,10.36,190.0,,,,,,224.0,,,,10.0,,KIGQ 250715Z AUTO 19009KT 10SM OVC022 19/16 A2993 RMK AO2 LTG DSNT  W THRU N T01860160,,,2200.0,,,60.77,,S,29.28,28.29,,Overcast
KIGQ,08/25/2018 07:35 UTC,29.92,65.84,60.8,83.81,11.5,190.0,,,,,,224.0,,,,10.0,,KIGQ 250735Z AUTO 19010KT 10SM OVC022 19/16 A2992 RMK AO2 LTG DSNT  N SE AND NW T01880160,,,2200.0,,,60.77,,S,29.27,28.28,,Overcast
KIGQ,08/25/2018 07:55 UTC,29.93,65.84,60.8,83.81,9.22,190.0,,,,,,224.0,,,,10.0,,KIGQ 250755Z AUTO 19008KT 10SM OVC022 19/16 A2993 RMK AO2 LTG DSNT  N SE AND NW T01880160,,,2200.0,,,60.77,,S,29.28,28.29,,Overcast
KIGQ,08/25/2018 08:15 UTC,29.93,65.84,60.8,83.81,10.36,200.0,,,,,,224.0,,,,10.0,,KIGQ 250815Z AUTO 20009KT 10SM OVC022 19/16 A2993 RMK AO2 LTG DSNT  ALQS T01880160,,,2200.0,,,60.77,,SSW,29.28,28.29,,Overcast
KIGQ,08/25/2018 08:35 UTC,29.91,65.84,60.98,84.35,9.22,190.0,,,,,,204.0,,,,10.0,,KIGQ 250835Z AUTO 19008KT 10SM OVC020 19/16 A2991 RMK AO2 LTG DSNT  ALQS T01880161,,,2000.0,,,60.96,,S,29.26,28.26,,Overcast
KIGQ,08/25/2018 08:55 UTC,29.91,65.84,61.16,84.88,8.05,190.0,,,,,,204.0,,,,10.0,,KIGQ 250855Z AUTO 19007KT 10SM OVC020 19/16 A2991 RMK AO2 LTG DSNT  ALQS T01880162,,,2000.0,,,61.13,,S,29.26,28.25,,Overcast
KIGQ,08/25/2018 09:15 UTC,29.91,66.2,61.7,85.45,9.22,200.0,,,,,,204.0,,,,10.0,,KIGQ 250915Z AUTO 20008KT 10SM OVC020 19/17 A2991 RMK AO2 LTG DSNT  ALQS T01900165,,,2000.0,,,61.68,,SSW,29.26,28.22,,Overcast
KIGQ,08/25/2018 09:35 UTC,29.9,66.2,61.7,85.45,6.91,200.0,,5.0,,,,204.0,,,,10.0,,KIGQ 250935Z AUTO 20006KT 10SM VCTS OVC020 19/17 A2990 RMK AO2 LTG  DSNT ALQS T01900165,,,2000.0,,,61.68,,SSW,29.25,28.2,,Thunder
KIGQ,08/25/2018 09:55 UTC,29.91,66.2,62.06,86.54,8.05,200.0,,5.0,,,,143.0,194.0,,,10.0,,KIGQ 250955Z AUTO 20007KT 10SM TS BKN014 OVC019 19/17 A2991 RMK AO2 LTG DSNT ALQS T01900167,,,1400.0,,,62.04,,SSW,29.26,28.2,,Thunder
KIGQ,08/25/2018 10:15 UTC,29.91,65.48,62.6,90.43,9.22,210.0,,66.0,244.0,0.01,,123.0,193.0,,,5.0,,KIGQ 251015Z AUTO 21008KT 5SM TSRA BKN012 BKN019 OVC024 19/17  A2991 RMK AO2 LTG DSNT ALQS P0001 T01860170,,,1200.0,,,62.58,,SSW,29.26,28.17,,Thunderstorm
KIGQ,08/25/2018 10:35 UTC,29.9,65.12,63.14,93.32,8.05,200.0,,,,0.01,,112.0,164.0,,,10.0,,KIGQ 251035Z AUTO 20007KT 10SM SCT011 OVC016 18/17 A2990 RMK AO2  LTG DSNT E THRU S P0001 T01840173,,,1600.0,,,63.13,,SSW,29.25,28.14,,Overcast
KIGQ,08/25/2018 10:55 UTC,29.91,65.3,63.5,93.91,5.75,210.0,,,,0.01,,144.0,,,,10.0,,KIGQ 251055Z AUTO 21005KT 10SM OVC014 19/18 A2991 RMK AO2 LTG DSNT  NE THRU SE P0001 T01850175,,,1400.0,,,63.49,,SSW,29.26,28.12,,Overcast
KIGQ,08/25/2018 11:15 UTC,29.9,65.66,63.5,92.75,5.75,190.0,,,,,,144.0,,,,10.0,,KIGQ 251115Z AUTO 19005KT 10SM OVC014 19/18 A2990 RMK AO2 LTG DSNT  NE THRU SE T01870175,,,1400.0,,,63.49,,S,29.25,28.11,,Overcast
KIGQ,08/25/2018 11:35 UTC,29.91,65.84,63.86,93.34,5.75,220.0,,,,,,144.0,,,,10.0,,KIGQ 251135Z AUTO 22005KT 10SM OVC014 19/18 A2991 RMK AO2 LTG DSNT  E AND SE T01880177,,,1400.0,,,63.85,,SW,29.26,28.1,,Overcast
KIGQ,08/25/2018 11:55 UTC,29.91,65.84,63.86,93.34,5.75,190.0,,,,,,144.0,,0.01,0.01,7.0,,KIGQ 251155Z AUTO 19005KT 7SM OVC014 19/18 A2991 RMK AO2 LTG DSNT  E AND SE 60001 70001 T01880177 10190 20183,66.2,64.94,1400.0,,,63.85,,S,29.26,28.1,,Overcast
KIGQ,08/25/2018 12:15 UTC,29.91,66.2,64.22,93.35,5.75,190.0,,,,,,124.0,,,,7.0,,KIGQ 251215Z AUTO 19005KT 7SM OVC012 19/18 A2991 RMK AO2 LTG DSNT  E AND SE T01900179,,,1200.0,,,64.21,,S,29.26,28.07,,Overcast
KIGQ,08/25/2018 12:35 UTC,29.92,66.56,64.58,93.36,5.75,200.0,,31.0,,,,124.0,,,,5.0,,KIGQ 251235Z AUTO 20005KT 5SM BR OVC012 19/18 A2992 RMK AO2 LTG  DSNT SE T01920181,,,1200.0,,,64.57,,SSW,29.27,28.05,,Mist
KIGQ,08/25/2018 12:55 UTC,29.93,67.1,64.76,92.21,4.61,180.0,,,,,,104.0,,,,7.0,,KIGQ 251255Z AUTO 18004KT 7SM OVC010 20/18 A2993 RMK AO2 LTG DSNT  SE T01950182,,,1000.0,,,64.75,,S,29.28,28.05,,Overcast
KIGQ,08/25/2018 13:15 UTC,29.94,67.28,65.3,93.38,5.75,190.0,,31.0,,,,84.0,,,,5.0,,KIGQ 251315Z AUTO 19005KT 5SM BR OVC008 20/19 A2994 RMK AO2 LTG  DSNT SE T01960185,,,800.0,,,65.29,,S,29.29,28.02,,Mist
KIGQ,08/25/2018 13:35 UTC,29.94,67.46,66.2,95.74,6.91,180.0,,17.0,,,,84.0,,,,3.0,,KIGQ 251335Z AUTO 18006KT 3SM -DZ OVC008 20/19 A2994 RMK AO2 LTG  DSNT SE T01970190,,,800.0,,,66.19,,S,29.29,27.96,,Light Drizzle
KIGQ,08/25/2018 13:55 UTC,29.94,68.0,66.38,94.57,6.91,190.0,,31.0,,,,83.0,114.0,,,4.0,,KIGQ 251355Z AUTO 19006KT 4SM BR BKN008 OVC011 20/19 A2994 RMK AO2  T02000191,,,800.0,,,66.37,,S,29.29,27.94,,Mist
KIGQ,08/25/2018 14:15 UTC,29.94,68.9,67.1,94.01,9.22,180.0,,31.0,,,,114.0,,,,4.0,,KIGQ 251415Z AUTO 18008KT 4SM BR OVC011 21/20 A2994 RMK AO2  T02050195,,,1100.0,,,67.09,,S,29.29,27.88,,Mist
KIGQ,08/25/2018 14:35 UTC,29.95,69.44,67.82,94.6,10.36,180.0,,13.0,,,,114.0,,,,3.0,,KIGQ 251435Z AUTO 18009KT 3SM -RA OVC011 21/20 A2995 RMK AO2  T02080199,,,1100.0,,,67.81,,S,29.3,27.84,,Light Rain
KIGQ,08/25/2018 14:55 UTC,29.96,70.16,68.0,92.88,11.5,180.0,,31.0,,,,72.0,114.0,,,4.0,,KIGQ 251455Z AUTO 18010KT 4SM BR SCT007 OVC011 21/20 A2996 RMK AO2  LTG DSNT SE T02120200,,,1100.0,,,67.99,,S,29.31,27.82,,Mist
KIGQ,08/25/2018 15:15 UTC,29.96,69.98,67.64,92.3,9.22,180.0,,31.0,,,,94.0,,,,5.0,,KIGQ 251515Z AUTO 18008KT 5SM BR OVC009 21/20 A2996 RMK AO2 LTG  DSNT SE T02110198,,,900.0,,,67.63,,S,29.31,27.85,,Mist
KIGQ,08/25/2018 15:35 UTC,29.96,70.7,68.0,91.19,10.36,180.0,,31.0,,,,94.0,,,,5.0,,KIGQ 251535Z AUTO 18009KT 5SM BR OVC009 22/20 A2996 RMK AO2 LTG  DSNT SE T02150200,,,900.0,,,67.99,,S,29.31,27.82,,Mist
KIGQ,08/25/2018 15:55 UTC,29.96,71.6,68.54,90.11,8.05,170.0,,,,,,94.0,,,,7.0,,KIGQ 251555Z AUTO 17007KT 7SM OVC009 22/20 A2996 RMK AO2 LTG DSNT  SE T02200203,,,900.0,,,68.53,,S,29.31,27.77,,Overcast
KIGQ,08/25/2018 16:15 UTC,29.96,72.5,68.72,87.95,8.05,190.0,,,,,,94.0,,,,7.0,,KIGQ 251615Z AUTO 19007KT 7SM OVC009 23/20 A2996 RMK AO2  T02250204,,,900.0,,,68.71,,S,29.31,27.74,,Overcast
KIGQ,08/25/2018 16:35 UTC,29.96,74.48,69.8,85.39,10.36,190.0,,,,,,94.0,,,,7.0,,KIGQ 251635Z AUTO 19009KT 7SM OVC009 24/21 A2996 RMK AO2 LTG DSNT  SE T02360210,,,900.0,,,69.79,,S,29.31,27.63,,Overcast
KIGQ,08/25/2018 16:55 UTC,29.95,75.92,69.98,81.9,11.5,180.0,,,,,,114.0,,,,7.0,,KIGQ 251655Z AUTO 18010KT 7SM OVC011 24/21 A2995 RMK AO2 LTG DSNT  SE T02440211,,,1100.0,,,69.98,,S,29.3,27.59,,Overcast
KIGQ,08/25/2018 17:15 UTC,29.95,77.0,70.52,80.48,14.97,180.0,,,,,,114.0,,,,7.0,,KIGQ 251715Z AUTO 18013KT 7SM OVC011 25/21 A2995 RMK AO2 LTG DSNT  SE T02500214,,,1100.0,,,70.52,,S,29.3,27.54,,Overcast
KIGQ,08/25/2018 17:35 UTC,29.95,77.18,70.52,80.01,9.22,200.0,,,,,,112.0,332.0,,,7.0,,KIGQ 251735Z AUTO 20008KT 7SM SCT011 SCT033 25/21 A2995 RMK AO2  T02510214,,,,,,70.52,,SSW,29.3,27.53,,Partly Cloudy
KIGQ,08/25/2018 17:55 UTC,29.95,76.82,70.7,81.46,8.05,200.0,,,,,,133.0,333.0,,,7.0,,KIGQ 251755Z AUTO 20007KT 7SM BKN013 BKN033 25/22 A2995 RMK AO2  T02490215 10253 20188,77.54,65.84,1300.0,,,70.7,,SSW,29.3,27.52,,Mostly Cloudy
KIGQ,08/25/2018 18:15 UTC,29.95,77.72,70.7,79.08,5.75,210.0,,,,,,164.0,,,,7.0,,KIGQ 251815Z AUTO 21005KT 7SM OVC016 25/22 A2995 RMK AO2  T02540215,,,1600.0,,,70.7,,SSW,29.3,27.51,,Overcast
KIGQ,08/25/2018 18:35 UTC,29.95,79.52,71.42,76.38,8.05,170.0,,,293.0,,,163.0,223.0,,,7.0,,KIGQ 251835Z AUTO 17007KT 7SM BKN016 BKN022 BKN029 26/22 A2995 RMK AO2 T02640219,,,1600.0,,,71.43,,S,29.3,27.43,,Mostly Cloudy
KIGQ,08/25/2018 18:55 UTC,29.95,78.44,71.24,78.65,6.91,190.0,,,314.0,,,183.0,233.0,,,7.0,,KIGQ 251855Z AUTO 19006KT 7SM BKN018 BKN023 OVC031 26/22 A2995 RMK AO2 T02580218,,,1800.0,,,71.24,,S,29.3,27.46,,Overcast
KIGQ,08/25/2018 19:15 UTC,29.95,80.06,72.14,76.89,9.22,170.0,,,333.0,,,183.0,233.0,,,10.0,,KIGQ 251915Z AUTO 17008KT 10SM BKN018 BKN023 BKN033 27/22 A2995 RMK AO2 T02670223,,,1800.0,,,72.15,,S,29.3,27.37,83.94,Mostly Cloudy
KIGQ,08/25/2018 19:35 UTC,29.95,80.96,71.96,74.22,10.36,180.0,,,343.0,,,182.0,293.0,,,10.0,,KIGQ 251935Z AUTO 18009KT 10SM SCT018 BKN029 BKN034 27/22 A2995 RMK AO2 T02720222,,,2900.0,,,71.97,,S,29.3,27.37,85.28,Mostly Cloudy
KIGQ,08/25/2018 19:55 UTC,29.95,81.5,72.14,73.38,12.66,200.0,,,342.0,,,182.0,292.0,,,7.0,,KIGQ 251955Z AUTO 20011KT 7SM SCT018 SCT029 SCT034 28/22 A2995 RMK AO2 LTG DSNT SE T02750223,,,,,,72.16,,SSW,29.3,27.35,86.18,Partly Cloudy
KIGQ,08/25/2018 20:15 UTC,29.95,80.42,71.96,75.54,11.5,190.0,,,,,,203.0,,,,10.0,,KIGQ 252015Z AUTO 19010KT 10SM BKN020 27/22 A2995 RMK AO2  T02690222,,,2000.0,,,71.97,,S,29.3,27.37,84.45,Mostly Cloudy
KIGQ,08/25/2018 20:35 UTC,29.94,80.06,72.14,76.89,9.22,190.0,,,,,,203.0,,,,7.0,,KIGQ 252035Z AUTO 19008KT 7SM BKN020 27/22 A2994 RMK AO2  T02670223,,,2000.0,,,72.15,,S,29.29,27.36,83.94,Mostly Cloudy
KIGQ,08/25/2018 20:55 UTC,29.94,79.88,71.96,76.88,6.91,200.0,,,,,,202.0,,,,7.0,,KIGQ 252055Z AUTO 20006KT 7SM SCT020 27/22 A2994 RMK AO2  T02660222,,,,,,71.97,,SSW,29.29,27.37,,Partly Cloudy
KIGQ,08/25/2018 21:15 UTC,29.93,80.6,72.32,76.01,9.22,190.0,,,,,,202.0,,,,10.0,,KIGQ 252115Z AUTO 19008KT 10SM SCT020 27/22 A2993 RMK AO2  T02700224,,,,,,72.33,,S,29.28,27.32,84.87,Partly Cloudy
KIGQ,08/25/2018 21:35 UTC,29.93,82.04,73.04,74.32,8.05,200.0,,,,,,202.0,,,,10.0,,KIGQ 252135Z AUTO 20007KT 10SM SCT020 28/23 A2993 RMK AO2  T02780228,,,,,,73.06,,SSW,29.28,27.24,87.5,Partly Cloudy
KIGQ,08/25/2018 21:55 UTC,29.93,81.86,73.04,74.76,8.05,170.0,,,,,,1.0,,,,10.0,,KIGQ 252155Z AUTO 17007KT 10SM CLR 28/23 A2993 RMK AO2  T02770228,,,,,,73.06,,S,29.28,27.25,87.22,Clear
KIGQ,08/25/2018 22:15 UTC,29.93,82.22,73.4,74.79,6.91,190.0,,,,,,1.0,,,,10.0,,KIGQ 252215Z AUTO 19006KT 10SM CLR 28/23 A2993 RMK AO2  T02790230,,,,,,73.42,,S,29.28,27.21,87.99,Clear
KIGQ,08/25/2018 22:35 UTC,29.93,81.68,73.76,77.03,6.91,190.0,,,,,,1.0,,,,10.0,,KIGQ 252235Z AUTO 19006KT 10SM CLR 28/23 A2993 RMK AO2  T02760232,,,,,,73.77,,S,29.28,27.19,87.34,Clear
KIGQ,08/25/2018 22:55 UTC,29.93,81.68,73.58,76.57,5.75,180.0,,,422.0,,,292.0,362.0,,,10.0,,KIGQ 252255Z AUTO 18005KT 10SM SCT029 SCT036 SCT042 28/23 A2993 RMK AO2 T02760231,,,,,,73.6,,S,29.28,27.2,87.24,Partly Cloudy
KIGQ,08/25/2018 23:15 UTC,29.93,81.5,73.76,77.48,4.61,150.0,,,423.0,,,272.0,342.0,,,10.0,,KIGQ 252315Z AUTO 15004KT 10SM SCT027 SCT034 BKN042 28/23 A2993 RMK AO2 T02750232,,,4200.0,,,73.77,,SSE,29.28,27.19,87.04,Mostly Cloudy
KIGQ,08/25/2018 23:35 UTC,29.93,81.14,73.76,78.39,4.61,150.0,,,,,,342.0,422.0,,,10.0,,KIGQ 252335Z AUTO 15004KT 10SM SCT034 SCT042 27/23 A2993 RMK AO2  T02730232,,,,,,73.77,,SSE,29.28,27.19,86.43,Partly Cloudy
KIGQ,08/25/2018 23:55 UTC,29.93,80.78,73.94,79.8,3.44,180.0,,,,,,1.0,,,,10.0,,KIGQ 252355Z AUTO 18003KT 10SM CLR 27/23 A2993 RMK AO2 T02710233  10280 20250,82.4,77.0,,,,73.95,,S,29.28,27.18,85.9,Clear
KIGQ,08/26/2018 00:15 UTC,29.94,79.34,73.58,82.63,3.44,190.0,,,,,,1.0,,,,7.0,,KIGQ 260015Z AUTO 19003KT 7SM CLR 26/23 A2994 RMK AO2  T02630231,,,,,,73.58,,S,29.29,27.25,,Clear
KIGQ,08/26/2018 00:35 UTC,29.94,78.44,73.58,85.11,5.75,110.0,,,,,,552.0,,,,7.0,,KIGQ 260035Z AUTO 11005KT 7SM SCT055 26/23 A2994 RMK AO2  T02580231,,,,,,73.58,,ESE,29.29,27.26,,Partly Cloudy
KIGQ,08/26/2018 00:55 UTC,29.94,77.9,73.58,86.63,4.61,110.0,,,503.0,,,352.0,452.0,,,7.0,,KIGQ 260055Z AUTO 11004KT 7SM SCT035 SCT045 BKN050 26/23 A2994 RMK AO2 T02550231,,,5000.0,,,73.58,,ESE,29.29,27.27,,Mostly Cloudy
KIGQ,08/26/2018 01:15 UTC,29.94,78.08,73.76,86.64,5.75,120.0,,,502.0,,,352.0,432.0,,,7.0,,KIGQ 260115Z AUTO 12005KT 7SM SCT035 SCT043 SCT050 26/23 A2994 RMK AO2 T02560232,,,,,,73.76,,ESE,29.29,27.25,,Partly Cloudy
KIGQ,08/26/2018 01:35 UTC,29.95,78.8,73.94,85.13,4.61,140.0,,,553.0,,,332.0,462.0,,,7.0,,KIGQ 260135Z AUTO 14004KT 7SM SCT033 SCT046 BKN055 26/23 A2995 RMK AO2 T02600233,,,5500.0,,,73.94,,SE,29.3,27.23,,Mostly Cloudy
KIGQ,08/26/2018 01:55 UTC,29.96,78.8,73.94,85.13,0.0,0.0,,,503.0,,,332.0,432.0,,,7.0,,KIGQ 260155Z AUTO 00000KT 7SM SCT033 SCT043 BKN050 26/23 A2996 RMK AO2 T02600233,,,5000.0,,,73.94,,N,29.31,27.24,,Mostly Cloudy
KIGQ,08/26/2018 02:15 UTC,29.97,77.9,73.94,87.68,4.61,310.0,,13.0,804.0,,,312.0,413.0,,,7.0,,KIGQ 260215Z AUTO 31004KT 7SM -RA SCT031 BKN041 OVC080 26/23 A2997 RMK AO2 T02550233,,,4100.0,,,73.94,,NW,29.32,27.27,,Light Rain
KIGQ,08/26/2018 02:35 UTC,29.97,76.46,73.58,90.85,4.61,160.0,,,503.0,,,312.0,462.0,,,7.0,,KIGQ 260235Z AUTO 16004KT 7SM SCT031 SCT046 BKN050 25/23 A2997 RMK AO2 T02470231,,,5000.0,,,73.58,,SSE,29.32,27.32,,Mostly Cloudy
KIGQ,08/26/2018 02:55 UTC,29.97,76.64,73.76,90.86,0.0,0.0,,,,,,1.0,,,,7.0,,KIGQ 260255Z AUTO 00000KT 7SM CLR 25/23 A2997 RMK AO2  T02480232,,,,,,73.76,,N,29.32,27.3,,Clear
KIGQ,08/26/2018 03:15 UTC,29.97,76.46,73.4,90.3,3.44,150.0,,,,,,1.0,,,,7.0,,KIGQ 260315Z AUTO 15003KT 7SM CLR 25/23 A2997 RMK AO2  T02470230,,,,,,73.4,,SSE,29.32,27.34,,Clear
KIGQ,08/26/2018 03:35 UTC,29.97,76.1,73.22,90.84,3.44,150.0,,,,,,1.0,,,,7.0,,KIGQ 260335Z AUTO 15003KT 7SM CLR 25/23 A2997 RMK AO2 LTG DSNT SE  AND S T02450229,,,,,,73.22,,SSE,29.32,27.36,,Clear
KIGQ,08/26/2018 03:55 UTC,29.97,75.38,73.4,93.6,3.44,140.0,,,,,,1.0,,,,7.0,,KIGQ 260355Z AUTO 14003KT 7SM CLR 24/23 A2997 RMK AO2  T02410230,,,,,,73.4,,SE,29.32,27.35,,Clear
KIGQ,08/26/2018 04:15 UTC,29.97,75.02,73.04,93.59,3.44,150.0,,31.0,,,,1.0,,,,5.0,,KIGQ 260415Z AUTO 15003KT 5SM BR CLR 24/23 A2997 RMK AO2  T02390228,,,,,,73.04,,SSE,29.32,27.39,,Mist
KIGQ,08/26/2018 04:35 UTC,29.98,73.94,72.86,96.44,3.44,200.0,,31.0,,,,1.0,,,,4.0,,KIGQ 260435Z AUTO 20003KT 4SM BR CLR 23/23 A2998 RMK AO2  T02330227,,,,,,72.86,,SSW,29.33,27.43,,Mist
KIGQ,08/26/2018 04:55 UTC,29.98,73.76,73.4,98.8,0.0,0.0,,31.0,,,,1.0,,,,4.0,,KIGQ 260455Z AUTO 00000KT 4SM BR CLR 23/23 A2998 RMK AO2  T02320230,,,,,,73.4,,N,29.33,27.39,,Mist
KIGQ,08/26/2018 05:15 UTC,29.98,73.4,72.86,98.2,0.0,0.0,,31.0,,,,1.0,,,,3.0,,KIGQ 260515Z AUTO 00000KT 3SM BR CLR 23/23 A2998 RMK AO2  T02300227,,,,,,72.86,,N,29.33,27.44,,Mist
KIGQ,08/26/2018 05:35 UTC,29.98,71.6,71.24,98.79,0.0,0.0,,31.0,,,,75.0,,,,1.25,,KIGQ 260535Z AUTO 00000KT 1 1/4SM BR VV007 22/22 A2998 RMK AO2 LTG  DSNT E T02200218,,,700.0,,,71.24,,N,29.33,27.59,,Mist
KIGQ,08/26/2018 05:55 UTC,29.98,72.68,72.5,99.4,0.0,0.0,,9.0,,,,82.0,,,,0.5,,KIGQ 260555Z AUTO 00000KT 1/2SM FG SCT008 23/23 A2998 RMK AO2  T02260225 10270 20220 402800183,80.6,71.6,,82.4,64.94,72.5,,N,29.33,27.48,,Fog
KIGQ,08/26/2018 06:15 UTC,29.98,73.76,73.76,100.0,0.0,0.0,,31.0,,,,82.0,,,,1.0,,KIGQ 260615Z AUTO 00000KT 1SM BR SCT008 23/23 A2998 RMK AO2 VIS  1/2V2 1/2 T02320232,,,,,,73.76,,N,29.33,27.36,,Mist
KIGQ,08/26/2018 06:35 UTC,29.98,73.22,73.22,100.0,0.0,0.0,,9.0,,,,73.0,,,,0.25,,KIGQ 260635Z AUTO 00000KT 1/4SM FG BKN007 23/23 A2998 RMK AO2  T02290229,,,700.0,,,73.22,,N,29.33,27.41,,Fog
KIGQ,08/26/2018 06:55 UTC,29.98,73.4,73.4,100.0,3.44,170.0,,31.0,,,,73.0,,,,0.75,,KIGQ 260655Z AUTO 17003KT 3/4SM BR BKN007 23/23 A2998 RMK AO2  T02300230,,,700.0,,,73.4,,S,29.33,27.39,,Mist
KIGQ,08/26/2018 07:15 UTC,29.98,72.14,72.14,100.0,3.44,170.0,,9.0,,,,73.0,,,,0.25,,KIGQ 260715Z AUTO 17003KT 1/4SM FG BKN007 22/22 A2998 RMK AO2  T02230223,,,700.0,,,72.14,,S,29.33,27.51,,Fog
KIGQ,08/26/2018 07:35 UTC,29.99,71.96,71.96,100.0,4.61,180.0,,31.0,,,,75.0,,,,1.5,,KIGQ 260735Z AUTO 18004KT 1 1/2SM BR VV007 22/22 A2999 RMK AO2 LTG  DSNT E T02220222,,,700.0,,,71.96,,S,29.34,27.54,,Mist
KIGQ,08/26/2018 07:55 UTC,29.99,72.5,72.5,100.0,3.44,210.0,,9.0,,,,73.0,123.0,,,0.5,,KIGQ 260755Z AUTO 21003KT 1/2SM FG BKN007 BKN012 23/23 A2999 RMK AO2 T02250225,,,700.0,,,72.5,,SSW,29.34,27.49,,Fog
KIGQ,08/26/2018 08:15 UTC,30.0,70.7,70.7,100.0,4.61,190.0,,9.0,,,,64.0,,,,0.25,,KIGQ 260815Z AUTO 19004KT 1/4SM FG OVC006 22/22 A3000 RMK AO2  T02150215,,,600.0,,,70.7,,S,29.35,27.66,,Fog
KIGQ,08/26/2018 08:35 UTC,30.0,71.42,71.42,100.0,0.0,0.0,,31.0,,,,62.0,502.0,,,1.75,,KIGQ 260835Z AUTO 00000KT 1 3/4SM BR SCT006 SCT050 22/22 A3000 RMK AO2 T02190219,,,,,,71.42,,N,29.35,27.6,,Mist
KIGQ,08/26/2018 08:55 UTC,30.01,71.42,71.42,100.0,3.44,200.0,,31.0,,,,75.0,,,,1.5,,KIGQ 260855Z AUTO 20003KT 1 1/2SM BR VV007 22/22 A3001 RMK AO2  T02190219,,,700.0,,,71.42,,SSW,29.36,27.61,,Mist
KIGQ,08/26/2018 09:15 UTC,30.01,71.42,71.42,100.0,3.44,190.0,,31.0,,,,75.0,,,,1.75,,KIGQ 260915Z AUTO 19003KT 1 3/4SM BR VV007 22/22 A3001 RMK AO2 LTG  DSNT E T02190219,,,700.0,,,71.42,,S,29.36,27.61,,Mist
KIGQ,08/26/2018 09:35 UTC,30.01,71.96,71.96,100.0,3.44,200.0,,31.0,,,,75.0,,,,1.0,,KIGQ 260935Z AUTO 20003KT 1SM BR VV007 22/22 A3001 RMK AO2  T02220222,,,700.0,,,71.96,,SSW,29.36,27.56,,Mist
KIGQ,08/26/2018 09:55 UTC,30.01,70.7,70.7,100.0,3.44,200.0,,31.0,,,,1.0,,,,2.0,,KIGQ 260955Z AUTO 20003KT 2SM BR CLR 22/22 A3001 RMK AO2  T02150215,,,,,,70.7,,SSW,29.36,27.67,,Mist
KIGQ,08/26/2018 10:15 UTC,30.02,70.88,70.88,100.0,3.44,200.0,,31.0,,,,75.0,,,,1.25,,KIGQ 261015Z AUTO 20003KT 1 1/4SM BR VV007 22/22 A3002 RMK AO2  T02160216,,,700.0,,,70.88,,SSW,29.37,27.67,,Mist
KIGQ,08/26/2018 10:35 UTC,30.02,70.88,70.88,100.0,3.44,220.0,,9.0,,,,73.0,553.0,,,0.5,,KIGQ 261035Z AUTO 22003KT 1/2SM FG BKN007 BKN055 22/22 A3002 RMK AO2 T02160216,,,700.0,,,70.88,,SW,29.37,27.67,,Fog
KIGQ,08/26/2018 10:55 UTC,30.02,70.7,70.7,100.0,3.44,200.0,,31.0,,,,1.0,,,,2.0,,KIGQ 261055Z AUTO 20003KT 2SM BR CLR 22/22 A3002 RMK AO2  T02150215,,,,,,70.7,,SSW,29.37,27.68,,Mist
KIGQ,08/26/2018 11:15 UTC,30.02,70.34,70.34,100.0,3.44,210.0,,31.0,,,,75.0,,,,1.5,,KIGQ 261115Z AUTO 21003KT 1 1/2SM BR VV007 21/21 A3002 RMK AO2  T02130213,,,700.0,,,70.34,,SSW,29.37,27.72,,Mist
KIGQ,08/26/2018 11:35 UTC,30.02,70.7,70.7,100.0,3.44,200.0,,31.0,,,,75.0,,,,1.75,,KIGQ 261135Z AUTO 20003KT 1 3/4SM BR VV007 22/22 A3002 RMK AO2  T02150215,,,700.0,,,70.7,,SSW,29.37,27.68,,Mist
KIGQ,08/26/2018 11:55 UTC,30.03,72.5,72.5,100.0,4.61,230.0,,31.0,,,,1.0,,,,3.0,,KIGQ 261155Z AUTO 23004KT 3SM BR CLR 23/23 A3003 RMK AO2 T02250225  10232 20211,73.76,69.98,,,,72.5,,SW,29.38,27.53,,Mist
KIGQ,08/26/2018 12:15 UTC,30.04,72.86,72.86,100.0,3.44,230.0,,31.0,,,,1.0,,,,4.0,,KIGQ 261215Z AUTO 23003KT 4SM BR CLR 23/23 A3004 RMK AO2  T02270227,,,,,,72.86,,SW,29.39,27.51,,Mist
KIGQ,08/26/2018 12:35 UTC,30.03,73.58,73.58,100.0,0.0,0.0,,31.0,,,,1.0,,,,4.0,,KIGQ 261235Z AUTO 00000KT 4SM BR CLR 23/23 A3003 RMK AO2  T02310231,,,,,,73.58,,N,29.38,27.43,,Mist
KIGQ,08/26/2018 12:55 UTC,30.04,74.48,74.48,100.0,3.44,210.0,,31.0,,,,1.0,,,,5.0,,KIGQ 261255Z AUTO 21003KT 5SM BR CLR 24/24 A3004 RMK AO2  T02360236,,,,,,74.48,,SSW,29.39,27.35,,Mist
KIGQ,08/26/2018 13:15 UTC,30.04,75.56,75.38,99.4,3.44,210.0,,31.0,,,,1.0,,,,5.0,,KIGQ 261315Z AUTO 21003KT 5SM BR CLR 24/24 A3004 RMK AO2  T02420241,,,,,,75.38,,SSW,29.39,27.25,,Mist
KIGQ,08/26/2018 13:35 UTC,30.04,77.18,74.66,91.97,6.91,280.0,,,,,,1.0,,,,7.0,,KIGQ 261335Z AUTO 28006KT 7SM CLR 25/24 A3004 RMK AO2  T02510237,,,,,,74.66,,W,29.39,27.29,,Clear
KIGQ,08/26/2018 13:55 UTC,30.05,78.8,73.58,84.11,6.91,240.0,,,,,,1.0,,,,10.0,,KIGQ 261355Z AUTO 24006KT 10SM CLR 26/23 A3005 RMK AO2  T02600231,,,,,,73.58,,WSW,29.4,27.37,,Clear
KIGQ,08/26/2018 14:15 UTC,30.04,79.88,73.4,80.7,8.05,240.0,,,,,,1.0,,,,10.0,,KIGQ 261415Z AUTO 24007KT 10SM CLR 27/23 A3004 RMK AO2  T02660230,,,,,,73.41,,WSW,29.39,27.36,,Clear
KIGQ,08/26/2018 14:35 UTC,30.04,81.32,73.58,77.47,6.91,230.0,,,,,,1.0,,,,10.0,,KIGQ 261435Z AUTO 23006KT 10SM CLR 27/23 A3004 RMK AO2  T02740231,,,,,,73.59,,SW,29.39,27.32,86.64,Clear
KIGQ,08/26/2018 14:55 UTC,30.04,81.86,73.4,75.67,9.22,220.0,,,,,,1.0,,,,10.0,,KIGQ 261455Z AUTO 22008KT 10SM CLR 28/23 A3004 RMK AO2  T02770230,,,,,,73.42,,SW,29.39,27.33,87.42,Clear
KIGQ,08/26/2018 15:15 UTC,30.05,82.94,73.76,73.96,4.61,230.0,,,,,,1.0,,,,10.0,,KIGQ 261515Z AUTO 23004KT 10SM CLR 28/23 A3005 RMK AO2  T02830232,,,,,,73.78,,SW,29.4,27.29,89.35,Clear
KIGQ,08/26/2018 15:35 UTC,30.05,84.2,73.94,71.45,9.22,240.0,,,,,,1.0,,,,10.0,,KIGQ 261535Z AUTO 24008KT 10SM CLR 29/23 A3005 RMK AO2  T02900233,,,,,,73.97,,WSW,29.4,27.26,91.4,Clear
KIGQ,08/26/2018 15:55 UTC,30.05,85.1,74.84,71.54,6.91,220.0,,,,,,1.0,,,,10.0,,KIGQ 261555Z AUTO 22006KT 10SM CLR 30/24 A3005 RMK AO2  T02950238,,,,,,74.88,,SW,29.4,27.17,93.53,Clear
KIGQ,08/26/2018 16:15 UTC,30.04,85.1,75.02,71.97,6.91,210.0,,,,,,1.0,,,,10.0,,KIGQ 261615Z AUTO 21006KT 10SM CLR 30/24 A3004 RMK AO2  T02950239,,,,,,75.05,,SSW,29.39,27.14,93.7,Clear
KIGQ,08/26/2018 16:35 UTC,30.04,86.0,74.3,68.28,8.05,210.0,,,,,,1.0,,,,10.0,,KIGQ 261635Z AUTO 21007KT 10SM CLR 30/24 A3004 RMK AO2  T03000235,,,,,,74.35,,SSW,29.39,27.19,94.33,Clear
KIGQ,08/26/2018 16:55 UTC,30.03,86.9,75.74,69.61,8.05,230.0,,,,,,1.0,,,,10.0,,KIGQ 261655Z AUTO 23007KT 10SM CLR 31/24 A3003 RMK AO2  T03050243,,,,,,75.79,,SW,29.38,27.04,97.13,Clear
KIGQ,08/26/2018 17:15 UTC,30.04,87.62,75.92,68.45,10.36,210.0,,,,,,262.0,402.0,,,10.0,,KIGQ 261715Z AUTO 21009KT 10SM SCT026 SCT040 31/24 A3004 RMK AO2  T03090244,,,,,,75.97,,SSW,29.39,27.02,98.38,Partly Cloudy
KIGQ,08/26/2018 17:35 UTC,30.04,87.8,75.56,67.26,9.22,210.0,,,,,,262.0,333.0,,,10.0,,KIGQ 261735Z AUTO 21008KT 10SM SCT026 BKN033 31/24 A3004 RMK AO2  T03100242,,,3300.0,,,75.62,,SSW,29.39,27.05,98.23,Mostly Cloudy
KIGQ,08/26/2018 17:55 UTC,30.04,88.34,75.74,66.52,8.05,230.0,,,423.0,,,252.0,333.0,,,10.0,,KIGQ 261755Z AUTO 23007KT 10SM SCT025 BKN033 BKN042 31/24 A3004 RMK AO2 T03130243 10315 20225,88.7,72.5,3300.0,,,75.8,,SW,29.39,27.03,99.2,Mostly Cloudy
KIGQ,08/26/2018 18:15 UTC,30.03,89.24,75.56,64.27,9.22,210.0,,,,,,313.0,383.0,,,10.0,,KIGQ 261815Z AUTO 21008KT 10SM BKN031 BKN038 32/24 A3003 RMK AO2  T03180242,,,3100.0,,,75.63,,SSW,29.38,27.02,100.24,Mostly Cloudy
KIGQ,08/26/2018 18:35 UTC,30.02,88.52,75.2,64.96,6.91,210.0,,,463.0,,,312.0,393.0,,,10.0,,KIGQ 261835Z AUTO 21006KT 10SM SCT031 BKN039 BKN046 31/24 A3002 RMK AO2 T03140240,,,3900.0,,,75.27,,SSW,29.37,27.06,98.82,Mostly Cloudy
KIGQ,08/26/2018 18:55 UTC,30.02,88.88,75.38,64.62,10.36,210.0,,,653.0,,,353.0,443.0,,,10.0,,KIGQ 261855Z AUTO 21009KT 10SM BKN035 BKN044 BKN065 32/24 A3002 RMK AO2 T03160241,,,3500.0,,,75.45,,SSW,29.37,27.04,99.53,Mostly Cloudy
KIGQ,08/26/2018 19:15 UTC,30.02,88.7,75.02,64.21,8.05,220.0,,,504.0,,,353.0,443.0,,,10.0,,KIGQ 261915Z AUTO 22007KT 10SM BKN035 BKN044 OVC050 32/24 A3002 RMK AO2 T03150239,,,3500.0,,,75.09,,SW,29.37,27.07,98.86,Overcast
KIGQ,08/26/2018 19:35 UTC,30.01,91.22,74.84,58.98,6.91,230.0,,,503.0,,,352.0,453.0,,,10.0,,KIGQ 261935Z AUTO 23006KT 10SM SCT035 BKN045 BKN050 33/24 A3001 RMK AO2 T03290238,,,4500.0,,,74.94,,SW,29.36,27.05,102.03,Mostly Cloudy
KIGQ,08/26/2018 19:55 UTC,30.0,90.5,74.66,59.96,13.8,220.0,,,703.0,,,412.0,503.0,,,10.0,,KIGQ 261955Z AUTO 22012KT 10SM SCT041 BKN050 BKN070 33/24 A3000 RMK AO2 T03250237,,,5000.0,,,74.75,,SW,29.35,27.06,100.86,Mostly Cloudy
KIGQ,08/26/2018 20:15 UTC,29.99,91.76,73.58,55.61,10.36,210.0,,,602.0,,,412.0,462.0,,,10.0,,KIGQ 262015Z AUTO 21009KT 10SM SCT041 SCT046 SCT060 33/23 A2999 RMK AO2 T03320231,,,,,,73.7,,SSW,29.34,27.13,101.26,Partly Cloudy
KIGQ,08/26/2018 20:35 UTC,29.99,92.12,72.68,53.35,14.97,220.0,19.57,,,,,452.0,,,,10.0,,KIGQ 262035Z AUTO 22013G17KT 10SM SCT045 33/23 A2999 RMK AO2  T03340226,,,,,,72.81,,SW,29.34,27.21,100.72,Partly Cloudy
KIGQ,08/26/2018 20:55 UTC,29.98,91.94,72.68,53.65,10.36,220.0,,,,,,1.0,,,,10.0,,KIGQ 262055Z AUTO 22009KT 10SM CLR 33/23 A2998 RMK AO2  T03330226,,,,,,72.8,,SW,29.33,27.2,100.49,Clear
KIGQ,08/26/2018 21:15 UTC,29.98,91.76,73.22,54.94,9.22,200.0,,,,,,452.0,602.0,,,10.0,,KIGQ 262115Z AUTO 20008KT 10SM SCT045 SCT060 33/23 A2998 RMK AO2  T03320229,,,,,,73.34,,SSW,29.33,27.15,100.85,Partly Cloudy
KIGQ,08/26/2018 21:35 UTC,29.97,90.5,70.7,52.48,16.11,190.0,20.71,,753.0,,,453.0,603.0,,,10.0,,KIGQ 262135Z AUTO 19014G18KT 10SM BKN045 BKN060 BKN075 33/22 A2997 RMK AO2 T03250215,,,4500.0,,,70.81,,S,29.32,27.37,96.76,Mostly Cloudy
KIGQ,08/26/2018 21:55 UTC,29.97,90.86,70.88,52.21,12.66,200.0,17.27,,,,,472.0,602.0,,,10.0,,KIGQ 262155Z AUTO 20011G15KT 10SM SCT047 SCT060 33/22 A2997 RMK AO2 T03270216,,,,,,71.0,,SSW,29.32,27.35,97.36,Partly Cloudy
KIGQ,08/26/2018 22:15 UTC,29.96,90.5,71.42,53.78,9.22,190.0,,,,,,1.0,,,,10.0,,KIGQ 262215Z AUTO 19008KT 10SM CLR 33/22 A2996 RMK AO2  T03250219,,,,,,71.53,,S,29.31,27.3,97.42,Clear
KIGQ,08/26/2018 22:35 UTC,29.96,89.78,70.88,54.0,10.36,190.0,16.11,,,,,1.0,,,,10.0,,KIGQ 262235Z AUTO 19009G14KT 10SM CLR 32/22 A2996 RMK AO2  T03210216,,,,,,70.98,,S,29.31,27.35,96.04,Clear
KIGQ,08/26/2018 22:55 UTC,29.96,88.88,71.42,56.58,10.36,190.0,,,,,,602.0,,,,10.0,,KIGQ 262255Z AUTO 19009KT 10SM SCT060 32/22 A2996 RMK AO2  T03160219,,,,,,71.51,,S,29.31,27.32,95.42,Partly Cloudy
KIGQ,08/26/2018 23:15 UTC,29.96,87.98,70.88,57.15,9.22,200.0,,,,,,1.0,,,,10.0,,KIGQ 262315Z AUTO 20008KT 10SM CLR 31/22 A2996 RMK AO2 LTG DSNT N  T03110216,,,,,,70.96,,SSW,29.31,27.38,93.84,Clear
KIGQ,08/26/2018 23:35 UTC,29.96,87.44,69.98,56.38,10.36,200.0,,,,,,1.0,,,,10.0,,KIGQ 262335Z AUTO 20009KT 10SM CLR 31/21 A2996 RMK AO2  T03080211,,,,,,70.05,,SSW,29.31,27.45,92.47,Clear
KIGQ,08/26/2018 23:55 UTC,29.96,85.46,70.7,61.53,9.22,200.0,,,,,,1.0,,,,10.0,,KIGQ 262355Z AUTO 20008KT 10SM CLR 30/22 A2996 RMK AO2 T02970215  10337 20297,92.66,85.46,,,,70.75,,SSW,29.31,27.42,90.6,Clear
KIGQ,08/27/2018 00:15 UTC,29.96,83.66,71.24,66.38,6.91,190.0,,,,,,1.0,,,,10.0,,KIGQ 270015Z AUTO 19006KT 10SM CLR 29/22 A2996 RMK AO2  T02870218,,,,,,71.27,,S,29.31,27.4,88.68,Clear
KIGQ,08/27/2018 00:35 UTC,29.97,82.58,71.96,70.43,8.05,190.0,,,,,,1.0,,,,10.0,,KIGQ 270035Z AUTO 19007KT 10SM CLR 28/22 A2997 RMK AO2  T02810222,,,,,,71.99,,S,29.32,27.37,87.66,Clear
KIGQ,08/27/2018 00:55 UTC,29.97,82.76,73.76,74.39,9.22,190.0,,,,,,1.0,,,,10.0,,KIGQ 270055Z AUTO 19008KT 10SM CLR 28/23 A2997 RMK AO2  T02820232,,,,,,73.78,,S,29.32,27.21,89.07,Clear
KIGQ,08/27/2018 01:15 UTC,29.97,82.76,74.12,75.29,11.5,190.0,,,,,,1.0,,,,10.0,,KIGQ 270115Z AUTO 19010KT 10SM CLR 28/23 A2997 RMK AO2 LTG DSNT N  T02820234,,,,,,74.14,,S,29.32,27.18,89.32,Clear
KIGQ,08/27/2018 01:35 UTC,29.97,82.4,73.58,74.81,11.5,190.0,,,,,,1.0,,,,10.0,,KIGQ 270135Z AUTO 19010KT 10SM CLR 28/23 A2997 RMK AO2 LTG DSNT N  T02800231,,,,,,73.6,,S,29.32,27.23,88.39,Clear
KIGQ,08/27/2018 01:55 UTC,29.97,81.86,73.4,75.67,10.36,190.0,,,,,,1.0,,,,10.0,,KIGQ 270155Z AUTO 19009KT 10SM CLR 28/23 A2997 RMK AO2  T02770230,,,,,,73.42,,S,29.32,27.26,87.42,Clear
KIGQ,08/27/2018 02:15 UTC,29.97,81.5,72.86,75.18,10.36,200.0,,,,,,1.0,,,,10.0,,KIGQ 270215Z AUTO 20009KT 10SM CLR 28/23 A2997 RMK AO2  T02750227,,,,,,72.88,,SSW,29.32,27.31,86.55,Clear
KIGQ,08/27/2018 02:35 UTC,29.97,80.96,72.86,76.51,10.36,200.0,,,,,,1.0,,,,10.0,,KIGQ 270235Z AUTO 20009KT 10SM CLR 27/23 A2997 RMK AO2  T02720227,,,,,,72.87,,SSW,29.32,27.31,85.69,Clear
KIGQ,08/27/2018 02:55 UTC,29.98,80.06,72.86,78.78,10.36,200.0,,,,,,1.0,,,,10.0,,KIGQ 270255Z AUTO 20009KT 10SM CLR 27/23 A2998 RMK AO2  T02670227,,,,,,72.87,,SSW,29.33,27.34,84.19,Clear
KIGQ,08/27/2018 03:15 UTC,29.97,79.88,72.86,79.25,9.22,190.0,,,,,,1.0,,,,10.0,,KIGQ 270315Z AUTO 19008KT 10SM CLR 27/23 A2997 RMK AO2  T02660227,,,,,,72.87,,S,29.32,27.33,,Clear
KIGQ,08/27/2018 03:35 UTC,29.97,79.52,73.4,81.65,10.36,200.0,,,,,,1.0,,,,10.0,,KIGQ 270335Z AUTO 20009KT 10SM CLR 26/23 A2997 RMK AO2  T02640230,,,,,,73.41,,SSW,29.32,27.29,,Clear
KIGQ,08/27/2018 03:55 UTC,29.98,79.7,73.4,81.17,11.5,200.0,,,,,,1.0,,,,10.0,,KIGQ 270355Z AUTO 20010KT 10SM CLR 27/23 A2998 RMK AO2  T02650230,,,,,,73.41,,SSW,29.33,27.3,,Clear
KIGQ,08/27/2018 04:15 UTC,29.97,79.16,73.4,82.62,9.22,200.0,,,,,,1.0,,,,10.0,,KIGQ 270415Z AUTO 20008KT 10SM CLR 26/23 A2997 RMK AO2 LTG DSNT NW  T02620230,,,,,,73.4,,SSW,29.32,27.29,,Clear
KIGQ,08/27/2018 04:35 UTC,29.97,78.98,73.4,83.11,10.36,210.0,16.11,,,,,1.0,,,,10.0,,KIGQ 270435Z AUTO 21009G14KT 10SM CLR 26/23 A2997 RMK AO2  T02610230,,,,,,73.4,,SSW,29.32,27.3,,Clear
KIGQ,08/27/2018 04:55 UTC,29.96,78.44,73.4,84.59,10.36,210.0,17.27,,,,,1.0,,,,10.0,,KIGQ 270455Z AUTO 21009G15KT 10SM CLR 26/23 A2996 RMK AO2  T02580230,,,,,,73.4,,SSW,29.31,27.3,,Clear
KIGQ,08/27/2018 05:15 UTC,29.96,78.26,73.4,85.09,12.66,200.0,,,,,,1.0,,,,10.0,,KIGQ 270515Z AUTO 20011KT 10SM CLR 26/23 A2996 RMK AO2 LTG DSNT NW  T02570230,,,,,,73.4,,SSW,29.31,27.3,,Clear
KIGQ,08/27/2018 05:35 UTC,29.96,78.26,73.4,85.09,10.36,210.0,17.27,,,,,1.0,,,,10.0,,KIGQ 270535Z AUTO 21009G15KT 10SM CLR 26/23 A2996 RMK AO2 LTG DSNT  NW T02570230,,,,,,73.4,,SSW,29.31,27.3,,Clear
KIGQ,08/27/2018 05:55 UTC,29.96,78.26,73.4,85.09,9.22,200.0,,,,,,1.0,,,,10.0,,KIGQ 270555Z AUTO 20008KT 10SM CLR 26/23 A2996 RMK AO2 T02570230  10297 20256 403370211,85.46,78.08,,92.66,69.98,73.4,,SSW,29.31,27.3,,Clear
KIGQ,08/27/2018 06:15 UTC,29.95,78.26,72.86,83.57,10.36,200.0,,,,,,1.0,,,,10.0,,KIGQ 270615Z AUTO 20009KT 10SM CLR 26/23 A2995 RMK AO2  T02570227,,,,,,72.86,,SSW,29.3,27.33,,Clear
KIGQ,08/27/2018 06:35 UTC,29.95,78.26,72.5,82.56,9.22,200.0,,,,,,1.0,,,,10.0,,KIGQ 270635Z AUTO 20008KT 10SM CLR 26/23 A2995 RMK AO2 LTG DSNT N  AND NW T02570225,,,,,,72.5,,SSW,29.3,27.36,,Clear
KIGQ,08/27/2018 06:55 UTC,29.95,78.44,72.5,82.07,10.36,210.0,,,,,,1.0,,,,10.0,,KIGQ 270655Z AUTO 21009KT 10SM CLR 26/23 A2995 RMK AO2 LTG DSNT N  T02580225,,,,,,72.5,,SSW,29.3,27.36,,Clear
KIGQ,08/27/2018 07:15 UTC,29.95,78.26,72.5,82.56,11.5,200.0,,,,,,1.0,,,,10.0,,KIGQ 270715Z AUTO 20010KT 10SM CLR 26/23 A2995 RMK AO2 LTG DSNT N  T02570225,,,,,,72.5,,SSW,29.3,27.36,,Clear
KIGQ,08/27/2018 07:35 UTC,29.95,77.9,72.14,82.53,11.5,200.0,,,,,,1.0,,,,10.0,,KIGQ 270735Z AUTO 20010KT 10SM CLR 26/22 A2995 RMK AO2 LTG DSNT N  T02550223,,,,,,72.14,,SSW,29.3,27.4,,Clear
KIGQ,08/27/2018 07:55 UTC,29.95,77.9,71.96,82.03,10.36,210.0,,,,,,1.0,,,,10.0,,KIGQ 270755Z AUTO 21009KT 10SM CLR 26/22 A2995 RMK AO2 LTG DSNT NE  T02550222,,,,,,71.96,,SSW,29.3,27.41,,Clear
KIGQ,08/27/2018 08:15 UTC,29.95,77.72,71.78,82.02,11.5,210.0,,,,,,1.0,,,,10.0,,KIGQ 270815Z AUTO 21010KT 10SM CLR 25/22 A2995 RMK AO2  T02540221,,,,,,71.78,,SSW,29.3,27.43,,Clear
KIGQ,08/27/2018 08:35 UTC,29.95,77.36,71.6,82.5,9.22,210.0,,,,,,1.0,,,,10.0,,KIGQ 270835Z AUTO 21008KT 10SM CLR 25/22 A2995 RMK AO2  T02520220,,,,,,71.6,,SSW,29.3,27.45,,Clear
KIGQ,08/27/2018 08:55 UTC,29.96,76.46,71.6,84.99,9.22,210.0,,,,,,1.0,,,,7.0,,KIGQ 270855Z AUTO 21008KT 7SM CLR 25/22 A2996 RMK AO2  T02470220,,,,,,71.6,,SSW,29.31,27.47,,Clear
KIGQ,08/27/2018 09:15 UTC,29.96,76.46,71.42,84.47,9.22,210.0,16.11,,,,,1.0,,,,10.0,,KIGQ 270915Z AUTO 21008G14KT 10SM CLR 25/22 A2996 RMK AO2  T02470219,,,,,,71.42,,SSW,29.31,27.48,,Clear
KIGQ,08/27/2018 09:35 UTC,29.96,76.28,71.06,83.95,10.36,210.0,18.41,,,,,1.0,,,,10.0,,KIGQ 270935Z AUTO 21009G16KT 10SM CLR 25/22 A2996 RMK AO2  T02460217,,,,,,71.06,,SSW,29.31,27.51,,Clear
KIGQ,08/27/2018 09:55 UTC,29.96,75.56,70.7,84.94,10.36,210.0,,,,,,1.0,,,,10.0,,KIGQ 270955Z AUTO 21009KT 10SM CLR 24/22 A2996 RMK AO2  T02420215,,,,,,70.7,,SSW,29.31,27.55,,Clear
KIGQ,08/27/2018 10:15 UTC,29.95,74.84,70.34,85.94,9.22,210.0,,,,,,1.0,,,,10.0,,KIGQ 271015Z AUTO 21008KT 10SM CLR 24/21 A2995 RMK AO2  T02380213,,,,,,70.33,,SSW,29.3,27.58,,Clear
KIGQ,08/27/2018 10:35 UTC,29.96,74.48,70.34,86.98,9.22,220.0,,,,,,1.0,,,,10.0,,KIGQ 271035Z AUTO 22008KT 10SM CLR 24/21 A2996 RMK AO2  T02360213,,,,,,70.33,,SW,29.31,27.59,,Clear
KIGQ,08/27/2018 10:55 UTC,29.96,74.48,70.34,86.98,8.05,210.0,,,,,,1.0,,,,7.0,,KIGQ 271055Z AUTO 21007KT 7SM CLR 24/21 A2996 RMK AO2  T02360213,,,,,,70.33,,SSW,29.31,27.59,,Clear
KIGQ,08/27/2018 11:15 UTC,29.97,74.3,70.34,87.5,10.36,210.0,,,,,,1.0,,,,7.0,,KIGQ 271115Z AUTO 21009KT 7SM CLR 24/21 A2997 RMK AO2  T02350213,,,,,,70.33,,SSW,29.32,27.61,,Clear
KIGQ,08/27/2018 11:35 UTC,29.97,73.94,70.16,88.02,10.36,210.0,,,,,,1.0,,,,7.0,,KIGQ 271135Z AUTO 21009KT 7SM CLR 23/21 A2997 RMK AO2  T02330212,,,,,,70.15,,SSW,29.32,27.63,,Clear
KIGQ,08/27/2018 11:55 UTC,29.97,74.3,70.52,88.04,11.5,210.0,,,,,,1.0,,,,7.0,,KIGQ 271155Z AUTO 21010KT 7SM CLR 24/21 A2997 RMK AO2 T02350214  10258 20232,78.44,73.76,,,,70.51,,SSW,29.32,27.59,,Clear
KIGQ,08/27/2018 12:15 UTC,29.98,74.84,70.52,86.47,10.36,210.0,,,,,,1.0,,,,7.0,,KIGQ 271215Z AUTO 21009KT 7SM CLR 24/21 A2998 RMK AO2  T02380214,,,,,,70.52,,SSW,29.33,27.6,,Clear
KIGQ,08/27/2018 12:35 UTC,29.98,75.38,70.7,85.45,10.36,210.0,,,,,,1.0,,,,7.0,,KIGQ 271235Z AUTO 21009KT 7SM CLR 24/22 A2998 RMK AO2  T02410215,,,,,,70.7,,SSW,29.33,27.57,,Clear
KIGQ,08/27/2018 12:55 UTC,29.99,76.28,70.7,82.93,10.36,210.0,,,,,,1.0,,,,7.0,,KIGQ 271255Z AUTO 21009KT 7SM CLR 25/22 A2999 RMK AO2  T02460215,,,,,,70.7,,SSW,29.34,27.57,,Clear
KIGQ,08/27/2018 13:15 UTC,29.99,77.36,70.88,80.51,11.5,200.0,17.27,,,,,1.0,,,,7.0,,KIGQ 271315Z AUTO 20010G15KT 7SM CLR 25/22 A2999 RMK AO2  T02520216,,,,,,70.88,,SSW,29.34,27.54,,Clear
KIGQ,08/27/2018 13:35 UTC,29.99,78.8,71.06,77.26,14.97,220.0,19.57,,,,,1.0,,,,7.0,,KIGQ 271335Z AUTO 22013G17KT 7SM CLR 26/22 A2999 RMK AO2  T02600217,,,,,,71.07,,SW,29.34,27.51,,Clear
KIGQ,08/27/2018 13:55 UTC,29.99,79.7,71.6,76.4,10.36,210.0,18.41,,,,,1.0,,,,10.0,,KIGQ 271355Z AUTO 21009G16KT 10SM CLR 27/22 A2999 RMK AO2  T02650220,,,,,,71.61,,SSW,29.34,27.45,,Clear
KIGQ,08/27/2018 14:15 UTC,29.99,80.6,71.6,74.19,14.97,230.0,19.57,,,,,1.0,,,,10.0,,KIGQ 271415Z AUTO 23013G17KT 10SM CLR 27/22 A2999 RMK AO2  T02700220,,,,,,71.61,,SW,29.34,27.44,84.58,Clear
KIGQ,08/27/2018 14:35 UTC,29.98,81.5,71.6,72.05,16.11,230.0,20.71,,,,,1.0,,,,10.0,,KIGQ 271435Z AUTO 23014G18KT 10SM CLR 28/22 A2998 RMK AO2  T02750220,,,,,,71.62,,SW,29.33,27.42,85.92,Clear
KIGQ,08/27/2018 14:55 UTC,29.98,82.58,71.6,69.58,14.97,220.0,,,,,,1.0,,,,10.0,,KIGQ 271455Z AUTO 22013KT 10SM CLR 28/22 A2998 RMK AO2  T02810220,,,,,,71.63,,SW,29.33,27.4,87.45,Clear
KIGQ,08/27/2018 15:15 UTC,29.98,83.3,71.78,68.39,17.27,220.0,23.02,,,,,1.0,,,,10.0,,KIGQ 271515Z AUTO 22015G20KT 10SM CLR 29/22 A2998 RMK AO2  T02850221,,,,,,71.81,,SW,29.33,27.38,88.55,Clear
KIGQ,08/27/2018 15:35 UTC,29.98,84.56,71.78,65.68,16.11,230.0,21.85,,,,,1.0,,,,10.0,,KIGQ 271535Z AUTO 23014G19KT 10SM CLR 29/22 A2998 RMK AO2  T02920221,,,,,,71.82,,SW,29.33,27.36,90.24,Clear
KIGQ,08/27/2018 15:55 UTC,29.98,85.28,71.24,63.03,13.8,230.0,21.85,,,,,602.0,,,,10.0,,KIGQ 271555Z AUTO 23012G19KT 10SM SCT060 30/22 A2998 RMK AO2  T02960218,,,,,,71.29,,SW,29.33,27.4,90.77,Partly Cloudy
KIGQ,08/27/2018 16:15 UTC,29.97,87.08,71.6,60.25,14.97,230.0,19.57,,,,,602.0,,,,10.0,,KIGQ 271615Z AUTO 23013G17KT 10SM SCT060 31/22 A2997 RMK AO2  T03060220,,,,,,71.67,,SW,29.32,27.34,93.33,Partly Cloudy
KIGQ,08/27/2018 16:35 UTC,29.97,87.98,70.7,56.8,17.27,240.0,23.02,,,,,382.0,602.0,,,10.0,,KIGQ 271635Z AUTO 24015G20KT 10SM SCT038 SCT060 31/22 A2997 RMK AO2 T03110215,,,,,,70.78,,WSW,29.32,27.4,93.69,Partly Cloudy
KIGQ,08/27/2018 16:55 UTC,29.96,89.06,71.24,55.92,17.27,210.0,20.71,,,,,402.0,603.0,,,10.0,,KIGQ 271655Z AUTO 21015G18KT 10SM SCT040 BKN060 32/22 A2996 RMK AO2 T03170218,,,6000.0,,,71.33,,SSW,29.31,27.33,95.48,Mostly Cloudy
KIGQ,08/27/2018 17:15 UTC,29.96,90.32,70.88,53.1,20.71,210.0,,,,,,442.0,603.0,,,10.0,,KIGQ 271715Z AUTO 21018KT 10SM SCT044 BKN060 32/22 A2996 RMK AO2  T03240216,,,6000.0,,,70.99,,SSW,29.31,27.35,96.7,Mostly Cloudy
KIGQ,08/27/2018 17:35 UTC,29.95,88.7,69.44,53.2,16.11,220.0,23.02,,603.0,,,463.0,503.0,,,10.0,,KIGQ 271735Z AUTO 22014G20KT 10SM BKN046 BKN050 BKN060 32/21 A2995 RMK AO2 T03150208,,,4600.0,,,69.54,,SW,29.3,27.47,93.55,Mostly Cloudy
KIGQ,08/27/2018 17:55 UTC,29.94,89.42,70.16,53.3,16.11,210.0,19.57,,703.0,,,483.0,603.0,,,10.0,,KIGQ 271755Z AUTO 21014G17KT 10SM BKN048 BKN060 BKN070 32/21 A2994 RMK AO2 T03190212 10324 20235,90.32,74.3,4800.0,,,70.26,,SSW,29.29,27.4,94.98,Mostly Cloudy
KIGQ,08/27/2018 18:15 UTC,29.94,91.04,70.34,50.98,17.27,210.0,24.16,,803.0,,,502.0,602.0,,,10.0,,KIGQ 271815Z AUTO 21015G21KT 10SM SCT050 SCT060 BKN080 33/21 A2994 RMK AO2 T03280213,,,8000.0,,,70.47,,SSW,29.29,27.36,97.1,Mostly Cloudy
KIGQ,08/27/2018 18:35 UTC,29.93,90.86,69.8,50.33,13.8,220.0,21.85,,,,,502.0,652.0,,,10.0,,KIGQ 271835Z AUTO 22012G19KT 10SM SCT050 SCT065 33/21 A2993 RMK AO2 T03270210,,,,,,69.92,,SW,29.28,27.4,96.41,Partly Cloudy
KIGQ,08/27/2018 18:55 UTC,29.93,90.86,70.7,51.89,12.66,200.0,25.32,,,,,503.0,653.0,,,10.0,,KIGQ 271855Z AUTO 20011G22KT 10SM BKN050 BKN065 33/22 A2993 RMK AO2 T03270215,,,5000.0,,,70.82,,SSW,29.28,27.33,97.2,Mostly Cloudy
KIGQ,08/27/2018 19:15 UTC,29.92,91.4,69.62,49.19,18.41,220.0,24.16,,,,,502.0,652.0,,,10.0,,KIGQ 271915Z AUTO 22016G21KT 10SM SCT050 SCT065 33/21 A2992 RMK AO2 T03300209,,,,,,69.75,,SW,29.27,27.4,96.91,Partly Cloudy
KIGQ,08/27/2018 19:35 UTC,29.92,91.22,70.34,50.69,19.57,210.0,,,702.0,,,502.0,602.0,,,10.0,,KIGQ 271935Z AUTO 21017KT 10SM SCT050 SCT060 SCT070 33/21 A2992 RMK AO2 T03290213,,,,,,70.47,,SSW,29.27,27.34,97.31,Partly Cloudy
KIGQ,08/27/2018 19:55 UTC,29.91,91.04,70.34,50.98,18.41,210.0,24.16,,702.0,,,502.0,602.0,,,10.0,,KIGQ 271955Z AUTO 21016G21KT 10SM SCT050 SCT060 SCT070 33/21 A2991 RMK AO2 T03280213,,,,,,70.47,,SSW,29.26,27.33,97.1,Partly Cloudy
KIGQ,08/27/2018 20:15 UTC,29.91,91.4,69.08,48.29,20.71,200.0,26.46,,,,,502.0,,,,10.0,,KIGQ 272015Z AUTO 20018G23KT 10SM SCT050 33/21 A2991 RMK AO2  T03300206,,,,,,69.22,,SSW,29.26,27.43,96.46,Partly Cloudy
KIGQ,08/27/2018 20:35 UTC,29.9,91.4,69.26,48.59,18.41,210.0,25.32,,,,,1.0,,,,10.0,,KIGQ 272035Z AUTO 21016G22KT 10SM CLR 33/21 A2990 RMK AO2  T03300207,,,,,,69.4,,SSW,29.25,27.41,96.61,Clear
KIGQ,08/27/2018 20:55 UTC,29.89,91.22,68.72,47.97,20.71,200.0,,,,,,1.0,,,,10.0,,KIGQ 272055Z AUTO 20018KT 10SM CLR 33/20 A2989 RMK AO2  T03290204,,,,,,68.86,,SSW,29.24,27.44,95.96,Clear
KIGQ,08/27/2018 21:15 UTC,29.89,91.04,68.36,47.64,18.41,210.0,27.63,,,,,1.0,,,,10.0,,KIGQ 272115Z AUTO 21016G24KT 10SM CLR 33/20 A2989 RMK AO2  T03280202,,,,,,68.49,,SSW,29.24,27.47,95.46,Clear
KIGQ,08/27/2018 21:35 UTC,29.89,90.86,68.54,48.21,18.41,200.0,28.77,,,,,1.0,,,,10.0,,KIGQ 272135Z AUTO 20016G25KT 10SM CLR 33/20 A2989 RMK AO2  T03270203,,,,,,68.67,,SSW,29.24,27.46,95.39,Clear
KIGQ,08/27/2018 21:55 UTC,29.89,89.78,69.98,52.38,18.41,190.0,26.46,,,,,1.0,,,,10.0,,KIGQ 272155Z AUTO 19016G23KT 10SM CLR 32/21 A2989 RMK AO2  T03210211,,,,,,70.09,,S,29.24,27.36,95.27,Clear
KIGQ,08/27/2018 22:15 UTC,29.88,89.6,70.52,53.65,20.71,190.0,26.46,,,,,1.0,,,,10.0,,KIGQ 272215Z AUTO 19018G23KT 10SM CLR 32/21 A2988 RMK AO2  T03200214,,,,,,70.62,,S,29.23,27.3,95.51,Clear
KIGQ,08/27/2018 22:35 UTC,29.88,88.88,70.16,54.21,17.27,190.0,23.02,,,,,1.0,,,,10.0,,KIGQ 272235Z AUTO 19015G20KT 10SM CLR 32/21 A2988 RMK AO2  T03160212,,,,,,70.25,,S,29.23,27.34,94.33,Clear
KIGQ,08/27/2018 22:55 UTC,29.87,87.8,69.98,55.74,14.97,190.0,24.16,,,,,1.0,,,,10.0,,KIGQ 272255Z AUTO 19013G21KT 10SM CLR 31/21 A2987 RMK AO2  T03100211,,,,,,70.06,,S,29.22,27.36,92.9,Clear
KIGQ,08/27/2018 23:15 UTC,29.87,87.26,69.8,56.36,19.57,190.0,26.46,,,,,1.0,,,,10.0,,KIGQ 272315Z AUTO 19017G23KT 10SM CLR 31/21 A2987 RMK AO2  T03070210,,,,,,69.88,,S,29.22,27.38,92.12,Clear
KIGQ,08/27/2018 23:35 UTC,29.86,86.54,69.8,57.66,17.27,190.0,28.77,,,,,1.0,,,,10.0,,KIGQ 272335Z AUTO 19015G25KT 10SM CLR 30/21 A2986 RMK AO2  T03030210,,,,,,69.87,,S,29.21,27.38,91.27,Clear
KIGQ,08/27/2018 23:55 UTC,29.86,85.46,70.7,61.53,14.97,190.0,21.85,,,,,1.0,,,,10.0,,KIGQ 272355Z AUTO 19013G19KT 10SM CLR 30/22 A2986 RMK AO2  T02970215 10332 20297,91.76,85.46,,,,70.75,,S,29.21,27.32,90.6,Clear
KIGQ,08/28/2018 00:15 UTC,29.86,84.56,70.16,62.17,16.11,190.0,21.85,,,,,1.0,,,,10.0,,KIGQ 280015Z AUTO 19014G19KT 10SM CLR 29/21 A2986 RMK AO2  T02920212,,,,,,70.2,,S,29.21,27.37,89.13,Clear
KIGQ,08/28/2018 00:35 UTC,29.87,83.66,69.98,63.6,13.8,190.0,21.85,,,,,1.0,,,,10.0,,KIGQ 280035Z AUTO 19012G19KT 10SM CLR 29/21 A2987 RMK AO2  T02870211,,,,,,70.02,,S,29.22,27.41,87.91,Clear
KIGQ,08/28/2018 00:55 UTC,29.87,83.12,69.98,64.72,12.66,190.0,,,,,,1.0,,,,10.0,,KIGQ 280055Z AUTO 19011KT 10SM CLR 28/21 A2987 RMK AO2 LTG DSNT NW  T02840211,,,,,,70.01,,S,29.22,27.41,87.24,Clear
KIGQ,08/28/2018 01:15 UTC,29.88,82.58,69.98,65.85,14.97,200.0,20.71,,,,,1.0,,,,10.0,,KIGQ 280115Z AUTO 20013G18KT 10SM CLR 28/21 A2988 RMK AO2  T02810211,,,,,,70.01,,SSW,29.23,27.43,86.56,Clear
KIGQ,08/28/2018 01:35 UTC,29.88,82.04,69.98,67.01,12.66,190.0,18.41,,,,,1.0,,,,10.0,,KIGQ 280135Z AUTO 19011G16KT 10SM CLR 28/21 A2988 RMK AO2  T02780211,,,,,,70.0,,S,29.23,27.44,85.87,Clear
KIGQ,08/28/2018 01:55 UTC,29.89,81.5,69.98,68.2,13.8,190.0,18.41,,,,,1.0,,,,10.0,,KIGQ 280155Z AUTO 19012G16KT 10SM CLR 28/21 A2989 RMK AO2  T02750211,,,,,,70.0,,S,29.24,27.46,85.17,Clear
KIGQ,08/28/2018 02:15 UTC,29.89,80.6,69.98,70.22,12.66,190.0,18.41,,,,,1.0,,,,10.0,,KIGQ 280215Z AUTO 19011G16KT 10SM CLR 27/21 A2989 RMK AO2  T02700211,,,,,,69.99,,S,29.24,27.47,83.97,Clear
KIGQ,08/28/2018 02:35 UTC,29.89,80.6,69.98,70.22,13.8,190.0,19.57,,,,,1.0,,,,10.0,,KIGQ 280235Z AUTO 19012G17KT 10SM CLR 27/21 A2989 RMK AO2  T02700211,,,,,,69.99,,S,29.24,27.47,83.97,Clear
KIGQ,08/28/2018 02:55 UTC,29.89,79.88,69.8,71.45,10.36,190.0,17.27,,,,,1.0,,,,10.0,,KIGQ 280255Z AUTO 19009G15KT 10SM CLR 27/21 A2989 RMK AO2  T02660210,,,,,,69.81,,S,29.24,27.49,,Clear
KIGQ,08/28/2018 03:15 UTC,29.89,79.7,69.8,71.87,14.97,200.0,19.57,,,,,1.0,,,,10.0,,KIGQ 280315Z AUTO 20013G17KT 10SM CLR 27/21 A2989 RMK AO2  T02650210,,,,,,69.81,,SSW,29.24,27.49,,Clear
KIGQ,08/28/2018 03:35 UTC,29.9,79.16,69.98,73.6,12.66,190.0,18.41,,,,,1.0,,,,10.0,,KIGQ 280335Z AUTO 19011G16KT 10SM CLR 26/21 A2990 RMK AO2  T02620211,,,,,,69.99,,S,29.25,27.5,,Clear
KIGQ,08/28/2018 03:55 UTC,29.9,78.98,69.98,74.03,12.66,190.0,21.85,,,,,1.0,,,,10.0,,KIGQ 280355Z AUTO 19011G19KT 10SM CLR 26/21 A2990 RMK AO2  T02610211,,,,,,69.98,,S,29.25,27.5,,Clear
KIGQ,08/28/2018 04:15 UTC,29.91,78.98,69.98,74.03,12.66,200.0,,,,,,1.0,,,,10.0,,KIGQ 280415Z AUTO 20011KT 10SM CLR 26/21 A2991 RMK AO2  T02610211,,,,,,69.98,,SSW,29.26,27.51,,Clear
KIGQ,08/28/2018 04:35 UTC,29.91,79.16,69.8,73.15,14.97,200.0,21.85,,,,,1.0,,,,10.0,,KIGQ 280435Z AUTO 20013G19KT 10SM CLR 26/21 A2991 RMK AO2 LTG DSNT  NW T02620210,,,,,,69.81,,SSW,29.26,27.52,,Clear
KIGQ,08/28/2018 04:55 UTC,29.92,78.8,69.8,74.02,12.66,200.0,19.57,,,,,1.0,,,,10.0,,KIGQ 280455Z AUTO 20011G17KT 10SM CLR 26/21 A2992 RMK AO2  T02600210,,,,,,69.81,,SSW,29.27,27.53,,Clear
KIGQ,08/28/2018 05:15 UTC,29.93,78.62,69.98,74.91,12.66,200.0,,,,,,1.0,,,,10.0,,KIGQ 280515Z AUTO 20011KT 10SM CLR 26/21 A2993 RMK AO2  T02590211,,,,,,69.98,,SSW,29.28,27.53,,Clear
KIGQ,08/28/2018 05:35 UTC,29.93,77.9,69.98,76.71,11.5,200.0,17.27,,,,,1.0,,,,10.0,,KIGQ 280535Z AUTO 20010G15KT 10SM CLR 26/21 A2993 RMK AO2  T02550211,,,,,,69.98,,SSW,29.28,27.54,,Clear
KIGQ,08/28/2018 05:55 UTC,29.92,77.54,69.98,77.62,11.5,200.0,16.11,,,,,1.0,,,,10.0,,KIGQ 280555Z AUTO 20010G14KT 10SM CLR 25/21 A2992 RMK AO2  T02530211 10296 20253 403320232,85.28,77.54,,91.76,73.76,69.98,,SSW,29.27,27.54,,Clear
KIGQ,08/28/2018 06:15 UTC,29.92,77.36,69.98,78.09,13.8,200.0,,,,,,1.0,,,,10.0,,KIGQ 280615Z AUTO 20012KT 10SM CLR 25/21 A2992 RMK AO2  T02520211,,,,,,69.98,,SSW,29.27,27.54,,Clear
KIGQ,08/28/2018 06:35 UTC,29.92,77.18,69.98,78.55,13.8,200.0,18.41,,,,,1.0,,,,10.0,,KIGQ 280635Z AUTO 20012G16KT 10SM CLR 25/21 A2992 RMK AO2  T02510211,,,,,,69.98,,SSW,29.27,27.54,,Clear
KIGQ,08/28/2018 06:55 UTC,29.92,77.18,69.98,78.55,14.97,200.0,21.85,,,,,1.0,,,,10.0,,KIGQ 280655Z AUTO 20013G19KT 10SM CLR 25/21 A2992 RMK AO2  T02510211,,,,,,69.98,,SSW,29.27,27.54,,Clear
KIGQ,08/28/2018 07:15 UTC,29.92,77.18,69.98,78.55,16.11,200.0,23.02,,,,,1.0,,,,10.0,,KIGQ 280715Z AUTO 20014G20KT 10SM CLR 25/21 A2992 RMK AO2  T02510211,,,,,,69.98,,SSW,29.27,27.54,,Clear
KIGQ,08/28/2018 07:35 UTC,29.91,77.0,69.98,79.02,14.97,200.0,,,,,,1.0,,,,10.0,,KIGQ 280735Z AUTO 20013KT 10SM CLR 25/21 A2991 RMK AO2  T02500211,,,,,,69.98,,SSW,29.26,27.54,,Clear
KIGQ,08/28/2018 07:55 UTC,29.92,76.46,69.98,80.44,14.97,210.0,20.71,,,,,1.0,,,,10.0,,KIGQ 280755Z AUTO 21013G18KT 10SM CLR 25/21 A2992 RMK AO2  T02470211,,,,,,69.97,,SSW,29.27,27.55,,Clear
KIGQ,08/28/2018 08:15 UTC,29.92,76.82,70.34,80.47,14.97,210.0,19.57,,,,,1.0,,,,10.0,,KIGQ 280815Z AUTO 21013G17KT 10SM CLR 25/21 A2992 RMK AO2  T02490213,,,,,,70.34,,SSW,29.27,27.52,,Clear
KIGQ,08/28/2018 08:35 UTC,29.92,76.46,70.16,80.94,10.36,210.0,,,,,,1.0,,,,10.0,,KIGQ 280835Z AUTO 21009KT 10SM CLR 25/21 A2992 RMK AO2  T02470212,,,,,,70.16,,SSW,29.27,27.54,,Clear
KIGQ,08/28/2018 08:55 UTC,29.92,76.64,70.16,80.46,12.66,210.0,18.41,,,,,1.0,,,,10.0,,KIGQ 280855Z AUTO 21011G16KT 10SM CLR 25/21 A2992 RMK AO2 LTG DSNT  NE T02480212,,,,,,70.16,,SSW,29.27,27.54,,Clear
KIGQ,08/28/2018 09:15 UTC,29.92,76.46,70.34,81.44,12.66,220.0,,,,,,1.0,,,,10.0,,KIGQ 280915Z AUTO 22011KT 10SM CLR 25/21 A2992 RMK AO2  T02470213,,,,,,70.34,,SW,29.27,27.53,,Clear
KIGQ,08/28/2018 09:35 UTC,29.93,76.28,70.34,81.92,9.22,210.0,,,,,,1.0,,,,10.0,,KIGQ 280935Z AUTO 21008KT 10SM CLR 25/21 A2993 RMK AO2 LTG DSNT N  T02460213,,,,,,70.34,,SSW,29.28,27.54,,Clear
KIGQ,08/28/2018 09:55 UTC,29.94,76.1,70.34,82.41,10.36,220.0,,,,,,1.0,,,,10.0,,KIGQ 280955Z AUTO 22009KT 10SM CLR 25/21 A2994 RMK AO2  T02450213,,,,,,70.33,,SW,29.29,27.55,,Clear
KIGQ,08/28/2018 10:15 UTC,29.94,75.92,70.34,82.91,10.36,210.0,,,,,,1.0,,,,10.0,,KIGQ 281015Z AUTO 21009KT 10SM CLR 24/21 A2994 RMK AO2 LTG DSNT N  T02440213,,,,,,70.34,,SSW,29.29,27.55,,Clear
KIGQ,08/28/2018 10:35 UTC,29.94,75.74,70.34,83.4,10.36,210.0,,,,,,1.0,,,,10.0,,KIGQ 281035Z AUTO 21009KT 10SM CLR 24/21 A2994 RMK AO2 LTG DSNT N  AND NE T02430213,,,,,,70.33,,SSW,29.29,27.56,,Clear
KIGQ,08/28/2018 10:55 UTC,29.94,75.74,70.7,84.43,11.5,210.0,,,,,,702.0,,,,10.0,,KIGQ 281055Z AUTO 21010KT 10SM SCT070 24/22 A2994 RMK AO2 LTG DSNT  N T02430215,,,,,,70.7,,SSW,29.29,27.53,,Partly Cloudy
KIGQ,08/28/2018 11:15 UTC,29.94,75.38,70.34,84.41,10.36,210.0,18.41,,,,,702.0,,,,10.0,,KIGQ 281115Z AUTO 21009G16KT 10SM SCT070 24/21 A2994 RMK AO2 LTG  DSNT N AND NE T02410213,,,,,,70.34,,SSW,29.29,27.56,,Partly Cloudy
KIGQ,08/28/2018 11:35 UTC,29.94,75.2,70.34,84.92,11.5,210.0,,,,,,702.0,,,,10.0,,KIGQ 281135Z AUTO 21010KT 10SM SCT070 24/21 A2994 RMK AO2 LTG DSNT  N AND NE T02400213,,,,,,70.34,,SSW,29.29,27.56,,Partly Cloudy
KIGQ,08/28/2018 11:55 UTC,29.94,75.38,70.7,85.45,11.5,210.0,,,,,,702.0,,,,10.0,,KIGQ 281155Z AUTO 21010KT 10SM SCT070 24/22 A2994 RMK AO2 LTG DSNT  W THRU NE T02410215 10253 20240,77.54,75.2,,,,70.7,,SSW,29.29,27.53,,Partly Cloudy
KIGQ,08/28/2018 12:15 UTC,29.94,75.92,70.7,83.93,11.5,210.0,19.57,5.0,,,,703.0,,,,10.0,,KIGQ 281215Z AUTO 21010G17KT 10SM TS BKN070 24/22 A2994 RMK AO2  LTG DSNT SW THRU NE T02440215,,,7000.0,,,70.7,,SSW,29.29,27.53,,Thunder
KIGQ,08/28/2018 12:35 UTC,29.94,76.28,71.24,84.46,11.5,220.0,,13.0,,,,704.0,,,,10.0,,KIGQ 281235Z AUTO 22010KT 10SM -RA OVC070 25/22 A2994 RMK AO2 LTG  DSNT ALQS T02460218,,,7000.0,,,71.24,,SW,29.29,27.48,,Light Rain
KIGQ,08/28/2018 12:55 UTC,29.96,77.0,71.42,82.98,13.8,220.0,21.85,2.0,,,,704.0,,,,10.0,,KIGQ 281255Z AUTO 22012G19KT 10SM DZ OVC070 25/22 A2996 RMK AO2  LTG DSNT N AND SW T02500219,,,7000.0,,,71.42,,SW,29.31,27.48,,Drizzle
KIGQ,08/28/2018 13:15 UTC,29.95,77.0,71.6,83.48,11.5,220.0,19.57,5.0,,,,702.0,903.0,,,10.0,,KIGQ 281315Z AUTO 22010G17KT 10SM VCTS SCT070 BKN090 25/22 A2995 RMK AO2 LTG DSNT SW THRU NE T02500220,,,9000.0,,,71.6,,SW,29.3,27.45,,Thunder
KIGQ,08/28/2018 13:35 UTC,29.96,77.36,71.42,82.0,11.5,230.0,,,,,,703.0,854.0,,,10.0,,KIGQ 281335Z AUTO 23010KT 10SM -VCTSRA BKN070 OVC085 25/22 A2996 RMK AO2 LTG DSNT ALQS T02520219,,,7000.0,,,71.42,,SW,29.31,27.47,,Overcast
KIGQ,08/28/2018 13:55 UTC,29.98,77.36,71.6,82.5,4.61,300.0,,77.0,754.0,,,182.0,493.0,,,10.0,,KIGQ 281355Z AUTO 30004KT 10SM -TSRA SCT018 BKN049 OVC075 25/22  A2998 RMK AO2 LTG DSNT E SW AND W T02520220,,,4900.0,,,71.6,,WNW,29.33,27.48,,Light Rain/Thunderstorm
KIGQ,08/28/2018 14:15 UTC,29.97,75.02,71.6,89.15,3.44,250.0,,,494.0,0.08,,123.0,163.0,,,2.5,,KIGQ 281415Z AUTO 25003KT 2 1/2SM /VCTSRA BKN012 BKN016 OVC049  24/22 A2997 RMK AO2 LTG DSNT NE THRU SW P0008 T02390220,,,1200.0,,,71.59,,WSW,29.32,27.5,,Overcast
KIGQ,08/28/2018 14:35 UTC,29.97,74.48,71.6,90.77,6.91,330.0,,,654.0,0.23,,153.0,483.0,,,2.0,,KIGQ 281435Z AUTO 33006KT 2SM /VCTSRA BKN015 BKN048 OVC065 24/22  A2997 RMK AO2 VIS 3/4V5 LTG DSNT E AND SW P0023 T02360220,,,1500.0,,,71.59,,NNW,29.32,27.51,,Overcast
KIGQ,08/28/2018 14:55 UTC,29.98,77.54,73.76,88.19,0.0,0.0,,,903.0,0.23,0.23,212.0,502.0,,,10.0,,KIGQ 281455Z AUTO 00000KT 10SM SCT021 SCT050 BKN090 25/23 A2998 RMK AO2 LTG DSNT E P0023 60023 T02530232,,,9000.0,,,73.76,,N,29.33,27.3,,Mostly Cloudy
KIGQ,08/28/2018 15:15 UTC,29.98,77.0,72.68,86.58,0.0,0.0,,13.0,603.0,,,192.0,503.0,,,10.0,,KIGQ 281515Z AUTO 00000KT 10SM -RA SCT019 BKN050 BKN060 25/23  A2998 RMK AO2 T02500226,,,5000.0,,,72.68,,N,29.33,27.4,,Light Rain
KIGQ,08/28/2018 15:35 UTC,29.98,78.08,73.22,85.08,0.0,0.0,,17.0,804.0,,,172.0,653.0,,,10.0,,KIGQ 281535Z AUTO 00000KT 10SM -DZ SCT017 BKN065 OVC080 26/23  A2998 RMK AO2 T02560229,,,6500.0,,,73.22,,N,29.33,27.34,,Light Drizzle
KIGQ,08/28/2018 15:55 UTC,29.98,80.96,74.3,80.29,5.75,250.0,,,1103.0,,,703.0,803.0,,,10.0,,KIGQ 281555Z AUTO 25005KT 10SM BKN070 BKN080 BKN110 27/24 A2998 RMK AO2 T02720235,,,7000.0,,,74.31,,WSW,29.33,27.2,86.4,Mostly Cloudy
KIGQ,08/28/2018 16:15 UTC,29.99,81.32,74.66,80.32,9.22,210.0,,,704.0,,,212.0,502.0,,,10.0,,KIGQ 281615Z AUTO 21008KT 10SM SCT021 SCT050 OVC070 27/24 A2999 RMK AO2 T02740237,,,7000.0,,,74.67,,SSW,29.34,27.18,87.24,Overcast
KIGQ,08/28/2018 16:35 UTC,29.99,81.14,73.4,77.45,4.61,230.0,,,604.0,,,182.0,232.0,,,10.0,,KIGQ 281635Z AUTO 23004KT 10SM SCT018 SCT023 OVC060 27/23 A2999 RMK AO2 T02730230,,,6000.0,,,73.41,,SW,29.34,27.29,86.25,Overcast
KIGQ,08/28/2018 16:55 UTC,29.98,82.4,73.58,74.81,4.61,190.0,,,,,,603.0,754.0,,,10.0,,KIGQ 281655Z AUTO 19004KT 10SM BKN060 OVC075 28/23 A2998 RMK AO2  T02800231,,,6000.0,,,73.6,,S,29.33,27.24,88.39,Overcast
KIGQ,08/28/2018 17:15 UTC,29.97,83.84,73.76,71.85,6.91,190.0,,,,,,753.0,804.0,,,10.0,,KIGQ 281715Z AUTO 19006KT 10SM BKN075 OVC080 29/23 A2997 RMK AO2  T02880232,,,7500.0,,,73.79,,S,29.32,27.2,90.72,Overcast
KIGQ,08/28/2018 17:35 UTC,29.97,85.28,74.3,69.86,9.22,200.0,,,,,,702.0,803.0,,,10.0,,KIGQ 281735Z AUTO 20008KT 10SM SCT070 BKN080 30/24 A2997 RMK AO2  T02960235,,,8000.0,,,74.34,,SSW,29.32,27.13,93.3,Mostly Cloudy
KIGQ,08/28/2018 17:55 UTC,29.96,86.36,74.12,67.1,10.36,210.0,,,,,,703.0,854.0,0.23,,10.0,,KIGQ 281755Z AUTO 21009KT 10SM BKN070 OVC085 30/23 A2996 RMK AO2  LTG DSNT W 60023 T03020234 10302 20235,86.36,74.3,7000.0,,,74.17,,SSW,29.31,27.12,94.66,Overcast
KIGQ,08/28/2018 18:15 UTC,29.96,87.98,73.58,62.6,10.36,210.0,,,803.0,,,342.0,702.0,,,10.0,,KIGQ 281815Z AUTO 21009KT 10SM SCT034 SCT070 BKN080 31/23 A2996 RMK AO2 T03110231,,,8000.0,,,73.65,,SSW,29.31,27.15,96.33,Mostly Cloudy
KIGQ,08/28/2018 18:35 UTC,29.95,89.24,74.3,61.63,14.97,230.0,,,802.0,,,362.0,702.0,,,10.0,,KIGQ 281835Z AUTO 23013KT 10SM SCT036 SCT070 SCT080 32/24 A2995 RMK AO2 T03180235,,,,,,74.38,,SW,29.3,27.06,98.77,Partly Cloudy
KIGQ,08/28/2018 18:55 UTC,29.94,89.24,72.68,58.37,14.97,220.0,23.02,,,,,402.0,702.0,,,10.0,,KIGQ 281855Z AUTO 22013G20KT 10SM SCT040 SCT070 32/23 A2994 RMK AO2 T03180226,,,,,,72.77,,SW,29.29,27.19,97.06,Partly Cloudy
KIGQ,08/28/2018 19:15 UTC,29.92,89.6,73.04,58.42,13.8,230.0,21.85,,,,,1.0,,,,10.0,,KIGQ 281915Z AUTO 23012G19KT 10SM CLR 32/23 A2992 RMK AO2 LTG DSNT  W T03200228,,,,,,73.13,,SW,29.27,27.13,97.89,Clear
KIGQ,08/28/2018 19:35 UTC,29.91,88.88,73.04,59.75,12.66,210.0,18.41,,,,,1.0,,,,10.0,,KIGQ 281935Z AUTO 21011G16KT 10SM CLR 32/23 A2991 RMK AO2 LTG DSNT  SW T03160228,,,,,,73.12,,SSW,29.26,27.13,96.96,Clear
KIGQ,08/28/2018 19:55 UTC,29.9,87.08,74.12,65.58,9.22,220.0,,,802.0,,,452.0,752.0,,,10.0,,KIGQ 281955Z AUTO 22008KT 10SM SCT045 SCT075 SCT080 31/23 A2990 RMK AO2 T03060234,,,,,,74.18,,SW,29.25,27.05,95.66,Partly Cloudy
KIGQ,08/28/2018 20:15 UTC,29.89,86.18,71.78,62.38,12.66,220.0,,,702.0,,,432.0,502.0,,,10.0,,KIGQ 282015Z AUTO 22011KT 10SM SCT043 SCT050 SCT070 30/22 A2989 RMK AO2 LTG DSNT W T03010221,,,,,,71.84,,SW,29.24,27.25,92.34,Partly Cloudy
KIGQ,08/28/2018 20:35 UTC,29.88,89.06,73.22,59.78,11.5,220.0,16.11,,,,,1.0,,,,10.0,,KIGQ 282035Z AUTO 22010G14KT 10SM CLR 32/23 A2988 RMK AO2 LTG DSNT  W T03170229,,,,,,73.3,,SW,29.23,27.08,97.38,Clear
KIGQ,08/28/2018 20:55 UTC,29.87,88.16,73.58,62.24,12.66,200.0,,,,,,502.0,,,,10.0,,KIGQ 282055Z AUTO 20011KT 10SM SCT050 31/23 A2987 RMK AO2 LTG DSNT  W AND NW T03120231,,,,,,73.65,,SSW,29.22,27.05,96.56,Partly Cloudy
KIGQ,08/28/2018 21:15 UTC,29.89,89.78,73.4,58.8,14.97,230.0,19.57,,,,,1.0,,,,10.0,,KIGQ 282115Z AUTO 23013G17KT 10SM CLR 32/23 A2989 RMK AO2  T03210230,,,,,,73.49,,SW,29.24,27.07,98.5,Clear
KIGQ,08/28/2018 21:35 UTC,29.9,88.7,71.06,56.21,16.11,220.0,20.71,,,,,652.0,802.0,,,10.0,,KIGQ 282135Z AUTO 22014G18KT 10SM SCT065 SCT080 32/22 A2990 RMK AO2 LTG DSNT W T03150217,,,,,,71.15,,SW,29.25,27.29,94.88,Partly Cloudy
KIGQ,08/28/2018 21:55 UTC,29.91,87.8,71.6,58.89,12.66,220.0,,,,,,602.0,802.0,,,10.0,,KIGQ 282155Z AUTO 22011KT 10SM SCT060 SCT080 31/22 A2991 RMK AO2  LTG DSNT W T03100220,,,,,,71.67,,SW,29.26,27.27,94.23,Partly Cloudy
KIGQ,08/28/2018 22:15 UTC,29.91,87.08,70.88,58.8,10.36,220.0,17.27,,,,,1.0,,,,10.0,,KIGQ 282215Z AUTO 22009G15KT 10SM CLR 31/22 A2991 RMK AO2 LTG DSNT  W T03060216,,,,,,70.95,,SW,29.26,27.34,92.74,Clear
KIGQ,08/28/2018 22:35 UTC,29.91,86.9,70.7,58.78,11.5,220.0,,,,,,1.0,,,,10.0,,KIGQ 282235Z AUTO 22010KT 10SM CLR 31/22 A2991 RMK AO2 LTG DSNT NW  T03050215,,,,,,70.77,,SW,29.26,27.35,92.38,Clear
KIGQ,08/28/2018 22:55 UTC,29.91,86.72,71.06,59.84,9.22,230.0,,,,,,1.0,,,,10.0,,KIGQ 282255Z AUTO 23008KT 10SM CLR 30/22 A2991 RMK AO2 LTG DSNT N  AND NW T03040217,,,,,,71.12,,SW,29.26,27.32,92.44,Clear
KIGQ,08/28/2018 23:15 UTC,29.9,86.36,71.24,60.9,8.05,230.0,,,,,,602.0,702.0,,,10.0,,KIGQ 282315Z AUTO 23007KT 10SM SCT060 SCT070 30/22 A2990 RMK AO2  T03020218,,,,,,71.3,,SW,29.25,27.3,92.13,Partly Cloudy
KIGQ,08/28/2018 23:35 UTC,29.89,85.64,70.7,61.18,8.05,260.0,,,,,,602.0,702.0,,,10.0,,KIGQ 282335Z AUTO 26007KT 10SM SCT060 SCT070 30/22 A2989 RMK AO2  LTG DSNT NE T02980215,,,,,,70.75,,W,29.24,27.35,90.83,Partly Cloudy
KIGQ,08/28/2018 23:55 UTC,29.88,84.38,70.34,62.92,5.75,220.0,,,,,,1.0,,,,10.0,,KIGQ 282355Z AUTO 22005KT 10SM CLR 29/21 A2988 RMK AO2 LTG DSNT W  T02910213 10324 20291,90.32,84.38,,,,70.38,,SW,29.23,27.38,89.02,Clear
KIGQ,08/29/2018 00:15 UTC,29.88,81.68,71.24,70.76,3.44,240.0,,,,,,1.0,,,,10.0,,KIGQ 290015Z AUTO 24003KT 10SM CLR 28/22 A2988 RMK AO2  T02760218,,,,,,71.26,,WSW,29.23,27.34,86.0,Clear
KIGQ,08/29/2018 00:35 UTC,29.89,81.68,71.06,70.33,4.61,250.0,,,,,,492.0,552.0,,,10.0,,KIGQ 290035Z AUTO 25004KT 10SM SCT049 SCT055 28/22 A2989 RMK AO2  T02760217,,,,,,71.08,,WSW,29.24,27.37,85.91,Partly Cloudy
KIGQ,08/29/2018 00:55 UTC,29.9,79.7,71.06,75.01,5.75,220.0,,,,,,473.0,553.0,,,10.0,,KIGQ 290055Z AUTO 22005KT 10SM BKN047 BKN055 27/22 A2990 RMK AO2  T02650217,,,4700.0,,,71.07,,SW,29.25,27.41,,Mostly Cloudy
KIGQ,08/29/2018 01:15 UTC,29.92,78.62,70.7,76.77,4.61,200.0,,,,,,472.0,,,,10.0,,KIGQ 290115Z AUTO 20004KT 10SM SCT047 26/22 A2992 RMK AO2  T02590215,,,,,,70.7,,SSW,29.27,27.47,,Partly Cloudy
KIGQ,08/29/2018 01:35 UTC,29.92,77.0,69.98,79.02,6.91,180.0,,,,,,1.0,,,,10.0,,KIGQ 290135Z AUTO 18006KT 10SM CLR 25/21 A2992 RMK AO2  T02500211,,,,,,69.98,,S,29.27,27.55,,Clear
KIGQ,08/29/2018 01:55 UTC,29.92,76.64,69.8,79.48,6.91,180.0,,,,,,1.0,,,,10.0,,KIGQ 290155Z AUTO 18006KT 10SM CLR 25/21 A2992 RMK AO2  T02480210,,,,,,69.8,,S,29.27,27.56,,Clear
KIGQ,08/29/2018 02:15 UTC,29.91,76.46,69.8,79.95,5.75,180.0,,,,,,1.0,,,,10.0,,KIGQ 290215Z AUTO 18005KT 10SM CLR 25/21 A2991 RMK AO2 LTG DSNT NW  THRU NE T02470210,,,,,,69.8,,S,29.26,27.56,,Clear
KIGQ,08/29/2018 02:35 UTC,29.93,77.9,70.34,77.65,6.91,200.0,,,,,,1.0,,,,10.0,,KIGQ 290235Z AUTO 20006KT 10SM CLR 26/21 A2993 RMK AO2 LTG DSNT NW  T02550213,,,,,,70.34,,SSW,29.28,27.52,,Clear
KIGQ,08/29/2018 02:55 UTC,29.94,78.8,71.06,77.26,6.91,220.0,,,,,,1.0,,,,10.0,,KIGQ 290255Z AUTO 22006KT 10SM CLR 26/22 A2994 RMK AO2 LTG DSNT W  THRU N T02600217,,,,,,71.07,,SW,29.29,27.46,,Clear
KIGQ,08/29/2018 03:15 UTC,29.94,78.8,71.06,77.26,5.75,210.0,,,,,,1002.0,,,,10.0,,KIGQ 290315Z AUTO 21005KT 10SM SCT100 26/22 A2994 RMK AO2 LTG DSNT  W THRU N T02600217,,,,,,71.07,,SSW,29.29,27.46,,Partly Cloudy
KIGQ,08/29/2018 03:35 UTC,30.01,75.74,68.72,78.92,20.71,300.0,32.21,,954.0,0.02,,252.0,603.0,,,7.0,,KIGQ 290335Z AUTO 30018G28KT 7SM /VCTSRA SCT025 BKN060 OVC095  24/20 A3001 RMK AO2 LTG DSNT NW THRU NE P0002 T02430204,,,6000.0,,,68.71,,WNW,29.36,27.75,,Overcast
KIGQ,08/29/2018 03:55 UTC,30.01,70.7,68.0,91.19,11.5,340.0,21.85,13.0,554.0,0.08,,103.0,263.0,,,7.0,,KIGQ 290355Z AUTO 34010G19KT 310V010 7SM -RA BKN010 BKN026 OVC055  22/20 A3001 RMK AO2 LTG DSNT W THRU NE P0008 T02150200,,,1000.0,,,67.99,,NNW,29.36,27.87,,Light Rain
KIGQ,08/29/2018 04:15 UTC,30.0,69.98,67.1,90.6,9.22,40.0,19.57,,,,,,,,,,,KIGQ 290415Z AUTO 04008G17KT 21/20 A3000 RMK AO2 LTG DSNT N  T02110195 PWINO,,,,,,67.09,,NE,29.35,27.93,,
KIGQ,08/29/2018 04:35 UTC,29.99,69.62,66.74,90.59,5.75,40.0,,,,,,753.0,1103.0,,,10.0,,KIGQ 290435Z AUTO 04005KT 10SM BKN075 BKN110 21/19 A2999 RMK AO2  LTG DSNT W THRU NE T02090193,,,7500.0,,,66.73,,NE,29.34,27.95,,Mostly Cloudy
KIGQ,08/29/2018 04:55 UTC,30.0,68.9,66.38,91.7,0.0,0.0,,,,,,753.0,,,,10.0,,KIGQ 290455Z AUTO 00000KT 10SM BKN075 21/19 A3000 RMK AO2 LTG DSNT  NE AND W T02050191,,,7500.0,,,66.37,,N,29.35,27.99,,Mostly Cloudy
KIGQ,08/29/2018 05:15 UTC,30.05,68.72,66.2,91.69,4.61,290.0,,5.0,854.0,,,62.0,653.0,,,10.0,,KIGQ 290515Z AUTO 29004KT 10SM VCTS SCT006 BKN065 OVC085 20/19  A3005 RMK AO2 LTG DSNT NW T02040190,,,6500.0,,,66.19,,WNW,29.4,28.06,,Thunder
KIGQ,08/29/2018 05:35 UTC,30.01,68.9,67.1,94.01,0.0,0.0,,1.0,804.0,0.01,,62.0,603.0,,,5.0,,KIGQ 290535Z AUTO 00000KT 5SM RA SCT006 BKN060 OVC080 21/20 A3001 RMK AO2 LTG DSNT N AND SW P0001 T02050195,,,6000.0,,,67.09,,N,29.36,27.95,,Rain
KIGQ,08/29/2018 05:55 UTC,30.0,68.9,67.1,94.01,0.0,0.0,,1.0,904.0,0.08,,372.0,553.0,0.16,,7.0,,KIGQ 290555Z AUTO 00000KT 7SM RA SCT037 BKN055 OVC090 21/20 A3000 RMK AO2 P0008 60016 T02050195 10289 20203 403240203,84.02,68.54,5500.0,90.32,68.54,67.09,,N,29.35,27.94,,Rain
KIGQ,08/29/2018 06:15 UTC,29.97,68.72,67.28,95.18,8.05,100.0,,13.0,1104.0,,,492.0,652.0,,,10.0,,KIGQ 290615Z AUTO 10007KT 10SM -RA SCT049 SCT065 OVC110 20/20  A2997 RMK AO2 LTG DSNT SW T02040196,,,11000.0,,,67.28,,E,29.32,27.9,,Light Rain
KIGQ,08/29/2018 06:35 UTC,29.96,68.54,67.46,96.36,6.91,130.0,,,,,,1104.0,,,,10.0,,KIGQ 290635Z AUTO 13006KT 10SM OVC110 20/20 A2996 RMK AO2 LTG DSNT  SW AND W T02030197,,,11000.0,,,67.46,,SE,29.31,27.88,,Overcast
KIGQ,08/29/2018 06:55 UTC,29.96,68.36,67.46,96.96,4.61,170.0,,,,,,1103.0,,,,10.0,,KIGQ 290655Z AUTO 17004KT 10SM BKN110 20/20 A2996 RMK AO2 LTG DSNT  SW AND W T02020197,,,11000.0,,,67.46,,S,29.31,27.89,,Mostly Cloudy
KIGQ,08/29/2018 07:15 UTC,29.93,68.36,67.46,96.96,9.22,150.0,,,,,,1103.0,,,,10.0,,KIGQ 290715Z AUTO 15008KT 10SM BKN110 20/20 A2993 RMK AO2 LTG DSNT  SW AND W T02020197,,,11000.0,,,67.46,,SSE,29.28,27.86,,Mostly Cloudy
KIGQ,08/29/2018 07:35 UTC,29.93,68.54,67.46,96.36,6.91,160.0,,1.0,,,,1104.0,,,,10.0,,KIGQ 290735Z AUTO 16006KT 10SM RA OVC110 20/20 A2993 RMK AO2 LTG  DSNT W T02030197,,,11000.0,,,67.46,,SSE,29.28,27.85,,Rain
KIGQ,08/29/2018 07:55 UTC,29.94,68.54,67.28,95.76,8.05,190.0,,13.0,,,,1104.0,,,,10.0,,KIGQ 290755Z AUTO 19007KT 10SM -RA OVC110 20/20 A2994 RMK AO2 LTG  DSNT W T02030196,,,11000.0,,,67.27,,S,29.29,27.88,,Light Rain
KIGQ,08/29/2018 08:15 UTC,29.96,68.54,67.46,96.36,6.91,230.0,,13.0,,0.01,,1104.0,,,,10.0,,KIGQ 290815Z AUTO 23006KT 10SM -RA OVC110 20/20 A2996 RMK AO2 LTG  DSNT W P0001 T02030197,,,11000.0,,,67.46,,SW,29.31,27.88,,Light Rain
KIGQ,08/29/2018 08:35 UTC,29.98,68.54,67.46,96.36,6.91,220.0,,1.0,,0.04,,1203.0,,,,7.0,,KIGQ 290835Z AUTO 22006KT 7SM RA BKN120 20/20 A2998 RMK AO2 P0004  T02030197,,,12000.0,,,67.46,,SW,29.33,27.9,,Rain
KIGQ,08/29/2018 08:55 UTC,29.97,68.54,67.46,96.36,4.61,190.0,,14.0,,0.09,0.09,902.0,1103.0,,,7.0,,KIGQ 290855Z AUTO 19004KT 7SM +RA SCT090 BKN110 20/20 A2997 RMK AO2 P0009 60009 T02030197,,,11000.0,,,67.46,,S,29.32,27.89,,Heavy Rain
KIGQ,08/29/2018 09:15 UTC,29.98,68.54,67.64,96.96,4.61,230.0,,13.0,,0.01,,1102.0,,,,10.0,,KIGQ 290915Z AUTO 23004KT 10SM -RA SCT110 20/20 A2998 RMK AO2  P0001 T02030198,,,,,,67.64,,SW,29.33,27.89,,Light Rain
KIGQ,08/29/2018 09:35 UTC,29.99,68.36,67.46,96.96,5.75,210.0,,13.0,,0.01,,1102.0,,,,10.0,,KIGQ 290935Z AUTO 21005KT 10SM -RA SCT110 20/20 A2999 RMK AO2  P0001 T02020197,,,,,,67.46,,SSW,29.34,27.92,,Light Rain
KIGQ,08/29/2018 09:55 UTC,29.98,68.36,67.82,98.16,4.61,190.0,,1.0,,0.01,,1103.0,,,,10.0,,KIGQ 290955Z AUTO 19004KT 10SM RA BKN110 20/20 A2998 RMK AO2 P0001  T02020199,,,11000.0,,,67.82,,S,29.33,27.88,,Rain
KIGQ,08/29/2018 10:15 UTC,30.0,68.9,68.36,98.17,9.22,230.0,,1.0,1103.0,0.01,,102.0,332.0,,,10.0,,KIGQ 291015Z AUTO 23008KT 10SM RA SCT010 SCT033 BKN110 21/20 A3000 RMK AO2 P0001 T02050202,,,11000.0,,,68.36,,SW,29.35,27.86,,Rain
KIGQ,08/29/2018 10:35 UTC,29.95,68.9,68.36,98.17,16.11,170.0,,1.0,1104.0,0.04,,82.0,312.0,,,10.0,,KIGQ 291035Z AUTO 17014KT 10SM RA SCT008 SCT031 OVC110 21/20 A2995 RMK AO2 P0004 T02050202,,,11000.0,,,68.36,,S,29.3,27.81,,Rain
KIGQ,08/29/2018 10:55 UTC,29.88,68.54,68.0,98.16,19.57,160.0,27.63,13.0,,0.05,,1102.0,,,,10.0,,KIGQ 291055Z AUTO 16017G24KT 10SM -RA SCT110 20/20 A2988 RMK AO2  P0005 T02030200,,,,,,68.0,,SSE,29.23,27.77,,Light Rain
KIGQ,08/29/2018 11:15 UTC,29.92,68.36,66.74,94.58,17.27,200.0,25.32,13.0,,,,1202.0,,,,10.0,,KIGQ 291115Z AUTO 20015G22KT 10SM -RA SCT120 20/19 A2992 RMK AO2  T02020193,,,,,,66.73,,SSW,29.27,27.89,,Light Rain
KIGQ,08/29/2018 11:35 UTC,29.95,68.36,66.02,92.25,10.36,230.0,18.41,13.0,,,,1202.0,,,,10.0,,KIGQ 291135Z AUTO 23009G16KT 10SM -RA SCT120 20/19 A2995 RMK AO2  T02020189,,,,,,66.01,,SW,29.3,27.97,,Light Rain
KIGQ,08/29/2018 11:55 UTC,29.93,68.0,65.12,90.53,10.36,190.0,,13.0,,,,1.0,,0.15,0.55,10.0,,KIGQ 291155Z AUTO 19009KT 10SM -RA CLR 20/18 A2993 RMK AO2 60015  70055 T02000184 10205 20200,68.9,68.0,,,,65.11,,S,29.28,28.01,,Light Rain
KIGQ,08/29/2018 12:15 UTC,29.9,67.64,65.12,91.65,13.8,160.0,19.57,13.0,,,,1.0,,,,10.0,,KIGQ 291215Z AUTO 16012G17KT 10SM -RA CLR 20/18 A2990 RMK AO2  T01980184,,,,,,65.11,,SSE,29.25,27.99,,Light Rain
KIGQ,08/29/2018 12:35 UTC,29.96,68.0,64.76,89.4,13.8,310.0,19.57,13.0,,,,1202.0,,,,10.0,,KIGQ 291235Z AUTO 31012G17KT 10SM -RA SCT120 20/18 A2996 RMK AO2  T02000182,,,,,,64.75,,NW,29.31,28.06,,Light Rain
KIGQ,08/29/2018 12:55 UTC,29.97,68.0,65.66,92.24,6.91,310.0,11.5,13.0,463.0,,,132.0,253.0,,,10.0,,KIGQ 291255Z AUTO 31006G10KT 10SM -RA SCT013 BKN025 BKN046 20/19  A2997 RMK AO2 T02000187,,,2500.0,,,65.65,,NW,29.32,28.02,,Light Rain
KIGQ,08/29/2018 13:15 UTC,29.96,68.36,65.84,91.68,5.75,270.0,,,302.0,,,192.0,242.0,,,10.0,,KIGQ 291315Z AUTO 27005KT 10SM SCT019 SCT024 SCT030 20/19 A2996 RMK AO2 T02020188,,,,,,65.83,,W,29.31,27.99,,Partly Cloudy
KIGQ,08/29/2018 13:35 UTC,29.96,68.54,66.38,92.83,5.75,260.0,,,,,,1.0,,,,10.0,,KIGQ 291335Z AUTO 26005KT 10SM CLR 20/19 A2996 RMK AO2  T02030191,,,,,,66.37,,W,29.31,27.95,,Clear
KIGQ,08/29/2018 13:55 UTC,29.98,69.26,66.92,92.28,3.44,270.0,,,,,,1.0,,,,10.0,,KIGQ 291355Z AUTO 27003KT 10SM CLR 21/19 A2998 RMK AO2  T02070194,,,,,,66.91,,W,29.33,27.93,,Clear
KIGQ,08/29/2018 14:15 UTC,29.99,69.8,66.38,88.92,4.61,280.0,,,,,,1.0,,,,10.0,,KIGQ 291415Z AUTO 28004KT 10SM CLR 21/19 A2999 RMK AO2  T02100191,,,,,,66.37,,W,29.34,27.97,,Clear
KIGQ,08/29/2018 14:35 UTC,29.99,70.88,66.56,86.25,5.75,270.0,,,,,,1.0,,,,10.0,,KIGQ 291435Z AUTO 27005KT 10SM CLR 22/19 A2999 RMK AO2  T02160192,,,,,,66.55,,W,29.34,27.94,,Clear
KIGQ,08/29/2018 14:55 UTC,29.99,72.5,67.46,84.23,8.05,280.0,,,,,,1.0,,,,10.0,,KIGQ 291455Z AUTO 28007KT 10SM CLR 23/20 A2999 RMK AO2  T02250197,,,,,,67.45,,W,29.34,27.86,,Clear
KIGQ,08/29/2018 15:15 UTC,30.0,73.76,67.1,79.74,9.22,270.0,,,,,,162.0,,,,10.0,,KIGQ 291515Z AUTO 27008KT 10SM SCT016 23/20 A3000 RMK AO2  T02320195,,,,,,67.09,,W,29.35,27.88,,Partly Cloudy
KIGQ,08/29/2018 15:35 UTC,30.01,73.76,66.38,77.79,9.22,270.0,,,553.0,,,163.0,233.0,,,10.0,,KIGQ 291535Z AUTO 27008KT 10SM BKN016 BKN023 BKN055 23/19 A3001 RMK AO2 T02320191,,,1600.0,,,66.37,,W,29.36,27.94,,Mostly Cloudy
KIGQ,08/29/2018 15:55 UTC,30.02,74.84,66.92,76.44,12.66,270.0,,,,,,194.0,,,,10.0,,KIGQ 291555Z AUTO 27011KT 10SM OVC019 24/19 A3002 RMK AO2  T02380194,,,1900.0,,,66.91,,W,29.37,27.9,,Overcast
KIGQ,08/29/2018 16:15 UTC,30.02,75.38,66.74,74.61,10.36,260.0,,,654.0,,,213.0,603.0,,,10.0,,KIGQ 291615Z AUTO 26009KT 10SM BKN021 BKN060 OVC065 24/19 A3002 RMK AO2 T02410193,,,2100.0,,,66.73,,W,29.37,27.9,,Overcast
KIGQ,08/29/2018 16:35 UTC,30.03,74.66,66.38,75.48,11.5,260.0,,,,,,232.0,504.0,,,10.0,,KIGQ 291635Z AUTO 26010KT 10SM SCT023 OVC050 24/19 A3003 RMK AO2  T02370191,,,5000.0,,,66.37,,W,29.38,27.94,,Overcast
KIGQ,08/29/2018 16:55 UTC,30.03,74.84,66.2,74.56,12.66,240.0,,,504.0,,,232.0,273.0,,,10.0,,KIGQ 291655Z AUTO 24011KT 10SM SCT023 BKN027 OVC050 24/19 A3003 RMK AO2 T02380190,,,2700.0,,,66.19,,WSW,29.38,27.95,,Overcast
KIGQ,08/29/2018 17:15 UTC,30.04,74.3,66.2,75.92,11.5,240.0,,,484.0,,,212.0,263.0,,,10.0,,KIGQ 291715Z AUTO 24010KT 10SM SCT021 BKN026 OVC048 24/19 A3004 RMK AO2 T02350190,,,2600.0,,,66.19,,WSW,29.39,27.97,,Overcast
KIGQ,08/29/2018 17:35 UTC,30.04,74.12,66.02,75.9,11.5,240.0,,,,,,213.0,434.0,,,10.0,,KIGQ 291735Z AUTO 24010KT 10SM BKN021 OVC043 23/19 A3004 RMK AO2  T02340189,,,2100.0,,,66.01,,WSW,29.39,27.99,,Overcast
KIGQ,08/29/2018 17:55 UTC,30.04,72.5,67.1,83.19,6.91,270.0,,1.0,434.0,,,213.0,353.0,,,7.0,,KIGQ 291755Z AUTO 27006KT 7SM RA BKN021 BKN035 OVC043 23/20 A3004 RMK AO2 T02250195 10243 20198,75.74,67.64,2100.0,,,67.09,,W,29.39,27.93,,Rain
KIGQ,08/29/2018 18:15 UTC,30.04,71.96,67.46,85.78,10.36,270.0,,,,,,173.0,224.0,,,10.0,,KIGQ 291815Z AUTO 27009KT 10SM BKN017 OVC022 22/20 A3004 RMK AO2  T02220197,,,1700.0,,,67.45,,W,29.39,27.92,,Overcast
KIGQ,08/29/2018 18:35 UTC,30.04,70.88,68.54,92.33,5.75,270.0,,2.0,,,,83.0,144.0,,,2.0,,KIGQ 291835Z AUTO 27005KT 2SM DZ BKN008 OVC014 22/20 A3004 RMK AO2  T02160203,,,800.0,,,68.53,,W,29.39,27.86,,Drizzle
KIGQ,08/29/2018 18:55 UTC,30.05,70.7,68.9,94.05,4.61,310.0,,1.0,,,,64.0,,,,2.0,,KIGQ 291855Z AUTO 31004KT 2SM RA OVC006 22/21 A3005 RMK AO2  T02150205,,,600.0,,,68.89,,NW,29.4,27.85,,Rain
KIGQ,08/29/2018 19:15 UTC,30.06,66.2,64.58,94.53,9.22,10.0,,1.0,224.0,0.04,,63.0,113.0,,,5.0,,KIGQ 291915Z AUTO 01008KT 5SM RA BKN006 BKN011 OVC022 19/18 A3006 RMK AO2 P0004 T01900181,,,600.0,,,64.57,,N,29.41,28.2,,Rain
KIGQ,08/29/2018 19:35 UTC,30.06,66.56,65.3,95.73,5.75,10.0,,17.0,,0.04,,63.0,134.0,,,5.0,,KIGQ 291935Z AUTO 01005KT 5SM -DZ BKN006 OVC013 19/19 A3006 RMK AO2 P0004 T01920185,,,600.0,,,65.29,,N,29.41,28.15,,Light Drizzle
KIGQ,08/29/2018 19:55 UTC,30.06,67.28,65.48,93.97,5.75,20.0,,,194.0,0.04,,63.0,143.0,,,10.0,,KIGQ 291955Z AUTO 02005KT 10SM BKN006 BKN014 OVC019 20/19 A3006 RMK AO2 P0004 T01960186,,,600.0,,,65.47,,NNE,29.41,28.13,,Overcast
KIGQ,08/29/2018 20:15 UTC,30.08,67.64,65.3,92.23,3.44,360.0,,,244.0,,,63.0,123.0,,,10.0,,KIGQ 292015Z AUTO 36003KT 10SM BKN006 BKN012 OVC024 20/19 A3008 RMK AO2 T01980185,,,600.0,,,65.29,,N,29.43,28.16,,Overcast
KIGQ,08/29/2018 20:35 UTC,30.08,68.36,65.3,89.98,3.44,20.0,,,,,,104.0,,,,10.0,,KIGQ 292035Z AUTO 02003KT 10SM OVC010 20/19 A3008 RMK AO2  T02020185,,,1000.0,,,65.29,,NNE,29.43,28.15,,Overcast
KIGQ,08/29/2018 20:55 UTC,30.08,68.9,64.04,84.53,3.44,10.0,,,,,0.04,104.0,,,,10.0,,KIGQ 292055Z AUTO 01003KT 10SM OVC010 21/18 A3008 RMK AO2 60004  T02050178,,,1000.0,,,64.02,,N,29.43,28.22,,Overcast
KIGQ,08/29/2018 21:15 UTC,30.08,68.9,63.68,83.48,4.61,10.0,,,,,,123.0,214.0,,,10.0,,KIGQ 292115Z AUTO 01004KT 10SM BKN012 OVC021 21/18 A3008 RMK AO2  T02050176,,,1200.0,,,63.66,,N,29.43,28.24,,Overcast
KIGQ,08/29/2018 21:35 UTC,30.08,68.9,63.86,84.0,0.0,0.0,,,,,,142.0,214.0,,,10.0,,KIGQ 292135Z AUTO 00000KT 10SM SCT014 OVC021 21/18 A3008 RMK AO2  T02050177,,,2100.0,,,63.84,,N,29.43,28.23,,Overcast
KIGQ,08/29/2018 21:55 UTC,30.08,69.08,63.68,82.97,5.75,20.0,,,,,,142.0,214.0,,,10.0,,KIGQ 292155Z AUTO 02005KT 10SM SCT014 OVC021 21/18 A3008 RMK AO2  T02060176,,,2100.0,,,63.66,,NNE,29.43,28.24,,Overcast
KIGQ,08/29/2018 22:15 UTC,30.08,69.8,64.04,81.98,0.0,0.0,,,334.0,,,193.0,243.0,,,10.0,,KIGQ 292215Z AUTO 00000KT 10SM BKN019 BKN024 OVC033 21/18 A3008 RMK AO2 T02100178,,,1900.0,,,64.02,,N,29.43,28.21,,Overcast
KIGQ,08/29/2018 22:35 UTC,30.08,69.8,63.14,79.43,6.91,70.0,,,334.0,,,153.0,203.0,,,10.0,,KIGQ 292235Z AUTO 07006KT 10SM BKN015 BKN020 OVC033 21/17 A3008 RMK AO2 T02100173,,,1500.0,,,63.11,,ENE,29.43,28.26,,Overcast
KIGQ,08/29/2018 22:55 UTC,30.08,69.8,63.14,79.43,5.75,70.0,,,,,,174.0,,,,10.0,,KIGQ 292255Z AUTO 07005KT 10SM OVC017 21/17 A3008 RMK AO2  T02100173,,,1700.0,,,63.11,,ENE,29.43,28.26,,Overcast
KIGQ,08/29/2018 23:15 UTC,30.08,69.62,62.78,78.92,5.75,60.0,,,,,,174.0,,,,10.0,,KIGQ 292315Z AUTO 06005KT 10SM OVC017 21/17 A3008 RMK AO2  T02090171,,,1700.0,,,62.75,,ENE,29.43,28.28,,Overcast
KIGQ,08/29/2018 23:35 UTC,30.08,68.9,62.24,79.36,6.91,50.0,,,,,,203.0,353.0,,,10.0,,KIGQ 292335Z AUTO 05006KT 10SM BKN020 BKN035 21/17 A3008 RMK AO2  T02050168,,,2000.0,,,62.21,,NE,29.43,28.32,,Mostly Cloudy
KIGQ,08/29/2018 23:55 UTC,30.08,68.54,62.6,81.37,6.91,50.0,,,,,,172.0,224.0,0.04,,10.0,,KIGQ 292355Z AUTO 05006KT 10SM SCT017 OVC022 20/17 A3008 RMK AO2  60004 T02030170 10225 20189,72.5,66.02,2200.0,,,62.57,,NE,29.43,28.31,,Overcast
KIGQ,08/30/2018 00:15 UTC,30.08,68.36,62.24,80.84,8.05,60.0,,,,,,173.0,234.0,,,10.0,,KIGQ 300015Z AUTO 06007KT 10SM BKN017 OVC023 20/17 A3008 RMK AO2  T02020168,,,1700.0,,,62.21,,ENE,29.43,28.33,,Overcast
KIGQ,08/30/2018 00:35 UTC,30.09,68.0,61.88,80.82,5.75,50.0,,,,,,193.0,254.0,,,10.0,,KIGQ 300035Z AUTO 05005KT 10SM BKN019 OVC025 20/17 A3009 RMK AO2  T02000166,,,1900.0,,,61.85,,NE,29.44,28.37,,Overcast
KIGQ,08/30/2018 00:55 UTC,30.1,68.0,61.7,80.31,4.61,50.0,,,,,,214.0,,,,10.0,,KIGQ 300055Z AUTO 05004KT 10SM OVC021 20/17 A3010 RMK AO2  T02000165,,,2100.0,,,61.67,,NE,29.45,28.39,,Overcast
KIGQ,08/30/2018 01:15 UTC,30.1,68.0,61.52,79.8,3.44,30.0,,,,,,213.0,284.0,,,10.0,,KIGQ 300115Z AUTO 03003KT 10SM BKN021 OVC028 20/16 A3010 RMK AO2  T02000164,,,2100.0,,,61.49,,NNE,29.45,28.4,,Overcast
KIGQ,08/30/2018 01:35 UTC,30.11,67.82,61.52,80.29,5.75,50.0,,,344.0,,,213.0,283.0,,,10.0,,KIGQ 300135Z AUTO 05005KT 10SM BKN021 BKN028 OVC034 20/16 A3011 RMK AO2 T01990164,,,2100.0,,,61.49,,NE,29.46,28.41,,Overcast
KIGQ,08/30/2018 01:55 UTC,30.12,67.46,61.34,80.78,10.36,40.0,,,,,,213.0,284.0,,,10.0,,KIGQ 300155Z AUTO 04009KT 10SM BKN021 OVC028 20/16 A3012 RMK AO2  T01970163,,,2100.0,,,61.31,,NE,29.47,28.43,,Overcast
KIGQ,08/30/2018 02:15 UTC,30.13,67.1,60.98,80.75,6.91,40.0,,,,,,233.0,294.0,,,10.0,,KIGQ 300215Z AUTO 04006KT 10SM BKN023 OVC029 20/16 A3013 RMK AO2  T01950161,,,2300.0,,,60.95,,NE,29.47,28.46,,Overcast
KIGQ,08/30/2018 02:35 UTC,30.13,66.56,60.26,80.2,6.91,40.0,,,,,,232.0,293.0,,,10.0,,KIGQ 300235Z AUTO 04006KT 10SM SCT023 BKN029 19/16 A3013 RMK AO2  T01920157,,,2900.0,,,60.23,,NE,29.47,28.5,,Mostly Cloudy
KIGQ,08/30/2018 02:55 UTC,30.14,66.74,60.26,79.7,6.91,50.0,,,,,,263.0,344.0,,,10.0,,KIGQ 300255Z AUTO 05006KT 10SM BKN026 OVC034 19/16 A3014 RMK AO2  T01930157,,,2600.0,,,60.23,,NE,29.48,28.51,,Overcast
KIGQ,08/30/2018 03:15 UTC,30.15,66.74,59.9,78.69,8.05,40.0,,,,,,273.0,344.0,,,10.0,,KIGQ 300315Z AUTO 04007KT 10SM BKN027 OVC034 19/16 A3015 RMK AO2  T01930155,,,2700.0,,,59.87,,NE,29.49,28.54,,Overcast
KIGQ,08/30/2018 03:35 UTC,30.15,66.38,59.54,78.66,8.05,40.0,,,,,,293.0,384.0,,,10.0,,KIGQ 300335Z AUTO 04007KT 10SM BKN029 OVC038 19/15 A3015 RMK AO2  T01910153,,,2900.0,,,59.51,,NE,29.49,28.56,,Overcast
KIGQ,08/30/2018 03:55 UTC,30.15,65.84,59.36,79.63,6.91,40.0,,,,,,332.0,393.0,,,10.0,,KIGQ 300355Z AUTO 04006KT 10SM SCT033 BKN039 19/15 A3015 RMK AO2  T01880152,,,3900.0,,,59.33,,NE,29.49,28.58,,Mostly Cloudy
KIGQ,08/30/2018 04:15 UTC,30.16,65.84,59.0,78.61,6.91,40.0,,,,,,373.0,,,,10.0,,KIGQ 300415Z AUTO 04006KT 10SM BKN037 19/15 A3016 RMK AO2  T01880150,,,3700.0,,,58.96,,NE,29.5,28.61,,Mostly Cloudy
KIGQ,08/30/2018 04:35 UTC,30.16,65.66,58.82,78.6,5.75,50.0,,,,,,393.0,,,,10.0,,KIGQ 300435Z AUTO 05005KT 10SM BKN039 19/15 A3016 RMK AO2  T01870149,,,3900.0,,,58.78,,NE,29.5,28.62,,Mostly Cloudy
KIGQ,08/30/2018 04:55 UTC,30.17,65.3,58.46,78.57,4.61,40.0,,,,,,394.0,,,,10.0,,KIGQ 300455Z AUTO 04004KT 10SM OVC039 19/15 A3017 RMK AO2  T01850147,,,3900.0,,,58.42,,NE,29.51,28.65,,Overcast
KIGQ,08/30/2018 05:15 UTC,30.18,64.58,58.1,79.53,3.44,50.0,,,,,,393.0,,,,10.0,,KIGQ 300515Z AUTO 05003KT 10SM BKN039 18/15 A3018 RMK AO2  T01810145,,,3900.0,,,58.06,,NE,29.52,28.69,,Mostly Cloudy
KIGQ,08/30/2018 05:35 UTC,30.18,64.76,58.28,79.54,4.61,30.0,,,,,,394.0,,,,10.0,,KIGQ 300535Z AUTO 03004KT 10SM OVC039 18/15 A3018 RMK AO2  T01820146,,,3900.0,,,58.24,,NNE,29.52,28.68,,Overcast
KIGQ,08/30/2018 05:55 UTC,30.18,64.58,58.1,79.53,3.44,30.0,,,,,,394.0,,,,10.0,,KIGQ 300555Z AUTO 03003KT 10SM OVC039 18/15 A3018 RMK AO2  T01810145 10203 20181 402430181,68.54,64.58,3900.0,75.74,64.58,58.06,,NNE,29.52,28.69,,Overcast
KIGQ,08/30/2018 06:15 UTC,30.18,64.76,58.1,79.03,5.75,40.0,,,,,,394.0,,,,10.0,,KIGQ 300615Z AUTO 04005KT 10SM OVC039 18/15 A3018 RMK AO2  T01820145,,,3900.0,,,58.06,,NE,29.52,28.69,,Overcast
KIGQ,08/30/2018 06:35 UTC,30.19,64.94,58.1,78.54,5.75,40.0,,,,,,272.0,394.0,,,10.0,,KIGQ 300635Z AUTO 04005KT 10SM SCT027 OVC039 18/15 A3019 RMK AO2  T01830145,,,3900.0,,,58.06,,NE,29.53,28.69,,Overcast
KIGQ,08/30/2018 06:55 UTC,30.18,64.94,57.74,77.53,4.61,40.0,,,,,,292.0,394.0,,,10.0,,KIGQ 300655Z AUTO 04004KT 10SM SCT029 OVC039 18/14 A3018 RMK AO2  T01830143,,,3900.0,,,57.7,,NE,29.52,28.7,,Overcast
KIGQ,08/30/2018 07:15 UTC,30.18,64.58,57.2,77.0,5.75,50.0,,,,,,414.0,,,,10.0,,KIGQ 300715Z AUTO 05005KT 10SM OVC041 18/14 A3018 RMK AO2  T01810140,,,4100.0,,,57.16,,NE,29.52,28.73,,Overcast
KIGQ,08/30/2018 07:35 UTC,30.19,64.4,56.84,76.48,4.61,50.0,,,,,,414.0,,,,10.0,,KIGQ 300735Z AUTO 05004KT 10SM OVC041 18/14 A3019 RMK AO2  T01800138,,,4100.0,,,56.79,,NE,29.53,28.76,,Overcast
KIGQ,08/30/2018 07:55 UTC,30.19,64.22,56.66,76.47,4.61,50.0,,,,,,414.0,,,,10.0,,KIGQ 300755Z AUTO 05004KT 10SM OVC041 18/14 A3019 RMK AO2  T01790137,,,4100.0,,,56.62,,NE,29.53,28.77,,Overcast
KIGQ,08/30/2018 08:15 UTC,30.2,64.4,57.2,77.48,5.75,80.0,,,,,,414.0,,,,10.0,,KIGQ 300815Z AUTO 08005KT 10SM OVC041 18/14 A3020 RMK AO2  T01800140,,,4100.0,,,57.16,,E,29.54,28.75,,Overcast
KIGQ,08/30/2018 08:35 UTC,30.2,63.32,58.1,83.11,8.05,100.0,,,434.0,,,212.0,262.0,,,10.0,,KIGQ 300835Z AUTO 10007KT 10SM SCT021 SCT026 OVC043 17/15 A3020 RMK AO2 T01740145,,,4300.0,,,58.07,,E,29.54,28.72,,Overcast
KIGQ,08/30/2018 08:55 UTC,30.2,62.06,57.2,84.11,8.05,100.0,,,434.0,,,212.0,262.0,,,10.0,,KIGQ 300855Z AUTO 10007KT 10SM SCT021 SCT026 OVC043 17/14 A3020 RMK AO2 T01670140,,,4300.0,,,57.17,,E,29.54,28.78,,Overcast
KIGQ,08/30/2018 09:15 UTC,30.2,60.98,56.48,85.14,5.75,100.0,,,,,,433.0,,,,10.0,,KIGQ 300915Z AUTO 10005KT 10SM BKN043 16/14 A3020 RMK AO2  T01610136,,,4300.0,,,56.45,,E,29.54,28.83,,Mostly Cloudy
KIGQ,08/30/2018 09:35 UTC,30.2,60.26,55.58,84.54,6.91,100.0,,,,,,433.0,,,,10.0,,KIGQ 300935Z AUTO 10006KT 10SM BKN043 16/13 A3020 RMK AO2  T01570131,,,4300.0,,,55.54,,E,29.54,28.87,,Mostly Cloudy
KIGQ,08/30/2018 09:55 UTC,30.2,59.9,54.5,82.33,5.75,90.0,,,,,,433.0,,,,10.0,,KIGQ 300955Z AUTO 09005KT 10SM BKN043 16/13 A3020 RMK AO2  T01550125,,,4300.0,,,54.46,,E,29.54,28.93,,Mostly Cloudy
KIGQ,08/30/2018 10:15 UTC,30.21,58.82,53.96,83.9,5.75,110.0,,,,,,433.0,,,,10.0,,KIGQ 301015Z AUTO 11005KT 10SM BKN043 15/12 A3021 RMK AO2  T01490122,,,4300.0,,,53.92,,ESE,29.55,28.97,,Mostly Cloudy
KIGQ,08/30/2018 10:35 UTC,30.21,58.64,53.6,83.34,4.61,110.0,,,,,,434.0,,,,10.0,,KIGQ 301035Z AUTO 11004KT 10SM OVC043 15/12 A3021 RMK AO2  T01480120,,,4300.0,,,53.56,,ESE,29.55,28.99,,Overcast
KIGQ,08/30/2018 10:55 UTC,30.22,58.46,53.42,83.32,4.61,110.0,,,,,,434.0,,,,10.0,,KIGQ 301055Z AUTO 11004KT 10SM OVC043 15/12 A3022 RMK AO2  T01470119,,,4300.0,,,53.38,,ESE,29.56,29.01,,Overcast
KIGQ,08/30/2018 11:15 UTC,30.23,58.1,52.88,82.75,0.0,0.0,,,,,,413.0,,,,10.0,,KIGQ 301115Z AUTO 00000KT 10SM BKN041 15/12 A3023 RMK AO2  T01450116,,,4100.0,,,52.84,,N,29.57,29.04,,Mostly Cloudy
KIGQ,08/30/2018 11:35 UTC,30.23,57.56,53.78,87.2,0.0,0.0,,,,,,414.0,,,,10.0,,KIGQ 301135Z AUTO 00000KT 10SM OVC041 14/12 A3023 RMK AO2  T01420121,,,4100.0,,,53.75,,N,29.57,29.01,,Overcast
KIGQ,08/30/2018 11:55 UTC,30.23,58.1,53.42,84.4,0.0,0.0,,,,,,414.0,,,0.04,10.0,,KIGQ 301155Z AUTO 00000KT 10SM OVC041 15/12 A3023 RMK AO2 70004  T01450119 10185 20142,65.3,57.56,4100.0,,,53.38,,N,29.57,29.02,,Overcast
KIGQ,08/30/2018 12:15 UTC,30.24,59.54,51.98,76.04,4.61,90.0,,,,,,413.0,,,,10.0,,KIGQ 301215Z AUTO 09004KT 10SM BKN041 15/11 A3024 RMK AO2  T01530111,,,4100.0,,,51.92,,E,29.58,29.07,,Mostly Cloudy
KIGQ,08/30/2018 12:35 UTC,30.24,59.72,51.98,75.56,5.75,90.0,,,,,,412.0,,,,10.0,,KIGQ 301235Z AUTO 09005KT 10SM SCT041 15/11 A3024 RMK AO2  T01540111,,,,,,51.92,,E,29.58,29.07,,Partly Cloudy
KIGQ,08/30/2018 12:55 UTC,30.24,61.7,52.52,71.85,5.75,100.0,,,,,,1.0,,,,10.0,,KIGQ 301255Z AUTO 10005KT 10SM CLR 17/11 A3024 RMK AO2  T01650114,,,,,,52.46,,E,29.58,29.03,,Clear
KIGQ,08/30/2018 13:15 UTC,30.24,62.78,53.24,71.02,4.61,80.0,,,,,,1.0,,,,10.0,,KIGQ 301315Z AUTO 08004KT 10SM CLR 17/12 A3024 RMK AO2  T01710118,,,,,,53.18,,E,29.58,28.99,,Clear
KIGQ,08/30/2018 13:35 UTC,30.24,64.04,53.78,69.31,6.91,90.0,,,,,,1.0,,,,10.0,,KIGQ 301335Z AUTO 09006KT 10SM CLR 18/12 A3024 RMK AO2  T01780121,,,,,,53.72,,E,29.58,28.95,,Clear
KIGQ,08/30/2018 13:55 UTC,30.23,64.76,54.14,68.48,9.22,80.0,,,,,,382.0,,,,10.0,,KIGQ 301355Z AUTO 08008KT 10SM SCT038 18/12 A3023 RMK AO2  T01820123,,,,,,54.08,,E,29.57,28.92,,Partly Cloudy
KIGQ,08/30/2018 14:15 UTC,30.23,66.2,54.5,66.01,8.05,80.0,,,,,,382.0,,,,10.0,,KIGQ 301415Z AUTO 08007KT 10SM SCT038 19/13 A3023 RMK AO2  T01900125,,,,,,54.44,,E,29.57,28.89,,Partly Cloudy
KIGQ,08/30/2018 14:35 UTC,30.24,67.1,55.4,66.11,10.36,90.0,,,,,,1.0,,,,10.0,,KIGQ 301435Z AUTO 09009KT 10SM CLR 20/13 A3024 RMK AO2  T01950130,,,,,,55.34,,E,29.58,28.85,,Clear
KIGQ,08/30/2018 14:55 UTC,30.23,66.92,54.86,65.23,9.22,60.0,,,,,,262.0,,,,10.0,,KIGQ 301455Z AUTO 06008KT 10SM SCT026 19/13 A3023 RMK AO2  T01940127,,,,,,54.8,,ENE,29.57,28.87,,Partly Cloudy
KIGQ,08/30/2018 15:15 UTC,30.23,68.54,55.04,62.1,11.5,50.0,16.11,,,,,303.0,353.0,,,,,KIGQ 301515Z AUTO 05010G14KT BKN030 BKN035 20/13 A3023 RMK AO2  T02030128,,,3000.0,,,54.98,,NE,29.57,28.84,,Mostly Cloudy
KIGQ,08/30/2018 15:35 UTC,30.23,69.08,56.3,63.82,8.05,80.0,,,,,,303.0,353.0,,,10.0,,KIGQ 301535Z AUTO 08007KT 10SM BKN030 BKN035 21/14 A3023 RMK AO2  T02060135,,,3000.0,,,56.25,,E,29.57,28.78,,Mostly Cloudy
KIGQ,08/30/2018 15:55 UTC,30.23,68.72,53.42,58.18,10.36,50.0,,,,,,302.0,,,,10.0,,KIGQ 301555Z AUTO 05009KT 10SM SCT030 20/12 A3023 RMK AO2  T02040119,,,,,,53.36,,NE,29.57,28.91,,Partly Cloudy
KIGQ,08/30/2018 16:15 UTC,30.22,67.64,53.24,59.98,10.36,60.0,,,,,,1.0,,,,10.0,,KIGQ 301615Z AUTO 06009KT 10SM CLR 20/12 A3022 RMK AO2  T01980118,,,,,,53.18,,ENE,29.56,28.92,,Clear
KIGQ,08/30/2018 16:35 UTC,30.22,69.8,53.6,56.44,9.22,70.0,,,,,,1.0,,,,10.0,,KIGQ 301635Z AUTO 07008KT 10SM CLR 21/12 A3022 RMK AO2  T02100120,,,,,,53.54,,ENE,29.56,28.88,,Clear
KIGQ,08/30/2018 16:55 UTC,30.23,69.8,54.14,57.57,9.22,70.0,,,,,,332.0,,,,10.0,,KIGQ 301655Z AUTO 07008KT 10SM SCT033 21/12 A3023 RMK AO2  T02100123,,,,,,54.09,,ENE,29.57,28.87,,Partly Cloudy
KIGQ,08/30/2018 17:15 UTC,30.22,69.98,52.52,53.92,6.91,30.0,,,,,,332.0,,,,10.0,,KIGQ 301715Z AUTO 03006KT 10SM SCT033 21/11 A3022 RMK AO2  T02110114,,,,,,52.46,,NNE,29.56,28.93,,Partly Cloudy
KIGQ,08/30/2018 17:35 UTC,30.21,70.52,53.6,55.08,5.75,40.0,,,,,,1.0,,,,10.0,,KIGQ 301735Z AUTO 04005KT 10SM CLR 21/12 A3021 RMK AO2  T02140120,,,,,,53.55,,NE,29.55,28.87,,Clear
KIGQ,08/30/2018 17:55 UTC,30.2,70.52,52.16,52.24,9.22,40.0,,,,,,1.0,,,,10.0,,KIGQ 301755Z AUTO 04008KT 10SM CLR 21/11 A3020 RMK AO2 T02140112  10215 20146,70.7,58.28,,,,52.1,,NE,29.54,28.92,,Clear
KIGQ,08/30/2018 18:15 UTC,30.19,70.7,53.78,55.1,8.05,40.0,,,,,,1.0,,,,10.0,,KIGQ 301815Z AUTO 04007KT 10SM CLR 22/12 A3019 RMK AO2  T02150121,,,,,,53.73,,NE,29.53,28.84,,Clear
KIGQ,08/30/2018 18:35 UTC,30.2,70.16,54.68,58.0,10.36,40.0,18.41,,,,,1.0,,,,10.0,,KIGQ 301835Z AUTO 04009G16KT 10SM CLR 21/13 A3020 RMK AO2  T02120126,,,,,,54.63,,NE,29.54,28.81,,Clear
KIGQ,08/30/2018 18:55 UTC,30.2,69.98,55.76,60.69,10.36,60.0,16.11,,,,,1.0,,,,10.0,,KIGQ 301855Z AUTO 06009G14KT 10SM CLR 21/13 A3020 RMK AO2  T02110132,,,,,,55.71,,ENE,29.54,28.76,,Clear
KIGQ,08/30/2018 19:15 UTC,30.21,70.52,56.12,60.37,8.05,60.0,,,,,,1.0,,,,10.0,,KIGQ 301915Z AUTO 06007KT 10SM CLR 21/13 A3021 RMK AO2  T02140134,,,,,,56.08,,ENE,29.55,28.75,,Clear
KIGQ,08/30/2018 19:35 UTC,30.21,70.7,55.22,58.07,10.36,50.0,,,,,,1.0,,,,10.0,,KIGQ 301935Z AUTO 05009KT 10SM CLR 22/13 A3021 RMK AO2  T02150129,,,,,,55.17,,NE,29.55,28.79,,Clear
KIGQ,08/30/2018 19:55 UTC,30.21,70.34,54.68,57.64,5.75,10.0,,,,,,1.0,,,,10.0,,KIGQ 301955Z AUTO 01005KT 10SM CLR 21/13 A3021 RMK AO2  T02130126,,,,,,54.63,,N,29.55,28.82,,Clear
KIGQ,08/30/2018 20:15 UTC,30.2,69.8,54.86,59.1,9.22,360.0,,,,,,1.0,,,,10.0,,KIGQ 302015Z AUTO 36008KT 10SM CLR 21/13 A3020 RMK AO2  T02100127,,,,,,54.81,,N,29.54,28.81,,Clear
KIGQ,08/30/2018 20:35 UTC,30.2,70.34,55.58,59.56,8.05,20.0,,,,,,1.0,,,,10.0,,KIGQ 302035Z AUTO 02007KT 350V050 10SM CLR 21/13 A3020 RMK AO2  T02130131,,,,,,55.53,,NNE,29.54,28.77,,Clear
KIGQ,08/30/2018 20:55 UTC,30.2,69.98,54.86,58.74,8.05,40.0,,,,,,1.0,,,,10.0,,KIGQ 302055Z AUTO 04007KT 10SM CLR 21/13 A3020 RMK AO2  T02110127,,,,,,54.81,,NE,29.54,28.81,,Clear
KIGQ,08/30/2018 21:15 UTC,30.19,69.8,53.96,57.19,10.36,50.0,,,,,,1.0,,,,10.0,,KIGQ 302115Z AUTO 05009KT 10SM CLR 21/12 A3019 RMK AO2  T02100122,,,,,,53.9,,NE,29.53,28.84,,Clear
KIGQ,08/30/2018 21:35 UTC,30.18,69.26,53.42,57.12,6.91,30.0,,,,,,1.0,,,,10.0,,KIGQ 302135Z AUTO 03006KT 10SM CLR 21/12 A3018 RMK AO2  T02070119,,,,,,53.36,,NNE,29.52,28.86,,Clear
KIGQ,08/30/2018 21:55 UTC,30.18,69.08,53.24,57.09,8.05,40.0,,,,,,1.0,,,,10.0,,KIGQ 302155Z AUTO 04007KT 10SM CLR 21/12 A3018 RMK AO2  T02060118,,,,,,53.18,,NE,29.52,28.87,,Clear
KIGQ,08/30/2018 22:15 UTC,30.18,68.0,53.6,60.03,9.22,70.0,,,,,,1.0,,,,10.0,,KIGQ 302215Z AUTO 07008KT 10SM CLR 20/12 A3018 RMK AO2  T02000120,,,,,,53.54,,ENE,29.52,28.86,,Clear
KIGQ,08/30/2018 22:35 UTC,30.17,68.0,53.42,59.63,10.36,50.0,,,,,,1.0,,,,10.0,,KIGQ 302235Z AUTO 05009KT 10SM CLR 20/12 A3017 RMK AO2  T02000119,,,,,,53.36,,NE,29.51,28.86,,Clear
KIGQ,08/30/2018 22:55 UTC,30.16,67.28,53.96,62.35,10.36,60.0,,,,,,1.0,,,,10.0,,KIGQ 302255Z AUTO 06009KT 10SM CLR 20/12 A3016 RMK AO2  T01960122,,,,,,53.9,,ENE,29.5,28.83,,Clear
KIGQ,08/30/2018 23:15 UTC,30.16,67.1,53.24,61.11,8.05,40.0,,,,,,1.0,,,,10.0,,KIGQ 302315Z AUTO 04007KT 10SM CLR 20/12 A3016 RMK AO2  T01950118,,,,,,53.18,,NE,29.5,28.86,,Clear
KIGQ,08/30/2018 23:35 UTC,30.16,66.38,53.06,62.23,8.05,60.0,,,,,,1.0,,,,10.0,,KIGQ 302335Z AUTO 06007KT 10SM CLR 19/12 A3016 RMK AO2  T01910117,,,,,,52.99,,ENE,29.5,28.88,,Clear
KIGQ,08/30/2018 23:55 UTC,30.16,65.84,53.6,64.67,5.75,60.0,,,,,,1.0,,,,10.0,,KIGQ 302355Z AUTO 06005KT 10SM CLR 19/12 A3016 RMK AO2 T01880120  10216 20188,70.88,65.84,,,,53.53,,ENE,29.5,28.86,,Clear
KIGQ,08/31/2018 00:15 UTC,30.15,64.94,53.6,66.73,6.91,50.0,,,,,,1.0,,,,10.0,,KIGQ 310015Z AUTO 05006KT 10SM CLR 18/12 A3015 RMK AO2  T01830120,,,,,,53.54,,NE,29.49,28.86,,Clear
KIGQ,08/31/2018 00:35 UTC,30.15,64.4,53.42,67.55,5.75,60.0,,,,,,1.0,,,,10.0,,KIGQ 310035Z AUTO 06005KT 10SM CLR 18/12 A3015 RMK AO2  T01800119,,,,,,53.36,,ENE,29.49,28.87,,Clear
KIGQ,08/31/2018 00:55 UTC,30.15,63.86,53.42,68.83,3.44,40.0,,,,,,1.0,,,,10.0,,KIGQ 310055Z AUTO 04003KT 10SM CLR 18/12 A3015 RMK AO2  T01770119,,,,,,53.36,,NE,29.49,28.88,,Clear
KIGQ,08/31/2018 01:15 UTC,30.16,63.86,53.06,67.93,3.44,50.0,,,,,,1.0,,,,10.0,,KIGQ 310115Z AUTO 05003KT 10SM CLR 18/12 A3016 RMK AO2  T01770117,,,,,,52.99,,NE,29.5,28.9,,Clear
KIGQ,08/31/2018 01:35 UTC,30.16,62.6,53.6,72.42,0.0,0.0,,,,,,1.0,,,,10.0,,KIGQ 310135Z AUTO 00000KT 10SM CLR 17/12 A3016 RMK AO2  T01700120,,,,,,53.54,,N,29.5,28.89,,Clear
KIGQ,08/31/2018 01:55 UTC,30.16,63.14,53.6,71.06,3.44,100.0,,,,,,1.0,,,,10.0,,KIGQ 310155Z AUTO 10003KT 10SM CLR 17/12 A3016 RMK AO2  T01730120,,,,,,53.54,,E,29.5,28.89,,Clear
KIGQ,08/31/2018 02:15 UTC,30.17,63.14,53.06,69.67,3.44,90.0,,,,,,1.0,,,,10.0,,KIGQ 310215Z AUTO 09003KT 10SM CLR 17/12 A3017 RMK AO2  T01730117,,,,,,53.0,,E,29.51,28.92,,Clear
KIGQ,08/31/2018 02:35 UTC,30.16,61.88,52.52,71.39,0.0,0.0,,,,,,1.0,,,,10.0,,KIGQ 310235Z AUTO 00000KT 10SM CLR 17/11 A3016 RMK AO2  T01660114,,,,,,52.45,,N,29.5,28.95,,Clear
KIGQ,08/31/2018 02:55 UTC,30.16,60.08,53.96,80.21,0.0,0.0,,,,,,1.0,,,,10.0,,KIGQ 310255Z AUTO 00000KT 10SM CLR 16/12 A3016 RMK AO2  T01560122,,,,,,53.91,,N,29.5,28.91,,Clear
KIGQ,08/31/2018 03:15 UTC,30.16,60.98,53.6,76.68,3.44,80.0,,,,,,1.0,,,,10.0,,KIGQ 310315Z AUTO 08003KT 10SM CLR 16/12 A3016 RMK AO2  T01610120,,,,,,53.55,,E,29.5,28.91,,Clear
KIGQ,08/31/2018 03:35 UTC,30.15,61.16,54.14,77.71,3.44,80.0,,,,,,1.0,,,,10.0,,KIGQ 310335Z AUTO 08003KT 10SM CLR 16/12 A3015 RMK AO2  T01620123,,,,,,54.09,,E,29.49,28.88,,Clear
KIGQ,08/31/2018 03:55 UTC,30.15,60.62,54.32,79.73,3.44,100.0,,,,,,1.0,,,,10.0,,KIGQ 310355Z AUTO 10003KT 10SM CLR 16/12 A3015 RMK AO2  T01590124,,,,,,54.27,,E,29.49,28.87,,Clear
KIGQ,08/31/2018 04:15 UTC,30.15,60.62,55.04,81.85,0.0,0.0,,,,,,1.0,,,,10.0,,KIGQ 310415Z AUTO 00000KT 10SM CLR 16/13 A3015 RMK AO2  T01590128,,,,,,55.0,,N,29.49,28.84,,Clear
KIGQ,08/31/2018 04:35 UTC,30.15,59.18,54.14,83.37,0.0,0.0,,,,,,1.0,,,,10.0,,KIGQ 310435Z AUTO 00000KT 10SM CLR 15/12 A3015 RMK AO2  T01510123,,,,,,54.1,,N,29.49,28.9,,Clear
KIGQ,08/31/2018 04:55 UTC,30.15,57.56,54.14,88.35,0.0,0.0,,,,,,1.0,,,,10.0,,KIGQ 310455Z AUTO 00000KT 10SM CLR 14/12 A3015 RMK AO2  T01420123,,,,,,54.11,,N,29.49,28.91,,Clear
KIGQ,08/31/2018 05:15 UTC,30.15,59.0,55.22,87.27,3.44,100.0,,,,,,1.0,,,,10.0,,KIGQ 310515Z AUTO 10003KT 10SM CLR 15/13 A3015 RMK AO2  T01500129,,,,,,55.19,,E,29.49,28.85,,Clear
KIGQ,08/31/2018 05:35 UTC,30.15,59.36,55.58,87.29,0.0,0.0,,,,,,1.0,,,,10.0,,KIGQ 310535Z AUTO 00000KT 10SM CLR 15/13 A3015 RMK AO2  T01520131,,,,,,55.55,,N,29.49,28.83,,Clear
KIGQ,08/31/2018 05:55 UTC,30.14,59.36,55.58,87.29,0.0,0.0,,,,,,1.0,,,,10.0,,KIGQ 310555Z AUTO 00000KT 10SM CLR 15/13 A3014 RMK AO2 T01520131  10188 20140 402160140,65.84,57.2,,70.88,57.2,55.55,,N,29.48,28.82,,Clear
KIGQ,08/31/2018 06:15 UTC,30.14,58.46,55.22,88.97,0.0,0.0,,,,,,1.0,,,,10.0,,KIGQ 310615Z AUTO 00000KT 10SM CLR 15/13 A3014 RMK AO2  T01470129,,,,,,55.19,,N,29.48,28.85,,Clear
KIGQ,08/31/2018 06:35 UTC,30.14,58.64,55.58,89.57,0.0,0.0,,,,,,1.0,,,,10.0,,KIGQ 310635Z AUTO 00000KT 10SM CLR 15/13 A3014 RMK AO2  T01480131,,,,,,55.56,,N,29.48,28.83,,Clear
KIGQ,08/31/2018 06:55 UTC,30.14,58.64,55.76,90.15,0.0,0.0,,,,,,1.0,,,,10.0,,KIGQ 310655Z AUTO 00000KT 10SM CLR 15/13 A3014 RMK AO2  T01480132,,,,,,55.73,,N,29.48,28.82,,Clear
KIGQ,08/31/2018 07:15 UTC,30.14,58.46,55.76,90.73,0.0,0.0,,,,,,1.0,,,,10.0,,KIGQ 310715Z AUTO 00000KT 10SM CLR 15/13 A3014 RMK AO2  T01470132,,,,,,55.74,,N,29.48,28.83,,Clear
KIGQ,08/31/2018 07:35 UTC,30.14,57.2,54.32,90.09,0.0,0.0,,,,,,1.0,,,,10.0,,KIGQ 310735Z AUTO 00000KT 10SM CLR 14/12 A3014 RMK AO2  T01400124,,,,,,54.29,,N,29.48,28.9,,Clear
KIGQ,08/31/2018 07:55 UTC,30.14,56.84,54.5,91.87,0.0,0.0,,,,,,1.0,,,,10.0,,KIGQ 310755Z AUTO 00000KT 10SM CLR 14/13 A3014 RMK AO2  T01380125,,,,,,54.48,,N,29.48,28.9,,Clear
KIGQ,08/31/2018 08:15 UTC,30.14,55.4,53.42,93.04,0.0,0.0,,,,,,1.0,,,,10.0,,KIGQ 310815Z AUTO 00000KT 10SM CLR 13/12 A3014 RMK AO2  T01300119,,,,,,53.4,,N,29.48,28.96,,Clear
KIGQ,08/31/2018 08:35 UTC,30.13,55.4,53.6,93.65,0.0,0.0,,,,,,1.0,,,,10.0,,KIGQ 310835Z AUTO 00000KT 10SM CLR 13/12 A3013 RMK AO2  T01300120,,,,,,53.58,,N,29.47,28.94,,Clear
KIGQ,08/31/2018 08:55 UTC,30.12,56.66,54.86,93.69,0.0,0.0,,,,,,1.0,,,,10.0,,KIGQ 310855Z AUTO 00000KT 10SM CLR 14/13 A3012 RMK AO2  T01370127,,,,,,54.84,,N,29.47,28.87,,Clear
KIGQ,08/31/2018 09:15 UTC,30.12,56.66,55.58,96.17,0.0,0.0,,,,,,1.0,,,,10.0,,KIGQ 310915Z AUTO 00000KT 10SM CLR 14/13 A3012 RMK AO2  T01370131,,,,,,55.57,,N,29.47,28.84,,Clear
KIGQ,08/31/2018 09:35 UTC,30.12,57.2,55.94,95.55,0.0,0.0,,,,,,1.0,,,,10.0,,KIGQ 310935Z AUTO 00000KT 10SM CLR 14/13 A3012 RMK AO2  T01400133,,,,,,55.93,,N,29.47,28.82,,Clear
KIGQ,08/31/2018 09:55 UTC,30.12,55.4,53.78,94.27,0.0,0.0,,,,,,1.0,,,,10.0,,KIGQ 310955Z AUTO 00000KT 10SM CLR 13/12 A3012 RMK AO2  T01300121,,,,,,53.76,,N,29.47,28.93,,Clear
KIGQ,08/31/2018 10:15 UTC,30.13,55.4,54.5,96.78,0.0,0.0,,,,,,1.0,,,,10.0,,KIGQ 311015Z AUTO 00000KT 10SM CLR 13/13 A3013 RMK AO2  T01300125,,,,,,54.49,,N,29.47,28.9,,Clear
KIGQ,08/31/2018 10:35 UTC,30.13,56.3,55.76,98.07,0.0,0.0,,,,,,1.0,,,,7.0,,KIGQ 311035Z AUTO 00000KT 7SM CLR 14/13 A3013 RMK AO2  T01350132,,,,,,55.76,,N,29.47,28.84,,Clear
KIGQ,08/31/2018 10:55 UTC,30.13,56.66,56.48,99.35,0.0,0.0,,,,,,1.0,,,,10.0,,KIGQ 311055Z AUTO 00000KT 10SM CLR 14/14 A3013 RMK AO2 LTG DSNT N  T01370136,,,,,,56.48,,N,29.47,28.8,,Clear
KIGQ,08/31/2018 11:15 UTC,30.13,56.66,55.76,96.8,0.0,0.0,,,,,,1.0,,,,10.0,,KIGQ 311115Z AUTO 00000KT 10SM CLR 14/13 A3013 RMK AO2 LTG DSNT N  T01370132,,,,,,55.75,,N,29.47,28.84,,Clear
KIGQ,08/31/2018 11:35 UTC,30.12,56.66,55.76,96.8,0.0,0.0,,,,,,1.0,,,,10.0,,KIGQ 311135Z AUTO 00000KT 10SM CLR 14/13 A3012 RMK AO2  T01370132,,,,,,55.75,,N,29.47,28.84,,Clear
KIGQ,08/31/2018 11:55 UTC,30.12,56.66,55.58,96.17,3.44,170.0,,,,,,1.0,,,,10.0,,KIGQ 311155Z AUTO 17003KT 10SM CLR 14/13 A3012 RMK AO2 T01370131  10152 20127,59.36,54.86,,,,55.57,,S,29.47,28.84,,Clear
KIGQ,08/31/2018 12:15 UTC,30.11,57.56,56.3,95.56,0.0,0.0,,,,,,1.0,,,,10.0,,KIGQ 311215Z AUTO 00000KT 10SM CLR 14/14 A3011 RMK AO2  T01420135,,,,,,56.29,,N,29.46,28.79,,Clear
KIGQ,08/31/2018 12:35 UTC,30.13,60.62,58.46,92.59,0.0,0.0,,,,,,1.0,,,,10.0,,KIGQ 311235Z AUTO 00000KT 10SM CLR 16/15 A3013 RMK AO2  T01590147,,,,,,58.44,,N,29.47,28.67,,Clear
KIGQ,08/31/2018 12:55 UTC,30.12,63.86,59.72,86.41,4.61,130.0,,,,,,1.0,,,,10.0,,KIGQ 311255Z AUTO 13004KT 10SM CLR 18/15 A3012 RMK AO2  T01770154,,,,,,59.69,,SE,29.47,28.56,,Clear
KIGQ,08/31/2018 13:15 UTC,30.13,65.84,60.26,82.22,4.61,160.0,,,,,,1.0,,,,10.0,,KIGQ 311315Z AUTO 16004KT 10SM CLR 19/16 A3013 RMK AO2 LTG DSNT W  T01880157,,,,,,60.23,,SSE,29.47,28.51,,Clear
KIGQ,08/31/2018 13:35 UTC,30.13,67.82,61.52,80.29,4.61,190.0,,,,,,1.0,,,,10.0,,KIGQ 311335Z AUTO 19004KT 10SM CLR 20/16 A3013 RMK AO2  T01990164,,,,,,61.49,,S,29.47,28.42,,Clear
KIGQ,08/31/2018 13:55 UTC,30.13,69.8,62.6,77.94,5.75,190.0,,,,,,1.0,,,,10.0,,KIGQ 311355Z AUTO 19005KT 10SM CLR 21/17 A3013 RMK AO2  T02100170,,,,,,62.57,,S,29.47,28.33,,Clear
KIGQ,08/31/2018 14:15 UTC,30.13,71.06,63.32,76.59,6.91,180.0,,,,,,22.0,,,,10.0,,KIGQ 311415Z AUTO 18006KT 10SM SCT002 22/17 A3013 RMK AO2  T02170174,,,,,,63.3,,S,29.47,28.28,,Partly Cloudy
KIGQ,08/31/2018 14:35 UTC,30.13,71.96,63.5,74.76,8.05,190.0,,,,,,1.0,,,,10.0,,KIGQ 311435Z AUTO 19007KT 10SM CLR 22/18 A3013 RMK AO2  T02220175,,,,,,63.48,,S,29.47,28.25,,Clear
KIGQ,08/31/2018 14:55 UTC,30.13,73.58,64.4,73.06,8.05,180.0,,,,,,1.0,,,,10.0,,KIGQ 311455Z AUTO 18007KT 160V220 10SM CLR 23/18 A3013 RMK AO2 LTG  DSNT W T02310180,,,,,,64.38,,S,29.47,28.18,,Clear
KIGQ,08/31/2018 15:15 UTC,30.12,74.84,64.4,70.04,9.22,190.0,,,,,,1.0,,,,10.0,,KIGQ 311515Z AUTO 19008KT 10SM CLR 24/18 A3012 RMK AO2 LTG DSNT SW  T02380180,,,,,,64.38,,S,29.47,28.16,,Clear
KIGQ,08/31/2018 15:35 UTC,30.13,76.1,64.76,68.02,6.91,200.0,,,,,,1.0,,,,10.0,,KIGQ 311535Z AUTO 20006KT 10SM CLR 25/18 A3013 RMK AO2  T02450182,,,,,,64.75,,SSW,29.47,28.12,,Clear
KIGQ,08/31/2018 15:55 UTC,30.13,77.0,64.76,66.02,6.91,210.0,,,,,,1.0,,,,10.0,,KIGQ 311555Z AUTO 21006KT 10SM CLR 25/18 A3013 RMK AO2  T02500182,,,,,,64.76,,SSW,29.47,28.11,,Clear
KIGQ,08/31/2018 16:15 UTC,30.13,78.08,65.12,64.51,8.05,190.0,,,,,,1.0,,,,10.0,,KIGQ 311615Z AUTO 19007KT 170V230 10SM CLR 26/18 A3013 RMK AO2  T02560184,,,,,,65.12,,S,29.47,28.08,,Clear
KIGQ,08/31/2018 16:35 UTC,30.12,78.8,65.66,64.2,5.75,170.0,16.11,,,,,1.0,,,,10.0,,KIGQ 311635Z AUTO 17005G14KT 10SM CLR 26/19 A3012 RMK AO2  T02600187,,,,,,65.67,,S,29.47,28.03,,Clear
KIGQ,08/31/2018 16:55 UTC,30.11,78.98,66.56,65.84,9.22,190.0,,,,,,292.0,,,,10.0,,KIGQ 311655Z AUTO 19008KT 10SM SCT029 26/19 A3011 RMK AO2  T02610192,,,,,,66.57,,S,29.46,27.96,,Partly Cloudy
KIGQ,08/31/2018 17:15 UTC,30.11,79.88,66.02,62.75,9.22,190.0,,,,,,292.0,482.0,,,10.0,,KIGQ 311715Z AUTO 19008KT 10SM SCT029 SCT048 27/19 A3011 RMK AO2  T02660189,,,,,,66.03,,S,29.46,27.99,,Partly Cloudy
KIGQ,08/31/2018 17:35 UTC,30.1,80.6,66.74,62.84,6.91,190.0,,,,,,482.0,,,,10.0,,KIGQ 311735Z AUTO 19006KT 10SM SCT048 27/19 A3010 RMK AO2  T02700193,,,,,,66.76,,S,29.45,27.92,82.92,Partly Cloudy
KIGQ,08/31/2018 17:55 UTC,30.08,80.78,65.48,59.8,8.05,170.0,,,,,,1.0,,,,10.0,,KIGQ 311755Z AUTO 17007KT 10SM CLR 27/19 A3008 RMK AO2 T02710186  10274 20137,81.32,56.66,,,,65.5,,S,29.43,27.98,82.75,Clear
KIGQ,08/31/2018 18:15 UTC,30.08,81.68,66.56,60.29,5.75,180.0,,,,,,1.0,,,,10.0,,KIGQ 311815Z AUTO 18005KT 10SM CLR 28/19 A3008 RMK AO2  T02760192,,,,,,66.58,,S,29.43,27.9,84.03,Clear
KIGQ,08/31/2018 18:35 UTC,30.08,83.48,67.28,58.32,9.22,190.0,,,503.0,,,362.0,422.0,,,10.0,,KIGQ 311835Z AUTO 19008KT 10SM SCT036 SCT042 BKN050 29/20 A3008 RMK AO2 T02860196,,,5000.0,,,67.32,,S,29.43,27.83,86.27,Mostly Cloudy
KIGQ,08/31/2018 18:55 UTC,30.07,83.3,66.56,57.22,9.22,190.0,,,,,,362.0,502.0,,,10.0,,KIGQ 311855Z AUTO 19008KT 10SM SCT036 SCT050 29/19 A3007 RMK AO2  T02850192,,,,,,66.6,,S,29.42,27.87,85.75,Partly Cloudy
KIGQ,08/31/2018 19:15 UTC,30.07,82.22,67.28,60.74,6.91,180.0,,,,,,393.0,503.0,,,10.0,,KIGQ 311915Z AUTO 18006KT 10SM BKN039 BKN050 28/20 A3007 RMK AO2  T02790196,,,3900.0,,,67.31,,S,29.42,27.83,84.89,Mostly Cloudy
KIGQ,08/31/2018 19:35 UTC,30.06,84.38,68.18,58.44,4.61,190.0,,,604.0,,,372.0,433.0,,,10.0,,KIGQ 311935Z AUTO 19004KT 10SM SCT037 BKN043 OVC060 29/20 A3006 RMK AO2 T02910201,,,4300.0,,,68.23,,S,29.41,27.73,87.73,Overcast
KIGQ,08/31/2018 19:55 UTC,30.04,83.66,69.08,61.68,5.75,140.0,,,604.0,,,372.0,443.0,,,10.0,,KIGQ 311955Z AUTO 14005KT 10SM SCT037 BKN044 OVC060 29/21 A3004 RMK AO2 T02870206,,,4400.0,,,69.12,,SE,29.39,27.65,87.4,Overcast
KIGQ,08/31/2018 20:15 UTC,30.04,84.38,68.72,59.53,9.22,150.0,,,,,,373.0,433.0,,,10.0,,KIGQ 312015Z AUTO 15008KT 10SM BKN037 BKN043 29/20 A3004 RMK AO2  T02910204,,,3700.0,,,68.76,,SSE,29.39,27.67,88.03,Mostly Cloudy
KIGQ,08/31/2018 20:35 UTC,30.03,85.1,68.54,57.82,8.05,190.0,,,,,,372.0,,,,10.0,,KIGQ 312035Z AUTO 19007KT 10SM SCT037 30/20 A3003 RMK AO2  T02950203,,,,,,68.59,,S,29.38,27.66,88.76,Partly Cloudy
KIGQ,08/31/2018 20:55 UTC,30.02,83.66,68.18,59.81,6.91,160.0,,,,,,402.0,502.0,,,10.0,,KIGQ 312055Z AUTO 16006KT 10SM SCT040 SCT050 29/20 A3002 RMK AO2  T02870201,,,,,,68.22,,SSE,29.37,27.7,86.92,Partly Cloudy
KIGQ,08/31/2018 21:15 UTC,30.02,83.3,68.36,60.88,9.22,150.0,,,,,,382.0,552.0,,,10.0,,KIGQ 312115Z AUTO 15008KT 10SM SCT038 SCT055 29/20 A3002 RMK AO2  T02850202,,,,,,68.4,,SSE,29.37,27.69,86.6,Partly Cloudy
KIGQ,08/31/2018 21:35 UTC,30.01,83.48,68.36,60.53,6.91,150.0,,,,,,552.0,703.0,,,10.0,,KIGQ 312135Z AUTO 15006KT 10SM SCT055 BKN070 29/20 A3001 RMK AO2  T02860202,,,7000.0,,,68.4,,SSE,29.36,27.67,86.8,Mostly Cloudy
KIGQ,08/31/2018 21:55 UTC,30.0,84.56,68.9,59.56,6.91,150.0,,,702.0,,,402.0,552.0,,,10.0,,KIGQ 312155Z AUTO 15006KT 10SM SCT040 SCT055 SCT070 29/21 A3000 RMK AO2 T02920205,,,,,,68.95,,SSE,29.35,27.61,88.35,Partly Cloudy
KIGQ,08/31/2018 22:15 UTC,30.0,84.2,68.18,58.78,10.36,160.0,,,,,,402.0,,,,10.0,,KIGQ 312215Z AUTO 16009KT 10SM SCT040 29/20 A3000 RMK AO2 LTG DSNT  SW AND W T02900201,,,,,,68.23,,SSE,29.35,27.67,87.53,Partly Cloudy
KIGQ,08/31/2018 22:35 UTC,30.0,83.84,68.72,60.57,11.5,180.0,,,,,,1.0,,,,10.0,,KIGQ 312235Z AUTO 18010KT 10SM CLR 29/20 A3000 RMK AO2 LTG DSNT SW  AND W T02880204,,,,,,68.76,,S,29.35,27.63,87.41,Clear
KIGQ,08/31/2018 22:55 UTC,30.01,82.76,68.0,61.19,6.91,170.0,,,,,,1.0,,,,10.0,,KIGQ 312255Z AUTO 17006KT 10SM CLR 28/20 A3001 RMK AO2 LTG DSNT SW  AND W T02820200,,,,,,68.03,,S,29.36,27.71,85.81,Clear
KIGQ,08/31/2018 23:15 UTC,30.0,80.6,68.9,67.68,5.75,170.0,,,,,,1.0,,,,10.0,,KIGQ 312315Z AUTO 17005KT 10SM CLR 27/21 A3000 RMK AO2 LTG DSNT S  AND SW T02700205,,,,,,68.92,,S,29.35,27.66,83.6,Clear
KIGQ,08/31/2018 23:35 UTC,30.01,80.78,68.54,66.46,4.61,150.0,,,,,,502.0,,,,10.0,,KIGQ 312335Z AUTO 15004KT 10SM SCT050 27/20 A3001 RMK AO2 LTG DSNT  S AND SW T02710203,,,,,,68.56,,SSE,29.36,27.69,83.7,Partly Cloudy
KIGQ,08/31/2018 23:55 UTC,30.0,80.6,68.54,66.85,5.75,140.0,,,,,,1.0,,,,10.0,,KIGQ 312355Z AUTO 14005KT 10SM CLR 27/20 A3000 RMK AO2 LTG DSNT S  AND SW T02700203 10296 20268,85.28,80.24,,,,68.56,,SE,29.35,27.69,83.48,Clear
