# STATION: KIGQ
# STATION NAME: Lansing Municipal Airport
# LATITUDE: 41.54125
# LONGITUDE: -87.52822
# ELEVATION [ft]: 607
# STATE: IL
Station_ID,Date_Time,altimeter_set_1,air_temp_set_1,dew_point_temperature_set_1,relative_humidity_set_1,wind_speed_set_1,wind_direction_set_1,wind_gust_set_1,weather_cond_code_set_1,cloud_layer_3_code_set_1,precip_accum_one_hour_set_1,precip_accum_three_hour_set_1,cloud_layer_1_code_set_1,cloud_layer_2_code_set_1,precip_accum_six_hour_set_1,precip_accum_24_hour_set_1,visibility_set_1,metar_remark_set_1,metar_set_1,air_temp_high_6_hour_set_1,air_temp_low_6_hour_set_1,ceiling_set_1,air_temp_high_24_hour_set_1,air_temp_low_24_hour_set_1,dew_point_temperature_set_1d,wind_chill_set_1d,wind_cardinal_direction_set_1d,pressure_set_1d,sea_level_pressure_set_1d,heat_index_set_1d,weather_condition_set_1d
,,INHG,Fahrenheit,Fahrenheit,%,Miles/hour,Degrees,Miles/hour,code,code,Inches,Inches,code,code,Inches,Inches,Statute miles,text,text,Fahrenheit,Fahrenheit,Feet,Fahrenheit,Fahrenheit,Fahrenheit,Fahrenheit,Code,INHG,INHG,Fahrenheit,Code
KIGQ,09/01/2018 00:15 UTC,30.01,80.42,68.54,67.24,5.75,150.0,,,702.0,,,502.0,552.0,,,10.0,,KIGQ 010015Z AUTO 15005KT 10SM SCT050 SCT055 SCT070 27/20 A3001 RMK AO2 LTG DSNT S THRU W T02690203,,,,,,68.55,,SSE,29.36,27.7,83.26,Partly Cloudy
KIGQ,09/01/2018 00:35 UTC,30.01,80.6,68.54,66.85,9.22,160.0,,77.0,603.0,,,382.0,442.0,,,10.0,,KIGQ 010035Z AUTO 16008KT 10SM -TSRA SCT038 SCT044 BKN060 27/20  A3001 RMK AO2 LTG DSNT SE THRU W T02700203,,,6000.0,,,68.56,,SSE,29.36,27.7,83.48,Light Rain/Thunderstorm
KIGQ,09/01/2018 00:55 UTC,30.03,73.22,67.1,81.2,13.8,170.0,24.16,78.0,854.0,0.07,,362.0,553.0,,,7.0,,KIGQ 010055Z AUTO 17012G21KT 7SM +TSRA SCT036 BKN055 OVC085 23/20  A3003 RMK AO2 LTG DSNT ALQS P0007 T02290195,,,5500.0,,,67.09,,S,29.38,27.91,,Heavy Rain/Thunderstorm
KIGQ,09/01/2018 01:15 UTC,30.04,71.24,66.2,84.15,9.22,180.0,,,1103.0,0.01,,502.0,652.0,,,10.0,,KIGQ 010115Z AUTO 18008KT 10SM -VCTSRA SCT050 SCT065 BKN110 22/19  A3004 RMK AO2 LTG DSNT ALQS P0001 T02180190,,,11000.0,,,66.18,,S,29.39,28.01,,Mostly Cloudy
KIGQ,09/01/2018 01:35 UTC,30.05,71.6,67.46,86.83,5.75,200.0,,77.0,1203.0,0.01,,482.0,902.0,,,10.0,,KIGQ 010135Z AUTO 20005KT 10SM -TSRA SCT048 SCT090 BKN120 22/20  A3005 RMK AO2 LTG DSNT ALQS P0001 T02200197,,,12000.0,,,67.45,,SSW,29.4,27.93,,Light Rain/Thunderstorm
KIGQ,09/01/2018 01:55 UTC,30.06,70.88,68.0,90.64,3.44,210.0,,78.0,,0.02,,1104.0,,,,3.0,,KIGQ 010155Z AUTO 21003KT 3SM +TSRA OVC110 22/20 A3006 RMK AO2 LTG  DSNT ALQS P0002 T02160200,,,11000.0,,,67.99,,SSW,29.41,27.92,,Heavy Rain/Thunderstorm
KIGQ,09/01/2018 02:15 UTC,30.07,70.7,68.36,92.33,3.44,170.0,,,,0.02,,1104.0,,,,7.0,,KIGQ 010215Z AUTO 17003KT 7SM VCTSRA OVC110 22/20 A3007 RMK AO2  LTG DSNT N AND NE P0002 T02150202,,,11000.0,,,68.35,,S,29.42,27.9,,Overcast
KIGQ,09/01/2018 02:35 UTC,30.07,70.88,68.54,92.33,3.44,120.0,,,,0.03,,802.0,1104.0,,,7.0,,KIGQ 010235Z AUTO 12003KT 7SM VCTSRA SCT080 OVC110 22/20 A3007 RMK AO2 LTG DSNT N NE AND SW P0003 T02160203,,,11000.0,,,68.53,,ESE,29.42,27.89,,Overcast
KIGQ,09/01/2018 02:55 UTC,30.05,71.06,68.9,92.91,3.44,150.0,,1.0,1104.0,0.04,0.13,412.0,803.0,,,7.0,,KIGQ 010255Z AUTO 15003KT 7SM RA SCT041 BKN080 OVC110 22/21 A3005 RMK AO2 LTG DSNT E P0004 60013 T02170205,,,8000.0,,,68.89,,SSE,29.4,27.84,,Rain
KIGQ,09/01/2018 03:15 UTC,30.04,71.06,68.9,92.91,6.91,140.0,,,1104.0,0.01,,702.0,903.0,,,7.0,,KIGQ 010315Z AUTO 14006KT 7SM VCTSRA SCT070 BKN090 OVC110 22/21  A3004 RMK AO2 LTG DSNT E AND SE P0001 T02170205,,,9000.0,,,68.89,,SE,29.39,27.83,,Overcast
KIGQ,09/01/2018 03:35 UTC,30.04,71.06,68.9,92.91,6.91,140.0,,13.0,,0.01,,702.0,1002.0,,,10.0,,KIGQ 010335Z AUTO 14006KT 10SM -RA SCT070 SCT100 22/21 A3004 RMK AO2 LTG DSNT E P0001 T02170205,,,,,,68.89,,SE,29.39,27.83,,Light Rain
KIGQ,09/01/2018 03:55 UTC,30.02,71.24,68.54,91.21,8.05,140.0,,,,0.01,,1.0,,,,10.0,,KIGQ 010355Z AUTO 14007KT 10SM CLR 22/20 A3002 RMK AO2 P0001  T02180203,,,,,,68.53,,SE,29.37,27.83,,Clear
KIGQ,09/01/2018 04:15 UTC,30.02,71.24,68.36,90.65,8.05,160.0,,,,,,1.0,,,,10.0,,KIGQ 010415Z AUTO 16007KT 10SM CLR 22/20 A3002 RMK AO2  T02180202,,,,,,68.35,,SSE,29.37,27.84,,Clear
KIGQ,09/01/2018 04:35 UTC,30.02,71.6,68.0,88.46,9.22,160.0,,,,,,1.0,,,,10.0,,KIGQ 010435Z AUTO 16008KT 10SM CLR 22/20 A3002 RMK AO2  T02200200,,,,,,67.99,,SSE,29.37,27.86,,Clear
KIGQ,09/01/2018 04:55 UTC,30.02,71.6,68.0,88.46,10.36,150.0,,,,,,1.0,,,,10.0,,KIGQ 010455Z AUTO 15009KT 10SM CLR 22/20 A3002 RMK AO2  T02200200,,,,,,67.99,,SSE,29.37,27.86,,Clear
KIGQ,09/01/2018 05:15 UTC,30.02,71.6,68.0,88.46,8.05,160.0,,,,,,1.0,,,,10.0,,KIGQ 010515Z AUTO 16007KT 10SM CLR 22/20 A3002 RMK AO2  T02200200,,,,,,67.99,,SSE,29.37,27.86,,Clear
KIGQ,09/01/2018 05:35 UTC,30.04,70.88,67.64,89.52,5.75,200.0,,,,,,1.0,,,,10.0,,KIGQ 010535Z AUTO 20005KT 10SM CLR 22/20 A3004 RMK AO2  T02160198,,,,,,67.63,,SSW,29.39,27.92,,Clear
KIGQ,09/01/2018 05:55 UTC,30.04,70.52,67.46,90.07,6.91,190.0,,,,,,1.0,,0.14,,10.0,,KIGQ 010555Z AUTO 19006KT 10SM CLR 21/20 A3004 RMK AO2 60014  T02140197 10270 20214 402960127,80.6,70.52,,85.28,54.86,67.45,,S,29.39,27.94,,Clear
KIGQ,09/01/2018 06:15 UTC,30.03,69.98,67.1,90.6,6.91,190.0,,,,,,1.0,,,,10.0,,KIGQ 010615Z AUTO 19006KT 10SM CLR 21/20 A3003 RMK AO2  T02110195,,,,,,67.09,,S,29.38,27.96,,Clear
KIGQ,09/01/2018 06:35 UTC,30.03,69.8,67.1,91.16,8.05,180.0,,,,,,1.0,,,,10.0,,KIGQ 010635Z AUTO 18007KT 10SM CLR 21/20 A3003 RMK AO2  T02100195,,,,,,67.09,,S,29.38,27.96,,Clear
KIGQ,09/01/2018 06:55 UTC,30.03,69.8,67.1,91.16,8.05,190.0,,,,,,1.0,,,,10.0,,KIGQ 010655Z AUTO 19007KT 10SM CLR 21/20 A3003 RMK AO2  T02100195,,,,,,67.09,,S,29.38,27.96,,Clear
KIGQ,09/01/2018 07:15 UTC,30.03,69.8,66.74,90.04,8.05,190.0,,,,,,1.0,,,,10.0,,KIGQ 010715Z AUTO 19007KT 10SM CLR 21/19 A3003 RMK AO2  T02100193,,,,,,66.73,,S,29.38,27.98,,Clear
KIGQ,09/01/2018 07:35 UTC,30.02,69.8,66.74,90.04,9.22,190.0,,,,,,1.0,,,,10.0,,KIGQ 010735Z AUTO 19008KT 10SM CLR 21/19 A3002 RMK AO2  T02100193,,,,,,66.73,,S,29.37,27.97,,Clear
KIGQ,09/01/2018 07:55 UTC,30.01,69.8,67.1,91.16,9.22,190.0,,,,,,1.0,,,,10.0,,KIGQ 010755Z AUTO 19008KT 10SM CLR 21/20 A3001 RMK AO2  T02100195,,,,,,67.09,,S,29.36,27.94,,Clear
KIGQ,09/01/2018 08:15 UTC,30.0,69.8,67.28,91.73,9.22,180.0,,,,,,1.0,,,,10.0,,KIGQ 010815Z AUTO 18008KT 10SM CLR 21/20 A3000 RMK AO2  T02100196,,,,,,67.27,,S,29.35,27.92,,Clear
KIGQ,09/01/2018 08:35 UTC,30.01,69.62,67.1,91.72,8.05,190.0,,,,,,1.0,,,,10.0,,KIGQ 010835Z AUTO 19007KT 10SM CLR 21/20 A3001 RMK AO2  T02090195,,,,,,67.09,,S,29.36,27.94,,Clear
KIGQ,09/01/2018 08:55 UTC,30.01,69.8,67.28,91.73,8.05,180.0,,,,,,1.0,,,,10.0,,KIGQ 010855Z AUTO 18007KT 10SM CLR 21/20 A3001 RMK AO2  T02100196,,,,,,67.27,,S,29.36,27.93,,Clear
KIGQ,09/01/2018 09:15 UTC,30.01,69.8,67.46,92.3,8.05,180.0,,,,,,1.0,,,,10.0,,KIGQ 010915Z AUTO 18007KT 10SM CLR 21/20 A3001 RMK AO2  T02100197,,,,,,67.45,,S,29.36,27.92,,Clear
KIGQ,09/01/2018 09:35 UTC,30.01,69.8,67.64,92.87,6.91,180.0,,,,,,1.0,,,,10.0,,KIGQ 010935Z AUTO 18006KT 10SM CLR 21/20 A3001 RMK AO2  T02100198,,,,,,67.63,,S,29.36,27.9,,Clear
KIGQ,09/01/2018 09:55 UTC,30.0,69.62,67.82,94.02,6.91,180.0,,,,,,1.0,,,,10.0,,KIGQ 010955Z AUTO 18006KT 10SM CLR 21/20 A3000 RMK AO2  T02090199,,,,,,67.81,,S,29.35,27.88,,Clear
KIGQ,09/01/2018 10:20 UTC,30.01,69.8,68.0,94.03,10.36,180.0,,,,,,1.0,,,,10.0,,KIGQ 011020Z AUTO 18009KT 10SM CLR 21/20 A3001 RMK AO2  T02100200,,,,,,67.99,,S,29.36,27.88,,Clear
KIGQ,09/01/2018 10:35 UTC,30.01,69.8,68.0,94.03,9.22,180.0,,,,,,82.0,,,,10.0,,KIGQ 011035Z AUTO 18008KT 10SM SCT008 21/20 A3001 RMK AO2  T02100200,,,,,,67.99,,S,29.36,27.88,,Partly Cloudy
KIGQ,09/01/2018 10:55 UTC,30.01,69.8,68.0,94.03,9.22,190.0,,,,,,82.0,902.0,,,10.0,,KIGQ 011055Z AUTO 19008KT 10SM SCT008 SCT090 21/20 A3001 RMK AO2  T02100200,,,,,,67.99,,S,29.36,27.88,,Partly Cloudy
KIGQ,09/01/2018 11:15 UTC,30.02,69.98,68.18,94.03,8.05,190.0,,,,,,82.0,902.0,,,10.0,,KIGQ 011115Z AUTO 19007KT 10SM SCT008 SCT090 21/20 A3002 RMK AO2  T02110201,,,,,,68.17,,S,29.37,27.88,,Partly Cloudy
KIGQ,09/01/2018 11:35 UTC,30.03,70.34,68.36,93.46,9.22,200.0,,,,,,904.0,,,,10.0,,KIGQ 011135Z AUTO 20008KT 10SM OVC090 21/20 A3003 RMK AO2 LTG DSNT  W T02130202,,,9000.0,,,68.35,,SSW,29.38,27.87,,Overcast
KIGQ,09/01/2018 11:55 UTC,30.03,70.7,68.54,92.9,9.22,190.0,,,,,,803.0,1004.0,,0.14,10.0,,KIGQ 011155Z AUTO 19008KT 10SM BKN080 OVC100 22/20 A3003 RMK AO2  LTG DSNT W AND NW 70014 T02150203 10215 20208,70.7,69.44,8000.0,,,68.53,,S,29.38,27.85,,Overcast
KIGQ,09/01/2018 12:15 UTC,30.03,71.06,68.9,92.91,11.5,200.0,,,,,,904.0,,,,10.0,,KIGQ 011215Z AUTO 20010KT 10SM OVC090 22/21 A3003 RMK AO2  T02170205,,,9000.0,,,68.89,,SSW,29.38,27.82,,Overcast
KIGQ,09/01/2018 12:35 UTC,30.04,71.6,68.9,91.23,10.36,200.0,,,,,,1004.0,,,,10.0,,KIGQ 011235Z AUTO 20009KT 10SM OVC100 22/21 A3004 RMK AO2 LTG DSNT  W T02200205,,,10000.0,,,68.89,,SSW,29.39,27.82,,Overcast
KIGQ,09/01/2018 12:55 UTC,30.04,71.24,68.9,92.34,9.22,200.0,,,,,,1004.0,,,,10.0,,KIGQ 011255Z AUTO 20008KT 10SM OVC100 22/21 A3004 RMK AO2 LTG DSNT  W AND NW T02180205,,,10000.0,,,68.89,,SSW,29.39,27.83,,Overcast
KIGQ,09/01/2018 13:15 UTC,30.04,71.6,69.08,91.79,9.22,190.0,,5.0,,,,1003.0,,,,10.0,,KIGQ 011315Z AUTO 19008KT 10SM VCTS BKN100 22/21 A3004 RMK AO2 LTG  DSNT N AND NW T02200206,,,10000.0,,,69.07,,S,29.39,27.81,,Thunder
KIGQ,09/01/2018 13:35 UTC,30.04,72.14,69.44,91.25,12.66,190.0,,,,,,1002.0,,,,10.0,,KIGQ 011335Z AUTO 19011KT 10SM SCT100 22/21 A3004 RMK AO2 LTG DSNT  W THRU N T02230208,,,,,,69.43,,S,29.39,27.78,,Partly Cloudy
KIGQ,09/01/2018 13:55 UTC,30.05,73.4,69.8,88.54,11.5,210.0,,5.0,,,,652.0,1002.0,,,10.0,,KIGQ 011355Z AUTO 21010KT 10SM VCTS SCT065 SCT100 23/21 A3005 RMK AO2 LTG DSNT W THRU N T02300210,,,,,,69.79,,SSW,29.4,27.74,,Thunder
KIGQ,09/01/2018 14:15 UTC,30.04,74.3,70.34,87.5,11.5,200.0,17.27,5.0,,,,653.0,853.0,,,10.0,,KIGQ 011415Z AUTO 20010G15KT 10SM VCTS BKN065 BKN085 24/21 A3004 RMK AO2 LTG DSNT W THRU N T02350213,,,6500.0,,,70.33,,SSW,29.39,27.68,,Thunder
KIGQ,09/01/2018 14:35 UTC,30.04,75.02,70.52,85.95,12.66,210.0,19.57,,903.0,,,372.0,652.0,,,10.0,,KIGQ 011435Z AUTO 21011G17KT 10SM SCT037 SCT065 BKN090 24/21 A3004 RMK AO2 LTG DSNT W THRU NE T02390214,,,9000.0,,,70.51,,SSW,29.39,27.65,,Mostly Cloudy
KIGQ,09/01/2018 14:55 UTC,30.04,75.56,70.34,83.9,17.27,210.0,20.71,5.0,903.0,,,413.0,503.0,,,10.0,,KIGQ 011455Z AUTO 21015G18KT 10SM VCTS BKN041 BKN050 BKN090 24/21  A3004 RMK AO2 LTG DSNT W THRU NE T02420213,,,4100.0,,,70.33,,SSW,29.39,27.66,,Thunder
KIGQ,09/01/2018 15:15 UTC,30.06,75.2,70.34,84.92,11.5,210.0,17.27,13.0,554.0,,,312.0,443.0,,,10.0,,KIGQ 011515Z AUTO 21010G15KT 10SM -RA SCT031 BKN044 OVC055 24/21  A3006 RMK AO2 LTG DSNT W THRU NE T02400213,,,4400.0,,,70.34,,SSW,29.41,27.69,,Light Rain
KIGQ,09/01/2018 15:35 UTC,30.05,74.48,71.24,89.68,5.75,210.0,,,904.0,,,292.0,603.0,,,10.0,,KIGQ 011535Z AUTO 21005KT 10SM SCT029 BKN060 OVC090 24/22 A3005 RMK AO2 LTG DSNT NE T02360218,,,6000.0,,,71.24,,SSW,29.4,27.62,,Overcast
KIGQ,09/01/2018 15:55 UTC,30.06,76.28,72.14,87.07,8.05,220.0,,,1203.0,,,602.0,903.0,,,10.0,,KIGQ 011555Z AUTO 22007KT 10SM SCT060 BKN090 BKN120 25/22 A3006 RMK AO2 LTG DSNT NE T02460223,,,9000.0,,,72.14,,SW,29.41,27.53,,Mostly Cloudy
KIGQ,09/01/2018 16:15 UTC,30.04,78.26,72.68,83.06,9.22,190.0,,,,,,152.0,1202.0,,,10.0,,KIGQ 011615Z AUTO 19008KT 10SM SCT015 SCT120 26/23 A3004 RMK AO2  LTG DSNT NE T02570226,,,,,,72.68,,S,29.39,27.44,,Partly Cloudy
KIGQ,09/01/2018 16:35 UTC,30.05,79.52,72.32,78.74,11.5,220.0,,,,,,172.0,,,,10.0,,KIGQ 011635Z AUTO 22010KT 10SM SCT017 26/22 A3005 RMK AO2 LTG DSNT  NE T02640224,,,,,,72.33,,SW,29.4,27.46,,Partly Cloudy
KIGQ,09/01/2018 16:55 UTC,30.05,78.26,71.78,80.58,9.22,210.0,,,,,,193.0,,,,10.0,,KIGQ 011655Z AUTO 21008KT 10SM BKN019 26/22 A3005 RMK AO2 LTG DSNT  NE T02570221,,,1900.0,,,71.78,,SSW,29.4,27.52,,Mostly Cloudy
KIGQ,09/01/2018 17:15 UTC,30.06,78.26,71.6,80.09,9.22,230.0,,13.0,,,,192.0,252.0,,,10.0,,KIGQ 011715Z AUTO 23008KT 10SM -RA SCT019 SCT025 26/22 A3006 RMK AO2 LTG DSNT NE T02570220,,,,,,71.6,,SW,29.41,27.55,,Light Rain
KIGQ,09/01/2018 17:35 UTC,30.07,79.34,72.14,78.72,10.36,220.0,,,,,,272.0,342.0,,,10.0,,KIGQ 011735Z AUTO 22009KT 10SM SCT027 SCT034 26/22 A3007 RMK AO2  LTG DSNT NE T02630223,,,,,,72.14,,SW,29.42,27.5,,Partly Cloudy
KIGQ,09/01/2018 18:00 UTC,30.03,78.98,71.78,78.7,11.5,190.0,16.11,,372.0,,,222.0,272.0,,,10.0,,KIGQ 011800Z AUTO 19010G14KT 10SM SCT022 SCT027 SCT037 26/22 A3003 RMK AO2 T02610221,,,,,,71.79,,S,29.38,27.49,,Partly Cloudy
KIGQ,09/01/2018 18:15 UTC,30.01,78.8,71.6,78.68,11.5,190.0,,17.0,372.0,,,222.0,272.0,,,10.0,,KIGQ 011815Z AUTO 19010KT 10SM -DZ SCT022 SCT027 SCT037 26/22  A3001 RMK AO2 T02600220,,,,,,71.6,,S,29.36,27.49,,Light Drizzle
KIGQ,09/01/2018 18:35 UTC,30.01,79.7,72.5,78.75,10.36,190.0,,,,,,1.0,,,,10.0,,KIGQ 011835Z AUTO 19009KT 10SM CLR 27/23 A3001 RMK AO2  T02650225,,,,,,72.51,,S,29.36,27.4,,Clear
KIGQ,09/01/2018 18:55 UTC,30.01,80.24,71.78,75.52,10.36,210.0,,,,,,1.0,,,,10.0,,KIGQ 011855Z AUTO 21009KT 10SM CLR 27/22 A3001 RMK AO2  T02680221,,,,,,71.79,,SSW,29.36,27.45,84.1,Clear
KIGQ,09/01/2018 19:15 UTC,30.01,81.86,72.32,72.97,12.66,220.0,17.27,,,,,1.0,,,,10.0,,KIGQ 011915Z AUTO 22011G15KT 10SM CLR 28/22 A3001 RMK AO2  T02770224,,,,,,72.34,,SW,29.36,27.39,86.82,Clear
KIGQ,09/01/2018 19:35 UTC,30.01,81.5,71.6,72.05,12.66,210.0,18.41,,,,,1.0,,,,10.0,,KIGQ 011935Z AUTO 21011G16KT 10SM CLR 28/22 A3001 RMK AO2  T02750220,,,,,,71.62,,SSW,29.36,27.45,85.92,Clear
KIGQ,09/01/2018 19:55 UTC,29.99,81.5,71.78,72.49,13.8,200.0,,,,,,1.0,,,,10.0,,KIGQ 011955Z AUTO 20012KT 10SM CLR 28/22 A2999 RMK AO2  T02750221,,,,,,71.8,,SSW,29.34,27.41,86.0,Clear
KIGQ,09/01/2018 20:15 UTC,29.99,82.58,72.5,71.72,11.5,210.0,16.11,,,,,1.0,,,,10.0,,KIGQ 012015Z AUTO 21010G14KT 10SM CLR 28/23 A2999 RMK AO2  T02810225,,,,,,72.52,,SSW,29.34,27.34,87.98,Clear
KIGQ,09/01/2018 20:35 UTC,29.97,82.94,72.32,70.46,13.8,210.0,,,,,,272.0,,,,10.0,,KIGQ 012035Z AUTO 21012KT 10SM SCT027 28/22 A2997 RMK AO2  T02830224,,,,,,72.34,,SSW,29.32,27.33,88.39,Partly Cloudy
KIGQ,09/01/2018 20:55 UTC,29.97,84.38,71.24,64.87,16.11,220.0,23.02,,,,,292.0,,,,10.0,,KIGQ 012055Z AUTO 22014G20KT 10SM SCT029 29/22 A2997 RMK AO2  T02910218,,,,,,71.28,,SW,29.32,27.4,89.62,Partly Cloudy
KIGQ,09/01/2018 21:15 UTC,29.97,84.2,70.34,63.28,18.41,210.0,25.32,,,,,1.0,,,,10.0,,KIGQ 012115Z AUTO 21016G22KT 10SM CLR 29/21 A2997 RMK AO2  T02900213,,,,,,70.38,,SSW,29.32,27.47,88.8,Clear
KIGQ,09/01/2018 21:35 UTC,29.97,84.2,71.06,64.85,14.97,210.0,25.32,,,,,1.0,,,,10.0,,KIGQ 012135Z AUTO 21013G22KT 10SM CLR 29/22 A2997 RMK AO2  T02900217,,,,,,71.1,,SSW,29.32,27.42,89.27,Clear
KIGQ,09/01/2018 21:55 UTC,29.98,83.48,71.24,66.77,13.8,200.0,18.41,,,,,1.0,,,,10.0,,KIGQ 012155Z AUTO 20012G16KT 10SM CLR 29/22 A2998 RMK AO2  T02860218,,,,,,71.27,,SSW,29.33,27.42,88.45,Clear
KIGQ,09/01/2018 22:15 UTC,29.99,83.12,71.42,67.96,8.05,200.0,,,,,,1.0,,,,10.0,,KIGQ 012215Z AUTO 20007KT 10SM CLR 28/22 A2999 RMK AO2  T02840219,,,,,,71.45,,SSW,29.34,27.42,88.08,Clear
KIGQ,09/01/2018 22:35 UTC,29.99,83.48,71.78,68.0,11.5,200.0,,,,,,1.0,,,,10.0,,KIGQ 012235Z AUTO 20010KT 10SM CLR 29/22 A2999 RMK AO2  T02860221,,,,,,71.81,,SSW,29.34,27.39,88.79,Clear
KIGQ,09/01/2018 22:55 UTC,29.99,83.12,71.06,67.14,8.05,190.0,,,,,,602.0,,,,10.0,,KIGQ 012255Z AUTO 19007KT 10SM SCT060 28/22 A2999 RMK AO2  T02840217,,,,,,71.09,,S,29.34,27.45,87.86,Partly Cloudy
KIGQ,09/01/2018 23:15 UTC,29.99,82.4,71.6,69.98,8.05,190.0,,,,,,412.0,602.0,,,10.0,,KIGQ 012315Z AUTO 19007KT 10SM SCT041 SCT060 28/22 A2999 RMK AO2  LTG DSNT NE T02800220,,,,,,71.62,,S,29.34,27.42,87.19,Partly Cloudy
KIGQ,09/01/2018 23:35 UTC,30.0,80.96,71.42,72.88,6.91,210.0,,,,,,412.0,,,,10.0,,KIGQ 012335Z AUTO 21006KT 10SM SCT041 27/22 A3000 RMK AO2 LTG DSNT  N T02720219,,,,,,71.43,,SSW,29.35,27.46,85.05,Partly Cloudy
KIGQ,09/01/2018 23:55 UTC,29.99,81.14,69.44,67.74,9.22,220.0,,,,,,1.0,,,,10.0,,KIGQ 012355Z AUTO 22008KT 10SM CLR 27/21 A2999 RMK AO2 LTG DSNT N  T02730208 10292 20260,84.56,78.8,,,,69.46,,SW,29.34,27.6,84.48,Clear
KIGQ,09/02/2018 00:15 UTC,30.0,80.24,68.72,68.06,8.05,220.0,,,,,,752.0,852.0,,,10.0,,KIGQ 020015Z AUTO 22007KT 10SM SCT075 SCT085 27/20 A3000 RMK AO2  LTG DSNT NW THRU NE T02680204,,,,,,68.73,,SW,29.35,27.68,83.09,Partly Cloudy
KIGQ,09/02/2018 00:35 UTC,30.0,80.06,68.9,68.88,8.05,220.0,,,,,,753.0,904.0,,,10.0,,KIGQ 020035Z AUTO 22007KT 200V320 10SM BKN075 OVC090 27/21 A3000 RMK AO2 T02670205,,,7500.0,,,68.91,,SW,29.35,27.67,82.91,Overcast
KIGQ,09/02/2018 00:55 UTC,30.0,77.54,69.26,75.74,6.91,180.0,,,,,,903.0,,,,10.0,,KIGQ 020055Z AUTO 18006KT 10SM BKN090 25/21 A3000 RMK AO2 LTG DSNT  NE T02530207,,,9000.0,,,69.26,,S,29.35,27.67,,Mostly Cloudy
KIGQ,09/02/2018 01:15 UTC,30.0,77.36,69.8,77.61,8.05,190.0,,,,,,803.0,903.0,,,10.0,,KIGQ 020115Z AUTO 19007KT 10SM BKN080 BKN090 25/21 A3000 RMK AO2  LTG DSNT NW THRU NE T02520210,,,8000.0,,,69.8,,S,29.35,27.64,,Mostly Cloudy
KIGQ,09/02/2018 01:35 UTC,30.0,77.36,69.8,77.61,8.05,200.0,,,,,,802.0,904.0,,,10.0,,KIGQ 020135Z AUTO 20007KT 10SM SCT080 OVC090 25/21 A3000 RMK AO2  LTG DSNT N AND NE T02520210,,,9000.0,,,69.8,,SSW,29.35,27.64,,Overcast
KIGQ,09/02/2018 01:55 UTC,30.01,76.82,69.98,79.49,5.75,200.0,,,,,,902.0,,,,10.0,,KIGQ 020155Z AUTO 20005KT 10SM SCT090 25/21 A3001 RMK AO2 LTG DSNT  NE T02490211,,,,,,69.98,,SSW,29.36,27.64,,Partly Cloudy
KIGQ,09/02/2018 02:15 UTC,30.0,75.56,70.16,83.39,8.05,190.0,,,,,,902.0,,,,10.0,,KIGQ 020215Z AUTO 19007KT 10SM SCT090 24/21 A3000 RMK AO2 LTG DSNT  NW THRU NE T02420212,,,,,,70.15,,S,29.35,27.63,,Partly Cloudy
KIGQ,09/02/2018 02:35 UTC,30.0,75.74,70.34,83.4,6.91,190.0,,,,,,902.0,,,,10.0,,KIGQ 020235Z AUTO 19006KT 10SM SCT090 24/21 A3000 RMK AO2 LTG DSNT  NW T02430213,,,,,,70.33,,S,29.35,27.62,,Partly Cloudy
KIGQ,09/02/2018 02:55 UTC,30.0,76.1,70.7,83.43,8.05,180.0,,,,,,903.0,,,,10.0,,KIGQ 020255Z AUTO 18007KT 10SM BKN090 25/22 A3000 RMK AO2 LTG DSNT  N AND NW T02450215,,,9000.0,,,70.7,,S,29.35,27.58,,Mostly Cloudy
KIGQ,09/02/2018 03:15 UTC,30.01,77.0,70.88,81.47,6.91,200.0,,,,,,902.0,,,,10.0,,KIGQ 020315Z AUTO 20006KT 10SM SCT090 25/22 A3001 RMK AO2 LTG DSNT  N AND NW T02500216,,,,,,70.88,,SSW,29.36,27.57,,Partly Cloudy
KIGQ,09/02/2018 03:35 UTC,30.01,76.1,70.7,83.43,8.05,180.0,,,,,,902.0,,,,10.0,,KIGQ 020335Z AUTO 18007KT 10SM SCT090 25/22 A3001 RMK AO2 LTG DSNT  NW THRU NE T02450215,,,,,,70.7,,S,29.36,27.59,,Partly Cloudy
KIGQ,09/02/2018 03:55 UTC,30.02,75.74,71.06,85.47,8.05,190.0,,,,,,902.0,,,,10.0,,KIGQ 020355Z AUTO 19007KT 10SM SCT090 24/22 A3002 RMK AO2 LTG DSNT  NW THRU NE T02430217,,,,,,71.06,,S,29.37,27.58,,Partly Cloudy
KIGQ,09/02/2018 04:15 UTC,30.03,76.46,71.06,83.45,8.05,200.0,,,,,,852.0,,,,10.0,,KIGQ 020415Z AUTO 20007KT 10SM SCT085 25/22 A3003 RMK AO2 LTG DSNT  NW T02470217,,,,,,71.06,,SSW,29.38,27.58,,Partly Cloudy
KIGQ,09/02/2018 04:35 UTC,30.03,76.1,70.7,83.43,8.05,190.0,,,,,,852.0,,,,10.0,,KIGQ 020435Z AUTO 19007KT 10SM SCT085 25/22 A3003 RMK AO2 LTG DSNT  N AND NE T02450215,,,,,,70.7,,S,29.38,27.62,,Partly Cloudy
KIGQ,09/02/2018 04:55 UTC,30.03,76.28,70.7,82.93,8.05,200.0,,,,,,1.0,,,,10.0,,KIGQ 020455Z AUTO 20007KT 10SM CLR 25/22 A3003 RMK AO2 LTG DSNT NE  AND NW T02460215,,,,,,70.7,,SSW,29.38,27.61,,Clear
KIGQ,09/02/2018 05:15 UTC,30.03,75.38,70.34,84.41,6.91,190.0,,,,,,1202.0,,,,10.0,,KIGQ 020515Z AUTO 19006KT 10SM SCT120 24/21 A3003 RMK AO2 LTG DSNT  NE T02410213,,,,,,70.34,,S,29.38,27.65,,Partly Cloudy
KIGQ,09/02/2018 05:35 UTC,30.03,75.56,70.16,83.39,8.05,200.0,,,,,,902.0,1202.0,,,10.0,,KIGQ 020535Z AUTO 20007KT 10SM SCT090 SCT120 24/21 A3003 RMK AO2  LTG DSNT N AND NE T02420212,,,,,,70.15,,SSW,29.38,27.66,,Partly Cloudy
KIGQ,09/02/2018 05:55 UTC,30.04,76.28,70.34,81.92,6.91,200.0,,,,,,904.0,,,,10.0,,KIGQ 020555Z AUTO 20006KT 10SM OVC090 25/21 A3004 RMK AO2 LTG DSNT  NE AND NW T02460213 10272 20240 402920208,80.96,75.2,9000.0,84.56,69.44,70.34,,SSW,29.39,27.65,,Overcast
KIGQ,09/02/2018 06:15 UTC,30.05,75.92,70.16,82.4,9.22,200.0,,,,,,902.0,,,,10.0,,KIGQ 020615Z AUTO 20008KT 10SM SCT090 24/21 A3005 RMK AO2  T02440212,,,,,,70.16,,SSW,29.4,27.68,,Partly Cloudy
KIGQ,09/02/2018 06:35 UTC,30.04,76.1,69.98,81.41,9.22,190.0,,,,,,1103.0,,,,10.0,,KIGQ 020635Z AUTO 19008KT 10SM BKN110 25/21 A3004 RMK AO2 LTG DSNT  NW T02450211,,,11000.0,,,69.98,,S,29.39,27.68,,Mostly Cloudy
KIGQ,09/02/2018 06:55 UTC,30.04,75.2,69.8,83.37,9.22,190.0,,,,,,1102.0,,,,10.0,,KIGQ 020655Z AUTO 19008KT 10SM SCT110 24/21 A3004 RMK AO2 LTG DSNT  NW THRU NE T02400210,,,,,,69.79,,S,29.39,27.71,,Partly Cloudy
KIGQ,09/02/2018 07:15 UTC,30.04,74.66,69.8,84.88,9.22,200.0,,,,,,1.0,,,,10.0,,KIGQ 020715Z AUTO 20008KT 10SM CLR 24/21 A3004 RMK AO2 LTG DSNT NW  THRU NE T02370210,,,,,,69.79,,SSW,29.39,27.71,,Clear
KIGQ,09/02/2018 07:35 UTC,30.05,74.84,69.8,84.37,9.22,200.0,,,,,,1.0,,,,10.0,,KIGQ 020735Z AUTO 20008KT 10SM CLR 24/21 A3005 RMK AO2 LTG DSNT N  AND NW T02380210,,,,,,69.79,,SSW,29.4,27.72,,Clear
KIGQ,09/02/2018 07:55 UTC,30.06,74.66,69.8,84.88,10.36,210.0,,,,,,1102.0,,,,10.0,,KIGQ 020755Z AUTO 21009KT 10SM SCT110 24/21 A3006 RMK AO2 LTG DSNT  N AND NW T02370210,,,,,,69.79,,SSW,29.41,27.73,,Partly Cloudy
KIGQ,09/02/2018 08:15 UTC,30.07,74.84,69.8,84.37,6.91,220.0,,,,,,1104.0,,,,10.0,,KIGQ 020815Z AUTO 22006KT 10SM OVC110 24/21 A3007 RMK AO2 LTG DSNT  NW T02380210,,,11000.0,,,69.79,,SW,29.42,27.74,,Overcast
KIGQ,09/02/2018 08:35 UTC,30.08,75.2,69.8,83.37,6.91,230.0,,,,,,452.0,1204.0,,,10.0,,KIGQ 020835Z AUTO 23006KT 10SM SCT045 OVC120 24/21 A3008 RMK AO2  LTG DSNT N AND NW T02400210,,,12000.0,,,69.79,,SW,29.43,27.75,,Overcast
KIGQ,09/02/2018 08:55 UTC,30.08,74.66,69.8,84.88,5.75,230.0,,,,,,452.0,1204.0,,,10.0,,KIGQ 020855Z AUTO 23005KT 10SM SCT045 OVC120 24/21 A3008 RMK AO2  LTG DSNT N AND NE T02370210,,,12000.0,,,69.79,,SW,29.43,27.75,,Overcast
KIGQ,09/02/2018 09:15 UTC,30.1,74.66,69.98,85.41,5.75,310.0,,,,,,434.0,,,,10.0,,KIGQ 020915Z AUTO 31005KT 10SM OVC043 24/21 A3010 RMK AO2  T02370211,,,4300.0,,,69.98,,NW,29.45,27.76,,Overcast
KIGQ,09/02/2018 09:35 UTC,30.09,74.84,69.8,84.37,0.0,0.0,,,,,,172.0,414.0,,,10.0,,KIGQ 020935Z AUTO 00000KT 10SM SCT017 OVC041 24/21 A3009 RMK AO2  LTG DSNT NE T02380210,,,4100.0,,,69.79,,N,29.44,27.76,,Overcast
KIGQ,09/02/2018 09:55 UTC,30.1,75.56,69.8,82.38,5.75,280.0,,,,,,173.0,414.0,,,10.0,,KIGQ 020955Z AUTO 28005KT 10SM BKN017 OVC041 24/21 A3010 RMK AO2  T02420210,,,1700.0,,,69.8,,W,29.45,27.76,,Overcast
KIGQ,09/02/2018 10:15 UTC,30.09,75.2,68.9,80.85,0.0,0.0,,,,,,194.0,,,,10.0,,KIGQ 021015Z AUTO 00000KT 10SM OVC019 24/21 A3009 RMK AO2  T02400205,,,1900.0,,,68.89,,N,29.44,27.82,,Overcast
KIGQ,09/02/2018 10:35 UTC,30.08,74.66,68.0,79.81,0.0,0.0,,,,,,214.0,,,,10.0,,KIGQ 021035Z AUTO 00000KT 10SM OVC021 24/20 A3008 RMK AO2  T02370200,,,2100.0,,,67.99,,N,29.43,27.88,,Overcast
KIGQ,09/02/2018 10:55 UTC,30.08,74.3,69.26,84.34,5.75,140.0,,,,,,224.0,,,,10.0,,KIGQ 021055Z AUTO 14005KT 10SM OVC022 24/21 A3008 RMK AO2  T02350207,,,2200.0,,,69.25,,SE,29.43,27.8,,Overcast
KIGQ,09/02/2018 11:15 UTC,30.09,73.58,69.8,88.01,4.61,150.0,,,,,,223.0,373.0,,,10.0,,KIGQ 021115Z AUTO 15004KT 10SM BKN022 BKN037 23/21 A3009 RMK AO2  T02310210,,,2200.0,,,69.79,,SSE,29.44,27.78,,Mostly Cloudy
KIGQ,09/02/2018 11:35 UTC,30.1,73.4,69.98,89.08,3.44,140.0,,,503.0,,,372.0,453.0,,,10.0,,KIGQ 021135Z AUTO 14003KT 10SM SCT037 BKN045 BKN050 23/21 A3010 RMK AO2 T02300211,,,4500.0,,,69.97,,SE,29.45,27.78,,Mostly Cloudy
KIGQ,09/02/2018 11:55 UTC,30.11,73.76,70.16,88.56,4.61,140.0,,,454.0,,,242.0,353.0,,,10.0,,KIGQ 021155Z AUTO 14004KT 10SM SCT024 BKN035 OVC045 23/21 A3011 RMK AO2 T02320212 10245 20230,76.1,73.4,3500.0,,,70.16,,SE,29.46,27.77,,Overcast
KIGQ,09/02/2018 12:15 UTC,30.12,73.76,69.98,88.01,5.75,150.0,,,402.0,,,242.0,332.0,,,10.0,,KIGQ 021215Z AUTO 15005KT 10SM SCT024 SCT033 SCT040 23/21 A3012 RMK AO2 T02320211,,,,,,69.97,,SSE,29.47,27.79,,Partly Cloudy
KIGQ,09/02/2018 12:35 UTC,30.12,74.3,70.16,86.97,4.61,150.0,,,802.0,,,322.0,652.0,,,10.0,,KIGQ 021235Z AUTO 15004KT 10SM SCT032 SCT065 SCT080 24/21 A3012 RMK AO2 T02350212,,,,,,70.15,,SSE,29.47,27.77,,Partly Cloudy
KIGQ,09/02/2018 12:55 UTC,30.13,74.66,70.16,85.93,6.91,170.0,,,462.0,,,322.0,392.0,,,10.0,,KIGQ 021255Z AUTO 17006KT 10SM SCT032 SCT039 SCT046 24/21 A3013 RMK AO2 T02370212,,,,,,70.15,,S,29.47,27.77,,Partly Cloudy
KIGQ,09/02/2018 13:15 UTC,30.12,76.46,70.16,80.94,10.36,180.0,,,903.0,,,282.0,392.0,,,10.0,,KIGQ 021315Z AUTO 18009KT 10SM SCT028 SCT039 BKN090 25/21 A3012 RMK AO2 T02470212,,,9000.0,,,70.16,,S,29.47,27.74,,Mostly Cloudy
KIGQ,09/02/2018 13:35 UTC,30.12,76.46,70.52,81.93,6.91,200.0,,13.0,854.0,,,332.0,553.0,,,10.0,,KIGQ 021335Z AUTO 20006KT 10SM -RA SCT033 BKN055 OVC085 25/21  A3012 RMK AO2 T02470214,,,5500.0,,,70.52,,SSW,29.47,27.72,,Light Rain
KIGQ,09/02/2018 13:55 UTC,30.11,76.1,69.98,81.41,10.36,210.0,,,654.0,,,392.0,463.0,,,10.0,,KIGQ 021355Z AUTO 21009KT 10SM SCT039 BKN046 OVC065 25/21 A3011 RMK AO2 T02450211,,,4600.0,,,69.98,,SSW,29.46,27.75,,Overcast
KIGQ,09/02/2018 14:15 UTC,30.12,77.9,70.7,78.61,10.36,200.0,16.11,,903.0,,,412.0,653.0,,,10.0,,KIGQ 021415Z AUTO 20009G14KT 10SM SCT041 BKN065 BKN090 26/22 A3012 RMK AO2 T02550215,,,6500.0,,,70.7,,SSW,29.47,27.68,,Mostly Cloudy
KIGQ,09/02/2018 14:35 UTC,30.11,78.62,70.52,76.3,11.5,210.0,,,902.0,,,402.0,702.0,,,10.0,,KIGQ 021435Z AUTO 21010KT 10SM SCT040 SCT070 SCT090 26/21 A3011 RMK AO2 T02590214,,,,,,70.52,,SSW,29.46,27.68,,Partly Cloudy
KIGQ,09/02/2018 14:55 UTC,30.11,78.8,71.06,77.26,9.22,210.0,,,,,,402.0,,,,10.0,,KIGQ 021455Z AUTO 21008KT 10SM SCT040 26/22 A3011 RMK AO2  T02600217,,,,,,71.07,,SSW,29.46,27.63,,Partly Cloudy
KIGQ,09/02/2018 15:15 UTC,30.11,79.7,71.24,75.47,10.36,230.0,,,,,,1.0,,,,10.0,,KIGQ 021515Z AUTO 23009KT 10SM CLR 27/22 A3011 RMK AO2  T02650218,,,,,,71.25,,SW,29.46,27.6,,Clear
KIGQ,09/02/2018 15:35 UTC,30.11,81.68,71.96,72.51,10.36,210.0,,,,,,1.0,,,,10.0,,KIGQ 021535Z AUTO 21009KT 10SM CLR 28/22 A3011 RMK AO2  T02760222,,,,,,71.98,,SSW,29.46,27.52,86.36,Clear
KIGQ,09/02/2018 15:55 UTC,30.1,81.86,71.42,70.78,11.5,220.0,,,,,,1.0,,,,10.0,,KIGQ 021555Z AUTO 22010KT 10SM CLR 28/22 A3010 RMK AO2  T02770219,,,,,,71.44,,SW,29.45,27.55,86.34,Clear
KIGQ,09/02/2018 16:15 UTC,30.09,83.66,71.6,67.2,10.36,230.0,,,,,,1.0,,,,10.0,,KIGQ 021615Z AUTO 23009KT 10SM CLR 29/22 A3009 RMK AO2  T02870220,,,,,,71.63,,SW,29.44,27.5,88.92,Clear
KIGQ,09/02/2018 16:35 UTC,30.09,84.56,71.96,66.08,10.36,220.0,17.27,,,,,292.0,373.0,,,10.0,,KIGQ 021635Z AUTO 22009G15KT 10SM SCT029 BKN037 29/22 A3009 RMK AO2 T02920222,,,3700.0,,,72.0,,SW,29.44,27.46,90.37,Mostly Cloudy
KIGQ,09/02/2018 16:55 UTC,30.09,85.28,71.6,63.8,13.8,210.0,23.02,,,,,312.0,372.0,,,10.0,,KIGQ 021655Z AUTO 21012G20KT 10SM SCT031 SCT037 30/22 A3009 RMK AO2 T02960220,,,,,,71.65,,SSW,29.44,27.48,91.04,Partly Cloudy
KIGQ,09/02/2018 17:15 UTC,30.09,86.0,71.42,61.97,13.8,220.0,20.71,,502.0,,,332.0,422.0,,,10.0,,KIGQ 021715Z AUTO 22012G18KT 10SM SCT033 SCT042 SCT050 30/22 A3009 RMK AO2 T03000219,,,,,,71.47,,SW,29.44,27.49,91.82,Partly Cloudy
KIGQ,09/02/2018 17:35 UTC,30.08,87.26,71.96,60.64,11.5,200.0,,,502.0,,,352.0,422.0,,,10.0,,KIGQ 021735Z AUTO 20010KT 10SM SCT035 SCT042 SCT050 31/22 A3008 RMK AO2 T03070222,,,,,,72.03,,SSW,29.43,27.42,93.87,Partly Cloudy
KIGQ,09/02/2018 17:55 UTC,30.08,86.72,70.52,58.75,10.36,220.0,18.41,,953.0,,,392.0,502.0,,,10.0,,KIGQ 021755Z AUTO 22009G16KT 10SM SCT039 SCT050 BKN095 30/21 A3008 RMK AO2 LTG DSNT W T03040214 10308 20232,87.44,73.76,9500.0,,,70.58,,SW,29.43,27.54,92.02,Mostly Cloudy
KIGQ,09/02/2018 18:15 UTC,30.07,88.16,70.16,55.45,16.11,200.0,20.71,,753.0,,,413.0,503.0,,,10.0,,KIGQ 021815Z AUTO 20014G18KT 10SM BKN041 BKN050 BKN075 31/21 A3007 RMK AO2 T03120212,,,4100.0,,,70.24,,SSW,29.42,27.54,93.47,Mostly Cloudy
KIGQ,09/02/2018 18:35 UTC,30.07,87.44,69.8,56.04,14.97,220.0,23.02,,,,,432.0,503.0,,,10.0,,KIGQ 021835Z AUTO 22013G20KT 10SM SCT043 BKN050 31/21 A3007 RMK AO2 T03080210,,,5000.0,,,69.88,,SW,29.42,27.58,92.33,Mostly Cloudy
KIGQ,09/02/2018 18:55 UTC,30.06,87.26,69.8,56.36,16.11,220.0,19.57,,753.0,,,442.0,503.0,,,10.0,,KIGQ 021855Z AUTO 22014G17KT 10SM SCT044 BKN050 BKN075 31/21 A3006 RMK AO2 T03070210,,,5000.0,,,69.88,,SW,29.41,27.57,92.12,Mostly Cloudy
KIGQ,09/02/2018 19:15 UTC,30.06,88.7,67.82,50.33,12.66,210.0,21.85,,753.0,,,502.0,602.0,,,10.0,,KIGQ 021915Z AUTO 21011G19KT 10SM SCT050 SCT060 BKN075 32/20 A3006 RMK AO2 T03150199,,,7500.0,,,67.92,,SSW,29.41,27.71,92.37,Mostly Cloudy
KIGQ,09/02/2018 19:35 UTC,30.05,88.34,67.64,50.59,12.66,210.0,20.71,,,,,502.0,,,,10.0,,KIGQ 021935Z AUTO 21011G18KT 10SM SCT050 31/20 A3005 RMK AO2  T03130198,,,,,,67.74,,SSW,29.4,27.71,91.84,Partly Cloudy
KIGQ,09/02/2018 19:55 UTC,30.05,89.06,68.0,50.07,17.27,200.0,24.16,,,,,502.0,652.0,,,10.0,,KIGQ 021955Z AUTO 20015G21KT 10SM SCT050 SCT065 32/20 A3005 RMK AO2 T03170200,,,,,,68.11,,SSW,29.4,27.68,92.91,Partly Cloudy
KIGQ,09/02/2018 20:15 UTC,30.04,89.24,68.18,50.09,12.66,200.0,,,,,,552.0,,,,10.0,,KIGQ 022015Z AUTO 20011KT 10SM SCT055 32/20 A3004 RMK AO2  T03180201,,,,,,68.28,,SSW,29.39,27.65,93.24,Partly Cloudy
KIGQ,09/02/2018 20:35 UTC,30.04,88.88,69.26,52.57,14.97,200.0,20.71,,,,,552.0,,,,10.0,,KIGQ 022035Z AUTO 20013G18KT 10SM SCT055 32/21 A3004 RMK AO2  T03160207,,,,,,69.36,,SSW,29.39,27.57,93.62,Partly Cloudy
KIGQ,09/02/2018 20:55 UTC,30.04,88.7,69.08,52.55,16.11,220.0,,,852.0,,,502.0,552.0,,,10.0,,KIGQ 022055Z AUTO 22014KT 10SM SCT050 SCT055 SCT085 32/21 A3004 RMK AO2 T03150206,,,,,,69.18,,SW,29.39,27.59,93.28,Partly Cloudy
KIGQ,09/02/2018 21:15 UTC,30.03,88.7,69.8,53.85,12.66,210.0,18.41,,,,,482.0,502.0,,,10.0,,KIGQ 022115Z AUTO 21011G16KT 10SM SCT048 SCT050 32/21 A3003 RMK AO2 T03150210,,,,,,69.89,,SSW,29.38,27.52,93.83,Partly Cloudy
KIGQ,09/02/2018 21:35 UTC,30.02,87.8,69.98,55.74,12.66,210.0,16.11,,703.0,,,502.0,603.0,,,10.0,,KIGQ 022135Z AUTO 21011G14KT 10SM SCT050 BKN060 BKN070 31/21 A3002 RMK AO2 T03100211,,,6000.0,,,70.06,,SSW,29.37,27.51,92.9,Mostly Cloudy
KIGQ,09/02/2018 21:55 UTC,30.02,88.34,68.36,51.85,19.57,200.0,24.16,,,,,603.0,,,,10.0,,KIGQ 022155Z AUTO 20017G21KT 10SM BKN060 31/20 A3002 RMK AO2  T03130202,,,6000.0,,,68.45,,SSW,29.37,27.63,92.33,Mostly Cloudy
KIGQ,09/02/2018 22:15 UTC,30.02,86.9,68.72,54.94,13.8,200.0,19.57,,803.0,,,553.0,703.0,,,10.0,,KIGQ 022215Z AUTO 20012G17KT 10SM BKN055 BKN070 BKN080 31/20 A3002 RMK AO2 T03050204,,,5500.0,,,68.79,,SSW,29.37,27.62,90.93,Mostly Cloudy
KIGQ,09/02/2018 22:35 UTC,30.03,86.9,68.9,55.28,13.8,190.0,,,,,,552.0,702.0,,,10.0,,KIGQ 022235Z AUTO 19012KT 10SM SCT055 SCT070 31/21 A3003 RMK AO2  T03050205,,,,,,68.97,,S,29.38,27.61,91.06,Partly Cloudy
KIGQ,09/02/2018 22:55 UTC,30.03,86.36,68.36,55.2,11.5,220.0,,,,,,552.0,,,,10.0,,KIGQ 022255Z AUTO 22010KT 10SM SCT055 30/20 A3003 RMK AO2  T03020202,,,,,,68.43,,SW,29.38,27.66,90.08,Partly Cloudy
KIGQ,09/02/2018 23:15 UTC,30.03,86.0,68.0,55.15,12.66,220.0,17.27,,,,,652.0,,,,10.0,,KIGQ 022315Z AUTO 22011G15KT 10SM SCT065 30/20 A3003 RMK AO2  T03000200,,,,,,68.06,,SW,29.38,27.69,89.45,Partly Cloudy
KIGQ,09/02/2018 23:35 UTC,30.04,84.92,67.82,56.74,10.36,220.0,,,,,,1.0,,,,10.0,,KIGQ 022335Z AUTO 22009KT 200V350 10SM CLR 29/20 A3004 RMK AO2  T02940199,,,,,,67.88,,SW,29.39,27.73,88.14,Clear
KIGQ,09/02/2018 23:55 UTC,30.04,83.66,67.1,57.63,9.22,210.0,,,,,,1.0,,,,10.0,,KIGQ 022355Z AUTO 21008KT 200V290 10SM CLR 29/20 A3004 RMK AO2  T02870195 10320 20287,89.6,83.66,,,,67.14,,SSW,29.39,27.8,86.38,Clear
KIGQ,09/03/2018 00:15 UTC,30.04,82.22,67.28,60.74,9.22,210.0,,,,,,1.0,,,,10.0,,KIGQ 030015Z AUTO 21008KT 10SM CLR 28/20 A3004 RMK AO2  T02790196,,,,,,67.31,,SSW,29.39,27.8,84.89,Clear
KIGQ,09/03/2018 00:35 UTC,30.04,81.5,66.74,61.03,8.05,210.0,,,,,,1.0,,,,10.0,,KIGQ 030035Z AUTO 21007KT 10SM CLR 28/19 A3004 RMK AO2 LTG DSNT W  T02750193,,,,,,66.77,,SSW,29.39,27.85,83.9,Clear
KIGQ,09/03/2018 00:55 UTC,30.06,80.06,66.56,63.56,8.05,200.0,,,,,,1.0,,,,10.0,,KIGQ 030055Z AUTO 20007KT 10SM CLR 27/19 A3006 RMK AO2  T02670192,,,,,,66.58,,SSW,29.41,27.9,82.28,Clear
KIGQ,09/03/2018 01:15 UTC,30.07,79.7,66.38,63.91,6.91,200.0,,,,,,1.0,,,,10.0,,KIGQ 030115Z AUTO 20006KT 10SM CLR 27/19 A3007 RMK AO2  T02650191,,,,,,66.39,,SSW,29.42,27.92,,Clear
KIGQ,09/03/2018 01:35 UTC,30.08,78.44,66.74,67.43,6.91,210.0,,,,,,1.0,,,,10.0,,KIGQ 030135Z AUTO 21006KT 10SM CLR 26/19 A3008 RMK AO2  T02580193,,,,,,66.74,,SSW,29.43,27.92,,Clear
KIGQ,09/03/2018 01:55 UTC,30.09,78.26,66.74,67.83,6.91,200.0,,,,,,1.0,,,,10.0,,KIGQ 030155Z AUTO 20006KT 10SM CLR 26/19 A3009 RMK AO2 LTG DSNT W  T02570193,,,,,,66.74,,SSW,29.44,27.94,,Clear
KIGQ,09/03/2018 02:15 UTC,30.1,75.92,67.1,74.2,5.75,190.0,,,,,,1.0,,,,10.0,,KIGQ 030215Z AUTO 19005KT 10SM CLR 24/20 A3010 RMK AO2  T02440195,,,,,,67.09,,S,29.45,27.95,,Clear
KIGQ,09/03/2018 02:35 UTC,30.1,74.84,67.1,76.92,5.75,190.0,,,,,,1.0,,,,10.0,,KIGQ 030235Z AUTO 19005KT 10SM CLR 24/20 A3010 RMK AO2  T02380195,,,,,,67.09,,S,29.45,27.96,,Clear
KIGQ,09/03/2018 02:55 UTC,30.11,75.92,67.46,75.13,6.91,200.0,,,,,,1.0,,,,10.0,,KIGQ 030255Z AUTO 20006KT 10SM CLR 24/20 A3011 RMK AO2  T02440197,,,,,,67.45,,SSW,29.46,27.94,,Clear
KIGQ,09/03/2018 03:15 UTC,30.12,75.56,68.0,77.46,5.75,200.0,,,,,,1.0,,,,10.0,,KIGQ 030315Z AUTO 20005KT 10SM CLR 24/20 A3012 RMK AO2  T02420200,,,,,,67.99,,SSW,29.47,27.91,,Clear
KIGQ,09/03/2018 03:35 UTC,30.12,75.92,68.0,76.54,5.75,200.0,,,,,,1202.0,,,,10.0,,KIGQ 030335Z AUTO 20005KT 10SM SCT120 24/20 A3012 RMK AO2  T02440200,,,,,,67.99,,SSW,29.47,27.91,,Partly Cloudy
KIGQ,09/03/2018 03:55 UTC,30.13,76.28,68.0,75.63,6.91,200.0,,,,,,1203.0,,,,10.0,,KIGQ 030355Z AUTO 20006KT 10SM BKN120 25/20 A3013 RMK AO2  T02460200,,,12000.0,,,68.0,,SSW,29.47,27.9,,Mostly Cloudy
KIGQ,09/03/2018 04:15 UTC,30.13,76.1,68.36,77.03,4.61,190.0,,,,,,1204.0,,,,10.0,,KIGQ 030415Z AUTO 19004KT 10SM OVC120 25/20 A3013 RMK AO2 LTG DSNT  NW T02450202,,,12000.0,,,68.36,,S,29.47,27.88,,Overcast
KIGQ,09/03/2018 04:35 UTC,30.13,75.74,68.36,77.95,5.75,190.0,,,,,,1203.0,,,,10.0,,KIGQ 030435Z AUTO 19005KT 10SM BKN120 24/20 A3013 RMK AO2 LTG DSNT  NW T02430202,,,12000.0,,,68.35,,S,29.47,27.88,,Mostly Cloudy
KIGQ,09/03/2018 04:55 UTC,30.13,75.56,68.18,77.94,6.91,190.0,,,,,,1202.0,,,,10.0,,KIGQ 030455Z AUTO 19006KT 10SM SCT120 24/20 A3013 RMK AO2  T02420201,,,,,,68.17,,S,29.47,27.9,,Partly Cloudy
KIGQ,09/03/2018 05:15 UTC,30.13,75.2,68.0,78.39,8.05,190.0,,,,,,1.0,,,,10.0,,KIGQ 030515Z AUTO 19007KT 10SM CLR 24/20 A3013 RMK AO2  T02400200,,,,,,67.99,,S,29.47,27.92,,Clear
KIGQ,09/03/2018 05:35 UTC,30.13,74.66,68.0,79.81,5.75,200.0,,,,,,1.0,,,,10.0,,KIGQ 030535Z AUTO 20005KT 10SM CLR 24/20 A3013 RMK AO2 LTG DSNT W  T02370200,,,,,,67.99,,SSW,29.47,27.92,,Clear
KIGQ,09/03/2018 05:55 UTC,30.12,73.76,68.0,82.25,4.61,200.0,,,,,,1.0,,,,10.0,,KIGQ 030555Z AUTO 20004KT 10SM CLR 23/20 A3012 RMK AO2 LTG DSNT N  T02320200 10286 20232 403200230,83.48,73.76,,89.6,73.4,67.99,,SSW,29.47,27.94,,Clear
KIGQ,09/03/2018 06:15 UTC,30.12,73.04,68.0,84.26,4.61,200.0,,,,,,902.0,,,,10.0,,KIGQ 030615Z AUTO 20004KT 10SM SCT090 23/20 A3012 RMK AO2 LTG DSNT  W T02280200,,,,,,67.99,,SSW,29.47,27.95,,Partly Cloudy
KIGQ,09/03/2018 06:35 UTC,30.12,72.5,68.0,85.81,5.75,190.0,,,,,,1003.0,,,,10.0,,KIGQ 030635Z AUTO 19005KT 10SM BKN100 23/20 A3012 RMK AO2 LTG DSNT  N AND NW T02250200,,,10000.0,,,67.99,,S,29.47,27.95,,Mostly Cloudy
KIGQ,09/03/2018 06:55 UTC,30.13,73.04,68.54,85.84,0.0,0.0,,,,,,1003.0,,,,10.0,,KIGQ 030655Z AUTO 00000KT 10SM BKN100 23/20 A3013 RMK AO2 LTG DSNT  NW T02280203,,,10000.0,,,68.53,,N,29.47,27.91,,Mostly Cloudy
KIGQ,09/03/2018 07:15 UTC,30.14,75.2,68.72,80.35,9.22,310.0,,,1004.0,,,502.0,803.0,,,10.0,,KIGQ 030715Z AUTO 31008KT 10SM SCT050 BKN080 OVC100 24/20 A3014 RMK AO2 LTG DSNT N T02400204,,,8000.0,,,68.71,,NW,29.48,27.88,,Overcast
KIGQ,09/03/2018 07:35 UTC,30.14,76.28,68.9,78.0,5.75,330.0,,,804.0,,,242.0,603.0,,,10.0,,KIGQ 030735Z AUTO 33005KT 10SM SCT024 BKN060 OVC080 25/21 A3014 RMK AO2 LTG DSNT N T02460205,,,6000.0,,,68.9,,NNW,29.48,27.85,,Overcast
KIGQ,09/03/2018 07:55 UTC,30.14,75.74,68.18,77.47,4.61,30.0,,,,,,602.0,904.0,,,10.0,,KIGQ 030755Z AUTO 03004KT 10SM SCT060 OVC090 24/20 A3014 RMK AO2  T02430201,,,9000.0,,,68.17,,NNE,29.48,27.91,,Overcast
KIGQ,09/03/2018 08:15 UTC,30.15,74.3,68.0,80.78,3.44,30.0,,,,,,902.0,,,,10.0,,KIGQ 030815Z AUTO 03003KT 10SM SCT090 24/20 A3015 RMK AO2 LTG DSNT  NW T02350200,,,,,,67.99,,NNE,29.49,27.95,,Partly Cloudy
KIGQ,09/03/2018 08:35 UTC,30.15,73.58,68.0,82.75,4.61,70.0,,,,,,1.0,,,,10.0,,KIGQ 030835Z AUTO 07004KT 10SM CLR 23/20 A3015 RMK AO2 LTG DSNT N  T02310200,,,,,,67.99,,ENE,29.49,27.96,,Clear
KIGQ,09/03/2018 08:55 UTC,30.15,73.04,68.0,84.26,4.61,60.0,,,,,,1.0,,,,10.0,,KIGQ 030855Z AUTO 06004KT 10SM CLR 23/20 A3015 RMK AO2  T02280200,,,,,,67.99,,ENE,29.49,27.97,,Clear
KIGQ,09/03/2018 09:15 UTC,30.16,72.68,68.0,85.29,4.61,90.0,,,,,,552.0,,,,10.0,,KIGQ 030915Z AUTO 09004KT 10SM SCT055 23/20 A3016 RMK AO2 LTG DSNT  N T02260200,,,,,,67.99,,E,29.5,27.98,,Partly Cloudy
KIGQ,09/03/2018 09:35 UTC,30.16,72.5,67.28,83.71,5.75,80.0,,,,,,552.0,,,,10.0,,KIGQ 030935Z AUTO 08005KT 10SM SCT055 23/20 A3016 RMK AO2 LTG DSNT  NE AND NW T02250196,,,,,,67.27,,E,29.5,28.03,,Partly Cloudy
KIGQ,09/03/2018 09:55 UTC,30.16,71.78,67.28,85.77,3.44,60.0,,,702.0,,,502.0,602.0,,,10.0,,KIGQ 030955Z AUTO 06003KT 10SM SCT050 SCT060 SCT070 22/20 A3016 RMK AO2 T02210196,,,,,,67.27,,ENE,29.5,28.04,,Partly Cloudy
KIGQ,09/03/2018 10:15 UTC,30.16,71.06,67.28,87.88,3.44,80.0,,,703.0,,,502.0,603.0,,,10.0,,KIGQ 031015Z AUTO 08003KT 10SM SCT050 BKN060 BKN070 22/20 A3016 RMK AO2 T02170196,,,6000.0,,,67.27,,E,29.5,28.05,,Mostly Cloudy
KIGQ,09/03/2018 10:35 UTC,30.16,71.24,67.28,87.35,4.61,80.0,,,,,,602.0,,,,10.0,,KIGQ 031035Z AUTO 08004KT 10SM SCT060 22/20 A3016 RMK AO2 LTG DSNT  N T02180196,,,,,,67.27,,E,29.5,28.05,,Partly Cloudy
KIGQ,09/03/2018 10:55 UTC,30.17,70.52,67.28,89.51,0.0,0.0,,,,,,502.0,,,,10.0,,KIGQ 031055Z AUTO 00000KT 10SM SCT050 21/20 A3017 RMK AO2 LTG DSNT  N T02140196,,,,,,67.27,,N,29.51,28.07,,Partly Cloudy
KIGQ,09/03/2018 11:15 UTC,30.17,70.88,67.82,90.08,6.91,100.0,,,,,,502.0,,,,10.0,,KIGQ 031115Z AUTO 10006KT 10SM SCT050 22/20 A3017 RMK AO2 LTG DSNT  N AND NW T02160199,,,,,,67.81,,E,29.51,28.03,,Partly Cloudy
KIGQ,09/03/2018 11:35 UTC,30.18,71.24,67.82,88.99,5.75,110.0,,5.0,,,,442.0,,,,10.0,,KIGQ 031135Z AUTO 11005KT 10SM VCTS SCT044 22/20 A3018 RMK AO2 LTG  DSNT N AND E T02180199,,,,,,67.81,,ESE,29.52,28.03,,Thunder
KIGQ,09/03/2018 11:55 UTC,30.19,72.14,68.18,87.39,3.44,120.0,,,753.0,,,462.0,603.0,,,10.0,,KIGQ 031155Z AUTO 12003KT 10SM SCT046 BKN060 BKN075 22/20 A3019 RMK AO2 LTG DSNT E T02230201 10247 20213,76.46,70.34,6000.0,,,68.17,,ESE,29.53,28.01,,Mostly Cloudy
KIGQ,09/03/2018 12:15 UTC,30.19,72.86,68.36,85.83,5.75,120.0,,5.0,,,,652.0,804.0,,,10.0,,KIGQ 031215Z AUTO 12005KT 10SM VCTS SCT065 OVC080 23/20 A3019 RMK AO2 T02270202,,,8000.0,,,68.35,,ESE,29.53,27.98,,Thunder
KIGQ,09/03/2018 12:35 UTC,30.19,73.4,68.9,85.86,5.75,120.0,,,,,,652.0,804.0,,,10.0,,KIGQ 031235Z AUTO 12005KT 10SM SCT065 OVC080 23/21 A3019 RMK AO2  LTG DSNT NW THRU E T02300205,,,8000.0,,,68.89,,ESE,29.53,27.94,,Overcast
KIGQ,09/03/2018 12:55 UTC,30.2,74.66,69.08,82.82,6.91,130.0,,,,,,802.0,,,,10.0,,KIGQ 031255Z AUTO 13006KT 10SM SCT080 24/21 A3020 RMK AO2 LTG DSNT  NW THRU E T02370206,,,,,,69.07,,SE,29.54,27.92,,Partly Cloudy
KIGQ,09/03/2018 13:15 UTC,30.2,75.92,69.8,81.4,5.75,140.0,,,,,,1.0,,,,10.0,,KIGQ 031315Z AUTO 14005KT 10SM CLR 24/21 A3020 RMK AO2 LTG DSNT W  THRU N T02440210,,,,,,69.8,,SE,29.54,27.85,,Clear
KIGQ,09/03/2018 13:35 UTC,30.2,77.54,70.34,78.58,5.75,150.0,,,,,,853.0,,,,10.0,,KIGQ 031335Z AUTO 15005KT 10SM BKN085 25/21 A3020 RMK AO2 LTG DSNT  W AND NW T02530213,,,8500.0,,,70.34,,SSE,29.54,27.79,,Mostly Cloudy
KIGQ,09/03/2018 13:55 UTC,30.19,79.34,71.24,76.37,6.91,150.0,,,,,,853.0,,,,10.0,,KIGQ 031355Z AUTO 15006KT 10SM BKN085 26/22 A3019 RMK AO2 LTG DSNT  W THRU N T02630218,,,8500.0,,,71.25,,SSE,29.53,27.68,,Mostly Cloudy
KIGQ,09/03/2018 14:15 UTC,30.2,80.96,71.6,73.32,6.91,180.0,,5.0,,,,1.0,,,,10.0,,KIGQ 031415Z AUTO 18006KT 10SM VCTS CLR 27/22 A3020 RMK AO2 LTG  DSNT N AND NE T02720220,,,,,,71.61,,S,29.54,27.64,85.12,Thunder
KIGQ,09/03/2018 14:35 UTC,30.2,81.68,71.78,72.07,6.91,180.0,,,,,,1.0,,,,10.0,,KIGQ 031435Z AUTO 18006KT 10SM CLR 28/22 A3020 RMK AO2 LTG DSNT N  T02760221,,,,,,71.8,,S,29.54,27.62,86.27,Clear
KIGQ,09/03/2018 14:55 UTC,30.21,82.4,71.78,70.41,6.91,180.0,,,,,,1.0,,,,10.0,,KIGQ 031455Z AUTO 18006KT 10SM CLR 28/22 A3021 RMK AO2 LTG DSNT N  T02800221,,,,,,71.8,,S,29.55,27.62,87.3,Clear
KIGQ,09/03/2018 15:15 UTC,30.21,81.86,71.24,70.35,5.75,180.0,,,,,,1.0,,,,10.0,,KIGQ 031515Z AUTO 18005KT 10SM CLR 28/22 A3021 RMK AO2 LTG DSNT N  AND W T02770218,,,,,,71.26,,S,29.55,27.67,86.25,Clear
KIGQ,09/03/2018 15:35 UTC,30.21,81.86,71.78,71.65,4.61,190.0,,,,,,1.0,,,,10.0,,KIGQ 031535Z AUTO 19004KT 10SM CLR 28/22 A3021 RMK AO2 LTG DSNT N  AND W T02770221,,,,,,71.8,,S,29.55,27.62,86.53,Clear
KIGQ,09/03/2018 15:55 UTC,30.21,83.66,71.96,68.02,4.61,190.0,,,,,,1.0,,,,10.0,,KIGQ 031555Z AUTO 19004KT 10SM CLR 29/22 A3021 RMK AO2 LTG DSNT W  AND NW T02870222,,,,,,71.99,,S,29.55,27.58,89.16,Clear
KIGQ,09/03/2018 16:15 UTC,30.21,84.92,72.5,66.53,8.05,190.0,,,,,,1.0,,,,10.0,,KIGQ 031615Z AUTO 19007KT 10SM CLR 29/23 A3021 RMK AO2  T02940225,,,,,,72.54,,S,29.55,27.52,91.26,Clear
KIGQ,09/03/2018 16:35 UTC,30.2,85.46,73.22,66.99,6.91,200.0,,,,,,1.0,,,,10.0,,KIGQ 031635Z AUTO 20006KT 10SM CLR 30/23 A3020 RMK AO2 LTG DSNT W  T02970229,,,,,,73.26,,SSW,29.54,27.45,92.59,Clear
KIGQ,09/03/2018 16:55 UTC,30.19,85.82,71.6,62.71,4.61,190.0,,,,,,1.0,,,,10.0,,KIGQ 031655Z AUTO 19004KT 10SM CLR 30/22 A3019 RMK AO2 LTG DSNT NW  T02990220,,,,,,71.65,,S,29.53,27.57,91.73,Clear
KIGQ,09/03/2018 17:15 UTC,30.18,85.46,71.96,64.21,3.44,210.0,,,,,,1.0,,,,10.0,,KIGQ 031715Z AUTO 21003KT 10SM CLR 30/22 A3018 RMK AO2 LTG DSNT W  T02970222,,,,,,72.01,,SSW,29.52,27.53,91.55,Clear
KIGQ,09/03/2018 17:35 UTC,30.17,86.0,71.96,63.12,3.44,150.0,,,502.0,,,372.0,432.0,,,10.0,,KIGQ 031735Z AUTO 15003KT 10SM SCT037 SCT043 SCT050 30/22 A3017 RMK AO2 LTG DSNT SW THRU N T03000222,,,,,,72.02,,SSE,29.51,27.51,92.25,Partly Cloudy
KIGQ,09/03/2018 17:55 UTC,30.18,85.1,72.14,65.35,8.05,220.0,,5.0,503.0,,,352.0,433.0,,,10.0,,KIGQ 031755Z AUTO 22007KT 10SM VCTS SCT035 BKN043 BKN050 30/22  A3018 RMK AO2 LTG DSNT SW THRU N T02950223 10307 20223,87.26,72.14,4300.0,,,72.18,,SW,29.52,27.52,91.22,Thunder
KIGQ,09/03/2018 18:15 UTC,30.18,81.86,71.78,71.65,9.22,280.0,21.85,77.0,853.0,,,392.0,602.0,,,10.0,,KIGQ 031815Z AUTO 28008G19KT 10SM -TSRA SCT039 SCT060 BKN085 28/22  A3018 RMK AO2 LTG DSNT ALQS T02770221,,,8500.0,,,71.8,,W,29.52,27.59,86.53,Light Rain/Thunderstorm
KIGQ,09/03/2018 18:35 UTC,30.19,76.1,72.68,89.2,0.0,0.0,,,483.0,0.08,,242.0,373.0,,,7.0,,KIGQ 031835Z AUTO 00000KT 7SM -VCTSRA SCT024 BKN037 BKN048 25/23  A3019 RMK AO2 LTG DSNT ALQS P0008 T02450226,,,3700.0,,,72.68,,N,29.53,27.61,,Mostly Cloudy
KIGQ,09/03/2018 18:55 UTC,30.19,77.72,71.24,80.54,4.61,170.0,,77.0,452.0,0.08,,252.0,352.0,,,10.0,,KIGQ 031855Z AUTO 17004KT 10SM -TSRA SCT025 SCT035 SCT045 25/22  A3019 RMK AO2 LTG DSNT ALQS P0008 T02540218,,,,,,71.24,,S,29.53,27.7,,Light Rain/Thunderstorm
KIGQ,09/03/2018 19:15 UTC,30.19,77.54,71.78,82.51,10.36,170.0,,,753.0,,,272.0,382.0,,,10.0,,KIGQ 031915Z AUTO 17009KT 10SM -VCTSRA SCT027 SCT038 BKN075 25/22  A3019 RMK AO2 LTG DSNT NW THRU SE T02530221,,,7500.0,,,71.78,,S,29.53,27.66,,Mostly Cloudy
KIGQ,09/03/2018 19:35 UTC,30.18,76.28,69.26,78.96,5.75,140.0,,,1103.0,,,702.0,902.0,,,10.0,,KIGQ 031935Z AUTO 14005KT 10SM SCT070 SCT090 BKN110 25/21 A3018 RMK AO2 LTG DSNT N AND NW T02460207,,,11000.0,,,69.25,,SE,29.52,27.86,,Mostly Cloudy
KIGQ,09/03/2018 19:55 UTC,30.17,76.28,69.44,79.45,0.0,0.0,,,1103.0,,,652.0,752.0,,,10.0,,KIGQ 031955Z AUTO 00000KT 10SM SCT065 SCT075 BKN110 25/21 A3017 RMK AO2 LTG DSNT ALQS T02460208,,,11000.0,,,69.44,,N,29.51,27.84,,Mostly Cloudy
KIGQ,09/03/2018 20:15 UTC,30.16,75.38,69.98,83.38,0.0,0.0,,13.0,1104.0,0.03,,472.0,602.0,,,4.0,,KIGQ 032015Z AUTO 00000KT 4SM -RA SCT047 SCT060 OVC110 24/21 A3016 RMK AO2 LTG DSNT ALQS P0003 T02410211,,,11000.0,,,69.97,,N,29.5,27.8,,Light Rain
KIGQ,09/03/2018 20:35 UTC,30.18,75.02,70.34,85.43,9.22,230.0,,78.0,1104.0,0.1,,492.0,853.0,,,4.0,,KIGQ 032035Z AUTO 23008KT 4SM +TSRA SCT049 BKN085 OVC110 24/21  A3018 RMK AO2 LTG DSNT ALQS P0010 T02390213,,,8500.0,,,70.34,,SW,29.52,27.8,,Heavy Rain/Thunderstorm
KIGQ,09/03/2018 20:55 UTC,30.16,73.4,70.34,90.18,5.75,340.0,,13.0,854.0,0.27,0.35,172.0,703.0,,,5.0,,KIGQ 032055Z AUTO 34005KT 5SM -RA SCT017 BKN070 OVC085 23/21 A3016 RMK AO2 LTG DSNT W AND NW P0027 60035 T02300213,,,7000.0,,,70.33,,NNW,29.5,27.8,,Light Rain
KIGQ,09/03/2018 21:15 UTC,30.16,74.3,71.06,89.67,3.44,40.0,,,904.0,0.01,,342.0,703.0,,,7.0,,KIGQ 032115Z AUTO 04003KT 7SM VCTSRA SCT034 BKN070 OVC090 24/22  A3016 RMK AO2 LTG DSNT W AND NW P0001 T02350217,,,7000.0,,,71.06,,NE,29.5,27.74,,Overcast
KIGQ,09/03/2018 21:35 UTC,30.16,74.66,71.78,90.78,8.05,50.0,,13.0,904.0,0.01,,602.0,703.0,,,10.0,,KIGQ 032135Z AUTO 05007KT 10SM -RA SCT060 BKN070 OVC090 24/22  A3016 RMK AO2 LTG DSNT ALQS P0001 T02370221,,,7000.0,,,71.78,,NE,29.5,27.67,,Light Rain
KIGQ,09/03/2018 21:55 UTC,30.21,74.84,71.96,90.79,9.22,320.0,,5.0,604.0,0.01,,102.0,252.0,,,10.0,,KIGQ 032155Z AUTO 32008KT 10SM VCTS SCT010 SCT025 OVC060 24/22  A3021 RMK AO2 LTG DSNT ALQS P0001 T02380222,,,6000.0,,,71.96,,NW,29.55,27.71,,Thunder
KIGQ,09/03/2018 22:15 UTC,30.19,71.96,69.62,92.37,10.36,40.0,18.41,78.0,,0.38,,63.0,184.0,,,1.5,,KIGQ 032215Z AUTO 04009G16KT 1 1/2SM +TSRA BKN006 OVC018 22/21  A3019 RMK AO2 VIS 3/4V3 LTG DSNT ALQS P0038 T02220209,,,600.0,,,69.61,,NE,29.53,27.91,,Heavy Rain/Thunderstorm
KIGQ,09/03/2018 22:35 UTC,30.19,71.42,69.26,92.92,8.05,70.0,,,703.0,0.38,,32.0,172.0,,,10.0,,KIGQ 032235Z AUTO 07007KT 10SM -VCTSRA SCT003 SCT017 BKN070 22/21  A3019 RMK AO2 LTG DSNT ALQS P0038 T02190207,,,7000.0,,,69.25,,ENE,29.53,27.94,,Mostly Cloudy
KIGQ,09/03/2018 22:55 UTC,30.19,71.6,69.62,93.5,5.75,70.0,,,,0.38,,702.0,,,,10.0,,KIGQ 032255Z AUTO 07005KT 10SM SCT070 22/21 A3019 RMK AO2 LTG DSNT  NE THRU S P0038 T02200209,,,,,,69.62,,ENE,29.53,27.91,,Partly Cloudy
KIGQ,09/03/2018 23:15 UTC,30.21,72.32,70.16,92.95,5.75,60.0,,13.0,854.0,,,102.0,703.0,,,10.0,,KIGQ 032315Z AUTO 06005KT 10SM -RA SCT010 BKN070 OVC085 22/21  A3021 RMK AO2 LTG DSNT ALQS T02240212,,,7000.0,,,70.16,,ENE,29.55,27.88,,Light Rain
KIGQ,09/03/2018 23:35 UTC,30.2,72.5,69.98,91.82,0.0,0.0,,,1004.0,,,152.0,703.0,,,10.0,,KIGQ 032335Z AUTO 00000KT 10SM -VCTSRA SCT015 BKN070 OVC100 23/21  A3020 RMK AO2 LTG DSNT NE THRU S T02250211,,,7000.0,,,69.97,,N,29.54,27.88,,Overcast
KIGQ,09/03/2018 23:55 UTC,30.2,71.96,69.98,93.51,5.75,10.0,,77.0,1204.0,,,132.0,903.0,0.74,,10.0,,KIGQ 032355Z AUTO 01005KT 10SM -TSRA SCT013 BKN090 OVC120 22/21  A3020 RMK AO2 LTG DSNT W THRU NE 60074 T02220211 10294  20213,84.92,70.34,9000.0,,,69.98,,N,29.54,27.89,,Light Rain/Thunderstorm
KIGQ,09/04/2018 00:15 UTC,30.19,71.6,69.8,94.07,8.05,30.0,,,,,,1002.0,1202.0,,,10.0,,KIGQ 040015Z AUTO 03007KT 10SM SCT100 SCT120 22/21 A3019 RMK AO2  LTG DSNT N T02200210,,,,,,69.79,,NNE,29.53,27.9,,Partly Cloudy
KIGQ,09/04/2018 00:35 UTC,30.18,71.96,70.16,94.08,6.91,50.0,,13.0,,,,1102.0,,,,10.0,,KIGQ 040035Z AUTO 05006KT 10SM -RA SCT110 22/21 A3018 RMK AO2 LTG  DSNT NE T02220212,,,,,,70.15,,NE,29.52,27.86,,Light Rain
KIGQ,09/04/2018 00:55 UTC,30.18,71.96,70.34,94.66,6.91,90.0,,,,,,1102.0,,,,10.0,,KIGQ 040055Z AUTO 09006KT 10SM SCT110 22/21 A3018 RMK AO2  T02220213,,,,,,70.34,,E,29.52,27.84,,Partly Cloudy
KIGQ,09/04/2018 01:15 UTC,30.19,71.96,70.7,95.82,3.44,100.0,,,,,,1.0,,,,10.0,,KIGQ 040115Z AUTO 10003KT 10SM CLR 22/22 A3019 RMK AO2  T02220215,,,,,,70.7,,E,29.53,27.83,,Clear
KIGQ,09/04/2018 01:35 UTC,30.19,71.78,71.06,97.59,4.61,110.0,,,,,,1.0,,,,7.0,,KIGQ 040135Z AUTO 11004KT 7SM CLR 22/22 A3019 RMK AO2  T02210217,,,,,,71.06,,ESE,29.53,27.8,,Clear
KIGQ,09/04/2018 01:55 UTC,30.2,72.32,71.6,97.6,3.44,130.0,,,,,,1.0,,,,7.0,,KIGQ 040155Z AUTO 13003KT 7SM CLR 22/22 A3020 RMK AO2  T02240220,,,,,,71.6,,SE,29.54,27.76,,Clear
KIGQ,09/04/2018 02:15 UTC,30.2,72.14,71.6,98.19,3.44,120.0,,,,,,652.0,,,,7.0,,KIGQ 040215Z AUTO 12003KT 7SM SCT065 22/22 A3020 RMK AO2  T02230220,,,,,,71.6,,ESE,29.54,27.77,,Partly Cloudy
KIGQ,09/04/2018 02:35 UTC,30.2,71.96,71.6,98.79,3.44,140.0,,,,,,603.0,803.0,,,10.0,,KIGQ 040235Z AUTO 14003KT 10SM BKN060 BKN080 22/22 A3020 RMK AO2  T02220220,,,6000.0,,,71.6,,SE,29.54,27.77,,Mostly Cloudy
KIGQ,09/04/2018 02:55 UTC,30.21,72.32,71.06,95.83,3.44,140.0,,,,,,603.0,803.0,,,10.0,,KIGQ 040255Z AUTO 14003KT 10SM BKN060 BKN080 22/22 A3021 RMK AO2  T02240217,,,6000.0,,,71.06,,SE,29.55,27.82,,Mostly Cloudy
KIGQ,09/04/2018 03:15 UTC,30.21,72.5,70.34,92.95,4.61,160.0,,,,,,603.0,703.0,,,10.0,,KIGQ 040315Z AUTO 16004KT 10SM BKN060 BKN070 23/21 A3021 RMK AO2  T02250213,,,6000.0,,,70.33,,SSE,29.55,27.87,,Mostly Cloudy
KIGQ,09/04/2018 03:35 UTC,30.2,71.78,69.8,93.5,5.75,150.0,,,,,,602.0,702.0,,,10.0,,KIGQ 040335Z AUTO 15005KT 10SM SCT060 SCT070 22/21 A3020 RMK AO2  T02210210,,,,,,69.79,,SSE,29.54,27.91,,Partly Cloudy
KIGQ,09/04/2018 03:55 UTC,30.2,71.6,69.08,91.79,4.61,150.0,,,,,,1.0,,,,10.0,,KIGQ 040355Z AUTO 15004KT 10SM CLR 22/21 A3020 RMK AO2  T02200206,,,,,,69.07,,SSE,29.54,27.96,,Clear
KIGQ,09/04/2018 04:15 UTC,30.2,71.24,68.36,90.65,5.75,150.0,,,,,,1.0,,,,10.0,,KIGQ 040415Z AUTO 15005KT 10SM CLR 22/20 A3020 RMK AO2  T02180202,,,,,,68.35,,SSE,29.54,28.02,,Clear
KIGQ,09/04/2018 04:35 UTC,30.2,71.06,68.0,90.09,4.61,150.0,,,,,,1.0,,,,10.0,,KIGQ 040435Z AUTO 15004KT 10SM CLR 22/20 A3020 RMK AO2  T02170200,,,,,,67.99,,SSE,29.54,28.05,,Clear
KIGQ,09/04/2018 04:55 UTC,30.2,71.24,67.82,88.99,5.75,150.0,,,,,,1.0,,,,10.0,,KIGQ 040455Z AUTO 15005KT 10SM CLR 22/20 A3020 RMK AO2  T02180199,,,,,,67.81,,SSE,29.54,28.05,,Clear
KIGQ,09/04/2018 05:15 UTC,30.2,71.24,68.0,89.54,5.75,150.0,,,,,,1.0,,,,10.0,,KIGQ 040515Z AUTO 15005KT 10SM CLR 22/20 A3020 RMK AO2  T02180200,,,,,,67.99,,SSE,29.54,28.04,,Clear
KIGQ,09/04/2018 05:35 UTC,30.2,71.6,68.0,88.46,5.75,160.0,,,,,,1.0,,,,10.0,,KIGQ 040535Z AUTO 16005KT 10SM CLR 22/20 A3020 RMK AO2  T02200200,,,,,,67.99,,SSE,29.54,28.04,,Clear
KIGQ,09/04/2018 05:55 UTC,30.2,71.24,68.0,89.54,5.75,160.0,,,,,,1.0,,,,10.0,,KIGQ 040555Z AUTO 16005KT 10SM CLR 22/20 A3020 RMK AO2 T02180200  10225 20217 403070213,72.5,71.06,,87.26,70.34,67.99,,SSE,29.54,28.04,,Clear
KIGQ,09/04/2018 06:15 UTC,30.19,71.24,68.18,90.09,5.75,150.0,,,,,,1.0,,,,10.0,,KIGQ 040615Z AUTO 15005KT 10SM CLR 22/20 A3019 RMK AO2  T02180201,,,,,,68.17,,SSE,29.53,28.02,,Clear
KIGQ,09/04/2018 06:35 UTC,30.19,71.06,68.18,90.65,4.61,150.0,,,,,,1.0,,,,10.0,,KIGQ 040635Z AUTO 15004KT 10SM CLR 22/20 A3019 RMK AO2  T02170201,,,,,,68.17,,SSE,29.53,28.02,,Clear
KIGQ,09/04/2018 06:55 UTC,30.19,71.06,68.18,90.65,3.44,150.0,,,,,,1.0,,,,10.0,,KIGQ 040655Z AUTO 15003KT 10SM CLR 22/20 A3019 RMK AO2  T02170201,,,,,,68.17,,SSE,29.53,28.02,,Clear
KIGQ,09/04/2018 07:15 UTC,30.19,70.7,68.0,91.19,3.44,140.0,,,,,,1.0,,,,10.0,,KIGQ 040715Z AUTO 14003KT 10SM CLR 22/20 A3019 RMK AO2  T02150200,,,,,,67.99,,SE,29.53,28.04,,Clear
KIGQ,09/04/2018 07:35 UTC,30.18,70.52,68.18,92.32,3.44,140.0,,,,,,1.0,,,,10.0,,KIGQ 040735Z AUTO 14003KT 10SM CLR 21/20 A3018 RMK AO2  T02140201,,,,,,68.17,,SE,29.52,28.02,,Clear
KIGQ,09/04/2018 07:55 UTC,30.18,70.34,68.0,92.32,3.44,140.0,,,,,,1.0,,,,10.0,,KIGQ 040755Z AUTO 14003KT 10SM CLR 21/20 A3018 RMK AO2  T02130200,,,,,,67.99,,SE,29.52,28.03,,Clear
KIGQ,09/04/2018 08:15 UTC,30.18,70.34,68.18,92.89,3.44,150.0,,,,,,1.0,,,,10.0,,KIGQ 040815Z AUTO 15003KT 10SM CLR 21/20 A3018 RMK AO2  T02130201,,,,,,68.17,,SSE,29.52,28.02,,Clear
KIGQ,09/04/2018 08:35 UTC,30.18,69.8,68.0,94.03,4.61,160.0,,,,,,1.0,,,,10.0,,KIGQ 040835Z AUTO 16004KT 10SM CLR 21/20 A3018 RMK AO2  T02100200,,,,,,67.99,,SSE,29.52,28.04,,Clear
KIGQ,09/04/2018 08:55 UTC,30.18,69.8,68.0,94.03,0.0,0.0,,,,,,1.0,,,,10.0,,KIGQ 040855Z AUTO 00000KT 10SM CLR 21/20 A3018 RMK AO2  T02100200,,,,,,67.99,,N,29.52,28.04,,Clear
KIGQ,09/04/2018 09:15 UTC,30.19,69.08,68.0,96.37,3.44,160.0,,,,,,1.0,,,,10.0,,KIGQ 040915Z AUTO 16003KT 10SM CLR 21/20 A3019 RMK AO2  T02060200,,,,,,68.0,,SSE,29.53,28.06,,Clear
KIGQ,09/04/2018 09:35 UTC,30.19,69.62,68.54,96.38,0.0,0.0,,,,,,1.0,,,,10.0,,KIGQ 040935Z AUTO 00000KT 10SM CLR 21/20 A3019 RMK AO2  T02090203,,,,,,68.54,,N,29.53,28.02,,Clear
KIGQ,09/04/2018 09:55 UTC,30.19,69.08,68.0,96.37,0.0,0.0,,,,,,1.0,,,,10.0,,KIGQ 040955Z AUTO 00000KT 10SM CLR 21/20 A3019 RMK AO2  T02060200,,,,,,68.0,,N,29.53,28.06,,Clear
KIGQ,09/04/2018 10:15 UTC,30.19,68.9,68.0,96.96,0.0,0.0,,,,,,1.0,,,,10.0,,KIGQ 041015Z AUTO 00000KT 10SM CLR 21/20 A3019 RMK AO2  T02050200,,,,,,68.0,,N,29.53,28.07,,Clear
KIGQ,09/04/2018 10:35 UTC,30.19,69.44,68.9,98.17,0.0,0.0,,,,,,1.0,,,,10.0,,KIGQ 041035Z AUTO 00000KT 10SM CLR 21/21 A3019 RMK AO2  T02080205,,,,,,68.9,,N,29.53,28.0,,Clear
KIGQ,09/04/2018 10:55 UTC,30.19,69.8,68.9,96.97,0.0,0.0,,,,,,1.0,,,,10.0,,KIGQ 041055Z AUTO 00000KT 10SM CLR 21/21 A3019 RMK AO2  T02100205,,,,,,68.9,,N,29.53,27.99,,Clear
KIGQ,09/04/2018 11:15 UTC,30.19,68.9,68.18,97.56,0.0,0.0,,,,,,1.0,,,,10.0,,KIGQ 041115Z AUTO 00000KT 10SM CLR 21/20 A3019 RMK AO2  T02050201,,,,,,68.18,,N,29.53,28.05,,Clear
KIGQ,09/04/2018 11:35 UTC,30.2,69.26,68.9,98.78,0.0,0.0,,,,,,1.0,,,,10.0,,KIGQ 041135Z AUTO 00000KT 10SM CLR 21/21 A3020 RMK AO2  T02070205,,,,,,68.9,,N,29.54,28.01,,Clear
KIGQ,09/04/2018 11:55 UTC,30.2,68.9,68.36,98.17,0.0,0.0,,31.0,,,,1.0,,,0.74,5.0,,KIGQ 041155Z AUTO 00000KT 5SM BR CLR 21/20 A3020 RMK AO2 70074  T02050202 10219 20205,71.42,68.9,,,,68.36,,N,29.54,28.05,,Mist
KIGQ,09/04/2018 12:15 UTC,30.2,70.16,69.8,98.78,3.44,170.0,,,,,,1.0,,,,10.0,,KIGQ 041215Z AUTO 17003KT 10SM CLR 21/21 A3020 RMK AO2  T02120210,,,,,,69.8,,S,29.54,27.93,,Clear
KIGQ,09/04/2018 12:35 UTC,30.2,72.68,70.7,93.53,3.44,200.0,,,,,,1.0,,,,10.0,,KIGQ 041235Z AUTO 20003KT 10SM CLR 23/22 A3020 RMK AO2  T02260215,,,,,,70.7,,SSW,29.54,27.83,,Clear
KIGQ,09/04/2018 12:55 UTC,30.21,73.94,70.34,88.56,5.75,200.0,,,,,,1.0,,,,10.0,,KIGQ 041255Z AUTO 20005KT 10SM CLR 23/21 A3021 RMK AO2  T02330213,,,,,,70.33,,SSW,29.55,27.85,,Clear
KIGQ,09/04/2018 13:15 UTC,30.21,75.56,70.88,85.46,5.75,200.0,,,,,,1.0,,,,10.0,,KIGQ 041315Z AUTO 20005KT 10SM CLR 24/22 A3021 RMK AO2  T02420216,,,,,,70.88,,SSW,29.55,27.78,,Clear
KIGQ,09/04/2018 13:35 UTC,30.21,77.0,71.24,82.47,5.75,210.0,,,,,,1.0,,,,10.0,,KIGQ 041335Z AUTO 21005KT 10SM CLR 25/22 A3021 RMK AO2  T02500218,,,,,,71.24,,SSW,29.55,27.73,,Clear
KIGQ,09/04/2018 13:55 UTC,30.21,77.9,71.24,80.06,6.91,200.0,,,,,,1.0,,,,10.0,,KIGQ 041355Z AUTO 20006KT 10SM CLR 26/22 A3021 RMK AO2  T02550218,,,,,,71.24,,SSW,29.55,27.72,,Clear
KIGQ,09/04/2018 14:15 UTC,30.21,79.16,71.6,77.76,5.75,290.0,,,,,,1.0,,,,10.0,,KIGQ 041415Z AUTO 29005KT 10SM CLR 26/22 A3021 RMK AO2  T02620220,,,,,,71.61,,WNW,29.55,27.67,,Clear
KIGQ,09/04/2018 14:35 UTC,30.21,80.78,71.96,74.66,5.75,310.0,,,,,,1.0,,,,10.0,,KIGQ 041435Z AUTO 31005KT 10SM CLR 27/22 A3021 RMK AO2  T02710222,,,,,,71.97,,NW,29.55,27.62,85.01,Clear
KIGQ,09/04/2018 14:55 UTC,30.21,81.86,71.96,72.09,5.75,190.0,,,,,,1.0,,,,10.0,,KIGQ 041455Z AUTO 19005KT 10SM CLR 28/22 A3021 RMK AO2  T02770222,,,,,,71.98,,S,29.55,27.61,86.62,Clear
KIGQ,09/04/2018 15:15 UTC,30.21,82.76,72.14,70.45,6.91,200.0,,,,,,1.0,,,,10.0,,KIGQ 041515Z AUTO 20006KT 10SM CLR 28/22 A3021 RMK AO2  T02820223,,,,,,72.17,,SSW,29.55,27.58,88.02,Clear
KIGQ,09/04/2018 15:35 UTC,30.21,84.2,73.22,69.75,4.61,200.0,,,,,,1.0,,,,10.0,,KIGQ 041535Z AUTO 20004KT 10SM CLR 29/23 A3021 RMK AO2  T02900229,,,,,,73.25,,SSW,29.55,27.47,90.83,Clear
KIGQ,09/04/2018 15:55 UTC,30.21,85.1,72.5,66.15,6.91,220.0,,,,,,1.0,,,,10.0,,KIGQ 041555Z AUTO 22006KT 10SM CLR 30/23 A3021 RMK AO2  T02950225,,,,,,72.54,,SW,29.55,27.52,91.51,Clear
KIGQ,09/04/2018 16:15 UTC,30.21,85.82,71.96,63.48,5.75,220.0,,,,,,1.0,,,,10.0,,KIGQ 041615Z AUTO 22005KT 10SM CLR 30/22 A3021 RMK AO2  T02990222,,,,,,72.01,,SW,29.55,27.56,92.02,Clear
KIGQ,09/04/2018 16:35 UTC,30.21,86.9,71.6,60.6,10.36,210.0,,,,,,1.0,,,,10.0,,KIGQ 041635Z AUTO 21009KT 10SM CLR 31/22 A3021 RMK AO2  T03050220,,,,,,71.67,,SSW,29.55,27.57,93.1,Clear
KIGQ,09/04/2018 16:55 UTC,30.2,87.44,71.6,59.57,11.5,200.0,,,,,,1.0,,,,10.0,,KIGQ 041655Z AUTO 20010KT 10SM CLR 31/22 A3020 RMK AO2  T03080220,,,,,,71.67,,SSW,29.54,27.56,93.78,Clear
KIGQ,09/04/2018 17:15 UTC,30.2,87.62,70.88,57.8,9.22,220.0,,,,,,1.0,,,,10.0,,KIGQ 041715Z AUTO 22008KT 10SM CLR 31/22 A3020 RMK AO2  T03090216,,,,,,70.95,,SW,29.54,27.61,93.4,Clear
KIGQ,09/04/2018 17:35 UTC,30.19,88.16,70.88,56.83,6.91,210.0,,,,,,1.0,,,,10.0,,KIGQ 041735Z AUTO 21006KT 10SM CLR 31/22 A3019 RMK AO2  T03120216,,,,,,70.96,,SSW,29.53,27.6,94.06,Clear
KIGQ,09/04/2018 17:55 UTC,30.19,88.7,70.34,54.85,10.36,220.0,17.27,,,,,472.0,552.0,,,10.0,,KIGQ 041755Z AUTO 22009G15KT 10SM SCT047 SCT055 32/21 A3019 RMK AO2 T03150213 10316 20205,88.88,68.9,,,,70.43,,SW,29.53,27.63,94.27,Partly Cloudy
KIGQ,09/04/2018 18:15 UTC,30.18,89.06,69.26,52.28,10.36,160.0,,,802.0,,,492.0,652.0,,,10.0,,KIGQ 041815Z AUTO 16009KT 10SM SCT049 SCT065 SCT080 32/21 A3018 RMK AO2 T03170207,,,,,,69.36,,SSE,29.52,27.7,93.84,Partly Cloudy
KIGQ,09/04/2018 18:35 UTC,30.18,89.6,69.62,52.03,8.05,190.0,,,,,,1.0,,,,10.0,,KIGQ 041835Z AUTO 19007KT 170V230 10SM CLR 32/21 A3018 RMK AO2  T03200209,,,,,,69.72,,S,29.52,27.67,94.75,Clear
KIGQ,09/04/2018 18:55 UTC,30.17,89.6,68.0,49.23,6.91,200.0,,,,,,502.0,852.0,,,10.0,,KIGQ 041855Z AUTO 20006KT 10SM SCT050 SCT085 32/20 A3017 RMK AO2  T03200200,,,,,,68.12,,SSW,29.51,27.79,93.53,Partly Cloudy
KIGQ,09/04/2018 19:15 UTC,30.16,90.32,68.54,49.03,6.91,280.0,,,,,,502.0,852.0,,,10.0,,KIGQ 041915Z AUTO 28006KT 10SM SCT050 SCT085 32/20 A3016 RMK AO2  T03240203,,,,,,68.66,,W,29.5,27.73,94.76,Partly Cloudy
KIGQ,09/04/2018 19:35 UTC,30.16,90.5,68.54,48.75,13.8,210.0,,,,,,502.0,852.0,,,10.0,,KIGQ 041935Z AUTO 21012KT 10SM SCT050 SCT085 33/20 A3016 RMK AO2  T03250203,,,,,,68.66,,SSW,29.5,27.72,94.97,Partly Cloudy
KIGQ,09/04/2018 19:55 UTC,30.15,90.32,69.26,50.25,11.5,180.0,16.11,,,,,652.0,,,,10.0,,KIGQ 041955Z AUTO 18010G14KT 10SM SCT065 32/21 A3015 RMK AO2  T03240207,,,,,,69.38,,S,29.49,27.66,95.32,Partly Cloudy
KIGQ,09/04/2018 20:15 UTC,30.14,88.52,68.0,50.93,10.36,190.0,,,902.0,,,652.0,852.0,,,10.0,,KIGQ 042015Z AUTO 19009KT 10SM SCT065 SCT085 SCT090 31/20 A3014 RMK AO2 T03140200,,,,,,68.1,,S,29.48,27.77,92.29,Partly Cloudy
KIGQ,09/04/2018 20:35 UTC,30.13,89.6,68.36,49.84,10.36,190.0,,,902.0,,,652.0,802.0,,,10.0,,KIGQ 042035Z AUTO 19009KT 10SM SCT065 SCT080 SCT090 32/20 A3013 RMK AO2 T03200202,,,,,,68.47,,S,29.47,27.72,93.79,Partly Cloudy
KIGQ,09/04/2018 20:55 UTC,30.12,90.14,68.18,48.7,10.36,190.0,,,,,,652.0,,,,10.0,,KIGQ 042055Z AUTO 19009KT 10SM SCT065 32/20 A3012 RMK AO2  T03230201,,,,,,68.3,,S,29.47,27.73,94.28,Partly Cloudy
KIGQ,09/04/2018 21:15 UTC,30.12,89.6,67.46,48.32,11.5,180.0,,,,,,1.0,,,,10.0,,KIGQ 042115Z AUTO 18010KT 10SM CLR 32/20 A3012 RMK AO2  T03200197,,,,,,67.57,,S,29.47,27.79,93.15,Clear
KIGQ,09/04/2018 21:35 UTC,30.12,89.78,67.82,48.65,12.66,180.0,,,,,,1.0,,,,10.0,,KIGQ 042135Z AUTO 18011KT 10SM CLR 32/20 A3012 RMK AO2  T03210199,,,,,,67.94,,S,29.47,27.76,93.6,Clear
KIGQ,09/04/2018 21:55 UTC,30.11,89.6,67.82,48.92,9.22,170.0,,,,,,1.0,,,,10.0,,KIGQ 042155Z AUTO 17008KT 10SM CLR 32/20 A3011 RMK AO2  T03200199,,,,,,67.93,,S,29.46,27.75,93.39,Clear
KIGQ,09/04/2018 22:15 UTC,30.11,89.06,68.0,50.07,10.36,180.0,,,,,,1.0,,,,10.0,,KIGQ 042215Z AUTO 18009KT 10SM CLR 32/20 A3011 RMK AO2  T03170200,,,,,,68.11,,S,29.46,27.74,92.91,Clear
KIGQ,09/04/2018 22:35 UTC,30.1,88.34,68.9,52.82,9.22,180.0,,,,,,1.0,,,,10.0,,KIGQ 042235Z AUTO 18008KT 10SM CLR 31/21 A3010 RMK AO2  T03130205,,,,,,68.99,,S,29.45,27.67,92.72,Clear
KIGQ,09/04/2018 22:55 UTC,30.1,87.8,67.82,51.77,10.36,180.0,,,,,,1.0,,,,10.0,,KIGQ 042255Z AUTO 18009KT 10SM CLR 31/20 A3010 RMK AO2  T03100199,,,,,,67.91,,S,29.45,27.76,91.35,Clear
KIGQ,09/04/2018 23:15 UTC,30.09,86.36,68.18,54.86,9.22,180.0,,,,,,1.0,,,,10.0,,KIGQ 042315Z AUTO 18008KT 10SM CLR 30/20 A3009 RMK AO2  T03020201,,,,,,68.25,,S,29.44,27.74,89.96,Clear
KIGQ,09/04/2018 23:35 UTC,30.09,84.38,68.9,59.9,5.75,180.0,,,,,,1.0,,,,10.0,,KIGQ 042335Z AUTO 18005KT 10SM CLR 29/21 A3009 RMK AO2  T02910205,,,,,,68.94,,S,29.44,27.71,88.14,Clear
KIGQ,09/04/2018 23:55 UTC,30.09,83.3,69.08,62.4,6.91,180.0,,,,,,1.0,,,,10.0,,KIGQ 042355Z AUTO 18006KT 10SM CLR 29/21 A3009 RMK AO2 T02850206  10326 20285,90.68,83.3,,,,69.12,,S,29.44,27.7,86.97,Clear
KIGQ,09/05/2018 00:15 UTC,30.09,81.86,68.18,63.38,5.75,170.0,,,,,,1.0,,,,10.0,,KIGQ 050015Z AUTO 17005KT 10SM CLR 28/20 A3009 RMK AO2  T02770201,,,,,,68.2,,S,29.44,27.79,84.85,Clear
KIGQ,09/05/2018 00:35 UTC,30.1,80.6,67.82,65.22,6.91,180.0,,,,,,1.0,,,,10.0,,KIGQ 050035Z AUTO 18006KT 10SM CLR 27/20 A3010 RMK AO2  T02700199,,,,,,67.84,,S,29.45,27.84,83.25,Clear
KIGQ,09/05/2018 00:55 UTC,30.11,80.42,67.28,64.39,5.75,170.0,,,,,,1.0,,,,10.0,,KIGQ 050055Z AUTO 17005KT 10SM CLR 27/20 A3011 RMK AO2  T02690196,,,,,,67.29,,S,29.46,27.89,82.88,Clear
KIGQ,09/05/2018 01:15 UTC,30.11,81.14,67.1,62.51,8.05,170.0,,,,,,1.0,,,,10.0,,KIGQ 050115Z AUTO 17007KT 10SM CLR 27/20 A3011 RMK AO2  T02730195,,,,,,67.12,,S,29.46,27.9,83.63,Clear
KIGQ,09/05/2018 01:35 UTC,30.11,80.06,67.1,64.75,6.91,170.0,,,,,,1.0,,,,10.0,,KIGQ 050135Z AUTO 17006KT 10SM CLR 27/20 A3011 RMK AO2  T02670195,,,,,,67.11,,S,29.46,27.91,82.42,Clear
KIGQ,09/05/2018 01:55 UTC,30.12,79.34,67.1,66.29,6.91,180.0,,,,,,1.0,,,,10.0,,KIGQ 050155Z AUTO 18006KT 10SM CLR 26/20 A3012 RMK AO2  T02630195,,,,,,67.11,,S,29.47,27.93,,Clear
KIGQ,09/05/2018 02:15 UTC,30.12,78.26,67.28,69.11,6.91,180.0,,,,,,1.0,,,,10.0,,KIGQ 050215Z AUTO 18006KT 10SM CLR 26/20 A3012 RMK AO2  T02570196,,,,,,67.28,,S,29.47,27.93,,Clear
KIGQ,09/05/2018 02:35 UTC,30.12,77.9,67.46,70.37,6.91,180.0,,,,,,1.0,,,,10.0,,KIGQ 050235Z AUTO 18006KT 10SM CLR 26/20 A3012 RMK AO2  T02550197,,,,,,67.46,,S,29.47,27.92,,Clear
KIGQ,09/05/2018 02:55 UTC,30.12,77.0,67.46,72.49,6.91,190.0,,,,,,1.0,,,,10.0,,KIGQ 050255Z AUTO 19006KT 10SM CLR 25/20 A3012 RMK AO2  T02500197,,,,,,67.46,,S,29.47,27.93,,Clear
KIGQ,09/05/2018 03:15 UTC,30.12,77.0,67.46,72.49,6.91,190.0,,,,,,1.0,,,,10.0,,KIGQ 050315Z AUTO 19006KT 10SM CLR 25/20 A3012 RMK AO2  T02500197,,,,,,67.46,,S,29.47,27.93,,Clear
KIGQ,09/05/2018 03:35 UTC,30.12,77.18,67.28,71.61,8.05,190.0,,,,,,1.0,,,,10.0,,KIGQ 050335Z AUTO 19007KT 10SM CLR 25/20 A3012 RMK AO2  T02510196,,,,,,67.28,,S,29.47,27.94,,Clear
KIGQ,09/05/2018 03:55 UTC,30.12,76.46,67.28,73.34,8.05,190.0,,,,,,1.0,,,,10.0,,KIGQ 050355Z AUTO 19007KT 10SM CLR 25/20 A3012 RMK AO2  T02470196,,,,,,67.27,,S,29.47,27.95,,Clear
KIGQ,09/05/2018 04:15 UTC,30.12,76.28,67.28,73.78,8.05,180.0,,,,,,1.0,,,,10.0,,KIGQ 050415Z AUTO 18007KT 10SM CLR 25/20 A3012 RMK AO2  T02460196,,,,,,67.27,,S,29.47,27.95,,Clear
KIGQ,09/05/2018 04:35 UTC,30.11,76.28,67.28,73.78,9.22,180.0,,,,,,1.0,,,,10.0,,KIGQ 050435Z AUTO 18008KT 10SM CLR 25/20 A3011 RMK AO2  T02460196,,,,,,67.27,,S,29.46,27.94,,Clear
KIGQ,09/05/2018 04:55 UTC,30.11,76.28,67.46,74.24,9.22,180.0,,,,,,1.0,,,,10.0,,KIGQ 050455Z AUTO 18008KT 10SM CLR 25/20 A3011 RMK AO2  T02460197,,,,,,67.46,,S,29.46,27.93,,Clear
KIGQ,09/05/2018 05:15 UTC,30.11,76.1,68.0,76.08,8.05,180.0,,,,,,1.0,,,,10.0,,KIGQ 050515Z AUTO 18007KT 10SM CLR 25/20 A3011 RMK AO2  T02450200,,,,,,67.99,,S,29.46,27.9,,Clear
KIGQ,09/05/2018 05:35 UTC,30.11,75.38,67.82,77.44,6.91,180.0,,,,,,1.0,,,,10.0,,KIGQ 050535Z AUTO 18006KT 10SM CLR 24/20 A3011 RMK AO2  T02410199,,,,,,67.81,,S,29.46,27.92,,Clear
KIGQ,09/05/2018 05:55 UTC,30.11,75.2,68.0,78.39,8.05,180.0,,,,,,1.0,,,,10.0,,KIGQ 050555Z AUTO 18007KT 10SM CLR 24/20 A3011 RMK AO2 T02400200  10283 20240 403260205,82.94,75.2,,90.68,68.9,67.99,,S,29.46,27.91,,Clear
KIGQ,09/05/2018 06:15 UTC,30.11,75.38,68.18,78.4,6.91,180.0,,,,,,1.0,,,,10.0,,KIGQ 050615Z AUTO 18006KT 10SM CLR 24/20 A3011 RMK AO2  T02410201,,,,,,68.17,,S,29.46,27.89,,Clear
KIGQ,09/05/2018 06:35 UTC,30.1,74.12,68.0,81.27,5.75,190.0,,,,,,1.0,,,,10.0,,KIGQ 050635Z AUTO 19005KT 10SM CLR 23/20 A3010 RMK AO2  T02340200,,,,,,67.99,,S,29.45,27.91,,Clear
KIGQ,09/05/2018 06:55 UTC,30.1,73.4,68.0,83.25,6.91,180.0,,,,,,1.0,,,,10.0,,KIGQ 050655Z AUTO 18006KT 10SM CLR 23/20 A3010 RMK AO2  T02300200,,,,,,67.99,,S,29.45,27.92,,Clear
KIGQ,09/05/2018 07:15 UTC,30.1,74.3,68.18,81.28,5.75,190.0,,,,,,1.0,,,,10.0,,KIGQ 050715Z AUTO 19005KT 10SM CLR 24/20 A3010 RMK AO2  T02350201,,,,,,68.17,,S,29.45,27.9,,Clear
KIGQ,09/05/2018 07:35 UTC,30.09,74.48,68.36,81.29,6.91,190.0,,,,,,1.0,,,,10.0,,KIGQ 050735Z AUTO 19006KT 10SM CLR 24/20 A3009 RMK AO2  T02360202,,,,,,68.35,,S,29.44,27.87,,Clear
KIGQ,09/05/2018 07:55 UTC,30.1,73.4,68.36,84.29,4.61,190.0,,,,,,1.0,,,,10.0,,KIGQ 050755Z AUTO 19004KT 10SM CLR 23/20 A3010 RMK AO2  T02300202,,,,,,68.35,,S,29.45,27.9,,Clear
KIGQ,09/05/2018 08:15 UTC,30.1,73.4,68.54,84.81,6.91,200.0,,,,,,1.0,,,,10.0,,KIGQ 050815Z AUTO 20006KT 10SM CLR 23/20 A3010 RMK AO2  T02300203,,,,,,68.53,,SSW,29.45,27.88,,Clear
KIGQ,09/05/2018 08:35 UTC,30.1,72.68,68.36,86.35,5.75,200.0,,,,,,1.0,,,,10.0,,KIGQ 050835Z AUTO 20005KT 10SM CLR 23/20 A3010 RMK AO2  T02260202,,,,,,68.35,,SSW,29.45,27.91,,Clear
KIGQ,09/05/2018 08:55 UTC,30.1,72.5,68.36,86.88,6.91,190.0,,,,,,1.0,,,,10.0,,KIGQ 050855Z AUTO 19006KT 10SM CLR 23/20 A3010 RMK AO2 LTG DSNT W  T02250202,,,,,,68.35,,S,29.45,27.91,,Clear
KIGQ,09/05/2018 09:15 UTC,30.1,71.78,68.18,88.46,4.61,200.0,,,,,,1.0,,,,10.0,,KIGQ 050915Z AUTO 20004KT 10SM CLR 22/20 A3010 RMK AO2  T02210201,,,,,,68.17,,SSW,29.45,27.93,,Clear
KIGQ,09/05/2018 09:35 UTC,30.1,71.6,68.18,89.0,5.75,190.0,,,,,,1.0,,,,10.0,,KIGQ 050935Z AUTO 19005KT 10SM CLR 22/20 A3010 RMK AO2  T02200201,,,,,,68.17,,S,29.45,27.93,,Clear
KIGQ,09/05/2018 09:55 UTC,30.1,70.88,68.0,90.64,5.75,180.0,,,,,,1.0,,,,10.0,,KIGQ 050955Z AUTO 18005KT 10SM CLR 22/20 A3010 RMK AO2  T02160200,,,,,,67.99,,S,29.45,27.96,,Clear
KIGQ,09/05/2018 10:15 UTC,30.11,71.24,68.18,90.09,5.75,190.0,,,,,,1.0,,,,10.0,,KIGQ 051015Z AUTO 19005KT 10SM CLR 22/20 A3011 RMK AO2  T02180201,,,,,,68.17,,S,29.46,27.95,,Clear
KIGQ,09/05/2018 10:35 UTC,30.11,71.24,68.18,90.09,5.75,200.0,,,,,,1.0,,,,10.0,,KIGQ 051035Z AUTO 20005KT 10SM CLR 22/20 A3011 RMK AO2  T02180201,,,,,,68.17,,SSW,29.46,27.95,,Clear
KIGQ,09/05/2018 10:55 UTC,30.11,71.6,68.18,89.0,5.75,200.0,,,,,,1.0,,,,10.0,,KIGQ 051055Z AUTO 20005KT 10SM CLR 22/20 A3011 RMK AO2  T02200201,,,,,,68.17,,SSW,29.46,27.94,,Clear
KIGQ,09/05/2018 11:15 UTC,30.11,72.14,68.0,86.86,6.91,200.0,,,,,,1.0,,,,10.0,,KIGQ 051115Z AUTO 20006KT 10SM CLR 22/20 A3011 RMK AO2  T02230200,,,,,,67.99,,SSW,29.46,27.95,,Clear
KIGQ,09/05/2018 11:35 UTC,30.12,71.78,68.0,87.92,6.91,200.0,,,,,,1.0,,,,10.0,,KIGQ 051135Z AUTO 20006KT 10SM CLR 22/20 A3012 RMK AO2  T02210200,,,,,,67.99,,SSW,29.47,27.96,,Clear
KIGQ,09/05/2018 11:55 UTC,30.12,71.96,68.0,87.39,6.91,200.0,,,,,,1.0,,,,10.0,,KIGQ 051155Z AUTO 20006KT 10SM CLR 22/20 A3012 RMK AO2 T02220200  10241 20216,75.38,70.88,,,,67.99,,SSW,29.47,27.96,,Clear
KIGQ,09/05/2018 12:15 UTC,30.12,73.04,68.18,84.79,6.91,210.0,,,,,,1.0,,,,10.0,,KIGQ 051215Z AUTO 21006KT 10SM CLR 23/20 A3012 RMK AO2  T02280201,,,,,,68.17,,SSW,29.47,27.93,,Clear
KIGQ,09/05/2018 12:35 UTC,30.13,74.3,68.72,82.8,6.91,220.0,,,,,,1.0,,,,10.0,,KIGQ 051235Z AUTO 22006KT 10SM CLR 24/20 A3013 RMK AO2  T02350204,,,,,,68.71,,SW,29.47,27.88,,Clear
KIGQ,09/05/2018 12:55 UTC,30.13,75.38,68.9,80.36,6.91,210.0,,,,,,1.0,,,,10.0,,KIGQ 051255Z AUTO 21006KT 10SM CLR 24/21 A3013 RMK AO2  T02410205,,,,,,68.89,,SSW,29.47,27.85,,Clear
KIGQ,09/05/2018 13:15 UTC,30.12,77.0,69.62,78.06,8.05,210.0,,,,,,1.0,,,,10.0,,KIGQ 051315Z AUTO 21007KT 10SM CLR 25/21 A3012 RMK AO2  T02500209,,,,,,69.62,,SSW,29.47,27.78,,Clear
KIGQ,09/05/2018 13:35 UTC,30.12,78.08,69.98,76.26,9.22,220.0,,,,,,1.0,,,,10.0,,KIGQ 051335Z AUTO 22008KT 10SM CLR 26/21 A3012 RMK AO2  T02560211,,,,,,69.98,,SW,29.47,27.73,,Clear
KIGQ,09/05/2018 13:55 UTC,30.12,79.52,70.16,73.18,9.22,220.0,,,,,,1.0,,,,10.0,,KIGQ 051355Z AUTO 22008KT 10SM CLR 26/21 A3012 RMK AO2  T02640212,,,,,,70.17,,SW,29.47,27.7,,Clear
KIGQ,09/05/2018 14:15 UTC,30.12,80.78,70.52,71.1,10.36,230.0,,,,,,1.0,,,,10.0,,KIGQ 051415Z AUTO 23009KT 10SM CLR 27/21 A3012 RMK AO2  T02710214,,,,,,70.53,,SW,29.47,27.66,84.42,Clear
KIGQ,09/05/2018 14:35 UTC,30.12,81.68,70.88,69.91,11.5,210.0,17.27,,,,,1.0,,,,10.0,,KIGQ 051435Z AUTO 21010G15KT 10SM CLR 28/22 A3012 RMK AO2  T02760216,,,,,,70.9,,SSW,29.47,27.62,85.82,Clear
KIGQ,09/05/2018 14:55 UTC,30.13,82.58,71.06,68.32,12.66,220.0,18.41,,,,,1.0,,,,10.0,,KIGQ 051455Z AUTO 22011G16KT 10SM CLR 28/22 A3013 RMK AO2  T02810217,,,,,,71.09,,SW,29.47,27.59,87.14,Clear
KIGQ,09/05/2018 15:15 UTC,30.12,83.48,70.16,64.37,11.5,220.0,17.27,,,,,1.0,,,,10.0,,KIGQ 051515Z AUTO 22010G15KT 10SM CLR 29/21 A3012 RMK AO2  T02860212,,,,,,70.2,,SW,29.47,27.65,87.79,Clear
KIGQ,09/05/2018 15:35 UTC,30.12,84.74,70.88,63.35,13.8,240.0,,,,,,1.0,,,,10.0,,KIGQ 051535Z AUTO 24012KT 10SM CLR 29/22 A3012 RMK AO2  T02930216,,,,,,70.93,,WSW,29.47,27.58,89.83,Clear
KIGQ,09/05/2018 15:55 UTC,30.12,85.46,71.06,62.29,13.8,230.0,,,,,,372.0,,,,10.0,,KIGQ 051555Z AUTO 23012KT 10SM SCT037 30/22 A3012 RMK AO2  T02970217,,,,,,71.11,,SW,29.47,27.55,90.87,Partly Cloudy
KIGQ,09/05/2018 16:15 UTC,30.12,85.1,68.54,57.82,14.97,240.0,23.02,,,,,372.0,,,,10.0,,KIGQ 051615Z AUTO 24013G20KT 10SM SCT037 30/20 A3012 RMK AO2  T02950203,,,,,,68.59,,WSW,29.47,27.75,88.76,Partly Cloudy
KIGQ,09/05/2018 16:35 UTC,30.11,85.28,69.08,58.56,13.8,250.0,18.41,,,,,1.0,,,,10.0,,KIGQ 051635Z AUTO 25012G16KT 10SM CLR 30/21 A3011 RMK AO2  T02960206,,,,,,69.13,,WSW,29.46,27.7,89.3,Clear
KIGQ,09/05/2018 16:55 UTC,30.11,87.8,69.8,55.4,14.97,240.0,19.57,,,,,442.0,503.0,,,10.0,,KIGQ 051655Z AUTO 24013G17KT 10SM SCT044 BKN050 31/21 A3011 RMK AO2 T03100210,,,5000.0,,,69.88,,WSW,29.46,27.62,92.76,Mostly Cloudy
KIGQ,09/05/2018 17:15 UTC,30.11,86.9,68.72,54.94,16.11,240.0,19.57,,,,,442.0,502.0,,,10.0,,KIGQ 051715Z AUTO 24014G17KT 10SM SCT044 SCT050 31/20 A3011 RMK AO2 T03050204,,,,,,68.79,,WSW,29.46,27.71,90.93,Partly Cloudy
KIGQ,09/05/2018 17:35 UTC,30.1,86.9,68.18,53.93,13.8,240.0,,,,,,452.0,602.0,,,10.0,,KIGQ 051735Z AUTO 24012KT 10SM SCT045 SCT060 31/20 A3010 RMK AO2  T03050201,,,,,,68.25,,WSW,29.45,27.74,90.57,Partly Cloudy
KIGQ,09/05/2018 17:55 UTC,30.1,87.98,68.9,53.42,13.8,230.0,18.41,,652.0,,,482.0,602.0,,,10.0,,KIGQ 051755Z AUTO 23012G16KT 10SM SCT048 SCT060 SCT065 31/21 A3010 RMK AO2 T03110205 10311 20223,87.98,72.14,,,,68.99,,SW,29.45,27.67,92.3,Partly Cloudy
KIGQ,09/05/2018 18:15 UTC,30.09,88.52,68.9,52.52,13.8,230.0,,,,,,502.0,,,,10.0,,KIGQ 051815Z AUTO 23012KT 10SM SCT050 31/21 A3009 RMK AO2  T03140205,,,,,,68.99,,SW,29.44,27.66,92.93,Partly Cloudy
KIGQ,09/05/2018 18:35 UTC,30.09,88.88,68.9,51.93,14.97,220.0,,,,,,1.0,,,,10.0,,KIGQ 051835Z AUTO 22013KT 10SM CLR 32/21 A3009 RMK AO2  T03160205,,,,,,69.0,,SW,29.44,27.65,93.35,Clear
KIGQ,09/05/2018 18:55 UTC,30.08,89.6,67.82,48.92,14.97,230.0,21.85,,,,,1.0,,,,10.0,,KIGQ 051855Z AUTO 23013G19KT 10SM CLR 32/20 A3008 RMK AO2  T03200199,,,,,,67.93,,SW,29.43,27.72,93.39,Clear
KIGQ,09/05/2018 19:15 UTC,30.08,89.6,68.0,49.23,14.97,210.0,26.46,,,,,502.0,,,,10.0,,KIGQ 051915Z AUTO 21013G23KT 10SM SCT050 32/20 A3008 RMK AO2  T03200200,,,,,,68.12,,SSW,29.43,27.7,93.53,Partly Cloudy
KIGQ,09/05/2018 19:35 UTC,30.08,89.6,68.18,49.53,14.97,230.0,20.71,,,,,502.0,702.0,,,10.0,,KIGQ 051935Z AUTO 23013G18KT 10SM SCT050 SCT070 32/20 A3008 RMK AO2 T03200201,,,,,,68.29,,SW,29.43,27.69,93.65,Partly Cloudy
KIGQ,09/05/2018 19:55 UTC,30.06,89.06,66.56,47.64,14.97,240.0,20.71,,,,,602.0,702.0,,,10.0,,KIGQ 051955Z AUTO 24013G18KT 10SM SCT060 SCT070 32/19 A3006 RMK AO2 T03170192,,,,,,66.67,,WSW,29.41,27.8,91.95,Partly Cloudy
KIGQ,09/05/2018 20:15 UTC,30.06,90.14,67.1,46.92,16.11,230.0,21.85,,,,,602.0,902.0,,,10.0,,KIGQ 052015Z AUTO 23014G19KT 10SM SCT060 SCT090 32/20 A3006 RMK AO2 T03230195,,,,,,67.22,,SW,29.41,27.75,93.51,Partly Cloudy
KIGQ,09/05/2018 20:35 UTC,30.06,90.5,67.64,47.27,9.22,250.0,17.27,,,,,602.0,902.0,,,10.0,,KIGQ 052035Z AUTO 25008G15KT 10SM SCT060 SCT090 33/20 A3006 RMK AO2 T03250198,,,,,,67.77,,WSW,29.41,27.7,94.3,Partly Cloudy
KIGQ,09/05/2018 20:55 UTC,30.06,89.78,68.36,49.56,10.36,250.0,18.41,,,,,552.0,,,,10.0,,KIGQ 052055Z AUTO 25009G16KT 10SM SCT055 32/20 A3006 RMK AO2  T03210202,,,,,,68.48,,WSW,29.41,27.65,93.99,Partly Cloudy
KIGQ,09/05/2018 21:15 UTC,30.06,89.78,67.1,47.46,11.5,260.0,,,,,,552.0,,,,10.0,,KIGQ 052115Z AUTO 26010KT 10SM SCT055 32/20 A3006 RMK AO2  T03210195,,,,,,67.22,,W,29.41,27.75,93.11,Partly Cloudy
KIGQ,09/05/2018 21:35 UTC,30.07,89.24,66.56,47.38,12.66,230.0,,,,,,1.0,,,,10.0,,KIGQ 052135Z AUTO 23011KT 10SM CLR 32/19 A3007 RMK AO2  T03180192,,,,,,66.68,,SW,29.42,27.8,92.15,Clear
KIGQ,09/05/2018 21:55 UTC,30.06,89.6,66.92,47.43,11.5,260.0,18.41,,,,,902.0,,,,10.0,,KIGQ 052155Z AUTO 26010G16KT 10SM SCT090 32/19 A3006 RMK AO2  T03200194,,,,,,67.04,,W,29.41,27.76,92.78,Partly Cloudy
KIGQ,09/05/2018 22:15 UTC,30.06,89.06,66.92,48.24,9.22,250.0,,,,,,902.0,,,,10.0,,KIGQ 052215Z AUTO 25008KT 10SM SCT090 32/19 A3006 RMK AO2  T03170194,,,,,,67.03,,WSW,29.41,27.77,92.18,Partly Cloudy
KIGQ,09/05/2018 22:35 UTC,30.07,88.7,66.92,48.79,10.36,260.0,,,,,,1.0,,,,10.0,,KIGQ 052235Z AUTO 26009KT 10SM CLR 32/19 A3007 RMK AO2  T03150194,,,,,,67.02,,W,29.42,27.78,91.78,Clear
KIGQ,09/05/2018 22:55 UTC,30.09,85.64,69.8,59.33,11.5,330.0,19.57,,,,,1.0,,,,10.0,,KIGQ 052255Z AUTO 33010G17KT 10SM CLR 30/21 A3009 RMK AO2  T02980210,,,,,,69.85,,NNW,29.44,27.62,90.19,Clear
KIGQ,09/05/2018 23:15 UTC,30.1,82.58,70.16,66.26,11.5,20.0,17.27,,,,,652.0,1202.0,,,10.0,,KIGQ 052315Z AUTO 02010G15KT 10SM SCT065 SCT120 28/21 A3010 RMK AO2 T02810212,,,,,,70.19,,NNE,29.45,27.64,86.65,Partly Cloudy
KIGQ,09/05/2018 23:35 UTC,30.11,75.92,70.16,82.4,11.5,30.0,,,,,,652.0,1202.0,,,,,KIGQ 052335Z AUTO 03010KT SCT065 SCT120 24/21 A3011 RMK AO2 LTG  DSNT W T02440212,,,,,,70.16,,NNE,29.46,27.74,,Partly Cloudy
KIGQ,09/05/2018 23:55 UTC,30.11,75.38,70.16,83.89,11.5,20.0,16.11,,,,,1.0,,,,10.0,,KIGQ 052355Z AUTO 02010G14KT 10SM CLR 24/21 A3011 RMK AO2 LTG DSNT  S T02410212 10325 20241,90.5,75.38,,,,70.15,,NNE,29.46,27.75,,Clear
KIGQ,09/06/2018 00:15 UTC,30.12,74.66,70.34,86.46,9.22,20.0,,,,,,1.0,,,,10.0,,KIGQ 060015Z AUTO 02008KT 10SM CLR 24/21 A3012 RMK AO2 LTG DSNT SE  T02370213,,,,,,70.33,,NNE,29.47,27.75,,Clear
KIGQ,09/06/2018 00:35 UTC,30.13,74.48,70.16,86.45,9.22,20.0,,,,,,702.0,,,,10.0,,KIGQ 060035Z AUTO 02008KT 10SM SCT070 24/21 A3013 RMK AO2 LTG DSNT  S T02360212,,,,,,70.15,,NNE,29.47,27.77,,Partly Cloudy
KIGQ,09/06/2018 00:55 UTC,30.15,73.76,69.08,85.35,10.36,10.0,,,,,,702.0,,,,10.0,,KIGQ 060055Z AUTO 01009KT 10SM SCT070 23/21 A3015 RMK AO2 LTG DSNT  E T02320206,,,,,,69.07,,N,29.49,27.88,,Partly Cloudy
KIGQ,09/06/2018 01:15 UTC,30.17,73.4,69.44,87.46,11.5,20.0,,,,,,93.0,173.0,,,10.0,,KIGQ 060115Z AUTO 02010KT 10SM BKN009 BKN017 23/21 A3017 RMK AO2  LTG DSNT SE AND S T02300208,,,900.0,,,69.43,,NNE,29.51,27.88,,Mostly Cloudy
KIGQ,09/06/2018 01:35 UTC,30.18,73.4,69.44,87.46,8.05,40.0,,,,,,94.0,,,,10.0,,KIGQ 060135Z AUTO 04007KT 10SM OVC009 23/21 A3018 RMK AO2 LTG DSNT  E THRU S T02300208,,,900.0,,,69.43,,NE,29.52,27.89,,Overcast
KIGQ,09/06/2018 01:55 UTC,30.19,73.58,69.08,85.87,8.05,40.0,,,,,,94.0,,,,10.0,,KIGQ 060155Z AUTO 04007KT 10SM OVC009 23/21 A3019 RMK AO2  T02310206,,,900.0,,,69.07,,NE,29.53,27.92,,Overcast
KIGQ,09/06/2018 02:15 UTC,30.2,73.04,69.44,88.52,3.44,10.0,,13.0,,,,114.0,,,,10.0,,KIGQ 060215Z AUTO 01003KT 10SM -RA OVC011 23/21 A3020 RMK AO2  T02280208,,,1100.0,,,69.43,,N,29.54,27.92,,Light Rain
KIGQ,09/06/2018 02:35 UTC,30.19,72.5,69.62,90.7,8.05,360.0,,13.0,,0.01,,113.0,384.0,,,10.0,,KIGQ 060235Z AUTO 36007KT 10SM -RA BKN011 OVC038 23/21 A3019 RMK AO2 P0001 T02250209,,,1100.0,,,69.61,,N,29.53,27.9,,Light Rain
KIGQ,09/06/2018 02:55 UTC,30.19,71.6,69.44,92.93,4.61,20.0,,,953.0,0.01,0.01,62.0,123.0,,,10.0,,KIGQ 060255Z AUTO 02004KT 10SM SCT006 BKN012 BKN095 22/21 A3019 RMK AO2 P0001 60001 T02200208,,,1200.0,,,69.44,,NNE,29.53,27.93,,Mostly Cloudy
KIGQ,09/06/2018 03:15 UTC,30.19,71.6,69.8,94.07,4.61,10.0,,,653.0,,,63.0,103.0,,,10.0,,KIGQ 060315Z AUTO 01004KT 10SM BKN006 BKN010 BKN065 22/21 A3019 RMK AO2 LTG DSNT S T02200210,,,600.0,,,69.79,,N,29.53,27.9,,Mostly Cloudy
KIGQ,09/06/2018 03:35 UTC,30.2,71.78,69.98,94.08,5.75,360.0,,,,,,84.0,,,,10.0,,KIGQ 060335Z AUTO 36005KT 10SM OVC008 22/21 A3020 RMK AO2  T02210211,,,800.0,,,69.98,,N,29.54,27.89,,Overcast
KIGQ,09/06/2018 03:55 UTC,30.21,71.24,69.08,92.91,5.75,360.0,,,,,,83.0,124.0,,,10.0,,KIGQ 060355Z AUTO 36005KT 10SM BKN008 OVC012 22/21 A3021 RMK AO2  T02180206,,,800.0,,,69.07,,N,29.55,27.98,,Overcast
KIGQ,09/06/2018 04:15 UTC,30.22,71.06,68.9,92.91,5.75,40.0,,13.0,504.0,,,103.0,243.0,,,10.0,,KIGQ 060415Z AUTO 04005KT 10SM -RA BKN010 BKN024 OVC050 22/21  A3022 RMK AO2 T02170205,,,1000.0,,,68.89,,NE,29.56,28.0,,Light Rain
KIGQ,09/06/2018 04:35 UTC,30.21,71.06,68.72,92.34,5.75,30.0,,,,,,104.0,,,,10.0,,KIGQ 060435Z AUTO 03005KT 10SM OVC010 22/20 A3021 RMK AO2  T02170204,,,1000.0,,,68.71,,NNE,29.55,28.01,,Overcast
KIGQ,09/06/2018 04:55 UTC,30.21,71.06,68.9,92.91,5.75,30.0,,,,,,102.0,244.0,,,10.0,,KIGQ 060455Z AUTO 03005KT 10SM SCT010 OVC024 22/21 A3021 RMK AO2  T02170205,,,2400.0,,,68.89,,NNE,29.55,27.99,,Overcast
KIGQ,09/06/2018 05:15 UTC,30.21,71.06,68.9,92.91,5.75,30.0,,,244.0,,,102.0,143.0,,,10.0,,KIGQ 060515Z AUTO 03005KT 10SM SCT010 BKN014 OVC024 22/21 A3021 RMK AO2 T02170205,,,1400.0,,,68.89,,NNE,29.55,27.99,,Overcast
KIGQ,09/06/2018 05:35 UTC,30.21,70.88,68.0,90.64,5.75,10.0,,,,,,102.0,164.0,,,10.0,,KIGQ 060535Z AUTO 01005KT 10SM SCT010 OVC016 22/20 A3021 RMK AO2  T02160200,,,1600.0,,,67.99,,N,29.55,28.06,,Overcast
KIGQ,09/06/2018 05:55 UTC,30.21,70.7,67.82,90.63,4.61,350.0,,,,,,163.0,854.0,0.01,,10.0,,KIGQ 060555Z AUTO 35004KT 10SM BKN016 OVC085 22/20 A3021 RMK AO2  60001 T02150199 10240 20215 403250215,75.2,70.7,1600.0,90.5,70.7,67.81,,N,29.55,28.07,,Overcast
KIGQ,09/06/2018 06:15 UTC,30.22,70.7,67.64,90.07,3.44,340.0,,13.0,,,,184.0,,,,10.0,,KIGQ 060615Z AUTO 34003KT 10SM -RA OVC018 22/20 A3022 RMK AO2  T02150198,,,1800.0,,,67.63,,NNW,29.56,28.1,,Light Rain
KIGQ,09/06/2018 06:35 UTC,30.21,70.34,67.1,89.5,8.05,10.0,,,,,,164.0,,,,10.0,,KIGQ 060635Z AUTO 01007KT 10SM OVC016 21/20 A3021 RMK AO2  T02130195,,,1600.0,,,67.09,,N,29.55,28.13,,Overcast
KIGQ,09/06/2018 06:55 UTC,30.21,69.98,66.74,89.49,6.91,20.0,,13.0,,,,183.0,903.0,,,10.0,,KIGQ 060655Z AUTO 02006KT 10SM -RA BKN018 BKN090 21/19 A3021 RMK AO2 T02110193,,,1800.0,,,66.73,,NNE,29.55,28.16,,Light Rain
KIGQ,09/06/2018 07:15 UTC,30.21,70.16,66.74,88.94,4.61,10.0,,,,,,183.0,903.0,,,10.0,,KIGQ 060715Z AUTO 01004KT 10SM BKN018 BKN090 21/19 A3021 RMK AO2  T02120193,,,1800.0,,,66.73,,N,29.55,28.15,,Mostly Cloudy
KIGQ,09/06/2018 07:35 UTC,30.22,70.52,67.1,88.96,5.75,20.0,,,,,,133.0,184.0,,,10.0,,KIGQ 060735Z AUTO 02005KT 10SM BKN013 OVC018 21/20 A3022 RMK AO2  T02140195,,,1300.0,,,67.09,,NNE,29.56,28.13,,Overcast
KIGQ,09/06/2018 07:55 UTC,30.21,70.7,67.28,88.96,6.91,10.0,,,,,,134.0,,,,10.0,,KIGQ 060755Z AUTO 01006KT 10SM OVC013 22/20 A3021 RMK AO2  T02150196,,,1300.0,,,67.27,,N,29.55,28.11,,Overcast
KIGQ,09/06/2018 08:15 UTC,30.21,70.52,66.92,88.4,8.05,10.0,,,,,,114.0,,,,10.0,,KIGQ 060815Z AUTO 01007KT 10SM OVC011 21/19 A3021 RMK AO2  T02140194,,,1100.0,,,66.91,,N,29.55,28.14,,Overcast
KIGQ,09/06/2018 08:35 UTC,30.21,70.34,66.56,87.85,8.05,30.0,,,,,,114.0,,,,10.0,,KIGQ 060835Z AUTO 03007KT 10SM OVC011 21/19 A3021 RMK AO2  T02130192,,,1100.0,,,66.55,,NNE,29.55,28.16,,Overcast
KIGQ,09/06/2018 08:55 UTC,30.22,69.98,66.38,88.38,9.22,40.0,,13.0,,,,134.0,,,,10.0,,KIGQ 060855Z AUTO 04008KT 10SM -RA OVC013 21/19 A3022 RMK AO2  T02110191,,,1300.0,,,66.37,,NE,29.56,28.19,,Light Rain
KIGQ,09/06/2018 09:15 UTC,30.21,69.8,66.2,88.37,8.05,40.0,,,,,,154.0,,,,10.0,,KIGQ 060915Z AUTO 04007KT 10SM OVC015 21/19 A3021 RMK AO2  T02100190,,,1500.0,,,66.19,,NE,29.55,28.19,,Overcast
KIGQ,09/06/2018 09:35 UTC,30.21,69.8,66.2,88.37,10.36,40.0,,1.0,,,,134.0,,,,10.0,,KIGQ 060935Z AUTO 04009KT 10SM RA OVC013 21/19 A3021 RMK AO2  T02100190,,,1300.0,,,66.19,,NE,29.55,28.19,,Rain
KIGQ,09/06/2018 09:55 UTC,30.22,69.44,66.38,90.02,8.05,30.0,,13.0,,,,153.0,214.0,,,10.0,,KIGQ 060955Z AUTO 03007KT 10SM -RA BKN015 OVC021 21/19 A3022 RMK AO2 T02080191,,,1500.0,,,66.37,,NNE,29.56,28.2,,Light Rain
KIGQ,09/06/2018 10:15 UTC,30.23,69.44,66.74,91.15,8.05,30.0,,13.0,,,,143.0,204.0,,,10.0,,KIGQ 061015Z AUTO 03007KT 10SM -RA BKN014 OVC020 21/19 A3023 RMK AO2 T02080193,,,1400.0,,,66.73,,NNE,29.57,28.18,,Light Rain
KIGQ,09/06/2018 10:35 UTC,30.23,69.44,66.92,91.72,6.91,360.0,,13.0,,,,143.0,204.0,,,10.0,,KIGQ 061035Z AUTO 36006KT 10SM -RA BKN014 OVC020 21/19 A3023 RMK AO2 T02080194,,,1400.0,,,66.91,,N,29.57,28.17,,Light Rain
KIGQ,09/06/2018 10:55 UTC,30.24,69.44,66.74,91.15,5.75,10.0,,1.0,,,,124.0,,,,10.0,,KIGQ 061055Z AUTO 01005KT 10SM RA OVC012 21/19 A3024 RMK AO2  T02080193,,,1200.0,,,66.73,,N,29.58,28.19,,Rain
KIGQ,09/06/2018 11:15 UTC,30.25,69.26,66.74,91.71,6.91,10.0,,13.0,,,,124.0,,,,10.0,,KIGQ 061115Z AUTO 01006KT 10SM -RA OVC012 21/19 A3025 RMK AO2  T02070193,,,1200.0,,,66.73,,N,29.59,28.21,,Light Rain
KIGQ,09/06/2018 11:35 UTC,30.25,68.9,66.92,93.42,8.05,20.0,,1.0,,,,124.0,,,,5.0,,KIGQ 061135Z AUTO 02007KT 5SM RA OVC012 21/19 A3025 RMK AO2  T02050194,,,1200.0,,,66.91,,NNE,29.59,28.2,,Rain
KIGQ,09/06/2018 11:55 UTC,30.26,68.9,67.1,94.01,6.91,10.0,,13.0,,,,104.0,,,0.01,7.0,,KIGQ 061155Z AUTO 01006KT 7SM -RA OVC010 21/20 A3026 RMK AO2 70001  T02050195 10215 20205,70.7,68.9,1000.0,,,67.09,,N,29.6,28.2,,Light Rain
KIGQ,09/06/2018 12:15 UTC,30.26,68.9,67.1,94.01,5.75,20.0,,1.0,,,,84.0,,,,5.0,,KIGQ 061215Z AUTO 02005KT 5SM RA OVC008 21/20 A3026 RMK AO2  T02050195,,,800.0,,,67.09,,NNE,29.6,28.2,,Rain
KIGQ,09/06/2018 12:35 UTC,30.26,68.54,67.1,95.17,8.05,30.0,,14.0,,0.05,,64.0,,,,3.0,,KIGQ 061235Z AUTO 03007KT 3SM +RA OVC006 20/20 A3026 RMK AO2 P0005  T02030195,,,600.0,,,67.09,,NNE,29.6,28.2,,Heavy Rain
KIGQ,09/06/2018 12:55 UTC,30.27,68.36,67.1,95.76,5.75,10.0,,1.0,,0.08,,83.0,134.0,,,7.0,,KIGQ 061255Z AUTO 01005KT 7SM RA BKN008 OVC013 20/20 A3027 RMK AO2  P0008 T02020195,,,800.0,,,67.09,,N,29.61,28.22,,Rain
KIGQ,09/06/2018 13:15 UTC,30.27,68.54,67.1,95.17,8.05,30.0,,1.0,,,,103.0,184.0,,,10.0,,KIGQ 061315Z AUTO 03007KT 10SM RA BKN010 OVC018 20/20 A3027 RMK AO2 T02030195,,,1000.0,,,67.09,,NNE,29.61,28.21,,Rain
KIGQ,09/06/2018 13:35 UTC,30.27,68.9,66.56,92.27,9.22,40.0,,1.0,254.0,,,103.0,203.0,,,10.0,,KIGQ 061335Z AUTO 04008KT 10SM RA BKN010 BKN020 OVC025 21/19 A3027 RMK AO2 T02050192,,,1000.0,,,66.55,,NE,29.61,28.24,,Rain
KIGQ,09/06/2018 13:55 UTC,30.28,68.72,66.38,92.26,6.91,30.0,,13.0,,,,103.0,214.0,,,10.0,,KIGQ 061355Z AUTO 03006KT 10SM -RA BKN010 OVC021 20/19 A3028 RMK AO2 T02040191,,,1000.0,,,66.37,,NNE,29.62,28.27,,Light Rain
KIGQ,09/06/2018 14:15 UTC,30.28,68.36,66.2,92.83,8.05,30.0,,1.0,,,,123.0,184.0,,,10.0,,KIGQ 061415Z AUTO 03007KT 10SM RA BKN012 OVC018 20/19 A3028 RMK AO2 T02020190,,,1200.0,,,66.19,,NNE,29.62,28.28,,Rain
KIGQ,09/06/2018 14:35 UTC,30.28,68.36,66.38,93.41,3.44,40.0,,1.0,,0.01,,93.0,144.0,,,10.0,,KIGQ 061435Z AUTO 04003KT 10SM RA BKN009 OVC014 20/19 A3028 RMK AO2 P0001 T02020191,,,900.0,,,66.37,,NE,29.62,28.27,,Rain
KIGQ,09/06/2018 14:55 UTC,30.29,68.18,65.48,91.1,5.75,40.0,,13.0,214.0,0.01,0.09,92.0,152.0,,,10.0,,KIGQ 061455Z AUTO 04005KT 10SM -RA SCT009 SCT015 OVC021 20/19  A3029 RMK AO2 P0001 60009 T02010186,,,2100.0,,,65.47,,NE,29.63,28.34,,Light Rain
KIGQ,09/06/2018 15:15 UTC,30.29,68.18,65.12,89.97,9.22,30.0,,13.0,,,,142.0,214.0,,,10.0,,KIGQ 061515Z AUTO 03008KT 10SM -RA SCT014 OVC021 20/18 A3029 RMK AO2 T02010184,,,2100.0,,,65.11,,NNE,29.63,28.36,,Light Rain
KIGQ,09/06/2018 15:35 UTC,30.3,68.36,65.66,91.11,5.75,40.0,,13.0,,,,122.0,214.0,,,10.0,,KIGQ 061535Z AUTO 04005KT 10SM -RA SCT012 OVC021 20/19 A3030 RMK AO2 T02020187,,,2100.0,,,65.65,,NE,29.64,28.34,,Light Rain
KIGQ,09/06/2018 15:55 UTC,30.3,68.72,65.3,88.87,9.22,30.0,,13.0,,,,123.0,234.0,,,10.0,,KIGQ 061555Z AUTO 03008KT 360V060 10SM -RA BKN012 OVC023 20/19  A3030 RMK AO2 T02040185,,,1200.0,,,65.28,,NNE,29.64,28.36,,Light Rain
KIGQ,09/06/2018 16:15 UTC,30.3,69.08,66.02,90.01,8.05,40.0,,13.0,294.0,,,123.0,233.0,,,10.0,,KIGQ 061615Z AUTO 04007KT 020V080 10SM -RA BKN012 BKN023 OVC029  21/19 A3030 RMK AO2 T02060189,,,1200.0,,,66.01,,NE,29.64,28.31,,Light Rain
KIGQ,09/06/2018 16:35 UTC,30.3,69.62,66.02,88.36,10.36,30.0,,13.0,294.0,,,123.0,193.0,,,10.0,,KIGQ 061635Z AUTO 03009KT 10SM -RA BKN012 BKN019 OVC029 21/19  A3030 RMK AO2 T02090189,,,1200.0,,,66.01,,NNE,29.64,28.3,,Light Rain
KIGQ,09/06/2018 16:55 UTC,30.29,70.16,66.2,87.29,11.5,40.0,,13.0,314.0,,,142.0,212.0,,,10.0,,KIGQ 061655Z AUTO 04010KT 10SM -RA SCT014 SCT021 OVC031 21/19  A3029 RMK AO2 T02120190,,,3100.0,,,66.18,,NE,29.63,28.27,,Light Rain
KIGQ,09/06/2018 17:15 UTC,30.29,69.8,65.3,85.66,10.36,40.0,,13.0,314.0,,,142.0,213.0,,,10.0,,KIGQ 061715Z AUTO 04009KT 10SM -RA SCT014 BKN021 OVC031 21/19  A3029 RMK AO2 T02100185,,,2100.0,,,65.29,,NE,29.63,28.33,,Light Rain
KIGQ,09/06/2018 17:35 UTC,30.29,69.98,64.4,82.51,10.36,30.0,,13.0,,,,214.0,,,,10.0,,KIGQ 061735Z AUTO 03009KT 10SM -RA OVC021 21/18 A3029 RMK AO2  T02110180,,,2100.0,,,64.38,,NNE,29.63,28.39,,Light Rain
KIGQ,09/06/2018 17:55 UTC,30.29,69.98,63.86,80.96,10.36,50.0,,13.0,,,,214.0,,0.09,,10.0,,KIGQ 061755Z AUTO 05009KT 10SM -RA OVC021 21/18 A3029 RMK AO2  60009 T02110177 10212 20200,70.16,68.0,2100.0,,,63.84,,NE,29.63,28.42,,Light Rain
KIGQ,09/06/2018 18:15 UTC,30.28,71.06,64.4,79.53,10.36,40.0,16.11,,,,,234.0,,,,10.0,,KIGQ 061815Z AUTO 04009G14KT 10SM OVC023 22/18 A3028 RMK AO2  T02170180,,,2300.0,,,64.38,,NE,29.62,28.36,,Overcast
KIGQ,09/06/2018 18:35 UTC,30.28,71.06,64.94,81.04,8.05,50.0,,,,,,162.0,234.0,,,,,KIGQ 061835Z AUTO 05007KT SCT016 OVC023 22/18 A3028 RMK AO2  T02170183 PWINO,,,2300.0,,,64.92,,NE,29.62,28.33,,Overcast
KIGQ,09/06/2018 18:55 UTC,30.26,71.96,65.12,79.11,11.5,40.0,,,,,,162.0,253.0,,,10.0,,KIGQ 061855Z AUTO 04010KT 10SM SCT016 BKN025 22/18 A3026 RMK AO2  T02220184,,,2500.0,,,65.1,,NE,29.6,28.28,,Mostly Cloudy
KIGQ,09/06/2018 19:15 UTC,30.27,70.16,64.76,83.04,11.5,40.0,16.11,,,,,184.0,,,,10.0,,KIGQ 061915Z AUTO 04010G14KT 10SM OVC018 21/18 A3027 RMK AO2  T02120182,,,1800.0,,,64.74,,NE,29.61,28.34,,Overcast
KIGQ,09/06/2018 19:35 UTC,30.27,70.52,63.86,79.49,10.36,40.0,16.11,,1203.0,,,142.0,193.0,,,10.0,,KIGQ 061935Z AUTO 04009G14KT 10SM SCT014 BKN019 BKN120 21/18 A3027 RMK AO2 T02140177,,,1900.0,,,63.84,,NE,29.61,28.39,,Mostly Cloudy
KIGQ,09/06/2018 19:55 UTC,30.26,69.44,63.68,81.95,11.5,20.0,,,,,,144.0,,,,10.0,,KIGQ 061955Z AUTO 02010KT 10SM OVC014 21/18 A3026 RMK AO2  T02080176,,,1400.0,,,63.66,,NNE,29.6,28.41,,Overcast
KIGQ,09/06/2018 20:15 UTC,30.26,69.8,63.86,81.46,8.05,10.0,,,,,,144.0,,,,10.0,,KIGQ 062015Z AUTO 01007KT 10SM OVC014 21/18 A3026 RMK AO2  T02100177,,,1400.0,,,63.84,,N,29.6,28.39,,Overcast
KIGQ,09/06/2018 20:35 UTC,30.25,69.8,63.68,80.95,9.22,30.0,,,,,,164.0,,,,10.0,,KIGQ 062035Z AUTO 03008KT 10SM OVC016 21/18 A3025 RMK AO2  T02100176,,,1600.0,,,63.66,,NNE,29.59,28.39,,Overcast
KIGQ,09/06/2018 20:55 UTC,30.25,68.9,63.5,82.95,9.22,20.0,,,,,,144.0,,,,10.0,,KIGQ 062055Z AUTO 02008KT 10SM OVC014 21/18 A3025 RMK AO2  T02050175,,,1400.0,,,63.48,,NNE,29.59,28.41,,Overcast
KIGQ,09/06/2018 21:15 UTC,30.25,68.54,63.14,82.93,10.36,20.0,,13.0,,,,164.0,,,,10.0,,KIGQ 062115Z AUTO 02009KT 10SM -RA OVC016 20/17 A3025 RMK AO2  T02030173,,,1600.0,,,63.12,,NNE,29.59,28.44,,Light Rain
KIGQ,09/06/2018 21:35 UTC,30.25,68.54,63.5,83.98,10.36,30.0,16.11,,,,,164.0,,,,10.0,,KIGQ 062135Z AUTO 03009G14KT 10SM OVC016 20/18 A3025 RMK AO2  T02030175,,,1600.0,,,63.48,,NNE,29.59,28.42,,Overcast
KIGQ,09/06/2018 21:55 UTC,30.25,68.54,62.78,81.89,9.22,20.0,,,,,,164.0,,,,10.0,,KIGQ 062155Z AUTO 02008KT 10SM OVC016 20/17 A3025 RMK AO2  T02030171,,,1600.0,,,62.76,,NNE,29.59,28.46,,Overcast
KIGQ,09/06/2018 22:15 UTC,30.25,68.72,62.24,79.85,10.36,30.0,16.11,,,,,164.0,,,,10.0,,KIGQ 062215Z AUTO 03009G14KT 10SM OVC016 20/17 A3025 RMK AO2  T02040168,,,1600.0,,,62.21,,NNE,29.59,28.49,,Overcast
KIGQ,09/06/2018 22:35 UTC,30.24,68.54,61.7,78.83,10.36,50.0,16.11,,,,,182.0,263.0,,,10.0,,KIGQ 062235Z AUTO 05009G14KT 10SM SCT018 BKN026 20/17 A3024 RMK AO2 T02030165,,,2600.0,,,61.67,,NE,29.58,28.51,,Mostly Cloudy
KIGQ,09/06/2018 22:55 UTC,30.25,68.36,61.16,77.82,8.05,30.0,,,,,,242.0,292.0,,,10.0,,KIGQ 062255Z AUTO 03007KT 10SM SCT024 SCT029 20/16 A3025 RMK AO2  T02020162,,,,,,61.13,,NNE,29.59,28.55,,Partly Cloudy
KIGQ,09/06/2018 23:15 UTC,30.25,68.36,60.8,76.84,9.22,30.0,,,,,,222.0,312.0,,,10.0,,KIGQ 062315Z AUTO 03008KT 10SM SCT022 SCT031 20/16 A3025 RMK AO2  T02020160,,,,,,60.77,,NNE,29.59,28.57,,Partly Cloudy
KIGQ,09/06/2018 23:35 UTC,30.25,68.36,60.8,76.84,8.05,40.0,,,,,,222.0,292.0,,,10.0,,KIGQ 062335Z AUTO 04007KT 10SM SCT022 SCT029 20/16 A3025 RMK AO2  T02020160,,,,,,60.77,,NE,29.59,28.57,,Partly Cloudy
KIGQ,09/06/2018 23:55 UTC,30.25,68.54,60.08,74.44,10.36,20.0,,,1003.0,,,222.0,292.0,,,10.0,,KIGQ 062355Z AUTO 02009KT 10SM SCT022 SCT029 BKN100 20/16 A3025 RMK AO2 T02030156 10222 20202,71.96,68.36,10000.0,,,60.05,,NNE,29.59,28.61,,Mostly Cloudy
KIGQ,09/07/2018 00:15 UTC,30.24,68.36,59.9,74.42,9.22,40.0,,,1203.0,,,292.0,902.0,,,10.0,,KIGQ 070015Z AUTO 04008KT 10SM SCT029 SCT090 BKN120 20/16 A3024 RMK AO2 T02020155,,,12000.0,,,59.86,,NE,29.58,28.61,,Mostly Cloudy
KIGQ,09/07/2018 00:35 UTC,30.24,68.36,59.9,74.42,8.05,40.0,,,,,,903.0,,,,10.0,,KIGQ 070035Z AUTO 04007KT 10SM BKN090 20/16 A3024 RMK AO2  T02020155,,,9000.0,,,59.86,,NE,29.58,28.61,,Mostly Cloudy
KIGQ,09/07/2018 00:55 UTC,30.25,68.36,59.9,74.42,6.91,40.0,,,,,,242.0,903.0,,,10.0,,KIGQ 070055Z AUTO 04006KT 10SM SCT024 BKN090 20/16 A3025 RMK AO2  T02020155,,,9000.0,,,59.86,,NE,29.59,28.62,,Mostly Cloudy
KIGQ,09/07/2018 01:15 UTC,30.25,68.36,59.9,74.42,8.05,40.0,,,,,,242.0,1003.0,,,10.0,,KIGQ 070115Z AUTO 04007KT 10SM SCT024 BKN100 20/16 A3025 RMK AO2  T02020155,,,10000.0,,,59.86,,NE,29.59,28.62,,Mostly Cloudy
KIGQ,09/07/2018 01:35 UTC,30.26,68.36,59.9,74.42,8.05,40.0,,,,,,232.0,1003.0,,,10.0,,KIGQ 070135Z AUTO 04007KT 10SM SCT023 BKN100 20/16 A3026 RMK AO2  T02020155,,,10000.0,,,59.86,,NE,29.6,28.63,,Mostly Cloudy
KIGQ,09/07/2018 01:55 UTC,30.26,68.36,59.54,73.47,9.22,40.0,,,,,,1002.0,,,,10.0,,KIGQ 070155Z AUTO 04008KT 10SM SCT100 20/15 A3026 RMK AO2  T02020153,,,,,,59.5,,NE,29.6,28.65,,Partly Cloudy
KIGQ,09/07/2018 02:15 UTC,30.25,68.36,59.36,73.0,6.91,40.0,,,,,,232.0,1003.0,,,10.0,,KIGQ 070215Z AUTO 04006KT 10SM SCT023 BKN100 20/15 A3025 RMK AO2  T02020152,,,10000.0,,,59.32,,NE,29.59,28.65,,Mostly Cloudy
KIGQ,09/07/2018 02:35 UTC,30.25,69.08,59.0,70.32,9.22,40.0,,,,,,214.0,,,,10.0,,KIGQ 070235Z AUTO 04008KT 10SM OVC021 21/15 A3025 RMK AO2  T02060150,,,2100.0,,,58.96,,NE,29.59,28.66,,Overcast
KIGQ,09/07/2018 02:55 UTC,30.24,69.26,60.08,72.63,9.22,40.0,,,,,,194.0,,,,10.0,,KIGQ 070255Z AUTO 04008KT 10SM OVC019 21/16 A3024 RMK AO2  T02070156,,,1900.0,,,60.05,,NE,29.58,28.59,,Overcast
KIGQ,09/07/2018 03:15 UTC,30.24,69.08,61.7,77.39,4.61,60.0,,,,,,194.0,,,,10.0,,KIGQ 070315Z AUTO 06004KT 10SM OVC019 21/17 A3024 RMK AO2  T02060165,,,1900.0,,,61.67,,ENE,29.58,28.51,,Overcast
KIGQ,09/07/2018 03:35 UTC,30.24,69.08,63.14,81.41,5.75,60.0,,,,,,194.0,,,,10.0,,KIGQ 070335Z AUTO 06005KT 10SM OVC019 21/17 A3024 RMK AO2  T02060173,,,1900.0,,,63.12,,ENE,29.58,28.42,,Overcast
KIGQ,09/07/2018 03:55 UTC,30.24,69.08,63.14,81.41,6.91,50.0,,,,,,214.0,,,,10.0,,KIGQ 070355Z AUTO 05006KT 10SM OVC021 21/17 A3024 RMK AO2  T02060173,,,2100.0,,,63.12,,NE,29.58,28.42,,Overcast
KIGQ,09/07/2018 04:15 UTC,30.24,68.9,63.5,82.95,4.61,60.0,,,,,,214.0,,,,10.0,,KIGQ 070415Z AUTO 06004KT 10SM OVC021 21/18 A3024 RMK AO2  T02050175,,,2100.0,,,63.48,,ENE,29.58,28.4,,Overcast
KIGQ,09/07/2018 04:35 UTC,30.24,68.9,63.32,82.43,5.75,50.0,,,,,,214.0,,,,10.0,,KIGQ 070435Z AUTO 05005KT 10SM OVC021 21/17 A3024 RMK AO2  T02050174,,,2100.0,,,63.3,,NE,29.58,28.41,,Overcast
KIGQ,09/07/2018 04:55 UTC,30.23,68.54,62.78,81.89,5.75,40.0,,,,,,214.0,,,,10.0,,KIGQ 070455Z AUTO 04005KT 10SM OVC021 20/17 A3023 RMK AO2  T02030171,,,2100.0,,,62.76,,NE,29.57,28.44,,Overcast
KIGQ,09/07/2018 05:15 UTC,30.24,68.0,62.78,83.42,4.61,30.0,,,,,,212.0,,,,10.0,,KIGQ 070515Z AUTO 03004KT 10SM SCT021 20/17 A3024 RMK AO2  T02000171,,,,,,62.76,,NNE,29.58,28.46,,Partly Cloudy
KIGQ,09/07/2018 05:35 UTC,30.24,68.0,62.06,81.33,4.61,40.0,,,,,,1.0,,,,10.0,,KIGQ 070535Z AUTO 04004KT 10SM CLR 20/17 A3024 RMK AO2  T02000167,,,,,,62.03,,NE,29.58,28.5,,Clear
KIGQ,09/07/2018 05:55 UTC,30.23,67.46,62.24,83.38,6.91,40.0,,,,,,252.0,,,,10.0,,KIGQ 070555Z AUTO 04006KT 10SM SCT025 20/17 A3023 RMK AO2  T01970168 10207 20197 402220197,69.26,67.46,,71.96,67.46,62.21,,NE,29.57,28.48,,Partly Cloudy
KIGQ,09/07/2018 06:15 UTC,30.23,68.0,62.6,82.89,5.75,60.0,,,,,,254.0,,,,10.0,,KIGQ 070615Z AUTO 06005KT 10SM OVC025 20/17 A3023 RMK AO2  T02000170,,,2500.0,,,62.57,,ENE,29.57,28.46,,Overcast
KIGQ,09/07/2018 06:35 UTC,30.24,68.18,62.78,82.9,4.61,60.0,,,,,,163.0,254.0,,,10.0,,KIGQ 070635Z AUTO 06004KT 10SM BKN016 OVC025 20/17 A3024 RMK AO2  T02010171,,,1600.0,,,62.75,,ENE,29.58,28.45,,Overcast
KIGQ,09/07/2018 06:55 UTC,30.23,68.36,62.96,82.92,5.75,40.0,,,,,,144.0,,,,10.0,,KIGQ 070655Z AUTO 04005KT 10SM OVC014 20/17 A3023 RMK AO2  T02020172,,,1400.0,,,62.94,,NE,29.57,28.43,,Overcast
KIGQ,09/07/2018 07:15 UTC,30.23,68.54,62.96,82.41,6.91,50.0,,,,,,144.0,,,,10.0,,KIGQ 070715Z AUTO 05006KT 10SM OVC014 20/17 A3023 RMK AO2  T02030172,,,1400.0,,,62.94,,NE,29.57,28.43,,Overcast
KIGQ,09/07/2018 07:35 UTC,30.23,68.54,63.14,82.93,5.75,50.0,,,,,,164.0,,,,10.0,,KIGQ 070735Z AUTO 05005KT 10SM OVC016 20/17 A3023 RMK AO2  T02030173,,,1600.0,,,63.12,,NE,29.57,28.42,,Overcast
KIGQ,09/07/2018 07:55 UTC,30.23,68.72,63.5,83.47,5.75,50.0,,,,,,164.0,,,,10.0,,KIGQ 070755Z AUTO 05005KT 10SM OVC016 20/18 A3023 RMK AO2  T02040175,,,1600.0,,,63.48,,NE,29.57,28.4,,Overcast
KIGQ,09/07/2018 08:15 UTC,30.23,68.54,63.14,82.93,6.91,60.0,,,,,,164.0,,,,10.0,,KIGQ 070815Z AUTO 06006KT 10SM OVC016 20/17 A3023 RMK AO2  T02030173,,,1600.0,,,63.12,,ENE,29.57,28.42,,Overcast
KIGQ,09/07/2018 08:35 UTC,30.22,68.0,63.32,85.01,9.22,50.0,,,,,,164.0,,,,10.0,,KIGQ 070835Z AUTO 05008KT 10SM OVC016 20/17 A3022 RMK AO2 LTG DSNT  SW T02000174,,,1600.0,,,63.3,,NE,29.56,28.41,,Overcast
KIGQ,09/07/2018 08:55 UTC,30.22,68.0,63.32,85.01,9.22,50.0,,,,,,144.0,,,,10.0,,KIGQ 070855Z AUTO 05008KT 10SM OVC014 20/17 A3022 RMK AO2  T02000174,,,1400.0,,,63.3,,NE,29.56,28.41,,Overcast
KIGQ,09/07/2018 09:15 UTC,30.22,68.0,63.14,84.48,9.22,50.0,,,,,,124.0,,,,10.0,,KIGQ 070915Z AUTO 05008KT 10SM OVC012 20/17 A3022 RMK AO2 LTG DSNT  SW T02000173,,,1200.0,,,63.12,,NE,29.56,28.42,,Overcast
KIGQ,09/07/2018 09:35 UTC,30.22,67.82,63.32,85.54,6.91,50.0,,,,,,124.0,,,,10.0,,KIGQ 070935Z AUTO 05006KT 10SM OVC012 20/17 A3022 RMK AO2  T01990174,,,1200.0,,,63.3,,NE,29.56,28.41,,Overcast
KIGQ,09/07/2018 09:55 UTC,30.22,67.82,63.14,85.0,8.05,40.0,,,,,,124.0,,,,10.0,,KIGQ 070955Z AUTO 04007KT 10SM OVC012 20/17 A3022 RMK AO2  T01990173,,,1200.0,,,63.12,,NE,29.56,28.42,,Overcast
KIGQ,09/07/2018 10:15 UTC,30.22,67.64,62.96,84.99,5.75,30.0,,13.0,,,,124.0,,,,10.0,,KIGQ 071015Z AUTO 03005KT 10SM -RA OVC012 20/17 A3022 RMK AO2  T01980172,,,1200.0,,,62.94,,NNE,29.56,28.43,,Light Rain
KIGQ,09/07/2018 10:35 UTC,30.22,67.1,63.5,88.24,4.61,10.0,,13.0,,,,144.0,,,,10.0,,KIGQ 071035Z AUTO 01004KT 10SM -RA OVC014 20/18 A3022 RMK AO2  T01950175,,,1400.0,,,63.48,,N,29.56,28.41,,Light Rain
KIGQ,09/07/2018 10:55 UTC,30.23,66.56,64.04,91.62,4.61,20.0,,14.0,,,,72.0,144.0,,,7.0,,KIGQ 071055Z AUTO 02004KT 7SM +RA SCT007 OVC014 19/18 A3023 RMK AO2 T01920178,,,1400.0,,,64.03,,NNE,29.57,28.39,,Heavy Rain
KIGQ,09/07/2018 11:15 UTC,30.23,66.2,64.04,92.76,5.75,40.0,,1.0,,0.01,,72.0,144.0,,,7.0,,KIGQ 071115Z AUTO 04005KT 7SM RA SCT007 OVC014 19/18 A3023 RMK AO2  P0001 T01900178,,,1400.0,,,64.03,,NE,29.57,28.4,,Rain
KIGQ,09/07/2018 11:35 UTC,30.22,65.66,64.04,94.52,8.05,40.0,,14.0,754.0,0.07,,193.0,323.0,,,5.0,,KIGQ 071135Z AUTO 04007KT 5SM +RA BKN019 BKN032 OVC075 19/18 A3022 RMK AO2 P0007 T01870178,,,1900.0,,,64.03,,NE,29.56,28.39,,Heavy Rain
KIGQ,09/07/2018 11:55 UTC,30.22,65.66,64.4,95.71,5.75,50.0,,1.0,754.0,0.13,,153.0,303.0,0.13,0.22,5.0,,KIGQ 071155Z AUTO 05005KT 5SM RA BKN015 BKN030 OVC075 19/18 A3022 RMK AO2 P0013 60013 70022 T01870180 10205 20187,68.9,65.66,1500.0,,,64.39,,NE,29.56,28.37,,Rain
KIGQ,09/07/2018 12:15 UTC,30.23,65.84,64.58,95.72,5.75,40.0,,1.0,,0.03,,154.0,,,,7.0,,KIGQ 071215Z AUTO 04005KT 7SM RA OVC015 19/18 A3023 RMK AO2 P0003  T01880181,,,1500.0,,,64.57,,NE,29.57,28.37,,Rain
KIGQ,09/07/2018 12:35 UTC,30.22,65.66,64.58,96.31,5.75,50.0,,1.0,,0.05,,154.0,,,,7.0,,KIGQ 071235Z AUTO 05005KT 7SM RA OVC015 19/18 A3022 RMK AO2 P0005  T01870181,,,1500.0,,,64.57,,NE,29.56,28.36,,Rain
KIGQ,09/07/2018 12:55 UTC,30.22,65.84,64.76,96.32,8.05,40.0,,1.0,,0.07,,154.0,,,,7.0,,KIGQ 071255Z AUTO 04007KT 7SM RA OVC015 19/18 A3022 RMK AO2 P0007  T01880182,,,1500.0,,,64.75,,NE,29.56,28.35,,Rain
KIGQ,09/07/2018 13:15 UTC,30.23,65.66,64.4,95.71,6.91,60.0,,1.0,,0.01,,82.0,154.0,,,7.0,,KIGQ 071315Z AUTO 06006KT 7SM RA SCT008 OVC015 19/18 A3023 RMK AO2  P0001 T01870180,,,1500.0,,,64.39,,ENE,29.57,28.38,,Rain
KIGQ,09/07/2018 13:35 UTC,30.23,65.84,64.58,95.72,5.75,60.0,,1.0,,0.02,,63.0,154.0,,,7.0,,KIGQ 071335Z AUTO 06005KT 7SM RA BKN006 OVC015 19/18 A3023 RMK AO2  P0002 T01880181,,,600.0,,,64.57,,ENE,29.57,28.37,,Rain
KIGQ,09/07/2018 13:55 UTC,30.23,66.02,64.58,95.12,4.61,50.0,,13.0,,0.02,,62.0,134.0,,,10.0,,KIGQ 071355Z AUTO 05004KT 10SM -RA SCT006 OVC013 19/18 A3023 RMK AO2 P0002 T01890181,,,1300.0,,,64.57,,NE,29.57,28.37,,Light Rain
KIGQ,09/07/2018 14:15 UTC,30.23,66.2,64.58,94.53,6.91,50.0,,13.0,,,,62.0,134.0,,,10.0,,KIGQ 071415Z AUTO 05006KT 10SM -RA SCT006 OVC013 19/18 A3023 RMK AO2 T01900181,,,1300.0,,,64.57,,NE,29.57,28.36,,Light Rain
KIGQ,09/07/2018 14:35 UTC,30.23,66.2,63.86,92.18,6.91,50.0,,,,,,114.0,,,,10.0,,KIGQ 071435Z AUTO 05006KT 10SM OVC011 19/18 A3023 RMK AO2  T01900177,,,1100.0,,,63.85,,NE,29.57,28.41,,Overcast
KIGQ,09/07/2018 14:55 UTC,30.23,66.2,63.68,91.6,8.05,40.0,,17.0,,,0.09,114.0,,,,10.0,,KIGQ 071455Z AUTO 04007KT 10SM -DZ OVC011 19/18 A3023 RMK AO2  60009 T01900176,,,1100.0,,,63.67,,NE,29.57,28.42,,Light Drizzle
KIGQ,09/07/2018 15:15 UTC,30.23,66.56,63.86,91.04,8.05,50.0,,13.0,,,,114.0,,,,10.0,,KIGQ 071515Z AUTO 05007KT 10SM -RA OVC011 19/18 A3023 RMK AO2  T01920177,,,1100.0,,,63.85,,NE,29.57,28.4,,Light Rain
KIGQ,09/07/2018 15:35 UTC,30.23,67.1,63.86,89.36,8.05,50.0,,,,,,114.0,,,,10.0,,KIGQ 071535Z AUTO 05007KT 10SM OVC011 20/18 A3023 RMK AO2  T01950177,,,1100.0,,,63.84,,NE,29.57,28.39,,Overcast
KIGQ,09/07/2018 15:55 UTC,30.23,66.74,63.68,89.91,8.05,50.0,,,,,,94.0,,,,10.0,,KIGQ 071555Z AUTO 05007KT 10SM OVC009 19/18 A3023 RMK AO2  T01930176,,,900.0,,,63.66,,NE,29.57,28.41,,Overcast
KIGQ,09/07/2018 16:15 UTC,30.23,66.92,63.68,89.35,8.05,50.0,,,,,,94.0,,,,10.0,,KIGQ 071615Z AUTO 05007KT 10SM OVC009 19/18 A3023 RMK AO2  T01940176,,,900.0,,,63.66,,NE,29.57,28.41,,Overcast
KIGQ,09/07/2018 16:35 UTC,30.23,66.74,63.5,89.35,8.05,50.0,,,,,,94.0,,,,10.0,,KIGQ 071635Z AUTO 05007KT 10SM OVC009 19/18 A3023 RMK AO2  T01930175,,,900.0,,,63.49,,NE,29.57,28.42,,Overcast
KIGQ,09/07/2018 16:55 UTC,30.22,67.1,63.5,88.24,10.36,40.0,,,,,,94.0,,,,10.0,,KIGQ 071655Z AUTO 04009KT 10SM OVC009 20/18 A3022 RMK AO2  T01950175,,,900.0,,,63.48,,NE,29.56,28.41,,Overcast
KIGQ,09/07/2018 17:15 UTC,30.22,67.1,63.5,88.24,5.75,40.0,,,,,,94.0,,,,10.0,,KIGQ 071715Z AUTO 04005KT 10SM OVC009 20/18 A3022 RMK AO2  T01950175,,,900.0,,,63.48,,NE,29.56,28.41,,Overcast
KIGQ,09/07/2018 17:35 UTC,30.22,67.1,63.5,88.24,9.22,60.0,,,,,,94.0,,,,10.0,,KIGQ 071735Z AUTO 06008KT 10SM OVC009 20/18 A3022 RMK AO2 LTG DSNT  SE T01950175,,,900.0,,,63.48,,ENE,29.56,28.41,,Overcast
KIGQ,09/07/2018 17:55 UTC,30.22,67.46,63.68,87.71,8.05,60.0,,,,,,94.0,,0.09,,10.0,,KIGQ 071755Z AUTO 06007KT 10SM OVC009 20/18 A3022 RMK AO2 60009  T01970176 10197 20187,67.46,65.66,900.0,,,63.66,,ENE,29.56,28.39,,Overcast
KIGQ,09/07/2018 18:15 UTC,30.22,68.18,64.4,87.74,5.75,50.0,,,,,,134.0,,,,10.0,,KIGQ 071815Z AUTO 05005KT 10SM OVC013 20/18 A3022 RMK AO2  T02010180,,,1300.0,,,64.38,,NE,29.56,28.34,,Overcast
KIGQ,09/07/2018 18:35 UTC,30.22,68.36,64.4,87.2,6.91,50.0,,,,,,134.0,,,,10.0,,KIGQ 071835Z AUTO 05006KT 10SM OVC013 20/18 A3022 RMK AO2  T02020180,,,1300.0,,,64.38,,NE,29.56,28.34,,Overcast
KIGQ,09/07/2018 18:55 UTC,30.22,68.18,64.4,87.74,6.91,40.0,,13.0,,,,114.0,,,,10.0,,KIGQ 071855Z AUTO 04006KT 10SM -RA OVC011 20/18 A3022 RMK AO2  T02010180,,,1100.0,,,64.38,,NE,29.56,28.34,,Light Rain
KIGQ,09/07/2018 19:15 UTC,30.22,67.28,64.58,91.07,11.5,40.0,,13.0,,,,83.0,114.0,,,10.0,,KIGQ 071915Z AUTO 04010KT 10SM -RA BKN008 OVC011 20/18 A3022 RMK AO2 T01960181,,,800.0,,,64.57,,NE,29.56,28.34,,Light Rain
KIGQ,09/07/2018 19:35 UTC,30.21,65.84,63.14,91.02,12.66,40.0,17.27,17.0,224.0,,,83.0,143.0,,,,,KIGQ 071935Z AUTO 04011G15KT -DZ BKN008 BKN014 OVC022 19/17 A3021 RMK AO2 T01880173,,,800.0,,,63.13,,NE,29.55,28.43,,Light Drizzle
KIGQ,09/07/2018 19:55 UTC,30.21,65.48,62.06,88.73,11.5,40.0,,13.0,,,,,,,,,,KIGQ 071955Z AUTO 04010KT -RA 19/17 A3021 RMK AO2 T01860167,,,,,,62.04,,NE,29.55,28.5,,Light Rain
KIGQ,09/07/2018 20:15 UTC,30.21,65.48,61.34,86.5,10.36,40.0,,13.0,,,,254.0,,,,10.0,,KIGQ 072015Z AUTO 04009KT 10SM -RA OVC025 19/16 A3021 RMK AO2  T01860163,,,2500.0,,,61.32,,NE,29.55,28.54,,Light Rain
KIGQ,09/07/2018 20:35 UTC,30.21,65.48,60.62,84.32,8.05,50.0,,13.0,,,,274.0,,,,10.0,,KIGQ 072035Z AUTO 05007KT 10SM -RA OVC027 19/16 A3021 RMK AO2  T01860159,,,2700.0,,,60.59,,NE,29.55,28.58,,Light Rain
KIGQ,09/07/2018 20:55 UTC,30.2,65.84,61.16,84.88,10.36,50.0,,13.0,,,,294.0,,,,10.0,,KIGQ 072055Z AUTO 05009KT 10SM -RA OVC029 19/16 A3020 RMK AO2  T01880162,,,2900.0,,,61.13,,NE,29.54,28.53,,Light Rain
KIGQ,09/07/2018 21:15 UTC,30.2,66.74,60.62,80.72,11.5,40.0,16.11,13.0,,,,293.0,454.0,,,10.0,,KIGQ 072115Z AUTO 04010G14KT 10SM -RA BKN029 OVC045 19/16 A3020 RMK AO2 T01930159,,,2900.0,,,60.59,,NE,29.54,28.55,,Light Rain
KIGQ,09/07/2018 21:35 UTC,30.2,67.1,60.44,79.22,14.97,40.0,,13.0,,,,292.0,454.0,,,,,KIGQ 072135Z AUTO 04013KT -RA SCT029 OVC045 20/16 A3020 RMK AO2  T01950158,,,4500.0,,,60.41,,NE,29.54,28.56,,Light Rain
KIGQ,09/07/2018 21:55 UTC,30.2,66.74,59.54,77.68,11.5,50.0,16.11,,,,,313.0,454.0,,,10.0,,KIGQ 072155Z AUTO 05010G14KT 10SM BKN031 OVC045 19/15 A3020 RMK AO2 T01930153,,,3100.0,,,59.5,,NE,29.54,28.61,,Overcast
KIGQ,09/07/2018 22:15 UTC,30.19,66.74,59.0,76.2,10.36,50.0,,,,,,314.0,,,,10.0,,KIGQ 072215Z AUTO 05009KT 10SM OVC031 19/15 A3019 RMK AO2  T01930150,,,3100.0,,,58.96,,NE,29.53,28.63,,Overcast
KIGQ,09/07/2018 22:35 UTC,30.2,66.74,58.82,75.71,10.36,40.0,,,,,,314.0,,,,10.0,,KIGQ 072235Z AUTO 04009KT 10SM OVC031 19/15 A3020 RMK AO2  T01930149,,,3100.0,,,58.78,,NE,29.54,28.65,,Overcast
KIGQ,09/07/2018 22:55 UTC,30.19,67.1,57.92,72.41,10.36,40.0,16.11,,,,,293.0,354.0,,,10.0,,KIGQ 072255Z AUTO 04009G14KT 10SM BKN029 OVC035 20/14 A3019 RMK AO2 T01950144,,,2900.0,,,57.88,,NE,29.53,28.68,,Overcast
KIGQ,09/07/2018 23:15 UTC,30.2,67.1,57.2,70.56,12.66,40.0,17.27,,,,,342.0,394.0,,,10.0,,KIGQ 072315Z AUTO 04011G15KT 10SM SCT034 OVC039 20/14 A3020 RMK AO2 T01950140,,,3900.0,,,57.15,,NE,29.54,28.72,,Overcast
KIGQ,09/07/2018 23:35 UTC,30.2,67.1,57.02,70.1,9.22,40.0,,,,,,342.0,414.0,,,10.0,,KIGQ 072335Z AUTO 04008KT 10SM SCT034 OVC041 20/14 A3020 RMK AO2  T01950139,,,4100.0,,,56.97,,NE,29.54,28.73,,Overcast
KIGQ,09/07/2018 23:55 UTC,30.2,67.1,56.3,68.3,10.36,40.0,,,553.0,,,342.0,433.0,,,10.0,,KIGQ 072355Z AUTO 04009KT 10SM SCT034 BKN043 BKN055 20/14 A3020 RMK AO2 T01950135 10202 20186,68.36,65.48,4300.0,,,56.25,,NE,29.54,28.77,,Mostly Cloudy
KIGQ,09/08/2018 00:15 UTC,30.19,67.1,55.94,67.42,10.36,40.0,,,,,,452.0,552.0,,,10.0,,KIGQ 080015Z AUTO 04009KT 10SM SCT045 SCT055 20/13 A3019 RMK AO2  T01950133,,,,,,55.89,,NE,29.53,28.77,,Partly Cloudy
KIGQ,09/08/2018 00:35 UTC,30.19,66.74,55.94,68.26,11.5,50.0,18.41,,,,,462.0,,,,,,KIGQ 080035Z AUTO 05010G16KT SCT046 19/13 A3019 RMK AO2  T01930133,,,,,,55.89,,NE,29.53,28.78,,Partly Cloudy
KIGQ,09/08/2018 00:55 UTC,30.19,66.56,55.4,67.36,9.22,50.0,,,,,,462.0,,,,10.0,,KIGQ 080055Z AUTO 05008KT 10SM SCT046 19/13 A3019 RMK AO2  T01920130,,,,,,55.35,,NE,29.53,28.8,,Partly Cloudy
KIGQ,09/08/2018 01:15 UTC,30.2,66.2,55.4,68.2,8.05,50.0,,,,,,1.0,,,,10.0,,KIGQ 080115Z AUTO 05007KT 10SM CLR 19/13 A3020 RMK AO2  T01900130,,,,,,55.34,,NE,29.54,28.82,,Clear
KIGQ,09/08/2018 01:35 UTC,30.2,66.2,55.4,68.2,9.22,50.0,,,,,,1.0,,,,10.0,,KIGQ 080135Z AUTO 05008KT 10SM CLR 19/13 A3020 RMK AO2  T01900130,,,,,,55.34,,NE,29.54,28.82,,Clear
KIGQ,09/08/2018 01:55 UTC,30.21,65.84,55.4,69.06,10.36,60.0,,,,,,1.0,,,,10.0,,KIGQ 080155Z AUTO 06009KT 10SM CLR 19/13 A3021 RMK AO2  T01880130,,,,,,55.35,,ENE,29.55,28.83,,Clear
KIGQ,09/08/2018 02:15 UTC,30.21,65.66,55.4,69.49,11.5,50.0,16.11,,,,,1.0,,,,10.0,,KIGQ 080215Z AUTO 05010G14KT 10SM CLR 19/13 A3021 RMK AO2  T01870130,,,,,,55.35,,NE,29.55,28.83,,Clear
KIGQ,09/08/2018 02:35 UTC,30.21,65.3,55.76,71.29,10.36,60.0,,,,,,1.0,,,,10.0,,KIGQ 080235Z AUTO 06009KT 10SM CLR 19/13 A3021 RMK AO2  T01850132,,,,,,55.71,,ENE,29.55,28.82,,Clear
KIGQ,09/08/2018 02:55 UTC,30.21,64.76,56.3,74.07,12.66,60.0,,,,,,1.0,,,,10.0,,KIGQ 080255Z AUTO 06011KT 10SM CLR 18/14 A3021 RMK AO2  T01820135,,,,,,56.25,,ENE,29.55,28.8,,Clear
KIGQ,09/08/2018 03:15 UTC,30.21,64.4,56.3,75.01,13.8,60.0,17.27,,,,,1.0,,,,,,KIGQ 080315Z AUTO 06012G15KT CLR 18/14 A3021 RMK AO2 T01800135  PWINO,,,,,,56.25,,ENE,29.55,28.81,,Clear
KIGQ,09/08/2018 03:35 UTC,30.21,63.86,56.3,76.44,10.36,50.0,18.41,,,,,1.0,,,,10.0,,KIGQ 080335Z AUTO 05009G16KT 10SM CLR 18/14 A3021 RMK AO2  T01770135,,,,,,56.26,,NE,29.55,28.81,,Clear
KIGQ,09/08/2018 03:55 UTC,30.21,63.86,55.76,74.96,11.5,60.0,17.27,,,,,1.0,,,,10.0,,KIGQ 080355Z AUTO 06010G15KT 10SM CLR 18/13 A3021 RMK AO2  T01770132,,,,,,55.71,,ENE,29.55,28.84,,Clear
KIGQ,09/08/2018 04:15 UTC,30.21,63.68,54.5,72.05,12.66,60.0,,,,,,1.0,,,,,,KIGQ 080415Z AUTO 06011KT CLR 18/13 A3021 RMK AO2 T01760125,,,,,,54.44,,ENE,29.55,28.9,,Clear
KIGQ,09/08/2018 04:35 UTC,30.22,63.14,54.5,73.43,12.66,60.0,17.27,,,,,1.0,,,,10.0,,KIGQ 080435Z AUTO 06011G15KT 10SM CLR 17/13 A3022 RMK AO2  T01730125,,,,,,54.44,,ENE,29.56,28.91,,Clear
KIGQ,09/08/2018 04:55 UTC,30.22,62.78,53.42,71.49,8.05,40.0,,,,,,1.0,,,,10.0,,KIGQ 080455Z AUTO 04007KT 10SM CLR 17/12 A3022 RMK AO2  T01710119,,,,,,53.36,,NE,29.56,28.96,,Clear
KIGQ,09/08/2018 05:15 UTC,30.21,62.42,53.24,71.92,9.22,60.0,,,,,,1.0,,,,10.0,,KIGQ 080515Z AUTO 06008KT 10SM CLR 17/12 A3021 RMK AO2  T01690118,,,,,,53.18,,ENE,29.55,28.96,,Clear
KIGQ,09/08/2018 05:35 UTC,30.21,62.24,53.06,71.9,6.91,50.0,,,,,,1.0,,,,10.0,,KIGQ 080535Z AUTO 05006KT 10SM CLR 17/12 A3021 RMK AO2  T01680117,,,,,,53.0,,NE,29.55,28.97,,Clear
KIGQ,09/08/2018 05:55 UTC,30.22,61.88,52.7,71.87,5.75,50.0,,,,,,1.0,,,,10.0,,KIGQ 080555Z AUTO 05005KT 10SM CLR 17/12 A3022 RMK AO2 T01660115  10195 20166 402050166,67.1,61.88,,68.9,61.88,52.64,,NE,29.56,29.0,,Clear
KIGQ,09/08/2018 06:15 UTC,30.21,61.88,52.16,70.45,6.91,50.0,,,,,,1.0,,,,10.0,,KIGQ 080615Z AUTO 05006KT 10SM CLR 17/11 A3021 RMK AO2  T01660112,,,,,,52.09,,NE,29.55,29.01,,Clear
KIGQ,09/08/2018 06:35 UTC,30.21,61.52,52.16,71.35,9.22,50.0,,,,,,1.0,,,,10.0,,KIGQ 080635Z AUTO 05008KT 10SM CLR 16/11 A3021 RMK AO2  T01640112,,,,,,52.09,,NE,29.55,29.02,,Clear
KIGQ,09/08/2018 06:55 UTC,30.2,61.34,52.16,71.81,9.22,50.0,,,,,,1.0,,,,10.0,,KIGQ 080655Z AUTO 05008KT 10SM CLR 16/11 A3020 RMK AO2  T01630112,,,,,,52.09,,NE,29.54,29.01,,Clear
KIGQ,09/08/2018 07:15 UTC,30.2,61.52,52.34,71.83,10.36,40.0,,,,,,1.0,,,,10.0,,KIGQ 080715Z AUTO 04009KT 10SM CLR 16/11 A3020 RMK AO2  T01640113,,,,,,52.28,,NE,29.54,29.0,,Clear
KIGQ,09/08/2018 07:35 UTC,30.19,61.16,52.7,73.72,9.22,50.0,,,,,,1.0,,,,10.0,,KIGQ 080735Z AUTO 05008KT 10SM CLR 16/12 A3019 RMK AO2  T01620115,,,,,,52.64,,NE,29.53,28.98,,Clear
KIGQ,09/08/2018 07:55 UTC,30.19,61.16,52.88,74.21,9.22,50.0,,,,,,1.0,,,,10.0,,KIGQ 080755Z AUTO 05008KT 10SM CLR 16/12 A3019 RMK AO2  T01620116,,,,,,52.82,,NE,29.53,28.97,,Clear
KIGQ,09/08/2018 08:15 UTC,30.18,61.34,52.88,73.74,9.22,50.0,17.27,,,,,1.0,,,,10.0,,KIGQ 080815Z AUTO 05008G15KT 10SM CLR 16/12 A3018 RMK AO2  T01630116,,,,,,52.82,,NE,29.52,28.96,,Clear
KIGQ,09/08/2018 08:35 UTC,30.18,61.7,53.24,73.77,10.36,60.0,17.27,,,,,1.0,,,,,,KIGQ 080835Z AUTO 06009G15KT CLR 17/12 A3018 RMK AO2 T01650118,,,,,,53.18,,ENE,29.52,28.94,,Clear
KIGQ,09/08/2018 08:55 UTC,30.17,61.52,53.6,75.23,10.36,50.0,,,,,,1.0,,,,10.0,,KIGQ 080855Z AUTO 05009KT 10SM CLR 16/12 A3017 RMK AO2  T01640120,,,,,,53.55,,NE,29.51,28.92,,Clear
KIGQ,09/08/2018 09:15 UTC,30.17,61.34,53.6,75.71,8.05,50.0,16.11,,,,,1.0,,,,10.0,,KIGQ 080915Z AUTO 05007G14KT 10SM CLR 16/12 A3017 RMK AO2  T01630120,,,,,,53.55,,NE,29.51,28.92,,Clear
KIGQ,09/08/2018 09:35 UTC,30.16,61.34,53.78,76.21,11.5,50.0,,,,,,1.0,,,,10.0,,KIGQ 080935Z AUTO 05010KT 10SM CLR 16/12 A3016 RMK AO2  T01630121,,,,,,53.73,,NE,29.5,28.9,,Clear
KIGQ,09/08/2018 09:55 UTC,30.16,61.52,53.78,75.72,10.36,60.0,17.27,,,,,1.0,,,,10.0,,KIGQ 080955Z AUTO 06009G15KT 10SM CLR 16/12 A3016 RMK AO2  T01640121,,,,,,53.72,,ENE,29.5,28.9,,Clear
KIGQ,09/08/2018 10:15 UTC,30.16,61.34,53.6,75.71,10.36,60.0,,,,,,1.0,,,,10.0,,KIGQ 081015Z AUTO 06009KT 10SM CLR 16/12 A3016 RMK AO2  T01630120,,,,,,53.55,,ENE,29.5,28.91,,Clear
KIGQ,09/08/2018 10:35 UTC,30.16,61.7,53.24,73.77,10.36,60.0,,,,,,1.0,,,,10.0,,KIGQ 081035Z AUTO 06009KT 10SM CLR 17/12 A3016 RMK AO2  T01650118,,,,,,53.18,,ENE,29.5,28.92,,Clear
KIGQ,09/08/2018 10:55 UTC,30.16,61.7,53.06,73.29,9.22,60.0,,,,,,1.0,,,,10.0,,KIGQ 081055Z AUTO 06008KT 10SM CLR 17/12 A3016 RMK AO2  T01650117,,,,,,53.0,,ENE,29.5,28.93,,Clear
KIGQ,09/08/2018 11:15 UTC,30.16,61.7,53.06,73.29,10.36,60.0,,,,,,1.0,,,,10.0,,KIGQ 081115Z AUTO 06009KT 10SM CLR 17/12 A3016 RMK AO2  T01650117,,,,,,53.0,,ENE,29.5,28.93,,Clear
KIGQ,09/08/2018 11:35 UTC,30.16,61.7,53.24,73.77,9.22,50.0,,,,,,1.0,,,,10.0,,KIGQ 081135Z AUTO 05008KT 10SM CLR 17/12 A3016 RMK AO2  T01650118,,,,,,53.18,,NE,29.5,28.92,,Clear
KIGQ,09/08/2018 11:55 UTC,30.16,61.7,53.24,73.77,10.36,50.0,,,,,,1.0,,,0.09,10.0,,KIGQ 081155Z AUTO 05009KT 10SM CLR 17/12 A3016 RMK AO2 70009  T01650118 10166 20162,61.88,61.16,,,,53.18,,NE,29.5,28.92,,Clear
KIGQ,09/08/2018 12:15 UTC,30.16,61.7,53.24,73.77,12.66,60.0,,,,,,1.0,,,,10.0,,KIGQ 081215Z AUTO 06011KT 10SM CLR 17/12 A3016 RMK AO2  T01650118,,,,,,53.18,,ENE,29.5,28.92,,Clear
KIGQ,09/08/2018 12:35 UTC,30.16,61.7,53.6,74.75,10.36,60.0,,,,,,1.0,,,,10.0,,KIGQ 081235Z AUTO 06009KT 10SM CLR 17/12 A3016 RMK AO2  T01650120,,,,,,53.54,,ENE,29.5,28.9,,Clear
KIGQ,09/08/2018 12:55 UTC,30.16,61.88,53.06,72.82,11.5,50.0,19.57,,,,,1.0,,,,10.0,,KIGQ 081255Z AUTO 05010G17KT 10SM CLR 17/12 A3016 RMK AO2  T01660117,,,,,,53.0,,NE,29.5,28.92,,Clear
KIGQ,09/08/2018 13:15 UTC,30.16,62.06,52.88,71.89,10.36,50.0,16.11,,,,,1.0,,,,10.0,,KIGQ 081315Z AUTO 05009G14KT 10SM CLR 17/12 A3016 RMK AO2  T01670116,,,,,,52.82,,NE,29.5,28.93,,Clear
KIGQ,09/08/2018 13:35 UTC,30.16,62.24,51.98,69.11,9.22,50.0,16.11,,,,,1.0,,,,10.0,,KIGQ 081335Z AUTO 05008G14KT 10SM CLR 17/11 A3016 RMK AO2  T01680111,,,,,,51.91,,NE,29.5,28.96,,Clear
KIGQ,09/08/2018 13:55 UTC,30.16,62.6,51.8,67.79,9.22,60.0,,,,,,1.0,,,,10.0,,KIGQ 081355Z AUTO 06008KT 10SM CLR 17/11 A3016 RMK AO2  T01700110,,,,,,51.73,,ENE,29.5,28.97,,Clear
KIGQ,09/08/2018 14:15 UTC,30.15,62.78,51.98,67.81,9.22,60.0,17.27,,,,,1.0,,,,10.0,,KIGQ 081415Z AUTO 06008G15KT 10SM CLR 17/11 A3015 RMK AO2  T01710111,,,,,,51.91,,ENE,29.49,28.95,,Clear
KIGQ,09/08/2018 14:35 UTC,30.16,62.78,51.62,66.91,11.5,60.0,,,,,,1.0,,,,10.0,,KIGQ 081435Z AUTO 06010KT 10SM CLR 17/11 A3016 RMK AO2  T01710109,,,,,,51.55,,ENE,29.5,28.97,,Clear
KIGQ,09/08/2018 14:55 UTC,30.15,62.96,51.26,65.61,11.5,50.0,17.27,,,,,1.0,,,,,,KIGQ 081455Z AUTO 05010G15KT CLR 17/11 A3015 RMK AO2 T01720107  PWINO,,,,,,51.18,,NE,29.49,28.98,,Clear
KIGQ,09/08/2018 15:15 UTC,30.16,62.96,51.44,66.05,10.36,60.0,16.11,,,,,242.0,,,,10.0,,KIGQ 081515Z AUTO 06009G14KT 10SM SCT024 17/11 A3016 RMK AO2  T01720108,,,,,,51.37,,ENE,29.5,28.98,,Partly Cloudy
KIGQ,09/08/2018 15:35 UTC,30.16,62.96,51.44,66.05,10.36,40.0,,,,,,243.0,,,,10.0,,KIGQ 081535Z AUTO 04009KT 10SM BKN024 17/11 A3016 RMK AO2  T01720108,,,2400.0,,,51.37,,NE,29.5,28.98,,Mostly Cloudy
KIGQ,09/08/2018 15:55 UTC,30.16,62.96,51.98,67.38,9.22,50.0,,,,,,264.0,,,,10.0,,KIGQ 081555Z AUTO 05008KT 10SM OVC026 17/11 A3016 RMK AO2  T01720111,,,2600.0,,,51.91,,NE,29.5,28.96,,Overcast
KIGQ,09/08/2018 16:15 UTC,30.16,63.5,52.16,66.56,11.5,40.0,,,,,,233.0,284.0,,,10.0,,KIGQ 081615Z AUTO 04010KT 10SM BKN023 OVC028 18/11 A3016 RMK AO2  T01750112,,,2300.0,,,52.09,,NE,29.5,28.94,,Overcast
KIGQ,09/08/2018 16:35 UTC,30.16,63.5,52.88,68.34,10.36,60.0,,,,,,234.0,,,,10.0,,KIGQ 081635Z AUTO 06009KT 10SM OVC023 18/12 A3016 RMK AO2  T01750116,,,2300.0,,,52.81,,ENE,29.5,28.92,,Overcast
KIGQ,09/08/2018 16:55 UTC,30.16,63.68,53.24,68.81,10.36,40.0,,,,,,214.0,,,,10.0,,KIGQ 081655Z AUTO 04009KT 10SM OVC021 18/12 A3016 RMK AO2  T01760118,,,2100.0,,,53.17,,NE,29.5,28.9,,Overcast
KIGQ,09/08/2018 17:15 UTC,30.15,63.68,53.42,69.27,8.05,50.0,,,,,,213.0,304.0,,,10.0,,KIGQ 081715Z AUTO 05007KT 10SM BKN021 OVC030 18/12 A3015 RMK AO2  T01760119,,,2100.0,,,53.36,,NE,29.49,28.88,,Overcast
KIGQ,09/08/2018 17:35 UTC,30.15,64.04,53.96,69.77,8.05,40.0,,,,,,324.0,,,,10.0,,KIGQ 081735Z AUTO 04007KT 10SM OVC032 18/12 A3015 RMK AO2  T01780122,,,3200.0,,,53.9,,NE,29.49,28.85,,Overcast
KIGQ,09/08/2018 17:55 UTC,30.14,63.86,54.14,70.67,8.05,50.0,,,,,,324.0,,,,10.0,,KIGQ 081755Z AUTO 05007KT 10SM OVC032 18/12 A3014 RMK AO2  T01770123 10180 20165,64.4,61.7,3200.0,,,54.08,,NE,29.48,28.84,,Overcast
KIGQ,09/08/2018 18:15 UTC,30.14,64.04,53.96,69.77,9.22,50.0,,,,,,364.0,,,,,,KIGQ 081815Z AUTO 05008KT OVC036 18/12 A3014 RMK AO2 T01780122,,,3600.0,,,53.9,,NE,29.48,28.84,,Overcast
KIGQ,09/08/2018 18:35 UTC,30.13,64.76,55.04,70.77,8.05,50.0,,,,,,313.0,374.0,,,10.0,,KIGQ 081835Z AUTO 05007KT 10SM BKN031 OVC037 18/13 A3013 RMK AO2  T01820128,,,3100.0,,,54.99,,NE,29.47,28.78,,Overcast
KIGQ,09/08/2018 18:55 UTC,30.13,64.94,55.4,71.25,10.36,60.0,,,,,,304.0,,,,10.0,,KIGQ 081855Z AUTO 06009KT 10SM OVC030 18/13 A3013 RMK AO2  T01830130,,,3000.0,,,55.35,,ENE,29.47,28.76,,Overcast
KIGQ,09/08/2018 19:15 UTC,30.12,65.3,55.58,70.82,9.22,60.0,,,,,,312.0,374.0,,,10.0,,KIGQ 081915Z AUTO 06008KT 10SM SCT031 OVC037 19/13 A3012 RMK AO2  T01850131,,,3700.0,,,55.53,,ENE,29.47,28.75,,Overcast
KIGQ,09/08/2018 19:35 UTC,30.12,65.3,55.22,69.9,9.22,50.0,,,,,,394.0,,,,10.0,,KIGQ 081935Z AUTO 05008KT 10SM OVC039 19/13 A3012 RMK AO2 LTG DSNT  S T01850129,,,3900.0,,,55.16,,NE,29.47,28.76,,Overcast
KIGQ,09/08/2018 19:55 UTC,30.12,65.66,55.58,69.94,9.22,40.0,,,,,,393.0,504.0,,,10.0,,KIGQ 081955Z AUTO 04008KT 10SM BKN039 OVC050 19/13 A3012 RMK AO2  T01870131,,,3900.0,,,55.52,,NE,29.47,28.74,,Overcast
KIGQ,09/08/2018 20:15 UTC,30.12,65.66,55.58,69.94,11.5,40.0,,,703.0,,,372.0,503.0,,,10.0,,KIGQ 082015Z AUTO 04010KT 10SM SCT037 BKN050 BKN070 19/13 A3012 RMK AO2 T01870131,,,5000.0,,,55.52,,NE,29.47,28.74,,Mostly Cloudy
KIGQ,09/08/2018 20:35 UTC,30.11,65.84,55.76,69.96,10.36,50.0,,,703.0,,,372.0,503.0,,,10.0,,KIGQ 082035Z AUTO 05009KT 10SM SCT037 BKN050 BKN070 19/13 A3011 RMK AO2 T01880132,,,5000.0,,,55.71,,NE,29.46,28.72,,Mostly Cloudy
KIGQ,09/08/2018 20:55 UTC,30.12,65.48,55.4,69.92,11.5,40.0,17.27,,603.0,,,412.0,503.0,,,,,KIGQ 082055Z AUTO 04010G15KT SCT041 BKN050 BKN060 19/13 A3012 RMK AO2 T01860130 PWINO,,,5000.0,,,55.34,,NE,29.47,28.75,,Mostly Cloudy
KIGQ,09/08/2018 21:15 UTC,30.12,65.3,55.4,70.36,9.22,50.0,,,504.0,,,292.0,413.0,,,10.0,,KIGQ 082115Z AUTO 05008KT 10SM SCT029 BKN041 OVC050 19/13 A3012 RMK AO2 T01850130,,,4100.0,,,55.34,,NE,29.47,28.76,,Overcast
KIGQ,09/08/2018 21:35 UTC,30.11,65.3,55.04,69.45,9.22,60.0,,,,,,294.0,,,,10.0,,KIGQ 082135Z AUTO 06008KT 10SM OVC029 19/13 A3011 RMK AO2  T01850128,,,2900.0,,,54.98,,ENE,29.46,28.76,,Overcast
KIGQ,09/08/2018 21:55 UTC,30.11,65.12,55.58,71.27,11.5,50.0,,,,,,294.0,,,,10.0,,KIGQ 082155Z AUTO 05010KT 10SM OVC029 18/13 A3011 RMK AO2  T01840131,,,2900.0,,,55.53,,NE,29.46,28.74,,Overcast
KIGQ,09/08/2018 22:15 UTC,30.1,65.66,56.12,71.33,9.22,50.0,,,,,,292.0,,,,10.0,,KIGQ 082215Z AUTO 05008KT 10SM SCT029 19/13 A3010 RMK AO2  T01870134,,,,,,56.07,,NE,29.45,28.7,,Partly Cloudy
KIGQ,09/08/2018 22:35 UTC,30.09,65.3,55.76,71.29,12.66,60.0,18.41,,,,,1.0,,,,,,KIGQ 082235Z AUTO 06011G16KT CLR 19/13 A3009 RMK AO2 T01850132  PWINO,,,,,,55.71,,ENE,29.44,28.71,,Clear
KIGQ,09/08/2018 22:55 UTC,30.09,65.3,55.4,70.36,13.8,50.0,19.57,,,,,1.0,,,,,,KIGQ 082255Z AUTO 05012G17KT CLR 19/13 A3009 RMK AO2 T01850130  PWINO,,,,,,55.34,,NE,29.44,28.73,,Clear
KIGQ,09/08/2018 23:15 UTC,30.09,65.3,55.76,71.29,11.5,50.0,17.27,,,,,652.0,,,,,,KIGQ 082315Z AUTO 05010G15KT SCT065 19/13 A3009 RMK AO2 T01850132  PWINO,,,,,,55.71,,NE,29.44,28.71,,Partly Cloudy
KIGQ,09/08/2018 23:35 UTC,30.09,65.12,55.58,71.27,11.5,60.0,,,,,,654.0,,,,,,KIGQ 082335Z AUTO 06010KT OVC065 18/13 A3009 RMK AO2 T01840131  PWINO,,,6500.0,,,55.53,,ENE,29.44,28.72,,Overcast
KIGQ,09/08/2018 23:55 UTC,30.09,64.94,55.4,71.25,11.5,70.0,17.27,,,,,554.0,,,,10.0,,KIGQ 082355Z AUTO 07010G15KT 10SM OVC055 18/13 A3009 RMK AO2  T01830130 10189 20177,66.02,63.86,5500.0,,,55.35,,ENE,29.44,28.73,,Overcast
KIGQ,09/09/2018 00:15 UTC,30.09,64.58,55.4,72.15,8.05,60.0,,,,,,432.0,503.0,,,10.0,,KIGQ 090015Z AUTO 06007KT 10SM SCT043 BKN050 18/13 A3009 RMK AO2  T01810130,,,5000.0,,,55.35,,ENE,29.44,28.73,,Mostly Cloudy
KIGQ,09/09/2018 00:35 UTC,30.09,64.58,54.5,69.83,12.66,60.0,19.57,,,,,803.0,,,,,,KIGQ 090035Z AUTO 06011G17KT BKN080 18/13 A3009 RMK AO2 T01810125  PWINO,,,8000.0,,,54.44,,ENE,29.44,28.77,,Mostly Cloudy
KIGQ,09/09/2018 00:55 UTC,30.09,64.4,53.78,68.44,12.66,60.0,19.57,,,,,362.0,704.0,,,10.0,,KIGQ 090055Z AUTO 06011G17KT 10SM SCT036 OVC070 18/12 A3009 RMK AO2 T01800121,,,7000.0,,,53.72,,ENE,29.44,28.81,,Overcast
KIGQ,09/09/2018 01:15 UTC,30.09,64.4,52.88,66.22,13.8,60.0,19.57,,,,,403.0,654.0,,,,,KIGQ 090115Z AUTO 06012G17KT BKN040 OVC065 18/12 A3009 RMK AO2  T01800116 PWINO,,,4000.0,,,52.81,,ENE,29.44,28.85,,Overcast
KIGQ,09/09/2018 01:35 UTC,30.11,64.04,52.7,66.62,9.22,60.0,18.41,,,,,423.0,,,,,,KIGQ 090135Z AUTO 06008G16KT BKN042 18/12 A3011 RMK AO2 T01780115  PWINO,,,4200.0,,,52.63,,ENE,29.46,28.88,,Mostly Cloudy
KIGQ,09/09/2018 01:55 UTC,30.11,63.68,52.52,67.02,11.5,50.0,18.41,,,,,442.0,,,,10.0,,KIGQ 090155Z AUTO 05010G16KT 10SM SCT044 18/11 A3011 RMK AO2  T01760114 PWINO,,,,,,52.45,,NE,29.46,28.89,,Partly Cloudy
KIGQ,09/09/2018 02:15 UTC,30.11,63.68,52.7,67.46,12.66,60.0,17.27,,,,,462.0,,,,,,KIGQ 090215Z AUTO 06011G15KT SCT046 18/12 A3011 RMK AO2 T01760115  PWINO,,,,,,52.63,,ENE,29.46,28.88,,Partly Cloudy
KIGQ,09/09/2018 02:35 UTC,30.1,63.5,52.7,67.89,14.97,50.0,24.16,,,,,462.0,,,,,,KIGQ 090235Z AUTO 05013G21KT SCT046 18/12 A3010 RMK AO2 T01750115  PWINO,,,,,,52.63,,NE,29.45,28.87,,Partly Cloudy
KIGQ,09/09/2018 02:55 UTC,30.1,62.96,52.88,69.65,16.11,40.0,20.71,,,,,1.0,,,,,,KIGQ 090255Z AUTO 04014G18KT CLR 17/12 A3010 RMK AO2 T01720116  PWINO,,,,,,52.82,,NE,29.45,28.87,,Clear
KIGQ,09/09/2018 03:15 UTC,30.1,62.78,53.42,71.49,11.5,50.0,18.41,,,,,1.0,,,,,,KIGQ 090315Z AUTO 05010G16KT CLR 17/12 A3010 RMK AO2 T01710119  PWINO,,,,,,53.36,,NE,29.45,28.85,,Clear
KIGQ,09/09/2018 03:35 UTC,30.09,62.6,53.6,72.42,14.97,60.0,24.16,,,,,1.0,,,,,,KIGQ 090335Z AUTO 06013G21KT CLR 17/12 A3009 RMK AO2 T01700120  PWINO,,,,,,53.54,,ENE,29.44,28.83,,Clear
KIGQ,09/09/2018 03:55 UTC,30.1,62.06,53.6,73.81,11.5,50.0,20.71,,,,,1.0,,,,,,KIGQ 090355Z AUTO 05010G18KT CLR 17/12 A3010 RMK AO2 T01670120  PWINO,,,,,,53.54,,NE,29.45,28.85,,Clear
KIGQ,09/09/2018 04:15 UTC,30.1,61.88,53.06,72.82,12.66,50.0,16.11,,,,,1.0,,,,,,KIGQ 090415Z AUTO 05011G14KT CLR 17/12 A3010 RMK AO2 T01660117  PWINO,,,,,,53.0,,NE,29.45,28.87,,Clear
KIGQ,09/09/2018 04:35 UTC,30.1,61.7,52.88,72.8,14.97,40.0,20.71,,,,,702.0,,,,,,KIGQ 090435Z AUTO 04013G18KT SCT070 17/12 A3010 RMK AO2 T01650116  PWINO,,,,,,52.82,,NE,29.45,28.88,,Partly Cloudy
KIGQ,09/09/2018 04:55 UTC,30.1,61.34,52.7,73.25,11.5,50.0,18.41,,,,,392.0,703.0,,,10.0,,KIGQ 090455Z AUTO 05010G16KT 10SM SCT039 BKN070 16/12 A3010 RMK AO2 T01630115 PWINO,,,7000.0,,,52.64,,NE,29.45,28.89,,Mostly Cloudy
KIGQ,09/09/2018 05:15 UTC,30.09,60.98,52.52,73.7,11.5,50.0,17.27,,,,,373.0,704.0,,,,,KIGQ 090515Z AUTO 05010G15KT BKN037 OVC070 16/11 A3009 RMK AO2  T01610114 PWINO,,,3700.0,,,52.46,,NE,29.44,28.89,,Overcast
KIGQ,09/09/2018 05:35 UTC,30.09,60.8,51.98,72.71,12.66,50.0,16.11,,,,,373.0,703.0,,,,,KIGQ 090535Z AUTO 05011G14KT BKN037 BKN070 16/11 A3009 RMK AO2  T01600111 PWINO,,,3700.0,,,51.91,,NE,29.44,28.92,,Mostly Cloudy
KIGQ,09/09/2018 05:55 UTC,30.09,60.8,51.44,71.28,11.5,50.0,17.27,,,,,392.0,702.0,,,,,KIGQ 090555Z AUTO 05010G15KT SCT039 SCT070 16/11 A3009 RMK AO2  T01600108 10183 20160 401890160 PWINO,64.94,60.8,,66.02,60.8,51.37,,NE,29.44,28.94,,Partly Cloudy
KIGQ,09/09/2018 06:15 UTC,30.09,60.44,51.08,71.24,14.97,50.0,19.57,,,,,702.0,,,,,,KIGQ 090615Z AUTO 05013G17KT SCT070 16/11 A3009 RMK AO2 T01580106  PWINO,,,,,,51.01,,NE,29.44,28.96,,Partly Cloudy
KIGQ,09/09/2018 06:35 UTC,30.09,60.08,50.9,71.68,9.22,40.0,16.11,,,,,1.0,,,,10.0,,KIGQ 090635Z AUTO 04008G14KT 10SM CLR 16/11 A3009 RMK AO2  T01560105 PWINO,,,,,,50.83,,NE,29.44,28.97,,Clear
KIGQ,09/09/2018 06:55 UTC,30.08,59.54,50.36,71.62,10.36,40.0,16.11,,,,,1.0,,,,10.0,,KIGQ 090655Z AUTO 04009G14KT 10SM CLR 15/10 A3008 RMK AO2  T01530102 PWINO,,,,,,50.29,,NE,29.43,28.98,,Clear
KIGQ,09/09/2018 07:15 UTC,30.07,59.36,50.0,71.12,11.5,40.0,,,,,,422.0,,,,10.0,,KIGQ 090715Z AUTO 04010KT 10SM SCT042 15/10 A3007 RMK AO2  T01520100,,,,,,49.93,,NE,29.42,28.99,,Partly Cloudy
KIGQ,09/09/2018 07:35 UTC,30.06,59.0,48.74,68.74,11.5,40.0,17.27,,,,,1.0,,,,10.0,,KIGQ 090735Z AUTO 04010G15KT 10SM CLR 15/09 A3006 RMK AO2  T01500093,,,,,,48.66,,NE,29.41,29.03,,Clear
KIGQ,09/09/2018 07:55 UTC,30.05,58.64,47.84,67.32,10.36,40.0,17.27,,,,,1.0,,,,10.0,,KIGQ 090755Z AUTO 04009G15KT 10SM CLR 15/09 A3005 RMK AO2  T01480088,,,,,,47.75,,NE,29.4,29.05,,Clear
KIGQ,09/09/2018 08:15 UTC,30.05,58.46,46.94,65.5,9.22,40.0,16.11,,,,,602.0,,,,10.0,,KIGQ 090815Z AUTO 04008G14KT 10SM SCT060 15/08 A3005 RMK AO2  T01470083,,,,,,46.85,,NE,29.4,29.08,,Partly Cloudy
KIGQ,09/09/2018 08:35 UTC,30.05,58.46,46.58,64.62,9.22,60.0,,,,,,1.0,,,,10.0,,KIGQ 090835Z AUTO 06008KT 10SM CLR 15/08 A3005 RMK AO2  T01470081,,,,,,46.49,,ENE,29.4,29.09,,Clear
KIGQ,09/09/2018 08:55 UTC,30.05,58.28,46.76,65.48,8.05,40.0,,,,,,1.0,,,,10.0,,KIGQ 090855Z AUTO 04007KT 10SM CLR 15/08 A3005 RMK AO2  T01460082,,,,,,46.67,,NE,29.4,29.09,,Clear
KIGQ,09/09/2018 09:15 UTC,30.05,58.1,46.76,65.9,10.36,30.0,,,,,,1.0,,,,10.0,,KIGQ 090915Z AUTO 03009KT 10SM CLR 15/08 A3005 RMK AO2  T01450082,,,,,,46.67,,NNE,29.4,29.09,,Clear
KIGQ,09/09/2018 09:35 UTC,30.04,57.92,47.3,67.69,9.22,40.0,,,,,,1.0,,,,10.0,,KIGQ 090935Z AUTO 04008KT 10SM CLR 14/09 A3004 RMK AO2  T01440085,,,,,,47.21,,NE,29.39,29.06,,Clear
KIGQ,09/09/2018 09:55 UTC,30.04,57.56,47.12,68.11,9.22,40.0,,,,,,1.0,,,,10.0,,KIGQ 090955Z AUTO 04008KT 10SM CLR 14/08 A3004 RMK AO2  T01420084,,,,,,47.03,,NE,29.39,29.07,,Clear
KIGQ,09/09/2018 10:15 UTC,30.04,57.38,46.94,68.09,9.22,30.0,,,,,,1.0,,,,10.0,,KIGQ 091015Z AUTO 03008KT 10SM CLR 14/08 A3004 RMK AO2  T01410083,,,,,,46.85,,NNE,29.39,29.08,,Clear
KIGQ,09/09/2018 10:35 UTC,30.04,57.2,46.94,68.53,9.22,50.0,,,,,,1.0,,,,10.0,,KIGQ 091035Z AUTO 05008KT 10SM CLR 14/08 A3004 RMK AO2  T01400083,,,,,,46.85,,NE,29.39,29.08,,Clear
KIGQ,09/09/2018 10:55 UTC,30.04,57.2,47.3,69.47,11.5,40.0,,,,,,1.0,,,,10.0,,KIGQ 091055Z AUTO 04010KT 10SM CLR 14/09 A3004 RMK AO2  T01400085,,,,,,47.22,,NE,29.39,29.07,,Clear
KIGQ,09/09/2018 11:15 UTC,30.03,57.2,47.66,70.41,9.22,40.0,,,,,,1.0,,,,10.0,,KIGQ 091115Z AUTO 04008KT 10SM CLR 14/09 A3003 RMK AO2  T01400087,,,,,,47.58,,NE,29.38,29.05,,Clear
KIGQ,09/09/2018 11:35 UTC,30.04,56.84,48.2,72.79,10.36,30.0,,,,,,1.0,,,,10.0,,KIGQ 091135Z AUTO 03009KT 10SM CLR 14/09 A3004 RMK AO2  T01380090,,,,,,48.12,,NNE,29.39,29.04,,Clear
KIGQ,09/09/2018 11:55 UTC,30.05,56.84,48.38,73.28,10.36,30.0,,,,,,1.0,,,,10.0,,KIGQ 091155Z AUTO 03009KT 10SM CLR 14/09 A3005 RMK AO2 T01380091  10160 20138,60.8,56.84,,,,48.3,,NNE,29.4,29.05,,Clear
KIGQ,09/09/2018 12:15 UTC,30.05,57.2,48.2,71.85,13.8,40.0,19.57,,,,,262.0,,,,,,KIGQ 091215Z AUTO 04012G17KT SCT026 14/09 A3005 RMK AO2  T01400090,,,,,,48.12,,NE,29.4,29.05,,Partly Cloudy
KIGQ,09/09/2018 12:35 UTC,30.06,57.2,48.2,71.85,9.22,50.0,,,,,,1.0,,,,10.0,,KIGQ 091235Z AUTO 05008KT 10SM CLR 14/09 A3006 RMK AO2  T01400090,,,,,,48.12,,NE,29.41,29.06,,Clear
KIGQ,09/09/2018 12:55 UTC,30.06,57.38,48.2,71.39,12.66,40.0,17.27,,,,,1.0,,,,10.0,,KIGQ 091255Z AUTO 04011G15KT 10SM CLR 14/09 A3006 RMK AO2  T01410090 PWINO,,,,,,48.12,,NE,29.41,29.06,,Clear
KIGQ,09/09/2018 13:15 UTC,30.06,57.38,48.38,71.87,11.5,40.0,,,,,,1.0,,,,10.0,,KIGQ 091315Z AUTO 04010KT 10SM CLR 14/09 A3006 RMK AO2  T01410091,,,,,,48.3,,NE,29.41,29.05,,Clear
KIGQ,09/09/2018 13:35 UTC,30.06,57.74,48.92,72.4,10.36,30.0,17.27,,,,,1.0,,,,10.0,,KIGQ 091335Z AUTO 03009G15KT 10SM CLR 14/09 A3006 RMK AO2  T01430094,,,,,,48.85,,NNE,29.41,29.03,,Clear
KIGQ,09/09/2018 13:55 UTC,30.07,58.28,49.28,71.97,10.36,50.0,17.27,,,,,1.0,,,,10.0,,KIGQ 091355Z AUTO 05009G15KT 10SM CLR 15/10 A3007 RMK AO2  T01460096,,,,,,49.21,,NE,29.42,29.02,,Clear
KIGQ,09/09/2018 14:15 UTC,30.06,58.82,49.28,70.59,12.66,50.0,18.41,,,,,1.0,,,,,,KIGQ 091415Z AUTO 05011G16KT CLR 15/10 A3006 RMK AO2 T01490096  PWINO,,,,,,49.2,,NE,29.41,29.01,,Clear
KIGQ,09/09/2018 14:35 UTC,30.06,59.0,49.64,71.08,12.66,30.0,19.57,,,,,1.0,,,,,,KIGQ 091435Z AUTO 03011G17KT CLR 15/10 A3006 RMK AO2 T01500098  PWINO,,,,,,49.56,,NNE,29.41,28.99,,Clear
KIGQ,09/09/2018 14:55 UTC,30.06,59.54,50.0,70.67,12.66,30.0,18.41,,,,,1.0,,,,,,KIGQ 091455Z AUTO 03011G16KT CLR 15/10 A3006 RMK AO2 T01530100  PWINO,,,,,,49.93,,NNE,29.41,28.97,,Clear
KIGQ,09/09/2018 15:15 UTC,30.06,58.64,49.64,72.01,10.36,30.0,,,,,,1.0,,,,,,KIGQ 091515Z AUTO 03009KT CLR 15/10 A3006 RMK AO2 T01480098  PWINO,,,,,,49.57,,NNE,29.41,29.0,,Clear
KIGQ,09/09/2018 15:35 UTC,30.06,59.0,50.36,73.01,11.5,30.0,,,,,,1.0,,,,,,KIGQ 091535Z AUTO 03010KT CLR 15/10 A3006 RMK AO2 T01500102  PWINO,,,,,,50.29,,NNE,29.41,28.97,,Clear
KIGQ,09/09/2018 15:55 UTC,30.06,61.88,51.62,69.07,12.66,30.0,,,,,,1.0,,,,,,KIGQ 091555Z AUTO 03011KT CLR 17/11 A3006 RMK AO2 T01660109  PWINO,,,,,,51.55,,NNE,29.41,28.89,,Clear
KIGQ,09/09/2018 16:15 UTC,30.06,62.6,52.16,68.69,13.8,30.0,18.41,,,,,1.0,,,,,,KIGQ 091615Z AUTO 03012G16KT CLR 17/11 A3006 RMK AO2 T01700112  PWINO,,,,,,52.09,,NNE,29.41,28.86,,Clear
KIGQ,09/09/2018 16:35 UTC,30.05,63.86,53.06,67.93,12.66,30.0,,,,,,1.0,,,,10.0,,KIGQ 091635Z AUTO 03011KT 10SM CLR 18/12 A3005 RMK AO2 T01770117  PWINO,,,,,,52.99,,NNE,29.4,28.8,,Clear
KIGQ,09/09/2018 16:55 UTC,30.04,64.04,52.52,66.18,11.5,30.0,18.41,,,,,1.0,,,,,,KIGQ 091655Z AUTO 03010G16KT CLR 18/11 A3004 RMK AO2 T01780114  PWINO,,,,,,52.45,,NNE,29.39,28.81,,Clear
KIGQ,09/09/2018 17:15 UTC,30.04,64.4,53.06,66.66,11.5,30.0,17.27,,,,,1.0,,,,,,KIGQ 091715Z AUTO 03010G15KT CLR 18/12 A3004 RMK AO2 T01800117  PWINO,,,,,,52.99,,NNE,29.39,28.79,,Clear
KIGQ,09/09/2018 17:35 UTC,30.04,65.3,53.24,65.03,12.66,30.0,18.41,,,,,1.0,,,,,,KIGQ 091735Z AUTO 03011G16KT CLR 19/12 A3004 RMK AO2 T01850118  PWINO,,,,,,53.17,,NNE,29.39,28.77,,Clear
KIGQ,09/09/2018 17:55 UTC,30.03,64.04,52.52,66.18,13.8,30.0,19.57,,,,,1.0,,,,,,KIGQ 091755Z AUTO 03012G17KT CLR 18/11 A3003 RMK AO2 T01780114  10185 20138 PWINO,65.3,56.84,,,,52.45,,NNE,29.38,28.8,,Clear
KIGQ,09/09/2018 18:15 UTC,30.03,64.94,52.88,64.99,13.8,40.0,,,,,,1.0,,,,,,KIGQ 091815Z AUTO 04012KT CLR 18/12 A3003 RMK AO2 T01830116  PWINO,,,,,,52.81,,NE,29.38,28.78,,Clear
KIGQ,09/09/2018 18:35 UTC,30.03,65.84,53.06,63.41,13.8,30.0,18.41,,,,,1.0,,,,,,KIGQ 091835Z AUTO 03012G16KT CLR 19/12 A3003 RMK AO2 T01880117  PWINO,,,,,,53.0,,NNE,29.38,28.76,,Clear
KIGQ,09/09/2018 18:55 UTC,30.03,66.38,53.24,62.64,12.66,40.0,20.71,,,,,1.0,,,,,,KIGQ 091855Z AUTO 04011G18KT CLR 19/12 A3003 RMK AO2 T01910118  PWINO,,,,,,53.17,,NE,29.38,28.75,,Clear
KIGQ,09/09/2018 19:15 UTC,30.02,67.1,53.78,62.33,13.8,40.0,21.85,,,,,1.0,,,,,,KIGQ 091915Z AUTO 04012G19KT CLR 20/12 A3002 RMK AO2 T01950121  PWINO,,,,,,53.72,,NE,29.37,28.71,,Clear
KIGQ,09/09/2018 19:35 UTC,30.01,66.92,52.7,60.28,13.8,50.0,21.85,,,,,1.0,,,,,,KIGQ 091935Z AUTO 05012G19KT CLR 19/12 A3001 RMK AO2 T01940115  PWINO,,,,,,52.63,,NE,29.36,28.75,,Clear
KIGQ,09/09/2018 19:55 UTC,30.01,66.56,51.62,58.66,13.8,50.0,20.71,,,,,1.0,,,,,,KIGQ 091955Z AUTO 05012G18KT CLR 19/11 A3001 RMK AO2 T01920109  PWINO,,,,,,51.55,,NE,29.36,28.8,,Clear
KIGQ,09/09/2018 20:15 UTC,30.0,67.28,50.9,55.71,18.41,40.0,24.16,,,,,1.0,,,,,,KIGQ 092015Z AUTO 04016G21KT CLR 20/11 A3000 RMK AO2 T01960105  PWINO,,,,,,50.82,,NE,29.35,28.81,,Clear
KIGQ,09/09/2018 20:35 UTC,30.0,66.2,49.46,54.82,18.41,30.0,24.16,,,,,1.0,,,,,,KIGQ 092035Z AUTO 03016G21KT CLR 19/10 A3000 RMK AO2 T01900097  PWINO,,,,,,49.38,,NNE,29.35,28.87,,Clear
KIGQ,09/09/2018 20:55 UTC,30.0,66.2,49.1,54.09,16.11,30.0,24.16,,,,,1.0,,,,,,KIGQ 092055Z AUTO 03014G21KT CLR 19/10 A3000 RMK AO2 T01900095  PWINO,,,,,,49.02,,NNE,29.35,28.89,,Clear
KIGQ,09/09/2018 21:15 UTC,30.0,66.56,48.74,52.71,18.41,30.0,24.16,,,,,1.0,,,,,,KIGQ 092115Z AUTO 03016G21KT CLR 19/09 A3000 RMK AO2 T01920093  PWINO,,,,,,48.66,,NNE,29.35,28.9,,Clear
KIGQ,09/09/2018 21:35 UTC,30.0,67.28,48.38,50.73,16.11,30.0,23.02,,,,,1.0,,,,,,KIGQ 092135Z AUTO 03014G20KT CLR 20/09 A3000 RMK AO2 T01960091  PWINO,,,,,,48.3,,NNE,29.35,28.9,,Clear
KIGQ,09/09/2018 21:55 UTC,29.99,66.38,47.66,50.93,13.8,30.0,25.32,,,,,382.0,,,,,,KIGQ 092155Z AUTO 03012G22KT SCT038 19/09 A2999 RMK AO2 T01910087  PWINO,,,,,,47.57,,NNE,29.34,28.93,,Partly Cloudy
KIGQ,09/09/2018 22:15 UTC,29.99,66.56,46.94,49.26,14.97,40.0,23.02,,,,,382.0,,,,,,KIGQ 092215Z AUTO 04013G20KT SCT038 19/08 A2999 RMK AO2 T01920083  PWINO,,,,,,46.85,,NE,29.34,28.95,,Partly Cloudy
KIGQ,09/09/2018 22:35 UTC,29.99,65.3,48.56,54.69,14.97,30.0,21.85,,,,,362.0,,,,,,KIGQ 092235Z AUTO 03013G19KT SCT036 19/09 A2999 RMK AO2 T01850092  PWINO,,,,,,48.47,,NNE,29.34,28.9,,Partly Cloudy
KIGQ,09/09/2018 22:55 UTC,30.0,66.02,49.82,55.91,12.66,40.0,17.27,,,,,402.0,703.0,,,,,KIGQ 092255Z AUTO 04011G15KT SCT040 BKN070 19/10 A3000 RMK AO2  T01890099 PWINO,,,7000.0,,,49.74,,NE,29.35,28.86,,Mostly Cloudy
KIGQ,09/09/2018 23:15 UTC,30.0,64.94,49.28,56.89,13.8,40.0,21.85,,,,,404.0,,,,,,KIGQ 092315Z AUTO 04012G19KT OVC040 18/10 A3000 RMK AO2 T01830096  PWINO,,,4000.0,,,49.2,,NE,29.35,28.89,,Overcast
KIGQ,09/09/2018 23:35 UTC,30.0,64.4,48.92,57.19,16.11,40.0,23.02,,,,,384.0,,,,,,KIGQ 092335Z AUTO 04014G20KT OVC038 18/09 A3000 RMK AO2 T01800094  PWINO,,,3800.0,,,48.83,,NE,29.35,28.91,,Overcast
KIGQ,09/09/2018 23:55 UTC,29.99,63.86,49.1,58.68,14.97,40.0,21.85,,,,,364.0,,,,,,KIGQ 092355Z AUTO 04013G19KT OVC036 18/10 A2999 RMK AO2 T01770095  10200 20176 PWINO,68.0,63.68,3600.0,,,49.02,,NE,29.34,28.9,,Overcast
KIGQ,09/10/2018 00:15 UTC,29.99,63.14,49.28,60.58,11.5,40.0,,,,,,362.0,,,,10.0,,KIGQ 100015Z AUTO 04010KT 10SM SCT036 17/10 A2999 RMK AO2  T01730096,,,,,,49.2,,NE,29.34,28.9,,Partly Cloudy
KIGQ,09/10/2018 00:35 UTC,30.0,62.78,49.64,62.18,12.66,40.0,16.11,,,,,1.0,,,,10.0,,KIGQ 100035Z AUTO 04011G14KT 10SM CLR 17/10 A3000 RMK AO2  T01710098,,,,,,49.56,,NE,29.35,28.9,,Clear
KIGQ,09/10/2018 00:55 UTC,30.0,62.6,49.64,62.57,8.05,40.0,,,,,,1.0,,,,10.0,,KIGQ 100055Z AUTO 04007KT 10SM CLR 17/10 A3000 RMK AO2  T01700098,,,,,,49.56,,NE,29.35,28.9,,Clear
KIGQ,09/10/2018 01:15 UTC,30.0,62.24,50.0,64.22,11.5,40.0,17.27,,,,,1.0,,,,10.0,,KIGQ 100115Z AUTO 04010G15KT 10SM CLR 17/10 A3000 RMK AO2  T01680100,,,,,,49.92,,NE,29.35,28.89,,Clear
KIGQ,09/10/2018 01:35 UTC,30.01,62.42,50.18,64.25,10.36,50.0,,,,,,1.0,,,,10.0,,KIGQ 100135Z AUTO 05009KT 10SM CLR 17/10 A3001 RMK AO2  T01690101,,,,,,50.1,,NE,29.36,28.89,,Clear
KIGQ,09/10/2018 01:55 UTC,30.01,62.06,50.54,65.94,9.22,40.0,,,,,,1.0,,,,10.0,,KIGQ 100155Z AUTO 04008KT 10SM CLR 17/10 A3001 RMK AO2  T01670103,,,,,,50.46,,NE,29.36,28.88,,Clear
KIGQ,09/10/2018 02:15 UTC,30.01,61.7,50.9,67.68,10.36,50.0,,,,,,1.0,,,,10.0,,KIGQ 100215Z AUTO 05009KT 10SM CLR 17/11 A3001 RMK AO2  T01650105,,,,,,50.83,,NE,29.36,28.87,,Clear
KIGQ,09/10/2018 02:35 UTC,30.01,61.52,51.44,69.49,11.5,50.0,18.41,,,,,1.0,,,,,,KIGQ 100235Z AUTO 05010G16KT CLR 16/11 A3001 RMK AO2 T01640108,,,,,,51.37,,NE,29.36,28.85,,Clear
KIGQ,09/10/2018 02:55 UTC,30.0,60.98,52.16,72.73,10.36,50.0,,,,,,1.0,,,,,,KIGQ 100255Z AUTO 05009KT CLR 16/11 A3000 RMK AO2 T01610112  PWINO,,,,,,52.1,,NE,29.35,28.82,,Clear
KIGQ,09/10/2018 03:15 UTC,30.0,60.8,52.16,73.2,9.22,50.0,,,,,,1.0,,,,10.0,,KIGQ 100315Z AUTO 05008KT 10SM CLR 16/11 A3000 RMK AO2  T01600112,,,,,,52.1,,NE,29.35,28.82,,Clear
KIGQ,09/10/2018 03:35 UTC,30.0,60.26,52.7,76.11,9.22,40.0,,,,,,1.0,,,,10.0,,KIGQ 100335Z AUTO 04008KT 10SM CLR 16/12 A3000 RMK AO2  T01570115,,,,,,52.64,,NE,29.35,28.8,,Clear
KIGQ,09/10/2018 03:55 UTC,30.0,60.08,52.16,75.09,9.22,40.0,,,,,,1.0,,,,10.0,,KIGQ 100355Z AUTO 04008KT 10SM CLR 16/11 A3000 RMK AO2  T01560112,,,,,,52.1,,NE,29.35,28.83,,Clear
KIGQ,09/10/2018 04:15 UTC,30.0,59.9,51.8,74.58,9.22,40.0,16.11,,,,,1.0,,,,10.0,,KIGQ 100415Z AUTO 04008G14KT 10SM CLR 16/11 A3000 RMK AO2  T01550110,,,,,,51.74,,NE,29.35,28.84,,Clear
KIGQ,09/10/2018 04:35 UTC,30.0,59.54,51.44,74.54,6.91,30.0,,,,,,1.0,,,,10.0,,KIGQ 100435Z AUTO 03006KT 10SM CLR 15/11 A3000 RMK AO2  T01530108,,,,,,51.38,,NNE,29.35,28.86,,Clear
KIGQ,09/10/2018 04:55 UTC,30.0,59.18,51.98,77.02,8.05,30.0,,,,,,1.0,,,,10.0,,KIGQ 100455Z AUTO 03007KT 10SM CLR 15/11 A3000 RMK AO2  T01510111,,,,,,51.92,,NNE,29.35,28.84,,Clear
KIGQ,09/10/2018 05:15 UTC,30.0,59.0,52.16,78.04,8.05,30.0,,,,,,1.0,,,,10.0,,KIGQ 100515Z AUTO 03007KT 10SM CLR 15/11 A3000 RMK AO2  T01500112,,,,,,52.11,,NNE,29.35,28.84,,Clear
KIGQ,09/10/2018 05:35 UTC,30.0,58.46,52.16,79.56,8.05,30.0,,,,,,1.0,,,,10.0,,KIGQ 100535Z AUTO 03007KT 10SM CLR 15/11 A3000 RMK AO2  T01470112,,,,,,52.11,,NNE,29.35,28.84,,Clear
KIGQ,09/10/2018 05:55 UTC,30.0,58.28,52.16,80.07,6.91,30.0,,,,,,1.0,,,,10.0,,KIGQ 100555Z AUTO 03006KT 10SM CLR 15/11 A3000 RMK AO2 T01460112  10177 20146 402000138,63.86,58.28,,68.0,56.84,52.11,,NNE,29.35,28.84,,Clear
KIGQ,09/10/2018 06:15 UTC,29.99,58.46,51.8,78.51,5.75,40.0,,,,,,1.0,,,,10.0,,KIGQ 100615Z AUTO 04005KT 10SM CLR 15/11 A2999 RMK AO2  T01470110,,,,,,51.74,,NE,29.34,28.85,,Clear
KIGQ,09/10/2018 06:35 UTC,29.98,58.28,51.98,79.54,5.75,50.0,,,,,,1.0,,,,10.0,,KIGQ 100635Z AUTO 05005KT 10SM CLR 15/11 A2998 RMK AO2  T01460111,,,,,,51.93,,NE,29.33,28.83,,Clear
KIGQ,09/10/2018 06:55 UTC,29.98,58.46,52.34,80.09,5.75,30.0,,,,,,1.0,,,,10.0,,KIGQ 100655Z AUTO 03005KT 10SM CLR 15/11 A2998 RMK AO2  T01470113,,,,,,52.29,,NNE,29.33,28.81,,Clear
KIGQ,09/10/2018 07:15 UTC,29.98,58.1,52.52,81.66,3.44,30.0,,,,,,1.0,,,,10.0,,KIGQ 100715Z AUTO 03003KT 10SM CLR 15/11 A2998 RMK AO2  T01450114,,,,,,52.47,,NNE,29.33,28.81,,Clear
KIGQ,09/10/2018 07:35 UTC,29.98,58.46,52.88,81.69,6.91,40.0,,,,,,1.0,,,,10.0,,KIGQ 100735Z AUTO 04006KT 10SM CLR 15/12 A2998 RMK AO2  T01470116,,,,,,52.83,,NE,29.33,28.79,,Clear
KIGQ,09/10/2018 07:55 UTC,29.98,58.46,53.06,82.23,6.91,30.0,,,,,,1.0,,,,10.0,,KIGQ 100755Z AUTO 03006KT 10SM CLR 15/12 A2998 RMK AO2  T01470117,,,,,,53.01,,NNE,29.33,28.79,,Clear
KIGQ,09/10/2018 08:15 UTC,29.98,58.46,52.88,81.69,5.75,20.0,,,,,,1.0,,,,10.0,,KIGQ 100815Z AUTO 02005KT 10SM CLR 15/12 A2998 RMK AO2  T01470116,,,,,,52.83,,NNE,29.33,28.79,,Clear
KIGQ,09/10/2018 08:35 UTC,29.97,58.1,52.7,82.21,5.75,30.0,,,,,,1.0,,,,10.0,,KIGQ 100835Z AUTO 03005KT 10SM CLR 15/12 A2997 RMK AO2  T01450115,,,,,,52.66,,NNE,29.32,28.79,,Clear
KIGQ,09/10/2018 08:55 UTC,29.97,58.1,52.7,82.21,6.91,30.0,,,,,,1.0,,,,10.0,,KIGQ 100855Z AUTO 03006KT 10SM CLR 15/12 A2997 RMK AO2  T01450115,,,,,,52.66,,NNE,29.32,28.79,,Clear
KIGQ,09/10/2018 09:15 UTC,29.97,58.1,52.7,82.21,6.91,40.0,,,,,,303.0,,,,10.0,,KIGQ 100915Z AUTO 04006KT 10SM BKN030 15/12 A2997 RMK AO2  T01450115,,,3000.0,,,52.66,,NE,29.32,28.79,,Mostly Cloudy
KIGQ,09/10/2018 09:35 UTC,29.97,58.46,53.24,82.78,0.0,0.0,,,,,,304.0,,,,10.0,,KIGQ 100935Z AUTO 00000KT 10SM OVC030 15/12 A2997 RMK AO2  T01470118,,,3000.0,,,53.2,,N,29.32,28.77,,Overcast
KIGQ,09/10/2018 09:55 UTC,29.98,58.64,53.42,82.79,4.61,60.0,,,,,,212.0,304.0,,,10.0,,KIGQ 100955Z AUTO 06004KT 10SM SCT021 OVC030 15/12 A2998 RMK AO2  T01480119,,,3000.0,,,53.38,,ENE,29.33,28.77,,Overcast
KIGQ,09/10/2018 10:15 UTC,29.99,59.36,54.14,82.84,3.44,40.0,,,,,,213.0,324.0,,,10.0,,KIGQ 101015Z AUTO 04003KT 10SM BKN021 OVC032 15/12 A2999 RMK AO2  T01520123,,,2100.0,,,54.1,,NE,29.34,28.74,,Overcast
KIGQ,09/10/2018 10:35 UTC,29.99,60.26,54.5,81.29,5.75,40.0,,,,,,213.0,304.0,,,10.0,,KIGQ 101035Z AUTO 04005KT 10SM BKN021 OVC030 16/13 A2999 RMK AO2  T01570125,,,2100.0,,,54.46,,NE,29.34,28.72,,Overcast
KIGQ,09/10/2018 10:55 UTC,29.99,60.8,54.5,79.74,8.05,40.0,,,,,,193.0,264.0,,,10.0,,KIGQ 101055Z AUTO 04007KT 10SM BKN019 OVC026 16/13 A2999 RMK AO2  T01600125,,,1900.0,,,54.45,,NE,29.34,28.71,,Overcast
KIGQ,09/10/2018 11:15 UTC,29.99,60.26,54.5,81.29,6.91,40.0,,,,,,194.0,,,,10.0,,KIGQ 101115Z AUTO 04006KT 10SM OVC019 16/13 A2999 RMK AO2  T01570125,,,1900.0,,,54.46,,NE,29.34,28.72,,Overcast
KIGQ,09/10/2018 11:35 UTC,29.99,60.26,54.5,81.29,8.05,40.0,,,,,,194.0,,,,10.0,,KIGQ 101135Z AUTO 04007KT 10SM OVC019 16/13 A2999 RMK AO2  T01570125,,,1900.0,,,54.46,,NE,29.34,28.72,,Overcast
KIGQ,09/10/2018 11:55 UTC,30.0,60.8,55.04,81.33,9.22,40.0,,,,,,194.0,,,,10.0,,KIGQ 101155Z AUTO 04008KT 10SM OVC019 16/13 A3000 RMK AO2  T01600128 10160 20145,60.8,58.1,1900.0,,,55.0,,NE,29.35,28.7,,Overcast
KIGQ,09/10/2018 12:15 UTC,30.0,60.98,55.04,80.81,6.91,40.0,,,,,,194.0,,,,10.0,,KIGQ 101215Z AUTO 04006KT 10SM OVC019 16/13 A3000 RMK AO2  T01610128,,,1900.0,,,55.0,,NE,29.35,28.7,,Overcast
KIGQ,09/10/2018 12:35 UTC,30.01,60.8,55.4,82.4,8.05,30.0,,,,,,174.0,,,,10.0,,KIGQ 101235Z AUTO 03007KT 10SM OVC017 16/13 A3001 RMK AO2  T01600130,,,1700.0,,,55.36,,NNE,29.36,28.69,,Overcast
KIGQ,09/10/2018 12:55 UTC,30.01,60.8,55.4,82.4,8.05,20.0,,,,,,174.0,,,,10.0,,KIGQ 101255Z AUTO 02007KT 10SM OVC017 16/13 A3001 RMK AO2  T01600130,,,1700.0,,,55.36,,NNE,29.36,28.69,,Overcast
KIGQ,09/10/2018 13:15 UTC,30.01,61.16,55.04,80.3,5.75,30.0,,,,,,174.0,,,,10.0,,KIGQ 101315Z AUTO 03005KT 10SM OVC017 16/13 A3001 RMK AO2  T01620128,,,1700.0,,,55.0,,NNE,29.36,28.7,,Overcast
KIGQ,09/10/2018 13:35 UTC,30.01,62.42,55.94,79.35,4.61,360.0,,,,,,174.0,,,,10.0,,KIGQ 101335Z AUTO 36004KT 10SM OVC017 17/13 A3001 RMK AO2  T01690133,,,1700.0,,,55.89,,N,29.36,28.65,,Overcast
KIGQ,09/10/2018 13:55 UTC,30.01,62.78,56.12,78.87,6.91,40.0,,,,,,174.0,,,,10.0,,KIGQ 101355Z AUTO 04006KT 10SM OVC017 17/13 A3001 RMK AO2  T01710134,,,1700.0,,,56.08,,NE,29.36,28.64,,Overcast
KIGQ,09/10/2018 14:15 UTC,30.01,63.5,56.66,78.42,5.75,60.0,,,,,,174.0,,,,10.0,,KIGQ 101415Z AUTO 06005KT 10SM OVC017 18/14 A3001 RMK AO2  T01750137,,,1700.0,,,56.62,,ENE,29.36,28.61,,Overcast
KIGQ,09/10/2018 14:35 UTC,30.01,63.32,56.3,77.89,5.75,40.0,,,,,,173.0,,,,10.0,,KIGQ 101435Z AUTO 04005KT 10SM BKN017 17/14 A3001 RMK AO2  T01740135,,,1700.0,,,56.25,,NE,29.36,28.62,,Mostly Cloudy
KIGQ,09/10/2018 14:55 UTC,30.02,65.3,57.2,75.09,5.75,50.0,,,,,,173.0,,,,10.0,,KIGQ 101455Z AUTO 05005KT 10SM BKN017 19/14 A3002 RMK AO2  T01850140,,,1700.0,,,57.15,,NE,29.37,28.57,,Mostly Cloudy
KIGQ,09/10/2018 15:15 UTC,30.02,65.84,57.74,75.14,9.22,30.0,,,,,,192.0,,,,10.0,,KIGQ 101515Z AUTO 03008KT 10SM SCT019 19/14 A3002 RMK AO2  T01880143,,,,,,57.7,,NNE,29.37,28.54,,Partly Cloudy
KIGQ,09/10/2018 15:35 UTC,30.02,65.84,57.74,75.14,8.05,40.0,,,,,,193.0,263.0,,,10.0,,KIGQ 101535Z AUTO 04007KT 10SM BKN019 BKN026 19/14 A3002 RMK AO2  T01880143,,,1900.0,,,57.7,,NE,29.37,28.54,,Mostly Cloudy
KIGQ,09/10/2018 15:55 UTC,30.02,67.28,58.1,72.42,5.75,20.0,,,,,,193.0,263.0,,,10.0,,KIGQ 101555Z AUTO 02005KT 10SM BKN019 BKN026 20/15 A3002 RMK AO2  T01960145,,,1900.0,,,58.05,,NNE,29.37,28.5,,Mostly Cloudy
KIGQ,09/10/2018 16:15 UTC,30.03,66.2,57.2,72.78,10.36,360.0,17.27,,,,,213.0,263.0,,,10.0,,KIGQ 101615Z AUTO 36009G15KT 10SM BKN021 BKN026 19/14 A3003 RMK AO2 T01900140,,,2100.0,,,57.15,,N,29.38,28.57,,Mostly Cloudy
KIGQ,09/10/2018 16:35 UTC,30.03,68.18,58.1,70.22,10.36,10.0,,,,,,233.0,283.0,,,,,KIGQ 101635Z AUTO 01009KT BKN023 BKN028 20/15 A3003 RMK AO2  T02010145 PWINO,,,2300.0,,,58.06,,N,29.38,28.5,,Mostly Cloudy
KIGQ,09/10/2018 16:55 UTC,30.02,69.08,57.74,67.21,13.8,30.0,18.41,,,,,233.0,283.0,,,10.0,,KIGQ 101655Z AUTO 03012G16KT 360V060 10SM BKN023 BKN028 21/14  A3002 RMK AO2 T02060143,,,2300.0,,,57.69,,NNE,29.37,28.5,,Mostly Cloudy
KIGQ,09/10/2018 17:15 UTC,30.02,68.72,58.46,69.83,10.36,350.0,,,,,,234.0,,,,10.0,,KIGQ 101715Z AUTO 35009KT 10SM OVC023 20/15 A3002 RMK AO2  T02040147,,,2300.0,,,58.42,,N,29.37,28.47,,Overcast
KIGQ,09/10/2018 17:35 UTC,30.03,69.08,58.28,68.53,11.5,30.0,,,,,,233.0,,,,10.0,,KIGQ 101735Z AUTO 03010KT 350V050 10SM BKN023 21/15 A3003 RMK AO2  T02060146,,,2300.0,,,58.24,,NNE,29.38,28.49,,Mostly Cloudy
KIGQ,09/10/2018 17:55 UTC,30.03,69.08,59.0,70.32,8.05,360.0,18.41,,,,,233.0,,,,10.0,,KIGQ 101755Z AUTO 36007G16KT 320V030 10SM BKN023 21/15 A3003 RMK AO2 T02060150 10207 20160,69.26,60.8,2300.0,,,58.96,,N,29.38,28.45,,Mostly Cloudy
KIGQ,09/10/2018 18:15 UTC,30.03,69.08,58.64,69.42,10.36,350.0,,,,,,233.0,,,,10.0,,KIGQ 101815Z AUTO 35009KT 10SM BKN023 21/15 A3003 RMK AO2  T02060148,,,2300.0,,,58.6,,N,29.38,28.47,,Mostly Cloudy
KIGQ,09/10/2018 18:35 UTC,30.03,68.54,57.74,68.47,12.66,30.0,17.27,,,,,233.0,,,,10.0,,KIGQ 101835Z AUTO 03011G15KT 10SM BKN023 20/14 A3003 RMK AO2  T02030143,,,2300.0,,,57.7,,NNE,29.38,28.52,,Mostly Cloudy
KIGQ,09/10/2018 18:55 UTC,30.03,69.08,57.74,67.21,10.36,360.0,,,,,,233.0,,,,10.0,,KIGQ 101855Z AUTO 36009KT 10SM BKN023 21/14 A3003 RMK AO2  T02060143,,,2300.0,,,57.69,,N,29.38,28.51,,Mostly Cloudy
KIGQ,09/10/2018 19:15 UTC,30.03,68.72,57.74,68.05,9.22,10.0,,,,,,233.0,,,,10.0,,KIGQ 101915Z AUTO 01008KT 10SM BKN023 20/14 A3003 RMK AO2  T02040143,,,2300.0,,,57.7,,N,29.38,28.52,,Mostly Cloudy
KIGQ,09/10/2018 19:35 UTC,30.03,68.54,57.38,67.59,10.36,20.0,16.11,,,,,233.0,,,,10.0,,KIGQ 101935Z AUTO 02009G14KT 10SM BKN023 20/14 A3003 RMK AO2  T02030141,,,2300.0,,,57.34,,NNE,29.38,28.54,,Mostly Cloudy
KIGQ,09/10/2018 19:55 UTC,30.03,69.26,57.92,67.23,5.75,340.0,,,,,,232.0,,,,10.0,,KIGQ 101955Z AUTO 34005KT 10SM SCT023 21/14 A3003 RMK AO2  T02070144,,,,,,57.87,,NNW,29.38,28.5,,Partly Cloudy
KIGQ,09/10/2018 20:15 UTC,30.03,68.9,57.56,67.19,8.05,20.0,,,,,,252.0,,,,10.0,,KIGQ 102015Z AUTO 02007KT 10SM SCT025 21/14 A3003 RMK AO2  T02050142,,,,,,57.51,,NNE,29.38,28.52,,Partly Cloudy
KIGQ,09/10/2018 20:35 UTC,30.03,68.9,57.92,68.07,11.5,20.0,17.27,,,,,252.0,,,,10.0,,KIGQ 102035Z AUTO 02010G15KT 10SM SCT025 21/14 A3003 RMK AO2  T02050144,,,,,,57.88,,NNE,29.38,28.51,,Partly Cloudy
KIGQ,09/10/2018 20:55 UTC,30.02,68.54,57.92,68.91,9.22,30.0,,,,,,252.0,,,,10.0,,KIGQ 102055Z AUTO 03008KT 10SM SCT025 20/14 A3002 RMK AO2  T02030144,,,,,,57.88,,NNE,29.37,28.5,,Partly Cloudy
KIGQ,09/10/2018 21:15 UTC,30.02,68.72,57.74,68.05,9.22,20.0,,,,,,1.0,,,,10.0,,KIGQ 102115Z AUTO 02008KT 10SM CLR 20/14 A3002 RMK AO2  T02040143,,,,,,57.7,,NNE,29.37,28.51,,Clear
KIGQ,09/10/2018 21:35 UTC,30.02,68.72,58.28,69.38,10.36,20.0,,,,,,1.0,,,,10.0,,KIGQ 102135Z AUTO 02009KT 10SM CLR 20/15 A3002 RMK AO2  T02040146,,,,,,58.24,,NNE,29.37,28.48,,Clear
KIGQ,09/10/2018 21:55 UTC,30.03,68.72,57.92,68.49,10.36,30.0,,,,,,1.0,,,,10.0,,KIGQ 102155Z AUTO 03009KT 10SM CLR 20/14 A3003 RMK AO2  T02040144,,,,,,57.88,,NNE,29.38,28.51,,Clear
KIGQ,09/10/2018 22:15 UTC,30.02,68.0,57.38,68.85,9.22,40.0,,,,,,1.0,,,,10.0,,KIGQ 102215Z AUTO 04008KT 10SM CLR 20/14 A3002 RMK AO2  T02000141,,,,,,57.33,,NE,29.37,28.53,,Clear
KIGQ,09/10/2018 22:35 UTC,30.02,67.64,57.38,69.71,8.05,50.0,,,,,,1.0,,,,10.0,,KIGQ 102235Z AUTO 05007KT 10SM CLR 20/14 A3002 RMK AO2  T01980141,,,,,,57.33,,NE,29.37,28.54,,Clear
KIGQ,09/10/2018 22:55 UTC,30.02,67.1,57.2,70.56,9.22,40.0,,,,,,232.0,,,,10.0,,KIGQ 102255Z AUTO 04008KT 10SM SCT023 20/14 A3002 RMK AO2  T01950140,,,,,,57.15,,NE,29.37,28.55,,Partly Cloudy
KIGQ,09/10/2018 23:15 UTC,30.03,66.56,57.56,72.82,9.22,60.0,,,,,,212.0,,,,10.0,,KIGQ 102315Z AUTO 06008KT 10SM SCT021 19/14 A3003 RMK AO2  T01920142,,,,,,57.51,,ENE,29.38,28.55,,Partly Cloudy
KIGQ,09/10/2018 23:35 UTC,30.03,65.48,56.3,72.24,8.05,60.0,,,,,,1.0,,,,10.0,,KIGQ 102335Z AUTO 06007KT 10SM CLR 19/14 A3003 RMK AO2  T01860135,,,,,,56.25,,ENE,29.38,28.62,,Clear
KIGQ,09/10/2018 23:55 UTC,30.03,64.94,56.84,75.06,8.05,60.0,,,,,,1.0,,,,10.0,,KIGQ 102355Z AUTO 06007KT 10SM CLR 18/14 A3003 RMK AO2 T01830138  10211 20182,69.98,64.76,,,,56.79,,ENE,29.38,28.6,,Clear
KIGQ,09/11/2018 00:15 UTC,30.03,64.22,56.66,76.47,4.61,60.0,,,,,,1.0,,,,10.0,,KIGQ 110015Z AUTO 06004KT 10SM CLR 18/14 A3003 RMK AO2  T01790137,,,,,,56.62,,ENE,29.38,28.62,,Clear
KIGQ,09/11/2018 00:35 UTC,30.03,63.5,56.66,78.42,4.61,40.0,,,,,,1.0,,,,10.0,,KIGQ 110035Z AUTO 04004KT 10SM CLR 18/14 A3003 RMK AO2  T01750137,,,,,,56.62,,NE,29.38,28.63,,Clear
KIGQ,09/11/2018 00:55 UTC,30.04,63.14,57.02,80.45,0.0,0.0,,,,,,1.0,,,,10.0,,KIGQ 110055Z AUTO 00000KT 10SM CLR 17/14 A3004 RMK AO2  T01730139,,,,,,56.98,,N,29.39,28.62,,Clear
KIGQ,09/11/2018 01:15 UTC,30.05,62.96,57.2,81.49,3.44,40.0,,,,,,1.0,,,,10.0,,KIGQ 110115Z AUTO 04003KT 10SM CLR 17/14 A3005 RMK AO2  T01720140,,,,,,57.16,,NE,29.4,28.63,,Clear
KIGQ,09/11/2018 01:35 UTC,30.06,62.6,56.84,81.46,3.44,60.0,,,,,,1.0,,,,10.0,,KIGQ 110135Z AUTO 06003KT 10SM CLR 17/14 A3006 RMK AO2  T01700138,,,,,,56.8,,ENE,29.41,28.66,,Clear
KIGQ,09/11/2018 01:55 UTC,30.07,61.16,56.84,85.7,3.44,90.0,,,,,,1.0,,,,10.0,,KIGQ 110155Z AUTO 09003KT 10SM CLR 16/14 A3007 RMK AO2  T01620138,,,,,,56.81,,E,29.42,28.68,,Clear
KIGQ,09/11/2018 02:15 UTC,30.08,61.88,57.2,84.64,0.0,0.0,,,,,,1.0,,,,10.0,,KIGQ 110215Z AUTO 00000KT 10SM CLR 17/14 A3008 RMK AO2  T01660140,,,,,,57.17,,N,29.43,28.67,,Clear
KIGQ,09/11/2018 02:35 UTC,30.08,59.72,56.84,90.2,3.44,110.0,,,,,,1.0,,,,10.0,,KIGQ 110235Z AUTO 11003KT 10SM CLR 15/14 A3008 RMK AO2  T01540138,,,,,,56.82,,ESE,29.43,28.71,,Clear
KIGQ,09/11/2018 02:55 UTC,30.08,57.74,55.58,92.5,0.0,0.0,,,,,,1.0,,,,10.0,,KIGQ 110255Z AUTO 00000KT 10SM CLR 14/13 A3008 RMK AO2  T01430131,,,,,,55.56,,N,29.43,28.79,,Clear
KIGQ,09/11/2018 03:15 UTC,30.08,58.46,56.3,92.52,0.0,0.0,,,,,,1.0,,,,10.0,,KIGQ 110315Z AUTO 00000KT 10SM CLR 15/14 A3008 RMK AO2  T01470135,,,,,,56.28,,N,29.43,28.75,,Clear
KIGQ,09/11/2018 03:35 UTC,30.09,59.0,57.2,93.75,0.0,0.0,,,,,,1.0,,,,10.0,,KIGQ 110335Z AUTO 00000KT 10SM CLR 15/14 A3009 RMK AO2  T01500140,,,,,,57.18,,N,29.44,28.71,,Clear
KIGQ,09/11/2018 03:55 UTC,30.1,57.92,55.94,93.11,0.0,0.0,,,,,,1.0,,,,10.0,,KIGQ 110355Z AUTO 00000KT 10SM CLR 14/13 A3010 RMK AO2  T01440133,,,,,,55.92,,N,29.45,28.79,,Clear
KIGQ,09/11/2018 04:15 UTC,30.11,57.74,56.12,94.33,0.0,0.0,,,,,,1.0,,,,10.0,,KIGQ 110415Z AUTO 00000KT 10SM CLR 14/13 A3011 RMK AO2  T01430134,,,,,,56.11,,N,29.46,28.8,,Clear
KIGQ,09/11/2018 04:35 UTC,30.11,57.92,57.02,96.82,0.0,0.0,,,,,,1.0,,,,10.0,,KIGQ 110435Z AUTO 00000KT 10SM CLR 14/14 A3011 RMK AO2  T01440139,,,,,,57.01,,N,29.46,28.75,,Clear
KIGQ,09/11/2018 04:55 UTC,30.11,55.94,55.04,96.79,0.0,0.0,,31.0,,,,55.0,,,,0.75,,KIGQ 110455Z AUTO 00000KT 3/4SM BR VV005 13/13 A3011 RMK AO2  T01330128,,,500.0,,,55.03,,N,29.46,28.86,,Mist
KIGQ,09/11/2018 05:15 UTC,30.11,56.48,56.3,99.35,0.0,0.0,,31.0,,,,75.0,,,,1.75,,KIGQ 110515Z AUTO 00000KT 1 3/4SM BR VV007 14/14 A3011 RMK AO2 VIS  1V4 T01360135,,,700.0,,,56.3,,N,29.46,28.8,,Mist
KIGQ,09/11/2018 05:35 UTC,30.11,55.4,55.04,98.7,0.0,0.0,,31.0,,,,23.0,,,,1.0,,KIGQ 110535Z AUTO 00000KT 1SM BR BKN002 13/13 A3011 RMK AO2  T01300128,,,200.0,,,55.04,,N,29.46,28.87,,Mist
KIGQ,09/11/2018 05:55 UTC,30.11,54.86,54.68,99.35,0.0,0.0,,9.0,,,,24.0,,,,0.5,,KIGQ 110555Z AUTO 00000KT 1/2SM FG OVC002 13/13 A3011 RMK AO2  T01270126 10183 20125 402110125,64.94,54.5,200.0,69.98,54.5,54.68,,N,29.46,28.89,,Fog
KIGQ,09/11/2018 06:15 UTC,30.11,54.32,54.14,99.35,0.0,0.0,,31.0,,,,23.0,,,,0.75,,KIGQ 110615Z AUTO 00000KT 3/4SM BR BKN002 12/12 A3011 RMK AO2  T01240123,,,200.0,,,54.14,,N,29.46,28.92,,Mist
KIGQ,09/11/2018 06:35 UTC,30.11,54.86,54.86,100.0,0.0,0.0,,31.0,,,,22.0,,,,5.0,,KIGQ 110635Z AUTO 00000KT 5SM BR SCT002 13/13 A3011 RMK AO2  T01270127,,,,,,54.86,,N,29.46,28.88,,Mist
KIGQ,09/11/2018 06:55 UTC,30.11,54.5,54.5,100.0,0.0,0.0,,9.0,,,,24.0,,,,0.25,,KIGQ 110655Z AUTO 00000KT 1/4SM FG OVC002 13/13 A3011 RMK AO2  T01250125,,,200.0,,,54.5,,N,29.46,28.9,,Fog
KIGQ,09/11/2018 07:15 UTC,30.11,54.68,54.68,100.0,0.0,0.0,,9.0,,,,24.0,,,,0.5,,KIGQ 110715Z AUTO 00000KT 1/2SM FG OVC002 13/13 A3011 RMK AO2  T01260126,,,200.0,,,54.68,,N,29.46,28.89,,Fog
KIGQ,09/11/2018 07:35 UTC,30.11,52.34,52.34,100.0,0.0,0.0,,9.0,,,,23.0,,,,0.5,,KIGQ 110735Z AUTO 00000KT 1/2SM FG BKN002 11/11 A3011 RMK AO2  T01130113,,,200.0,,,52.34,,N,29.46,29.01,,Fog
KIGQ,09/11/2018 07:55 UTC,30.12,53.06,53.06,100.0,0.0,0.0,,,,,,22.0,,,,7.0,,KIGQ 110755Z AUTO 00000KT 7SM SCT002 12/12 A3012 RMK AO2  T01170117,,,,,,53.06,,N,29.47,28.99,,Partly Cloudy
KIGQ,09/11/2018 08:15 UTC,30.12,52.52,52.52,100.0,0.0,0.0,,,,,,1.0,,,,10.0,,KIGQ 110815Z AUTO 00000KT 10SM CLR 11/11 A3012 RMK AO2  T01140114,,,,,,52.52,,N,29.47,29.01,,Clear
KIGQ,09/11/2018 08:35 UTC,30.13,52.34,52.34,100.0,0.0,0.0,,,,,,1.0,,,,10.0,,KIGQ 110835Z AUTO 00000KT 10SM CLR 11/11 A3013 RMK AO2  T01130113,,,,,,52.34,,N,29.47,29.02,,Clear
KIGQ,09/11/2018 08:55 UTC,30.13,52.16,52.16,100.0,0.0,0.0,,,,,,1.0,,,,7.0,,KIGQ 110855Z AUTO 00000KT 7SM CLR 11/11 A3013 RMK AO2  T01120112,,,,,,52.16,,N,29.47,29.03,,Clear
KIGQ,09/11/2018 09:15 UTC,30.13,52.7,52.7,100.0,0.0,0.0,,31.0,,,,22.0,,,,2.0,,KIGQ 110915Z AUTO 00000KT 2SM BR SCT002 12/12 A3013 RMK AO2 VIS  1/2V5 T01150115,,,,,,52.7,,N,29.47,29.0,,Mist
KIGQ,09/11/2018 09:35 UTC,30.13,51.98,51.98,100.0,0.0,0.0,,9.0,,,,24.0,,,,-0.25,,KIGQ 110935Z AUTO 00000KT M1/4SM FG OVC002 11/11 A3013 RMK AO2  T01110111,,,200.0,,,51.98,,N,29.47,29.04,,Fog
KIGQ,09/11/2018 09:55 UTC,30.13,51.26,51.26,100.0,0.0,0.0,,9.0,,,,24.0,,,,0.25,,KIGQ 110955Z AUTO 00000KT 1/4SM FG OVC002 11/11 A3013 RMK AO2  T01070107,,,200.0,,,51.26,,N,29.47,29.07,,Fog
KIGQ,09/11/2018 10:15 UTC,30.13,52.7,52.7,100.0,0.0,0.0,,9.0,,,,24.0,,,,0.25,,KIGQ 111015Z AUTO 00000KT 1/4SM FG OVC002 12/12 A3013 RMK AO2  T01150115,,,200.0,,,52.7,,N,29.47,29.0,,Fog
KIGQ,09/11/2018 10:35 UTC,30.14,50.54,50.54,100.0,0.0,0.0,,9.0,,,,24.0,,,,0.25,,KIGQ 111035Z AUTO 00000KT 1/4SM FG OVC002 10/10 A3014 RMK AO2  T01030103,,,200.0,,,50.54,,N,29.48,29.12,,Fog
KIGQ,09/11/2018 10:55 UTC,30.14,50.9,50.9,100.0,0.0,0.0,,9.0,,,,24.0,,,,0.25,,KIGQ 111055Z AUTO 00000KT 1/4SM FG OVC002 11/11 A3014 RMK AO2  T01050105,,,200.0,,,50.9,,N,29.48,29.1,,Fog
KIGQ,09/11/2018 11:15 UTC,30.15,51.44,51.44,100.0,0.0,0.0,,31.0,,,,24.0,,,,0.75,,KIGQ 111115Z AUTO 00000KT 3/4SM BR OVC002 11/11 A3015 RMK AO2  T01080108,,,200.0,,,51.44,,N,29.49,29.09,,Mist
KIGQ,09/11/2018 11:35 UTC,30.15,51.08,51.08,100.0,0.0,0.0,,9.0,,,,24.0,,,,-0.25,,KIGQ 111135Z AUTO 00000KT M1/4SM FG OVC002 11/11 A3015 RMK AO2  T01060106,,,200.0,,,51.08,,N,29.49,29.1,,Fog
KIGQ,09/11/2018 11:55 UTC,30.16,49.64,49.64,100.0,0.0,0.0,,9.0,,,,24.0,,,,0.5,,KIGQ 111155Z AUTO 00000KT 1/2SM FG OVC002 10/10 A3016 RMK AO2  T00980098 10128 20097,55.04,49.46,200.0,,,49.64,,N,29.5,29.18,,Fog
KIGQ,09/11/2018 12:15 UTC,30.16,50.72,50.72,100.0,0.0,0.0,,,,,,23.0,,,,10.0,,KIGQ 111215Z AUTO 00000KT 10SM BKN002 10/10 A3016 RMK AO2  T01040104,,,200.0,,,50.72,,N,29.5,29.13,,Mostly Cloudy
KIGQ,09/11/2018 12:35 UTC,30.17,53.78,53.78,100.0,0.0,0.0,,31.0,,,,24.0,,,,0.75,,KIGQ 111235Z AUTO 00000KT 3/4SM BR OVC002 12/12 A3017 RMK AO2  T01210121,,,200.0,,,53.78,,N,29.51,28.99,,Mist
KIGQ,09/11/2018 12:55 UTC,30.18,55.4,55.4,100.0,0.0,0.0,,31.0,,,,22.0,,,,5.0,,KIGQ 111255Z AUTO 00000KT 5SM BR SCT002 13/13 A3018 RMK AO2  T01300130,,,,,,55.4,,N,29.52,28.92,,Mist
KIGQ,09/11/2018 13:15 UTC,30.18,57.56,57.56,100.0,0.0,0.0,,,,,,1.0,,,,7.0,,KIGQ 111315Z AUTO 00000KT 7SM CLR 14/14 A3018 RMK AO2  T01420142,,,,,,57.56,,N,29.52,28.8,,Clear
KIGQ,09/11/2018 13:35 UTC,30.17,59.72,59.72,100.0,3.44,170.0,,,,,,1.0,,,,10.0,,KIGQ 111335Z AUTO 17003KT 10SM CLR 15/15 A3017 RMK AO2  T01540154,,,,,,59.72,,S,29.51,28.66,,Clear
KIGQ,09/11/2018 13:55 UTC,30.17,61.88,60.8,96.25,4.61,170.0,,,,,,1.0,,,,10.0,,KIGQ 111355Z AUTO 17004KT 10SM CLR 17/16 A3017 RMK AO2  T01660160,,,,,,60.79,,S,29.51,28.57,,Clear
KIGQ,09/11/2018 14:15 UTC,30.17,63.86,60.26,88.09,3.44,180.0,,,,,,1.0,,,,10.0,,KIGQ 111415Z AUTO 18003KT 10SM CLR 18/16 A3017 RMK AO2  T01770157,,,,,,60.24,,S,29.51,28.58,,Clear
KIGQ,09/11/2018 14:35 UTC,30.18,64.58,59.9,84.81,3.44,170.0,,,,,,1.0,,,,10.0,,KIGQ 111435Z AUTO 17003KT 10SM CLR 18/16 A3018 RMK AO2  T01810155,,,,,,59.87,,S,29.52,28.6,,Clear
KIGQ,09/11/2018 14:55 UTC,30.18,66.02,60.62,82.76,0.0,0.0,,,,,,1.0,,,,10.0,,KIGQ 111455Z AUTO 00000KT 10SM CLR 19/16 A3018 RMK AO2  T01890159,,,,,,60.59,,N,29.52,28.54,,Clear
KIGQ,09/11/2018 15:15 UTC,30.19,67.1,60.26,78.71,0.0,0.0,,,,,,1.0,,,,10.0,,KIGQ 111515Z AUTO 00000KT 10SM CLR 20/16 A3019 RMK AO2  T01950157,,,,,,60.23,,N,29.53,28.56,,Clear
KIGQ,09/11/2018 15:35 UTC,30.19,69.62,59.18,69.48,3.44,140.0,,,,,,1.0,,,,10.0,,KIGQ 111535Z AUTO 14003KT 10SM CLR 21/15 A3019 RMK AO2  T02090151,,,,,,59.14,,SE,29.53,28.59,,Clear
KIGQ,09/11/2018 15:55 UTC,30.19,71.06,59.72,67.44,0.0,0.0,,,,,,1.0,,,,10.0,,KIGQ 111555Z AUTO 00000KT 10SM CLR 22/15 A3019 RMK AO2  T02170154,,,,,,59.68,,N,29.53,28.54,,Clear
KIGQ,09/11/2018 16:15 UTC,30.19,71.78,59.54,65.4,3.44,160.0,,,,,,1.0,,,,10.0,,KIGQ 111615Z AUTO 16003KT 10SM CLR 22/15 A3019 RMK AO2  T02210153,,,,,,59.51,,SSE,29.53,28.54,,Clear
KIGQ,09/11/2018 16:35 UTC,30.19,72.5,58.46,61.41,0.0,0.0,,,,,,1.0,,,,10.0,,KIGQ 111635Z AUTO 00000KT 10SM CLR 23/15 A3019 RMK AO2  T02250147,,,,,,58.42,,N,29.53,28.59,,Clear
KIGQ,09/11/2018 16:55 UTC,30.19,73.4,57.56,57.69,0.0,0.0,,,,,,1.0,,,,10.0,,KIGQ 111655Z AUTO 00000KT 10SM CLR 23/14 A3019 RMK AO2  T02300142,,,,,,57.53,,N,29.53,28.63,,Clear
KIGQ,09/11/2018 17:15 UTC,30.18,74.12,56.12,53.47,0.0,0.0,,,,,,372.0,,,,10.0,,KIGQ 111715Z AUTO 00000KT 10SM SCT037 23/13 A3018 RMK AO2  T02340134,,,,,,56.09,,N,29.52,28.69,,Partly Cloudy
KIGQ,09/11/2018 17:35 UTC,30.18,73.94,56.84,55.21,4.61,110.0,,,,,,392.0,,,,10.0,,KIGQ 111735Z AUTO 11004KT 10SM SCT039 23/14 A3018 RMK AO2  T02330138,,,,,,56.81,,ESE,29.52,28.65,,Partly Cloudy
KIGQ,09/11/2018 17:55 UTC,30.17,75.02,54.68,49.24,4.61,90.0,,,,,,412.0,,,,10.0,,KIGQ 111755Z AUTO 09004KT 10SM SCT041 24/13 A3017 RMK AO2  T02390126 10242 20099,75.56,49.82,,,,54.65,,E,29.51,28.74,,Partly Cloudy
KIGQ,09/11/2018 18:15 UTC,30.17,75.2,54.68,48.95,5.75,140.0,,,,,,1.0,,,,10.0,,KIGQ 111815Z AUTO 14005KT 10SM CLR 24/13 A3017 RMK AO2  T02400126,,,,,,54.66,,SE,29.51,28.73,,Clear
KIGQ,09/11/2018 18:35 UTC,30.17,75.38,55.4,49.95,0.0,0.0,,,,,,1.0,,,,10.0,,KIGQ 111835Z AUTO 00000KT 10SM CLR 24/13 A3017 RMK AO2  T02410130,,,,,,55.38,,N,29.51,28.7,,Clear
KIGQ,09/11/2018 18:55 UTC,30.17,76.1,54.68,47.51,3.44,200.0,,,,,,1.0,,,,10.0,,KIGQ 111855Z AUTO 20003KT 10SM CLR 25/13 A3017 RMK AO2  T02450126,,,,,,54.67,,SSW,29.51,28.73,,Clear
KIGQ,09/11/2018 19:15 UTC,30.16,76.64,55.4,47.9,5.75,150.0,,,,,,1.0,,,,10.0,,KIGQ 111915Z AUTO 15005KT 10SM CLR 25/13 A3016 RMK AO2  T02480130,,,,,,55.39,,SSE,29.5,28.68,,Clear
KIGQ,09/11/2018 19:35 UTC,30.16,77.18,55.94,47.98,8.05,150.0,,,,,,1.0,,,,10.0,,KIGQ 111935Z AUTO 15007KT 120V190 10SM CLR 25/13 A3016 RMK AO2  T02510133,,,,,,55.93,,SSE,29.5,28.65,,Clear
KIGQ,09/11/2018 19:55 UTC,30.15,77.18,56.3,48.61,3.44,210.0,,,,,,1.0,,,,10.0,,KIGQ 111955Z AUTO 21003KT 10SM CLR 25/14 A3015 RMK AO2  T02510135,,,,,,56.29,,SSW,29.49,28.62,,Clear
KIGQ,09/11/2018 20:15 UTC,30.14,77.18,56.12,48.3,5.75,220.0,,,,,,1.0,,,,10.0,,KIGQ 112015Z AUTO 22005KT 10SM CLR 25/13 A3014 RMK AO2  T02510134,,,,,,56.11,,SW,29.48,28.62,,Clear
KIGQ,09/11/2018 20:35 UTC,30.13,77.72,56.3,47.75,5.75,180.0,,,,,,1.0,,,,10.0,,KIGQ 112035Z AUTO 18005KT 10SM CLR 25/14 A3013 RMK AO2  T02540135,,,,,,56.3,,S,29.47,28.59,,Clear
KIGQ,09/11/2018 20:55 UTC,30.13,78.26,56.66,47.53,9.22,150.0,,,,,,1.0,,,,10.0,,KIGQ 112055Z AUTO 15008KT 10SM CLR 26/14 A3013 RMK AO2  T02570137,,,,,,56.66,,SSE,29.47,28.57,,Clear
KIGQ,09/11/2018 21:15 UTC,30.13,77.9,56.3,47.47,4.61,140.0,,,,,,1.0,,,,10.0,,KIGQ 112115Z AUTO 14004KT 10SM CLR 26/14 A3013 RMK AO2  T02550135,,,,,,56.3,,SE,29.47,28.59,,Clear
KIGQ,09/11/2018 21:35 UTC,30.13,77.9,56.3,47.47,6.91,170.0,,,,,,1.0,,,,10.0,,KIGQ 112135Z AUTO 17006KT 10SM CLR 26/14 A3013 RMK AO2  T02550135,,,,,,56.3,,S,29.47,28.59,,Clear
KIGQ,09/11/2018 21:55 UTC,30.13,77.54,55.76,47.11,4.61,210.0,,,,,,1.0,,,,10.0,,KIGQ 112155Z AUTO 21004KT 10SM CLR 25/13 A3013 RMK AO2  T02530132,,,,,,55.76,,SSW,29.47,28.62,,Clear
KIGQ,09/11/2018 22:15 UTC,30.12,77.36,56.48,48.64,3.44,190.0,,,,,,1.0,,,,10.0,,KIGQ 112215Z AUTO 19003KT 10SM CLR 25/14 A3012 RMK AO2  T02520136,,,,,,56.47,,S,29.47,28.59,,Clear
KIGQ,09/11/2018 22:35 UTC,30.12,77.0,57.02,50.19,4.61,200.0,,,,,,1.0,,,,10.0,,KIGQ 112235Z AUTO 20004KT 10SM CLR 25/14 A3012 RMK AO2  T02500139,,,,,,57.01,,SSW,29.47,28.56,,Clear
KIGQ,09/11/2018 22:55 UTC,30.12,76.28,57.74,52.75,4.61,180.0,,,,,,1.0,,,,10.0,,KIGQ 112255Z AUTO 18004KT 10SM CLR 25/14 A3012 RMK AO2  T02460143,,,,,,57.73,,S,29.47,28.53,,Clear
KIGQ,09/11/2018 23:15 UTC,30.11,75.38,58.28,55.41,0.0,0.0,,,,,,1.0,,,,10.0,,KIGQ 112315Z AUTO 00000KT 10SM CLR 24/15 A3011 RMK AO2  T02410146,,,,,,58.26,,N,29.46,28.5,,Clear
KIGQ,09/11/2018 23:35 UTC,30.11,72.86,60.62,65.53,4.61,50.0,,,,,,1.0,,,,10.0,,KIGQ 112335Z AUTO 05004KT 10SM CLR 23/16 A3011 RMK AO2  T02270159,,,,,,60.59,,NE,29.46,28.4,,Clear
KIGQ,09/11/2018 23:55 UTC,30.11,71.6,60.08,67.07,4.61,50.0,,,,,,1.0,,,,10.0,,KIGQ 112355Z AUTO 05004KT 10SM CLR 22/16 A3011 RMK AO2 T02200156  10258 20220,78.44,71.6,,,,60.05,,NE,29.46,28.44,,Clear
KIGQ,09/12/2018 00:15 UTC,30.11,69.98,59.9,70.41,5.75,70.0,,,,,,1.0,,,,10.0,,KIGQ 120015Z AUTO 07005KT 10SM CLR 21/16 A3011 RMK AO2  T02110155,,,,,,59.86,,ENE,29.46,28.47,,Clear
KIGQ,09/12/2018 00:35 UTC,30.11,69.08,59.9,72.61,3.44,80.0,,,,,,1.0,,,,10.0,,KIGQ 120035Z AUTO 08003KT 10SM CLR 21/16 A3011 RMK AO2  T02060155,,,,,,59.86,,E,29.46,28.48,,Clear
KIGQ,09/12/2018 00:55 UTC,30.12,68.18,59.72,74.4,3.44,80.0,,,,,,1.0,,,,10.0,,KIGQ 120055Z AUTO 08003KT 10SM CLR 20/15 A3012 RMK AO2  T02010154,,,,,,59.68,,E,29.47,28.51,,Clear
KIGQ,09/12/2018 01:15 UTC,30.12,67.64,59.54,75.31,3.44,90.0,,,,,,1.0,,,,10.0,,KIGQ 120115Z AUTO 09003KT 10SM CLR 20/15 A3012 RMK AO2  T01980153,,,,,,59.5,,E,29.47,28.53,,Clear
KIGQ,09/12/2018 01:35 UTC,30.12,66.02,59.18,78.63,4.61,90.0,,,,,,1.0,,,,10.0,,KIGQ 120135Z AUTO 09004KT 10SM CLR 19/15 A3012 RMK AO2  T01890151,,,,,,59.15,,E,29.47,28.57,,Clear
KIGQ,09/12/2018 01:55 UTC,30.13,66.2,58.64,76.64,4.61,110.0,,,,,,1.0,,,,10.0,,KIGQ 120155Z AUTO 11004KT 10SM CLR 19/15 A3013 RMK AO2  T01900148,,,,,,58.6,,ESE,29.47,28.59,,Clear
KIGQ,09/12/2018 02:15 UTC,30.13,65.66,58.1,76.6,5.75,130.0,,,,,,1.0,,,,10.0,,KIGQ 120215Z AUTO 13005KT 10SM CLR 19/15 A3013 RMK AO2  T01870145,,,,,,58.06,,SE,29.47,28.62,,Clear
KIGQ,09/12/2018 02:35 UTC,30.13,65.48,57.2,74.62,4.61,130.0,,,,,,1.0,,,,10.0,,KIGQ 120235Z AUTO 13004KT 10SM CLR 19/14 A3013 RMK AO2  T01860140,,,,,,57.15,,SE,29.47,28.67,,Clear
KIGQ,09/12/2018 02:55 UTC,30.13,65.66,56.48,72.26,4.61,150.0,,,,,,1.0,,,,10.0,,KIGQ 120255Z AUTO 15004KT 10SM CLR 19/14 A3013 RMK AO2  T01870136,,,,,,56.43,,SSE,29.47,28.7,,Clear
KIGQ,09/12/2018 03:15 UTC,30.14,65.84,56.3,71.34,4.61,150.0,,,,,,1.0,,,,10.0,,KIGQ 120315Z AUTO 15004KT 10SM CLR 19/14 A3014 RMK AO2  T01880135,,,,,,56.25,,SSE,29.48,28.72,,Clear
KIGQ,09/12/2018 03:35 UTC,30.14,65.48,56.3,72.24,5.75,150.0,,,,,,1.0,,,,10.0,,KIGQ 120335Z AUTO 15005KT 10SM CLR 19/14 A3014 RMK AO2  T01860135,,,,,,56.25,,SSE,29.48,28.72,,Clear
KIGQ,09/12/2018 03:55 UTC,30.14,64.94,55.76,72.18,5.75,150.0,,,,,,1.0,,,,10.0,,KIGQ 120355Z AUTO 15005KT 10SM CLR 18/13 A3014 RMK AO2  T01830132,,,,,,55.71,,SSE,29.48,28.75,,Clear
KIGQ,09/12/2018 04:15 UTC,30.14,64.76,55.94,73.11,6.91,140.0,,,,,,1.0,,,,10.0,,KIGQ 120415Z AUTO 14006KT 10SM CLR 18/13 A3014 RMK AO2  T01820133,,,,,,55.89,,SE,29.48,28.75,,Clear
KIGQ,09/12/2018 04:35 UTC,30.14,64.58,55.76,73.1,6.91,150.0,,,,,,1.0,,,,10.0,,KIGQ 120435Z AUTO 15006KT 10SM CLR 18/13 A3014 RMK AO2  T01810132,,,,,,55.71,,SSE,29.48,28.76,,Clear
KIGQ,09/12/2018 04:55 UTC,30.15,64.04,55.58,74.0,4.61,150.0,,,,,,1.0,,,,10.0,,KIGQ 120455Z AUTO 15004KT 10SM CLR 18/13 A3015 RMK AO2  T01780131,,,,,,55.53,,SSE,29.49,28.78,,Clear
KIGQ,09/12/2018 05:15 UTC,30.15,63.32,55.4,75.4,3.44,160.0,,,,,,1.0,,,,10.0,,KIGQ 120515Z AUTO 16003KT 10SM CLR 17/13 A3015 RMK AO2  T01740130,,,,,,55.35,,SSE,29.49,28.8,,Clear
KIGQ,09/12/2018 05:35 UTC,30.15,63.14,55.4,75.87,3.44,160.0,,,,,,1.0,,,,10.0,,KIGQ 120535Z AUTO 16003KT 10SM CLR 17/13 A3015 RMK AO2  T01730130,,,,,,55.35,,SSE,29.49,28.8,,Clear
KIGQ,09/12/2018 05:55 UTC,30.16,61.34,55.22,80.31,3.44,200.0,,,,,,1.0,,,,10.0,,KIGQ 120555Z AUTO 20003KT 10SM CLR 16/13 A3016 RMK AO2 T01630129  10220 20163 402580097,71.6,61.34,,78.44,49.46,55.18,,SSW,29.5,28.84,,Clear
KIGQ,09/12/2018 06:15 UTC,30.16,61.7,55.4,79.82,3.44,140.0,,,,,,1.0,,,,10.0,,KIGQ 120615Z AUTO 14003KT 10SM CLR 17/13 A3016 RMK AO2  T01650130,,,,,,55.36,,SE,29.5,28.83,,Clear
KIGQ,09/12/2018 06:35 UTC,30.16,61.88,55.4,79.31,5.75,150.0,,,,,,1.0,,,,10.0,,KIGQ 120635Z AUTO 15005KT 10SM CLR 17/13 A3016 RMK AO2  T01660130,,,,,,55.35,,SSE,29.5,28.82,,Clear
KIGQ,09/12/2018 06:55 UTC,30.17,62.42,55.4,77.82,3.44,150.0,,,,,,1.0,,,,10.0,,KIGQ 120655Z AUTO 15003KT 10SM CLR 17/13 A3017 RMK AO2  T01690130,,,,,,55.35,,SSE,29.51,28.83,,Clear
KIGQ,09/12/2018 07:15 UTC,30.17,61.52,55.04,79.28,0.0,0.0,,,,,,1.0,,,,10.0,,KIGQ 120715Z AUTO 00000KT 10SM CLR 16/13 A3017 RMK AO2  T01640128,,,,,,54.99,,N,29.51,28.85,,Clear
KIGQ,09/12/2018 07:35 UTC,30.18,60.8,54.86,80.8,0.0,0.0,,,,,,1.0,,,,10.0,,KIGQ 120735Z AUTO 00000KT 10SM CLR 16/13 A3018 RMK AO2  T01600127,,,,,,54.82,,N,29.52,28.88,,Clear
KIGQ,09/12/2018 07:55 UTC,30.18,59.36,54.86,85.04,0.0,0.0,,,,,,1.0,,,,10.0,,KIGQ 120755Z AUTO 00000KT 10SM CLR 15/13 A3018 RMK AO2  T01520127,,,,,,54.82,,N,29.52,28.9,,Clear
KIGQ,09/12/2018 08:15 UTC,30.18,58.46,54.68,87.24,3.44,140.0,,,,,,1.0,,,,10.0,,KIGQ 120815Z AUTO 14003KT 10SM CLR 15/13 A3018 RMK AO2  T01470126,,,,,,54.65,,SE,29.52,28.91,,Clear
KIGQ,09/12/2018 08:35 UTC,30.19,58.28,55.4,90.14,0.0,0.0,,,,,,1.0,,,,10.0,,KIGQ 120835Z AUTO 00000KT 10SM CLR 15/13 A3019 RMK AO2  T01460130,,,,,,55.38,,N,29.53,28.89,,Clear
KIGQ,09/12/2018 08:55 UTC,30.19,58.28,54.68,87.81,0.0,0.0,,,,,,1.0,,,,10.0,,KIGQ 120855Z AUTO 00000KT 10SM CLR 15/13 A3019 RMK AO2  T01460126,,,,,,54.65,,N,29.53,28.92,,Clear
KIGQ,09/12/2018 09:15 UTC,30.19,57.38,54.32,89.51,0.0,0.0,,,,,,1.0,,,,10.0,,KIGQ 120915Z AUTO 00000KT 10SM CLR 14/12 A3019 RMK AO2  T01410124,,,,,,54.29,,N,29.53,28.95,,Clear
KIGQ,09/12/2018 09:35 UTC,30.19,57.92,55.4,91.31,0.0,0.0,,,,,,1.0,,,,10.0,,KIGQ 120935Z AUTO 00000KT 10SM CLR 14/13 A3019 RMK AO2  T01440130,,,,,,55.38,,N,29.53,28.9,,Clear
KIGQ,09/12/2018 09:55 UTC,30.19,58.28,55.04,88.97,0.0,0.0,,,,,,1.0,,,,10.0,,KIGQ 120955Z AUTO 00000KT 10SM CLR 15/13 A3019 RMK AO2  T01460128,,,,,,55.01,,N,29.53,28.91,,Clear
KIGQ,09/12/2018 10:15 UTC,30.19,57.74,54.86,90.11,0.0,0.0,,,,,,1.0,,,,10.0,,KIGQ 121015Z AUTO 00000KT 10SM CLR 14/13 A3019 RMK AO2  T01430127,,,,,,54.83,,N,29.53,28.92,,Clear
KIGQ,09/12/2018 10:35 UTC,30.19,57.74,54.5,88.94,0.0,0.0,,,,,,1.0,,,,10.0,,KIGQ 121035Z AUTO 00000KT 10SM CLR 14/13 A3019 RMK AO2  T01430125,,,,,,54.47,,N,29.53,28.94,,Clear
KIGQ,09/12/2018 10:55 UTC,30.2,56.84,54.5,91.87,0.0,0.0,,,,,,1.0,,,,10.0,,KIGQ 121055Z AUTO 00000KT 10SM CLR 14/13 A3020 RMK AO2  T01380125,,,,,,54.48,,N,29.54,28.96,,Clear
KIGQ,09/12/2018 11:15 UTC,30.2,57.02,54.86,92.48,0.0,0.0,,,,,,1.0,,,,10.0,,KIGQ 121115Z AUTO 00000KT 10SM CLR 14/13 A3020 RMK AO2  T01390127,,,,,,54.84,,N,29.54,28.94,,Clear
KIGQ,09/12/2018 11:35 UTC,30.21,56.48,54.5,93.07,0.0,0.0,,,,,,1.0,,,,10.0,,KIGQ 121135Z AUTO 00000KT 10SM CLR 14/13 A3021 RMK AO2  T01360125,,,,,,54.48,,N,29.55,28.97,,Clear
KIGQ,09/12/2018 11:55 UTC,30.21,55.4,54.14,95.52,0.0,0.0,,,,,,1.0,,,,10.0,,KIGQ 121155Z AUTO 00000KT 10SM CLR 13/12 A3021 RMK AO2 T01300123  10170 20130,62.6,55.4,,,,54.13,,N,29.55,29.0,,Clear
KIGQ,09/12/2018 12:15 UTC,30.21,57.02,55.76,95.55,0.0,0.0,,,,,,1.0,,,,10.0,,KIGQ 121215Z AUTO 00000KT 10SM CLR 14/13 A3021 RMK AO2  T01390132,,,,,,55.75,,N,29.55,28.91,,Clear
KIGQ,09/12/2018 12:35 UTC,30.21,58.28,56.12,92.52,0.0,0.0,,,,,,1.0,,,,10.0,,KIGQ 121235Z AUTO 00000KT 10SM CLR 15/13 A3021 RMK AO2  T01460134,,,,,,56.1,,N,29.55,28.88,,Clear
KIGQ,09/12/2018 12:55 UTC,30.22,60.62,57.02,87.93,0.0,0.0,,,,,,1.0,,,,10.0,,KIGQ 121255Z AUTO 00000KT 10SM CLR 16/14 A3022 RMK AO2  T01590139,,,,,,56.99,,N,29.56,28.83,,Clear
KIGQ,09/12/2018 13:15 UTC,30.22,62.42,57.38,83.59,0.0,0.0,,,,,,1.0,,,,10.0,,KIGQ 121315Z AUTO 00000KT 10SM CLR 17/14 A3022 RMK AO2  T01690141,,,,,,57.35,,N,29.56,28.79,,Clear
KIGQ,09/12/2018 13:35 UTC,30.22,64.22,57.92,80.01,0.0,0.0,,,,,,1.0,,,,10.0,,KIGQ 121335Z AUTO 00000KT 10SM CLR 18/14 A3022 RMK AO2  T01790144,,,,,,57.88,,N,29.56,28.74,,Clear
KIGQ,09/12/2018 13:55 UTC,30.22,66.02,58.46,76.63,3.44,130.0,,,,,,1.0,,,,10.0,,KIGQ 121355Z AUTO 13003KT 10SM CLR 19/15 A3022 RMK AO2  T01890147,,,,,,58.42,,SE,29.56,28.69,,Clear
KIGQ,09/12/2018 14:15 UTC,30.22,68.0,58.82,72.5,3.44,150.0,,,,,,1.0,,,,10.0,,KIGQ 121415Z AUTO 15003KT 10SM CLR 20/15 A3022 RMK AO2  T02000149,,,,,,58.78,,SSE,29.56,28.65,,Clear
KIGQ,09/12/2018 14:35 UTC,30.22,69.26,59.0,69.88,0.0,0.0,,,,,,1.0,,,,10.0,,KIGQ 121435Z AUTO 00000KT 10SM CLR 21/15 A3022 RMK AO2  T02070150,,,,,,58.96,,N,29.56,28.63,,Clear
KIGQ,09/12/2018 14:55 UTC,30.22,70.34,59.36,68.23,3.44,180.0,,,,,,1.0,,,,10.0,,KIGQ 121455Z AUTO 18003KT 10SM CLR 21/15 A3022 RMK AO2  T02130152,,,,,,59.32,,S,29.56,28.6,,Clear
KIGQ,09/12/2018 15:15 UTC,30.23,71.24,59.54,66.6,3.44,160.0,,,,,,1.0,,,,10.0,,KIGQ 121515Z AUTO 16003KT 10SM CLR 22/15 A3023 RMK AO2  T02180153,,,,,,59.5,,SSE,29.57,28.59,,Clear
KIGQ,09/12/2018 15:35 UTC,30.22,72.32,59.54,64.22,3.44,140.0,,,,,,1.0,,,,10.0,,KIGQ 121535Z AUTO 14003KT 10SM CLR 22/15 A3022 RMK AO2  T02240153,,,,,,59.51,,SE,29.56,28.57,,Clear
KIGQ,09/12/2018 15:55 UTC,30.23,73.22,58.82,60.72,4.61,110.0,,,,,,1.0,,,,10.0,,KIGQ 121555Z AUTO 11004KT 10SM CLR 23/15 A3023 RMK AO2  T02290149,,,,,,58.79,,ESE,29.57,28.61,,Clear
KIGQ,09/12/2018 16:15 UTC,30.22,74.12,59.54,60.45,3.44,130.0,,,,,,1.0,,,,10.0,,KIGQ 121615Z AUTO 13003KT 10SM CLR 23/15 A3022 RMK AO2  T02340153,,,,,,59.51,,SE,29.56,28.55,,Clear
KIGQ,09/12/2018 16:35 UTC,30.22,73.94,57.92,57.39,0.0,0.0,,,,,,1.0,,,,10.0,,KIGQ 121635Z AUTO 00000KT 10SM CLR 23/14 A3022 RMK AO2  T02330144,,,,,,57.89,,N,29.56,28.64,,Clear
KIGQ,09/12/2018 16:55 UTC,30.21,74.84,57.56,54.98,3.44,100.0,,,,,,1.0,,,,10.0,,KIGQ 121655Z AUTO 10003KT 10SM CLR 24/14 A3021 RMK AO2  T02380142,,,,,,57.54,,E,29.55,28.64,,Clear
KIGQ,09/12/2018 17:15 UTC,30.21,75.38,58.28,55.41,4.61,140.0,,,,,,1.0,,,,10.0,,KIGQ 121715Z AUTO 14004KT 10SM CLR 24/15 A3021 RMK AO2  T02410146,,,,,,58.26,,SE,29.55,28.59,,Clear
KIGQ,09/12/2018 17:35 UTC,30.21,75.92,57.92,53.73,5.75,100.0,,,,,,1.0,,,,10.0,,KIGQ 121735Z AUTO 10005KT 10SM CLR 24/14 A3021 RMK AO2  T02440144,,,,,,57.9,,E,29.55,28.61,,Clear
KIGQ,09/12/2018 17:55 UTC,30.2,76.46,56.84,50.76,3.44,50.0,,,,,,1.0,,,,10.0,,KIGQ 121755Z AUTO 05003KT 10SM CLR 25/14 A3020 RMK AO2 T02470138  10247 20131,76.46,55.58,,,,56.83,,NE,29.54,28.65,,Clear
KIGQ,09/12/2018 18:15 UTC,30.2,77.0,55.76,47.96,3.44,180.0,,,,,,1.0,,,,10.0,,KIGQ 121815Z AUTO 18003KT 10SM CLR 25/13 A3020 RMK AO2  T02500132,,,,,,55.75,,S,29.54,28.7,,Clear
KIGQ,09/12/2018 18:35 UTC,30.2,77.36,55.94,47.7,5.75,90.0,,,,,,1.0,,,,10.0,,KIGQ 121835Z AUTO 09005KT 10SM CLR 25/13 A3020 RMK AO2  T02520133,,,,,,55.94,,E,29.54,28.68,,Clear
KIGQ,09/12/2018 18:55 UTC,30.19,77.9,55.4,45.95,5.75,130.0,,,,,,1.0,,,,10.0,,KIGQ 121855Z AUTO 13005KT 10SM CLR 26/13 A3019 RMK AO2  T02550130,,,,,,55.4,,SE,29.53,28.7,,Clear
KIGQ,09/12/2018 19:15 UTC,30.19,77.9,56.12,47.16,3.44,130.0,,,,,,1.0,,,,10.0,,KIGQ 121915Z AUTO 13003KT 10SM CLR 26/13 A3019 RMK AO2  T02550134,,,,,,56.12,,SE,29.53,28.66,,Clear
KIGQ,09/12/2018 19:35 UTC,30.19,78.26,55.22,45.11,5.75,150.0,,,,,,1.0,,,,10.0,,KIGQ 121935Z AUTO 15005KT 10SM CLR 26/13 A3019 RMK AO2  T02570129,,,,,,55.22,,SSE,29.53,28.7,,Clear
KIGQ,09/12/2018 19:55 UTC,30.18,77.9,54.5,44.47,4.61,170.0,,,,,,1.0,,,,10.0,,KIGQ 121955Z AUTO 17004KT 10SM CLR 26/13 A3018 RMK AO2  T02550125,,,,,,54.5,,S,29.52,28.73,,Clear
KIGQ,09/12/2018 20:15 UTC,30.18,78.44,54.68,43.97,5.75,110.0,,,,,,1.0,,,,10.0,,KIGQ 122015Z AUTO 11005KT 10SM CLR 26/13 A3018 RMK AO2  T02580126,,,,,,54.68,,ESE,29.52,28.72,,Clear
KIGQ,09/12/2018 20:35 UTC,30.17,78.26,53.6,42.53,0.0,0.0,,,,,,1.0,,,,10.0,,KIGQ 122035Z AUTO 00000KT 10SM CLR 26/12 A3017 RMK AO2  T02570120,,,,,,53.61,,N,29.51,28.76,,Clear
KIGQ,09/12/2018 20:55 UTC,30.17,78.44,55.4,45.14,3.44,40.0,,,,,,1.0,,,,10.0,,KIGQ 122055Z AUTO 04003KT 10SM CLR 26/13 A3017 RMK AO2  T02580130,,,,,,55.4,,NE,29.51,28.67,,Clear
KIGQ,09/12/2018 21:15 UTC,30.17,78.26,56.84,47.84,6.91,90.0,,,,,,1.0,,,,10.0,,KIGQ 122115Z AUTO 09006KT 10SM CLR 26/14 A3017 RMK AO2  T02570138,,,,,,56.84,,E,29.51,28.6,,Clear
KIGQ,09/12/2018 21:35 UTC,30.17,77.36,56.12,48.01,9.22,80.0,,,,,,1.0,,,,10.0,,KIGQ 122135Z AUTO 08008KT 10SM CLR 25/13 A3017 RMK AO2  T02520134,,,,,,56.11,,E,29.51,28.64,,Clear
KIGQ,09/12/2018 21:55 UTC,30.17,76.82,55.4,47.62,8.05,70.0,,,,,,1.0,,,,10.0,,KIGQ 122155Z AUTO 07007KT 10SM CLR 25/13 A3017 RMK AO2  T02490130,,,,,,55.39,,ENE,29.51,28.69,,Clear
KIGQ,09/12/2018 22:15 UTC,30.17,76.28,55.4,48.48,8.05,50.0,,,,,,1.0,,,,10.0,,KIGQ 122215Z AUTO 05007KT 10SM CLR 25/13 A3017 RMK AO2  T02460130,,,,,,55.39,,NE,29.51,28.69,,Clear
KIGQ,09/12/2018 22:35 UTC,30.17,75.38,55.94,50.93,6.91,80.0,,,,,,1.0,,,,10.0,,KIGQ 122235Z AUTO 08006KT 10SM CLR 24/13 A3017 RMK AO2  T02410133,,,,,,55.92,,E,29.51,28.67,,Clear
KIGQ,09/12/2018 22:55 UTC,30.17,74.84,55.4,50.85,8.05,60.0,,,,,,1.0,,,,10.0,,KIGQ 122255Z AUTO 06007KT 10SM CLR 24/13 A3017 RMK AO2  T02380130,,,,,,55.37,,ENE,29.51,28.7,,Clear
KIGQ,09/12/2018 23:15 UTC,30.17,73.4,55.76,54.06,4.61,50.0,,,,,,1.0,,,,10.0,,KIGQ 122315Z AUTO 05004KT 10SM CLR 23/13 A3017 RMK AO2  T02300132,,,,,,55.72,,NE,29.51,28.7,,Clear
KIGQ,09/12/2018 23:35 UTC,30.16,72.32,55.58,55.7,5.75,40.0,,,,,,1.0,,,,10.0,,KIGQ 122335Z AUTO 04005KT 10SM CLR 22/13 A3016 RMK AO2  T02240131,,,,,,55.54,,NE,29.5,28.71,,Clear
KIGQ,09/12/2018 23:55 UTC,30.16,70.88,55.22,57.72,5.75,50.0,,,,,,1.0,,,,10.0,,KIGQ 122355Z AUTO 05005KT 10SM CLR 22/13 A3016 RMK AO2 T02160129  10261 20216,78.98,70.88,,,,55.17,,NE,29.5,28.74,,Clear
KIGQ,09/13/2018 00:15 UTC,30.16,69.8,55.22,59.88,4.61,80.0,,,,,,1.0,,,,10.0,,KIGQ 130015Z AUTO 08004KT 10SM CLR 21/13 A3016 RMK AO2  T02100129,,,,,,55.17,,E,29.5,28.75,,Clear
KIGQ,09/13/2018 00:35 UTC,30.16,69.62,54.86,59.46,6.91,80.0,,,,,,1.0,,,,10.0,,KIGQ 130035Z AUTO 08006KT 10SM CLR 21/13 A3016 RMK AO2  T02090127,,,,,,54.81,,E,29.5,28.77,,Clear
KIGQ,09/13/2018 00:55 UTC,30.17,68.54,54.5,60.9,5.75,80.0,,,,,,1.0,,,,10.0,,KIGQ 130055Z AUTO 08005KT 10SM CLR 20/13 A3017 RMK AO2  T02030125,,,,,,54.45,,E,29.51,28.81,,Clear
KIGQ,09/13/2018 01:15 UTC,30.18,67.28,55.04,64.85,5.75,80.0,,,,,,1.0,,,,10.0,,KIGQ 130115Z AUTO 08005KT 10SM CLR 20/13 A3018 RMK AO2  T01960128,,,,,,54.98,,E,29.52,28.8,,Clear
KIGQ,09/13/2018 01:35 UTC,30.18,66.02,55.76,69.53,6.91,90.0,,,,,,1.0,,,,10.0,,KIGQ 130135Z AUTO 09006KT 10SM CLR 19/13 A3018 RMK AO2  T01890132,,,,,,55.71,,E,29.52,28.78,,Clear
KIGQ,09/13/2018 01:55 UTC,30.19,66.38,57.2,72.33,8.05,120.0,,,,,,1.0,,,,10.0,,KIGQ 130155Z AUTO 12007KT 10SM CLR 19/14 A3019 RMK AO2  T01910140,,,,,,57.15,,ESE,29.53,28.72,,Clear
KIGQ,09/13/2018 02:15 UTC,30.19,65.12,57.38,76.05,5.75,120.0,,,,,,1.0,,,,10.0,,KIGQ 130215Z AUTO 12005KT 10SM CLR 18/14 A3019 RMK AO2  T01840141,,,,,,57.33,,ESE,29.53,28.73,,Clear
KIGQ,09/13/2018 02:35 UTC,30.19,65.12,57.56,76.55,6.91,130.0,,,,,,1.0,,,,10.0,,KIGQ 130235Z AUTO 13006KT 10SM CLR 18/14 A3019 RMK AO2  T01840142,,,,,,57.52,,SE,29.53,28.72,,Clear
KIGQ,09/13/2018 02:55 UTC,30.19,64.94,57.56,77.03,5.75,130.0,,,,,,1.0,,,,10.0,,KIGQ 130255Z AUTO 13005KT 10SM CLR 18/14 A3019 RMK AO2  T01830142,,,,,,57.52,,SE,29.53,28.72,,Clear
KIGQ,09/13/2018 03:15 UTC,30.19,63.86,57.38,79.47,5.75,120.0,,,,,,1.0,,,,10.0,,KIGQ 130315Z AUTO 12005KT 10SM CLR 18/14 A3019 RMK AO2  T01770141,,,,,,57.34,,ESE,29.53,28.74,,Clear
KIGQ,09/13/2018 03:35 UTC,30.19,62.96,57.2,81.49,4.61,120.0,,,,,,1.0,,,,10.0,,KIGQ 130335Z AUTO 12004KT 10SM CLR 17/14 A3019 RMK AO2  T01720140,,,,,,57.16,,ESE,29.53,28.76,,Clear
KIGQ,09/13/2018 03:55 UTC,30.19,62.6,56.84,81.46,4.61,120.0,,,,,,1.0,,,,10.0,,KIGQ 130355Z AUTO 12004KT 10SM CLR 17/14 A3019 RMK AO2  T01700138,,,,,,56.8,,ESE,29.53,28.78,,Clear
KIGQ,09/13/2018 04:15 UTC,30.19,62.24,56.48,81.43,4.61,130.0,,,,,,1.0,,,,10.0,,KIGQ 130415Z AUTO 13004KT 10SM CLR 17/14 A3019 RMK AO2  T01680136,,,,,,56.44,,SE,29.53,28.8,,Clear
KIGQ,09/13/2018 04:35 UTC,30.19,62.06,56.48,81.95,3.44,130.0,,,,,,1.0,,,,10.0,,KIGQ 130435Z AUTO 13003KT 10SM CLR 17/14 A3019 RMK AO2  T01670136,,,,,,56.44,,SE,29.53,28.8,,Clear
KIGQ,09/13/2018 04:55 UTC,30.19,61.52,56.3,82.99,3.44,120.0,,,,,,1.0,,,,10.0,,KIGQ 130455Z AUTO 12003KT 10SM CLR 16/14 A3019 RMK AO2  T01640135,,,,,,56.26,,ESE,29.53,28.82,,Clear
KIGQ,09/13/2018 05:15 UTC,30.19,60.8,56.3,85.13,3.44,120.0,,,,,,1.0,,,,10.0,,KIGQ 130515Z AUTO 12003KT 10SM CLR 16/14 A3019 RMK AO2  T01600135,,,,,,56.27,,ESE,29.53,28.83,,Clear
KIGQ,09/13/2018 05:35 UTC,30.19,60.26,55.76,85.09,3.44,120.0,,,,,,1.0,,,,10.0,,KIGQ 130535Z AUTO 12003KT 10SM CLR 16/13 A3019 RMK AO2  T01570132,,,,,,55.72,,ESE,29.53,28.86,,Clear
KIGQ,09/13/2018 05:55 UTC,30.19,60.08,55.94,86.2,3.44,110.0,,,,,,1.0,,,,10.0,,KIGQ 130555Z AUTO 11003KT 10SM CLR 16/13 A3019 RMK AO2 T01560133  10216 20156 402610130,70.88,60.08,,78.98,55.4,55.91,,ESE,29.53,28.85,,Clear
KIGQ,09/13/2018 06:15 UTC,30.2,59.9,55.76,86.19,4.61,130.0,,,,,,1.0,,,,10.0,,KIGQ 130615Z AUTO 13004KT 10SM CLR 16/13 A3020 RMK AO2  T01550132,,,,,,55.73,,SE,29.54,28.87,,Clear
KIGQ,09/13/2018 06:35 UTC,30.2,59.9,55.76,86.19,0.0,0.0,,,,,,1.0,,,,10.0,,KIGQ 130635Z AUTO 00000KT 10SM CLR 16/13 A3020 RMK AO2  T01550132,,,,,,55.73,,N,29.54,28.87,,Clear
KIGQ,09/13/2018 06:55 UTC,30.2,58.1,54.86,88.96,3.44,120.0,,,,,,1.0,,,,10.0,,KIGQ 130655Z AUTO 12003KT 10SM CLR 15/13 A3020 RMK AO2  T01450127,,,,,,54.83,,ESE,29.54,28.93,,Clear
KIGQ,09/13/2018 07:15 UTC,30.2,58.1,55.04,89.54,0.0,0.0,,,,,,1.0,,,,10.0,,KIGQ 130715Z AUTO 00000KT 10SM CLR 15/13 A3020 RMK AO2  T01450128,,,,,,55.01,,N,29.54,28.92,,Clear
KIGQ,09/13/2018 07:35 UTC,30.2,59.0,55.58,88.42,0.0,0.0,,,,,,1.0,,,,10.0,,KIGQ 130735Z AUTO 00000KT 10SM CLR 15/13 A3020 RMK AO2  T01500131,,,,,,55.55,,N,29.54,28.89,,Clear
KIGQ,09/13/2018 07:55 UTC,30.2,58.46,55.58,90.14,0.0,0.0,,,,,,1.0,,,,10.0,,KIGQ 130755Z AUTO 00000KT 10SM CLR 15/13 A3020 RMK AO2  T01470131,,,,,,55.55,,N,29.54,28.89,,Clear
KIGQ,09/13/2018 08:15 UTC,30.2,58.28,55.22,89.55,0.0,0.0,,,,,,1.0,,,,10.0,,KIGQ 130815Z AUTO 00000KT 10SM CLR 15/13 A3020 RMK AO2  T01460129,,,,,,55.19,,N,29.54,28.91,,Clear
KIGQ,09/13/2018 08:35 UTC,30.21,56.48,53.6,90.06,0.0,0.0,,,,,,1.0,,,,10.0,,KIGQ 130835Z AUTO 00000KT 10SM CLR 14/12 A3021 RMK AO2  T01360120,,,,,,53.57,,N,29.55,29.01,,Clear
KIGQ,09/13/2018 08:55 UTC,30.2,56.3,54.5,93.68,0.0,0.0,,,,,,1.0,,,,10.0,,KIGQ 130855Z AUTO 00000KT 10SM CLR 14/13 A3020 RMK AO2  T01350125,,,,,,54.48,,N,29.54,28.96,,Clear
KIGQ,09/13/2018 09:15 UTC,30.2,55.94,54.14,93.67,0.0,0.0,,,,,,1.0,,,,10.0,,KIGQ 130915Z AUTO 00000KT 10SM CLR 13/12 A3020 RMK AO2  T01330123,,,,,,54.12,,N,29.54,28.98,,Clear
KIGQ,09/13/2018 09:35 UTC,30.2,57.38,55.76,94.32,0.0,0.0,,,,,,333.0,,,,10.0,,KIGQ 130935Z AUTO 00000KT 10SM BKN033 14/13 A3020 RMK AO2  T01410132,,,3300.0,,,55.75,,N,29.54,28.9,,Mostly Cloudy
KIGQ,09/13/2018 09:55 UTC,30.21,58.46,55.58,90.14,0.0,0.0,,,,,,354.0,,,,10.0,,KIGQ 130955Z AUTO 00000KT 10SM OVC035 15/13 A3021 RMK AO2  T01470131,,,3500.0,,,55.55,,N,29.55,28.9,,Overcast
KIGQ,09/13/2018 10:15 UTC,30.2,58.46,56.3,92.52,0.0,0.0,,,,,,354.0,,,,10.0,,KIGQ 131015Z AUTO 00000KT 10SM OVC035 15/14 A3020 RMK AO2  T01470135,,,3500.0,,,56.28,,N,29.54,28.86,,Overcast
KIGQ,09/13/2018 10:35 UTC,30.2,59.36,56.48,90.18,0.0,0.0,,,,,,354.0,,,,10.0,,KIGQ 131035Z AUTO 00000KT 10SM OVC035 15/14 A3020 RMK AO2  T01520136,,,3500.0,,,56.46,,N,29.54,28.84,,Overcast
KIGQ,09/13/2018 10:55 UTC,30.2,59.9,56.48,88.46,0.0,0.0,,,,,,354.0,,,,10.0,,KIGQ 131055Z AUTO 00000KT 10SM OVC035 16/14 A3020 RMK AO2  T01550136,,,3500.0,,,56.45,,N,29.54,28.84,,Overcast
KIGQ,09/13/2018 11:15 UTC,30.21,59.54,56.84,90.78,0.0,0.0,,,,,,354.0,,,,10.0,,KIGQ 131115Z AUTO 00000KT 10SM OVC035 15/14 A3021 RMK AO2  T01530138,,,3500.0,,,56.82,,N,29.55,28.84,,Overcast
KIGQ,09/13/2018 11:35 UTC,30.21,59.54,56.66,90.19,0.0,0.0,,,,,,354.0,,,,10.0,,KIGQ 131135Z AUTO 00000KT 10SM OVC035 15/14 A3021 RMK AO2  T01530137,,,3500.0,,,56.64,,N,29.55,28.84,,Overcast
KIGQ,09/13/2018 11:55 UTC,30.21,60.98,56.84,86.25,0.0,0.0,,,,,,354.0,,,,10.0,,KIGQ 131155Z AUTO 00000KT 10SM OVC035 16/14 A3021 RMK AO2  T01610138 10161 20131,60.98,55.58,3500.0,,,56.81,,N,29.55,28.82,,Overcast
KIGQ,09/13/2018 12:15 UTC,30.21,61.52,57.2,85.72,0.0,0.0,,,,,,354.0,,,,10.0,,KIGQ 131215Z AUTO 00000KT 10SM OVC035 16/14 A3021 RMK AO2  T01640140,,,3500.0,,,57.17,,N,29.55,28.8,,Overcast
KIGQ,09/13/2018 12:35 UTC,30.21,62.6,58.1,85.23,0.0,0.0,,,,,,354.0,,,,10.0,,KIGQ 131235Z AUTO 00000KT 10SM OVC035 17/15 A3021 RMK AO2  T01700145,,,3500.0,,,58.07,,N,29.55,28.74,,Overcast
KIGQ,09/13/2018 12:55 UTC,30.21,62.78,58.64,86.35,0.0,0.0,,,,,,353.0,,,,10.0,,KIGQ 131255Z AUTO 00000KT 10SM BKN035 17/15 A3021 RMK AO2  T01710148,,,3500.0,,,58.61,,N,29.55,28.71,,Mostly Cloudy
KIGQ,09/13/2018 13:15 UTC,30.22,62.96,59.18,87.48,0.0,0.0,,,,,,393.0,,,,10.0,,KIGQ 131315Z AUTO 00000KT 10SM BKN039 17/15 A3022 RMK AO2  T01720151,,,3900.0,,,59.16,,N,29.56,28.69,,Mostly Cloudy
KIGQ,09/13/2018 13:35 UTC,30.22,64.4,59.0,82.65,0.0,0.0,,,,,,393.0,,,,10.0,,KIGQ 131335Z AUTO 00000KT 10SM BKN039 18/15 A3022 RMK AO2  T01800150,,,3900.0,,,58.97,,N,29.56,28.69,,Mostly Cloudy
KIGQ,09/13/2018 13:55 UTC,30.22,65.84,60.08,81.69,0.0,0.0,,,,,,394.0,,,,10.0,,KIGQ 131355Z AUTO 00000KT 10SM OVC039 19/16 A3022 RMK AO2  T01880156,,,3900.0,,,60.05,,N,29.56,28.61,,Overcast
KIGQ,09/13/2018 14:15 UTC,30.22,67.1,60.8,80.24,0.0,0.0,,,,,,394.0,,,,10.0,,KIGQ 131415Z AUTO 00000KT 10SM OVC039 20/16 A3022 RMK AO2  T01950160,,,3900.0,,,60.77,,N,29.56,28.56,,Overcast
KIGQ,09/13/2018 14:35 UTC,30.22,68.9,59.54,72.13,0.0,0.0,,,,,,393.0,,,,10.0,,KIGQ 131435Z AUTO 00000KT 10SM BKN039 21/15 A3022 RMK AO2  T02050153,,,3900.0,,,59.5,,N,29.56,28.61,,Mostly Cloudy
KIGQ,09/13/2018 14:55 UTC,30.22,69.98,57.74,65.18,0.0,0.0,,,,,,392.0,,,,10.0,,KIGQ 131455Z AUTO 00000KT 10SM SCT039 21/14 A3022 RMK AO2  T02110143,,,,,,57.7,,N,29.56,28.69,,Partly Cloudy
KIGQ,09/13/2018 15:15 UTC,30.22,70.88,56.12,59.63,0.0,0.0,,,,,,1.0,,,,10.0,,KIGQ 131515Z AUTO 00000KT 10SM CLR 22/13 A3022 RMK AO2  T02160134,,,,,,56.07,,N,29.56,28.76,,Clear
KIGQ,09/13/2018 15:35 UTC,30.22,71.6,57.2,60.51,3.44,120.0,,,,,,1.0,,,,10.0,,KIGQ 131535Z AUTO 12003KT 10SM CLR 22/14 A3022 RMK AO2  T02200140,,,,,,57.16,,ESE,29.56,28.7,,Clear
KIGQ,09/13/2018 15:55 UTC,30.21,72.86,58.1,59.9,5.75,80.0,,,,,,332.0,,,,10.0,,KIGQ 131555Z AUTO 08005KT 10SM SCT033 23/15 A3021 RMK AO2  T02270145,,,,,,58.07,,E,29.55,28.63,,Partly Cloudy
KIGQ,09/13/2018 16:15 UTC,30.21,73.22,57.2,57.29,6.91,150.0,,,,,,332.0,,,,10.0,,KIGQ 131615Z AUTO 15006KT 10SM SCT033 23/14 A3021 RMK AO2  T02290140,,,,,,57.16,,SSE,29.55,28.67,,Partly Cloudy
KIGQ,09/13/2018 16:35 UTC,30.21,73.4,56.66,55.85,5.75,110.0,,,,,,372.0,,,,10.0,,KIGQ 131635Z AUTO 11005KT 10SM SCT037 23/14 A3021 RMK AO2  T02300137,,,,,,56.63,,ESE,29.55,28.7,,Partly Cloudy
KIGQ,09/13/2018 16:55 UTC,30.2,74.3,57.74,56.34,4.61,80.0,,,,,,1.0,,,,10.0,,KIGQ 131655Z AUTO 08004KT 10SM CLR 24/14 A3020 RMK AO2  T02350143,,,,,,57.71,,E,29.54,28.62,,Clear
KIGQ,09/13/2018 17:15 UTC,30.2,74.3,56.3,53.49,0.0,0.0,,,,,,382.0,,,,10.0,,KIGQ 131715Z AUTO 00000KT 10SM SCT038 24/14 A3020 RMK AO2  T02350135,,,,,,56.27,,N,29.54,28.7,,Partly Cloudy
KIGQ,09/13/2018 17:35 UTC,30.19,75.02,57.38,54.3,0.0,0.0,,,,,,402.0,,,,10.0,,KIGQ 131735Z AUTO 00000KT 10SM SCT040 24/14 A3019 RMK AO2  T02390141,,,,,,57.36,,N,29.53,28.62,,Partly Cloudy
KIGQ,09/13/2018 17:55 UTC,30.19,76.1,58.82,55.16,6.91,140.0,,,,,,1.0,,,,10.0,,KIGQ 131755Z AUTO 14006KT 10SM CLR 25/15 A3019 RMK AO2 T02450149  10245 20160,76.1,60.8,,,,58.81,,SE,29.53,28.54,,Clear
KIGQ,09/13/2018 18:15 UTC,30.19,75.38,58.1,55.05,5.75,100.0,,,,,,412.0,,,,10.0,,KIGQ 131815Z AUTO 10005KT 10SM SCT041 24/15 A3019 RMK AO2  T02410145,,,,,,58.08,,E,29.53,28.58,,Partly Cloudy
KIGQ,09/13/2018 18:35 UTC,30.18,76.1,59.18,55.87,6.91,130.0,,,,,,412.0,,,,10.0,,KIGQ 131835Z AUTO 13006KT 10SM SCT041 25/15 A3018 RMK AO2  T02450151,,,,,,59.17,,SE,29.52,28.51,,Partly Cloudy
KIGQ,09/13/2018 18:55 UTC,30.17,76.82,59.0,54.2,5.75,130.0,,,,,,1.0,,,,10.0,,KIGQ 131855Z AUTO 13005KT 10SM CLR 25/15 A3017 RMK AO2  T02490150,,,,,,58.99,,SE,29.51,28.5,,Clear
KIGQ,09/13/2018 19:15 UTC,30.17,76.64,57.92,52.46,0.0,0.0,,,,,,1.0,,,,10.0,,KIGQ 131915Z AUTO 00000KT 10SM CLR 25/14 A3017 RMK AO2  T02480144,,,,,,57.91,,N,29.51,28.56,,Clear
KIGQ,09/13/2018 19:35 UTC,30.16,77.36,59.54,54.28,6.91,60.0,,,,,,1.0,,,,10.0,,KIGQ 131935Z AUTO 06006KT 10SM CLR 25/15 A3016 RMK AO2  T02520153,,,,,,59.53,,ENE,29.5,28.45,,Clear
KIGQ,09/13/2018 19:55 UTC,30.15,76.28,60.8,58.83,8.05,40.0,,,,,,402.0,,,,10.0,,KIGQ 131955Z AUTO 04007KT 10SM SCT040 25/16 A3015 RMK AO2  T02460160,,,,,,60.79,,NE,29.49,28.38,,Partly Cloudy
KIGQ,09/13/2018 20:15 UTC,30.14,75.92,60.26,58.41,8.05,70.0,,,,,,402.0,,,,10.0,,KIGQ 132015Z AUTO 07007KT 10SM SCT040 24/16 A3014 RMK AO2  T02440157,,,,,,60.25,,ENE,29.48,28.41,,Partly Cloudy
KIGQ,09/13/2018 20:35 UTC,30.14,75.92,59.9,57.67,9.22,40.0,,,,,,1.0,,,,10.0,,KIGQ 132035Z AUTO 04008KT 10SM CLR 24/16 A3014 RMK AO2  T02440155,,,,,,59.89,,NE,29.48,28.43,,Clear
KIGQ,09/13/2018 20:55 UTC,30.13,75.38,59.9,58.71,9.22,50.0,,,,,,1.0,,,,10.0,,KIGQ 132055Z AUTO 05008KT 030V090 10SM CLR 24/16 A3013 RMK AO2  T02410155,,,,,,59.88,,NE,29.47,28.42,,Clear
KIGQ,09/13/2018 21:15 UTC,30.13,75.38,59.9,58.71,8.05,50.0,,,,,,1.0,,,,10.0,,KIGQ 132115Z AUTO 05007KT 10SM CLR 24/16 A3013 RMK AO2  T02410155,,,,,,59.88,,NE,29.47,28.42,,Clear
KIGQ,09/13/2018 21:35 UTC,30.13,74.84,59.36,58.64,6.91,60.0,,,,,,1.0,,,,10.0,,KIGQ 132135Z AUTO 06006KT 10SM CLR 24/15 A3013 RMK AO2  T02380152,,,,,,59.34,,ENE,29.47,28.46,,Clear
KIGQ,09/13/2018 21:55 UTC,30.13,74.3,59.18,59.32,6.91,60.0,,,,,,1.0,,,,10.0,,KIGQ 132155Z AUTO 06006KT 10SM CLR 24/15 A3013 RMK AO2  T02350151,,,,,,59.15,,ENE,29.47,28.47,,Clear
KIGQ,09/13/2018 22:15 UTC,30.13,73.76,58.82,59.63,9.22,60.0,,,,,,1.0,,,,10.0,,KIGQ 132215Z AUTO 06008KT 10SM CLR 23/15 A3013 RMK AO2  T02320149,,,,,,58.79,,ENE,29.47,28.5,,Clear
KIGQ,09/13/2018 22:35 UTC,30.13,72.86,58.82,61.46,6.91,50.0,,,,,,1.0,,,,10.0,,KIGQ 132235Z AUTO 05006KT 10SM CLR 23/15 A3013 RMK AO2  T02270149,,,,,,58.79,,NE,29.47,28.51,,Clear
KIGQ,09/13/2018 22:55 UTC,30.13,71.96,58.46,62.54,8.05,40.0,,,,,,1.0,,,,10.0,,KIGQ 132255Z AUTO 04007KT 10SM CLR 22/15 A3013 RMK AO2  T02220147,,,,,,58.42,,NE,29.47,28.54,,Clear
KIGQ,09/13/2018 23:15 UTC,30.13,71.06,58.1,63.65,6.91,40.0,,,,,,1.0,,,,10.0,,KIGQ 132315Z AUTO 04006KT 10SM CLR 22/15 A3013 RMK AO2  T02170145,,,,,,58.06,,NE,29.47,28.57,,Clear
KIGQ,09/13/2018 23:35 UTC,30.13,69.98,58.46,66.89,4.61,30.0,,,,,,1.0,,,,10.0,,KIGQ 132335Z AUTO 03004KT 10SM CLR 21/15 A3013 RMK AO2  T02110147,,,,,,58.42,,NNE,29.47,28.56,,Clear
KIGQ,09/13/2018 23:55 UTC,30.13,68.9,58.1,68.51,6.91,40.0,,,,,,1.0,,,,10.0,,KIGQ 132355Z AUTO 04006KT 10SM CLR 21/15 A3013 RMK AO2 T02050145  10252 20205,77.36,68.9,,,,58.06,,NE,29.47,28.59,,Clear
KIGQ,09/14/2018 00:15 UTC,30.13,68.18,58.46,71.13,6.91,40.0,,,,,,1.0,,,,10.0,,KIGQ 140015Z AUTO 04006KT 10SM CLR 20/15 A3013 RMK AO2  T02010147,,,,,,58.42,,NE,29.47,28.58,,Clear
KIGQ,09/14/2018 00:35 UTC,30.13,67.28,58.46,73.37,3.44,60.0,,,,,,1.0,,,,10.0,,KIGQ 140035Z AUTO 06003KT 10SM CLR 20/15 A3013 RMK AO2  T01960147,,,,,,58.42,,ENE,29.47,28.59,,Clear
KIGQ,09/14/2018 00:55 UTC,30.13,66.56,58.64,75.7,4.61,40.0,,,,,,1.0,,,,10.0,,KIGQ 140055Z AUTO 04004KT 10SM CLR 19/15 A3013 RMK AO2  T01920148,,,,,,58.6,,NE,29.47,28.59,,Clear
KIGQ,09/14/2018 01:15 UTC,30.14,66.38,58.1,74.71,6.91,50.0,,,,,,1.0,,,,10.0,,KIGQ 140115Z AUTO 05006KT 10SM CLR 19/15 A3014 RMK AO2  T01910145,,,,,,58.06,,NE,29.48,28.63,,Clear
KIGQ,09/14/2018 01:35 UTC,30.14,66.56,57.74,73.29,4.61,70.0,,,,,,1.0,,,,10.0,,KIGQ 140135Z AUTO 07004KT 10SM CLR 19/14 A3014 RMK AO2  T01920143,,,,,,57.69,,ENE,29.48,28.64,,Clear
KIGQ,09/14/2018 01:55 UTC,30.14,66.2,57.56,73.73,4.61,90.0,,,,,,1.0,,,,10.0,,KIGQ 140155Z AUTO 09004KT 10SM CLR 19/14 A3014 RMK AO2  T01900142,,,,,,57.51,,E,29.48,28.66,,Clear
KIGQ,09/14/2018 02:15 UTC,30.15,65.3,58.1,77.56,3.44,80.0,,,,,,1.0,,,,10.0,,KIGQ 140215Z AUTO 08003KT 10SM CLR 19/15 A3015 RMK AO2  T01850145,,,,,,58.06,,E,29.49,28.65,,Clear
KIGQ,09/14/2018 02:35 UTC,30.15,65.12,57.56,76.55,4.61,90.0,,,,,,1.0,,,,10.0,,KIGQ 140235Z AUTO 09004KT 10SM CLR 18/14 A3015 RMK AO2  T01840142,,,,,,57.52,,E,29.49,28.68,,Clear
KIGQ,09/14/2018 02:55 UTC,30.14,64.4,57.2,77.48,3.44,90.0,,,,,,1.0,,,,10.0,,KIGQ 140255Z AUTO 09003KT 10SM CLR 18/14 A3014 RMK AO2  T01800140,,,,,,57.16,,E,29.48,28.69,,Clear
KIGQ,09/14/2018 03:15 UTC,30.14,63.86,57.2,78.96,0.0,0.0,,,,,,1.0,,,,10.0,,KIGQ 140315Z AUTO 00000KT 10SM CLR 18/14 A3014 RMK AO2  T01770140,,,,,,57.16,,N,29.48,28.7,,Clear
KIGQ,09/14/2018 03:35 UTC,30.14,63.14,57.38,81.5,3.44,130.0,,,,,,1.0,,,,10.0,,KIGQ 140335Z AUTO 13003KT 10SM CLR 17/14 A3014 RMK AO2  T01730141,,,,,,57.34,,SE,29.48,28.7,,Clear
KIGQ,09/14/2018 03:55 UTC,30.13,62.96,57.2,81.49,3.44,130.0,,,,,,1.0,,,,10.0,,KIGQ 140355Z AUTO 13003KT 10SM CLR 17/14 A3013 RMK AO2  T01720140,,,,,,57.16,,SE,29.47,28.7,,Clear
KIGQ,09/14/2018 04:15 UTC,30.14,61.88,56.48,82.47,0.0,0.0,,,,,,1.0,,,,10.0,,KIGQ 140415Z AUTO 00000KT 10SM CLR 17/14 A3014 RMK AO2  T01660136,,,,,,56.44,,N,29.48,28.75,,Clear
KIGQ,09/14/2018 04:35 UTC,30.14,63.5,57.2,79.96,0.0,0.0,,,,,,1.0,,,,10.0,,KIGQ 140435Z AUTO 00000KT 10SM CLR 18/14 A3014 RMK AO2  T01750140,,,,,,57.16,,N,29.48,28.7,,Clear
KIGQ,09/14/2018 04:55 UTC,30.14,63.32,57.2,80.46,0.0,0.0,,,,,,1.0,,,,10.0,,KIGQ 140455Z AUTO 00000KT 10SM CLR 17/14 A3014 RMK AO2  T01740140,,,,,,57.16,,N,29.48,28.7,,Clear
KIGQ,09/14/2018 05:15 UTC,30.14,62.6,57.2,82.52,0.0,0.0,,,,,,1.0,,,,10.0,,KIGQ 140515Z AUTO 00000KT 10SM CLR 17/14 A3014 RMK AO2  T01700140,,,,,,57.16,,N,29.48,28.71,,Clear
KIGQ,09/14/2018 05:35 UTC,30.14,62.6,57.38,83.06,0.0,0.0,,,,,,1.0,,,,10.0,,KIGQ 140535Z AUTO 00000KT 10SM CLR 17/14 A3014 RMK AO2  T01700141,,,,,,57.34,,N,29.48,28.7,,Clear
KIGQ,09/14/2018 05:55 UTC,30.14,62.24,57.56,84.66,0.0,0.0,,,,,,1.0,,,,10.0,,KIGQ 140555Z AUTO 00000KT 10SM CLR 17/14 A3014 RMK AO2 T01680142  10205 20162 402520131,68.9,61.16,,77.36,55.58,57.53,,N,29.48,28.7,,Clear
KIGQ,09/14/2018 06:15 UTC,30.14,62.6,57.74,84.14,0.0,0.0,,,,,,1.0,,,,10.0,,KIGQ 140615Z AUTO 00000KT 10SM CLR 17/14 A3014 RMK AO2  T01700143,,,,,,57.71,,N,29.48,28.69,,Clear
KIGQ,09/14/2018 06:35 UTC,30.14,61.52,57.02,85.17,0.0,0.0,,,,,,1.0,,,,10.0,,KIGQ 140635Z AUTO 00000KT 10SM CLR 16/14 A3014 RMK AO2  T01640139,,,,,,56.99,,N,29.48,28.73,,Clear
KIGQ,09/14/2018 06:55 UTC,30.14,59.54,56.66,90.19,0.0,0.0,,,,,,1.0,,,,10.0,,KIGQ 140655Z AUTO 00000KT 10SM CLR 15/14 A3014 RMK AO2  T01530137,,,,,,56.64,,N,29.48,28.77,,Clear
KIGQ,09/14/2018 07:15 UTC,30.14,59.18,56.84,91.95,0.0,0.0,,,,,,1.0,,,,10.0,,KIGQ 140715Z AUTO 00000KT 10SM CLR 15/14 A3014 RMK AO2  T01510138,,,,,,56.82,,N,29.48,28.77,,Clear
KIGQ,09/14/2018 07:35 UTC,30.14,59.72,57.2,91.37,0.0,0.0,,,,,,1.0,,,,10.0,,KIGQ 140735Z AUTO 00000KT 10SM CLR 15/14 A3014 RMK AO2  T01540140,,,,,,57.18,,N,29.48,28.75,,Clear
KIGQ,09/14/2018 07:55 UTC,30.14,60.44,57.56,90.23,0.0,0.0,,,,,,1.0,,,,10.0,,KIGQ 140755Z AUTO 00000KT 10SM CLR 16/14 A3014 RMK AO2  T01580142,,,,,,57.54,,N,29.48,28.72,,Clear
KIGQ,09/14/2018 08:15 UTC,30.14,60.44,58.1,91.99,0.0,0.0,,,,,,1.0,,,,10.0,,KIGQ 140815Z AUTO 00000KT 10SM CLR 16/15 A3014 RMK AO2  T01580145,,,,,,58.08,,N,29.48,28.7,,Clear
KIGQ,09/14/2018 08:35 UTC,30.14,60.44,58.1,91.99,0.0,0.0,,,,,,1.0,,,,10.0,,KIGQ 140835Z AUTO 00000KT 10SM CLR 16/15 A3014 RMK AO2  T01580145,,,,,,58.08,,N,29.48,28.7,,Clear
KIGQ,09/14/2018 08:55 UTC,30.14,60.08,57.74,91.98,0.0,0.0,,,,,,1.0,,,,10.0,,KIGQ 140855Z AUTO 00000KT 10SM CLR 16/14 A3014 RMK AO2  T01560143,,,,,,57.72,,N,29.48,28.72,,Clear
KIGQ,09/14/2018 09:15 UTC,30.15,57.74,55.58,92.5,0.0,0.0,,,,,,1.0,,,,10.0,,KIGQ 140915Z AUTO 00000KT 10SM CLR 14/13 A3015 RMK AO2  T01430131,,,,,,55.56,,N,29.49,28.85,,Clear
KIGQ,09/14/2018 09:35 UTC,30.15,58.1,56.48,94.34,0.0,0.0,,,,,,1.0,,,,10.0,,KIGQ 140935Z AUTO 00000KT 10SM CLR 15/14 A3015 RMK AO2  T01450136,,,,,,56.47,,N,29.49,28.81,,Clear
KIGQ,09/14/2018 09:55 UTC,30.15,57.38,55.76,94.32,0.0,0.0,,,,,,1.0,,,,7.0,,KIGQ 140955Z AUTO 00000KT 7SM CLR 14/13 A3015 RMK AO2  T01410132,,,,,,55.75,,N,29.49,28.85,,Clear
KIGQ,09/14/2018 10:15 UTC,30.16,57.2,55.94,95.55,0.0,0.0,,,,,,1.0,,,,10.0,,KIGQ 141015Z AUTO 00000KT 10SM CLR 14/13 A3016 RMK AO2  T01400133,,,,,,55.93,,N,29.5,28.85,,Clear
KIGQ,09/14/2018 10:35 UTC,30.16,57.56,56.84,97.44,0.0,0.0,,,,,,1.0,,,,7.0,,KIGQ 141035Z AUTO 00000KT 7SM CLR 14/14 A3016 RMK AO2  T01420138,,,,,,56.83,,N,29.5,28.81,,Clear
KIGQ,09/14/2018 10:55 UTC,30.16,59.0,58.1,96.83,0.0,0.0,,,,,,1.0,,,,10.0,,KIGQ 141055Z AUTO 00000KT 10SM CLR 15/15 A3016 RMK AO2  T01500145,,,,,,58.09,,N,29.5,28.73,,Clear
KIGQ,09/14/2018 11:15 UTC,30.16,58.82,57.38,94.97,0.0,0.0,,,,,,1.0,,,,10.0,,KIGQ 141115Z AUTO 00000KT 10SM CLR 15/14 A3016 RMK AO2  T01490141,,,,,,57.37,,N,29.5,28.77,,Clear
KIGQ,09/14/2018 11:35 UTC,30.16,57.56,56.12,94.94,0.0,0.0,,,,,,1.0,,,,7.0,,KIGQ 141135Z AUTO 00000KT 7SM CLR 14/13 A3016 RMK AO2  T01420134,,,,,,56.11,,N,29.5,28.84,,Clear
KIGQ,09/14/2018 11:55 UTC,30.17,57.38,56.3,96.18,0.0,0.0,,,,,,1.0,,,,7.0,,KIGQ 141155Z AUTO 00000KT 7SM CLR 14/14 A3017 RMK AO2 T01410135  10170 20140,62.6,57.2,,,,56.29,,N,29.51,28.84,,Clear
KIGQ,09/14/2018 12:15 UTC,30.17,59.36,57.92,94.98,0.0,0.0,,,,,,1.0,,,,7.0,,KIGQ 141215Z AUTO 00000KT 7SM CLR 15/14 A3017 RMK AO2  T01520144,,,,,,57.91,,N,29.51,28.75,,Clear
KIGQ,09/14/2018 12:35 UTC,30.17,60.8,59.0,93.8,0.0,0.0,,,,,,1.0,,,,10.0,,KIGQ 141235Z AUTO 00000KT 10SM CLR 16/15 A3017 RMK AO2  T01600150,,,,,,58.99,,N,29.51,28.68,,Clear
KIGQ,09/14/2018 12:55 UTC,30.17,63.5,59.72,87.51,0.0,0.0,,,,,,1.0,,,,10.0,,KIGQ 141255Z AUTO 00000KT 10SM CLR 18/15 A3017 RMK AO2  T01750154,,,,,,59.7,,N,29.51,28.61,,Clear
KIGQ,09/14/2018 13:15 UTC,30.17,66.02,61.16,84.36,0.0,0.0,,,,,,1.0,,,,10.0,,KIGQ 141315Z AUTO 00000KT 10SM CLR 19/16 A3017 RMK AO2  T01890162,,,,,,61.14,,N,29.51,28.5,,Clear
KIGQ,09/14/2018 13:35 UTC,30.17,68.0,61.88,80.82,0.0,0.0,,,,,,1.0,,,,10.0,,KIGQ 141335Z AUTO 00000KT 10SM CLR 20/17 A3017 RMK AO2  T02000166,,,,,,61.85,,N,29.51,28.44,,Clear
KIGQ,09/14/2018 13:55 UTC,30.17,70.7,62.42,75.12,0.0,0.0,,,,,,1.0,,,,10.0,,KIGQ 141355Z AUTO 00000KT 10SM CLR 22/17 A3017 RMK AO2  T02150169,,,,,,62.39,,N,29.51,28.37,,Clear
KIGQ,09/14/2018 14:15 UTC,30.17,72.68,63.32,72.51,4.61,160.0,,,,,,1.0,,,,10.0,,KIGQ 141415Z AUTO 16004KT 10SM CLR 23/17 A3017 RMK AO2  T02260174,,,,,,63.3,,SSE,29.51,28.3,,Clear
KIGQ,09/14/2018 14:35 UTC,30.18,74.3,63.32,68.67,4.61,190.0,,,,,,1.0,,,,10.0,,KIGQ 141435Z AUTO 19004KT 10SM CLR 24/17 A3018 RMK AO2  T02350174,,,,,,63.3,,S,29.52,28.29,,Clear
KIGQ,09/14/2018 14:55 UTC,30.18,75.2,63.5,67.06,0.0,0.0,,,,,,1.0,,,,10.0,,KIGQ 141455Z AUTO 00000KT 10SM CLR 24/18 A3018 RMK AO2  T02400175,,,,,,63.48,,N,29.52,28.27,,Clear
KIGQ,09/14/2018 15:15 UTC,30.18,76.28,63.5,64.7,0.0,0.0,,,,,,1.0,,,,10.0,,KIGQ 141515Z AUTO 00000KT 10SM CLR 25/18 A3018 RMK AO2  T02460175,,,,,,63.49,,N,29.52,28.25,,Clear
KIGQ,09/14/2018 15:35 UTC,30.17,77.18,62.24,60.08,0.0,0.0,,,,,,1.0,,,,10.0,,KIGQ 141535Z AUTO 00000KT 10SM CLR 25/17 A3017 RMK AO2  T02510168,,,,,,62.23,,N,29.51,28.31,,Clear
KIGQ,09/14/2018 15:55 UTC,30.17,78.8,62.96,58.43,0.0,0.0,,,,,,1.0,,,,10.0,,KIGQ 141555Z AUTO 00000KT 10SM CLR 26/17 A3017 RMK AO2  T02600172,,,,,,62.97,,N,29.51,28.25,,Clear
KIGQ,09/14/2018 16:15 UTC,30.17,79.34,62.06,55.61,3.44,120.0,,,,,,1.0,,,,10.0,,KIGQ 141615Z AUTO 12003KT 10SM CLR 26/17 A3017 RMK AO2  T02630167,,,,,,62.07,,ESE,29.51,28.3,,Clear
KIGQ,09/14/2018 16:35 UTC,30.17,79.88,61.16,52.93,0.0,0.0,,,,,,1.0,,,,10.0,,KIGQ 141635Z AUTO 00000KT 10SM CLR 27/16 A3017 RMK AO2  T02660162,,,,,,61.17,,N,29.51,28.35,,Clear
KIGQ,09/14/2018 16:55 UTC,30.16,80.6,61.52,52.37,0.0,0.0,,,,,,1.0,,,,10.0,,KIGQ 141655Z AUTO 00000KT 10SM CLR 27/16 A3016 RMK AO2  T02700164,,,,,,61.54,,N,29.5,28.31,81.62,Clear
KIGQ,09/14/2018 17:15 UTC,30.15,80.96,60.44,49.81,0.0,0.0,,,,,,1.0,,,,10.0,,KIGQ 141715Z AUTO 00000KT 10SM CLR 27/16 A3015 RMK AO2  T02720158,,,,,,60.46,,N,29.49,28.36,81.67,Clear
KIGQ,09/14/2018 17:35 UTC,30.15,82.58,62.6,51.02,0.0,0.0,,,,,,1.0,,,,10.0,,KIGQ 141735Z AUTO 00000KT 10SM CLR 28/17 A3015 RMK AO2  T02810170,,,,,,62.64,,N,29.49,28.21,83.58,Clear
KIGQ,09/14/2018 17:55 UTC,30.15,82.76,61.88,49.45,0.0,0.0,,,,,,1.0,,,,10.0,,KIGQ 141755Z AUTO 00000KT 10SM CLR 28/17 A3015 RMK AO2 T02820166  10282 20142,82.76,57.56,,,,61.92,,N,29.49,28.25,83.52,Clear
KIGQ,09/14/2018 18:15 UTC,30.14,82.76,61.34,48.52,0.0,0.0,,,,,,1.0,,,,10.0,,KIGQ 141815Z AUTO 00000KT 10SM CLR 28/16 A3014 RMK AO2  T02820163,,,,,,61.39,,N,29.48,28.28,83.37,Clear
KIGQ,09/14/2018 18:35 UTC,30.14,82.76,61.52,48.83,5.75,140.0,,,,,,1.0,,,,10.0,,KIGQ 141835Z AUTO 14005KT 10SM CLR 28/16 A3014 RMK AO2  T02820164,,,,,,61.57,,SE,29.48,28.26,83.42,Clear
KIGQ,09/14/2018 18:55 UTC,30.14,83.48,61.16,47.1,4.61,60.0,,,,,,1.0,,,,10.0,,KIGQ 141855Z AUTO 06004KT 10SM CLR 29/16 A3014 RMK AO2  T02860162,,,,,,61.21,,ENE,29.48,28.28,83.93,Clear
KIGQ,09/14/2018 19:15 UTC,30.13,83.3,60.26,45.89,0.0,0.0,,,,,,1.0,,,,10.0,,KIGQ 141915Z AUTO 00000KT 10SM CLR 29/16 A3013 RMK AO2  T02850157,,,,,,60.31,,N,29.47,28.32,83.52,Clear
KIGQ,09/14/2018 19:35 UTC,30.13,83.12,61.34,47.96,9.22,50.0,,,,,,1.0,,,,10.0,,KIGQ 141935Z AUTO 05008KT 10SM CLR 28/16 A3013 RMK AO2  T02840163,,,,,,61.39,,NE,29.47,28.26,83.68,Clear
KIGQ,09/14/2018 19:55 UTC,30.13,82.58,60.98,48.18,9.22,50.0,,,,,,1.0,,,,10.0,,KIGQ 141955Z AUTO 05008KT 10SM CLR 28/16 A3013 RMK AO2  T02810161,,,,,,61.02,,NE,29.47,28.29,83.12,Clear
KIGQ,09/14/2018 20:15 UTC,30.13,82.04,59.18,45.99,8.05,50.0,,,,,,1.0,,,,10.0,,KIGQ 142015Z AUTO 05007KT 10SM CLR 28/15 A3013 RMK AO2  T02780151,,,,,,59.22,,NE,29.47,28.4,82.24,Clear
KIGQ,09/14/2018 20:35 UTC,30.12,81.86,59.0,45.96,10.36,60.0,,,,,,1.0,,,,10.0,,KIGQ 142035Z AUTO 06009KT 10SM CLR 28/15 A3012 RMK AO2  T02770150,,,,,,59.04,,ENE,29.47,28.41,82.06,Clear
KIGQ,09/14/2018 20:55 UTC,30.12,81.5,58.82,46.2,10.36,40.0,,,,,,1.0,,,,10.0,,KIGQ 142055Z AUTO 04009KT 10SM CLR 28/15 A3012 RMK AO2  T02750149,,,,,,58.85,,NE,29.47,28.42,81.75,Clear
KIGQ,09/14/2018 21:15 UTC,30.12,81.14,58.82,46.75,9.22,70.0,,,,,,1.0,,,,10.0,,KIGQ 142115Z AUTO 07008KT 10SM CLR 27/15 A3012 RMK AO2  T02730149,,,,,,58.85,,ENE,29.47,28.43,81.48,Clear
KIGQ,09/14/2018 21:35 UTC,30.12,80.6,57.92,46.07,10.36,60.0,,,,,,1.0,,,,10.0,,KIGQ 142135Z AUTO 06009KT 10SM CLR 27/14 A3012 RMK AO2  T02700144,,,,,,57.95,,ENE,29.47,28.48,80.94,Clear
KIGQ,09/14/2018 21:55 UTC,30.12,80.06,58.82,48.42,6.91,50.0,,,,,,1.0,,,,10.0,,KIGQ 142155Z AUTO 05006KT 10SM CLR 27/15 A3012 RMK AO2  T02670149,,,,,,58.84,,NE,29.47,28.44,80.71,Clear
KIGQ,09/14/2018 22:15 UTC,30.13,79.7,58.28,48.05,8.05,50.0,,,,,,1.0,,,,10.0,,KIGQ 142215Z AUTO 05007KT 10SM CLR 27/15 A3013 RMK AO2  T02650146,,,,,,58.29,,NE,29.47,28.47,,Clear
KIGQ,09/14/2018 22:35 UTC,30.13,78.62,58.28,49.78,8.05,50.0,,,,,,1.0,,,,10.0,,KIGQ 142235Z AUTO 05007KT 10SM CLR 26/15 A3013 RMK AO2  T02590146,,,,,,58.28,,NE,29.47,28.48,,Clear
KIGQ,09/14/2018 22:55 UTC,30.13,77.9,59.18,52.64,9.22,50.0,,,,,,1.0,,,,10.0,,KIGQ 142255Z AUTO 05008KT 10SM CLR 26/15 A3013 RMK AO2  T02550151,,,,,,59.18,,NE,29.47,28.44,,Clear
KIGQ,09/14/2018 23:15 UTC,30.13,76.64,59.9,56.31,5.75,50.0,,,,,,1.0,,,,10.0,,KIGQ 142315Z AUTO 05005KT 10SM CLR 25/16 A3013 RMK AO2  T02480155,,,,,,59.89,,NE,29.47,28.41,,Clear
KIGQ,09/14/2018 23:35 UTC,30.13,75.56,59.72,57.99,6.91,80.0,,,,,,1.0,,,,10.0,,KIGQ 142335Z AUTO 08006KT 10SM CLR 24/15 A3013 RMK AO2  T02420154,,,,,,59.7,,E,29.47,28.43,,Clear
KIGQ,09/14/2018 23:55 UTC,30.12,74.48,58.82,58.21,8.05,60.0,,,,,,1.0,,,,10.0,,KIGQ 142355Z AUTO 06007KT 10SM CLR 24/15 A3012 RMK AO2 T02360149  10288 20236,83.84,74.48,,,,58.79,,ENE,29.47,28.49,,Clear
KIGQ,09/15/2018 00:15 UTC,30.12,73.22,59.0,61.11,4.61,50.0,,,,,,1.0,,,,10.0,,KIGQ 150015Z AUTO 05004KT 10SM CLR 23/15 A3012 RMK AO2  T02290150,,,,,,58.97,,NE,29.47,28.5,,Clear
KIGQ,09/15/2018 00:35 UTC,30.12,72.32,59.18,63.4,6.91,60.0,,,,,,1.0,,,,10.0,,KIGQ 150035Z AUTO 06006KT 10SM CLR 22/15 A3012 RMK AO2  T02240151,,,,,,59.15,,ENE,29.47,28.5,,Clear
KIGQ,09/15/2018 00:55 UTC,30.13,71.78,59.54,65.4,3.44,70.0,,,,,,1.0,,,,10.0,,KIGQ 150055Z AUTO 07003KT 10SM CLR 22/15 A3013 RMK AO2  T02210153,,,,,,59.51,,ENE,29.47,28.48,,Clear
KIGQ,09/15/2018 01:15 UTC,30.13,70.88,59.54,67.42,4.61,60.0,,,,,,1.0,,,,10.0,,KIGQ 150115Z AUTO 06004KT 10SM CLR 22/15 A3013 RMK AO2  T02160153,,,,,,59.5,,ENE,29.47,28.49,,Clear
KIGQ,09/15/2018 01:35 UTC,30.14,70.7,59.9,68.71,0.0,0.0,,,,,,1.0,,,,10.0,,KIGQ 150135Z AUTO 00000KT 10SM CLR 22/16 A3014 RMK AO2  T02150155,,,,,,59.87,,N,29.48,28.48,,Clear
KIGQ,09/15/2018 01:55 UTC,30.15,70.7,59.9,68.71,3.44,40.0,,,,,,1.0,,,,10.0,,KIGQ 150155Z AUTO 04003KT 10SM CLR 22/16 A3015 RMK AO2  T02150155,,,,,,59.87,,NE,29.49,28.49,,Clear
KIGQ,09/15/2018 02:15 UTC,30.15,69.8,59.9,70.85,0.0,0.0,,,,,,1.0,,,,10.0,,KIGQ 150215Z AUTO 00000KT 10SM CLR 21/16 A3015 RMK AO2  T02100155,,,,,,59.87,,N,29.49,28.5,,Clear
KIGQ,09/15/2018 02:35 UTC,30.15,69.44,59.9,71.72,0.0,0.0,,,,,,1.0,,,,10.0,,KIGQ 150235Z AUTO 00000KT 10SM CLR 21/16 A3015 RMK AO2  T02080155,,,,,,59.86,,N,29.49,28.51,,Clear
KIGQ,09/15/2018 02:55 UTC,30.16,68.72,59.9,73.51,0.0,0.0,,,,,,1.0,,,,10.0,,KIGQ 150255Z AUTO 00000KT 10SM CLR 20/16 A3016 RMK AO2  T02040155,,,,,,59.86,,N,29.5,28.53,,Clear
KIGQ,09/15/2018 03:15 UTC,30.16,68.18,60.08,75.36,0.0,0.0,,,,,,1.0,,,,10.0,,KIGQ 150315Z AUTO 00000KT 10SM CLR 20/16 A3016 RMK AO2  T02010156,,,,,,60.04,,N,29.5,28.52,,Clear
KIGQ,09/15/2018 03:35 UTC,30.16,68.18,59.9,74.88,0.0,0.0,,,,,,1.0,,,,10.0,,KIGQ 150335Z AUTO 00000KT 10SM CLR 20/16 A3016 RMK AO2  T02010155,,,,,,59.86,,N,29.5,28.53,,Clear
KIGQ,09/15/2018 03:55 UTC,30.16,68.18,59.72,74.4,3.44,50.0,,,,,,1.0,,,,10.0,,KIGQ 150355Z AUTO 05003KT 10SM CLR 20/15 A3016 RMK AO2  T02010154,,,,,,59.68,,NE,29.5,28.54,,Clear
KIGQ,09/15/2018 04:15 UTC,30.16,66.92,59.72,77.7,0.0,0.0,,,,,,1.0,,,,10.0,,KIGQ 150415Z AUTO 00000KT 10SM CLR 19/15 A3016 RMK AO2  T01940154,,,,,,59.69,,N,29.5,28.56,,Clear
KIGQ,09/15/2018 04:35 UTC,30.16,67.46,60.26,77.74,0.0,0.0,,,,,,1.0,,,,10.0,,KIGQ 150435Z AUTO 00000KT 10SM CLR 20/16 A3016 RMK AO2  T01970157,,,,,,60.22,,N,29.5,28.52,,Clear
KIGQ,09/15/2018 04:55 UTC,30.16,66.92,60.26,79.21,0.0,0.0,,,,,,1.0,,,,10.0,,KIGQ 150455Z AUTO 00000KT 10SM CLR 19/16 A3016 RMK AO2  T01940157,,,,,,60.23,,N,29.5,28.53,,Clear
KIGQ,09/15/2018 05:15 UTC,30.15,66.38,60.26,80.7,0.0,0.0,,,,,,1.0,,,,10.0,,KIGQ 150515Z AUTO 00000KT 10SM CLR 19/16 A3015 RMK AO2  T01910157,,,,,,60.23,,N,29.49,28.53,,Clear
KIGQ,09/15/2018 05:35 UTC,30.14,66.02,60.08,81.19,0.0,0.0,,,,,,1.0,,,,10.0,,KIGQ 150535Z AUTO 00000KT 10SM CLR 19/16 A3014 RMK AO2  T01890156,,,,,,60.05,,N,29.48,28.53,,Clear
KIGQ,09/15/2018 05:55 UTC,30.15,63.14,59.54,88.05,0.0,0.0,,,,,,1.0,,,,10.0,,KIGQ 150555Z AUTO 00000KT 10SM CLR 17/15 A3015 RMK AO2 T01730153  10235 20173 402880140,74.3,63.14,,83.84,57.2,59.52,,N,29.49,28.6,,Clear
KIGQ,09/15/2018 06:15 UTC,30.15,62.96,59.54,88.61,0.0,0.0,,,,,,1.0,,,,10.0,,KIGQ 150615Z AUTO 00000KT 10SM CLR 17/15 A3015 RMK AO2  T01720153,,,,,,59.52,,N,29.49,28.6,,Clear
KIGQ,09/15/2018 06:35 UTC,30.14,62.6,59.36,89.16,0.0,0.0,,,,,,1.0,,,,10.0,,KIGQ 150635Z AUTO 00000KT 10SM CLR 17/15 A3014 RMK AO2  T01700152,,,,,,59.34,,N,29.48,28.61,,Clear
KIGQ,09/15/2018 06:55 UTC,30.14,62.42,59.18,89.15,0.0,0.0,,,,,,1.0,,,,10.0,,KIGQ 150655Z AUTO 00000KT 10SM CLR 17/15 A3014 RMK AO2  T01690151,,,,,,59.16,,N,29.48,28.62,,Clear
KIGQ,09/15/2018 07:15 UTC,30.14,61.52,59.18,92.03,0.0,0.0,,,,,,1.0,,,,7.0,,KIGQ 150715Z AUTO 00000KT 7SM CLR 16/15 A3014 RMK AO2  T01640151,,,,,,59.16,,N,29.48,28.63,,Clear
KIGQ,09/15/2018 07:35 UTC,30.14,62.6,59.9,90.89,0.0,0.0,,,,,,1.0,,,,10.0,,KIGQ 150735Z AUTO 00000KT 10SM CLR 17/16 A3014 RMK AO2  T01700155,,,,,,59.88,,N,29.48,28.58,,Clear
KIGQ,09/15/2018 07:55 UTC,30.14,63.5,60.44,89.77,0.0,0.0,,,,,,1.0,,,,10.0,,KIGQ 150755Z AUTO 00000KT 10SM CLR 18/16 A3014 RMK AO2  T01750158,,,,,,60.42,,N,29.48,28.54,,Clear
KIGQ,09/15/2018 08:15 UTC,30.15,62.06,58.64,88.57,0.0,0.0,,,,,,1.0,,,,10.0,,KIGQ 150815Z AUTO 00000KT 10SM CLR 17/15 A3015 RMK AO2  T01670148,,,,,,58.62,,N,29.49,28.66,,Clear
KIGQ,09/15/2018 08:35 UTC,30.15,61.34,59.54,93.81,0.0,0.0,,,,,,1.0,,,,10.0,,KIGQ 150835Z AUTO 00000KT 10SM CLR 16/15 A3015 RMK AO2  T01630153,,,,,,59.53,,N,29.49,28.62,,Clear
KIGQ,09/15/2018 08:55 UTC,30.15,62.24,59.72,91.46,0.0,0.0,,,,,,1.0,,,,10.0,,KIGQ 150855Z AUTO 00000KT 10SM CLR 17/15 A3015 RMK AO2  T01680154,,,,,,59.7,,N,29.49,28.6,,Clear
KIGQ,09/15/2018 09:15 UTC,30.15,60.62,58.82,93.79,0.0,0.0,,,,,,1.0,,,,10.0,,KIGQ 150915Z AUTO 00000KT 10SM CLR 16/15 A3015 RMK AO2  T01590149,,,,,,58.81,,N,29.49,28.67,,Clear
KIGQ,09/15/2018 09:35 UTC,30.15,60.26,57.92,91.99,0.0,0.0,,,,,,1.0,,,,10.0,,KIGQ 150935Z AUTO 00000KT 10SM CLR 16/14 A3015 RMK AO2  T01570144,,,,,,57.9,,N,29.49,28.72,,Clear
KIGQ,09/15/2018 09:55 UTC,30.15,59.54,59.0,98.09,0.0,0.0,,31.0,,,,1.0,,,,5.0,,KIGQ 150955Z AUTO 00000KT 5SM BR CLR 15/15 A3015 RMK AO2  T01530150,,,,,,58.99,,N,29.49,28.67,,Mist
KIGQ,09/15/2018 10:15 UTC,30.16,60.08,59.36,97.47,0.0,0.0,,,,,,1.0,,,,10.0,,KIGQ 151015Z AUTO 00000KT 10SM CLR 16/15 A3016 RMK AO2  T01560152,,,,,,59.35,,N,29.5,28.66,,Clear
KIGQ,09/15/2018 10:35 UTC,30.16,61.16,59.54,94.41,0.0,0.0,,,,,,1.0,,,,10.0,,KIGQ 151035Z AUTO 00000KT 10SM CLR 16/15 A3016 RMK AO2  T01620153,,,,,,59.53,,N,29.5,28.64,,Clear
KIGQ,09/15/2018 10:55 UTC,30.17,60.98,59.18,93.8,0.0,0.0,,,,,,1.0,,,,10.0,,KIGQ 151055Z AUTO 00000KT 10SM CLR 16/15 A3017 RMK AO2  T01610151,,,,,,59.17,,N,29.51,28.67,,Clear
KIGQ,09/15/2018 11:15 UTC,30.17,60.62,59.72,96.85,0.0,0.0,,,,,,1.0,,,,7.0,,KIGQ 151115Z AUTO 00000KT 7SM CLR 16/15 A3017 RMK AO2  T01590154,,,,,,59.71,,N,29.51,28.64,,Clear
KIGQ,09/15/2018 11:35 UTC,30.18,60.44,59.9,98.1,0.0,0.0,,31.0,,,,1.0,,,,5.0,,KIGQ 151135Z AUTO 00000KT 5SM BR CLR 16/16 A3018 RMK AO2  T01580155,,,,,,59.9,,N,29.52,28.65,,Mist
KIGQ,09/15/2018 11:55 UTC,30.19,58.28,57.2,96.2,0.0,0.0,,31.0,,,,1.0,,,,5.0,,KIGQ 151155Z AUTO 00000KT 5SM BR CLR 15/14 A3019 RMK AO2 T01460140  10176 20146,63.68,58.28,,,,57.19,,N,29.53,28.81,,Mist
KIGQ,09/15/2018 12:15 UTC,30.19,59.0,58.1,96.83,0.0,0.0,,,,,,1.0,,,,7.0,,KIGQ 151215Z AUTO 00000KT 7SM CLR 15/15 A3019 RMK AO2  T01500145,,,,,,58.09,,N,29.53,28.76,,Clear
KIGQ,09/15/2018 12:35 UTC,30.19,61.7,60.08,94.42,0.0,0.0,,,,,,1.0,,,,7.0,,KIGQ 151235Z AUTO 00000KT 7SM CLR 17/16 A3019 RMK AO2  T01650156,,,,,,60.07,,N,29.53,28.63,,Clear
KIGQ,09/15/2018 12:55 UTC,30.19,64.94,62.42,91.56,0.0,0.0,,,,,,1.0,,,,7.0,,KIGQ 151255Z AUTO 00000KT 7SM CLR 18/17 A3019 RMK AO2  T01830169,,,,,,62.41,,N,29.53,28.47,,Clear
KIGQ,09/15/2018 13:15 UTC,30.19,69.26,64.22,84.03,0.0,0.0,,,,,,1.0,,,,7.0,,KIGQ 151315Z AUTO 00000KT 7SM CLR 21/18 A3019 RMK AO2  T02070179,,,,,,64.2,,N,29.53,28.3,,Clear
KIGQ,09/15/2018 13:35 UTC,30.19,71.42,64.04,77.59,0.0,0.0,,,,,,1.0,,,,10.0,,KIGQ 151335Z AUTO 00000KT 10SM CLR 22/18 A3019 RMK AO2  T02190178,,,,,,64.02,,N,29.53,28.29,,Clear
KIGQ,09/15/2018 13:55 UTC,30.19,72.68,64.04,74.36,0.0,0.0,,,,,,1.0,,,,10.0,,KIGQ 151355Z AUTO 00000KT 10SM CLR 23/18 A3019 RMK AO2  T02260178,,,,,,64.02,,N,29.53,28.27,,Clear
KIGQ,09/15/2018 14:15 UTC,30.2,73.94,64.22,71.73,0.0,0.0,,,,,,1.0,,,,10.0,,KIGQ 151415Z AUTO 00000KT 10SM CLR 23/18 A3020 RMK AO2  T02330179,,,,,,64.2,,N,29.54,28.26,,Clear
KIGQ,09/15/2018 14:35 UTC,30.2,75.2,64.4,69.21,3.44,60.0,,,,,,1.0,,,,7.0,,KIGQ 151435Z AUTO 06003KT 7SM CLR 24/18 A3020 RMK AO2  T02400180,,,,,,64.39,,ENE,29.54,28.23,,Clear
KIGQ,09/15/2018 14:55 UTC,30.2,75.92,63.86,66.31,0.0,0.0,,,,,,1.0,,,,10.0,,KIGQ 151455Z AUTO 00000KT 10SM CLR 24/18 A3020 RMK AO2  T02440177,,,,,,63.85,,N,29.54,28.25,,Clear
KIGQ,09/15/2018 15:15 UTC,30.21,77.0,63.68,63.58,5.75,50.0,,,,,,1.0,,,,10.0,,KIGQ 151515Z AUTO 05005KT 10SM CLR 25/18 A3021 RMK AO2  T02500176,,,,,,63.68,,NE,29.55,28.26,,Clear
KIGQ,09/15/2018 15:35 UTC,30.21,77.54,64.4,64.04,5.75,50.0,,,,,,1.0,,,,10.0,,KIGQ 151535Z AUTO 05005KT 10SM CLR 25/18 A3021 RMK AO2  T02530180,,,,,,64.4,,NE,29.55,28.21,,Clear
KIGQ,09/15/2018 15:55 UTC,30.2,78.26,64.22,62.15,8.05,30.0,,,,,,1.0,,,,10.0,,KIGQ 151555Z AUTO 03007KT 10SM CLR 26/18 A3020 RMK AO2  T02570179,,,,,,64.22,,NNE,29.54,28.2,,Clear
KIGQ,09/15/2018 16:15 UTC,30.2,77.9,63.32,60.94,6.91,40.0,,,,,,1.0,,,,10.0,,KIGQ 151615Z AUTO 04006KT 10SM CLR 26/17 A3020 RMK AO2  T02550174,,,,,,63.32,,NE,29.54,28.27,,Clear
KIGQ,09/15/2018 16:35 UTC,30.2,78.08,63.68,61.35,8.05,20.0,,,,,,1.0,,,,10.0,,KIGQ 151635Z AUTO 02007KT 10SM CLR 26/18 A3020 RMK AO2  T02560176,,,,,,63.68,,NNE,29.54,28.24,,Clear
KIGQ,09/15/2018 16:55 UTC,30.2,78.26,63.32,60.23,9.22,10.0,,,,,,1.0,,,,10.0,,KIGQ 151655Z AUTO 01008KT 10SM CLR 26/17 A3020 RMK AO2  T02570174,,,,,,63.32,,N,29.54,28.26,,Clear
KIGQ,09/15/2018 17:15 UTC,30.2,78.8,63.14,58.8,9.22,20.0,,,,,,1.0,,,,10.0,,KIGQ 151715Z AUTO 02008KT 10SM CLR 26/17 A3020 RMK AO2  T02600173,,,,,,63.15,,NNE,29.54,28.27,,Clear
KIGQ,09/15/2018 17:35 UTC,30.19,78.8,62.06,56.61,10.36,70.0,,,,,,1.0,,,,10.0,,KIGQ 151735Z AUTO 07009KT 10SM CLR 26/17 A3019 RMK AO2  T02600167,,,,,,62.07,,ENE,29.53,28.32,,Clear
KIGQ,09/15/2018 17:55 UTC,30.19,78.8,61.88,56.25,10.36,40.0,,,,,,1.0,,,,10.0,,KIGQ 151755Z AUTO 04009KT 10SM CLR 26/17 A3019 RMK AO2 T02600166  10261 20146,78.98,58.28,,,,61.89,,NE,29.53,28.33,,Clear
KIGQ,09/15/2018 18:15 UTC,30.19,78.8,61.16,54.84,9.22,40.0,,,,,,1.0,,,,10.0,,KIGQ 151815Z AUTO 04008KT 10SM CLR 26/16 A3019 RMK AO2  T02600162,,,,,,61.17,,NE,29.53,28.38,,Clear
KIGQ,09/15/2018 18:35 UTC,30.18,79.16,61.88,55.59,11.5,60.0,,,,,,1.0,,,,10.0,,KIGQ 151835Z AUTO 06010KT 10SM CLR 26/17 A3018 RMK AO2  T02620166,,,,,,61.89,,ENE,29.52,28.32,,Clear
KIGQ,09/15/2018 18:55 UTC,30.17,79.16,61.34,54.54,10.36,30.0,,,,,,1.0,,,,10.0,,KIGQ 151855Z AUTO 03009KT 10SM CLR 26/16 A3017 RMK AO2  T02620163,,,,,,61.35,,NNE,29.51,28.34,,Clear
KIGQ,09/15/2018 19:15 UTC,30.17,78.26,61.16,55.82,10.36,30.0,,,,,,1.0,,,,10.0,,KIGQ 151915Z AUTO 03009KT 10SM CLR 26/16 A3017 RMK AO2  T02570162,,,,,,61.16,,NNE,29.51,28.36,,Clear
KIGQ,09/15/2018 19:35 UTC,30.16,78.08,61.52,56.87,9.22,30.0,,,,,,1.0,,,,10.0,,KIGQ 151935Z AUTO 03008KT 10SM CLR 26/16 A3016 RMK AO2  T02560164,,,,,,61.52,,NNE,29.5,28.33,,Clear
KIGQ,09/15/2018 19:55 UTC,30.16,77.9,61.88,57.94,9.22,40.0,,,,,,1.0,,,,10.0,,KIGQ 151955Z AUTO 04008KT 10SM CLR 26/17 A3016 RMK AO2  T02550166,,,,,,61.88,,NE,29.5,28.31,,Clear
KIGQ,09/15/2018 20:15 UTC,30.15,78.26,62.6,58.72,8.05,40.0,,,,,,1.0,,,,10.0,,KIGQ 152015Z AUTO 04007KT 10SM CLR 26/17 A3015 RMK AO2  T02570170,,,,,,62.6,,NE,29.49,28.26,,Clear
KIGQ,09/15/2018 20:35 UTC,30.15,77.72,62.06,58.65,9.22,40.0,,,,,,1.0,,,,10.0,,KIGQ 152035Z AUTO 04008KT 10SM CLR 25/17 A3015 RMK AO2  T02540167,,,,,,62.06,,NE,29.49,28.29,,Clear
KIGQ,09/15/2018 20:55 UTC,30.15,77.36,61.88,58.98,8.05,40.0,,,,,,1.0,,,,10.0,,KIGQ 152055Z AUTO 04007KT 10SM CLR 25/17 A3015 RMK AO2  T02520166,,,,,,61.88,,NE,29.49,28.31,,Clear
KIGQ,09/15/2018 21:15 UTC,30.14,77.18,61.34,58.21,9.22,30.0,,,,,,1.0,,,,10.0,,KIGQ 152115Z AUTO 03008KT 10SM CLR 25/16 A3014 RMK AO2  T02510163,,,,,,61.34,,NNE,29.48,28.33,,Clear
KIGQ,09/15/2018 21:35 UTC,30.13,77.0,60.8,57.45,10.36,30.0,,,,,,1.0,,,,10.0,,KIGQ 152135Z AUTO 03009KT 10SM CLR 25/16 A3013 RMK AO2  T02500160,,,,,,60.79,,NNE,29.47,28.36,,Clear
KIGQ,09/15/2018 21:55 UTC,30.13,76.46,59.9,56.64,9.22,60.0,,,,,,1.0,,,,10.0,,KIGQ 152155Z AUTO 06008KT 10SM CLR 25/16 A3013 RMK AO2  T02470155,,,,,,59.89,,ENE,29.47,28.41,,Clear
KIGQ,09/15/2018 22:15 UTC,30.13,76.1,60.44,58.43,8.05,60.0,,,,,,1.0,,,,10.0,,KIGQ 152215Z AUTO 06007KT 10SM CLR 25/16 A3013 RMK AO2  T02450158,,,,,,60.43,,ENE,29.47,28.39,,Clear
KIGQ,09/15/2018 22:35 UTC,30.13,75.74,60.62,59.51,9.22,50.0,,,,,,1.0,,,,10.0,,KIGQ 152235Z AUTO 05008KT 10SM CLR 24/16 A3013 RMK AO2  T02430159,,,,,,60.6,,NE,29.47,28.38,,Clear
KIGQ,09/15/2018 22:55 UTC,30.13,75.2,60.08,59.44,8.05,40.0,,,,,,1.0,,,,10.0,,KIGQ 152255Z AUTO 04007KT 10SM CLR 24/16 A3013 RMK AO2  T02400156,,,,,,60.06,,NE,29.47,28.42,,Clear
KIGQ,09/15/2018 23:15 UTC,30.13,74.48,60.08,60.89,6.91,50.0,,,,,,1.0,,,,10.0,,KIGQ 152315Z AUTO 05006KT 10SM CLR 24/16 A3013 RMK AO2  T02360156,,,,,,60.06,,NE,29.47,28.42,,Clear
KIGQ,09/15/2018 23:35 UTC,30.13,73.58,59.72,61.95,8.05,40.0,,,,,,1.0,,,,10.0,,KIGQ 152335Z AUTO 04007KT 10SM CLR 23/15 A3013 RMK AO2  T02310154,,,,,,59.69,,NE,29.47,28.45,,Clear
KIGQ,09/15/2018 23:55 UTC,30.14,72.86,59.72,63.47,6.91,50.0,,,,,,1.0,,,,10.0,,KIGQ 152355Z AUTO 05006KT 10SM CLR 23/15 A3014 RMK AO2 T02270154  10262 20227,79.16,72.86,,,,59.69,,NE,29.48,28.47,,Clear
KIGQ,09/16/2018 00:15 UTC,30.14,72.14,60.62,67.14,8.05,20.0,,,,,,1.0,,,,10.0,,KIGQ 160015Z AUTO 02007KT 10SM CLR 22/16 A3014 RMK AO2  T02230159,,,,,,60.59,,NNE,29.48,28.43,,Clear
KIGQ,09/16/2018 00:35 UTC,30.14,70.88,64.58,80.52,6.91,10.0,,,,,,1.0,,,,10.0,,KIGQ 160035Z AUTO 01006KT 10SM CLR 22/18 A3014 RMK AO2  T02160181,,,,,,64.56,,N,29.48,28.21,,Clear
KIGQ,09/16/2018 00:55 UTC,30.14,70.34,64.94,83.05,4.61,20.0,,,,,,1.0,,,,10.0,,KIGQ 160055Z AUTO 02004KT 10SM CLR 21/18 A3014 RMK AO2  T02130183,,,,,,64.92,,NNE,29.48,28.19,,Clear
KIGQ,09/16/2018 01:15 UTC,30.15,69.98,64.22,81.99,3.44,30.0,,,,,,1.0,,,,10.0,,KIGQ 160115Z AUTO 03003KT 10SM CLR 21/18 A3015 RMK AO2  T02110179,,,,,,64.2,,NNE,29.49,28.25,,Clear
KIGQ,09/16/2018 01:35 UTC,30.16,69.8,63.68,80.95,5.75,30.0,,,,,,1.0,,,,10.0,,KIGQ 160135Z AUTO 03005KT 10SM CLR 21/18 A3016 RMK AO2  T02100176,,,,,,63.66,,NNE,29.5,28.3,,Clear
KIGQ,09/16/2018 01:55 UTC,30.16,69.98,63.86,80.96,3.44,40.0,,,,,,1.0,,,,10.0,,KIGQ 160155Z AUTO 04003KT 10SM CLR 21/18 A3016 RMK AO2  T02110177,,,,,,63.84,,NE,29.5,28.29,,Clear
KIGQ,09/16/2018 02:15 UTC,30.16,69.8,64.04,81.98,3.44,30.0,,,,,,1.0,,,,10.0,,KIGQ 160215Z AUTO 03003KT 10SM CLR 21/18 A3016 RMK AO2  T02100178,,,,,,64.02,,NNE,29.5,28.28,,Clear
KIGQ,09/16/2018 02:35 UTC,30.16,69.8,63.32,79.94,6.91,40.0,,,,,,1.0,,,,10.0,,KIGQ 160235Z AUTO 04006KT 10SM CLR 21/17 A3016 RMK AO2  T02100174,,,,,,63.3,,NE,29.5,28.32,,Clear
KIGQ,09/16/2018 02:55 UTC,30.15,70.16,62.96,77.97,8.05,40.0,,,,,,1.0,,,,10.0,,KIGQ 160255Z AUTO 04007KT 10SM CLR 21/17 A3015 RMK AO2  T02120172,,,,,,62.93,,NE,29.49,28.33,,Clear
KIGQ,09/16/2018 03:15 UTC,30.15,69.98,63.5,79.95,6.91,40.0,,,,,,1.0,,,,10.0,,KIGQ 160315Z AUTO 04006KT 10SM CLR 21/18 A3015 RMK AO2  T02110175,,,,,,63.48,,NE,29.49,28.3,,Clear
KIGQ,09/16/2018 03:35 UTC,30.15,69.8,64.22,82.49,6.91,40.0,,,,,,1.0,,,,10.0,,KIGQ 160335Z AUTO 04006KT 10SM CLR 21/18 A3015 RMK AO2  T02100179,,,,,,64.2,,NE,29.49,28.26,,Clear
KIGQ,09/16/2018 03:55 UTC,30.15,69.26,64.76,85.62,8.05,40.0,,,,,,1.0,,,,10.0,,KIGQ 160355Z AUTO 04007KT 10SM CLR 21/18 A3015 RMK AO2  T02070182,,,,,,64.74,,NE,29.49,28.23,,Clear
KIGQ,09/16/2018 04:15 UTC,30.14,69.26,64.94,86.16,5.75,40.0,,,,,,1.0,,,,10.0,,KIGQ 160415Z AUTO 04005KT 10SM CLR 21/18 A3014 RMK AO2  T02070183,,,,,,64.92,,NE,29.48,28.21,,Clear
KIGQ,09/16/2018 04:35 UTC,30.14,68.9,65.3,88.33,6.91,40.0,,,,,,1.0,,,,10.0,,KIGQ 160435Z AUTO 04006KT 10SM CLR 21/19 A3014 RMK AO2  T02050185,,,,,,65.29,,NE,29.48,28.19,,Clear
KIGQ,09/16/2018 04:55 UTC,30.13,68.9,65.3,88.33,4.61,40.0,,,,,,1.0,,,,10.0,,KIGQ 160455Z AUTO 04004KT 10SM CLR 21/19 A3013 RMK AO2  T02050185,,,,,,65.29,,NE,29.47,28.18,,Clear
KIGQ,09/16/2018 05:15 UTC,30.13,68.54,65.3,89.42,3.44,50.0,,,,,,1.0,,,,10.0,,KIGQ 160515Z AUTO 05003KT 10SM CLR 20/19 A3013 RMK AO2  T02030185,,,,,,65.29,,NE,29.47,28.19,,Clear
KIGQ,09/16/2018 05:35 UTC,30.13,68.18,65.3,90.53,3.44,30.0,,,,,,1.0,,,,10.0,,KIGQ 160535Z AUTO 03003KT 10SM CLR 20/19 A3013 RMK AO2  T02010185,,,,,,65.29,,NNE,29.47,28.19,,Clear
KIGQ,09/16/2018 05:55 UTC,30.13,68.0,65.3,91.1,4.61,40.0,,,,,,1.0,,,,10.0,,KIGQ 160555Z AUTO 04004KT 10SM CLR 20/19 A3013 RMK AO2 T02000185  10226 20200 402620146,72.68,68.0,,79.16,58.28,65.29,,NE,29.47,28.19,,Clear
KIGQ,09/16/2018 06:15 UTC,30.13,68.18,64.94,89.41,4.61,40.0,,,,,,1.0,,,,10.0,,KIGQ 160615Z AUTO 04004KT 10SM CLR 20/18 A3013 RMK AO2  T02010183,,,,,,64.93,,NE,29.47,28.21,,Clear
KIGQ,09/16/2018 06:35 UTC,30.13,68.0,65.12,90.53,0.0,0.0,,,,,,1.0,,,,10.0,,KIGQ 160635Z AUTO 00000KT 10SM CLR 20/18 A3013 RMK AO2  T02000184,,,,,,65.11,,N,29.47,28.2,,Clear
KIGQ,09/16/2018 06:55 UTC,30.12,67.46,64.76,91.08,0.0,0.0,,,,,,1.0,,,,7.0,,KIGQ 160655Z AUTO 00000KT 7SM CLR 20/18 A3012 RMK AO2  T01970182,,,,,,64.75,,N,29.47,28.23,,Clear
KIGQ,09/16/2018 07:15 UTC,30.12,67.28,65.3,93.38,0.0,0.0,,,,,,1.0,,,,7.0,,KIGQ 160715Z AUTO 00000KT 7SM CLR 20/19 A3012 RMK AO2  T01960185,,,,,,65.29,,N,29.47,28.2,,Clear
KIGQ,09/16/2018 07:35 UTC,30.12,67.1,65.12,93.37,0.0,0.0,,,,,,1.0,,,,7.0,,KIGQ 160735Z AUTO 00000KT 7SM CLR 20/18 A3012 RMK AO2  T01950184,,,,,,65.11,,N,29.47,28.22,,Clear
KIGQ,09/16/2018 07:55 UTC,30.12,66.74,65.3,95.13,0.0,0.0,,,,,,1.0,,,,7.0,,KIGQ 160755Z AUTO 00000KT 7SM CLR 19/19 A3012 RMK AO2  T01930185,,,,,,65.29,,N,29.47,28.21,,Clear
KIGQ,09/16/2018 08:15 UTC,30.12,66.56,65.48,96.33,0.0,0.0,,31.0,,,,1.0,,,,5.0,,KIGQ 160815Z AUTO 00000KT 5SM BR CLR 19/19 A3012 RMK AO2  T01920186,,,,,,65.47,,N,29.47,28.2,,Mist
KIGQ,09/16/2018 08:35 UTC,30.11,66.2,65.48,97.54,0.0,0.0,,31.0,,,,1.0,,,,5.0,,KIGQ 160835Z AUTO 00000KT 5SM BR CLR 19/19 A3011 RMK AO2  T01900186,,,,,,65.48,,N,29.46,28.2,,Mist
KIGQ,09/16/2018 08:55 UTC,30.12,66.38,65.66,97.54,0.0,0.0,,31.0,,,,1.0,,,,4.0,,KIGQ 160855Z AUTO 00000KT 4SM BR CLR 19/19 A3012 RMK AO2  T01910187,,,,,,65.66,,N,29.47,28.19,,Mist
KIGQ,09/16/2018 09:15 UTC,30.12,66.02,65.48,98.14,0.0,0.0,,31.0,,,,1.0,,,,3.0,,KIGQ 160915Z AUTO 00000KT 3SM BR CLR 19/19 A3012 RMK AO2  T01890186,,,,,,65.48,,N,29.47,28.21,,Mist
KIGQ,09/16/2018 09:35 UTC,30.12,65.48,65.12,98.76,0.0,0.0,,31.0,,,,1.0,,,,4.0,,KIGQ 160935Z AUTO 00000KT 4SM BR CLR 19/18 A3012 RMK AO2  T01860184,,,,,,65.12,,N,29.47,28.24,,Mist
KIGQ,09/16/2018 09:55 UTC,30.12,66.2,65.84,98.76,0.0,0.0,,31.0,,,,1.0,,,,3.0,,KIGQ 160955Z AUTO 00000KT 3SM BR CLR 19/19 A3012 RMK AO2  T01900188,,,,,,65.84,,N,29.47,28.18,,Mist
KIGQ,09/16/2018 10:15 UTC,30.12,66.2,65.84,98.76,3.44,40.0,,31.0,,,,1.0,,,,4.0,,KIGQ 161015Z AUTO 04003KT 4SM BR CLR 19/19 A3012 RMK AO2  T01900188,,,,,,65.84,,NE,29.47,28.18,,Mist
KIGQ,09/16/2018 10:35 UTC,30.12,66.56,66.2,98.76,3.44,50.0,,31.0,,,,422.0,,,,4.0,,KIGQ 161035Z AUTO 05003KT 4SM BR SCT042 19/19 A3012 RMK AO2  T01920190,,,,,,66.2,,NE,29.47,28.16,,Mist
KIGQ,09/16/2018 10:55 UTC,30.12,66.74,66.38,98.76,0.0,0.0,,31.0,,,,422.0,,,,4.0,,KIGQ 161055Z AUTO 00000KT 4SM BR SCT042 19/19 A3012 RMK AO2  T01930191,,,,,,66.38,,N,29.47,28.14,,Mist
KIGQ,09/16/2018 11:15 UTC,30.12,67.46,67.1,98.77,3.44,60.0,,31.0,,,,422.0,503.0,,,5.0,,KIGQ 161115Z AUTO 06003KT 5SM BR SCT042 BKN050 20/20 A3012 RMK AO2  T01970195,,,5000.0,,,67.1,,ENE,29.47,28.09,,Mist
KIGQ,09/16/2018 11:35 UTC,30.13,67.64,66.74,96.95,3.44,70.0,,31.0,,,,503.0,,,,4.0,,KIGQ 161135Z AUTO 07003KT 4SM BR BKN050 20/19 A3013 RMK AO2  T01980193,,,5000.0,,,66.74,,ENE,29.47,28.11,,Mist
KIGQ,09/16/2018 11:55 UTC,30.13,68.0,66.74,95.75,3.44,70.0,,31.0,,,,502.0,,,,4.0,,KIGQ 161155Z AUTO 07003KT 4SM BR SCT050 20/19 A3013 RMK AO2  T02000193 10201 20186,68.18,65.48,,,,66.73,,ENE,29.47,28.1,,Mist
KIGQ,09/16/2018 12:15 UTC,30.13,68.0,67.1,96.95,0.0,0.0,,31.0,,,,502.0,,,,3.0,,KIGQ 161215Z AUTO 00000KT 3SM BR SCT050 20/20 A3013 RMK AO2  T02000195,,,,,,67.1,,N,29.47,28.08,,Mist
KIGQ,09/16/2018 12:35 UTC,30.14,68.72,67.46,95.77,3.44,70.0,,31.0,,,,502.0,,,,4.0,,KIGQ 161235Z AUTO 07003KT 4SM BR SCT050 20/20 A3014 RMK AO2  T02040197,,,,,,67.46,,ENE,29.48,28.05,,Mist
KIGQ,09/16/2018 12:55 UTC,30.13,69.26,67.64,94.6,3.44,90.0,,31.0,,,,462.0,603.0,,,4.0,,KIGQ 161255Z AUTO 09003KT 4SM BR SCT046 BKN060 21/20 A3013 RMK AO2  T02070198,,,6000.0,,,67.63,,E,29.47,28.02,,Mist
KIGQ,09/16/2018 13:15 UTC,30.13,70.7,67.64,90.07,4.61,110.0,,31.0,,,,462.0,603.0,,,5.0,,KIGQ 161315Z AUTO 11004KT 5SM BR SCT046 BKN060 22/20 A3013 RMK AO2  T02150198,,,6000.0,,,67.63,,ESE,29.47,28.0,,Mist
KIGQ,09/16/2018 13:35 UTC,30.13,72.68,68.54,86.88,5.75,120.0,,,,,,462.0,602.0,,,7.0,,KIGQ 161335Z AUTO 12005KT 7SM SCT046 SCT060 23/20 A3013 RMK AO2  T02260203,,,,,,68.53,,ESE,29.47,27.91,,Partly Cloudy
KIGQ,09/16/2018 13:55 UTC,30.13,73.94,68.72,83.8,6.91,120.0,,,,,,502.0,,,,10.0,,KIGQ 161355Z AUTO 12006KT 10SM SCT050 23/20 A3013 RMK AO2  T02330204,,,,,,68.71,,ESE,29.47,27.88,,Partly Cloudy
KIGQ,09/16/2018 14:15 UTC,30.13,75.56,68.9,79.88,5.75,160.0,,,,,,1.0,,,,10.0,,KIGQ 161415Z AUTO 16005KT 10SM CLR 24/21 A3013 RMK AO2  T02420205,,,,,,68.89,,SSE,29.47,27.85,,Clear
KIGQ,09/16/2018 14:35 UTC,30.13,77.0,69.08,76.63,4.61,140.0,,,,,,552.0,,,,10.0,,KIGQ 161435Z AUTO 14004KT 10SM SCT055 25/21 A3013 RMK AO2  T02500206,,,,,,69.08,,SE,29.47,27.82,,Partly Cloudy
KIGQ,09/16/2018 14:55 UTC,30.13,78.44,69.62,74.44,4.61,160.0,,,,,,1.0,,,,10.0,,KIGQ 161455Z AUTO 16004KT 10SM CLR 26/21 A3013 RMK AO2  T02580209,,,,,,69.62,,SSE,29.47,27.76,,Clear
KIGQ,09/16/2018 15:15 UTC,30.13,79.52,69.44,71.41,4.61,70.0,,,,,,1.0,,,,10.0,,KIGQ 161515Z AUTO 07004KT 10SM CLR 26/21 A3013 RMK AO2  T02640208,,,,,,69.45,,ENE,29.47,27.76,,Clear
KIGQ,09/16/2018 15:35 UTC,30.13,80.96,69.98,69.4,0.0,0.0,,,,,,1.0,,,,10.0,,KIGQ 161535Z AUTO 00000KT 10SM CLR 27/21 A3013 RMK AO2  T02720211,,,,,,70.0,,N,29.47,27.7,84.46,Clear
KIGQ,09/16/2018 15:55 UTC,30.12,82.04,69.44,65.79,3.44,130.0,,,,,,1.0,,,,10.0,,KIGQ 161555Z AUTO 13003KT 10SM CLR 28/21 A3012 RMK AO2  T02780208,,,,,,69.46,,SE,29.47,27.72,85.62,Clear
KIGQ,09/16/2018 16:15 UTC,30.12,83.12,68.18,60.86,6.91,100.0,,,,,,1.0,,,,10.0,,KIGQ 161615Z AUTO 10006KT 10SM CLR 28/20 A3012 RMK AO2  T02840201,,,,,,68.22,,E,29.47,27.8,86.3,Clear
KIGQ,09/16/2018 16:35 UTC,30.11,83.3,66.92,57.94,8.05,130.0,,,,,,1.0,,,,10.0,,KIGQ 161635Z AUTO 13007KT 10SM CLR 29/19 A3011 RMK AO2  T02850194,,,,,,66.96,,SE,29.46,27.88,85.91,Clear
KIGQ,09/16/2018 16:55 UTC,30.11,84.38,67.1,56.31,6.91,150.0,,,,,,1.0,,,,10.0,,KIGQ 161655Z AUTO 15006KT 10SM CLR 29/20 A3011 RMK AO2  T02910195,,,,,,67.15,,SSE,29.46,27.86,87.16,Clear
KIGQ,09/16/2018 17:15 UTC,30.1,85.1,66.92,54.69,8.05,110.0,,,,,,1.0,,,,10.0,,KIGQ 161715Z AUTO 11007KT 10SM CLR 30/19 A3010 RMK AO2  T02950194,,,,,,66.98,,ESE,29.45,27.85,87.84,Clear
KIGQ,09/16/2018 17:35 UTC,30.09,86.0,65.12,49.93,4.61,140.0,16.11,,,,,1.0,,,,10.0,,KIGQ 161735Z AUTO 14004G14KT 10SM CLR 30/18 A3009 RMK AO2  T03000184,,,,,,65.19,,SE,29.44,27.96,87.87,Clear
KIGQ,09/16/2018 17:55 UTC,30.08,84.56,64.22,50.66,5.75,150.0,,,,,,492.0,,,,10.0,,KIGQ 161755Z AUTO 15005KT 10SM SCT049 29/18 A3008 RMK AO2  T02920179 10303 20200,86.54,68.0,,,,64.28,,SSE,29.43,28.02,86.02,Partly Cloudy
KIGQ,09/16/2018 18:15 UTC,30.08,87.44,64.76,47.11,9.22,100.0,,,,,,493.0,,,,10.0,,KIGQ 161815Z AUTO 10008KT 10SM BKN049 31/18 A3008 RMK AO2  T03080182,,,4900.0,,,64.86,,E,29.43,27.96,89.18,Mostly Cloudy
KIGQ,09/16/2018 18:35 UTC,30.07,85.46,63.68,48.31,6.91,90.0,,,,,,503.0,,,,10.0,,KIGQ 161835Z AUTO 09006KT 10SM BKN050 30/18 A3007 RMK AO2  T02970176,,,5000.0,,,63.75,,E,29.42,28.04,86.67,Mostly Cloudy
KIGQ,09/16/2018 18:55 UTC,30.06,87.26,64.76,47.38,5.75,60.0,,,,,,602.0,,,,10.0,,KIGQ 161855Z AUTO 06005KT 10SM SCT060 31/18 A3006 RMK AO2  T03070182,,,,,,64.85,,ENE,29.41,27.94,88.99,Partly Cloudy
KIGQ,09/16/2018 19:15 UTC,30.05,86.18,63.5,46.92,6.91,90.0,,,,,,603.0,,,,10.0,,KIGQ 161915Z AUTO 09006KT 10SM BKN060 30/18 A3005 RMK AO2  T03010175,,,6000.0,,,63.58,,E,29.4,28.02,87.3,Mostly Cloudy
KIGQ,09/16/2018 19:35 UTC,30.04,86.72,63.14,45.54,0.0,0.0,,,,,,602.0,,,,10.0,,KIGQ 161935Z AUTO 00000KT 10SM SCT060 30/17 A3004 RMK AO2  T03040173,,,,,,63.23,,N,29.39,28.03,87.68,Partly Cloudy
KIGQ,09/16/2018 19:55 UTC,30.04,84.38,65.12,52.58,9.22,40.0,,,,,,603.0,,,,10.0,,KIGQ 161955Z AUTO 04008KT 10SM BKN060 29/18 A3004 RMK AO2  T02910184,,,6000.0,,,65.17,,NE,29.39,27.93,86.22,Mostly Cloudy
KIGQ,09/16/2018 20:15 UTC,30.03,84.92,65.3,52.0,8.05,60.0,,,,,,502.0,603.0,,,10.0,,KIGQ 162015Z AUTO 06007KT 10SM SCT050 BKN060 29/19 A3003 RMK AO2  T02940185,,,6000.0,,,65.36,,ENE,29.38,27.9,86.85,Mostly Cloudy
KIGQ,09/16/2018 20:35 UTC,30.03,83.48,64.94,53.78,9.22,50.0,,,,,,602.0,,,,10.0,,KIGQ 162035Z AUTO 05008KT 10SM SCT060 29/18 A3003 RMK AO2  T02860183,,,,,,64.98,,NE,29.38,27.94,85.25,Partly Cloudy
KIGQ,09/16/2018 20:55 UTC,30.02,84.74,64.58,51.01,11.5,60.0,,,,,,602.0,,,,10.0,,KIGQ 162055Z AUTO 06010KT 10SM SCT060 29/18 A3002 RMK AO2  T02930181,,,,,,64.64,,ENE,29.37,27.94,86.35,Partly Cloudy
KIGQ,09/16/2018 21:15 UTC,30.01,84.38,64.94,52.25,9.22,50.0,,,,,,1.0,,,,10.0,,KIGQ 162115Z AUTO 05008KT 10SM CLR 29/18 A3001 RMK AO2  T02910183,,,,,,64.99,,NE,29.36,27.91,86.14,Clear
KIGQ,09/16/2018 21:35 UTC,30.02,84.2,64.22,51.25,10.36,40.0,,,,,,1.0,,,,10.0,,KIGQ 162135Z AUTO 04009KT 10SM CLR 29/18 A3002 RMK AO2  T02900179,,,,,,64.27,,NE,29.37,27.97,85.67,Clear
KIGQ,09/16/2018 21:55 UTC,30.01,83.3,63.86,52.1,9.22,60.0,,,,,,1.0,,,,10.0,,KIGQ 162155Z AUTO 06008KT 10SM CLR 29/18 A3001 RMK AO2  T02850177,,,,,,63.91,,ENE,29.36,27.99,84.66,Clear
KIGQ,09/16/2018 22:15 UTC,30.01,82.94,63.68,52.37,8.05,50.0,,,,,,1.0,,,,10.0,,KIGQ 162215Z AUTO 05007KT 10SM CLR 28/18 A3001 RMK AO2  T02830176,,,,,,63.72,,NE,29.36,28.01,84.26,Clear
KIGQ,09/16/2018 22:35 UTC,30.01,82.04,64.04,54.6,8.05,50.0,,,,,,1.0,,,,10.0,,KIGQ 162235Z AUTO 05007KT 10SM CLR 28/18 A3001 RMK AO2  T02780178,,,,,,64.07,,NE,29.36,27.99,83.54,Clear
KIGQ,09/16/2018 22:55 UTC,30.0,81.5,62.6,52.83,9.22,60.0,,,,,,1.0,,,,10.0,,KIGQ 162255Z AUTO 06008KT 10SM CLR 28/17 A3000 RMK AO2  T02750170,,,,,,62.63,,ENE,29.35,28.08,82.63,Clear
KIGQ,09/16/2018 23:15 UTC,30.0,80.42,62.96,55.41,6.91,50.0,,,,,,1.0,,,,10.0,,KIGQ 162315Z AUTO 05006KT 10SM CLR 27/17 A3000 RMK AO2  T02690172,,,,,,62.98,,NE,29.35,28.07,81.78,Clear
KIGQ,09/16/2018 23:35 UTC,30.0,79.34,62.6,56.68,8.05,40.0,,,,,,1.0,,,,10.0,,KIGQ 162335Z AUTO 04007KT 10SM CLR 26/17 A3000 RMK AO2  T02630170,,,,,,62.61,,NE,29.35,28.1,,Clear
KIGQ,09/16/2018 23:55 UTC,30.0,78.08,63.5,60.97,6.91,50.0,,,,,,1.0,,,,10.0,,KIGQ 162355Z AUTO 05006KT 10SM CLR 26/18 A3000 RMK AO2 T02560175  10310 20256,87.8,78.08,,,,63.5,,NE,29.35,28.06,,Clear
KIGQ,09/17/2018 00:15 UTC,30.0,76.46,63.5,64.32,5.75,50.0,,,,,,1.0,,,,10.0,,KIGQ 170015Z AUTO 05005KT 10SM CLR 25/18 A3000 RMK AO2  T02470175,,,,,,63.49,,NE,29.35,28.08,,Clear
KIGQ,09/17/2018 00:35 UTC,30.0,75.74,63.68,66.29,6.91,40.0,,,,,,1.0,,,,10.0,,KIGQ 170035Z AUTO 04006KT 10SM CLR 24/18 A3000 RMK AO2  T02430176,,,,,,63.67,,NE,29.35,28.07,,Clear
KIGQ,09/17/2018 00:55 UTC,30.0,75.02,64.04,68.75,6.91,60.0,,,,,,1.0,,,,10.0,,KIGQ 170055Z AUTO 06006KT 10SM CLR 24/18 A3000 RMK AO2  T02390178,,,,,,64.02,,ENE,29.35,28.06,,Clear
KIGQ,09/17/2018 01:15 UTC,30.01,74.66,64.04,69.58,6.91,80.0,,,,,,1.0,,,,10.0,,KIGQ 170115Z AUTO 08006KT 10SM CLR 24/18 A3001 RMK AO2  T02370178,,,,,,64.02,,E,29.36,28.08,,Clear
KIGQ,09/17/2018 01:35 UTC,30.01,74.66,64.04,69.58,6.91,80.0,,,,,,1.0,,,,10.0,,KIGQ 170135Z AUTO 08006KT 10SM CLR 24/18 A3001 RMK AO2  T02370178,,,,,,64.02,,E,29.36,28.08,,Clear
KIGQ,09/17/2018 01:55 UTC,30.01,73.58,63.86,71.69,6.91,90.0,,,,,,1.0,,,,10.0,,KIGQ 170155Z AUTO 09006KT 10SM CLR 23/18 A3001 RMK AO2  T02310177,,,,,,63.84,,E,29.36,28.1,,Clear
KIGQ,09/17/2018 02:15 UTC,30.01,71.96,64.04,76.19,4.61,90.0,,,,,,1.0,,,,10.0,,KIGQ 170215Z AUTO 09004KT 10SM CLR 22/18 A3001 RMK AO2  T02220178,,,,,,64.02,,E,29.36,28.11,,Clear
KIGQ,09/17/2018 02:35 UTC,30.01,71.78,64.04,76.65,5.75,110.0,,,,,,1.0,,,,10.0,,KIGQ 170235Z AUTO 11005KT 10SM CLR 22/18 A3001 RMK AO2  T02210178,,,,,,64.02,,ESE,29.36,28.11,,Clear
KIGQ,09/17/2018 02:55 UTC,30.01,71.96,64.4,77.15,4.61,120.0,,,,,,1.0,,,,10.0,,KIGQ 170255Z AUTO 12004KT 10SM CLR 22/18 A3001 RMK AO2  T02220180,,,,,,64.38,,ESE,29.36,28.09,,Clear
KIGQ,09/17/2018 03:15 UTC,30.01,72.32,64.4,76.22,3.44,110.0,,,,,,1.0,,,,10.0,,KIGQ 170315Z AUTO 11003KT 10SM CLR 22/18 A3001 RMK AO2  T02240180,,,,,,64.38,,ESE,29.36,28.08,,Clear
KIGQ,09/17/2018 03:35 UTC,30.01,72.68,64.4,75.3,3.44,110.0,,,,,,1.0,,,,10.0,,KIGQ 170335Z AUTO 11003KT 10SM CLR 23/18 A3001 RMK AO2  T02260180,,,,,,64.38,,ESE,29.36,28.08,,Clear
KIGQ,09/17/2018 03:55 UTC,30.01,71.6,64.4,78.09,4.61,120.0,,,,,,1.0,,,,10.0,,KIGQ 170355Z AUTO 12004KT 10SM CLR 22/18 A3001 RMK AO2  T02200180,,,,,,64.38,,ESE,29.36,28.09,,Clear
KIGQ,09/17/2018 04:15 UTC,30.0,71.06,64.58,80.03,4.61,120.0,,,,,,1.0,,,,10.0,,KIGQ 170415Z AUTO 12004KT 10SM CLR 22/18 A3000 RMK AO2  T02170181,,,,,,64.56,,ESE,29.35,28.08,,Clear
KIGQ,09/17/2018 04:35 UTC,30.0,71.06,64.76,80.54,3.44,120.0,,,,,,1.0,,,,10.0,,KIGQ 170435Z AUTO 12003KT 10SM CLR 22/18 A3000 RMK AO2  T02170182,,,,,,64.74,,ESE,29.35,28.06,,Clear
KIGQ,09/17/2018 04:55 UTC,29.99,71.78,64.76,78.6,0.0,0.0,,,,,,1.0,,,,10.0,,KIGQ 170455Z AUTO 00000KT 10SM CLR 22/18 A2999 RMK AO2  T02210182,,,,,,64.74,,N,29.34,28.05,,Clear
KIGQ,09/17/2018 05:15 UTC,29.99,71.42,64.58,79.06,4.61,120.0,,,,,,1.0,,,,10.0,,KIGQ 170515Z AUTO 12004KT 10SM CLR 22/18 A2999 RMK AO2  T02190181,,,,,,64.56,,ESE,29.34,28.06,,Clear
KIGQ,09/17/2018 05:35 UTC,29.99,69.8,64.4,83.01,4.61,120.0,,,,,,1.0,,,,10.0,,KIGQ 170535Z AUTO 12004KT 10SM CLR 21/18 A2999 RMK AO2  T02100180,,,,,,64.38,,ESE,29.34,28.09,,Clear
KIGQ,09/17/2018 05:55 UTC,29.99,70.52,64.4,81.0,4.61,120.0,,,,,,1.0,,,,10.0,,KIGQ 170555Z AUTO 12004KT 10SM CLR 21/18 A2999 RMK AO2 T02140180  10255 20210 403100186,77.9,69.8,,87.8,65.48,64.38,,ESE,29.34,28.08,,Clear
KIGQ,09/17/2018 06:15 UTC,29.98,70.16,64.58,82.52,3.44,120.0,,,,,,1.0,,,,10.0,,KIGQ 170615Z AUTO 12003KT 10SM CLR 21/18 A2998 RMK AO2  T02120181,,,,,,64.56,,ESE,29.33,28.07,,Clear
KIGQ,09/17/2018 06:35 UTC,29.98,70.7,64.4,80.51,4.61,130.0,,,,,,1.0,,,,10.0,,KIGQ 170635Z AUTO 13004KT 10SM CLR 22/18 A2998 RMK AO2  T02150180,,,,,,64.38,,SE,29.33,28.07,,Clear
KIGQ,09/17/2018 06:55 UTC,29.98,70.7,64.76,81.53,3.44,130.0,,,,,,1.0,,,,10.0,,KIGQ 170655Z AUTO 13003KT 10SM CLR 22/18 A2998 RMK AO2  T02150182,,,,,,64.74,,SE,29.33,28.05,,Clear
KIGQ,09/17/2018 07:15 UTC,29.97,69.62,64.76,84.58,0.0,0.0,,,,,,1.0,,,,10.0,,KIGQ 170715Z AUTO 00000KT 10SM CLR 21/18 A2997 RMK AO2  T02090182,,,,,,64.74,,N,29.32,28.05,,Clear
KIGQ,09/17/2018 07:35 UTC,29.97,68.9,64.58,86.14,0.0,0.0,,,,,,1.0,,,,10.0,,KIGQ 170735Z AUTO 00000KT 10SM CLR 21/18 A2997 RMK AO2  T02050181,,,,,,64.56,,N,29.32,28.07,,Clear
KIGQ,09/17/2018 07:55 UTC,29.96,68.54,64.4,86.67,0.0,0.0,,,,,,1.0,,,,10.0,,KIGQ 170755Z AUTO 00000KT 10SM CLR 20/18 A2996 RMK AO2  T02030180,,,,,,64.38,,N,29.31,28.08,,Clear
KIGQ,09/17/2018 08:15 UTC,29.97,68.72,64.58,86.68,0.0,0.0,,,,,,1.0,,,,10.0,,KIGQ 170815Z AUTO 00000KT 10SM CLR 20/18 A2997 RMK AO2  T02040181,,,,,,64.56,,N,29.32,28.08,,Clear
KIGQ,09/17/2018 08:35 UTC,29.96,66.74,62.96,87.67,0.0,0.0,,,,,,1.0,,,,10.0,,KIGQ 170835Z AUTO 00000KT 10SM CLR 19/17 A2996 RMK AO2  T01930172,,,,,,62.94,,N,29.31,28.19,,Clear
KIGQ,09/17/2018 08:55 UTC,29.96,65.66,63.32,92.17,0.0,0.0,,,,,,1.0,,,,10.0,,KIGQ 170855Z AUTO 00000KT 10SM CLR 19/17 A2996 RMK AO2  T01870174,,,,,,63.31,,N,29.31,28.18,,Clear
KIGQ,09/17/2018 09:15 UTC,29.96,66.2,64.04,92.76,0.0,0.0,,,,,,652.0,,,,10.0,,KIGQ 170915Z AUTO 00000KT 10SM SCT065 19/18 A2996 RMK AO2  T01900178,,,,,,64.03,,N,29.31,28.13,,Partly Cloudy
KIGQ,09/17/2018 09:35 UTC,29.96,64.94,62.78,92.73,0.0,0.0,,,,,,652.0,,,,10.0,,KIGQ 170935Z AUTO 00000KT 10SM SCT065 18/17 A2996 RMK AO2  T01830171,,,,,,62.77,,N,29.31,28.22,,Partly Cloudy
KIGQ,09/17/2018 09:55 UTC,29.96,64.4,63.5,96.9,0.0,0.0,,,,,,652.0,,,,10.0,,KIGQ 170955Z AUTO 00000KT 10SM SCT065 18/18 A2996 RMK AO2  T01800175,,,,,,63.49,,N,29.31,28.19,,Partly Cloudy
KIGQ,09/17/2018 10:15 UTC,29.96,65.3,64.76,98.14,0.0,0.0,,,,,,1.0,,,,10.0,,KIGQ 171015Z AUTO 00000KT 10SM CLR 19/18 A2996 RMK AO2  T01850182,,,,,,64.76,,N,29.31,28.1,,Clear
KIGQ,09/17/2018 10:35 UTC,29.96,64.04,63.32,97.51,0.0,0.0,,,,,,1.0,,,,10.0,,KIGQ 171035Z AUTO 00000KT 10SM CLR 18/17 A2996 RMK AO2  T01780174,,,,,,63.31,,N,29.31,28.2,,Clear
KIGQ,09/17/2018 10:55 UTC,29.96,64.58,64.22,98.75,0.0,0.0,,,,,,1.0,,,,10.0,,KIGQ 171055Z AUTO 00000KT 10SM CLR 18/18 A2996 RMK AO2  T01810179,,,,,,64.22,,N,29.31,28.14,,Clear
KIGQ,09/17/2018 11:15 UTC,29.96,65.66,65.12,98.14,0.0,0.0,,,,,,1.0,,,,10.0,,KIGQ 171115Z AUTO 00000KT 10SM CLR 19/18 A2996 RMK AO2  T01870184,,,,,,65.12,,N,29.31,28.07,,Clear
KIGQ,09/17/2018 11:35 UTC,29.97,64.58,63.86,97.52,0.0,0.0,,,,,,1.0,,,,10.0,,KIGQ 171135Z AUTO 00000KT 10SM CLR 18/18 A2997 RMK AO2  T01810177,,,,,,63.86,,N,29.32,28.17,,Clear
KIGQ,09/17/2018 11:55 UTC,29.97,64.4,63.86,98.13,0.0,0.0,,,,,,1.0,,,,10.0,,KIGQ 171155Z AUTO 00000KT 10SM CLR 18/18 A2997 RMK AO2 T01800177  10216 20175,70.88,63.5,,,,63.86,,N,29.32,28.18,,Clear
KIGQ,09/17/2018 12:15 UTC,29.97,62.96,62.06,96.88,0.0,0.0,,,,,,1.0,,,,10.0,,KIGQ 171215Z AUTO 00000KT 10SM CLR 17/17 A2997 RMK AO2  T01720167,,,,,,62.05,,N,29.32,28.3,,Clear
KIGQ,09/17/2018 12:35 UTC,29.97,64.4,63.86,98.13,0.0,0.0,,,,,,1.0,,,,10.0,,KIGQ 171235Z AUTO 00000KT 10SM CLR 18/18 A2997 RMK AO2  T01800177,,,,,,63.86,,N,29.32,28.18,,Clear
KIGQ,09/17/2018 12:55 UTC,29.97,66.38,65.66,97.54,0.0,0.0,,,,,,752.0,,,,10.0,,KIGQ 171255Z AUTO 00000KT 10SM SCT075 19/19 A2997 RMK AO2  T01910187,,,,,,65.66,,N,29.32,28.04,,Partly Cloudy
KIGQ,09/17/2018 13:15 UTC,29.97,68.9,66.56,92.27,0.0,0.0,,,,,,754.0,,,,10.0,,KIGQ 171315Z AUTO 00000KT 10SM OVC075 21/19 A2997 RMK AO2  T02050192,,,7500.0,,,66.55,,N,29.32,27.95,,Overcast
KIGQ,09/17/2018 13:35 UTC,29.97,69.26,66.74,91.71,0.0,0.0,,,,,,753.0,853.0,,,10.0,,KIGQ 171335Z AUTO 00000KT 10SM BKN075 BKN085 21/19 A2997 RMK AO2  T02070193,,,7500.0,,,66.73,,N,29.32,27.93,,Mostly Cloudy
KIGQ,09/17/2018 13:55 UTC,29.97,71.96,66.92,84.2,0.0,0.0,,,,,,753.0,853.0,,,10.0,,KIGQ 171355Z AUTO 00000KT 10SM BKN075 BKN085 22/19 A2997 RMK AO2  T02220194,,,7500.0,,,66.91,,N,29.32,27.88,,Mostly Cloudy
KIGQ,09/17/2018 14:15 UTC,29.97,75.38,67.1,75.55,0.0,0.0,,,,,,752.0,852.0,,,10.0,,KIGQ 171415Z AUTO 00000KT 10SM SCT075 SCT085 24/20 A2997 RMK AO2  T02410195,,,,,,67.09,,N,29.32,27.82,,Partly Cloudy
KIGQ,09/17/2018 14:35 UTC,29.97,76.82,67.28,72.47,0.0,0.0,,,,,,1.0,,,,10.0,,KIGQ 171435Z AUTO 00000KT 10SM CLR 25/20 A2997 RMK AO2  T02490196,,,,,,67.28,,N,29.32,27.79,,Clear
KIGQ,09/17/2018 14:55 UTC,29.97,79.16,67.82,68.36,0.0,0.0,,,,,,1.0,,,,10.0,,KIGQ 171455Z AUTO 00000KT 10SM CLR 26/20 A2997 RMK AO2  T02620199,,,,,,67.83,,N,29.32,27.73,,Clear
KIGQ,09/17/2018 15:15 UTC,29.97,81.68,67.82,62.97,3.44,280.0,,,,,,1.0,,,,10.0,,KIGQ 171515Z AUTO 28003KT 10SM CLR 28/20 A2997 RMK AO2  T02760199,,,,,,67.84,,W,29.32,27.7,84.5,Clear
KIGQ,09/17/2018 15:35 UTC,29.96,82.76,67.64,60.43,0.0,0.0,,,,,,1.0,,,,10.0,,KIGQ 171535Z AUTO 00000KT 10SM CLR 28/20 A2996 RMK AO2  T02820198,,,,,,67.67,,N,29.31,27.69,85.64,Clear
KIGQ,09/17/2018 15:55 UTC,29.96,84.2,68.0,58.42,0.0,0.0,,,,,,1.0,,,,10.0,,KIGQ 171555Z AUTO 00000KT 10SM CLR 29/20 A2996 RMK AO2  T02900200,,,,,,68.05,,N,29.31,27.64,87.43,Clear
KIGQ,09/17/2018 16:15 UTC,29.96,85.1,66.92,54.69,4.61,260.0,,,,,,702.0,,,,10.0,,KIGQ 171615Z AUTO 26004KT 10SM SCT070 30/19 A2996 RMK AO2  T02950194,,,,,,66.98,,W,29.31,27.71,87.84,Partly Cloudy
KIGQ,09/17/2018 16:35 UTC,29.95,86.0,64.76,49.31,0.0,0.0,,,,,,702.0,,,,10.0,,KIGQ 171635Z AUTO 00000KT 10SM SCT070 30/18 A2995 RMK AO2  T03000182,,,,,,64.84,,N,29.3,27.84,87.69,Partly Cloudy
KIGQ,09/17/2018 16:55 UTC,29.95,86.72,65.12,48.8,4.61,210.0,,,,,,1.0,,,,10.0,,KIGQ 171655Z AUTO 21004KT 10SM CLR 30/18 A2995 RMK AO2  T03040184,,,,,,65.2,,SSW,29.3,27.81,88.61,Clear
KIGQ,09/17/2018 17:15 UTC,29.94,86.9,63.68,46.15,0.0,0.0,,,,,,1.0,,,,10.0,,KIGQ 171715Z AUTO 00000KT 10SM CLR 31/18 A2994 RMK AO2  T03050176,,,,,,63.77,,N,29.29,27.89,88.1,Clear
KIGQ,09/17/2018 17:35 UTC,29.94,87.8,64.94,46.87,3.44,240.0,,,,,,1.0,,,,10.0,,KIGQ 171735Z AUTO 24003KT 10SM CLR 31/18 A2994 RMK AO2  T03100183,,,,,,65.04,,WSW,29.29,27.8,89.65,Clear
KIGQ,09/17/2018 17:55 UTC,29.93,87.98,64.58,46.02,4.61,280.0,,,,,,1.0,,,,10.0,,KIGQ 171755Z AUTO 28004KT 10SM CLR 31/18 A2993 RMK AO2 T03110181  10311 20172,87.98,62.96,,,,64.68,,W,29.28,27.81,89.65,Clear
KIGQ,09/17/2018 18:15 UTC,29.92,88.7,64.76,45.27,5.75,260.0,,,,,,1.0,,,,10.0,,KIGQ 171815Z AUTO 26005KT 10SM CLR 32/18 A2992 RMK AO2  T03150182,,,,,,64.87,,W,29.27,27.78,90.5,Clear
KIGQ,09/17/2018 18:35 UTC,29.91,89.42,65.3,45.1,5.75,240.0,,,,,,1.0,,,,10.0,,KIGQ 171835Z AUTO 24005KT 10SM CLR 32/19 A2991 RMK AO2  T03190185,,,,,,65.42,,WSW,29.26,27.73,91.58,Clear
KIGQ,09/17/2018 18:55 UTC,29.91,89.78,65.48,44.87,5.75,280.0,,,,,,602.0,802.0,,,10.0,,KIGQ 171855Z AUTO 28005KT 10SM SCT060 SCT080 32/19 A2991 RMK AO2  T03210186,,,,,,65.61,,W,29.26,27.71,92.08,Partly Cloudy
KIGQ,09/17/2018 19:15 UTC,29.9,89.78,64.22,42.94,0.0,0.0,,,,,,602.0,802.0,,,10.0,,KIGQ 171915Z AUTO 00000KT 10SM SCT060 SCT080 32/18 A2990 RMK AO2  T03210179,,,,,,64.35,,N,29.25,27.79,91.37,Partly Cloudy
KIGQ,09/17/2018 19:35 UTC,29.89,89.96,64.58,43.24,5.75,250.0,,,,,,1.0,,,,10.0,,KIGQ 171935Z AUTO 25005KT 10SM CLR 32/18 A2989 RMK AO2  T03220181,,,,,,64.71,,WSW,29.24,27.75,91.76,Clear
KIGQ,09/17/2018 19:55 UTC,29.89,87.26,63.5,45.34,6.91,40.0,,,802.0,,,602.0,752.0,,,10.0,,KIGQ 171955Z AUTO 04006KT 10SM SCT060 SCT075 SCT080 31/18 A2989 RMK AO2 T03070175,,,,,,63.6,,NE,29.24,27.85,88.38,Partly Cloudy
KIGQ,09/17/2018 20:15 UTC,29.88,87.8,64.58,46.28,8.05,40.0,,,,,,602.0,703.0,,,10.0,,KIGQ 172015Z AUTO 04007KT 10SM SCT060 BKN070 31/18 A2988 RMK AO2  T03100181,,,7000.0,,,64.68,,NE,29.23,27.76,89.46,Mostly Cloudy
KIGQ,09/17/2018 20:35 UTC,29.88,87.98,65.12,46.89,8.05,60.0,,,,,,1.0,,,,10.0,,KIGQ 172035Z AUTO 06007KT 10SM CLR 31/18 A2988 RMK AO2  T03110184,,,,,,65.22,,ENE,29.23,27.73,89.93,Clear
KIGQ,09/17/2018 20:55 UTC,29.88,87.62,64.76,46.84,9.22,40.0,,,,,,1.0,,,,10.0,,KIGQ 172055Z AUTO 04008KT 10SM CLR 31/18 A2988 RMK AO2  T03090182,,,,,,64.86,,NE,29.23,27.75,89.37,Clear
KIGQ,09/17/2018 21:15 UTC,29.89,86.9,64.22,47.02,5.75,40.0,,,,,,1.0,,,,10.0,,KIGQ 172115Z AUTO 04005KT 10SM CLR 31/18 A2989 RMK AO2  T03050179,,,,,,64.31,,NE,29.24,27.81,88.35,Clear
KIGQ,09/17/2018 21:35 UTC,29.89,86.18,63.68,47.21,8.05,50.0,,,,,,652.0,,,,10.0,,KIGQ 172135Z AUTO 05007KT 10SM SCT065 30/18 A2989 RMK AO2  T03010176,,,,,,63.76,,NE,29.24,27.85,87.38,Partly Cloudy
KIGQ,09/17/2018 21:55 UTC,29.89,85.1,62.96,47.65,8.05,50.0,,,,,,652.0,,,,10.0,,KIGQ 172155Z AUTO 05007KT 10SM SCT065 30/17 A2989 RMK AO2  T02950172,,,,,,63.03,,NE,29.24,27.91,86.03,Partly Cloudy
KIGQ,09/17/2018 22:15 UTC,29.89,84.56,63.14,48.79,9.22,60.0,,,,,,1.0,,,,10.0,,KIGQ 172215Z AUTO 06008KT 10SM CLR 29/17 A2989 RMK AO2  T02920173,,,,,,63.2,,ENE,29.24,27.9,85.59,Clear
KIGQ,09/17/2018 22:35 UTC,29.89,83.3,62.78,50.16,6.91,50.0,,,,,,1.0,,,,10.0,,KIGQ 172235Z AUTO 05006KT 10SM CLR 29/17 A2989 RMK AO2  T02850171,,,,,,62.83,,NE,29.24,27.94,84.29,Clear
KIGQ,09/17/2018 22:55 UTC,29.89,83.12,62.42,49.82,5.75,50.0,,,,,,1.0,,,,10.0,,KIGQ 172255Z AUTO 05005KT 10SM CLR 28/17 A2989 RMK AO2  T02840169,,,,,,62.47,,NE,29.24,27.96,84.01,Clear
KIGQ,09/17/2018 23:15 UTC,29.89,81.86,62.78,52.55,5.75,60.0,,,,,,1.0,,,,10.0,,KIGQ 172315Z AUTO 06005KT 10SM CLR 28/17 A2989 RMK AO2  T02770171,,,,,,62.81,,ENE,29.24,27.95,83.0,Clear
KIGQ,09/17/2018 23:35 UTC,29.89,81.14,63.14,54.47,4.61,60.0,,,,,,1.0,,,,10.0,,KIGQ 172335Z AUTO 06004KT 10SM CLR 27/17 A2989 RMK AO2  T02730173,,,,,,63.16,,ENE,29.24,27.94,82.46,Clear
KIGQ,09/17/2018 23:55 UTC,29.9,80.6,62.78,54.74,4.61,60.0,,,,,,1.0,,,,10.0,,KIGQ 172355Z AUTO 06004KT 10SM CLR 27/17 A2990 RMK AO2 T02700171  10323 20268,90.14,80.24,,,,62.8,,ENE,29.25,27.98,81.89,Clear
KIGQ,09/18/2018 00:15 UTC,29.9,79.16,62.78,57.38,3.44,80.0,,,,,,1.0,,,,10.0,,KIGQ 180015Z AUTO 08003KT 10SM CLR 26/17 A2990 RMK AO2  T02620171,,,,,,62.79,,E,29.25,27.99,,Clear
KIGQ,09/18/2018 00:35 UTC,29.9,78.62,62.96,58.77,3.44,80.0,,,,,,1.0,,,,10.0,,KIGQ 180035Z AUTO 08003KT 10SM CLR 26/17 A2990 RMK AO2  T02590172,,,,,,62.96,,E,29.25,27.99,,Clear
KIGQ,09/18/2018 00:55 UTC,29.9,77.9,62.96,60.18,0.0,0.0,,,,,,1.0,,,,10.0,,KIGQ 180055Z AUTO 00000KT 10SM CLR 26/17 A2990 RMK AO2  T02550172,,,,,,62.96,,N,29.25,27.99,,Clear
KIGQ,09/18/2018 01:15 UTC,29.91,77.0,63.5,63.18,0.0,0.0,,,,,,1.0,,,,10.0,,KIGQ 180115Z AUTO 00000KT 10SM CLR 25/18 A2991 RMK AO2  T02500175,,,,,,63.5,,N,29.26,27.98,,Clear
KIGQ,09/18/2018 01:35 UTC,29.92,76.64,62.96,62.73,0.0,0.0,,,,,,1.0,,,,10.0,,KIGQ 180135Z AUTO 00000KT 10SM CLR 25/17 A2992 RMK AO2  T02480172,,,,,,62.95,,N,29.27,28.03,,Clear
KIGQ,09/18/2018 01:55 UTC,29.92,72.14,64.4,76.68,0.0,0.0,,,,,,1.0,,,,10.0,,KIGQ 180155Z AUTO 00000KT 10SM CLR 22/18 A2992 RMK AO2  T02230180,,,,,,64.38,,N,29.27,27.99,,Clear
KIGQ,09/18/2018 02:15 UTC,29.93,70.7,64.4,80.51,0.0,0.0,,,,,,1.0,,,,10.0,,KIGQ 180215Z AUTO 00000KT 10SM CLR 22/18 A2993 RMK AO2  T02150180,,,,,,64.38,,N,29.28,28.02,,Clear
KIGQ,09/18/2018 02:35 UTC,29.93,69.44,64.22,83.51,0.0,0.0,,,,,,1.0,,,,10.0,,KIGQ 180235Z AUTO 00000KT 10SM CLR 21/18 A2993 RMK AO2  T02080179,,,,,,64.2,,N,29.28,28.05,,Clear
KIGQ,09/18/2018 02:55 UTC,29.93,68.9,64.22,85.07,0.0,0.0,,,,,,1.0,,,,10.0,,KIGQ 180255Z AUTO 00000KT 10SM CLR 21/18 A2993 RMK AO2  T02050179,,,,,,64.2,,N,29.28,28.05,,Clear
KIGQ,09/18/2018 03:15 UTC,29.93,68.9,64.22,85.07,0.0,0.0,,,,,,1.0,,,,10.0,,KIGQ 180315Z AUTO 00000KT 10SM CLR 21/18 A2993 RMK AO2  T02050179,,,,,,64.2,,N,29.28,28.05,,Clear
KIGQ,09/18/2018 03:35 UTC,29.93,68.9,64.4,85.6,0.0,0.0,,,,,,1.0,,,,10.0,,KIGQ 180335Z AUTO 00000KT 10SM CLR 21/18 A2993 RMK AO2  T02050180,,,,,,64.38,,N,29.28,28.04,,Clear
KIGQ,09/18/2018 03:55 UTC,29.94,68.18,64.22,87.19,0.0,0.0,,,,,,1.0,,,,10.0,,KIGQ 180355Z AUTO 00000KT 10SM CLR 20/18 A2994 RMK AO2  T02010179,,,,,,64.2,,N,29.29,28.07,,Clear
KIGQ,09/18/2018 04:15 UTC,29.94,67.1,63.86,89.36,0.0,0.0,,,,,,1.0,,,,10.0,,KIGQ 180415Z AUTO 00000KT 10SM CLR 20/18 A2994 RMK AO2  T01950177,,,,,,63.84,,N,29.29,28.11,,Clear
KIGQ,09/18/2018 04:35 UTC,29.94,67.28,64.4,90.5,0.0,0.0,,,,,,1.0,,,,10.0,,KIGQ 180435Z AUTO 00000KT 10SM CLR 20/18 A2994 RMK AO2  T01960180,,,,,,64.39,,N,29.29,28.08,,Clear
KIGQ,09/18/2018 04:55 UTC,29.94,67.1,64.4,91.06,0.0,0.0,,,,,,1.0,,,,10.0,,KIGQ 180455Z AUTO 00000KT 10SM CLR 20/18 A2994 RMK AO2  T01950180,,,,,,64.39,,N,29.29,28.08,,Clear
KIGQ,09/18/2018 05:15 UTC,29.94,67.46,64.94,91.65,0.0,0.0,,,,,,1.0,,,,10.0,,KIGQ 180515Z AUTO 00000KT 10SM CLR 20/18 A2994 RMK AO2  T01970183,,,,,,64.93,,N,29.29,28.04,,Clear
KIGQ,09/18/2018 05:35 UTC,29.94,67.28,65.12,92.8,0.0,0.0,,,,,,1.0,,,,10.0,,KIGQ 180535Z AUTO 00000KT 10SM CLR 20/18 A2994 RMK AO2  T01960184,,,,,,65.11,,N,29.29,28.03,,Clear
KIGQ,09/18/2018 05:55 UTC,29.94,68.18,64.76,88.85,0.0,0.0,,,,,,1.0,,,,10.0,,KIGQ 180555Z AUTO 00000KT 10SM CLR 20/18 A2994 RMK AO2 T02010182  10270 20192 403230172,80.6,66.56,,90.14,62.96,64.75,,N,29.29,28.04,,Clear
KIGQ,09/18/2018 06:15 UTC,29.94,68.0,64.04,87.18,0.0,0.0,,,,,,1.0,,,,10.0,,KIGQ 180615Z AUTO 00000KT 10SM CLR 20/18 A2994 RMK AO2  T02000178,,,,,,64.02,,N,29.29,28.09,,Clear
KIGQ,09/18/2018 06:35 UTC,29.93,67.46,64.04,88.82,0.0,0.0,,,,,,1.0,,,,10.0,,KIGQ 180635Z AUTO 00000KT 10SM CLR 20/18 A2993 RMK AO2  T01970178,,,,,,64.02,,N,29.28,28.08,,Clear
KIGQ,09/18/2018 06:55 UTC,29.93,65.84,63.5,92.17,0.0,0.0,,,,,,1.0,,,,10.0,,KIGQ 180655Z AUTO 00000KT 10SM CLR 19/18 A2993 RMK AO2  T01880175,,,,,,63.49,,N,29.28,28.14,,Clear
KIGQ,09/18/2018 07:15 UTC,29.93,65.48,63.14,92.16,0.0,0.0,,,,,,1.0,,,,10.0,,KIGQ 180715Z AUTO 00000KT 10SM CLR 19/17 A2993 RMK AO2  T01860173,,,,,,63.13,,N,29.28,28.16,,Clear
KIGQ,09/18/2018 07:35 UTC,29.92,65.48,63.14,92.16,0.0,0.0,,,,,,1.0,,,,10.0,,KIGQ 180735Z AUTO 00000KT 10SM CLR 19/17 A2992 RMK AO2  T01860173,,,,,,63.13,,N,29.27,28.15,,Clear
KIGQ,09/18/2018 07:55 UTC,29.93,65.3,63.14,92.74,0.0,0.0,,,,,,1.0,,,,10.0,,KIGQ 180755Z AUTO 00000KT 10SM CLR 19/17 A2993 RMK AO2  T01850173,,,,,,63.13,,N,29.28,28.17,,Clear
KIGQ,09/18/2018 08:15 UTC,29.93,64.94,62.78,92.73,0.0,0.0,,,,,,1.0,,,,10.0,,KIGQ 180815Z AUTO 00000KT 10SM CLR 18/17 A2993 RMK AO2  T01830171,,,,,,62.77,,N,29.28,28.19,,Clear
KIGQ,09/18/2018 08:35 UTC,29.93,65.12,63.32,93.91,0.0,0.0,,,,,,1.0,,,,10.0,,KIGQ 180835Z AUTO 00000KT 10SM CLR 18/17 A2993 RMK AO2  T01840174,,,,,,63.31,,N,29.28,28.16,,Clear
KIGQ,09/18/2018 08:55 UTC,29.93,64.22,62.42,93.89,0.0,0.0,,,,,,1.0,,,,10.0,,KIGQ 180855Z AUTO 00000KT 10SM CLR 18/17 A2993 RMK AO2  T01790169,,,,,,62.41,,N,29.28,28.22,,Clear
KIGQ,09/18/2018 09:15 UTC,29.93,67.1,63.68,88.8,0.0,0.0,,,,,,1.0,,,,10.0,,KIGQ 180915Z AUTO 00000KT 10SM CLR 20/18 A2993 RMK AO2  T01950176,,,,,,63.66,,N,29.28,28.11,,Clear
KIGQ,09/18/2018 09:35 UTC,29.94,64.58,61.16,88.68,0.0,0.0,,,,,,1.0,,,,10.0,,KIGQ 180935Z AUTO 00000KT 10SM CLR 18/16 A2994 RMK AO2  T01810162,,,,,,61.14,,N,29.29,28.3,,Clear
KIGQ,09/18/2018 09:55 UTC,29.94,64.22,61.52,90.96,0.0,0.0,,,,,,1.0,,,,10.0,,KIGQ 180955Z AUTO 00000KT 10SM CLR 18/16 A2994 RMK AO2  T01790164,,,,,,61.5,,N,29.29,28.28,,Clear
KIGQ,09/18/2018 10:15 UTC,29.94,64.4,61.7,90.96,4.61,10.0,,,,,,1.0,,,,10.0,,KIGQ 181015Z AUTO 01004KT 10SM CLR 18/17 A2994 RMK AO2  T01800165,,,,,,61.68,,N,29.29,28.27,,Clear
KIGQ,09/18/2018 10:35 UTC,29.94,66.74,64.04,91.05,3.44,10.0,,,,,,1.0,,,,10.0,,KIGQ 181035Z AUTO 01003KT 10SM CLR 19/18 A2994 RMK AO2  T01930178,,,,,,64.03,,N,29.29,28.1,,Clear
KIGQ,09/18/2018 10:55 UTC,29.95,67.82,63.68,86.63,0.0,0.0,,,,,,1.0,,,,10.0,,KIGQ 181055Z AUTO 00000KT 10SM CLR 20/18 A2995 RMK AO2  T01990176,,,,,,63.66,,N,29.3,28.12,,Clear
KIGQ,09/18/2018 11:15 UTC,29.96,68.9,65.66,89.44,5.75,30.0,,,,,,1.0,,,,10.0,,KIGQ 181115Z AUTO 03005KT 10SM CLR 21/19 A2996 RMK AO2  T02050187,,,,,,65.65,,NNE,29.31,28.0,,Clear
KIGQ,09/18/2018 11:35 UTC,29.96,69.44,67.64,94.02,0.0,0.0,,,,,,1.0,,,,10.0,,KIGQ 181135Z AUTO 00000KT 10SM CLR 21/20 A2996 RMK AO2  T02080198,,,,,,67.63,,N,29.31,27.86,,Clear
KIGQ,09/18/2018 11:55 UTC,29.96,69.08,67.82,95.77,3.44,40.0,,,,,,52.0,,,,10.0,,KIGQ 181155Z AUTO 04003KT 10SM SCT005 21/20 A2996 RMK AO2 LTG DSNT  NW T02060199 10208 20177,69.44,63.86,,,,67.81,,NE,29.31,27.85,,Partly Cloudy
KIGQ,09/18/2018 12:15 UTC,29.96,69.44,68.18,95.78,0.0,0.0,,,,,,53.0,,,,10.0,,KIGQ 181215Z AUTO 00000KT 10SM BKN005 21/20 A2996 RMK AO2 LTG DSNT  W T02080201,,,500.0,,,68.18,,N,29.31,27.82,,Mostly Cloudy
KIGQ,09/18/2018 12:35 UTC,29.96,69.8,68.0,94.03,4.61,40.0,,,,,,53.0,,,,7.0,,KIGQ 181235Z AUTO 04004KT 7SM BKN005 21/20 A2996 RMK AO2  T02100200,,,500.0,,,67.99,,NE,29.31,27.83,,Mostly Cloudy
KIGQ,09/18/2018 12:55 UTC,29.96,69.98,68.0,93.45,5.75,60.0,,31.0,,,,54.0,,,,5.0,,KIGQ 181255Z AUTO 06005KT 5SM BR OVC005 21/20 A2996 RMK AO2  T02110200,,,500.0,,,67.99,,ENE,29.31,27.83,,Mist
KIGQ,09/18/2018 13:15 UTC,29.97,70.7,68.18,91.76,3.44,50.0,,31.0,,,,54.0,,,,5.0,,KIGQ 181315Z AUTO 05003KT 5SM BR OVC005 22/20 A2997 RMK AO2  T02150201,,,500.0,,,68.17,,NE,29.32,27.81,,Mist
KIGQ,09/18/2018 13:35 UTC,29.98,71.06,68.0,90.09,8.05,30.0,,,,,,74.0,,,,7.0,,KIGQ 181335Z AUTO 03007KT 360V060 7SM OVC007 22/20 A2998 RMK AO2  LTG DSNT W AND NW T02170200,,,700.0,,,67.99,,NNE,29.33,27.83,,Overcast
KIGQ,09/18/2018 13:55 UTC,29.99,70.7,67.1,88.41,12.66,20.0,17.27,,,,,74.0,,,,10.0,,KIGQ 181355Z AUTO 02011G15KT 10SM OVC007 22/20 A2999 RMK AO2  T02150195,,,700.0,,,67.09,,NNE,29.34,27.91,,Overcast
KIGQ,09/18/2018 14:15 UTC,29.99,70.34,65.84,85.69,9.22,360.0,,,,,,114.0,,,,10.0,,KIGQ 181415Z AUTO 36008KT 330V040 10SM OVC011 21/19 A2999 RMK AO2  T02130188,,,1100.0,,,65.83,,N,29.34,28.0,,Overcast
KIGQ,09/18/2018 14:35 UTC,30.0,69.44,65.12,86.17,8.05,350.0,,,,,,114.0,,,,10.0,,KIGQ 181435Z AUTO 35007KT 330V040 10SM OVC011 21/18 A3000 RMK AO2  T02080184,,,1100.0,,,65.1,,N,29.35,28.06,,Overcast
KIGQ,09/18/2018 14:55 UTC,29.99,70.34,64.94,83.05,8.05,10.0,,,,,,114.0,,,,10.0,,KIGQ 181455Z AUTO 01007KT 10SM OVC011 21/18 A2999 RMK AO2  T02130183,,,1100.0,,,64.92,,N,29.34,28.05,,Overcast
KIGQ,09/18/2018 15:15 UTC,29.99,70.16,64.58,82.52,6.91,360.0,,,,,,134.0,,,,10.0,,KIGQ 181515Z AUTO 36006KT 10SM OVC013 21/18 A2999 RMK AO2  T02120181,,,1300.0,,,64.56,,N,29.34,28.08,,Overcast
KIGQ,09/18/2018 15:35 UTC,29.98,73.04,64.94,75.81,0.0,0.0,,,,,,132.0,,,,10.0,,KIGQ 181535Z AUTO 00000KT 10SM SCT013 23/18 A2998 RMK AO2  T02280183,,,,,,64.92,,N,29.33,28.01,,Partly Cloudy
KIGQ,09/18/2018 15:55 UTC,29.98,74.3,64.94,72.67,4.61,340.0,,,,,,1.0,,,,10.0,,KIGQ 181555Z AUTO 34004KT 10SM CLR 24/18 A2998 RMK AO2  T02350183,,,,,,64.92,,NNW,29.33,27.99,,Clear
KIGQ,09/18/2018 16:15 UTC,29.98,76.46,65.3,68.48,4.61,360.0,,,,,,1.0,,,,10.0,,KIGQ 181615Z AUTO 36004KT 10SM CLR 25/19 A2998 RMK AO2  T02470185,,,,,,65.29,,N,29.33,27.94,,Clear
KIGQ,09/18/2018 16:35 UTC,29.97,78.8,64.22,61.06,6.91,30.0,,,,,,1.0,,,,10.0,,KIGQ 181635Z AUTO 03006KT 10SM CLR 26/18 A2997 RMK AO2  T02600179,,,,,,64.23,,NNE,29.32,27.98,,Clear
KIGQ,09/18/2018 16:55 UTC,29.96,78.98,64.58,61.47,3.44,40.0,,,,,,1.0,,,,10.0,,KIGQ 181655Z AUTO 04003KT 10SM CLR 26/18 A2996 RMK AO2  T02610181,,,,,,64.59,,NE,29.31,27.94,,Clear
KIGQ,09/18/2018 17:15 UTC,29.97,78.8,63.68,59.92,3.44,340.0,,,,,,653.0,,,,10.0,,KIGQ 181715Z AUTO 34003KT 10SM BKN065 26/18 A2997 RMK AO2  T02600176,,,6500.0,,,63.69,,NNW,29.32,28.01,,Mostly Cloudy
KIGQ,09/18/2018 17:35 UTC,29.97,79.88,63.5,57.47,5.75,50.0,,,,,,652.0,903.0,,,10.0,,KIGQ 181735Z AUTO 05005KT 10SM SCT065 BKN090 27/18 A2997 RMK AO2  T02660175,,,9000.0,,,63.51,,NE,29.32,28.01,,Mostly Cloudy
KIGQ,09/18/2018 17:55 UTC,29.97,81.5,64.4,56.27,6.91,30.0,,,,,,653.0,803.0,,,10.0,,KIGQ 181755Z AUTO 03006KT 10SM BKN065 BKN080 28/18 A2997 RMK AO2  T02750180 10276 20206,81.68,69.08,6500.0,,,64.43,,NNE,29.32,27.93,83.14,Mostly Cloudy
KIGQ,09/18/2018 18:15 UTC,29.98,78.26,64.04,61.76,10.36,10.0,,,,,,652.0,1003.0,,,,,KIGQ 181815Z AUTO 01009KT SCT065 BKN100 26/18 A2998 RMK AO2  T02570178 PWINO,,,10000.0,,,64.04,,N,29.33,28.0,,Mostly Cloudy
KIGQ,09/18/2018 18:35 UTC,29.98,75.74,64.04,67.13,11.5,10.0,,,,,,902.0,,,,10.0,,KIGQ 181835Z AUTO 01010KT 10SM SCT090 24/18 A2998 RMK AO2  T02430178,,,,,,64.03,,N,29.33,28.03,,Partly Cloudy
KIGQ,09/18/2018 19:15 UTC,29.99,74.66,64.76,71.35,12.66,10.0,20.71,,,,,1.0,,,,,,KIGQ 181915Z AUTO 01011G18KT CLR 24/18 A2999 RMK AO2 T02370182,,,,,,64.74,,N,29.34,28.01,,Clear
KIGQ,09/18/2018 19:35 UTC,29.99,72.68,63.86,73.89,12.66,20.0,23.02,,,,,202.0,,,,,,KIGQ 181935Z AUTO 02011G20KT SCT020 23/18 A2999 RMK AO2 T02260177  PWINO,,,,,,63.84,,NNE,29.34,28.09,,Partly Cloudy
KIGQ,09/18/2018 19:55 UTC,30.0,72.14,63.68,74.78,11.5,20.0,20.71,,,,,182.0,,,,,,KIGQ 181955Z AUTO 02010G18KT SCT018 22/18 A3000 RMK AO2 T02230176  PWINO,,,,,,63.66,,NNE,29.35,28.12,,Partly Cloudy
KIGQ,09/18/2018 20:15 UTC,29.99,72.68,64.22,74.83,13.8,40.0,19.57,,,,,182.0,,,,,,KIGQ 182015Z AUTO 04012G17KT SCT018 23/18 A2999 RMK AO2 T02260179  PWINO,,,,,,64.2,,NE,29.34,28.07,,Partly Cloudy
KIGQ,09/18/2018 20:35 UTC,29.99,71.42,63.32,75.66,12.66,20.0,19.57,,,,,182.0,,,,10.0,,KIGQ 182035Z AUTO 02011G17KT 10SM SCT018 22/17 A2999 RMK AO2  T02190174,,,,,,63.3,,NNE,29.34,28.14,,Partly Cloudy
KIGQ,09/18/2018 20:55 UTC,29.99,71.24,63.14,75.64,9.22,20.0,,,,,,182.0,,,,10.0,,KIGQ 182055Z AUTO 02008KT 10SM SCT018 22/17 A2999 RMK AO2  T02180173,,,,,,63.11,,NNE,29.34,28.15,,Partly Cloudy
KIGQ,09/18/2018 21:15 UTC,29.97,71.42,63.14,75.18,9.22,40.0,,,,,,1.0,,,,10.0,,KIGQ 182115Z AUTO 04008KT 020V080 10SM CLR 22/17 A2997 RMK AO2  T02190173,,,,,,63.11,,NE,29.32,28.13,,Clear
KIGQ,09/18/2018 21:35 UTC,29.96,71.06,62.78,75.15,8.05,30.0,,,,,,1.0,,,,10.0,,KIGQ 182135Z AUTO 03007KT 10SM CLR 22/17 A2996 RMK AO2  T02170171,,,,,,62.75,,NNE,29.31,28.14,,Clear
KIGQ,09/18/2018 21:55 UTC,29.95,71.06,62.6,74.68,6.91,50.0,,,,,,1.0,,,,10.0,,KIGQ 182155Z AUTO 05006KT 10SM CLR 22/17 A2995 RMK AO2  T02170170,,,,,,62.58,,NE,29.3,28.14,,Clear
KIGQ,09/18/2018 22:15 UTC,29.94,70.34,62.96,77.5,6.91,80.0,,,,,,1.0,,,,10.0,,KIGQ 182215Z AUTO 08006KT 10SM CLR 21/17 A2994 RMK AO2  T02130172,,,,,,62.94,,E,29.29,28.12,,Clear
KIGQ,09/18/2018 22:35 UTC,29.93,70.52,62.96,77.02,6.91,100.0,,,,,,1.0,,,,10.0,,KIGQ 182235Z AUTO 10006KT 10SM CLR 21/17 A2993 RMK AO2  T02140172,,,,,,62.93,,E,29.28,28.11,,Clear
KIGQ,09/18/2018 22:55 UTC,29.92,70.34,62.78,77.01,4.61,140.0,,,,,,1202.0,,,,10.0,,KIGQ 182255Z AUTO 14004KT 10SM SCT120 21/17 A2992 RMK AO2  T02130171,,,,,,62.75,,SE,29.27,28.11,,Partly Cloudy
KIGQ,09/18/2018 23:15 UTC,29.92,70.34,62.24,75.56,6.91,120.0,,,,,,1.0,,,,10.0,,KIGQ 182315Z AUTO 12006KT 10SM CLR 21/17 A2992 RMK AO2  T02130168,,,,,,62.21,,ESE,29.27,28.14,,Clear
KIGQ,09/18/2018 23:35 UTC,29.93,69.26,61.7,76.91,4.61,110.0,,,,,,1.0,,,,10.0,,KIGQ 182335Z AUTO 11004KT 10SM CLR 21/17 A2993 RMK AO2  T02070165,,,,,,61.67,,ESE,29.28,28.2,,Clear
KIGQ,09/18/2018 23:55 UTC,29.94,69.44,61.7,76.44,3.44,30.0,,,,,,1.0,,,,10.0,,KIGQ 182355Z AUTO 03003KT 10SM CLR 21/17 A2994 RMK AO2 T02080165  10273 20204,81.14,68.72,,,,61.67,,NNE,29.29,28.21,,Clear
KIGQ,09/19/2018 00:15 UTC,29.95,69.26,61.7,76.91,0.0,0.0,,,,,,1.0,,,,10.0,,KIGQ 190015Z AUTO 00000KT 10SM CLR 21/17 A2995 RMK AO2  T02070165,,,,,,61.67,,N,29.3,28.22,,Clear
KIGQ,09/19/2018 00:35 UTC,29.94,68.72,62.24,79.85,4.61,50.0,,,,,,1.0,,,,10.0,,KIGQ 190035Z AUTO 05004KT 10SM CLR 20/17 A2994 RMK AO2  T02040168,,,,,,62.21,,NE,29.29,28.18,,Clear
KIGQ,09/19/2018 00:55 UTC,29.95,68.9,63.5,82.95,8.05,50.0,,,,,,1.0,,,,10.0,,KIGQ 190055Z AUTO 05007KT 10SM CLR 21/18 A2995 RMK AO2  T02050175,,,,,,63.48,,NE,29.3,28.12,,Clear
KIGQ,09/19/2018 01:15 UTC,29.96,68.54,63.86,85.05,8.05,40.0,,,,,,1.0,,,,10.0,,KIGQ 190115Z AUTO 04007KT 10SM CLR 20/18 A2996 RMK AO2  T02030177,,,,,,63.84,,NE,29.31,28.11,,Clear
KIGQ,09/19/2018 01:35 UTC,29.97,68.36,63.68,85.04,5.75,20.0,,,,,,1.0,,,,10.0,,KIGQ 190135Z AUTO 02005KT 10SM CLR 20/18 A2997 RMK AO2  T02020176,,,,,,63.66,,NNE,29.32,28.13,,Clear
KIGQ,09/19/2018 01:55 UTC,29.98,68.36,63.14,83.44,9.22,50.0,,,,,,1.0,,,,10.0,,KIGQ 190155Z AUTO 05008KT 10SM CLR 20/17 A2998 RMK AO2  T02020173,,,,,,63.12,,NE,29.33,28.18,,Clear
KIGQ,09/19/2018 02:15 UTC,29.98,68.0,62.78,83.42,5.75,50.0,,,,,,1.0,,,,10.0,,KIGQ 190215Z AUTO 05005KT 10SM CLR 20/17 A2998 RMK AO2  T02000171,,,,,,62.76,,NE,29.33,28.2,,Clear
KIGQ,09/19/2018 02:35 UTC,29.98,68.0,63.32,85.01,5.75,60.0,,,,,,1.0,,,,10.0,,KIGQ 190235Z AUTO 06005KT 10SM CLR 20/17 A2998 RMK AO2  T02000174,,,,,,63.3,,ENE,29.33,28.17,,Clear
KIGQ,09/19/2018 02:55 UTC,29.97,67.1,63.14,87.14,0.0,0.0,,,,,,1103.0,,,,10.0,,KIGQ 190255Z AUTO 00000KT 10SM BKN110 20/17 A2997 RMK AO2  T01950173,,,11000.0,,,63.12,,N,29.32,28.18,,Mostly Cloudy
KIGQ,09/19/2018 03:15 UTC,29.98,67.64,63.5,86.62,3.44,80.0,,,,,,132.0,1104.0,,,10.0,,KIGQ 190315Z AUTO 08003KT 10SM SCT013 OVC110 20/18 A2998 RMK AO2  T01980175,,,11000.0,,,63.48,,E,29.33,28.16,,Overcast
KIGQ,09/19/2018 03:35 UTC,29.99,68.0,63.5,85.55,8.05,30.0,,,,,,132.0,1104.0,,,10.0,,KIGQ 190335Z AUTO 03007KT 10SM SCT013 OVC110 20/18 A2999 RMK AO2  T02000175,,,11000.0,,,63.48,,NNE,29.34,28.17,,Overcast
KIGQ,09/19/2018 03:55 UTC,30.0,68.0,63.68,86.09,8.05,20.0,,,,,,1104.0,,,,10.0,,KIGQ 190355Z AUTO 02007KT 10SM OVC110 20/18 A3000 RMK AO2  T02000176,,,11000.0,,,63.66,,NNE,29.35,28.17,,Overcast
KIGQ,09/19/2018 04:15 UTC,30.0,68.18,64.04,86.65,9.22,30.0,,,,,,1004.0,,,,10.0,,KIGQ 190415Z AUTO 03008KT 10SM OVC100 20/18 A3000 RMK AO2  T02010178,,,10000.0,,,64.02,,NNE,29.35,28.15,,Overcast
KIGQ,09/19/2018 04:35 UTC,29.99,68.0,63.86,86.64,0.0,0.0,,,,,,1004.0,,,,10.0,,KIGQ 190435Z AUTO 00000KT 10SM OVC100 20/18 A2999 RMK AO2  T02000177,,,10000.0,,,63.84,,N,29.34,28.15,,Overcast
KIGQ,09/19/2018 04:55 UTC,30.01,68.18,63.86,86.1,4.61,10.0,,,,,,1104.0,,,,10.0,,KIGQ 190455Z AUTO 01004KT 10SM OVC110 20/18 A3001 RMK AO2  T02010177,,,11000.0,,,63.84,,N,29.36,28.17,,Overcast
KIGQ,09/19/2018 05:15 UTC,29.99,67.82,63.5,86.08,5.75,60.0,,,,,,1104.0,,,,10.0,,KIGQ 190515Z AUTO 06005KT 10SM OVC110 20/18 A2999 RMK AO2  T01990175,,,11000.0,,,63.48,,ENE,29.34,28.17,,Overcast
KIGQ,09/19/2018 05:35 UTC,29.98,67.46,62.96,85.52,4.61,40.0,,,,,,1202.0,,,,10.0,,KIGQ 190535Z AUTO 04004KT 10SM SCT120 20/17 A2998 RMK AO2  T01970172,,,,,,62.94,,NE,29.33,28.2,,Partly Cloudy
KIGQ,09/19/2018 05:55 UTC,29.99,67.1,63.14,87.14,3.44,20.0,,,,,,1.0,,,,10.0,,KIGQ 190555Z AUTO 02003KT 10SM CLR 20/17 A2999 RMK AO2 T01950173  10208 20193 402760177,69.44,66.74,,81.68,63.86,63.12,,NNE,29.34,28.2,,Clear
KIGQ,09/19/2018 06:15 UTC,29.99,66.74,63.14,88.23,3.44,40.0,,,,,,1.0,,,,10.0,,KIGQ 190615Z AUTO 04003KT 10SM CLR 19/17 A2999 RMK AO2  T01930173,,,,,,63.12,,NE,29.34,28.21,,Clear
KIGQ,09/19/2018 06:35 UTC,30.0,66.38,63.14,89.33,0.0,0.0,,,,,,123.0,,,,10.0,,KIGQ 190635Z AUTO 00000KT 10SM BKN012 19/17 A3000 RMK AO2  T01910173,,,1200.0,,,63.12,,N,29.35,28.22,,Mostly Cloudy
KIGQ,09/19/2018 06:55 UTC,30.0,66.56,63.68,90.47,0.0,0.0,,,,,,123.0,,,,10.0,,KIGQ 190655Z AUTO 00000KT 10SM BKN012 19/18 A3000 RMK AO2  T01920176,,,1200.0,,,63.66,,N,29.35,28.19,,Mostly Cloudy
KIGQ,09/19/2018 07:15 UTC,30.01,66.56,63.5,89.9,4.61,30.0,,,,,,123.0,,,,10.0,,KIGQ 190715Z AUTO 03004KT 10SM BKN012 19/18 A3001 RMK AO2  T01920175,,,1200.0,,,63.48,,NNE,29.36,28.21,,Mostly Cloudy
KIGQ,09/19/2018 07:35 UTC,30.01,66.38,63.14,89.33,5.75,40.0,,,,,,123.0,,,,10.0,,KIGQ 190735Z AUTO 04005KT 10SM BKN012 19/17 A3001 RMK AO2  T01910173,,,1200.0,,,63.12,,NE,29.36,28.23,,Mostly Cloudy
KIGQ,09/19/2018 07:55 UTC,30.0,66.56,63.32,89.34,5.75,40.0,,,,,,122.0,,,,10.0,,KIGQ 190755Z AUTO 04005KT 10SM SCT012 19/17 A3000 RMK AO2  T01920174,,,,,,63.3,,NE,29.35,28.21,,Partly Cloudy
KIGQ,09/19/2018 08:15 UTC,30.0,66.38,62.96,88.77,6.91,40.0,,,,,,122.0,,,,10.0,,KIGQ 190815Z AUTO 04006KT 10SM SCT012 19/17 A3000 RMK AO2  T01910172,,,,,,62.94,,NE,29.35,28.23,,Partly Cloudy
KIGQ,09/19/2018 08:35 UTC,30.0,66.38,62.78,88.21,5.75,40.0,,,,,,122.0,,,,10.0,,KIGQ 190835Z AUTO 04005KT 10SM SCT012 19/17 A3000 RMK AO2  T01910171,,,,,,62.76,,NE,29.35,28.24,,Partly Cloudy
KIGQ,09/19/2018 08:55 UTC,30.0,66.2,62.78,88.76,4.61,50.0,,,,,,1.0,,,,10.0,,KIGQ 190855Z AUTO 05004KT 10SM CLR 19/17 A3000 RMK AO2  T01900171,,,,,,62.76,,NE,29.35,28.25,,Clear
KIGQ,09/19/2018 09:15 UTC,30.0,66.2,62.96,89.32,5.75,30.0,,,,,,1.0,,,,10.0,,KIGQ 190915Z AUTO 03005KT 10SM CLR 19/17 A3000 RMK AO2  T01900172,,,,,,62.94,,NNE,29.35,28.24,,Clear
KIGQ,09/19/2018 09:35 UTC,30.01,66.38,62.96,88.77,6.91,40.0,,,,,,1.0,,,,10.0,,KIGQ 190935Z AUTO 04006KT 10SM CLR 19/17 A3001 RMK AO2  T01910172,,,,,,62.94,,NE,29.36,28.24,,Clear
KIGQ,09/19/2018 09:55 UTC,30.01,66.38,62.96,88.77,6.91,40.0,,,,,,1.0,,,,10.0,,KIGQ 190955Z AUTO 04006KT 10SM CLR 19/17 A3001 RMK AO2  T01910172,,,,,,62.94,,NE,29.36,28.24,,Clear
KIGQ,09/19/2018 10:15 UTC,30.01,66.38,62.96,88.77,9.22,40.0,,,,,,1.0,,,,10.0,,KIGQ 191015Z AUTO 04008KT 10SM CLR 19/17 A3001 RMK AO2  T01910172,,,,,,62.94,,NE,29.36,28.24,,Clear
KIGQ,09/19/2018 10:35 UTC,30.01,66.38,62.96,88.77,5.75,50.0,,,,,,122.0,,,,10.0,,KIGQ 191035Z AUTO 05005KT 10SM SCT012 19/17 A3001 RMK AO2  T01910172,,,,,,62.94,,NE,29.36,28.24,,Partly Cloudy
KIGQ,09/19/2018 10:55 UTC,30.01,66.38,62.78,88.21,5.75,40.0,,,,,,123.0,,,,10.0,,KIGQ 191055Z AUTO 04005KT 10SM BKN012 19/17 A3001 RMK AO2  T01910171,,,1200.0,,,62.76,,NE,29.36,28.25,,Mostly Cloudy
KIGQ,09/19/2018 11:15 UTC,30.02,66.2,62.6,88.2,8.05,50.0,,,,,,123.0,,,,10.0,,KIGQ 191115Z AUTO 05007KT 10SM BKN012 19/17 A3002 RMK AO2  T01900170,,,1200.0,,,62.58,,NE,29.37,28.28,,Mostly Cloudy
KIGQ,09/19/2018 11:35 UTC,30.03,65.84,62.06,87.62,6.91,50.0,,,,,,123.0,,,,10.0,,KIGQ 191135Z AUTO 05006KT 10SM BKN012 19/17 A3003 RMK AO2  T01880167,,,1200.0,,,62.04,,NE,29.38,28.32,,Mostly Cloudy
KIGQ,09/19/2018 11:55 UTC,30.03,65.66,61.88,87.62,10.36,60.0,,,,,,124.0,,,,10.0,,KIGQ 191155Z AUTO 06009KT 10SM OVC012 19/17 A3003 RMK AO2  T01870166 10195 20187,67.1,65.66,1200.0,,,61.86,,ENE,29.38,28.33,,Overcast
KIGQ,09/19/2018 12:15 UTC,30.04,65.48,61.7,87.61,8.05,60.0,,,,,,124.0,,,,10.0,,KIGQ 191215Z AUTO 06007KT 10SM OVC012 19/17 A3004 RMK AO2  T01860165,,,1200.0,,,61.68,,ENE,29.39,28.36,,Overcast
KIGQ,09/19/2018 12:35 UTC,30.04,65.84,62.06,87.62,4.61,50.0,,,,,,104.0,,,,10.0,,KIGQ 191235Z AUTO 05004KT 10SM OVC010 19/17 A3004 RMK AO2  T01880167,,,1000.0,,,62.04,,NE,29.39,28.33,,Overcast
KIGQ,09/19/2018 12:55 UTC,30.04,66.38,61.88,85.46,5.75,60.0,,,,,,103.0,,,,10.0,,KIGQ 191255Z AUTO 06005KT 10SM BKN010 19/17 A3004 RMK AO2  T01910166,,,1000.0,,,61.86,,ENE,29.39,28.34,,Mostly Cloudy
KIGQ,09/19/2018 13:15 UTC,30.04,67.1,61.88,83.36,0.0,0.0,,,,,,102.0,,,,10.0,,KIGQ 191315Z AUTO 00000KT 10SM SCT010 20/17 A3004 RMK AO2  T01950166,,,,,,61.85,,N,29.39,28.33,,Partly Cloudy
KIGQ,09/19/2018 13:35 UTC,30.04,68.0,61.88,80.82,4.61,80.0,,,,,,1.0,,,,10.0,,KIGQ 191335Z AUTO 08004KT 10SM CLR 20/17 A3004 RMK AO2  T02000166,,,,,,61.85,,E,29.39,28.32,,Clear
KIGQ,09/19/2018 13:55 UTC,30.04,69.08,61.52,76.9,6.91,60.0,,,,,,1.0,,,,10.0,,KIGQ 191355Z AUTO 06006KT 10SM CLR 21/16 A3004 RMK AO2  T02060164,,,,,,61.49,,ENE,29.39,28.32,,Clear
KIGQ,09/19/2018 14:15 UTC,30.04,69.62,61.34,75.02,3.44,40.0,,,,,,1.0,,,,10.0,,KIGQ 191415Z AUTO 04003KT 10SM CLR 21/16 A3004 RMK AO2  T02090163,,,,,,61.31,,NE,29.39,28.33,,Clear
KIGQ,09/19/2018 14:35 UTC,30.03,71.06,62.06,73.27,5.75,100.0,,,,,,1.0,,,,10.0,,KIGQ 191435Z AUTO 10005KT 10SM CLR 22/17 A3003 RMK AO2  T02170167,,,,,,62.03,,E,29.38,28.26,,Clear
KIGQ,09/19/2018 14:55 UTC,30.04,71.96,62.24,71.52,0.0,0.0,,,,,,1.0,,,,10.0,,KIGQ 191455Z AUTO 00000KT 10SM CLR 22/17 A3004 RMK AO2  T02220168,,,,,,62.21,,N,29.39,28.25,,Clear
KIGQ,09/19/2018 15:15 UTC,30.04,72.86,61.88,68.51,0.0,0.0,,,,,,1.0,,,,10.0,,KIGQ 191515Z AUTO 00000KT 10SM CLR 23/17 A3004 RMK AO2  T02270166,,,,,,61.85,,N,29.39,28.26,,Clear
KIGQ,09/19/2018 15:35 UTC,30.04,74.48,61.7,64.48,3.44,110.0,,,,,,1.0,,,,10.0,,KIGQ 191535Z AUTO 11003KT 10SM CLR 24/17 A3004 RMK AO2  T02360165,,,,,,61.68,,ESE,29.39,28.25,,Clear
KIGQ,09/19/2018 15:55 UTC,30.03,75.56,62.6,64.21,4.61,100.0,,,,,,1.0,,,,10.0,,KIGQ 191555Z AUTO 10004KT 10SM CLR 24/17 A3003 RMK AO2  T02420170,,,,,,62.59,,E,29.38,28.17,,Clear
KIGQ,09/19/2018 16:15 UTC,30.03,75.56,61.88,62.6,5.75,110.0,,,,,,1.0,,,,10.0,,KIGQ 191615Z AUTO 11005KT 10SM CLR 24/17 A3003 RMK AO2  T02420166,,,,,,61.87,,ESE,29.38,28.22,,Clear
KIGQ,09/19/2018 16:35 UTC,30.03,77.18,62.42,60.47,4.61,120.0,,,,,,1.0,,,,10.0,,KIGQ 191635Z AUTO 12004KT 10SM CLR 25/17 A3003 RMK AO2  T02510169,,,,,,62.42,,ESE,29.38,28.17,,Clear
KIGQ,09/19/2018 16:55 UTC,30.02,78.26,62.96,59.47,4.61,90.0,,,,,,1.0,,,,10.0,,KIGQ 191655Z AUTO 09004KT 10SM CLR 26/17 A3002 RMK AO2  T02570172,,,,,,62.96,,E,29.37,28.11,,Clear
KIGQ,09/19/2018 17:15 UTC,30.02,78.8,61.88,56.25,5.75,110.0,,,,,,1.0,,,,10.0,,KIGQ 191715Z AUTO 11005KT 10SM CLR 26/17 A3002 RMK AO2  T02600166,,,,,,61.89,,ESE,29.37,28.17,,Clear
KIGQ,09/19/2018 17:35 UTC,30.02,80.24,62.96,55.74,0.0,0.0,,,,,,1.0,,,,10.0,,KIGQ 191735Z AUTO 00000KT 10SM CLR 27/17 A3002 RMK AO2  T02680172,,,,,,62.98,,N,29.37,28.09,81.62,Clear
KIGQ,09/19/2018 17:55 UTC,30.02,77.36,65.12,66.06,10.36,30.0,,,,,,1.0,,,,10.0,,KIGQ 191755Z AUTO 03009KT 10SM CLR 25/18 A3002 RMK AO2 T02520184  10270 20186,80.6,65.48,,,,65.12,,NNE,29.37,27.98,,Clear
KIGQ,09/19/2018 18:15 UTC,30.02,76.46,64.94,67.63,11.5,10.0,,,,,,1.0,,,,10.0,,KIGQ 191815Z AUTO 01010KT 10SM CLR 25/18 A3002 RMK AO2  T02470183,,,,,,64.93,,N,29.37,28.01,,Clear
KIGQ,09/19/2018 18:35 UTC,30.02,75.38,64.58,69.23,9.22,10.0,,,,,,1.0,,,,10.0,,KIGQ 191835Z AUTO 01008KT 10SM CLR 24/18 A3002 RMK AO2  T02410181,,,,,,64.57,,N,29.37,28.04,,Clear
KIGQ,09/19/2018 18:55 UTC,30.03,74.3,64.58,71.77,11.5,20.0,,,,,,1.0,,,,,,KIGQ 191855Z AUTO 02010KT CLR 24/18 A3003 RMK AO2 T02350181,,,,,,64.57,,NNE,29.38,28.07,,Clear
KIGQ,09/19/2018 19:15 UTC,30.03,73.58,64.58,73.52,12.66,360.0,,,,,,1.0,,,,10.0,,KIGQ 191915Z AUTO 36011KT 10SM CLR 23/18 A3003 RMK AO2  T02310181,,,,,,64.56,,N,29.38,28.07,,Clear
KIGQ,09/19/2018 19:35 UTC,30.03,73.04,64.4,74.39,6.91,30.0,,,,,,1.0,,,,10.0,,KIGQ 191935Z AUTO 03006KT 10SM CLR 23/18 A3003 RMK AO2  T02280180,,,,,,64.38,,NNE,29.38,28.09,,Clear
KIGQ,09/19/2018 19:55 UTC,30.03,72.86,64.22,74.38,9.22,10.0,,,,,,1.0,,,,10.0,,KIGQ 191955Z AUTO 01008KT 10SM CLR 23/18 A3003 RMK AO2  T02270179,,,,,,64.2,,N,29.38,28.11,,Clear
KIGQ,09/19/2018 20:15 UTC,30.02,71.06,63.86,78.05,11.5,30.0,17.27,,,,,852.0,,,,,,KIGQ 192015Z AUTO 03010G15KT SCT085 22/18 A3002 RMK AO2  T02170177,,,,,,63.84,,NNE,29.37,28.14,,Partly Cloudy
KIGQ,09/19/2018 20:35 UTC,30.01,70.34,62.96,77.5,13.8,30.0,,,,,,852.0,,,,,,KIGQ 192035Z AUTO 03012KT SCT085 21/17 A3001 RMK AO2 T02130172  PWINO,,,,,,62.94,,NNE,29.36,28.19,,Partly Cloudy
KIGQ,09/19/2018 20:55 UTC,30.01,70.88,62.42,74.66,13.8,40.0,,,,,,1.0,,,,,,KIGQ 192055Z AUTO 04012KT CLR 22/17 A3001 RMK AO2 T02160169  PWINO,,,,,,62.39,,NE,29.36,28.22,,Clear
KIGQ,09/19/2018 21:15 UTC,30.01,69.98,62.42,76.98,9.22,20.0,,,,,,1.0,,,,10.0,,KIGQ 192115Z AUTO 02008KT 10SM CLR 21/17 A3001 RMK AO2  T02110169,,,,,,62.39,,NNE,29.36,28.23,,Clear
KIGQ,09/19/2018 21:35 UTC,30.01,71.06,62.96,75.63,8.05,20.0,,,,,,1002.0,,,,10.0,,KIGQ 192135Z AUTO 02007KT 10SM SCT100 22/17 A3001 RMK AO2  T02170172,,,,,,62.94,,NNE,29.36,28.18,,Partly Cloudy
KIGQ,09/19/2018 21:55 UTC,30.01,70.34,62.42,76.04,8.05,40.0,,,,,,1003.0,,,,10.0,,KIGQ 192155Z AUTO 04007KT 10SM BKN100 21/17 A3001 RMK AO2  T02130169,,,10000.0,,,62.39,,NE,29.36,28.23,,Mostly Cloudy
KIGQ,09/19/2018 22:15 UTC,30.01,69.8,63.14,79.43,6.91,20.0,,,,,,903.0,,,,10.0,,KIGQ 192215Z AUTO 02006KT 10SM BKN090 21/17 A3001 RMK AO2  T02100173,,,9000.0,,,63.11,,NNE,29.36,28.19,,Mostly Cloudy
KIGQ,09/19/2018 22:35 UTC,30.02,69.08,63.5,82.44,6.91,30.0,,,,,,803.0,,,,10.0,,KIGQ 192235Z AUTO 03006KT 10SM BKN080 21/18 A3002 RMK AO2  T02060175,,,8000.0,,,63.48,,NNE,29.37,28.19,,Mostly Cloudy
KIGQ,09/19/2018 22:55 UTC,30.02,69.44,63.86,82.47,3.44,20.0,,,,,,804.0,,,,10.0,,KIGQ 192255Z AUTO 02003KT 10SM OVC080 21/18 A3002 RMK AO2  T02080177,,,8000.0,,,63.84,,NNE,29.37,28.16,,Overcast
KIGQ,09/19/2018 23:15 UTC,30.03,68.9,64.4,85.6,10.36,10.0,16.11,,,,,113.0,804.0,,,10.0,,KIGQ 192315Z AUTO 01009G14KT 350V050 10SM BKN011 OVC080 21/18  A3003 RMK AO2 T02050180,,,1100.0,,,64.38,,N,29.38,28.15,,Overcast
KIGQ,09/19/2018 23:35 UTC,30.04,68.72,64.22,85.59,9.22,10.0,17.27,,,,,114.0,,,,10.0,,KIGQ 192335Z AUTO 01008G15KT 330V040 10SM OVC011 20/18 A3004 RMK AO2 T02040179,,,1100.0,,,64.2,,N,29.39,28.17,,Overcast
KIGQ,09/19/2018 23:55 UTC,30.02,67.82,63.5,86.08,5.75,30.0,16.11,,,,,113.0,,,,10.0,,KIGQ 192355Z AUTO 03005G14KT 10SM BKN011 20/18 A3002 RMK AO2  T01990175 10252 20199,77.36,67.82,1100.0,,,63.48,,NNE,29.37,28.2,,Mostly Cloudy
KIGQ,09/20/2018 00:15 UTC,30.0,68.0,63.68,86.09,8.05,90.0,,,,,,1.0,,,,10.0,,KIGQ 200015Z AUTO 09007KT 10SM CLR 20/18 A3000 RMK AO2  T02000176,,,,,,63.66,,E,29.35,28.17,,Clear
KIGQ,09/20/2018 00:35 UTC,29.95,68.0,64.04,87.18,11.5,130.0,,,,,,1.0,,,,10.0,,KIGQ 200035Z AUTO 13010KT 10SM CLR 20/18 A2995 RMK AO2  T02000178,,,,,,64.02,,SE,29.3,28.1,,Clear
KIGQ,09/20/2018 00:55 UTC,29.97,68.0,64.4,88.29,9.22,40.0,,,,,,1.0,,,,10.0,,KIGQ 200055Z AUTO 04008KT 10SM CLR 20/18 A2997 RMK AO2  T02000180,,,,,,64.39,,NE,29.32,28.1,,Clear
KIGQ,09/20/2018 01:15 UTC,29.96,67.82,64.58,89.39,6.91,70.0,,,,,,82.0,,,,10.0,,KIGQ 200115Z AUTO 07006KT 10SM SCT008 20/18 A2996 RMK AO2  T01990181,,,,,,64.56,,ENE,29.31,28.08,,Partly Cloudy
KIGQ,09/20/2018 01:35 UTC,29.98,68.0,64.76,89.4,0.0,0.0,,,,,,82.0,,,,7.0,,KIGQ 200135Z AUTO 00000KT 7SM SCT008 20/18 A2998 RMK AO2  T02000182,,,,,,64.75,,N,29.33,28.08,,Partly Cloudy
KIGQ,09/20/2018 01:55 UTC,29.99,68.0,65.12,90.53,0.0,0.0,,,,,,1.0,,,,7.0,,KIGQ 200155Z AUTO 00000KT 7SM CLR 20/18 A2999 RMK AO2  T02000184,,,,,,65.11,,N,29.34,28.07,,Clear
KIGQ,09/20/2018 02:15 UTC,30.0,67.64,65.12,91.65,0.0,0.0,,,,,,1.0,,,,7.0,,KIGQ 200215Z AUTO 00000KT 7SM CLR 20/18 A3000 RMK AO2  T01980184,,,,,,65.11,,N,29.35,28.09,,Clear
KIGQ,09/20/2018 02:35 UTC,30.0,67.64,65.3,92.23,0.0,0.0,,,,,,1.0,,,,7.0,,KIGQ 200235Z AUTO 00000KT 7SM CLR 20/19 A3000 RMK AO2  T01980185,,,,,,65.29,,N,29.35,28.08,,Clear
KIGQ,09/20/2018 02:55 UTC,30.0,67.82,65.48,92.24,3.44,30.0,,,,,,1.0,,,,7.0,,KIGQ 200255Z AUTO 03003KT 7SM CLR 20/19 A3000 RMK AO2  T01990186,,,,,,65.47,,NNE,29.35,28.06,,Clear
KIGQ,09/20/2018 03:15 UTC,29.99,68.0,65.66,92.24,0.0,0.0,,,,,,1.0,,,,7.0,,KIGQ 200315Z AUTO 00000KT 7SM CLR 20/19 A2999 RMK AO2  T02000187,,,,,,65.65,,N,29.34,28.04,,Clear
KIGQ,09/20/2018 03:35 UTC,29.99,68.0,65.66,92.24,3.44,40.0,,31.0,,,,1.0,,,,5.0,,KIGQ 200335Z AUTO 04003KT 5SM BR CLR 20/19 A2999 RMK AO2  T02000187,,,,,,65.65,,NE,29.34,28.04,,Mist
KIGQ,09/20/2018 03:55 UTC,29.98,67.82,66.02,93.98,3.44,40.0,,31.0,,,,1.0,,,,5.0,,KIGQ 200355Z AUTO 04003KT 5SM BR CLR 20/19 A2998 RMK AO2  T01990189,,,,,,66.01,,NE,29.33,28.01,,Mist
KIGQ,09/20/2018 04:15 UTC,29.97,68.0,66.2,93.98,4.61,40.0,,31.0,,,,1.0,,,,5.0,,KIGQ 200415Z AUTO 04004KT 5SM BR CLR 20/19 A2997 RMK AO2  T02000190,,,,,,66.19,,NE,29.32,27.98,,Mist
KIGQ,09/20/2018 04:35 UTC,29.98,68.0,66.2,93.98,0.0,0.0,,31.0,,,,1.0,,,,5.0,,KIGQ 200435Z AUTO 00000KT 5SM BR CLR 20/19 A2998 RMK AO2  T02000190,,,,,,66.19,,N,29.33,27.99,,Mist
KIGQ,09/20/2018 04:55 UTC,29.99,68.0,66.2,93.98,0.0,0.0,,31.0,,,,1.0,,,,5.0,,KIGQ 200455Z AUTO 00000KT 5SM BR CLR 20/19 A2999 RMK AO2  T02000190,,,,,,66.19,,N,29.34,28.0,,Mist
KIGQ,09/20/2018 05:15 UTC,29.99,67.64,66.56,96.35,0.0,0.0,,31.0,,,,1.0,,,,5.0,,KIGQ 200515Z AUTO 00000KT 5SM BR CLR 20/19 A2999 RMK AO2  T01980192,,,,,,66.56,,N,29.34,27.99,,Mist
KIGQ,09/20/2018 05:35 UTC,29.98,67.46,66.56,96.94,0.0,0.0,,31.0,,,,1.0,,,,5.0,,KIGQ 200535Z AUTO 00000KT 5SM BR CLR 20/19 A2998 RMK AO2  T01970192,,,,,,66.55,,N,29.33,27.98,,Mist
KIGQ,09/20/2018 05:55 UTC,29.99,67.46,66.56,96.94,0.0,0.0,,31.0,,,,1.0,,,,4.0,,KIGQ 200555Z AUTO 00000KT 4SM BR CLR 20/19 A2999 RMK AO2 T01970192  10201 20197 402700186,68.18,67.46,,80.6,65.48,66.55,,N,29.34,27.99,,Mist
KIGQ,09/20/2018 06:15 UTC,29.98,67.1,66.38,97.54,0.0,0.0,,31.0,,,,1.0,,,,4.0,,KIGQ 200615Z AUTO 00000KT 4SM BR CLR 20/19 A2998 RMK AO2  T01950191,,,,,,66.38,,N,29.33,28.0,,Mist
KIGQ,09/20/2018 06:35 UTC,29.98,67.1,66.56,98.15,0.0,0.0,,31.0,,,,1.0,,,,3.0,,KIGQ 200635Z AUTO 00000KT 3SM BR CLR 20/19 A2998 RMK AO2  T01950192,,,,,,66.56,,N,29.33,27.98,,Mist
KIGQ,09/20/2018 06:55 UTC,29.98,66.38,66.2,99.38,0.0,0.0,,31.0,,,,1.0,,,,3.0,,KIGQ 200655Z AUTO 00000KT 3SM BR CLR 19/19 A2998 RMK AO2  T01910190,,,,,,66.2,,N,29.33,28.02,,Mist
KIGQ,09/20/2018 07:15 UTC,29.97,64.04,63.68,98.75,0.0,0.0,,31.0,,,,42.0,,,,1.75,,KIGQ 200715Z AUTO 00000KT 1 3/4SM BR SCT004 18/18 A2997 RMK AO2  VIS 3/4V4 T01780176,,,,,,63.68,,N,29.32,28.19,,Mist
KIGQ,09/20/2018 07:35 UTC,29.97,65.12,64.94,99.38,0.0,0.0,,31.0,,,,43.0,,,,1.0,,KIGQ 200735Z AUTO 00000KT 1SM BR BKN004 18/18 A2997 RMK AO2  T01840183,,,400.0,,,64.94,,N,29.32,28.1,,Mist
KIGQ,09/20/2018 07:55 UTC,29.97,65.3,65.12,99.38,0.0,0.0,,31.0,,,,55.0,,,,0.75,,KIGQ 200755Z AUTO 00000KT 3/4SM BR VV005 19/18 A2997 RMK AO2  T01850184,,,500.0,,,65.12,,N,29.32,28.09,,Mist
KIGQ,09/20/2018 08:15 UTC,29.97,64.94,64.94,100.0,0.0,0.0,,31.0,,,,1.0,,,,3.0,,KIGQ 200815Z AUTO 00000KT 3SM BR CLR 18/18 A2997 RMK AO2  T01830183,,,,,,64.94,,N,29.32,28.1,,Mist
KIGQ,09/20/2018 08:35 UTC,29.97,65.84,65.66,99.38,0.0,0.0,,31.0,,,,1.0,,,,5.0,,KIGQ 200835Z AUTO 00000KT 5SM BR CLR 19/19 A2997 RMK AO2  T01880187,,,,,,65.66,,N,29.32,28.05,,Mist
KIGQ,09/20/2018 08:55 UTC,29.97,67.46,66.92,98.16,0.0,0.0,,,,,,1.0,,,,10.0,,KIGQ 200855Z AUTO 00000KT 10SM CLR 20/19 A2997 RMK AO2  T01970194,,,,,,66.92,,N,29.32,27.94,,Clear
KIGQ,09/20/2018 09:15 UTC,29.96,68.0,66.2,93.98,3.44,150.0,,,,,,1.0,,,,10.0,,KIGQ 200915Z AUTO 15003KT 10SM CLR 20/19 A2996 RMK AO2  T02000190,,,,,,66.19,,SSE,29.31,27.97,,Clear
KIGQ,09/20/2018 09:35 UTC,29.96,68.36,66.56,93.99,0.0,0.0,,,,,,1.0,,,,10.0,,KIGQ 200935Z AUTO 00000KT 10SM CLR 20/19 A2996 RMK AO2  T02020192,,,,,,66.55,,N,29.31,27.95,,Clear
KIGQ,09/20/2018 09:55 UTC,29.96,69.08,67.1,93.43,4.61,160.0,,,,,,1.0,,,,10.0,,KIGQ 200955Z AUTO 16004KT 10SM CLR 21/20 A2996 RMK AO2  T02060195,,,,,,67.09,,SSE,29.31,27.9,,Clear
KIGQ,09/20/2018 10:15 UTC,29.95,69.8,67.1,91.16,5.75,170.0,,,,,,1.0,,,,10.0,,KIGQ 201015Z AUTO 17005KT 10SM CLR 21/20 A2995 RMK AO2  T02100195,,,,,,67.09,,S,29.3,27.88,,Clear
KIGQ,09/20/2018 10:35 UTC,29.96,69.8,67.28,91.73,5.75,170.0,,,,,,1.0,,,,10.0,,KIGQ 201035Z AUTO 17005KT 10SM CLR 21/20 A2996 RMK AO2  T02100196,,,,,,67.27,,S,29.31,27.88,,Clear
KIGQ,09/20/2018 10:55 UTC,29.96,69.44,67.1,92.29,5.75,180.0,,,,,,1.0,,,,10.0,,KIGQ 201055Z AUTO 18005KT 10SM CLR 21/20 A2996 RMK AO2  T02080195,,,,,,67.09,,S,29.31,27.89,,Clear
KIGQ,09/20/2018 11:15 UTC,29.96,69.08,67.1,93.43,4.61,180.0,,,,,,1.0,,,,10.0,,KIGQ 201115Z AUTO 18004KT 10SM CLR 21/20 A2996 RMK AO2  T02060195,,,,,,67.09,,S,29.31,27.9,,Clear
KIGQ,09/20/2018 11:35 UTC,29.96,68.9,67.1,94.01,3.44,190.0,,,,,,1.0,,,,10.0,,KIGQ 201135Z AUTO 19003KT 10SM CLR 21/20 A2996 RMK AO2 LTG DSNT N  T02050195,,,,,,67.09,,S,29.31,27.9,,Clear
KIGQ,09/20/2018 11:55 UTC,29.97,69.08,67.46,94.59,3.44,190.0,,,,,,1.0,,,,7.0,,KIGQ 201155Z AUTO 19003KT 7SM CLR 21/20 A2997 RMK AO2 LTG DSNT NW  T02060197 10210 20177,69.8,63.86,,,,67.45,,S,29.32,27.89,,Clear
KIGQ,09/20/2018 12:15 UTC,29.97,69.8,68.18,94.61,4.61,190.0,,,,,,1.0,,,,7.0,,KIGQ 201215Z AUTO 19004KT 7SM CLR 21/20 A2997 RMK AO2  T02100201,,,,,,68.17,,S,29.32,27.83,,Clear
KIGQ,09/20/2018 12:35 UTC,29.97,70.34,68.9,95.21,5.75,180.0,,,,,,1.0,,,,7.0,,KIGQ 201235Z AUTO 18005KT 7SM CLR 21/21 A2997 RMK AO2  T02130205,,,,,,68.9,,S,29.32,27.77,,Clear
KIGQ,09/20/2018 12:55 UTC,29.97,71.6,69.62,93.5,8.05,180.0,,,,,,1.0,,,,7.0,,KIGQ 201255Z AUTO 18007KT 7SM CLR 22/21 A2997 RMK AO2 LTG DSNT N  T02200209,,,,,,69.62,,S,29.32,27.7,,Clear
KIGQ,09/20/2018 13:15 UTC,29.98,74.12,71.06,90.21,6.91,210.0,,,,,,1.0,,,,10.0,,KIGQ 201315Z AUTO 21006KT 10SM CLR 23/22 A2998 RMK AO2  T02340217,,,,,,71.06,,SSW,29.33,27.57,,Clear
KIGQ,09/20/2018 13:35 UTC,29.98,76.1,71.06,84.45,9.22,210.0,,,,,,1.0,,,,10.0,,KIGQ 201335Z AUTO 21008KT 10SM CLR 25/22 A2998 RMK AO2  T02450217,,,,,,71.06,,SSW,29.33,27.54,,Clear
KIGQ,09/20/2018 13:55 UTC,29.98,77.36,71.24,81.5,8.05,200.0,,,,,,552.0,,,,10.0,,KIGQ 201355Z AUTO 20007KT 10SM SCT055 25/22 A2998 RMK AO2  T02520218,,,,,,71.24,,SSW,29.33,27.51,,Partly Cloudy
KIGQ,09/20/2018 14:15 UTC,29.98,77.36,71.06,81.0,8.05,210.0,,,,,,553.0,,,,10.0,,KIGQ 201415Z AUTO 21007KT 10SM BKN055 25/22 A2998 RMK AO2  T02520217,,,5500.0,,,71.06,,SSW,29.33,27.52,,Mostly Cloudy
KIGQ,09/20/2018 14:35 UTC,29.98,79.34,71.6,77.3,9.22,220.0,,,,,,552.0,,,,10.0,,KIGQ 201435Z AUTO 22008KT 10SM SCT055 26/22 A2998 RMK AO2 LTG DSNT  NE T02630220,,,,,,71.61,,SW,29.33,27.45,,Partly Cloudy
KIGQ,09/20/2018 14:55 UTC,29.99,80.96,71.96,74.22,5.75,250.0,,,,,,1.0,,,,10.0,,KIGQ 201455Z AUTO 25005KT 10SM CLR 27/22 A2999 RMK AO2  T02720222,,,,,,71.97,,WSW,29.34,27.41,85.28,Clear
KIGQ,09/20/2018 15:15 UTC,29.99,82.22,71.96,71.25,5.75,240.0,,,,,,1.0,,,,10.0,,KIGQ 201515Z AUTO 24005KT 10SM CLR 28/22 A2999 RMK AO2  T02790222,,,,,,71.98,,WSW,29.34,27.39,87.14,Clear
KIGQ,09/20/2018 15:35 UTC,29.99,83.3,72.32,69.65,6.91,230.0,,,,,,1.0,,,,10.0,,KIGQ 201535Z AUTO 23006KT 10SM CLR 29/22 A2999 RMK AO2  T02850224,,,,,,72.35,,SW,29.34,27.35,88.9,Clear
KIGQ,09/20/2018 15:55 UTC,29.98,84.38,72.32,67.28,5.75,220.0,,,,,,1.0,,,,10.0,,KIGQ 201555Z AUTO 22005KT 10SM CLR 29/22 A2998 RMK AO2  T02910224,,,,,,72.36,,SW,29.33,27.32,90.39,Clear
KIGQ,09/20/2018 16:15 UTC,29.97,84.74,72.14,66.11,6.91,200.0,,,,,,1.0,,,,10.0,,KIGQ 201615Z AUTO 20006KT 10SM CLR 29/22 A2997 RMK AO2  T02930223,,,,,,72.18,,SSW,29.32,27.32,90.74,Clear
KIGQ,09/20/2018 16:35 UTC,29.97,85.46,71.96,64.21,5.75,210.0,,,,,,1.0,,,,10.0,,KIGQ 201635Z AUTO 21005KT 10SM CLR 30/22 A2997 RMK AO2  T02970222,,,,,,72.01,,SSW,29.32,27.33,91.55,Clear
KIGQ,09/20/2018 16:55 UTC,29.96,86.72,72.32,62.44,8.05,200.0,,,,,,1.0,,,,10.0,,KIGQ 201655Z AUTO 20007KT 10SM CLR 30/22 A2996 RMK AO2  T03040224,,,,,,72.38,,SSW,29.31,27.27,93.49,Clear
KIGQ,09/20/2018 17:15 UTC,29.95,88.34,72.68,60.05,9.22,210.0,,,,,,352.0,,,,10.0,,KIGQ 201715Z AUTO 21008KT 10SM SCT035 31/23 A2995 RMK AO2  T03130226,,,,,,72.76,,SSW,29.3,27.21,95.91,Partly Cloudy
KIGQ,09/20/2018 17:35 UTC,29.94,89.24,71.6,56.28,8.05,240.0,16.11,,,,,393.0,,,,10.0,,KIGQ 201735Z AUTO 24007G14KT 10SM BKN039 32/22 A2994 RMK AO2  T03180220,,,3900.0,,,71.69,,WSW,29.29,27.28,96.02,Mostly Cloudy
KIGQ,09/20/2018 17:55 UTC,29.93,89.96,71.6,55.03,8.05,210.0,,,,,,422.0,,,,10.0,,KIGQ 201755Z AUTO 21007KT 10SM SCT042 32/22 A2993 RMK AO2  T03220220 10322 20206,89.96,69.08,,,,71.7,,SSW,29.28,27.26,96.92,Partly Cloudy
KIGQ,09/20/2018 18:15 UTC,29.93,89.24,71.78,56.63,8.05,180.0,,,,,,442.0,,,,10.0,,KIGQ 201815Z AUTO 18007KT 10SM SCT044 32/22 A2993 RMK AO2  T03180221,,,,,,71.87,,S,29.28,27.26,96.19,Partly Cloudy
KIGQ,09/20/2018 18:35 UTC,29.92,87.08,70.34,57.73,5.75,170.0,,,,,,1.0,,,,10.0,,KIGQ 201835Z AUTO 17005KT 10SM CLR 31/21 A2992 RMK AO2  T03060213,,,,,,70.41,,S,29.27,27.39,92.31,Clear
KIGQ,09/20/2018 18:55 UTC,29.91,87.98,68.72,53.09,3.44,150.0,,,,,,1.0,,,,10.0,,KIGQ 201855Z AUTO 15003KT 10SM CLR 31/20 A2991 RMK AO2  T03110204,,,,,,68.81,,SSE,29.26,27.49,92.17,Clear
KIGQ,09/20/2018 19:15 UTC,29.89,90.5,69.8,50.9,5.75,140.0,,,,,,1.0,,,,10.0,,KIGQ 201915Z AUTO 14005KT 10SM CLR 33/21 A2989 RMK AO2  T03250210,,,,,,69.92,,SE,29.24,27.36,95.98,Clear
KIGQ,09/20/2018 19:35 UTC,29.88,90.32,70.7,52.78,6.91,110.0,,,,,,1.0,,,,10.0,,KIGQ 201935Z AUTO 11006KT 10SM CLR 32/22 A2988 RMK AO2  T03240215,,,,,,70.81,,ESE,29.23,27.28,96.54,Clear
KIGQ,09/20/2018 19:55 UTC,29.88,89.06,69.98,53.57,6.91,140.0,,,,,,1.0,,,,10.0,,KIGQ 201955Z AUTO 14006KT 10SM CLR 32/21 A2988 RMK AO2  T03170211,,,,,,70.07,,SE,29.23,27.35,94.4,Clear
KIGQ,09/20/2018 20:15 UTC,29.87,89.06,70.52,54.57,6.91,160.0,,,,,,652.0,,,,10.0,,KIGQ 202015Z AUTO 16006KT 10SM SCT065 32/21 A2987 RMK AO2  T03170214,,,,,,70.62,,SSE,29.22,27.3,94.85,Partly Cloudy
KIGQ,09/20/2018 20:35 UTC,29.86,90.86,71.6,53.5,8.05,150.0,,,,,,652.0,,,,10.0,,KIGQ 202035Z AUTO 15007KT 10SM SCT065 33/22 A2986 RMK AO2  T03270220,,,,,,71.71,,SSE,29.21,27.18,98.04,Partly Cloudy
KIGQ,09/20/2018 20:55 UTC,29.86,93.38,68.18,44.04,17.27,230.0,21.85,,,,,652.0,,,,10.0,,KIGQ 202055Z AUTO 23015G19KT 10SM SCT065 34/20 A2986 RMK AO2  T03410201,,,,,,68.36,,SW,29.21,27.43,98.09,Partly Cloudy
KIGQ,09/20/2018 21:15 UTC,29.86,93.2,67.82,43.74,17.27,230.0,,,,,,1.0,,,,10.0,,KIGQ 202115Z AUTO 23015KT 10SM CLR 34/20 A2986 RMK AO2 LTG DSNT E  T03400199,,,,,,67.99,,SW,29.21,27.46,97.59,Clear
KIGQ,09/20/2018 21:35 UTC,29.85,92.48,68.18,45.28,10.36,210.0,17.27,,,,,702.0,,,,10.0,,KIGQ 202135Z AUTO 21009G15KT 10SM SCT070 34/20 A2985 RMK AO2  T03360201,,,,,,68.34,,SSW,29.2,27.43,97.02,Partly Cloudy
KIGQ,09/20/2018 21:55 UTC,29.84,91.94,67.64,45.2,13.8,220.0,18.41,,,,,702.0,,,,10.0,,KIGQ 202155Z AUTO 22012G16KT 10SM SCT070 33/20 A2984 RMK AO2  T03330198,,,,,,67.79,,SW,29.19,27.46,95.97,Partly Cloudy
KIGQ,09/20/2018 22:15 UTC,29.84,91.58,67.64,45.71,10.36,200.0,,,852.0,,,702.0,752.0,,,10.0,,KIGQ 202215Z AUTO 20009KT 10SM SCT070 SCT075 SCT085 33/20 A2984 RMK AO2 T03310198,,,,,,67.79,,SSW,29.19,27.47,95.55,Partly Cloudy
KIGQ,09/20/2018 22:35 UTC,29.84,90.5,66.74,45.83,16.11,210.0,,,,,,1.0,,,,10.0,,KIGQ 202235Z AUTO 21014KT 10SM CLR 33/19 A2984 RMK AO2  T03250193,,,,,,66.87,,SSW,29.19,27.54,93.68,Clear
KIGQ,09/20/2018 22:55 UTC,29.84,89.06,67.1,48.54,11.5,200.0,16.11,,,,,702.0,852.0,,,10.0,,KIGQ 202255Z AUTO 20010G14KT 10SM SCT070 SCT085 32/20 A2984 RMK AO2 T03170195,,,,,,67.21,,SSW,29.19,27.53,92.29,Partly Cloudy
KIGQ,09/20/2018 23:15 UTC,29.84,87.98,67.1,50.22,10.36,190.0,16.11,,,,,702.0,,,,10.0,,KIGQ 202315Z AUTO 19009G14KT 10SM SCT070 31/20 A2984 RMK AO2  T03110195,,,,,,67.19,,S,29.19,27.54,91.09,Partly Cloudy
KIGQ,09/20/2018 23:35 UTC,29.84,87.62,67.1,50.79,10.36,190.0,,,,,,702.0,,,,10.0,,KIGQ 202335Z AUTO 19009KT 10SM SCT070 31/20 A2984 RMK AO2  T03090195,,,,,,67.19,,S,29.19,27.55,90.69,Partly Cloudy
KIGQ,09/20/2018 23:55 UTC,29.84,86.72,67.1,52.26,10.36,190.0,,,,,,1.0,,,,10.0,,KIGQ 202355Z AUTO 19009KT 10SM CLR 30/20 A2984 RMK AO2 T03040195  10342 20296,93.56,85.28,,,,67.18,,S,29.19,27.56,89.7,Clear
KIGQ,09/21/2018 00:15 UTC,29.83,85.82,67.28,54.11,9.22,190.0,,,,,,1.0,,,,10.0,,KIGQ 210015Z AUTO 19008KT 10SM CLR 30/20 A2983 RMK AO2  T02990196,,,,,,67.34,,S,29.18,27.54,88.82,Clear
KIGQ,09/21/2018 00:35 UTC,29.83,85.1,67.1,55.03,9.22,190.0,,,,,,1.0,,,,10.0,,KIGQ 210035Z AUTO 19008KT 10SM CLR 30/20 A2983 RMK AO2  T02950195,,,,,,67.16,,S,29.18,27.57,87.94,Clear
KIGQ,09/21/2018 00:55 UTC,29.83,84.38,67.1,56.31,10.36,190.0,,,,,,1.0,,,,10.0,,KIGQ 210055Z AUTO 19009KT 10SM CLR 29/20 A2983 RMK AO2  T02910195,,,,,,67.15,,S,29.18,27.57,87.16,Clear
KIGQ,09/21/2018 01:15 UTC,29.84,84.56,66.38,54.61,12.66,200.0,,,,,,1.0,,,,10.0,,KIGQ 210115Z AUTO 20011KT 10SM CLR 29/19 A2984 RMK AO2  T02920191,,,,,,66.43,,SSW,29.19,27.63,86.99,Clear
KIGQ,09/21/2018 01:35 UTC,29.84,84.38,65.84,53.91,11.5,190.0,16.11,,,,,1.0,,,,10.0,,KIGQ 210135Z AUTO 19010G14KT 10SM CLR 29/19 A2984 RMK AO2  T02910188,,,,,,65.89,,S,29.19,27.67,86.55,Clear
KIGQ,09/21/2018 01:55 UTC,29.84,83.48,65.66,55.15,10.36,180.0,,,,,,1.0,,,,10.0,,KIGQ 210155Z AUTO 18009KT 10SM CLR 29/19 A2984 RMK AO2  T02860187,,,,,,65.71,,S,29.19,27.69,85.55,Clear
KIGQ,09/21/2018 02:15 UTC,29.84,82.4,66.02,57.82,10.36,190.0,,,,,,1.0,,,,10.0,,KIGQ 210215Z AUTO 19009KT 10SM CLR 28/19 A2984 RMK AO2  T02800189,,,,,,66.05,,S,29.19,27.68,84.58,Clear
KIGQ,09/21/2018 02:35 UTC,29.84,82.04,66.02,58.49,10.36,190.0,,,,,,1.0,,,,10.0,,KIGQ 210235Z AUTO 19009KT 10SM CLR 28/19 A2984 RMK AO2  T02780189,,,,,,66.05,,S,29.19,27.69,84.21,Clear
KIGQ,09/21/2018 02:55 UTC,29.84,81.68,65.48,58.08,14.97,190.0,,,,,,1.0,,,,10.0,,KIGQ 210255Z AUTO 19013KT 10SM CLR 28/19 A2984 RMK AO2  T02760186,,,,,,65.51,,S,29.19,27.73,83.66,Clear
KIGQ,09/21/2018 03:15 UTC,29.84,82.04,65.3,57.05,13.8,200.0,20.71,,,,,1.0,,,,10.0,,KIGQ 210315Z AUTO 20012G18KT 10SM CLR 28/19 A2984 RMK AO2  T02780185,,,,,,65.33,,SSW,29.19,27.74,83.96,Clear
KIGQ,09/21/2018 03:35 UTC,29.85,81.5,64.94,57.33,14.97,200.0,18.41,,,,,1.0,,,,10.0,,KIGQ 210335Z AUTO 20013G16KT 10SM CLR 28/18 A2985 RMK AO2  T02750183,,,,,,64.96,,SSW,29.2,27.78,83.3,Clear
KIGQ,09/21/2018 03:55 UTC,29.86,81.32,65.12,58.03,13.8,210.0,17.27,,,,,1.0,,,,10.0,,KIGQ 210355Z AUTO 21012G15KT 10SM CLR 27/18 A2986 RMK AO2  T02740184,,,,,,65.14,,SSW,29.21,27.78,83.18,Clear
KIGQ,09/21/2018 04:15 UTC,29.86,80.78,65.3,59.43,13.8,200.0,,,,,,1.0,,,,10.0,,KIGQ 210415Z AUTO 20012KT 10SM CLR 27/19 A2986 RMK AO2  T02710185,,,,,,65.32,,SSW,29.21,27.77,82.7,Clear
KIGQ,09/21/2018 04:35 UTC,29.86,80.24,65.48,60.86,12.66,200.0,18.41,,,,,1.0,,,,10.0,,KIGQ 210435Z AUTO 20011G16KT 10SM CLR 27/19 A2986 RMK AO2  T02680186,,,,,,65.49,,SSW,29.21,27.76,82.2,Clear
KIGQ,09/21/2018 04:55 UTC,29.86,79.88,65.84,62.36,13.8,200.0,,,,,,1.0,,,,10.0,,KIGQ 210455Z AUTO 20012KT 10SM CLR 27/19 A2986 RMK AO2  T02660188,,,,,,65.85,,SSW,29.21,27.74,,Clear
KIGQ,09/21/2018 05:15 UTC,29.86,79.34,66.2,64.26,13.8,200.0,,,,,,,,,,,,KIGQ 210515Z AUTO 20012KT 26/19 A2986 RMK AO2 T02630190 PWINO,,,,,,66.21,,SSW,29.21,27.73,,
KIGQ,09/21/2018 05:35 UTC,29.85,79.34,66.2,64.26,12.66,210.0,19.57,,,,,1.0,,,,10.0,,KIGQ 210535Z AUTO 21011G17KT 10SM CLR 26/19 A2985 RMK AO2  T02630190,,,,,,66.21,,SSW,29.2,27.72,,Clear
KIGQ,09/21/2018 05:55 UTC,29.85,79.34,66.2,64.26,14.97,210.0,19.57,,,,,1.0,,,,10.0,,KIGQ 210555Z AUTO 21013G17KT 10SM CLR 26/19 A2985 RMK AO2 6////  T02630190,,,,,,66.21,,SSW,29.2,27.72,,Clear
KIGQ,09/21/2018 06:15 UTC,29.84,79.34,65.84,63.47,13.8,210.0,21.85,,,,,1.0,,,,10.0,,KIGQ 210615Z AUTO 21012G19KT 10SM CLR 26/19 A2984 RMK AO2  T02630188,,,,,,65.85,,SSW,29.19,27.73,,Clear
KIGQ,09/21/2018 06:35 UTC,29.84,79.52,65.3,61.92,14.97,210.0,23.02,,,,,1.0,,,,10.0,,KIGQ 210635Z AUTO 21013G20KT 10SM CLR 26/19 A2984 RMK AO2  T02640185,,,,,,65.31,,SSW,29.19,27.76,,Clear
KIGQ,09/21/2018 06:55 UTC,29.83,79.16,65.12,62.27,14.97,210.0,23.02,,,,,1.0,,,,10.0,,KIGQ 210655Z AUTO 21013G20KT 10SM CLR 26/18 A2983 RMK AO2  T02620184,,,,,,65.13,,SSW,29.18,27.77,,Clear
KIGQ,09/21/2018 07:15 UTC,29.83,78.8,64.94,62.61,18.41,210.0,21.85,,,,,1.0,,,,10.0,,KIGQ 210715Z AUTO 21016G19KT 10SM CLR 26/18 A2983 RMK AO2  T02600183,,,,,,64.94,,SSW,29.18,27.79,,Clear
KIGQ,09/21/2018 07:35 UTC,29.82,78.8,64.76,62.22,16.11,210.0,20.71,,,,,1.0,,,,10.0,,KIGQ 210735Z AUTO 21014G18KT 10SM CLR 26/18 A2982 RMK AO2  T02600182,,,,,,64.76,,SSW,29.17,27.79,,Clear
KIGQ,09/21/2018 07:55 UTC,29.82,78.8,64.58,61.83,14.97,200.0,21.85,,,,,1.0,,,,10.0,,KIGQ 210755Z AUTO 20013G19KT 10SM CLR 26/18 A2982 RMK AO2  T02600181,,,,,,64.58,,SSW,29.17,27.8,,Clear
KIGQ,09/21/2018 08:15 UTC,29.82,78.62,64.4,61.81,17.27,210.0,24.16,,,,,1.0,,,,10.0,,KIGQ 210815Z AUTO 21015G21KT 10SM CLR 26/18 A2982 RMK AO2  T02590180,,,,,,64.4,,SSW,29.17,27.81,,Clear
KIGQ,09/21/2018 08:35 UTC,29.81,78.8,64.4,61.44,13.8,210.0,23.02,,,,,1.0,,,,10.0,,KIGQ 210835Z AUTO 21012G20KT 10SM CLR 26/18 A2981 RMK AO2  T02600180,,,,,,64.4,,SSW,29.16,27.8,,Clear
KIGQ,09/21/2018 08:55 UTC,29.81,79.7,64.04,58.92,16.11,210.0,26.46,,803.0,,,602.0,703.0,,,10.0,,KIGQ 210855Z AUTO 21014G23KT 10SM SCT060 BKN070 BKN080 27/18 A2981 RMK AO2 T02650178,,,7000.0,,,64.05,,SSW,29.16,27.81,,Mostly Cloudy
KIGQ,09/21/2018 09:15 UTC,29.8,80.06,64.04,58.23,16.11,210.0,24.16,,803.0,,,602.0,702.0,,,10.0,,KIGQ 210915Z AUTO 21014G21KT 10SM SCT060 SCT070 BKN080 27/18 A2980 RMK AO2 T02670178,,,8000.0,,,64.06,,SSW,29.15,27.8,81.69,Mostly Cloudy
KIGQ,09/21/2018 09:35 UTC,29.79,79.88,64.94,60.44,18.41,210.0,27.63,13.0,1102.0,,,602.0,902.0,,,10.0,,KIGQ 210935Z AUTO 21016G24KT 10SM -RA SCT060 SCT090 SCT110 27/18  A2979 RMK AO2 T02660183,,,,,,64.95,,SSW,29.14,27.73,,Light Rain
KIGQ,09/21/2018 09:55 UTC,29.8,78.26,66.02,66.17,23.02,210.0,32.21,5.0,903.0,,,603.0,803.0,,,10.0,,KIGQ 210955Z AUTO 21020G28KT 10SM VCTS BKN060 BKN080 BKN090 26/19  A2980 RMK AO2 LTG DSNT ALQS T02570189,,,6000.0,,,66.02,,SSW,29.15,27.69,,Thunder
KIGQ,09/21/2018 10:15 UTC,29.82,74.3,68.36,81.78,13.8,240.0,26.46,,1004.0,0.01,,462.0,603.0,,,7.0,,KIGQ 211015Z AUTO 24012G23KT 7SM -VCTSRA SCT046 BKN060 OVC100  24/20 A2982 RMK AO2 LTG DSNT NE SE AND SW P0001 T02350202,,,6000.0,,,68.35,,WSW,29.17,27.6,,Overcast
KIGQ,09/21/2018 10:40 UTC,29.83,73.04,69.26,87.98,17.27,230.0,27.63,,1104.0,0.08,,352.0,703.0,,,7.0,,KIGQ 211040Z AUTO 23015G24KT 7SM -VCTSRA SCT035 BKN070 OVC110  23/21 A2983 RMK AO2 LTG DSNT SW P0008 T02280207,,,7000.0,,,69.25,,SW,29.18,27.56,,Overcast
KIGQ,09/21/2018 10:55 UTC,29.83,72.86,68.9,87.43,17.27,230.0,28.77,14.0,1104.0,0.1,,502.0,703.0,,,10.0,,KIGQ 211055Z AUTO 23015G25KT 10SM +RA SCT050 BKN070 OVC110 23/21  A2983 RMK AO2 LTG DSNT SW P0010 T02270205,,,7000.0,,,68.89,,SW,29.18,27.59,,Heavy Rain
KIGQ,09/21/2018 11:15 UTC,29.83,72.68,69.26,89.05,13.8,220.0,20.71,13.0,853.0,0.01,,502.0,752.0,,,10.0,,KIGQ 211115Z AUTO 22012G18KT 10SM -RA SCT050 SCT075 BKN085 23/21  A2983 RMK AO2 P0001 T02260207,,,8500.0,,,69.25,,SW,29.18,27.57,,Light Rain
KIGQ,09/21/2018 11:35 UTC,29.82,72.5,68.9,88.5,11.5,220.0,,,,0.01,,1103.0,,,,10.0,,KIGQ 211135Z AUTO 22010KT 10SM BKN110 23/21 A2982 RMK AO2 P0001  T02250205,,,11000.0,,,68.89,,SW,29.17,27.59,,Mostly Cloudy
KIGQ,09/21/2018 11:55 UTC,29.82,72.5,68.54,87.41,12.66,220.0,18.41,,,0.01,,502.0,1102.0,0.11,,10.0,,KIGQ 211155Z AUTO 22011G16KT 10SM SCT050 SCT110 23/20 A2982 RMK AO2 P0001 60011 7//// T02250203 10267 20225,80.06,72.5,,,,68.53,,SW,29.17,27.61,,Partly Cloudy
KIGQ,09/21/2018 12:15 UTC,29.81,72.86,68.54,86.36,12.66,190.0,18.41,,,,,502.0,,,,10.0,,KIGQ 211215Z AUTO 19011G16KT 10SM SCT050 23/20 A2981 RMK AO2  T02270203,,,,,,68.53,,S,29.16,27.6,,Partly Cloudy
KIGQ,09/21/2018 12:35 UTC,29.81,72.5,68.9,88.5,13.8,210.0,17.27,,,,,1.0,,,,10.0,,KIGQ 211235Z AUTO 21012G15KT 10SM CLR 23/21 A2981 RMK AO2  T02250205,,,,,,68.89,,SSW,29.16,27.58,,Clear
KIGQ,09/21/2018 12:55 UTC,29.83,73.94,69.44,85.89,10.36,210.0,,,,,,1.0,,,,10.0,,KIGQ 211255Z AUTO 21009KT 10SM CLR 23/21 A2983 RMK AO2  T02330208,,,,,,69.43,,SSW,29.18,27.54,,Clear
KIGQ,09/21/2018 13:15 UTC,29.84,73.76,69.26,85.88,10.36,230.0,16.11,,,,,1.0,,,,10.0,,KIGQ 211315Z AUTO 23009G14KT 10SM CLR 23/21 A2984 RMK AO2  T02320207,,,,,,69.25,,SW,29.19,27.56,,Clear
KIGQ,09/21/2018 13:35 UTC,29.85,73.94,68.72,83.8,13.8,230.0,,,,,,1.0,,,,10.0,,KIGQ 211335Z AUTO 23012KT 10SM CLR 23/20 A2985 RMK AO2  T02330204,,,,,,68.71,,SW,29.2,27.61,,Clear
KIGQ,09/21/2018 13:55 UTC,29.86,74.3,66.38,76.39,13.8,240.0,20.71,,,,,312.0,,,,10.0,,KIGQ 211355Z AUTO 24012G18KT 10SM SCT031 24/19 A2986 RMK AO2  T02350191,,,,,,66.37,,WSW,29.21,27.78,,Partly Cloudy
KIGQ,09/21/2018 14:15 UTC,29.87,73.94,65.48,74.95,14.97,250.0,21.85,,,,,332.0,,,,10.0,,KIGQ 211415Z AUTO 25013G19KT 10SM SCT033 23/19 A2987 RMK AO2  T02330186,,,,,,65.47,,WSW,29.22,27.85,,Partly Cloudy
KIGQ,09/21/2018 14:35 UTC,29.87,74.3,64.04,70.43,13.8,260.0,19.57,,,,,442.0,,,,10.0,,KIGQ 211435Z AUTO 26012G17KT 10SM SCT044 24/18 A2987 RMK AO2  T02350178,,,,,,64.02,,W,29.22,27.94,,Partly Cloudy
KIGQ,09/21/2018 14:55 UTC,29.88,73.76,63.5,70.37,11.5,250.0,,,,,,443.0,,,,10.0,,KIGQ 211455Z AUTO 25010KT 10SM BKN044 23/18 A2988 RMK AO2  T02320175,,,4400.0,,,63.48,,WSW,29.23,27.99,,Mostly Cloudy
KIGQ,09/21/2018 15:15 UTC,29.9,73.58,63.5,70.79,12.66,250.0,18.41,,,,,353.0,444.0,,,10.0,,KIGQ 211515Z AUTO 25011G16KT 10SM BKN035 OVC044 23/18 A2990 RMK AO2 T02310175,,,3500.0,,,63.48,,WSW,29.25,28.01,,Overcast
KIGQ,09/21/2018 15:35 UTC,29.91,73.76,63.5,70.37,13.8,250.0,20.71,,,,,353.0,424.0,,,10.0,,KIGQ 211535Z AUTO 25012G18KT 10SM BKN035 OVC042 23/18 A2991 RMK AO2 T02320175,,,3500.0,,,63.48,,WSW,29.26,28.02,,Overcast
KIGQ,09/21/2018 15:55 UTC,29.91,74.3,63.68,69.55,11.5,250.0,20.71,,,,,313.0,383.0,,,10.0,,KIGQ 211555Z AUTO 25010G18KT 10SM BKN031 BKN038 24/18 A2991 RMK AO2 T02350176,,,3100.0,,,63.66,,WSW,29.26,28.0,,Mostly Cloudy
KIGQ,09/21/2018 16:15 UTC,29.91,74.66,64.04,69.58,12.66,250.0,19.57,,493.0,,,332.0,413.0,,,10.0,,KIGQ 211615Z AUTO 25011G17KT 10SM SCT033 BKN041 BKN049 24/18 A2991 RMK AO2 T02370178,,,4100.0,,,64.02,,WSW,29.26,27.97,,Mostly Cloudy
KIGQ,09/21/2018 16:35 UTC,29.92,74.66,62.96,67.0,14.97,270.0,23.02,,,,,333.0,413.0,,,10.0,,KIGQ 211635Z AUTO 27013G20KT 10SM BKN033 BKN041 24/17 A2992 RMK AO2 T02370172,,,3300.0,,,62.94,,W,29.27,28.05,,Mostly Cloudy
KIGQ,09/21/2018 16:55 UTC,29.92,75.2,62.06,63.76,17.27,270.0,24.16,,,,,332.0,412.0,,,10.0,,KIGQ 211655Z AUTO 27015G21KT 10SM SCT033 SCT041 24/17 A2992 RMK AO2 T02400167,,,,,,62.05,,W,29.27,28.1,,Partly Cloudy
KIGQ,09/21/2018 17:15 UTC,29.93,76.1,60.98,59.56,18.41,270.0,23.02,,,,,372.0,,,,10.0,,KIGQ 211715Z AUTO 27016G20KT 10SM SCT037 25/16 A2993 RMK AO2  T02450161,,,,,,60.97,,W,29.28,28.16,,Partly Cloudy
KIGQ,09/21/2018 17:35 UTC,29.93,77.72,61.7,57.91,16.11,260.0,21.85,,,,,432.0,482.0,,,10.0,,KIGQ 211735Z AUTO 26014G19KT 10SM SCT043 SCT048 25/17 A2993 RMK AO2 T02540165,,,,,,61.7,,W,29.28,28.1,,Partly Cloudy
KIGQ,09/21/2018 17:55 UTC,29.94,76.82,56.84,50.16,17.27,280.0,25.32,,,,,432.0,492.0,,,10.0,,KIGQ 211755Z AUTO 28015G22KT 10SM SCT043 SCT049 25/14 A2994 RMK AO2 T02490138 10255 20225,77.9,72.5,,,,56.83,,W,29.29,28.39,,Partly Cloudy
KIGQ,09/21/2018 18:15 UTC,29.96,76.46,55.76,48.82,19.57,270.0,27.63,,,,,1.0,,,,10.0,,KIGQ 211815Z AUTO 27017G24KT 10SM CLR 25/13 A2996 RMK AO2  T02470132,,,,,,55.75,,W,29.31,28.47,,Clear
KIGQ,09/21/2018 18:35 UTC,29.96,75.2,53.6,47.06,16.11,280.0,26.46,,,,,1.0,,,,10.0,,KIGQ 211835Z AUTO 28014G23KT 10SM CLR 24/12 A2996 RMK AO2  T02400120,,,,,,53.58,,W,29.31,28.58,,Clear
KIGQ,09/21/2018 18:55 UTC,29.97,74.3,53.24,47.86,17.27,290.0,23.02,,,,,1.0,,,,10.0,,KIGQ 211855Z AUTO 29015G20KT 10SM CLR 24/12 A2997 RMK AO2  T02350118,,,,,,53.21,,WNW,29.32,28.62,,Clear
KIGQ,09/21/2018 19:15 UTC,29.98,74.66,53.06,46.97,20.71,270.0,27.63,,,,,1.0,,,,10.0,,KIGQ 211915Z AUTO 27018G24KT 10SM CLR 24/12 A2998 RMK AO2  T02370117,,,,,,53.03,,W,29.33,28.63,,Clear
KIGQ,09/21/2018 19:35 UTC,29.98,75.38,53.42,46.47,11.5,290.0,19.57,,,,,1.0,,,,10.0,,KIGQ 211935Z AUTO 29010G17KT 10SM CLR 24/12 A2998 RMK AO2  T02410119,,,,,,53.4,,WNW,29.33,28.61,,Clear
KIGQ,09/21/2018 19:55 UTC,29.99,74.3,52.88,47.23,19.57,280.0,26.46,,,,,502.0,,,,10.0,,KIGQ 211955Z AUTO 28017G23KT 10SM SCT050 24/12 A2999 RMK AO2  T02350116,,,,,,52.85,,W,29.34,28.65,,Partly Cloudy
KIGQ,09/21/2018 20:15 UTC,30.0,73.76,52.16,46.83,16.11,290.0,25.32,,,,,1.0,,,,10.0,,KIGQ 212015Z AUTO 29014G22KT 10SM CLR 23/11 A3000 RMK AO2  T02320112,,,,,,52.12,,WNW,29.35,28.7,,Clear
KIGQ,09/21/2018 20:35 UTC,30.0,73.58,52.16,47.12,14.97,280.0,20.71,,,,,1.0,,,,10.0,,KIGQ 212035Z AUTO 28013G18KT 10SM CLR 23/11 A3000 RMK AO2  T02310112,,,,,,52.12,,W,29.35,28.7,,Clear
KIGQ,09/21/2018 20:55 UTC,30.02,72.86,51.08,46.38,11.5,300.0,19.57,,,,,1.0,,,,10.0,,KIGQ 212055Z AUTO 30010G17KT 10SM CLR 23/11 A3002 RMK AO2  T02270106,,,,,,51.03,,WNW,29.37,28.77,,Clear
KIGQ,09/21/2018 21:15 UTC,30.02,72.86,51.98,47.95,12.66,290.0,19.57,,,,,1.0,,,,10.0,,KIGQ 212115Z AUTO 29011G17KT 10SM CLR 23/11 A3002 RMK AO2  T02270111,,,,,,51.94,,WNW,29.37,28.73,,Clear
KIGQ,09/21/2018 21:35 UTC,30.03,70.88,50.9,49.26,10.36,300.0,21.85,,,,,1.0,,,,10.0,,KIGQ 212135Z AUTO 30009G19KT 10SM CLR 22/11 A3003 RMK AO2  T02160105,,,,,,50.84,,WNW,29.38,28.81,,Clear
KIGQ,09/21/2018 21:55 UTC,30.04,70.52,50.54,49.21,13.8,300.0,19.57,,,,,1.0,,,,10.0,,KIGQ 212155Z AUTO 30012G17KT 10SM CLR 21/10 A3004 RMK AO2  T02140103,,,,,,50.48,,WNW,29.39,28.83,,Clear
KIGQ,09/21/2018 22:15 UTC,30.04,69.8,50.54,50.43,10.36,300.0,,,,,,502.0,,,,10.0,,KIGQ 212215Z AUTO 30009KT 10SM SCT050 21/10 A3004 RMK AO2  T02100103,,,,,,50.48,,WNW,29.39,28.84,,Partly Cloudy
KIGQ,09/21/2018 22:40 UTC,30.06,70.16,50.54,49.81,11.5,310.0,,,,,,502.0,,,,10.0,,KIGQ 212240Z AUTO 31010KT 10SM SCT050 21/10 A3006 RMK AO2  T02120103,,,,,,50.47,,NW,29.41,28.86,,Partly Cloudy
KIGQ,09/21/2018 22:55 UTC,30.07,70.34,50.72,49.84,9.22,320.0,,,,,,503.0,,,,10.0,,KIGQ 212255Z AUTO 32008KT 10SM BKN050 21/10 A3007 RMK AO2  T02130104,,,5000.0,,,50.66,,NW,29.42,28.86,,Mostly Cloudy
KIGQ,09/21/2018 23:15 UTC,30.08,68.9,49.28,49.62,11.5,320.0,18.41,,,,,502.0,,,,10.0,,KIGQ 212315Z AUTO 32010G16KT 10SM SCT050 21/10 A3008 RMK AO2  T02050096,,,,,,49.21,,NW,29.43,28.94,,Partly Cloudy
KIGQ,09/21/2018 23:35 UTC,30.09,68.0,49.82,52.22,9.22,320.0,,,,,,1.0,,,,10.0,,KIGQ 212335Z AUTO 32008KT 10SM CLR 20/10 A3009 RMK AO2  T02000099,,,,,,49.75,,NW,29.44,28.94,,Clear
KIGQ,09/21/2018 23:55 UTC,30.1,67.1,48.92,52.08,12.66,320.0,18.41,,,,,1.0,,,,10.0,,KIGQ 212355Z AUTO 32011G16KT 10SM CLR 20/09 A3010 RMK AO2  T01950094 10250 20195,77.0,67.1,,,,48.84,,NW,29.45,28.99,,Clear
KIGQ,09/22/2018 00:15 UTC,30.11,66.38,48.2,51.97,9.22,330.0,,,,,,1.0,,,,10.0,,KIGQ 220015Z AUTO 33008KT 10SM CLR 19/09 A3011 RMK AO2  T01910090,,,,,,48.11,,NNW,29.46,29.03,,Clear
KIGQ,09/22/2018 00:35 UTC,30.13,66.02,48.2,52.63,6.91,340.0,,,,,,502.0,,,,10.0,,KIGQ 220035Z AUTO 34006KT 10SM SCT050 19/09 A3013 RMK AO2  T01890090,,,,,,48.12,,NNW,29.47,29.04,,Partly Cloudy
KIGQ,09/22/2018 00:55 UTC,30.14,65.66,48.2,53.29,14.97,330.0,23.02,,,,,503.0,,,,10.0,,KIGQ 220055Z AUTO 33013G20KT 10SM BKN050 19/09 A3014 RMK AO2  T01870090,,,5000.0,,,48.11,,NNW,29.48,29.06,,Mostly Cloudy
KIGQ,09/22/2018 01:15 UTC,30.16,63.32,47.3,55.89,12.66,350.0,19.57,,,,,502.0,,,,10.0,,KIGQ 220115Z AUTO 35011G17KT 310V010 10SM SCT050 17/09 A3016 RMK AO2 T01740085,,,,,,47.2,,N,29.5,29.13,,Partly Cloudy
KIGQ,09/22/2018 01:35 UTC,30.19,62.6,44.6,51.76,12.66,340.0,20.71,,,,,462.0,,,,10.0,,KIGQ 220135Z AUTO 34011G18KT 10SM SCT046 17/07 A3019 RMK AO2  T01700070,,,,,,44.49,,NNW,29.53,29.26,,Partly Cloudy
KIGQ,09/22/2018 01:55 UTC,30.2,62.42,44.06,51.02,12.66,340.0,17.27,,,,,483.0,,,,10.0,,KIGQ 220155Z AUTO 34011G15KT 10SM BKN048 17/07 A3020 RMK AO2  T01690067,,,4800.0,,,43.95,,NNW,29.54,29.28,,Mostly Cloudy
KIGQ,09/22/2018 02:15 UTC,30.21,61.88,44.42,52.72,10.36,340.0,17.27,,,,,483.0,,,,10.0,,KIGQ 220215Z AUTO 34009G15KT 10SM BKN048 17/07 A3021 RMK AO2  T01660069,,,4800.0,,,44.31,,NNW,29.55,29.29,,Mostly Cloudy
KIGQ,09/22/2018 02:35 UTC,30.22,61.34,44.78,54.48,8.05,340.0,,,,,,483.0,,,,10.0,,KIGQ 220235Z AUTO 34007KT 10SM BKN048 16/07 A3022 RMK AO2  T01630071,,,4800.0,,,44.67,,NNW,29.56,29.29,,Mostly Cloudy
KIGQ,09/22/2018 02:55 UTC,30.23,60.98,45.14,55.94,10.36,340.0,16.11,,,,,482.0,,,,10.0,,KIGQ 220255Z AUTO 34009G14KT 10SM SCT048 16/07 A3023 RMK AO2  T01610073,,,,,,45.03,,NNW,29.57,29.29,,Partly Cloudy
KIGQ,09/22/2018 03:15 UTC,30.24,60.44,45.5,57.8,8.05,350.0,,,,,,1.0,,,,10.0,,KIGQ 220315Z AUTO 35007KT 10SM CLR 16/08 A3024 RMK AO2  T01580075,,,,,,45.39,,N,29.58,29.3,,Clear
KIGQ,09/22/2018 03:35 UTC,30.24,60.26,45.32,57.78,8.05,360.0,,,,,,1.0,,,,10.0,,KIGQ 220335Z AUTO 36007KT 10SM CLR 16/07 A3024 RMK AO2  T01570074,,,,,,45.21,,N,29.58,29.3,,Clear
KIGQ,09/22/2018 03:55 UTC,30.24,59.9,45.86,59.73,11.5,360.0,18.41,,,,,373.0,,,,10.0,,KIGQ 220355Z AUTO 36010G16KT 10SM BKN037 16/08 A3024 RMK AO2  T01550077,,,3700.0,,,45.76,,N,29.58,29.29,,Mostly Cloudy
KIGQ,09/22/2018 04:15 UTC,30.24,59.0,44.6,58.8,12.66,350.0,,,,,,392.0,,,,10.0,,KIGQ 220415Z AUTO 35011KT 10SM SCT039 15/07 A3024 RMK AO2  T01500070,,,,,,44.49,,N,29.58,29.33,,Partly Cloudy
KIGQ,09/22/2018 04:35 UTC,30.25,58.82,44.78,59.58,9.22,360.0,,,,,,413.0,,,,10.0,,KIGQ 220435Z AUTO 36008KT 330V030 10SM BKN041 15/07 A3025 RMK AO2  T01490071,,,4100.0,,,44.67,,N,29.59,29.34,,Mostly Cloudy
KIGQ,09/22/2018 04:55 UTC,30.25,59.36,45.86,60.89,9.22,360.0,17.27,,,,,414.0,,,,10.0,,KIGQ 220455Z AUTO 36008G15KT 330V040 10SM OVC041 15/08 A3025 RMK AO2 T01520077,,,4100.0,,,45.76,,N,29.59,29.3,,Overcast
KIGQ,09/22/2018 05:15 UTC,30.25,59.9,46.76,61.8,8.05,360.0,17.27,,,,,373.0,434.0,,,10.0,,KIGQ 220515Z AUTO 36007G15KT 10SM BKN037 OVC043 16/08 A3025 RMK AO2 T01550082,,,3700.0,,,46.66,,N,29.59,29.27,,Overcast
KIGQ,09/22/2018 05:35 UTC,30.25,59.9,44.78,57.33,11.5,10.0,16.11,,,,,414.0,,,,10.0,,KIGQ 220535Z AUTO 01010G14KT 10SM OVC041 16/07 A3025 RMK AO2  T01550071,,,4100.0,,,44.67,,N,29.59,29.33,,Overcast
KIGQ,09/22/2018 05:55 UTC,30.26,59.9,44.96,57.73,9.22,360.0,18.41,,,,,434.0,,,,10.0,,KIGQ 220555Z AUTO 36008G16KT 330V030 10SM OVC043 16/07 A3026 RMK AO2 T01550072 10195 20148 402670148,67.1,58.64,4300.0,80.06,58.64,44.85,,N,29.6,29.34,,Overcast
KIGQ,09/22/2018 06:15 UTC,30.26,59.72,45.5,59.3,9.22,360.0,,,,,,363.0,454.0,,,10.0,,KIGQ 220615Z AUTO 36008KT 320V020 10SM BKN036 OVC045 15/08 A3026 RMK AO2 T01540075,,,3600.0,,,45.39,,N,29.6,29.32,,Overcast
KIGQ,09/22/2018 06:35 UTC,30.26,59.9,46.4,60.96,8.05,10.0,,,,,,363.0,434.0,,,10.0,,KIGQ 220635Z AUTO 01007KT 10SM BKN036 OVC043 16/08 A3026 RMK AO2  T01550080,,,3600.0,,,46.3,,N,29.6,29.29,,Overcast
KIGQ,09/22/2018 06:55 UTC,30.26,59.9,46.58,61.38,13.8,30.0,18.41,,464.0,,,332.0,393.0,,,,,KIGQ 220655Z AUTO 03012G16KT SCT033 BKN039 OVC046 16/08 A3026 RMK AO2 T01550081,,,3900.0,,,46.48,,NNE,29.6,29.28,,Overcast
KIGQ,09/22/2018 07:15 UTC,30.27,59.9,46.58,61.38,10.36,30.0,16.11,,,,,393.0,454.0,,,10.0,,KIGQ 220715Z AUTO 03009G14KT 10SM BKN039 OVC045 16/08 A3027 RMK AO2 T01550081,,,3900.0,,,46.48,,NNE,29.61,29.29,,Overcast
KIGQ,09/22/2018 07:35 UTC,30.26,59.54,46.76,62.6,8.05,20.0,,,,,,454.0,,,,10.0,,KIGQ 220735Z AUTO 02007KT 10SM OVC045 15/08 A3026 RMK AO2  T01530082,,,4500.0,,,46.67,,NNE,29.6,29.28,,Overcast
KIGQ,09/22/2018 07:55 UTC,30.26,59.54,46.4,61.75,11.5,20.0,18.41,,,,,362.0,454.0,,,10.0,,KIGQ 220755Z AUTO 02010G16KT 10SM SCT036 OVC045 15/08 A3026 RMK AO2 T01530080,,,4500.0,,,46.3,,NNE,29.6,29.29,,Overcast
KIGQ,09/22/2018 08:15 UTC,30.26,59.72,45.68,59.71,13.8,40.0,20.71,,,,,342.0,434.0,,,,,KIGQ 220815Z AUTO 04012G18KT SCT034 OVC043 15/08 A3026 RMK AO2  T01540076 PWINO,,,4300.0,,,45.58,,NE,29.6,29.32,,Overcast
KIGQ,09/22/2018 08:35 UTC,30.26,59.36,44.42,57.65,10.36,30.0,19.57,,,,,433.0,,,,,,KIGQ 220835Z AUTO 03009G17KT BKN043 15/07 A3026 RMK AO2 T01520069  PWINO,,,4300.0,,,44.31,,NNE,29.6,29.36,,Mostly Cloudy
KIGQ,09/22/2018 08:55 UTC,30.26,59.36,45.86,60.89,10.36,40.0,17.27,,,,,312.0,413.0,,,10.0,,KIGQ 220855Z AUTO 04009G15KT 10SM SCT031 BKN041 15/08 A3026 RMK AO2 T01520077,,,4100.0,,,45.76,,NE,29.6,29.31,,Mostly Cloudy
KIGQ,09/22/2018 09:15 UTC,30.27,58.64,46.58,64.2,12.66,60.0,23.02,,,,,343.0,414.0,,,,,KIGQ 220915Z AUTO 06011G20KT BKN034 OVC041 15/08 A3027 RMK AO2  T01480081 PWINO,,,3400.0,,,46.48,,ENE,29.61,29.31,,Overcast
KIGQ,09/22/2018 09:35 UTC,30.27,58.28,46.22,64.16,12.66,60.0,21.85,,,,,384.0,,,,,,KIGQ 220935Z AUTO 06011G19KT OVC038 15/08 A3027 RMK AO2 T01460079  PWINO,,,3800.0,,,46.12,,ENE,29.61,29.32,,Overcast
KIGQ,09/22/2018 09:55 UTC,30.28,58.1,45.68,63.26,8.05,50.0,16.11,,,,,374.0,,,,,,KIGQ 220955Z AUTO 05007G14KT OVC037 15/08 A3028 RMK AO2 T01450076  PWINO,,,3700.0,,,45.58,,NE,29.62,29.35,,Overcast
KIGQ,09/22/2018 10:15 UTC,30.28,57.92,45.5,63.24,8.05,60.0,16.11,,,,,394.0,,,,10.0,,KIGQ 221015Z AUTO 06007G14KT 10SM OVC039 14/08 A3028 RMK AO2  T01440075,,,3900.0,,,45.4,,ENE,29.62,29.36,,Overcast
KIGQ,09/22/2018 10:35 UTC,30.29,57.38,45.68,64.92,11.5,60.0,18.41,,,,,394.0,,,,10.0,,KIGQ 221035Z AUTO 06010G16KT 10SM OVC039 14/08 A3029 RMK AO2  T01410076,,,3900.0,,,45.58,,ENE,29.63,29.37,,Overcast
KIGQ,09/22/2018 10:55 UTC,30.29,56.48,45.5,66.61,10.36,60.0,25.32,,,,,373.0,,,,,,KIGQ 221055Z AUTO 06009G22KT BKN037 14/08 A3029 RMK AO2 T01360075  PWINO,,,3700.0,,,45.41,,ENE,29.63,29.38,,Mostly Cloudy
KIGQ,09/22/2018 11:15 UTC,30.3,56.3,45.14,66.13,10.36,60.0,,,,,,1.0,,,,,,KIGQ 221115Z AUTO 06009KT CLR 14/07 A3030 RMK AO2 T01350073  PWINO,,,,,,45.04,,ENE,29.64,29.4,,Clear
KIGQ,09/22/2018 11:35 UTC,30.3,55.76,44.24,65.16,11.5,60.0,,,,,,1.0,,,,,,KIGQ 221135Z AUTO 06010KT CLR 13/07 A3030 RMK AO2 T01320068  PWINO,,,,,,44.14,,ENE,29.64,29.43,,Clear
KIGQ,09/22/2018 11:55 UTC,30.31,55.04,43.7,65.52,10.36,50.0,17.27,,,,,1.0,,,,10.0,,KIGQ 221155Z AUTO 05009G15KT 10SM CLR 13/07 A3031 RMK AO2  T01280065 10155 20128,59.9,55.04,,,,43.59,,NE,29.65,29.47,,Clear
KIGQ,09/22/2018 12:15 UTC,30.32,54.68,43.52,65.93,10.36,40.0,17.27,,,,,1.0,,,,10.0,,KIGQ 221215Z AUTO 04009G15KT 10SM CLR 13/06 A3032 RMK AO2  T01260064,,,,,,43.42,,NE,29.66,29.48,,Clear
KIGQ,09/22/2018 12:35 UTC,30.32,54.68,43.16,65.03,9.22,50.0,,,,,,1.0,,,,10.0,,KIGQ 221235Z AUTO 05008KT 10SM CLR 13/06 A3032 RMK AO2  T01260062,,,,,,43.05,,NE,29.66,29.49,,Clear
KIGQ,09/22/2018 12:55 UTC,30.32,54.86,44.24,67.33,8.05,70.0,,,,,,302.0,,,,10.0,,KIGQ 221255Z AUTO 07007KT 10SM SCT030 13/07 A3032 RMK AO2  T01270068,,,,,,44.14,,ENE,29.66,29.46,,Partly Cloudy
KIGQ,09/22/2018 13:15 UTC,30.32,54.14,43.34,66.78,10.36,90.0,,,,,,303.0,,,,10.0,,KIGQ 221315Z AUTO 09009KT 10SM BKN030 12/06 A3032 RMK AO2  T01230063,,,3000.0,,,43.24,,E,29.66,29.49,,Mostly Cloudy
KIGQ,09/22/2018 13:35 UTC,30.32,55.58,42.8,62.07,9.22,90.0,,,,,,304.0,,,,10.0,,KIGQ 221335Z AUTO 09008KT 10SM OVC030 13/06 A3032 RMK AO2  T01310060,,,3000.0,,,42.68,,E,29.66,29.5,,Overcast
KIGQ,09/22/2018 13:55 UTC,30.33,56.48,42.98,60.5,11.5,90.0,,,,,,303.0,,,,10.0,,KIGQ 221355Z AUTO 09010KT 10SM BKN030 14/06 A3033 RMK AO2  T01360061,,,3000.0,,,42.86,,E,29.67,29.5,,Mostly Cloudy
KIGQ,09/22/2018 14:15 UTC,30.33,55.58,42.44,61.22,9.22,80.0,,,,,,302.0,,,,10.0,,KIGQ 221415Z AUTO 08008KT 10SM SCT030 13/06 A3033 RMK AO2  T01310058,,,,,,42.32,,E,29.67,29.52,,Partly Cloudy
KIGQ,09/22/2018 14:35 UTC,30.33,55.94,43.52,62.98,9.22,90.0,,,,,,302.0,,,,10.0,,KIGQ 221435Z AUTO 09008KT 10SM SCT030 13/06 A3033 RMK AO2  T01330064,,,,,,43.41,,E,29.67,29.48,,Partly Cloudy
KIGQ,09/22/2018 14:55 UTC,30.33,56.66,43.52,61.37,11.5,100.0,16.11,,,,,1.0,,,,10.0,,KIGQ 221455Z AUTO 10010G14KT 10SM CLR 14/06 A3033 RMK AO2  T01370064,,,,,,43.41,,E,29.67,29.48,,Clear
KIGQ,09/22/2018 15:15 UTC,30.33,58.1,43.52,58.27,10.36,60.0,16.11,,,,,1.0,,,,10.0,,KIGQ 221515Z AUTO 06009G14KT 10SM CLR 15/06 A3033 RMK AO2  T01450064,,,,,,43.41,,ENE,29.67,29.47,,Clear
KIGQ,09/22/2018 15:35 UTC,30.33,58.64,43.34,56.76,6.91,70.0,17.27,,,,,1.0,,,,10.0,,KIGQ 221535Z AUTO 07006G15KT 050V110 10SM CLR 15/06 A3033 RMK AO2  T01480063,,,,,,43.22,,ENE,29.67,29.47,,Clear
KIGQ,09/22/2018 15:55 UTC,30.33,59.54,43.52,55.35,6.91,60.0,,,,,,1.0,,,,10.0,,KIGQ 221555Z AUTO 06006KT 030V110 10SM CLR 15/06 A3033 RMK AO2  T01530064,,,,,,43.41,,ENE,29.67,29.46,,Clear
KIGQ,09/22/2018 16:15 UTC,30.32,59.0,41.9,53.02,6.91,110.0,,,,,,1.0,,,,10.0,,KIGQ 221615Z AUTO 11006KT 10SM CLR 15/06 A3032 RMK AO2  T01500055,,,,,,41.78,,ESE,29.66,29.5,,Clear
KIGQ,09/22/2018 16:35 UTC,30.32,60.26,42.08,51.04,5.75,90.0,,,,,,1.0,,,,10.0,,KIGQ 221635Z AUTO 09005KT 10SM CLR 16/06 A3032 RMK AO2  T01570056,,,,,,41.95,,E,29.66,29.48,,Clear
KIGQ,09/22/2018 16:55 UTC,30.31,60.08,42.26,51.73,3.44,70.0,,,,,,1.0,,,,10.0,,KIGQ 221655Z AUTO 07003KT 10SM CLR 16/06 A3031 RMK AO2  T01560057,,,,,,42.14,,ENE,29.65,29.47,,Clear
KIGQ,09/22/2018 17:15 UTC,30.3,60.98,42.8,51.15,10.36,100.0,,,,,,1.0,,,,10.0,,KIGQ 221715Z AUTO 10009KT 090V170 10SM CLR 16/06 A3030 RMK AO2  T01610060,,,,,,42.68,,E,29.64,29.43,,Clear
KIGQ,09/22/2018 17:35 UTC,30.29,61.52,42.8,50.19,5.75,20.0,,,,,,1.0,,,,10.0,,KIGQ 221735Z AUTO 02005KT 10SM CLR 16/06 A3029 RMK AO2  T01640060,,,,,,42.68,,NNE,29.63,29.42,,Clear
KIGQ,09/22/2018 17:55 UTC,30.29,62.06,43.7,50.97,8.05,70.0,,,,,,1.0,,,,10.0,,KIGQ 221755Z AUTO 07007KT 050V180 10SM CLR 17/07 A3029 RMK AO2  T01670065 10168 20121,62.24,53.78,,,,43.59,,ENE,29.63,29.39,,Clear
KIGQ,09/22/2018 18:15 UTC,30.29,62.6,43.52,49.67,3.44,70.0,,,,,,1.0,,,,10.0,,KIGQ 221815Z AUTO 07003KT 10SM CLR 17/06 A3029 RMK AO2  T01700064,,,,,,43.41,,ENE,29.63,29.39,,Clear
KIGQ,09/22/2018 18:35 UTC,30.28,64.04,45.5,50.92,0.0,0.0,,,,,,1.0,,,,10.0,,KIGQ 221835Z AUTO 00000KT 10SM CLR 18/08 A3028 RMK AO2  T01780075,,,,,,45.4,,N,29.62,29.31,,Clear
KIGQ,09/22/2018 18:55 UTC,30.26,63.32,46.4,54.03,6.91,30.0,,,,,,1.0,,,,10.0,,KIGQ 221855Z AUTO 03006KT 10SM CLR 17/08 A3026 RMK AO2  T01740080,,,,,,46.3,,NNE,29.6,29.26,,Clear
KIGQ,09/22/2018 19:15 UTC,30.25,63.86,46.76,53.74,9.22,60.0,,,,,,1.0,,,,10.0,,KIGQ 221915Z AUTO 06008KT 10SM CLR 18/08 A3025 RMK AO2  T01770082,,,,,,46.66,,ENE,29.59,29.24,,Clear
KIGQ,09/22/2018 19:35 UTC,30.24,63.68,47.3,55.19,9.22,50.0,,,,,,1.0,,,,10.0,,KIGQ 221935Z AUTO 05008KT 10SM CLR 18/09 A3024 RMK AO2  T01760085,,,,,,47.2,,NE,29.58,29.21,,Clear
KIGQ,09/22/2018 19:55 UTC,30.24,63.68,47.66,55.95,3.44,330.0,,,,,,1.0,,,,10.0,,KIGQ 221955Z AUTO 33003KT 10SM CLR 18/09 A3024 RMK AO2  T01760087,,,,,,47.57,,NNW,29.58,29.2,,Clear
KIGQ,09/22/2018 20:15 UTC,30.24,63.68,47.12,54.82,3.44,10.0,,,,,,1.0,,,,10.0,,KIGQ 222015Z AUTO 01003KT 10SM CLR 18/08 A3024 RMK AO2  T01760084,,,,,,47.02,,N,29.58,29.21,,Clear
KIGQ,09/22/2018 20:35 UTC,30.23,63.68,47.48,55.57,8.05,50.0,,,,,,1.0,,,,10.0,,KIGQ 222035Z AUTO 05007KT 10SM CLR 18/09 A3023 RMK AO2  T01760086,,,,,,47.39,,NE,29.57,29.19,,Clear
KIGQ,09/22/2018 20:55 UTC,30.23,63.68,47.48,55.57,8.05,50.0,,,,,,1.0,,,,10.0,,KIGQ 222055Z AUTO 05007KT 10SM CLR 18/09 A3023 RMK AO2  T01760086,,,,,,47.39,,NE,29.57,29.19,,Clear
KIGQ,09/22/2018 21:15 UTC,30.22,63.14,47.3,56.25,5.75,20.0,,,,,,1.0,,,,10.0,,KIGQ 222115Z AUTO 02005KT 10SM CLR 17/09 A3022 RMK AO2  T01730085,,,,,,47.21,,NNE,29.56,29.19,,Clear
KIGQ,09/22/2018 21:35 UTC,30.22,63.14,47.84,57.4,9.22,90.0,,,,,,1.0,,,,10.0,,KIGQ 222135Z AUTO 09008KT 10SM CLR 17/09 A3022 RMK AO2  T01730088,,,,,,47.75,,E,29.56,29.17,,Clear
KIGQ,09/22/2018 21:55 UTC,30.22,62.42,47.48,58.08,9.22,80.0,,,,,,1.0,,,,10.0,,KIGQ 222155Z AUTO 08008KT 10SM CLR 17/09 A3022 RMK AO2  T01690086,,,,,,47.38,,E,29.56,29.19,,Clear
KIGQ,09/22/2018 22:15 UTC,30.22,62.06,47.66,59.22,5.75,40.0,,,,,,1.0,,,,10.0,,KIGQ 222215Z AUTO 04005KT 10SM CLR 17/09 A3022 RMK AO2  T01670087,,,,,,47.57,,NE,29.56,29.19,,Clear
KIGQ,09/22/2018 22:35 UTC,30.22,61.7,47.66,59.98,6.91,60.0,,,,,,1.0,,,,10.0,,KIGQ 222235Z AUTO 06006KT 10SM CLR 17/09 A3022 RMK AO2  T01650087,,,,,,47.57,,ENE,29.56,29.19,,Clear
KIGQ,09/22/2018 22:55 UTC,30.21,60.98,48.2,62.78,5.75,20.0,,,,,,1.0,,,,10.0,,KIGQ 222255Z AUTO 02005KT 10SM CLR 16/09 A3021 RMK AO2  T01610090,,,,,,48.11,,NNE,29.55,29.17,,Clear
KIGQ,09/22/2018 23:15 UTC,30.21,60.08,48.2,64.82,4.61,50.0,,,,,,1.0,,,,10.0,,KIGQ 222315Z AUTO 05004KT 10SM CLR 16/09 A3021 RMK AO2  T01560090,,,,,,48.11,,NE,29.55,29.18,,Clear
KIGQ,09/22/2018 23:35 UTC,30.21,59.54,48.2,66.08,5.75,40.0,,,,,,1.0,,,,10.0,,KIGQ 222335Z AUTO 04005KT 10SM CLR 15/09 A3021 RMK AO2  T01530090,,,,,,48.11,,NE,29.55,29.18,,Clear
KIGQ,09/22/2018 23:55 UTC,30.21,58.46,48.2,68.68,5.75,50.0,,,,,,1.0,,,,10.0,,KIGQ 222355Z AUTO 05005KT 10SM CLR 15/09 A3021 RMK AO2 T01470090  10179 20147,64.22,58.46,,,,48.12,,NE,29.55,29.19,,Clear
KIGQ,09/23/2018 00:15 UTC,30.21,57.74,48.38,70.95,4.61,50.0,,,,,,1.0,,,,10.0,,KIGQ 230015Z AUTO 05004KT 10SM CLR 14/09 A3021 RMK AO2  T01430091,,,,,,48.3,,NE,29.55,29.19,,Clear
KIGQ,09/23/2018 00:35 UTC,30.21,57.2,48.38,72.34,4.61,50.0,,,,,,1.0,,,,10.0,,KIGQ 230035Z AUTO 05004KT 10SM CLR 14/09 A3021 RMK AO2  T01400091,,,,,,48.3,,NE,29.55,29.2,,Clear
KIGQ,09/23/2018 00:55 UTC,30.21,56.48,48.38,74.24,0.0,0.0,,,,,,1.0,,,,10.0,,KIGQ 230055Z AUTO 00000KT 10SM CLR 14/09 A3021 RMK AO2  T01360091,,,,,,48.31,,N,29.55,29.2,,Clear
KIGQ,09/23/2018 01:15 UTC,30.21,56.3,48.56,75.23,3.44,80.0,,,,,,1.0,,,,10.0,,KIGQ 230115Z AUTO 08003KT 10SM CLR 14/09 A3021 RMK AO2  T01350092,,,,,,48.49,,E,29.55,29.2,,Clear
KIGQ,09/23/2018 01:35 UTC,30.21,56.3,48.74,75.74,0.0,0.0,,,,,,1.0,,,,10.0,,KIGQ 230135Z AUTO 00000KT 10SM CLR 14/09 A3021 RMK AO2  T01350093,,,,,,48.67,,N,29.55,29.19,,Clear
KIGQ,09/23/2018 01:55 UTC,30.21,55.94,48.74,76.73,3.44,90.0,,,,,,1.0,,,,10.0,,KIGQ 230155Z AUTO 09003KT 10SM CLR 13/09 A3021 RMK AO2  T01330093,,,,,,48.67,,E,29.55,29.2,,Clear
KIGQ,09/23/2018 02:15 UTC,30.21,54.86,48.2,78.2,3.44,90.0,,,,,,1.0,,,,10.0,,KIGQ 230215Z AUTO 09003KT 10SM CLR 13/09 A3021 RMK AO2  T01270090,,,,,,48.13,,E,29.55,29.22,,Clear
KIGQ,09/23/2018 02:35 UTC,30.21,54.5,48.2,79.23,4.61,100.0,,,,,,1.0,,,,10.0,,KIGQ 230235Z AUTO 10004KT 10SM CLR 13/09 A3021 RMK AO2  T01250090,,,,,,48.14,,E,29.55,29.23,,Clear
KIGQ,09/23/2018 02:55 UTC,30.21,53.6,48.2,81.88,5.75,90.0,,,,,,1.0,,,,10.0,,KIGQ 230255Z AUTO 09005KT 10SM CLR 12/09 A3021 RMK AO2  T01200090,,,,,,48.14,,E,29.55,29.24,,Clear
KIGQ,09/23/2018 03:15 UTC,30.22,54.5,48.2,79.23,3.44,100.0,,,,,,1.0,,,,10.0,,KIGQ 230315Z AUTO 10003KT 10SM CLR 13/09 A3022 RMK AO2  T01250090,,,,,,48.14,,E,29.56,29.24,,Clear
KIGQ,09/23/2018 03:35 UTC,30.21,53.78,47.84,80.25,3.44,110.0,,,,,,1.0,,,,10.0,,KIGQ 230335Z AUTO 11003KT 10SM CLR 12/09 A3021 RMK AO2  T01210088,,,,,,47.78,,ESE,29.55,29.25,,Clear
KIGQ,09/23/2018 03:55 UTC,30.21,52.52,47.3,82.36,3.44,120.0,,,,,,1.0,,,,10.0,,KIGQ 230355Z AUTO 12003KT 10SM CLR 11/09 A3021 RMK AO2  T01140085,,,,,,47.25,,ESE,29.55,29.28,,Clear
KIGQ,09/23/2018 04:15 UTC,30.2,51.8,47.12,84.0,3.44,110.0,,,,,,1.0,,,,10.0,,KIGQ 230415Z AUTO 11003KT 10SM CLR 11/08 A3020 RMK AO2  T01100084,,,,,,47.07,,ESE,29.54,29.28,,Clear
KIGQ,09/23/2018 04:35 UTC,30.2,51.44,47.12,85.12,0.0,0.0,,,,,,1.0,,,,10.0,,KIGQ 230435Z AUTO 00000KT 10SM CLR 11/08 A3020 RMK AO2  T01080084,,,,,,47.07,,N,29.54,29.28,,Clear
KIGQ,09/23/2018 04:55 UTC,30.19,51.26,47.3,86.27,0.0,0.0,,,,,,1.0,,,,10.0,,KIGQ 230455Z AUTO 00000KT 10SM CLR 11/09 A3019 RMK AO2  T01070085,,,,,,47.26,,N,29.53,29.27,,Clear
KIGQ,09/23/2018 05:15 UTC,30.19,50.9,46.94,86.25,0.0,0.0,,,,,,1.0,,,,10.0,,KIGQ 230515Z AUTO 00000KT 10SM CLR 11/08 A3019 RMK AO2  T01050083,,,,,,46.9,,N,29.53,29.28,,Clear
KIGQ,09/23/2018 05:35 UTC,30.19,49.46,47.3,92.23,0.0,0.0,,,,,,1.0,,,,10.0,,KIGQ 230535Z AUTO 00000KT 10SM CLR 10/09 A3019 RMK AO2  T00970085,,,,,,47.27,,N,29.53,29.28,,Clear
KIGQ,09/23/2018 05:55 UTC,30.19,50.9,47.48,88.02,3.44,100.0,,,,,,1.0,,,,10.0,,KIGQ 230555Z AUTO 10003KT 10SM CLR 11/09 A3019 RMK AO2 T01050086  10146 20091 401790091,58.28,48.38,,64.22,48.38,47.44,,E,29.53,29.27,,Clear
KIGQ,09/23/2018 06:15 UTC,30.18,49.64,46.04,87.36,0.0,0.0,,,,,,1.0,,,,10.0,,KIGQ 230615Z AUTO 00000KT 10SM CLR 10/08 A3018 RMK AO2  T00980078,,,,,,46.0,,N,29.52,29.31,,Clear
KIGQ,09/23/2018 06:35 UTC,30.18,49.82,46.4,87.97,0.0,0.0,,,,,,1.0,,,,10.0,,KIGQ 230635Z AUTO 00000KT 10SM CLR 10/08 A3018 RMK AO2  T00990080,,,,,,46.36,,N,29.52,29.3,,Clear
KIGQ,09/23/2018 06:55 UTC,30.19,50.54,47.12,88.0,0.0,0.0,,,,,,1.0,,,,10.0,,KIGQ 230655Z AUTO 00000KT 10SM CLR 10/08 A3019 RMK AO2  T01030084,,,,,,47.08,,N,29.53,29.28,,Clear
KIGQ,09/23/2018 07:15 UTC,30.19,47.48,44.6,89.68,0.0,0.0,,,,,,1.0,,,,10.0,,KIGQ 230715Z AUTO 00000KT 10SM CLR 09/07 A3019 RMK AO2  T00860070,,,,,,44.57,,N,29.53,29.38,,Clear
KIGQ,09/23/2018 07:35 UTC,30.18,47.66,45.5,92.17,0.0,0.0,,,,,,1.0,,,,10.0,,KIGQ 230735Z AUTO 00000KT 10SM CLR 09/08 A3018 RMK AO2  T00870075,,,,,,45.47,,N,29.52,29.35,,Clear
KIGQ,09/23/2018 07:55 UTC,30.18,49.1,46.58,90.98,0.0,0.0,,,,,,1.0,,,,10.0,,KIGQ 230755Z AUTO 00000KT 10SM CLR 10/08 A3018 RMK AO2  T00950081,,,,,,46.55,,N,29.52,29.3,,Clear
KIGQ,09/23/2018 08:15 UTC,30.18,48.74,46.22,90.96,0.0,0.0,,,,,,1.0,,,,10.0,,KIGQ 230815Z AUTO 00000KT 10SM CLR 09/08 A3018 RMK AO2  T00930079,,,,,,46.19,,N,29.52,29.31,,Clear
KIGQ,09/23/2018 08:35 UTC,30.18,49.28,46.58,90.37,0.0,0.0,,,,,,1.0,,,,10.0,,KIGQ 230835Z AUTO 00000KT 10SM CLR 10/08 A3018 RMK AO2  T00960081,,,,,,46.55,,N,29.52,29.3,,Clear
KIGQ,09/23/2018 08:55 UTC,30.18,48.56,46.22,91.58,0.0,0.0,,,,,,1.0,,,,10.0,,KIGQ 230855Z AUTO 00000KT 10SM CLR 09/08 A3018 RMK AO2  T00920079,,,,,,46.19,,N,29.52,29.32,,Clear
KIGQ,09/23/2018 09:15 UTC,30.18,46.4,44.42,92.76,0.0,0.0,,,,,,1.0,,,,10.0,,KIGQ 230915Z AUTO 00000KT 10SM CLR 08/07 A3018 RMK AO2  T00800069,,,,,,44.39,,N,29.52,29.39,,Clear
KIGQ,09/23/2018 09:35 UTC,30.18,46.58,44.42,92.13,0.0,0.0,,,,,,1.0,,,,10.0,,KIGQ 230935Z AUTO 00000KT 10SM CLR 08/07 A3018 RMK AO2  T00810069,,,,,,44.39,,N,29.52,29.39,,Clear
KIGQ,09/23/2018 09:55 UTC,30.18,45.14,44.06,95.97,0.0,0.0,,31.0,,,,1.0,,,,5.0,,KIGQ 230955Z AUTO 00000KT 5SM BR CLR 07/07 A3018 RMK AO2  T00730067,,,,,,44.05,,N,29.52,29.41,,Mist
KIGQ,09/23/2018 10:15 UTC,30.18,44.78,44.24,97.96,0.0,0.0,,,,,,1.0,,,,7.0,,KIGQ 231015Z AUTO 00000KT 7SM CLR 07/07 A3018 RMK AO2  T00710068,,,,,,44.23,,N,29.52,29.41,,Clear
KIGQ,09/23/2018 10:35 UTC,30.18,44.06,43.52,97.96,0.0,0.0,,,,,,1.0,,,,10.0,,KIGQ 231035Z AUTO 00000KT 10SM CLR 07/06 A3018 RMK AO2  T00670064,,,,,,43.51,,N,29.52,29.43,,Clear
KIGQ,09/23/2018 10:55 UTC,30.18,45.5,45.14,98.64,0.0,0.0,,,,,,1.0,,,,10.0,,KIGQ 231055Z AUTO 00000KT 10SM CLR 08/07 A3018 RMK AO2  T00750073,,,,,,45.13,,N,29.52,29.38,,Clear
KIGQ,09/23/2018 11:15 UTC,30.18,45.86,45.32,97.97,0.0,0.0,,,,,,1.0,,,,10.0,,KIGQ 231115Z AUTO 00000KT 10SM CLR 08/07 A3018 RMK AO2  T00770074,,,,,,45.31,,N,29.52,29.37,,Clear
KIGQ,09/23/2018 11:35 UTC,30.18,46.04,45.32,97.31,0.0,0.0,,,,,,1.0,,,,10.0,,KIGQ 231135Z AUTO 00000KT 10SM CLR 08/07 A3018 RMK AO2  T00780074,,,,,,45.31,,N,29.52,29.37,,Clear
KIGQ,09/23/2018 11:55 UTC,30.19,44.42,43.52,96.62,0.0,0.0,,31.0,,,,75.0,,,,1.0,,KIGQ 231155Z AUTO 00000KT 1SM BR VV007 07/06 A3019 RMK AO2 VIS  1/4V5 T00690064 10105 20067,50.9,44.06,700.0,,,43.51,,N,29.53,29.44,,Mist
KIGQ,09/23/2018 12:15 UTC,30.19,45.14,44.6,97.97,0.0,0.0,,,,,,1.0,,,,10.0,,KIGQ 231215Z AUTO 00000KT 10SM CLR 07/07 A3019 RMK AO2  T00730070,,,,,,44.59,,N,29.53,29.4,,Clear
KIGQ,09/23/2018 12:35 UTC,30.19,47.48,46.94,97.99,0.0,0.0,,,,,,1.0,,,,10.0,,KIGQ 231235Z AUTO 00000KT 10SM CLR 09/08 A3019 RMK AO2  T00860083,,,,,,46.93,,N,29.53,29.31,,Clear
KIGQ,09/23/2018 12:55 UTC,30.2,50.54,48.56,92.89,0.0,0.0,,,,,,1.0,,,,10.0,,KIGQ 231255Z AUTO 00000KT 10SM CLR 10/09 A3020 RMK AO2  T01030092,,,,,,48.54,,N,29.54,29.24,,Clear
KIGQ,09/23/2018 13:15 UTC,30.2,52.7,49.28,88.11,0.0,0.0,,,,,,1.0,,,,10.0,,KIGQ 231315Z AUTO 00000KT 10SM CLR 12/10 A3020 RMK AO2  T01150096,,,,,,49.24,,N,29.54,29.2,,Clear
KIGQ,09/23/2018 13:35 UTC,30.2,54.5,50.36,85.88,3.44,100.0,,,,,,1.0,,,,10.0,,KIGQ 231335Z AUTO 10003KT 10SM CLR 13/10 A3020 RMK AO2  T01250102,,,,,,50.32,,E,29.54,29.14,,Clear
KIGQ,09/23/2018 13:55 UTC,30.21,56.12,50.9,82.61,3.44,100.0,,,,,,1.0,,,,10.0,,KIGQ 231355Z AUTO 10003KT 10SM CLR 13/11 A3021 RMK AO2  T01340105,,,,,,50.85,,E,29.55,29.12,,Clear
KIGQ,09/23/2018 14:15 UTC,30.21,57.92,51.8,80.04,3.44,100.0,,,,,,1.0,,,,10.0,,KIGQ 231415Z AUTO 10003KT 10SM CLR 14/11 A3021 RMK AO2  T01440110,,,,,,51.75,,E,29.55,29.07,,Clear
KIGQ,09/23/2018 14:35 UTC,30.21,59.72,51.98,75.56,3.44,110.0,,,,,,1.0,,,,10.0,,KIGQ 231435Z AUTO 11003KT 10SM CLR 15/11 A3021 RMK AO2  T01540111,,,,,,51.92,,ESE,29.55,29.04,,Clear
KIGQ,09/23/2018 14:55 UTC,30.21,61.52,52.34,71.83,5.75,130.0,,,,,,1.0,,,,10.0,,KIGQ 231455Z AUTO 13005KT 10SM CLR 16/11 A3021 RMK AO2  T01640113,,,,,,52.28,,SE,29.55,29.01,,Clear
KIGQ,09/23/2018 15:15 UTC,30.21,63.32,53.06,69.23,5.75,100.0,,,,,,1.0,,,,10.0,,KIGQ 231515Z AUTO 10005KT 10SM CLR 17/12 A3021 RMK AO2  T01740117,,,,,,53.0,,E,29.55,28.96,,Clear
KIGQ,09/23/2018 15:35 UTC,30.2,63.68,51.08,63.55,5.75,120.0,,,,,,1.0,,,,10.0,,KIGQ 231535Z AUTO 12005KT 10SM CLR 18/11 A3020 RMK AO2  T01760106,,,,,,51.0,,ESE,29.54,29.03,,Clear
KIGQ,09/23/2018 15:55 UTC,30.21,64.94,51.98,62.87,8.05,120.0,,,,,,1.0,,,,10.0,,KIGQ 231555Z AUTO 12007KT 10SM CLR 18/11 A3021 RMK AO2  T01830111,,,,,,51.91,,ESE,29.55,28.99,,Clear
KIGQ,09/23/2018 16:15 UTC,30.2,65.48,51.8,61.3,4.61,150.0,,,,,,1.0,,,,10.0,,KIGQ 231615Z AUTO 15004KT 10SM CLR 19/11 A3020 RMK AO2  T01860110,,,,,,51.73,,SSE,29.54,28.98,,Clear
KIGQ,09/23/2018 16:35 UTC,30.19,66.56,51.8,59.05,6.91,80.0,,,,,,1.0,,,,10.0,,KIGQ 231635Z AUTO 08006KT 10SM CLR 19/11 A3019 RMK AO2  T01920110,,,,,,51.73,,E,29.53,28.96,,Clear
KIGQ,09/23/2018 16:55 UTC,30.18,67.64,51.62,56.51,5.75,110.0,,,,,,1.0,,,,10.0,,KIGQ 231655Z AUTO 11005KT 10SM CLR 20/11 A3018 RMK AO2  T01980109,,,,,,51.55,,ESE,29.52,28.95,,Clear
KIGQ,09/23/2018 17:15 UTC,30.18,67.46,50.54,54.64,5.75,80.0,,,,,,1.0,,,,10.0,,KIGQ 231715Z AUTO 08005KT 10SM CLR 20/10 A3018 RMK AO2  T01970103,,,,,,50.47,,E,29.52,28.99,,Clear
KIGQ,09/23/2018 17:35 UTC,30.17,68.54,50.54,52.65,5.75,130.0,,,,,,1.0,,,,10.0,,KIGQ 231735Z AUTO 13005KT 10SM CLR 20/10 A3017 RMK AO2  T02030103,,,,,,50.47,,SE,29.51,28.97,,Clear
KIGQ,09/23/2018 17:55 UTC,30.16,69.44,50.9,51.74,6.91,130.0,,,,,,1.0,,,,10.0,,KIGQ 231755Z AUTO 13006KT 10SM CLR 21/11 A3016 RMK AO2 T02080105  10210 20066,69.8,43.88,,,,50.84,,SE,29.5,28.94,,Clear
KIGQ,09/23/2018 18:15 UTC,30.16,70.16,51.98,52.54,4.61,60.0,,,,,,1.0,,,,10.0,,KIGQ 231815Z AUTO 06004KT 10SM CLR 21/11 A3016 RMK AO2  T02120111,,,,,,51.92,,ENE,29.5,28.89,,Clear
KIGQ,09/23/2018 18:35 UTC,30.14,69.62,53.42,56.42,4.61,320.0,,,,,,1.0,,,,10.0,,KIGQ 231835Z AUTO 32004KT 10SM CLR 21/12 A3014 RMK AO2  T02090119,,,,,,53.36,,NW,29.48,28.81,,Clear
KIGQ,09/23/2018 18:55 UTC,30.13,69.62,53.42,56.42,11.5,40.0,,,,,,1.0,,,,10.0,,KIGQ 231855Z AUTO 04010KT 10SM CLR 21/12 A3013 RMK AO2  T02090119,,,,,,53.36,,NE,29.47,28.8,,Clear
KIGQ,09/23/2018 19:15 UTC,30.12,69.8,54.14,57.57,6.91,10.0,,,,,,1.0,,,,10.0,,KIGQ 231915Z AUTO 01006KT 10SM CLR 21/12 A3012 RMK AO2  T02100123,,,,,,54.09,,N,29.47,28.77,,Clear
KIGQ,09/23/2018 19:35 UTC,30.12,70.34,53.96,56.15,8.05,70.0,,,,,,1.0,,,,10.0,,KIGQ 231935Z AUTO 07007KT 10SM CLR 21/12 A3012 RMK AO2  T02130122,,,,,,53.91,,ENE,29.47,28.77,,Clear
KIGQ,09/23/2018 19:55 UTC,30.11,70.52,53.78,55.44,8.05,50.0,,,,,,1.0,,,,10.0,,KIGQ 231955Z AUTO 05007KT 10SM CLR 21/12 A3011 RMK AO2  T02140121,,,,,,53.73,,NE,29.46,28.77,,Clear
KIGQ,09/23/2018 20:15 UTC,30.11,70.16,54.68,58.0,3.44,40.0,,,,,,1.0,,,,10.0,,KIGQ 232015Z AUTO 04003KT 10SM CLR 21/13 A3011 RMK AO2  T02120126,,,,,,54.63,,NE,29.46,28.73,,Clear
KIGQ,09/23/2018 20:35 UTC,30.11,69.44,54.68,59.44,8.05,30.0,,,,,,1.0,,,,10.0,,KIGQ 232035Z AUTO 03007KT 10SM CLR 21/13 A3011 RMK AO2  T02080126,,,,,,54.63,,NNE,29.46,28.74,,Clear
KIGQ,09/23/2018 20:55 UTC,30.1,69.08,54.68,60.17,8.05,50.0,,,,,,1.0,,,,10.0,,KIGQ 232055Z AUTO 05007KT 10SM CLR 21/13 A3010 RMK AO2  T02060126,,,,,,54.62,,NE,29.45,28.73,,Clear
KIGQ,09/23/2018 21:15 UTC,30.1,69.26,54.68,59.8,8.05,40.0,,,,,,1.0,,,,10.0,,KIGQ 232115Z AUTO 04007KT 010V070 10SM CLR 21/13 A3010 RMK AO2  T02070126,,,,,,54.62,,NE,29.45,28.73,,Clear
KIGQ,09/23/2018 21:35 UTC,30.1,68.0,54.68,62.44,10.36,40.0,16.11,,,,,1.0,,,,10.0,,KIGQ 232135Z AUTO 04009G14KT 10SM CLR 20/13 A3010 RMK AO2  T02000126,,,,,,54.62,,NE,29.45,28.74,,Clear
KIGQ,09/23/2018 21:55 UTC,30.1,68.0,54.5,62.03,6.91,40.0,,,,,,1.0,,,,10.0,,KIGQ 232155Z AUTO 04006KT 10SM CLR 20/13 A3010 RMK AO2  T02000125,,,,,,54.44,,NE,29.45,28.75,,Clear
KIGQ,09/23/2018 22:15 UTC,30.1,67.1,54.68,64.41,5.75,50.0,,,,,,1.0,,,,10.0,,KIGQ 232215Z AUTO 05005KT 10SM CLR 20/13 A3010 RMK AO2  T01950126,,,,,,54.62,,NE,29.45,28.75,,Clear
KIGQ,09/23/2018 22:35 UTC,30.11,66.38,55.4,67.78,6.91,40.0,,,,,,1.0,,,,10.0,,KIGQ 232235Z AUTO 04006KT 10SM CLR 19/13 A3011 RMK AO2  T01910130,,,,,,55.35,,NE,29.46,28.74,,Clear
KIGQ,09/23/2018 22:55 UTC,30.11,65.66,55.58,69.94,8.05,50.0,,,,,,1.0,,,,10.0,,KIGQ 232255Z AUTO 05007KT 10SM CLR 19/13 A3011 RMK AO2  T01870131,,,,,,55.52,,NE,29.46,28.73,,Clear
KIGQ,09/23/2018 23:15 UTC,30.11,64.4,55.4,72.6,11.5,40.0,,,,,,1.0,,,,10.0,,KIGQ 232315Z AUTO 04010KT 10SM CLR 18/13 A3011 RMK AO2  T01800130,,,,,,55.35,,NE,29.46,28.76,,Clear
KIGQ,09/23/2018 23:35 UTC,30.11,63.5,55.04,73.95,9.22,60.0,,,,,,1.0,,,,10.0,,KIGQ 232335Z AUTO 06008KT 10SM CLR 18/13 A3011 RMK AO2  T01750128,,,,,,54.99,,ENE,29.46,28.78,,Clear
KIGQ,09/23/2018 23:55 UTC,30.11,62.6,54.86,75.82,6.91,40.0,,,,,,1.0,,,,10.0,,KIGQ 232355Z AUTO 04006KT 10SM CLR 17/13 A3011 RMK AO2 T01700127  10215 20170,70.7,62.6,,,,54.81,,NE,29.46,28.8,,Clear
KIGQ,09/24/2018 00:15 UTC,30.12,62.06,54.86,77.28,5.75,50.0,,,,,,1.0,,,,10.0,,KIGQ 240015Z AUTO 05005KT 10SM CLR 17/13 A3012 RMK AO2  T01670127,,,,,,54.81,,NE,29.47,28.81,,Clear
KIGQ,09/24/2018 00:35 UTC,30.12,61.7,55.22,79.3,5.75,40.0,,,,,,1.0,,,,10.0,,KIGQ 240035Z AUTO 04005KT 10SM CLR 17/13 A3012 RMK AO2  T01650129,,,,,,55.18,,NE,29.47,28.8,,Clear
KIGQ,09/24/2018 00:55 UTC,30.12,61.7,55.58,80.34,5.75,40.0,,,,,,1.0,,,,10.0,,KIGQ 240055Z AUTO 04005KT 10SM CLR 17/13 A3012 RMK AO2  T01650131,,,,,,55.54,,NE,29.47,28.79,,Clear
KIGQ,09/24/2018 01:15 UTC,30.12,61.16,55.94,82.96,4.61,50.0,,,,,,1.0,,,,10.0,,KIGQ 240115Z AUTO 05004KT 10SM CLR 16/13 A3012 RMK AO2  T01620133,,,,,,55.9,,NE,29.47,28.78,,Clear
KIGQ,09/24/2018 01:35 UTC,30.12,60.98,56.48,85.14,3.44,50.0,,,,,,1.0,,,,10.0,,KIGQ 240135Z AUTO 05003KT 10SM CLR 16/14 A3012 RMK AO2  T01610136,,,,,,56.45,,NE,29.47,28.75,,Clear
KIGQ,09/24/2018 01:55 UTC,30.12,60.98,56.66,85.69,3.44,60.0,,,,,,1.0,,,,10.0,,KIGQ 240155Z AUTO 06003KT 10SM CLR 16/14 A3012 RMK AO2  T01610137,,,,,,56.63,,ENE,29.47,28.75,,Clear
KIGQ,09/24/2018 02:15 UTC,30.12,60.8,57.2,87.94,0.0,0.0,,,,,,1.0,,,,10.0,,KIGQ 240215Z AUTO 00000KT 10SM CLR 16/14 A3012 RMK AO2  T01600140,,,,,,57.17,,N,29.47,28.72,,Clear
KIGQ,09/24/2018 02:35 UTC,30.13,59.9,57.2,90.79,3.44,80.0,,,,,,1.0,,,,10.0,,KIGQ 240235Z AUTO 08003KT 10SM CLR 16/14 A3013 RMK AO2  T01550140,,,,,,57.18,,E,29.47,28.73,,Clear
KIGQ,09/24/2018 02:55 UTC,30.13,59.54,57.2,91.96,4.61,80.0,,,,,,1.0,,,,10.0,,KIGQ 240255Z AUTO 08004KT 10SM CLR 15/14 A3013 RMK AO2  T01530140,,,,,,57.18,,E,29.47,28.74,,Clear
KIGQ,09/24/2018 03:15 UTC,30.13,60.08,55.58,85.08,6.91,90.0,,,,,,1.0,,,,10.0,,KIGQ 240315Z AUTO 09006KT 10SM CLR 16/13 A3013 RMK AO2  T01560131,,,,,,55.54,,E,29.47,28.8,,Clear
KIGQ,09/24/2018 03:35 UTC,30.13,59.0,53.96,83.36,6.91,90.0,,,,,,1.0,,,,10.0,,KIGQ 240335Z AUTO 09006KT 10SM CLR 15/12 A3013 RMK AO2  T01500122,,,,,,53.92,,E,29.47,28.89,,Clear
KIGQ,09/24/2018 03:55 UTC,30.13,59.54,52.88,78.6,5.75,90.0,,,,,,1.0,,,,10.0,,KIGQ 240355Z AUTO 09005KT 10SM CLR 15/12 A3013 RMK AO2  T01530116,,,,,,52.83,,E,29.47,28.92,,Clear
KIGQ,09/24/2018 04:15 UTC,30.13,58.82,51.98,78.02,6.91,100.0,,,,,,1.0,,,,10.0,,KIGQ 240415Z AUTO 10006KT 10SM CLR 15/11 A3013 RMK AO2  T01490111,,,,,,51.92,,E,29.47,28.97,,Clear
KIGQ,09/24/2018 04:35 UTC,30.13,58.1,51.62,79.0,5.75,100.0,,,,,,1.0,,,,10.0,,KIGQ 240435Z AUTO 10005KT 10SM CLR 15/11 A3013 RMK AO2  T01450109,,,,,,51.56,,E,29.47,28.99,,Clear
KIGQ,09/24/2018 04:55 UTC,30.13,57.74,51.26,78.97,8.05,100.0,,,,,,1.0,,,,10.0,,KIGQ 240455Z AUTO 10007KT 10SM CLR 14/11 A3013 RMK AO2  T01430107,,,,,,51.2,,E,29.47,29.01,,Clear
KIGQ,09/24/2018 05:15 UTC,30.13,58.64,51.44,76.98,9.22,110.0,,,,,,1.0,,,,10.0,,KIGQ 240515Z AUTO 11008KT 10SM CLR 15/11 A3013 RMK AO2  T01480108,,,,,,51.38,,ESE,29.47,28.99,,Clear
KIGQ,09/24/2018 05:35 UTC,30.13,58.1,51.44,78.48,8.05,110.0,,,,,,1.0,,,,10.0,,KIGQ 240535Z AUTO 11007KT 10SM CLR 15/11 A3013 RMK AO2  T01450108,,,,,,51.38,,ESE,29.47,29.0,,Clear
KIGQ,09/24/2018 05:55 UTC,30.13,57.38,51.44,80.53,6.91,110.0,,,,,,1.0,,,,10.0,,KIGQ 240555Z AUTO 11006KT 10SM CLR 14/11 A3013 RMK AO2 T01410108  10170 20141 402150066,62.6,57.38,,70.7,43.88,51.39,,ESE,29.47,29.0,,Clear
KIGQ,09/24/2018 06:15 UTC,30.13,57.38,51.62,81.07,6.91,110.0,,,,,,1.0,,,,10.0,,KIGQ 240615Z AUTO 11006KT 10SM CLR 14/11 A3013 RMK AO2  T01410109,,,,,,51.57,,ESE,29.47,29.0,,Clear
KIGQ,09/24/2018 06:35 UTC,30.13,56.66,51.44,82.65,8.05,110.0,,,,,,1.0,,,,10.0,,KIGQ 240635Z AUTO 11007KT 10SM CLR 14/11 A3013 RMK AO2  T01370108,,,,,,51.39,,ESE,29.47,29.01,,Clear
KIGQ,09/24/2018 06:55 UTC,30.13,57.02,51.62,82.13,6.91,110.0,,,,,,1.0,,,,10.0,,KIGQ 240655Z AUTO 11006KT 10SM CLR 14/11 A3013 RMK AO2  T01390109,,,,,,51.57,,ESE,29.47,29.0,,Clear
KIGQ,09/24/2018 07:15 UTC,30.13,56.66,51.44,82.65,6.91,110.0,,,,,,1.0,,,,10.0,,KIGQ 240715Z AUTO 11006KT 10SM CLR 14/11 A3013 RMK AO2  T01370108,,,,,,51.39,,ESE,29.47,29.01,,Clear
KIGQ,09/24/2018 07:35 UTC,30.12,56.12,51.26,83.72,6.91,110.0,,,,,,1.0,,,,10.0,,KIGQ 240735Z AUTO 11006KT 10SM CLR 13/11 A3012 RMK AO2  T01340107,,,,,,51.21,,ESE,29.47,29.02,,Clear
KIGQ,09/24/2018 07:55 UTC,30.11,56.3,51.62,84.29,5.75,110.0,,,,,,1.0,,,,10.0,,KIGQ 240755Z AUTO 11005KT 10SM CLR 14/11 A3011 RMK AO2  T01350109,,,,,,51.58,,ESE,29.46,29.0,,Clear
KIGQ,09/24/2018 08:15 UTC,30.11,56.3,51.62,84.29,8.05,120.0,,,,,,1.0,,,,10.0,,KIGQ 240815Z AUTO 12007KT 10SM CLR 14/11 A3011 RMK AO2  T01350109,,,,,,51.58,,ESE,29.46,29.0,,Clear
KIGQ,09/24/2018 08:35 UTC,30.11,56.48,51.62,83.74,6.91,120.0,,,,,,1.0,,,,10.0,,KIGQ 240835Z AUTO 12006KT 10SM CLR 14/11 A3011 RMK AO2  T01360109,,,,,,51.57,,ESE,29.46,29.0,,Clear
KIGQ,09/24/2018 08:55 UTC,30.11,56.12,51.62,84.84,8.05,130.0,,,,,,1.0,,,,10.0,,KIGQ 240855Z AUTO 13007KT 10SM CLR 13/11 A3011 RMK AO2  T01340109,,,,,,51.58,,SE,29.46,29.0,,Clear
KIGQ,09/24/2018 09:15 UTC,30.11,55.94,51.62,85.39,8.05,120.0,,,,,,1.0,,,,10.0,,KIGQ 240915Z AUTO 12007KT 10SM CLR 13/11 A3011 RMK AO2  T01330109,,,,,,51.58,,ESE,29.46,29.0,,Clear
KIGQ,09/24/2018 09:35 UTC,30.11,55.94,51.8,85.96,8.05,130.0,,,,,,1.0,,,,10.0,,KIGQ 240935Z AUTO 13007KT 10SM CLR 13/11 A3011 RMK AO2  T01330110,,,,,,51.76,,SE,29.46,28.99,,Clear
KIGQ,09/24/2018 09:55 UTC,30.11,55.94,51.44,84.83,6.91,130.0,,,,,,1.0,,,,10.0,,KIGQ 240955Z AUTO 13006KT 10SM CLR 13/11 A3011 RMK AO2  T01330108,,,,,,51.4,,SE,29.46,29.01,,Clear
KIGQ,09/24/2018 10:15 UTC,30.11,55.58,51.44,85.94,6.91,130.0,,,,,,1.0,,,,10.0,,KIGQ 241015Z AUTO 13006KT 10SM CLR 13/11 A3011 RMK AO2  T01310108,,,,,,51.4,,SE,29.46,29.01,,Clear
KIGQ,09/24/2018 10:35 UTC,30.11,55.76,51.44,85.38,5.75,120.0,,,,,,1.0,,,,10.0,,KIGQ 241035Z AUTO 12005KT 10SM CLR 13/11 A3011 RMK AO2  T01320108,,,,,,51.4,,ESE,29.46,29.01,,Clear
KIGQ,09/24/2018 10:55 UTC,30.11,55.22,51.26,86.5,5.75,110.0,,,,,,1.0,,,,10.0,,KIGQ 241055Z AUTO 11005KT 10SM CLR 13/11 A3011 RMK AO2  T01290107,,,,,,51.22,,ESE,29.46,29.02,,Clear
KIGQ,09/24/2018 11:15 UTC,30.1,54.5,51.26,88.79,6.91,110.0,,,,,,1.0,,,,10.0,,KIGQ 241115Z AUTO 11006KT 10SM CLR 13/11 A3010 RMK AO2  T01250107,,,,,,51.23,,ESE,29.45,29.02,,Clear
KIGQ,09/24/2018 11:35 UTC,30.1,54.86,51.62,88.81,6.91,110.0,,,,,,1.0,,,,10.0,,KIGQ 241135Z AUTO 11006KT 10SM CLR 13/11 A3010 RMK AO2  T01270109,,,,,,51.59,,ESE,29.45,29.0,,Clear
KIGQ,09/24/2018 11:55 UTC,30.1,54.68,51.8,89.99,6.91,110.0,,,,,,1.0,,,,10.0,,KIGQ 241155Z AUTO 11006KT 10SM CLR 13/11 A3010 RMK AO2 T01260110  10143 20125,57.74,54.5,,,,51.77,,ESE,29.45,29.0,,Clear
KIGQ,09/24/2018 12:15 UTC,30.1,55.76,52.34,88.26,4.61,120.0,,,,,,1.0,,,,10.0,,KIGQ 241215Z AUTO 12004KT 10SM CLR 13/11 A3010 RMK AO2  T01320113,,,,,,52.31,,ESE,29.45,28.97,,Clear
KIGQ,09/24/2018 12:35 UTC,30.1,57.02,52.88,86.03,5.75,120.0,,,,,,1.0,,,,10.0,,KIGQ 241235Z AUTO 12005KT 10SM CLR 14/12 A3010 RMK AO2  T01390116,,,,,,52.84,,ESE,29.45,28.93,,Clear
KIGQ,09/24/2018 12:55 UTC,30.1,58.28,53.6,84.42,8.05,120.0,,,,,,1.0,,,,10.0,,KIGQ 241255Z AUTO 12007KT 10SM CLR 15/12 A3010 RMK AO2  T01460120,,,,,,53.56,,ESE,29.45,28.89,,Clear
KIGQ,09/24/2018 13:15 UTC,30.09,59.54,54.68,83.94,9.22,120.0,,,,,,1.0,,,,10.0,,KIGQ 241315Z AUTO 12008KT 10SM CLR 15/13 A3009 RMK AO2  T01530126,,,,,,54.64,,ESE,29.44,28.82,,Clear
KIGQ,09/24/2018 13:35 UTC,30.09,60.08,55.76,85.64,9.22,110.0,,,,,,83.0,,,,10.0,,KIGQ 241335Z AUTO 11008KT 10SM BKN008 16/13 A3009 RMK AO2  T01560132,,,800.0,,,55.73,,ESE,29.44,28.77,,Mostly Cloudy
KIGQ,09/24/2018 13:55 UTC,30.08,61.88,57.38,85.19,6.91,130.0,,,,,,82.0,123.0,,,10.0,,KIGQ 241355Z AUTO 13006KT 10SM SCT008 BKN012 17/14 A3008 RMK AO2  LTG DSNT SW T01660141,,,1200.0,,,57.35,,SE,29.43,28.66,,Mostly Cloudy
KIGQ,09/24/2018 14:15 UTC,30.08,62.6,57.74,84.14,8.05,130.0,,,,,,104.0,,,,10.0,,KIGQ 241415Z AUTO 13007KT 10SM OVC010 17/14 A3008 RMK AO2 LTG DSNT  SW T01700143,,,1000.0,,,57.71,,SE,29.43,28.64,,Overcast
KIGQ,09/24/2018 14:35 UTC,30.08,62.96,58.28,84.71,10.36,140.0,,,,,,104.0,,,,10.0,,KIGQ 241435Z AUTO 14009KT 10SM OVC010 17/15 A3008 RMK AO2  T01720146,,,1000.0,,,58.25,,SE,29.43,28.61,,Overcast
KIGQ,09/24/2018 14:55 UTC,30.08,63.5,59.0,85.29,8.05,130.0,,,,,,104.0,,,,10.0,,KIGQ 241455Z AUTO 13007KT 10SM OVC010 18/15 A3008 RMK AO2  T01750150,,,1000.0,,,58.97,,SE,29.43,28.56,,Overcast
KIGQ,09/24/2018 15:15 UTC,30.08,64.22,59.54,84.79,8.05,130.0,,,,,,104.0,,,,10.0,,KIGQ 241515Z AUTO 13007KT 10SM OVC010 18/15 A3008 RMK AO2  T01790153,,,1000.0,,,59.51,,SE,29.43,28.53,,Overcast
KIGQ,09/24/2018 15:35 UTC,30.08,64.58,59.9,84.81,8.05,120.0,,,,,,104.0,,,,10.0,,KIGQ 241535Z AUTO 12007KT 10SM OVC010 18/16 A3008 RMK AO2  T01810155,,,1000.0,,,59.87,,ESE,29.43,28.5,,Overcast
KIGQ,09/24/2018 15:55 UTC,30.07,65.3,60.08,83.24,8.05,110.0,,,,,,104.0,,,,10.0,,KIGQ 241555Z AUTO 11007KT 10SM OVC010 19/16 A3007 RMK AO2  T01850156,,,1000.0,,,60.05,,ESE,29.42,28.48,,Overcast
KIGQ,09/24/2018 16:15 UTC,30.06,66.38,60.8,82.26,6.91,120.0,,,,,,104.0,,,,10.0,,KIGQ 241615Z AUTO 12006KT 10SM OVC010 19/16 A3006 RMK AO2  T01910160,,,1000.0,,,60.77,,ESE,29.41,28.41,,Overcast
KIGQ,09/24/2018 16:35 UTC,30.05,66.2,60.62,82.24,5.75,120.0,,,,,,104.0,,,,10.0,,KIGQ 241635Z AUTO 12005KT 10SM OVC010 19/16 A3005 RMK AO2  T01900159,,,1000.0,,,60.59,,ESE,29.4,28.42,,Overcast
KIGQ,09/24/2018 16:55 UTC,30.05,66.38,60.8,82.26,8.05,120.0,,,,,,124.0,,,,10.0,,KIGQ 241655Z AUTO 12007KT 10SM OVC012 19/16 A3005 RMK AO2  T01910160,,,1200.0,,,60.77,,ESE,29.4,28.4,,Overcast
KIGQ,09/24/2018 17:15 UTC,30.04,66.2,61.16,83.83,4.61,120.0,,13.0,,,,124.0,,,,10.0,,KIGQ 241715Z AUTO 12004KT 10SM -RA OVC012 19/16 A3004 RMK AO2  T01900162,,,1200.0,,,61.13,,ESE,29.39,28.38,,Light Rain
KIGQ,09/24/2018 17:35 UTC,30.03,67.1,61.34,81.79,4.61,130.0,,,,,,124.0,,,,10.0,,KIGQ 241735Z AUTO 13004KT 10SM OVC012 20/16 A3003 RMK AO2  T01950163,,,1200.0,,,61.31,,SE,29.38,28.35,,Overcast
KIGQ,09/24/2018 17:55 UTC,30.02,67.64,61.52,80.79,5.75,90.0,,,,,,124.0,,,,10.0,,KIGQ 241755Z AUTO 09005KT 10SM OVC012 20/16 A3002 RMK AO2  T01980164 10199 20126,67.82,54.68,1200.0,,,61.49,,E,29.37,28.32,,Overcast
KIGQ,09/24/2018 18:15 UTC,30.02,68.0,61.7,80.31,6.91,130.0,,,,,,144.0,,,,10.0,,KIGQ 241815Z AUTO 13006KT 10SM OVC014 20/17 A3002 RMK AO2  T02000165,,,1400.0,,,61.67,,SE,29.37,28.3,,Overcast
KIGQ,09/24/2018 18:35 UTC,30.01,67.28,62.6,84.97,6.91,130.0,,14.0,,0.01,,144.0,,,,5.0,,KIGQ 241835Z AUTO 13006KT 5SM +RA OVC014 20/17 A3001 RMK AO2 P0001  T01960170,,,1400.0,,,62.58,,SE,29.36,28.25,,Heavy Rain
KIGQ,09/24/2018 18:55 UTC,30.0,66.56,63.14,88.78,0.0,0.0,,13.0,,0.02,,144.0,,,,7.0,,KIGQ 241855Z AUTO 00000KT 7SM -RA OVC014 19/17 A3000 RMK AO2 P0002  T01920173,,,1400.0,,,63.12,,N,29.35,28.22,,Light Rain
KIGQ,09/24/2018 19:15 UTC,29.99,67.82,64.22,88.28,0.0,0.0,,13.0,,,,164.0,,,,7.0,,KIGQ 241915Z AUTO 00000KT 7SM -RA OVC016 20/18 A2999 RMK AO2  T01990179,,,1600.0,,,64.2,,N,29.34,28.13,,Light Rain
KIGQ,09/24/2018 19:35 UTC,29.98,67.82,63.5,86.08,3.44,150.0,,13.0,,,,122.0,184.0,,,10.0,,KIGQ 241935Z AUTO 15003KT 10SM -RA SCT012 OVC018 20/18 A2998 RMK AO2 T01990175,,,1800.0,,,63.48,,SSE,29.33,28.16,,Light Rain
KIGQ,09/24/2018 19:55 UTC,29.97,68.54,63.68,84.51,0.0,0.0,,,,,,204.0,,,,10.0,,KIGQ 241955Z AUTO 00000KT 10SM OVC020 20/18 A2997 RMK AO2  T02030176,,,2000.0,,,63.66,,N,29.32,28.13,,Overcast
KIGQ,09/24/2018 20:15 UTC,29.96,68.9,63.68,83.48,3.44,140.0,,,,,,204.0,,,,10.0,,KIGQ 242015Z AUTO 14003KT 10SM OVC020 21/18 A2996 RMK AO2  T02050176,,,2000.0,,,63.66,,SE,29.31,28.12,,Overcast
KIGQ,09/24/2018 20:35 UTC,29.95,69.98,64.4,82.51,0.0,0.0,,,,,,224.0,,,,10.0,,KIGQ 242035Z AUTO 00000KT 10SM OVC022 21/18 A2995 RMK AO2  T02110180,,,2200.0,,,64.38,,N,29.3,28.05,,Overcast
KIGQ,09/24/2018 20:55 UTC,29.95,71.42,64.04,77.59,6.91,120.0,,,704.0,,0.02,222.0,363.0,,,10.0,,KIGQ 242055Z AUTO 12006KT 10SM SCT022 BKN036 OVC070 22/18 A2995 RMK AO2 60002 T02190178,,,3600.0,,,64.02,,ESE,29.3,28.05,,Overcast
KIGQ,09/24/2018 21:15 UTC,29.94,71.06,63.5,77.07,5.75,130.0,,,,,,263.0,364.0,,,10.0,,KIGQ 242115Z AUTO 13005KT 10SM BKN026 OVC036 22/18 A2994 RMK AO2  T02170175,,,2600.0,,,63.48,,SE,29.29,28.08,,Overcast
KIGQ,09/24/2018 21:35 UTC,29.94,71.06,62.78,75.15,5.75,130.0,,,,,,244.0,,,,10.0,,KIGQ 242135Z AUTO 13005KT 10SM OVC024 22/17 A2994 RMK AO2  T02170171,,,2400.0,,,62.75,,SE,29.29,28.12,,Overcast
KIGQ,09/24/2018 21:55 UTC,29.93,71.6,63.86,76.63,5.75,130.0,,,,,,244.0,,,,10.0,,KIGQ 242155Z AUTO 13005KT 10SM OVC024 22/18 A2993 RMK AO2  T02200177,,,2400.0,,,63.84,,SE,29.28,28.04,,Overcast
KIGQ,09/24/2018 22:15 UTC,29.93,71.78,64.04,76.65,3.44,150.0,,,,,,262.0,344.0,,,10.0,,KIGQ 242215Z AUTO 15003KT 10SM SCT026 OVC034 22/18 A2993 RMK AO2  T02210178,,,3400.0,,,64.02,,SSE,29.28,28.03,,Overcast
KIGQ,09/24/2018 22:35 UTC,29.93,72.32,64.22,75.74,0.0,0.0,,,,,,343.0,,,,10.0,,KIGQ 242235Z AUTO 00000KT 10SM BKN034 22/18 A2993 RMK AO2  T02240179,,,3400.0,,,64.2,,N,29.28,28.01,,Mostly Cloudy
KIGQ,09/24/2018 22:55 UTC,29.93,71.6,64.4,78.09,0.0,0.0,,,,,,303.0,353.0,,,10.0,,KIGQ 242255Z AUTO 00000KT 10SM BKN030 BKN035 22/18 A2993 RMK AO2  T02200180,,,3000.0,,,64.38,,N,29.28,28.01,,Mostly Cloudy
KIGQ,09/24/2018 23:15 UTC,29.92,71.06,64.58,80.03,4.61,130.0,,,,,,264.0,,,,10.0,,KIGQ 242315Z AUTO 13004KT 10SM OVC026 22/18 A2992 RMK AO2  T02170181,,,2600.0,,,64.56,,SE,29.27,27.99,,Overcast
KIGQ,09/24/2018 23:35 UTC,29.92,71.42,64.04,77.59,3.44,120.0,,,,,,264.0,,,,10.0,,KIGQ 242335Z AUTO 12003KT 10SM OVC026 22/18 A2992 RMK AO2  T02190178,,,2600.0,,,64.02,,ESE,29.27,28.02,,Overcast
KIGQ,09/24/2018 23:55 UTC,29.92,70.88,64.4,80.02,0.0,0.0,,,,,,264.0,,0.02,,10.0,,KIGQ 242355Z AUTO 00000KT 10SM OVC026 22/18 A2992 RMK AO2 60002  T02160180 10225 20191,72.5,66.38,2600.0,,,64.38,,N,29.27,28.01,,Overcast
KIGQ,09/25/2018 00:15 UTC,29.92,70.7,64.4,80.51,3.44,110.0,,,,,,264.0,,,,10.0,,KIGQ 250015Z AUTO 11003KT 10SM OVC026 22/18 A2992 RMK AO2  T02150180,,,2600.0,,,64.38,,ESE,29.27,28.01,,Overcast
KIGQ,09/25/2018 00:35 UTC,29.93,70.7,64.58,81.02,3.44,140.0,,,,,,244.0,,,,10.0,,KIGQ 250035Z AUTO 14003KT 10SM OVC024 22/18 A2993 RMK AO2  T02150181,,,2400.0,,,64.56,,SE,29.28,28.01,,Overcast
KIGQ,09/25/2018 00:55 UTC,29.93,70.7,64.58,81.02,3.44,140.0,,,,,,244.0,,,,10.0,,KIGQ 250055Z AUTO 14003KT 10SM OVC024 22/18 A2993 RMK AO2  T02150181,,,2400.0,,,64.56,,SE,29.28,28.01,,Overcast
KIGQ,09/25/2018 01:15 UTC,29.93,70.52,64.58,81.51,3.44,170.0,,,,,,244.0,,,,10.0,,KIGQ 250115Z AUTO 17003KT 10SM OVC024 21/18 A2993 RMK AO2  T02140181,,,2400.0,,,64.56,,S,29.28,28.01,,Overcast
KIGQ,09/25/2018 01:35 UTC,29.94,70.7,64.4,80.51,5.75,140.0,,,,,,244.0,,,,10.0,,KIGQ 250135Z AUTO 14005KT 10SM OVC024 22/18 A2994 RMK AO2  T02150180,,,2400.0,,,64.38,,SE,29.29,28.03,,Overcast
KIGQ,09/25/2018 01:55 UTC,29.94,70.7,64.4,80.51,6.91,160.0,,,,,,244.0,,,,10.0,,KIGQ 250155Z AUTO 16006KT 10SM OVC024 22/18 A2994 RMK AO2  T02150180,,,2400.0,,,64.38,,SSE,29.29,28.03,,Overcast
KIGQ,09/25/2018 02:15 UTC,29.94,69.98,64.58,83.03,6.91,190.0,,,,,,244.0,,,,10.0,,KIGQ 250215Z AUTO 19006KT 10SM OVC024 21/18 A2994 RMK AO2  T02110181,,,2400.0,,,64.56,,S,29.29,28.03,,Overcast
KIGQ,09/25/2018 02:35 UTC,29.94,69.44,64.76,85.1,3.44,210.0,,,,,,244.0,,,,10.0,,KIGQ 250235Z AUTO 21003KT 10SM OVC024 21/18 A2994 RMK AO2  T02080182,,,2400.0,,,64.74,,SSW,29.29,28.02,,Overcast
KIGQ,09/25/2018 02:55 UTC,29.94,68.9,64.94,87.23,3.44,200.0,,,,,,204.0,,,,10.0,,KIGQ 250255Z AUTO 20003KT 10SM OVC020 21/18 A2994 RMK AO2  T02050183,,,2000.0,,,64.92,,SSW,29.29,28.02,,Overcast
KIGQ,09/25/2018 03:15 UTC,29.95,68.36,65.3,89.98,0.0,0.0,,,464.0,,,183.0,233.0,,,10.0,,KIGQ 250315Z AUTO 00000KT 10SM BKN018 BKN023 OVC046 20/19 A2995 RMK AO2 T02020185,,,1800.0,,,65.29,,N,29.3,28.02,,Overcast
KIGQ,09/25/2018 03:35 UTC,29.95,68.18,65.3,90.53,3.44,180.0,,,464.0,,,183.0,333.0,,,10.0,,KIGQ 250335Z AUTO 18003KT 10SM BKN018 BKN033 OVC046 20/19 A2995 RMK AO2 T02010185,,,1800.0,,,65.29,,S,29.3,28.02,,Overcast
KIGQ,09/25/2018 03:55 UTC,29.94,68.18,65.48,91.1,4.61,190.0,,17.0,454.0,,,162.0,253.0,,,10.0,,KIGQ 250355Z AUTO 19004KT 10SM -DZ SCT016 BKN025 OVC045 20/19  A2994 RMK AO2 T02010186,,,2500.0,,,65.47,,S,29.29,28.0,,Light Drizzle
KIGQ,09/25/2018 04:15 UTC,29.94,68.36,65.84,91.68,4.61,160.0,,,434.0,,,222.0,282.0,,,10.0,,KIGQ 250415Z AUTO 16004KT 10SM SCT022 SCT028 OVC043 20/19 A2994 RMK AO2 T02020188,,,4300.0,,,65.83,,SSE,29.29,27.97,,Overcast
KIGQ,09/25/2018 04:35 UTC,29.94,69.08,65.84,89.45,0.0,0.0,,,,,,454.0,,,,10.0,,KIGQ 250435Z AUTO 00000KT 10SM OVC045 21/19 A2994 RMK AO2  T02060188,,,4500.0,,,65.83,,N,29.29,27.96,,Overcast
KIGQ,09/25/2018 04:55 UTC,29.93,68.18,65.66,91.67,4.61,180.0,,,,,,454.0,,,,10.0,,KIGQ 250455Z AUTO 18004KT 10SM OVC045 20/19 A2993 RMK AO2  T02010187,,,4500.0,,,65.65,,S,29.28,27.98,,Overcast
KIGQ,09/25/2018 05:15 UTC,29.92,68.0,66.02,93.4,5.75,140.0,,,,,,473.0,,,,10.0,,KIGQ 250515Z AUTO 14005KT 10SM BKN047 20/19 A2992 RMK AO2  T02000189,,,4700.0,,,66.01,,SE,29.27,27.94,,Mostly Cloudy
KIGQ,09/25/2018 05:35 UTC,29.92,68.0,65.48,91.67,3.44,170.0,,,,,,82.0,493.0,,,10.0,,KIGQ 250535Z AUTO 17003KT 10SM SCT008 BKN049 20/19 A2992 RMK AO2  T02000186,,,4900.0,,,65.47,,S,29.27,27.98,,Mostly Cloudy
KIGQ,09/25/2018 05:55 UTC,29.92,68.0,66.2,93.98,4.61,200.0,,,,,,83.0,494.0,,,10.0,,KIGQ 250555Z AUTO 20004KT 10SM BKN008 OVC049 20/19 A2992 RMK AO2  LTG DSNT S T02000190 10218 20198 402250125,71.24,67.64,800.0,72.5,54.5,66.19,,SSW,29.27,27.93,,Overcast
KIGQ,09/25/2018 06:15 UTC,29.92,68.18,66.38,93.99,5.75,190.0,,,,,,83.0,494.0,,,10.0,,KIGQ 250615Z AUTO 19005KT 10SM BKN008 OVC049 20/19 A2992 RMK AO2  T02010191,,,800.0,,,66.37,,S,29.27,27.92,,Overcast
KIGQ,09/25/2018 06:35 UTC,29.92,68.0,66.2,93.98,6.91,200.0,,,,,,84.0,,,,10.0,,KIGQ 250635Z AUTO 20006KT 10SM OVC008 20/19 A2992 RMK AO2 LTG DSNT  S T02000190,,,800.0,,,66.19,,SSW,29.27,27.93,,Overcast
KIGQ,09/25/2018 06:55 UTC,29.92,68.0,66.38,94.57,5.75,190.0,,,,,,84.0,,,,10.0,,KIGQ 250655Z AUTO 19005KT 10SM OVC008 20/19 A2992 RMK AO2 LTG DSNT  S AND SW T02000191,,,800.0,,,66.37,,S,29.27,27.92,,Overcast
KIGQ,09/25/2018 07:15 UTC,29.91,68.0,66.74,95.75,9.22,180.0,,,,,,64.0,,,,10.0,,KIGQ 250715Z AUTO 18008KT 10SM OVC006 20/19 A2991 RMK AO2 LTG DSNT  S AND SW T02000193,,,600.0,,,66.73,,S,29.26,27.89,,Overcast
KIGQ,09/25/2018 07:35 UTC,29.91,68.0,66.74,95.75,5.75,190.0,,,,,,64.0,,,,10.0,,KIGQ 250735Z AUTO 19005KT 10SM OVC006 20/19 A2991 RMK AO2 LTG DSNT  S T02000193,,,600.0,,,66.73,,S,29.26,27.89,,Overcast
KIGQ,09/25/2018 07:55 UTC,29.91,68.0,67.1,96.95,5.75,210.0,,5.0,,,,64.0,,,,7.0,,KIGQ 250755Z AUTO 21005KT 7SM VCTS OVC006 20/20 A2991 RMK AO2 LTG  DSNT S T02000195,,,600.0,,,67.1,,SSW,29.26,27.86,,Thunder
KIGQ,09/25/2018 08:15 UTC,29.91,68.0,67.1,96.95,4.61,200.0,,5.0,,,,64.0,,,,7.0,,KIGQ 250815Z AUTO 20004KT 7SM VCTS OVC006 20/20 A2991 RMK AO2 LTG  DSNT S T02000195,,,600.0,,,67.1,,SSW,29.26,27.86,,Thunder
KIGQ,09/25/2018 08:35 UTC,29.91,68.0,67.28,97.55,4.61,190.0,,5.0,,,,64.0,,,,7.0,,KIGQ 250835Z AUTO 19004KT 7SM TS OVC006 20/20 A2991 RMK AO2 LTG  DSNT SE AND S T02000196,,,600.0,,,67.28,,S,29.26,27.85,,Thunder
KIGQ,09/25/2018 08:55 UTC,29.91,68.0,67.28,97.55,0.0,0.0,,,,,,64.0,,,,7.0,,KIGQ 250855Z AUTO 00000KT 7SM OVC006 20/20 A2991 RMK AO2 LTG DSNT  SE T02000196,,,600.0,,,67.28,,N,29.26,27.85,,Overcast
KIGQ,09/25/2018 09:15 UTC,29.91,68.0,67.28,97.55,0.0,0.0,,,,,,63.0,604.0,,,7.0,,KIGQ 250915Z AUTO 00000KT 7SM -VCTSRA BKN006 OVC060 20/20 A2991 RMK AO2 LTG DSNT SE T02000196,,,600.0,,,67.28,,N,29.26,27.85,,Overcast
KIGQ,09/25/2018 09:35 UTC,29.91,68.0,67.46,98.16,0.0,0.0,,1.0,504.0,,,62.0,113.0,,,5.0,,KIGQ 250935Z AUTO 00000KT 5SM RA SCT006 BKN011 OVC050 20/20 A2991 RMK AO2 LTG DSNT E THRU S T02000197,,,1100.0,,,67.46,,N,29.26,27.84,,Rain
KIGQ,09/25/2018 09:55 UTC,29.91,68.0,67.46,98.16,3.44,160.0,,66.0,504.0,,,62.0,113.0,,,4.0,,KIGQ 250955Z AUTO 16003KT 4SM TSRA SCT006 BKN011 OVC050 20/20  A2991 RMK AO2 LTG DSNT E THRU SW T02000197,,,1100.0,,,67.46,,SSE,29.26,27.84,,Thunderstorm
KIGQ,09/25/2018 10:15 UTC,29.91,68.0,67.64,98.77,4.61,300.0,,,214.0,0.08,,32.0,63.0,,,2.5,,KIGQ 251015Z AUTO 30004KT 2 1/2SM /VCTSRA SCT003 BKN006 OVC021  20/20 A2991 RMK AO2 LTG DSNT E AND SE P0008 T02000198,,,600.0,,,67.64,,WNW,29.26,27.83,,Overcast
KIGQ,09/25/2018 10:35 UTC,29.92,68.0,68.0,100.0,5.75,170.0,,14.0,,0.37,,43.0,164.0,,,1.5,,KIGQ 251035Z AUTO 17005KT 1 1/2SM +RA BKN004 OVC016 20/20 A2992 RMK AO2 LTG DSNT E THRU S P0037 T02000200,,,400.0,,,68.0,,S,29.27,27.81,,Heavy Rain
KIGQ,09/25/2018 10:55 UTC,29.91,68.0,68.0,100.0,3.44,160.0,,1.0,314.0,0.42,,72.0,243.0,,,5.0,,KIGQ 251055Z AUTO 16003KT 5SM RA SCT007 BKN024 OVC031 20/20 A2991 RMK AO2 LTG DSNT E AND SE P0042 T02000200,,,2400.0,,,68.0,,SSE,29.26,27.8,,Rain
KIGQ,09/25/2018 11:15 UTC,29.91,68.0,68.0,100.0,4.61,150.0,,13.0,464.0,0.02,,72.0,323.0,,,5.0,,KIGQ 251115Z AUTO 15004KT 5SM -RA SCT007 BKN032 OVC046 20/20 A2991 RMK AO2 P0002 T02000200,,,3200.0,,,68.0,,SSE,29.26,27.8,,Light Rain
KIGQ,09/25/2018 11:35 UTC,29.92,68.0,68.0,100.0,0.0,0.0,,13.0,354.0,0.02,,62.0,133.0,,,10.0,,KIGQ 251135Z AUTO 00000KT 10SM -RA SCT006 BKN013 OVC035 20/20  A2992 RMK AO2 P0002 T02000200,,,1300.0,,,68.0,,N,29.27,27.81,,Light Rain
KIGQ,09/25/2018 11:55 UTC,29.92,68.18,68.0,99.38,0.0,0.0,,,,0.02,,63.0,134.0,0.44,0.46,10.0,,KIGQ 251155Z AUTO 00000KT 10SM BKN006 OVC013 20/20 A2992 RMK AO2  P0002 60044 70046 T02010200 10202 20197,68.36,67.46,600.0,,,68.0,,N,29.27,27.81,,Overcast
KIGQ,09/25/2018 12:15 UTC,29.92,68.36,68.18,99.38,0.0,0.0,,,,,,64.0,,,,10.0,,KIGQ 251215Z AUTO 00000KT 10SM OVC006 20/20 A2992 RMK AO2  T02020201,,,600.0,,,68.18,,N,29.27,27.8,,Overcast
KIGQ,09/25/2018 12:35 UTC,29.92,68.36,68.18,99.38,3.44,190.0,,,,,,64.0,,,,10.0,,KIGQ 251235Z AUTO 19003KT 10SM OVC006 20/20 A2992 RMK AO2  T02020201,,,600.0,,,68.18,,S,29.27,27.8,,Overcast
KIGQ,09/25/2018 12:55 UTC,29.92,68.9,68.9,100.0,3.44,180.0,,,,,,63.0,154.0,,,10.0,,KIGQ 251255Z AUTO 18003KT 10SM BKN006 OVC015 21/21 A2992 RMK AO2  T02050205,,,600.0,,,68.9,,S,29.27,27.74,,Overcast
KIGQ,09/25/2018 13:15 UTC,29.93,69.26,68.9,98.78,4.61,200.0,,,,,,64.0,,,,7.0,,KIGQ 251315Z AUTO 20004KT 7SM OVC006 21/21 A2993 RMK AO2 LTG DSNT  S T02070205,,,600.0,,,68.9,,SSW,29.28,27.74,,Overcast
KIGQ,09/25/2018 13:35 UTC,29.93,69.44,69.08,98.78,5.75,240.0,,31.0,,,,62.0,114.0,,,5.0,,KIGQ 251335Z AUTO 24005KT 5SM BR SCT006 OVC011 21/21 A2993 RMK AO2  LTG DSNT E AND S T02080206,,,1100.0,,,69.08,,WSW,29.28,27.73,,Mist
KIGQ,09/25/2018 13:55 UTC,29.93,69.62,68.9,97.57,6.91,260.0,,31.0,,,,94.0,,,,5.0,,KIGQ 251355Z AUTO 26006KT 5SM BR OVC009 21/21 A2993 RMK AO2  T02090205,,,900.0,,,68.9,,W,29.28,27.74,,Mist
KIGQ,09/25/2018 14:15 UTC,29.92,69.98,68.72,95.79,4.61,270.0,,31.0,,,,94.0,,,,5.0,,KIGQ 251415Z AUTO 27004KT 5SM BR OVC009 21/20 A2992 RMK AO2 LTG  DSNT S T02110204,,,900.0,,,68.72,,W,29.27,27.74,,Mist
KIGQ,09/25/2018 14:35 UTC,29.92,69.98,68.0,93.45,5.75,250.0,,31.0,,,,94.0,,,,5.0,,KIGQ 251435Z AUTO 25005KT 5SM BR OVC009 21/20 A2992 RMK AO2  T02110200,,,900.0,,,67.99,,WSW,29.27,27.79,,Mist
KIGQ,09/25/2018 14:55 UTC,29.92,70.52,68.72,94.05,3.44,220.0,,31.0,,,,92.0,134.0,,,5.0,,KIGQ 251455Z AUTO 22003KT 5SM BR SCT009 OVC013 21/20 A2992 RMK AO2  LTG DSNT S T02140204,,,1300.0,,,68.72,,SW,29.27,27.73,,Mist
KIGQ,09/25/2018 15:15 UTC,29.93,71.6,68.9,91.23,6.91,190.0,,31.0,,,,134.0,,,,5.0,,KIGQ 251515Z AUTO 19006KT 5SM BR OVC013 22/21 A2993 RMK AO2 LTG  DSNT SE T02200205,,,1300.0,,,68.89,,S,29.28,27.71,,Mist
KIGQ,09/25/2018 15:35 UTC,29.92,72.14,68.54,88.48,8.05,180.0,,,274.0,,,93.0,163.0,,,7.0,,KIGQ 251535Z AUTO 18007KT 7SM BKN009 BKN016 OVC027 22/20 A2992 RMK AO2 LTG DSNT SE T02230203,,,900.0,,,68.53,,S,29.27,27.72,,Overcast
KIGQ,09/25/2018 15:55 UTC,29.91,72.14,69.08,90.13,6.91,170.0,,,554.0,,,93.0,163.0,,,7.0,,KIGQ 251555Z AUTO 17006KT 7SM BKN009 BKN016 OVC055 22/21 A2991 RMK AO2 T02230206,,,900.0,,,69.07,,S,29.26,27.67,,Overcast
KIGQ,09/25/2018 16:15 UTC,29.9,73.4,69.26,86.92,6.91,190.0,,,263.0,,,92.0,183.0,,,7.0,,KIGQ 251615Z AUTO 19006KT 7SM SCT009 BKN018 BKN026 23/21 A2990 RMK AO2 LTG DSNT SE AND S T02300207,,,1800.0,,,69.25,,S,29.25,27.63,,Mostly Cloudy
KIGQ,09/25/2018 16:35 UTC,29.91,73.4,68.18,83.77,8.05,210.0,,,323.0,,,162.0,262.0,,,10.0,,KIGQ 251635Z AUTO 21007KT 10SM SCT016 SCT026 BKN032 23/20 A2991 RMK AO2 T02300201,,,3200.0,,,68.17,,SSW,29.26,27.72,,Mostly Cloudy
KIGQ,09/25/2018 16:55 UTC,29.91,75.2,68.54,79.86,8.05,200.0,,,494.0,,,162.0,222.0,,,10.0,,KIGQ 251655Z AUTO 20007KT 10SM SCT016 SCT022 OVC049 24/20 A2991 RMK AO2 LTG DSNT E T02400203,,,4900.0,,,68.53,,SSW,29.26,27.67,,Overcast
KIGQ,09/25/2018 17:15 UTC,29.9,74.84,67.64,78.36,10.36,190.0,,,473.0,,,242.0,342.0,,,10.0,,KIGQ 251715Z AUTO 19009KT 10SM SCT024 SCT034 BKN047 24/20 A2990 RMK AO2 LTG DSNT E T02380198,,,4700.0,,,67.63,,S,29.25,27.72,,Mostly Cloudy
KIGQ,09/25/2018 17:35 UTC,29.89,76.1,68.36,77.03,11.5,190.0,,,323.0,,,202.0,252.0,,,10.0,,KIGQ 251735Z AUTO 19010KT 10SM SCT020 SCT025 BKN032 25/20 A2989 RMK AO2 LTG DSNT E T02450202,,,3200.0,,,68.36,,S,29.24,27.65,,Mostly Cloudy
KIGQ,09/25/2018 17:55 UTC,29.88,75.56,68.36,78.42,13.8,170.0,18.41,,404.0,,,202.0,273.0,,,10.0,,KIGQ 251755Z AUTO 17012G16KT 10SM SCT020 BKN027 OVC040 24/20 A2988 RMK AO2 LTG DSNT E T02420202 10250 20201,77.0,68.18,2700.0,,,68.35,,S,29.23,27.64,,Overcast
KIGQ,09/25/2018 18:15 UTC,29.87,76.1,68.18,76.55,12.66,180.0,,13.0,854.0,,,222.0,423.0,,,10.0,,KIGQ 251815Z AUTO 18011KT 10SM -RA SCT022 BKN042 OVC085 25/20  A2987 RMK AO2 T02450201,,,4200.0,,,68.17,,S,29.22,27.64,,Light Rain
KIGQ,09/25/2018 18:35 UTC,29.86,78.26,68.0,70.84,11.5,220.0,18.41,,704.0,,,263.0,403.0,,,10.0,,KIGQ 251835Z AUTO 22010G16KT 10SM BKN026 BKN040 OVC070 26/20 A2986 RMK AO2 T02570200,,,2600.0,,,68.0,,SW,29.21,27.61,,Overcast
KIGQ,09/25/2018 18:55 UTC,29.85,78.8,66.74,66.64,11.5,210.0,20.71,,,,,303.0,804.0,,,10.0,,KIGQ 251855Z AUTO 21010G18KT 10SM BKN030 OVC080 26/19 A2985 RMK AO2 T02600193,,,3000.0,,,66.74,,SSW,29.2,27.68,,Overcast
KIGQ,09/25/2018 19:15 UTC,29.84,80.78,66.2,61.31,17.27,230.0,,,,,,322.0,904.0,,,10.0,,KIGQ 251915Z AUTO 23015KT 10SM SCT032 OVC090 27/19 A2984 RMK AO2  T02710190,,,9000.0,,,66.22,,SW,29.19,27.69,82.96,Overcast
KIGQ,09/25/2018 19:35 UTC,29.83,81.86,64.76,56.32,13.8,220.0,,,,,,903.0,,,,10.0,,KIGQ 251935Z AUTO 22012KT 10SM BKN090 28/18 A2983 RMK AO2  T02770182,,,9000.0,,,64.79,,SW,29.18,27.76,83.6,Mostly Cloudy
KIGQ,09/25/2018 19:55 UTC,29.81,81.68,64.58,56.29,14.97,210.0,23.02,,903.0,,,432.0,602.0,,,10.0,,KIGQ 251955Z AUTO 21013G20KT 10SM SCT043 SCT060 BKN090 28/18 A2981 RMK AO2 T02760181,,,9000.0,,,64.61,,SSW,29.16,27.76,83.37,Mostly Cloudy
KIGQ,09/25/2018 20:15 UTC,29.8,82.4,62.96,51.97,14.97,220.0,20.71,,752.0,,,442.0,602.0,,,10.0,,KIGQ 252015Z AUTO 22013G18KT 10SM SCT044 SCT060 SCT075 28/17 A2980 RMK AO2 T02800172,,,,,,63.0,,SW,29.15,27.84,83.53,Partly Cloudy
KIGQ,09/25/2018 20:35 UTC,29.8,83.3,62.6,49.84,12.66,220.0,25.32,,,,,492.0,802.0,,,10.0,,KIGQ 252035Z AUTO 22011G22KT 10SM SCT049 SCT080 29/17 A2980 RMK AO2 T02850170,,,,,,62.65,,SW,29.15,27.86,84.23,Partly Cloudy
KIGQ,09/25/2018 20:55 UTC,29.8,81.32,61.52,51.15,12.66,230.0,,,,,,853.0,,,,10.0,,KIGQ 252055Z AUTO 23011KT 10SM BKN085 27/16 A2980 RMK AO2  T02740164,,,8500.0,,,61.55,,SW,29.15,27.94,82.21,Mostly Cloudy
KIGQ,09/25/2018 21:15 UTC,29.8,82.76,61.88,49.45,18.41,230.0,,,853.0,,,502.0,702.0,,,10.0,,KIGQ 252115Z AUTO 23016KT 10SM SCT050 SCT070 BKN085 28/17 A2980 RMK AO2 T02820166,,,8500.0,,,61.92,,SW,29.15,27.91,83.52,Mostly Cloudy
KIGQ,09/25/2018 21:35 UTC,29.79,80.42,62.24,54.03,12.66,210.0,18.41,,852.0,,,602.0,702.0,,,10.0,,KIGQ 252135Z AUTO 21011G16KT 10SM SCT060 SCT070 SCT085 27/17 A2979 RMK AO2 T02690168,,,,,,62.26,,SSW,29.14,27.9,81.62,Partly Cloudy
KIGQ,09/25/2018 21:55 UTC,29.8,81.32,61.7,51.48,13.8,220.0,,,,,,602.0,902.0,,,10.0,,KIGQ 252155Z AUTO 22012KT 10SM SCT060 SCT090 27/17 A2980 RMK AO2  T02740165,,,,,,61.73,,SW,29.15,27.93,82.25,Partly Cloudy
KIGQ,09/25/2018 22:15 UTC,29.79,81.68,62.24,51.86,8.05,220.0,,,,,,602.0,,,,10.0,,KIGQ 252215Z AUTO 22007KT 10SM SCT060 28/17 A2979 RMK AO2  T02760168,,,,,,62.27,,SW,29.14,27.89,82.69,Partly Cloudy
KIGQ,09/25/2018 22:35 UTC,29.8,80.6,62.06,53.37,9.22,230.0,,,,,,1.0,,,,10.0,,KIGQ 252235Z AUTO 23008KT 10SM CLR 27/17 A2980 RMK AO2 LTG DSNT NW  T02700167,,,,,,62.08,,SW,29.15,27.92,81.73,Clear
KIGQ,09/25/2018 22:55 UTC,29.8,79.88,59.9,50.62,8.05,240.0,,,,,,1003.0,,,,10.0,,KIGQ 252255Z AUTO 24007KT 10SM BKN100 27/16 A2980 RMK AO2 LTG DSNT  NW T02660155,,,10000.0,,,59.92,,WSW,29.15,28.05,,Mostly Cloudy
KIGQ,09/25/2018 23:15 UTC,29.81,78.08,62.06,57.96,4.61,210.0,,,,,,653.0,1004.0,,,10.0,,KIGQ 252315Z AUTO 21004KT 10SM BKN065 OVC100 26/17 A2981 RMK AO2  LTG DSNT N T02560167,,,6500.0,,,62.06,,SSW,29.16,27.95,,Overcast
KIGQ,09/25/2018 23:35 UTC,29.89,75.2,60.26,59.82,35.68,270.0,50.64,485.0,,0.06,,282.0,604.0,,,5.0,,KIGQ 252335Z AUTO 27031G44KT 5SM VCTS HZ SCT028 OVC060 24/16 A2989 RMK AO2 LTG DSNT ALQS P0006 T02400157,,,6000.0,,,60.24,,W,29.24,28.17,,Thunder,Haze
KIGQ,09/25/2018 23:55 UTC,29.82,66.2,62.06,86.54,11.5,260.0,18.41,,1004.0,0.35,,92.0,853.0,0.35,,10.0,,KIGQ 252355Z AUTO 26010G16KT 10SM VCTSRA SCT009 BKN085 OVC100  19/17 A2982 RMK AO2 LTG DSNT ALQS P0035 60035 T01900167 10286  20188,83.48,65.84,8500.0,,,62.04,,W,29.17,28.1,,Overcast
KIGQ,09/26/2018 00:15 UTC,29.81,66.02,62.42,88.19,4.61,230.0,,13.0,,,,1002.0,1203.0,,,10.0,,KIGQ 260015Z AUTO 23004KT 10SM -RA SCT100 BKN120 19/17 A2981 RMK AO2 LTG DSNT NE THRU S T01890169,,,12000.0,,,62.4,,SW,29.16,28.08,,Light Rain
KIGQ,09/26/2018 00:35 UTC,29.8,66.56,62.42,86.56,5.75,250.0,,,,,,1202.0,,,,10.0,,KIGQ 260035Z AUTO 25005KT 10SM SCT120 19/17 A2980 RMK AO2 LTG DSNT  E AND S T01920169,,,,,,62.4,,WSW,29.15,28.06,,Partly Cloudy
KIGQ,09/26/2018 00:55 UTC,29.81,66.74,62.78,87.12,5.75,270.0,,,,,,1.0,,,,10.0,,KIGQ 260055Z AUTO 27005KT 10SM CLR 19/17 A2981 RMK AO2 LTG DSNT SE  T01930171,,,,,,62.76,,W,29.16,28.05,,Clear
KIGQ,09/26/2018 01:15 UTC,29.83,66.92,63.32,88.23,6.91,240.0,,,,,,1.0,,,,10.0,,KIGQ 260115Z AUTO 24006KT 10SM CLR 19/17 A2983 RMK AO2  T01940174,,,,,,63.3,,WSW,29.18,28.03,,Clear
KIGQ,09/26/2018 01:35 UTC,29.85,66.38,63.5,90.46,4.61,240.0,,,,,,1.0,,,,10.0,,KIGQ 260135Z AUTO 24004KT 10SM CLR 19/18 A2985 RMK AO2  T01910175,,,,,,63.48,,WSW,29.2,28.05,,Clear
KIGQ,09/26/2018 01:55 UTC,29.85,66.56,63.68,90.47,5.75,260.0,,,,,,1.0,,,,10.0,,KIGQ 260155Z AUTO 26005KT 10SM CLR 19/18 A2985 RMK AO2  T01920176,,,,,,63.66,,W,29.2,28.04,,Clear
KIGQ,09/26/2018 02:15 UTC,29.86,66.38,63.68,91.04,4.61,260.0,,,,,,132.0,1102.0,,,10.0,,KIGQ 260215Z AUTO 26004KT 10SM SCT013 SCT110 19/18 A2986 RMK AO2  T01910176,,,,,,63.67,,W,29.21,28.05,,Partly Cloudy
KIGQ,09/26/2018 02:35 UTC,29.87,66.56,63.86,91.04,5.75,250.0,,,,,,133.0,,,,10.0,,KIGQ 260235Z AUTO 25005KT 10SM BKN013 19/18 A2987 RMK AO2  T01920177,,,1300.0,,,63.85,,WSW,29.22,28.05,,Mostly Cloudy
KIGQ,09/26/2018 02:55 UTC,29.88,66.74,64.04,91.05,4.61,270.0,,,,,,114.0,,,,10.0,,KIGQ 260255Z AUTO 27004KT 10SM OVC011 19/18 A2988 RMK AO2  T01930178,,,1100.0,,,64.03,,W,29.23,28.04,,Overcast
KIGQ,09/26/2018 03:15 UTC,29.89,66.74,63.86,90.48,5.75,270.0,,,,,,113.0,254.0,,,10.0,,KIGQ 260315Z AUTO 27005KT 10SM BKN011 OVC025 19/18 A2989 RMK AO2  T01930177,,,1100.0,,,63.85,,W,29.24,28.06,,Overcast
KIGQ,09/26/2018 03:35 UTC,29.9,66.56,63.86,91.04,8.05,270.0,,,,,,153.0,194.0,,,10.0,,KIGQ 260335Z AUTO 27007KT 10SM BKN015 OVC019 19/18 A2990 RMK AO2  T01920177,,,1500.0,,,63.85,,W,29.25,28.08,,Overcast
KIGQ,09/26/2018 03:55 UTC,29.91,66.38,63.5,90.46,6.91,270.0,,,,,,134.0,,,,10.0,,KIGQ 260355Z AUTO 27006KT 10SM OVC013 19/18 A2991 RMK AO2  T01910175,,,1300.0,,,63.48,,W,29.26,28.11,,Overcast
KIGQ,09/26/2018 04:15 UTC,29.91,66.38,63.32,89.9,8.05,300.0,,,,,,134.0,,,,10.0,,KIGQ 260415Z AUTO 30007KT 10SM OVC013 19/17 A2991 RMK AO2  T01910174,,,1300.0,,,63.31,,WNW,29.26,28.12,,Overcast
KIGQ,09/26/2018 04:35 UTC,29.91,65.66,60.26,82.73,10.36,310.0,17.27,,,,,132.0,224.0,,,10.0,,KIGQ 260435Z AUTO 31009G15KT 10SM SCT013 OVC022 19/16 A2991 RMK AO2 T01870157,,,2200.0,,,60.23,,NW,29.26,28.3,,Overcast
KIGQ,09/26/2018 04:55 UTC,29.92,64.94,59.36,82.16,6.91,310.0,,,,,,243.0,314.0,,,10.0,,KIGQ 260455Z AUTO 31006KT 10SM BKN024 OVC031 18/15 A2992 RMK AO2  T01830152,,,2400.0,,,59.33,,NW,29.27,28.37,,Overcast
KIGQ,09/26/2018 05:15 UTC,29.93,64.4,59.54,84.25,8.05,310.0,,,,,,193.0,314.0,,,10.0,,KIGQ 260515Z AUTO 31007KT 10SM BKN019 OVC031 18/15 A2993 RMK AO2  T01800153,,,1900.0,,,59.51,,NW,29.28,28.37,,Overcast
KIGQ,09/26/2018 05:35 UTC,29.93,63.86,58.82,83.68,13.8,300.0,17.27,,,,,173.0,224.0,,,10.0,,KIGQ 260535Z AUTO 30012G15KT 10SM BKN017 OVC022 18/15 A2993 RMK AO2 T01770149,,,1700.0,,,58.79,,WNW,29.28,28.42,,Overcast
KIGQ,09/26/2018 05:55 UTC,29.94,63.14,56.48,78.9,9.22,300.0,,,,,,264.0,,,,10.0,,KIGQ 260555Z AUTO 30008KT 10SM OVC026 17/14 A2994 RMK AO2  T01730136 10195 20173 402860173,67.1,63.14,2600.0,83.48,63.14,56.44,,WNW,29.29,28.55,,Overcast
KIGQ,09/26/2018 06:15 UTC,29.94,62.6,56.48,80.41,8.05,300.0,,,,,,284.0,,,,10.0,,KIGQ 260615Z AUTO 30007KT 10SM OVC028 17/14 A2994 RMK AO2  T01700136,,,2800.0,,,56.44,,WNW,29.29,28.55,,Overcast
KIGQ,09/26/2018 06:35 UTC,29.95,62.6,56.48,80.41,9.22,290.0,,,,,,284.0,,,,10.0,,KIGQ 260635Z AUTO 29008KT 10SM OVC028 17/14 A2995 RMK AO2  T01700136,,,2800.0,,,56.44,,WNW,29.3,28.56,,Overcast
KIGQ,09/26/2018 06:55 UTC,29.95,62.24,56.3,80.91,8.05,300.0,,,,,,262.0,324.0,,,10.0,,KIGQ 260655Z AUTO 30007KT 10SM SCT026 OVC032 17/14 A2995 RMK AO2  T01680135,,,3200.0,,,56.26,,WNW,29.3,28.58,,Overcast
KIGQ,09/26/2018 07:15 UTC,29.95,62.06,56.12,80.89,10.36,310.0,,,,,,193.0,344.0,,,10.0,,KIGQ 260715Z AUTO 31009KT 10SM BKN019 OVC034 17/13 A2995 RMK AO2  T01670134,,,1900.0,,,56.08,,NW,29.3,28.59,,Overcast
KIGQ,09/26/2018 07:35 UTC,29.96,61.52,55.4,80.32,9.22,320.0,,,,,,173.0,234.0,,,10.0,,KIGQ 260735Z AUTO 32008KT 10SM BKN017 OVC023 16/13 A2996 RMK AO2  T01640130,,,1700.0,,,55.35,,NW,29.31,28.63,,Overcast
KIGQ,09/26/2018 07:55 UTC,29.97,59.9,53.24,78.63,13.8,320.0,,,,,,174.0,,,,10.0,,KIGQ 260755Z AUTO 32012KT 10SM OVC017 16/12 A2997 RMK AO2  T01550118,,,1700.0,,,53.19,,NW,29.32,28.75,,Overcast
KIGQ,09/26/2018 08:15 UTC,29.98,59.36,52.7,78.58,11.5,310.0,18.41,,,,,193.0,254.0,,,10.0,,KIGQ 260815Z AUTO 31010G16KT 10SM BKN019 OVC025 15/12 A2998 RMK AO2 T01520115,,,1900.0,,,52.65,,NW,29.33,28.79,,Overcast
KIGQ,09/26/2018 08:35 UTC,29.98,59.18,52.7,79.09,8.05,310.0,,,,,,253.0,314.0,,,10.0,,KIGQ 260835Z AUTO 31007KT 10SM BKN025 OVC031 15/12 A2998 RMK AO2  T01510115,,,2500.0,,,52.65,,NW,29.33,28.79,,Overcast
KIGQ,09/26/2018 08:55 UTC,29.99,59.0,52.34,78.55,9.22,310.0,,,,,,234.0,,,,10.0,,KIGQ 260855Z AUTO 31008KT 10SM OVC023 15/11 A2999 RMK AO2  T01500113,,,2300.0,,,52.28,,NW,29.34,28.82,,Overcast
KIGQ,09/26/2018 09:15 UTC,29.99,58.46,50.18,73.94,13.8,330.0,17.27,,,,,234.0,,,,10.0,,KIGQ 260915Z AUTO 33012G15KT 10SM OVC023 15/10 A2999 RMK AO2  T01470101,,,2300.0,,,50.11,,NNW,29.34,28.91,,Overcast
KIGQ,09/26/2018 09:35 UTC,30.01,57.92,49.28,72.9,8.05,310.0,,,,,,254.0,,,,10.0,,KIGQ 260935Z AUTO 31007KT 10SM OVC025 14/10 A3001 RMK AO2  T01440096,,,2500.0,,,49.21,,NW,29.36,28.97,,Overcast
KIGQ,09/26/2018 09:55 UTC,30.02,56.66,47.84,72.28,12.66,320.0,16.11,,,,,253.0,303.0,,,10.0,,KIGQ 260955Z AUTO 32011G14KT 10SM BKN025 BKN030 14/09 A3002 RMK AO2 LTG DSNT E T01370088,,,2500.0,,,47.76,,NW,29.37,29.04,,Mostly Cloudy
KIGQ,09/26/2018 10:15 UTC,30.03,55.58,48.74,77.74,9.22,290.0,,,,,,233.0,,,,10.0,,KIGQ 261015Z AUTO 29008KT 10SM BKN023 13/09 A3003 RMK AO2  T01310093,,,2300.0,,,48.68,,WNW,29.38,29.03,,Mostly Cloudy
KIGQ,09/26/2018 10:35 UTC,30.04,54.5,47.12,76.08,6.91,300.0,,,,,,232.0,,,,10.0,,KIGQ 261035Z AUTO 30006KT 10SM SCT023 13/08 A3004 RMK AO2  T01250084,,,,,,47.05,,WNW,29.39,29.1,,Partly Cloudy
KIGQ,09/26/2018 10:55 UTC,30.05,53.42,46.94,78.61,5.75,290.0,,,,,,232.0,,,,10.0,,KIGQ 261055Z AUTO 29005KT 10SM SCT023 12/08 A3005 RMK AO2  T01190083,,,,,,46.87,,WNW,29.4,29.13,,Partly Cloudy
KIGQ,09/26/2018 11:15 UTC,30.07,52.7,46.76,80.17,5.75,290.0,,,,,,1.0,,,,10.0,,KIGQ 261115Z AUTO 29005KT 10SM CLR 12/08 A3007 RMK AO2  T01150082,,,,,,46.7,,WNW,29.42,29.16,,Clear
KIGQ,09/26/2018 11:35 UTC,30.08,51.8,46.22,81.19,8.05,290.0,,,,,,1.0,,,,10.0,,KIGQ 261135Z AUTO 29007KT 10SM CLR 11/08 A3008 RMK AO2  T01100079,,,,,,46.16,,WNW,29.43,29.19,,Clear
KIGQ,09/26/2018 11:55 UTC,30.08,51.26,45.86,81.71,6.91,290.0,,,,,,1.0,,,0.35,10.0,,KIGQ 261155Z AUTO 29006KT 10SM CLR 11/08 A3008 RMK AO2 70035  T01070077 10173 20107,63.14,51.26,,,,45.8,,WNW,29.43,29.21,,Clear
KIGQ,09/26/2018 12:15 UTC,30.09,51.08,45.14,80.04,6.91,300.0,,,,,,1.0,,,,10.0,,KIGQ 261215Z AUTO 30006KT 10SM CLR 11/07 A3009 RMK AO2  T01060073,,,,,,45.08,,WNW,29.44,29.24,,Clear
KIGQ,09/26/2018 12:35 UTC,30.1,51.8,45.14,77.94,6.91,290.0,,,,,,1.0,,,,10.0,,KIGQ 261235Z AUTO 29006KT 10SM CLR 11/07 A3010 RMK AO2  T01100073,,,,,,45.07,,WNW,29.45,29.25,,Clear
KIGQ,09/26/2018 12:55 UTC,30.1,52.16,45.68,78.5,9.22,290.0,,,,,,1.0,,,,10.0,,KIGQ 261255Z AUTO 29008KT 10SM CLR 11/08 A3010 RMK AO2  T01120076,,,,,,45.61,,WNW,29.45,29.23,,Clear
KIGQ,09/26/2018 13:15 UTC,30.11,52.7,45.86,77.49,6.91,300.0,,,,,,1.0,,,,10.0,,KIGQ 261315Z AUTO 30006KT 10SM CLR 12/08 A3011 RMK AO2  T01150077,,,,,,45.79,,WNW,29.46,29.23,,Clear
KIGQ,09/26/2018 13:35 UTC,30.11,53.6,45.68,74.46,4.61,300.0,,,,,,1.0,,,,10.0,,KIGQ 261335Z AUTO 30004KT 10SM CLR 12/08 A3011 RMK AO2  T01200076,,,,,,45.6,,WNW,29.46,29.23,,Clear
KIGQ,09/26/2018 13:55 UTC,30.12,54.14,45.5,72.51,8.05,280.0,,,,,,1.0,,,,10.0,,KIGQ 261355Z AUTO 28007KT 10SM CLR 12/08 A3012 RMK AO2  T01230075,,,,,,45.42,,W,29.47,29.24,,Clear
KIGQ,09/26/2018 14:15 UTC,30.13,55.22,45.68,70.19,8.05,290.0,,,,,,1.0,,,,10.0,,KIGQ 261415Z AUTO 29007KT 10SM CLR 13/08 A3013 RMK AO2  T01290076,,,,,,45.59,,WNW,29.47,29.22,,Clear
KIGQ,09/26/2018 14:35 UTC,30.13,55.94,45.5,67.92,8.05,280.0,,,,,,1.0,,,,10.0,,KIGQ 261435Z AUTO 28007KT 10SM CLR 13/08 A3013 RMK AO2  T01330075,,,,,,45.41,,W,29.47,29.22,,Clear
KIGQ,09/26/2018 14:55 UTC,30.12,56.48,45.14,65.7,8.05,270.0,,,,,,1.0,,,,10.0,,KIGQ 261455Z AUTO 27007KT 10SM CLR 14/07 A3012 RMK AO2  T01360073,,,,,,45.04,,W,29.47,29.23,,Clear
KIGQ,09/26/2018 15:15 UTC,30.13,57.38,45.14,63.61,9.22,290.0,,,,,,1.0,,,,10.0,,KIGQ 261515Z AUTO 29008KT 10SM CLR 14/07 A3013 RMK AO2  T01410073,,,,,,45.04,,WNW,29.47,29.22,,Clear
KIGQ,09/26/2018 15:35 UTC,30.13,57.92,43.7,59.05,9.22,290.0,,,,,,1.0,,,,10.0,,KIGQ 261535Z AUTO 29008KT 10SM CLR 14/07 A3013 RMK AO2  T01440065,,,,,,43.59,,WNW,29.47,29.26,,Clear
KIGQ,09/26/2018 15:55 UTC,30.12,59.0,44.06,57.6,9.22,290.0,,,,,,1.0,,,,10.0,,KIGQ 261555Z AUTO 29008KT 10SM CLR 15/07 A3012 RMK AO2  T01500067,,,,,,43.95,,WNW,29.47,29.24,,Clear
KIGQ,09/26/2018 16:15 UTC,30.13,59.54,43.16,54.59,4.61,290.0,16.11,,,,,1.0,,,,10.0,,KIGQ 261615Z AUTO 29004G14KT 10SM CLR 15/06 A3013 RMK AO2  T01530062,,,,,,43.04,,WNW,29.47,29.26,,Clear
KIGQ,09/26/2018 16:35 UTC,30.13,58.28,42.26,55.16,6.91,280.0,,,,,,1.0,,,,10.0,,KIGQ 261635Z AUTO 28006KT 10SM CLR 15/06 A3013 RMK AO2  T01460057,,,,,,42.14,,W,29.47,29.3,,Clear
KIGQ,09/26/2018 16:55 UTC,30.13,60.08,42.62,52.45,6.91,280.0,,,,,,1.0,,,,10.0,,KIGQ 261655Z AUTO 28006KT 10SM CLR 16/06 A3013 RMK AO2  T01560059,,,,,,42.5,,W,29.47,29.27,,Clear
KIGQ,09/26/2018 17:15 UTC,30.13,62.42,43.34,49.64,11.5,280.0,,,,,,1.0,,,,10.0,,KIGQ 261715Z AUTO 28010KT 10SM CLR 17/06 A3013 RMK AO2  T01690063,,,,,,43.23,,W,29.47,29.23,,Clear
KIGQ,09/26/2018 17:35 UTC,30.13,62.96,42.08,46.4,8.05,300.0,,,,,,1.0,,,,10.0,,KIGQ 261735Z AUTO 30007KT 10SM CLR 17/06 A3013 RMK AO2  T01720056,,,,,,41.96,,WNW,29.47,29.27,,Clear
KIGQ,09/26/2018 17:55 UTC,30.13,63.5,41.9,45.22,8.05,300.0,,,,,,1.0,,,,10.0,,KIGQ 261755Z AUTO 30007KT 10SM CLR 18/06 A3013 RMK AO2 T01750055  10176 20105,63.68,50.9,,,,41.78,,WNW,29.47,29.27,,Clear
KIGQ,09/26/2018 18:15 UTC,30.13,64.04,41.9,44.37,4.61,320.0,,,,,,1.0,,,,10.0,,KIGQ 261815Z AUTO 32004KT 10SM CLR 18/06 A3013 RMK AO2  T01780055,,,,,,41.78,,NW,29.47,29.27,,Clear
KIGQ,09/26/2018 18:35 UTC,30.12,65.12,43.52,45.48,9.22,320.0,,,,,,1.0,,,,10.0,,KIGQ 261835Z AUTO 32008KT 10SM CLR 18/06 A3012 RMK AO2  T01840064,,,,,,43.42,,NW,29.47,29.21,,Clear
KIGQ,09/26/2018 18:55 UTC,30.12,64.58,43.52,46.34,10.36,290.0,,,,,,1.0,,,,10.0,,KIGQ 261855Z AUTO 29009KT 230V350 10SM CLR 18/06 A3012 RMK AO2  T01810064,,,,,,43.41,,WNW,29.47,29.21,,Clear
KIGQ,09/26/2018 19:15 UTC,30.12,66.38,43.88,44.14,11.5,290.0,23.02,,,,,502.0,,,,10.0,,KIGQ 261915Z AUTO 29010G20KT 10SM SCT050 19/07 A3012 RMK AO2  T01910066,,,,,,43.78,,WNW,29.47,29.19,,Partly Cloudy
KIGQ,09/26/2018 19:35 UTC,30.11,65.3,43.7,45.51,6.91,310.0,,,,,,502.0,,,,10.0,,KIGQ 261935Z AUTO 31006KT 10SM SCT050 19/07 A3011 RMK AO2  T01850065,,,,,,43.6,,NW,29.46,29.19,,Partly Cloudy
KIGQ,09/26/2018 19:55 UTC,30.11,65.66,43.34,44.33,6.91,270.0,,,,,,503.0,,,,10.0,,KIGQ 261955Z AUTO 27006KT 10SM BKN050 19/06 A3011 RMK AO2  T01870063,,,5000.0,,,43.24,,W,29.46,29.2,,Mostly Cloudy
KIGQ,09/26/2018 20:15 UTC,30.11,66.92,44.06,43.62,11.5,260.0,,,,,,604.0,,,,10.0,,KIGQ 262015Z AUTO 26010KT 10SM OVC060 19/07 A3011 RMK AO2  T01940067,,,6000.0,,,43.96,,W,29.46,29.17,,Overcast
KIGQ,09/26/2018 20:35 UTC,30.11,66.56,43.88,43.86,9.22,260.0,,,,,,553.0,653.0,,,10.0,,KIGQ 262035Z AUTO 26008KT 10SM BKN055 BKN065 19/07 A3011 RMK AO2  T01920066,,,5500.0,,,43.78,,W,29.46,29.18,,Mostly Cloudy
KIGQ,09/26/2018 20:55 UTC,30.1,67.28,43.7,42.49,9.22,280.0,,,,,,553.0,,,,10.0,,KIGQ 262055Z AUTO 28008KT 250V310 10SM BKN055 20/07 A3010 RMK AO2  T01960065,,,5500.0,,,43.6,,W,29.45,29.17,,Mostly Cloudy
KIGQ,09/26/2018 21:15 UTC,30.1,66.74,42.8,41.82,6.91,300.0,,,,,,552.0,,,,10.0,,KIGQ 262115Z AUTO 30006KT 10SM SCT055 19/06 A3010 RMK AO2  T01930060,,,,,,42.7,,WNW,29.45,29.2,,Partly Cloudy
KIGQ,09/26/2018 21:35 UTC,30.1,66.74,43.34,42.7,10.36,270.0,,,,,,552.0,,,,10.0,,KIGQ 262135Z AUTO 27009KT 10SM SCT055 19/06 A3010 RMK AO2  T01930063,,,,,,43.24,,W,29.45,29.18,,Partly Cloudy
KIGQ,09/26/2018 21:55 UTC,30.09,66.38,43.16,42.94,9.22,280.0,,,,,,552.0,,,,10.0,,KIGQ 262155Z AUTO 28008KT 260V320 10SM SCT055 19/06 A3009 RMK AO2  T01910062,,,,,,43.06,,W,29.44,29.18,,Partly Cloudy
KIGQ,09/26/2018 22:15 UTC,30.09,65.84,42.62,42.85,5.75,280.0,,,,,,1.0,,,,10.0,,KIGQ 262215Z AUTO 28005KT 10SM CLR 19/06 A3009 RMK AO2  T01880059,,,,,,42.51,,W,29.44,29.2,,Clear
KIGQ,09/26/2018 22:35 UTC,30.09,64.76,42.44,44.18,6.91,280.0,,,,,,1.0,,,,10.0,,KIGQ 262235Z AUTO 28006KT 10SM CLR 18/06 A3009 RMK AO2  T01820058,,,,,,42.33,,W,29.44,29.21,,Clear
KIGQ,09/26/2018 22:55 UTC,30.1,63.86,41.72,44.34,10.36,270.0,,,,,,1.0,,,,10.0,,KIGQ 262255Z AUTO 27009KT 10SM CLR 18/05 A3010 RMK AO2  T01770054,,,,,,41.6,,W,29.45,29.25,,Clear
KIGQ,09/26/2018 23:15 UTC,30.11,62.6,42.98,48.65,5.75,290.0,,,,,,1.0,,,,10.0,,KIGQ 262315Z AUTO 29005KT 10SM CLR 17/06 A3011 RMK AO2  T01700061,,,,,,42.86,,WNW,29.46,29.23,,Clear
KIGQ,09/26/2018 23:35 UTC,30.11,61.34,42.98,50.86,3.44,290.0,,,,,,1.0,,,,10.0,,KIGQ 262335Z AUTO 29003KT 10SM CLR 16/06 A3011 RMK AO2  T01630061,,,,,,42.86,,WNW,29.46,29.24,,Clear
KIGQ,09/26/2018 23:55 UTC,30.11,60.8,42.8,51.48,5.75,280.0,,,,,,1.0,,,,10.0,,KIGQ 262355Z AUTO 28005KT 10SM CLR 16/06 A3011 RMK AO2 T01600060  10197 20160,67.46,60.8,,,,42.68,,W,29.46,29.25,,Clear
KIGQ,09/27/2018 00:15 UTC,30.11,60.08,42.8,52.81,3.44,280.0,,,,,,1.0,,,,10.0,,KIGQ 270015Z AUTO 28003KT 10SM CLR 16/06 A3011 RMK AO2  T01560060,,,,,,42.68,,W,29.46,29.26,,Clear
KIGQ,09/27/2018 00:35 UTC,30.12,59.54,43.16,54.59,0.0,0.0,,,,,,1.0,,,,10.0,,KIGQ 270035Z AUTO 00000KT 10SM CLR 15/06 A3012 RMK AO2  T01530062,,,,,,43.04,,N,29.47,29.26,,Clear
KIGQ,09/27/2018 00:55 UTC,30.13,58.82,43.7,57.18,0.0,0.0,,,,,,1.0,,,,10.0,,KIGQ 270055Z AUTO 00000KT 10SM CLR 15/07 A3013 RMK AO2  T01490065,,,,,,43.59,,N,29.47,29.25,,Clear
KIGQ,09/27/2018 01:15 UTC,30.13,55.22,44.78,67.83,0.0,0.0,,,,,,1.0,,,,10.0,,KIGQ 270115Z AUTO 00000KT 10SM CLR 13/07 A3013 RMK AO2  T01290071,,,,,,44.68,,N,29.47,29.25,,Clear
KIGQ,09/27/2018 01:35 UTC,30.14,55.22,45.68,70.19,0.0,0.0,,,,,,1.0,,,,10.0,,KIGQ 270135Z AUTO 00000KT 10SM CLR 13/08 A3014 RMK AO2  T01290076,,,,,,45.59,,N,29.48,29.23,,Clear
KIGQ,09/27/2018 01:55 UTC,30.14,54.14,44.6,70.07,0.0,0.0,,,,,,1.0,,,,10.0,,KIGQ 270155Z AUTO 00000KT 10SM CLR 12/07 A3014 RMK AO2  T01230070,,,,,,44.51,,N,29.48,29.27,,Clear
KIGQ,09/27/2018 02:15 UTC,30.14,53.78,44.6,71.0,0.0,0.0,,,,,,1.0,,,,10.0,,KIGQ 270215Z AUTO 00000KT 10SM CLR 12/07 A3014 RMK AO2  T01210070,,,,,,44.51,,N,29.48,29.28,,Clear
KIGQ,09/27/2018 02:35 UTC,30.14,54.32,44.78,70.09,0.0,0.0,,,,,,1.0,,,,10.0,,KIGQ 270235Z AUTO 00000KT 10SM CLR 12/07 A3014 RMK AO2  T01240071,,,,,,44.69,,N,29.48,29.27,,Clear
KIGQ,09/27/2018 02:55 UTC,30.14,49.28,44.24,82.69,0.0,0.0,,,,,,1.0,,,,10.0,,KIGQ 270255Z AUTO 00000KT 10SM CLR 10/07 A3014 RMK AO2  T00960068,,,,,,44.18,,N,29.48,29.33,,Clear
KIGQ,09/27/2018 03:15 UTC,30.14,51.44,46.58,83.41,0.0,0.0,,,,,,1.0,,,,10.0,,KIGQ 270315Z AUTO 00000KT 10SM CLR 11/08 A3014 RMK AO2  T01080081,,,,,,46.53,,N,29.48,29.24,,Clear
KIGQ,09/27/2018 03:35 UTC,30.14,51.44,46.04,81.72,0.0,0.0,,,,,,1.0,,,,10.0,,KIGQ 270335Z AUTO 00000KT 10SM CLR 11/08 A3014 RMK AO2  T01080078,,,,,,45.98,,N,29.48,29.25,,Clear
KIGQ,09/27/2018 03:55 UTC,30.14,50.0,45.5,84.45,0.0,0.0,,,,,,1.0,,,,10.0,,KIGQ 270355Z AUTO 00000KT 10SM CLR 10/08 A3014 RMK AO2  T01000075,,,,,,45.45,,N,29.48,29.28,,Clear
KIGQ,09/27/2018 04:15 UTC,30.13,49.82,46.58,88.57,0.0,0.0,,,,,,1.0,,,,10.0,,KIGQ 270415Z AUTO 00000KT 10SM CLR 10/08 A3013 RMK AO2  T00990081,,,,,,46.54,,N,29.47,29.24,,Clear
KIGQ,09/27/2018 04:35 UTC,30.14,47.66,45.32,91.54,3.44,180.0,,,,,,1.0,,,,10.0,,KIGQ 270435Z AUTO 18003KT 10SM CLR 09/07 A3014 RMK AO2  T00870074,,,,,,45.29,,S,29.48,29.31,,Clear
KIGQ,09/27/2018 04:55 UTC,30.14,48.56,46.4,92.2,0.0,0.0,,,,,,1.0,,,,10.0,,KIGQ 270455Z AUTO 00000KT 10SM CLR 09/08 A3014 RMK AO2  T00920080,,,,,,46.37,,N,29.48,29.27,,Clear
KIGQ,09/27/2018 05:15 UTC,30.14,49.1,46.94,92.22,0.0,0.0,,,,,,1.0,,,,10.0,,KIGQ 270515Z AUTO 00000KT 10SM CLR 10/08 A3014 RMK AO2  T00950083,,,,,,46.91,,N,29.48,29.25,,Clear
KIGQ,09/27/2018 05:35 UTC,30.14,48.02,46.4,94.08,0.0,0.0,,,,,,1.0,,,,10.0,,KIGQ 270535Z AUTO 00000KT 10SM CLR 09/08 A3014 RMK AO2  T00890080,,,,,,46.38,,N,29.48,29.27,,Clear
KIGQ,09/27/2018 05:55 UTC,30.13,48.2,45.68,90.94,0.0,0.0,,,,,,1.0,,,,10.0,,KIGQ 270555Z AUTO 00000KT 10SM CLR 09/08 A3013 RMK AO2 T00900076  10160 20082 401970082,60.8,46.76,,67.46,46.76,45.65,,N,29.47,29.28,,Clear
KIGQ,09/27/2018 06:15 UTC,30.13,48.38,45.68,90.33,0.0,0.0,,,,,,1.0,,,,10.0,,KIGQ 270615Z AUTO 00000KT 10SM CLR 09/08 A3013 RMK AO2  T00910076,,,,,,45.65,,N,29.47,29.28,,Clear
KIGQ,09/27/2018 06:35 UTC,30.13,47.66,45.32,91.54,0.0,0.0,,,,,,1.0,,,,10.0,,KIGQ 270635Z AUTO 00000KT 10SM CLR 09/07 A3013 RMK AO2  T00870074,,,,,,45.29,,N,29.47,29.3,,Clear
KIGQ,09/27/2018 06:55 UTC,30.13,46.4,43.7,90.25,0.0,0.0,,,,,,1.0,,,,10.0,,KIGQ 270655Z AUTO 00000KT 10SM CLR 08/07 A3013 RMK AO2  T00800065,,,,,,43.67,,N,29.47,29.36,,Clear
KIGQ,09/27/2018 07:15 UTC,30.13,45.68,43.52,92.1,0.0,0.0,,,,,,1.0,,,,10.0,,KIGQ 270715Z AUTO 00000KT 10SM CLR 08/06 A3013 RMK AO2  T00760064,,,,,,43.49,,N,29.47,29.37,,Clear
KIGQ,09/27/2018 07:35 UTC,30.13,45.32,44.42,96.63,0.0,0.0,,,,,,1.0,,,,10.0,,KIGQ 270735Z AUTO 00000KT 10SM CLR 07/07 A3013 RMK AO2  T00740069,,,,,,44.41,,N,29.47,29.35,,Clear
KIGQ,09/27/2018 07:55 UTC,30.13,45.5,44.06,94.67,3.44,180.0,,,,,,1.0,,,,10.0,,KIGQ 270755Z AUTO 18003KT 10SM CLR 08/07 A3013 RMK AO2  T00750067,,,,,,44.04,,S,29.47,29.35,,Clear
KIGQ,09/27/2018 08:15 UTC,30.13,45.5,44.24,95.32,0.0,0.0,,,,,,1.0,,,,10.0,,KIGQ 270815Z AUTO 00000KT 10SM CLR 08/07 A3013 RMK AO2  T00750068,,,,,,44.22,,N,29.47,29.35,,Clear
KIGQ,09/27/2018 08:35 UTC,30.12,45.86,43.88,92.74,0.0,0.0,,,,,,1.0,,,,10.0,,KIGQ 270835Z AUTO 00000KT 10SM CLR 08/07 A3012 RMK AO2  T00770066,,,,,,43.85,,N,29.47,29.36,,Clear
KIGQ,09/27/2018 08:55 UTC,30.12,45.5,44.24,95.32,0.0,0.0,,,,,,1.0,,,,10.0,,KIGQ 270855Z AUTO 00000KT 10SM CLR 08/07 A3012 RMK AO2  T00750068,,,,,,44.22,,N,29.47,29.35,,Clear
KIGQ,09/27/2018 09:15 UTC,30.12,44.42,43.16,95.3,0.0,0.0,,,,,,1.0,,,,10.0,,KIGQ 270915Z AUTO 00000KT 10SM CLR 07/06 A3012 RMK AO2  T00690062,,,,,,43.14,,N,29.47,29.39,,Clear
KIGQ,09/27/2018 09:35 UTC,30.12,43.88,42.62,95.29,0.0,0.0,,,,,,1.0,,,,10.0,,KIGQ 270935Z AUTO 00000KT 10SM CLR 07/06 A3012 RMK AO2  T00660059,,,,,,42.6,,N,29.47,29.41,,Clear
KIGQ,09/27/2018 09:55 UTC,30.12,44.96,43.16,93.36,0.0,0.0,,,,,,1.0,,,,10.0,,KIGQ 270955Z AUTO 00000KT 10SM CLR 07/06 A3012 RMK AO2  T00720062,,,,,,43.14,,N,29.47,29.38,,Clear
KIGQ,09/27/2018 10:15 UTC,30.12,44.06,42.62,94.63,0.0,0.0,,,,,,1.0,,,,10.0,,KIGQ 271015Z AUTO 00000KT 10SM CLR 07/06 A3012 RMK AO2  T00670059,,,,,,42.6,,N,29.47,29.4,,Clear
KIGQ,09/27/2018 10:35 UTC,30.12,44.6,43.34,95.3,0.0,0.0,,,,,,1.0,,,,10.0,,KIGQ 271035Z AUTO 00000KT 10SM CLR 07/06 A3012 RMK AO2  T00700063,,,,,,43.32,,N,29.47,29.38,,Clear
KIGQ,09/27/2018 10:55 UTC,30.12,43.52,42.08,94.62,0.0,0.0,,,,,,1.0,,,,10.0,,KIGQ 271055Z AUTO 00000KT 10SM CLR 06/06 A3012 RMK AO2  T00640056,,,,,,42.06,,N,29.47,29.42,,Clear
KIGQ,09/27/2018 11:15 UTC,30.13,42.98,42.26,97.27,0.0,0.0,,,,,,1.0,,,,10.0,,KIGQ 271115Z AUTO 00000KT 10SM CLR 06/06 A3013 RMK AO2  T00610057,,,,,,42.25,,N,29.47,29.42,,Clear
KIGQ,09/27/2018 11:35 UTC,30.13,44.06,43.16,96.62,0.0,0.0,,,,,,1.0,,,,10.0,,KIGQ 271135Z AUTO 00000KT 10SM CLR 07/06 A3013 RMK AO2  T00670062,,,,,,43.15,,N,29.47,29.39,,Clear
KIGQ,09/27/2018 11:55 UTC,30.13,43.52,42.44,95.94,0.0,0.0,,,,,,1.0,,,,10.0,,KIGQ 271155Z AUTO 00000KT 10SM CLR 06/06 A3013 RMK AO2 T00640058  10091 20055,48.38,41.9,,,,42.42,,N,29.47,29.41,,Clear
KIGQ,09/27/2018 12:15 UTC,30.12,42.08,41.18,96.59,0.0,0.0,,,,,,1.0,,,,10.0,,KIGQ 271215Z AUTO 00000KT 10SM CLR 06/05 A3012 RMK AO2  T00560051,,,,,,41.17,,N,29.47,29.46,,Clear
KIGQ,09/27/2018 12:35 UTC,30.11,45.14,44.06,95.97,0.0,0.0,,,,,,1.0,,,,10.0,,KIGQ 271235Z AUTO 00000KT 10SM CLR 07/07 A3011 RMK AO2  T00730067,,,,,,44.05,,N,29.46,29.35,,Clear
KIGQ,09/27/2018 12:55 UTC,30.11,48.02,45.32,90.31,0.0,0.0,,,,,,1.0,,,,10.0,,KIGQ 271255Z AUTO 00000KT 10SM CLR 09/07 A3011 RMK AO2  T00890074,,,,,,45.29,,N,29.46,29.29,,Clear
KIGQ,09/27/2018 13:15 UTC,30.11,50.36,46.04,85.05,0.0,0.0,,,,,,1.0,,,,10.0,,KIGQ 271315Z AUTO 00000KT 10SM CLR 10/08 A3011 RMK AO2  T01020078,,,,,,45.99,,N,29.46,29.24,,Clear
KIGQ,09/27/2018 13:35 UTC,30.12,51.44,46.94,84.55,0.0,0.0,,,,,,1.0,,,,10.0,,KIGQ 271335Z AUTO 00000KT 10SM CLR 11/08 A3012 RMK AO2  T01080083,,,,,,46.89,,N,29.47,29.22,,Clear
KIGQ,09/27/2018 13:55 UTC,30.11,53.24,47.66,81.3,0.0,0.0,,,,,,1.0,,,,10.0,,KIGQ 271355Z AUTO 00000KT 10SM CLR 12/09 A3011 RMK AO2  T01180087,,,,,,47.6,,N,29.46,29.17,,Clear
KIGQ,09/27/2018 14:15 UTC,30.11,55.22,48.92,79.29,0.0,0.0,,,,,,1.0,,,,10.0,,KIGQ 271415Z AUTO 00000KT 10SM CLR 13/09 A3011 RMK AO2  T01290094,,,,,,48.86,,N,29.46,29.11,,Clear
KIGQ,09/27/2018 14:35 UTC,30.1,57.02,49.1,74.8,0.0,0.0,,,,,,1.0,,,,10.0,,KIGQ 271435Z AUTO 00000KT 10SM CLR 14/10 A3010 RMK AO2  T01390095,,,,,,49.03,,N,29.45,29.07,,Clear
KIGQ,09/27/2018 14:55 UTC,30.09,59.36,46.94,63.43,3.44,210.0,,,,,,1.0,,,,10.0,,KIGQ 271455Z AUTO 21003KT 10SM CLR 15/08 A3009 RMK AO2  T01520083,,,,,,46.85,,SSW,29.44,29.11,,Clear
KIGQ,09/27/2018 15:15 UTC,30.08,60.62,48.38,64.02,5.75,190.0,,,,,,1.0,,,,10.0,,KIGQ 271515Z AUTO 19005KT 10SM CLR 16/09 A3008 RMK AO2  T01590091,,,,,,48.29,,S,29.43,29.04,,Clear
KIGQ,09/27/2018 15:35 UTC,30.07,61.16,45.68,56.73,5.75,170.0,,,,,,1.0,,,,10.0,,KIGQ 271535Z AUTO 17005KT 10SM CLR 16/08 A3007 RMK AO2  T01620076,,,,,,45.57,,S,29.42,29.12,,Clear
KIGQ,09/27/2018 15:55 UTC,30.06,61.16,44.96,55.2,5.75,210.0,,,,,,1.0,,,,10.0,,KIGQ 271555Z AUTO 21005KT 10SM CLR 16/07 A3006 RMK AO2  T01620072,,,,,,44.85,,SSW,29.41,29.13,,Clear
KIGQ,09/27/2018 16:15 UTC,30.06,62.6,45.68,53.92,8.05,200.0,,,,,,1.0,,,,10.0,,KIGQ 271615Z AUTO 20007KT 10SM CLR 17/08 A3006 RMK AO2  T01700076,,,,,,45.57,,SSW,29.41,29.1,,Clear
KIGQ,09/27/2018 16:35 UTC,30.05,62.78,45.32,52.86,9.22,200.0,,,,,,1.0,,,,10.0,,KIGQ 271635Z AUTO 20008KT 10SM CLR 17/07 A3005 RMK AO2  T01710074,,,,,,45.22,,SSW,29.4,29.1,,Clear
KIGQ,09/27/2018 16:55 UTC,30.05,63.32,44.42,50.12,12.66,190.0,,,,,,1.0,,,,10.0,,KIGQ 271655Z AUTO 19011KT 10SM CLR 17/07 A3005 RMK AO2  T01740069,,,,,,44.31,,S,29.4,29.12,,Clear
KIGQ,09/27/2018 17:15 UTC,30.04,62.78,43.34,49.01,9.22,210.0,,,,,,1.0,,,,10.0,,KIGQ 271715Z AUTO 21008KT 10SM CLR 17/06 A3004 RMK AO2  T01710063,,,,,,43.22,,SSW,29.39,29.15,,Clear
KIGQ,09/27/2018 17:35 UTC,30.04,62.96,43.7,49.38,9.22,220.0,,,,,,1.0,,,,10.0,,KIGQ 271735Z AUTO 22008KT 10SM CLR 17/07 A3004 RMK AO2  T01720065,,,,,,43.59,,SW,29.39,29.14,,Clear
KIGQ,09/27/2018 17:55 UTC,30.04,64.94,42.98,44.83,12.66,220.0,18.41,,,,,1.0,,,,10.0,,KIGQ 271755Z AUTO 22011G16KT 10SM CLR 18/06 A3004 RMK AO2  T01830061 10184 20056,65.12,42.08,,,,42.87,,SW,29.39,29.15,,Clear
KIGQ,09/27/2018 18:15 UTC,30.03,64.04,41.72,44.06,11.5,310.0,,,,,,1.0,,,,10.0,,KIGQ 271815Z AUTO 31010KT 240V350 10SM CLR 18/05 A3003 RMK AO2  T01780054,,,,,,41.6,,NW,29.38,29.18,,Clear
KIGQ,09/27/2018 18:35 UTC,30.03,64.04,42.62,45.62,11.5,220.0,,,,,,1.0,,,,10.0,,KIGQ 271835Z AUTO 22010KT 10SM CLR 18/06 A3003 RMK AO2  T01780059,,,,,,42.51,,SW,29.38,29.15,,Clear
KIGQ,09/27/2018 18:55 UTC,30.01,65.12,41.0,41.27,11.5,230.0,,,,,,1.0,,,,10.0,,KIGQ 271855Z AUTO 23010KT 10SM CLR 18/05 A3001 RMK AO2  T01840050,,,,,,40.88,,SW,29.36,29.17,,Clear
KIGQ,09/27/2018 19:15 UTC,30.0,65.48,41.72,41.91,9.22,210.0,,,,,,1.0,,,,10.0,,KIGQ 271915Z AUTO 21008KT 10SM CLR 19/05 A3000 RMK AO2  T01860054,,,,,,41.61,,SSW,29.35,29.14,,Clear
KIGQ,09/27/2018 19:35 UTC,29.99,67.1,41.54,39.35,11.5,250.0,,,,,,1.0,,,,10.0,,KIGQ 271935Z AUTO 25010KT 10SM CLR 20/05 A2999 RMK AO2  T01950053,,,,,,41.44,,WSW,29.34,29.12,,Clear
KIGQ,09/27/2018 19:55 UTC,29.99,66.38,40.82,39.23,11.5,230.0,,,,,,1.0,,,,10.0,,KIGQ 271955Z AUTO 23010KT 10SM CLR 19/05 A2999 RMK AO2  T01910049,,,,,,40.71,,SW,29.34,29.15,,Clear
KIGQ,09/27/2018 20:15 UTC,29.99,66.02,41.18,40.28,9.22,220.0,,,,,,1.0,,,,10.0,,KIGQ 272015Z AUTO 22008KT 10SM CLR 19/05 A2999 RMK AO2  T01890051,,,,,,41.07,,SW,29.34,29.14,,Clear
KIGQ,09/27/2018 20:35 UTC,29.97,67.28,42.62,40.77,8.05,190.0,,,,,,1.0,,,,10.0,,KIGQ 272035Z AUTO 19007KT 10SM CLR 20/06 A2997 RMK AO2  T01960059,,,,,,42.52,,S,29.32,29.07,,Clear
KIGQ,09/27/2018 20:55 UTC,29.96,67.82,41.0,37.59,12.66,210.0,,,,,,1.0,,,,10.0,,KIGQ 272055Z AUTO 21011KT 10SM CLR 20/05 A2996 RMK AO2  T01990050,,,,,,40.9,,SSW,29.31,29.1,,Clear
KIGQ,09/27/2018 21:15 UTC,29.96,68.0,41.18,37.62,11.5,190.0,18.41,,,,,1.0,,,,10.0,,KIGQ 272115Z AUTO 19010G16KT 10SM CLR 20/05 A2996 RMK AO2  T02000051,,,,,,41.08,,S,29.31,29.1,,Clear
KIGQ,09/27/2018 21:35 UTC,29.96,68.0,41.0,37.36,11.5,220.0,,,,,,1.0,,,,10.0,,KIGQ 272135Z AUTO 22010KT 10SM CLR 20/05 A2996 RMK AO2  T02000050,,,,,,40.9,,SW,29.31,29.1,,Clear
KIGQ,09/27/2018 21:55 UTC,29.95,67.64,41.9,39.17,8.05,220.0,,,,,,1.0,,,,10.0,,KIGQ 272155Z AUTO 22007KT 10SM CLR 20/06 A2995 RMK AO2  T01980055,,,,,,41.81,,SW,29.3,29.07,,Clear
KIGQ,09/27/2018 22:15 UTC,29.94,67.1,42.62,41.02,10.36,230.0,,,,,,1.0,,,,10.0,,KIGQ 272215Z AUTO 23009KT 10SM CLR 20/06 A2994 RMK AO2  T01950059,,,,,,42.52,,SW,29.29,29.04,,Clear
KIGQ,09/27/2018 22:35 UTC,29.94,66.74,42.8,41.82,11.5,200.0,,,,,,1.0,,,,10.0,,KIGQ 272235Z AUTO 20010KT 10SM CLR 19/06 A2994 RMK AO2  T01930060,,,,,,42.7,,SSW,29.29,29.04,,Clear
KIGQ,09/27/2018 22:55 UTC,29.94,65.3,43.16,44.57,6.91,220.0,,,,,,1.0,,,,10.0,,KIGQ 272255Z AUTO 22006KT 10SM CLR 19/06 A2994 RMK AO2  T01850062,,,,,,43.05,,SW,29.29,29.04,,Clear
KIGQ,09/27/2018 23:15 UTC,29.95,63.86,41.0,43.13,6.91,220.0,,,,,,1.0,,,,10.0,,KIGQ 272315Z AUTO 22006KT 10SM CLR 18/05 A2995 RMK AO2  T01770050,,,,,,40.88,,SW,29.3,29.12,,Clear
KIGQ,09/27/2018 23:35 UTC,29.95,61.34,41.18,47.45,5.75,220.0,,,,,,1.0,,,,10.0,,KIGQ 272335Z AUTO 22005KT 10SM CLR 16/05 A2995 RMK AO2  T01630051,,,,,,41.05,,SW,29.3,29.13,,Clear
KIGQ,09/28/2018 00:00 UTC,29.95,56.66,41.36,56.47,4.61,200.0,,,,,,1.0,,,,10.0,,KIGQ 280000Z AUTO 20004KT 10SM CLR 14/05 A2995 RMK AO2  T01370052,,,,,,41.23,,SSW,29.3,29.16,,Clear
KIGQ,09/28/2018 00:15 UTC,29.95,57.02,41.72,56.53,4.61,200.0,,,,,,1.0,,,,10.0,,KIGQ 280015Z AUTO 20004KT 10SM CLR 14/05 A2995 RMK AO2  T01390054,,,,,,41.6,,SSW,29.3,29.15,,Clear
KIGQ,09/28/2018 00:35 UTC,29.95,57.38,41.72,55.8,5.75,180.0,,,,,,1.0,,,,10.0,,KIGQ 280035Z AUTO 18005KT 10SM CLR 14/05 A2995 RMK AO2  T01410054,,,,,,41.6,,S,29.3,29.15,,Clear
KIGQ,09/28/2018 00:55 UTC,29.96,57.02,41.9,56.92,5.75,180.0,,,,,,1.0,,,,10.0,,KIGQ 280055Z AUTO 18005KT 10SM CLR 14/06 A2996 RMK AO2  T01390055,,,,,,41.78,,S,29.31,29.15,,Clear
KIGQ,09/28/2018 01:15 UTC,29.96,55.94,43.52,62.98,6.91,170.0,,,,,,1.0,,,,10.0,,KIGQ 280115Z AUTO 17006KT 10SM CLR 13/06 A2996 RMK AO2  T01330064,,,,,,43.41,,S,29.31,29.12,,Clear
KIGQ,09/28/2018 01:35 UTC,29.96,54.68,44.6,68.71,9.22,180.0,,,,,,1.0,,,,10.0,,KIGQ 280135Z AUTO 18008KT 10SM CLR 13/07 A2996 RMK AO2  T01260070,,,,,,44.51,,S,29.31,29.1,,Clear
KIGQ,09/28/2018 01:55 UTC,29.96,56.12,43.88,63.44,8.05,180.0,,,,,,1.0,,,,10.0,,KIGQ 280155Z AUTO 18007KT 10SM CLR 13/07 A2996 RMK AO2  T01340066,,,,,,43.77,,S,29.31,29.1,,Clear
KIGQ,09/28/2018 02:15 UTC,29.96,55.22,44.6,67.37,6.91,180.0,,,,,,1.0,,,,10.0,,KIGQ 280215Z AUTO 18006KT 10SM CLR 13/07 A2996 RMK AO2  T01290070,,,,,,44.5,,S,29.31,29.09,,Clear
KIGQ,09/28/2018 02:35 UTC,29.96,53.78,44.96,71.98,4.61,190.0,,,,,,1.0,,,,10.0,,KIGQ 280235Z AUTO 19004KT 10SM CLR 12/07 A2996 RMK AO2  T01210072,,,,,,44.87,,S,29.31,29.09,,Clear
KIGQ,09/28/2018 02:55 UTC,29.98,54.32,44.96,70.57,4.61,210.0,,,,,,1.0,,,,10.0,,KIGQ 280255Z AUTO 21004KT 10SM CLR 12/07 A2998 RMK AO2  T01240072,,,,,,44.87,,SSW,29.33,29.11,,Clear
KIGQ,09/28/2018 03:15 UTC,29.99,51.62,44.42,76.34,4.61,210.0,,,,,,1.0,,,,10.0,,KIGQ 280315Z AUTO 21004KT 10SM CLR 11/07 A2999 RMK AO2  T01090069,,,,,,44.34,,SSW,29.34,29.16,,Clear
KIGQ,09/28/2018 03:35 UTC,29.99,55.04,44.96,68.75,4.61,210.0,,,,,,1.0,,,,10.0,,KIGQ 280335Z AUTO 21004KT 10SM CLR 13/07 A2999 RMK AO2  T01280072,,,,,,44.87,,SSW,29.34,29.11,,Clear
KIGQ,09/28/2018 03:55 UTC,29.99,52.88,44.78,73.88,4.61,200.0,,,,,,1.0,,,,10.0,,KIGQ 280355Z AUTO 20004KT 10SM CLR 12/07 A2999 RMK AO2  T01160071,,,,,,44.7,,SSW,29.34,29.14,,Clear
KIGQ,09/28/2018 04:15 UTC,29.99,53.24,44.96,73.42,4.61,200.0,,,,,,1102.0,,,,10.0,,KIGQ 280415Z AUTO 20004KT 10SM SCT110 12/07 A2999 RMK AO2  T01180072,,,,,,44.88,,SSW,29.34,29.13,,Partly Cloudy
KIGQ,09/28/2018 04:35 UTC,29.99,53.42,46.04,75.98,4.61,190.0,,,,,,1.0,,,,10.0,,KIGQ 280435Z AUTO 19004KT 10SM CLR 12/08 A2999 RMK AO2  T01190078,,,,,,45.96,,S,29.34,29.09,,Clear
KIGQ,09/28/2018 04:55 UTC,29.99,54.68,45.68,71.58,9.22,200.0,,,,,,1.0,,,,10.0,,KIGQ 280455Z AUTO 20008KT 10SM CLR 13/08 A2999 RMK AO2  T01260076,,,,,,45.59,,SSW,29.34,29.09,,Clear
KIGQ,09/28/2018 05:15 UTC,29.99,54.86,45.5,70.63,8.05,200.0,,,,,,1.0,,,,10.0,,KIGQ 280515Z AUTO 20007KT 10SM CLR 13/08 A2999 RMK AO2  T01270075,,,,,,45.41,,SSW,29.34,29.1,,Clear
KIGQ,09/28/2018 05:35 UTC,29.99,55.04,45.5,70.17,8.05,220.0,,,,,,1.0,,,,10.0,,KIGQ 280535Z AUTO 22007KT 10SM CLR 13/08 A2999 RMK AO2  T01280075,,,,,,45.41,,SW,29.34,29.1,,Clear
KIGQ,09/28/2018 05:55 UTC,29.99,55.04,45.5,70.17,8.05,210.0,,,,,,1.0,,,,10.0,,KIGQ 280555Z AUTO 21007KT 10SM CLR 13/08 A2999 RMK AO2 T01280075  10145 20109 402010055,58.1,51.62,,68.18,41.9,45.41,,SSW,29.34,29.1,,Clear
KIGQ,09/28/2018 06:15 UTC,29.99,54.5,45.5,71.57,6.91,210.0,,,,,,1.0,,,,10.0,,KIGQ 280615Z AUTO 21006KT 10SM CLR 13/08 A2999 RMK AO2  T01250075,,,,,,45.42,,SSW,29.34,29.1,,Clear
KIGQ,09/28/2018 06:35 UTC,29.99,54.5,45.68,72.06,9.22,210.0,,,,,,1.0,,,,10.0,,KIGQ 280635Z AUTO 21008KT 10SM CLR 13/08 A2999 RMK AO2  T01250076,,,,,,45.6,,SSW,29.34,29.09,,Clear
KIGQ,09/28/2018 06:55 UTC,30.0,54.5,45.68,72.06,6.91,220.0,,,,,,1.0,,,,10.0,,KIGQ 280655Z AUTO 22006KT 10SM CLR 13/08 A3000 RMK AO2  T01250076,,,,,,45.6,,SW,29.35,29.11,,Clear
KIGQ,09/28/2018 07:15 UTC,29.99,54.5,46.04,73.04,6.91,220.0,,,,,,1.0,,,,10.0,,KIGQ 280715Z AUTO 22006KT 10SM CLR 13/08 A2999 RMK AO2  T01250078,,,,,,45.96,,SW,29.34,29.08,,Clear
KIGQ,09/28/2018 07:35 UTC,30.0,54.5,46.4,74.05,6.91,220.0,,,,,,1.0,,,,10.0,,KIGQ 280735Z AUTO 22006KT 10SM CLR 13/08 A3000 RMK AO2  T01250080,,,,,,46.32,,SW,29.35,29.08,,Clear
KIGQ,09/28/2018 07:55 UTC,29.99,54.86,46.4,73.08,6.91,220.0,,,,,,1.0,,,,10.0,,KIGQ 280755Z AUTO 22006KT 10SM CLR 13/08 A2999 RMK AO2  T01270080,,,,,,46.32,,SW,29.34,29.07,,Clear
KIGQ,09/28/2018 08:15 UTC,29.99,54.5,46.58,74.55,6.91,220.0,,,,,,1.0,,,,10.0,,KIGQ 280815Z AUTO 22006KT 10SM CLR 13/08 A2999 RMK AO2  T01250081,,,,,,46.5,,SW,29.34,29.07,,Clear
KIGQ,09/28/2018 08:35 UTC,29.99,53.78,46.58,76.54,8.05,210.0,,,,,,1.0,,,,10.0,,KIGQ 280835Z AUTO 21007KT 10SM CLR 12/08 A2999 RMK AO2  T01210081,,,,,,46.51,,SSW,29.34,29.07,,Clear
KIGQ,09/28/2018 08:55 UTC,30.0,53.06,46.58,78.58,5.75,220.0,,,,,,1.0,,,,10.0,,KIGQ 280855Z AUTO 22005KT 10SM CLR 12/08 A3000 RMK AO2  T01170081,,,,,,46.51,,SW,29.35,29.09,,Clear
KIGQ,09/28/2018 09:15 UTC,30.0,52.7,46.4,79.08,4.61,220.0,,,,,,1.0,,,,10.0,,KIGQ 280915Z AUTO 22004KT 10SM CLR 12/08 A3000 RMK AO2  T01150080,,,,,,46.33,,SW,29.35,29.1,,Clear
KIGQ,09/28/2018 09:35 UTC,30.0,52.34,46.58,80.68,4.61,220.0,,,,,,1.0,,,,10.0,,KIGQ 280935Z AUTO 22004KT 10SM CLR 11/08 A3000 RMK AO2  T01130081,,,,,,46.52,,SW,29.35,29.1,,Clear
KIGQ,09/28/2018 09:55 UTC,30.01,52.7,46.4,79.08,5.75,230.0,,,,,,1.0,,,,10.0,,KIGQ 280955Z AUTO 23005KT 10SM CLR 12/08 A3001 RMK AO2  T01150080,,,,,,46.33,,SW,29.36,29.11,,Clear
KIGQ,09/28/2018 10:15 UTC,30.01,52.88,46.4,78.56,5.75,240.0,,,,,,1.0,,,,10.0,,KIGQ 281015Z AUTO 24005KT 10SM CLR 12/08 A3001 RMK AO2  T01160080,,,,,,46.33,,WSW,29.36,29.11,,Clear
KIGQ,09/28/2018 10:35 UTC,30.01,52.88,46.58,79.1,5.75,240.0,,,,,,1.0,,,,10.0,,KIGQ 281035Z AUTO 24005KT 10SM CLR 12/08 A3001 RMK AO2  T01160081,,,,,,46.51,,WSW,29.36,29.1,,Clear
KIGQ,09/28/2018 10:55 UTC,30.01,52.7,46.76,80.17,6.91,220.0,,,,,,1.0,,,,10.0,,KIGQ 281055Z AUTO 22006KT 10SM CLR 12/08 A3001 RMK AO2  T01150082,,,,,,46.7,,SW,29.36,29.1,,Clear
KIGQ,09/28/2018 11:15 UTC,30.03,51.8,46.58,82.31,6.91,230.0,,,,,,1.0,,,,10.0,,KIGQ 281115Z AUTO 23006KT 10SM CLR 11/08 A3003 RMK AO2  T01100081,,,,,,46.52,,SW,29.38,29.13,,Clear
KIGQ,09/28/2018 11:35 UTC,30.04,51.8,46.76,82.87,6.91,230.0,,,,,,1.0,,,,10.0,,KIGQ 281135Z AUTO 23006KT 10SM CLR 11/08 A3004 RMK AO2  T01100082,,,,,,46.71,,SW,29.39,29.14,,Clear
KIGQ,09/28/2018 11:55 UTC,30.04,51.08,46.58,84.52,4.61,220.0,,,,,,1.0,,,,10.0,,KIGQ 281155Z AUTO 22004KT 10SM CLR 11/08 A3004 RMK AO2 T01060081  10128 20106,55.04,51.08,,,,46.53,,SW,29.39,29.15,,Clear
KIGQ,09/28/2018 12:15 UTC,30.05,50.36,46.94,87.99,3.44,230.0,,,,,,1.0,,,,10.0,,KIGQ 281215Z AUTO 23003KT 10SM CLR 10/08 A3005 RMK AO2  T01020083,,,,,,46.9,,SW,29.4,29.15,,Clear
KIGQ,09/28/2018 12:35 UTC,30.05,51.8,47.3,84.57,0.0,0.0,,,,,,1.0,,,,10.0,,KIGQ 281235Z AUTO 00000KT 10SM CLR 11/09 A3005 RMK AO2  T01100085,,,,,,47.25,,N,29.4,29.13,,Clear
KIGQ,09/28/2018 12:55 UTC,30.06,51.08,47.66,88.03,0.0,0.0,,,,,,1.0,,,,10.0,,KIGQ 281255Z AUTO 00000KT 10SM CLR 11/09 A3006 RMK AO2  T01060087,,,,,,47.62,,N,29.41,29.14,,Clear
KIGQ,09/28/2018 13:15 UTC,30.06,54.5,49.28,82.5,0.0,0.0,,,,,,1.0,,,,10.0,,KIGQ 281315Z AUTO 00000KT 10SM CLR 13/10 A3006 RMK AO2  T01250096,,,,,,49.23,,N,29.41,29.05,,Clear
KIGQ,09/28/2018 13:35 UTC,30.06,57.2,48.92,73.82,5.75,250.0,,,,,,1.0,,,,10.0,,KIGQ 281335Z AUTO 25005KT 10SM CLR 14/09 A3006 RMK AO2  T01400094,,,,,,48.85,,WSW,29.41,29.04,,Clear
KIGQ,09/28/2018 13:55 UTC,30.08,58.46,48.74,70.08,6.91,280.0,,,,,,1.0,,,,10.0,,KIGQ 281355Z AUTO 28006KT 10SM CLR 15/09 A3008 RMK AO2  T01470093,,,,,,48.66,,W,29.43,29.05,,Clear
KIGQ,09/28/2018 14:15 UTC,30.09,58.82,48.38,68.26,8.05,310.0,,,,,,1.0,,,,10.0,,KIGQ 281415Z AUTO 31007KT 10SM CLR 15/09 A3009 RMK AO2  T01490091,,,,,,48.3,,NW,29.44,29.07,,Clear
KIGQ,09/28/2018 14:35 UTC,30.09,59.36,48.74,67.86,4.61,290.0,,,,,,1.0,,,,10.0,,KIGQ 281435Z AUTO 29004KT 10SM CLR 15/09 A3009 RMK AO2  T01520093,,,,,,48.66,,WNW,29.44,29.05,,Clear
KIGQ,09/28/2018 14:55 UTC,30.09,58.64,48.74,69.63,5.75,280.0,,,,,,1202.0,,,,10.0,,KIGQ 281455Z AUTO 28005KT 10SM SCT120 15/09 A3009 RMK AO2  T01480093,,,,,,48.66,,W,29.44,29.06,,Partly Cloudy
KIGQ,09/28/2018 15:15 UTC,30.1,59.18,49.28,69.69,4.61,290.0,,,,,,1202.0,,,,10.0,,KIGQ 281515Z AUTO 29004KT 10SM SCT120 15/10 A3010 RMK AO2  T01510096,,,,,,49.2,,WNW,29.45,29.05,,Partly Cloudy
KIGQ,09/28/2018 15:35 UTC,30.1,61.7,50.0,65.46,5.75,300.0,,,,,,1.0,,,,10.0,,KIGQ 281535Z AUTO 30005KT 10SM CLR 17/10 A3010 RMK AO2  T01650100,,,,,,49.92,,WNW,29.45,29.0,,Clear
KIGQ,09/28/2018 15:55 UTC,30.09,62.6,47.84,58.5,6.91,300.0,,,,,,1.0,,,,10.0,,KIGQ 281555Z AUTO 30006KT 10SM CLR 17/09 A3009 RMK AO2  T01700088,,,,,,47.75,,WNW,29.44,29.06,,Clear
KIGQ,09/28/2018 16:15 UTC,30.1,63.86,48.02,56.35,8.05,320.0,,,,,,1.0,,,,10.0,,KIGQ 281615Z AUTO 32007KT 10SM CLR 18/09 A3010 RMK AO2  T01770089,,,,,,47.93,,NW,29.45,29.05,,Clear
KIGQ,09/28/2018 16:35 UTC,30.11,64.22,47.66,54.9,12.66,310.0,18.41,,,,,952.0,,,,10.0,,KIGQ 281635Z AUTO 31011G16KT 10SM SCT095 18/09 A3011 RMK AO2  T01790087,,,,,,47.57,,NW,29.46,29.07,,Partly Cloudy
KIGQ,09/28/2018 16:55 UTC,30.11,64.22,48.02,55.65,3.44,320.0,,,,,,953.0,,,,10.0,,KIGQ 281655Z AUTO 32003KT 10SM BKN095 18/09 A3011 RMK AO2  T01790089,,,9500.0,,,47.93,,NW,29.46,29.06,,Mostly Cloudy
KIGQ,09/28/2018 17:15 UTC,30.11,65.66,48.2,53.29,11.5,310.0,16.11,,,,,953.0,,,,10.0,,KIGQ 281715Z AUTO 31010G14KT 10SM BKN095 19/09 A3011 RMK AO2  T01870090,,,9500.0,,,48.11,,NW,29.46,29.04,,Mostly Cloudy
KIGQ,09/28/2018 17:35 UTC,30.11,64.4,47.3,53.82,9.22,320.0,,,,,,954.0,,,,10.0,,KIGQ 281735Z AUTO 32008KT 10SM OVC095 18/09 A3011 RMK AO2  T01800085,,,9500.0,,,47.2,,NW,29.46,29.08,,Overcast
KIGQ,09/28/2018 17:55 UTC,30.11,64.76,46.94,52.44,5.75,300.0,,,,,,854.0,,,,10.0,,KIGQ 281755Z AUTO 30005KT 10SM OVC085 18/08 A3011 RMK AO2  T01820083 10187 20102,65.66,50.36,8500.0,,,46.85,,WNW,29.46,29.09,,Overcast
KIGQ,09/28/2018 18:15 UTC,30.11,62.96,45.86,53.61,8.05,290.0,,,,,,854.0,,,,10.0,,KIGQ 281815Z AUTO 29007KT 10SM OVC085 17/08 A3011 RMK AO2  T01720077,,,8500.0,,,45.76,,WNW,29.46,29.14,,Overcast
KIGQ,09/28/2018 18:35 UTC,30.13,62.6,45.68,53.92,6.91,310.0,,,,,,702.0,854.0,,,10.0,,KIGQ 281835Z AUTO 31006KT 10SM SCT070 OVC085 17/08 A3013 RMK AO2  T01700076,,,8500.0,,,45.57,,NW,29.47,29.16,,Overcast
KIGQ,09/28/2018 18:55 UTC,30.12,61.7,44.96,54.16,9.22,320.0,,,,,,704.0,,,,10.0,,KIGQ 281855Z AUTO 32008KT 10SM OVC070 17/07 A3012 RMK AO2  T01650072,,,7000.0,,,44.85,,NW,29.47,29.19,,Overcast
KIGQ,09/28/2018 19:15 UTC,30.13,60.98,44.6,54.8,9.22,310.0,,,,,,704.0,,,,10.0,,KIGQ 281915Z AUTO 31008KT 10SM OVC070 16/07 A3013 RMK AO2  T01610070,,,7000.0,,,44.49,,NW,29.47,29.21,,Overcast
KIGQ,09/28/2018 19:35 UTC,30.14,60.8,46.76,59.86,9.22,310.0,,,,,,704.0,,,,10.0,,KIGQ 281935Z AUTO 31008KT 10SM OVC070 16/08 A3014 RMK AO2  T01600082,,,7000.0,,,46.66,,NW,29.48,29.15,,Overcast
KIGQ,09/28/2018 19:55 UTC,30.13,60.98,45.32,56.32,8.05,300.0,,,,,,703.0,954.0,,,10.0,,KIGQ 281955Z AUTO 30007KT 10SM BKN070 OVC095 16/07 A3013 RMK AO2  T01610074,,,7000.0,,,45.21,,WNW,29.47,29.18,,Overcast
KIGQ,09/28/2018 20:15 UTC,30.16,59.9,44.6,56.94,11.5,320.0,16.11,,,,,803.0,904.0,,,10.0,,KIGQ 282015Z AUTO 32010G14KT 10SM BKN080 OVC090 16/07 A3016 RMK AO2 T01550070,,,8000.0,,,44.49,,NW,29.5,29.25,,Overcast
KIGQ,09/28/2018 20:35 UTC,30.16,59.36,46.76,63.0,12.66,330.0,16.11,,804.0,,,332.0,432.0,,,10.0,,KIGQ 282035Z AUTO 33011G14KT 10SM SCT033 SCT043 OVC080 15/08 A3016 RMK AO2 T01520082,,,8000.0,,,46.66,,NNW,29.5,29.18,,Overcast
KIGQ,09/28/2018 20:55 UTC,30.19,57.38,46.22,66.26,12.66,310.0,18.41,13.0,804.0,,,332.0,432.0,,,10.0,,KIGQ 282055Z AUTO 31011G16KT 10SM -RA SCT033 SCT043 OVC080 14/08  A3019 RMK AO2 T01410079,,,8000.0,,,46.12,,NW,29.53,29.25,,Light Rain
KIGQ,09/28/2018 21:15 UTC,30.19,56.3,42.98,60.9,12.66,310.0,17.27,13.0,,,,804.0,,,,10.0,,KIGQ 282115Z AUTO 31011G15KT 10SM -RA OVC080 14/06 A3019 RMK AO2  T01350061,,,8000.0,,,42.87,,NW,29.53,29.35,,Light Rain
KIGQ,09/28/2018 21:35 UTC,30.2,54.14,38.84,56.11,16.11,320.0,23.02,13.0,,,,704.0,,,,10.0,,KIGQ 282135Z AUTO 32014G20KT 10SM -RA OVC070 12/04 A3020 RMK AO2  T01230038,,,7000.0,,,38.7,,NW,29.54,29.49,,Light Rain
KIGQ,09/28/2018 21:55 UTC,30.22,53.06,41.0,63.48,16.11,330.0,20.71,13.0,,,,704.0,,,,10.0,,KIGQ 282155Z AUTO 33014G18KT 10SM -RA OVC070 12/05 A3022 RMK AO2  T01170050,,,7000.0,,,40.88,,NNW,29.56,29.46,,Light Rain
KIGQ,09/28/2018 22:15 UTC,30.21,52.52,41.18,65.21,12.66,320.0,,13.0,,,,704.0,,,,10.0,,KIGQ 282215Z AUTO 32011KT 10SM -RA OVC070 11/05 A3021 RMK AO2  T01140051,,,7000.0,,,41.07,,NW,29.55,29.45,,Light Rain
KIGQ,09/28/2018 22:35 UTC,30.21,51.8,42.44,70.29,5.75,330.0,,13.0,,,,804.0,,,,10.0,,KIGQ 282235Z AUTO 33005KT 10SM -RA OVC080 11/06 A3021 RMK AO2  T01100058,,,8000.0,,,42.34,,NNW,29.55,29.43,,Light Rain
KIGQ,09/28/2018 22:55 UTC,30.21,51.26,43.52,74.74,6.91,340.0,17.27,13.0,,,,804.0,,,,10.0,,KIGQ 282255Z AUTO 34006G15KT 10SM -RA OVC080 11/06 A3021 RMK AO2  T01070064,,,8000.0,,,43.44,,NNW,29.55,29.4,,Light Rain
KIGQ,09/28/2018 23:15 UTC,30.21,50.54,43.88,77.83,3.44,330.0,,13.0,,,,802.0,904.0,,,10.0,,KIGQ 282315Z AUTO 33003KT 10SM -RA SCT080 OVC090 10/07 A3021 RMK AO2 T01030066,,,9000.0,,,43.81,,NNW,29.55,29.4,,Light Rain
KIGQ,09/28/2018 23:35 UTC,30.22,50.54,44.24,78.9,4.61,320.0,,13.0,,,,904.0,,,,10.0,,KIGQ 282335Z AUTO 32004KT 10SM -RA OVC090 10/07 A3022 RMK AO2  T01030068,,,9000.0,,,44.17,,NW,29.56,29.4,,Light Rain
KIGQ,09/28/2018 23:55 UTC,30.22,50.0,43.88,79.4,0.0,0.0,,13.0,,,,1004.0,,,,10.0,,KIGQ 282355Z AUTO 00000KT 10SM -RA OVC100 10/07 A3022 RMK AO2  T01000066 10181 20100,64.58,50.0,10000.0,,,43.81,,N,29.56,29.41,,Light Rain
KIGQ,09/29/2018 00:15 UTC,30.22,50.0,44.6,81.61,4.61,320.0,,13.0,,,,1004.0,,,,10.0,,KIGQ 290015Z AUTO 32004KT 10SM -RA OVC100 10/07 A3022 RMK AO2  T01000070,,,10000.0,,,44.54,,NW,29.56,29.39,,Light Rain
KIGQ,09/29/2018 00:35 UTC,30.23,50.0,44.96,82.74,0.0,0.0,,,,,,1004.0,,,,10.0,,KIGQ 290035Z AUTO 00000KT 10SM OVC100 10/07 A3023 RMK AO2  T01000072,,,10000.0,,,44.9,,N,29.57,29.39,,Overcast
KIGQ,09/29/2018 00:55 UTC,30.23,50.0,45.32,83.88,3.44,300.0,,,,,,1004.0,,,,10.0,,KIGQ 290055Z AUTO 30003KT 10SM OVC100 10/07 A3023 RMK AO2  T01000074,,,10000.0,,,45.27,,WNW,29.57,29.38,,Overcast
KIGQ,09/29/2018 01:15 UTC,30.25,50.0,45.14,83.31,4.61,300.0,,,,,,1102.0,,,,10.0,,KIGQ 290115Z AUTO 30004KT 10SM SCT110 10/07 A3025 RMK AO2  T01000073,,,,,,45.08,,WNW,29.59,29.41,,Partly Cloudy
KIGQ,09/29/2018 01:35 UTC,30.25,49.46,44.6,83.27,4.61,300.0,,,,,,1.0,,,,10.0,,KIGQ 290135Z AUTO 30004KT 10SM CLR 10/07 A3025 RMK AO2  T00970070,,,,,,44.54,,WNW,29.59,29.43,,Clear
KIGQ,09/29/2018 01:55 UTC,30.25,49.28,43.52,80.44,5.75,310.0,,,,,,1.0,,,,10.0,,KIGQ 290155Z AUTO 31005KT 10SM CLR 10/06 A3025 RMK AO2  T00960064,,,,,,43.45,,NW,29.59,29.46,,Clear
KIGQ,09/29/2018 02:15 UTC,30.26,48.92,42.62,78.77,4.61,300.0,,,,,,1.0,,,,10.0,,KIGQ 290215Z AUTO 30004KT 10SM CLR 09/06 A3026 RMK AO2  T00940059,,,,,,42.55,,WNW,29.6,29.5,,Clear
KIGQ,09/29/2018 02:35 UTC,30.26,48.38,42.44,79.82,6.91,310.0,,,,,,1.0,,,,10.0,,KIGQ 290235Z AUTO 31006KT 10SM CLR 09/06 A3026 RMK AO2  T00910058,,,,,,42.37,,NW,29.6,29.5,,Clear
KIGQ,09/29/2018 02:55 UTC,30.26,48.38,41.9,78.18,6.91,310.0,,,,,,1.0,,,,10.0,,KIGQ 290255Z AUTO 31006KT 10SM CLR 09/06 A3026 RMK AO2  T00910055,,,,,,41.82,,NW,29.6,29.52,,Clear
KIGQ,09/29/2018 03:15 UTC,30.27,48.2,41.9,78.7,3.44,300.0,,,,,,1.0,,,,10.0,,KIGQ 290315Z AUTO 30003KT 10SM CLR 09/06 A3027 RMK AO2  T00900055,,,,,,41.82,,WNW,29.61,29.53,,Clear
KIGQ,09/29/2018 03:35 UTC,30.28,47.48,41.9,80.86,5.75,300.0,,,,,,1.0,,,,10.0,,KIGQ 290335Z AUTO 30005KT 10SM CLR 09/06 A3028 RMK AO2  T00860055,,,,,,41.83,,WNW,29.62,29.55,,Clear
KIGQ,09/29/2018 03:55 UTC,30.28,47.3,41.9,81.41,4.61,310.0,,,,,,1.0,,,,10.0,,KIGQ 290355Z AUTO 31004KT 10SM CLR 09/06 A3028 RMK AO2  T00850055,,,,,,41.83,,NW,29.62,29.55,,Clear
KIGQ,09/29/2018 04:15 UTC,30.28,47.3,41.9,81.41,4.61,320.0,,,,,,1.0,,,,10.0,,KIGQ 290415Z AUTO 32004KT 10SM CLR 09/06 A3028 RMK AO2  T00850055,,,,,,41.83,,NW,29.62,29.55,,Clear
KIGQ,09/29/2018 04:35 UTC,30.29,46.94,42.08,83.1,0.0,0.0,,,,,,1.0,,,,10.0,,KIGQ 290435Z AUTO 00000KT 10SM CLR 08/06 A3029 RMK AO2  T00830056,,,,,,42.02,,N,29.63,29.56,,Clear
KIGQ,09/29/2018 04:55 UTC,30.29,46.58,41.9,83.65,0.0,0.0,,,,,,1.0,,,,10.0,,KIGQ 290455Z AUTO 00000KT 10SM CLR 08/06 A3029 RMK AO2  T00810055,,,,,,41.84,,N,29.63,29.56,,Clear
KIGQ,09/29/2018 05:15 UTC,30.29,45.86,41.9,85.96,3.44,280.0,,,,,,1.0,,,,10.0,,KIGQ 290515Z AUTO 28003KT 10SM CLR 08/06 A3029 RMK AO2  T00770055,,,,,,41.85,,W,29.63,29.57,,Clear
KIGQ,09/29/2018 05:35 UTC,30.29,44.96,41.9,88.94,0.0,0.0,,,,,,1.0,,,,10.0,,KIGQ 290535Z AUTO 00000KT 10SM CLR 07/06 A3029 RMK AO2  T00720055,,,,,,41.86,,N,29.63,29.58,,Clear
KIGQ,09/29/2018 05:55 UTC,30.3,44.96,41.72,88.33,3.44,290.0,,,,,,1.0,,,,10.0,,KIGQ 290555Z AUTO 29003KT 10SM CLR 07/05 A3030 RMK AO2 T00720054  10100 20070 401870070,50.0,44.6,,65.66,44.6,41.68,,WNW,29.64,29.59,,Clear
KIGQ,09/29/2018 06:15 UTC,30.3,44.6,41.36,88.31,0.0,0.0,,,,,,1.0,,,,10.0,,KIGQ 290615Z AUTO 00000KT 10SM CLR 07/05 A3030 RMK AO2  T00700052,,,,,,41.32,,N,29.64,29.6,,Clear
KIGQ,09/29/2018 06:35 UTC,30.3,44.6,41.9,90.17,0.0,0.0,,,,,,1.0,,,,10.0,,KIGQ 290635Z AUTO 00000KT 10SM CLR 07/06 A3030 RMK AO2  T00700055,,,,,,41.86,,N,29.64,29.59,,Clear
KIGQ,09/29/2018 06:55 UTC,30.3,43.34,40.46,89.49,0.0,0.0,,,,,,1.0,,,,10.0,,KIGQ 290655Z AUTO 00000KT 10SM CLR 06/05 A3030 RMK AO2  T00630047,,,,,,40.42,,N,29.64,29.64,,Clear
KIGQ,09/29/2018 07:15 UTC,30.31,42.44,40.64,93.28,0.0,0.0,,,,,,1.0,,,,10.0,,KIGQ 290715Z AUTO 00000KT 10SM CLR 06/05 A3031 RMK AO2  T00580048,,,,,,40.61,,N,29.65,29.65,,Clear
KIGQ,09/29/2018 07:35 UTC,30.31,41.36,39.38,92.6,3.44,280.0,,,,,,1.0,,,,10.0,,KIGQ 290735Z AUTO 28003KT 10SM CLR 05/04 A3031 RMK AO2  T00520041,,,,,,39.35,,W,29.65,29.69,,Clear
KIGQ,09/29/2018 07:55 UTC,30.31,42.08,40.46,93.93,0.0,0.0,,,,,,1.0,,,,10.0,,KIGQ 290755Z AUTO 00000KT 10SM CLR 06/05 A3031 RMK AO2  T00560047,,,,,,40.44,,N,29.65,29.66,,Clear
KIGQ,09/29/2018 08:15 UTC,30.32,41.36,39.74,93.91,3.44,260.0,,,,,,1.0,,,,10.0,,KIGQ 290815Z AUTO 26003KT 10SM CLR 05/04 A3032 RMK AO2  T00520043,,,,,,39.72,,W,29.66,29.69,,Clear
KIGQ,09/29/2018 08:35 UTC,30.32,40.46,38.84,93.88,4.61,260.0,,,,,,1.0,,,,10.0,,KIGQ 290835Z AUTO 26004KT 10SM CLR 05/04 A3032 RMK AO2  T00470038,,,,,,38.81,,W,29.66,29.72,,Clear
KIGQ,09/29/2018 08:55 UTC,30.32,39.92,38.3,93.87,0.0,0.0,,,,,,1.0,,,,10.0,,KIGQ 290855Z AUTO 00000KT 10SM CLR 04/04 A3032 RMK AO2  T00440035,,,,,,38.28,,N,29.66,29.73,,Clear
KIGQ,09/29/2018 09:15 UTC,30.32,39.92,38.48,94.53,0.0,0.0,,,,,,1.0,,,,10.0,,KIGQ 290915Z AUTO 00000KT 10SM CLR 04/04 A3032 RMK AO2  T00440036,,,,,,38.46,,N,29.66,29.73,,Clear
KIGQ,09/29/2018 09:35 UTC,30.33,41.0,40.1,96.57,3.44,280.0,,,,,,1.0,,,,10.0,,KIGQ 290935Z AUTO 28003KT 10SM CLR 05/05 A3033 RMK AO2  T00500045,,,,,,40.09,,W,29.67,29.69,,Clear
KIGQ,09/29/2018 09:55 UTC,30.33,41.18,39.56,93.9,3.44,270.0,,,,,,1.0,,,,10.0,,KIGQ 290955Z AUTO 27003KT 10SM CLR 05/04 A3033 RMK AO2  T00510042,,,,,,39.54,,W,29.67,29.7,,Clear
KIGQ,09/29/2018 10:15 UTC,30.34,39.2,37.58,93.85,0.0,0.0,,,,,,1.0,,,,10.0,,KIGQ 291015Z AUTO 00000KT 10SM CLR 04/03 A3034 RMK AO2  T00400031,,,,,,37.56,,N,29.68,29.77,,Clear
KIGQ,09/29/2018 10:35 UTC,30.34,40.28,38.84,94.54,3.44,280.0,,,,,,1.0,,,,10.0,,KIGQ 291035Z AUTO 28003KT 10SM CLR 05/04 A3034 RMK AO2  T00460038,,,,,,38.82,,W,29.68,29.74,,Clear
KIGQ,09/29/2018 10:55 UTC,30.34,40.28,38.66,93.88,3.44,300.0,,,,,,1.0,,,,10.0,,KIGQ 291055Z AUTO 30003KT 10SM CLR 05/04 A3034 RMK AO2  T00460037,,,,,,38.64,,WNW,29.68,29.74,,Clear
KIGQ,09/29/2018 11:15 UTC,30.36,40.1,38.3,93.21,3.44,310.0,,,,,,1.0,,,,10.0,,KIGQ 291115Z AUTO 31003KT 10SM CLR 05/04 A3036 RMK AO2  T00450035,,,,,,38.27,,NW,29.7,29.77,,Clear
KIGQ,09/29/2018 11:35 UTC,30.36,40.46,38.48,92.57,0.0,0.0,,,,,,1.0,,,,10.0,,KIGQ 291135Z AUTO 00000KT 10SM CLR 05/04 A3036 RMK AO2  T00470036,,,,,,38.45,,N,29.7,29.76,,Clear
KIGQ,09/29/2018 11:55 UTC,30.36,40.46,38.12,91.27,3.44,330.0,,,,,,1.0,,,,10.0,,KIGQ 291155Z AUTO 33003KT 10SM CLR 05/03 A3036 RMK AO2 T00470034  10073 20040,45.14,39.2,,,,38.08,,NNW,29.7,29.77,,Clear
KIGQ,09/29/2018 12:15 UTC,30.36,41.9,38.48,87.55,0.0,0.0,,,,,,1.0,,,,10.0,,KIGQ 291215Z AUTO 00000KT 10SM CLR 06/04 A3036 RMK AO2  T00550036,,,,,,38.43,,N,29.7,29.75,,Clear
KIGQ,09/29/2018 12:35 UTC,30.37,42.08,38.66,87.56,0.0,0.0,,,,,,1.0,,,,10.0,,KIGQ 291235Z AUTO 00000KT 10SM CLR 06/04 A3037 RMK AO2  T00560037,,,,,,38.61,,N,29.71,29.76,,Clear
KIGQ,09/29/2018 12:55 UTC,30.37,42.8,40.1,90.09,0.0,0.0,,,,,,1102.0,,,,10.0,,KIGQ 291255Z AUTO 00000KT 10SM SCT110 06/05 A3037 RMK AO2  T00600045,,,,,,40.06,,N,29.71,29.72,,Partly Cloudy
KIGQ,09/29/2018 13:15 UTC,30.36,45.86,40.64,81.87,3.44,320.0,,,,,,1103.0,,,,10.0,,KIGQ 291315Z AUTO 32003KT 10SM BKN110 08/05 A3036 RMK AO2  T00770048,,,11000.0,,,40.57,,NW,29.7,29.67,,Mostly Cloudy
KIGQ,09/29/2018 13:35 UTC,30.36,47.3,40.82,78.08,3.44,340.0,,,,,,1004.0,,,,10.0,,KIGQ 291335Z AUTO 34003KT 10SM OVC100 09/05 A3036 RMK AO2  T00850049,,,10000.0,,,40.74,,NNW,29.7,29.66,,Overcast
KIGQ,09/29/2018 13:55 UTC,30.36,48.92,41.9,76.61,0.0,0.0,,,,,,1002.0,,,,10.0,,KIGQ 291355Z AUTO 00000KT 10SM SCT100 09/06 A3036 RMK AO2  T00940055,,,,,,41.82,,N,29.7,29.62,,Partly Cloudy
KIGQ,09/29/2018 14:15 UTC,30.37,51.08,42.98,73.7,0.0,0.0,,,,,,1.0,,,,10.0,,KIGQ 291415Z AUTO 00000KT 10SM CLR 11/06 A3037 RMK AO2  T01060061,,,,,,42.89,,N,29.71,29.58,,Clear
KIGQ,09/29/2018 14:35 UTC,30.38,52.88,43.52,70.41,0.0,0.0,,,,,,1.0,,,,10.0,,KIGQ 291435Z AUTO 00000KT 10SM CLR 12/06 A3038 RMK AO2  T01160064,,,,,,43.42,,N,29.72,29.56,,Clear
KIGQ,09/29/2018 14:55 UTC,30.37,54.32,42.62,64.54,3.44,30.0,,,,,,1.0,,,,10.0,,KIGQ 291455Z AUTO 03003KT 10SM CLR 12/06 A3037 RMK AO2  T01240059,,,,,,42.51,,NNE,29.71,29.56,,Clear
KIGQ,09/29/2018 15:15 UTC,30.38,55.4,36.68,49.23,3.44,360.0,,,,,,1.0,,,,10.0,,KIGQ 291515Z AUTO 36003KT 10SM CLR 13/03 A3038 RMK AO2  T01300026,,,,,,36.52,,N,29.72,29.72,,Clear
KIGQ,09/29/2018 15:35 UTC,30.37,56.84,37.04,47.4,4.61,40.0,,,,,,902.0,,,,10.0,,KIGQ 291535Z AUTO 04004KT 10SM SCT090 14/03 A3037 RMK AO2  T01380028,,,,,,36.89,,NE,29.71,29.69,,Partly Cloudy
KIGQ,09/29/2018 15:55 UTC,30.37,57.38,35.6,43.91,0.0,0.0,,,,,,1.0,,,,10.0,,KIGQ 291555Z AUTO 00000KT 10SM CLR 14/02 A3037 RMK AO2  T01410020,,,,,,35.44,,N,29.71,29.72,,Clear
KIGQ,09/29/2018 16:15 UTC,30.36,57.2,32.18,38.55,0.0,0.0,,,,,,1002.0,,,,10.0,,KIGQ 291615Z AUTO 00000KT 10SM SCT100 14/00 A3036 RMK AO2  T01400001,,,,,,32.01,,N,29.7,29.78,,Partly Cloudy
KIGQ,09/29/2018 16:35 UTC,30.36,57.56,35.06,42.7,0.0,0.0,,,,,,1003.0,,,,10.0,,KIGQ 291635Z AUTO 00000KT 10SM BKN100 14/02 A3036 RMK AO2  T01420017,,,10000.0,,,34.9,,N,29.7,29.72,,Mostly Cloudy
KIGQ,09/29/2018 16:55 UTC,30.36,59.0,36.5,42.94,4.61,20.0,,,,,,1102.0,,,,10.0,,KIGQ 291655Z AUTO 02004KT 10SM SCT110 15/03 A3036 RMK AO2  T01500025,,,,,,36.35,,NNE,29.7,29.68,,Partly Cloudy
KIGQ,09/29/2018 17:15 UTC,30.34,57.92,36.5,44.63,0.0,0.0,,,,,,1002.0,1203.0,,,10.0,,KIGQ 291715Z AUTO 00000KT 10SM SCT100 BKN120 14/03 A3034 RMK AO2  T01440025,,,12000.0,,,36.34,,N,29.68,29.66,,Mostly Cloudy
KIGQ,09/29/2018 17:35 UTC,30.34,58.82,38.48,46.72,4.61,80.0,,,,,,1003.0,1203.0,,,10.0,,KIGQ 291735Z AUTO 08004KT 10SM BKN100 BKN120 15/04 A3034 RMK AO2  T01490036,,,10000.0,,,38.34,,E,29.68,29.61,,Mostly Cloudy
KIGQ,09/29/2018 17:55 UTC,30.34,57.92,37.58,46.57,4.61,40.0,,,,,,903.0,1204.0,,,10.0,,KIGQ 291755Z AUTO 04004KT 10SM BKN090 OVC120 14/03 A3034 RMK AO2  T01440031 10150 20046,59.0,40.28,9000.0,,,37.43,,NE,29.68,29.64,,Overcast
KIGQ,09/29/2018 18:15 UTC,30.33,57.92,37.04,45.59,0.0,0.0,,,,,,904.0,,,,10.0,,KIGQ 291815Z AUTO 00000KT 10SM OVC090 14/03 A3033 RMK AO2  T01440028,,,9000.0,,,36.88,,N,29.67,29.64,,Overcast
KIGQ,09/29/2018 18:35 UTC,30.32,57.74,37.4,46.55,6.91,40.0,,,,,,804.0,,,,10.0,,KIGQ 291835Z AUTO 04006KT 10SM OVC080 14/03 A3032 RMK AO2  T01430030,,,8000.0,,,37.25,,NE,29.66,29.62,,Overcast
KIGQ,09/29/2018 18:55 UTC,30.32,57.74,36.86,45.57,5.75,50.0,,,,,,704.0,,,,10.0,,KIGQ 291855Z AUTO 05005KT 10SM OVC070 14/03 A3032 RMK AO2  T01430027,,,7000.0,,,36.71,,NE,29.66,29.63,,Overcast
KIGQ,09/29/2018 19:15 UTC,30.32,57.92,37.4,46.25,4.61,50.0,,,,,,704.0,,,,10.0,,KIGQ 291915Z AUTO 05004KT 10SM OVC070 14/03 A3032 RMK AO2  T01440030,,,7000.0,,,37.25,,NE,29.66,29.62,,Overcast
KIGQ,09/29/2018 19:35 UTC,30.31,57.38,37.22,46.82,3.44,40.0,,,,,,704.0,,,,10.0,,KIGQ 291935Z AUTO 04003KT 10SM OVC070 14/03 A3031 RMK AO2  T01410029,,,7000.0,,,37.07,,NE,29.65,29.62,,Overcast
KIGQ,09/29/2018 19:55 UTC,30.31,57.02,37.22,47.43,4.61,30.0,,,,,,704.0,,,,10.0,,KIGQ 291955Z AUTO 03004KT 10SM OVC070 14/03 A3031 RMK AO2  T01390029,,,7000.0,,,37.07,,NNE,29.65,29.62,,Overcast
KIGQ,09/29/2018 20:15 UTC,30.31,57.2,37.22,47.12,4.61,50.0,,,,,,704.0,,,,10.0,,KIGQ 292015Z AUTO 05004KT 10SM OVC070 14/03 A3031 RMK AO2  T01400029,,,7000.0,,,37.07,,NE,29.65,29.62,,Overcast
KIGQ,09/29/2018 20:35 UTC,30.31,56.66,38.12,49.78,5.75,30.0,,,,,,604.0,,,,10.0,,KIGQ 292035Z AUTO 03005KT 10SM OVC060 14/03 A3031 RMK AO2  T01370034,,,6000.0,,,37.97,,NNE,29.65,29.6,,Overcast
KIGQ,09/29/2018 20:55 UTC,30.3,56.48,37.58,49.05,6.91,60.0,,,,,,604.0,,,,10.0,,KIGQ 292055Z AUTO 06006KT 10SM OVC060 14/03 A3030 RMK AO2  T01360031,,,6000.0,,,37.43,,ENE,29.64,29.61,,Overcast
KIGQ,09/29/2018 21:15 UTC,30.3,56.48,37.76,49.4,3.44,40.0,,,,,,604.0,,,,10.0,,KIGQ 292115Z AUTO 04003KT 10SM OVC060 14/03 A3030 RMK AO2  T01360032,,,6000.0,,,37.61,,NE,29.64,29.6,,Overcast
KIGQ,09/29/2018 21:35 UTC,30.3,56.3,37.22,48.68,6.91,50.0,,,,,,604.0,,,,10.0,,KIGQ 292135Z AUTO 05006KT 10SM OVC060 14/03 A3030 RMK AO2  T01350029,,,6000.0,,,37.07,,NE,29.64,29.62,,Overcast
KIGQ,09/29/2018 21:55 UTC,30.29,56.3,37.94,50.08,8.05,50.0,,,,,,604.0,,,,10.0,,KIGQ 292155Z AUTO 05007KT 10SM OVC060 14/03 A3029 RMK AO2  T01350033,,,6000.0,,,37.79,,NE,29.63,29.59,,Overcast
KIGQ,09/29/2018 22:15 UTC,30.28,55.94,38.3,51.45,6.91,50.0,,,,,,604.0,,,,10.0,,KIGQ 292215Z AUTO 05006KT 10SM OVC060 13/04 A3028 RMK AO2  T01330035,,,6000.0,,,38.15,,NE,29.62,29.57,,Overcast
KIGQ,09/29/2018 22:35 UTC,30.27,55.76,38.12,51.43,8.05,80.0,,,,,,604.0,,,,10.0,,KIGQ 292235Z AUTO 08007KT 10SM OVC060 13/03 A3027 RMK AO2  T01320034,,,6000.0,,,37.98,,E,29.61,29.57,,Overcast
KIGQ,09/29/2018 22:55 UTC,30.26,55.4,39.02,53.97,6.91,100.0,,,,,,604.0,,,,10.0,,KIGQ 292255Z AUTO 10006KT 10SM OVC060 13/04 A3026 RMK AO2  T01300039,,,6000.0,,,38.88,,E,29.6,29.54,,Overcast
KIGQ,09/29/2018 23:15 UTC,30.26,55.58,38.84,53.24,5.75,70.0,,,,,,604.0,,,,10.0,,KIGQ 292315Z AUTO 07005KT 10SM OVC060 13/04 A3026 RMK AO2  T01310038,,,6000.0,,,38.7,,ENE,29.6,29.54,,Overcast
KIGQ,09/29/2018 23:35 UTC,30.28,55.58,39.56,54.76,3.44,20.0,,,,,,604.0,,,,10.0,,KIGQ 292335Z AUTO 02003KT 10SM OVC060 13/04 A3028 RMK AO2  T01310042,,,6000.0,,,39.42,,NNE,29.62,29.54,,Overcast
KIGQ,09/29/2018 23:55 UTC,30.29,55.4,40.1,56.29,0.0,0.0,,,,,,604.0,,,,10.0,,KIGQ 292355Z AUTO 00000KT 10SM OVC060 13/05 A3029 RMK AO2  T01300045 10146 20130,58.28,55.4,6000.0,,,39.97,,N,29.63,29.54,,Overcast
KIGQ,09/30/2018 00:15 UTC,30.27,54.68,41.54,61.1,4.61,110.0,,,,,,604.0,,,,10.0,,KIGQ 300015Z AUTO 11004KT 10SM OVC060 13/05 A3027 RMK AO2  T01260053,,,6000.0,,,41.42,,ESE,29.61,29.49,,Overcast
KIGQ,09/30/2018 00:35 UTC,30.27,55.04,40.82,58.65,3.44,80.0,,,,,,504.0,,,,10.0,,KIGQ 300035Z AUTO 08003KT 10SM OVC050 13/05 A3027 RMK AO2  T01280049,,,5000.0,,,40.69,,E,29.61,29.5,,Overcast
KIGQ,09/30/2018 00:55 UTC,30.29,55.4,41.0,58.29,3.44,20.0,,,,,,504.0,,,,10.0,,KIGQ 300055Z AUTO 02003KT 10SM OVC050 13/05 A3029 RMK AO2  T01300050,,,5000.0,,,40.87,,NNE,29.63,29.52,,Overcast
KIGQ,09/30/2018 01:15 UTC,30.29,54.68,42.44,63.26,4.61,30.0,,1.0,,,,504.0,,,,10.0,,KIGQ 300115Z AUTO 03004KT 10SM RA OVC050 13/06 A3029 RMK AO2  T01260058,,,5000.0,,,42.33,,NNE,29.63,29.48,,Rain
KIGQ,09/30/2018 01:35 UTC,30.28,54.14,44.24,69.12,4.61,90.0,,13.0,,,,504.0,,,,10.0,,KIGQ 300135Z AUTO 09004KT 10SM -RA OVC050 12/07 A3028 RMK AO2  T01230068,,,5000.0,,,44.15,,E,29.62,29.43,,Light Rain
KIGQ,09/30/2018 01:55 UTC,30.27,53.96,43.88,68.62,5.75,70.0,,,,,,504.0,,,,10.0,,KIGQ 300155Z AUTO 07005KT 10SM OVC050 12/07 A3027 RMK AO2  T01220066,,,5000.0,,,43.78,,ENE,29.61,29.43,,Overcast
KIGQ,09/30/2018 02:15 UTC,30.26,53.6,44.96,72.45,5.75,100.0,,,,,,484.0,,,,10.0,,KIGQ 300215Z AUTO 10005KT 10SM OVC048 12/07 A3026 RMK AO2  T01200072,,,4800.0,,,44.87,,E,29.6,29.39,,Overcast
KIGQ,09/30/2018 02:35 UTC,30.26,53.78,44.24,70.03,5.75,100.0,,,,,,454.0,,,,10.0,,KIGQ 300235Z AUTO 10005KT 10SM OVC045 12/07 A3026 RMK AO2  T01210068,,,4500.0,,,44.15,,E,29.6,29.41,,Overcast
KIGQ,09/30/2018 02:55 UTC,30.26,53.96,42.8,65.84,6.91,60.0,,,,,,434.0,,,,10.0,,KIGQ 300255Z AUTO 06006KT 10SM OVC043 12/06 A3026 RMK AO2  T01220060,,,4300.0,,,42.69,,ENE,29.6,29.45,,Overcast
KIGQ,09/30/2018 03:15 UTC,30.26,52.7,44.6,73.87,5.75,90.0,,13.0,,,,454.0,,,,10.0,,KIGQ 300315Z AUTO 09005KT 10SM -RA OVC045 12/07 A3026 RMK AO2  T01150070,,,4500.0,,,44.52,,E,29.6,29.41,,Light Rain
KIGQ,09/30/2018 03:35 UTC,30.25,52.88,43.88,71.39,4.61,80.0,,17.0,,,,474.0,,,,10.0,,KIGQ 300335Z AUTO 08004KT 10SM -DZ OVC047 12/07 A3025 RMK AO2  T01160066,,,4700.0,,,43.79,,E,29.59,29.42,,Light Drizzle
KIGQ,09/30/2018 03:55 UTC,30.25,52.7,43.16,69.91,5.75,90.0,,,,,,454.0,,,,10.0,,KIGQ 300355Z AUTO 09005KT 10SM OVC045 12/06 A3025 RMK AO2  T01150062,,,4500.0,,,43.06,,E,29.59,29.44,,Overcast
KIGQ,09/30/2018 04:15 UTC,30.25,53.06,39.92,60.88,6.91,70.0,,,,,,454.0,,,,10.0,,KIGQ 300415Z AUTO 07006KT 10SM OVC045 12/04 A3025 RMK AO2  T01170044,,,4500.0,,,39.79,,ENE,29.59,29.52,,Overcast
KIGQ,09/30/2018 04:35 UTC,30.24,52.7,39.92,61.69,8.05,90.0,,17.0,,,,454.0,,,,10.0,,KIGQ 300435Z AUTO 09007KT 10SM -DZ OVC045 12/04 A3024 RMK AO2  T01150044,,,4500.0,,,39.8,,E,29.58,29.51,,Light Drizzle
KIGQ,09/30/2018 04:55 UTC,30.25,53.06,39.74,60.45,5.75,80.0,,,,,,434.0,,,,10.0,,KIGQ 300455Z AUTO 08005KT 10SM OVC043 12/04 A3025 RMK AO2  T01170043,,,4300.0,,,39.61,,E,29.59,29.53,,Overcast
KIGQ,09/30/2018 05:15 UTC,30.24,52.7,40.28,62.56,4.61,100.0,,,,,,434.0,,,,10.0,,KIGQ 300515Z AUTO 10004KT 10SM OVC043 12/05 A3024 RMK AO2  T01150046,,,4300.0,,,40.16,,E,29.58,29.51,,Overcast
KIGQ,09/30/2018 05:35 UTC,30.24,52.7,40.28,62.56,5.75,70.0,,,,,,434.0,,,,10.0,,KIGQ 300535Z AUTO 07005KT 10SM OVC043 12/05 A3024 RMK AO2  T01150046,,,4300.0,,,40.16,,ENE,29.58,29.51,,Overcast
KIGQ,09/30/2018 05:55 UTC,30.23,52.7,40.28,62.56,4.61,70.0,,,,,,434.0,,,,10.0,,KIGQ 300555Z AUTO 07004KT 10SM OVC043 12/05 A3023 RMK AO2  T01150046 10130 20115 401500040,55.4,52.7,4300.0,59.0,39.2,40.16,,ENE,29.57,29.5,,Overcast
KIGQ,09/30/2018 06:15 UTC,30.24,52.34,41.0,65.19,5.75,60.0,,,,,,454.0,,,,10.0,,KIGQ 300615Z AUTO 06005KT 10SM OVC045 11/05 A3024 RMK AO2  T01130050,,,4500.0,,,40.89,,ENE,29.58,29.49,,Overcast
KIGQ,09/30/2018 06:35 UTC,30.24,52.16,40.64,64.71,4.61,60.0,,,,,,454.0,,,,10.0,,KIGQ 300635Z AUTO 06004KT 10SM OVC045 11/05 A3024 RMK AO2  T01120048,,,4500.0,,,40.52,,ENE,29.58,29.5,,Overcast
KIGQ,09/30/2018 06:55 UTC,30.22,52.16,40.64,64.71,4.61,90.0,,,,,,453.0,654.0,,,10.0,,KIGQ 300655Z AUTO 09004KT 10SM BKN045 OVC065 11/05 A3022 RMK AO2  T01120048,,,4500.0,,,40.52,,E,29.56,29.48,,Overcast
KIGQ,09/30/2018 07:15 UTC,30.23,52.16,41.0,65.62,3.44,50.0,,,,,,433.0,654.0,,,10.0,,KIGQ 300715Z AUTO 05003KT 10SM BKN043 OVC065 11/05 A3023 RMK AO2  T01120050,,,4300.0,,,40.89,,NE,29.57,29.48,,Overcast
KIGQ,09/30/2018 07:35 UTC,30.22,51.98,41.54,67.45,3.44,50.0,,,,,,434.0,,,,10.0,,KIGQ 300735Z AUTO 05003KT 10SM OVC043 11/05 A3022 RMK AO2  T01110053,,,4300.0,,,41.43,,NE,29.56,29.46,,Overcast
KIGQ,09/30/2018 07:55 UTC,30.21,51.98,41.36,66.98,3.44,60.0,,,,,,434.0,,,,10.0,,KIGQ 300755Z AUTO 06003KT 10SM OVC043 11/05 A3021 RMK AO2  T01110052,,,4300.0,,,41.25,,ENE,29.55,29.45,,Overcast
KIGQ,09/30/2018 08:15 UTC,30.22,51.8,41.72,68.37,3.44,50.0,,,,,,434.0,,,,10.0,,KIGQ 300815Z AUTO 05003KT 10SM OVC043 11/05 A3022 RMK AO2  T01100054,,,4300.0,,,41.62,,NE,29.56,29.45,,Overcast
KIGQ,09/30/2018 08:35 UTC,30.21,51.8,42.08,69.33,4.61,70.0,,13.0,,,,433.0,494.0,,,10.0,,KIGQ 300835Z AUTO 07004KT 10SM -RA BKN043 OVC049 11/06 A3021 RMK AO2 T01100056,,,4300.0,,,41.98,,ENE,29.55,29.43,,Light Rain
KIGQ,09/30/2018 08:55 UTC,30.22,51.62,43.34,73.25,0.0,0.0,,,,,,393.0,494.0,,,10.0,,KIGQ 300855Z AUTO 00000KT 10SM BKN039 OVC049 11/06 A3022 RMK AO2  T01090063,,,3900.0,,,43.25,,N,29.56,29.41,,Overcast
KIGQ,09/30/2018 09:15 UTC,30.21,51.44,43.16,73.23,3.44,30.0,,,474.0,,,322.0,423.0,,,10.0,,KIGQ 300915Z AUTO 03003KT 10SM SCT032 BKN042 OVC047 11/06 A3021 RMK AO2 T01080062,,,4200.0,,,43.07,,NNE,29.55,29.41,,Overcast
KIGQ,09/30/2018 09:35 UTC,30.21,51.44,43.7,74.76,5.75,40.0,,,,,,404.0,,,,10.0,,KIGQ 300935Z AUTO 04005KT 10SM OVC040 11/07 A3021 RMK AO2  T01080065,,,4000.0,,,43.62,,NE,29.55,29.39,,Overcast
KIGQ,09/30/2018 09:55 UTC,30.21,51.62,43.88,74.78,3.44,40.0,,,,,,404.0,,,,10.0,,KIGQ 300955Z AUTO 04003KT 10SM OVC040 11/07 A3021 RMK AO2  T01090066,,,4000.0,,,43.8,,NE,29.55,29.39,,Overcast
KIGQ,09/30/2018 10:15 UTC,30.22,51.8,44.06,74.8,4.61,40.0,,,,,,404.0,,,,10.0,,KIGQ 301015Z AUTO 04004KT 10SM OVC040 11/07 A3022 RMK AO2  T01100067,,,4000.0,,,43.98,,NE,29.56,29.39,,Overcast
KIGQ,09/30/2018 10:35 UTC,30.21,52.16,44.6,75.35,0.0,0.0,,13.0,,,,384.0,,,,10.0,,KIGQ 301035Z AUTO 00000KT 10SM -RA OVC038 11/07 A3021 RMK AO2  T01120070,,,3800.0,,,44.52,,N,29.55,29.36,,Light Rain
KIGQ,09/30/2018 10:55 UTC,30.21,52.34,44.78,75.36,5.75,80.0,,,,,,384.0,,,,10.0,,KIGQ 301055Z AUTO 08005KT 10SM OVC038 11/07 A3021 RMK AO2  T01130071,,,3800.0,,,44.7,,E,29.55,29.35,,Overcast
KIGQ,09/30/2018 11:15 UTC,30.21,52.34,44.96,75.88,4.61,90.0,,,,,,384.0,,,,10.0,,KIGQ 301115Z AUTO 09004KT 10SM OVC038 11/07 A3021 RMK AO2  T01130072,,,3800.0,,,44.88,,E,29.55,29.35,,Overcast
KIGQ,09/30/2018 11:35 UTC,30.21,52.7,44.42,73.36,4.61,90.0,,,,,,403.0,474.0,,,10.0,,KIGQ 301135Z AUTO 09004KT 10SM BKN040 OVC047 12/07 A3021 RMK AO2  T01150069,,,4000.0,,,44.33,,E,29.55,29.36,,Overcast
KIGQ,09/30/2018 11:55 UTC,30.2,52.16,44.78,75.86,4.61,100.0,,,804.0,,,402.0,653.0,,,10.0,,KIGQ 301155Z AUTO 10004KT 10SM SCT040 BKN065 OVC080 11/07 A3020 RMK AO2 T01120071 10115 20108,52.7,51.44,6500.0,,,44.7,,E,29.54,29.35,,Overcast
KIGQ,09/30/2018 12:15 UTC,30.2,51.8,44.96,77.41,3.44,110.0,,,,,,652.0,803.0,,,10.0,,KIGQ 301215Z AUTO 11003KT 10SM SCT065 BKN080 11/07 A3020 RMK AO2  T01100072,,,8000.0,,,44.89,,ESE,29.54,29.34,,Mostly Cloudy
KIGQ,09/30/2018 12:35 UTC,30.2,52.7,45.68,76.96,3.44,130.0,,,,,,503.0,804.0,,,10.0,,KIGQ 301235Z AUTO 13003KT 10SM BKN050 OVC080 12/08 A3020 RMK AO2  T01150076,,,5000.0,,,45.61,,SE,29.54,29.31,,Overcast
KIGQ,09/30/2018 12:55 UTC,30.2,52.7,46.4,79.08,3.44,140.0,,,,,,403.0,504.0,,,10.0,,KIGQ 301255Z AUTO 14003KT 10SM BKN040 OVC050 12/08 A3020 RMK AO2  T01150080,,,4000.0,,,46.33,,SE,29.54,29.29,,Overcast
KIGQ,09/30/2018 13:15 UTC,30.19,53.78,47.12,78.11,3.44,160.0,,,,,,403.0,,,,10.0,,KIGQ 301315Z AUTO 16003KT 10SM BKN040 12/08 A3019 RMK AO2  T01210084,,,4000.0,,,47.05,,SSE,29.53,29.25,,Mostly Cloudy
KIGQ,09/30/2018 13:35 UTC,30.19,54.68,48.02,78.19,3.44,160.0,,,,,,502.0,803.0,,,10.0,,KIGQ 301335Z AUTO 16003KT 10SM SCT050 BKN080 13/09 A3019 RMK AO2  T01260089,,,8000.0,,,47.96,,SSE,29.53,29.21,,Mostly Cloudy
KIGQ,09/30/2018 13:55 UTC,30.19,57.56,50.0,75.86,0.0,0.0,,,,,,502.0,802.0,,,10.0,,KIGQ 301355Z AUTO 00000KT 10SM SCT050 SCT080 14/10 A3019 RMK AO2  T01420100,,,,,,49.94,,N,29.53,29.12,,Partly Cloudy
KIGQ,09/30/2018 14:15 UTC,30.19,60.62,52.34,74.15,6.91,190.0,,,,,,1.0,,,,10.0,,KIGQ 301415Z AUTO 19006KT 10SM CLR 16/11 A3019 RMK AO2  T01590113,,,,,,52.28,,S,29.53,29.0,,Clear
KIGQ,09/30/2018 14:35 UTC,30.19,62.78,53.96,72.91,6.91,200.0,,,,,,1.0,,,,10.0,,KIGQ 301435Z AUTO 20006KT 10SM CLR 17/12 A3019 RMK AO2  T01710122,,,,,,53.9,,SSW,29.53,28.91,,Clear
KIGQ,09/30/2018 14:55 UTC,30.18,65.48,55.76,70.84,9.22,190.0,,,,,,1.0,,,,10.0,,KIGQ 301455Z AUTO 19008KT 10SM CLR 19/13 A3018 RMK AO2  T01860132,,,,,,55.71,,S,29.52,28.79,,Clear
KIGQ,09/30/2018 15:15 UTC,30.17,67.28,56.66,68.77,11.5,200.0,,,,,,1.0,,,,10.0,,KIGQ 301515Z AUTO 20010KT 10SM CLR 20/14 A3017 RMK AO2  T01960137,,,,,,56.61,,SSW,29.51,28.72,,Clear
KIGQ,09/30/2018 15:35 UTC,30.17,68.72,57.38,67.17,11.5,210.0,18.41,,,,,1.0,,,,10.0,,KIGQ 301535Z AUTO 21010G16KT 10SM CLR 20/14 A3017 RMK AO2  T02040141,,,,,,57.33,,SSW,29.51,28.67,,Clear
KIGQ,09/30/2018 15:55 UTC,30.17,70.52,58.1,64.83,10.36,240.0,,,,,,1.0,,,,10.0,,KIGQ 301555Z AUTO 24009KT 10SM CLR 21/15 A3017 RMK AO2  T02140145,,,,,,58.06,,WSW,29.51,28.61,,Clear
KIGQ,09/30/2018 16:15 UTC,30.17,70.7,58.64,65.69,8.05,240.0,,,,,,853.0,,,,10.0,,KIGQ 301615Z AUTO 24007KT 10SM BKN085 22/15 A3017 RMK AO2  T02150148,,,8500.0,,,58.6,,WSW,29.51,28.58,,Mostly Cloudy
KIGQ,09/30/2018 16:35 UTC,30.17,72.5,59.18,63.01,11.5,260.0,,,,,,852.0,,,,10.0,,KIGQ 301635Z AUTO 26010KT 10SM SCT085 23/15 A3017 RMK AO2  T02250151,,,,,,59.15,,W,29.51,28.53,,Partly Cloudy
KIGQ,09/30/2018 16:55 UTC,30.16,73.04,59.36,62.28,9.22,260.0,,,,,,852.0,,,,10.0,,KIGQ 301655Z AUTO 26008KT 10SM SCT085 23/15 A3016 RMK AO2  T02280152,,,,,,59.33,,W,29.5,28.51,,Partly Cloudy
KIGQ,09/30/2018 17:15 UTC,30.16,73.58,59.72,61.95,10.36,260.0,,,,,,453.0,853.0,,,10.0,,KIGQ 301715Z AUTO 26009KT 10SM BKN045 BKN085 23/15 A3016 RMK AO2  T02310154,,,4500.0,,,59.69,,W,29.5,28.48,,Mostly Cloudy
KIGQ,09/30/2018 17:35 UTC,30.16,72.86,59.9,63.87,9.22,260.0,,,,,,453.0,704.0,,,10.0,,KIGQ 301735Z AUTO 26008KT 10SM BKN045 OVC070 23/16 A3016 RMK AO2  T02270155,,,4500.0,,,59.87,,W,29.5,28.48,,Overcast
KIGQ,09/30/2018 17:55 UTC,30.15,74.12,60.26,62.02,5.75,230.0,,,803.0,,,502.0,703.0,,,10.0,,KIGQ 301755Z AUTO 23005KT 10SM SCT050 BKN070 BKN080 23/16 A3015 RMK AO2 T02340157 10235 20110,74.3,51.8,7000.0,,,60.24,,SW,29.49,28.44,,Mostly Cloudy
KIGQ,09/30/2018 18:15 UTC,30.15,75.2,60.62,60.59,9.22,280.0,,,,,,502.0,803.0,,,10.0,,KIGQ 301815Z AUTO 28008KT 10SM SCT050 BKN080 24/16 A3015 RMK AO2  T02400159,,,8000.0,,,60.6,,W,29.49,28.41,,Mostly Cloudy
KIGQ,09/30/2018 18:35 UTC,30.14,75.38,61.34,61.79,6.91,280.0,,,,,,502.0,803.0,,,10.0,,KIGQ 301835Z AUTO 28006KT 10SM SCT050 BKN080 24/16 A3014 RMK AO2  T02410163,,,8000.0,,,61.33,,W,29.48,28.35,,Mostly Cloudy
KIGQ,09/30/2018 18:55 UTC,30.13,75.2,60.8,60.98,5.75,300.0,,,,,,504.0,,,,10.0,,KIGQ 301855Z AUTO 30005KT 10SM OVC050 24/16 A3013 RMK AO2  T02400160,,,5000.0,,,60.78,,WNW,29.47,28.37,,Overcast
KIGQ,09/30/2018 19:15 UTC,30.13,76.28,61.16,59.59,5.75,280.0,,,,,,432.0,503.0,,,10.0,,KIGQ 301915Z AUTO 28005KT 10SM SCT043 BKN050 25/16 A3013 RMK AO2  T02460162,,,5000.0,,,61.15,,W,29.47,28.34,,Mostly Cloudy
KIGQ,09/30/2018 19:35 UTC,30.12,76.46,61.7,60.37,6.91,300.0,,,,,,452.0,502.0,,,10.0,,KIGQ 301935Z AUTO 30006KT 10SM SCT045 SCT050 25/17 A3012 RMK AO2  T02470165,,,,,,61.69,,WNW,29.47,28.31,,Partly Cloudy
KIGQ,09/30/2018 19:55 UTC,30.12,76.28,61.88,61.12,6.91,320.0,,,,,,503.0,,,,10.0,,KIGQ 301955Z AUTO 32006KT 10SM BKN050 25/17 A3012 RMK AO2  T02460166,,,5000.0,,,61.87,,NW,29.47,28.3,,Mostly Cloudy
KIGQ,09/30/2018 20:15 UTC,30.13,76.28,62.06,61.51,5.75,280.0,,,,,,502.0,552.0,,,10.0,,KIGQ 302015Z AUTO 28005KT 10SM SCT050 SCT055 25/17 A3013 RMK AO2  T02460167,,,,,,62.05,,W,29.47,28.29,,Partly Cloudy
KIGQ,09/30/2018 20:35 UTC,30.13,73.76,59.72,61.58,8.05,10.0,,,,,,652.0,,,,10.0,,KIGQ 302035Z AUTO 01007KT 10SM SCT065 23/15 A3013 RMK AO2  T02320154,,,,,,59.69,,N,29.47,28.45,,Partly Cloudy
KIGQ,09/30/2018 20:55 UTC,30.13,69.8,58.1,66.43,8.05,30.0,,,,,,653.0,,,,10.0,,KIGQ 302055Z AUTO 03007KT 10SM BKN065 21/15 A3013 RMK AO2  T02100145,,,6500.0,,,58.06,,NNE,29.47,28.58,,Mostly Cloudy
KIGQ,09/30/2018 21:15 UTC,30.13,69.98,58.1,66.03,8.05,40.0,,,,,,552.0,,,,10.0,,KIGQ 302115Z AUTO 04007KT 10SM SCT055 21/15 A3013 RMK AO2  T02110145,,,,,,58.06,,NE,29.47,28.58,,Partly Cloudy
KIGQ,09/30/2018 21:35 UTC,30.14,67.46,57.38,70.14,6.91,40.0,,,,,,753.0,,,,10.0,,KIGQ 302135Z AUTO 04006KT 10SM BKN075 20/14 A3014 RMK AO2  T01970141,,,7500.0,,,57.33,,NE,29.48,28.65,,Mostly Cloudy
KIGQ,09/30/2018 21:55 UTC,30.14,66.38,57.38,72.8,8.05,20.0,,,,,,552.0,754.0,,,10.0,,KIGQ 302155Z AUTO 02007KT 10SM SCT055 OVC075 19/14 A3014 RMK AO2  T01910141,,,7500.0,,,57.33,,NNE,29.48,28.66,,Overcast
KIGQ,09/30/2018 22:15 UTC,30.14,64.94,57.56,77.03,6.91,30.0,,,,,,552.0,754.0,,,10.0,,KIGQ 302215Z AUTO 03006KT 10SM SCT055 OVC075 18/14 A3014 RMK AO2  T01830142,,,7500.0,,,57.52,,NNE,29.48,28.67,,Overcast
KIGQ,09/30/2018 22:35 UTC,30.14,63.68,57.56,80.49,8.05,40.0,,,,,,754.0,,,,10.0,,KIGQ 302235Z AUTO 04007KT 10SM OVC075 18/14 A3014 RMK AO2  T01760142,,,7500.0,,,57.52,,NE,29.48,28.68,,Overcast
KIGQ,09/30/2018 22:55 UTC,30.15,63.14,57.74,82.56,8.05,40.0,,,,,,904.0,,,,10.0,,KIGQ 302255Z AUTO 04007KT 10SM OVC090 17/14 A3015 RMK AO2  T01730143,,,9000.0,,,57.7,,NE,29.49,28.69,,Overcast
KIGQ,09/30/2018 23:15 UTC,30.16,62.6,57.74,84.14,9.22,40.0,,,904.0,,,112.0,652.0,,,10.0,,KIGQ 302315Z AUTO 04008KT 10SM SCT011 SCT065 OVC090 17/14 A3016 RMK AO2 T01700143,,,9000.0,,,57.71,,NE,29.5,28.71,,Overcast
KIGQ,09/30/2018 23:35 UTC,30.16,62.06,57.56,85.2,9.22,30.0,,,,,,113.0,654.0,,,10.0,,KIGQ 302335Z AUTO 03008KT 10SM BKN011 OVC065 17/14 A3016 RMK AO2  T01670142,,,1100.0,,,57.53,,NNE,29.5,28.72,,Overcast
KIGQ,09/30/2018 23:55 UTC,30.16,61.7,57.38,85.73,6.91,20.0,,,,,,114.0,,,,10.0,,KIGQ 302355Z AUTO 02006KT 10SM OVC011 17/14 A3016 RMK AO2  T01650141 10248 20165,76.64,61.7,1100.0,,,57.35,,NNE,29.5,28.73,,Overcast
